<?xml version="1.0" encoding="UTF-8"?>
<osm version="0.6" generator="osmapis">
	<node lat="59.89231388463589" lon="11.864066663827954" id="-18936">
		<tag k="fixme" v="consider natural=peak for the most distinct mountains in the district" />
		<tag k="name" v="Sauåsen" />
		<tag k="natural" v="hill" />
		<tag k="place" v="locality" />
		<tag k="ssr:stedsnr" v="230617" />
	</node>
	<node lat="60.05217222592632" lon="11.989013887821198" id="-18937">
		<tag k="name" v="Lealberget" />
		<tag k="natural" v="hill" />
		<tag k="place" v="locality" />
		<tag k="ssr:stedsnr" v="229905" />
	</node>
	<node lat="59.90556110803708" lon="12.13844721992805" id="-18939">
		<tag k="name" v="Strutmyrhaugen" />
		<tag k="natural" v="hill" />
		<tag k="place" v="locality" />
		<tag k="ssr:stedsnr" v="229908" />
	</node>
	<node lat="59.89308055498995" lon="12.135869439468003" id="-18940">
		<tag k="name" v="Kampetangen" />
		<tag k="natural" v="slope" />
		<tag k="place" v="locality" />
		<tag k="ssr:stedsnr" v="229909" />
	</node>
	<node lat="60.05679444170217" lon="11.852130559084816" id="-18941">
		<tag k="fixme" v="consider natural=peak for the most distinct mountains in the district" />
		<tag k="name" v="Høgmyrhaugen" />
		<tag k="natural" v="hill" />
		<tag k="place" v="locality" />
		<tag k="ssr:stedsnr" v="229877" />
	</node>
	<node lat="60.027425001292976" lon="12.13071944142945" id="-18942">
		<tag k="name" v="Lunderbyenga" />
		<tag k="natural" v="slope" />
		<tag k="place" v="locality" />
		<tag k="ssr:stedsnr" v="229970" />
	</node>
	<node lat="60.06747500278223" lon="12.006974998043264" id="-18947">
		<tag k="fixme" v="consider natural=peak for the most distinct mountains in the district" />
		<tag k="name" v="Hulderberget" />
		<tag k="natural" v="hill" />
		<tag k="place" v="locality" />
		<tag k="ssr:stedsnr" v="229928" />
	</node>
	<node lat="59.941430556125816" lon="11.911341663481059" id="-18951">
		<tag k="name" v="Abbortjennlia" />
		<tag k="natural" v="slope" />
		<tag k="place" v="locality" />
		<tag k="ssr:stedsnr" v="230289" />
	</node>
	<node lat="60.026836108953475" lon="12.04408056253457" id="-18955">
		<tag k="name" v="Halvorshaugen" />
		<tag k="natural" v="hill" />
		<tag k="place" v="locality" />
		<tag k="ssr:stedsnr" v="230499" />
	</node>
	<node lat="59.971016666050105" lon="11.895300007443867" id="-18956">
		<tag k="name" v="Støbråtalia" />
		<tag k="natural" v="slope" />
		<tag k="place" v="locality" />
		<tag k="ssr:stedsnr" v="230850" />
	</node>
	<node lat="60.07910000108413" lon="11.932644450345718" id="-18957">
		<tag k="fixme" v="consider natural=peak for the most distinct mountains in the district" />
		<tag k="name" v="Holmåsen" />
		<tag k="natural" v="hill" />
		<tag k="place" v="locality" />
		<tag k="ssr:stedsnr" v="230469" />
	</node>
	<node lat="60.04321666999439" lon="12.29904721551675" id="-18958">
		<tag k="name" v="Liberget" />
		<tag k="natural" v="hill" />
		<tag k="place" v="locality" />
		<tag k="ssr:stedsnr" v="5002" />
	</node>
	<node lat="59.98174166659154" lon="12.31599167409818" id="-18961">
		<tag k="name" v="Stormyrberget" />
		<tag k="natural" v="hill" />
		<tag k="place" v="locality" />
		<tag k="ssr:stedsnr" v="5202" />
	</node>
	<node lat="60.04895277493352" lon="12.278716659426019" id="-18963">
		<tag k="name" v="Sundberget" />
		<tag k="natural" v="hill" />
		<tag k="place" v="locality" />
		<tag k="ssr:stedsnr" v="5114" />
	</node>
	<node lat="59.90594444044675" lon="11.862836118060839" id="-18987">
		<tag k="name" v="Nordgårdshøgda" />
		<tag k="natural" v="hill" />
		<tag k="place" v="locality" />
		<tag k="ssr:stedsnr" v="230720" />
	</node>
	<node lat="60.082455553171755" lon="12.008813883308916" id="-18989">
		<tag k="fixme" v="consider natural=peak for the most distinct mountains in the district" />
		<tag k="name" v="Dalsberget" />
		<tag k="natural" v="hill" />
		<tag k="place" v="locality" />
		<tag k="ssr:stedsnr" v="230671" />
	</node>
	<node lat="60.03923610967421" lon="11.906475005538825" id="-18992">
		<tag k="fixme" v="consider natural=peak for the most distinct mountains in the district" />
		<tag k="name" v="Eriksåsen" />
		<tag k="natural" v="hill" />
		<tag k="place" v="locality" />
		<tag k="ssr:stedsnr" v="230819" />
	</node>
	<node lat="60.00058888589462" lon="11.960708325664166" id="-18994">
		<tag k="name" v="Vesle Busjøberget" />
		<tag k="natural" v="hill" />
		<tag k="place" v="locality" />
		<tag k="ssr:stedsnr" v="230748" />
	</node>
	<node lat="60.006686110090236" lon="12.317669445424306" id="-18995">
		<tag k="name" v="Inntaket" />
		<tag k="natural" v="slope" />
		<tag k="place" v="locality" />
		<tag k="ssr:stedsnr" v="230756" />
	</node>
	<node lat="60.061958330695255" lon="12.141880557285877" id="-19002">
		<tag k="name" v="Svenbyberget" />
		<tag k="natural" v="hill" />
		<tag k="place" v="locality" />
		<tag k="ssr:stedsnr" v="36320" />
	</node>
	<node lat="59.89306388706532" lon="12.064266668028116" id="-19005">
		<tag k="name" v="Elgdrågene" />
		<tag k="natural" v="valley" />
		<tag k="place" v="locality" />
		<tag k="ssr:stedsnr" v="47020" />
	</node>
	<node lat="60.07163055997914" lon="12.038686102652674" id="-19010">
		<tag k="fixme" v="consider natural=peak for the most distinct mountains in the district" />
		<tag k="name" v="Berithølberget" />
		<tag k="natural" v="hill" />
		<tag k="place" v="locality" />
		<tag k="ssr:stedsnr" v="47113" />
	</node>
	<node lat="60.103827774002326" lon="12.22947777012111" id="-19011">
		<tag k="fixme" v="consider natural=peak for the most distinct mountains in the district" />
		<tag k="name" v="Kafallåsen" />
		<tag k="natural" v="hill" />
		<tag k="place" v="locality" />
		<tag k="ssr:stedsnr" v="47173" />
	</node>
	<node lat="59.99080277962156" lon="12.20319166312764" id="-19012">
		<tag k="name" v="Årosbråten" />
		<tag k="natural" v="hill" />
		<tag k="place" v="locality" />
		<tag k="ssr:stedsnr" v="47373" />
	</node>
	<node lat="60.002625001859094" lon="12.216602772306345" id="-19013">
		<tag k="name" v="Rinna" />
		<tag k="natural" v="slope" />
		<tag k="place" v="locality" />
		<tag k="ssr:stedsnr" v="47378" />
	</node>
	<node lat="59.97392499736057" lon="12.237383341676635" id="-19014">
		<tag k="name" v="Åserhaget" />
		<tag k="natural" v="hill" />
		<tag k="place" v="locality" />
		<tag k="ssr:stedsnr" v="47383" />
	</node>
	<node lat="60.12820278088201" lon="12.176858335937997" id="-19016">
		<tag k="name" v="Hanssonlia" />
		<tag k="natural" v="slope" />
		<tag k="place" v="locality" />
		<tag k="ssr:stedsnr" v="47480" />
	</node>
	<node lat="59.99587499687688" lon="11.886949993914891" id="-19022">
		<tag k="name" v="Gudmundsbakken" />
		<tag k="natural" v="slope" />
		<tag k="place" v="locality" />
		<tag k="ssr:stedsnr" v="47822" />
	</node>
	<node lat="59.91817222467764" lon="11.867708331259847" id="-19032">
		<tag k="name" v="Buvikholtet" />
		<tag k="natural" v="slope" />
		<tag k="place" v="locality" />
		<tag k="ssr:stedsnr" v="48709" />
	</node>
	<node lat="60.02482222047757" lon="11.93706110483289" id="-19034">
		<tag k="fixme" v="consider natural=peak for the most distinct mountains in the district" />
		<tag k="name" v="Gruvmyråsen" />
		<tag k="natural" v="hill" />
		<tag k="place" v="locality" />
		<tag k="ssr:stedsnr" v="48605" />
	</node>
	<node lat="59.99635832873058" lon="11.924172230469903" id="-19035">
		<tag k="name" v="Hundekollen" />
		<tag k="natural" v="hill" />
		<tag k="place" v="locality" />
		<tag k="ssr:stedsnr" v="48635" />
	</node>
	<node lat="60.01048888557888" lon="12.17102778229979" id="-19038">
		<tag k="name" v="Langbrulia" />
		<tag k="natural" v="slope" />
		<tag k="place" v="locality" />
		<tag k="ssr:stedsnr" v="48976" />
	</node>
	<node lat="59.97089999563747" lon="11.839163894884102" id="-19040">
		<tag k="fixme" v="consider natural=peak for the most distinct mountains in the district" />
		<tag k="name" v="Bestemorhøgda" />
		<tag k="natural" v="hill" />
		<tag k="place" v="locality" />
		<tag k="ssr:stedsnr" v="65074" />
	</node>
	<node lat="60.032814364936655" lon="12.300836400503243" id="-19045">
		<tag k="name" v="Merralia" />
		<tag k="natural" v="hill" />
		<tag k="place" v="locality" />
		<tag k="ssr:stedsnr" v="66022" />
	</node>
	<node lat="59.9486833359837" lon="12.096213884554743" id="-19061">
		<tag k="name" v="Deldalen" />
		<tag k="natural" v="valley" />
		<tag k="place" v="locality" />
		<tag k="ssr:stedsnr" v="66263" />
	</node>
	<node lat="60.011916670123206" lon="12.310208326214061" id="-19072">
		<tag k="name" v="Billingsøberget" />
		<tag k="natural" v="hill" />
		<tag k="place" v="locality" />
		<tag k="ssr:stedsnr" v="248181" />
	</node>
	<node lat="59.984550001963484" lon="12.305177783319873" id="-19075">
		<tag k="name" v="Grevlinghøgda" />
		<tag k="natural" v="hill" />
		<tag k="place" v="locality" />
		<tag k="ssr:stedsnr" v="248186" />
	</node>
	<node lat="59.91065555281244" lon="11.99332499387883" id="-19084">
		<tag k="fixme" v="consider natural=peak for the most distinct mountains in the district" />
		<tag k="name" v="Brenna" />
		<tag k="natural" v="hill" />
		<tag k="place" v="locality" />
		<tag k="ssr:stedsnr" v="248299" />
	</node>
	<node lat="60.01835833688938" lon="12.204716667949501" id="-19105">
		<tag k="fixme" v="consider natural=peak for the most distinct mountains in the district" />
		<tag k="name" v="Kattliåsene" />
		<tag k="natural" v="hill" />
		<tag k="place" v="locality" />
		<tag k="ssr:stedsnr" v="248880" />
	</node>
	<node lat="59.95530555778404" lon="12.29726388243902" id="-19111">
		<tag k="name" v="Breitjennhøgda" />
		<tag k="natural" v="hill" />
		<tag k="place" v="locality" />
		<tag k="ssr:stedsnr" v="108127" />
	</node>
	<node lat="59.97756944490314" lon="12.276224994668999" id="-19112">
		<tag k="name" v="Koiåsen" />
		<tag k="natural" v="slope" />
		<tag k="place" v="locality" />
		<tag k="ssr:stedsnr" v="108132" />
	</node>
	<node lat="60.107591666191546" lon="12.186730563259152" id="-19117">
		<tag k="name" v="Kjerrermdalen" />
		<tag k="natural" v="valley" />
		<tag k="place" v="locality" />
		<tag k="ssr:stedsnr" v="108202" />
	</node>
	<node lat="60.02065555771205" lon="12.221136119905733" id="-19123">
		<tag k="name" v="Sæteren" />
		<tag k="natural" v="hill" />
		<tag k="place" v="locality" />
		<tag k="ssr:stedsnr" v="108376" />
	</node>
	<node lat="59.952277774879676" lon="12.224772223515027" id="-19124">
		<tag k="name" v="Skalbyholtet" />
		<tag k="natural" v="slope" />
		<tag k="place" v="locality" />
		<tag k="ssr:stedsnr" v="108380" />
	</node>
	<node lat="59.929369445255" lon="11.987958335252687" id="-19125">
		<tag k="name" v="Harstadberget" />
		<tag k="natural" v="hill" />
		<tag k="place" v="locality" />
		<tag k="ssr:stedsnr" v="108386" />
	</node>
	<node lat="60.10631388494652" lon="12.146574995991742" id="-19126">
		<tag k="name" v="Tekstebakken" />
		<tag k="natural" v="slope" />
		<tag k="place" v="locality" />
		<tag k="ssr:stedsnr" v="108507" />
	</node>
	<node lat="59.96514166592497" lon="12.095027769662492" id="-19131">
		<tag k="name" v="Runningen" />
		<tag k="natural" v="hill" />
		<tag k="place" v="locality" />
		<tag k="ssr:stedsnr" v="108411" />
	</node>
	<node lat="59.88704999936147" lon="11.873827783796745" id="-19137">
		<tag k="name" v="Tamburberget" />
		<tag k="natural" v="hill" />
		<tag k="place" v="locality" />
		<tag k="ssr:stedsnr" v="108716" />
	</node>
	<node lat="59.9773916645074" lon="12.317313896388656" id="-19147">
		<tag k="name" v="Gauplemmen" />
		<tag k="natural" v="hill" />
		<tag k="place" v="locality" />
		<tag k="ssr:stedsnr" v="109475" />
	</node>
	<node lat="60.01854999906591" lon="11.915202775756859" id="-19149">
		<tag k="fixme" v="consider natural=peak for the most distinct mountains in the district" />
		<tag k="name" v="Bukkåsen" />
		<tag k="natural" v="hill" />
		<tag k="place" v="locality" />
		<tag k="ssr:stedsnr" v="109815" />
	</node>
	<node lat="60.02275555740087" lon="12.270894446437167" id="-19151">
		<tag k="name" v="Røsskjølhøgda" />
		<tag k="natural" v="hill" />
		<tag k="place" v="locality" />
		<tag k="ssr:stedsnr" v="126054" />
	</node>
	<node lat="60.00953610868742" lon="12.291555552826864" id="-19152">
		<tag k="name" v="Pålakkarn" />
		<tag k="natural" v="hill" />
		<tag k="place" v="locality" />
		<tag k="ssr:stedsnr" v="126055" />
	</node>
	<node lat="60.07530555590053" lon="12.230983324601628" id="-19154">
		<tag k="name" v="Gusterudlia" />
		<tag k="natural" v="slope" />
		<tag k="place" v="locality" />
		<tag k="ssr:stedsnr" v="126070" />
	</node>
	<node lat="59.91436944111908" lon="12.015758337284076" id="-19159">
		<tag k="fixme" v="consider natural=peak for the most distinct mountains in the district" />
		<tag k="name" v="Storfuruhøgda" />
		<tag k="natural" v="hill" />
		<tag k="place" v="locality" />
		<tag k="ssr:stedsnr" v="126302" />
	</node>
	<node lat="59.96451389233458" lon="11.972019446733789" id="-19164">
		<tag k="fixme" v="consider natural=peak for the most distinct mountains in the district" />
		<tag k="name" v="Saukollen" />
		<tag k="natural" v="hill" />
		<tag k="place" v="locality" />
		<tag k="ssr:stedsnr" v="126445" />
	</node>
	<node lat="59.963849999410876" lon="12.246269444558694" id="-19181">
		<tag k="name" v="Åbråtan" />
		<tag k="natural" v="slope" />
		<tag k="place" v="locality" />
		<tag k="ssr:stedsnr" v="169072" />
	</node>
	<node lat="59.91031944672319" lon="12.116541674645683" id="-19183">
		<tag k="name" v="Sæterberget" />
		<tag k="natural" v="hill" />
		<tag k="place" v="locality" />
		<tag k="ssr:stedsnr" v="169075" />
	</node>
	<node lat="59.949208330703286" lon="12.25689999601057" id="-19187">
		<tag k="name" v="Topperberget" />
		<tag k="natural" v="hill" />
		<tag k="place" v="locality" />
		<tag k="ssr:stedsnr" v="169219" />
	</node>
	<node lat="60.038019446848374" lon="12.243202778752485" id="-19191">
		<tag k="name" v="Storsmalen" />
		<tag k="natural" v="hill" />
		<tag k="place" v="locality" />
		<tag k="ssr:stedsnr" v="169155" />
	</node>
	<node lat="59.97610277743096" lon="12.088713884944381" id="-19198">
		<tag k="name" v="Mortensjøberget" />
		<tag k="natural" v="ridge" />
		<tag k="place" v="locality" />
		<tag k="ssr:stedsnr" v="169403" />
	</node>
	<node lat="60.042622220865546" lon="12.107230552563893" id="-19199">
		<tag k="name" v="Sølvåsen" />
		<tag k="natural" v="hill" />
		<tag k="place" v="locality" />
		<tag k="ssr:stedsnr" v="169417" />
	</node>
	<node lat="59.91964721957818" lon="11.841099992535945" id="-19203">
		<tag k="fixme" v="consider natural=peak for the most distinct mountains in the district" />
		<tag k="name" v="Bukketjennåsen" />
		<tag k="natural" v="hill" />
		<tag k="place" v="locality" />
		<tag k="ssr:stedsnr" v="169611" />
	</node>
	<node lat="60.0124750044259" lon="12.116169439922613" id="-19207">
		<tag k="name" v="Grasmoengene" />
		<tag k="natural" v="slope" />
		<tag k="place" v="locality" />
		<tag k="ssr:stedsnr" v="169519" />
	</node>
	<node lat="59.92546666997861" lon="11.823949993496438" id="-19212">
		<tag k="fixme" v="consider natural=peak for the most distinct mountains in the district" />
		<tag k="name" v="Sandvikåsen" />
		<tag k="natural" v="hill" />
		<tag k="place" v="locality" />
		<tag k="ssr:stedsnr" v="169715" />
	</node>
	<node lat="59.96786944767869" lon="12.320152774366111" id="-19214">
		<tag k="name" v="Hesjedalen" />
		<tag k="natural" v="valley" />
		<tag k="place" v="locality" />
		<tag k="ssr:stedsnr" v="169838" />
	</node>
	<node lat="59.9990305531356" lon="12.191677776087602" id="-19215">
		<tag k="name" v="Tørkerhøgda" />
		<tag k="natural" v="hill" />
		<tag k="place" v="locality" />
		<tag k="ssr:stedsnr" v="169968" />
	</node>
	<node lat="59.99073333250896" lon="12.315402785511994" id="-19231">
		<tag k="name" v="Middagsberget" />
		<tag k="natural" v="hill" />
		<tag k="place" v="locality" />
		<tag k="ssr:stedsnr" v="187235" />
	</node>
	<node lat="60.05681388806261" lon="12.195127773388469" id="-19235">
		<tag k="fixme" v="consider natural=peak for the most distinct mountains in the district" />
		<tag k="name" v="Svensteinåsen" />
		<tag k="natural" v="hill" />
		<tag k="place" v="locality" />
		<tag k="ssr:stedsnr" v="187633" />
	</node>
	<node lat="60.0669695770379" lon="11.9764296401969" id="-19238">
		<tag k="fixme" v="multiple name tags, choose one and add the other to alt_name; consider natural=peak for the most distinct mountains in the district" />
		<tag k="name" v="Reisbråtehøgda;Maståsen" />
		<tag k="natural" v="hill" />
		<tag k="place" v="locality" />
		<tag k="ssr:stedsnr" v="187673" />
	</node>
	<node lat="60.08012777769588" lon="12.091450003477476" id="-19245">
		<tag k="name" v="Tjernsli" />
		<tag k="natural" v="slope" />
		<tag k="place" v="locality" />
		<tag k="ssr:stedsnr" v="187725" />
	</node>
	<node lat="60.126630559763946" lon="12.250463888098583" id="-19252">
		<tag k="alt_name" v="Mølleberget" />
		<tag k="name" v="Møllerberget" />
		<tag k="natural" v="hill" />
		<tag k="place" v="locality" />
		<tag k="ssr:stedsnr" v="188976" />
	</node>
	<node lat="59.947955554329134" lon="12.126924996839035" id="-19253">
		<tag k="name" v="Sagdalen" />
		<tag k="natural" v="valley" />
		<tag k="place" v="locality" />
		<tag k="ssr:stedsnr" v="263022" />
	</node>
	<node lat="59.91026944169333" lon="12.025552776832608" id="-19257">
		<tag k="name" v="Trostedalene" />
		<tag k="natural" v="valley" />
		<tag k="place" v="locality" />
		<tag k="ssr:stedsnr" v="229033" />
	</node>
	<node lat="59.98077777615244" lon="12.249497225317434" id="-19259">
		<tag k="name" v="Stensrudlia" />
		<tag k="natural" v="slope" />
		<tag k="place" v="locality" />
		<tag k="ssr:stedsnr" v="229184" />
	</node>
	<node lat="60.016666666281616" lon="12.271897224453218" id="-19260">
		<tag k="name" v="Bjørntjennberget" />
		<tag k="natural" v="hill" />
		<tag k="place" v="locality" />
		<tag k="ssr:stedsnr" v="229195" />
	</node>
	<node lat="59.9874277791122" lon="12.27793055282323" id="-19261">
		<tag k="fixme" v="consider natural=peak for the most distinct mountains in the district" />
		<tag k="name" v="Vintertjennåsen" />
		<tag k="natural" v="hill" />
		<tag k="place" v="locality" />
		<tag k="ssr:stedsnr" v="229199" />
	</node>
	<node lat="60.084036112597" lon="12.144902769875394" id="-19264">
		<tag k="name" v="Johansmoen" />
		<tag k="place" v="locality" />
		<tag k="ssr:stedsnr" v="229239" />
	</node>
	<node lat="59.97346944040577" lon="11.93688055800827" id="-19266">
		<tag k="name" v="Sæmyrlia" />
		<tag k="natural" v="slope" />
		<tag k="place" v="locality" />
		<tag k="ssr:stedsnr" v="229292" />
	</node>
	<node lat="60.08805832944528" lon="12.061688880447079" id="-19267">
		<tag k="name" v="Tjuvdalen" />
		<tag k="natural" v="valley" />
		<tag k="place" v="locality" />
		<tag k="ssr:stedsnr" v="229442" />
	</node>
	<node lat="60.01375833159068" lon="12.1647833391569" id="-19268">
		<tag k="name" v="Lørdagsbakkdråga" />
		<tag k="natural" v="valley" />
		<tag k="place" v="locality" />
		<tag k="ssr:stedsnr" v="229506" />
	</node>
	<node lat="60.02491667064687" lon="12.01865832889926" id="-19276">
		<tag k="name" v="Målberget" />
		<tag k="natural" v="hill" />
		<tag k="place" v="locality" />
		<tag k="ssr:stedsnr" v="229998" />
	</node>
	<node lat="60.018025003876595" lon="12.279711107627966" id="-19284">
		<tag k="fixme" v="consider natural=peak for the most distinct mountains in the district" />
		<tag k="name" v="Stornesåsen" />
		<tag k="natural" v="hill" />
		<tag k="place" v="locality" />
		<tag k="ssr:stedsnr" v="230204" />
	</node>
	<node lat="59.89029722212164" lon="11.882236114830972" id="-19290">
		<tag k="name" v="Laumannsberget" />
		<tag k="natural" v="hill" />
		<tag k="place" v="locality" />
		<tag k="ssr:stedsnr" v="230523" />
	</node>
	<node lat="59.909116670204185" lon="11.875777771782348" id="-19295">
		<tag k="name" v="Gørrvikmyra" />
		<tag k="natural" v="valley" />
		<tag k="place" v="locality" />
		<tag k="ssr:stedsnr" v="230696" />
	</node>
	<node lat="59.96426944291286" lon="12.287863883272575" id="-19302">
		<tag k="name" v="Kroktjennhøgda" />
		<tag k="natural" v="hill" />
		<tag k="place" v="locality" />
		<tag k="ssr:stedsnr" v="248213" />
	</node>
	<node lat="59.96607777915424" lon="11.909538892068934" id="-19314">
		<tag k="fixme" v="consider natural=peak for the most distinct mountains in the district" />
		<tag k="name" v="Mortkjølen" />
		<tag k="natural" v="hill" />
		<tag k="place" v="locality" />
		<tag k="ssr:stedsnr" v="248422" />
	</node>
	<node lat="59.97546666768241" lon="11.99254165915156" id="-19316">
		<tag k="fixme" v="consider natural=peak for the most distinct mountains in the district" />
		<tag k="name" v="Teigberget" />
		<tag k="natural" v="hill" />
		<tag k="place" v="locality" />
		<tag k="ssr:stedsnr" v="248471" />
	</node>
	<node lat="60.05000833138718" lon="12.176844439111747" id="-19331">
		<tag k="name" v="Steinerudberget" />
		<tag k="natural" v="hill" />
		<tag k="place" v="locality" />
		<tag k="ssr:stedsnr" v="461340" />
	</node>
	<node lat="59.888277780179344" lon="12.160302772639968" id="-19334">
		<tag k="name" v="Fantefallet" />
		<tag k="natural" v="slope" />
		<tag k="place" v="locality" />
		<tag k="ssr:stedsnr" v="290007" />
	</node>
	<node lat="59.970155555252546" lon="11.976680547194329" id="-19335">
		<tag k="name" v="Vanglia" />
		<tag k="natural" v="slope" />
		<tag k="place" v="locality" />
		<tag k="ssr:stedsnr" v="290014" />
	</node>
	<node lat="60.08261111375633" lon="11.980186117105776" id="-19336">
		<tag k="fixme" v="consider natural=peak for the most distinct mountains in the district" />
		<tag k="name" v="Merraholmen" />
		<tag k="natural" v="hill" />
		<tag k="place" v="locality" />
		<tag k="ssr:stedsnr" v="290106" />
	</node>
	<node lat="60.03359721888457" lon="11.992574991514413" id="-19337">
		<tag k="name" v="Høgåsen" />
		<tag k="natural" v="hill" />
		<tag k="place" v="locality" />
		<tag k="ssr:stedsnr" v="290112" />
	</node>
	<node lat="59.89886388971658" lon="12.024449999323823" id="-19338">
		<tag k="name" v="Kutjennhøgda" />
		<tag k="natural" v="hill" />
		<tag k="place" v="locality" />
		<tag k="ssr:stedsnr" v="290081" />
	</node>
	<node lat="59.95937222357872" lon="11.921577770671774" id="-19340">
		<tag k="name" v="Huldertjenndalen" />
		<tag k="natural" v="valley" />
		<tag k="place" v="locality" />
		<tag k="ssr:stedsnr" v="290281" />
	</node>
	<node lat="59.958944442627576" lon="11.906202785724286" id="-19341">
		<tag k="name" v="Molikkdalen" />
		<tag k="natural" v="valley" />
		<tag k="place" v="locality" />
		<tag k="ssr:stedsnr" v="290284" />
	</node>
	<node lat="59.97047222089845" lon="12.21747222531581" id="-19342">
		<tag k="name" v="Brekkeberget" />
		<tag k="natural" v="hill" />
		<tag k="place" v="locality" />
		<tag k="ssr:stedsnr" v="290427" />
	</node>
	<node lat="59.960913886309115" lon="12.2357944373792" id="-19343">
		<tag k="name" v="Deldalen" />
		<tag k="natural" v="valley" />
		<tag k="place" v="locality" />
		<tag k="ssr:stedsnr" v="290428" />
	</node>
	<node lat="59.9859083365906" lon="11.975533330443033" id="-19347">
		<tag k="name" v="Nordbyslippa" />
		<tag k="natural" v="slope" />
		<tag k="place" v="locality" />
		<tag k="ssr:stedsnr" v="290326" />
	</node>
	<node lat="60.022211113051746" lon="11.947438888514723" id="-19354">
		<tag k="fixme" v="consider natural=peak for the most distinct mountains in the district" />
		<tag k="name" v="Gruveåsen" />
		<tag k="natural" v="hill" />
		<tag k="place" v="locality" />
		<tag k="ssr:stedsnr" v="290578" />
	</node>
	<node lat="59.90617778074093" lon="11.870849997618711" id="-19355">
		<tag k="fixme" v="consider natural=peak for the most distinct mountains in the district" />
		<tag k="name" v="Ugleviknesa" />
		<tag k="natural" v="hill" />
		<tag k="place" v="locality" />
		<tag k="ssr:stedsnr" v="290713" />
	</node>
	<node lat="60.04582777757667" lon="12.17971666811407" id="-19358">
		<tag k="name" v="Skavollbrennene" />
		<tag k="natural" v="slope" />
		<tag k="place" v="locality" />
		<tag k="ssr:stedsnr" v="290477" />
	</node>
	<node lat="60.12454167047654" lon="12.157041673516341" id="-19372">
		<tag k="name" v="Vesle-Knarten" />
		<tag k="natural" v="hill" />
		<tag k="place" v="locality" />
		<tag k="ssr:stedsnr" v="290880" />
	</node>
	<node lat="60.02212777494764" lon="11.969738883017625" id="-19373">
		<tag k="name" v="Grytholtet" />
		<tag k="natural" v="hill" />
		<tag k="place" v="locality" />
		<tag k="ssr:stedsnr" v="290894" />
	</node>
	<node lat="59.926150002246445" lon="12.120777777549817" id="-19383">
		<tag k="fixme" v="consider natural=peak for the most distinct mountains in the district" />
		<tag k="name" v="Knutsbråtehøgda" />
		<tag k="natural" v="hill" />
		<tag k="place" v="locality" />
		<tag k="ssr:stedsnr" v="308300" />
	</node>
	<node lat="59.88827777437098" lon="11.899547214458597" id="-19389">
		<tag k="fixme" v="consider natural=peak for the most distinct mountains in the district" />
		<tag k="name" v="Knollen" />
		<tag k="natural" v="hill" />
		<tag k="place" v="locality" />
		<tag k="ssr:stedsnr" v="309034" />
	</node>
	<node lat="59.965063891150336" lon="12.010105559542035" id="-19390">
		<tag k="fixme" v="consider natural=peak for the most distinct mountains in the district" />
		<tag k="name" v="Korpberget" />
		<tag k="natural" v="hill" />
		<tag k="place" v="locality" />
		<tag k="ssr:stedsnr" v="309037" />
	</node>
	<node lat="59.90718055802423" lon="12.191388894011812" id="-19392">
		<tag k="name" v="Styggedalen" />
		<tag k="natural" v="valley" />
		<tag k="place" v="locality" />
		<tag k="ssr:stedsnr" v="309203" />
	</node>
	<node lat="59.99777778066957" lon="12.271616658539278" id="-19400">
		<tag k="name" v="Korsbjørka" />
		<tag k="place" v="locality" />
		<tag k="ssr:stedsnr" v="472239" />
	</node>
	<node lat="59.92060555351937" lon="12.04837777770146" id="-19409">
		<tag k="fixme" v="consider natural=peak for the most distinct mountains in the district" />
		<tag k="name" v="Svartvikåsen" />
		<tag k="natural" v="hill" />
		<tag k="place" v="locality" />
		<tag k="ssr:stedsnr" v="472039" />
	</node>
	<node lat="59.914049996876244" lon="12.207994436270575" id="-19412">
		<tag k="fixme" v="consider natural=peak for the most distinct mountains in the district" />
		<tag k="name" v="Hakåsen" />
		<tag k="natural" v="hill" />
		<tag k="place" v="locality" />
		<tag k="ssr:stedsnr" v="472052" />
	</node>
	<node lat="60.019147223430956" lon="12.275969447516436" id="-19414">
		<tag k="name" v="Ormebakka" />
		<tag k="natural" v="slope" />
		<tag k="place" v="locality" />
		<tag k="ssr:stedsnr" v="472193" />
	</node>
	<node lat="59.9901972231933" lon="11.876088896544521" id="-19417">
		<tag k="name" v="Kjerringberget" />
		<tag k="natural" v="hill" />
		<tag k="place" v="locality" />
		<tag k="ssr:stedsnr" v="472288" />
	</node>
	<node lat="59.98814166940928" lon="12.21108333884727" id="-19421">
		<tag k="name" v="Nestangen" />
		<tag k="natural" v="slope" />
		<tag k="place" v="locality" />
		<tag k="ssr:stedsnr" v="472347" />
	</node>
	<node lat="59.98904999984075" lon="12.24076943861881" id="-19422">
		<tag k="name" v="Øverby" />
		<tag k="natural" v="slope" />
		<tag k="place" v="locality" />
		<tag k="ssr:stedsnr" v="472348" />
	</node>
	<node lat="59.9215861152564" lon="11.997058333251264" id="-19423">
		<tag k="name" v="Vesleenga" />
		<tag k="natural" v="slope" />
		<tag k="place" v="locality" />
		<tag k="ssr:stedsnr" v="472380" />
	</node>
	<node lat="60.02621389045896" lon="12.321325002589052" id="-19426">
		<tag k="name" v="Flatjennhøgda" />
		<tag k="natural" v="hill" />
		<tag k="place" v="locality" />
		<tag k="ssr:stedsnr" v="472427" />
	</node>
	<node lat="60.03605000240431" lon="12.303591674026128" id="-19427">
		<tag k="name" v="Korsbakkberget" />
		<tag k="natural" v="hill" />
		<tag k="place" v="locality" />
		<tag k="ssr:stedsnr" v="472433" />
	</node>
	<node lat="59.85270555177387" lon="11.861675002049228" id="-19430">
		<tag k="name" v="Lessemyrdalen" />
		<tag k="natural" v="valley" />
		<tag k="place" v="locality" />
		<tag k="ssr:stedsnr" v="472529" />
	</node>
	<node lat="60.03307222511877" lon="11.827405559833926" id="-19436">
		<tag k="name" v="Raggetjennsberget" />
		<tag k="natural" v="hill" />
		<tag k="place" v="locality" />
		<tag k="ssr:stedsnr" v="472680" />
	</node>
	<node lat="60.04656110908755" lon="11.926427780066877" id="-19440">
		<tag k="name" v="Saumyrhøgda" />
		<tag k="natural" v="hill" />
		<tag k="place" v="locality" />
		<tag k="ssr:stedsnr" v="472827" />
	</node>
	<node lat="60.032647220882836" lon="12.301449995220457" id="-19441">
		<tag k="name" v="Merralia" />
		<tag k="natural" v="slope" />
		<tag k="place" v="locality" />
		<tag k="ssr:stedsnr" v="472777" />
	</node>
	<node lat="59.979394448033474" lon="12.237130561427144" id="-19443">
		<tag k="fixme" v="consider natural=peak for the most distinct mountains in the district" />
		<tag k="name" v="Jordbæråsen" />
		<tag k="natural" v="hill" />
		<tag k="place" v="locality" />
		<tag k="ssr:stedsnr" v="472794" />
	</node>
	<node lat="60.03190000344992" lon="12.005052776408645" id="-19444">
		<tag k="name" v="Himmelsåsen" />
		<tag k="natural" v="hill" />
		<tag k="place" v="locality" />
		<tag k="ssr:stedsnr" v="472930" />
	</node>
	<node lat="59.96167222014334" lon="12.01647499798997" id="-19445">
		<tag k="name" v="Korpberglia" />
		<tag k="natural" v="slope" />
		<tag k="place" v="locality" />
		<tag k="ssr:stedsnr" v="472935" />
	</node>
	<node lat="59.98398055352231" lon="12.345299999345922" id="-19446">
		<tag k="name" v="Kletten" />
		<tag k="natural" v="hill" />
		<tag k="place" v="locality" />
		<tag k="ssr:stedsnr" v="472949" />
	</node>
	<node lat="60.02767778017223" lon="11.821113880899926" id="-19447">
		<tag k="fixme" v="consider natural=peak for the most distinct mountains in the district" />
		<tag k="name" v="Høgåsen" />
		<tag k="natural" v="hill" />
		<tag k="old_name" v="Raudmyrkollen" />
		<tag k="place" v="locality" />
		<tag k="ssr:stedsnr" v="344619" />
	</node>
	<node lat="59.956988892564986" lon="12.024666661569217" id="-19452">
		<tag k="name" v="Høgåsholtet" />
		<tag k="natural" v="slope" />
		<tag k="place" v="locality" />
		<tag k="ssr:stedsnr" v="350923" />
	</node>
	<node lat="59.945602774314985" lon="11.981763890528468" id="-19453">
		<tag k="name" v="Engene" />
		<tag k="natural" v="slope" />
		<tag k="place" v="locality" />
		<tag k="ssr:stedsnr" v="350930" />
	</node>
	<node lat="60.01599167118002" lon="11.927841658778478" id="-19457">
		<tag k="fixme" v="consider natural=peak for the most distinct mountains in the district" />
		<tag k="name" v="Manarsteinen" />
		<tag k="natural" v="hill" />
		<tag k="place" v="locality" />
		<tag k="ssr:stedsnr" v="350816" />
	</node>
	<node lat="59.89252499854945" lon="12.103822218745131" id="-19462">
		<tag k="name" v="Knartberget" />
		<tag k="natural" v="hill" />
		<tag k="place" v="locality" />
		<tag k="ssr:stedsnr" v="351161" />
	</node>
	<node lat="60.08755555585285" lon="12.208969440436022" id="-19467">
		<tag k="name" v="Hofjell" />
		<tag k="natural" v="hill" />
		<tag k="place" v="locality" />
		<tag k="ssr:stedsnr" v="351210" />
	</node>
	<node lat="60.00385277517342" lon="12.14048610233641" id="-19473">
		<tag k="name" v="Styggerud" />
		<tag k="natural" v="slope" />
		<tag k="place" v="locality" />
		<tag k="ssr:stedsnr" v="351502" />
	</node>
	<node lat="59.91351111406533" lon="12.011474993182356" id="-19489">
		<tag k="name" v="Djupdalen" />
		<tag k="natural" v="valley" />
		<tag k="place" v="locality" />
		<tag k="ssr:stedsnr" v="369020" />
	</node>
	<node lat="60.00547777648908" lon="11.925166668055544" id="-19520">
		<tag k="fixme" v="consider natural=peak for the most distinct mountains in the district" />
		<tag k="name" v="Karibrenna" />
		<tag k="natural" v="hill" />
		<tag k="place" v="locality" />
		<tag k="ssr:stedsnr" v="411818" />
	</node>
	<node lat="59.89703888979965" lon="12.13483055361572" id="-19521">
		<tag k="name" v="Nybrennberget" />
		<tag k="natural" v="hill" />
		<tag k="place" v="locality" />
		<tag k="ssr:stedsnr" v="411908" />
	</node>
	<node lat="59.932308336005086" lon="11.969447218134793" id="-19522">
		<tag k="name" v="Smørkleiva" />
		<tag k="natural" v="slope" />
		<tag k="place" v="locality" />
		<tag k="ssr:stedsnr" v="411936" />
	</node>
	<node lat="60.077344442264575" lon="12.15636667202669" id="-19525">
		<tag k="name" v="Olasmoen" />
		<tag k="place" v="locality" />
		<tag k="ssr:stedsnr" v="412205" />
	</node>
	<node lat="59.95770555943914" lon="12.257800003052072" id="-19528">
		<tag k="name" v="Sibirien" />
		<tag k="natural" v="slope" />
		<tag k="place" v="locality" />
		<tag k="ssr:stedsnr" v="412218" />
	</node>
	<node lat="59.96844166344713" lon="12.257738891034261" id="-19530">
		<tag k="name" v="Høgbergstein" />
		<tag k="natural" v="hill" />
		<tag k="place" v="locality" />
		<tag k="ssr:stedsnr" v="412222" />
	</node>
	<node lat="59.96843610922373" lon="12.034802782810617" id="-19535">
		<tag k="name" v="Knepperudtoppen" />
		<tag k="natural" v="hill" />
		<tag k="place" v="locality" />
		<tag k="ssr:stedsnr" v="412502" />
	</node>
	<node lat="60.06819444348235" lon="11.97103889164385" id="-19540">
		<tag k="fixme" v="consider natural=peak for the most distinct mountains in the district" />
		<tag k="name" v="Reisbråtan" />
		<tag k="natural" v="hill" />
		<tag k="place" v="locality" />
		<tag k="ssr:stedsnr" v="412339" />
	</node>
	<node lat="59.87507500417659" lon="11.827961113555178" id="-19542">
		<tag k="name" v="Mortsjølunglia" />
		<tag k="natural" v="slope" />
		<tag k="place" v="locality" />
		<tag k="ssr:stedsnr" v="412439" />
	</node>
	<node lat="60.016794445196936" lon="12.294863887514667" id="-19547">
		<tag k="name" v="Vesleneset" />
		<tag k="natural" v="slope" />
		<tag k="place" v="locality" />
		<tag k="ssr:stedsnr" v="412822" />
	</node>
	<node lat="59.97549999964191" lon="11.917774992562697" id="-19548">
		<tag k="name" v="Raserudknollen" />
		<tag k="natural" v="hill" />
		<tag k="place" v="locality" />
		<tag k="ssr:stedsnr" v="412837" />
	</node>
	<node lat="60.04167222661892" lon="12.000705547639013" id="-19550">
		<tag k="name" v="Mikkelsliberget" />
		<tag k="natural" v="hill" />
		<tag k="place" v="locality" />
		<tag k="ssr:stedsnr" v="412910" />
	</node>
	<node lat="59.946627778544425" lon="12.034244448214414" id="-19551">
		<tag k="name" v="Djupdalsberget" />
		<tag k="natural" v="hill" />
		<tag k="place" v="locality" />
		<tag k="ssr:stedsnr" v="412943" />
	</node>
	<node lat="59.87173889225988" lon="11.848613892545325" id="-19552">
		<tag k="name" v="Mortensfallet" />
		<tag k="natural" v="slope" />
		<tag k="place" v="locality" />
		<tag k="ssr:stedsnr" v="412988" />
	</node>
	<node lat="59.921449996858" lon="11.825558326922044" id="-19556">
		<tag k="name" v="Lauvhøgda" />
		<tag k="natural" v="hill" />
		<tag k="place" v="locality" />
		<tag k="ssr:stedsnr" v="490065" />
	</node>
	<node lat="59.872580558454324" lon="11.827624994583925" id="-19568">
		<tag k="name" v="Lusmoen" />
		<tag k="place" v="locality" />
		<tag k="ssr:stedsnr" v="429175" />
	</node>
	<node lat="60.09628055692996" lon="12.225375006319785" id="-19574">
		<tag k="name" v="Øyungsberget" />
		<tag k="natural" v="hill" />
		<tag k="place" v="locality" />
		<tag k="ssr:stedsnr" v="490901" />
	</node>
	<node lat="60.03025000348217" lon="12.242149992271047" id="-19578">
		<tag k="name" v="Storsmalen" />
		<tag k="natural" v="hill" />
		<tag k="place" v="locality" />
		<tag k="ssr:stedsnr" v="430020" />
	</node>
	<node lat="59.980588888841226" lon="11.824974991801035" id="-19582">
		<tag k="name" v="Korpeberget" />
		<tag k="natural" v="hill" />
		<tag k="place" v="locality" />
		<tag k="ssr:stedsnr" v="430000" />
	</node>
	<node lat="59.95706388835846" lon="11.813919445963077" id="-19583">
		<tag k="name" v="Amundbråteberget" />
		<tag k="natural" v="hill" />
		<tag k="place" v="locality" />
		<tag k="ssr:stedsnr" v="430102" />
	</node>
	<node lat="59.96827777681841" lon="12.18992500141531" id="-19584">
		<tag k="name" v="Ulvedalen" />
		<tag k="natural" v="valley" />
		<tag k="place" v="locality" />
		<tag k="ssr:stedsnr" v="430304" />
	</node>
	<node lat="60.02305277571422" lon="12.31198888704007" id="-19593">
		<tag k="name" v="Stintabakkberget" />
		<tag k="natural" v="hill" />
		<tag k="place" v="locality" />
		<tag k="ssr:stedsnr" v="491048" />
	</node>
	<node lat="59.917480556068256" lon="12.154277779689881" id="-19606">
		<tag k="alt_name" v="Røyskjølen" />
		<tag k="fixme" v="consider natural=peak for the most distinct mountains in the district" />
		<tag k="name" v="Røskjølen" />
		<tag k="natural" v="hill" />
		<tag k="place" v="locality" />
		<tag k="ssr:stedsnr" v="491339" />
	</node>
	<node lat="60.07906110892077" lon="12.206180561632014" id="-19616">
		<tag k="name" v="Storfalldalen" />
		<tag k="natural" v="valley" />
		<tag k="place" v="locality" />
		<tag k="ssr:stedsnr" v="672685" />
	</node>
	<node lat="60.02769722335748" lon="12.185311108563557" id="-19618">
		<tag k="name" v="Langlia" />
		<tag k="natural" v="slope" />
		<tag k="place" v="locality" />
		<tag k="ssr:stedsnr" v="672614" />
	</node>
	<node lat="60.01840000389747" lon="12.034958327979002" id="-19620">
		<tag k="name" v="Rinderberget" />
		<tag k="natural" v="hill" />
		<tag k="place" v="locality" />
		<tag k="ssr:stedsnr" v="672625" />
	</node>
	<node lat="59.959463891525786" lon="11.822836110317494" id="-19624">
		<tag k="name" v="Høglia" />
		<tag k="natural" v="slope" />
		<tag k="place" v="locality" />
		<tag k="ssr:stedsnr" v="672988" />
	</node>
	<node lat="59.93371110744983" lon="12.222147229308346" id="-19626">
		<tag k="name" v="Magnormoen" />
		<tag k="place" v="locality" />
		<tag k="ssr:stedsnr" v="673045" />
	</node>
	<node lat="59.905844447670255" lon="12.082613880951216" id="-19630">
		<tag k="alt_name" v="Omsberget" />
		<tag k="fixme" v="consider natural=peak for the most distinct mountains in the district" />
		<tag k="name" v="Omnsberget" />
		<tag k="natural" v="hill" />
		<tag k="place" v="locality" />
		<tag k="ssr:stedsnr" v="673186" />
	</node>
	<node lat="59.931702777335836" lon="12.127005561597592" id="-19655">
		<tag k="name" v="Rubbefallet" />
		<tag k="natural" v="slope" />
		<tag k="place" v="locality" />
		<tag k="ssr:stedsnr" v="472005" />
	</node>
	<node lat="60.068986112494315" lon="12.176641668472698" id="-19662">
		<tag k="name" v="Knerkelia" />
		<tag k="natural" v="slope" />
		<tag k="place" v="locality" />
		<tag k="ssr:stedsnr" v="472223" />
	</node>
	<node lat="60.05775000187701" lon="12.254288891811514" id="-19665">
		<tag k="name" v="Grevlingberget" />
		<tag k="natural" v="hill" />
		<tag k="place" v="locality" />
		<tag k="ssr:stedsnr" v="472106" />
	</node>
	<node lat="60.050966668832785" lon="12.210511103244418" id="-19667">
		<tag k="fixme" v="consider natural=peak for the most distinct mountains in the district" />
		<tag k="name" v="Finfallåsen" />
		<tag k="natural" v="hill" />
		<tag k="place" v="locality" />
		<tag k="ssr:stedsnr" v="472180" />
	</node>
	<node lat="59.908633333822145" lon="11.820944450731398" id="-19671">
		<tag k="fixme" v="consider natural=peak for the most distinct mountains in the district" />
		<tag k="name" v="Snurumoen" />
		<tag k="natural" v="hill" />
		<tag k="place" v="locality" />
		<tag k="ssr:stedsnr" v="472465" />
	</node>
	<node lat="60.03209444248466" lon="12.170088880163707" id="-19672">
		<tag k="name" v="Bjørnholsbakken" />
		<tag k="natural" v="slope" />
		<tag k="place" v="locality" />
		<tag k="ssr:stedsnr" v="472477" />
	</node>
	<node lat="60.05745833349363" lon="12.165963896151068" id="-19673">
		<tag k="name" v="Nautbråten" />
		<tag k="natural" v="slope" />
		<tag k="place" v="locality" />
		<tag k="ssr:stedsnr" v="472481" />
	</node>
	<node lat="59.92106666613343" lon="11.824036114911255" id="-19678">
		<tag k="name" v="Løvhøgda" />
		<tag k="natural" v="hill" />
		<tag k="place" v="locality" />
		<tag k="ssr:stedsnr" v="472706" />
	</node>
	<node lat="60.04685278005175" lon="11.949463894953864" id="-19679">
		<tag k="fixme" v="consider natural=peak for the most distinct mountains in the district" />
		<tag k="name" v="Buberget" />
		<tag k="natural" v="hill" />
		<tag k="place" v="locality" />
		<tag k="ssr:stedsnr" v="472817" />
	</node>
	<node lat="59.96616944141831" lon="11.917366667955115" id="-19680">
		<tag k="name" v="Baråshøgda" />
		<tag k="natural" v="hill" />
		<tag k="place" v="locality" />
		<tag k="ssr:stedsnr" v="472859" />
	</node>
	<node lat="59.94995277930672" lon="11.908855562748379" id="-19681">
		<tag k="name" v="Korpedalen" />
		<tag k="natural" v="valley" />
		<tag k="place" v="locality" />
		<tag k="ssr:stedsnr" v="472864" />
	</node>
	<node lat="59.953300000249044" lon="12.143747220679414" id="-19684">
		<tag k="name" v="Oppgardsdalen" />
		<tag k="natural" v="valley" />
		<tag k="place" v="locality" />
		<tag k="ssr:stedsnr" v="472879" />
	</node>
	<node lat="60.0077527750621" lon="12.164355548242444" id="-19688">
		<tag k="name" v="Lørdagsbakken" />
		<tag k="natural" v="slope" />
		<tag k="place" v="locality" />
		<tag k="ssr:stedsnr" v="472973" />
	</node>
	<node lat="60.075313893029474" lon="11.941936115949273" id="-19692">
		<tag k="name" v="Hestelia" />
		<tag k="natural" v="slope" />
		<tag k="place" v="locality" />
		<tag k="ssr:stedsnr" v="473510" />
	</node>
	<node lat="60.064363892633835" lon="12.233233336238907" id="-19695">
		<tag k="fixme" v="consider natural=peak for the most distinct mountains in the district" />
		<tag k="name" v="Gorrtjennåsene" />
		<tag k="natural" v="hill" />
		<tag k="place" v="locality" />
		<tag k="ssr:stedsnr" v="490085" />
	</node>
	<node lat="60.044622226638054" lon="12.26463333035589" id="-19697">
		<tag k="name" v="Klemmetsbråtaberget" />
		<tag k="natural" v="hill" />
		<tag k="place" v="locality" />
		<tag k="ssr:stedsnr" v="490111" />
	</node>
	<node lat="59.99873888950184" lon="11.885575006725162" id="-19705">
		<tag k="fixme" v="consider natural=peak for the most distinct mountains in the district" />
		<tag k="name" v="Sapperansberget" />
		<tag k="natural" v="hill" />
		<tag k="place" v="locality" />
		<tag k="ssr:stedsnr" v="490389" />
	</node>
	<node lat="59.904688886773265" lon="12.098894447874013" id="-19708">
		<tag k="alt_name" v="Engerberget" />
		<tag k="fixme" v="consider natural=peak for the most distinct mountains in the district" />
		<tag k="name" v="Engberberget" />
		<tag k="natural" v="hill" />
		<tag k="place" v="locality" />
		<tag k="ssr:stedsnr" v="491178" />
	</node>
	<node lat="59.97997777513443" lon="11.982961107710336" id="-19719">
		<tag k="fixme" v="consider natural=peak for the most distinct mountains in the district" />
		<tag k="name" v="Fløytmoberget" />
		<tag k="natural" v="hill" />
		<tag k="place" v="locality" />
		<tag k="ssr:stedsnr" v="491504" />
	</node>
	<node lat="59.9771916671866" lon="11.936138888222484" id="-19721">
		<tag k="fixme" v="consider natural=peak for the most distinct mountains in the district" />
		<tag k="name" v="Knollen" />
		<tag k="natural" v="hill" />
		<tag k="place" v="locality" />
		<tag k="ssr:stedsnr" v="491500" />
	</node>
	<node lat="59.89322777370136" lon="12.156036112100205" id="-19737">
		<tag k="name" v="Liaheimet" />
		<tag k="natural" v="slope" />
		<tag k="place" v="locality" />
		<tag k="ssr:stedsnr" v="533070" />
	</node>
	<node lat="59.92492777459329" lon="12.113227774207573" id="-19738">
		<tag k="name" v="Tyrigravdalen" />
		<tag k="natural" v="valley" />
		<tag k="place" v="locality" />
		<tag k="ssr:stedsnr" v="533079" />
	</node>
	<node lat="59.899572223189054" lon="11.870872213609411" id="-19740">
		<tag k="fixme" v="consider natural=peak for the most distinct mountains in the district" />
		<tag k="name" v="Monsrudnesa" />
		<tag k="natural" v="hill" />
		<tag k="place" v="locality" />
		<tag k="ssr:stedsnr" v="533278" />
	</node>
	<node lat="59.894327777462586" lon="11.928400006863313" id="-19741">
		<tag k="name" v="Åsmyrbakkene" />
		<tag k="natural" v="hill" />
		<tag k="place" v="locality" />
		<tag k="ssr:stedsnr" v="533281" />
	</node>
	<node lat="59.928119444812054" lon="12.168955561060093" id="-19747">
		<tag k="name" v="Romsås" />
		<tag k="natural" v="hill" />
		<tag k="place" v="locality" />
		<tag k="ssr:stedsnr" v="533528" />
	</node>
	<node lat="59.92071944818423" lon="12.183708341942314" id="-19748">
		<tag k="name" v="Linkjølgropa" />
		<tag k="natural" v="valley" />
		<tag k="place" v="locality" />
		<tag k="ssr:stedsnr" v="533530" />
	</node>
	<node lat="59.94021666832671" lon="12.236083335285269" id="-19750">
		<tag k="name" v="Korsvega" />
		<tag k="natural" v="slope" />
		<tag k="place" v="locality" />
		<tag k="ssr:stedsnr" v="533808" />
	</node>
	<node lat="59.96607777498437" lon="12.298591668393884" id="-19751">
		<tag k="name" v="Vestre Rasen" />
		<tag k="natural" v="hill" />
		<tag k="place" v="locality" />
		<tag k="ssr:stedsnr" v="533867" />
	</node>
	<node lat="59.93138333443148" lon="12.191700002810693" id="-19753">
		<tag k="name" v="Snikerud" />
		<tag k="natural" v="slope" />
		<tag k="place" v="locality" />
		<tag k="ssr:stedsnr" v="533773" />
	</node>
	<node lat="59.98867222110569" lon="12.19073332573372" id="-19755">
		<tag k="name" v="Jansrudberget" />
		<tag k="natural" v="hill" />
		<tag k="place" v="locality" />
		<tag k="ssr:stedsnr" v="533970" />
	</node>
	<node lat="59.91623610884403" lon="11.806308330272184" id="-19759">
		<tag k="name" v="Dalfoss" />
		<tag k="place" v="locality" />
		<tag k="ssr:stedsnr" v="551019" />
	</node>
	<node lat="59.95481388917491" lon="12.024611109843608" id="-19764">
		<tag k="fixme" v="consider natural=peak for the most distinct mountains in the district" />
		<tag k="name" v="Knappen" />
		<tag k="natural" v="hill" />
		<tag k="place" v="locality" />
		<tag k="ssr:stedsnr" v="551306" />
	</node>
	<node lat="60.06044999724544" lon="12.203974994191094" id="-19772">
		<tag k="fixme" v="consider natural=peak for the most distinct mountains in the district" />
		<tag k="name" v="Langåsen" />
		<tag k="natural" v="hill" />
		<tag k="place" v="locality" />
		<tag k="ssr:stedsnr" v="551606" />
	</node>
	<node lat="60.01496666488399" lon="12.078019435434532" id="-19781">
		<tag k="name" v="Rødbergshøgdene" />
		<tag k="natural" v="hill" />
		<tag k="place" v="locality" />
		<tag k="ssr:stedsnr" v="582314" />
	</node>
	<node lat="59.98928332911545" lon="12.263724991869308" id="-19785">
		<tag k="name" v="Opptjennslia" />
		<tag k="natural" v="slope" />
		<tag k="place" v="locality" />
		<tag k="ssr:stedsnr" v="593122" />
	</node>
	<node lat="59.976044448673534" lon="12.28370000141197" id="-19788">
		<tag k="name" v="Leirbrudalen" />
		<tag k="natural" v="valley" />
		<tag k="place" v="locality" />
		<tag k="ssr:stedsnr" v="593057" />
	</node>
	<node lat="59.97334722141024" lon="11.966850001345641" id="-19790">
		<tag k="name" v="Fløytberget" />
		<tag k="natural" v="hill" />
		<tag k="old_name" v="Fløitberget" />
		<tag k="place" v="locality" />
		<tag k="ssr:stedsnr" v="593261" />
	</node>
	<node lat="59.98161666758461" lon="11.987875000445717" id="-19791">
		<tag k="name" v="Spellut" />
		<tag k="natural" v="slope" />
		<tag k="place" v="locality" />
		<tag k="ssr:stedsnr" v="593310" />
	</node>
	<node lat="60.0170333298272" lon="12.120666672293503" id="-19792">
		<tag k="name" v="Grasmosletta" />
		<tag k="natural" v="slope" />
		<tag k="place" v="locality" />
		<tag k="ssr:stedsnr" v="593352" />
	</node>
	<node lat="59.94749444747127" lon="12.128766670876809" id="-19794">
		<tag k="name" v="Korsåsberget" />
		<tag k="natural" v="hill" />
		<tag k="place" v="locality" />
		<tag k="ssr:stedsnr" v="593401" />
	</node>
	<node lat="59.96290555598598" lon="12.02283334182955" id="-19795">
		<tag k="name" v="Tjæregravlia" />
		<tag k="natural" v="slope" />
		<tag k="place" v="locality" />
		<tag k="ssr:stedsnr" v="593505" />
	</node>
	<node lat="59.96671111430779" lon="12.04415278482979" id="-19796">
		<tag k="name" v="Tempelberget" />
		<tag k="natural" v="hill" />
		<tag k="place" v="locality" />
		<tag k="ssr:stedsnr" v="593507" />
	</node>
	<node lat="60.0998194439103" lon="12.123333340169506" id="-19797">
		<tag k="name" v="Åklangenga" />
		<tag k="natural" v="slope" />
		<tag k="place" v="locality" />
		<tag k="ssr:stedsnr" v="593451" />
	</node>
	<node lat="60.06253333625373" lon="12.168905560947604" id="-19799">
		<tag k="name" v="Åsen" />
		<tag k="natural" v="hill" />
		<tag k="place" v="locality" />
		<tag k="ssr:stedsnr" v="593459" />
	</node>
	<node lat="60.000811115557575" lon="11.9495500013542" id="-19802">
		<tag k="name" v="Herkerudhøgda" />
		<tag k="natural" v="hill" />
		<tag k="place" v="locality" />
		<tag k="ssr:stedsnr" v="593723" />
	</node>
	<node lat="60.001038886828724" lon="12.139852780118572" id="-19806">
		<tag k="name" v="Hestehaget" />
		<tag k="natural" v="slope" />
		<tag k="place" v="locality" />
		<tag k="ssr:stedsnr" v="593866" />
	</node>
	<node lat="59.996261110237704" lon="12.104669437054326" id="-19808">
		<tag k="name" v="Gotlandstoppen" />
		<tag k="natural" v="hill" />
		<tag k="place" v="locality" />
		<tag k="ssr:stedsnr" v="593872" />
	</node>
	<node lat="59.89838333308039" lon="12.142138896164042" id="-19817">
		<tag k="fixme" v="consider natural=peak for the most distinct mountains in the district" />
		<tag k="name" v="Gammelbrennberget" />
		<tag k="natural" v="hill" />
		<tag k="place" v="locality" />
		<tag k="ssr:stedsnr" v="611174" />
	</node>
	<node lat="59.97549166720204" lon="12.219880551447515" id="-19818">
		<tag k="name" v="Sagåsen" />
		<tag k="natural" v="slope" />
		<tag k="place" v="locality" />
		<tag k="ssr:stedsnr" v="611186" />
	</node>
	<node lat="59.929322222780634" lon="11.955230561050614" id="-19820">
		<tag k="fixme" v="multiple name tags, choose one and add the other to alt_name; consider natural=peak for the most distinct mountains in the district" />
		<tag k="name" v="Holsteinberget;Lomtjennberget" />
		<tag k="natural" v="hill" />
		<tag k="place" v="locality" />
		<tag k="ssr:stedsnr" v="611376" />
	</node>
	<node lat="60.04082499945692" lon="12.246458335295234" id="-19827">
		<tag k="name" v="Brurkleiva" />
		<tag k="natural" v="valley" />
		<tag k="place" v="locality" />
		<tag k="ssr:stedsnr" v="612003" />
	</node>
	<node lat="60.03555555660371" lon="12.225275000152811" id="-19828">
		<tag k="name" v="Aursjøbrennene" />
		<tag k="natural" v="hill" />
		<tag k="place" v="locality" />
		<tag k="ssr:stedsnr" v="612017" />
	</node>
	<node lat="59.94327777935155" lon="11.953544443853067" id="-19833">
		<tag k="fixme" v="consider natural=peak for the most distinct mountains in the district" />
		<tag k="name" v="Vardåsen" />
		<tag k="natural" v="hill" />
		<tag k="place" v="locality" />
		<tag k="ssr:stedsnr" v="612271" />
	</node>
	<node lat="59.99803055122199" lon="11.856941667797539" id="-19836">
		<tag k="name" v="Vesleenga" />
		<tag k="natural" v="slope" />
		<tag k="place" v="locality" />
		<tag k="ssr:stedsnr" v="612423" />
	</node>
	<node lat="59.95220000247065" lon="11.91240555845844" id="-19837">
		<tag k="name" v="Korpeberget" />
		<tag k="natural" v="hill" />
		<tag k="place" v="locality" />
		<tag k="ssr:stedsnr" v="612303" />
	</node>
	<node lat="60.02813333719472" lon="11.970413897011937" id="-19848">
		<tag k="name" v="Havmyrlia" />
		<tag k="natural" v="slope" />
		<tag k="place" v="locality" />
		<tag k="ssr:stedsnr" v="703401" />
	</node>
	<node lat="60.02011666860964" lon="12.266108333149703" id="-19849">
		<tag k="name" v="Ristjennhøgda" />
		<tag k="natural" v="hill" />
		<tag k="place" v="locality" />
		<tag k="ssr:stedsnr" v="642012" />
	</node>
	<node lat="60.08350000269024" lon="12.157352769390098" id="-19855">
		<tag k="name" v="Høgmoen" />
		<tag k="natural" v="hill" />
		<tag k="place" v="locality" />
		<tag k="ssr:stedsnr" v="654139" />
	</node>
	<node lat="60.079141664541815" lon="12.162111116868237" id="-19864">
		<tag k="name" v="Møllerteppa" />
		<tag k="place" v="locality" />
		<tag k="ssr:stedsnr" v="654236" />
	</node>
	<node lat="59.93409999892953" lon="12.011572216608696" id="-19867">
		<tag k="name" v="Nabben" />
		<tag k="natural" v="slope" />
		<tag k="place" v="locality" />
		<tag k="ssr:stedsnr" v="654404" />
	</node>
	<node lat="59.94207499675821" lon="11.907713893676497" id="-19868">
		<tag k="name" v="Karterudberget" />
		<tag k="natural" v="hill" />
		<tag k="place" v="locality" />
		<tag k="ssr:stedsnr" v="654308" />
	</node>
	<node lat="60.06193611552462" lon="12.141913891086654" id="-19870">
		<tag k="name" v="Svenbyberget" />
		<tag k="natural" v="hill" />
		<tag k="place" v="locality" />
		<tag k="ssr:stedsnr" v="654505" />
	</node>
	<node lat="59.90146389164509" lon="11.816274994459944" id="-19875">
		<tag k="fixme" v="consider natural=peak for the most distinct mountains in the district" />
		<tag k="name" v="Høgåsen" />
		<tag k="natural" v="hill" />
		<tag k="place" v="locality" />
		<tag k="ssr:stedsnr" v="654485" />
	</node>
	<node lat="60.03603889159968" lon="11.896708335343316" id="-19878">
		<tag k="fixme" v="consider natural=peak for the most distinct mountains in the district" />
		<tag k="name" v="Bukketangen" />
		<tag k="natural" v="hill" />
		<tag k="place" v="locality" />
		<tag k="ssr:stedsnr" v="654685" />
	</node>
	<node lat="59.99812777421932" lon="12.234258324772604" id="-19880">
		<tag k="name" v="Damenga" />
		<tag k="natural" v="slope" />
		<tag k="place" v="locality" />
		<tag k="ssr:stedsnr" v="654810" />
	</node>
	<node lat="59.969383332294356" lon="11.935119444682247" id="-19882">
		<tag k="fixme" v="consider natural=peak for the most distinct mountains in the district" />
		<tag k="name" v="Høymyråsen" />
		<tag k="natural" v="hill" />
		<tag k="old_name" v="Høimyråsen" />
		<tag k="place" v="locality" />
		<tag k="ssr:stedsnr" v="654840" />
	</node>
	<node lat="59.92812222202721" lon="11.875472228539515" id="-19884">
		<tag k="name" v="Langeholen" />
		<tag k="natural" v="slope" />
		<tag k="place" v="locality" />
		<tag k="ssr:stedsnr" v="654739" />
	</node>
	<node lat="60.032969440096494" lon="12.152469448373202" id="-19885">
		<tag k="name" v="Jordbærdalen" />
		<tag k="natural" v="valley" />
		<tag k="place" v="locality" />
		<tag k="ssr:stedsnr" v="654906" />
	</node>
	<node lat="60.0366694422347" lon="12.289911107262263" id="-19886">
		<tag k="name" v="Kuberget" />
		<tag k="natural" v="hill" />
		<tag k="place" v="locality" />
		<tag k="ssr:stedsnr" v="654888" />
	</node>
	<node lat="59.967222224663004" lon="12.218219449661529" id="-19921">
		<tag k="name" v="Mølleråsen" />
		<tag k="natural" v="hill" />
		<tag k="place" v="locality" />
		<tag k="ssr:stedsnr" v="897033" />
	</node>
	<node lat="59.98861389212033" lon="12.253227769307868" id="-19925">
		<tag k="name" v="Klanderudbakkene" />
		<tag k="natural" v="slope" />
		<tag k="place" v="locality" />
		<tag k="ssr:stedsnr" v="897124" />
	</node>
	<node lat="60.074116670014114" lon="12.153072215601599" id="-19927">
		<tag k="name" v="Langfossmoen" />
		<tag k="place" v="locality" />
		<tag k="ssr:stedsnr" v="897144" />
	</node>
	<node lat="60.067713886150365" lon="12.089455556604845" id="-19930">
		<tag k="name" v="Brattlihøgda" />
		<tag k="natural" v="hill" />
		<tag k="place" v="locality" />
		<tag k="ssr:stedsnr" v="897098" />
	</node>
	<node lat="59.88221388666043" lon="11.863488882486143" id="-19937">
		<tag k="fixme" v="consider natural=peak for the most distinct mountains in the district" />
		<tag k="name" v="Moåsen" />
		<tag k="natural" v="hill" />
		<tag k="place" v="locality" />
		<tag k="ssr:stedsnr" v="897249" />
	</node>
	<node lat="59.97727222011219" lon="11.997816660546814" id="-19938">
		<tag k="name" v="Teigbråten" />
		<tag k="natural" v="slope" />
		<tag k="place" v="locality" />
		<tag k="ssr:stedsnr" v="897327" />
	</node>
	<node lat="60.06190832924872" lon="12.048713880960399" id="-19939">
		<tag k="name" v="Korpeberget" />
		<tag k="natural" v="hill" />
		<tag k="place" v="locality" />
		<tag k="ssr:stedsnr" v="897334" />
	</node>
	<node lat="59.971119444570355" lon="12.020780558026882" id="-19942">
		<tag k="name" v="Kvernberget" />
		<tag k="natural" v="hill" />
		<tag k="place" v="locality" />
		<tag k="ssr:stedsnr" v="897393" />
	</node>
	<node lat="59.882244445765004" lon="11.851486107423593" id="-19944">
		<tag k="name" v="Styggedråga" />
		<tag k="natural" v="valley" />
		<tag k="place" v="locality" />
		<tag k="ssr:stedsnr" v="897439" />
	</node>
	<node lat="59.97321111450358" lon="11.849513882019423" id="-19945">
		<tag k="fixme" v="consider natural=peak for the most distinct mountains in the district" />
		<tag k="name" v="Høgåsen" />
		<tag k="natural" v="hill" />
		<tag k="place" v="locality" />
		<tag k="ssr:stedsnr" v="897442" />
	</node>
	<node lat="59.9495000012699" lon="12.145947220162432" id="-19948">
		<tag k="name" v="Masterdalen" />
		<tag k="natural" v="valley" />
		<tag k="place" v="locality" />
		<tag k="ssr:stedsnr" v="897485" />
	</node>
	<node lat="59.93210277896532" lon="12.165838891373427" id="-19950">
		<tag k="name" v="Modalen" />
		<tag k="natural" v="valley" />
		<tag k="place" v="locality" />
		<tag k="ssr:stedsnr" v="897497" />
	</node>
	<node lat="59.97781110839407" lon="11.952586106520178" id="-19951">
		<tag k="name" v="Dulpehøgda" />
		<tag k="natural" v="hill" />
		<tag k="place" v="locality" />
		<tag k="ssr:stedsnr" v="897635" />
	</node>
	<node lat="60.02494444574801" lon="11.852316658978102" id="-19953">
		<tag k="name" v="Fløytvola" />
		<tag k="natural" v="hill" />
		<tag k="place" v="locality" />
		<tag k="ssr:stedsnr" v="897685" />
	</node>
	<node lat="59.95871944042086" lon="11.856252773928434" id="-19955">
		<tag k="name" v="Lunderbylia" />
		<tag k="natural" v="slope" />
		<tag k="place" v="locality" />
		<tag k="ssr:stedsnr" v="897693" />
	</node>
	<node lat="59.96158333091751" lon="11.847652775727767" id="-19957">
		<tag k="name" v="Akrilbråtan" />
		<tag k="natural" v="slope" />
		<tag k="place" v="locality" />
		<tag k="ssr:stedsnr" v="897700" />
	</node>
	<node lat="60.02685555533691" lon="12.314275007003495" id="-19959">
		<tag k="name" v="Store-Steina" />
		<tag k="natural" v="slope" />
		<tag k="place" v="locality" />
		<tag k="ssr:stedsnr" v="897767" />
	</node>
	<node lat="59.98923333035174" lon="12.234588884741223" id="-19960">
		<tag k="name" v="Tallbakken" />
		<tag k="natural" v="slope" />
		<tag k="place" v="locality" />
		<tag k="ssr:stedsnr" v="897776" />
	</node>
	<node lat="59.94890555404461" lon="11.989775007411538" id="-19961">
		<tag k="name" v="Mastberget" />
		<tag k="natural" v="hill" />
		<tag k="place" v="locality" />
		<tag k="ssr:stedsnr" v="897779" />
	</node>
	<node lat="59.96030555444859" lon="11.948786113968161" id="-19963">
		<tag k="name" v="Tamburn" />
		<tag k="natural" v="slope" />
		<tag k="place" v="locality" />
		<tag k="ssr:stedsnr" v="897753" />
	</node>
	<node lat="60.04734722046315" lon="11.836855548566726" id="-19966">
		<tag k="name" v="Kristilia" />
		<tag k="natural" v="slope" />
		<tag k="place" v="locality" />
		<tag k="ssr:stedsnr" v="897842" />
	</node>
	<node lat="59.955186114327454" lon="11.977755553456198" id="-19967">
		<tag k="name" v="Saukullern" />
		<tag k="natural" v="hill" />
		<tag k="place" v="locality" />
		<tag k="ssr:stedsnr" v="897923" />
	</node>
	<node lat="59.96853332987216" lon="12.188427785936833" id="-19968">
		<tag k="loc_name" v="Jøvikskogen" />
		<tag k="name" v="Gjøvikenskog" />
		<tag k="natural" v="slope" />
		<tag k="place" v="locality" />
		<tag k="ssr:stedsnr" v="897865" />
	</node>
	<node lat="60.034097223978414" lon="12.162872224091705" id="-19969">
		<tag k="name" v="Vabakka" />
		<tag k="natural" v="slope" />
		<tag k="place" v="locality" />
		<tag k="ssr:stedsnr" v="897867" />
	</node>
	<node lat="60.03869999678253" lon="11.986302774859096" id="-19970">
		<tag k="name" v="Juvberget" />
		<tag k="natural" v="hill" />
		<tag k="place" v="locality" />
		<tag k="ssr:stedsnr" v="897885" />
	</node>
	<node lat="59.880055552426235" lon="11.850163880706866" id="-19973">
		<tag k="fixme" v="consider natural=peak for the most distinct mountains in the district" />
		<tag k="name" v="Tiuråsen" />
		<tag k="natural" v="hill" />
		<tag k="place" v="locality" />
		<tag k="ssr:stedsnr" v="897990" />
	</node>
	<node lat="60.062283336583086" lon="12.091952774867998" id="-19982">
		<tag k="name" v="Drognesberget" />
		<tag k="natural" v="hill" />
		<tag k="place" v="locality" />
		<tag k="ssr:stedsnr" v="898610" />
	</node>
	<node lat="59.997925000920795" lon="12.249574995114633" id="-19989">
		<tag k="name" v="Brattstupet" />
		<tag k="natural" v="cliff" />
		<tag k="ssr:stedsnr" v="715117" />
	</node>
	<node lat="60.04048333239277" lon="11.85875000164592" id="-19992">
		<tag k="fixme" v="consider natural=peak for the most distinct mountains in the district" />
		<tag k="name" v="Fjellbuåsen" />
		<tag k="natural" v="hill" />
		<tag k="place" v="locality" />
		<tag k="ssr:stedsnr" v="715274" />
	</node>
	<node lat="59.93366666777353" lon="11.99749722365575" id="-19995">
		<tag k="name" v="Kildalsholmen" />
		<tag k="natural" v="slope" />
		<tag k="place" v="locality" />
		<tag k="ssr:stedsnr" v="715420" />
	</node>
	<node lat="59.92145833004171" lon="12.181822227767181" id="-19996">
		<tag k="name" v="Gaustadsæterhøgda" />
		<tag k="natural" v="hill" />
		<tag k="place" v="locality" />
		<tag k="ssr:stedsnr" v="715428" />
	</node>
	<node lat="60.00040555582301" lon="12.150494444097319" id="-19999">
		<tag k="name" v="Styggerudberget" />
		<tag k="natural" v="hill" />
		<tag k="place" v="locality" />
		<tag k="ssr:stedsnr" v="715527" />
	</node>
	<node lat="60.0104944430847" lon="12.125561115465144" id="-20000">
		<tag k="name" v="Ekeberget" />
		<tag k="natural" v="hill" />
		<tag k="place" v="locality" />
		<tag k="ssr:stedsnr" v="715530" />
	</node>
	<node lat="59.9752361134482" lon="12.328977783383884" id="-20001">
		<tag k="fixme" v="consider natural=peak for the most distinct mountains in the district" />
		<tag k="name" v="Nottjennåsen" />
		<tag k="natural" v="hill" />
		<tag k="place" v="locality" />
		<tag k="ssr:stedsnr" v="715538" />
	</node>
	<node lat="59.93774444362904" lon="11.934661107184574" id="-20002">
		<tag k="name" v="Djupdalen" />
		<tag k="natural" v="valley" />
		<tag k="place" v="locality" />
		<tag k="ssr:stedsnr" v="715822" />
	</node>
	<node lat="59.92173611176989" lon="11.867491674947443" id="-20004">
		<tag k="fixme" v="consider natural=peak for the most distinct mountains in the district" />
		<tag k="name" v="Bæråsen" />
		<tag k="natural" v="hill" />
		<tag k="place" v="locality" />
		<tag k="ssr:stedsnr" v="715716" />
	</node>
	<node lat="59.94836666867145" lon="11.95172776920019" id="-20005">
		<tag k="name" v="Aurhaugen" />
		<tag k="natural" v="hill" />
		<tag k="place" v="locality" />
		<tag k="ssr:stedsnr" v="715774" />
	</node>
	<node lat="60.03312499758488" lon="12.161786106308242" id="-20006">
		<tag k="name" v="Kvernbekkdalen" />
		<tag k="natural" v="valley" />
		<tag k="place" v="locality" />
		<tag k="ssr:stedsnr" v="715904" />
	</node>
	<node lat="59.90812777939546" lon="12.09355556404627" id="-20007">
		<tag k="name" v="Edberget" />
		<tag k="natural" v="hill" />
		<tag k="place" v="locality" />
		<tag k="ssr:stedsnr" v="715911" />
	</node>
	<node lat="60.08178610926661" lon="12.01087222813914" id="-20027">
		<tag k="name" v="Dalsberget" />
		<tag k="natural" v="hill" />
		<tag k="place" v="locality" />
		<tag k="ssr:stedsnr" v="733731" />
	</node>
	<node lat="59.964041668304574" lon="11.94093889287992" id="-20046">
		<tag k="name" v="Brenna" />
		<tag k="natural" v="slope" />
		<tag k="place" v="locality" />
		<tag k="ssr:stedsnr" v="775824" />
	</node>
	<node lat="60.05580000187031" lon="12.02528610789294" id="-20049">
		<tag k="name" v="Åskiftberget" />
		<tag k="natural" v="hill" />
		<tag k="place" v="locality" />
		<tag k="ssr:stedsnr" v="776121" />
	</node>
	<node lat="60.035191662250426" lon="12.108263893864288" id="-20059">
		<tag k="name" v="Utsikten" />
		<tag k="natural" v="hill" />
		<tag k="place" v="locality" />
		<tag k="ssr:stedsnr" v="776401" />
	</node>
	<node lat="59.94501666394282" lon="12.00648332771089" id="-20061">
		<tag k="name" v="Rasterhøgda" />
		<tag k="natural" v="hill" />
		<tag k="place" v="locality" />
		<tag k="ssr:stedsnr" v="776510" />
	</node>
	<node lat="59.97113333554045" lon="12.0294055610217" id="-20062">
		<tag k="name" v="Bråten" />
		<tag k="natural" v="slope" />
		<tag k="place" v="locality" />
		<tag k="ssr:stedsnr" v="776516" />
	</node>
	<node lat="59.888533331393965" lon="12.070766673577303" id="-20064">
		<tag k="fixme" v="consider natural=peak for the most distinct mountains in the district" />
		<tag k="name" v="Bjørkåsen" />
		<tag k="natural" v="hill" />
		<tag k="place" v="locality" />
		<tag k="ssr:stedsnr" v="776522" />
	</node>
	<node lat="60.093349999079884" lon="12.0895749997344" id="-20068">
		<tag k="name" v="Vangen" />
		<tag k="natural" v="hill" />
		<tag k="place" v="locality" />
		<tag k="ssr:stedsnr" v="776472" />
	</node>
	<node lat="59.93946944712394" lon="11.952955555330144" id="-20071">
		<tag k="name" v="Liberget" />
		<tag k="natural" v="hill" />
		<tag k="place" v="locality" />
		<tag k="ssr:stedsnr" v="776755" />
	</node>
	<node lat="60.057155552407146" lon="12.004411112660323" id="-20073">
		<tag k="name" v="Storbråtalia" />
		<tag k="natural" v="hill" />
		<tag k="place" v="locality" />
		<tag k="ssr:stedsnr" v="776930" />
	</node>
	<node lat="59.93536666556753" lon="11.948941670494047" id="-20079">
		<tag k="name" v="Merastlia" />
		<tag k="natural" v="slope" />
		<tag k="place" v="locality" />
		<tag k="ssr:stedsnr" v="794238" />
	</node>
	<node lat="60.053308333084324" lon="12.3085999978956" id="-20082">
		<tag k="name" v="Bjørkebråtaberget" />
		<tag k="natural" v="hill" />
		<tag k="place" v="locality" />
		<tag k="ssr:stedsnr" v="794114" />
	</node>
	<node lat="59.862327780146536" lon="11.862091667305473" id="-20083">
		<tag k="name" v="Geitdalen" />
		<tag k="natural" v="valley" />
		<tag k="place" v="locality" />
		<tag k="ssr:stedsnr" v="794128" />
	</node>
	<node lat="60.05841388545098" lon="12.025775000065416" id="-20097">
		<tag k="name" v="Åskiftberget" />
		<tag k="natural" v="hill" />
		<tag k="place" v="locality" />
		<tag k="ssr:stedsnr" v="794671" />
	</node>
	<node lat="60.047299997757406" lon="11.949975005756556" id="-20099">
		<tag k="name" v="Buberget" />
		<tag k="natural" v="hill" />
		<tag k="place" v="locality" />
		<tag k="ssr:stedsnr" v="794678" />
	</node>
	<node lat="59.91687500253434" lon="11.83975277990563" id="-20102">
		<tag k="fixme" v="consider natural=peak for the most distinct mountains in the district" />
		<tag k="name" v="Steinbekkhøgda" />
		<tag k="natural" v="hill" />
		<tag k="place" v="locality" />
		<tag k="ssr:stedsnr" v="915017" />
	</node>
	<node lat="60.07819999755434" lon="12.186077782069528" id="-20117">
		<tag k="name" v="Gusterudhøgda" />
		<tag k="natural" v="hill" />
		<tag k="place" v="locality" />
		<tag k="ssr:stedsnr" v="915683" />
	</node>
	<node lat="59.94617500190312" lon="12.265266659158526" id="-20122">
		<tag k="fixme" v="consider natural=peak for the most distinct mountains in the district" />
		<tag k="name" v="Varden" />
		<tag k="natural" v="hill" />
		<tag k="place" v="locality" />
		<tag k="ssr:stedsnr" v="916042" />
	</node>
	<node lat="59.938119442756815" lon="11.892116663384872" id="-20127">
		<tag k="fixme" v="consider natural=peak for the most distinct mountains in the district" />
		<tag k="name" v="Nordstuåsen" />
		<tag k="natural" v="hill" />
		<tag k="place" v="locality" />
		<tag k="ssr:stedsnr" v="916275" />
	</node>
	<node lat="60.015600002237456" lon="12.304574992795953" id="-20133">
		<tag k="name" v="Kollberget" />
		<tag k="natural" v="hill" />
		<tag k="place" v="locality" />
		<tag k="ssr:stedsnr" v="916061" />
	</node>
	<node lat="59.96356110764089" lon="12.303638885445285" id="-20135">
		<tag k="fixme" v="consider natural=peak for the most distinct mountains in the district" />
		<tag k="name" v="Puta" />
		<tag k="natural" v="hill" />
		<tag k="place" v="locality" />
		<tag k="ssr:stedsnr" v="916231" />
	</node>
	<node lat="59.94657222461439" lon="12.028302769893328" id="-20140">
		<tag k="fixme" v="consider natural=peak for the most distinct mountains in the district" />
		<tag k="name" v="Rasterberget" />
		<tag k="natural" v="hill" />
		<tag k="place" v="locality" />
		<tag k="ssr:stedsnr" v="916292" />
	</node>
	<node lat="59.96390278105813" lon="11.935616671892257" id="-20156">
		<tag k="name" v="Brattfallet" />
		<tag k="natural" v="slope" />
		<tag k="place" v="locality" />
		<tag k="ssr:stedsnr" v="836834" />
	</node>
	<node lat="60.08325555128922" lon="12.176155557251105" id="-20158">
		<tag k="name" v="Tjennsdråga" />
		<tag k="natural" v="valley" />
		<tag k="place" v="locality" />
		<tag k="ssr:stedsnr" v="837126" />
	</node>
	<node lat="59.93186111169366" lon="11.922338888082335" id="-20161">
		<tag k="name" v="Jussihøgda" />
		<tag k="natural" v="hill" />
		<tag k="place" v="locality" />
		<tag k="ssr:stedsnr" v="837008" />
	</node>
	<node lat="59.920727779251415" lon="12.114261111518527" id="-20164">
		<tag k="name" v="Vindfalldalen" />
		<tag k="natural" v="valley" />
		<tag k="place" v="locality" />
		<tag k="ssr:stedsnr" v="837079" />
	</node>
	<node lat="60.08216666683684" lon="12.010602785912562" id="-20167">
		<tag k="fixme" v="consider natural=peak for the most distinct mountains in the district" />
		<tag k="name" v="Dalsberget" />
		<tag k="natural" v="hill" />
		<tag k="place" v="locality" />
		<tag k="ssr:stedsnr" v="837085" />
	</node>
	<node lat="60.0054833303216" lon="11.934449998871033" id="-20172">
		<tag k="name" v="Ormehaugen" />
		<tag k="natural" v="hill" />
		<tag k="place" v="locality" />
		<tag k="ssr:stedsnr" v="837303" />
	</node>
	<node lat="60.02148055632744" lon="12.22922777935181" id="-20176">
		<tag k="name" v="Linnåsen" />
		<tag k="natural" v="hill" />
		<tag k="place" v="locality" />
		<tag k="ssr:stedsnr" v="837378" />
	</node>
	<node lat="60.00831111462706" lon="12.236513881094169" id="-20177">
		<tag k="name" v="Råholt" />
		<tag k="natural" v="slope" />
		<tag k="place" v="locality" />
		<tag k="ssr:stedsnr" v="837383" />
	</node>
	<node lat="59.97589721928209" lon="12.242325007806919" id="-20178">
		<tag k="name" v="Fyrarberget" />
		<tag k="natural" v="hill" />
		<tag k="place" v="locality" />
		<tag k="ssr:stedsnr" v="837384" />
	</node>
	<node lat="59.93111389226152" lon="11.999952779928213" id="-20179">
		<tag k="name" v="Plassholmen" />
		<tag k="natural" v="slope" />
		<tag k="place" v="locality" />
		<tag k="ssr:stedsnr" v="837396" />
	</node>
	<node lat="59.92867222646921" lon="12.187061111965747" id="-20181">
		<tag k="name" v="Bjørkåsen" />
		<tag k="natural" v="hill" />
		<tag k="place" v="locality" />
		<tag k="ssr:stedsnr" v="837526" />
	</node>
	<node lat="59.996808336737395" lon="12.33273611807916" id="-20182">
		<tag k="name" v="Ospedråga" />
		<tag k="natural" v="valley" />
		<tag k="place" v="locality" />
		<tag k="ssr:stedsnr" v="837404" />
	</node>
	<node lat="60.086811110664335" lon="12.11741665985843" id="-20190">
		<tag k="name" v="Sleppen" />
		<tag k="natural" v="slope" />
		<tag k="place" v="locality" />
		<tag k="ssr:stedsnr" v="837492" />
	</node>
	<node lat="60.03992222435305" lon="12.139783333044182" id="-20191">
		<tag k="name" v="Torprinna" />
		<tag k="natural" v="slope" />
		<tag k="place" v="locality" />
		<tag k="ssr:stedsnr" v="837493" />
	</node>
	<node lat="59.922133332077095" lon="12.172958330605873" id="-20196">
		<tag k="name" v="Grensberget" />
		<tag k="natural" v="hill" />
		<tag k="place" v="locality" />
		<tag k="ssr:stedsnr" v="837798" />
	</node>
	<node lat="60.02681666408997" lon="11.899016662821287" id="-20198">
		<tag k="fixme" v="consider natural=peak for the most distinct mountains in the district" />
		<tag k="name" v="Liaberget" />
		<tag k="natural" v="hill" />
		<tag k="place" v="locality" />
		<tag k="ssr:stedsnr" v="837686" />
	</node>
	<node lat="59.878019440115544" lon="11.82771944356864" id="-20199">
		<tag k="name" v="Sleppa" />
		<tag k="natural" v="slope" />
		<tag k="place" v="locality" />
		<tag k="ssr:stedsnr" v="837808" />
	</node>
	<node lat="60.00996944053461" lon="12.223152770402153" id="-20200">
		<tag k="name" v="Sandåker" />
		<tag k="natural" v="slope" />
		<tag k="place" v="locality" />
		<tag k="ssr:stedsnr" v="837810" />
	</node>
	<node lat="59.92556944254614" lon="12.16421665905125" id="-20203">
		<tag k="name" v="Holtet" />
		<tag k="natural" v="slope" />
		<tag k="place" v="locality" />
		<tag k="ssr:stedsnr" v="837813" />
	</node>
	<node lat="59.998255556977405" lon="12.15187222086126" id="-20204">
		<tag k="name" v="Gubbemyrberget" />
		<tag k="natural" v="hill" />
		<tag k="place" v="locality" />
		<tag k="ssr:stedsnr" v="837986" />
	</node>
	<node lat="59.954875003508874" lon="12.024780564650333" id="-20205">
		<tag k="name" v="Høgåsknappen" />
		<tag k="natural" v="hill" />
		<tag k="place" v="locality" />
		<tag k="ssr:stedsnr" v="837997" />
	</node>
	<node lat="60.048044446426196" lon="12.225336116081579" id="-20236">
		<tag k="name" v="Svartbekkdalen" />
		<tag k="natural" v="valley" />
		<tag k="place" v="locality" />
		<tag k="ssr:stedsnr" v="897116" />
	</node>
	<node lat="60.03426944419775" lon="11.93064444317751" id="-20239">
		<tag k="fixme" v="consider natural=peak for the most distinct mountains in the district" />
		<tag k="name" v="Trettbråten" />
		<tag k="natural" v="hill" />
		<tag k="place" v="locality" />
		<tag k="ssr:stedsnr" v="897315" />
	</node>
	<node lat="59.95094444581324" lon="11.969411118239787" id="-20244">
		<tag k="name" v="Seljedalen" />
		<tag k="natural" v="valley" />
		<tag k="place" v="locality" />
		<tag k="ssr:stedsnr" v="897506" />
	</node>
	<node lat="59.88853332929583" lon="11.906022222804065" id="-20245">
		<tag k="name" v="Sæterhøgda" />
		<tag k="natural" v="hill" />
		<tag k="place" v="locality" />
		<tag k="ssr:stedsnr" v="897512" />
	</node>
	<node lat="59.98111111519098" lon="11.85159167019243" id="-20247">
		<tag k="name" v="Damkleiva" />
		<tag k="natural" v="slope" />
		<tag k="place" v="locality" />
		<tag k="ssr:stedsnr" v="897725" />
	</node>
	<node lat="60.11209166747043" lon="12.123227786212043" id="-20248">
		<tag k="name" v="Bakkeberget" />
		<tag k="natural" v="ridge" />
		<tag k="place" v="locality" />
		<tag k="ssr:stedsnr" v="897454" />
	</node>
	<node lat="59.98948333607008" lon="12.259888896711503" id="-20266">
		<tag k="name" v="Støvelholet" />
		<tag k="natural" v="valley" />
		<tag k="place" v="locality" />
		<tag k="ssr:stedsnr" v="915225" />
	</node>
	<node lat="59.96540277533501" lon="11.860994438379665" id="-20272">
		<tag k="name" v="Ljønerkollen" />
		<tag k="natural" v="hill" />
		<tag k="place" v="locality" />
		<tag k="ssr:stedsnr" v="915414" />
	</node>
	<node lat="60.044180555419494" lon="12.108486116290665" id="-20288">
		<tag k="name" v="Tukunberget" />
		<tag k="natural" v="hill" />
		<tag k="place" v="locality" />
		<tag k="ssr:stedsnr" v="916704" />
	</node>
	<node lat="60.04152500371776" lon="11.987974993606494" id="-20289">
		<tag k="name" v="Gjuvberget" />
		<tag k="natural" v="hill" />
		<tag k="place" v="locality" />
		<tag k="ssr:stedsnr" v="916713" />
	</node>
	<node lat="60.085408334097245" lon="12.167605550024787" id="-20294">
		<tag k="name" v="Plasseberget" />
		<tag k="natural" v="hill" />
		<tag k="place" v="locality" />
		<tag k="ssr:stedsnr" v="945109" />
	</node>
	<node lat="59.93096666645801" lon="12.175022221385348" id="-20295">
		<tag k="name" v="Gaustadsæterdalen" />
		<tag k="natural" v="valley" />
		<tag k="place" v="locality" />
		<tag k="ssr:stedsnr" v="229524" />
	</node>
	<node lat="59.95889166378876" lon="11.92386945108753" id="-20299">
		<tag k="name" v="Huldertjennberget" />
		<tag k="natural" v="hill" />
		<tag k="place" v="locality" />
		<tag k="ssr:stedsnr" v="957828" />
	</node>
	<node lat="59.9695944469821" lon="11.864897228411897" id="-20301">
		<tag k="name" v="Djupedråga" />
		<tag k="natural" v="valley" />
		<tag k="place" v="locality" />
		<tag k="ssr:stedsnr" v="957846" />
	</node>
	<node lat="59.931136110577874" lon="12.030280552433439" id="-20312">
		<tag k="name" v="Rosenlundhøgda" />
		<tag k="natural" v="hill" />
		<tag k="place" v="locality" />
		<tag k="ssr:stedsnr" v="958048" />
	</node>
	<node lat="59.98008333715275" lon="11.980588887038135" id="-20314">
		<tag k="name" v="Mellemberget" />
		<tag k="natural" v="hill" />
		<tag k="place" v="locality" />
		<tag k="ssr:stedsnr" v="958095" />
	</node>
	<node lat="59.967897223120204" lon="12.229155563238281" id="-20319">
		<tag k="name" v="Brennaberget" />
		<tag k="natural" v="hill" />
		<tag k="place" v="locality" />
		<tag k="ssr:stedsnr" v="958506" />
	</node>
	<node lat="60.07976666803687" lon="11.947777769507372" id="-20321">
		<tag k="fixme" v="consider natural=peak for the most distinct mountains in the district" />
		<tag k="name" v="Bruråsen" />
		<tag k="natural" v="hill" />
		<tag k="place" v="locality" />
		<tag k="ssr:stedsnr" v="958514" />
	</node>
	<node lat="60.096438885919746" lon="12.11781944845298" id="-20323">
		<tag k="name" v="Nilsbråten" />
		<tag k="natural" v="slope" />
		<tag k="place" v="locality" />
		<tag k="ssr:stedsnr" v="958517" />
	</node>
	<node lat="60.01522222441558" lon="12.081252769494782" id="-20325">
		<tag k="name" v="Rødbergshøgdene" />
		<tag k="natural" v="hill" />
		<tag k="place" v="locality" />
		<tag k="ssr:stedsnr" v="958534" />
	</node>
	<node lat="60.04121666293438" lon="12.02523611344995" id="-20327">
		<tag k="name" v="Fuglemyråsen" />
		<tag k="natural" v="hill" />
		<tag k="place" v="locality" />
		<tag k="ssr:stedsnr" v="958549" />
	</node>
	<node lat="59.94210277566329" lon="12.061372225496687" id="-20328">
		<tag k="name" v="Rådalen" />
		<tag k="natural" v="valley" />
		<tag k="place" v="locality" />
		<tag k="ssr:stedsnr" v="958550" />
	</node>
	<node lat="59.93990277358748" lon="11.879208327608344" id="-20338">
		<tag k="fixme" v="consider natural=peak for the most distinct mountains in the district" />
		<tag k="name" v="Vintertjennåsen" />
		<tag k="natural" v="hill" />
		<tag k="place" v="locality" />
		<tag k="ssr:stedsnr" v="958690" />
	</node>
	<node lat="60.05387221917109" lon="12.307322223237401" id="-20340">
		<tag k="fixme" v="consider natural=peak for the most distinct mountains in the district" />
		<tag k="name" v="Krenkedalshøgda" />
		<tag k="natural" v="hill" />
		<tag k="place" v="locality" />
		<tag k="ssr:stedsnr" v="958808" />
	</node>
	<node lat="59.97793611312114" lon="11.833124999078569" id="-20349">
		<tag k="name" v="Hundetjennknatten" />
		<tag k="natural" v="hill" />
		<tag k="place" v="locality" />
		<tag k="ssr:stedsnr" v="229046" />
	</node>
	<node lat="59.916099998709" lon="11.956147224749426" id="-20351">
		<tag k="name" v="Langvasslia" />
		<tag k="natural" v="slope" />
		<tag k="place" v="locality" />
		<tag k="ssr:stedsnr" v="229052" />
	</node>
	<node lat="59.92383611055535" lon="12.096705560375264" id="-20353">
		<tag k="name" v="Styggdalen" />
		<tag k="natural" v="valley" />
		<tag k="place" v="locality" />
		<tag k="ssr:stedsnr" v="229063" />
	</node>
	<node lat="59.99327500153839" lon="12.276800006822604" id="-20370">
		<tag k="name" v="Storliberget" />
		<tag k="natural" v="hill" />
		<tag k="place" v="locality" />
		<tag k="ssr:stedsnr" v="5246" />
	</node>
	<node lat="59.982466663374744" lon="11.85198055205135" id="-20375">
		<tag k="fixme" v="consider natural=peak for the most distinct mountains in the district" />
		<tag k="name" v="Marimyrberget" />
		<tag k="natural" v="hill" />
		<tag k="place" v="locality" />
		<tag k="ssr:stedsnr" v="5373" />
	</node>
	<node lat="59.993099997835635" lon="11.959299992904045" id="-20377">
		<tag k="name" v="Djupdalen" />
		<tag k="natural" v="valley" />
		<tag k="place" v="locality" />
		<tag k="ssr:stedsnr" v="5384" />
	</node>
	<node lat="60.05537222225847" lon="12.084661116087826" id="-20381">
		<tag k="name" v="Sæterlia" />
		<tag k="natural" v="slope" />
		<tag k="place" v="locality" />
		<tag k="ssr:stedsnr" v="5638" />
	</node>
	<node lat="60.10282499633894" lon="12.239675006747346" id="-20396">
		<tag k="fixme" v="consider natural=peak for the most distinct mountains in the district" />
		<tag k="name" v="Furutoppen" />
		<tag k="natural" v="hill" />
		<tag k="place" v="locality" />
		<tag k="ssr:stedsnr" v="5897" />
	</node>
	<node lat="59.945808334621006" lon="12.105074998637399" id="-20405">
		<tag k="name" v="Rølleknollen" />
		<tag k="natural" v="hill" />
		<tag k="place" v="locality" />
		<tag k="ssr:stedsnr" v="47044" />
	</node>
	<node lat="59.92816110854199" lon="12.04986388870092" id="-20408">
		<tag k="name" v="Lomtjennberget" />
		<tag k="natural" v="hill" />
		<tag k="place" v="locality" />
		<tag k="ssr:stedsnr" v="47058" />
	</node>
	<node lat="59.96517222145334" lon="12.296111107994975" id="-20411">
		<tag k="name" v="Kirkeberget" />
		<tag k="natural" v="hill" />
		<tag k="place" v="locality" />
		<tag k="ssr:stedsnr" v="47138" />
	</node>
	<node lat="59.97920277497588" lon="12.25495278301588" id="-20412">
		<tag k="name" v="Slettmolia" />
		<tag k="natural" v="slope" />
		<tag k="place" v="locality" />
		<tag k="ssr:stedsnr" v="47141" />
	</node>
	<node lat="59.84898333163527" lon="11.85999443568515" id="-20417">
		<tag k="name" v="Aurslakullen" />
		<tag k="natural" v="hill" />
		<tag k="place" v="locality" />
		<tag k="ssr:stedsnr" v="47283" />
	</node>
	<node lat="59.96229722489446" lon="11.913680548075755" id="-20418">
		<tag k="name" v="Stormyrlia" />
		<tag k="natural" v="slope" />
		<tag k="place" v="locality" />
		<tag k="ssr:stedsnr" v="47296" />
	</node>
	<node lat="59.96341111174303" lon="11.899649994753588" id="-20419">
		<tag k="name" v="Syltemyrberget" />
		<tag k="natural" v="slope" />
		<tag k="place" v="locality" />
		<tag k="ssr:stedsnr" v="47298" />
	</node>
	<node lat="59.9777111149921" lon="11.94583055442749" id="-20420">
		<tag k="name" v="Kalvhaughøgda" />
		<tag k="natural" v="hill" />
		<tag k="place" v="locality" />
		<tag k="ssr:stedsnr" v="47315" />
	</node>
	<node lat="60.049613891710976" lon="12.164163888224245" id="-20421">
		<tag k="name" v="Ås" />
		<tag k="natural" v="hill" />
		<tag k="place" v="locality" />
		<tag k="ssr:stedsnr" v="47496" />
	</node>
	<node lat="60.050188887734464" lon="12.16813889112738" id="-20423">
		<tag k="name" v="Rundehorn" />
		<tag k="natural" v="hill" />
		<tag k="place" v="locality" />
		<tag k="ssr:stedsnr" v="47498" />
	</node>
	<node lat="59.98020278233674" lon="12.29106944019903" id="-20424">
		<tag k="fixme" v="consider natural=peak for the most distinct mountains in the district" />
		<tag k="name" v="Leirbrumyråsen" />
		<tag k="natural" v="hill" />
		<tag k="place" v="locality" />
		<tag k="ssr:stedsnr" v="47145" />
	</node>
	<node lat="60.068422225392204" lon="12.181294446004259" id="-20425">
		<tag k="name" v="Røsløgndulpa" />
		<tag k="natural" v="valley" />
		<tag k="place" v="locality" />
		<tag k="ssr:stedsnr" v="47146" />
	</node>
	<node lat="59.9064027769574" lon="12.143799992591399" id="-20426">
		<tag k="name" v="Sleppen" />
		<tag k="natural" v="slope" />
		<tag k="place" v="locality" />
		<tag k="ssr:stedsnr" v="47156" />
	</node>
	<node lat="59.96535000436509" lon="12.328491663434212" id="-20427">
		<tag k="name" v="Helleberget" />
		<tag k="natural" v="slope" />
		<tag k="place" v="locality" />
		<tag k="ssr:stedsnr" v="47157" />
	</node>
	<node lat="59.971563885060185" lon="12.31573611801875" id="-20428">
		<tag k="name" v="Fallbakken" />
		<tag k="natural" v="slope" />
		<tag k="place" v="locality" />
		<tag k="ssr:stedsnr" v="47158" />
	</node>
	<node lat="59.97672777512624" lon="12.350411105073613" id="-20429">
		<tag k="name" v="Kvartrullen" />
		<tag k="natural" v="slope" />
		<tag k="place" v="locality" />
		<tag k="ssr:stedsnr" v="47161" />
	</node>
	<node lat="60.102986111099916" lon="12.237088893593365" id="-20432">
		<tag k="name" v="Furutoppen" />
		<tag k="natural" v="slope" />
		<tag k="place" v="locality" />
		<tag k="ssr:stedsnr" v="47235" />
	</node>
	<node lat="59.96461388777186" lon="11.81823055424703" id="-20436">
		<tag k="name" v="Høglidalen" />
		<tag k="natural" v="valley" />
		<tag k="place" v="locality" />
		<tag k="ssr:stedsnr" v="47460" />
	</node>
	<node lat="59.934197219634726" lon="12.13611666988983" id="-20437">
		<tag k="name" v="Deldalen" />
		<tag k="natural" v="valley" />
		<tag k="place" v="locality" />
		<tag k="ssr:stedsnr" v="47524" />
	</node>
	<node lat="60.10629166484193" lon="12.096999998451393" id="-20438">
		<tag k="name" v="Gardsberget" />
		<tag k="natural" v="ridge" />
		<tag k="place" v="locality" />
		<tag k="ssr:stedsnr" v="47527" />
	</node>
	<node lat="59.87778611162334" lon="11.834122225238477" id="-20441">
		<tag k="name" v="Karlsbråtadalen" />
		<tag k="natural" v="valley" />
		<tag k="place" v="locality" />
		<tag k="ssr:stedsnr" v="47944" />
	</node>
	<node lat="59.89659722389886" lon="12.127005552887496" id="-20447">
		<tag k="name" v="Braserudknatten" />
		<tag k="natural" v="hill" />
		<tag k="place" v="locality" />
		<tag k="ssr:stedsnr" v="48062" />
	</node>
	<node lat="60.04435000285609" lon="12.055688882460899" id="-20449">
		<tag k="name" v="Hornsjøåsen" />
		<tag k="natural" v="hill" />
		<tag k="place" v="locality" />
		<tag k="ssr:stedsnr" v="48067" />
	</node>
	<node lat="60.05024167090193" lon="12.252852785542924" id="-20457">
		<tag k="loc_name" v="Fjellsmyrberget" />
		<tag k="name" v="Fjelsmyrberget" />
		<tag k="natural" v="hill" />
		<tag k="place" v="locality" />
		<tag k="ssr:stedsnr" v="48097" />
	</node>
	<node lat="60.069808333454816" lon="12.170222218878289" id="-20459">
		<tag k="name" v="Knarten" />
		<tag k="natural" v="hill" />
		<tag k="place" v="locality" />
		<tag k="ssr:stedsnr" v="48193" />
	</node>
	<node lat="60.042700004151435" lon="12.14084722286894" id="-20467">
		<tag k="name" v="Sagfalla" />
		<tag k="natural" v="slope" />
		<tag k="place" v="locality" />
		<tag k="ssr:stedsnr" v="48480" />
	</node>
	<node lat="59.95105277926034" lon="12.03453888422195" id="-20469">
		<tag k="name" v="Djupdalen" />
		<tag k="natural" v="valley" />
		<tag k="place" v="locality" />
		<tag k="ssr:stedsnr" v="48492" />
	</node>
	<node lat="59.902811111117444" lon="11.856350006899753" id="-20472">
		<tag k="name" v="Abbortjennbråten" />
		<tag k="natural" v="slope" />
		<tag k="place" v="locality" />
		<tag k="ssr:stedsnr" v="48464" />
	</node>
	<node lat="59.92903611529238" lon="12.091574996224644" id="-20473">
		<tag k="name" v="Flintrop" />
		<tag k="natural" v="hill" />
		<tag k="place" v="locality" />
		<tag k="ssr:stedsnr" v="229118" />
	</node>
	<node lat="59.91817777923168" lon="12.101491667658841" id="-20474">
		<tag k="name" v="Sotbråtan" />
		<tag k="natural" v="slope" />
		<tag k="place" v="locality" />
		<tag k="ssr:stedsnr" v="229119" />
	</node>
	<node lat="59.98088611308002" lon="12.238108334032551" id="-20479">
		<tag k="name" v="Gransæterhaget" />
		<tag k="natural" v="slope" />
		<tag k="place" v="locality" />
		<tag k="ssr:stedsnr" v="48787" />
	</node>
	<node lat="59.950950000059834" lon="12.082308328233141" id="-20482">
		<tag k="name" v="Kalengdalen" />
		<tag k="natural" v="valley" />
		<tag k="place" v="locality" />
		<tag k="ssr:stedsnr" v="48742" />
	</node>
	<node lat="59.87582222611901" lon="11.849788894288052" id="-20488">
		<tag k="name" v="Revdalen" />
		<tag k="natural" v="valley" />
		<tag k="place" v="locality" />
		<tag k="ssr:stedsnr" v="48989" />
	</node>
	<node lat="59.994747222822895" lon="11.950922218753105" id="-20501">
		<tag k="fixme" v="consider natural=peak for the most distinct mountains in the district" />
		<tag k="name" v="Kvernberget" />
		<tag k="natural" v="hill" />
		<tag k="place" v="locality" />
		<tag k="ssr:stedsnr" v="66379" />
	</node>
	<node lat="59.98213611430132" lon="11.923405548333285" id="-20505">
		<tag k="fixme" v="consider natural=peak for the most distinct mountains in the district" />
		<tag k="name" v="Tokonnholåsen" />
		<tag k="natural" v="hill" />
		<tag k="place" v="locality" />
		<tag k="ssr:stedsnr" v="66449" />
	</node>
	<node lat="60.01318055655936" lon="12.232705552884653" id="-20507">
		<tag k="name" v="Igletjenntoppen" />
		<tag k="natural" v="hill" />
		<tag k="place" v="locality" />
		<tag k="ssr:stedsnr" v="66028" />
	</node>
	<node lat="59.930091663790286" lon="12.112413894849835" id="-20516">
		<tag k="name" v="Hetfjellet" />
		<tag k="natural" v="hill" />
		<tag k="place" v="locality" />
		<tag k="ssr:stedsnr" v="66337" />
	</node>
	<node lat="60.0128138889656" lon="11.963088887487075" id="-20525">
		<tag k="fixme" v="consider natural=peak for the most distinct mountains in the district" />
		<tag k="name" v="Gruåsen" />
		<tag k="natural" v="hill" />
		<tag k="place" v="locality" />
		<tag k="ssr:stedsnr" v="66851" />
	</node>
	<node lat="60.08263333147499" lon="12.228424992032494" id="-20526">
		<tag k="name" v="Fjølungsberget" />
		<tag k="natural" v="hill" />
		<tag k="place" v="locality" />
		<tag k="ssr:stedsnr" v="66891" />
	</node>
	<node lat="59.887266665579354" lon="11.907047216824655" id="-20530">
		<tag k="name" v="Suterdalen" />
		<tag k="natural" v="valley" />
		<tag k="place" v="locality" />
		<tag k="ssr:stedsnr" v="229270" />
	</node>
	<node lat="60.0635527758574" lon="11.981547217149094" id="-20531">
		<tag k="fixme" v="consider natural=peak for the most distinct mountains in the district" />
		<tag k="name" v="Reisbråtahøgda" />
		<tag k="natural" v="hill" />
		<tag k="place" v="locality" />
		<tag k="ssr:stedsnr" v="229360" />
	</node>
	<node lat="59.91703611438988" lon="12.080380558156545" id="-20532">
		<tag k="name" v="Sjøendberget" />
		<tag k="natural" v="hill" />
		<tag k="place" v="locality" />
		<tag k="ssr:stedsnr" v="229365" />
	</node>
	<node lat="59.902108336734564" lon="11.821872219275978" id="-20535">
		<tag k="fixme" v="consider natural=peak for the most distinct mountains in the district" />
		<tag k="name" v="Langbrumyråsen" />
		<tag k="natural" v="hill" />
		<tag k="place" v="locality" />
		<tag k="ssr:stedsnr" v="229470" />
	</node>
	<node lat="59.896161107131256" lon="11.821408336370096" id="-20536">
		<tag k="name" v="Vanghaget" />
		<tag k="natural" v="hill" />
		<tag k="place" v="locality" />
		<tag k="ssr:stedsnr" v="229472" />
	</node>
	<node lat="59.99296944303233" lon="12.124888887383701" id="-20545">
		<tag k="name" v="Skotterudberget" />
		<tag k="natural" v="hill" />
		<tag k="place" v="locality" />
		<tag k="ssr:stedsnr" v="108525" />
	</node>
	<node lat="59.93832222510978" lon="12.258291665924183" id="-20550">
		<tag k="fixme" v="consider natural=peak for the most distinct mountains in the district" />
		<tag k="name" v="Ekornåsen" />
		<tag k="natural" v="hill" />
		<tag k="place" v="locality" />
		<tag k="ssr:stedsnr" v="108233" />
	</node>
	<node lat="59.92791389122654" lon="12.042538893877826" id="-20551">
		<tag k="fixme" v="consider natural=peak for the most distinct mountains in the district" />
		<tag k="name" v="Søndre Steringsåsen" />
		<tag k="natural" v="hill" />
		<tag k="place" v="locality" />
		<tag k="ssr:stedsnr" v="108057" />
	</node>
	<node lat="59.90947777920512" lon="12.195050004389222" id="-20554">
		<tag k="name" v="Østre Lauvhaugen" />
		<tag k="natural" v="hill" />
		<tag k="place" v="locality" />
		<tag k="ssr:stedsnr" v="108136" />
	</node>
	<node lat="60.124844440653405" lon="12.202827775777282" id="-20556">
		<tag k="name" v="Høgdemyrberget" />
		<tag k="natural" v="hill" />
		<tag k="place" v="locality" />
		<tag k="ssr:stedsnr" v="108154" />
	</node>
	<node lat="59.974838890005714" lon="12.272094445588154" id="-20564">
		<tag k="name" v="Brenna" />
		<tag k="natural" v="slope" />
		<tag k="place" v="locality" />
		<tag k="ssr:stedsnr" v="108248" />
	</node>
	<node lat="59.87606666910114" lon="11.879491659489833" id="-20566">
		<tag k="name" v="Langvikdalen" />
		<tag k="natural" v="valley" />
		<tag k="place" v="locality" />
		<tag k="ssr:stedsnr" v="108258" />
	</node>
	<node lat="59.88719166817854" lon="12.154711115930521" id="-20573">
		<tag k="name" v="Skårgården" />
		<tag k="natural" v="hill" />
		<tag k="place" v="locality" />
		<tag k="ssr:stedsnr" v="108359" />
	</node>
	<node lat="59.92016388483155" lon="12.000747228861401" id="-20576">
		<tag k="name" v="Toterudberget" />
		<tag k="natural" v="hill" />
		<tag k="place" v="locality" />
		<tag k="ssr:stedsnr" v="108438" />
	</node>
	<node lat="60.09072222297075" lon="12.05688334047205" id="-20583">
		<tag k="name" v="Orrehella" />
		<tag k="natural" v="hill" />
		<tag k="place" v="locality" />
		<tag k="ssr:stedsnr" v="108556" />
	</node>
	<node lat="60.02150000059866" lon="12.213158342141158" id="-20590">
		<tag k="name" v="Raufjellet" />
		<tag k="natural" v="hill" />
		<tag k="place" v="locality" />
		<tag k="ssr:stedsnr" v="108880" />
	</node>
	<node lat="60.131680553218786" lon="12.189588884402031" id="-20591">
		<tag k="name" v="Merreholtet" />
		<tag k="natural" v="slope" />
		<tag k="place" v="locality" />
		<tag k="ssr:stedsnr" v="108881" />
	</node>
	<node lat="59.96622222469583" lon="12.01727499292169" id="-20593">
		<tag k="name" v="Graslausen" />
		<tag k="natural" v="hill" />
		<tag k="place" v="locality" />
		<tag k="ssr:stedsnr" v="108950" />
	</node>
	<node lat="59.87549722331772" lon="11.844616671756977" id="-20594">
		<tag k="name" v="Bukkemoen" />
		<tag k="place" v="locality" />
		<tag k="ssr:stedsnr" v="108952" />
	</node>
	<node lat="60.00554444898143" lon="12.146186109765456" id="-20596">
		<tag k="name" v="Brudekleiva" />
		<tag k="natural" v="slope" />
		<tag k="place" v="locality" />
		<tag k="ssr:stedsnr" v="108975" />
	</node>
	<node lat="60.06602222630808" lon="11.863713893539103" id="-20602">
		<tag k="name" v="Djupdalen" />
		<tag k="natural" v="valley" />
		<tag k="place" v="locality" />
		<tag k="ssr:stedsnr" v="109551" />
	</node>
	<node lat="59.97911110950598" lon="11.807497223744509" id="-20606">
		<tag k="name" v="Gørrholtet" />
		<tag k="natural" v="slope" />
		<tag k="place" v="locality" />
		<tag k="ssr:stedsnr" v="109701" />
	</node>
	<node lat="60.04834444790641" lon="11.902941672825385" id="-20607">
		<tag k="name" v="Bekklia" />
		<tag k="natural" v="slope" />
		<tag k="place" v="locality" />
		<tag k="ssr:stedsnr" v="109801" />
	</node>
	<node lat="59.94222222636912" lon="12.032291664843685" id="-20609">
		<tag k="alt_name" v="Stæringåsen" />
		<tag k="fixme" v="consider natural=peak for the most distinct mountains in the district" />
		<tag k="name" v="Stæringsåsen" />
		<tag k="natural" v="hill" />
		<tag k="place" v="locality" />
		<tag k="ssr:stedsnr" v="109964" />
	</node>
	<node lat="59.99131666369007" lon="11.900425008165985" id="-20617">
		<tag k="fixme" v="consider natural=peak for the most distinct mountains in the district" />
		<tag k="name" v="Bjørnlihøgda" />
		<tag k="natural" v="hill" />
		<tag k="place" v="locality" />
		<tag k="ssr:stedsnr" v="126393" />
	</node>
	<node lat="60.03537500100129" lon="12.256100004265495" id="-20624">
		<tag k="name" v="Lauvåsberget" />
		<tag k="natural" v="hill" />
		<tag k="place" v="locality" />
		<tag k="ssr:stedsnr" v="126027" />
	</node>
	<node lat="60.017649995630215" lon="12.218225007506755" id="-20625">
		<tag k="name" v="Veksberget" />
		<tag k="natural" v="hill" />
		<tag k="place" v="locality" />
		<tag k="ssr:stedsnr" v="126033" />
	</node>
	<node lat="60.017138891853776" lon="11.940105558607272" id="-20633">
		<tag k="fixme" v="consider natural=peak for the most distinct mountains in the district" />
		<tag k="name" v="Buåsen" />
		<tag k="natural" v="hill" />
		<tag k="place" v="locality" />
		<tag k="ssr:stedsnr" v="126637" />
	</node>
	<node lat="60.11027500272241" lon="12.191774992484651" id="-20644">
		<tag k="fixme" v="consider natural=peak for the most distinct mountains in the district" />
		<tag k="name" v="Bufjellet" />
		<tag k="natural" v="hill" />
		<tag k="place" v="locality" />
		<tag k="ssr:stedsnr" v="127572" />
	</node>
	<node lat="59.96994722066302" lon="12.036719445884845" id="-20648">
		<tag k="name" v="Smalongen" />
		<tag k="natural" v="slope" />
		<tag k="place" v="locality" />
		<tag k="ssr:stedsnr" v="229397" />
	</node>
	<node lat="59.99717777894968" lon="12.204780554676367" id="-20657">
		<tag k="name" v="Årneshaget" />
		<tag k="natural" v="slope" />
		<tag k="place" v="locality" />
		<tag k="ssr:stedsnr" v="168876" />
	</node>
	<node lat="60.051441668774686" lon="12.217566674573913" id="-20667">
		<tag k="fixme" v="consider natural=peak for the most distinct mountains in the district" />
		<tag k="name" v="Langåsen" />
		<tag k="natural" v="hill" />
		<tag k="place" v="locality" />
		<tag k="ssr:stedsnr" v="169097" />
	</node>
	<node lat="59.97835833116241" lon="11.812722222800724" id="-20675">
		<tag k="name" v="Høgberget" />
		<tag k="natural" v="hill" />
		<tag k="place" v="locality" />
		<tag k="ssr:stedsnr" v="169032" />
	</node>
	<node lat="59.93203888729774" lon="12.038977774346632" id="-20677">
		<tag k="fixme" v="consider natural=peak for the most distinct mountains in the district" />
		<tag k="name" v="Nordre Steringsåsen" />
		<tag k="natural" v="hill" />
		<tag k="place" v="locality" />
		<tag k="ssr:stedsnr" v="169049" />
	</node>
	<node lat="59.95408888693138" lon="12.256544437200926" id="-20679">
		<tag k="name" v="Kalbråtan" />
		<tag k="natural" v="slope" />
		<tag k="place" v="locality" />
		<tag k="ssr:stedsnr" v="169120" />
	</node>
	<node lat="60.086341662387305" lon="12.183911118271274" id="-20682">
		<tag k="name" v="Ilbakken" />
		<tag k="natural" v="slope" />
		<tag k="place" v="locality" />
		<tag k="ssr:stedsnr" v="169148" />
	</node>
	<node lat="59.974483337874524" lon="11.950402774906467" id="-20686">
		<tag k="name" v="Elgebakken" />
		<tag k="natural" v="valley" />
		<tag k="place" v="locality" />
		<tag k="ssr:stedsnr" v="169271" />
	</node>
	<node lat="59.97243610694704" lon="11.952225005631865" id="-20687">
		<tag k="name" v="Hedumshøgda" />
		<tag k="natural" v="hill" />
		<tag k="place" v="locality" />
		<tag k="ssr:stedsnr" v="169272" />
	</node>
	<node lat="59.96052777759114" lon="11.932666658062997" id="-20689">
		<tag k="fixme" v="consider natural=peak for the most distinct mountains in the district" />
		<tag k="name" v="Lokkarsteina" />
		<tag k="natural" v="hill" />
		<tag k="place" v="locality" />
		<tag k="ssr:stedsnr" v="169275" />
	</node>
	<node lat="59.99935555516987" lon="12.240030560075535" id="-20693">
		<tag k="name" v="Bakkehaget" />
		<tag k="natural" v="slope" />
		<tag k="place" v="locality" />
		<tag k="ssr:stedsnr" v="169372" />
	</node>
	<node lat="59.9107861115702" lon="11.991291662177277" id="-20696">
		<tag k="fixme" v="consider natural=peak for the most distinct mountains in the district" />
		<tag k="name" v="Brenna" />
		<tag k="natural" v="hill" />
		<tag k="place" v="locality" />
		<tag k="ssr:stedsnr" v="169329" />
	</node>
	<node lat="59.90006388548851" lon="11.823716658930458" id="-20700">
		<tag k="name" v="Ormelia" />
		<tag k="natural" v="slope" />
		<tag k="place" v="locality" />
		<tag k="ssr:stedsnr" v="169487" />
	</node>
	<node lat="60.04229166535911" lon="12.131258326040186" id="-20703">
		<tag k="name" v="Jerntjennbråten" />
		<tag k="natural" v="slope" />
		<tag k="place" v="locality" />
		<tag k="ssr:stedsnr" v="169501" />
	</node>
	<node lat="59.94890833600567" lon="11.975947218269267" id="-20707">
		<tag k="name" v="Ragnhildteppa" />
		<tag k="natural" v="slope" />
		<tag k="place" v="locality" />
		<tag k="ssr:stedsnr" v="169539" />
	</node>
	<node lat="59.977019443882455" lon="11.952825000244609" id="-20711">
		<tag k="name" v="Dulpehøgda" />
		<tag k="natural" v="hill" />
		<tag k="place" v="locality" />
		<tag k="ssr:stedsnr" v="169648" />
	</node>
	<node lat="59.97581666640155" lon="11.956488890492531" id="-20712">
		<tag k="name" v="Askedalen" />
		<tag k="natural" v="valley" />
		<tag k="place" v="locality" />
		<tag k="ssr:stedsnr" v="169654" />
	</node>
	<node lat="59.950813888197125" lon="12.09888333973063" id="-20716">
		<tag k="name" v="Djupdalen" />
		<tag k="natural" v="valley" />
		<tag k="place" v="locality" />
		<tag k="ssr:stedsnr" v="169766" />
	</node>
	<node lat="60.00596111357729" lon="11.96216388983405" id="-20717">
		<tag k="name" v="Buberget" />
		<tag k="natural" v="hill" />
		<tag k="place" v="locality" />
		<tag k="ssr:stedsnr" v="169771" />
	</node>
	<node lat="60.016983334511124" lon="11.939230560955432" id="-20719">
		<tag k="name" v="Brattberget" />
		<tag k="natural" v="hill" />
		<tag k="place" v="locality" />
		<tag k="ssr:stedsnr" v="169780" />
	</node>
	<node lat="60.07463888511694" lon="11.978186112051997" id="-20720">
		<tag k="fixme" v="consider natural=peak for the most distinct mountains in the district" />
		<tag k="loc_name" v="Helledamberget" />
		<tag k="name" v="Helledammberget" />
		<tag k="natural" v="hill" />
		<tag k="place" v="locality" />
		<tag k="ssr:stedsnr" v="169932" />
	</node>
	<node lat="60.01738333735611" lon="12.164341674098829" id="-20722">
		<tag k="name" v="Tekstebakken" />
		<tag k="natural" v="slope" />
		<tag k="place" v="locality" />
		<tag k="ssr:stedsnr" v="169985" />
	</node>
	<node lat="59.90825277578654" lon="11.8225250031347" id="-20725">
		<tag k="fixme" v="consider natural=peak for the most distinct mountains in the district" />
		<tag k="name" v="Kalvåsen" />
		<tag k="natural" v="hill" />
		<tag k="place" v="locality" />
		<tag k="ssr:stedsnr" v="186226" />
	</node>
	<node lat="59.9008361087904" lon="11.84061666471881" id="-20726">
		<tag k="name" v="Venlia" />
		<tag k="natural" v="hill" />
		<tag k="place" v="locality" />
		<tag k="ssr:stedsnr" v="186256" />
	</node>
	<node lat="60.034933330737545" lon="12.07205556146672" id="-20728">
		<tag k="name" v="Slaberget" />
		<tag k="natural" v="hill" />
		<tag k="place" v="locality" />
		<tag k="ssr:stedsnr" v="187587" />
	</node>
	<node lat="60.032550000290435" lon="12.237202777125196" id="-20730">
		<tag k="name" v="Djupedalen" />
		<tag k="natural" v="valley" />
		<tag k="place" v="locality" />
		<tag k="ssr:stedsnr" v="187021" />
	</node>
	<node lat="59.86602777829287" lon="11.843524991139699" id="-20732">
		<tag k="fixme" v="consider natural=peak for the most distinct mountains in the district" />
		<tag k="name" v="Mortenfallet" />
		<tag k="natural" v="hill" />
		<tag k="place" v="locality" />
		<tag k="ssr:stedsnr" v="187136" />
	</node>
	<node lat="59.902277774971" lon="11.954613893115997" id="-20736">
		<tag k="fixme" v="consider natural=peak for the most distinct mountains in the district" />
		<tag k="name" v="Åbbortjennhøgda" />
		<tag k="natural" v="hill" />
		<tag k="place" v="locality" />
		<tag k="ssr:stedsnr" v="187166" />
	</node>
	<node lat="60.03176944750756" lon="12.148116664579742" id="-20756">
		<tag k="fixme" v="consider natural=peak for the most distinct mountains in the district" />
		<tag k="name" v="Torpåsen" />
		<tag k="natural" v="hill" />
		<tag k="place" v="locality" />
		<tag k="ssr:stedsnr" v="187595" />
	</node>
	<node lat="60.05075000341653" lon="12.019586105863901" id="-20757">
		<tag k="name" v="Løvskogberget" />
		<tag k="natural" v="hill" />
		<tag k="place" v="locality" />
		<tag k="ssr:stedsnr" v="187620" />
	</node>
	<node lat="60.0094611134899" lon="12.194166674184647" id="-20759">
		<tag k="name" v="Tørkerhøgda" />
		<tag k="natural" v="hill" />
		<tag k="place" v="locality" />
		<tag k="ssr:stedsnr" v="187845" />
	</node>
	<node lat="60.006077777811484" lon="12.027547230416845" id="-20760">
		<tag k="alt_name" v="Raufjellet" />
		<tag k="fixme" v="consider natural=peak for the most distinct mountains in the district" />
		<tag k="name" v="Raudfjellet" />
		<tag k="natural" v="hill" />
		<tag k="place" v="locality" />
		<tag k="ssr:stedsnr" v="187851" />
	</node>
	<node lat="60.08640555350516" lon="12.055038884721217" id="-20768">
		<tag k="name" v="Hornkjølberget" />
		<tag k="natural" v="hill" />
		<tag k="place" v="locality" />
		<tag k="ssr:stedsnr" v="188751" />
	</node>
	<node lat="60.027297223108235" lon="12.321141669216265" id="-20771">
		<tag k="name" v="Flatjennhøgda" />
		<tag k="natural" v="hill" />
		<tag k="place" v="locality" />
		<tag k="ssr:stedsnr" v="218033" />
	</node>
	<node lat="59.90374444026153" lon="12.114219443186832" id="-20776">
		<tag k="name" v="Vangberget" />
		<tag k="natural" v="hill" />
		<tag k="place" v="locality" />
		<tag k="ssr:stedsnr" v="290089" />
	</node>
	<node lat="60.05133333678371" lon="12.01767500072238" id="-20777">
		<tag k="name" v="Løvskogberget" />
		<tag k="natural" v="hill" />
		<tag k="place" v="locality" />
		<tag k="ssr:stedsnr" v="290096" />
	</node>
	<node lat="59.90393888919865" lon="11.975266661537987" id="-20780">
		<tag k="fixme" v="consider natural=peak for the most distinct mountains in the district" />
		<tag k="name" v="Elgåsen" />
		<tag k="natural" v="hill" />
		<tag k="place" v="locality" />
		<tag k="ssr:stedsnr" v="290319" />
	</node>
	<node lat="59.961611109477076" lon="11.852138887449332" id="-20781">
		<tag k="name" v="Nedre Akrilberget" />
		<tag k="natural" v="hill" />
		<tag k="place" v="locality" />
		<tag k="ssr:stedsnr" v="290422" />
	</node>
	<node lat="60.07768333355001" lon="12.146222225472291" id="-20785">
		<tag k="name" v="Moberget" />
		<tag k="natural" v="hill" />
		<tag k="place" v="locality" />
		<tag k="ssr:stedsnr" v="290158" />
	</node>
	<node lat="60.075430553739146" lon="12.079724991041317" id="-20787">
		<tag k="fixme" v="consider natural=peak for the most distinct mountains in the district" />
		<tag k="name" v="Svartkjølen" />
		<tag k="natural" v="hill" />
		<tag k="place" v="locality" />
		<tag k="ssr:stedsnr" v="290101" />
	</node>
	<node lat="59.89272221786227" lon="11.935969446585615" id="-20791">
		<tag k="name" v="Brudalen" />
		<tag k="natural" v="valley" />
		<tag k="place" v="locality" />
		<tag k="ssr:stedsnr" v="290272" />
	</node>
	<node lat="59.91378332902425" lon="12.125033330795606" id="-20793">
		<tag k="name" v="Strutmyrhøgda" />
		<tag k="natural" v="hill" />
		<tag k="place" v="locality" />
		<tag k="ssr:stedsnr" v="290341" />
	</node>
	<node lat="59.973705553357306" lon="12.217349999964537" id="-20794">
		<tag k="name" v="Stampåsen" />
		<tag k="natural" v="hill" />
		<tag k="place" v="locality" />
		<tag k="ssr:stedsnr" v="290356" />
	</node>
	<node lat="59.94260832978669" lon="12.003997221325456" id="-20795">
		<tag k="name" v="Mastberget" />
		<tag k="natural" v="hill" />
		<tag k="place" v="locality" />
		<tag k="ssr:stedsnr" v="290374" />
	</node>
	<node lat="60.09973333202935" lon="12.166480561913648" id="-20797">
		<tag k="name" v="Stormyråsen" />
		<tag k="natural" v="hill" />
		<tag k="place" v="locality" />
		<tag k="ssr:stedsnr" v="290450" />
	</node>
	<node lat="59.96028333050567" lon="12.090533334046377" id="-20798">
		<tag k="name" v="Kroksjødalen" />
		<tag k="natural" v="valley" />
		<tag k="place" v="locality" />
		<tag k="ssr:stedsnr" v="290460" />
	</node>
	<node lat="59.920516662801354" lon="12.148766659932624" id="-20799">
		<tag k="name" v="Kumyrdalen" />
		<tag k="natural" v="valley" />
		<tag k="place" v="locality" />
		<tag k="ssr:stedsnr" v="290464" />
	</node>
	<node lat="59.865691663983014" lon="11.867080554416729" id="-20801">
		<tag k="name" v="Mohøgda" />
		<tag k="natural" v="hill" />
		<tag k="place" v="locality" />
		<tag k="ssr:stedsnr" v="290561" />
	</node>
	<node lat="59.98788611187934" lon="11.821077785410619" id="-20803">
		<tag k="name" v="Damlia" />
		<tag k="natural" v="slope" />
		<tag k="place" v="locality" />
		<tag k="ssr:stedsnr" v="290701" />
	</node>
	<node lat="59.96305555996043" lon="12.019347214233093" id="-20804">
		<tag k="name" v="Kattlidalen" />
		<tag k="natural" v="valley" />
		<tag k="place" v="locality" />
		<tag k="ssr:stedsnr" v="290715" />
	</node>
	<node lat="59.93546388700484" lon="11.921805563502108" id="-20805">
		<tag k="name" v="Grauthallet" />
		<tag k="natural" v="hill" />
		<tag k="place" v="locality" />
		<tag k="ssr:stedsnr" v="290786" />
	</node>
	<node lat="59.994327782171275" lon="12.298716670516718" id="-20808">
		<tag k="fixme" v="consider natural=peak for the most distinct mountains in the district" />
		<tag k="name" v="Larsåsen" />
		<tag k="natural" v="hill" />
		<tag k="place" v="locality" />
		<tag k="ssr:stedsnr" v="290830" />
	</node>
	<node lat="59.971299996344115" lon="12.202930553271395" id="-20811">
		<tag k="name" v="Tørrkoppen" />
		<tag k="natural" v="hill" />
		<tag k="place" v="locality" />
		<tag k="ssr:stedsnr" v="290868" />
	</node>
	<node lat="59.96311388852897" lon="11.87731389607352" id="-20829">
		<tag k="name" v="Gravliknatten" />
		<tag k="natural" v="hill" />
		<tag k="place" v="locality" />
		<tag k="ssr:stedsnr" v="291649" />
	</node>
	<node lat="60.039049999814935" lon="12.0162333355112" id="-20842">
		<tag k="name" v="Merraberget" />
		<tag k="natural" v="hill" />
		<tag k="place" v="locality" />
		<tag k="ssr:stedsnr" v="309649" />
	</node>
	<node lat="59.99017500367385" lon="11.975525009150205" id="-20844">
		<tag k="fixme" v="consider natural=peak for the most distinct mountains in the district" />
		<tag k="name" v="Eikeberget" />
		<tag k="natural" v="hill" />
		<tag k="place" v="locality" />
		<tag k="ssr:stedsnr" v="308366" />
	</node>
	<node lat="60.023813885370025" lon="11.927427772386599" id="-20846">
		<tag k="name" v="Stutaugberget" />
		<tag k="natural" v="hill" />
		<tag k="place" v="locality" />
		<tag k="ssr:stedsnr" v="308625" />
	</node>
	<node lat="60.01117499921586" lon="11.880208325268974" id="-20855">
		<tag k="name" v="Gravliberget" />
		<tag k="natural" v="hill" />
		<tag k="place" v="locality" />
		<tag k="ssr:stedsnr" v="308871" />
	</node>
	<node lat="59.919788886709156" lon="12.188802769755316" id="-20858">
		<tag k="fixme" v="consider natural=peak for the most distinct mountains in the district" />
		<tag k="name" v="Sæterhøgda" />
		<tag k="natural" v="hill" />
		<tag k="place" v="locality" />
		<tag k="ssr:stedsnr" v="309195" />
	</node>
	<node lat="59.962194443957735" lon="12.261249992821522" id="-20865">
		<tag k="name" v="Djupdalen" />
		<tag k="natural" v="valley" />
		<tag k="place" v="locality" />
		<tag k="ssr:stedsnr" v="309246" />
	</node>
	<node lat="60.03607222036073" lon="12.084191674457259" id="-20887">
		<tag k="fixme" v="consider natural=peak for the most distinct mountains in the district" />
		<tag k="name" v="Tomteråsen" />
		<tag k="natural" v="hill" />
		<tag k="place" v="locality" />
		<tag k="ssr:stedsnr" v="350506" />
	</node>
	<node lat="59.89774722479667" lon="11.85040555789453" id="-20889">
		<tag k="name" v="Bukkeramshullet" />
		<tag k="natural" v="valley" />
		<tag k="place" v="locality" />
		<tag k="ssr:stedsnr" v="350682" />
	</node>
	<node lat="59.99958055169989" lon="12.285219438350962" id="-20892">
		<tag k="name" v="Hellene" />
		<tag k="natural" v="hill" />
		<tag k="place" v="locality" />
		<tag k="ssr:stedsnr" v="351013" />
	</node>
	<node lat="60.046830554445336" lon="12.290091664371259" id="-20896">
		<tag k="name" v="Bjørndalen" />
		<tag k="natural" v="valley" />
		<tag k="place" v="locality" />
		<tag k="ssr:stedsnr" v="351192" />
	</node>
	<node lat="59.99361110929481" lon="12.256449994096855" id="-20902">
		<tag k="name" v="Heimadalen" />
		<tag k="natural" v="valley" />
		<tag k="place" v="locality" />
		<tag k="ssr:stedsnr" v="351047" />
	</node>
	<node lat="59.99410555902948" lon="12.250611104467417" id="-20904">
		<tag k="name" v="Klanderudberget" />
		<tag k="natural" v="hill" />
		<tag k="place" v="locality" />
		<tag k="ssr:stedsnr" v="351131" />
	</node>
	<node lat="60.06689166226564" lon="12.172830553618942" id="-20906">
		<tag k="fixme" v="consider natural=peak for the most distinct mountains in the district" />
		<tag k="name" v="Buåsen" />
		<tag k="natural" v="hill" />
		<tag k="place" v="locality" />
		<tag k="ssr:stedsnr" v="351151" />
	</node>
	<node lat="60.08580833714683" lon="12.181177774737913" id="-20909">
		<tag k="name" v="Mertstjennbakken" />
		<tag k="natural" v="slope" />
		<tag k="place" v="locality" />
		<tag k="ssr:stedsnr" v="351239" />
	</node>
	<node lat="59.942477776229026" lon="12.262088886666504" id="-20911">
		<tag k="name" v="Lindalsberget" />
		<tag k="natural" v="hill" />
		<tag k="place" v="locality" />
		<tag k="ssr:stedsnr" v="351244" />
	</node>
	<node lat="59.99179166638347" lon="11.898866666322927" id="-20917">
		<tag k="name" v="Bjørnliberget" />
		<tag k="natural" v="hill" />
		<tag k="place" v="locality" />
		<tag k="ssr:stedsnr" v="351631" />
	</node>
	<node lat="59.894202774990866" lon="11.89950555276202" id="-20918">
		<tag k="fixme" v="consider natural=peak for the most distinct mountains in the district" />
		<tag k="name" v="Kjerringåsen" />
		<tag k="natural" v="hill" />
		<tag k="place" v="locality" />
		<tag k="ssr:stedsnr" v="351281" />
	</node>
	<node lat="59.95221667045838" lon="12.238322217207248" id="-20920">
		<tag k="name" v="Sæterbergåsen" />
		<tag k="natural" v="hill" />
		<tag k="place" v="locality" />
		<tag k="ssr:stedsnr" v="351440" />
	</node>
	<node lat="60.08348055716969" lon="11.963513897854275" id="-20922">
		<tag k="fixme" v="consider natural=peak for the most distinct mountains in the district" />
		<tag k="name" v="Slååsen" />
		<tag k="natural" v="hill" />
		<tag k="place" v="locality" />
		<tag k="ssr:stedsnr" v="351448" />
	</node>
	<node lat="60.11300555450564" lon="12.121461105876747" id="-20923">
		<tag k="name" v="Bakkeberget" />
		<tag k="natural" v="hill" />
		<tag k="place" v="locality" />
		<tag k="ssr:stedsnr" v="351451" />
	</node>
	<node lat="59.94257777687484" lon="11.967919447723567" id="-20924">
		<tag k="name" v="Liberget" />
		<tag k="natural" v="hill" />
		<tag k="place" v="locality" />
		<tag k="ssr:stedsnr" v="351522" />
	</node>
	<node lat="60.068280557618216" lon="11.841191666710687" id="-20925">
		<tag k="name" v="Promhaugen" />
		<tag k="natural" v="hill" />
		<tag k="place" v="locality" />
		<tag k="ssr:stedsnr" v="351523" />
	</node>
	<node lat="59.9598250033801" lon="12.04867777934682" id="-20926">
		<tag k="name" v="Stangnesberget" />
		<tag k="natural" v="hill" />
		<tag k="place" v="locality" />
		<tag k="ssr:stedsnr" v="351525" />
	</node>
	<node lat="59.94297222076998" lon="11.850350006278779" id="-20933">
		<tag k="name" v="Saulia" />
		<tag k="natural" v="slope" />
		<tag k="place" v="locality" />
		<tag k="ssr:stedsnr" v="351700" />
	</node>
	<node lat="60.009088887083166" lon="11.965597222756585" id="-20935">
		<tag k="fixme" v="consider natural=peak for the most distinct mountains in the district" />
		<tag k="name" v="Tørkåsen" />
		<tag k="natural" v="hill" />
		<tag k="place" v="locality" />
		<tag k="ssr:stedsnr" v="351766" />
	</node>
	<node lat="60.04630000219593" lon="12.301455558589542" id="-20947">
		<tag k="name" v="Krenkedalen" />
		<tag k="natural" v="valley" />
		<tag k="place" v="locality" />
		<tag k="ssr:stedsnr" v="369001" />
	</node>
	<node lat="60.05785000396346" lon="12.255700000796464" id="-20952">
		<tag k="name" v="Kampeberget" />
		<tag k="natural" v="hill" />
		<tag k="place" v="locality" />
		<tag k="ssr:stedsnr" v="369091" />
	</node>
	<node lat="59.95774166243278" lon="12.303216673056358" id="-20953">
		<tag k="name" v="Breitjennhøgda" />
		<tag k="natural" v="hill" />
		<tag k="place" v="locality" />
		<tag k="ssr:stedsnr" v="369201" />
	</node>
	<node lat="59.96449999917725" lon="12.025027770099387" id="-20958">
		<tag k="fixme" v="consider natural=peak for the most distinct mountains in the district" />
		<tag k="name" v="Tobølhøgda" />
		<tag k="natural" v="hill" />
		<tag k="place" v="locality" />
		<tag k="ssr:stedsnr" v="369399" />
	</node>
	<node lat="59.945536106869326" lon="11.88531388935224" id="-20963">
		<tag k="fixme" v="consider natural=peak for the most distinct mountains in the district" />
		<tag k="name" v="Jerpåsen" />
		<tag k="natural" v="hill" />
		<tag k="place" v="locality" />
		<tag k="ssr:stedsnr" v="369249" />
	</node>
	<node lat="60.08511110648335" lon="12.133327785836768" id="-20971">
		<tag k="name" v="Korskjølen" />
		<tag k="natural" v="hill" />
		<tag k="place" v="locality" />
		<tag k="ssr:stedsnr" v="369636" />
	</node>
	<node lat="60.08518055609837" lon="12.210825001325778" id="-20973">
		<tag k="fixme" v="consider natural=peak for the most distinct mountains in the district" />
		<tag k="name" v="Hofjellet" />
		<tag k="natural" v="hill" />
		<tag k="place" v="locality" />
		<tag k="ssr:stedsnr" v="369644" />
	</node>
	<node lat="60.08883889089409" lon="12.09797221432503" id="-20977">
		<tag k="name" v="Malmerberget" />
		<tag k="natural" v="hill" />
		<tag k="place" v="locality" />
		<tag k="ssr:stedsnr" v="369724" />
	</node>
	<node lat="59.959408332426754" lon="12.310394450958423" id="-20996">
		<tag k="name" v="Svartdalen" />
		<tag k="natural" v="valley" />
		<tag k="place" v="locality" />
		<tag k="ssr:stedsnr" v="411150" />
	</node>
	<node lat="59.97231388743714" lon="12.177008324877635" id="-21000">
		<tag k="name" v="Ilagsberget" />
		<tag k="natural" v="hill" />
		<tag k="place" v="locality" />
		<tag k="ssr:stedsnr" v="411672" />
	</node>
	<node lat="59.91710000014721" lon="11.975708341925948" id="-21001">
		<tag k="name" v="Høgberget" />
		<tag k="natural" v="hill" />
		<tag k="place" v="locality" />
		<tag k="ssr:stedsnr" v="411937" />
	</node>
	<node lat="59.99130833456663" lon="12.030441663541485" id="-21002">
		<tag k="name" v="Østre Brenninga" />
		<tag k="natural" v="hill" />
		<tag k="place" v="locality" />
		<tag k="ssr:stedsnr" v="411965" />
	</node>
	<node lat="59.91014166706567" lon="12.160766672632649" id="-21013">
		<tag k="name" v="Ormedråga" />
		<tag k="natural" v="valley" />
		<tag k="place" v="locality" />
		<tag k="ssr:stedsnr" v="412096" />
	</node>
	<node lat="59.96521944262913" lon="12.246766664929833" id="-21017">
		<tag k="name" v="Steinbakken" />
		<tag k="natural" v="slope" />
		<tag k="place" v="locality" />
		<tag k="ssr:stedsnr" v="412124" />
	</node>
	<node lat="59.89368888586333" lon="12.018975007839849" id="-21018">
		<tag k="name" v="Nybakkberget" />
		<tag k="natural" v="hill" />
		<tag k="place" v="locality" />
		<tag k="ssr:stedsnr" v="412067" />
	</node>
	<node lat="60.00585277502948" lon="12.32294167032138" id="-21031">
		<tag k="name" v="Strandengene" />
		<tag k="natural" v="slope" />
		<tag k="place" v="locality" />
		<tag k="ssr:stedsnr" v="412346" />
	</node>
	<node lat="60.01596388472727" lon="12.201491667641346" id="-21032">
		<tag k="name" v="Kattlia" />
		<tag k="natural" v="slope" />
		<tag k="place" v="locality" />
		<tag k="ssr:stedsnr" v="412351" />
	</node>
	<node lat="59.94388332991948" lon="12.199063890246654" id="-21033">
		<tag k="name" v="Furulund" />
		<tag k="natural" v="slope" />
		<tag k="place" v="locality" />
		<tag k="ssr:stedsnr" v="412354" />
	</node>
	<node lat="60.11036389001689" lon="12.087602785165789" id="-21034">
		<tag k="fixme" v="consider natural=peak for the most distinct mountains in the district" />
		<tag k="name" v="Eitjennberget" />
		<tag k="natural" v="hill" />
		<tag k="place" v="locality" />
		<tag k="ssr:stedsnr" v="412364" />
	</node>
	<node lat="59.95261667061648" lon="12.0388666673275" id="-21037">
		<tag k="name" v="Tingsberget" />
		<tag k="natural" v="hill" />
		<tag k="place" v="locality" />
		<tag k="ssr:stedsnr" v="412379" />
	</node>
	<node lat="60.048219441036956" lon="12.172297229269148" id="-21039">
		<tag k="name" v="Damliene" />
		<tag k="natural" v="slope" />
		<tag k="place" v="locality" />
		<tag k="ssr:stedsnr" v="412465" />
	</node>
	<node lat="59.92385555125985" lon="12.167202783308523" id="-21040">
		<tag k="name" v="Linkjøldalen" />
		<tag k="natural" v="valley" />
		<tag k="place" v="locality" />
		<tag k="ssr:stedsnr" v="412480" />
	</node>
	<node lat="60.03899444376315" lon="12.045244438455702" id="-21041">
		<tag k="name" v="Sluffelia" />
		<tag k="natural" v="slope" />
		<tag k="place" v="locality" />
		<tag k="ssr:stedsnr" v="412486" />
	</node>
	<node lat="60.01331666487248" lon="11.961830561779978" id="-21043">
		<tag k="fixme" v="consider natural=peak for the most distinct mountains in the district" />
		<tag k="name" v="Gruvemyråsen" />
		<tag k="natural" v="hill" />
		<tag k="place" v="locality" />
		<tag k="ssr:stedsnr" v="412722" />
	</node>
	<node lat="60.031641664127555" lon="12.315777783988421" id="-21047">
		<tag k="name" v="Stubben" />
		<tag k="natural" v="slope" />
		<tag k="place" v="locality" />
		<tag k="ssr:stedsnr" v="412749" />
	</node>
	<node lat="60.00370000061434" lon="12.293750001485474" id="-21058">
		<tag k="name" v="Andersberget" />
		<tag k="natural" v="hill" />
		<tag k="place" v="locality" />
		<tag k="ssr:stedsnr" v="430186" />
	</node>
	<node lat="60.001802774253555" lon="12.320844451385971" id="-21067">
		<tag k="name" v="Strandberget" />
		<tag k="natural" v="hill" />
		<tag k="place" v="locality" />
		<tag k="ssr:stedsnr" v="430238" />
	</node>
	<node lat="59.98770833208942" lon="11.88509999640854" id="-21077">
		<tag k="fixme" v="consider natural=peak for the most distinct mountains in the district" />
		<tag k="name" v="Korpberget" />
		<tag k="natural" v="hill" />
		<tag k="place" v="locality" />
		<tag k="ssr:stedsnr" v="430372" />
	</node>
	<node lat="60.120147220928885" lon="12.16820277367897" id="-21080">
		<tag k="name" v="Knarten" />
		<tag k="natural" v="hill" />
		<tag k="place" v="locality" />
		<tag k="ssr:stedsnr" v="430483" />
	</node>
	<node lat="60.02906944560728" lon="11.87865556124702" id="-21088">
		<tag k="name" v="Erskallsberget" />
		<tag k="natural" v="hill" />
		<tag k="place" v="locality" />
		<tag k="ssr:stedsnr" v="430633" />
	</node>
	<node lat="59.91580833277617" lon="11.860763894836731" id="-21092">
		<tag k="name" v="Svenskefallet" />
		<tag k="natural" v="slope" />
		<tag k="place" v="locality" />
		<tag k="ssr:stedsnr" v="532697" />
	</node>
	<node lat="59.951830558156544" lon="12.276922225245189" id="-21094">
		<tag k="name" v="Nuen" />
		<tag k="natural" v="hill" />
		<tag k="place" v="locality" />
		<tag k="ssr:stedsnr" v="533020" />
	</node>
	<node lat="59.98378055639071" lon="12.270083339872977" id="-21098">
		<tag k="fixme" v="consider natural=peak for the most distinct mountains in the district" />
		<tag k="name" v="Opptjennåsen" />
		<tag k="natural" v="hill" />
		<tag k="place" v="locality" />
		<tag k="ssr:stedsnr" v="533187" />
	</node>
	<node lat="59.93927500068024" lon="12.209316664634228" id="-21100">
		<tag k="name" v="Magnormoen" />
		<tag k="place" v="locality" />
		<tag k="ssr:stedsnr" v="532915" />
	</node>
	<node lat="59.95316389076945" lon="12.070872214287311" id="-21101">
		<tag k="name" v="Sølvåsen" />
		<tag k="natural" v="hill" />
		<tag k="place" v="locality" />
		<tag k="ssr:stedsnr" v="532960" />
	</node>
	<node lat="60.08473332978071" lon="12.132194449473367" id="-21104">
		<tag k="name" v="Korskjølen" />
		<tag k="natural" v="hill" />
		<tag k="place" v="locality" />
		<tag k="ssr:stedsnr" v="533230" />
	</node>
	<node lat="60.07930277452013" lon="12.196527778921569" id="-21106">
		<tag k="name" v="Bukkeberget" />
		<tag k="natural" v="hill" />
		<tag k="place" v="locality" />
		<tag k="ssr:stedsnr" v="533158" />
	</node>
	<node lat="59.92249999810901" lon="12.097663881436935" id="-21111">
		<tag k="name" v="Dorteberget" />
		<tag k="natural" v="hill" />
		<tag k="place" v="locality" />
		<tag k="ssr:stedsnr" v="533363" />
	</node>
	<node lat="59.90511666359217" lon="12.075483325312605" id="-21112">
		<tag k="fixme" v="consider natural=peak for the most distinct mountains in the district" />
		<tag k="name" v="Bikkjebråten" />
		<tag k="natural" v="hill" />
		<tag k="place" v="locality" />
		<tag k="ssr:stedsnr" v="533366" />
	</node>
	<node lat="60.08703333291674" lon="12.122838884040977" id="-21113">
		<tag k="name" v="Eidsmoen" />
		<tag k="natural" v="slope" />
		<tag k="place" v="locality" />
		<tag k="ssr:stedsnr" v="533501" />
	</node>
	<node lat="60.01654722620753" lon="12.30789165943543" id="-21116">
		<tag k="name" v="Bubakken" />
		<tag k="natural" v="slope" />
		<tag k="place" v="locality" />
		<tag k="ssr:stedsnr" v="533369" />
	</node>
	<node lat="60.00068611501928" lon="12.185550005486178" id="-21117">
		<tag k="name" v="Billerudhøgda" />
		<tag k="natural" v="ridge" />
		<tag k="place" v="locality" />
		<tag k="ssr:stedsnr" v="533373" />
	</node>
	<node lat="59.99879167022124" lon="12.216633335963055" id="-21118">
		<tag k="name" v="Rinna" />
		<tag k="natural" v="slope" />
		<tag k="place" v="locality" />
		<tag k="ssr:stedsnr" v="533375" />
	</node>
	<node lat="59.94717222107977" lon="12.094716666997545" id="-21123">
		<tag k="name" v="Kalengberget" />
		<tag k="natural" v="hill" />
		<tag k="place" v="locality" />
		<tag k="ssr:stedsnr" v="533433" />
	</node>
	<node lat="60.12945833218629" lon="12.16450832540138" id="-21126">
		<tag k="name" v="Langrekkhøgda" />
		<tag k="natural" v="hill" />
		<tag k="place" v="locality" />
		<tag k="ssr:stedsnr" v="533446" />
	</node>
	<node lat="60.03278889171395" lon="12.040424993574536" id="-21128">
		<tag k="name" v="Geitåsen" />
		<tag k="natural" v="hill" />
		<tag k="place" v="locality" />
		<tag k="ssr:stedsnr" v="533537" />
	</node>
	<node lat="59.946622217814095" lon="11.877708332837335" id="-21129">
		<tag k="name" v="Mortensonbrenna" />
		<tag k="natural" v="slope" />
		<tag k="place" v="locality" />
		<tag k="ssr:stedsnr" v="533692" />
	</node>
	<node lat="59.94377777390341" lon="12.015633338984625" id="-21146">
		<tag k="name" v="Rasterdalen" />
		<tag k="natural" v="valley" />
		<tag k="place" v="locality" />
		<tag k="ssr:stedsnr" v="551290" />
	</node>
	<node lat="60.052866666199265" lon="12.229741661109234" id="-21148">
		<tag k="name" v="Nyfjellet" />
		<tag k="natural" v="hill" />
		<tag k="place" v="locality" />
		<tag k="ssr:stedsnr" v="551131" />
	</node>
	<node lat="60.0514000019978" lon="12.182736103393983" id="-21166">
		<tag k="fixme" v="consider natural=peak for the most distinct mountains in the district" />
		<tag k="name" v="Høgåsen" />
		<tag k="natural" v="hill" />
		<tag k="place" v="locality" />
		<tag k="ssr:stedsnr" v="551689" />
	</node>
	<node lat="59.973691663844086" lon="12.024444440227976" id="-21171">
		<tag k="name" v="Aurbakkberget" />
		<tag k="natural" v="hill" />
		<tag k="place" v="locality" />
		<tag k="ssr:stedsnr" v="551437" />
	</node>
	<node lat="60.021833335643024" lon="11.883238893100387" id="-21175">
		<tag k="name" v="Knatthøgda" />
		<tag k="natural" v="hill" />
		<tag k="place" v="locality" />
		<tag k="ssr:stedsnr" v="551638" />
	</node>
	<node lat="59.99278611141598" lon="12.25047777836547" id="-21183">
		<tag k="name" v="Klanderudberget" />
		<tag k="natural" v="hill" />
		<tag k="place" v="locality" />
		<tag k="ssr:stedsnr" v="566254" />
	</node>
	<node lat="59.909108335250856" lon="12.168788884970327" id="-21185">
		<tag k="name" v="Gauptjenndalen" />
		<tag k="natural" v="valley" />
		<tag k="place" v="locality" />
		<tag k="ssr:stedsnr" v="593087" />
	</node>
	<node lat="60.05123055145244" lon="12.222724997041993" id="-21186">
		<tag k="name" v="Fjellia" />
		<tag k="natural" v="slope" />
		<tag k="place" v="locality" />
		<tag k="ssr:stedsnr" v="593170" />
	</node>
	<node lat="60.056030552277704" lon="12.184216660358135" id="-21187">
		<tag k="fixme" v="consider natural=peak for the most distinct mountains in the district" />
		<tag k="name" v="Høgåsen" />
		<tag k="natural" v="hill" />
		<tag k="place" v="locality" />
		<tag k="ssr:stedsnr" v="593174" />
	</node>
	<node lat="59.96954999696159" lon="12.284619451650808" id="-21190">
		<tag k="fixme" v="consider natural=peak for the most distinct mountains in the district" />
		<tag k="name" v="Ulvemyråsen" />
		<tag k="natural" v="hill" />
		<tag k="place" v="locality" />
		<tag k="ssr:stedsnr" v="593001" />
	</node>
	<node lat="59.9042333296422" lon="12.06112223058569" id="-21191">
		<tag k="name" v="Sæterberget" />
		<tag k="natural" v="hill" />
		<tag k="place" v="locality" />
		<tag k="ssr:stedsnr" v="593029" />
	</node>
	<node lat="60.08521666744143" lon="12.166588880236755" id="-21196">
		<tag k="name" v="Plasseberget" />
		<tag k="natural" v="hill" />
		<tag k="place" v="locality" />
		<tag k="ssr:stedsnr" v="593213" />
	</node>
	<node lat="59.95187777883952" lon="12.256286106948352" id="-21197">
		<tag k="name" v="Strøket" />
		<tag k="natural" v="slope" />
		<tag k="place" v="locality" />
		<tag k="ssr:stedsnr" v="593216" />
	</node>
	<node lat="59.97601111275655" lon="11.808866671309001" id="-21207">
		<tag k="name" v="Bayerlia" />
		<tag k="natural" v="slope" />
		<tag k="place" v="locality" />
		<tag k="ssr:stedsnr" v="593431" />
	</node>
	<node lat="59.96419721898523" lon="12.218280549922975" id="-21208">
		<tag k="name" v="Nevjebakken" />
		<tag k="natural" v="hill" />
		<tag k="place" v="locality" />
		<tag k="ssr:stedsnr" v="593443" />
	</node>
	<node lat="60.054386110250995" lon="12.177547226813072" id="-21214">
		<tag k="name" v="Lauvbråtalia" />
		<tag k="natural" v="slope" />
		<tag k="place" v="locality" />
		<tag k="ssr:stedsnr" v="593470" />
	</node>
	<node lat="60.001891662489875" lon="12.182536108666" id="-21216">
		<tag k="name" v="Billerudholtet" />
		<tag k="natural" v="slope" />
		<tag k="place" v="locality" />
		<tag k="ssr:stedsnr" v="593475" />
	</node>
	<node lat="60.01843888997" lon="12.304277775227972" id="-21220">
		<tag k="name" v="Revlemohøgda" />
		<tag k="natural" v="slope" />
		<tag k="place" v="locality" />
		<tag k="ssr:stedsnr" v="593741" />
	</node>
	<node lat="59.89560000280972" lon="11.942183333447021" id="-21223">
		<tag k="name" v="Østre Brudalen" />
		<tag k="natural" v="valley" />
		<tag k="place" v="locality" />
		<tag k="ssr:stedsnr" v="593583" />
	</node>
	<node lat="59.897461114696746" lon="11.870872218460558" id="-21224">
		<tag k="name" v="Kremmerbråtan" />
		<tag k="natural" v="slope" />
		<tag k="place" v="locality" />
		<tag k="ssr:stedsnr" v="593585" />
	</node>
	<node lat="59.8852777808129" lon="11.83248056432696" id="-21229">
		<tag k="name" v="Haralia" />
		<tag k="natural" v="slope" />
		<tag k="place" v="locality" />
		<tag k="ssr:stedsnr" v="593755" />
	</node>
	<node lat="59.96608055931609" lon="12.301672220242049" id="-21234">
		<tag k="name" v="Raspen" />
		<tag k="natural" v="slope" />
		<tag k="place" v="locality" />
		<tag k="ssr:stedsnr" v="593826" />
	</node>
	<node lat="59.998222217732426" lon="12.20937500559105" id="-21237">
		<tag k="name" v="Kvernåsen" />
		<tag k="natural" v="hill" />
		<tag k="place" v="locality" />
		<tag k="ssr:stedsnr" v="593842" />
	</node>
	<node lat="60.10343889046329" lon="12.24106667392635" id="-21239">
		<tag k="name" v="Furutoppen" />
		<tag k="natural" v="hill" />
		<tag k="place" v="locality" />
		<tag k="ssr:stedsnr" v="593848" />
	</node>
	<node lat="59.90303610756667" lon="12.14683889477528" id="-21243">
		<tag k="name" v="Abbortjennberget" />
		<tag k="natural" v="hill" />
		<tag k="place" v="locality" />
		<tag k="ssr:stedsnr" v="593894" />
	</node>
	<node lat="60.04835000395643" lon="11.887094437240389" id="-21256">
		<tag k="fixme" v="consider natural=peak for the most distinct mountains in the district" />
		<tag k="name" v="Hanakamåsen" />
		<tag k="natural" v="hill" />
		<tag k="place" v="locality" />
		<tag k="ssr:stedsnr" v="594825" />
	</node>
	<node lat="60.050483336427135" lon="12.26753334061481" id="-21270">
		<tag k="name" v="Gravbråtaberget" />
		<tag k="natural" v="hill" />
		<tag k="place" v="locality" />
		<tag k="ssr:stedsnr" v="612145" />
	</node>
	<node lat="59.911641670944064" lon="11.942666662064845" id="-21287">
		<tag k="fixme" v="consider natural=peak for the most distinct mountains in the district" />
		<tag k="name" v="Hornåsen" />
		<tag k="natural" v="hill" />
		<tag k="place" v="locality" />
		<tag k="ssr:stedsnr" v="612345" />
	</node>
	<node lat="59.91661110725966" lon="11.97233055619823" id="-21288">
		<tag k="fixme" v="consider natural=peak for the most distinct mountains in the district" />
		<tag k="name" v="Almenningsberget" />
		<tag k="natural" v="hill" />
		<tag k="place" v="locality" />
		<tag k="ssr:stedsnr" v="612350" />
	</node>
	<node lat="60.05825833441816" lon="12.001925000795534" id="-21295">
		<tag k="fixme" v="consider natural=peak for the most distinct mountains in the district" />
		<tag k="name" v="Rundåsen" />
		<tag k="natural" v="hill" />
		<tag k="place" v="locality" />
		<tag k="ssr:stedsnr" v="612660" />
	</node>
	<node lat="59.903949998017445" lon="12.190522218678241" id="-21314">
		<tag k="name" v="Vestre Lauvhaugen" />
		<tag k="natural" v="hill" />
		<tag k="place" v="locality" />
		<tag k="ssr:stedsnr" v="654072" />
	</node>
	<node lat="60.076861108514635" lon="11.991036115013918" id="-21318">
		<tag k="fixme" v="consider natural=peak for the most distinct mountains in the district" />
		<tag k="name" v="Grimtjennshøgda" />
		<tag k="natural" v="hill" />
		<tag k="place" v="locality" />
		<tag k="ssr:stedsnr" v="653927" />
	</node>
	<node lat="60.00106388802233" lon="12.25509721557754" id="-21319">
		<tag k="fixme" v="consider natural=peak for the most distinct mountains in the district" />
		<tag k="name" v="Løvlitoppen" />
		<tag k="natural" v="hill" />
		<tag k="place" v="locality" />
		<tag k="ssr:stedsnr" v="654028" />
	</node>
	<node lat="59.91475000410315" lon="11.878172223373774" id="-21328">
		<tag k="name" v="Engene" />
		<tag k="natural" v="slope" />
		<tag k="place" v="locality" />
		<tag k="ssr:stedsnr" v="654270" />
	</node>
	<node lat="59.924061109475595" lon="12.11996110263201" id="-21332">
		<tag k="name" v="Knutbråtahøgda" />
		<tag k="natural" v="hill" />
		<tag k="place" v="locality" />
		<tag k="ssr:stedsnr" v="654365" />
	</node>
	<node lat="60.01208055578254" lon="12.322519444026812" id="-21333">
		<tag k="name" v="Merrasprengbakken" />
		<tag k="natural" v="slope" />
		<tag k="place" v="locality" />
		<tag k="ssr:stedsnr" v="654372" />
	</node>
	<node lat="59.95367777850969" lon="12.1448555642239" id="-21339">
		<tag k="loc_name" v="Bjørknesdalen" />
		<tag k="name" v="Bjerkenesdalen" />
		<tag k="natural" v="valley" />
		<tag k="place" v="locality" />
		<tag k="ssr:stedsnr" v="654520" />
	</node>
	<node lat="59.94576666967622" lon="12.157863882974686" id="-21340">
		<tag k="name" v="Rønningsdalen" />
		<tag k="natural" v="valley" />
		<tag k="place" v="locality" />
		<tag k="ssr:stedsnr" v="654521" />
	</node>
	<node lat="59.96629444046459" lon="12.332977778143787" id="-21341">
		<tag k="name" v="Gutulandet" />
		<tag k="natural" v="slope" />
		<tag k="place" v="locality" />
		<tag k="ssr:stedsnr" v="654525" />
	</node>
	<node lat="59.917061110277245" lon="11.84011943961224" id="-21347">
		<tag k="name" v="Varden" />
		<tag k="natural" v="hill" />
		<tag k="place" v="locality" />
		<tag k="ssr:stedsnr" v="654620" />
	</node>
	<node lat="59.963752773907856" lon="11.850230562928928" id="-21349">
		<tag k="name" v="Øvre Akrilberget" />
		<tag k="natural" v="hill" />
		<tag k="place" v="locality" />
		<tag k="ssr:stedsnr" v="654715" />
	</node>
	<node lat="59.95785277673881" lon="12.0202250005106" id="-21352">
		<tag k="name" v="Pukksteinberget" />
		<tag k="natural" v="hill" />
		<tag k="place" v="locality" />
		<tag k="ssr:stedsnr" v="654544" />
	</node>
	<node lat="59.87776111448242" lon="11.872586117153743" id="-21353">
		<tag k="fixme" v="consider natural=peak for the most distinct mountains in the district" />
		<tag k="name" v="Vaktåsen" />
		<tag k="natural" v="hill" />
		<tag k="place" v="locality" />
		<tag k="ssr:stedsnr" v="654548" />
	</node>
	<node lat="60.02610555623749" lon="12.10627778007028" id="-21356">
		<tag k="name" v="Ulvebakken" />
		<tag k="natural" v="slope" />
		<tag k="place" v="locality" />
		<tag k="ssr:stedsnr" v="654576" />
	</node>
	<node lat="60.03504444689644" lon="11.94396665988091" id="-21358">
		<tag k="fixme" v="consider natural=peak for the most distinct mountains in the district" />
		<tag k="name" v="Buåbakken" />
		<tag k="natural" v="hill" />
		<tag k="place" v="locality" />
		<tag k="ssr:stedsnr" v="654654" />
	</node>
	<node lat="59.96863888535848" lon="11.80801388762071" id="-21359">
		<tag k="name" v="Sandviklia" />
		<tag k="natural" v="slope" />
		<tag k="place" v="locality" />
		<tag k="ssr:stedsnr" v="654754" />
	</node>
	<node lat="60.014502780976194" lon="12.158858335747942" id="-21365">
		<tag k="name" v="Gjømterdråga" />
		<tag k="natural" v="slope" />
		<tag k="place" v="locality" />
		<tag k="ssr:stedsnr" v="654902" />
	</node>
	<node lat="59.97875555157095" lon="11.813558325879205" id="-21369">
		<tag k="fixme" v="consider natural=peak for the most distinct mountains in the district" />
		<tag k="name" v="Høgberget" />
		<tag k="natural" v="hill" />
		<tag k="place" v="locality" />
		<tag k="ssr:stedsnr" v="655259" />
	</node>
	<node lat="59.88838888761157" lon="11.89904999933052" id="-21375">
		<tag k="name" v="Sæterhøgda" />
		<tag k="natural" v="hill" />
		<tag k="place" v="locality" />
		<tag k="ssr:stedsnr" v="715287" />
	</node>
	<node lat="59.97357222255027" lon="11.947002774941458" id="-21377">
		<tag k="name" v="Høybydalen" />
		<tag k="natural" v="valley" />
		<tag k="old_name" v="Høibydalen" />
		<tag k="place" v="locality" />
		<tag k="ssr:stedsnr" v="715321" />
	</node>
	<node lat="60.00582499790435" lon="11.956780552777671" id="-21378">
		<tag k="fixme" v="consider natural=peak for the most distinct mountains in the district" />
		<tag k="name" v="Vesle Sandåsen" />
		<tag k="natural" v="hill" />
		<tag k="place" v="locality" />
		<tag k="ssr:stedsnr" v="715332" />
	</node>
	<node lat="60.004338890849574" lon="11.89818333892872" id="-21379">
		<tag k="fixme" v="consider natural=peak for the most distinct mountains in the district" />
		<tag k="name" v="Revåsen" />
		<tag k="natural" v="hill" />
		<tag k="place" v="locality" />
		<tag k="ssr:stedsnr" v="715333" />
	</node>
	<node lat="60.02860555195554" lon="11.9569861092141" id="-21381">
		<tag k="fixme" v="consider natural=peak for the most distinct mountains in the district" />
		<tag k="name" v="Buknatten" />
		<tag k="natural" v="hill" />
		<tag k="place" v="locality" />
		<tag k="ssr:stedsnr" v="715354" />
	</node>
	<node lat="59.91295555765885" lon="12.191874993334498" id="-21386">
		<tag k="name" v="Mastdalen" />
		<tag k="natural" v="valley" />
		<tag k="place" v="locality" />
		<tag k="ssr:stedsnr" v="715059" />
	</node>
	<node lat="60.040583329972534" lon="12.24038054717032" id="-21388">
		<tag k="name" v="Brukleiva" />
		<tag k="natural" v="slope" />
		<tag k="place" v="locality" />
		<tag k="ssr:stedsnr" v="715179" />
	</node>
	<node lat="60.05085833330161" lon="12.292363891882713" id="-21389">
		<tag k="name" v="Vasletta" />
		<tag k="place" v="locality" />
		<tag k="ssr:stedsnr" v="715184" />
	</node>
	<node lat="59.91112222023864" lon="12.046013891413635" id="-21391">
		<tag k="fixme" v="consider natural=peak for the most distinct mountains in the district" />
		<tag k="name" v="Knapperneset" />
		<tag k="natural" v="hill" />
		<tag k="place" v="locality" />
		<tag k="ssr:stedsnr" v="715018" />
	</node>
	<node lat="60.00053055272326" lon="12.246677775736527" id="-21393">
		<tag k="fixme" v="consider natural=peak for the most distinct mountains in the district" />
		<tag k="name" v="Bekkelitoppen" />
		<tag k="natural" v="hill" />
		<tag k="place" v="locality" />
		<tag k="ssr:stedsnr" v="715079" />
	</node>
	<node lat="60.036419446207226" lon="12.250283336290181" id="-21395">
		<tag k="name" v="Gravlidalen" />
		<tag k="natural" v="valley" />
		<tag k="place" v="locality" />
		<tag k="ssr:stedsnr" v="715100" />
	</node>
	<node lat="59.997188885117616" lon="12.258533329342598" id="-21397">
		<tag k="name" v="Kubråten" />
		<tag k="natural" v="slope" />
		<tag k="place" v="locality" />
		<tag k="ssr:stedsnr" v="715119" />
	</node>
	<node lat="59.985305554845674" lon="12.295897229827267" id="-21398">
		<tag k="name" v="Grevlinghøgda" />
		<tag k="natural" v="hill" />
		<tag k="place" v="locality" />
		<tag k="ssr:stedsnr" v="715121" />
	</node>
	<node lat="59.96895555576484" lon="12.24819722177385" id="-21400">
		<tag k="name" v="Liahaget" />
		<tag k="natural" v="slope" />
		<tag k="place" v="locality" />
		<tag k="ssr:stedsnr" v="715137" />
	</node>
	<node lat="60.015069448297055" lon="12.263300001700218" id="-21404">
		<tag k="name" v="Trettåshøgda" />
		<tag k="natural" v="hill" />
		<tag k="place" v="locality" />
		<tag k="ssr:stedsnr" v="715194" />
	</node>
	<node lat="60.055877781092526" lon="12.107224993399042" id="-21405">
		<tag k="name" v="Svenskeknappen" />
		<tag k="natural" v="ridge" />
		<tag k="place" v="locality" />
		<tag k="ssr:stedsnr" v="715544" />
	</node>
	<node lat="59.98305555243121" lon="12.237725008552017" id="-21419">
		<tag k="name" v="Øversæterhaget" />
		<tag k="natural" v="slope" />
		<tag k="place" v="locality" />
		<tag k="ssr:stedsnr" v="715398" />
	</node>
	<node lat="60.03812499878014" lon="12.114724994198145" id="-21422">
		<tag k="name" v="Kjellebekklia" />
		<tag k="natural" v="slope" />
		<tag k="place" v="locality" />
		<tag k="ssr:stedsnr" v="715517" />
	</node>
	<node lat="60.02475555860404" lon="12.111547229565176" id="-21423">
		<tag k="name" v="Elvelia" />
		<tag k="natural" v="slope" />
		<tag k="place" v="locality" />
		<tag k="ssr:stedsnr" v="715519" />
	</node>
	<node lat="60.05018888872758" lon="12.179922224253763" id="-21425">
		<tag k="name" v="Jonsoklia" />
		<tag k="natural" v="slope" />
		<tag k="place" v="locality" />
		<tag k="ssr:stedsnr" v="715521" />
	</node>
	<node lat="59.99204166442132" lon="11.819961102900654" id="-21427">
		<tag k="fixme" v="consider natural=peak for the most distinct mountains in the district" />
		<tag k="name" v="Terjeåsen" />
		<tag k="natural" v="hill" />
		<tag k="place" v="locality" />
		<tag k="ssr:stedsnr" v="715753" />
	</node>
	<node lat="59.92237222367859" lon="12.199344445492795" id="-21428">
		<tag k="name" v="Bjørnstadbråten" />
		<tag k="natural" v="slope" />
		<tag k="place" v="locality" />
		<tag k="ssr:stedsnr" v="715761" />
	</node>
	<node lat="59.89857221938267" lon="11.807827785275395" id="-21430">
		<tag k="name" v="Nimilberget" />
		<tag k="natural" v="hill" />
		<tag k="place" v="locality" />
		<tag k="ssr:stedsnr" v="715617" />
	</node>
	<node lat="59.966941662818485" lon="11.962997218939588" id="-21431">
		<tag k="name" v="Grusjølidalen" />
		<tag k="natural" v="valley" />
		<tag k="place" v="locality" />
		<tag k="ssr:stedsnr" v="715659" />
	</node>
	<node lat="59.948047224591214" lon="11.869577781439185" id="-21433">
		<tag k="name" v="Korpevåla" />
		<tag k="natural" v="slope" />
		<tag k="place" v="locality" />
		<tag k="ssr:stedsnr" v="715667" />
	</node>
	<node lat="59.975888885967905" lon="12.29090278116285" id="-21436">
		<tag k="name" v="Stråtjennlia" />
		<tag k="natural" v="slope" />
		<tag k="place" v="locality" />
		<tag k="ssr:stedsnr" v="715844" />
	</node>
	<node lat="59.96362778103537" lon="12.320947231161076" id="-21437">
		<tag k="name" v="Gørrdalen" />
		<tag k="natural" v="valley" />
		<tag k="place" v="locality" />
		<tag k="ssr:stedsnr" v="715857" />
	</node>
	<node lat="60.02368888996433" lon="12.10836112018101" id="-21438">
		<tag k="name" v="Skulstadsletta" />
		<tag k="natural" v="slope" />
		<tag k="place" v="locality" />
		<tag k="ssr:stedsnr" v="715862" />
	</node>
	<node lat="59.96062499958007" lon="12.030266669965123" id="-21440">
		<tag k="fixme" v="consider natural=peak for the most distinct mountains in the district" />
		<tag k="name" v="Vålbråtaåsen" />
		<tag k="natural" v="hill" />
		<tag k="place" v="locality" />
		<tag k="ssr:stedsnr" v="715986" />
	</node>
	<node lat="60.013352780778945" lon="12.305022213838264" id="-21445">
		<tag k="name" v="Skjørbergflaten" />
		<tag k="natural" v="slope" />
		<tag k="place" v="locality" />
		<tag k="ssr:stedsnr" v="715947" />
	</node>
	<node lat="60.03525000336002" lon="12.192874992717805" id="-21465">
		<tag k="name" v="Sleppen" />
		<tag k="natural" v="hill" />
		<tag k="place" v="locality" />
		<tag k="ssr:stedsnr" v="733603" />
	</node>
	<node lat="60.059755023177075" lon="12.105348432831407" id="-21468">
		<tag k="name" v="Dalsberget" />
		<tag k="natural" v="hill" />
		<tag k="place" v="locality" />
		<tag k="ssr:stedsnr" v="733627" />
	</node>
	<node lat="60.12153055305496" lon="12.252938882510941" id="-21489">
		<tag k="name" v="Løvlidalen" />
		<tag k="natural" v="valley" />
		<tag k="place" v="locality" />
		<tag k="ssr:stedsnr" v="775189" />
	</node>
	<node lat="59.88066666273804" lon="11.898294435719022" id="-21491">
		<tag k="name" v="Steindalen" />
		<tag k="natural" v="valley" />
		<tag k="place" v="locality" />
		<tag k="ssr:stedsnr" v="775239" />
	</node>
	<node lat="59.92514444210744" lon="11.843055553079747" id="-21497">
		<tag k="name" v="Godnesliene" />
		<tag k="natural" v="slope" />
		<tag k="place" v="locality" />
		<tag k="ssr:stedsnr" v="775681" />
	</node>
	<node lat="59.90754444637602" lon="12.16054444647302" id="-21501">
		<tag k="name" v="Mæbakken" />
		<tag k="natural" v="slope" />
		<tag k="place" v="locality" />
		<tag k="ssr:stedsnr" v="776087" />
	</node>
	<node lat="59.89563610893182" lon="12.060233330240463" id="-21505">
		<tag k="name" v="Brennekulen" />
		<tag k="natural" v="hill" />
		<tag k="place" v="locality" />
		<tag k="ssr:stedsnr" v="776033" />
	</node>
	<node lat="59.89169444216057" lon="12.02665555095166" id="-21506">
		<tag k="name" v="Larsbråten" />
		<tag k="natural" v="slope" />
		<tag k="place" v="locality" />
		<tag k="ssr:stedsnr" v="776036" />
	</node>
	<node lat="59.92698610912377" lon="12.19826389673389" id="-21508">
		<tag k="name" v="Gotlandsberget" />
		<tag k="natural" v="hill" />
		<tag k="place" v="locality" />
		<tag k="ssr:stedsnr" v="776047" />
	</node>
	<node lat="59.97409444484486" lon="11.980363895659636" id="-21509">
		<tag k="name" v="Tobølbråten" />
		<tag k="natural" v="slope" />
		<tag k="place" v="locality" />
		<tag k="ssr:stedsnr" v="776049" />
	</node>
	<node lat="59.975238888604416" lon="11.921794441603362" id="-21517">
		<tag k="name" v="Raserudknollen" />
		<tag k="natural" v="hill" />
		<tag k="place" v="locality" />
		<tag k="ssr:stedsnr" v="776269" />
	</node>
	<node lat="59.9570555590874" lon="11.966011110804763" id="-21519">
		<tag k="name" v="Raudalen" />
		<tag k="natural" v="valley" />
		<tag k="place" v="locality" />
		<tag k="ssr:stedsnr" v="776274" />
	</node>
	<node lat="60.01877500043104" lon="11.942594436099931" id="-21520">
		<tag k="fixme" v="consider natural=peak for the most distinct mountains in the district" />
		<tag k="name" v="Buåsen" />
		<tag k="natural" v="hill" />
		<tag k="place" v="locality" />
		<tag k="ssr:stedsnr" v="776285" />
	</node>
	<node lat="60.043761114099404" lon="11.910405554915899" id="-21521">
		<tag k="fixme" v="consider natural=peak for the most distinct mountains in the district" />
		<tag k="name" v="Eriksåsen" />
		<tag k="natural" v="hill" />
		<tag k="place" v="locality" />
		<tag k="ssr:stedsnr" v="776288" />
	</node>
	<node lat="59.89978055211523" lon="12.061622224021203" id="-21523">
		<tag k="name" v="Tømmeråsen" />
		<tag k="natural" v="hill" />
		<tag k="place" v="locality" />
		<tag k="ssr:stedsnr" v="776314" />
	</node>
	<node lat="59.956194446808254" lon="11.972711108607019" id="-21525">
		<tag k="name" v="Finlandsmoen" />
		<tag k="natural" v="slope" />
		<tag k="place" v="locality" />
		<tag k="ssr:stedsnr" v="776323" />
	</node>
	<node lat="59.929805551476214" lon="12.084966665708468" id="-21527">
		<tag k="name" v="Sjølia" />
		<tag k="natural" v="slope" />
		<tag k="place" v="locality" />
		<tag k="ssr:stedsnr" v="776347" />
	</node>
	<node lat="60.0291500011269" lon="12.303163881992244" id="-21528">
		<tag k="name" v="Matsvingen" />
		<tag k="natural" v="slope" />
		<tag k="place" v="locality" />
		<tag k="ssr:stedsnr" v="776433" />
	</node>
	<node lat="59.93741944028291" lon="12.127097224017273" id="-21534">
		<tag k="name" v="Kabbeteigen" />
		<tag k="natural" v="slope" />
		<tag k="place" v="locality" />
		<tag k="ssr:stedsnr" v="776491" />
	</node>
	<node lat="59.9644472179591" lon="12.330558327694382" id="-21535">
		<tag k="name" v="Gammersbrenna" />
		<tag k="natural" v="slope" />
		<tag k="place" v="locality" />
		<tag k="ssr:stedsnr" v="776492" />
	</node>
	<node lat="59.925777777659036" lon="11.81888054909344" id="-21537">
		<tag k="name" v="Golendalen" />
		<tag k="natural" v="valley" />
		<tag k="place" v="locality" />
		<tag k="ssr:stedsnr" v="776567" />
	</node>
	<node lat="59.93181944415902" lon="12.13973055617515" id="-21550">
		<tag k="name" v="Gammel-Hansberget" />
		<tag k="natural" v="ridge" />
		<tag k="place" v="locality" />
		<tag k="ssr:stedsnr" v="776996" />
	</node>
	<node lat="59.94825833518168" lon="11.951913893094943" id="-21554">
		<tag k="name" v="Aurhaugen" />
		<tag k="natural" v="hill" />
		<tag k="place" v="locality" />
		<tag k="ssr:stedsnr" v="794263" />
	</node>
	<node lat="59.97265555304459" lon="11.860955550306622" id="-21557">
		<tag k="fixme" v="consider natural=peak for the most distinct mountains in the district" />
		<tag k="name" v="Svartkollen" />
		<tag k="natural" v="hill" />
		<tag k="place" v="locality" />
		<tag k="ssr:stedsnr" v="794038" />
	</node>
	<node lat="59.97366388845481" lon="12.176830562826852" id="-21573">
		<tag k="name" v="Gorrsjøberget" />
		<tag k="natural" v="hill" />
		<tag k="place" v="locality" />
		<tag k="ssr:stedsnr" v="794448" />
	</node>
	<node lat="59.98165277723086" lon="12.194597222297881" id="-21574">
		<tag k="name" v="Furufjellet" />
		<tag k="natural" v="hill" />
		<tag k="place" v="locality" />
		<tag k="ssr:stedsnr" v="794450" />
	</node>
	<node lat="60.02473611342878" lon="11.993988885647594" id="-21576">
		<tag k="name" v="Stubbskiberget" />
		<tag k="natural" v="hill" />
		<tag k="place" v="locality" />
		<tag k="ssr:stedsnr" v="794638" />
	</node>
	<node lat="60.02905000443813" lon="11.956980550620084" id="-21579">
		<tag k="name" v="Buknatten" />
		<tag k="natural" v="hill" />
		<tag k="place" v="locality" />
		<tag k="ssr:stedsnr" v="794646" />
	</node>
	<node lat="60.07731110940672" lon="11.997611111622186" id="-21583">
		<tag k="fixme" v="consider natural=peak for the most distinct mountains in the district" />
		<tag k="name" v="Samuelsåsen" />
		<tag k="natural" v="hill" />
		<tag k="place" v="locality" />
		<tag k="ssr:stedsnr" v="794745" />
	</node>
	<node lat="60.11310000379423" lon="12.262902777873107" id="-21586">
		<tag k="name" v="Berget" />
		<tag k="natural" v="hill" />
		<tag k="place" v="locality" />
		<tag k="ssr:stedsnr" v="794932" />
	</node>
	<node lat="60.044180554369355" lon="12.031311114765888" id="-21588">
		<tag k="fixme" v="consider natural=peak for the most distinct mountains in the district" />
		<tag k="name" v="Tjæregravåsen" />
		<tag k="natural" v="hill" />
		<tag k="place" v="locality" />
		<tag k="ssr:stedsnr" v="794688" />
	</node>
	<node lat="59.89589721852436" lon="11.94507222737124" id="-21602">
		<tag k="name" v="Abbortjennhøgda" />
		<tag k="natural" v="hill" />
		<tag k="place" v="locality" />
		<tag k="ssr:stedsnr" v="837284" />
	</node>
	<node lat="59.96868610686687" lon="11.966375000576654" id="-21603">
		<tag k="fixme" v="consider natural=peak for the most distinct mountains in the district" />
		<tag k="name" v="Sæteråsen" />
		<tag k="natural" v="hill" />
		<tag k="place" v="locality" />
		<tag k="ssr:stedsnr" v="837295" />
	</node>
	<node lat="60.00905000014095" lon="12.20608888664101" id="-21611">
		<tag k="name" v="Snaråsen" />
		<tag k="natural" v="hill" />
		<tag k="place" v="locality" />
		<tag k="ssr:stedsnr" v="836892" />
	</node>
	<node lat="60.015374997419286" lon="12.21286388204729" id="-21612">
		<tag k="name" v="Falldalen" />
		<tag k="natural" v="valley" />
		<tag k="place" v="locality" />
		<tag k="ssr:stedsnr" v="836895" />
	</node>
	<node lat="59.95126111253916" lon="12.15217777637346" id="-21617">
		<tag k="name" v="Gaustadmoen" />
		<tag k="place" v="locality" />
		<tag k="ssr:stedsnr" v="837516" />
	</node>
	<node lat="59.94114999587293" lon="12.106341670417205" id="-21620">
		<tag k="name" v="Myssmørkleiva" />
		<tag k="natural" v="slope" />
		<tag k="place" v="locality" />
		<tag k="ssr:stedsnr" v="837521" />
	</node>
	<node lat="59.929394441500676" lon="11.819861115489882" id="-21621">
		<tag k="name" v="Deledalen" />
		<tag k="natural" v="valley" />
		<tag k="place" v="locality" />
		<tag k="ssr:stedsnr" v="837607" />
	</node>
	<node lat="59.97696388804035" lon="12.251991669504523" id="-21623">
		<tag k="name" v="Kattbråtan" />
		<tag k="natural" v="slope" />
		<tag k="place" v="locality" />
		<tag k="ssr:stedsnr" v="837052" />
	</node>
	<node lat="60.058258333786654" lon="12.014022215489712" id="-21627">
		<tag k="name" v="Rundåsen" />
		<tag k="natural" v="hill" />
		<tag k="place" v="locality" />
		<tag k="ssr:stedsnr" v="837069" />
	</node>
	<node lat="60.10673611422322" lon="12.191808336050338" id="-21633">
		<tag k="name" v="Øyungen" />
		<tag k="natural" v="slope" />
		<tag k="place" v="locality" />
		<tag k="ssr:stedsnr" v="837149" />
	</node>
	<node lat="59.94309999812575" lon="12.259833340526159" id="-21635">
		<tag k="name" v="Linåsteppa" />
		<tag k="natural" v="slope" />
		<tag k="place" v="locality" />
		<tag k="ssr:stedsnr" v="837235" />
	</node>
	<node lat="59.915802776441645" lon="12.056636114978255" id="-21637">
		<tag k="name" v="Moberget" />
		<tag k="natural" v="hill" />
		<tag k="place" v="locality" />
		<tag k="ssr:stedsnr" v="837335" />
	</node>
	<node lat="59.993577775211406" lon="12.24025278326103" id="-21645">
		<tag k="name" v="Kvekerberget" />
		<tag k="natural" v="hill" />
		<tag k="place" v="locality" />
		<tag k="ssr:stedsnr" v="837374" />
	</node>
	<node lat="59.94726110695206" lon="12.043863886400112" id="-21647">
		<tag k="name" v="Delvikdalen" />
		<tag k="natural" v="valley" />
		<tag k="place" v="locality" />
		<tag k="ssr:stedsnr" v="837533" />
	</node>
	<node lat="59.95986944088731" lon="12.028036107650502" id="-21648">
		<tag k="name" v="Høgåsbråten" />
		<tag k="natural" v="slope" />
		<tag k="place" v="locality" />
		<tag k="ssr:stedsnr" v="837536" />
	</node>
	<node lat="60.07879999733376" lon="12.022297220785475" id="-21649">
		<tag k="fixme" v="consider natural=peak for the most distinct mountains in the district" />
		<tag k="name" v="Kvernberget" />
		<tag k="natural" v="hill" />
		<tag k="place" v="locality" />
		<tag k="ssr:stedsnr" v="837240" />
	</node>
	<node lat="59.97141666307114" lon="12.26689165769468" id="-21650">
		<tag k="name" v="Grasmyrdalen" />
		<tag k="natural" v="valley" />
		<tag k="place" v="locality" />
		<tag k="ssr:stedsnr" v="837243" />
	</node>
	<node lat="59.97481111009776" lon="11.928422216106796" id="-21653">
		<tag k="name" v="Askerudknollen" />
		<tag k="natural" v="hill" />
		<tag k="place" v="locality" />
		<tag k="ssr:stedsnr" v="837658" />
	</node>
	<node lat="59.974766668125284" lon="11.963416662624981" id="-21654">
		<tag k="name" v="Askedalsberget" />
		<tag k="natural" v="hill" />
		<tag k="place" v="locality" />
		<tag k="ssr:stedsnr" v="837667" />
	</node>
	<node lat="60.02104167009094" lon="11.879155562830217" id="-21655">
		<tag k="fixme" v="consider natural=peak for the most distinct mountains in the district" />
		<tag k="name" v="Svenskehytta" />
		<tag k="natural" v="hill" />
		<tag k="place" v="locality" />
		<tag k="ssr:stedsnr" v="837674" />
	</node>
	<node lat="60.03276666798867" lon="12.30564722305791" id="-21659">
		<tag k="name" v="Styggdalen" />
		<tag k="natural" v="valley" />
		<tag k="place" v="locality" />
		<tag k="ssr:stedsnr" v="837800" />
	</node>
	<node lat="60.13152500333757" lon="12.148605551006883" id="-21660">
		<tag k="fixme" v="consider natural=peak for the most distinct mountains in the district" />
		<tag k="name" v="Skaubyåsen" />
		<tag k="natural" v="hill" />
		<tag k="place" v="locality" />
		<tag k="ssr:stedsnr" v="837914" />
	</node>
	<node lat="59.965599999007225" lon="11.980199992181396" id="-21661">
		<tag k="name" v="Vangdalen" />
		<tag k="natural" v="valley" />
		<tag k="place" v="locality" />
		<tag k="ssr:stedsnr" v="837920" />
	</node>
	<node lat="59.96933055851937" lon="11.839302778865779" id="-21663">
		<tag k="name" v="Bestemorlia" />
		<tag k="natural" v="slope" />
		<tag k="place" v="locality" />
		<tag k="ssr:stedsnr" v="837742" />
	</node>
	<node lat="59.92024999878369" lon="12.195777784090781" id="-21664">
		<tag k="name" v="Kjerringbråten" />
		<tag k="natural" v="slope" />
		<tag k="place" v="locality" />
		<tag k="ssr:stedsnr" v="837763" />
	</node>
	<node lat="59.90064167038605" lon="11.944619438659482" id="-21666">
		<tag k="name" v="Lange Holtet" />
		<tag k="natural" v="slope" />
		<tag k="place" v="locality" />
		<tag k="ssr:stedsnr" v="837773" />
	</node>
	<node lat="59.97248055613778" lon="12.320994451799802" id="-21668">
		<tag k="fixme" v="consider natural=peak for the most distinct mountains in the district" />
		<tag k="name" v="Damåsen" />
		<tag k="natural" v="hill" />
		<tag k="place" v="locality" />
		<tag k="ssr:stedsnr" v="837846" />
	</node>
	<node lat="59.99243333223912" lon="12.287338892863266" id="-21670">
		<tag k="name" v="Storlia" />
		<tag k="natural" v="slope" />
		<tag k="place" v="locality" />
		<tag k="ssr:stedsnr" v="837859" />
	</node>
	<node lat="60.00922778016106" lon="12.291149996639831" id="-21671">
		<tag k="fixme" v="consider natural=peak for the most distinct mountains in the district" />
		<tag k="name" v="Pålakkeren" />
		<tag k="natural" v="hill" />
		<tag k="place" v="locality" />
		<tag k="ssr:stedsnr" v="837860" />
	</node>
	<node lat="59.97783888984898" lon="11.889674999176775" id="-21673">
		<tag k="name" v="Melbylia" />
		<tag k="natural" v="slope" />
		<tag k="place" v="locality" />
		<tag k="ssr:stedsnr" v="837870" />
	</node>
	<node lat="59.92422222555654" lon="12.140872229022145" id="-21675">
		<tag k="name" v="Kirkeberget" />
		<tag k="natural" v="hill" />
		<tag k="place" v="locality" />
		<tag k="ssr:stedsnr" v="837972" />
	</node>
	<node lat="59.97889722579736" lon="11.835288883897912" id="-21678">
		<tag k="fixme" v="consider natural=peak for the most distinct mountains in the district" />
		<tag k="name" v="Hundetjennåsen" />
		<tag k="natural" v="hill" />
		<tag k="place" v="locality" />
		<tag k="ssr:stedsnr" v="854998" />
	</node>
	<node lat="59.9018305568429" lon="11.816877772313495" id="-21680">
		<tag k="fixme" v="consider natural=peak for the most distinct mountains in the district" />
		<tag k="name" v="Høgåsen" />
		<tag k="natural" v="hill" />
		<tag k="place" v="locality" />
		<tag k="ssr:stedsnr" v="854227" />
	</node>
	<node lat="59.8614083337398" lon="11.848461110750897" id="-21683">
		<tag k="alt_name" v="Sjelåsæteråsen" />
		<tag k="fixme" v="consider natural=peak for the most distinct mountains in the district" />
		<tag k="name" v="Skjølåsæteråsen" />
		<tag k="natural" v="hill" />
		<tag k="place" v="locality" />
		<tag k="ssr:stedsnr" v="855137" />
	</node>
	<node lat="59.97416667038274" lon="12.26367499613021" id="-21691">
		<tag k="name" v="Høgberget" />
		<tag k="natural" v="hill" />
		<tag k="place" v="locality" />
		<tag k="ssr:stedsnr" v="855188" />
	</node>
	<node lat="59.99215833491091" lon="11.98985277836633" id="-21716">
		<tag k="fixme" v="consider natural=peak for the most distinct mountains in the district" />
		<tag k="name" v="Gravliberget" />
		<tag k="natural" v="hill" />
		<tag k="place" v="locality" />
		<tag k="ssr:stedsnr" v="855375" />
	</node>
	<node lat="59.9865499970245" lon="11.928147215118482" id="-21724">
		<tag k="name" v="Jordbærbråtan" />
		<tag k="natural" v="slope" />
		<tag k="place" v="locality" />
		<tag k="ssr:stedsnr" v="855466" />
	</node>
	<node lat="59.986249998931754" lon="11.888774996493584" id="-21725">
		<tag k="name" v="Brennlia" />
		<tag k="natural" v="slope" />
		<tag k="place" v="locality" />
		<tag k="ssr:stedsnr" v="855467" />
	</node>
	<node lat="60.03512500270727" lon="12.078033341907487" id="-21747">
		<tag k="name" v="Tomterteigen" />
		<tag k="natural" v="slope" />
		<tag k="place" v="locality" />
		<tag k="ssr:stedsnr" v="957518" />
	</node>
	<node lat="59.94803611001075" lon="12.150519448186042" id="-21750">
		<tag k="name" v="Torestudalen" />
		<tag k="natural" v="valley" />
		<tag k="place" v="locality" />
		<tag k="ssr:stedsnr" v="957875" />
	</node>
	<node lat="59.99154999757936" lon="12.246083327020523" id="-21751">
		<tag k="name" v="Klanderuddalen" />
		<tag k="natural" v="valley" />
		<tag k="place" v="locality" />
		<tag k="ssr:stedsnr" v="958070" />
	</node>
	<node lat="59.866675000747605" lon="11.869577775045203" id="-21758">
		<tag k="name" v="Sleppene" />
		<tag k="natural" v="slope" />
		<tag k="place" v="locality" />
		<tag k="ssr:stedsnr" v="958656" />
	</node>
	<node lat="59.94905833520624" lon="12.268447222612851" id="-21764">
		<tag k="name" v="Vestre Varden" />
		<tag k="natural" v="hill" />
		<tag k="place" v="locality" />
		<tag k="ssr:stedsnr" v="958259" />
	</node>
	<node lat="59.89681110897846" lon="12.132300008226162" id="-21765">
		<tag k="name" v="Langedalen" />
		<tag k="natural" v="valley" />
		<tag k="place" v="locality" />
		<tag k="ssr:stedsnr" v="958262" />
	</node>
	<node lat="59.920872220016776" lon="11.87616666371242" id="-21769">
		<tag k="name" v="Nisseberget" />
		<tag k="natural" v="hill" />
		<tag k="place" v="locality" />
		<tag k="ssr:stedsnr" v="958283" />
	</node>
	<node lat="60.052766662378374" lon="11.968991669230098" id="-21772">
		<tag k="name" v="Sandtjennåsen" />
		<tag k="natural" v="hill" />
		<tag k="place" v="locality" />
		<tag k="ssr:stedsnr" v="958354" />
	</node>
	<node lat="60.13141944838389" lon="12.183830553600485" id="-21778">
		<tag k="fixme" v="consider natural=peak for the most distinct mountains in the district" />
		<tag k="name" v="Katrineåsen" />
		<tag k="natural" v="hill" />
		<tag k="place" v="locality" />
		<tag k="ssr:stedsnr" v="958480" />
	</node>
	<node lat="60.007919440648315" lon="12.322997220874932" id="-21796">
		<tag k="name" v="Helvetesbråten" />
		<tag k="natural" v="slope" />
		<tag k="place" v="locality" />
		<tag k="ssr:stedsnr" v="958964" />
	</node>
	<node lat="59.99884413557924" lon="12.327799266471164" id="-21808">
		<tag k="fixme" v="consider natural=peak for the most distinct mountains in the district" />
		<tag k="name" v="Ulveberget" />
		<tag k="natural" v="hill" />
		<tag k="place" v="locality" />
		<tag k="ssr:stedsnr" v="1078918" />
	</node>
</osm>
