<?xml version="1.0" encoding="UTF-8"?>
<osm generator="osmapis" version="0.6">
	<node id="-567936" lat="62.4572416626" lon="7.01386945222">
		<tag k="name" v="Fremsteelva" />
		<tag k="ssr:stedsnr" v="739323" />
		<tag k="waterway" v="river" />
	</node>
	<node id="-567806" lat="62.4770111153" lon="6.93197222153">
		<tag k="name" v="Vestreelva" />
		<tag k="ssr:stedsnr" v="556385" />
		<tag k="waterway" v="stream" />
	</node>
	<node id="-567421" lat="62.4369463898" lon="6.94667674117">
		<tag k="alt_name" v="Geitaskardsvatnet;Geitaskarvatnet" />
		<tag k="name" v="Geitaskardvatnet" />
		<tag k="natural" v="water" />
		<tag k="ssr:stedsnr" v="314691" />
	</node>
	<node id="-567548" lat="62.5163416699" lon="6.96920000199">
		<tag k="name" v="Måsligrova" />
		<tag k="ssr:stedsnr" v="35597" />
		<tag k="waterway" v="stream" />
	</node>
	<node id="-567419" lat="62.4355194437" lon="7.0902166706">
		<tag k="name" v="Grytavatnet" />
		<tag k="natural" v="water" />
		<tag k="ssr:stedsnr" v="314683" />
		<tag k="water" v="lake" />
	</node>
	<node id="-567674" lat="62.4997277737" lon="6.79923055014">
		<tag k="alt_name" v="Haugelva;Sætreelva" />
		<tag k="name" v="Dalselva" />
		<tag k="ssr:stedsnr" v="217494" />
		<tag k="waterway" v="river" />
	</node>
	<node id="-567801" lat="62.4546000032" lon="6.97572777155">
		<tag k="name" v="Svarttjønna" />
		<tag k="natural" v="water" />
		<tag k="ssr:stedsnr" v="520693" />
	</node>
	<node id="-568053" lat="62.4930666665" lon="6.98231111375">
		<tag k="name" v="Osen" />
		<tag k="natural" v="bay" />
		<tag k="ssr:stedsnr" v="945550" />
	</node>
	<node id="-567539" lat="62.5097111125" lon="6.8744249953">
		<tag k="name" v="Trolldalsgrova" />
		<tag k="ssr:stedsnr" v="12848" />
		<tag k="waterway" v="stream" />
	</node>
	<node id="-567538" lat="62.4419694402" lon="7.00391110833">
		<tag k="name" v="Skurdgrova" />
		<tag k="old_name" v="Skurgrova" />
		<tag k="ssr:stedsnr" v="11372" />
		<tag k="waterway" v="stream" />
	</node>
	<node id="-567409" lat="62.4846027789" lon="6.81266666745">
		<tag k="name" v="Wensellelva" />
		<tag k="ssr:stedsnr" v="283360" />
		<tag k="waterway" v="river" />
	</node>
	<node id="-567592" lat="62.4490249995" lon="6.95851666416">
		<tag k="name" v="Sæteråna" />
		<tag k="ssr:stedsnr" v="96636" />
		<tag k="waterway" v="stream" />
	</node>
	<node id="-567661" lat="62.463197221" lon="6.99268333643">
		<tag k="fixme" v="multiple name tags, choose one and add the other to alt_name" />
		<tag k="name" v="Grønliløken;Løken" />
		<tag k="ssr:stedsnr" v="193361" />
		<tag k="waterway" v="stream" />
	</node>
	<node id="-567657" lat="62.4945194409" lon="6.77648610948">
		<tag k="alt_name" v="Dekkavatnet" />
		<tag k="name" v="Dekkjavatnet" />
		<tag k="natural" v="water" />
		<tag k="ssr:stedsnr" v="193288" />
	</node>
	<node id="-567912" lat="62.4793777744" lon="6.81953889678">
		<tag k="name" v="Årøyane" />
		<tag k="place" v="island" />
		<tag k="ssr:stedsnr" v="703608" />
	</node>
	<node id="-567420" lat="62.4401027778" lon="7.05015833568">
		<tag k="alt_name" v="Voksåa" />
		<tag k="name" v="Grytagrova" />
		<tag k="ssr:stedsnr" v="314685" />
		<tag k="waterway" v="stream" />
	</node>
	<node id="-567781" lat="62.4467777804" lon="6.88678056238">
		<tag k="name" v="Kvitneset" />
		<tag k="natural" v="cape" />
		<tag k="ssr:stedsnr" v="520477" />
	</node>
	<node id="-568036" lat="62.4684055538" lon="6.97953055711">
		<tag k="name" v="Midtelva" />
		<tag k="ssr:stedsnr" v="921352" />
		<tag k="waterway" v="stream" />
	</node>
	<node id="-567907" lat="62.5195250023" lon="6.81803332506">
		<tag k="name" v="Fremsteosen" />
		<tag k="natural" v="bay" />
		<tag k="ssr:stedsnr" v="703582" />
	</node>
	<node id="-567905" lat="62.452933335" lon="7.05062222437">
		<tag k="name" v="Tjønna" />
		<tag k="natural" v="water" />
		<tag k="ssr:stedsnr" v="703576" />
	</node>
	<node id="-567651" lat="62.4852055594" lon="6.80650832644">
		<tag k="name" v="Liaelva" />
		<tag k="ssr:stedsnr" v="163795" />
		<tag k="waterway" v="river" />
	</node>
	<node id="-567830" lat="62.5023666694" lon="6.93614722282">
		<tag k="name" v="Kråvassgrova" />
		<tag k="ssr:stedsnr" v="581601" />
		<tag k="waterway" v="stream" />
	</node>
	<node id="-567702" lat="62.4962552878" lon="6.78638979373">
		<tag k="name" v="Solnørdalselva" />
		<tag k="ssr:stedsnr" v="269094" />
		<tag k="waterway" v="river" />
	</node>
	<node id="-567772" lat="62.5320031408" lon="6.88363115891">
		<tag k="name" v="Svartløkelva" />
		<tag k="ssr:stedsnr" v="497836" />
		<tag k="waterway" v="stream" />
	</node>
	<node id="-567482" lat="62.4432416637" lon="7.04168889435">
		<tag k="name" v="Grytagrova" />
		<tag k="ssr:stedsnr" v="399658" />
		<tag k="waterway" v="stream" />
	</node>
	<node id="-567897" lat="62.5043027815" lon="6.95231944884">
		<tag k="name" v="Kvanndalselva" />
		<tag k="ssr:stedsnr" v="679843" />
		<tag k="waterway" v="stream" />
	</node>
	<node id="-567384" lat="62.5058361091" lon="6.93062777672">
		<tag k="name" v="Sætregrova" />
		<tag k="ssr:stedsnr" v="278613" />
		<tag k="waterway" v="stream" />
	</node>
	<node id="-567895" lat="62.4287527797" lon="7.05399722783">
		<tag k="name" v="Litlebotnselva" />
		<tag k="old_name" v="Litlebottselva" />
		<tag k="ssr:stedsnr" v="678665" />
		<tag k="waterway" v="stream" />
	</node>
	<node id="-567894" lat="62.4908027776" lon="6.98418888198">
		<tag k="name" v="Kvanndalsvatnet" />
		<tag k="natural" v="water" />
		<tag k="ssr:stedsnr" v="678332" />
	</node>
	<node id="-567509" lat="62.5242861138" lon="6.89266667421">
		<tag k="name" v="Bjønnskargrova" />
		<tag k="ssr:stedsnr" v="885569" />
		<tag k="waterway" v="stream" />
	</node>
	<node id="-567892" lat="62.4658944421" lon="7.02879166133">
		<tag k="name" v="Kjersemvatnet" />
		<tag k="natural" v="water" />
		<tag k="ssr:stedsnr" v="678376" />
	</node>
	<node id="-567635" lat="62.503433331" lon="6.96258333016">
		<tag k="name" v="Tverrligrova" />
		<tag k="ssr:stedsnr" v="156575" />
		<tag k="waterway" v="stream" />
	</node>
	<node id="-567506" lat="62.4641027787" lon="6.82294167253">
		<tag k="name" v="Lisetvatnet" />
		<tag k="natural" v="water" />
		<tag k="ssr:stedsnr" v="885561" />
	</node>
	<node id="-568035" lat="62.4966499999" lon="6.88475276941">
		<tag k="name" v="Ørskogelva" />
		<tag k="ssr:stedsnr" v="921301" />
		<tag k="waterway" v="river" />
	</node>
	<node id="-567864" lat="62.4960444401" lon="6.97803333152">
		<tag k="name" v="Fossen" />
		<tag k="natural" v="waterfall" />
		<tag k="ssr:stedsnr" v="641559" />
	</node>
	<node id="-567374" lat="62.481547221" lon="6.87069722225">
		<tag k="name" v="Rashølen" />
		<tag k="place" v="locality" />
		<tag k="ssr:stedsnr" v="278550" />
	</node>
	<node id="-567629" lat="62.5124638925" lon="6.93285556469">
		<tag k="name" v="Storøyna" />
		<tag k="place" v="island" />
		<tag k="ssr:stedsnr" v="156544" />
	</node>
	<node id="-567889" lat="62.4671499958" lon="6.8826888941">
		<tag k="name" v="Ivergrova" />
		<tag k="ssr:stedsnr" v="648773" />
		<tag k="waterway" v="stream" />
	</node>
	<node id="-567623" lat="62.4481055544" lon="6.98473888278">
		<tag k="name" v="Kvitlane" />
		<tag k="natural" v="cape" />
		<tag k="ssr:stedsnr" v="156506" />
	</node>
	<node id="-568006" lat="62.4358111066" lon="7.04466943553">
		<tag k="name" v="Litlebotselva" />
		<tag k="ssr:stedsnr" v="824671" />
		<tag k="waterway" v="stream" />
	</node>
	<node id="-568005" lat="62.4406999991" lon="7.03665277143">
		<tag k="name" v="Litlebotselva" />
		<tag k="ssr:stedsnr" v="824667" />
		<tag k="waterway" v="river" />
	</node>
	<node id="-567876" lat="62.4453777735" lon="6.89980276894">
		<tag k="name" v="Visetelva" />
		<tag k="ssr:stedsnr" v="641653" />
		<tag k="waterway" v="stream" />
	</node>
	<node id="-567872" lat="62.4820666641" lon="6.84471945321">
		<tag k="name" v="Ytsteelva" />
		<tag k="ssr:stedsnr" v="641603" />
		<tag k="waterway" v="stream" />
	</node>
	<node id="-567999" lat="62.5103916634" lon="6.89965834056">
		<tag k="name" v="Dalegrova" />
		<tag k="ssr:stedsnr" v="824609" />
		<tag k="waterway" v="stream" />
	</node>
	<node id="-567614" lat="62.5461027792" lon="6.86471389409">
		<tag k="alt_name" v="Svartløkvatnet" />
		<tag k="name" v="Tomrevatnet" />
		<tag k="natural" v="water" />
		<tag k="ssr:stedsnr" v="132834" />
		<tag k="water" v="lake" />
	</node>
	<node id="-567613" lat="62.4194166646" lon="7.06575833993">
		<tag k="name" v="Litlebotnsvatnet" />
		<tag k="natural" v="water" />
		<tag k="old_name" v="Litlebottsvatnet" />
		<tag k="ssr:stedsnr" v="132655" />
	</node>
	<node id="-567458" lat="62.466052782" lon="6.96411389627">
		<tag k="name" v="Heimsteelva" />
		<tag k="ssr:stedsnr" v="374361" />
		<tag k="waterway" v="stream" />
	</node>
	<node id="-567866" lat="62.5244194417" lon="6.81590000389">
		<tag k="name" v="Mevassholmen" />
		<tag k="place" v="islet" />
		<tag k="ssr:stedsnr" v="641573" />
	</node>
	<node id="-567992" lat="62.514269441" lon="6.92263055638">
		<tag k="name" v="Myrløken" />
		<tag k="ssr:stedsnr" v="824539" />
		<tag k="waterway" v="stream" />
	</node>
	<node id="-567809" lat="62.4499444482" lon="7.05339444582">
		<tag k="name" v="Heivatna" />
		<tag k="natural" v="water" />
		<tag k="ssr:stedsnr" v="557359" />
	</node>
	<node id="-567477" lat="62.514236109" lon="6.80324443717">
		<tag k="name" v="Tjønna" />
		<tag k="natural" v="water" />
		<tag k="ssr:stedsnr" v="399602" />
	</node>
	<node id="-567861" lat="62.5116027794" lon="6.91918334234">
		<tag k="name" v="Dynjafossen" />
		<tag k="natural" v="waterfall" />
		<tag k="ssr:stedsnr" v="641467" />
	</node>
	<node id="-567730" lat="62.4505638864" lon="6.89085277074">
		<tag k="name" v="Øyrane" />
		<tag k="place" v="island" />
		<tag k="ssr:stedsnr" v="460557" />
	</node>
	<node id="-567856" lat="62.5150111128" lon="6.8220749945">
		<tag k="name" v="Akslevollvatnet" />
		<tag k="natural" v="water" />
		<tag k="ssr:stedsnr" v="618851" />
		<tag k="water" v="lake" />
	</node>
	<node id="-567974" lat="62.4971972235" lon="6.93030277964">
		<tag k="name" v="Kråvatnet" />
		<tag k="natural" v="water" />
		<tag k="ssr:stedsnr" v="800287" />
	</node>
	<node id="-567724" lat="62.5074527807" lon="6.78865277827">
		<tag k="name" v="Løkane" />
		<tag k="ssr:stedsnr" v="436845" />
		<tag k="waterway" v="stream" />
	</node>
	<node id="-567723" lat="62.5252249992" lon="6.91543334211">
		<tag k="alt_name" v="Svartvatnet" />
		<tag k="name" v="Nysætervatnet" />
		<tag k="natural" v="water" />
		<tag k="ssr:stedsnr" v="436813" />
		<tag k="water" v="lake" />
	</node>
	<node id="-567978" lat="62.4510188922" lon="6.95670390638">
		<tag k="alt_name" v="Vaksvikelva;Vakså" />
		<tag k="name" v="Vokså" />
		<tag k="ssr:stedsnr" v="800347" />
		<tag k="waterway" v="river" />
	</node>
	<node id="-567720" lat="62.4639975586" lon="6.91260176634">
		<tag k="name" v="Sætregrova" />
		<tag k="ssr:stedsnr" v="436319" />
		<tag k="waterway" v="stream" />
	</node>
	<node id="-567718" lat="62.4874111143" lon="6.89249166342">
		<tag k="name" v="Stiggrova" />
		<tag k="old_name" v="Stigrova" />
		<tag k="ssr:stedsnr" v="436284" />
		<tag k="waterway" v="stream" />
	</node>
	<node id="-567494" lat="62.4646305555" lon="6.82809444793">
		<tag k="name" v="Lisetkanalen" />
		<tag k="ssr:stedsnr" v="405831" />
		<tag k="waterway" v="river" />
	</node>
	<node id="-567970" lat="62.5064055579" lon="6.83346389235">
		<tag k="name" v="Meierielva" />
		<tag k="ssr:stedsnr" v="769794" />
		<tag k="waterway" v="river" />
	</node>
	<node id="-567456" lat="62.4793027735" lon="6.90451110275">
		<tag k="name" v="Øyagrova" />
		<tag k="ssr:stedsnr" v="374342" />
		<tag k="waterway" v="stream" />
	</node>
	<node id="-567583" lat="62.4498388922" lon="6.97845834111">
		<tag k="name" v="Midtelvkvisla" />
		<tag k="ssr:stedsnr" v="96542" />
		<tag k="waterway" v="stream" />
	</node>
	<node id="-567453" lat="62.5312555597" lon="6.83153055734">
		<tag k="name" v="Osane" />
		<tag k="natural" v="bay" />
		<tag k="ssr:stedsnr" v="338979" />
	</node>
	<node id="-567528" lat="62.4754138929" lon="6.85901945347">
		<tag k="name" v="Løken" />
		<tag k="ssr:stedsnr" v="885698" />
		<tag k="waterway" v="stream" />
	</node>
	<node id="-567704" lat="62.4975388914" lon="6.91156111434">
		<tag k="name" v="Heivatnet" />
		<tag k="natural" v="water" />
		<tag k="ssr:stedsnr" v="253337" />
	</node>
	<node id="-567958" lat="62.5122166696" lon="6.91679444689">
		<tag k="name" v="Myrløken" />
		<tag k="ssr:stedsnr" v="763626" />
		<tag k="waterway" v="stream" />
	</node>
	<node id="-567573" lat="62.4496027743" lon="7.08131111344">
		<tag k="name" v="Lauparvatnet" />
		<tag k="natural" v="water" />
		<tag k="ssr:stedsnr" v="72337" />
	</node>
	<node id="-567956" lat="62.4821027771" lon="6.81567499111">
		<tag k="name" v="Vaulen" />
		<tag k="natural" v="shoal" />
		<tag k="place" v="locality" />
		<tag k="ssr:stedsnr" v="763621" />
	</node>
	<node id="-567555" lat="62.5074583369" lon="6.90073888028">
		<tag k="name" v="Søvik-Lars-øyna" />
		<tag k="place" v="island" />
		<tag k="ssr:stedsnr" v="35676" />
	</node>
	<node id="-567824" lat="62.483061114" lon="6.95249444827">
		<tag k="name" v="Tuftene" />
		<tag k="natural" v="cape" />
		<tag k="ssr:stedsnr" v="581568" />
	</node>
	<node id="-567501" lat="62.5048972203" lon="6.81840834079">
		<tag k="name" v="Haugfossane" />
		<tag k="natural" v="waterfall" />
		<tag k="ssr:stedsnr" v="885521" />
	</node>
	<node id="-568076" lat="62.4850666686" lon="6.82684166609">
		<tag k="name" v="Pe-Larselva" />
		<tag k="ssr:stedsnr" v="952783" />
		<tag k="waterway" v="stream" />
	</node>
	<node id="-567426" lat="62.5088472247" lon="6.82375833755">
		<tag k="name" v="Heimsteosen" />
		<tag k="natural" v="bay" />
		<tag k="ssr:stedsnr" v="338440" />
	</node>
	<node id="-567533" lat="62.5354527737" lon="6.64544166924">
		<tag k="name" v="Skarsåna" />
		<tag k="ssr:stedsnr" v="33742" />
		<tag k="waterway" v="stream" />
	</node>
	<node id="-567852" lat="62.4295166691" lon="7.03740278245">
		<tag k="name" v="Tjørnene" />
		<tag k="natural" v="water" />
		<tag k="old_name" v="Tjørnane" />
		<tag k="ssr:stedsnr" v="617674" />
	</node>
	<node id="-567813" lat="62.5121472185" lon="6.98943612009">
		<tag k="name" v="Fossåna" />
		<tag k="ssr:stedsnr" v="572116" />
		<tag k="waterway" v="river" />
	</node>
	<node id="-567428" lat="62.4487833294" lon="6.88502777556">
		<tag k="name" v="Visetneset" />
		<tag k="natural" v="cape" />
		<tag k="ssr:stedsnr" v="338494" />
	</node>
	<node id="-567939" lat="62.4465944459" lon="6.92634167585">
		<tag k="fixme" v="multiple name tags, choose one and add the other to alt_name" />
		<tag k="name" v="Hallvardsvatnet;Hallvardsætrevatnet" />
		<tag k="natural" v="water" />
		<tag k="ssr:stedsnr" v="739355" />
	</node>
	<node id="-567810" lat="62.4786861098" lon="6.91856387947">
		<tag k="name" v="Tverrelva" />
		<tag k="ssr:stedsnr" v="557592" />
		<tag k="waterway" v="stream" />
	</node>
	<node id="-567564" lat="62.4984083303" lon="6.8723361178">
		<tag k="name" v="Tverrelva" />
		<tag k="ssr:stedsnr" v="71316" />
		<tag k="waterway" v="stream" />
	</node>
</osm>
