<?xml version="1.0" encoding="UTF-8"?>
<osm generator="osmapis" version="0.6">
	<node id="-567165" lat="62.4775972246" lon="6.79616111983">
		<tag k="name" v="Ørskogvika" />
		<tag k="natural" v="bay" />
		<tag k="ssr:stedsnr" v="860378" />
	</node>
	<node id="-567163" lat="62.4757249975" lon="6.72094721682">
		<tag k="name" v="Tobbeberget" />
		<tag k="natural" v="cape" />
		<tag k="ssr:stedsnr" v="824978" />
	</node>
	<node id="-566517" lat="62.4756055533" lon="6.81256111547">
		<tag k="name" v="Geilvika" />
		<tag k="natural" v="bay" />
		<tag k="ssr:stedsnr" v="278538" />
	</node>
	<node id="-566900" lat="62.4783916654" lon="6.69869723008">
		<tag k="fixme" v="consider seamark:type=rock or natural=shoal" />
		<tag k="name" v="Skotteskjeret" />
		<tag k="place" v="islet" />
		<tag k="ssr:stedsnr" v="460732" />
	</node>
	<node id="-567027" lat="62.4749638909" lon="6.69942777493">
		<tag k="name" v="Bråbenken" />
		<tag k="natural" v="cape" />
		<tag k="ssr:stedsnr" v="641979" />
	</node>
	<node id="-566897" lat="62.4551611089" lon="6.87876945297">
		<tag k="name" v="Komvika" />
		<tag k="natural" v="bay" />
		<tag k="ssr:stedsnr" v="460694" />
	</node>
	<node id="-567023" lat="62.4771722236" lon="6.6900111071">
		<tag k="name" v="Øyatangen" />
		<tag k="natural" v="cape" />
		<tag k="ssr:stedsnr" v="641671" />
	</node>
	<node id="-566766" lat="62.47995833" lon="6.81139723123">
		<tag k="name" v="Måsøyra" />
		<tag k="place" v="island" />
		<tag k="ssr:stedsnr" v="156485" />
	</node>
	<node id="-566636" lat="62.4766888929" lon="6.73554166326">
		<tag k="name" v="Forvad" />
		<tag k="natural" v="cape" />
		<tag k="ssr:stedsnr" v="399978" />
	</node>
	<node id="-567019" lat="62.4799805599" lon="6.77753332489">
		<tag k="name" v="Hagevika" />
		<tag k="natural" v="bay" />
		<tag k="ssr:stedsnr" v="641645" />
	</node>
	<node id="-566890" lat="62.4612777773" lon="6.86345000635">
		<tag k="name" v="Naustberget" />
		<tag k="natural" v="cape" />
		<tag k="ssr:stedsnr" v="460673" />
	</node>
	<node id="-566675" lat="62.4826055531" lon="6.70897499215">
		<tag k="name" v="Rotnesbukta" />
		<tag k="natural" v="bay" />
		<tag k="ssr:stedsnr" v="399031" />
	</node>
	<node id="-566747" lat="62.4767499965" lon="6.70086112086">
		<tag k="name" v="Hageneset" />
		<tag k="natural" v="cape" />
		<tag k="ssr:stedsnr" v="96982" />
	</node>
	<node id="-566617" lat="62.445277775" lon="6.89436110603">
		<tag k="name" v="Leirhola" />
		<tag k="natural" v="bay" />
		<tag k="ssr:stedsnr" v="399570" />
	</node>
	<node id="-566871" lat="62.4487666654" lon="6.88664722903">
		<tag k="name" v="Visetneset" />
		<tag k="natural" v="cape" />
		<tag k="ssr:stedsnr" v="456316" />
	</node>
	<node id="-566870" lat="62.4603138863" lon="6.87134444539">
		<tag k="name" v="Langeneset" />
		<tag k="natural" v="cape" />
		<tag k="ssr:stedsnr" v="456313" />
	</node>
	<node id="-566610" lat="62.4584277784" lon="6.82933889575">
		<tag k="name" v="Amdamsneset" />
		<tag k="natural" v="cape" />
		<tag k="ssr:stedsnr" v="388434" />
	</node>
	<node id="-566990" lat="62.4781444403" lon="6.69662776996">
		<tag k="name" v="Løbukta" />
		<tag k="natural" v="bay" />
		<tag k="ssr:stedsnr" v="581978" />
	</node>
	<node id="-566988" lat="62.4757722253" lon="6.69610555851">
		<tag k="name" v="Breivika" />
		<tag k="natural" v="bay" />
		<tag k="ssr:stedsnr" v="581710" />
	</node>
	<node id="-566859" lat="62.4643333378" lon="6.77283611401">
		<tag k="name" v="Gausneset" />
		<tag k="natural" v="cape" />
		<tag k="ssr:stedsnr" v="435377" />
	</node>
	<node id="-566986" lat="62.4708555532" lon="6.8016611146">
		<tag k="name" v="Kroppungshola" />
		<tag k="place" v="locality" />
		<tag k="ssr:stedsnr" v="581680" />
	</node>
	<node id="-567112" lat="62.4585999967" lon="6.78790833382">
		<tag k="name" v="Sollilygaren" />
		<tag k="natural" v="cape" />
		<tag k="ssr:stedsnr" v="763964" />
	</node>
	<node id="-567111" lat="62.4730000044" lon="6.80359445316">
		<tag k="fixme" v="consider seamark:type=rock or natural=shoal" />
		<tag k="name" v="Litleskjeret" />
		<tag k="place" v="islet" />
		<tag k="ssr:stedsnr" v="763965" />
	</node>
	<node id="-567110" lat="62.4746972188" lon="6.70626667288">
		<tag k="name" v="Kobbeneset" />
		<tag k="natural" v="cape" />
		<tag k="ssr:stedsnr" v="763695" />
	</node>
	<node id="-566725" lat="62.4591750036" lon="6.82614166612">
		<tag k="name" v="Skjervika" />
		<tag k="natural" v="bay" />
		<tag k="ssr:stedsnr" v="96506" />
	</node>
	<node id="-566892" lat="62.458647224" lon="6.79491389727">
		<tag k="name" v="Vikeneset" />
		<tag k="natural" v="cape" />
		<tag k="ssr:stedsnr" v="460677" />
	</node>
	<node id="-566723" lat="62.4787888865" lon="6.70394444578">
		<tag k="name" v="Selda" />
		<tag k="natural" v="bay" />
		<tag k="ssr:stedsnr" v="96711" />
	</node>
	<node id="-566594" lat="62.4767194453" lon="6.70255556191">
		<tag k="name" v="Øyasundet" />
		<tag k="natural" v="strait" />
		<tag k="ssr:stedsnr" v="338677" />
	</node>
	<node id="-566721" lat="62.4609166628" lon="6.81279166363">
		<tag k="name" v="Instevika" />
		<tag k="natural" v="bay" />
		<tag k="ssr:stedsnr" v="92304" />
	</node>
	<node id="-566588" lat="62.460736115" lon="6.80487777389">
		<tag k="name" v="Lisetvikane" />
		<tag k="natural" v="bay" />
		<tag k="ssr:stedsnr" v="338643" />
	</node>
	<node id="-566687" lat="62.4587699119" lon="6.83740547573">
		<tag k="name" v="Kreklingane" />
		<tag k="natural" v="cape" />
		<tag k="ssr:stedsnr" v="31301" />
	</node>
	<node id="-566840" lat="62.4825527814" lon="6.70450832718">
		<tag k="name" v="Rotneset" />
		<tag k="natural" v="cape" />
		<tag k="ssr:stedsnr" v="217691" />
	</node>
	<node id="-566707" lat="62.4760638846" lon="6.69828333418">
		<tag k="name" v="Langskipsøya" />
		<tag k="place" v="islet" />
		<tag k="ssr:stedsnr" v="71020" />
	</node>
	<node id="-566704" lat="62.4678916683" lon="6.7835583415">
		<tag k="name" v="Svartevika" />
		<tag k="natural" v="bay" />
		<tag k="ssr:stedsnr" v="35713" />
	</node>
	<node id="-566959" lat="62.4584694444" lon="6.77222500849">
		<tag k="name" v="Gausnesflua" />
		<tag k="natural" v="shoal" />
		<tag k="place" v="locality" />
		<tag k="ssr:stedsnr" v="578286" />
	</node>
	<node id="-567086" lat="62.4728055562" lon="6.80241389362">
		<tag k="fixme" v="consider seamark:type=rock or natural=shoal" />
		<tag k="name" v="Storskjeret" />
		<tag k="place" v="islet" />
		<tag k="ssr:stedsnr" v="760287" />
	</node>
	<node id="-567085" lat="62.476966665" lon="6.76488889637">
		<tag k="name" v="Apalsetneset" />
		<tag k="natural" v="cape" />
		<tag k="ssr:stedsnr" v="759285" />
	</node>
	<node id="-567209" lat="62.4605972183" lon="6.77257777994">
		<tag k="name" v="Klubben" />
		<tag k="natural" v="cape" />
		<tag k="ssr:stedsnr" v="945648" />
	</node>
	<node id="-567208" lat="62.4699999979" lon="6.7973972134">
		<tag k="name" v="Hestevika" />
		<tag k="natural" v="bay" />
		<tag k="ssr:stedsnr" v="945636" />
	</node>
	<node id="-566788" lat="62.4614305589" lon="6.86244444115">
		<tag k="name" v="Skarbøvika" />
		<tag k="natural" v="bay" />
		<tag k="ssr:stedsnr" v="156630" />
	</node>
	<node id="-566946" lat="62.4741694451" lon="6.7075750058">
		<tag k="name" v="Kobbebukta" />
		<tag k="natural" v="bay" />
		<tag k="ssr:stedsnr" v="520716" />
	</node>
	<node id="-567073" lat="62.4593388922" lon="6.77824722693">
		<tag k="name" v="Fagervika" />
		<tag k="natural" v="bay" />
		<tag k="ssr:stedsnr" v="703971" />
	</node>
	<node id="-566688" lat="62.4582194442" lon="6.82933332494">
		<tag k="name" v="Amdamneset" />
		<tag k="natural" v="cape" />
		<tag k="ssr:stedsnr" v="35556" />
	</node>
	<node id="-567071" lat="62.4584972185" lon="6.8308194484">
		<tag k="name" v="Kligardsfjøra" />
		<tag k="natural" v="beach" />
		<tag k="place" v="locality" />
		<tag k="ssr:stedsnr" v="703703" />
	</node>
	<node id="-566814" lat="62.4415222258" lon="6.90475555454">
		<tag k="name" v="Kjerringa" />
		<tag k="natural" v="cape" />
		<tag k="ssr:stedsnr" v="214290" />
	</node>
	<node id="-566813" lat="62.466724998" lon="6.77358889125">
		<tag k="name" v="Lungeneset" />
		<tag k="natural" v="cape" />
		<tag k="ssr:stedsnr" v="213356" />
	</node>
	<node id="-567067" lat="62.4463194418" lon="6.88852221487">
		<tag k="name" v="Linehola" />
		<tag k="place" v="locality" />
		<tag k="ssr:stedsnr" v="703679" />
	</node>
	<node id="-567066" lat="62.4667305547" lon="6.77328889634">
		<tag k="name" v="Lunneneset" />
		<tag k="natural" v="cape" />
		<tag k="ssr:stedsnr" v="703676" />
	</node>
	<node id="-566532" lat="62.4804472204" lon="6.81169723166">
		<tag k="name" v="Øyrane" />
		<tag k="place" v="island" />
		<tag k="ssr:stedsnr" v="278628" />
	</node>
	<node id="-566762" lat="62.4736529213" lon="6.70890088135">
		<tag k="name" v="Giljeneset" />
		<tag k="natural" v="cape" />
		<tag k="ssr:stedsnr" v="144749" />
	</node>
	<node id="-567214" lat="62.4761055575" lon="6.68899721882">
		<tag k="name" v="Tenneskjeret" />
		<tag k="place" v="islet" />
		<tag k="ssr:stedsnr" v="945987" />
	</node>
	<node id="-566802" lat="62.4719416642" lon="6.80596666763">
		<tag k="name" v="Skråvika" />
		<tag k="natural" v="bay" />
		<tag k="ssr:stedsnr" v="193333" />
	</node>
	<node id="-566670" lat="62.4805861117" lon="6.70039167269">
		<tag k="name" v="Ryttingsneset" />
		<tag k="natural" v="cape" />
		<tag k="ssr:stedsnr" v="885685" />
	</node>
	<node id="-567181" lat="62.4598583333" lon="6.85931389563">
		<tag k="name" v="Vaksvika" />
		<tag k="natural" v="bay" />
		<tag k="ssr:stedsnr" v="921369" />
	</node>
	<node id="-566702" lat="62.4621305531" lon="6.77327778092">
		<tag k="name" v="Svinevika" />
		<tag k="natural" v="bay" />
		<tag k="ssr:stedsnr" v="35707" />
	</node>
	<node id="-566539" lat="62.4614611142" lon="6.85350555092">
		<tag k="name" v="Saltkjelen" />
		<tag k="natural" v="cape" />
		<tag k="ssr:stedsnr" v="278668" />
	</node>
	<node id="-566794" lat="62.4771305547" lon="6.70367778695">
		<tag k="name" v="Sandingen" />
		<tag k="natural" v="beach" />
		<tag k="place" v="locality" />
		<tag k="ssr:stedsnr" v="156974" />
	</node>
	<node id="-566921" lat="62.457325001" lon="6.83810832774">
		<tag k="name" v="Store Klakken" />
		<tag k="natural" v="shoal" />
		<tag k="place" v="locality" />
		<tag k="ssr:stedsnr" v="517285" />
	</node>
	<node id="-566764" lat="62.4520197426" lon="6.88215484843">
		<tag k="name" v="Kleivaneset" />
		<tag k="natural" v="cape" />
		<tag k="ssr:stedsnr" v="152339" />
	</node>
	<node id="-567044" lat="62.4778172485" lon="6.81193979222">
		<tag k="name" v="Presteøyra" />
		<tag k="natural" v="beach" />
		<tag k="place" v="locality" />
		<tag k="ssr:stedsnr" v="699312" />
	</node>
	<node id="-566983" lat="62.4602416627" lon="6.86982500783">
		<tag k="name" v="Langeneset" />
		<tag k="natural" v="cape" />
		<tag k="ssr:stedsnr" v="581652" />
	</node>
	<node id="-566914" lat="62.4596222203" lon="6.77312778504">
		<tag k="name" v="Gausnesodden" />
		<tag k="natural" v="cape" />
		<tag k="ssr:stedsnr" v="496364" />
	</node>
	<node id="-566529" lat="62.4561555538" lon="6.87610833183">
		<tag k="name" v="Slettne" />
		<tag k="natural" v="beach" />
		<tag k="place" v="locality" />
		<tag k="ssr:stedsnr" v="278617" />
	</node>
</osm>
