<?xml version="1.0" encoding="UTF-8"?>
<osm generator="osmapis" version="0.6">
	<node id="-566759" lat="62.5090824003" lon="6.83610467658">
		<tag k="historic" v="shieling" />
		<tag k="name" v="Strandasætra" />
		<tag k="place" v="locality" />
		<tag k="ssr:stedsnr" v="133845" />
	</node>
	<node id="-566755" lat="62.4622916664" lon="6.97346666144">
		<tag k="historic" v="shieling" />
		<tag k="name" v="Sollisætra" />
		<tag k="place" v="locality" />
		<tag k="ssr:stedsnr" v="132324" />
	</node>
	<node id="-566751" lat="62.4773777778" lon="6.89172499233">
		<tag k="name" v="Lisetsætra" />
		<tag k="place" v="neighbourhood" />
		<tag k="ssr:stedsnr" v="120722" />
	</node>
	<node id="-566750" lat="62.4462277772" lon="6.96713055496">
		<tag k="name" v="Visetsætra" />
		<tag k="place" v="neighbourhood" />
		<tag k="ssr:stedsnr" v="120715" />
	</node>
	<node id="-566748" lat="62.4782833288" lon="6.81846665921">
		<tag k="fixme" v="consider place=hamlet" />
		<tag k="name" v="Ørskog" />
		<tag k="place" v="farm" />
		<tag k="ssr:stedsnr" v="119267" />
	</node>
	<node id="-566745" lat="62.4792583348" lon="6.7507250041">
		<tag k="name" v="Stigen" />
		<tag k="place" v="farm" />
		<tag k="ssr:stedsnr" v="96970" />
	</node>
	<node id="-566744" lat="62.4837963772" lon="6.82259762559">
		<tag k="fixme" v="consider place=hamlet" />
		<tag k="name" v="Sjøholt" />
		<tag k="place" v="farm" />
		<tag k="ssr:stedsnr" v="96725" />
	</node>
	<node id="-566743" lat="62.4779055569" lon="6.75934165846">
		<tag k="name" v="Ruddberg" />
		<tag k="place" v="farm" />
		<tag k="ssr:stedsnr" v="96698" />
	</node>
	<node id="-566691" lat="62.4569083319" lon="6.93554444734">
		<tag k="name" v="Nyset" />
		<tag k="place" v="farm" />
		<tag k="ssr:stedsnr" v="35589" />
	</node>
	<node id="-566605" lat="62.451883066" lon="6.89041794992">
		<tag k="fixme" v="consider place=hamlet" />
		<tag k="name" v="Vaksvika" />
		<tag k="place" v="village" />
		<tag k="ssr:stedsnr" v="375318" />
	</node>
	<node id="-566724" lat="62.4566305555" lon="6.9333166663">
		<tag k="name" v="Nygården" />
		<tag k="place" v="farm" />
		<tag k="ssr:stedsnr" v="96722" />
	</node>
	<node id="-566722" lat="62.4770111067" lon="6.7146111035">
		<tag k="name" v="Magnusplassen" />
		<tag k="place" v="farm" />
		<tag k="ssr:stedsnr" v="96703" />
	</node>
	<node id="-566715" lat="62.4561759719" lon="6.90864627487">
		<tag k="fixme" v="consider place=hamlet" />
		<tag k="name" v="Nedre Sollia" />
		<tag k="place" v="farm" />
		<tag k="ssr:stedsnr" v="71382" />
	</node>
	<node id="-567224" lat="62.4770944463" lon="6.90265000431">
		<tag k="name" v="Gamle Lisetsætra" />
		<tag k="place" v="neighbourhood" />
		<tag k="ssr:stedsnr" v="970361" />
	</node>
	<node id="-567222" lat="62.5177750017" lon="6.91786111341">
		<tag k="name" v="Nysæterbakkane" />
		<tag k="place" v="neighbourhood" />
		<tag k="ssr:stedsnr" v="970353" />
	</node>
	<node id="-567221" lat="62.5080555594" lon="6.84307777117">
		<tag k="name" v="Sjøholtsætra" />
		<tag k="place" v="neighbourhood" />
		<tag k="ssr:stedsnr" v="970342" />
	</node>
	<node id="-567219" lat="62.4598900603" lon="6.79904144015">
		<tag k="fixme" v="consider place=hamlet" />
		<tag k="name" v="Lisetvik" />
		<tag k="old_name" v="Lindsætvik" />
		<tag k="place" v="farm" />
		<tag k="ssr:stedsnr" v="950275" />
	</node>
	<node id="-566706" lat="62.5090666665" lon="6.83711667194">
		<tag k="name" v="Strandasætra" />
		<tag k="place" v="neighbourhood" />
		<tag k="ssr:stedsnr" v="60733" />
	</node>
	<node id="-567217" lat="62.4577499967" lon="6.92551943658">
		<tag k="name" v="Birkelund" />
		<tag k="place" v="farm" />
		<tag k="ssr:stedsnr" v="946490" />
	</node>
	<node id="-567216" lat="62.4548972249" lon="6.91917778621">
		<tag k="name" v="Gjerdet" />
		<tag k="place" v="farm" />
		<tag k="ssr:stedsnr" v="946481" />
	</node>
	<node id="-567215" lat="62.4765305565" lon="6.72071389457">
		<tag k="name" v="Sjølyst" />
		<tag k="place" v="isolated_dwelling" />
		<tag k="ssr:stedsnr" v="945988" />
	</node>
	<node id="-567212" lat="62.5023194437" lon="6.80748333618">
		<tag k="name" v="Barlindbøen" />
		<tag k="place" v="farm" />
		<tag k="ssr:stedsnr" v="945682" />
	</node>
	<node id="-567211" lat="62.479424998" lon="6.76232221761">
		<tag k="name" v="Dyrberg" />
		<tag k="place" v="farm" />
		<tag k="ssr:stedsnr" v="945671" />
	</node>
	<node id="-567204" lat="62.4817861105" lon="6.79274721398">
		<tag k="name" v="Strandabøen" />
		<tag k="place" v="farm" />
		<tag k="ssr:stedsnr" v="945608" />
	</node>
	<node id="-567203" lat="62.4898555558" lon="6.88775554848">
		<tag k="name" v="Høgsætra" />
		<tag k="place" v="locality" />
		<tag k="ssr:stedsnr" v="945600" />
	</node>
	<node id="-567201" lat="62.4774583354" lon="6.86646111347">
		<tag k="name" v="Giskemosaga" />
		<tag k="place" v="locality" />
		<tag k="ssr:stedsnr" v="945595" />
	</node>
	<node id="-566685" lat="62.5006010245" lon="6.81461889771">
		<tag k="name" v="Braute" />
		<tag k="place" v="farm" />
		<tag k="ssr:stedsnr" v="25959" />
	</node>
	<node id="-566681" lat="62.44661752" lon="6.90204679108">
		<tag k="fixme" v="consider place=hamlet" />
		<tag k="name" v="Viset" />
		<tag k="place" v="farm" />
		<tag k="ssr:stedsnr" v="11367" />
	</node>
	<node id="-566673" lat="62.4816388921" lon="6.82252777232">
		<tag k="name" v="Steinholt" />
		<tag k="place" v="farm" />
		<tag k="ssr:stedsnr" v="885711" />
	</node>
	<node id="-567183" lat="62.5003371128" lon="6.8142151061">
		<tag k="fixme" v="consider place=hamlet" />
		<tag k="name" v="Brautene" />
		<tag k="place" v="farm" />
		<tag k="ssr:stedsnr" v="922838" />
	</node>
	<node id="-567177" lat="62.4614361127" lon="6.97571666818">
		<tag k="name" v="Sollisætra" />
		<tag k="place" v="neighbourhood" />
		<tag k="ssr:stedsnr" v="909728" />
	</node>
	<node id="-567176" lat="62.4811805535" lon="6.81716944421">
		<tag k="name" v="Vollen" />
		<tag k="place" v="farm" />
		<tag k="ssr:stedsnr" v="881309" />
	</node>
	<node id="-567174" lat="62.5181083325" lon="6.91620277429">
		<tag k="historic" v="shieling" />
		<tag k="name" v="Nysætra" />
		<tag k="place" v="locality" />
		<tag k="ssr:stedsnr" v="861867" />
	</node>
	<node id="-567173" lat="62.5058957647" lon="6.94288908359">
		<tag k="alt_name" v="Kvandalen" />
		<tag k="historic" v="shieling" />
		<tag k="name" v="Kvanndalssætra" />
		<tag k="place" v="locality" />
		<tag k="ssr:stedsnr" v="861864" />
	</node>
	<node id="-567166" lat="62.4683833306" lon="6.92298888559">
		<tag k="historic" v="shieling" />
		<tag k="name" v="Vestresætra" />
		<tag k="place" v="locality" />
		<tag k="ssr:stedsnr" v="860407" />
	</node>
	<node id="-567161" lat="62.464847118" lon="6.81776027093">
		<tag k="fixme" v="consider place=hamlet" />
		<tag k="name" v="Liset" />
		<tag k="place" v="farm" />
		<tag k="ssr:stedsnr" v="824732" />
	</node>
	<node id="-567160" lat="62.4857166692" lon="6.81245834092">
		<tag k="name" v="Høgbakken" />
		<tag k="place" v="farm" />
		<tag k="ssr:stedsnr" v="824724" />
	</node>
	<node id="-567159" lat="62.4838419732" lon="6.85111009793">
		<tag k="alt_name" v="Lande" />
		<tag k="fixme" v="consider place=hamlet" />
		<tag k="name" v="Øvre Lande" />
		<tag k="place" v="farm" />
		<tag k="ssr:stedsnr" v="824723" />
	</node>
	<node id="-567158" lat="62.4846222251" lon="6.84011111539">
		<tag k="name" v="Hansbakken" />
		<tag k="place" v="farm" />
		<tag k="ssr:stedsnr" v="824719" />
	</node>
	<node id="-567157" lat="62.4765416641" lon="6.71750832576">
		<tag k="name" v="Tyssagjerdet" />
		<tag k="place" v="farm" />
		<tag k="ssr:stedsnr" v="824700" />
	</node>
	<node id="-567156" lat="62.4779748854" lon="6.74293826731">
		<tag k="name" v="Gaupefloget" />
		<tag k="place" v="farm" />
		<tag k="ssr:stedsnr" v="824696" />
	</node>
	<node id="-566643" lat="62.4811333304" lon="6.85110833381">
		<tag k="name" v="Jogarden" />
		<tag k="place" v="farm" />
		<tag k="ssr:stedsnr" v="885514" />
	</node>
	<node id="-567154" lat="62.4660083298" lon="6.81414167228">
		<tag k="name" v="Lisetgjerdet" />
		<tag k="place" v="farm" />
		<tag k="ssr:stedsnr" v="824693" />
	</node>
	<node id="-567147" lat="62.4561166658" lon="6.95637222913">
		<tag k="name" v="Nyløtufta" />
		<tag k="place" v="locality" />
		<tag k="ssr:stedsnr" v="824633" />
	</node>
	<node id="-566634" lat="62.4790777814" lon="6.76783888798">
		<tag k="name" v="Nybø" />
		<tag k="place" v="farm" />
		<tag k="ssr:stedsnr" v="399722" />
	</node>
	<node id="-566633" lat="62.4852166645" lon="6.84868056125">
		<tag k="name" v="Ottaplassen" />
		<tag k="place" v="farm" />
		<tag k="ssr:stedsnr" v="399711" />
	</node>
	<node id="-566632" lat="62.5040638852" lon="6.81986666535">
		<tag k="name" v="Brautehaugen" />
		<tag k="place" v="farm" />
		<tag k="ssr:stedsnr" v="399707" />
	</node>
	<node id="-566631" lat="62.4585305512" lon="6.92883054942">
		<tag k="name" v="Øvrebø" />
		<tag k="place" v="farm" />
		<tag k="ssr:stedsnr" v="399700" />
	</node>
	<node id="-566628" lat="62.4480166669" lon="6.91004723174">
		<tag k="name" v="Øggarden" />
		<tag k="place" v="farm" />
		<tag k="ssr:stedsnr" v="399665" />
	</node>
	<node id="-566625" lat="62.4816166694" lon="6.78982222354">
		<tag k="name" v="Martinusplassen" />
		<tag k="place" v="farm" />
		<tag k="ssr:stedsnr" v="399647" />
	</node>
	<node id="-567132" lat="62.481894445" lon="6.86237221641">
		<tag k="name" v="Bakken" />
		<tag k="place" v="farm" />
		<tag k="ssr:stedsnr" v="824502" />
	</node>
	<node id="-566671" lat="62.4765749964" lon="6.72657777744">
		<tag k="name" v="Nerstranda" />
		<tag k="place" v="isolated_dwelling" />
		<tag k="ssr:stedsnr" v="885691" />
	</node>
	<node id="-567127" lat="62.5087277733" lon="6.84419165743">
		<tag k="historic" v="shieling" />
		<tag k="name" v="Sjøholtsætra" />
		<tag k="place" v="locality" />
		<tag k="ssr:stedsnr" v="801834" />
	</node>
	<node id="-566612" lat="62.4854333304" lon="6.814875008">
		<tag k="name" v="Skjerva" />
		<tag k="place" v="farm" />
		<tag k="ssr:stedsnr" v="399541" />
	</node>
	<node id="-567123" lat="62.4515792855" lon="6.90496454053">
		<tag k="fixme" v="consider place=hamlet" />
		<tag k="name" v="Hjelle" />
		<tag k="place" v="farm" />
		<tag k="ssr:stedsnr" v="800349" />
	</node>
	<node id="-567121" lat="62.465628211" lon="6.86846566726">
		<tag k="fixme" v="consider place=hamlet" />
		<tag k="name" v="Jarskar" />
		<tag k="place" v="farm" />
		<tag k="ssr:stedsnr" v="800326" />
	</node>
	<node id="-567119" lat="62.4873967323" lon="6.84792432492">
		<tag k="fixme" v="consider place=hamlet" />
		<tag k="name" v="Bårdsgjerdet" />
		<tag k="place" v="farm" />
		<tag k="ssr:stedsnr" v="800296" />
	</node>
	<node id="-567117" lat="62.476068443" lon="6.71757091805">
		<tag k="loc_name" v="Tyssagardane" />
		<tag k="name" v="Tyssegardane" />
		<tag k="place" v="hamlet" />
		<tag k="ssr:stedsnr" v="800030" />
	</node>
	<node id="-566604" lat="62.4805472257" lon="6.74474722918">
		<tag k="alt_name" v="Kleiven" />
		<tag k="name" v="Kleivane" />
		<tag k="place" v="farm" />
		<tag k="ssr:stedsnr" v="375265" />
	</node>
	<node id="-567115" lat="62.4767681334" lon="6.85120329019">
		<tag k="fixme" v="consider place=hamlet" />
		<tag k="name" v="Giskemo" />
		<tag k="place" v="farm" />
		<tag k="ssr:stedsnr" v="799337" />
	</node>
	<node id="-566599" lat="62.5002444413" lon="6.81136666018">
		<tag k="name" v="Braute" />
		<tag k="place" v="farm" />
		<tag k="ssr:stedsnr" v="363553" />
	</node>
	<node id="-566598" lat="62.4769789681" lon="6.76327941087">
		<tag k="fixme" v="consider place=hamlet" />
		<tag k="name" v="Apalset" />
		<tag k="place" v="farm" />
		<tag k="ssr:stedsnr" v="362660" />
	</node>
	<node id="-567109" lat="62.4785916645" lon="6.7616138871">
		<tag k="name" v="Bøen" />
		<tag k="place" v="farm" />
		<tag k="ssr:stedsnr" v="763693" />
	</node>
	<node id="-566595" lat="62.4549333363" lon="6.91955555424">
		<tag k="name" v="Gjerdet" />
		<tag k="place" v="farm" />
		<tag k="ssr:stedsnr" v="338688" />
	</node>
	<node id="-566592" lat="62.4798027744" lon="6.74307500873">
		<tag k="name" v="Talleberg" />
		<tag k="place" v="farm" />
		<tag k="ssr:stedsnr" v="338669" />
	</node>
	<node id="-567091" lat="62.4866194426" lon="6.83221111113">
		<tag k="name" v="Karihola" />
		<tag k="place" v="farm" />
		<tag k="ssr:stedsnr" v="763542" />
	</node>
	<node id="-567082" lat="62.4461533416" lon="6.96687572208">
		<tag k="historic" v="shieling" />
		<tag k="name" v="Visetsætra" />
		<tag k="place" v="locality" />
		<tag k="ssr:stedsnr" v="739352" />
	</node>
	<node id="-566568" lat="62.4795305528" lon="6.83855555344">
		<tag k="alt_name" v="Haukås" />
		<tag k="fixme" v="consider place=hamlet" />
		<tag k="name" v="Haukåsen" />
		<tag k="place" v="farm" />
		<tag k="ssr:stedsnr" v="338433" />
	</node>
	<node id="-567079" lat="62.4629750034" lon="6.81170833331">
		<tag k="name" v="Lisetvik" />
		<tag k="place" v="farm" />
		<tag k="ssr:stedsnr" v="739321" />
	</node>
	<node id="-567075" lat="62.4788583293" lon="6.83128887965">
		<tag k="name" v="Tuene" />
		<tag k="place" v="farm" />
		<tag k="ssr:stedsnr" v="738327" />
	</node>
	<node id="-567074" lat="62.4769027777" lon="6.74843888185">
		<tag k="name" v="Hammaren" />
		<tag k="place" v="farm" />
		<tag k="ssr:stedsnr" v="703977" />
	</node>
	<node id="-566561" lat="62.4473861119" lon="7.02043332818">
		<tag k="historic" v="shieling" />
		<tag k="name" v="Grytalisætra" />
		<tag k="place" v="locality" />
		<tag k="ssr:stedsnr" v="314411" />
	</node>
	<node id="-566560" lat="62.4442453417" lon="6.99030948928">
		<tag k="historic" v="shieling" />
		<tag k="name" v="Hjellesætra" />
		<tag k="place" v="locality" />
		<tag k="ssr:stedsnr" v="314399" />
	</node>
	<node id="-566559" lat="62.460857808" lon="6.83399230743">
		<tag k="fixme" v="consider place=hamlet" />
		<tag k="name" v="Amdam" />
		<tag k="place" v="farm" />
		<tag k="ssr:stedsnr" v="314381" />
	</node>
	<node id="-566558" lat="62.4729752805" lon="6.83848095603">
		<tag k="fixme" v="consider place=hamlet" />
		<tag k="name" v="Vallbøen" />
		<tag k="place" v="farm" />
		<tag k="ssr:stedsnr" v="314363" />
	</node>
	<node id="-566557" lat="62.4826611097" lon="6.8536055584">
		<tag k="name" v="Lande" />
		<tag k="place" v="hamlet" />
		<tag k="ssr:stedsnr" v="314348" />
	</node>
	<node id="-566556" lat="62.4750694406" lon="6.8152666574">
		<tag k="name" v="Kråna" />
		<tag k="place" v="farm" />
		<tag k="ssr:stedsnr" v="314346" />
	</node>
	<node id="-566555" lat="62.4817959541" lon="6.7820628706">
		<tag k="name" v="Steinane" />
		<tag k="place" v="farm" />
		<tag k="ssr:stedsnr" v="314326" />
	</node>
	<node id="-566554" lat="62.4468972186" lon="7.01944166958">
		<tag k="name" v="Grytalisætra" />
		<tag k="place" v="neighbourhood" />
		<tag k="ssr:stedsnr" v="302726" />
	</node>
	<node id="-566551" lat="62.4582688814" lon="6.87709271071">
		<tag k="fixme" v="consider place=hamlet" />
		<tag k="name" v="Vestre" />
		<tag k="place" v="farm" />
		<tag k="ssr:stedsnr" v="278755" />
	</node>
	<node id="-566550" lat="62.4993638913" lon="6.80505833758">
		<tag k="name" v="Holen" />
		<tag k="place" v="farm" />
		<tag k="ssr:stedsnr" v="278751" />
	</node>
	<node id="-566549" lat="62.4855222246" lon="6.821927778">
		<tag k="name" v="Einagarden" />
		<tag k="place" v="farm" />
		<tag k="ssr:stedsnr" v="278749" />
	</node>
	<node id="-566544" lat="62.4782805547" lon="6.7520194477">
		<tag k="name" v="Hollen" />
		<tag k="place" v="farm" />
		<tag k="ssr:stedsnr" v="278691" />
	</node>
	<node id="-566537" lat="62.4810416634" lon="6.8307444467">
		<tag k="name" v="Myrane" />
		<tag k="place" v="farm" />
		<tag k="ssr:stedsnr" v="278650" />
	</node>
	<node id="-567043" lat="62.4523154842" lon="6.89366659241">
		<tag k="fixme" v="consider place=hamlet" />
		<tag k="name" v="Vaksvik" />
		<tag k="place" v="farm" />
		<tag k="ssr:stedsnr" v="693098" />
	</node>
	<node id="-567042" lat="62.5179916688" lon="6.82960555817">
		<tag k="alt_name" v="Lisætra" />
		<tag k="historic" v="shieling" />
		<tag k="name" v="Liasætra" />
		<tag k="place" v="locality" />
		<tag k="ssr:stedsnr" v="679863" />
	</node>
	<node id="-567035" lat="62.4720055566" lon="7.03025277213">
		<tag k="name" v="Åsrøra" />
		<tag k="place" v="neighbourhood" />
		<tag k="ssr:stedsnr" v="666717" />
	</node>
	<node id="-567034" lat="62.5185333326" lon="6.91518333537">
		<tag k="name" v="Nysætra" />
		<tag k="place" v="neighbourhood" />
		<tag k="ssr:stedsnr" v="666701" />
	</node>
	<node id="-566521" lat="62.4985500036" lon="6.87923054967">
		<tag k="name" v="Gamlesætra" />
		<tag k="place" v="locality" />
		<tag k="ssr:stedsnr" v="278593" />
	</node>
	<node id="-566654" lat="62.527691666" lon="6.88207777746">
		<tag k="leisure" v="pitch" />
		<tag k="name" v="Løklibakken" />
		<tag k="ssr:stedsnr" v="885575" />
	</node>
	<node id="-567025" lat="62.4737777742" lon="6.81212500675">
		<tag k="name" v="Ryssebøen" />
		<tag k="place" v="farm" />
		<tag k="ssr:stedsnr" v="641694" />
	</node>
	<node id="-567024" lat="62.478022218" lon="6.81805832842">
		<tag k="name" v="Ørskog prestegard" />
		<tag k="place" v="farm" />
		<tag k="ssr:stedsnr" v="641691" />
	</node>
	<node id="-567022" lat="62.4814000041" lon="6.77733054798">
		<tag k="name" v="Løhaugen" />
		<tag k="place" v="farm" />
		<tag k="ssr:stedsnr" v="641667" />
	</node>
	<node id="-567004" lat="62.4871361114" lon="6.82967778585">
		<tag k="name" v="Berget" />
		<tag k="place" v="farm" />
		<tag k="ssr:stedsnr" v="641462" />
	</node>
	<node id="-567001" lat="62.4585081925" lon="6.91334322608">
		<tag k="fixme" v="consider place=hamlet" />
		<tag k="name" v="Øvre Sollia" />
		<tag k="place" v="farm" />
		<tag k="ssr:stedsnr" v="631930" />
	</node>
	<node id="-566995" lat="62.456384632" lon="6.92384775147">
		<tag k="fixme" v="consider place=hamlet" />
		<tag k="name" v="Hatlen" />
		<tag k="place" v="farm" />
		<tag k="ssr:stedsnr" v="617368" />
	</node>
	<node id="-566992" lat="62.4774111097" lon="6.76237221427">
		<tag k="name" v="Apalset" />
		<tag k="place" v="farm" />
		<tag k="ssr:stedsnr" v="617341" />
	</node>
	<node id="-566991" lat="62.4985685427" lon="6.79772017708">
		<tag k="fixme" v="consider place=hamlet" />
		<tag k="name" v="Solnørdalen" />
		<tag k="place" v="farm" />
		<tag k="ssr:stedsnr" v="617323" />
	</node>
	<node id="-566984" lat="62.4801249984" lon="6.78621944238">
		<tag k="name" v="Stillingshaugen" />
		<tag k="place" v="isolated_dwelling" />
		<tag k="ssr:stedsnr" v="581674" />
	</node>
	<node id="-566970" lat="62.4882694401" lon="6.82243333659">
		<tag k="name" v="Årheim" />
		<tag k="place" v="farm" />
		<tag k="ssr:stedsnr" v="581589" />
	</node>
	<node id="-566967" lat="62.4568305596" lon="6.92862221584">
		<tag k="name" v="Bøen" />
		<tag k="place" v="farm" />
		<tag k="ssr:stedsnr" v="581561" />
	</node>
	<node id="-566962" lat="62.4820003302" lon="6.84781436071">
		<tag k="fixme" v="consider place=hamlet" />
		<tag k="name" v="Nedre Lande" />
		<tag k="place" v="farm" />
		<tag k="ssr:stedsnr" v="581543" />
	</node>
	<node id="-566952" lat="62.4564157722" lon="6.94548746614">
		<tag k="fixme" v="consider place=hamlet" />
		<tag k="name" v="Sæter" />
		<tag k="place" v="farm" />
		<tag k="ssr:stedsnr" v="556413" />
	</node>
	<node id="-566951" lat="62.4631871701" lon="6.85656041042">
		<tag k="alt_name" v="Skardbø" />
		<tag k="fixme" v="consider place=hamlet" />
		<tag k="name" v="Skarbøen" />
		<tag k="place" v="farm" />
		<tag k="ssr:stedsnr" v="556399" />
	</node>
	<node id="-566949" lat="62.4811361133" lon="6.89025555026">
		<tag k="historic" v="shieling" />
		<tag k="name" v="Amdamssætra" />
		<tag k="place" v="locality" />
		<tag k="ssr:stedsnr" v="556382" />
	</node>
	<node id="-566948" lat="62.4826521058" lon="6.80272144801">
		<tag k="fixme" v="consider place=hamlet" />
		<tag k="name" v="Sjøholtstranda" />
		<tag k="place" v="farm" />
		<tag k="ssr:stedsnr" v="556357" />
	</node>
	<node id="-566947" lat="62.4867934615" lon="6.80826268146">
		<tag k="fixme" v="consider place=hamlet" />
		<tag k="name" v="Li" />
		<tag k="place" v="farm" />
		<tag k="ssr:stedsnr" v="556355" />
	</node>
	<node id="-566943" lat="62.4549416698" lon="6.90057499184">
		<tag k="name" v="Bakkane" />
		<tag k="place" v="farm" />
		<tag k="ssr:stedsnr" v="520671" />
	</node>
	<node id="-566923" lat="62.4685444415" lon="6.8317805624">
		<tag k="alt_name" v="Nedre Vold" />
		<tag k="name" v="Nedrevoll" />
		<tag k="place" v="farm" />
		<tag k="ssr:stedsnr" v="520469" />
	</node>
	<node id="-566922" lat="62.4619444479" lon="6.84273610838">
		<tag k="name" v="Gjerda" />
		<tag k="place" v="farm" />
		<tag k="ssr:stedsnr" v="520466" />
	</node>
	<node id="-566920" lat="62.4573999983" lon="6.91093333481">
		<tag k="name" v="Sollia" />
		<tag k="place" v="hamlet" />
		<tag k="ssr:stedsnr" v="510920" />
	</node>
	<node id="-566918" lat="62.4769334784" lon="6.70855862724">
		<tag k="fixme" v="consider place=hamlet" />
		<tag k="name" v="Tyssa" />
		<tag k="place" v="farm" />
		<tag k="ssr:stedsnr" v="508764" />
	</node>
	<node id="-566915" lat="62.4535440238" lon="6.90266407397">
		<tag k="alt_name" v="Reite" />
		<tag k="fixme" v="consider place=hamlet" />
		<tag k="name" v="Reitane" />
		<tag k="place" v="farm" />
		<tag k="ssr:stedsnr" v="496381" />
	</node>
	<node id="-566635" lat="62.4681250043" lon="6.82763610199">
		<tag k="name" v="Smebakken" />
		<tag k="place" v="farm" />
		<tag k="ssr:stedsnr" v="399723" />
	</node>
	<node id="-566912" lat="62.4776685914" lon="6.8906427013">
		<tag k="historic" v="shieling" />
		<tag k="name" v="Lisetsætra" />
		<tag k="place" v="locality" />
		<tag k="ssr:stedsnr" v="496334" />
	</node>
	<node id="-566909" lat="62.4441777748" lon="6.9917305585">
		<tag k="name" v="Hjellesætra" />
		<tag k="place" v="neighbourhood" />
		<tag k="ssr:stedsnr" v="484723" />
	</node>
	<node id="-566908" lat="62.5321602334" lon="6.87688886656">
		<tag k="name" v="Svartløken" />
		<tag k="place" v="neighbourhood" />
		<tag k="ssr:stedsnr" v="484718" />
	</node>
	<node id="-566907" lat="62.5162777772" lon="6.93506389023">
		<tag k="name" v="Haugsætra" />
		<tag k="place" v="neighbourhood" />
		<tag k="ssr:stedsnr" v="484709" />
	</node>
	<node id="-566903" lat="62.500272224" lon="6.81866665899">
		<tag k="name" v="Geilhaugen" />
		<tag k="place" v="farm" />
		<tag k="ssr:stedsnr" v="460745" />
	</node>
	<node id="-566902" lat="62.4858083376" lon="6.83508055371">
		<tag k="name" v="Nakkane" />
		<tag k="place" v="farm" />
		<tag k="ssr:stedsnr" v="460743" />
	</node>
	<node id="-566901" lat="62.4655972265" lon="6.98213611475">
		<tag k="historic" v="shieling" />
		<tag k="name" v="Grønlistølen" />
		<tag k="place" v="locality" />
		<tag k="ssr:stedsnr" v="460740" />
	</node>
	<node id="-566896" lat="62.4785111118" lon="6.93664166131">
		<tag k="historic" v="shieling" />
		<tag k="name" v="Skarbøsæterstølen" />
		<tag k="place" v="locality" />
		<tag k="ssr:stedsnr" v="460692" />
	</node>
	<node id="-566888" lat="62.4867638895" lon="6.82800555745">
		<tag k="name" v="Hjellane" />
		<tag k="place" v="farm" />
		<tag k="ssr:stedsnr" v="460663" />
	</node>
	<node id="-566869" lat="62.5166694485" lon="6.93487777348">
		<tag k="alt_name" v="Byrkjelihaugsetra" />
		<tag k="historic" v="shieling" />
		<tag k="name" v="Haugsætra" />
		<tag k="place" v="locality" />
		<tag k="ssr:stedsnr" v="436850" />
	</node>
	<node id="-566866" lat="62.452272967" lon="6.91245959305">
		<tag k="fixme" v="consider place=hamlet" />
		<tag k="name" v="Hjellereiten" />
		<tag k="place" v="farm" />
		<tag k="ssr:stedsnr" v="436338" />
	</node>
	<node id="-566865" lat="62.4613749975" lon="6.87313055375">
		<tag k="name" v="Vestre" />
		<tag k="place" v="hamlet" />
		<tag k="ssr:stedsnr" v="436325" />
	</node>
	<node id="-566712" lat="62.4791457364" lon="6.86255563531">
		<tag k="fixme" v="consider place=hamlet" />
		<tag k="name" v="Valgermo" />
		<tag k="place" v="farm" />
		<tag k="ssr:stedsnr" v="71353" />
	</node>
	<node id="-566861" lat="62.4902689288" lon="6.82611275452">
		<tag k="fixme" v="consider place=hamlet" />
		<tag k="name" v="Egge" />
		<tag k="place" v="farm" />
		<tag k="ssr:stedsnr" v="436271" />
	</node>
	<node id="-566860" lat="62.4364868035" lon="6.91372871424">
		<tag k="name" v="Bjørkeneset" />
		<tag k="place" v="locality" />
		<tag k="ssr:stedsnr" v="435710" />
	</node>
	<node id="-566858" lat="62.4674641216" lon="6.82703776428">
		<tag k="fixme" v="consider place=hamlet" />
		<tag k="name" v="Nedrevoll" />
		<tag k="place" v="farm" />
		<tag k="ssr:stedsnr" v="435374" />
	</node>
	<node id="-566857" lat="62.4680444409" lon="6.92491388397">
		<tag k="name" v="Vestresætra" />
		<tag k="place" v="neighbourhood" />
		<tag k="ssr:stedsnr" v="424713" />
	</node>
	<node id="-566856" lat="62.5110453088" lon="6.81899523594">
		<tag k="fixme" v="consider place=hamlet" />
		<tag k="name" v="Akslevollen" />
		<tag k="place" v="farm" />
		<tag k="ssr:stedsnr" v="254866" />
	</node>
	<node id="-566852" lat="62.4796499974" lon="6.93631110493">
		<tag k="name" v="Skarbøsætra" />
		<tag k="place" v="locality" />
		<tag k="ssr:stedsnr" v="253378" />
	</node>
	<node id="-566851" lat="62.4770777765" lon="6.90041944128">
		<tag k="alt_name" v="Lisetsætra, gamle" />
		<tag k="historic" v="shieling" />
		<tag k="name" v="Gamle Lisetsætra" />
		<tag k="place" v="locality" />
		<tag k="ssr:stedsnr" v="253377" />
	</node>
	<node id="-566849" lat="62.4841134118" lon="6.8607317236">
		<tag k="fixme" v="consider place=hamlet" />
		<tag k="name" v="Gjerde" />
		<tag k="place" v="farm" />
		<tag k="ssr:stedsnr" v="253346" />
	</node>
	<node id="-566845" lat="62.5173666644" lon="6.83255278213">
		<tag k="name" v="Liasætra" />
		<tag k="place" v="neighbourhood" />
		<tag k="ssr:stedsnr" v="242695" />
	</node>
	<node id="-566844" lat="62.4605999979" lon="6.8990166667">
		<tag k="name" v="Hatlebakken" />
		<tag k="place" v="farm" />
		<tag k="ssr:stedsnr" v="217705" />
	</node>
	<node id="-566843" lat="62.4605833294" lon="6.90301110302">
		<tag k="name" v="Massplassen" />
		<tag k="place" v="farm" />
		<tag k="ssr:stedsnr" v="217706" />
	</node>
	<node id="-566842" lat="62.4557361144" lon="6.91193889055">
		<tag k="name" v="Lysholen" />
		<tag k="place" v="farm" />
		<tag k="ssr:stedsnr" v="217703" />
	</node>
	<node id="-566841" lat="62.4903861075" lon="6.82962499901">
		<tag k="name" v="Eggehjellen" />
		<tag k="place" v="farm" />
		<tag k="ssr:stedsnr" v="217697" />
	</node>
	<node id="-566838" lat="62.4779277771" lon="6.74970834238">
		<tag k="name" v="Apalsethaugen" />
		<tag k="place" v="farm" />
		<tag k="ssr:stedsnr" v="217672" />
	</node>
	<node id="-566829" lat="62.494697225" lon="6.88100833221">
		<tag k="name" v="Gamlesætra" />
		<tag k="place" v="locality" />
		<tag k="ssr:stedsnr" v="217564" />
	</node>
	<node id="-566705" lat="62.4798083317" lon="6.76886666711">
		<tag k="name" v="Hølhaugen" />
		<tag k="place" v="farm" />
		<tag k="ssr:stedsnr" v="35717" />
	</node>
	<node id="-566812" lat="62.484122218" lon="6.86335832908">
		<tag k="name" v="Gjerde" />
		<tag k="place" v="farm" />
		<tag k="ssr:stedsnr" v="207893" />
	</node>
	<node id="-566811" lat="62.5042009937" lon="6.81154802773">
		<tag k="fixme" v="consider place=hamlet" />
		<tag k="name" v="Barlindhaugen" />
		<tag k="place" v="farm" />
		<tag k="ssr:stedsnr" v="194843" />
	</node>
	<node id="-566810" lat="62.5326451452" lon="6.87372612439">
		<tag k="historic" v="shieling" />
		<tag k="name" v="Svartløken" />
		<tag k="place" v="locality" />
		<tag k="ssr:stedsnr" v="193838" />
	</node>
	<node id="-566807" lat="62.4480209188" lon="6.92876410324">
		<tag k="fixme" v="consider place=hamlet" />
		<tag k="name" v="Hallvardsætra" />
		<tag k="place" v="farm" />
		<tag k="ssr:stedsnr" v="193383" />
	</node>
	<node id="-566804" lat="62.4622509796" lon="6.78611392797">
		<tag k="fixme" v="consider place=hamlet" />
		<tag k="name" v="Gausneset" />
		<tag k="place" v="farm" />
		<tag k="ssr:stedsnr" v="193352" />
	</node>
	<node id="-566798" lat="62.4826277797" lon="6.81376388036">
		<tag k="name" v="Sjøholt" />
		<tag k="place" v="village" />
		<tag k="ssr:stedsnr" v="192341" />
	</node>
	<node id="-566797" lat="62.4804030272" lon="6.77228676089">
		<tag k="fixme" v="consider place=hamlet" />
		<tag k="name" v="Storvik" />
		<tag k="place" v="farm" />
		<tag k="ssr:stedsnr" v="192339" />
	</node>
	<node id="-566796" lat="62.5061666688" lon="6.94232777383">
		<tag k="name" v="Kvanndalssætra" />
		<tag k="place" v="neighbourhood" />
		<tag k="ssr:stedsnr" v="181738" />
	</node>
	<node id="-566792" lat="62.48232778" lon="6.85713333883">
		<tag k="name" v="Bøen" />
		<tag k="place" v="farm" />
		<tag k="ssr:stedsnr" v="156702" />
	</node>
</osm>
