<?xml version="1.0" encoding="UTF-8"?>
<osm generator="osmapis" version="0.6">
	<node id="-568081" lat="62.5055177481" lon="6.99157193385">
		<tag k="name" v="Steingardsheia" />
		<tag k="natural" v="hill" />
		<tag k="place" v="locality" />
		<tag k="ssr:stedsnr" v="972732" />
	</node>
	<node id="-568080" lat="62.4770944463" lon="6.90265000431">
		<tag k="name" v="Gamle Lisetsætra" />
		<tag k="place" v="neighbourhood" />
		<tag k="ssr:stedsnr" v="970361" />
	</node>
	<node id="-568078" lat="62.5177750017" lon="6.91786111341">
		<tag k="name" v="Nysæterbakkane" />
		<tag k="place" v="neighbourhood" />
		<tag k="ssr:stedsnr" v="970353" />
	</node>
	<node id="-568077" lat="62.5080555594" lon="6.84307777117">
		<tag k="name" v="Sjøholtsætra" />
		<tag k="place" v="neighbourhood" />
		<tag k="ssr:stedsnr" v="970342" />
	</node>
	<node id="-568076" lat="62.4850666686" lon="6.82684166609">
		<tag k="name" v="Pe-Larselva" />
		<tag k="ssr:stedsnr" v="952783" />
		<tag k="waterway" v="stream" />
	</node>
	<node id="-568075" lat="62.4598900603" lon="6.79904144015">
		<tag k="fixme" v="consider place=hamlet" />
		<tag k="name" v="Lisetvik" />
		<tag k="old_name" v="Lindsætvik" />
		<tag k="place" v="farm" />
		<tag k="ssr:stedsnr" v="950275" />
	</node>
	<node id="-568074" lat="62.5282000014" lon="6.87481111054">
		<tag k="name" v="Løklia" />
		<tag k="natural" v="slope" />
		<tag k="place" v="locality" />
		<tag k="ssr:stedsnr" v="946549" />
	</node>
	<node id="-568073" lat="62.4577499967" lon="6.92551943658">
		<tag k="name" v="Birkelund" />
		<tag k="place" v="farm" />
		<tag k="ssr:stedsnr" v="946490" />
	</node>
	<node id="-568072" lat="62.4548972249" lon="6.91917778621">
		<tag k="name" v="Gjerdet" />
		<tag k="place" v="farm" />
		<tag k="ssr:stedsnr" v="946481" />
	</node>
	<node id="-568071" lat="62.4765305565" lon="6.72071389457">
		<tag k="name" v="Sjølyst" />
		<tag k="place" v="isolated_dwelling" />
		<tag k="ssr:stedsnr" v="945988" />
	</node>
	<node id="-568070" lat="62.4761055575" lon="6.68899721882">
		<tag k="name" v="Tenneskjeret" />
		<tag k="place" v="islet" />
		<tag k="ssr:stedsnr" v="945987" />
	</node>
	<node id="-568069" lat="62.4619583334" lon="6.77979722292">
		<tag k="name" v="Menakken" />
		<tag k="natural" v="ridge" />
		<tag k="place" v="locality" />
		<tag k="ssr:stedsnr" v="945980" />
	</node>
	<node id="-568068" lat="62.5023194437" lon="6.80748333618">
		<tag k="name" v="Barlindbøen" />
		<tag k="place" v="farm" />
		<tag k="ssr:stedsnr" v="945682" />
	</node>
	<node id="-568067" lat="62.479424998" lon="6.76232221761">
		<tag k="name" v="Dyrberg" />
		<tag k="place" v="farm" />
		<tag k="ssr:stedsnr" v="945671" />
	</node>
	<node id="-568066" lat="62.4591722261" lon="6.8794361143">
		<tag k="name" v="Løbakken" />
		<tag k="natural" v="slope" />
		<tag k="place" v="locality" />
		<tag k="ssr:stedsnr" v="945665" />
	</node>
	<node id="-568065" lat="62.4605972183" lon="6.77257777994">
		<tag k="name" v="Klubben" />
		<tag k="natural" v="cape" />
		<tag k="ssr:stedsnr" v="945648" />
	</node>
	<node id="-568064" lat="62.4699999979" lon="6.7973972134">
		<tag k="name" v="Hestevika" />
		<tag k="natural" v="bay" />
		<tag k="ssr:stedsnr" v="945636" />
	</node>
	<node id="-568063" lat="62.4789361109" lon="6.80945278044">
		<tag k="name" v="Osberget" />
		<tag k="natural" v="hill" />
		<tag k="place" v="locality" />
		<tag k="ssr:stedsnr" v="945623" />
	</node>
	<node id="-568062" lat="62.5036972186" lon="6.78436388813">
		<tag k="name" v="Huldrehaugen" />
		<tag k="natural" v="hill" />
		<tag k="place" v="locality" />
		<tag k="ssr:stedsnr" v="945618" />
	</node>
	<node id="-568061" lat="62.4954944432" lon="6.88415833466">
		<tag k="name" v="Giskemodalen" />
		<tag k="natural" v="valley" />
		<tag k="place" v="locality" />
		<tag k="ssr:stedsnr" v="945615" />
	</node>
	<node id="-568060" lat="62.4817861105" lon="6.79274721398">
		<tag k="name" v="Strandabøen" />
		<tag k="place" v="farm" />
		<tag k="ssr:stedsnr" v="945608" />
	</node>
	<node id="-568059" lat="62.4898555558" lon="6.88775554848">
		<tag k="name" v="Høgsætra" />
		<tag k="place" v="locality" />
		<tag k="ssr:stedsnr" v="945600" />
	</node>
	<node id="-568058" lat="62.4937666695" lon="6.82313055204">
		<tag k="name" v="Løkjingsmyrbotnen" />
		<tag k="natural" v="valley" />
		<tag k="place" v="locality" />
		<tag k="ssr:stedsnr" v="945597" />
	</node>
	<node id="-568057" lat="62.4774583354" lon="6.86646111347">
		<tag k="name" v="Giskemosaga" />
		<tag k="place" v="locality" />
		<tag k="ssr:stedsnr" v="945595" />
	</node>
	<node id="-568056" lat="62.5024527745" lon="6.87621943499">
		<tag k="name" v="Storskaret" />
		<tag k="natural" v="valley" />
		<tag k="place" v="locality" />
		<tag k="ssr:stedsnr" v="945569" />
	</node>
	<node id="-568055" lat="62.4911805569" lon="6.81153334076">
		<tag k="name" v="Kvilshaugen" />
		<tag k="natural" v="hill" />
		<tag k="place" v="locality" />
		<tag k="ssr:stedsnr" v="945555" />
	</node>
	<node id="-568054" lat="62.4964361069" lon="6.81115277635">
		<tag k="name" v="Fjellsenden" />
		<tag k="place" v="locality" />
		<tag k="ssr:stedsnr" v="945554" />
	</node>
	<node id="-568053" lat="62.4930666665" lon="6.98231111375">
		<tag k="name" v="Osen" />
		<tag k="natural" v="bay" />
		<tag k="ssr:stedsnr" v="945550" />
	</node>
	<node id="-568052" lat="62.4835305572" lon="6.9588277771">
		<tag k="name" v="Risbakkane" />
		<tag k="natural" v="slope" />
		<tag k="place" v="locality" />
		<tag k="ssr:stedsnr" v="945547" />
	</node>
	<node id="-568051" lat="62.4843666711" lon="6.81322222587">
		<tag k="name" v="Åvollen" />
		<tag k="place" v="locality" />
		<tag k="ssr:stedsnr" v="945536" />
	</node>
	<node id="-568050" lat="62.4847388855" lon="6.80499999526">
		<tag k="name" v="Honnelbakken" />
		<tag k="natural" v="slope" />
		<tag k="place" v="locality" />
		<tag k="ssr:stedsnr" v="945534" />
	</node>
	<node id="-568049" lat="62.4597361131" lon="6.96266110835">
		<tag k="name" v="Småslætta" />
		<tag k="natural" v="slope" />
		<tag k="place" v="locality" />
		<tag k="ssr:stedsnr" v="945505" />
	</node>
	<node id="-568048" lat="62.4754111076" lon="6.92086666811">
		<tag k="name" v="Storløslætta" />
		<tag k="natural" v="slope" />
		<tag k="place" v="locality" />
		<tag k="ssr:stedsnr" v="945494" />
	</node>
	<node id="-568047" lat="62.4493555562" lon="6.91961111119">
		<tag k="name" v="Breiskaret" />
		<tag k="natural" v="valley" />
		<tag k="place" v="locality" />
		<tag k="ssr:stedsnr" v="945481" />
	</node>
	<node id="-568046" lat="62.4573361108" lon="6.96639443692">
		<tag k="name" v="Hjellhaugen" />
		<tag k="natural" v="hill" />
		<tag k="place" v="locality" />
		<tag k="ssr:stedsnr" v="945479" />
	</node>
	<node id="-568045" lat="62.5140999989" lon="6.90574166976">
		<tag k="name" v="Nysæterbakkane" />
		<tag k="natural" v="slope" />
		<tag k="place" v="locality" />
		<tag k="ssr:stedsnr" v="945453" />
	</node>
	<node id="-568044" lat="62.4907166653" lon="6.80839166288">
		<tag k="name" v="Småløene" />
		<tag k="place" v="locality" />
		<tag k="ssr:stedsnr" v="945438" />
	</node>
	<node id="-568043" lat="62.4568166648" lon="6.8797583402">
		<tag k="fixme" v="consider natural=peak for the most distinct mountains in the district" />
		<tag k="name" v="Litleåsen" />
		<tag k="natural" v="hill" />
		<tag k="place" v="locality" />
		<tag k="ssr:stedsnr" v="945431" />
	</node>
	<node id="-568042" lat="62.4743083319" lon="6.82481945154">
		<tag k="name" v="Breinakkane" />
		<tag k="natural" v="hill" />
		<tag k="place" v="locality" />
		<tag k="ssr:stedsnr" v="945420" />
	</node>
	<node id="-568041" lat="62.4657361106" lon="6.82740276882">
		<tag k="name" v="Holane" />
		<tag k="place" v="locality" />
		<tag k="ssr:stedsnr" v="945418" />
	</node>
	<node id="-568040" lat="62.4657944455" lon="6.80170833441">
		<tag k="name" v="Nykjen" />
		<tag k="natural" v="ridge" />
		<tag k="place" v="locality" />
		<tag k="ssr:stedsnr" v="945411" />
	</node>
	<node id="-568039" lat="62.5003371128" lon="6.8142151061">
		<tag k="fixme" v="consider place=hamlet" />
		<tag k="name" v="Brautene" />
		<tag k="place" v="farm" />
		<tag k="ssr:stedsnr" v="922838" />
	</node>
	<node id="-568038" lat="62.523875001" lon="6.93630277641">
		<tag k="fixme" v="consider natural=peak for the most distinct mountains in the district" />
		<tag k="name" v="Nysæternakken" />
		<tag k="natural" v="hill" />
		<tag k="place" v="locality" />
		<tag k="ssr:stedsnr" v="922789" />
	</node>
	<node id="-568037" lat="62.4598583333" lon="6.85931389563">
		<tag k="name" v="Vaksvika" />
		<tag k="natural" v="bay" />
		<tag k="ssr:stedsnr" v="921369" />
	</node>
	<node id="-568036" lat="62.4684055538" lon="6.97953055711">
		<tag k="name" v="Midtelva" />
		<tag k="ssr:stedsnr" v="921352" />
		<tag k="waterway" v="stream" />
	</node>
	<node id="-568035" lat="62.4966499999" lon="6.88475276941">
		<tag k="name" v="Ørskogelva" />
		<tag k="ssr:stedsnr" v="921301" />
		<tag k="waterway" v="river" />
	</node>
	<node id="-568034" lat="62.4371499975" lon="6.98022499147">
		<tag k="fixme" v="consider natural=peak for the most distinct mountains in the district" />
		<tag k="name" v="Bolleberget" />
		<tag k="natural" v="hill" />
		<tag k="place" v="locality" />
		<tag k="ssr:stedsnr" v="920688" />
	</node>
	<node id="-568033" lat="62.4614361127" lon="6.97571666818">
		<tag k="name" v="Sollisætra" />
		<tag k="place" v="neighbourhood" />
		<tag k="ssr:stedsnr" v="909728" />
	</node>
	<node id="-568032" lat="62.4811805535" lon="6.81716944421">
		<tag k="name" v="Vollen" />
		<tag k="place" v="farm" />
		<tag k="ssr:stedsnr" v="881309" />
	</node>
	<node id="-568031" lat="62.4806527766" lon="6.8252277692">
		<tag k="bridge" v="yes" />
		<tag k="layer" v="1" />
		<tag k="name" v="Steinholtbrua" />
		<tag k="ssr:stedsnr" v="880225" />
	</node>
	<node id="-568030" lat="62.5181083325" lon="6.91620277429">
		<tag k="historic" v="shieling" />
		<tag k="name" v="Nysætra" />
		<tag k="place" v="locality" />
		<tag k="ssr:stedsnr" v="861867" />
	</node>
	<node id="-568029" lat="62.5058957647" lon="6.94288908359">
		<tag k="alt_name" v="Kvandalen" />
		<tag k="historic" v="shieling" />
		<tag k="name" v="Kvanndalssætra" />
		<tag k="place" v="locality" />
		<tag k="ssr:stedsnr" v="861864" />
	</node>
	<node id="-568028" lat="62.5319638864" lon="6.84871389067">
		<tag k="name" v="Heiane" />
		<tag k="natural" v="hill" />
		<tag k="place" v="locality" />
		<tag k="ssr:stedsnr" v="861842" />
	</node>
	<node id="-568027" lat="62.5322527813" lon="6.93086389651">
		<tag k="name" v="Ørskogfjellet" />
		<tag k="natural" v="mountain_range" />
		<tag k="ssr:stedsnr" v="861827" />
	</node>
	<node id="-568026" lat="62.520613892" lon="6.87638611504">
		<tag k="alt_name" v="Bjønnskaret" />
		<tag k="name" v="Bjørnskaret" />
		<tag k="natural" v="valley" />
		<tag k="place" v="locality" />
		<tag k="ssr:stedsnr" v="861815" />
	</node>
	<node id="-568025" lat="62.4419666654" lon="6.96443611889">
		<tag k="name" v="Visetbotnen" />
		<tag k="natural" v="valley" />
		<tag k="old_name" v="Visetbotn" />
		<tag k="place" v="locality" />
		<tag k="ssr:stedsnr" v="861336" />
	</node>
	<node id="-568024" lat="62.454863888" lon="7.03422778306">
		<tag k="fixme" v="consider natural=peak for the most distinct mountains in the district" />
		<tag k="name" v="Blåfjellet" />
		<tag k="natural" v="hill" />
		<tag k="place" v="locality" />
		<tag k="ssr:stedsnr" v="861323" />
	</node>
	<node id="-568023" lat="62.4635666705" lon="7.00722222037">
		<tag k="alt_name" v="Åsrørene" />
		<tag k="fixme" v="consider natural=peak for the most distinct mountains in the district" />
		<tag k="name" v="Åsrørne" />
		<tag k="natural" v="hill" />
		<tag k="old_name" v="Åsrora" />
		<tag k="place" v="locality" />
		<tag k="ssr:stedsnr" v="860416" />
	</node>
	<node id="-568022" lat="62.4683833306" lon="6.92298888559">
		<tag k="historic" v="shieling" />
		<tag k="name" v="Vestresætra" />
		<tag k="place" v="locality" />
		<tag k="ssr:stedsnr" v="860407" />
	</node>
	<node id="-568021" lat="62.4775972246" lon="6.79616111983">
		<tag k="name" v="Ørskogvika" />
		<tag k="natural" v="bay" />
		<tag k="ssr:stedsnr" v="860378" />
	</node>
	<node id="-568020" lat="62.4854749996" lon="6.76628888244">
		<tag k="fixme" v="consider natural=peak for the most distinct mountains in the district" />
		<tag k="name" v="Liafjellet" />
		<tag k="natural" v="hill" />
		<tag k="place" v="locality" />
		<tag k="ssr:stedsnr" v="860358" />
	</node>
	<node id="-568019" lat="62.4757249975" lon="6.72094721682">
		<tag k="name" v="Tobbeberget" />
		<tag k="natural" v="cape" />
		<tag k="ssr:stedsnr" v="824978" />
	</node>
	<node id="-568018" lat="62.4621749976" lon="6.77680277712">
		<tag k="name" v="Lillelømarka" />
		<tag k="natural" v="slope" />
		<tag k="place" v="locality" />
		<tag k="ssr:stedsnr" v="824970" />
	</node>
	<node id="-568017" lat="62.464847118" lon="6.81776027093">
		<tag k="fixme" v="consider place=hamlet" />
		<tag k="name" v="Liset" />
		<tag k="place" v="farm" />
		<tag k="ssr:stedsnr" v="824732" />
	</node>
	<node id="-568016" lat="62.4857166692" lon="6.81245834092">
		<tag k="name" v="Høgbakken" />
		<tag k="place" v="farm" />
		<tag k="ssr:stedsnr" v="824724" />
	</node>
	<node id="-568015" lat="62.4838419732" lon="6.85111009793">
		<tag k="alt_name" v="Lande" />
		<tag k="fixme" v="consider place=hamlet" />
		<tag k="name" v="Øvre Lande" />
		<tag k="place" v="farm" />
		<tag k="ssr:stedsnr" v="824723" />
	</node>
	<node id="-568014" lat="62.4846222251" lon="6.84011111539">
		<tag k="name" v="Hansbakken" />
		<tag k="place" v="farm" />
		<tag k="ssr:stedsnr" v="824719" />
	</node>
	<node id="-568013" lat="62.4765416641" lon="6.71750832576">
		<tag k="name" v="Tyssagjerdet" />
		<tag k="place" v="farm" />
		<tag k="ssr:stedsnr" v="824700" />
	</node>
	<node id="-568012" lat="62.4779748854" lon="6.74293826731">
		<tag k="name" v="Gaupefloget" />
		<tag k="place" v="farm" />
		<tag k="ssr:stedsnr" v="824696" />
	</node>
	<node id="-568011" lat="62.4609861068" lon="6.877777782">
		<tag k="name" v="Osphammaren" />
		<tag k="natural" v="hill" />
		<tag k="place" v="locality" />
		<tag k="ssr:stedsnr" v="824694" />
	</node>
	<node id="-568010" lat="62.4660083298" lon="6.81414167228">
		<tag k="name" v="Lisetgjerdet" />
		<tag k="place" v="farm" />
		<tag k="ssr:stedsnr" v="824693" />
	</node>
	<node id="-568009" lat="62.4604388935" lon="6.7785250056">
		<tag k="name" v="Gullura" />
		<tag k="natural" v="scree" />
		<tag k="ssr:stedsnr" v="824684" />
	</node>
	<node id="-568008" lat="62.4639555524" lon="6.77594167615">
		<tag k="name" v="Limura" />
		<tag k="natural" v="scree" />
		<tag k="ssr:stedsnr" v="824682" />
	</node>
	<node id="-568007" lat="62.4551666698" lon="6.89422500402">
		<tag k="name" v="Styggestihammaren" />
		<tag k="natural" v="cliff" />
		<tag k="ssr:stedsnr" v="824681" />
	</node>
	<node id="-568006" lat="62.4358111066" lon="7.04466943553">
		<tag k="name" v="Litlebotselva" />
		<tag k="ssr:stedsnr" v="824671" />
		<tag k="waterway" v="stream" />
	</node>
	<node id="-568005" lat="62.4406999991" lon="7.03665277143">
		<tag k="name" v="Litlebotselva" />
		<tag k="ssr:stedsnr" v="824667" />
		<tag k="waterway" v="river" />
	</node>
	<node id="-568004" lat="62.4640416666" lon="6.78911110695">
		<tag k="name" v="Demmene" />
		<tag k="natural" v="wetland" />
		<tag k="ssr:stedsnr" v="824648" />
	</node>
	<node id="-568003" lat="62.4561166658" lon="6.95637222913">
		<tag k="name" v="Nyløtufta" />
		<tag k="place" v="locality" />
		<tag k="ssr:stedsnr" v="824633" />
	</node>
	<node id="-568002" lat="62.4916249993" lon="6.83389722955">
		<tag k="name" v="Lusenakken" />
		<tag k="natural" v="ridge" />
		<tag k="place" v="locality" />
		<tag k="ssr:stedsnr" v="824627" />
	</node>
	<node id="-568001" lat="62.4776694427" lon="6.82686111159">
		<tag k="name" v="Prestemarka" />
		<tag k="place" v="locality" />
		<tag k="ssr:stedsnr" v="824623" />
	</node>
	<node id="-568000" lat="62.5081083303" lon="6.8091833413">
		<tag k="name" v="Ørnekulen" />
		<tag k="natural" v="hill" />
		<tag k="place" v="locality" />
		<tag k="ssr:stedsnr" v="824622" />
	</node>
	<node id="-567999" lat="62.5103916634" lon="6.89965834056">
		<tag k="name" v="Dalegrova" />
		<tag k="ssr:stedsnr" v="824609" />
		<tag k="waterway" v="stream" />
	</node>
	<node id="-567998" lat="62.4635861144" lon="6.82681111766">
		<tag k="name" v="Reset" />
		<tag k="natural" v="ridge" />
		<tag k="place" v="locality" />
		<tag k="ssr:stedsnr" v="824606" />
	</node>
	<node id="-567997" lat="62.4813222221" lon="6.92619721683">
		<tag k="name" v="Aksla" />
		<tag k="natural" v="ridge" />
		<tag k="place" v="locality" />
		<tag k="ssr:stedsnr" v="824603" />
	</node>
	<node id="-567996" lat="62.4890472259" lon="6.84882221845">
		<tag k="name" v="Kriken" />
		<tag k="natural" v="wetland" />
		<tag k="ssr:stedsnr" v="824580" />
	</node>
	<node id="-567995" lat="62.5077500035" lon="6.8268583374">
		<tag k="name" v="Kvileberget" />
		<tag k="natural" v="hill" />
		<tag k="place" v="locality" />
		<tag k="ssr:stedsnr" v="824575" />
	</node>
	<node id="-567994" lat="62.4535444449" lon="6.88042776865">
		<tag k="name" v="Slentrehola" />
		<tag k="natural" v="valley" />
		<tag k="place" v="locality" />
		<tag k="ssr:stedsnr" v="824567" />
	</node>
	<node id="-567993" lat="62.4954916662" lon="6.8390611197">
		<tag k="name" v="Øvstestigane" />
		<tag k="natural" v="slope" />
		<tag k="place" v="locality" />
		<tag k="ssr:stedsnr" v="824559" />
	</node>
	<node id="-567992" lat="62.514269441" lon="6.92263055638">
		<tag k="name" v="Myrløken" />
		<tag k="ssr:stedsnr" v="824539" />
		<tag k="waterway" v="stream" />
	</node>
	<node id="-567991" lat="62.4685277784" lon="6.98038333606">
		<tag k="name" v="Grønlibruna" />
		<tag k="natural" v="ridge" />
		<tag k="place" v="locality" />
		<tag k="ssr:stedsnr" v="824529" />
	</node>
	<node id="-567990" lat="62.4490527807" lon="6.92089721299">
		<tag k="name" v="Vassbakken" />
		<tag k="natural" v="slope" />
		<tag k="place" v="locality" />
		<tag k="ssr:stedsnr" v="824525" />
	</node>
	<node id="-567989" lat="62.5004722244" lon="6.89003055201">
		<tag k="name" v="Stortrøna" />
		<tag k="place" v="locality" />
		<tag k="ssr:stedsnr" v="824512" />
	</node>
	<node id="-567988" lat="62.481894445" lon="6.86237221641">
		<tag k="name" v="Bakken" />
		<tag k="place" v="farm" />
		<tag k="ssr:stedsnr" v="824502" />
	</node>
	<node id="-567987" lat="62.4876333323" lon="6.87697500832">
		<tag k="highway" v="path" />
		<tag k="name" v="Stigen" />
		<tag k="ssr:stedsnr" v="824501" />
	</node>
	<node id="-567986" lat="62.4591138877" lon="6.90487223129">
		<tag k="name" v="Grimsmyra" />
		<tag k="natural" v="wetland" />
		<tag k="ssr:stedsnr" v="824497" />
	</node>
	<node id="-567985" lat="62.4773583322" lon="6.86351667326">
		<tag k="bridge" v="yes" />
		<tag k="layer" v="1" />
		<tag k="name" v="Valgermobrua" />
		<tag k="ssr:stedsnr" v="819259" />
	</node>
	<node id="-567984" lat="62.4987055523" lon="6.79707223168">
		<tag k="bridge" v="yes" />
		<tag k="layer" v="1" />
		<tag k="name" v="Solnørdalsbrua" />
		<tag k="ssr:stedsnr" v="819258" />
	</node>
	<node id="-567983" lat="62.5087277733" lon="6.84419165743">
		<tag k="historic" v="shieling" />
		<tag k="name" v="Sjøholtsætra" />
		<tag k="place" v="locality" />
		<tag k="ssr:stedsnr" v="801834" />
	</node>
	<node id="-567982" lat="62.521058334" lon="6.83284722806">
		<tag k="name" v="Liasæterkamben" />
		<tag k="natural" v="hill" />
		<tag k="place" v="locality" />
		<tag k="ssr:stedsnr" v="800787" />
	</node>
	<node id="-567981" lat="62.4475222182" lon="7.0998583417">
		<tag k="name" v="Sunnmørslauparlægda" />
		<tag k="natural" v="valley" />
		<tag k="old_name" v="Sunnmørslauparlengda" />
		<tag k="place" v="locality" />
		<tag k="ssr:stedsnr" v="800362" />
	</node>
	<node id="-567980" lat="62.4388138932" lon="6.93567777971">
		<tag k="fixme" v="consider natural=peak for the most distinct mountains in the district" />
		<tag k="name" v="Hallvardsfjellet" />
		<tag k="natural" v="hill" />
		<tag k="place" v="locality" />
		<tag k="ssr:stedsnr" v="800356" />
	</node>
	<node id="-567979" lat="62.4515792855" lon="6.90496454053">
		<tag k="fixme" v="consider place=hamlet" />
		<tag k="name" v="Hjelle" />
		<tag k="place" v="farm" />
		<tag k="ssr:stedsnr" v="800349" />
	</node>
	<node id="-567978" lat="62.4510188922" lon="6.95670390638">
		<tag k="alt_name" v="Vaksvikelva;Vakså" />
		<tag k="name" v="Vokså" />
		<tag k="ssr:stedsnr" v="800347" />
		<tag k="waterway" v="river" />
	</node>
	<node id="-567977" lat="62.465628211" lon="6.86846566726">
		<tag k="fixme" v="consider place=hamlet" />
		<tag k="name" v="Jarskar" />
		<tag k="place" v="farm" />
		<tag k="ssr:stedsnr" v="800326" />
	</node>
	<node id="-567976" lat="62.4849305577" lon="6.95219167206">
		<tag k="name" v="Skarbøbotnen" />
		<tag k="natural" v="valley" />
		<tag k="place" v="locality" />
		<tag k="ssr:stedsnr" v="800304" />
	</node>
	<node id="-567975" lat="62.4873967323" lon="6.84792432492">
		<tag k="fixme" v="consider place=hamlet" />
		<tag k="name" v="Bårdsgjerdet" />
		<tag k="place" v="farm" />
		<tag k="ssr:stedsnr" v="800296" />
	</node>
	<node id="-567974" lat="62.4971972235" lon="6.93030277964">
		<tag k="name" v="Kråvatnet" />
		<tag k="natural" v="water" />
		<tag k="ssr:stedsnr" v="800287" />
	</node>
	<node id="-567973" lat="62.476068443" lon="6.71757091805">
		<tag k="loc_name" v="Tyssagardane" />
		<tag k="name" v="Tyssegardane" />
		<tag k="place" v="hamlet" />
		<tag k="ssr:stedsnr" v="800030" />
	</node>
	<node id="-567972" lat="62.4138138909" lon="7.06056389524">
		<tag k="alt_name" v="Skorkja, heimste" />
		<tag k="fixme" v="multiple name tags, choose one and add the other to alt_name; consider natural=peak for the most distinct mountains in the district" />
		<tag k="name" v="Heimste Skorka;Sandfjellet" />
		<tag k="natural" v="hill" />
		<tag k="old_name" v="Høgnykjen" />
		<tag k="place" v="locality" />
		<tag k="ssr:stedsnr" v="799672" />
	</node>
	<node id="-567971" lat="62.4767681334" lon="6.85120329019">
		<tag k="fixme" v="consider place=hamlet" />
		<tag k="name" v="Giskemo" />
		<tag k="place" v="farm" />
		<tag k="ssr:stedsnr" v="799337" />
	</node>
	<node id="-567970" lat="62.5064055579" lon="6.83346389235">
		<tag k="name" v="Meierielva" />
		<tag k="ssr:stedsnr" v="769794" />
		<tag k="waterway" v="river" />
	</node>
	<node id="-567969" lat="62.4779583365" lon="6.70434999957">
		<tag k="name" v="Tiendberget" />
		<tag k="natural" v="ridge" />
		<tag k="place" v="locality" />
		<tag k="ssr:stedsnr" v="763973" />
	</node>
	<node id="-567968" lat="62.4585999967" lon="6.78790833382">
		<tag k="name" v="Sollilygaren" />
		<tag k="natural" v="cape" />
		<tag k="ssr:stedsnr" v="763964" />
	</node>
	<node id="-567967" lat="62.4730000044" lon="6.80359445316">
		<tag k="fixme" v="consider seamark:type=rock or natural=shoal" />
		<tag k="name" v="Litleskjeret" />
		<tag k="place" v="islet" />
		<tag k="ssr:stedsnr" v="763965" />
	</node>
	<node id="-567966" lat="62.4746972188" lon="6.70626667288">
		<tag k="name" v="Kobbeneset" />
		<tag k="natural" v="cape" />
		<tag k="ssr:stedsnr" v="763695" />
	</node>
	<node id="-567965" lat="62.4785916645" lon="6.7616138871">
		<tag k="name" v="Bøen" />
		<tag k="place" v="farm" />
		<tag k="ssr:stedsnr" v="763693" />
	</node>
	<node id="-567964" lat="62.4558222195" lon="6.88941388991">
		<tag k="name" v="Nyprastø" />
		<tag k="natural" v="ridge" />
		<tag k="place" v="locality" />
		<tag k="ssr:stedsnr" v="763689" />
	</node>
	<node id="-567963" lat="62.4675055542" lon="6.80539445006">
		<tag k="name" v="Middagshola" />
		<tag k="natural" v="valley" />
		<tag k="place" v="locality" />
		<tag k="ssr:stedsnr" v="763676" />
	</node>
	<node id="-567962" lat="62.4971861085" lon="6.88330000057">
		<tag k="name" v="Grønevøtå" />
		<tag k="natural" v="wetland" />
		<tag k="ssr:stedsnr" v="763641" />
	</node>
	<node id="-567961" lat="62.4716222193" lon="6.84870833158">
		<tag k="name" v="Vallbøhaugane" />
		<tag k="natural" v="hill" />
		<tag k="place" v="locality" />
		<tag k="ssr:stedsnr" v="763637" />
	</node>
	<node id="-567960" lat="62.5338166693" lon="6.86158055748">
		<tag k="name" v="Løkmyrane" />
		<tag k="natural" v="wetland" />
		<tag k="ssr:stedsnr" v="763634" />
	</node>
	<node id="-567959" lat="62.5029249956" lon="6.87926389493">
		<tag k="name" v="Menakken" />
		<tag k="natural" v="ridge" />
		<tag k="place" v="locality" />
		<tag k="ssr:stedsnr" v="763627" />
	</node>
	<node id="-567958" lat="62.5122166696" lon="6.91679444689">
		<tag k="name" v="Myrløken" />
		<tag k="ssr:stedsnr" v="763626" />
		<tag k="waterway" v="stream" />
	</node>
	<node id="-567957" lat="62.443472225" lon="6.95403888139">
		<tag k="name" v="Lågheia" />
		<tag k="natural" v="slope" />
		<tag k="place" v="locality" />
		<tag k="ssr:stedsnr" v="763623" />
	</node>
	<node id="-567956" lat="62.4821027771" lon="6.81567499111">
		<tag k="name" v="Vaulen" />
		<tag k="natural" v="shoal" />
		<tag k="place" v="locality" />
		<tag k="ssr:stedsnr" v="763621" />
	</node>
	<node id="-567955" lat="62.4888861099" lon="6.80550556508">
		<tag k="name" v="Litlehammaren" />
		<tag k="natural" v="cliff" />
		<tag k="ssr:stedsnr" v="763613" />
	</node>
	<node id="-567954" lat="62.4786583336" lon="6.86472223167">
		<tag k="name" v="Øyna" />
		<tag k="place" v="locality" />
		<tag k="ssr:stedsnr" v="763601" />
	</node>
	<node id="-567953" lat="62.5150444473" lon="6.80830276815">
		<tag k="name" v="Nørnakken" />
		<tag k="natural" v="ridge" />
		<tag k="place" v="locality" />
		<tag k="ssr:stedsnr" v="763600" />
	</node>
	<node id="-567952" lat="62.483308329" lon="6.82819166608">
		<tag k="name" v="Steinholthaugane" />
		<tag k="natural" v="hill" />
		<tag k="place" v="locality" />
		<tag k="ssr:stedsnr" v="763596" />
	</node>
	<node id="-567951" lat="62.4593222235" lon="6.87423611121">
		<tag k="name" v="Naustberget" />
		<tag k="natural" v="hill" />
		<tag k="place" v="locality" />
		<tag k="ssr:stedsnr" v="763594" />
	</node>
	<node id="-567950" lat="62.4493194431" lon="6.91573610434">
		<tag k="name" v="Siribakken" />
		<tag k="natural" v="slope" />
		<tag k="place" v="locality" />
		<tag k="ssr:stedsnr" v="763576" />
	</node>
	<node id="-567949" lat="62.5009166704" lon="6.80980278608">
		<tag k="name" v="Nedstehaugen" />
		<tag k="natural" v="hill" />
		<tag k="place" v="locality" />
		<tag k="ssr:stedsnr" v="763549" />
	</node>
	<node id="-567948" lat="62.439791669" lon="6.97601944886">
		<tag k="name" v="Skurlia" />
		<tag k="natural" v="slope" />
		<tag k="place" v="locality" />
		<tag k="ssr:stedsnr" v="763548" />
	</node>
	<node id="-567947" lat="62.4866194426" lon="6.83221111113">
		<tag k="name" v="Karihola" />
		<tag k="place" v="farm" />
		<tag k="ssr:stedsnr" v="763542" />
	</node>
	<node id="-567946" lat="62.4843611085" lon="6.81064445054">
		<tag k="name" v="Ryebakken" />
		<tag k="natural" v="slope" />
		<tag k="place" v="locality" />
		<tag k="ssr:stedsnr" v="763540" />
	</node>
	<node id="-567945" lat="62.4546888906" lon="6.88135556011">
		<tag k="name" v="Kleiva" />
		<tag k="natural" v="slope" />
		<tag k="place" v="locality" />
		<tag k="ssr:stedsnr" v="763527" />
	</node>
	<node id="-567944" lat="62.4653694486" lon="6.91202221699">
		<tag k="name" v="Storhaugen" />
		<tag k="natural" v="hill" />
		<tag k="place" v="locality" />
		<tag k="ssr:stedsnr" v="763523" />
	</node>
	<node id="-567943" lat="62.4721916692" lon="6.8544777691">
		<tag k="name" v="Brendehaugrørene" />
		<tag k="natural" v="ridge" />
		<tag k="place" v="locality" />
		<tag k="ssr:stedsnr" v="763518" />
	</node>
	<node id="-567942" lat="62.4728055562" lon="6.80241389362">
		<tag k="fixme" v="consider seamark:type=rock or natural=shoal" />
		<tag k="name" v="Storskjeret" />
		<tag k="place" v="islet" />
		<tag k="ssr:stedsnr" v="760287" />
	</node>
	<node id="-567941" lat="62.476966665" lon="6.76488889637">
		<tag k="name" v="Apalsetneset" />
		<tag k="natural" v="cape" />
		<tag k="ssr:stedsnr" v="759285" />
	</node>
	<node id="-567940" lat="62.4826083306" lon="6.81356388832">
		<tag k="layer" v="-1" />
		<tag k="name" v="Vollaundergangen" />
		<tag k="ssr:stedsnr" v="758289" />
		<tag k="tunnel" v="yes" />
	</node>
	<node id="-567939" lat="62.4465944459" lon="6.92634167585">
		<tag k="fixme" v="multiple name tags, choose one and add the other to alt_name" />
		<tag k="name" v="Hallvardsvatnet;Hallvardsætrevatnet" />
		<tag k="natural" v="water" />
		<tag k="ssr:stedsnr" v="739355" />
	</node>
	<node id="-567938" lat="62.4461533416" lon="6.96687572208">
		<tag k="historic" v="shieling" />
		<tag k="name" v="Visetsætra" />
		<tag k="place" v="locality" />
		<tag k="ssr:stedsnr" v="739352" />
	</node>
	<node id="-567937" lat="62.4497194414" lon="7.11611944863">
		<tag k="fixme" v="consider natural=peak for the most distinct mountains in the district" />
		<tag k="name" v="Lauparen" />
		<tag k="natural" v="hill" />
		<tag k="place" v="locality" />
		<tag k="ssr:stedsnr" v="739351" />
	</node>
	<node id="-567936" lat="62.4572416626" lon="7.01386945222">
		<tag k="name" v="Fremsteelva" />
		<tag k="ssr:stedsnr" v="739323" />
		<tag k="waterway" v="river" />
	</node>
	<node id="-567935" lat="62.4629750034" lon="6.81170833331">
		<tag k="name" v="Lisetvik" />
		<tag k="place" v="farm" />
		<tag k="ssr:stedsnr" v="739321" />
	</node>
	<node id="-567934" lat="62.4962305557" lon="6.8472888794">
		<tag k="name" v="Verahornet" />
		<tag k="natural" v="hill" />
		<tag k="old_name" v="Værhornet" />
		<tag k="place" v="locality" />
		<tag k="ssr:stedsnr" v="739278" />
	</node>
	<node id="-567933" lat="62.4423416626" lon="7.12034167023">
		<tag k="fixme" v="consider natural=peak for the most distinct mountains in the district" />
		<tag k="name" v="Svartvassegga" />
		<tag k="natural" v="hill" />
		<tag k="place" v="locality" />
		<tag k="ssr:stedsnr" v="738681" />
	</node>
	<node id="-567932" lat="62.4243111098" lon="7.0802388968">
		<tag k="alt_name" v="Skorkja, fremste" />
		<tag k="fixme" v="multiple name tags, choose one and add the other to alt_name; consider natural=peak for the most distinct mountains in the district" />
		<tag k="name" v="Fremste Skorka;Litlebotnstinden" />
		<tag k="natural" v="hill" />
		<tag k="old_name" v="Litlebottstind" />
		<tag k="place" v="locality" />
		<tag k="ssr:stedsnr" v="738673" />
	</node>
	<node id="-567931" lat="62.4788583293" lon="6.83128887965">
		<tag k="name" v="Tuene" />
		<tag k="place" v="farm" />
		<tag k="ssr:stedsnr" v="738327" />
	</node>
	<node id="-567930" lat="62.4769027777" lon="6.74843888185">
		<tag k="name" v="Hammaren" />
		<tag k="place" v="farm" />
		<tag k="ssr:stedsnr" v="703977" />
	</node>
	<node id="-567929" lat="62.4593388922" lon="6.77824722693">
		<tag k="name" v="Fagervika" />
		<tag k="natural" v="bay" />
		<tag k="ssr:stedsnr" v="703971" />
	</node>
	<node id="-567928" lat="62.4806555587" lon="6.72359721727">
		<tag k="name" v="Barlindteigen" />
		<tag k="place" v="locality" />
		<tag k="ssr:stedsnr" v="703725" />
	</node>
	<node id="-567927" lat="62.4584972185" lon="6.8308194484">
		<tag k="name" v="Kligardsfjøra" />
		<tag k="natural" v="beach" />
		<tag k="place" v="locality" />
		<tag k="ssr:stedsnr" v="703703" />
	</node>
	<node id="-567926" lat="62.461488892" lon="6.78260278568">
		<tag k="name" v="Nykjen" />
		<tag k="natural" v="ridge" />
		<tag k="place" v="locality" />
		<tag k="ssr:stedsnr" v="703702" />
	</node>
	<node id="-567925" lat="62.4847222195" lon="6.76463888786">
		<tag k="name" v="Vetegylet" />
		<tag k="natural" v="gorge" />
		<tag k="ssr:stedsnr" v="703690" />
	</node>
	<node id="-567924" lat="62.4838138919" lon="6.75967221749">
		<tag k="name" v="Hesteløypa" />
		<tag k="natural" v="valley" />
		<tag k="place" v="locality" />
		<tag k="ssr:stedsnr" v="703687" />
	</node>
	<node id="-567923" lat="62.4463194418" lon="6.88852221487">
		<tag k="name" v="Linehola" />
		<tag k="place" v="locality" />
		<tag k="ssr:stedsnr" v="703679" />
	</node>
	<node id="-567922" lat="62.4667305547" lon="6.77328889634">
		<tag k="name" v="Lunneneset" />
		<tag k="natural" v="cape" />
		<tag k="ssr:stedsnr" v="703676" />
	</node>
	<node id="-567921" lat="62.5007638868" lon="6.78924445139">
		<tag k="name" v="Barhusdalen" />
		<tag k="natural" v="valley" />
		<tag k="place" v="locality" />
		<tag k="ssr:stedsnr" v="703674" />
	</node>
	<node id="-567920" lat="62.5094555524" lon="6.79104999204">
		<tag k="name" v="Ytstereset" />
		<tag k="natural" v="ridge" />
		<tag k="place" v="locality" />
		<tag k="ssr:stedsnr" v="703673" />
	</node>
	<node id="-567919" lat="62.4968027751" lon="6.79720554988">
		<tag k="name" v="Hjellane" />
		<tag k="natural" v="wetland" />
		<tag k="ssr:stedsnr" v="703668" />
	</node>
	<node id="-567918" lat="62.4665444408" lon="6.77911389835">
		<tag k="name" v="Preikestolmyrane" />
		<tag k="natural" v="wetland" />
		<tag k="ssr:stedsnr" v="703666" />
	</node>
	<node id="-567917" lat="62.4821888882" lon="6.88028055951">
		<tag k="name" v="Giskemoberget" />
		<tag k="place" v="locality" />
		<tag k="ssr:stedsnr" v="703664" />
	</node>
	<node id="-567916" lat="62.4671916686" lon="6.86440277303">
		<tag k="name" v="Jarskarhaugen" />
		<tag k="natural" v="hill" />
		<tag k="place" v="locality" />
		<tag k="ssr:stedsnr" v="703646" />
	</node>
	<node id="-567915" lat="62.5148027744" lon="6.8398666634">
		<tag k="name" v="Bjønnanakkane" />
		<tag k="natural" v="hill" />
		<tag k="place" v="locality" />
		<tag k="ssr:stedsnr" v="703643" />
	</node>
	<node id="-567914" lat="62.4413583302" lon="6.96170278621">
		<tag k="name" v="Skålbotnen" />
		<tag k="natural" v="valley" />
		<tag k="place" v="locality" />
		<tag k="ssr:stedsnr" v="703627" />
	</node>
	<node id="-567913" lat="62.5054944415" lon="6.81254444211">
		<tag k="name" v="Geilhaugen" />
		<tag k="natural" v="hill" />
		<tag k="place" v="locality" />
		<tag k="ssr:stedsnr" v="703625" />
	</node>
	<node id="-567912" lat="62.4793777744" lon="6.81953889678">
		<tag k="name" v="Årøyane" />
		<tag k="place" v="island" />
		<tag k="ssr:stedsnr" v="703608" />
	</node>
	<node id="-567911" lat="62.5322972205" lon="6.94794445301">
		<tag k="name" v="Bytehaugen" />
		<tag k="natural" v="hill" />
		<tag k="place" v="locality" />
		<tag k="ssr:stedsnr" v="703598" />
	</node>
	<node id="-567910" lat="62.4422888898" lon="6.91186944727">
		<tag k="name" v="Visetfjellet" />
		<tag k="natural" v="hill" />
		<tag k="place" v="locality" />
		<tag k="ssr:stedsnr" v="703593" />
	</node>
	<node id="-567909" lat="62.4610000023" lon="6.92551110198">
		<tag k="name" v="Storhaugen" />
		<tag k="natural" v="hill" />
		<tag k="place" v="locality" />
		<tag k="ssr:stedsnr" v="703588" />
	</node>
	<node id="-567908" lat="62.5429416642" lon="6.90529999571">
		<tag k="name" v="Kjølen" />
		<tag k="natural" v="slope" />
		<tag k="place" v="locality" />
		<tag k="ssr:stedsnr" v="703584" />
	</node>
	<node id="-567907" lat="62.5195250023" lon="6.81803332506">
		<tag k="name" v="Fremsteosen" />
		<tag k="natural" v="bay" />
		<tag k="ssr:stedsnr" v="703582" />
	</node>
	<node id="-567906" lat="62.4679583352" lon="6.892605557">
		<tag k="name" v="Nakkane" />
		<tag k="natural" v="hill" />
		<tag k="place" v="locality" />
		<tag k="ssr:stedsnr" v="703581" />
	</node>
	<node id="-567905" lat="62.452933335" lon="7.05062222437">
		<tag k="name" v="Tjønna" />
		<tag k="natural" v="water" />
		<tag k="ssr:stedsnr" v="703576" />
	</node>
	<node id="-567904" lat="62.4951027766" lon="6.93166667211">
		<tag k="name" v="Snaufjellskredene" />
		<tag k="natural" v="slope" />
		<tag k="place" v="locality" />
		<tag k="ssr:stedsnr" v="703573" />
	</node>
	<node id="-567903" lat="62.4688083336" lon="6.93486945037">
		<tag k="name" v="Sætredalen" />
		<tag k="natural" v="valley" />
		<tag k="place" v="locality" />
		<tag k="ssr:stedsnr" v="703566" />
	</node>
	<node id="-567902" lat="62.462355555" lon="6.89043611072">
		<tag k="name" v="Ormhaugen" />
		<tag k="natural" v="hill" />
		<tag k="place" v="locality" />
		<tag k="ssr:stedsnr" v="703532" />
	</node>
	<node id="-567901" lat="62.4683138848" lon="6.86767499239">
		<tag k="name" v="Kvile" />
		<tag k="natural" v="stone" />
		<tag k="ssr:stedsnr" v="703530" />
	</node>
	<node id="-567900" lat="62.4778172485" lon="6.81193979222">
		<tag k="name" v="Presteøyra" />
		<tag k="natural" v="beach" />
		<tag k="place" v="locality" />
		<tag k="ssr:stedsnr" v="699312" />
	</node>
	<node id="-567899" lat="62.4523154842" lon="6.89366659241">
		<tag k="fixme" v="consider place=hamlet" />
		<tag k="name" v="Vaksvik" />
		<tag k="place" v="farm" />
		<tag k="ssr:stedsnr" v="693098" />
	</node>
	<node id="-567898" lat="62.5179916688" lon="6.82960555817">
		<tag k="alt_name" v="Lisætra" />
		<tag k="historic" v="shieling" />
		<tag k="name" v="Liasætra" />
		<tag k="place" v="locality" />
		<tag k="ssr:stedsnr" v="679863" />
	</node>
	<node id="-567897" lat="62.5043027815" lon="6.95231944884">
		<tag k="name" v="Kvanndalselva" />
		<tag k="ssr:stedsnr" v="679843" />
		<tag k="waterway" v="stream" />
	</node>
	<node id="-567896" lat="62.4302000018" lon="7.11686110378">
		<tag k="name" v="Trollbotnen" />
		<tag k="natural" v="valley" />
		<tag k="old_name" v="Trollbotn" />
		<tag k="place" v="locality" />
		<tag k="ssr:stedsnr" v="678664" />
	</node>
	<node id="-567895" lat="62.4287527797" lon="7.05399722783">
		<tag k="name" v="Litlebotnselva" />
		<tag k="old_name" v="Litlebottselva" />
		<tag k="ssr:stedsnr" v="678665" />
		<tag k="waterway" v="stream" />
	</node>
	<node id="-567894" lat="62.4908027776" lon="6.98418888198">
		<tag k="name" v="Kvanndalsvatnet" />
		<tag k="natural" v="water" />
		<tag k="ssr:stedsnr" v="678332" />
	</node>
	<node id="-567893" lat="62.4864249967" lon="6.7690916607">
		<tag k="alt_name" v="Vetafjellet" />
		<tag k="name" v="Veten" />
		<tag k="natural" v="hill" />
		<tag k="place" v="locality" />
		<tag k="ssr:stedsnr" v="678321" />
	</node>
	<node id="-567892" lat="62.4658944421" lon="7.02879166133">
		<tag k="name" v="Kjersemvatnet" />
		<tag k="natural" v="water" />
		<tag k="ssr:stedsnr" v="678376" />
	</node>
	<node id="-567891" lat="62.4720055566" lon="7.03025277213">
		<tag k="name" v="Åsrøra" />
		<tag k="place" v="neighbourhood" />
		<tag k="ssr:stedsnr" v="666717" />
	</node>
	<node id="-567890" lat="62.5185333326" lon="6.91518333537">
		<tag k="name" v="Nysætra" />
		<tag k="place" v="neighbourhood" />
		<tag k="ssr:stedsnr" v="666701" />
	</node>
	<node id="-567889" lat="62.4671499958" lon="6.8826888941">
		<tag k="name" v="Ivergrova" />
		<tag k="ssr:stedsnr" v="648773" />
		<tag k="waterway" v="stream" />
	</node>
	<node id="-567888" lat="62.4876472255" lon="6.80193610646">
		<tag k="name" v="Svarthammaren" />
		<tag k="natural" v="cliff" />
		<tag k="ssr:stedsnr" v="642547" />
	</node>
	<node id="-567887" lat="62.4567555534" lon="6.97240833881">
		<tag k="name" v="Svarttjønnhaugen" />
		<tag k="natural" v="hill" />
		<tag k="place" v="locality" />
		<tag k="ssr:stedsnr" v="642520" />
	</node>
	<node id="-567886" lat="62.4442444428" lon="6.91072500523">
		<tag k="name" v="Koppen" />
		<tag k="natural" v="valley" />
		<tag k="place" v="locality" />
		<tag k="ssr:stedsnr" v="642488" />
	</node>
	<node id="-567885" lat="62.4856861068" lon="6.86181944748">
		<tag k="name" v="Opplendskedalen" />
		<tag k="natural" v="valley" />
		<tag k="place" v="locality" />
		<tag k="ssr:stedsnr" v="642487" />
	</node>
	<node id="-567884" lat="62.4745194402" lon="6.90356665892">
		<tag k="name" v="Høgstølane" />
		<tag k="natural" v="hill" />
		<tag k="place" v="locality" />
		<tag k="ssr:stedsnr" v="642481" />
	</node>
	<node id="-567883" lat="62.4749638909" lon="6.69942777493">
		<tag k="name" v="Bråbenken" />
		<tag k="natural" v="cape" />
		<tag k="ssr:stedsnr" v="641979" />
	</node>
	<node id="-567882" lat="62.4817361098" lon="6.76090833275">
		<tag k="historic" v="shieling" />
		<tag k="name" v="Løbøen" />
		<tag k="place" v="locality" />
		<tag k="ssr:stedsnr" v="641962" />
	</node>
	<node id="-567881" lat="62.4737777742" lon="6.81212500675">
		<tag k="name" v="Ryssebøen" />
		<tag k="place" v="farm" />
		<tag k="ssr:stedsnr" v="641694" />
	</node>
	<node id="-567880" lat="62.478022218" lon="6.81805832842">
		<tag k="name" v="Ørskog prestegard" />
		<tag k="place" v="farm" />
		<tag k="ssr:stedsnr" v="641691" />
	</node>
	<node id="-567879" lat="62.4771722236" lon="6.6900111071">
		<tag k="name" v="Øyatangen" />
		<tag k="natural" v="cape" />
		<tag k="ssr:stedsnr" v="641671" />
	</node>
	<node id="-567878" lat="62.4814000041" lon="6.77733054798">
		<tag k="name" v="Løhaugen" />
		<tag k="place" v="farm" />
		<tag k="ssr:stedsnr" v="641667" />
	</node>
	<node id="-567877" lat="62.4422749957" lon="6.90428333334">
		<tag k="name" v="Kjerringgylet" />
		<tag k="natural" v="valley" />
		<tag k="place" v="locality" />
		<tag k="ssr:stedsnr" v="641652" />
	</node>
	<node id="-567876" lat="62.4453777735" lon="6.89980276894">
		<tag k="name" v="Visetelva" />
		<tag k="ssr:stedsnr" v="641653" />
		<tag k="waterway" v="stream" />
	</node>
	<node id="-567875" lat="62.4799805599" lon="6.77753332489">
		<tag k="name" v="Hagevika" />
		<tag k="natural" v="bay" />
		<tag k="ssr:stedsnr" v="641645" />
	</node>
	<node id="-567874" lat="62.4839805598" lon="6.75366667454">
		<tag k="name" v="Vassnakken" />
		<tag k="natural" v="ridge" />
		<tag k="place" v="locality" />
		<tag k="ssr:stedsnr" v="641644" />
	</node>
	<node id="-567873" lat="62.4845361156" lon="6.75080833121">
		<tag k="name" v="Vasslia" />
		<tag k="natural" v="slope" />
		<tag k="place" v="locality" />
		<tag k="ssr:stedsnr" v="641616" />
	</node>
	<node id="-567872" lat="62.4820666641" lon="6.84471945321">
		<tag k="name" v="Ytsteelva" />
		<tag k="ssr:stedsnr" v="641603" />
		<tag k="waterway" v="stream" />
	</node>
	<node id="-567871" lat="62.4627861079" lon="6.84914444601">
		<tag k="name" v="Jørghaugen" />
		<tag k="natural" v="hill" />
		<tag k="place" v="locality" />
		<tag k="ssr:stedsnr" v="641593" />
	</node>
	<node id="-567870" lat="62.5060333328" lon="6.8939222175">
		<tag k="name" v="Tverrbakkane" />
		<tag k="natural" v="slope" />
		<tag k="place" v="locality" />
		<tag k="ssr:stedsnr" v="641589" />
	</node>
	<node id="-567869" lat="62.4852388923" lon="6.82713889413">
		<tag k="name" v="Ådalen" />
		<tag k="natural" v="valley" />
		<tag k="place" v="locality" />
		<tag k="ssr:stedsnr" v="641582" />
	</node>
	<node id="-567868" lat="62.4696666672" lon="6.87078055309">
		<tag k="name" v="Hjellhaugane" />
		<tag k="natural" v="hill" />
		<tag k="place" v="locality" />
		<tag k="ssr:stedsnr" v="641581" />
	</node>
	<node id="-567867" lat="62.5065944413" lon="6.80575555491">
		<tag k="name" v="Brendhaugen" />
		<tag k="natural" v="hill" />
		<tag k="place" v="locality" />
		<tag k="ssr:stedsnr" v="641579" />
	</node>
	<node id="-567866" lat="62.5244194417" lon="6.81590000389">
		<tag k="name" v="Mevassholmen" />
		<tag k="place" v="islet" />
		<tag k="ssr:stedsnr" v="641573" />
	</node>
	<node id="-567865" lat="62.4804749956" lon="6.85166666534">
		<tag k="name" v="Hegredalen" />
		<tag k="natural" v="valley" />
		<tag k="place" v="locality" />
		<tag k="ssr:stedsnr" v="641567" />
	</node>
	<node id="-567864" lat="62.4960444401" lon="6.97803333152">
		<tag k="name" v="Fossen" />
		<tag k="natural" v="waterfall" />
		<tag k="ssr:stedsnr" v="641559" />
	</node>
	<node id="-567863" lat="62.468605559" lon="6.85887499381">
		<tag k="name" v="Kjerringhola" />
		<tag k="natural" v="valley" />
		<tag k="place" v="locality" />
		<tag k="ssr:stedsnr" v="641536" />
	</node>
	<node id="-567862" lat="62.4541416707" lon="6.90615556271">
		<tag k="name" v="Stomnhaugen" />
		<tag k="natural" v="hill" />
		<tag k="place" v="locality" />
		<tag k="ssr:stedsnr" v="641513" />
	</node>
	<node id="-567861" lat="62.5116027794" lon="6.91918334234">
		<tag k="name" v="Dynjafossen" />
		<tag k="natural" v="waterfall" />
		<tag k="ssr:stedsnr" v="641467" />
	</node>
	<node id="-567860" lat="62.4871361114" lon="6.82967778585">
		<tag k="name" v="Berget" />
		<tag k="place" v="farm" />
		<tag k="ssr:stedsnr" v="641462" />
	</node>
	<node id="-567859" lat="62.4900416677" lon="6.81925833708">
		<tag k="name" v="Eggereset" />
		<tag k="natural" v="ridge" />
		<tag k="place" v="locality" />
		<tag k="ssr:stedsnr" v="641458" />
	</node>
	<node id="-567858" lat="62.4680888916" lon="6.79603055514">
		<tag k="name" v="Hestevikberget" />
		<tag k="natural" v="hill" />
		<tag k="place" v="locality" />
		<tag k="ssr:stedsnr" v="638289" />
	</node>
	<node id="-567857" lat="62.4585081925" lon="6.91334322608">
		<tag k="fixme" v="consider place=hamlet" />
		<tag k="name" v="Øvre Sollia" />
		<tag k="place" v="farm" />
		<tag k="ssr:stedsnr" v="631930" />
	</node>
	<node id="-567856" lat="62.5150111128" lon="6.8220749945">
		<tag k="name" v="Akslevollvatnet" />
		<tag k="natural" v="water" />
		<tag k="ssr:stedsnr" v="618851" />
		<tag k="water" v="lake" />
	</node>
	<node id="-567855" lat="62.5063782112" lon="6.88444316944">
		<tag k="fixme" v="consider natural=peak for the most distinct mountains in the district" />
		<tag k="name" v="Høgnøsa" />
		<tag k="natural" v="hill" />
		<tag k="place" v="locality" />
		<tag k="ssr:stedsnr" v="618835" />
	</node>
	<node id="-567854" lat="62.5002888897" lon="6.83563610248">
		<tag k="fixme" v="consider natural=peak for the most distinct mountains in the district" />
		<tag k="name" v="Knippingen" />
		<tag k="natural" v="hill" />
		<tag k="place" v="locality" />
		<tag k="ssr:stedsnr" v="618834" />
	</node>
	<node id="-567853" lat="62.4359638907" lon="7.0240777696">
		<tag k="name" v="Heiane" />
		<tag k="natural" v="hill" />
		<tag k="place" v="locality" />
		<tag k="ssr:stedsnr" v="617684" />
	</node>
	<node id="-567852" lat="62.4295166691" lon="7.03740278245">
		<tag k="name" v="Tjørnene" />
		<tag k="natural" v="water" />
		<tag k="old_name" v="Tjørnane" />
		<tag k="ssr:stedsnr" v="617674" />
	</node>
	<node id="-567851" lat="62.456384632" lon="6.92384775147">
		<tag k="fixme" v="consider place=hamlet" />
		<tag k="name" v="Hatlen" />
		<tag k="place" v="farm" />
		<tag k="ssr:stedsnr" v="617368" />
	</node>
	<node id="-567850" lat="62.4765222224" lon="7.0102194498">
		<tag k="fixme" v="consider natural=peak for the most distinct mountains in the district" />
		<tag k="name" v="Dyrshamrane" />
		<tag k="natural" v="hill" />
		<tag k="place" v="locality" />
		<tag k="ssr:stedsnr" v="617361" />
	</node>
	<node id="-567849" lat="62.4741111151" lon="6.97051110386">
		<tag k="fixme" v="consider natural=peak for the most distinct mountains in the district" />
		<tag k="name" v="Sætrefjellet" />
		<tag k="natural" v="hill" />
		<tag k="old_name" v="Sæterfjellet" />
		<tag k="place" v="locality" />
		<tag k="ssr:stedsnr" v="617346" />
	</node>
	<node id="-567848" lat="62.4774111097" lon="6.76237221427">
		<tag k="name" v="Apalset" />
		<tag k="place" v="farm" />
		<tag k="ssr:stedsnr" v="617341" />
	</node>
	<node id="-567847" lat="62.4985685427" lon="6.79772017708">
		<tag k="fixme" v="consider place=hamlet" />
		<tag k="name" v="Solnørdalen" />
		<tag k="place" v="farm" />
		<tag k="ssr:stedsnr" v="617323" />
	</node>
	<node id="-567846" lat="62.4781444403" lon="6.69662776996">
		<tag k="name" v="Løbukta" />
		<tag k="natural" v="bay" />
		<tag k="ssr:stedsnr" v="581978" />
	</node>
	<node id="-567845" lat="62.4722388907" lon="6.90734445264">
		<tag k="name" v="Smånakkane" />
		<tag k="natural" v="slope" />
		<tag k="place" v="locality" />
		<tag k="ssr:stedsnr" v="581723" />
	</node>
	<node id="-567844" lat="62.4757722253" lon="6.69610555851">
		<tag k="name" v="Breivika" />
		<tag k="natural" v="bay" />
		<tag k="ssr:stedsnr" v="581710" />
	</node>
	<node id="-567843" lat="62.4654166664" lon="6.83660556116">
		<tag k="name" v="Hjellen" />
		<tag k="place" v="locality" />
		<tag k="ssr:stedsnr" v="581699" />
	</node>
	<node id="-567842" lat="62.4708555532" lon="6.8016611146">
		<tag k="name" v="Kroppungshola" />
		<tag k="place" v="locality" />
		<tag k="ssr:stedsnr" v="581680" />
	</node>
	<node id="-567841" lat="62.4557944417" lon="6.96870833937">
		<tag k="name" v="Hjellhaugen" />
		<tag k="natural" v="hill" />
		<tag k="place" v="locality" />
		<tag k="ssr:stedsnr" v="581677" />
	</node>
	<node id="-567840" lat="62.4801249984" lon="6.78621944238">
		<tag k="name" v="Stillingshaugen" />
		<tag k="place" v="isolated_dwelling" />
		<tag k="ssr:stedsnr" v="581674" />
	</node>
	<node id="-567839" lat="62.4602416627" lon="6.86982500783">
		<tag k="name" v="Langeneset" />
		<tag k="natural" v="cape" />
		<tag k="ssr:stedsnr" v="581652" />
	</node>
	<node id="-567838" lat="62.506313888" lon="6.8089277771">
		<tag k="name" v="Fagerlia" />
		<tag k="natural" v="slope" />
		<tag k="place" v="locality" />
		<tag k="ssr:stedsnr" v="581647" />
	</node>
	<node id="-567837" lat="62.4848083323" lon="6.80809443576">
		<tag k="name" v="Bakken" />
		<tag k="natural" v="slope" />
		<tag k="place" v="locality" />
		<tag k="ssr:stedsnr" v="581621" />
	</node>
	<node id="-567836" lat="62.4798611113" lon="6.82437221822">
		<tag k="name" v="Lunden" />
		<tag k="place" v="locality" />
		<tag k="ssr:stedsnr" v="581618" />
	</node>
	<node id="-567835" lat="62.4868000019" lon="6.79659721814">
		<tag k="name" v="Kvitnausa" />
		<tag k="natural" v="ridge" />
		<tag k="place" v="locality" />
		<tag k="ssr:stedsnr" v="581617" />
	</node>
	<node id="-567834" lat="62.5219999993" lon="6.83645832514">
		<tag k="name" v="Marsteinlia" />
		<tag k="natural" v="slope" />
		<tag k="place" v="locality" />
		<tag k="ssr:stedsnr" v="581615" />
	</node>
	<node id="-567833" lat="62.5190111102" lon="6.82334721708">
		<tag k="name" v="Storhaugen" />
		<tag k="natural" v="hill" />
		<tag k="place" v="locality" />
		<tag k="ssr:stedsnr" v="581610" />
	</node>
	<node id="-567832" lat="62.4785888873" lon="6.82245832647">
		<tag k="name" v="Lunden" />
		<tag k="place" v="locality" />
		<tag k="ssr:stedsnr" v="581608" />
	</node>
	<node id="-567831" lat="62.4848222188" lon="6.8339638823">
		<tag k="name" v="Olebakkane" />
		<tag k="natural" v="slope" />
		<tag k="place" v="locality" />
		<tag k="ssr:stedsnr" v="581606" />
	</node>
	<node id="-567830" lat="62.5023666694" lon="6.93614722282">
		<tag k="name" v="Kråvassgrova" />
		<tag k="ssr:stedsnr" v="581601" />
		<tag k="waterway" v="stream" />
	</node>
	<node id="-567829" lat="62.4432166672" lon="6.96635000944">
		<tag k="name" v="Litlelinakken" />
		<tag k="natural" v="ridge" />
		<tag k="place" v="locality" />
		<tag k="ssr:stedsnr" v="581597" />
	</node>
	<node id="-567828" lat="62.448658331" lon="6.90371389225">
		<tag k="name" v="Visetnakken" />
		<tag k="natural" v="hill" />
		<tag k="place" v="locality" />
		<tag k="ssr:stedsnr" v="581596" />
	</node>
	<node id="-567827" lat="62.5137972215" lon="6.91663333551">
		<tag k="name" v="Storsteinshaugen" />
		<tag k="natural" v="hill" />
		<tag k="place" v="locality" />
		<tag k="ssr:stedsnr" v="581593" />
	</node>
	<node id="-567826" lat="62.4882694401" lon="6.82243333659">
		<tag k="name" v="Årheim" />
		<tag k="place" v="farm" />
		<tag k="ssr:stedsnr" v="581589" />
	</node>
	<node id="-567825" lat="62.5115666652" lon="6.92359444573">
		<tag k="bridge" v="yes" />
		<tag k="layer" v="1" />
		<tag k="name" v="Kvanndalsbrua" />
		<tag k="ssr:stedsnr" v="581574" />
	</node>
	<node id="-567824" lat="62.483061114" lon="6.95249444827">
		<tag k="name" v="Tuftene" />
		<tag k="natural" v="cape" />
		<tag k="ssr:stedsnr" v="581568" />
	</node>
	<node id="-567823" lat="62.4568305596" lon="6.92862221584">
		<tag k="name" v="Bøen" />
		<tag k="place" v="farm" />
		<tag k="ssr:stedsnr" v="581561" />
	</node>
	<node id="-567822" lat="62.510755554" lon="6.80296667552">
		<tag k="fixme" v="consider natural=peak for the most distinct mountains in the district" />
		<tag k="name" v="Rabben" />
		<tag k="natural" v="hill" />
		<tag k="place" v="locality" />
		<tag k="ssr:stedsnr" v="581550" />
	</node>
	<node id="-567821" lat="62.506041664" lon="6.79902222691">
		<tag k="name" v="Løkane" />
		<tag k="natural" v="wetland" />
		<tag k="ssr:stedsnr" v="581551" />
	</node>
	<node id="-567820" lat="62.5084555586" lon="6.90449722064">
		<tag k="name" v="Dalemyrane" />
		<tag k="natural" v="wetland" />
		<tag k="ssr:stedsnr" v="581545" />
	</node>
	<node id="-567819" lat="62.5062499993" lon="6.90233611234">
		<tag k="name" v="Hjellen" />
		<tag k="place" v="locality" />
		<tag k="ssr:stedsnr" v="581547" />
	</node>
	<node id="-567818" lat="62.4820003302" lon="6.84781436071">
		<tag k="fixme" v="consider place=hamlet" />
		<tag k="name" v="Nedre Lande" />
		<tag k="place" v="farm" />
		<tag k="ssr:stedsnr" v="581543" />
	</node>
	<node id="-567817" lat="62.444588887" lon="6.90508333114">
		<tag k="name" v="Høgenakken" />
		<tag k="natural" v="ridge" />
		<tag k="place" v="locality" />
		<tag k="ssr:stedsnr" v="581530" />
	</node>
	<node id="-567816" lat="62.4647003027" lon="6.83952155694">
		<tag k="name" v="Nøsa" />
		<tag k="natural" v="ridge" />
		<tag k="place" v="locality" />
		<tag k="ssr:stedsnr" v="581522" />
	</node>
	<node id="-567815" lat="62.4584694444" lon="6.77222500849">
		<tag k="name" v="Gausnesflua" />
		<tag k="natural" v="shoal" />
		<tag k="place" v="locality" />
		<tag k="ssr:stedsnr" v="578286" />
	</node>
	<node id="-567814" lat="62.4962944484" lon="6.87681389059">
		<tag k="bridge" v="yes" />
		<tag k="layer" v="1" />
		<tag k="name" v="Tverrelvbrua" />
		<tag k="ssr:stedsnr" v="576228" />
	</node>
	<node id="-567813" lat="62.5121472185" lon="6.98943612009">
		<tag k="name" v="Fossåna" />
		<tag k="ssr:stedsnr" v="572116" />
		<tag k="waterway" v="river" />
	</node>
	<node id="-567812" lat="62.5404805574" lon="6.91479443772">
		<tag k="name" v="Skitnsæterryggen" />
		<tag k="natural" v="hill" />
		<tag k="place" v="locality" />
		<tag k="ssr:stedsnr" v="557824" />
	</node>
	<node id="-567811" lat="62.5340416667" lon="6.90395000626">
		<tag k="alt_name" v="Skållinakken" />
		<tag k="name" v="Skålhaugen" />
		<tag k="natural" v="hill" />
		<tag k="place" v="locality" />
		<tag k="ssr:stedsnr" v="557819" />
	</node>
	<node id="-567810" lat="62.4786861098" lon="6.91856387947">
		<tag k="name" v="Tverrelva" />
		<tag k="ssr:stedsnr" v="557592" />
		<tag k="waterway" v="stream" />
	</node>
	<node id="-567809" lat="62.4499444482" lon="7.05339444582">
		<tag k="name" v="Heivatna" />
		<tag k="natural" v="water" />
		<tag k="ssr:stedsnr" v="557359" />
	</node>
	<node id="-567808" lat="62.4564157722" lon="6.94548746614">
		<tag k="fixme" v="consider place=hamlet" />
		<tag k="name" v="Sæter" />
		<tag k="place" v="farm" />
		<tag k="ssr:stedsnr" v="556413" />
	</node>
	<node id="-567807" lat="62.4631871701" lon="6.85656041042">
		<tag k="alt_name" v="Skardbø" />
		<tag k="fixme" v="consider place=hamlet" />
		<tag k="name" v="Skarbøen" />
		<tag k="place" v="farm" />
		<tag k="ssr:stedsnr" v="556399" />
	</node>
	<node id="-567806" lat="62.4770111153" lon="6.93197222153">
		<tag k="name" v="Vestreelva" />
		<tag k="ssr:stedsnr" v="556385" />
		<tag k="waterway" v="stream" />
	</node>
	<node id="-567805" lat="62.4811361133" lon="6.89025555026">
		<tag k="historic" v="shieling" />
		<tag k="name" v="Amdamssætra" />
		<tag k="place" v="locality" />
		<tag k="ssr:stedsnr" v="556382" />
	</node>
	<node id="-567804" lat="62.4826521058" lon="6.80272144801">
		<tag k="fixme" v="consider place=hamlet" />
		<tag k="name" v="Sjøholtstranda" />
		<tag k="place" v="farm" />
		<tag k="ssr:stedsnr" v="556357" />
	</node>
	<node id="-567803" lat="62.4867934615" lon="6.80826268146">
		<tag k="fixme" v="consider place=hamlet" />
		<tag k="name" v="Li" />
		<tag k="place" v="farm" />
		<tag k="ssr:stedsnr" v="556355" />
	</node>
	<node id="-567802" lat="62.4741694451" lon="6.7075750058">
		<tag k="name" v="Kobbebukta" />
		<tag k="natural" v="bay" />
		<tag k="ssr:stedsnr" v="520716" />
	</node>
	<node id="-567801" lat="62.4546000032" lon="6.97572777155">
		<tag k="name" v="Svarttjønna" />
		<tag k="natural" v="water" />
		<tag k="ssr:stedsnr" v="520693" />
	</node>
	<node id="-567800" lat="62.4445555599" lon="6.89883055723">
		<tag k="name" v="Halsen" />
		<tag k="natural" v="ridge" />
		<tag k="place" v="locality" />
		<tag k="ssr:stedsnr" v="520689" />
	</node>
	<node id="-567799" lat="62.4549416698" lon="6.90057499184">
		<tag k="name" v="Bakkane" />
		<tag k="place" v="farm" />
		<tag k="ssr:stedsnr" v="520671" />
	</node>
	<node id="-567798" lat="62.4976333308" lon="6.78941943689">
		<tag k="name" v="Bøane" />
		<tag k="place" v="locality" />
		<tag k="ssr:stedsnr" v="520653" />
	</node>
	<node id="-567797" lat="62.4847027742" lon="6.74411667027">
		<tag k="name" v="Høgnakken" />
		<tag k="natural" v="ridge" />
		<tag k="place" v="locality" />
		<tag k="ssr:stedsnr" v="520651" />
	</node>
	<node id="-567796" lat="62.5129083358" lon="6.8748555539">
		<tag k="name" v="Trolldalen" />
		<tag k="natural" v="valley" />
		<tag k="place" v="locality" />
		<tag k="ssr:stedsnr" v="520615" />
	</node>
	<node id="-567795" lat="62.5003972201" lon="6.89988611693">
		<tag k="name" v="Fonna" />
		<tag k="place" v="locality" />
		<tag k="ssr:stedsnr" v="520612" />
	</node>
	<node id="-567794" lat="62.4432361114" lon="7.00479166954">
		<tag k="name" v="Høghaugane" />
		<tag k="natural" v="hill" />
		<tag k="place" v="locality" />
		<tag k="ssr:stedsnr" v="520604" />
	</node>
	<node id="-567793" lat="62.5031749975" lon="6.7997499945">
		<tag k="name" v="Nedstefjellet" />
		<tag k="natural" v="slope" />
		<tag k="place" v="locality" />
		<tag k="ssr:stedsnr" v="520602" />
	</node>
	<node id="-567792" lat="62.4631944415" lon="6.84186667276">
		<tag k="name" v="Anekleiva" />
		<tag k="natural" v="slope" />
		<tag k="place" v="locality" />
		<tag k="ssr:stedsnr" v="520593" />
	</node>
	<node id="-567791" lat="62.4970416623" lon="6.97235555366">
		<tag k="alt_name" v="Kvandalsbotnen" />
		<tag k="name" v="Kvanndalsbotnen" />
		<tag k="natural" v="valley" />
		<tag k="place" v="locality" />
		<tag k="ssr:stedsnr" v="520582" />
	</node>
	<node id="-567790" lat="62.4610500039" lon="6.86683611922">
		<tag k="name" v="Arneberget" />
		<tag k="natural" v="hill" />
		<tag k="place" v="locality" />
		<tag k="ssr:stedsnr" v="520578" />
	</node>
	<node id="-567789" lat="62.5179722244" lon="6.80715832693">
		<tag k="name" v="Fremstebotnen" />
		<tag k="natural" v="valley" />
		<tag k="place" v="locality" />
		<tag k="ssr:stedsnr" v="520576" />
	</node>
	<node id="-567788" lat="62.5239222236" lon="6.88887499849">
		<tag k="name" v="Bjønnskarbakken" />
		<tag k="natural" v="slope" />
		<tag k="place" v="locality" />
		<tag k="ssr:stedsnr" v="520556" />
	</node>
	<node id="-567787" lat="62.4869249964" lon="6.81652500511">
		<tag k="name" v="Sjøholtreitane" />
		<tag k="natural" v="slope" />
		<tag k="place" v="locality" />
		<tag k="ssr:stedsnr" v="520536" />
	</node>
	<node id="-567786" lat="62.4717138875" lon="6.89300556096">
		<tag k="name" v="Brunstadberget" />
		<tag k="natural" v="slope" />
		<tag k="place" v="locality" />
		<tag k="ssr:stedsnr" v="520532" />
	</node>
	<node id="-567785" lat="62.467144446" lon="7.02547500502">
		<tag k="name" v="Kjersemfjellet" />
		<tag k="natural" v="hill" />
		<tag k="place" v="locality" />
		<tag k="ssr:stedsnr" v="520526" />
	</node>
	<node id="-567784" lat="62.4433666703" lon="6.92092499063">
		<tag k="name" v="Dektene" />
		<tag k="natural" v="valley" />
		<tag k="place" v="locality" />
		<tag k="ssr:stedsnr" v="520515" />
	</node>
	<node id="-567783" lat="62.5208472183" lon="6.82581111223">
		<tag k="name" v="Dyrsbrauta" />
		<tag k="natural" v="slope" />
		<tag k="place" v="locality" />
		<tag k="ssr:stedsnr" v="520501" />
	</node>
	<node id="-567782" lat="62.4920111073" lon="6.8262472141">
		<tag k="name" v="Eggebotnen" />
		<tag k="natural" v="valley" />
		<tag k="place" v="locality" />
		<tag k="ssr:stedsnr" v="520488" />
	</node>
	<node id="-567781" lat="62.4467777804" lon="6.88678056238">
		<tag k="name" v="Kvitneset" />
		<tag k="natural" v="cape" />
		<tag k="ssr:stedsnr" v="520477" />
	</node>
	<node id="-567780" lat="62.4654333372" lon="6.87907778346">
		<tag k="name" v="Kamben" />
		<tag k="natural" v="hill" />
		<tag k="place" v="locality" />
		<tag k="ssr:stedsnr" v="520474" />
	</node>
	<node id="-567779" lat="62.4685444415" lon="6.8317805624">
		<tag k="alt_name" v="Nedre Vold" />
		<tag k="name" v="Nedrevoll" />
		<tag k="place" v="farm" />
		<tag k="ssr:stedsnr" v="520469" />
	</node>
	<node id="-567778" lat="62.4619444479" lon="6.84273610838">
		<tag k="name" v="Gjerda" />
		<tag k="place" v="farm" />
		<tag k="ssr:stedsnr" v="520466" />
	</node>
	<node id="-567777" lat="62.457325001" lon="6.83810832774">
		<tag k="name" v="Store Klakken" />
		<tag k="natural" v="shoal" />
		<tag k="place" v="locality" />
		<tag k="ssr:stedsnr" v="517285" />
	</node>
	<node id="-567776" lat="62.4573999983" lon="6.91093333481">
		<tag k="name" v="Sollia" />
		<tag k="place" v="hamlet" />
		<tag k="ssr:stedsnr" v="510920" />
	</node>
	<node id="-567774" lat="62.4769334784" lon="6.70855862724">
		<tag k="fixme" v="consider place=hamlet" />
		<tag k="name" v="Tyssa" />
		<tag k="place" v="farm" />
		<tag k="ssr:stedsnr" v="508764" />
	</node>
	<node id="-567773" lat="62.5098416648" lon="6.87905555001">
		<tag k="name" v="Landeheia" />
		<tag k="natural" v="slope" />
		<tag k="place" v="locality" />
		<tag k="ssr:stedsnr" v="497853" />
	</node>
	<node id="-567772" lat="62.5320031408" lon="6.88363115891">
		<tag k="name" v="Svartløkelva" />
		<tag k="ssr:stedsnr" v="497836" />
		<tag k="waterway" v="stream" />
	</node>
	<node id="-567771" lat="62.4535440238" lon="6.90266407397">
		<tag k="alt_name" v="Reite" />
		<tag k="fixme" v="consider place=hamlet" />
		<tag k="name" v="Reitane" />
		<tag k="place" v="farm" />
		<tag k="ssr:stedsnr" v="496381" />
	</node>
	<node id="-567770" lat="62.4596222203" lon="6.77312778504">
		<tag k="name" v="Gausnesodden" />
		<tag k="natural" v="cape" />
		<tag k="ssr:stedsnr" v="496364" />
	</node>
	<node id="-567769" lat="62.4807777805" lon="6.97586111827">
		<tag k="name" v="Kleggeskardet" />
		<tag k="natural" v="valley" />
		<tag k="place" v="locality" />
		<tag k="ssr:stedsnr" v="496343" />
	</node>
	<node id="-567768" lat="62.4776685914" lon="6.8906427013">
		<tag k="historic" v="shieling" />
		<tag k="name" v="Lisetsætra" />
		<tag k="place" v="locality" />
		<tag k="ssr:stedsnr" v="496334" />
	</node>
	<node id="-567767" lat="62.4915777774" lon="6.95470555058">
		<tag k="name" v="Kolda" />
		<tag k="place" v="locality" />
		<tag k="ssr:stedsnr" v="496319" />
	</node>
	<node id="-567766" lat="62.4379777745" lon="7.01423611256">
		<tag k="alt_name" v="Skurfjellet" />
		<tag k="fixme" v="multiple name tags, choose one and add the other to alt_name; consider natural=peak for the most distinct mountains in the district" />
		<tag k="name" v="Høgheia;Skurdfjellet" />
		<tag k="natural" v="hill" />
		<tag k="place" v="locality" />
		<tag k="ssr:stedsnr" v="495685" />
	</node>
	<node id="-567765" lat="62.4441777748" lon="6.9917305585">
		<tag k="name" v="Hjellesætra" />
		<tag k="place" v="neighbourhood" />
		<tag k="ssr:stedsnr" v="484723" />
	</node>
	<node id="-567764" lat="62.5321602334" lon="6.87688886656">
		<tag k="name" v="Svartløken" />
		<tag k="place" v="neighbourhood" />
		<tag k="ssr:stedsnr" v="484718" />
	</node>
	<node id="-567763" lat="62.5162777772" lon="6.93506389023">
		<tag k="name" v="Haugsætra" />
		<tag k="place" v="neighbourhood" />
		<tag k="ssr:stedsnr" v="484709" />
	</node>
	<node id="-567761" lat="62.4776111136" lon="6.72681944825">
		<tag k="name" v="Sauesteinen" />
		<tag k="natural" v="stone" />
		<tag k="ssr:stedsnr" v="460984" />
	</node>
	<node id="-567760" lat="62.4687250027" lon="6.78810000022">
		<tag k="name" v="Øtresteinen" />
		<tag k="natural" v="stone" />
		<tag k="ssr:stedsnr" v="460974" />
	</node>
	<node id="-567759" lat="62.500272224" lon="6.81866665899">
		<tag k="name" v="Geilhaugen" />
		<tag k="place" v="farm" />
		<tag k="ssr:stedsnr" v="460745" />
	</node>
	<node id="-567758" lat="62.4858083376" lon="6.83508055371">
		<tag k="name" v="Nakkane" />
		<tag k="place" v="farm" />
		<tag k="ssr:stedsnr" v="460743" />
	</node>
	<node id="-567757" lat="62.4655972265" lon="6.98213611475">
		<tag k="historic" v="shieling" />
		<tag k="name" v="Grønlistølen" />
		<tag k="place" v="locality" />
		<tag k="ssr:stedsnr" v="460740" />
	</node>
	<node id="-567756" lat="62.4783916654" lon="6.69869723008">
		<tag k="fixme" v="consider seamark:type=rock or natural=shoal" />
		<tag k="name" v="Skotteskjeret" />
		<tag k="place" v="islet" />
		<tag k="ssr:stedsnr" v="460732" />
	</node>
	<node id="-567755" lat="62.4616972216" lon="6.88108332524">
		<tag k="name" v="Briseberget" />
		<tag k="natural" v="hill" />
		<tag k="place" v="locality" />
		<tag k="ssr:stedsnr" v="460728" />
	</node>
	<node id="-567754" lat="62.4638361136" lon="6.78413610471">
		<tag k="name" v="Kyrkjebakkane" />
		<tag k="natural" v="slope" />
		<tag k="place" v="locality" />
		<tag k="ssr:stedsnr" v="460721" />
	</node>
	<node id="-567753" lat="62.4551611089" lon="6.87876945297">
		<tag k="name" v="Komvika" />
		<tag k="natural" v="bay" />
		<tag k="ssr:stedsnr" v="460694" />
	</node>
	<node id="-567752" lat="62.4785111118" lon="6.93664166131">
		<tag k="historic" v="shieling" />
		<tag k="name" v="Skarbøsæterstølen" />
		<tag k="place" v="locality" />
		<tag k="ssr:stedsnr" v="460692" />
	</node>
	<node id="-567751" lat="62.4648944479" lon="6.9448111013">
		<tag k="name" v="Grynukdalen" />
		<tag k="natural" v="valley" />
		<tag k="place" v="locality" />
		<tag k="ssr:stedsnr" v="460690" />
	</node>
	<node id="-567750" lat="62.4764055527" lon="6.94353889418">
		<tag k="name" v="Heiane" />
		<tag k="natural" v="slope" />
		<tag k="place" v="locality" />
		<tag k="ssr:stedsnr" v="460688" />
	</node>
	<node id="-567749" lat="62.4775555528" lon="6.81312499733">
		<tag k="name" v="Presteøyrane" />
		<tag k="place" v="locality" />
		<tag k="ssr:stedsnr" v="460680" />
	</node>
	<node id="-567748" lat="62.458647224" lon="6.79491389727">
		<tag k="name" v="Vikeneset" />
		<tag k="natural" v="cape" />
		<tag k="ssr:stedsnr" v="460677" />
	</node>
	<node id="-567747" lat="62.4672666706" lon="6.79447499981">
		<tag k="name" v="Kamberørene" />
		<tag k="natural" v="ridge" />
		<tag k="place" v="locality" />
		<tag k="ssr:stedsnr" v="460676" />
	</node>
	<node id="-567746" lat="62.4612777773" lon="6.86345000635">
		<tag k="name" v="Naustberget" />
		<tag k="natural" v="cape" />
		<tag k="ssr:stedsnr" v="460673" />
	</node>
	<node id="-567745" lat="62.4690944437" lon="6.82186943498">
		<tag k="name" v="Langhaugen" />
		<tag k="natural" v="hill" />
		<tag k="place" v="locality" />
		<tag k="ssr:stedsnr" v="460670" />
	</node>
	<node id="-567744" lat="62.4867638895" lon="6.82800555745">
		<tag k="name" v="Hjellane" />
		<tag k="place" v="farm" />
		<tag k="ssr:stedsnr" v="460663" />
	</node>
	<node id="-567743" lat="62.499347225" lon="6.819088887">
		<tag k="name" v="Brauta" />
		<tag k="natural" v="slope" />
		<tag k="place" v="locality" />
		<tag k="ssr:stedsnr" v="460661" />
	</node>
	<node id="-567742" lat="62.4580416635" lon="7.001519441">
		<tag k="name" v="Åsen" />
		<tag k="natural" v="slope" />
		<tag k="place" v="locality" />
		<tag k="ssr:stedsnr" v="460654" />
	</node>
	<node id="-567741" lat="62.5036194433" lon="6.88116111386">
		<tag k="name" v="Litleskaret" />
		<tag k="natural" v="valley" />
		<tag k="place" v="locality" />
		<tag k="ssr:stedsnr" v="460650" />
	</node>
	<node id="-567740" lat="62.4721722235" lon="6.82832222033">
		<tag k="name" v="Strupen" />
		<tag k="natural" v="valley" />
		<tag k="place" v="locality" />
		<tag k="ssr:stedsnr" v="460637" />
	</node>
	<node id="-567739" lat="62.501780554" lon="6.84444721432">
		<tag k="name" v="Heimsteskaret" />
		<tag k="natural" v="valley" />
		<tag k="place" v="locality" />
		<tag k="ssr:stedsnr" v="460616" />
	</node>
	<node id="-567738" lat="62.4934555556" lon="6.81639165858">
		<tag k="name" v="Løkjingsmyra" />
		<tag k="natural" v="wetland" />
		<tag k="ssr:stedsnr" v="460606" />
	</node>
	<node id="-567737" lat="62.5110500006" lon="6.92335556188">
		<tag k="name" v="Giskemodalen" />
		<tag k="natural" v="valley" />
		<tag k="place" v="locality" />
		<tag k="ssr:stedsnr" v="460604" />
	</node>
	<node id="-567736" lat="62.4631583334" lon="6.79087222311">
		<tag k="name" v="Myrholten" />
		<tag k="natural" v="hill" />
		<tag k="place" v="locality" />
		<tag k="ssr:stedsnr" v="460601" />
	</node>
	<node id="-567735" lat="62.4751888867" lon="6.9175805502">
		<tag k="name" v="Småbotnen" />
		<tag k="natural" v="valley" />
		<tag k="place" v="locality" />
		<tag k="ssr:stedsnr" v="460595" />
	</node>
	<node id="-567734" lat="62.4521277756" lon="6.94574721829">
		<tag k="name" v="Raudgrovmyrane" />
		<tag k="natural" v="wetland" />
		<tag k="ssr:stedsnr" v="460596" />
	</node>
	<node id="-567733" lat="62.4489416656" lon="7.00175833819">
		<tag k="name" v="Høghaugane" />
		<tag k="natural" v="slope" />
		<tag k="place" v="locality" />
		<tag k="ssr:stedsnr" v="460590" />
	</node>
	<node id="-567732" lat="62.454638885" lon="6.95773056415">
		<tag k="name" v="Kvervebakkane" />
		<tag k="natural" v="slope" />
		<tag k="place" v="locality" />
		<tag k="ssr:stedsnr" v="460589" />
	</node>
	<node id="-567731" lat="62.4367500037" lon="7.00471666541">
		<tag k="name" v="Skurbotnen" />
		<tag k="natural" v="valley" />
		<tag k="place" v="locality" />
		<tag k="ssr:stedsnr" v="460586" />
	</node>
	<node id="-567730" lat="62.4505638864" lon="6.89085277074">
		<tag k="name" v="Øyrane" />
		<tag k="place" v="island" />
		<tag k="ssr:stedsnr" v="460557" />
	</node>
	<node id="-567729" lat="62.4623972244" lon="6.83138333331">
		<tag k="name" v="Einehaugen" />
		<tag k="natural" v="hill" />
		<tag k="place" v="locality" />
		<tag k="ssr:stedsnr" v="460546" />
	</node>
	<node id="-567728" lat="62.4667722244" lon="6.80615555908">
		<tag k="name" v="Middagsfjellet" />
		<tag k="natural" v="hill" />
		<tag k="place" v="locality" />
		<tag k="ssr:stedsnr" v="460543" />
	</node>
	<node id="-567727" lat="62.4487666654" lon="6.88664722903">
		<tag k="name" v="Visetneset" />
		<tag k="natural" v="cape" />
		<tag k="ssr:stedsnr" v="456316" />
	</node>
	<node id="-567726" lat="62.4603138863" lon="6.87134444539">
		<tag k="name" v="Langeneset" />
		<tag k="natural" v="cape" />
		<tag k="ssr:stedsnr" v="456313" />
	</node>
	<node id="-567725" lat="62.5166694485" lon="6.93487777348">
		<tag k="alt_name" v="Byrkjelihaugsetra" />
		<tag k="historic" v="shieling" />
		<tag k="name" v="Haugsætra" />
		<tag k="place" v="locality" />
		<tag k="ssr:stedsnr" v="436850" />
	</node>
	<node id="-567724" lat="62.5074527807" lon="6.78865277827">
		<tag k="name" v="Løkane" />
		<tag k="ssr:stedsnr" v="436845" />
		<tag k="waterway" v="stream" />
	</node>
	<node id="-567723" lat="62.5252249992" lon="6.91543334211">
		<tag k="alt_name" v="Svartvatnet" />
		<tag k="name" v="Nysætervatnet" />
		<tag k="natural" v="water" />
		<tag k="ssr:stedsnr" v="436813" />
		<tag k="water" v="lake" />
	</node>
	<node id="-567722" lat="62.452272967" lon="6.91245959305">
		<tag k="fixme" v="consider place=hamlet" />
		<tag k="name" v="Hjellereiten" />
		<tag k="place" v="farm" />
		<tag k="ssr:stedsnr" v="436338" />
	</node>
	<node id="-567721" lat="62.4613749975" lon="6.87313055375">
		<tag k="name" v="Vestre" />
		<tag k="place" v="hamlet" />
		<tag k="ssr:stedsnr" v="436325" />
	</node>
	<node id="-567720" lat="62.4639975586" lon="6.91260176634">
		<tag k="name" v="Sætregrova" />
		<tag k="ssr:stedsnr" v="436319" />
		<tag k="waterway" v="stream" />
	</node>
	<node id="-567719" lat="62.4715749961" lon="7.01532221478">
		<tag k="alt_name" v="Mjågskaret" />
		<tag k="name" v="Mjogskardet" />
		<tag k="natural" v="valley" />
		<tag k="place" v="locality" />
		<tag k="ssr:stedsnr" v="436308" />
	</node>
	<node id="-567718" lat="62.4874111143" lon="6.89249166342">
		<tag k="name" v="Stiggrova" />
		<tag k="old_name" v="Stigrova" />
		<tag k="ssr:stedsnr" v="436284" />
		<tag k="waterway" v="stream" />
	</node>
	<node id="-567717" lat="62.4902689288" lon="6.82611275452">
		<tag k="fixme" v="consider place=hamlet" />
		<tag k="name" v="Egge" />
		<tag k="place" v="farm" />
		<tag k="ssr:stedsnr" v="436271" />
	</node>
	<node id="-567716" lat="62.4364868035" lon="6.91372871424">
		<tag k="name" v="Bjørkeneset" />
		<tag k="place" v="locality" />
		<tag k="ssr:stedsnr" v="435710" />
	</node>
	<node id="-567715" lat="62.4643333378" lon="6.77283611401">
		<tag k="name" v="Gausneset" />
		<tag k="natural" v="cape" />
		<tag k="ssr:stedsnr" v="435377" />
	</node>
	<node id="-567714" lat="62.4674641216" lon="6.82703776428">
		<tag k="fixme" v="consider place=hamlet" />
		<tag k="name" v="Nedrevoll" />
		<tag k="place" v="farm" />
		<tag k="ssr:stedsnr" v="435374" />
	</node>
	<node id="-567713" lat="62.4680444409" lon="6.92491388397">
		<tag k="name" v="Vestresætra" />
		<tag k="place" v="neighbourhood" />
		<tag k="ssr:stedsnr" v="424713" />
	</node>
	<node id="-567712" lat="62.5110453088" lon="6.81899523594">
		<tag k="fixme" v="consider place=hamlet" />
		<tag k="name" v="Akslevollen" />
		<tag k="place" v="farm" />
		<tag k="ssr:stedsnr" v="254866" />
	</node>
	<node id="-567711" lat="62.4234999999" lon="7.09433333001">
		<tag k="name" v="Isbotnen" />
		<tag k="natural" v="valley" />
		<tag k="old_name" v="Isbotn" />
		<tag k="place" v="locality" />
		<tag k="ssr:stedsnr" v="253682" />
	</node>
	<node id="-567710" lat="62.4651944418" lon="6.95160556393">
		<tag k="alt_name" v="Mysenykjen;Mosenyken" />
		<tag k="name" v="Mysenyken" />
		<tag k="natural" v="hill" />
		<tag k="old_name" v="Møsenykjen" />
		<tag k="place" v="locality" />
		<tag k="ssr:stedsnr" v="253407" />
	</node>
	<node id="-567709" lat="62.4739277746" lon="6.95135556226">
		<tag k="fixme" v="consider natural=peak for the most distinct mountains in the district" />
		<tag k="name" v="Vestrefjellet" />
		<tag k="natural" v="hill" />
		<tag k="place" v="locality" />
		<tag k="ssr:stedsnr" v="253398" />
	</node>
	<node id="-567708" lat="62.4796499974" lon="6.93631110493">
		<tag k="name" v="Skarbøsætra" />
		<tag k="place" v="locality" />
		<tag k="ssr:stedsnr" v="253378" />
	</node>
	<node id="-567707" lat="62.4770777765" lon="6.90041944128">
		<tag k="alt_name" v="Lisetsætra, gamle" />
		<tag k="historic" v="shieling" />
		<tag k="name" v="Gamle Lisetsætra" />
		<tag k="place" v="locality" />
		<tag k="ssr:stedsnr" v="253377" />
	</node>
	<node id="-567706" lat="62.4863833365" lon="6.97967222909">
		<tag k="fixme" v="consider natural=peak for the most distinct mountains in the district" />
		<tag k="name" v="Geitenibba" />
		<tag k="natural" v="hill" />
		<tag k="place" v="locality" />
		<tag k="ssr:stedsnr" v="253362" />
	</node>
	<node id="-567705" lat="62.4841134118" lon="6.8607317236">
		<tag k="fixme" v="consider place=hamlet" />
		<tag k="name" v="Gjerde" />
		<tag k="place" v="farm" />
		<tag k="ssr:stedsnr" v="253346" />
	</node>
	<node id="-567704" lat="62.4975388914" lon="6.91156111434">
		<tag k="name" v="Heivatnet" />
		<tag k="natural" v="water" />
		<tag k="ssr:stedsnr" v="253337" />
	</node>
	<node id="-567703" lat="62.4961222206" lon="6.94991111425">
		<tag k="fixme" v="consider natural=peak for the most distinct mountains in the district" />
		<tag k="name" v="Koldafjellet" />
		<tag k="natural" v="hill" />
		<tag k="place" v="locality" />
		<tag k="ssr:stedsnr" v="253335" />
	</node>
	<node id="-567702" lat="62.4962552878" lon="6.78638979373">
		<tag k="name" v="Solnørdalselva" />
		<tag k="ssr:stedsnr" v="269094" />
		<tag k="waterway" v="river" />
	</node>
	<node id="-567701" lat="62.5173666644" lon="6.83255278213">
		<tag k="name" v="Liasætra" />
		<tag k="place" v="neighbourhood" />
		<tag k="ssr:stedsnr" v="242695" />
	</node>
	<node id="-567700" lat="62.4605999979" lon="6.8990166667">
		<tag k="name" v="Hatlebakken" />
		<tag k="place" v="farm" />
		<tag k="ssr:stedsnr" v="217705" />
	</node>
	<node id="-567699" lat="62.4605833294" lon="6.90301110302">
		<tag k="name" v="Massplassen" />
		<tag k="place" v="farm" />
		<tag k="ssr:stedsnr" v="217706" />
	</node>
	<node id="-567698" lat="62.4557361144" lon="6.91193889055">
		<tag k="name" v="Lysholen" />
		<tag k="place" v="farm" />
		<tag k="ssr:stedsnr" v="217703" />
	</node>
	<node id="-567697" lat="62.4903861075" lon="6.82962499901">
		<tag k="name" v="Eggehjellen" />
		<tag k="place" v="farm" />
		<tag k="ssr:stedsnr" v="217697" />
	</node>
	<node id="-567696" lat="62.4825527814" lon="6.70450832718">
		<tag k="name" v="Rotneset" />
		<tag k="natural" v="cape" />
		<tag k="ssr:stedsnr" v="217691" />
	</node>
	<node id="-567695" lat="62.4413305559" lon="6.9069499911">
		<tag k="name" v="Kolvet" />
		<tag k="natural" v="valley" />
		<tag k="place" v="locality" />
		<tag k="ssr:stedsnr" v="217686" />
	</node>
	<node id="-567694" lat="62.4779277771" lon="6.74970834238">
		<tag k="name" v="Apalsethaugen" />
		<tag k="place" v="farm" />
		<tag k="ssr:stedsnr" v="217672" />
	</node>
	<node id="-567693" lat="62.4702027764" lon="6.8053222209">
		<tag k="name" v="Skråvikhammaren" />
		<tag k="natural" v="cliff" />
		<tag k="ssr:stedsnr" v="217655" />
	</node>
	<node id="-567692" lat="62.4686638849" lon="6.88329444837">
		<tag k="name" v="Demmingsmyra" />
		<tag k="natural" v="wetland" />
		<tag k="ssr:stedsnr" v="217652" />
	</node>
	<node id="-567691" lat="62.472197221" lon="6.85819165947">
		<tag k="name" v="Brendhaugen" />
		<tag k="natural" v="hill" />
		<tag k="place" v="locality" />
		<tag k="ssr:stedsnr" v="217631" />
	</node>
	<node id="-567690" lat="62.461530555" lon="6.94157778676">
		<tag k="name" v="Skardalen" />
		<tag k="natural" v="valley" />
		<tag k="place" v="locality" />
		<tag k="ssr:stedsnr" v="217624" />
	</node>
	<node id="-567689" lat="62.4866833338" lon="6.85799721987">
		<tag k="name" v="Gjerdsnakken" />
		<tag k="natural" v="ridge" />
		<tag k="place" v="locality" />
		<tag k="ssr:stedsnr" v="217623" />
	</node>
	<node id="-567688" lat="62.4457805522" lon="6.94140278175">
		<tag k="name" v="Hallvardslia" />
		<tag k="natural" v="slope" />
		<tag k="place" v="locality" />
		<tag k="ssr:stedsnr" v="217611" />
	</node>
	<node id="-567687" lat="62.4928249996" lon="6.84280276887">
		<tag k="name" v="Gamlesætermarka" />
		<tag k="natural" v="slope" />
		<tag k="place" v="locality" />
		<tag k="ssr:stedsnr" v="217586" />
	</node>
	<node id="-567686" lat="62.5051416686" lon="6.86182499204">
		<tag k="name" v="Sjøholtheia" />
		<tag k="natural" v="slope" />
		<tag k="place" v="locality" />
		<tag k="ssr:stedsnr" v="217566" />
	</node>
	<node id="-567685" lat="62.494697225" lon="6.88100833221">
		<tag k="name" v="Gamlesætra" />
		<tag k="place" v="locality" />
		<tag k="ssr:stedsnr" v="217564" />
	</node>
	<node id="-567684" lat="62.5115777769" lon="6.93521110413">
		<tag k="fixme" v="consider highway=path" />
		<tag k="highway" v="track" />
		<tag k="name" v="Kvanndalsvegen" />
		<tag k="ssr:stedsnr" v="217565" />
	</node>
	<node id="-567683" lat="62.4462527806" lon="6.91104999459">
		<tag k="name" v="Øggardsbakkane" />
		<tag k="natural" v="slope" />
		<tag k="place" v="locality" />
		<tag k="ssr:stedsnr" v="217542" />
	</node>
	<node id="-567682" lat="62.4602000001" lon="6.88292499031">
		<tag k="name" v="Høgbøen" />
		<tag k="natural" v="hill" />
		<tag k="place" v="locality" />
		<tag k="ssr:stedsnr" v="217543" />
	</node>
	<node id="-567681" lat="62.4603749957" lon="6.94832222378">
		<tag k="name" v="Høgberget" />
		<tag k="natural" v="slope" />
		<tag k="place" v="locality" />
		<tag k="ssr:stedsnr" v="217529" />
	</node>
	<node id="-567680" lat="62.5068555593" lon="6.9287444415">
		<tag k="name" v="Smånebbene" />
		<tag k="natural" v="hill" />
		<tag k="place" v="locality" />
		<tag k="ssr:stedsnr" v="217527" />
	</node>
	<node id="-567679" lat="62.5140472251" lon="6.94054444818">
		<tag k="name" v="Langrystene" />
		<tag k="natural" v="slope" />
		<tag k="place" v="locality" />
		<tag k="ssr:stedsnr" v="217528" />
	</node>
	<node id="-567678" lat="62.4392249958" lon="7.04200278385">
		<tag k="name" v="Høgreinene" />
		<tag k="natural" v="hill" />
		<tag k="place" v="locality" />
		<tag k="ssr:stedsnr" v="217521" />
	</node>
	<node id="-567677" lat="62.4827611147" lon="6.94278332672">
		<tag k="name" v="Røra" />
		<tag k="natural" v="slope" />
		<tag k="place" v="locality" />
		<tag k="ssr:stedsnr" v="217516" />
	</node>
	<node id="-567676" lat="62.513919442" lon="6.81363889455">
		<tag k="name" v="Akslevollbotnen" />
		<tag k="natural" v="valley" />
		<tag k="place" v="locality" />
		<tag k="ssr:stedsnr" v="217509" />
	</node>
	<node id="-567675" lat="62.4969500019" lon="6.81298611045">
		<tag k="name" v="Dalsskaret" />
		<tag k="natural" v="valley" />
		<tag k="place" v="locality" />
		<tag k="ssr:stedsnr" v="217496" />
	</node>
	<node id="-567674" lat="62.4997277737" lon="6.79923055014">
		<tag k="alt_name" v="Haugelva;Sætreelva" />
		<tag k="name" v="Dalselva" />
		<tag k="ssr:stedsnr" v="217494" />
		<tag k="waterway" v="river" />
	</node>
	<node id="-567673" lat="62.4524388851" lon="6.89790556186">
		<tag k="junction" v="yes" />
		<tag k="name" v="Kristianskiftet" />
		<tag k="place" v="locality" />
		<tag k="ssr:stedsnr" v="217489" />
	</node>
	<node id="-567672" lat="62.4743027781" lon="6.8755333386">
		<tag k="fixme" v="consider highway=path" />
		<tag k="highway" v="track" />
		<tag k="name" v="Kontrasvingen" />
		<tag k="ssr:stedsnr" v="217482" />
	</node>
	<node id="-567671" lat="62.4748694411" lon="6.86614999861">
		<tag k="name" v="Giskemomyrane" />
		<tag k="natural" v="wetland" />
		<tag k="ssr:stedsnr" v="217479" />
	</node>
	<node id="-567670" lat="62.4415222258" lon="6.90475555454">
		<tag k="name" v="Kjerringa" />
		<tag k="natural" v="cape" />
		<tag k="ssr:stedsnr" v="214290" />
	</node>
	<node id="-567669" lat="62.466724998" lon="6.77358889125">
		<tag k="name" v="Lungeneset" />
		<tag k="natural" v="cape" />
		<tag k="ssr:stedsnr" v="213356" />
	</node>
	<node id="-567668" lat="62.484122218" lon="6.86335832908">
		<tag k="name" v="Gjerde" />
		<tag k="place" v="farm" />
		<tag k="ssr:stedsnr" v="207893" />
	</node>
	<node id="-567667" lat="62.5042009937" lon="6.81154802773">
		<tag k="fixme" v="consider place=hamlet" />
		<tag k="name" v="Barlindhaugen" />
		<tag k="place" v="farm" />
		<tag k="ssr:stedsnr" v="194843" />
	</node>
	<node id="-567666" lat="62.5326451452" lon="6.87372612439">
		<tag k="historic" v="shieling" />
		<tag k="name" v="Svartløken" />
		<tag k="place" v="locality" />
		<tag k="ssr:stedsnr" v="193838" />
	</node>
	<node id="-567665" lat="62.5194555589" lon="6.79353611353">
		<tag k="fixme" v="consider natural=peak for the most distinct mountains in the district" />
		<tag k="name" v="Sætrefjellet" />
		<tag k="natural" v="hill" />
		<tag k="place" v="locality" />
		<tag k="ssr:stedsnr" v="193823" />
	</node>
	<node id="-567664" lat="62.4423299218" lon="6.91732050817">
		<tag k="name" v="Dektene" />
		<tag k="natural" v="wetland" />
		<tag k="ssr:stedsnr" v="193390" />
	</node>
	<node id="-567663" lat="62.4480209188" lon="6.92876410324">
		<tag k="fixme" v="consider place=hamlet" />
		<tag k="name" v="Hallvardsætra" />
		<tag k="place" v="farm" />
		<tag k="ssr:stedsnr" v="193383" />
	</node>
	<node id="-567662" lat="62.4516222242" lon="7.02841389256">
		<tag k="name" v="Grytalia" />
		<tag k="natural" v="slope" />
		<tag k="place" v="locality" />
		<tag k="ssr:stedsnr" v="193377" />
	</node>
	<node id="-567661" lat="62.463197221" lon="6.99268333643">
		<tag k="fixme" v="multiple name tags, choose one and add the other to alt_name" />
		<tag k="name" v="Grønliløken;Løken" />
		<tag k="ssr:stedsnr" v="193361" />
		<tag k="waterway" v="stream" />
	</node>
	<node id="-567660" lat="62.4622509796" lon="6.78611392797">
		<tag k="fixme" v="consider place=hamlet" />
		<tag k="name" v="Gausneset" />
		<tag k="place" v="farm" />
		<tag k="ssr:stedsnr" v="193352" />
	</node>
	<node id="-567659" lat="62.465566667" lon="6.93720554836">
		<tag k="name" v="Grynyken" />
		<tag k="natural" v="hill" />
		<tag k="old_name" v="Grynykjen" />
		<tag k="place" v="locality" />
		<tag k="ssr:stedsnr" v="193337" />
	</node>
	<node id="-567658" lat="62.4719416642" lon="6.80596666763">
		<tag k="name" v="Skråvika" />
		<tag k="natural" v="bay" />
		<tag k="ssr:stedsnr" v="193333" />
	</node>
	<node id="-567657" lat="62.4945194409" lon="6.77648610948">
		<tag k="alt_name" v="Dekkavatnet" />
		<tag k="name" v="Dekkjavatnet" />
		<tag k="natural" v="water" />
		<tag k="ssr:stedsnr" v="193288" />
	</node>
	<node id="-567656" lat="62.4968416661" lon="6.97768333295">
		<tag k="alt_name" v="Sollikvanndalen" />
		<tag k="name" v="Kvanndalen" />
		<tag k="natural" v="valley" />
		<tag k="place" v="locality" />
		<tag k="ssr:stedsnr" v="193280" />
	</node>
	<node id="-567655" lat="62.4923055521" lon="6.92252777656">
		<tag k="fixme" v="consider natural=peak for the most distinct mountains in the district" />
		<tag k="name" v="Tovardane" />
		<tag k="natural" v="hill" />
		<tag k="place" v="locality" />
		<tag k="ssr:stedsnr" v="193279" />
	</node>
	<node id="-567654" lat="62.4826277797" lon="6.81376388036">
		<tag k="name" v="Sjøholt" />
		<tag k="place" v="village" />
		<tag k="ssr:stedsnr" v="192341" />
	</node>
	<node id="-567653" lat="62.4804030272" lon="6.77228676089">
		<tag k="fixme" v="consider place=hamlet" />
		<tag k="name" v="Storvik" />
		<tag k="place" v="farm" />
		<tag k="ssr:stedsnr" v="192339" />
	</node>
	<node id="-567652" lat="62.5061666688" lon="6.94232777383">
		<tag k="name" v="Kvanndalssætra" />
		<tag k="place" v="neighbourhood" />
		<tag k="ssr:stedsnr" v="181738" />
	</node>
	<node id="-567651" lat="62.4852055594" lon="6.80650832644">
		<tag k="name" v="Liaelva" />
		<tag k="ssr:stedsnr" v="163795" />
		<tag k="waterway" v="river" />
	</node>
	<node id="-567650" lat="62.4771305547" lon="6.70367778695">
		<tag k="name" v="Sandingen" />
		<tag k="natural" v="beach" />
		<tag k="place" v="locality" />
		<tag k="ssr:stedsnr" v="156974" />
	</node>
	<node id="-567649" lat="62.4907361149" lon="6.77638888959">
		<tag k="name" v="Dekkja" />
		<tag k="natural" v="valley" />
		<tag k="place" v="locality" />
		<tag k="ssr:stedsnr" v="156969" />
	</node>
	<node id="-567648" lat="62.48232778" lon="6.85713333883">
		<tag k="name" v="Bøen" />
		<tag k="place" v="farm" />
		<tag k="ssr:stedsnr" v="156702" />
	</node>
	<node id="-567647" lat="62.4619027766" lon="6.82324167477">
		<tag k="name" v="Litlefjellet" />
		<tag k="natural" v="hill" />
		<tag k="place" v="locality" />
		<tag k="ssr:stedsnr" v="156670" />
	</node>
	<node id="-567646" lat="62.4734999979" lon="6.89876388257">
		<tag k="name" v="Mikkelskaret" />
		<tag k="natural" v="valley" />
		<tag k="place" v="locality" />
		<tag k="ssr:stedsnr" v="156661" />
	</node>
	<node id="-567645" lat="62.4699999989" lon="6.92956388898">
		<tag k="name" v="Blensetnakken" />
		<tag k="natural" v="hill" />
		<tag k="place" v="locality" />
		<tag k="ssr:stedsnr" v="156643" />
	</node>
	<node id="-567644" lat="62.4614305589" lon="6.86244444115">
		<tag k="name" v="Skarbøvika" />
		<tag k="natural" v="bay" />
		<tag k="ssr:stedsnr" v="156630" />
	</node>
	<node id="-567643" lat="62.4649999989" lon="6.9252166581">
		<tag k="name" v="Rørene" />
		<tag k="natural" v="ridge" />
		<tag k="place" v="locality" />
		<tag k="ssr:stedsnr" v="156625" />
	</node>
	<node id="-567642" lat="62.5181777754" lon="6.84765832638">
		<tag k="name" v="Tverrbottslia" />
		<tag k="natural" v="slope" />
		<tag k="place" v="locality" />
		<tag k="ssr:stedsnr" v="156614" />
	</node>
	<node id="-567641" lat="62.5259111108" lon="6.85097777289">
		<tag k="name" v="Løklia" />
		<tag k="natural" v="slope" />
		<tag k="place" v="locality" />
		<tag k="ssr:stedsnr" v="156612" />
	</node>
	<node id="-567640" lat="62.4802111101" lon="6.84973889838">
		<tag k="name" v="Dalane" />
		<tag k="natural" v="valley" />
		<tag k="place" v="locality" />
		<tag k="ssr:stedsnr" v="156609" />
	</node>
	<node id="-567639" lat="62.5008861089" lon="6.81363333139">
		<tag k="name" v="Høgstehaugen" />
		<tag k="natural" v="hill" />
		<tag k="place" v="locality" />
		<tag k="ssr:stedsnr" v="156604" />
	</node>
	<node id="-567638" lat="62.495763892" lon="6.98376388976">
		<tag k="name" v="Skredene" />
		<tag k="natural" v="slope" />
		<tag k="place" v="locality" />
		<tag k="ssr:stedsnr" v="156598" />
	</node>
	<node id="-567637" lat="62.4824333351" lon="6.83316112062">
		<tag k="name" v="Neset" />
		<tag k="place" v="locality" />
		<tag k="ssr:stedsnr" v="156583" />
	</node>
	<node id="-567636" lat="62.4882500039" lon="6.81443888999">
		<tag k="name" v="Risteigen" />
		<tag k="place" v="locality" />
		<tag k="ssr:stedsnr" v="156579" />
	</node>
	<node id="-567635" lat="62.503433331" lon="6.96258333016">
		<tag k="name" v="Tverrligrova" />
		<tag k="ssr:stedsnr" v="156575" />
		<tag k="waterway" v="stream" />
	</node>
	<node id="-567634" lat="62.5112333329" lon="6.83529444267">
		<tag k="fixme" v="consider natural=peak for the most distinct mountains in the district" />
		<tag k="name" v="Strandasæternakken" />
		<tag k="natural" v="hill" />
		<tag k="place" v="locality" />
		<tag k="ssr:stedsnr" v="156571" />
	</node>
	<node id="-567633" lat="62.5042916631" lon="6.80578888256">
		<tag k="name" v="Reset" />
		<tag k="natural" v="ridge" />
		<tag k="place" v="locality" />
		<tag k="ssr:stedsnr" v="156565" />
	</node>
	<node id="-567632" lat="62.4831833344" lon="6.85913333283">
		<tag k="name" v="Nylendet" />
		<tag k="place" v="locality" />
		<tag k="ssr:stedsnr" v="156556" />
	</node>
	<node id="-567631" lat="62.5057916709" lon="6.9663222175">
		<tag k="name" v="Tverrlia" />
		<tag k="natural" v="slope" />
		<tag k="place" v="locality" />
		<tag k="ssr:stedsnr" v="156551" />
	</node>
	<node id="-567630" lat="62.4397416709" lon="6.94120554939">
		<tag k="name" v="Hallvardsbotnen" />
		<tag k="natural" v="valley" />
		<tag k="place" v="locality" />
		<tag k="ssr:stedsnr" v="156548" />
	</node>
	<node id="-567629" lat="62.5124638925" lon="6.93285556469">
		<tag k="name" v="Storøyna" />
		<tag k="place" v="island" />
		<tag k="ssr:stedsnr" v="156544" />
	</node>
	<node id="-567628" lat="62.5170611098" lon="6.97125556287">
		<tag k="name" v="Skinnbrokslættet" />
		<tag k="natural" v="slope" />
		<tag k="place" v="locality" />
		<tag k="ssr:stedsnr" v="156539" />
	</node>
	<node id="-567627" lat="62.4866999972" lon="6.84079999381">
		<tag k="name" v="Øvsteskjerva" />
		<tag k="natural" v="ridge" />
		<tag k="place" v="locality" />
		<tag k="ssr:stedsnr" v="156536" />
	</node>
	<node id="-567626" lat="62.4616666669" lon="6.91051667168">
		<tag k="name" v="Massnakken" />
		<tag k="natural" v="hill" />
		<tag k="place" v="locality" />
		<tag k="ssr:stedsnr" v="156529" />
	</node>
	<node id="-567625" lat="62.4866611112" lon="6.86084999729">
		<tag k="name" v="Skaret" />
		<tag k="natural" v="valley" />
		<tag k="place" v="locality" />
		<tag k="ssr:stedsnr" v="156520" />
	</node>
	<node id="-567624" lat="62.5104472207" lon="6.96845000335">
		<tag k="name" v="Forslia" />
		<tag k="natural" v="slope" />
		<tag k="place" v="locality" />
		<tag k="ssr:stedsnr" v="156512" />
	</node>
	<node id="-567623" lat="62.4481055544" lon="6.98473888278">
		<tag k="name" v="Kvitlane" />
		<tag k="natural" v="cape" />
		<tag k="ssr:stedsnr" v="156506" />
	</node>
	<node id="-567622" lat="62.47995833" lon="6.81139723123">
		<tag k="name" v="Måsøyra" />
		<tag k="place" v="island" />
		<tag k="ssr:stedsnr" v="156485" />
	</node>
	<node id="-567621" lat="62.4807694428" lon="6.81994166034">
		<tag k="name" v="Utsikta" />
		<tag k="natural" v="hill" />
		<tag k="place" v="locality" />
		<tag k="ssr:stedsnr" v="156484" />
	</node>
	<node id="-567620" lat="62.4520197426" lon="6.88215484843">
		<tag k="name" v="Kleivaneset" />
		<tag k="natural" v="cape" />
		<tag k="ssr:stedsnr" v="152339" />
	</node>
	<node id="-567619" lat="62.458188892" lon="6.88031944605">
		<tag k="bridge" v="yes" />
		<tag k="layer" v="1" />
		<tag k="name" v="Vestrebrua" />
		<tag k="ssr:stedsnr" v="152253" />
	</node>
	<node id="-567618" lat="62.4736529213" lon="6.70890088135">
		<tag k="name" v="Giljeneset" />
		<tag k="natural" v="cape" />
		<tag k="ssr:stedsnr" v="144749" />
	</node>
	<node id="-567617" lat="62.5158971294" lon="6.79411222617">
		<tag k="fixme" v="consider natural=peak for the most distinct mountains in the district" />
		<tag k="name" v="Haugfjellet" />
		<tag k="natural" v="hill" />
		<tag k="place" v="locality" />
		<tag k="ssr:stedsnr" v="133869" />
	</node>
	<node id="-567616" lat="62.5024027758" lon="6.91131945107">
		<tag k="fixme" v="consider natural=peak for the most distinct mountains in the district" />
		<tag k="name" v="Giskemonibba" />
		<tag k="natural" v="hill" />
		<tag k="place" v="locality" />
		<tag k="ssr:stedsnr" v="133848" />
	</node>
	<node id="-567615" lat="62.5090824003" lon="6.83610467658">
		<tag k="historic" v="shieling" />
		<tag k="name" v="Strandasætra" />
		<tag k="place" v="locality" />
		<tag k="ssr:stedsnr" v="133845" />
	</node>
	<node id="-567614" lat="62.5461027792" lon="6.86471389409">
		<tag k="alt_name" v="Svartløkvatnet" />
		<tag k="name" v="Tomrevatnet" />
		<tag k="natural" v="water" />
		<tag k="ssr:stedsnr" v="132834" />
		<tag k="water" v="lake" />
	</node>
	<node id="-567613" lat="62.4194166646" lon="7.06575833993">
		<tag k="name" v="Litlebotnsvatnet" />
		<tag k="natural" v="water" />
		<tag k="old_name" v="Litlebottsvatnet" />
		<tag k="ssr:stedsnr" v="132655" />
	</node>
	<node id="-567612" lat="62.4221722238" lon="7.10565000866">
		<tag k="fixme" v="consider natural=peak for the most distinct mountains in the district" />
		<tag k="name" v="Storbotnshornet" />
		<tag k="natural" v="hill" />
		<tag k="old_name" v="Storbotthornet" />
		<tag k="place" v="locality" />
		<tag k="ssr:stedsnr" v="132654" />
	</node>
	<node id="-567611" lat="62.4622916664" lon="6.97346666144">
		<tag k="historic" v="shieling" />
		<tag k="name" v="Sollisætra" />
		<tag k="place" v="locality" />
		<tag k="ssr:stedsnr" v="132324" />
	</node>
	<node id="-567610" lat="62.470147219" lon="6.98701667255">
		<tag k="name" v="Grønlia" />
		<tag k="natural" v="slope" />
		<tag k="place" v="locality" />
		<tag k="ssr:stedsnr" v="132318" />
	</node>
	<node id="-567609" lat="62.4804805588" lon="7.01579722385">
		<tag k="name" v="Sunnmørsbotnen" />
		<tag k="natural" v="valley" />
		<tag k="old_name" v="Sunnmørsbotn" />
		<tag k="place" v="locality" />
		<tag k="ssr:stedsnr" v="132296" />
	</node>
	<node id="-567608" lat="62.4896472188" lon="6.93218610358">
		<tag k="fixme" v="consider natural=peak for the most distinct mountains in the district" />
		<tag k="name" v="Snaufjellet" />
		<tag k="natural" v="hill" />
		<tag k="place" v="locality" />
		<tag k="ssr:stedsnr" v="132284" />
	</node>
	<node id="-567607" lat="62.4773777778" lon="6.89172499233">
		<tag k="name" v="Lisetsætra" />
		<tag k="place" v="neighbourhood" />
		<tag k="ssr:stedsnr" v="120722" />
	</node>
	<node id="-567606" lat="62.4462277772" lon="6.96713055496">
		<tag k="name" v="Visetsætra" />
		<tag k="place" v="neighbourhood" />
		<tag k="ssr:stedsnr" v="120715" />
	</node>
	<node id="-567604" lat="62.4782833288" lon="6.81846665921">
		<tag k="fixme" v="consider place=hamlet" />
		<tag k="name" v="Ørskog" />
		<tag k="place" v="farm" />
		<tag k="ssr:stedsnr" v="119267" />
	</node>
	<node id="-567603" lat="62.4767499965" lon="6.70086112086">
		<tag k="name" v="Hageneset" />
		<tag k="natural" v="cape" />
		<tag k="ssr:stedsnr" v="96982" />
	</node>
	<node id="-567602" lat="62.4846111121" lon="6.77685833665">
		<tag k="name" v="Slettehammaren" />
		<tag k="natural" v="cliff" />
		<tag k="ssr:stedsnr" v="96973" />
	</node>
	<node id="-567601" lat="62.4792583348" lon="6.7507250041">
		<tag k="name" v="Stigen" />
		<tag k="place" v="farm" />
		<tag k="ssr:stedsnr" v="96970" />
	</node>
	<node id="-567600" lat="62.4837963772" lon="6.82259762559">
		<tag k="fixme" v="consider place=hamlet" />
		<tag k="name" v="Sjøholt" />
		<tag k="place" v="farm" />
		<tag k="ssr:stedsnr" v="96725" />
	</node>
	<node id="-567599" lat="62.4779055569" lon="6.75934165846">
		<tag k="name" v="Ruddberg" />
		<tag k="place" v="farm" />
		<tag k="ssr:stedsnr" v="96698" />
	</node>
	<node id="-567598" lat="62.4478861105" lon="6.89312500274">
		<tag k="name" v="Aksleskarhaugane" />
		<tag k="natural" v="hill" />
		<tag k="place" v="locality" />
		<tag k="ssr:stedsnr" v="96697" />
	</node>
	<node id="-567597" lat="62.4589972186" lon="6.88116111619">
		<tag k="name" v="Hønnelbakken" />
		<tag k="natural" v="slope" />
		<tag k="place" v="locality" />
		<tag k="ssr:stedsnr" v="96693" />
	</node>
	<node id="-567596" lat="62.4688222257" lon="6.88123611858">
		<tag k="fixme" v="consider natural=peak for the most distinct mountains in the district" />
		<tag k="name" v="Velterørene" />
		<tag k="natural" v="hill" />
		<tag k="place" v="locality" />
		<tag k="ssr:stedsnr" v="96688" />
	</node>
	<node id="-567595" lat="62.4745388912" lon="6.81203888564">
		<tag k="name" v="Kråa" />
		<tag k="natural" v="valley" />
		<tag k="place" v="locality" />
		<tag k="ssr:stedsnr" v="96657" />
	</node>
	<node id="-567594" lat="62.4882233839" lon="6.86512956856">
		<tag k="name" v="Tottagrova" />
		<tag k="place" v="locality" />
		<tag k="ssr:stedsnr" v="96654" />
	</node>
	<node id="-567593" lat="62.4920861152" lon="6.89658888157">
		<tag k="name" v="Høgsæternakken" />
		<tag k="natural" v="hill" />
		<tag k="place" v="locality" />
		<tag k="ssr:stedsnr" v="96641" />
	</node>
	<node id="-567592" lat="62.4490249995" lon="6.95851666416">
		<tag k="name" v="Sæteråna" />
		<tag k="ssr:stedsnr" v="96636" />
		<tag k="waterway" v="stream" />
	</node>
	<node id="-567591" lat="62.4983861154" lon="6.83677777328">
		<tag k="name" v="Heia" />
		<tag k="natural" v="wetland" />
		<tag k="ssr:stedsnr" v="96616" />
	</node>
	<node id="-567590" lat="62.5139833352" lon="6.91920000925">
		<tag k="fixme" v="consider highway=path" />
		<tag k="highway" v="track" />
		<tag k="name" v="Kvanndalsvegen" />
		<tag k="ssr:stedsnr" v="96613" />
	</node>
	<node id="-567589" lat="62.4919777743" lon="6.81101389713">
		<tag k="name" v="Langenakken" />
		<tag k="natural" v="ridge" />
		<tag k="place" v="locality" />
		<tag k="ssr:stedsnr" v="96597" />
	</node>
	<node id="-567588" lat="62.506336111" lon="6.81676389056">
		<tag k="name" v="Gjerda" />
		<tag k="natural" v="slope" />
		<tag k="place" v="locality" />
		<tag k="ssr:stedsnr" v="96590" />
	</node>
	<node id="-567587" lat="62.5039333339" lon="6.83761666173">
		<tag k="name" v="Gjerdebakkane" />
		<tag k="natural" v="slope" />
		<tag k="place" v="locality" />
		<tag k="ssr:stedsnr" v="96579" />
	</node>
	<node id="-567586" lat="62.5199638921" lon="6.93230277246">
		<tag k="name" v="Nysæterlia" />
		<tag k="natural" v="slope" />
		<tag k="place" v="locality" />
		<tag k="ssr:stedsnr" v="96572" />
	</node>
	<node id="-567585" lat="62.4936666634" lon="6.83430555223">
		<tag k="name" v="Nedstestigane" />
		<tag k="natural" v="valley" />
		<tag k="place" v="locality" />
		<tag k="ssr:stedsnr" v="96563" />
	</node>
	<node id="-567584" lat="62.4691250025" lon="6.92423334219">
		<tag k="name" v="Skinnakken" />
		<tag k="natural" v="hill" />
		<tag k="place" v="locality" />
		<tag k="ssr:stedsnr" v="96557" />
	</node>
	<node id="-567583" lat="62.4498388922" lon="6.97845834111">
		<tag k="name" v="Midtelvkvisla" />
		<tag k="ssr:stedsnr" v="96542" />
		<tag k="waterway" v="stream" />
	</node>
	<node id="-567582" lat="62.4622750036" lon="6.9372333384">
		<tag k="name" v="Nysetnakken" />
		<tag k="natural" v="ridge" />
		<tag k="place" v="locality" />
		<tag k="ssr:stedsnr" v="96540" />
	</node>
	<node id="-567581" lat="62.4591750036" lon="6.82614166612">
		<tag k="name" v="Skjervika" />
		<tag k="natural" v="bay" />
		<tag k="ssr:stedsnr" v="96506" />
	</node>
	<node id="-567580" lat="62.4566305555" lon="6.9333166663">
		<tag k="name" v="Nygården" />
		<tag k="place" v="farm" />
		<tag k="ssr:stedsnr" v="96722" />
	</node>
	<node id="-567579" lat="62.4787888865" lon="6.70394444578">
		<tag k="name" v="Selda" />
		<tag k="natural" v="bay" />
		<tag k="ssr:stedsnr" v="96711" />
	</node>
	<node id="-567578" lat="62.4770111067" lon="6.7146111035">
		<tag k="name" v="Magnusplassen" />
		<tag k="place" v="farm" />
		<tag k="ssr:stedsnr" v="96703" />
	</node>
	<node id="-567577" lat="62.4609166628" lon="6.81279166363">
		<tag k="name" v="Instevika" />
		<tag k="natural" v="bay" />
		<tag k="ssr:stedsnr" v="92304" />
	</node>
	<node id="-567576" lat="62.4516888904" lon="6.90385555691">
		<tag k="bridge" v="yes" />
		<tag k="layer" v="1" />
		<tag k="name" v="Vaksvikbrua" />
		<tag k="ssr:stedsnr" v="91262" />
	</node>
	<node id="-567575" lat="62.5097982644" lon="6.97723174255">
		<tag k="alt_name" v="Kvanndalsaksla" />
		<tag k="fixme" v="consider natural=peak for the most distinct mountains in the district" />
		<tag k="name" v="Benkene" />
		<tag k="natural" v="hill" />
		<tag k="place" v="locality" />
		<tag k="ssr:stedsnr" v="72841" />
	</node>
	<node id="-567574" lat="62.5442472206" lon="6.902980546">
		<tag k="fixme" v="consider natural=peak for the most distinct mountains in the district" />
		<tag k="name" v="Kjølen" />
		<tag k="natural" v="hill" />
		<tag k="place" v="locality" />
		<tag k="ssr:stedsnr" v="72815" />
	</node>
	<node id="-567573" lat="62.4496027743" lon="7.08131111344">
		<tag k="name" v="Lauparvatnet" />
		<tag k="natural" v="water" />
		<tag k="ssr:stedsnr" v="72337" />
	</node>
	<node id="-567572" lat="62.4289500022" lon="7.11475276968">
		<tag k="name" v="Tverrbotnsegga" />
		<tag k="natural" v="ridge" />
		<tag k="old_name" v="Tverrbottsegga" />
		<tag k="place" v="locality" />
		<tag k="ssr:stedsnr" v="71706" />
	</node>
	<node id="-567571" lat="62.4561759719" lon="6.90864627487">
		<tag k="fixme" v="consider place=hamlet" />
		<tag k="name" v="Nedre Sollia" />
		<tag k="place" v="farm" />
		<tag k="ssr:stedsnr" v="71382" />
	</node>
	<node id="-567570" lat="62.4708722219" lon="6.86552777593">
		<tag k="alt_name" v="Byrdalen" />
		<tag k="name" v="Børdalen" />
		<tag k="natural" v="valley" />
		<tag k="place" v="locality" />
		<tag k="ssr:stedsnr" v="71372" />
	</node>
	<node id="-567569" lat="62.4672555585" lon="6.87680278713">
		<tag k="name" v="Veltene" />
		<tag k="natural" v="ridge" />
		<tag k="old_name" v="Velterørne" />
		<tag k="place" v="locality" />
		<tag k="ssr:stedsnr" v="71371" />
	</node>
	<node id="-567568" lat="62.4791457364" lon="6.86255563531">
		<tag k="fixme" v="consider place=hamlet" />
		<tag k="name" v="Valgermo" />
		<tag k="place" v="farm" />
		<tag k="ssr:stedsnr" v="71353" />
	</node>
	<node id="-567567" lat="62.4847444464" lon="6.91893889331">
		<tag k="name" v="Småbotnane" />
		<tag k="natural" v="valley" />
		<tag k="place" v="locality" />
		<tag k="ssr:stedsnr" v="71343" />
	</node>
	<node id="-567566" lat="62.4908166686" lon="7.00773333057">
		<tag k="fixme" v="consider natural=peak for the most distinct mountains in the district" />
		<tag k="name" v="Høgsvora" />
		<tag k="natural" v="hill" />
		<tag k="place" v="locality" />
		<tag k="ssr:stedsnr" v="71337" />
	</node>
	<node id="-567565" lat="62.4916083323" lon="6.88631389569">
		<tag k="alt_name" v="Giskemodalen" />
		<tag k="name" v="Landedalen" />
		<tag k="natural" v="valley" />
		<tag k="place" v="locality" />
		<tag k="ssr:stedsnr" v="71317" />
	</node>
	<node id="-567564" lat="62.4984083303" lon="6.8723361178">
		<tag k="name" v="Tverrelva" />
		<tag k="ssr:stedsnr" v="71316" />
		<tag k="waterway" v="stream" />
	</node>
	<node id="-567563" lat="62.4760638846" lon="6.69828333418">
		<tag k="name" v="Langskipsøya" />
		<tag k="place" v="islet" />
		<tag k="ssr:stedsnr" v="71020" />
	</node>
	<node id="-567562" lat="62.5090666665" lon="6.83711667194">
		<tag k="name" v="Strandasætra" />
		<tag k="place" v="neighbourhood" />
		<tag k="ssr:stedsnr" v="60733" />
	</node>
	<node id="-567561" lat="62.4798083317" lon="6.76886666711">
		<tag k="name" v="Hølhaugen" />
		<tag k="place" v="farm" />
		<tag k="ssr:stedsnr" v="35717" />
	</node>
	<node id="-567560" lat="62.4678916683" lon="6.7835583415">
		<tag k="name" v="Svartevika" />
		<tag k="natural" v="bay" />
		<tag k="ssr:stedsnr" v="35713" />
	</node>
	<node id="-567559" lat="62.4484833306" lon="6.89866944508">
		<tag k="name" v="Skaret" />
		<tag k="natural" v="valley" />
		<tag k="place" v="locality" />
		<tag k="ssr:stedsnr" v="35709" />
	</node>
	<node id="-567558" lat="62.4621305531" lon="6.77327778092">
		<tag k="name" v="Svinevika" />
		<tag k="natural" v="bay" />
		<tag k="ssr:stedsnr" v="35707" />
	</node>
	<node id="-567557" lat="62.4692916694" lon="7.02212499402">
		<tag k="name" v="Litlelia" />
		<tag k="natural" v="slope" />
		<tag k="place" v="locality" />
		<tag k="ssr:stedsnr" v="35686" />
	</node>
	<node id="-567556" lat="62.5001611082" lon="6.88740832475">
		<tag k="name" v="Singlarbakken" />
		<tag k="natural" v="slope" />
		<tag k="place" v="locality" />
		<tag k="ssr:stedsnr" v="35680" />
	</node>
	<node id="-567555" lat="62.5074583369" lon="6.90073888028">
		<tag k="name" v="Søvik-Lars-øyna" />
		<tag k="place" v="island" />
		<tag k="ssr:stedsnr" v="35676" />
	</node>
	<node id="-567554" lat="62.501083337" lon="6.90678054945">
		<tag k="name" v="Fonnagjølet" />
		<tag k="place" v="locality" />
		<tag k="ssr:stedsnr" v="35651" />
	</node>
	<node id="-567553" lat="62.4636666669" lon="6.83382499313">
		<tag k="name" v="Timbremyra" />
		<tag k="natural" v="wetland" />
		<tag k="ssr:stedsnr" v="35645" />
	</node>
	<node id="-567552" lat="62.4618583356" lon="6.83706388083">
		<tag k="name" v="Myra" />
		<tag k="natural" v="wetland" />
		<tag k="ssr:stedsnr" v="35641" />
	</node>
	<node id="-567551" lat="62.4988916634" lon="6.86565000971">
		<tag k="name" v="Høgmyrhaugen" />
		<tag k="natural" v="hill" />
		<tag k="place" v="locality" />
		<tag k="ssr:stedsnr" v="35628" />
	</node>
	<node id="-567550" lat="62.4396416691" lon="6.92214999359">
		<tag k="name" v="Fjellpêen" />
		<tag k="natural" v="hill" />
		<tag k="place" v="locality" />
		<tag k="ssr:stedsnr" v="35624" />
	</node>
	<node id="-567549" lat="62.4671722229" lon="6.86928332971">
		<tag k="name" v="Jarskarmyra" />
		<tag k="natural" v="wetland" />
		<tag k="ssr:stedsnr" v="35611" />
	</node>
	<node id="-567548" lat="62.5163416699" lon="6.96920000199">
		<tag k="name" v="Måsligrova" />
		<tag k="ssr:stedsnr" v="35597" />
		<tag k="waterway" v="stream" />
	</node>
	<node id="-567547" lat="62.4569083319" lon="6.93554444734">
		<tag k="name" v="Nyset" />
		<tag k="place" v="farm" />
		<tag k="ssr:stedsnr" v="35589" />
	</node>
	<node id="-567546" lat="62.470705555" lon="6.9063666632">
		<tag k="name" v="Beinnakken" />
		<tag k="natural" v="hill" />
		<tag k="place" v="locality" />
		<tag k="ssr:stedsnr" v="35564" />
	</node>
	<node id="-567545" lat="62.4601472265" lon="6.8890999991">
		<tag k="name" v="Tevassbrauta" />
		<tag k="natural" v="slope" />
		<tag k="place" v="locality" />
		<tag k="ssr:stedsnr" v="35562" />
	</node>
	<node id="-567544" lat="62.4582194442" lon="6.82933332494">
		<tag k="name" v="Amdamneset" />
		<tag k="natural" v="cape" />
		<tag k="ssr:stedsnr" v="35556" />
	</node>
	<node id="-567543" lat="62.4587699119" lon="6.83740547573">
		<tag k="name" v="Kreklingane" />
		<tag k="natural" v="cape" />
		<tag k="ssr:stedsnr" v="31301" />
	</node>
	<node id="-567542" lat="62.4592861115" lon="7.00875555774">
		<tag k="name" v="Vaksvikfjellet" />
		<tag k="natural" v="mountain_range" />
		<tag k="ssr:stedsnr" v="26846" />
	</node>
	<node id="-567541" lat="62.5006010245" lon="6.81461889771">
		<tag k="name" v="Braute" />
		<tag k="place" v="farm" />
		<tag k="ssr:stedsnr" v="25959" />
	</node>
	<node id="-567540" lat="62.5159933524" lon="6.79933328756">
		<tag k="fixme" v="consider natural=peak for the most distinct mountains in the district" />
		<tag k="name" v="Høgnøsa" />
		<tag k="natural" v="hill" />
		<tag k="ssr:stedsnr" v="12867" />
	</node>
	<node id="-567539" lat="62.5097111125" lon="6.8744249953">
		<tag k="name" v="Trolldalsgrova" />
		<tag k="ssr:stedsnr" v="12848" />
		<tag k="waterway" v="stream" />
	</node>
	<node id="-567538" lat="62.4419694402" lon="7.00391110833">
		<tag k="name" v="Skurdgrova" />
		<tag k="old_name" v="Skurgrova" />
		<tag k="ssr:stedsnr" v="11372" />
		<tag k="waterway" v="stream" />
	</node>
	<node id="-567537" lat="62.44661752" lon="6.90204679108">
		<tag k="fixme" v="consider place=hamlet" />
		<tag k="name" v="Viset" />
		<tag k="place" v="farm" />
		<tag k="ssr:stedsnr" v="11367" />
	</node>
	<node id="-567536" lat="62.4719722179" lon="6.98914444001">
		<tag k="fixme" v="consider natural=peak for the most distinct mountains in the district" />
		<tag k="name" v="Grønlifjellet" />
		<tag k="natural" v="hill" />
		<tag k="place" v="locality" />
		<tag k="ssr:stedsnr" v="11322" />
	</node>
	<node id="-567535" lat="62.4651891656" lon="6.89063375168">
		<tag k="name" v="Vestreberget" />
		<tag k="natural" v="hill" />
		<tag k="place" v="locality" />
		<tag k="ssr:stedsnr" v="11319" />
	</node>
	<node id="-567534" lat="62.478980553" lon="6.8121666708">
		<tag k="alt_name" v="Ørskog kyrkje" />
		<tag k="amenity" v="place_of_worship" />
		<tag k="denomination" v="lutheran" />
		<tag k="name" v="Ørskog" />
		<tag k="religion" v="christian" />
		<tag k="ssr:stedsnr" v="10297" />
	</node>
	<node id="-567533" lat="62.5354527737" lon="6.64544166924">
		<tag k="name" v="Skarsåna" />
		<tag k="ssr:stedsnr" v="33742" />
		<tag k="waterway" v="stream" />
	</node>
	<node id="-567532" lat="62.5209188245" lon="6.98623212513">
		<tag k="name" v="Teigane" />
		<tag k="natural" v="slope" />
		<tag k="place" v="locality" />
		<tag k="ssr:stedsnr" v="580697" />
	</node>
	<node id="-567531" lat="62.4826055531" lon="6.70897499215">
		<tag k="name" v="Rotnesbukta" />
		<tag k="natural" v="bay" />
		<tag k="ssr:stedsnr" v="399031" />
	</node>
	<node id="-567530" lat="62.4778944405" lon="6.71758055717">
		<tag k="highway" v="path" />
		<tag k="name" v="Brautaløypa" />
		<tag k="ssr:stedsnr" v="885980" />
	</node>
	<node id="-567529" lat="62.4816388921" lon="6.82252777232">
		<tag k="name" v="Steinholt" />
		<tag k="place" v="farm" />
		<tag k="ssr:stedsnr" v="885711" />
	</node>
	<node id="-567528" lat="62.4754138929" lon="6.85901945347">
		<tag k="name" v="Løken" />
		<tag k="ssr:stedsnr" v="885698" />
		<tag k="waterway" v="stream" />
	</node>
	<node id="-567527" lat="62.4765749964" lon="6.72657777744">
		<tag k="name" v="Nerstranda" />
		<tag k="place" v="isolated_dwelling" />
		<tag k="ssr:stedsnr" v="885691" />
	</node>
	<node id="-567526" lat="62.4805861117" lon="6.70039167269">
		<tag k="name" v="Ryttingsneset" />
		<tag k="natural" v="cape" />
		<tag k="ssr:stedsnr" v="885685" />
	</node>
	<node id="-567525" lat="62.4636111128" lon="6.81517222357">
		<tag k="name" v="Lisetskaret" />
		<tag k="natural" v="valley" />
		<tag k="place" v="locality" />
		<tag k="ssr:stedsnr" v="885674" />
	</node>
	<node id="-567524" lat="62.4650694444" lon="6.87332223142">
		<tag k="name" v="Beingjæra" />
		<tag k="natural" v="slope" />
		<tag k="place" v="locality" />
		<tag k="ssr:stedsnr" v="885672" />
	</node>
	<node id="-567523" lat="62.4998972189" lon="6.7712750038">
		<tag k="name" v="Solnørdalslia" />
		<tag k="natural" v="slope" />
		<tag k="place" v="locality" />
		<tag k="ssr:stedsnr" v="885648" />
	</node>
	<node id="-567522" lat="62.4863444446" lon="6.79285833741">
		<tag k="fixme" v="consider natural=peak for the most distinct mountains in the district" />
		<tag k="name" v="Nedsteaksla" />
		<tag k="natural" v="hill" />
		<tag k="place" v="locality" />
		<tag k="ssr:stedsnr" v="885638" />
	</node>
	<node id="-567521" lat="62.4867250015" lon="6.86464722408">
		<tag k="name" v="Gjærsnakken" />
		<tag k="natural" v="hill" />
		<tag k="place" v="locality" />
		<tag k="ssr:stedsnr" v="885621" />
	</node>
	<node id="-567520" lat="62.4671888934" lon="6.85824167145">
		<tag k="name" v="Båtmyra" />
		<tag k="natural" v="wetland" />
		<tag k="ssr:stedsnr" v="885611" />
	</node>
	<node id="-567519" lat="62.4690861114" lon="6.9829500035">
		<tag k="name" v="Grønlibruna" />
		<tag k="natural" v="ridge" />
		<tag k="place" v="locality" />
		<tag k="ssr:stedsnr" v="885612" />
	</node>
	<node id="-567518" lat="62.5110305552" lon="6.91180555783">
		<tag k="name" v="Mjelthaugen" />
		<tag k="natural" v="hill" />
		<tag k="place" v="locality" />
		<tag k="ssr:stedsnr" v="885604" />
	</node>
	<node id="-567517" lat="62.4501055572" lon="6.93232222288">
		<tag k="name" v="Stornakken" />
		<tag k="natural" v="ridge" />
		<tag k="place" v="locality" />
		<tag k="ssr:stedsnr" v="885601" />
	</node>
	<node id="-567516" lat="62.4859583353" lon="6.79868611335">
		<tag k="name" v="Malmgruvene" />
		<tag k="place" v="locality" />
		<tag k="ssr:stedsnr" v="885596" />
	</node>
	<node id="-567515" lat="62.4692944442" lon="6.84168055506">
		<tag k="name" v="Vallbørørene" />
		<tag k="natural" v="ridge" />
		<tag k="place" v="locality" />
		<tag k="ssr:stedsnr" v="885595" />
	</node>
	<node id="-567514" lat="62.5318138855" lon="6.85208610363">
		<tag k="name" v="Løkmyrane" />
		<tag k="natural" v="wetland" />
		<tag k="ssr:stedsnr" v="885592" />
	</node>
	<node id="-567513" lat="62.4844861091" lon="6.80511666194">
		<tag k="name" v="Myrteigen" />
		<tag k="place" v="locality" />
		<tag k="ssr:stedsnr" v="885591" />
	</node>
	<node id="-567512" lat="62.4630527759" lon="6.83408888129">
		<tag k="name" v="Geilhaugen" />
		<tag k="natural" v="hill" />
		<tag k="place" v="locality" />
		<tag k="ssr:stedsnr" v="885590" />
	</node>
	<node id="-567511" lat="62.4783416665" lon="6.83990834106">
		<tag k="name" v="Haukåshaugen" />
		<tag k="natural" v="hill" />
		<tag k="place" v="locality" />
		<tag k="ssr:stedsnr" v="885578" />
	</node>
	<node id="-567510" lat="62.527691666" lon="6.88207777746">
		<tag k="leisure" v="pitch" />
		<tag k="name" v="Løklibakken" />
		<tag k="ssr:stedsnr" v="885575" />
	</node>
	<node id="-567509" lat="62.5242861138" lon="6.89266667421">
		<tag k="name" v="Bjønnskargrova" />
		<tag k="ssr:stedsnr" v="885569" />
		<tag k="waterway" v="stream" />
	</node>
	<node id="-567508" lat="62.4529749975" lon="6.88133055981">
		<tag k="name" v="Rusevollhola" />
		<tag k="natural" v="valley" />
		<tag k="place" v="locality" />
		<tag k="ssr:stedsnr" v="885566" />
	</node>
	<node id="-567507" lat="62.4629916677" lon="6.89689445348">
		<tag k="name" v="Gjærhaugen" />
		<tag k="natural" v="hill" />
		<tag k="place" v="locality" />
		<tag k="ssr:stedsnr" v="885564" />
	</node>
	<node id="-567506" lat="62.4641027787" lon="6.82294167253">
		<tag k="name" v="Lisetvatnet" />
		<tag k="natural" v="water" />
		<tag k="ssr:stedsnr" v="885561" />
	</node>
	<node id="-567505" lat="62.4595750031" lon="6.83420000246">
		<tag k="name" v="Brattebakkane" />
		<tag k="natural" v="slope" />
		<tag k="place" v="locality" />
		<tag k="ssr:stedsnr" v="885558" />
	</node>
	<node id="-567504" lat="62.5077777792" lon="6.91256944759">
		<tag k="name" v="Dalehøgdene" />
		<tag k="natural" v="slope" />
		<tag k="place" v="locality" />
		<tag k="ssr:stedsnr" v="885552" />
	</node>
	<node id="-567503" lat="62.4910583328" lon="6.86648332889">
		<tag k="name" v="Haugane" />
		<tag k="natural" v="hill" />
		<tag k="place" v="locality" />
		<tag k="ssr:stedsnr" v="885549" />
	</node>
	<node id="-567502" lat="62.5205305519" lon="6.89859445305">
		<tag k="name" v="Kopen" />
		<tag k="natural" v="valley" />
		<tag k="place" v="locality" />
		<tag k="ssr:stedsnr" v="885524" />
	</node>
	<node id="-567501" lat="62.5048972203" lon="6.81840834079">
		<tag k="name" v="Haugfossane" />
		<tag k="natural" v="waterfall" />
		<tag k="ssr:stedsnr" v="885521" />
	</node>
	<node id="-567500" lat="62.5019194476" lon="6.87116944798">
		<tag k="name" v="Ytstenakken" />
		<tag k="natural" v="ridge" />
		<tag k="place" v="locality" />
		<tag k="ssr:stedsnr" v="885516" />
	</node>
	<node id="-567499" lat="62.4811333304" lon="6.85110833381">
		<tag k="name" v="Jogarden" />
		<tag k="place" v="farm" />
		<tag k="ssr:stedsnr" v="885514" />
	</node>
	<node id="-567498" lat="62.4846472261" lon="6.82955834189">
		<tag k="name" v="Bjørkereitane" />
		<tag k="natural" v="slope" />
		<tag k="place" v="locality" />
		<tag k="ssr:stedsnr" v="885511" />
	</node>
	<node id="-567497" lat="62.4900138923" lon="6.80777500529">
		<tag k="name" v="Vassnakken" />
		<tag k="natural" v="ridge" />
		<tag k="place" v="locality" />
		<tag k="ssr:stedsnr" v="885509" />
	</node>
	<node id="-567496" lat="62.4793666691" lon="6.88887500036">
		<tag k="fixme" v="consider highway=path" />
		<tag k="highway" v="track" />
		<tag k="name" v="Høgsætervegen" />
		<tag k="ssr:stedsnr" v="885510" />
	</node>
	<node id="-567495" lat="62.4594944473" lon="6.8288583384">
		<tag k="name" v="Skjerhaugane" />
		<tag k="natural" v="hill" />
		<tag k="place" v="locality" />
		<tag k="ssr:stedsnr" v="885495" />
	</node>
	<node id="-567494" lat="62.4646305555" lon="6.82809444793">
		<tag k="name" v="Lisetkanalen" />
		<tag k="ssr:stedsnr" v="405831" />
		<tag k="waterway" v="river" />
	</node>
	<node id="-567492" lat="62.4766888929" lon="6.73554166326">
		<tag k="name" v="Forvad" />
		<tag k="natural" v="cape" />
		<tag k="ssr:stedsnr" v="399978" />
	</node>
	<node id="-567491" lat="62.4681250043" lon="6.82763610199">
		<tag k="name" v="Smebakken" />
		<tag k="place" v="farm" />
		<tag k="ssr:stedsnr" v="399723" />
	</node>
	<node id="-567490" lat="62.4790777814" lon="6.76783888798">
		<tag k="name" v="Nybø" />
		<tag k="place" v="farm" />
		<tag k="ssr:stedsnr" v="399722" />
	</node>
	<node id="-567489" lat="62.4852166645" lon="6.84868056125">
		<tag k="name" v="Ottaplassen" />
		<tag k="place" v="farm" />
		<tag k="ssr:stedsnr" v="399711" />
	</node>
	<node id="-567488" lat="62.5040638852" lon="6.81986666535">
		<tag k="name" v="Brautehaugen" />
		<tag k="place" v="farm" />
		<tag k="ssr:stedsnr" v="399707" />
	</node>
	<node id="-567487" lat="62.4585305512" lon="6.92883054942">
		<tag k="name" v="Øvrebø" />
		<tag k="place" v="farm" />
		<tag k="ssr:stedsnr" v="399700" />
	</node>
	<node id="-567486" lat="62.4790444479" lon="6.71198055606">
		<tag k="highway" v="path" />
		<tag k="name" v="Trippe" />
		<tag k="ssr:stedsnr" v="399693" />
	</node>
	<node id="-567485" lat="62.461052775" lon="6.83108610898">
		<tag k="name" v="Ådalen" />
		<tag k="natural" v="valley" />
		<tag k="place" v="locality" />
		<tag k="ssr:stedsnr" v="399676" />
	</node>
	<node id="-567484" lat="62.4480166669" lon="6.91004723174">
		<tag k="name" v="Øggarden" />
		<tag k="place" v="farm" />
		<tag k="ssr:stedsnr" v="399665" />
	</node>
	<node id="-567483" lat="62.438247226" lon="7.04466944719">
		<tag k="name" v="Høgreina" />
		<tag k="natural" v="slope" />
		<tag k="place" v="locality" />
		<tag k="ssr:stedsnr" v="399660" />
	</node>
	<node id="-567482" lat="62.4432416637" lon="7.04168889435">
		<tag k="name" v="Grytagrova" />
		<tag k="ssr:stedsnr" v="399658" />
		<tag k="waterway" v="stream" />
	</node>
	<node id="-567481" lat="62.4816166694" lon="6.78982222354">
		<tag k="name" v="Martinusplassen" />
		<tag k="place" v="farm" />
		<tag k="ssr:stedsnr" v="399647" />
	</node>
	<node id="-567480" lat="62.4635277807" lon="6.78020833083">
		<tag k="name" v="Gausnestoppen" />
		<tag k="natural" v="hill" />
		<tag k="place" v="locality" />
		<tag k="ssr:stedsnr" v="399645" />
	</node>
	<node id="-567479" lat="62.4843222244" lon="6.86769722708">
		<tag k="name" v="Odden" />
		<tag k="natural" v="ridge" />
		<tag k="place" v="locality" />
		<tag k="ssr:stedsnr" v="399633" />
	</node>
	<node id="-567478" lat="62.4628194483" lon="6.84010555065">
		<tag k="name" v="Vestralereset" />
		<tag k="natural" v="slope" />
		<tag k="place" v="locality" />
		<tag k="ssr:stedsnr" v="399604" />
	</node>
	<node id="-567477" lat="62.514236109" lon="6.80324443717">
		<tag k="name" v="Tjønna" />
		<tag k="natural" v="water" />
		<tag k="ssr:stedsnr" v="399602" />
	</node>
	<node id="-567476" lat="62.4864388871" lon="6.81098055396">
		<tag k="name" v="Fargardalen" />
		<tag k="natural" v="valley" />
		<tag k="place" v="locality" />
		<tag k="ssr:stedsnr" v="399601" />
	</node>
	<node id="-567475" lat="62.4853277753" lon="6.87385000237">
		<tag k="name" v="Kvennhusøyna" />
		<tag k="natural" v="wetland" />
		<tag k="ssr:stedsnr" v="399593" />
	</node>
	<node id="-567474" lat="62.450011111" lon="6.91309443985">
		<tag k="name" v="Øggardsnakken" />
		<tag k="natural" v="ridge" />
		<tag k="place" v="locality" />
		<tag k="ssr:stedsnr" v="399582" />
	</node>
	<node id="-567473" lat="62.445277775" lon="6.89436110603">
		<tag k="name" v="Leirhola" />
		<tag k="natural" v="bay" />
		<tag k="ssr:stedsnr" v="399570" />
	</node>
	<node id="-567472" lat="62.4439777811" lon="7.04171389314">
		<tag k="name" v="Aksla" />
		<tag k="natural" v="ridge" />
		<tag k="place" v="locality" />
		<tag k="ssr:stedsnr" v="399564" />
	</node>
	<node id="-567471" lat="62.4782027807" lon="6.95737500571">
		<tag k="name" v="Tverlia" />
		<tag k="natural" v="slope" />
		<tag k="place" v="locality" />
		<tag k="ssr:stedsnr" v="399556" />
	</node>
	<node id="-567470" lat="62.504547223" lon="6.85183888661">
		<tag k="name" v="Mjelthaugskaret" />
		<tag k="natural" v="valley" />
		<tag k="place" v="locality" />
		<tag k="ssr:stedsnr" v="399552" />
	</node>
	<node id="-567469" lat="62.5045444486" lon="6.82669166371">
		<tag k="name" v="Timbrebakkane" />
		<tag k="natural" v="slope" />
		<tag k="place" v="locality" />
		<tag k="ssr:stedsnr" v="399550" />
	</node>
	<node id="-567468" lat="62.4854333304" lon="6.814875008">
		<tag k="name" v="Skjerva" />
		<tag k="place" v="farm" />
		<tag k="ssr:stedsnr" v="399541" />
	</node>
	<node id="-567467" lat="62.4776861134" lon="6.84137499224">
		<tag k="name" v="Giskemohaugen" />
		<tag k="natural" v="hill" />
		<tag k="place" v="locality" />
		<tag k="ssr:stedsnr" v="399519" />
	</node>
	<node id="-567466" lat="62.4584277784" lon="6.82933889575">
		<tag k="name" v="Amdamsneset" />
		<tag k="natural" v="cape" />
		<tag k="ssr:stedsnr" v="388434" />
	</node>
	<node id="-567465" lat="62.516119447" lon="6.87256944506">
		<tag k="fixme" v="consider natural=peak for the most distinct mountains in the district" />
		<tag k="name" v="Lebergsfjellet" />
		<tag k="natural" v="hill" />
		<tag k="place" v="locality" />
		<tag k="ssr:stedsnr" v="375844" />
	</node>
	<node id="-567464" lat="62.5387638853" lon="6.88724723051">
		<tag k="name" v="Skållia" />
		<tag k="natural" v="slope" />
		<tag k="place" v="locality" />
		<tag k="ssr:stedsnr" v="375817" />
	</node>
	<node id="-567463" lat="62.5247111117" lon="6.87298610349">
		<tag k="fixme" v="consider natural=peak for the most distinct mountains in the district" />
		<tag k="name" v="Svartløkfjellet" />
		<tag k="natural" v="hill" />
		<tag k="place" v="locality" />
		<tag k="ssr:stedsnr" v="375792" />
	</node>
	<node id="-567462" lat="62.4436777778" lon="7.11426943887">
		<tag k="name" v="Trongbotnen" />
		<tag k="natural" v="valley" />
		<tag k="old_name" v="Trongbotn" />
		<tag k="place" v="locality" />
		<tag k="ssr:stedsnr" v="375334" />
	</node>
	<node id="-567461" lat="62.451883066" lon="6.89041794992">
		<tag k="fixme" v="consider place=hamlet" />
		<tag k="name" v="Vaksvika" />
		<tag k="place" v="village" />
		<tag k="ssr:stedsnr" v="375318" />
	</node>
	<node id="-567460" lat="62.4805472257" lon="6.74474722918">
		<tag k="alt_name" v="Kleiven" />
		<tag k="name" v="Kleivane" />
		<tag k="place" v="farm" />
		<tag k="ssr:stedsnr" v="375265" />
	</node>
	<node id="-567459" lat="62.457036113" lon="6.89742500651">
		<tag k="fixme" v="consider natural=peak for the most distinct mountains in the district" />
		<tag k="name" v="Solliåsen" />
		<tag k="natural" v="hill" />
		<tag k="place" v="locality" />
		<tag k="ssr:stedsnr" v="374367" />
	</node>
	<node id="-567458" lat="62.466052782" lon="6.96411389627">
		<tag k="name" v="Heimsteelva" />
		<tag k="ssr:stedsnr" v="374361" />
		<tag k="waterway" v="stream" />
	</node>
	<node id="-567457" lat="62.4641722196" lon="6.79841110775">
		<tag k="name" v="Høghaugen" />
		<tag k="natural" v="hill" />
		<tag k="place" v="locality" />
		<tag k="ssr:stedsnr" v="374358" />
	</node>
	<node id="-567456" lat="62.4793027735" lon="6.90451110275">
		<tag k="name" v="Øyagrova" />
		<tag k="ssr:stedsnr" v="374342" />
		<tag k="waterway" v="stream" />
	</node>
	<node id="-567455" lat="62.5002444413" lon="6.81136666018">
		<tag k="name" v="Braute" />
		<tag k="place" v="farm" />
		<tag k="ssr:stedsnr" v="363553" />
	</node>
	<node id="-567454" lat="62.4769789681" lon="6.76327941087">
		<tag k="fixme" v="consider place=hamlet" />
		<tag k="name" v="Apalset" />
		<tag k="place" v="farm" />
		<tag k="ssr:stedsnr" v="362660" />
	</node>
	<node id="-567453" lat="62.5312555597" lon="6.83153055734">
		<tag k="name" v="Osane" />
		<tag k="natural" v="bay" />
		<tag k="ssr:stedsnr" v="338979" />
	</node>
	<node id="-567451" lat="62.4549333363" lon="6.91955555424">
		<tag k="name" v="Gjerdet" />
		<tag k="place" v="farm" />
		<tag k="ssr:stedsnr" v="338688" />
	</node>
	<node id="-567450" lat="62.4767194453" lon="6.70255556191">
		<tag k="name" v="Øyasundet" />
		<tag k="natural" v="strait" />
		<tag k="ssr:stedsnr" v="338677" />
	</node>
	<node id="-567449" lat="62.4796619118" lon="6.73069088642">
		<tag k="name" v="Djupdalen" />
		<tag k="natural" v="valley" />
		<tag k="place" v="locality" />
		<tag k="ssr:stedsnr" v="338674" />
	</node>
	<node id="-567448" lat="62.4798027744" lon="6.74307500873">
		<tag k="name" v="Talleberg" />
		<tag k="place" v="farm" />
		<tag k="ssr:stedsnr" v="338669" />
	</node>
	<node id="-567447" lat="62.474750001" lon="6.87915000323">
		<tag k="name" v="Høghaugen" />
		<tag k="natural" v="hill" />
		<tag k="place" v="locality" />
		<tag k="ssr:stedsnr" v="338655" />
	</node>
	<node id="-567446" lat="62.4657444427" lon="6.87834444604">
		<tag k="name" v="Sveaskaret" />
		<tag k="natural" v="valley" />
		<tag k="place" v="locality" />
		<tag k="ssr:stedsnr" v="338649" />
	</node>
	<node id="-567445" lat="62.4659083362" lon="6.77362222052">
		<tag k="name" v="Preikestolen" />
		<tag k="natural" v="cliff" />
		<tag k="ssr:stedsnr" v="338644" />
	</node>
	<node id="-567444" lat="62.460736115" lon="6.80487777389">
		<tag k="name" v="Lisetvikane" />
		<tag k="natural" v="bay" />
		<tag k="ssr:stedsnr" v="338643" />
	</node>
	<node id="-567443" lat="62.4597000012" lon="6.78013056095">
		<tag k="name" v="Runneløypa" />
		<tag k="natural" v="valley" />
		<tag k="place" v="locality" />
		<tag k="ssr:stedsnr" v="338636" />
	</node>
	<node id="-567442" lat="62.4568666693" lon="6.89309999566">
		<tag k="fixme" v="consider natural=peak for the most distinct mountains in the district" />
		<tag k="name" v="Storåsen" />
		<tag k="natural" v="hill" />
		<tag k="place" v="locality" />
		<tag k="ssr:stedsnr" v="338637" />
	</node>
	<node id="-567441" lat="62.4488777797" lon="6.91732500027">
		<tag k="name" v="Løkjingsmyrane" />
		<tag k="natural" v="wetland" />
		<tag k="ssr:stedsnr" v="338627" />
	</node>
	<node id="-567440" lat="62.4677750032" lon="6.89589443884">
		<tag k="name" v="Storbjørnskaret" />
		<tag k="natural" v="valley" />
		<tag k="place" v="locality" />
		<tag k="ssr:stedsnr" v="338625" />
	</node>
	<node id="-567439" lat="62.4769472196" lon="6.75615832753">
		<tag k="name" v="Legene" />
		<tag k="natural" v="slope" />
		<tag k="place" v="locality" />
		<tag k="ssr:stedsnr" v="338623" />
	</node>
	<node id="-567438" lat="62.4375194421" lon="6.99904721623">
		<tag k="name" v="Storlifjellet" />
		<tag k="natural" v="hill" />
		<tag k="place" v="locality" />
		<tag k="ssr:stedsnr" v="338624" />
	</node>
	<node id="-567437" lat="62.4926666628" lon="6.86176945151">
		<tag k="name" v="Skahaugen" />
		<tag k="natural" v="hill" />
		<tag k="place" v="locality" />
		<tag k="ssr:stedsnr" v="338609" />
	</node>
	<node id="-567436" lat="62.4623250041" lon="6.84941110215">
		<tag k="name" v="Klubben" />
		<tag k="natural" v="slope" />
		<tag k="place" v="locality" />
		<tag k="ssr:stedsnr" v="338583" />
	</node>
	<node id="-567435" lat="62.4622833344" lon="6.93519445305">
		<tag k="name" v="Torskloven" />
		<tag k="natural" v="valley" />
		<tag k="place" v="locality" />
		<tag k="ssr:stedsnr" v="338581" />
	</node>
	<node id="-567434" lat="62.5152277804" lon="6.88129165937">
		<tag k="name" v="Heifjellet" />
		<tag k="natural" v="hill" />
		<tag k="place" v="locality" />
		<tag k="ssr:stedsnr" v="338558" />
	</node>
	<node id="-567433" lat="62.4702305541" lon="6.82384444766">
		<tag k="name" v="Kleivane" />
		<tag k="natural" v="slope" />
		<tag k="place" v="locality" />
		<tag k="ssr:stedsnr" v="338555" />
	</node>
	<node id="-567432" lat="62.4401277785" lon="6.90913611291">
		<tag k="name" v="Visethammaren" />
		<tag k="natural" v="cliff" />
		<tag k="ssr:stedsnr" v="338520" />
	</node>
	<node id="-567431" lat="62.494275004" lon="6.86528887979">
		<tag k="name" v="Bakkeknuthaugen" />
		<tag k="natural" v="hill" />
		<tag k="place" v="locality" />
		<tag k="ssr:stedsnr" v="338512" />
	</node>
	<node id="-567430" lat="62.5165111089" lon="6.84250833144">
		<tag k="name" v="Knaphaugane" />
		<tag k="natural" v="hill" />
		<tag k="place" v="locality" />
		<tag k="ssr:stedsnr" v="338509" />
	</node>
	<node id="-567429" lat="62.526613891" lon="6.91221111603">
		<tag k="name" v="Heia" />
		<tag k="natural" v="slope" />
		<tag k="place" v="locality" />
		<tag k="ssr:stedsnr" v="338499" />
	</node>
	<node id="-567428" lat="62.4487833294" lon="6.88502777556">
		<tag k="name" v="Visetneset" />
		<tag k="natural" v="cape" />
		<tag k="ssr:stedsnr" v="338494" />
	</node>
	<node id="-567427" lat="62.4737305515" lon="6.97784721822">
		<tag k="name" v="Kvandalsreset" />
		<tag k="natural" v="slope" />
		<tag k="place" v="locality" />
		<tag k="ssr:stedsnr" v="338450" />
	</node>
	<node id="-567426" lat="62.5088472247" lon="6.82375833755">
		<tag k="name" v="Heimsteosen" />
		<tag k="natural" v="bay" />
		<tag k="ssr:stedsnr" v="338440" />
	</node>
	<node id="-567425" lat="62.4905555547" lon="6.84217778526">
		<tag k="name" v="Svenakken" />
		<tag k="natural" v="ridge" />
		<tag k="place" v="locality" />
		<tag k="ssr:stedsnr" v="338436" />
	</node>
	<node id="-567424" lat="62.4795305528" lon="6.83855555344">
		<tag k="alt_name" v="Haukås" />
		<tag k="fixme" v="consider place=hamlet" />
		<tag k="name" v="Haukåsen" />
		<tag k="place" v="farm" />
		<tag k="ssr:stedsnr" v="338433" />
	</node>
	<node id="-567423" lat="62.4698388927" lon="6.8910444422">
		<tag k="name" v="Lappeskaret" />
		<tag k="natural" v="valley" />
		<tag k="place" v="locality" />
		<tag k="ssr:stedsnr" v="338418" />
	</node>
	<node id="-567422" lat="62.4678583302" lon="6.7965833381">
		<tag k="name" v="Kamben" />
		<tag k="natural" v="ridge" />
		<tag k="place" v="locality" />
		<tag k="ssr:stedsnr" v="338408" />
	</node>
	<node id="-567421" lat="62.4369463898" lon="6.94667674117">
		<tag k="alt_name" v="Geitaskardsvatnet;Geitaskarvatnet" />
		<tag k="name" v="Geitaskardvatnet" />
		<tag k="natural" v="water" />
		<tag k="ssr:stedsnr" v="314691" />
	</node>
	<node id="-567420" lat="62.4401027778" lon="7.05015833568">
		<tag k="alt_name" v="Voksåa" />
		<tag k="name" v="Grytagrova" />
		<tag k="ssr:stedsnr" v="314685" />
		<tag k="waterway" v="stream" />
	</node>
	<node id="-567419" lat="62.4355194437" lon="7.0902166706">
		<tag k="name" v="Grytavatnet" />
		<tag k="natural" v="water" />
		<tag k="ssr:stedsnr" v="314683" />
		<tag k="water" v="lake" />
	</node>
	<node id="-567418" lat="62.4198111156" lon="7.08991945015">
		<tag k="fixme" v="consider natural=peak for the most distinct mountains in the district" />
		<tag k="name" v="Sandegga" />
		<tag k="natural" v="hill" />
		<tag k="place" v="locality" />
		<tag k="ssr:stedsnr" v="314665" />
	</node>
	<node id="-567417" lat="62.4473861119" lon="7.02043332818">
		<tag k="historic" v="shieling" />
		<tag k="name" v="Grytalisætra" />
		<tag k="place" v="locality" />
		<tag k="ssr:stedsnr" v="314411" />
	</node>
	<node id="-567416" lat="62.4442453417" lon="6.99030948928">
		<tag k="historic" v="shieling" />
		<tag k="name" v="Hjellesætra" />
		<tag k="place" v="locality" />
		<tag k="ssr:stedsnr" v="314399" />
	</node>
	<node id="-567415" lat="62.460857808" lon="6.83399230743">
		<tag k="fixme" v="consider place=hamlet" />
		<tag k="name" v="Amdam" />
		<tag k="place" v="farm" />
		<tag k="ssr:stedsnr" v="314381" />
	</node>
	<node id="-567414" lat="62.4729752805" lon="6.83848095603">
		<tag k="fixme" v="consider place=hamlet" />
		<tag k="name" v="Vallbøen" />
		<tag k="place" v="farm" />
		<tag k="ssr:stedsnr" v="314363" />
	</node>
	<node id="-567413" lat="62.4826611097" lon="6.8536055584">
		<tag k="name" v="Lande" />
		<tag k="place" v="hamlet" />
		<tag k="ssr:stedsnr" v="314348" />
	</node>
	<node id="-567412" lat="62.4750694406" lon="6.8152666574">
		<tag k="name" v="Kråna" />
		<tag k="place" v="farm" />
		<tag k="ssr:stedsnr" v="314346" />
	</node>
	<node id="-567411" lat="62.4817959541" lon="6.7820628706">
		<tag k="name" v="Steinane" />
		<tag k="place" v="farm" />
		<tag k="ssr:stedsnr" v="314326" />
	</node>
	<node id="-567410" lat="62.4468972186" lon="7.01944166958">
		<tag k="name" v="Grytalisætra" />
		<tag k="place" v="neighbourhood" />
		<tag k="ssr:stedsnr" v="302726" />
	</node>
	<node id="-567409" lat="62.4846027789" lon="6.81266666745">
		<tag k="name" v="Wensellelva" />
		<tag k="ssr:stedsnr" v="283360" />
		<tag k="waterway" v="river" />
	</node>
	<node id="-567408" lat="62.4648944433" lon="6.77625278706">
		<tag k="name" v="Kjelane" />
		<tag k="natural" v="slope" />
		<tag k="place" v="locality" />
		<tag k="ssr:stedsnr" v="278981" />
	</node>
	<node id="-567407" lat="62.4582688814" lon="6.87709271071">
		<tag k="fixme" v="consider place=hamlet" />
		<tag k="name" v="Vestre" />
		<tag k="place" v="farm" />
		<tag k="ssr:stedsnr" v="278755" />
	</node>
	<node id="-567406" lat="62.4993638913" lon="6.80505833758">
		<tag k="name" v="Holen" />
		<tag k="place" v="farm" />
		<tag k="ssr:stedsnr" v="278751" />
	</node>
	<node id="-567405" lat="62.4855222246" lon="6.821927778">
		<tag k="name" v="Einagarden" />
		<tag k="place" v="farm" />
		<tag k="ssr:stedsnr" v="278749" />
	</node>
	<node id="-567404" lat="62.4804500028" lon="6.70893056387">
		<tag k="name" v="Sandgota" />
		<tag k="natural" v="ridge" />
		<tag k="place" v="locality" />
		<tag k="ssr:stedsnr" v="278732" />
	</node>
	<node id="-567403" lat="62.474349996" lon="6.85931388119">
		<tag k="name" v="Brendhaugrørene" />
		<tag k="natural" v="ridge" />
		<tag k="place" v="locality" />
		<tag k="ssr:stedsnr" v="278729" />
	</node>
	<node id="-567402" lat="62.4746694453" lon="6.98117776852">
		<tag k="name" v="Sollikvandalen" />
		<tag k="natural" v="valley" />
		<tag k="place" v="locality" />
		<tag k="ssr:stedsnr" v="278726" />
	</node>
	<node id="-567401" lat="62.4630138921" lon="6.81714723112">
		<tag k="name" v="Høghaugen" />
		<tag k="natural" v="hill" />
		<tag k="place" v="locality" />
		<tag k="ssr:stedsnr" v="278713" />
	</node>
	<node id="-567400" lat="62.4782805547" lon="6.7520194477">
		<tag k="name" v="Hollen" />
		<tag k="place" v="farm" />
		<tag k="ssr:stedsnr" v="278691" />
	</node>
	<node id="-567399" lat="62.4801499972" lon="6.86451111735">
		<tag k="name" v="Sirihagen" />
		<tag k="place" v="locality" />
		<tag k="ssr:stedsnr" v="278683" />
	</node>
	<node id="-567398" lat="62.4781750006" lon="6.92749166306">
		<tag k="name" v="Røra" />
		<tag k="natural" v="slope" />
		<tag k="place" v="locality" />
		<tag k="ssr:stedsnr" v="278678" />
	</node>
	<node id="-567397" lat="62.4839416699" lon="6.7795638921">
		<tag k="name" v="Furnakken" />
		<tag k="natural" v="ridge" />
		<tag k="place" v="locality" />
		<tag k="ssr:stedsnr" v="278676" />
	</node>
	<node id="-567396" lat="62.4835027752" lon="6.87123332886">
		<tag k="name" v="Kalvegjæra" />
		<tag k="place" v="locality" />
		<tag k="ssr:stedsnr" v="278672" />
	</node>
	<node id="-567395" lat="62.4614611142" lon="6.85350555092">
		<tag k="name" v="Saltkjelen" />
		<tag k="natural" v="cape" />
		<tag k="ssr:stedsnr" v="278668" />
	</node>
	<node id="-567394" lat="62.4500305516" lon="6.98889443978">
		<tag k="name" v="Brenslemyrane" />
		<tag k="natural" v="wetland" />
		<tag k="ssr:stedsnr" v="278655" />
	</node>
	<node id="-567393" lat="62.4810416634" lon="6.8307444467">
		<tag k="name" v="Myrane" />
		<tag k="place" v="farm" />
		<tag k="ssr:stedsnr" v="278650" />
	</node>
	<node id="-567392" lat="62.5211194448" lon="6.91044722424">
		<tag k="name" v="Svartvasshaugen" />
		<tag k="natural" v="hill" />
		<tag k="place" v="locality" />
		<tag k="ssr:stedsnr" v="278642" />
	</node>
	<node id="-567391" lat="62.4965333301" lon="6.80301943868">
		<tag k="name" v="Langholen" />
		<tag k="natural" v="slope" />
		<tag k="place" v="locality" />
		<tag k="ssr:stedsnr" v="278636" />
	</node>
	<node id="-567390" lat="62.4845555538" lon="6.80269722479">
		<tag k="name" v="Ospanakken" />
		<tag k="natural" v="hill" />
		<tag k="place" v="locality" />
		<tag k="ssr:stedsnr" v="278634" />
	</node>
	<node id="-567389" lat="62.4627722214" lon="6.80548056161">
		<tag k="name" v="Bruna" />
		<tag k="natural" v="slope" />
		<tag k="place" v="locality" />
		<tag k="ssr:stedsnr" v="278630" />
	</node>
	<node id="-567388" lat="62.4804472204" lon="6.81169723166">
		<tag k="name" v="Øyrane" />
		<tag k="place" v="island" />
		<tag k="ssr:stedsnr" v="278628" />
	</node>
	<node id="-567387" lat="62.4629388892" lon="6.85436388054">
		<tag k="fixme" v="consider natural=peak for the most distinct mountains in the district" />
		<tag k="name" v="Skarbøhammaren" />
		<tag k="natural" v="hill" />
		<tag k="place" v="locality" />
		<tag k="ssr:stedsnr" v="278623" />
	</node>
	<node id="-567386" lat="62.51744722" lon="6.93018610325">
		<tag k="name" v="Reset" />
		<tag k="natural" v="slope" />
		<tag k="place" v="locality" />
		<tag k="ssr:stedsnr" v="278620" />
	</node>
	<node id="-567385" lat="62.4561555538" lon="6.87610833183">
		<tag k="name" v="Slettne" />
		<tag k="natural" v="beach" />
		<tag k="place" v="locality" />
		<tag k="ssr:stedsnr" v="278617" />
	</node>
	<node id="-567384" lat="62.5058361091" lon="6.93062777672">
		<tag k="name" v="Sætregrova" />
		<tag k="ssr:stedsnr" v="278613" />
		<tag k="waterway" v="stream" />
	</node>
	<node id="-567383" lat="62.5021138863" lon="6.9259666756">
		<tag k="name" v="Heia" />
		<tag k="natural" v="slope" />
		<tag k="place" v="locality" />
		<tag k="ssr:stedsnr" v="278612" />
	</node>
	<node id="-567382" lat="62.4583055584" lon="6.98322499076">
		<tag k="name" v="Plitthaugen" />
		<tag k="natural" v="hill" />
		<tag k="place" v="locality" />
		<tag k="ssr:stedsnr" v="278608" />
	</node>
	<node id="-567381" lat="62.4506777751" lon="6.90244166001">
		<tag k="name" v="Stomn" />
		<tag k="place" v="locality" />
		<tag k="ssr:stedsnr" v="278605" />
	</node>
	<node id="-567380" lat="62.4760416704" lon="6.89082221951">
		<tag k="name" v="Stormyra" />
		<tag k="natural" v="wetland" />
		<tag k="ssr:stedsnr" v="278599" />
	</node>
	<node id="-567379" lat="62.4546555555" lon="6.87983611505">
		<tag k="name" v="Rimane" />
		<tag k="natural" v="slope" />
		<tag k="place" v="locality" />
		<tag k="ssr:stedsnr" v="278597" />
	</node>
	<node id="-567378" lat="62.5088472212" lon="6.79945276888">
		<tag k="name" v="Gjerdebakkane" />
		<tag k="natural" v="slope" />
		<tag k="place" v="locality" />
		<tag k="ssr:stedsnr" v="278595" />
	</node>
	<node id="-567377" lat="62.4985500036" lon="6.87923054967">
		<tag k="name" v="Gamlesætra" />
		<tag k="place" v="locality" />
		<tag k="ssr:stedsnr" v="278593" />
	</node>
	<node id="-567376" lat="62.5212000023" lon="6.84371112008">
		<tag k="name" v="Lyrsteinen" />
		<tag k="natural" v="stone" />
		<tag k="ssr:stedsnr" v="278566" />
	</node>
	<node id="-567375" lat="62.4823527785" lon="6.86704167377">
		<tag k="name" v="Pinå" />
		<tag k="natural" v="slope" />
		<tag k="place" v="locality" />
		<tag k="ssr:stedsnr" v="278552" />
	</node>
	<node id="-567374" lat="62.481547221" lon="6.87069722225">
		<tag k="name" v="Rashølen" />
		<tag k="place" v="locality" />
		<tag k="ssr:stedsnr" v="278550" />
	</node>
	<node id="-567373" lat="62.4756055533" lon="6.81256111547">
		<tag k="name" v="Geilvika" />
		<tag k="natural" v="bay" />
		<tag k="ssr:stedsnr" v="278538" />
	</node>
	<node id="-567372" lat="62.4757805568" lon="6.81418611451">
		<tag k="name" v="Klokkarberget" />
		<tag k="natural" v="hill" />
		<tag k="place" v="locality" />
		<tag k="ssr:stedsnr" v="275270" />
	</node>
	<node id="-567371" lat="62.4781833369" lon="6.7416861159">
		<tag k="name" v="Gaupefloget" />
		<tag k="natural" v="slope" />
		<tag k="place" v="locality" />
		<tag k="ssr:stedsnr" v="274295" />
	</node>
	<node id="-567370" lat="62.4435249978" lon="6.90661111423">
		<tag k="layer" v="-1" />
		<tag k="name" v="Visettunnelen" />
		<tag k="ssr:stedsnr" v="269567" />
		<tag k="tunnel" v="yes" />
	</node>
</osm>
