<?xml version="1.0" encoding="UTF-8"?>
<osm generator="osmapis" version="0.6">
	<node id="-567225" lat="62.5055177481" lon="6.99157193385">
		<tag k="name" v="Steingardsheia" />
		<tag k="natural" v="hill" />
		<tag k="place" v="locality" />
		<tag k="ssr:stedsnr" v="972732" />
	</node>
	<node id="-567218" lat="62.5282000014" lon="6.87481111054">
		<tag k="name" v="Løklia" />
		<tag k="natural" v="slope" />
		<tag k="place" v="locality" />
		<tag k="ssr:stedsnr" v="946549" />
	</node>
	<node id="-567213" lat="62.4619583334" lon="6.77979722292">
		<tag k="name" v="Menakken" />
		<tag k="natural" v="ridge" />
		<tag k="place" v="locality" />
		<tag k="ssr:stedsnr" v="945980" />
	</node>
	<node id="-567210" lat="62.4591722261" lon="6.8794361143">
		<tag k="name" v="Løbakken" />
		<tag k="natural" v="slope" />
		<tag k="place" v="locality" />
		<tag k="ssr:stedsnr" v="945665" />
	</node>
	<node id="-567207" lat="62.4789361109" lon="6.80945278044">
		<tag k="name" v="Osberget" />
		<tag k="natural" v="hill" />
		<tag k="place" v="locality" />
		<tag k="ssr:stedsnr" v="945623" />
	</node>
	<node id="-567206" lat="62.5036972186" lon="6.78436388813">
		<tag k="name" v="Huldrehaugen" />
		<tag k="natural" v="hill" />
		<tag k="place" v="locality" />
		<tag k="ssr:stedsnr" v="945618" />
	</node>
	<node id="-567205" lat="62.4954944432" lon="6.88415833466">
		<tag k="name" v="Giskemodalen" />
		<tag k="natural" v="valley" />
		<tag k="place" v="locality" />
		<tag k="ssr:stedsnr" v="945615" />
	</node>
	<node id="-567202" lat="62.4937666695" lon="6.82313055204">
		<tag k="name" v="Løkjingsmyrbotnen" />
		<tag k="natural" v="valley" />
		<tag k="place" v="locality" />
		<tag k="ssr:stedsnr" v="945597" />
	</node>
	<node id="-567200" lat="62.5024527745" lon="6.87621943499">
		<tag k="name" v="Storskaret" />
		<tag k="natural" v="valley" />
		<tag k="place" v="locality" />
		<tag k="ssr:stedsnr" v="945569" />
	</node>
	<node id="-567199" lat="62.4911805569" lon="6.81153334076">
		<tag k="name" v="Kvilshaugen" />
		<tag k="natural" v="hill" />
		<tag k="place" v="locality" />
		<tag k="ssr:stedsnr" v="945555" />
	</node>
	<node id="-567198" lat="62.4964361069" lon="6.81115277635">
		<tag k="name" v="Fjellsenden" />
		<tag k="place" v="locality" />
		<tag k="ssr:stedsnr" v="945554" />
	</node>
	<node id="-567196" lat="62.4835305572" lon="6.9588277771">
		<tag k="name" v="Risbakkane" />
		<tag k="natural" v="slope" />
		<tag k="place" v="locality" />
		<tag k="ssr:stedsnr" v="945547" />
	</node>
	<node id="-567194" lat="62.4847388855" lon="6.80499999526">
		<tag k="name" v="Honnelbakken" />
		<tag k="natural" v="slope" />
		<tag k="place" v="locality" />
		<tag k="ssr:stedsnr" v="945534" />
	</node>
	<node id="-567193" lat="62.4597361131" lon="6.96266110835">
		<tag k="name" v="Småslætta" />
		<tag k="natural" v="slope" />
		<tag k="place" v="locality" />
		<tag k="ssr:stedsnr" v="945505" />
	</node>
	<node id="-567192" lat="62.4754111076" lon="6.92086666811">
		<tag k="name" v="Storløslætta" />
		<tag k="natural" v="slope" />
		<tag k="place" v="locality" />
		<tag k="ssr:stedsnr" v="945494" />
	</node>
	<node id="-567191" lat="62.4493555562" lon="6.91961111119">
		<tag k="name" v="Breiskaret" />
		<tag k="natural" v="valley" />
		<tag k="place" v="locality" />
		<tag k="ssr:stedsnr" v="945481" />
	</node>
	<node id="-567190" lat="62.4573361108" lon="6.96639443692">
		<tag k="name" v="Hjellhaugen" />
		<tag k="natural" v="hill" />
		<tag k="place" v="locality" />
		<tag k="ssr:stedsnr" v="945479" />
	</node>
	<node id="-567189" lat="62.5140999989" lon="6.90574166976">
		<tag k="name" v="Nysæterbakkane" />
		<tag k="natural" v="slope" />
		<tag k="place" v="locality" />
		<tag k="ssr:stedsnr" v="945453" />
	</node>
	<node id="-567187" lat="62.4568166648" lon="6.8797583402">
		<tag k="fixme" v="consider natural=peak for the most distinct mountains in the district" />
		<tag k="name" v="Litleåsen" />
		<tag k="natural" v="hill" />
		<tag k="place" v="locality" />
		<tag k="ssr:stedsnr" v="945431" />
	</node>
	<node id="-567186" lat="62.4743083319" lon="6.82481945154">
		<tag k="name" v="Breinakkane" />
		<tag k="natural" v="hill" />
		<tag k="place" v="locality" />
		<tag k="ssr:stedsnr" v="945420" />
	</node>
	<node id="-567185" lat="62.4657361106" lon="6.82740276882">
		<tag k="name" v="Holane" />
		<tag k="place" v="locality" />
		<tag k="ssr:stedsnr" v="945418" />
	</node>
	<node id="-567184" lat="62.4657944455" lon="6.80170833441">
		<tag k="name" v="Nykjen" />
		<tag k="natural" v="ridge" />
		<tag k="place" v="locality" />
		<tag k="ssr:stedsnr" v="945411" />
	</node>
	<node id="-567182" lat="62.523875001" lon="6.93630277641">
		<tag k="fixme" v="consider natural=peak for the most distinct mountains in the district" />
		<tag k="name" v="Nysæternakken" />
		<tag k="natural" v="hill" />
		<tag k="place" v="locality" />
		<tag k="ssr:stedsnr" v="922789" />
	</node>
	<node id="-567178" lat="62.4371499975" lon="6.98022499147">
		<tag k="fixme" v="consider natural=peak for the most distinct mountains in the district" />
		<tag k="name" v="Bolleberget" />
		<tag k="natural" v="hill" />
		<tag k="place" v="locality" />
		<tag k="ssr:stedsnr" v="920688" />
	</node>
	<node id="-567172" lat="62.5319638864" lon="6.84871389067">
		<tag k="name" v="Heiane" />
		<tag k="natural" v="hill" />
		<tag k="place" v="locality" />
		<tag k="ssr:stedsnr" v="861842" />
	</node>
	<node id="-567171" lat="62.5322527813" lon="6.93086389651">
		<tag k="name" v="Ørskogfjellet" />
		<tag k="natural" v="mountain_range" />
		<tag k="ssr:stedsnr" v="861827" />
	</node>
	<node id="-567170" lat="62.520613892" lon="6.87638611504">
		<tag k="alt_name" v="Bjønnskaret" />
		<tag k="name" v="Bjørnskaret" />
		<tag k="natural" v="valley" />
		<tag k="place" v="locality" />
		<tag k="ssr:stedsnr" v="861815" />
	</node>
	<node id="-567169" lat="62.4419666654" lon="6.96443611889">
		<tag k="name" v="Visetbotnen" />
		<tag k="natural" v="valley" />
		<tag k="old_name" v="Visetbotn" />
		<tag k="place" v="locality" />
		<tag k="ssr:stedsnr" v="861336" />
	</node>
	<node id="-567168" lat="62.454863888" lon="7.03422778306">
		<tag k="fixme" v="consider natural=peak for the most distinct mountains in the district" />
		<tag k="name" v="Blåfjellet" />
		<tag k="natural" v="hill" />
		<tag k="place" v="locality" />
		<tag k="ssr:stedsnr" v="861323" />
	</node>
	<node id="-567167" lat="62.4635666705" lon="7.00722222037">
		<tag k="alt_name" v="Åsrørene" />
		<tag k="fixme" v="consider natural=peak for the most distinct mountains in the district" />
		<tag k="name" v="Åsrørne" />
		<tag k="natural" v="hill" />
		<tag k="old_name" v="Åsrora" />
		<tag k="place" v="locality" />
		<tag k="ssr:stedsnr" v="860416" />
	</node>
	<node id="-567164" lat="62.4854749996" lon="6.76628888244">
		<tag k="fixme" v="consider natural=peak for the most distinct mountains in the district" />
		<tag k="name" v="Liafjellet" />
		<tag k="natural" v="hill" />
		<tag k="place" v="locality" />
		<tag k="ssr:stedsnr" v="860358" />
	</node>
	<node id="-567162" lat="62.4621749976" lon="6.77680277712">
		<tag k="name" v="Lillelømarka" />
		<tag k="natural" v="slope" />
		<tag k="place" v="locality" />
		<tag k="ssr:stedsnr" v="824970" />
	</node>
	<node id="-567155" lat="62.4609861068" lon="6.877777782">
		<tag k="name" v="Osphammaren" />
		<tag k="natural" v="hill" />
		<tag k="place" v="locality" />
		<tag k="ssr:stedsnr" v="824694" />
	</node>
	<node id="-567151" lat="62.4551666698" lon="6.89422500402">
		<tag k="name" v="Styggestihammaren" />
		<tag k="natural" v="cliff" />
		<tag k="ssr:stedsnr" v="824681" />
	</node>
	<node id="-567146" lat="62.4916249993" lon="6.83389722955">
		<tag k="name" v="Lusenakken" />
		<tag k="natural" v="ridge" />
		<tag k="place" v="locality" />
		<tag k="ssr:stedsnr" v="824627" />
	</node>
	<node id="-567144" lat="62.5081083303" lon="6.8091833413">
		<tag k="name" v="Ørnekulen" />
		<tag k="natural" v="hill" />
		<tag k="place" v="locality" />
		<tag k="ssr:stedsnr" v="824622" />
	</node>
	<node id="-567142" lat="62.4635861144" lon="6.82681111766">
		<tag k="name" v="Reset" />
		<tag k="natural" v="ridge" />
		<tag k="place" v="locality" />
		<tag k="ssr:stedsnr" v="824606" />
	</node>
	<node id="-567141" lat="62.4813222221" lon="6.92619721683">
		<tag k="name" v="Aksla" />
		<tag k="natural" v="ridge" />
		<tag k="place" v="locality" />
		<tag k="ssr:stedsnr" v="824603" />
	</node>
	<node id="-567139" lat="62.5077500035" lon="6.8268583374">
		<tag k="name" v="Kvileberget" />
		<tag k="natural" v="hill" />
		<tag k="place" v="locality" />
		<tag k="ssr:stedsnr" v="824575" />
	</node>
	<node id="-567138" lat="62.4535444449" lon="6.88042776865">
		<tag k="name" v="Slentrehola" />
		<tag k="natural" v="valley" />
		<tag k="place" v="locality" />
		<tag k="ssr:stedsnr" v="824567" />
	</node>
	<node id="-567137" lat="62.4954916662" lon="6.8390611197">
		<tag k="name" v="Øvstestigane" />
		<tag k="natural" v="slope" />
		<tag k="place" v="locality" />
		<tag k="ssr:stedsnr" v="824559" />
	</node>
	<node id="-567135" lat="62.4685277784" lon="6.98038333606">
		<tag k="name" v="Grønlibruna" />
		<tag k="natural" v="ridge" />
		<tag k="place" v="locality" />
		<tag k="ssr:stedsnr" v="824529" />
	</node>
	<node id="-567134" lat="62.4490527807" lon="6.92089721299">
		<tag k="name" v="Vassbakken" />
		<tag k="natural" v="slope" />
		<tag k="place" v="locality" />
		<tag k="ssr:stedsnr" v="824525" />
	</node>
	<node id="-567126" lat="62.521058334" lon="6.83284722806">
		<tag k="name" v="Liasæterkamben" />
		<tag k="natural" v="hill" />
		<tag k="place" v="locality" />
		<tag k="ssr:stedsnr" v="800787" />
	</node>
	<node id="-567125" lat="62.4475222182" lon="7.0998583417">
		<tag k="name" v="Sunnmørslauparlægda" />
		<tag k="natural" v="valley" />
		<tag k="old_name" v="Sunnmørslauparlengda" />
		<tag k="place" v="locality" />
		<tag k="ssr:stedsnr" v="800362" />
	</node>
	<node id="-567124" lat="62.4388138932" lon="6.93567777971">
		<tag k="fixme" v="consider natural=peak for the most distinct mountains in the district" />
		<tag k="name" v="Hallvardsfjellet" />
		<tag k="natural" v="hill" />
		<tag k="place" v="locality" />
		<tag k="ssr:stedsnr" v="800356" />
	</node>
	<node id="-567120" lat="62.4849305577" lon="6.95219167206">
		<tag k="name" v="Skarbøbotnen" />
		<tag k="natural" v="valley" />
		<tag k="place" v="locality" />
		<tag k="ssr:stedsnr" v="800304" />
	</node>
	<node id="-567116" lat="62.4138138909" lon="7.06056389524">
		<tag k="alt_name" v="Skorkja, heimste" />
		<tag k="fixme" v="multiple name tags, choose one and add the other to alt_name; consider natural=peak for the most distinct mountains in the district" />
		<tag k="name" v="Heimste Skorka;Sandfjellet" />
		<tag k="natural" v="hill" />
		<tag k="old_name" v="Høgnykjen" />
		<tag k="place" v="locality" />
		<tag k="ssr:stedsnr" v="799672" />
	</node>
	<node id="-567113" lat="62.4779583365" lon="6.70434999957">
		<tag k="name" v="Tiendberget" />
		<tag k="natural" v="ridge" />
		<tag k="place" v="locality" />
		<tag k="ssr:stedsnr" v="763973" />
	</node>
	<node id="-567108" lat="62.4558222195" lon="6.88941388991">
		<tag k="name" v="Nyprastø" />
		<tag k="natural" v="ridge" />
		<tag k="place" v="locality" />
		<tag k="ssr:stedsnr" v="763689" />
	</node>
	<node id="-567107" lat="62.4675055542" lon="6.80539445006">
		<tag k="name" v="Middagshola" />
		<tag k="natural" v="valley" />
		<tag k="place" v="locality" />
		<tag k="ssr:stedsnr" v="763676" />
	</node>
	<node id="-567105" lat="62.4716222193" lon="6.84870833158">
		<tag k="name" v="Vallbøhaugane" />
		<tag k="natural" v="hill" />
		<tag k="place" v="locality" />
		<tag k="ssr:stedsnr" v="763637" />
	</node>
	<node id="-567103" lat="62.5029249956" lon="6.87926389493">
		<tag k="name" v="Menakken" />
		<tag k="natural" v="ridge" />
		<tag k="place" v="locality" />
		<tag k="ssr:stedsnr" v="763627" />
	</node>
	<node id="-567101" lat="62.443472225" lon="6.95403888139">
		<tag k="name" v="Lågheia" />
		<tag k="natural" v="slope" />
		<tag k="place" v="locality" />
		<tag k="ssr:stedsnr" v="763623" />
	</node>
	<node id="-567099" lat="62.4888861099" lon="6.80550556508">
		<tag k="name" v="Litlehammaren" />
		<tag k="natural" v="cliff" />
		<tag k="ssr:stedsnr" v="763613" />
	</node>
	<node id="-567098" lat="62.4786583336" lon="6.86472223167">
		<tag k="name" v="Øyna" />
		<tag k="place" v="locality" />
		<tag k="ssr:stedsnr" v="763601" />
	</node>
	<node id="-567097" lat="62.5150444473" lon="6.80830276815">
		<tag k="name" v="Nørnakken" />
		<tag k="natural" v="ridge" />
		<tag k="place" v="locality" />
		<tag k="ssr:stedsnr" v="763600" />
	</node>
	<node id="-567096" lat="62.483308329" lon="6.82819166608">
		<tag k="name" v="Steinholthaugane" />
		<tag k="natural" v="hill" />
		<tag k="place" v="locality" />
		<tag k="ssr:stedsnr" v="763596" />
	</node>
	<node id="-567095" lat="62.4593222235" lon="6.87423611121">
		<tag k="name" v="Naustberget" />
		<tag k="natural" v="hill" />
		<tag k="place" v="locality" />
		<tag k="ssr:stedsnr" v="763594" />
	</node>
	<node id="-567094" lat="62.4493194431" lon="6.91573610434">
		<tag k="name" v="Siribakken" />
		<tag k="natural" v="slope" />
		<tag k="place" v="locality" />
		<tag k="ssr:stedsnr" v="763576" />
	</node>
	<node id="-567093" lat="62.5009166704" lon="6.80980278608">
		<tag k="name" v="Nedstehaugen" />
		<tag k="natural" v="hill" />
		<tag k="place" v="locality" />
		<tag k="ssr:stedsnr" v="763549" />
	</node>
	<node id="-567092" lat="62.439791669" lon="6.97601944886">
		<tag k="name" v="Skurlia" />
		<tag k="natural" v="slope" />
		<tag k="place" v="locality" />
		<tag k="ssr:stedsnr" v="763548" />
	</node>
	<node id="-567090" lat="62.4843611085" lon="6.81064445054">
		<tag k="name" v="Ryebakken" />
		<tag k="natural" v="slope" />
		<tag k="place" v="locality" />
		<tag k="ssr:stedsnr" v="763540" />
	</node>
	<node id="-567089" lat="62.4546888906" lon="6.88135556011">
		<tag k="name" v="Kleiva" />
		<tag k="natural" v="slope" />
		<tag k="place" v="locality" />
		<tag k="ssr:stedsnr" v="763527" />
	</node>
	<node id="-567088" lat="62.4653694486" lon="6.91202221699">
		<tag k="name" v="Storhaugen" />
		<tag k="natural" v="hill" />
		<tag k="place" v="locality" />
		<tag k="ssr:stedsnr" v="763523" />
	</node>
	<node id="-567087" lat="62.4721916692" lon="6.8544777691">
		<tag k="name" v="Brendehaugrørene" />
		<tag k="natural" v="ridge" />
		<tag k="place" v="locality" />
		<tag k="ssr:stedsnr" v="763518" />
	</node>
	<node id="-567081" lat="62.4497194414" lon="7.11611944863">
		<tag k="fixme" v="consider natural=peak for the most distinct mountains in the district" />
		<tag k="name" v="Lauparen" />
		<tag k="natural" v="hill" />
		<tag k="place" v="locality" />
		<tag k="ssr:stedsnr" v="739351" />
	</node>
	<node id="-567078" lat="62.4962305557" lon="6.8472888794">
		<tag k="name" v="Verahornet" />
		<tag k="natural" v="hill" />
		<tag k="old_name" v="Værhornet" />
		<tag k="place" v="locality" />
		<tag k="ssr:stedsnr" v="739278" />
	</node>
	<node id="-567077" lat="62.4423416626" lon="7.12034167023">
		<tag k="fixme" v="consider natural=peak for the most distinct mountains in the district" />
		<tag k="name" v="Svartvassegga" />
		<tag k="natural" v="hill" />
		<tag k="place" v="locality" />
		<tag k="ssr:stedsnr" v="738681" />
	</node>
	<node id="-567076" lat="62.4243111098" lon="7.0802388968">
		<tag k="alt_name" v="Skorkja, fremste" />
		<tag k="fixme" v="multiple name tags, choose one and add the other to alt_name; consider natural=peak for the most distinct mountains in the district" />
		<tag k="name" v="Fremste Skorka;Litlebotnstinden" />
		<tag k="natural" v="hill" />
		<tag k="old_name" v="Litlebottstind" />
		<tag k="place" v="locality" />
		<tag k="ssr:stedsnr" v="738673" />
	</node>
	<node id="-567070" lat="62.461488892" lon="6.78260278568">
		<tag k="name" v="Nykjen" />
		<tag k="natural" v="ridge" />
		<tag k="place" v="locality" />
		<tag k="ssr:stedsnr" v="703702" />
	</node>
	<node id="-567069" lat="62.4847222195" lon="6.76463888786">
		<tag k="name" v="Vetegylet" />
		<tag k="natural" v="gorge" />
		<tag k="ssr:stedsnr" v="703690" />
	</node>
	<node id="-567068" lat="62.4838138919" lon="6.75967221749">
		<tag k="name" v="Hesteløypa" />
		<tag k="natural" v="valley" />
		<tag k="place" v="locality" />
		<tag k="ssr:stedsnr" v="703687" />
	</node>
	<node id="-567065" lat="62.5007638868" lon="6.78924445139">
		<tag k="name" v="Barhusdalen" />
		<tag k="natural" v="valley" />
		<tag k="place" v="locality" />
		<tag k="ssr:stedsnr" v="703674" />
	</node>
	<node id="-567064" lat="62.5094555524" lon="6.79104999204">
		<tag k="name" v="Ytstereset" />
		<tag k="natural" v="ridge" />
		<tag k="place" v="locality" />
		<tag k="ssr:stedsnr" v="703673" />
	</node>
	<node id="-567061" lat="62.4821888882" lon="6.88028055951">
		<tag k="name" v="Giskemoberget" />
		<tag k="place" v="locality" />
		<tag k="ssr:stedsnr" v="703664" />
	</node>
	<node id="-567060" lat="62.4671916686" lon="6.86440277303">
		<tag k="name" v="Jarskarhaugen" />
		<tag k="natural" v="hill" />
		<tag k="place" v="locality" />
		<tag k="ssr:stedsnr" v="703646" />
	</node>
	<node id="-567059" lat="62.5148027744" lon="6.8398666634">
		<tag k="name" v="Bjønnanakkane" />
		<tag k="natural" v="hill" />
		<tag k="place" v="locality" />
		<tag k="ssr:stedsnr" v="703643" />
	</node>
	<node id="-567058" lat="62.4413583302" lon="6.96170278621">
		<tag k="name" v="Skålbotnen" />
		<tag k="natural" v="valley" />
		<tag k="place" v="locality" />
		<tag k="ssr:stedsnr" v="703627" />
	</node>
	<node id="-567057" lat="62.5054944415" lon="6.81254444211">
		<tag k="name" v="Geilhaugen" />
		<tag k="natural" v="hill" />
		<tag k="place" v="locality" />
		<tag k="ssr:stedsnr" v="703625" />
	</node>
	<node id="-567055" lat="62.5322972205" lon="6.94794445301">
		<tag k="name" v="Bytehaugen" />
		<tag k="natural" v="hill" />
		<tag k="place" v="locality" />
		<tag k="ssr:stedsnr" v="703598" />
	</node>
	<node id="-567054" lat="62.4422888898" lon="6.91186944727">
		<tag k="name" v="Visetfjellet" />
		<tag k="natural" v="hill" />
		<tag k="place" v="locality" />
		<tag k="ssr:stedsnr" v="703593" />
	</node>
	<node id="-567053" lat="62.4610000023" lon="6.92551110198">
		<tag k="name" v="Storhaugen" />
		<tag k="natural" v="hill" />
		<tag k="place" v="locality" />
		<tag k="ssr:stedsnr" v="703588" />
	</node>
	<node id="-567052" lat="62.5429416642" lon="6.90529999571">
		<tag k="name" v="Kjølen" />
		<tag k="natural" v="slope" />
		<tag k="place" v="locality" />
		<tag k="ssr:stedsnr" v="703584" />
	</node>
	<node id="-567050" lat="62.4679583352" lon="6.892605557">
		<tag k="name" v="Nakkane" />
		<tag k="natural" v="hill" />
		<tag k="place" v="locality" />
		<tag k="ssr:stedsnr" v="703581" />
	</node>
	<node id="-567048" lat="62.4951027766" lon="6.93166667211">
		<tag k="name" v="Snaufjellskredene" />
		<tag k="natural" v="slope" />
		<tag k="place" v="locality" />
		<tag k="ssr:stedsnr" v="703573" />
	</node>
	<node id="-567047" lat="62.4688083336" lon="6.93486945037">
		<tag k="name" v="Sætredalen" />
		<tag k="natural" v="valley" />
		<tag k="place" v="locality" />
		<tag k="ssr:stedsnr" v="703566" />
	</node>
	<node id="-567046" lat="62.462355555" lon="6.89043611072">
		<tag k="name" v="Ormhaugen" />
		<tag k="natural" v="hill" />
		<tag k="place" v="locality" />
		<tag k="ssr:stedsnr" v="703532" />
	</node>
	<node id="-567040" lat="62.4302000018" lon="7.11686110378">
		<tag k="name" v="Trollbotnen" />
		<tag k="natural" v="valley" />
		<tag k="old_name" v="Trollbotn" />
		<tag k="place" v="locality" />
		<tag k="ssr:stedsnr" v="678664" />
	</node>
	<node id="-567037" lat="62.4864249967" lon="6.7690916607">
		<tag k="alt_name" v="Vetafjellet" />
		<tag k="name" v="Veten" />
		<tag k="natural" v="hill" />
		<tag k="place" v="locality" />
		<tag k="ssr:stedsnr" v="678321" />
	</node>
	<node id="-567032" lat="62.4876472255" lon="6.80193610646">
		<tag k="name" v="Svarthammaren" />
		<tag k="natural" v="cliff" />
		<tag k="ssr:stedsnr" v="642547" />
	</node>
	<node id="-567031" lat="62.4567555534" lon="6.97240833881">
		<tag k="name" v="Svarttjønnhaugen" />
		<tag k="natural" v="hill" />
		<tag k="place" v="locality" />
		<tag k="ssr:stedsnr" v="642520" />
	</node>
	<node id="-567030" lat="62.4442444428" lon="6.91072500523">
		<tag k="name" v="Koppen" />
		<tag k="natural" v="valley" />
		<tag k="place" v="locality" />
		<tag k="ssr:stedsnr" v="642488" />
	</node>
	<node id="-567029" lat="62.4856861068" lon="6.86181944748">
		<tag k="name" v="Opplendskedalen" />
		<tag k="natural" v="valley" />
		<tag k="place" v="locality" />
		<tag k="ssr:stedsnr" v="642487" />
	</node>
	<node id="-567028" lat="62.4745194402" lon="6.90356665892">
		<tag k="name" v="Høgstølane" />
		<tag k="natural" v="hill" />
		<tag k="place" v="locality" />
		<tag k="ssr:stedsnr" v="642481" />
	</node>
	<node id="-567021" lat="62.4422749957" lon="6.90428333334">
		<tag k="name" v="Kjerringgylet" />
		<tag k="natural" v="valley" />
		<tag k="place" v="locality" />
		<tag k="ssr:stedsnr" v="641652" />
	</node>
	<node id="-567018" lat="62.4839805598" lon="6.75366667454">
		<tag k="name" v="Vassnakken" />
		<tag k="natural" v="ridge" />
		<tag k="place" v="locality" />
		<tag k="ssr:stedsnr" v="641644" />
	</node>
	<node id="-567017" lat="62.4845361156" lon="6.75080833121">
		<tag k="name" v="Vasslia" />
		<tag k="natural" v="slope" />
		<tag k="place" v="locality" />
		<tag k="ssr:stedsnr" v="641616" />
	</node>
	<node id="-567015" lat="62.4627861079" lon="6.84914444601">
		<tag k="name" v="Jørghaugen" />
		<tag k="natural" v="hill" />
		<tag k="place" v="locality" />
		<tag k="ssr:stedsnr" v="641593" />
	</node>
	<node id="-567014" lat="62.5060333328" lon="6.8939222175">
		<tag k="name" v="Tverrbakkane" />
		<tag k="natural" v="slope" />
		<tag k="place" v="locality" />
		<tag k="ssr:stedsnr" v="641589" />
	</node>
	<node id="-567013" lat="62.4852388923" lon="6.82713889413">
		<tag k="name" v="Ådalen" />
		<tag k="natural" v="valley" />
		<tag k="place" v="locality" />
		<tag k="ssr:stedsnr" v="641582" />
	</node>
	<node id="-567012" lat="62.4696666672" lon="6.87078055309">
		<tag k="name" v="Hjellhaugane" />
		<tag k="natural" v="hill" />
		<tag k="place" v="locality" />
		<tag k="ssr:stedsnr" v="641581" />
	</node>
	<node id="-567011" lat="62.5065944413" lon="6.80575555491">
		<tag k="name" v="Brendhaugen" />
		<tag k="natural" v="hill" />
		<tag k="place" v="locality" />
		<tag k="ssr:stedsnr" v="641579" />
	</node>
	<node id="-567009" lat="62.4804749956" lon="6.85166666534">
		<tag k="name" v="Hegredalen" />
		<tag k="natural" v="valley" />
		<tag k="place" v="locality" />
		<tag k="ssr:stedsnr" v="641567" />
	</node>
	<node id="-567007" lat="62.468605559" lon="6.85887499381">
		<tag k="name" v="Kjerringhola" />
		<tag k="natural" v="valley" />
		<tag k="place" v="locality" />
		<tag k="ssr:stedsnr" v="641536" />
	</node>
	<node id="-567006" lat="62.4541416707" lon="6.90615556271">
		<tag k="name" v="Stomnhaugen" />
		<tag k="natural" v="hill" />
		<tag k="place" v="locality" />
		<tag k="ssr:stedsnr" v="641513" />
	</node>
	<node id="-567003" lat="62.4900416677" lon="6.81925833708">
		<tag k="name" v="Eggereset" />
		<tag k="natural" v="ridge" />
		<tag k="place" v="locality" />
		<tag k="ssr:stedsnr" v="641458" />
	</node>
	<node id="-567002" lat="62.4680888916" lon="6.79603055514">
		<tag k="name" v="Hestevikberget" />
		<tag k="natural" v="hill" />
		<tag k="place" v="locality" />
		<tag k="ssr:stedsnr" v="638289" />
	</node>
	<node id="-566999" lat="62.5063782112" lon="6.88444316944">
		<tag k="fixme" v="consider natural=peak for the most distinct mountains in the district" />
		<tag k="name" v="Høgnøsa" />
		<tag k="natural" v="hill" />
		<tag k="place" v="locality" />
		<tag k="ssr:stedsnr" v="618835" />
	</node>
	<node id="-566998" lat="62.5002888897" lon="6.83563610248">
		<tag k="fixme" v="consider natural=peak for the most distinct mountains in the district" />
		<tag k="name" v="Knippingen" />
		<tag k="natural" v="hill" />
		<tag k="place" v="locality" />
		<tag k="ssr:stedsnr" v="618834" />
	</node>
	<node id="-566997" lat="62.4359638907" lon="7.0240777696">
		<tag k="name" v="Heiane" />
		<tag k="natural" v="hill" />
		<tag k="place" v="locality" />
		<tag k="ssr:stedsnr" v="617684" />
	</node>
	<node id="-566994" lat="62.4765222224" lon="7.0102194498">
		<tag k="fixme" v="consider natural=peak for the most distinct mountains in the district" />
		<tag k="name" v="Dyrshamrane" />
		<tag k="natural" v="hill" />
		<tag k="place" v="locality" />
		<tag k="ssr:stedsnr" v="617361" />
	</node>
	<node id="-566993" lat="62.4741111151" lon="6.97051110386">
		<tag k="fixme" v="consider natural=peak for the most distinct mountains in the district" />
		<tag k="name" v="Sætrefjellet" />
		<tag k="natural" v="hill" />
		<tag k="old_name" v="Sæterfjellet" />
		<tag k="place" v="locality" />
		<tag k="ssr:stedsnr" v="617346" />
	</node>
	<node id="-566989" lat="62.4722388907" lon="6.90734445264">
		<tag k="name" v="Smånakkane" />
		<tag k="natural" v="slope" />
		<tag k="place" v="locality" />
		<tag k="ssr:stedsnr" v="581723" />
	</node>
	<node id="-566987" lat="62.4654166664" lon="6.83660556116">
		<tag k="name" v="Hjellen" />
		<tag k="place" v="locality" />
		<tag k="ssr:stedsnr" v="581699" />
	</node>
	<node id="-566985" lat="62.4557944417" lon="6.96870833937">
		<tag k="name" v="Hjellhaugen" />
		<tag k="natural" v="hill" />
		<tag k="place" v="locality" />
		<tag k="ssr:stedsnr" v="581677" />
	</node>
	<node id="-566982" lat="62.506313888" lon="6.8089277771">
		<tag k="name" v="Fagerlia" />
		<tag k="natural" v="slope" />
		<tag k="place" v="locality" />
		<tag k="ssr:stedsnr" v="581647" />
	</node>
	<node id="-566981" lat="62.4848083323" lon="6.80809443576">
		<tag k="name" v="Bakken" />
		<tag k="natural" v="slope" />
		<tag k="place" v="locality" />
		<tag k="ssr:stedsnr" v="581621" />
	</node>
	<node id="-566980" lat="62.4798611113" lon="6.82437221822">
		<tag k="name" v="Lunden" />
		<tag k="place" v="locality" />
		<tag k="ssr:stedsnr" v="581618" />
	</node>
	<node id="-566979" lat="62.4868000019" lon="6.79659721814">
		<tag k="name" v="Kvitnausa" />
		<tag k="natural" v="ridge" />
		<tag k="place" v="locality" />
		<tag k="ssr:stedsnr" v="581617" />
	</node>
	<node id="-566978" lat="62.5219999993" lon="6.83645832514">
		<tag k="name" v="Marsteinlia" />
		<tag k="natural" v="slope" />
		<tag k="place" v="locality" />
		<tag k="ssr:stedsnr" v="581615" />
	</node>
	<node id="-566977" lat="62.5190111102" lon="6.82334721708">
		<tag k="name" v="Storhaugen" />
		<tag k="natural" v="hill" />
		<tag k="place" v="locality" />
		<tag k="ssr:stedsnr" v="581610" />
	</node>
	<node id="-566976" lat="62.4785888873" lon="6.82245832647">
		<tag k="name" v="Lunden" />
		<tag k="place" v="locality" />
		<tag k="ssr:stedsnr" v="581608" />
	</node>
	<node id="-566975" lat="62.4848222188" lon="6.8339638823">
		<tag k="name" v="Olebakkane" />
		<tag k="natural" v="slope" />
		<tag k="place" v="locality" />
		<tag k="ssr:stedsnr" v="581606" />
	</node>
	<node id="-566973" lat="62.4432166672" lon="6.96635000944">
		<tag k="name" v="Litlelinakken" />
		<tag k="natural" v="ridge" />
		<tag k="place" v="locality" />
		<tag k="ssr:stedsnr" v="581597" />
	</node>
	<node id="-566972" lat="62.448658331" lon="6.90371389225">
		<tag k="name" v="Visetnakken" />
		<tag k="natural" v="hill" />
		<tag k="place" v="locality" />
		<tag k="ssr:stedsnr" v="581596" />
	</node>
	<node id="-566971" lat="62.5137972215" lon="6.91663333551">
		<tag k="name" v="Storsteinshaugen" />
		<tag k="natural" v="hill" />
		<tag k="place" v="locality" />
		<tag k="ssr:stedsnr" v="581593" />
	</node>
	<node id="-566966" lat="62.510755554" lon="6.80296667552">
		<tag k="fixme" v="consider natural=peak for the most distinct mountains in the district" />
		<tag k="name" v="Rabben" />
		<tag k="natural" v="hill" />
		<tag k="place" v="locality" />
		<tag k="ssr:stedsnr" v="581550" />
	</node>
	<node id="-566963" lat="62.5062499993" lon="6.90233611234">
		<tag k="name" v="Hjellen" />
		<tag k="place" v="locality" />
		<tag k="ssr:stedsnr" v="581547" />
	</node>
	<node id="-566961" lat="62.444588887" lon="6.90508333114">
		<tag k="name" v="Høgenakken" />
		<tag k="natural" v="ridge" />
		<tag k="place" v="locality" />
		<tag k="ssr:stedsnr" v="581530" />
	</node>
	<node id="-566960" lat="62.4647003027" lon="6.83952155694">
		<tag k="name" v="Nøsa" />
		<tag k="natural" v="ridge" />
		<tag k="place" v="locality" />
		<tag k="ssr:stedsnr" v="581522" />
	</node>
	<node id="-566956" lat="62.5404805574" lon="6.91479443772">
		<tag k="name" v="Skitnsæterryggen" />
		<tag k="natural" v="hill" />
		<tag k="place" v="locality" />
		<tag k="ssr:stedsnr" v="557824" />
	</node>
	<node id="-566955" lat="62.5340416667" lon="6.90395000626">
		<tag k="alt_name" v="Skållinakken" />
		<tag k="name" v="Skålhaugen" />
		<tag k="natural" v="hill" />
		<tag k="place" v="locality" />
		<tag k="ssr:stedsnr" v="557819" />
	</node>
	<node id="-566944" lat="62.4445555599" lon="6.89883055723">
		<tag k="name" v="Halsen" />
		<tag k="natural" v="ridge" />
		<tag k="place" v="locality" />
		<tag k="ssr:stedsnr" v="520689" />
	</node>
	<node id="-566941" lat="62.4847027742" lon="6.74411667027">
		<tag k="name" v="Høgnakken" />
		<tag k="natural" v="ridge" />
		<tag k="place" v="locality" />
		<tag k="ssr:stedsnr" v="520651" />
	</node>
	<node id="-566940" lat="62.5129083358" lon="6.8748555539">
		<tag k="name" v="Trolldalen" />
		<tag k="natural" v="valley" />
		<tag k="place" v="locality" />
		<tag k="ssr:stedsnr" v="520615" />
	</node>
	<node id="-566938" lat="62.4432361114" lon="7.00479166954">
		<tag k="name" v="Høghaugane" />
		<tag k="natural" v="hill" />
		<tag k="place" v="locality" />
		<tag k="ssr:stedsnr" v="520604" />
	</node>
	<node id="-566937" lat="62.5031749975" lon="6.7997499945">
		<tag k="name" v="Nedstefjellet" />
		<tag k="natural" v="slope" />
		<tag k="place" v="locality" />
		<tag k="ssr:stedsnr" v="520602" />
	</node>
	<node id="-566936" lat="62.4631944415" lon="6.84186667276">
		<tag k="name" v="Anekleiva" />
		<tag k="natural" v="slope" />
		<tag k="place" v="locality" />
		<tag k="ssr:stedsnr" v="520593" />
	</node>
	<node id="-566935" lat="62.4970416623" lon="6.97235555366">
		<tag k="alt_name" v="Kvandalsbotnen" />
		<tag k="name" v="Kvanndalsbotnen" />
		<tag k="natural" v="valley" />
		<tag k="place" v="locality" />
		<tag k="ssr:stedsnr" v="520582" />
	</node>
	<node id="-566934" lat="62.4610500039" lon="6.86683611922">
		<tag k="name" v="Arneberget" />
		<tag k="natural" v="hill" />
		<tag k="place" v="locality" />
		<tag k="ssr:stedsnr" v="520578" />
	</node>
	<node id="-566933" lat="62.5179722244" lon="6.80715832693">
		<tag k="name" v="Fremstebotnen" />
		<tag k="natural" v="valley" />
		<tag k="place" v="locality" />
		<tag k="ssr:stedsnr" v="520576" />
	</node>
	<node id="-566932" lat="62.5239222236" lon="6.88887499849">
		<tag k="name" v="Bjønnskarbakken" />
		<tag k="natural" v="slope" />
		<tag k="place" v="locality" />
		<tag k="ssr:stedsnr" v="520556" />
	</node>
	<node id="-566931" lat="62.4869249964" lon="6.81652500511">
		<tag k="name" v="Sjøholtreitane" />
		<tag k="natural" v="slope" />
		<tag k="place" v="locality" />
		<tag k="ssr:stedsnr" v="520536" />
	</node>
	<node id="-566930" lat="62.4717138875" lon="6.89300556096">
		<tag k="name" v="Brunstadberget" />
		<tag k="natural" v="slope" />
		<tag k="place" v="locality" />
		<tag k="ssr:stedsnr" v="520532" />
	</node>
	<node id="-566929" lat="62.467144446" lon="7.02547500502">
		<tag k="name" v="Kjersemfjellet" />
		<tag k="natural" v="hill" />
		<tag k="place" v="locality" />
		<tag k="ssr:stedsnr" v="520526" />
	</node>
	<node id="-566928" lat="62.4433666703" lon="6.92092499063">
		<tag k="name" v="Dektene" />
		<tag k="natural" v="valley" />
		<tag k="place" v="locality" />
		<tag k="ssr:stedsnr" v="520515" />
	</node>
	<node id="-566927" lat="62.5208472183" lon="6.82581111223">
		<tag k="name" v="Dyrsbrauta" />
		<tag k="natural" v="slope" />
		<tag k="place" v="locality" />
		<tag k="ssr:stedsnr" v="520501" />
	</node>
	<node id="-566926" lat="62.4920111073" lon="6.8262472141">
		<tag k="name" v="Eggebotnen" />
		<tag k="natural" v="valley" />
		<tag k="place" v="locality" />
		<tag k="ssr:stedsnr" v="520488" />
	</node>
	<node id="-566924" lat="62.4654333372" lon="6.87907778346">
		<tag k="name" v="Kamben" />
		<tag k="natural" v="hill" />
		<tag k="place" v="locality" />
		<tag k="ssr:stedsnr" v="520474" />
	</node>
	<node id="-566917" lat="62.5098416648" lon="6.87905555001">
		<tag k="name" v="Landeheia" />
		<tag k="natural" v="slope" />
		<tag k="place" v="locality" />
		<tag k="ssr:stedsnr" v="497853" />
	</node>
	<node id="-566913" lat="62.4807777805" lon="6.97586111827">
		<tag k="name" v="Kleggeskardet" />
		<tag k="natural" v="valley" />
		<tag k="place" v="locality" />
		<tag k="ssr:stedsnr" v="496343" />
	</node>
	<node id="-566911" lat="62.4915777774" lon="6.95470555058">
		<tag k="name" v="Kolda" />
		<tag k="place" v="locality" />
		<tag k="ssr:stedsnr" v="496319" />
	</node>
	<node id="-566910" lat="62.4379777745" lon="7.01423611256">
		<tag k="alt_name" v="Skurfjellet" />
		<tag k="fixme" v="multiple name tags, choose one and add the other to alt_name; consider natural=peak for the most distinct mountains in the district" />
		<tag k="name" v="Høgheia;Skurdfjellet" />
		<tag k="natural" v="hill" />
		<tag k="place" v="locality" />
		<tag k="ssr:stedsnr" v="495685" />
	</node>
	<node id="-566899" lat="62.4616972216" lon="6.88108332524">
		<tag k="name" v="Briseberget" />
		<tag k="natural" v="hill" />
		<tag k="place" v="locality" />
		<tag k="ssr:stedsnr" v="460728" />
	</node>
	<node id="-566898" lat="62.4638361136" lon="6.78413610471">
		<tag k="name" v="Kyrkjebakkane" />
		<tag k="natural" v="slope" />
		<tag k="place" v="locality" />
		<tag k="ssr:stedsnr" v="460721" />
	</node>
	<node id="-566895" lat="62.4648944479" lon="6.9448111013">
		<tag k="name" v="Grynukdalen" />
		<tag k="natural" v="valley" />
		<tag k="place" v="locality" />
		<tag k="ssr:stedsnr" v="460690" />
	</node>
	<node id="-566894" lat="62.4764055527" lon="6.94353889418">
		<tag k="name" v="Heiane" />
		<tag k="natural" v="slope" />
		<tag k="place" v="locality" />
		<tag k="ssr:stedsnr" v="460688" />
	</node>
	<node id="-566893" lat="62.4775555528" lon="6.81312499733">
		<tag k="name" v="Presteøyrane" />
		<tag k="place" v="locality" />
		<tag k="ssr:stedsnr" v="460680" />
	</node>
	<node id="-566891" lat="62.4672666706" lon="6.79447499981">
		<tag k="name" v="Kamberørene" />
		<tag k="natural" v="ridge" />
		<tag k="place" v="locality" />
		<tag k="ssr:stedsnr" v="460676" />
	</node>
	<node id="-566889" lat="62.4690944437" lon="6.82186943498">
		<tag k="name" v="Langhaugen" />
		<tag k="natural" v="hill" />
		<tag k="place" v="locality" />
		<tag k="ssr:stedsnr" v="460670" />
	</node>
	<node id="-566887" lat="62.499347225" lon="6.819088887">
		<tag k="name" v="Brauta" />
		<tag k="natural" v="slope" />
		<tag k="place" v="locality" />
		<tag k="ssr:stedsnr" v="460661" />
	</node>
	<node id="-566886" lat="62.4580416635" lon="7.001519441">
		<tag k="name" v="Åsen" />
		<tag k="natural" v="slope" />
		<tag k="place" v="locality" />
		<tag k="ssr:stedsnr" v="460654" />
	</node>
	<node id="-566885" lat="62.5036194433" lon="6.88116111386">
		<tag k="name" v="Litleskaret" />
		<tag k="natural" v="valley" />
		<tag k="place" v="locality" />
		<tag k="ssr:stedsnr" v="460650" />
	</node>
	<node id="-566884" lat="62.4721722235" lon="6.82832222033">
		<tag k="name" v="Strupen" />
		<tag k="natural" v="valley" />
		<tag k="place" v="locality" />
		<tag k="ssr:stedsnr" v="460637" />
	</node>
	<node id="-566883" lat="62.501780554" lon="6.84444721432">
		<tag k="name" v="Heimsteskaret" />
		<tag k="natural" v="valley" />
		<tag k="place" v="locality" />
		<tag k="ssr:stedsnr" v="460616" />
	</node>
	<node id="-566881" lat="62.5110500006" lon="6.92335556188">
		<tag k="name" v="Giskemodalen" />
		<tag k="natural" v="valley" />
		<tag k="place" v="locality" />
		<tag k="ssr:stedsnr" v="460604" />
	</node>
	<node id="-566880" lat="62.4631583334" lon="6.79087222311">
		<tag k="name" v="Myrholten" />
		<tag k="natural" v="hill" />
		<tag k="place" v="locality" />
		<tag k="ssr:stedsnr" v="460601" />
	</node>
	<node id="-566879" lat="62.4751888867" lon="6.9175805502">
		<tag k="name" v="Småbotnen" />
		<tag k="natural" v="valley" />
		<tag k="place" v="locality" />
		<tag k="ssr:stedsnr" v="460595" />
	</node>
	<node id="-566877" lat="62.4489416656" lon="7.00175833819">
		<tag k="name" v="Høghaugane" />
		<tag k="natural" v="slope" />
		<tag k="place" v="locality" />
		<tag k="ssr:stedsnr" v="460590" />
	</node>
	<node id="-566876" lat="62.454638885" lon="6.95773056415">
		<tag k="name" v="Kvervebakkane" />
		<tag k="natural" v="slope" />
		<tag k="place" v="locality" />
		<tag k="ssr:stedsnr" v="460589" />
	</node>
	<node id="-566875" lat="62.4367500037" lon="7.00471666541">
		<tag k="name" v="Skurbotnen" />
		<tag k="natural" v="valley" />
		<tag k="place" v="locality" />
		<tag k="ssr:stedsnr" v="460586" />
	</node>
	<node id="-566873" lat="62.4623972244" lon="6.83138333331">
		<tag k="name" v="Einehaugen" />
		<tag k="natural" v="hill" />
		<tag k="place" v="locality" />
		<tag k="ssr:stedsnr" v="460546" />
	</node>
	<node id="-566872" lat="62.4667722244" lon="6.80615555908">
		<tag k="name" v="Middagsfjellet" />
		<tag k="natural" v="hill" />
		<tag k="place" v="locality" />
		<tag k="ssr:stedsnr" v="460543" />
	</node>
	<node id="-566863" lat="62.4715749961" lon="7.01532221478">
		<tag k="alt_name" v="Mjågskaret" />
		<tag k="name" v="Mjogskardet" />
		<tag k="natural" v="valley" />
		<tag k="place" v="locality" />
		<tag k="ssr:stedsnr" v="436308" />
	</node>
	<node id="-566855" lat="62.4234999999" lon="7.09433333001">
		<tag k="name" v="Isbotnen" />
		<tag k="natural" v="valley" />
		<tag k="old_name" v="Isbotn" />
		<tag k="place" v="locality" />
		<tag k="ssr:stedsnr" v="253682" />
	</node>
	<node id="-566854" lat="62.4651944418" lon="6.95160556393">
		<tag k="alt_name" v="Mysenykjen;Mosenyken" />
		<tag k="name" v="Mysenyken" />
		<tag k="natural" v="hill" />
		<tag k="old_name" v="Møsenykjen" />
		<tag k="place" v="locality" />
		<tag k="ssr:stedsnr" v="253407" />
	</node>
	<node id="-566853" lat="62.4739277746" lon="6.95135556226">
		<tag k="fixme" v="consider natural=peak for the most distinct mountains in the district" />
		<tag k="name" v="Vestrefjellet" />
		<tag k="natural" v="hill" />
		<tag k="place" v="locality" />
		<tag k="ssr:stedsnr" v="253398" />
	</node>
	<node id="-566850" lat="62.4863833365" lon="6.97967222909">
		<tag k="fixme" v="consider natural=peak for the most distinct mountains in the district" />
		<tag k="name" v="Geitenibba" />
		<tag k="natural" v="hill" />
		<tag k="place" v="locality" />
		<tag k="ssr:stedsnr" v="253362" />
	</node>
	<node id="-566847" lat="62.4961222206" lon="6.94991111425">
		<tag k="fixme" v="consider natural=peak for the most distinct mountains in the district" />
		<tag k="name" v="Koldafjellet" />
		<tag k="natural" v="hill" />
		<tag k="place" v="locality" />
		<tag k="ssr:stedsnr" v="253335" />
	</node>
	<node id="-566839" lat="62.4413305559" lon="6.9069499911">
		<tag k="name" v="Kolvet" />
		<tag k="natural" v="valley" />
		<tag k="place" v="locality" />
		<tag k="ssr:stedsnr" v="217686" />
	</node>
	<node id="-566837" lat="62.4702027764" lon="6.8053222209">
		<tag k="name" v="Skråvikhammaren" />
		<tag k="natural" v="cliff" />
		<tag k="ssr:stedsnr" v="217655" />
	</node>
	<node id="-566835" lat="62.472197221" lon="6.85819165947">
		<tag k="name" v="Brendhaugen" />
		<tag k="natural" v="hill" />
		<tag k="place" v="locality" />
		<tag k="ssr:stedsnr" v="217631" />
	</node>
	<node id="-566834" lat="62.461530555" lon="6.94157778676">
		<tag k="name" v="Skardalen" />
		<tag k="natural" v="valley" />
		<tag k="place" v="locality" />
		<tag k="ssr:stedsnr" v="217624" />
	</node>
	<node id="-566833" lat="62.4866833338" lon="6.85799721987">
		<tag k="name" v="Gjerdsnakken" />
		<tag k="natural" v="ridge" />
		<tag k="place" v="locality" />
		<tag k="ssr:stedsnr" v="217623" />
	</node>
	<node id="-566832" lat="62.4457805522" lon="6.94140278175">
		<tag k="name" v="Hallvardslia" />
		<tag k="natural" v="slope" />
		<tag k="place" v="locality" />
		<tag k="ssr:stedsnr" v="217611" />
	</node>
	<node id="-566831" lat="62.4928249996" lon="6.84280276887">
		<tag k="name" v="Gamlesætermarka" />
		<tag k="natural" v="slope" />
		<tag k="place" v="locality" />
		<tag k="ssr:stedsnr" v="217586" />
	</node>
	<node id="-566830" lat="62.5051416686" lon="6.86182499204">
		<tag k="name" v="Sjøholtheia" />
		<tag k="natural" v="slope" />
		<tag k="place" v="locality" />
		<tag k="ssr:stedsnr" v="217566" />
	</node>
	<node id="-566827" lat="62.4462527806" lon="6.91104999459">
		<tag k="name" v="Øggardsbakkane" />
		<tag k="natural" v="slope" />
		<tag k="place" v="locality" />
		<tag k="ssr:stedsnr" v="217542" />
	</node>
	<node id="-566826" lat="62.4602000001" lon="6.88292499031">
		<tag k="name" v="Høgbøen" />
		<tag k="natural" v="hill" />
		<tag k="place" v="locality" />
		<tag k="ssr:stedsnr" v="217543" />
	</node>
	<node id="-566825" lat="62.4603749957" lon="6.94832222378">
		<tag k="name" v="Høgberget" />
		<tag k="natural" v="slope" />
		<tag k="place" v="locality" />
		<tag k="ssr:stedsnr" v="217529" />
	</node>
	<node id="-566824" lat="62.5068555593" lon="6.9287444415">
		<tag k="name" v="Smånebbene" />
		<tag k="natural" v="hill" />
		<tag k="place" v="locality" />
		<tag k="ssr:stedsnr" v="217527" />
	</node>
	<node id="-566823" lat="62.5140472251" lon="6.94054444818">
		<tag k="name" v="Langrystene" />
		<tag k="natural" v="slope" />
		<tag k="place" v="locality" />
		<tag k="ssr:stedsnr" v="217528" />
	</node>
	<node id="-566822" lat="62.4392249958" lon="7.04200278385">
		<tag k="name" v="Høgreinene" />
		<tag k="natural" v="hill" />
		<tag k="place" v="locality" />
		<tag k="ssr:stedsnr" v="217521" />
	</node>
	<node id="-566821" lat="62.4827611147" lon="6.94278332672">
		<tag k="name" v="Røra" />
		<tag k="natural" v="slope" />
		<tag k="place" v="locality" />
		<tag k="ssr:stedsnr" v="217516" />
	</node>
	<node id="-566820" lat="62.513919442" lon="6.81363889455">
		<tag k="name" v="Akslevollbotnen" />
		<tag k="natural" v="valley" />
		<tag k="place" v="locality" />
		<tag k="ssr:stedsnr" v="217509" />
	</node>
	<node id="-566819" lat="62.4969500019" lon="6.81298611045">
		<tag k="name" v="Dalsskaret" />
		<tag k="natural" v="valley" />
		<tag k="place" v="locality" />
		<tag k="ssr:stedsnr" v="217496" />
	</node>
	<node id="-566809" lat="62.5194555589" lon="6.79353611353">
		<tag k="fixme" v="consider natural=peak for the most distinct mountains in the district" />
		<tag k="name" v="Sætrefjellet" />
		<tag k="natural" v="hill" />
		<tag k="place" v="locality" />
		<tag k="ssr:stedsnr" v="193823" />
	</node>
	<node id="-566806" lat="62.4516222242" lon="7.02841389256">
		<tag k="name" v="Grytalia" />
		<tag k="natural" v="slope" />
		<tag k="place" v="locality" />
		<tag k="ssr:stedsnr" v="193377" />
	</node>
	<node id="-566803" lat="62.465566667" lon="6.93720554836">
		<tag k="name" v="Grynyken" />
		<tag k="natural" v="hill" />
		<tag k="old_name" v="Grynykjen" />
		<tag k="place" v="locality" />
		<tag k="ssr:stedsnr" v="193337" />
	</node>
	<node id="-566800" lat="62.4968416661" lon="6.97768333295">
		<tag k="alt_name" v="Sollikvanndalen" />
		<tag k="name" v="Kvanndalen" />
		<tag k="natural" v="valley" />
		<tag k="place" v="locality" />
		<tag k="ssr:stedsnr" v="193280" />
	</node>
	<node id="-566799" lat="62.4923055521" lon="6.92252777656">
		<tag k="fixme" v="consider natural=peak for the most distinct mountains in the district" />
		<tag k="name" v="Tovardane" />
		<tag k="natural" v="hill" />
		<tag k="place" v="locality" />
		<tag k="ssr:stedsnr" v="193279" />
	</node>
	<node id="-566793" lat="62.4907361149" lon="6.77638888959">
		<tag k="name" v="Dekkja" />
		<tag k="natural" v="valley" />
		<tag k="place" v="locality" />
		<tag k="ssr:stedsnr" v="156969" />
	</node>
	<node id="-566791" lat="62.4619027766" lon="6.82324167477">
		<tag k="name" v="Litlefjellet" />
		<tag k="natural" v="hill" />
		<tag k="place" v="locality" />
		<tag k="ssr:stedsnr" v="156670" />
	</node>
	<node id="-566790" lat="62.4734999979" lon="6.89876388257">
		<tag k="name" v="Mikkelskaret" />
		<tag k="natural" v="valley" />
		<tag k="place" v="locality" />
		<tag k="ssr:stedsnr" v="156661" />
	</node>
	<node id="-566789" lat="62.4699999989" lon="6.92956388898">
		<tag k="name" v="Blensetnakken" />
		<tag k="natural" v="hill" />
		<tag k="place" v="locality" />
		<tag k="ssr:stedsnr" v="156643" />
	</node>
	<node id="-566787" lat="62.4649999989" lon="6.9252166581">
		<tag k="name" v="Rørene" />
		<tag k="natural" v="ridge" />
		<tag k="place" v="locality" />
		<tag k="ssr:stedsnr" v="156625" />
	</node>
	<node id="-566786" lat="62.5181777754" lon="6.84765832638">
		<tag k="name" v="Tverrbottslia" />
		<tag k="natural" v="slope" />
		<tag k="place" v="locality" />
		<tag k="ssr:stedsnr" v="156614" />
	</node>
	<node id="-566785" lat="62.5259111108" lon="6.85097777289">
		<tag k="name" v="Løklia" />
		<tag k="natural" v="slope" />
		<tag k="place" v="locality" />
		<tag k="ssr:stedsnr" v="156612" />
	</node>
	<node id="-566784" lat="62.4802111101" lon="6.84973889838">
		<tag k="name" v="Dalane" />
		<tag k="natural" v="valley" />
		<tag k="place" v="locality" />
		<tag k="ssr:stedsnr" v="156609" />
	</node>
	<node id="-566783" lat="62.5008861089" lon="6.81363333139">
		<tag k="name" v="Høgstehaugen" />
		<tag k="natural" v="hill" />
		<tag k="place" v="locality" />
		<tag k="ssr:stedsnr" v="156604" />
	</node>
	<node id="-566782" lat="62.495763892" lon="6.98376388976">
		<tag k="name" v="Skredene" />
		<tag k="natural" v="slope" />
		<tag k="place" v="locality" />
		<tag k="ssr:stedsnr" v="156598" />
	</node>
	<node id="-566781" lat="62.4824333351" lon="6.83316112062">
		<tag k="name" v="Neset" />
		<tag k="place" v="locality" />
		<tag k="ssr:stedsnr" v="156583" />
	</node>
	<node id="-566778" lat="62.5112333329" lon="6.83529444267">
		<tag k="fixme" v="consider natural=peak for the most distinct mountains in the district" />
		<tag k="name" v="Strandasæternakken" />
		<tag k="natural" v="hill" />
		<tag k="place" v="locality" />
		<tag k="ssr:stedsnr" v="156571" />
	</node>
	<node id="-566777" lat="62.5042916631" lon="6.80578888256">
		<tag k="name" v="Reset" />
		<tag k="natural" v="ridge" />
		<tag k="place" v="locality" />
		<tag k="ssr:stedsnr" v="156565" />
	</node>
	<node id="-566775" lat="62.5057916709" lon="6.9663222175">
		<tag k="name" v="Tverrlia" />
		<tag k="natural" v="slope" />
		<tag k="place" v="locality" />
		<tag k="ssr:stedsnr" v="156551" />
	</node>
	<node id="-566774" lat="62.4397416709" lon="6.94120554939">
		<tag k="name" v="Hallvardsbotnen" />
		<tag k="natural" v="valley" />
		<tag k="place" v="locality" />
		<tag k="ssr:stedsnr" v="156548" />
	</node>
	<node id="-566772" lat="62.5170611098" lon="6.97125556287">
		<tag k="name" v="Skinnbrokslættet" />
		<tag k="natural" v="slope" />
		<tag k="place" v="locality" />
		<tag k="ssr:stedsnr" v="156539" />
	</node>
	<node id="-566771" lat="62.4866999972" lon="6.84079999381">
		<tag k="name" v="Øvsteskjerva" />
		<tag k="natural" v="ridge" />
		<tag k="place" v="locality" />
		<tag k="ssr:stedsnr" v="156536" />
	</node>
	<node id="-566770" lat="62.4616666669" lon="6.91051667168">
		<tag k="name" v="Massnakken" />
		<tag k="natural" v="hill" />
		<tag k="place" v="locality" />
		<tag k="ssr:stedsnr" v="156529" />
	</node>
	<node id="-566769" lat="62.4866611112" lon="6.86084999729">
		<tag k="name" v="Skaret" />
		<tag k="natural" v="valley" />
		<tag k="place" v="locality" />
		<tag k="ssr:stedsnr" v="156520" />
	</node>
	<node id="-566768" lat="62.5104472207" lon="6.96845000335">
		<tag k="name" v="Forslia" />
		<tag k="natural" v="slope" />
		<tag k="place" v="locality" />
		<tag k="ssr:stedsnr" v="156512" />
	</node>
	<node id="-566765" lat="62.4807694428" lon="6.81994166034">
		<tag k="name" v="Utsikta" />
		<tag k="natural" v="hill" />
		<tag k="place" v="locality" />
		<tag k="ssr:stedsnr" v="156484" />
	</node>
	<node id="-566761" lat="62.5158971294" lon="6.79411222617">
		<tag k="fixme" v="consider natural=peak for the most distinct mountains in the district" />
		<tag k="name" v="Haugfjellet" />
		<tag k="natural" v="hill" />
		<tag k="place" v="locality" />
		<tag k="ssr:stedsnr" v="133869" />
	</node>
	<node id="-566760" lat="62.5024027758" lon="6.91131945107">
		<tag k="fixme" v="consider natural=peak for the most distinct mountains in the district" />
		<tag k="name" v="Giskemonibba" />
		<tag k="natural" v="hill" />
		<tag k="place" v="locality" />
		<tag k="ssr:stedsnr" v="133848" />
	</node>
	<node id="-566756" lat="62.4221722238" lon="7.10565000866">
		<tag k="fixme" v="consider natural=peak for the most distinct mountains in the district" />
		<tag k="name" v="Storbotnshornet" />
		<tag k="natural" v="hill" />
		<tag k="old_name" v="Storbotthornet" />
		<tag k="place" v="locality" />
		<tag k="ssr:stedsnr" v="132654" />
	</node>
	<node id="-566754" lat="62.470147219" lon="6.98701667255">
		<tag k="name" v="Grønlia" />
		<tag k="natural" v="slope" />
		<tag k="place" v="locality" />
		<tag k="ssr:stedsnr" v="132318" />
	</node>
	<node id="-566753" lat="62.4804805588" lon="7.01579722385">
		<tag k="name" v="Sunnmørsbotnen" />
		<tag k="natural" v="valley" />
		<tag k="old_name" v="Sunnmørsbotn" />
		<tag k="place" v="locality" />
		<tag k="ssr:stedsnr" v="132296" />
	</node>
	<node id="-566752" lat="62.4896472188" lon="6.93218610358">
		<tag k="fixme" v="consider natural=peak for the most distinct mountains in the district" />
		<tag k="name" v="Snaufjellet" />
		<tag k="natural" v="hill" />
		<tag k="place" v="locality" />
		<tag k="ssr:stedsnr" v="132284" />
	</node>
	<node id="-566746" lat="62.4846111121" lon="6.77685833665">
		<tag k="name" v="Slettehammaren" />
		<tag k="natural" v="cliff" />
		<tag k="ssr:stedsnr" v="96973" />
	</node>
	<node id="-566742" lat="62.4478861105" lon="6.89312500274">
		<tag k="name" v="Aksleskarhaugane" />
		<tag k="natural" v="hill" />
		<tag k="place" v="locality" />
		<tag k="ssr:stedsnr" v="96697" />
	</node>
	<node id="-566741" lat="62.4589972186" lon="6.88116111619">
		<tag k="name" v="Hønnelbakken" />
		<tag k="natural" v="slope" />
		<tag k="place" v="locality" />
		<tag k="ssr:stedsnr" v="96693" />
	</node>
	<node id="-566740" lat="62.4688222257" lon="6.88123611858">
		<tag k="fixme" v="consider natural=peak for the most distinct mountains in the district" />
		<tag k="name" v="Velterørene" />
		<tag k="natural" v="hill" />
		<tag k="place" v="locality" />
		<tag k="ssr:stedsnr" v="96688" />
	</node>
	<node id="-566739" lat="62.4745388912" lon="6.81203888564">
		<tag k="name" v="Kråa" />
		<tag k="natural" v="valley" />
		<tag k="place" v="locality" />
		<tag k="ssr:stedsnr" v="96657" />
	</node>
	<node id="-566738" lat="62.4882233839" lon="6.86512956856">
		<tag k="name" v="Tottagrova" />
		<tag k="place" v="locality" />
		<tag k="ssr:stedsnr" v="96654" />
	</node>
	<node id="-566737" lat="62.4920861152" lon="6.89658888157">
		<tag k="name" v="Høgsæternakken" />
		<tag k="natural" v="hill" />
		<tag k="place" v="locality" />
		<tag k="ssr:stedsnr" v="96641" />
	</node>
	<node id="-566733" lat="62.4919777743" lon="6.81101389713">
		<tag k="name" v="Langenakken" />
		<tag k="natural" v="ridge" />
		<tag k="place" v="locality" />
		<tag k="ssr:stedsnr" v="96597" />
	</node>
	<node id="-566732" lat="62.506336111" lon="6.81676389056">
		<tag k="name" v="Gjerda" />
		<tag k="natural" v="slope" />
		<tag k="place" v="locality" />
		<tag k="ssr:stedsnr" v="96590" />
	</node>
	<node id="-566731" lat="62.5039333339" lon="6.83761666173">
		<tag k="name" v="Gjerdebakkane" />
		<tag k="natural" v="slope" />
		<tag k="place" v="locality" />
		<tag k="ssr:stedsnr" v="96579" />
	</node>
	<node id="-566730" lat="62.5199638921" lon="6.93230277246">
		<tag k="name" v="Nysæterlia" />
		<tag k="natural" v="slope" />
		<tag k="place" v="locality" />
		<tag k="ssr:stedsnr" v="96572" />
	</node>
	<node id="-566729" lat="62.4936666634" lon="6.83430555223">
		<tag k="name" v="Nedstestigane" />
		<tag k="natural" v="valley" />
		<tag k="place" v="locality" />
		<tag k="ssr:stedsnr" v="96563" />
	</node>
	<node id="-566728" lat="62.4691250025" lon="6.92423334219">
		<tag k="name" v="Skinnakken" />
		<tag k="natural" v="hill" />
		<tag k="place" v="locality" />
		<tag k="ssr:stedsnr" v="96557" />
	</node>
	<node id="-566726" lat="62.4622750036" lon="6.9372333384">
		<tag k="name" v="Nysetnakken" />
		<tag k="natural" v="ridge" />
		<tag k="place" v="locality" />
		<tag k="ssr:stedsnr" v="96540" />
	</node>
	<node id="-566719" lat="62.5097982644" lon="6.97723174255">
		<tag k="alt_name" v="Kvanndalsaksla" />
		<tag k="fixme" v="consider natural=peak for the most distinct mountains in the district" />
		<tag k="name" v="Benkene" />
		<tag k="natural" v="hill" />
		<tag k="place" v="locality" />
		<tag k="ssr:stedsnr" v="72841" />
	</node>
	<node id="-566718" lat="62.5442472206" lon="6.902980546">
		<tag k="fixme" v="consider natural=peak for the most distinct mountains in the district" />
		<tag k="name" v="Kjølen" />
		<tag k="natural" v="hill" />
		<tag k="place" v="locality" />
		<tag k="ssr:stedsnr" v="72815" />
	</node>
	<node id="-566716" lat="62.4289500022" lon="7.11475276968">
		<tag k="name" v="Tverrbotnsegga" />
		<tag k="natural" v="ridge" />
		<tag k="old_name" v="Tverrbottsegga" />
		<tag k="place" v="locality" />
		<tag k="ssr:stedsnr" v="71706" />
	</node>
	<node id="-566714" lat="62.4708722219" lon="6.86552777593">
		<tag k="alt_name" v="Byrdalen" />
		<tag k="name" v="Børdalen" />
		<tag k="natural" v="valley" />
		<tag k="place" v="locality" />
		<tag k="ssr:stedsnr" v="71372" />
	</node>
	<node id="-566713" lat="62.4672555585" lon="6.87680278713">
		<tag k="name" v="Veltene" />
		<tag k="natural" v="ridge" />
		<tag k="old_name" v="Velterørne" />
		<tag k="place" v="locality" />
		<tag k="ssr:stedsnr" v="71371" />
	</node>
	<node id="-566711" lat="62.4847444464" lon="6.91893889331">
		<tag k="name" v="Småbotnane" />
		<tag k="natural" v="valley" />
		<tag k="place" v="locality" />
		<tag k="ssr:stedsnr" v="71343" />
	</node>
	<node id="-566710" lat="62.4908166686" lon="7.00773333057">
		<tag k="fixme" v="consider natural=peak for the most distinct mountains in the district" />
		<tag k="name" v="Høgsvora" />
		<tag k="natural" v="hill" />
		<tag k="place" v="locality" />
		<tag k="ssr:stedsnr" v="71337" />
	</node>
	<node id="-566709" lat="62.4916083323" lon="6.88631389569">
		<tag k="alt_name" v="Giskemodalen" />
		<tag k="name" v="Landedalen" />
		<tag k="natural" v="valley" />
		<tag k="place" v="locality" />
		<tag k="ssr:stedsnr" v="71317" />
	</node>
	<node id="-566703" lat="62.4484833306" lon="6.89866944508">
		<tag k="name" v="Skaret" />
		<tag k="natural" v="valley" />
		<tag k="place" v="locality" />
		<tag k="ssr:stedsnr" v="35709" />
	</node>
	<node id="-566701" lat="62.4692916694" lon="7.02212499402">
		<tag k="name" v="Litlelia" />
		<tag k="natural" v="slope" />
		<tag k="place" v="locality" />
		<tag k="ssr:stedsnr" v="35686" />
	</node>
	<node id="-566700" lat="62.5001611082" lon="6.88740832475">
		<tag k="name" v="Singlarbakken" />
		<tag k="natural" v="slope" />
		<tag k="place" v="locality" />
		<tag k="ssr:stedsnr" v="35680" />
	</node>
	<node id="-566695" lat="62.4988916634" lon="6.86565000971">
		<tag k="name" v="Høgmyrhaugen" />
		<tag k="natural" v="hill" />
		<tag k="place" v="locality" />
		<tag k="ssr:stedsnr" v="35628" />
	</node>
	<node id="-566694" lat="62.4396416691" lon="6.92214999359">
		<tag k="name" v="Fjellpêen" />
		<tag k="natural" v="hill" />
		<tag k="place" v="locality" />
		<tag k="ssr:stedsnr" v="35624" />
	</node>
	<node id="-566690" lat="62.470705555" lon="6.9063666632">
		<tag k="name" v="Beinnakken" />
		<tag k="natural" v="hill" />
		<tag k="place" v="locality" />
		<tag k="ssr:stedsnr" v="35564" />
	</node>
	<node id="-566689" lat="62.4601472265" lon="6.8890999991">
		<tag k="name" v="Tevassbrauta" />
		<tag k="natural" v="slope" />
		<tag k="place" v="locality" />
		<tag k="ssr:stedsnr" v="35562" />
	</node>
	<node id="-566686" lat="62.4592861115" lon="7.00875555774">
		<tag k="name" v="Vaksvikfjellet" />
		<tag k="natural" v="mountain_range" />
		<tag k="ssr:stedsnr" v="26846" />
	</node>
	<node id="-566684" lat="62.5159933524" lon="6.79933328756">
		<tag k="fixme" v="consider natural=peak for the most distinct mountains in the district" />
		<tag k="name" v="Høgnøsa" />
		<tag k="natural" v="hill" />
		<tag k="ssr:stedsnr" v="12867" />
	</node>
	<node id="-566680" lat="62.4719722179" lon="6.98914444001">
		<tag k="fixme" v="consider natural=peak for the most distinct mountains in the district" />
		<tag k="name" v="Grønlifjellet" />
		<tag k="natural" v="hill" />
		<tag k="place" v="locality" />
		<tag k="ssr:stedsnr" v="11322" />
	</node>
	<node id="-566679" lat="62.4651891656" lon="6.89063375168">
		<tag k="name" v="Vestreberget" />
		<tag k="natural" v="hill" />
		<tag k="place" v="locality" />
		<tag k="ssr:stedsnr" v="11319" />
	</node>
	<node id="-566676" lat="62.5209188245" lon="6.98623212513">
		<tag k="name" v="Teigane" />
		<tag k="natural" v="slope" />
		<tag k="place" v="locality" />
		<tag k="ssr:stedsnr" v="580697" />
	</node>
	<node id="-566669" lat="62.4636111128" lon="6.81517222357">
		<tag k="name" v="Lisetskaret" />
		<tag k="natural" v="valley" />
		<tag k="place" v="locality" />
		<tag k="ssr:stedsnr" v="885674" />
	</node>
	<node id="-566668" lat="62.4650694444" lon="6.87332223142">
		<tag k="name" v="Beingjæra" />
		<tag k="natural" v="slope" />
		<tag k="place" v="locality" />
		<tag k="ssr:stedsnr" v="885672" />
	</node>
	<node id="-566667" lat="62.4998972189" lon="6.7712750038">
		<tag k="name" v="Solnørdalslia" />
		<tag k="natural" v="slope" />
		<tag k="place" v="locality" />
		<tag k="ssr:stedsnr" v="885648" />
	</node>
	<node id="-566666" lat="62.4863444446" lon="6.79285833741">
		<tag k="fixme" v="consider natural=peak for the most distinct mountains in the district" />
		<tag k="name" v="Nedsteaksla" />
		<tag k="natural" v="hill" />
		<tag k="place" v="locality" />
		<tag k="ssr:stedsnr" v="885638" />
	</node>
	<node id="-566665" lat="62.4867250015" lon="6.86464722408">
		<tag k="name" v="Gjærsnakken" />
		<tag k="natural" v="hill" />
		<tag k="place" v="locality" />
		<tag k="ssr:stedsnr" v="885621" />
	</node>
	<node id="-566663" lat="62.4690861114" lon="6.9829500035">
		<tag k="name" v="Grønlibruna" />
		<tag k="natural" v="ridge" />
		<tag k="place" v="locality" />
		<tag k="ssr:stedsnr" v="885612" />
	</node>
	<node id="-566662" lat="62.5110305552" lon="6.91180555783">
		<tag k="name" v="Mjelthaugen" />
		<tag k="natural" v="hill" />
		<tag k="place" v="locality" />
		<tag k="ssr:stedsnr" v="885604" />
	</node>
	<node id="-566661" lat="62.4501055572" lon="6.93232222288">
		<tag k="name" v="Stornakken" />
		<tag k="natural" v="ridge" />
		<tag k="place" v="locality" />
		<tag k="ssr:stedsnr" v="885601" />
	</node>
	<node id="-566660" lat="62.4859583353" lon="6.79868611335">
		<tag k="name" v="Malmgruvene" />
		<tag k="place" v="locality" />
		<tag k="ssr:stedsnr" v="885596" />
	</node>
	<node id="-566659" lat="62.4692944442" lon="6.84168055506">
		<tag k="name" v="Vallbørørene" />
		<tag k="natural" v="ridge" />
		<tag k="place" v="locality" />
		<tag k="ssr:stedsnr" v="885595" />
	</node>
	<node id="-566656" lat="62.4630527759" lon="6.83408888129">
		<tag k="name" v="Geilhaugen" />
		<tag k="natural" v="hill" />
		<tag k="place" v="locality" />
		<tag k="ssr:stedsnr" v="885590" />
	</node>
	<node id="-566655" lat="62.4783416665" lon="6.83990834106">
		<tag k="name" v="Haukåshaugen" />
		<tag k="natural" v="hill" />
		<tag k="place" v="locality" />
		<tag k="ssr:stedsnr" v="885578" />
	</node>
	<node id="-566652" lat="62.4529749975" lon="6.88133055981">
		<tag k="name" v="Rusevollhola" />
		<tag k="natural" v="valley" />
		<tag k="place" v="locality" />
		<tag k="ssr:stedsnr" v="885566" />
	</node>
	<node id="-566651" lat="62.4629916677" lon="6.89689445348">
		<tag k="name" v="Gjærhaugen" />
		<tag k="natural" v="hill" />
		<tag k="place" v="locality" />
		<tag k="ssr:stedsnr" v="885564" />
	</node>
	<node id="-566649" lat="62.4595750031" lon="6.83420000246">
		<tag k="name" v="Brattebakkane" />
		<tag k="natural" v="slope" />
		<tag k="place" v="locality" />
		<tag k="ssr:stedsnr" v="885558" />
	</node>
	<node id="-566648" lat="62.5077777792" lon="6.91256944759">
		<tag k="name" v="Dalehøgdene" />
		<tag k="natural" v="slope" />
		<tag k="place" v="locality" />
		<tag k="ssr:stedsnr" v="885552" />
	</node>
	<node id="-566647" lat="62.4910583328" lon="6.86648332889">
		<tag k="name" v="Haugane" />
		<tag k="natural" v="hill" />
		<tag k="place" v="locality" />
		<tag k="ssr:stedsnr" v="885549" />
	</node>
	<node id="-566646" lat="62.5205305519" lon="6.89859445305">
		<tag k="name" v="Kopen" />
		<tag k="natural" v="valley" />
		<tag k="place" v="locality" />
		<tag k="ssr:stedsnr" v="885524" />
	</node>
	<node id="-566644" lat="62.5019194476" lon="6.87116944798">
		<tag k="name" v="Ytstenakken" />
		<tag k="natural" v="ridge" />
		<tag k="place" v="locality" />
		<tag k="ssr:stedsnr" v="885516" />
	</node>
	<node id="-566642" lat="62.4846472261" lon="6.82955834189">
		<tag k="name" v="Bjørkereitane" />
		<tag k="natural" v="slope" />
		<tag k="place" v="locality" />
		<tag k="ssr:stedsnr" v="885511" />
	</node>
	<node id="-566641" lat="62.4900138923" lon="6.80777500529">
		<tag k="name" v="Vassnakken" />
		<tag k="natural" v="ridge" />
		<tag k="place" v="locality" />
		<tag k="ssr:stedsnr" v="885509" />
	</node>
	<node id="-566639" lat="62.4594944473" lon="6.8288583384">
		<tag k="name" v="Skjerhaugane" />
		<tag k="natural" v="hill" />
		<tag k="place" v="locality" />
		<tag k="ssr:stedsnr" v="885495" />
	</node>
	<node id="-566629" lat="62.461052775" lon="6.83108610898">
		<tag k="name" v="Ådalen" />
		<tag k="natural" v="valley" />
		<tag k="place" v="locality" />
		<tag k="ssr:stedsnr" v="399676" />
	</node>
	<node id="-566627" lat="62.438247226" lon="7.04466944719">
		<tag k="name" v="Høgreina" />
		<tag k="natural" v="slope" />
		<tag k="place" v="locality" />
		<tag k="ssr:stedsnr" v="399660" />
	</node>
	<node id="-566624" lat="62.4635277807" lon="6.78020833083">
		<tag k="name" v="Gausnestoppen" />
		<tag k="natural" v="hill" />
		<tag k="place" v="locality" />
		<tag k="ssr:stedsnr" v="399645" />
	</node>
	<node id="-566623" lat="62.4843222244" lon="6.86769722708">
		<tag k="name" v="Odden" />
		<tag k="natural" v="ridge" />
		<tag k="place" v="locality" />
		<tag k="ssr:stedsnr" v="399633" />
	</node>
	<node id="-566622" lat="62.4628194483" lon="6.84010555065">
		<tag k="name" v="Vestralereset" />
		<tag k="natural" v="slope" />
		<tag k="place" v="locality" />
		<tag k="ssr:stedsnr" v="399604" />
	</node>
	<node id="-566620" lat="62.4864388871" lon="6.81098055396">
		<tag k="name" v="Fargardalen" />
		<tag k="natural" v="valley" />
		<tag k="place" v="locality" />
		<tag k="ssr:stedsnr" v="399601" />
	</node>
	<node id="-566618" lat="62.450011111" lon="6.91309443985">
		<tag k="name" v="Øggardsnakken" />
		<tag k="natural" v="ridge" />
		<tag k="place" v="locality" />
		<tag k="ssr:stedsnr" v="399582" />
	</node>
	<node id="-566616" lat="62.4439777811" lon="7.04171389314">
		<tag k="name" v="Aksla" />
		<tag k="natural" v="ridge" />
		<tag k="place" v="locality" />
		<tag k="ssr:stedsnr" v="399564" />
	</node>
	<node id="-566615" lat="62.4782027807" lon="6.95737500571">
		<tag k="name" v="Tverlia" />
		<tag k="natural" v="slope" />
		<tag k="place" v="locality" />
		<tag k="ssr:stedsnr" v="399556" />
	</node>
	<node id="-566614" lat="62.504547223" lon="6.85183888661">
		<tag k="name" v="Mjelthaugskaret" />
		<tag k="natural" v="valley" />
		<tag k="place" v="locality" />
		<tag k="ssr:stedsnr" v="399552" />
	</node>
	<node id="-566613" lat="62.5045444486" lon="6.82669166371">
		<tag k="name" v="Timbrebakkane" />
		<tag k="natural" v="slope" />
		<tag k="place" v="locality" />
		<tag k="ssr:stedsnr" v="399550" />
	</node>
	<node id="-566611" lat="62.4776861134" lon="6.84137499224">
		<tag k="name" v="Giskemohaugen" />
		<tag k="natural" v="hill" />
		<tag k="place" v="locality" />
		<tag k="ssr:stedsnr" v="399519" />
	</node>
	<node id="-566609" lat="62.516119447" lon="6.87256944506">
		<tag k="fixme" v="consider natural=peak for the most distinct mountains in the district" />
		<tag k="name" v="Lebergsfjellet" />
		<tag k="natural" v="hill" />
		<tag k="place" v="locality" />
		<tag k="ssr:stedsnr" v="375844" />
	</node>
	<node id="-566608" lat="62.5387638853" lon="6.88724723051">
		<tag k="name" v="Skållia" />
		<tag k="natural" v="slope" />
		<tag k="place" v="locality" />
		<tag k="ssr:stedsnr" v="375817" />
	</node>
	<node id="-566607" lat="62.5247111117" lon="6.87298610349">
		<tag k="fixme" v="consider natural=peak for the most distinct mountains in the district" />
		<tag k="name" v="Svartløkfjellet" />
		<tag k="natural" v="hill" />
		<tag k="place" v="locality" />
		<tag k="ssr:stedsnr" v="375792" />
	</node>
	<node id="-566606" lat="62.4436777778" lon="7.11426943887">
		<tag k="name" v="Trongbotnen" />
		<tag k="natural" v="valley" />
		<tag k="old_name" v="Trongbotn" />
		<tag k="place" v="locality" />
		<tag k="ssr:stedsnr" v="375334" />
	</node>
	<node id="-566603" lat="62.457036113" lon="6.89742500651">
		<tag k="fixme" v="consider natural=peak for the most distinct mountains in the district" />
		<tag k="name" v="Solliåsen" />
		<tag k="natural" v="hill" />
		<tag k="place" v="locality" />
		<tag k="ssr:stedsnr" v="374367" />
	</node>
	<node id="-566601" lat="62.4641722196" lon="6.79841110775">
		<tag k="name" v="Høghaugen" />
		<tag k="natural" v="hill" />
		<tag k="place" v="locality" />
		<tag k="ssr:stedsnr" v="374358" />
	</node>
	<node id="-566593" lat="62.4796619118" lon="6.73069088642">
		<tag k="name" v="Djupdalen" />
		<tag k="natural" v="valley" />
		<tag k="place" v="locality" />
		<tag k="ssr:stedsnr" v="338674" />
	</node>
	<node id="-566591" lat="62.474750001" lon="6.87915000323">
		<tag k="name" v="Høghaugen" />
		<tag k="natural" v="hill" />
		<tag k="place" v="locality" />
		<tag k="ssr:stedsnr" v="338655" />
	</node>
	<node id="-566590" lat="62.4657444427" lon="6.87834444604">
		<tag k="name" v="Sveaskaret" />
		<tag k="natural" v="valley" />
		<tag k="place" v="locality" />
		<tag k="ssr:stedsnr" v="338649" />
	</node>
	<node id="-566589" lat="62.4659083362" lon="6.77362222052">
		<tag k="name" v="Preikestolen" />
		<tag k="natural" v="cliff" />
		<tag k="ssr:stedsnr" v="338644" />
	</node>
	<node id="-566587" lat="62.4597000012" lon="6.78013056095">
		<tag k="name" v="Runneløypa" />
		<tag k="natural" v="valley" />
		<tag k="place" v="locality" />
		<tag k="ssr:stedsnr" v="338636" />
	</node>
	<node id="-566586" lat="62.4568666693" lon="6.89309999566">
		<tag k="fixme" v="consider natural=peak for the most distinct mountains in the district" />
		<tag k="name" v="Storåsen" />
		<tag k="natural" v="hill" />
		<tag k="place" v="locality" />
		<tag k="ssr:stedsnr" v="338637" />
	</node>
	<node id="-566584" lat="62.4677750032" lon="6.89589443884">
		<tag k="name" v="Storbjørnskaret" />
		<tag k="natural" v="valley" />
		<tag k="place" v="locality" />
		<tag k="ssr:stedsnr" v="338625" />
	</node>
	<node id="-566583" lat="62.4769472196" lon="6.75615832753">
		<tag k="name" v="Legene" />
		<tag k="natural" v="slope" />
		<tag k="place" v="locality" />
		<tag k="ssr:stedsnr" v="338623" />
	</node>
	<node id="-566582" lat="62.4375194421" lon="6.99904721623">
		<tag k="name" v="Storlifjellet" />
		<tag k="natural" v="hill" />
		<tag k="place" v="locality" />
		<tag k="ssr:stedsnr" v="338624" />
	</node>
	<node id="-566581" lat="62.4926666628" lon="6.86176945151">
		<tag k="name" v="Skahaugen" />
		<tag k="natural" v="hill" />
		<tag k="place" v="locality" />
		<tag k="ssr:stedsnr" v="338609" />
	</node>
	<node id="-566580" lat="62.4623250041" lon="6.84941110215">
		<tag k="name" v="Klubben" />
		<tag k="natural" v="slope" />
		<tag k="place" v="locality" />
		<tag k="ssr:stedsnr" v="338583" />
	</node>
	<node id="-566579" lat="62.4622833344" lon="6.93519445305">
		<tag k="name" v="Torskloven" />
		<tag k="natural" v="valley" />
		<tag k="place" v="locality" />
		<tag k="ssr:stedsnr" v="338581" />
	</node>
	<node id="-566578" lat="62.5152277804" lon="6.88129165937">
		<tag k="name" v="Heifjellet" />
		<tag k="natural" v="hill" />
		<tag k="place" v="locality" />
		<tag k="ssr:stedsnr" v="338558" />
	</node>
	<node id="-566577" lat="62.4702305541" lon="6.82384444766">
		<tag k="name" v="Kleivane" />
		<tag k="natural" v="slope" />
		<tag k="place" v="locality" />
		<tag k="ssr:stedsnr" v="338555" />
	</node>
	<node id="-566576" lat="62.4401277785" lon="6.90913611291">
		<tag k="name" v="Visethammaren" />
		<tag k="natural" v="cliff" />
		<tag k="ssr:stedsnr" v="338520" />
	</node>
	<node id="-566575" lat="62.494275004" lon="6.86528887979">
		<tag k="name" v="Bakkeknuthaugen" />
		<tag k="natural" v="hill" />
		<tag k="place" v="locality" />
		<tag k="ssr:stedsnr" v="338512" />
	</node>
	<node id="-566574" lat="62.5165111089" lon="6.84250833144">
		<tag k="name" v="Knaphaugane" />
		<tag k="natural" v="hill" />
		<tag k="place" v="locality" />
		<tag k="ssr:stedsnr" v="338509" />
	</node>
	<node id="-566573" lat="62.526613891" lon="6.91221111603">
		<tag k="name" v="Heia" />
		<tag k="natural" v="slope" />
		<tag k="place" v="locality" />
		<tag k="ssr:stedsnr" v="338499" />
	</node>
	<node id="-566571" lat="62.4737305515" lon="6.97784721822">
		<tag k="name" v="Kvandalsreset" />
		<tag k="natural" v="slope" />
		<tag k="place" v="locality" />
		<tag k="ssr:stedsnr" v="338450" />
	</node>
	<node id="-566569" lat="62.4905555547" lon="6.84217778526">
		<tag k="name" v="Svenakken" />
		<tag k="natural" v="ridge" />
		<tag k="place" v="locality" />
		<tag k="ssr:stedsnr" v="338436" />
	</node>
	<node id="-566567" lat="62.4698388927" lon="6.8910444422">
		<tag k="name" v="Lappeskaret" />
		<tag k="natural" v="valley" />
		<tag k="place" v="locality" />
		<tag k="ssr:stedsnr" v="338418" />
	</node>
	<node id="-566566" lat="62.4678583302" lon="6.7965833381">
		<tag k="name" v="Kamben" />
		<tag k="natural" v="ridge" />
		<tag k="place" v="locality" />
		<tag k="ssr:stedsnr" v="338408" />
	</node>
	<node id="-566562" lat="62.4198111156" lon="7.08991945015">
		<tag k="fixme" v="consider natural=peak for the most distinct mountains in the district" />
		<tag k="name" v="Sandegga" />
		<tag k="natural" v="hill" />
		<tag k="place" v="locality" />
		<tag k="ssr:stedsnr" v="314665" />
	</node>
	<node id="-566552" lat="62.4648944433" lon="6.77625278706">
		<tag k="name" v="Kjelane" />
		<tag k="natural" v="slope" />
		<tag k="place" v="locality" />
		<tag k="ssr:stedsnr" v="278981" />
	</node>
	<node id="-566548" lat="62.4804500028" lon="6.70893056387">
		<tag k="name" v="Sandgota" />
		<tag k="natural" v="ridge" />
		<tag k="place" v="locality" />
		<tag k="ssr:stedsnr" v="278732" />
	</node>
	<node id="-566547" lat="62.474349996" lon="6.85931388119">
		<tag k="name" v="Brendhaugrørene" />
		<tag k="natural" v="ridge" />
		<tag k="place" v="locality" />
		<tag k="ssr:stedsnr" v="278729" />
	</node>
	<node id="-566546" lat="62.4746694453" lon="6.98117776852">
		<tag k="name" v="Sollikvandalen" />
		<tag k="natural" v="valley" />
		<tag k="place" v="locality" />
		<tag k="ssr:stedsnr" v="278726" />
	</node>
	<node id="-566545" lat="62.4630138921" lon="6.81714723112">
		<tag k="name" v="Høghaugen" />
		<tag k="natural" v="hill" />
		<tag k="place" v="locality" />
		<tag k="ssr:stedsnr" v="278713" />
	</node>
	<node id="-566542" lat="62.4781750006" lon="6.92749166306">
		<tag k="name" v="Røra" />
		<tag k="natural" v="slope" />
		<tag k="place" v="locality" />
		<tag k="ssr:stedsnr" v="278678" />
	</node>
	<node id="-566541" lat="62.4839416699" lon="6.7795638921">
		<tag k="name" v="Furnakken" />
		<tag k="natural" v="ridge" />
		<tag k="place" v="locality" />
		<tag k="ssr:stedsnr" v="278676" />
	</node>
	<node id="-566536" lat="62.5211194448" lon="6.91044722424">
		<tag k="name" v="Svartvasshaugen" />
		<tag k="natural" v="hill" />
		<tag k="place" v="locality" />
		<tag k="ssr:stedsnr" v="278642" />
	</node>
	<node id="-566535" lat="62.4965333301" lon="6.80301943868">
		<tag k="name" v="Langholen" />
		<tag k="natural" v="slope" />
		<tag k="place" v="locality" />
		<tag k="ssr:stedsnr" v="278636" />
	</node>
	<node id="-566534" lat="62.4845555538" lon="6.80269722479">
		<tag k="name" v="Ospanakken" />
		<tag k="natural" v="hill" />
		<tag k="place" v="locality" />
		<tag k="ssr:stedsnr" v="278634" />
	</node>
	<node id="-566533" lat="62.4627722214" lon="6.80548056161">
		<tag k="name" v="Bruna" />
		<tag k="natural" v="slope" />
		<tag k="place" v="locality" />
		<tag k="ssr:stedsnr" v="278630" />
	</node>
	<node id="-566531" lat="62.4629388892" lon="6.85436388054">
		<tag k="fixme" v="consider natural=peak for the most distinct mountains in the district" />
		<tag k="name" v="Skarbøhammaren" />
		<tag k="natural" v="hill" />
		<tag k="place" v="locality" />
		<tag k="ssr:stedsnr" v="278623" />
	</node>
	<node id="-566530" lat="62.51744722" lon="6.93018610325">
		<tag k="name" v="Reset" />
		<tag k="natural" v="slope" />
		<tag k="place" v="locality" />
		<tag k="ssr:stedsnr" v="278620" />
	</node>
	<node id="-566527" lat="62.5021138863" lon="6.9259666756">
		<tag k="name" v="Heia" />
		<tag k="natural" v="slope" />
		<tag k="place" v="locality" />
		<tag k="ssr:stedsnr" v="278612" />
	</node>
	<node id="-566526" lat="62.4583055584" lon="6.98322499076">
		<tag k="name" v="Plitthaugen" />
		<tag k="natural" v="hill" />
		<tag k="place" v="locality" />
		<tag k="ssr:stedsnr" v="278608" />
	</node>
	<node id="-566525" lat="62.4506777751" lon="6.90244166001">
		<tag k="name" v="Stomn" />
		<tag k="place" v="locality" />
		<tag k="ssr:stedsnr" v="278605" />
	</node>
	<node id="-566523" lat="62.4546555555" lon="6.87983611505">
		<tag k="name" v="Rimane" />
		<tag k="natural" v="slope" />
		<tag k="place" v="locality" />
		<tag k="ssr:stedsnr" v="278597" />
	</node>
	<node id="-566522" lat="62.5088472212" lon="6.79945276888">
		<tag k="name" v="Gjerdebakkane" />
		<tag k="natural" v="slope" />
		<tag k="place" v="locality" />
		<tag k="ssr:stedsnr" v="278595" />
	</node>
	<node id="-566519" lat="62.4823527785" lon="6.86704167377">
		<tag k="name" v="Pinå" />
		<tag k="natural" v="slope" />
		<tag k="place" v="locality" />
		<tag k="ssr:stedsnr" v="278552" />
	</node>
	<node id="-566516" lat="62.4757805568" lon="6.81418611451">
		<tag k="name" v="Klokkarberget" />
		<tag k="natural" v="hill" />
		<tag k="place" v="locality" />
		<tag k="ssr:stedsnr" v="275270" />
	</node>
	<node id="-566515" lat="62.4781833369" lon="6.7416861159">
		<tag k="name" v="Gaupefloget" />
		<tag k="natural" v="slope" />
		<tag k="place" v="locality" />
		<tag k="ssr:stedsnr" v="274295" />
	</node>
</osm>
