<?xml version="1.0" encoding="UTF-8"?>
<osm generator="osmapis" version="0.6">
	<node id="-566780" lat="62.4882500039" lon="6.81443888999">
		<tag k="name" v="Risteigen" />
		<tag k="place" v="locality" />
		<tag k="ssr:stedsnr" v="156579" />
	</node>
	<node id="-566905" lat="62.4776111136" lon="6.72681944825">
		<tag k="name" v="Sauesteinen" />
		<tag k="natural" v="stone" />
		<tag k="ssr:stedsnr" v="460984" />
	</node>
	<node id="-566904" lat="62.4687250027" lon="6.78810000022">
		<tag k="name" v="Øtresteinen" />
		<tag k="natural" v="stone" />
		<tag k="ssr:stedsnr" v="460974" />
	</node>
	<node id="-567026" lat="62.4817361098" lon="6.76090833275">
		<tag k="historic" v="shieling" />
		<tag k="name" v="Løbøen" />
		<tag k="place" v="locality" />
		<tag k="ssr:stedsnr" v="641962" />
	</node>
	<node id="-567153" lat="62.4604388935" lon="6.7785250056">
		<tag k="name" v="Gullura" />
		<tag k="natural" v="scree" />
		<tag k="ssr:stedsnr" v="824684" />
	</node>
	<node id="-567152" lat="62.4639555524" lon="6.77594167615">
		<tag k="name" v="Limura" />
		<tag k="natural" v="scree" />
		<tag k="ssr:stedsnr" v="824682" />
	</node>
	<node id="-567148" lat="62.4640416666" lon="6.78911110695">
		<tag k="name" v="Demmene" />
		<tag k="natural" v="wetland" />
		<tag k="ssr:stedsnr" v="824648" />
	</node>
	<node id="-567145" lat="62.4776694427" lon="6.82686111159">
		<tag k="name" v="Prestemarka" />
		<tag k="place" v="locality" />
		<tag k="ssr:stedsnr" v="824623" />
	</node>
	<node id="-566524" lat="62.4760416704" lon="6.89082221951">
		<tag k="name" v="Stormyra" />
		<tag k="natural" v="wetland" />
		<tag k="ssr:stedsnr" v="278599" />
	</node>
	<node id="-567140" lat="62.4890472259" lon="6.84882221845">
		<tag k="name" v="Kriken" />
		<tag k="natural" v="wetland" />
		<tag k="ssr:stedsnr" v="824580" />
	</node>
	<node id="-566882" lat="62.4934555556" lon="6.81639165858">
		<tag k="name" v="Løkjingsmyra" />
		<tag k="natural" v="wetland" />
		<tag k="ssr:stedsnr" v="460606" />
	</node>
	<node id="-566878" lat="62.4521277756" lon="6.94574721829">
		<tag k="name" v="Raudgrovmyrane" />
		<tag k="natural" v="wetland" />
		<tag k="ssr:stedsnr" v="460596" />
	</node>
	<node id="-566619" lat="62.4853277753" lon="6.87385000237">
		<tag k="name" v="Kvennhusøyna" />
		<tag k="natural" v="wetland" />
		<tag k="ssr:stedsnr" v="399593" />
	</node>
	<node id="-567130" lat="62.4591138877" lon="6.90487223129">
		<tag k="name" v="Grimsmyra" />
		<tag k="natural" v="wetland" />
		<tag k="ssr:stedsnr" v="824497" />
	</node>
	<node id="-566735" lat="62.4983861154" lon="6.83677777328">
		<tag k="name" v="Heia" />
		<tag k="natural" v="wetland" />
		<tag k="ssr:stedsnr" v="96616" />
	</node>
	<node id="-567106" lat="62.4971861085" lon="6.88330000057">
		<tag k="name" v="Grønevøtå" />
		<tag k="natural" v="wetland" />
		<tag k="ssr:stedsnr" v="763641" />
	</node>
	<node id="-567104" lat="62.5338166693" lon="6.86158055748">
		<tag k="name" v="Løkmyrane" />
		<tag k="natural" v="wetland" />
		<tag k="ssr:stedsnr" v="763634" />
	</node>
	<node id="-566776" lat="62.4831833344" lon="6.85913333283">
		<tag k="name" v="Nylendet" />
		<tag k="place" v="locality" />
		<tag k="ssr:stedsnr" v="156556" />
	</node>
	<node id="-566585" lat="62.4488777797" lon="6.91732500027">
		<tag k="name" v="Løkjingsmyrane" />
		<tag k="natural" v="wetland" />
		<tag k="ssr:stedsnr" v="338627" />
	</node>
	<node id="-566836" lat="62.4686638849" lon="6.88329444837">
		<tag k="name" v="Demmingsmyra" />
		<tag k="natural" v="wetland" />
		<tag k="ssr:stedsnr" v="217652" />
	</node>
	<node id="-566965" lat="62.506041664" lon="6.79902222691">
		<tag k="name" v="Løkane" />
		<tag k="natural" v="wetland" />
		<tag k="ssr:stedsnr" v="581551" />
	</node>
	<node id="-566964" lat="62.5084555586" lon="6.90449722064">
		<tag k="name" v="Dalemyrane" />
		<tag k="natural" v="wetland" />
		<tag k="ssr:stedsnr" v="581545" />
	</node>
	<node id="-566520" lat="62.5212000023" lon="6.84371112008">
		<tag k="name" v="Lyrsteinen" />
		<tag k="natural" v="stone" />
		<tag k="ssr:stedsnr" v="278566" />
	</node>
	<node id="-566698" lat="62.501083337" lon="6.90678054945">
		<tag k="name" v="Fonnagjølet" />
		<tag k="place" v="locality" />
		<tag k="ssr:stedsnr" v="35651" />
	</node>
	<node id="-566697" lat="62.4636666669" lon="6.83382499313">
		<tag k="name" v="Timbremyra" />
		<tag k="natural" v="wetland" />
		<tag k="ssr:stedsnr" v="35645" />
	</node>
	<node id="-566696" lat="62.4618583356" lon="6.83706388083">
		<tag k="name" v="Myra" />
		<tag k="natural" v="wetland" />
		<tag k="ssr:stedsnr" v="35641" />
	</node>
	<node id="-566693" lat="62.4671722229" lon="6.86928332971">
		<tag k="name" v="Jarskarmyra" />
		<tag k="natural" v="wetland" />
		<tag k="ssr:stedsnr" v="35611" />
	</node>
	<node id="-566939" lat="62.5003972201" lon="6.89988611693">
		<tag k="name" v="Fonna" />
		<tag k="place" v="locality" />
		<tag k="ssr:stedsnr" v="520612" />
	</node>
	<node id="-567072" lat="62.4806555587" lon="6.72359721727">
		<tag k="name" v="Barlindteigen" />
		<tag k="place" v="locality" />
		<tag k="ssr:stedsnr" v="703725" />
	</node>
	<node id="-566815" lat="62.4748694411" lon="6.86614999861">
		<tag k="name" v="Giskemomyrane" />
		<tag k="natural" v="wetland" />
		<tag k="ssr:stedsnr" v="217479" />
	</node>
	<node id="-566942" lat="62.4976333308" lon="6.78941943689">
		<tag k="name" v="Bøane" />
		<tag k="place" v="locality" />
		<tag k="ssr:stedsnr" v="520653" />
	</node>
	<node id="-567195" lat="62.4843666711" lon="6.81322222587">
		<tag k="name" v="Åvollen" />
		<tag k="place" v="locality" />
		<tag k="ssr:stedsnr" v="945536" />
	</node>
	<node id="-566808" lat="62.4423299218" lon="6.91732050817">
		<tag k="name" v="Dektene" />
		<tag k="natural" v="wetland" />
		<tag k="ssr:stedsnr" v="193390" />
	</node>
	<node id="-567063" lat="62.4968027751" lon="6.79720554988">
		<tag k="name" v="Hjellane" />
		<tag k="natural" v="wetland" />
		<tag k="ssr:stedsnr" v="703668" />
	</node>
	<node id="-567062" lat="62.4665444408" lon="6.77911389835">
		<tag k="name" v="Preikestolmyrane" />
		<tag k="natural" v="wetland" />
		<tag k="ssr:stedsnr" v="703666" />
	</node>
	<node id="-567188" lat="62.4907166653" lon="6.80839166288">
		<tag k="name" v="Småløene" />
		<tag k="place" v="locality" />
		<tag k="ssr:stedsnr" v="945438" />
	</node>
	<node id="-566543" lat="62.4801499972" lon="6.86451111735">
		<tag k="name" v="Sirihagen" />
		<tag k="place" v="locality" />
		<tag k="ssr:stedsnr" v="278683" />
	</node>
	<node id="-566540" lat="62.4835027752" lon="6.87123332886">
		<tag k="name" v="Kalvegjæra" />
		<tag k="place" v="locality" />
		<tag k="ssr:stedsnr" v="278672" />
	</node>
	<node id="-566538" lat="62.4500305516" lon="6.98889443978">
		<tag k="name" v="Brenslemyrane" />
		<tag k="natural" v="wetland" />
		<tag k="ssr:stedsnr" v="278655" />
	</node>
	<node id="-566664" lat="62.4671888934" lon="6.85824167145">
		<tag k="name" v="Båtmyra" />
		<tag k="natural" v="wetland" />
		<tag k="ssr:stedsnr" v="885611" />
	</node>
	<node id="-567045" lat="62.4683138848" lon="6.86767499239">
		<tag k="name" v="Kvile" />
		<tag k="natural" v="stone" />
		<tag k="ssr:stedsnr" v="703530" />
	</node>
	<node id="-566658" lat="62.5318138855" lon="6.85208610363">
		<tag k="name" v="Løkmyrane" />
		<tag k="natural" v="wetland" />
		<tag k="ssr:stedsnr" v="885592" />
	</node>
	<node id="-566657" lat="62.4844861091" lon="6.80511666194">
		<tag k="name" v="Myrteigen" />
		<tag k="place" v="locality" />
		<tag k="ssr:stedsnr" v="885591" />
	</node>
</osm>
