<?xml version="1.0" encoding="UTF-8"?>
<osm generator="osmapis" version="0.6">
	<node id="-568031" lat="62.4806527766" lon="6.8252277692">
		<tag k="bridge" v="yes" />
		<tag k="layer" v="1" />
		<tag k="name" v="Steinholtbrua" />
		<tag k="ssr:stedsnr" v="880225" />
	</node>
	<node id="-567486" lat="62.4790444479" lon="6.71198055606">
		<tag k="highway" v="path" />
		<tag k="name" v="Trippe" />
		<tag k="ssr:stedsnr" v="399693" />
	</node>
	<node id="-567370" lat="62.4435249978" lon="6.90661111423">
		<tag k="layer" v="-1" />
		<tag k="name" v="Visettunnelen" />
		<tag k="ssr:stedsnr" v="269567" />
		<tag k="tunnel" v="yes" />
	</node>
	<node id="-567673" lat="62.4524388851" lon="6.89790556186">
		<tag k="junction" v="yes" />
		<tag k="name" v="Kristianskiftet" />
		<tag k="place" v="locality" />
		<tag k="ssr:stedsnr" v="217489" />
	</node>
	<node id="-567672" lat="62.4743027781" lon="6.8755333386">
		<tag k="fixme" v="consider highway=path" />
		<tag k="highway" v="track" />
		<tag k="name" v="Kontrasvingen" />
		<tag k="ssr:stedsnr" v="217482" />
	</node>
	<node id="-567684" lat="62.5115777769" lon="6.93521110413">
		<tag k="fixme" v="consider highway=path" />
		<tag k="highway" v="track" />
		<tag k="name" v="Kvanndalsvegen" />
		<tag k="ssr:stedsnr" v="217565" />
	</node>
	<node id="-567989" lat="62.5004722244" lon="6.89003055201">
		<tag k="name" v="Stortrøna" />
		<tag k="place" v="locality" />
		<tag k="ssr:stedsnr" v="824512" />
	</node>
	<node id="-567987" lat="62.4876333323" lon="6.87697500832">
		<tag k="highway" v="path" />
		<tag k="name" v="Stigen" />
		<tag k="ssr:stedsnr" v="824501" />
	</node>
	<node id="-567985" lat="62.4773583322" lon="6.86351667326">
		<tag k="bridge" v="yes" />
		<tag k="layer" v="1" />
		<tag k="name" v="Valgermobrua" />
		<tag k="ssr:stedsnr" v="819259" />
	</node>
	<node id="-567984" lat="62.4987055523" lon="6.79707223168">
		<tag k="bridge" v="yes" />
		<tag k="layer" v="1" />
		<tag k="name" v="Solnørdalsbrua" />
		<tag k="ssr:stedsnr" v="819258" />
	</node>
	<node id="-567576" lat="62.4516888904" lon="6.90385555691">
		<tag k="bridge" v="yes" />
		<tag k="layer" v="1" />
		<tag k="name" v="Vaksvikbrua" />
		<tag k="ssr:stedsnr" v="91262" />
	</node>
	<node id="-567530" lat="62.4778944405" lon="6.71758055717">
		<tag k="highway" v="path" />
		<tag k="name" v="Brautaløypa" />
		<tag k="ssr:stedsnr" v="885980" />
	</node>
	<node id="-567496" lat="62.4793666691" lon="6.88887500036">
		<tag k="fixme" v="consider highway=path" />
		<tag k="highway" v="track" />
		<tag k="name" v="Høgsætervegen" />
		<tag k="ssr:stedsnr" v="885510" />
	</node>
	<node id="-567814" lat="62.4962944484" lon="6.87681389059">
		<tag k="bridge" v="yes" />
		<tag k="layer" v="1" />
		<tag k="name" v="Tverrelvbrua" />
		<tag k="ssr:stedsnr" v="576228" />
	</node>
	<node id="-567825" lat="62.5115666652" lon="6.92359444573">
		<tag k="bridge" v="yes" />
		<tag k="layer" v="1" />
		<tag k="name" v="Kvanndalsbrua" />
		<tag k="ssr:stedsnr" v="581574" />
	</node>
	<node id="-567940" lat="62.4826083306" lon="6.81356388832">
		<tag k="layer" v="-1" />
		<tag k="name" v="Vollaundergangen" />
		<tag k="ssr:stedsnr" v="758289" />
		<tag k="tunnel" v="yes" />
	</node>
	<node id="-567619" lat="62.458188892" lon="6.88031944605">
		<tag k="bridge" v="yes" />
		<tag k="layer" v="1" />
		<tag k="name" v="Vestrebrua" />
		<tag k="ssr:stedsnr" v="152253" />
	</node>
	<node id="-567590" lat="62.5139833352" lon="6.91920000925">
		<tag k="fixme" v="consider highway=path" />
		<tag k="highway" v="track" />
		<tag k="name" v="Kvanndalsvegen" />
		<tag k="ssr:stedsnr" v="96613" />
	</node>
</osm>
