<?xml version="1.0" encoding="UTF-8"?>
<osm generator="osmapis" version="0.6">
	<node id="-438134" lat="59.5981206982" lon="5.31831616841">
		<tag k="amenity" v="ferry_terminal" />
		<tag k="name" v="Buavåg ferjekai" />
		<tag k="ssr:stedsnr" v="754911" />
	</node>
	<node id="-437734" lat="59.5410916664" lon="5.35798334045">
		<tag k="bridge" v="yes" />
		<tag k="layer" v="1" />
		<tag k="name" v="Mannaberg" />
		<tag k="ssr:stedsnr" v="532909" />
	</node>
	<node id="-437477" lat="59.5541055557" lon="5.42014167245">
		<tag k="bridge" v="yes" />
		<tag k="layer" v="1" />
		<tag k="name" v="Haukåsvatnet" />
		<tag k="ssr:stedsnr" v="229917" />
	</node>
	<node id="-437476" lat="59.5849611128" lon="5.44300555366">
		<tag k="bridge" v="yes" />
		<tag k="layer" v="1" />
		<tag k="name" v="Rødspollen" />
		<tag k="ssr:stedsnr" v="229912" />
	</node>
	<node id="-437475" lat="59.5403277802" lon="5.35149166729">
		<tag k="bridge" v="yes" />
		<tag k="layer" v="1" />
		<tag k="name" v="Vigdarvatn" />
		<tag k="ssr:stedsnr" v="229906" />
	</node>
	<node id="-437733" lat="59.5087222255" lon="5.43773610457">
		<tag k="layer" v="-1" />
		<tag k="name" v="Fjon" />
		<tag k="ssr:stedsnr" v="529410" />
		<tag k="tunnel" v="yes" />
	</node>
	<node id="-436817" lat="59.5890750024" lon="5.51448611575">
		<tag k="bridge" v="yes" />
		<tag k="layer" v="1" />
		<tag k="name" v="Selsås" />
		<tag k="ssr:stedsnr" v="290903" />
	</node>
	<node id="-437832" lat="59.6915916684" lon="5.48070555257">
		<tag k="bridge" v="yes" />
		<tag k="layer" v="1" />
		<tag k="name" v="Valen" />
		<tag k="ssr:stedsnr" v="593891" />
	</node>
	<node id="-437831" lat="59.5669638842" lon="5.28988332504">
		<tag k="bridge" v="yes" />
		<tag k="layer" v="1" />
		<tag k="name" v="Åstø" />
		<tag k="old_name" v="Aastø" />
		<tag k="ssr:stedsnr" v="593889" />
	</node>
	<node id="-438333" lat="59.6474688575" lon="5.43407938393">
		<tag k="man_made" v="quay" />
		<tag k="name" v="Håmannestøa" />
		<tag k="place" v="locality" />
		<tag k="ssr:stedsnr" v="876850" />
	</node>
	<node id="-436922" lat="59.5944083361" lon="5.4985083401">
		<tag k="bridge" v="yes" />
		<tag k="layer" v="1" />
		<tag k="name" v="Joavatn" />
		<tag k="ssr:stedsnr" v="350907" />
	</node>
	<node id="-436921" lat="59.4801083293" lon="5.3053194369">
		<tag k="bridge" v="yes" />
		<tag k="layer" v="1" />
		<tag k="name" v="Søre Våge" />
		<tag k="ssr:stedsnr" v="350901" />
	</node>
	<node id="-437942" lat="59.5576944433" lon="5.28372222749">
		<tag k="bridge" v="yes" />
		<tag k="layer" v="1" />
		<tag k="name" v="Eltravåg" />
		<tag k="ssr:stedsnr" v="654940" />
	</node>
	<node id="-437941" lat="59.538024996" lon="5.42058055019">
		<tag k="bridge" v="yes" />
		<tag k="layer" v="1" />
		<tag k="name" v="Bråtveit" />
		<tag k="ssr:stedsnr" v="654938" />
	</node>
	<node id="-437940" lat="59.5371472252" lon="5.33878611589">
		<tag k="bridge" v="yes" />
		<tag k="layer" v="1" />
		<tag k="name" v="Krossleite" />
		<tag k="ssr:stedsnr" v="654937" />
	</node>
	<node id="-438446" lat="59.5611333309" lon="5.41600556351">
		<tag k="bridge" v="yes" />
		<tag k="layer" v="1" />
		<tag k="name" v="Haukås" />
		<tag k="ssr:stedsnr" v="957918" />
	</node>
	<node id="-438445" lat="59.7115194415" lon="5.50583055416">
		<tag k="bridge" v="yes" />
		<tag k="layer" v="1" />
		<tag k="name" v="Haugane" />
		<tag k="ssr:stedsnr" v="957915" />
	</node>
	<node id="-438444" lat="59.5074138848" lon="5.43789722048">
		<tag k="bridge" v="yes" />
		<tag k="layer" v="1" />
		<tag k="name" v="Litlebekktjørna" />
		<tag k="ssr:stedsnr" v="957913" />
	</node>
	<node id="-438443" lat="59.6132722235" lon="5.47969722208">
		<tag k="bridge" v="yes" />
		<tag k="layer" v="1" />
		<tag k="name" v="Solheim" />
		<tag k="ssr:stedsnr" v="957911" />
	</node>
	<node id="-437271" lat="59.6079250031" lon="5.46914722442">
		<tag k="bridge" v="yes" />
		<tag k="layer" v="1" />
		<tag k="name" v="Førde" />
		<tag k="ssr:stedsnr" v="108925" />
	</node>
	<node id="-437270" lat="59.5834111126" lon="5.43139721848">
		<tag k="bridge" v="yes" />
		<tag k="layer" v="1" />
		<tag k="name" v="Rødelv" />
		<tag k="ssr:stedsnr" v="108916" />
	</node>
	<node id="-437269" lat="59.677902779" lon="5.47749166368">
		<tag k="bridge" v="yes" />
		<tag k="layer" v="1" />
		<tag k="name" v="Ulveraker" />
		<tag k="ssr:stedsnr" v="108913" />
	</node>
	<node id="-437268" lat="59.6559666667" lon="5.45257221749">
		<tag k="bridge" v="yes" />
		<tag k="layer" v="1" />
		<tag k="name" v="Ørvik" />
		<tag k="ssr:stedsnr" v="108912" />
	</node>
	<node id="-438148" lat="59.5560111079" lon="5.49580000217">
		<tag k="bridge" v="yes" />
		<tag k="layer" v="1" />
		<tag k="name" v="Ervesund" />
		<tag k="ssr:stedsnr" v="775927" />
	</node>
	<node id="-438147" lat="59.5470361137" lon="5.42173889574">
		<tag k="bridge" v="yes" />
		<tag k="layer" v="1" />
		<tag k="name" v="Krossgått" />
		<tag k="ssr:stedsnr" v="775916" />
	</node>
	<node id="-438146" lat="59.5136361077" lon="5.43877222039">
		<tag k="bridge" v="yes" />
		<tag k="layer" v="1" />
		<tag k="name" v="Lyngbakken" />
		<tag k="ssr:stedsnr" v="775913" />
	</node>
	<node id="-438145" lat="59.5655027762" lon="5.41640834191">
		<tag k="bridge" v="yes" />
		<tag k="layer" v="1" />
		<tag k="name" v="Tveita" />
		<tag k="ssr:stedsnr" v="775910" />
	</node>
</osm>
