<?xml version="1.0" encoding="UTF-8"?>
<osm generator="osmapis" version="0.6">
	<node id="-438255" lat="59.5093138876" lon="5.45055000325">
		<tag k="alt_name" v="Tidna" />
		<tag k="fixme" v="consider natural=peak for the most distinct mountains in the district" />
		<tag k="name" v="Tidno" />
		<tag k="natural" v="hill" />
		<tag k="place" v="locality" />
		<tag k="ssr:stedsnr" v="852148" />
	</node>
	<node id="-438249" lat="59.5986916682" lon="5.48138333371">
		<tag k="fixme" v="consider natural=peak for the most distinct mountains in the district" />
		<tag k="name" v="Båtarygg" />
		<tag k="natural" v="hill" />
		<tag k="place" v="locality" />
		<tag k="ssr:stedsnr" v="816830" />
	</node>
	<node id="-438247" lat="59.6085305596" lon="5.45413889684">
		<tag k="name" v="Islandsberget" />
		<tag k="natural" v="hill" />
		<tag k="place" v="locality" />
		<tag k="ssr:stedsnr" v="816818" />
	</node>
	<node id="-438238" lat="59.4924083302" lon="5.3756722223">
		<tag k="name" v="Nås" />
		<tag k="place" v="locality" />
		<tag k="ssr:stedsnr" v="815905" />
	</node>
	<node id="-438237" lat="59.5473555552" lon="5.39328610694">
		<tag k="name" v="Kjarthammar" />
		<tag k="natural" v="hill" />
		<tag k="place" v="locality" />
		<tag k="ssr:stedsnr" v="815896" />
	</node>
	<node id="-438234" lat="59.5788944487" lon="5.51156110376">
		<tag k="name" v="Ørnanibba" />
		<tag k="natural" v="hill" />
		<tag k="place" v="locality" />
		<tag k="ssr:stedsnr" v="815826" />
	</node>
	<node id="-438232" lat="59.606344443" lon="5.38076666399">
		<tag k="name" v="Hatt" />
		<tag k="natural" v="hill" />
		<tag k="place" v="locality" />
		<tag k="ssr:stedsnr" v="815793" />
	</node>
	<node id="-438225" lat="59.6941611088" lon="5.51126389623">
		<tag k="name" v="Vårliaksla" />
		<tag k="natural" v="ridge" />
		<tag k="place" v="locality" />
		<tag k="ssr:stedsnr" v="815603" />
	</node>
	<node id="-438224" lat="59.5926333351" lon="5.34120000308">
		<tag k="name" v="Klovningskaret" />
		<tag k="natural" v="valley" />
		<tag k="place" v="locality" />
		<tag k="ssr:stedsnr" v="815567" />
	</node>
	<node id="-438221" lat="59.596066663" lon="5.33205278421">
		<tag k="name" v="Kvernahaugen" />
		<tag k="natural" v="hill" />
		<tag k="place" v="locality" />
		<tag k="ssr:stedsnr" v="815548" />
	</node>
	<node id="-438220" lat="59.6134694436" lon="5.32898055522">
		<tag k="name" v="Hesthammar" />
		<tag k="natural" v="hill" />
		<tag k="place" v="locality" />
		<tag k="ssr:stedsnr" v="815547" />
	</node>
	<node id="-438219" lat="59.544799996" lon="5.36026110421">
		<tag k="name" v="Sveialeite" />
		<tag k="place" v="locality" />
		<tag k="ssr:stedsnr" v="815515" />
	</node>
	<node id="-438218" lat="59.5391222222" lon="5.27739166015">
		<tag k="name" v="Varden" />
		<tag k="natural" v="hill" />
		<tag k="place" v="locality" />
		<tag k="ssr:stedsnr" v="815505" />
	</node>
	<node id="-438217" lat="59.5367222221" lon="5.32618334058">
		<tag k="name" v="Rundehaugen" />
		<tag k="natural" v="hill" />
		<tag k="place" v="locality" />
		<tag k="ssr:stedsnr" v="815500" />
	</node>
	<node id="-438216" lat="59.58934444" lon="5.40851666465">
		<tag k="name" v="Otrahaugen" />
		<tag k="natural" v="hill" />
		<tag k="place" v="locality" />
		<tag k="ssr:stedsnr" v="815239" />
	</node>
	<node id="-438212" lat="59.5240444403" lon="5.27126388905">
		<tag k="name" v="Lindeberg" />
		<tag k="natural" v="hill" />
		<tag k="place" v="locality" />
		<tag k="ssr:stedsnr" v="815204" />
	</node>
	<node id="-438210" lat="59.6094861095" lon="5.51418054686">
		<tag k="fixme" v="consider natural=peak for the most distinct mountains in the district" />
		<tag k="name" v="Nonsåsen" />
		<tag k="natural" v="hill" />
		<tag k="place" v="locality" />
		<tag k="ssr:stedsnr" v="815186" />
	</node>
	<node id="-438209" lat="59.6599500007" lon="5.49132222393">
		<tag k="name" v="Slåkadalen" />
		<tag k="natural" v="valley" />
		<tag k="place" v="locality" />
		<tag k="ssr:stedsnr" v="815169" />
	</node>
	<node id="-438208" lat="59.5647250006" lon="5.49948888986">
		<tag k="name" v="Kålhaugane" />
		<tag k="natural" v="hill" />
		<tag k="place" v="locality" />
		<tag k="ssr:stedsnr" v="815147" />
	</node>
	<node id="-438205" lat="59.5716583358" lon="5.52191110996">
		<tag k="name" v="Kalhaugen" />
		<tag k="natural" v="hill" />
		<tag k="place" v="locality" />
		<tag k="ssr:stedsnr" v="815124" />
	</node>
	<node id="-438202" lat="59.5646972201" lon="5.4430138866">
		<tag k="name" v="Svarthaug" />
		<tag k="natural" v="hill" />
		<tag k="place" v="locality" />
		<tag k="ssr:stedsnr" v="815052" />
	</node>
	<node id="-438199" lat="59.5561222216" lon="5.45809722849">
		<tag k="name" v="Klovning" />
		<tag k="natural" v="hill" />
		<tag k="place" v="locality" />
		<tag k="ssr:stedsnr" v="815041" />
	</node>
	<node id="-438198" lat="59.5691083308" lon="5.40480833942">
		<tag k="name" v="Tveitasåto" />
		<tag k="natural" v="hill" />
		<tag k="place" v="locality" />
		<tag k="ssr:stedsnr" v="815027" />
	</node>
	<node id="-438179" lat="59.5716083291" lon="5.40047222422">
		<tag k="fixme" v="consider natural=peak for the most distinct mountains in the district" />
		<tag k="name" v="Tveitalifjellet" />
		<tag k="natural" v="hill" />
		<tag k="place" v="locality" />
		<tag k="ssr:stedsnr" v="792217" />
	</node>
	<node id="-438166" lat="59.6911999978" lon="5.51612500325">
		<tag k="name" v="Smalesåtene" />
		<tag k="natural" v="hill" />
		<tag k="place" v="locality" />
		<tag k="ssr:stedsnr" v="792057" />
	</node>
	<node id="-438163" lat="59.6892805561" lon="5.46443333399">
		<tag k="fixme" v="consider natural=peak for the most distinct mountains in the district" />
		<tag k="name" v="Dyråsen" />
		<tag k="natural" v="hill" />
		<tag k="place" v="locality" />
		<tag k="ssr:stedsnr" v="791991" />
	</node>
	<node id="-438144" lat="59.6075027804" lon="5.47624444142">
		<tag k="name" v="Risdalen" />
		<tag k="natural" v="valley" />
		<tag k="place" v="locality" />
		<tag k="ssr:stedsnr" v="755814" />
	</node>
	<node id="-438139" lat="59.5133777769" lon="5.39176388395">
		<tag k="name" v="Træsbråtet" />
		<tag k="place" v="locality" />
		<tag k="ssr:stedsnr" v="754976" />
	</node>
	<node id="-438138" lat="59.5165277769" lon="5.41291666621">
		<tag k="name" v="Høgehaugen" />
		<tag k="natural" v="hill" />
		<tag k="place" v="locality" />
		<tag k="ssr:stedsnr" v="754973" />
	</node>
	<node id="-438136" lat="59.514241668" lon="5.4455333355">
		<tag k="name" v="Tussatre" />
		<tag k="place" v="locality" />
		<tag k="ssr:stedsnr" v="754957" />
	</node>
	<node id="-438133" lat="59.5450277811" lon="5.42204444022">
		<tag k="name" v="Kalhaugen" />
		<tag k="natural" v="hill" />
		<tag k="place" v="locality" />
		<tag k="ssr:stedsnr" v="754892" />
	</node>
	<node id="-438132" lat="59.5415222231" lon="5.43771945021">
		<tag k="fixme" v="consider natural=peak for the most distinct mountains in the district" />
		<tag k="name" v="Vågafjellet" />
		<tag k="natural" v="hill" />
		<tag k="place" v="locality" />
		<tag k="ssr:stedsnr" v="754880" />
	</node>
	<node id="-438129" lat="59.5299361107" lon="5.40129999667">
		<tag k="name" v="Storevarden" />
		<tag k="natural" v="hill" />
		<tag k="place" v="locality" />
		<tag k="ssr:stedsnr" v="754870" />
	</node>
	<node id="-438128" lat="59.5320111085" lon="5.40534166863">
		<tag k="name" v="Grønevarden" />
		<tag k="natural" v="hill" />
		<tag k="place" v="locality" />
		<tag k="ssr:stedsnr" v="754869" />
	</node>
	<node id="-438125" lat="59.6380916667" lon="5.45116665847">
		<tag k="name" v="Hagavikshaugane" />
		<tag k="natural" v="hill" />
		<tag k="place" v="locality" />
		<tag k="ssr:stedsnr" v="754839" />
	</node>
	<node id="-438124" lat="59.6509249968" lon="5.47311389185">
		<tag k="name" v="Bjørkehaugane" />
		<tag k="natural" v="hill" />
		<tag k="place" v="locality" />
		<tag k="ssr:stedsnr" v="754829" />
	</node>
	<node id="-438122" lat="59.5963333334" lon="5.4224250036">
		<tag k="name" v="Såta" />
		<tag k="natural" v="hill" />
		<tag k="place" v="locality" />
		<tag k="ssr:stedsnr" v="754798" />
	</node>
	<node id="-438119" lat="59.5246944454" lon="5.23077778315">
		<tag k="name" v="Laks berget" />
		<tag k="natural" v="hill" />
		<tag k="place" v="locality" />
		<tag k="ssr:stedsnr" v="754739" />
	</node>
	<node id="-438118" lat="59.5341805588" lon="5.27523054871">
		<tag k="name" v="Kviteberg" />
		<tag k="natural" v="hill" />
		<tag k="place" v="locality" />
		<tag k="ssr:stedsnr" v="754720" />
	</node>
	<node id="-438115" lat="59.6187611152" lon="5.33121667401">
		<tag k="name" v="Svehaug" />
		<tag k="natural" v="hill" />
		<tag k="place" v="locality" />
		<tag k="ssr:stedsnr" v="754583" />
	</node>
	<node id="-438110" lat="59.5218527783" lon="5.26468610816">
		<tag k="fixme" v="consider natural=peak for the most distinct mountains in the district" />
		<tag k="name" v="Skjeljevikfjellet" />
		<tag k="natural" v="hill" />
		<tag k="place" v="locality" />
		<tag k="ssr:stedsnr" v="754557" />
	</node>
	<node id="-438106" lat="59.6659611094" lon="5.43850000343">
		<tag k="name" v="Hundaberget" />
		<tag k="natural" v="hill" />
		<tag k="place" v="locality" />
		<tag k="ssr:stedsnr" v="754263" />
	</node>
	<node id="-438103" lat="59.6090527822" lon="5.49668056183">
		<tag k="name" v="Stualandsdalen" />
		<tag k="natural" v="valley" />
		<tag k="place" v="locality" />
		<tag k="ssr:stedsnr" v="754208" />
	</node>
	<node id="-438102" lat="59.5985972211" lon="5.51226111474">
		<tag k="fixme" v="consider natural=peak for the most distinct mountains in the district" />
		<tag k="name" v="Gaddaråsen" />
		<tag k="natural" v="hill" />
		<tag k="place" v="locality" />
		<tag k="ssr:stedsnr" v="754201" />
	</node>
	<node id="-438101" lat="59.6710166689" lon="5.50721943544">
		<tag k="name" v="Orreskuffene" />
		<tag k="natural" v="hill" />
		<tag k="place" v="locality" />
		<tag k="ssr:stedsnr" v="754200" />
	</node>
	<node id="-438100" lat="59.6671944463" lon="5.49016666779">
		<tag k="name" v="Porsdalen" />
		<tag k="natural" v="valley" />
		<tag k="place" v="locality" />
		<tag k="ssr:stedsnr" v="754193" />
	</node>
	<node id="-438096" lat="59.5926666696" lon="5.4943972215">
		<tag k="name" v="Mørkehaugen" />
		<tag k="natural" v="hill" />
		<tag k="place" v="locality" />
		<tag k="ssr:stedsnr" v="754167" />
	</node>
	<node id="-438095" lat="59.590261111" lon="5.50476666628">
		<tag k="name" v="Brakhovda" />
		<tag k="natural" v="hill" />
		<tag k="place" v="locality" />
		<tag k="ssr:stedsnr" v="754158" />
	</node>
	<node id="-438094" lat="59.6075194423" lon="5.47796666691">
		<tag k="name" v="Storhaug" />
		<tag k="natural" v="hill" />
		<tag k="place" v="locality" />
		<tag k="ssr:stedsnr" v="754127" />
	</node>
	<node id="-438093" lat="59.6274472214" lon="5.49029165827">
		<tag k="name" v="Austvik-Rabben" />
		<tag k="natural" v="hill" />
		<tag k="place" v="locality" />
		<tag k="ssr:stedsnr" v="754124" />
	</node>
	<node id="-438091" lat="59.5537861093" lon="5.33127500457">
		<tag k="name" v="Svehaug" />
		<tag k="natural" v="hill" />
		<tag k="place" v="locality" />
		<tag k="ssr:stedsnr" v="754079" />
	</node>
	<node id="-438086" lat="59.5639805583" lon="5.38890555057">
		<tag k="fixme" v="consider natural=peak for the most distinct mountains in the district" />
		<tag k="name" v="Litle Reiaråsen" />
		<tag k="natural" v="hill" />
		<tag k="place" v="locality" />
		<tag k="ssr:stedsnr" v="754038" />
	</node>
	<node id="-438085" lat="59.5627555522" lon="5.39107778192">
		<tag k="fixme" v="consider natural=peak for the most distinct mountains in the district" />
		<tag k="name" v="Store Reiaråsen" />
		<tag k="natural" v="hill" />
		<tag k="place" v="locality" />
		<tag k="ssr:stedsnr" v="754033" />
	</node>
	<node id="-438084" lat="59.5626694475" lon="5.39778889468">
		<tag k="name" v="Gunnarsvardane" />
		<tag k="natural" v="hill" />
		<tag k="place" v="locality" />
		<tag k="ssr:stedsnr" v="754031" />
	</node>
	<node id="-438061" lat="59.5587861107" lon="5.50122500256">
		<tag k="alt_name" v="Husafjell" />
		<tag k="fixme" v="consider natural=peak for the most distinct mountains in the district" />
		<tag k="name" v="Husafjellet" />
		<tag k="natural" v="hill" />
		<tag k="place" v="locality" />
		<tag k="ssr:stedsnr" v="731284" />
	</node>
	<node id="-438060" lat="59.5465999992" lon="5.48144167367">
		<tag k="fixme" v="consider natural=peak for the most distinct mountains in the district" />
		<tag k="name" v="Hovdafjellet" />
		<tag k="natural" v="hill" />
		<tag k="place" v="locality" />
		<tag k="ssr:stedsnr" v="731280" />
	</node>
	<node id="-438047" lat="59.7059694472" lon="5.50266111868">
		<tag k="alt_name" v="Haugsgjerdsåta" />
		<tag k="name" v="Haugsgjerdesåta" />
		<tag k="natural" v="hill" />
		<tag k="place" v="locality" />
		<tag k="ssr:stedsnr" v="731070" />
	</node>
	<node id="-438046" lat="59.692902776" lon="5.49395000839">
		<tag k="name" v="Høgesnipen" />
		<tag k="natural" v="hill" />
		<tag k="place" v="locality" />
		<tag k="ssr:stedsnr" v="731042" />
	</node>
	<node id="-438045" lat="59.6866527823" lon="5.50108334016">
		<tag k="name" v="Monsvarden" />
		<tag k="natural" v="hill" />
		<tag k="place" v="locality" />
		<tag k="ssr:stedsnr" v="731031" />
	</node>
	<node id="-438042" lat="59.6673416669" lon="5.50890000824">
		<tag k="alt_name" v="Steinsfjellet" />
		<tag k="fixme" v="consider natural=peak for the most distinct mountains in the district" />
		<tag k="name" v="Steinsfjell" />
		<tag k="natural" v="hill" />
		<tag k="place" v="locality" />
		<tag k="ssr:stedsnr" v="731006" />
	</node>
	<node id="-438038" lat="59.6157027822" lon="5.42617777555">
		<tag k="name" v="Varhaug" />
		<tag k="natural" v="hill" />
		<tag k="place" v="locality" />
		<tag k="ssr:stedsnr" v="694963" />
	</node>
	<node id="-438035" lat="59.5025638925" lon="5.39898610844">
		<tag k="name" v="Tjødnarhaugen" />
		<tag k="natural" v="hill" />
		<tag k="place" v="locality" />
		<tag k="ssr:stedsnr" v="694926" />
	</node>
	<node id="-438029" lat="59.5435861153" lon="5.41691111717">
		<tag k="name" v="Bråtveithaugen" />
		<tag k="natural" v="hill" />
		<tag k="place" v="locality" />
		<tag k="ssr:stedsnr" v="694874" />
	</node>
	<node id="-438027" lat="59.6431805586" lon="5.47814166649">
		<tag k="fixme" v="consider natural=peak for the most distinct mountains in the district" />
		<tag k="name" v="Grønåsen" />
		<tag k="natural" v="hill" />
		<tag k="place" v="locality" />
		<tag k="ssr:stedsnr" v="694839" />
	</node>
	<node id="-438026" lat="59.6529472239" lon="5.43922777122">
		<tag k="name" v="Relehaugane" />
		<tag k="natural" v="hill" />
		<tag k="place" v="locality" />
		<tag k="ssr:stedsnr" v="694834" />
	</node>
	<node id="-438022" lat="59.6019527789" lon="5.45126389703">
		<tag k="name" v="Geitalemen" />
		<tag k="place" v="locality" />
		<tag k="ssr:stedsnr" v="694783" />
	</node>
	<node id="-438020" lat="59.6768250038" lon="5.45451666766">
		<tag k="name" v="Snørehaugen" />
		<tag k="natural" v="hill" />
		<tag k="place" v="locality" />
		<tag k="ssr:stedsnr" v="694771" />
	</node>
	<node id="-438019" lat="59.6762555546" lon="5.43860554723">
		<tag k="name" v="Vestre Havnarehaugen" />
		<tag k="natural" v="hill" />
		<tag k="place" v="locality" />
		<tag k="ssr:stedsnr" v="694765" />
	</node>
	<node id="-438016" lat="59.7087166664" lon="5.52261944311">
		<tag k="name" v="Vardasletta" />
		<tag k="place" v="locality" />
		<tag k="ssr:stedsnr" v="694669" />
	</node>
	<node id="-438015" lat="59.6837055514" lon="5.49215555114">
		<tag k="name" v="Kvileskår" />
		<tag k="natural" v="valley" />
		<tag k="place" v="locality" />
		<tag k="ssr:stedsnr" v="694637" />
	</node>
	<node id="-438014" lat="59.7010472204" lon="5.49533611976">
		<tag k="fixme" v="consider natural=peak for the most distinct mountains in the district" />
		<tag k="name" v="Sleimiåsen" />
		<tag k="natural" v="hill" />
		<tag k="place" v="locality" />
		<tag k="ssr:stedsnr" v="694625" />
	</node>
	<node id="-438013" lat="59.5508916669" lon="5.33147500743">
		<tag k="name" v="Longabrotet" />
		<tag k="natural" v="hill" />
		<tag k="place" v="locality" />
		<tag k="ssr:stedsnr" v="694622" />
	</node>
	<node id="-438012" lat="59.5627500015" lon="5.2883055553">
		<tag k="name" v="Kvernaneset" />
		<tag k="place" v="locality" />
		<tag k="ssr:stedsnr" v="694595" />
	</node>
	<node id="-438011" lat="59.5921749973" lon="5.34849999186">
		<tag k="name" v="Torjulsdalen" />
		<tag k="natural" v="valley" />
		<tag k="place" v="locality" />
		<tag k="ssr:stedsnr" v="694596" />
	</node>
	<node id="-438010" lat="59.5998722261" lon="5.34056943652">
		<tag k="name" v="Roparhaugen" />
		<tag k="natural" v="hill" />
		<tag k="place" v="locality" />
		<tag k="ssr:stedsnr" v="694570" />
	</node>
	<node id="-438007" lat="59.5419666656" lon="5.32521388313">
		<tag k="name" v="Revadalen" />
		<tag k="natural" v="valley" />
		<tag k="place" v="locality" />
		<tag k="ssr:stedsnr" v="694546" />
	</node>
	<node id="-438006" lat="59.543033333" lon="5.3442305613">
		<tag k="name" v="Sveialøkjen" />
		<tag k="place" v="locality" />
		<tag k="ssr:stedsnr" v="694525" />
	</node>
	<node id="-438005" lat="59.5362916633" lon="5.3208944505">
		<tag k="name" v="Likkvilehaugen" />
		<tag k="natural" v="hill" />
		<tag k="place" v="locality" />
		<tag k="ssr:stedsnr" v="694524" />
	</node>
	<node id="-438002" lat="59.5167000017" lon="5.35392778368">
		<tag k="name" v="Stølsberget" />
		<tag k="natural" v="hill" />
		<tag k="place" v="locality" />
		<tag k="ssr:stedsnr" v="694511" />
	</node>
	<node id="-438001" lat="59.5867833295" lon="5.42446111406">
		<tag k="name" v="Leito" />
		<tag k="place" v="locality" />
		<tag k="ssr:stedsnr" v="694216" />
	</node>
	<node id="-437999" lat="59.595705558" lon="5.47643055041">
		<tag k="name" v="Espesmoget" />
		<tag k="natural" v="valley" />
		<tag k="place" v="locality" />
		<tag k="ssr:stedsnr" v="694188" />
	</node>
	<node id="-437997" lat="59.6551666626" lon="5.52743611365">
		<tag k="name" v="Grasdalen" />
		<tag k="natural" v="valley" />
		<tag k="place" v="locality" />
		<tag k="ssr:stedsnr" v="694181" />
	</node>
	<node id="-437995" lat="59.6753277771" lon="5.53443888415">
		<tag k="fixme" v="consider natural=peak for the most distinct mountains in the district" />
		<tag k="name" v="Hedlo" />
		<tag k="natural" v="hill" />
		<tag k="place" v="locality" />
		<tag k="ssr:stedsnr" v="694156" />
	</node>
	<node id="-437994" lat="59.6222416692" lon="5.50930000195">
		<tag k="name" v="Nordhaug" />
		<tag k="natural" v="hill" />
		<tag k="place" v="locality" />
		<tag k="ssr:stedsnr" v="694143" />
	</node>
	<node id="-437992" lat="59.6366583309" lon="5.49394999673">
		<tag k="fixme" v="consider natural=peak for the most distinct mountains in the district" />
		<tag k="name" v="Eikefjellet" />
		<tag k="natural" v="hill" />
		<tag k="place" v="locality" />
		<tag k="ssr:stedsnr" v="694142" />
	</node>
	<node id="-437991" lat="59.6221500029" lon="5.50250833968">
		<tag k="name" v="Litle Dreng" />
		<tag k="natural" v="hill" />
		<tag k="place" v="locality" />
		<tag k="ssr:stedsnr" v="694140" />
	</node>
	<node id="-437988" lat="59.5430083327" lon="5.34760278495">
		<tag k="name" v="Sveiahaugen" />
		<tag k="natural" v="hill" />
		<tag k="place" v="locality" />
		<tag k="ssr:stedsnr" v="694062" />
	</node>
	<node id="-437987" lat="59.6010583362" lon="5.49614444815">
		<tag k="name" v="Selabakken" />
		<tag k="natural" v="slope" />
		<tag k="place" v="locality" />
		<tag k="ssr:stedsnr" v="694045" />
	</node>
	<node id="-437986" lat="59.5718416663" lon="5.40019999846">
		<tag k="name" v="Tveitalisåto" />
		<tag k="natural" v="hill" />
		<tag k="place" v="locality" />
		<tag k="ssr:stedsnr" v="694017" />
	</node>
	<node id="-437973" lat="59.5162583342" lon="5.34128610814">
		<tag k="alt_name" v="Tveitefjellet" />
		<tag k="fixme" v="consider natural=peak for the most distinct mountains in the district" />
		<tag k="name" v="Tveitfjellet" />
		<tag k="natural" v="hill" />
		<tag k="place" v="locality" />
		<tag k="ssr:stedsnr" v="671181" />
	</node>
	<node id="-437968" lat="59.6878991111" lon="5.44094135381">
		<tag k="alt_name" v="Ulvåkerhamaren;Ulverakershammaren" />
		<tag k="name" v="Ulvaråkerhamaren" />
		<tag k="natural" v="hill" />
		<tag k="place" v="locality" />
		<tag k="ssr:stedsnr" v="670994" />
	</node>
	<node id="-437964" lat="59.6100777791" lon="5.35818333071">
		<tag k="name" v="Stonghaug" />
		<tag k="natural" v="hill" />
		<tag k="place" v="locality" />
		<tag k="ssr:stedsnr" v="670830" />
	</node>
	<node id="-437961" lat="59.5896249985" lon="5.36165555013">
		<tag k="alt_name" v="Kinnafjellet" />
		<tag k="fixme" v="consider natural=peak for the most distinct mountains in the district" />
		<tag k="name" v="Kinnfjellet" />
		<tag k="natural" v="hill" />
		<tag k="place" v="locality" />
		<tag k="ssr:stedsnr" v="670798" />
	</node>
	<node id="-437957" lat="59.5849555557" lon="5.519833332">
		<tag k="name" v="Preikestolen" />
		<tag k="natural" v="hill" />
		<tag k="place" v="locality" />
		<tag k="ssr:stedsnr" v="670369" />
	</node>
	<node id="-437956" lat="59.5710249972" lon="5.52909999168">
		<tag k="name" v="Framnesnotten" />
		<tag k="natural" v="hill" />
		<tag k="place" v="locality" />
		<tag k="ssr:stedsnr" v="670356" />
	</node>
	<node id="-437947" lat="59.5051444414" lon="5.30822222978">
		<tag k="alt_name" v="Rongavasshaugane" />
		<tag k="name" v="Rongvasshaugane" />
		<tag k="natural" v="hill" />
		<tag k="place" v="locality" />
		<tag k="ssr:stedsnr" v="670131" />
	</node>
	<node id="-437934" lat="59.5999805546" lon="5.47071944286">
		<tag k="name" v="Øykjadalen" />
		<tag k="natural" v="valley" />
		<tag k="place" v="locality" />
		<tag k="ssr:stedsnr" v="633834" />
	</node>
	<node id="-437933" lat="59.5968500001" lon="5.45879999323">
		<tag k="fixme" v="consider natural=peak for the most distinct mountains in the district" />
		<tag k="name" v="Trollåsen" />
		<tag k="natural" v="hill" />
		<tag k="place" v="locality" />
		<tag k="ssr:stedsnr" v="633831" />
	</node>
	<node id="-437932" lat="59.5961777756" lon="5.46525278189">
		<tag k="name" v="Skogadalane" />
		<tag k="natural" v="valley" />
		<tag k="place" v="locality" />
		<tag k="ssr:stedsnr" v="633816" />
	</node>
	<node id="-437931" lat="59.6701138913" lon="5.44966110438">
		<tag k="name" v="Pikhaugen" />
		<tag k="natural" v="hill" />
		<tag k="place" v="locality" />
		<tag k="ssr:stedsnr" v="633803" />
	</node>
	<node id="-437930" lat="59.6765222245" lon="5.44122776944">
		<tag k="name" v="Austre Havnarehaugen" />
		<tag k="natural" v="hill" />
		<tag k="place" v="locality" />
		<tag k="ssr:stedsnr" v="633796" />
	</node>
	<node id="-437926" lat="59.4815250006" lon="5.3324666663">
		<tag k="name" v="Stongavarden" />
		<tag k="natural" v="hill" />
		<tag k="place" v="locality" />
		<tag k="ssr:stedsnr" v="633752" />
	</node>
	<node id="-437925" lat="59.7051472244" lon="5.50835832725">
		<tag k="name" v="Lauvhaugen" />
		<tag k="natural" v="hill" />
		<tag k="place" v="locality" />
		<tag k="ssr:stedsnr" v="633708" />
	</node>
	<node id="-437924" lat="59.6915500021" lon="5.51557500292">
		<tag k="name" v="Tidno" />
		<tag k="natural" v="hill" />
		<tag k="place" v="locality" />
		<tag k="ssr:stedsnr" v="633684" />
	</node>
	<node id="-437923" lat="59.6837583332" lon="5.53569721768">
		<tag k="name" v="Ravneberg" />
		<tag k="natural" v="hill" />
		<tag k="place" v="locality" />
		<tag k="ssr:stedsnr" v="633679" />
	</node>
	<node id="-437921" lat="59.6963444479" lon="5.49005833365">
		<tag k="name" v="Sjursdalen" />
		<tag k="natural" v="valley" />
		<tag k="place" v="locality" />
		<tag k="ssr:stedsnr" v="633667" />
	</node>
	<node id="-437917" lat="59.5798944469" lon="5.45919722676">
		<tag k="name" v="Stovedalen" />
		<tag k="natural" v="valley" />
		<tag k="place" v="locality" />
		<tag k="ssr:stedsnr" v="633281" />
	</node>
	<node id="-437916" lat="59.5817527794" lon="5.43724444037">
		<tag k="name" v="Skorvehaugen" />
		<tag k="natural" v="hill" />
		<tag k="place" v="locality" />
		<tag k="ssr:stedsnr" v="633279" />
	</node>
	<node id="-437915" lat="59.5847499991" lon="5.41460555029">
		<tag k="name" v="Kålhaugen" />
		<tag k="natural" v="hill" />
		<tag k="place" v="locality" />
		<tag k="ssr:stedsnr" v="633273" />
	</node>
	<node id="-437912" lat="59.5862916652" lon="5.39418333053">
		<tag k="name" v="Styrteplasset" />
		<tag k="place" v="locality" />
		<tag k="ssr:stedsnr" v="633264" />
	</node>
	<node id="-437911" lat="59.6056694432" lon="5.46785278361">
		<tag k="fixme" v="consider natural=peak for the most distinct mountains in the district" />
		<tag k="name" v="Hjartåsen" />
		<tag k="natural" v="hill" />
		<tag k="place" v="locality" />
		<tag k="ssr:stedsnr" v="633252" />
	</node>
	<node id="-437908" lat="59.5022499956" lon="5.30763055793">
		<tag k="fixme" v="consider natural=peak for the most distinct mountains in the district" />
		<tag k="name" v="Hushammar" />
		<tag k="natural" v="hill" />
		<tag k="place" v="locality" />
		<tag k="ssr:stedsnr" v="633238" />
	</node>
	<node id="-437905" lat="59.6644972193" lon="5.51093332553">
		<tag k="name" v="Haugsbødalen" />
		<tag k="natural" v="valley" />
		<tag k="place" v="locality" />
		<tag k="ssr:stedsnr" v="633189" />
	</node>
	<node id="-437904" lat="59.5902583334" lon="5.4861777716">
		<tag k="name" v="Miemaurhaugen" />
		<tag k="natural" v="hill" />
		<tag k="place" v="locality" />
		<tag k="ssr:stedsnr" v="633155" />
	</node>
	<node id="-437903" lat="59.7248111075" lon="5.52220277939">
		<tag k="name" v="Hedlebergshaugane" />
		<tag k="natural" v="hill" />
		<tag k="place" v="locality" />
		<tag k="ssr:stedsnr" v="633151" />
	</node>
	<node id="-437899" lat="59.5713694455" lon="5.39306389689">
		<tag k="fixme" v="consider natural=peak for the most distinct mountains in the district" />
		<tag k="name" v="Søkefjellet" />
		<tag k="natural" v="hill" />
		<tag k="place" v="locality" />
		<tag k="ssr:stedsnr" v="633030" />
	</node>
	<node id="-437897" lat="59.591848449" lon="5.4479798082">
		<tag k="name" v="Vassnesberget" />
		<tag k="natural" v="hill" />
		<tag k="place" v="locality" />
		<tag k="ssr:stedsnr" v="633008" />
	</node>
	<node id="-437894" lat="59.5269222211" lon="5.399855555">
		<tag k="name" v="Raunahaugen" />
		<tag k="natural" v="hill" />
		<tag k="place" v="locality" />
		<tag k="ssr:stedsnr" v="632974" />
	</node>
	<node id="-437884" lat="59.5230944491" lon="5.27319167057">
		<tag k="name" v="Floven" />
		<tag k="natural" v="hill" />
		<tag k="place" v="locality" />
		<tag k="ssr:stedsnr" v="632547" />
	</node>
	<node id="-437883" lat="59.539016669" lon="5.27932777632">
		<tag k="name" v="Vandaskogsdalen" />
		<tag k="natural" v="valley" />
		<tag k="place" v="locality" />
		<tag k="ssr:stedsnr" v="632537" />
	</node>
	<node id="-437881" lat="59.5756999962" lon="5.28911388264">
		<tag k="name" v="Djupedalen" />
		<tag k="natural" v="valley" />
		<tag k="place" v="locality" />
		<tag k="ssr:stedsnr" v="632529" />
	</node>
	<node id="-437874" lat="59.5822000014" lon="5.33615833604">
		<tag k="name" v="Klampen" />
		<tag k="natural" v="hill" />
		<tag k="place" v="locality" />
		<tag k="ssr:stedsnr" v="610806" />
	</node>
	<node id="-437866" lat="59.5759499967" lon="5.47748889088">
		<tag k="alt_name" v="Toråsen" />
		<tag k="fixme" v="consider natural=peak for the most distinct mountains in the district" />
		<tag k="name" v="Foråsen" />
		<tag k="natural" v="hill" />
		<tag k="place" v="locality" />
		<tag k="ssr:stedsnr" v="610097" />
	</node>
	<node id="-437850" lat="59.5883250007" lon="5.49345833166">
		<tag k="fixme" v="consider natural=peak for the most distinct mountains in the district" />
		<tag k="name" v="Børshovda" />
		<tag k="natural" v="hill" />
		<tag k="place" v="locality" />
		<tag k="ssr:stedsnr" v="609377" />
	</node>
	<node id="-437846" lat="59.5221749992" lon="5.49654999412">
		<tag k="name" v="Tjuvalåven" />
		<tag k="place" v="locality" />
		<tag k="ssr:stedsnr" v="609262" />
	</node>
	<node id="-437843" lat="59.5522055546" lon="5.29376944612">
		<tag k="name" v="Kvitaberg" />
		<tag k="natural" v="hill" />
		<tag k="place" v="locality" />
		<tag k="ssr:stedsnr" v="609227" />
	</node>
	<node id="-437828" lat="59.618169444" lon="5.41565278538">
		<tag k="name" v="Trollhaugen" />
		<tag k="natural" v="hill" />
		<tag k="place" v="locality" />
		<tag k="ssr:stedsnr" v="572966" />
	</node>
	<node id="-437822" lat="59.5403722216" lon="5.43768889519">
		<tag k="name" v="Kyrkegardshaugen" />
		<tag k="natural" v="hill" />
		<tag k="place" v="locality" />
		<tag k="ssr:stedsnr" v="572890" />
	</node>
	<node id="-437816" lat="59.5871805532" lon="5.5204833398">
		<tag k="name" v="Nausthaugen" />
		<tag k="natural" v="hill" />
		<tag k="place" v="locality" />
		<tag k="ssr:stedsnr" v="572834" />
	</node>
	<node id="-437814" lat="59.6103944416" lon="5.37816666872">
		<tag k="name" v="Fyrdalen" />
		<tag k="natural" v="valley" />
		<tag k="place" v="locality" />
		<tag k="ssr:stedsnr" v="572810" />
	</node>
	<node id="-437812" lat="59.4839694409" lon="5.32739167096">
		<tag k="name" v="Løkjerhaug" />
		<tag k="natural" v="hill" />
		<tag k="place" v="locality" />
		<tag k="ssr:stedsnr" v="572733" />
	</node>
	<node id="-437810" lat="59.5041722223" lon="5.33076944986">
		<tag k="name" v="Furehaugen" />
		<tag k="natural" v="hill" />
		<tag k="place" v="locality" />
		<tag k="ssr:stedsnr" v="572718" />
	</node>
	<node id="-437802" lat="59.5365333356" lon="5.29098888369">
		<tag k="name" v="Ytre kvile" />
		<tag k="place" v="locality" />
		<tag k="ssr:stedsnr" v="572541" />
	</node>
	<node id="-437800" lat="59.5804249976" lon="5.44918055638">
		<tag k="name" v="Skarhaugen" />
		<tag k="natural" v="hill" />
		<tag k="place" v="locality" />
		<tag k="ssr:stedsnr" v="572286" />
	</node>
	<node id="-437799" lat="59.6360805544" lon="5.37988332686">
		<tag k="name" v="Hesthamro" />
		<tag k="place" v="locality" />
		<tag k="ssr:stedsnr" v="572258" />
	</node>
	<node id="-437798" lat="59.5349833304" lon="5.40390555467">
		<tag k="name" v="Dalbakkhaugen" />
		<tag k="natural" v="hill" />
		<tag k="place" v="locality" />
		<tag k="ssr:stedsnr" v="572249" />
	</node>
	<node id="-437796" lat="59.6750722263" lon="5.4935222217">
		<tag k="name" v="Kvernahaugen" />
		<tag k="natural" v="hill" />
		<tag k="place" v="locality" />
		<tag k="ssr:stedsnr" v="572198" />
	</node>
	<node id="-437793" lat="59.5829305583" lon="5.42423334144">
		<tag k="fixme" v="consider natural=peak for the most distinct mountains in the district" />
		<tag k="name" v="Kyrkjeåsen" />
		<tag k="natural" v="hill" />
		<tag k="place" v="locality" />
		<tag k="ssr:stedsnr" v="572156" />
	</node>
	<node id="-437789" lat="59.569036109" lon="5.44921111267">
		<tag k="name" v="Kalven" />
		<tag k="natural" v="hill" />
		<tag k="place" v="locality" />
		<tag k="ssr:stedsnr" v="572049" />
	</node>
	<node id="-437788" lat="59.5698916658" lon="5.40283332631">
		<tag k="name" v="Tveitaskaret" />
		<tag k="natural" v="valley" />
		<tag k="place" v="locality" />
		<tag k="ssr:stedsnr" v="572023" />
	</node>
	<node id="-437780" lat="59.518713892" lon="5.31261111506">
		<tag k="alt_name" v="Ramsfjell" />
		<tag k="fixme" v="consider natural=peak for the most distinct mountains in the district" />
		<tag k="name" v="Ramsfjellet" />
		<tag k="natural" v="hill" />
		<tag k="place" v="locality" />
		<tag k="ssr:stedsnr" v="610224" />
	</node>
	<node id="-437776" lat="59.6461740211" lon="5.45567343498">
		<tag k="alt_name" v="Langhamro" />
		<tag k="fixme" v="consider natural=peak for the most distinct mountains in the district" />
		<tag k="name" v="Langhammar" />
		<tag k="natural" v="hill" />
		<tag k="place" v="locality" />
		<tag k="ssr:stedsnr" v="549908" />
	</node>
	<node id="-437774" lat="59.6131666665" lon="5.36842222217">
		<tag k="fixme" v="consider natural=peak for the most distinct mountains in the district" />
		<tag k="name" v="Åsbufjellet" />
		<tag k="natural" v="hill" />
		<tag k="place" v="locality" />
		<tag k="ssr:stedsnr" v="549853" />
	</node>
	<node id="-437773" lat="59.6223277756" lon="5.4206805543">
		<tag k="alt_name" v="Kjølhamro" />
		<tag k="name" v="Kjølhammar" />
		<tag k="natural" v="hill" />
		<tag k="place" v="locality" />
		<tag k="ssr:stedsnr" v="549848" />
	</node>
	<node id="-437755" lat="59.5444222231" lon="5.43832221639">
		<tag k="fixme" v="consider natural=peak for the most distinct mountains in the district" />
		<tag k="name" v="Mækjelandsfjellet" />
		<tag k="natural" v="hill" />
		<tag k="place" v="locality" />
		<tag k="ssr:stedsnr" v="549204" />
	</node>
	<node id="-437752" lat="59.5423749975" lon="5.30950832868">
		<tag k="alt_name" v="Åsbuhaugane" />
		<tag k="name" v="Åsbuhaugen" />
		<tag k="natural" v="hill" />
		<tag k="place" v="locality" />
		<tag k="ssr:stedsnr" v="549199" />
	</node>
	<node id="-437742" lat="59.6780999994" lon="5.49765000703">
		<tag k="alt_name" v="Målefjellet" />
		<tag k="fixme" v="consider natural=peak for the most distinct mountains in the district" />
		<tag k="name" v="Målefjell" />
		<tag k="natural" v="hill" />
		<tag k="place" v="locality" />
		<tag k="ssr:stedsnr" v="549073" />
	</node>
	<node id="-437741" lat="59.6895750035" lon="5.49691944697">
		<tag k="alt_name" v="Skårefjellet" />
		<tag k="fixme" v="consider natural=peak for the most distinct mountains in the district" />
		<tag k="name" v="Skårefjell" />
		<tag k="natural" v="hill" />
		<tag k="place" v="locality" />
		<tag k="ssr:stedsnr" v="549061" />
	</node>
	<node id="-437739" lat="59.6601333374" lon="5.50252776967">
		<tag k="name" v="Hansadalen" />
		<tag k="natural" v="valley" />
		<tag k="place" v="locality" />
		<tag k="ssr:stedsnr" v="549013" />
	</node>
	<node id="-437731" lat="59.6444194442" lon="5.45021388105">
		<tag k="name" v="Skorvene" />
		<tag k="place" v="locality" />
		<tag k="ssr:stedsnr" v="512873" />
	</node>
	<node id="-437726" lat="59.5459361142" lon="5.29881666541">
		<tag k="name" v="Fuglesteinshaugane" />
		<tag k="natural" v="hill" />
		<tag k="place" v="locality" />
		<tag k="ssr:stedsnr" v="512571" />
	</node>
	<node id="-437725" lat="59.5123305562" lon="5.34048889656">
		<tag k="name" v="Håvaberg" />
		<tag k="natural" v="hill" />
		<tag k="place" v="locality" />
		<tag k="ssr:stedsnr" v="512541" />
	</node>
	<node id="-437722" lat="59.5885111119" lon="5.40876389514">
		<tag k="name" v="Otrasmoget" />
		<tag k="natural" v="valley" />
		<tag k="place" v="locality" />
		<tag k="ssr:stedsnr" v="512252" />
	</node>
	<node id="-437721" lat="59.580736019" lon="5.41426040851">
		<tag k="fixme" v="consider natural=peak for the most distinct mountains in the district" />
		<tag k="name" v="Litle Abedåsen" />
		<tag k="natural" v="hill" />
		<tag k="place" v="locality" />
		<tag k="ssr:stedsnr" v="512247" />
	</node>
	<node id="-437720" lat="59.584000004" lon="5.41722222971">
		<tag k="name" v="Bjelkhaug" />
		<tag k="natural" v="hill" />
		<tag k="place" v="locality" />
		<tag k="ssr:stedsnr" v="512242" />
	</node>
	<node id="-437718" lat="59.4769027794" lon="5.31593055027">
		<tag k="fixme" v="consider natural=peak for the most distinct mountains in the district" />
		<tag k="name" v="Kleivafjell" />
		<tag k="natural" v="hill" />
		<tag k="place" v="locality" />
		<tag k="ssr:stedsnr" v="512217" />
	</node>
	<node id="-437717" lat="59.6682666707" lon="5.49687778521">
		<tag k="name" v="Staurlid" />
		<tag k="natural" v="slope" />
		<tag k="place" v="locality" />
		<tag k="ssr:stedsnr" v="512168" />
	</node>
	<node id="-437713" lat="59.5657111083" lon="5.37767221552">
		<tag k="name" v="Flathaug" />
		<tag k="natural" v="hill" />
		<tag k="place" v="locality" />
		<tag k="ssr:stedsnr" v="512022" />
	</node>
	<node id="-437711" lat="59.5171416669" lon="5.39930278348">
		<tag k="name" v="Skrubbhaug" />
		<tag k="natural" v="hill" />
		<tag k="place" v="locality" />
		<tag k="ssr:stedsnr" v="511968" />
	</node>
	<node id="-437704" lat="59.6290500044" lon="5.47677222374">
		<tag k="fixme" v="consider natural=peak for the most distinct mountains in the district" />
		<tag k="name" v="Vestre Austvikfjellet" />
		<tag k="natural" v="hill" />
		<tag k="place" v="locality" />
		<tag k="ssr:stedsnr" v="511786" />
	</node>
	<node id="-437703" lat="59.596830559" lon="5.37678333854">
		<tag k="name" v="Kvernedalen" />
		<tag k="natural" v="valley" />
		<tag k="place" v="locality" />
		<tag k="ssr:stedsnr" v="511782" />
	</node>
	<node id="-437702" lat="59.5059555578" lon="5.29602500299">
		<tag k="name" v="Løkjene" />
		<tag k="place" v="locality" />
		<tag k="ssr:stedsnr" v="511666" />
	</node>
	<node id="-437701" lat="59.5018138881" lon="5.28153888897">
		<tag k="fixme" v="consider natural=peak for the most distinct mountains in the district" />
		<tag k="name" v="Tjørnaråsen" />
		<tag k="natural" v="hill" />
		<tag k="place" v="locality" />
		<tag k="ssr:stedsnr" v="511663" />
	</node>
	<node id="-437700" lat="59.6916249968" lon="5.51794166078">
		<tag k="name" v="Vekstnuten" />
		<tag k="natural" v="hill" />
		<tag k="place" v="locality" />
		<tag k="ssr:stedsnr" v="511612" />
	</node>
	<node id="-437699" lat="59.6899194485" lon="5.49186388997">
		<tag k="name" v="Stora Skorfeste" />
		<tag k="place" v="locality" />
		<tag k="ssr:stedsnr" v="511599" />
	</node>
	<node id="-437698" lat="59.55363889" lon="5.33151111432">
		<tag k="fixme" v="consider natural=peak for the most distinct mountains in the district" />
		<tag k="name" v="Eikåsen" />
		<tag k="natural" v="hill" />
		<tag k="place" v="locality" />
		<tag k="ssr:stedsnr" v="511584" />
	</node>
	<node id="-437697" lat="59.59045278" lon="5.34970278518">
		<tag k="name" v="Rossehaug" />
		<tag k="natural" v="hill" />
		<tag k="place" v="locality" />
		<tag k="ssr:stedsnr" v="511571" />
	</node>
	<node id="-437695" lat="59.5631472224" lon="5.31308056037">
		<tag k="name" v="Ardalshaugen" />
		<tag k="natural" v="hill" />
		<tag k="place" v="locality" />
		<tag k="ssr:stedsnr" v="511554" />
	</node>
	<node id="-437694" lat="59.572736108" lon="5.34542499443">
		<tag k="name" v="Långhamrå" />
		<tag k="natural" v="hill" />
		<tag k="place" v="locality" />
		<tag k="ssr:stedsnr" v="511498" />
	</node>
	<node id="-437693" lat="59.5916000028" lon="5.29440555408">
		<tag k="alt_name" v="Laksberget" />
		<tag k="name" v="Lakseberget" />
		<tag k="natural" v="hill" />
		<tag k="place" v="locality" />
		<tag k="ssr:stedsnr" v="511496" />
	</node>
	<node id="-437691" lat="59.7096249994" lon="5.4775500087">
		<tag k="alt_name" v="Ottradalen" />
		<tag k="name" v="Otradalen" />
		<tag k="natural" v="valley" />
		<tag k="place" v="locality" />
		<tag k="ssr:stedsnr" v="511160" />
	</node>
	<node id="-437687" lat="59.6547916638" lon="5.44458055943">
		<tag k="name" v="Pengehilleren" />
		<tag k="place" v="locality" />
		<tag k="ssr:stedsnr" v="511098" />
	</node>
	<node id="-437677" lat="59.5140694457" lon="5.38802500785">
		<tag k="name" v="Langedalen" />
		<tag k="natural" v="valley" />
		<tag k="place" v="locality" />
		<tag k="ssr:stedsnr" v="489098" />
	</node>
	<node id="-437675" lat="59.6610999989" lon="5.41922777417">
		<tag k="alt_name" v="Nappen, store;Nappen;Storenappen" />
		<tag k="name" v="Store Nappen" />
		<tag k="natural" v="hill" />
		<tag k="place" v="locality" />
		<tag k="ssr:stedsnr" v="488896" />
	</node>
	<node id="-437673" lat="59.6178666647" lon="5.32616666785">
		<tag k="name" v="Langhammar" />
		<tag k="natural" v="hill" />
		<tag k="place" v="locality" />
		<tag k="ssr:stedsnr" v="488864" />
	</node>
	<node id="-437669" lat="59.6215833292" lon="5.36696111747">
		<tag k="name" v="Risdalen" />
		<tag k="natural" v="valley" />
		<tag k="place" v="locality" />
		<tag k="ssr:stedsnr" v="488816" />
	</node>
	<node id="-437666" lat="59.5863527805" lon="5.32177499685">
		<tag k="fixme" v="consider natural=peak for the most distinct mountains in the district" />
		<tag k="name" v="Håvåsen" />
		<tag k="natural" v="hill" />
		<tag k="place" v="locality" />
		<tag k="ssr:stedsnr" v="488804" />
	</node>
	<node id="-437664" lat="59.4935111112" lon="5.34470278596">
		<tag k="alt_name" v="Gitlafjell" />
		<tag k="fixme" v="consider natural=peak for the most distinct mountains in the district" />
		<tag k="name" v="Gitlafjellet" />
		<tag k="natural" v="hill" />
		<tag k="place" v="locality" />
		<tag k="ssr:stedsnr" v="488671" />
	</node>
	<node id="-437658" lat="59.6311333361" lon="5.48155278193">
		<tag k="fixme" v="consider natural=peak for the most distinct mountains in the district" />
		<tag k="name" v="Austvikfjellet" />
		<tag k="natural" v="hill" />
		<tag k="place" v="locality" />
		<tag k="ssr:stedsnr" v="488433" />
	</node>
	<node id="-437656" lat="59.6112833337" lon="5.5052000064">
		<tag k="alt_name" v="Varafjellet" />
		<tag k="fixme" v="consider natural=peak for the most distinct mountains in the district" />
		<tag k="name" v="Vardafjellet" />
		<tag k="natural" v="hill" />
		<tag k="place" v="locality" />
		<tag k="ssr:stedsnr" v="488389" />
	</node>
	<node id="-437647" lat="59.5478555525" lon="5.35363334138">
		<tag k="alt_name" v="Steinhaugen" />
		<tag k="name" v="Steinshaugen" />
		<tag k="natural" v="hill" />
		<tag k="place" v="locality" />
		<tag k="ssr:stedsnr" v="488169" />
	</node>
	<node id="-437643" lat="59.5011333304" lon="5.40841388786">
		<tag k="fixme" v="consider natural=peak for the most distinct mountains in the district" />
		<tag k="name" v="Storås" />
		<tag k="natural" v="hill" />
		<tag k="place" v="locality" />
		<tag k="ssr:stedsnr" v="488143" />
	</node>
	<node id="-437640" lat="59.7304000007" lon="5.52871944421">
		<tag k="name" v="Skoghaug" />
		<tag k="natural" v="hill" />
		<tag k="place" v="locality" />
		<tag k="ssr:stedsnr" v="488086" />
	</node>
	<node id="-437638" lat="59.6625499965" lon="5.51279166731">
		<tag k="alt_name" v="Trollafjellet" />
		<tag k="fixme" v="consider natural=peak for the most distinct mountains in the district" />
		<tag k="name" v="Trollfjell" />
		<tag k="natural" v="hill" />
		<tag k="place" v="locality" />
		<tag k="ssr:stedsnr" v="488004" />
	</node>
	<node id="-437635" lat="59.5952416637" lon="5.47656943715">
		<tag k="name" v="Brendehaugen" />
		<tag k="natural" v="hill" />
		<tag k="place" v="locality" />
		<tag k="ssr:stedsnr" v="452813" />
	</node>
	<node id="-437634" lat="59.675730554" lon="5.46017777369">
		<tag k="name" v="Risdalen" />
		<tag k="natural" v="valley" />
		<tag k="place" v="locality" />
		<tag k="ssr:stedsnr" v="452787" />
	</node>
	<node id="-437625" lat="59.5389055575" lon="5.26920555723">
		<tag k="fixme" v="consider natural=peak for the most distinct mountains in the district" />
		<tag k="name" v="Ornafjellet" />
		<tag k="natural" v="hill" />
		<tag k="place" v="locality" />
		<tag k="ssr:stedsnr" v="451753" />
	</node>
	<node id="-437623" lat="59.4938999967" lon="5.31813055236">
		<tag k="name" v="Torvhilderen" />
		<tag k="place" v="locality" />
		<tag k="ssr:stedsnr" v="451737" />
	</node>
	<node id="-437617" lat="59.7067361128" lon="5.52833055411">
		<tag k="name" v="Storhaug" />
		<tag k="natural" v="hill" />
		<tag k="place" v="locality" />
		<tag k="ssr:stedsnr" v="451683" />
	</node>
	<node id="-437616" lat="59.7131972205" lon="5.51927777943">
		<tag k="name" v="Gardhaug" />
		<tag k="natural" v="hill" />
		<tag k="place" v="locality" />
		<tag k="ssr:stedsnr" v="451682" />
	</node>
	<node id="-437615" lat="59.7049666635" lon="5.49659444309">
		<tag k="name" v="Flatelia" />
		<tag k="natural" v="slope" />
		<tag k="place" v="locality" />
		<tag k="ssr:stedsnr" v="451680" />
	</node>
	<node id="-437612" lat="59.6981111127" lon="5.48090554878">
		<tag k="name" v="Mildebærshaugane" />
		<tag k="natural" v="hill" />
		<tag k="place" v="locality" />
		<tag k="ssr:stedsnr" v="451665" />
	</node>
	<node id="-437611" lat="59.7126611083" lon="5.49661943739">
		<tag k="fixme" v="consider natural=peak for the most distinct mountains in the district" />
		<tag k="name" v="Rabbåsen" />
		<tag k="natural" v="hill" />
		<tag k="place" v="locality" />
		<tag k="ssr:stedsnr" v="451663" />
	</node>
	<node id="-437609" lat="59.5552750037" lon="5.37061388151">
		<tag k="fixme" v="consider natural=peak for the most distinct mountains in the district" />
		<tag k="name" v="Maskusåsen" />
		<tag k="natural" v="hill" />
		<tag k="place" v="locality" />
		<tag k="ssr:stedsnr" v="451623" />
	</node>
	<node id="-437608" lat="59.5913083343" lon="5.33075555852">
		<tag k="name" v="Kjellaren" />
		<tag k="place" v="locality" />
		<tag k="ssr:stedsnr" v="451613" />
	</node>
	<node id="-437604" lat="59.5454055585" lon="5.30589722872">
		<tag k="name" v="Ritlehaug" />
		<tag k="natural" v="hill" />
		<tag k="place" v="locality" />
		<tag k="ssr:stedsnr" v="451551" />
	</node>
	<node id="-437602" lat="59.5383777767" lon="5.30013610272">
		<tag k="name" v="Kyrkjevarden" />
		<tag k="natural" v="hill" />
		<tag k="place" v="locality" />
		<tag k="ssr:stedsnr" v="451547" />
	</node>
	<node id="-437601" lat="59.5792916685" lon="5.29672222151">
		<tag k="name" v="Storhaug" />
		<tag k="natural" v="hill" />
		<tag k="place" v="locality" />
		<tag k="ssr:stedsnr" v="451536" />
	</node>
	<node id="-437600" lat="59.5124944402" lon="5.26631945136">
		<tag k="name" v="Dalen" />
		<tag k="natural" v="valley" />
		<tag k="place" v="locality" />
		<tag k="ssr:stedsnr" v="451522" />
	</node>
	<node id="-437596" lat="59.6010166654" lon="5.38964443678">
		<tag k="name" v="Geitene" />
		<tag k="place" v="locality" />
		<tag k="ssr:stedsnr" v="451243" />
	</node>
	<node id="-437594" lat="59.6624527747" lon="5.49255833557">
		<tag k="name" v="Kast" />
		<tag k="place" v="locality" />
		<tag k="ssr:stedsnr" v="451222" />
	</node>
	<node id="-437593" lat="59.6665527784" lon="5.52557221927">
		<tag k="name" v="Padlane" />
		<tag k="place" v="locality" />
		<tag k="ssr:stedsnr" v="451220" />
	</node>
	<node id="-437589" lat="59.566647223" lon="5.51049722797">
		<tag k="fixme" v="consider natural=peak for the most distinct mountains in the district" />
		<tag k="name" v="Vårefjellet" />
		<tag k="natural" v="hill" />
		<tag k="place" v="locality" />
		<tag k="ssr:stedsnr" v="451155" />
	</node>
	<node id="-437585" lat="59.56600278" lon="5.4479944369">
		<tag k="name" v="Beinhaug" />
		<tag k="natural" v="hill" />
		<tag k="place" v="locality" />
		<tag k="ssr:stedsnr" v="451052" />
	</node>
	<node id="-437582" lat="59.5911146081" lon="5.44204684705">
		<tag k="fixme" v="consider natural=peak for the most distinct mountains in the district" />
		<tag k="name" v="Fagerliåsen" />
		<tag k="natural" v="hill" />
		<tag k="place" v="locality" />
		<tag k="ssr:stedsnr" v="451015" />
	</node>
	<node id="-437579" lat="59.4903250019" lon="5.33384721577">
		<tag k="fixme" v="consider natural=peak for the most distinct mountains in the district" />
		<tag k="name" v="Geitaråsen" />
		<tag k="natural" v="hill" />
		<tag k="place" v="locality" />
		<tag k="ssr:stedsnr" v="451104" />
	</node>
	<node id="-437562" lat="59.5972249958" lon="5.44388333319">
		<tag k="name" v="Munnharpehaugen" />
		<tag k="natural" v="hill" />
		<tag k="place" v="locality" />
		<tag k="ssr:stedsnr" v="428753" />
	</node>
	<node id="-437557" lat="59.5800500017" lon="5.51282500478">
		<tag k="alt_name" v="Selsåsen" />
		<tag k="fixme" v="consider natural=peak for the most distinct mountains in the district" />
		<tag k="name" v="Selsåsåsen" />
		<tag k="natural" v="hill" />
		<tag k="place" v="locality" />
		<tag k="ssr:stedsnr" v="428342" />
	</node>
	<node id="-437553" lat="59.542325002" lon="5.49325277073">
		<tag k="fixme" v="consider natural=peak for the most distinct mountains in the district" />
		<tag k="name" v="Tveitefjellet" />
		<tag k="natural" v="hill" />
		<tag k="place" v="locality" />
		<tag k="ssr:stedsnr" v="428284" />
	</node>
	<node id="-437551" lat="59.5461277772" lon="5.32364999235">
		<tag k="fixme" v="consider natural=peak for the most distinct mountains in the district" />
		<tag k="name" v="Rossafjellet" />
		<tag k="natural" v="hill" />
		<tag k="place" v="locality" />
		<tag k="ssr:stedsnr" v="428226" />
	</node>
	<node id="-437545" lat="59.5742916621" lon="5.42263610759">
		<tag k="fixme" v="consider natural=peak for the most distinct mountains in the district" />
		<tag k="name" v="Baståsen" />
		<tag k="natural" v="hill" />
		<tag k="place" v="locality" />
		<tag k="ssr:stedsnr" v="428191" />
	</node>
	<node id="-437544" lat="59.5285083346" lon="5.27510555942">
		<tag k="fixme" v="consider natural=peak for the most distinct mountains in the district" />
		<tag k="name" v="Husafjellet" />
		<tag k="natural" v="hill" />
		<tag k="place" v="locality" />
		<tag k="ssr:stedsnr" v="428186" />
	</node>
	<node id="-437535" lat="59.7297138932" lon="5.51998610485">
		<tag k="name" v="Brattaberg" />
		<tag k="natural" v="cliff" />
		<tag k="ssr:stedsnr" v="428093" />
	</node>
	<node id="-437533" lat="59.6994399839" lon="5.49456551032">
		<tag k="name" v="Valesåta" />
		<tag k="natural" v="hill" />
		<tag k="place" v="locality" />
		<tag k="ssr:stedsnr" v="428088" />
	</node>
	<node id="-437522" lat="59.7305361067" lon="5.52054166724">
		<tag k="name" v="Stora Brattaberg" />
		<tag k="natural" v="cliff" />
		<tag k="ssr:stedsnr" v="421614" />
	</node>
	<node id="-437521" lat="59.6475944455" lon="5.52758055384">
		<tag k="name" v="Grasdalen" />
		<tag k="natural" v="valley" />
		<tag k="place" v="locality" />
		<tag k="ssr:stedsnr" v="268376" />
	</node>
	<node id="-437515" lat="59.528336113" lon="5.33417222096">
		<tag k="name" v="Kvitaberg" />
		<tag k="natural" v="hill" />
		<tag k="place" v="locality" />
		<tag k="ssr:stedsnr" v="247067" />
	</node>
	<node id="-437505" lat="59.568058331" lon="5.3231722253">
		<tag k="fixme" v="consider natural=peak for the most distinct mountains in the district" />
		<tag k="name" v="Kvassåsen" />
		<tag k="natural" v="hill" />
		<tag k="place" v="locality" />
		<tag k="ssr:stedsnr" v="246752" />
	</node>
	<node id="-437504" lat="59.5750305545" lon="5.39454444906">
		<tag k="alt_name" v="Gardfjellet" />
		<tag k="fixme" v="consider natural=peak for the most distinct mountains in the district" />
		<tag k="name" v="Gardafjellet" />
		<tag k="natural" v="hill" />
		<tag k="place" v="locality" />
		<tag k="ssr:stedsnr" v="246751" />
	</node>
	<node id="-437500" lat="59.6158500025" lon="5.49384999442">
		<tag k="alt_name" v="Søre Solheimsdalen" />
		<tag k="name" v="Solheimsdalen" />
		<tag k="natural" v="valley" />
		<tag k="place" v="locality" />
		<tag k="ssr:stedsnr" v="246412" />
	</node>
	<node id="-437483" lat="59.6049999959" lon="5.49350834107">
		<tag k="fixme" v="consider natural=peak for the most distinct mountains in the district" />
		<tag k="name" v="Krofjellet" />
		<tag k="natural" v="hill" />
		<tag k="place" v="locality" />
		<tag k="ssr:stedsnr" v="245399" />
	</node>
	<node id="-437479" lat="59.5011277801" lon="5.25115000302">
		<tag k="name" v="Strand" />
		<tag k="place" v="locality" />
		<tag k="ssr:stedsnr" v="269090" />
	</node>
	<node id="-437474" lat="59.6060749959" lon="5.47529445212">
		<tag k="name" v="Longåsdalen" />
		<tag k="natural" v="valley" />
		<tag k="place" v="locality" />
		<tag k="ssr:stedsnr" v="209803" />
	</node>
	<node id="-437473" lat="59.6615888908" lon="5.47166111098">
		<tag k="name" v="Kråkesølvberget" />
		<tag k="natural" v="hill" />
		<tag k="place" v="locality" />
		<tag k="ssr:stedsnr" v="209792" />
	</node>
	<node id="-437472" lat="59.6747388849" lon="5.4751166693">
		<tag k="name" v="Budalshola" />
		<tag k="natural" v="valley" />
		<tag k="place" v="locality" />
		<tag k="ssr:stedsnr" v="209783" />
	</node>
	<node id="-437469" lat="59.5376916666" lon="5.41392777817">
		<tag k="name" v="Kvernadalen" />
		<tag k="natural" v="valley" />
		<tag k="place" v="locality" />
		<tag k="ssr:stedsnr" v="208898" />
	</node>
	<node id="-437462" lat="59.5894527768" lon="5.51951665858">
		<tag k="name" v="Vågahaugen" />
		<tag k="natural" v="hill" />
		<tag k="place" v="locality" />
		<tag k="ssr:stedsnr" v="208818" />
	</node>
	<node id="-437459" lat="59.4954888901" lon="5.36225833258">
		<tag k="fixme" v="consider natural=peak for the most distinct mountains in the district" />
		<tag k="name" v="Vikafjellet" />
		<tag k="natural" v="hill" />
		<tag k="place" v="locality" />
		<tag k="ssr:stedsnr" v="208715" />
	</node>
	<node id="-437458" lat="59.486694446" lon="5.31985000738">
		<tag k="name" v="Svehaug" />
		<tag k="natural" v="hill" />
		<tag k="place" v="locality" />
		<tag k="ssr:stedsnr" v="208712" />
	</node>
	<node id="-437452" lat="59.6920972245" lon="5.46609999458">
		<tag k="name" v="Tveitavarden" />
		<tag k="natural" v="hill" />
		<tag k="place" v="locality" />
		<tag k="ssr:stedsnr" v="208659" />
	</node>
	<node id="-437451" lat="59.6833361124" lon="5.52062777029">
		<tag k="name" v="Bjørgakammen" />
		<tag k="natural" v="ridge" />
		<tag k="place" v="locality" />
		<tag k="ssr:stedsnr" v="208638" />
	</node>
	<node id="-437450" lat="59.6963361134" lon="5.5000999949">
		<tag k="name" v="Trollavassdalen" />
		<tag k="natural" v="valley" />
		<tag k="place" v="locality" />
		<tag k="ssr:stedsnr" v="208637" />
	</node>
	<node id="-437448" lat="59.694313892" lon="5.53724167459">
		<tag k="name" v="Loddekloven" />
		<tag k="natural" v="ridge" />
		<tag k="place" v="locality" />
		<tag k="ssr:stedsnr" v="208622" />
	</node>
	<node id="-437447" lat="59.6946583321" lon="5.48939721412">
		<tag k="name" v="Geitahaugane" />
		<tag k="natural" v="hill" />
		<tag k="place" v="locality" />
		<tag k="ssr:stedsnr" v="208609" />
	</node>
	<node id="-437446" lat="59.5615694465" lon="5.34836388983">
		<tag k="name" v="Sletthaugen" />
		<tag k="natural" v="hill" />
		<tag k="place" v="locality" />
		<tag k="ssr:stedsnr" v="208601" />
	</node>
	<node id="-437445" lat="59.57923333" lon="5.3324694531">
		<tag k="name" v="Nuten" />
		<tag k="natural" v="hill" />
		<tag k="place" v="locality" />
		<tag k="ssr:stedsnr" v="208587" />
	</node>
	<node id="-437442" lat="59.5453361097" lon="5.31716111698">
		<tag k="name" v="Skinnstønibba" />
		<tag k="natural" v="hill" />
		<tag k="place" v="locality" />
		<tag k="ssr:stedsnr" v="208541" />
	</node>
	<node id="-437441" lat="59.5393250029" lon="5.3205861128">
		<tag k="name" v="Raunehaugen" />
		<tag k="natural" v="hill" />
		<tag k="place" v="locality" />
		<tag k="ssr:stedsnr" v="208528" />
	</node>
	<node id="-437439" lat="59.5877055557" lon="5.41114999943">
		<tag k="fixme" v="consider natural=peak for the most distinct mountains in the district" />
		<tag k="name" v="Abedåsen" />
		<tag k="natural" v="hill" />
		<tag k="place" v="locality" />
		<tag k="ssr:stedsnr" v="208246" />
	</node>
	<node id="-437435" lat="59.5042638929" lon="5.4145472169">
		<tag k="name" v="Pikhaug" />
		<tag k="natural" v="hill" />
		<tag k="place" v="locality" />
		<tag k="ssr:stedsnr" v="208208" />
	</node>
	<node id="-437433" lat="59.6673111076" lon="5.5056916652">
		<tag k="name" v="Steinsfjellnipen" />
		<tag k="natural" v="hill" />
		<tag k="place" v="locality" />
		<tag k="ssr:stedsnr" v="208187" />
	</node>
	<node id="-437432" lat="59.5983638914" lon="5.52209722001">
		<tag k="name" v="Geitaberget" />
		<tag k="natural" v="hill" />
		<tag k="place" v="locality" />
		<tag k="ssr:stedsnr" v="208182" />
	</node>
	<node id="-437431" lat="59.59184167" lon="5.49899999214">
		<tag k="fixme" v="consider natural=peak for the most distinct mountains in the district" />
		<tag k="name" v="Rotadalsåsen" />
		<tag k="natural" v="hill" />
		<tag k="place" v="locality" />
		<tag k="ssr:stedsnr" v="208138" />
	</node>
	<node id="-437430" lat="59.5938638848" lon="5.50652222308">
		<tag k="name" v="Brendehaugen" />
		<tag k="natural" v="hill" />
		<tag k="place" v="locality" />
		<tag k="ssr:stedsnr" v="208129" />
	</node>
	<node id="-437425" lat="59.5708472184" lon="5.44753611852">
		<tag k="fixme" v="consider natural=peak for the most distinct mountains in the district" />
		<tag k="name" v="Ravnefjell" />
		<tag k="natural" v="hill" />
		<tag k="place" v="locality" />
		<tag k="ssr:stedsnr" v="208042" />
	</node>
	<node id="-437420" lat="59.5403666674" lon="5.25584722521">
		<tag k="fixme" v="consider natural=peak for the most distinct mountains in the district" />
		<tag k="name" v="Ramnefjellet" />
		<tag k="natural" v="hill" />
		<tag k="place" v="locality" />
		<tag k="ssr:stedsnr" v="206012" />
	</node>
	<node id="-437415" lat="59.5874666661" lon="5.50246388034">
		<tag k="fixme" v="consider natural=peak for the most distinct mountains in the district" />
		<tag k="name" v="Bjørnåsen" />
		<tag k="natural" v="hill" />
		<tag k="place" v="locality" />
		<tag k="ssr:stedsnr" v="186079" />
	</node>
	<node id="-437414" lat="59.5165277753" lon="5.38135833858">
		<tag k="fixme" v="consider natural=peak for the most distinct mountains in the district" />
		<tag k="name" v="Håvåsen" />
		<tag k="natural" v="hill" />
		<tag k="place" v="locality" />
		<tag k="ssr:stedsnr" v="186073" />
	</node>
	<node id="-437413" lat="59.5469305586" lon="5.4023305518">
		<tag k="fixme" v="consider natural=peak for the most distinct mountains in the district" />
		<tag k="name" v="Lauvåsen" />
		<tag k="natural" v="hill" />
		<tag k="place" v="locality" />
		<tag k="ssr:stedsnr" v="186069" />
	</node>
	<node id="-437402" lat="59.6017499967" lon="5.42652499493">
		<tag k="alt_name" v="Håfjellet" />
		<tag k="fixme" v="consider natural=peak for the most distinct mountains in the district" />
		<tag k="name" v="Håfjell" />
		<tag k="natural" v="hill" />
		<tag k="place" v="locality" />
		<tag k="ssr:stedsnr" v="185747" />
	</node>
	<node id="-437401" lat="59.6009250021" lon="5.39572221703">
		<tag k="fixme" v="consider natural=peak for the most distinct mountains in the district" />
		<tag k="name" v="Emberlandsnipen" />
		<tag k="natural" v="hill" />
		<tag k="place" v="locality" />
		<tag k="ssr:stedsnr" v="185744" />
	</node>
	<node id="-437399" lat="59.5776805555" lon="5.36002500298">
		<tag k="name" v="Varhaug" />
		<tag k="natural" v="hill" />
		<tag k="place" v="locality" />
		<tag k="ssr:stedsnr" v="185774" />
	</node>
	<node id="-437394" lat="59.5658027785" lon="5.5270500041">
		<tag k="fixme" v="consider natural=peak for the most distinct mountains in the district" />
		<tag k="name" v="Rindane" />
		<tag k="natural" v="hill" />
		<tag k="place" v="locality" />
		<tag k="ssr:stedsnr" v="185331" />
	</node>
	<node id="-437393" lat="59.5541055546" lon="5.48522500049">
		<tag k="alt_name" v="Norafjell" />
		<tag k="fixme" v="consider natural=peak for the most distinct mountains in the district" />
		<tag k="name" v="Nordrafjellet" />
		<tag k="natural" v="hill" />
		<tag k="place" v="locality" />
		<tag k="ssr:stedsnr" v="185315" />
	</node>
	<node id="-437389" lat="59.5652305542" lon="5.43031388767">
		<tag k="alt_name" v="Varhaug" />
		<tag k="name" v="Vardhaug" />
		<tag k="natural" v="hill" />
		<tag k="place" v="locality" />
		<tag k="ssr:stedsnr" v="185220" />
	</node>
	<node id="-437388" lat="59.5575166634" lon="5.29217500161">
		<tag k="alt_name" v="Varafjellet" />
		<tag k="fixme" v="consider natural=peak for the most distinct mountains in the district" />
		<tag k="name" v="Vardafjell" />
		<tag k="natural" v="hill" />
		<tag k="place" v="locality" />
		<tag k="ssr:stedsnr" v="185210" />
	</node>
	<node id="-437386" lat="59.5378027735" lon="5.4424916612">
		<tag k="alt_name" v="Nonhaugen" />
		<tag k="name" v="Nonshaugen" />
		<tag k="natural" v="hill" />
		<tag k="place" v="locality" />
		<tag k="ssr:stedsnr" v="185144" />
	</node>
	<node id="-437370" lat="59.6062805584" lon="5.4818611191">
		<tag k="name" v="Banndalen" />
		<tag k="natural" v="valley" />
		<tag k="place" v="locality" />
		<tag k="ssr:stedsnr" v="148818" />
	</node>
	<node id="-437369" lat="59.6010916707" lon="5.47347222815">
		<tag k="name" v="Sætrahaugen" />
		<tag k="natural" v="hill" />
		<tag k="place" v="locality" />
		<tag k="ssr:stedsnr" v="148817" />
	</node>
	<node id="-437367" lat="59.6644777794" lon="5.47639444499">
		<tag k="name" v="Langedalen" />
		<tag k="natural" v="valley" />
		<tag k="place" v="locality" />
		<tag k="ssr:stedsnr" v="148798" />
	</node>
	<node id="-437366" lat="59.6722305519" lon="5.4784388915">
		<tag k="name" v="Såta" />
		<tag k="natural" v="hill" />
		<tag k="place" v="locality" />
		<tag k="ssr:stedsnr" v="148795" />
	</node>
	<node id="-437363" lat="59.5314793714" lon="5.43504292512">
		<tag k="alt_name" v="Kvalvågnon" />
		<tag k="name" v="Kvalhaugen" />
		<tag k="natural" v="hill" />
		<tag k="place" v="locality" />
		<tag k="ssr:stedsnr" v="147997" />
	</node>
	<node id="-437355" lat="59.6555444454" lon="5.47874166164">
		<tag k="fixme" v="consider natural=peak for the most distinct mountains in the district" />
		<tag k="name" v="Brandåsen" />
		<tag k="natural" v="hill" />
		<tag k="place" v="locality" />
		<tag k="ssr:stedsnr" v="147815" />
	</node>
	<node id="-437354" lat="59.5428277757" lon="5.49146111004">
		<tag k="fixme" v="consider natural=peak for the most distinct mountains in the district" />
		<tag k="name" v="Tveitefjellet" />
		<tag k="natural" v="hill" />
		<tag k="place" v="locality" />
		<tag k="ssr:stedsnr" v="147809" />
	</node>
	<node id="-437353" lat="59.5860666677" lon="5.51416665831">
		<tag k="name" v="Barhaugen" />
		<tag k="natural" v="hill" />
		<tag k="place" v="locality" />
		<tag k="ssr:stedsnr" v="147799" />
	</node>
	<node id="-437351" lat="59.6022388865" lon="5.39918888662">
		<tag k="name" v="Gapestokken" />
		<tag k="place" v="locality" />
		<tag k="ssr:stedsnr" v="147783" />
	</node>
	<node id="-437345" lat="59.555552775" lon="5.34802499473">
		<tag k="name" v="Sletthaugen" />
		<tag k="natural" v="hill" />
		<tag k="place" v="locality" />
		<tag k="ssr:stedsnr" v="147600" />
	</node>
	<node id="-437344" lat="59.5539111073" lon="5.33581111141">
		<tag k="name" v="Nygårdshaugen" />
		<tag k="natural" v="hill" />
		<tag k="place" v="locality" />
		<tag k="ssr:stedsnr" v="147599" />
	</node>
	<node id="-437342" lat="59.566511107" lon="5.34078611017">
		<tag k="name" v="Lynghaugen" />
		<tag k="natural" v="hill" />
		<tag k="place" v="locality" />
		<tag k="ssr:stedsnr" v="147587" />
	</node>
	<node id="-437341" lat="59.5710083291" lon="5.35086665973">
		<tag k="name" v="Klubben" />
		<tag k="natural" v="hill" />
		<tag k="place" v="locality" />
		<tag k="ssr:stedsnr" v="147586" />
	</node>
	<node id="-437340" lat="59.5420833291" lon="5.33903611881">
		<tag k="name" v="Gjermundshaugen" />
		<tag k="natural" v="hill" />
		<tag k="place" v="locality" />
		<tag k="ssr:stedsnr" v="147511" />
	</node>
	<node id="-437338" lat="59.5824305533" lon="5.34784444707">
		<tag k="name" v="Loknarinda" />
		<tag k="place" v="locality" />
		<tag k="ssr:stedsnr" v="147491" />
	</node>
	<node id="-437336" lat="59.6361345365" lon="5.38593304543">
		<tag k="name" v="Ospehaug" />
		<tag k="natural" v="hill" />
		<tag k="place" v="locality" />
		<tag k="ssr:stedsnr" v="147227" />
	</node>
	<node id="-437335" lat="59.6455305547" lon="5.49965555383">
		<tag k="name" v="Maradalen" />
		<tag k="natural" v="valley" />
		<tag k="place" v="locality" />
		<tag k="ssr:stedsnr" v="147203" />
	</node>
	<node id="-437334" lat="59.6774472267" lon="5.53296944723">
		<tag k="name" v="Haugen" />
		<tag k="natural" v="hill" />
		<tag k="place" v="locality" />
		<tag k="ssr:stedsnr" v="147176" />
	</node>
	<node id="-437332" lat="59.682836112" lon="5.4487194435">
		<tag k="name" v="Høgeberga" />
		<tag k="natural" v="hill" />
		<tag k="place" v="locality" />
		<tag k="ssr:stedsnr" v="147150" />
	</node>
	<node id="-437330" lat="59.7252083319" lon="5.51645556344">
		<tag k="name" v="Garbrekkhaugane" />
		<tag k="natural" v="hill" />
		<tag k="place" v="locality" />
		<tag k="ssr:stedsnr" v="147131" />
	</node>
	<node id="-437324" lat="59.5636000011" lon="5.45013611243">
		<tag k="name" v="Kjorthammer" />
		<tag k="natural" v="hill" />
		<tag k="place" v="locality" />
		<tag k="ssr:stedsnr" v="147033" />
	</node>
	<node id="-437323" lat="59.5662750025" lon="5.37687500823">
		<tag k="name" v="Nordskogleitet" />
		<tag k="place" v="locality" />
		<tag k="ssr:stedsnr" v="147022" />
	</node>
	<node id="-437322" lat="59.5872750029" lon="5.43892222685">
		<tag k="name" v="Balsvikebrotet" />
		<tag k="natural" v="ridge" />
		<tag k="place" v="locality" />
		<tag k="ssr:stedsnr" v="147003" />
	</node>
	<node id="-437310" lat="59.6450466452" lon="5.45925238013">
		<tag k="alt_name" v="Donsen" />
		<tag k="fixme" v="consider natural=peak for the most distinct mountains in the district" />
		<tag k="name" v="Doksen" />
		<tag k="natural" v="hill" />
		<tag k="place" v="locality" />
		<tag k="ssr:stedsnr" v="124905" />
	</node>
	<node id="-437306" lat="59.6188999996" lon="5.37614166543">
		<tag k="fixme" v="consider natural=peak for the most distinct mountains in the district" />
		<tag k="name" v="Tindafjellet" />
		<tag k="natural" v="hill" />
		<tag k="place" v="locality" />
		<tag k="ssr:stedsnr" v="124839" />
	</node>
	<node id="-437304" lat="59.6315916675" lon="5.39827221371">
		<tag k="alt_name" v="Langhamro" />
		<tag k="name" v="Langhammar" />
		<tag k="natural" v="hill" />
		<tag k="place" v="locality" />
		<tag k="ssr:stedsnr" v="124808" />
	</node>
	<node id="-437302" lat="59.6234333359" lon="5.38145556268">
		<tag k="name" v="Ormadalen" />
		<tag k="natural" v="valley" />
		<tag k="place" v="locality" />
		<tag k="ssr:stedsnr" v="124794" />
	</node>
	<node id="-437301" lat="59.6252722221" lon="5.36707777028">
		<tag k="fixme" v="consider natural=peak for the most distinct mountains in the district" />
		<tag k="name" v="Slettafjellet" />
		<tag k="natural" v="hill" />
		<tag k="place" v="locality" />
		<tag k="ssr:stedsnr" v="124792" />
	</node>
	<node id="-437299" lat="59.5664499981" lon="5.30125555697">
		<tag k="fixme" v="consider natural=peak for the most distinct mountains in the district" />
		<tag k="name" v="Leitefjellet" />
		<tag k="natural" v="hill" />
		<tag k="place" v="locality" />
		<tag k="ssr:stedsnr" v="124744" />
	</node>
	<node id="-437279" lat="59.5033305526" lon="5.35796388882">
		<tag k="alt_name" v="Urafjellet" />
		<tag k="fixme" v="consider natural=peak for the most distinct mountains in the district" />
		<tag k="name" v="Urdafjellet" />
		<tag k="natural" v="hill" />
		<tag k="place" v="locality" />
		<tag k="ssr:stedsnr" v="124120" />
	</node>
	<node id="-437276" lat="59.668079262" lon="5.48295374884">
		<tag k="alt_name" v="Lio" />
		<tag k="name" v="Ulvaråkersåta" />
		<tag k="natural" v="hill" />
		<tag k="place" v="locality" />
		<tag k="ssr:stedsnr" v="124062" />
	</node>
	<node id="-437267" lat="59.5964305589" lon="5.47302778374">
		<tag k="name" v="Stølshaugen" />
		<tag k="natural" v="hill" />
		<tag k="place" v="locality" />
		<tag k="ssr:stedsnr" v="88788" />
	</node>
	<node id="-437266" lat="59.5985750033" lon="5.46985278374">
		<tag k="name" v="Sjedler" />
		<tag k="place" v="locality" />
		<tag k="ssr:stedsnr" v="88779" />
	</node>
	<node id="-437264" lat="59.6691222186" lon="5.45915278346">
		<tag k="name" v="Uradalen" />
		<tag k="natural" v="valley" />
		<tag k="place" v="locality" />
		<tag k="ssr:stedsnr" v="88759" />
	</node>
	<node id="-437263" lat="59.6700194475" lon="5.45233055734">
		<tag k="name" v="Brudnadalen" />
		<tag k="natural" v="valley" />
		<tag k="place" v="locality" />
		<tag k="ssr:stedsnr" v="88757" />
	</node>
	<node id="-437262" lat="59.6683666683" lon="5.47443332702">
		<tag k="fixme" v="consider natural=peak for the most distinct mountains in the district" />
		<tag k="name" v="Høgabrotet" />
		<tag k="natural" v="hill" />
		<tag k="place" v="locality" />
		<tag k="ssr:stedsnr" v="88755" />
	</node>
	<node id="-437261" lat="59.5380888902" lon="5.46189444898">
		<tag k="name" v="Flatnesskogen" />
		<tag k="place" v="locality" />
		<tag k="ssr:stedsnr" v="87997" />
	</node>
	<node id="-437259" lat="59.6363472261" lon="5.47263332432">
		<tag k="fixme" v="consider natural=peak for the most distinct mountains in the district" />
		<tag k="name" v="Geitåsen" />
		<tag k="natural" v="hill" />
		<tag k="place" v="locality" />
		<tag k="ssr:stedsnr" v="87933" />
	</node>
	<node id="-437257" lat="59.5393500035" lon="5.39537221839">
		<tag k="name" v="Hådyr" />
		<tag k="place" v="locality" />
		<tag k="ssr:stedsnr" v="87883" />
	</node>
	<node id="-437254" lat="59.6427222205" lon="5.45786944939">
		<tag k="name" v="Maurasskåret" />
		<tag k="natural" v="valley" />
		<tag k="place" v="locality" />
		<tag k="ssr:stedsnr" v="87839" />
	</node>
	<node id="-437253" lat="59.6314611095" lon="5.48019999457">
		<tag k="fixme" v="consider natural=peak for the most distinct mountains in the district" />
		<tag k="name" v="Austre Austvikfjellet" />
		<tag k="natural" v="hill" />
		<tag k="place" v="locality" />
		<tag k="ssr:stedsnr" v="87807" />
	</node>
	<node id="-437252" lat="59.6093777752" lon="5.38919167427">
		<tag k="name" v="Korkhaug" />
		<tag k="natural" v="hill" />
		<tag k="place" v="locality" />
		<tag k="ssr:stedsnr" v="87798" />
	</node>
	<node id="-437251" lat="59.597013887" lon="5.41889443917">
		<tag k="alt_name" v="Grønhaug" />
		<tag k="name" v="Grønnhaug" />
		<tag k="natural" v="hill" />
		<tag k="place" v="locality" />
		<tag k="ssr:stedsnr" v="87799" />
	</node>
	<node id="-437248" lat="59.4973000006" lon="5.28623055812">
		<tag k="name" v="Haugane" />
		<tag k="natural" v="hill" />
		<tag k="place" v="locality" />
		<tag k="ssr:stedsnr" v="87705" />
	</node>
	<node id="-437245" lat="59.7042444422" lon="5.48834999433">
		<tag k="name" v="Hovda" />
		<tag k="natural" v="hill" />
		<tag k="place" v="locality" />
		<tag k="ssr:stedsnr" v="87678" />
	</node>
	<node id="-437243" lat="59.6926472246" lon="5.52154999254">
		<tag k="name" v="Sæterlia" />
		<tag k="natural" v="slope" />
		<tag k="place" v="locality" />
		<tag k="ssr:stedsnr" v="87638" />
	</node>
	<node id="-437242" lat="59.6953972196" lon="5.49106665838">
		<tag k="name" v="Høgesnipsdalen" />
		<tag k="natural" v="valley" />
		<tag k="place" v="locality" />
		<tag k="ssr:stedsnr" v="87629" />
	</node>
	<node id="-437239" lat="59.5383638865" lon="5.29627778043">
		<tag k="name" v="Svehaug" />
		<tag k="natural" v="hill" />
		<tag k="place" v="locality" />
		<tag k="ssr:stedsnr" v="87534" />
	</node>
	<node id="-437237" lat="59.575050002" lon="5.34121110353">
		<tag k="name" v="Varhaug" />
		<tag k="natural" v="hill" />
		<tag k="place" v="locality" />
		<tag k="ssr:stedsnr" v="87510" />
	</node>
	<node id="-437233" lat="59.6677694463" lon="5.50809166873">
		<tag k="name" v="Varden" />
		<tag k="natural" v="hill" />
		<tag k="place" v="locality" />
		<tag k="ssr:stedsnr" v="87197" />
	</node>
	<node id="-437232" lat="59.6694416686" lon="5.48622500009">
		<tag k="name" v="Kjerandsbrotet" />
		<tag k="natural" v="hill" />
		<tag k="place" v="locality" />
		<tag k="ssr:stedsnr" v="87156" />
	</node>
	<node id="-437230" lat="59.5889361068" lon="5.50451111303">
		<tag k="name" v="Fisjereiret" />
		<tag k="place" v="locality" />
		<tag k="ssr:stedsnr" v="87128" />
	</node>
	<node id="-437228" lat="59.5278416692" lon="5.28073888456">
		<tag k="name" v="Fløyen" />
		<tag k="natural" v="hill" />
		<tag k="place" v="locality" />
		<tag k="ssr:stedsnr" v="87071" />
	</node>
	<node id="-437224" lat="59.567905558" lon="5.40725555087">
		<tag k="name" v="Stølshaugane" />
		<tag k="natural" v="hill" />
		<tag k="place" v="locality" />
		<tag k="ssr:stedsnr" v="87030" />
	</node>
	<node id="-437222" lat="59.5434083344" lon="5.25255277178">
		<tag k="fixme" v="consider natural=peak for the most distinct mountains in the district" />
		<tag k="name" v="Landsåt" />
		<tag k="natural" v="hill" />
		<tag k="place" v="locality" />
		<tag k="ssr:stedsnr" v="85003" />
	</node>
	<node id="-437218" lat="59.5562749962" lon="5.3570583345">
		<tag k="fixme" v="consider natural=peak for the most distinct mountains in the district" />
		<tag k="name" v="Håvåsen" />
		<tag k="natural" v="hill" />
		<tag k="place" v="locality" />
		<tag k="ssr:stedsnr" v="65061" />
	</node>
	<node id="-437217" lat="59.6792722198" lon="5.44094166694">
		<tag k="fixme" v="consider natural=peak for the most distinct mountains in the district" />
		<tag k="name" v="Storåsen" />
		<tag k="natural" v="hill" />
		<tag k="place" v="locality" />
		<tag k="ssr:stedsnr" v="64998" />
	</node>
	<node id="-437208" lat="59.6090027808" lon="5.42380278129">
		<tag k="fixme" v="consider natural=peak for the most distinct mountains in the district" />
		<tag k="name" v="Steinsfjellet" />
		<tag k="natural" v="hill" />
		<tag k="place" v="locality" />
		<tag k="ssr:stedsnr" v="64781" />
	</node>
	<node id="-437205" lat="59.6183638884" lon="5.50708889751">
		<tag k="name" v="Niing" />
		<tag k="natural" v="hill" />
		<tag k="place" v="locality" />
		<tag k="ssr:stedsnr" v="64416" />
	</node>
	<node id="-437200" lat="59.5734888862" lon="5.4188749974">
		<tag k="name" v="Aladalen" />
		<tag k="natural" v="valley" />
		<tag k="place" v="locality" />
		<tag k="ssr:stedsnr" v="64214" />
	</node>
	<node id="-437199" lat="59.5728000023" lon="5.44740277703">
		<tag k="alt_name" v="Moldbrekkefjellet" />
		<tag k="fixme" v="consider natural=peak for the most distinct mountains in the district" />
		<tag k="name" v="Moldbrekkfjellet" />
		<tag k="natural" v="hill" />
		<tag k="place" v="locality" />
		<tag k="ssr:stedsnr" v="64212" />
	</node>
	<node id="-437185" lat="59.6533027808" lon="5.49842500411">
		<tag k="alt_name" v="Staupsfjellet" />
		<tag k="fixme" v="consider natural=peak for the most distinct mountains in the district" />
		<tag k="name" v="Staupefjellet" />
		<tag k="natural" v="hill" />
		<tag k="place" v="locality" />
		<tag k="ssr:stedsnr" v="64019" />
	</node>
	<node id="-437183" lat="59.5936444476" lon="5.46227500056">
		<tag k="alt_name" v="Lirefjellet" />
		<tag k="fixme" v="consider natural=peak for the most distinct mountains in the district" />
		<tag k="name" v="Lierfjellet" />
		<tag k="natural" v="hill" />
		<tag k="place" v="locality" />
		<tag k="ssr:stedsnr" v="63794" />
	</node>
	<node id="-437180" lat="59.4904416684" lon="5.30875000131">
		<tag k="name" v="Skult" />
		<tag k="natural" v="hill" />
		<tag k="place" v="locality" />
		<tag k="ssr:stedsnr" v="63691" />
	</node>
	<node id="-437178" lat="59.6025250034" lon="5.47997222764">
		<tag k="fixme" v="consider natural=peak for the most distinct mountains in the district" />
		<tag k="name" v="Bjørnåsen" />
		<tag k="natural" v="hill" />
		<tag k="place" v="locality" />
		<tag k="ssr:stedsnr" v="63440" />
	</node>
	<node id="-437177" lat="59.6036638876" lon="5.50964999746">
		<tag k="fixme" v="consider natural=peak for the most distinct mountains in the district" />
		<tag k="name" v="Flatbrufjellet" />
		<tag k="natural" v="hill" />
		<tag k="place" v="locality" />
		<tag k="ssr:stedsnr" v="63435" />
	</node>
	<node id="-437175" lat="59.5622222191" lon="5.4603138866">
		<tag k="name" v="Lynghaug" />
		<tag k="natural" v="hill" />
		<tag k="place" v="locality" />
		<tag k="ssr:stedsnr" v="63258" />
	</node>
	<node id="-437169" lat="59.6754666684" lon="5.52040555967">
		<tag k="name" v="Bjørganipen" />
		<tag k="natural" v="hill" />
		<tag k="place" v="locality" />
		<tag k="ssr:stedsnr" v="63068" />
	</node>
	<node id="-437167" lat="59.6622944419" lon="5.46105556251">
		<tag k="fixme" v="consider natural=peak for the most distinct mountains in the district" />
		<tag k="name" v="Kodlåsen" />
		<tag k="natural" v="hill" />
		<tag k="place" v="locality" />
		<tag k="ssr:stedsnr" v="27797" />
	</node>
	<node id="-437161" lat="59.5487694424" lon="5.46570277952">
		<tag k="name" v="Geithaug" />
		<tag k="natural" v="hill" />
		<tag k="place" v="locality" />
		<tag k="ssr:stedsnr" v="26989" />
	</node>
	<node id="-437158" lat="59.6324694449" lon="5.4064444523">
		<tag k="name" v="Nibbo" />
		<tag k="natural" v="hill" />
		<tag k="place" v="locality" />
		<tag k="ssr:stedsnr" v="26949" />
	</node>
	<node id="-437153" lat="59.489163892" lon="5.38892221571">
		<tag k="name" v="Melledalen" />
		<tag k="natural" v="valley" />
		<tag k="place" v="locality" />
		<tag k="ssr:stedsnr" v="26892" />
	</node>
	<node id="-437152" lat="59.4974055511" lon="5.40711943793">
		<tag k="fixme" v="consider natural=peak for the most distinct mountains in the district" />
		<tag k="name" v="Litleås" />
		<tag k="natural" v="hill" />
		<tag k="place" v="locality" />
		<tag k="ssr:stedsnr" v="26890" />
	</node>
	<node id="-437151" lat="59.4954249965" lon="5.41683333059">
		<tag k="name" v="Kupphaug" />
		<tag k="natural" v="hill" />
		<tag k="place" v="locality" />
		<tag k="ssr:stedsnr" v="26884" />
	</node>
	<node id="-437150" lat="59.5379666635" lon="5.43569999844">
		<tag k="name" v="Høgehaugen" />
		<tag k="natural" v="hill" />
		<tag k="place" v="locality" />
		<tag k="ssr:stedsnr" v="26852" />
	</node>
	<node id="-437145" lat="59.6522249998" lon="5.47559999754">
		<tag k="name" v="Furahaugane" />
		<tag k="natural" v="hill" />
		<tag k="place" v="locality" />
		<tag k="ssr:stedsnr" v="26798" />
	</node>
	<node id="-437142" lat="59.5956250002" lon="5.39956944826">
		<tag k="fixme" v="consider natural=peak for the most distinct mountains in the district" />
		<tag k="name" v="Knutkodleåsen" />
		<tag k="natural" v="hill" />
		<tag k="place" v="locality" />
		<tag k="ssr:stedsnr" v="26767" />
	</node>
	<node id="-437136" lat="59.7007166675" lon="5.45879444055">
		<tag k="name" v="Nappavarden" />
		<tag k="natural" v="hill" />
		<tag k="place" v="locality" />
		<tag k="ssr:stedsnr" v="26644" />
	</node>
	<node id="-437135" lat="59.68251667" lon="5.46892778343">
		<tag k="name" v="Kjosane" />
		<tag k="place" v="locality" />
		<tag k="ssr:stedsnr" v="26640" />
	</node>
	<node id="-437134" lat="59.686983332" lon="5.48802222183">
		<tag k="name" v="Sandkleivhaugane" />
		<tag k="natural" v="hill" />
		<tag k="place" v="locality" />
		<tag k="ssr:stedsnr" v="26613" />
	</node>
	<node id="-437133" lat="59.5612833372" lon="5.31816111553">
		<tag k="name" v="Øspedalen" />
		<tag k="natural" v="valley" />
		<tag k="place" v="locality" />
		<tag k="ssr:stedsnr" v="26600" />
	</node>
	<node id="-437132" lat="59.5617777737" lon="5.35650278105">
		<tag k="name" v="Grønhaug" />
		<tag k="natural" v="hill" />
		<tag k="place" v="locality" />
		<tag k="ssr:stedsnr" v="26597" />
	</node>
	<node id="-437131" lat="59.5823416701" lon="5.33158610386">
		<tag k="name" v="Litlasåt" />
		<tag k="natural" v="hill" />
		<tag k="place" v="locality" />
		<tag k="ssr:stedsnr" v="26593" />
	</node>
	<node id="-437123" lat="59.6197055538" lon="5.48743888091">
		<tag k="name" v="Nordre Solheimsdalen" />
		<tag k="natural" v="valley" />
		<tag k="place" v="locality" />
		<tag k="ssr:stedsnr" v="26189" />
	</node>
	<node id="-437119" lat="59.5635249995" lon="5.49154999258">
		<tag k="name" v="Kvernahaugen" />
		<tag k="natural" v="hill" />
		<tag k="place" v="locality" />
		<tag k="ssr:stedsnr" v="26169" />
	</node>
	<node id="-437109" lat="59.5656555543" lon="5.41434166401">
		<tag k="name" v="Bråtene" />
		<tag k="place" v="locality" />
		<tag k="ssr:stedsnr" v="26022" />
	</node>
	<node id="-437094" lat="59.5806472212" lon="5.35844444378">
		<tag k="name" v="Såt" />
		<tag k="natural" v="hill" />
		<tag k="place" v="locality" />
		<tag k="ssr:stedsnr" v="3776" />
	</node>
	<node id="-437092" lat="59.5699388924" lon="5.30805556247">
		<tag k="alt_name" v="Trehovdefjellet" />
		<tag k="fixme" v="consider natural=peak for the most distinct mountains in the district" />
		<tag k="name" v="Trehovdfjellet" />
		<tag k="natural" v="hill" />
		<tag k="place" v="locality" />
		<tag k="ssr:stedsnr" v="3763" />
	</node>
	<node id="-437091" lat="59.6054916662" lon="5.45735554801">
		<tag k="fixme" v="consider natural=peak for the most distinct mountains in the district" />
		<tag k="name" v="Islandsfjellet" />
		<tag k="natural" v="hill" />
		<tag k="place" v="locality" />
		<tag k="ssr:stedsnr" v="3756" />
	</node>
	<node id="-437082" lat="59.534355555" lon="5.32470555206">
		<tag k="fixme" v="consider natural=peak for the most distinct mountains in the district" />
		<tag k="name" v="Kattabergsfjellet" />
		<tag k="natural" v="hill" />
		<tag k="place" v="locality" />
		<tag k="ssr:stedsnr" v="3185" />
	</node>
	<node id="-437077" lat="59.5233444445" lon="5.40519999871">
		<tag k="alt_name" v="Dyngefjellet" />
		<tag k="name" v="Dyngjefjellet" />
		<tag k="natural" v="hill" />
		<tag k="place" v="locality" />
		<tag k="ssr:stedsnr" v="3157" />
	</node>
	<node id="-437066" lat="59.6810611149" lon="5.48745833674">
		<tag k="name" v="Dalshovda" />
		<tag k="natural" v="hill" />
		<tag k="place" v="locality" />
		<tag k="ssr:stedsnr" v="3037" />
	</node>
	<node id="-437063" lat="59.6521805568" lon="5.52524443734">
		<tag k="alt_name" v="Hovda;Store Hovda" />
		<tag k="name" v="Storehovda" />
		<tag k="natural" v="hill" />
		<tag k="place" v="locality" />
		<tag k="ssr:stedsnr" v="3026" />
	</node>
	<node id="-437038" lat="59.6420444463" lon="5.38207221506">
		<tag k="name" v="Hilderhaugen" />
		<tag k="natural" v="hill" />
		<tag k="place" v="locality" />
		<tag k="ssr:stedsnr" v="269121" />
	</node>
	<node id="-437037" lat="59.501944443" lon="5.39225278161">
		<tag k="name" v="Revershaugen" />
		<tag k="natural" v="hill" />
		<tag k="place" v="locality" />
		<tag k="ssr:stedsnr" v="269915" />
	</node>
	<node id="-437036" lat="59.4868555549" lon="5.38372499561">
		<tag k="fixme" v="consider natural=peak for the most distinct mountains in the district" />
		<tag k="name" v="Gliråsen" />
		<tag k="natural" v="hill" />
		<tag k="place" v="locality" />
		<tag k="ssr:stedsnr" v="269911" />
	</node>
	<node id="-437028" lat="59.600333331" lon="5.36774722506">
		<tag k="name" v="Vaulen" />
		<tag k="place" v="locality" />
		<tag k="ssr:stedsnr" v="390921" />
	</node>
	<node id="-437027" lat="59.5467222219" lon="5.38912777874">
		<tag k="name" v="Henrikshaugen" />
		<tag k="natural" v="hill" />
		<tag k="place" v="locality" />
		<tag k="ssr:stedsnr" v="390873" />
	</node>
	<node id="-437023" lat="59.6434055539" lon="5.39712777882">
		<tag k="name" v="Klubbane" />
		<tag k="place" v="locality" />
		<tag k="ssr:stedsnr" v="390844" />
	</node>
	<node id="-437021" lat="59.6530194457" lon="5.45009443665">
		<tag k="fixme" v="consider natural=peak for the most distinct mountains in the district" />
		<tag k="name" v="Eidesåsen" />
		<tag k="natural" v="hill" />
		<tag k="place" v="locality" />
		<tag k="ssr:stedsnr" v="390838" />
	</node>
	<node id="-437018" lat="59.5754250022" lon="5.50783610837">
		<tag k="name" v="Bjørkehaugen" />
		<tag k="natural" v="hill" />
		<tag k="place" v="locality" />
		<tag k="ssr:stedsnr" v="390816" />
	</node>
	<node id="-437017" lat="59.5982833351" lon="5.3956666665">
		<tag k="name" v="Maurakjærhaug" />
		<tag k="natural" v="hill" />
		<tag k="place" v="locality" />
		<tag k="ssr:stedsnr" v="390802" />
	</node>
	<node id="-437015" lat="59.611408333" lon="5.38772778267">
		<tag k="name" v="Høge Varde" />
		<tag k="natural" v="hill" />
		<tag k="place" v="locality" />
		<tag k="ssr:stedsnr" v="390785" />
	</node>
	<node id="-437014" lat="59.6774500011" lon="5.43688611166">
		<tag k="name" v="Honningedalen" />
		<tag k="natural" v="valley" />
		<tag k="place" v="locality" />
		<tag k="ssr:stedsnr" v="390747" />
	</node>
	<node id="-437010" lat="59.5369499974" lon="5.2372583304">
		<tag k="name" v="Skotaberget" />
		<tag k="natural" v="hill" />
		<tag k="place" v="locality" />
		<tag k="ssr:stedsnr" v="390723" />
	</node>
	<node id="-437008" lat="59.5024222234" lon="5.35381666613">
		<tag k="fixme" v="consider natural=peak for the most distinct mountains in the district" />
		<tag k="name" v="Fårefjellet" />
		<tag k="natural" v="hill" />
		<tag k="place" v="locality" />
		<tag k="ssr:stedsnr" v="390695" />
	</node>
	<node id="-437006" lat="59.5056666673" lon="5.30687777021">
		<tag k="fixme" v="consider natural=peak for the most distinct mountains in the district" />
		<tag k="name" v="Håvåsen" />
		<tag k="natural" v="hill" />
		<tag k="place" v="locality" />
		<tag k="ssr:stedsnr" v="390675" />
	</node>
	<node id="-437002" lat="59.6948694409" lon="5.52112500447">
		<tag k="name" v="Dyralia" />
		<tag k="natural" v="slope" />
		<tag k="place" v="locality" />
		<tag k="ssr:stedsnr" v="390617" />
	</node>
	<node id="-437001" lat="59.687413892" lon="5.51668610234">
		<tag k="name" v="Litle Revadalen" />
		<tag k="natural" v="valley" />
		<tag k="place" v="locality" />
		<tag k="ssr:stedsnr" v="390605" />
	</node>
	<node id="-437000" lat="59.5534750037" lon="5.35906667118">
		<tag k="name" v="Høghaug" />
		<tag k="natural" v="hill" />
		<tag k="place" v="locality" />
		<tag k="ssr:stedsnr" v="390590" />
	</node>
	<node id="-436998" lat="59.6209638884" lon="5.32331110534">
		<tag k="name" v="Snørhaug" />
		<tag k="natural" v="hill" />
		<tag k="place" v="locality" />
		<tag k="ssr:stedsnr" v="390546" />
	</node>
	<node id="-436996" lat="59.5420361102" lon="5.35815556435">
		<tag k="name" v="Mannaberg" />
		<tag k="natural" v="hill" />
		<tag k="place" v="locality" />
		<tag k="ssr:stedsnr" v="390500" />
	</node>
	<node id="-436995" lat="59.5781083288" lon="5.2899805522">
		<tag k="name" v="Båsahaug" />
		<tag k="natural" v="hill" />
		<tag k="place" v="locality" />
		<tag k="ssr:stedsnr" v="390495" />
	</node>
	<node id="-436994" lat="59.5866638926" lon="5.41853333458">
		<tag k="name" v="Ospe" />
		<tag k="place" v="locality" />
		<tag k="ssr:stedsnr" v="390242" />
	</node>
	<node id="-436993" lat="59.596116671" lon="5.51915278212">
		<tag k="name" v="Larsahaugen" />
		<tag k="natural" v="hill" />
		<tag k="place" v="locality" />
		<tag k="ssr:stedsnr" v="390199" />
	</node>
	<node id="-436992" lat="59.6088333334" lon="5.48691667465">
		<tag k="name" v="Krohaugen" />
		<tag k="natural" v="hill" />
		<tag k="place" v="locality" />
		<tag k="ssr:stedsnr" v="390192" />
	</node>
	<node id="-436989" lat="59.6798500003" lon="5.50664722307">
		<tag k="fixme" v="consider natural=peak for the most distinct mountains in the district" />
		<tag k="name" v="Saunanuten" />
		<tag k="natural" v="hill" />
		<tag k="place" v="locality" />
		<tag k="ssr:stedsnr" v="390179" />
	</node>
	<node id="-436988" lat="59.6660583359" lon="5.49362500271">
		<tag k="fixme" v="consider natural=peak for the most distinct mountains in the district" />
		<tag k="name" v="Porsdalefjellet" />
		<tag k="natural" v="hill" />
		<tag k="place" v="locality" />
		<tag k="ssr:stedsnr" v="390174" />
	</node>
	<node id="-436987" lat="59.6717722262" lon="5.48815277877">
		<tag k="name" v="Pigghaugane" />
		<tag k="natural" v="hill" />
		<tag k="place" v="locality" />
		<tag k="ssr:stedsnr" v="390171" />
	</node>
	<node id="-436984" lat="59.5662000001" lon="5.4872166752">
		<tag k="name" v="Ravnabjør" />
		<tag k="natural" v="hill" />
		<tag k="place" v="locality" />
		<tag k="ssr:stedsnr" v="390149" />
	</node>
	<node id="-436974" lat="59.5689000016" lon="5.38904999176">
		<tag k="fixme" v="consider natural=peak for the most distinct mountains in the district" />
		<tag k="name" v="Husafjellet" />
		<tag k="natural" v="hill" />
		<tag k="place" v="locality" />
		<tag k="ssr:stedsnr" v="390068" />
	</node>
	<node id="-436972" lat="59.5681583351" lon="5.44448334195">
		<tag k="name" v="Moldbrekkehaugen" />
		<tag k="natural" v="hill" />
		<tag k="place" v="locality" />
		<tag k="ssr:stedsnr" v="390041" />
	</node>
	<node id="-436971" lat="59.5656138909" lon="5.44492499288">
		<tag k="name" v="Klinko" />
		<tag k="place" v="locality" />
		<tag k="ssr:stedsnr" v="390035" />
	</node>
	<node id="-436970" lat="59.5654111088" lon="5.41053056032">
		<tag k="name" v="Kyrkjehaugen" />
		<tag k="natural" v="hill" />
		<tag k="place" v="locality" />
		<tag k="ssr:stedsnr" v="390028" />
	</node>
	<node id="-436967" lat="59.5817749997" lon="5.49885277299">
		<tag k="fixme" v="consider natural=peak for the most distinct mountains in the district" />
		<tag k="name" v="Dyråsen" />
		<tag k="natural" v="hill" />
		<tag k="place" v="locality" />
		<tag k="ssr:stedsnr" v="368102" />
	</node>
	<node id="-436966" lat="59.5314055531" lon="5.2897222173">
		<tag k="fixme" v="consider natural=peak for the most distinct mountains in the district" />
		<tag k="name" v="Håvåsen" />
		<tag k="natural" v="hill" />
		<tag k="place" v="locality" />
		<tag k="ssr:stedsnr" v="368094" />
	</node>
	<node id="-436965" lat="59.6828194487" lon="5.44710832532">
		<tag k="fixme" v="consider natural=peak for the most distinct mountains in the district" />
		<tag k="name" v="Hjartåsen" />
		<tag k="natural" v="hill" />
		<tag k="place" v="locality" />
		<tag k="ssr:stedsnr" v="367996" />
	</node>
	<node id="-436959" lat="59.6183055525" lon="5.39077221531">
		<tag k="name" v="Skyggjeberget" />
		<tag k="natural" v="hill" />
		<tag k="place" v="locality" />
		<tag k="ssr:stedsnr" v="367850" />
	</node>
	<node id="-436956" lat="59.5896111066" lon="5.33150555356">
		<tag k="fixme" v="consider natural=peak for the most distinct mountains in the district" />
		<tag k="name" v="Buaråsen" />
		<tag k="natural" v="hill" />
		<tag k="place" v="locality" />
		<tag k="ssr:stedsnr" v="367785" />
	</node>
	<node id="-436953" lat="59.5748111099" lon="5.33134443881">
		<tag k="fixme" v="consider natural=peak for the most distinct mountains in the district" />
		<tag k="name" v="Nordskogfjellet" />
		<tag k="natural" v="hill" />
		<tag k="place" v="locality" />
		<tag k="ssr:stedsnr" v="367772" />
	</node>
	<node id="-436951" lat="59.5657888914" lon="5.35796667271">
		<tag k="name" v="Middagshaugen" />
		<tag k="natural" v="hill" />
		<tag k="place" v="locality" />
		<tag k="ssr:stedsnr" v="367764" />
	</node>
	<node id="-436947" lat="59.644308334" lon="5.5032750074">
		<tag k="fixme" v="consider natural=peak for the most distinct mountains in the district" />
		<tag k="name" v="Maradalsfjellet" />
		<tag k="natural" v="hill" />
		<tag k="place" v="locality" />
		<tag k="ssr:stedsnr" v="367425" />
	</node>
	<node id="-436945" lat="59.6121777782" lon="5.49857778171">
		<tag k="name" v="Espedalen" />
		<tag k="natural" v="valley" />
		<tag k="place" v="locality" />
		<tag k="ssr:stedsnr" v="367367" />
	</node>
	<node id="-436941" lat="59.5630249995" lon="5.5071972143">
		<tag k="alt_name" v="Smiefjell" />
		<tag k="fixme" v="consider natural=peak for the most distinct mountains in the district" />
		<tag k="name" v="Smidjefjellet" />
		<tag k="natural" v="hill" />
		<tag k="place" v="locality" />
		<tag k="ssr:stedsnr" v="367289" />
	</node>
	<node id="-436930" lat="59.5043972186" lon="5.34824723089">
		<tag k="alt_name" v="Kjellehugen" />
		<tag k="name" v="Kjeldehaugen" />
		<tag k="natural" v="hill" />
		<tag k="place" v="locality" />
		<tag k="ssr:stedsnr" v="367121" />
	</node>
	<node id="-436929" lat="59.5175333372" lon="5.40743889208">
		<tag k="alt_name" v="Stutatrefjellet" />
		<tag k="fixme" v="consider natural=peak for the most distinct mountains in the district" />
		<tag k="name" v="Stutatræfjellet" />
		<tag k="natural" v="hill" />
		<tag k="place" v="locality" />
		<tag k="ssr:stedsnr" v="367117" />
	</node>
	<node id="-436919" lat="59.5964694483" lon="5.4420472171">
		<tag k="fixme" v="consider natural=peak for the most distinct mountains in the district" />
		<tag k="name" v="Åsane" />
		<tag k="natural" v="hill" />
		<tag k="place" v="locality" />
		<tag k="ssr:stedsnr" v="330841" />
	</node>
	<node id="-436915" lat="59.4822444415" lon="5.32431110636">
		<tag k="fixme" v="consider natural=peak for the most distinct mountains in the district" />
		<tag k="name" v="Tindafjell" />
		<tag k="natural" v="hill" />
		<tag k="place" v="locality" />
		<tag k="ssr:stedsnr" v="330780" />
	</node>
	<node id="-436914" lat="59.5017166685" lon="5.3379722176">
		<tag k="name" v="Rabbaskaret" />
		<tag k="natural" v="valley" />
		<tag k="place" v="locality" />
		<tag k="ssr:stedsnr" v="330763" />
	</node>
	<node id="-436911" lat="59.6971305534" lon="5.48777500294">
		<tag k="name" v="Slettabakka" />
		<tag k="natural" v="slope" />
		<tag k="place" v="locality" />
		<tag k="ssr:stedsnr" v="330688" />
	</node>
	<node id="-436910" lat="59.5911861115" lon="5.34121943617">
		<tag k="name" v="Klovningen" />
		<tag k="natural" v="hill" />
		<tag k="place" v="locality" />
		<tag k="ssr:stedsnr" v="330664" />
	</node>
	<node id="-436908" lat="59.5494888874" lon="5.3370305493">
		<tag k="name" v="Kalvanuten" />
		<tag k="natural" v="hill" />
		<tag k="place" v="locality" />
		<tag k="ssr:stedsnr" v="330603" />
	</node>
	<node id="-436906" lat="59.527038889" lon="5.30656944321">
		<tag k="name" v="Istertveit" />
		<tag k="place" v="locality" />
		<tag k="ssr:stedsnr" v="330556" />
	</node>
	<node id="-436905" lat="59.5747305541" lon="5.44343889743">
		<tag k="fixme" v="consider natural=peak for the most distinct mountains in the district" />
		<tag k="name" v="Svefjellet" />
		<tag k="natural" v="hill" />
		<tag k="place" v="locality" />
		<tag k="ssr:stedsnr" v="330266" />
	</node>
	<node id="-436904" lat="59.5817777757" lon="5.41634443625">
		<tag k="name" v="Bjørnadlen" />
		<tag k="natural" v="valley" />
		<tag k="place" v="locality" />
		<tag k="ssr:stedsnr" v="330263" />
	</node>
	<node id="-436902" lat="59.663741664" lon="5.50086666365">
		<tag k="fixme" v="consider natural=peak for the most distinct mountains in the district" />
		<tag k="name" v="Rosskonefjellet" />
		<tag k="natural" v="hill" />
		<tag k="place" v="locality" />
		<tag k="ssr:stedsnr" v="330194" />
	</node>
	<node id="-436899" lat="59.5529361129" lon="5.48889722691">
		<tag k="name" v="Trondskår" />
		<tag k="natural" v="valley" />
		<tag k="place" v="locality" />
		<tag k="ssr:stedsnr" v="330174" />
	</node>
	<node id="-436898" lat="59.7287194458" lon="5.51790277636">
		<tag k="name" v="Litla Brattaberg" />
		<tag k="natural" v="hill" />
		<tag k="place" v="locality" />
		<tag k="ssr:stedsnr" v="330172" />
	</node>
	<node id="-436896" lat="59.6734944463" lon="5.47822499987">
		<tag k="name" v="Aksla" />
		<tag k="natural" v="hill" />
		<tag k="place" v="locality" />
		<tag k="ssr:stedsnr" v="330130" />
	</node>
	<node id="-436891" lat="59.6160250018" lon="5.42109444526">
		<tag k="name" v="Livshaug" />
		<tag k="natural" v="hill" />
		<tag k="place" v="locality" />
		<tag k="ssr:stedsnr" v="330079" />
	</node>
	<node id="-436886" lat="59.5703027752" lon="5.38249445337">
		<tag k="name" v="Høkhaug" />
		<tag k="natural" v="hill" />
		<tag k="place" v="locality" />
		<tag k="ssr:stedsnr" v="330039" />
	</node>
	<node id="-436883" lat="59.5925166689" lon="5.45551111443">
		<tag k="name" v="Longhamrane" />
		<tag k="natural" v="ridge" />
		<tag k="place" v="locality" />
		<tag k="ssr:stedsnr" v="330024" />
	</node>
	<node id="-436878" lat="59.6217956623" lon="5.39603883064">
		<tag k="name" v="Helenehaugen" />
		<tag k="natural" v="hill" />
		<tag k="place" v="locality" />
		<tag k="ssr:stedsnr" v="329977" />
	</node>
	<node id="-436874" lat="59.5003194462" lon="5.39383888362">
		<tag k="name" v="Kvitaberg" />
		<tag k="natural" v="hill" />
		<tag k="place" v="locality" />
		<tag k="ssr:stedsnr" v="329912" />
	</node>
	<node id="-436873" lat="59.5057166623" lon="5.39622221565">
		<tag k="name" v="Laberget" />
		<tag k="natural" v="hill" />
		<tag k="place" v="locality" />
		<tag k="ssr:stedsnr" v="329907" />
	</node>
	<node id="-436871" lat="59.5945500031" lon="5.45721666985">
		<tag k="fixme" v="consider natural=peak for the most distinct mountains in the district" />
		<tag k="name" v="Ørnåsen" />
		<tag k="natural" v="hill" />
		<tag k="place" v="locality" />
		<tag k="ssr:stedsnr" v="329756" />
	</node>
	<node id="-436866" lat="59.6202694438" lon="5.33731111897">
		<tag k="name" v="Kuhaugen" />
		<tag k="natural" v="hill" />
		<tag k="place" v="locality" />
		<tag k="ssr:stedsnr" v="329563" />
	</node>
	<node id="-436864" lat="59.6193305545" lon="5.31542222022">
		<tag k="name" v="Tjernagelhaugen" />
		<tag k="natural" v="hill" />
		<tag k="place" v="locality" />
		<tag k="ssr:stedsnr" v="329551" />
	</node>
	<node id="-436855" lat="59.623555551" lon="5.50057499771">
		<tag k="name" v="Dreng" />
		<tag k="natural" v="hill" />
		<tag k="place" v="locality" />
		<tag k="ssr:stedsnr" v="307458" />
	</node>
	<node id="-436849" lat="59.5568638857" lon="5.50861388161">
		<tag k="fixme" v="consider natural=peak for the most distinct mountains in the district" />
		<tag k="name" v="Lauvåsen" />
		<tag k="natural" v="hill" />
		<tag k="place" v="locality" />
		<tag k="ssr:stedsnr" v="307092" />
	</node>
	<node id="-436842" lat="59.6207722258" lon="5.3999722167">
		<tag k="alt_name" v="Mjuko" />
		<tag k="name" v="Mjuk" />
		<tag k="natural" v="hill" />
		<tag k="place" v="locality" />
		<tag k="ssr:stedsnr" v="306857" />
	</node>
	<node id="-436831" lat="59.5661333304" lon="5.40146666884">
		<tag k="alt_name" v="Underbarshaugen" />
		<tag k="name" v="Underburdshaugen" />
		<tag k="natural" v="hill" />
		<tag k="place" v="locality" />
		<tag k="ssr:stedsnr" v="306218" />
	</node>
	<node id="-436830" lat="59.5358250001" lon="5.29498611563">
		<tag k="name" v="Storhaug" />
		<tag k="natural" v="hill" />
		<tag k="place" v="locality" />
		<tag k="ssr:stedsnr" v="306202" />
	</node>
	<node id="-436813" lat="59.6695638857" lon="5.4540749989">
		<tag k="fixme" v="consider natural=peak for the most distinct mountains in the district" />
		<tag k="name" v="Øyefjellet" />
		<tag k="natural" v="hill" />
		<tag k="place" v="locality" />
		<tag k="ssr:stedsnr" v="270774" />
	</node>
	<node id="-436812" lat="59.6703777735" lon="5.47114165842">
		<tag k="name" v="Bergsdalen" />
		<tag k="natural" v="valley" />
		<tag k="place" v="locality" />
		<tag k="ssr:stedsnr" v="270770" />
	</node>
	<node id="-436806" lat="59.531536108" lon="5.4017444475">
		<tag k="name" v="Litlevarden" />
		<tag k="natural" v="hill" />
		<tag k="place" v="locality" />
		<tag k="ssr:stedsnr" v="269880" />
	</node>
	<node id="-436805" lat="59.5958222228" lon="5.45313888269">
		<tag k="fixme" v="consider natural=peak for the most distinct mountains in the district" />
		<tag k="name" v="Melskouåsen" />
		<tag k="natural" v="hill" />
		<tag k="place" v="locality" />
		<tag k="ssr:stedsnr" v="269805" />
	</node>
	<node id="-436804" lat="59.4801249995" lon="5.32656110752">
		<tag k="fixme" v="consider natural=peak for the most distinct mountains in the district" />
		<tag k="name" v="Slettafjell" />
		<tag k="natural" v="hill" />
		<tag k="place" v="locality" />
		<tag k="ssr:stedsnr" v="269742" />
	</node>
	<node id="-436803" lat="59.4798305532" lon="5.31796666355">
		<tag k="fixme" v="consider natural=peak for the most distinct mountains in the district" />
		<tag k="name" v="Brattafjell" />
		<tag k="natural" v="hill" />
		<tag k="place" v="locality" />
		<tag k="ssr:stedsnr" v="269741" />
	</node>
	<node id="-436801" lat="59.4969111123" lon="5.35204722602">
		<tag k="name" v="Gjermundshaugen" />
		<tag k="natural" v="hill" />
		<tag k="place" v="locality" />
		<tag k="ssr:stedsnr" v="269731" />
	</node>
	<node id="-436800" lat="59.5052861087" lon="5.28598333849">
		<tag k="name" v="Vokshaug" />
		<tag k="natural" v="hill" />
		<tag k="place" v="locality" />
		<tag k="ssr:stedsnr" v="269727" />
	</node>
	<node id="-436793" lat="59.5587472185" lon="5.34074445334">
		<tag k="name" v="Øspehaugen" />
		<tag k="natural" v="hill" />
		<tag k="place" v="locality" />
		<tag k="ssr:stedsnr" v="269631" />
	</node>
	<node id="-436792" lat="59.5540444473" lon="5.32465278334">
		<tag k="name" v="Geitaberg" />
		<tag k="natural" v="hill" />
		<tag k="place" v="locality" />
		<tag k="ssr:stedsnr" v="269582" />
	</node>
	<node id="-436791" lat="59.5589388922" lon="5.32059444528">
		<tag k="name" v="Varhaug" />
		<tag k="natural" v="hill" />
		<tag k="place" v="locality" />
		<tag k="ssr:stedsnr" v="269580" />
	</node>
	<node id="-436789" lat="59.5890583333" lon="5.3068611054">
		<tag k="fixme" v="consider natural=peak for the most distinct mountains in the district" />
		<tag k="name" v="Tjørnaråsen" />
		<tag k="natural" v="hill" />
		<tag k="place" v="locality" />
		<tag k="ssr:stedsnr" v="269534" />
	</node>
	<node id="-436788" lat="59.5776972213" lon="5.30436666921">
		<tag k="name" v="Aredalen" />
		<tag k="natural" v="valley" />
		<tag k="place" v="locality" />
		<tag k="ssr:stedsnr" v="269532" />
	</node>
	<node id="-436787" lat="59.5754361106" lon="5.35027777242">
		<tag k="name" v="Svehaug" />
		<tag k="natural" v="hill" />
		<tag k="place" v="locality" />
		<tag k="ssr:stedsnr" v="269520" />
	</node>
	<node id="-436786" lat="59.5173055593" lon="5.36795277744">
		<tag k="name" v="Smørslagjå" />
		<tag k="place" v="locality" />
		<tag k="ssr:stedsnr" v="269501" />
	</node>
	<node id="-436779" lat="59.6700638852" lon="5.53273888504">
		<tag k="name" v="Naustdalen" />
		<tag k="natural" v="valley" />
		<tag k="place" v="locality" />
		<tag k="ssr:stedsnr" v="269243" />
	</node>
	<node id="-436777" lat="59.6357472259" lon="5.46644166332">
		<tag k="fixme" v="consider natural=peak for the most distinct mountains in the district" />
		<tag k="name" v="Håvåsen" />
		<tag k="natural" v="hill" />
		<tag k="place" v="locality" />
		<tag k="ssr:stedsnr" v="269234" />
	</node>
	<node id="-436775" lat="59.5273277762" lon="5.28139166524">
		<tag k="name" v="Møsedalen" />
		<tag k="natural" v="valley" />
		<tag k="place" v="locality" />
		<tag k="ssr:stedsnr" v="269228" />
	</node>
	<node id="-436771" lat="59.5961722201" lon="5.50920278174">
		<tag k="fixme" v="consider natural=peak for the most distinct mountains in the district" />
		<tag k="name" v="Buhaugåsen" />
		<tag k="natural" v="hill" />
		<tag k="place" v="locality" />
		<tag k="ssr:stedsnr" v="269189" />
	</node>
	<node id="-436770" lat="59.668780557" lon="5.53260000193">
		<tag k="name" v="Gråberget" />
		<tag k="natural" v="hill" />
		<tag k="place" v="locality" />
		<tag k="ssr:stedsnr" v="269183" />
	</node>
	<node id="-438441" lat="59.6507694459" lon="5.45268888919">
		<tag k="name" v="Eideshaugen" />
		<tag k="natural" v="hill" />
		<tag k="place" v="locality" />
		<tag k="ssr:stedsnr" v="937880" />
	</node>
	<node id="-438440" lat="59.6569916703" lon="5.47211388506">
		<tag k="name" v="Markasteinshaugane" />
		<tag k="natural" v="hill" />
		<tag k="place" v="locality" />
		<tag k="ssr:stedsnr" v="937865" />
	</node>
	<node id="-438439" lat="59.5746833328" lon="5.5339750048">
		<tag k="name" v="Laberget" />
		<tag k="natural" v="hill" />
		<tag k="place" v="locality" />
		<tag k="ssr:stedsnr" v="937857" />
	</node>
	<node id="-438437" lat="59.5770749986" lon="5.51887221862">
		<tag k="fixme" v="consider natural=peak for the most distinct mountains in the district" />
		<tag k="name" v="Olaåsen" />
		<tag k="natural" v="hill" />
		<tag k="place" v="locality" />
		<tag k="ssr:stedsnr" v="937851" />
	</node>
	<node id="-438436" lat="59.6721388921" lon="5.46676667185">
		<tag k="name" v="Skiftesdalen" />
		<tag k="natural" v="valley" />
		<tag k="place" v="locality" />
		<tag k="ssr:stedsnr" v="937808" />
	</node>
	<node id="-438435" lat="59.6725861084" lon="5.47022777795">
		<tag k="name" v="Ekredalen" />
		<tag k="natural" v="valley" />
		<tag k="place" v="locality" />
		<tag k="ssr:stedsnr" v="937806" />
	</node>
	<node id="-438434" lat="59.6695999969" lon="5.46053055041">
		<tag k="name" v="Sveio" />
		<tag k="natural" v="hill" />
		<tag k="place" v="locality" />
		<tag k="ssr:stedsnr" v="937803" />
	</node>
	<node id="-438432" lat="59.6417194457" lon="5.45703056325">
		<tag k="fixme" v="consider natural=peak for the most distinct mountains in the district" />
		<tag k="name" v="Mauråsen" />
		<tag k="natural" v="hill" />
		<tag k="place" v="locality" />
		<tag k="ssr:stedsnr" v="937879" />
	</node>
	<node id="-438431" lat="59.5008777733" lon="5.3333250003">
		<tag k="name" v="Tovdalen" />
		<tag k="natural" v="valley" />
		<tag k="place" v="locality" />
		<tag k="ssr:stedsnr" v="937746" />
	</node>
	<node id="-438430" lat="59.6841055523" lon="5.48782499175">
		<tag k="name" v="Ulshaug" />
		<tag k="natural" v="hill" />
		<tag k="place" v="locality" />
		<tag k="ssr:stedsnr" v="937686" />
	</node>
	<node id="-438429" lat="59.6874777797" lon="5.48886388421">
		<tag k="name" v="Sandkleiv" />
		<tag k="natural" v="slope" />
		<tag k="place" v="locality" />
		<tag k="ssr:stedsnr" v="937683" />
	</node>
	<node id="-438428" lat="59.7006527741" lon="5.4907777726">
		<tag k="name" v="Ospebrekka" />
		<tag k="natural" v="slope" />
		<tag k="place" v="locality" />
		<tag k="ssr:stedsnr" v="937681" />
	</node>
	<node id="-438427" lat="59.6836111085" lon="5.50206111935">
		<tag k="name" v="Vassdalen" />
		<tag k="natural" v="valley" />
		<tag k="place" v="locality" />
		<tag k="ssr:stedsnr" v="937672" />
	</node>
	<node id="-438426" lat="59.5165305561" lon="5.34049443818">
		<tag k="name" v="Longhammar" />
		<tag k="natural" v="hill" />
		<tag k="place" v="locality" />
		<tag k="ssr:stedsnr" v="937556" />
	</node>
	<node id="-438423" lat="59.5795388924" lon="5.44364721589">
		<tag k="alt_name" v="Tjødnaråsen" />
		<tag k="fixme" v="consider natural=peak for the most distinct mountains in the district" />
		<tag k="name" v="Tjørnaråsen" />
		<tag k="natural" v="hill" />
		<tag k="place" v="locality" />
		<tag k="ssr:stedsnr" v="937279" />
	</node>
	<node id="-438420" lat="59.6080666705" lon="5.49417499605">
		<tag k="fixme" v="consider natural=peak for the most distinct mountains in the district" />
		<tag k="name" v="Seljedalsåsen" />
		<tag k="natural" v="hill" />
		<tag k="place" v="locality" />
		<tag k="ssr:stedsnr" v="937211" />
	</node>
	<node id="-438418" lat="59.6651083373" lon="5.50968056262">
		<tag k="name" v="Urdalen" />
		<tag k="natural" v="valley" />
		<tag k="place" v="locality" />
		<tag k="ssr:stedsnr" v="937203" />
	</node>
	<node id="-438416" lat="59.5828916699" lon="5.5023833375">
		<tag k="fixme" v="consider natural=peak for the most distinct mountains in the district" />
		<tag k="name" v="Veadalsåsen" />
		<tag k="natural" v="hill" />
		<tag k="place" v="locality" />
		<tag k="ssr:stedsnr" v="937165" />
	</node>
	<node id="-438415" lat="59.4879027809" lon="5.3419111134">
		<tag k="name" v="Trengene" />
		<tag k="place" v="locality" />
		<tag k="ssr:stedsnr" v="937154" />
	</node>
	<node id="-438412" lat="59.5938249984" lon="5.40771666829">
		<tag k="name" v="Smidjehaugen" />
		<tag k="natural" v="hill" />
		<tag k="place" v="locality" />
		<tag k="ssr:stedsnr" v="937069" />
	</node>
	<node id="-438411" lat="59.5600749974" lon="5.38654166936">
		<tag k="fixme" v="consider natural=peak for the most distinct mountains in the district" />
		<tag k="name" v="Tjørnaråsen" />
		<tag k="natural" v="hill" />
		<tag k="place" v="locality" />
		<tag k="ssr:stedsnr" v="937036" />
	</node>
	<node id="-438410" lat="59.5590916649" lon="5.40050277662">
		<tag k="fixme" v="consider natural=peak for the most distinct mountains in the district" />
		<tag k="name" v="Kvassåsen" />
		<tag k="natural" v="hill" />
		<tag k="place" v="locality" />
		<tag k="ssr:stedsnr" v="937034" />
	</node>
	<node id="-438408" lat="59.5141055583" lon="5.39674721378">
		<tag k="name" v="Sildatønndalen" />
		<tag k="natural" v="valley" />
		<tag k="place" v="locality" />
		<tag k="ssr:stedsnr" v="936963" />
	</node>
	<node id="-438403" lat="59.4922194469" lon="5.38121943994">
		<tag k="alt_name" v="Eikåsen" />
		<tag k="fixme" v="consider natural=peak for the most distinct mountains in the district" />
		<tag k="name" v="Eikåsane" />
		<tag k="natural" v="hill" />
		<tag k="place" v="locality" />
		<tag k="ssr:stedsnr" v="936898" />
	</node>
	<node id="-438402" lat="59.5011583331" lon="5.42908333599">
		<tag k="name" v="Raudkleiv" />
		<tag k="natural" v="hill" />
		<tag k="place" v="locality" />
		<tag k="ssr:stedsnr" v="936897" />
	</node>
	<node id="-438399" lat="59.5986694473" lon="5.38891110685">
		<tag k="fixme" v="consider natural=peak for the most distinct mountains in the district" />
		<tag k="name" v="Dyråsen" />
		<tag k="natural" v="hill" />
		<tag k="place" v="locality" />
		<tag k="ssr:stedsnr" v="936780" />
	</node>
	<node id="-438398" lat="59.50387222" lon="5.28680000141">
		<tag k="name" v="Nausene" />
		<tag k="place" v="locality" />
		<tag k="ssr:stedsnr" v="936675" />
	</node>
	<node id="-438397" lat="59.4929416656" lon="5.28800277488">
		<tag k="name" v="Skotahallen" />
		<tag k="place" v="locality" />
		<tag k="ssr:stedsnr" v="936671" />
	</node>
	<node id="-438393" lat="59.5679527757" lon="5.3105888947">
		<tag k="name" v="Koven" />
		<tag k="natural" v="hill" />
		<tag k="place" v="locality" />
		<tag k="ssr:stedsnr" v="936580" />
	</node>
	<node id="-438391" lat="59.5486833356" lon="5.34567222466">
		<tag k="name" v="Skansen" />
		<tag k="place" v="locality" />
		<tag k="ssr:stedsnr" v="936544" />
	</node>
	<node id="-438390" lat="59.5843249969" lon="5.30448888789">
		<tag k="fixme" v="consider natural=peak for the most distinct mountains in the district" />
		<tag k="name" v="Hovdafjellet" />
		<tag k="natural" v="hill" />
		<tag k="place" v="locality" />
		<tag k="ssr:stedsnr" v="936518" />
	</node>
	<node id="-438389" lat="59.5801861139" lon="5.36749444211">
		<tag k="name" v="Lauvåshaugen" />
		<tag k="natural" v="hill" />
		<tag k="place" v="locality" />
		<tag k="ssr:stedsnr" v="936508" />
	</node>
	<node id="-438383" lat="59.6270944476" lon="5.47809166805">
		<tag k="fixme" v="consider natural=peak for the most distinct mountains in the district" />
		<tag k="name" v="Husafjellet" />
		<tag k="natural" v="hill" />
		<tag k="place" v="locality" />
		<tag k="ssr:stedsnr" v="936096" />
	</node>
	<node id="-438381" lat="59.5465795143" lon="5.33909698137">
		<tag k="fixme" v="consider natural=peak for the most distinct mountains in the district" />
		<tag k="name" v="Åseåsen" />
		<tag k="natural" v="hill" />
		<tag k="place" v="locality" />
		<tag k="ssr:stedsnr" v="936545" />
	</node>
	<node id="-438368" lat="59.5752750036" lon="5.49065277266">
		<tag k="fixme" v="consider natural=peak for the most distinct mountains in the district" />
		<tag k="name" v="Baståsen" />
		<tag k="natural" v="hill" />
		<tag k="place" v="locality" />
		<tag k="ssr:stedsnr" v="914104" />
	</node>
	<node id="-438365" lat="59.6920805564" lon="5.50598610971">
		<tag k="alt_name" v="Trollavassnipen" />
		<tag k="fixme" v="consider natural=peak for the most distinct mountains in the district" />
		<tag k="name" v="Trollevassnibba" />
		<tag k="natural" v="hill" />
		<tag k="place" v="locality" />
		<tag k="ssr:stedsnr" v="914047" />
	</node>
	<node id="-438361" lat="59.4920388873" lon="5.3811527777">
		<tag k="fixme" v="consider natural=peak for the most distinct mountains in the district" />
		<tag k="name" v="Eikåsen" />
		<tag k="natural" v="hill" />
		<tag k="place" v="locality" />
		<tag k="ssr:stedsnr" v="913663" />
	</node>
	<node id="-438343" lat="59.5191694472" lon="5.39514722001">
		<tag k="name" v="Kuhaugane" />
		<tag k="natural" v="hill" />
		<tag k="place" v="locality" />
		<tag k="ssr:stedsnr" v="876972" />
	</node>
	<node id="-438341" lat="59.6359388878" lon="5.41153888176">
		<tag k="name" v="Smidjedalen" />
		<tag k="natural" v="valley" />
		<tag k="place" v="locality" />
		<tag k="ssr:stedsnr" v="876934" />
	</node>
	<node id="-438336" lat="59.6691972217" lon="5.47471944471">
		<tag k="name" v="Skjepelid" />
		<tag k="place" v="locality" />
		<tag k="ssr:stedsnr" v="876867" />
	</node>
	<node id="-438331" lat="59.5735583293" lon="5.51388889395">
		<tag k="name" v="Galt" />
		<tag k="place" v="locality" />
		<tag k="ssr:stedsnr" v="876823" />
	</node>
	<node id="-438330" lat="59.5958555581" lon="5.46724165838">
		<tag k="fixme" v="consider natural=peak for the most distinct mountains in the district" />
		<tag k="name" v="Dyråsen" />
		<tag k="natural" v="hill" />
		<tag k="place" v="locality" />
		<tag k="ssr:stedsnr" v="876804" />
	</node>
	<node id="-438329" lat="59.6638305587" lon="5.41958055769">
		<tag k="name" v="Litlenappen" />
		<tag k="natural" v="hill" />
		<tag k="place" v="locality" />
		<tag k="ssr:stedsnr" v="876797" />
	</node>
	<node id="-438328" lat="59.6690833296" lon="5.46553611532">
		<tag k="fixme" v="consider natural=peak for the most distinct mountains in the district" />
		<tag k="name" v="Husafjellet" />
		<tag k="natural" v="hill" />
		<tag k="place" v="locality" />
		<tag k="ssr:stedsnr" v="876794" />
	</node>
	<node id="-438326" lat="59.7068194456" lon="5.49090277369">
		<tag k="name" v="Tindadalen" />
		<tag k="natural" v="valley" />
		<tag k="place" v="locality" />
		<tag k="ssr:stedsnr" v="876695" />
	</node>
	<node id="-438325" lat="59.7216055576" lon="5.50935555397">
		<tag k="name" v="Arhaug" />
		<tag k="natural" v="hill" />
		<tag k="place" v="locality" />
		<tag k="ssr:stedsnr" v="876693" />
	</node>
	<node id="-438323" lat="59.5526083302" lon="5.30800278523">
		<tag k="name" v="Krokavarden" />
		<tag k="natural" v="hill" />
		<tag k="place" v="locality" />
		<tag k="ssr:stedsnr" v="876642" />
	</node>
	<node id="-438322" lat="59.5914972225" lon="5.33866666671">
		<tag k="name" v="Lierklovningen" />
		<tag k="natural" v="hill" />
		<tag k="place" v="locality" />
		<tag k="ssr:stedsnr" v="876633" />
	</node>
	<node id="-438318" lat="59.5212916646" lon="5.32691944776">
		<tag k="name" v="Hordasteinen" />
		<tag k="natural" v="hill" />
		<tag k="place" v="locality" />
		<tag k="ssr:stedsnr" v="876523" />
	</node>
	<node id="-438312" lat="59.659155558" lon="5.4866805496">
		<tag k="name" v="Stemmen" />
		<tag k="place" v="locality" />
		<tag k="ssr:stedsnr" v="876210" />
	</node>
	<node id="-438311" lat="59.6653944478" lon="5.52743333138">
		<tag k="name" v="Gravet" />
		<tag k="place" v="locality" />
		<tag k="ssr:stedsnr" v="876208" />
	</node>
	<node id="-438310" lat="59.5942222229" lon="5.51207499686">
		<tag k="fixme" v="consider natural=peak for the most distinct mountains in the district" />
		<tag k="name" v="Brandåsen" />
		<tag k="natural" v="hill" />
		<tag k="place" v="locality" />
		<tag k="ssr:stedsnr" v="876191" />
	</node>
	<node id="-438309" lat="59.6726916701" lon="5.4950416589">
		<tag k="name" v="Fauken" />
		<tag k="natural" v="hill" />
		<tag k="place" v="locality" />
		<tag k="ssr:stedsnr" v="876185" />
	</node>
	<node id="-438308" lat="59.6750555537" lon="5.48813888341">
		<tag k="name" v="Smiehaugen" />
		<tag k="natural" v="hill" />
		<tag k="place" v="locality" />
		<tag k="ssr:stedsnr" v="876184" />
	</node>
	<node id="-438302" lat="59.5564222265" lon="5.37323054924">
		<tag k="name" v="Rossehaugen" />
		<tag k="natural" v="hill" />
		<tag k="place" v="locality" />
		<tag k="ssr:stedsnr" v="876026" />
	</node>
	<node id="-438286" lat="59.6491916638" lon="5.52756666173">
		<tag k="alt_name" v="Litle Hovda" />
		<tag k="name" v="Litlehovda" />
		<tag k="natural" v="hill" />
		<tag k="place" v="locality" />
		<tag k="ssr:stedsnr" v="853479" />
	</node>
	<node id="-438285" lat="59.6478916665" lon="5.49945277188">
		<tag k="fixme" v="consider natural=peak for the most distinct mountains in the district" />
		<tag k="name" v="Hopsfjellet" />
		<tag k="natural" v="hill" />
		<tag k="place" v="locality" />
		<tag k="ssr:stedsnr" v="853478" />
	</node>
	<node id="-438279" lat="59.5753749994" lon="5.4707805531">
		<tag k="fixme" v="consider natural=peak for the most distinct mountains in the district" />
		<tag k="name" v="Lindsliåsen" />
		<tag k="natural" v="hill" />
		<tag k="place" v="locality" />
		<tag k="ssr:stedsnr" v="853355" />
	</node>
	<node id="-438277" lat="59.5691194488" lon="5.49850000601">
		<tag k="fixme" v="consider natural=peak for the most distinct mountains in the district" />
		<tag k="name" v="Vardafjellet" />
		<tag k="natural" v="hill" />
		<tag k="place" v="locality" />
		<tag k="ssr:stedsnr" v="853349" />
	</node>
</osm>
