<?xml version="1.0" encoding="UTF-8"?>
<osm generator="osmapis" version="0.6">
	<node id="-250400" lat="59.2948023614" lon="8.75706663151">
		<tag k="historic" v="boundary_stone" />
		<tag k="man_made" v="cairn" />
		<tag k="name" v="Kosa deildi" />
		<tag k="place" v="locality" />
		<tag k="ssr:stedsnr" v="173517" />
	</node>
	<node id="-251903" lat="59.4652555517" lon="8.34524722409">
		<tag k="historic" v="boundary_stone" />
		<tag k="man_made" v="cairn" />
		<tag k="name" v="Gråhella" />
		<tag k="place" v="locality" />
		<tag k="ssr:stedsnr" v="656655" />
	</node>
	<node id="-248859" lat="59.3628212589" lon="8.16331890733">
		<tag k="historic" v="boundary_stone" />
		<tag k="man_made" v="cairn" />
		<tag k="name" v="Hanestein" />
		<tag k="place" v="locality" />
		<tag k="ssr:stedsnr" v="355754" />
	</node>
	<node id="-249040" lat="59.2795472197" lon="8.31687499181">
		<tag k="historic" v="boundary_stone" />
		<tag k="man_made" v="cairn" />
		<tag k="name" v="Sveinsheimann" />
		<tag k="place" v="locality" />
		<tag k="ssr:stedsnr" v="413254" />
	</node>
	<node id="-248676" lat="59.4826277741" lon="8.36056944091">
		<tag k="historic" v="boundary_stone" />
		<tag k="man_made" v="cairn" />
		<tag k="name" v="Faen" />
		<tag k="place" v="locality" />
		<tag k="ssr:stedsnr" v="353318" />
	</node>
	<node id="-252656" lat="59.4166083347" lon="8.46069444456">
		<tag k="historic" v="boundary_stone" />
		<tag k="man_made" v="cairn" />
		<tag k="name" v="Skiparsteinen" />
		<tag k="place" v="locality" />
		<tag k="ssr:stedsnr" v="778453" />
	</node>
	<node id="-249068" lat="59.5012861143" lon="8.36770556312">
		<tag k="historic" v="boundary_stone" />
		<tag k="man_made" v="cairn" />
		<tag k="name" v="Torefuru" />
		<tag k="place" v="locality" />
		<tag k="ssr:stedsnr" v="473185" />
	</node>
	<node id="-252203" lat="59.4508555569" lon="8.29255833665">
		<tag k="historic" v="boundary_stone" />
		<tag k="man_made" v="cairn" />
		<tag k="name" v="Myrhalsdeildi" />
		<tag k="place" v="locality" />
		<tag k="ssr:stedsnr" v="716402" />
	</node>
	<node id="-251017" lat="59.3518778292" lon="8.67679696317">
		<tag k="historic" v="boundary_stone" />
		<tag k="man_made" v="cairn" />
		<tag k="name" v="Holmvassdelet" />
		<tag k="place" v="locality" />
		<tag k="ssr:stedsnr" v="416847" />
	</node>
	<node id="-248358" lat="59.4061555555" lon="8.37979999144">
		<tag k="historic" v="boundary_stone" />
		<tag k="man_made" v="cairn" />
		<tag k="name" v="Hagabergdeildi" />
		<tag k="place" v="locality" />
		<tag k="ssr:stedsnr" v="292829" />
	</node>
	<node id="-249569" lat="59.4717027801" lon="8.36340555016">
		<tag k="historic" v="boundary_stone" />
		<tag k="man_made" v="cairn" />
		<tag k="name" v="Dei sju deildin" />
		<tag k="place" v="locality" />
		<tag k="ssr:stedsnr" v="50253" />
	</node>
	<node id="-251396" lat="59.3615264059" lon="8.18173099613">
		<tag k="historic" v="boundary_stone" />
		<tag k="man_made" v="cairn" />
		<tag k="name" v="Kløvstein" />
		<tag k="place" v="locality" />
		<tag k="ssr:stedsnr" v="537747" />
	</node>
	<node id="-248503" lat="59.2709025825" lon="8.79607755018">
		<tag k="historic" v="boundary_stone" />
		<tag k="man_made" v="cairn" />
		<tag k="name" v="Rikeballsteindeildi" />
		<tag k="place" v="locality" />
		<tag k="ssr:stedsnr" v="294777" />
	</node>
	<node id="-249505" lat="59.4843083366" lon="8.389280552">
		<tag k="historic" v="boundary_stone" />
		<tag k="man_made" v="cairn" />
		<tag k="name" v="Nordjordjasen" />
		<tag k="place" v="locality" />
		<tag k="ssr:stedsnr" v="49570" />
	</node>
</osm>
