<?xml version="1.0" encoding="UTF-8"?>
<osm generator="osmapis" version="0.6">
	<node id="-7293" lat="59.1710500021" lon="10.9530166718">
		<tag k="name" v="Alshus, røde, søre" />
		<tag k="ssr:date" v="2016-05-10" />
		<tag k="ssr:gruppe" v="navigasjon" />
		<tag k="ssr:hovedgruppe" v="infrastruktur" />
		<tag k="ssr:stedsnr" v="661492" />
		<tag k="ssr:type" v="fyrlykt" />
	</node>
	<node id="-6396" lat="59.1740552025" lon="10.89883583">
		<tag k="name" v="Skogholmene" />
		<tag k="ssr:date" v="2019-05-30" />
		<tag k="ssr:gruppe" v="veg" />
		<tag k="ssr:hovedgruppe" v="infrastruktur" />
		<tag k="ssr:stedsnr" v="1007251" />
		<tag k="ssr:type" v="adressenavn" />
	</node>
	<node id="-6395" lat="59.1403720165" lon="10.9042072802">
		<tag k="name" v="Store Brattholmen" />
		<tag k="ssr:date" v="2019-05-30" />
		<tag k="ssr:gruppe" v="veg" />
		<tag k="ssr:hovedgruppe" v="infrastruktur" />
		<tag k="ssr:stedsnr" v="1006779" />
		<tag k="ssr:type" v="adressenavn" />
	</node>
	<node id="-6394" lat="59.1402914354" lon="10.9117658856">
		<tag k="name" v="Store Sauholmen" />
		<tag k="ssr:date" v="2019-05-30" />
		<tag k="ssr:gruppe" v="veg" />
		<tag k="ssr:hovedgruppe" v="infrastruktur" />
		<tag k="ssr:stedsnr" v="1006777" />
		<tag k="ssr:type" v="adressenavn" />
	</node>
	<node id="-6393" lat="59.13070115" lon="10.931930037">
		<tag k="name" v="Rispeholmen" />
		<tag k="ssr:date" v="2019-05-30" />
		<tag k="ssr:gruppe" v="veg" />
		<tag k="ssr:hovedgruppe" v="infrastruktur" />
		<tag k="ssr:stedsnr" v="1006443" />
		<tag k="ssr:type" v="adressenavn" />
	</node>
	<node id="-7160" lat="59.2596612567" lon="11.025250185">
		<tag k="name" v="Renudtangen lykt" />
		<tag k="ssr:date" v="2018-09-20" />
		<tag k="ssr:gruppe" v="navigasjon" />
		<tag k="ssr:hovedgruppe" v="infrastruktur" />
		<tag k="ssr:stedsnr" v="588916" />
		<tag k="ssr:type" v="fyrlykt" />
	</node>
	<node id="-6391" lat="59.1586596866" lon="10.9095906128">
		<tag k="name" v="Randholmen" />
		<tag k="ssr:date" v="2019-05-30" />
		<tag k="ssr:gruppe" v="veg" />
		<tag k="ssr:hovedgruppe" v="infrastruktur" />
		<tag k="ssr:stedsnr" v="1006323" />
		<tag k="ssr:type" v="adressenavn" />
	</node>
	<node id="-6390" lat="59.1514896216" lon="10.8988968641">
		<tag k="name" v="Sauholmen" />
		<tag k="ssr:date" v="2019-05-30" />
		<tag k="ssr:gruppe" v="veg" />
		<tag k="ssr:hovedgruppe" v="infrastruktur" />
		<tag k="ssr:stedsnr" v="1006060" />
		<tag k="ssr:type" v="adressenavn" />
	</node>
	<node id="-7157" lat="59.2482888901" lon="11.0140416705">
		<tag k="name" v="Torpeberget lykt" />
		<tag k="ssr:date" v="2016-05-10" />
		<tag k="ssr:gruppe" v="navigasjon" />
		<tag k="ssr:hovedgruppe" v="infrastruktur" />
		<tag k="ssr:stedsnr" v="585856" />
		<tag k="ssr:type" v="fyrlykt" />
	</node>
	<node id="-6388" lat="59.1201248214" lon="10.9339726624">
		<tag k="name" v="Furuholmen-Kråkerøy" />
		<tag k="ssr:date" v="2019-05-30" />
		<tag k="ssr:gruppe" v="veg" />
		<tag k="ssr:hovedgruppe" v="infrastruktur" />
		<tag k="ssr:stedsnr" v="1005021" />
		<tag k="ssr:type" v="adressenavn" />
	</node>
	<node id="-6387" lat="59.1127475902" lon="10.9335220113">
		<tag k="name" v="Granholmen" />
		<tag k="ssr:date" v="2019-05-30" />
		<tag k="ssr:gruppe" v="veg" />
		<tag k="ssr:hovedgruppe" v="infrastruktur" />
		<tag k="ssr:stedsnr" v="1003983" />
		<tag k="ssr:type" v="adressenavn" />
	</node>
	<node id="-6386" lat="59.1716134711" lon="10.9011850593">
		<tag k="name" v="Poseholmen" />
		<tag k="ssr:date" v="2019-05-30" />
		<tag k="ssr:gruppe" v="veg" />
		<tag k="ssr:hovedgruppe" v="infrastruktur" />
		<tag k="ssr:stedsnr" v="996111" />
		<tag k="ssr:type" v="adressenavn" />
	</node>
	<node id="-7537" lat="59.1390555538" lon="10.9427138924">
		<tag k="name" v="Kjøkøy, øvre" />
		<tag k="ssr:date" v="2016-05-11" />
		<tag k="ssr:gruppe" v="navigasjon" />
		<tag k="ssr:hovedgruppe" v="infrastruktur" />
		<tag k="ssr:stedsnr" v="783826" />
		<tag k="ssr:type" v="fyrlykt" />
	</node>
	<node id="-6384" lat="59.195288507" lon="10.7684324152">
		<tag k="name" v="Sveholmen" />
		<tag k="ssr:date" v="2019-05-30" />
		<tag k="ssr:gruppe" v="veg" />
		<tag k="ssr:hovedgruppe" v="infrastruktur" />
		<tag k="ssr:stedsnr" v="996081" />
		<tag k="ssr:type" v="adressenavn" />
	</node>
	<node id="-6383" lat="59.2093964385" lon="10.7929490493">
		<tag k="name" v="Skjærhallen" />
		<tag k="ssr:date" v="2019-05-30" />
		<tag k="ssr:gruppe" v="veg" />
		<tag k="ssr:hovedgruppe" v="infrastruktur" />
		<tag k="ssr:stedsnr" v="996163" />
		<tag k="ssr:type" v="adressenavn" />
	</node>
	<node id="-6382" lat="59.2295513042" lon="10.75819999">
		<tag k="name" v="Stangerholmen" />
		<tag k="ssr:date" v="2019-05-30" />
		<tag k="ssr:gruppe" v="veg" />
		<tag k="ssr:hovedgruppe" v="infrastruktur" />
		<tag k="ssr:stedsnr" v="996156" />
		<tag k="ssr:type" v="adressenavn" />
	</node>
	<node id="-6381" lat="59.1950789669" lon="10.830843958">
		<tag k="name" v="Langgårdslia" />
		<tag k="ssr:date" v="2019-05-30" />
		<tag k="ssr:gruppe" v="veg" />
		<tag k="ssr:hovedgruppe" v="infrastruktur" />
		<tag k="ssr:stedsnr" v="995626" />
		<tag k="ssr:type" v="adressenavn" />
	</node>
	<node id="-7532" lat="59.1722388873" lon="10.9529777814">
		<tag k="name" v="Alshus, røde, nordre" />
		<tag k="ssr:date" v="2016-05-11" />
		<tag k="ssr:gruppe" v="navigasjon" />
		<tag k="ssr:hovedgruppe" v="infrastruktur" />
		<tag k="ssr:stedsnr" v="783515" />
		<tag k="ssr:type" v="fyrlykt" />
	</node>
	<node id="-6379" lat="59.196075658" lon="10.8344668468">
		<tag k="name" v="Nedre Langgårdslia" />
		<tag k="ssr:date" v="2019-05-30" />
		<tag k="ssr:gruppe" v="veg" />
		<tag k="ssr:hovedgruppe" v="infrastruktur" />
		<tag k="ssr:stedsnr" v="995620" />
		<tag k="ssr:type" v="adressenavn" />
	</node>
	<node id="-6380" lat="59.1957521513" lon="10.8352374425">
		<tag k="name" v="Øvre Langgårdslia" />
		<tag k="ssr:date" v="2019-05-30" />
		<tag k="ssr:gruppe" v="veg" />
		<tag k="ssr:hovedgruppe" v="infrastruktur" />
		<tag k="ssr:stedsnr" v="995621" />
		<tag k="ssr:type" v="adressenavn" />
	</node>
	<node id="-7913" lat="60.5908609473" lon="9.63819281559">
		<tag k="fixme" v="multiple name tags, choose one and add the other to alt_name" />
		<tag k="name" v="Austlandet;Østlandet" />
		<tag k="ssr:date" v="2018-01-09" />
		<tag k="ssr:gruppe" v="administrativeIndelinger" />
		<tag k="ssr:hovedgruppe" v="offentligAdministrasjon" />
		<tag k="ssr:stedsnr" v="974775" />
		<tag k="ssr:type" v="annenAdministrativInndeling" />
	</node>
	<node id="-6376" lat="59.2171808302" lon="11.0133349431">
		<tag k="name" v="Safirtunet" />
		<tag k="ssr:date" v="2019-05-30" />
		<tag k="ssr:gruppe" v="veg" />
		<tag k="ssr:hovedgruppe" v="infrastruktur" />
		<tag k="ssr:stedsnr" v="994883" />
		<tag k="ssr:type" v="adressenavn" />
	</node>
	<node id="-7911" lat="59.1223683006" lon="11.0184239031">
		<tag k="alt_name" v="Ramsøy lanterne" />
		<tag k="name" v="Ramsøy" />
		<tag k="ssr:date" v="2016-10-31" />
		<tag k="ssr:gruppe" v="navigasjon" />
		<tag k="ssr:hovedgruppe" v="infrastruktur" />
		<tag k="ssr:stedsnr" v="972386" />
		<tag k="ssr:type" v="lanterne" />
	</node>
	<node id="-6374" lat="59.237029277" lon="10.9760986703">
		<tag k="name" v="Østgårdhaven" />
		<tag k="ssr:date" v="2019-05-30" />
		<tag k="ssr:gruppe" v="veg" />
		<tag k="ssr:hovedgruppe" v="infrastruktur" />
		<tag k="ssr:stedsnr" v="993039" />
		<tag k="ssr:type" v="adressenavn" />
	</node>
	<node id="-7269" lat="59.1765805589" lon="10.8727777751">
		<tag k="name" v="Søre Kråkebåen lysbøye" />
		<tag k="ssr:date" v="2016-05-10" />
		<tag k="ssr:gruppe" v="navigasjon" />
		<tag k="ssr:hovedgruppe" v="infrastruktur" />
		<tag k="ssr:stedsnr" v="647381" />
		<tag k="ssr:type" v="lysbøye" />
	</node>
	<node id="-6887" lat="59.2135388885" lon="10.910086103">
		<tag k="alt_name" v="Gressvik, Nedre" />
		<tag k="name" v="Nedre Gressvik" />
		<tag k="ssr:date" v="2016-05-10" />
		<tag k="ssr:gruppe" v="navigasjon" />
		<tag k="ssr:hovedgruppe" v="infrastruktur" />
		<tag k="ssr:stedsnr" v="419824" />
		<tag k="ssr:type" v="fyrlykt" />
	</node>
	<node id="-7011" lat="59.1810083332" lon="10.9509055553">
		<tag k="name" v="Kallera lykt" />
		<tag k="old_name" v="Kaldera" />
		<tag k="ssr:date" v="2016-05-10" />
		<tag k="ssr:gruppe" v="navigasjon" />
		<tag k="ssr:hovedgruppe" v="infrastruktur" />
		<tag k="ssr:stedsnr" v="486379" />
		<tag k="ssr:type" v="fyrlykt" />
	</node>
	<node id="-6370" lat="59.2094103415" lon="10.9425015914">
		<tag k="name" v="Kirketårnet" />
		<tag k="ssr:date" v="2019-02-19" />
		<tag k="ssr:gruppe" v="navigasjon" />
		<tag k="ssr:hovedgruppe" v="infrastruktur" />
		<tag k="ssr:stedsnr" v="989968" />
		<tag k="ssr:type" v="lanterne" />
	</node>
	<node id="-7521" lat="59.2134333307" lon="10.9087472283">
		<tag k="alt_name" v="Gressvik, Øvre" />
		<tag k="name" v="Øvre Gressvik" />
		<tag k="ssr:date" v="2016-05-11" />
		<tag k="ssr:gruppe" v="navigasjon" />
		<tag k="ssr:hovedgruppe" v="infrastruktur" />
		<tag k="ssr:stedsnr" v="782815" />
		<tag k="ssr:type" v="fyrlykt" />
	</node>
	<node id="-6205" lat="59.1385861074" lon="10.9411138833">
		<tag k="name" v="Kjøkøy, nedre" />
		<tag k="ssr:date" v="2016-05-10" />
		<tag k="ssr:gruppe" v="navigasjon" />
		<tag k="ssr:hovedgruppe" v="infrastruktur" />
		<tag k="ssr:stedsnr" v="358814" />
		<tag k="ssr:type" v="fyrlykt" />
	</node>
	<node id="-6373" lat="59.2365009503" lon="10.9767673087">
		<tag k="name" v="Østgårdkroken" />
		<tag k="ssr:date" v="2019-05-30" />
		<tag k="ssr:gruppe" v="veg" />
		<tag k="ssr:hovedgruppe" v="infrastruktur" />
		<tag k="ssr:stedsnr" v="993038" />
		<tag k="ssr:type" v="adressenavn" />
	</node>
	<node id="-6748" lat="59.2611361074" lon="11.0244666742">
		<tag k="name" v="Visterflo lykt" />
		<tag k="ssr:date" v="2016-05-10" />
		<tag k="ssr:gruppe" v="navigasjon" />
		<tag k="ssr:hovedgruppe" v="infrastruktur" />
		<tag k="ssr:stedsnr" v="224914" />
		<tag k="ssr:type" v="fyrlykt" />
	</node>
	<node id="-7771" lat="59.2047555591" lon="10.9026083253">
		<tag k="name" v="Hutholmen lykt" />
		<tag k="ssr:date" v="2016-05-11" />
		<tag k="ssr:gruppe" v="navigasjon" />
		<tag k="ssr:hovedgruppe" v="infrastruktur" />
		<tag k="ssr:stedsnr" v="904854" />
		<tag k="ssr:type" v="fyrlykt" />
	</node>
	<node id="-6362" lat="59.1851325674" lon="10.7832900491">
		<tag k="name" v="Navneskjæra varde" />
		<tag k="ssr:date" v="2018-08-29" />
		<tag k="ssr:gruppe" v="navigasjon" />
		<tag k="ssr:hovedgruppe" v="infrastruktur" />
		<tag k="ssr:stedsnr" v="986444" />
		<tag k="ssr:type" v="sjøvarde" />
	</node>
	<node id="-6372" lat="59.2145366405" lon="11.0810304708">
		<tag k="name" v="Brandstorpåsen" />
		<tag k="ssr:date" v="2019-05-31" />
		<tag k="ssr:gruppe" v="veg" />
		<tag k="ssr:hovedgruppe" v="infrastruktur" />
		<tag k="ssr:stedsnr" v="1066037" />
		<tag k="ssr:type" v="adressenavn" />
	</node>
	<node id="-6740" lat="59.1983166637" lon="10.8964527819">
		<tag k="alt_name" v="Krossnesfjellet" />
		<tag k="name" v="Krosnesfjellet" />
		<tag k="ssr:date" v="2016-05-10" />
		<tag k="ssr:gruppe" v="navigasjon" />
		<tag k="ssr:hovedgruppe" v="infrastruktur" />
		<tag k="ssr:stedsnr" v="188865" />
		<tag k="ssr:type" v="fyrlykt" />
	</node>
	<node id="-6481" lat="59.1385166693" lon="10.9379472171">
		<tag k="name" v="Raketangen lykt" />
		<tag k="ssr:date" v="2016-05-10" />
		<tag k="ssr:gruppe" v="navigasjon" />
		<tag k="ssr:hovedgruppe" v="infrastruktur" />
		<tag k="ssr:stedsnr" v="55802" />
		<tag k="ssr:type" v="fyrlykt" />
	</node>
	<node id="-7376" lat="59.1510805597" lon="10.8294194476">
		<tag k="alt_name" v="Strømtangen;Strømtangen lykt" />
		<tag k="name" v="Strømtangen fyr" />
		<tag k="old_name" v="Torgauten" />
		<tag k="ssr:date" v="2016-05-11" />
		<tag k="ssr:gruppe" v="navigasjon" />
		<tag k="ssr:hovedgruppe" v="infrastruktur" />
		<tag k="ssr:stedsnr" v="731598" />
		<tag k="ssr:type" v="fyrstasjon" />
	</node>
	<node id="-6392" lat="59.1295292137" lon="10.940448298">
		<tag k="name" v="Puttholmen" />
		<tag k="ssr:date" v="2019-05-30" />
		<tag k="ssr:gruppe" v="veg" />
		<tag k="ssr:hovedgruppe" v="infrastruktur" />
		<tag k="ssr:stedsnr" v="1006332" />
		<tag k="ssr:type" v="adressenavn" />
	</node>
	<node id="-6606" lat="59.2122277801" lon="10.7358861131">
		<tag k="name" v="Flateguri lykt" />
		<tag k="ssr:date" v="2016-05-10" />
		<tag k="ssr:gruppe" v="navigasjon" />
		<tag k="ssr:hovedgruppe" v="infrastruktur" />
		<tag k="ssr:stedsnr" v="122318" />
		<tag k="ssr:type" v="fyrlykt" />
	</node>
	<node id="-6088" lat="59.1401444462" lon="10.9408527799">
		<tag k="alt_name" v="Kjøkøyskjær lykt" />
		<tag k="name" v="Kjøkøyskjæret" />
		<tag k="ssr:date" v="2016-05-10" />
		<tag k="ssr:gruppe" v="navigasjon" />
		<tag k="ssr:hovedgruppe" v="infrastruktur" />
		<tag k="ssr:stedsnr" v="297821" />
		<tag k="ssr:type" v="fyrlykt" />
	</node>
	<node id="-6855" lat="59.2175944445" lon="10.9378722188">
		<tag k="loc_name" v="Fredrikstad" />
		<tag k="name" v="Fredrikstad kommune" />
		<tag k="ssr:date" v="2019-01-23" />
		<tag k="ssr:gruppe" v="administrativeIndelinger" />
		<tag k="ssr:hovedgruppe" v="offentligAdministrasjon" />
		<tag k="ssr:stedsnr" v="267107" />
		<tag k="ssr:type" v="kommune" />
	</node>
	<node id="-7878" lat="59.215019442" lon="10.9242888973">
		<tag k="alt_name" v="Korsepynten, Nedre" />
		<tag k="name" v="Nedre Korsepynten" />
		<tag k="ssr:date" v="2016-05-11" />
		<tag k="ssr:gruppe" v="navigasjon" />
		<tag k="ssr:hovedgruppe" v="infrastruktur" />
		<tag k="ssr:stedsnr" v="964813" />
		<tag k="ssr:type" v="fyrlykt" />
	</node>
	<node id="-7749" lat="59.1565861117" lon="10.9567722272">
		<tag k="name" v="Flyndregrunnen lykt" />
		<tag k="ssr:date" v="2016-05-11" />
		<tag k="ssr:gruppe" v="navigasjon" />
		<tag k="ssr:hovedgruppe" v="infrastruktur" />
		<tag k="ssr:stedsnr" v="903889" />
		<tag k="ssr:type" v="fyrlykt" />
	</node>
	<node id="-7107" lat="59.2638972259" lon="10.9898055628">
		<tag k="name" v="Hattekroken" />
		<tag k="ssr:date" v="2019-05-30" />
		<tag k="ssr:gruppe" v="veg" />
		<tag k="ssr:hovedgruppe" v="infrastruktur" />
		<tag k="ssr:stedsnr" v="545551" />
		<tag k="ssr:type" v="adressenavn" />
	</node>
	<node id="-6208" lat="59.1326499963" lon="10.9161166621">
		<tag k="alt_name" v="Arisholmen lykt" />
		<tag k="name" v="Arisholmen lanterne" />
		<tag k="ssr:date" v="2019-03-11" />
		<tag k="ssr:gruppe" v="navigasjon" />
		<tag k="ssr:hovedgruppe" v="infrastruktur" />
		<tag k="ssr:stedsnr" v="358822" />
		<tag k="ssr:type" v="lanterne" />
	</node>
	<node id="-6120" lat="59.2503305574" lon="11.0086388817">
		<tag k="name" v="Ombergsvingen" />
		<tag k="ssr:date" v="2019-05-30" />
		<tag k="ssr:gruppe" v="veg" />
		<tag k="ssr:hovedgruppe" v="infrastruktur" />
		<tag k="ssr:stedsnr" v="302599" />
		<tag k="ssr:type" v="adressenavn" />
	</node>
	<node id="-6389" lat="59.2656549425" lon="10.7820354731">
		<tag k="name" v="Lokaltunet" />
		<tag k="ssr:date" v="2019-05-30" />
		<tag k="ssr:gruppe" v="veg" />
		<tag k="ssr:hovedgruppe" v="infrastruktur" />
		<tag k="ssr:stedsnr" v="1005526" />
		<tag k="ssr:type" v="adressenavn" />
	</node>
	<node id="-6844" lat="59.1710500021" lon="10.9530166718">
		<tag k="name" v="Alshus, hvite, søre" />
		<tag k="ssr:date" v="2016-05-10" />
		<tag k="ssr:gruppe" v="navigasjon" />
		<tag k="ssr:hovedgruppe" v="infrastruktur" />
		<tag k="ssr:stedsnr" v="479514" />
		<tag k="ssr:type" v="fyrlykt" />
	</node>
	<node id="-6970" lat="59.2666722249" lon="11.0738583397">
		<tag k="name" v="Kjelsegrunnen lykt" />
		<tag k="ssr:date" v="2016-05-10" />
		<tag k="ssr:gruppe" v="navigasjon" />
		<tag k="ssr:hovedgruppe" v="infrastruktur" />
		<tag k="ssr:stedsnr" v="464841" />
		<tag k="ssr:type" v="fyrlykt" />
	</node>
	<node id="-6327" lat="59.2330784083" lon="10.916224259">
		<tag k="name" v="Pettersandlia" />
		<tag k="ssr:date" v="2019-05-31" />
		<tag k="ssr:gruppe" v="veg" />
		<tag k="ssr:hovedgruppe" v="infrastruktur" />
		<tag k="ssr:stedsnr" v="1066090" />
		<tag k="ssr:type" v="adressenavn" />
	</node>
	<node id="-6326" lat="59.208413093" lon="10.996202478">
		<tag k="name" v="Kompaniveien" />
		<tag k="ssr:date" v="2019-05-31" />
		<tag k="ssr:gruppe" v="veg" />
		<tag k="ssr:hovedgruppe" v="infrastruktur" />
		<tag k="ssr:stedsnr" v="1065393" />
		<tag k="ssr:type" v="adressenavn" />
	</node>
	<node id="-6323" lat="59.2160686587" lon="10.9334941539">
		<tag k="name" v="Breidablikk" />
		<tag k="ssr:date" v="2019-05-31" />
		<tag k="ssr:gruppe" v="veg" />
		<tag k="ssr:hovedgruppe" v="infrastruktur" />
		<tag k="ssr:stedsnr" v="1063438" />
		<tag k="ssr:type" v="adressenavn" />
	</node>
	<node id="-6320" lat="59.2659388889" lon="11.0594777799">
		<tag k="name" v="Vestenodden lykt" />
		<tag k="ssr:date" v="2016-05-11" />
		<tag k="ssr:gruppe" v="navigasjon" />
		<tag k="ssr:hovedgruppe" v="infrastruktur" />
		<tag k="ssr:stedsnr" v="892920" />
		<tag k="ssr:type" v="fyrlykt" />
	</node>
	<node id="-6191" lat="59.1909888924" lon="10.764252782">
		<tag k="name" v="Garnholmen lykt" />
		<tag k="ssr:date" v="2016-05-10" />
		<tag k="ssr:gruppe" v="navigasjon" />
		<tag k="ssr:hovedgruppe" v="infrastruktur" />
		<tag k="ssr:stedsnr" v="357949" />
		<tag k="ssr:type" v="fyrlykt" />
	</node>
	<node id="-6378" lat="59.2228933896" lon="10.7456789512">
		<tag k="name" v="Brattholmen" />
		<tag k="ssr:date" v="2019-05-30" />
		<tag k="ssr:gruppe" v="veg" />
		<tag k="ssr:hovedgruppe" v="infrastruktur" />
		<tag k="ssr:stedsnr" v="995439" />
		<tag k="ssr:type" v="adressenavn" />
	</node>
	<node id="-6314" lat="59.1659000037" lon="10.9563611131">
		<tag k="name" v="Tuppegrunnen lykt" />
		<tag k="ssr:date" v="2016-05-10" />
		<tag k="ssr:gruppe" v="navigasjon" />
		<tag k="ssr:hovedgruppe" v="infrastruktur" />
		<tag k="ssr:stedsnr" v="478816" />
		<tag k="ssr:type" v="fyrlykt" />
	</node>
	<node id="-6375" lat="59.1348648378" lon="11.1209760243">
		<tag k="name" v="Flyndreholmen-Borge" />
		<tag k="ssr:date" v="2019-05-30" />
		<tag k="ssr:gruppe" v="veg" />
		<tag k="ssr:hovedgruppe" v="infrastruktur" />
		<tag k="ssr:stedsnr" v="994250" />
		<tag k="ssr:type" v="adressenavn" />
	</node>
	<node id="-7080" lat="59.1722388873" lon="10.9529777814">
		<tag k="name" v="Alshus, hvite, nordre" />
		<tag k="ssr:date" v="2016-05-10" />
		<tag k="ssr:gruppe" v="navigasjon" />
		<tag k="ssr:hovedgruppe" v="infrastruktur" />
		<tag k="ssr:stedsnr" v="540529" />
		<tag k="ssr:type" v="fyrlykt" />
	</node>
	<node id="-6310" lat="59.1978513284" lon="10.9723721191">
		<tag k="name" v="Bekkevold" />
		<tag k="ssr:date" v="2019-05-31" />
		<tag k="ssr:gruppe" v="veg" />
		<tag k="ssr:hovedgruppe" v="infrastruktur" />
		<tag k="ssr:stedsnr" v="1060527" />
		<tag k="ssr:type" v="adressenavn" />
	</node>
	<node id="-6385" lat="59.1792247653" lon="10.8151303613">
		<tag k="name" v="Rakholmen" />
		<tag k="ssr:date" v="2019-05-30" />
		<tag k="ssr:gruppe" v="veg" />
		<tag k="ssr:hovedgruppe" v="infrastruktur" />
		<tag k="ssr:stedsnr" v="996103" />
		<tag k="ssr:type" v="adressenavn" />
	</node>
	<node id="-7204" lat="59.1816707553" lon="10.7975739183">
		<tag k="name" v="Slevik lykt" />
		<tag k="ssr:date" v="2018-09-20" />
		<tag k="ssr:gruppe" v="navigasjon" />
		<tag k="ssr:hovedgruppe" v="infrastruktur" />
		<tag k="ssr:stedsnr" v="607367" />
		<tag k="ssr:type" v="fyrlykt" />
	</node>
	<node id="-6305" lat="59.2169680308" lon="10.9376449023">
		<tag k="name" v="Alvheim" />
		<tag k="ssr:date" v="2019-05-31" />
		<tag k="ssr:gruppe" v="veg" />
		<tag k="ssr:hovedgruppe" v="infrastruktur" />
		<tag k="ssr:stedsnr" v="1059337" />
		<tag k="ssr:type" v="adressenavn" />
	</node>
	<node id="-7067" lat="59.1434849484" lon="10.9676902501">
		<tag k="name" v="Kalkegrunnen lykt" />
		<tag k="ssr:date" v="2018-08-28" />
		<tag k="ssr:gruppe" v="navigasjon" />
		<tag k="ssr:hovedgruppe" v="infrastruktur" />
		<tag k="ssr:stedsnr" v="539878" />
		<tag k="ssr:type" v="fyrlykt" />
	</node>
	<node id="-7066" lat="59.1188333374" lon="11.0123972293">
		<tag k="alt_name" v="Ramsøy v side" />
		<tag k="name" v="Vestre Ramsøy lykt" />
		<tag k="ssr:date" v="2016-10-31" />
		<tag k="ssr:gruppe" v="navigasjon" />
		<tag k="ssr:hovedgruppe" v="infrastruktur" />
		<tag k="ssr:stedsnr" v="539869" />
		<tag k="ssr:type" v="fyrlykt" />
	</node>
	<node id="-6425" lat="59.1361684981" lon="10.9662115098">
		<tag k="name" v="Belgen lykt" />
		<tag k="ssr:date" v="2019-02-04" />
		<tag k="ssr:gruppe" v="navigasjon" />
		<tag k="ssr:hovedgruppe" v="infrastruktur" />
		<tag k="ssr:stedsnr" v="2718" />
		<tag k="ssr:type" v="fyrlykt" />
	</node>
	<node id="-6295" lat="59.1538027818" lon="10.9496027835">
		<tag k="name" v="Tømmerhella lykt" />
		<tag k="ssr:date" v="2016-05-10" />
		<tag k="ssr:gruppe" v="navigasjon" />
		<tag k="ssr:hovedgruppe" v="infrastruktur" />
		<tag k="ssr:stedsnr" v="236811" />
		<tag k="ssr:type" v="fyrlykt" />
	</node>
	<node id="-6377" lat="59.2136491091" lon="10.7822055548">
		<tag k="name" v="Hankø" />
		<tag k="ssr:date" v="2019-05-30" />
		<tag k="ssr:gruppe" v="veg" />
		<tag k="ssr:hovedgruppe" v="infrastruktur" />
		<tag k="ssr:stedsnr" v="995660" />
		<tag k="ssr:type" v="adressenavn" />
	</node>
	<node id="-6284" lat="59.2539055571" lon="10.703875004">
		<tag k="name" v="Veslekalv lykt" />
		<tag k="ssr:date" v="2016-05-10" />
		<tag k="ssr:gruppe" v="navigasjon" />
		<tag k="ssr:hovedgruppe" v="infrastruktur" />
		<tag k="ssr:stedsnr" v="367663" />
		<tag k="ssr:type" v="fyrlykt" />
	</node>
	<node id="-6539" lat="59.2151777797" lon="10.9256833334">
		<tag k="alt_name" v="Korsepynten, Øvre" />
		<tag k="name" v="Øvre Korsepynten" />
		<tag k="ssr:date" v="2016-05-10" />
		<tag k="ssr:gruppe" v="navigasjon" />
		<tag k="ssr:hovedgruppe" v="infrastruktur" />
		<tag k="ssr:stedsnr" v="67855" />
		<tag k="ssr:type" v="fyrlykt" />
	</node>
	<node id="-7303" lat="59.1354416656" lon="10.9321805593">
		<tag k="name" v="Håholmbåen lykt" />
		<tag k="ssr:date" v="2016-05-10" />
		<tag k="ssr:gruppe" v="navigasjon" />
		<tag k="ssr:hovedgruppe" v="infrastruktur" />
		<tag k="ssr:stedsnr" v="661809" />
		<tag k="ssr:type" v="fyrlykt" />
	</node>
	<node id="-6660" lat="59.1795777734" lon="10.8724361176">
		<tag k="name" v="Gåsungene lykt" />
		<tag k="ssr:date" v="2016-05-10" />
		<tag k="ssr:gruppe" v="navigasjon" />
		<tag k="ssr:hovedgruppe" v="infrastruktur" />
		<tag k="ssr:stedsnr" v="175055" />
		<tag k="ssr:type" v="fyrlykt" />
	</node>
	<node id="-7043" lat="59.1394944421" lon="10.8892305561">
		<tag k="alt_name" v="Stangeskjær" />
		<tag k="name" v="Stangeskjær lykt" />
		<tag k="ssr:date" v="2016-05-10" />
		<tag k="ssr:gruppe" v="navigasjon" />
		<tag k="ssr:hovedgruppe" v="infrastruktur" />
		<tag k="ssr:stedsnr" v="488718" />
		<tag k="ssr:type" v="fyrlykt" />
	</node>
	<node id="-6251" lat="59.118053001" lon="10.740702801">
		<tag k="alt_name" v="Struten;Struten lykt" />
		<tag k="name" v="Struten fyr" />
		<tag k="ssr:date" v="2018-08-29" />
		<tag k="ssr:gruppe" v="navigasjon" />
		<tag k="ssr:hovedgruppe" v="infrastruktur" />
		<tag k="ssr:stedsnr" v="365702" />
		<tag k="ssr:type" v="fyrstasjon" />
	</node>
</osm>
