<?xml version="1.0" encoding="UTF-8"?>
<osm generator="osmapis" version="0.6">
	<node id="-528896" lat="61.2858357413" lon="5.48554902937">
		<tag k="name" v="Ulvdalsvatnet" />
		<tag k="natural" v="water" />
		<tag k="ssr:stedsnr" v="554132" />
	</node>
	<node id="-529405" lat="61.2956666699" lon="5.3316944517">
		<tag k="name" v="Botnatjørna" />
		<tag k="natural" v="water" />
		<tag k="ssr:stedsnr" v="796417" />
	</node>
	<node id="-528379" lat="61.2676694475" lon="5.61035556344">
		<tag k="name" v="Auvotna" />
		<tag k="natural" v="water" />
		<tag k="ssr:stedsnr" v="189173" />
	</node>
	<node id="-528378" lat="61.2796833318" lon="5.00735277727">
		<tag k="name" v="Litlevatnet" />
		<tag k="natural" v="water" />
		<tag k="ssr:stedsnr" v="189110" />
	</node>
	<node id="-528468" lat="61.3146611096" lon="5.26428611057">
		<tag k="name" v="Tyssekvamneset" />
		<tag k="natural" v="cape" />
		<tag k="ssr:stedsnr" v="215672" />
	</node>
	<node id="-529065" lat="61.3725527789" lon="5.48899165854">
		<tag k="name" v="Øyra" />
		<tag k="natural" v="cape" />
		<tag k="ssr:stedsnr" v="639985" />
	</node>
	<node id="-527860" lat="61.2460195391" lon="5.43469095143">
		<tag k="name" v="Langekastet" />
		<tag k="natural" v="bay" />
		<tag k="ssr:stedsnr" v="397619" />
	</node>
	<node id="-527852" lat="61.3212888919" lon="5.44423054615">
		<tag k="name" v="Myklebustvatnet" />
		<tag k="natural" v="water" />
		<tag k="ssr:stedsnr" v="397539" />
		<tag k="water" v="lake" />
	</node>
	<node id="-529387" lat="61.304105555" lon="5.47486665955">
		<tag k="alt_name" v="Skarsvatn" />
		<tag k="name" v="Skardsvatnet" />
		<tag k="natural" v="water" />
		<tag k="ssr:stedsnr" v="796100" />
	</node>
	<node id="-528295" lat="61.3499305543" lon="5.40238611473">
		<tag k="alt_name" v="Storeelva" />
		<tag k="name" v="Storelva" />
		<tag k="ssr:stedsnr" v="130674" />
		<tag k="waterway" v="river" />
	</node>
	<node id="-528872" lat="61.3335444443" lon="5.41549722607">
		<tag k="name" v="Hålandstjørna" />
		<tag k="natural" v="water" />
		<tag k="ssr:stedsnr" v="553279" />
	</node>
	<node id="-529383" lat="61.3203524269" lon="5.59526872322">
		<tag k="alt_name" v="Avkrokvatnet" />
		<tag k="name" v="Avkrokevatnet" />
		<tag k="natural" v="water" />
		<tag k="ssr:stedsnr" v="796060" />
	</node>
	<node id="-527843" lat="61.2742888892" lon="5.6677388972">
		<tag k="name" v="Sandvika" />
		<tag k="natural" v="bay" />
		<tag k="ssr:stedsnr" v="396869" />
	</node>
	<node id="-528865" lat="61.3122861088" lon="5.54807778597">
		<tag k="name" v="Steiestølselva" />
		<tag k="ssr:stedsnr" v="553133" />
		<tag k="waterway" v="stream" />
	</node>
	<node id="-528864" lat="61.3058504914" lon="5.53614065321">
		<tag k="name" v="Furebotntjørna" />
		<tag k="natural" v="water" />
		<tag k="ssr:stedsnr" v="553134" />
	</node>
	<node id="-528862" lat="61.2996037553" lon="5.60877779654">
		<tag k="name" v="Namnlausvatna" />
		<tag k="natural" v="water" />
		<tag k="ssr:stedsnr" v="553099" />
		<tag k="water" v="lake" />
	</node>
	<node id="-528861" lat="61.2993835305" lon="5.56403768408">
		<tag k="name" v="Djupevatnet" />
		<tag k="natural" v="water" />
		<tag k="ssr:stedsnr" v="553096" />
	</node>
	<node id="-528860" lat="61.2570388892" lon="4.9672833404">
		<tag k="name" v="Langevatnet" />
		<tag k="natural" v="water" />
		<tag k="ssr:stedsnr" v="553095" />
	</node>
	<node id="-528347" lat="61.2465805521" lon="5.55004444501">
		<tag k="name" v="Øyrafossen" />
		<tag k="natural" v="waterfall" />
		<tag k="ssr:stedsnr" v="154962" />
	</node>
	<node id="-528346" lat="61.2365527772" lon="5.57127221889">
		<tag k="name" v="Vieneset" />
		<tag k="natural" v="cape" />
		<tag k="ssr:stedsnr" v="154960" />
	</node>
	<node id="-527833" lat="61.2093222257" lon="5.63827500673">
		<tag k="name" v="Krokevatnet" />
		<tag k="natural" v="water" />
		<tag k="ssr:stedsnr" v="373801" />
	</node>
	<node id="-527831" lat="61.209627781" lon="5.63895278021">
		<tag k="name" v="Fjellsendetjørna" />
		<tag k="natural" v="water" />
		<tag k="ssr:stedsnr" v="373760" />
	</node>
	<node id="-527830" lat="61.2181333336" lon="5.62649166623">
		<tag k="name" v="Storevatnet" />
		<tag k="natural" v="water" />
		<tag k="ssr:stedsnr" v="373761" />
	</node>
	<node id="-528853" lat="61.2518833367" lon="5.40039166896">
		<tag k="name" v="Flekke- og Guddalsvassdraget" />
		<tag k="natural" v="water" />
		<tag k="ssr:stedsnr" v="532788" />
		<tag k="water" v="lake" />
	</node>
	<node id="-529363" lat="61.2713666673" lon="5.66577222395">
		<tag k="name" v="Stølsneset" />
		<tag k="natural" v="cape" />
		<tag k="ssr:stedsnr" v="761907" />
	</node>
	<node id="-529362" lat="61.1891055514" lon="5.59449721666">
		<tag k="name" v="Bogeelva" />
		<tag k="ssr:stedsnr" v="761904" />
		<tag k="waterway" v="river" />
	</node>
	<node id="-527825" lat="61.278419448" lon="5.30483889348">
		<tag k="name" v="Kusæltjørna" />
		<tag k="natural" v="water" />
		<tag k="ssr:stedsnr" v="372612" />
	</node>
	<node id="-529360" lat="61.2890305522" lon="5.16672777487">
		<tag k="name" v="Lonelona" />
		<tag k="natural" v="water" />
		<tag k="ssr:stedsnr" v="761763" />
		<tag k="water" v="lake" />
	</node>
	<node id="-527608" lat="61.3236027754" lon="5.45923055068">
		<tag k="name" v="Engingsneset" />
		<tag k="natural" v="cape" />
		<tag k="ssr:stedsnr" v="275972" />
	</node>
	<node id="-527821" lat="61.2854388866" lon="5.13417777894">
		<tag k="alt_name" v="Grønelva" />
		<tag k="name" v="Grøneelva" />
		<tag k="ssr:stedsnr" v="372428" />
		<tag k="waterway" v="stream" />
	</node>
	<node id="-528802" lat="61.2431527757" lon="5.53966388531">
		<tag k="name" v="Vaulevatnet" />
		<tag k="natural" v="water" />
		<tag k="ssr:stedsnr" v="495963" />
	</node>
	<node id="-528841" lat="61.2851888882" lon="4.99683333226">
		<tag k="name" v="Vikaskjeret" />
		<tag k="place" v="islet" />
		<tag k="ssr:stedsnr" v="519702" />
	</node>
	<node id="-529352" lat="61.3029694464" lon="5.28765555236">
		<tag k="name" v="Nordavikneset" />
		<tag k="natural" v="cape" />
		<tag k="ssr:stedsnr" v="761675" />
	</node>
	<node id="-527814" lat="61.2797777767" lon="5.53831945194">
		<tag k="name" v="Kvernavatnet" />
		<tag k="natural" v="water" />
		<tag k="ssr:stedsnr" v="372186" />
	</node>
	<node id="-528323" lat="61.2170222204" lon="5.56736110455">
		<tag k="name" v="Anderslona" />
		<tag k="ssr:stedsnr" v="154619" />
		<tag k="waterway" v="river" />
	</node>
	<node id="-528429" lat="61.2557888885" lon="5.29141666222">
		<tag k="alt_name" v="Dyrestitjørna" />
		<tag k="name" v="Dyrestigtjørna" />
		<tag k="natural" v="water" />
		<tag k="ssr:stedsnr" v="190533" />
	</node>
	<node id="-528833" lat="61.3008777744" lon="5.29836666678">
		<tag k="name" v="Storevikneset" />
		<tag k="natural" v="cape" />
		<tag k="ssr:stedsnr" v="519648" />
	</node>
	<node id="-528832" lat="61.2987722262" lon="5.27318889372">
		<tag k="name" v="Sandvikneset" />
		<tag k="natural" v="cape" />
		<tag k="ssr:stedsnr" v="519643" />
	</node>
	<node id="-527807" lat="61.2896111122" lon="5.41199443958">
		<tag k="alt_name" v="Langevatn" />
		<tag k="name" v="Langevatna" />
		<tag k="natural" v="water" />
		<tag k="ssr:stedsnr" v="371602" />
	</node>
	<node id="-527804" lat="61.268378578" lon="5.363870973">
		<tag k="name" v="Hovlandsvatnet" />
		<tag k="natural" v="water" />
		<tag k="ssr:stedsnr" v="371560" />
		<tag k="water" v="lake" />
	</node>
	<node id="-528799" lat="61.2434805576" lon="5.68720000326">
		<tag k="alt_name" v="Skredvatn" />
		<tag k="name" v="Skredvatnet" />
		<tag k="natural" v="water" />
		<tag k="ssr:stedsnr" v="495944" />
	</node>
	<node id="-529334" lat="61.2057249988" lon="5.53220834047">
		<tag k="name" v="Ingebrikttjørna" />
		<tag k="natural" v="water" />
		<tag k="ssr:stedsnr" v="737802" />
	</node>
	<node id="-528308" lat="61.2681" lon="5.05318055122">
		<tag k="name" v="Stegelva" />
		<tag k="ssr:stedsnr" v="154308" />
		<tag k="waterway" v="river" />
	</node>
	<node id="-527795" lat="61.3078500021" lon="5.34378332996">
		<tag k="name" v="Fløsjøen" />
		<tag k="natural" v="water" />
		<tag k="ssr:stedsnr" v="371468" />
	</node>
	<node id="-527790" lat="61.2947166663" lon="5.30004445108">
		<tag k="alt_name" v="Jyttavatnet" />
		<tag k="fixme" v="multiple name tags, choose one and add the other to alt_name" />
		<tag k="name" v="Fuglevatnet;Gyttavatnet" />
		<tag k="natural" v="water" />
		<tag k="ssr:stedsnr" v="371372" />
		<tag k="water" v="lake" />
	</node>
	<node id="-528301" lat="61.2460666647" lon="5.56342221874">
		<tag k="name" v="Fjelletjørna" />
		<tag k="natural" v="water" />
		<tag k="ssr:stedsnr" v="130959" />
	</node>
	<node id="-529138" lat="61.2795361146" lon="5.57871388625">
		<tag k="name" v="Svelandstjørna" />
		<tag k="natural" v="water" />
		<tag k="ssr:stedsnr" v="675210" />
	</node>
	<node id="-528297" lat="61.1939555547" lon="5.6118388946">
		<tag k="alt_name" v="Røyrbotnvatnet" />
		<tag k="name" v="Botnavatnet" />
		<tag k="natural" v="water" />
		<tag k="ssr:stedsnr" v="130751" />
	</node>
	<node id="-529319" lat="61.2756416643" lon="5.17393611725">
		<tag k="alt_name" v="Botnatjørna, s;Søre - Botnatjønna" />
		<tag k="name" v="Søre Botnatjørna" />
		<tag k="natural" v="water" />
		<tag k="ssr:stedsnr" v="736581" />
	</node>
	<node id="-529318" lat="61.2548082749" lon="5.36914291295">
		<tag k="name" v="Hovlandstjørna" />
		<tag k="natural" v="water" />
		<tag k="ssr:stedsnr" v="736531" />
	</node>
	<node id="-527778" lat="61.3269555275" lon="5.34758684549">
		<tag k="loc_name" v="Igeltjern" />
		<tag k="name" v="Igeltjørna" />
		<tag k="natural" v="water" />
		<tag k="ssr:stedsnr" v="371266" />
	</node>
	<node id="-528800" lat="61.2417416705" lon="5.62940834144">
		<tag k="alt_name" v="Storelva" />
		<tag k="name" v="Guddalselva" />
		<tag k="ssr:stedsnr" v="495946" />
		<tag k="waterway" v="river" />
	</node>
	<node id="-529311" lat="61.2963583345" lon="5.4474027842">
		<tag k="name" v="Grønelifossen" />
		<tag k="natural" v="waterfall" />
		<tag k="ssr:stedsnr" v="736405" />
	</node>
	<node id="-528286" lat="61.2517222241" lon="5.31548333774">
		<tag k="name" v="Litletjørna" />
		<tag k="natural" v="water" />
		<tag k="ssr:stedsnr" v="129529" />
	</node>
	<node id="-528796" lat="61.221219442" lon="5.58957222535">
		<tag k="name" v="Hundegrova" />
		<tag k="ssr:stedsnr" v="494990" />
		<tag k="waterway" v="stream" />
	</node>
	<node id="-528795" lat="61.2437944439" lon="5.47705556415">
		<tag k="name" v="Storevika" />
		<tag k="natural" v="bay" />
		<tag k="ssr:stedsnr" v="494917" />
	</node>
	<node id="-529218" lat="61.2573861066" lon="4.97380554717">
		<tag k="name" v="Kvernhuselva" />
		<tag k="ssr:stedsnr" v="700934" />
		<tag k="waterway" v="river" />
	</node>
	<node id="-528279" lat="61.2953749966" lon="5.28188333904">
		<tag k="name" v="Eikevika" />
		<tag k="natural" v="bay" />
		<tag k="ssr:stedsnr" v="129390" />
	</node>
	<node id="-527766" lat="61.2601638875" lon="5.05101111943">
		<tag k="alt_name" v="Sudgardsvatnet;Sørgardstjørnet" />
		<tag k="name" v="Sørgardsvatnet" />
		<tag k="natural" v="water" />
		<tag k="ssr:stedsnr" v="371098" />
	</node>
	<node id="-527764" lat="61.32380278" lon="5.54826943717">
		<tag k="name" v="Langevatnet" />
		<tag k="natural" v="water" />
		<tag k="ssr:stedsnr" v="371071" />
	</node>
	<node id="-527763" lat="61.3207982934" lon="5.61729094642">
		<tag k="name" v="Trollevatnet" />
		<tag k="natural" v="water" />
		<tag k="ssr:stedsnr" v="371054" />
	</node>
	<node id="-528786" lat="61.2755416682" lon="5.16638056228">
		<tag k="name" v="Eidet" />
		<tag k="natural" v="strait" />
		<tag k="ssr:stedsnr" v="493622" />
	</node>
	<node id="-527761" lat="61.3450944453" lon="5.48430834199">
		<tag k="alt_name" v="Nyksdalstjørna" />
		<tag k="name" v="Nykksdalstjørna" />
		<tag k="natural" v="water" />
		<tag k="ssr:stedsnr" v="371005" />
	</node>
	<node id="-529295" lat="61.2968519738" lon="5.64644739935">
		<tag k="name" v="Gaddevatnet" />
		<tag k="natural" v="water" />
		<tag k="ssr:stedsnr" v="736147" />
	</node>
	<node id="-528269" lat="61.2831138903" lon="5.22563889108">
		<tag k="alt_name" v="Grønstalitjørna" />
		<tag k="name" v="Grønstadlitjørna" />
		<tag k="natural" v="water" />
		<tag k="ssr:stedsnr" v="129432" />
	</node>
	<node id="-528779" lat="61.2504666706" lon="5.39547776912">
		<tag k="name" v="Nautsundet" />
		<tag k="natural" v="strait" />
		<tag k="ssr:stedsnr" v="493510" />
	</node>
	<node id="-527754" lat="61.3643555542" lon="5.48603888587">
		<tag k="name" v="Strandaelva" />
		<tag k="ssr:stedsnr" v="356270" />
		<tag k="waterway" v="river" />
	</node>
	<node id="-528265" lat="61.2794777772" lon="5.16050834033">
		<tag k="alt_name" v="Veslevatnet" />
		<tag k="name" v="Litlevatnet" />
		<tag k="natural" v="water" />
		<tag k="ssr:stedsnr" v="129407" />
	</node>
	<node id="-528776" lat="61.3103527772" lon="5.32954999749">
		<tag k="alt_name" v="Dyttingstjørna" />
		<tag k="name" v="Dyttingetjerna" />
		<tag k="natural" v="water" />
		<tag k="ssr:stedsnr" v="493448" />
	</node>
	<node id="-528775" lat="61.3132305565" lon="5.29537499814">
		<tag k="alt_name" v="Småtjørna" />
		<tag k="name" v="Småtjørnane" />
		<tag k="natural" v="water" />
		<tag k="ssr:stedsnr" v="493443" />
	</node>
	<node id="-529284" lat="61.329752775" lon="5.26730834128">
		<tag k="name" v="Botnatjørna" />
		<tag k="natural" v="water" />
		<tag k="ssr:stedsnr" v="735271" />
	</node>
	<node id="-528258" lat="61.2741999988" lon="5.52724722581">
		<tag k="name" v="Lona" />
		<tag k="place" v="locality" />
		<tag k="ssr:stedsnr" v="129185" />
	</node>
	<node id="-529280" lat="61.2695750013" lon="5.55971666586">
		<tag k="name" v="Kjerringelva" />
		<tag k="ssr:stedsnr" v="735196" />
		<tag k="waterway" v="stream" />
	</node>
	<node id="-528254" lat="61.3010972246" lon="5.25891110445">
		<tag k="name" v="Neset" />
		<tag k="natural" v="cape" />
		<tag k="ssr:stedsnr" v="128479" />
	</node>
	<node id="-528763" lat="61.2892944459" lon="5.13486667217">
		<tag k="alt_name" v="Sagaelva" />
		<tag k="name" v="Sagelva" />
		<tag k="ssr:stedsnr" v="493363" />
		<tag k="waterway" v="stream" />
	</node>
	<node id="-528250" lat="61.2925694482" lon="5.10573333332">
		<tag k="alt_name" v="Håvågelva" />
		<tag k="name" v="Håvågselva" />
		<tag k="ssr:stedsnr" v="128354" />
		<tag k="waterway" v="stream" />
	</node>
	<node id="-527935" lat="61.2821194473" lon="4.98302500537">
		<tag k="name" v="Hemreselva" />
		<tag k="ssr:stedsnr" v="883752" />
		<tag k="waterway" v="river" />
	</node>
	<node id="-529269" lat="61.2914527754" lon="5.44305554963">
		<tag k="name" v="Saukerstjørna" />
		<tag k="natural" v="water" />
		<tag k="ssr:stedsnr" v="736610" />
	</node>
	<node id="-527732" lat="61.3031805561" lon="5.25656110442">
		<tag k="name" v="Brendeholmen" />
		<tag k="place" v="islet" />
		<tag k="ssr:stedsnr" v="337621" />
	</node>
	<node id="-528394" lat="61.3470166652" lon="5.51493055611">
		<tag k="name" v="Skodalstjørna" />
		<tag k="natural" v="water" />
		<tag k="ssr:stedsnr" v="190010" />
	</node>
	<node id="-527730" lat="61.3051694452" lon="5.25655833402">
		<tag k="name" v="Løykeneset" />
		<tag k="natural" v="cape" />
		<tag k="ssr:stedsnr" v="337614" />
	</node>
	<node id="-528752" lat="61.2585694422" lon="5.67798333134">
		<tag k="name" v="Hyttefossen" />
		<tag k="natural" v="waterfall" />
		<tag k="ssr:stedsnr" v="493255" />
	</node>
	<node id="-528341" lat="61.2739861142" lon="5.65742777993">
		<tag k="name" v="Langeneset" />
		<tag k="natural" v="cape" />
		<tag k="ssr:stedsnr" v="154898" />
	</node>
	<node id="-528750" lat="61.263136112" lon="5.5780000058">
		<tag k="name" v="Kalstadvatnet" />
		<tag k="natural" v="water" />
		<tag k="ssr:stedsnr" v="493200" />
	</node>
	<node id="-529261" lat="61.3128472228" lon="5.46628610259">
		<tag k="name" v="Bjørndalselva" />
		<tag k="ssr:stedsnr" v="701948" />
		<tag k="waterway" v="river" />
	</node>
	<node id="-527724" lat="61.2284722238" lon="5.40715556312">
		<tag k="name" v="Okslatjørna" />
		<tag k="natural" v="water" />
		<tag k="ssr:stedsnr" v="337569" />
	</node>
	<node id="-527762" lat="61.3454277803" lon="5.49463610642">
		<tag k="name" v="Norddalsvatnet" />
		<tag k="natural" v="water" />
		<tag k="ssr:stedsnr" v="371009" />
	</node>
	<node id="-527721" lat="61.3622611125" lon="5.39562500846">
		<tag k="name" v="Dalselva" />
		<tag k="ssr:stedsnr" v="337547" />
		<tag k="waterway" v="river" />
	</node>
	<node id="-529125" lat="61.3478916687" lon="5.54565000288">
		<tag k="name" v="Ivartjørna" />
		<tag k="natural" v="water" />
		<tag k="ssr:stedsnr" v="675006" />
	</node>
	<node id="-529212" lat="61.1952416698" lon="5.59200277091">
		<tag k="name" v="Strifossen" />
		<tag k="natural" v="waterfall" />
		<tag k="ssr:stedsnr" v="700881" />
	</node>
	<node id="-528349" lat="61.3737250028" lon="5.48246666102">
		<tag k="name" v="Klubben" />
		<tag k="natural" v="cape" />
		<tag k="ssr:stedsnr" v="154978" />
	</node>
	<node id="-527717" lat="61.2678638922" lon="4.98391944844">
		<tag k="name" v="Kvernhuselva" />
		<tag k="ssr:stedsnr" v="337249" />
		<tag k="waterway" v="river" />
	</node>
	<node id="-527716" lat="61.2533388915" lon="4.99067776867">
		<tag k="alt_name" v="Korssund-holet" />
		<tag k="name" v="Korssundholet" />
		<tag k="natural" v="strait" />
		<tag k="ssr:stedsnr" v="337242" />
	</node>
	<node id="-528227" lat="61.2954083346" lon="5.09061388531">
		<tag k="name" v="Snekkevågelva" />
		<tag k="ssr:stedsnr" v="94733" />
		<tag k="waterway" v="river" />
	</node>
	<node id="-527714" lat="61.2271888898" lon="5.58604167281">
		<tag k="name" v="Bukkepøyla" />
		<tag k="place" v="locality" />
		<tag k="ssr:stedsnr" v="337000" />
	</node>
	<node id="-528225" lat="61.2919972244" lon="5.06438056405">
		<tag k="name" v="Otreelva" />
		<tag k="ssr:stedsnr" v="94730" />
		<tag k="waterway" v="river" />
	</node>
	<node id="-529248" lat="61.2884722252" lon="5.28334444709">
		<tag k="name" v="Storegrova" />
		<tag k="ssr:stedsnr" v="701694" />
		<tag k="waterway" v="stream" />
	</node>
	<node id="-528223" lat="61.3025861092" lon="5.32790554664">
		<tag k="name" v="Bakketjørna" />
		<tag k="natural" v="water" />
		<tag k="ssr:stedsnr" v="94704" />
	</node>
	<node id="-529245" lat="61.3081194473" lon="5.25898056201">
		<tag k="name" v="Kjøneset" />
		<tag k="natural" v="cape" />
		<tag k="ssr:stedsnr" v="701647" />
	</node>
	<node id="-528220" lat="61.2565194417" lon="5.30793610701">
		<tag k="name" v="Selda" />
		<tag k="ssr:stedsnr" v="94681" />
		<tag k="waterway" v="stream" />
	</node>
	<node id="-528731" lat="61.2654250032" lon="5.36763055244">
		<tag k="name" v="Stutteneset" />
		<tag k="natural" v="cape" />
		<tag k="ssr:stedsnr" v="493573" />
	</node>
	<node id="-529242" lat="61.237491668" lon="5.42219167269">
		<tag k="name" v="Synninga" />
		<tag k="natural" v="bay" />
		<tag k="ssr:stedsnr" v="701614" />
	</node>
	<node id="-529241" lat="61.2456916672" lon="5.42634445282">
		<tag k="name" v="Djupevik" />
		<tag k="natural" v="bay" />
		<tag k="ssr:stedsnr" v="701615" />
	</node>
	<node id="-528214" lat="61.2684472191" lon="5.3566305474">
		<tag k="name" v="Lianeset" />
		<tag k="natural" v="cape" />
		<tag k="ssr:stedsnr" v="94651" />
	</node>
	<node id="-528725" lat="61.2377769556" lon="5.55831792364">
		<tag k="name" v="Langevatnet" />
		<tag k="natural" v="water" />
		<tag k="ssr:stedsnr" v="458959" />
		<tag k="water" v="lake" />
	</node>
	<node id="-527965" lat="61.2629138932" lon="5.62003055686">
		<tag k="alt_name" v="Grøvletjørna" />
		<tag k="name" v="Gryvletjørna" />
		<tag k="natural" v="water" />
		<tag k="ssr:stedsnr" v="7193" />
	</node>
	<node id="-528722" lat="61.279749999" lon="5.09563889571">
		<tag k="name" v="Brendåstjørna" />
		<tag k="natural" v="water" />
		<tag k="ssr:stedsnr" v="458761" />
	</node>
	<node id="-529039" lat="61.2636861128" lon="5.36143054733">
		<tag k="name" v="Langeneset" />
		<tag k="natural" v="cape" />
		<tag k="ssr:stedsnr" v="615681" />
	</node>
	<node id="-529232" lat="61.313658332" lon="5.45140555538">
		<tag k="name" v="Bjordalselva" />
		<tag k="ssr:stedsnr" v="701562" />
		<tag k="waterway" v="river" />
	</node>
	<node id="-529671" lat="61.2078555563" lon="5.45961945045">
		<tag k="name" v="Langevatnet" />
		<tag k="natural" v="water" />
		<tag k="ssr:stedsnr" v="919650" />
		<tag k="water" v="lake" />
	</node>
	<node id="-528013" lat="61.2616805584" lon="5.68392222468">
		<tag k="name" v="Øyvatna" />
		<tag k="natural" v="water" />
		<tag k="ssr:stedsnr" v="8250" />
	</node>
	<node id="-527691" lat="61.2907722178" lon="5.37035554803">
		<tag k="name" v="Heggevika" />
		<tag k="natural" v="bay" />
		<tag k="ssr:stedsnr" v="311652" />
	</node>
	<node id="-527690" lat="61.2806749977" lon="5.28827222553">
		<tag k="name" v="Sollitjørna" />
		<tag k="natural" v="water" />
		<tag k="ssr:stedsnr" v="311644" />
	</node>
	<node id="-527671" lat="61.291930555" lon="5.33470833249">
		<tag k="alt_name" v="Botnatjørna" />
		<tag k="name" v="Småtjørna" />
		<tag k="natural" v="water" />
		<tag k="ssr:stedsnr" v="311465" />
	</node>
	<node id="-528631" lat="61.3014666662" lon="5.26329167125">
		<tag k="name" v="Svartevika" />
		<tag k="natural" v="bay" />
		<tag k="ssr:stedsnr" v="432469" />
	</node>
	<node id="-528710" lat="61.2670972268" lon="5.35740000548">
		<tag k="name" v="Smørvik" />
		<tag k="natural" v="bay" />
		<tag k="ssr:stedsnr" v="458671" />
	</node>
	<node id="-527841" lat="61.2319194432" lon="5.66172221422">
		<tag k="name" v="Sørebøfossen" />
		<tag k="natural" v="waterfall" />
		<tag k="ssr:stedsnr" v="373999" />
	</node>
	<node id="-527683" lat="61.257421617" lon="5.43261196245">
		<tag k="name" v="Bjordalstjørna" />
		<tag k="natural" v="water" />
		<tag k="ssr:stedsnr" v="311567" />
	</node>
	<node id="-527682" lat="61.2519316299" lon="5.4420095617">
		<tag k="alt_name" v="Dyttingetjørn" />
		<tag k="name" v="Dyttingetjørna" />
		<tag k="natural" v="water" />
		<tag k="ssr:stedsnr" v="311564" />
	</node>
	<node id="-529584" lat="61.3255653378" lon="5.4881913972">
		<tag k="alt_name" v="Storeelva" />
		<tag k="name" v="Storelva" />
		<tag k="ssr:stedsnr" v="858569" />
		<tag k="waterway" v="river" />
	</node>
	<node id="-527680" lat="61.2510416685" lon="5.41350556087">
		<tag k="alt_name" v="Noreide" />
		<tag k="name" v="Nordeidet" />
		<tag k="natural" v="strait" />
		<tag k="ssr:stedsnr" v="311560" />
	</node>
	<node id="-527840" lat="61.232233333" lon="5.53114999983">
		<tag k="name" v="Lona" />
		<tag k="place" v="locality" />
		<tag k="ssr:stedsnr" v="373996" />
	</node>
	<node id="-528190" lat="61.3407388907" lon="5.55320000727">
		<tag k="name" v="Tverrlielva" />
		<tag k="ssr:stedsnr" v="93960" />
		<tag k="waterway" v="river" />
	</node>
	<node id="-527676" lat="61.3027333326" lon="5.35007776872">
		<tag k="name" v="Rennestraumsvatnet" />
		<tag k="natural" v="water" />
		<tag k="ssr:stedsnr" v="311527" />
	</node>
	<node id="-528271" lat="61.2814694451" lon="5.16795278388">
		<tag k="name" v="Vassenden" />
		<tag k="place" v="locality" />
		<tag k="ssr:stedsnr" v="129441" />
	</node>
	<node id="-529719" lat="61.2877722216" lon="5.05116389502">
		<tag k="name" v="Langesjøen" />
		<tag k="natural" v="water" />
		<tag k="ssr:stedsnr" v="944696" />
		<tag k="water" v="lake" />
	</node>
	<node id="-529023" lat="61.3072166692" lon="5.28339999239">
		<tag k="alt_name" v="Bogevika" />
		<tag k="name" v="Bugevika" />
		<tag k="natural" v="bay" />
		<tag k="ssr:stedsnr" v="614495" />
	</node>
	<node id="-529714" lat="61.2971194427" lon="5.25420834062">
		<tag k="name" v="Løyken" />
		<tag k="natural" v="bay" />
		<tag k="ssr:stedsnr" v="944651" />
	</node>
	<node id="-528176" lat="61.1999166639" lon="5.59268611138">
		<tag k="name" v="Svartefossvatnet" />
		<tag k="natural" v="water" />
		<tag k="ssr:stedsnr" v="70783" />
	</node>
	<node id="-528264" lat="61.2547916639" lon="5.70912500811">
		<tag k="alt_name" v="Skredvatnet, inste" />
		<tag k="name" v="Inste Skredvatnet" />
		<tag k="natural" v="water" />
		<tag k="ssr:stedsnr" v="129250" />
	</node>
	<node id="-527837" lat="61.24241389" lon="5.50088332994">
		<tag k="name" v="Dauremålselva" />
		<tag k="ssr:stedsnr" v="373970" />
		<tag k="waterway" v="stream" />
	</node>
	<node id="-528178" lat="61.1882305599" lon="5.57049166831">
		<tag k="name" v="Storevatnet" />
		<tag k="natural" v="water" />
		<tag k="ssr:stedsnr" v="70825" />
	</node>
	<node id="-529194" lat="61.2845388885" lon="5.3437333295">
		<tag k="name" v="Sandvika" />
		<tag k="natural" v="bay" />
		<tag k="ssr:stedsnr" v="676694" />
	</node>
	<node id="-529192" lat="61.2490738583" lon="5.42497601685">
		<tag k="name" v="Storåstjørna" />
		<tag k="natural" v="water" />
		<tag k="ssr:stedsnr" v="676398" />
	</node>
	<node id="-528348" lat="61.281047218" lon="5.51910832561">
		<tag k="name" v="Tverrelva" />
		<tag k="ssr:stedsnr" v="154965" />
		<tag k="waterway" v="river" />
	</node>
	<node id="-527652" lat="61.2784388913" lon="5.59838334019">
		<tag k="name" v="Krokevatnet" />
		<tag k="natural" v="water" />
		<tag k="ssr:stedsnr" v="311264" />
	</node>
	<node id="-529187" lat="61.3603527819" lon="5.54755277234">
		<tag k="name" v="Bjørvikelva" />
		<tag k="ssr:stedsnr" v="675896" />
		<tag k="waterway" v="stream" />
	</node>
	<node id="-527650" lat="61.2687444449" lon="5.65182223118">
		<tag k="name" v="Steinsetvatnet" />
		<tag k="natural" v="water" />
		<tag k="ssr:stedsnr" v="311240" />
		<tag k="water" v="lake" />
	</node>
	<node id="-529182" lat="61.2810194473" lon="5.35176388045">
		<tag k="name" v="Hellebostfossen" />
		<tag k="natural" v="waterfall" />
		<tag k="ssr:stedsnr" v="675618" />
	</node>
	<node id="-527895" lat="61.2410861145" lon="5.6866194419">
		<tag k="name" v="Skredvassfoss" />
		<tag k="natural" v="waterfall" />
		<tag k="ssr:stedsnr" v="882880" />
	</node>
	<node id="-527929" lat="61.3405472262" lon="5.28088054821">
		<tag k="name" v="Fredensborgvatnet" />
		<tag k="natural" v="water" />
		<tag k="ssr:stedsnr" v="883712" />
		<tag k="water" v="lake" />
	</node>
	<node id="-529177" lat="61.266058334" lon="5.6558583319">
		<tag k="name" v="Langeneset" />
		<tag k="natural" v="cape" />
		<tag k="ssr:stedsnr" v="675571" />
	</node>
	<node id="-527748" lat="61.2354611093" lon="5.56858333943">
		<tag k="name" v="Boraviktjørna" />
		<tag k="natural" v="water" />
		<tag k="ssr:stedsnr" v="337949" />
	</node>
	<node id="-529173" lat="61.2585555529" lon="5.41180833036">
		<tag k="name" v="Tjørna" />
		<tag k="natural" v="water" />
		<tag k="ssr:stedsnr" v="675537" />
	</node>
	<node id="-527635" lat="61.238291669" lon="5.56404166541">
		<tag k="name" v="Stroka" />
		<tag k="ssr:stedsnr" v="276970" />
		<tag k="waterway" v="river" />
	</node>
	<node id="-528144" lat="61.2503833298" lon="5.38623332557">
		<tag k="name" v="Kyraneset" />
		<tag k="natural" v="cape" />
		<tag k="ssr:stedsnr" v="68557" />
	</node>
	<node id="-528088" lat="61.2430972235" lon="5.63533333657">
		<tag k="name" v="Svartefossen" />
		<tag k="natural" v="waterfall" />
		<tag k="ssr:stedsnr" v="33897" />
	</node>
	<node id="-529197" lat="61.249213893" lon="5.54213333385">
		<tag k="alt_name" v="Kallstadelva" />
		<tag k="name" v="Kalstadelva" />
		<tag k="ssr:stedsnr" v="676962" />
		<tag k="waterway" v="stream" />
	</node>
	<node id="-529676" lat="61.2491638848" lon="5.31163888547">
		<tag k="alt_name" v="Mørketjørna" />
		<tag k="name" v="Myrketjørna" />
		<tag k="natural" v="water" />
		<tag k="ssr:stedsnr" v="920351" />
	</node>
	<node id="-527746" lat="61.2483916648" lon="5.49888333941">
		<tag k="name" v="Yndestadhølen" />
		<tag k="place" v="locality" />
		<tag k="ssr:stedsnr" v="337937" />
	</node>
	<node id="-529673" lat="61.3204944455" lon="5.46343333472">
		<tag k="name" v="Sletteneset" />
		<tag k="natural" v="cape" />
		<tag k="ssr:stedsnr" v="919694" />
	</node>
	<node id="-527623" lat="61.2570361145" lon="5.37131667083">
		<tag k="name" v="Litletjørna" />
		<tag k="natural" v="water" />
		<tag k="ssr:stedsnr" v="276676" />
	</node>
	<node id="-528646" lat="61.2987777786" lon="5.44267500776">
		<tag k="name" v="Stongatjørna" />
		<tag k="natural" v="water" />
		<tag k="ssr:stedsnr" v="433388" />
	</node>
	<node id="-529025" lat="61.2986999985" lon="5.2613277694">
		<tag k="name" v="Langholmen" />
		<tag k="place" v="islet" />
		<tag k="ssr:stedsnr" v="614501" />
	</node>
	<node id="-528644" lat="61.2637527785" lon="5.52911111666">
		<tag k="alt_name" v="Storelva" />
		<tag k="name" v="Bogelva" />
		<tag k="ssr:stedsnr" v="433211" />
		<tag k="waterway" v="stream" />
	</node>
	<node id="-527798" lat="61.2534367253" lon="5.40797277469">
		<tag k="alt_name" v="Naustsundsvatnet" />
		<tag k="name" v="Nautsundvatnet" />
		<tag k="natural" v="water" />
		<tag k="ssr:stedsnr" v="371500" />
		<tag k="water" v="lake" />
	</node>
	<node id="-529666" lat="61.2687277754" lon="5.16910277208">
		<tag k="name" v="Langesjøen" />
		<tag k="natural" v="water" />
		<tag k="ssr:stedsnr" v="918657" />
		<tag k="water" v="lake" />
	</node>
	<node id="-528218" lat="61.3044083349" lon="5.27287500516">
		<tag k="name" v="Trovikneset" />
		<tag k="natural" v="cape" />
		<tag k="ssr:stedsnr" v="94664" />
	</node>
	<node id="-528576" lat="61.3671972229" lon="5.51198888202">
		<tag k="alt_name" v="Grøvla" />
		<tag k="name" v="Gryvla" />
		<tag k="ssr:stedsnr" v="251946" />
		<tag k="waterway" v="stream" />
	</node>
	<node id="-529662" lat="61.255327776" lon="5.27799722233">
		<tag k="name" v="Sakseskardtjørna" />
		<tag k="natural" v="water" />
		<tag k="ssr:stedsnr" v="918587" />
	</node>
	<node id="-528637" lat="61.3445583365" lon="5.53294166153">
		<tag k="alt_name" v="Svartetjørn" />
		<tag k="name" v="Svartetjørna" />
		<tag k="natural" v="water" />
		<tag k="ssr:stedsnr" v="433019" />
	</node>
	<node id="-529148" lat="61.2582666678" lon="5.56638333304">
		<tag k="alt_name" v="Brekkeelva" />
		<tag k="name" v="Kalstadelva" />
		<tag k="ssr:stedsnr" v="675297" />
		<tag k="waterway" v="stream" />
	</node>
	<node id="-528682" lat="61.2718944436" lon="5.65253611048">
		<tag k="name" v="Måseholmen" />
		<tag k="place" v="islet" />
		<tag k="ssr:stedsnr" v="457876" />
	</node>
	<node id="-529145" lat="61.2584722266" lon="5.64491111921">
		<tag k="name" v="Storelva" />
		<tag k="ssr:stedsnr" v="675281" />
		<tag k="waterway" v="river" />
	</node>
	<node id="-529144" lat="61.2604166667" lon="5.62081944499">
		<tag k="alt_name" v="Grøvlevatnet" />
		<tag k="name" v="Gryvlevatnet" />
		<tag k="natural" v="water" />
		<tag k="ssr:stedsnr" v="675278" />
	</node>
	<node id="-529655" lat="61.2939444475" lon="5.24040833586">
		<tag k="alt_name" v="Steindalstjørna" />
		<tag k="name" v="Steindalstjerna" />
		<tag k="natural" v="water" />
		<tag k="ssr:stedsnr" v="918456" />
	</node>
	<node id="-529654" lat="61.297749996" lon="5.28490555203">
		<tag k="name" v="Eidet" />
		<tag k="natural" v="strait" />
		<tag k="ssr:stedsnr" v="918452" />
	</node>
	<node id="-528388" lat="61.3020750043" lon="5.26703611488">
		<tag k="name" v="Åsaneset" />
		<tag k="natural" v="cape" />
		<tag k="ssr:stedsnr" v="189454" />
	</node>
	<node id="-529650" lat="61.3095277761" lon="5.43680278321">
		<tag k="name" v="Ivarfossen" />
		<tag k="natural" v="waterfall" />
		<tag k="ssr:stedsnr" v="918437" />
	</node>
	<node id="-528113" lat="61.2880916637" lon="5.34489167571">
		<tag k="name" v="Hamnen" />
		<tag k="natural" v="bay" />
		<tag k="ssr:stedsnr" v="68627" />
	</node>
	<node id="-528112" lat="61.2877352606" lon="5.35657075446">
		<tag k="alt_name" v="Breidvatnet" />
		<tag k="name" v="Breivatnet" />
		<tag k="natural" v="water" />
		<tag k="ssr:stedsnr" v="68626" />
		<tag k="water" v="lake" />
	</node>
	<node id="-528111" lat="61.2873749993" lon="5.368786107">
		<tag k="name" v="Stølsneset" />
		<tag k="natural" v="cape" />
		<tag k="ssr:stedsnr" v="68624" />
	</node>
	<node id="-527598" lat="61.1949444491" lon="5.58401944979">
		<tag k="name" v="Troppelva" />
		<tag k="ssr:stedsnr" v="275854" />
		<tag k="waterway" v="river" />
	</node>
	<node id="-529133" lat="61.3052442604" lon="5.59040200501">
		<tag k="name" v="Botnavatnet" />
		<tag k="natural" v="water" />
		<tag k="ssr:stedsnr" v="675124" />
	</node>
	<node id="-528620" lat="61.298058331" lon="5.25700833533">
		<tag k="name" v="Mjåsundet" />
		<tag k="natural" v="strait" />
		<tag k="ssr:stedsnr" v="432365" />
	</node>
	<node id="-527808" lat="61.2866999993" lon="5.33982222257">
		<tag k="name" v="Kjosen" />
		<tag k="place" v="locality" />
		<tag k="ssr:stedsnr" v="371608" />
	</node>
	<node id="-529637" lat="61.2519611097" lon="5.53714721524">
		<tag k="name" v="Øyratjørna" />
		<tag k="natural" v="water" />
		<tag k="ssr:stedsnr" v="918273" />
	</node>
	<node id="-528933" lat="61.2250750043" lon="5.57999166801">
		<tag k="name" v="Fintelona" />
		<tag k="place" v="locality" />
		<tag k="ssr:stedsnr" v="555977" />
	</node>
	<node id="-527739" lat="61.288788886" lon="5.02000833304">
		<tag k="name" v="Steinholmen" />
		<tag k="place" v="islet" />
		<tag k="ssr:stedsnr" v="337696" />
	</node>
	<node id="-528608" lat="61.2550472226" lon="5.52287223141">
		<tag k="alt_name" v="Bogevatn" />
		<tag k="name" v="Bogevatnet" />
		<tag k="natural" v="water" />
		<tag k="ssr:stedsnr" v="432222" />
	</node>
	<node id="-527829" lat="61.2436956785" lon="5.4376101927">
		<tag k="name" v="Siritåna" />
		<tag k="natural" v="cape" />
		<tag k="ssr:stedsnr" v="373397" />
	</node>
	<node id="-529629" lat="61.2804527768" lon="5.55073888938">
		<tag k="name" v="Vardevatnet" />
		<tag k="natural" v="water" />
		<tag k="ssr:stedsnr" v="918194" />
	</node>
	<node id="-529624" lat="61.3013414024" lon="5.62890313706">
		<tag k="name" v="Djupevatnet" />
		<tag k="natural" v="water" />
		<tag k="ssr:stedsnr" v="918112" />
	</node>
	<node id="-528676" lat="61.2254444429" lon="5.55350277953">
		<tag k="alt_name" v="Votnetjørna" />
		<tag k="name" v="Votnetjørnane" />
		<tag k="natural" v="water" />
		<tag k="ssr:stedsnr" v="434983" />
	</node>
	<node id="-529620" lat="61.2583249969" lon="5.08125556356">
		<tag k="name" v="Langevatnet" />
		<tag k="natural" v="water" />
		<tag k="ssr:stedsnr" v="918019" />
	</node>
	<node id="-527651" lat="61.261997223" lon="5.55862222833">
		<tag k="name" v="Skoralielva" />
		<tag k="ssr:stedsnr" v="311246" />
		<tag k="waterway" v="stream" />
	</node>
	<node id="-528455" lat="61.2529611069" lon="5.50994721404">
		<tag k="name" v="Grønevik" />
		<tag k="natural" v="bay" />
		<tag k="ssr:stedsnr" v="215595" />
	</node>
	<node id="-529171" lat="61.3037250012" lon="5.28621943894">
		<tag k="name" v="Nordavikholmen" />
		<tag k="place" v="islet" />
		<tag k="ssr:stedsnr" v="675510" />
	</node>
	<node id="-528587" lat="61.2196305561" lon="5.53624999444">
		<tag k="name" v="Stølsfossen" />
		<tag k="natural" v="waterfall" />
		<tag k="ssr:stedsnr" v="252975" />
	</node>
	<node id="-528503" lat="61.2526333371" lon="5.50901110146">
		<tag k="name" v="Holneset" />
		<tag k="natural" v="cape" />
		<tag k="ssr:stedsnr" v="215954" />
	</node>
	<node id="-529096" lat="61.306780554" lon="5.23527777384">
		<tag k="name" v="Gjølangerelva" />
		<tag k="ssr:stedsnr" v="640640" />
		<tag k="waterway" v="river" />
	</node>
	<node id="-528540" lat="61.2903250033" lon="5.17463055297">
		<tag k="name" v="Helleviktjørna" />
		<tag k="natural" v="water" />
		<tag k="ssr:stedsnr" v="250381" />
	</node>
	<node id="-529602" lat="61.226169447" lon="5.47214999996">
		<tag k="name" v="Espenestjørna" />
		<tag k="natural" v="water" />
		<tag k="ssr:stedsnr" v="859992" />
	</node>
	<node id="-528577" lat="61.2460111143" lon="5.70620000163">
		<tag k="name" v="Storefossen" />
		<tag k="natural" v="waterfall" />
		<tag k="ssr:stedsnr" v="251967" />
	</node>
	<node id="-529088" lat="61.2338833293" lon="5.4447055562">
		<tag k="name" v="Nedre Fossen" />
		<tag k="natural" v="waterfall" />
		<tag k="ssr:stedsnr" v="640608" />
	</node>
	<node id="-529087" lat="61.2313861133" lon="5.44683334093">
		<tag k="name" v="Øvre Fossen" />
		<tag k="natural" v="waterfall" />
		<tag k="ssr:stedsnr" v="640606" />
	</node>
	<node id="-528574" lat="61.3016111069" lon="5.30195834015">
		<tag k="name" v="Storevika" />
		<tag k="natural" v="bay" />
		<tag k="ssr:stedsnr" v="251747" />
	</node>
	<node id="-529596" lat="61.2396250006" lon="5.48317499456">
		<tag k="name" v="Øyraelva" />
		<tag k="ssr:stedsnr" v="859948" />
		<tag k="waterway" v="stream" />
	</node>
	<node id="-528571" lat="61.2467166654" lon="5.46251943685">
		<tag k="name" v="Espeneset" />
		<tag k="natural" v="cape" />
		<tag k="ssr:stedsnr" v="251413" />
	</node>
	<node id="-528569" lat="61.3111567647" lon="5.60061844635">
		<tag k="name" v="Torvevatnet" />
		<tag k="natural" v="water" />
		<tag k="ssr:stedsnr" v="251157" />
	</node>
	<node id="-529592" lat="61.2059500044" lon="5.61379167097">
		<tag k="name" v="Kjøgrova" />
		<tag k="ssr:stedsnr" v="859788" />
		<tag k="waterway" v="stream" />
	</node>
	<node id="-529591" lat="61.2198611122" lon="5.41901944928">
		<tag k="name" v="Storelva" />
		<tag k="ssr:stedsnr" v="859629" />
		<tag k="waterway" v="stream" />
	</node>
	<node id="-528329" lat="61.2446439082" lon="5.41343894472">
		<tag k="name" v="Vikane" />
		<tag k="natural" v="bay" />
		<tag k="ssr:stedsnr" v="154677" />
	</node>
	<node id="-528670" lat="61.2344138861" lon="5.5962416684">
		<tag k="name" v="Fosstjørna" />
		<tag k="natural" v="water" />
		<tag k="ssr:stedsnr" v="434937" />
	</node>
	<node id="-528050" lat="61.2296333377" lon="5.53356111164">
		<tag k="alt_name" v="Engjeelva" />
		<tag k="name" v="Engjelva" />
		<tag k="ssr:stedsnr" v="9988" />
		<tag k="waterway" v="river" />
	</node>
	<node id="-528561" lat="61.2695194408" lon="5.18749166069">
		<tag k="name" v="Fossane" />
		<tag k="natural" v="waterfall" />
		<tag k="ssr:stedsnr" v="250590" />
	</node>
	<node id="-528560" lat="61.2626500032" lon="5.26596943766">
		<tag k="name" v="Litleskardtjørna" />
		<tag k="natural" v="water" />
		<tag k="ssr:stedsnr" v="250557" />
	</node>
	<node id="-528328" lat="61.2432750029" lon="5.42900278331">
		<tag k="name" v="Bøvika" />
		<tag k="natural" v="bay" />
		<tag k="ssr:stedsnr" v="154675" />
	</node>
	<node id="-529581" lat="61.3002416639" lon="5.25165277099">
		<tag k="alt_name" v="Tyssekvamvatnet" />
		<tag k="name" v="Tyssedalsvatnet" />
		<tag k="natural" v="water" />
		<tag k="ssr:stedsnr" v="858483" />
		<tag k="water" v="lake" />
	</node>
	<node id="-529067" lat="61.2556844183" lon="4.97259383176">
		<tag k="name" v="Kringlevatnet" />
		<tag k="natural" v="water" />
		<tag k="ssr:stedsnr" v="640213" />
		<tag k="water" v="lake" />
	</node>
	<node id="-529578" lat="61.2849581956" lon="5.2526728352">
		<tag k="alt_name" v="Fjelltjørna;Fjelltjørn" />
		<tag k="name" v="Fjelletjerna" />
		<tag k="natural" v="water" />
		<tag k="ssr:stedsnr" v="858452" />
	</node>
	<node id="-529577" lat="61.2815888869" lon="5.24255832592">
		<tag k="alt_name" v="Lonedalvatnet" />
		<tag k="name" v="Lonedalstjørna" />
		<tag k="natural" v="water" />
		<tag k="ssr:stedsnr" v="858449" />
	</node>
	<node id="-528552" lat="61.316224999" lon="5.28742778659">
		<tag k="name" v="Storetjørna" />
		<tag k="natural" v="water" />
		<tag k="ssr:stedsnr" v="250450" />
	</node>
	<node id="-528551" lat="61.3253027774" lon="5.4117805627">
		<tag k="alt_name" v="Stavtjørnet" />
		<tag k="name" v="Stavstjørna" />
		<tag k="natural" v="water" />
		<tag k="ssr:stedsnr" v="250445" />
	</node>
	<node id="-529574" lat="61.23592222" lon="5.39076665949">
		<tag k="name" v="Nautsundtjørna" />
		<tag k="natural" v="water" />
		<tag k="ssr:stedsnr" v="858420" />
	</node>
	<node id="-529573" lat="61.2378888857" lon="5.42750277396">
		<tag k="name" v="Hovlandsdalsvatnet" />
		<tag k="natural" v="water" />
		<tag k="old_name" v="Hovlandsvatnet" />
		<tag k="ssr:stedsnr" v="858418" />
		<tag k="water" v="lake" />
	</node>
	<node id="-528548" lat="61.2889944446" lon="5.24548055309">
		<tag k="alt_name" v="Instetjørna;Instetjørn" />
		<tag k="name" v="Instetjerna" />
		<tag k="natural" v="water" />
		<tag k="ssr:stedsnr" v="250423" />
	</node>
	<node id="-528547" lat="61.2900333334" lon="5.29308611857">
		<tag k="name" v="Sandvika" />
		<tag k="natural" v="bay" />
		<tag k="ssr:stedsnr" v="250416" />
	</node>
	<node id="-528034" lat="61.2414407859" lon="5.4262321872">
		<tag k="name" v="Synningeneset" />
		<tag k="natural" v="cape" />
		<tag k="ssr:stedsnr" v="9388" />
	</node>
	<node id="-529568" lat="61.2630916696" lon="5.47879722965">
		<tag k="alt_name" v="Gaupetjørn" />
		<tag k="name" v="Gaupetjørna" />
		<tag k="natural" v="water" />
		<tag k="ssr:stedsnr" v="858221" />
	</node>
	<node id="-527982" lat="61.2992916649" lon="5.21857500866">
		<tag k="alt_name" v="Sørdalsvatnet;Sørdalsvatn" />
		<tag k="name" v="Saurdalsvatnet" />
		<tag k="natural" v="water" />
		<tag k="ssr:stedsnr" v="7476" />
	</node>
	<node id="-529564" lat="61.2915222199" lon="5.52010277955">
		<tag k="name" v="Myrkjetjørnane" />
		<tag k="natural" v="water" />
		<tag k="ssr:stedsnr" v="858143" />
	</node>
	<node id="-528026" lat="61.2547083344" lon="5.4566944507">
		<tag k="alt_name" v="Voksøyra" />
		<tag k="name" v="Vågsøyra" />
		<tag k="natural" v="beach" />
		<tag k="ssr:stedsnr" v="8549" />
	</node>
	<node id="-527983" lat="61.2992055561" lon="5.2601249999">
		<tag k="name" v="Storeholmen" />
		<tag k="place" v="islet" />
		<tag k="ssr:stedsnr" v="7480" />
	</node>
	<node id="-529559" lat="61.2865416653" lon="5.34341110364">
		<tag k="name" v="Kjosneset" />
		<tag k="natural" v="cape" />
		<tag k="ssr:stedsnr" v="857621" />
	</node>
	<node id="-529045" lat="61.2051194455" lon="5.52436110619">
		<tag k="name" v="Litleskilbreia" />
		<tag k="natural" v="water" />
		<tag k="ssr:stedsnr" v="616822" />
	</node>
	<node id="-528494" lat="61.2223305521" lon="5.65607222768">
		<tag k="name" v="Kjøgrova" />
		<tag k="ssr:stedsnr" v="215899" />
		<tag k="waterway" v="stream" />
	</node>
	<node id="-529042" lat="61.2285749982" lon="5.58846666616">
		<tag k="name" v="Haugatjørna" />
		<tag k="natural" v="water" />
		<tag k="ssr:stedsnr" v="615997" />
	</node>
	<node id="-529041" lat="61.2348944467" lon="5.67855832839">
		<tag k="name" v="Sørebøelva" />
		<tag k="ssr:stedsnr" v="615987" />
		<tag k="waterway" v="stream" />
	</node>
	<node id="-528527" lat="61.3239694422" lon="5.21939166327">
		<tag k="name" v="Storelva" />
		<tag k="ssr:stedsnr" v="250293" />
		<tag k="waterway" v="stream" />
	</node>
	<node id="-529037" lat="61.2747999965" lon="5.27600834081">
		<tag k="name" v="Langetjørna" />
		<tag k="natural" v="water" />
		<tag k="ssr:stedsnr" v="614617" />
	</node>
	<node id="-529035" lat="61.2662611087" lon="5.17465000441">
		<tag k="name" v="Kråholmen" />
		<tag k="place" v="islet" />
		<tag k="ssr:stedsnr" v="614611" />
	</node>
	<node id="-528522" lat="61.2839972196" lon="5.68016666773">
		<tag k="name" v="Indrevatnet" />
		<tag k="natural" v="water" />
		<tag k="ssr:stedsnr" v="250186" />
	</node>
	<node id="-529175" lat="61.2606111137" lon="5.45880554942">
		<tag k="alt_name" v="Vokselva" />
		<tag k="name" v="Vågselva" />
		<tag k="ssr:stedsnr" v="675546" />
		<tag k="waterway" v="stream" />
	</node>
	<node id="-529544" lat="61.3275250027" lon="5.39159166872">
		<tag k="alt_name" v="Raknebergstjørna" />
		<tag k="name" v="Raknebergtjørna" />
		<tag k="natural" v="water" />
		<tag k="ssr:stedsnr" v="857457" />
	</node>
	<node id="-528006" lat="61.2727444467" lon="5.55615832631">
		<tag k="name" v="Vardevasstjørna" />
		<tag k="natural" v="water" />
		<tag k="ssr:stedsnr" v="8183" />
	</node>
	<node id="-529541" lat="61.2982611144" lon="5.32849722881">
		<tag k="name" v="Svartetjørna" />
		<tag k="natural" v="water" />
		<tag k="ssr:stedsnr" v="857421" />
	</node>
	<node id="-528004" lat="61.3122105472" lon="5.56738348031">
		<tag k="alt_name" v="Settelandsvatnet" />
		<tag k="name" v="Slettelandsvatnet" />
		<tag k="natural" v="water" />
		<tag k="ssr:stedsnr" v="8161" />
	</node>
	<node id="-528599" lat="61.2513194445" lon="5.06582499535">
		<tag k="name" v="Lomtjørna" />
		<tag k="natural" v="water" />
		<tag k="ssr:stedsnr" v="432018" />
	</node>
	<node id="-529090" lat="61.2470111077" lon="5.41413332649">
		<tag k="name" v="Lassevikneset" />
		<tag k="natural" v="cape" />
		<tag k="ssr:stedsnr" v="640615" />
	</node>
	<node id="-529535" lat="61.3254777751" lon="5.36495555465">
		<tag k="name" v="Storelva" />
		<tag k="ssr:stedsnr" v="857327" />
		<tag k="waterway" v="stream" />
	</node>
	<node id="-529021" lat="61.3260555583" lon="5.43319999625">
		<tag k="name" v="Brendeneset" />
		<tag k="natural" v="cape" />
		<tag k="ssr:stedsnr" v="614458" />
	</node>
	<node id="-528408" lat="61.2614194433" lon="5.59473888437">
		<tag k="alt_name" v="Skitneskartjørna" />
		<tag k="name" v="Skitneskardtjørna" />
		<tag k="natural" v="water" />
		<tag k="ssr:stedsnr" v="190248" />
	</node>
	<node id="-527993" lat="61.3362388885" lon="5.49319444933">
		<tag k="name" v="Dalelva" />
		<tag k="ssr:stedsnr" v="8063" />
		<tag k="waterway" v="stream" />
	</node>
	<node id="-527992" lat="61.3375861072" lon="5.55563610683">
		<tag k="name" v="Martinelva" />
		<tag k="ssr:stedsnr" v="8046" />
		<tag k="waterway" v="stream" />
	</node>
	<node id="-529015" lat="61.289991664" lon="5.26495833974">
		<tag k="alt_name" v="Svortetjørna" />
		<tag k="name" v="Svartetjerna" />
		<tag k="natural" v="water" />
		<tag k="ssr:stedsnr" v="614393" />
	</node>
	<node id="-529014" lat="61.3000333329" lon="5.29839166581">
		<tag k="name" v="Storevikholmen" />
		<tag k="place" v="islet" />
		<tag k="ssr:stedsnr" v="614384" />
	</node>
	<node id="-527989" lat="61.3491777785" lon="5.55419167294">
		<tag k="name" v="Lona" />
		<tag k="place" v="locality" />
		<tag k="ssr:stedsnr" v="8005" />
	</node>
	<node id="-527787" lat="61.3061777763" lon="5.43318889178">
		<tag k="name" v="Lonene" />
		<tag k="place" v="locality" />
		<tag k="ssr:stedsnr" v="371369" />
	</node>
	<node id="-527985" lat="61.2539694408" lon="5.39026388243">
		<tag k="alt_name" v="Våbelitjørn" />
		<tag k="name" v="Våbennetjørna" />
		<tag k="natural" v="water" />
		<tag k="ssr:stedsnr" v="7531" />
	</node>
	<node id="-528496" lat="61.2379833294" lon="5.63289999372">
		<tag k="name" v="Øyra" />
		<tag k="ssr:stedsnr" v="215914" />
		<tag k="waterway" v="stream" />
	</node>
	<node id="-529519" lat="61.3088757799" lon="5.53476985607">
		<tag k="name" v="Steiestølsvatnet" />
		<tag k="natural" v="water" />
		<tag k="ssr:stedsnr" v="857162" />
	</node>
	<node id="-529518" lat="61.2793305519" lon="5.0718527744">
		<tag k="alt_name" v="Fureelva" />
		<tag k="name" v="Furelva" />
		<tag k="ssr:stedsnr" v="857132" />
		<tag k="waterway" v="stream" />
	</node>
	<node id="-529517" lat="61.2815638897" lon="5.0137638809">
		<tag k="name" v="Storevatnet" />
		<tag k="natural" v="water" />
		<tag k="ssr:stedsnr" v="857130" />
	</node>
	<node id="-527980" lat="61.3167638861" lon="5.46433332724">
		<tag k="name" v="Rekevika" />
		<tag k="natural" v="bay" />
		<tag k="ssr:stedsnr" v="7468" />
	</node>
	<node id="-528490" lat="61.2615083363" lon="5.16992777145">
		<tag k="name" v="Dalmanneset" />
		<tag k="natural" v="cape" />
		<tag k="ssr:stedsnr" v="215770" />
	</node>
	<node id="-529540" lat="61.3037111155" lon="5.41600833268">
		<tag k="alt_name" v="Turvedalstjørna" />
		<tag k="name" v="Tyrvedalstjørna" />
		<tag k="natural" v="water" />
		<tag k="ssr:stedsnr" v="857420" />
	</node>
	<node id="-528999" lat="61.2504929478" lon="5.47277214106">
		<tag k="name" v="Marosfjorden" />
		<tag k="natural" v="water" />
		<tag k="ssr:stedsnr" v="614248" />
	</node>
	<node id="-528486" lat="61.2837444436" lon="5.00853889496">
		<tag k="name" v="Kvernhuselva" />
		<tag k="ssr:stedsnr" v="215760" />
		<tag k="waterway" v="river" />
	</node>
	<node id="-528485" lat="61.2861222217" lon="5.01890278151">
		<tag k="name" v="Vollavika" />
		<tag k="natural" v="bay" />
		<tag k="ssr:stedsnr" v="215757" />
	</node>
	<node id="-528996" lat="61.2826666645" lon="5.65993610358">
		<tag k="name" v="Tverrlitjørna" />
		<tag k="natural" v="water" />
		<tag k="ssr:stedsnr" v="614186" />
	</node>
	<node id="-527970" lat="61.3296500032" lon="5.4221861132">
		<tag k="name" v="Hålandsfossen" />
		<tag k="natural" v="waterfall" />
		<tag k="ssr:stedsnr" v="7288" />
	</node>
	<node id="-528481" lat="61.2732022187" lon="5.02926360256">
		<tag k="name" v="Leira" />
		<tag k="natural" v="water" />
		<tag k="ssr:stedsnr" v="215743" />
		<tag k="water" v="lake" />
	</node>
	<node id="-528991" lat="61.3260805515" lon="5.52550277009">
		<tag k="name" v="Fjelltjørna" />
		<tag k="natural" v="water" />
		<tag k="ssr:stedsnr" v="614093" />
	</node>
	<node id="-529509" lat="61.3202611073" lon="5.54499443975">
		<tag k="name" v="Skjellevatnet" />
		<tag k="natural" v="water" />
		<tag k="ssr:stedsnr" v="857063" />
	</node>
	<node id="-528093" lat="61.2478719478" lon="5.53165603718">
		<tag k="name" v="Engjavatnet" />
		<tag k="natural" v="water" />
		<tag k="ssr:stedsnr" v="33956" />
		<tag k="water" v="lake" />
	</node>
	<node id="-527957" lat="61.200358329" lon="5.51752500127">
		<tag k="alt_name" v="Skilbreia" />
		<tag k="name" v="Skilbreida" />
		<tag k="natural" v="water" />
		<tag k="ssr:stedsnr" v="70795" />
		<tag k="water" v="lake" />
	</node>
	<node id="-529492" lat="61.2499472262" lon="5.52877777932">
		<tag k="name" v="Langeneset" />
		<tag k="natural" v="cape" />
		<tag k="ssr:stedsnr" v="822959" />
	</node>
	<node id="-529542" lat="61.2962083311" lon="5.23503334068">
		<tag k="name" v="Eiketjørna" />
		<tag k="natural" v="water" />
		<tag k="ssr:stedsnr" v="857426" />
	</node>
	<node id="-528466" lat="61.3056222267" lon="5.24893611455">
		<tag k="name" v="Elvestø" />
		<tag k="natural" v="bay" />
		<tag k="ssr:stedsnr" v="215669" />
	</node>
	<node id="-528465" lat="61.2098916643" lon="5.43943610269">
		<tag k="name" v="Langedalsfossen" />
		<tag k="natural" v="waterfall" />
		<tag k="ssr:stedsnr" v="215663" />
	</node>
	<node id="-528568" lat="61.2927805592" lon="5.53794999633">
		<tag k="name" v="Fjellsendetjørna" />
		<tag k="natural" v="water" />
		<tag k="ssr:stedsnr" v="251148" />
	</node>
	<node id="-528141" lat="61.3206638851" lon="5.44271666526">
		<tag k="name" v="Kallaneset" />
		<tag k="natural" v="cape" />
		<tag k="ssr:stedsnr" v="68473" />
	</node>
	<node id="-527946" lat="61.3092722231" lon="5.513983333">
		<tag k="name" v="Snarebotnelva" />
		<tag k="ssr:stedsnr" v="883977" />
		<tag k="waterway" v="river" />
	</node>
	<node id="-527943" lat="61.2515083359" lon="5.52754444389">
		<tag k="name" v="Åkreneset" />
		<tag k="natural" v="cape" />
		<tag k="ssr:stedsnr" v="883969" />
	</node>
	<node id="-527713" lat="61.3349527798" lon="5.5144194437">
		<tag k="name" v="Dyttingane" />
		<tag k="ssr:stedsnr" v="336981" />
		<tag k="waterway" v="river" />
	</node>
	<node id="-527939" lat="61.2889361114" lon="5.16389444976">
		<tag k="name" v="Holtalona" />
		<tag k="natural" v="water" />
		<tag k="ssr:stedsnr" v="883778" />
		<tag k="water" v="lake" />
	</node>
	<node id="-529163" lat="61.284916665" lon="5.27918889169">
		<tag k="name" v="Holmetjørnane" />
		<tag k="natural" v="water" />
		<tag k="ssr:stedsnr" v="675446" />
	</node>
	<node id="-529471" lat="61.2494381472" lon="5.4113169035">
		<tag k="name" v="Lassevik" />
		<tag k="natural" v="bay" />
		<tag k="ssr:stedsnr" v="822646" />
	</node>
	<node id="-529470" lat="61.2483416712" lon="5.44649166531">
		<tag k="name" v="Grastjørn" />
		<tag k="natural" v="water" />
		<tag k="ssr:stedsnr" v="822636" />
	</node>
	<node id="-527891" lat="61.2463555542" lon="5.64789444297">
		<tag k="name" v="Langeholmen" />
		<tag k="natural" v="cape" />
		<tag k="ssr:stedsnr" v="882869" />
	</node>
	<node id="-528416" lat="61.281766667" lon="5.15483332677">
		<tag k="name" v="Kringlevatnet" />
		<tag k="natural" v="water" />
		<tag k="ssr:stedsnr" v="190421" />
	</node>
	<node id="-528442" lat="61.213827781" lon="5.57349999841">
		<tag k="name" v="Tjøredalselva" />
		<tag k="ssr:stedsnr" v="191973" />
		<tag k="waterway" v="river" />
	</node>
	<node id="-528953" lat="61.2515114846" lon="5.45316329272">
		<tag k="name" v="Blanketjørn" />
		<tag k="natural" v="water" />
		<tag k="ssr:stedsnr" v="579590" />
	</node>
	<node id="-528440" lat="61.2383391462" lon="5.57352826085">
		<tag k="alt_name" v="Fjellvatnet" />
		<tag k="name" v="Fjellevatnet" />
		<tag k="natural" v="water" />
		<tag k="ssr:stedsnr" v="191948" />
	</node>
	<node id="-529462" lat="61.249444443" lon="5.48346388839">
		<tag k="name" v="Tjørna" />
		<tag k="natural" v="water" />
		<tag k="ssr:stedsnr" v="822584" />
	</node>
	<node id="-528437" lat="61.3072444447" lon="5.24989445357">
		<tag k="name" v="Ospeneset" />
		<tag k="natural" v="cape" />
		<tag k="ssr:stedsnr" v="191655" />
	</node>
	<node id="-527924" lat="61.2265111094" lon="5.41701388041">
		<tag k="name" v="Varelva" />
		<tag k="ssr:stedsnr" v="883649" />
		<tag k="waterway" v="stream" />
	</node>
	<node id="-528433" lat="61.2809916699" lon="5.46668610212">
		<tag k="name" v="Dyttinga" />
		<tag k="natural" v="water" />
		<tag k="ssr:stedsnr" v="190591" />
	</node>
	<node id="-528432" lat="61.2805189916" lon="5.40953511592">
		<tag k="alt_name" v="Vikatjørn" />
		<tag k="name" v="Vikatjørna" />
		<tag k="natural" v="water" />
		<tag k="ssr:stedsnr" v="190579" />
	</node>
	<node id="-528430" lat="61.253200002" lon="5.37928332811">
		<tag k="name" v="Harefossen" />
		<tag k="natural" v="waterfall" />
		<tag k="ssr:stedsnr" v="190545" />
	</node>
	<node id="-528941" lat="61.2351500013" lon="5.62466666305">
		<tag k="name" v="Andaløykelva" />
		<tag k="ssr:stedsnr" v="578878" />
		<tag k="waterway" v="stream" />
	</node>
	<node id="-529159" lat="61.3046166659" lon="5.40758056131">
		<tag k="name" v="Fossane" />
		<tag k="natural" v="waterfall" />
		<tag k="ssr:stedsnr" v="675417" />
	</node>
	<node id="-528424" lat="61.32630278" lon="5.42632777321">
		<tag k="name" v="Strandavatnet" />
		<tag k="natural" v="water" />
		<tag k="ssr:stedsnr" v="190467" />
		<tag k="water" v="lake" />
	</node>
	<node id="-527708" lat="61.2428611145" lon="5.60679166467">
		<tag k="name" v="Sølvesvaelva" />
		<tag k="ssr:stedsnr" v="336891" />
		<tag k="waterway" v="stream" />
	</node>
	<node id="-529445" lat="61.27783056" lon="5.35267777645">
		<tag k="name" v="Fureneset" />
		<tag k="natural" v="cape" />
		<tag k="ssr:stedsnr" v="798666" />
	</node>
	<node id="-528902" lat="61.2754250046" lon="5.6049805626">
		<tag k="name" v="Torevatnet" />
		<tag k="natural" v="water" />
		<tag k="ssr:stedsnr" v="554221" />
	</node>
	<node id="-529441" lat="61.2798833314" lon="5.17739721423">
		<tag k="alt_name" v="Botnatjørna, nordre;Nordre - Botnatjørna" />
		<tag k="name" v="Nordre Botnatjørna" />
		<tag k="natural" v="water" />
		<tag k="ssr:stedsnr" v="797614" />
	</node>
	<node id="-529440" lat="61.2805791589" lon="5.42448274998">
		<tag k="name" v="Oksetjørna" />
		<tag k="natural" v="water" />
		<tag k="ssr:stedsnr" v="797595" />
	</node>
	<node id="-529439" lat="61.2581524024" lon="5.70244562493">
		<tag k="loc_name" v="Nedste Øyvatnet" />
		<tag k="name" v="Skredvatnet" />
		<tag k="natural" v="water" />
		<tag k="ssr:stedsnr" v="797572" />
		<tag k="water" v="lake" />
	</node>
	<node id="-528414" lat="61.2942833333" lon="5.23073055396">
		<tag k="alt_name" v="Johanstitjørna" />
		<tag k="name" v="Johansstigtjørna" />
		<tag k="natural" v="water" />
		<tag k="ssr:stedsnr" v="190411" />
	</node>
	<node id="-529437" lat="61.2525228437" lon="5.45895922501">
		<tag k="name" v="Vågen" />
		<tag k="natural" v="bay" />
		<tag k="ssr:stedsnr" v="797528" />
	</node>
	<node id="-528730" lat="61.2681719575" lon="5.39600016994">
		<tag k="alt_name" v="Svartetjørn" />
		<tag k="name" v="Svartetjørna" />
		<tag k="natural" v="water" />
		<tag k="ssr:stedsnr" v="493568" />
	</node>
	<node id="-528409" lat="61.3221972218" lon="5.28131944296">
		<tag k="alt_name" v="Bautetjørna" />
		<tag k="name" v="Bautetjerna" />
		<tag k="natural" v="water" />
		<tag k="ssr:stedsnr" v="190308" />
	</node>
	<node id="-529432" lat="61.2813305583" lon="5.19758611367">
		<tag k="alt_name" v="Loneelva" />
		<tag k="name" v="Lona" />
		<tag k="ssr:stedsnr" v="797429" />
		<tag k="waterway" v="river" />
	</node>
	<node id="-529431" lat="61.2876888884" lon="5.23823889665">
		<tag k="alt_name" v="Ytstetjørna" />
		<tag k="name" v="Ytstetjerna" />
		<tag k="natural" v="water" />
		<tag k="ssr:stedsnr" v="797423" />
	</node>
	<node id="-528217" lat="61.2979416637" lon="5.26855833257">
		<tag k="name" v="Storemyrneset" />
		<tag k="natural" v="cape" />
		<tag k="ssr:stedsnr" v="94663" />
	</node>
	<node id="-528950" lat="61.3557250043" lon="5.43511111576">
		<tag k="name" v="Torsetelva" />
		<tag k="ssr:stedsnr" v="579576" />
		<tag k="waterway" v="river" />
	</node>
	<node id="-528915" lat="61.2712805583" lon="5.35957777559">
		<tag k="name" v="Hesteneset" />
		<tag k="natural" v="cape" />
		<tag k="ssr:stedsnr" v="554736" />
	</node>
	<node id="-528402" lat="61.2879945243" lon="5.50943480605">
		<tag k="name" v="Guddalsvatnet" />
		<tag k="natural" v="water" />
		<tag k="ssr:stedsnr" v="190186" />
	</node>
	<node id="-528210" lat="61.23396111" lon="5.53910833047">
		<tag k="name" v="Nipetjørna" />
		<tag k="natural" v="water" />
		<tag k="ssr:stedsnr" v="94973" />
	</node>
	<node id="-528400" lat="61.3124755715" lon="5.59177335691">
		<tag k="name" v="Hyttetjørna" />
		<tag k="natural" v="water" />
		<tag k="ssr:stedsnr" v="190152" />
	</node>
	<node id="-528926" lat="61.2027499996" lon="5.53177222037">
		<tag k="name" v="Myrketjørna" />
		<tag k="natural" v="water" />
		<tag k="ssr:stedsnr" v="555787" />
	</node>
	<node id="-529422" lat="61.2692138922" lon="5.49406944162">
		<tag k="alt_name" v="Ulvedalselva" />
		<tag k="name" v="Ulvdalselva" />
		<tag k="ssr:stedsnr" v="797165" />
		<tag k="waterway" v="stream" />
	</node>
	<node id="-528045" lat="61.2473611143" lon="5.65708332645">
		<tag k="alt_name" v="Litleelva" />
		<tag k="name" v="Litlelva" />
		<tag k="ssr:stedsnr" v="9949" />
		<tag k="waterway" v="stream" />
	</node>
	<node id="-528396" lat="61.3393416669" lon="5.55188889203">
		<tag k="name" v="Tverrlielva" />
		<tag k="ssr:stedsnr" v="190050" />
		<tag k="waterway" v="stream" />
	</node>
	<node id="-528642" lat="61.2758055518" lon="5.67036388376">
		<tag k="name" v="Sandvikelva" />
		<tag k="ssr:stedsnr" v="433201" />
		<tag k="waterway" v="stream" />
	</node>
	<node id="-528906" lat="61.2878249962" lon="5.31848888869">
		<tag k="alt_name" v="Jyttavika" />
		<tag k="name" v="Gyttavika" />
		<tag k="natural" v="bay" />
		<tag k="ssr:stedsnr" v="554447" />
	</node>
	<node id="-528393" lat="61.3547583293" lon="5.50461666118">
		<tag k="name" v="Litlevatnet" />
		<tag k="natural" v="water" />
		<tag k="ssr:stedsnr" v="189885" />
	</node>
	<node id="-529414" lat="61.2713417881" lon="5.41675167511">
		<tag k="alt_name" v="Trauskatjørna" />
		<tag k="name" v="Trauskskardtjørna" />
		<tag k="natural" v="water" />
		<tag k="ssr:stedsnr" v="796576" />
	</node>
	<node id="-528900" lat="61.2838805586" lon="5.61502777293">
		<tag k="name" v="Stølselva" />
		<tag k="ssr:stedsnr" v="554187" />
		<tag k="waterway" v="stream" />
	</node>
	<node id="-527702" lat="61.2439500009" lon="5.71751110993">
		<tag k="name" v="Storefosstjørna" />
		<tag k="natural" v="water" />
		<tag k="ssr:stedsnr" v="313958" />
	</node>
	<node id="-528386" lat="61.286500001" lon="5.14560554897">
		<tag k="name" v="Åsavatnet" />
		<tag k="natural" v="water" />
		<tag k="ssr:stedsnr" v="189350" />
	</node>
	<node id="-528897" lat="61.2922694484" lon="5.57551389099">
		<tag k="name" v="Holmevatnet" />
		<tag k="natural" v="water" />
		<tag k="ssr:stedsnr" v="554137" />
	</node>
</osm>
