<?xml version="1.0" encoding="UTF-8"?>
<osm generator="osmapis" version="0.6">
	<node id="-498167" lat="61.6400472216" lon="4.77866665853">
		<tag k="alt_name" v="Ystevikneset" />
		<tag k="name" v="Ysteviknes" />
		<tag k="ssr:date" v="2016-05-11" />
		<tag k="ssr:gruppe" v="navigasjon" />
		<tag k="ssr:hovedgruppe" v="infrastruktur" />
		<tag k="ssr:stedsnr" v="858120" />
		<tag k="ssr:type" v="fyrlykt" />
	</node>
	<node id="-497648" lat="61.5782388886" lon="5.00383056055">
		<tag k="loc_name" v="Søre Auseholet lanterne" />
		<tag k="name" v="Østre Furusund, søre" />
		<tag k="ssr:date" v="2016-05-11" />
		<tag k="ssr:gruppe" v="navigasjon" />
		<tag k="ssr:hovedgruppe" v="infrastruktur" />
		<tag k="ssr:stedsnr" v="725332" />
		<tag k="ssr:type" v="lanterne" />
	</node>
	<node id="-497639" lat="61.6277587992" lon="4.99109586529">
		<tag k="alt_name" v="Årebrot" />
		<tag k="name" v="Årebrot lykt" />
		<tag k="old_name" v="Årebrott" />
		<tag k="ssr:date" v="2019-11-18" />
		<tag k="ssr:gruppe" v="navigasjon" />
		<tag k="ssr:hovedgruppe" v="infrastruktur" />
		<tag k="ssr:stedsnr" v="720094" />
		<tag k="ssr:type" v="fyrlykt" />
	</node>
	<node id="-497635" lat="61.6276916688" lon="5.00897221667">
		<tag k="name" v="Årebrotneset" />
		<tag k="ssr:date" v="2016-05-11" />
		<tag k="ssr:gruppe" v="navigasjon" />
		<tag k="ssr:hovedgruppe" v="infrastruktur" />
		<tag k="ssr:stedsnr" v="719565" />
		<tag k="ssr:type" v="jernstang" />
	</node>
	<node id="-498138" lat="61.6032805522" lon="5.01016944836">
		<tag k="alt_name" v="Florø" />
		<tag k="name" v="Florø lykt" />
		<tag k="ssr:date" v="2016-05-11" />
		<tag k="ssr:gruppe" v="navigasjon" />
		<tag k="ssr:hovedgruppe" v="infrastruktur" />
		<tag k="ssr:stedsnr" v="841863" />
		<tag k="ssr:type" v="fyrlykt" />
	</node>
	<node id="-498135" lat="61.5838277804" lon="4.90904721723">
		<tag k="alt_name" v="Tretteskjerstonga" />
		<tag k="name" v="Tretteskjerstonga lykt" />
		<tag k="ssr:date" v="2016-05-11" />
		<tag k="ssr:gruppe" v="navigasjon" />
		<tag k="ssr:hovedgruppe" v="infrastruktur" />
		<tag k="ssr:stedsnr" v="842824" />
		<tag k="ssr:type" v="fyrlykt" />
	</node>
	<node id="-498635" lat="60.8816104596" lon="6.30047518531">
		<tag k="name" v="Vestlandet" />
		<tag k="ssr:date" v="2019-01-06" />
		<tag k="ssr:gruppe" v="administrativeIndelinger" />
		<tag k="ssr:hovedgruppe" v="offentligAdministrasjon" />
		<tag k="ssr:stedsnr" v="974777" />
		<tag k="ssr:type" v="annenAdministrativInndeling" />
	</node>
	<node id="-495559" lat="61.5925027784" lon="4.98295556419">
		<tag k="name" v="Stongaoksen lanterne" />
		<tag k="ssr:date" v="2016-05-10" />
		<tag k="ssr:gruppe" v="navigasjon" />
		<tag k="ssr:hovedgruppe" v="infrastruktur" />
		<tag k="ssr:stedsnr" v="39113" />
		<tag k="ssr:type" v="lanterne" />
	</node>
	<node id="-496069" lat="61.6176944428" lon="4.82438889041">
		<tag k="name" v="Store Straumsøya" />
		<tag k="ssr:date" v="2016-05-10" />
		<tag k="ssr:gruppe" v="navigasjon" />
		<tag k="ssr:hovedgruppe" v="infrastruktur" />
		<tag k="ssr:stedsnr" v="190174" />
		<tag k="ssr:type" v="fyrlykt" />
	</node>
	<node id="-496065" lat="61.602842835" lon="4.96516266732">
		<tag k="alt_name" v="Grasskjær" />
		<tag k="name" v="Grasskjeret lykt" />
		<tag k="ssr:date" v="2017-04-18" />
		<tag k="ssr:gruppe" v="navigasjon" />
		<tag k="ssr:hovedgruppe" v="infrastruktur" />
		<tag k="ssr:stedsnr" v="190144" />
		<tag k="ssr:type" v="fyrlykt" />
	</node>
	<node id="-496052" lat="61.581297219" lon="5.00145556351">
		<tag k="loc_name" v="Nordre Auseholet lanterne" />
		<tag k="name" v="Østre Furusund, nordre" />
		<tag k="ssr:date" v="2016-05-10" />
		<tag k="ssr:gruppe" v="navigasjon" />
		<tag k="ssr:hovedgruppe" v="infrastruktur" />
		<tag k="ssr:stedsnr" v="178333" />
		<tag k="ssr:type" v="lanterne" />
	</node>
	<node id="-496051" lat="61.6275361093" lon="5.00911945179">
		<tag k="name" v="Årebrotneset" />
		<tag k="ssr:date" v="2016-05-10" />
		<tag k="ssr:gruppe" v="navigasjon" />
		<tag k="ssr:hovedgruppe" v="infrastruktur" />
		<tag k="ssr:stedsnr" v="178328" />
		<tag k="ssr:type" v="lanterne" />
	</node>
	<node id="-495023" lat="61.6330390345" lon="5.01468098525">
		<tag k="name" v="Køyrevika" />
		<tag k="ssr:date" v="2019-05-31" />
		<tag k="ssr:gruppe" v="veg" />
		<tag k="ssr:hovedgruppe" v="infrastruktur" />
		<tag k="ssr:stedsnr" v="1051981" />
		<tag k="ssr:type" v="adressenavn" />
	</node>
	<node id="-495022" lat="61.5696438123" lon="4.87541370822">
		<tag k="name" v="Selvågen" />
		<tag k="ssr:date" v="2019-05-31" />
		<tag k="ssr:gruppe" v="veg" />
		<tag k="ssr:hovedgruppe" v="infrastruktur" />
		<tag k="ssr:stedsnr" v="1051978" />
		<tag k="ssr:type" v="adressenavn" />
	</node>
	<node id="-495021" lat="61.5847306455" lon="4.93841087775">
		<tag k="name" v="Nordre Nekkøya" />
		<tag k="ssr:date" v="2019-05-31" />
		<tag k="ssr:gruppe" v="veg" />
		<tag k="ssr:hovedgruppe" v="infrastruktur" />
		<tag k="ssr:stedsnr" v="1051971" />
		<tag k="ssr:type" v="adressenavn" />
	</node>
	<node id="-495020" lat="61.584646737" lon="4.99059400857">
		<tag k="name" v="Perholmen" />
		<tag k="ssr:date" v="2019-05-31" />
		<tag k="ssr:gruppe" v="veg" />
		<tag k="ssr:hovedgruppe" v="infrastruktur" />
		<tag k="ssr:stedsnr" v="1051968" />
		<tag k="ssr:type" v="adressenavn" />
	</node>
	<node id="-495019" lat="61.5872002467" lon="4.98694375426">
		<tag k="name" v="Måsholmen" />
		<tag k="ssr:date" v="2019-05-31" />
		<tag k="ssr:gruppe" v="veg" />
		<tag k="ssr:hovedgruppe" v="infrastruktur" />
		<tag k="ssr:stedsnr" v="1051967" />
		<tag k="ssr:type" v="adressenavn" />
	</node>
	<node id="-495018" lat="61.6033360106" lon="4.82831157548">
		<tag k="name" v="Kvaløysund" />
		<tag k="ssr:date" v="2019-05-31" />
		<tag k="ssr:gruppe" v="veg" />
		<tag k="ssr:hovedgruppe" v="infrastruktur" />
		<tag k="ssr:stedsnr" v="1051962" />
		<tag k="ssr:type" v="adressenavn" />
	</node>
	<node id="-495017" lat="61.5912517429" lon="4.86548505365">
		<tag k="name" v="Skorpeidet" />
		<tag k="ssr:date" v="2019-05-31" />
		<tag k="ssr:gruppe" v="veg" />
		<tag k="ssr:hovedgruppe" v="infrastruktur" />
		<tag k="ssr:stedsnr" v="1051961" />
		<tag k="ssr:type" v="adressenavn" />
	</node>
	<node id="-495016" lat="61.6449647906" lon="4.99819537811">
		<tag k="name" v="Uraøya" />
		<tag k="ssr:date" v="2019-05-31" />
		<tag k="ssr:gruppe" v="veg" />
		<tag k="ssr:hovedgruppe" v="infrastruktur" />
		<tag k="ssr:stedsnr" v="1051956" />
		<tag k="ssr:type" v="adressenavn" />
	</node>
	<node id="-495015" lat="61.6404746855" lon="4.99567756762">
		<tag k="name" v="Uraholmen" />
		<tag k="ssr:date" v="2019-05-31" />
		<tag k="ssr:gruppe" v="veg" />
		<tag k="ssr:hovedgruppe" v="infrastruktur" />
		<tag k="ssr:stedsnr" v="1051953" />
		<tag k="ssr:type" v="adressenavn" />
	</node>
	<node id="-495014" lat="61.6322519694" lon="4.96368313055">
		<tag k="name" v="Brendholmen" />
		<tag k="ssr:date" v="2019-05-31" />
		<tag k="ssr:gruppe" v="veg" />
		<tag k="ssr:hovedgruppe" v="infrastruktur" />
		<tag k="ssr:stedsnr" v="1051952" />
		<tag k="ssr:type" v="adressenavn" />
	</node>
	<node id="-495013" lat="61.63003519" lon="4.95256297494">
		<tag k="name" v="Apalholmen" />
		<tag k="ssr:date" v="2019-05-31" />
		<tag k="ssr:gruppe" v="veg" />
		<tag k="ssr:hovedgruppe" v="infrastruktur" />
		<tag k="ssr:stedsnr" v="1051949" />
		<tag k="ssr:type" v="adressenavn" />
	</node>
	<node id="-495012" lat="61.5982988358" lon="5.06215402325">
		<tag k="name" v="Ragnarrud" />
		<tag k="ssr:date" v="2019-05-31" />
		<tag k="ssr:gruppe" v="veg" />
		<tag k="ssr:hovedgruppe" v="infrastruktur" />
		<tag k="ssr:stedsnr" v="1051783" />
		<tag k="ssr:type" v="adressenavn" />
	</node>
	<node id="-495011" lat="61.5865333336" lon="4.99210277798">
		<tag k="name" v="Trollskjeret" />
		<tag k="ssr:date" v="2016-05-10" />
		<tag k="ssr:gruppe" v="navigasjon" />
		<tag k="ssr:hovedgruppe" v="infrastruktur" />
		<tag k="ssr:stedsnr" v="360318" />
		<tag k="ssr:type" v="lanterne" />
	</node>
	<node id="-495010" lat="61.5971777821" lon="4.95528888553">
		<tag k="loc_name" v="Vestre Mortingsbåen lanterne" />
		<tag k="name" v="Mortingsbåen vestre" />
		<tag k="ssr:date" v="2016-05-10" />
		<tag k="ssr:gruppe" v="navigasjon" />
		<tag k="ssr:hovedgruppe" v="infrastruktur" />
		<tag k="ssr:stedsnr" v="360315" />
		<tag k="ssr:type" v="lanterne" />
	</node>
	<node id="-495009" lat="61.6225805568" lon="5.0346277796">
		<tag k="name" v="Risøygrunnen lanterne" />
		<tag k="ssr:date" v="2016-12-29" />
		<tag k="ssr:gruppe" v="navigasjon" />
		<tag k="ssr:hovedgruppe" v="infrastruktur" />
		<tag k="ssr:stedsnr" v="360313" />
		<tag k="ssr:type" v="lanterne" />
	</node>
	<node id="-495339" lat="61.6457272992" lon="5.00038343425">
		<tag k="name" v="Sundet" />
		<tag k="ssr:date" v="2019-12-03" />
		<tag k="ssr:gruppe" v="veg" />
		<tag k="ssr:hovedgruppe" v="infrastruktur" />
		<tag k="ssr:stedsnr" v="1073633" />
		<tag k="ssr:type" v="adressenavn" />
	</node>
	<node id="-497535" lat="61.6084111085" lon="5.24255276974">
		<tag k="alt_name" v="Helgøy" />
		<tag k="name" v="Helgøy lykt" />
		<tag k="ssr:date" v="2016-05-11" />
		<tag k="ssr:gruppe" v="navigasjon" />
		<tag k="ssr:hovedgruppe" v="infrastruktur" />
		<tag k="ssr:stedsnr" v="695761" />
		<tag k="ssr:type" v="fyrlykt" />
	</node>
	<node id="-496873" lat="61.5877333302" lon="4.95571111787">
		<tag k="name" v="Kalvøytåa nord" />
		<tag k="ssr:date" v="2016-05-10" />
		<tag k="ssr:gruppe" v="navigasjon" />
		<tag k="ssr:hovedgruppe" v="infrastruktur" />
		<tag k="ssr:stedsnr" v="525154" />
		<tag k="ssr:type" v="lanterne" />
	</node>
	<node id="-495336" lat="61.6003410518" lon="5.11523976176">
		<tag k="name" v="Nordre Instetunet" />
		<tag k="ssr:date" v="2019-12-03" />
		<tag k="ssr:gruppe" v="veg" />
		<tag k="ssr:hovedgruppe" v="infrastruktur" />
		<tag k="ssr:stedsnr" v="1073630" />
		<tag k="ssr:type" v="adressenavn" />
	</node>
	<node id="-498001" lat="61.5391277758" lon="5.1611638817">
		<tag k="alt_name" v="Stavangsund" />
		<tag k="name" v="Stavangsund lykt" />
		<tag k="ssr:date" v="2016-05-11" />
		<tag k="ssr:gruppe" v="navigasjon" />
		<tag k="ssr:hovedgruppe" v="infrastruktur" />
		<tag k="ssr:stedsnr" v="813903" />
		<tag k="ssr:type" v="fyrlykt" />
	</node>
	<node id="-496447" lat="61.5965138847" lon="4.93755833791">
		<tag k="alt_name" v="Ånøyskjær" />
		<tag k="name" v="Ånnøyskjeret lykt" />
		<tag k="ssr:date" v="2016-05-10" />
		<tag k="ssr:gruppe" v="navigasjon" />
		<tag k="ssr:hovedgruppe" v="infrastruktur" />
		<tag k="ssr:stedsnr" v="433138" />
		<tag k="ssr:type" v="fyrlykt" />
	</node>
	<node id="-497204" lat="61.6509333306" lon="4.97547499619">
		<tag k="alt_name" v="Drågaskjerflua" />
		<tag k="name" v="Drågjaskjerflu" />
		<tag k="ssr:date" v="2016-05-10" />
		<tag k="ssr:gruppe" v="navigasjon" />
		<tag k="ssr:hovedgruppe" v="infrastruktur" />
		<tag k="ssr:stedsnr" v="615086" />
		<tag k="ssr:type" v="fyrlykt" />
	</node>
	<node id="-496435" lat="61.666055555" lon="4.97885556412">
		<tag k="alt_name" v="Seljestokk;Seljestokk lykt" />
		<tag k="name" v="Seljestokken lykt" />
		<tag k="ssr:date" v="2016-05-10" />
		<tag k="ssr:gruppe" v="navigasjon" />
		<tag k="ssr:hovedgruppe" v="infrastruktur" />
		<tag k="ssr:stedsnr" v="433023" />
		<tag k="ssr:type" v="fyrlykt" />
	</node>
	<node id="-497962" lat="61.5098277798" lon="4.99529167422">
		<tag k="alt_name" v="Askrova" />
		<tag k="name" v="Askrova lykt" />
		<tag k="ssr:date" v="2016-05-11" />
		<tag k="ssr:gruppe" v="navigasjon" />
		<tag k="ssr:hovedgruppe" v="infrastruktur" />
		<tag k="ssr:stedsnr" v="797805" />
		<tag k="ssr:type" v="fyrlykt" />
	</node>
	<node id="-496914" lat="61.6654444423" lon="4.84068610777">
		<tag k="alt_name" v="Dombeskjærene" />
		<tag k="name" v="Dombeskjera lykt" />
		<tag k="ssr:date" v="2016-05-10" />
		<tag k="ssr:gruppe" v="navigasjon" />
		<tag k="ssr:hovedgruppe" v="infrastruktur" />
		<tag k="ssr:stedsnr" v="554002" />
		<tag k="ssr:type" v="fyrlykt" />
	</node>
	<node id="-496907" lat="61.6015527802" lon="5.01105277545">
		<tag k="name" v="Nordnes molo lanterne" />
		<tag k="ssr:date" v="2016-05-10" />
		<tag k="ssr:gruppe" v="navigasjon" />
		<tag k="ssr:hovedgruppe" v="infrastruktur" />
		<tag k="ssr:stedsnr" v="542346" />
		<tag k="ssr:type" v="lanterne" />
	</node>
	<node id="-495364" lat="61.550661113" lon="4.76335000818">
		<tag k="alt_name" v="Sandøya" />
		<tag k="name" v="Sandøy" />
		<tag k="ssr:date" v="2016-05-10" />
		<tag k="ssr:gruppe" v="navigasjon" />
		<tag k="ssr:hovedgruppe" v="infrastruktur" />
		<tag k="ssr:stedsnr" v="8236" />
		<tag k="ssr:type" v="fyrlykt" />
	</node>
	<node id="-497919" lat="61.6154999981" lon="4.86898332567">
		<tag k="alt_name" v="Vassøy" />
		<tag k="name" v="Vassøya lykt" />
		<tag k="ssr:date" v="2016-05-11" />
		<tag k="ssr:gruppe" v="navigasjon" />
		<tag k="ssr:hovedgruppe" v="infrastruktur" />
		<tag k="ssr:stedsnr" v="797171" />
		<tag k="ssr:type" v="fyrlykt" />
	</node>
	<node id="-495343" lat="61.6733570136" lon="4.84089375983">
		<tag k="name" v="Domba" />
		<tag k="ssr:date" v="2019-12-03" />
		<tag k="ssr:gruppe" v="veg" />
		<tag k="ssr:hovedgruppe" v="infrastruktur" />
		<tag k="ssr:stedsnr" v="1073637" />
		<tag k="ssr:type" v="adressenavn" />
	</node>
	<node id="-495342" lat="61.6041320378" lon="5.14465715934">
		<tag k="name" v="Mosehogane" />
		<tag k="ssr:date" v="2019-12-03" />
		<tag k="ssr:gruppe" v="veg" />
		<tag k="ssr:hovedgruppe" v="infrastruktur" />
		<tag k="ssr:stedsnr" v="1073636" />
		<tag k="ssr:type" v="adressenavn" />
	</node>
	<node id="-495341" lat="61.5716331351" lon="5.18472258949">
		<tag k="name" v="Litle Timberøya" />
		<tag k="ssr:date" v="2019-12-03" />
		<tag k="ssr:gruppe" v="veg" />
		<tag k="ssr:hovedgruppe" v="infrastruktur" />
		<tag k="ssr:stedsnr" v="1073635" />
		<tag k="ssr:type" v="adressenavn" />
	</node>
	<node id="-495340" lat="61.5851200453" lon="4.96091930507">
		<tag k="name" v="Færøyvegen" />
		<tag k="ssr:date" v="2019-12-03" />
		<tag k="ssr:gruppe" v="veg" />
		<tag k="ssr:hovedgruppe" v="infrastruktur" />
		<tag k="ssr:stedsnr" v="1073634" />
		<tag k="ssr:type" v="adressenavn" />
	</node>
	<node id="-498411" lat="61.575566663" lon="4.68792500334">
		<tag k="alt_name" v="Ternehaug" />
		<tag k="name" v="Ternehaug lykt" />
		<tag k="ssr:date" v="2016-05-11" />
		<tag k="ssr:gruppe" v="navigasjon" />
		<tag k="ssr:hovedgruppe" v="infrastruktur" />
		<tag k="ssr:stedsnr" v="919470" />
		<tag k="ssr:type" v="fyrlykt" />
	</node>
	<node id="-495338" lat="61.6448661403" lon="5.0047469311">
		<tag k="name" v="Uravågen" />
		<tag k="ssr:date" v="2019-12-03" />
		<tag k="ssr:gruppe" v="veg" />
		<tag k="ssr:hovedgruppe" v="infrastruktur" />
		<tag k="ssr:stedsnr" v="1073632" />
		<tag k="ssr:type" v="adressenavn" />
	</node>
	<node id="-495337" lat="61.600048973" lon="5.11603116553">
		<tag k="name" v="Søre Instetunet" />
		<tag k="ssr:date" v="2019-12-03" />
		<tag k="ssr:gruppe" v="veg" />
		<tag k="ssr:hovedgruppe" v="infrastruktur" />
		<tag k="ssr:stedsnr" v="1073631" />
		<tag k="ssr:type" v="adressenavn" />
	</node>
	<node id="-495848" lat="61.5833083299" lon="4.78344999203">
		<tag k="alt_name" v="Æsøysundet" />
		<tag k="name" v="Æsøysundet lykt" />
		<tag k="ssr:date" v="2016-05-10" />
		<tag k="ssr:gruppe" v="navigasjon" />
		<tag k="ssr:hovedgruppe" v="infrastruktur" />
		<tag k="ssr:stedsnr" v="130116" />
		<tag k="ssr:type" v="fyrlykt" />
	</node>
	<node id="-495335" lat="61.5600449989" lon="5.09380785089">
		<tag k="name" v="Smedviktunet" />
		<tag k="ssr:date" v="2019-12-03" />
		<tag k="ssr:gruppe" v="veg" />
		<tag k="ssr:hovedgruppe" v="infrastruktur" />
		<tag k="ssr:stedsnr" v="1073629" />
		<tag k="ssr:type" v="adressenavn" />
	</node>
	<node id="-495334" lat="61.6367596459" lon="5.34483314493">
		<tag k="name" v="Austre Norddalsøya" />
		<tag k="ssr:date" v="2019-12-03" />
		<tag k="ssr:gruppe" v="veg" />
		<tag k="ssr:hovedgruppe" v="infrastruktur" />
		<tag k="ssr:stedsnr" v="1073627" />
		<tag k="ssr:type" v="adressenavn" />
	</node>
	<node id="-495333" lat="61.5690169282" lon="5.57458330705">
		<tag k="name" v="Agledalsvegen" />
		<tag k="ssr:date" v="2019-12-03" />
		<tag k="ssr:gruppe" v="veg" />
		<tag k="ssr:hovedgruppe" v="infrastruktur" />
		<tag k="ssr:stedsnr" v="1073626" />
		<tag k="ssr:type" v="adressenavn" />
	</node>
	<node id="-495328" lat="61.6716165293" lon="4.97027880791">
		<tag k="name" v="Småskjeret" />
		<tag k="ssr:date" v="2019-11-15" />
		<tag k="ssr:gruppe" v="navigasjon" />
		<tag k="ssr:hovedgruppe" v="infrastruktur" />
		<tag k="ssr:stedsnr" v="1073304" />
		<tag k="ssr:type" v="sjøvarde" />
	</node>
	<node id="-497931" lat="61.4837555557" lon="4.99332499933">
		<tag k="alt_name" v="Trefotskjer" />
		<tag k="name" v="Trefotskjer lykt" />
		<tag k="ssr:date" v="2016-05-11" />
		<tag k="ssr:gruppe" v="navigasjon" />
		<tag k="ssr:hovedgruppe" v="infrastruktur" />
		<tag k="ssr:stedsnr" v="797331" />
		<tag k="ssr:type" v="fyrlykt" />
	</node>
	<node id="-494797" lat="61.6321944421" lon="4.81608332914">
		<tag k="alt_name" v="Værholmen" />
		<tag k="name" v="Værholmen lykt" />
		<tag k="ssr:date" v="2016-05-10" />
		<tag k="ssr:gruppe" v="navigasjon" />
		<tag k="ssr:hovedgruppe" v="infrastruktur" />
		<tag k="ssr:stedsnr" v="312068" />
		<tag k="ssr:type" v="fyrlykt" />
	</node>
	<node id="-496161" lat="61.564122226" lon="4.77260555975">
		<tag k="alt_name" v="Kinnasundet" />
		<tag k="name" v="Kinnesund" />
		<tag k="ssr:date" v="2016-05-10" />
		<tag k="ssr:gruppe" v="navigasjon" />
		<tag k="ssr:hovedgruppe" v="infrastruktur" />
		<tag k="ssr:stedsnr" v="210732" />
		<tag k="ssr:type" v="fyrlykt" />
	</node>
	<node id="-498369" lat="61.611038891" lon="4.80816111632">
		<tag k="alt_name" v="Teisthalsen" />
		<tag k="name" v="Teisthalsen lykt" />
		<tag k="ssr:date" v="2016-05-11" />
		<tag k="ssr:gruppe" v="navigasjon" />
		<tag k="ssr:hovedgruppe" v="infrastruktur" />
		<tag k="ssr:stedsnr" v="918179" />
		<tag k="ssr:type" v="fyrlykt" />
	</node>
	<node id="-498364" lat="61.6083945968" lon="5.05860271298">
		<tag k="name" v="Sjufotsbåen lanterne" />
		<tag k="ssr:date" v="2016-12-29" />
		<tag k="ssr:gruppe" v="navigasjon" />
		<tag k="ssr:hovedgruppe" v="infrastruktur" />
		<tag k="ssr:stedsnr" v="907321" />
		<tag k="ssr:type" v="lanterne" />
	</node>
	<node id="-498363" lat="61.636930557" lon="4.98368611699">
		<tag k="alt_name" v="Vestre Tekneskjærflu" />
		<tag k="name" v="Vestre Tekneskjerflua lanterne" />
		<tag k="ssr:date" v="2016-05-11" />
		<tag k="ssr:gruppe" v="navigasjon" />
		<tag k="ssr:hovedgruppe" v="infrastruktur" />
		<tag k="ssr:stedsnr" v="907318" />
		<tag k="ssr:type" v="lanterne" />
	</node>
	<node id="-496313" lat="61.5976083332" lon="4.96738611865">
		<tag k="name" v="Svartskjerbåen lanterne" />
		<tag k="ssr:date" v="2016-05-10" />
		<tag k="ssr:gruppe" v="navigasjon" />
		<tag k="ssr:hovedgruppe" v="infrastruktur" />
		<tag k="ssr:stedsnr" v="239328" />
		<tag k="ssr:type" v="lanterne" />
	</node>
	<node id="-495287" lat="61.6293138918" lon="4.9352027713">
		<tag k="name" v="Storeflea" />
		<tag k="ssr:date" v="2016-05-10" />
		<tag k="ssr:gruppe" v="navigasjon" />
		<tag k="ssr:hovedgruppe" v="infrastruktur" />
		<tag k="ssr:stedsnr" v="478905" />
		<tag k="ssr:type" v="lanterne" />
	</node>
	<node id="-496310" lat="61.6081694477" lon="5.01048333854">
		<tag k="name" v="Rotasundet lanterne" />
		<tag k="ssr:date" v="2016-05-10" />
		<tag k="ssr:gruppe" v="navigasjon" />
		<tag k="ssr:hovedgruppe" v="infrastruktur" />
		<tag k="ssr:stedsnr" v="239327" />
		<tag k="ssr:type" v="lanterne" />
	</node>
	<node id="-495276" lat="61.6006744393" lon="4.95518547837">
		<tag k="alt_name" v="Stabben" />
		<tag k="name" v="Stabben fyr" />
		<tag k="ssr:date" v="2019-10-16" />
		<tag k="ssr:gruppe" v="navigasjon" />
		<tag k="ssr:hovedgruppe" v="infrastruktur" />
		<tag k="ssr:stedsnr" v="477139" />
		<tag k="ssr:type" v="fyrstasjon" />
	</node>
	<node id="-494754" lat="61.6232444423" lon="5.0132222177">
		<tag k="name" v="Risøya lanterne" />
		<tag k="ssr:date" v="2016-05-10" />
		<tag k="ssr:gruppe" v="navigasjon" />
		<tag k="ssr:hovedgruppe" v="infrastruktur" />
		<tag k="ssr:stedsnr" v="300371" />
		<tag k="ssr:type" v="lanterne" />
	</node>
	<node id="-494753" lat="61.597750004" lon="4.95753611114">
		<tag k="loc_name" v="Austre Mortingsbåen lanterne" />
		<tag k="name" v="Mortingsbåen østre" />
		<tag k="ssr:date" v="2016-05-10" />
		<tag k="ssr:gruppe" v="navigasjon" />
		<tag k="ssr:hovedgruppe" v="infrastruktur" />
		<tag k="ssr:stedsnr" v="300367" />
		<tag k="ssr:type" v="lanterne" />
	</node>
	<node id="-495775" lat="61.5949499958" lon="4.9465055603">
		<tag k="name" v="Ånnøyholmbåen lanterne" />
		<tag k="ssr:date" v="2016-05-10" />
		<tag k="ssr:gruppe" v="navigasjon" />
		<tag k="ssr:hovedgruppe" v="infrastruktur" />
		<tag k="ssr:stedsnr" v="100132" />
		<tag k="ssr:type" v="lanterne" />
	</node>
	<node id="-494745" lat="61.553908338" lon="5.27341389595">
		<tag k="alt_name" v="Langenesgrunnen" />
		<tag k="name" v="Langenesgrunnen lykt" />
		<tag k="ssr:date" v="2016-05-10" />
		<tag k="ssr:gruppe" v="navigasjon" />
		<tag k="ssr:hovedgruppe" v="infrastruktur" />
		<tag k="ssr:stedsnr" v="295576" />
		<tag k="ssr:type" v="fyrlykt" />
	</node>
	<node id="-494738" lat="61.5796527779" lon="4.95695556495">
		<tag k="name" v="Færøybåen lanterne" />
		<tag k="ssr:date" v="2016-05-10" />
		<tag k="ssr:gruppe" v="navigasjon" />
		<tag k="ssr:hovedgruppe" v="infrastruktur" />
		<tag k="ssr:stedsnr" v="282146" />
		<tag k="ssr:type" v="lanterne" />
	</node>
	<node id="-495128" lat="61.6069136572" lon="5.04207099741">
		<tag k="name" v="St. Helena" />
		<tag k="ssr:date" v="2019-05-31" />
		<tag k="ssr:gruppe" v="veg" />
		<tag k="ssr:hovedgruppe" v="infrastruktur" />
		<tag k="ssr:stedsnr" v="1051998" />
		<tag k="ssr:type" v="adressenavn" />
	</node>
	<node id="-497253" lat="61.5182444479" lon="4.88080554787">
		<tag k="alt_name" v="Kvanskjær" />
		<tag k="name" v="Kvannskjeret" />
		<tag k="ssr:date" v="2016-05-10" />
		<tag k="ssr:gruppe" v="navigasjon" />
		<tag k="ssr:hovedgruppe" v="infrastruktur" />
		<tag k="ssr:stedsnr" v="615743" />
		<tag k="ssr:type" v="fyrlykt" />
	</node>
	<node id="-497165" lat="61.6026499997" lon="4.97491943734">
		<tag k="name" v="Grasskjerbåen lanterne" />
		<tag k="ssr:date" v="2016-05-10" />
		<tag k="ssr:gruppe" v="navigasjon" />
		<tag k="ssr:hovedgruppe" v="infrastruktur" />
		<tag k="ssr:stedsnr" v="603342" />
		<tag k="ssr:type" v="lanterne" />
	</node>
	<node id="-497228" lat="61.5707622373" lon="4.67996614779">
		<tag k="alt_name" v="Ytterøyane" />
		<tag k="name" v="Ytterøyane fyr" />
		<tag k="ssr:date" v="2018-06-05" />
		<tag k="ssr:gruppe" v="navigasjon" />
		<tag k="ssr:hovedgruppe" v="infrastruktur" />
		<tag k="ssr:stedsnr" v="615461" />
		<tag k="ssr:type" v="fyrstasjon" />
	</node>
	<node id="-498241" lat="61.6000805562" lon="5.0375055568">
		<tag k="alt_name" v="Flora" />
		<tag k="name" v="Flora kommune" />
		<tag k="ssr:date" v="2019-08-14" />
		<tag k="ssr:gruppe" v="administrativeIndelinger" />
		<tag k="ssr:hovedgruppe" v="offentligAdministrasjon" />
		<tag k="ssr:stedsnr" v="874627" />
		<tag k="ssr:type" v="kommune" />
	</node>
	<node id="-496692" lat="61.6971333355" lon="4.83134722702">
		<tag k="alt_name" v="Kvanhovden;Kvannhovden" />
		<tag k="name" v="Kvannhovden fyr" />
		<tag k="ssr:date" v="2016-05-10" />
		<tag k="ssr:gruppe" v="navigasjon" />
		<tag k="ssr:hovedgruppe" v="infrastruktur" />
		<tag k="ssr:stedsnr" v="494046" />
		<tag k="ssr:type" v="fyrstasjon" />
	</node>
	<node id="-495151" lat="61.5975211104" lon="4.93654529938">
		<tag k="name" v="Indre Ånnøya" />
		<tag k="ssr:date" v="2019-05-31" />
		<tag k="ssr:gruppe" v="veg" />
		<tag k="ssr:hovedgruppe" v="infrastruktur" />
		<tag k="ssr:stedsnr" v="1052577" />
		<tag k="ssr:type" v="adressenavn" />
	</node>
	<node id="-495150" lat="61.6122680542" lon="4.83435805123">
		<tag k="name" v="Store Langøya" />
		<tag k="ssr:date" v="2019-05-31" />
		<tag k="ssr:gruppe" v="veg" />
		<tag k="ssr:hovedgruppe" v="infrastruktur" />
		<tag k="ssr:stedsnr" v="1052575" />
		<tag k="ssr:type" v="adressenavn" />
	</node>
	<node id="-495149" lat="61.475088127" lon="5.09048620245">
		<tag k="name" v="Kvalstadøyna" />
		<tag k="ssr:date" v="2019-05-31" />
		<tag k="ssr:gruppe" v="veg" />
		<tag k="ssr:hovedgruppe" v="infrastruktur" />
		<tag k="ssr:stedsnr" v="1052211" />
		<tag k="ssr:type" v="adressenavn" />
	</node>
	<node id="-495148" lat="61.6165828872" lon="5.24899645646">
		<tag k="name" v="Uførevågen" />
		<tag k="ssr:date" v="2019-05-31" />
		<tag k="ssr:gruppe" v="veg" />
		<tag k="ssr:hovedgruppe" v="infrastruktur" />
		<tag k="ssr:stedsnr" v="1052203" />
		<tag k="ssr:type" v="adressenavn" />
	</node>
	<node id="-495147" lat="61.565460143" lon="5.12858908612">
		<tag k="name" v="Seterskar" />
		<tag k="ssr:date" v="2019-05-31" />
		<tag k="ssr:gruppe" v="veg" />
		<tag k="ssr:hovedgruppe" v="infrastruktur" />
		<tag k="ssr:stedsnr" v="1052189" />
		<tag k="ssr:type" v="adressenavn" />
	</node>
	<node id="-495146" lat="61.5702076697" lon="5.06843559689">
		<tag k="name" v="Nordre Stavøya" />
		<tag k="ssr:date" v="2019-05-31" />
		<tag k="ssr:gruppe" v="veg" />
		<tag k="ssr:hovedgruppe" v="infrastruktur" />
		<tag k="ssr:stedsnr" v="1052188" />
		<tag k="ssr:type" v="adressenavn" />
	</node>
	<node id="-495145" lat="61.5564782333" lon="5.15871420907">
		<tag k="name" v="Eikevik" />
		<tag k="ssr:date" v="2019-05-31" />
		<tag k="ssr:gruppe" v="veg" />
		<tag k="ssr:hovedgruppe" v="infrastruktur" />
		<tag k="ssr:stedsnr" v="1052186" />
		<tag k="ssr:type" v="adressenavn" />
	</node>
	<node id="-495144" lat="61.6001711968" lon="5.35956453409">
		<tag k="name" v="Grønevika" />
		<tag k="ssr:date" v="2019-05-31" />
		<tag k="ssr:gruppe" v="veg" />
		<tag k="ssr:hovedgruppe" v="infrastruktur" />
		<tag k="ssr:stedsnr" v="1052184" />
		<tag k="ssr:type" v="adressenavn" />
	</node>
	<node id="-495143" lat="61.6157967436" lon="4.79640064153">
		<tag k="name" v="Litle Batalden" />
		<tag k="ssr:date" v="2019-05-31" />
		<tag k="ssr:gruppe" v="veg" />
		<tag k="ssr:hovedgruppe" v="infrastruktur" />
		<tag k="ssr:stedsnr" v="1052035" />
		<tag k="ssr:type" v="adressenavn" />
	</node>
	<node id="-495142" lat="61.6379424128" lon="4.81313734472">
		<tag k="name" v="Store Batalden" />
		<tag k="ssr:date" v="2019-05-31" />
		<tag k="ssr:gruppe" v="veg" />
		<tag k="ssr:hovedgruppe" v="infrastruktur" />
		<tag k="ssr:stedsnr" v="1052033" />
		<tag k="ssr:type" v="adressenavn" />
	</node>
	<node id="-495141" lat="61.6161104206" lon="4.83418081945">
		<tag k="name" v="Store Buarøya" />
		<tag k="ssr:date" v="2019-05-31" />
		<tag k="ssr:gruppe" v="veg" />
		<tag k="ssr:hovedgruppe" v="infrastruktur" />
		<tag k="ssr:stedsnr" v="1052028" />
		<tag k="ssr:type" v="adressenavn" />
	</node>
	<node id="-495140" lat="61.6303686396" lon="4.83830603604">
		<tag k="name" v="Høgholmen" />
		<tag k="ssr:date" v="2019-05-31" />
		<tag k="ssr:gruppe" v="veg" />
		<tag k="ssr:hovedgruppe" v="infrastruktur" />
		<tag k="ssr:stedsnr" v="1052027" />
		<tag k="ssr:type" v="adressenavn" />
	</node>
	<node id="-495139" lat="61.6284940416" lon="4.83255109042">
		<tag k="name" v="Kjelda" />
		<tag k="ssr:date" v="2019-05-31" />
		<tag k="ssr:gruppe" v="veg" />
		<tag k="ssr:hovedgruppe" v="infrastruktur" />
		<tag k="ssr:stedsnr" v="1052026" />
		<tag k="ssr:type" v="adressenavn" />
	</node>
	<node id="-495138" lat="61.6236080913" lon="4.82858176051">
		<tag k="name" v="Kuggen" />
		<tag k="ssr:date" v="2019-05-31" />
		<tag k="ssr:gruppe" v="veg" />
		<tag k="ssr:hovedgruppe" v="infrastruktur" />
		<tag k="ssr:stedsnr" v="1052024" />
		<tag k="ssr:type" v="adressenavn" />
	</node>
	<node id="-495137" lat="61.6337399625" lon="4.83683215339">
		<tag k="name" v="Russøya" />
		<tag k="ssr:date" v="2019-05-31" />
		<tag k="ssr:gruppe" v="veg" />
		<tag k="ssr:hovedgruppe" v="infrastruktur" />
		<tag k="ssr:stedsnr" v="1052023" />
		<tag k="ssr:type" v="adressenavn" />
	</node>
	<node id="-495136" lat="61.620269026" lon="4.8325823204">
		<tag k="name" v="Fugløya" />
		<tag k="ssr:date" v="2019-05-31" />
		<tag k="ssr:gruppe" v="veg" />
		<tag k="ssr:hovedgruppe" v="infrastruktur" />
		<tag k="ssr:stedsnr" v="1052021" />
		<tag k="ssr:type" v="adressenavn" />
	</node>
	<node id="-495135" lat="61.4970060711" lon="4.94911679471">
		<tag k="name" v="Hamnen" />
		<tag k="ssr:date" v="2019-05-31" />
		<tag k="ssr:gruppe" v="veg" />
		<tag k="ssr:hovedgruppe" v="infrastruktur" />
		<tag k="ssr:stedsnr" v="1052017" />
		<tag k="ssr:type" v="adressenavn" />
	</node>
	<node id="-495134" lat="61.5001925142" lon="4.94019927481">
		<tag k="name" v="Raudøya" />
		<tag k="ssr:date" v="2019-05-31" />
		<tag k="ssr:gruppe" v="veg" />
		<tag k="ssr:hovedgruppe" v="infrastruktur" />
		<tag k="ssr:stedsnr" v="1052013" />
		<tag k="ssr:type" v="adressenavn" />
	</node>
	<node id="-495133" lat="61.4992381004" lon="4.94286324534">
		<tag k="name" v="Raudesundet" />
		<tag k="ssr:date" v="2019-05-31" />
		<tag k="ssr:gruppe" v="veg" />
		<tag k="ssr:hovedgruppe" v="infrastruktur" />
		<tag k="ssr:stedsnr" v="1052012" />
		<tag k="ssr:type" v="adressenavn" />
	</node>
	<node id="-495132" lat="61.4967158777" lon="4.92372490681">
		<tag k="name" v="Æsøya" />
		<tag k="ssr:date" v="2019-05-31" />
		<tag k="ssr:gruppe" v="veg" />
		<tag k="ssr:hovedgruppe" v="infrastruktur" />
		<tag k="ssr:stedsnr" v="1052010" />
		<tag k="ssr:type" v="adressenavn" />
	</node>
	<node id="-495131" lat="61.5690689891" lon="5.05349892546">
		<tag k="name" v="Veidesund" />
		<tag k="ssr:date" v="2019-05-31" />
		<tag k="ssr:gruppe" v="veg" />
		<tag k="ssr:hovedgruppe" v="infrastruktur" />
		<tag k="ssr:stedsnr" v="1052007" />
		<tag k="ssr:type" v="adressenavn" />
	</node>
	<node id="-495130" lat="61.5659518427" lon="5.05574272808">
		<tag k="name" v="Hamnøya" />
		<tag k="ssr:date" v="2019-05-31" />
		<tag k="ssr:gruppe" v="veg" />
		<tag k="ssr:hovedgruppe" v="infrastruktur" />
		<tag k="ssr:stedsnr" v="1052006" />
		<tag k="ssr:type" v="adressenavn" />
	</node>
	<node id="-495129" lat="61.6240060444" lon="5.09145915034">
		<tag k="name" v="Store Terøya" />
		<tag k="ssr:date" v="2019-05-31" />
		<tag k="ssr:gruppe" v="veg" />
		<tag k="ssr:hovedgruppe" v="infrastruktur" />
		<tag k="ssr:stedsnr" v="1052001" />
		<tag k="ssr:type" v="adressenavn" />
	</node>
	<node id="-496664" lat="61.5815138908" lon="4.94740832679">
		<tag k="alt_name" v="Nekkøyosen" />
		<tag k="name" v="Nekkøyosen lykt" />
		<tag k="ssr:date" v="2016-05-10" />
		<tag k="ssr:gruppe" v="navigasjon" />
		<tag k="ssr:hovedgruppe" v="infrastruktur" />
		<tag k="ssr:stedsnr" v="493239" />
		<tag k="ssr:type" v="fyrlykt" />
	</node>
	<node id="-495124" lat="61.6362359981" lon="5.11349069413">
		<tag k="name" v="Terdalen" />
		<tag k="ssr:date" v="2019-05-31" />
		<tag k="ssr:gruppe" v="veg" />
		<tag k="ssr:hovedgruppe" v="infrastruktur" />
		<tag k="ssr:stedsnr" v="1051996" />
		<tag k="ssr:type" v="adressenavn" />
	</node>
	<node id="-495123" lat="61.5706341694" lon="4.68014276863">
		<tag k="name" v="Ytterøyane" />
		<tag k="ssr:date" v="2019-05-31" />
		<tag k="ssr:gruppe" v="veg" />
		<tag k="ssr:hovedgruppe" v="infrastruktur" />
		<tag k="ssr:stedsnr" v="1051994" />
		<tag k="ssr:type" v="adressenavn" />
	</node>
	<node id="-495122" lat="61.6006625744" lon="4.95533630384">
		<tag k="name" v="Stabben" />
		<tag k="ssr:date" v="2019-10-16" />
		<tag k="ssr:gruppe" v="veg" />
		<tag k="ssr:hovedgruppe" v="infrastruktur" />
		<tag k="ssr:stedsnr" v="1051993" />
		<tag k="ssr:type" v="adressenavn" />
	</node>
	<node id="-495121" lat="61.6065455405" lon="5.02315302064">
		<tag k="name" v="Rota" />
		<tag k="ssr:date" v="2019-05-31" />
		<tag k="ssr:gruppe" v="veg" />
		<tag k="ssr:hovedgruppe" v="infrastruktur" />
		<tag k="ssr:stedsnr" v="1051992" />
		<tag k="ssr:type" v="adressenavn" />
	</node>
	<node id="-495120" lat="61.6289894733" lon="5.05634087125">
		<tag k="name" v="Litle Sagaøya" />
		<tag k="ssr:date" v="2019-05-31" />
		<tag k="ssr:gruppe" v="veg" />
		<tag k="ssr:hovedgruppe" v="infrastruktur" />
		<tag k="ssr:stedsnr" v="1051989" />
		<tag k="ssr:type" v="adressenavn" />
	</node>
	<node id="-495119" lat="61.6340237065" lon="5.03833824093">
		<tag k="name" v="Pusavika" />
		<tag k="ssr:date" v="2019-05-31" />
		<tag k="ssr:gruppe" v="veg" />
		<tag k="ssr:hovedgruppe" v="infrastruktur" />
		<tag k="ssr:stedsnr" v="1051985" />
		<tag k="ssr:type" v="adressenavn" />
	</node>
	<node id="-495117" lat="61.6367227356" lon="5.0729211097">
		<tag k="name" v="Saga" />
		<tag k="ssr:date" v="2019-05-31" />
		<tag k="ssr:gruppe" v="veg" />
		<tag k="ssr:hovedgruppe" v="infrastruktur" />
		<tag k="ssr:stedsnr" v="1051983" />
		<tag k="ssr:type" v="adressenavn" />
	</node>
	<node id="-496651" lat="61.5848972203" lon="5.04971110364">
		<tag k="name" v="Geitholmen lanterne" />
		<tag k="ssr:date" v="2016-05-10" />
		<tag k="ssr:gruppe" v="navigasjon" />
		<tag k="ssr:hovedgruppe" v="infrastruktur" />
		<tag k="ssr:stedsnr" v="482354" />
		<tag k="ssr:type" v="lanterne" />
	</node>
	<node id="-497157" lat="61.5834027811" lon="5.43173332927">
		<tag k="alt_name" v="Notholmen" />
		<tag k="name" v="Notholmen lykt" />
		<tag k="ssr:date" v="2016-05-10" />
		<tag k="ssr:gruppe" v="navigasjon" />
		<tag k="ssr:hovedgruppe" v="infrastruktur" />
		<tag k="ssr:stedsnr" v="599716" />
		<tag k="ssr:type" v="fyrlykt" />
	</node>
</osm>
