<?xml version="1.0" encoding="UTF-8"?>
<osm generator="osmapis" version="0.6">
	<node id="-903165" lat="64.4735277803" lon="11.1533694453">
		<tag k="name" v="Storlitjønna" />
		<tag k="natural" v="water" />
		<tag k="ssr:stedsnr" v="75390" />
	</node>
	<node id="-903164" lat="64.2413805552" lon="11.1633305464">
		<tag k="name" v="Sagbekken" />
		<tag k="ssr:stedsnr" v="439630" />
		<tag k="waterway" v="stream" />
	</node>
	<node id="-903161" lat="64.4639944456" lon="11.1033416688">
		<tag k="name" v="Prinsen" />
		<tag k="place" v="islet" />
		<tag k="ssr:stedsnr" v="837375" />
	</node>
	<node id="-903160" lat="64.2786027776" lon="11.0239638788">
		<tag k="name" v="Lissbotnen" />
		<tag k="natural" v="water" />
		<tag k="ssr:stedsnr" v="499093" />
	</node>
	<node id="-903155" lat="64.2899833377" lon="11.3383805645">
		<tag k="name" v="Korsvatnet" />
		<tag k="natural" v="water" />
		<tag k="ssr:stedsnr" v="256791" />
	</node>
	<node id="-903153" lat="64.3759249965" lon="11.1824750036">
		<tag k="alt_name" v="Altinvatnet" />
		<tag k="name" v="Altvatnet" />
		<tag k="natural" v="water" />
		<tag k="ssr:stedsnr" v="559348" />
		<tag k="water" v="lake" />
	</node>
	<node id="-903138" lat="64.1753861069" lon="11.3349777781">
		<tag k="name" v="Lissvålåvatnet" />
		<tag k="natural" v="water" />
		<tag k="ssr:stedsnr" v="135852" />
	</node>
	<node id="-903134" lat="64.1529972193" lon="10.7675027708">
		<tag k="name" v="Sørtjønna" />
		<tag k="natural" v="water" />
		<tag k="ssr:stedsnr" v="742565" />
	</node>
	<node id="-903132" lat="64.4548111141" lon="11.1566444506">
		<tag k="name" v="Stattjønna" />
		<tag k="natural" v="water" />
		<tag k="ssr:stedsnr" v="802537" />
	</node>
	<node id="-903130" lat="64.2361749984" lon="10.9734611122">
		<tag k="name" v="Nellatjønna" />
		<tag k="natural" v="water" />
		<tag k="ssr:stedsnr" v="439622" />
	</node>
	<node id="-903126" lat="64.3330972261" lon="11.1498277703">
		<tag k="name" v="Ner-Kallhammarvatnet" />
		<tag k="natural" v="water" />
		<tag k="ssr:stedsnr" v="14259" />
		<tag k="water" v="lake" />
	</node>
	<node id="-903122" lat="64.2550472184" lon="11.0911749902">
		<tag k="name" v="Kvernbekken" />
		<tag k="ssr:stedsnr" v="924205" />
		<tag k="waterway" v="stream" />
	</node>
	<node id="-903113" lat="64.4923361148" lon="11.0196472199">
		<tag k="name" v="Steintjønna" />
		<tag k="natural" v="water" />
		<tag k="ssr:stedsnr" v="196370" />
	</node>
	<node id="-903100" lat="64.5316833374" lon="11.0317527856">
		<tag k="alt_name" v="Heiavatnet, l" />
		<tag k="name" v="Lissheiavatnet" />
		<tag k="natural" v="water" />
		<tag k="ssr:stedsnr" v="500725" />
		<tag k="water" v="lake" />
	</node>
	<node id="-903099" lat="64.3451416679" lon="11.0432166769">
		<tag k="name" v="Slættlielva" />
		<tag k="ssr:stedsnr" v="135307" />
		<tag k="waterway" v="stream" />
	</node>
	<node id="-903098" lat="64.3532305534" lon="11.0997111061">
		<tag k="name" v="Flytjønna" />
		<tag k="natural" v="water" />
		<tag k="ssr:stedsnr" v="559339" />
	</node>
	<node id="-903096" lat="64.2413335554" lon="11.0400535352">
		<tag k="name" v="Lissblåvatnet" />
		<tag k="natural" v="water" />
		<tag k="ssr:stedsnr" v="439625" />
	</node>
	<node id="-903093" lat="64.2706138859" lon="11.284916658">
		<tag k="name" v="Naustbukta" />
		<tag k="natural" v="bay" />
		<tag k="ssr:stedsnr" v="291339" />
	</node>
	<node id="-903091" lat="64.4174222253" lon="11.1903916644">
		<tag k="name" v="Lissfossneset" />
		<tag k="natural" v="cape" />
		<tag k="ssr:stedsnr" v="594745" />
	</node>
	<node id="-903088" lat="64.2452555562" lon="11.0399527779">
		<tag k="name" v="Svarttjønna" />
		<tag k="natural" v="water" />
		<tag k="ssr:stedsnr" v="48985" />
	</node>
	<node id="-903086" lat="64.3665583323" lon="11.1773916718">
		<tag k="name" v="Kvernabekken" />
		<tag k="ssr:stedsnr" v="863363" />
		<tag k="waterway" v="stream" />
	</node>
	<node id="-903077" lat="64.1602138868" lon="10.9236111165">
		<tag k="name" v="Settfisktjønnin" />
		<tag k="natural" v="water" />
		<tag k="ssr:stedsnr" v="803597" />
	</node>
	<node id="-903073" lat="64.1876222234" lon="11.0093333298">
		<tag k="name" v="Handbåggåbukta" />
		<tag k="natural" v="bay" />
		<tag k="ssr:stedsnr" v="560674" />
	</node>
	<node id="-903071" lat="64.2503083313" lon="10.9892611013">
		<tag k="name" v="Svartlona" />
		<tag k="natural" v="water" />
		<tag k="ssr:stedsnr" v="924723" />
		<tag k="water" v="lake" />
	</node>
	<node id="-903069" lat="64.2786944486" lon="11.2512500044">
		<tag k="name" v="Burstjønna" />
		<tag k="natural" v="water" />
		<tag k="ssr:stedsnr" v="742811" />
	</node>
	<node id="-903064" lat="64.2347027804" lon="11.0032277817">
		<tag k="name" v="Valen" />
		<tag k="natural" v="strait" />
		<tag k="ssr:stedsnr" v="716990" />
	</node>
	<node id="-903063" lat="64.491247226" lon="11.1423944529">
		<tag k="name" v="Statlandelva" />
		<tag k="ssr:stedsnr" v="196362" />
		<tag k="waterway" v="stream" />
	</node>
	<node id="-903056" lat="64.2437722186" lon="11.301502776">
		<tag k="name" v="Ramsbekken" />
		<tag k="ssr:stedsnr" v="828239" />
		<tag k="waterway" v="stream" />
	</node>
	<node id="-903054" lat="64.2295972217" lon="11.4483416685">
		<tag k="name" v="Kjølbekken" />
		<tag k="ssr:stedsnr" v="572254" />
		<tag k="waterway" v="stream" />
	</node>
	<node id="-903052" lat="64.2616138846" lon="11.2619166738">
		<tag k="name" v="Rinnaren" />
		<tag k="ssr:stedsnr" v="645199" />
		<tag k="waterway" v="stream" />
	</node>
	<node id="-903041" lat="64.2433194415" lon="10.9588583384">
		<tag k="name" v="Klokkartjønna" />
		<tag k="natural" v="water" />
		<tag k="ssr:stedsnr" v="21354" />
	</node>
	<node id="-903035" lat="64.4129361148" lon="11.1907083431">
		<tag k="name" v="Storfossneset" />
		<tag k="natural" v="cape" />
		<tag k="ssr:stedsnr" v="837770" />
	</node>
	<node id="-903030" lat="64.2989333337" lon="11.1878638842">
		<tag k="name" v="Nordbekken" />
		<tag k="ssr:stedsnr" v="38221" />
		<tag k="waterway" v="stream" />
	</node>
	<node id="-903027" lat="64.1606722226" lon="10.8265111029">
		<tag k="name" v="Seterelva" />
		<tag k="ssr:stedsnr" v="742563" />
		<tag k="waterway" v="stream" />
	</node>
	<node id="-903026" lat="64.2758555549" lon="11.2864861083">
		<tag k="name" v="Kaldalvatnet" />
		<tag k="natural" v="water" />
		<tag k="ssr:stedsnr" v="317764" />
		<tag k="water" v="lake" />
	</node>
	<node id="-903025" lat="64.1496666696" lon="10.8730666725">
		<tag k="name" v="Storbekken" />
		<tag k="ssr:stedsnr" v="533610" />
		<tag k="waterway" v="stream" />
	</node>
	<node id="-903022" lat="64.2153944416" lon="11.2817361137">
		<tag k="name" v="Tinglemselva" />
		<tag k="ssr:stedsnr" v="828259" />
		<tag k="waterway" v="river" />
	</node>
	<node id="-903016" lat="64.1723416645" lon="11.2101472316">
		<tag k="name" v="Lissenget" />
		<tag k="natural" v="cape" />
		<tag k="ssr:stedsnr" v="402386" />
	</node>
	<node id="-903012" lat="64.1663416643" lon="11.2405944383">
		<tag k="name" v="Brustuelva" />
		<tag k="ssr:stedsnr" v="888322" />
		<tag k="waterway" v="river" />
	</node>
	<node id="-903008" lat="64.1524722244" lon="11.027830553">
		<tag k="name" v="Holmvikbekken" />
		<tag k="ssr:stedsnr" v="863618" />
		<tag k="waterway" v="stream" />
	</node>
	<node id="-903000" lat="64.2781583316" lon="11.3924027827">
		<tag k="name" v="Reinfjelltjønna" />
		<tag k="natural" v="water" />
		<tag k="ssr:stedsnr" v="317767" />
	</node>
	<node id="-902993" lat="64.1609388893" lon="11.0514861175">
		<tag k="name" v="Holvasslibekken" />
		<tag k="ssr:stedsnr" v="742558" />
		<tag k="waterway" v="stream" />
	</node>
	<node id="-902992" lat="64.5342277785" lon="11.0308166642">
		<tag k="name" v="Grovatjønna" />
		<tag k="natural" v="water" />
		<tag k="ssr:stedsnr" v="560672" />
	</node>
	<node id="-902975" lat="64.1761638864" lon="10.9264638928">
		<tag k="name" v="Sørsellitjønna" />
		<tag k="natural" v="water" />
		<tag k="ssr:stedsnr" v="135555" />
	</node>
	<node id="-902970" lat="64.4856499972" lon="11.1460305483">
		<tag k="name" v="Stubbneset" />
		<tag k="natural" v="cape" />
		<tag k="ssr:stedsnr" v="715404" />
	</node>
	<node id="-902965" lat="64.2014333355" lon="11.022777772">
		<tag k="name" v="Auntjønna" />
		<tag k="natural" v="water" />
		<tag k="ssr:stedsnr" v="499601" />
	</node>
	<node id="-902962" lat="64.264036115" lon="11.1995916737">
		<tag k="name" v="Storneset" />
		<tag k="natural" v="cape" />
		<tag k="ssr:stedsnr" v="949214" />
	</node>
	<node id="-902957" lat="64.2982194479" lon="11.265255564">
		<tag k="name" v="Storheibekken" />
		<tag k="ssr:stedsnr" v="837334" />
		<tag k="waterway" v="stream" />
	</node>
	<node id="-902954" lat="64.2976527813" lon="11.1872833255">
		<tag k="name" v="Littlbekken" />
		<tag k="ssr:stedsnr" v="38199" />
		<tag k="waterway" v="stream" />
	</node>
	<node id="-902942" lat="64.1951333365" lon="10.9626750071">
		<tag k="name" v="Militærbekken" />
		<tag k="ssr:stedsnr" v="655505" />
		<tag k="waterway" v="stream" />
	</node>
	<node id="-902941" lat="64.1663444467" lon="10.8542666598">
		<tag k="name" v="Finnvollelva" />
		<tag k="ssr:stedsnr" v="75623" />
		<tag k="waterway" v="river" />
	</node>
	<node id="-902939" lat="64.4007916656" lon="11.099463884">
		<tag k="name" v="Mefosstjønna" />
		<tag k="natural" v="water" />
		<tag k="ssr:stedsnr" v="803301" />
	</node>
	<node id="-902932" lat="64.2340999959" lon="11.0992833376">
		<tag k="name" v="Småfossan" />
		<tag k="natural" v="waterfall" />
		<tag k="ssr:stedsnr" v="48947" />
	</node>
	<node id="-902929" lat="64.1971833313" lon="11.3522555622">
		<tag k="name" v="Åengan" />
		<tag k="natural" v="cape" />
		<tag k="ssr:stedsnr" v="229726" />
	</node>
	<node id="-902926" lat="64.4251250019" lon="11.1304499928">
		<tag k="fixme" v="multiple name tags, choose one and add the other to alt_name" />
		<tag k="name" v="Tøttdalsvatnet;Demningsvatnet" />
		<tag k="natural" v="water" />
		<tag k="ssr:stedsnr" v="803303" />
	</node>
	<node id="-902925" lat="64.296811107" lon="10.9789916615">
		<tag k="name" v="Tverrelva" />
		<tag k="ssr:stedsnr" v="803846" />
		<tag k="waterway" v="river" />
	</node>
	<node id="-902916" lat="64.3330750042" lon="11.1874166767">
		<tag k="name" v="Hevikvatna" />
		<tag k="natural" v="water" />
		<tag k="ssr:stedsnr" v="897035" />
	</node>
	<node id="-902914" lat="64.4182388883" lon="11.1583722324">
		<tag k="name" v="Oksdølvatnet" />
		<tag k="natural" v="water" />
		<tag k="ssr:stedsnr" v="559301" />
	</node>
	<node id="-902913" lat="64.3186888847" lon="11.1812305578">
		<tag k="name" v="Holbekken" />
		<tag k="ssr:stedsnr" v="766178" />
		<tag k="waterway" v="stream" />
	</node>
	<node id="-902912" lat="64.1695527807" lon="10.9716444498">
		<tag k="name" v="Sandtjønna" />
		<tag k="natural" v="water" />
		<tag k="ssr:stedsnr" v="75620" />
	</node>
	<node id="-902909" lat="64.3233777745" lon="11.1421999949">
		<tag k="name" v="Øver-Kallhammarvatnet" />
		<tag k="natural" v="water" />
		<tag k="ssr:stedsnr" v="439325" />
		<tag k="water" v="lake" />
	</node>
	<node id="-902907" lat="64.4558750006" lon="11.0677000047">
		<tag k="name" v="Sautjønna" />
		<tag k="natural" v="water" />
		<tag k="ssr:stedsnr" v="533190" />
	</node>
	<node id="-902901" lat="64.3330722213" lon="11.1874166628">
		<tag k="name" v="Øver-Hevikvatnet" />
		<tag k="natural" v="water" />
		<tag k="ssr:stedsnr" v="803315" />
	</node>
	<node id="-902899" lat="64.4205194473" lon="11.1900083275">
		<tag k="name" v="Sjøholmen" />
		<tag k="place" v="islet" />
		<tag k="ssr:stedsnr" v="958810" />
	</node>
	<node id="-902897" lat="64.1431361078" lon="11.1674611084">
		<tag k="name" v="Almlibekken" />
		<tag k="ssr:stedsnr" v="108613" />
		<tag k="waterway" v="stream" />
	</node>
	<node id="-902895" lat="64.1766000037" lon="10.9083000015">
		<tag k="name" v="Selja" />
		<tag k="ssr:stedsnr" v="742539" />
		<tag k="waterway" v="river" />
	</node>
	<node id="-902894" lat="64.2560583314" lon="11.0357305455">
		<tag k="name" v="Sandvasselva" />
		<tag k="ssr:stedsnr" v="803855" />
		<tag k="waterway" v="river" />
	</node>
	<node id="-902891" lat="64.3980277788" lon="11.1727944439">
		<tag k="fixme" v="multiple name tags, choose one and add the other to alt_name" />
		<tag k="name" v="Oksa;Oksdøla" />
		<tag k="ssr:stedsnr" v="681251" />
		<tag k="waterway" v="river" />
	</node>
	<node id="-902890" lat="64.4703138889" lon="11.1535166577">
		<tag k="name" v="Gulltjønna" />
		<tag k="natural" v="water" />
		<tag k="ssr:stedsnr" v="196329" />
	</node>
	<node id="-902887" lat="64.2155444413" lon="11.2312972189">
		<tag k="name" v="Lisselva" />
		<tag k="ssr:stedsnr" v="402369" />
		<tag k="waterway" v="river" />
	</node>
	<node id="-902880" lat="64.4536805536" lon="11.1262583321">
		<tag k="name" v="Tøttdalsvikbekken" />
		<tag k="ssr:stedsnr" v="48162" />
		<tag k="waterway" v="stream" />
	</node>
	<node id="-902874" lat="64.2054138914" lon="11.0133861195">
		<tag k="name" v="Langvatnet" />
		<tag k="natural" v="water" />
		<tag k="ssr:stedsnr" v="499600" />
		<tag k="water" v="lake" />
	</node>
	<node id="-902865" lat="64.2621861105" lon="11.1868305575">
		<tag k="name" v="Malenaholet" />
		<tag k="place" v="locality" />
		<tag k="ssr:stedsnr" v="949225" />
	</node>
	<node id="-902863" lat="64.2342388932" lon="11.2884944467">
		<tag k="name" v="Hundsettjønna" />
		<tag k="natural" v="water" />
		<tag k="ssr:stedsnr" v="499860" />
	</node>
	<node id="-902860" lat="64.1607416686" lon="11.2100861194">
		<tag k="name" v="Styggdalsbekken" />
		<tag k="ssr:stedsnr" v="463345" />
		<tag k="waterway" v="stream" />
	</node>
	<node id="-902859" lat="64.2420583312" lon="10.9185388865">
		<tag k="alt_name" v="Nestjønna" />
		<tag k="name" v="Kolkkartjønna" />
		<tag k="natural" v="water" />
		<tag k="ssr:stedsnr" v="142338" />
	</node>
	<node id="-902856" lat="64.3283777816" lon="11.2840916757">
		<tag k="name" v="Innerelva" />
		<tag k="ssr:stedsnr" v="99412" />
		<tag k="waterway" v="stream" />
	</node>
	<node id="-902855" lat="64.2774888843" lon="11.2598500097">
		<tag k="name" v="Bursbekken" />
		<tag k="ssr:stedsnr" v="803829" />
		<tag k="waterway" v="stream" />
	</node>
	<node id="-902847" lat="64.1709333327" lon="11.3617305655">
		<tag k="name" v="Smutråbekken" />
		<tag k="ssr:stedsnr" v="196867" />
		<tag k="waterway" v="stream" />
	</node>
	<node id="-902843" lat="64.2228416703" lon="11.1406861015">
		<tag k="name" v="Staventjønnin" />
		<tag k="natural" v="water" />
		<tag k="ssr:stedsnr" v="499585" />
	</node>
	<node id="-902840" lat="64.4248472196" lon="11.0322777878">
		<tag k="name" v="Gårdsetervatnet" />
		<tag k="natural" v="water" />
		<tag k="ssr:stedsnr" v="924423" />
		<tag k="water" v="lake" />
	</node>
	<node id="-902839" lat="64.2850055584" lon="11.1756527694">
		<tag k="alt_name" v="Mølnåelva" />
		<tag k="name" v="Mølnåa" />
		<tag k="ssr:stedsnr" v="620177" />
		<tag k="waterway" v="stream" />
	</node>
	<node id="-902838" lat="64.1820638872" lon="11.3277972119">
		<tag k="name" v="Vålåvatnet" />
		<tag k="natural" v="water" />
		<tag k="ssr:stedsnr" v="75868" />
		<tag k="water" v="lake" />
	</node>
	<node id="-902835" lat="64.242283332" lon="11.2239999996">
		<tag k="name" v="Øysterelva" />
		<tag k="ssr:stedsnr" v="864896" />
		<tag k="waterway" v="river" />
	</node>
	<node id="-902828" lat="64.1643972251" lon="10.7631472137">
		<tag k="name" v="Nordtjønna" />
		<tag k="natural" v="water" />
		<tag k="ssr:stedsnr" v="439585" />
	</node>
	<node id="-902820" lat="64.3811583351" lon="11.1291277858">
		<tag k="name" v="Gravhaugbekken" />
		<tag k="ssr:stedsnr" v="74255" />
		<tag k="waterway" v="stream" />
	</node>
	<node id="-902818" lat="64.238386108" lon="11.192183323">
		<tag k="name" v="Skarabekken" />
		<tag k="ssr:stedsnr" v="281304" />
		<tag k="waterway" v="stream" />
	</node>
	<node id="-902817" lat="64.3841138923" lon="11.0969694407">
		<tag k="name" v="Gravhaugvatnet" />
		<tag k="natural" v="water" />
		<tag k="ssr:stedsnr" v="74256" />
	</node>
	<node id="-902813" lat="64.2573027738" lon="11.3977611117">
		<tag k="name" v="Buengbekken" />
		<tag k="ssr:stedsnr" v="196854" />
		<tag k="waterway" v="stream" />
	</node>
	<node id="-902805" lat="64.4462361141" lon="11.1550361167">
		<tag k="name" v="Hundbekken" />
		<tag k="ssr:stedsnr" v="108171" />
		<tag k="waterway" v="stream" />
	</node>
	<node id="-902802" lat="64.1344499982" lon="11.1444638795">
		<tag k="name" v="Tverrelvfossen" />
		<tag k="natural" v="waterfall" />
		<tag k="ssr:stedsnr" v="48525" />
	</node>
	<node id="-902801" lat="64.2283277806" lon="10.9858972221">
		<tag k="name" v="Fagerdalsbekken" />
		<tag k="ssr:stedsnr" v="533957" />
		<tag k="waterway" v="stream" />
	</node>
	<node id="-902797" lat="64.2847361128" lon="11.244838883">
		<tag k="name" v="Langtjønna" />
		<tag k="natural" v="water" />
		<tag k="ssr:stedsnr" v="559816" />
	</node>
	<node id="-902796" lat="64.2561888926" lon="11.1345055521">
		<tag k="name" v="Djupskarbekken" />
		<tag k="ssr:stedsnr" v="655875" />
		<tag k="waterway" v="stream" />
	</node>
	<node id="-902795" lat="64.2453833369" lon="11.4526749985">
		<tag k="name" v="Svartelva" />
		<tag k="ssr:stedsnr" v="742782" />
		<tag k="waterway" v="river" />
	</node>
	<node id="-902790" lat="64.1991333341" lon="11.4035749924">
		<tag k="name" v="Hornburu" />
		<tag k="natural" v="water" />
		<tag k="ssr:stedsnr" v="803842" />
		<tag k="water" v="lake" />
	</node>
	<node id="-902788" lat="64.2816805598" lon="11.4454833362">
		<tag k="name" v="Høyfættdammen" />
		<tag k="ssr:stedsnr" v="135797" />
		<tag k="waterway" v="dam" />
	</node>
	<node id="-902785" lat="64.307088893" lon="11.1129888871">
		<tag k="name" v="Øvre Steintjønnin" />
		<tag k="natural" v="water" />
		<tag k="ssr:stedsnr" v="924148" />
	</node>
	<node id="-902780" lat="64.2269361142" lon="11.2334861116">
		<tag k="name" v="Isakhølen" />
		<tag k="place" v="locality" />
		<tag k="ssr:stedsnr" v="828198" />
	</node>
	<node id="-902776" lat="64.2518222207" lon="11.1496194384">
		<tag k="name" v="Svartfossen" />
		<tag k="natural" v="waterfall" />
		<tag k="ssr:stedsnr" v="655868" />
	</node>
	<node id="-902770" lat="64.1572305519" lon="11.0088972178">
		<tag k="name" v="Sautangen" />
		<tag k="natural" v="cape" />
		<tag k="ssr:stedsnr" v="108584" />
	</node>
	<node id="-902767" lat="64.3451555583" lon="11.1970750053">
		<tag k="name" v="Munkhammarvatnet" />
		<tag k="natural" v="water" />
		<tag k="ssr:stedsnr" v="439314" />
	</node>
	<node id="-902760" lat="64.1771833341" lon="10.924724995">
		<tag k="name" v="Sellitangen" />
		<tag k="natural" v="cape" />
		<tag k="ssr:stedsnr" v="439562" />
	</node>
	<node id="-902758" lat="64.2634416627" lon="11.1835527734">
		<tag k="name" v="Ørholmen" />
		<tag k="place" v="islet" />
		<tag k="ssr:stedsnr" v="281271" />
	</node>
	<node id="-902756" lat="64.3189249981" lon="11.2044166754">
		<tag k="fixme" v="multiple name tags, choose one and add the other to alt_name" />
		<tag k="name" v="Haugabekken;Åsnesbekken" />
		<tag k="ssr:stedsnr" v="439305" />
		<tag k="waterway" v="stream" />
	</node>
	<node id="-902747" lat="64.2686527736" lon="11.3528944542">
		<tag k="name" v="Skråtjønna" />
		<tag k="natural" v="water" />
		<tag k="ssr:stedsnr" v="560880" />
	</node>
	<node id="-902744" lat="64.1904388927" lon="11.219294436">
		<tag k="name" v="Almenningsbekken" />
		<tag k="ssr:stedsnr" v="584351" />
		<tag k="waterway" v="stream" />
	</node>
	<node id="-902740" lat="64.1244861156" lon="10.8780805595">
		<tag k="name" v="Storfiskvatnet - Guevtelejaevrie" />
		<tag k="name:no" v="Storfiskvatnet" />
		<tag k="name:sma" v="Guevtelejaevrie" />
		<tag k="natural" v="water" />
		<tag k="ssr:stedsnr" v="196581" />
	</node>
	<node id="-902734" lat="64.3820361137" lon="11.1605722259">
		<tag k="name" v="Storfossen" />
		<tag k="natural" v="waterfall" />
		<tag k="ssr:stedsnr" v="412720" />
	</node>
	<node id="-902733" lat="64.466858331" lon="11.0811833408">
		<tag k="name" v="Ledanglangodden" />
		<tag k="natural" v="cape" />
		<tag k="ssr:stedsnr" v="109366" />
	</node>
	<node id="-902728" lat="64.1828916698" lon="11.3423027879">
		<tag k="name" v="Veratjønna" />
		<tag k="natural" v="water" />
		<tag k="ssr:stedsnr" v="170725" />
	</node>
	<node id="-902724" lat="64.2318388845" lon="11.2399027872">
		<tag k="name" v="Karibekken" />
		<tag k="ssr:stedsnr" v="888214" />
		<tag k="waterway" v="stream" />
	</node>
	<node id="-902723" lat="64.1904388844" lon="11.0534027824">
		<tag k="name" v="Bjørbekken" />
		<tag k="ssr:stedsnr" v="924667" />
		<tag k="waterway" v="stream" />
	</node>
	<node id="-902722" lat="64.251586107" lon="11.150094454">
		<tag k="name" v="Øyensåa" />
		<tag k="ssr:stedsnr" v="378225" />
		<tag k="waterway" v="river" />
	</node>
	<node id="-902721" lat="64.1811888921" lon="11.1563499981">
		<tag k="name" v="Øver-Steindalstjønna" />
		<tag k="natural" v="water" />
		<tag k="ssr:stedsnr" v="840737" />
	</node>
	<node id="-902707" lat="64.4687416633" lon="11.0667416631">
		<tag k="name" v="Kongen" />
		<tag k="place" v="islet" />
		<tag k="ssr:stedsnr" v="445468" />
	</node>
	<node id="-902695" lat="64.4563555576" lon="11.1156166725">
		<tag k="name" v="Jonettatjønna" />
		<tag k="natural" v="water" />
		<tag k="ssr:stedsnr" v="384445" />
	</node>
	<node id="-902691" lat="64.1667361127" lon="11.3211638843">
		<tag k="name" v="Sjurstjønna" />
		<tag k="natural" v="water" />
		<tag k="ssr:stedsnr" v="196839" />
	</node>
	<node id="-902687" lat="64.2620444446" lon="11.4410388944">
		<tag k="name" v="Langvatnet" />
		<tag k="natural" v="water" />
		<tag k="ssr:stedsnr" v="560872" />
		<tag k="water" v="lake" />
	</node>
	<node id="-902681" lat="64.2976555552" lon="10.9706972191">
		<tag k="name" v="Småsalan" />
		<tag k="place" v="locality" />
		<tag k="ssr:stedsnr" v="620170" />
	</node>
	<node id="-902676" lat="64.2865000012" lon="11.1673972195">
		<tag k="name" v="Mølnåfossen" />
		<tag k="natural" v="waterfall" />
		<tag k="ssr:stedsnr" v="533934" />
	</node>
	<node id="-902675" lat="64.2517083354" lon="11.1723027785">
		<tag k="name" v="Bruengskjæret" />
		<tag k="place" v="islet" />
		<tag k="ssr:stedsnr" v="48895" />
	</node>
	<node id="-902672" lat="64.5028944448" lon="11.0447361107">
		<tag k="name" v="Stakktjønnin" />
		<tag k="natural" v="water" />
		<tag k="ssr:stedsnr" v="230451" />
	</node>
	<node id="-902668" lat="64.2026027812" lon="11.2067472184">
		<tag k="name" v="Strompmyrbekken" />
		<tag k="ssr:stedsnr" v="584343" />
		<tag k="waterway" v="stream" />
	</node>
	<node id="-902666" lat="64.2687444438" lon="11.2570000072">
		<tag k="name" v="Rinnaren" />
		<tag k="ssr:stedsnr" v="534318" />
		<tag k="waterway" v="stream" />
	</node>
	<node id="-902662" lat="64.2032222191" lon="11.4116222253">
		<tag k="name" v="Langtangen" />
		<tag k="natural" v="cape" />
		<tag k="ssr:stedsnr" v="837690" />
	</node>
	<node id="-902661" lat="64.2585361072" lon="11.3154666666">
		<tag k="name" v="Storengbekken" />
		<tag k="ssr:stedsnr" v="560876" />
		<tag k="waterway" v="stream" />
	</node>
	<node id="-902655" lat="64.2992111107" lon="11.2244277728">
		<tag k="name" v="Kvernabekken" />
		<tag k="ssr:stedsnr" v="499842" />
		<tag k="waterway" v="stream" />
	</node>
	<node id="-902645" lat="64.2152361074" lon="11.3305666762">
		<tag k="name" v="Finnsåsbekken" />
		<tag k="ssr:stedsnr" v="584322" />
		<tag k="waterway" v="stream" />
	</node>
	<node id="-902641" lat="64.2802222263" lon="11.2748333404">
		<tag k="name" v="Mattisbekken" />
		<tag k="ssr:stedsnr" v="534298" />
		<tag k="waterway" v="stream" />
	</node>
	<node id="-902639" lat="64.2746638861" lon="11.2476194501">
		<tag k="name" v="Rundtjønna" />
		<tag k="natural" v="water" />
		<tag k="ssr:stedsnr" v="958323" />
	</node>
	<node id="-902631" lat="64.2519444423" lon="11.3151638899">
		<tag k="name" v="Broka" />
		<tag k="natural" v="cape" />
		<tag k="ssr:stedsnr" v="219210" />
	</node>
	<node id="-902624" lat="64.4644222219" lon="11.1145083428">
		<tag k="alt_name" v="Statvatnet" />
		<tag k="name" v="Statlandvatnet" />
		<tag k="natural" v="water" />
		<tag k="ssr:stedsnr" v="317437" />
		<tag k="water" v="lake" />
	</node>
	<node id="-902623" lat="64.3489166691" lon="11.1103750051">
		<tag k="name" v="Korsbekken" />
		<tag k="ssr:stedsnr" v="196298" />
		<tag k="waterway" v="stream" />
	</node>
	<node id="-902608" lat="64.3234249994" lon="11.0824999917">
		<tag k="name" v="Nordsandvatnet" />
		<tag k="natural" v="water" />
		<tag k="ssr:stedsnr" v="864338" />
	</node>
	<node id="-902601" lat="64.4447777799" lon="11.0788666627">
		<tag k="fixme" v="multiple name tags, choose one and add the other to alt_name" />
		<tag k="name" v="Gøllaustjønna;Gaurlaugstjønna" />
		<tag k="natural" v="water" />
		<tag k="ssr:stedsnr" v="681453" />
	</node>
	<node id="-902597" lat="64.2908138847" lon="11.3946333385">
		<tag k="name" v="Tarmen" />
		<tag k="natural" v="water" />
		<tag k="ssr:stedsnr" v="196827" />
	</node>
	<node id="-902596" lat="64.2134277808" lon="11.1563250017">
		<tag k="name" v="Stavenbekken" />
		<tag k="ssr:stedsnr" v="924652" />
		<tag k="waterway" v="stream" />
	</node>
	<node id="-902591" lat="64.2232777736" lon="11.2681527866">
		<tag k="name" v="Steinbekken" />
		<tag k="ssr:stedsnr" v="463276" />
		<tag k="waterway" v="stream" />
	</node>
	<node id="-902590" lat="64.1730055543" lon="10.7466555523">
		<tag k="name" v="Skardtjønna - Vaajjatjonne" />
		<tag k="name:no" v="Skardtjønna" />
		<tag k="name:sma" v="Vaajjatjonne" />
		<tag k="natural" v="water" />
		<tag k="ssr:stedsnr" v="864616" />
	</node>
	<node id="-902588" lat="64.1867472188" lon="11.1855249995">
		<tag k="name" v="Holman" />
		<tag k="natural" v="cape" />
		<tag k="ssr:stedsnr" v="221318" />
	</node>
	<node id="-902577" lat="64.1722583366" lon="10.8266777693">
		<tag k="name" v="Stornesbekken" />
		<tag k="ssr:stedsnr" v="864614" />
		<tag k="waterway" v="stream" />
	</node>
	<node id="-902572" lat="64.3114055578" lon="11.1880749987">
		<tag k="name" v="Sagelva" />
		<tag k="ssr:stedsnr" v="317157" />
		<tag k="waterway" v="stream" />
	</node>
	<node id="-902571" lat="64.191008332" lon="11.0209555626">
		<tag k="name" v="Furudalstangen" />
		<tag k="natural" v="cape" />
		<tag k="ssr:stedsnr" v="533517" />
	</node>
	<node id="-902568" lat="64.3034166686" lon="10.9776055541">
		<tag k="name" v="Bårdsbakktjønnin" />
		<tag k="natural" v="water" />
		<tag k="ssr:stedsnr" v="48870" />
	</node>
	<node id="-902563" lat="64.2271694405" lon="11.2076527843">
		<tag k="name" v="Stokkbekken" />
		<tag k="ssr:stedsnr" v="888210" />
		<tag k="waterway" v="stream" />
	</node>
	<node id="-902548" lat="64.1657361147" lon="10.8504972316">
		<tag k="name" v="Finnkruneset" />
		<tag k="natural" v="cape" />
		<tag k="ssr:stedsnr" v="48475" />
	</node>
	<node id="-902547" lat="64.2568555596" lon="10.9747611026">
		<tag k="name" v="Svartlona" />
		<tag k="place" v="locality" />
		<tag k="ssr:stedsnr" v="924120" />
	</node>
	<node id="-902533" lat="64.2263611105" lon="11.0108499966">
		<tag k="name" v="Storlidalstjønna" />
		<tag k="natural" v="water" />
		<tag k="ssr:stedsnr" v="291983" />
	</node>
	<node id="-902531" lat="64.1719583317" lon="10.9551944446">
		<tag k="name" v="Rognlibekken" />
		<tag k="ssr:stedsnr" v="48472" />
		<tag k="waterway" v="stream" />
	</node>
	<node id="-902523" lat="64.254952777" lon="11.0397333397">
		<tag k="name" v="Sandvasslonin" />
		<tag k="natural" v="water" />
		<tag k="ssr:stedsnr" v="837922" />
		<tag k="water" v="lake" />
	</node>
	<node id="-902516" lat="64.2538888863" lon="11.4828888889">
		<tag k="name" v="Flåbekktjønna" />
		<tag k="natural" v="water" />
		<tag k="ssr:stedsnr" v="924834" />
	</node>
	<node id="-902513" lat="64.2719694409" lon="11.2481666686">
		<tag k="name" v="Lomtjønna" />
		<tag k="natural" v="water" />
		<tag k="ssr:stedsnr" v="655310" />
	</node>
	<node id="-902507" lat="64.2985166627" lon="11.1447027808">
		<tag k="name" v="Fugltjønna" />
		<tag k="natural" v="water" />
		<tag k="ssr:stedsnr" v="898807" />
	</node>
	<node id="-902501" lat="64.2216277759" lon="10.9692277726">
		<tag k="name" v="Fagerdalstjønna" />
		<tag k="natural" v="water" />
		<tag k="ssr:stedsnr" v="438673" />
	</node>
	<node id="-902498" lat="64.1697972255" lon="11.2249694396">
		<tag k="name" v="Hømmelstranda" />
		<tag k="natural" v="cape" />
		<tag k="ssr:stedsnr" v="766367" />
	</node>
	<node id="-902496" lat="64.330530552" lon="11.1466888972">
		<tag k="name" v="Kallhammarvatna" />
		<tag k="natural" v="water" />
		<tag k="ssr:stedsnr" v="898811" />
		<tag k="water" v="lake" />
	</node>
	<node id="-902494" lat="64.1886583308" lon="10.8108944462">
		<tag k="name" v="Kutjønna" />
		<tag k="natural" v="water" />
		<tag k="ssr:stedsnr" v="14629" />
	</node>
	<node id="-902492" lat="64.2801527764" lon="11.2883722289">
		<tag k="name" v="Groftdalsbukta" />
		<tag k="natural" v="bay" />
		<tag k="ssr:stedsnr" v="655306" />
	</node>
	<node id="-902484" lat="64.1932805533" lon="11.0111444432">
		<tag k="name" v="Trollbotn" />
		<tag k="natural" v="water" />
		<tag k="ssr:stedsnr" v="135681" />
		<tag k="water" v="lake" />
	</node>
	<node id="-904276" lat="64.304350001" lon="11.2697805464">
		<tag k="name" v="Brattlivatnet" />
		<tag k="natural" v="water" />
		<tag k="ssr:stedsnr" v="13898" />
	</node>
	<node id="-904275" lat="64.1840527798" lon="11.2877305535">
		<tag k="name" v="Rossetvatnet" />
		<tag k="natural" v="water" />
		<tag k="ssr:stedsnr" v="196810" />
	</node>
	<node id="-904274" lat="64.1704250023" lon="10.9402444448">
		<tag k="name" v="Rognlitjønnin" />
		<tag k="natural" v="water" />
		<tag k="ssr:stedsnr" v="560596" />
	</node>
	<node id="-904271" lat="64.2073194465" lon="11.1495916753">
		<tag k="name" v="Mefjellbekken" />
		<tag k="ssr:stedsnr" v="169526" />
		<tag k="waterway" v="stream" />
	</node>
	<node id="-904269" lat="64.1548694474" lon="10.8543944393">
		<tag k="alt_name" v="Finnkruelva" />
		<tag k="name" v="Finnskruelva" />
		<tag k="ssr:stedsnr" v="499532" />
		<tag k="waterway" v="stream" />
	</node>
	<node id="-904257" lat="64.2018722221" lon="10.9915583318">
		<tag k="name" v="Tømmertjønna" />
		<tag k="natural" v="water" />
		<tag k="ssr:stedsnr" v="924641" />
	</node>
	<node id="-904251" lat="64.1589138917" lon="11.1467222133">
		<tag k="name" v="Steintjønna" />
		<tag k="natural" v="water" />
		<tag k="ssr:stedsnr" v="13614" />
	</node>
	<node id="-904243" lat="64.3827666677" lon="11.2335749907">
		<tag k="name" v="Breivikvatna" />
		<tag k="natural" v="water" />
		<tag k="ssr:stedsnr" v="620929" />
	</node>
	<node id="-904242" lat="64.16741389" lon="10.8517194481">
		<tag k="name" v="Perneset" />
		<tag k="natural" v="cape" />
		<tag k="ssr:stedsnr" v="169520" />
	</node>
	<node id="-904237" lat="64.381608337" lon="11.2721361088">
		<tag k="name" v="Breivikelva" />
		<tag k="ssr:stedsnr" v="256952" />
		<tag k="waterway" v="stream" />
	</node>
	<node id="-904235" lat="64.2653277811" lon="11.4334750045">
		<tag k="name" v="Høyfættsundet" />
		<tag k="natural" v="strait" />
		<tag k="ssr:stedsnr" v="594610" />
	</node>
	<node id="-904227" lat="64.300797223" lon="11.2180999915">
		<tag k="name" v="Lonbekken" />
		<tag k="ssr:stedsnr" v="281215" />
		<tag k="waterway" v="stream" />
	</node>
	<node id="-904222" lat="64.44524722" lon="11.1032888962">
		<tag k="name" v="Tverrhoggtjønna" />
		<tag k="natural" v="water" />
		<tag k="ssr:stedsnr" v="291203" />
	</node>
	<node id="-904216" lat="64.1851666704" lon="11.1575249953">
		<tag k="name" v="Raffeltjønna" />
		<tag k="natural" v="water" />
		<tag k="ssr:stedsnr" v="560585" />
	</node>
	<node id="-904215" lat="64.2497083324" lon="11.2142333305">
		<tag k="name" v="Kårmohølen" />
		<tag k="place" v="locality" />
		<tag k="ssr:stedsnr" v="402244" />
	</node>
	<node id="-904214" lat="64.5312222238" lon="11.0282361161">
		<tag k="name" v="Heiavatna" />
		<tag k="natural" v="water" />
		<tag k="ssr:stedsnr" v="777253" />
		<tag k="water" v="lake" />
	</node>
	<node id="-904206" lat="64.1814777784" lon="11.1851138865">
		<tag k="name" v="Trettengbekken" />
		<tag k="ssr:stedsnr" v="560586" />
		<tag k="waterway" v="stream" />
	</node>
	<node id="-904204" lat="64.3242277773" lon="11.1177805525">
		<tag k="name" v="Kulpen" />
		<tag k="place" v="locality" />
		<tag k="ssr:stedsnr" v="499251" />
	</node>
	<node id="-904202" lat="64.3242277766" lon="11.0304749993">
		<tag k="fixme" v="multiple name tags, choose one and add the other to alt_name" />
		<tag k="name" v="Jorpetjakkevaerie;Rundvatnet" />
		<tag k="natural" v="water" />
		<tag k="ssr:stedsnr" v="560312" />
	</node>
	<node id="-904192" lat="64.1825944403" lon="10.95587778">
		<tag k="name" v="Finnvollvatnet" />
		<tag k="natural" v="water" />
		<tag k="old_name" v="Finnvoldvatnet" />
		<tag k="ssr:stedsnr" v="196539" />
		<tag k="water" v="lake" />
	</node>
	<node id="-904191" lat="64.2650416662" lon="11.3531416727">
		<tag k="name" v="Skråtjønnbekken" />
		<tag k="ssr:stedsnr" v="705234" />
		<tag k="waterway" v="stream" />
	</node>
	<node id="-904188" lat="64.3716166694" lon="11.1946444352">
		<tag k="name" v="Sørmyrodden" />
		<tag k="natural" v="cape" />
		<tag k="ssr:stedsnr" v="351865" />
	</node>
	<node id="-904185" lat="64.2973166683" lon="11.0727361015">
		<tag k="name" v="Hundtjønna" />
		<tag k="natural" v="water" />
		<tag k="ssr:stedsnr" v="776858" />
	</node>
	<node id="-904181" lat="64.3294027751" lon="11.194099991">
		<tag k="name" v="Ner-Hevikvatnet" />
		<tag k="natural" v="water" />
		<tag k="ssr:stedsnr" v="864331" />
	</node>
	<node id="-904180" lat="64.2261888933" lon="11.3207222227">
		<tag k="name" v="Lomtjønna" />
		<tag k="natural" v="water" />
		<tag k="ssr:stedsnr" v="924911" />
	</node>
	<node id="-904178" lat="64.1590972241" lon="11.1263000015">
		<tag k="name" v="Steintjønnbekken" />
		<tag k="ssr:stedsnr" v="169505" />
		<tag k="waterway" v="stream" />
	</node>
	<node id="-904177" lat="64.3018166674" lon="10.943766677">
		<tag k="name" v="Hestbekken" />
		<tag k="ssr:stedsnr" v="351866" />
		<tag k="waterway" v="stream" />
	</node>
	<node id="-904168" lat="64.211827779" lon="11.3934249965">
		<tag k="name" v="Raudkinntjønna" />
		<tag k="natural" v="water" />
		<tag k="ssr:stedsnr" v="168698" />
	</node>
	<node id="-904159" lat="64.3406027812" lon="11.2226444497">
		<tag k="name" v="Allmenningsbekken" />
		<tag k="ssr:stedsnr" v="888138" />
		<tag k="waterway" v="stream" />
	</node>
	<node id="-904155" lat="64.2922111139" lon="11.0513527878">
		<tag k="name" v="Sørsandvatnet" />
		<tag k="natural" v="water" />
		<tag k="ssr:stedsnr" v="742169" />
	</node>
	<node id="-904140" lat="64.248558334" lon="11.4577666683">
		<tag k="name" v="Ristjønna" />
		<tag k="natural" v="water" />
		<tag k="ssr:stedsnr" v="170639" />
	</node>
	<node id="-904139" lat="64.2944833342" lon="11.173130561">
		<tag k="name" v="Steinåa" />
		<tag k="ssr:stedsnr" v="742172" />
		<tag k="waterway" v="stream" />
	</node>
	<node id="-904138" lat="64.3876583342" lon="11.1120249972">
		<tag k="name" v="Lissgravhaugvatnet" />
		<tag k="natural" v="water" />
		<tag k="ssr:stedsnr" v="863246" />
	</node>
	<node id="-904135" lat="64.215691664" lon="11.2140416681">
		<tag k="name" v="Hølbekken" />
		<tag k="ssr:stedsnr" v="342311" />
		<tag k="waterway" v="stream" />
	</node>
	<node id="-904128" lat="64.1852166625" lon="10.9598083252">
		<tag k="name" v="Kjerkholman" />
		<tag k="place" v="islet" />
		<tag k="ssr:stedsnr" v="620646" />
	</node>
	<node id="-904127" lat="64.3642083335" lon="11.2490611185">
		<tag k="name" v="Flobekken" />
		<tag k="ssr:stedsnr" v="948183" />
		<tag k="waterway" v="stream" />
	</node>
	<node id="-904119" lat="64.3158638887" lon="11.2736249969">
		<tag k="name" v="Rødhammarvatnet" />
		<tag k="natural" v="water" />
		<tag k="ssr:stedsnr" v="620899" />
	</node>
	<node id="-904118" lat="64.2551958378" lon="10.9621414513">
		<tag k="name" v="Lisslangvatnet" />
		<tag k="natural" v="water" />
		<tag k="ssr:stedsnr" v="681145" />
	</node>
	<node id="-904115" lat="64.485072223" lon="11.127886103">
		<tag k="name" v="Steinbekken" />
		<tag k="ssr:stedsnr" v="681411" />
		<tag k="waterway" v="stream" />
	</node>
	<node id="-904111" lat="64.2606666694" lon="11.4347361115">
		<tag k="name" v="Storslettsundet" />
		<tag k="natural" v="strait" />
		<tag k="ssr:stedsnr" v="170634" />
	</node>
	<node id="-904109" lat="64.1995083337" lon="10.939066661">
		<tag k="name" v="Steinbekktjønnin" />
		<tag k="natural" v="water" />
		<tag k="ssr:stedsnr" v="256659" />
	</node>
	<node id="-904105" lat="64.2703527787" lon="11.1246666586">
		<tag k="name" v="Kalnestjønnin" />
		<tag k="natural" v="water" />
		<tag k="ssr:stedsnr" v="317114" />
	</node>
	<node id="-904104" lat="64.4285333373" lon="11.1249944374">
		<tag k="name" v="Nonsbekken" />
		<tag k="ssr:stedsnr" v="594174" />
		<tag k="waterway" v="stream" />
	</node>
	<node id="-904103" lat="64.1871138925" lon="10.9401138867">
		<tag k="name" v="Langdalsbukta" />
		<tag k="natural" v="bay" />
		<tag k="ssr:stedsnr" v="681680" />
	</node>
	<node id="-904102" lat="64.1992916647" lon="10.8653499984">
		<tag k="name" v="Tverrelva" />
		<tag k="ssr:stedsnr" v="256660" />
		<tag k="waterway" v="stream" />
	</node>
	<node id="-904101" lat="64.3038750044" lon="10.9819000097">
		<tag k="name" v="Bårdsbakktjønna" />
		<tag k="natural" v="water" />
		<tag k="ssr:stedsnr" v="742148" />
	</node>
	<node id="-904100" lat="64.2939583296" lon="11.1375555562">
		<tag k="name" v="Nermølnåvatnet" />
		<tag k="natural" v="water" />
		<tag k="ssr:stedsnr" v="135177" />
	</node>
	<node id="-904095" lat="64.2616444468" lon="11.1208472265">
		<tag k="name" v="Benjamenbekken" />
		<tag k="ssr:stedsnr" v="742145" />
		<tag k="waterway" v="stream" />
	</node>
	<node id="-904091" lat="64.2163472189" lon="11.1132861016">
		<tag k="name" v="Staventjønna" />
		<tag k="natural" v="water" />
		<tag k="ssr:stedsnr" v="377645" />
	</node>
	<node id="-904088" lat="64.4802888864" lon="11.0335111033">
		<tag k="name" v="Kroktjønnbekken" />
		<tag k="ssr:stedsnr" v="48439" />
		<tag k="waterway" v="stream" />
	</node>
	<node id="-904086" lat="64.2872611126" lon="11.3408861048">
		<tag k="name" v="Korsvassbekken" />
		<tag k="ssr:stedsnr" v="109303" />
		<tag k="waterway" v="stream" />
	</node>
	<node id="-904085" lat="64.1825194407" lon="10.7905027711">
		<tag k="name" v="Småtjønnin" />
		<tag k="natural" v="water" />
		<tag k="ssr:stedsnr" v="196530" />
	</node>
	<node id="-904081" lat="64.1760888925" lon="10.8575749937">
		<tag k="name" v="Kvernvatnet" />
		<tag k="natural" v="water" />
		<tag k="ssr:stedsnr" v="196529" />
	</node>
	<node id="-904075" lat="64.328313891" lon="11.2077750068">
		<tag k="name" v="Kleivabekken" />
		<tag k="ssr:stedsnr" v="499247" />
		<tag k="waterway" v="stream" />
	</node>
	<node id="-904073" lat="64.2377638914" lon="11.0101444426">
		<tag k="name" v="Blåvassbekken" />
		<tag k="ssr:stedsnr" v="837993" />
		<tag k="waterway" v="stream" />
	</node>
	<node id="-904072" lat="64.2233527804" lon="11.2302944498">
		<tag k="name" v="Lisselva" />
		<tag k="ssr:stedsnr" v="208213" />
		<tag k="waterway" v="river" />
	</node>
	<node id="-904071" lat="64.139105558" lon="11.1853694471">
		<tag k="name" v="Dølfossen" />
		<tag k="natural" v="waterfall" />
		<tag k="ssr:stedsnr" v="220402" />
	</node>
	<node id="-904065" lat="64.2390666651" lon="11.0394500065">
		<tag k="name" v="Lissblåvassbekken" />
		<tag k="ssr:stedsnr" v="291947" />
		<tag k="waterway" v="stream" />
	</node>
	<node id="-904058" lat="64.2374000002" lon="11.1132000085">
		<tag k="alt_name" v="Høibekken" />
		<tag k="name" v="Holbekken" />
		<tag k="ssr:stedsnr" v="924620" />
		<tag k="waterway" v="stream" />
	</node>
	<node id="-904055" lat="64.2544861071" lon="11.3689055501">
		<tag k="name" v="Reinfjellbekken" />
		<tag k="ssr:stedsnr" v="158229" />
		<tag k="waterway" v="stream" />
	</node>
	<node id="-904053" lat="64.4632694442" lon="11.0938027794">
		<tag k="name" v="Dronninga" />
		<tag k="place" v="islet" />
		<tag k="ssr:stedsnr" v="688457" />
	</node>
	<node id="-904052" lat="64.5097249959" lon="11.0401805645">
		<tag k="name" v="Nordvatnet" />
		<tag k="natural" v="water" />
		<tag k="ssr:stedsnr" v="681705" />
	</node>
	<node id="-904045" lat="64.3647194464" lon="11.2235055456">
		<tag k="name" v="Flobekken" />
		<tag k="ssr:stedsnr" v="256930" />
		<tag k="waterway" v="stream" />
	</node>
	<node id="-904044" lat="64.2217888934" lon="11.3037361088">
		<tag k="name" v="Tjønnsvatnet" />
		<tag k="natural" v="water" />
		<tag k="ssr:stedsnr" v="924899" />
	</node>
	<node id="-904042" lat="64.178299997" lon="10.8768638789">
		<tag k="name" v="Kvernbekken" />
		<tag k="ssr:stedsnr" v="499507" />
		<tag k="waterway" v="stream" />
	</node>
	<node id="-904040" lat="64.233858337" lon="11.0419249923">
		<tag k="name" v="Valørtangen" />
		<tag k="natural" v="cape" />
		<tag k="ssr:stedsnr" v="837990" />
	</node>
	<node id="-904037" lat="64.4655500042" lon="11.0956722238">
		<tag k="name" v="Statlandlangodden" />
		<tag k="natural" v="cape" />
		<tag k="ssr:stedsnr" v="230368" />
	</node>
	<node id="-904028" lat="64.2603694472" lon="10.9705861114">
		<tag k="name" v="Urtjønnbekken" />
		<tag k="ssr:stedsnr" v="716832" />
		<tag k="waterway" v="stream" />
	</node>
	<node id="-904026" lat="64.2717882974" lon="10.9544739064">
		<tag k="name" v="Lissbjørfarvatnet" />
		<tag k="natural" v="water" />
		<tag k="ssr:stedsnr" v="317108" />
	</node>
	<node id="-904022" lat="64.231866667" lon="11.1023444542">
		<tag k="name" v="Nesbekken" />
		<tag k="ssr:stedsnr" v="594938" />
		<tag k="waterway" v="stream" />
	</node>
	<node id="-904018" lat="64.4250638917" lon="11.0443805652">
		<tag k="name" v="Lonet" />
		<tag k="natural" v="water" />
		<tag k="ssr:stedsnr" v="837198" />
		<tag k="water" v="lake" />
	</node>
	<node id="-904013" lat="64.3647861073" lon="11.1164805537">
		<tag k="name" v="Bupelbekken" />
		<tag k="ssr:stedsnr" v="377366" />
		<tag k="waterway" v="stream" />
	</node>
	<node id="-904007" lat="64.3862999962" lon="11.1423055633">
		<tag k="name" v="Rognlibekken" />
		<tag k="ssr:stedsnr" v="499210" />
		<tag k="waterway" v="stream" />
	</node>
	<node id="-904004" lat="64.2193555521" lon="11.289808343">
		<tag k="name" v="Grønengbekken" />
		<tag k="ssr:stedsnr" v="342263" />
		<tag k="waterway" v="stream" />
	</node>
	<node id="-904001" lat="64.371980557" lon="11.2435583389">
		<tag k="name" v="Vassbekken" />
		<tag k="ssr:stedsnr" v="681936" />
		<tag k="waterway" v="stream" />
	</node>
	<node id="-904000" lat="64.3878222248" lon="11.12518612">
		<tag k="name" v="Rognlitjønna" />
		<tag k="natural" v="water" />
		<tag k="ssr:stedsnr" v="560268" />
	</node>
	<node id="-903999" lat="64.4634638855" lon="11.1302249981">
		<tag k="name" v="Langodden" />
		<tag k="natural" v="cape" />
		<tag k="ssr:stedsnr" v="75512" />
	</node>
	<node id="-903997" lat="64.2784083333" lon="10.9725944451">
		<tag k="loc_name:no" v="Bjørnfarvatnet" />
		<tag k="name" v="Bjørfarvatnet - Njuanajaevrie" />
		<tag k="name:no" v="Bjørfarvatnet" />
		<tag k="name:sma" v="Njuanajaevrie" />
		<tag k="natural" v="water" />
		<tag k="ssr:stedsnr" v="14109" />
		<tag k="water" v="lake" />
	</node>
	<node id="-903995" lat="64.1455055551" lon="10.8383638794">
		<tag k="name" v="Høgkolvbekken" />
		<tag k="ssr:stedsnr" v="924587" />
		<tag k="waterway" v="stream" />
	</node>
	<node id="-903994" lat="64.1544333308" lon="11.214041666">
		<tag k="name" v="Lomtjønna" />
		<tag k="natural" v="water" />
		<tag k="ssr:stedsnr" v="134639" />
	</node>
	<node id="-903993" lat="64.2584972183" lon="11.0226750084">
		<tag k="name" v="Vakkernestjønna" />
		<tag k="natural" v="water" />
		<tag k="ssr:stedsnr" v="473926" />
	</node>
	<node id="-903988" lat="64.4000166694" lon="11.1999638899">
		<tag k="name" v="Aunskarelva" />
		<tag k="ssr:stedsnr" v="230737" />
		<tag k="waterway" v="stream" />
	</node>
	<node id="-903980" lat="64.1410444442" lon="11.193822218">
		<tag k="name" v="Dølfossmyra" />
		<tag k="natural" v="waterfall" />
		<tag k="ssr:stedsnr" v="160316" />
	</node>
	<node id="-903977" lat="64.23829167" lon="11.2963194519">
		<tag k="name" v="Brørstjønna" />
		<tag k="natural" v="water" />
		<tag k="ssr:stedsnr" v="742941" />
	</node>
	<node id="-903976" lat="64.3850916675" lon="11.1525194531">
		<tag k="name" v="Tverrelva" />
		<tag k="ssr:stedsnr" v="472759" />
		<tag k="waterway" v="river" />
	</node>
	<node id="-903973" lat="64.2541166708" lon="10.9196500026">
		<tag k="name" v="Olvatnet" />
		<tag k="natural" v="water" />
		<tag k="ssr:stedsnr" v="898832" />
	</node>
	<node id="-903966" lat="64.2146416636" lon="11.4279361021">
		<tag k="name" v="Storiglin" />
		<tag k="natural" v="water" />
		<tag k="ssr:stedsnr" v="256899" />
	</node>
	<node id="-903958" lat="64.2612305585" lon="11.4421972247">
		<tag k="name" v="Jensbukta" />
		<tag k="natural" v="bay" />
		<tag k="ssr:stedsnr" v="412583" />
	</node>
	<node id="-903956" lat="64.2104361111" lon="10.996233325">
		<tag k="name" v="Lomtjønna" />
		<tag k="natural" v="water" />
		<tag k="ssr:stedsnr" v="681672" />
	</node>
	<node id="-903951" lat="64.2227305526" lon="10.909788879">
		<tag k="alt_name" v="Stor - Bjørkvatnet" />
		<tag k="name" v="Bjørkvatnet" />
		<tag k="natural" v="water" />
		<tag k="ssr:stedsnr" v="620617" />
	</node>
	<node id="-903946" lat="64.1540416684" lon="10.9960861035">
		<tag k="name" v="Middagstjønna" />
		<tag k="natural" v="water" />
		<tag k="ssr:stedsnr" v="924588" />
	</node>
	<node id="-903943" lat="64.3127861067" lon="11.2274722227">
		<tag k="name" v="Stranda" />
		<tag k="natural" v="beach" />
		<tag k="ssr:stedsnr" v="463169" />
	</node>
	<node id="-903942" lat="64.2219720504" lon="10.9383672991">
		<tag k="name" v="Lissbjørkvatnet" />
		<tag k="natural" v="water" />
		<tag k="ssr:stedsnr" v="620615" />
	</node>
	<node id="-903937" lat="64.1895472214" lon="11.0338138841">
		<tag k="name" v="Furudalselva" />
		<tag k="ssr:stedsnr" v="378704" />
		<tag k="waterway" v="river" />
	</node>
	<node id="-903936" lat="64.2430416694" lon="11.3583083303">
		<tag k="name" v="Trebostadbekken" />
		<tag k="ssr:stedsnr" v="221210" />
		<tag k="waterway" v="stream" />
	</node>
	<node id="-903935" lat="64.2257111076" lon="11.1695500008">
		<tag k="name" v="Nilsengbekken" />
		<tag k="ssr:stedsnr" v="620613" />
		<tag k="waterway" v="stream" />
	</node>
	<node id="-903934" lat="64.5080944432" lon="11.0691944467">
		<tag k="name" v="Leirfjorbekken" />
		<tag k="ssr:stedsnr" v="231485" />
		<tag k="waterway" v="stream" />
	</node>
	<node id="-903933" lat="64.2300249988" lon="11.5210527819">
		<tag k="name" v="Tømmerdalsbukta" />
		<tag k="natural" v="bay" />
		<tag k="ssr:stedsnr" v="438938" />
	</node>
	<node id="-903921" lat="64.5152277735" lon="11.0551583275">
		<tag k="name" v="Vassbottsvatnet" />
		<tag k="natural" v="water" />
		<tag k="ssr:stedsnr" v="318721" />
	</node>
	<node id="-903919" lat="64.5239611112" lon="11.0589194529">
		<tag k="name" v="Aunaelva" />
		<tag k="ssr:stedsnr" v="231488" />
		<tag k="waterway" v="river" />
	</node>
	<node id="-903915" lat="64.2384833336" lon="11.4458111179">
		<tag k="name" v="Storholmen" />
		<tag k="place" v="islet" />
		<tag k="ssr:stedsnr" v="109619" />
	</node>
	<node id="-903907" lat="64.249008333" lon="11.3021694541">
		<tag k="name" v="Ramsbekken" />
		<tag k="ssr:stedsnr" v="643231" />
		<tag k="waterway" v="stream" />
	</node>
	<node id="-903899" lat="64.3540666669" lon="11.1985277816">
		<tag k="name" v="Groftlitjønna" />
		<tag k="natural" v="water" />
		<tag k="ssr:stedsnr" v="620338" />
	</node>
	<node id="-903896" lat="64.3717694442" lon="11.200136106">
		<tag k="name" v="Sandodden" />
		<tag k="natural" v="cape" />
		<tag k="ssr:stedsnr" v="291871" />
	</node>
	<node id="-903886" lat="64.2484361145" lon="11.0066916743">
		<tag k="name" v="Godvatnet" />
		<tag k="natural" v="water" />
		<tag k="ssr:stedsnr" v="74716" />
	</node>
	<node id="-903880" lat="64.3594283065" lon="11.0921772207">
		<tag k="name" v="Sandvatnet" />
		<tag k="natural" v="water" />
		<tag k="ssr:stedsnr" v="924338" />
	</node>
	<node id="-903876" lat="64.3003222215" lon="11.0801694419">
		<tag k="name" v="Auritjønnbekken" />
		<tag k="ssr:stedsnr" v="898858" />
		<tag k="waterway" v="stream" />
	</node>
	<node id="-903871" lat="64.2781722181" lon="11.1750444501">
		<tag k="name" v="Bjønndaksbekken" />
		<tag k="ssr:stedsnr" v="473932" />
		<tag k="waterway" v="stream" />
	</node>
	<node id="-903869" lat="64.4616416678" lon="11.0531027701">
		<tag k="name" v="Storvatnet" />
		<tag k="natural" v="water" />
		<tag k="ssr:stedsnr" v="654186" />
		<tag k="water" v="lake" />
	</node>
	<node id="-903865" lat="64.3021999999" lon="11.0494500078">
		<tag k="name" v="Seterlangvatnet" />
		<tag k="natural" v="water" />
		<tag k="ssr:stedsnr" v="257181" />
	</node>
	<node id="-903864" lat="64.4773333366" lon="11.1302249905">
		<tag k="name" v="Storfossen" />
		<tag k="natural" v="waterfall" />
		<tag k="ssr:stedsnr" v="472361" />
	</node>
	<node id="-903859" lat="64.166499999" lon="10.8376111163">
		<tag k="name" v="Storneset" />
		<tag k="natural" v="cape" />
		<tag k="ssr:stedsnr" v="898489" />
	</node>
	<node id="-903854" lat="64.2117555519" lon="11.4093416706">
		<tag k="name" v="Lomtjønna" />
		<tag k="natural" v="water" />
		<tag k="ssr:stedsnr" v="109656" />
	</node>
	<node id="-903850" lat="64.2868027776" lon="11.0301027833">
		<tag k="name" v="Storbotnen" />
		<tag k="natural" v="water" />
		<tag k="ssr:stedsnr" v="742126" />
	</node>
	<node id="-903847" lat="64.1785611098" lon="11.3663111144">
		<tag k="name" v="Kvinnvasselva" />
		<tag k="ssr:stedsnr" v="472709" />
		<tag k="waterway" v="river" />
	</node>
	<node id="-903846" lat="64.4506444452" lon="11.1565611192">
		<tag k="name" v="Nordåa" />
		<tag k="ssr:stedsnr" v="412167" />
		<tag k="waterway" v="stream" />
	</node>
	<node id="-903839" lat="64.1969333349" lon="11.119075004">
		<tag k="name" v="Hestbekken" />
		<tag k="ssr:stedsnr" v="14623" />
		<tag k="waterway" v="stream" />
	</node>
	<node id="-903837" lat="64.3166611103" lon="11.146033342">
		<tag k="name" v="Innkolvingen" />
		<tag k="natural" v="water" />
		<tag k="ssr:stedsnr" v="169817" />
	</node>
	<node id="-903833" lat="64.4363416682" lon="11.1390611146">
		<tag k="name" v="Sagelva" />
		<tag k="ssr:stedsnr" v="377849" />
		<tag k="waterway" v="river" />
	</node>
	<node id="-903825" lat="64.1931583311" lon="11.0877500035">
		<tag k="name" v="Rognlitjønna" />
		<tag k="natural" v="water" />
		<tag k="ssr:stedsnr" v="135676" />
	</node>
	<node id="-903823" lat="64.3322861113" lon="11.1488138864">
		<tag k="name" v="Kalhammarvatna" />
		<tag k="natural" v="water" />
		<tag k="ssr:stedsnr" v="695796" />
		<tag k="water" v="lake" />
	</node>
	<node id="-903822" lat="64.2357472185" lon="11.0442138917">
		<tag k="name" v="Blåvassbukta" />
		<tag k="natural" v="bay" />
		<tag k="ssr:stedsnr" v="109988" />
	</node>
	<node id="-903821" lat="64.1674027821" lon="11.0258138903">
		<tag k="name" v="Bjørnaholmen" />
		<tag k="place" v="islet" />
		<tag k="ssr:stedsnr" v="924569" />
	</node>
	<node id="-903818" lat="64.1248076234" lon="10.8123595585">
		<tag k="name" v="Lissvatnet" />
		<tag k="natural" v="water" />
		<tag k="ssr:stedsnr" v="620597" />
	</node>
	<node id="-903817" lat="64.1960555582" lon="11.1016444453">
		<tag k="name" v="Langtjønna" />
		<tag k="natural" v="water" />
		<tag k="ssr:stedsnr" v="378687" />
	</node>
	<node id="-903816" lat="64.1934138882" lon="10.9811277857">
		<tag k="name" v="Storvassbukta" />
		<tag k="natural" v="bay" />
		<tag k="ssr:stedsnr" v="135675" />
	</node>
	<node id="-903813" lat="64.3313111095" lon="11.2137249946">
		<tag k="name" v="Nord-Kleivbekken" />
		<tag k="ssr:stedsnr" v="99193" />
		<tag k="waterway" v="stream" />
	</node>
	<node id="-903812" lat="64.2546333294" lon="11.2164472166">
		<tag k="name" v="Bursdalbekken" />
		<tag k="ssr:stedsnr" v="221185" />
		<tag k="waterway" v="stream" />
	</node>
	<node id="-903805" lat="64.4576722249" lon="11.123761119">
		<tag k="name" v="Langdalsbekken" />
		<tag k="ssr:stedsnr" v="412169" />
		<tag k="waterway" v="stream" />
	</node>
	<node id="-903794" lat="64.2637333359" lon="10.9564277815">
		<tag k="name" v="Urdtjønna" />
		<tag k="natural" v="water" />
		<tag k="ssr:stedsnr" v="803149" />
	</node>
	<node id="-903791" lat="64.1628083298" lon="11.1204750026">
		<tag k="name" v="Furudalsbekken" />
		<tag k="ssr:stedsnr" v="654499" />
		<tag k="waterway" v="stream" />
	</node>
	<node id="-903788" lat="64.2047861124" lon="11.1669861019">
		<tag k="name" v="Skaua" />
		<tag k="ssr:stedsnr" v="135672" />
		<tag k="waterway" v="stream" />
	</node>
	<node id="-903785" lat="64.2046055574" lon="11.0393083282">
		<tag k="name" v="Heggdølin" />
		<tag k="natural" v="water" />
		<tag k="ssr:stedsnr" v="74664" />
	</node>
	<node id="-903779" lat="64.270127778" lon="11.2809249965">
		<tag k="name" v="Ol - Kjelsabekken" />
		<tag k="ssr:stedsnr" v="230306" />
		<tag k="waterway" v="stream" />
	</node>
	<node id="-903769" lat="64.2042305591" lon="11.0930333314">
		<tag k="name" v="Rognlibekken" />
		<tag k="ssr:stedsnr" v="742645" />
		<tag k="waterway" v="stream" />
	</node>
	<node id="-903757" lat="64.3669388845" lon="11.1552388834">
		<tag k="name" v="Rapfossen" />
		<tag k="natural" v="waterfall" />
		<tag k="ssr:stedsnr" v="291850" />
	</node>
	<node id="-903756" lat="64.4922722222" lon="11.0930305525">
		<tag k="name" v="Sparlivatnet" />
		<tag k="natural" v="water" />
		<tag k="ssr:stedsnr" v="135402" />
	</node>
	<node id="-903744" lat="64.2402027778" lon="11.0943111183">
		<tag k="name" v="Buktafossen" />
		<tag k="natural" v="waterfall" />
		<tag k="ssr:stedsnr" v="681640" />
	</node>
	<node id="-903743" lat="64.3098333375" lon="11.1416583315">
		<tag k="name" v="Øvermølnåvatnet" />
		<tag k="natural" v="water" />
		<tag k="ssr:stedsnr" v="196178" />
	</node>
	<node id="-903727" lat="64.214277777" lon="11.1862166666">
		<tag k="name" v="Ferja" />
		<tag k="ssr:stedsnr" v="742653" />
		<tag k="waterway" v="river" />
	</node>
	<node id="-903726" lat="64.3056861145" lon="11.0925749968">
		<tag k="name" v="Auritjønna" />
		<tag k="natural" v="water" />
		<tag k="ssr:stedsnr" v="196180" />
	</node>
	<node id="-903724" lat="64.2675361108" lon="11.2936055504">
		<tag k="alt_name" v="Littlelva;Lisselva" />
		<tag k="name" v="Lisseelva" />
		<tag k="ssr:stedsnr" v="620855" />
		<tag k="waterway" v="stream" />
	</node>
	<node id="-903722" lat="64.4788166636" lon="11.1571111176">
		<tag k="name" v="Lomtjønna" />
		<tag k="natural" v="water" />
		<tag k="ssr:stedsnr" v="108390" />
	</node>
	<node id="-903720" lat="64.2220194418" lon="11.3553333286">
		<tag k="name" v="Svebekken" />
		<tag k="ssr:stedsnr" v="524266" />
		<tag k="waterway" v="stream" />
	</node>
	<node id="-903718" lat="64.2074944465" lon="11.1160527843">
		<tag k="name" v="Skrovlibekken" />
		<tag k="ssr:stedsnr" v="837520" />
		<tag k="waterway" v="stream" />
	</node>
	<node id="-903708" lat="64.2082888871" lon="11.1614472302">
		<tag k="name" v="Lissvatnet" />
		<tag k="natural" v="water" />
		<tag k="ssr:stedsnr" v="559683" />
	</node>
	<node id="-903704" lat="64.1731888873" lon="11.2299666652">
		<tag k="name" v="Leitbekken" />
		<tag k="ssr:stedsnr" v="38386" />
		<tag k="waterway" v="stream" />
	</node>
	<node id="-903702" lat="64.1891861148" lon="11.3574222196">
		<tag k="name" v="Sveelva" />
		<tag k="ssr:stedsnr" v="351740" />
		<tag k="waterway" v="river" />
	</node>
	<node id="-903701" lat="64.1256168435" lon="10.8122431902">
		<tag k="name" v="Lissvatnet" />
		<tag k="natural" v="water" />
		<tag k="ssr:stedsnr" v="924554" />
	</node>
	<node id="-903691" lat="64.2028888921" lon="11.3605166727">
		<tag k="name" v="Svetjønna" />
		<tag k="natural" v="water" />
		<tag k="ssr:stedsnr" v="160262" />
	</node>
	<node id="-903685" lat="64.2684166633" lon="11.2684666638">
		<tag k="name" v="Grindabekken" />
		<tag k="ssr:stedsnr" v="767200" />
		<tag k="waterway" v="stream" />
	</node>
	<node id="-903680" lat="64.1714027768" lon="11.2145305584">
		<tag k="name" v="Låmmårstranda" />
		<tag k="natural" v="cape" />
		<tag k="ssr:stedsnr" v="645338" />
	</node>
	<node id="-903677" lat="64.2255194409" lon="11.4030277679">
		<tag k="name" v="Kvennabekken" />
		<tag k="ssr:stedsnr" v="230666" />
		<tag k="waterway" v="stream" />
	</node>
	<node id="-903669" lat="64.194049997" lon="10.9447805471">
		<tag k="name" v="Steinbekken" />
		<tag k="ssr:stedsnr" v="534524" />
		<tag k="waterway" v="stream" />
	</node>
	<node id="-903668" lat="64.2064166636" lon="11.299941666">
		<tag k="name" v="Finsåsbekken" />
		<tag k="ssr:stedsnr" v="160254" />
		<tag k="waterway" v="stream" />
	</node>
	<node id="-903666" lat="64.3027694462" lon="11.0630361028">
		<tag k="name" v="Finnkrutjønna" />
		<tag k="natural" v="water" />
		<tag k="ssr:stedsnr" v="196171" />
	</node>
	<node id="-903656" lat="64.5056333378" lon="11.0955333261">
		<tag k="name" v="Spalielva" />
		<tag k="ssr:stedsnr" v="439700" />
		<tag k="waterway" v="stream" />
	</node>
	<node id="-903652" lat="64.3516805567" lon="11.2236333419">
		<tag k="alt_name" v="Kvennabekken" />
		<tag k="name" v="Kvernbekken" />
		<tag k="ssr:stedsnr" v="75982" />
		<tag k="waterway" v="stream" />
	</node>
	<node id="-903651" lat="64.2650027757" lon="11.2998027761">
		<tag k="name" v="Tarmbekken" />
		<tag k="ssr:stedsnr" v="826216" />
		<tag k="waterway" v="stream" />
	</node>
	<node id="-903648" lat="64.2386555535" lon="11.3308944484">
		<tag k="name" v="Hølbekken" />
		<tag k="ssr:stedsnr" v="766309" />
		<tag k="waterway" v="stream" />
	</node>
	<node id="-903647" lat="64.2352083373" lon="11.4485361162">
		<tag k="name" v="Rørvatnet" />
		<tag k="natural" v="water" />
		<tag k="ssr:stedsnr" v="135918" />
		<tag k="water" v="lake" />
	</node>
	<node id="-903645" lat="64.1769666673" lon="11.0558083356">
		<tag k="name" v="Lissvassbekken" />
		<tag k="ssr:stedsnr" v="958539" />
		<tag k="waterway" v="stream" />
	</node>
	<node id="-903639" lat="64.2825805597" lon="11.315130556">
		<tag k="name" v="Benkbekken" />
		<tag k="ssr:stedsnr" v="351338" />
		<tag k="waterway" v="stream" />
	</node>
	<node id="-903636" lat="64.2673000003" lon="11.473577774">
		<tag k="name" v="Grasbekken" />
		<tag k="ssr:stedsnr" v="681880" />
		<tag k="waterway" v="stream" />
	</node>
	<node id="-903631" lat="64.5421222249" lon="11.060144438">
		<tag k="name" v="Brunerbekken" />
		<tag k="ssr:stedsnr" v="473470" />
		<tag k="waterway" v="stream" />
	</node>
	<node id="-903629" lat="64.2293055547" lon="11.4364833348">
		<tag k="name" v="Løselva" />
		<tag k="ssr:stedsnr" v="135917" />
		<tag k="waterway" v="stream" />
	</node>
	<node id="-903624" lat="64.4831361092" lon="11.0712888939">
		<tag k="name" v="Lissvatnet" />
		<tag k="natural" v="water" />
		<tag k="ssr:stedsnr" v="135380" />
	</node>
	<node id="-903623" lat="64.2199888849" lon="11.0676305549">
		<tag k="name" v="Sverka" />
		<tag k="ssr:stedsnr" v="559659" />
		<tag k="waterway" v="river" />
	</node>
	<node id="-903621" lat="64.4607805522" lon="11.1861888871">
		<tag k="name" v="Oterbekken" />
		<tag k="ssr:stedsnr" v="109168" />
		<tag k="waterway" v="stream" />
	</node>
	<node id="-903609" lat="64.1826416648" lon="10.9476444501">
		<tag k="name" v="Finnholmen" />
		<tag k="place" v="islet" />
		<tag k="ssr:stedsnr" v="75717" />
	</node>
	<node id="-903606" lat="64.2739166682" lon="11.1004888979">
		<tag k="name" v="Joslættbekken" />
		<tag k="ssr:stedsnr" v="958940" />
		<tag k="waterway" v="stream" />
	</node>
	<node id="-903603" lat="64.1674694414" lon="11.233869443">
		<tag k="name" v="Bladvollen" />
		<tag k="natural" v="cape" />
		<tag k="ssr:stedsnr" v="645342" />
	</node>
	<node id="-903602" lat="64.4587388902" lon="11.1751499901">
		<tag k="name" v="Storbakktjønna" />
		<tag k="natural" v="water" />
		<tag k="ssr:stedsnr" v="741563" />
	</node>
	<node id="-903601" lat="64.1360694463" lon="10.9015527841">
		<tag k="name" v="Blåvatnet" />
		<tag k="natural" v="water" />
		<tag k="ssr:stedsnr" v="681615" />
	</node>
	<node id="-903596" lat="64.1628388849" lon="11.3081416686">
		<tag k="alt_name" v="Lissvatnet" />
		<tag k="name" v="Lissaunvatnet" />
		<tag k="natural" v="water" />
		<tag k="ssr:stedsnr" v="620833" />
	</node>
	<node id="-903590" lat="64.223233331" lon="11.4085333292">
		<tag k="name" v="Lissiglin" />
		<tag k="natural" v="water" />
		<tag k="ssr:stedsnr" v="559932" />
	</node>
	<node id="-903583" lat="64.2690638918" lon="11.051494437">
		<tag k="name" v="Spildernybekken" />
		<tag k="ssr:stedsnr" v="412900" />
		<tag k="waterway" v="stream" />
	</node>
	<node id="-903582" lat="64.2729083302" lon="11.2341916626">
		<tag k="name" v="Pessartjønna" />
		<tag k="natural" v="water" />
		<tag k="ssr:stedsnr" v="826198" />
	</node>
	<node id="-903576" lat="64.2318416707" lon="11.0295555478">
		<tag k="alt_name" v="Stor - Øyungen" />
		<tag k="name" v="Øyungen" />
		<tag k="natural" v="water" />
		<tag k="ssr:stedsnr" v="742616" />
		<tag k="water" v="lake" />
	</node>
	<node id="-903570" lat="64.2480416675" lon="11.4205750099">
		<tag k="name" v="Bjønnaåstjønna" />
		<tag k="natural" v="water" />
		<tag k="ssr:stedsnr" v="655627" />
	</node>
	<node id="-903568" lat="64.1528999956" lon="11.0378555596">
		<tag k="name" v="Svarttjønna" />
		<tag k="natural" v="water" />
		<tag k="ssr:stedsnr" v="317570" />
	</node>
	<node id="-903566" lat="64.1599499981" lon="10.7782916721">
		<tag k="name" v="Småfosselva" />
		<tag k="ssr:stedsnr" v="681593" />
		<tag k="waterway" v="stream" />
	</node>
	<node id="-903563" lat="64.2125777765" lon="11.041255546">
		<tag k="name" v="Heggdalslifossen" />
		<tag k="natural" v="waterfall" />
		<tag k="ssr:stedsnr" v="863680" />
	</node>
	<node id="-903557" lat="64.1904138911" lon="11.0089527876">
		<tag k="name" v="Tometangen" />
		<tag k="natural" v="cape" />
		<tag k="ssr:stedsnr" v="715531" />
	</node>
	<node id="-903545" lat="64.1990861135" lon="11.3503222207">
		<tag k="name" v="Åengdammen" />
		<tag k="ssr:stedsnr" v="169753" />
		<tag k="waterway" v="dam" />
	</node>
	<node id="-903543" lat="64.3139888934" lon="11.0681138811">
		<tag k="name" v="Midtsandvatnet - Guhkies Njuanajaevrie" />
		<tag k="name:no" v="Midtsandvatnet" />
		<tag k="name:sma" v="Guhkies Njuanajaevrie" />
		<tag k="natural" v="water" />
		<tag k="ssr:stedsnr" v="439145" />
	</node>
	<node id="-903541" lat="64.1470944444" lon="10.9749444544">
		<tag k="name" v="Grastjønna" />
		<tag k="natural" v="water" />
		<tag k="ssr:stedsnr" v="256569" />
	</node>
	<node id="-903540" lat="64.1857861075" lon="11.3347138822">
		<tag k="name" v="Vålåvassdammen" />
		<tag k="ssr:stedsnr" v="411706" />
		<tag k="waterway" v="dam" />
	</node>
	<node id="-903537" lat="64.2714916693" lon="11.1853777837">
		<tag k="name" v="Storholmen" />
		<tag k="place" v="islet" />
		<tag k="ssr:stedsnr" v="280148" />
	</node>
	<node id="-903531" lat="64.2475166706" lon="11.4400888981">
		<tag k="name" v="Dynnkilan" />
		<tag k="natural" v="bay" />
		<tag k="ssr:stedsnr" v="655620" />
	</node>
	<node id="-903530" lat="64.192011108" lon="10.9994833378">
		<tag k="name" v="Straumen" />
		<tag k="natural" v="strait" />
		<tag k="ssr:stedsnr" v="775486" />
	</node>
	<node id="-903529" lat="64.2501305563" lon="11.2785194495">
		<tag k="name" v="Hestvollstranda" />
		<tag k="natural" v="cape" />
		<tag k="ssr:stedsnr" v="401227" />
	</node>
	<node id="-903527" lat="64.4535916711" lon="11.0574166704">
		<tag k="name" v="Svarttjønna" />
		<tag k="natural" v="water" />
		<tag k="ssr:stedsnr" v="13500" />
	</node>
	<node id="-903524" lat="64.2929388889" lon="11.1930999938">
		<tag k="name" v="Årgårdselva" />
		<tag k="ssr:stedsnr" v="499143" />
		<tag k="waterway" v="river" />
	</node>
	<node id="-903521" lat="64.5204527738" lon="11.0429444492">
		<tag k="name" v="Trolltjønna" />
		<tag k="natural" v="water" />
		<tag k="ssr:stedsnr" v="743700" />
	</node>
	<node id="-903518" lat="64.485416665" lon="11.0404055516">
		<tag k="name" v="Kroktjønna" />
		<tag k="natural" v="water" />
		<tag k="ssr:stedsnr" v="14315" />
	</node>
	<node id="-903517" lat="64.2216583337" lon="11.0997527775">
		<tag k="name" v="Svartmobekken" />
		<tag k="ssr:stedsnr" v="559657" />
		<tag k="waterway" v="stream" />
	</node>
	<node id="-903510" lat="64.1839833348" lon="11.2874166697">
		<tag k="name" v="Nordsettervatnet" />
		<tag k="natural" v="water" />
		<tag k="ssr:stedsnr" v="38338" />
		<tag k="water" v="lake" />
	</node>
	<node id="-903509" lat="64.1302055591" lon="10.9269583372">
		<tag k="name" v="Tverrelva" />
		<tag k="ssr:stedsnr" v="256573" />
		<tag k="waterway" v="stream" />
	</node>
	<node id="-903508" lat="64.2163250031" lon="11.0909999923">
		<tag k="name" v="Svartmotjønna" />
		<tag k="natural" v="water" />
		<tag k="ssr:stedsnr" v="803664" />
	</node>
	<node id="-903503" lat="64.1564055542" lon="11.0193555562">
		<tag k="name" v="Holmvika" />
		<tag k="natural" v="bay" />
		<tag k="ssr:stedsnr" v="257642" />
	</node>
	<node id="-903501" lat="64.543550004" lon="11.0331750095">
		<tag k="name" v="Langvatnet" />
		<tag k="natural" v="water" />
		<tag k="ssr:stedsnr" v="14580" />
	</node>
	<node id="-903496" lat="64.1677749983" lon="10.8769694477">
		<tag k="name" v="Joneset" />
		<tag k="natural" v="cape" />
		<tag k="ssr:stedsnr" v="958532" />
	</node>
	<node id="-903495" lat="64.4990555544" lon="11.038227787">
		<tag k="name" v="Grønlivatnet" />
		<tag k="natural" v="water" />
		<tag k="ssr:stedsnr" v="375419" />
		<tag k="water" v="lake" />
	</node>
	<node id="-903493" lat="64.1987916637" lon="11.062677777">
		<tag k="name" v="Rognlibekken" />
		<tag k="ssr:stedsnr" v="350492" />
		<tag k="waterway" v="stream" />
	</node>
	<node id="-903490" lat="64.3444333315" lon="11.0070750017">
		<tag k="name" v="Oksvatnet - Stoerre Njuanajaevrie" />
		<tag k="name:no" v="Oksvatnet" />
		<tag k="name:sma" v="Stoerre Njuanajaevrie" />
		<tag k="natural" v="water" />
		<tag k="ssr:stedsnr" v="378337" />
		<tag k="water" v="lake" />
	</node>
	<node id="-903488" lat="64.2739388854" lon="11.189030565">
		<tag k="name" v="Kjøkkenholmen" />
		<tag k="place" v="islet" />
		<tag k="ssr:stedsnr" v="947211" />
	</node>
	<node id="-903487" lat="64.3004472247" lon="11.1055361193">
		<tag k="name" v="Nedre Steintjønnin" />
		<tag k="natural" v="water" />
		<tag k="ssr:stedsnr" v="499130" />
	</node>
	<node id="-903481" lat="64.2290264248" lon="10.9978486952">
		<tag k="name" v="Lissøyungen" />
		<tag k="natural" v="water" />
		<tag k="ssr:stedsnr" v="14578" />
	</node>
	<node id="-903474" lat="64.1590944479" lon="11.0247944374">
		<tag k="name" v="Maurtangen" />
		<tag k="natural" v="cape" />
		<tag k="ssr:stedsnr" v="378627" />
	</node>
	<node id="-903468" lat="64.1455083311" lon="10.9661166726">
		<tag k="name" v="Sørfurudalselva" />
		<tag k="ssr:stedsnr" v="317567" />
		<tag k="waterway" v="stream" />
	</node>
	<node id="-903461" lat="64.4328638912" lon="11.2375916711">
		<tag k="name" v="Sundsvatnet" />
		<tag k="natural" v="water" />
		<tag k="ssr:stedsnr" v="135081" />
		<tag k="water" v="lake" />
	</node>
	<node id="-903456" lat="64.1702055528" lon="11.0277444351">
		<tag k="name" v="Furudalsvatnet" />
		<tag k="natural" v="water" />
		<tag k="ssr:stedsnr" v="257638" />
		<tag k="water" v="lake" />
	</node>
	<node id="-903450" lat="64.2336777748" lon="11.4227472287">
		<tag k="name" v="Husåstjønnbekken" />
		<tag k="ssr:stedsnr" v="533716" />
		<tag k="waterway" v="stream" />
	</node>
	<node id="-903447" lat="64.324008334" lon="11.2034361192">
		<tag k="alt_name" v="Hestvikbekken" />
		<tag k="name" v="Hevikbekken" />
		<tag k="ssr:stedsnr" v="620293" />
		<tag k="waterway" v="stream" />
	</node>
	<node id="-903445" lat="64.1813666679" lon="11.0274499996">
		<tag k="name" v="Havden" />
		<tag k="natural" v="bay" />
		<tag k="ssr:stedsnr" v="439676" />
	</node>
	<node id="-903438" lat="64.1514555576" lon="11.1313388883">
		<tag k="name" v="Bjørklitjønna" />
		<tag k="natural" v="water" />
		<tag k="ssr:stedsnr" v="317565" />
	</node>
	<node id="-903437" lat="64.1693222207" lon="10.9074722129">
		<tag k="name" v="Hundtjønna" />
		<tag k="natural" v="water" />
		<tag k="ssr:stedsnr" v="257641" />
	</node>
	<node id="-903436" lat="64.2364166662" lon="11.2734222121">
		<tag k="name" v="Merkesbekken" />
		<tag k="ssr:stedsnr" v="160208" />
		<tag k="waterway" v="stream" />
	</node>
	<node id="-903434" lat="64.3332722214" lon="11.0051222236">
		<tag k="name" v="Oksvasstjønnin" />
		<tag k="natural" v="water" />
		<tag k="ssr:stedsnr" v="681331" />
	</node>
	<node id="-903426" lat="64.165036112" lon="11.1746222152">
		<tag k="name" v="Svartåstjønna" />
		<tag k="natural" v="water" />
		<tag k="ssr:stedsnr" v="378618" />
	</node>
	<node id="-903424" lat="64.1697638853" lon="11.166327769">
		<tag k="name" v="Barbrotjønna" />
		<tag k="natural" v="water" />
		<tag k="ssr:stedsnr" v="681577" />
	</node>
	<node id="-903421" lat="64.2055027773" lon="11.341036106">
		<tag k="name" v="Hyllfossen" />
		<tag k="natural" v="waterfall" />
		<tag k="ssr:stedsnr" v="645285" />
	</node>
	<node id="-903420" lat="64.3202944416" lon="11.1162166705">
		<tag k="name" v="Åsneslangvatnet" />
		<tag k="natural" v="water" />
		<tag k="ssr:stedsnr" v="681311" />
	</node>
	<node id="-903416" lat="64.4690333375" lon="11.0598416657">
		<tag k="name" v="Storvatnet" />
		<tag k="natural" v="water" />
		<tag k="ssr:stedsnr" v="438854" />
		<tag k="water" v="lake" />
	</node>
	<node id="-903414" lat="64.3211555512" lon="11.2552250081">
		<tag k="name" v="Storvikbekken" />
		<tag k="ssr:stedsnr" v="220219" />
		<tag k="waterway" v="stream" />
	</node>
	<node id="-903413" lat="64.1676861119" lon="11.127544447">
		<tag k="name" v="Skautjønna" />
		<tag k="natural" v="water" />
		<tag k="ssr:stedsnr" v="378616" />
	</node>
	<node id="-903412" lat="64.2375527778" lon="11.4026111147">
		<tag k="name" v="Husåstjønna" />
		<tag k="natural" v="water" />
		<tag k="ssr:stedsnr" v="75948" />
	</node>
	<node id="-903411" lat="64.2738277754" lon="11.3211055505">
		<tag k="name" v="Svartdalsbekken" />
		<tag k="ssr:stedsnr" v="378891" />
		<tag k="waterway" v="stream" />
	</node>
	<node id="-903410" lat="64.2813555586" lon="11.3266166686">
		<tag k="name" v="Småtjønnin" />
		<tag k="natural" v="water" />
		<tag k="ssr:stedsnr" v="620799" />
	</node>
	<node id="-903405" lat="64.306597222" lon="11.1133305504">
		<tag k="name" v="Steintjønna" />
		<tag k="natural" v="water" />
		<tag k="ssr:stedsnr" v="594416" />
	</node>
	<node id="-903404" lat="64.242750003" lon="11.0832388968">
		<tag k="name" v="Øyungholmen" />
		<tag k="place" v="islet" />
		<tag k="ssr:stedsnr" v="135622" />
	</node>
	<node id="-903403" lat="64.1571111121" lon="10.8640166575">
		<tag k="name" v="Agnettjønna" />
		<tag k="natural" v="water" />
		<tag k="ssr:stedsnr" v="317551" />
	</node>
	<node id="-903397" lat="64.2754805593" lon="11.339733328">
		<tag k="name" v="Huslemmen" />
		<tag k="natural" v="water" />
		<tag k="ssr:stedsnr" v="620797" />
	</node>
	<node id="-903382" lat="64.2379138869" lon="11.0184111127">
		<tag k="name" v="Storblåvatnet" />
		<tag k="natural" v="water" />
		<tag k="ssr:stedsnr" v="135617" />
	</node>
	<node id="-903379" lat="64.1517250016" lon="10.9063861209">
		<tag k="name" v="Hundheivatnet" />
		<tag k="natural" v="water" />
		<tag k="ssr:stedsnr" v="317558" />
	</node>
	<node id="-903376" lat="64.1857472233" lon="11.2942749909">
		<tag k="name" v="Lissvatnet" />
		<tag k="natural" v="water" />
		<tag k="ssr:stedsnr" v="620794" />
	</node>
	<node id="-903371" lat="64.259652782" lon="11.4449999934">
		<tag k="name" v="Jensbukta" />
		<tag k="natural" v="bay" />
		<tag k="ssr:stedsnr" v="742856" />
	</node>
	<node id="-903363" lat="64.2594722197" lon="11.3657416645">
		<tag k="name" v="Joholbekken" />
		<tag k="ssr:stedsnr" v="583193" />
		<tag k="waterway" v="stream" />
	</node>
	<node id="-903359" lat="64.2683777736" lon="10.9950250087">
		<tag k="name" v="Bjørfarvassbekken" />
		<tag k="ssr:stedsnr" v="499109" />
		<tag k="waterway" v="stream" />
	</node>
	<node id="-903357" lat="64.2713416634" lon="11.4204416617">
		<tag k="name" v="Bjørtjønna" />
		<tag k="natural" v="water" />
		<tag k="ssr:stedsnr" v="742870" />
	</node>
	<node id="-903356" lat="64.1791333369" lon="11.0306416583">
		<tag k="name" v="Kunta" />
		<tag k="natural" v="water" />
		<tag k="ssr:stedsnr" v="378608" />
	</node>
	<node id="-903352" lat="64.3391083358" lon="11.2184777882">
		<tag k="name" v="Åsabekken" />
		<tag k="ssr:stedsnr" v="220204" />
		<tag k="waterway" v="stream" />
	</node>
	<node id="-903347" lat="64.2673166632" lon="11.0306111097">
		<tag k="name" v="Øyensskavltjønna" />
		<tag k="natural" v="water" />
		<tag k="ssr:stedsnr" v="499111" />
	</node>
	<node id="-903344" lat="64.2645750003" lon="11.450269451">
		<tag k="name" v="Grasbekken" />
		<tag k="ssr:stedsnr" v="742868" />
		<tag k="waterway" v="stream" />
	</node>
	<node id="-903339" lat="64.2553666655" lon="11.2417916747">
		<tag k="name" v="Syrbekken" />
		<tag k="ssr:stedsnr" v="14825" />
		<tag k="waterway" v="stream" />
	</node>
	<node id="-903335" lat="64.2284111122" lon="11.4863388938">
		<tag k="name" v="Giltelva" />
		<tag k="ssr:stedsnr" v="863928" />
		<tag k="waterway" v="river" />
	</node>
	<node id="-903334" lat="64.3283333324" lon="11.157072229">
		<tag k="name" v="Lorttjønna" />
		<tag k="natural" v="water" />
		<tag k="ssr:stedsnr" v="378324" />
	</node>
	<node id="-903333" lat="64.4290694435" lon="11.2260194438">
		<tag k="name" v="Fjellholbekken" />
		<tag k="ssr:stedsnr" v="559106" />
		<tag k="waterway" v="stream" />
	</node>
	<node id="-903327" lat="64.1263527801" lon="10.8885805506">
		<tag k="name" v="Langvatnet" />
		<tag k="natural" v="water" />
		<tag k="ssr:stedsnr" v="559633" />
	</node>
	<node id="-903325" lat="64.1302611152" lon="10.821452776">
		<tag k="name" v="Stornesvatnet - Dåapmajaevrie" />
		<tag k="name:no" v="Stornesvatnet" />
		<tag k="name:sma" v="Dåapmajaevrie" />
		<tag k="natural" v="water" />
		<tag k="ssr:stedsnr" v="742601" />
	</node>
	<node id="-903322" lat="64.2314055597" lon="11.0104694521">
		<tag k="name" v="Lissøyungelva" />
		<tag k="ssr:stedsnr" v="655989" />
		<tag k="waterway" v="river" />
	</node>
	<node id="-903307" lat="64.1426138867" lon="10.9895111064">
		<tag k="name" v="Gambekken" />
		<tag k="ssr:stedsnr" v="14562" />
		<tag k="waterway" v="stream" />
	</node>
	<node id="-903306" lat="64.339047218" lon="11.1831666647">
		<tag k="name" v="Vakkermyrvatnet" />
		<tag k="natural" v="water" />
		<tag k="ssr:stedsnr" v="742311" />
	</node>
	<node id="-903298" lat="64.1692638847" lon="11.0346722155">
		<tag k="name" v="Bjørnatangen" />
		<tag k="natural" v="cape" />
		<tag k="ssr:stedsnr" v="317536" />
	</node>
	<node id="-903297" lat="64.2344805514" lon="10.9438666674">
		<tag k="name" v="Meungelva" />
		<tag k="ssr:stedsnr" v="803634" />
		<tag k="waterway" v="stream" />
	</node>
	<node id="-903295" lat="64.339275001" lon="11.301111106">
		<tag k="name" v="Grotjønna" />
		<tag k="natural" v="water" />
		<tag k="ssr:stedsnr" v="135870" />
	</node>
	<node id="-903287" lat="64.4967416631" lon="11.1083555508">
		<tag k="name" v="Otertjønna" />
		<tag k="natural" v="water" />
		<tag k="ssr:stedsnr" v="412444" />
	</node>
	<node id="-903286" lat="64.3747249973" lon="11.198200009">
		<tag k="name" v="Mjøsundbekken" />
		<tag k="ssr:stedsnr" v="958870" />
		<tag k="waterway" v="stream" />
	</node>
	<node id="-903283" lat="64.4296777818" lon="11.029594444">
		<tag k="name" v="Mjøsundet" />
		<tag k="natural" v="strait" />
		<tag k="ssr:stedsnr" v="230206" />
	</node>
	<node id="-903282" lat="64.2370816081" lon="11.0045827048">
		<tag k="name" v="Lisstrollbotn" />
		<tag k="natural" v="water" />
		<tag k="ssr:stedsnr" v="803636" />
		<tag k="water" v="lake" />
	</node>
	<node id="-903280" lat="64.2083833336" lon="11.3410388952">
		<tag k="name" v="Svefossen" />
		<tag k="natural" v="waterfall" />
		<tag k="ssr:stedsnr" v="828300" />
	</node>
	<node id="-903278" lat="64.4215277762" lon="11.1144527879">
		<tag k="name" v="Granheivatnet" />
		<tag k="natural" v="water" />
		<tag k="ssr:stedsnr" v="681292" />
	</node>
	<node id="-903277" lat="64.2868027776" lon="11.0301027833">
		<tag k="name" v="Botnan" />
		<tag k="natural" v="water" />
		<tag k="ssr:stedsnr" v="109496" />
	</node>
	<node id="-903273" lat="64.1525416706" lon="11.0664888977">
		<tag k="alt_name" v="Holmvasslivatna" />
		<tag k="name" v="Holvasslivatna" />
		<tag k="natural" v="water" />
		<tag k="ssr:stedsnr" v="317542" />
	</node>
	<node id="-903272" lat="64.2392666634" lon="11.3497500063">
		<tag k="name" v="Tornesa" />
		<tag k="natural" v="cape" />
		<tag k="ssr:stedsnr" v="949286" />
	</node>
	<node id="-903271" lat="64.2554216334" lon="10.9279832911">
		<tag k="name" v="Lissolvatnet" />
		<tag k="natural" v="water" />
		<tag k="ssr:stedsnr" v="439116" />
	</node>
	<node id="-903268" lat="64.2116444412" lon="11.4525111132">
		<tag k="name" v="Langsetertjønna" />
		<tag k="natural" v="water" />
		<tag k="ssr:stedsnr" v="863910" />
	</node>
	<node id="-903265" lat="64.4157888853" lon="11.1000111083">
		<tag k="name" v="Lomtjønna" />
		<tag k="natural" v="water" />
		<tag k="ssr:stedsnr" v="317283" />
	</node>
	<node id="-903259" lat="64.2113361085" lon="11.3826916573">
		<tag k="name" v="Sleppingen" />
		<tag k="natural" v="water" />
		<tag k="ssr:stedsnr" v="863913" />
	</node>
	<node id="-903256" lat="64.2205416708" lon="11.2772861148">
		<tag k="name" v="Sandbekken" />
		<tag k="ssr:stedsnr" v="706272" />
		<tag k="waterway" v="stream" />
	</node>
	<node id="-903236" lat="64.2522999993" lon="11.3758388936">
		<tag k="name" v="Skatlandvatnet" />
		<tag k="natural" v="water" />
		<tag k="ssr:stedsnr" v="257877" />
		<tag k="water" v="lake" />
	</node>
	<node id="-903232" lat="64.2761250031" lon="11.1897277854">
		<tag k="name" v="Purkholmen" />
		<tag k="place" v="islet" />
		<tag k="ssr:stedsnr" v="98182" />
	</node>
	<node id="-903225" lat="64.1864638885" lon="10.9578583249">
		<tag k="name" v="Seterholmen" />
		<tag k="place" v="islet" />
		<tag k="ssr:stedsnr" v="864714" />
	</node>
	<node id="-903222" lat="64.4087666639" lon="11.0962333275">
		<tag k="name" v="Mefossen" />
		<tag k="natural" v="waterfall" />
		<tag k="ssr:stedsnr" v="317267" />
	</node>
	<node id="-903214" lat="64.1935444449" lon="11.278558343">
		<tag k="name" v="Rossetbekken" />
		<tag k="ssr:stedsnr" v="828314" />
		<tag k="waterway" v="stream" />
	</node>
	<node id="-903211" lat="64.1981000018" lon="11.3367888935">
		<tag k="name" v="Vålåvassbekken" />
		<tag k="ssr:stedsnr" v="14813" />
		<tag k="waterway" v="stream" />
	</node>
	<node id="-903210" lat="64.2706277783" lon="11.2361749968">
		<tag k="name" v="Pessartjønnbekken" />
		<tag k="ssr:stedsnr" v="439894" />
		<tag k="waterway" v="stream" />
	</node>
	<node id="-903202" lat="64.4078750024" lon="11.2195083371">
		<tag k="name" v="Hemnåa" />
		<tag k="ssr:stedsnr" v="257066" />
		<tag k="waterway" v="river" />
	</node>
	<node id="-903200" lat="64.2366222178" lon="10.9211638839">
		<tag k="name" v="Meungan" />
		<tag k="natural" v="water" />
		<tag k="ssr:stedsnr" v="803639" />
	</node>
	<node id="-903198" lat="64.2268527813" lon="10.9430638908">
		<tag k="name" v="Bjørkvassbekken" />
		<tag k="ssr:stedsnr" v="75669" />
		<tag k="waterway" v="stream" />
	</node>
	<node id="-903197" lat="64.2009277781" lon="11.3606999943">
		<tag k="name" v="Svetjønna" />
		<tag k="natural" v="water" />
		<tag k="ssr:stedsnr" v="317797" />
	</node>
	<node id="-903191" lat="64.2371555589" lon="11.15146944">
		<tag k="name" v="Fugllitjønna" />
		<tag k="natural" v="water" />
		<tag k="ssr:stedsnr" v="803640" />
	</node>
	<node id="-903182" lat="64.1522166656" lon="10.9478555622">
		<tag k="name" v="Grastjønnin" />
		<tag k="natural" v="water" />
		<tag k="ssr:stedsnr" v="742569" />
	</node>
	<node id="-903179" lat="64.2735111117" lon="11.0724555595">
		<tag k="name" v="Kvernbekktjønna" />
		<tag k="natural" v="water" />
		<tag k="ssr:stedsnr" v="499089" />
	</node>
	<node id="-903177" lat="64.1810972186" lon="10.9159805546">
		<tag k="name" v="Nordsellitjønna" />
		<tag k="natural" v="water" />
		<tag k="ssr:stedsnr" v="317522" />
	</node>
	<node id="-903174" lat="64.4299138911" lon="11.3147944418">
		<tag k="name" v="Storelva" />
		<tag k="ssr:stedsnr" v="863089" />
		<tag k="waterway" v="stream" />
	</node>
	<node id="-903170" lat="64.4702638875" lon="11.12750001">
		<tag k="name" v="Sjålivatnet" />
		<tag k="natural" v="water" />
		<tag k="ssr:stedsnr" v="75389" />
	</node>
</osm>
