<?xml version="1.0" encoding="UTF-8"?>
<osm generator="osmapis" version="0.6">
	<node id="-885760" lat="64.5121617607" lon="11.0745346586">
		<tag k="fixme" v="consider place=hamlet" />
		<tag k="name" v="Leirfjorden" />
		<tag k="place" v="farm" />
		<tag k="ssr:stedsnr" v="742687" />
	</node>
	<node id="-886083" lat="64.4546000033" lon="11.1834277801">
		<tag k="name" v="Langstranda" />
		<tag k="place" v="farm" />
		<tag k="ssr:stedsnr" v="317425" />
	</node>
	<node id="-884732" lat="64.1870737267" lon="11.2036516726">
		<tag k="fixme" v="consider place=hamlet" />
		<tag k="name" v="Kolstad" />
		<tag k="place" v="farm" />
		<tag k="ssr:stedsnr" v="888292" />
	</node>
	<node id="-885751" lat="64.2356000031" lon="11.3512749931">
		<tag k="name" v="Dorrås" />
		<tag k="place" v="farm" />
		<tag k="ssr:stedsnr" v="221212" />
	</node>
	<node id="-884905" lat="64.2377888849" lon="10.9857888906">
		<tag k="name" v="Holitømtet" />
		<tag k="place" v="locality" />
		<tag k="ssr:stedsnr" v="65313" />
	</node>
	<node id="-884724" lat="64.4071861134" lon="11.164961115">
		<tag k="name" v="Stornesmoen" />
		<tag k="place" v="isolated_dwelling" />
		<tag k="ssr:stedsnr" v="742268" />
	</node>
	<node id="-884722" lat="64.3436187452" lon="11.2730527678">
		<tag k="fixme" v="consider place=hamlet" />
		<tag k="name" v="Gryta" />
		<tag k="place" v="farm" />
		<tag k="ssr:stedsnr" v="560908" />
	</node>
	<node id="-885745" lat="64.5097888848" lon="11.1096916735">
		<tag k="name" v="Ledang" />
		<tag k="place" v="hamlet" />
		<tag k="ssr:stedsnr" v="318722" />
	</node>
	<node id="-884720" lat="64.1839472223" lon="11.2184777756">
		<tag k="fixme" v="consider place=hamlet" />
		<tag k="name" v="Hanemo" />
		<tag k="place" v="farm" />
		<tag k="ssr:stedsnr" v="888293" />
	</node>
	<node id="-885928" lat="64.4331638895" lon="11.1008555556">
		<tag k="historic" v="shieling" />
		<tag k="name" v="Buseteren" />
		<tag k="place" v="locality" />
		<tag k="ssr:stedsnr" v="837187" />
	</node>
	<node id="-884718" lat="64.256530552" lon="11.2176361163">
		<tag k="name" v="Buvarp" />
		<tag k="place" v="farm" />
		<tag k="ssr:stedsnr" v="706212" />
	</node>
	<node id="-885739" lat="64.2251448674" lon="11.2273595617">
		<tag k="fixme" v="consider place=hamlet" />
		<tag k="name" v="Holia" />
		<tag k="place" v="farm" />
		<tag k="ssr:stedsnr" v="681922" />
	</node>
	<node id="-884903" lat="64.1770583339" lon="11.256155561">
		<tag k="alt_name" v="Nordsitter" />
		<tag k="name" v="Nordsetter" />
		<tag k="place" v="farm" />
		<tag k="ssr:stedsnr" v="544107" />
	</node>
	<node id="-885500" lat="64.2232277753" lon="11.3087583372">
		<tag k="historic" v="shieling" />
		<tag k="name" v="Maritvollen" />
		<tag k="place" v="locality" />
		<tag k="ssr:stedsnr" v="160251" />
	</node>
	<node id="-885734" lat="64.2452611089" lon="11.2367722155">
		<tag k="name" v="Brørsbakken" />
		<tag k="place" v="farm" />
		<tag k="ssr:stedsnr" v="221202" />
	</node>
	<node id="-884633" lat="64.2543426572" lon="11.2206032194">
		<tag k="name" v="Buvarp" />
		<tag k="place" v="farm" />
		<tag k="ssr:stedsnr" v="499852" />
	</node>
	<node id="-885732" lat="64.2987555585" lon="11.1982916717">
		<tag k="name" v="Mølnåa" />
		<tag k="place" v="farm" />
		<tag k="ssr:stedsnr" v="99211" />
	</node>
	<node id="-884707" lat="64.466538887" lon="11.1655138979">
		<tag k="name" v="Breiviksetran" />
		<tag k="place" v="isolated_dwelling" />
		<tag k="ssr:stedsnr" v="196331" />
	</node>
	<node id="-885076" lat="64.2763638926" lon="11.197799999">
		<tag k="alt_name" v="Haugmo" />
		<tag k="name" v="Haugmoen" />
		<tag k="place" v="farm" />
		<tag k="ssr:stedsnr" v="439117" />
	</node>
	<node id="-884700" lat="64.2157694469" lon="11.1956305591">
		<tag k="name" v="Stavenbakken" />
		<tag k="place" v="farm" />
		<tag k="ssr:stedsnr" v="402363" />
	</node>
	<node id="-885211" lat="64.4303527738" lon="11.1842194485">
		<tag k="name" v="Kilmoen" />
		<tag k="place" v="farm" />
		<tag k="ssr:stedsnr" v="196402" />
	</node>
	<node id="-885207" lat="64.174552552" lon="11.2663268126">
		<tag k="alt_name" v="Sørsitter" />
		<tag k="fixme" v="consider place=hamlet" />
		<tag k="name" v="Sørsetter" />
		<tag k="place" v="farm" />
		<tag k="ssr:stedsnr" v="362119" />
	</node>
	<node id="-885716" lat="64.4431555514" lon="11.1494861032">
		<tag k="name" v="Kristenmoen" />
		<tag k="place" v="farm" />
		<tag k="ssr:stedsnr" v="559447" />
	</node>
	<node id="-884690" lat="64.3413500023" lon="11.2795805493">
		<tag k="name" v="Liaåsen" />
		<tag k="place" v="farm" />
		<tag k="ssr:stedsnr" v="560913" />
	</node>
	<node id="-885837" lat="64.2704702467" lon="11.2053638917">
		<tag k="name" v="Stakksetet" />
		<tag k="place" v="farm" />
		<tag k="ssr:stedsnr" v="681147" />
	</node>
	<node id="-885196" lat="64.2592055598" lon="11.4616250063">
		<tag k="name" v="Andsjøtømtet" />
		<tag k="place" v="isolated_dwelling" />
		<tag k="ssr:stedsnr" v="317824" />
	</node>
	<node id="-885706" lat="64.1882861118" lon="11.2615972121">
		<tag k="name" v="Håpet" />
		<tag k="place" v="farm" />
		<tag k="ssr:stedsnr" v="499781" />
	</node>
	<node id="-885705" lat="64.1646555565" lon="11.2753888893">
		<tag k="alt_name" v="Mork søre;Søre Mork" />
		<tag k="name" v="Søndre Mork" />
		<tag k="place" v="farm" />
		<tag k="ssr:stedsnr" v="342297" />
	</node>
	<node id="-885324" lat="64.3775472199" lon="11.2828111076">
		<tag k="name" v="Breivika" />
		<tag k="place" v="isolated_dwelling" />
		<tag k="ssr:stedsnr" v="196957" />
	</node>
	<node id="-885189" lat="64.2626444481" lon="11.2367444455">
		<tag k="name" v="Kringen" />
		<tag k="place" v="isolated_dwelling" />
		<tag k="ssr:stedsnr" v="742857" />
	</node>
	<node id="-885699" lat="64.2679333295" lon="11.2037194387">
		<tag k="name" v="Auntun" />
		<tag k="place" v="farm" />
		<tag k="ssr:stedsnr" v="14124" />
	</node>
	<node id="-885184" lat="64.1757203784" lon="11.2279971705">
		<tag k="fixme" v="multiple name tags, choose one and add the other to alt_name" />
		<tag k="name" v="Elda;Ner-Elda" />
		<tag k="old_name" v="Elda, nedre" />
		<tag k="place" v="farm" />
		<tag k="ssr:stedsnr" v="257895" />
	</node>
	<node id="-884670" lat="64.5144027816" lon="11.079913898">
		<tag k="name" v="Aunan" />
		<tag k="place" v="locality" />
		<tag k="ssr:stedsnr" v="413483" />
	</node>
	<node id="-884668" lat="64.2510388909" lon="11.2232500094">
		<tag k="name" v="Sandberg" />
		<tag k="place" v="farm" />
		<tag k="ssr:stedsnr" v="403219" />
	</node>
	<node id="-885177" lat="64.1564916667" lon="11.072713882">
		<tag k="name" v="Holvasslisetran" />
		<tag k="place" v="isolated_dwelling" />
		<tag k="ssr:stedsnr" v="256552" />
	</node>
	<node id="-885172" lat="64.4570138896" lon="11.2784694456">
		<tag k="name" v="Valvika" />
		<tag k="place" v="farm" />
		<tag k="ssr:stedsnr" v="317003" />
	</node>
	<node id="-884659" lat="64.2580111068" lon="11.2988444509">
		<tag k="name" v="Kaldalbakken" />
		<tag k="place" v="farm" />
		<tag k="ssr:stedsnr" v="196858" />
	</node>
	<node id="-885680" lat="64.2312131549" lon="11.3242255444">
		<tag k="name" v="Berrehaugen" />
		<tag k="place" v="locality" />
		<tag k="ssr:stedsnr" v="317908" />
	</node>
	<node id="-885320" lat="64.3639727794" lon="11.2395701495">
		<tag k="fixme" v="consider place=hamlet" />
		<tag k="name" v="Altin" />
		<tag k="place" v="farm" />
		<tag k="ssr:stedsnr" v="863951" />
	</node>
	<node id="-884652" lat="64.2426194439" lon="11.0927194512">
		<tag k="name" v="Bukta" />
		<tag k="place" v="farm" />
		<tag k="ssr:stedsnr" v="716936" />
	</node>
	<node id="-884649" lat="64.2364305537" lon="11.2141833309">
		<tag k="name" v="Engan" />
		<tag k="place" v="farm" />
		<tag k="ssr:stedsnr" v="281306" />
	</node>
	<node id="-885671" lat="64.2006916651" lon="11.3668888807">
		<tag k="name" v="Sveplassen" />
		<tag k="place" v="locality" />
		<tag k="ssr:stedsnr" v="836747" />
	</node>
	<node id="-884646" lat="64.1968272496" lon="11.2467195223">
		<tag k="fixme" v="consider place=hamlet" />
		<tag k="name" v="Helbostad" />
		<tag k="place" v="farm" />
		<tag k="ssr:stedsnr" v="559825" />
	</node>
	<node id="-884641" lat="64.2531224817" lon="11.118836896">
		<tag k="name" v="Myrmoen" />
		<tag k="place" v="farm" />
		<tag k="ssr:stedsnr" v="681222" />
	</node>
	<node id="-884740" lat="64.2334833356" lon="11.1151916568">
		<tag k="name" v="Fautgårdstømtet" />
		<tag k="place" v="isolated_dwelling" />
		<tag k="ssr:stedsnr" v="499595" />
	</node>
	<node id="-885662" lat="64.2174572583" lon="11.2333220458">
		<tag k="fixme" v="consider place=hamlet" />
		<tag k="name" v="Tinglem" />
		<tag k="place" v="farm" />
		<tag k="ssr:stedsnr" v="14897" />
	</node>
	<node id="-884637" lat="64.2316484091" lon="11.2007067583">
		<tag k="name" v="Bjørg" />
		<tag k="place" v="farm" />
		<tag k="ssr:stedsnr" v="888262" />
	</node>
	<node id="-885148" lat="64.2766499967" lon="11.0137138866">
		<tag k="name" v="Rislisetran" />
		<tag k="place" v="locality" />
		<tag k="ssr:stedsnr" v="75133" />
	</node>
	<node id="-884634" lat="64.1949121644" lon="11.2370986848">
		<tag k="fixme" v="consider place=hamlet" />
		<tag k="name" v="Vengstad" />
		<tag k="place" v="farm" />
		<tag k="ssr:stedsnr" v="803841" />
	</node>
	<node id="-885145" lat="64.1646542143" lon="11.2771617091">
		<tag k="name" v="Nordtrøa" />
		<tag k="place" v="farm" />
		<tag k="ssr:stedsnr" v="681857" />
	</node>
	<node id="-884631" lat="64.1947176758" lon="11.2611781867">
		<tag k="name" v="Hallåsmoen" />
		<tag k="place" v="farm" />
		<tag k="ssr:stedsnr" v="135800" />
	</node>
	<node id="-885141" lat="64.2169305566" lon="11.4660722152">
		<tag k="historic" v="shieling" />
		<tag k="name" v="Raudhylltømte" />
		<tag k="place" v="locality" />
		<tag k="ssr:stedsnr" v="776659" />
	</node>
	<node id="-885180" lat="64.2542018255" lon="11.2682424699">
		<tag k="fixme" v="consider place=hamlet" />
		<tag k="name" v="Kaldal" />
		<tag k="place" v="farm" />
		<tag k="ssr:stedsnr" v="317812" />
	</node>
	<node id="-884547" lat="64.1678618778" lon="11.2712210719">
		<tag k="fixme" v="consider place=hamlet" />
		<tag k="name" v="Mork" />
		<tag k="place" v="farm" />
		<tag k="ssr:stedsnr" v="196842" />
	</node>
	<node id="-885134" lat="64.2374353764" lon="11.3603016588">
		<tag k="fixme" v="consider place=hamlet" />
		<tag k="name" v="Dorrås" />
		<tag k="place" v="farm" />
		<tag k="ssr:stedsnr" v="803919" />
	</node>
	<node id="-885670" lat="64.1604750008" lon="10.9970027789">
		<tag k="name" v="Sørfurudalssetran" />
		<tag k="place" v="locality" />
		<tag k="ssr:stedsnr" v="924574" />
	</node>
	<node id="-885143" lat="64.2508003582" lon="11.2516501142">
		<tag k="alt_name" v="Limoen" />
		<tag k="name" v="Limo" />
		<tag k="place" v="farm" />
		<tag k="ssr:stedsnr" v="14823" />
	</node>
	<node id="-885124" lat="64.2530914823" lon="11.2490343081">
		<tag k="name" v="Li" />
		<tag k="place" v="farm" />
		<tag k="ssr:stedsnr" v="742845" />
	</node>
	<node id="-885123" lat="64.4237249969" lon="11.1936249946">
		<tag k="name" v="Sjøhølmoen" />
		<tag k="place" v="farm" />
		<tag k="ssr:stedsnr" v="317279" />
	</node>
	<node id="-884749" lat="64.1604134635" lon="11.2795096926">
		<tag k="fixme" v="consider place=hamlet" />
		<tag k="name" v="Nordaunet" />
		<tag k="place" v="farm" />
		<tag k="ssr:stedsnr" v="559843" />
	</node>
	<node id="-885631" lat="64.2521805578" lon="11.1140277723">
		<tag k="name" v="Buamoen" />
		<tag k="place" v="locality" />
		<tag k="ssr:stedsnr" v="473891" />
	</node>
	<node id="-885118" lat="64.4574999999" lon="11.3322888962">
		<tag k="name" v="Skjerpenget" />
		<tag k="place" v="farm" />
		<tag k="ssr:stedsnr" v="256002" />
	</node>
	<node id="-885158" lat="64.2946027795" lon="11.1909027812">
		<tag k="alt_name" v="Sagbakken" />
		<tag k="name" v="Hegglia" />
		<tag k="place" v="farm" />
		<tag k="ssr:stedsnr" v="560173" />
	</node>
	<node id="-885113" lat="64.4454333368" lon="11.3221555488">
		<tag k="name" v="Skjerpa" />
		<tag k="place" v="isolated_dwelling" />
		<tag k="ssr:stedsnr" v="14012" />
	</node>
	<node id="-885111" lat="64.1620805542" lon="11.2689055604">
		<tag k="name" v="Morkabrekka" />
		<tag k="place" v="farm" />
		<tag k="ssr:stedsnr" v="14819" />
	</node>
	<node id="-885622" lat="64.1966090769" lon="11.1931684757">
		<tag k="fixme" v="consider place=hamlet" />
		<tag k="name" v="Skjerpmoen" />
		<tag k="place" v="farm" />
		<tag k="ssr:stedsnr" v="135669" />
	</node>
	<node id="-884596" lat="64.2419841077" lon="11.2427050272">
		<tag k="fixme" v="consider place=hamlet" />
		<tag k="name" v="Brørs" />
		<tag k="place" v="farm" />
		<tag k="ssr:stedsnr" v="281291" />
	</node>
	<node id="-884594" lat="64.2441222218" lon="11.2491833243">
		<tag k="name" v="Dalheim" />
		<tag k="place" v="farm" />
		<tag k="ssr:stedsnr" v="281290" />
	</node>
	<node id="-886127" lat="64.1954911645" lon="11.2191117925">
		<tag k="name" v="Holstad" />
		<tag k="place" v="farm" />
		<tag k="ssr:stedsnr" v="984329" />
	</node>
	<node id="-884583" lat="64.1717666653" lon="11.3631944535">
		<tag k="historic" v="shieling" />
		<tag k="name" v="Smånestømtet" />
		<tag k="place" v="locality" />
		<tag k="ssr:stedsnr" v="47736" />
	</node>
	<node id="-884581" lat="64.1615555583" lon="11.2513333403">
		<tag k="name" v="Sandmo" />
		<tag k="place" v="farm" />
		<tag k="ssr:stedsnr" v="196844" />
	</node>
	<node id="-886075" lat="64.1950872426" lon="11.2235429658">
		<tag k="fixme" v="consider place=hamlet" />
		<tag k="name" v="Holstad" />
		<tag k="place" v="farm" />
		<tag k="ssr:stedsnr" v="221310" />
	</node>
	<node id="-885086" lat="64.1663611081" lon="11.2603861046">
		<tag k="alt_name" v="Spissvollen" />
		<tag k="name" v="Vollen" />
		<tag k="place" v="farm" />
		<tag k="ssr:stedsnr" v="317807" />
	</node>
	<node id="-885597" lat="64.1831071956" lon="11.1344141459">
		<tag k="name" v="Magnustømtet" />
		<tag k="place" v="locality" />
		<tag k="ssr:stedsnr" v="924544" />
	</node>
	<node id="-885596" lat="64.290805555" lon="11.1952472144">
		<tag k="alt_name" v="Langøra" />
		<tag k="name" v="Moen" />
		<tag k="place" v="farm" />
		<tag k="ssr:stedsnr" v="196184" />
	</node>
	<node id="-884571" lat="64.3385749958" lon="11.2814000025">
		<tag k="name" v="Skogholt" />
		<tag k="place" v="farm" />
		<tag k="ssr:stedsnr" v="864886" />
	</node>
	<node id="-884570" lat="64.4262722184" lon="11.0606027756">
		<tag k="name" v="Fjellstad" />
		<tag k="place" v="farm" />
		<tag k="ssr:stedsnr" v="898191" />
	</node>
	<node id="-884867" lat="64.1777888897" lon="11.2588277872">
		<tag k="alt_name" v="Nordsitter" />
		<tag k="fixme" v="consider place=hamlet" />
		<tag k="name" v="Nordsetter" />
		<tag k="place" v="farm" />
		<tag k="ssr:stedsnr" v="803866" />
	</node>
	<node id="-886104" lat="64.2302206113" lon="11.2037830286">
		<tag k="name" v="Bonhaug" />
		<tag k="place" v="farm" />
		<tag k="ssr:stedsnr" v="981271" />
	</node>
	<node id="-884708" lat="64.2007361114" lon="11.2384666729">
		<tag k="name" v="Voll" />
		<tag k="place" v="farm" />
		<tag k="ssr:stedsnr" v="135811" />
	</node>
	<node id="-885590" lat="64.4527111083" lon="11.283330547">
		<tag k="fixme" v="consider place=hamlet" />
		<tag k="name" v="Sund" />
		<tag k="place" v="farm" />
		<tag k="ssr:stedsnr" v="924008" />
	</node>
	<node id="-885588" lat="64.1366333349" lon="11.1606611116">
		<tag k="name" v="Moen" />
		<tag k="place" v="farm" />
		<tag k="ssr:stedsnr" v="715578" />
	</node>
	<node id="-885975" lat="64.5083666674" lon="11.1178888988">
		<tag k="name" v="Skogtun" />
		<tag k="place" v="farm" />
		<tag k="ssr:stedsnr" v="742721" />
	</node>
	<node id="-885073" lat="64.1493000012" lon="11.2361722265">
		<tag k="name" v="Eldneset" />
		<tag k="place" v="farm" />
		<tag k="ssr:stedsnr" v="924757" />
	</node>
	<node id="-886095" lat="64.2500111142" lon="11.0967611192">
		<tag k="name" v="Vårheim" />
		<tag k="place" v="farm" />
		<tag k="ssr:stedsnr" v="135208" />
	</node>
	<node id="-885581" lat="64.2436527778" lon="11.3391472138">
		<tag k="fixme" v="consider place=hamlet" />
		<tag k="name" v="Lingen" />
		<tag k="place" v="farm" />
		<tag k="ssr:stedsnr" v="160277" />
	</node>
	<node id="-885068" lat="64.1956472244" lon="11.2868722146">
		<tag k="name" v="Rosettbrenna" />
		<tag k="place" v="locality" />
		<tag k="ssr:stedsnr" v="828312" />
	</node>
	<node id="-884554" lat="64.412931781" lon="11.1963457871">
		<tag k="alt_name" v="Sylteraunet" />
		<tag k="fixme" v="consider place=hamlet" />
		<tag k="name" v="Aunet" />
		<tag k="place" v="farm" />
		<tag k="ssr:stedsnr" v="75320" />
	</node>
	<node id="-886087" lat="64.2387805533" lon="11.210475004">
		<tag k="amenity" v="school" />
		<tag k="name" v="Namdalseid skole" />
		<tag k="ssr:stedsnr" v="600219" />
	</node>
	<node id="-886086" lat="64.1716305551" lon="10.8783666681">
		<tag k="name" v="Fjellheim" />
		<tag k="place" v="isolated_dwelling" />
		<tag k="ssr:stedsnr" v="196546" />
	</node>
	<node id="-884549" lat="64.1784055592" lon="11.2636749944">
		<tag k="alt_name" v="Nordsitter" />
		<tag k="name" v="Nordsetter" />
		<tag k="place" v="farm" />
		<tag k="ssr:stedsnr" v="119118" />
	</node>
	<node id="-884548" lat="64.2352577146" lon="11.2103739589">
		<tag k="name" v="Brekka" />
		<tag k="place" v="farm" />
		<tag k="ssr:stedsnr" v="499572" />
	</node>
	<node id="-885059" lat="64.3509250029" lon="11.102858326">
		<tag k="historic" v="shieling" />
		<tag k="name" v="Altsetran" />
		<tag k="place" v="locality" />
		<tag k="ssr:stedsnr" v="142422" />
	</node>
	<node id="-885570" lat="64.1672611079" lon="11.3495638784">
		<tag k="historic" v="shieling" />
		<tag k="name" v="Aunsetran" />
		<tag k="place" v="locality" />
		<tag k="ssr:stedsnr" v="620858" />
	</node>
	<node id="-886078" lat="64.1690974792" lon="10.8688873601">
		<tag k="fixme" v="consider place=hamlet" />
		<tag k="name" v="Finnvollen" />
		<tag k="place" v="farm" />
		<tag k="ssr:stedsnr" v="560600" />
	</node>
	<node id="-886077" lat="64.3003527762" lon="11.1981972142">
		<tag k="name" v="Grindmoen" />
		<tag k="place" v="farm" />
		<tag k="ssr:stedsnr" v="888171" />
	</node>
	<node id="-885564" lat="64.4453805542" lon="11.1526972152">
		<tag k="name" v="Hansmoen" />
		<tag k="place" v="isolated_dwelling" />
		<tag k="ssr:stedsnr" v="715186" />
	</node>
	<node id="-884539" lat="64.2534055598" lon="11.1655444389">
		<tag k="name" v="Jamtlia" />
		<tag k="place" v="locality" />
		<tag k="ssr:stedsnr" v="230864" />
	</node>
	<node id="-884538" lat="64.2568638882" lon="11.2727555634">
		<tag k="name" v="Kaldal" />
		<tag k="place" v="farm" />
		<tag k="ssr:stedsnr" v="403200" />
	</node>
	<node id="-885049" lat="64.2500694421" lon="11.2194861138">
		<tag k="name" v="Myrvang" />
		<tag k="place" v="farm" />
		<tag k="ssr:stedsnr" v="378867" />
	</node>
	<node id="-884536" lat="64.512051038" lon="11.1118916536">
		<tag k="fixme" v="consider place=hamlet" />
		<tag k="name" v="Ledang" />
		<tag k="place" v="farm" />
		<tag k="ssr:stedsnr" v="971369" />
	</node>
	<node id="-885046" lat="64.2406563555" lon="11.2470964243">
		<tag k="name" v="Brørs" />
		<tag k="place" v="farm" />
		<tag k="ssr:stedsnr" v="135864" />
	</node>
	<node id="-885045" lat="64.3170749989" lon="11.2165527738">
		<tag k="name" v="Lauvhaugen" />
		<tag k="place" v="farm" />
		<tag k="ssr:stedsnr" v="341199" />
	</node>
	<node id="-885556" lat="64.3227694465" lon="11.2169166719">
		<tag k="name" v="Hervika" />
		<tag k="place" v="isolated_dwelling" />
		<tag k="ssr:stedsnr" v="634300" />
	</node>
	<node id="-885555" lat="64.2188888907" lon="11.1953833244">
		<tag k="name" v="Granmo" />
		<tag k="place" v="locality" />
		<tag k="ssr:stedsnr" v="74657" />
	</node>
	<node id="-885554" lat="64.5366789106" lon="11.069568533">
		<tag k="fixme" v="consider place=hamlet" />
		<tag k="name" v="Aunet" />
		<tag k="place" v="farm" />
		<tag k="ssr:stedsnr" v="682735" />
	</node>
	<node id="-886067" lat="64.232272223" lon="11.389675004">
		<tag k="name" v="Raffelbakken" />
		<tag k="place" v="isolated_dwelling" />
		<tag k="ssr:stedsnr" v="715700" />
	</node>
	<node id="-885040" lat="64.2448606928" lon="11.2527539637">
		<tag k="fixme" v="consider place=hamlet" />
		<tag k="name" v="Mo" />
		<tag k="place" v="farm" />
		<tag k="ssr:stedsnr" v="135865" />
	</node>
	<node id="-885438" lat="64.2549455558" lon="11.2310405753">
		<tag k="name" v="Bergheim" />
		<tag k="place" v="farm" />
		<tag k="ssr:stedsnr" v="620837" />
	</node>
	<node id="-885550" lat="64.1411638873" lon="11.2110944444">
		<tag k="name" v="Eldbrenna" />
		<tag k="place" v="farm" />
		<tag k="ssr:stedsnr" v="620584" />
	</node>
	<node id="-884525" lat="64.2617916672" lon="11.4102500044">
		<tag k="historic" v="shieling" />
		<tag k="name" v="Skatlandstua" />
		<tag k="place" v="locality" />
		<tag k="ssr:stedsnr" v="560871" />
	</node>
	<node id="-885034" lat="64.2997981392" lon="11.2078547573">
		<tag k="name" v="Lonmoen" />
		<tag k="place" v="farm" />
		<tag k="ssr:stedsnr" v="864174" />
	</node>
	<node id="-884520" lat="64.1709083343" lon="11.2810083322">
		<tag k="name" v="Fjell" />
		<tag k="place" v="locality" />
		<tag k="ssr:stedsnr" v="560870" />
	</node>
	<node id="-885543" lat="64.5292777757" lon="11.0761277863">
		<tag k="name" v="Mergavika" />
		<tag k="place" v="farm" />
		<tag k="ssr:stedsnr" v="621698" />
	</node>
	<node id="-885041" lat="64.2758500026" lon="11.440277778">
		<tag k="name" v="Skatlandstranda" />
		<tag k="place" v="farm" />
		<tag k="ssr:stedsnr" v="620790" />
	</node>
	<node id="-884516" lat="64.1818861072" lon="11.2286444484">
		<tag k="fixme" v="consider place=hamlet" />
		<tag k="name" v="Elda" />
		<tag k="place" v="farm" />
		<tag k="ssr:stedsnr" v="463310" />
	</node>
	<node id="-885026" lat="64.1848704182" lon="11.205730739">
		<tag k="name" v="Kolstad" />
		<tag k="place" v="farm" />
		<tag k="ssr:stedsnr" v="317526" />
	</node>
	<node id="-885552" lat="64.2257472178" lon="11.0795055571">
		<tag k="name" v="Sverkmoen" />
		<tag k="place" v="farm" />
		<tag k="ssr:stedsnr" v="257679" />
	</node>
	<node id="-884510" lat="64.2552897365" lon="11.2196189334">
		<tag k="fixme" v="consider place=hamlet" />
		<tag k="name" v="Buvarp" />
		<tag k="place" v="farm" />
		<tag k="ssr:stedsnr" v="681219" />
	</node>
	<node id="-885381" lat="64.4406882413" lon="11.1471356648">
		<tag k="fixme" v="consider place=hamlet" />
		<tag k="name" v="Tøttdalen" />
		<tag k="place" v="village" />
		<tag k="ssr:stedsnr" v="196424" />
	</node>
	<node id="-886042" lat="64.1995916648" lon="11.1918333411">
		<tag k="name" v="Gammelgården" />
		<tag k="place" v="locality" />
		<tag k="ssr:stedsnr" v="99325" />
	</node>
	<node id="-884505" lat="64.1817805548" lon="11.0498166614">
		<tag k="name" v="Nordfurudalssetran" />
		<tag k="place" v="locality" />
		<tag k="ssr:stedsnr" v="439554" />
	</node>
	<node id="-884504" lat="64.2517305549" lon="11.2131361034">
		<tag k="name" v="Langenget" />
		<tag k="place" v="farm" />
		<tag k="ssr:stedsnr" v="281253" />
	</node>
	<node id="-885012" lat="64.2862166692" lon="11.1869666712">
		<tag k="name" v="Neset" />
		<tag k="place" v="farm" />
		<tag k="ssr:stedsnr" v="439107" />
	</node>
	<node id="-884499" lat="64.2266260395" lon="11.2413390785">
		<tag k="fixme" v="consider place=hamlet" />
		<tag k="name" v="Hundset" />
		<tag k="place" v="farm" />
		<tag k="ssr:stedsnr" v="13918" />
	</node>
	<node id="-885522" lat="64.2317363212" lon="11.201882845">
		<tag k="fixme" v="consider place=hamlet" />
		<tag k="name" v="Bjørg" />
		<tag k="place" v="farm" />
		<tag k="ssr:stedsnr" v="14603" />
	</node>
	<node id="-885521" lat="64.3033240044" lon="11.220030463">
		<tag k="alt_name" v="Bratlia" />
		<tag k="fixme" v="consider place=hamlet" />
		<tag k="name" v="Brattlia" />
		<tag k="place" v="farm" />
		<tag k="ssr:stedsnr" v="438907" />
	</node>
	<node id="-884496" lat="64.4357416665" lon="11.1850833362">
		<tag k="name" v="Buvika" />
		<tag k="place" v="farm" />
		<tag k="ssr:stedsnr" v="924416" />
	</node>
	<node id="-885519" lat="64.2001305544" lon="11.3472166642">
		<tag k="historic" v="shieling" />
		<tag k="name" v="Nysetertømtet" />
		<tag k="place" v="locality" />
		<tag k="ssr:stedsnr" v="533769" />
	</node>
	<node id="-884493" lat="64.1377671396" lon="11.1686825711">
		<tag k="fixme" v="consider place=hamlet" />
		<tag k="name" v="Almlia" />
		<tag k="place" v="farm" />
		<tag k="ssr:stedsnr" v="499562" />
	</node>
	<node id="-884491" lat="64.1738809088" lon="11.2665998243">
		<tag k="name" v="Sørsetter" />
		<tag k="place" v="farm" />
		<tag k="ssr:stedsnr" v="560874" />
	</node>
	<node id="-886025" lat="64.2273777746" lon="11.408658341">
		<tag k="name" v="Dorråsbrenna" />
		<tag k="place" v="farm" />
		<tag k="ssr:stedsnr" v="924915" />
	</node>
	<node id="-884531" lat="64.252993404" lon="11.1719229571">
		<tag k="fixme" v="consider place=hamlet" />
		<tag k="name" v="Fosslia" />
		<tag k="place" v="farm" />
		<tag k="ssr:stedsnr" v="14192" />
	</node>
	<node id="-885508" lat="64.4971611153" lon="11.1343527723">
		<tag k="amenity" v="school" />
		<tag k="name" v="Statland skole" />
		<tag k="ssr:stedsnr" v="180213" />
	</node>
	<node id="-884995" lat="64.2042760832" lon="11.2345669878">
		<tag k="name" v="Åsen" />
		<tag k="place" v="farm" />
		<tag k="ssr:stedsnr" v="14805" />
	</node>
	<node id="-886018" lat="64.4291888917" lon="11.1968194491">
		<tag k="name" v="Lyngstad" />
		<tag k="place" v="farm" />
		<tag k="ssr:stedsnr" v="196275" />
	</node>
	<node id="-885505" lat="64.2846249996" lon="11.2050861068">
		<tag k="alt_name" v="Dalen" />
		<tag k="name" v="Langørdalen" />
		<tag k="place" v="farm" />
		<tag k="ssr:stedsnr" v="803127" />
	</node>
	<node id="-885563" lat="64.2218638869" lon="11.2231861086">
		<tag k="name" v="Namdalseid" />
		<tag k="place" v="village" />
		<tag k="ssr:stedsnr" v="742924" />
	</node>
	<node id="-884476" lat="64.1913950747" lon="11.2571056941">
		<tag k="name" v="Hallåsen" />
		<tag k="place" v="farm" />
		<tag k="ssr:stedsnr" v="803820" />
	</node>
	<node id="-884984" lat="64.1868638858" lon="11.218505559">
		<tag k="name" v="Jamtsveet" />
		<tag k="place" v="farm" />
		<tag k="ssr:stedsnr" v="14802" />
	</node>
	<node id="-885460" lat="64.4882527811" lon="11.1365638966">
		<tag k="name" v="Rønningen" />
		<tag k="place" v="farm" />
		<tag k="ssr:stedsnr" v="803409" />
	</node>
	<node id="-885494" lat="64.2835712181" lon="11.187026505">
		<tag k="name" v="Mastermelen" />
		<tag k="place" v="farm" />
		<tag k="ssr:stedsnr" v="803130" />
	</node>
	<node id="-885493" lat="64.2526833352" lon="11.1581916635">
		<tag k="name" v="Nilsplassen" />
		<tag k="place" v="locality" />
		<tag k="ssr:stedsnr" v="837885" />
	</node>
	<node id="-884979" lat="64.3197111095" lon="11.2149555495">
		<tag k="name" v="Haugen" />
		<tag k="place" v="isolated_dwelling" />
		<tag k="ssr:stedsnr" v="89295" />
	</node>
	<node id="-884464" lat="64.4278583293" lon="11.1791833355">
		<tag k="name" v="Nordgård" />
		<tag k="place" v="farm" />
		<tag k="ssr:stedsnr" v="75307" />
	</node>
	<node id="-885487" lat="64.2511055555" lon="11.1398944393">
		<tag k="name" v="Torengmoan" />
		<tag k="place" v="locality" />
		<tag k="ssr:stedsnr" v="837884" />
	</node>
	<node id="-885264" lat="64.4955421876" lon="11.1434066156">
		<tag k="fixme" v="consider place=hamlet" />
		<tag k="name" v="Statland" />
		<tag k="place" v="farm" />
		<tag k="ssr:stedsnr" v="863419" />
	</node>
	<node id="-885202" lat="64.1931194445" lon="11.2454361159">
		<tag k="name" v="Solstad" />
		<tag k="place" v="farm" />
		<tag k="ssr:stedsnr" v="706303" />
	</node>
	<node id="-884458" lat="64.4243690291" lon="11.1822145082">
		<tag k="fixme" v="consider place=hamlet" />
		<tag k="name" v="Oksdøla" />
		<tag k="place" v="farm" />
		<tag k="ssr:stedsnr" v="75308" />
	</node>
	<node id="-884969" lat="64.3954972229" lon="11.1707166706">
		<tag k="historic" v="shieling" />
		<tag k="name" v="Severinseteren" />
		<tag k="place" v="locality" />
		<tag k="ssr:stedsnr" v="594756" />
	</node>
	<node id="-885480" lat="64.2800611139" lon="11.3231583377">
		<tag k="historic" v="shieling" />
		<tag k="name" v="Småtjønntømte" />
		<tag k="place" v="locality" />
		<tag k="ssr:stedsnr" v="48315" />
	</node>
	<node id="-884455" lat="64.1445638861" lon="11.1225027742">
		<tag k="historic" v="shieling" />
		<tag k="name" v="Settersetran" />
		<tag k="place" v="locality" />
		<tag k="ssr:stedsnr" v="196563" />
	</node>
	<node id="-885969" lat="64.4311361117" lon="11.081927775">
		<tag k="name" v="Engesdalen" />
		<tag k="place" v="farm" />
		<tag k="ssr:stedsnr" v="499235" />
	</node>
	<node id="-884964" lat="64.4382749983" lon="11.2825194473">
		<tag k="name" v="Utheim" />
		<tag k="place" v="farm" />
		<tag k="ssr:stedsnr" v="863087" />
	</node>
	<node id="-884963" lat="64.4856055513" lon="11.107341671">
		<tag k="name" v="Brenna" />
		<tag k="place" v="locality" />
		<tag k="ssr:stedsnr" v="196373" />
	</node>
	<node id="-885883" lat="64.2562861133" lon="11.1738000052">
		<tag k="alt_name" v="Fosslia øvre" />
		<tag k="name" v="Øvre Fosslia" />
		<tag k="place" v="farm" />
		<tag k="ssr:stedsnr" v="898882" />
	</node>
	<node id="-884447" lat="64.1879611136" lon="11.225552768">
		<tag k="name" v="Korsen" />
		<tag k="place" v="farm" />
		<tag k="ssr:stedsnr" v="196831" />
	</node>
	<node id="-885982" lat="64.2331472253" lon="11.2063972238">
		<tag k="name" v="Nedre Bjørg" />
		<tag k="place" v="farm" />
		<tag k="ssr:stedsnr" v="463235" />
	</node>
	<node id="-885468" lat="64.2810249956" lon="11.1959805641">
		<tag k="alt_name" v="Barlia" />
		<tag k="name" v="Haugan" />
		<tag k="place" v="farm" />
		<tag k="ssr:stedsnr" v="803126" />
	</node>
	<node id="-885978" lat="64.2625138852" lon="11.1709305544">
		<tag k="name" v="Nesjan" />
		<tag k="place" v="locality" />
		<tag k="ssr:stedsnr" v="898885" />
	</node>
	<node id="-884440" lat="64.3041722256" lon="11.2354611181">
		<tag k="name" v="Øver-Brattlia" />
		<tag k="place" v="farm" />
		<tag k="ssr:stedsnr" v="924925" />
	</node>
	<node id="-884439" lat="64.1907411252" lon="11.226310027">
		<tag k="name" v="Holstad" />
		<tag k="place" v="farm" />
		<tag k="ssr:stedsnr" v="196832" />
	</node>
	<node id="-885974" lat="64.3851027751" lon="11.1600500084">
		<tag k="name" v="Tømmerneset" />
		<tag k="place" v="isolated_dwelling" />
		<tag k="ssr:stedsnr" v="863253" />
	</node>
	<node id="-884437" lat="64.1683787578" lon="11.2844065455">
		<tag k="name" v="Morkamoen" />
		<tag k="place" v="farm" />
		<tag k="ssr:stedsnr" v="499830" />
	</node>
	<node id="-884436" lat="64.189299998" lon="11.1483250058">
		<tag k="historic" v="shieling" />
		<tag k="name" v="Raffeltømtet" />
		<tag k="place" v="locality" />
		<tag k="ssr:stedsnr" v="533531" />
	</node>
	<node id="-884942" lat="64.3367361085" lon="11.2304750006">
		<tag k="name" v="Åsen" />
		<tag k="place" v="locality" />
		<tag k="ssr:stedsnr" v="341173" />
	</node>
	<node id="-884433" lat="64.2676222241" lon="11.0432027741">
		<tag k="historic" v="shieling" />
		<tag k="name" v="Spildernysetran" />
		<tag k="place" v="locality" />
		<tag k="ssr:stedsnr" v="445464" />
	</node>
	<node id="-884432" lat="64.2222861136" lon="11.2396833304">
		<tag k="name" v="Hundset" />
		<tag k="place" v="farm" />
		<tag k="ssr:stedsnr" v="221323" />
	</node>
	<node id="-885966" lat="64.4354222206" lon="11.0743194389">
		<tag k="historic" v="shieling" />
		<tag k="name" v="Tøttdalssetran" />
		<tag k="place" v="locality" />
		<tag k="ssr:stedsnr" v="317398" />
	</node>
	<node id="-884941" lat="64.1973109262" lon="11.2284111063">
		<tag k="name" v="Holstad" />
		<tag k="place" v="farm" />
		<tag k="ssr:stedsnr" v="317779" />
	</node>
	<node id="-884940" lat="64.3607694404" lon="11.1293833335">
		<tag k="name" v="Holmtømtet" />
		<tag k="place" v="isolated_dwelling" />
		<tag k="ssr:stedsnr" v="863366" />
	</node>
	<node id="-884790" lat="64.1960250014" lon="11.2731666714">
		<tag k="name" v="Nesjan" />
		<tag k="place" v="farm" />
		<tag k="ssr:stedsnr" v="74816" />
	</node>
	<node id="-885958" lat="64.2517999958" lon="11.1076750023">
		<tag k="name" v="Stormoen" />
		<tag k="place" v="farm" />
		<tag k="ssr:stedsnr" v="803226" />
	</node>
	<node id="-885220" lat="64.4538250017" lon="11.3151916685">
		<tag k="name" v="Skjerpmoen" />
		<tag k="place" v="isolated_dwelling" />
		<tag k="ssr:stedsnr" v="317011" />
	</node>
	<node id="-884927" lat="64.182827776" lon="11.3124611095">
		<tag k="historic" v="shieling" />
		<tag k="name" v="Setterstømtet" />
		<tag k="place" v="locality" />
		<tag k="ssr:stedsnr" v="14796" />
	</node>
	<node id="-884414" lat="64.2474526631" lon="11.2298155114">
		<tag k="fixme" v="consider place=hamlet" />
		<tag k="name" v="Kalnes" />
		<tag k="place" v="farm" />
		<tag k="ssr:stedsnr" v="888204" />
	</node>
	<node id="-885948" lat="64.2971138888" lon="11.0091305468">
		<tag k="name" v="Tverrlisetran" />
		<tag k="place" v="locality" />
		<tag k="ssr:stedsnr" v="742170" />
	</node>
	<node id="-884411" lat="64.2097083317" lon="11.0109944368">
		<tag k="name" v="Langvassheimen" />
		<tag k="place" v="isolated_dwelling" />
		<tag k="ssr:stedsnr" v="377665" />
	</node>
	<node id="-886047" lat="64.5101194441" lon="11.1108166662">
		<tag k="name" v="Lia" />
		<tag k="place" v="farm" />
		<tag k="ssr:stedsnr" v="378762" />
	</node>
	<node id="-884919" lat="64.4261777809" lon="11.2613250001">
		<tag k="name" v="Fossan" />
		<tag k="place" v="locality" />
		<tag k="ssr:stedsnr" v="75102" />
	</node>
	<node id="-885430" lat="64.2534243481" lon="11.2548284317">
		<tag k="fixme" v="consider place=hamlet" />
		<tag k="name" v="Li" />
		<tag k="place" v="farm" />
		<tag k="ssr:stedsnr" v="280162" />
	</node>
	<node id="-885534" lat="64.1736583332" lon="11.131191662">
		<tag k="name" v="Skausetran" />
		<tag k="place" v="isolated_dwelling" />
		<tag k="ssr:stedsnr" v="924552" />
	</node>
	<node id="-884402" lat="64.2502383119" lon="11.1974132458">
		<tag k="fixme" v="consider place=hamlet" />
		<tag k="name" v="Berre" />
		<tag k="place" v="farm" />
		<tag k="ssr:stedsnr" v="742216" />
	</node>
	<node id="-885932" lat="64.4955055535" lon="11.1457999935">
		<tag k="fixme" v="consider place=hamlet" />
		<tag k="name" v="Statland" />
		<tag k="place" v="village" />
		<tag k="ssr:stedsnr" v="256382" />
	</node>
	<node id="-885417" lat="64.195993311" lon="11.2121139201">
		<tag k="name" v="Holstadsveet" />
		<tag k="place" v="farm" />
		<tag k="ssr:stedsnr" v="38351" />
	</node>
	<node id="-884392" lat="64.1916638882" lon="10.9530555574">
		<tag k="name" v="Heitømtet" />
		<tag k="place" v="isolated_dwelling" />
		<tag k="ssr:stedsnr" v="924664" />
	</node>
	<node id="-885415" lat="64.2485000017" lon="11.0906944502">
		<tag k="name" v="Vassmoen" />
		<tag k="place" v="locality" />
		<tag k="ssr:stedsnr" v="898003" />
	</node>
	<node id="-884901" lat="64.2526194426" lon="11.3135055465">
		<tag k="name" v="Kaldalmoen" />
		<tag k="place" v="farm" />
		<tag k="ssr:stedsnr" v="439868" />
	</node>
	<node id="-885409" lat="64.4376083349" lon="11.3216777788">
		<tag k="name" v="Vågan" />
		<tag k="place" v="locality" />
		<tag k="ssr:stedsnr" v="135099" />
	</node>
	<node id="-885407" lat="64.4631138884" lon="11.1768277847">
		<tag k="name" v="Storbakksetran" />
		<tag k="place" v="isolated_dwelling" />
		<tag k="ssr:stedsnr" v="741560" />
	</node>
	<node id="-885918" lat="64.2877805538" lon="11.1939916676">
		<tag k="name" v="Langøra" />
		<tag k="place" v="farm" />
		<tag k="ssr:stedsnr" v="135169" />
	</node>
	<node id="-884380" lat="64.2947916662" lon="11.2011638902">
		<tag k="name" v="Holmset" />
		<tag k="place" v="farm" />
		<tag k="ssr:stedsnr" v="317164" />
	</node>
	<node id="-885403" lat="64.4860472203" lon="11.1781083299">
		<tag k="name" v="Hjartvika" />
		<tag k="place" v="farm" />
		<tag k="ssr:stedsnr" v="14321" />
	</node>
	<node id="-885400" lat="64.449080552" lon="11.1734916745">
		<tag k="name" v="Sve" />
		<tag k="place" v="farm" />
		<tag k="ssr:stedsnr" v="13503" />
	</node>
	<node id="-885399" lat="64.2714094984" lon="11.1912757361">
		<tag k="fixme" v="consider place=hamlet" />
		<tag k="name" v="Årgård" />
		<tag k="place" v="farm" />
		<tag k="ssr:stedsnr" v="196149" />
	</node>
	<node id="-885017" lat="64.2888944435" lon="11.2688305611">
		<tag k="name" v="Brottet" />
		<tag k="place" v="locality" />
		<tag k="ssr:stedsnr" v="438838" />
	</node>
	<node id="-884372" lat="64.1803972261" lon="11.2351583319">
		<tag k="name" v="Bangen" />
		<tag k="place" v="farm" />
		<tag k="ssr:stedsnr" v="196817" />
	</node>
	<node id="-884880" lat="64.1427666674" lon="11.2206388845">
		<tag k="name" v="Eldkleiva" />
		<tag k="place" v="farm" />
		<tag k="ssr:stedsnr" v="827383" />
	</node>
	<node id="-884364" lat="64.1773283614" lon="11.2389687999">
		<tag k="fixme" v="consider place=hamlet" />
		<tag k="name" v="Grøtmo" />
		<tag k="place" v="farm" />
		<tag k="ssr:stedsnr" v="864873" />
	</node>
	<node id="-885954" lat="64.509183334" lon="11.0991388918">
		<tag k="name" v="Granheim" />
		<tag k="place" v="farm" />
		<tag k="ssr:stedsnr" v="742720" />
	</node>
	<node id="-885898" lat="64.2106545199" lon="11.2013800632">
		<tag k="fixme" v="consider place=hamlet" />
		<tag k="name" v="Bøgset" />
		<tag k="place" v="farm" />
		<tag k="ssr:stedsnr" v="620640" />
	</node>
	<node id="-884361" lat="64.5131861153" lon="11.0857472287">
		<tag k="name" v="Spalia" />
		<tag k="place" v="farm" />
		<tag k="ssr:stedsnr" v="655438" />
	</node>
	<node id="-885384" lat="64.37206494" lon="11.1699181182">
		<tag k="name" v="Altskardet" />
		<tag k="place" v="farm" />
		<tag k="ssr:stedsnr" v="74358" />
	</node>
	<node id="-885900" lat="64.2471361098" lon="11.089244454">
		<tag k="name" v="Bjørkli" />
		<tag k="place" v="farm" />
		<tag k="ssr:stedsnr" v="317680" />
	</node>
	<node id="-884357" lat="64.2396222232" lon="11.2462333357">
		<tag k="name" v="Brørshaugen" />
		<tag k="place" v="farm" />
		<tag k="ssr:stedsnr" v="402279" />
	</node>
	<node id="-885891" lat="64.2570583298" lon="11.3014305539">
		<tag k="name" v="Bakken" />
		<tag k="place" v="farm" />
		<tag k="ssr:stedsnr" v="522226" />
	</node>
	<node id="-885378" lat="64.2420649168" lon="11.3495678258">
		<tag k="fixme" v="consider place=hamlet" />
		<tag k="name" v="Trebostad" />
		<tag k="place" v="farm" />
		<tag k="ssr:stedsnr" v="14855" />
	</node>
	<node id="-885889" lat="64.5292333319" lon="11.0657583293">
		<tag k="name" v="Engan" />
		<tag k="place" v="locality" />
		<tag k="ssr:stedsnr" v="925708" />
	</node>
	<node id="-885376" lat="64.1982724771" lon="11.2758416398">
		<tag k="fixme" v="consider place=hamlet" />
		<tag k="name" v="Rosset" />
		<tag k="place" v="farm" />
		<tag k="ssr:stedsnr" v="620814" />
	</node>
	<node id="-884351" lat="64.2669194409" lon="11.2173055614">
		<tag k="name" v="Auntun" />
		<tag k="place" v="farm" />
		<tag k="ssr:stedsnr" v="888201" />
	</node>
	<node id="-884862" lat="64.2193888913" lon="11.2106888828">
		<tag k="fixme" v="consider place=hamlet" />
		<tag k="name" v="Ås" />
		<tag k="place" v="farm" />
		<tag k="ssr:stedsnr" v="281364" />
	</node>
	<node id="-885885" lat="64.2993527776" lon="11.1374222129">
		<tag k="historic" v="shieling" />
		<tag k="name" v="Ledelseteren" />
		<tag k="place" v="locality" />
		<tag k="ssr:stedsnr" v="230790" />
	</node>
	<node id="-884347" lat="64.4437111082" lon="11.1534472244">
		<tag k="name" v="Tøttdalen" />
		<tag k="place" v="farm" />
		<tag k="ssr:stedsnr" v="43042" />
	</node>
	<node id="-884858" lat="64.4393147893" lon="11.1523452156">
		<tag k="fixme" v="consider place=hamlet" />
		<tag k="name" v="Tøttdalen" />
		<tag k="place" v="farm" />
		<tag k="ssr:stedsnr" v="498040" />
	</node>
	<node id="-884344" lat="64.2733111118" lon="11.2000833266">
		<tag k="name" v="Hestmarka" />
		<tag k="place" v="locality" />
		<tag k="ssr:stedsnr" v="643224" />
	</node>
	<node id="-885366" lat="64.4861027756" lon="11.0849222322">
		<tag k="name" v="Nordledangssetran" />
		<tag k="place" v="isolated_dwelling" />
		<tag k="ssr:stedsnr" v="863415" />
	</node>
	<node id="-884796" lat="64.163872225" lon="11.2605555515">
		<tag k="name" v="Morkhaug" />
		<tag k="place" v="farm" />
		<tag k="ssr:stedsnr" v="803851" />
	</node>
	<node id="-884382" lat="64.1845555577" lon="11.2218833412">
		<tag k="name" v="Eldsveet" />
		<tag k="place" v="farm" />
		<tag k="ssr:stedsnr" v="221312" />
	</node>
	<node id="-885871" lat="64.2296972242" lon="11.3956305589">
		<tag k="name" v="Jomoen" />
		<tag k="place" v="locality" />
		<tag k="ssr:stedsnr" v="715696" />
	</node>
	<node id="-884846" lat="64.2950305527" lon="11.2015944467">
		<tag k="name" v="Holmset" />
		<tag k="place" v="farm" />
		<tag k="ssr:stedsnr" v="766205" />
	</node>
	<node id="-885558" lat="64.4999500012" lon="11.1413333341">
		<tag k="name" v="Båtsvika" />
		<tag k="place" v="farm" />
		<tag k="ssr:stedsnr" v="864776" />
	</node>
	<node id="-885863" lat="64.2628999999" lon="11.1962500101">
		<tag k="alt_name" v="Årgård søre" />
		<tag k="name" v="Søre Årgård" />
		<tag k="place" v="farm" />
		<tag k="ssr:stedsnr" v="463221" />
	</node>
	<node id="-885350" lat="64.2424888874" lon="10.947833343">
		<tag k="name" v="Meungsetran" />
		<tag k="place" v="isolated_dwelling" />
		<tag k="ssr:stedsnr" v="14587" />
	</node>
	<node id="-885037" lat="64.2494194438" lon="11.3293166641">
		<tag k="name" v="Stygghola" />
		<tag k="place" v="locality" />
		<tag k="ssr:stedsnr" v="98186" />
	</node>
	<node id="-884835" lat="64.5334944455" lon="11.0751361186">
		<tag k="name" v="Øykvika" />
		<tag k="place" v="farm" />
		<tag k="ssr:stedsnr" v="560667" />
	</node>
	<node id="-885856" lat="64.3017583331" lon="11.201327768">
		<tag k="name" v="Elverum" />
		<tag k="place" v="farm" />
		<tag k="ssr:stedsnr" v="257175" />
	</node>
	<node id="-885520" lat="64.2548138856" lon="11.1285861042">
		<tag k="name" v="Fjellvang" />
		<tag k="place" v="farm" />
		<tag k="ssr:stedsnr" v="864244" />
	</node>
	<node id="-885854" lat="64.2980035916" lon="11.2070172451">
		<tag k="fixme" v="consider place=hamlet" />
		<tag k="name" v="Sand" />
		<tag k="place" v="farm" />
		<tag k="ssr:stedsnr" v="742155" />
	</node>
	<node id="-885605" lat="64.2063194412" lon="11.0814472198">
		<tag k="name" v="Heggdalslisetran" />
		<tag k="place" v="locality" />
		<tag k="ssr:stedsnr" v="317602" />
	</node>
	<node id="-884828" lat="64.4729500015" lon="11.1767138789">
		<tag k="name" v="Ytre Breivika" />
		<tag k="place" v="isolated_dwelling" />
		<tag k="ssr:stedsnr" v="864407" />
	</node>
	<node id="-885849" lat="64.319770712" lon="11.2402245396">
		<tag k="fixme" v="consider place=hamlet" />
		<tag k="name" v="Rødhammaren" />
		<tag k="place" v="farm" />
		<tag k="ssr:stedsnr" v="620902" />
	</node>
	<node id="-885336" lat="64.2135666626" lon="11.1951388836">
		<tag k="name" v="Bøgset" />
		<tag k="place" v="farm" />
		<tag k="ssr:stedsnr" v="706324" />
	</node>
	<node id="-885335" lat="64.2396805527" lon="11.3219361076">
		<tag k="name" v="Øystersetran" />
		<tag k="place" v="isolated_dwelling" />
		<tag k="ssr:stedsnr" v="439938" />
	</node>
	<node id="-884820" lat="64.2557725552" lon="11.1858800242">
		<tag k="name" v="Brumoen" />
		<tag k="place" v="farm" />
		<tag k="ssr:stedsnr" v="620224" />
	</node>
	<node id="-885841" lat="64.2362916627" lon="11.4633222289">
		<tag k="name" v="Liasetran" />
		<tag k="place" v="isolated_dwelling" />
		<tag k="ssr:stedsnr" v="256914" />
	</node>
	<node id="-884816" lat="64.252735861" lon="11.3296770991">
		<tag k="name" v="Lingsbrenna" />
		<tag k="place" v="farm" />
		<tag k="ssr:stedsnr" v="439864" />
	</node>
	<node id="-886029" lat="64.2545569157" lon="11.3227620731">
		<tag k="name" v="Moen" />
		<tag k="place" v="farm" />
		<tag k="ssr:stedsnr" v="864859" />
	</node>
	<node id="-885836" lat="64.1741000036" lon="11.2514722292">
		<tag k="name" v="Jensgård" />
		<tag k="place" v="farm" />
		<tag k="ssr:stedsnr" v="160330" />
	</node>
	<node id="-884810" lat="64.2281777774" lon="11.2114416723">
		<tag k="name" v="Stavmo" />
		<tag k="place" v="farm" />
		<tag k="ssr:stedsnr" v="645209" />
	</node>
	<node id="-885832" lat="64.2236777761" lon="11.398930558">
		<tag k="name" v="Skogeng" />
		<tag k="place" v="farm" />
		<tag k="ssr:stedsnr" v="317902" />
	</node>
	<node id="-885831" lat="64.4699250019" lon="11.1838833255">
		<tag k="name" v="Indre Breivika" />
		<tag k="place" v="isolated_dwelling" />
		<tag k="ssr:stedsnr" v="620356" />
	</node>
	<node id="-885464" lat="64.2069138889" lon="11.233091675">
		<tag k="name" v="Holten" />
		<tag k="place" v="farm" />
		<tag k="ssr:stedsnr" v="74906" />
	</node>
	<node id="-884802" lat="64.2554333334" lon="11.2947694467">
		<tag k="name" v="Brenna" />
		<tag k="place" v="farm" />
		<tag k="ssr:stedsnr" v="439866" />
	</node>
	<node id="-885515" lat="64.1458361154" lon="11.2353833412">
		<tag k="name" v="Eldneset" />
		<tag k="place" v="farm" />
		<tag k="ssr:stedsnr" v="766356" />
	</node>
	<node id="-885311" lat="64.310218663" lon="11.2107934447">
		<tag k="fixme" v="consider place=hamlet" />
		<tag k="name" v="Åsneset" />
		<tag k="place" v="farm" />
		<tag k="ssr:stedsnr" v="499127" />
	</node>
	<node id="-885308" lat="64.2575999963" lon="11.3546416668">
		<tag k="name" v="Lingstømtet" />
		<tag k="place" v="locality" />
		<tag k="ssr:stedsnr" v="462175" />
	</node>
	<node id="-885302" lat="64.3409888857" lon="11.2700499923">
		<tag k="name" v="Gryta" />
		<tag k="place" v="farm" />
		<tag k="ssr:stedsnr" v="438866" />
	</node>
	<node id="-885301" lat="64.2510000016" lon="11.0991222135">
		<tag k="name" v="Sagmoen" />
		<tag k="place" v="farm" />
		<tag k="ssr:stedsnr" v="109924" />
	</node>
	<node id="-884786" lat="64.2905361116" lon="11.1892722207">
		<tag k="name" v="Mølnåa" />
		<tag k="place" v="farm" />
		<tag k="ssr:stedsnr" v="924158" />
	</node>
	<node id="-885683" lat="64.4724138933" lon="11.1051222225">
		<tag k="historic" v="shieling" />
		<tag k="name" v="Fjørstadfjellvollen" />
		<tag k="place" v="locality" />
		<tag k="ssr:stedsnr" v="230365" />
	</node>
	<node id="-885808" lat="64.3701083323" lon="11.21386112">
		<tag k="name" v="Bøverdalen" />
		<tag k="place" v="isolated_dwelling" />
		<tag k="ssr:stedsnr" v="169844" />
	</node>
	<node id="-884783" lat="64.3783861134" lon="11.1329388805">
		<tag k="name" v="Gravhaugsetran" />
		<tag k="place" v="locality" />
		<tag k="ssr:stedsnr" v="681247" />
	</node>
	<node id="-885294" lat="64.2400133397" lon="11.3655862692">
		<tag k="fixme" v="consider place=hamlet" />
		<tag k="name" v="Skatland" />
		<tag k="place" v="farm" />
		<tag k="ssr:stedsnr" v="378898" />
	</node>
	<node id="-885085" lat="64.2299388877" lon="11.2023833393">
		<tag k="name" v="Kjerkvoll" />
		<tag k="place" v="farm" />
		<tag k="ssr:stedsnr" v="38287" />
	</node>
	<node id="-885938" lat="64.2329194469" lon="11.5135611088">
		<tag k="name" v="Svartesetran" />
		<tag k="place" v="isolated_dwelling" />
		<tag k="ssr:stedsnr" v="256921" />
	</node>
	<node id="-885801" lat="64.3491666653" lon="11.264880556">
		<tag k="name" v="Løvlia" />
		<tag k="place" v="farm" />
		<tag k="ssr:stedsnr" v="135965" />
	</node>
	<node id="-885890" lat="64.1771444455" lon="11.1982555537">
		<tag k="name" v="Eldstranda" />
		<tag k="place" v="locality" />
		<tag k="ssr:stedsnr" v="422704" />
	</node>
	<node id="-885284" lat="64.326475001" lon="11.2181444428">
		<tag k="name" v="Kleiva" />
		<tag k="place" v="farm" />
		<tag k="ssr:stedsnr" v="378904" />
	</node>
	<node id="-885282" lat="64.2461668854" lon="11.2256579306">
		<tag k="name" v="Kalnes" />
		<tag k="place" v="farm" />
		<tag k="ssr:stedsnr" v="742883" />
	</node>
	<node id="-885692" lat="64.4929555588" lon="11.1336000052">
		<tag k="name" v="Hjelldalen" />
		<tag k="place" v="farm" />
		<tag k="ssr:stedsnr" v="378432" />
	</node>
	<node id="-885341" lat="64.2684888889" lon="11.2039194414">
		<tag k="name" v="Staksetet" />
		<tag k="place" v="farm" />
		<tag k="ssr:stedsnr" v="280145" />
	</node>
	<node id="-885790" lat="64.4720499993" lon="11.067894434">
		<tag k="name" v="Sørledangssetran" />
		<tag k="place" v="locality" />
		<tag k="ssr:stedsnr" v="620363" />
	</node>
	<node id="-885436" lat="64.4711972212" lon="11.0821333241">
		<tag k="name" v="Vikan" />
		<tag k="place" v="isolated_dwelling" />
		<tag k="ssr:stedsnr" v="169367" />
	</node>
	<node id="-885150" lat="64.4342000007" lon="11.2015472183">
		<tag k="alt_name" v="Morka søre" />
		<tag k="name" v="Søre Morka" />
		<tag k="place" v="farm" />
		<tag k="ssr:stedsnr" v="473796" />
	</node>
	<node id="-885781" lat="64.2667638881" lon="11.1987499989">
		<tag k="name" v="Åsum" />
		<tag k="place" v="farm" />
		<tag k="ssr:stedsnr" v="378128" />
	</node>
	<node id="-885796" lat="64.2506444401" lon="11.0062722168">
		<tag k="name" v="Godvasslisetran" />
		<tag k="place" v="locality" />
		<tag k="ssr:stedsnr" v="196220" />
	</node>
	<node id="-884755" lat="64.2209062498" lon="11.2056925973">
		<tag k="fixme" v="consider place=hamlet" />
		<tag k="name" v="Staven" />
		<tag k="place" v="farm" />
		<tag k="ssr:stedsnr" v="196609" />
	</node>
	<node id="-886074" lat="64.3423805545" lon="11.1481472259">
		<tag k="historic" v="shieling" />
		<tag k="name" v="Munkhammarseteren" />
		<tag k="place" v="locality" />
		<tag k="ssr:stedsnr" v="593829" />
	</node>
	<node id="-885776" lat="64.4367416686" lon="11.1969888873">
		<tag k="alt_name" v="Morka nord" />
		<tag k="fixme" v="consider place=hamlet" />
		<tag k="name" v="Morka" />
		<tag k="place" v="farm" />
		<tag k="ssr:stedsnr" v="135434" />
	</node>
	<node id="-885080" lat="64.2133833305" lon="11.2468666653">
		<tag k="alt_name" v="Tinglemslia" />
		<tag k="name" v="Røtåsen" />
		<tag k="place" v="farm" />
		<tag k="ssr:stedsnr" v="863914" />
	</node>
	<node id="-885774" lat="64.3084388881" lon="11.2223638882">
		<tag k="fixme" v="consider place=suburb, village or hamlet" />
		<tag k="name" v="Sjøåsen" />
		<tag k="place" v="quarter" />
		<tag k="ssr:stedsnr" v="438933" />
	</node>
	<node id="-885261" lat="64.2672416662" lon="11.1760833327">
		<tag k="name" v="Jakoprommet" />
		<tag k="place" v="locality" />
		<tag k="ssr:stedsnr" v="534878" />
	</node>
	<node id="-885231" lat="64.4801666688" lon="11.1841138826">
		<tag k="name" v="Bekkavika" />
		<tag k="place" v="isolated_dwelling" />
		<tag k="ssr:stedsnr" v="559376" />
	</node>
	<node id="-885771" lat="64.4300749992" lon="11.1807277836">
		<tag k="name" v="Gladsø" />
		<tag k="place" v="farm" />
		<tag k="ssr:stedsnr" v="135433" />
	</node>
	<node id="-885770" lat="64.4386472241" lon="11.1523416587">
		<tag k="name" v="Tøttdalen" />
		<tag k="place" v="farm" />
		<tag k="ssr:stedsnr" v="722042" />
	</node>
	<node id="-885769" lat="64.2114759568" lon="11.362967635">
		<tag k="fixme" v="consider place=hamlet" />
		<tag k="name" v="Sve" />
		<tag k="place" v="farm" />
		<tag k="ssr:stedsnr" v="620888" />
	</node>
	<node id="-885767" lat="64.1793222221" lon="11.2204555619">
		<tag k="name" v="Elda" />
		<tag k="place" v="hamlet" />
		<tag k="ssr:stedsnr" v="524315" />
	</node>
	<node id="-884444" lat="64.4238077206" lon="11.0498299646">
		<tag k="name" v="Gårdsetran" />
		<tag k="place" v="farm" />
		<tag k="ssr:stedsnr" v="75306" />
	</node>
	<node id="-885253" lat="64.4492000004" lon="11.3325555628">
		<tag k="name" v="Svartåsen" />
		<tag k="place" v="locality" />
		<tag k="ssr:stedsnr" v="802029" />
	</node>
	<node id="-885252" lat="64.223108334" lon="11.08056388">
		<tag k="historic" v="shieling" />
		<tag k="name" v="Svartmosetran" />
		<tag k="place" v="locality" />
		<tag k="ssr:stedsnr" v="863660" />
	</node>
	<node id="-884737" lat="64.5109805548" lon="11.1065083394">
		<tag k="name" v="Bakkan" />
		<tag k="place" v="farm" />
		<tag k="ssr:stedsnr" v="924712" />
	</node>
</osm>
