<?xml version="1.0" encoding="UTF-8"?>
<osm generator="osmapis" version="0.6">
	<node id="-902142" lat="64.3342305586" lon="11.2516638848">
		<tag k="name" v="Andskardodden" />
		<tag k="natural" v="cape" />
		<tag k="ssr:stedsnr" v="742877" />
	</node>
	<node id="-902653" lat="64.5271583369" lon="11.1196166592">
		<tag k="name" v="Ytterholmen" />
		<tag k="place" v="islet" />
		<tag k="ssr:stedsnr" v="925709" />
	</node>
	<node id="-902396" lat="64.4464222208" lon="11.3542749961">
		<tag k="fixme" v="consider seamark:type=rock or natural=shoal" />
		<tag k="name" v="Skjerpøyskjæra" />
		<tag k="place" v="islet" />
		<tag k="ssr:stedsnr" v="878340" />
	</node>
	<node id="-901370" lat="64.54961667" lon="11.0700166634">
		<tag k="name" v="Stiodden" />
		<tag k="natural" v="cape" />
		<tag k="ssr:stedsnr" v="560642" />
	</node>
	<node id="-902521" lat="64.4993000014" lon="11.1500694394">
		<tag k="name" v="Kalvikskjæret" />
		<tag k="natural" v="cape" />
		<tag k="ssr:stedsnr" v="317371" />
	</node>
	<node id="-902008" lat="64.4514833329" lon="11.3274750061">
		<tag k="name" v="Skjerpøya" />
		<tag k="place" v="island" />
		<tag k="ssr:stedsnr" v="317013" />
	</node>
	<node id="-902135" lat="64.4462805518" lon="11.184247226">
		<tag k="name" v="Tøttdalsbotnen" />
		<tag k="natural" v="bay" />
		<tag k="ssr:stedsnr" v="392344" />
	</node>
	<node id="-901110" lat="64.4297750013" lon="11.1928250059">
		<tag k="name" v="Lissbotnet" />
		<tag k="natural" v="strait" />
		<tag k="ssr:stedsnr" v="533801" />
	</node>
	<node id="-901877" lat="64.4593055571" lon="11.2604277763">
		<tag k="name" v="Sundsråsa" />
		<tag k="natural" v="strait" />
		<tag k="ssr:stedsnr" v="74062" />
	</node>
	<node id="-902300" lat="64.5068277743" lon="11.1332888829">
		<tag k="name" v="Vallskiftvika" />
		<tag k="natural" v="bay" />
		<tag k="ssr:stedsnr" v="473479" />
	</node>
	<node id="-901520" lat="64.5406333322" lon="11.0710666649">
		<tag k="name" v="Skjåvika" />
		<tag k="natural" v="bay" />
		<tag k="ssr:stedsnr" v="838477" />
	</node>
	<node id="-901873" lat="64.4621750039" lon="11.2859500081">
		<tag k="name" v="Hestvika" />
		<tag k="natural" v="bay" />
		<tag k="ssr:stedsnr" v="742842" />
	</node>
	<node id="-901757" lat="64.4457194411" lon="11.1967749989">
		<tag k="name" v="Morkaholmen" />
		<tag k="place" v="islet" />
		<tag k="ssr:stedsnr" v="230181" />
	</node>
	<node id="-902507" lat="64.3161388861" lon="11.23567777">
		<tag k="name" v="Neset" />
		<tag k="natural" v="cape" />
		<tag k="ssr:stedsnr" v="463171" />
	</node>
	<node id="-902762" lat="64.3158305546" lon="11.2354527781">
		<tag k="name" v="Dalavika" />
		<tag k="natural" v="bay" />
		<tag k="ssr:stedsnr" v="924912" />
	</node>
	<node id="-902249" lat="64.3429222183" lon="11.2591861192">
		<tag k="name" v="Kobbsteinvika" />
		<tag k="natural" v="bay" />
		<tag k="ssr:stedsnr" v="742892" />
	</node>
	<node id="-901864" lat="64.3460666705" lon="11.2595888931">
		<tag k="name" v="Kobbsteinodden" />
		<tag k="natural" v="cape" />
		<tag k="ssr:stedsnr" v="439906" />
	</node>
	<node id="-901372" lat="64.5225249964" lon="11.0740638785">
		<tag k="name" v="Krokvikodden" />
		<tag k="natural" v="cape" />
		<tag k="ssr:stedsnr" v="292411" />
	</node>
	<node id="-901989" lat="64.51729722" lon="11.1132666582">
		<tag k="name" v="Lissvika" />
		<tag k="natural" v="bay" />
		<tag k="ssr:stedsnr" v="352449" />
	</node>
	<node id="-901858" lat="64.4345194422" lon="11.33365556">
		<tag k="name" v="Sørvågen" />
		<tag k="natural" v="bay" />
		<tag k="ssr:stedsnr" v="863105" />
	</node>
	<node id="-901088" lat="64.4830111074" lon="11.1848999928">
		<tag k="name" v="Grotvika" />
		<tag k="natural" v="bay" />
		<tag k="ssr:stedsnr" v="108419" />
	</node>
	<node id="-902495" lat="64.4445944404" lon="11.2041277796">
		<tag k="name" v="Balbuvika" />
		<tag k="natural" v="bay" />
		<tag k="ssr:stedsnr" v="559442" />
	</node>
	<node id="-902373" lat="64.3559527758" lon="11.2717333252">
		<tag k="name" v="Hammarnesodden" />
		<tag k="natural" v="cape" />
		<tag k="ssr:stedsnr" v="439968" />
	</node>
	<node id="-902492" lat="64.4445999958" lon="11.1664805523">
		<tag k="name" v="Sveodden" />
		<tag k="natural" v="cape" />
		<tag k="ssr:stedsnr" v="559444" />
	</node>
	<node id="-902361" lat="64.5136138877" lon="11.1231499911">
		<tag k="name" v="Ledangsøra" />
		<tag k="natural" v="cape" />
		<tag k="ssr:stedsnr" v="439714" />
	</node>
	<node id="-902104" lat="64.443577781" lon="11.2992444387">
		<tag k="alt_name" v="Leirvikholmen" />
		<tag k="name" v="Leirvikholman" />
		<tag k="place" v="islet" />
		<tag k="ssr:stedsnr" v="938302" />
	</node>
	<node id="-901335" lat="64.4397055533" lon="11.2950666587">
		<tag k="name" v="Leirvika" />
		<tag k="natural" v="bay" />
		<tag k="ssr:stedsnr" v="863025" />
	</node>
	<node id="-902614" lat="64.3269083341" lon="11.2475416595">
		<tag k="name" v="Storvika" />
		<tag k="natural" v="bay" />
		<tag k="ssr:stedsnr" v="402185" />
	</node>
	<node id="-902393" lat="64.5346805561" lon="11.0806250057">
		<tag k="name" v="Øykvikodden" />
		<tag k="natural" v="cape" />
		<tag k="ssr:stedsnr" v="14620" />
	</node>
	<node id="-901588" lat="64.5428222199" lon="11.0703749946">
		<tag k="name" v="Langstranda" />
		<tag k="natural" v="beach" />
		<tag k="place" v="locality" />
		<tag k="ssr:stedsnr" v="864677" />
	</node>
	<node id="-901326" lat="64.4936722216" lon="11.1594833383">
		<tag k="name" v="Djupvika" />
		<tag k="natural" v="bay" />
		<tag k="ssr:stedsnr" v="210340" />
	</node>
	<node id="-902480" lat="64.5217222244" lon="11.0723249986">
		<tag k="name" v="Krokvika" />
		<tag k="natural" v="bay" />
		<tag k="ssr:stedsnr" v="196206" />
	</node>
	<node id="-901752" lat="64.3243861129" lon="11.23585834">
		<tag k="alt_name" v="Røgnin" />
		<tag k="fixme" v="consider seamark:type=rock or natural=shoal" />
		<tag k="name" v="Rogna" />
		<tag k="place" v="islet" />
		<tag k="ssr:stedsnr" v="574301" />
	</node>
	<node id="-902478" lat="64.4487888854" lon="11.2093305597">
		<tag k="name" v="Ytterskaget" />
		<tag k="place" v="islet" />
		<tag k="ssr:stedsnr" v="149308" />
	</node>
	<node id="-902476" lat="64.5241722178" lon="11.1078472231">
		<tag k="name" v="Storsteinvika" />
		<tag k="natural" v="bay" />
		<tag k="ssr:stedsnr" v="959404" />
	</node>
	<node id="-902219" lat="64.4589416685" lon="11.2674583315">
		<tag k="name" v="Ternholmen" />
		<tag k="old_name" v="Tenholmen" />
		<tag k="place" v="islet" />
		<tag k="ssr:stedsnr" v="317050" />
	</node>
	<node id="-902137" lat="64.450997221" lon="11.1821055527">
		<tag k="name" v="Saltneset" />
		<tag k="natural" v="cape" />
		<tag k="ssr:stedsnr" v="13502" />
	</node>
	<node id="-901388" lat="64.4492999984" lon="11.2106694341">
		<tag k="name" v="Stor-Morkaholmen" />
		<tag k="place" v="islet" />
		<tag k="ssr:stedsnr" v="533165" />
	</node>
	<node id="-901958" lat="64.4528277754" lon="11.2322527687">
		<tag k="name" v="Geitaneset" />
		<tag k="natural" v="cape" />
		<tag k="ssr:stedsnr" v="134019" />
	</node>
	<node id="-902852" lat="64.3173416667" lon="11.2309027729">
		<tag k="name" v="Dalavikleira" />
		<tag k="natural" v="shoal" />
		<tag k="place" v="locality" />
		<tag k="ssr:stedsnr" v="888168" />
	</node>
	<node id="-901327" lat="64.3549083292" lon="11.2549916598">
		<tag k="name" v="Saltbuodden" />
		<tag k="natural" v="cape" />
		<tag k="ssr:stedsnr" v="499845" />
	</node>
	<node id="-902722" lat="64.5165666697" lon="11.0792138864">
		<tag k="name" v="Sandaodden" />
		<tag k="natural" v="cape" />
		<tag k="ssr:stedsnr" v="716469" />
	</node>
	<node id="-901472" lat="64.3880444436" lon="11.3090499976">
		<tag k="name" v="Korsneset" />
		<tag k="natural" v="cape" />
		<tag k="ssr:stedsnr" v="75069" />
	</node>
	<node id="-901621" lat="64.4538750016" lon="11.2696611115">
		<tag k="name" v="Sundsvalen" />
		<tag k="natural" v="strait" />
		<tag k="ssr:stedsnr" v="74020" />
	</node>
	<node id="-901737" lat="64.4690166692" lon="11.1908388879">
		<tag k="name" v="Breivikneset" />
		<tag k="natural" v="cape" />
		<tag k="ssr:stedsnr" v="439365" />
	</node>
	<node id="-902202" lat="64.4309083352" lon="11.334844445">
		<tag k="name" v="Oterdalsbukta" />
		<tag k="natural" v="bay" />
		<tag k="ssr:stedsnr" v="438098" />
	</node>
	<node id="-901940" lat="64.4598499986" lon="11.2953833272">
		<tag k="name" v="Sundsøya" />
		<tag k="place" v="island" />
		<tag k="ssr:stedsnr" v="317002" />
	</node>
	<node id="-902579" lat="64.519447225" lon="11.1234388935">
		<tag k="alt_name" v="Ledangsholman;Ledangholmen" />
		<tag k="name" v="Ledangholman" />
		<tag k="place" v="islet" />
		<tag k="ssr:stedsnr" v="257714" />
	</node>
	<node id="-901167" lat="64.4531777819" lon="11.3027861151">
		<tag k="name" v="Saltbustranda" />
		<tag k="natural" v="beach" />
		<tag k="place" v="locality" />
		<tag k="ssr:stedsnr" v="863012" />
	</node>
	<node id="-902318" lat="64.5227611091" lon="11.0981805489">
		<tag k="name" v="Ospvika" />
		<tag k="natural" v="bay" />
		<tag k="ssr:stedsnr" v="318686" />
	</node>
	<node id="-901981" lat="64.460544444" lon="11.3447138939">
		<tag k="alt_name" v="Bjørnaholmen" />
		<tag k="name" v="Bjørnholmen" />
		<tag k="place" v="islet" />
		<tag k="ssr:stedsnr" v="377003" />
	</node>
	<node id="-901462" lat="64.3695777785" lon="11.2890111012">
		<tag k="bay" v="fjord" />
		<tag k="name" v="Løgnin" />
		<tag k="natural" v="bay" />
		<tag k="ssr:stedsnr" v="13948" />
	</node>
	<node id="-901291" lat="64.4454666645" lon="11.1954888902">
		<tag k="name" v="Innerskaget" />
		<tag k="place" v="islet" />
		<tag k="ssr:stedsnr" v="513344" />
	</node>
	<node id="-902442" lat="64.451652779" lon="11.2173805559">
		<tag k="name" v="Skaget" />
		<tag k="natural" v="cape" />
		<tag k="ssr:stedsnr" v="837151" />
	</node>
	<node id="-902441" lat="64.3405666712" lon="11.2639833284">
		<tag k="name" v="Leirvika" />
		<tag k="natural" v="bay" />
		<tag k="ssr:stedsnr" v="620874" />
	</node>
	<node id="-902183" lat="64.537330558" lon="11.0770111072">
		<tag k="name" v="Stinesodden" />
		<tag k="natural" v="cape" />
		<tag k="ssr:stedsnr" v="75714" />
	</node>
	<node id="-901320" lat="64.4949750033" lon="11.1649722223">
		<tag k="name" v="Saltbuodden" />
		<tag k="natural" v="cape" />
		<tag k="ssr:stedsnr" v="924398" />
	</node>
	<node id="-901155" lat="64.4412527772" lon="11.3284749982">
		<tag k="name" v="Skjerpsundet" />
		<tag k="natural" v="strait" />
		<tag k="ssr:stedsnr" v="863014" />
	</node>
	<node id="-901921" lat="64.5259416711" lon="11.099927772">
		<tag k="name" v="Ospneset" />
		<tag k="natural" v="cape" />
		<tag k="ssr:stedsnr" v="803658" />
	</node>
	<node id="-901919" lat="64.5419777813" lon="11.07175">
		<tag k="name" v="Pælvikodden" />
		<tag k="natural" v="cape" />
		<tag k="ssr:stedsnr" v="352442" />
	</node>
	<node id="-901893" lat="64.5170777823" lon="11.0975583233">
		<tag k="name" v="Buvika" />
		<tag k="natural" v="bay" />
		<tag k="ssr:stedsnr" v="560706" />
	</node>
	<node id="-901148" lat="64.3504361122" lon="11.2510833348">
		<tag k="name" v="Fevika" />
		<tag k="natural" v="bay" />
		<tag k="ssr:stedsnr" v="317968" />
	</node>
	<node id="-901935" lat="64.3428138873" lon="11.2415749934">
		<tag k="name" v="Munkhammarvika" />
		<tag k="natural" v="bay" />
		<tag k="ssr:stedsnr" v="220206" />
	</node>
	<node id="-902038" lat="64.5216555563" lon="11.08455277">
		<tag k="alt_name" v="Leirfjordvika" />
		<tag k="name" v="Leirfjorden" />
		<tag k="natural" v="bay" />
		<tag k="ssr:stedsnr" v="75702" />
	</node>
	<node id="-902229" lat="64.5042388885" lon="11.1379722184">
		<tag k="name" v="Vallskiftvika" />
		<tag k="natural" v="bay" />
		<tag k="ssr:stedsnr" v="169374" />
	</node>
	<node id="-902546" lat="64.5188277742" lon="11.1270777764">
		<tag k="name" v="Kvalen" />
		<tag k="natural" v="cape" />
		<tag k="ssr:stedsnr" v="318719" />
	</node>
	<node id="-902673" lat="64.4270305546" lon="11.3331444488">
		<tag k="name" v="Bjørnadalsbukta" />
		<tag k="natural" v="bay" />
		<tag k="ssr:stedsnr" v="620108" />
	</node>
	<node id="-902160" lat="64.5142861096" lon="11.0719055571">
		<tag k="name" v="Sanden" />
		<tag k="natural" v="bay" />
		<tag k="ssr:stedsnr" v="817282" />
	</node>
	<node id="-901903" lat="64.4511222236" lon="11.1835305523">
		<tag k="name" v="Saltnesholmen" />
		<tag k="place" v="islet" />
		<tag k="ssr:stedsnr" v="89335" />
	</node>
	<node id="-901229" lat="64.3601500008" lon="11.2512166569">
		<tag k="name" v="Altbukta" />
		<tag k="natural" v="bay" />
		<tag k="ssr:stedsnr" v="14993" />
	</node>
	<node id="-902156" lat="64.4345222263" lon="11.3336583319">
		<tag k="name" v="Våganeset" />
		<tag k="natural" v="cape" />
		<tag k="ssr:stedsnr" v="291797" />
	</node>
	<node id="-901954" lat="64.460838886" lon="11.3276194401">
		<tag k="name" v="Bjørnavika" />
		<tag k="natural" v="bay" />
		<tag k="ssr:stedsnr" v="620003" />
	</node>
	<node id="-901649" lat="64.5099527795" lon="11.1286388961">
		<tag k="name" v="Rakkavika" />
		<tag k="natural" v="bay" />
		<tag k="ssr:stedsnr" v="924716" />
	</node>
	<node id="-902544" lat="64.5392416647" lon="11.072549999">
		<tag k="name" v="Skjåvikodden" />
		<tag k="natural" v="cape" />
		<tag k="ssr:stedsnr" v="231492" />
	</node>
	<node id="-902533" lat="64.360536111" lon="11.2601805628">
		<tag k="name" v="Verveneset" />
		<tag k="natural" v="cape" />
		<tag k="ssr:stedsnr" v="756272" />
	</node>
	<node id="-901636" lat="64.4411805523" lon="11.3296750078">
		<tag k="name" v="Trongsundet" />
		<tag k="natural" v="strait" />
		<tag k="ssr:stedsnr" v="438022" />
	</node>
	<node id="-902659" lat="64.5181888922" lon="11.1171083265">
		<tag k="name" v="Ledangsvalen" />
		<tag k="natural" v="bay" />
		<tag k="ssr:stedsnr" v="257751" />
	</node>
	<node id="-901227" lat="64.4515861089" lon="11.2215861188">
		<tag k="name" v="Valsetvika" />
		<tag k="natural" v="bay" />
		<tag k="ssr:stedsnr" v="196010" />
	</node>
</osm>
