<?xml version="1.0" encoding="UTF-8"?>
<osm generator="osmapis" version="0.6">
	<node id="-901119" lat="64.4253361145" lon="11.11104167">
		<tag k="fixme" v="consider natural=peak for the most distinct mountains in the district" />
		<tag k="name" v="Granheia" />
		<tag k="natural" v="hill" />
		<tag k="place" v="locality" />
		<tag k="ssr:stedsnr" v="439284" />
	</node>
	<node id="-901117" lat="64.1875694426" lon="11.1662000073">
		<tag k="name" v="Storbrenna" />
		<tag k="natural" v="slope" />
		<tag k="place" v="locality" />
		<tag k="ssr:stedsnr" v="169534" />
	</node>
	<node id="-901115" lat="64.279372221" lon="11.1896194527">
		<tag k="name" v="Høttmoen" />
		<tag k="place" v="locality" />
		<tag k="ssr:stedsnr" v="219192" />
	</node>
	<node id="-901109" lat="64.1668527769" lon="11.3474916564">
		<tag k="fixme" v="consider natural=peak for the most distinct mountains in the district" />
		<tag k="name" v="Klokkaråsen" />
		<tag k="natural" v="hill" />
		<tag k="place" v="locality" />
		<tag k="ssr:stedsnr" v="924833" />
	</node>
	<node id="-901108" lat="64.2572333317" lon="11.2377805514">
		<tag k="name" v="Plassaberget" />
		<tag k="natural" v="hill" />
		<tag k="place" v="locality" />
		<tag k="ssr:stedsnr" v="221194" />
	</node>
	<node id="-901106" lat="64.13977222" lon="10.9190305543">
		<tag k="alt_name" v="Kjerringklompen" />
		<tag k="fixme" v="consider natural=peak for the most distinct mountains in the district" />
		<tag k="name" v="Kjerringklumpen" />
		<tag k="natural" v="hill" />
		<tag k="place" v="locality" />
		<tag k="ssr:stedsnr" v="620592" />
	</node>
	<node id="-901104" lat="64.265688892" lon="11.1345444375">
		<tag k="fixme" v="consider natural=peak for the most distinct mountains in the district" />
		<tag k="name" v="Seterheia" />
		<tag k="natural" v="hill" />
		<tag k="place" v="locality" />
		<tag k="ssr:stedsnr" v="473900" />
	</node>
	<node id="-901103" lat="64.221613885" lon="11.0013472313">
		<tag k="name" v="Lomtjønnhaugan" />
		<tag k="natural" v="hill" />
		<tag k="place" v="locality" />
		<tag k="ssr:stedsnr" v="438670" />
	</node>
	<node id="-901101" lat="64.4907666623" lon="11.0805611081">
		<tag k="name" v="Gammelseterdalen" />
		<tag k="natural" v="valley" />
		<tag k="place" v="locality" />
		<tag k="ssr:stedsnr" v="291495" />
	</node>
	<node id="-901100" lat="64.2834055567" lon="11.1127499981">
		<tag k="fixme" v="consider natural=peak for the most distinct mountains in the district" />
		<tag k="name" v="Saksheia" />
		<tag k="natural" v="hill" />
		<tag k="place" v="locality" />
		<tag k="ssr:stedsnr" v="378124" />
	</node>
	<node id="-901099" lat="64.1531194414" lon="11.0900249943">
		<tag k="name" v="Kuskardet" />
		<tag k="natural" v="valley" />
		<tag k="place" v="locality" />
		<tag k="ssr:stedsnr" v="377600" />
	</node>
	<node id="-901097" lat="64.2963305525" lon="11.1379333257">
		<tag k="name" v="Rognhaugen" />
		<tag k="natural" v="hill" />
		<tag k="place" v="locality" />
		<tag k="ssr:stedsnr" v="898808" />
	</node>
	<node id="-901095" lat="64.1823972196" lon="11.0596416749">
		<tag k="fixme" v="consider natural=peak for the most distinct mountains in the district" />
		<tag k="name" v="Småliåsen" />
		<tag k="natural" v="hill" />
		<tag k="place" v="locality" />
		<tag k="ssr:stedsnr" v="14631" />
	</node>
	<node id="-901094" lat="64.2985638896" lon="11.2420527794">
		<tag k="alt_name" v="Sørkleiva" />
		<tag k="name" v="Kleiva" />
		<tag k="natural" v="slope" />
		<tag k="place" v="locality" />
		<tag k="ssr:stedsnr" v="681918" />
	</node>
	<node id="-901093" lat="64.2505305574" lon="11.0235777785">
		<tag k="name" v="Blåvasshaugan" />
		<tag k="natural" v="hill" />
		<tag k="place" v="locality" />
		<tag k="ssr:stedsnr" v="837921" />
	</node>
	<node id="-901092" lat="64.4378500001" lon="11.1057999919">
		<tag k="name" v="Tverrhogget" />
		<tag k="place" v="locality" />
		<tag k="ssr:stedsnr" v="412181" />
	</node>
	<node id="-901091" lat="64.3096305546" lon="11.2373944535">
		<tag k="name" v="Stordølin" />
		<tag k="natural" v="valley" />
		<tag k="place" v="locality" />
		<tag k="ssr:stedsnr" v="99208" />
	</node>
	<node id="-901089" lat="64.1765111086" lon="11.1054305588">
		<tag k="fixme" v="consider natural=peak for the most distinct mountains in the district" />
		<tag k="name" v="Andorheia" />
		<tag k="natural" v="hill" />
		<tag k="place" v="locality" />
		<tag k="ssr:stedsnr" v="654519" />
	</node>
	<node id="-901086" lat="64.4312138898" lon="11.1103277704">
		<tag k="fixme" v="multiple name tags, choose one and add the other to alt_name" />
		<tag k="name" v="Tøttdalshatten;Hatten" />
		<tag k="natural" v="hill" />
		<tag k="place" v="locality" />
		<tag k="ssr:stedsnr" v="14365" />
	</node>
	<node id="-901084" lat="64.2099083315" lon="11.173991672">
		<tag k="name" v="Raubergdalen" />
		<tag k="natural" v="valley" />
		<tag k="place" v="locality" />
		<tag k="ssr:stedsnr" v="837527" />
	</node>
	<node id="-901082" lat="64.2292055512" lon="11.1939833377">
		<tag k="name" v="Stavenberget" />
		<tag k="natural" v="hill" />
		<tag k="place" v="locality" />
		<tag k="ssr:stedsnr" v="809349" />
	</node>
	<node id="-901080" lat="64.228172218" lon="11.2159111023">
		<tag k="name" v="Mussudalen" />
		<tag k="natural" v="valley" />
		<tag k="place" v="locality" />
		<tag k="ssr:stedsnr" v="221200" />
	</node>
	<node id="-901078" lat="64.4227416706" lon="11.0932638916">
		<tag k="name" v="Oksdølskaret" />
		<tag k="natural" v="valley" />
		<tag k="place" v="locality" />
		<tag k="ssr:stedsnr" v="412183" />
	</node>
	<node id="-901077" lat="64.4869749967" lon="11.0142833413">
		<tag k="fixme" v="consider natural=peak for the most distinct mountains in the district" />
		<tag k="name" v="Finnmortennasen" />
		<tag k="natural" v="hill" />
		<tag k="place" v="locality" />
		<tag k="ssr:stedsnr" v="681389" />
	</node>
	<node id="-901076" lat="64.1983555527" lon="11.1620083331">
		<tag k="name" v="Rathaugen" />
		<tag k="natural" v="hill" />
		<tag k="place" v="locality" />
		<tag k="ssr:stedsnr" v="594498" />
	</node>
	<node id="-901075" lat="64.4285361134" lon="11.1336083393">
		<tag k="name" v="Bjønnaskaret" />
		<tag k="natural" v="valley" />
		<tag k="place" v="locality" />
		<tag k="ssr:stedsnr" v="776766" />
	</node>
	<node id="-901074" lat="64.2337555566" lon="10.954024994">
		<tag k="name" v="Meungdalen" />
		<tag k="natural" v="valley" />
		<tag k="place" v="locality" />
		<tag k="ssr:stedsnr" v="109994" />
	</node>
	<node id="-901072" lat="64.5315694462" lon="11.0764500027">
		<tag k="name" v="Sveahaugen" />
		<tag k="natural" v="hill" />
		<tag k="place" v="locality" />
		<tag k="ssr:stedsnr" v="413310" />
	</node>
	<node id="-901071" lat="64.1574388859" lon="10.8274611192">
		<tag k="name" v="Seterlia" />
		<tag k="natural" v="slope" />
		<tag k="place" v="locality" />
		<tag k="ssr:stedsnr" v="775580" />
	</node>
	<node id="-902861" lat="64.1900305551" lon="11.1285194357">
		<tag k="name" v="Klompan" />
		<tag k="natural" v="hill" />
		<tag k="place" v="locality" />
		<tag k="ssr:stedsnr" v="48467" />
	</node>
	<node id="-902859" lat="64.4193777736" lon="11.2751444512">
		<tag k="fixme" v="consider natural=peak for the most distinct mountains in the district" />
		<tag k="name" v="Hemnafjellet" />
		<tag k="natural" v="hill" />
		<tag k="place" v="locality" />
		<tag k="ssr:stedsnr" v="864058" />
	</node>
	<node id="-902856" lat="64.4166083308" lon="11.1687361166">
		<tag k="name" v="Heia" />
		<tag k="natural" v="hill" />
		<tag k="place" v="locality" />
		<tag k="ssr:stedsnr" v="864327" />
	</node>
	<node id="-902849" lat="64.207700003" lon="11.1752111051">
		<tag k="name" v="Raudberget" />
		<tag k="natural" v="hill" />
		<tag k="place" v="locality" />
		<tag k="ssr:stedsnr" v="169529" />
	</node>
	<node id="-902848" lat="64.1936555525" lon="11.2126222266">
		<tag k="name" v="Bjønnadalen" />
		<tag k="natural" v="valley" />
		<tag k="place" v="locality" />
		<tag k="ssr:stedsnr" v="99333" />
	</node>
	<node id="-902843" lat="64.2533277788" lon="11.2281361203">
		<tag k="name" v="Dummelhaugen" />
		<tag k="natural" v="hill" />
		<tag k="place" v="locality" />
		<tag k="ssr:stedsnr" v="402256" />
	</node>
	<node id="-902839" lat="64.271183331" lon="11.1750944374">
		<tag k="name" v="Storkleiva" />
		<tag k="natural" v="slope" />
		<tag k="place" v="locality" />
		<tag k="ssr:stedsnr" v="169925" />
	</node>
	<node id="-902838" lat="64.3629472263" lon="11.1230999965">
		<tag k="name" v="Holmliin" />
		<tag k="natural" v="slope" />
		<tag k="place" v="locality" />
		<tag k="ssr:stedsnr" v="776845" />
	</node>
	<node id="-902836" lat="64.2455500002" lon="11.2002638991">
		<tag k="alt_name" v="Skarberget" />
		<tag k="name" v="Skardberget" />
		<tag k="natural" v="hill" />
		<tag k="place" v="locality" />
		<tag k="ssr:stedsnr" v="14695" />
	</node>
	<node id="-902835" lat="64.2936000042" lon="11.2194583358">
		<tag k="name" v="Monsdalen" />
		<tag k="natural" v="valley" />
		<tag k="place" v="locality" />
		<tag k="ssr:stedsnr" v="281220" />
	</node>
	<node id="-902833" lat="64.280780556" lon="11.2976166691">
		<tag k="name" v="Groftdalen" />
		<tag k="natural" v="valley" />
		<tag k="place" v="locality" />
		<tag k="ssr:stedsnr" v="864845" />
	</node>
	<node id="-902830" lat="64.2115250031" lon="10.9229888986">
		<tag k="fixme" v="consider natural=peak for the most distinct mountains in the district" />
		<tag k="name" v="Lissbjørkvassheia" />
		<tag k="natural" v="hill" />
		<tag k="place" v="locality" />
		<tag k="ssr:stedsnr" v="377662" />
	</node>
	<node id="-902829" lat="64.2767805561" lon="11.0582111164">
		<tag k="name" v="Trongskaret" />
		<tag k="natural" v="valley" />
		<tag k="place" v="locality" />
		<tag k="ssr:stedsnr" v="169915" />
	</node>
	<node id="-902828" lat="64.1853666625" lon="11.1411055527">
		<tag k="name" v="Rabben" />
		<tag k="natural" v="ridge" />
		<tag k="place" v="locality" />
		<tag k="ssr:stedsnr" v="533507" />
	</node>
	<node id="-902823" lat="64.4890027814" lon="11.0752944382">
		<tag k="name" v="Granlia" />
		<tag k="natural" v="slope" />
		<tag k="place" v="locality" />
		<tag k="ssr:stedsnr" v="776453" />
	</node>
	<node id="-902822" lat="64.4118111123" lon="11.1050416719">
		<tag k="name" v="Karilia" />
		<tag k="natural" v="slope" />
		<tag k="place" v="locality" />
		<tag k="ssr:stedsnr" v="439272" />
	</node>
	<node id="-902821" lat="64.1949111099" lon="11.2964083317">
		<tag k="fixme" v="consider natural=peak for the most distinct mountains in the district" />
		<tag k="name" v="Brentet" />
		<tag k="natural" v="hill" />
		<tag k="place" v="locality" />
		<tag k="ssr:stedsnr" v="221301" />
	</node>
	<node id="-902820" lat="64.2761750042" lon="11.3173972178">
		<tag k="name" v="Vesterlia" />
		<tag k="natural" v="slope" />
		<tag k="place" v="locality" />
		<tag k="ssr:stedsnr" v="196808" />
	</node>
	<node id="-902817" lat="64.1845611126" lon="11.1761083337">
		<tag k="name" v="Svartdalen" />
		<tag k="natural" v="valley" />
		<tag k="place" v="locality" />
		<tag k="ssr:stedsnr" v="898518" />
	</node>
	<node id="-902812" lat="64.1685305512" lon="11.217647223">
		<tag k="name" v="Sørdalen" />
		<tag k="natural" v="valley" />
		<tag k="place" v="locality" />
		<tag k="ssr:stedsnr" v="342342" />
	</node>
	<node id="-902808" lat="64.2042027813" lon="11.3151500041">
		<tag k="fixme" v="consider natural=peak for the most distinct mountains in the district" />
		<tag k="name" v="Mortenengåsen" />
		<tag k="natural" v="hill" />
		<tag k="place" v="locality" />
		<tag k="ssr:stedsnr" v="221292" />
	</node>
	<node id="-902802" lat="64.3226305593" lon="11.1858027828">
		<tag k="name" v="Nybudalan" />
		<tag k="natural" v="valley" />
		<tag k="place" v="locality" />
		<tag k="ssr:stedsnr" v="281197" />
	</node>
	<node id="-902800" lat="64.3016666703" lon="11.3065111132">
		<tag k="fixme" v="consider natural=peak for the most distinct mountains in the district" />
		<tag k="name" v="Fossheia" />
		<tag k="natural" v="hill" />
		<tag k="place" v="locality" />
		<tag k="ssr:stedsnr" v="377915" />
	</node>
	<node id="-902798" lat="64.2719638854" lon="11.097125004">
		<tag k="name" v="Joslættet" />
		<tag k="place" v="locality" />
		<tag k="ssr:stedsnr" v="924108" />
	</node>
	<node id="-902797" lat="64.4425638902" lon="11.1039277709">
		<tag k="fixme" v="consider natural=peak for the most distinct mountains in the district" />
		<tag k="name" v="Tverrhoggfjellet" />
		<tag k="natural" v="hill" />
		<tag k="place" v="locality" />
		<tag k="ssr:stedsnr" v="681451" />
	</node>
	<node id="-902790" lat="64.3150944455" lon="11.2084750075">
		<tag k="name" v="Kvitberget" />
		<tag k="natural" v="slope" />
		<tag k="place" v="locality" />
		<tag k="ssr:stedsnr" v="281193" />
	</node>
	<node id="-902788" lat="64.2102055534" lon="11.1504583255">
		<tag k="name" v="Raudhaugen" />
		<tag k="natural" v="hill" />
		<tag k="place" v="locality" />
		<tag k="ssr:stedsnr" v="898537" />
	</node>
	<node id="-902787" lat="64.4255138905" lon="11.0966416666">
		<tag k="fixme" v="consider natural=peak for the most distinct mountains in the district" />
		<tag k="name" v="Mosshatten" />
		<tag k="natural" v="hill" />
		<tag k="place" v="locality" />
		<tag k="ssr:stedsnr" v="473211" />
	</node>
	<node id="-902786" lat="64.4869861068" lon="11.1643138891">
		<tag k="alt_name" v="Djupvikfjellet" />
		<tag k="name" v="Djupvikklumpen" />
		<tag k="natural" v="hill" />
		<tag k="place" v="locality" />
		<tag k="ssr:stedsnr" v="924384" />
	</node>
	<node id="-902784" lat="64.2600972237" lon="11.2992472156">
		<tag k="name" v="Flokkahaugen" />
		<tag k="natural" v="hill" />
		<tag k="place" v="locality" />
		<tag k="ssr:stedsnr" v="522231" />
	</node>
	<node id="-902783" lat="64.4850138899" lon="11.0775722175">
		<tag k="name" v="Storlia" />
		<tag k="natural" v="slope" />
		<tag k="place" v="locality" />
		<tag k="ssr:stedsnr" v="533490" />
	</node>
	<node id="-902782" lat="64.2350861155" lon="11.2623277837">
		<tag k="fixme" v="consider natural=peak for the most distinct mountains in the district" />
		<tag k="name" v="Granheia" />
		<tag k="natural" v="hill" />
		<tag k="place" v="locality" />
		<tag k="ssr:stedsnr" v="463248" />
	</node>
	<node id="-902779" lat="64.5014000009" lon="11.0998333338">
		<tag k="name" v="Nonshaugen" />
		<tag k="natural" v="hill" />
		<tag k="place" v="locality" />
		<tag k="ssr:stedsnr" v="317688" />
	</node>
	<node id="-902778" lat="64.2655611146" lon="11.2877027768">
		<tag k="name" v="Mårstokkhaugen" />
		<tag k="natural" v="hill" />
		<tag k="place" v="locality" />
		<tag k="ssr:stedsnr" v="522232" />
	</node>
	<node id="-902775" lat="64.1380694435" lon="11.1458333325">
		<tag k="name" v="Olufhaugen" />
		<tag k="natural" v="hill" />
		<tag k="place" v="locality" />
		<tag k="ssr:stedsnr" v="291578" />
	</node>
	<node id="-902773" lat="64.1775611138" lon="11.140986107">
		<tag k="name" v="Lissheia" />
		<tag k="natural" v="ridge" />
		<tag k="place" v="locality" />
		<tag k="ssr:stedsnr" v="108503" />
	</node>
	<node id="-902772" lat="64.1888498853" lon="11.0983624933">
		<tag k="fixme" v="consider natural=peak for the most distinct mountains in the district" />
		<tag k="name" v="Lissnøheia" />
		<tag k="natural" v="hill" />
		<tag k="place" v="locality" />
		<tag k="ssr:stedsnr" v="263368" />
	</node>
	<node id="-902768" lat="64.1729138872" lon="11.1623861204">
		<tag k="name" v="Steindalen" />
		<tag k="natural" v="valley" />
		<tag k="place" v="locality" />
		<tag k="ssr:stedsnr" v="411468" />
	</node>
	<node id="-902765" lat="64.3148388856" lon="11.2515694448">
		<tag k="alt_name" v="Klompan" />
		<tag k="name" v="Storklumpen" />
		<tag k="natural" v="hill" />
		<tag k="place" v="locality" />
		<tag k="ssr:stedsnr" v="134935" />
	</node>
	<node id="-902761" lat="64.1805694477" lon="11.1704888853">
		<tag k="name" v="Bjønnaholet" />
		<tag k="natural" v="valley" />
		<tag k="place" v="locality" />
		<tag k="ssr:stedsnr" v="108506" />
	</node>
	<node id="-902760" lat="64.2633888884" lon="11.1571416654">
		<tag k="fixme" v="consider natural=peak for the most distinct mountains in the district" />
		<tag k="name" v="Stakkstonghalla" />
		<tag k="natural" v="hill" />
		<tag k="place" v="locality" />
		<tag k="ssr:stedsnr" v="716877" />
	</node>
	<node id="-902759" lat="64.4208999979" lon="11.0359472177">
		<tag k="name" v="Hestmarka" />
		<tag k="natural" v="slope" />
		<tag k="place" v="locality" />
		<tag k="ssr:stedsnr" v="473216" />
	</node>
	<node id="-902758" lat="64.2618388857" lon="11.2107166697">
		<tag k="fixme" v="consider natural=peak for the most distinct mountains in the district" />
		<tag k="name" v="Tjønsåsen" />
		<tag k="natural" v="hill" />
		<tag k="place" v="locality" />
		<tag k="ssr:stedsnr" v="402249" />
	</node>
	<node id="-902756" lat="64.1747194443" lon="11.1624138931">
		<tag k="fixme" v="consider natural=peak for the most distinct mountains in the district" />
		<tag k="name" v="Sagapempan" />
		<tag k="natural" v="hill" />
		<tag k="place" v="locality" />
		<tag k="ssr:stedsnr" v="411464" />
	</node>
	<node id="-902755" lat="64.2665972258" lon="11.2821722306">
		<tag k="name" v="Vassdalberget" />
		<tag k="natural" v="hill" />
		<tag k="place" v="locality" />
		<tag k="ssr:stedsnr" v="522239" />
	</node>
	<node id="-902754" lat="64.2801888887" lon="11.234924996">
		<tag k="name" v="Trongin" />
		<tag k="natural" v="valley" />
		<tag k="place" v="locality" />
		<tag k="ssr:stedsnr" v="705227" />
	</node>
	<node id="-902753" lat="64.2741444478" lon="11.3022222167">
		<tag k="name" v="Hundhola" />
		<tag k="natural" v="valley" />
		<tag k="place" v="locality" />
		<tag k="ssr:stedsnr" v="109308" />
	</node>
	<node id="-902752" lat="64.325483332" lon="11.2958000041">
		<tag k="name" v="Brennpynten" />
		<tag k="natural" v="hill" />
		<tag k="place" v="locality" />
		<tag k="ssr:stedsnr" v="13882" />
	</node>
	<node id="-902750" lat="64.2251999979" lon="11.1419972155">
		<tag k="name" v="Finnkruhaugen" />
		<tag k="natural" v="hill" />
		<tag k="place" v="locality" />
		<tag k="ssr:stedsnr" v="291560" />
	</node>
	<node id="-902747" lat="64.4302722204" lon="11.1117555637">
		<tag k="name" v="Hattskaret" />
		<tag k="natural" v="valley" />
		<tag k="place" v="locality" />
		<tag k="ssr:stedsnr" v="654198" />
	</node>
	<node id="-902743" lat="64.1752166645" lon="10.8046249991">
		<tag k="name" v="Vinterskardet" />
		<tag k="natural" v="valley" />
		<tag k="place" v="locality" />
		<tag k="ssr:stedsnr" v="499513" />
	</node>
	<node id="-902740" lat="64.4258499967" lon="11.2524027725">
		<tag k="name" v="Skrovldalen" />
		<tag k="natural" v="valley" />
		<tag k="place" v="locality" />
		<tag k="ssr:stedsnr" v="924093" />
	</node>
	<node id="-902739" lat="64.2858777813" lon="10.972072213">
		<tag k="name" v="Hestbakkslættet" />
		<tag k="place" v="locality" />
		<tag k="ssr:stedsnr" v="681169" />
	</node>
	<node id="-902738" lat="64.3525750015" lon="11.2392749994">
		<tag k="name" v="Middagsskaret" />
		<tag k="natural" v="valley" />
		<tag k="place" v="locality" />
		<tag k="ssr:stedsnr" v="948190" />
	</node>
	<node id="-902737" lat="64.2822611132" lon="11.3497750024">
		<tag k="name" v="Soløydalen" />
		<tag k="natural" v="valley" />
		<tag k="place" v="locality" />
		<tag k="ssr:stedsnr" v="499787" />
	</node>
	<node id="-902735" lat="64.2291055567" lon="11.2589527694">
		<tag k="name" v="Kleivin" />
		<tag k="natural" v="slope" />
		<tag k="place" v="locality" />
		<tag k="ssr:stedsnr" v="99289" />
	</node>
	<node id="-902732" lat="64.4908166629" lon="11.1066472187">
		<tag k="name" v="Bovedalskleiva" />
		<tag k="natural" v="slope" />
		<tag k="place" v="locality" />
		<tag k="ssr:stedsnr" v="169489" />
	</node>
	<node id="-902731" lat="64.1964750046" lon="11.3070388862">
		<tag k="fixme" v="consider natural=peak for the most distinct mountains in the district" />
		<tag k="name" v="Lauvaksla" />
		<tag k="natural" v="hill" />
		<tag k="place" v="locality" />
		<tag k="ssr:stedsnr" v="342300" />
	</node>
	<node id="-902726" lat="64.2098861137" lon="11.3295583256">
		<tag k="fixme" v="consider natural=peak for the most distinct mountains in the district" />
		<tag k="name" v="Sagåsen" />
		<tag k="natural" v="hill" />
		<tag k="place" v="locality" />
		<tag k="ssr:stedsnr" v="924892" />
	</node>
	<node id="-902723" lat="64.1094722231" lon="10.9142722145">
		<tag k="fixme" v="consider natural=peak for the most distinct mountains in the district" />
		<tag k="name" v="Torsheia" />
		<tag k="natural" v="hill" />
		<tag k="place" v="locality" />
		<tag k="ssr:stedsnr" v="863517" />
	</node>
	<node id="-902720" lat="64.2611638909" lon="11.2246083381">
		<tag k="fixme" v="consider natural=peak for the most distinct mountains in the district" />
		<tag k="name" v="Hestmyråsen" />
		<tag k="natural" v="hill" />
		<tag k="place" v="locality" />
		<tag k="ssr:stedsnr" v="584262" />
	</node>
	<node id="-902719" lat="64.4348916652" lon="11.0977666639">
		<tag k="name" v="Svartdalen" />
		<tag k="natural" v="valley" />
		<tag k="place" v="locality" />
		<tag k="ssr:stedsnr" v="594192" />
	</node>
	<node id="-902713" lat="64.2460888893" lon="11.0568083272">
		<tag k="name" v="Urdalen" />
		<tag k="natural" v="valley" />
		<tag k="place" v="locality" />
		<tag k="ssr:stedsnr" v="291936" />
	</node>
	<node id="-902710" lat="64.3201361144" lon="11.147802781">
		<tag k="fixme" v="consider natural=peak for the most distinct mountains in the district" />
		<tag k="name" v="Kallhammarpynten" />
		<tag k="natural" v="hill" />
		<tag k="place" v="locality" />
		<tag k="ssr:stedsnr" v="776802" />
	</node>
	<node id="-902703" lat="64.3265416651" lon="11.1832222242">
		<tag k="name" v="Norddalen" />
		<tag k="natural" v="valley" />
		<tag k="place" v="locality" />
		<tag k="ssr:stedsnr" v="402198" />
	</node>
	<node id="-902702" lat="64.4417305522" lon="11.2073583259">
		<tag k="name" v="Tømmerdalen" />
		<tag k="natural" v="valley" />
		<tag k="place" v="locality" />
		<tag k="ssr:stedsnr" v="594172" />
	</node>
	<node id="-902701" lat="64.3130611117" lon="11.2340083246">
		<tag k="name" v="Buhammaren" />
		<tag k="natural" v="slope" />
		<tag k="place" v="locality" />
		<tag k="ssr:stedsnr" v="402199" />
	</node>
	<node id="-902696" lat="64.2235861091" lon="11.2811999968">
		<tag k="fixme" v="consider natural=peak for the most distinct mountains in the district" />
		<tag k="name" v="Lisstjønnåsen" />
		<tag k="natural" v="hill" />
		<tag k="place" v="locality" />
		<tag k="ssr:stedsnr" v="221256" />
	</node>
	<node id="-902688" lat="64.2680722246" lon="11.1049888959">
		<tag k="fixme" v="consider natural=peak for the most distinct mountains in the district" />
		<tag k="name" v="Lensmannsheia" />
		<tag k="natural" v="hill" />
		<tag k="place" v="locality" />
		<tag k="ssr:stedsnr" v="317112" />
	</node>
	<node id="-902682" lat="64.2321916639" lon="11.2493083238">
		<tag k="name" v="Kariberget" />
		<tag k="natural" v="hill" />
		<tag k="place" v="locality" />
		<tag k="ssr:stedsnr" v="221248" />
	</node>
	<node id="-902679" lat="64.2121861145" lon="11.2518722232">
		<tag k="name" v="Lissmyrhaugen" />
		<tag k="natural" v="hill" />
		<tag k="place" v="locality" />
		<tag k="ssr:stedsnr" v="99300" />
	</node>
	<node id="-902678" lat="64.3069388866" lon="11.2335111035">
		<tag k="name" v="Smiberget" />
		<tag k="natural" v="hill" />
		<tag k="place" v="locality" />
		<tag k="ssr:stedsnr" v="802948" />
	</node>
	<node id="-902668" lat="64.257469441" lon="11.3194472233">
		<tag k="name" v="Hekkelhaugen" />
		<tag k="natural" v="hill" />
		<tag k="place" v="locality" />
		<tag k="ssr:stedsnr" v="158226" />
	</node>
	<node id="-902666" lat="64.3829416678" lon="11.1954611063">
		<tag k="name" v="Aunskardet" />
		<tag k="natural" v="valley" />
		<tag k="place" v="locality" />
		<tag k="ssr:stedsnr" v="864305" />
	</node>
	<node id="-902663" lat="64.2864777752" lon="10.999213885">
		<tag k="name" v="Rislidalen" />
		<tag k="natural" v="valley" />
		<tag k="place" v="locality" />
		<tag k="ssr:stedsnr" v="378171" />
	</node>
	<node id="-902651" lat="64.4421249965" lon="11.1138555495">
		<tag k="name" v="Tverrhoggholet" />
		<tag k="natural" v="valley" />
		<tag k="place" v="locality" />
		<tag k="ssr:stedsnr" v="473204" />
	</node>
	<node id="-902646" lat="64.3160555519" lon="11.1930416629">
		<tag k="fixme" v="consider natural=peak for the most distinct mountains in the district" />
		<tag k="name" v="Torvfjellet" />
		<tag k="natural" v="hill" />
		<tag k="place" v="locality" />
		<tag k="ssr:stedsnr" v="499248" />
	</node>
	<node id="-902643" lat="64.2085444456" lon="11.2613777782">
		<tag k="fixme" v="consider natural=peak for the most distinct mountains in the district" />
		<tag k="name" v="Nordåshalla" />
		<tag k="natural" v="hill" />
		<tag k="place" v="locality" />
		<tag k="ssr:stedsnr" v="221267" />
	</node>
	<node id="-902632" lat="64.2023444429" lon="11.232208337">
		<tag k="name" v="Vengstadhaugen" />
		<tag k="natural" v="hill" />
		<tag k="place" v="locality" />
		<tag k="ssr:stedsnr" v="342303" />
	</node>
	<node id="-902628" lat="64.2843499987" lon="11.1660722125">
		<tag k="name" v="Gurihaugen" />
		<tag k="natural" v="hill" />
		<tag k="place" v="locality" />
		<tag k="ssr:stedsnr" v="14118" />
	</node>
	<node id="-902627" lat="64.482597223" lon="11.1762638821">
		<tag k="name" v="Storhaugen" />
		<tag k="natural" v="hill" />
		<tag k="place" v="locality" />
		<tag k="ssr:stedsnr" v="472366" />
	</node>
	<node id="-902625" lat="64.2672722225" lon="11.1658083412">
		<tag k="name" v="Kursfatet" />
		<tag k="natural" v="valley" />
		<tag k="place" v="locality" />
		<tag k="ssr:stedsnr" v="898876" />
	</node>
	<node id="-902622" lat="64.5015749964" lon="11.0498194499">
		<tag k="fixme" v="consider natural=peak for the most distinct mountains in the district" />
		<tag k="name" v="Galtlifjellet" />
		<tag k="natural" v="hill" />
		<tag k="place" v="locality" />
		<tag k="ssr:stedsnr" v="439753" />
	</node>
	<node id="-902620" lat="64.2118138904" lon="11.4123694469">
		<tag k="name" v="Steinmyrhaugen" />
		<tag k="natural" v="hill" />
		<tag k="place" v="locality" />
		<tag k="ssr:stedsnr" v="109648" />
	</node>
	<node id="-902619" lat="64.1861888881" lon="10.8304361049">
		<tag k="fixme" v="consider natural=peak for the most distinct mountains in the district" />
		<tag k="name" v="Kvernheia" />
		<tag k="natural" v="hill" />
		<tag k="place" v="locality" />
		<tag k="ssr:stedsnr" v="681685" />
	</node>
	<node id="-902618" lat="64.4657277816" lon="11.1551777713">
		<tag k="name" v="Breivikskaret" />
		<tag k="natural" v="valley" />
		<tag k="place" v="locality" />
		<tag k="ssr:stedsnr" v="472368" />
	</node>
	<node id="-902613" lat="64.443666668" lon="11.2159805566">
		<tag k="name" v="Morkaborga" />
		<tag k="natural" v="hill" />
		<tag k="place" v="locality" />
		<tag k="ssr:stedsnr" v="135445" />
	</node>
	<node id="-902610" lat="64.2018333334" lon="11.1105722168">
		<tag k="fixme" v="consider natural=peak for the most distinct mountains in the district" />
		<tag k="name" v="Svartmoheia" />
		<tag k="natural" v="hill" />
		<tag k="place" v="locality" />
		<tag k="ssr:stedsnr" v="620630" />
	</node>
	<node id="-902605" lat="64.3743000039" lon="11.1463083259">
		<tag k="name" v="Gravhaugen" />
		<tag k="natural" v="hill" />
		<tag k="place" v="locality" />
		<tag k="ssr:stedsnr" v="377364" />
	</node>
	<node id="-902594" lat="64.3380611077" lon="11.2021166598">
		<tag k="fixme" v="consider natural=peak for the most distinct mountains in the district" />
		<tag k="name" v="Åsafjellet" />
		<tag k="natural" v="hill" />
		<tag k="place" v="locality" />
		<tag k="ssr:stedsnr" v="402169" />
	</node>
	<node id="-902591" lat="64.2801666671" lon="11.0815750045">
		<tag k="fixme" v="consider natural=peak for the most distinct mountains in the district" />
		<tag k="name" v="Øyensskavlen - Båeriesvaerie" />
		<tag k="name:no" v="Øyensskavlen" />
		<tag k="name:sma" v="Båeriesvaerie" />
		<tag k="natural" v="hill" />
		<tag k="place" v="locality" />
		<tag k="ssr:stedsnr" v="742129" />
	</node>
	<node id="-902587" lat="64.3324666674" lon="11.2822722309">
		<tag k="name" v="Leirdalen" />
		<tag k="natural" v="valley" />
		<tag k="place" v="locality" />
		<tag k="ssr:stedsnr" v="402165" />
	</node>
	<node id="-902585" lat="64.4920027756" lon="11.1484166646">
		<tag k="name" v="Haugenberget" />
		<tag k="natural" v="hill" />
		<tag k="place" v="locality" />
		<tag k="ssr:stedsnr" v="472352" />
	</node>
	<node id="-902580" lat="64.2438722194" lon="10.9329527799">
		<tag k="fixme" v="consider natural=peak for the most distinct mountains in the district" />
		<tag k="name" v="Meungheia" />
		<tag k="natural" v="hill" />
		<tag k="place" v="locality" />
		<tag k="ssr:stedsnr" v="863740" />
	</node>
	<node id="-902576" lat="64.1994750032" lon="11.0847638826">
		<tag k="fixme" v="multiple name tags, choose one and add the other to alt_name" />
		<tag k="name" v="Heggdalslikammen;Rognliheia" />
		<tag k="natural" v="hill" />
		<tag k="place" v="locality" />
		<tag k="ssr:stedsnr" v="256637" />
	</node>
	<node id="-902574" lat="64.3471833352" lon="11.0099027711">
		<tag k="fixme" v="consider natural=peak for the most distinct mountains in the district" />
		<tag k="name" v="Gammeloksen" />
		<tag k="natural" v="hill" />
		<tag k="place" v="locality" />
		<tag k="ssr:stedsnr" v="924319" />
	</node>
	<node id="-902571" lat="64.3712000044" lon="11.2573000096">
		<tag k="alt_name" v="Breivikskaret" />
		<tag k="name" v="Breidvikskardet" />
		<tag k="natural" v="valley" />
		<tag k="place" v="locality" />
		<tag k="ssr:stedsnr" v="681934" />
	</node>
	<node id="-902570" lat="64.2796722233" lon="11.1618472252">
		<tag k="name" v="Bjørnadalskaret" />
		<tag k="natural" v="valley" />
		<tag k="place" v="locality" />
		<tag k="ssr:stedsnr" v="303318" />
	</node>
	<node id="-902567" lat="64.4649000034" lon="11.1590722124">
		<tag k="fixme" v="consider natural=peak for the most distinct mountains in the district" />
		<tag k="name" v="Krikfjellet" />
		<tag k="natural" v="hill" />
		<tag k="place" v="locality" />
		<tag k="ssr:stedsnr" v="776374" />
	</node>
	<node id="-902564" lat="64.3355361092" lon="11.2948000008">
		<tag k="name" v="Fuglleikhaugan" />
		<tag k="natural" v="hill" />
		<tag k="place" v="locality" />
		<tag k="ssr:stedsnr" v="511289" />
	</node>
	<node id="-902561" lat="64.4941833342" lon="11.1226749979">
		<tag k="name" v="Bøverdalen" />
		<tag k="natural" v="valley" />
		<tag k="place" v="locality" />
		<tag k="ssr:stedsnr" v="317378" />
	</node>
	<node id="-902560" lat="64.3366472232" lon="11.1900944535">
		<tag k="name" v="Seterheia" />
		<tag k="natural" v="ridge" />
		<tag k="place" v="locality" />
		<tag k="ssr:stedsnr" v="402171" />
	</node>
	<node id="-902559" lat="64.2990472263" lon="11.1736972224">
		<tag k="fixme" v="consider natural=peak for the most distinct mountains in the district" />
		<tag k="name" v="Sørheia" />
		<tag k="natural" v="hill" />
		<tag k="place" v="locality" />
		<tag k="ssr:stedsnr" v="135153" />
	</node>
	<node id="-902558" lat="64.2476277808" lon="10.9744444369">
		<tag k="fixme" v="consider natural=peak for the most distinct mountains in the district" />
		<tag k="name" v="Svartlonkammen" />
		<tag k="natural" v="hill" />
		<tag k="place" v="locality" />
		<tag k="ssr:stedsnr" v="863742" />
	</node>
	<node id="-902556" lat="64.3373722186" lon="11.1987527692">
		<tag k="name" v="Kleivaklompen" />
		<tag k="natural" v="ridge" />
		<tag k="place" v="locality" />
		<tag k="ssr:stedsnr" v="402172" />
	</node>
	<node id="-902554" lat="64.3066555518" lon="11.1942555467">
		<tag k="name" v="Styggdalen" />
		<tag k="natural" v="valley" />
		<tag k="place" v="locality" />
		<tag k="ssr:stedsnr" v="584206" />
	</node>
	<node id="-902553" lat="64.4888583343" lon="11.107008327">
		<tag k="name" v="Klokkatreskulen" />
		<tag k="natural" v="hill" />
		<tag k="place" v="locality" />
		<tag k="ssr:stedsnr" v="317369" />
	</node>
	<node id="-902552" lat="64.2295361155" lon="11.2957583382">
		<tag k="fixme" v="consider natural=peak for the most distinct mountains in the district" />
		<tag k="name" v="Tjønnsåsen" />
		<tag k="natural" v="hill" />
		<tag k="place" v="locality" />
		<tag k="ssr:stedsnr" v="317895" />
	</node>
	<node id="-902551" lat="64.2394277759" lon="11.1360277756">
		<tag k="name" v="Henrikholet" />
		<tag k="natural" v="valley" />
		<tag k="place" v="locality" />
		<tag k="ssr:stedsnr" v="534961" />
	</node>
	<node id="-902550" lat="64.1527777738" lon="11.1905083352">
		<tag k="name" v="Hoåsdalsberga" />
		<tag k="natural" v="hill" />
		<tag k="place" v="locality" />
		<tag k="ssr:stedsnr" v="160311" />
	</node>
	<node id="-902549" lat="64.3976833337" lon="11.2242027757">
		<tag k="name" v="Vasslia" />
		<tag k="natural" v="slope" />
		<tag k="place" v="locality" />
		<tag k="ssr:stedsnr" v="620086" />
	</node>
	<node id="-902542" lat="64.2288444444" lon="11.1601833406">
		<tag k="name" v="Skogkjerringholet" />
		<tag k="natural" v="valley" />
		<tag k="place" v="locality" />
		<tag k="ssr:stedsnr" v="837964" />
	</node>
	<node id="-902539" lat="64.263236111" lon="11.0582694403">
		<tag k="name" v="Halvtynnhaugen" />
		<tag k="natural" v="hill" />
		<tag k="place" v="locality" />
		<tag k="ssr:stedsnr" v="257164" />
	</node>
	<node id="-902530" lat="64.2456555528" lon="11.1999555594">
		<tag k="name" v="Middagshaugen" />
		<tag k="natural" v="hill" />
		<tag k="place" v="locality" />
		<tag k="ssr:stedsnr" v="342258" />
	</node>
	<node id="-902529" lat="64.4818305584" lon="11.1869388934">
		<tag k="fixme" v="consider natural=peak for the most distinct mountains in the district" />
		<tag k="name" v="Vindhammaren" />
		<tag k="natural" v="hill" />
		<tag k="place" v="locality" />
		<tag k="ssr:stedsnr" v="533418" />
	</node>
	<node id="-902528" lat="64.2110444462" lon="11.1329666634">
		<tag k="name" v="Mefjelldalen" />
		<tag k="natural" v="valley" />
		<tag k="place" v="locality" />
		<tag k="ssr:stedsnr" v="473527" />
	</node>
	<node id="-902515" lat="64.4508777771" lon="11.2931666759">
		<tag k="name" v="Høgdin" />
		<tag k="natural" v="slope" />
		<tag k="place" v="locality" />
		<tag k="ssr:stedsnr" v="230727" />
	</node>
	<node id="-902514" lat="64.1867638896" lon="11.3173500052">
		<tag k="name" v="Storbakken" />
		<tag k="natural" v="hill" />
		<tag k="place" v="locality" />
		<tag k="ssr:stedsnr" v="472745" />
	</node>
	<node id="-902513" lat="64.2569138872" lon="11.1430722297">
		<tag k="name" v="Brennhaugen" />
		<tag k="natural" v="hill" />
		<tag k="place" v="locality" />
		<tag k="ssr:stedsnr" v="439215" />
	</node>
	<node id="-902498" lat="64.5018777771" lon="11.125908343">
		<tag k="name" v="Djupdalen" />
		<tag k="natural" v="valley" />
		<tag k="place" v="locality" />
		<tag k="ssr:stedsnr" v="776362" />
	</node>
	<node id="-902497" lat="64.4503305556" lon="11.1497638938">
		<tag k="fixme" v="consider natural=peak for the most distinct mountains in the district" />
		<tag k="name" v="Tjønnaåsen" />
		<tag k="natural" v="hill" />
		<tag k="place" v="locality" />
		<tag k="ssr:stedsnr" v="958199" />
	</node>
	<node id="-902493" lat="64.5300527792" lon="11.0734138879">
		<tag k="name" v="Prekstolen" />
		<tag k="natural" v="hill" />
		<tag k="place" v="locality" />
		<tag k="ssr:stedsnr" v="378692" />
	</node>
	<node id="-902490" lat="64.2556916645" lon="11.1630444421">
		<tag k="name" v="Haugberget" />
		<tag k="natural" v="hill" />
		<tag k="place" v="locality" />
		<tag k="ssr:stedsnr" v="473892" />
	</node>
	<node id="-902489" lat="64.1385749992" lon="10.8617055548">
		<tag k="fixme" v="multiple name tags, choose one and add the other to alt_name; consider natural=peak for the most distinct mountains in the district" />
		<tag k="name" v="Vestre Oksheia;Oksheia" />
		<tag k="natural" v="hill" />
		<tag k="place" v="locality" />
		<tag k="ssr:stedsnr" v="377596" />
	</node>
	<node id="-902487" lat="64.2690499984" lon="11.2970388806">
		<tag k="name" v="Vassmoen" />
		<tag k="place" v="locality" />
		<tag k="ssr:stedsnr" v="655313" />
	</node>
	<node id="-902486" lat="64.3306861103" lon="11.1964666751">
		<tag k="name" v="Hevikklompen" />
		<tag k="natural" v="hill" />
		<tag k="place" v="locality" />
		<tag k="ssr:stedsnr" v="584196" />
	</node>
	<node id="-902481" lat="64.4802611145" lon="11.1222611014">
		<tag k="name" v="Storkleiva" />
		<tag k="natural" v="slope" />
		<tag k="place" v="locality" />
		<tag k="ssr:stedsnr" v="351382" />
	</node>
	<node id="-902477" lat="64.2380694438" lon="11.1643083373">
		<tag k="name" v="Åskjerringa" />
		<tag k="natural" v="hill" />
		<tag k="place" v="locality" />
		<tag k="ssr:stedsnr" v="837967" />
	</node>
	<node id="-902474" lat="64.3873499985" lon="11.1833305609">
		<tag k="fixme" v="consider natural=peak for the most distinct mountains in the district" />
		<tag k="name" v="Kariengskulen" />
		<tag k="natural" v="hill" />
		<tag k="place" v="locality" />
		<tag k="ssr:stedsnr" v="560288" />
	</node>
	<node id="-902468" lat="64.2832694451" lon="11.1475666592">
		<tag k="name" v="Kårdalen" />
		<tag k="natural" v="valley" />
		<tag k="place" v="locality" />
		<tag k="ssr:stedsnr" v="291925" />
	</node>
	<node id="-902467" lat="64.2062694457" lon="11.1333277735">
		<tag k="fixme" v="consider natural=peak for the most distinct mountains in the district" />
		<tag k="name" v="Bøgsethesten" />
		<tag k="natural" v="hill" />
		<tag k="place" v="locality" />
		<tag k="ssr:stedsnr" v="681675" />
	</node>
	<node id="-902464" lat="64.4696499998" lon="11.163761118">
		<tag k="fixme" v="consider natural=peak for the most distinct mountains in the district" />
		<tag k="name" v="Breivikfjellet" />
		<tag k="natural" v="hill" />
		<tag k="place" v="locality" />
		<tag k="ssr:stedsnr" v="924340" />
	</node>
	<node id="-902463" lat="64.4566722261" lon="11.1713861129">
		<tag k="name" v="Tafsholet" />
		<tag k="natural" v="valley" />
		<tag k="place" v="locality" />
		<tag k="ssr:stedsnr" v="594182" />
	</node>
	<node id="-902462" lat="64.2444611137" lon="11.274013892">
		<tag k="name" v="Lisskleivtrappen" />
		<tag k="natural" v="hill" />
		<tag k="place" v="locality" />
		<tag k="ssr:stedsnr" v="99266" />
	</node>
	<node id="-902457" lat="64.212588887" lon="11.4209361188">
		<tag k="name" v="Buenget" />
		<tag k="place" v="locality" />
		<tag k="ssr:stedsnr" v="109654" />
	</node>
	<node id="-902455" lat="64.4475694413" lon="11.1335611128">
		<tag k="name" v="Finnholet" />
		<tag k="natural" v="valley" />
		<tag k="place" v="locality" />
		<tag k="ssr:stedsnr" v="594162" />
	</node>
	<node id="-902452" lat="64.2093500035" lon="11.3061777802">
		<tag k="name" v="Tronghalsen" />
		<tag k="natural" v="valley" />
		<tag k="place" v="locality" />
		<tag k="ssr:stedsnr" v="342277" />
	</node>
	<node id="-902451" lat="64.233427774" lon="11.3209999979">
		<tag k="name" v="Berrehaugberget" />
		<tag k="natural" v="hill" />
		<tag k="place" v="locality" />
		<tag k="ssr:stedsnr" v="99255" />
	</node>
	<node id="-902449" lat="64.4326111109" lon="11.260588899">
		<tag k="name" v="Fossan" />
		<tag k="natural" v="hill" />
		<tag k="place" v="locality" />
		<tag k="ssr:stedsnr" v="351812" />
	</node>
	<node id="-902446" lat="64.4856999983" lon="11.1594055656">
		<tag k="name" v="Revholet" />
		<tag k="natural" v="valley" />
		<tag k="place" v="locality" />
		<tag k="ssr:stedsnr" v="290352" />
	</node>
	<node id="-902445" lat="64.1972749957" lon="11.1548499993">
		<tag k="name" v="Brannhaugen" />
		<tag k="natural" v="hill" />
		<tag k="place" v="locality" />
		<tag k="ssr:stedsnr" v="291524" />
	</node>
	<node id="-902444" lat="64.2405472179" lon="11.3586027869">
		<tag k="name" v="Limhaugen" />
		<tag k="natural" v="hill" />
		<tag k="place" v="locality" />
		<tag k="ssr:stedsnr" v="99261" />
	</node>
	<node id="-902440" lat="64.3582055597" lon="11.0798000042">
		<tag k="name" v="Seterklumpen" />
		<tag k="natural" v="hill" />
		<tag k="place" v="locality" />
		<tag k="ssr:stedsnr" v="14363" />
	</node>
	<node id="-902434" lat="64.1887472215" lon="10.7973305453">
		<tag k="fixme" v="consider natural=peak for the most distinct mountains in the district" />
		<tag k="name" v="Samsonheia" />
		<tag k="natural" v="hill" />
		<tag k="place" v="locality" />
		<tag k="ssr:stedsnr" v="14626" />
	</node>
	<node id="-902433" lat="64.3105583299" lon="11.2451583313">
		<tag k="name" v="Dalavikheia" />
		<tag k="natural" v="hill" />
		<tag k="place" v="locality" />
		<tag k="ssr:stedsnr" v="317878" />
	</node>
	<node id="-902430" lat="64.308180558" lon="11.2924333434">
		<tag k="name" v="Urddalen" />
		<tag k="natural" v="valley" />
		<tag k="place" v="locality" />
		<tag k="ssr:stedsnr" v="256882" />
	</node>
	<node id="-902427" lat="64.2447194487" lon="11.1808055506">
		<tag k="name" v="Bukkabakken" />
		<tag k="natural" v="slope" />
		<tag k="place" v="locality" />
		<tag k="ssr:stedsnr" v="767261" />
	</node>
	<node id="-902425" lat="64.2281055556" lon="11.1448277863">
		<tag k="fixme" v="consider natural=peak for the most distinct mountains in the district" />
		<tag k="name" v="Fugllia" />
		<tag k="natural" v="hill" />
		<tag k="place" v="locality" />
		<tag k="ssr:stedsnr" v="257696" />
	</node>
	<node id="-902424" lat="64.5112750035" lon="11.0430916695">
		<tag k="fixme" v="consider natural=peak for the most distinct mountains in the district" />
		<tag k="name" v="Dyrstifjellet" />
		<tag k="natural" v="hill" />
		<tag k="place" v="locality" />
		<tag k="ssr:stedsnr" v="15734" />
	</node>
	<node id="-902423" lat="64.2499305543" lon="11.0673305501">
		<tag k="name" v="Vargdalen" />
		<tag k="natural" v="valley" />
		<tag k="place" v="locality" />
		<tag k="ssr:stedsnr" v="837941" />
	</node>
	<node id="-902421" lat="64.4303027789" lon="11.1417999981">
		<tag k="name" v="Nonsaksla" />
		<tag k="natural" v="hill" />
		<tag k="place" v="locality" />
		<tag k="ssr:stedsnr" v="14362" />
	</node>
	<node id="-902420" lat="64.1867388917" lon="11.1458888799">
		<tag k="name" v="Skaudalen" />
		<tag k="natural" v="valley" />
		<tag k="place" v="locality" />
		<tag k="ssr:stedsnr" v="317611" />
	</node>
	<node id="-902416" lat="64.1914055535" lon="10.9232000006">
		<tag k="fixme" v="consider natural=peak for the most distinct mountains in the district" />
		<tag k="name" v="Steinbekkheia" />
		<tag k="natural" v="hill" />
		<tag k="place" v="locality" />
		<tag k="ssr:stedsnr" v="317618" />
	</node>
	<node id="-902415" lat="64.3073277755" lon="11.261716666">
		<tag k="name" v="Seterhaugen" />
		<tag k="natural" v="hill" />
		<tag k="place" v="locality" />
		<tag k="ssr:stedsnr" v="655322" />
	</node>
	<node id="-902413" lat="64.1677055592" lon="11.3459916736">
		<tag k="fixme" v="consider natural=peak for the most distinct mountains in the district" />
		<tag k="name" v="Tømtåsen" />
		<tag k="natural" v="hill" />
		<tag k="place" v="locality" />
		<tag k="ssr:stedsnr" v="472718" />
	</node>
	<node id="-902409" lat="64.326780559" lon="11.257924995">
		<tag k="name" v="Storvikheia" />
		<tag k="natural" v="hill" />
		<tag k="place" v="locality" />
		<tag k="ssr:stedsnr" v="620870" />
	</node>
	<node id="-902408" lat="64.1916861108" lon="11.203305563">
		<tag k="name" v="Sølvberget" />
		<tag k="natural" v="hill" />
		<tag k="place" v="locality" />
		<tag k="ssr:stedsnr" v="524292" />
	</node>
	<node id="-902400" lat="64.3063138855" lon="11.2945916637">
		<tag k="name" v="Nord - Urdalen" />
		<tag k="natural" v="valley" />
		<tag k="place" v="locality" />
		<tag k="ssr:stedsnr" v="655320" />
	</node>
	<node id="-902397" lat="64.2104555577" lon="10.9115583383">
		<tag k="name" v="Bjørkvassdalen" />
		<tag k="natural" v="valley" />
		<tag k="place" v="locality" />
		<tag k="ssr:stedsnr" v="74668" />
	</node>
	<node id="-902395" lat="64.2655500025" lon="11.3087277845">
		<tag k="name" v="Seterhaugen" />
		<tag k="natural" v="hill" />
		<tag k="place" v="locality" />
		<tag k="ssr:stedsnr" v="643233" />
	</node>
	<node id="-902392" lat="64.2098055524" lon="10.9511000034">
		<tag k="name" v="Fagerdalen" />
		<tag k="natural" v="valley" />
		<tag k="place" v="locality" />
		<tag k="ssr:stedsnr" v="317606" />
	</node>
	<node id="-902391" lat="64.137400003" lon="10.8382583259">
		<tag k="fixme" v="consider natural=peak for the most distinct mountains in the district" />
		<tag k="name" v="Høgkolvheia" />
		<tag k="natural" v="hill" />
		<tag k="place" v="locality" />
		<tag k="ssr:stedsnr" v="620579" />
	</node>
	<node id="-902388" lat="64.4425861146" lon="11.2891111101">
		<tag k="name" v="Kjeftan" />
		<tag k="natural" v="hill" />
		<tag k="place" v="locality" />
		<tag k="ssr:stedsnr" v="351751" />
	</node>
	<node id="-902387" lat="64.2497361097" lon="11.1473805496">
		<tag k="name" v="Svartholdalen" />
		<tag k="natural" v="valley" />
		<tag k="place" v="locality" />
		<tag k="ssr:stedsnr" v="594871" />
	</node>
	<node id="-902386" lat="64.220499998" lon="11.019636101">
		<tag k="name" v="Storlidalen" />
		<tag k="natural" v="valley" />
		<tag k="place" v="locality" />
		<tag k="ssr:stedsnr" v="74663" />
	</node>
	<node id="-902384" lat="64.4973611088" lon="11.1437166597">
		<tag k="name" v="Sjøhaugen" />
		<tag k="natural" v="hill" />
		<tag k="place" v="locality" />
		<tag k="ssr:stedsnr" v="533377" />
	</node>
	<node id="-902382" lat="64.3764500013" lon="11.1657361143">
		<tag k="name" v="Skardshaugen" />
		<tag k="natural" v="hill" />
		<tag k="place" v="locality" />
		<tag k="ssr:stedsnr" v="13280" />
	</node>
	<node id="-902381" lat="64.4260305541" lon="11.1183583245">
		<tag k="name" v="Granheikleiva" />
		<tag k="natural" v="slope" />
		<tag k="place" v="locality" />
		<tag k="ssr:stedsnr" v="412152" />
	</node>
	<node id="-902379" lat="64.4839527798" lon="11.1492083235">
		<tag k="name" v="Masterskaret" />
		<tag k="natural" v="valley" />
		<tag k="place" v="locality" />
		<tag k="ssr:stedsnr" v="533381" />
	</node>
	<node id="-902378" lat="64.2674444469" lon="11.2294944406">
		<tag k="name" v="Raudskredet" />
		<tag k="natural" v="valley" />
		<tag k="place" v="locality" />
		<tag k="ssr:stedsnr" v="620846" />
	</node>
	<node id="-902376" lat="64.2457638851" lon="11.1276250014">
		<tag k="name" v="Monsslættklumpen" />
		<tag k="natural" v="hill" />
		<tag k="place" v="locality" />
		<tag k="ssr:stedsnr" v="196727" />
	</node>
	<node id="-902375" lat="64.1584027744" lon="11.1847027873">
		<tag k="name" v="Hoåsdalen" />
		<tag k="natural" v="valley" />
		<tag k="place" v="locality" />
		<tag k="ssr:stedsnr" v="766347" />
	</node>
	<node id="-902371" lat="64.2641027745" lon="11.23541112">
		<tag k="name" v="Musaskaret" />
		<tag k="natural" v="valley" />
		<tag k="place" v="locality" />
		<tag k="ssr:stedsnr" v="342209" />
	</node>
	<node id="-902370" lat="64.4914833324" lon="11.1207055618">
		<tag k="name" v="Klokkafirskulen" />
		<tag k="natural" v="hill" />
		<tag k="place" v="locality" />
		<tag k="ssr:stedsnr" v="742382" />
	</node>
	<node id="-902369" lat="64.4232638927" lon="11.2230777807">
		<tag k="name" v="Fuglleikspissen" />
		<tag k="place" v="locality" />
		<tag k="ssr:stedsnr" v="742103" />
	</node>
	<node id="-902365" lat="64.3855250038" lon="11.1314277739">
		<tag k="name" v="Rognliaksla" />
		<tag k="natural" v="hill" />
		<tag k="place" v="locality" />
		<tag k="ssr:stedsnr" v="75473" />
	</node>
	<node id="-902362" lat="64.1647166622" lon="11.1341527873">
		<tag k="name" v="Heimkjørdalen" />
		<tag k="natural" v="valley" />
		<tag k="place" v="locality" />
		<tag k="ssr:stedsnr" v="654495" />
	</node>
	<node id="-902360" lat="64.4762583302" lon="11.1460527798">
		<tag k="name" v="Groftholet" />
		<tag k="natural" v="valley" />
		<tag k="place" v="locality" />
		<tag k="ssr:stedsnr" v="533384" />
	</node>
	<node id="-902359" lat="64.2749000023" lon="11.0322805533">
		<tag k="fixme" v="consider natural=peak for the most distinct mountains in the district" />
		<tag k="name" v="Lissøyensskavlen - Onne Båeriesvaerie" />
		<tag k="name:no" v="Lissøyensskavlen" />
		<tag k="name:sma" v="Onne Båeriesvaerie" />
		<tag k="natural" v="hill" />
		<tag k="place" v="locality" />
		<tag k="ssr:stedsnr" v="135120" />
	</node>
	<node id="-902356" lat="64.3448611067" lon="11.20893611">
		<tag k="fixme" v="consider natural=peak for the most distinct mountains in the district" />
		<tag k="name" v="Munkhammarfjellet" />
		<tag k="natural" v="hill" />
		<tag k="place" v="locality" />
		<tag k="ssr:stedsnr" v="620319" />
	</node>
	<node id="-902354" lat="64.1527833356" lon="10.9532444538">
		<tag k="name" v="Grashaugen" />
		<tag k="natural" v="hill" />
		<tag k="place" v="locality" />
		<tag k="ssr:stedsnr" v="350563" />
	</node>
	<node id="-902353" lat="64.3685083314" lon="11.2635916579">
		<tag k="name" v="Bukkaknappen" />
		<tag k="natural" v="hill" />
		<tag k="place" v="locality" />
		<tag k="ssr:stedsnr" v="559955" />
	</node>
	<node id="-902350" lat="64.2668611148" lon="11.1806777714">
		<tag k="name" v="Kristianrommet" />
		<tag k="place" v="locality" />
		<tag k="ssr:stedsnr" v="767215" />
	</node>
	<node id="-902347" lat="64.4405972224" lon="11.177166665">
		<tag k="name" v="Skulberget" />
		<tag k="natural" v="hill" />
		<tag k="place" v="locality" />
		<tag k="ssr:stedsnr" v="534163" />
	</node>
	<node id="-902343" lat="64.168000001" lon="11.3008666627">
		<tag k="name" v="Vålitrappen" />
		<tag k="natural" v="slope" />
		<tag k="place" v="locality" />
		<tag k="ssr:stedsnr" v="524282" />
	</node>
	<node id="-902342" lat="64.3376888923" lon="11.1624861194">
		<tag k="name" v="Kallhammaren" />
		<tag k="natural" v="hill" />
		<tag k="place" v="locality" />
		<tag k="ssr:stedsnr" v="620317" />
	</node>
	<node id="-902336" lat="64.3032611126" lon="11.250086119">
		<tag k="name" v="Durmålsdalen" />
		<tag k="natural" v="valley" />
		<tag k="place" v="locality" />
		<tag k="ssr:stedsnr" v="351347" />
	</node>
	<node id="-902334" lat="64.1599138899" lon="11.0820166643">
		<tag k="name" v="Holvasslikammen" />
		<tag k="natural" v="ridge" />
		<tag k="place" v="locality" />
		<tag k="ssr:stedsnr" v="775554" />
	</node>
	<node id="-902329" lat="64.3514416668" lon="11.2401888937">
		<tag k="name" v="Øvre Fevikhaugen" />
		<tag k="natural" v="hill" />
		<tag k="place" v="locality" />
		<tag k="ssr:stedsnr" v="803969" />
	</node>
	<node id="-902327" lat="64.3616277809" lon="11.1495027775">
		<tag k="alt_name" v="Treklompen" />
		<tag k="name" v="Treklumpen" />
		<tag k="natural" v="hill" />
		<tag k="place" v="locality" />
		<tag k="ssr:stedsnr" v="317337" />
	</node>
	<node id="-902326" lat="64.2222305547" lon="11.4269694524">
		<tag k="name" v="Austerenget" />
		<tag k="place" v="locality" />
		<tag k="ssr:stedsnr" v="655686" />
	</node>
	<node id="-902320" lat="64.1532416626" lon="11.029672213">
		<tag k="name" v="Oluflia" />
		<tag k="natural" v="slope" />
		<tag k="place" v="locality" />
		<tag k="ssr:stedsnr" v="775550" />
	</node>
	<node id="-902312" lat="64.3462277803" lon="11.2804611032">
		<tag k="name" v="Liaberget" />
		<tag k="natural" v="hill" />
		<tag k="place" v="locality" />
		<tag k="ssr:stedsnr" v="256866" />
	</node>
	<node id="-902308" lat="64.2176722186" lon="11.2504305652">
		<tag k="alt_name" v="Svartåsen" />
		<tag k="name" v="Svartåsberget" />
		<tag k="natural" v="hill" />
		<tag k="place" v="locality" />
		<tag k="ssr:stedsnr" v="742923" />
	</node>
	<node id="-902306" lat="64.3525777788" lon="11.067002771">
		<tag k="fixme" v="consider natural=peak for the most distinct mountains in the district" />
		<tag k="name" v="Storlifjellet" />
		<tag k="natural" v="hill" />
		<tag k="place" v="locality" />
		<tag k="ssr:stedsnr" v="620329" />
	</node>
	<node id="-902305" lat="64.4738694419" lon="11.1681555621">
		<tag k="name" v="Oterdalen" />
		<tag k="natural" v="valley" />
		<tag k="place" v="locality" />
		<tag k="ssr:stedsnr" v="169387" />
	</node>
	<node id="-902304" lat="64.2655888868" lon="11.3746027808">
		<tag k="name" v="Reinfjelldalen" />
		<tag k="natural" v="valley" />
		<tag k="place" v="locality" />
		<tag k="ssr:stedsnr" v="620853" />
	</node>
	<node id="-902302" lat="64.1720222191" lon="11.3371638888">
		<tag k="name" v="Tretthalsen" />
		<tag k="natural" v="valley" />
		<tag k="place" v="locality" />
		<tag k="ssr:stedsnr" v="290681" />
	</node>
	<node id="-902299" lat="64.2122777821" lon="11.1629944503">
		<tag k="name" v="Langmyrberget" />
		<tag k="natural" v="hill" />
		<tag k="place" v="locality" />
		<tag k="ssr:stedsnr" v="742652" />
	</node>
	<node id="-902298" lat="64.1617861134" lon="10.8557833351">
		<tag k="name" v="Nonshaugen" />
		<tag k="natural" v="hill" />
		<tag k="place" v="locality" />
		<tag k="ssr:stedsnr" v="837511" />
	</node>
	<node id="-902296" lat="64.2575888921" lon="11.0634249913">
		<tag k="alt_name" v="Granmyrhaugseteren" />
		<tag k="name" v="Granmyrhaugen" />
		<tag k="natural" v="hill" />
		<tag k="place" v="locality" />
		<tag k="ssr:stedsnr" v="560228" />
	</node>
	<node id="-902295" lat="64.2649638898" lon="11.3381833273">
		<tag k="fixme" v="consider natural=peak for the most distinct mountains in the district" />
		<tag k="name" v="Svartåsen" />
		<tag k="natural" v="hill" />
		<tag k="place" v="locality" />
		<tag k="ssr:stedsnr" v="620851" />
	</node>
	<node id="-902294" lat="64.3014416644" lon="10.9829638803">
		<tag k="name" v="Bårdsbakken" />
		<tag k="natural" v="hill" />
		<tag k="place" v="locality" />
		<tag k="ssr:stedsnr" v="196174" />
	</node>
	<node id="-902285" lat="64.3655916695" lon="11.2592444503">
		<tag k="fixme" v="consider natural=peak for the most distinct mountains in the district" />
		<tag k="name" v="Ramsfjellet" />
		<tag k="natural" v="hill" />
		<tag k="place" v="locality" />
		<tag k="ssr:stedsnr" v="196992" />
	</node>
	<node id="-902284" lat="64.1915750021" lon="11.3207027695">
		<tag k="fixme" v="consider natural=peak for the most distinct mountains in the district" />
		<tag k="name" v="Nipheia" />
		<tag k="natural" v="hill" />
		<tag k="place" v="locality" />
		<tag k="ssr:stedsnr" v="351742" />
	</node>
	<node id="-902283" lat="64.4743333344" lon="11.1475388974">
		<tag k="name" v="Kjellaren" />
		<tag k="natural" v="valley" />
		<tag k="place" v="locality" />
		<tag k="ssr:stedsnr" v="169384" />
	</node>
	<node id="-902281" lat="64.2279722266" lon="11.1391750022">
		<tag k="name" v="Langheia" />
		<tag k="natural" v="ridge" />
		<tag k="place" v="locality" />
		<tag k="ssr:stedsnr" v="958969" />
	</node>
	<node id="-902279" lat="64.431261113" lon="11.3243833275">
		<tag k="name" v="Oterdalshaugen" />
		<tag k="natural" v="hill" />
		<tag k="place" v="locality" />
		<tag k="ssr:stedsnr" v="742085" />
	</node>
	<node id="-902278" lat="64.3776277752" lon="11.2482277723">
		<tag k="fixme" v="consider natural=peak for the most distinct mountains in the district" />
		<tag k="name" v="Brennåsfjellet" />
		<tag k="natural" v="hill" />
		<tag k="place" v="locality" />
		<tag k="ssr:stedsnr" v="863959" />
	</node>
	<node id="-902277" lat="64.1706583329" lon="11.209522216">
		<tag k="name" v="Norddalen" />
		<tag k="natural" v="valley" />
		<tag k="place" v="locality" />
		<tag k="ssr:stedsnr" v="645339" />
	</node>
	<node id="-902273" lat="64.1584666632" lon="11.2148555629">
		<tag k="fixme" v="consider natural=peak for the most distinct mountains in the district" />
		<tag k="name" v="Slettfjellhalla" />
		<tag k="natural" v="hill" />
		<tag k="place" v="locality" />
		<tag k="ssr:stedsnr" v="38378" />
	</node>
	<node id="-902271" lat="64.4786999993" lon="11.1583972239">
		<tag k="fixme" v="consider natural=peak for the most distinct mountains in the district" />
		<tag k="name" v="Hjartvikfjellet" />
		<tag k="natural" v="hill" />
		<tag k="place" v="locality" />
		<tag k="ssr:stedsnr" v="135388" />
	</node>
	<node id="-902270" lat="64.2337250011" lon="11.5218833265">
		<tag k="name" v="Tømmerdalen" />
		<tag k="natural" v="valley" />
		<tag k="place" v="locality" />
		<tag k="ssr:stedsnr" v="473462" />
	</node>
	<node id="-902268" lat="64.231905558" lon="10.9265583405">
		<tag k="alt_name" v="Meungklompen" />
		<tag k="fixme" v="consider natural=peak for the most distinct mountains in the district" />
		<tag k="name" v="Meungklumpen" />
		<tag k="natural" v="hill" />
		<tag k="place" v="locality" />
		<tag k="ssr:stedsnr" v="317587" />
	</node>
	<node id="-902264" lat="64.3605916638" lon="11.1904527847">
		<tag k="name" v="Ellevhaugen" />
		<tag k="natural" v="hill" />
		<tag k="place" v="locality" />
		<tag k="ssr:stedsnr" v="438365" />
	</node>
	<node id="-902263" lat="64.2317194424" lon="11.430858332">
		<tag k="name" v="Sagbakken" />
		<tag k="natural" v="slope" />
		<tag k="place" v="locality" />
		<tag k="ssr:stedsnr" v="230667" />
	</node>
	<node id="-902262" lat="64.2893750027" lon="11.2742499905">
		<tag k="name" v="Storheia" />
		<tag k="natural" v="hill" />
		<tag k="place" v="locality" />
		<tag k="ssr:stedsnr" v="776308" />
	</node>
	<node id="-902259" lat="64.2710666677" lon="11.0773138864">
		<tag k="name" v="Stordalen" />
		<tag k="natural" v="valley" />
		<tag k="place" v="locality" />
		<tag k="ssr:stedsnr" v="958937" />
	</node>
	<node id="-902256" lat="64.2620444429" lon="11.3130277835">
		<tag k="name" v="Langmyrhaugen" />
		<tag k="natural" v="hill" />
		<tag k="place" v="locality" />
		<tag k="ssr:stedsnr" v="280164" />
	</node>
	<node id="-902253" lat="64.1689194458" lon="10.8155166743">
		<tag k="name" v="Liin" />
		<tag k="natural" v="slope" />
		<tag k="place" v="locality" />
		<tag k="ssr:stedsnr" v="534523" />
	</node>
	<node id="-902252" lat="64.2749388861" lon="11.3253777735">
		<tag k="name" v="Lauvhaugen" />
		<tag k="natural" v="hill" />
		<tag k="place" v="locality" />
		<tag k="ssr:stedsnr" v="776310" />
	</node>
	<node id="-902251" lat="64.2960499992" lon="11.3288138796">
		<tag k="fixme" v="consider natural=peak for the most distinct mountains in the district" />
		<tag k="name" v="Urdalsskulin" />
		<tag k="natural" v="hill" />
		<tag k="place" v="locality" />
		<tag k="ssr:stedsnr" v="959311" />
	</node>
	<node id="-902250" lat="64.1928222216" lon="11.1079611078">
		<tag k="name" v="Bjørkholet" />
		<tag k="natural" v="valley" />
		<tag k="place" v="locality" />
		<tag k="ssr:stedsnr" v="958536" />
	</node>
	<node id="-902246" lat="64.1722805573" lon="11.1959777789">
		<tag k="fixme" v="consider natural=peak for the most distinct mountains in the district" />
		<tag k="name" v="Strandaåsen" />
		<tag k="natural" v="hill" />
		<tag k="place" v="locality" />
		<tag k="ssr:stedsnr" v="645331" />
	</node>
	<node id="-902243" lat="64.2262472219" lon="11.1206250094">
		<tag k="name" v="Urdalen" />
		<tag k="natural" v="valley" />
		<tag k="place" v="locality" />
		<tag k="ssr:stedsnr" v="109950" />
	</node>
	<node id="-902233" lat="64.2735722249" lon="11.3482916689">
		<tag k="name" v="Huslemhøgda" />
		<tag k="natural" v="hill" />
		<tag k="place" v="locality" />
		<tag k="ssr:stedsnr" v="681882" />
	</node>
	<node id="-902232" lat="64.2492805517" lon="11.2828944372">
		<tag k="name" v="Kaldvassholet" />
		<tag k="natural" v="valley" />
		<tag k="place" v="locality" />
		<tag k="ssr:stedsnr" v="826223" />
	</node>
	<node id="-902230" lat="64.2440111117" lon="11.1514972326">
		<tag k="name" v="Storåskammen" />
		<tag k="natural" v="ridge" />
		<tag k="place" v="locality" />
		<tag k="ssr:stedsnr" v="109955" />
	</node>
	<node id="-902222" lat="64.266186111" lon="11.0168972236">
		<tag k="name" v="Bessfarhalsen" />
		<tag k="natural" v="valley" />
		<tag k="place" v="locality" />
		<tag k="ssr:stedsnr" v="412911" />
	</node>
	<node id="-902217" lat="64.2139166624" lon="11.1350611064">
		<tag k="name" v="Kjerringheia" />
		<tag k="natural" v="hill" />
		<tag k="place" v="locality" />
		<tag k="ssr:stedsnr" v="81364" />
	</node>
	<node id="-902216" lat="64.1769888872" lon="11.3526805506">
		<tag k="name" v="Storhaugen" />
		<tag k="natural" v="hill" />
		<tag k="place" v="locality" />
		<tag k="ssr:stedsnr" v="351712" />
	</node>
	<node id="-902215" lat="64.4407361111" lon="11.0749027675">
		<tag k="fixme" v="consider natural=peak for the most distinct mountains in the district" />
		<tag k="name" v="Kjerklifjellet" />
		<tag k="natural" v="hill" />
		<tag k="place" v="locality" />
		<tag k="ssr:stedsnr" v="196429" />
	</node>
	<node id="-902211" lat="64.3304416623" lon="11.2581833346">
		<tag k="alt_name" v="Andskaret" />
		<tag k="name" v="Andskardet" />
		<tag k="natural" v="valley" />
		<tag k="place" v="locality" />
		<tag k="ssr:stedsnr" v="14864" />
	</node>
	<node id="-902209" lat="64.1739444411" lon="11.2621444391">
		<tag k="name" v="Taterhaugen" />
		<tag k="natural" v="hill" />
		<tag k="place" v="locality" />
		<tag k="ssr:stedsnr" v="645348" />
	</node>
	<node id="-902207" lat="64.4763583331" lon="11.0885611203">
		<tag k="name" v="Jonsokhatten" />
		<tag k="natural" v="hill" />
		<tag k="place" v="locality" />
		<tag k="ssr:stedsnr" v="324472" />
	</node>
	<node id="-902206" lat="64.1751361075" lon="10.8412916599">
		<tag k="name" v="Måssåheia" />
		<tag k="natural" v="hill" />
		<tag k="place" v="locality" />
		<tag k="ssr:stedsnr" v="924542" />
	</node>
	<node id="-902204" lat="64.2259472241" lon="11.2290388859">
		<tag k="name" v="Røsslyngberget" />
		<tag k="natural" v="hill" />
		<tag k="place" v="locality" />
		<tag k="ssr:stedsnr" v="767209" />
	</node>
	<node id="-902200" lat="64.4383805524" lon="11.3073416696">
		<tag k="name" v="Våghøgda" />
		<tag k="natural" v="hill" />
		<tag k="place" v="locality" />
		<tag k="ssr:stedsnr" v="256040" />
	</node>
	<node id="-902196" lat="64.3104166693" lon="11.2555972169">
		<tag k="name" v="Hesjedalen" />
		<tag k="natural" v="valley" />
		<tag k="place" v="locality" />
		<tag k="ssr:stedsnr" v="716347" />
	</node>
	<node id="-902194" lat="64.3314999965" lon="11.2952638937">
		<tag k="name" v="Neverdalen" />
		<tag k="natural" v="valley" />
		<tag k="place" v="locality" />
		<tag k="ssr:stedsnr" v="317847" />
	</node>
	<node id="-902193" lat="64.2018333341" lon="11.323888886">
		<tag k="name" v="Vergdalen" />
		<tag k="natural" v="valley" />
		<tag k="place" v="locality" />
		<tag k="ssr:stedsnr" v="169755" />
	</node>
	<node id="-902189" lat="64.2966861111" lon="11.1717555537">
		<tag k="name" v="Seterlia" />
		<tag k="natural" v="slope" />
		<tag k="place" v="locality" />
		<tag k="ssr:stedsnr" v="291815" />
	</node>
	<node id="-902188" lat="64.2269666679" lon="10.973166661">
		<tag k="name" v="Fagerdalskleiva" />
		<tag k="natural" v="slope" />
		<tag k="place" v="locality" />
		<tag k="ssr:stedsnr" v="688358" />
	</node>
	<node id="-902187" lat="64.1972333327" lon="11.2367444433">
		<tag k="name" v="Gullhaugen" />
		<tag k="natural" v="hill" />
		<tag k="place" v="locality" />
		<tag k="ssr:stedsnr" v="766331" />
	</node>
	<node id="-902186" lat="64.2075277781" lon="10.9697305572">
		<tag k="fixme" v="consider natural=peak for the most distinct mountains in the district" />
		<tag k="name" v="Lomtjønnheia" />
		<tag k="natural" v="hill" />
		<tag k="place" v="locality" />
		<tag k="ssr:stedsnr" v="135641" />
	</node>
	<node id="-902181" lat="64.4421277743" lon="11.2301027783">
		<tag k="name" v="Sundsborga" />
		<tag k="natural" v="hill" />
		<tag k="place" v="locality" />
		<tag k="ssr:stedsnr" v="109165" />
	</node>
	<node id="-902180" lat="64.1620777777" lon="11.3103249947">
		<tag k="fixme" v="consider natural=peak for the most distinct mountains in the district" />
		<tag k="name" v="Lissvasshalla" />
		<tag k="natural" v="hill" />
		<tag k="place" v="locality" />
		<tag k="ssr:stedsnr" v="533742" />
	</node>
	<node id="-902178" lat="64.2509166711" lon="11.3649027802">
		<tag k="name" v="Vassmoen" />
		<tag k="place" v="locality" />
		<tag k="ssr:stedsnr" v="280158" />
	</node>
	<node id="-902177" lat="64.3637138867" lon="11.2028750002">
		<tag k="name" v="Vasshaugen" />
		<tag k="natural" v="hill" />
		<tag k="place" v="locality" />
		<tag k="ssr:stedsnr" v="438364" />
	</node>
	<node id="-902175" lat="64.2369777811" lon="11.2671027693">
		<tag k="fixme" v="consider natural=peak for the most distinct mountains in the district" />
		<tag k="name" v="Brørsheia" />
		<tag k="natural" v="hill" />
		<tag k="place" v="locality" />
		<tag k="ssr:stedsnr" v="14859" />
	</node>
	<node id="-902173" lat="64.3668694424" lon="11.2002166614">
		<tag k="name" v="Buliberget" />
		<tag k="natural" v="hill" />
		<tag k="place" v="locality" />
		<tag k="ssr:stedsnr" v="594845" />
	</node>
	<node id="-902169" lat="64.1876694448" lon="11.1806444519">
		<tag k="name" v="Holmberget" />
		<tag k="natural" v="hill" />
		<tag k="place" v="locality" />
		<tag k="ssr:stedsnr" v="645313" />
	</node>
	<node id="-902168" lat="64.1970499961" lon="11.3266472224">
		<tag k="name" v="Styggdalen" />
		<tag k="natural" v="valley" />
		<tag k="place" v="locality" />
		<tag k="ssr:stedsnr" v="169750" />
	</node>
	<node id="-902164" lat="64.1989972177" lon="11.3133722292">
		<tag k="name" v="Nipdalen" />
		<tag k="natural" v="valley" />
		<tag k="place" v="locality" />
		<tag k="ssr:stedsnr" v="108755" />
	</node>
	<node id="-902163" lat="64.3552222256" lon="11.1210416648">
		<tag k="name" v="Finnburhaugen" />
		<tag k="natural" v="hill" />
		<tag k="place" v="locality" />
		<tag k="ssr:stedsnr" v="870459" />
	</node>
	<node id="-902162" lat="64.159838888" lon="11.1370416646">
		<tag k="name" v="Abrahamholet" />
		<tag k="natural" v="valley" />
		<tag k="place" v="locality" />
		<tag k="ssr:stedsnr" v="958520" />
	</node>
	<node id="-902161" lat="64.5334250002" lon="11.0426194373">
		<tag k="fixme" v="consider natural=peak for the most distinct mountains in the district" />
		<tag k="name" v="Moafjellet" />
		<tag k="natural" v="hill" />
		<tag k="place" v="locality" />
		<tag k="ssr:stedsnr" v="439677" />
	</node>
	<node id="-902158" lat="64.3128861147" lon="11.0813749916">
		<tag k="fixme" v="consider natural=peak for the most distinct mountains in the district" />
		<tag k="name" v="Midtvasspynten" />
		<tag k="natural" v="hill" />
		<tag k="place" v="locality" />
		<tag k="ssr:stedsnr" v="439144" />
	</node>
	<node id="-902154" lat="64.2685361115" lon="11.4361999993">
		<tag k="name" v="Dansarberget" />
		<tag k="natural" v="hill" />
		<tag k="place" v="locality" />
		<tag k="ssr:stedsnr" v="317835" />
	</node>
	<node id="-902153" lat="64.3641861091" lon="11.184494434">
		<tag k="name" v="Bjønnaskaret" />
		<tag k="natural" v="valley" />
		<tag k="place" v="locality" />
		<tag k="ssr:stedsnr" v="837856" />
	</node>
	<node id="-902150" lat="64.2470694442" lon="11.4945750083">
		<tag k="fixme" v="consider natural=peak for the most distinct mountains in the district" />
		<tag k="name" v="Daltjønnaksla" />
		<tag k="natural" v="hill" />
		<tag k="place" v="locality" />
		<tag k="ssr:stedsnr" v="257923" />
	</node>
	<node id="-902149" lat="64.2186861145" lon="11.3318250082">
		<tag k="alt_name" v="Rundhaugen" />
		<tag k="fixme" v="consider natural=peak for the most distinct mountains in the district" />
		<tag k="name" v="Finnsåsen" />
		<tag k="natural" v="hill" />
		<tag k="place" v="locality" />
		<tag k="ssr:stedsnr" v="559920" />
	</node>
	<node id="-902147" lat="64.1957583302" lon="11.1813333309">
		<tag k="name" v="Storenget" />
		<tag k="natural" v="slope" />
		<tag k="place" v="locality" />
		<tag k="ssr:stedsnr" v="38344" />
	</node>
	<node id="-902144" lat="64.5128583366" lon="11.0988583401">
		<tag k="fixme" v="consider natural=peak for the most distinct mountains in the district" />
		<tag k="name" v="Ørnfjellet" />
		<tag k="natural" v="hill" />
		<tag k="place" v="locality" />
		<tag k="ssr:stedsnr" v="864739" />
	</node>
	<node id="-902141" lat="64.2749250038" lon="11.1834944393">
		<tag k="name" v="Setermoen" />
		<tag k="place" v="locality" />
		<tag k="ssr:stedsnr" v="826200" />
	</node>
	<node id="-902139" lat="64.2993972213" lon="11.0199194359">
		<tag k="name" v="Tverrlipynten" />
		<tag k="natural" v="hill" />
		<tag k="place" v="locality" />
		<tag k="ssr:stedsnr" v="75163" />
	</node>
	<node id="-902131" lat="64.242361107" lon="11.2675000049">
		<tag k="name" v="Kleivmoen" />
		<tag k="place" v="locality" />
		<tag k="ssr:stedsnr" v="524228" />
	</node>
	<node id="-902128" lat="64.2333694426" lon="11.4026027866">
		<tag k="fixme" v="consider natural=peak for the most distinct mountains in the district" />
		<tag k="name" v="Seteråsen" />
		<tag k="natural" v="hill" />
		<tag k="place" v="locality" />
		<tag k="ssr:stedsnr" v="290644" />
	</node>
	<node id="-902127" lat="64.2771166643" lon="11.2279000084">
		<tag k="fixme" v="consider natural=peak for the most distinct mountains in the district" />
		<tag k="name" v="Aunaksla" />
		<tag k="natural" v="hill" />
		<tag k="place" v="locality" />
		<tag k="ssr:stedsnr" v="317840" />
	</node>
	<node id="-902122" lat="64.1594777768" lon="10.9072666646">
		<tag k="name" v="Hundheia" />
		<tag k="natural" v="hill" />
		<tag k="place" v="locality" />
		<tag k="ssr:stedsnr" v="257648" />
	</node>
	<node id="-902115" lat="64.3161555591" lon="11.0411222137">
		<tag k="name" v="Rundvassdalen" />
		<tag k="natural" v="valley" />
		<tag k="place" v="locality" />
		<tag k="ssr:stedsnr" v="506438" />
	</node>
	<node id="-902112" lat="64.2864611143" lon="11.2367972123">
		<tag k="fixme" v="consider natural=peak for the most distinct mountains in the district" />
		<tag k="name" v="Aunheia" />
		<tag k="natural" v="hill" />
		<tag k="place" v="locality" />
		<tag k="ssr:stedsnr" v="826195" />
	</node>
	<node id="-902111" lat="64.3669194431" lon="11.1828305572">
		<tag k="name" v="Damhaugen" />
		<tag k="natural" v="hill" />
		<tag k="place" v="locality" />
		<tag k="ssr:stedsnr" v="742343" />
	</node>
	<node id="-902109" lat="64.2423027787" lon="11.4166138905">
		<tag k="fixme" v="consider natural=peak for the most distinct mountains in the district" />
		<tag k="name" v="Bjørnåsen" />
		<tag k="natural" v="hill" />
		<tag k="place" v="locality" />
		<tag k="ssr:stedsnr" v="14853" />
	</node>
	<node id="-902105" lat="64.2891499957" lon="11.2224333317">
		<tag k="name" v="Trollkjerringskaret" />
		<tag k="natural" v="valley" />
		<tag k="place" v="locality" />
		<tag k="ssr:stedsnr" v="826194" />
	</node>
	<node id="-902101" lat="64.2493388925" lon="11.2604611052">
		<tag k="name" v="Liamoen" />
		<tag k="place" v="locality" />
		<tag k="ssr:stedsnr" v="401224" />
	</node>
	<node id="-902095" lat="64.2878888849" lon="11.2989194378">
		<tag k="name" v="Ol - Eriksahole" />
		<tag k="natural" v="valley" />
		<tag k="place" v="locality" />
		<tag k="ssr:stedsnr" v="48288" />
	</node>
	<node id="-902093" lat="64.4374916623" lon="11.2036277826">
		<tag k="name" v="Høghaugen" />
		<tag k="natural" v="hill" />
		<tag k="place" v="locality" />
		<tag k="ssr:stedsnr" v="291787" />
	</node>
	<node id="-902086" lat="64.1850416659" lon="10.9219749904">
		<tag k="name" v="Langdalen" />
		<tag k="natural" v="valley" />
		<tag k="place" v="locality" />
		<tag k="ssr:stedsnr" v="958531" />
	</node>
	<node id="-902083" lat="64.1684277805" lon="11.2137388985">
		<tag k="name" v="Issiberget" />
		<tag k="natural" v="hill" />
		<tag k="place" v="locality" />
		<tag k="ssr:stedsnr" v="706343" />
	</node>
	<node id="-902074" lat="64.2255277821" lon="11.0543944359">
		<tag k="name" v="Storlia" />
		<tag k="natural" v="hill" />
		<tag k="place" v="locality" />
		<tag k="ssr:stedsnr" v="742622" />
	</node>
	<node id="-902073" lat="64.1537444413" lon="11.1490777819">
		<tag k="fixme" v="multiple name tags, choose one and add the other to alt_name; consider natural=peak for the most distinct mountains in the district" />
		<tag k="name" v="Bjørkliheia;Strandaheia" />
		<tag k="natural" v="hill" />
		<tag k="place" v="locality" />
		<tag k="ssr:stedsnr" v="317561" />
	</node>
	<node id="-902072" lat="64.3332138909" lon="11.2570861213">
		<tag k="alt_name" v="Andskarklompan" />
		<tag k="name" v="Andskardklumpen" />
		<tag k="natural" v="hill" />
		<tag k="place" v="locality" />
		<tag k="ssr:stedsnr" v="257913" />
	</node>
	<node id="-902071" lat="64.1632472266" lon="10.9324611135">
		<tag k="name" v="Rognlihøgda" />
		<tag k="natural" v="hill" />
		<tag k="place" v="locality" />
		<tag k="ssr:stedsnr" v="257645" />
	</node>
	<node id="-902066" lat="64.2720361086" lon="11.2501499987">
		<tag k="name" v="Lomtjønnklumpan" />
		<tag k="natural" v="hill" />
		<tag k="place" v="locality" />
		<tag k="ssr:stedsnr" v="256838" />
	</node>
	<node id="-902065" lat="64.2343722249" lon="11.0162750055">
		<tag k="alt_name" v="Blåvassklompen" />
		<tag k="name" v="Blåvassklumpen" />
		<tag k="natural" v="hill" />
		<tag k="place" v="locality" />
		<tag k="ssr:stedsnr" v="14579" />
	</node>
	<node id="-902064" lat="64.2635194407" lon="10.9846388854">
		<tag k="fixme" v="consider natural=peak for the most distinct mountains in the district" />
		<tag k="name" v="Godvasslihevlan" />
		<tag k="natural" v="hill" />
		<tag k="place" v="locality" />
		<tag k="ssr:stedsnr" v="75154" />
	</node>
	<node id="-902062" lat="64.3312916694" lon="11.0575111181">
		<tag k="fixme" v="consider natural=peak for the most distinct mountains in the district" />
		<tag k="name" v="Finnfjellet - Gierkiegierte" />
		<tag k="name:no" v="Finnfjellet" />
		<tag k="name:sma" v="Gierkiegierte" />
		<tag k="natural" v="hill" />
		<tag k="place" v="locality" />
		<tag k="ssr:stedsnr" v="317301" />
	</node>
	<node id="-902060" lat="64.4262444431" lon="11.1625027715">
		<tag k="name" v="Stordalen" />
		<tag k="natural" v="valley" />
		<tag k="place" v="locality" />
		<tag k="ssr:stedsnr" v="291782" />
	</node>
	<node id="-902059" lat="64.2115138932" lon="11.3006138829">
		<tag k="name" v="Tømmeråshøgda" />
		<tag k="natural" v="hill" />
		<tag k="place" v="locality" />
		<tag k="ssr:stedsnr" v="135898" />
	</node>
	<node id="-902058" lat="64.2072555538" lon="11.4124416688">
		<tag k="name" v="Lomtjønndalen" />
		<tag k="natural" v="valley" />
		<tag k="place" v="locality" />
		<tag k="ssr:stedsnr" v="716711" />
	</node>
	<node id="-902056" lat="64.232333332" lon="11.1889694489">
		<tag k="name" v="Bjørgberget" />
		<tag k="natural" v="hill" />
		<tag k="place" v="locality" />
		<tag k="ssr:stedsnr" v="524214" />
	</node>
	<node id="-902055" lat="64.2384888878" lon="11.2899333302">
		<tag k="name" v="Vasshallin" />
		<tag k="natural" v="slope" />
		<tag k="place" v="locality" />
		<tag k="ssr:stedsnr" v="160205" />
	</node>
	<node id="-902052" lat="64.2784138912" lon="11.1319250038">
		<tag k="name" v="Rognlia" />
		<tag k="natural" v="slope" />
		<tag k="place" v="locality" />
		<tag k="ssr:stedsnr" v="109915" />
	</node>
	<node id="-902047" lat="64.2358055527" lon="11.3474444508">
		<tag k="name" v="Limohaugen" />
		<tag k="natural" v="hill" />
		<tag k="place" v="locality" />
		<tag k="ssr:stedsnr" v="160203" />
	</node>
	<node id="-902044" lat="64.1535583337" lon="10.8735666582">
		<tag k="name" v="Agnettjønnhaugen" />
		<tag k="natural" v="hill" />
		<tag k="place" v="locality" />
		<tag k="ssr:stedsnr" v="256561" />
	</node>
	<node id="-902043" lat="64.4477194478" lon="11.2658027693">
		<tag k="name" v="Brattbakkan" />
		<tag k="natural" v="hill" />
		<tag k="place" v="locality" />
		<tag k="ssr:stedsnr" v="256021" />
	</node>
	<node id="-902041" lat="64.3501222182" lon="11.0962361036">
		<tag k="name" v="Grøthaugen" />
		<tag k="natural" v="hill" />
		<tag k="place" v="locality" />
		<tag k="ssr:stedsnr" v="324451" />
	</node>
	<node id="-902040" lat="64.4330499973" lon="11.1066666589">
		<tag k="fixme" v="consider natural=peak for the most distinct mountains in the district" />
		<tag k="name" v="Høgåsen" />
		<tag k="natural" v="hill" />
		<tag k="place" v="locality" />
		<tag k="ssr:stedsnr" v="230234" />
	</node>
	<node id="-902037" lat="64.1442305581" lon="10.8117805478">
		<tag k="name" v="Finnbuliin" />
		<tag k="natural" v="slope" />
		<tag k="place" v="locality" />
		<tag k="ssr:stedsnr" v="317566" />
	</node>
	<node id="-902035" lat="64.1838722203" lon="11.18710278">
		<tag k="name" v="Trettengmoan" />
		<tag k="place" v="locality" />
		<tag k="ssr:stedsnr" v="645316" />
	</node>
	<node id="-902029" lat="64.4465027808" lon="11.333219437">
		<tag k="fixme" v="consider natural=peak for the most distinct mountains in the district" />
		<tag k="name" v="Stufjellet" />
		<tag k="natural" v="hill" />
		<tag k="place" v="locality" />
		<tag k="ssr:stedsnr" v="317024" />
	</node>
	<node id="-902018" lat="64.2690472252" lon="11.1673749901">
		<tag k="fixme" v="consider natural=peak for the most distinct mountains in the district" />
		<tag k="name" v="Straumengåsan" />
		<tag k="natural" v="hill" />
		<tag k="place" v="locality" />
		<tag k="ssr:stedsnr" v="196130" />
	</node>
	<node id="-902017" lat="64.3109722199" lon="11.2918361008">
		<tag k="name" v="Kujonholet" />
		<tag k="natural" v="valley" />
		<tag k="place" v="locality" />
		<tag k="ssr:stedsnr" v="220215" />
	</node>
	<node id="-902016" lat="64.2211666648" lon="11.4186805645">
		<tag k="fixme" v="consider natural=peak for the most distinct mountains in the district" />
		<tag k="name" v="Sørhalla" />
		<tag k="natural" v="hill" />
		<tag k="place" v="locality" />
		<tag k="ssr:stedsnr" v="898715" />
	</node>
	<node id="-902014" lat="64.21704722" lon="11.3921305467">
		<tag k="name" v="Beretmyrdalen" />
		<tag k="natural" v="valley" />
		<tag k="place" v="locality" />
		<tag k="ssr:stedsnr" v="48663" />
	</node>
	<node id="-902011" lat="64.2187249988" lon="11.3978972313">
		<tag k="name" v="Styggdalen" />
		<tag k="natural" v="valley" />
		<tag k="place" v="locality" />
		<tag k="ssr:stedsnr" v="48664" />
	</node>
	<node id="-902006" lat="64.23141667" lon="11.36819999">
		<tag k="fixme" v="consider natural=peak for the most distinct mountains in the district" />
		<tag k="name" v="Følltangen" />
		<tag k="natural" v="hill" />
		<tag k="place" v="locality" />
		<tag k="ssr:stedsnr" v="160198" />
	</node>
	<node id="-901996" lat="64.2380249962" lon="11.4897055552">
		<tag k="name" v="Svartdalen" />
		<tag k="natural" v="valley" />
		<tag k="place" v="locality" />
		<tag k="ssr:stedsnr" v="351674" />
	</node>
	<node id="-901995" lat="64.2596749998" lon="11.2292861173">
		<tag k="name" v="Burslemmen" />
		<tag k="natural" v="valley" />
		<tag k="place" v="locality" />
		<tag k="ssr:stedsnr" v="524197" />
	</node>
	<node id="-901990" lat="64.2076055542" lon="11.4083111029">
		<tag k="name" v="Myrbekkskaret" />
		<tag k="natural" v="valley" />
		<tag k="place" v="locality" />
		<tag k="ssr:stedsnr" v="48661" />
	</node>
	<node id="-901988" lat="64.3029222267" lon="11.1653888905">
		<tag k="name" v="Sørheia" />
		<tag k="natural" v="hill" />
		<tag k="place" v="locality" />
		<tag k="ssr:stedsnr" v="654826" />
	</node>
	<node id="-901983" lat="64.3465388907" lon="11.2363055547">
		<tag k="name" v="Ormmyråsen" />
		<tag k="natural" v="slope" />
		<tag k="place" v="locality" />
		<tag k="ssr:stedsnr" v="220208" />
	</node>
	<node id="-901982" lat="64.4794916696" lon="11.0976499968">
		<tag k="fixme" v="consider natural=peak for the most distinct mountains in the district" />
		<tag k="name" v="Svartfjellet" />
		<tag k="natural" v="hill" />
		<tag k="place" v="locality" />
		<tag k="ssr:stedsnr" v="559377" />
	</node>
	<node id="-901977" lat="64.1752750039" lon="11.2011333366">
		<tag k="name" v="Strandaberga" />
		<tag k="natural" v="hill" />
		<tag k="place" v="locality" />
		<tag k="ssr:stedsnr" v="257629" />
	</node>
	<node id="-901976" lat="64.4847694453" lon="11.0891555541">
		<tag k="name" v="Durmålshaugen" />
		<tag k="natural" v="hill" />
		<tag k="place" v="locality" />
		<tag k="ssr:stedsnr" v="715502" />
	</node>
	<node id="-901972" lat="64.2611361089" lon="11.2326777735">
		<tag k="fixme" v="consider natural=peak for the most distinct mountains in the district" />
		<tag k="name" v="Høgkammen" />
		<tag k="natural" v="hill" />
		<tag k="place" v="locality" />
		<tag k="ssr:stedsnr" v="257899" />
	</node>
	<node id="-901970" lat="64.1612416711" lon="10.8702111084">
		<tag k="fixme" v="consider natural=peak for the most distinct mountains in the district" />
		<tag k="name" v="Middagsheia" />
		<tag k="natural" v="hill" />
		<tag k="place" v="locality" />
		<tag k="ssr:stedsnr" v="378335" />
	</node>
	<node id="-901964" lat="64.4473000042" lon="11.3124805522">
		<tag k="name" v="Vindhammaren" />
		<tag k="natural" v="hill" />
		<tag k="place" v="locality" />
		<tag k="ssr:stedsnr" v="802027" />
	</node>
	<node id="-901962" lat="64.4327694456" lon="11.1610194372">
		<tag k="alt_name" v="Klokkatiklompen" />
		<tag k="fixme" v="consider natural=peak for the most distinct mountains in the district" />
		<tag k="name" v="Klokkatiklumpen" />
		<tag k="natural" v="hill" />
		<tag k="place" v="locality" />
		<tag k="ssr:stedsnr" v="196404" />
	</node>
	<node id="-901961" lat="64.2042500018" lon="11.2632916643">
		<tag k="alt_name" v="Helbostadhallin" />
		<tag k="name" v="Hallaberget" />
		<tag k="natural" v="hill" />
		<tag k="place" v="locality" />
		<tag k="ssr:stedsnr" v="559909" />
	</node>
	<node id="-901959" lat="64.1854611108" lon="11.2302111128">
		<tag k="name" v="Dalaberget" />
		<tag k="natural" v="hill" />
		<tag k="place" v="locality" />
		<tag k="ssr:stedsnr" v="828320" />
	</node>
	<node id="-901950" lat="64.5398194409" lon="11.0584472153">
		<tag k="name" v="Sølvskulin" />
		<tag k="natural" v="hill" />
		<tag k="place" v="locality" />
		<tag k="ssr:stedsnr" v="352440" />
	</node>
	<node id="-901943" lat="64.1709222257" lon="10.7845083294">
		<tag k="fixme" v="consider natural=peak for the most distinct mountains in the district" />
		<tag k="name" v="Småfossheia" />
		<tag k="natural" v="hill" />
		<tag k="place" v="locality" />
		<tag k="ssr:stedsnr" v="257625" />
	</node>
	<node id="-901942" lat="64.2198861155" lon="11.4047027769">
		<tag k="fixme" v="consider natural=peak for the most distinct mountains in the district" />
		<tag k="name" v="Vasshalla" />
		<tag k="natural" v="hill" />
		<tag k="place" v="locality" />
		<tag k="ssr:stedsnr" v="776664" />
	</node>
	<node id="-901938" lat="64.1672444416" lon="10.7585750027">
		<tag k="name" v="Nordlia" />
		<tag k="natural" v="slope" />
		<tag k="place" v="locality" />
		<tag k="ssr:stedsnr" v="257626" />
	</node>
	<node id="-901934" lat="64.2470888863" lon="11.4540777672">
		<tag k="name" v="Svartelvmoan" />
		<tag k="place" v="locality" />
		<tag k="ssr:stedsnr" v="230608" />
	</node>
	<node id="-901931" lat="64.183941669" lon="11.3054388952">
		<tag k="fixme" v="consider natural=peak for the most distinct mountains in the district" />
		<tag k="name" v="Seteråsen" />
		<tag k="natural" v="hill" />
		<tag k="place" v="locality" />
		<tag k="ssr:stedsnr" v="645294" />
	</node>
	<node id="-901929" lat="64.3027805568" lon="11.0325583394">
		<tag k="name" v="Storlia" />
		<tag k="natural" v="slope" />
		<tag k="place" v="locality" />
		<tag k="ssr:stedsnr" v="256814" />
	</node>
	<node id="-901927" lat="64.2479611073" lon="11.261588879">
		<tag k="name" v="Liaberga" />
		<tag k="natural" v="valley" />
		<tag k="place" v="locality" />
		<tag k="ssr:stedsnr" v="583201" />
	</node>
	<node id="-901926" lat="64.2608444484" lon="11.1405361056">
		<tag k="name" v="Djupskardet" />
		<tag k="natural" v="valley" />
		<tag k="place" v="locality" />
		<tag k="ssr:stedsnr" v="499113" />
	</node>
	<node id="-901918" lat="64.2622777806" lon="11.4300944423">
		<tag k="name" v="Måssåberget" />
		<tag k="natural" v="hill" />
		<tag k="place" v="locality" />
		<tag k="ssr:stedsnr" v="230600" />
	</node>
	<node id="-901913" lat="64.2004694461" lon="11.2268416565">
		<tag k="fixme" v="consider natural=peak for the most distinct mountains in the district" />
		<tag k="name" v="Vargmyrhalla" />
		<tag k="natural" v="hill" />
		<tag k="place" v="locality" />
		<tag k="ssr:stedsnr" v="706311" />
	</node>
	<node id="-901909" lat="64.1475194404" lon="11.1479388949">
		<tag k="name" v="Asplia" />
		<tag k="natural" v="slope" />
		<tag k="place" v="locality" />
		<tag k="ssr:stedsnr" v="74603" />
	</node>
	<node id="-901907" lat="64.3493444444" lon="11.0766055605">
		<tag k="name" v="Storlia" />
		<tag k="natural" v="slope" />
		<tag k="place" v="locality" />
		<tag k="ssr:stedsnr" v="256818" />
	</node>
	<node id="-901905" lat="64.3230666695" lon="10.998047215">
		<tag k="fixme" v="consider natural=peak for the most distinct mountains in the district" />
		<tag k="name" v="Jøssundvarden - Skaanja-Stoerrevaerie" />
		<tag k="name:no" v="Jøssundvarden" />
		<tag k="name:sma" v="Skaanja-Stoerrevaerie" />
		<tag k="natural" v="hill" />
		<tag k="place" v="locality" />
		<tag k="ssr:stedsnr" v="681313" />
	</node>
	<node id="-901904" lat="64.275230554" lon="11.2759499943">
		<tag k="name" v="Vasshallin" />
		<tag k="natural" v="slope" />
		<tag k="place" v="locality" />
		<tag k="ssr:stedsnr" v="169308" />
	</node>
	<node id="-901902" lat="64.4891583324" lon="11.1065194445">
		<tag k="name" v="Storsteinvarden" />
		<tag k="natural" v="hill" />
		<tag k="place" v="locality" />
		<tag k="ssr:stedsnr" v="958505" />
	</node>
	<node id="-901900" lat="64.2507138863" lon="11.4681972253">
		<tag k="name" v="Ristjønndalen" />
		<tag k="natural" v="valley" />
		<tag k="place" v="locality" />
		<tag k="ssr:stedsnr" v="230603" />
	</node>
	<node id="-901899" lat="64.2722305584" lon="11.1393250041">
		<tag k="fixme" v="consider natural=peak for the most distinct mountains in the district" />
		<tag k="name" v="Mekveldheia" />
		<tag k="natural" v="hill" />
		<tag k="place" v="locality" />
		<tag k="ssr:stedsnr" v="75134" />
	</node>
	<node id="-901898" lat="64.4413361118" lon="11.2564833422">
		<tag k="fixme" v="consider natural=peak for the most distinct mountains in the district" />
		<tag k="name" v="Brennfjellet" />
		<tag k="natural" v="hill" />
		<tag k="place" v="locality" />
		<tag k="ssr:stedsnr" v="256819" />
	</node>
	<node id="-901894" lat="64.2922805536" lon="11.0009861065">
		<tag k="name" v="Tverrlia" />
		<tag k="natural" v="slope" />
		<tag k="place" v="locality" />
		<tag k="ssr:stedsnr" v="742844" />
	</node>
	<node id="-901892" lat="64.222213887" lon="11.2546972143">
		<tag k="fixme" v="consider natural=peak for the most distinct mountains in the district" />
		<tag k="name" v="Hundsethesten" />
		<tag k="natural" v="hill" />
		<tag k="place" v="locality" />
		<tag k="ssr:stedsnr" v="863916" />
	</node>
	<node id="-901879" lat="64.2451888853" lon="11.1888138862">
		<tag k="fixme" v="consider natural=peak for the most distinct mountains in the district" />
		<tag k="name" v="Åsen" />
		<tag k="natural" v="hill" />
		<tag k="place" v="locality" />
		<tag k="ssr:stedsnr" v="645258" />
	</node>
	<node id="-901870" lat="64.5373194434" lon="11.0471861051">
		<tag k="name" v="Skulen" />
		<tag k="natural" v="hill" />
		<tag k="place" v="locality" />
		<tag k="ssr:stedsnr" v="500748" />
	</node>
	<node id="-901868" lat="64.235702774" lon="11.1985472144">
		<tag k="name" v="Austliberget" />
		<tag k="natural" v="hill" />
		<tag k="place" v="locality" />
		<tag k="ssr:stedsnr" v="645255" />
	</node>
	<node id="-901865" lat="64.259825004" lon="11.4541805576">
		<tag k="name" v="Henrikhaugen" />
		<tag k="natural" v="hill" />
		<tag k="place" v="locality" />
		<tag k="ssr:stedsnr" v="378876" />
	</node>
	<node id="-901863" lat="64.4829833372" lon="11.1371499963">
		<tag k="name" v="Storenghaugen" />
		<tag k="natural" v="hill" />
		<tag k="place" v="locality" />
		<tag k="ssr:stedsnr" v="654399" />
	</node>
	<node id="-901859" lat="64.2469999989" lon="11.2717555626">
		<tag k="name" v="Stordalen" />
		<tag k="natural" v="valley" />
		<tag k="place" v="locality" />
		<tag k="ssr:stedsnr" v="98191" />
	</node>
	<node id="-901856" lat="64.2987916675" lon="11.0347222233">
		<tag k="fixme" v="consider natural=peak for the most distinct mountains in the district" />
		<tag k="name" v="Sandvasshøgda" />
		<tag k="natural" v="hill" />
		<tag k="place" v="locality" />
		<tag k="ssr:stedsnr" v="412843" />
	</node>
	<node id="-901855" lat="64.1658555535" lon="11.3034750022">
		<tag k="name" v="Småhaugan" />
		<tag k="natural" v="hill" />
		<tag k="place" v="locality" />
		<tag k="ssr:stedsnr" v="949288" />
	</node>
	<node id="-901851" lat="64.30850833" lon="11.2294805554">
		<tag k="name" v="Sjøåsberget" />
		<tag k="natural" v="hill" />
		<tag k="place" v="locality" />
		<tag k="ssr:stedsnr" v="196929" />
	</node>
	<node id="-901850" lat="64.450091669" lon="11.2380777745">
		<tag k="fixme" v="consider natural=peak for the most distinct mountains in the district" />
		<tag k="name" v="Geitanesfjellet" />
		<tag k="natural" v="hill" />
		<tag k="place" v="locality" />
		<tag k="ssr:stedsnr" v="681013" />
	</node>
	<node id="-901849" lat="64.3541222267" lon="11.1508638857">
		<tag k="fixme" v="consider natural=peak for the most distinct mountains in the district" />
		<tag k="name" v="Rapheia" />
		<tag k="natural" v="hill" />
		<tag k="place" v="locality" />
		<tag k="ssr:stedsnr" v="14276" />
	</node>
	<node id="-901846" lat="64.303691667" lon="11.0771138895">
		<tag k="name" v="Finnkruhaugen" />
		<tag k="natural" v="hill" />
		<tag k="place" v="locality" />
		<tag k="ssr:stedsnr" v="715870" />
	</node>
	<node id="-901842" lat="64.2908555524" lon="10.9743472198">
		<tag k="name" v="Øystre Bjørfarvassheia" />
		<tag k="natural" v="hill" />
		<tag k="place" v="locality" />
		<tag k="ssr:stedsnr" v="864165" />
	</node>
	<node id="-901838" lat="64.3973749995" lon="11.1755805466">
		<tag k="name" v="Karienget" />
		<tag k="natural" v="slope" />
		<tag k="place" v="locality" />
		<tag k="ssr:stedsnr" v="378300" />
	</node>
	<node id="-901837" lat="64.2184388934" lon="11.1495611043">
		<tag k="name" v="Stavenkjerringa" />
		<tag k="natural" v="hill" />
		<tag k="place" v="locality" />
		<tag k="ssr:stedsnr" v="803643" />
	</node>
	<node id="-901836" lat="64.2891111075" lon="11.3176166648">
		<tag k="fixme" v="consider natural=peak for the most distinct mountains in the district" />
		<tag k="name" v="Groftdalsheia" />
		<tag k="natural" v="hill" />
		<tag k="place" v="locality" />
		<tag k="ssr:stedsnr" v="256802" />
	</node>
	<node id="-901834" lat="64.3639194436" lon="11.1594972249">
		<tag k="name" v="Rapet" />
		<tag k="natural" v="hill" />
		<tag k="place" v="locality" />
		<tag k="ssr:stedsnr" v="803367" />
	</node>
	<node id="-901833" lat="64.3062361073" lon="11.0094749924">
		<tag k="name" v="Nordseterlia" />
		<tag k="natural" v="slope" />
		<tag k="place" v="locality" />
		<tag k="ssr:stedsnr" v="560152" />
	</node>
	<node id="-901832" lat="64.2064916678" lon="10.8843916706">
		<tag k="name" v="Vestre - Bjørkvassheia" />
		<tag k="natural" v="valley" />
		<tag k="place" v="locality" />
		<tag k="ssr:stedsnr" v="230974" />
	</node>
	<node id="-901831" lat="64.2796750002" lon="11.1618166582">
		<tag k="name" v="Bjørnadalen" />
		<tag k="natural" v="valley" />
		<tag k="place" v="locality" />
		<tag k="ssr:stedsnr" v="499095" />
	</node>
	<node id="-901830" lat="64.1965222231" lon="10.8560166696">
		<tag k="name" v="Tverrelvdalen" />
		<tag k="natural" v="valley" />
		<tag k="place" v="locality" />
		<tag k="ssr:stedsnr" v="196650" />
	</node>
	<node id="-901829" lat="64.3103611087" lon="11.196466664">
		<tag k="name" v="Langmyrhalla" />
		<tag k="natural" v="slope" />
		<tag k="place" v="locality" />
		<tag k="ssr:stedsnr" v="341203" />
	</node>
	<node id="-901828" lat="64.2920194455" lon="10.9897694541">
		<tag k="name" v="Rømdallskaret" />
		<tag k="natural" v="valley" />
		<tag k="place" v="locality" />
		<tag k="ssr:stedsnr" v="958878" />
	</node>
	<node id="-901824" lat="64.2887249975" lon="11.2930083349">
		<tag k="name" v="Tømmerdalen" />
		<tag k="natural" v="valley" />
		<tag k="place" v="locality" />
		<tag k="ssr:stedsnr" v="317793" />
	</node>
	<node id="-901822" lat="64.1727444406" lon="10.8063972256">
		<tag k="fixme" v="consider natural=peak for the most distinct mountains in the district" />
		<tag k="name" v="Sauheia" />
		<tag k="natural" v="hill" />
		<tag k="place" v="locality" />
		<tag k="ssr:stedsnr" v="317528" />
	</node>
	<node id="-901820" lat="64.1810111088" lon="10.8171000052">
		<tag k="alt_name" v="Såmmårskardet" />
		<tag k="name" v="Sommarskardet" />
		<tag k="natural" v="valley" />
		<tag k="place" v="locality" />
		<tag k="ssr:stedsnr" v="681568" />
	</node>
	<node id="-901818" lat="64.2565749991" lon="11.4206777756">
		<tag k="fixme" v="consider natural=peak for the most distinct mountains in the district" />
		<tag k="name" v="Seteråsen" />
		<tag k="natural" v="hill" />
		<tag k="place" v="locality" />
		<tag k="ssr:stedsnr" v="257878" />
	</node>
	<node id="-901817" lat="64.2886583332" lon="11.2476138953">
		<tag k="fixme" v="consider natural=peak for the most distinct mountains in the district" />
		<tag k="name" v="Langheia" />
		<tag k="natural" v="hill" />
		<tag k="place" v="locality" />
		<tag k="ssr:stedsnr" v="681844" />
	</node>
	<node id="-901815" lat="64.2919861105" lon="11.2390611137">
		<tag k="alt_name" v="Middagsskaret" />
		<tag k="name" v="Middagsskardet" />
		<tag k="natural" v="valley" />
		<tag k="place" v="locality" />
		<tag k="ssr:stedsnr" v="681842" />
	</node>
	<node id="-901809" lat="64.3275555587" lon="11.1708722274">
		<tag k="name" v="Langtjønndalen" />
		<tag k="natural" v="valley" />
		<tag k="place" v="locality" />
		<tag k="ssr:stedsnr" v="837824" />
	</node>
	<node id="-901802" lat="64.2669194404" lon="11.2430777776">
		<tag k="name" v="Svartholet" />
		<tag k="natural" v="valley" />
		<tag k="place" v="locality" />
		<tag k="ssr:stedsnr" v="38277" />
	</node>
	<node id="-901798" lat="64.4476194458" lon="11.0954888801">
		<tag k="fixme" v="consider natural=peak for the most distinct mountains in the district" />
		<tag k="name" v="Tuva" />
		<tag k="natural" v="hill" />
		<tag k="place" v="locality" />
		<tag k="ssr:stedsnr" v="230194" />
	</node>
	<node id="-901794" lat="64.2251000023" lon="11.4236583285">
		<tag k="name" v="Durmålshaugen" />
		<tag k="natural" v="hill" />
		<tag k="place" v="locality" />
		<tag k="ssr:stedsnr" v="499916" />
	</node>
	<node id="-901785" lat="64.1572777757" lon="11.096161108">
		<tag k="fixme" v="consider natural=peak for the most distinct mountains in the district" />
		<tag k="name" v="Svårråheia" />
		<tag k="natural" v="hill" />
		<tag k="place" v="locality" />
		<tag k="ssr:stedsnr" v="438587" />
	</node>
	<node id="-901783" lat="64.2242972264" lon="11.3302083391">
		<tag k="name" v="Arnthaugen" />
		<tag k="natural" v="hill" />
		<tag k="place" v="locality" />
		<tag k="ssr:stedsnr" v="706288" />
	</node>
	<node id="-901782" lat="64.2029694456" lon="11.3665694349">
		<tag k="fixme" v="consider natural=peak for the most distinct mountains in the district" />
		<tag k="name" v="Plassahøgda" />
		<tag k="natural" v="hill" />
		<tag k="place" v="locality" />
		<tag k="ssr:stedsnr" v="706285" />
	</node>
	<node id="-901781" lat="64.2694833334" lon="11.3273638915">
		<tag k="name" v="Gammelseterhaugen" />
		<tag k="natural" v="hill" />
		<tag k="place" v="locality" />
		<tag k="ssr:stedsnr" v="291360" />
	</node>
	<node id="-901778" lat="64.461016666" lon="11.1550000095">
		<tag k="fixme" v="consider natural=peak for the most distinct mountains in the district" />
		<tag k="name" v="Larsfjellet" />
		<tag k="natural" v="hill" />
		<tag k="place" v="locality" />
		<tag k="ssr:stedsnr" v="230188" />
	</node>
	<node id="-901777" lat="64.1718944476" lon="11.3151944463">
		<tag k="fixme" v="consider natural=peak for the most distinct mountains in the district" />
		<tag k="name" v="Olaengåsen" />
		<tag k="natural" v="hill" />
		<tag k="place" v="locality" />
		<tag k="ssr:stedsnr" v="803882" />
	</node>
	<node id="-901776" lat="64.254119448" lon="11.1519222226">
		<tag k="name" v="Bjønnaholet" />
		<tag k="natural" v="valley" />
		<tag k="place" v="locality" />
		<tag k="ssr:stedsnr" v="109861" />
	</node>
	<node id="-901775" lat="64.2354694484" lon="11.3005472246">
		<tag k="name" v="Lingsenghaugen" />
		<tag k="natural" v="hill" />
		<tag k="place" v="locality" />
		<tag k="ssr:stedsnr" v="706257" />
	</node>
	<node id="-901774" lat="64.1509805557" lon="11.1912277859">
		<tag k="alt_name" v="Hoåsdalsklompen" />
		<tag k="fixme" v="consider natural=peak for the most distinct mountains in the district" />
		<tag k="name" v="Hoåsdalsklumpen" />
		<tag k="natural" v="hill" />
		<tag k="place" v="locality" />
		<tag k="ssr:stedsnr" v="559604" />
	</node>
	<node id="-901772" lat="64.405088888" lon="11.1640277705">
		<tag k="fixme" v="consider natural=peak for the most distinct mountains in the district" />
		<tag k="name" v="Gammelfjellet" />
		<tag k="natural" v="hill" />
		<tag k="place" v="locality" />
		<tag k="ssr:stedsnr" v="378290" />
	</node>
	<node id="-901769" lat="64.4516611131" lon="11.1459611099">
		<tag k="name" v="Styggdalen" />
		<tag k="natural" v="valley" />
		<tag k="place" v="locality" />
		<tag k="ssr:stedsnr" v="655173" />
	</node>
	<node id="-901767" lat="64.1221361146" lon="10.8198833371">
		<tag k="name" v="Stornesklumpen" />
		<tag k="natural" v="hill" />
		<tag k="place" v="locality" />
		<tag k="ssr:stedsnr" v="749360" />
	</node>
	<node id="-901765" lat="64.2896611144" lon="11.2309166567">
		<tag k="name" v="Eittaklumpan" />
		<tag k="natural" v="hill" />
		<tag k="place" v="locality" />
		<tag k="ssr:stedsnr" v="317784" />
	</node>
	<node id="-901764" lat="64.4706749999" lon="11.1348444522">
		<tag k="name" v="Sjålihatten" />
		<tag k="natural" v="hill" />
		<tag k="place" v="locality" />
		<tag k="ssr:stedsnr" v="439362" />
	</node>
	<node id="-901760" lat="64.4734944418" lon="11.1393361185">
		<tag k="name" v="Farkdalen" />
		<tag k="natural" v="valley" />
		<tag k="place" v="locality" />
		<tag k="ssr:stedsnr" v="439361" />
	</node>
	<node id="-901758" lat="64.3605972182" lon="11.2008333289">
		<tag k="name" v="Smørkleppen" />
		<tag k="natural" v="hill" />
		<tag k="place" v="locality" />
		<tag k="ssr:stedsnr" v="715851" />
	</node>
	<node id="-901756" lat="64.4439805519" lon="11.3381416747">
		<tag k="fixme" v="consider natural=peak for the most distinct mountains in the district" />
		<tag k="name" v="Urdskardfjellet" />
		<tag k="natural" v="hill" />
		<tag k="place" v="locality" />
		<tag k="ssr:stedsnr" v="742016" />
	</node>
	<node id="-901755" lat="64.2076555584" lon="11.0882361087">
		<tag k="name" v="Syråthaugen" />
		<tag k="natural" v="hill" />
		<tag k="place" v="locality" />
		<tag k="ssr:stedsnr" v="776995" />
	</node>
	<node id="-901748" lat="64.1611138878" lon="10.8709499997">
		<tag k="name" v="Middagshaugen" />
		<tag k="natural" v="hill" />
		<tag k="place" v="locality" />
		<tag k="ssr:stedsnr" v="135583" />
	</node>
	<node id="-901747" lat="64.526838889" lon="11.0674333376">
		<tag k="name" v="Viskarhaugen" />
		<tag k="natural" v="hill" />
		<tag k="place" v="locality" />
		<tag k="ssr:stedsnr" v="231332" />
	</node>
	<node id="-901745" lat="64.2223333353" lon="11.1619555459">
		<tag k="fixme" v="consider natural=peak for the most distinct mountains in the district" />
		<tag k="name" v="Hevelkollen" />
		<tag k="natural" v="hill" />
		<tag k="place" v="locality" />
		<tag k="ssr:stedsnr" v="655551" />
	</node>
	<node id="-901743" lat="64.5322666631" lon="11.0663750001">
		<tag k="name" v="Brattkleiva" />
		<tag k="place" v="locality" />
		<tag k="ssr:stedsnr" v="231333" />
	</node>
	<node id="-901741" lat="64.2916888885" lon="11.2461055563">
		<tag k="alt_name" v="Rinnfjellet" />
		<tag k="fixme" v="consider natural=peak for the most distinct mountains in the district" />
		<tag k="name" v="Rindfjellet" />
		<tag k="natural" v="hill" />
		<tag k="place" v="locality" />
		<tag k="ssr:stedsnr" v="317788" />
	</node>
	<node id="-901739" lat="64.230047218" lon="11.1192361053">
		<tag k="name" v="Oksarlia" />
		<tag k="natural" v="slope" />
		<tag k="place" v="locality" />
		<tag k="ssr:stedsnr" v="230957" />
	</node>
	<node id="-901738" lat="64.1428249998" lon="10.7758805457">
		<tag k="fixme" v="consider natural=peak for the most distinct mountains in the district" />
		<tag k="name" v="Storslettheia" />
		<tag k="natural" v="hill" />
		<tag k="place" v="locality" />
		<tag k="ssr:stedsnr" v="803611" />
	</node>
	<node id="-901734" lat="64.1395027738" lon="11.1466777838">
		<tag k="fixme" v="consider natural=peak for the most distinct mountains in the district" />
		<tag k="name" v="Finnhalla" />
		<tag k="natural" v="hill" />
		<tag k="place" v="locality" />
		<tag k="ssr:stedsnr" v="836586" />
	</node>
	<node id="-901732" lat="64.3746777743" lon="11.0794805575">
		<tag k="name" v="Eidsbyggskaret" />
		<tag k="natural" v="valley" />
		<tag k="place" v="locality" />
		<tag k="ssr:stedsnr" v="412816" />
	</node>
	<node id="-901729" lat="64.1588722224" lon="10.8059888844">
		<tag k="alt_name" v="Galtin" />
		<tag k="name" v="Galten" />
		<tag k="natural" v="hill" />
		<tag k="place" v="locality" />
		<tag k="ssr:stedsnr" v="742564" />
	</node>
	<node id="-901725" lat="64.4350527751" lon="11.2907527803">
		<tag k="name" v="Tjurrumilhaugan" />
		<tag k="natural" v="hill" />
		<tag k="place" v="locality" />
		<tag k="ssr:stedsnr" v="863086" />
	</node>
	<node id="-901720" lat="64.361049997" lon="11.2236166741">
		<tag k="name" v="Gunhildholet" />
		<tag k="natural" v="valley" />
		<tag k="place" v="locality" />
		<tag k="ssr:stedsnr" v="958854" />
	</node>
	<node id="-901718" lat="64.2297250024" lon="11.2488277774">
		<tag k="name" v="Haugaberget" />
		<tag k="natural" v="hill" />
		<tag k="place" v="locality" />
		<tag k="ssr:stedsnr" v="706269" />
	</node>
	<node id="-901717" lat="64.4744388915" lon="11.1548166765">
		<tag k="name" v="Storlia" />
		<tag k="natural" v="slope" />
		<tag k="place" v="locality" />
		<tag k="ssr:stedsnr" v="654393" />
	</node>
	<node id="-901714" lat="64.1560666627" lon="10.9807249963">
		<tag k="name" v="Furudalen" />
		<tag k="natural" v="valley" />
		<tag k="place" v="locality" />
		<tag k="ssr:stedsnr" v="230557" />
	</node>
	<node id="-901712" lat="64.3003805531" lon="11.2697611114">
		<tag k="name" v="Bjønnadalen" />
		<tag k="natural" v="valley" />
		<tag k="place" v="locality" />
		<tag k="ssr:stedsnr" v="594354" />
	</node>
	<node id="-901710" lat="64.2398777782" lon="11.474852776">
		<tag k="name" v="Branthaugan" />
		<tag k="natural" v="hill" />
		<tag k="place" v="locality" />
		<tag k="ssr:stedsnr" v="169660" />
	</node>
	<node id="-901706" lat="64.301516667" lon="11.2559194377">
		<tag k="name" v="Storheiskaret" />
		<tag k="natural" v="valley" />
		<tag k="place" v="locality" />
		<tag k="ssr:stedsnr" v="473351" />
	</node>
	<node id="-901705" lat="64.4526944401" lon="11.0918416614">
		<tag k="fixme" v="consider natural=peak for the most distinct mountains in the district" />
		<tag k="name" v="Sørfjellet" />
		<tag k="natural" v="hill" />
		<tag k="place" v="locality" />
		<tag k="ssr:stedsnr" v="134519" />
	</node>
	<node id="-901704" lat="64.2442638931" lon="11.0218611119">
		<tag k="name" v="Blåvasshaugan" />
		<tag k="natural" v="hill" />
		<tag k="place" v="locality" />
		<tag k="ssr:stedsnr" v="48990" />
	</node>
	<node id="-901703" lat="64.1822138856" lon="11.2808888903">
		<tag k="name" v="Settershalla" />
		<tag k="natural" v="hill" />
		<tag k="place" v="locality" />
		<tag k="ssr:stedsnr" v="14795" />
	</node>
	<node id="-901701" lat="64.2287527753" lon="11.4135749958">
		<tag k="fixme" v="consider natural=peak for the most distinct mountains in the district" />
		<tag k="name" v="Kvisthalla" />
		<tag k="natural" v="hill" />
		<tag k="place" v="locality" />
		<tag k="ssr:stedsnr" v="169665" />
	</node>
	<node id="-901699" lat="64.2140527755" lon="11.4352055612">
		<tag k="name" v="Styggdalsberget" />
		<tag k="natural" v="hill" />
		<tag k="place" v="locality" />
		<tag k="ssr:stedsnr" v="291714" />
	</node>
	<node id="-901698" lat="64.5228888919" lon="11.0604444397">
		<tag k="name" v="Moan" />
		<tag k="place" v="locality" />
		<tag k="ssr:stedsnr" v="500723" />
	</node>
	<node id="-901697" lat="64.4437249969" lon="11.1358305478">
		<tag k="name" v="Heia" />
		<tag k="natural" v="hill" />
		<tag k="place" v="locality" />
		<tag k="ssr:stedsnr" v="230169" />
	</node>
	<node id="-901696" lat="64.2582250006" lon="11.2274472252">
		<tag k="name" v="Bergahaugen" />
		<tag k="natural" v="hill" />
		<tag k="place" v="locality" />
		<tag k="ssr:stedsnr" v="439877" />
	</node>
	<node id="-901695" lat="64.482019446" lon="11.1474916643">
		<tag k="fixme" v="consider natural=peak for the most distinct mountains in the district" />
		<tag k="name" v="Rundberghatten" />
		<tag k="natural" v="hill" />
		<tag k="place" v="locality" />
		<tag k="ssr:stedsnr" v="654388" />
	</node>
	<node id="-901693" lat="64.2788138929" lon="11.2682999989">
		<tag k="name" v="Bursbekkhallin" />
		<tag k="natural" v="slope" />
		<tag k="place" v="locality" />
		<tag k="ssr:stedsnr" v="378851" />
	</node>
	<node id="-901692" lat="64.3442222221" lon="11.0237138799">
		<tag k="name" v="Slættliin" />
		<tag k="natural" v="slope" />
		<tag k="place" v="locality" />
		<tag k="ssr:stedsnr" v="803344" />
	</node>
	<node id="-901691" lat="64.4718388882" lon="11.1628416755">
		<tag k="fixme" v="consider natural=peak for the most distinct mountains in the district" />
		<tag k="name" v="Oterdalshøgda" />
		<tag k="natural" v="hill" />
		<tag k="place" v="locality" />
		<tag k="ssr:stedsnr" v="837388" />
	</node>
	<node id="-901690" lat="64.212322225" lon="11.4004000048">
		<tag k="fixme" v="consider natural=peak for the most distinct mountains in the district" />
		<tag k="name" v="Svartåsen" />
		<tag k="natural" v="hill" />
		<tag k="place" v="locality" />
		<tag k="ssr:stedsnr" v="499906" />
	</node>
	<node id="-901684" lat="64.152558329" lon="11.2226333385">
		<tag k="alt_name" v="Nessestorhaugen" />
		<tag k="name" v="Storhaugen" />
		<tag k="natural" v="hill" />
		<tag k="place" v="locality" />
		<tag k="ssr:stedsnr" v="620772" />
	</node>
	<node id="-901681" lat="64.4243416691" lon="11.2342999899">
		<tag k="name" v="Snøflekkhollia" />
		<tag k="natural" v="slope" />
		<tag k="place" v="locality" />
		<tag k="ssr:stedsnr" v="75103" />
	</node>
	<node id="-901678" lat="64.3029527745" lon="11.2445611139">
		<tag k="alt_name" v="Durmålsfjellet" />
		<tag k="name" v="Durmålshaugen" />
		<tag k="natural" v="hill" />
		<tag k="place" v="locality" />
		<tag k="ssr:stedsnr" v="863905" />
	</node>
	<node id="-901674" lat="64.2133305594" lon="11.070597217">
		<tag k="fixme" v="consider natural=peak for the most distinct mountains in the district" />
		<tag k="name" v="Heggdalsliåsen" />
		<tag k="natural" v="hill" />
		<tag k="place" v="locality" />
		<tag k="ssr:stedsnr" v="196635" />
	</node>
	<node id="-901673" lat="64.3428527814" lon="11.0600305462">
		<tag k="name" v="Oksvolldalen" />
		<tag k="natural" v="valley" />
		<tag k="place" v="locality" />
		<tag k="ssr:stedsnr" v="135308" />
	</node>
	<node id="-901667" lat="64.1407027807" lon="11.1623083415">
		<tag k="fixme" v="consider natural=peak for the most distinct mountains in the district" />
		<tag k="name" v="Arneåsen" />
		<tag k="natural" v="hill" />
		<tag k="place" v="locality" />
		<tag k="ssr:stedsnr" v="411600" />
	</node>
	<node id="-901665" lat="64.4791944406" lon="11.0910750066">
		<tag k="name" v="Middagsskaret" />
		<tag k="natural" v="valley" />
		<tag k="place" v="locality" />
		<tag k="ssr:stedsnr" v="109444" />
	</node>
	<node id="-901664" lat="64.4393999977" lon="11.2756111118">
		<tag k="name" v="Vassbakkan" />
		<tag k="natural" v="slope" />
		<tag k="place" v="locality" />
		<tag k="ssr:stedsnr" v="135024" />
	</node>
	<node id="-901661" lat="64.1887555537" lon="11.2999388861">
		<tag k="fixme" v="consider natural=peak for the most distinct mountains in the district" />
		<tag k="name" v="Våttåheia" />
		<tag k="natural" v="hill" />
		<tag k="place" v="locality" />
		<tag k="ssr:stedsnr" v="14792" />
	</node>
	<node id="-901659" lat="64.2137722266" lon="11.1812611162">
		<tag k="name" v="Brenna" />
		<tag k="natural" v="hill" />
		<tag k="place" v="locality" />
		<tag k="ssr:stedsnr" v="888303" />
	</node>
	<node id="-901657" lat="64.2736888926" lon="11.4019499942">
		<tag k="fixme" v="consider natural=peak for the most distinct mountains in the district" />
		<tag k="name" v="Brattåsen" />
		<tag k="natural" v="hill" />
		<tag k="place" v="locality" />
		<tag k="ssr:stedsnr" v="14791" />
	</node>
	<node id="-901656" lat="64.229574996" lon="11.3228861169">
		<tag k="fixme" v="consider natural=peak for the most distinct mountains in the district" />
		<tag k="name" v="Kjerkåsen" />
		<tag k="natural" v="hill" />
		<tag k="place" v="locality" />
		<tag k="ssr:stedsnr" v="706226" />
	</node>
	<node id="-901654" lat="64.1704611076" lon="11.1930361175">
		<tag k="name" v="Pipmyrberga" />
		<tag k="natural" v="hill" />
		<tag k="place" v="locality" />
		<tag k="ssr:stedsnr" v="58718" />
	</node>
	<node id="-901651" lat="64.1466222257" lon="10.9613833407">
		<tag k="alt_name" v="Esplingdalen;Furudalen, s;Sør-Furudalen" />
		<tag k="name" v="Sørfurudalen" />
		<tag k="natural" v="valley" />
		<tag k="place" v="locality" />
		<tag k="ssr:stedsnr" v="559593" />
	</node>
	<node id="-901650" lat="64.3963472216" lon="11.1183638932">
		<tag k="fixme" v="consider natural=peak for the most distinct mountains in the district" />
		<tag k="name" v="Mefossheia" />
		<tag k="natural" v="hill" />
		<tag k="place" v="locality" />
		<tag k="ssr:stedsnr" v="681261" />
	</node>
	<node id="-901648" lat="64.2433611072" lon="11.3715527699">
		<tag k="name" v="Kleiva" />
		<tag k="natural" v="slope" />
		<tag k="place" v="locality" />
		<tag k="ssr:stedsnr" v="949233" />
	</node>
	<node id="-901646" lat="64.2839055535" lon="11.3214249929">
		<tag k="fixme" v="consider natural=peak for the most distinct mountains in the district" />
		<tag k="name" v="Sveisarkal" />
		<tag k="natural" v="hill" />
		<tag k="place" v="locality" />
		<tag k="ssr:stedsnr" v="291330" />
	</node>
	<node id="-901644" lat="64.1778305598" lon="11.3437694547">
		<tag k="fixme" v="consider natural=peak for the most distinct mountains in the district" />
		<tag k="name" v="Vålåvasshevlan" />
		<tag k="natural" v="hill" />
		<tag k="place" v="locality" />
		<tag k="ssr:stedsnr" v="742806" />
	</node>
	<node id="-901642" lat="64.1843643861" lon="11.1058818491">
		<tag k="fixme" v="consider natural=peak for the most distinct mountains in the district" />
		<tag k="name" v="Storsnøheia" />
		<tag k="natural" v="hill" />
		<tag k="place" v="locality" />
		<tag k="ssr:stedsnr" v="742548" />
	</node>
	<node id="-901640" lat="64.313333331" lon="11.1574944383">
		<tag k="name" v="Kallhammardalen" />
		<tag k="natural" v="valley" />
		<tag k="place" v="locality" />
		<tag k="ssr:stedsnr" v="715826" />
	</node>
	<node id="-901639" lat="64.2088722198" lon="11.1003611008">
		<tag k="fixme" v="consider natural=peak for the most distinct mountains in the district" />
		<tag k="name" v="Svartmoen" />
		<tag k="natural" v="hill" />
		<tag k="place" v="locality" />
		<tag k="ssr:stedsnr" v="352000" />
	</node>
	<node id="-901637" lat="64.2062111124" lon="11.2165499945">
		<tag k="fixme" v="consider natural=peak for the most distinct mountains in the district" />
		<tag k="name" v="Storåsen" />
		<tag k="natural" v="hill" />
		<tag k="place" v="locality" />
		<tag k="ssr:stedsnr" v="281367" />
	</node>
	<node id="-901635" lat="64.4573777738" lon="11.1602194446">
		<tag k="name" v="Tronga" />
		<tag k="natural" v="slope" />
		<tag k="place" v="locality" />
		<tag k="ssr:stedsnr" v="776182" />
	</node>
	<node id="-901633" lat="64.3112694402" lon="11.1729249941">
		<tag k="fixme" v="consider natural=peak for the most distinct mountains in the district" />
		<tag k="name" v="Jektheia" />
		<tag k="natural" v="hill" />
		<tag k="place" v="locality" />
		<tag k="ssr:stedsnr" v="135300" />
	</node>
	<node id="-901632" lat="64.3613138876" lon="11.2096027877">
		<tag k="name" v="Grotlia" />
		<tag k="natural" v="slope" />
		<tag k="place" v="locality" />
		<tag k="ssr:stedsnr" v="109832" />
	</node>
	<node id="-901631" lat="64.2502027761" lon="11.0738916754">
		<tag k="name" v="Sivertdalen" />
		<tag k="natural" v="valley" />
		<tag k="place" v="locality" />
		<tag k="ssr:stedsnr" v="230937" />
	</node>
	<node id="-901627" lat="64.2842999958" lon="11.0249166676">
		<tag k="fixme" v="consider natural=peak for the most distinct mountains in the district" />
		<tag k="name" v="Botnhalla" />
		<tag k="natural" v="hill" />
		<tag k="place" v="locality" />
		<tag k="ssr:stedsnr" v="560116" />
	</node>
	<node id="-901626" lat="64.1523666659" lon="11.1400722275">
		<tag k="name" v="Bjørklia" />
		<tag k="natural" v="slope" />
		<tag k="place" v="locality" />
		<tag k="ssr:stedsnr" v="897469" />
	</node>
	<node id="-901623" lat="64.1438694462" lon="11.0104361043">
		<tag k="fixme" v="consider natural=peak for the most distinct mountains in the district" />
		<tag k="name" v="Holmvikaksla" />
		<tag k="natural" v="hill" />
		<tag k="place" v="locality" />
		<tag k="ssr:stedsnr" v="324350" />
	</node>
	<node id="-901622" lat="64.1869527757" lon="11.2782194377">
		<tag k="fixme" v="consider natural=peak for the most distinct mountains in the district" />
		<tag k="name" v="Nordsetterhalla" />
		<tag k="natural" v="hill" />
		<tag k="place" v="locality" />
		<tag k="ssr:stedsnr" v="281347" />
	</node>
	<node id="-901620" lat="64.2297361069" lon="11.181958323">
		<tag k="name" v="Nilsenget" />
		<tag k="place" v="locality" />
		<tag k="ssr:stedsnr" v="645217" />
	</node>
	<node id="-901617" lat="64.1590611071" lon="11.2189388822">
		<tag k="alt_name" v="Eldåsan" />
		<tag k="fixme" v="consider natural=peak for the most distinct mountains in the district" />
		<tag k="name" v="Eldåsen" />
		<tag k="natural" v="hill" />
		<tag k="place" v="locality" />
		<tag k="ssr:stedsnr" v="559845" />
	</node>
	<node id="-901612" lat="64.1470166651" lon="11.1539416741">
		<tag k="name" v="Helmerhaugen" />
		<tag k="natural" v="hill" />
		<tag k="place" v="locality" />
		<tag k="ssr:stedsnr" v="897470" />
	</node>
	<node id="-901609" lat="64.27593611" lon="11.3223666709">
		<tag k="name" v="Svartdalen" />
		<tag k="natural" v="valley" />
		<tag k="place" v="locality" />
		<tag k="ssr:stedsnr" v="594332" />
	</node>
	<node id="-901604" lat="64.307808332" lon="11.2474666621">
		<tag k="name" v="Nordkleiva" />
		<tag k="natural" v="slope" />
		<tag k="place" v="locality" />
		<tag k="ssr:stedsnr" v="766201" />
	</node>
	<node id="-901600" lat="64.1450305593" lon="11.1813388953">
		<tag k="name" v="Steindalen" />
		<tag k="natural" v="valley" />
		<tag k="place" v="locality" />
		<tag k="ssr:stedsnr" v="888319" />
	</node>
	<node id="-901599" lat="64.1746194416" lon="10.9815555639">
		<tag k="name" v="Furudalshøgda" />
		<tag k="natural" v="hill" />
		<tag k="place" v="locality" />
		<tag k="ssr:stedsnr" v="14517" />
	</node>
	<node id="-901598" lat="64.1849833306" lon="10.7828194467">
		<tag k="name" v="Sneiheia" />
		<tag k="natural" v="hill" />
		<tag k="place" v="locality" />
		<tag k="ssr:stedsnr" v="499613" />
	</node>
	<node id="-901596" lat="64.4472499997" lon="11.2509638978">
		<tag k="name" v="Svartholet" />
		<tag k="natural" v="valley" />
		<tag k="place" v="locality" />
		<tag k="ssr:stedsnr" v="74018" />
	</node>
	<node id="-901594" lat="64.2478361088" lon="11.3877416585">
		<tag k="name" v="Lissbrenna" />
		<tag k="natural" v="hill" />
		<tag k="place" v="locality" />
		<tag k="ssr:stedsnr" v="48576" />
	</node>
	<node id="-901593" lat="64.4559805524" lon="11.2667555617">
		<tag k="name" v="Bosshaugen" />
		<tag k="natural" v="hill" />
		<tag k="place" v="locality" />
		<tag k="ssr:stedsnr" v="438010" />
	</node>
	<node id="-901592" lat="64.2265166707" lon="11.0273333335">
		<tag k="name" v="Storlia" />
		<tag k="natural" v="slope" />
		<tag k="place" v="locality" />
		<tag k="ssr:stedsnr" v="351987" />
	</node>
	<node id="-901591" lat="64.2642888882" lon="11.0728527743">
		<tag k="alt_name" v="Bjønnaåsen" />
		<tag k="fixme" v="consider natural=peak for the most distinct mountains in the district" />
		<tag k="name" v="Bjønnåsen" />
		<tag k="natural" v="hill" />
		<tag k="place" v="locality" />
		<tag k="ssr:stedsnr" v="655918" />
	</node>
	<node id="-901590" lat="64.179980557" lon="11.2718472193">
		<tag k="name" v="Svartberget" />
		<tag k="natural" v="hill" />
		<tag k="place" v="locality" />
		<tag k="ssr:stedsnr" v="402398" />
	</node>
	<node id="-901586" lat="64.2355194454" lon="11.3594749898">
		<tag k="name" v="Øvergårdsberga" />
		<tag k="natural" v="hill" />
		<tag k="place" v="locality" />
		<tag k="ssr:stedsnr" v="706238" />
	</node>
	<node id="-901585" lat="64.3032888914" lon="11.2054361064">
		<tag k="name" v="Åsnesmoen" />
		<tag k="place" v="locality" />
		<tag k="ssr:stedsnr" v="38212" />
	</node>
	<node id="-901584" lat="64.1729888844" lon="11.1388583391">
		<tag k="fixme" v="consider natural=peak for the most distinct mountains in the district" />
		<tag k="name" v="Pempen" />
		<tag k="natural" v="hill" />
		<tag k="place" v="locality" />
		<tag k="ssr:stedsnr" v="14515" />
	</node>
	<node id="-901578" lat="64.3714500008" lon="11.1550194362">
		<tag k="name" v="Peterdalen" />
		<tag k="natural" v="valley" />
		<tag k="place" v="locality" />
		<tag k="ssr:stedsnr" v="109821" />
	</node>
	<node id="-901576" lat="64.4610694483" lon="11.0823944498">
		<tag k="name" v="Stormstagen" />
		<tag k="natural" v="slope" />
		<tag k="place" v="locality" />
		<tag k="ssr:stedsnr" v="351206" />
	</node>
	<node id="-901574" lat="64.4438499985" lon="11.2913583403">
		<tag k="name" v="Holmarka" />
		<tag k="natural" v="slope" />
		<tag k="place" v="locality" />
		<tag k="ssr:stedsnr" v="837767" />
	</node>
	<node id="-901573" lat="64.1460555598" lon="11.1130861179">
		<tag k="name" v="Kuskaret" />
		<tag k="natural" v="valley" />
		<tag k="place" v="locality" />
		<tag k="ssr:stedsnr" v="897467" />
	</node>
	<node id="-901570" lat="64.3139111101" lon="11.2441916724">
		<tag k="name" v="Dalavikskaret" />
		<tag k="natural" v="valley" />
		<tag k="place" v="locality" />
		<tag k="ssr:stedsnr" v="38209" />
	</node>
	<node id="-901568" lat="64.1534611136" lon="11.1752999905">
		<tag k="alt_name" v="Millomheia" />
		<tag k="name" v="Mellomheia" />
		<tag k="natural" v="hill" />
		<tag k="place" v="locality" />
		<tag k="ssr:stedsnr" v="863614" />
	</node>
	<node id="-901562" lat="64.2628388902" lon="11.2527194489">
		<tag k="name" v="Mårstokkhaugen" />
		<tag k="natural" v="hill" />
		<tag k="place" v="locality" />
		<tag k="ssr:stedsnr" v="706204" />
	</node>
	<node id="-901561" lat="64.2076888931" lon="11.380866661">
		<tag k="fixme" v="consider natural=peak for the most distinct mountains in the district" />
		<tag k="name" v="Kvennhushalla" />
		<tag k="natural" v="hill" />
		<tag k="place" v="locality" />
		<tag k="ssr:stedsnr" v="281333" />
	</node>
	<node id="-901560" lat="64.260908331" lon="11.0405861161">
		<tag k="name" v="Lonhalla" />
		<tag k="natural" v="hill" />
		<tag k="place" v="locality" />
		<tag k="ssr:stedsnr" v="317221" />
	</node>
	<node id="-901558" lat="64.5199111112" lon="11.1055750033">
		<tag k="name" v="Valhaugen" />
		<tag k="natural" v="hill" />
		<tag k="place" v="locality" />
		<tag k="ssr:stedsnr" v="389152" />
	</node>
	<node id="-901556" lat="64.2183666666" lon="11.3387500085">
		<tag k="fixme" v="consider natural=peak for the most distinct mountains in the district" />
		<tag k="name" v="Seteråsen" />
		<tag k="natural" v="hill" />
		<tag k="place" v="locality" />
		<tag k="ssr:stedsnr" v="281332" />
	</node>
	<node id="-901552" lat="64.3813555537" lon="11.1704972286">
		<tag k="name" v="Lakshølhaugen" />
		<tag k="natural" v="hill" />
		<tag k="place" v="locality" />
		<tag k="ssr:stedsnr" v="681246" />
	</node>
	<node id="-901549" lat="64.5499249961" lon="11.0602361051">
		<tag k="name" v="Sølvskulen" />
		<tag k="natural" v="hill" />
		<tag k="place" v="locality" />
		<tag k="ssr:stedsnr" v="631123" />
	</node>
	<node id="-901545" lat="64.2700249999" lon="11.3065944474">
		<tag k="name" v="Brånnån" />
		<tag k="natural" v="slope" />
		<tag k="place" v="locality" />
		<tag k="ssr:stedsnr" v="594320" />
	</node>
	<node id="-901544" lat="64.3891111152" lon="11.2370111106">
		<tag k="fixme" v="consider natural=peak for the most distinct mountains in the district" />
		<tag k="name" v="Breivikfjellet" />
		<tag k="natural" v="hill" />
		<tag k="place" v="locality" />
		<tag k="ssr:stedsnr" v="499059" />
	</node>
	<node id="-901542" lat="64.3368333312" lon="11.3010805598">
		<tag k="name" v="Grotjønnåsen" />
		<tag k="natural" v="hill" />
		<tag k="place" v="locality" />
		<tag k="ssr:stedsnr" v="523180" />
	</node>
	<node id="-901541" lat="64.2383388922" lon="11.3780861176">
		<tag k="fixme" v="consider natural=peak for the most distinct mountains in the district" />
		<tag k="name" v="Husåsen" />
		<tag k="natural" v="hill" />
		<tag k="place" v="locality" />
		<tag k="ssr:stedsnr" v="14769" />
	</node>
	<node id="-901538" lat="64.3045166667" lon="11.2553166664">
		<tag k="name" v="Hundholhaugen" />
		<tag k="natural" v="hill" />
		<tag k="place" v="locality" />
		<tag k="ssr:stedsnr" v="837333" />
	</node>
	<node id="-901537" lat="64.1829194475" lon="11.22518612">
		<tag k="name" v="Tåbakken" />
		<tag k="natural" v="slope" />
		<tag k="place" v="locality" />
		<tag k="ssr:stedsnr" v="827354" />
	</node>
	<node id="-901535" lat="64.1677250011" lon="10.8038555466">
		<tag k="name" v="Saudalen" />
		<tag k="natural" v="valley" />
		<tag k="place" v="locality" />
		<tag k="ssr:stedsnr" v="655504" />
	</node>
	<node id="-901533" lat="64.2560611086" lon="11.2542805456">
		<tag k="name" v="Dølin" />
		<tag k="natural" v="valley" />
		<tag k="place" v="locality" />
		<tag k="ssr:stedsnr" v="706196" />
	</node>
	<node id="-901532" lat="64.4267305599" lon="11.0400611114">
		<tag k="fixme" v="consider natural=peak for the most distinct mountains in the district" />
		<tag k="name" v="Furuhatten" />
		<tag k="natural" v="hill" />
		<tag k="place" v="locality" />
		<tag k="ssr:stedsnr" v="533206" />
	</node>
	<node id="-901529" lat="64.1773972261" lon="11.2035722287">
		<tag k="name" v="Kolberget" />
		<tag k="natural" v="hill" />
		<tag k="place" v="locality" />
		<tag k="ssr:stedsnr" v="402384" />
	</node>
	<node id="-901527" lat="64.2866888879" lon="11.0491222177">
		<tag k="name" v="Kittan" />
		<tag k="natural" v="valley" />
		<tag k="place" v="locality" />
		<tag k="ssr:stedsnr" v="560114" />
	</node>
	<node id="-901525" lat="64.3849222254" lon="11.1850666622">
		<tag k="fixme" v="consider natural=peak for the most distinct mountains in the district" />
		<tag k="name" v="Skardbergfjellet" />
		<tag k="natural" v="hill" />
		<tag k="place" v="locality" />
		<tag k="ssr:stedsnr" v="742251" />
	</node>
	<node id="-901524" lat="64.4103999979" lon="11.1658194525">
		<tag k="fixme" v="consider natural=peak for the most distinct mountains in the district" />
		<tag k="name" v="Stortuva" />
		<tag k="natural" v="hill" />
		<tag k="place" v="locality" />
		<tag k="ssr:stedsnr" v="135276" />
	</node>
	<node id="-901523" lat="64.3041194423" lon="11.2916749971">
		<tag k="name" v="Sør-Urdalen" />
		<tag k="natural" v="valley" />
		<tag k="place" v="locality" />
		<tag k="ssr:stedsnr" v="837327" />
	</node>
	<node id="-901519" lat="64.4692027752" lon="11.1114055471">
		<tag k="name" v="Måssåhatten" />
		<tag k="natural" v="hill" />
		<tag k="place" v="locality" />
		<tag k="ssr:stedsnr" v="499334" />
	</node>
	<node id="-901517" lat="64.2416388865" lon="11.304355561">
		<tag k="fixme" v="consider natural=peak for the most distinct mountains in the district" />
		<tag k="name" v="Kaldalsbrottet" />
		<tag k="natural" v="hill" />
		<tag k="place" v="locality" />
		<tag k="ssr:stedsnr" v="196878" />
	</node>
	<node id="-901512" lat="64.2087638881" lon="11.1878305601">
		<tag k="name" v="Brudalen" />
		<tag k="natural" v="valley" />
		<tag k="place" v="locality" />
		<tag k="ssr:stedsnr" v="281317" />
	</node>
	<node id="-901511" lat="64.2099055571" lon="11.169811107">
		<tag k="name" v="Sagstellingholet" />
		<tag k="natural" v="valley" />
		<tag k="place" v="locality" />
		<tag k="ssr:stedsnr" v="655523" />
	</node>
	<node id="-901510" lat="64.1643749968" lon="11.3340749962">
		<tag k="fixme" v="consider natural=peak for the most distinct mountains in the district" />
		<tag k="name" v="Sør-Langengåsen" />
		<tag k="natural" v="hill" />
		<tag k="place" v="locality" />
		<tag k="ssr:stedsnr" v="654743" />
	</node>
	<node id="-901495" lat="64.1585000023" lon="11.2100472306">
		<tag k="name" v="Styggdalen" />
		<tag k="natural" v="valley" />
		<tag k="place" v="locality" />
		<tag k="ssr:stedsnr" v="827378" />
	</node>
	<node id="-901494" lat="64.4614694448" lon="11.0658805466">
		<tag k="fixme" v="consider natural=peak for the most distinct mountains in the district" />
		<tag k="name" v="Skulen" />
		<tag k="natural" v="hill" />
		<tag k="place" v="locality" />
		<tag k="ssr:stedsnr" v="48164" />
	</node>
	<node id="-901493" lat="64.4774083297" lon="11.1386250066">
		<tag k="name" v="Krokskaret" />
		<tag k="natural" v="valley" />
		<tag k="place" v="locality" />
		<tag k="ssr:stedsnr" v="412360" />
	</node>
	<node id="-901492" lat="64.1743888844" lon="11.3441055577">
		<tag k="fixme" v="consider natural=peak for the most distinct mountains in the district" />
		<tag k="name" v="Storåsen" />
		<tag k="natural" v="hill" />
		<tag k="place" v="locality" />
		<tag k="ssr:stedsnr" v="654738" />
	</node>
	<node id="-901477" lat="64.1885083329" lon="11.2701027767">
		<tag k="fixme" v="consider natural=peak for the most distinct mountains in the district" />
		<tag k="name" v="Slettåsen" />
		<tag k="natural" v="hill" />
		<tag k="place" v="locality" />
		<tag k="ssr:stedsnr" v="888283" />
	</node>
	<node id="-901473" lat="64.1888987686" lon="11.0983661917">
		<tag k="fixme" v="consider natural=peak for the most distinct mountains in the district" />
		<tag k="name" v="Lissnøheia" />
		<tag k="natural" v="hill" />
		<tag k="place" v="locality" />
		<tag k="ssr:stedsnr" v="230502" />
	</node>
	<node id="-901471" lat="64.1725500043" lon="11.3184638902">
		<tag k="fixme" v="consider natural=peak for the most distinct mountains in the district" />
		<tag k="name" v="Sagstellingsåsen" />
		<tag k="natural" v="hill" />
		<tag k="place" v="locality" />
		<tag k="ssr:stedsnr" v="654735" />
	</node>
	<node id="-901470" lat="64.1832750006" lon="10.8976416687">
		<tag k="name" v="Brannhaugan" />
		<tag k="natural" v="hill" />
		<tag k="place" v="locality" />
		<tag k="ssr:stedsnr" v="742541" />
	</node>
	<node id="-901468" lat="64.4509222232" lon="11.1687388836">
		<tag k="name" v="Sveaskaret" />
		<tag k="natural" v="valley" />
		<tag k="place" v="locality" />
		<tag k="ssr:stedsnr" v="48157" />
	</node>
	<node id="-901466" lat="64.2840111121" lon="11.2497194536">
		<tag k="alt_name" v="Bursklompen" />
		<tag k="name" v="Bursklumpen" />
		<tag k="natural" v="hill" />
		<tag k="place" v="locality" />
		<tag k="ssr:stedsnr" v="75874" />
	</node>
	<node id="-901464" lat="64.3711416697" lon="11.2334805503">
		<tag k="fixme" v="consider natural=peak for the most distinct mountains in the district" />
		<tag k="name" v="Geitafjellet" />
		<tag k="natural" v="hill" />
		<tag k="place" v="locality" />
		<tag k="ssr:stedsnr" v="13946" />
	</node>
	<node id="-901461" lat="64.2998638873" lon="11.2857833242">
		<tag k="name" v="Fossheirabben" />
		<tag k="natural" v="ridge" />
		<tag k="place" v="locality" />
		<tag k="ssr:stedsnr" v="837340" />
	</node>
	<node id="-901460" lat="64.211552782" lon="11.1930666612">
		<tag k="name" v="Kikarberget" />
		<tag k="natural" v="hill" />
		<tag k="place" v="locality" />
		<tag k="ssr:stedsnr" v="281319" />
	</node>
	<node id="-901459" lat="64.391813892" lon="11.133119441">
		<tag k="name" v="Rognlia" />
		<tag k="natural" v="slope" />
		<tag k="place" v="locality" />
		<tag k="ssr:stedsnr" v="135267" />
	</node>
	<node id="-901458" lat="64.1726333289" lon="11.3002500084">
		<tag k="fixme" v="consider natural=peak for the most distinct mountains in the district" />
		<tag k="name" v="Lauvåsen" />
		<tag k="natural" v="hill" />
		<tag k="place" v="locality" />
		<tag k="ssr:stedsnr" v="196871" />
	</node>
	<node id="-901456" lat="64.3327666627" lon="11.2236805642">
		<tag k="name" v="Åsabakkan" />
		<tag k="natural" v="slope" />
		<tag k="place" v="locality" />
		<tag k="ssr:stedsnr" v="159183" />
	</node>
	<node id="-901455" lat="64.2438777807" lon="11.2858888853">
		<tag k="fixme" v="consider natural=peak for the most distinct mountains in the district" />
		<tag k="name" v="Ramsskulen" />
		<tag k="natural" v="hill" />
		<tag k="place" v="locality" />
		<tag k="ssr:stedsnr" v="499876" />
	</node>
	<node id="-901453" lat="64.2477333362" lon="11.1516583429">
		<tag k="name" v="Nordliin" />
		<tag k="natural" v="slope" />
		<tag k="place" v="locality" />
		<tag k="ssr:stedsnr" v="655865" />
	</node>
	<node id="-901451" lat="64.2967944457" lon="11.1510388821">
		<tag k="name" v="Vesterlirabban" />
		<tag k="natural" v="hill" />
		<tag k="place" v="locality" />
		<tag k="ssr:stedsnr" v="109787" />
	</node>
	<node id="-901450" lat="64.2434944414" lon="11.2968583352">
		<tag k="name" v="Ramsen" />
		<tag k="natural" v="hill" />
		<tag k="place" v="locality" />
		<tag k="ssr:stedsnr" v="281302" />
	</node>
	<node id="-901447" lat="64.22854722" lon="11.1475305547">
		<tag k="name" v="Bjørgheia" />
		<tag k="natural" v="hill" />
		<tag k="place" v="locality" />
		<tag k="ssr:stedsnr" v="142336" />
	</node>
	<node id="-901442" lat="64.1643944485" lon="11.3005861115">
		<tag k="fixme" v="consider natural=peak for the most distinct mountains in the district" />
		<tag k="name" v="Bratthalla" />
		<tag k="natural" v="hill" />
		<tag k="place" v="locality" />
		<tag k="ssr:stedsnr" v="402341" />
	</node>
	<node id="-901434" lat="64.2389694405" lon="11.1385916568">
		<tag k="fixme" v="consider natural=peak for the most distinct mountains in the district" />
		<tag k="name" v="Monsslætthøgda" />
		<tag k="natural" v="hill" />
		<tag k="place" v="locality" />
		<tag k="ssr:stedsnr" v="196597" />
	</node>
	<node id="-901433" lat="64.2063527767" lon="11.1980416649">
		<tag k="name" v="Øvergårdsberget" />
		<tag k="natural" v="hill" />
		<tag k="place" v="locality" />
		<tag k="ssr:stedsnr" v="888253" />
	</node>
	<node id="-901423" lat="64.2420222237" lon="11.1803500006">
		<tag k="name" v="Skartømtet" />
		<tag k="natural" v="valley" />
		<tag k="place" v="locality" />
		<tag k="ssr:stedsnr" v="281307" />
	</node>
	<node id="-901422" lat="64.1957472186" lon="11.2303583231">
		<tag k="name" v="Lindberget" />
		<tag k="natural" v="hill" />
		<tag k="place" v="locality" />
		<tag k="ssr:stedsnr" v="402354" />
	</node>
	<node id="-901421" lat="64.3397361137" lon="11.2328805585">
		<tag k="name" v="Munkhamran" />
		<tag k="place" v="locality" />
		<tag k="ssr:stedsnr" v="560903" />
	</node>
	<node id="-901420" lat="64.1789333323" lon="11.2294138854">
		<tag k="name" v="Gåsbakken" />
		<tag k="natural" v="slope" />
		<tag k="place" v="locality" />
		<tag k="ssr:stedsnr" v="584385" />
	</node>
	<node id="-901418" lat="64.2938750039" lon="11.1163249959">
		<tag k="name" v="Finnandreastoppen" />
		<tag k="natural" v="hill" />
		<tag k="place" v="locality" />
		<tag k="ssr:stedsnr" v="620176" />
	</node>
	<node id="-901415" lat="64.4349388849" lon="11.0813611114">
		<tag k="name" v="Hatten" />
		<tag k="natural" v="hill" />
		<tag k="place" v="locality" />
		<tag k="ssr:stedsnr" v="924419" />
	</node>
	<node id="-901414" lat="64.307822225" lon="11.1214527859">
		<tag k="alt_name" v="Steinheiin" />
		<tag k="fixme" v="consider natural=peak for the most distinct mountains in the district" />
		<tag k="name" v="Steinheia" />
		<tag k="natural" v="hill" />
		<tag k="place" v="locality" />
		<tag k="ssr:stedsnr" v="75334" />
	</node>
	<node id="-901411" lat="64.4460277736" lon="11.1613277794">
		<tag k="name" v="Sjøhaugen" />
		<tag k="natural" v="hill" />
		<tag k="place" v="locality" />
		<tag k="ssr:stedsnr" v="351170" />
	</node>
	<node id="-901410" lat="64.2970944426" lon="10.9709777824">
		<tag k="name" v="Salan" />
		<tag k="natural" v="valley" />
		<tag k="place" v="locality" />
		<tag k="ssr:stedsnr" v="924141" />
	</node>
	<node id="-901405" lat="64.4467583331" lon="11.2372916591">
		<tag k="name" v="Sundsdalen" />
		<tag k="natural" v="valley" />
		<tag k="place" v="locality" />
		<tag k="ssr:stedsnr" v="48146" />
	</node>
	<node id="-901403" lat="64.1771027788" lon="10.7435611051">
		<tag k="name" v="Grasvasskaret" />
		<tag k="natural" v="valley" />
		<tag k="place" v="locality" />
		<tag k="ssr:stedsnr" v="230482" />
	</node>
	<node id="-901396" lat="64.1630750029" lon="10.7931722155">
		<tag k="name" v="Småfossliin" />
		<tag k="natural" v="slope" />
		<tag k="place" v="locality" />
		<tag k="ssr:stedsnr" v="230483" />
	</node>
	<node id="-901395" lat="64.4527861091" lon="11.1125111063">
		<tag k="name" v="Langdalen" />
		<tag k="natural" v="valley" />
		<tag k="place" v="locality" />
		<tag k="ssr:stedsnr" v="627464" />
	</node>
	<node id="-901393" lat="64.2825611074" lon="11.1082861129">
		<tag k="name" v="Saksskaret" />
		<tag k="natural" v="valley" />
		<tag k="place" v="locality" />
		<tag k="ssr:stedsnr" v="351930" />
	</node>
	<node id="-901389" lat="64.4954305564" lon="11.1045888872">
		<tag k="alt_name" v="Otertoppen" />
		<tag k="name" v="Ledangsklompan" />
		<tag k="natural" v="hill" />
		<tag k="place" v="locality" />
		<tag k="ssr:stedsnr" v="445483" />
	</node>
	<node id="-901387" lat="64.4552138856" lon="11.0813611145">
		<tag k="name" v="Sørlidalen" />
		<tag k="natural" v="valley" />
		<tag k="place" v="locality" />
		<tag k="ssr:stedsnr" v="931469" />
	</node>
	<node id="-901382" lat="64.2569694445" lon="11.4202416667">
		<tag k="fixme" v="consider natural=peak for the most distinct mountains in the district" />
		<tag k="name" v="Granenghevlan" />
		<tag k="natural" v="hill" />
		<tag k="place" v="locality" />
		<tag k="ssr:stedsnr" v="898612" />
	</node>
	<node id="-901380" lat="64.2837111086" lon="11.2985416701">
		<tag k="name" v="Pemplia" />
		<tag k="natural" v="slope" />
		<tag k="place" v="locality" />
		<tag k="ssr:stedsnr" v="837320" />
	</node>
	<node id="-901378" lat="64.1495777816" lon="11.2143083357">
		<tag k="name" v="Moaklompen" />
		<tag k="natural" v="hill" />
		<tag k="place" v="locality" />
		<tag k="ssr:stedsnr" v="463339" />
	</node>
	<node id="-901376" lat="64.1550361139" lon="11.1938138837">
		<tag k="fixme" v="consider natural=peak for the most distinct mountains in the district" />
		<tag k="name" v="Nonslihøgda" />
		<tag k="natural" v="hill" />
		<tag k="place" v="locality" />
		<tag k="ssr:stedsnr" v="463338" />
	</node>
	<node id="-901375" lat="64.418094447" lon="11.2273916767">
		<tag k="name" v="Amundlia" />
		<tag k="natural" v="slope" />
		<tag k="place" v="locality" />
		<tag k="ssr:stedsnr" v="75051" />
	</node>
	<node id="-901373" lat="64.2541777742" lon="11.4737277765">
		<tag k="name" v="Flåbekktjønnaksla" />
		<tag k="natural" v="hill" />
		<tag k="place" v="locality" />
		<tag k="ssr:stedsnr" v="196851" />
	</node>
	<node id="-901367" lat="64.1497250005" lon="11.2051666731">
		<tag k="name" v="Skavdalen" />
		<tag k="natural" v="valley" />
		<tag k="place" v="locality" />
		<tag k="ssr:stedsnr" v="584369" />
	</node>
	<node id="-901364" lat="64.2858916701" lon="11.218083327">
		<tag k="name" v="Rundhaugen" />
		<tag k="natural" v="hill" />
		<tag k="place" v="locality" />
		<tag k="ssr:stedsnr" v="803838" />
	</node>
	<node id="-901362" lat="64.4407083336" lon="11.2307833312">
		<tag k="alt_name" v="Borgafjellet" />
		<tag k="fixme" v="consider natural=peak for the most distinct mountains in the district" />
		<tag k="name" v="Sundsborga" />
		<tag k="natural" v="hill" />
		<tag k="place" v="locality" />
		<tag k="ssr:stedsnr" v="559021" />
	</node>
	<node id="-901360" lat="64.2440777775" lon="11.1118305599">
		<tag k="name" v="Engdalen" />
		<tag k="natural" v="valley" />
		<tag k="place" v="locality" />
		<tag k="ssr:stedsnr" v="716949" />
	</node>
	<node id="-901358" lat="64.463549998" lon="11.1091749952">
		<tag k="name" v="Finnhallaren" />
		<tag k="natural" v="hill" />
		<tag k="place" v="locality" />
		<tag k="ssr:stedsnr" v="958385" />
	</node>
	<node id="-901357" lat="64.5347305529" lon="11.0399861128">
		<tag k="name" v="Skulin" />
		<tag k="natural" v="hill" />
		<tag k="place" v="locality" />
		<tag k="ssr:stedsnr" v="473286" />
	</node>
	<node id="-901354" lat="64.4038333365" lon="11.2064194353">
		<tag k="fixme" v="consider natural=peak for the most distinct mountains in the district" />
		<tag k="name" v="Halvgåttaksla" />
		<tag k="natural" v="hill" />
		<tag k="place" v="locality" />
		<tag k="ssr:stedsnr" v="803276" />
	</node>
	<node id="-901353" lat="64.1859472253" lon="11.1718916737">
		<tag k="name" v="Finnkådalen" />
		<tag k="natural" v="valley" />
		<tag k="place" v="locality" />
		<tag k="ssr:stedsnr" v="776508" />
	</node>
	<node id="-901352" lat="64.2469472239" lon="11.4715194462">
		<tag k="name" v="Brenthaugen" />
		<tag k="natural" v="hill" />
		<tag k="place" v="locality" />
		<tag k="ssr:stedsnr" v="291632" />
	</node>
	<node id="-901351" lat="64.4471055575" lon="11.116477775">
		<tag k="fixme" v="multiple name tags, choose one and add the other to alt_name; consider natural=peak for the most distinct mountains in the district" />
		<tag k="name" v="Hestfjellet;Stuheia" />
		<tag k="natural" v="hill" />
		<tag k="place" v="locality" />
		<tag k="ssr:stedsnr" v="620437" />
	</node>
	<node id="-901346" lat="64.3101333331" lon="11.2879361102">
		<tag k="name" v="Høyfættskulan" />
		<tag k="natural" v="ridge" />
		<tag k="place" v="locality" />
		<tag k="ssr:stedsnr" v="534325" />
	</node>
	<node id="-901342" lat="64.280063891" lon="11.1360805513">
		<tag k="fixme" v="consider natural=peak for the most distinct mountains in the district" />
		<tag k="name" v="Årgårdsfjellet" />
		<tag k="natural" v="hill" />
		<tag k="place" v="locality" />
		<tag k="ssr:stedsnr" v="716922" />
	</node>
	<node id="-901341" lat="64.1713916695" lon="11.0506333261">
		<tag k="fixme" v="consider natural=peak for the most distinct mountains in the district" />
		<tag k="name" v="Storåsen" />
		<tag k="natural" v="hill" />
		<tag k="place" v="locality" />
		<tag k="ssr:stedsnr" v="439560" />
	</node>
	<node id="-901340" lat="64.1613694461" lon="11.0926416624">
		<tag k="fixme" v="consider natural=peak for the most distinct mountains in the district" />
		<tag k="name" v="Geitaryggen" />
		<tag k="natural" v="hill" />
		<tag k="place" v="locality" />
		<tag k="ssr:stedsnr" v="864626" />
	</node>
	<node id="-901339" lat="64.2027222196" lon="11.1293027754">
		<tag k="name" v="Stokkskaret" />
		<tag k="natural" v="valley" />
		<tag k="place" v="locality" />
		<tag k="ssr:stedsnr" v="776505" />
	</node>
	<node id="-901334" lat="64.4391666677" lon="11.2432555532">
		<tag k="name" v="Mollbakkmoan" />
		<tag k="place" v="locality" />
		<tag k="ssr:stedsnr" v="196027" />
	</node>
	<node id="-901330" lat="64.4642000034" lon="11.1672250057">
		<tag k="fixme" v="consider natural=peak for the most distinct mountains in the district" />
		<tag k="name" v="Storfjellet" />
		<tag k="natural" v="hill" />
		<tag k="place" v="locality" />
		<tag k="ssr:stedsnr" v="378514" />
	</node>
	<node id="-901328" lat="64.2185083378" lon="11.2624777759">
		<tag k="fixme" v="consider natural=peak for the most distinct mountains in the district" />
		<tag k="name" v="Tortåsen" />
		<tag k="natural" v="hill" />
		<tag k="place" v="locality" />
		<tag k="ssr:stedsnr" v="402313" />
	</node>
	<node id="-901325" lat="64.1686888908" lon="11.3303250008">
		<tag k="alt_name" v="Nord - Langengåsen" />
		<tag k="fixme" v="consider natural=peak for the most distinct mountains in the district" />
		<tag k="name" v="Nordlangengåsen" />
		<tag k="natural" v="hill" />
		<tag k="place" v="locality" />
		<tag k="ssr:stedsnr" v="560882" />
	</node>
	<node id="-901324" lat="64.2553972193" lon="11.4224722266">
		<tag k="name" v="Storslettdalen" />
		<tag k="natural" v="valley" />
		<tag k="place" v="locality" />
		<tag k="ssr:stedsnr" v="291627" />
	</node>
	<node id="-901318" lat="64.2555583295" lon="11.0053500076">
		<tag k="name" v="Godvasslia" />
		<tag k="natural" v="slope" />
		<tag k="place" v="locality" />
		<tag k="ssr:stedsnr" v="742219" />
	</node>
	<node id="-901309" lat="64.1657388874" lon="11.3363055545">
		<tag k="name" v="Temperdalen" />
		<tag k="natural" v="valley" />
		<tag k="place" v="locality" />
		<tag k="ssr:stedsnr" v="715747" />
	</node>
	<node id="-901308" lat="64.4696666678" lon="11.1197166582">
		<tag k="name" v="Sjålihaugen" />
		<tag k="natural" v="hill" />
		<tag k="place" v="locality" />
		<tag k="ssr:stedsnr" v="897377" />
	</node>
	<node id="-901307" lat="64.2599472223" lon="11.1011222268">
		<tag k="alt_name" v="Buamoklompen" />
		<tag k="name" v="Buamoklumpen" />
		<tag k="natural" v="hill" />
		<tag k="place" v="locality" />
		<tag k="ssr:stedsnr" v="742218" />
	</node>
	<node id="-901304" lat="64.2706527759" lon="11.4520277771">
		<tag k="fixme" v="consider natural=peak for the most distinct mountains in the district" />
		<tag k="name" v="Lomtjønnåsen" />
		<tag k="natural" v="hill" />
		<tag k="place" v="locality" />
		<tag k="ssr:stedsnr" v="864882" />
	</node>
	<node id="-901302" lat="64.4540388877" lon="11.1705138936">
		<tag k="name" v="Olafjellet" />
		<tag k="natural" v="hill" />
		<tag k="place" v="locality" />
		<tag k="ssr:stedsnr" v="169172" />
	</node>
	<node id="-901301" lat="64.2326444402" lon="11.3379333269">
		<tag k="fixme" v="consider natural=peak for the most distinct mountains in the district" />
		<tag k="name" v="Slåttåsen" />
		<tag k="natural" v="hill" />
		<tag k="place" v="locality" />
		<tag k="ssr:stedsnr" v="888217" />
	</node>
	<node id="-901300" lat="64.1979416678" lon="11.0766444538">
		<tag k="name" v="Rognlia" />
		<tag k="natural" v="slope" />
		<tag k="place" v="locality" />
		<tag k="ssr:stedsnr" v="472486" />
	</node>
	<node id="-901299" lat="64.2160111089" lon="11.4124749901">
		<tag k="fixme" v="consider natural=peak for the most distinct mountains in the district" />
		<tag k="name" v="Hallin" />
		<tag k="natural" v="hill" />
		<tag k="place" v="locality" />
		<tag k="ssr:stedsnr" v="594662" />
	</node>
	<node id="-901297" lat="64.1878138865" lon="11.1414305632">
		<tag k="name" v="Raffeldalen" />
		<tag k="natural" v="valley" />
		<tag k="place" v="locality" />
		<tag k="ssr:stedsnr" v="716548" />
	</node>
	<node id="-901295" lat="64.1892499966" lon="11.3639277815">
		<tag k="name" v="Digermulen" />
		<tag k="natural" v="hill" />
		<tag k="place" v="locality" />
		<tag k="ssr:stedsnr" v="803822" />
	</node>
	<node id="-901294" lat="64.2295166705" lon="11.2695444445">
		<tag k="alt_name" v="Olderlitinden" />
		<tag k="fixme" v="consider natural=peak for the most distinct mountains in the district" />
		<tag k="name" v="Sørlitinden" />
		<tag k="natural" v="hill" />
		<tag k="place" v="locality" />
		<tag k="ssr:stedsnr" v="13920" />
	</node>
	<node id="-901293" lat="64.2144111141" lon="11.3959166631">
		<tag k="name" v="Beretmyrhaugen" />
		<tag k="natural" v="hill" />
		<tag k="place" v="locality" />
		<tag k="ssr:stedsnr" v="837692" />
	</node>
	<node id="-901290" lat="64.2774333309" lon="11.3071027704">
		<tag k="name" v="Hundholskaret" />
		<tag k="natural" v="valley" />
		<tag k="place" v="locality" />
		<tag k="ssr:stedsnr" v="170342" />
	</node>
	<node id="-901289" lat="64.2017666658" lon="11.2174583326">
		<tag k="name" v="Ørstudalen" />
		<tag k="natural" v="valley" />
		<tag k="place" v="locality" />
		<tag k="ssr:stedsnr" v="463305" />
	</node>
	<node id="-901288" lat="64.229094447" lon="11.2767361149">
		<tag k="fixme" v="consider natural=peak for the most distinct mountains in the district" />
		<tag k="name" v="Langmyråsen" />
		<tag k="natural" v="hill" />
		<tag k="place" v="locality" />
		<tag k="ssr:stedsnr" v="888235" />
	</node>
	<node id="-901286" lat="64.2585250004" lon="11.2720888951">
		<tag k="name" v="Råa" />
		<tag k="natural" v="slope" />
		<tag k="place" v="locality" />
		<tag k="ssr:stedsnr" v="281256" />
	</node>
	<node id="-901285" lat="64.2664694445" lon="11.2513444399">
		<tag k="fixme" v="consider natural=peak for the most distinct mountains in the district" />
		<tag k="name" v="Seterhalla" />
		<tag k="natural" v="hill" />
		<tag k="place" v="locality" />
		<tag k="ssr:stedsnr" v="828182" />
	</node>
	<node id="-901282" lat="64.4368416707" lon="11.1646666622">
		<tag k="name" v="Øyradalen" />
		<tag k="natural" v="valley" />
		<tag k="place" v="locality" />
		<tag k="ssr:stedsnr" v="109754" />
	</node>
	<node id="-901281" lat="64.1629277752" lon="11.3237027755">
		<tag k="fixme" v="consider natural=peak for the most distinct mountains in the district" />
		<tag k="name" v="Svenskmyråsen" />
		<tag k="natural" v="hill" />
		<tag k="place" v="locality" />
		<tag k="ssr:stedsnr" v="775720" />
	</node>
	<node id="-901279" lat="64.4773527768" lon="11.0893888961">
		<tag k="name" v="Evalia" />
		<tag k="natural" v="slope" />
		<tag k="place" v="locality" />
		<tag k="ssr:stedsnr" v="109362" />
	</node>
	<node id="-901278" lat="64.2580888877" lon="11.2780416709">
		<tag k="name" v="Frydenlund" />
		<tag k="place" v="locality" />
		<tag k="ssr:stedsnr" v="281254" />
	</node>
	<node id="-901275" lat="64.2331666634" lon="11.2692333256">
		<tag k="fixme" v="consider natural=peak for the most distinct mountains in the district" />
		<tag k="name" v="Hundsethøgdin" />
		<tag k="natural" v="hill" />
		<tag k="place" v="locality" />
		<tag k="ssr:stedsnr" v="888236" />
	</node>
	<node id="-901273" lat="64.4863249965" lon="11.0805027827">
		<tag k="name" v="Nova" />
		<tag k="natural" v="valley" />
		<tag k="place" v="locality" />
		<tag k="ssr:stedsnr" v="230460" />
	</node>
	<node id="-901269" lat="64.2629833348" lon="11.1328527855">
		<tag k="fixme" v="consider natural=peak for the most distinct mountains in the district" />
		<tag k="name" v="Tjuruheia" />
		<tag k="natural" v="hill" />
		<tag k="place" v="locality" />
		<tag k="ssr:stedsnr" v="48894" />
	</node>
	<node id="-901268" lat="64.2630638933" lon="11.2795027723">
		<tag k="name" v="Vassdalen" />
		<tag k="natural" v="valley" />
		<tag k="place" v="locality" />
		<tag k="ssr:stedsnr" v="828186" />
	</node>
	<node id="-901262" lat="64.1385555515" lon="10.8904388821">
		<tag k="fixme" v="consider natural=peak for the most distinct mountains in the district" />
		<tag k="name" v="Øystre Oksheia" />
		<tag k="natural" v="hill" />
		<tag k="place" v="locality" />
		<tag k="ssr:stedsnr" v="499559" />
	</node>
	<node id="-901259" lat="64.2164611106" lon="11.445269442">
		<tag k="alt_name" v="Langseterhalla" />
		<tag k="fixme" v="consider natural=peak for the most distinct mountains in the district" />
		<tag k="name" v="Svartåsen" />
		<tag k="natural" v="hill" />
		<tag k="place" v="locality" />
		<tag k="ssr:stedsnr" v="74773" />
	</node>
	<node id="-901254" lat="64.4330249971" lon="11.0622055616">
		<tag k="fixme" v="multiple name tags, choose one and add the other to alt_name; consider natural=peak for the most distinct mountains in the district" />
		<tag k="name" v="Erikskulen;Nordfjellet" />
		<tag k="natural" v="hill" />
		<tag k="place" v="locality" />
		<tag k="ssr:stedsnr" v="377435" />
	</node>
	<node id="-901247" lat="64.2525611107" lon="11.1421833275">
		<tag k="name" v="Torengberget" />
		<tag k="natural" v="hill" />
		<tag k="place" v="locality" />
		<tag k="ssr:stedsnr" v="48887" />
	</node>
	<node id="-901246" lat="64.2392333356" lon="11.1280277703">
		<tag k="name" v="Tjønnmyrdalen" />
		<tag k="natural" v="valley" />
		<tag k="place" v="locality" />
		<tag k="ssr:stedsnr" v="898962" />
	</node>
	<node id="-901241" lat="64.1937527792" lon="11.2287583321">
		<tag k="name" v="Bakkvollen" />
		<tag k="place" v="locality" />
		<tag k="ssr:stedsnr" v="463315" />
	</node>
	<node id="-901239" lat="64.2274305515" lon="11.1277916671">
		<tag k="name" v="Aksla" />
		<tag k="natural" v="ridge" />
		<tag k="place" v="locality" />
		<tag k="ssr:stedsnr" v="169955" />
	</node>
	<node id="-901238" lat="64.1980944405" lon="11.2266972242">
		<tag k="fixme" v="consider natural=peak for the most distinct mountains in the district" />
		<tag k="name" v="Høgberget" />
		<tag k="natural" v="hill" />
		<tag k="place" v="locality" />
		<tag k="ssr:stedsnr" v="463314" />
	</node>
	<node id="-901232" lat="64.4886583293" lon="11.0575888927">
		<tag k="fixme" v="consider natural=peak for the most distinct mountains in the district" />
		<tag k="name" v="Gongfjellet" />
		<tag k="natural" v="hill" />
		<tag k="place" v="locality" />
		<tag k="ssr:stedsnr" v="924390" />
	</node>
	<node id="-901226" lat="64.2130222224" lon="11.1708500071">
		<tag k="name" v="Tømtberget" />
		<tag k="natural" v="hill" />
		<tag k="place" v="locality" />
		<tag k="ssr:stedsnr" v="169549" />
	</node>
	<node id="-901224" lat="64.2216972264" lon="11.159019435">
		<tag k="name" v="Kvennhusbakken" />
		<tag k="natural" v="slope" />
		<tag k="place" v="locality" />
		<tag k="ssr:stedsnr" v="169550" />
	</node>
	<node id="-901223" lat="64.2529444434" lon="11.2841444423">
		<tag k="name" v="Stormyrdalen" />
		<tag k="natural" v="valley" />
		<tag k="place" v="locality" />
		<tag k="ssr:stedsnr" v="705247" />
	</node>
	<node id="-901221" lat="64.1677416685" lon="11.1733027681">
		<tag k="fixme" v="consider natural=peak for the most distinct mountains in the district" />
		<tag k="name" v="Svartåsen" />
		<tag k="natural" v="hill" />
		<tag k="place" v="locality" />
		<tag k="ssr:stedsnr" v="593450" />
	</node>
	<node id="-901218" lat="64.1837916705" lon="11.1521499933">
		<tag k="name" v="Steindalen" />
		<tag k="natural" v="valley" />
		<tag k="place" v="locality" />
		<tag k="ssr:stedsnr" v="48489" />
	</node>
	<node id="-901216" lat="64.2442361084" lon="11.2863583346">
		<tag k="name" v="Småhaugan" />
		<tag k="natural" v="hill" />
		<tag k="place" v="locality" />
		<tag k="ssr:stedsnr" v="402286" />
	</node>
	<node id="-901215" lat="64.2452111142" lon="11.1615972228">
		<tag k="name" v="Geilen" />
		<tag k="natural" v="valley" />
		<tag k="place" v="locality" />
		<tag k="ssr:stedsnr" v="169950" />
	</node>
	<node id="-901209" lat="64.4478138932" lon="11.2873888808">
		<tag k="name" v="Storhaugen" />
		<tag k="natural" v="hill" />
		<tag k="place" v="locality" />
		<tag k="ssr:stedsnr" v="196013" />
	</node>
	<node id="-901202" lat="64.1649722223" lon="11.3174777815">
		<tag k="name" v="Sjustjønnhaugen" />
		<tag k="natural" v="hill" />
		<tag k="place" v="locality" />
		<tag k="ssr:stedsnr" v="715727" />
	</node>
	<node id="-901198" lat="64.2584111083" lon="11.1286388859">
		<tag k="name" v="Buahalliin" />
		<tag k="natural" v="slope" />
		<tag k="place" v="locality" />
		<tag k="ssr:stedsnr" v="776871" />
	</node>
	<node id="-901196" lat="64.2445305576" lon="11.1019027732">
		<tag k="name" v="Nausthaugen" />
		<tag k="natural" v="hill" />
		<tag k="place" v="locality" />
		<tag k="ssr:stedsnr" v="256709" />
	</node>
	<node id="-901195" lat="64.1624416661" lon="11.2934750085">
		<tag k="name" v="Bursteinskaret" />
		<tag k="natural" v="valley" />
		<tag k="place" v="locality" />
		<tag k="ssr:stedsnr" v="584331" />
	</node>
	<node id="-901194" lat="64.2206833295" lon="11.1344305626">
		<tag k="name" v="Borddalen" />
		<tag k="natural" v="valley" />
		<tag k="place" v="locality" />
		<tag k="ssr:stedsnr" v="48482" />
	</node>
	<node id="-901192" lat="64.4199027805" lon="11.0765638809">
		<tag k="fixme" v="consider natural=peak for the most distinct mountains in the district" />
		<tag k="name" v="Havfrulifjellet" />
		<tag k="natural" v="hill" />
		<tag k="place" v="locality" />
		<tag k="ssr:stedsnr" v="439294" />
	</node>
	<node id="-901184" lat="64.2614361072" lon="10.9525638985">
		<tag k="name" v="Urdtjønnklumpen" />
		<tag k="natural" v="hill" />
		<tag k="place" v="locality" />
		<tag k="ssr:stedsnr" v="445465" />
	</node>
	<node id="-901182" lat="64.3585638877" lon="11.2268416658">
		<tag k="name" v="Nonshaugen" />
		<tag k="natural" v="hill" />
		<tag k="place" v="locality" />
		<tag k="ssr:stedsnr" v="620960" />
	</node>
	<node id="-901176" lat="64.2849666693" lon="11.3031111154">
		<tag k="fixme" v="consider natural=peak for the most distinct mountains in the district" />
		<tag k="name" v="Pempen" />
		<tag k="natural" v="hill" />
		<tag k="place" v="locality" />
		<tag k="ssr:stedsnr" v="412286" />
	</node>
	<node id="-901175" lat="64.2483361099" lon="11.1657305616">
		<tag k="name" v="Måsådalen" />
		<tag k="natural" v="valley" />
		<tag k="place" v="locality" />
		<tag k="ssr:stedsnr" v="48872" />
	</node>
	<node id="-901174" lat="64.2564888899" lon="11.197833336">
		<tag k="name" v="Bråttåmarkhalla" />
		<tag k="natural" v="slope" />
		<tag k="place" v="locality" />
		<tag k="ssr:stedsnr" v="888203" />
	</node>
	<node id="-901173" lat="64.3168749961" lon="11.3052722141">
		<tag k="name" v="Styggdalen" />
		<tag k="natural" v="valley" />
		<tag k="place" v="locality" />
		<tag k="ssr:stedsnr" v="706143" />
	</node>
	<node id="-901171" lat="64.2526722254" lon="11.0727055513">
		<tag k="fixme" v="consider natural=peak for the most distinct mountains in the district" />
		<tag k="name" v="Vassmoheia" />
		<tag k="natural" v="hill" />
		<tag k="place" v="locality" />
		<tag k="ssr:stedsnr" v="135215" />
	</node>
	<node id="-901170" lat="64.2590250002" lon="11.164252785">
		<tag k="name" v="Nesjaberga" />
		<tag k="natural" v="hill" />
		<tag k="place" v="locality" />
		<tag k="ssr:stedsnr" v="351886" />
	</node>
	<node id="-901168" lat="64.2064083362" lon="11.2295027689">
		<tag k="name" v="Perhaugen" />
		<tag k="natural" v="hill" />
		<tag k="place" v="locality" />
		<tag k="ssr:stedsnr" v="221319" />
	</node>
	<node id="-901162" lat="64.4255000042" lon="11.1017888879">
		<tag k="name" v="Middagskaret" />
		<tag k="natural" v="valley" />
		<tag k="place" v="locality" />
		<tag k="ssr:stedsnr" v="291210" />
	</node>
	<node id="-901158" lat="64.5039583359" lon="11.0844694416">
		<tag k="fixme" v="consider natural=peak for the most distinct mountains in the district" />
		<tag k="name" v="Varden" />
		<tag k="natural" v="hill" />
		<tag k="place" v="locality" />
		<tag k="ssr:stedsnr" v="378768" />
	</node>
	<node id="-901156" lat="64.245855554" lon="11.064783335">
		<tag k="name" v="Vassmohalla" />
		<tag k="natural" v="slope" />
		<tag k="place" v="locality" />
		<tag k="ssr:stedsnr" v="169936" />
	</node>
	<node id="-901154" lat="64.1794194449" lon="11.111416669">
		<tag k="name" v="Gomholet" />
		<tag k="natural" v="valley" />
		<tag k="place" v="locality" />
		<tag k="ssr:stedsnr" v="836481" />
	</node>
	<node id="-901153" lat="64.5008277741" lon="11.1096833434">
		<tag k="fixme" v="consider natural=peak for the most distinct mountains in the district" />
		<tag k="name" v="Heia" />
		<tag k="natural" v="hill" />
		<tag k="place" v="locality" />
		<tag k="ssr:stedsnr" v="14708" />
	</node>
	<node id="-901151" lat="64.2639944417" lon="11.1489194544">
		<tag k="name" v="Trongin" />
		<tag k="natural" v="valley" />
		<tag k="place" v="locality" />
		<tag k="ssr:stedsnr" v="776887" />
	</node>
	<node id="-901150" lat="64.2342416645" lon="11.2502527696">
		<tag k="name" v="Ragnhildnakken" />
		<tag k="natural" v="hill" />
		<tag k="place" v="locality" />
		<tag k="ssr:stedsnr" v="402281" />
	</node>
	<node id="-901145" lat="64.2644916631" lon="11.3331749956">
		<tag k="name" v="Tjønnskaret" />
		<tag k="natural" v="valley" />
		<tag k="place" v="locality" />
		<tag k="ssr:stedsnr" v="340213" />
	</node>
	<node id="-901143" lat="64.1965499998" lon="11.1744972242">
		<tag k="name" v="Storengberget" />
		<tag k="natural" v="hill" />
		<tag k="place" v="locality" />
		<tag k="ssr:stedsnr" v="924656" />
	</node>
	<node id="-901142" lat="64.2583083313" lon="11.1554111049">
		<tag k="fixme" v="consider natural=peak for the most distinct mountains in the district" />
		<tag k="name" v="Svartåsen" />
		<tag k="natural" v="hill" />
		<tag k="place" v="locality" />
		<tag k="ssr:stedsnr" v="776883" />
	</node>
	<node id="-901135" lat="64.3002722222" lon="10.9637555651">
		<tag k="name" v="Hestbakkan" />
		<tag k="natural" v="slope" />
		<tag k="place" v="locality" />
		<tag k="ssr:stedsnr" v="620147" />
	</node>
	<node id="-901133" lat="64.3034750032" lon="11.1896972161">
		<tag k="name" v="Rabben" />
		<tag k="natural" v="hill" />
		<tag k="place" v="locality" />
		<tag k="ssr:stedsnr" v="281232" />
	</node>
	<node id="-901132" lat="64.2592277793" lon="11.3742972234">
		<tag k="fixme" v="consider natural=peak for the most distinct mountains in the district" />
		<tag k="name" v="Buåsen" />
		<tag k="natural" v="hill" />
		<tag k="place" v="locality" />
		<tag k="ssr:stedsnr" v="37215" />
	</node>
	<node id="-901127" lat="64.2415333304" lon="11.5302611055">
		<tag k="name" v="Mikkjelhola" />
		<tag k="place" v="locality" />
		<tag k="ssr:stedsnr" v="377931" />
	</node>
	<node id="-901125" lat="64.2469194428" lon="11.3084166598">
		<tag k="name" v="Tranamyrhalla" />
		<tag k="natural" v="slope" />
		<tag k="place" v="locality" />
		<tag k="ssr:stedsnr" v="219191" />
	</node>
	<node id="-901123" lat="64.284936107" lon="11.3348666684">
		<tag k="fixme" v="consider natural=peak for the most distinct mountains in the district" />
		<tag k="name" v="Bjønnåsen" />
		<tag k="natural" v="hill" />
		<tag k="place" v="locality" />
		<tag k="ssr:stedsnr" v="109332" />
	</node>
	<node id="-901121" lat="64.2034083313" lon="11.1214472187">
		<tag k="name" v="Stokken" />
		<tag k="natural" v="hill" />
		<tag k="place" v="locality" />
		<tag k="ssr:stedsnr" v="924660" />
	</node>
</osm>
