<?xml version="1.0" encoding="UTF-8"?>
<osm generator="osmapis" version="0.6">
	<node id="-884733" lat="64.3138222206" lon="11.2737277788">
		<tag k="name" v="Storholmen" />
		<tag k="natural" v="wetland" />
		<tag k="ssr:stedsnr" v="159188" />
	</node>
	<node id="-885753" lat="64.2675194432" lon="11.1584250008">
		<tag k="name" v="Djupskarmyra" />
		<tag k="natural" v="wetland" />
		<tag k="ssr:stedsnr" v="291888" />
	</node>
	<node id="-885752" lat="64.2406972243" lon="11.2017666586">
		<tag k="name" v="Skaret" />
		<tag k="place" v="locality" />
		<tag k="ssr:stedsnr" v="342257" />
	</node>
	<node id="-885750" lat="64.2075638893" lon="11.3774027743">
		<tag k="name" v="Naustmyran" />
		<tag k="natural" v="wetland" />
		<tag k="ssr:stedsnr" v="694194" />
	</node>
	<node id="-885749" lat="64.4199638871" lon="11.1922611212">
		<tag k="name" v="Lissenget" />
		<tag k="place" v="locality" />
		<tag k="ssr:stedsnr" v="351789" />
	</node>
	<node id="-885744" lat="64.4760583374" lon="11.1271499978">
		<tag k="name" v="Sjålimyra" />
		<tag k="natural" v="wetland" />
		<tag k="ssr:stedsnr" v="681397" />
	</node>
	<node id="-885742" lat="64.2358277755" lon="11.4101666598">
		<tag k="name" v="Stormyra" />
		<tag k="natural" v="wetland" />
		<tag k="ssr:stedsnr" v="109626" />
	</node>
	<node id="-885245" lat="64.1869138912" lon="11.2219861077">
		<tag k="name" v="Leitåsen" />
		<tag k="place" v="locality" />
		<tag k="ssr:stedsnr" v="828323" />
	</node>
	<node id="-884715" lat="64.2063083345" lon="11.2951416679">
		<tag k="name" v="Hundmyra" />
		<tag k="natural" v="wetland" />
		<tag k="ssr:stedsnr" v="281325" />
	</node>
	<node id="-884714" lat="64.2074249992" lon="11.2921361133">
		<tag k="name" v="Tømmeråsmyra" />
		<tag k="natural" v="wetland" />
		<tag k="ssr:stedsnr" v="281324" />
	</node>
	<node id="-885736" lat="64.2381416694" lon="11.2229444347">
		<tag k="name" v="Finnmyra" />
		<tag k="natural" v="wetland" />
		<tag k="ssr:stedsnr" v="620866" />
	</node>
	<node id="-884711" lat="64.2401500018" lon="11.3990166746">
		<tag k="name" v="Bjørnåsenget" />
		<tag k="natural" v="wetland" />
		<tag k="ssr:stedsnr" v="291673" />
	</node>
	<node id="-885733" lat="64.2932222184" lon="11.183719449">
		<tag k="name" v="Storsteinmyra" />
		<tag k="natural" v="wetland" />
		<tag k="ssr:stedsnr" v="584192" />
	</node>
	<node id="-885218" lat="64.1390694426" lon="11.1565722137">
		<tag k="name" v="Anfindenget" />
		<tag k="natural" v="wetland" />
		<tag k="ssr:stedsnr" v="109520" />
	</node>
	<node id="-885217" lat="64.3144055561" lon="11.1995972204">
		<tag k="name" v="Langmyrhalla" />
		<tag k="natural" v="wetland" />
		<tag k="ssr:stedsnr" v="220222" />
	</node>
	<node id="-885727" lat="64.3406916638" lon="11.2119277802">
		<tag k="name" v="Allmenningen" />
		<tag k="place" v="locality" />
		<tag k="ssr:stedsnr" v="463146" />
	</node>
	<node id="-885213" lat="64.4894722247" lon="11.1558555513">
		<tag k="name" v="Sagvikmyra" />
		<tag k="natural" v="wetland" />
		<tag k="ssr:stedsnr" v="75420" />
	</node>
	<node id="-885724" lat="64.1864333307" lon="11.1599055547">
		<tag k="name" v="Stormyra" />
		<tag k="natural" v="wetland" />
		<tag k="ssr:stedsnr" v="594512" />
	</node>
	<node id="-884698" lat="64.2203222222" lon="11.292383336">
		<tag k="name" v="Vassmyra" />
		<tag k="natural" v="wetland" />
		<tag k="ssr:stedsnr" v="281320" />
	</node>
	<node id="-885327" lat="64.3314555527" lon="11.1664055614">
		<tag k="name" v="Potetslettet" />
		<tag k="natural" v="wetland" />
		<tag k="ssr:stedsnr" v="594809" />
	</node>
	<node id="-885208" lat="64.1977444435" lon="11.2618444522">
		<tag k="name" v="Stormyra" />
		<tag k="natural" v="wetland" />
		<tag k="ssr:stedsnr" v="706301" />
	</node>
	<node id="-885206" lat="64.4376416676" lon="11.1303611048">
		<tag k="name" v="Grova" />
		<tag k="place" v="locality" />
		<tag k="ssr:stedsnr" v="291780" />
	</node>
	<node id="-885717" lat="64.2693749975" lon="11.1624361174">
		<tag k="name" v="Djupskarmyra" />
		<tag k="natural" v="wetland" />
		<tag k="ssr:stedsnr" v="473896" />
	</node>
	<node id="-885715" lat="64.2661055532" lon="11.3263194386">
		<tag k="historic" v="shieling" />
		<tag k="name" v="Gammelsetertømtet" />
		<tag k="place" v="locality" />
		<tag k="ssr:stedsnr" v="643226" />
	</node>
	<node id="-885712" lat="64.2299111083" lon="11.3494333364">
		<tag k="name" v="Rørjøtmyra" />
		<tag k="natural" v="wetland" />
		<tag k="ssr:stedsnr" v="221207" />
	</node>
	<node id="-885240" lat="64.3188638876" lon="11.2784388837">
		<tag k="name" v="Dammyra" />
		<tag k="natural" v="wetland" />
		<tag k="ssr:stedsnr" v="220217" />
	</node>
	<node id="-885704" lat="64.2207749993" lon="11.286602784">
		<tag k="name" v="Grønenget" />
		<tag k="place" v="locality" />
		<tag k="ssr:stedsnr" v="221252" />
	</node>
	<node id="-884679" lat="64.4345777758" lon="11.1350888931">
		<tag k="name" v="Beingårdsenget" />
		<tag k="natural" v="wetland" />
		<tag k="ssr:stedsnr" v="412740" />
	</node>
	<node id="-885190" lat="64.2183500003" lon="11.4203611182">
		<tag k="name" v="Larsjamyra" />
		<tag k="natural" v="wetland" />
		<tag k="ssr:stedsnr" v="351680" />
	</node>
	<node id="-885153" lat="64.2256777745" lon="11.3087277796">
		<tag k="name" v="Småengmyrin" />
		<tag k="natural" v="wetland" />
		<tag k="ssr:stedsnr" v="38300" />
	</node>
	<node id="-884676" lat="64.3498833314" lon="11.2829138971">
		<tag k="name" v="Bjønnakråa" />
		<tag k="place" v="locality" />
		<tag k="ssr:stedsnr" v="159173" />
	</node>
	<node id="-884674" lat="64.2363916638" lon="11.4793944421">
		<tag k="name" v="Tilfellmyrin" />
		<tag k="natural" v="wetland" />
		<tag k="ssr:stedsnr" v="473682" />
	</node>
	<node id="-884673" lat="64.2314777747" lon="11.2201611148">
		<tag k="alt_name" v="Stormyra" />
		<tag k="name" v="Holimyra" />
		<tag k="natural" v="wetland" />
		<tag k="ssr:stedsnr" v="499862" />
	</node>
	<node id="-885694" lat="64.2299916704" lon="11.4304222249">
		<tag k="name" v="Løselvmyra" />
		<tag k="natural" v="wetland" />
		<tag k="ssr:stedsnr" v="715670" />
	</node>
	<node id="-885237" lat="64.1686166645" lon="11.1864972128">
		<tag k="name" v="Bjønnamyra" />
		<tag k="natural" v="wetland" />
		<tag k="ssr:stedsnr" v="949321" />
	</node>
	<node id="-885689" lat="64.2159166651" lon="11.2643833427">
		<tag k="historic" v="shieling" />
		<tag k="name" v="Kvitbergvollen" />
		<tag k="place" v="locality" />
		<tag k="ssr:stedsnr" v="342276" />
	</node>
	<node id="-884664" lat="64.1663500004" lon="11.2100833427">
		<tag k="name" v="Issibergmyra" />
		<tag k="natural" v="wetland" />
		<tag k="ssr:stedsnr" v="463347" />
	</node>
	<node id="-884663" lat="64.488719442" lon="11.1539833244">
		<tag k="name" v="Sagvikmyra" />
		<tag k="natural" v="wetland" />
		<tag k="ssr:stedsnr" v="412355" />
	</node>
	<node id="-885321" lat="64.2715416638" lon="11.4351861031">
		<tag k="name" v="Dansarmyra" />
		<tag k="natural" v="wetland" />
		<tag k="ssr:stedsnr" v="14850" />
	</node>
	<node id="-884658" lat="64.4352583332" lon="11.2117472147">
		<tag k="name" v="Stormyra" />
		<tag k="natural" v="wetland" />
		<tag k="ssr:stedsnr" v="412746" />
	</node>
	<node id="-886088" lat="64.2752222239" lon="11.1743361048">
		<tag k="name" v="Fuglmyrin" />
		<tag k="natural" v="wetland" />
		<tag k="ssr:stedsnr" v="169922" />
	</node>
	<node id="-885165" lat="64.1939472248" lon="11.3325888993">
		<tag k="name" v="Ner - Mølbekkmyra" />
		<tag k="natural" v="wetland" />
		<tag k="ssr:stedsnr" v="108718" />
	</node>
	<node id="-885163" lat="64.2280972208" lon="11.4251388877">
		<tag k="name" v="Nordhalla" />
		<tag k="natural" v="wetland" />
		<tag k="ssr:stedsnr" v="351668" />
	</node>
	<node id="-884645" lat="64.1670083328" lon="11.3310083434">
		<tag k="name" v="Langengan" />
		<tag k="natural" v="wetland" />
		<tag k="ssr:stedsnr" v="958764" />
	</node>
	<node id="-885665" lat="64.3166611143" lon="11.263013885">
		<tag k="name" v="Stormyra" />
		<tag k="natural" v="wetland" />
		<tag k="ssr:stedsnr" v="584181" />
	</node>
	<node id="-885664" lat="64.2340000016" lon="11.3728583349">
		<tag k="name" v="Husåsmyra" />
		<tag k="natural" v="wetland" />
		<tag k="ssr:stedsnr" v="342223" />
	</node>
	<node id="-884632" lat="64.2307138923" lon="11.3161305502">
		<tag k="name" v="Råenget" />
		<tag k="place" v="locality" />
		<tag k="ssr:stedsnr" v="828206" />
	</node>
	<node id="-885572" lat="64.178725002" lon="11.2033888818">
		<tag k="name" v="Kolbergmyra" />
		<tag k="natural" v="wetland" />
		<tag k="ssr:stedsnr" v="766362" />
	</node>
	<node id="-884630" lat="64.2166416668" lon="11.4175777727">
		<tag k="name" v="Vergmyra" />
		<tag k="natural" v="wetland" />
		<tag k="ssr:stedsnr" v="594664" />
	</node>
	<node id="-885652" lat="64.2622722258" lon="11.2153666653">
		<tag k="name" v="Korsmyra" />
		<tag k="natural" v="wetland" />
		<tag k="ssr:stedsnr" v="221193" />
	</node>
	<node id="-885651" lat="64.1841777757" lon="11.2579000061">
		<tag k="name" v="Settersmyra" />
		<tag k="natural" v="wetland" />
		<tag k="ssr:stedsnr" v="160287" />
	</node>
	<node id="-885650" lat="64.3183388923" lon="11.2007194471">
		<tag k="name" v="Langmyra" />
		<tag k="natural" v="wetland" />
		<tag k="ssr:stedsnr" v="584185" />
	</node>
	<node id="-884973" lat="64.1741111103" lon="11.2480805555">
		<tag k="name" v="Hundmyra" />
		<tag k="natural" v="wetland" />
		<tag k="ssr:stedsnr" v="281397" />
	</node>
	<node id="-885130" lat="64.2068055545" lon="11.3060444458">
		<tag k="name" v="Lissengmyra" />
		<tag k="natural" v="wetland" />
		<tag k="ssr:stedsnr" v="706283" />
	</node>
	<node id="-884616" lat="64.221966665" lon="11.3422916572">
		<tag k="name" v="Engan" />
		<tag k="place" v="locality" />
		<tag k="ssr:stedsnr" v="888266" />
	</node>
	<node id="-884614" lat="64.2343249971" lon="11.3127444461">
		<tag k="name" v="Andersenget" />
		<tag k="place" v="locality" />
		<tag k="ssr:stedsnr" v="402327" />
	</node>
	<node id="-885637" lat="64.2424472212" lon="11.2729833282">
		<tag k="name" v="Kleivmyra" />
		<tag k="natural" v="wetland" />
		<tag k="ssr:stedsnr" v="342230" />
	</node>
	<node id="-885636" lat="64.4374694439" lon="11.155397222">
		<tag k="name" v="Lomarka" />
		<tag k="place" v="locality" />
		<tag k="ssr:stedsnr" v="533790" />
	</node>
	<node id="-885122" lat="64.2705083304" lon="11.2983916669">
		<tag k="name" v="Steinholmyra" />
		<tag k="natural" v="wetland" />
		<tag k="ssr:stedsnr" v="169300" />
	</node>
	<node id="-885121" lat="64.1856111121" lon="11.2454805487">
		<tag k="name" v="Drestadåsen" />
		<tag k="place" v="locality" />
		<tag k="ssr:stedsnr" v="949293" />
	</node>
	<node id="-885432" lat="64.2375805552" lon="11.3016638936">
		<tag k="name" v="Lingsengmyra" />
		<tag k="natural" v="wetland" />
		<tag k="ssr:stedsnr" v="524240" />
	</node>
	<node id="-885056" lat="64.2693277757" lon="11.1805555607">
		<tag k="name" v="Straumenget" />
		<tag k="place" v="locality" />
		<tag k="ssr:stedsnr" v="98183" />
	</node>
	<node id="-884604" lat="64.2289777783" lon="11.317452782">
		<tag k="name" v="Råengmyra" />
		<tag k="natural" v="wetland" />
		<tag k="ssr:stedsnr" v="281293" />
	</node>
	<node id="-885115" lat="64.186319446" lon="11.2584555497">
		<tag k="name" v="Øykmyra" />
		<tag k="natural" v="wetland" />
		<tag k="ssr:stedsnr" v="949294" />
	</node>
	<node id="-885114" lat="64.2048805523" lon="11.2673583363">
		<tag k="name" v="Finnhøttmyra" />
		<tag k="natural" v="wetland" />
		<tag k="ssr:stedsnr" v="706280" />
	</node>
	<node id="-884601" lat="64.5243333334" lon="11.0639833375">
		<tag k="name" v="Kleivmyra" />
		<tag k="natural" v="wetland" />
		<tag k="ssr:stedsnr" v="595435" />
	</node>
	<node id="-884599" lat="64.4733249998" lon="11.1128055615">
		<tag k="name" v="Langmyra" />
		<tag k="natural" v="wetland" />
		<tag k="ssr:stedsnr" v="412344" />
	</node>
	<node id="-885618" lat="64.4401472236" lon="11.2137250095">
		<tag k="name" v="Bjønnakråa" />
		<tag k="natural" v="wetland" />
		<tag k="ssr:stedsnr" v="958177" />
	</node>
	<node id="-885139" lat="64.2393916634" lon="11.3132027806">
		<tag k="name" v="Tverrmyra" />
		<tag k="natural" v="wetland" />
		<tag k="ssr:stedsnr" v="645289" />
	</node>
	<node id="-885224" lat="64.1710111101" lon="11.3431888897">
		<tag k="name" v="Godhalsen" />
		<tag k="natural" v="wetland" />
		<tag k="ssr:stedsnr" v="108732" />
	</node>
	<node id="-884588" lat="64.4076694423" lon="11.1856222274">
		<tag k="name" v="Stornesmoen" />
		<tag k="natural" v="wetland" />
		<tag k="ssr:stedsnr" v="412731" />
	</node>
	<node id="-885735" lat="64.2310277739" lon="11.2895944445">
		<tag k="name" v="Tjønnengan" />
		<tag k="natural" v="wetland" />
		<tag k="ssr:stedsnr" v="767250" />
	</node>
	<node id="-885313" lat="64.2487555586" lon="11.366708342">
		<tag k="name" v="Sevaldtrøa" />
		<tag k="place" v="locality" />
		<tag k="ssr:stedsnr" v="826209" />
	</node>
	<node id="-885072" lat="64.2385555533" lon="11.3268111169">
		<tag k="name" v="Setermyra" />
		<tag k="natural" v="wetland" />
		<tag k="ssr:stedsnr" v="828294" />
	</node>
	<node id="-884577" lat="64.1857527817" lon="11.1936555495">
		<tag k="name" v="Kvennhusmyra" />
		<tag k="natural" v="wetland" />
		<tag k="ssr:stedsnr" v="584348" />
	</node>
	<node id="-885600" lat="64.2297083308" lon="11.0493138913">
		<tag k="name" v="Vendelmyrin" />
		<tag k="natural" v="wetland" />
		<tag k="ssr:stedsnr" v="412929" />
	</node>
	<node id="-885599" lat="64.2650499994" lon="11.2988305579">
		<tag k="name" v="Aursundliengmyra" />
		<tag k="natural" v="wetland" />
		<tag k="ssr:stedsnr" v="620845" />
	</node>
	<node id="-885077" lat="64.1860249994" lon="11.1757416618">
		<tag k="name" v="Dikmyra" />
		<tag k="natural" v="wetland" />
		<tag k="ssr:stedsnr" v="109492" />
	</node>
	<node id="-884564" lat="64.2367944423" lon="11.3446444367">
		<tag k="name" v="Limbumyra" />
		<tag k="natural" v="wetland" />
		<tag k="ssr:stedsnr" v="888225" />
	</node>
	<node id="-885074" lat="64.1918361155" lon="11.187627785">
		<tag k="name" v="Lissengmyra" />
		<tag k="natural" v="wetland" />
		<tag k="ssr:stedsnr" v="949291" />
	</node>
	<node id="-885585" lat="64.232566669" lon="11.0582305566">
		<tag k="name" v="Kjerringenget" />
		<tag k="place" v="locality" />
		<tag k="ssr:stedsnr" v="958953" />
	</node>
	<node id="-885584" lat="64.3892222207" lon="11.1663472309">
		<tag k="name" v="Bessfarmyra" />
		<tag k="natural" v="wetland" />
		<tag k="ssr:stedsnr" v="533780" />
	</node>
	<node id="-885582" lat="64.3183749995" lon="11.2866972304">
		<tag k="name" v="Øver-Dammyra" />
		<tag k="natural" v="wetland" />
		<tag k="ssr:stedsnr" v="99178" />
	</node>
	<node id="-885003" lat="64.1836722261" lon="11.2452833421">
		<tag k="name" v="Drestadmyra" />
		<tag k="natural" v="wetland" />
		<tag k="ssr:stedsnr" v="14804" />
	</node>
	<node id="-886090" lat="64.3029861089" lon="11.1883027677">
		<tag k="name" v="Gullbrandsmyra" />
		<tag k="natural" v="wetland" />
		<tag k="ssr:stedsnr" v="37213" />
	</node>
	<node id="-885577" lat="64.1823555599" lon="11.1429305522">
		<tag k="name" v="Storbustmyra" />
		<tag k="natural" v="wetland" />
		<tag k="ssr:stedsnr" v="837501" />
	</node>
	<node id="-884552" lat="64.3835027753" lon="11.1528888812">
		<tag k="name" v="Buamyra" />
		<tag k="natural" v="wetland" />
		<tag k="ssr:stedsnr" v="412721" />
	</node>
	<node id="-885574" lat="64.2359416674" lon="11.2365388973">
		<tag k="name" v="Stråmyra" />
		<tag k="natural" v="wetland" />
		<tag k="ssr:stedsnr" v="342216" />
	</node>
	<node id="-885573" lat="64.1747749959" lon="11.3045888864">
		<tag k="name" v="Lauvåsmyra" />
		<tag k="natural" v="wetland" />
		<tag k="ssr:stedsnr" v="38392" />
	</node>
	<node id="-886084" lat="64.1674333307" lon="11.1416555539">
		<tag k="name" v="Langengan" />
		<tag k="natural" v="wetland" />
		<tag k="ssr:stedsnr" v="411470" />
	</node>
	<node id="-885571" lat="64.1883305589" lon="11.3221138942">
		<tag k="name" v="Hølbekkmyra" />
		<tag k="natural" v="wetland" />
		<tag k="ssr:stedsnr" v="290676" />
	</node>
	<node id="-885568" lat="64.1628027768" lon="11.1810972323">
		<tag k="historic" v="shieling" />
		<tag k="name" v="Eldsvetømtet" />
		<tag k="place" v="locality" />
		<tag k="ssr:stedsnr" v="38391" />
	</node>
	<node id="-885472" lat="64.2309333372" lon="11.2715805556">
		<tag k="name" v="Bjønnamyra" />
		<tag k="natural" v="wetland" />
		<tag k="ssr:stedsnr" v="160244" />
	</node>
	<node id="-885561" lat="64.2873861077" lon="11.3040500015">
		<tag k="name" v="Nils - Monsslettet" />
		<tag k="natural" v="wetland" />
		<tag k="ssr:stedsnr" v="655302" />
	</node>
	<node id="-884788" lat="64.2665750044" lon="11.2106333328">
		<tag k="name" v="Stormyra" />
		<tag k="natural" v="wetland" />
		<tag k="ssr:stedsnr" v="949213" />
	</node>
	<node id="-886070" lat="64.2550750034" lon="11.3954638828">
		<tag k="name" v="Buengan" />
		<tag k="natural" v="wetland" />
		<tag k="ssr:stedsnr" v="837624" />
	</node>
	<node id="-885557" lat="64.2205361137" lon="11.3131305466">
		<tag k="name" v="Vassmyrin" />
		<tag k="natural" v="wetland" />
		<tag k="ssr:stedsnr" v="160265" />
	</node>
	<node id="-885043" lat="64.2661722241" lon="11.1939555483">
		<tag k="name" v="Årgårdsmyra" />
		<tag k="natural" v="wetland" />
		<tag k="ssr:stedsnr" v="38274" />
	</node>
	<node id="-885811" lat="64.195658335" lon="11.158055555">
		<tag k="name" v="Hestmyra" />
		<tag k="natural" v="wetland" />
		<tag k="ssr:stedsnr" v="473540" />
	</node>
	<node id="-885039" lat="64.2242638876" lon="11.1114777731">
		<tag k="name" v="Stavenmyra" />
		<tag k="natural" v="wetland" />
		<tag k="ssr:stedsnr" v="803645" />
	</node>
	<node id="-886060" lat="64.3121749995" lon="11.2701805568">
		<tag k="name" v="Kristianmyra" />
		<tag k="natural" v="wetland" />
		<tag k="ssr:stedsnr" v="644166" />
	</node>
	<node id="-885547" lat="64.1749638927" lon="11.1985527701">
		<tag k="name" v="Strandamyrin" />
		<tag k="natural" v="wetland" />
		<tag k="ssr:stedsnr" v="766359" />
	</node>
	<node id="-886058" lat="64.2618333337" lon="11.1552388954">
		<tag k="name" v="Tjønnmyra" />
		<tag k="natural" v="wetland" />
		<tag k="ssr:stedsnr" v="351879" />
	</node>
	<node id="-884871" lat="64.5036944459" lon="11.1268805639">
		<tag k="name" v="Stormyra" />
		<tag k="natural" v="wetland" />
		<tag k="ssr:stedsnr" v="924718" />
	</node>
	<node id="-885212" lat="64.2340305535" lon="11.409133335">
		<tag k="name" v="Skogmyra" />
		<tag k="natural" v="wetland" />
		<tag k="ssr:stedsnr" v="776648" />
	</node>
	<node id="-885030" lat="64.3162305549" lon="11.2401444409">
		<tag k="name" v="Sørgården" />
		<tag k="place" v="locality" />
		<tag k="ssr:stedsnr" v="341197" />
	</node>
	<node id="-885029" lat="64.2019694416" lon="11.2831111116">
		<tag k="name" v="Kalasdamman" />
		<tag k="natural" v="wetland" />
		<tag k="ssr:stedsnr" v="828313" />
	</node>
	<node id="-886052" lat="64.1995638853" lon="11.0174027865">
		<tag k="name" v="Aunsletta" />
		<tag k="natural" v="wetland" />
		<tag k="ssr:stedsnr" v="169522" />
	</node>
	<node id="-886051" lat="64.1544888887" lon="10.8026000065">
		<tag k="name" v="Storsletta" />
		<tag k="natural" v="wetland" />
		<tag k="ssr:stedsnr" v="499538" />
	</node>
	<node id="-885979" lat="64.2175888924" lon="11.32513888">
		<tag k="name" v="Grubbengmyra" />
		<tag k="natural" v="wetland" />
		<tag k="ssr:stedsnr" v="221281" />
	</node>
	<node id="-886048" lat="64.1732277739" lon="11.1449527687">
		<tag k="name" v="Fraulasset" />
		<tag k="natural" v="wetland" />
		<tag k="ssr:stedsnr" v="411476" />
	</node>
	<node id="-885023" lat="64.203769448" lon="11.3201444461">
		<tag k="name" v="Vargmyra" />
		<tag k="natural" v="wetland" />
		<tag k="ssr:stedsnr" v="828305" />
	</node>
	<node id="-886046" lat="64.5191499997" lon="11.0525694514">
		<tag k="name" v="Heiaringen" />
		<tag k="natural" v="wetland" />
		<tag k="ssr:stedsnr" v="110474" />
	</node>
	<node id="-885021" lat="64.1830555592" lon="11.1927250019">
		<tag k="name" v="Sagaplassen" />
		<tag k="place" v="locality" />
		<tag k="ssr:stedsnr" v="949300" />
	</node>
	<node id="-886043" lat="64.3023638895" lon="11.211247222">
		<tag k="name" v="Iver-Nilsarommet" />
		<tag k="place" v="locality" />
		<tag k="ssr:stedsnr" v="281214" />
	</node>
	<node id="-886040" lat="64.1932249978" lon="11.3273861159">
		<tag k="name" v="Støttingmyra" />
		<tag k="natural" v="wetland" />
		<tag k="ssr:stedsnr" v="715721" />
	</node>
	<node id="-886039" lat="64.3040805596" lon="11.052902776">
		<tag k="name" v="Finnkrumyrin" />
		<tag k="natural" v="wetland" />
		<tag k="ssr:stedsnr" v="776863" />
	</node>
	<node id="-885525" lat="64.2025111111" lon="11.0637722233">
		<tag k="name" v="Heggdalslimyrån" />
		<tag k="natural" v="wetland" />
		<tag k="ssr:stedsnr" v="317601" />
	</node>
	<node id="-884500" lat="64.1917777764" lon="11.1627277865">
		<tag k="name" v="Vakkermyra" />
		<tag k="natural" v="wetland" />
		<tag k="ssr:stedsnr" v="351518" />
	</node>
	<node id="-886032" lat="64.2074111116" lon="11.3310722239">
		<tag k="name" v="Sagåsmyra" />
		<tag k="natural" v="wetland" />
		<tag k="ssr:stedsnr" v="99315" />
	</node>
	<node id="-885006" lat="64.3077888911" lon="11.2915861181">
		<tag k="name" v="Olaslettet" />
		<tag k="natural" v="wetland" />
		<tag k="ssr:stedsnr" v="291347" />
	</node>
	<node id="-884781" lat="64.2095111154" lon="11.1389999985">
		<tag k="name" v="Mefjellsteinen" />
		<tag k="natural" v="stone" />
		<tag k="ssr:stedsnr" v="230522" />
	</node>
	<node id="-886027" lat="64.5304083351" lon="11.0390416573">
		<tag k="name" v="Størkerslættet" />
		<tag k="natural" v="wetland" />
		<tag k="ssr:stedsnr" v="534262" />
	</node>
	<node id="-886022" lat="64.2349805561" lon="11.5020694396">
		<tag k="name" v="Svartseterslættet" />
		<tag k="natural" v="wetland" />
		<tag k="ssr:stedsnr" v="958708" />
	</node>
	<node id="-885509" lat="64.2920805527" lon="10.9644694475">
		<tag k="name" v="Hestbekkslettet" />
		<tag k="natural" v="wetland" />
		<tag k="ssr:stedsnr" v="837881" />
	</node>
	<node id="-884482" lat="64.3065583373" lon="11.2686222312">
		<tag k="name" v="Halsan" />
		<tag k="natural" v="wetland" />
		<tag k="ssr:stedsnr" v="534320" />
	</node>
	<node id="-884481" lat="64.1888027733" lon="11.1877000033">
		<tag k="name" v="Brennmyra" />
		<tag k="place" v="locality" />
		<tag k="ssr:stedsnr" v="463317" />
	</node>
	<node id="-884473" lat="64.2045166627" lon="11.280897223">
		<tag k="name" v="Hundmonesjan" />
		<tag k="natural" v="wetland" />
		<tag k="ssr:stedsnr" v="402307" />
	</node>
	<node id="-884478" lat="64.4382749975" lon="11.1374527831">
		<tag k="name" v="Stormyra" />
		<tag k="natural" v="wetland" />
		<tag k="ssr:stedsnr" v="377432" />
	</node>
	<node id="-884475" lat="64.2404249982" lon="11.2622666566">
		<tag k="name" v="Kringelmyra" />
		<tag k="natural" v="wetland" />
		<tag k="ssr:stedsnr" v="888232" />
	</node>
	<node id="-885498" lat="64.1748777813" lon="11.2078472296">
		<tag k="name" v="Lissengmyra" />
		<tag k="natural" v="wetland" />
		<tag k="ssr:stedsnr" v="645337" />
	</node>
	<node id="-886009" lat="64.2260055578" lon="11.3137222245">
		<tag k="name" v="Setermyra" />
		<tag k="natural" v="wetland" />
		<tag k="ssr:stedsnr" v="584286" />
	</node>
	<node id="-884565" lat="64.1791138883" lon="11.303505551">
		<tag k="name" v="Fykoppmyra" />
		<tag k="natural" v="wetland" />
		<tag k="ssr:stedsnr" v="99387" />
	</node>
	<node id="-884469" lat="64.2430499962" lon="11.322269439">
		<tag k="name" v="Kleivmyra" />
		<tag k="natural" v="wetland" />
		<tag k="ssr:stedsnr" v="463292" />
	</node>
	<node id="-886004" lat="64.1425083293" lon="11.1518999984">
		<tag k="name" v="Tjurublakkmyra" />
		<tag k="natural" v="wetland" />
		<tag k="ssr:stedsnr" v="229612" />
	</node>
	<node id="-884466" lat="64.2753388892" lon="11.2666222137">
		<tag k="name" v="Tjurublakkmyra" />
		<tag k="natural" v="wetland" />
		<tag k="ssr:stedsnr" v="958322" />
	</node>
	<node id="-885997" lat="64.4584916695" lon="11.1475638967">
		<tag k="name" v="Kirkja" />
		<tag k="natural" v="wetland" />
		<tag k="ssr:stedsnr" v="291193" />
	</node>
	<node id="-885996" lat="64.2427972178" lon="11.2982249989">
		<tag k="name" v="Moamyra" />
		<tag k="natural" v="wetland" />
		<tag k="ssr:stedsnr" v="584289" />
	</node>
	<node id="-884946" lat="64.1591666696" lon="11.1952805522">
		<tag k="name" v="Tiurleiken" />
		<tag k="natural" v="wetland" />
		<tag k="ssr:stedsnr" v="281376" />
	</node>
	<node id="-885481" lat="64.3690805559" lon="11.190686116">
		<tag k="name" v="Sørmyrin" />
		<tag k="natural" v="wetland" />
		<tag k="ssr:stedsnr" v="594852" />
	</node>
	<node id="-884968" lat="64.2486472189" lon="11.184005549">
		<tag k="landuse" v="meadow" />
		<tag k="name" v="Nyenget" />
		<tag k="ssr:stedsnr" v="38258" />
	</node>
	<node id="-885116" lat="64.2328361151" lon="11.0821222129">
		<tag k="name" v="Sverkmomyrån" />
		<tag k="natural" v="wetland" />
		<tag k="ssr:stedsnr" v="803633" />
	</node>
	<node id="-884966" lat="64.1659027814" lon="11.1931972224">
		<tag k="name" v="Storhaugmyra" />
		<tag k="natural" v="wetland" />
		<tag k="ssr:stedsnr" v="281396" />
	</node>
	<node id="-885477" lat="64.2176833321" lon="11.2862305638">
		<tag k="name" v="Sompa" />
		<tag k="natural" v="wetland" />
		<tag k="ssr:stedsnr" v="160246" />
	</node>
	<node id="-884452" lat="64.2596083337" lon="11.3571416704">
		<tag k="name" v="Salengan" />
		<tag k="natural" v="wetland" />
		<tag k="ssr:stedsnr" v="340216" />
	</node>
	<node id="-885475" lat="64.1583583338" lon="11.1901277769">
		<tag k="name" v="Albrektsmyra" />
		<tag k="natural" v="wetland" />
		<tag k="ssr:stedsnr" v="38372" />
	</node>
	<node id="-884450" lat="64.5118277744" lon="11.0535861044">
		<tag k="name" v="Botnet" />
		<tag k="natural" v="wetland" />
		<tag k="ssr:stedsnr" v="655434" />
	</node>
	<node id="-884961" lat="64.2281833317" lon="11.333797227">
		<tag k="name" v="Langdalsmyra" />
		<tag k="natural" v="wetland" />
		<tag k="ssr:stedsnr" v="645222" />
	</node>
	<node id="-885984" lat="64.2499305523" lon="11.3095111184">
		<tag k="name" v="Tranamyra" />
		<tag k="natural" v="wetland" />
		<tag k="ssr:stedsnr" v="158234" />
	</node>
	<node id="-885200" lat="64.4741388915" lon="11.1142111099">
		<tag k="name" v="Mastukorsan" />
		<tag k="natural" v="wetland" />
		<tag k="ssr:stedsnr" v="291400" />
	</node>
	<node id="-884957" lat="64.3606999992" lon="11.2421611053">
		<tag k="name" v="Stormyra" />
		<tag k="natural" v="wetland" />
		<tag k="ssr:stedsnr" v="715847" />
	</node>
	<node id="-884443" lat="64.2765666663" lon="11.2160972227">
		<tag k="name" v="Aunmyra" />
		<tag k="natural" v="wetland" />
		<tag k="ssr:stedsnr" v="924116" />
	</node>
	<node id="-884441" lat="64.2543444429" lon="11.2815527697">
		<tag k="name" v="Stormyra" />
		<tag k="natural" v="wetland" />
		<tag k="ssr:stedsnr" v="219213" />
	</node>
	<node id="-884949" lat="64.2199138866" lon="11.3313055533">
		<tag k="name" v="Lundmyra" />
		<tag k="natural" v="wetland" />
		<tag k="ssr:stedsnr" v="828285" />
	</node>
	<node id="-885459" lat="64.1714055585" lon="11.323888894">
		<tag k="name" v="Olaenget" />
		<tag k="natural" v="wetland" />
		<tag k="ssr:stedsnr" v="472682" />
	</node>
	<node id="-884434" lat="64.180313887" lon="11.1355777791">
		<tag k="name" v="Merkesmyra" />
		<tag k="natural" v="wetland" />
		<tag k="ssr:stedsnr" v="593453" />
	</node>
	<node id="-885457" lat="64.3402000012" lon="11.1720916704">
		<tag k="name" v="Lissenget" />
		<tag k="place" v="locality" />
		<tag k="ssr:stedsnr" v="594856" />
	</node>
	<node id="-885456" lat="64.2204388898" lon="11.2809305599">
		<tag k="name" v="Storraudmyra" />
		<tag k="natural" v="wetland" />
		<tag k="ssr:stedsnr" v="160247" />
	</node>
	<node id="-885967" lat="64.1551749984" lon="11.2381444451">
		<tag k="historic" v="shieling" />
		<tag k="name" v="Tømtet" />
		<tag k="place" v="locality" />
		<tag k="ssr:stedsnr" v="220399" />
	</node>
	<node id="-885454" lat="64.5190999997" lon="11.0620249969">
		<tag k="name" v="Vassmyra" />
		<tag k="natural" v="wetland" />
		<tag k="ssr:stedsnr" v="49479" />
	</node>
	<node id="-885963" lat="64.3661277749" lon="11.159325008">
		<tag k="name" v="Rapmyra" />
		<tag k="natural" v="wetland" />
		<tag k="ssr:stedsnr" v="533861" />
	</node>
	<node id="-884426" lat="64.1696694456" lon="11.0572416758">
		<tag k="name" v="Stormyra" />
		<tag k="natural" v="wetland" />
		<tag k="ssr:stedsnr" v="411504" />
	</node>
	<node id="-885623" lat="64.2828972224" lon="11.0135472298">
		<tag k="alt_name" v="Tverrlimyrin" />
		<tag k="name" v="Tverrlimyra" />
		<tag k="natural" v="wetland" />
		<tag k="ssr:stedsnr" v="196187" />
	</node>
	<node id="-884424" lat="64.2120500044" lon="11.1666944411">
		<tag k="name" v="Sør-Langmyra" />
		<tag k="natural" v="wetland" />
		<tag k="ssr:stedsnr" v="48483" />
	</node>
	<node id="-885447" lat="64.2615222253" lon="11.3683055536">
		<tag k="name" v="Joholet" />
		<tag k="natural" v="wetland" />
		<tag k="ssr:stedsnr" v="280156" />
	</node>
	<node id="-884422" lat="64.5320166689" lon="11.0624777845">
		<tag k="name" v="Engan" />
		<tag k="natural" v="wetland" />
		<tag k="ssr:stedsnr" v="655425" />
	</node>
	<node id="-884421" lat="64.2554555585" lon="11.155636116">
		<tag k="name" v="Svamyra" />
		<tag k="natural" v="wetland" />
		<tag k="ssr:stedsnr" v="48876" />
	</node>
	<node id="-885441" lat="64.4819472192" lon="11.102466658">
		<tag k="name" v="Storstein" />
		<tag k="natural" v="stone" />
		<tag k="ssr:stedsnr" v="654487" />
	</node>
	<node id="-884416" lat="64.2534722257" lon="11.1341972201">
		<tag k="name" v="Kringelmyra" />
		<tag k="natural" v="wetland" />
		<tag k="ssr:stedsnr" v="48877" />
	</node>
	<node id="-885951" lat="64.3191194485" lon="11.2650472323">
		<tag k="name" v="Holmyra" />
		<tag k="natural" v="wetland" />
		<tag k="ssr:stedsnr" v="888147" />
	</node>
	<node id="-885434" lat="64.2409694472" lon="11.1926805574">
		<tag k="name" v="Åsmyra" />
		<tag k="natural" v="wetland" />
		<tag k="ssr:stedsnr" v="160240" />
	</node>
	<node id="-884767" lat="64.2364861153" lon="11.1055416583">
		<tag k="name" v="Stormyra" />
		<tag k="natural" v="wetland" />
		<tag k="ssr:stedsnr" v="48948" />
	</node>
	<node id="-885944" lat="64.2152499966" lon="11.3377333421">
		<tag k="historic" v="shieling" />
		<tag k="name" v="Finnsåstømtet" />
		<tag k="place" v="locality" />
		<tag k="ssr:stedsnr" v="342291" />
	</node>
	<node id="-885942" lat="64.3147138889" lon="11.2677500012">
		<tag k="name" v="Vassmyra" />
		<tag k="natural" v="wetland" />
		<tag k="ssr:stedsnr" v="827190" />
	</node>
	<node id="-884405" lat="64.2141194404" lon="11.2631333268">
		<tag k="name" v="Bjønnamyra" />
		<tag k="natural" v="wetland" />
		<tag k="ssr:stedsnr" v="463275" />
	</node>
	<node id="-884916" lat="64.2333972247" lon="11.1036833277">
		<tag k="name" v="Fautgårdsmyrin" />
		<tag k="natural" v="wetland" />
		<tag k="ssr:stedsnr" v="230946" />
	</node>
	<node id="-885939" lat="64.2151750027" lon="11.1650361199">
		<tag k="name" v="Nord - Langmyra" />
		<tag k="natural" v="wetland" />
		<tag k="ssr:stedsnr" v="291538" />
	</node>
	<node id="-884851" lat="64.1612500019" lon="11.2002694507">
		<tag k="name" v="Langmyra" />
		<tag k="natural" v="wetland" />
		<tag k="ssr:stedsnr" v="402392" />
	</node>
	<node id="-884742" lat="64.2336694435" lon="11.2812388827">
		<tag k="name" v="Bualimyrin" />
		<tag k="natural" v="wetland" />
		<tag k="ssr:stedsnr" v="828232" />
	</node>
	<node id="-884955" lat="64.2312777818" lon="11.3817166724">
		<tag k="name" v="Storsetermyra" />
		<tag k="natural" v="wetland" />
		<tag k="ssr:stedsnr" v="169662" />
	</node>
	<node id="-884909" lat="64.2903305522" lon="11.0401416709">
		<tag k="name" v="Finn Maritholdet" />
		<tag k="natural" v="wetland" />
		<tag k="ssr:stedsnr" v="109845" />
	</node>
	<node id="-884396" lat="64.1716527741" lon="11.1342555652">
		<tag k="name" v="Pempmyra" />
		<tag k="natural" v="wetland" />
		<tag k="ssr:stedsnr" v="351492" />
	</node>
	<node id="-885930" lat="64.2745222224" lon="11.1256138837">
		<tag k="name" v="Kanalslettet" />
		<tag k="natural" v="wetland" />
		<tag k="ssr:stedsnr" v="169872" />
	</node>
	<node id="-885703" lat="64.2181722245" lon="11.2940888887">
		<tag k="name" v="Sivertenget" />
		<tag k="place" v="locality" />
		<tag k="ssr:stedsnr" v="221251" />
	</node>
	<node id="-884904" lat="64.2136361104" lon="11.3222916714">
		<tag k="name" v="Kristianmyra" />
		<tag k="natural" v="wetland" />
		<tag k="ssr:stedsnr" v="828281" />
	</node>
	<node id="-884902" lat="64.295044444" lon="11.192072215">
		<tag k="name" v="Raffelrommet" />
		<tag k="place" v="locality" />
		<tag k="ssr:stedsnr" v="523206" />
	</node>
	<node id="-884769" lat="64.2325416679" lon="11.1767305481">
		<tag k="name" v="Stakkmyra" />
		<tag k="natural" v="wetland" />
		<tag k="ssr:stedsnr" v="351966" />
	</node>
	<node id="-884507" lat="64.2108361089" lon="11.4099361155">
		<tag k="name" v="Steinmyra" />
		<tag k="natural" v="wetland" />
		<tag k="ssr:stedsnr" v="837697" />
	</node>
	<node id="-884896" lat="64.4442277758" lon="11.2750416626">
		<tag k="alt_name" v="Stormyra" />
		<tag k="name" v="Sundsstormyra" />
		<tag k="natural" v="wetland" />
		<tag k="ssr:stedsnr" v="135023" />
	</node>
	<node id="-885919" lat="64.3223833345" lon="11.2149527825">
		<tag k="name" v="Hevika" />
		<tag k="place" v="locality" />
		<tag k="ssr:stedsnr" v="402196" />
	</node>
	<node id="-884933" lat="64.2246277822" lon="11.2765638942">
		<tag k="name" v="Ner-Kusmyra" />
		<tag k="natural" v="wetland" />
		<tag k="ssr:stedsnr" v="645242" />
	</node>
	<node id="-885916" lat="64.2408944401" lon="11.1082611203">
		<tag k="name" v="Permyra" />
		<tag k="natural" v="wetland" />
		<tag k="ssr:stedsnr" v="473944" />
	</node>
	<node id="-884379" lat="64.2214666648" lon="11.3289305532">
		<tag k="name" v="Svartdikmyra" />
		<tag k="natural" v="wetland" />
		<tag k="ssr:stedsnr" v="463283" />
	</node>
	<node id="-885914" lat="64.2041916701" lon="11.2169666721">
		<tag k="name" v="Strompmyra" />
		<tag k="natural" v="wetland" />
		<tag k="ssr:stedsnr" v="342317" />
	</node>
	<node id="-884377" lat="64.2597194443" lon="11.3131638883">
		<tag k="name" v="Bakkamarka" />
		<tag k="place" v="locality" />
		<tag k="ssr:stedsnr" v="340210" />
	</node>
	<node id="-884888" lat="64.3121583302" lon="11.2174361174">
		<tag k="name" v="Fætta" />
		<tag k="place" v="locality" />
		<tag k="ssr:stedsnr" v="766191" />
	</node>
	<node id="-885188" lat="64.3112555583" lon="11.2762388866">
		<tag k="name" v="Starrmyrin" />
		<tag k="natural" v="wetland" />
		<tag k="ssr:stedsnr" v="220214" />
	</node>
	<node id="-884374" lat="64.1818249979" lon="11.3161333329">
		<tag k="name" v="Storenget" />
		<tag k="natural" v="wetland" />
		<tag k="ssr:stedsnr" v="715739" />
	</node>
	<node id="-884373" lat="64.1767444425" lon="11.1322333364">
		<tag k="name" v="Setermyra" />
		<tag k="natural" v="wetland" />
		<tag k="ssr:stedsnr" v="290435" />
	</node>
	<node id="-884349" lat="64.2361611071" lon="11.3155861007">
		<tag k="name" v="Kringelmyra" />
		<tag k="natural" v="wetland" />
		<tag k="ssr:stedsnr" v="463285" />
	</node>
	<node id="-884371" lat="64.4853749968" lon="11.1383527868">
		<tag k="name" v="Storengmyra" />
		<tag k="natural" v="wetland" />
		<tag k="ssr:stedsnr" v="897365" />
	</node>
	<node id="-885904" lat="64.2356861116" lon="11.3269555567">
		<tag k="name" v="Anneslættet" />
		<tag k="place" v="locality" />
		<tag k="ssr:stedsnr" v="221285" />
	</node>
	<node id="-885373" lat="64.2477111132" lon="11.3535277732">
		<tag k="name" v="Stormyra" />
		<tag k="natural" v="wetland" />
		<tag k="ssr:stedsnr" v="401217" />
	</node>
	<node id="-885902" lat="64.2079055561" lon="11.3746138914">
		<tag k="name" v="Naustmyra" />
		<tag k="natural" v="wetland" />
		<tag k="ssr:stedsnr" v="221275" />
	</node>
	<node id="-884363" lat="64.272680559" lon="11.1637472125">
		<tag k="name" v="Heiformyra" />
		<tag k="natural" v="wetland" />
		<tag k="ssr:stedsnr" v="898940" />
	</node>
	<node id="-884362" lat="64.1843305565" lon="11.1483111149">
		<tag k="name" v="Lisstakkenget" />
		<tag k="natural" v="wetland" />
		<tag k="ssr:stedsnr" v="351498" />
	</node>
	<node id="-884359" lat="64.2592416657" lon="11.0860527783">
		<tag k="name" v="Kumyra" />
		<tag k="natural" v="wetland" />
		<tag k="ssr:stedsnr" v="898942" />
	</node>
	<node id="-884843" lat="64.1658027772" lon="11.2936472285">
		<tag k="name" v="Vamyrin" />
		<tag k="natural" v="wetland" />
		<tag k="ssr:stedsnr" v="281345" />
	</node>
	<node id="-885888" lat="64.1804361136" lon="11.1431277801">
		<tag k="name" v="Moltholet" />
		<tag k="natural" v="wetland" />
		<tag k="ssr:stedsnr" v="169496" />
	</node>
	<node id="-885536" lat="64.194674998" lon="11.3435527768">
		<tag k="name" v="Hopesmyra" />
		<tag k="natural" v="wetland" />
		<tag k="ssr:stedsnr" v="836717" />
	</node>
	<node id="-884861" lat="64.2531805579" lon="11.4057500012">
		<tag k="name" v="Granenget" />
		<tag k="natural" v="wetland" />
		<tag k="ssr:stedsnr" v="776591" />
	</node>
	<node id="-885371" lat="64.1853166627" lon="11.2649166653">
		<tag k="name" v="Porsmyra" />
		<tag k="natural" v="wetland" />
		<tag k="ssr:stedsnr" v="38346" />
	</node>
	<node id="-884346" lat="64.1754916669" lon="11.3164499999">
		<tag k="name" v="Grimenget" />
		<tag k="natural" v="wetland" />
		<tag k="ssr:stedsnr" v="472724" />
	</node>
	<node id="-885369" lat="64.2490666676" lon="11.4008444388">
		<tag k="name" v="Storslettet" />
		<tag k="natural" v="wetland" />
		<tag k="ssr:stedsnr" v="655624" />
	</node>
	<node id="-885878" lat="64.2138972196" lon="11.2979944461">
		<tag k="name" v="Kartmyra" />
		<tag k="natural" v="wetland" />
		<tag k="ssr:stedsnr" v="99296" />
	</node>
	<node id="-884340" lat="64.2898666667" lon="11.2144138807">
		<tag k="name" v="Brattåsmyra" />
		<tag k="natural" v="wetland" />
		<tag k="ssr:stedsnr" v="99204" />
	</node>
	<node id="-885182" lat="64.208344444" lon="11.2169388838">
		<tag k="name" v="Karimyra" />
		<tag k="natural" v="wetland" />
		<tag k="ssr:stedsnr" v="706323" />
	</node>
	<node id="-885873" lat="64.2110611116" lon="11.2456722277">
		<tag k="name" v="Lissmyra" />
		<tag k="natural" v="wetland" />
		<tag k="ssr:stedsnr" v="221268" />
	</node>
	<node id="-885872" lat="64.317361113" lon="11.2115749981">
		<tag k="name" v="Åsneset" />
		<tag k="place" v="locality" />
		<tag k="ssr:stedsnr" v="888153" />
	</node>
	<node id="-885870" lat="64.2673722256" lon="11.1159138849">
		<tag k="name" v="Langmya" />
		<tag k="natural" v="wetland" />
		<tag k="ssr:stedsnr" v="716864" />
	</node>
	<node id="-885869" lat="64.3118555584" lon="11.2004611033">
		<tag k="name" v="Brenna" />
		<tag k="place" v="locality" />
		<tag k="ssr:stedsnr" v="705208" />
	</node>
	<node id="-885356" lat="64.3081722205" lon="11.2586944386">
		<tag k="name" v="Bustmyra" />
		<tag k="natural" v="wetland" />
		<tag k="ssr:stedsnr" v="959287" />
	</node>
	<node id="-884331" lat="64.1689888906" lon="11.3566916578">
		<tag k="name" v="Nilsenget" />
		<tag k="natural" v="wetland" />
		<tag k="ssr:stedsnr" v="836727" />
	</node>
	<node id="-885882" lat="64.3202194485" lon="11.261119443">
		<tag k="name" v="Langmyra" />
		<tag k="natural" v="wetland" />
		<tag k="ssr:stedsnr" v="281185" />
	</node>
	<node id="-884841" lat="64.3028499961" lon="11.2028888952">
		<tag k="name" v="Sliperrommet" />
		<tag k="place" v="locality" />
		<tag k="ssr:stedsnr" v="766200" />
	</node>
	<node id="-884839" lat="64.3049972258" lon="11.1964777728">
		<tag k="name" v="Hårråmyra" />
		<tag k="natural" v="wetland" />
		<tag k="ssr:stedsnr" v="38215" />
	</node>
	<node id="-884836" lat="64.4274722246" lon="11.0728416755">
		<tag k="name" v="Stormyra" />
		<tag k="natural" v="wetland" />
		<tag k="ssr:stedsnr" v="135293" />
	</node>
	<node id="-885347" lat="64.200269449" lon="11.3417027743">
		<tag k="name" v="Setermyra" />
		<tag k="natural" v="wetland" />
		<tag k="ssr:stedsnr" v="411703" />
	</node>
	<node id="-885857" lat="64.2639527739" lon="11.1092444524">
		<tag k="name" v="Fagermyrin" />
		<tag k="natural" v="wetland" />
		<tag k="ssr:stedsnr" v="473933" />
	</node>
	<node id="-885354" lat="64.2099722237" lon="11.2238388818">
		<tag k="name" v="Åsmyrån" />
		<tag k="natural" v="wetland" />
		<tag k="ssr:stedsnr" v="135901" />
	</node>
	<node id="-885263" lat="64.2796249976" lon="11.1835111014">
		<tag k="name" v="Stormyra" />
		<tag k="natural" v="wetland" />
		<tag k="ssr:stedsnr" v="947204" />
	</node>
	<node id="-884312" lat="64.1875888894" lon="11.1941805558">
		<tag k="name" v="Finnmyra" />
		<tag k="place" v="locality" />
		<tag k="ssr:stedsnr" v="160293" />
	</node>
	<node id="-885868" lat="64.2381416685" lon="11.4327750051">
		<tag k="name" v="Gomlimyra" />
		<tag k="natural" v="wetland" />
		<tag k="ssr:stedsnr" v="412629" />
	</node>
	<node id="-885845" lat="64.2023333313" lon="11.1989750043">
		<tag k="alt_name" v="Skjerpmomyra" />
		<tag k="name" v="Skjerpmomyran" />
		<tag k="natural" v="wetland" />
		<tag k="ssr:stedsnr" v="681684" />
	</node>
	<node id="-885842" lat="64.2078972257" lon="11.4189027869">
		<tag k="name" v="Honburumyra" />
		<tag k="natural" v="wetland" />
		<tag k="ssr:stedsnr" v="109652" />
	</node>
	<node id="-885839" lat="64.1876250042" lon="11.3130055643">
		<tag k="name" v="Erikslettet" />
		<tag k="natural" v="wetland" />
		<tag k="ssr:stedsnr" v="897697" />
	</node>
	<node id="-884812" lat="64.2055638864" lon="11.059549997">
		<tag k="name" v="Heggdalsmyrin" />
		<tag k="natural" v="wetland" />
		<tag k="ssr:stedsnr" v="716996" />
	</node>
	<node id="-885322" lat="64.2374833355" lon="11.3327444346">
		<tag k="name" v="Flatmyra" />
		<tag k="natural" v="wetland" />
		<tag k="ssr:stedsnr" v="766306" />
	</node>
	<node id="-885833" lat="64.2348666693" lon="11.2233694414">
		<tag k="name" v="Rundmyra" />
		<tag k="natural" v="wetland" />
		<tag k="ssr:stedsnr" v="221239" />
	</node>
	<node id="-884808" lat="64.2316694422" lon="11.3066305482">
		<tag k="name" v="Buamyra" />
		<tag k="natural" v="wetland" />
		<tag k="ssr:stedsnr" v="949249" />
	</node>
	<node id="-885830" lat="64.2279277755" lon="11.4646166744">
		<tag k="name" v="Kjølmyrin" />
		<tag k="natural" v="wetland" />
		<tag k="ssr:stedsnr" v="109642" />
	</node>
	<node id="-884805" lat="64.3158388923" lon="11.2107638985">
		<tag k="name" v="Lia" />
		<tag k="place" v="locality" />
		<tag k="ssr:stedsnr" v="523204" />
	</node>
	<node id="-884804" lat="64.1667583304" lon="11.2005500077">
		<tag k="name" v="Tømmerlunnmyra" />
		<tag k="natural" v="wetland" />
		<tag k="ssr:stedsnr" v="827398" />
	</node>
	<node id="-885314" lat="64.2681861133" lon="11.2909972212">
		<tag k="name" v="Tjønnmyra" />
		<tag k="natural" v="wetland" />
		<tag k="ssr:stedsnr" v="716330" />
	</node>
	<node id="-885825" lat="64.4992111102" lon="11.1266583389">
		<tag k="name" v="Gårdsmyra" />
		<tag k="natural" v="wetland" />
		<tag k="ssr:stedsnr" v="593343" />
	</node>
	<node id="-884800" lat="64.1701472216" lon="11.1937722179">
		<tag k="name" v="Pipmyra" />
		<tag k="natural" v="wetland" />
		<tag k="ssr:stedsnr" v="482676" />
	</node>
	<node id="-884799" lat="64.2830194446" lon="11.2850055569">
		<tag k="name" v="Nordenget" />
		<tag k="natural" v="wetland" />
		<tag k="ssr:stedsnr" v="473335" />
	</node>
	<node id="-884798" lat="64.3056749985" lon="11.2140555462">
		<tag k="name" v="Amaliarommet" />
		<tag k="place" v="locality" />
		<tag k="ssr:stedsnr" v="159213" />
	</node>
	<node id="-884397" lat="64.2406583292" lon="11.2900194355">
		<tag k="name" v="Ståkårsmyra" />
		<tag k="natural" v="wetland" />
		<tag k="ssr:stedsnr" v="402270" />
	</node>
	<node id="-885186" lat="64.1821805517" lon="11.1890277804">
		<tag k="name" v="Sagamyra" />
		<tag k="natural" v="wetland" />
		<tag k="ssr:stedsnr" v="706321" />
	</node>
	<node id="-885814" lat="64.2523666632" lon="11.1883361179">
		<tag k="name" v="Hafella" />
		<tag k="place" v="locality" />
		<tag k="ssr:stedsnr" v="99236" />
	</node>
	<node id="-885300" lat="64.2310777767" lon="11.2766333433">
		<tag k="name" v="Langmyra" />
		<tag k="natural" v="wetland" />
		<tag k="ssr:stedsnr" v="160214" />
	</node>
	<node id="-885471" lat="64.3686555563" lon="11.1485611116">
		<tag k="name" v="Gravhaugmyra" />
		<tag k="natural" v="wetland" />
		<tag k="ssr:stedsnr" v="317332" />
	</node>
	<node id="-885806" lat="64.1585638902" lon="11.1213583249">
		<tag k="alt_name" v="Kongsmyrin" />
		<tag k="name" v="Kongsmyran" />
		<tag k="natural" v="wetland" />
		<tag k="ssr:stedsnr" v="134638" />
	</node>
	<node id="-885805" lat="64.431033337" lon="11.1056027732">
		<tag k="name" v="Krumyra" />
		<tag k="natural" v="wetland" />
		<tag k="ssr:stedsnr" v="412210" />
	</node>
	<node id="-884780" lat="64.2211555541" lon="11.2620972255">
		<tag k="name" v="Hestmyrin" />
		<tag k="natural" v="wetland" />
		<tag k="ssr:stedsnr" v="281330" />
	</node>
	<node id="-885170" lat="64.2423250023" lon="11.2859500061">
		<tag k="name" v="Oksmyra" />
		<tag k="natural" v="wetland" />
		<tag k="ssr:stedsnr" v="38302" />
	</node>
	<node id="-885287" lat="64.2260666677" lon="11.3869916626">
		<tag k="name" v="Moan" />
		<tag k="place" v="locality" />
		<tag k="ssr:stedsnr" v="533715" />
	</node>
	<node id="-885286" lat="64.1711500034" lon="11.1908805584">
		<tag k="name" v="Gautengmyra" />
		<tag k="natural" v="wetland" />
		<tag k="ssr:stedsnr" v="706336" />
	</node>
	<node id="-884773" lat="64.5276166697" lon="11.0648166756">
		<tag k="name" v="Dalmyra" />
		<tag k="natural" v="wetland" />
		<tag k="ssr:stedsnr" v="49341" />
	</node>
	<node id="-884772" lat="64.3237888894" lon="11.2979944428">
		<tag k="name" v="Høgfjellmyra" />
		<tag k="natural" v="wetland" />
		<tag k="ssr:stedsnr" v="863867" />
	</node>
	<node id="-884486" lat="64.2271555517" lon="11.5025083319">
		<tag k="name" v="Stormyra" />
		<tag k="natural" v="wetland" />
		<tag k="ssr:stedsnr" v="654684" />
	</node>
	<node id="-885281" lat="64.2417972247" lon="11.264458338">
		<tag k="name" v="Langmyra" />
		<tag k="natural" v="wetland" />
		<tag k="ssr:stedsnr" v="160206" />
	</node>
	<node id="-885279" lat="64.1908138914" lon="11.1730222321">
		<tag k="name" v="Finnkådalsmyra" />
		<tag k="natural" v="wetland" />
		<tag k="ssr:stedsnr" v="412489" />
	</node>
	<node id="-885230" lat="64.1716111116" lon="11.3536055476">
		<tag k="name" v="Beretenget" />
		<tag k="natural" v="wetland" />
		<tag k="ssr:stedsnr" v="169728" />
	</node>
	<node id="-885881" lat="64.2970897785" lon="11.0656478752">
		<tag k="historic" v="shieling" />
		<tag k="name" v="Sandvasslisetran" />
		<tag k="place" v="locality" />
		<tag k="ssr:stedsnr" v="257205" />
	</node>
	<node id="-885275" lat="64.1972499967" lon="11.0429416613">
		<tag k="name" v="Vengstadslettet" />
		<tag k="natural" v="wetland" />
		<tag k="ssr:stedsnr" v="775498" />
	</node>
	<node id="-885358" lat="64.2235416709" lon="11.2954555564">
		<tag k="name" v="Fuglmyra" />
		<tag k="natural" v="wetland" />
		<tag k="ssr:stedsnr" v="766286" />
	</node>
	<node id="-884759" lat="64.5027750032" lon="11.1230916679">
		<tag k="name" v="Stormyra" />
		<tag k="natural" v="wetland" />
		<tag k="ssr:stedsnr" v="958395" />
	</node>
	<node id="-885828" lat="64.2290583372" lon="11.2814972182">
		<tag k="name" v="Øver-Kusmyra" />
		<tag k="natural" v="wetland" />
		<tag k="ssr:stedsnr" v="221229" />
	</node>
	<node id="-884398" lat="64.2633583313" lon="11.3792833237">
		<tag k="name" v="Hundtjønnmyra" />
		<tag k="natural" v="wetland" />
		<tag k="ssr:stedsnr" v="473615" />
	</node>
	<node id="-885266" lat="64.2195500014" lon="11.3413722259">
		<tag k="name" v="Namnlausmyra" />
		<tag k="natural" v="wetland" />
		<tag k="ssr:stedsnr" v="38323" />
	</node>
	<node id="-885265" lat="64.3102388873" lon="11.2745916698">
		<tag k="name" v="Høyfættmyra" />
		<tag k="natural" v="wetland" />
		<tag k="ssr:stedsnr" v="135895" />
	</node>
	<node id="-884959" lat="64.3935416686" lon="11.1737333339">
		<tag k="name" v="Kariengmyrin" />
		<tag k="natural" v="wetland" />
		<tag k="ssr:stedsnr" v="594758" />
	</node>
	<node id="-885025" lat="64.213900002" lon="11.2564972274">
		<tag k="name" v="Rusvemyra" />
		<tag k="natural" v="wetland" />
		<tag k="ssr:stedsnr" v="645268" />
	</node>
	<node id="-884994" lat="64.3669166647" lon="11.138338881">
		<tag k="name" v="Vakkermyrin" />
		<tag k="natural" v="wetland" />
		<tag k="ssr:stedsnr" v="412811" />
	</node>
	<node id="-884746" lat="64.2366555549" lon="11.1896194505">
		<tag k="name" v="Stormyra" />
		<tag k="natural" v="wetland" />
		<tag k="ssr:stedsnr" v="403250" />
	</node>
	<node id="-885257" lat="64.2125083308" lon="11.3981361045">
		<tag k="name" v="Langmyra" />
		<tag k="natural" v="wetland" />
		<tag k="ssr:stedsnr" v="48668" />
	</node>
	<node id="-885255" lat="64.2157055559" lon="11.2049805453">
		<tag k="name" v="Åsmyra" />
		<tag k="natural" v="wetland" />
		<tag k="ssr:stedsnr" v="828325" />
	</node>
	<node id="-885254" lat="64.2107861136" lon="11.3129222305">
		<tag k="name" v="Fluråtmyra" />
		<tag k="natural" v="wetland" />
		<tag k="ssr:stedsnr" v="645287" />
	</node>
	<node id="-884741" lat="64.1983666698" lon="11.1674222317">
		<tag k="name" v="Blautmyra" />
		<tag k="natural" v="wetland" />
		<tag k="ssr:stedsnr" v="230508" />
	</node>
	<node id="-885333" lat="64.22551111" lon="11.3204888888">
		<tag k="name" v="Lomtjønnmyra" />
		<tag k="natural" v="wetland" />
		<tag k="ssr:stedsnr" v="524233" />
	</node>
</osm>
