<?xml version="1.0" encoding="UTF-8"?>
<osm generator="osmapis" version="0.6">
	<node id="-886080" lat="64.2348222227" lon="11.1823944388">
		<tag k="ford" v="yes" />
		<tag k="name" v="Setervadet" />
		<tag k="place" v="locality" />
		<tag k="ssr:stedsnr" v="463264" />
	</node>
	<node id="-884730" lat="64.1774555563" lon="11.2775972279">
		<tag k="highway" v="path" />
		<tag k="name" v="Kleivin" />
		<tag k="ssr:stedsnr" v="584393" />
	</node>
	<node id="-885909" lat="64.3379777789" lon="11.2608611069">
		<tag k="layer" v="-1" />
		<tag k="name" v="Rødhammer" />
		<tag k="ssr:stedsnr" v="529760" />
		<tag k="tunnel" v="yes" />
	</node>
	<node id="-884468" lat="64.5102527734" lon="11.059416672">
		<tag k="highway" v="path" />
		<tag k="name" v="Bjønnstien" />
		<tag k="ssr:stedsnr" v="655436" />
	</node>
	<node id="-885357" lat="64.2111166639" lon="11.4285611042">
		<tag k="highway" v="path" />
		<tag k="name" v="Kleivin" />
		<tag k="ssr:stedsnr" v="351706" />
	</node>
	<node id="-884485" lat="64.1661416648" lon="11.3121777838">
		<tag k="highway" v="path" />
		<tag k="name" v="Aunkleiva" />
		<tag k="ssr:stedsnr" v="775714" />
	</node>
</osm>
