<?xml version="1.0" encoding="UTF-8"?>
<osm generator="osmapis" version="0.6">
	<node id="-587136" lat="62.7085416689" lon="6.65360000017">
		<tag k="name" v="Midsund" />
		<tag k="ssr:date" v="2016-05-11" />
		<tag k="ssr:gruppe" v="navigasjon" />
		<tag k="ssr:hovedgruppe" v="infrastruktur" />
		<tag k="ssr:stedsnr" v="800906" />
		<tag k="ssr:type" v="fyrlykt" />
	</node>
	<node id="-586708" lat="62.637350001" lon="6.51869444787">
		<tag k="name" v="Drønenholmen" />
		<tag k="ssr:date" v="2016-05-10" />
		<tag k="ssr:gruppe" v="navigasjon" />
		<tag k="ssr:hovedgruppe" v="infrastruktur" />
		<tag k="ssr:stedsnr" v="415908" />
		<tag k="ssr:type" v="fyrlykt" />
	</node>
	<node id="-586870" lat="62.676141664" lon="6.6777694494">
		<tag k="name" v="Midsund kommune" />
		<tag k="ssr:date" v="2016-05-10" />
		<tag k="ssr:gruppe" v="administrativeIndelinger" />
		<tag k="ssr:hovedgruppe" v="offentligAdministrasjon" />
		<tag k="ssr:stedsnr" v="571010" />
		<tag k="ssr:type" v="kommune" />
	</node>
	<node id="-587124" lat="62.6573027755" lon="6.87293054984">
		<tag k="name" v="Stabbeflua lysbøye" />
		<tag k="ssr:date" v="2016-05-11" />
		<tag k="ssr:gruppe" v="navigasjon" />
		<tag k="ssr:hovedgruppe" v="infrastruktur" />
		<tag k="ssr:stedsnr" v="769128" />
		<tag k="ssr:type" v="lysbøye" />
	</node>
	<node id="-586254" lat="62.6605583329" lon="6.67983333347">
		<tag k="name" v="Årnesklubben" />
		<tag k="ssr:date" v="2016-05-10" />
		<tag k="ssr:gruppe" v="navigasjon" />
		<tag k="ssr:hovedgruppe" v="infrastruktur" />
		<tag k="ssr:stedsnr" v="315935" />
		<tag k="ssr:type" v="fyrlykt" />
	</node>
	<node id="-586480" lat="62.7388638899" lon="6.74195277901">
		<tag k="name" v="Klepskjær" />
		<tag k="ssr:date" v="2016-05-10" />
		<tag k="ssr:gruppe" v="navigasjon" />
		<tag k="ssr:hovedgruppe" v="infrastruktur" />
		<tag k="ssr:stedsnr" v="51150" />
		<tag k="ssr:type" v="fyrlykt" />
	</node>
	<node id="-586415" lat="62.7214563934" lon="6.75166768734">
		<tag k="name" v="Rørsethornet P - plass" />
		<tag k="ssr:date" v="2019-05-30" />
		<tag k="ssr:gruppe" v="veg" />
		<tag k="ssr:hovedgruppe" v="infrastruktur" />
		<tag k="ssr:stedsnr" v="992829" />
		<tag k="ssr:type" v="adressenavn" />
	</node>
	<node id="-586414" lat="62.6832251146" lon="6.61174647949">
		<tag k="name" v="Sandane P - plass" />
		<tag k="ssr:date" v="2019-05-30" />
		<tag k="ssr:gruppe" v="veg" />
		<tag k="ssr:hovedgruppe" v="infrastruktur" />
		<tag k="ssr:stedsnr" v="992787" />
		<tag k="ssr:type" v="adressenavn" />
	</node>
	<node id="-586413" lat="62.681063533" lon="6.76131762751">
		<tag k="name" v="Klausethjelen P - plass" />
		<tag k="ssr:date" v="2019-05-30" />
		<tag k="ssr:gruppe" v="veg" />
		<tag k="ssr:hovedgruppe" v="infrastruktur" />
		<tag k="ssr:stedsnr" v="992742" />
		<tag k="ssr:type" v="adressenavn" />
	</node>
	<node id="-586412" lat="62.6991916113" lon="6.8966269899">
		<tag k="name" v="Kapellvegen" />
		<tag k="ssr:date" v="2019-05-30" />
		<tag k="ssr:gruppe" v="veg" />
		<tag k="ssr:hovedgruppe" v="infrastruktur" />
		<tag k="ssr:stedsnr" v="992740" />
		<tag k="ssr:type" v="adressenavn" />
	</node>
	<node id="-587268" lat="62.662372219" lon="6.5711027875">
		<tag k="name" v="Drønesundvågen" />
		<tag k="ssr:date" v="2016-05-11" />
		<tag k="ssr:gruppe" v="navigasjon" />
		<tag k="ssr:hovedgruppe" v="infrastruktur" />
		<tag k="ssr:stedsnr" v="900611" />
		<tag k="ssr:type" v="fyrlykt" />
	</node>
	<node id="-587331" lat="60.8816104596" lon="6.30047518531">
		<tag k="name" v="Vestlandet" />
		<tag k="ssr:date" v="2019-01-06" />
		<tag k="ssr:gruppe" v="administrativeIndelinger" />
		<tag k="ssr:hovedgruppe" v="offentligAdministrasjon" />
		<tag k="ssr:stedsnr" v="974777" />
		<tag k="ssr:type" v="annenAdministrativInndeling" />
	</node>
</osm>
