<?xml version="1.0" encoding="UTF-8"?>
<osm generator="osmapis" version="0.6">
	<node id="-732160" lat="68.877977775" lon="16.5755722233">
		<tag k="name" v="Lundenes molo" />
		<tag k="ssr:date" v="2016-05-11" />
		<tag k="ssr:gruppe" v="navigasjon" />
		<tag k="ssr:hovedgruppe" v="infrastruktur" />
		<tag k="ssr:stedsnr" v="947809" />
		<tag k="ssr:type" v="fyrlykt" />
	</node>
	<node id="-732149" lat="68.9535722227" lon="16.6361527711">
		<tag k="name" v="Store Dyna" />
		<tag k="ssr:date" v="2016-05-11" />
		<tag k="ssr:gruppe" v="navigasjon" />
		<tag k="ssr:hovedgruppe" v="infrastruktur" />
		<tag k="ssr:stedsnr" v="940377" />
		<tag k="ssr:type" v="fyrlykt" />
	</node>
	<node id="-729075" lat="69.0861277778" lon="16.4661194539">
		<tag k="name" v="Lille Bjønnholmen" />
		<tag k="ssr:date" v="2016-05-10" />
		<tag k="ssr:gruppe" v="navigasjon" />
		<tag k="ssr:hovedgruppe" v="infrastruktur" />
		<tag k="ssr:stedsnr" v="359623" />
		<tag k="ssr:type" v="lanterne" />
	</node>
	<node id="-732272" lat="68.4849327361" lon="16.2297866207">
		<tag k="fixme" v="multiple name tags, choose one and add the other to alt_name" />
		<tag k="name" v="Nord-Noreg;Nord-Norge" />
		<tag k="ssr:date" v="2017-05-18" />
		<tag k="ssr:gruppe" v="administrativeIndelinger" />
		<tag k="ssr:hovedgruppe" v="offentligAdministrasjon" />
		<tag k="ssr:stedsnr" v="976106" />
		<tag k="ssr:type" v="annenAdministrativInndeling" />
	</node>
	<node id="-730860" lat="68.9593472223" lon="16.7626305627">
		<tag k="name" v="Spira" />
		<tag k="ssr:date" v="2016-05-10" />
		<tag k="ssr:gruppe" v="navigasjon" />
		<tag k="ssr:hovedgruppe" v="infrastruktur" />
		<tag k="ssr:stedsnr" v="575252" />
		<tag k="ssr:type" v="fyrlykt" />
	</node>
	<node id="-730219" lat="68.9778472194" lon="16.2663277692">
		<tag k="name" v="Grøtavær" />
		<tag k="ssr:date" v="2016-05-10" />
		<tag k="ssr:gruppe" v="navigasjon" />
		<tag k="ssr:hovedgruppe" v="infrastruktur" />
		<tag k="ssr:stedsnr" v="261691" />
		<tag k="ssr:type" v="fyrlykt" />
	</node>
	<node id="-731498" lat="68.7982083334" lon="16.6026083203">
		<tag k="name" v="Stangnesodden" />
		<tag k="ssr:date" v="2016-05-11" />
		<tag k="ssr:gruppe" v="navigasjon" />
		<tag k="ssr:hovedgruppe" v="infrastruktur" />
		<tag k="ssr:stedsnr" v="746495" />
		<tag k="ssr:type" v="fyrlykt" />
	</node>
	<node id="-730594" lat="68.8002027754" lon="16.6215249956">
		<tag k="name" v="Harstad" />
		<tag k="ssr:date" v="2016-05-10" />
		<tag k="ssr:gruppe" v="navigasjon" />
		<tag k="ssr:hovedgruppe" v="infrastruktur" />
		<tag k="ssr:stedsnr" v="503466" />
		<tag k="ssr:type" v="fyrlykt" />
	</node>
	<node id="-729567" lat="68.6697083367" lon="16.636036123">
		<tag k="name" v="Grasholmen" />
		<tag k="ssr:date" v="2016-05-10" />
		<tag k="ssr:gruppe" v="navigasjon" />
		<tag k="ssr:hovedgruppe" v="infrastruktur" />
		<tag k="ssr:stedsnr" v="81091" />
		<tag k="ssr:type" v="fyrlykt" />
	</node>
	<node id="-731480" lat="68.9458027754" lon="16.6550916566">
		<tag k="name" v="Sandsøy" />
		<tag k="old_name" v="Sandsøya" />
		<tag k="ssr:date" v="2016-05-11" />
		<tag k="ssr:gruppe" v="navigasjon" />
		<tag k="ssr:hovedgruppe" v="infrastruktur" />
		<tag k="ssr:stedsnr" v="745516" />
		<tag k="ssr:type" v="fyrlykt" />
	</node>
	<node id="-729269" lat="68.964819687" lon="16.5945854079">
		<tag k="name" v="Horsevika" />
		<tag k="ssr:date" v="2019-05-30" />
		<tag k="ssr:gruppe" v="veg" />
		<tag k="ssr:hovedgruppe" v="infrastruktur" />
		<tag k="ssr:stedsnr" v="1009586" />
		<tag k="ssr:type" v="adressenavn" />
	</node>
	<node id="-729272" lat="69.0343123581" lon="16.5179502015">
		<tag k="name" v="Helløya" />
		<tag k="ssr:date" v="2019-05-30" />
		<tag k="ssr:gruppe" v="veg" />
		<tag k="ssr:hovedgruppe" v="infrastruktur" />
		<tag k="ssr:stedsnr" v="1009594" />
		<tag k="ssr:type" v="adressenavn" />
	</node>
	<node id="-728973" lat="69.0641527742" lon="16.4928666708">
		<tag k="name" v="Tarskjær" />
		<tag k="ssr:date" v="2016-05-10" />
		<tag k="ssr:gruppe" v="navigasjon" />
		<tag k="ssr:hovedgruppe" v="infrastruktur" />
		<tag k="ssr:stedsnr" v="321093" />
		<tag k="ssr:type" v="fyrlykt" />
	</node>
	<node id="-729032" lat="68.9748305566" lon="16.5913611212">
		<tag k="name" v="Kverna" />
		<tag k="ssr:date" v="2016-05-10" />
		<tag k="ssr:gruppe" v="navigasjon" />
		<tag k="ssr:hovedgruppe" v="infrastruktur" />
		<tag k="ssr:stedsnr" v="333468" />
		<tag k="ssr:type" v="fyrlykt" />
	</node>
	<node id="-731463" lat="68.8617555509" lon="16.5765500096">
		<tag k="name" v="Store Kjeøy" />
		<tag k="old_name" v="Kjeøya, store;Store Kjeøya" />
		<tag k="ssr:date" v="2016-05-11" />
		<tag k="ssr:gruppe" v="navigasjon" />
		<tag k="ssr:hovedgruppe" v="infrastruktur" />
		<tag k="ssr:stedsnr" v="745436" />
		<tag k="ssr:type" v="fyrlykt" />
	</node>
	<node id="-729028" lat="68.7987749994" lon="16.5392666551">
		<tag k="fixme" v="multiple name tags, choose one and add the other to alt_name" />
		<tag k="name" v="Harstad kommune - Hársttáid  suohkan;Hárstták" />
		<tag k="name:no" v="Harstad kommune" />
		<tag k="name:se" v="Hársttáid  suohkan;Hárstták" />
		<tag k="ssr:date" v="2017-03-28" />
		<tag k="ssr:gruppe" v="administrativeIndelinger" />
		<tag k="ssr:hovedgruppe" v="offentligAdministrasjon" />
		<tag k="ssr:stedsnr" v="329043" />
		<tag k="ssr:type" v="kommune" />
	</node>
	<node id="-731331" lat="68.9998916706" lon="16.5382027719">
		<tag k="name" v="Nergårdsvika molo" />
		<tag k="ssr:date" v="2016-05-11" />
		<tag k="ssr:gruppe" v="navigasjon" />
		<tag k="ssr:hovedgruppe" v="infrastruktur" />
		<tag k="ssr:stedsnr" v="705794" />
		<tag k="ssr:type" v="fyrlykt" />
	</node>
	<node id="-729794" lat="68.8223305534" lon="16.6235166736">
		<tag k="name" v="Smågrunnen" />
		<tag k="ssr:date" v="2016-05-10" />
		<tag k="ssr:gruppe" v="navigasjon" />
		<tag k="ssr:hovedgruppe" v="infrastruktur" />
		<tag k="ssr:stedsnr" v="150043" />
		<tag k="ssr:type" v="lanterne" />
	</node>
	<node id="-729279" lat="68.8831254136" lon="16.6854801423">
		<tag k="name" v="Åkerøya" />
		<tag k="ssr:date" v="2019-05-30" />
		<tag k="ssr:gruppe" v="veg" />
		<tag k="ssr:hovedgruppe" v="infrastruktur" />
		<tag k="ssr:stedsnr" v="1010058" />
		<tag k="ssr:type" v="adressenavn" />
	</node>
	<node id="-729278" lat="68.7709978701" lon="16.4996821639">
		<tag k="name" v="Pevatnet" />
		<tag k="ssr:date" v="2019-05-30" />
		<tag k="ssr:gruppe" v="veg" />
		<tag k="ssr:hovedgruppe" v="infrastruktur" />
		<tag k="ssr:stedsnr" v="1010005" />
		<tag k="ssr:type" v="adressenavn" />
	</node>
	<node id="-729277" lat="68.7290981597" lon="16.633173416">
		<tag k="name" v="Rogla" />
		<tag k="ssr:date" v="2019-05-30" />
		<tag k="ssr:gruppe" v="veg" />
		<tag k="ssr:hovedgruppe" v="infrastruktur" />
		<tag k="ssr:stedsnr" v="1010004" />
		<tag k="ssr:type" v="adressenavn" />
	</node>
	<node id="-729276" lat="68.7032763527" lon="16.537755372">
		<tag k="name" v="Hinnøyveien" />
		<tag k="ssr:date" v="2019-05-30" />
		<tag k="ssr:gruppe" v="veg" />
		<tag k="ssr:hovedgruppe" v="infrastruktur" />
		<tag k="ssr:stedsnr" v="1009978" />
		<tag k="ssr:type" v="adressenavn" />
	</node>
	<node id="-729275" lat="68.8219094168" lon="16.4508210945">
		<tag k="name" v="Isveien" />
		<tag k="ssr:date" v="2019-05-30" />
		<tag k="ssr:gruppe" v="veg" />
		<tag k="ssr:hovedgruppe" v="infrastruktur" />
		<tag k="ssr:stedsnr" v="1009961" />
		<tag k="ssr:type" v="adressenavn" />
	</node>
	<node id="-729274" lat="68.6921748021" lon="16.5617317121">
		<tag k="name" v="Melvikøya" />
		<tag k="ssr:date" v="2019-05-30" />
		<tag k="ssr:gruppe" v="veg" />
		<tag k="ssr:hovedgruppe" v="infrastruktur" />
		<tag k="ssr:stedsnr" v="1009626" />
		<tag k="ssr:type" v="adressenavn" />
	</node>
	<node id="-729273" lat="68.7834541335" lon="16.5814346446">
		<tag k="name" v="Åkerstien" />
		<tag k="ssr:date" v="2019-05-30" />
		<tag k="ssr:gruppe" v="veg" />
		<tag k="ssr:hovedgruppe" v="infrastruktur" />
		<tag k="ssr:stedsnr" v="1009624" />
		<tag k="ssr:type" v="adressenavn" />
	</node>
	<node id="-731320" lat="68.5635194412" lon="16.5088305488">
		<tag k="name" v="Remma" />
		<tag k="ssr:date" v="2016-05-11" />
		<tag k="ssr:gruppe" v="navigasjon" />
		<tag k="ssr:hovedgruppe" v="infrastruktur" />
		<tag k="ssr:stedsnr" v="697255" />
		<tag k="ssr:type" v="fyrlykt" />
	</node>
	<node id="-729271" lat="69.0267391074" lon="16.4927790688">
		<tag k="name" v="Bornøya" />
		<tag k="ssr:date" v="2019-05-30" />
		<tag k="ssr:gruppe" v="veg" />
		<tag k="ssr:hovedgruppe" v="infrastruktur" />
		<tag k="ssr:stedsnr" v="1009592" />
		<tag k="ssr:type" v="adressenavn" />
	</node>
	<node id="-729270" lat="69.04015809" lon="16.4912719484">
		<tag k="name" v="Flatøya" />
		<tag k="ssr:date" v="2019-05-30" />
		<tag k="ssr:gruppe" v="veg" />
		<tag k="ssr:hovedgruppe" v="infrastruktur" />
		<tag k="ssr:stedsnr" v="1009588" />
		<tag k="ssr:type" v="adressenavn" />
	</node>
	<node id="-731317" lat="68.5528944485" lon="16.4634555534">
		<tag k="name" v="Steinstigrunnen lysbøye" />
		<tag k="ssr:date" v="2016-05-11" />
		<tag k="ssr:gruppe" v="navigasjon" />
		<tag k="ssr:hovedgruppe" v="infrastruktur" />
		<tag k="ssr:stedsnr" v="693716" />
		<tag k="ssr:type" v="fyrlykt" />
	</node>
	<node id="-729268" lat="68.8067387625" lon="16.5458321294">
		<tag k="name" v="Holstneset" />
		<tag k="ssr:date" v="2019-05-30" />
		<tag k="ssr:gruppe" v="veg" />
		<tag k="ssr:hovedgruppe" v="infrastruktur" />
		<tag k="ssr:stedsnr" v="1009584" />
		<tag k="ssr:type" v="adressenavn" />
	</node>
	<node id="-729267" lat="68.9641817746" lon="16.5057217533">
		<tag k="name" v="Akkarnes" />
		<tag k="ssr:date" v="2019-05-30" />
		<tag k="ssr:gruppe" v="veg" />
		<tag k="ssr:hovedgruppe" v="infrastruktur" />
		<tag k="ssr:stedsnr" v="1009582" />
		<tag k="ssr:type" v="adressenavn" />
	</node>
	<node id="-729266" lat="68.9530101231" lon="16.5715895486">
		<tag k="name" v="Dypingen" />
		<tag k="ssr:date" v="2019-05-30" />
		<tag k="ssr:gruppe" v="veg" />
		<tag k="ssr:hovedgruppe" v="infrastruktur" />
		<tag k="ssr:stedsnr" v="1009580" />
		<tag k="ssr:type" v="adressenavn" />
	</node>
	<node id="-731313" lat="68.5727583303" lon="16.5274722205">
		<tag k="name" v="Kobbsteingrunnen" />
		<tag k="ssr:date" v="2016-05-11" />
		<tag k="ssr:gruppe" v="navigasjon" />
		<tag k="ssr:hovedgruppe" v="infrastruktur" />
		<tag k="ssr:stedsnr" v="688167" />
		<tag k="ssr:type" v="fyrlykt" />
	</node>
	<node id="-731948" lat="68.9350361135" lon="16.6503639003">
		<tag k="name" v="Fenes" />
		<tag k="ssr:date" v="2016-05-11" />
		<tag k="ssr:gruppe" v="navigasjon" />
		<tag k="ssr:hovedgruppe" v="infrastruktur" />
		<tag k="ssr:stedsnr" v="878765" />
		<tag k="ssr:type" v="fyrlykt" />
	</node>
	<node id="-729265" lat="68.8000198737" lon="16.5356194915">
		<tag k="name" v="Henrik Torbergsens gate" />
		<tag k="ssr:date" v="2019-05-30" />
		<tag k="ssr:gruppe" v="veg" />
		<tag k="ssr:hovedgruppe" v="infrastruktur" />
		<tag k="ssr:stedsnr" v="1009313" />
		<tag k="ssr:type" v="adressenavn" />
	</node>
	<node id="-731042" lat="68.953224997" lon="16.2232138769">
		<tag k="name" v="Senholmen" />
		<tag k="old_name" v="Sennholmen" />
		<tag k="ssr:date" v="2016-05-10" />
		<tag k="ssr:gruppe" v="navigasjon" />
		<tag k="ssr:hovedgruppe" v="infrastruktur" />
		<tag k="ssr:stedsnr" v="624517" />
		<tag k="ssr:type" v="fyrlykt" />
	</node>
	<node id="-730382" lat="68.9567750044" lon="16.6294305525">
		<tag k="name" v="Sandssund" />
		<tag k="old_name" v="Sandssundet" />
		<tag k="ssr:date" v="2016-05-10" />
		<tag k="ssr:gruppe" v="navigasjon" />
		<tag k="ssr:hovedgruppe" v="infrastruktur" />
		<tag k="ssr:stedsnr" v="442518" />
		<tag k="ssr:type" v="fyrlykt" />
	</node>
	<node id="-731021" lat="69.0234472253" lon="16.4757388941">
		<tag k="name" v="Bårnøyklubben" />
		<tag k="old_name" v="Bornøyklubben" />
		<tag k="ssr:date" v="2016-05-10" />
		<tag k="ssr:gruppe" v="navigasjon" />
		<tag k="ssr:hovedgruppe" v="infrastruktur" />
		<tag k="ssr:stedsnr" v="624101" />
		<tag k="ssr:type" v="fyrlykt" />
	</node>
	<node id="-730632" lat="68.572547225" lon="16.536680564">
		<tag k="name" v="Storbøen" />
		<tag k="ssr:date" v="2016-05-10" />
		<tag k="ssr:gruppe" v="navigasjon" />
		<tag k="ssr:hovedgruppe" v="infrastruktur" />
		<tag k="ssr:stedsnr" v="505150" />
		<tag k="ssr:type" v="fyrlykt" />
	</node>
	<node id="-731884" lat="68.8250083306" lon="16.6186500104">
		<tag k="name" v="Mågøy" />
		<tag k="old_name" v="Måga;Mågøya" />
		<tag k="ssr:date" v="2016-05-11" />
		<tag k="ssr:gruppe" v="navigasjon" />
		<tag k="ssr:hovedgruppe" v="infrastruktur" />
		<tag k="ssr:stedsnr" v="867403" />
		<tag k="ssr:type" v="fyrlykt" />
	</node>
</osm>
