<?xml version="1.0" encoding="UTF-8"?>
<osm version="0.6" generator="osmapis">
	<node lat="60.586319879302266" lon="5.815801968862158" id="-35037">
		<tag k="alt_name" v="Dale" />
		<tag k="name" v="Dale stasjon" />
		<tag k="railway" v="station" />
		<tag k="ssr:stedsnr" v="45012" />
		<tag k="train" v="yes" />
	</node>
	<node lat="60.478617288019514" lon="5.735225609661703" id="-35057">
		<tag k="name" v="Vaksdal stasjon" />
		<tag k="railway" v="station" />
		<tag k="ssr:stedsnr" v="66942" />
		<tag k="train" v="yes" />
	</node>
	<node lat="60.692469295297144" lon="5.684435874636536" id="-35235">
		<tag k="man_made" v="quay" />
		<tag k="name" v="Hamna" />
		<tag k="place" v="locality" />
		<tag k="ssr:stedsnr" v="165778" />
	</node>
	<node lat="60.728130557646764" lon="5.794638895098217" id="-35338">
		<tag k="bridge" v="yes" />
		<tag k="layer" v="1" />
		<tag k="name" v="Tunnel" />
		<tag k="ssr:stedsnr" v="229038" />
	</node>
	<node lat="60.570688886868844" lon="5.601127786342505" id="-35383">
		<tag k="highway" v="path" />
		<tag k="name" v="Børsti" />
		<tag k="ssr:stedsnr" v="288298" />
	</node>
	<node lat="60.47658055330567" lon="5.740505561301487" id="-35488">
		<tag k="bridge" v="yes" />
		<tag k="layer" v="1" />
		<tag k="name" v="Vaksdal Viadukt" />
		<tag k="ssr:stedsnr" v="472029" />
	</node>
	<node lat="60.73547500146229" lon="5.833891669417165" id="-35575">
		<tag k="highway" v="path" />
		<tag k="name" v="Stien" />
		<tag k="ssr:stedsnr" v="408688" />
	</node>
	<node lat="60.69825000051416" lon="5.764730559026224" id="-35596">
		<tag k="bridge" v="yes" />
		<tag k="layer" v="1" />
		<tag k="name" v="Hesjedalsfossen" />
		<tag k="ssr:stedsnr" v="411039" />
	</node>
	<node lat="60.51151389054309" lon="5.726361118080722" id="-35598">
		<tag k="bridge" v="yes" />
		<tag k="layer" v="1" />
		<tag k="name" v="Fossdal" />
		<tag k="ssr:stedsnr" v="411043" />
	</node>
	<node lat="60.54892444387341" lon="5.732894679185796" id="-35653">
		<tag k="name" v="Stanghelle stasjon" />
		<tag k="railway" v="station" />
		<tag k="ssr:stedsnr" v="492888" />
		<tag k="train" v="yes" />
	</node>
	<node lat="60.77914999662208" lon="6.0410611130271965" id="-35941">
		<tag k="highway" v="path" />
		<tag k="name" v="Øyksvegen" />
		<tag k="ssr:stedsnr" v="651609" />
	</node>
	<node lat="60.8304583329992" lon="6.231588884010882" id="-35951">
		<tag k="bridge" v="yes" />
		<tag k="layer" v="1" />
		<tag k="name" v="Hagelvane" />
		<tag k="ssr:stedsnr" v="654032" />
	</node>
	<node lat="60.62172773509432" lon="5.874492031244607" id="-36024">
		<tag k="bridge" v="yes" />
		<tag k="layer" v="1" />
		<tag k="name" v="Treselva" />
		<tag k="ssr:stedsnr" v="897031" />
	</node>
	<node lat="60.575841666183386" lon="5.767463895180315" id="-36205">
		<tag k="man_made" v="quay" />
		<tag k="name" v="Dalebryggja" />
		<tag k="place" v="locality" />
		<tag k="ssr:stedsnr" v="916605" />
	</node>
	<node lat="60.589427774829986" lon="5.818761105745427" id="-36234">
		<tag k="bridge" v="yes" />
		<tag k="layer" v="1" />
		<tag k="name" v="Dale" />
		<tag k="ssr:stedsnr" v="836026" />
	</node>
	<node lat="60.62294444746269" lon="5.825547226431455" id="-36345">
		<tag k="layer" v="-1" />
		<tag k="name" v="Småtunnel I" />
		<tag k="ssr:stedsnr" v="954746" />
		<tag k="tunnel" v="yes" />
	</node>
	<node lat="60.674283337893726" lon="5.739150001839381" id="-36497">
		<tag k="bridge" v="yes" />
		<tag k="layer" v="1" />
		<tag k="name" v="Kallestadsundet" />
		<tag k="ssr:stedsnr" v="47037" />
	</node>
	<node lat="60.728650002830086" lon="5.797294445181865" id="-36498">
		<tag k="bridge" v="yes" />
		<tag k="layer" v="1" />
		<tag k="name" v="Eidslandet" />
		<tag k="ssr:stedsnr" v="47039" />
	</node>
	<node lat="60.72890277631827" lon="5.798991674855718" id="-36499">
		<tag k="bridge" v="yes" />
		<tag k="layer" v="1" />
		<tag k="name" v="Eidsland" />
		<tag k="ssr:stedsnr" v="47042" />
	</node>
	<node lat="60.57569444797517" lon="5.899580551630058" id="-36500">
		<tag k="bridge" v="yes" />
		<tag k="layer" v="1" />
		<tag k="name" v="Øye" />
		<tag k="ssr:stedsnr" v="47057" />
	</node>
	<node lat="60.78554722682308" lon="5.846630559610008" id="-36605">
		<tag k="bridge" v="yes" />
		<tag k="layer" v="1" />
		<tag k="name" v="Høvik" />
		<tag k="ssr:stedsnr" v="108041" />
	</node>
	<node lat="60.58143611158163" lon="5.89054722648361" id="-36700">
		<tag k="bridge" v="yes" />
		<tag k="layer" v="1" />
		<tag k="name" v="Fossegjelet" />
		<tag k="ssr:stedsnr" v="168045" />
	</node>
	<node lat="60.57947221822237" lon="5.776799997740415" id="-36701">
		<tag k="bridge" v="yes" />
		<tag k="layer" v="1" />
		<tag k="name" v="Dalehagen" />
		<tag k="ssr:stedsnr" v="168051" />
	</node>
	<node lat="60.73226110821495" lon="5.79933333833033" id="-36823">
		<tag k="layer" v="-1" />
		<tag k="name" v="Åsen I" />
		<tag k="ssr:stedsnr" v="287668" />
		<tag k="tunnel" v="yes" />
	</node>
	<node lat="60.55493611323861" lon="6.014005563679313" id="-36857">
		<tag k="bridge" v="yes" />
		<tag k="layer" v="1" />
		<tag k="name" v="Kaldå" />
		<tag k="ssr:stedsnr" v="290038" />
	</node>
	<node lat="60.52096111393917" lon="5.724119445561904" id="-36884">
		<tag k="name" v="Fossmark" />
		<tag k="railway" v="station" />
		<tag k="ssr:stedsnr" v="309953" />
		<tag k="train" v="yes" />
	</node>
	<node lat="60.562933332673914" lon="5.974030564288561" id="-36950">
		<tag k="highway" v="path" />
		<tag k="name" v="Smålasteigen" />
		<tag k="ssr:stedsnr" v="348932" />
	</node>
	<node lat="60.778866669282216" lon="5.836241670548538" id="-36952">
		<tag k="bridge" v="yes" />
		<tag k="layer" v="1" />
		<tag k="name" v="Rekavik" />
		<tag k="ssr:stedsnr" v="350030" />
	</node>
	<node lat="60.786852774395264" lon="6.042841663452936" id="-36953">
		<tag k="bridge" v="yes" />
		<tag k="layer" v="1" />
		<tag k="name" v="Fagerdalen" />
		<tag k="ssr:stedsnr" v="350035" />
	</node>
	<node lat="60.581499999922634" lon="5.789427780088858" id="-36954">
		<tag k="bridge" v="yes" />
		<tag k="layer" v="1" />
		<tag k="name" v="Dalegarden" />
		<tag k="ssr:stedsnr" v="350038" />
	</node>
	<node lat="60.56347499986743" lon="5.749936109245976" id="-36972">
		<tag k="name" v="Hellestræet" />
		<tag k="railway" v="station" />
		<tag k="ssr:stedsnr" v="370632" />
		<tag k="train" v="yes" />
	</node>
	<node lat="60.62228055601422" lon="5.826141663755507" id="-37023">
		<tag k="layer" v="-1" />
		<tag k="name" v="Småtunnel II" />
		<tag k="ssr:stedsnr" v="408724" />
		<tag k="tunnel" v="yes" />
	</node>
	<node lat="60.621688884790714" lon="5.827911105560205" id="-37024">
		<tag k="layer" v="-1" />
		<tag k="name" v="Småtunnel III" />
		<tag k="ssr:stedsnr" v="408725" />
		<tag k="tunnel" v="yes" />
	</node>
	<node lat="60.47907222502391" lon="5.74473332786443" id="-37063">
		<tag k="bridge" v="yes" />
		<tag k="layer" v="1" />
		<tag k="name" v="Vaksdalselva" />
		<tag k="ssr:stedsnr" v="411030" />
	</node>
	<node lat="60.73066388975123" lon="5.799352771336209" id="-37117">
		<tag k="layer" v="-1" />
		<tag k="name" v="Åsen II" />
		<tag k="ssr:stedsnr" v="529641" />
		<tag k="tunnel" v="yes" />
	</node>
	<node lat="60.78670555199549" lon="5.98749721562463" id="-37168">
		<tag k="bridge" v="yes" />
		<tag k="layer" v="1" />
		<tag k="name" v="Skorvsdalen" />
		<tag k="ssr:stedsnr" v="533038" />
	</node>
	<node lat="60.831005556301186" lon="6.198477786762484" id="-37169">
		<tag k="bridge" v="yes" />
		<tag k="layer" v="1" />
		<tag k="name" v="Nordal" />
		<tag k="ssr:stedsnr" v="533041" />
	</node>
	<node lat="60.791924997199686" lon="6.1562527717106725" id="-37170">
		<tag k="bridge" v="yes" />
		<tag k="layer" v="1" />
		<tag k="name" v="Monsdalselven" />
		<tag k="ssr:stedsnr" v="533044" />
	</node>
	<node lat="60.58153611034935" lon="5.82136666354998" id="-37220">
		<tag k="highway" v="path" />
		<tag k="name" v="Bjørnstien" />
		<tag k="ssr:stedsnr" v="590126" />
	</node>
	<node lat="60.62680833469406" lon="5.896608339502524" id="-37265">
		<tag k="bridge" v="yes" />
		<tag k="layer" v="1" />
		<tag k="name" v="Verpelstadelva" />
		<tag k="ssr:stedsnr" v="593034" />
	</node>
	<node lat="60.78302499637689" lon="5.837944446010084" id="-37266">
		<tag k="bridge" v="yes" />
		<tag k="layer" v="1" />
		<tag k="name" v="Setsteinen" />
		<tag k="ssr:stedsnr" v="593039" />
	</node>
	<node lat="60.624863886050015" lon="5.822716663348333" id="-37267">
		<tag k="bridge" v="yes" />
		<tag k="layer" v="1" />
		<tag k="name" v="Markåelva" />
		<tag k="ssr:stedsnr" v="593041" />
	</node>
	<node lat="60.83432499634289" lon="6.2213055583095365" id="-37367">
		<tag k="bridge" v="yes" />
		<tag k="layer" v="1" />
		<tag k="name" v="Røyrdalen" />
		<tag k="ssr:stedsnr" v="654024" />
	</node>
	<node lat="60.62838888553429" lon="5.817861118691391" id="-37368">
		<tag k="bridge" v="yes" />
		<tag k="layer" v="1" />
		<tag k="name" v="Sagelv" />
		<tag k="ssr:stedsnr" v="654025" />
	</node>
	<node lat="60.67071944161073" lon="5.728116664235266" id="-37403">
		<tag k="highway" v="path" />
		<tag k="name" v="Stien" />
		<tag k="ssr:stedsnr" v="712860" />
	</node>
	<node lat="60.54024999648977" lon="6.066627769763697" id="-37409">
		<tag k="highway" v="path" />
		<tag k="name" v="Dyrastegen" />
		<tag k="ssr:stedsnr" v="712990" />
	</node>
	<node lat="60.49449444245767" lon="5.733355561142814" id="-37418">
		<tag k="bridge" v="yes" />
		<tag k="layer" v="1" />
		<tag k="name" v="Skreia" />
		<tag k="ssr:stedsnr" v="715033" />
	</node>
	<node lat="60.655266666748865" lon="5.800827775397674" id="-37419">
		<tag k="bridge" v="yes" />
		<tag k="layer" v="1" />
		<tag k="name" v="Bolstadstraumen" />
		<tag k="ssr:stedsnr" v="715041" />
	</node>
	<node lat="60.5617972191233" lon="6.006580561835967" id="-37420">
		<tag k="bridge" v="yes" />
		<tag k="layer" v="1" />
		<tag k="name" v="Berge" />
		<tag k="ssr:stedsnr" v="715224" />
	</node>
	<node lat="60.50708333670085" lon="5.796033333386196" id="-37485">
		<tag k="highway" v="path" />
		<tag k="name" v="Dyrestigen" />
		<tag k="ssr:stedsnr" v="773044" />
	</node>
	<node lat="60.562458337858516" lon="5.9987583347129885" id="-37523">
		<tag k="bridge" v="yes" />
		<tag k="layer" v="1" />
		<tag k="name" v="Bergevatn" />
		<tag k="ssr:stedsnr" v="775193" />
	</node>
	<node lat="60.54494722163955" lon="5.727541673937344" id="-37659">
		<tag k="bridge" v="yes" />
		<tag k="layer" v="1" />
		<tag k="name" v="Kraksåelva" />
		<tag k="ssr:stedsnr" v="836023" />
	</node>
	<node lat="60.4766000011626" lon="5.740516662275018" id="-37765">
		<tag k="bridge" v="yes" />
		<tag k="layer" v="1" />
		<tag k="name" v="Vaksdal" />
		<tag k="ssr:stedsnr" v="957029" />
	</node>
	<node lat="60.79683055691135" lon="6.15840278238512" id="-37766">
		<tag k="bridge" v="yes" />
		<tag k="layer" v="1" />
		<tag k="name" v="Storelven" />
		<tag k="ssr:stedsnr" v="957030" />
	</node>
</osm>
