<?xml version="1.0" encoding="UTF-8"?>
<<<<<<< HEAD
<osm version="0.6" generator="osmapis">
	<node lat="60.47175436845436" lon="5.818057205123569" id="-26444">
		<tag k="name" v="Svartavatnet" />
		<tag k="natural" v="water" />
		<tag k="ssr:stedsnr" v="6006" />
	</node>
	<node lat="60.618241668029455" lon="5.862286110469178" id="-26446">
		<tag k="name" v="Hjellabekken" />
		<tag k="ssr:stedsnr" v="6175" />
		<tag k="waterway" v="stream" />
	</node>
	<node lat="60.570440267448795" lon="5.660542525108418" id="-26450">
		<tag k="name" v="Langgrova" />
		<tag k="natural" v="water" />
		<tag k="ssr:stedsnr" v="6618" />
	</node>
	<node lat="60.58392540702459" lon="5.689389216294324" id="-26453">
		<tag k="name" v="Storavatnet" />
		<tag k="natural" v="water" />
		<tag k="ssr:stedsnr" v="6579" />
	</node>
	<node lat="60.54911008143755" lon="5.793910023123838" id="-26457">
		<tag k="alt_name" v="Litlvatnet" />
		<tag k="name" v="Litlavatnet" />
		<tag k="natural" v="water" />
		<tag k="ssr:stedsnr" v="6894" />
	</node>
	<node lat="60.55371911904269" lon="5.628438650116065" id="-26459">
		<tag k="name" v="Svarttjørna" />
		<tag k="natural" v="water" />
		<tag k="ssr:stedsnr" v="6902" />
	</node>
	<node lat="60.512530559028356" lon="5.98995833762179" id="-26463">
		<tag k="name" v="Storlitjørni" />
		<tag k="natural" v="water" />
		<tag k="ssr:stedsnr" v="6984" />
	</node>
	<node lat="60.772327777784255" lon="5.839655552443545" id="-26464">
		<tag k="name" v="Krakåsfossen" />
		<tag k="natural" v="waterfall" />
		<tag k="ssr:stedsnr" v="8055" />
	</node>
	<node lat="60.43734722343239" lon="5.632069451630169" id="-26477">
		<tag k="name" v="Bergsfossen" />
		<tag k="natural" v="waterfall" />
		<tag k="ssr:stedsnr" v="44344" />
	</node>
	<node lat="60.80778333391669" lon="6.04444999582861" id="-26482">
		<tag k="name" v="Haugelvi" />
		<tag k="ssr:stedsnr" v="44587" />
		<tag k="waterway" v="river" />
	</node>
	<node lat="60.77560000009517" lon="5.9954777811241895" id="-26483">
		<tag k="name" v="Skavlevekbekken" />
		<tag k="natural" v="cape" />
		<tag k="ssr:stedsnr" v="44597" />
	</node>
	<node lat="60.68953648785936" lon="5.777134216444831" id="-26499">
		<tag k="name" v="Fiskeneset" />
		<tag k="natural" v="cape" />
		<tag k="ssr:stedsnr" v="45722" />
	</node>
	<node lat="60.633086107277634" lon="5.632391659515763" id="-26508">
		<tag k="name" v="Vaulelva" />
		<tag k="ssr:stedsnr" v="66688" />
		<tag k="waterway" v="stream" />
	</node>
	<node lat="60.72406071957954" lon="5.795039957262225" id="-26512">
		<tag k="name" v="Dalatjørna" />
		<tag k="natural" v="water" />
		<tag k="ssr:stedsnr" v="67294" />
	</node>
	<node lat="60.74685888666592" lon="5.963610712770898" id="-26513">
		<tag k="name" v="Leitestjørnane" />
		<tag k="natural" v="water" />
		<tag k="ssr:stedsnr" v="67402" />
		<tag k="water" v="lake" />
	</node>
	<node lat="60.73073662908781" lon="6.04694888255057" id="-26515">
		<tag k="name" v="Botnatjørni" />
		<tag k="natural" v="water" />
		<tag k="ssr:stedsnr" v="67437" />
	</node>
	<node lat="60.56816766806761" lon="5.646738984236731" id="-26519">
		<tag k="name" v="Fyrste Lauvtjørna" />
		<tag k="natural" v="water" />
		<tag k="ssr:stedsnr" v="67605" />
	</node>
	<node lat="60.638362591866375" lon="5.648837360619682" id="-26522">
		<tag k="alt_name" v="Moavatnet, nedste" />
		<tag k="name" v="Nedsta Moavatnet" />
		<tag k="natural" v="water" />
		<tag k="ssr:stedsnr" v="67697" />
	</node>
	<node lat="60.630729342506235" lon="5.67564402040124" id="-26526">
		<tag k="name" v="Strupedalsvatnet" />
		<tag k="natural" v="water" />
		<tag k="ssr:stedsnr" v="67714" />
	</node>
	<node lat="60.6184132230863" lon="5.681129406011096" id="-26527">
		<tag k="name" v="Holmatjørna" />
		<tag k="natural" v="water" />
		<tag k="ssr:stedsnr" v="67720" />
	</node>
	<node lat="60.49975555446036" lon="5.7948888894071455" id="-26531">
		<tag k="name" v="Sædalselva" />
		<tag k="ssr:stedsnr" v="67987" />
		<tag k="waterway" v="stream" />
	</node>
	<node lat="60.7989555540477" lon="5.895836119795104" id="-26534">
		<tag k="name" v="Djupbotnsbekken" />
		<tag k="ssr:stedsnr" v="69203" />
		<tag k="waterway" v="stream" />
	</node>
	<node lat="60.83472930266694" lon="6.162780726286637" id="-26537">
		<tag k="name" v="Kjelldalstjørni" />
		<tag k="natural" v="water" />
		<tag k="ssr:stedsnr" v="69221" />
	</node>
	<node lat="60.758819117716754" lon="5.961899855004527" id="-26539">
		<tag k="name" v="Tuftatjørni" />
		<tag k="natural" v="water" />
		<tag k="ssr:stedsnr" v="69705" />
	</node>
	<node lat="60.64146389022312" lon="5.839413889958156" id="-26542">
		<tag k="name" v="Tjørnabotsvatnet" />
		<tag k="natural" v="water" />
		<tag k="ssr:stedsnr" v="81884" />
		<tag k="water" v="lake" />
	</node>
	<node lat="60.7332999954201" lon="5.762499994253059" id="-26544">
		<tag k="alt_name" v="Seterelva" />
		<tag k="name" v="Sæterelva" />
		<tag k="ssr:stedsnr" v="248288" />
		<tag k="waterway" v="stream" />
	</node>
	<node lat="60.58148785607774" lon="5.997737445525425" id="-26551">
		<tag k="alt_name" v="Gråvatni, nordre" />
		<tag k="loc_name" v="Nordre Gråvatnet;Nedsta Gråvatnet;Nedre Gråvatnet" />
		<tag k="name" v="Nordre Gråvatni" />
		<tag k="natural" v="water" />
		<tag k="ssr:stedsnr" v="248870" />
		<tag k="water" v="lake" />
	</node>
	<node lat="60.53772499954601" lon="5.911000004275867" id="-26555">
		<tag k="name" v="Gråvatnet" />
		<tag k="natural" v="water" />
		<tag k="ssr:stedsnr" v="249798" />
	</node>
	<node lat="60.56182500463255" lon="5.985997227539855" id="-26557">
		<tag k="name" v="Fjellmannsøyane" />
		<tag k="natural" v="cape" />
		<tag k="ssr:stedsnr" v="249811" />
	</node>
	<node lat="60.576405558032995" lon="5.589708331005401" id="-26564">
		<tag k="name" v="Øykjaneset" />
		<tag k="natural" v="cape" />
		<tag k="ssr:stedsnr" v="105342" />
	</node>
	<node lat="60.73455277396535" lon="5.813961111931546" id="-26568">
		<tag k="name" v="Mysterelva" />
		<tag k="ssr:stedsnr" v="249282" />
		<tag k="waterway" v="river" />
	</node>
	<node lat="60.78643333572667" lon="5.985486113289475" id="-26570">
		<tag k="name" v="Øyane" />
		<tag k="place" v="island" />
		<tag k="ssr:stedsnr" v="105588" />
	</node>
	<node lat="60.78359444420432" lon="5.982275000570883" id="-26571">
		<tag k="name" v="Kyrebottenbekk" />
		<tag k="ssr:stedsnr" v="105589" />
		<tag k="waterway" v="stream" />
	</node>
	<node lat="60.76842222673413" lon="5.843719448064208" id="-26574">
		<tag k="name" v="Idlefossen" />
		<tag k="natural" v="waterfall" />
		<tag k="ssr:stedsnr" v="105677" />
	</node>
	<node lat="60.506949996562945" lon="5.726833329629598" id="-26582">
		<tag k="name" v="Gamle Fossen" />
		<tag k="natural" v="waterfall" />
		<tag k="ssr:stedsnr" v="106032" />
	</node>
	<node lat="60.74529999806797" lon="5.932302782831346" id="-26586">
		<tag k="name" v="Sørdalselvi" />
		<tag k="ssr:stedsnr" v="249389" />
		<tag k="waterway" v="stream" />
	</node>
	<node lat="60.660405038228426" lon="5.696429042738976" id="-26593">
		<tag k="name" v="Naustvika" />
		<tag k="natural" v="bay" />
		<tag k="ssr:stedsnr" v="106916" />
	</node>
	<node lat="60.62202500308598" lon="5.740508324826051" id="-26606">
		<tag k="name" v="Fossabekken" />
		<tag k="ssr:stedsnr" v="249736" />
		<tag k="waterway" v="stream" />
	</node>
	<node lat="60.54050382588618" lon="6.0126554296233365" id="-26609">
		<tag k="name" v="Kaldestadtjørni" />
		<tag k="natural" v="water" />
		<tag k="ssr:stedsnr" v="249770" />
	</node>
	<node lat="60.58006111096183" lon="6.0543833393897" id="-26615">
		<tag k="name" v="Grøndalsvatnet" />
		<tag k="natural" v="water" />
		<tag k="ssr:stedsnr" v="249854" />
	</node>
	<node lat="60.85724728469216" lon="6.17777122445298" id="-26620">
		<tag k="name" v="Beinhellervatnet" />
		<tag k="natural" v="water" />
		<tag k="ssr:stedsnr" v="251153" />
	</node>
	<node lat="60.80182085377458" lon="5.996421016001165" id="-26624">
		<tag k="name" v="Leitestjørni" />
		<tag k="natural" v="water" />
		<tag k="ssr:stedsnr" v="251208" />
	</node>
	<node lat="60.80030794454639" lon="5.945593053558722" id="-26625">
		<tag k="name" v="Veslavatnet" />
		<tag k="natural" v="water" />
		<tag k="ssr:stedsnr" v="251210" />
	</node>
	<node lat="60.79224999600412" lon="5.905474998097618" id="-26626">
		<tag k="name" v="Florsfossen" />
		<tag k="natural" v="waterfall" />
		<tag k="ssr:stedsnr" v="251211" />
	</node>
	<node lat="60.83095555696266" lon="6.112886105867805" id="-26630">
		<tag k="name" v="Trollavatnet" />
		<tag k="natural" v="water" />
		<tag k="ssr:stedsnr" v="251246" />
	</node>
	<node lat="60.831925004137375" lon="6.234466673686719" id="-26634">
		<tag k="name" v="Hagafossen" />
		<tag k="natural" v="waterfall" />
		<tag k="ssr:stedsnr" v="251568" />
	</node>
	<node lat="60.78370394823969" lon="5.976600153061005" id="-26644">
		<tag k="name" v="Krokatjørni" />
		<tag k="natural" v="water" />
		<tag k="ssr:stedsnr" v="251775" />
	</node>
	<node lat="60.61002222327735" lon="5.85851666291349" id="-26645">
		<tag k="name" v="Middagskartjørna" />
		<tag k="natural" v="water" />
		<tag k="ssr:stedsnr" v="127219" />
	</node>
	<node lat="60.77099444403086" lon="6.021586108727292" id="-26667">
		<tag k="name" v="Storebekken" />
		<tag k="ssr:stedsnr" v="129724" />
		<tag k="waterway" v="stream" />
	</node>
	<node lat="60.788513892860394" lon="6.161258325561991" id="-26672">
		<tag k="name" v="Monsdalselvi" />
		<tag k="ssr:stedsnr" v="129748" />
		<tag k="waterway" v="stream" />
	</node>
	<node lat="60.829902776171004" lon="6.025969445539529" id="-26673">
		<tag k="name" v="Vardavatnet" />
		<tag k="natural" v="water" />
		<tag k="ssr:stedsnr" v="130205" />
	</node>
	<node lat="60.84231146664509" lon="6.2426015852987815" id="-26674">
		<tag k="name" v="Osatjørni" />
		<tag k="natural" v="water" />
		<tag k="ssr:stedsnr" v="130507" />
	</node>
	<node lat="60.540577778447464" lon="6.0421694395004115" id="-26681">
		<tag k="name" v="Fossen" />
		<tag k="natural" v="waterfall" />
		<tag k="ssr:stedsnr" v="165078" />
	</node>
	<node lat="60.753897220962095" lon="5.829377781662177" id="-26686">
		<tag k="name" v="Istaleitavatnet" />
		<tag k="natural" v="water" />
		<tag k="ssr:stedsnr" v="165709" />
		<tag k="water" v="lake" />
	</node>
	<node lat="60.43910774876485" lon="5.714952127681877" id="-26696">
		<tag k="name" v="Søre Endabotnen" />
		<tag k="natural" v="water" />
		<tag k="ssr:stedsnr" v="166173" />
		<tag k="water" v="lake" />
	</node>
	<node lat="60.56624444831393" lon="5.608452770016648" id="-26700">
		<tag k="name" v="Pyttavågen" />
		<tag k="natural" v="bay" />
		<tag k="ssr:stedsnr" v="166324" />
	</node>
	<node lat="60.77696944087658" lon="5.937286103772412" id="-26702">
		<tag k="name" v="Mystegroi" />
		<tag k="ssr:stedsnr" v="166579" />
		<tag k="waterway" v="stream" />
	</node>
	<node lat="60.77081111369099" lon="6.036077779035256" id="-26703">
		<tag k="name" v="Hjellabekken" />
		<tag k="ssr:stedsnr" v="166581" />
		<tag k="waterway" v="stream" />
	</node>
	<node lat="60.707122219354595" lon="5.680363896161644" id="-26707">
		<tag k="name" v="Fossane" />
		<tag k="natural" v="waterfall" />
		<tag k="ssr:stedsnr" v="166822" />
	</node>
	<node lat="60.644108330395746" lon="5.698413897594201" id="-26709">
		<tag k="name" v="Vassvika" />
		<tag k="natural" v="bay" />
		<tag k="ssr:stedsnr" v="166912" />
	</node>
	<node lat="60.52906110991815" lon="5.768283336857482" id="-26713">
		<tag k="name" v="Fossdalselva" />
		<tag k="ssr:stedsnr" v="172920" />
		<tag k="waterway" v="river" />
	</node>
	<node lat="60.6400353556873" lon="5.834107738021655" id="-26714">
		<tag k="name" v="Driva" />
		<tag k="ssr:stedsnr" v="263929" />
		<tag k="waterway" v="river" />
	</node>
	<node lat="60.44430302923679" lon="5.680107262725486" id="-26716">
		<tag k="name" v="Langatjørna" />
		<tag k="natural" v="water" />
		<tag k="ssr:stedsnr" v="187027" />
	</node>
	<node lat="60.59289310060356" lon="5.808314116557746" id="-26726">
		<tag k="alt_name" v="Norsvatnet" />
		<tag k="name" v="Nordravatnet" />
		<tag k="natural" v="water" />
		<tag k="ssr:stedsnr" v="188603" />
	</node>
	<node lat="60.49145812845333" lon="5.84610042025586" id="-26728">
		<tag k="name" v="Fossavatnet" />
		<tag k="natural" v="water" />
		<tag k="ssr:stedsnr" v="188371" />
	</node>
	<node lat="60.60365777945452" lon="5.757694370205307" id="-26730">
		<tag k="name" v="Fyletjørna" />
		<tag k="natural" v="water" />
		<tag k="ssr:stedsnr" v="188573" />
	</node>
	<node lat="60.5561416628167" lon="5.672816662417625" id="-26735">
		<tag k="name" v="Svartetjørna" />
		<tag k="natural" v="water" />
		<tag k="ssr:stedsnr" v="188654" />
	</node>
	<node lat="60.54011257742861" lon="5.96731784331228" id="-26737">
		<tag k="name" v="Skarvavatnet" />
		<tag k="natural" v="water" />
		<tag k="ssr:stedsnr" v="188811" />
	</node>
	<node lat="60.755263346598134" lon="5.8316888435308405" id="-26749">
		<tag k="name" v="Leitevotni" />
		<tag k="natural" v="water" />
		<tag k="ssr:stedsnr" v="190067" />
		<tag k="water" v="lake" />
	</node>
	<node lat="60.78453055634435" lon="5.814558330214517" id="-26752">
		<tag k="alt_name" v="Hodnefjellsvatnet" />
		<tag k="name" v="Hornafjellsvatnet" />
		<tag k="natural" v="water" />
		<tag k="ssr:stedsnr" v="190471" />
	</node>
	<node lat="60.83586666240309" lon="6.078630549240189" id="-26756">
		<tag k="name" v="Skjerjavasstjørni" />
		<tag k="natural" v="water" />
		<tag k="ssr:stedsnr" v="191202" />
	</node>
	<node lat="60.5830349814844" lon="6.013044533961162" id="-26774">
		<tag k="loc_name" v="Gråvotni" />
		<tag k="name" v="Gråvatni" />
		<tag k="natural" v="water" />
		<tag k="ssr:stedsnr" v="226971" />
		<tag k="water" v="lake" />
	</node>
	<node lat="60.65972790615049" lon="5.696479258992927" id="-26789">
		<tag k="name" v="Timberneset" />
		<tag k="natural" v="cape" />
		<tag k="ssr:stedsnr" v="227895" />
	</node>
	<node lat="60.67893611173219" lon="5.80325278106203" id="-26792">
		<tag k="name" v="Øyadalselva" />
		<tag k="ssr:stedsnr" v="248315" />
		<tag k="waterway" v="stream" />
	</node>
	<node lat="60.58453889192403" lon="6.018505563730935" id="-26800">
		<tag k="alt_name" v="Gråvatni, midtre" />
		<tag k="loc_name" v="Midtre Gråvatnet" />
		<tag k="name" v="Midtre Gråvatni" />
		<tag k="natural" v="water" />
		<tag k="ssr:stedsnr" v="248869" />
		<tag k="water" v="lake" />
	</node>
	<node lat="60.53947500424862" lon="5.786586109757491" id="-26801">
		<tag k="name" v="Øykjamyrlona" />
		<tag k="place" v="locality" />
		<tag k="ssr:stedsnr" v="248922" />
	</node>
	<node lat="60.554380558691875" lon="5.9645249999251915" id="-26816">
		<tag k="name" v="Øyadalselvi" />
		<tag k="ssr:stedsnr" v="287282" />
		<tag k="waterway" v="river" />
	</node>
	<node lat="60.78258653594852" lon="5.923507830430197" id="-26821">
		<tag k="name" v="Vetlaneset" />
		<tag k="natural" v="cape" />
		<tag k="ssr:stedsnr" v="287698" />
	</node>
	<node lat="60.5110166654655" lon="5.743483326232923" id="-26824">
		<tag k="name" v="Gamleelva" />
		<tag k="ssr:stedsnr" v="288207" />
		<tag k="waterway" v="river" />
	</node>
	<node lat="60.55759999870503" lon="5.998327770333939" id="-26825">
		<tag k="name" v="Neset" />
		<tag k="natural" v="cape" />
		<tag k="ssr:stedsnr" v="287981" />
	</node>
	<node lat="60.63912777438456" lon="5.721136117328766" id="-26836">
		<tag k="name" v="Kvernhusbekken" />
		<tag k="ssr:stedsnr" v="288734" />
		<tag k="waterway" v="stream" />
	</node>
	<node lat="60.73118055833477" lon="5.911519435084038" id="-26848">
		<tag k="name" v="Oksetjørni" />
		<tag k="natural" v="water" />
		<tag k="ssr:stedsnr" v="309441" />
	</node>
	<node lat="60.561175299017066" lon="5.622318345489904" id="-26851">
		<tag k="name" v="Kyrkjevika" />
		<tag k="natural" v="bay" />
		<tag k="ssr:stedsnr" v="309639" />
	</node>
	<node lat="60.64566248595894" lon="5.715784128341165" id="-26855">
		<tag k="name" v="Nipetjørna" />
		<tag k="natural" v="water" />
		<tag k="ssr:stedsnr" v="309694" />
	</node>
	<node lat="60.532904212630164" lon="5.923815005258474" id="-26860">
		<tag k="name" v="Tjørnadalsvatnet" />
		<tag k="natural" v="water" />
		<tag k="ssr:stedsnr" v="309736" />
	</node>
	<node lat="60.53896182756459" lon="6.034798934990981" id="-26863">
		<tag k="name" v="Småbrekkevatnet" />
		<tag k="natural" v="water" />
		<tag k="ssr:stedsnr" v="309785" />
	</node>
	<node lat="60.5352644885461" lon="5.809162130241788" id="-26866">
		<tag k="name" v="Brislingabroki" />
		<tag k="natural" v="water" />
		<tag k="ssr:stedsnr" v="309916" />
	</node>
	<node lat="60.570556411907624" lon="6.029817952415466" id="-26873">
		<tag k="name" v="Djupetjørni" />
		<tag k="natural" v="water" />
		<tag k="ssr:stedsnr" v="310827" />
	</node>
	<node lat="60.78326111551462" lon="5.831538891767635" id="-26876">
		<tag k="name" v="Setsteinelvi" />
		<tag k="ssr:stedsnr" v="311492" />
		<tag k="waterway" v="stream" />
	</node>
	<node lat="60.789032034642375" lon="6.130820705083163" id="-26877">
		<tag k="name" v="Bergavatnet" />
		<tag k="natural" v="water" />
		<tag k="ssr:stedsnr" v="311779" />
		<tag k="water" v="lake" />
	</node>
	<node lat="60.78351286415311" lon="6.119654730123167" id="-26878">
		<tag k="name" v="Mjelkeviki" />
		<tag k="natural" v="bay" />
		<tag k="ssr:stedsnr" v="311783" />
	</node>
	<node lat="60.51627499806889" lon="5.987650008205998" id="-26883">
		<tag k="name" v="Storeli-tjørnsosen" />
		<tag k="natural" v="bay" />
		<tag k="ssr:stedsnr" v="468097" />
	</node>
	<node lat="60.68424250103151" lon="5.7585237722478535" id="-26889">
		<tag k="name" v="Drepetjørna" />
		<tag k="natural" v="water" />
		<tag k="ssr:stedsnr" v="468754" />
	</node>
	<node lat="60.58958778691774" lon="5.9408954669109235" id="-26896">
		<tag k="name" v="Gufsekrossvatnet" />
		<tag k="natural" v="water" />
		<tag k="ssr:stedsnr" v="324620" />
		<tag k="water" v="lake" />
	</node>
	<node lat="60.48897221786228" lon="5.843544448578926" id="-26898">
		<tag k="name" v="Fossen" />
		<tag k="natural" v="waterfall" />
		<tag k="ssr:stedsnr" v="469029" />
	</node>
	<node lat="60.5886722210664" lon="5.753141669157532" id="-26902">
		<tag k="name" v="Tilgeitåna" />
		<tag k="ssr:stedsnr" v="469242" />
		<tag k="waterway" v="stream" />
	</node>
	<node lat="60.807075000859584" lon="6.173877780967713" id="-26904">
		<tag k="name" v="Kvernhusbekken" />
		<tag k="ssr:stedsnr" v="469635" />
		<tag k="waterway" v="stream" />
	</node>
	<node lat="60.78814167108979" lon="6.043772225518388" id="-26905">
		<tag k="name" v="Fagerdalselva" />
		<tag k="ssr:stedsnr" v="469601" />
		<tag k="waterway" v="river" />
	</node>
	<node lat="60.6894742430632" lon="5.708929859084611" id="-26909">
		<tag k="name" v="Lomtjørn" />
		<tag k="natural" v="water" />
		<tag k="ssr:stedsnr" v="469757" />
		<tag k="water" v="pond" />
	</node>
	<node lat="60.53416388583926" lon="5.691108331907029" id="-26910">
		<tag k="name" v="Ytre Furstallen" />
		<tag k="ssr:stedsnr" v="469901" />
		<tag k="waterway" v="stream" />
	</node>
	<node lat="60.78065555192751" lon="5.916816674926386" id="-26948">
		<tag k="name" v="Bekkene" />
		<tag k="ssr:stedsnr" v="347657" />
		<tag k="waterway" v="stream" />
	</node>
	<node lat="60.445153233278944" lon="5.7340386185181975" id="-26959">
		<tag k="name" v="Litlatjønna" />
		<tag k="natural" v="water" />
		<tag k="ssr:stedsnr" v="348164" />
		<tag k="water" v="pond" />
	</node>
	<node lat="60.77908610909154" lon="5.9397555543352" id="-26971">
		<tag k="name" v="Furneset" />
		<tag k="natural" v="cape" />
		<tag k="ssr:stedsnr" v="348558" />
	</node>
	<node lat="60.59201389104663" lon="5.714772219929123" id="-26983">
		<tag k="name" v="Hamrabekken" />
		<tag k="ssr:stedsnr" v="348878" />
		<tag k="waterway" v="stream" />
	</node>
	<node lat="60.44992221794619" lon="5.720349999647823" id="-26984">
		<tag k="name" v="Djupedalselva" />
		<tag k="ssr:stedsnr" v="369015" />
		<tag k="waterway" v="stream" />
	</node>
	<node lat="60.64357776091345" lon="5.713076300393954" id="-26993">
		<tag k="name" v="Sjuskartjørna" />
		<tag k="natural" v="water" />
		<tag k="ssr:stedsnr" v="370702" />
	</node>
	<node lat="60.57593941574518" lon="6.052717124309233" id="-27005">
		<tag k="name" v="Skarsvatnet" />
		<tag k="natural" v="water" />
		<tag k="ssr:stedsnr" v="370868" />
	</node>
	<node lat="60.87165833379987" lon="6.119841660936482" id="-27010">
		<tag k="name" v="Lonenden" />
		<tag k="natural" v="cape" />
		<tag k="ssr:stedsnr" v="372164" />
	</node>
	<node lat="60.79621111285645" lon="5.984474996259241" id="-27011">
		<tag k="name" v="Skorsdalselvi" />
		<tag k="ssr:stedsnr" v="372201" />
		<tag k="waterway" v="stream" />
	</node>
	<node lat="60.78789999928998" lon="5.911238893765546" id="-27017">
		<tag k="alt_name" v="Storelvi" />
		<tag k="name" v="Ekso" />
		<tag k="ssr:stedsnr" v="372563" />
		<tag k="waterway" v="river" />
	</node>
	<node lat="60.54351944141674" lon="5.626477769709987" id="-27034">
		<tag k="name" v="Skjære" />
		<tag k="place" v="islet" />
		<tag k="ssr:stedsnr" v="409195" />
	</node>
	<node lat="60.572652566205285" lon="5.700550853254789" id="-27036">
		<tag k="name" v="Hunnetjørnane" />
		<tag k="natural" v="water" />
		<tag k="ssr:stedsnr" v="409313" />
		<tag k="water" v="lake" />
	</node>
	<node lat="60.6921833337295" lon="5.772719453017757" id="-27039">
		<tag k="name" v="Osen" />
		<tag k="natural" v="bay" />
		<tag k="ssr:stedsnr" v="409714" />
	</node>
	<node lat="60.67254444656918" lon="5.669566657488986" id="-27044">
		<tag k="name" v="Vetlaelva" />
		<tag k="ssr:stedsnr" v="409855" />
		<tag k="waterway" v="river" />
	</node>
	<node lat="60.73996632261977" lon="5.773258595756115" id="-27045">
		<tag k="name" v="Skartjørnæ" />
		<tag k="natural" v="water" />
		<tag k="ssr:stedsnr" v="409799" />
	</node>
	<node lat="60.67876605060157" lon="5.752425973210097" id="-27066">
		<tag k="name" v="Stemmetjørna" />
		<tag k="natural" v="water" />
		<tag k="ssr:stedsnr" v="491337" />
	</node>
	<node lat="60.681252301707346" lon="5.783558511718147" id="-27069">
		<tag k="name" v="Vikavatnet" />
		<tag k="natural" v="water" />
		<tag k="ssr:stedsnr" v="491346" />
	</node>
	<node lat="60.7365903105359" lon="6.023144384431994" id="-27076">
		<tag k="name" v="Hundabukstjørni" />
		<tag k="natural" v="water" />
		<tag k="ssr:stedsnr" v="491423" />
	</node>
	<node lat="60.542827432877225" lon="5.748140848200142" id="-27078">
		<tag k="name" v="Tjørnane" />
		<tag k="natural" v="water" />
		<tag k="ssr:stedsnr" v="431946" />
		<tag k="water" v="lake" />
	</node>
	<node lat="60.59369999791573" lon="5.7604361082658615" id="-27084">
		<tag k="alt_name" v="Hestfjelltjørna" />
		<tag k="name" v="Geitavatnet" />
		<tag k="natural" v="water" />
		<tag k="ssr:stedsnr" v="491550" />
	</node>
	<node lat="60.57962066100992" lon="5.6168004273531364" id="-27085">
		<tag k="name" v="Stemmetjørnane" />
		<tag k="natural" v="water" />
		<tag k="ssr:stedsnr" v="491570" />
		<tag k="water" v="lake" />
	</node>
	<node lat="60.533413891356275" lon="6.00917500152404" id="-27096">
		<tag k="name" v="Moavatnet" />
		<tag k="natural" v="water" />
		<tag k="ssr:stedsnr" v="491742" />
	</node>
	<node lat="60.5222161873759" lon="6.007154606037113" id="-27098">
		<tag k="alt_name" v="Storelihjellatjørnane" />
		<tag k="name" v="Hjellatjørni" />
		<tag k="natural" v="water" />
		<tag k="ssr:stedsnr" v="491750" />
	</node>
	<node lat="60.52724444499496" lon="5.892216664723722" id="-27099">
		<tag k="name" v="Djupso" />
		<tag k="ssr:stedsnr" v="491768" />
		<tag k="waterway" v="stream" />
	</node>
	<node lat="60.486250004362205" lon="5.822841665658383" id="-27101">
		<tag k="name" v="Lonane" />
		<tag k="place" v="locality" />
		<tag k="ssr:stedsnr" v="491950" />
	</node>
	<node lat="60.793133847452964" lon="6.090158672569604" id="-27115">
		<tag k="name" v="Krokavatnet" />
		<tag k="natural" v="water" />
		<tag k="ssr:stedsnr" v="493742" />
	</node>
	<node lat="60.85670555291073" lon="6.16587499912375" id="-27117">
		<tag k="name" v="Belaskartjørni" />
		<tag k="natural" v="water" />
		<tag k="ssr:stedsnr" v="494128" />
	</node>
	<node lat="60.7350310279146" lon="5.929123795000352" id="-27122">
		<tag k="name" v="Brattefonntjørni" />
		<tag k="natural" v="water" />
		<tag k="ssr:stedsnr" v="673413" />
	</node>
	<node lat="60.73904886152199" lon="5.93996490567651" id="-27123">
		<tag k="name" v="Oksatjørni" />
		<tag k="natural" v="water" />
		<tag k="ssr:stedsnr" v="673417" />
	</node>
	<node lat="60.479502780138205" lon="5.860869446861534" id="-27124">
		<tag k="name" v="Smørtjørna" />
		<tag k="natural" v="water" />
		<tag k="ssr:stedsnr" v="673347" />
	</node>
	<node lat="60.74288864866136" lon="5.8725360395474295" id="-27126">
		<tag k="name" v="Kupetjørna" />
		<tag k="natural" v="water" />
		<tag k="ssr:stedsnr" v="673389" />
	</node>
	<node lat="60.624254472413625" lon="5.7661463889948985" id="-27132">
		<tag k="name" v="Stemmetjørna" />
		<tag k="natural" v="water" />
		<tag k="ssr:stedsnr" v="673740" />
	</node>
	<node lat="60.52058726378442" lon="5.987552776344229" id="-27134">
		<tag k="name" v="Grågavltjørnane" />
		<tag k="natural" v="water" />
		<tag k="ssr:stedsnr" v="673743" />
		<tag k="water" v="lake" />
	</node>
	<node lat="60.530519444266815" lon="5.980391668838481" id="-27135">
		<tag k="name" v="Oddmunddalsvatnet" />
		<tag k="natural" v="water" />
		<tag k="ssr:stedsnr" v="673745" />
	</node>
	<node lat="60.56931111427729" lon="5.748219449598382" id="-27137">
		<tag k="name" v="Kalddalselva" />
		<tag k="ssr:stedsnr" v="673587" />
		<tag k="waterway" v="stream" />
	</node>
	<node lat="60.56685277667283" lon="5.9697000039781445" id="-27143">
		<tag k="name" v="Bergsdalselvi" />
		<tag k="ssr:stedsnr" v="673875" />
		<tag k="waterway" v="river" />
	</node>
	<node lat="60.57182625949407" lon="5.870143592632905" id="-27144">
		<tag k="name" v="Øyaskartjørni" />
		<tag k="natural" v="water" />
		<tag k="ssr:stedsnr" v="673878" />
	</node>
	<node lat="60.5298967886413" lon="5.741722711945884" id="-27146">
		<tag k="name" v="Skaratjørna" />
		<tag k="natural" v="water" />
		<tag k="ssr:stedsnr" v="673934" />
	</node>
	<node lat="60.54633254025013" lon="5.827998955576501" id="-27147">
		<tag k="name" v="Blåfjellvatnet" />
		<tag k="natural" v="water" />
		<tag k="ssr:stedsnr" v="673943" />
	</node>
	<node lat="60.657780551937954" lon="5.690958325146434" id="-27153">
		<tag k="name" v="Toskedalsvatnet" />
		<tag k="natural" v="water" />
		<tag k="ssr:stedsnr" v="674646" />
		<tag k="water" v="lake" />
	</node>
	<node lat="60.50557702519055" lon="5.857702728806068" id="-27158">
		<tag k="name" v="Vardatjørnane" />
		<tag k="natural" v="water" />
		<tag k="ssr:stedsnr" v="674978" />
		<tag k="water" v="lake" />
	</node>
	<node lat="60.76808610938599" lon="5.887422224338723" id="-27174">
		<tag k="name" v="Vetlebotsbekken" />
		<tag k="ssr:stedsnr" v="468676" />
		<tag k="waterway" v="stream" />
	</node>
	<node lat="60.67516666958262" lon="5.792922228861417" id="-27178">
		<tag k="name" v="Langøyna" />
		<tag k="place" v="island" />
		<tag k="ssr:stedsnr" v="468768" />
	</node>
	<node lat="60.674149996185484" lon="5.782891662577374" id="-27179">
		<tag k="name" v="Skarpestølbekken" />
		<tag k="ssr:stedsnr" v="468769" />
		<tag k="waterway" v="stream" />
	</node>
	<node lat="60.444249998003535" lon="5.667744449728763" id="-27181">
		<tag k="name" v="Elvane" />
		<tag k="ssr:stedsnr" v="469373" />
		<tag k="waterway" v="river" />
	</node>
	<node lat="60.78932553483518" lon="5.979058124769134" id="-27183">
		<tag k="name" v="Svartevatn" />
		<tag k="natural" v="water" />
		<tag k="ssr:stedsnr" v="469612" />
		<tag k="water" v="lake" />
	</node>
	<node lat="60.645051306832684" lon="5.755789414139361" id="-27198">
		<tag k="name" v="Kolletjørn" />
		<tag k="natural" v="water" />
		<tag k="ssr:stedsnr" v="470769" />
	</node>
	<node lat="60.78225277562469" lon="5.889841663810112" id="-27202">
		<tag k="name" v="Mylletjørni" />
		<tag k="natural" v="water" />
		<tag k="ssr:stedsnr" v="675774" />
	</node>
	<node lat="60.89224166573878" lon="6.150988892760563" id="-27208">
		<tag k="name" v="Skjerjo" />
		<tag k="ssr:stedsnr" v="676081" />
		<tag k="waterway" v="stream" />
	</node>
	<node lat="60.60929200935415" lon="5.677858336738003" id="-27217">
		<tag k="name" v="Svartatjørna" />
		<tag k="natural" v="water" />
		<tag k="ssr:stedsnr" v="491531" />
	</node>
	<node lat="60.584158278133145" lon="5.744409022654395" id="-27218">
		<tag k="name" v="Skaratjørna" />
		<tag k="natural" v="water" />
		<tag k="ssr:stedsnr" v="491573" />
	</node>
	<node lat="60.62546769370345" lon="5.666219016084396" id="-27221">
		<tag k="alt_name" v="Fjellbotsvatnet" />
		<tag k="name" v="Fjellbotnvatnet" />
		<tag k="natural" v="water" />
		<tag k="ssr:stedsnr" v="491715" />
	</node>
	<node lat="60.736455556640344" lon="5.867408335016592" id="-27222">
		<tag k="name" v="Fjellfossen" />
		<tag k="natural" v="waterfall" />
		<tag k="ssr:stedsnr" v="491421" />
	</node>
	<node lat="60.53284298738468" lon="5.749761319413906" id="-27225">
		<tag k="name" v="Kraksåvatnet" />
		<tag k="natural" v="water" />
		<tag k="ssr:stedsnr" v="491910" />
	</node>
	<node lat="60.55530555797498" lon="6.067766673518866" id="-27234">
		<tag k="name" v="Mjøstøltjørni" />
		<tag k="natural" v="water" />
		<tag k="ssr:stedsnr" v="492815" />
	</node>
	<node lat="60.807449995525396" lon="6.084108330626406" id="-27238">
		<tag k="name" v="Veslavatnet" />
		<tag k="natural" v="water" />
		<tag k="ssr:stedsnr" v="493219" />
	</node>
	<node lat="60.830891667498236" lon="6.131755547775666" id="-27240">
		<tag k="alt_name" v="Blåvatnet, øvre" />
		<tag k="name" v="Øvre Blåvatnet" />
		<tag k="natural" v="water" />
		<tag k="ssr:stedsnr" v="494203" />
	</node>
	<node lat="60.77621111113152" lon="6.020788896826046" id="-27257">
		<tag k="name" v="Kringlehølen" />
		<tag k="place" v="locality" />
		<tag k="ssr:stedsnr" v="530612" />
	</node>
	<node lat="60.77469166749438" lon="6.004474990770643" id="-27258">
		<tag k="name" v="Fastelandsbekken" />
		<tag k="natural" v="cape" />
		<tag k="ssr:stedsnr" v="530616" />
	</node>
	<node lat="60.778274997176844" lon="6.013508335136925" id="-27259">
		<tag k="name" v="Storøyna" />
		<tag k="place" v="island" />
		<tag k="ssr:stedsnr" v="530618" />
	</node>
	<node lat="60.77826110917402" lon="6.009405549196182" id="-27260">
		<tag k="name" v="Furneset" />
		<tag k="natural" v="cape" />
		<tag k="ssr:stedsnr" v="530622" />
	</node>
	<node lat="60.55957917929776" lon="5.807035658067321" id="-27265">
		<tag k="name" v="Uragjeltjørna" />
		<tag k="natural" v="water" />
		<tag k="ssr:stedsnr" v="536624" />
	</node>
	<node lat="60.543336107537385" lon="5.801302782836556" id="-27268">
		<tag k="name" v="Gråsidvatnet" />
		<tag k="natural" v="water" />
		<tag k="ssr:stedsnr" v="551939" />
		<tag k="water" v="lake" />
	</node>
	<node lat="60.73453055448715" lon="5.833374999873156" id="-27270">
		<tag k="name" v="Stigfossen" />
		<tag k="natural" v="waterfall" />
		<tag k="ssr:stedsnr" v="552322" />
	</node>
	<node lat="60.57747499662963" lon="5.805430552449483" id="-27273">
		<tag k="name" v="Drivo" />
		<tag k="ssr:stedsnr" v="552628" />
		<tag k="waterway" v="stream" />
	</node>
	<node lat="60.569794448752674" lon="5.7924416617631795" id="-27276">
		<tag k="name" v="Moko" />
		<tag k="ssr:stedsnr" v="552651" />
		<tag k="waterway" v="stream" />
	</node>
	<node lat="60.6992589466823" lon="5.898067027444458" id="-27277">
		<tag k="name" v="Stoatjørnane" />
		<tag k="natural" v="water" />
		<tag k="ssr:stedsnr" v="552523" />
		<tag k="water" v="lake" />
	</node>
	<node lat="60.51398611459768" lon="5.871858324565136" id="-27280">
		<tag k="name" v="Tverrdalselva" />
		<tag k="ssr:stedsnr" v="552805" />
		<tag k="waterway" v="stream" />
	</node>
	<node lat="60.78580000411112" lon="6.114400004288133" id="-27289">
		<tag k="name" v="Munkasundet" />
		<tag k="natural" v="strait" />
		<tag k="ssr:stedsnr" v="554769" />
	</node>
	<node lat="60.78257684546848" lon="5.968067293238022" id="-27290">
		<tag k="name" v="Ospetjørni" />
		<tag k="natural" v="water" />
		<tag k="ssr:stedsnr" v="554776" />
	</node>
	<node lat="60.78110833014911" lon="5.947158336191756" id="-27291">
		<tag k="name" v="Flatkvålsfossen" />
		<tag k="natural" v="waterfall" />
		<tag k="ssr:stedsnr" v="554778" />
	</node>
	<node lat="60.6159166693583" lon="5.875733341044041" id="-27298">
		<tag k="name" v="Verpelstadelva" />
		<tag k="ssr:stedsnr" v="590273" />
		<tag k="waterway" v="river" />
	</node>
	<node lat="60.83237499770018" lon="6.186397225169788" id="-27302">
		<tag k="name" v="Norddalselvi" />
		<tag k="ssr:stedsnr" v="590623" />
		<tag k="waterway" v="river" />
	</node>
	<node lat="60.785711107434416" lon="5.886088886366468" id="-27306">
		<tag k="name" v="Neset" />
		<tag k="natural" v="cape" />
		<tag k="ssr:stedsnr" v="590665" />
	</node>
	<node lat="60.65367752095191" lon="5.694892144677523" id="-27334">
		<tag k="name" v="Flatneset" />
		<tag k="natural" v="cape" />
		<tag k="ssr:stedsnr" v="591916" />
	</node>
	<node lat="60.46696355590009" lon="5.800090755375873" id="-27336">
		<tag k="name" v="Krossatjørnane" />
		<tag k="natural" v="water" />
		<tag k="ssr:stedsnr" v="611009" />
		<tag k="water" v="lake" />
	</node>
	<node lat="60.628264217259925" lon="5.69193774688143" id="-27349">
		<tag k="name" v="Stemmetjørni" />
		<tag k="natural" v="water" />
		<tag k="ssr:stedsnr" v="612721" />
	</node>
	<node lat="60.548755552886746" lon="6.034044448050993" id="-27350">
		<tag k="name" v="Svartagrovi" />
		<tag k="ssr:stedsnr" v="612786" />
		<tag k="waterway" v="stream" />
	</node>
	<node lat="60.531870129527135" lon="5.830464691192267" id="-27353">
		<tag k="name" v="Brislibroka" />
		<tag k="natural" v="water" />
		<tag k="ssr:stedsnr" v="612924" />
	</node>
	<node lat="60.55804444556509" lon="6.035163891888372" id="-27357">
		<tag k="name" v="Kaldåni" />
		<tag k="ssr:stedsnr" v="613820" />
		<tag k="waterway" v="stream" />
	</node>
	<node lat="60.51648921285293" lon="5.753937608362545" id="-27358">
		<tag k="name" v="Fossdalsvatnet" />
		<tag k="natural" v="water" />
		<tag k="ssr:stedsnr" v="613936" />
	</node>
	<node lat="60.804708331999365" lon="6.185425001701319" id="-27360">
		<tag k="name" v="Lonelvi" />
		<tag k="ssr:stedsnr" v="614215" />
		<tag k="waterway" v="stream" />
	</node>
	<node lat="60.76766667033352" lon="5.904425003173272" id="-27364">
		<tag k="name" v="Nonstadgilsvotni" />
		<tag k="natural" v="water" />
		<tag k="ssr:stedsnr" v="614721" />
		<tag k="water" v="lake" />
	</node>
	<node lat="60.88151666566409" lon="6.12324999578258" id="-27369">
		<tag k="name" v="Skjerjavatnet" />
		<tag k="natural" v="water" />
		<tag k="ssr:stedsnr" v="615148" />
		<tag k="water" v="lake" />
	</node>
	<node lat="60.75906879170722" lon="6.03467271855676" id="-27370">
		<tag k="name" v="Bruskartjørni" />
		<tag k="natural" v="water" />
		<tag k="ssr:stedsnr" v="615647" />
	</node>
	<node lat="60.66011110858265" lon="5.820027778186537" id="-27373">
		<tag k="name" v="Fossen" />
		<tag k="natural" v="waterfall" />
		<tag k="ssr:stedsnr" v="650604" />
	</node>
	<node lat="60.795447224904585" lon="5.8547555542440275" id="-27374">
		<tag k="name" v="Tverrdalselvi" />
		<tag k="ssr:stedsnr" v="650608" />
		<tag k="waterway" v="river" />
	</node>
	<node lat="60.79941111277399" lon="5.852486110588886" id="-27375">
		<tag k="name" v="Svartebekken" />
		<tag k="ssr:stedsnr" v="650613" />
		<tag k="waterway" v="stream" />
	</node>
	<node lat="60.53942222461446" lon="5.691808341023753" id="-27390">
		<tag k="name" v="Fossagjela" />
		<tag k="natural" v="waterfall" />
		<tag k="ssr:stedsnr" v="651338" />
	</node>
	<node lat="60.771124998476814" lon="6.009533326483332" id="-27394">
		<tag k="name" v="Grønbakkebekken" />
		<tag k="natural" v="cape" />
		<tag k="ssr:stedsnr" v="651612" />
	</node>
	<node lat="60.82956389234511" lon="6.282813890169471" id="-27395">
		<tag k="name" v="Grøndalselvi" />
		<tag k="ssr:stedsnr" v="651636" />
		<tag k="waterway" v="river" />
	</node>
	<node lat="60.79833333593102" lon="6.035522225514079" id="-27397">
		<tag k="loc_name" v="Haugsgrovi" />
		<tag k="name" v="Haustgroi" />
		<tag k="ssr:stedsnr" v="651602" />
		<tag k="waterway" v="stream" />
	</node>
	<node lat="60.687623859016036" lon="5.81297052404397" id="-27409">
		<tag k="name" v="Træsvatnet" />
		<tag k="natural" v="water" />
		<tag k="ssr:stedsnr" v="673362" />
	</node>
	<node lat="60.74513124872884" lon="5.770246221965511" id="-27410">
		<tag k="name" v="Dyrabottsvatnet" />
		<tag k="natural" v="water" />
		<tag k="ssr:stedsnr" v="673463" />
	</node>
	<node lat="60.570626188742985" lon="5.827247316054642" id="-27412">
		<tag k="name" v="Otterstadvatnet" />
		<tag k="natural" v="water" />
		<tag k="ssr:stedsnr" v="673608" />
	</node>
	<node lat="60.56510093323455" lon="5.807202024029086" id="-27413">
		<tag k="name" v="Langvatnet" />
		<tag k="natural" v="water" />
		<tag k="ssr:stedsnr" v="673638" />
	</node>
	<node lat="60.57793888779356" lon="5.601336111570586" id="-27415">
		<tag k="alt_name" v="Grylså" />
		<tag k="fixme" v="multiple name tags, choose one and add the other to alt_name" />
		<tag k="name" v="Grytså;Grøvelselva" />
		<tag k="ssr:stedsnr" v="673559" />
		<tag k="waterway" v="stream" />
	</node>
	<node lat="60.57501758285092" lon="5.628991037624121" id="-27416">
		<tag k="name" v="Øvsthustjørna" />
		<tag k="natural" v="water" />
		<tag k="ssr:stedsnr" v="673582" />
	</node>
	<node lat="60.53439721809738" lon="6.010752775907993" id="-27433">
		<tag k="name" v="Moaneset" />
		<tag k="natural" v="cape" />
		<tag k="ssr:stedsnr" v="893091" />
	</node>
	<node lat="60.520906873107954" lon="5.983521088322116" id="-27434">
		<tag k="name" v="Bukkafjellstjørni" />
		<tag k="natural" v="water" />
		<tag k="ssr:stedsnr" v="893100" />
	</node>
	<node lat="60.78858888801121" lon="6.095180548420333" id="-27444">
		<tag k="name" v="Breibekken" />
		<tag k="ssr:stedsnr" v="894633" />
		<tag k="waterway" v="stream" />
	</node>
	<node lat="60.78060000347079" lon="5.986827777654938" id="-27445">
		<tag k="name" v="Øykebottebekk" />
		<tag k="ssr:stedsnr" v="894601" />
		<tag k="waterway" v="stream" />
	</node>
	<node lat="60.77996110989618" lon="5.884416661875827" id="-27446">
		<tag k="name" v="Mjølkefossbekk" />
		<tag k="ssr:stedsnr" v="894685" />
		<tag k="waterway" v="stream" />
	</node>
	<node lat="60.52976944399247" lon="5.691816660439111" id="-27454">
		<tag k="name" v="Krossarennen" />
		<tag k="ssr:stedsnr" v="894904" />
		<tag k="waterway" v="stream" />
	</node>
	<node lat="60.51239348834225" lon="5.811908945258403" id="-27457">
		<tag k="name" v="Setratjørna" />
		<tag k="natural" v="water" />
		<tag k="ssr:stedsnr" v="895037" />
	</node>
	<node lat="60.562849999035166" lon="5.682513891508521" id="-27467">
		<tag k="name" v="Saganeset" />
		<tag k="natural" v="cape" />
		<tag k="ssr:stedsnr" v="895297" />
	</node>
	<node lat="60.65789842172841" lon="5.68327727862331" id="-27475">
		<tag k="name" v="Kvernvika" />
		<tag k="natural" v="bay" />
		<tag k="ssr:stedsnr" v="895926" />
	</node>
	<node lat="60.58036111491068" lon="5.889563886444084" id="-27477">
		<tag k="name" v="Neset" />
		<tag k="natural" v="cape" />
		<tag k="ssr:stedsnr" v="711133" />
	</node>
	<node lat="60.57013333733909" lon="5.908333325969135" id="-27478">
		<tag k="name" v="Lomatjørnane" />
		<tag k="natural" v="water" />
		<tag k="ssr:stedsnr" v="711147" />
	</node>
	<node lat="60.78056944683708" lon="6.067324999766642" id="-27493">
		<tag k="name" v="Fosseoksla" />
		<tag k="natural" v="waterfall" />
		<tag k="ssr:stedsnr" v="712579" />
	</node>
	<node lat="60.70056388925059" lon="5.783638886984205" id="-27499">
		<tag k="name" v="Sjobekken" />
		<tag k="ssr:stedsnr" v="712692" />
		<tag k="waterway" v="stream" />
	</node>
	<node lat="60.56921666831539" lon="5.965094437653801" id="-27515">
		<tag k="name" v="Gjertnefossen" />
		<tag k="natural" v="waterfall" />
		<tag k="ssr:stedsnr" v="712979" />
	</node>
	<node lat="60.54557499918798" lon="5.97966945298266" id="-27516">
		<tag k="name" v="Skarvagroi" />
		<tag k="ssr:stedsnr" v="712981" />
		<tag k="waterway" v="river" />
	</node>
	<node lat="60.69585053284592" lon="5.884806232571479" id="-27528">
		<tag k="name" v="Blåtjørna" />
		<tag k="natural" v="water" />
		<tag k="ssr:stedsnr" v="734495" />
	</node>
	<node lat="60.56197500389102" lon="5.604905560241267" id="-27529">
		<tag k="name" v="Sveholmen" />
		<tag k="place" v="islet" />
		<tag k="ssr:stedsnr" v="734634" />
	</node>
	<node lat="60.68964167029701" lon="5.849577772847568" id="-27531">
		<tag k="name" v="Hysjevika" />
		<tag k="natural" v="bay" />
		<tag k="ssr:stedsnr" v="734540" />
	</node>
	<node lat="60.633373229070095" lon="5.710424831729076" id="-27533">
		<tag k="alt_name" v="Bukkesteinstjørna;Bukksteinstjørna" />
		<tag k="name" v="Pinetjørna" />
		<tag k="natural" v="water" />
		<tag k="ssr:stedsnr" v="734719" />
	</node>
	<node lat="60.6450999994379" lon="5.661530564506455" id="-27538">
		<tag k="alt_name" v="Moavatnet, øvste;Moavatnet" />
		<tag k="name" v="Øvsta Moavatnet" />
		<tag k="natural" v="water" />
		<tag k="ssr:stedsnr" v="734697" />
	</node>
	<node lat="60.539136107336894" lon="5.850200000632254" id="-27539">
		<tag k="alt_name" v="Tverrdalsvatni, nedre" />
		<tag k="name" v="Nedra Tverrdalsvatnet" />
		<tag k="natural" v="water" />
		<tag k="ssr:stedsnr" v="734803" />
		<tag k="water" v="lake" />
	</node>
	<node lat="60.53714999842052" lon="6.022777776552159" id="-27545">
		<tag k="name" v="Skarvagrovi" />
		<tag k="ssr:stedsnr" v="734785" />
		<tag k="waterway" v="stream" />
	</node>
	<node lat="60.54493304808508" lon="6.027712724762586" id="-27546">
		<tag k="name" v="Vetlevatnet" />
		<tag k="natural" v="water" />
		<tag k="ssr:stedsnr" v="734787" />
	</node>
	<node lat="60.83914166915009" lon="6.125988891293254" id="-27558">
		<tag k="name" v="Trollavasstjørni" />
		<tag k="natural" v="water" />
		<tag k="ssr:stedsnr" v="737212" />
	</node>
	<node lat="60.58246914787741" lon="5.683385902685768" id="-27564">
		<tag k="name" v="Litlevatn" />
		<tag k="natural" v="water" />
		<tag k="ssr:stedsnr" v="772359" />
	</node>
	<node lat="60.78335000090039" lon="5.833224991501471" id="-27567">
		<tag k="name" v="Rekavikelvi" />
		<tag k="ssr:stedsnr" v="772679" />
		<tag k="waterway" v="river" />
	</node>
	<node lat="60.51805277675434" lon="5.724155561189855" id="-27584">
		<tag k="name" v="Hålo" />
		<tag k="place" v="locality" />
		<tag k="ssr:stedsnr" v="773231" />
	</node>
	<node lat="60.77431944785173" lon="6.0386555545541" id="-27598">
		<tag k="name" v="Knoltabekken" />
		<tag k="ssr:stedsnr" v="773578" />
		<tag k="waterway" v="stream" />
	</node>
	<node lat="60.659232657162654" lon="5.66249183317607" id="-27605">
		<tag k="name" v="Mjølketjørn" />
		<tag k="natural" v="water" />
		<tag k="ssr:stedsnr" v="773912" />
	</node>
	<node lat="60.488119440479416" lon="5.86375000471464" id="-27611">
		<tag k="name" v="Klenavatnet" />
		<tag k="natural" v="water" />
		<tag k="ssr:stedsnr" v="794314" />
	</node>
	<node lat="60.55953398543321" lon="5.610512011112887" id="-27619">
		<tag k="alt_name" v="Austervatnet" />
		<tag k="name" v="Austrevatnet" />
		<tag k="natural" v="water" />
		<tag k="ssr:stedsnr" v="795604" />
	</node>
	<node lat="60.57645555544633" lon="6.037255552610445" id="-27626">
		<tag k="name" v="Storavatnet" />
		<tag k="natural" v="water" />
		<tag k="ssr:stedsnr" v="795865" />
	</node>
	<node lat="60.756569442951275" lon="5.819538893647275" id="-27628">
		<tag k="name" v="Raudfossen" />
		<tag k="natural" v="waterfall" />
		<tag k="ssr:stedsnr" v="797062" />
	</node>
	<node lat="60.81078187932288" lon="6.094970868656199" id="-27631">
		<tag k="name" v="Langavatnet" />
		<tag k="natural" v="water" />
		<tag k="ssr:stedsnr" v="797204" />
	</node>
	<node lat="60.77777777606683" lon="6.057263880501676" id="-27633">
		<tag k="name" v="Storeglupen" />
		<tag k="natural" v="waterfall" />
		<tag k="ssr:stedsnr" v="797707" />
	</node>
	<node lat="60.5958194435965" lon="5.908058339904323" id="-27645">
		<tag k="name" v="Giljavatnet" />
		<tag k="natural" v="water" />
		<tag k="ssr:stedsnr" v="916243" />
	</node>
	<node lat="60.566361106844944" lon="5.604152784540099" id="-27647">
		<tag k="name" v="Pyttaneset" />
		<tag k="natural" v="cape" />
		<tag k="ssr:stedsnr" v="916617" />
	</node>
	<node lat="60.56316059060713" lon="5.686438556018228" id="-27649">
		<tag k="name" v="Botnavatnet" />
		<tag k="natural" v="water" />
		<tag k="ssr:stedsnr" v="916646" />
	</node>
	<node lat="60.60488268650678" lon="5.683361446167569" id="-27653">
		<tag k="name" v="Rundatjørna" />
		<tag k="natural" v="water" />
		<tag k="ssr:stedsnr" v="916536" />
	</node>
	<node lat="60.5772805532599" lon="5.588741663865288" id="-27654">
		<tag k="name" v="Myraneset" />
		<tag k="natural" v="cape" />
		<tag k="ssr:stedsnr" v="916597" />
	</node>
	<node lat="60.57359999640627" lon="5.610247227020099" id="-27655">
		<tag k="name" v="Ørnebergtjørna" />
		<tag k="natural" v="water" />
		<tag k="ssr:stedsnr" v="916599" />
	</node>
	<node lat="60.581088886775945" lon="5.785169444327333" id="-27656">
		<tag k="name" v="Daleelva" />
		<tag k="ssr:stedsnr" v="916600" />
		<tag k="waterway" v="river" />
	</node>
	<node lat="60.81261991851066" lon="6.007574035829291" id="-27670">
		<tag k="name" v="Trollavatnet" />
		<tag k="natural" v="water" />
		<tag k="ssr:stedsnr" v="918266" />
	</node>
	<node lat="60.82116190945775" lon="6.180991230319532" id="-27674">
		<tag k="alt_name" v="Trefallsvatnet" />
		<tag k="name" v="Trefallvatnet" />
		<tag k="natural" v="water" />
		<tag k="ssr:stedsnr" v="918286" />
	</node>
	<node lat="60.84423055196929" lon="6.181686117942934" id="-27681">
		<tag k="name" v="Kvanndalselvi" />
		<tag k="ssr:stedsnr" v="919222" />
		<tag k="waterway" v="stream" />
	</node>
	<node lat="60.8652638929456" lon="6.125355554031838" id="-27682">
		<tag k="name" v="Lonevågen" />
		<tag k="natural" v="bay" />
		<tag k="ssr:stedsnr" v="919129" />
	</node>
	<node lat="60.737725305738834" lon="5.898430330875867" id="-27696">
		<tag k="name" v="Saudalsvatnet" />
		<tag k="natural" v="water" />
		<tag k="ssr:stedsnr" v="856440" />
	</node>
	<node lat="60.55465833271507" lon="5.615074992560466" id="-27700">
		<tag k="name" v="Dallaliholmane" />
		<tag k="place" v="islet" />
		<tag k="ssr:stedsnr" v="856638" />
	</node>
	<node lat="60.797783336747024" lon="6.028399991807893" id="-27711">
		<tag k="name" v="Haugsgrovvatnet" />
		<tag k="natural" v="water" />
		<tag k="ssr:stedsnr" v="858192" />
	</node>
	<node lat="60.632688885087006" lon="5.849086118356292" id="-27719">
		<tag k="name" v="Rjupefjellstjørna" />
		<tag k="natural" v="water" />
		<tag k="ssr:stedsnr" v="870870" />
	</node>
	<node lat="60.53152777416413" lon="5.690813895482877" id="-27723">
		<tag k="name" v="Sebjørnsrenen" />
		<tag k="ssr:stedsnr" v="894373" />
		<tag k="waterway" v="stream" />
	</node>
	<node lat="60.680144448343306" lon="5.784374996178509" id="-27729">
		<tag k="name" v="Tangen" />
		<tag k="natural" v="cape" />
		<tag k="ssr:stedsnr" v="894763" />
	</node>
	<node lat="60.77759166580625" lon="6.024316660210668" id="-27730">
		<tag k="name" v="Hølen" />
		<tag k="place" v="locality" />
		<tag k="ssr:stedsnr" v="894618" />
	</node>
	<node lat="60.788408330947235" lon="5.841511106213634" id="-27733">
		<tag k="name" v="Skrebekken" />
		<tag k="ssr:stedsnr" v="894683" />
		<tag k="waterway" v="stream" />
	</node>
	<node lat="60.53900278160632" lon="6.0552999987569365" id="-27739">
		<tag k="name" v="Neset" />
		<tag k="natural" v="cape" />
		<tag k="ssr:stedsnr" v="894980" />
	</node>
	<node lat="60.65246666755352" lon="5.7817055559684585" id="-27743">
		<tag k="name" v="Inste Ulevikelva" />
		<tag k="ssr:stedsnr" v="895765" />
		<tag k="waterway" v="river" />
	</node>
	<node lat="60.6563311192456" lon="5.658808899417635" id="-27749">
		<tag k="name" v="Brokatjørn" />
		<tag k="natural" v="water" />
		<tag k="ssr:stedsnr" v="895907" />
	</node>
	<node lat="60.674347604501214" lon="5.694734645472973" id="-27756">
		<tag k="name" v="Tjørna" />
		<tag k="natural" v="water" />
		<tag k="ssr:stedsnr" v="895875" />
	</node>
	<node lat="60.618966662479025" lon="5.805552783633808" id="-27765">
		<tag k="name" v="Dalseidmarkåna" />
		<tag k="ssr:stedsnr" v="916769" />
		<tag k="waterway" v="stream" />
	</node>
	<node lat="60.537861107956054" lon="6.067852782531486" id="-27768">
		<tag k="name" v="Fossane" />
		<tag k="natural" v="waterfall" />
		<tag k="ssr:stedsnr" v="916807" />
	</node>
	<node lat="60.576833333700165" lon="5.844102771807426" id="-27770">
		<tag k="name" v="Møyadalselva" />
		<tag k="ssr:stedsnr" v="916883" />
		<tag k="waterway" v="stream" />
	</node>
	<node lat="60.8165569103166" lon="6.137424003235691" id="-27782">
		<tag k="alt_name" v="Blåvatnet, nedre" />
		<tag k="name" v="Nedre Blåvatnet" />
		<tag k="natural" v="water" />
		<tag k="ssr:stedsnr" v="918299" />
	</node>
	<node lat="60.787725002374" lon="5.837033334343692" id="-27783">
		<tag k="name" v="Skredbekken" />
		<tag k="ssr:stedsnr" v="918517" />
		<tag k="waterway" v="stream" />
	</node>
	<node lat="60.78330555818708" lon="5.9395444447788766" id="-27786">
		<tag k="name" v="Nesøyane" />
		<tag k="place" v="islet" />
		<tag k="ssr:stedsnr" v="918801" />
	</node>
	<node lat="60.439074999900384" lon="5.6372111110809815" id="-27790">
		<tag k="name" v="Litlaelva" />
		<tag k="ssr:stedsnr" v="954242" />
		<tag k="waterway" v="river" />
	</node>
	<node lat="60.784390974459455" lon="5.929227524600532" id="-27793">
		<tag k="name" v="Storneset" />
		<tag k="natural" v="cape" />
		<tag k="ssr:stedsnr" v="954644" />
	</node>
	<node lat="60.58488611073885" lon="5.800424994907187" id="-27805">
		<tag k="name" v="Norselva" />
		<tag k="ssr:stedsnr" v="955257" />
		<tag k="waterway" v="river" />
	</node>
	<node lat="60.778866669951256" lon="6.015005550833043" id="-27815">
		<tag k="name" v="Myrtangen" />
		<tag k="natural" v="cape" />
		<tag k="ssr:stedsnr" v="955605" />
	</node>
	<node lat="60.79305000361686" lon="6.035255546622635" id="-27820">
		<tag k="name" v="Liabekken" />
		<tag k="ssr:stedsnr" v="955592" />
		<tag k="waterway" v="stream" />
	</node>
	<node lat="60.73494166390725" lon="5.752319444940637" id="-27823">
		<tag k="name" v="Fjellbotsbekken" />
		<tag k="ssr:stedsnr" v="955811" />
		<tag k="waterway" v="stream" />
	</node>
	<node lat="60.73284999746064" lon="5.7516805548452945" id="-27824">
		<tag k="name" v="Skavlabekken" />
		<tag k="ssr:stedsnr" v="955813" />
		<tag k="waterway" v="stream" />
	</node>
	<node lat="60.677129650537516" lon="5.759692785451438" id="-27838">
		<tag k="name" v="Stemmetjørna" />
		<tag k="natural" v="water" />
		<tag k="ssr:stedsnr" v="6340" />
	</node>
	<node lat="60.611424997007155" lon="5.881919450424054" id="-27839">
		<tag k="name" v="Stallabekken" />
		<tag k="ssr:stedsnr" v="6224" />
		<tag k="waterway" v="stream" />
	</node>
	<node lat="60.68865000038426" lon="5.776352770608009" id="-27843">
		<tag k="name" v="Midtvatnet" />
		<tag k="natural" v="water" />
		<tag k="ssr:stedsnr" v="6355" />
	</node>
	<node lat="60.69735833439592" lon="5.766405559078179" id="-27845">
		<tag k="name" v="Hesjedalsfossen" />
		<tag k="natural" v="waterfall" />
		<tag k="ssr:stedsnr" v="6375" />
	</node>
	<node lat="60.68577945851323" lon="5.704577160924698" id="-27847">
		<tag k="name" v="Gammersviktjørna" />
		<tag k="natural" v="water" />
		<tag k="ssr:stedsnr" v="6385" />
	</node>
	<node lat="60.74789292193523" lon="6.037974393574609" id="-27856">
		<tag k="name" v="Blåtjørni" />
		<tag k="natural" v="water" />
		<tag k="ssr:stedsnr" v="6421" />
	</node>
	<node lat="60.607492592219295" lon="5.782289494060126" id="-27857">
		<tag k="alt_name" v="Krokavatnet, øvre" />
		<tag k="name" v="Øvra Krokavatnet" />
		<tag k="natural" v="water" />
		<tag k="ssr:stedsnr" v="6549" />
	</node>
	<node lat="60.547278620605475" lon="5.927577356592765" id="-27859">
		<tag k="alt_name" v="Klingatjørni" />
		<tag k="name" v="Klingetjørni" />
		<tag k="natural" v="water" />
		<tag k="ssr:stedsnr" v="6822" />
	</node>
	<node lat="60.556880980890405" lon="6.054841851976221" id="-27862">
		<tag k="name" v="Kupevatnet" />
		<tag k="natural" v="water" />
		<tag k="ssr:stedsnr" v="6831" />
	</node>
	<node lat="60.64935453601131" lon="5.776448808944237" id="-27866">
		<tag k="name" v="Ulevikelva" />
		<tag k="ssr:stedsnr" v="6685" />
		<tag k="waterway" v="stream" />
	</node>
	<node lat="60.52635906077833" lon="5.982932107711261" id="-27868">
		<tag k="name" v="Nilsatjørnane" />
		<tag k="natural" v="water" />
		<tag k="ssr:stedsnr" v="6767" />
		<tag k="water" v="lake" />
	</node>
	<node lat="60.78760277566963" lon="5.958013890948573" id="-27879">
		<tag k="name" v="Kvinbergsbekken" />
		<tag k="ssr:stedsnr" v="8219" />
		<tag k="waterway" v="stream" />
	</node>
	<node lat="60.77161666719159" lon="5.951388886035232" id="-27886">
		<tag k="name" v="Botnaelvi" />
		<tag k="ssr:stedsnr" v="8745" />
		<tag k="waterway" v="stream" />
	</node>
	<node lat="60.78446666252203" lon="5.9380833425837665" id="-27904">
		<tag k="name" v="Stiksholmen" />
		<tag k="place" v="islet" />
		<tag k="ssr:stedsnr" v="44570" />
	</node>
	<node lat="60.78473611154874" lon="5.916419449488233" id="-27906">
		<tag k="name" v="Kalveneset" />
		<tag k="natural" v="cape" />
		<tag k="ssr:stedsnr" v="44658" />
	</node>
	<node lat="60.5951749959767" lon="5.743038882788878" id="-27911">
		<tag k="name" v="Fyllåa" />
		<tag k="ssr:stedsnr" v="44699" />
		<tag k="waterway" v="stream" />
	</node>
	<node lat="60.61377174183617" lon="5.681423409775865" id="-27928">
		<tag k="name" v="Svartetjørn" />
		<tag k="natural" v="water" />
		<tag k="ssr:stedsnr" v="45168" />
	</node>
	<node lat="60.695505557230256" lon="5.794047215102388" id="-27932">
		<tag k="name" v="Storebekken" />
		<tag k="ssr:stedsnr" v="45712" />
		<tag k="waterway" v="stream" />
	</node>
	<node lat="60.69052222599492" lon="5.781752775903668" id="-27933">
		<tag k="name" v="Storebekken" />
		<tag k="ssr:stedsnr" v="45716" />
		<tag k="waterway" v="stream" />
	</node>
	<node lat="60.65790129628544" lon="5.6961482195203095" id="-27948">
		<tag k="name" v="Eikjeneset" />
		<tag k="natural" v="cape" />
		<tag k="ssr:stedsnr" v="45899" />
	</node>
	<node lat="60.52984515400819" lon="6.067861624899564" id="-27969">
		<tag k="name" v="Øvretjørni" />
=======
<osm generator="osmapis" version="0.6">
	<node id="-643071" lat="60.5953527743" lon="5.70750000753">
		<tag k="name" v="Nardalselva" />
		<tag k="ssr:stedsnr" v="834076" />
		<tag k="waterway" v="river" />
	</node>
	<node id="-643058" lat="60.7853191919" lon="5.9335047298">
		<tag k="name" v="Fagerøyni" />
		<tag k="place" v="island" />
		<tag k="ssr:stedsnr" v="833668" />
	</node>
	<node id="-643053" lat="60.8107818793" lon="6.09497086866">
		<tag k="name" v="Langavatnet" />
		<tag k="natural" v="water" />
		<tag k="ssr:stedsnr" v="797204" />
	</node>
	<node id="-643051" lat="60.5803055561" lon="5.91522499699">
		<tag k="name" v="Skårsdalselvi" />
		<tag k="ssr:stedsnr" v="795853" />
		<tag k="waterway" v="stream" />
	</node>
	<node id="-643049" lat="60.5589047896" lon="6.06685358882">
		<tag k="name" v="Kalvatjørni" />
		<tag k="natural" v="water" />
		<tag k="ssr:stedsnr" v="795824" />
	</node>
	<node id="-643048" lat="60.5574783389" lon="6.00399404612">
		<tag k="name" v="Bergsvatnet" />
		<tag k="natural" v="water" />
		<tag k="ssr:stedsnr" v="795816" />
		<tag k="water" v="lake" />
	</node>
	<node id="-643043" lat="60.5595339854" lon="5.61051201111">
		<tag k="alt_name" v="Austervatnet" />
		<tag k="name" v="Austrevatnet" />
		<tag k="natural" v="water" />
		<tag k="ssr:stedsnr" v="795604" />
	</node>
	<node id="-643034" lat="60.7833055582" lon="5.93954444478">
		<tag k="name" v="Nesøyane" />
		<tag k="place" v="islet" />
		<tag k="ssr:stedsnr" v="918801" />
	</node>
	<node id="-643031" lat="60.8165569103" lon="6.13742400324">
		<tag k="alt_name" v="Blåvatnet, nedre" />
		<tag k="name" v="Nedre Blåvatnet" />
		<tag k="natural" v="water" />
		<tag k="ssr:stedsnr" v="918299" />
	</node>
	<node id="-643030" lat="60.8211619095" lon="6.18099123032">
		<tag k="alt_name" v="Trefallsvatnet" />
		<tag k="name" v="Trefallvatnet" />
		<tag k="natural" v="water" />
		<tag k="ssr:stedsnr" v="918286" />
	</node>
	<node id="-643006" lat="60.5768333337" lon="5.84410277181">
		<tag k="name" v="Møyadalselva" />
		<tag k="ssr:stedsnr" v="916883" />
		<tag k="waterway" v="stream" />
	</node>
	<node id="-643003" lat="60.5810888868" lon="5.78516944433">
		<tag k="name" v="Daleelva" />
		<tag k="ssr:stedsnr" v="916600" />
		<tag k="waterway" v="river" />
	</node>
	<node id="-643002" lat="60.5735999964" lon="5.61024722702">
		<tag k="name" v="Ørnebergtjørna" />
		<tag k="natural" v="water" />
		<tag k="ssr:stedsnr" v="916599" />
	</node>
	<node id="-643001" lat="60.5772805533" lon="5.58874166387">
		<tag k="name" v="Myraneset" />
		<tag k="natural" v="cape" />
		<tag k="ssr:stedsnr" v="916597" />
	</node>
	<node id="-642998" lat="60.5631605906" lon="5.68643855602">
		<tag k="name" v="Botnavatnet" />
		<tag k="natural" v="water" />
		<tag k="ssr:stedsnr" v="916646" />
	</node>
	<node id="-642996" lat="60.6048826865" lon="5.68336144617">
		<tag k="name" v="Rundatjørna" />
		<tag k="natural" v="water" />
		<tag k="ssr:stedsnr" v="916536" />
	</node>
	<node id="-642989" lat="60.5958194436" lon="5.9080583399">
		<tag k="name" v="Giljavatnet" />
		<tag k="natural" v="water" />
		<tag k="ssr:stedsnr" v="916243" />
	</node>
	<node id="-642985" lat="60.6592326572" lon="5.66249183318">
		<tag k="name" v="Mjølketjørn" />
		<tag k="natural" v="water" />
		<tag k="ssr:stedsnr" v="773912" />
	</node>
	<node id="-642971" lat="60.5703027742" lon="5.66643563111">
		<tag k="name" v="Mandgardstjørn" />
		<tag k="natural" v="water" />
		<tag k="ssr:stedsnr" v="773329" />
	</node>
	<node id="-642964" lat="60.6026027773" lon="5.71186667246">
		<tag k="name" v="Inste Askanesbekken" />
		<tag k="ssr:stedsnr" v="773060" />
		<tag k="waterway" v="stream" />
	</node>
	<node id="-642960" lat="60.7575914696" lon="5.83332765351">
		<tag k="name" v="Insta Fetvatnet" />
		<tag k="natural" v="water" />
		<tag k="ssr:stedsnr" v="772685" />
		<tag k="water" v="lake" />
	</node>
	<node id="-642959" lat="60.7833500009" lon="5.8332249915">
		<tag k="name" v="Rekavikelvi" />
		<tag k="ssr:stedsnr" v="772679" />
		<tag k="waterway" v="river" />
	</node>
	<node id="-642958" lat="60.5781168788" lon="6.00440012119">
		<tag k="name" v="Horgatjørni" />
		<tag k="natural" v="water" />
		<tag k="ssr:stedsnr" v="772955" />
	</node>
	<node id="-642950" lat="60.5726388897" lon="5.59871944072">
		<tag k="name" v="Sveå" />
		<tag k="natural" v="cape" />
		<tag k="ssr:stedsnr" v="772331" />
	</node>
	<node id="-642369" lat="60.4451532333" lon="5.73403861852">
		<tag k="name" v="Litlatjønna" />
		<tag k="natural" v="water" />
		<tag k="ssr:stedsnr" v="348164" />
		<tag k="water" v="pond" />
	</node>
	<node id="-642947" lat="60.5721027787" lon="5.90552778154">
		<tag k="name" v="Langøyane" />
		<tag k="place" v="island" />
		<tag k="ssr:stedsnr" v="772139" />
	</node>
	<node id="-642943" lat="60.6333732291" lon="5.71042483173">
		<tag k="alt_name" v="Bukkesteinstjørna;Bukksteinstjørna" />
		<tag k="name" v="Pinetjørna" />
		<tag k="natural" v="water" />
		<tag k="ssr:stedsnr" v="734719" />
	</node>
	<node id="-642940" lat="60.6578984217" lon="5.68327727862">
		<tag k="name" v="Kvernvika" />
		<tag k="natural" v="bay" />
		<tag k="ssr:stedsnr" v="895926" />
	</node>
	<node id="-642939" lat="60.6563311192" lon="5.65880889942">
		<tag k="name" v="Brokatjørn" />
		<tag k="natural" v="water" />
		<tag k="ssr:stedsnr" v="895907" />
	</node>
	<node id="-642938" lat="60.6743476045" lon="5.69473464547">
		<tag k="name" v="Tjørna" />
		<tag k="natural" v="water" />
		<tag k="ssr:stedsnr" v="895875" />
	</node>
	<node id="-642926" lat="60.6524666676" lon="5.78170555597">
		<tag k="name" v="Inste Ulevikelva" />
		<tag k="ssr:stedsnr" v="895765" />
		<tag k="waterway" v="river" />
	</node>
	<node id="-642915" lat="60.562849999" lon="5.68251389151">
		<tag k="name" v="Saganeset" />
		<tag k="natural" v="cape" />
		<tag k="ssr:stedsnr" v="895297" />
	</node>
	<node id="-642021" lat="60.5394750042" lon="5.78658610976">
		<tag k="name" v="Øykjamyrlona" />
		<tag k="place" v="locality" />
		<tag k="ssr:stedsnr" v="248922" />
	</node>
	<node id="-642906" lat="60.5123934883" lon="5.81190894526">
		<tag k="name" v="Setratjørna" />
		<tag k="natural" v="water" />
		<tag k="ssr:stedsnr" v="895037" />
	</node>
	<node id="-642899" lat="60.5390027816" lon="6.05529999876">
		<tag k="name" v="Neset" />
		<tag k="natural" v="cape" />
		<tag k="ssr:stedsnr" v="894980" />
	</node>
	<node id="-642890" lat="60.5558611087" lon="5.99711111348">
		<tag k="name" v="Langaneset" />
		<tag k="natural" v="cape" />
		<tag k="ssr:stedsnr" v="712992" />
	</node>
	<node id="-642887" lat="60.5455749992" lon="5.97966945298">
		<tag k="name" v="Skarvagroi" />
		<tag k="ssr:stedsnr" v="712981" />
		<tag k="waterway" v="river" />
	</node>
	<node id="-642886" lat="60.5692166683" lon="5.96509443765">
		<tag k="name" v="Gjertnefossen" />
		<tag k="natural" v="waterfall" />
		<tag k="ssr:stedsnr" v="712979" />
	</node>
	<node id="-642883" lat="60.529769444" lon="5.69181666044">
		<tag k="name" v="Krossarennen" />
		<tag k="ssr:stedsnr" v="894904" />
		<tag k="waterway" v="stream" />
	</node>
	<node id="-642876" lat="60.7805694468" lon="6.06732499977">
		<tag k="name" v="Fosseoksla" />
		<tag k="natural" v="waterfall" />
		<tag k="ssr:stedsnr" v="712579" />
	</node>
	<node id="-642871" lat="60.6801444483" lon="5.78437499618">
		<tag k="name" v="Tangen" />
		<tag k="natural" v="cape" />
		<tag k="ssr:stedsnr" v="894763" />
	</node>
	<node id="-642861" lat="60.7799611099" lon="5.88441666188">
		<tag k="name" v="Mjølkefossbekk" />
		<tag k="ssr:stedsnr" v="894685" />
		<tag k="waterway" v="stream" />
	</node>
	<node id="-642860" lat="60.7884083309" lon="5.84151110621">
		<tag k="name" v="Skrebekken" />
		<tag k="ssr:stedsnr" v="894683" />
		<tag k="waterway" v="stream" />
	</node>
	<node id="-642854" lat="60.788588888" lon="6.09518054842">
		<tag k="name" v="Breibekken" />
		<tag k="ssr:stedsnr" v="894633" />
		<tag k="waterway" v="stream" />
	</node>
	<node id="-642850" lat="60.7775916658" lon="6.02431666021">
		<tag k="name" v="Hølen" />
		<tag k="place" v="locality" />
		<tag k="ssr:stedsnr" v="894618" />
	</node>
	<node id="-642849" lat="60.7806000035" lon="5.98682777765">
		<tag k="name" v="Øykebottebekk" />
		<tag k="ssr:stedsnr" v="894601" />
		<tag k="waterway" v="stream" />
	</node>
	<node id="-642838" lat="60.5315277742" lon="5.69081389548">
		<tag k="name" v="Sebjørnsrenen" />
		<tag k="ssr:stedsnr" v="894373" />
		<tag k="waterway" v="stream" />
	</node>
	<node id="-642009" lat="60.7332999954" lon="5.76249999425">
		<tag k="alt_name" v="Seterelva" />
		<tag k="name" v="Sæterelva" />
		<tag k="ssr:stedsnr" v="248288" />
		<tag k="waterway" v="stream" />
	</node>
	<node id="-642830" lat="60.5209068731" lon="5.98352108832">
		<tag k="name" v="Bukkafjellstjørni" />
		<tag k="natural" v="water" />
		<tag k="ssr:stedsnr" v="893100" />
	</node>
	<node id="-642829" lat="60.5343972181" lon="6.01075277591">
		<tag k="name" v="Moaneset" />
		<tag k="natural" v="cape" />
		<tag k="ssr:stedsnr" v="893091" />
	</node>
	<node id="-642005" lat="60.7452999981" lon="5.93230278283">
		<tag k="name" v="Sørdalselvi" />
		<tag k="ssr:stedsnr" v="249389" />
		<tag k="waterway" v="stream" />
	</node>
	<node id="-642807" lat="60.6685363174" lon="5.69131266189">
		<tag k="name" v="Badnatjørn" />
		<tag k="natural" v="water" />
		<tag k="ssr:stedsnr" v="651932" />
	</node>
	<node id="-642798" lat="60.5616861079" lon="5.90609444342">
		<tag k="name" v="Svabekken" />
		<tag k="ssr:stedsnr" v="651266" />
		<tag k="waterway" v="stream" />
	</node>
	<node id="-642789" lat="60.5237227834" lon="5.83674673077">
		<tag k="name" v="Krosstjørnane" />
		<tag k="natural" v="water" />
		<tag k="ssr:stedsnr" v="734958" />
		<tag k="water" v="lake" />
	</node>
	<node id="-642778" lat="60.5391361073" lon="5.85020000063">
		<tag k="alt_name" v="Tverrdalsvatni, nedre" />
		<tag k="name" v="Nedra Tverrdalsvatnet" />
		<tag k="natural" v="water" />
		<tag k="ssr:stedsnr" v="734803" />
		<tag k="water" v="lake" />
	</node>
	<node id="-642777" lat="60.5449330481" lon="6.02771272476">
		<tag k="name" v="Vetlevatnet" />
		<tag k="natural" v="water" />
		<tag k="ssr:stedsnr" v="734787" />
	</node>
	<node id="-642776" lat="60.5371499984" lon="6.02277777655">
		<tag k="name" v="Skarvagrovi" />
		<tag k="ssr:stedsnr" v="734785" />
		<tag k="waterway" v="stream" />
	</node>
	<node id="-642772" lat="60.6450999994" lon="5.66153056451">
		<tag k="alt_name" v="Moavatnet, øvste;Moavatnet" />
		<tag k="name" v="Øvsta Moavatnet" />
		<tag k="natural" v="water" />
		<tag k="ssr:stedsnr" v="734697" />
	</node>
	<node id="-642765" lat="60.5619750039" lon="5.60490556024">
		<tag k="name" v="Sveholmen" />
		<tag k="place" v="islet" />
		<tag k="ssr:stedsnr" v="734634" />
	</node>
	<node id="-642764" lat="60.6896416703" lon="5.84957777285">
		<tag k="name" v="Hysjevika" />
		<tag k="natural" v="bay" />
		<tag k="ssr:stedsnr" v="734540" />
	</node>
	<node id="-642763" lat="60.6958505328" lon="5.88480623257">
		<tag k="name" v="Blåtjørna" />
		<tag k="natural" v="water" />
		<tag k="ssr:stedsnr" v="734495" />
	</node>
	<node id="-642749" lat="60.4616702747" lon="5.77012876041">
		<tag k="name" v="Bogavatnet" />
		<tag k="natural" v="water" />
		<tag k="ssr:stedsnr" v="734015" />
	</node>
	<node id="-642745" lat="60.7590687917" lon="6.03467271856">
		<tag k="name" v="Bruskartjørni" />
		<tag k="natural" v="water" />
		<tag k="ssr:stedsnr" v="615647" />
	</node>
	<node id="-642742" lat="60.7884555553" lon="6.02419167504">
		<tag k="name" v="Kjehellertjørni" />
		<tag k="natural" v="water" />
		<tag k="ssr:stedsnr" v="614768" />
	</node>
	<node id="-642740" lat="60.7935055556" lon="6.12775000006">
		<tag k="name" v="Almatjørni" />
		<tag k="natural" v="water" />
		<tag k="ssr:stedsnr" v="614763" />
	</node>
	<node id="-642738" lat="60.8072777741" lon="6.01771667379">
		<tag k="name" v="Nipevatnet" />
		<tag k="natural" v="water" />
		<tag k="ssr:stedsnr" v="614238" />
	</node>
	<node id="-642735" lat="60.804708332" lon="6.1854250017">
		<tag k="name" v="Lonelvi" />
		<tag k="ssr:stedsnr" v="614215" />
		<tag k="waterway" v="stream" />
	</node>
	<node id="-642732" lat="60.5580444456" lon="6.03516389189">
		<tag k="name" v="Kaldåni" />
		<tag k="ssr:stedsnr" v="613820" />
		<tag k="waterway" v="stream" />
	</node>
	<node id="-642728" lat="60.6282642173" lon="5.69193774688">
		<tag k="name" v="Stemmetjørni" />
		<tag k="natural" v="water" />
		<tag k="ssr:stedsnr" v="612721" />
	</node>
	<node id="-641989" lat="60.5681676681" lon="5.64673898424">
		<tag k="name" v="Fyrste Lauvtjørna" />
		<tag k="natural" v="water" />
		<tag k="ssr:stedsnr" v="67605" />
	</node>
	<node id="-642716" lat="60.4669635559" lon="5.80009075538">
		<tag k="name" v="Krossatjørnane" />
		<tag k="natural" v="water" />
		<tag k="ssr:stedsnr" v="611009" />
	</node>
	<node id="-642709" lat="60.656815253" lon="5.69566449946">
		<tag k="name" v="Rossevik" />
		<tag k="natural" v="bay" />
		<tag k="ssr:stedsnr" v="712906" />
	</node>
	<node id="-642707" lat="60.6784027768" lon="5.67744721776">
		<tag k="name" v="Storelva" />
		<tag k="ssr:stedsnr" v="712872" />
		<tag k="waterway" v="river" />
	</node>
	<node id="-642706" lat="60.6754370143" lon="5.69772778035">
		<tag k="name" v="Svartatjørn" />
		<tag k="natural" v="water" />
		<tag k="ssr:stedsnr" v="712871" />
	</node>
	<node id="-642705" lat="60.66245556" lon="5.72084722162">
		<tag k="name" v="Høse" />
		<tag k="ssr:stedsnr" v="712863" />
		<tag k="waterway" v="stream" />
	</node>
	<node id="-644641" lat="60.6528190354" lon="5.68570975343">
		<tag k="name" v="Moavik" />
		<tag k="natural" v="bay" />
		<tag k="ssr:stedsnr" v="955911" />
	</node>
	<node id="-642687" lat="60.6966583343" lon="5.76806944167">
		<tag k="name" v="Kvitlo" />
		<tag k="ssr:stedsnr" v="712714" />
		<tag k="waterway" v="river" />
	</node>
	<node id="-642683" lat="60.7846805588" lon="6.04050832788">
		<tag k="name" v="Kleiveneset" />
		<tag k="natural" v="cape" />
		<tag k="ssr:stedsnr" v="712551" />
	</node>
	<node id="-642680" lat="60.7005638893" lon="5.78363888698">
		<tag k="name" v="Sjobekken" />
		<tag k="ssr:stedsnr" v="712692" />
		<tag k="waterway" v="stream" />
	</node>
	<node id="-642324" lat="60.6450513068" lon="5.75578941414">
		<tag k="name" v="Kolletjørn" />
		<tag k="natural" v="water" />
		<tag k="ssr:stedsnr" v="470769" />
	</node>
	<node id="-642665" lat="60.5593527737" lon="5.95985833383">
		<tag k="name" v="Stølsgroi" />
		<tag k="ssr:stedsnr" v="590947" />
		<tag k="waterway" v="stream" />
	</node>
	<node id="-642664" lat="60.5645991687" lon="6.0239991777">
		<tag k="name" v="Lambhustjørn" />
		<tag k="natural" v="water" />
		<tag k="ssr:stedsnr" v="590944" />
	</node>
	<node id="-642647" lat="60.5701333373" lon="5.90833332597">
		<tag k="name" v="Lomatjørnane" />
		<tag k="natural" v="water" />
		<tag k="ssr:stedsnr" v="711147" />
	</node>
	<node id="-642646" lat="60.5803611149" lon="5.88956388644">
		<tag k="name" v="Neset" />
		<tag k="natural" v="cape" />
		<tag k="ssr:stedsnr" v="711133" />
	</node>
	<node id="-642641" lat="60.7345305545" lon="5.83337499987">
		<tag k="name" v="Stigfossen" />
		<tag k="natural" v="waterfall" />
		<tag k="ssr:stedsnr" v="552322" />
	</node>
	<node id="-644686" lat="60.6153695476" lon="5.67215771122">
		<tag k="name" v="Ljosavatnet" />
		<tag k="natural" v="water" />
		<tag k="ssr:stedsnr" v="734556" />
	</node>
	<node id="-644685" lat="60.5593628645" lon="5.59500019119">
		<tag k="name" v="Storavatnet" />
		<tag k="natural" v="water" />
		<tag k="ssr:stedsnr" v="67620" />
		<tag k="water" v="lake" />
	</node>
	<node id="-644684" lat="60.8815166657" lon="6.12324999578">
		<tag k="name" v="Skjerjavatnet" />
		<tag k="natural" v="water" />
		<tag k="ssr:stedsnr" v="615148" />
		<tag k="water" v="lake" />
	</node>
	<node id="-642622" lat="60.7823194425" lon="5.93796111728">
		<tag k="name" v="Storholmen" />
		<tag k="place" v="islet" />
		<tag k="ssr:stedsnr" v="530600" />
	</node>
	<node id="-642621" lat="60.7782611092" lon="6.0094055492">
		<tag k="name" v="Furneset" />
		<tag k="natural" v="cape" />
		<tag k="ssr:stedsnr" v="530622" />
	</node>
	<node id="-642620" lat="60.7782749972" lon="6.01350833514">
		<tag k="name" v="Storøyna" />
		<tag k="place" v="island" />
		<tag k="ssr:stedsnr" v="530618" />
	</node>
	<node id="-642619" lat="60.7746916675" lon="6.00447499077">
		<tag k="name" v="Fastelandsbekken" />
		<tag k="natural" v="cape" />
		<tag k="ssr:stedsnr" v="530616" />
	</node>
	<node id="-642618" lat="60.7762111111" lon="6.02078889683">
		<tag k="name" v="Kringlehølen" />
		<tag k="place" v="locality" />
		<tag k="ssr:stedsnr" v="530612" />
	</node>
	<node id="-642615" lat="60.4539861091" lon="5.70628889638">
		<tag k="name" v="Langhelleneset" />
		<tag k="natural" v="cape" />
		<tag k="ssr:stedsnr" v="530199" />
	</node>
	<node id="-644655" lat="60.5342720205" lon="5.85489197008">
		<tag k="name" v="Tverrdalsvatni" />
		<tag k="natural" v="water" />
		<tag k="ssr:stedsnr" v="979591" />
		<tag k="water" v="lake" />
	</node>
	<node id="-642593" lat="60.5328429874" lon="5.74976131941">
		<tag k="name" v="Kraksåvatnet" />
		<tag k="natural" v="water" />
		<tag k="ssr:stedsnr" v="491910" />
	</node>
	<node id="-644640" lat="60.6607740567" lon="5.69058377347">
		<tag k="name" v="Lammaneset" />
		<tag k="natural" v="cape" />
		<tag k="ssr:stedsnr" v="955904" />
	</node>
	<node id="-642589" lat="60.8922416657" lon="6.15098889276">
		<tag k="name" v="Skjerjo" />
		<tag k="ssr:stedsnr" v="676081" />
		<tag k="waterway" v="stream" />
	</node>
	<node id="-642587" lat="60.7822527756" lon="5.88984166381">
		<tag k="name" v="Mylletjørni" />
		<tag k="natural" v="water" />
		<tag k="ssr:stedsnr" v="675774" />
	</node>
	<node id="-644629" lat="60.7328499975" lon="5.75168055485">
		<tag k="name" v="Skavlabekken" />
		<tag k="ssr:stedsnr" v="955813" />
		<tag k="waterway" v="stream" />
	</node>
	<node id="-644628" lat="60.7349416639" lon="5.75231944494">
		<tag k="name" v="Fjellbotsbekken" />
		<tag k="ssr:stedsnr" v="955811" />
		<tag k="waterway" v="stream" />
	</node>
	<node id="-642579" lat="60.5055770252" lon="5.85770272881">
		<tag k="name" v="Vardatjørnane" />
		<tag k="natural" v="water" />
		<tag k="ssr:stedsnr" v="674978" />
	</node>
	<node id="-642577" lat="60.6577805519" lon="5.69095832515">
		<tag k="name" v="Toskedalsvatnet" />
		<tag k="natural" v="water" />
		<tag k="ssr:stedsnr" v="674646" />
		<tag k="water" v="lake" />
	</node>
	<node id="-642570" lat="60.5463325403" lon="5.82799895558">
		<tag k="name" v="Blåfjellvatnet" />
		<tag k="natural" v="water" />
		<tag k="ssr:stedsnr" v="673943" />
	</node>
	<node id="-642569" lat="60.5298967886" lon="5.74172271195">
		<tag k="name" v="Skaratjørna" />
		<tag k="natural" v="water" />
		<tag k="ssr:stedsnr" v="673934" />
	</node>
	<node id="-644616" lat="60.8286166689" lon="6.21849165837">
		<tag k="name" v="Grasdalsbekken" />
		<tag k="ssr:stedsnr" v="955631" />
		<tag k="waterway" v="stream" />
	</node>
	<node id="-642566" lat="60.5718262595" lon="5.87014359263">
		<tag k="name" v="Øyaskartjørni" />
		<tag k="natural" v="water" />
		<tag k="ssr:stedsnr" v="673878" />
	</node>
	<node id="-642565" lat="60.5668527767" lon="5.96970000398">
		<tag k="name" v="Bergsdalselvi" />
		<tag k="ssr:stedsnr" v="673875" />
		<tag k="waterway" v="river" />
	</node>
	<node id="-644612" lat="60.77886667" lon="6.01500555083">
		<tag k="name" v="Myrtangen" />
		<tag k="natural" v="cape" />
		<tag k="ssr:stedsnr" v="955605" />
	</node>
	<node id="-644611" lat="60.7930500036" lon="6.03525554662">
		<tag k="name" v="Liabekken" />
		<tag k="ssr:stedsnr" v="955592" />
		<tag k="waterway" v="stream" />
	</node>
	<node id="-644608" lat="60.5238416676" lon="5.75560556011">
		<tag k="name" v="Rummedalsbekken" />
		<tag k="ssr:stedsnr" v="955366" />
		<tag k="waterway" v="stream" />
	</node>
	<node id="-642557" lat="60.5305194443" lon="5.98039166884">
		<tag k="name" v="Oddmunddalsvatnet" />
		<tag k="natural" v="water" />
		<tag k="ssr:stedsnr" v="673745" />
	</node>
	<node id="-642556" lat="60.5205872638" lon="5.98755277634">
		<tag k="name" v="Grågavltjørnane" />
		<tag k="natural" v="water" />
		<tag k="ssr:stedsnr" v="673743" />
		<tag k="water" v="lake" />
	</node>
	<node id="-644602" lat="60.5848861107" lon="5.80042499491">
		<tag k="name" v="Norselva" />
		<tag k="ssr:stedsnr" v="955257" />
		<tag k="waterway" v="river" />
	</node>
	<node id="-642547" lat="60.5651009332" lon="5.80720202403">
		<tag k="name" v="Langvatnet" />
		<tag k="natural" v="water" />
		<tag k="ssr:stedsnr" v="673638" />
	</node>
	<node id="-642546" lat="60.5706261887" lon="5.82724731605">
		<tag k="name" v="Otterstadvatnet" />
		<tag k="natural" v="water" />
		<tag k="ssr:stedsnr" v="673608" />
	</node>
	<node id="-642544" lat="60.5693111143" lon="5.7482194496">
		<tag k="name" v="Kalddalselva" />
		<tag k="ssr:stedsnr" v="673587" />
		<tag k="waterway" v="stream" />
	</node>
	<node id="-642542" lat="60.5750175829" lon="5.62899103762">
		<tag k="name" v="Øvsthustjørna" />
		<tag k="natural" v="water" />
		<tag k="ssr:stedsnr" v="673582" />
	</node>
	<node id="-642541" lat="60.5779388878" lon="5.60133611157">
		<tag k="alt_name" v="Grylså" />
		<tag k="fixme" v="multiple name tags, choose one and add the other to alt_name" />
		<tag k="name" v="Grytså;Grøvelselva" />
		<tag k="ssr:stedsnr" v="673559" />
		<tag k="waterway" v="stream" />
	</node>
	<node id="-644587" lat="60.6061972216" lon="5.79975277908">
		<tag k="name" v="Grøno" />
		<tag k="ssr:stedsnr" v="955064" />
		<tag k="waterway" v="stream" />
	</node>
	<node id="-642537" lat="60.7451312487" lon="5.77024622197">
		<tag k="name" v="Dyrabottsvatnet" />
		<tag k="natural" v="water" />
		<tag k="ssr:stedsnr" v="673463" />
	</node>
	<node id="-642536" lat="60.7390488615" lon="5.93996490568">
		<tag k="name" v="Oksatjørni" />
		<tag k="natural" v="water" />
		<tag k="ssr:stedsnr" v="673417" />
	</node>
	<node id="-642535" lat="60.7350310279" lon="5.929123795">
		<tag k="name" v="Brattefonntjørni" />
		<tag k="natural" v="water" />
		<tag k="ssr:stedsnr" v="673413" />
	</node>
	<node id="-642533" lat="60.7428886487" lon="5.87253603955">
		<tag k="name" v="Kupetjørna" />
		<tag k="natural" v="water" />
		<tag k="ssr:stedsnr" v="673389" />
	</node>
	<node id="-642532" lat="60.687623859" lon="5.81297052404">
		<tag k="name" v="Træsvatnet" />
		<tag k="natural" v="water" />
		<tag k="ssr:stedsnr" v="673362" />
	</node>
	<node id="-644578" lat="60.7316777796" lon="5.84862222386">
		<tag k="name" v="Litlevikja" />
		<tag k="natural" v="bay" />
		<tag k="ssr:stedsnr" v="954686" />
	</node>
	<node id="-642529" lat="60.4795027801" lon="5.86086944686">
		<tag k="name" v="Smørtjørna" />
		<tag k="natural" v="water" />
		<tag k="ssr:stedsnr" v="673347" />
	</node>
	<node id="-644575" lat="60.4390749999" lon="5.63721111108">
		<tag k="name" v="Litlaelva" />
		<tag k="ssr:stedsnr" v="954242" />
		<tag k="waterway" v="river" />
	</node>
	<node id="-644569" lat="60.7799805557" lon="5.87819722588">
		<tag k="name" v="Ollernes" />
		<tag k="natural" v="cape" />
		<tag k="ssr:stedsnr" v="954658" />
	</node>
	<node id="-644567" lat="60.7843909745" lon="5.9292275246">
		<tag k="name" v="Storneset" />
		<tag k="natural" v="cape" />
		<tag k="ssr:stedsnr" v="954644" />
	</node>
	<node id="-642513" lat="60.8070750009" lon="6.17387778097">
		<tag k="name" v="Kvernhusbekken" />
		<tag k="ssr:stedsnr" v="469635" />
		<tag k="waterway" v="stream" />
	</node>
	<node id="-644555" lat="60.8064250042" lon="6.1815916579">
		<tag k="name" v="Kvitestakken" />
		<tag k="natural" v="waterfall" />
		<tag k="ssr:stedsnr" v="858200" />
	</node>
	<node id="-644552" lat="60.7956361101" lon="5.88458889059">
		<tag k="name" v="Krokabekken" />
		<tag k="ssr:stedsnr" v="858196" />
		<tag k="waterway" v="stream" />
	</node>
	<node id="-644551" lat="60.8115156236" lon="5.85964700128">
		<tag k="name" v="Hevikatjørna" />
		<tag k="natural" v="water" />
		<tag k="ssr:stedsnr" v="858151" />
	</node>
	<node id="-644549" lat="60.7977833367" lon="6.02839999181">
		<tag k="name" v="Haugsgrovvatnet" />
		<tag k="natural" v="water" />
		<tag k="ssr:stedsnr" v="858192" />
	</node>
	<node id="-644547" lat="60.5455613781" lon="5.7590013914">
		<tag k="name" v="Flatavatnet" />
		<tag k="natural" v="water" />
		<tag k="ssr:stedsnr" v="856951" />
	</node>
	<node id="-644542" lat="60.578566669" lon="5.86522500779">
		<tag k="name" v="Storfossen" />
		<tag k="natural" v="waterfall" />
		<tag k="ssr:stedsnr" v="856885" />
	</node>
	<node id="-642491" lat="60.5296629426" lon="5.85819476698">
		<tag k="alt_name" v="Tverrdalsvatni, øvre" />
		<tag k="name" v="Øvra Tverrdalsvatnet" />
		<tag k="natural" v="water" />
		<tag k="ssr:stedsnr" v="431823" />
		<tag k="water" v="lake" />
	</node>
	<node id="-644536" lat="60.5546583327" lon="5.61507499256">
		<tag k="name" v="Dallaliholmane" />
		<tag k="place" v="islet" />
		<tag k="ssr:stedsnr" v="856638" />
	</node>
	<node id="-644534" lat="60.5718699353" lon="5.63690887976">
		<tag k="name" v="Andre Lauvtjørna" />
		<tag k="natural" v="water" />
		<tag k="ssr:stedsnr" v="856601" />
	</node>
	<node id="-644530" lat="60.7377253057" lon="5.89843033088">
		<tag k="name" v="Saudalsvatnet" />
		<tag k="natural" v="water" />
		<tag k="ssr:stedsnr" v="856440" />
	</node>
	<node id="-642478" lat="60.6725444466" lon="5.66956665749">
		<tag k="name" v="Vetlaelva" />
		<tag k="ssr:stedsnr" v="409855" />
		<tag k="waterway" v="river" />
	</node>
	<node id="-642473" lat="60.5726525662" lon="5.70055085325">
		<tag k="name" v="Hunnetjørnane" />
		<tag k="natural" v="water" />
		<tag k="ssr:stedsnr" v="409313" />
		<tag k="water" v="lake" />
	</node>
	<node id="-644520" lat="60.6221249993" lon="5.89416944527">
		<tag k="name" v="Verpelstadelva" />
		<tag k="ssr:stedsnr" v="856181" />
		<tag k="waterway" v="stream" />
	</node>
	<node id="-642465" lat="60.7878999993" lon="5.91123889377">
		<tag k="alt_name" v="Storelvi" />
		<tag k="name" v="Ekso" />
		<tag k="ssr:stedsnr" v="372563" />
		<tag k="waterway" v="river" />
	</node>
	<node id="-644511" lat="60.5444694481" lon="5.72738333498">
		<tag k="name" v="Kraksåelva" />
		<tag k="ssr:stedsnr" v="837141" />
		<tag k="waterway" v="river" />
	</node>
	<node id="-642460" lat="60.8716583338" lon="6.11984166094">
		<tag k="name" v="Lonenden" />
		<tag k="natural" v="cape" />
		<tag k="ssr:stedsnr" v="372164" />
	</node>
	<node id="-644505" lat="60.5566027771" lon="6.0080555612">
		<tag k="name" v="Båthammaren" />
		<tag k="natural" v="cape" />
		<tag k="ssr:stedsnr" v="834982" />
	</node>
	<node id="-642454" lat="60.8308916675" lon="6.13175554778">
		<tag k="alt_name" v="Blåvatnet, øvre" />
		<tag k="name" v="Øvre Blåvatnet" />
		<tag k="natural" v="water" />
		<tag k="ssr:stedsnr" v="494203" />
	</node>
	<node id="-642452" lat="60.8567055529" lon="6.16587499912">
		<tag k="name" v="Belaskartjørni" />
		<tag k="natural" v="water" />
		<tag k="ssr:stedsnr" v="494128" />
	</node>
	<node id="-642450" lat="60.7931338475" lon="6.09015867257">
		<tag k="name" v="Krokavatnet" />
		<tag k="natural" v="water" />
		<tag k="ssr:stedsnr" v="493742" />
	</node>
	<node id="-644493" lat="60.6595277782" lon="5.68627221865">
		<tag k="name" v="Sveneset" />
		<tag k="natural" v="cape" />
		<tag k="ssr:stedsnr" v="834898" />
	</node>
	<node id="-644490" lat="60.6455583314" lon="5.80039444198">
		<tag k="name" v="Hellesbekken" />
		<tag k="ssr:stedsnr" v="834763" />
		<tag k="waterway" v="stream" />
	</node>
	<node id="-644489" lat="60.7681638857" lon="6.0205527818">
		<tag k="name" v="Stølsbekken" />
		<tag k="ssr:stedsnr" v="834599" />
		<tag k="waterway" v="stream" />
	</node>
	<node id="-644488" lat="60.7883888906" lon="5.93748611604">
		<tag k="name" v="Kvernhusbekk" />
		<tag k="ssr:stedsnr" v="834596" />
		<tag k="waterway" v="stream" />
	</node>
	<node id="-644487" lat="60.7246916705" lon="5.8449666697">
		<tag k="name" v="Fjellbekken" />
		<tag k="ssr:stedsnr" v="834592" />
		<tag k="waterway" v="stream" />
	</node>
	<node id="-644486" lat="60.7808472262" lon="5.94378888294">
		<tag k="name" v="Øyni" />
		<tag k="place" v="island" />
		<tag k="ssr:stedsnr" v="834586" />
	</node>
	<node id="-644483" lat="60.5762027797" lon="5.59647777435">
		<tag k="name" v="Grylsåvågen" />
		<tag k="natural" v="bay" />
		<tag k="ssr:stedsnr" v="834342" />
	</node>
	<node id="-642434" lat="60.555305558" lon="6.06776667352">
		<tag k="name" v="Mjøstøltjørni" />
		<tag k="natural" v="water" />
		<tag k="ssr:stedsnr" v="492815" />
	</node>
	<node id="-642429" lat="60.4862500044" lon="5.82284166566">
		<tag k="name" v="Lonane" />
		<tag k="place" v="locality" />
		<tag k="ssr:stedsnr" v="491950" />
	</node>
	<node id="-642425" lat="60.527244445" lon="5.89221666472">
		<tag k="name" v="Djupso" />
		<tag k="ssr:stedsnr" v="491768" />
		<tag k="waterway" v="stream" />
	</node>
	<node id="-644472" lat="60.6163111114" lon="5.71126667556">
		<tag k="name" v="Vetlåna" />
		<tag k="ssr:stedsnr" v="834052" />
		<tag k="waterway" v="stream" />
	</node>
	<node id="-642422" lat="60.5334138914" lon="6.00917500152">
		<tag k="name" v="Moavatnet" />
		<tag k="natural" v="water" />
		<tag k="ssr:stedsnr" v="491742" />
	</node>
	<node id="-642420" lat="60.6254676937" lon="5.66621901608">
		<tag k="alt_name" v="Fjellbotsvatnet" />
		<tag k="name" v="Fjellbotnvatnet" />
		<tag k="natural" v="water" />
		<tag k="ssr:stedsnr" v="491715" />
	</node>
	<node id="-644460" lat="60.5135764743" lon="5.99247424907">
		<tag k="name" v="Holmen" />
		<tag k="place" v="islet" />
		<tag k="ssr:stedsnr" v="833095" />
	</node>
	<node id="-642410" lat="60.5841582781" lon="5.74440902265">
		<tag k="name" v="Skaratjørna" />
		<tag k="natural" v="water" />
		<tag k="ssr:stedsnr" v="491573" />
	</node>
	<node id="-644457" lat="60.5517472247" lon="5.91121389633">
		<tag k="name" v="Giljaelvi" />
		<tag k="ssr:stedsnr" v="833071" />
		<tag k="waterway" v="river" />
	</node>
	<node id="-642408" lat="60.5936999979" lon="5.76043610827">
		<tag k="alt_name" v="Hestfjelltjørna" />
		<tag k="name" v="Geitavatnet" />
		<tag k="natural" v="water" />
		<tag k="ssr:stedsnr" v="491550" />
	</node>
	<node id="-642405" lat="60.6092920094" lon="5.67785833674">
		<tag k="name" v="Svartatjørna" />
		<tag k="natural" v="water" />
		<tag k="ssr:stedsnr" v="491531" />
	</node>
	<node id="-644452" lat="60.6403083367" lon="5.83538334033">
		<tag k="name" v="Driva" />
		<tag k="ssr:stedsnr" v="809886" />
		<tag k="waterway" v="river" />
	</node>
	<node id="-642403" lat="60.7365903105" lon="6.02314438443">
		<tag k="name" v="Hundabukstjørni" />
		<tag k="natural" v="water" />
		<tag k="ssr:stedsnr" v="491423" />
	</node>
	<node id="-642402" lat="60.7364555566" lon="5.86740833502">
		<tag k="name" v="Fjellfossen" />
		<tag k="natural" v="waterfall" />
		<tag k="ssr:stedsnr" v="491421" />
	</node>
	<node id="-642398" lat="60.6812523017" lon="5.78355851172">
		<tag k="name" v="Vikavatnet" />
		<tag k="natural" v="water" />
		<tag k="ssr:stedsnr" v="491346" />
	</node>
	<node id="-644444" lat="60.7810638909" lon="5.85610556418">
		<tag k="name" v="Pøylefossen" />
		<tag k="natural" v="waterfall" />
		<tag k="ssr:stedsnr" v="797738" />
	</node>
	<node id="-642395" lat="60.6787660506" lon="5.75242597321">
		<tag k="name" v="Stemmetjørna" />
		<tag k="natural" v="water" />
		<tag k="ssr:stedsnr" v="491337" />
	</node>
	<node id="-644441" lat="60.7777777761" lon="6.0572638805">
		<tag k="name" v="Storeglupen" />
		<tag k="natural" v="waterfall" />
		<tag k="ssr:stedsnr" v="797707" />
	</node>
	<node id="-644439" lat="60.8442812028" lon="6.25706051364">
		<tag k="name" v="Holmavatnet" />
		<tag k="natural" v="water" />
		<tag k="ssr:stedsnr" v="797543" />
		<tag k="water" v="lake" />
	</node>
	<node id="-644438" lat="60.8945640616" lon="6.22534153387">
		<tag k="alt_name" v="Askjelldalsvatnet, vetle" />
		<tag k="name" v="Vetla Askjelldalsvatnet" />
		<tag k="natural" v="water" />
		<tag k="ssr:stedsnr" v="797626" />
		<tag k="water" v="lake" />
	</node>
	<node id="-644437" lat="60.888682611" lon="6.18046948308">
		<tag k="alt_name" v="Askjellsdalsvatnet" />
		<tag k="name" v="Askjelldalsvatnet" />
		<tag k="natural" v="water" />
		<tag k="ssr:stedsnr" v="797092" />
		<tag k="water" v="lake" />
	</node>
	<node id="-644435" lat="60.756569443" lon="5.81953889365">
		<tag k="name" v="Raudfossen" />
		<tag k="natural" v="waterfall" />
		<tag k="ssr:stedsnr" v="797062" />
	</node>
	<node id="-644433" lat="60.5512555512" lon="5.65694444305">
		<tag k="name" v="Blomdalsvatnet" />
		<tag k="natural" v="water" />
		<tag k="ssr:stedsnr" v="795893" />
	</node>
	<node id="-644431" lat="60.5504052993" lon="5.79114629533">
		<tag k="alt_name" v="Vatnastølvatnet" />
		<tag k="name" v="Vatnastølsvatnet" />
		<tag k="natural" v="water" />
		<tag k="ssr:stedsnr" v="795887" />
	</node>
	<node id="-644430" lat="60.5764555554" lon="6.03725555261">
		<tag k="name" v="Storavatnet" />
		<tag k="natural" v="water" />
		<tag k="ssr:stedsnr" v="795865" />
	</node>
	<node id="-644428" lat="60.6414833962" lon="5.69975235715">
		<tag k="name" v="Bukksteinvatnet" />
		<tag k="natural" v="water" />
		<tag k="ssr:stedsnr" v="795701" />
	</node>
	<node id="-642375" lat="60.7790861091" lon="5.93975555434">
		<tag k="name" v="Furneset" />
		<tag k="natural" v="cape" />
		<tag k="ssr:stedsnr" v="348558" />
	</node>
	<node id="-644420" lat="60.5652567169" lon="5.81344864488">
		<tag k="name" v="Svartavatnet" />
		<tag k="natural" v="water" />
		<tag k="ssr:stedsnr" v="795652" />
	</node>
	<node id="-644417" lat="60.5622568299" lon="5.67400422653">
		<tag k="name" v="Torvavatnet" />
		<tag k="natural" v="water" />
		<tag k="ssr:stedsnr" v="795632" />
	</node>
	<node id="-644403" lat="60.4881194405" lon="5.86375000471">
		<tag k="name" v="Klenavatnet" />
		<tag k="natural" v="water" />
		<tag k="ssr:stedsnr" v="794314" />
	</node>
	<node id="-642353" lat="60.7979972221" lon="5.91829167542">
		<tag k="name" v="Jottebekken" />
		<tag k="ssr:stedsnr" v="347628" />
		<tag k="waterway" v="stream" />
	</node>
	<node id="-644397" lat="60.5590388924" lon="5.99078610813">
		<tag k="name" v="Bergsfossen" />
		<tag k="natural" v="waterfall" />
		<tag k="ssr:stedsnr" v="773980" />
	</node>
	<node id="-642344" lat="60.8600380021" lon="6.22510611558">
		<tag k="name" v="Kvanndalsvatnet" />
		<tag k="natural" v="water" />
		<tag k="ssr:stedsnr" v="312578" />
		<tag k="water" v="lake" />
	</node>
	<node id="-642342" lat="60.8453555538" lon="6.26040556241">
		<tag k="name" v="Holmen" />
		<tag k="natural" v="cape" />
		<tag k="ssr:stedsnr" v="312552" />
	</node>
	<node id="-642341" lat="60.5329042126" lon="5.92381500526">
		<tag k="name" v="Tjørnadalsvatnet" />
		<tag k="natural" v="water" />
		<tag k="ssr:stedsnr" v="309736" />
	</node>
	<node id="-644378" lat="60.8066907181" lon="6.15021107604">
		<tag k="name" v="Horndalselvi" />
		<tag k="ssr:stedsnr" v="773591" />
		<tag k="waterway" v="river" />
	</node>
	<node id="-644377" lat="60.7743194479" lon="6.03865555455">
		<tag k="name" v="Knoltabekken" />
		<tag k="ssr:stedsnr" v="773578" />
		<tag k="waterway" v="stream" />
	</node>
	<node id="-644372" lat="60.5180527768" lon="5.72415556119">
		<tag k="name" v="Hålo" />
		<tag k="place" v="locality" />
		<tag k="ssr:stedsnr" v="773231" />
	</node>
	<node id="-644365" lat="60.5493194455" lon="5.62129722825">
		<tag k="name" v="Bjørkevik" />
		<tag k="natural" v="bay" />
		<tag k="ssr:stedsnr" v="773197" />
	</node>
	<node id="-644357" lat="60.447258179" lon="5.70676805681">
		<tag k="name" v="Sandvikstjønna" />
		<tag k="natural" v="water" />
		<tag k="ssr:stedsnr" v="773151" />
	</node>
	<node id="-642302" lat="60.5341638858" lon="5.69110833191">
		<tag k="name" v="Ytre Furstallen" />
		<tag k="ssr:stedsnr" v="469901" />
		<tag k="waterway" v="stream" />
	</node>
	<node id="-642301" lat="60.6894742431" lon="5.70892985908">
		<tag k="name" v="Lomtjørn" />
		<tag k="natural" v="water" />
		<tag k="ssr:stedsnr" v="469757" />
		<tag k="water" v="pond" />
	</node>
	<node id="-644348" lat="60.587683336" lon="5.71438332861">
		<tag k="name" v="Ljosheldrabekken" />
		<tag k="ssr:stedsnr" v="773001" />
		<tag k="waterway" v="stream" />
	</node>
	<node id="-642297" lat="60.7881416711" lon="6.04377222552">
		<tag k="name" v="Fagerdalselva" />
		<tag k="ssr:stedsnr" v="469601" />
		<tag k="waterway" v="river" />
	</node>
	<node id="-642295" lat="60.444249998" lon="5.66774444973">
		<tag k="name" v="Elvane" />
		<tag k="ssr:stedsnr" v="469373" />
		<tag k="waterway" v="river" />
	</node>
	<node id="-644341" lat="60.5593961933" lon="6.07568544892">
		<tag k="name" v="Kalvatjørn" />
		<tag k="natural" v="water" />
		<tag k="ssr:stedsnr" v="772967" />
	</node>
	<node id="-642292" lat="60.5886722211" lon="5.75314166916">
		<tag k="name" v="Tilgeitåna" />
		<tag k="ssr:stedsnr" v="469242" />
		<tag k="waterway" v="stream" />
	</node>
	<node id="-642289" lat="60.4889722179" lon="5.84354444858">
		<tag k="name" v="Fossen" />
		<tag k="natural" v="waterfall" />
		<tag k="ssr:stedsnr" v="469029" />
	</node>
	<node id="-642283" lat="60.6741499962" lon="5.78289166258">
		<tag k="name" v="Skarpestølbekken" />
		<tag k="ssr:stedsnr" v="468769" />
		<tag k="waterway" v="stream" />
	</node>
	<node id="-642282" lat="60.6751666696" lon="5.79292222886">
		<tag k="name" v="Langøyna" />
		<tag k="place" v="island" />
		<tag k="ssr:stedsnr" v="468768" />
	</node>
	<node id="-642280" lat="60.684242501" lon="5.75852377225">
		<tag k="name" v="Drepetjørna" />
		<tag k="natural" v="water" />
		<tag k="ssr:stedsnr" v="468754" />
	</node>
	<node id="-644327" lat="60.5824691479" lon="5.68338590269">
		<tag k="name" v="Litlevatn" />
		<tag k="natural" v="water" />
		<tag k="ssr:stedsnr" v="772359" />
	</node>
	<node id="-642276" lat="60.7680861094" lon="5.88742222434">
		<tag k="name" v="Vetlebotsbekken" />
		<tag k="ssr:stedsnr" v="468676" />
		<tag k="waterway" v="stream" />
	</node>
	<node id="-644316" lat="60.8391416692" lon="6.12598889129">
		<tag k="name" v="Trollavasstjørni" />
		<tag k="natural" v="water" />
		<tag k="ssr:stedsnr" v="737212" />
	</node>
	<node id="-642266" lat="60.5162749981" lon="5.98765000821">
		<tag k="name" v="Storeli-tjørnsosen" />
		<tag k="natural" v="bay" />
		<tag k="ssr:stedsnr" v="468097" />
	</node>
	<node id="-644313" lat="60.798217814" lon="6.1473812477">
		<tag k="name" v="Nesheimsvatnet" />
		<tag k="natural" v="water" />
		<tag k="ssr:stedsnr" v="736761" />
	</node>
	<node id="-644311" lat="60.7793694459" lon="5.87472499328">
		<tag k="name" v="Gunnhildafossen" />
		<tag k="natural" v="waterfall" />
		<tag k="ssr:stedsnr" v="736756" />
	</node>
	<node id="-642262" lat="60.6688967797" lon="5.7172709481">
		<tag k="name" v="Stemmetjørn" />
		<tag k="natural" v="water" />
		<tag k="ssr:stedsnr" v="288856" />
	</node>
	<node id="-642259" lat="60.6530861153" lon="5.77889443844">
		<tag k="name" v="Yste Ulevikelva" />
		<tag k="ssr:stedsnr" v="288754" />
		<tag k="waterway" v="river" />
	</node>
	<node id="-644303" lat="60.7754111111" lon="6.03155555722">
		<tag k="name" v="Fagermyrbekken" />
		<tag k="ssr:stedsnr" v="736711" />
		<tag k="waterway" v="stream" />
	</node>
	<node id="-644302" lat="60.8681065505" lon="6.24835992327">
		<tag k="name" v="Fagermyrvatnet" />
		<tag k="natural" v="water" />
		<tag k="ssr:stedsnr" v="736551" />
	</node>
	<node id="-642253" lat="60.6100194487" lon="5.71536111661">
		<tag k="name" v="Blombekken" />
		<tag k="ssr:stedsnr" v="288070" />
		<tag k="waterway" v="stream" />
	</node>
	<node id="-642245" lat="60.5110166655" lon="5.74348332623">
		<tag k="name" v="Gamleelva" />
		<tag k="ssr:stedsnr" v="288207" />
		<tag k="waterway" v="river" />
	</node>
	<node id="-642243" lat="60.5428861072" lon="5.62785555251">
		<tag k="name" v="Setevik" />
		<tag k="natural" v="bay" />
		<tag k="ssr:stedsnr" v="288170" />
	</node>
	<node id="-642237" lat="60.6850972195" lon="5.78376667391">
		<tag k="name" v="Langeneset" />
		<tag k="natural" v="cape" />
		<tag k="ssr:stedsnr" v="287765" />
	</node>
	<node id="-642234" lat="60.8302750031" lon="6.20099445011">
		<tag k="name" v="Geitaneset" />
		<tag k="natural" v="cape" />
		<tag k="ssr:stedsnr" v="287661" />
	</node>
	<node id="-644280" lat="60.8295638923" lon="6.28281389017">
		<tag k="name" v="Grøndalselvi" />
		<tag k="ssr:stedsnr" v="651636" />
		<tag k="waterway" v="river" />
	</node>
	<node id="-644277" lat="60.7711249985" lon="6.00953332648">
		<tag k="name" v="Grønbakkebekken" />
		<tag k="natural" v="cape" />
		<tag k="ssr:stedsnr" v="651612" />
	</node>
	<node id="-642220" lat="60.6678354023" lon="5.75090594465">
		<tag k="name" v="Tjødnane" />
		<tag k="natural" v="water" />
		<tag k="ssr:stedsnr" v="227858" />
		<tag k="water" v="lake" />
	</node>
	<node id="-644267" lat="60.5394222246" lon="5.69180834102">
		<tag k="name" v="Fossagjela" />
		<tag k="natural" v="waterfall" />
		<tag k="ssr:stedsnr" v="651338" />
	</node>
	<node id="-644266" lat="60.7983333359" lon="6.03552222551">
		<tag k="loc_name" v="Haugsgrovi" />
		<tag k="name" v="Haustgroi" />
		<tag k="ssr:stedsnr" v="651602" />
		<tag k="waterway" v="stream" />
	</node>
	<node id="-644260" lat="60.5192284832" lon="5.75766961635">
		<tag k="name" v="Trollsvik" />
		<tag k="natural" v="bay" />
		<tag k="ssr:stedsnr" v="651232" />
	</node>
	<node id="-642209" lat="60.8358666624" lon="6.07863054924">
		<tag k="name" v="Skjerjavasstjørni" />
		<tag k="natural" v="water" />
		<tag k="ssr:stedsnr" v="191202" />
	</node>
	<node id="-642208" lat="60.7700138897" lon="5.88416111529">
		<tag k="name" v="Middagssvodi" />
		<tag k="ssr:stedsnr" v="190726" />
		<tag k="waterway" v="stream" />
	</node>
	<node id="-642202" lat="60.670725001" lon="5.70335000326">
		<tag k="name" v="Åna" />
		<tag k="ssr:stedsnr" v="288851" />
		<tag k="waterway" v="stream" />
	</node>
	<node id="-644244" lat="60.4393291344" lon="5.72039288695">
		<tag k="name" v="Svarttjønna" />
		<tag k="natural" v="water" />
		<tag k="ssr:stedsnr" v="651179" />
	</node>
	<node id="-642193" lat="60.6391277744" lon="5.72113611733">
		<tag k="name" v="Kvernhusbekken" />
		<tag k="ssr:stedsnr" v="288734" />
		<tag k="waterway" v="stream" />
	</node>
	<node id="-644237" lat="60.7994111128" lon="5.85248611059">
		<tag k="name" v="Svartebekken" />
		<tag k="ssr:stedsnr" v="650613" />
		<tag k="waterway" v="stream" />
	</node>
	<node id="-644236" lat="60.7954472249" lon="5.85475555424">
		<tag k="name" v="Tverrdalselvi" />
		<tag k="ssr:stedsnr" v="650608" />
		<tag k="waterway" v="river" />
	</node>
	<node id="-644235" lat="60.6601111086" lon="5.82002777819">
		<tag k="name" v="Fossen" />
		<tag k="natural" v="waterfall" />
		<tag k="ssr:stedsnr" v="650604" />
	</node>
	<node id="-642180" lat="60.5575999987" lon="5.99832777033">
		<tag k="name" v="Neset" />
		<tag k="natural" v="cape" />
		<tag k="ssr:stedsnr" v="287981" />
	</node>
	<node id="-642178" lat="60.7825865359" lon="5.92350783043">
		<tag k="name" v="Vetlaneset" />
		<tag k="natural" v="cape" />
		<tag k="ssr:stedsnr" v="287698" />
	</node>
	<node id="-642176" lat="60.6735638882" lon="5.72455555535">
		<tag k="name" v="Blaurtjødna" />
		<tag k="natural" v="water" />
		<tag k="ssr:stedsnr" v="287675" />
	</node>
	<node id="-642171" lat="60.7724333297" lon="6.02970555449">
		<tag k="name" v="Kvanngrobekken" />
		<tag k="ssr:stedsnr" v="287628" />
		<tag k="waterway" v="stream" />
	</node>
	<node id="-644217" lat="60.7676666703" lon="5.90442500317">
		<tag k="name" v="Nonstadgilsvotni" />
		<tag k="natural" v="water" />
		<tag k="ssr:stedsnr" v="614721" />
		<tag k="water" v="lake" />
	</node>
	<node id="-642168" lat="60.4464445106" lon="5.68684086857">
		<tag k="name" v="Kattatjørna" />
		<tag k="natural" v="water" />
		<tag k="ssr:stedsnr" v="287390" />
		<tag k="water" v="pond" />
	</node>
	<node id="-644214" lat="60.5164892129" lon="5.75393760836">
		<tag k="name" v="Fossdalsvatnet" />
		<tag k="natural" v="water" />
		<tag k="ssr:stedsnr" v="613936" />
	</node>
	<node id="-642441" lat="60.8074499955" lon="6.08410833063">
		<tag k="name" v="Veslavatnet" />
		<tag k="natural" v="water" />
		<tag k="ssr:stedsnr" v="493219" />
	</node>
	<node id="-644212" lat="60.5427388877" lon="5.647299998">
		<tag k="name" v="Midtvatnet" />
		<tag k="natural" v="water" />
		<tag k="ssr:stedsnr" v="613884" />
	</node>
	<node id="-644211" lat="60.5404527742" lon="6.04398054857">
		<tag k="name" v="Kvernafossen" />
		<tag k="natural" v="waterfall" />
		<tag k="ssr:stedsnr" v="613783" />
	</node>
	<node id="-644210" lat="60.6569000024" lon="5.68720276891">
		<tag k="name" v="Storeholmen" />
		<tag k="place" v="islet" />
		<tag k="ssr:stedsnr" v="613636" />
	</node>
	<node id="-644207" lat="60.5318701295" lon="5.83046469119">
		<tag k="name" v="Brislibroka" />
		<tag k="natural" v="water" />
		<tag k="ssr:stedsnr" v="612924" />
	</node>
	<node id="-642157" lat="60.5578805535" lon="5.67125556482">
		<tag k="name" v="Tverrbekken" />
		<tag k="ssr:stedsnr" v="286259" />
		<tag k="waterway" v="stream" />
	</node>
	<node id="-642153" lat="60.6441083304" lon="5.69841389759">
		<tag k="name" v="Vassvika" />
		<tag k="natural" v="bay" />
		<tag k="ssr:stedsnr" v="166912" />
	</node>
	<node id="-642152" lat="60.6524649834" lon="5.71169012231">
		<tag k="name" v="Kalviktjørn" />
		<tag k="natural" v="water" />
		<tag k="ssr:stedsnr" v="166771" />
	</node>
	<node id="-644196" lat="60.5487555529" lon="6.03404444805">
		<tag k="name" v="Svartagrovi" />
		<tag k="ssr:stedsnr" v="612786" />
		<tag k="waterway" v="stream" />
	</node>
	<node id="-644193" lat="60.4848133138" lon="5.85582513539">
		<tag k="name" v="Kjerringatjørna" />
		<tag k="natural" v="water" />
		<tag k="ssr:stedsnr" v="612340" />
	</node>
	<node id="-642134" lat="60.4391077488" lon="5.71495212768">
		<tag k="name" v="Søre Endabotnen" />
		<tag k="natural" v="water" />
		<tag k="ssr:stedsnr" v="166173" />
		<tag k="water" v="lake" />
	</node>
	<node id="-644179" lat="60.653677521" lon="5.69489214468">
		<tag k="name" v="Flatneset" />
		<tag k="natural" v="cape" />
		<tag k="ssr:stedsnr" v="591916" />
	</node>
	<node id="-642125" lat="60.753897221" lon="5.82937778166">
		<tag k="name" v="Istaleitavatnet" />
		<tag k="natural" v="water" />
		<tag k="ssr:stedsnr" v="165709" />
		<tag k="water" v="lake" />
	</node>
	<node id="-642123" lat="60.7620611078" lon="5.82169445287">
		<tag k="name" v="Høsefossen" />
		<tag k="natural" v="waterfall" />
		<tag k="ssr:stedsnr" v="165702" />
	</node>
	<node id="-642117" lat="60.8423114666" lon="6.2426015853">
		<tag k="name" v="Osatjørni" />
		<tag k="natural" v="water" />
		<tag k="ssr:stedsnr" v="130507" />
	</node>
	<node id="-642113" lat="60.770994444" lon="6.02158610873">
		<tag k="name" v="Storebekken" />
		<tag k="ssr:stedsnr" v="129724" />
		<tag k="waterway" v="stream" />
	</node>
	<node id="-642108" lat="60.5351831222" lon="5.8780540614">
		<tag k="name" v="Sauadalsvatni" />
		<tag k="natural" v="water" />
		<tag k="ssr:stedsnr" v="127831" />
	</node>
	<node id="-642101" lat="60.7335938442" lon="5.84547975854">
		<tag k="alt_name" v="Leirovatnet" />
		<tag k="name" v="Leirevatnet" />
		<tag k="natural" v="water" />
		<tag k="ssr:stedsnr" v="127416" />
	</node>
	<node id="-642098" lat="60.6100222233" lon="5.85851666291">
		<tag k="name" v="Middagskartjørna" />
		<tag k="natural" v="water" />
		<tag k="ssr:stedsnr" v="127219" />
	</node>
	<node id="-644144" lat="60.5713944445" lon="5.99061389757">
		<tag k="name" v="Øykjabotngroi" />
		<tag k="ssr:stedsnr" v="590899" />
		<tag k="waterway" v="stream" />
	</node>
	<node id="-642090" lat="60.6681693374" lon="5.68863875569">
		<tag k="name" v="Trolshovetjørn" />
		<tag k="natural" v="water" />
		<tag k="ssr:stedsnr" v="105927" />
	</node>
	<node id="-642089" lat="60.7837039482" lon="5.97660015306">
		<tag k="name" v="Krokatjørni" />
		<tag k="natural" v="water" />
		<tag k="ssr:stedsnr" v="251775" />
	</node>
	<node id="-642079" lat="60.8319250041" lon="6.23446667369">
		<tag k="name" v="Hagafossen" />
		<tag k="natural" v="waterfall" />
		<tag k="ssr:stedsnr" v="251568" />
	</node>
	<node id="-642077" lat="60.830955557" lon="6.11288610587">
		<tag k="name" v="Trollavatnet" />
		<tag k="natural" v="water" />
		<tag k="ssr:stedsnr" v="251246" />
	</node>
	<node id="-644121" lat="60.8117138904" lon="6.04296389531">
		<tag k="name" v="Øyane" />
		<tag k="place" v="island" />
		<tag k="ssr:stedsnr" v="590591" />
	</node>
	<node id="-642070" lat="60.792249996" lon="5.9054749981">
		<tag k="name" v="Florsfossen" />
		<tag k="natural" v="waterfall" />
		<tag k="ssr:stedsnr" v="251211" />
	</node>
	<node id="-642069" lat="60.8003079445" lon="5.94559305356">
		<tag k="name" v="Veslavatnet" />
		<tag k="natural" v="water" />
		<tag k="ssr:stedsnr" v="251210" />
	</node>
	<node id="-644116" lat="60.7857111074" lon="5.88608888637">
		<tag k="name" v="Neset" />
		<tag k="natural" v="cape" />
		<tag k="ssr:stedsnr" v="590665" />
	</node>
	<node id="-642067" lat="60.8572472847" lon="6.17777122445">
		<tag k="name" v="Beinhellervatnet" />
		<tag k="natural" v="water" />
		<tag k="ssr:stedsnr" v="251153" />
	</node>
	<node id="-644110" lat="60.8323749977" lon="6.18639722517">
		<tag k="name" v="Norddalselvi" />
		<tag k="ssr:stedsnr" v="590623" />
		<tag k="waterway" v="river" />
	</node>
	<node id="-642060" lat="60.580061111" lon="6.05438333939">
		<tag k="name" v="Grøndalsvatnet" />
		<tag k="natural" v="water" />
		<tag k="ssr:stedsnr" v="249854" />
	</node>
	<node id="-642059" lat="60.5618250046" lon="5.98599722754">
		<tag k="name" v="Fjellmannsøyane" />
		<tag k="natural" v="cape" />
		<tag k="ssr:stedsnr" v="249811" />
	</node>
	<node id="-642057" lat="60.5377249995" lon="5.91100000428">
		<tag k="name" v="Gråvatnet" />
		<tag k="natural" v="water" />
		<tag k="ssr:stedsnr" v="249798" />
	</node>
	<node id="-644102" lat="60.6159166694" lon="5.87573334104">
		<tag k="name" v="Verpelstadelva" />
		<tag k="ssr:stedsnr" v="590273" />
		<tag k="waterway" v="river" />
	</node>
	<node id="-642053" lat="60.5405038259" lon="6.01265542962">
		<tag k="name" v="Kaldestadtjørni" />
		<tag k="natural" v="water" />
		<tag k="ssr:stedsnr" v="249770" />
	</node>
	<node id="-642050" lat="60.6220250031" lon="5.74050832483">
		<tag k="name" v="Fossabekken" />
		<tag k="ssr:stedsnr" v="249736" />
		<tag k="waterway" v="stream" />
	</node>
	<node id="-644097" lat="60.7697722257" lon="5.87271943878">
		<tag k="name" v="Storseglsvodi" />
		<tag k="ssr:stedsnr" v="554733" />
		<tag k="waterway" v="stream" />
	</node>
	<node id="-644096" lat="60.7811083301" lon="5.94715833619">
		<tag k="name" v="Flatkvålsfossen" />
		<tag k="natural" v="waterfall" />
		<tag k="ssr:stedsnr" v="554778" />
	</node>
	<node id="-644095" lat="60.7825768455" lon="5.96806729324">
		<tag k="name" v="Ospetjørni" />
		<tag k="natural" v="water" />
		<tag k="ssr:stedsnr" v="554776" />
	</node>
	<node id="-644094" lat="60.7858000041" lon="6.11440000429">
		<tag k="name" v="Munkasundet" />
		<tag k="natural" v="strait" />
		<tag k="ssr:stedsnr" v="554769" />
	</node>
	<node id="-644092" lat="60.7746416681" lon="5.87126944445">
		<tag k="name" v="Storseglbekken" />
		<tag k="ssr:stedsnr" v="554752" />
		<tag k="waterway" v="stream" />
	</node>
	<node id="-644090" lat="60.8033194432" lon="6.21091666541">
		<tag k="name" v="Eksetjørni" />
		<tag k="natural" v="water" />
		<tag k="ssr:stedsnr" v="554220" />
	</node>
	<node id="-644086" lat="60.5068750005" lon="5.87782500728">
		<tag k="alt_name" v="Herfangsvatnet" />
		<tag k="name" v="Herfangen" />
		<tag k="natural" v="water" />
		<tag k="ssr:stedsnr" v="552990" />
		<tag k="water" v="lake" />
	</node>
	<node id="-642036" lat="60.734552774" lon="5.81396111193">
		<tag k="name" v="Mysterelva" />
		<tag k="ssr:stedsnr" v="249282" />
		<tag k="waterway" v="river" />
	</node>
	<node id="-644079" lat="60.5139861146" lon="5.87185832457">
		<tag k="name" v="Tverrdalselva" />
		<tag k="ssr:stedsnr" v="552805" />
		<tag k="waterway" v="stream" />
	</node>
	<node id="-644069" lat="60.6211555593" lon="5.79405555342">
		<tag k="name" v="Straumsmarkåna" />
		<tag k="ssr:stedsnr" v="552765" />
		<tag k="waterway" v="stream" />
	</node>
	<node id="-644068" lat="60.5697944488" lon="5.79244166176">
		<tag k="name" v="Moko" />
		<tag k="ssr:stedsnr" v="552651" />
		<tag k="waterway" v="stream" />
	</node>
	<node id="-644065" lat="60.5774749966" lon="5.80543055245">
		<tag k="name" v="Drivo" />
		<tag k="ssr:stedsnr" v="552628" />
		<tag k="waterway" v="stream" />
	</node>
	<node id="-644063" lat="60.6016783431" lon="5.6846293737">
		<tag k="name" v="Nardalsvatnet" />
		<tag k="natural" v="water" />
		<tag k="ssr:stedsnr" v="552586" />
	</node>
	<node id="-644059" lat="60.6689444445" lon="5.82517500914">
		<tag k="name" v="Straumselva" />
		<tag k="ssr:stedsnr" v="552698" />
		<tag k="waterway" v="river" />
	</node>
	<node id="-642010" lat="60.6789361117" lon="5.80325278106">
		<tag k="name" v="Øyadalselva" />
		<tag k="ssr:stedsnr" v="248315" />
		<tag k="waterway" v="stream" />
	</node>
	<node id="-644057" lat="60.6704921349" lon="5.80442965265">
		<tag k="name" v="Djupevatnet" />
		<tag k="natural" v="water" />
		<tag k="ssr:stedsnr" v="552690" />
	</node>
	<node id="-644055" lat="60.5599722257" lon="5.75258888683">
		<tag k="name" v="Taugåni" />
		<tag k="ssr:stedsnr" v="552671" />
		<tag k="waterway" v="stream" />
	</node>
	<node id="-644053" lat="60.5596166687" lon="5.69609167313">
		<tag k="name" v="Litlavatnet" />
		<tag k="natural" v="water" />
		<tag k="ssr:stedsnr" v="552663" />
	</node>
	<node id="-644052" lat="60.6980944453" lon="5.89783334072">
		<tag k="name" v="Stoatjørnane" />
		<tag k="natural" v="water" />
		<tag k="ssr:stedsnr" v="552523" />
	</node>
	<node id="-642002" lat="60.7588191177" lon="5.961899855">
		<tag k="name" v="Tuftatjørni" />
		<tag k="natural" v="water" />
		<tag k="ssr:stedsnr" v="69705" />
	</node>
	<node id="-644046" lat="60.5433361075" lon="5.80130278284">
		<tag k="name" v="Gråsidvatnet" />
		<tag k="natural" v="water" />
		<tag k="ssr:stedsnr" v="551939" />
		<tag k="water" v="lake" />
	</node>
	<node id="-641996" lat="60.531781215" lon="5.74471361565">
		<tag k="name" v="Sætratjørna" />
		<tag k="natural" v="water" />
		<tag k="ssr:stedsnr" v="67926" />
	</node>
	<node id="-641994" lat="60.6307293425" lon="5.6756440204">
		<tag k="name" v="Strupedalsvatnet" />
		<tag k="natural" v="water" />
		<tag k="ssr:stedsnr" v="67714" />
	</node>
	<node id="-644037" lat="60.5595791793" lon="5.80703565807">
		<tag k="name" v="Uragjeltjørna" />
		<tag k="natural" v="water" />
		<tag k="ssr:stedsnr" v="536624" />
	</node>
	<node id="-641985" lat="60.7456875718" lon="5.96231411328">
		<tag k="name" v="Leitestjørnane" />
		<tag k="natural" v="water" />
		<tag k="ssr:stedsnr" v="67402" />
	</node>
	<node id="-641982" lat="60.6145100254" lon="5.76465055508">
		<tag k="alt_name" v="Trappetjørnan" />
		<tag k="name" v="Trappetjørnane" />
		<tag k="natural" v="water" />
		<tag k="ssr:stedsnr" v="67540" />
		<tag k="water" v="lake" />
	</node>
	<node id="-641973" lat="60.6895364879" lon="5.77713421644">
		<tag k="name" v="Fiskeneset" />
		<tag k="natural" v="cape" />
		<tag k="ssr:stedsnr" v="45722" />
	</node>
	<node id="-641971" lat="60.690522226" lon="5.7817527759">
		<tag k="name" v="Storebekken" />
		<tag k="ssr:stedsnr" v="45716" />
		<tag k="waterway" v="stream" />
	</node>
	<node id="-641970" lat="60.6955055572" lon="5.7940472151">
		<tag k="name" v="Storebekken" />
		<tag k="ssr:stedsnr" v="45712" />
		<tag k="waterway" v="stream" />
	</node>
	<node id="-641968" lat="60.6597279062" lon="5.69647925899">
		<tag k="name" v="Timberneset" />
		<tag k="natural" v="cape" />
		<tag k="ssr:stedsnr" v="227895" />
	</node>
	<node id="-644014" lat="60.5369722215" lon="5.69056666784">
		<tag k="name" v="Furstallen" />
		<tag k="ssr:stedsnr" v="530366" />
		<tag k="waterway" v="stream" />
	</node>
	<node id="-641958" lat="60.7911999995" lon="5.98986945192">
		<tag k="name" v="Brimtøbekken" />
		<tag k="ssr:stedsnr" v="227575" />
		<tag k="waterway" v="stream" />
	</node>
	<node id="-643999" lat="60.7892361092" lon="5.82831110294">
		<tag k="name" v="Hornefjelsvatn" />
		<tag k="natural" v="water" />
		<tag k="ssr:stedsnr" v="529661" />
		<tag k="water" v="lake" />
	</node>
	<node id="-643992" lat="60.6692749966" lon="5.82791665968">
		<tag k="name" v="Krossneset" />
		<tag k="natural" v="cape" />
		<tag k="ssr:stedsnr" v="529620" />
	</node>
	<node id="-641935" lat="60.5830349815" lon="6.01304453396">
		<tag k="name" v="Gråvatni" />
		<tag k="natural" v="water" />
		<tag k="ssr:stedsnr" v="226971" />
		<tag k="water" v="lake" />
	</node>
	<node id="-643980" lat="60.7914832755" lon="6.02814307278">
		<tag k="name" v="Lomavatnet" />
		<tag k="natural" v="water" />
		<tag k="ssr:stedsnr" v="433740" />
	</node>
	<node id="-643978" lat="60.7927216193" lon="6.09523493525">
		<tag k="name" v="Breidbekktjørni" />
		<tag k="natural" v="water" />
		<tag k="ssr:stedsnr" v="433736" />
	</node>
	<node id="-643973" lat="60.76041042" lon="5.98085720238">
		<tag k="name" v="Langetjørni" />
		<tag k="natural" v="water" />
		<tag k="ssr:stedsnr" v="433662" />
	</node>
	<node id="-643968" lat="60.5356333318" lon="6.02970276897">
		<tag k="name" v="Loddviktjørni" />
		<tag k="natural" v="water" />
		<tag k="ssr:stedsnr" v="431780" />
	</node>
	<node id="-643956" lat="60.5428274329" lon="5.7481408482">
		<tag k="name" v="Tjørnane" />
		<tag k="natural" v="water" />
		<tag k="ssr:stedsnr" v="431946" />
		<tag k="water" v="lake" />
	</node>
	<node id="-643954" lat="60.5829583319" lon="6.02415000459">
		<tag k="name" v="Trekanttjørni" />
		<tag k="natural" v="water" />
		<tag k="ssr:stedsnr" v="431876" />
	</node>
	<node id="-641905" lat="60.5770111128" lon="5.92795832449">
		<tag k="name" v="Merkesgroi" />
		<tag k="ssr:stedsnr" v="226135" />
		<tag k="waterway" v="stream" />
	</node>
	<node id="-643952" lat="60.5638666688" lon="5.88561388102">
		<tag k="name" v="Raudskreddalselvi" />
		<tag k="ssr:stedsnr" v="431859" />
		<tag k="waterway" v="stream" />
	</node>
	<node id="-643949" lat="60.6934636018" lon="5.846209425">
		<tag k="name" v="Gavvatnet" />
		<tag k="natural" v="water" />
		<tag k="ssr:stedsnr" v="431377" />
		<tag k="water" v="lake" />
	</node>
	<node id="-641898" lat="60.7716166672" lon="5.95138888604">
		<tag k="name" v="Botnaelvi" />
		<tag k="ssr:stedsnr" v="8745" />
		<tag k="waterway" v="stream" />
	</node>
	<node id="-641893" lat="60.5491100814" lon="5.79391002312">
		<tag k="alt_name" v="Litlvatnet" />
		<tag k="name" v="Litlavatnet" />
		<tag k="natural" v="water" />
		<tag k="ssr:stedsnr" v="6894" />
	</node>
	<node id="-641890" lat="60.553719119" lon="5.62843865012">
		<tag k="name" v="Svarttjørna" />
		<tag k="natural" v="water" />
		<tag k="ssr:stedsnr" v="6902" />
	</node>
	<node id="-641886" lat="60.5568809809" lon="6.05484185198">
		<tag k="name" v="Kupevatnet" />
		<tag k="natural" v="water" />
		<tag k="ssr:stedsnr" v="6831" />
	</node>
	<node id="-641883" lat="60.5472786206" lon="5.92757735659">
		<tag k="alt_name" v="Klingatjørni" />
		<tag k="name" v="Klingetjørni" />
		<tag k="natural" v="water" />
		<tag k="ssr:stedsnr" v="6822" />
	</node>
	<node id="-643930" lat="60.7399663226" lon="5.77325859576">
		<tag k="name" v="Skartjørnæ" />
		<tag k="natural" v="water" />
		<tag k="ssr:stedsnr" v="409799" />
	</node>
	<node id="-643926" lat="60.637152776" lon="5.80843889812">
		<tag k="name" v="Geitabotselva" />
		<tag k="ssr:stedsnr" v="409752" />
		<tag k="waterway" v="river" />
	</node>
	<node id="-643924" lat="60.6921833337" lon="5.77271945302">
		<tag k="name" v="Osen" />
		<tag k="natural" v="bay" />
		<tag k="ssr:stedsnr" v="409714" />
	</node>
	<node id="-643915" lat="60.7818638867" lon="5.93889166202">
		<tag k="name" v="Våtholmen" />
		<tag k="place" v="islet" />
		<tag k="ssr:stedsnr" v="409568" />
	</node>
	<node id="-643905" lat="60.5435194414" lon="5.62647776971">
		<tag k="name" v="Skjære" />
		<tag k="place" v="islet" />
		<tag k="ssr:stedsnr" v="409195" />
	</node>
	<node id="-643899" lat="60.6046944469" lon="5.71458054682">
		<tag k="name" v="Røyrbekken" />
		<tag k="ssr:stedsnr" v="409070" />
		<tag k="waterway" v="stream" />
	</node>
	<node id="-643898" lat="60.6007999961" lon="5.7119555617">
		<tag k="name" v="Yste Askanesbekken" />
		<tag k="ssr:stedsnr" v="409069" />
		<tag k="waterway" v="stream" />
	</node>
	<node id="-643891" lat="60.4977550949" lon="5.86524973216">
		<tag k="name" v="Framnes" />
		<tag k="natural" v="cape" />
		<tag k="ssr:stedsnr" v="409028" />
	</node>
	<node id="-643889" lat="60.4971536992" lon="5.86612369196">
		<tag k="name" v="Rydlandpollen" />
		<tag k="natural" v="bay" />
		<tag k="ssr:stedsnr" v="409023" />
	</node>
	<node id="-643887" lat="60.6655912132" lon="5.69054311164">
		<tag k="name" v="Yletjørn" />
		<tag k="natural" v="water" />
		<tag k="ssr:stedsnr" v="408955" />
	</node>
	<node id="-643886" lat="60.6655054513" lon="5.68562628461">
		<tag k="name" v="Store Trolshovetjørn" />
		<tag k="natural" v="water" />
		<tag k="ssr:stedsnr" v="408954" />
	</node>
	<node id="-643867" lat="60.6853972186" lon="5.78375555475">
		<tag k="name" v="Lauvikja" />
		<tag k="natural" v="bay" />
		<tag k="ssr:stedsnr" v="408756" />
	</node>
	<node id="-643851" lat="60.7961202648" lon="6.12974478949">
		<tag k="name" v="Hjellatjørni" />
		<tag k="natural" v="water" />
		<tag k="ssr:stedsnr" v="372738" />
	</node>
	<node id="-643847" lat="60.7763527808" lon="5.93678888389">
		<tag k="name" v="Furneslibekken" />
		<tag k="ssr:stedsnr" v="372719" />
		<tag k="waterway" v="stream" />
	</node>
	<node id="-643843" lat="60.7962111129" lon="5.98447499626">
		<tag k="name" v="Skorsdalselvi" />
		<tag k="ssr:stedsnr" v="372201" />
		<tag k="waterway" v="stream" />
	</node>
	<node id="-643838" lat="60.5477672756" lon="5.76704363457">
		<tag k="name" v="Botnavatnet" />
		<tag k="natural" v="water" />
		<tag k="ssr:stedsnr" v="370893" />
	</node>
	<node id="-643837" lat="60.5382055533" lon="5.63739166607">
		<tag k="name" v="Gåstjørna" />
		<tag k="natural" v="water" />
		<tag k="ssr:stedsnr" v="370892" />
	</node>
	<node id="-643836" lat="60.5670194475" lon="6.01176110643">
		<tag k="name" v="Geitabottgrovi" />
		<tag k="ssr:stedsnr" v="370873" />
		<tag k="waterway" v="stream" />
	</node>
	<node id="-643835" lat="60.580636115" lon="6.02164166784">
		<tag k="alt_name" v="Gråvatni, østre" />
		<tag k="name" v="Austre Gråvatni" />
		<tag k="natural" v="water" />
		<tag k="ssr:stedsnr" v="370870" />
		<tag k="water" v="lake" />
	</node>
	<node id="-643834" lat="60.5759394157" lon="6.05271712431">
		<tag k="name" v="Skarsvatnet" />
		<tag k="natural" v="water" />
		<tag k="ssr:stedsnr" v="370868" />
	</node>
	<node id="-643826" lat="60.5177416664" lon="5.88708610673">
		<tag k="name" v="Flataelvi" />
		<tag k="ssr:stedsnr" v="370793" />
		<tag k="waterway" v="stream" />
	</node>
	<node id="-643825" lat="60.5351909699" lon="6.06836505322">
		<tag k="name" v="Neretjørni" />
		<tag k="natural" v="water" />
		<tag k="ssr:stedsnr" v="370781" />
	</node>
	<node id="-643824" lat="60.5359888865" lon="6.07097777787">
		<tag k="name" v="Holmane" />
		<tag k="place" v="islet" />
		<tag k="ssr:stedsnr" v="370777" />
	</node>
	<node id="-643819" lat="60.6435777609" lon="5.71307630039">
		<tag k="name" v="Sjuskartjørna" />
		<tag k="natural" v="water" />
		<tag k="ssr:stedsnr" v="370702" />
	</node>
	<node id="-643813" lat="60.6645184246" lon="5.66652338523">
		<tag k="name" v="Surratjørna" />
		<tag k="natural" v="water" />
		<tag k="ssr:stedsnr" v="370636" />
	</node>
	<node id="-643801" lat="60.6144100005" lon="5.78062204772">
		<tag k="alt_name" v="Krokavatnet, nedre;Krokavatnet" />
		<tag k="name" v="Nedra Krokavatnet" />
		<tag k="natural" v="water" />
		<tag k="ssr:stedsnr" v="370551" />
	</node>
	<node id="-643798" lat="60.7470495107" lon="6.01467298804">
		<tag k="name" v="Kvanngrøvatni" />
		<tag k="natural" v="water" />
		<tag k="ssr:stedsnr" v="370437" />
		<tag k="water" v="lake" />
	</node>
	<node id="-643796" lat="60.6949862393" lon="5.77107112303">
		<tag k="name" v="Holevatnet" />
		<tag k="natural" v="water" />
		<tag k="ssr:stedsnr" v="370397" />
	</node>
	<node id="-643787" lat="60.4499222179" lon="5.72034999965">
		<tag k="name" v="Djupedalselva" />
		<tag k="ssr:stedsnr" v="369015" />
		<tag k="waterway" v="stream" />
	</node>
	<node id="-643780" lat="60.6377457024" lon="5.67973579791">
		<tag k="name" v="Mjølketjørn" />
		<tag k="natural" v="water" />
		<tag k="ssr:stedsnr" v="348818" />
	</node>
	<node id="-643778" lat="60.592013891" lon="5.71477221993">
		<tag k="name" v="Hamrabekken" />
		<tag k="ssr:stedsnr" v="348878" />
		<tag k="waterway" v="stream" />
	</node>
	<node id="-642507" lat="60.7893255348" lon="5.97905812477">
		<tag k="name" v="Svartevatn" />
		<tag k="natural" v="water" />
		<tag k="ssr:stedsnr" v="469612" />
		<tag k="water" v="lake" />
	</node>
	<node id="-643776" lat="60.7049611094" lon="5.74749445267">
		<tag k="name" v="Kjelabekken" />
		<tag k="ssr:stedsnr" v="348684" />
		<tag k="waterway" v="stream" />
	</node>
	<node id="-642163" lat="60.5543805587" lon="5.96452499993">
		<tag k="name" v="Øyadalselvi" />
		<tag k="ssr:stedsnr" v="287282" />
		<tag k="waterway" v="river" />
	</node>
	<node id="-643755" lat="60.7613277769" lon="5.81713889709">
		<tag k="name" v="Kvennabekken" />
		<tag k="ssr:stedsnr" v="347685" />
		<tag k="waterway" v="stream" />
	</node>
	<node id="-643754" lat="60.7631949862" lon="5.82032913529">
		<tag k="name" v="Eikemovatnet" />
		<tag k="natural" v="water" />
		<tag k="ssr:stedsnr" v="347684" />
		<tag k="water" v="lake" />
	</node>
	<node id="-643749" lat="60.7806555519" lon="5.91681667493">
		<tag k="name" v="Bekkene" />
		<tag k="ssr:stedsnr" v="347657" />
		<tag k="waterway" v="stream" />
	</node>
	<node id="-643742" lat="60.5335944442" lon="6.00548610571">
		<tag k="name" v="Grønøyane" />
		<tag k="place" v="island" />
		<tag k="ssr:stedsnr" v="347089" />
	</node>
	<node id="-643736" lat="60.5895877869" lon="5.94089546691">
		<tag k="name" v="Gufsekrossvatnet" />
		<tag k="natural" v="water" />
		<tag k="ssr:stedsnr" v="324620" />
		<tag k="water" v="lake" />
	</node>
	<node id="-643734" lat="60.7778787772" lon="5.83689600635">
		<tag k="name" v="Rekaviki" />
		<tag k="natural" v="bay" />
		<tag k="ssr:stedsnr" v="312437" />
	</node>
	<node id="-643729" lat="60.7824814559" lon="5.91955068852">
		<tag k="name" v="Nesvatnet" />
		<tag k="natural" v="water" />
		<tag k="ssr:stedsnr" v="311797" />
	</node>
	<node id="-643728" lat="60.7835128642" lon="6.11965473012">
		<tag k="name" v="Mjelkeviki" />
		<tag k="natural" v="bay" />
		<tag k="ssr:stedsnr" v="311783" />
	</node>
	<node id="-643727" lat="60.7890320346" lon="6.13082070508">
		<tag k="name" v="Bergavatnet" />
		<tag k="natural" v="water" />
		<tag k="ssr:stedsnr" v="311779" />
		<tag k="water" v="lake" />
	</node>
	<node id="-643724" lat="60.7832611155" lon="5.83153889177">
		<tag k="name" v="Setsteinelvi" />
		<tag k="ssr:stedsnr" v="311492" />
		<tag k="waterway" v="stream" />
	</node>
	<node id="-643717" lat="60.5705564119" lon="6.02981795242">
		<tag k="name" v="Djupetjørni" />
>>>>>>> e1d4bc35ff8a6074a6f2e91616a996b547c36f15
		<tag k="natural" v="water" />
		<tag k="ssr:stedsnr" v="310827" />
	</node>
<<<<<<< HEAD
	<node lat="60.55936286452014" lon="5.595000191191241" id="-27975">
		<tag k="name" v="Storavatnet" />
		<tag k="natural" v="water" />
		<tag k="ssr:stedsnr" v="67620" />
		<tag k="water" v="lake" />
	</node>
	<node lat="60.61451002535815" lon="5.764650555081421" id="-27977">
		<tag k="alt_name" v="Trappetjørnan" />
		<tag k="name" v="Trappetjørnane" />
		<tag k="natural" v="water" />
		<tag k="ssr:stedsnr" v="67540" />
		<tag k="water" v="lake" />
	</node>
	<node lat="60.594602780722816" lon="5.7866222183166665" id="-27981">
		<tag k="name" v="Brattreimelva" />
		<tag k="ssr:stedsnr" v="67578" />
		<tag k="waterway" v="stream" />
	</node>
	<node lat="60.57787700734865" lon="5.874637202986788" id="-27987">
		<tag k="name" v="Storfossdammen" />
		<tag k="natural" v="water" />
		<tag k="ssr:stedsnr" v="67870" />
		<tag k="water" v="lake" />
	</node>
	<node lat="60.5317812150266" lon="5.744713615654837" id="-27989">
		<tag k="name" v="Sætratjørna" />
		<tag k="natural" v="water" />
		<tag k="ssr:stedsnr" v="67926" />
	</node>
	<node lat="60.83662102574967" lon="6.311372270199611" id="-27996">
		<tag k="name" v="Sigvatnet" />
		<tag k="natural" v="water" />
		<tag k="ssr:stedsnr" v="69591" />
	</node>
	<node lat="60.808866671001944" lon="6.177869450579943" id="-28002">
		<tag k="name" v="Kvitestakkselvi" />
		<tag k="ssr:stedsnr" v="105628" />
		<tag k="waterway" v="river" />
	</node>
	<node lat="60.83977500420479" lon="6.175525003775731" id="-28005">
		<tag k="name" v="Langefossen" />
		<tag k="natural" v="waterfall" />
		<tag k="ssr:stedsnr" v="105620" />
	</node>
	<node lat="60.79479166502259" lon="5.829225008791359" id="-28013">
		<tag k="name" v="Hellerdalstjørni" />
		<tag k="natural" v="water" />
		<tag k="ssr:stedsnr" v="105654" />
	</node>
	<node lat="60.66816933740488" lon="5.688638755687286" id="-28017">
		<tag k="name" v="Trolshovetjørn" />
		<tag k="natural" v="water" />
		<tag k="ssr:stedsnr" v="105927" />
	</node>
	<node lat="60.56228333281662" lon="6.008044448500409" id="-28020">
		<tag k="name" v="Fossen" />
		<tag k="natural" v="waterfall" />
		<tag k="ssr:stedsnr" v="105950" />
	</node>
	<node lat="60.575878294635146" lon="5.995414468635003" id="-28023">
		<tag k="name" v="Hattatjørni" />
		<tag k="natural" v="water" />
		<tag k="ssr:stedsnr" v="105965" />
	</node>
	<node lat="60.71777778001027" lon="5.701608334195367" id="-28040">
		<tag k="name" v="Idlånæ" />
		<tag k="ssr:stedsnr" v="106691" />
		<tag k="waterway" v="stream" />
	</node>
	<node lat="60.631122219252255" lon="5.717374992364757" id="-28047">
		<tag k="name" v="Håleelva" />
		<tag k="ssr:stedsnr" v="106823" />
		<tag k="waterway" v="river" />
	</node>
	<node lat="60.678622221265236" lon="5.664469440386133" id="-28056">
		<tag k="name" v="Kjellegotbekken" />
		<tag k="ssr:stedsnr" v="106884" />
		<tag k="waterway" v="stream" />
	</node>
	<node lat="60.49392186014771" lon="5.837612377013904" id="-28060">
		<tag k="name" v="Buhellervatnet" />
		<tag k="natural" v="water" />
		<tag k="ssr:stedsnr" v="126962" />
	</node>
	<node lat="60.73359384416193" lon="5.845479758541535" id="-28062">
		<tag k="alt_name" v="Leirovatnet" />
		<tag k="name" v="Leirevatnet" />
		<tag k="natural" v="water" />
		<tag k="ssr:stedsnr" v="127416" />
	</node>
	<node lat="60.498563861563646" lon="5.861333226192465" id="-28065">
		<tag k="name" v="Flatavatnet" />
		<tag k="natural" v="water" />
		<tag k="ssr:stedsnr" v="127363" />
		<tag k="water" v="lake" />
	</node>
	<node lat="60.70161527068537" lon="5.825115442697596" id="-28067">
		<tag k="name" v="Stølsvatna" />
		<tag k="natural" v="water" />
		<tag k="ssr:stedsnr" v="127374" />
		<tag k="water" v="lake" />
	</node>
	<node lat="60.53518312219043" lon="5.878054061397742" id="-28082">
		<tag k="name" v="Sauadalsvatni" />
		<tag k="natural" v="water" />
		<tag k="ssr:stedsnr" v="127831" />
		<tag k="water" v="lake" />
	</node>
	<node lat="60.50872099371729" lon="5.772856607256086" id="-28083">
		<tag k="name" v="Fugletjørna" />
		<tag k="natural" v="water" />
		<tag k="ssr:stedsnr" v="127987" />
	</node>
	<node lat="60.807500001527046" lon="5.949133340137946" id="-28087">
		<tag k="name" v="Storavatnet" />
		<tag k="natural" v="water" />
		<tag k="ssr:stedsnr" v="129259" />
		<tag k="water" v="lake" />
	</node>
	<node lat="60.811996803968384" lon="5.9836274762126465" id="-28088">
		<tag k="name" v="Fantabotnsvatnet" />
		<tag k="natural" v="water" />
		<tag k="ssr:stedsnr" v="129260" />
	</node>
	<node lat="60.8175694467201" lon="6.102466660218612" id="-28090">
		<tag k="name" v="Stølstjørni" />
		<tag k="natural" v="water" />
		<tag k="ssr:stedsnr" v="129268" />
	</node>
	<node lat="60.67776944431176" lon="5.785325004502337" id="-28094">
		<tag k="name" v="Halsen" />
		<tag k="natural" v="cape" />
		<tag k="ssr:stedsnr" v="165790" />
	</node>
	<node lat="60.56642500383067" lon="5.6204222187284145" id="-28098">
		<tag k="name" v="Pyttåa" />
		<tag k="ssr:stedsnr" v="165249" />
		<tag k="waterway" v="stream" />
	</node>
	<node lat="60.76206110776032" lon="5.821694452866307" id="-28102">
		<tag k="name" v="Høsefossen" />
		<tag k="natural" v="waterfall" />
		<tag k="ssr:stedsnr" v="165702" />
	</node>
	<node lat="60.55300833236561" lon="5.6602527804753215" id="-28112">
		<tag k="name" v="Vika" />
		<tag k="natural" v="bay" />
		<tag k="ssr:stedsnr" v="166189" />
	</node>
	<node lat="60.549650000513104" lon="5.656902782438904" id="-28113">
		<tag k="name" v="Slettevika" />
		<tag k="natural" v="bay" />
		<tag k="ssr:stedsnr" v="166190" />
	</node>
	<node lat="60.50996209273331" lon="5.807769926961758" id="-28122">
		<tag k="name" v="Deilatjørna" />
		<tag k="natural" v="water" />
		<tag k="ssr:stedsnr" v="166229" />
	</node>
	<node lat="60.69402663501814" lon="5.771819044013238" id="-28132">
		<tag k="name" v="Nestavatnet" />
		<tag k="natural" v="water" />
		<tag k="ssr:stedsnr" v="166599" />
		<tag k="water" v="lake" />
	</node>
	<node lat="60.652464983372184" lon="5.711690122313941" id="-28139">
		<tag k="name" v="Kalviktjørn" />
		<tag k="natural" v="water" />
		<tag k="ssr:stedsnr" v="166771" />
	</node>
	<node lat="60.53683889201928" lon="6.056319452063049" id="-28143">
		<tag k="name" v="Løkjagroi" />
		<tag k="ssr:stedsnr" v="166895" />
		<tag k="waterway" v="river" />
	</node>
	<node lat="60.56803055432726" lon="5.794061108557337" id="-28144">
		<tag k="name" v="Trolldalsbekken" />
		<tag k="ssr:stedsnr" v="166898" />
		<tag k="waterway" v="stream" />
	</node>
	<node lat="60.67464962812621" lon="5.70123826915071" id="-28171">
		<tag k="name" v="Åretjørna" />
		<tag k="natural" v="water" />
		<tag k="ssr:stedsnr" v="188341" />
	</node>
	<node lat="60.745356929224684" lon="6.059931353034894" id="-28175">
		<tag k="name" v="Byvatnet" />
		<tag k="natural" v="water" />
		<tag k="ssr:stedsnr" v="188431" />
		<tag k="water" v="lake" />
	</node>
	<node lat="60.639196025447546" lon="5.785586683991949" id="-28178">
		<tag k="name" v="Drivedalstjørnane" />
		<tag k="natural" v="water" />
		<tag k="ssr:stedsnr" v="188718" />
		<tag k="water" v="lake" />
	</node>
	<node lat="60.63516666941053" lon="5.749486117154449" id="-28181">
		<tag k="name" v="Kvåstadelva" />
		<tag k="ssr:stedsnr" v="188733" />
		<tag k="waterway" v="stream" />
	</node>
	<node lat="60.51196388926588" lon="5.739702774917662" id="-28185">
		<tag k="alt_name" v="Fossedalselva" />
		<tag k="name" v="Ytråna" />
		<tag k="ssr:stedsnr" v="188992" />
		<tag k="waterway" v="stream" />
	</node>
	<node lat="60.585766665170695" lon="5.913661117596427" id="-28186">
		<tag k="name" v="Giljaelvi" />
		<tag k="ssr:stedsnr" v="188849" />
		<tag k="waterway" v="stream" />
	</node>
	<node lat="60.56250833295812" lon="5.931338883949551" id="-28187">
		<tag k="name" v="Kvernagrovi" />
		<tag k="ssr:stedsnr" v="188851" />
		<tag k="waterway" v="stream" />
	</node>
	<node lat="60.85466740750547" lon="6.2484521046975585" id="-28197">
		<tag k="name" v="Urdedalstjørni" />
		<tag k="natural" v="water" />
		<tag k="ssr:stedsnr" v="190585" />
	</node>
	<node lat="60.77001388968094" lon="5.884161115290354" id="-28201">
		<tag k="name" v="Middagssvodi" />
		<tag k="ssr:stedsnr" v="190726" />
		<tag k="waterway" v="stream" />
	</node>
	<node lat="60.81632777792663" lon="6.00620278514969" id="-28204">
		<tag k="name" v="Gavlavatnet" />
		<tag k="natural" v="water" />
		<tag k="ssr:stedsnr" v="191182" />
	</node>
	<node lat="60.858173149216114" lon="6.088295119855117" id="-28208">
		<tag k="name" v="Hornavatnet" />
		<tag k="natural" v="water" />
		<tag k="ssr:stedsnr" v="191146" />
		<tag k="water" v="lake" />
	</node>
	<node lat="60.57701111277523" lon="5.927958324489055" id="-28213">
		<tag k="name" v="Merkesgroi" />
		<tag k="ssr:stedsnr" v="226135" />
		<tag k="waterway" v="stream" />
	</node>
	<node lat="60.791199999477406" lon="5.989869451921278" id="-28247">
		<tag k="name" v="Brimtøbekken" />
		<tag k="ssr:stedsnr" v="227575" />
		<tag k="waterway" v="stream" />
	</node>
	<node lat="60.667835402290265" lon="5.750905944649638" id="-28255">
		<tag k="name" v="Tjødnane" />
		<tag k="natural" v="water" />
		<tag k="ssr:stedsnr" v="227858" />
		<tag k="water" v="lake" />
	</node>
	<node lat="60.55788055349061" lon="5.671255564821051" id="-28260">
		<tag k="name" v="Tverrbekken" />
		<tag k="ssr:stedsnr" v="286259" />
		<tag k="waterway" v="stream" />
	</node>
	<node lat="60.44644451057395" lon="5.686840868567056" id="-28262">
		<tag k="name" v="Kattatjørna" />
		<tag k="natural" v="water" />
		<tag k="ssr:stedsnr" v="287390" />
		<tag k="water" v="pond" />
	</node>
	<node lat="60.77243332967964" lon="6.0297055544883165" id="-28270">
		<tag k="name" v="Kvanngrobekken" />
		<tag k="ssr:stedsnr" v="287628" />
		<tag k="waterway" v="stream" />
	</node>
	<node lat="60.830275003051995" lon="6.200994450113217" id="-28273">
		<tag k="name" v="Geitaneset" />
		<tag k="natural" v="cape" />
		<tag k="ssr:stedsnr" v="287661" />
	</node>
	<node lat="60.67356388817479" lon="5.724555555346509" id="-28277">
		<tag k="name" v="Blaurtjødna" />
		<tag k="natural" v="water" />
		<tag k="ssr:stedsnr" v="287675" />
	</node>
	<node lat="60.6850972194959" lon="5.78376667390961" id="-28278">
		<tag k="name" v="Langeneset" />
		<tag k="natural" v="cape" />
		<tag k="ssr:stedsnr" v="287765" />
	</node>
	<node lat="60.61001944865279" lon="5.715361116611391" id="-28292">
		<tag k="name" v="Blombekken" />
		<tag k="ssr:stedsnr" v="288070" />
		<tag k="waterway" v="stream" />
	</node>
	<node lat="60.54288610723552" lon="5.627855552508459" id="-28296">
		<tag k="name" v="Setevik" />
		<tag k="natural" v="bay" />
		<tag k="ssr:stedsnr" v="288170" />
	</node>
	<node lat="60.653086115294734" lon="5.778894438440403" id="-28303">
		<tag k="name" v="Yste Ulevikelva" />
		<tag k="ssr:stedsnr" v="288754" />
		<tag k="waterway" v="river" />
	</node>
	<node lat="60.670725000994736" lon="5.703350003256903" id="-28307">
		<tag k="name" v="Åna" />
		<tag k="ssr:stedsnr" v="288851" />
		<tag k="waterway" v="stream" />
	</node>
	<node lat="60.66889677974499" lon="5.717270948102695" id="-28308">
		<tag k="name" v="Stemmetjørn" />
		<tag k="natural" v="water" />
		<tag k="ssr:stedsnr" v="288856" />
	</node>
	<node lat="60.613597220180836" lon="5.8791222265636485" id="-28312">
		<tag k="name" v="Djupevikelva" />
		<tag k="ssr:stedsnr" v="309198" />
		<tag k="waterway" v="river" />
	</node>
	<node lat="60.65351471674098" lon="5.6753022677762806" id="-28326">
		<tag k="name" v="Svartavatnet" />
		<tag k="natural" v="water" />
		<tag k="ssr:stedsnr" v="309667" />
	</node>
	<node lat="60.581019448726146" lon="6.076738896212211" id="-28329">
		<tag k="name" v="Lonene" />
		<tag k="place" v="locality" />
		<tag k="ssr:stedsnr" v="309857" />
	</node>
	<node lat="60.547092643913984" lon="5.796592625070611" id="-28333">
		<tag k="name" v="Holmavatnet" />
		<tag k="natural" v="water" />
		<tag k="ssr:stedsnr" v="309936" />
	</node>
	<node lat="60.514144022843574" lon="5.764175671583803" id="-28335">
		<tag k="name" v="Skredabottjørna" />
		<tag k="natural" v="water" />
		<tag k="ssr:stedsnr" v="309943" />
	</node>
	<node lat="60.782481455897006" lon="5.919550688523131" id="-28347">
		<tag k="name" v="Nesvatnet" />
		<tag k="natural" v="water" />
		<tag k="ssr:stedsnr" v="311797" />
	</node>
	<node lat="60.77787877720045" lon="5.836896006348422" id="-28351">
		<tag k="name" v="Rekaviki" />
		<tag k="natural" v="bay" />
		<tag k="ssr:stedsnr" v="312437" />
	</node>
	<node lat="60.845355553767554" lon="6.260405562414453" id="-28352">
		<tag k="name" v="Holmen" />
		<tag k="natural" v="cape" />
		<tag k="ssr:stedsnr" v="312552" />
	</node>
	<node lat="60.860038002088075" lon="6.225106115575646" id="-28354">
		<tag k="name" v="Kvanndalsvatnet" />
		<tag k="natural" v="water" />
		<tag k="ssr:stedsnr" v="312578" />
		<tag k="water" v="lake" />
	</node>
	<node lat="60.53359444423437" lon="6.005486105711295" id="-28362">
		<tag k="name" v="Grønøyane" />
		<tag k="place" v="island" />
		<tag k="ssr:stedsnr" v="347089" />
	</node>
	<node lat="60.79799722210914" lon="5.918291675419345" id="-28367">
		<tag k="name" v="Jottebekken" />
		<tag k="ssr:stedsnr" v="347628" />
		<tag k="waterway" v="stream" />
	</node>
	<node lat="60.76319498620897" lon="5.820329135287364" id="-28379">
		<tag k="name" v="Eikemovatnet" />
		<tag k="natural" v="water" />
		<tag k="ssr:stedsnr" v="347684" />
		<tag k="water" v="lake" />
	</node>
	<node lat="60.76132777686686" lon="5.8171388970941695" id="-28380">
		<tag k="name" v="Kvennabekken" />
		<tag k="ssr:stedsnr" v="347685" />
		<tag k="waterway" v="stream" />
	</node>
	<node lat="60.704961109434706" lon="5.747494452669686" id="-28392">
		<tag k="name" v="Kjelabekken" />
		<tag k="ssr:stedsnr" v="348684" />
		<tag k="waterway" v="stream" />
	</node>
	<node lat="60.637745702407926" lon="5.679735797910887" id="-28396">
		<tag k="name" v="Mjølketjørn" />
		<tag k="natural" v="water" />
		<tag k="ssr:stedsnr" v="348818" />
	</node>
	<node lat="60.694986239308804" lon="5.771071123027695" id="-28408">
		<tag k="name" v="Holevatnet" />
		<tag k="natural" v="water" />
		<tag k="ssr:stedsnr" v="370397" />
	</node>
	<node lat="60.74704951072447" lon="6.014672988035149" id="-28415">
		<tag k="name" v="Kvanngrøvatni" />
		<tag k="natural" v="water" />
		<tag k="ssr:stedsnr" v="370437" />
		<tag k="water" v="lake" />
	</node>
	<node lat="60.614410000486856" lon="5.780622047724798" id="-28417">
		<tag k="alt_name" v="Krokavatnet, nedre;Krokavatnet" />
		<tag k="name" v="Nedra Krokavatnet" />
		<tag k="natural" v="water" />
		<tag k="ssr:stedsnr" v="370551" />
	</node>
	<node lat="60.6645184246289" lon="5.666523385227667" id="-28425">
		<tag k="name" v="Surratjørna" />
		<tag k="natural" v="water" />
		<tag k="ssr:stedsnr" v="370636" />
	</node>
	<node lat="60.53598888648382" lon="6.070977777873372" id="-28428">
		<tag k="name" v="Holmane" />
		<tag k="place" v="islet" />
		<tag k="ssr:stedsnr" v="370777" />
	</node>
	<node lat="60.53519096985819" lon="6.068365053222037" id="-28429">
		<tag k="name" v="Neretjørni" />
		<tag k="natural" v="water" />
		<tag k="ssr:stedsnr" v="370781" />
	</node>
	<node lat="60.51774166635488" lon="5.887086106729113" id="-28430">
		<tag k="name" v="Flataelvi" />
		<tag k="ssr:stedsnr" v="370793" />
		<tag k="waterway" v="stream" />
	</node>
	<node lat="60.58063611499067" lon="6.02164166784472" id="-28432">
		<tag k="alt_name" v="Gråvatni, østre" />
		<tag k="loc_name" v="Austre Gråvatnet;Øvsta Gråvatnet;Øvre Gråvatnet" />
		<tag k="name" v="Austre Gråvatni" />
		<tag k="natural" v="water" />
		<tag k="ssr:stedsnr" v="370870" />
		<tag k="water" v="lake" />
	</node>
	<node lat="60.567019447493934" lon="6.01176110643382" id="-28433">
		<tag k="name" v="Geitabottgrovi" />
		<tag k="ssr:stedsnr" v="370873" />
		<tag k="waterway" v="stream" />
	</node>
	<node lat="60.538205553308465" lon="5.637391666066478" id="-28434">
		<tag k="name" v="Gåstjørna" />
		<tag k="natural" v="water" />
		<tag k="ssr:stedsnr" v="370892" />
	</node>
	<node lat="60.54776727557802" lon="5.767043634567411" id="-28435">
		<tag k="name" v="Botnavatnet" />
		<tag k="natural" v="water" />
		<tag k="ssr:stedsnr" v="370893" />
	</node>
	<node lat="60.77635278079582" lon="5.936788883887835" id="-28444">
		<tag k="name" v="Furneslibekken" />
		<tag k="ssr:stedsnr" v="372719" />
		<tag k="waterway" v="stream" />
	</node>
	<node lat="60.79612026479958" lon="6.129744789485176" id="-28448">
		<tag k="name" v="Hjellatjørni" />
		<tag k="natural" v="water" />
		<tag k="ssr:stedsnr" v="372738" />
	</node>
	<node lat="60.66550545132518" lon="5.685626284610815" id="-28460">
		<tag k="name" v="Store Trolshovetjørn" />
		<tag k="natural" v="water" />
		<tag k="ssr:stedsnr" v="408954" />
	</node>
	<node lat="60.66559121315169" lon="5.690543111644925" id="-28461">
		<tag k="name" v="Yletjørn" />
		<tag k="natural" v="water" />
		<tag k="ssr:stedsnr" v="408955" />
	</node>
	<node lat="60.68539721859657" lon="5.783755554747174" id="-28470">
		<tag k="name" v="Lauvikja" />
		<tag k="natural" v="bay" />
		<tag k="ssr:stedsnr" v="408756" />
=======
	<node id="-643699" lat="60.5141440228" lon="5.76417567158">
		<tag k="name" v="Skredabottjørna" />
		<tag k="natural" v="water" />
		<tag k="ssr:stedsnr" v="309943" />
	</node>
	<node id="-643697" lat="60.5470926439" lon="5.79659262507">
		<tag k="name" v="Holmavatnet" />
		<tag k="natural" v="water" />
		<tag k="ssr:stedsnr" v="309936" />
	</node>
	<node id="-643696" lat="60.5352644885" lon="5.80916213024">
		<tag k="name" v="Brislingabroki" />
		<tag k="natural" v="water" />
		<tag k="ssr:stedsnr" v="309916" />
	</node>
	<node id="-643690" lat="60.5810194487" lon="6.07673889621">
		<tag k="name" v="Lonene" />
		<tag k="place" v="locality" />
		<tag k="ssr:stedsnr" v="309857" />
	</node>
	<node id="-643689" lat="60.5389618276" lon="6.03479893499">
		<tag k="name" v="Småbrekkevatnet" />
		<tag k="natural" v="water" />
		<tag k="ssr:stedsnr" v="309785" />
	</node>
	<node id="-643683" lat="60.645662486" lon="5.71578412834">
		<tag k="name" v="Nipetjørna" />
		<tag k="natural" v="water" />
		<tag k="ssr:stedsnr" v="309694" />
	</node>
	<node id="-643681" lat="60.6535147167" lon="5.67530226778">
		<tag k="name" v="Svartavatnet" />
		<tag k="natural" v="water" />
		<tag k="ssr:stedsnr" v="309667" />
	</node>
	<node id="-643678" lat="60.561175299" lon="5.62231834549">
		<tag k="name" v="Kyrkjevika" />
		<tag k="natural" v="bay" />
		<tag k="ssr:stedsnr" v="309639" />
	</node>
	<node id="-643671" lat="60.7311805583" lon="5.91151943508">
		<tag k="name" v="Oksetjørni" />
		<tag k="natural" v="water" />
		<tag k="ssr:stedsnr" v="309441" />
	</node>
	<node id="-643658" lat="60.6135972202" lon="5.87912222656">
		<tag k="name" v="Djupevikelva" />
		<tag k="ssr:stedsnr" v="309198" />
		<tag k="waterway" v="river" />
	</node>
	<node id="-642145" lat="60.7769694409" lon="5.93728610377">
		<tag k="name" v="Mystegroi" />
		<tag k="ssr:stedsnr" v="166579" />
		<tag k="waterway" v="stream" />
	</node>
	<node id="-643649" lat="60.8163277779" lon="6.00620278515">
		<tag k="name" v="Gavlavatnet" />
		<tag k="natural" v="water" />
		<tag k="ssr:stedsnr" v="191182" />
	</node>
	<node id="-643648" lat="60.8581731492" lon="6.08829511986">
		<tag k="name" v="Hornavatnet" />
		<tag k="natural" v="water" />
		<tag k="ssr:stedsnr" v="191146" />
		<tag k="water" v="lake" />
	</node>
	<node id="-643642" lat="60.8546674075" lon="6.2484521047">
		<tag k="name" v="Urdedalstjørni" />
		<tag k="natural" v="water" />
		<tag k="ssr:stedsnr" v="190585" />
	</node>
	<node id="-643641" lat="60.7845305563" lon="5.81455833021">
		<tag k="alt_name" v="Hodnefjellsvatnet" />
		<tag k="name" v="Hornafjellsvatnet" />
		<tag k="natural" v="water" />
		<tag k="ssr:stedsnr" v="190471" />
	</node>
	<node id="-643635" lat="60.7552633466" lon="5.83168884353">
		<tag k="name" v="Leitevotni" />
		<tag k="natural" v="water" />
		<tag k="ssr:stedsnr" v="190067" />
		<tag k="water" v="lake" />
	</node>
	<node id="-643632" lat="60.5119638893" lon="5.73970277492">
		<tag k="alt_name" v="Fossedalselva" />
		<tag k="name" v="Ytråna" />
		<tag k="ssr:stedsnr" v="188992" />
		<tag k="waterway" v="stream" />
	</node>
	<node id="-642482" lat="60.6796444447" lon="5.86068333523">
		<tag k="name" v="Illebruvatnet" />
		<tag k="natural" v="water" />
		<tag k="ssr:stedsnr" v="431025" />
	</node>
	<node id="-643617" lat="60.562508333" lon="5.93133888395">
		<tag k="name" v="Kvernagrovi" />
		<tag k="ssr:stedsnr" v="188851" />
		<tag k="waterway" v="stream" />
	</node>
	<node id="-643616" lat="60.5857666652" lon="5.9136611176">
		<tag k="name" v="Giljaelvi" />
		<tag k="ssr:stedsnr" v="188849" />
		<tag k="waterway" v="stream" />
	</node>
	<node id="-643613" lat="60.5401125774" lon="5.96731784331">
		<tag k="name" v="Skarvavatnet" />
		<tag k="natural" v="water" />
		<tag k="ssr:stedsnr" v="188811" />
	</node>
	<node id="-643606" lat="60.6351666694" lon="5.74948611715">
		<tag k="name" v="Kvåstadelva" />
		<tag k="ssr:stedsnr" v="188733" />
		<tag k="waterway" v="stream" />
	</node>
	<node id="-643603" lat="60.6391960254" lon="5.78558668399">
		<tag k="name" v="Drivedalstjørnane" />
		<tag k="natural" v="water" />
		<tag k="ssr:stedsnr" v="188718" />
		<tag k="water" v="lake" />
	</node>
	<node id="-643597" lat="60.5561416628" lon="5.67281666242">
		<tag k="name" v="Svartetjørna" />
		<tag k="natural" v="water" />
		<tag k="ssr:stedsnr" v="188654" />
	</node>
	<node id="-643595" lat="60.5928931006" lon="5.80831411656">
		<tag k="alt_name" v="Norsvatnet" />
		<tag k="name" v="Nordravatnet" />
		<tag k="natural" v="water" />
		<tag k="ssr:stedsnr" v="188603" />
	</node>
	<node id="-643592" lat="60.6036577795" lon="5.75769437021">
		<tag k="name" v="Fyletjørna" />
		<tag k="natural" v="water" />
		<tag k="ssr:stedsnr" v="188573" />
	</node>
	<node id="-643589" lat="60.7453569292" lon="6.05993135303">
		<tag k="name" v="Byvatnet" />
		<tag k="natural" v="water" />
		<tag k="ssr:stedsnr" v="188431" />
		<tag k="water" v="lake" />
	</node>
	<node id="-643583" lat="60.4914581285" lon="5.84610042026">
		<tag k="name" v="Fossavatnet" />
		<tag k="natural" v="water" />
		<tag k="ssr:stedsnr" v="188371" />
	</node>
	<node id="-643579" lat="60.6746496281" lon="5.70123826915">
		<tag k="name" v="Åretjørna" />
		<tag k="natural" v="water" />
		<tag k="ssr:stedsnr" v="188341" />
	</node>
	<node id="-643564" lat="60.4443030292" lon="5.68010726273">
		<tag k="name" v="Langatjørna" />
		<tag k="natural" v="water" />
		<tag k="ssr:stedsnr" v="187027" />
	</node>
	<node id="-643561" lat="60.5290611099" lon="5.76828333686">
		<tag k="name" v="Fossdalselva" />
		<tag k="ssr:stedsnr" v="172920" />
		<tag k="waterway" v="river" />
	</node>
	<node id="-643556" lat="60.5680305543" lon="5.79406110856">
		<tag k="name" v="Trolldalsbekken" />
		<tag k="ssr:stedsnr" v="166898" />
		<tag k="waterway" v="stream" />
	</node>
	<node id="-643555" lat="60.536838892" lon="6.05631945206">
		<tag k="name" v="Løkjagroi" />
		<tag k="ssr:stedsnr" v="166895" />
		<tag k="waterway" v="river" />
	</node>
	<node id="-643550" lat="60.7071222194" lon="5.68036389616">
		<tag k="name" v="Fossane" />
		<tag k="natural" v="waterfall" />
		<tag k="ssr:stedsnr" v="166822" />
	</node>
	<node id="-643544" lat="60.694026635" lon="5.77181904401">
		<tag k="name" v="Nestavatnet" />
		<tag k="natural" v="water" />
		<tag k="ssr:stedsnr" v="166599" />
		<tag k="water" v="lake" />
	</node>
	<node id="-643541" lat="60.7708111137" lon="6.03607777904">
		<tag k="name" v="Hjellabekken" />
		<tag k="ssr:stedsnr" v="166581" />
		<tag k="waterway" v="stream" />
	</node>
	<node id="-643532" lat="60.5099620927" lon="5.80776992696">
		<tag k="name" v="Deilatjørna" />
		<tag k="natural" v="water" />
		<tag k="ssr:stedsnr" v="166229" />
	</node>
	<node id="-643528" lat="60.5496500005" lon="5.65690278244">
		<tag k="name" v="Slettevika" />
		<tag k="natural" v="bay" />
		<tag k="ssr:stedsnr" v="166190" />
	</node>
	<node id="-643527" lat="60.5530083324" lon="5.66025278048">
		<tag k="name" v="Vika" />
		<tag k="natural" v="bay" />
		<tag k="ssr:stedsnr" v="166189" />
	</node>
	<node id="-643522" lat="60.5662444483" lon="5.60845277002">
		<tag k="name" v="Pyttavågen" />
		<tag k="natural" v="bay" />
		<tag k="ssr:stedsnr" v="166324" />
	</node>
	<node id="-643515" lat="60.6777694443" lon="5.7853250045">
		<tag k="name" v="Halsen" />
		<tag k="natural" v="cape" />
		<tag k="ssr:stedsnr" v="165790" />
	</node>
	<node id="-642554" lat="60.6242544724" lon="5.76614638899">
		<tag k="name" v="Stemmetjørna" />
		<tag k="natural" v="water" />
		<tag k="ssr:stedsnr" v="673740" />
	</node>
	<node id="-643509" lat="60.5664250038" lon="5.62042221873">
		<tag k="name" v="Pyttåa" />
		<tag k="ssr:stedsnr" v="165249" />
		<tag k="waterway" v="stream" />
	</node>
	<node id="-643505" lat="60.5405777784" lon="6.0421694395">
		<tag k="name" v="Fossen" />
		<tag k="natural" v="waterfall" />
		<tag k="ssr:stedsnr" v="165078" />
	</node>
	<node id="-643501" lat="60.8299027762" lon="6.02596944554">
		<tag k="name" v="Vardavatnet" />
		<tag k="natural" v="water" />
		<tag k="ssr:stedsnr" v="130205" />
	</node>
	<node id="-643499" lat="60.7885138929" lon="6.16125832556">
		<tag k="name" v="Monsdalselvi" />
		<tag k="ssr:stedsnr" v="129748" />
		<tag k="waterway" v="stream" />
	</node>
	<node id="-643495" lat="60.8175694467" lon="6.10246666022">
		<tag k="name" v="Stølstjørni" />
		<tag k="natural" v="water" />
		<tag k="ssr:stedsnr" v="129268" />
	</node>
	<node id="-643493" lat="60.811996804" lon="5.98362747621">
		<tag k="name" v="Fantabotnsvatnet" />
		<tag k="natural" v="water" />
		<tag k="ssr:stedsnr" v="129260" />
	</node>
	<node id="-643492" lat="60.8075000015" lon="5.94913334014">
		<tag k="name" v="Storavatnet" />
		<tag k="natural" v="water" />
		<tag k="ssr:stedsnr" v="129259" />
		<tag k="water" v="lake" />
	</node>
	<node id="-643489" lat="60.5087209937" lon="5.77285660726">
		<tag k="name" v="Fugletjørna" />
		<tag k="natural" v="water" />
		<tag k="ssr:stedsnr" v="127987" />
	</node>
	<node id="-643463" lat="60.7007333363" lon="5.82581666579">
		<tag k="name" v="Stølsvatna" />
		<tag k="natural" v="water" />
		<tag k="ssr:stedsnr" v="127374" />
	</node>
	<node id="-643461" lat="60.4985638616" lon="5.86133322619">
		<tag k="name" v="Flatavatnet" />
		<tag k="natural" v="water" />
		<tag k="ssr:stedsnr" v="127363" />
		<tag k="water" v="lake" />
	</node>
	<node id="-643457" lat="60.4939218601" lon="5.83761237701">
		<tag k="name" v="Buhellervatnet" />
		<tag k="natural" v="water" />
		<tag k="ssr:stedsnr" v="126962" />
	</node>
	<node id="-643454" lat="60.6604050382" lon="5.69642904274">
		<tag k="name" v="Naustvika" />
		<tag k="natural" v="bay" />
		<tag k="ssr:stedsnr" v="106916" />
	</node>
	<node id="-643452" lat="60.6786222213" lon="5.66446944039">
		<tag k="name" v="Kjellegotbekken" />
		<tag k="ssr:stedsnr" v="106884" />
		<tag k="waterway" v="stream" />
	</node>
	<node id="-643444" lat="60.6311222193" lon="5.71737499236">
		<tag k="name" v="Håleelva" />
		<tag k="ssr:stedsnr" v="106823" />
		<tag k="waterway" v="river" />
	</node>
	<node id="-643434" lat="60.71777778" lon="5.7016083342">
		<tag k="name" v="Idlånæ" />
		<tag k="ssr:stedsnr" v="106691" />
		<tag k="waterway" v="stream" />
	</node>
	<node id="-643406" lat="60.5069499966" lon="5.72683332963">
		<tag k="name" v="Gamle Fossen" />
		<tag k="natural" v="waterfall" />
		<tag k="ssr:stedsnr" v="106032" />
	</node>
	<node id="-643404" lat="60.5758782946" lon="5.99541446864">
		<tag k="name" v="Hattatjørni" />
		<tag k="natural" v="water" />
		<tag k="ssr:stedsnr" v="105965" />
	</node>
	<node id="-643401" lat="60.5622833328" lon="6.0080444485">
		<tag k="name" v="Fossen" />
		<tag k="natural" v="waterfall" />
		<tag k="ssr:stedsnr" v="105950" />
	</node>
	<node id="-643395" lat="60.7684222267" lon="5.84371944806">
		<tag k="name" v="Idlefossen" />
		<tag k="natural" v="waterfall" />
		<tag k="ssr:stedsnr" v="105677" />
	</node>
	<node id="-643390" lat="60.794791665" lon="5.82922500879">
		<tag k="name" v="Hellerdalstjørni" />
		<tag k="natural" v="water" />
		<tag k="ssr:stedsnr" v="105654" />
	</node>
	<node id="-643386" lat="60.808866671" lon="6.17786945058">
		<tag k="name" v="Kvitestakkselvi" />
		<tag k="ssr:stedsnr" v="105628" />
		<tag k="waterway" v="river" />
	</node>
	<node id="-643385" lat="60.8397750042" lon="6.17552500378">
		<tag k="name" v="Langefossen" />
		<tag k="natural" v="waterfall" />
		<tag k="ssr:stedsnr" v="105620" />
	</node>
	<node id="-643382" lat="60.7835944442" lon="5.98227500057">
		<tag k="name" v="Kyrebottenbekk" />
		<tag k="ssr:stedsnr" v="105589" />
		<tag k="waterway" v="stream" />
	</node>
	<node id="-643381" lat="60.7864333357" lon="5.98548611329">
		<tag k="name" v="Øyane" />
		<tag k="place" v="island" />
		<tag k="ssr:stedsnr" v="105588" />
	</node>
	<node id="-643377" lat="60.576405558" lon="5.58970833101">
		<tag k="name" v="Øykjaneset" />
		<tag k="natural" v="cape" />
		<tag k="ssr:stedsnr" v="105342" />
	</node>
	<node id="-643369" lat="60.6414638902" lon="5.83941388996">
		<tag k="name" v="Tjørnabotsvatnet" />
		<tag k="natural" v="water" />
		<tag k="ssr:stedsnr" v="81884" />
		<tag k="water" v="lake" />
	</node>
	<node id="-643364" lat="60.8366210257" lon="6.3113722702">
		<tag k="name" v="Sigvatnet" />
		<tag k="natural" v="water" />
		<tag k="ssr:stedsnr" v="69591" />
	</node>
	<node id="-643362" lat="60.8347293027" lon="6.16278072629">
		<tag k="name" v="Kjelldalstjørni" />
		<tag k="natural" v="water" />
		<tag k="ssr:stedsnr" v="69221" />
	</node>
	<node id="-642096" lat="60.6403083367" lon="5.83538334033">
		<tag k="name" v="Driva" />
		<tag k="ssr:stedsnr" v="263929" />
		<tag k="waterway" v="river" />
	</node>
	<node id="-643356" lat="60.4997555545" lon="5.79488888941">
		<tag k="name" v="Sædalselva" />
		<tag k="ssr:stedsnr" v="67987" />
		<tag k="waterway" v="stream" />
	</node>
	<node id="-643351" lat="60.529845154" lon="6.0678616249">
		<tag k="name" v="Øvretjørni" />
		<tag k="natural" v="water" />
		<tag k="ssr:stedsnr" v="67763" />
	</node>
	<node id="-643350" lat="60.5778770073" lon="5.87463720299">
		<tag k="name" v="Storfossdammen" />
		<tag k="natural" v="water" />
		<tag k="ssr:stedsnr" v="67870" />
		<tag k="water" v="lake" />
	</node>
	<node id="-643347" lat="60.6383625919" lon="5.64883736062">
		<tag k="alt_name" v="Moavatnet, nedste" />
		<tag k="name" v="Nedsta Moavatnet" />
		<tag k="natural" v="water" />
		<tag k="ssr:stedsnr" v="67697" />
	</node>
	<node id="-643341" lat="60.6184132231" lon="5.68112940601">
		<tag k="name" v="Holmatjørna" />
		<tag k="natural" v="water" />
		<tag k="ssr:stedsnr" v="67720" />
	</node>
	<node id="-643338" lat="60.5946027807" lon="5.78662221832">
		<tag k="name" v="Brattreimelva" />
		<tag k="ssr:stedsnr" v="67578" />
		<tag k="waterway" v="stream" />
	</node>
	<node id="-643334" lat="60.7307366291" lon="6.04694888255">
		<tag k="name" v="Botnatjørni" />
		<tag k="natural" v="water" />
		<tag k="ssr:stedsnr" v="67437" />
	</node>
	<node id="-643333" lat="60.7240607196" lon="5.79503995726">
		<tag k="name" v="Dalatjørna" />
		<tag k="natural" v="water" />
		<tag k="ssr:stedsnr" v="67294" />
	</node>
	<node id="-643319" lat="60.6330861073" lon="5.63239165952">
		<tag k="name" v="Vaulelva" />
		<tag k="ssr:stedsnr" v="66688" />
		<tag k="waterway" v="stream" />
	</node>
	<node id="-643308" lat="60.6579012963" lon="5.69614821952">
		<tag k="name" v="Eikjeneset" />
		<tag k="natural" v="cape" />
		<tag k="ssr:stedsnr" v="45899" />
	</node>
	<node id="-643280" lat="60.6137717418" lon="5.68142340978">
		<tag k="name" v="Svartetjørn" />
		<tag k="natural" v="water" />
		<tag k="ssr:stedsnr" v="45168" />
	</node>
	<node id="-642424" lat="60.5222161874" lon="6.00715460604">
		<tag k="alt_name" v="Storelihjellatjørnane" />
		<tag k="name" v="Hjellatjørni" />
		<tag k="natural" v="water" />
		<tag k="ssr:stedsnr" v="491750" />
	</node>
	<node id="-643259" lat="60.595174996" lon="5.74303888279">
		<tag k="name" v="Fyllåa" />
		<tag k="ssr:stedsnr" v="44699" />
		<tag k="waterway" v="stream" />
	</node>
	<node id="-643254" lat="60.7847361115" lon="5.91641944949">
		<tag k="name" v="Kalveneset" />
		<tag k="natural" v="cape" />
		<tag k="ssr:stedsnr" v="44658" />
	</node>
	<node id="-643249" lat="60.7756000001" lon="5.99547778112">
		<tag k="name" v="Skavlevekbekken" />
		<tag k="natural" v="cape" />
		<tag k="ssr:stedsnr" v="44597" />
	</node>
	<node id="-643248" lat="60.8077833339" lon="6.04444999583">
		<tag k="name" v="Haugelvi" />
		<tag k="ssr:stedsnr" v="44587" />
		<tag k="waterway" v="river" />
	</node>
	<node id="-643245" lat="60.7844666625" lon="5.93808334258">
		<tag k="name" v="Stiksholmen" />
		<tag k="place" v="islet" />
		<tag k="ssr:stedsnr" v="44570" />
	</node>
	<node id="-643240" lat="60.4373472234" lon="5.63206945163">
		<tag k="name" v="Bergsfossen" />
		<tag k="natural" v="waterfall" />
		<tag k="ssr:stedsnr" v="44344" />
	</node>
	<node id="-643212" lat="60.7876027757" lon="5.95801389095">
		<tag k="name" v="Kvinbergsbekken" />
		<tag k="ssr:stedsnr" v="8219" />
		<tag k="waterway" v="stream" />
	</node>
	<node id="-643210" lat="60.7723277778" lon="5.83965555244">
		<tag k="name" v="Krakåsfossen" />
		<tag k="natural" v="waterfall" />
		<tag k="ssr:stedsnr" v="8055" />
	</node>
	<node id="-643208" lat="60.512530559" lon="5.98995833762">
		<tag k="name" v="Storlitjørni" />
		<tag k="natural" v="water" />
		<tag k="ssr:stedsnr" v="6984" />
	</node>
	<node id="-643202" lat="60.5263590608" lon="5.98293210771">
		<tag k="name" v="Nilsatjørnane" />
		<tag k="natural" v="water" />
		<tag k="ssr:stedsnr" v="6767" />
		<tag k="water" v="lake" />
	</node>
	<node id="-643200" lat="60.649354536" lon="5.77644880894">
		<tag k="name" v="Ulevikelva" />
		<tag k="ssr:stedsnr" v="6685" />
		<tag k="waterway" v="stream" />
	</node>
	<node id="-643194" lat="60.5704402674" lon="5.66054252511">
		<tag k="name" v="Langgrova" />
		<tag k="natural" v="water" />
		<tag k="ssr:stedsnr" v="6618" />
	</node>
	<node id="-642068" lat="60.8018208538" lon="5.996421016">
		<tag k="name" v="Leitestjørni" />
		<tag k="natural" v="water" />
		<tag k="ssr:stedsnr" v="251208" />
	</node>
	<node id="-643190" lat="60.583925407" lon="5.68938921629">
		<tag k="name" v="Storavatnet" />
		<tag k="natural" v="water" />
		<tag k="ssr:stedsnr" v="6579" />
	</node>
	<node id="-642409" lat="60.579620661" lon="5.61680042735">
		<tag k="name" v="Stemmetjørnane" />
		<tag k="natural" v="water" />
		<tag k="ssr:stedsnr" v="491570" />
		<tag k="water" v="lake" />
	</node>
	<node id="-643187" lat="60.6074925922" lon="5.78228949406">
		<tag k="alt_name" v="Krokavatnet, øvre" />
		<tag k="name" v="Øvra Krokavatnet" />
		<tag k="natural" v="water" />
		<tag k="ssr:stedsnr" v="6549" />
	</node>
	<node id="-643186" lat="60.7478929219" lon="6.03797439357">
		<tag k="name" v="Blåtjørni" />
		<tag k="natural" v="water" />
		<tag k="ssr:stedsnr" v="6421" />
	</node>
	<node id="-643182" lat="60.6857794585" lon="5.70457716092">
		<tag k="name" v="Gammersviktjørna" />
		<tag k="natural" v="water" />
		<tag k="ssr:stedsnr" v="6385" />
	</node>
	<node id="-643180" lat="60.6973583344" lon="5.76640555908">
		<tag k="name" v="Hesjedalsfossen" />
		<tag k="natural" v="waterfall" />
		<tag k="ssr:stedsnr" v="6375" />
	</node>
	<node id="-643178" lat="60.6886500004" lon="5.77635277061">
		<tag k="name" v="Midtvatnet" />
		<tag k="natural" v="water" />
		<tag k="ssr:stedsnr" v="6355" />
	</node>
	<node id="-643175" lat="60.6771296505" lon="5.75969278545">
		<tag k="name" v="Stemmetjørna" />
		<tag k="natural" v="water" />
		<tag k="ssr:stedsnr" v="6340" />
	</node>
	<node id="-643170" lat="60.611424997" lon="5.88191945042">
		<tag k="name" v="Stallabekken" />
		<tag k="ssr:stedsnr" v="6224" />
		<tag k="waterway" v="stream" />
	</node>
	<node id="-643168" lat="60.618241668" lon="5.86228611047">
		<tag k="name" v="Hjellabekken" />
		<tag k="ssr:stedsnr" v="6175" />
		<tag k="waterway" v="stream" />
	</node>
	<node id="-643165" lat="60.4717543685" lon="5.81805720512">
		<tag k="name" v="Svartavatnet" />
		<tag k="natural" v="water" />
		<tag k="ssr:stedsnr" v="6006" />
	</node>
	<node id="-643157" lat="60.8652638929" lon="6.12535555403">
		<tag k="name" v="Lonevågen" />
		<tag k="natural" v="bay" />
		<tag k="ssr:stedsnr" v="919129" />
	</node>
	<node id="-643156" lat="60.844230552" lon="6.18168611794">
		<tag k="name" v="Kvanndalselvi" />
		<tag k="ssr:stedsnr" v="919222" />
		<tag k="waterway" v="stream" />
	</node>
	<node id="-643147" lat="60.8126199185" lon="6.00757403583">
		<tag k="name" v="Trollavatnet" />
		<tag k="natural" v="water" />
		<tag k="ssr:stedsnr" v="918266" />
	</node>
	<node id="-643146" lat="60.7877250024" lon="5.83703333434">
		<tag k="name" v="Skredbekken" />
		<tag k="ssr:stedsnr" v="918517" />
		<tag k="waterway" v="stream" />
	</node>
	<node id="-643140" lat="60.6189666625" lon="5.80555278363">
		<tag k="name" v="Dalseidmarkåna" />
		<tag k="ssr:stedsnr" v="916769" />
		<tag k="waterway" v="stream" />
	</node>
	<node id="-643136" lat="60.537861108" lon="6.06785278253">
		<tag k="name" v="Fossane" />
		<tag k="natural" v="waterfall" />
		<tag k="ssr:stedsnr" v="916807" />
	</node>
	<node id="-643132" lat="60.5663611068" lon="5.60415278454">
		<tag k="name" v="Pyttaneset" />
		<tag k="natural" v="cape" />
		<tag k="ssr:stedsnr" v="916617" />
	</node>
	<node id="-643128" lat="60.6326888851" lon="5.84908611836">
		<tag k="name" v="Rjupefjellstjørna" />
		<tag k="natural" v="water" />
		<tag k="ssr:stedsnr" v="870870" />
	</node>
	<node id="-643359" lat="60.798955554" lon="5.8958361198">
		<tag k="name" v="Djupbotnsbekken" />
		<tag k="ssr:stedsnr" v="69203" />
		<tag k="waterway" v="stream" />
	</node>
	<node id="-644450" lat="60.8533758452" lon="6.20677396775">
		<tag k="alt_name" v="Kvanndalsvatnet, heimsta" />
		<tag k="name" v="Heimsta Kvanndalsvatnet" />
		<tag k="natural" v="water" />
		<tag k="ssr:stedsnr" v="798137" />
	</node>
	<node id="-643104" lat="60.6755249966" lon="5.7973083325">
		<tag k="name" v="Øyaelva" />
		<tag k="ssr:stedsnr" v="856353" />
		<tag k="waterway" v="stream" />
	</node>
	<node id="-643102" lat="60.6148333353" lon="5.8990555618">
		<tag k="name" v="Austerlibekken" />
		<tag k="ssr:stedsnr" v="856179" />
		<tag k="waterway" v="stream" />
>>>>>>> e1d4bc35ff8a6074a6f2e91616a996b547c36f15
	</node>
</osm>
