<?xml version="1.0" encoding="UTF-8"?>
<osm generator="osmapis" version="0.6">
	<node id="-644607" lat="60.4427722246" lon="5.6814055602">
		<tag k="historic" v="shieling" />
		<tag k="name" v="Kråstølen" />
		<tag k="place" v="locality" />
		<tag k="ssr:stedsnr" v="955353" />
	</node>
	<node id="-644603" lat="60.5660611084" lon="5.69144723084">
		<tag k="name" v="Hagen" />
		<tag k="place" v="locality" />
		<tag k="ssr:stedsnr" v="955308" />
	</node>
	<node id="-642040" lat="60.6160083373" lon="5.74857778592">
		<tag k="historic" v="shieling" />
		<tag k="name" v="Kvåstadstølen" />
		<tag k="place" v="locality" />
		<tag k="ssr:stedsnr" v="249509" />
	</node>
	<node id="-643056" lat="60.5695527743" lon="5.93149166759">
		<tag k="name" v="Brekkemyrane" />
		<tag k="natural" v="wetland" />
		<tag k="ssr:stedsnr" v="833120" />
	</node>
	<node id="-644583" lat="60.6127138915" lon="5.82278332657">
		<tag k="historic" v="shieling" />
		<tag k="name" v="Holestølen" />
		<tag k="place" v="locality" />
		<tag k="ssr:stedsnr" v="955032" />
	</node>
	<node id="-642534" lat="60.7404416709" lon="5.93221389396">
		<tag k="name" v="Brattefonni" />
		<tag k="natural" v="glacier" />
		<tag k="ssr:stedsnr" v="673392" />
	</node>
	<node id="-644576" lat="60.4532277792" lon="5.63990000763">
		<tag k="name" v="Urane" />
		<tag k="natural" v="scree" />
		<tag k="ssr:stedsnr" v="954250" />
	</node>
	<node id="-644572" lat="60.5798416667" lon="5.891141665">
		<tag k="name" v="Raudesteinane" />
		<tag k="natural" v="stone" />
		<tag k="ssr:stedsnr" v="954123" />
	</node>
	<node id="-642519" lat="60.6647777811" lon="5.72268055682">
		<tag k="name" v="Kallestadurane" />
		<tag k="natural" v="scree" />
		<tag k="ssr:stedsnr" v="470861" />
	</node>
	<node id="-643536" lat="60.4520944409" lon="5.64668610913">
		<tag k="historic" v="shieling" />
		<tag k="name" v="Sandstølen" />
		<tag k="place" v="locality" />
		<tag k="ssr:stedsnr" v="166350" />
	</node>
	<node id="-641954" lat="60.5639055543" lon="5.75554166626">
		<tag k="historic" v="shieling" />
		<tag k="name" v="Stølen" />
		<tag k="place" v="locality" />
		<tag k="ssr:stedsnr" v="227238" />
	</node>
	<node id="-643526" lat="60.496458332" lon="5.77738889003">
		<tag k="name" v="Myrane" />
		<tag k="natural" v="wetland" />
		<tag k="ssr:stedsnr" v="166181" />
	</node>
	<node id="-642294" lat="60.4475055521" lon="5.68366388254">
		<tag k="historic" v="shieling" />
		<tag k="name" v="Tverrstølane" />
		<tag k="place" v="locality" />
		<tag k="ssr:stedsnr" v="469359" />
	</node>
	<node id="-642494" lat="60.5683166649" lon="5.90842500907">
		<tag k="name" v="Hyljane" />
		<tag k="natural" v="wetland" />
		<tag k="ssr:stedsnr" v="431855" />
	</node>
	<node id="-641978" lat="60.7367361101" lon="5.80873333131">
		<tag k="name" v="Mysterøyra" />
		<tag k="place" v="locality" />
		<tag k="ssr:stedsnr" v="66304" />
	</node>
	<node id="-643512" lat="60.7787805519" lon="5.8794500007">
		<tag k="name" v="Moltemyri" />
		<tag k="natural" v="wetland" />
		<tag k="ssr:stedsnr" v="165693" />
	</node>
	<node id="-643508" lat="60.5118750008" lon="6.02776110369">
		<tag k="name" v="Kjerringasteinen" />
		<tag k="natural" v="stone" />
		<tag k="ssr:stedsnr" v="165098" />
	</node>
	<node id="-642481" lat="60.6690611142" lon="5.86757500514">
		<tag k="name" v="Porsmyrane" />
		<tag k="natural" v="wetland" />
		<tag k="ssr:stedsnr" v="431004" />
	</node>
	<node id="-642477" lat="60.5625250037" lon="5.95277500481">
		<tag k="name" v="Halvgjengsmyri" />
		<tag k="natural" v="wetland" />
		<tag k="ssr:stedsnr" v="409935" />
	</node>
	<node id="-644011" lat="60.5086861108" lon="5.78447778473">
		<tag k="name" v="Bjørnesteinen" />
		<tag k="natural" v="stone" />
		<tag k="ssr:stedsnr" v="530046" />
	</node>
	<node id="-642474" lat="60.548366666" lon="5.79001111893">
		<tag k="historic" v="shieling" />
		<tag k="name" v="Vatnastølen" />
		<tag k="place" v="locality" />
		<tag k="ssr:stedsnr" v="409255" />
	</node>
	<node id="-642983" lat="60.7028833291" lon="5.74822777472">
		<tag k="historic" v="shieling" />
		<tag k="name" v="Farstølen" />
		<tag k="place" v="locality" />
		<tag k="ssr:stedsnr" v="773679" />
	</node>
	<node id="-644006" lat="60.734591668" lon="5.79222778676">
		<tag k="name" v="Kvammen" />
		<tag k="natural" v="scree" />
		<tag k="ssr:stedsnr" v="529940" />
	</node>
	<node id="-642469" lat="60.567333337" lon="5.92633610779">
		<tag k="historic" v="shieling" />
		<tag k="name" v="Mjølstølen" />
		<tag k="place" v="locality" />
		<tag k="ssr:stedsnr" v="408073" />
	</node>
	<node id="-644516" lat="60.6000583293" lon="5.78311388128">
		<tag k="historic" v="shieling" />
		<tag k="name" v="Brattreimstølen" />
		<tag k="place" v="locality" />
		<tag k="ssr:stedsnr" v="855529" />
	</node>
	<node id="-644002" lat="60.7488499994" lon="5.82284722604">
		<tag k="name" v="Ykjagarden" />
		<tag k="place" v="locality" />
		<tag k="ssr:stedsnr" v="529703" />
	</node>
	<node id="-642974" lat="60.5455111139" lon="5.72938056422">
		<tag k="name" v="Brunskogen" />
		<tag k="place" v="locality" />
		<tag k="ssr:stedsnr" v="773257" />
	</node>
	<node id="-643997" lat="60.7916166665" lon="5.90238610885">
		<tag k="name" v="Myrane" />
		<tag k="natural" v="wetland" />
		<tag k="ssr:stedsnr" v="529650" />
	</node>
	<node id="-643996" lat="60.7952555542" lon="5.9086333253">
		<tag k="name" v="Furskogen" />
		<tag k="place" v="locality" />
		<tag k="ssr:stedsnr" v="529646" />
	</node>
	<node id="-641946" lat="60.4478111118" lon="5.72331389758">
		<tag k="name" v="Sørstallen" />
		<tag k="place" v="locality" />
		<tag k="ssr:stedsnr" v="227148" />
	</node>
	<node id="-642457" lat="60.5358749986" lon="5.74232499765">
		<tag k="name" v="Kraksåmyrane" />
		<tag k="natural" v="wetland" />
		<tag k="ssr:stedsnr" v="370928" />
	</node>
	<node id="-643991" lat="60.5684083335" lon="5.90561111788">
		<tag k="historic" v="shieling" />
		<tag k="name" v="Orrestølen" />
		<tag k="place" v="locality" />
		<tag k="ssr:stedsnr" v="529134" />
	</node>
	<node id="-644499" lat="60.6844583357" lon="5.66947778362">
		<tag k="name" v="Elvelund" />
		<tag k="place" v="locality" />
		<tag k="ssr:stedsnr" v="834824" />
	</node>
	<node id="-641956" lat="60.5467555571" lon="5.78007500038">
		<tag k="historic" v="shieling" />
		<tag k="name" v="Tuestølen" />
		<tag k="place" v="locality" />
		<tag k="ssr:stedsnr" v="227248" />
	</node>
	<node id="-641932" lat="60.6699638896" lon="5.67393054706">
		<tag k="historic" v="shieling" />
		<tag k="name" v="Sæter" />
		<tag k="place" v="locality" />
		<tag k="ssr:stedsnr" v="226945" />
	</node>
	<node id="-644474" lat="60.481899999" lon="5.80551944626">
		<tag k="name" v="Høysteinen" />
		<tag k="natural" v="stone" />
		<tag k="ssr:stedsnr" v="834197" />
	</node>
	<node id="-641910" lat="60.4588527788" lon="5.65610000737">
		<tag k="historic" v="shieling" />
		<tag k="name" v="Ildstølen" />
		<tag k="place" v="locality" />
		<tag k="ssr:stedsnr" v="226389" />
	</node>
	<node id="-643439" lat="60.6942166706" lon="5.78037777684">
		<tag k="historic" v="shieling" />
		<tag k="name" v="Stølen" />
		<tag k="place" v="locality" />
		<tag k="ssr:stedsnr" v="106720" />
	</node>
	<node id="-642922" lat="60.7005916632" lon="5.73259722633">
		<tag k="name" v="Rossura" />
		<tag k="natural" v="scree" />
		<tag k="ssr:stedsnr" v="895697" />
	</node>
	<node id="-643433" lat="60.5668250017" lon="5.6517555622">
		<tag k="name" v="Storemyra" />
		<tag k="natural" v="wetland" />
		<tag k="ssr:stedsnr" v="106317" />
	</node>
	<node id="-644455" lat="60.627002776" lon="5.888688892">
		<tag k="name" v="Merkesmyra" />
		<tag k="natural" v="wetland" />
		<tag k="ssr:stedsnr" v="810959" />
	</node>
	<node id="-642363" lat="60.5392083375" lon="5.78781943737">
		<tag k="name" v="Øykjamyrane" />
		<tag k="natural" v="wetland" />
		<tag k="ssr:stedsnr" v="348213" />
	</node>
	<node id="-643422" lat="60.4906388898" lon="5.75690832797">
		<tag k="historic" v="shieling" />
		<tag k="name" v="Alsætre" />
		<tag k="place" v="locality" />
		<tag k="ssr:stedsnr" v="106187" />
	</node>
	<node id="-642397" lat="60.6759194488" lon="5.75353888117">
		<tag k="historic" v="shieling" />
		<tag k="name" v="Stamnesstølen" />
		<tag k="place" v="locality" />
		<tag k="ssr:stedsnr" v="491342" />
	</node>
	<node id="-643420" lat="60.484338892" lon="5.80353056317">
		<tag k="name" v="Åsteinane" />
		<tag k="natural" v="stone" />
		<tag k="ssr:stedsnr" v="106182" />
	</node>
	<node id="-643411" lat="60.5986333316" lon="5.71338333448">
		<tag k="name" v="Kråurane" />
		<tag k="natural" v="scree" />
		<tag k="ssr:stedsnr" v="106070" />
	</node>
	<node id="-642386" lat="60.5411111137" lon="6.0555444387">
		<tag k="historic" v="shieling" />
		<tag k="name" v="Mjøstølen" />
		<tag k="place" v="locality" />
		<tag k="ssr:stedsnr" v="348974" />
	</node>
	<node id="-643403" lat="60.5759027816" lon="5.95237777055">
		<tag k="historic" v="shieling" />
		<tag k="name" v="Fristølen" />
		<tag k="place" v="locality" />
		<tag k="ssr:stedsnr" v="105960" />
	</node>
	<node id="-644426" lat="60.6425638864" lon="5.77135277671">
		<tag k="historic" v="shieling" />
		<tag k="name" v="Vikastølen" />
		<tag k="place" v="locality" />
		<tag k="ssr:stedsnr" v="795697" />
	</node>
	<node id="-644421" lat="60.5647111074" lon="5.77896666479">
		<tag k="name" v="Tjørnamyra" />
		<tag k="natural" v="wetland" />
		<tag k="ssr:stedsnr" v="795654" />
	</node>
	<node id="-643908" lat="60.4740527749" lon="5.74463332919">
		<tag k="name" v="Rosshagen" />
		<tag k="place" v="locality" />
		<tag k="ssr:stedsnr" v="409209" />
	</node>
	<node id="-643907" lat="60.4710416691" lon="5.77011388306">
		<tag k="name" v="Saualægdena" />
		<tag k="place" v="locality" />
		<tag k="ssr:stedsnr" v="409204" />
	</node>
	<node id="-642875" lat="60.7896388913" lon="5.9837027747">
		<tag k="name" v="Svartemyri" />
		<tag k="natural" v="wetland" />
		<tag k="ssr:stedsnr" v="712554" />
	</node>
	<node id="-643383" lat="60.7905250002" lon="5.9379333287">
		<tag k="name" v="Kløvstallen" />
		<tag k="place" v="locality" />
		<tag k="ssr:stedsnr" v="105594" />
	</node>
	<node id="-642868" lat="60.684713885" lon="5.80695277624">
		<tag k="historic" v="shieling" />
		<tag k="name" v="Nerstølen" />
		<tag k="place" v="locality" />
		<tag k="ssr:stedsnr" v="894759" />
	</node>
	<node id="-643376" lat="60.5664277763" lon="5.82885555723">
		<tag k="historic" v="shieling" />
		<tag k="name" v="Stormyrstølane" />
		<tag k="place" v="locality" />
		<tag k="ssr:stedsnr" v="105145" />
	</node>
	<node id="-642348" lat="60.5693333325" lon="5.70870554716">
		<tag k="name" v="Seljeteigen" />
		<tag k="place" v="locality" />
		<tag k="ssr:stedsnr" v="346703" />
	</node>
	<node id="-643877" lat="60.7854527807" lon="5.89018332819">
		<tag k="name" v="Storemyr" />
		<tag k="natural" v="wetland" />
		<tag k="ssr:stedsnr" v="408666" />
	</node>
	<node id="-644380" lat="60.6911833364" lon="5.71238611129">
		<tag k="name" v="Nysteinurane" />
		<tag k="natural" v="scree" />
		<tag k="ssr:stedsnr" v="773697" />
	</node>
	<node id="-644371" lat="60.5271749979" lon="5.73626388684">
		<tag k="historic" v="shieling" />
		<tag k="name" v="Sesstølen" />
		<tag k="place" v="locality" />
		<tag k="ssr:stedsnr" v="773226" />
	</node>
	<node id="-644367" lat="60.5332750013" lon="5.72531944626">
		<tag k="name" v="Storura" />
		<tag k="natural" v="scree" />
		<tag k="ssr:stedsnr" v="773217" />
	</node>
	<node id="-643848" lat="60.7872555562" lon="6.19673055525">
		<tag k="name" v="Brattefonni" />
		<tag k="natural" v="glacier" />
		<tag k="ssr:stedsnr" v="372721" />
	</node>
	<node id="-644358" lat="60.4468833308" lon="5.72276388948">
		<tag k="historic" v="shieling" />
		<tag k="name" v="Sørstølen" />
		<tag k="place" v="locality" />
		<tag k="ssr:stedsnr" v="773157" />
	</node>
	<node id="-642299" lat="60.7010305554" lon="5.71866110834">
		<tag k="name" v="Smogsteinen" />
		<tag k="natural" v="stone" />
		<tag k="ssr:stedsnr" v="469734" />
	</node>
	<node id="-644345" lat="60.5531750027" lon="5.93759443665">
		<tag k="name" v="Kløyvsteinen" />
		<tag k="natural" v="stone" />
		<tag k="ssr:stedsnr" v="772987" />
	</node>
	<node id="-642806" lat="60.6629694438" lon="5.69644166502">
		<tag k="historic" v="shieling" />
		<tag k="name" v="Stølen" />
		<tag k="place" v="locality" />
		<tag k="ssr:stedsnr" v="651930" />
	</node>
	<node id="-644338" lat="60.7928083365" lon="5.90767222276">
		<tag k="historic" v="shieling" />
		<tag k="name" v="Midtstølen" />
		<tag k="place" v="locality" />
		<tag k="ssr:stedsnr" v="772643" />
	</node>
	<node id="-643306" lat="60.6626500001" lon="5.71349722176">
		<tag k="name" v="Gråura" />
		<tag k="natural" v="scree" />
		<tag k="ssr:stedsnr" v="45844" />
	</node>
	<node id="-642792" lat="60.5377055525" lon="6.02842222846">
		<tag k="historic" v="shieling" />
		<tag k="name" v="Nedste-stølen" />
		<tag k="place" v="locality" />
		<tag k="ssr:stedsnr" v="650085" />
	</node>
	<node id="-643302" lat="60.6335472183" lon="5.7192111034">
		<tag k="name" v="Storsteinane" />
		<tag k="natural" v="stone" />
		<tag k="ssr:stedsnr" v="45809" />
	</node>
	<node id="-641914" lat="60.7866666633" lon="6.09462777554">
		<tag k="name" v="Kalvahagen" />
		<tag k="place" v="locality" />
		<tag k="ssr:stedsnr" v="226634" />
	</node>
	<node id="-643289" lat="60.5590194444" lon="5.81614721753">
		<tag k="historic" v="shieling" />
		<tag k="name" v="Storemyrstølen" />
		<tag k="place" v="locality" />
		<tag k="ssr:stedsnr" v="45229" />
	</node>
	<node id="-643285" lat="60.5235138911" lon="5.72847500213">
		<tag k="historic" v="shieling" />
		<tag k="name" v="Varstølen" />
		<tag k="place" v="locality" />
		<tag k="ssr:stedsnr" v="45208" />
	</node>
	<node id="-643284" lat="60.5147222238" lon="5.75565000278">
		<tag k="historic" v="shieling" />
		<tag k="name" v="Sætret" />
		<tag k="place" v="locality" />
		<tag k="ssr:stedsnr" v="45198" />
	</node>
	<node id="-643795" lat="60.6871444441" lon="5.76504999703">
		<tag k="historic" v="shieling" />
		<tag k="name" v="Kallandsstølen" />
		<tag k="place" v="locality" />
		<tag k="ssr:stedsnr" v="370389" />
	</node>
	<node id="-643786" lat="60.5373083364" lon="6.05833055692">
		<tag k="name" v="Rustamyri" />
		<tag k="natural" v="wetland" />
		<tag k="ssr:stedsnr" v="348979" />
	</node>
	<node id="-643785" lat="60.5596972263" lon="6.00889166471">
		<tag k="name" v="Bergsuri" />
		<tag k="natural" v="scree" />
		<tag k="ssr:stedsnr" v="348936" />
	</node>
	<node id="-643782" lat="60.6654194488" lon="5.75357778036">
		<tag k="historic" v="shieling" />
		<tag k="name" v="Stølen" />
		<tag k="place" v="locality" />
		<tag k="ssr:stedsnr" v="348839" />
	</node>
	<node id="-643268" lat="60.5518944424" lon="6.02804167386">
		<tag k="name" v="Steingardskogen" />
		<tag k="place" v="locality" />
		<tag k="ssr:stedsnr" v="44996" />
	</node>
	<node id="-643777" lat="60.7029694421" lon="5.67751665991">
		<tag k="historic" v="shieling" />
		<tag k="name" v="Dugurmålsåta" />
		<tag k="place" v="locality" />
		<tag k="ssr:stedsnr" v="348801" />
	</node>
	<node id="-644288" lat="60.6876055562" lon="5.69372777489">
		<tag k="name" v="Svaena" />
		<tag k="place" v="locality" />
		<tag k="ssr:stedsnr" v="651820" />
	</node>
	<node id="-642290" lat="60.6212027739" lon="5.87045555986">
		<tag k="name" v="Skogen" />
		<tag k="place" v="locality" />
		<tag k="ssr:stedsnr" v="469043" />
	</node>
	<node id="-644126" lat="60.5385611105" lon="6.06284721506">
		<tag k="name" v="Tunnelmasse" />
		<tag k="natural" v="beach" />
		<tag k="ssr:stedsnr" v="590990" />
		<tag k="surface" v="sand" />
	</node>
	<node id="-643761" lat="60.6768999972" lon="5.73885554818">
		<tag k="name" v="Aldalsmyra" />
		<tag k="natural" v="wetland" />
		<tag k="ssr:stedsnr" v="347780" />
	</node>
	<node id="-643242" lat="60.4502611138" lon="5.66546388582">
		<tag k="historic" v="shieling" />
		<tag k="name" v="Brunastølen" />
		<tag k="place" v="locality" />
		<tag k="ssr:stedsnr" v="44352" />
	</node>
	<node id="-643752" lat="60.7838416703" lon="5.84990000826">
		<tag k="historic" v="shieling" />
		<tag k="name" v="Stølen" />
		<tag k="place" v="locality" />
		<tag k="ssr:stedsnr" v="347678" />
	</node>
	<node id="-641990" lat="60.5688277747" lon="5.80615832602">
		<tag k="name" v="Skogane" />
		<tag k="place" v="locality" />
		<tag k="ssr:stedsnr" v="67611" />
	</node>
	<node id="-643231" lat="60.5804833312" lon="5.88271388964">
		<tag k="name" v="Smivateigen" />
		<tag k="place" v="locality" />
		<tag k="ssr:stedsnr" v="44121" />
	</node>
	<node id="-644245" lat="60.4445472216" lon="5.73184444473">
		<tag k="historic" v="shieling" />
		<tag k="name" v="Vetletjønnstølen" />
		<tag k="place" v="locality" />
		<tag k="ssr:stedsnr" v="651182" />
	</node>
	<node id="-642194" lat="60.7072861138" lon="5.7323416679">
		<tag k="historic" v="shieling" />
		<tag k="name" v="Furestølen" />
		<tag k="place" v="locality" />
		<tag k="ssr:stedsnr" v="288668" />
	</node>
	<node id="-644241" lat="60.4457666678" lon="5.7142722265">
		<tag k="historic" v="shieling" />
		<tag k="name" v="Seterkokane" />
		<tag k="place" v="locality" />
		<tag k="ssr:stedsnr" v="651154" />
	</node>
	<node id="-643211" lat="60.795344442" lon="5.94379999138">
		<tag k="historic" v="shieling" />
		<tag k="name" v="Steinssætri" />
		<tag k="place" v="locality" />
		<tag k="ssr:stedsnr" v="8205" />
	</node>
	<node id="-644230" lat="60.568499999" lon="5.8998000081">
		<tag k="historic" v="shieling" />
		<tag k="name" v="Øyastølen" />
		<tag k="place" v="locality" />
		<tag k="ssr:stedsnr" v="650122" />
	</node>
	<node id="-642753" lat="60.6059138906" lon="5.87708611616">
		<tag k="historic" v="shieling" />
		<tag k="name" v="Gamlasætra" />
		<tag k="place" v="locality" />
		<tag k="ssr:stedsnr" v="734231" />
	</node>
	<node id="-644228" lat="60.5087111066" lon="5.97454443685">
		<tag k="name" v="Fløytesteinen" />
		<tag k="natural" v="stone" />
		<tag k="ssr:stedsnr" v="650101" />
	</node>
	<node id="-642240" lat="60.5769472265" lon="5.94340276941">
		<tag k="name" v="Bakkaslåttena" />
		<tag k="place" v="locality" />
		<tag k="ssr:stedsnr" v="287953" />
	</node>
	<node id="-642166" lat="60.5412388925" lon="5.69710833503">
		<tag k="name" v="Kalvahagen" />
		<tag k="place" v="locality" />
		<tag k="ssr:stedsnr" v="287362" />
	</node>
	<node id="-642677" lat="60.7199333335" lon="5.72613611866">
		<tag k="name" v="Dyrhaugsteinen" />
		<tag k="natural" v="stone" />
		<tag k="ssr:stedsnr" v="712669" />
	</node>
	<node id="-642238" lat="60.6523444456" lon="5.69297777332">
		<tag k="historic" v="shieling" />
		<tag k="name" v="Byrkjestølen" />
		<tag k="place" v="locality" />
		<tag k="ssr:stedsnr" v="287914" />
	</node>
	<node id="-642657" lat="60.5848777815" lon="5.82148888028">
		<tag k="name" v="Sandliura" />
		<tag k="natural" v="scree" />
		<tag k="ssr:stedsnr" v="590125" />
	</node>
	<node id="-642142" lat="60.4475277816" lon="5.69270554904">
		<tag k="historic" v="shieling" />
		<tag k="name" v="Sandviksætra" />
		<tag k="place" v="locality" />
		<tag k="ssr:stedsnr" v="166359" />
	</node>
	<node id="-642138" lat="60.5369222194" lon="5.75477778448">
		<tag k="historic" v="shieling" />
		<tag k="name" v="Leinestølen" />
		<tag k="place" v="locality" />
		<tag k="ssr:stedsnr" v="166223" />
	</node>
	<node id="-642118" lat="60.536099999" lon="5.69340832958">
		<tag k="name" v="Fokstadurane" />
		<tag k="natural" v="scree" />
		<tag k="ssr:stedsnr" v="164726" />
	</node>
	<node id="-641889" lat="60.5766388869" lon="5.96102499211">
		<tag k="name" v="Tjørnadalsmyri" />
		<tag k="natural" v="wetland" />
		<tag k="ssr:stedsnr" v="6853" />
	</node>
	<node id="-644160" lat="60.5451722222" lon="5.79093888976">
		<tag k="name" v="Fitjamyrane" />
		<tag k="natural" v="wetland" />
		<tag k="ssr:stedsnr" v="591212" />
	</node>
	<node id="-644156" lat="60.5315335862" lon="5.74359125466">
		<tag k="historic" v="shieling" />
		<tag k="name" v="Fossmarkstølen" />
		<tag k="place" v="locality" />
		<tag k="ssr:stedsnr" v="591170" />
	</node>
	<node id="-644149" lat="60.4623083308" lon="5.7468305487">
		<tag k="historic" v="shieling" />
		<tag k="name" v="Midtstølen" />
		<tag k="place" v="locality" />
		<tag k="ssr:stedsnr" v="591124" />
	</node>
	<node id="-644148" lat="60.4589833372" lon="5.77570555108">
		<tag k="name" v="Kosamyrane" />
		<tag k="natural" v="wetland" />
		<tag k="ssr:stedsnr" v="591120" />
	</node>
	<node id="-644147" lat="60.4501055596" lon="5.72599999808">
		<tag k="name" v="Øvre Kustall" />
		<tag k="place" v="locality" />
		<tag k="ssr:stedsnr" v="591117" />
	</node>
	<node id="-642097" lat="60.6269374865" lon="5.89387349026">
		<tag k="name" v="Naustbakken" />
		<tag k="natural" v="wetland" />
		<tag k="ssr:stedsnr" v="263956" />
	</node>
	<node id="-644651" lat="60.5304138919" lon="6.06193333025">
		<tag k="name" v="Myrane" />
		<tag k="natural" v="wetland" />
		<tag k="ssr:stedsnr" v="955987" />
	</node>
	<node id="-644273" lat="60.687172218" lon="5.74530832784">
		<tag k="historic" v="shieling" />
		<tag k="name" v="Stølen" />
		<tag k="place" v="locality" />
		<tag k="ssr:stedsnr" v="651742" />
	</node>
	<node id="-643614" lat="60.537677778" lon="6.04563888308">
		<tag k="name" v="Myrane" />
		<tag k="natural" v="wetland" />
		<tag k="ssr:stedsnr" v="188821" />
	</node>
	<node id="-644125" lat="60.5452972194" lon="6.05215832742">
		<tag k="name" v="Kalvehagen" />
		<tag k="place" v="locality" />
		<tag k="ssr:stedsnr" v="590986" />
	</node>
	<node id="-644119" lat="60.8108305587" lon="6.03147777489">
		<tag k="name" v="Svaskogen" />
		<tag k="place" v="locality" />
		<tag k="ssr:stedsnr" v="590585" />
	</node>
	<node id="-644113" lat="60.7961666635" lon="5.90344167446">
		<tag k="name" v="Setmarki" />
		<tag k="place" v="locality" />
		<tag k="ssr:stedsnr" v="590651" />
	</node>
	<node id="-642574" lat="60.7068472248" lon="5.68939722935">
		<tag k="name" v="Stormyra" />
		<tag k="natural" v="wetland" />
		<tag k="ssr:stedsnr" v="674249" />
	</node>
	<node id="-644621" lat="60.6969083309" lon="5.77533611355">
		<tag k="name" v="Kvilesteinen" />
		<tag k="natural" v="stone" />
		<tag k="ssr:stedsnr" v="955725" />
	</node>
	<node id="-644105" lat="60.7831944459" lon="6.0327611044">
		<tag k="historic" v="shieling" />
		<tag k="name" v="Vetlestølen" />
		<tag k="place" v="locality" />
		<tag k="ssr:stedsnr" v="590574" />
	</node>
	<node id="-644613" lat="60.7750527785" lon="6.08641943587">
		<tag k="historic" v="shieling" />
		<tag k="name" v="Stølane" />
		<tag k="place" v="locality" />
		<tag k="ssr:stedsnr" v="955608" />
	</node>
	<node id="-643074" lat="60.548880553" lon="5.80886110727">
		<tag k="name" v="Storåkrane" />
		<tag k="place" v="locality" />
		<tag k="ssr:stedsnr" v="834218" />
	</node>
	<node id="-641963" lat="60.656588889" lon="5.74684167528">
		<tag k="name" v="Bjørkelund" />
		<tag k="place" v="locality" />
		<tag k="ssr:stedsnr" v="227777" />
	</node>
</osm>
