<?xml version="1.0" encoding="UTF-8"?>
<osm version="0.6" generator="osmapis">
	<node lat="60.43939007486114" lon="5.635074596770068" id="-30743">
		<tag k="fixme" v="consider place=hamlet" />
		<tag k="name" v="Raudberget" />
		<tag k="place" v="farm" />
		<tag k="ssr:stedsnr" v="5022" />
	</node>
	<node lat="60.461461229052624" lon="5.741568596500337" id="-30745">
		<tag k="alt_name" v="Bogo, yt;Ytre Boge" />
		<tag k="fixme" v="consider place=hamlet" />
		<tag k="name" v="Ytre Bogo" />
		<tag k="place" v="farm" />
		<tag k="ssr:stedsnr" v="6016" />
	</node>
	<node lat="60.6178686706777" lon="5.883536874233959" id="-30747">
		<tag k="fixme" v="consider place=hamlet" />
		<tag k="name" v="Verpelstad" />
		<tag k="place" v="farm" />
		<tag k="ssr:stedsnr" v="6177" />
	</node>
	<node lat="60.73466666264183" lon="5.801594447827524" id="-30748">
		<tag k="name" v="Eidslandet" />
		<tag k="place" v="village" />
		<tag k="ssr:stedsnr" v="6306" />
	</node>
	<node lat="60.590713888220634" lon="5.836863884910889" id="-30754">
		<tag k="historic" v="shieling" />
		<tag k="name" v="Sess-stølen" />
		<tag k="place" v="isolated_dwelling" />
		<tag k="ssr:stedsnr" v="6585" />
	</node>
	<node lat="60.520785385052605" lon="5.72505968468345" id="-30762">
		<tag k="alt_name" v="Fossmarki" />
		<tag k="fixme" v="consider place=hamlet" />
		<tag k="name" v="Fossmark" />
		<tag k="place" v="farm" />
		<tag k="ssr:stedsnr" v="6971" />
	</node>
	<node lat="60.78788055200444" lon="5.973225008410972" id="-30768">
		<tag k="name" v="Osen" />
		<tag k="place" v="farm" />
		<tag k="ssr:stedsnr" v="8769" />
	</node>
	<node lat="60.59573888576455" lon="5.740566673759489" id="-30806">
		<tag k="name" v="Fylingslii" />
		<tag k="place" v="locality" />
		<tag k="ssr:stedsnr" v="66506" />
	</node>
	<node lat="60.483413887353905" lon="5.734133325316283" id="-30810">
		<tag k="name" v="Sveneset" />
		<tag k="place" v="farm" />
		<tag k="ssr:stedsnr" v="66943" />
	</node>
	<node lat="60.580988887300684" lon="5.82753333068453" id="-30825">
		<tag k="historic" v="shieling" />
		<tag k="name" v="Gamlesætra" />
		<tag k="place" v="isolated_dwelling" />
		<tag k="ssr:stedsnr" v="67593" />
	</node>
	<node lat="60.62736666873139" lon="5.822166665919755" id="-30828">
		<tag k="name" v="Tretteneset" />
		<tag k="place" v="farm" />
		<tag k="ssr:stedsnr" v="67744" />
	</node>
	<node lat="60.81128165651525" lon="6.171012752418514" id="-30835">
		<tag k="fixme" v="consider place=hamlet" />
		<tag k="name" v="Brakestad" />
		<tag k="place" v="farm" />
		<tag k="ssr:stedsnr" v="69205" />
	</node>
	<node lat="60.55408889207394" lon="5.997244436479719" id="-30856">
		<tag k="historic" v="shieling" />
		<tag k="name" v="Skarvastølen" />
		<tag k="place" v="isolated_dwelling" />
		<tag k="ssr:stedsnr" v="249808" />
	</node>
	<node lat="60.474563885301436" lon="5.741338881227021" id="-30889">
		<tag k="name" v="Sørbø" />
		<tag k="place" v="farm" />
		<tag k="ssr:stedsnr" v="106176" />
	</node>
	<node lat="60.66285543613598" lon="5.693591321642867" id="-30901">
		<tag k="fixme" v="consider place=hamlet" />
		<tag k="name" v="Toskedalen" />
		<tag k="place" v="farm" />
		<tag k="ssr:stedsnr" v="249604" />
	</node>
	<node lat="60.666913786757185" lon="5.7720839567123505" id="-30902">
		<tag k="name" v="Kullshammar" />
		<tag k="place" v="farm" />
		<tag k="ssr:stedsnr" v="249609" />
	</node>
	<node lat="60.53733055239905" lon="6.078149991425563" id="-30912">
		<tag k="historic" v="shieling" />
		<tag k="name" v="Hålebergstølen" />
		<tag k="place" v="isolated_dwelling" />
		<tag k="ssr:stedsnr" v="249782" />
	</node>
	<node lat="60.80242679842561" lon="6.059306779802721" id="-30921">
		<tag k="fixme" v="consider place=hamlet" />
		<tag k="name" v="Fjellanger" />
		<tag k="place" v="farm" />
		<tag k="ssr:stedsnr" v="251236" />
	</node>
	<node lat="60.79726944480837" lon="6.051077777188335" id="-30922">
		<tag k="name" v="Vonheim" />
		<tag k="place" v="farm" />
		<tag k="ssr:stedsnr" v="251238" />
	</node>
	<node lat="60.79168611329095" lon="5.859311104706558" id="-30928">
		<tag k="name" v="Leitet" />
		<tag k="place" v="locality" />
		<tag k="ssr:stedsnr" v="251223" />
	</node>
	<node lat="60.77791517635579" lon="6.019524141102155" id="-30938">
		<tag k="alt_name" v="Lavik" />
		<tag k="fixme" v="consider place=hamlet" />
		<tag k="name" v="Laviki" />
		<tag k="place" v="farm" />
		<tag k="ssr:stedsnr" v="251721" />
	</node>
	<node lat="60.778774997913594" lon="6.050391664890159" id="-30941">
		<tag k="name" v="Øykavegen" />
		<tag k="place" v="locality" />
		<tag k="ssr:stedsnr" v="251764" />
	</node>
	<node lat="60.57968508174429" lon="5.796624268988777" id="-30947">
		<tag k="fixme" v="consider place=hamlet" />
		<tag k="name" v="Dale" />
		<tag k="place" v="farm" />
		<tag k="ssr:stedsnr" v="127620" />
	</node>
	<node lat="60.66758055959248" lon="5.84251943503679" id="-30955">
		<tag k="historic" v="shieling" />
		<tag k="name" v="Straumsstølen" />
		<tag k="place" v="isolated_dwelling" />
		<tag k="ssr:stedsnr" v="127689" />
	</node>
	<node lat="60.54437500043851" lon="5.674463896407426" id="-30961">
		<tag k="historic" v="shieling" />
		<tag k="name" v="Hakanessætra" />
		<tag k="place" v="isolated_dwelling" />
		<tag k="ssr:stedsnr" v="127900" />
	</node>
	<node lat="60.76576111518268" lon="5.857641659794214" id="-30968">
		<tag k="historic" v="shieling" />
		<tag k="name" v="Hevikastølen" />
		<tag k="place" v="isolated_dwelling" />
		<tag k="ssr:stedsnr" v="129728" />
	</node>
	<node lat="60.78183611469643" lon="6.161174991644871" id="-30970">
		<tag k="historic" v="shieling" />
		<tag k="name" v="Nesheimsstølen" />
		<tag k="place" v="isolated_dwelling" />
		<tag k="ssr:stedsnr" v="129735" />
	</node>
	<node lat="60.54174722393835" lon="6.043658330662343" id="-30980">
		<tag k="name" v="Fossheim" />
		<tag k="place" v="hamlet" />
		<tag k="ssr:stedsnr" v="165076" />
	</node>
	<node lat="60.69313889012196" lon="5.741883329701516" id="-31004">
		<tag k="fixme" v="consider place=hamlet" />
		<tag k="name" v="Verpen" />
		<tag k="place" v="village" />
		<tag k="ssr:stedsnr" v="166720" />
	</node>
	<node lat="60.45983611382477" lon="5.773641661694896" id="-31018">
		<tag k="historic" v="shieling" />
		<tag k="name" v="Bogastølen" />
		<tag k="place" v="isolated_dwelling" />
		<tag k="ssr:stedsnr" v="188009" />
	</node>
	<node lat="60.466889114409064" lon="5.744272909446796" id="-31019">
		<tag k="alt_name" v="Bogo, in" />
		<tag k="fixme" v="consider place=hamlet" />
		<tag k="name" v="Indre Bogo" />
		<tag k="place" v="farm" />
		<tag k="ssr:stedsnr" v="188014" />
	</node>
	<node lat="60.735435461170916" lon="5.818848840249187" id="-31022">
		<tag k="fixme" v="consider place=hamlet" />
		<tag k="name" v="Myster" />
		<tag k="place" v="farm" />
		<tag k="ssr:stedsnr" v="188309" />
	</node>
	<node lat="60.663494443488226" lon="5.771800007196928" id="-31033">
		<tag k="name" v="Hagen" />
		<tag k="place" v="isolated_dwelling" />
		<tag k="ssr:stedsnr" v="188705" />
	</node>
	<node lat="60.756499997129424" lon="5.801402769076338" id="-31048">
		<tag k="historic" v="shieling" />
		<tag k="name" v="Fitstølen" />
		<tag k="place" v="isolated_dwelling" />
		<tag k="ssr:stedsnr" v="190066" />
	</node>
	<node lat="60.757144444068196" lon="5.822933336062027" id="-31050">
		<tag k="name" v="Løland" />
		<tag k="place" v="farm" />
		<tag k="ssr:stedsnr" v="190068" />
	</node>
	<node lat="60.569324998314855" lon="5.680255555120861" id="-31095">
		<tag k="fixme" v="consider place=hamlet" />
		<tag k="name" v="Hesjedalen" />
		<tag k="place" v="farm" />
		<tag k="ssr:stedsnr" v="248610" />
	</node>
	<node lat="60.57406748872373" lon="5.944059767842926" id="-31099">
		<tag k="name" v="Li" />
		<tag k="place" v="hamlet" />
		<tag k="ssr:stedsnr" v="248861" />
	</node>
	<node lat="60.480064296771886" lon="5.74004215433399" id="-31104">
		<tag k="alt_name" v="Jamne" />
		<tag k="fixme" v="consider place=hamlet" />
		<tag k="name" v="Javna" />
		<tag k="old_name" v="Javatna" />
		<tag k="place" v="farm" />
		<tag k="ssr:stedsnr" v="248962" />
	</node>
	<node lat="60.48883296976221" lon="5.765704407501952" id="-31105">
		<tag k="fixme" v="consider place=hamlet" />
		<tag k="name" v="Sædalen" />
		<tag k="place" v="farm" />
		<tag k="ssr:stedsnr" v="248970" />
	</node>
	<node lat="60.624283746939945" lon="5.856367085915112" id="-31106">
		<tag k="alt_name" v="Furnes" />
		<tag k="fixme" v="consider place=hamlet" />
		<tag k="name" v="Fornes" />
		<tag k="place" v="farm" />
		<tag k="ssr:stedsnr" v="249123" />
	</node>
	<node lat="60.69032500116065" lon="5.820074999157315" id="-31146">
		<tag k="historic" v="shieling" />
		<tag k="name" v="Dalastølen" />
		<tag k="place" v="isolated_dwelling" />
		<tag k="ssr:stedsnr" v="309381" />
	</node>
	<node lat="60.565300001651025" lon="5.752438894270774" id="-31153">
		<tag k="name" v="Hellestræet" />
		<tag k="place" v="farm" />
		<tag k="ssr:stedsnr" v="309645" />
	</node>
	<node lat="60.54818055356557" lon="5.701275002586312" id="-31164">
		<tag k="alt_name" v="Fokstad, øvre;Fokstad" />
		<tag k="name" v="Øvre Fokstad" />
		<tag k="place" v="farm" />
		<tag k="ssr:stedsnr" v="309902" />
	</node>
	<node lat="60.69083445019871" lon="5.6864506886776525" id="-31169">
		<tag k="fixme" v="consider place=hamlet" />
		<tag k="name" v="Gammersviki" />
		<tag k="place" v="farm" />
		<tag k="ssr:stedsnr" v="310379" />
	</node>
	<node lat="60.558455559034925" lon="5.957236115934729" id="-31171">
		<tag k="historic" v="shieling" />
		<tag k="name" v="Listølen" />
		<tag k="place" v="isolated_dwelling" />
		<tag k="ssr:stedsnr" v="310820" />
	</node>
	<node lat="60.573911107634736" lon="5.945130553853605" id="-31193">
		<tag k="name" v="Lid" />
		<tag k="place" v="hamlet" />
		<tag k="ssr:stedsnr" v="468949" />
	</node>
	<node lat="60.67046388931253" lon="5.741858337075392" id="-31241">
		<tag k="name" v="Hagestrand" />
		<tag k="place" v="isolated_dwelling" />
		<tag k="ssr:stedsnr" v="346828" />
	</node>
	<node lat="60.490177778773855" lon="5.770916659284637" id="-31286">
		<tag k="name" v="Nygård" />
		<tag k="place" v="farm" />
		<tag k="ssr:stedsnr" v="369961" />
	</node>
	<node lat="60.49847777634784" lon="5.767830554113843" id="-31287">
		<tag k="name" v="Tjørnhaugen" />
		<tag k="place" v="isolated_dwelling" />
		<tag k="ssr:stedsnr" v="369973" />
	</node>
	<node lat="60.663054996861426" lon="5.780279370894458" id="-31298">
		<tag k="fixme" v="consider place=hamlet" />
		<tag k="name" v="Vik" />
		<tag k="place" v="farm" />
		<tag k="ssr:stedsnr" v="370675" />
	</node>
	<node lat="60.54152499983671" lon="6.034800001451508" id="-31300">
		<tag k="fixme" v="consider place=hamlet" />
		<tag k="name" v="Småbrekkene" />
		<tag k="place" v="farm" />
		<tag k="ssr:stedsnr" v="370804" />
	</node>
	<node lat="60.542103869027656" lon="6.050470862339753" id="-31301">
		<tag k="fixme" v="consider place=hamlet" />
		<tag k="name" v="Røydland" />
		<tag k="place" v="farm" />
		<tag k="ssr:stedsnr" v="370808" />
	</node>
	<node lat="60.57325276977341" lon="5.904226844228803" id="-31303">
		<tag k="fixme" v="consider place=hamlet" />
		<tag k="name" v="Øyane" />
		<tag k="place" v="farm" />
		<tag k="ssr:stedsnr" v="370863" />
	</node>
	<node lat="60.806566666188964" lon="6.214922223370249" id="-31315">
		<tag k="historic" v="shieling" />
		<tag k="name" v="Gamletuftene" />
		<tag k="place" v="isolated_dwelling" />
		<tag k="ssr:stedsnr" v="372215" />
	</node>
	<node lat="60.78075652659917" lon="6.086789800096691" id="-31319">
		<tag k="alt_name" v="Binningebø" />
		<tag k="fixme" v="consider place=hamlet" />
		<tag k="name" v="Binningabø" />
		<tag k="place" v="farm" />
		<tag k="ssr:stedsnr" v="372751" />
	</node>
	<node lat="60.78549400758036" lon="5.958519833340967" id="-31320">
		<tag k="name" v="Flatkvål" />
		<tag k="place" v="hamlet" />
		<tag k="ssr:stedsnr" v="372757" />
	</node>
	<node lat="60.479033337211476" lon="5.7373861047393335" id="-31352">
		<tag k="name" v="Vaksdal" />
		<tag k="place" v="village" />
		<tag k="ssr:stedsnr" v="430952" />
	</node>
	<node lat="60.72801944641758" lon="5.754916673504677" id="-31354">
		<tag k="name" v="Utlabakken" />
		<tag k="place" v="locality" />
		<tag k="ssr:stedsnr" v="431318" />
	</node>
	<node lat="60.67704632159906" lon="5.800283569109" id="-31355">
		<tag k="fixme" v="consider place=hamlet" />
		<tag k="name" v="Øyane" />
		<tag k="place" v="farm" />
		<tag k="ssr:stedsnr" v="431346" />
	</node>
	<node lat="60.70306111278493" lon="5.820669437790333" id="-31357">
		<tag k="historic" v="shieling" />
		<tag k="name" v="Hesjedalsstølen" />
		<tag k="place" v="isolated_dwelling" />
		<tag k="ssr:stedsnr" v="431392" />
	</node>
	<node lat="60.69659444297436" lon="5.846691668830439" id="-31358">
		<tag k="historic" v="shieling" />
		<tag k="name" v="Gavvasstølen" />
		<tag k="place" v="isolated_dwelling" />
		<tag k="ssr:stedsnr" v="431499" />
	</node>
	<node lat="60.56359166814188" lon="5.753680547703446" id="-31360">
		<tag k="fixme" v="consider place=hamlet" />
		<tag k="name" v="Helle" />
		<tag k="place" v="village" />
		<tag k="ssr:stedsnr" v="431639" />
	</node>
	<node lat="60.70497350227491" lon="5.676113147353192" id="-31362">
		<tag k="alt_name" v="Elviki;Elvik" />
		<tag k="fixme" v="consider place=hamlet" />
		<tag k="name" v="Ellviki" />
		<tag k="place" v="farm" />
		<tag k="ssr:stedsnr" v="491263" />
	</node>
	<node lat="60.62895706885585" lon="5.71716186079197" id="-31365">
		<tag k="fixme" v="consider place=hamlet" />
		<tag k="name" v="Veo" />
		<tag k="place" v="farm" />
		<tag k="ssr:stedsnr" v="431724" />
	</node>
	<node lat="60.65924444663872" lon="5.739930559777544" id="-31371">
		<tag k="name" v="Solarås" />
		<tag k="place" v="farm" />
		<tag k="ssr:stedsnr" v="431695" />
	</node>
	<node lat="60.66581944036573" lon="5.752705552792246" id="-31386">
		<tag k="fixme" v="consider place=hamlet" />
		<tag k="name" v="Stamnes" />
		<tag k="place" v="farm" />
		<tag k="ssr:stedsnr" v="491635" />
	</node>
	<node lat="60.80742499606554" lon="6.040213884185441" id="-31389">
		<tag k="historic" v="shieling" />
		<tag k="name" v="Laviksstølen" />
		<tag k="place" v="isolated_dwelling" />
		<tag k="ssr:stedsnr" v="433227" />
	</node>
	<node lat="60.66783055421259" lon="5.816675007784094" id="-31392">
		<tag k="historic" v="shieling" />
		<tag k="name" v="Nesatræet" />
		<tag k="place" v="isolated_dwelling" />
		<tag k="ssr:stedsnr" v="491657" />
	</node>
	<node lat="60.664510454534685" lon="5.748723764571219" id="-31403">
		<tag k="fixme" v="consider place=hamlet" />
		<tag k="name" v="Stamneshella" />
		<tag k="place" v="village" />
		<tag k="ssr:stedsnr" v="492633" />
	</node>
	<node lat="60.820277775556185" lon="6.155555553348745" id="-31410">
		<tag k="historic" v="shieling" />
		<tag k="name" v="Brakestadstølen" />
		<tag k="place" v="isolated_dwelling" />
		<tag k="ssr:stedsnr" v="493253" />
	</node>
	<node lat="60.751525001382944" lon="5.933155546998374" id="-31412">
		<tag k="historic" v="shieling" />
		<tag k="name" v="Nesstølen" />
		<tag k="place" v="isolated_dwelling" />
		<tag k="ssr:stedsnr" v="493681" />
	</node>
	<node lat="60.81901111188955" lon="6.036824994226606" id="-31418">
		<tag k="historic" v="shieling" />
		<tag k="name" v="Haugastølen" />
		<tag k="place" v="isolated_dwelling" />
		<tag k="ssr:stedsnr" v="494198" />
	</node>
	<node lat="60.593305551125304" lon="5.739569444766632" id="-31429">
		<tag k="name" v="Fylingshaugen" />
		<tag k="place" v="locality" />
		<tag k="ssr:stedsnr" v="673548" />
	</node>
	<node lat="60.599024995921255" lon="5.8247749990892475" id="-31430">
		<tag k="name" v="Hagabø" />
		<tag k="place" v="farm" />
		<tag k="ssr:stedsnr" v="673554" />
	</node>
	<node lat="60.55360803053242" lon="6.024760558134883" id="-31441">
		<tag k="fixme" v="consider place=hamlet" />
		<tag k="name" v="Kaldestad" />
		<tag k="place" v="farm" />
		<tag k="ssr:stedsnr" v="673782" />
	</node>
	<node lat="60.53673333066579" lon="6.079166661047682" id="-31442">
		<tag k="fixme" v="consider tourism=alpine_hut or tourism=chalet" />
		<tag k="name" v="Alexander Grieghytten" />
		<tag k="ssr:stedsnr" v="673791" />
		<tag k="tourism" v="wilderness_hut" />
	</node>
	<node lat="60.61374722293214" lon="5.869069439372666" id="-31450">
		<tag k="historic" v="shieling" />
		<tag k="name" v="Fornesstølen" />
		<tag k="place" v="isolated_dwelling" />
		<tag k="ssr:stedsnr" v="674170" />
	</node>
	<node lat="60.556241282390005" lon="6.016966050158201" id="-31454">
		<tag k="fixme" v="consider place=hamlet" />
		<tag k="name" v="Hatlestad" />
		<tag k="place" v="farm" />
		<tag k="ssr:stedsnr" v="674805" />
	</node>
	<node lat="60.815111109815916" lon="6.099266668245142" id="-31465">
		<tag k="historic" v="shieling" />
		<tag k="name" v="Fjellangsstølen" />
		<tag k="place" v="isolated_dwelling" />
		<tag k="ssr:stedsnr" v="675226" />
	</node>
	<node lat="60.579316664976155" lon="5.873150003909625" id="-31466">
		<tag k="name" v="Fosse" />
		<tag k="place" v="hamlet" />
		<tag k="ssr:stedsnr" v="468122" />
	</node>
	<node lat="60.67288888872396" lon="5.732772221639999" id="-31469">
		<tag k="name" v="Træet" />
		<tag k="place" v="hamlet" />
		<tag k="ssr:stedsnr" v="468613" />
	</node>
	<node lat="60.78158333353255" lon="5.949780547614748" id="-31501">
		<tag k="name" v="Øyna" />
		<tag k="place" v="locality" />
		<tag k="ssr:stedsnr" v="675770" />
	</node>
	<node lat="60.75080048716926" lon="5.822201474264299" id="-31507">
		<tag k="alt_name" v="Eikefit" />
		<tag k="fixme" v="consider place=hamlet" />
		<tag k="name" v="Eikefet" />
		<tag k="place" v="farm" />
		<tag k="ssr:stedsnr" v="676060" />
	</node>
	<node lat="60.45209579496269" lon="5.711763446128163" id="-31512">
		<tag k="fixme" v="consider place=hamlet" />
		<tag k="name" v="Langhelle" />
		<tag k="place" v="farm" />
		<tag k="ssr:stedsnr" v="490043" />
	</node>
	<node lat="60.45374722594743" lon="5.72412499724853" id="-31513">
		<tag k="name" v="Kjeneset" />
		<tag k="place" v="farm" />
		<tag k="ssr:stedsnr" v="490044" />
	</node>
	<node lat="60.586391665629904" lon="5.818877780181969" id="-31519">
		<tag k="name" v="Dale" />
		<tag k="place" v="village" />
		<tag k="ssr:stedsnr" v="491580" />
	</node>
	<node lat="60.5791194406221" lon="5.77727499949344" id="-31520">
		<tag k="name" v="Dalehagen" />
		<tag k="place" v="farm" />
		<tag k="ssr:stedsnr" v="491597" />
	</node>
	<node lat="60.63820875409451" lon="5.721319335508751" id="-31524">
		<tag k="alt_name" v="Bukksteinen;Bukkestein" />
		<tag k="fixme" v="consider place=hamlet" />
		<tag k="name" v="Bukkstein" />
		<tag k="place" v="farm" />
		<tag k="ssr:stedsnr" v="491696" />
	</node>
	<node lat="60.687838889065986" lon="5.720486108843723" id="-31567">
		<tag k="name" v="Toskhelleren" />
		<tag k="place" v="farm" />
		<tag k="ssr:stedsnr" v="551344" />
	</node>
	<node lat="60.5811916653175" lon="5.793758337515873" id="-31574">
		<tag k="name" v="Dalegarden" />
		<tag k="place" v="hamlet" />
		<tag k="ssr:stedsnr" v="552635" />
	</node>
	<node lat="60.65664166935797" lon="5.804255554909355" id="-31579">
		<tag k="fixme" v="consider place=hamlet" />
		<tag k="name" v="Straume" />
		<tag k="place" v="village" />
		<tag k="ssr:stedsnr" v="552704" />
	</node>
	<node lat="60.53748333530574" lon="6.038594445178589" id="-31582">
		<tag k="historic" v="shieling" />
		<tag k="name" v="Tårneset" />
		<tag k="place" v="isolated_dwelling" />
		<tag k="ssr:stedsnr" v="552819" />
	</node>
	<node lat="60.78259721843452" lon="5.865433337429782" id="-31604">
		<tag k="name" v="Høvik" />
		<tag k="place" v="hamlet" />
		<tag k="ssr:stedsnr" v="590662" />
	</node>
	<node lat="60.45465749680568" lon="5.641074508526566" id="-31638">
		<tag k="fixme" v="consider place=hamlet" />
		<tag k="name" v="Hana" />
		<tag k="place" v="farm" />
		<tag k="ssr:stedsnr" v="612016" />
	</node>
	<node lat="60.72034444217532" lon="5.683802769300709" id="-31641">
		<tag k="historic" v="shieling" />
		<tag k="name" v="Ellvikstølen" />
		<tag k="place" v="isolated_dwelling" />
		<tag k="ssr:stedsnr" v="612288" />
	</node>
	<node lat="60.73213611050846" lon="5.842216667294631" id="-31643">
		<tag k="historic" v="shieling" />
		<tag k="name" v="Mysterstølen" />
		<tag k="place" v="isolated_dwelling" />
		<tag k="ssr:stedsnr" v="612302" />
	</node>
	<node lat="60.56171944700011" lon="5.6703583410516325" id="-31646">
		<tag k="name" v="Midttun" />
		<tag k="place" v="farm" />
		<tag k="ssr:stedsnr" v="612627" />
	</node>
	<node lat="60.70566111382964" lon="5.699750006570101" id="-31655">
		<tag k="name" v="Dalen" />
		<tag k="place" v="farm" />
		<tag k="ssr:stedsnr" v="613258" />
	</node>
	<node lat="60.7993372303605" lon="6.045999616319574" id="-31661">
		<tag k="fixme" v="consider place=hamlet" />
		<tag k="name" v="Haugen" />
		<tag k="place" v="farm" />
		<tag k="ssr:stedsnr" v="614218" />
	</node>
	<node lat="60.77223055702367" lon="5.827850007859441" id="-31667">
		<tag k="historic" v="shieling" />
		<tag k="name" v="Eikemostølen" />
		<tag k="place" v="isolated_dwelling" />
		<tag k="ssr:stedsnr" v="615048" />
	</node>
	<node lat="60.541274996519824" lon="5.699772219672233" id="-31689">
		<tag k="name" v="Faugstad" />
		<tag k="place" v="farm" />
		<tag k="ssr:stedsnr" v="651336" />
	</node>
	<node lat="60.62967777838159" lon="5.792213887449394" id="-31719">
		<tag k="historic" v="shieling" />
		<tag k="name" v="Botnastølen" />
		<tag k="place" v="isolated_dwelling" />
		<tag k="ssr:stedsnr" v="673729" />
	</node>
	<node lat="60.53484999974313" lon="5.925752786750479" id="-31721">
		<tag k="fixme" v="consider tourism=alpine_hut or tourism=chalet" />
		<tag k="name" v="Høgabu" />
		<tag k="old_name" v="Høgabu th" />
		<tag k="ssr:stedsnr" v="673813" />
		<tag k="tourism" v="wilderness_hut" />
	</node>
	<node lat="60.70366110757198" lon="5.772538887325992" id="-31726">
		<tag k="name" v="Hesjedalsstoi" />
		<tag k="place" v="locality" />
		<tag k="ssr:stedsnr" v="674352" />
	</node>
	<node lat="60.61429244335681" lon="5.8387542862347255" id="-31728">
		<tag k="fixme" v="consider place=hamlet" />
		<tag k="name" v="Dalseid" />
		<tag k="place" v="farm" />
		<tag k="ssr:stedsnr" v="674505" />
	</node>
	<node lat="60.797166666737375" lon="6.085025008895836" id="-31731">
		<tag k="historic" v="shieling" />
		<tag k="name" v="Yksendalsstølen" />
		<tag k="place" v="isolated_dwelling" />
		<tag k="ssr:stedsnr" v="675744" />
	</node>
	<node lat="60.66171111052218" lon="5.781836102551577" id="-31735">
		<tag k="name" v="Lii" />
		<tag k="place" v="isolated_dwelling" />
		<tag k="ssr:stedsnr" v="893685" />
	</node>
	<node lat="60.70096944873412" lon="5.678686116906155" id="-31826">
		<tag k="alt_name" v="Steinsbogen" />
		<tag k="name" v="Steinbogen" />
		<tag k="place" v="farm" />
		<tag k="ssr:stedsnr" v="734294" />
	</node>
	<node lat="60.73837500052465" lon="6.0417138870909834" id="-31827">
		<tag k="historic" v="shieling" />
		<tag k="name" v="Fosstølen" />
		<tag k="place" v="isolated_dwelling" />
		<tag k="ssr:stedsnr" v="734447" />
	</node>
	<node lat="60.64415640821099" lon="5.820982302179245" id="-31832">
		<tag k="fixme" v="consider place=hamlet" />
		<tag k="name" v="Dyviki" />
		<tag k="place" v="farm" />
		<tag k="ssr:stedsnr" v="734705" />
	</node>
	<node lat="60.55494166849671" lon="6.027202769837228" id="-31841">
		<tag k="historic" v="shieling" />
		<tag k="name" v="Høgastølen" />
		<tag k="place" v="isolated_dwelling" />
		<tag k="ssr:stedsnr" v="734813" />
	</node>
	<node lat="60.56226280105365" lon="6.003806762047265" id="-31842">
		<tag k="fixme" v="consider place=hamlet" />
		<tag k="name" v="Berge" />
		<tag k="place" v="farm" />
		<tag k="ssr:stedsnr" v="734814" />
	</node>
	<node lat="60.52546667086399" lon="5.724925006593119" id="-31861">
		<tag k="name" v="Høghaugen" />
		<tag k="place" v="isolated_dwelling" />
		<tag k="ssr:stedsnr" v="771620" />
	</node>
	<node lat="60.68504722027097" lon="5.677422229910647" id="-31869">
		<tag k="name" v="Vikane" />
		<tag k="place" v="farm" />
		<tag k="ssr:stedsnr" v="772759" />
	</node>
	<node lat="60.53823333042011" lon="6.078341660284384" id="-31886">
		<tag k="name" v="Holeberg" />
		<tag k="place" v="hamlet" />
		<tag k="ssr:stedsnr" v="772979" />
	</node>
	<node lat="60.456716380058815" lon="5.678424536907654" id="-31910">
		<tag k="fixme" v="consider place=hamlet" />
		<tag k="name" v="Sandviki" />
		<tag k="place" v="farm" />
		<tag k="ssr:stedsnr" v="794010" />
	</node>
	<node lat="60.72111570430252" lon="5.771832040689522" id="-31912">
		<tag k="alt_name" v="Brørvik" />
		<tag k="fixme" v="consider place=hamlet" />
		<tag k="name" v="Brørviki" />
		<tag k="place" v="farm" />
		<tag k="ssr:stedsnr" v="795303" />
	</node>
	<node lat="60.67779999756118" lon="5.736933327560156" id="-31915">
		<tag k="alt_name" v="Svarteberget" />
		<tag k="name" v="Berget" />
		<tag k="place" v="farm" />
		<tag k="ssr:stedsnr" v="795363" />
	</node>
	<node lat="60.71082264455752" lon="5.710027447174523" id="-31917">
		<tag k="alt_name" v="Mellesdal" />
		<tag k="fixme" v="consider place=hamlet" />
		<tag k="name" v="Mellesdalen" />
		<tag k="place" v="farm" />
		<tag k="ssr:stedsnr" v="795291" />
	</node>
	<node lat="60.66598888594794" lon="5.772394437987447" id="-31925">
		<tag k="name" v="Sanden" />
		<tag k="place" v="farm" />
		<tag k="ssr:stedsnr" v="795659" />
	</node>
	<node lat="60.76504144592507" lon="5.8288605109125715" id="-31929">
		<tag k="fixme" v="consider place=hamlet" />
		<tag k="name" v="Eikemo" />
		<tag k="place" v="farm" />
		<tag k="ssr:stedsnr" v="797066" />
	</node>
	<node lat="60.802021124180406" lon="6.146964951689147" id="-31932">
		<tag k="fixme" v="consider place=hamlet" />
		<tag k="name" v="Nesheim" />
		<tag k="place" v="farm" />
		<tag k="ssr:stedsnr" v="797212" />
	</node>
	<node lat="60.78935278069803" lon="6.067061106195312" id="-31934">
		<tag k="fixme" v="consider place=hamlet" />
		<tag k="name" v="Yksendalen" />
		<tag k="place" v="farm" />
		<tag k="ssr:stedsnr" v="797746" />
	</node>
	<node lat="60.566499998780856" lon="5.893555558237666" id="-31942">
		<tag k="historic" v="shieling" />
		<tag k="name" v="Øyastølen" />
		<tag k="place" v="isolated_dwelling" />
		<tag k="ssr:stedsnr" v="916857" />
	</node>
	<node lat="60.56342821991391" lon="5.709563642710349" id="-31948">
		<tag k="fixme" v="consider place=hamlet" />
		<tag k="name" v="Grautåni" />
		<tag k="place" v="farm" />
		<tag k="ssr:stedsnr" v="916641" />
	</node>
	<node lat="60.66508333437236" lon="5.861166674721173" id="-31962">
		<tag k="historic" v="shieling" />
		<tag k="name" v="Dyvikstølen" />
		<tag k="place" v="isolated_dwelling" />
		<tag k="ssr:stedsnr" v="917049" />
	</node>
	<node lat="60.479622220600774" lon="5.790555563987669" id="-31963">
		<tag k="name" v="Haugen" />
		<tag k="place" v="farm" />
		<tag k="ssr:stedsnr" v="916954" />
	</node>
	<node lat="60.81909166346269" lon="6.3049083394941" id="-31975">
		<tag k="name" v="Holo" />
		<tag k="place" v="isolated_dwelling" />
		<tag k="ssr:stedsnr" v="918563" />
	</node>
	<node lat="60.82833055967901" lon="6.149394439263725" id="-31978">
		<tag k="historic" v="shieling" />
		<tag k="name" v="Martastølen" />
		<tag k="place" v="isolated_dwelling" />
		<tag k="ssr:stedsnr" v="919211" />
	</node>
	<node lat="60.59677499731863" lon="5.822655562788533" id="-31988">
		<tag k="name" v="Nybø" />
		<tag k="place" v="farm" />
		<tag k="ssr:stedsnr" v="855535" />
	</node>
	<node lat="60.73889967020363" lon="5.799357523333771" id="-31989">
		<tag k="fixme" v="consider place=hamlet" />
		<tag k="name" v="Eide" />
		<tag k="place" v="farm" />
		<tag k="ssr:stedsnr" v="855299" />
	</node>
	<node lat="60.654819441318125" lon="5.781274992129986" id="-31991">
		<tag k="name" v="Uleviki" />
		<tag k="place" v="locality" />
		<tag k="ssr:stedsnr" v="855693" />
	</node>
	<node lat="60.72009444834528" lon="5.750894447191015" id="-31995">
		<tag k="historic" v="shieling" />
		<tag k="name" v="Brørvikstølen" />
		<tag k="place" v="isolated_dwelling" />
		<tag k="ssr:stedsnr" v="856288" />
	</node>
	<node lat="60.5514999998553" lon="5.651519435707949" id="-32005">
		<tag k="name" v="Kalvtræet" />
		<tag k="place" v="farm" />
		<tag k="ssr:stedsnr" v="856911" />
	</node>
	<node lat="60.78472948461771" lon="5.864433968273648" id="-32010">
		<tag k="alt_name" v="Høvik" />
		<tag k="fixme" v="consider place=hamlet" />
		<tag k="name" v="Heviki" />
		<tag k="place" v="farm" />
		<tag k="ssr:stedsnr" v="858214" />
	</node>
	<node lat="60.51306944150834" lon="5.726213890520914" id="-32020">
		<tag k="name" v="Andaberget" />
		<tag k="place" v="isolated_dwelling" />
		<tag k="ssr:stedsnr" v="893608" />
	</node>
	<node lat="60.68843055755232" lon="5.720613896876533" id="-32027">
		<tag k="name" v="Mjeltviki" />
		<tag k="place" v="isolated_dwelling" />
		<tag k="ssr:stedsnr" v="894760" />
	</node>
	<node lat="60.73846111247066" lon="5.809969436397665" id="-32058">
		<tag k="name" v="Nordheim" />
		<tag k="place" v="farm" />
		<tag k="ssr:stedsnr" v="916319" />
	</node>
	<node lat="60.5686638850049" lon="5.977400003541103" id="-32072">
		<tag k="historic" v="shieling" />
		<tag k="name" v="Solbjørg" />
		<tag k="place" v="isolated_dwelling" />
		<tag k="ssr:stedsnr" v="917814" />
	</node>
	<node lat="60.79530277988195" lon="5.990094444450853" id="-32074">
		<tag k="historic" v="shieling" />
		<tag k="name" v="Flatkvålsstølen" />
		<tag k="place" v="isolated_dwelling" />
		<tag k="ssr:stedsnr" v="918210" />
	</node>
	<node lat="60.795816662739306" lon="5.881116668537866" id="-32075">
		<tag k="alt_name" v="Veslejordsstølen" />
		<tag k="historic" v="shieling" />
		<tag k="name" v="Vetlejordsstølen" />
		<tag k="place" v="isolated_dwelling" />
		<tag k="ssr:stedsnr" v="918215" />
	</node>
	<node lat="60.7737027773778" lon="6.0571777740103565" id="-32085">
		<tag k="name" v="Leina" />
		<tag k="place" v="locality" />
		<tag k="ssr:stedsnr" v="918753" />
	</node>
	<node lat="60.46387161468928" lon="5.742043973507488" id="-32128">
		<tag k="fixme" v="consider place=hamlet" />
		<tag k="name" v="Bogo" />
		<tag k="place" v="village" />
		<tag k="ssr:stedsnr" v="971609" />
	</node>
	<node lat="60.54737298510394" lon="5.702104541562135" id="-32129">
		<tag k="fixme" v="consider place=hamlet" />
		<tag k="name" v="Fokstad" />
		<tag k="place" v="farm" />
		<tag k="ssr:stedsnr" v="989564" />
	</node>
	<node lat="60.48173005447935" lon="5.757292944422806" id="-32130">
		<tag k="fixme" v="consider place=hamlet" />
		<tag k="name" v="Vaksdal" />
		<tag k="place" v="farm" />
		<tag k="ssr:stedsnr" v="989571" />
	</node>
	<node lat="60.55146846248278" lon="5.742467315331845" id="-32131">
		<tag k="fixme" v="consider place=hamlet" />
		<tag k="name" v="Stanghelle" />
		<tag k="place" v="farm" />
		<tag k="ssr:stedsnr" v="989572" />
	</node>
	<node lat="60.563444850845094" lon="5.760037579884053" id="-32132">
		<tag k="fixme" v="consider place=hamlet" />
		<tag k="name" v="Helle" />
		<tag k="place" v="farm" />
		<tag k="ssr:stedsnr" v="989573" />
	</node>
	<node lat="60.666987232737824" lon="5.75960083998427" id="-32133">
		<tag k="fixme" v="consider place=hamlet" />
		<tag k="name" v="Stamnesleiren" />
		<tag k="place" v="farm" />
		<tag k="ssr:stedsnr" v="989578" />
	</node>
	<node lat="60.656300102649276" lon="5.809092345442221" id="-32134">
		<tag k="fixme" v="consider place=hamlet" />
		<tag k="name" v="Straume" />
		<tag k="place" v="farm" />
		<tag k="ssr:stedsnr" v="989579" />
	</node>
	<node lat="60.568111700245" lon="5.979733140242178" id="-32135">
		<tag k="fixme" v="consider place=hamlet" />
		<tag k="name" v="Solbjørg" />
		<tag k="place" v="farm" />
		<tag k="ssr:stedsnr" v="989587" />
	</node>
	<node lat="60.67966388679102" lon="5.891949991420673" id="-32136">
		<tag k="barrier" v="fence" />
		<tag k="name" v="Steingjerdet" />
		<tag k="ssr:stedsnr" v="6024" />
	</node>
	<node lat="60.68383333058893" lon="5.743050000429513" id="-32142">
		<tag k="name" v="Bjørkheim" />
		<tag k="place" v="farm" />
		<tag k="ssr:stedsnr" v="6354" />
	</node>
	<node lat="60.68272500100027" lon="5.728905546730841" id="-32153">
		<tag k="name" v="Sanddalen" />
		<tag k="place" v="farm" />
		<tag k="ssr:stedsnr" v="6350" />
	</node>
	<node lat="60.51003333644671" lon="5.818163892135702" id="-32174">
		<tag k="historic" v="shieling" />
		<tag k="name" v="Nyvegen" />
		<tag k="place" v="isolated_dwelling" />
		<tag k="ssr:stedsnr" v="6990" />
	</node>
	<node lat="60.80540833725745" lon="6.211691663277923" id="-32180">
		<tag k="historic" v="shieling" />
		<tag k="name" v="Eksestølen" />
		<tag k="place" v="isolated_dwelling" />
		<tag k="ssr:stedsnr" v="8226" />
	</node>
	<node lat="60.854380557605644" lon="6.169980551163726" id="-32189">
		<tag k="historic" v="shieling" />
		<tag k="name" v="Beinhelleren" />
		<tag k="place" v="isolated_dwelling" />
		<tag k="ssr:stedsnr" v="9117" />
	</node>
	<node lat="60.687429765514615" lon="5.744372123791108" id="-32253">
		<tag k="fixme" v="consider place=hamlet" />
		<tag k="name" v="Kalland" />
		<tag k="place" v="farm" />
		<tag k="ssr:stedsnr" v="66327" />
	</node>
	<node lat="60.49366352761576" lon="5.73397918550724" id="-32261">
		<tag k="alt_name" v="Skreia" />
		<tag k="fixme" v="consider place=hamlet" />
		<tag k="name" v="Skreidi" />
		<tag k="place" v="farm" />
		<tag k="ssr:stedsnr" v="66973" />
	</node>
	<node lat="60.481213292538214" lon="5.792182112841113" id="-32266">
		<tag k="alt_name" v="Herfendalen;Herfinndal" />
		<tag k="fixme" v="consider place=hamlet" />
		<tag k="name" v="Herfindal" />
		<tag k="place" v="farm" />
		<tag k="ssr:stedsnr" v="66937" />
	</node>
	<node lat="60.57259444769262" lon="5.8171055623594405" id="-32272">
		<tag k="historic" v="shieling" />
		<tag k="name" v="Dalestølen" />
		<tag k="place" v="isolated_dwelling" />
		<tag k="ssr:stedsnr" v="67613" />
	</node>
	<node lat="60.84303055835752" lon="6.219402785311935" id="-32292">
		<tag k="historic" v="shieling" />
		<tag k="name" v="Trefallstølen" />
		<tag k="place" v="isolated_dwelling" />
		<tag k="ssr:stedsnr" v="69576" />
	</node>
	<node lat="60.56201944205809" lon="5.781005561479461" id="-32359">
		<tag k="alt_name" v="Hellestølen" />
		<tag k="historic" v="shieling" />
		<tag k="name" v="Hellesætra" />
		<tag k="place" v="isolated_dwelling" />
		<tag k="ssr:stedsnr" v="127663" />
	</node>
	<node lat="60.607927777408214" lon="5.898841660543324" id="-32361">
		<tag k="historic" v="shieling" />
		<tag k="name" v="Verpelstadstølen" />
		<tag k="place" v="isolated_dwelling" />
		<tag k="ssr:stedsnr" v="127229" />
	</node>
	<node lat="60.69683610868437" lon="5.83402499413686" id="-32368">
		<tag k="historic" v="shieling" />
		<tag k="name" v="Øyastølen" />
		<tag k="place" v="isolated_dwelling" />
		<tag k="ssr:stedsnr" v="127375" />
	</node>
	<node lat="60.53681111410095" lon="6.031730558313017" id="-32374">
		<tag k="historic" v="shieling" />
		<tag k="name" v="Midtstølen" />
		<tag k="place" v="isolated_dwelling" />
		<tag k="ssr:stedsnr" v="127785" />
	</node>
	<node lat="60.63579728502556" lon="5.7396124396496395" id="-32381">
		<tag k="alt_name" v="Kåstad" />
		<tag k="fixme" v="consider place=hamlet" />
		<tag k="name" v="Kvåstad" />
		<tag k="place" v="farm" />
		<tag k="ssr:stedsnr" v="127737" />
	</node>
	<node lat="60.784870134734525" lon="5.881484488333985" id="-32454">
		<tag k="alt_name" v="Veslejordi" />
		<tag k="fixme" v="consider place=hamlet" />
		<tag k="loc_name" v="Vetlejorda" />
		<tag k="name" v="Vetlejord" />
		<tag k="place" v="farm" />
		<tag k="ssr:stedsnr" v="173199" />
	</node>
	<node lat="60.66575000288569" lon="5.7839361142567665" id="-32456">
		<tag k="historic" v="shieling" />
		<tag k="name" v="Høgestølen" />
		<tag k="place" v="isolated_dwelling" />
		<tag k="ssr:stedsnr" v="188688" />
	</node>
	<node lat="60.55435833119717" lon="5.914466673333918" id="-32462">
		<tag k="historic" v="shieling" />
		<tag k="name" v="Brekkestølen" />
		<tag k="place" v="isolated_dwelling" />
		<tag k="ssr:stedsnr" v="188847" />
	</node>
	<node lat="60.48819166510569" lon="5.764938895204834" id="-32464">
		<tag k="name" v="Olagarden" />
		<tag k="place" v="farm" />
		<tag k="ssr:stedsnr" v="187962" />
	</node>
	<node lat="60.62682499602118" lon="5.8965500045319255" id="-32465">
		<tag k="name" v="Sibirien" />
		<tag k="place" v="isolated_dwelling" />
		<tag k="ssr:stedsnr" v="188159" />
	</node>
	<node lat="60.68486388816821" lon="5.669519452848893" id="-32469">
		<tag k="name" v="Træet" />
		<tag k="place" v="farm" />
		<tag k="ssr:stedsnr" v="188396" />
	</node>
	<node lat="60.673550002066214" lon="5.739544436820576" id="-32472">
		<tag k="name" v="Stamneshagen" />
		<tag k="place" v="farm" />
		<tag k="ssr:stedsnr" v="188347" />
	</node>
	<node lat="60.641198428141486" lon="5.660872978052214" id="-32480">
		<tag k="fixme" v="consider place=hamlet" />
		<tag k="name" v="Moen" />
		<tag k="place" v="farm" />
		<tag k="ssr:stedsnr" v="188725" />
	</node>
	<node lat="60.77449793506981" lon="6.0687400293381755" id="-32500">
		<tag k="fixme" v="consider place=hamlet" />
		<tag k="name" v="Fosse" />
		<tag k="place" v="farm" />
		<tag k="ssr:stedsnr" v="190717" />
	</node>
	<node lat="60.56188937297558" lon="5.670387291055077" id="-32511">
		<tag k="fixme" v="consider tourism=alpine_hut or tourism=chalet" />
		<tag k="name" v="Træet gård" />
		<tag k="ssr:stedsnr" v="216494" />
		<tag k="tourism" v="wilderness_hut" />
	</node>
	<node lat="60.57545277597228" lon="5.944966662052827" id="-32534">
		<tag k="name" v="Klypet" />
		<tag k="place" v="hamlet" />
		<tag k="ssr:stedsnr" v="226966" />
	</node>
	<node lat="60.57872499597236" lon="5.772927778841399" id="-32617">
		<tag k="name" v="Tveite" />
		<tag k="place" v="locality" />
		<tag k="ssr:stedsnr" v="309611" />
	</node>
	<node lat="60.631338886723725" lon="5.862497213780272" id="-32625">
		<tag k="historic" v="shieling" />
		<tag k="name" v="Lammastølen" />
		<tag k="place" v="isolated_dwelling" />
		<tag k="ssr:stedsnr" v="310124" />
	</node>
	<node lat="60.57366388801661" lon="5.880361108008646" id="-32630">
		<tag k="historic" v="shieling" />
		<tag k="name" v="Fossestølen" />
		<tag k="place" v="isolated_dwelling" />
		<tag k="ssr:stedsnr" v="309870" />
	</node>
	<node lat="60.48527222121905" lon="5.765630557706208" id="-32637">
		<tag k="name" v="Synsvoll" />
		<tag k="place" v="farm" />
		<tag k="ssr:stedsnr" v="309966" />
	</node>
	<node lat="60.692061095368345" lon="5.7826636209133895" id="-32639">
		<tag k="fixme" v="consider place=hamlet" />
		<tag k="name" v="Hesjedalen" />
		<tag k="place" v="farm" />
		<tag k="ssr:stedsnr" v="310347" />
	</node>
	<node lat="60.76913055179317" lon="5.856136118498952" id="-32649">
		<tag k="name" v="Fitjane" />
		<tag k="place" v="locality" />
		<tag k="ssr:stedsnr" v="311748" />
	</node>
	<node lat="60.827614030466925" lon="6.243815081411314" id="-32653">
		<tag k="fixme" v="consider place=hamlet" />
		<tag k="name" v="Ekse" />
		<tag k="place" v="farm" />
		<tag k="ssr:stedsnr" v="312560" />
	</node>
	<node lat="60.63185555496426" lon="5.718427784520883" id="-32669">
		<tag k="name" v="Groli" />
		<tag k="place" v="farm" />
		<tag k="ssr:stedsnr" v="347753" />
	</node>
	<node lat="60.6181138867701" lon="5.70321666715168" id="-32712">
		<tag k="historic" v="shieling" />
		<tag k="name" v="Veastølen" />
		<tag k="place" v="isolated_dwelling" />
		<tag k="ssr:stedsnr" v="370728" />
	</node>
	<node lat="60.632274996192145" lon="5.830538892975265" id="-32713">
		<tag k="name" v="Tyssebruni" />
		<tag k="place" v="farm" />
		<tag k="ssr:stedsnr" v="370746" />
	</node>
	<node lat="60.61735555783894" lon="5.801486113631332" id="-32718">
		<tag k="historic" v="shieling" />
		<tag k="name" v="Dalseidstølen" />
		<tag k="place" v="isolated_dwelling" />
		<tag k="ssr:stedsnr" v="370552" />
	</node>
	<node lat="60.554549833248096" lon="5.651103461981662" id="-32723">
		<tag k="fixme" v="consider place=hamlet" />
		<tag k="name" v="Blomdalen" />
		<tag k="place" v="farm" />
		<tag k="ssr:stedsnr" v="370628" />
	</node>
	<node lat="60.6676749979575" lon="5.777683342134544" id="-32727">
		<tag k="name" v="Lunde" />
		<tag k="place" v="farm" />
		<tag k="ssr:stedsnr" v="370643" />
	</node>
	<node lat="60.54672499778864" lon="5.648491658568393" id="-32736">
		<tag k="name" v="Heggebotnen" />
		<tag k="place" v="farm" />
		<tag k="ssr:stedsnr" v="370901" />
	</node>
</osm>
