<?xml version="1.0" encoding="UTF-8"?>
<osm version="0.6" generator="osmapis">
	<node lat="60.52403055414399" lon="5.72277222280517" id="-31312">
		<tag k="name" v="Hjortavika" />
		<tag k="natural" v="bay" />
		<tag k="ssr:stedsnr" v="45211" />
	</node>
	<node lat="60.65037284165595" lon="5.802868624771889" id="-31319">
		<tag k="name" v="Hetlevikneset" />
		<tag k="natural" v="cape" />
		<tag k="ssr:stedsnr" v="45774" />
	</node>
	<node lat="60.68841388974984" lon="5.674980562845247" id="-31333">
		<tag k="name" v="Grøssvikvågen" />
		<tag k="natural" v="bay" />
		<tag k="ssr:stedsnr" v="67392" />
	</node>
	<node lat="60.718030552564976" lon="5.783591668242825" id="-31382">
		<tag k="alt_name" v="Store Juvika" />
		<tag k="name" v="Juvika" />
		<tag k="natural" v="bay" />
		<tag k="ssr:stedsnr" v="249237" />
	</node>
	<node lat="60.70275833710795" lon="5.759891673066346" id="-31394">
		<tag k="name" v="Leirvika" />
		<tag k="natural" v="bay" />
		<tag k="ssr:stedsnr" v="249361" />
	</node>
	<node lat="60.71988889180291" lon="5.785688881309099" id="-31413">
		<tag k="name" v="Litlevikneset" />
		<tag k="natural" v="cape" />
		<tag k="ssr:stedsnr" v="106810" />
	</node>
	<node lat="60.599169445214" lon="5.726355551771016" id="-31420">
		<tag k="alt_name" v="Vedåfjorden" />
		<tag k="bay" v="fjord" />
		<tag k="name" v="Veafjorden" />
		<tag k="natural" v="bay" />
		<tag k="ssr:stedsnr" v="249642" />
	</node>
	<node lat="60.555708330376184" lon="5.7222111061068155" id="-31430">
		<tag k="name" v="Stølavika" />
		<tag k="natural" v="bay" />
		<tag k="ssr:stedsnr" v="249892" />
	</node>
	<node lat="60.61008611152909" lon="5.734949993503355" id="-31469">
		<tag k="alt_name" v="Merkjeneset" />
		<tag k="name" v="Merkeneset" />
		<tag k="natural" v="cape" />
		<tag k="ssr:stedsnr" v="127550" />
	</node>
	<node lat="60.658355555804555" lon="5.775083338332405" id="-31474">
		<tag k="name" v="Sveltevika" />
		<tag k="natural" v="bay" />
		<tag k="ssr:stedsnr" v="127695" />
	</node>
	<node lat="60.50823610765353" lon="5.725169445766087" id="-31493">
		<tag k="name" v="Fossneset" />
		<tag k="natural" v="cape" />
		<tag k="ssr:stedsnr" v="164677" />
	</node>
	<node lat="60.685133334426965" lon="5.67582222843544" id="-31523">
		<tag k="name" v="Vikane" />
		<tag k="natural" v="bay" />
		<tag k="ssr:stedsnr" v="166819" />
	</node>
	<node lat="60.64290833508314" lon="5.819577770255832" id="-31574">
		<tag k="name" v="Andersvika" />
		<tag k="natural" v="bay" />
		<tag k="ssr:stedsnr" v="263875" />
	</node>
	<node lat="60.69185833509801" lon="5.673072216558272" id="-31584">
		<tag k="name" v="Sjunnesflua" />
		<tag k="natural" v="shoal" />
		<tag k="place" v="locality" />
		<tag k="ssr:stedsnr" v="226807" />
	</node>
	<node lat="60.68432777440509" lon="5.728486116325696" id="-31586">
		<tag k="name" v="Rotaneset" />
		<tag k="natural" v="cape" />
		<tag k="ssr:stedsnr" v="226791" />
	</node>
	<node lat="60.66056389278962" lon="5.746177769467185" id="-31605">
		<tag k="name" v="Røyrtangen" />
		<tag k="natural" v="cape" />
		<tag k="ssr:stedsnr" v="227846" />
	</node>
	<node lat="60.524669448143236" lon="5.711511105254485" id="-31628">
		<tag k="bay" v="fjord" />
		<tag k="name" v="Sørfjorden" />
		<tag k="natural" v="bay" />
		<tag k="ssr:stedsnr" v="263791" />
	</node>
	<node lat="60.53126390803378" lon="5.723504818491958" id="-31649">
		<tag k="name" v="Storslåttneset" />
		<tag k="natural" v="cape" />
		<tag k="ssr:stedsnr" v="288184" />
	</node>
	<node lat="60.725185467860705" lon="5.783837700872936" id="-31655">
		<tag k="name" v="Fureneset" />
		<tag k="natural" v="cape" />
		<tag k="ssr:stedsnr" v="288782" />
	</node>
	<node lat="60.69216110737597" lon="5.754411107754116" id="-31657">
		<tag k="name" v="Leirvikneset" />
		<tag k="natural" v="cape" />
		<tag k="ssr:stedsnr" v="288689" />
	</node>
	<node lat="60.70924166459175" lon="5.765655556134974" id="-31664">
		<tag k="name" v="Sponvika" />
		<tag k="natural" v="bay" />
		<tag k="ssr:stedsnr" v="309396" />
	</node>
	<node lat="60.64808818804118" lon="5.802380058405987" id="-31671">
		<tag k="name" v="Hetlevika" />
		<tag k="natural" v="bay" />
		<tag k="ssr:stedsnr" v="309690" />
	</node>
	<node lat="60.69789444358848" lon="5.750386103265013" id="-31685">
		<tag k="name" v="Bylgjaneset" />
		<tag k="natural" v="cape" />
		<tag k="ssr:stedsnr" v="310377" />
	</node>
	<node lat="60.4534416686423" lon="5.70526111862808" id="-31701">
		<tag k="name" v="Sauvika" />
		<tag k="natural" v="bay" />
		<tag k="ssr:stedsnr" v="468357" />
	</node>
	<node lat="60.58229444022579" lon="5.71505832797577" id="-31705">
		<tag k="name" v="Einesbukta" />
		<tag k="natural" v="bay" />
		<tag k="ssr:stedsnr" v="468686" />
	</node>
	<node lat="60.69326389178211" lon="5.737686109137541" id="-31725">
		<tag k="name" v="Verpneset" />
		<tag k="natural" v="cape" />
		<tag k="ssr:stedsnr" v="469755" />
	</node>
	<node lat="60.525269447739106" lon="5.722152772402572" id="-31744">
		<tag k="name" v="Belaneset" />
		<tag k="natural" v="cape" />
		<tag k="ssr:stedsnr" v="470191" />
	</node>
	<node lat="60.55914444618032" lon="5.747297229738922" id="-31745">
		<tag k="name" v="Idlasundet" />
		<tag k="natural" v="strait" />
		<tag k="ssr:stedsnr" v="470197" />
	</node>
	<node lat="60.70071110676023" lon="5.6801499953598436" id="-31750">
		<tag k="name" v="Bogavika" />
		<tag k="natural" v="bay" />
		<tag k="ssr:stedsnr" v="470828" />
	</node>
	<node lat="60.57956944742058" lon="5.713874998275371" id="-31759">
		<tag k="name" v="Eineset" />
		<tag k="natural" v="cape" />
		<tag k="ssr:stedsnr" v="346707" />
	</node>
	<node lat="60.690050001401836" lon="5.678113889818682" id="-31767">
		<tag k="name" v="Helleren" />
		<tag k="natural" v="cape" />
		<tag k="ssr:stedsnr" v="347765" />
	</node>
	<node lat="60.71378332992039" lon="5.779963888771097" id="-31769">
		<tag k="name" v="Storneset" />
		<tag k="natural" v="cape" />
		<tag k="ssr:stedsnr" v="347926" />
	</node>
	<node lat="60.70265277813395" lon="5.759277777355913" id="-31770">
		<tag k="fixme" v="consider seamark:type=rock or natural=shoal" />
		<tag k="name" v="Flantskjeret" />
		<tag k="place" v="islet" />
		<tag k="ssr:stedsnr" v="347928" />
	</node>
	<node lat="60.68691388789326" lon="5.7231527779966545" id="-31792">
		<tag k="name" v="Maskevikja" />
		<tag k="natural" v="bay" />
		<tag k="ssr:stedsnr" v="348722" />
	</node>
	<node lat="60.644286113160234" lon="5.727286112901436" id="-31793">
		<tag k="name" v="Bukta" />
		<tag k="natural" v="bay" />
		<tag k="ssr:stedsnr" v="348755" />
	</node>
	<node lat="60.59122499991385" lon="5.733150007193779" id="-31809">
		<tag k="name" v="Fyleneset" />
		<tag k="natural" v="cape" />
		<tag k="ssr:stedsnr" v="370577" />
	</node>
	<node lat="60.62151944141221" lon="5.845033330679688" id="-31870">
		<tag k="alt_name" v="Standarden" />
		<tag k="name" v="Standaren" />
		<tag k="natural" v="cape" />
		<tag k="ssr:stedsnr" v="431192" />
	</node>
	<node lat="60.573005556180846" lon="5.763583341955926" id="-31876">
		<tag k="name" v="Dalevågen" />
		<tag k="natural" v="bay" />
		<tag k="ssr:stedsnr" v="431622" />
	</node>
	<node lat="60.63973055498784" lon="5.8091888862921905" id="-31881">
		<tag k="name" v="Geitabottbukta" />
		<tag k="natural" v="bay" />
		<tag k="ssr:stedsnr" v="431712" />
	</node>
	<node lat="60.5496388926777" lon="5.7280249910204235" id="-31923">
		<tag k="alt_name" v="Stanghelleholmen" />
		<tag k="name" v="Holmen" />
		<tag k="place" v="islet" />
		<tag k="ssr:stedsnr" v="492891" />
	</node>
	<node lat="60.68285833274081" lon="5.739555560084132" id="-31942">
		<tag k="name" v="Ytste Kallandsvika" />
		<tag k="natural" v="bay" />
		<tag k="ssr:stedsnr" v="673355" />
	</node>
	<node lat="60.62468332988213" lon="5.836991674954062" id="-31948">
		<tag k="name" v="Uradalsneset" />
		<tag k="natural" v="cape" />
		<tag k="ssr:stedsnr" v="673734" />
	</node>
	<node lat="60.62128326465768" lon="5.864695271977989" id="-31966">
		<tag k="name" v="Træsneset" />
		<tag k="natural" v="cape" />
		<tag k="ssr:stedsnr" v="674164" />
	</node>
	<node lat="60.54570555714732" lon="5.703902771094022" id="-31992">
		<tag k="name" v="Sveneset" />
		<tag k="natural" v="cape" />
		<tag k="ssr:stedsnr" v="468678" />
	</node>
	<node lat="60.67055833034504" lon="5.73848334020269" id="-32022">
		<tag k="name" v="Hagavikjæ" />
		<tag k="natural" v="bay" />
		<tag k="ssr:stedsnr" v="470865" />
	</node>
	<node lat="60.5645277758914" lon="5.726008329005765" id="-32040">
		<tag k="name" v="Indre Follavika" />
		<tag k="natural" v="bay" />
		<tag k="ssr:stedsnr" v="491622" />
	</node>
	<node lat="60.5512444441421" lon="5.729638893287951" id="-32070">
		<tag k="name" v="Agnavikjæ" />
		<tag k="natural" v="bay" />
		<tag k="ssr:stedsnr" v="530281" />
	</node>
	<node lat="60.69228331552785" lon="5.681996045213651" id="-32080">
		<tag k="name" v="Naustneset" />
		<tag k="natural" v="cape" />
		<tag k="ssr:stedsnr" v="530828" />
	</node>
	<node lat="60.695274998306616" lon="5.732099997918048" id="-32088">
		<tag k="alt_name" v="Osterfjorden, Indre" />
		<tag k="bay" v="fjord" />
		<tag k="name" v="Indre Osterfjorden" />
		<tag k="natural" v="bay" />
		<tag k="old_name" v="Indre-Osterfjorden" />
		<tag k="ssr:stedsnr" v="552409" />
	</node>
	<node lat="60.45811944109605" lon="5.675036108210322" id="-32111">
		<tag k="name" v="Sandvika" />
		<tag k="natural" v="bay" />
		<tag k="old_name" v="Sandviki" />
		<tag k="ssr:stedsnr" v="589367" />
	</node>
	<node lat="60.48969166290576" lon="5.732980554696306" id="-32112">
		<tag k="name" v="Skreianeset" />
		<tag k="natural" v="cape" />
		<tag k="ssr:stedsnr" v="589504" />
	</node>
	<node lat="60.72776944196698" lon="5.784652785007" id="-32113">
		<tag k="name" v="Bakarvika" />
		<tag k="natural" v="bay" />
		<tag k="ssr:stedsnr" v="589916" />
	</node>
	<node lat="60.58730555943134" lon="5.732177768682838" id="-32193">
		<tag k="name" v="Trollabotn" />
		<tag k="natural" v="bay" />
		<tag k="ssr:stedsnr" v="650687" />
	</node>
	<node lat="60.70084722625136" lon="5.696744439254786" id="-32194">
		<tag k="name" v="Mellesdalsundet" />
		<tag k="natural" v="strait" />
		<tag k="ssr:stedsnr" v="650886" />
	</node>
	<node lat="60.719688893436846" lon="5.668063892006153" id="-32195">
		<tag k="name" v="Asketoa" />
		<tag k="natural" v="cape" />
		<tag k="ssr:stedsnr" v="650891" />
	</node>
	<node lat="60.712044443588915" lon="5.770452781541236" id="-32196">
		<tag k="name" v="Flatneset" />
		<tag k="natural" v="cape" />
		<tag k="ssr:stedsnr" v="650897" />
	</node>
	<node lat="60.622822218861494" lon="5.735555560126143" id="-32235">
		<tag k="alt_name" v="Bekkaneset;Bekkjaneset" />
		<tag k="name" v="Bekkeneset" />
		<tag k="natural" v="cape" />
		<tag k="ssr:stedsnr" v="673717" />
	</node>
	<node lat="60.613975002594394" lon="5.83481944074462" id="-32244">
		<tag k="name" v="Grunka" />
		<tag k="natural" v="bay" />
		<tag k="ssr:stedsnr" v="674503" />
	</node>
	<node lat="60.58904444142625" lon="5.7176972255857414" id="-32253">
		<tag k="name" v="Ljoshellerneset" />
		<tag k="natural" v="cape" />
		<tag k="ssr:stedsnr" v="893745" />
	</node>
	<node lat="60.70978610943811" lon="5.670574993001951" id="-32254">
		<tag k="name" v="Lakseneset" />
		<tag k="natural" v="cape" />
		<tag k="ssr:stedsnr" v="893891" />
	</node>
	<node lat="60.691194448095544" lon="5.735288880516798" id="-32290">
		<tag k="name" v="Sandvikja" />
		<tag k="natural" v="bay" />
		<tag k="ssr:stedsnr" v="895713" />
	</node>
	<node lat="60.5186611092619" lon="5.72486388786357" id="-32298">
		<tag k="name" v="Tongneset" />
		<tag k="natural" v="cape" />
		<tag k="ssr:stedsnr" v="711603" />
	</node>
	<node lat="60.5436741893359" lon="5.723904245161624" id="-32299">
		<tag k="alt_name" v="Stiganeset" />
		<tag k="name" v="Steganeset" />
		<tag k="natural" v="cape" />
		<tag k="ssr:stedsnr" v="711583" />
	</node>
	<node lat="60.61512756896519" lon="5.835615617980005" id="-32300">
		<tag k="name" v="Vågen" />
		<tag k="natural" v="bay" />
		<tag k="ssr:stedsnr" v="712033" />
	</node>
	<node lat="60.64924999592732" lon="5.7388388948939495" id="-32325">
		<tag k="name" v="Naustneset" />
		<tag k="natural" v="cape" />
		<tag k="ssr:stedsnr" v="712774" />
	</node>
	<node lat="60.624069444455614" lon="5.875769447972951" id="-32339">
		<tag k="name" v="Djupevika" />
		<tag k="natural" v="bay" />
		<tag k="ssr:stedsnr" v="734145" />
	</node>
	<node lat="60.65554444039626" lon="5.8014861194990575" id="-32352">
		<tag k="name" v="Bolstadstraumen" />
		<tag k="natural" v="strait" />
		<tag k="ssr:stedsnr" v="734684" />
	</node>
	<node lat="60.68811944852137" lon="5.722811103522176" id="-32417">
		<tag k="name" v="Langeneset" />
		<tag k="natural" v="cape" />
		<tag k="ssr:stedsnr" v="773709" />
	</node>
	<node lat="60.471264250654926" lon="5.739844001156928" id="-32426">
		<tag k="alt_name" v="Vågen" />
		<tag k="name" v="Vaksdalsvågen" />
		<tag k="natural" v="bay" />
		<tag k="ssr:stedsnr" v="794006" />
	</node>
	<node lat="60.66098333041312" lon="5.749661116013088" id="-32475">
		<tag k="name" v="Sundet" />
		<tag k="natural" v="strait" />
		<tag k="ssr:stedsnr" v="916691" />
	</node>
	<node lat="60.63910278110776" lon="5.823613889420617" id="-32535">
		<tag k="name" v="Båtavika" />
		<tag k="natural" v="bay" />
		<tag k="ssr:stedsnr" v="870867" />
	</node>
	<node lat="60.71908333360027" lon="5.772500009049372" id="-32562">
		<tag k="name" v="Åneset" />
		<tag k="natural" v="cape" />
		<tag k="ssr:stedsnr" v="895777" />
	</node>
	<node lat="60.72147777961955" lon="5.778949993670792" id="-32563">
		<tag k="fixme" v="consider seamark:type=rock or natural=shoal" />
		<tag k="name" v="Långaskjere" />
		<tag k="place" v="islet" />
		<tag k="ssr:stedsnr" v="895779" />
	</node>
	<node lat="60.688049999047976" lon="5.676838891487889" id="-32567">
		<tag k="name" v="Ystavika" />
		<tag k="natural" v="bay" />
		<tag k="ssr:stedsnr" v="895812" />
	</node>
	<node lat="60.64610000093355" lon="5.727699993215488" id="-32579">
		<tag k="name" v="Røssvikneset" />
		<tag k="natural" v="cape" />
		<tag k="ssr:stedsnr" v="916716" />
	</node>
	<node lat="60.5376888894673" lon="5.719708334617896" id="-32590">
		<tag k="name" v="Hetteneset" />
		<tag k="natural" v="cape" />
		<tag k="ssr:stedsnr" v="917880" />
	</node>
	<node lat="60.69533055276784" lon="5.76164445254092" id="-32663">
		<tag k="name" v="Lyngneset" />
		<tag k="natural" v="cape" />
		<tag k="ssr:stedsnr" v="6377" />
	</node>
	<node lat="60.65888611518033" lon="5.783724997746836" id="-32668">
		<tag k="name" v="Vårneset" />
		<tag k="natural" v="cape" />
		<tag k="ssr:stedsnr" v="6680" />
	</node>
	<node lat="60.66858889242318" lon="5.739883325466906" id="-32675">
		<tag k="name" v="Oterneset" />
		<tag k="natural" v="cape" />
		<tag k="ssr:stedsnr" v="6649" />
	</node>
	<node lat="60.63182000142737" lon="5.891961249132068" id="-32695">
		<tag k="bay" v="fjord" />
		<tag k="name" v="Bolstadfjorden" />
		<tag k="natural" v="bay" />
		<tag k="ssr:stedsnr" v="8218" />
	</node>
	<node lat="60.667080555415176" lon="5.767600008220928" id="-32727">
		<tag k="name" v="Nedre Bolstadstraumen" />
		<tag k="natural" v="strait" />
		<tag k="ssr:stedsnr" v="44697" />
	</node>
	<node lat="60.64716111272387" lon="5.728386110413225" id="-32759">
		<tag k="name" v="Røsvika" />
		<tag k="natural" v="bay" />
		<tag k="ssr:stedsnr" v="45759" />
	</node>
	<node lat="60.658394444739486" lon="5.7975888976240535" id="-32761">
		<tag k="name" v="Øvre Bolstadstraumen" />
		<tag k="natural" v="strait" />
		<tag k="ssr:stedsnr" v="45842" />
	</node>
	<node lat="60.6923138902367" lon="5.747761117795571" id="-32793">
		<tag k="name" v="Inste Kallandsvika" />
		<tag k="natural" v="bay" />
		<tag k="ssr:stedsnr" v="67372" />
	</node>
	<node lat="60.70350278015474" lon="5.771752779719854" id="-32817">
		<tag k="name" v="Stodaneset" />
		<tag k="natural" v="cape" />
		<tag k="ssr:stedsnr" v="104893" />
	</node>
	<node lat="60.683338888945435" lon="5.730519439720842" id="-32823">
		<tag k="name" v="Stølaneset" />
		<tag k="natural" v="cape" />
		<tag k="ssr:stedsnr" v="105751" />
	</node>
</osm>
