<?xml version="1.0" encoding="UTF-8"?>
<osm version="0.6" generator="osmapis">
	<node lat="60.921722222205375" lon="9.035744451403106" id="-25281">
		<tag k="junction" v="yes" />
		<tag k="name" v="Brattåsvegnasjelet" />
		<tag k="place" v="locality" />
		<tag k="ssr:stedsnr" v="235055" />
	</node>
	<node lat="60.91381666671011" lon="9.052366665665927" id="-25282">
		<tag k="highway" v="path" />
		<tag k="name" v="Kløvvegen" />
		<tag k="ssr:stedsnr" v="235059" />
	</node>
	<node lat="60.92570555772285" lon="9.19497500860405" id="-25296">
		<tag k="bridge" v="yes" />
		<tag k="layer" v="1" />
		<tag k="name" v="Saustølbrue" />
		<tag k="ssr:stedsnr" v="236001" />
	</node>
	<node lat="60.916488885990155" lon="9.283433325231064" id="-25311">
		<tag k="bridge" v="yes" />
		<tag k="layer" v="1" />
		<tag k="name" v="Krøssåen" />
		<tag k="ssr:stedsnr" v="46219" />
	</node>
	<node lat="60.915447222618205" lon="9.166200004546257" id="-25326">
		<tag k="alt_name" v="Strøndastølvegen" />
		<tag k="highway" v="path" />
		<tag k="name" v="Strondastølvegen" />
		<tag k="ssr:stedsnr" v="54020" />
	</node>
	<node lat="60.9569000043687" lon="9.355547222940622" id="-25358">
		<tag k="highway" v="path" />
		<tag k="name" v="Skålin" />
		<tag k="ssr:stedsnr" v="58187" />
	</node>
</osm>
