<?xml version="1.0" encoding="UTF-8"?>
<osm version="0.6" generator="osmapis">
	<node lat="60.86907499727838" lon="9.217536114704389" id="-23420">
		<tag k="amenity" v="place_of_worship" />
		<tag k="denomination" v="lutheran" />
		<tag k="name" v="Tisleidalen kirke" />
		<tag k="religion" v="christian" />
		<tag k="ssr:stedsnr" v="9398" />
	</node>
	<node lat="61.06256944582638" lon="9.329330550611258" id="-23608">
		<tag k="name" v="Høldalsgruva" />
		<tag k="place" v="locality" />
		<tag k="ssr:stedsnr" v="115079" />
	</node>
	<node lat="60.937886115051704" lon="9.443533335043297" id="-24162">
		<tag k="loc_name" v="Beitakosten" />
		<tag k="name" v="Beitakøsten" />
		<tag k="place" v="locality" />
		<tag k="ssr:stedsnr" v="494537" />
	</node>
	<node lat="60.997672224035526" lon="9.497102782289158" id="-24430">
		<tag k="name" v="Bergsendgjerdet" />
		<tag k="place" v="locality" />
		<tag k="ssr:stedsnr" v="615299" />
	</node>
	<node lat="60.91534444179243" lon="9.367291665368219" id="-24702">
		<tag k="name" v="Sjåheim" />
		<tag k="ssr:stedsnr" v="781849" />
		<tag k="tourism" v="viewpoint" />
	</node>
	<node lat="60.88259444053646" lon="9.444561112739725" id="-24711">
		<tag k="name" v="Kølplassen" />
		<tag k="place" v="locality" />
		<tag k="ssr:stedsnr" v="785825" />
	</node>
	<node lat="60.998100001847675" lon="9.102774997229714" id="-24959">
		<tag k="amenity" v="community_centre" />
		<tag k="name" v="Solabu" />
		<tag k="ssr:stedsnr" v="908258" />
	</node>
	<node lat="60.995119440833335" lon="9.113652770727905" id="-24975">
		<tag k="amenity" v="place_of_worship" />
		<tag k="denomination" v="lutheran" />
		<tag k="name" v="Ulnes kyrkje" />
		<tag k="religion" v="christian" />
		<tag k="ssr:stedsnr" v="919050" />
	</node>
	<node lat="60.97554444169685" lon="9.182200007294629" id="-25072">
		<tag k="amenity" v="place_of_worship" />
		<tag k="denomination" v="lutheran" />
		<tag k="name" v="Strand kyrkje" />
		<tag k="old_name" v="Strøndakyrkja;Svenes" />
		<tag k="religion" v="christian" />
		<tag k="ssr:stedsnr" v="9046" />
	</node>
	<node lat="60.95216944022704" lon="9.426811111451267" id="-25398">
		<tag k="amenity" v="place_of_worship" />
		<tag k="denomination" v="lutheran" />
		<tag k="name" v="Aurdal fjellkyrkje" />
		<tag k="religion" v="christian" />
		<tag k="ssr:stedsnr" v="179777" />
	</node>
	<node lat="61.02994166691956" lon="9.21235832829924" id="-25436">
		<tag k="amenity" v="place_of_worship" />
		<tag k="denomination" v="lutheran" />
		<tag k="name" v="Skrautvål kyrkje" />
		<tag k="religion" v="christian" />
		<tag k="ssr:stedsnr" v="207867" />
	</node>
	<node lat="60.979636108052816" lon="9.235991675079083" id="-25639">
		<tag k="name" v="Valdres folkemuseum" />
		<tag k="ssr:stedsnr" v="361435" />
		<tag k="tourism" v="museum" />
	</node>
	<node lat="61.03950000425472" lon="9.307469437749958" id="-25867">
		<tag k="name" v="Døvrehøgda" />
		<tag k="place" v="locality" />
		<tag k="ssr:stedsnr" v="543329" />
	</node>
	<node lat="60.983749995801034" lon="9.258216668227949" id="-26372">
		<tag k="amenity" v="place_of_worship" />
		<tag k="denomination" v="lutheran" />
		<tag k="name" v="Tingnes kirke" />
		<tag k="religion" v="christian" />
		<tag k="ssr:stedsnr" v="847444" />
	</node>
	<node lat="60.92471111087109" lon="9.413419450687444" id="-26496">
		<tag k="amenity" v="place_of_worship" />
		<tag k="denomination" v="lutheran" />
		<tag k="name" v="Aurdal kirke" />
		<tag k="religion" v="christian" />
		<tag k="ssr:stedsnr" v="969216" />
	</node>
</osm>
