<?xml version="1.0" encoding="UTF-8"?>
<osm version="0.6" generator="osmapis">
	<node lat="60.95937222230066" lon="9.231477779016105" id="-23076">
		<tag k="fixme" v="consider natural=peak for the most distinct mountains in the district" />
		<tag k="name" v="Dugurdsknatten" />
		<tag k="natural" v="hill" />
		<tag k="place" v="locality" />
		<tag k="ssr:stedsnr" v="9606" />
	</node>
	<node lat="60.87565000076545" lon="9.156050007330144" id="-23090">
		<tag k="name" v="Hermanstølhøvda" />
		<tag k="natural" v="hill" />
		<tag k="place" v="locality" />
		<tag k="ssr:stedsnr" v="235159" />
	</node>
	<node lat="60.89296944834227" lon="9.001841665666422" id="-23092">
		<tag k="name" v="Røvshaugadn" />
		<tag k="natural" v="hill" />
		<tag k="place" v="locality" />
		<tag k="ssr:stedsnr" v="235176" />
	</node>
	<node lat="60.954766667113475" lon="8.999611116335506" id="-23095">
		<tag k="name" v="Veslelie" />
		<tag k="natural" v="slope" />
		<tag k="place" v="locality" />
		<tag k="ssr:stedsnr" v="235650" />
	</node>
	<node lat="60.945697226502176" lon="9.052955549561041" id="-23099">
		<tag k="name" v="Vestre fjellet" />
		<tag k="natural" v="hill" />
		<tag k="place" v="locality" />
		<tag k="ssr:stedsnr" v="235820" />
	</node>
	<node lat="61.05931311213372" lon="9.329302348121224" id="-23103">
		<tag k="name" v="Kløvberget" />
		<tag k="natural" v="hill" />
		<tag k="place" v="locality" />
		<tag k="ssr:stedsnr" v="236072" />
	</node>
	<node lat="60.86901666319941" lon="9.196672225698482" id="-23104">
		<tag k="name" v="Steinhaugen" />
		<tag k="natural" v="hill" />
		<tag k="place" v="locality" />
		<tag k="ssr:stedsnr" v="236258" />
	</node>
	<node lat="60.98051944323267" lon="9.09178056316867" id="-23106">
		<tag k="name" v="Nedre Kruk" />
		<tag k="place" v="locality" />
		<tag k="ssr:stedsnr" v="39305" />
	</node>
	<node lat="60.84900833157871" lon="9.327994436892924" id="-23116">
		<tag k="alt_name" v="Eivasslie" />
		<tag k="name" v="Eidvasslii" />
		<tag k="natural" v="slope" />
		<tag k="place" v="locality" />
		<tag k="ssr:stedsnr" v="238190" />
	</node>
	<node lat="60.89935555955547" lon="9.370350002639452" id="-23120">
		<tag k="name" v="Kølhusvøllen" />
		<tag k="place" v="locality" />
		<tag k="ssr:stedsnr" v="238721" />
	</node>
	<node lat="60.89563889197545" lon="9.289663894018762" id="-23122">
		<tag k="name" v="Plukkarhølen" />
		<tag k="natural" v="valley" />
		<tag k="place" v="locality" />
		<tag k="ssr:stedsnr" v="238881" />
	</node>
	<node lat="60.89181666475698" lon="9.271477776865934" id="-23123">
		<tag k="name" v="Kvilarlågsletta" />
		<tag k="place" v="locality" />
		<tag k="ssr:stedsnr" v="238873" />
	</node>
	<node lat="60.93328333434537" lon="9.09483610257228" id="-23127">
		<tag k="name" v="Nørdre Steinkjeringe" />
		<tag k="natural" v="hill" />
		<tag k="place" v="locality" />
		<tag k="ssr:stedsnr" v="53122" />
	</node>
	<node lat="60.90067500165648" lon="9.065744438491926" id="-23129">
		<tag k="name" v="Dugurdshøgde" />
		<tag k="natural" v="hill" />
		<tag k="place" v="locality" />
		<tag k="ssr:stedsnr" v="53091" />
	</node>
	<node lat="60.90344722275667" lon="8.989216666973922" id="-23130">
		<tag k="name" v="Røllångshaugen" />
		<tag k="natural" v="hill" />
		<tag k="place" v="locality" />
		<tag k="ssr:stedsnr" v="53172" />
	</node>
	<node lat="60.90819166547561" lon="9.4549083364696" id="-23136">
		<tag k="name" v="Djupedal" />
		<tag k="natural" v="slope" />
		<tag k="place" v="locality" />
		<tag k="ssr:stedsnr" v="56011" />
	</node>
	<node lat="60.91698888500617" lon="9.452472229320648" id="-23137">
		<tag k="name" v="Kolsrudåsen" />
		<tag k="natural" v="slope" />
		<tag k="place" v="locality" />
		<tag k="ssr:stedsnr" v="56044" />
	</node>
	<node lat="60.94940277710742" lon="9.352288887973778" id="-23144">
		<tag k="name" v="Bakkejordet" />
		<tag k="natural" v="slope" />
		<tag k="place" v="locality" />
		<tag k="ssr:stedsnr" v="240080" />
	</node>
	<node lat="60.99554166952135" lon="9.378327779009991" id="-23145">
		<tag k="name" v="Flatesteindalen" />
		<tag k="natural" v="valley" />
		<tag k="place" v="locality" />
		<tag k="ssr:stedsnr" v="240089" />
	</node>
	<node lat="60.90224167023743" lon="9.372355548525604" id="-23148">
		<tag k="name" v="Lessarplassen" />
		<tag k="place" v="locality" />
		<tag k="ssr:stedsnr" v="57688" />
	</node>
	<node lat="61.007788886181515" lon="9.12043056148496" id="-23150">
		<tag k="name" v="Endrehusplassen" />
		<tag k="place" v="locality" />
		<tag k="ssr:stedsnr" v="240177" />
	</node>
	<node lat="61.021180556091835" lon="9.211766665197318" id="-23154">
		<tag k="name" v="Blåberg" />
		<tag k="natural" v="hill" />
		<tag k="place" v="locality" />
		<tag k="ssr:stedsnr" v="58073" />
	</node>
	<node lat="60.876336109316995" lon="9.533486104521142" id="-23156">
		<tag k="name" v="Fiskedalen" />
		<tag k="natural" v="slope" />
		<tag k="place" v="locality" />
		<tag k="ssr:stedsnr" v="58204" />
	</node>
	<node lat="60.99049722334737" lon="9.304297224435706" id="-23165">
		<tag k="alt_name" v="Vasethøgde" />
		<tag k="name" v="Vadsethøgde" />
		<tag k="natural" v="hill" />
		<tag k="place" v="locality" />
		<tag k="ssr:stedsnr" v="58307" />
	</node>
	<node lat="60.96913888772571" lon="9.110161105028922" id="-23170">
		<tag k="name" v="Køpleslette" />
		<tag k="place" v="locality" />
		<tag k="ssr:stedsnr" v="58636" />
	</node>
	<node lat="60.998024997397785" lon="9.229141659401545" id="-23171">
		<tag k="name" v="Myraberget" />
		<tag k="natural" v="hill" />
		<tag k="place" v="locality" />
		<tag k="ssr:stedsnr" v="58639" />
	</node>
	<node lat="60.99305555904615" lon="9.256019445620762" id="-23172">
		<tag k="name" v="Olsdeilde" />
		<tag k="place" v="locality" />
		<tag k="ssr:stedsnr" v="58641" />
	</node>
	<node lat="60.966790764336366" lon="9.275061932652076" id="-23180">
		<tag k="name" v="Oddetoppen" />
		<tag k="natural" v="hill" />
		<tag k="place" v="locality" />
		<tag k="ssr:stedsnr" v="240357" />
	</node>
	<node lat="60.986686110968684" lon="9.336158328678833" id="-23181">
		<tag k="name" v="Plassaskålin" />
		<tag k="natural" v="ridge" />
		<tag k="place" v="locality" />
		<tag k="ssr:stedsnr" v="58779" />
	</node>
	<node lat="60.85199166518747" lon="9.323297224941783" id="-23183">
		<tag k="name" v="Einebuhøgde" />
		<tag k="natural" v="hill" />
		<tag k="place" v="locality" />
		<tag k="ssr:stedsnr" v="58980" />
	</node>
	<node lat="60.84782222474853" lon="9.30520278373158" id="-23184">
		<tag k="name" v="Husaskålin" />
		<tag k="place" v="locality" />
		<tag k="ssr:stedsnr" v="58981" />
	</node>
	<node lat="60.97794166659109" lon="9.289838882417609" id="-23190">
		<tag k="name" v="Skalabakkatn" />
		<tag k="natural" v="hill" />
		<tag k="place" v="locality" />
		<tag k="ssr:stedsnr" v="240422" />
	</node>
	<node lat="60.988494446320786" lon="9.252413884448082" id="-23197">
		<tag k="name" v="Brettingsberget" />
		<tag k="natural" v="hill" />
		<tag k="place" v="locality" />
		<tag k="ssr:stedsnr" v="240523" />
	</node>
	<node lat="60.961738889998436" lon="9.124966669389492" id="-23199">
		<tag k="name" v="Lunninge" />
		<tag k="place" v="locality" />
		<tag k="ssr:stedsnr" v="240627" />
	</node>
	<node lat="60.96696944812864" lon="9.126722222144876" id="-23200">
		<tag k="name" v="Hufset" />
		<tag k="place" v="locality" />
		<tag k="ssr:stedsnr" v="240635" />
	</node>
	<node lat="60.98356666281308" lon="9.35813611268169" id="-23204">
		<tag k="name" v="Tangatn" />
		<tag k="place" v="locality" />
		<tag k="ssr:stedsnr" v="240763" />
	</node>
	<node lat="61.145424999302506" lon="9.526519447538872" id="-23211">
		<tag k="alt_name" v="Svarthammar" />
		<tag k="fixme" v="multiple name tags, choose one and add the other to alt_name; consider natural=peak for the most distinct mountains in the district" />
		<tag k="loc_name" v="Svarthamaren" />
		<tag k="name" v="Svarthamarknatten;Svarthamar" />
		<tag k="natural" v="hill" />
		<tag k="place" v="locality" />
		<tag k="ssr:stedsnr" v="68920" />
	</node>
	<node lat="61.125533328962646" lon="9.422499991679835" id="-23212">
		<tag k="name" v="Synhaug" />
		<tag k="natural" v="hill" />
		<tag k="place" v="locality" />
		<tag k="ssr:stedsnr" v="68924" />
	</node>
	<node lat="61.14951666396726" lon="9.475502784759177" id="-23213">
		<tag k="alt_name" v="Hovda, store;Store Høvda" />
		<tag k="fixme" v="consider natural=peak for the most distinct mountains in the district" />
		<tag k="name" v="Store Hovda" />
		<tag k="natural" v="hill" />
		<tag k="place" v="locality" />
		<tag k="ssr:stedsnr" v="68943" />
	</node>
	<node lat="60.852788893342165" lon="9.382583342053074" id="-23222">
		<tag k="alt_name" v="Grønkinndalen" />
		<tag k="name" v="Grønekinndalen" />
		<tag k="natural" v="valley" />
		<tag k="place" v="locality" />
		<tag k="ssr:stedsnr" v="69685" />
	</node>
	<node lat="60.90021111106727" lon="9.52451665779148" id="-23241">
		<tag k="name" v="Holbekkdalen" />
		<tag k="natural" v="valley" />
		<tag k="place" v="locality" />
		<tag k="ssr:stedsnr" v="70731" />
	</node>
	<node lat="61.00893889153307" lon="9.269074999721859" id="-23246">
		<tag k="name" v="Leirekampen" />
		<tag k="natural" v="hill" />
		<tag k="place" v="locality" />
		<tag k="ssr:stedsnr" v="100475" />
	</node>
</osm>
