<?xml version="1.0" encoding="UTF-8"?>
<osm version="0.6" generator="osmapis">
	<node lat="61.081938890776904" lon="9.349750000567981" id="-25255">
		<tag k="name" v="Haugerudtjernet" />
		<tag k="natural" v="water" />
		<tag k="ssr:stedsnr" v="7896" />
	</node>
	<node lat="61.18505833312836" lon="9.468838897587602" id="-25257">
		<tag k="name" v="Fullsenn" />
		<tag k="natural" v="water" />
		<tag k="old_name" v="Fullsennfjorden" />
		<tag k="ssr:stedsnr" v="7962" />
		<tag k="water" v="lake" />
	</node>
	<node lat="60.95442777355909" lon="9.152169450009033" id="-25262">
		<tag k="name" v="Geispa" />
		<tag k="ssr:stedsnr" v="9088" />
		<tag k="waterway" v="river" />
	</node>
	<node lat="60.99206666772921" lon="9.290941674628794" id="-25264">
		<tag k="name" v="Sustjernet" />
		<tag k="natural" v="water" />
		<tag k="old_name" v="Sustjednet" />
		<tag k="ssr:stedsnr" v="9302" />
	</node>
	<node lat="60.96548332943501" lon="9.461041660770423" id="-25271">
		<tag k="name" v="Kivostjernet" />
		<tag k="natural" v="water" />
		<tag k="old_name" v="Kivostjednet" />
		<tag k="ssr:stedsnr" v="9609" />
	</node>
	<node lat="60.806916665987174" lon="9.301541662474927" id="-25280">
		<tag k="name" v="Haugsjøen" />
		<tag k="natural" v="water" />
		<tag k="ssr:stedsnr" v="9808" />
	</node>
	<node lat="60.94024166690716" lon="9.10793888585135" id="-25283">
		<tag k="name" v="Regine Nordmannkulpen" />
		<tag k="natural" v="spring" />
		<tag k="ssr:stedsnr" v="235140" />
	</node>
	<node lat="60.93028055388643" lon="9.150263895980649" id="-25287">
		<tag k="name" v="Søreåne" />
		<tag k="ssr:stedsnr" v="235122" />
		<tag k="waterway" v="stream" />
	</node>
	<node lat="61.02514444004649" lon="9.367783338826996" id="-25290">
		<tag k="name" v="Tveitastølvadet" />
		<tag k="ssr:stedsnr" v="33614" />
		<tag k="waterway" v="stream" />
	</node>
	<node lat="60.921544447684724" lon="9.12373888148631" id="-25292">
		<tag k="name" v="Sandbakkbekken" />
		<tag k="ssr:stedsnr" v="235816" />
		<tag k="waterway" v="stream" />
	</node>
	<node lat="60.98081944321054" lon="9.09769444412593" id="-25304">
		<tag k="name" v="Ryeelve" />
		<tag k="ssr:stedsnr" v="39567" />
		<tag k="waterway" v="river" />
	</node>
	<node lat="61.04135000350275" lon="9.411416658814327" id="-25306">
		<tag k="name" v="Øvre Bjørnaskardstjernet" />
		<tag k="natural" v="water" />
		<tag k="old_name" v="Øvre Bjødnaskardstjednet" />
		<tag k="ssr:stedsnr" v="39873" />
	</node>
	<node lat="60.91461666847089" lon="9.236194443820368" id="-25313">
		<tag k="name" v="Mørkabekken" />
		<tag k="ssr:stedsnr" v="238667" />
		<tag k="waterway" v="stream" />
	</node>
	<node lat="60.887860406913084" lon="9.341589476365732" id="-25315">
		<tag k="alt_name" v="Timannstøltjernet" />
		<tag k="name" v="Timannsstøltjernet" />
		<tag k="natural" v="water" />
		<tag k="old_name" v="Timannstøltjedne" />
		<tag k="ssr:stedsnr" v="238723" />
	</node>
	<node lat="61.10838888813387" lon="9.641808327545299" id="-25319">
		<tag k="name" v="Skyttarøddin" />
		<tag k="natural" v="cape" />
		<tag k="ssr:stedsnr" v="52619" />
	</node>
	<node lat="60.97527499856781" lon="9.486222222090486" id="-25335">
		<tag k="name" v="Skjenangselve" />
		<tag k="ssr:stedsnr" v="240039" />
		<tag k="waterway" v="river" />
	</node>
	<node lat="60.91292499799106" lon="9.211472230048257" id="-25337">
		<tag k="name" v="Hyllerstøltjernet" />
		<tag k="natural" v="water" />
		<tag k="old_name" v="Hyllerstøltjednet" />
		<tag k="ssr:stedsnr" v="56685" />
	</node>
	<node lat="60.87973333128723" lon="9.48727223080779" id="-25346">
		<tag k="name" v="Dammen" />
		<tag k="natural" v="water" />
		<tag k="ssr:stedsnr" v="240837" />
		<tag k="water" v="pond" />
	</node>
	<node lat="60.98156388648146" lon="9.147938895822533" id="-25349">
		<tag k="alt_name" v="Hømandbergødde;Hømandbergnøbbe" />
		<tag k="name" v="Homannbergnobbe" />
		<tag k="natural" v="cape" />
		<tag k="ssr:stedsnr" v="58082" />
	</node>
	<node lat="60.937216663238175" lon="9.350566672476349" id="-25362">
		<tag k="name" v="Djupøye" />
		<tag k="place" v="islet" />
		<tag k="ssr:stedsnr" v="58605" />
	</node>
	<node lat="60.9544419185072" lon="9.304360926607142" id="-25367">
		<tag k="name" v="Turre Syndet" />
		<tag k="natural" v="strait" />
		<tag k="ssr:stedsnr" v="58373" />
	</node>
	<node lat="60.8906722195901" lon="9.246280556631815" id="-25370">
		<tag k="name" v="Brenderotbekken" />
		<tag k="ssr:stedsnr" v="58501" />
		<tag k="waterway" v="stream" />
	</node>
	<node lat="61.01677777708119" lon="9.325933342175862" id="-25380">
		<tag k="name" v="Sørhellbekken" />
		<tag k="ssr:stedsnr" v="240367" />
		<tag k="waterway" v="stream" />
	</node>
	<node lat="60.95206666230126" lon="9.306274998628373" id="-25382">
		<tag k="name" v="Geiteryggen" />
		<tag k="place" v="islet" />
		<tag k="ssr:stedsnr" v="240373" />
	</node>
	<node lat="60.90328055777802" lon="9.243980560943124" id="-25387">
		<tag k="name" v="Øvrestølfetidn" />
		<tag k="natural" v="water" />
		<tag k="old_name" v="Øvrestølfetiden" />
		<tag k="ssr:stedsnr" v="240536" />
	</node>
	<node lat="61.000113887096994" lon="9.325800004904481" id="-25392">
		<tag k="name" v="Raukøllhalle" />
		<tag k="natural" v="water" />
		<tag k="ssr:stedsnr" v="240526" />
		<tag k="water" v="pond" />
	</node>
	<node lat="60.96860833748058" lon="9.47237778434765" id="-25399">
		<tag k="name" v="Skjenangselve" />
		<tag k="ssr:stedsnr" v="240547" />
		<tag k="waterway" v="river" />
	</node>
	<node lat="61.11947734021155" lon="9.567815503030639" id="-25404">
		<tag k="name" v="Røssjøen" />
		<tag k="natural" v="water" />
		<tag k="ssr:stedsnr" v="68907" />
		<tag k="water" v="lake" />
	</node>
	<node lat="61.090833335790386" lon="9.446699991218477" id="-25409">
		<tag k="alt_name" v="Valegrovelve" />
		<tag k="name" v="Veslegrovi" />
		<tag k="ssr:stedsnr" v="68891" />
		<tag k="waterway" v="stream" />
	</node>
	<node lat="61.00623055341627" lon="9.260392711587407" id="-25412">
		<tag k="name" v="Koltjern" />
		<tag k="natural" v="water" />
		<tag k="old_name" v="Køltjednet" />
		<tag k="ssr:stedsnr" v="69611" />
	</node>
	<node lat="60.85431667117332" lon="9.3310694447133" id="-25414">
		<tag k="alt_name" v="Lortetjernet" />
		<tag k="name" v="Lortputten" />
		<tag k="natural" v="water" />
		<tag k="old_name" v="Lortetjednet" />
		<tag k="ssr:stedsnr" v="69682" />
	</node>
	<node lat="60.97191666250868" lon="9.1736611159012" id="-25420">
		<tag k="alt_name" v="Strøndafjorden;Strandefjorden" />
		<tag k="name" v="Strondafjorden" />
		<tag k="natural" v="water" />
		<tag k="old_name" v="Stondafjorden" />
		<tag k="ssr:stedsnr" v="70076" />
		<tag k="water" v="lake" />
	</node>
	<node lat="60.94836944717862" lon="8.968838879857655" id="-25423">
		<tag k="name" v="Simlebekken" />
		<tag k="ssr:stedsnr" v="70098" />
		<tag k="waterway" v="stream" />
	</node>
	<node lat="60.83634166344703" lon="9.171933329740048" id="-25424">
		<tag k="alt_name" v="Hervassbekken" />
		<tag k="name" v="Hærvassbekken" />
		<tag k="ssr:stedsnr" v="70428" />
		<tag k="waterway" v="stream" />
	</node>
	<node lat="60.91992500097089" lon="9.463038888692276" id="-25426">
		<tag k="name" v="Damtjernet" />
		<tag k="natural" v="water" />
		<tag k="old_name" v="Damtjednet" />
		<tag k="ssr:stedsnr" v="70487" />
	</node>
	<node lat="60.92223611410908" lon="9.506177773153581" id="-25427">
		<tag k="name" v="Langevatnet" />
		<tag k="natural" v="water" />
		<tag k="ssr:stedsnr" v="70489" />
	</node>
	<node lat="60.87576389199662" lon="9.029744437788365" id="-25429">
		<tag k="name" v="Hurrabekken" />
		<tag k="ssr:stedsnr" v="70380" />
		<tag k="waterway" v="stream" />
	</node>
	<node lat="60.886925003561" lon="9.380133336477549" id="-25432">
		<tag k="name" v="Brennatjernet" />
		<tag k="natural" v="water" />
		<tag k="old_name" v="Brennatjednet" />
		<tag k="ssr:stedsnr" v="70711" />
	</node>
	<node lat="60.98530833367365" lon="9.11001388743579" id="-25441">
		<tag k="name" v="Ryeøyne" />
		<tag k="place" v="islet" />
		<tag k="ssr:stedsnr" v="100610" />
	</node>
</osm>
