<?xml version="1.0" encoding="UTF-8"?>
<osm version="0.6" generator="osmapis">
	<node lat="60.9204777785445" lon="9.185611103262316" id="-23101">
		<tag k="name" v="Åkervøllstøldikjet" />
		<tag k="natural" v="wetland" />
		<tag k="ssr:stedsnr" v="235926" />
	</node>
	<node lat="60.887922225677215" lon="9.424016669944963" id="-23115">
		<tag k="name" v="Storemyre" />
		<tag k="natural" v="wetland" />
		<tag k="ssr:stedsnr" v="238063" />
	</node>
	<node lat="60.88292499892789" lon="9.396208341162401" id="-23134">
		<tag k="name" v="Bakombergmyratn" />
		<tag k="natural" v="wetland" />
		<tag k="ssr:stedsnr" v="239842" />
	</node>
	<node lat="61.00597778056932" lon="9.36822499379612" id="-23146">
		<tag k="name" v="Høgebrenna" />
		<tag k="natural" v="wetland" />
		<tag k="ssr:stedsnr" v="240127" />
	</node>
	<node lat="60.87782777339723" lon="9.413183326134654" id="-23149">
		<tag k="name" v="Glennemyre" />
		<tag k="natural" v="wetland" />
		<tag k="ssr:stedsnr" v="57813" />
	</node>
	<node lat="60.98894444482232" lon="9.307275008292192" id="-23151">
		<tag k="alt_name" v="Vasetmyre" />
		<tag k="name" v="Vadsetmyre" />
		<tag k="natural" v="wetland" />
		<tag k="ssr:stedsnr" v="240299" />
	</node>
	<node lat="61.013366668247116" lon="9.136988885923817" id="-23162">
		<tag k="name" v="Skåleslette" />
		<tag k="natural" v="wetland" />
		<tag k="ssr:stedsnr" v="58181" />
	</node>
	<node lat="60.932852776790874" lon="9.281772228899744" id="-23167">
		<tag k="historic" v="shieling" />
		<tag k="name" v="Veslestølen" />
		<tag k="place" v="locality" />
		<tag k="ssr:stedsnr" v="58410" />
	</node>
	<node lat="60.938750003349554" lon="9.314469441818577" id="-23174">
		<tag k="name" v="Myratn" />
		<tag k="natural" v="wetland" />
		<tag k="ssr:stedsnr" v="58382" />
	</node>
	<node lat="60.98479444846508" lon="9.39422221381308" id="-23177">
		<tag k="name" v="Størrtjernmyrane" />
		<tag k="natural" v="wetland" />
		<tag k="old_name" v="Størrtjednmyratn" />
		<tag k="ssr:stedsnr" v="58586" />
	</node>
	<node lat="60.9559666692088" lon="9.429483336558583" id="-23182">
		<tag k="name" v="Kjelmyre" />
		<tag k="natural" v="wetland" />
		<tag k="ssr:stedsnr" v="58790" />
	</node>
	<node lat="60.973033335482775" lon="9.02482777218779" id="-23185">
		<tag k="name" v="Beinstigmyre" />
		<tag k="natural" v="wetland" />
		<tag k="ssr:stedsnr" v="240362" />
	</node>
	<node lat="60.89282222292732" lon="9.227630546795579" id="-23194">
		<tag k="name" v="Varpamyre" />
		<tag k="natural" v="wetland" />
		<tag k="ssr:stedsnr" v="240538" />
	</node>
	<node lat="60.84604999743775" lon="9.315800000993615" id="-23221">
		<tag k="name" v="Stormyri" />
		<tag k="natural" v="wetland" />
		<tag k="ssr:stedsnr" v="69683" />
	</node>
	<node lat="60.95352777741376" lon="9.09363889627116" id="-23223">
		<tag k="alt_name" v="Jehansslette" />
		<tag k="name" v="Jehanssletti" />
		<tag k="place" v="locality" />
		<tag k="ssr:stedsnr" v="70104" />
	</node>
</osm>
