<?xml version="1.0" encoding="UTF-8"?>
<osm generator="osmapis" version="0.6">
	<node id="-8955" lat="59.1060777786" lon="10.9696472243">
		<tag k="name" v="Tjeldholmgrunnen lykt" />
		<tag k="ssr:date" v="2016-05-11" />
		<tag k="ssr:gruppe" v="navigasjon" />
		<tag k="ssr:hovedgruppe" v="infrastruktur" />
		<tag k="ssr:stedsnr" v="721868" />
		<tag k="ssr:type" v="fyrlykt" />
	</node>
	<node id="-9337" lat="59.1156287373" lon="10.8842123759">
		<tag k="name" v="Lille Granholmen" />
		<tag k="ssr:date" v="2019-05-31" />
		<tag k="ssr:gruppe" v="veg" />
		<tag k="ssr:hovedgruppe" v="infrastruktur" />
		<tag k="ssr:stedsnr" v="978544" />
		<tag k="ssr:type" v="adressenavn" />
	</node>
	<node id="-8952" lat="59.0355916638" lon="10.9665194367">
		<tag k="name" v="Fugletangskjær lykt" />
		<tag k="ssr:date" v="2016-05-11" />
		<tag k="ssr:gruppe" v="navigasjon" />
		<tag k="ssr:hovedgruppe" v="infrastruktur" />
		<tag k="ssr:stedsnr" v="721618" />
		<tag k="ssr:type" v="fyrlykt" />
	</node>
	<node id="-9334" lat="60.5908609473" lon="9.63819281559">
		<tag k="fixme" v="multiple name tags, choose one and add the other to alt_name" />
		<tag k="name" v="Austlandet;Østlandet" />
		<tag k="ssr:date" v="2018-01-09" />
		<tag k="ssr:gruppe" v="administrativeIndelinger" />
		<tag k="ssr:hovedgruppe" v="offentligAdministrasjon" />
		<tag k="ssr:stedsnr" v="974775" />
		<tag k="ssr:type" v="annenAdministrativInndeling" />
	</node>
	<node id="-8049" lat="59.0883527818" lon="10.9733249974">
		<tag k="name" v="Løperungbåen lykt" />
		<tag k="ssr:date" v="2016-05-10" />
		<tag k="ssr:gruppe" v="navigasjon" />
		<tag k="ssr:hovedgruppe" v="infrastruktur" />
		<tag k="ssr:stedsnr" v="357589" />
		<tag k="ssr:type" v="fyrlykt" />
	</node>
	<node id="-9327" lat="59.0140638883" lon="11.0445222292">
		<tag k="alt_name" v="Børholmen" />
		<tag k="name" v="Børholmen lykt" />
		<tag k="ssr:date" v="2016-05-11" />
		<tag k="ssr:gruppe" v="navigasjon" />
		<tag k="ssr:hovedgruppe" v="infrastruktur" />
		<tag k="ssr:stedsnr" v="964879" />
		<tag k="ssr:type" v="fyrlykt" />
	</node>
	<node id="-9326" lat="59.0132388883" lon="11.0590888955">
		<tag k="alt_name" v="Sauholmen" />
		<tag k="name" v="Sauholmen lykt" />
		<tag k="ssr:date" v="2016-05-11" />
		<tag k="ssr:gruppe" v="navigasjon" />
		<tag k="ssr:hovedgruppe" v="infrastruktur" />
		<tag k="ssr:stedsnr" v="964878" />
		<tag k="ssr:type" v="fyrlykt" />
	</node>
	<node id="-8941" lat="59.0112999994" lon="11.061288884">
		<tag k="name" v="Sauholmen" />
		<tag k="ssr:date" v="2019-05-31" />
		<tag k="ssr:gruppe" v="veg" />
		<tag k="ssr:hovedgruppe" v="infrastruktur" />
		<tag k="ssr:stedsnr" v="708418" />
		<tag k="ssr:type" v="adressenavn" />
	</node>
	<node id="-9323" lat="59.0712666667" lon="10.865833341">
		<tag k="alt_name" v="Utgårdskilen" />
		<tag k="name" v="Utgårdskilen lykt" />
		<tag k="ssr:date" v="2016-05-11" />
		<tag k="ssr:gruppe" v="navigasjon" />
		<tag k="ssr:hovedgruppe" v="infrastruktur" />
		<tag k="ssr:stedsnr" v="964866" />
		<tag k="ssr:type" v="fyrlykt" />
	</node>
	<node id="-8807" lat="59.1218166645" lon="10.8599166709">
		<tag k="name" v="Seilø" />
		<tag k="ssr:date" v="2019-05-31" />
		<tag k="ssr:gruppe" v="veg" />
		<tag k="ssr:hovedgruppe" v="infrastruktur" />
		<tag k="ssr:stedsnr" v="603521" />
		<tag k="ssr:type" v="adressenavn" />
	</node>
	<node id="-9320" lat="59.0757944406" lon="10.9679111026">
		<tag k="alt_name" v="Kuskjær" />
		<tag k="name" v="Kuskjær lykt" />
		<tag k="ssr:date" v="2016-05-11" />
		<tag k="ssr:gruppe" v="navigasjon" />
		<tag k="ssr:hovedgruppe" v="infrastruktur" />
		<tag k="ssr:stedsnr" v="964854" />
		<tag k="ssr:type" v="fyrlykt" />
	</node>
	<node id="-9319" lat="59.1136527815" lon="10.9724916688">
		<tag k="name" v="Vestre Fugleskjærgrunnen lykt" />
		<tag k="ssr:date" v="2016-05-11" />
		<tag k="ssr:gruppe" v="navigasjon" />
		<tag k="ssr:hovedgruppe" v="infrastruktur" />
		<tag k="ssr:stedsnr" v="964850" />
		<tag k="ssr:type" v="fyrlykt" />
	</node>
	<node id="-8421" lat="59.0771111111" lon="10.8766916657">
		<tag k="name" v="Sørlendingen" />
		<tag k="ssr:date" v="2019-05-31" />
		<tag k="ssr:gruppe" v="veg" />
		<tag k="ssr:hovedgruppe" v="infrastruktur" />
		<tag k="ssr:stedsnr" v="179407" />
		<tag k="ssr:type" v="adressenavn" />
	</node>
	<node id="-8752" lat="59.1087638933" lon="11.1074333336">
		<tag k="name" v="Lauskjær lykt" />
		<tag k="ssr:date" v="2016-05-10" />
		<tag k="ssr:gruppe" v="navigasjon" />
		<tag k="ssr:hovedgruppe" v="infrastruktur" />
		<tag k="ssr:stedsnr" v="547873" />
		<tag k="ssr:type" v="fyrlykt" />
	</node>
	<node id="-8673" lat="59.0552818635" lon="10.9149158343">
		<tag k="alt_name" v="Asmalsund" />
		<tag k="loc_name" v="Pikesten lykt" />
		<tag k="name" v="Asmalsund lykt" />
		<tag k="ssr:date" v="2018-03-06" />
		<tag k="ssr:gruppe" v="navigasjon" />
		<tag k="ssr:hovedgruppe" v="infrastruktur" />
		<tag k="ssr:stedsnr" v="487649" />
		<tag k="ssr:type" v="fyrlykt" />
	</node>
	<node id="-8997" lat="59.0864163286" lon="11.0975898392">
		<tag k="name" v="Terneskjæra" />
		<tag k="ssr:date" v="2019-02-04" />
		<tag k="ssr:gruppe" v="navigasjon" />
		<tag k="ssr:hovedgruppe" v="infrastruktur" />
		<tag k="ssr:stedsnr" v="730197" />
		<tag k="ssr:type" v="fyrlykt" />
	</node>
	<node id="-8153" lat="58.9865116046" lon="11.0588936261">
		<tag k="name" v="Gylteholmvarden" />
		<tag k="ssr:date" v="2019-01-30" />
		<tag k="ssr:gruppe" v="navigasjon" />
		<tag k="ssr:hovedgruppe" v="infrastruktur" />
		<tag k="ssr:stedsnr" v="989657" />
		<tag k="ssr:type" v="sjøvarde" />
	</node>
	<node id="-8149" lat="58.9794559876" lon="10.8321253186">
		<tag k="name" v="Kuskjærvarden" />
		<tag k="ssr:date" v="2019-01-29" />
		<tag k="ssr:gruppe" v="navigasjon" />
		<tag k="ssr:hovedgruppe" v="infrastruktur" />
		<tag k="ssr:stedsnr" v="989620" />
		<tag k="ssr:type" v="sjøvarde" />
	</node>
	<node id="-8148" lat="58.9881763293" lon="10.9229790963">
		<tag k="name" v="Alnevarden" />
		<tag k="ssr:date" v="2019-01-29" />
		<tag k="ssr:gruppe" v="navigasjon" />
		<tag k="ssr:hovedgruppe" v="infrastruktur" />
		<tag k="ssr:stedsnr" v="989616" />
		<tag k="ssr:type" v="sjøvarde" />
	</node>
	<node id="-8229" lat="59.0770000026" lon="10.8701777814">
		<tag k="name" v="Utgårdskilen molo" />
		<tag k="ssr:date" v="2016-05-10" />
		<tag k="ssr:gruppe" v="navigasjon" />
		<tag k="ssr:hovedgruppe" v="infrastruktur" />
		<tag k="ssr:stedsnr" v="54689" />
		<tag k="ssr:type" v="fyrlykt" />
	</node>
	<node id="-8248" lat="59.0789527737" lon="10.862463884">
		<tag k="name" v="Tokollen" />
		<tag k="ssr:date" v="2019-05-31" />
		<tag k="ssr:gruppe" v="veg" />
		<tag k="ssr:hovedgruppe" v="infrastruktur" />
		<tag k="ssr:stedsnr" v="58531" />
		<tag k="ssr:type" v="adressenavn" />
	</node>
	<node id="-8137" lat="59.0039944445" lon="11.05914445">
		<tag k="name" v="Herfølrenna lykt" />
		<tag k="ssr:date" v="2016-05-10" />
		<tag k="ssr:gruppe" v="navigasjon" />
		<tag k="ssr:hovedgruppe" v="infrastruktur" />
		<tag k="ssr:stedsnr" v="478907" />
		<tag k="ssr:type" v="fyrlykt" />
	</node>
	<node id="-8133" lat="59.0380083352" lon="10.9723555559">
		<tag k="name" v="Kvernskjærgrunnen lykt" />
		<tag k="ssr:date" v="2016-05-10" />
		<tag k="ssr:gruppe" v="navigasjon" />
		<tag k="ssr:hovedgruppe" v="infrastruktur" />
		<tag k="ssr:stedsnr" v="478653" />
		<tag k="ssr:type" v="fyrlykt" />
	</node>
	<node id="-8385" lat="59.0280833309" lon="11.0310999992">
		<tag k="alt_name" v="Hvaler" />
		<tag k="name" v="Hvaler kommune" />
		<tag k="ssr:date" v="2019-01-28" />
		<tag k="ssr:gruppe" v="administrativeIndelinger" />
		<tag k="ssr:hovedgruppe" v="offentligAdministrasjon" />
		<tag k="ssr:stedsnr" v="145262" />
		<tag k="ssr:type" v="kommune" />
	</node>
	<node id="-8896" lat="59.0680166646" lon="10.9677972239">
		<tag k="name" v="Lubbegrunnen lykt" />
		<tag k="ssr:date" v="2016-05-10" />
		<tag k="ssr:gruppe" v="navigasjon" />
		<tag k="ssr:hovedgruppe" v="infrastruktur" />
		<tag k="ssr:stedsnr" v="661892" />
		<tag k="ssr:type" v="fyrlykt" />
	</node>
	<node id="-8636" lat="59.1347111101" lon="10.9013055478">
		<tag k="alt_name" v="Tenneskjær lykt" />
		<tag k="name" v="Tenneskjær" />
		<tag k="ssr:date" v="2016-05-10" />
		<tag k="ssr:gruppe" v="navigasjon" />
		<tag k="ssr:hovedgruppe" v="infrastruktur" />
		<tag k="ssr:stedsnr" v="427700" />
		<tag k="ssr:type" v="fyrlykt" />
	</node>
	<node id="-7994" lat="59.0679472242" lon="10.9612444517">
		<tag k="alt_name" v="Dødvikpynten lykt" />
		<tag k="name" v="Dødvikpynten" />
		<tag k="ssr:date" v="2016-05-10" />
		<tag k="ssr:gruppe" v="navigasjon" />
		<tag k="ssr:hovedgruppe" v="infrastruktur" />
		<tag k="ssr:stedsnr" v="305555" />
		<tag k="ssr:type" v="fyrlykt" />
	</node>
	<node id="-9247" lat="59.0869111145" lon="10.9748305617">
		<tag k="alt_name" v="Løperungen" />
		<tag k="name" v="Løperungen lykt" />
		<tag k="ssr:date" v="2016-05-11" />
		<tag k="ssr:gruppe" v="navigasjon" />
		<tag k="ssr:hovedgruppe" v="infrastruktur" />
		<tag k="ssr:stedsnr" v="911572" />
		<tag k="ssr:type" v="fyrlykt" />
	</node>
	<node id="-9144" lat="59.035977775" lon="10.950383336">
		<tag k="name" v="Viker molo" />
		<tag k="ssr:date" v="2016-05-11" />
		<tag k="ssr:gruppe" v="navigasjon" />
		<tag k="ssr:hovedgruppe" v="infrastruktur" />
		<tag k="ssr:stedsnr" v="843882" />
		<tag k="ssr:type" v="fyrlykt" />
	</node>
	<node id="-8500" lat="59.0226666676" lon="11.0412194365">
		<tag k="name" v="Tareholmen" />
		<tag k="ssr:date" v="2019-05-31" />
		<tag k="ssr:gruppe" v="veg" />
		<tag k="ssr:hovedgruppe" v="infrastruktur" />
		<tag k="ssr:stedsnr" v="239529" />
		<tag k="ssr:type" v="adressenavn" />
	</node>
	<node id="-8118" lat="59.099140725" lon="10.9133745591">
		<tag k="name" v="Knektemofjellet" />
		<tag k="ssr:date" v="2019-05-31" />
		<tag k="ssr:gruppe" v="veg" />
		<tag k="ssr:hovedgruppe" v="infrastruktur" />
		<tag k="ssr:stedsnr" v="1060401" />
		<tag k="ssr:type" v="adressenavn" />
	</node>
	<node id="-8117" lat="59.0281745667" lon="11.0979858671">
		<tag k="name" v="Sildeholmen" />
		<tag k="ssr:date" v="2019-05-31" />
		<tag k="ssr:gruppe" v="veg" />
		<tag k="ssr:hovedgruppe" v="infrastruktur" />
		<tag k="ssr:stedsnr" v="1060399" />
		<tag k="ssr:type" v="adressenavn" />
	</node>
	<node id="-8116" lat="58.9968619502" lon="10.782342361">
		<tag k="name" v="Torbjørnskjær" />
		<tag k="ssr:date" v="2019-05-31" />
		<tag k="ssr:gruppe" v="veg" />
		<tag k="ssr:hovedgruppe" v="infrastruktur" />
		<tag k="ssr:stedsnr" v="1060393" />
		<tag k="ssr:type" v="adressenavn" />
	</node>
	<node id="-8115" lat="59.1129468494" lon="10.8962748953">
		<tag k="name" v="Belleville" />
		<tag k="ssr:date" v="2019-05-31" />
		<tag k="ssr:gruppe" v="veg" />
		<tag k="ssr:hovedgruppe" v="infrastruktur" />
		<tag k="ssr:stedsnr" v="1060389" />
		<tag k="ssr:type" v="adressenavn" />
	</node>
	<node id="-8114" lat="59.1133701533" lon="10.898656424">
		<tag k="name" v="Latangen" />
		<tag k="ssr:date" v="2019-05-31" />
		<tag k="ssr:gruppe" v="veg" />
		<tag k="ssr:hovedgruppe" v="infrastruktur" />
		<tag k="ssr:stedsnr" v="1060388" />
		<tag k="ssr:type" v="adressenavn" />
	</node>
	<node id="-8113" lat="59.074260426" lon="10.8601172309">
		<tag k="name" v="Bastangen" />
		<tag k="ssr:date" v="2019-05-31" />
		<tag k="ssr:gruppe" v="veg" />
		<tag k="ssr:hovedgruppe" v="infrastruktur" />
		<tag k="ssr:stedsnr" v="1060386" />
		<tag k="ssr:type" v="adressenavn" />
	</node>
	<node id="-7984" lat="58.9939194428" lon="11.0679777837">
		<tag k="alt_name" v="Glan" />
		<tag k="name" v="Glan lykt" />
		<tag k="ssr:date" v="2016-05-10" />
		<tag k="ssr:gruppe" v="navigasjon" />
		<tag k="ssr:hovedgruppe" v="infrastruktur" />
		<tag k="ssr:stedsnr" v="304768" />
		<tag k="ssr:type" v="fyrlykt" />
	</node>
	<node id="-8111" lat="59.0978230164" lon="10.8506381885">
		<tag k="name" v="Vellebufjellet" />
		<tag k="ssr:date" v="2019-05-31" />
		<tag k="ssr:gruppe" v="veg" />
		<tag k="ssr:hovedgruppe" v="infrastruktur" />
		<tag k="ssr:stedsnr" v="1060414" />
		<tag k="ssr:type" v="adressenavn" />
	</node>
	<node id="-9004" lat="59.0468000007" lon="10.9670499953">
		<tag k="alt_name" v="Håbutangen" />
		<tag k="name" v="Håbutangen lykt" />
		<tag k="ssr:date" v="2016-05-11" />
		<tag k="ssr:gruppe" v="navigasjon" />
		<tag k="ssr:hovedgruppe" v="infrastruktur" />
		<tag k="ssr:stedsnr" v="730661" />
		<tag k="ssr:type" v="fyrlykt" />
	</node>
	<node id="-8199" lat="58.9812805525" lon="10.9544611062">
		<tag k="name" v="Tisler" />
		<tag k="ssr:date" v="2019-05-31" />
		<tag k="ssr:gruppe" v="veg" />
		<tag k="ssr:hovedgruppe" v="infrastruktur" />
		<tag k="ssr:stedsnr" v="41421" />
		<tag k="ssr:type" v="adressenavn" />
	</node>
	<node id="-8364" lat="59.0171805574" lon="11.1106249958">
		<tag k="name" v="Reiertangen lykt" />
		<tag k="ssr:date" v="2016-05-10" />
		<tag k="ssr:gruppe" v="navigasjon" />
		<tag k="ssr:hovedgruppe" v="infrastruktur" />
		<tag k="ssr:stedsnr" v="123247" />
		<tag k="ssr:type" v="fyrlykt" />
	</node>
	<node id="-8999" lat="59.0256888891" lon="11.0995416593">
		<tag k="name" v="Kuskjær" />
		<tag k="ssr:date" v="2016-05-11" />
		<tag k="ssr:gruppe" v="navigasjon" />
		<tag k="ssr:hovedgruppe" v="infrastruktur" />
		<tag k="ssr:stedsnr" v="730227" />
		<tag k="ssr:type" v="fyrlykt" />
	</node>
	<node id="-9253" lat="59.10680278" lon="11.1184888852">
		<tag k="alt_name" v="Lykt" />
		<tag k="name" v="Singløy lykt" />
		<tag k="ssr:date" v="2016-05-11" />
		<tag k="ssr:gruppe" v="navigasjon" />
		<tag k="ssr:hovedgruppe" v="infrastruktur" />
		<tag k="ssr:stedsnr" v="911838" />
		<tag k="ssr:type" v="fyrlykt" />
	</node>
	<node id="-8112" lat="59.1140947492" lon="10.8784847183">
		<tag k="name" v="Bjerkholmene" />
		<tag k="ssr:date" v="2019-05-31" />
		<tag k="ssr:gruppe" v="veg" />
		<tag k="ssr:hovedgruppe" v="infrastruktur" />
		<tag k="ssr:stedsnr" v="1060421" />
		<tag k="ssr:type" v="adressenavn" />
	</node>
	<node id="-8733" lat="59.0735694404" lon="10.9813416597">
		<tag k="name" v="Brattholmene" />
		<tag k="ssr:date" v="2019-05-31" />
		<tag k="ssr:gruppe" v="veg" />
		<tag k="ssr:hovedgruppe" v="infrastruktur" />
		<tag k="ssr:stedsnr" v="542510" />
		<tag k="ssr:type" v="adressenavn" />
	</node>
	<node id="-8240" lat="59.075122219" lon="10.9767361168">
		<tag k="alt_name" v="Brattholmen" />
		<tag k="name" v="Brattholmen lykt" />
		<tag k="ssr:date" v="2016-05-10" />
		<tag k="ssr:gruppe" v="navigasjon" />
		<tag k="ssr:hovedgruppe" v="infrastruktur" />
		<tag k="ssr:stedsnr" v="54900" />
		<tag k="ssr:type" v="fyrlykt" />
	</node>
	<node id="-8943" lat="59.09075" lon="10.9328083296">
		<tag k="name" v="Bastofeltet" />
		<tag k="ssr:date" v="2019-05-31" />
		<tag k="ssr:gruppe" v="veg" />
		<tag k="ssr:hovedgruppe" v="infrastruktur" />
		<tag k="ssr:stedsnr" v="709516" />
		<tag k="ssr:type" v="adressenavn" />
	</node>
	<node id="-8086" lat="59.0160555538" lon="11.0240666599">
		<tag k="name" v="Homlungen" />
		<tag k="old_name" v="Homlungen fyr;Homlungen lykt" />
		<tag k="ssr:date" v="2016-05-10" />
		<tag k="ssr:gruppe" v="navigasjon" />
		<tag k="ssr:hovedgruppe" v="infrastruktur" />
		<tag k="ssr:stedsnr" v="366580" />
		<tag k="ssr:type" v="fyrlykt" />
	</node>
	<node id="-8244" lat="58.9832583361" lon="11.0570722271">
		<tag k="alt_name" v="Sækkefluene lykt" />
		<tag k="name" v="Sekkefluene lanterne" />
		<tag k="ssr:date" v="2019-01-30" />
		<tag k="ssr:gruppe" v="navigasjon" />
		<tag k="ssr:hovedgruppe" v="infrastruktur" />
		<tag k="ssr:stedsnr" v="54918" />
		<tag k="ssr:type" v="lanterne" />
	</node>
	<node id="-7954" lat="59.0257638895" lon="10.9604527733">
		<tag k="name" v="Vidgrunnen lykt" />
		<tag k="ssr:date" v="2016-05-10" />
		<tag k="ssr:gruppe" v="navigasjon" />
		<tag k="ssr:hovedgruppe" v="infrastruktur" />
		<tag k="ssr:stedsnr" v="297587" />
		<tag k="ssr:type" v="fyrlykt" />
	</node>
	<node id="-8075" lat="59.1087642439" lon="10.8321581208">
		<tag k="name" v="Papperhavn" />
		<tag k="ssr:date" v="2019-02-11" />
		<tag k="ssr:gruppe" v="navigasjon" />
		<tag k="ssr:hovedgruppe" v="infrastruktur" />
		<tag k="ssr:stedsnr" v="365707" />
		<tag k="ssr:type" v="fyrlykt" />
	</node>
	<node id="-8200" lat="59.0815999958" lon="10.9702666578">
		<tag k="name" v="Løperhuet lykt" />
		<tag k="ssr:date" v="2016-05-10" />
		<tag k="ssr:gruppe" v="navigasjon" />
		<tag k="ssr:hovedgruppe" v="infrastruktur" />
		<tag k="ssr:stedsnr" v="53632" />
		<tag k="ssr:type" v="fyrlykt" />
	</node>
	<node id="-9095" lat="58.9963375038" lon="10.7817079456">
		<tag k="name" v="Torbjørnskjær" />
		<tag k="ssr:date" v="2019-01-29" />
		<tag k="ssr:gruppe" v="navigasjon" />
		<tag k="ssr:hovedgruppe" v="infrastruktur" />
		<tag k="ssr:stedsnr" v="790985" />
		<tag k="ssr:type" v="fyrstasjon" />
	</node>
	<node id="-8755" lat="59.0254805522" lon="10.898216668">
		<tag k="name" v="Trestenene" />
		<tag k="ssr:date" v="2016-05-10" />
		<tag k="ssr:gruppe" v="navigasjon" />
		<tag k="ssr:hovedgruppe" v="infrastruktur" />
		<tag k="ssr:stedsnr" v="548574" />
		<tag k="ssr:type" v="fyrlykt" />
	</node>
	<node id="-8252" lat="59.0668749992" lon="10.8827749994">
		<tag k="name" v="Skjelsbusund lykt" />
		<tag k="ssr:date" v="2016-05-10" />
		<tag k="ssr:gruppe" v="navigasjon" />
		<tag k="ssr:hovedgruppe" v="infrastruktur" />
		<tag k="ssr:stedsnr" v="62500" />
		<tag k="ssr:type" v="fyrlykt" />
	</node>
	<node id="-8066" lat="59.0534750001" lon="10.9481166622">
		<tag k="name" v="Skipstad" />
		<tag k="ssr:date" v="2019-05-31" />
		<tag k="ssr:gruppe" v="veg" />
		<tag k="ssr:hovedgruppe" v="infrastruktur" />
		<tag k="ssr:stedsnr" v="362783" />
		<tag k="ssr:type" v="adressenavn" />
	</node>
</osm>
