<?xml version="1.0" encoding="UTF-8"?>
<osm version="0.6" generator="osmapis">
	<node id="249162199" lat="68.0354096" lon="13.3477048" version="7" timestamp="2022-06-22T19:05:29Z" changeset="122725235" uid="3497659" user="NKA">
		<tag k="name" v="Nusfjord" />
		<tag k="name:ru" v="Нусфьорд" />
		<tag k="place" v="village" />
		<tag k="ssr:stedsnr" v="684549" />
		<tag k="tourism" v="attraction" />
	</node>
	<node id="249299658" lat="68.1626144" lon="13.3646647" version="3" timestamp="2022-06-22T19:05:29Z" changeset="122725235" uid="3497659" user="NKA">
		<tag k="name" v="Myrland" />
		<tag k="name:ru" v="Мирленд" />
		<tag k="place" v="hamlet" />
		<tag k="ssr:stedsnr" v="623996" />
	</node>
	<node id="249361675" lat="68.0577562" lon="13.1545444" version="4" timestamp="2022-06-22T19:05:29Z" changeset="122725235" uid="3497659" user="NKA">
		<tag k="name" v="Krystad" />
		<tag k="place" v="hamlet" />
		<tag k="ssr:stedsnr" v="320006" />
	</node>
	<node id="274633782" lat="68.0066001" lon="13.2948192" version="3" timestamp="2022-06-22T19:05:29Z" changeset="122725235" uid="3497659" user="NKA">
		<tag k="name" v="Auster Nesland" />
		<tag k="old_name" v="Nesland, austre;Austre Nesland" />
		<tag k="place" v="hamlet" />
		<tag k="ssr:stedsnr" v="562498" />
	</node>
	<node id="274633784" lat="68.0027539" lon="13.2739972" version="2" timestamp="2022-06-22T19:05:29Z" changeset="122725235" uid="3497659" user="NKA">
		<tag k="name" v="Vester Nesland" />
		<tag k="old_name" v="Nesland, vestre;Vestre Nesland" />
		<tag k="place" v="hamlet" />
		<tag k="ssr:stedsnr" v="866475" />
	</node>
	<node id="274636524" lat="68.1055866" lon="13.3039598" version="5" timestamp="2022-06-22T19:05:29Z" changeset="122725235" uid="3497659" user="NKA">
		<tag k="name" v="Flakstad" />
		<tag k="name:ru" v="Флакстад" />
		<tag k="place" v="hamlet" />
		<tag k="ssr:stedsnr" v="138833" />
	</node>
	<node id="1384259846" lat="68.1331694" lon="13.4319333" version="5" timestamp="2022-06-22T19:05:29Z" changeset="122725235" uid="3497659" user="NKA">
		<tag k="name" v="Napp" />
		<tag k="name:ru" v="Напп" />
		<tag k="place" v="village" />
		<tag k="ssr:stedsnr" v="684794" />
	</node>
	<node id="1384274312" lat="68.0899056" lon="13.2298917" version="4" timestamp="2022-06-22T19:05:29Z" changeset="122725235" uid="3497659" user="NKA">
		<tag k="name" v="Ramberg" />
		<tag k="name:ru" v="Рамберг" />
		<tag k="place" v="village" />
		<tag k="population" v="300" />
		<tag k="ssr:stedsnr" v="563688" />
	</node>
	<node id="1599199443" lat="68.0083088" lon="13.1683542" version="4" timestamp="2022-06-22T19:05:29Z" changeset="122725235" uid="3497659" user="NKA">
		<tag k="name" v="Mølnarodden" />
		<tag k="name:ru" v="Молнародден" />
		<tag k="place" v="hamlet" />
		<tag k="ssr:stedsnr" v="199058" />
	</node>
	<node id="1599208425" lat="68.0051834" lon="13.2078944" version="4" timestamp="2022-06-22T19:05:29Z" changeset="122725235" uid="3497659" user="NKA">
		<tag k="alt_name" v="Sund i Lofoten" />
		<tag k="name" v="Sund" />
		<tag k="name:ru" v="Сунд" />
		<tag k="place" v="village" />
		<tag k="ssr:stedsnr" v="78061" />
	</node>
	<node id="1599227784" lat="68.0691531" lon="13.1973744" version="3" timestamp="2022-06-22T19:05:29Z" changeset="122725235" uid="3497659" user="NKA">
		<tag k="name" v="Finnbyen" />
		<tag k="place" v="isolated_dwelling" />
		<tag k="ssr:stedsnr" v="381027" />
	</node>
	<node id="1599227785" lat="68.0446727" lon="13.1686412" version="3" timestamp="2022-06-22T19:05:29Z" changeset="122725235" uid="3497659" user="NKA">
		<tag k="alt_name" v="Strømsnes" />
		<tag k="name" v="Strømsnes" />
		<tag k="place" v="hamlet" />
		<tag k="ssr:stedsnr" v="260040" />
	</node>
	<node id="1599238018" lat="68.0849128" lon="13.1700703" version="4" timestamp="2022-06-22T19:05:29Z" changeset="122725235" uid="3497659" user="NKA">
		<tag k="name" v="Hovdan" />
		<tag k="place" v="farm" />
		<tag k="ssr:stedsnr" v="259223" />
	</node>
	<node id="1599256706" lat="68.0840556" lon="13.1666862" version="5" timestamp="2022-06-22T19:05:29Z" changeset="122725235" uid="3497659" user="NKA">
		<tag k="name" v="Fredvang" />
		<tag k="name:ru" v="Фредванг" />
		<tag k="place" v="village" />
		<tag k="population" v="200" />
		<tag k="ssr:stedsnr" v="927265" />
	</node>
	<node id="1599849470" lat="68.1009618" lon="13.2407694" version="4" timestamp="2022-06-22T19:05:29Z" changeset="122725235" uid="3497659" user="NKA">
		<tag k="name" v="Justneset" />
		<tag k="name:ru" v="Юстнес" />
		<tag k="place" v="hamlet" />
		<tag k="ssr:stedsnr" v="381843" />
	</node>
	<node id="1599925792" lat="68.0470194" lon="13.2506863" version="2" timestamp="2022-06-22T19:05:29Z" changeset="122725235" uid="3497659" user="NKA">
		<tag k="name" v="Nesan" />
		<tag k="place" v="hamlet" />
		<tag k="ssr:stedsnr" v="717465" />
	</node>
	<node id="1599961343" lat="68.1426895" lon="13.3154532" version="3" timestamp="2022-06-22T19:05:29Z" changeset="122725235" uid="3497659" user="NKA">
		<tag k="name" v="Nordgården" />
		<tag k="name:ru" v="Нордгарден" />
		<tag k="place" v="hamlet" />
		<tag k="ssr:stedsnr" v="623947" />
	</node>
	<node id="1599977229" lat="68.1557542" lon="13.4221397" version="2" timestamp="2022-06-22T19:05:29Z" changeset="122725235" uid="3497659" user="NKA">
		<tag k="alt_name" v="Sandnes, store;Store Sandnes" />
		<tag k="name" v="Storsandnes" />
		<tag k="place" v="hamlet" />
		<tag k="ssr:stedsnr" v="684962" />
	</node>
	<node id="1600043510" lat="68.1185484" lon="13.3467619" version="3" timestamp="2022-06-22T19:05:29Z" changeset="122725235" uid="3497659" user="NKA">
		<tag k="name" v="Vareid" />
		<tag k="name:ru" v="Вариед" />
		<tag k="place" v="hamlet" />
		<tag k="ssr:stedsnr" v="441881" />
	</node>
	<node id="3385249488" lat="68.0799292" lon="13.3449568" version="2" timestamp="2022-06-22T19:05:29Z" changeset="122725235" uid="3497659" user="NKA">
		<tag k="name" v="Kilan" />
		<tag k="place" v="hamlet" />
		<tag k="ssr:stedsnr" v="562705" />
	</node>
	<node id="3385310122" lat="68.08618" lon="13.3066271" version="4" timestamp="2022-06-22T19:05:29Z" changeset="122725235" uid="3497659" user="NKA">
		<tag k="name" v="Bø" />
		<tag k="name:ru" v="Бо" />
		<tag k="place" v="hamlet" />
		<tag k="ssr:stedsnr" v="17659" />
	</node>
	<node id="4274218909" lat="68.1017521" lon="13.4158799" version="3" timestamp="2022-06-22T19:05:29Z" changeset="122725235" uid="3497659" user="NKA">
		<tag k="name" v="Andopen" />
		<tag k="place" v="isolated_dwelling" />
		<tag k="ssr:stedsnr" v="259829" />
	</node>
	<node id="4304863697" lat="68.0890151" lon="13.1410474" version="4" timestamp="2022-06-22T19:05:29Z" changeset="122725235" uid="3497659" user="NKA">
		<tag k="alt_name" v="Indresand" />
		<tag k="name" v="Innersand" />
		<tag k="place" v="farm" />
		<tag k="ssr:stedsnr" v="502229" />
	</node>
	<node id="4304863698" lat="68.0914963" lon="13.1497505" version="4" timestamp="2022-06-22T19:05:29Z" changeset="122725235" uid="3497659" user="NKA">
		<tag k="alt_name" v="Medvollen;Mevold" />
		<tag k="name" v="Medvoll" />
		<tag k="place" v="farm" />
		<tag k="ssr:stedsnr" v="502226" />
	</node>
	<node id="4304863700" lat="68.093014" lon="13.1589401" version="4" timestamp="2022-06-22T19:05:29Z" changeset="122725235" uid="3497659" user="NKA">
		<tag k="name" v="Nordvalle" />
		<tag k="place" v="hamlet" />
		<tag k="ssr:stedsnr" v="380227" />
	</node>
	<node id="4304863918" lat="68.0897188" lon="13.1600878" version="4" timestamp="2022-06-22T19:05:29Z" changeset="122725235" uid="3497659" user="NKA">
		<tag k="name" v="Sørvalle" />
		<tag k="place" v="hamlet" />
		<tag k="ssr:stedsnr" v="138265" />
	</node>
	<node id="4304863919" lat="68.0962443" lon="13.1348533" version="4" timestamp="2022-06-22T19:05:29Z" changeset="122725235" uid="3497659" user="NKA">
		<tag k="alt_name" v="Ytresand" />
		<tag k="name" v="Yttersand" />
		<tag k="place" v="hamlet" />
		<tag k="ssr:stedsnr" v="380229" />
	</node>
	<node id="4304863920" lat="68.0902665" lon="13.16357" version="4" timestamp="2022-06-22T19:05:29Z" changeset="122725235" uid="3497659" user="NKA">
		<tag k="alt_name" v="Øvrevalle" />
		<tag k="name" v="Øvervalle" />
		<tag k="place" v="farm" />
		<tag k="ssr:stedsnr" v="806251" />
	</node>
	<node id="9839547002" lat="68.0421726" lon="13.2605853" version="1" timestamp="2022-06-22T19:05:29Z" changeset="122725235" uid="3497659" user="NKA">
		<tag k="name" v="Kvalvik" />
		<tag k="place" v="farm" />
		<tag k="ssr:stedsnr" v="350980" />
	</node>
	<node id="9839547003" lat="68.0780305" lon="13.2390611" version="1" timestamp="2022-06-22T19:05:29Z" changeset="122725235" uid="3497659" user="NKA">
		<tag k="name" v="Lundgård" />
		<tag k="place" v="farm" />
		<tag k="ssr:stedsnr" v="169790" />
	</node>
	<node id="9839547004" lat="68.0448232" lon="13.2566961" version="1" timestamp="2022-06-22T19:05:29Z" changeset="122725235" uid="3497659" user="NKA">
		<tag k="name" v="Innerfjorden" />
		<tag k="place" v="hamlet" />
		<tag k="ssr:stedsnr" v="656525" />
	</node>
	<node id="9839547005" lat="68.087717" lon="13.3399984" version="1" timestamp="2022-06-22T19:05:29Z" changeset="122725235" uid="3497659" user="NKA">
		<tag k="name" v="Trauan" />
		<tag k="place" v="farm" />
		<tag k="ssr:stedsnr" v="806637" />
	</node>
	<node id="9839547006" lat="68.05455" lon="13.2501889" version="1" timestamp="2022-06-22T19:05:29Z" changeset="122725235" uid="3497659" user="NKA">
		<tag k="name" v="Yttergård" />
		<tag k="place" v="locality" />
		<tag k="ssr:stedsnr" v="473474" />
	</node>
	<node id="9839547007" lat="68.0312139" lon="13.3440223" version="1" timestamp="2022-06-22T19:05:29Z" changeset="122725235" uid="3497659" user="NKA">
		<tag k="name" v="Vika" />
		<tag k="place" v="hamlet" />
		<tag k="ssr:stedsnr" v="474930" />
	</node>
	<node id="9839547008" lat="68.1130389" lon="13.1346362" version="1" timestamp="2022-06-22T19:05:29Z" changeset="122725235" uid="3497659" user="NKA">
		<tag k="name" v="Mulstøa" />
		<tag k="place" v="isolated_dwelling" />
		<tag k="ssr:stedsnr" v="805182" />
	</node>
	<node id="9839547009" lat="68.1027806" lon="13.3249693" version="1" timestamp="2022-06-22T19:05:29Z" changeset="122725235" uid="3497659" user="NKA">
		<tag k="name" v="Silsandneset" />
		<tag k="place" v="farm" />
		<tag k="ssr:stedsnr" v="17836" />
	</node>
	<node id="9839547010" lat="68.1014278" lon="13.2371862" version="1" timestamp="2022-06-22T19:05:29Z" changeset="122725235" uid="3497659" user="NKA">
		<tag k="name" v="Nedre Jusneset" />
		<tag k="place" v="farm" />
		<tag k="ssr:stedsnr" v="909646" />
	</node>
	<node id="9839547011" lat="68.1295361" lon="13.4050138" version="1" timestamp="2022-06-22T19:05:29Z" changeset="122725235" uid="3497659" user="NKA">
		<tag k="alt_name" v="Nappsskardet" />
		<tag k="name" v="Nappskaret" />
		<tag k="place" v="hamlet" />
		<tag k="ssr:stedsnr" v="441789" />
	</node>
	<node id="9839547012" lat="68.146196" lon="13.4503435" version="1" timestamp="2022-06-22T19:05:29Z" changeset="122725235" uid="3497659" user="NKA">
		<tag k="alt_name" v="Sandnes, l;Litle Sandnes" />
		<tag k="name" v="Litlsandnes" />
		<tag k="place" v="farm" />
		<tag k="ssr:stedsnr" v="199953" />
	</node>
	<node id="9839547013" lat="68.0041779" lon="13.2872027" version="1" timestamp="2022-06-22T19:05:29Z" changeset="122725235" uid="3497659" user="NKA">
		<tag k="name" v="Nesland" />
		<tag k="place" v="farm" />
		<tag k="ssr:stedsnr" v="1075925" />
	</node>
	<node id="9839547014" lat="68.0617333" lon="13.2342554" version="1" timestamp="2022-06-22T19:05:29Z" changeset="122725235" uid="3497659" user="NKA">
		<tag k="name" v="Vestgård" />
		<tag k="place" v="farm" />
		<tag k="ssr:stedsnr" v="231675" />
	</node>
	<node id="9839547015" lat="68.0554239" lon="13.1515625" version="1" timestamp="2022-06-22T19:05:29Z" changeset="122725235" uid="3497659" user="NKA">
		<tag k="name" v="Langneset" />
		<tag k="place" v="farm" />
		<tag k="ssr:stedsnr" v="563002" />
	</node>
	<node id="9839547016" lat="68.0912525" lon="13.153271" version="1" timestamp="2022-06-22T19:05:29Z" changeset="122725235" uid="3497659" user="NKA">
		<tag k="alt_name" v="Volden" />
		<tag k="name" v="Vollen" />
		<tag k="place" v="farm" />
		<tag k="ssr:stedsnr" v="380225" />
	</node>
	<node id="9839591717" lat="68.09685" lon="13.4184445" version="1" timestamp="2022-06-22T19:05:29Z" changeset="122725235" uid="3497659" user="NKA">
		<tag k="name" v="Skarlaget" />
		<tag k="place" v="locality" />
		<tag k="ssr:stedsnr" v="37728" />
	</node>
	<node id="9839591718" lat="68.0829134" lon="13.3426455" version="1" timestamp="2022-06-22T19:05:29Z" changeset="122725235" uid="3497659" user="NKA">
		<tag k="name" v="Nordgård" />
		<tag k="place" v="farm" />
		<tag k="ssr:stedsnr" v="1080826" />
	</node>
	<node id="9839591719" lat="68.0303308" lon="13.1786556" version="1" timestamp="2022-06-22T19:05:29Z" changeset="122725235" uid="3497659" user="NKA">
		<tag k="name" v="Lyshaugen" />
		<tag k="place" v="farm" />
		<tag k="ssr:stedsnr" v="49184" />
	</node>
	<node id="9839591720" lat="68.0611442" lon="13.399374" version="1" timestamp="2022-06-22T19:05:29Z" changeset="122725235" uid="3497659" user="NKA">
		<tag k="name" v="Straumøya" />
		<tag k="place" v="farm" />
		<tag k="ssr:stedsnr" v="1075923" />
	</node>
	<node id="9839591721" lat="68.1218503" lon="13.4414732" version="1" timestamp="2022-06-22T19:05:29Z" changeset="122725235" uid="3497659" user="NKA">
		<tag k="name" v="Hårberget" />
		<tag k="place" v="farm" />
		<tag k="ssr:stedsnr" v="381892" />
	</node>
	<node id="9839591722" lat="68.1393333" lon="13.3139695" version="1" timestamp="2022-06-22T19:05:29Z" changeset="122725235" uid="3497659" user="NKA">
		<tag k="alt_name" v="Heimegården" />
		<tag k="name" v="Heimergården" />
		<tag k="place" v="farm" />
		<tag k="ssr:stedsnr" v="623815" />
	</node>
	<node id="9839591723" lat="68.0995597" lon="13.2463563" version="1" timestamp="2022-06-22T19:05:29Z" changeset="122725235" uid="3497659" user="NKA">
		<tag k="name" v="Øverleitet" />
		<tag k="place" v="hamlet" />
		<tag k="ssr:stedsnr" v="292204" />
	</node>
	<node id="9839591724" lat="68.0978949" lon="13.1357651" version="1" timestamp="2022-06-22T19:05:29Z" changeset="122725235" uid="3497659" user="NKA">
		<tag k="name" v="Krampan" />
		<tag k="place" v="locality" />
		<tag k="ssr:stedsnr" v="778955" />
	</node>
	<node id="9839591725" lat="68.019537" lon="13.173278" version="1" timestamp="2022-06-22T19:05:29Z" changeset="122725235" uid="3497659" user="NKA">
		<tag k="name" v="Revsal" />
		<tag k="place" v="farm" />
		<tag k="ssr:stedsnr" v="866033" />
	</node>
	<node id="9839591726" lat="68.0987473" lon="13.245313" version="1" timestamp="2022-06-22T19:05:29Z" changeset="122725235" uid="3497659" user="NKA">
		<tag k="name" v="Leitet" />
		<tag k="place" v="farm" />
		<tag k="ssr:stedsnr" v="232794" />
	</node>
	<node id="9839591727" lat="68.0364027" lon="13.0741417" version="1" timestamp="2022-06-22T19:05:29Z" changeset="122725235" uid="3497659" user="NKA">
		<tag k="name" v="Myran" />
		<tag k="place" v="farm" />
		<tag k="ssr:stedsnr" v="352385" />
	</node>
	<node id="9839591728" lat="68.0422328" lon="13.1697614" version="1" timestamp="2022-06-22T19:05:29Z" changeset="122725235" uid="3497659" user="NKA">
		<tag k="name" v="Jekthaugen" />
		<tag k="place" v="farm" />
		<tag k="ssr:stedsnr" v="716449" />
	</node>
	<node id="9839591729" lat="68.0403377" lon="13.1637549" version="1" timestamp="2022-06-22T19:05:29Z" changeset="122725235" uid="3497659" user="NKA">
		<tag k="name" v="Straumshaugen" />
		<tag k="place" v="farm" />
		<tag k="ssr:stedsnr" v="716403" />
	</node>
	<node id="9839591730" lat="68.1454639" lon="13.3158834" version="1" timestamp="2022-06-22T19:05:29Z" changeset="122725235" uid="3497659" user="NKA">
		<tag k="name" v="Nordjorda" />
		<tag k="place" v="locality" />
		<tag k="ssr:stedsnr" v="806945" />
	</node>
	<node id="9839591731" lat="68.0968219" lon="13.4184262" version="1" timestamp="2022-06-22T19:05:29Z" changeset="122725235" uid="3497659" user="NKA">
		<tag k="name" v="Moneset" />
		<tag k="place" v="farm" />
		<tag k="ssr:stedsnr" v="260695" />
	</node>
	<node id="9839591732" lat="68.0212541" lon="13.1837191" version="1" timestamp="2022-06-22T19:05:29Z" changeset="122725235" uid="3497659" user="NKA">
		<tag k="name" v="Kåkeren" />
		<tag k="place" v="farm" />
		<tag k="ssr:stedsnr" v="927052" />
	</node>
	<node id="9839591733" lat="68.0781361" lon="13.1020111" version="1" timestamp="2022-06-22T19:05:29Z" changeset="122725235" uid="3497659" user="NKA">
		<tag k="name" v="Kvalvika" />
		<tag k="place" v="locality" />
		<tag k="ssr:stedsnr" v="593715" />
	</node>
	<node id="9839591734" lat="68.0744119" lon="13.1448043" version="1" timestamp="2022-06-22T19:05:29Z" changeset="122725235" uid="3497659" user="NKA">
		<tag k="name" v="Stien" />
		<tag k="place" v="farm" />
		<tag k="ssr:stedsnr" v="899695" />
	</node>
	<node id="9839591735" lat="68.044128" lon="13.1620149" version="1" timestamp="2022-06-22T19:05:29Z" changeset="122725235" uid="3497659" user="NKA">
		<tag k="alt_name" v="Andopsneset" />
		<tag k="name" v="Andopsnes" />
		<tag k="place" v="farm" />
		<tag k="ssr:stedsnr" v="806031" />
	</node>
	<node id="9839591736" lat="68.0227194" lon="13.1543501" version="1" timestamp="2022-06-22T19:05:29Z" changeset="122725235" uid="3497659" user="NKA">
		<tag k="name" v="Vareid" />
		<tag k="place" v="quarter" />
		<tag k="ssr:stedsnr" v="632560" />
	</node>
	<node id="9839591737" lat="68.1292583" lon="13.4034084" version="1" timestamp="2022-06-22T19:05:29Z" changeset="122725235" uid="3497659" user="NKA">
		<tag k="name" v="Nerleitet" />
		<tag k="place" v="hamlet" />
		<tag k="ssr:stedsnr" v="778225" />
	</node>
	<node id="9839591738" lat="68.1070805" lon="13.1040027" version="1" timestamp="2022-06-22T19:05:29Z" changeset="122725235" uid="3497659" user="NKA">
		<tag k="name" v="Stokkvika" />
		<tag k="place" v="locality" />
		<tag k="ssr:stedsnr" v="897745" />
	</node>
	<node id="9839591739" lat="68.0281201" lon="13.1702122" version="1" timestamp="2022-06-22T19:05:29Z" changeset="122725235" uid="3497659" user="NKA">
		<tag k="name" v="Fagernes" />
		<tag k="place" v="farm" />
		<tag k="ssr:stedsnr" v="562024" />
	</node>
	<node id="9839591740" lat="68.1036239" lon="13.3180611" version="1" timestamp="2022-06-22T19:05:29Z" changeset="122725235" uid="3497659" user="NKA">
		<tag k="name" v="Sørjord" />
		<tag k="place" v="farm" />
		<tag k="ssr:stedsnr" v="666953" />
	</node>
	<node id="9839591741" lat="68.0745743" lon="13.1421127" version="1" timestamp="2022-06-22T19:05:29Z" changeset="122725235" uid="3497659" user="NKA">
		<tag k="name" v="Bergland" />
		<tag k="place" v="farm" />
		<tag k="ssr:stedsnr" v="380005" />
	</node>
	<node id="9839591742" lat="68.0427892" lon="13.2593115" version="1" timestamp="2022-06-22T19:05:29Z" changeset="122725235" uid="3497659" user="NKA">
		<tag k="name" v="Innergården" />
		<tag k="place" v="farm" />
		<tag k="ssr:stedsnr" v="595491" />
	</node>
	<node id="9839591743" lat="68.0501764" lon="13.1329019" version="1" timestamp="2022-06-22T19:05:29Z" changeset="122725235" uid="3497659" user="NKA">
		<tag k="alt_name" v="Litlekrystad" />
		<tag k="name" v="Litlkrystad" />
		<tag k="place" v="farm" />
		<tag k="ssr:stedsnr" v="623034" />
	</node>
	<node id="9839591744" lat="68.048147" lon="13.1214037" version="1" timestamp="2022-06-22T19:05:29Z" changeset="122725235" uid="3497659" user="NKA">
		<tag k="name" v="Markjorda" />
		<tag k="place" v="farm" />
		<tag k="ssr:stedsnr" v="716573" />
	</node>
	<node id="9839591745" lat="68.1130889" lon="13.3441579" version="1" timestamp="2022-06-22T19:05:29Z" changeset="122725235" uid="3497659" user="NKA">
		<tag k="name" v="Beringen" />
		<tag k="place" v="farm" />
		<tag k="ssr:stedsnr" v="231272" />
	</node>
	<node id="9839591746" lat="68.0257788" lon="13.1818606" version="1" timestamp="2022-06-22T19:05:29Z" changeset="122725235" uid="3497659" user="NKA">
		<tag k="name" v="Mørkveden" />
		<tag k="place" v="farm" />
		<tag k="ssr:stedsnr" v="259032" />
	</node>
	<node id="9839591747" lat="68.0053278" lon="13.0647972" version="1" timestamp="2022-06-22T19:05:29Z" changeset="122725235" uid="3497659" user="NKA">
		<tag k="historic" v="shieling" />
		<tag k="name" v="Sæteren" />
		<tag k="place" v="isolated_dwelling" />
		<tag k="ssr:stedsnr" v="170930" />
	</node>
	<node id="9839591748" lat="68.090925" lon="13.1888138" version="1" timestamp="2022-06-22T19:05:29Z" changeset="122725235" uid="3497659" user="NKA">
		<tag k="name" v="Øyan" />
		<tag k="place" v="farm" />
		<tag k="ssr:stedsnr" v="502221" />
	</node>
	<node id="9839591749" lat="68.0754583" lon="13.3325945" version="1" timestamp="2022-06-22T19:05:29Z" changeset="122725235" uid="3497659" user="NKA">
		<tag k="name" v="Djupvika" />
		<tag k="place" v="locality" />
		<tag k="ssr:stedsnr" v="110636" />
	</node>
	<node id="9839591750" lat="68.1168743" lon="13.3505321" version="1" timestamp="2022-06-22T19:05:29Z" changeset="122725235" uid="3497659" user="NKA">
		<tag k="name" v="Taen" />
		<tag k="place" v="farm" />
		<tag k="ssr:stedsnr" v="110221" />
	</node>
	<node id="9839591751" lat="68.0196715" lon="13.2021189" version="1" timestamp="2022-06-22T19:05:29Z" changeset="122725235" uid="3497659" user="NKA">
		<tag k="name" v="Skjenfjorden" />
		<tag k="place" v="hamlet" />
		<tag k="ssr:stedsnr" v="292128" />
	</node>
	<node id="9839591752" lat="68.108425" lon="13.3016667" version="1" timestamp="2022-06-22T19:05:29Z" changeset="122725235" uid="3497659" user="NKA">
		<tag k="name" v="Skagen" />
		<tag k="place" v="farm" />
		<tag k="ssr:stedsnr" v="381873" />
	</node>
	<node id="9839591753" lat="68.0564083" lon="13.0980027" version="1" timestamp="2022-06-22T19:05:29Z" changeset="122725235" uid="3497659" user="NKA">
		<tag k="alt_name" v="Marka, øvre" />
		<tag k="name" v="Øvre Marka" />
		<tag k="place" v="locality" />
		<tag k="ssr:stedsnr" v="442003" />
	</node>
	<node id="9839591754" lat="68.0599935" lon="13.2445161" version="1" timestamp="2022-06-22T19:05:29Z" changeset="122725235" uid="3497659" user="NKA">
		<tag k="name" v="Ytre Skjelfjord" />
		<tag k="old_name" v="Skjelfjord, yt" />
		<tag k="place" v="farm" />
		<tag k="ssr:stedsnr" v="260746" />
	</node>
	<node id="9839591755" lat="68.1289417" lon="13.3861889" version="1" timestamp="2022-06-22T19:05:29Z" changeset="122725235" uid="3497659" user="NKA">
		<tag k="name" v="Vareidskaret" />
		<tag k="place" v="hamlet" />
		<tag k="ssr:stedsnr" v="17804" />
	</node>
	<node id="9839591756" lat="68.1193675" lon="13.3545923" version="1" timestamp="2022-06-22T19:05:29Z" changeset="122725235" uid="3497659" user="NKA">
		<tag k="name" v="Halsen" />
		<tag k="place" v="farm" />
		<tag k="ssr:stedsnr" v="171209" />
	</node>
	<node id="9839591757" lat="68.0453176" lon="13.2612378" version="1" timestamp="2022-06-22T19:05:29Z" changeset="122725235" uid="3497659" user="NKA">
		<tag k="name" v="Indre Skjelfjord" />
		<tag k="old_name" v="Skjelfjord, in" />
		<tag k="place" v="farm" />
		<tag k="ssr:stedsnr" v="866730" />
	</node>
	<node id="9839591758" lat="68.0839403" lon="13.1707875" version="1" timestamp="2022-06-22T19:05:29Z" changeset="122725235" uid="3497659" user="NKA">
		<tag k="name" v="Gardshovdan" />
		<tag k="place" v="farm" />
		<tag k="ssr:stedsnr" v="960817" />
	</node>
	<node id="9839591759" lat="68.0899163" lon="13.1557774" version="1" timestamp="2022-06-22T19:05:29Z" changeset="122725235" uid="3497659" user="NKA">
		<tag k="name" v="Landalen" />
		<tag k="place" v="farm" />
		<tag k="ssr:stedsnr" v="50804" />
	</node>
	<node id="9839591760" lat="68.0456029" lon="13.2537302" version="1" timestamp="2022-06-22T19:05:29Z" changeset="122725235" uid="3497659" user="NKA">
		<tag k="name" v="Solbakken" />
		<tag k="place" v="farm" />
		<tag k="ssr:stedsnr" v="899446" />
	</node>
	<node id="9839591761" lat="68.0843524" lon="13.342637" version="1" timestamp="2022-06-22T19:05:29Z" changeset="122725235" uid="3497659" user="NKA">
		<tag k="name" v="Klokkergården" />
		<tag k="place" v="farm" />
		<tag k="ssr:stedsnr" v="806638" />
	</node>
	<node id="9839591762" lat="68.0051222" lon="13.0546833" version="1" timestamp="2022-06-22T19:05:29Z" changeset="122725235" uid="3497659" user="NKA">
		<tag k="name" v="Grønnes" />
		<tag k="place" v="farm" />
		<tag k="ssr:stedsnr" v="562044" />
	</node>
	<node id="9839591763" lat="68.1402849" lon="13.3157857" version="1" timestamp="2022-06-22T19:05:29Z" changeset="122725235" uid="3497659" user="NKA">
		<tag k="name" v="Vikten" />
		<tag k="place" v="hamlet" />
		<tag k="ssr:stedsnr" v="745831" />
	</node>
	<node id="9839591764" lat="68.1027794" lon="13.3230246" version="1" timestamp="2022-06-22T19:05:29Z" changeset="122725235" uid="3497659" user="NKA">
		<tag k="name" v="Midtsundstad" />
		<tag k="place" v="farm" />
		<tag k="ssr:stedsnr" v="745850" />
	</node>
	<node id="9839591765" lat="68.146325" lon="13.3139249" version="1" timestamp="2022-06-22T19:05:29Z" changeset="122725235" uid="3497659" user="NKA">
		<tag k="name" v="Plassen" />
		<tag k="place" v="locality" />
		<tag k="ssr:stedsnr" v="535448" />
	</node>
	<node id="9839591766" lat="68.0999361" lon="13.1841102" version="1" timestamp="2022-06-22T19:05:29Z" changeset="122725235" uid="3497659" user="NKA">
		<tag k="alt_name" v="Korshamn" />
		<tag k="name" v="Korshavn" />
		<tag k="place" v="farm" />
		<tag k="ssr:stedsnr" v="17265" />
	</node>
	<node id="9839591767" lat="68.0626" lon="13.1931111" version="1" timestamp="2022-06-22T19:05:29Z" changeset="122725235" uid="3497659" user="NKA">
		<tag k="alt_name" v="Bjørnmyra" />
		<tag k="name" v="Bjønnmyra" />
		<tag k="place" v="farm" />
		<tag k="ssr:stedsnr" v="867019" />
	</node>
	<node id="9839591768" lat="68.0611187" lon="13.242953" version="1" timestamp="2022-06-22T19:05:29Z" changeset="122725235" uid="3497659" user="NKA">
		<tag k="name" v="Nordheim" />
		<tag k="place" v="farm" />
		<tag k="ssr:stedsnr" v="413622" />
	</node>
	<node id="9839591769" lat="68.0917078" lon="13.1565145" version="1" timestamp="2022-06-22T19:05:29Z" changeset="122725235" uid="3497659" user="NKA">
		<tag k="name" v="Reinan" />
		<tag k="place" v="farm" />
		<tag k="ssr:stedsnr" v="960830" />
	</node>
	<node id="9839591770" lat="68.0217528" lon="13.1608057" version="1" timestamp="2022-06-22T19:05:29Z" changeset="122725235" uid="3497659" user="NKA">
		<tag k="name" v="Valen" />
		<tag k="place" v="hamlet" />
		<tag k="ssr:stedsnr" v="413179" />
	</node>
	<node id="9839591771" lat="68.0698322" lon="13.1318828" version="1" timestamp="2022-06-22T19:05:29Z" changeset="122725235" uid="3497659" user="NKA">
		<tag k="name" v="Torsfjord" />
		<tag k="place" v="farm" />
		<tag k="ssr:stedsnr" v="775770" />
	</node>
	<node id="9839591772" lat="68.0563056" lon="13.1234166" version="1" timestamp="2022-06-22T19:05:29Z" changeset="122725235" uid="3497659" user="NKA">
		<tag k="name" v="Hella" />
		<tag k="place" v="farm" />
		<tag k="ssr:stedsnr" v="684002" />
	</node>
	<node id="9839591773" lat="68.0456945" lon="13.1166492" version="1" timestamp="2022-06-22T19:05:29Z" changeset="122725235" uid="3497659" user="NKA">
		<tag k="name" v="Marka" />
		<tag k="place" v="farm" />
		<tag k="ssr:stedsnr" v="381032" />
	</node>
	<node id="9839591774" lat="68.0378367" lon="13.0853042" version="1" timestamp="2022-06-22T19:05:29Z" changeset="122725235" uid="3497659" user="NKA">
		<tag k="alt_name" v="Selfjord" />
		<tag k="name" v="Selfjorden" />
		<tag k="place" v="farm" />
		<tag k="ssr:stedsnr" v="320027" />
	</node>
	<node id="9839591775" lat="68.113375" lon="13.3449806" version="1" timestamp="2022-06-22T19:05:29Z" changeset="122725235" uid="3497659" user="NKA">
		<tag k="name" v="Vollan" />
		<tag k="place" v="farm" />
		<tag k="ssr:stedsnr" v="260880" />
	</node>
	<node id="9839591776" lat="68.0585273" lon="13.2317206" version="1" timestamp="2022-06-22T19:05:29Z" changeset="122725235" uid="3497659" user="NKA">
		<tag k="name" v="Fossmo" />
		<tag k="place" v="farm" />
		<tag k="ssr:stedsnr" v="534614" />
	</node>
	<node id="4354466095" lat="68.0854568" lon="13.1844658" version="1" timestamp="2016-08-17T17:48:48Z" changeset="41517431" uid="2114448" user="FredrikLindseth_import" />
	<node id="249361222" lat="68.0775611" lon="13.1952448" version="5" timestamp="2018-12-08T18:01:35Z" changeset="65297518" uid="32112" user="SverigeFan">
		<tag k="barrier" v="cattle_grid" />
	</node>
	<node id="4354465795" lat="68.0781078" lon="13.1948011" version="2" timestamp="2018-12-08T18:01:37Z" changeset="65297518" uid="32112" user="SverigeFan" />
	<node id="4354465845" lat="68.0795205" lon="13.1936858" version="2" timestamp="2018-12-08T18:01:37Z" changeset="65297518" uid="32112" user="SverigeFan" />
	<node id="6125242792" lat="68.0790901" lon="13.194029" version="1" timestamp="2018-12-08T18:01:35Z" changeset="65297518" uid="32112" user="SverigeFan" />
	<node id="249361245" lat="68.084348" lon="13.1889905" version="3" timestamp="2016-08-17T17:52:48Z" changeset="41517431" uid="2114448" user="FredrikLindseth_import" />
	<node id="249361246" lat="68.0844115" lon="13.1887648" version="3" timestamp="2016-08-17T17:52:48Z" changeset="41517431" uid="2114448" user="FredrikLindseth_import" />
	<node id="249361541" lat="68.084546" lon="13.1882309" version="3" timestamp="2016-08-17T17:52:50Z" changeset="41517431" uid="2114448" user="FredrikLindseth_import" />
	<node id="4354466051" lat="68.0842468" lon="13.1892907" version="2" timestamp="2018-12-08T18:01:37Z" changeset="65297518" uid="32112" user="SverigeFan" />
	<node id="4354466054" lat="68.0842861" lon="13.1891778" version="1" timestamp="2016-08-17T17:48:47Z" changeset="41517431" uid="2114448" user="FredrikLindseth_import" />
	<way id="23099350" version="11" timestamp="2022-01-24T06:56:00Z" changeset="116526664" uid="3497659" user="NKA">
		<tag k="bridge" v="yes" />
		<tag k="bridge:structure" v="beam" />
		<tag k="highway" v="secondary" />
		<tag k="layer" v="1" />
		<tag k="maxspeed" v="80" />
		<tag k="name" v="Røssøystraumbrua" />
		<tag k="old_ref" v="986" />
		<tag k="ref" v="7708" />
		<tag k="ssr:stedsnr" v="1080823" />
		<tag k="surface" v="asphalt" />
		<tag k="wikidata" v="Q1777230" />
		<nd ref="4354466051" />
		<nd ref="4354466054" />
		<nd ref="249361245" />
		<nd ref="249361246" />
		<nd ref="249361541" />
		<nd ref="4354466095" />
	</way>
	<way id="23099352" version="11" timestamp="2022-01-24T06:56:00Z" changeset="116526664" uid="3497659" user="NKA">
		<tag k="bridge" v="yes" />
		<tag k="bridge:structure" v="beam" />
		<tag k="highway" v="secondary" />
		<tag k="layer" v="1" />
		<tag k="maxspeed" v="80" />
		<tag k="name" v="Kubbholmleibrua" />
		<tag k="old_ref" v="986" />
		<tag k="ref" v="7708" />
		<tag k="ssr:stedsnr" v="1080824" />
		<tag k="surface" v="asphalt" />
		<nd ref="249361222" />
		<nd ref="4354465795" />
		<nd ref="6125242792" />
		<nd ref="4354465845" />
	</way>
</osm>
