<?xml version="1.0" encoding="UTF-8"?>
<osm generator="osmapis" version="0.6">
	<node id="-234912" lat="59.4822244971" lon="9.00278744071">
		<tag k="name" v="Lifjell" />
		<tag k="ssr:date" v="2019-05-31" />
		<tag k="ssr:gruppe" v="veg" />
		<tag k="ssr:hovedgruppe" v="infrastruktur" />
		<tag k="ssr:stedsnr" v="1048571" />
		<tag k="ssr:type" v="adressenavn" />
	</node>
	<node id="-236253" lat="59.4031277805" lon="8.90397777258">
		<tag k="name" v="Sandstulvegen" />
		<tag k="ssr:date" v="2016-05-11" />
		<tag k="ssr:gruppe" v="veg" />
		<tag k="ssr:hovedgruppe" v="infrastruktur" />
		<tag k="ssr:stedsnr" v="876140" />
		<tag k="ssr:type" v="vegstrekning" />
	</node>
	<node id="-236344" lat="59.4127750013" lon="9.06625834043">
		<tag k="name" v="Bø kommune" />
		<tag k="ssr:date" v="2016-05-11" />
		<tag k="ssr:gruppe" v="administrativeIndelinger" />
		<tag k="ssr:hovedgruppe" v="offentligAdministrasjon" />
		<tag k="ssr:stedsnr" v="935960" />
		<tag k="ssr:type" v="kommune" />
	</node>
	<node id="-235027" lat="59.4063174232" lon="9.02491287048">
		<tag k="name" v="Nordbøflåtin" />
		<tag k="ssr:date" v="2019-12-11" />
		<tag k="ssr:gruppe" v="veg" />
		<tag k="ssr:hovedgruppe" v="infrastruktur" />
		<tag k="ssr:stedsnr" v="1074058" />
		<tag k="ssr:type" v="adressenavn" />
	</node>
	<node id="-235026" lat="59.4128520097" lon="9.06593054854">
		<tag k="name" v="Midt-Telemark kommune" />
		<tag k="ssr:date" v="2019-12-09" />
		<tag k="ssr:gruppe" v="administrativeIndelinger" />
		<tag k="ssr:hovedgruppe" v="offentligAdministrasjon" />
		<tag k="ssr:stedsnr" v="1073886" />
		<tag k="ssr:type" v="kommune" />
	</node>
	<node id="-236413" lat="60.5908609473" lon="9.63819281559">
		<tag k="fixme" v="multiple name tags, choose one and add the other to alt_name" />
		<tag k="name" v="Austlandet;Østlandet" />
		<tag k="ssr:date" v="2018-01-09" />
		<tag k="ssr:gruppe" v="administrativeIndelinger" />
		<tag k="ssr:hovedgruppe" v="offentligAdministrasjon" />
		<tag k="ssr:stedsnr" v="974775" />
		<tag k="ssr:type" v="annenAdministrativInndeling" />
	</node>
	<node id="-235882" lat="59.3789583339" lon="9.01766667291">
		<tag k="name" v="Øygardsgrinda" />
		<tag k="ssr:date" v="2016-05-10" />
		<tag k="ssr:gruppe" v="veg" />
		<tag k="ssr:hovedgruppe" v="infrastruktur" />
		<tag k="ssr:stedsnr" v="633394" />
		<tag k="ssr:type" v="vegstrekning" />
	</node>
	<node id="-235972" lat="59.3917277799" lon="9.04621666028">
		<tag k="name" v="Fenteholet" />
		<tag k="ssr:date" v="2016-05-11" />
		<tag k="ssr:gruppe" v="veg" />
		<tag k="ssr:hovedgruppe" v="infrastruktur" />
		<tag k="ssr:stedsnr" v="694284" />
		<tag k="ssr:type" v="vegstrekning" />
	</node>
	<node id="-234915" lat="59.4690281607" lon="9.0175422071">
		<tag k="name" v="Høgefjellvegen" />
		<tag k="ssr:date" v="2019-05-31" />
		<tag k="ssr:gruppe" v="veg" />
		<tag k="ssr:hovedgruppe" v="infrastruktur" />
		<tag k="ssr:stedsnr" v="1049204" />
		<tag k="ssr:type" v="adressenavn" />
	</node>
	<node id="-234914" lat="59.4452530395" lon="9.0700596378">
		<tag k="name" v="Vatnarvegen" />
		<tag k="ssr:date" v="2019-05-31" />
		<tag k="ssr:gruppe" v="veg" />
		<tag k="ssr:hovedgruppe" v="infrastruktur" />
		<tag k="ssr:stedsnr" v="1049185" />
		<tag k="ssr:type" v="adressenavn" />
	</node>
	<node id="-234913" lat="59.4812528924" lon="9.02167751067">
		<tag k="name" v="Kikkutrustin" />
		<tag k="ssr:date" v="2019-05-31" />
		<tag k="ssr:gruppe" v="veg" />
		<tag k="ssr:hovedgruppe" v="infrastruktur" />
		<tag k="ssr:stedsnr" v="1048587" />
		<tag k="ssr:type" v="adressenavn" />
	</node>
</osm>
