<?xml version="1.0" encoding="UTF-8"?>
<osm version="0.6" generator="osmapis">
	<node lat="61.21996944057519" lon="5.0484305626086625" id="-27432">
		<tag k="alt_name" v="Ospevik" />
		<tag k="name" v="Ospevika" />
		<tag k="natural" v="bay" />
		<tag k="ssr:date" v="2019-12-27" />
		<tag k="ssr:gruppe" v="kystkontur" />
		<tag k="ssr:hovedgruppe" v="sjø" />
		<tag k="ssr:stedsnr" v="9093" />
		<tag k="ssr:type" v="vikISjø" />
	</node>
	<node lat="61.229233336753225" lon="5.1373888805625665" id="-27433">
		<tag k="alt_name" v="Gilstjørna, yt" />
		<tag k="name" v="Ytregilstjørna" />
		<tag k="natural" v="water" />
		<tag k="ssr:date" v="2019-12-27" />
		<tag k="ssr:gruppe" v="stilleståendeVann" />
		<tag k="ssr:hovedgruppe" v="ferskvann" />
		<tag k="ssr:stedsnr" v="9623" />
		<tag k="ssr:type" v="tjern" />
	</node>
	<node lat="61.23249444641432" lon="5.1944416723021" id="-27434">
		<tag k="alt_name" v="Djupegjelet" />
		<tag k="name" v="Djupegilet" />
		<tag k="natural" v="valley" />
		<tag k="place" v="locality" />
		<tag k="ssr:date" v="2019-12-27" />
		<tag k="ssr:gruppe" v="senkninger" />
		<tag k="ssr:hovedgruppe" v="terreng" />
		<tag k="ssr:stedsnr" v="9624" />
		<tag k="ssr:type" v="dal" />
	</node>
	<node lat="61.13583610750286" lon="5.192597231770202" id="-27435">
		<tag k="name" v="Skogeneset" />
		<tag k="natural" v="cape" />
		<tag k="ssr:date" v="2019-12-27" />
		<tag k="ssr:gruppe" v="kystkontur" />
		<tag k="ssr:hovedgruppe" v="sjø" />
		<tag k="ssr:stedsnr" v="9506" />
		<tag k="ssr:type" v="nesISjø" />
	</node>
	<node lat="61.14735555925399" lon="5.308775005730693" id="-27436">
		<tag k="alt_name" v="Øvre Dyttingetjørn" />
		<tag k="name" v="Kolgrovtjørna" />
		<tag k="natural" v="water" />
		<tag k="ssr:date" v="2019-12-27" />
		<tag k="ssr:gruppe" v="stilleståendeVann" />
		<tag k="ssr:hovedgruppe" v="ferskvann" />
		<tag k="ssr:stedsnr" v="9513" />
		<tag k="ssr:type" v="tjern" />
	</node>
	<node lat="61.13943055215415" lon="5.177938881091524" id="-27437">
		<tag k="name" v="Kobbevågen" />
		<tag k="natural" v="bay" />
		<tag k="ssr:date" v="2019-12-27" />
		<tag k="ssr:gruppe" v="kystkontur" />
		<tag k="ssr:hovedgruppe" v="sjø" />
		<tag k="ssr:stedsnr" v="9515" />
		<tag k="ssr:type" v="vikISjø" />
	</node>
	<node lat="61.13685000424023" lon="5.347497212580681" id="-27438">
		<tag k="fixme" v="consider place=hamlet" />
		<tag k="name" v="Leirvik" />
		<tag k="place" v="village" />
		<tag k="ssr:date" v="2019-12-27" />
		<tag k="ssr:gruppe" v="bebyggelsesområder" />
		<tag k="ssr:hovedgruppe" v="bebyggelse" />
		<tag k="ssr:stedsnr" v="9520" />
		<tag k="ssr:type" v="bygdelagBygd" />
	</node>
	<node lat="61.185149973433866" lon="5.316609750109828" id="-27439">
		<tag k="fixme" v="consider place=hamlet" />
		<tag k="name" v="Sørefjorden" />
		<tag k="place" v="farm" />
		<tag k="ssr:date" v="2021-06-08" />
		<tag k="ssr:gruppe" v="gardsbebyggelse" />
		<tag k="ssr:hovedgruppe" v="bebyggelse" />
		<tag k="ssr:stedsnr" v="9701" />
		<tag k="ssr:type" v="gard" />
	</node>
	<node lat="61.173669443835365" lon="5.153577774163619" id="-27440">
		<tag k="fixme" v="consider natural=peak for the most distinct mountains in the district" />
		<tag k="name" v="Nevrestignova" />
		<tag k="natural" v="hill" />
		<tag k="place" v="locality" />
		<tag k="ssr:date" v="2019-12-27" />
		<tag k="ssr:gruppe" v="høyder" />
		<tag k="ssr:hovedgruppe" v="terreng" />
		<tag k="ssr:stedsnr" v="9705" />
		<tag k="ssr:type" v="ås" />
	</node>
	<node lat="61.171006463531974" lon="5.294925187595026" id="-27441">
		<tag k="alt_name" v="Hyllestad  kirke;Hyllestad" />
		<tag k="amenity" v="place_of_worship" />
		<tag k="denomination" v="lutheran" />
		<tag k="name" v="Hyllestad kyrkje" />
		<tag k="religion" v="christian" />
		<tag k="ssr:date" v="2020-10-23" />
		<tag k="ssr:gruppe" v="kulturinstitusjoner" />
		<tag k="ssr:hovedgruppe" v="kultur" />
		<tag k="ssr:stedsnr" v="9710" />
		<tag k="ssr:type" v="kirke" />
	</node>
	<node lat="61.180216669574556" lon="5.395861105943414" id="-27442">
		<tag k="alt_name" v="Tonningsvatnet" />
		<tag k="name" v="Tauningsvatnet" />
		<tag k="natural" v="water" />
		<tag k="ssr:date" v="2019-12-27" />
		<tag k="ssr:gruppe" v="stilleståendeVann" />
		<tag k="ssr:hovedgruppe" v="ferskvann" />
		<tag k="ssr:stedsnr" v="9716" />
		<tag k="ssr:type" v="tjern" />
	</node>
	<node lat="61.22378611492421" lon="5.202822219770871" id="-27443">
		<tag k="name" v="Salbu" />
		<tag k="place" v="hamlet" />
		<tag k="ssr:date" v="2021-06-08" />
		<tag k="ssr:gruppe" v="bebyggelsesområder" />
		<tag k="ssr:hovedgruppe" v="bebyggelse" />
		<tag k="ssr:stedsnr" v="9639" />
		<tag k="ssr:type" v="grend" />
	</node>
	<node lat="61.189219441580505" lon="5.293630559252055" id="-27444">
		<tag k="alt_name" v="Rønnesetholmen" />
		<tag k="name" v="Rønsetholmen" />
		<tag k="place" v="islet" />
		<tag k="ssr:date" v="2019-12-27" />
		<tag k="ssr:gruppe" v="kystkontur" />
		<tag k="ssr:hovedgruppe" v="sjø" />
		<tag k="ssr:stedsnr" v="9687" />
		<tag k="ssr:type" v="holmeISjø" />
	</node>
	<node lat="61.18026388585053" lon="5.1588972148237975" id="-27445">
		<tag k="alt_name" v="Trollebotnsvatnet, øvre" />
		<tag k="name" v="Øvre Trollebotnvatnet" />
		<tag k="natural" v="water" />
		<tag k="ssr:date" v="2019-12-27" />
		<tag k="ssr:gruppe" v="stilleståendeVann" />
		<tag k="ssr:hovedgruppe" v="ferskvann" />
		<tag k="ssr:stedsnr" v="9689" />
		<tag k="ssr:type" v="tjern" />
	</node>
	<node lat="61.18380000065607" lon="5.1469972137716935" id="-27446">
		<tag k="alt_name" v="Nervelivatnet" />
		<tag k="name" v="Nevrelivatnet" />
		<tag k="natural" v="water" />
		<tag k="ssr:date" v="2019-12-27" />
		<tag k="ssr:gruppe" v="stilleståendeVann" />
		<tag k="ssr:hovedgruppe" v="ferskvann" />
		<tag k="ssr:stedsnr" v="9691" />
		<tag k="ssr:type" v="tjern" />
	</node>
	<node lat="61.17211388557067" lon="5.4418027747685445" id="-27448">
		<tag k="name" v="Stølsvatnet" />
		<tag k="natural" v="water" />
		<tag k="ssr:date" v="2019-12-27" />
		<tag k="ssr:gruppe" v="stilleståendeVann" />
		<tag k="ssr:hovedgruppe" v="ferskvann" />
		<tag k="ssr:stedsnr" v="9737" />
		<tag k="ssr:type" v="tjern" />
	</node>
	<node lat="61.24203055608969" lon="5.087855560701035" id="-27449">
		<tag k="alt_name" v="Djupevik" />
		<tag k="name" v="Djupevika" />
		<tag k="natural" v="bay" />
		<tag k="ssr:date" v="2019-12-27" />
		<tag k="ssr:gruppe" v="kystkontur" />
		<tag k="ssr:hovedgruppe" v="sjø" />
		<tag k="ssr:stedsnr" v="10000" />
		<tag k="ssr:type" v="vikISjø" />
	</node>
	<node lat="61.19351944841932" lon="5.068030547774688" id="-27450">
		<tag k="name" v="Børnes" />
		<tag k="place" v="isolated_dwelling" />
		<tag k="ssr:date" v="2019-12-27" />
		<tag k="ssr:gruppe" v="bolighus" />
		<tag k="ssr:hovedgruppe" v="bebyggelse" />
		<tag k="ssr:stedsnr" v="234422" />
		<tag k="ssr:type" v="fritidsbolig" />
	</node>
	<node lat="61.188736112082516" lon="5.100736114436249" id="-27452">
		<tag k="name" v="Trolleskaret" />
		<tag k="natural" v="valley" />
		<tag k="place" v="locality" />
		<tag k="ssr:date" v="2019-12-27" />
		<tag k="ssr:gruppe" v="senkninger" />
		<tag k="ssr:hovedgruppe" v="terreng" />
		<tag k="ssr:stedsnr" v="42323" />
		<tag k="ssr:type" v="skar" />
	</node>
	<node lat="61.129766665022984" lon="5.3655999923033475" id="-27453">
		<tag k="name" v="Maristova" />
		<tag k="place" v="locality" />
		<tag k="ssr:date" v="2019-12-27" />
		<tag k="ssr:gruppe" v="flater" />
		<tag k="ssr:hovedgruppe" v="terreng" />
		<tag k="ssr:stedsnr" v="42487" />
		<tag k="ssr:type" v="slette" />
	</node>
	<node lat="61.249944441535504" lon="5.247152786801643" id="-27454">
		<tag k="name" v="Røyrpallen" />
		<tag k="natural" v="hill" />
		<tag k="place" v="locality" />
		<tag k="ssr:date" v="2019-12-27" />
		<tag k="ssr:gruppe" v="høyder" />
		<tag k="ssr:hovedgruppe" v="terreng" />
		<tag k="ssr:stedsnr" v="43011" />
		<tag k="ssr:type" v="haug" />
	</node>
	<node lat="61.12949722436294" lon="5.31301388176125" id="-27455">
		<tag k="name" v="Gadden" />
		<tag k="natural" v="hill" />
		<tag k="place" v="locality" />
		<tag k="ssr:date" v="2019-12-27" />
		<tag k="ssr:gruppe" v="høyder" />
		<tag k="ssr:hovedgruppe" v="terreng" />
		<tag k="ssr:stedsnr" v="43075" />
		<tag k="ssr:type" v="haug" />
	</node>
	<node lat="61.15748611473805" lon="5.335630549619983" id="-27456">
		<tag k="name" v="Diketjørna" />
		<tag k="natural" v="water" />
		<tag k="ssr:date" v="2019-12-27" />
		<tag k="ssr:gruppe" v="stilleståendeVann" />
		<tag k="ssr:hovedgruppe" v="ferskvann" />
		<tag k="ssr:stedsnr" v="43215" />
		<tag k="ssr:type" v="tjern" />
	</node>
	<node lat="61.20466666537452" lon="5.3869000092391515" id="-27457">
		<tag k="name" v="Lomstjørna" />
		<tag k="natural" v="water" />
		<tag k="ssr:date" v="2019-12-27" />
		<tag k="ssr:gruppe" v="stilleståendeVann" />
		<tag k="ssr:hovedgruppe" v="ferskvann" />
		<tag k="ssr:stedsnr" v="43181" />
		<tag k="ssr:type" v="tjern" />
	</node>
	<node lat="61.18976389086697" lon="5.4062749946923985" id="-27458">
		<tag k="name" v="Kvilderberget" />
		<tag k="natural" v="hill" />
		<tag k="place" v="locality" />
		<tag k="ssr:date" v="2019-12-27" />
		<tag k="ssr:gruppe" v="høyder" />
		<tag k="ssr:hovedgruppe" v="terreng" />
		<tag k="ssr:stedsnr" v="43501" />
		<tag k="ssr:type" v="haug" />
	</node>
	<node lat="61.089299999614816" lon="5.414411109638082" id="-27459">
		<tag k="name" v="Remane" />
		<tag k="natural" v="hill" />
		<tag k="place" v="locality" />
		<tag k="ssr:date" v="2019-12-27" />
		<tag k="ssr:gruppe" v="høyder" />
		<tag k="ssr:hovedgruppe" v="terreng" />
		<tag k="ssr:stedsnr" v="43531" />
		<tag k="ssr:type" v="haug" />
	</node>
	<node lat="61.16602777437835" lon="5.431397217174799" id="-27460">
		<tag k="fixme" v="consider natural=peak for the most distinct mountains in the district" />
		<tag k="name" v="Storfjellet" />
		<tag k="natural" v="hill" />
		<tag k="place" v="locality" />
		<tag k="ssr:date" v="2019-12-27" />
		<tag k="ssr:gruppe" v="høyder" />
		<tag k="ssr:hovedgruppe" v="terreng" />
		<tag k="ssr:stedsnr" v="43576" />
		<tag k="ssr:type" v="fjell" />
	</node>
	<node lat="61.20172777566844" lon="5.096361117747471" id="-27461">
		<tag k="name" v="Geitestoveneset" />
		<tag k="natural" v="cape" />
		<tag k="ssr:date" v="2019-12-27" />
		<tag k="ssr:gruppe" v="kystkontur" />
		<tag k="ssr:hovedgruppe" v="sjø" />
		<tag k="ssr:stedsnr" v="43705" />
		<tag k="ssr:type" v="nesISjø" />
	</node>
	<node lat="61.11846944380627" lon="5.4229305616487435" id="-27462">
		<tag k="name" v="Trollebotnen" />
		<tag k="natural" v="valley" />
		<tag k="place" v="locality" />
		<tag k="ssr:date" v="2019-12-27" />
		<tag k="ssr:gruppe" v="senkninger" />
		<tag k="ssr:hovedgruppe" v="terreng" />
		<tag k="ssr:stedsnr" v="43926" />
		<tag k="ssr:type" v="botn" />
	</node>
	<node lat="61.12584721915301" lon="5.434733324640457" id="-27463">
		<tag k="fixme" v="consider natural=peak for the most distinct mountains in the district" />
		<tag k="name" v="Knolten" />
		<tag k="natural" v="hill" />
		<tag k="place" v="locality" />
		<tag k="ssr:date" v="2019-12-27" />
		<tag k="ssr:gruppe" v="høyder" />
		<tag k="ssr:hovedgruppe" v="terreng" />
		<tag k="ssr:stedsnr" v="43931" />
		<tag k="ssr:type" v="ås" />
	</node>
	<node lat="61.107055558583276" lon="5.406319448536752" id="-27464">
		<tag k="name" v="Stølselva" />
		<tag k="ssr:date" v="2019-12-27" />
		<tag k="ssr:gruppe" v="rennendeVann" />
		<tag k="ssr:hovedgruppe" v="ferskvann" />
		<tag k="ssr:stedsnr" v="43936" />
		<tag k="ssr:type" v="bekk" />
		<tag k="waterway" v="stream" />
	</node>
	<node lat="61.24019166869452" lon="5.061033324077187" id="-27465">
		<tag k="alt_name" v="Langevågen" />
		<tag k="name" v="Langevåg" />
		<tag k="natural" v="bay" />
		<tag k="ssr:date" v="2019-12-27" />
		<tag k="ssr:gruppe" v="kystkontur" />
		<tag k="ssr:hovedgruppe" v="sjø" />
		<tag k="ssr:stedsnr" v="43941" />
		<tag k="ssr:type" v="vågISjø" />
	</node>
	<node lat="61.24105555888096" lon="5.06741389382679" id="-27466">
		<tag k="name" v="Bordvikholmen" />
		<tag k="place" v="islet" />
		<tag k="ssr:date" v="2019-12-27" />
		<tag k="ssr:gruppe" v="kystkontur" />
		<tag k="ssr:hovedgruppe" v="sjø" />
		<tag k="ssr:stedsnr" v="43943" />
		<tag k="ssr:type" v="holmeISjø" />
	</node>
	<node lat="61.22475737493329" lon="5.108692844408846" id="-27467">
		<tag k="fixme" v="consider place=hamlet" />
		<tag k="name" v="Eide" />
		<tag k="place" v="farm" />
		<tag k="ssr:date" v="2019-12-27" />
		<tag k="ssr:gruppe" v="gardsbebyggelse" />
		<tag k="ssr:hovedgruppe" v="bebyggelse" />
		<tag k="ssr:stedsnr" v="69432" />
		<tag k="ssr:type" v="gard" />
	</node>
	<node lat="61.173827777187334" lon="5.22296666158536" id="-27468">
		<tag k="fixme" v="consider natural=peak for the most distinct mountains in the district" />
		<tag k="name" v="Gygrekjeften" />
		<tag k="natural" v="hill" />
		<tag k="place" v="locality" />
		<tag k="ssr:date" v="2019-12-27" />
		<tag k="ssr:gruppe" v="høyder" />
		<tag k="ssr:hovedgruppe" v="terreng" />
		<tag k="ssr:stedsnr" v="69736" />
		<tag k="ssr:type" v="fjell" />
	</node>
	<node lat="61.259099995788176" lon="5.184238881070659" id="-27469">
		<tag k="name" v="Vestdalen" />
		<tag k="natural" v="valley" />
		<tag k="place" v="locality" />
		<tag k="ssr:date" v="2019-12-27" />
		<tag k="ssr:gruppe" v="senkninger" />
		<tag k="ssr:hovedgruppe" v="terreng" />
		<tag k="ssr:stedsnr" v="69740" />
		<tag k="ssr:type" v="dal" />
	</node>
	<node lat="61.219472219562135" lon="5.058186108053142" id="-27470">
		<tag k="alt_name" v="Merkingsvik" />
		<tag k="name" v="Merkingsvika" />
		<tag k="natural" v="bay" />
		<tag k="ssr:date" v="2019-12-27" />
		<tag k="ssr:gruppe" v="kystkontur" />
		<tag k="ssr:hovedgruppe" v="sjø" />
		<tag k="ssr:stedsnr" v="70110" />
		<tag k="ssr:type" v="vikISjø" />
	</node>
	<node lat="61.18486389264673" lon="5.085158329408937" id="-27471">
		<tag k="name" v="Sageneset" />
		<tag k="natural" v="cape" />
		<tag k="ssr:date" v="2019-12-27" />
		<tag k="ssr:gruppe" v="kystkontur" />
		<tag k="ssr:hovedgruppe" v="sjø" />
		<tag k="ssr:stedsnr" v="70030" />
		<tag k="ssr:type" v="nesISjø" />
	</node>
	<node lat="61.145997218774184" lon="5.309788896959737" id="-27472">
		<tag k="alt_name" v="Nedre Dyttingetjørn" />
		<tag k="name" v="Dyttingetjørna" />
		<tag k="natural" v="water" />
		<tag k="ssr:date" v="2019-12-27" />
		<tag k="ssr:gruppe" v="stilleståendeVann" />
		<tag k="ssr:hovedgruppe" v="ferskvann" />
		<tag k="ssr:stedsnr" v="70481" />
		<tag k="ssr:type" v="tjern" />
	</node>
</osm>
