<?xml version="1.0" encoding="UTF-8"?>
<osm version="0.6" generator="osmapis">
	<node lat="61.225226127618306" lon="4.954993626028699" id="-75428">
		<tag k="alt_name" v="Sakrisskjær;Sakrisskjær lykt" />
		<tag k="name" v="Sakrisskjeret lykt" />
		<tag k="ssr:date" v="2020-09-08" />
		<tag k="ssr:gruppe" v="navigasjon" />
		<tag k="ssr:hovedgruppe" v="infrastruktur" />
		<tag k="ssr:stedsnr" v="9889" />
		<tag k="ssr:type" v="fyrlykt" />
	</node>
	<node lat="61.13470555801447" lon="5.1977722304395755" id="-75432">
		<tag k="name" v="Svartnes" />
		<tag k="ssr:date" v="2019-12-27" />
		<tag k="ssr:gruppe" v="navigasjon" />
		<tag k="ssr:hovedgruppe" v="infrastruktur" />
		<tag k="ssr:stedsnr" v="41381" />
		<tag k="ssr:type" v="lanterne" />
	</node>
	<node lat="61.13079426958263" lon="5.388737023179271" id="-75686">
		<tag k="name" v="Handalsvegen" />
		<tag k="ssr:date" v="2019-12-27" />
		<tag k="ssr:gruppe" v="veg" />
		<tag k="ssr:hovedgruppe" v="infrastruktur" />
		<tag k="ssr:stedsnr" v="346514" />
		<tag k="ssr:type" v="adressenavn" />
	</node>
	<node lat="61.135813891829144" lon="5.342691667574296" id="-75712">
		<tag k="name" v="Øikjanes" />
		<tag k="ssr:date" v="2019-12-27" />
		<tag k="ssr:gruppe" v="navigasjon" />
		<tag k="ssr:hovedgruppe" v="infrastruktur" />
		<tag k="ssr:stedsnr" v="405494" />
		<tag k="ssr:type" v="lanterne" />
	</node>
	<node lat="61.12310651123352" lon="5.339523756436889" id="-76051">
		<tag k="alt_name" v="Bøfjord" />
		<tag k="name" v="Bøfjord lykt" />
		<tag k="ssr:date" v="2020-09-08" />
		<tag k="ssr:gruppe" v="navigasjon" />
		<tag k="ssr:hovedgruppe" v="infrastruktur" />
		<tag k="ssr:stedsnr" v="798496" />
		<tag k="ssr:type" v="fyrlykt" />
	</node>
	<node lat="61.23874963056166" lon="5.026571735242362" id="-76076">
		<tag k="alt_name" v="Skifjorden" />
		<tag k="name" v="Skifjorden lykt" />
		<tag k="ssr:date" v="2020-09-08" />
		<tag k="ssr:gruppe" v="navigasjon" />
		<tag k="ssr:hovedgruppe" v="infrastruktur" />
		<tag k="ssr:stedsnr" v="919888" />
		<tag k="ssr:type" v="fyrlykt" />
	</node>
	<node lat="61.1303472218675" lon="5.341355554963729" id="-76080">
		<tag k="alt_name" v="Epleholmbåen lanterne" />
		<tag k="name" v="Epleholmboen" />
		<tag k="ssr:date" v="2019-12-27" />
		<tag k="ssr:gruppe" v="navigasjon" />
		<tag k="ssr:hovedgruppe" v="infrastruktur" />
		<tag k="ssr:stedsnr" v="830378" />
		<tag k="ssr:type" v="lanterne" />
	</node>
	<node lat="61.173720004342435" lon="5.299309660264158" id="-76121">
		<tag k="name" v="Sæsolvegen" />
		<tag k="ssr:date" v="2019-12-27" />
		<tag k="ssr:gruppe" v="veg" />
		<tag k="ssr:hovedgruppe" v="infrastruktur" />
		<tag k="ssr:stedsnr" v="892141" />
		<tag k="ssr:type" v="adressenavn" />
	</node>
	<node lat="61.169550896852705" lon="5.074186109960223" id="-76145">
		<tag k="alt_name" v="Storakersund" />
		<tag k="name" v="Storakersund lykt" />
		<tag k="old_name" v="Storakersundet" />
		<tag k="ssr:date" v="2020-09-08" />
		<tag k="ssr:gruppe" v="navigasjon" />
		<tag k="ssr:hovedgruppe" v="infrastruktur" />
		<tag k="ssr:stedsnr" v="919014" />
		<tag k="ssr:type" v="fyrlykt" />
	</node>
	<node lat="61.13061734216134" lon="5.347542652738592" id="-76192">
		<tag k="name" v="Leirvik" />
		<tag k="ssr:date" v="2019-12-27" />
		<tag k="ssr:gruppe" v="veg" />
		<tag k="ssr:hovedgruppe" v="infrastruktur" />
		<tag k="ssr:stedsnr" v="973448" />
		<tag k="ssr:type" v="adressenavn" />
	</node>
	<node lat="61.07266082412581" lon="5.389101255048569" id="-76194">
		<tag k="name" v="Hellebøstranda" />
		<tag k="ssr:date" v="2019-12-27" />
		<tag k="ssr:gruppe" v="veg" />
		<tag k="ssr:hovedgruppe" v="infrastruktur" />
		<tag k="ssr:stedsnr" v="973450" />
		<tag k="ssr:type" v="adressenavn" />
	</node>
	<node lat="61.11267243790712" lon="5.287944421227439" id="-76195">
		<tag k="name" v="Bøfjordvegen" />
		<tag k="ssr:date" v="2019-12-27" />
		<tag k="ssr:gruppe" v="veg" />
		<tag k="ssr:hovedgruppe" v="infrastruktur" />
		<tag k="ssr:stedsnr" v="973455" />
		<tag k="ssr:type" v="adressenavn" />
	</node>
	<node lat="61.13722200876443" lon="5.2898951170651" id="-76196">
		<tag k="name" v="Indrefjordvegen" />
		<tag k="ssr:date" v="2019-12-27" />
		<tag k="ssr:gruppe" v="veg" />
		<tag k="ssr:hovedgruppe" v="infrastruktur" />
		<tag k="ssr:stedsnr" v="973456" />
		<tag k="ssr:type" v="adressenavn" />
	</node>
	<node lat="61.12925015682731" lon="5.354651681207282" id="-76198">
		<tag k="name" v="Nedre Heggebøen" />
		<tag k="ssr:date" v="2019-12-27" />
		<tag k="ssr:gruppe" v="veg" />
		<tag k="ssr:hovedgruppe" v="infrastruktur" />
		<tag k="ssr:stedsnr" v="973458" />
		<tag k="ssr:type" v="adressenavn" />
	</node>
	<node lat="61.18717435798373" lon="5.089892752135491" id="-76199">
		<tag k="name" v="Storakersundet" />
		<tag k="ssr:date" v="2019-12-27" />
		<tag k="ssr:gruppe" v="veg" />
		<tag k="ssr:hovedgruppe" v="infrastruktur" />
		<tag k="ssr:stedsnr" v="973459" />
		<tag k="ssr:type" v="adressenavn" />
	</node>
	<node lat="61.145962477718385" lon="5.17609485995883" id="-76200">
		<tag k="name" v="Risnesøyna" />
		<tag k="ssr:date" v="2019-12-27" />
		<tag k="ssr:gruppe" v="veg" />
		<tag k="ssr:hovedgruppe" v="infrastruktur" />
		<tag k="ssr:stedsnr" v="973460" />
		<tag k="ssr:type" v="adressenavn" />
	</node>
	<node lat="61.14255762054462" lon="5.357728714327087" id="-76202">
		<tag k="name" v="Ås" />
		<tag k="ssr:date" v="2019-12-27" />
		<tag k="ssr:gruppe" v="veg" />
		<tag k="ssr:hovedgruppe" v="infrastruktur" />
		<tag k="ssr:stedsnr" v="973462" />
		<tag k="ssr:type" v="adressenavn" />
	</node>
	<node lat="61.21325138820612" lon="5.220182863019015" id="-76229">
		<tag k="alt_name" v="Smilden" />
		<tag k="name" v="Smilla lykt" />
		<tag k="old_name" v="Smildefyret" />
		<tag k="ssr:date" v="2020-09-08" />
		<tag k="ssr:gruppe" v="navigasjon" />
		<tag k="ssr:hovedgruppe" v="infrastruktur" />
		<tag k="ssr:stedsnr" v="39219" />
		<tag k="ssr:type" v="fyrlykt" />
	</node>
	<node lat="61.17040555953586" lon="5.296213882881815" id="-76280">
		<tag k="alt_name" v="Hyllestad" />
		<tag k="name" v="Hyllestad kommune" />
		<tag k="ssr:date" v="2019-12-27" />
		<tag k="ssr:gruppe" v="administrativeIndelinger" />
		<tag k="ssr:hovedgruppe" v="offentligAdministrasjon" />
		<tag k="ssr:stedsnr" v="85044" />
		<tag k="ssr:type" v="kommune" />
	</node>
	<node lat="61.144424997491704" lon="5.195969435618962" id="-76333">
		<tag k="name" v="Listrømmen, Vestsiden" />
		<tag k="ssr:date" v="2019-12-27" />
		<tag k="ssr:gruppe" v="navigasjon" />
		<tag k="ssr:hovedgruppe" v="infrastruktur" />
		<tag k="ssr:stedsnr" v="162383" />
		<tag k="ssr:type" v="lanterne" />
	</node>
	<node lat="61.14528055929469" lon="5.1969250023937485" id="-76902">
		<tag k="name" v="Listrømmen, Østsiden" />
		<tag k="ssr:date" v="2019-12-27" />
		<tag k="ssr:gruppe" v="navigasjon" />
		<tag k="ssr:hovedgruppe" v="infrastruktur" />
		<tag k="ssr:stedsnr" v="951365" />
		<tag k="ssr:type" v="lanterne" />
	</node>
	<node lat="61.14873285858043" lon="5.181711495389544" id="-76932">
		<tag k="name" v="Lifjordvegen" />
		<tag k="ssr:date" v="2019-12-27" />
		<tag k="ssr:gruppe" v="veg" />
		<tag k="ssr:hovedgruppe" v="infrastruktur" />
		<tag k="ssr:stedsnr" v="973015" />
		<tag k="ssr:type" v="adressenavn" />
	</node>
	<node lat="61.19303651803285" lon="5.296666471449514" id="-76933">
		<tag k="name" v="Åfjordvegen" />
		<tag k="ssr:date" v="2019-12-27" />
		<tag k="ssr:gruppe" v="veg" />
		<tag k="ssr:hovedgruppe" v="infrastruktur" />
		<tag k="ssr:stedsnr" v="973016" />
		<tag k="ssr:type" v="adressenavn" />
	</node>
	<node lat="61.22382370533293" lon="5.202885411572726" id="-76934">
		<tag k="name" v="Ønadalsvegen" />
		<tag k="ssr:date" v="2019-12-27" />
		<tag k="ssr:gruppe" v="veg" />
		<tag k="ssr:hovedgruppe" v="infrastruktur" />
		<tag k="ssr:stedsnr" v="973017" />
		<tag k="ssr:type" v="adressenavn" />
	</node>
	<node lat="61.21832534681463" lon="5.345855667062423" id="-76937">
		<tag k="name" v="Solåsen" />
		<tag k="ssr:date" v="2019-12-27" />
		<tag k="ssr:gruppe" v="veg" />
		<tag k="ssr:hovedgruppe" v="infrastruktur" />
		<tag k="ssr:stedsnr" v="973020" />
		<tag k="ssr:type" v="adressenavn" />
	</node>
	<node lat="61.197490091161846" lon="5.36917803255254" id="-76938">
		<tag k="name" v="Markhusvegen" />
		<tag k="ssr:date" v="2019-12-27" />
		<tag k="ssr:gruppe" v="veg" />
		<tag k="ssr:hovedgruppe" v="infrastruktur" />
		<tag k="ssr:stedsnr" v="973021" />
		<tag k="ssr:type" v="adressenavn" />
	</node>
	<node lat="61.18890989277069" lon="5.391474569802841" id="-76940">
		<tag k="name" v="Ekreskardsvegen" />
		<tag k="ssr:date" v="2019-12-27" />
		<tag k="ssr:gruppe" v="veg" />
		<tag k="ssr:hovedgruppe" v="infrastruktur" />
		<tag k="ssr:stedsnr" v="973029" />
		<tag k="ssr:type" v="adressenavn" />
	</node>
	<node lat="61.16484665914977" lon="5.411987167088295" id="-76941">
		<tag k="name" v="Espeland" />
		<tag k="ssr:date" v="2019-12-27" />
		<tag k="ssr:gruppe" v="veg" />
		<tag k="ssr:hovedgruppe" v="infrastruktur" />
		<tag k="ssr:stedsnr" v="973030" />
		<tag k="ssr:type" v="adressenavn" />
	</node>
	<node lat="61.17424741198722" lon="5.391107537484918" id="-76942">
		<tag k="name" v="Systaddalen" />
		<tag k="ssr:date" v="2019-12-27" />
		<tag k="ssr:gruppe" v="veg" />
		<tag k="ssr:hovedgruppe" v="infrastruktur" />
		<tag k="ssr:stedsnr" v="973033" />
		<tag k="ssr:type" v="adressenavn" />
	</node>
	<node lat="61.17134530150922" lon="5.388518461124956" id="-76943">
		<tag k="name" v="Eidsnesvegen" />
		<tag k="ssr:date" v="2019-12-27" />
		<tag k="ssr:gruppe" v="veg" />
		<tag k="ssr:hovedgruppe" v="infrastruktur" />
		<tag k="ssr:stedsnr" v="973034" />
		<tag k="ssr:type" v="adressenavn" />
	</node>
	<node lat="61.12861269729838" lon="5.3603860720975405" id="-76945">
		<tag k="name" v="Øvre heggebøen" />
		<tag k="ssr:date" v="2019-12-27" />
		<tag k="ssr:gruppe" v="veg" />
		<tag k="ssr:hovedgruppe" v="infrastruktur" />
		<tag k="ssr:stedsnr" v="973039" />
		<tag k="ssr:type" v="adressenavn" />
	</node>
	<node lat="61.17277111022757" lon="5.361839293874051" id="-76947">
		<tag k="name" v="Aksane" />
		<tag k="ssr:date" v="2019-12-27" />
		<tag k="ssr:gruppe" v="veg" />
		<tag k="ssr:hovedgruppe" v="infrastruktur" />
		<tag k="ssr:stedsnr" v="973428" />
		<tag k="ssr:type" v="adressenavn" />
	</node>
	<node lat="61.156921033825235" lon="5.327988895118946" id="-76948">
		<tag k="name" v="Atterås" />
		<tag k="ssr:date" v="2019-12-27" />
		<tag k="ssr:gruppe" v="veg" />
		<tag k="ssr:hovedgruppe" v="infrastruktur" />
		<tag k="ssr:stedsnr" v="973429" />
		<tag k="ssr:type" v="adressenavn" />
	</node>
	<node lat="61.147564833763795" lon="5.284941520728818" id="-76949">
		<tag k="name" v="Kolgrov" />
		<tag k="ssr:date" v="2019-12-27" />
		<tag k="ssr:gruppe" v="veg" />
		<tag k="ssr:hovedgruppe" v="infrastruktur" />
		<tag k="ssr:stedsnr" v="973430" />
		<tag k="ssr:type" v="adressenavn" />
	</node>
	<node lat="61.16376794090504" lon="5.2391920494514865" id="-76951">
		<tag k="name" v="Lekvavegen" />
		<tag k="ssr:date" v="2019-12-27" />
		<tag k="ssr:gruppe" v="veg" />
		<tag k="ssr:hovedgruppe" v="infrastruktur" />
		<tag k="ssr:stedsnr" v="973433" />
		<tag k="ssr:type" v="adressenavn" />
	</node>
	<node lat="61.17828828882773" lon="5.297559304025443" id="-76953">
		<tag k="name" v="Nesvegen" />
		<tag k="ssr:date" v="2019-12-27" />
		<tag k="ssr:gruppe" v="veg" />
		<tag k="ssr:hovedgruppe" v="infrastruktur" />
		<tag k="ssr:stedsnr" v="973435" />
		<tag k="ssr:type" v="adressenavn" />
	</node>
	<node lat="61.24482538971257" lon="5.224658407732152" id="-76956">
		<tag k="name" v="Hydalsvegen" />
		<tag k="ssr:date" v="2019-12-27" />
		<tag k="ssr:gruppe" v="veg" />
		<tag k="ssr:hovedgruppe" v="infrastruktur" />
		<tag k="ssr:stedsnr" v="973438" />
		<tag k="ssr:type" v="adressenavn" />
	</node>
	<node lat="61.221132590366906" lon="5.072982829425296" id="-76957">
		<tag k="name" v="Skivenesvegen" />
		<tag k="ssr:date" v="2019-12-27" />
		<tag k="ssr:gruppe" v="veg" />
		<tag k="ssr:hovedgruppe" v="infrastruktur" />
		<tag k="ssr:stedsnr" v="973439" />
		<tag k="ssr:type" v="adressenavn" />
	</node>
	<node lat="61.18890989277069" lon="5.391474569802841" id="-76959">
		<tag k="name" v="Tauningvegen" />
		<tag k="ssr:date" v="2019-12-27" />
		<tag k="ssr:gruppe" v="veg" />
		<tag k="ssr:hovedgruppe" v="infrastruktur" />
		<tag k="ssr:stedsnr" v="973441" />
		<tag k="ssr:type" v="adressenavn" />
	</node>
	<node lat="61.14733044061748" lon="5.345491343490374" id="-76961">
		<tag k="name" v="Staurdalsvegen" />
		<tag k="ssr:date" v="2019-12-27" />
		<tag k="ssr:gruppe" v="veg" />
		<tag k="ssr:hovedgruppe" v="infrastruktur" />
		<tag k="ssr:stedsnr" v="973443" />
		<tag k="ssr:type" v="adressenavn" />
	</node>
	<node lat="61.102403064745495" lon="5.2315845229168625" id="-76967">
		<tag k="name" v="Nesholmen varde" />
		<tag k="ssr:date" v="2019-12-27" />
		<tag k="ssr:gruppe" v="navigasjon" />
		<tag k="ssr:hovedgruppe" v="infrastruktur" />
		<tag k="ssr:stedsnr" v="1072305" />
		<tag k="ssr:type" v="sjøvarde" />
	</node>
</osm>
