<?xml version="1.0" encoding="UTF-8"?>
<osm generator="osmapis" version="0.6">
	<node id="-10747" lat="59.2256935491" lon="11.5799741495">
		<tag k="fixme" v="consider boundary=protected_area and relevant protect_class if not nature reserve" />
		<tag k="leisure" v="nature_reserve" />
		<tag k="name" v="Vestfjella naturreservat" />
		<tag k="ssr:stedsnr" v="971496" />
	</node>
	<node id="-10106" lat="59.0796361149" lon="11.7646583317">
		<tag k="historic" v="boundary_stone" />
		<tag k="man_made" v="cairn" />
		<tag k="name" v="Grötesbäcken" />
		<tag k="old_name" v="Grøtesbekken" />
		<tag k="place" v="locality" />
		<tag k="ssr:stedsnr" v="534916" />
	</node>
	<node id="-10105" lat="59.2277694442" lon="11.8053555555">
		<tag k="historic" v="boundary_stone" />
		<tag k="man_made" v="cairn" />
		<tag k="name" v="Rødstjernsrøysa" />
		<tag k="old_name" v="Røskiærns Røset" />
		<tag k="place" v="locality" />
		<tag k="ssr:stedsnr" v="534693" />
	</node>
	<node id="-10104" lat="59.1776249993" lon="11.7763500047">
		<tag k="fixme" v="multiple name tags, choose one and add the other to alt_name" />
		<tag k="historic" v="boundary_stone" />
		<tag k="man_made" v="cairn" />
		<tag k="name" v="Skjulsburøysa;Skjulsbua" />
		<tag k="old_name" v="Siulsboe Røset" />
		<tag k="place" v="locality" />
		<tag k="ssr:stedsnr" v="524754" />
	</node>
	<node id="-9325" lat="59.0979111071" lon="11.7791222179">
		<tag k="historic" v="boundary_stone" />
		<tag k="man_made" v="cairn" />
		<tag k="name" v="Urdevannet" />
		<tag k="old_name" v="Ulvevandet" />
		<tag k="place" v="locality" />
		<tag k="ssr:stedsnr" v="292986" />
	</node>
	<node id="-10107" lat="59.1214111083" lon="11.7663805597">
		<tag k="historic" v="boundary_stone" />
		<tag k="man_made" v="cairn" />
		<tag k="name" v="Klovsteinsrøysa" />
		<tag k="old_name" v="Klovsteens Røset" />
		<tag k="place" v="locality" />
		<tag k="ssr:stedsnr" v="535979" />
	</node>
	<node id="-9564" lat="59.2916158542" lon="11.6530288442">
		<tag k="fixme" v="consider boundary=protected_area and relevant protect_class if not nature reserve" />
		<tag k="leisure" v="nature_reserve" />
		<tag k="name" v="Nesøya naturreservat" />
		<tag k="ssr:stedsnr" v="989146" />
	</node>
	<node id="-10714" lat="59.1170277806" lon="11.7649444532">
		<tag k="historic" v="boundary_stone" />
		<tag k="man_made" v="cairn" />
		<tag k="name" v="Skillefurerøysa" />
		<tag k="old_name" v="Skillefurrens Røs" />
		<tag k="place" v="locality" />
		<tag k="ssr:stedsnr" v="959974" />
	</node>
	<node id="-10713" lat="59.0704305546" lon="11.7527305502">
		<tag k="historic" v="boundary_stone" />
		<tag k="man_made" v="cairn" />
		<tag k="name" v="Lysevannsrøysa" />
		<tag k="old_name" v="Lysevands Røset" />
		<tag k="place" v="locality" />
		<tag k="ssr:stedsnr" v="959102" />
	</node>
	<node id="-10197" lat="59.2320138923" lon="11.8118944499">
		<tag k="historic" v="boundary_stone" />
		<tag k="man_made" v="cairn" />
		<tag k="name" v="Enighetsrøysa" />
		<tag k="old_name" v="Eenigheds Røset" />
		<tag k="place" v="locality" />
		<tag k="ssr:stedsnr" v="595659" />
	</node>
	<node id="-10196" lat="59.0510944403" lon="11.7361472187">
		<tag k="historic" v="boundary_stone" />
		<tag k="man_made" v="cairn" />
		<tag k="name" v="Budalsvika" />
		<tag k="old_name" v="Budalswigen" />
		<tag k="place" v="locality" />
		<tag k="ssr:stedsnr" v="594107" />
	</node>
	<node id="-9507" lat="59.19825833" lon="11.7834027751">
		<tag k="historic" v="boundary_stone" />
		<tag k="man_made" v="cairn" />
		<tag k="name" v="Søndre Byrvann" />
		<tag k="old_name" v="Sødre Biørvandet;Sødre Biurvandet" />
		<tag k="place" v="locality" />
		<tag k="ssr:stedsnr" v="474841" />
	</node>
	<node id="-9415" lat="59.2653666685" lon="11.8255972286">
		<tag k="historic" v="boundary_stone" />
		<tag k="man_made" v="cairn" />
		<tag k="name" v="Mosvikrøysa" />
		<tag k="old_name" v="Mosvigsøens Røset" />
		<tag k="place" v="locality" />
		<tag k="ssr:stedsnr" v="352671" />
	</node>
	<node id="-9414" lat="59.0896222194" lon="11.7767222257">
		<tag k="fixme" v="multiple name tags, choose one and add the other to alt_name" />
		<tag k="historic" v="boundary_stone" />
		<tag k="man_made" v="cairn" />
		<tag k="name" v="Nestjern;Grøtesbutjern" />
		<tag k="place" v="locality" />
		<tag k="ssr:stedsnr" v="342998" />
	</node>
	<node id="-9792" lat="59.205761109" lon="11.7829111036">
		<tag k="fixme" v="multiple name tags, choose one and add the other to alt_name" />
		<tag k="historic" v="boundary_stone" />
		<tag k="man_made" v="cairn" />
		<tag k="name" v="Nordre Byrvann;Nedre Byrvann" />
		<tag k="old_name" v="Nordre Biørvandet" />
		<tag k="place" v="locality" />
		<tag k="ssr:stedsnr" v="170830" />
	</node>
	<node id="-10557" lat="59.1455333324" lon="11.7761111076">
		<tag k="historic" v="boundary_stone" />
		<tag k="man_made" v="cairn" />
		<tag k="name" v="Mosteinsrøysa" />
		<tag k="old_name" v="Mosteens Røset" />
		<tag k="place" v="locality" />
		<tag k="ssr:stedsnr" v="838835" />
	</node>
	<node id="-10556" lat="59.2253083318" lon="11.8008055615">
		<tag k="historic" v="boundary_stone" />
		<tag k="man_made" v="cairn" />
		<tag k="name" v="Slorerøysa" />
		<tag k="old_name" v="Sloer Røset" />
		<tag k="place" v="locality" />
		<tag k="ssr:stedsnr" v="838679" />
	</node>
	<node id="-10551" lat="59.072663885" lon="11.7554055488">
		<tag k="alt_name" v="Grøtesbubekken" />
		<tag k="historic" v="boundary_stone" />
		<tag k="man_made" v="cairn" />
		<tag k="name" v="Grøtesbekken" />
		<tag k="place" v="locality" />
		<tag k="ssr:stedsnr" v="828088" />
	</node>
	<node id="-10283" lat="59.1949972257" lon="11.7838222186">
		<tag k="historic" v="boundary_stone" />
		<tag k="man_made" v="cairn" />
		<tag k="name" v="Østre Dyvelen" />
		<tag k="place" v="locality" />
		<tag k="ssr:stedsnr" v="656859" />
	</node>
	<node id="-10282" lat="59.1646666693" lon="11.7760694511">
		<tag k="historic" v="boundary_stone" />
		<tag k="man_made" v="cairn" />
		<tag k="name" v="Fagerlitjernet" />
		<tag k="old_name" v="Fagerliekiærnet" />
		<tag k="place" v="locality" />
		<tag k="ssr:stedsnr" v="656807" />
	</node>
	<node id="-10281" lat="59.1944555595" lon="11.7822000086">
		<tag k="historic" v="boundary_stone" />
		<tag k="man_made" v="cairn" />
		<tag k="name" v="Vestre Dyvelen" />
		<tag k="place" v="locality" />
		<tag k="ssr:stedsnr" v="656800" />
	</node>
	<node id="-10280" lat="59.1879555588" lon="11.7807444454">
		<tag k="historic" v="boundary_stone" />
		<tag k="man_made" v="cairn" />
		<tag k="name" v="Bikkjurdrøysa" />
		<tag k="old_name" v="Giøpebergs Røset;Bikuule Røset" />
		<tag k="place" v="locality" />
		<tag k="ssr:stedsnr" v="656799" />
	</node>
	<node id="-10279" lat="59.0603110701" lon="11.7439129516">
		<tag k="historic" v="boundary_stone" />
		<tag k="man_made" v="cairn" />
		<tag k="name" v="Budalen" />
		<tag k="old_name" v="Bodalen" />
		<tag k="place" v="locality" />
		<tag k="ssr:stedsnr" v="655198" />
	</node>
	<node id="-9893" lat="59.1146111138" lon="11.7636666677">
		<tag k="historic" v="boundary_stone" />
		<tag k="man_made" v="cairn" />
		<tag k="name" v="Urdevannsrøysa" />
		<tag k="old_name" v="Ulvevands Røset" />
		<tag k="place" v="locality" />
		<tag k="ssr:stedsnr" v="231986" />
	</node>
	<node id="-9892" lat="59.1360249997" lon="11.7779111164">
		<tag k="historic" v="boundary_stone" />
		<tag k="man_made" v="cairn" />
		<tag k="name" v="Allingsmurrøysa" />
		<tag k="old_name" v="Allings Muurs Røset" />
		<tag k="place" v="locality" />
		<tag k="ssr:stedsnr" v="231972" />
	</node>
	<node id="-9891" lat="59.1706694479" lon="11.7746833284">
		<tag k="historic" v="boundary_stone" />
		<tag k="man_made" v="cairn" />
		<tag k="name" v="Hedstenen" />
		<tag k="old_name" v="Heedesteenen" />
		<tag k="place" v="locality" />
		<tag k="ssr:stedsnr" v="231800" />
	</node>
	<node id="-9506" lat="59.140174996" lon="11.7775999953">
		<tag k="historic" v="boundary_stone" />
		<tag k="man_made" v="cairn" />
		<tag k="name" v="Solumsrøysa" />
		<tag k="old_name" v="Solums Raasteens Røse" />
		<tag k="place" v="locality" />
		<tag k="ssr:stedsnr" v="474797" />
	</node>
	<node id="-9562" lat="59.0479755036" lon="11.7028937554">
		<tag k="fixme" v="consider boundary=protected_area and relevant protect_class if not nature reserve" />
		<tag k="leisure" v="nature_reserve" />
		<tag k="name" v="Lundsneset naturreservat" />
		<tag k="ssr:stedsnr" v="985578" />
	</node>
	<node id="-10377" lat="59.2378166651" lon="11.8261222243">
		<tag k="historic" v="boundary_stone" />
		<tag k="man_made" v="cairn" />
		<tag k="name" v="Salholmsrøysa" />
		<tag k="old_name" v="Salholms Røset" />
		<tag k="place" v="locality" />
		<tag k="ssr:stedsnr" v="717680" />
	</node>
	<node id="-10376" lat="59.2155138855" lon="11.7920305526">
		<tag k="historic" v="boundary_stone" />
		<tag k="man_made" v="cairn" />
		<tag k="name" v="Røvann" />
		<tag k="old_name" v="Rødvandet" />
		<tag k="place" v="locality" />
		<tag k="ssr:stedsnr" v="717664" />
	</node>
	<node id="-10627" lat="59.1560194412" lon="11.7770666746">
		<tag k="historic" v="boundary_stone" />
		<tag k="man_made" v="cairn" />
		<tag k="name" v="Kroktjernsrøysa" />
		<tag k="old_name" v="Krogkiærns Røset" />
		<tag k="place" v="locality" />
		<tag k="ssr:stedsnr" v="899813" />
	</node>
</osm>
