<?xml version="1.0" encoding="UTF-8"?>
<osm generator="osmapis" version="0.6">
	<node id="-9727" lat="59.2721444408" lon="11.5725250037">
		<tag k="name" v="Ormtjerndalen" />
		<tag k="natural" v="valley" />
		<tag k="place" v="locality" />
		<tag k="ssr:stedsnr" v="98316" />
	</node>
	<node id="-10749" lat="59.3248749994" lon="11.7046555605">
		<tag k="name" v="Dalene" />
		<tag k="natural" v="valley" />
		<tag k="place" v="locality" />
		<tag k="ssr:stedsnr" v="961187" />
	</node>
	<node id="-10236" lat="59.2225833334" lon="11.7882944487">
		<tag k="name" v="Bestedalen" />
		<tag k="natural" v="valley" />
		<tag k="place" v="locality" />
		<tag k="ssr:stedsnr" v="597177" />
	</node>
	<node id="-10235" lat="59.2458777808" lon="11.7911277829">
		<tag k="fixme" v="consider natural=peak for the most distinct mountains in the district" />
		<tag k="name" v="Hvittenstenshøyda" />
		<tag k="natural" v="hill" />
		<tag k="place" v="locality" />
		<tag k="ssr:stedsnr" v="597136" />
	</node>
	<node id="-10745" lat="59.0566388918" lon="11.7266472246">
		<tag k="name" v="Bukkehøldalen" />
		<tag k="natural" v="valley" />
		<tag k="place" v="locality" />
		<tag k="ssr:stedsnr" v="961053" />
	</node>
	<node id="-10502" lat="59.265858336" lon="11.8032944378">
		<tag k="fixme" v="consider natural=peak for the most distinct mountains in the district" />
		<tag k="name" v="Vaktåsen" />
		<tag k="natural" v="hill" />
		<tag k="place" v="locality" />
		<tag k="ssr:stedsnr" v="779861" />
	</node>
	<node id="-9897" lat="59.2703055584" lon="11.6222666703">
		<tag k="name" v="Ulvedalen" />
		<tag k="natural" v="valley" />
		<tag k="place" v="locality" />
		<tag k="ssr:stedsnr" v="185679" />
	</node>
	<node id="-10228" lat="59.1578000036" lon="11.6271722251">
		<tag k="name" v="Lillemørkmoen" />
		<tag k="place" v="locality" />
		<tag k="ssr:stedsnr" v="596420" />
	</node>
	<node id="-10737" lat="59.2587749957" lon="11.5842722178">
		<tag k="fixme" v="consider natural=peak for the most distinct mountains in the district" />
		<tag k="name" v="Skotjernhøyda" />
		<tag k="natural" v="hill" />
		<tag k="place" v="locality" />
		<tag k="ssr:stedsnr" v="948390" />
	</node>
	<node id="-10736" lat="59.2517638865" lon="11.6016333375">
		<tag k="name" v="Ormetjernsdalen" />
		<tag k="natural" v="valley" />
		<tag k="place" v="locality" />
		<tag k="ssr:stedsnr" v="948375" />
	</node>
	<node id="-10223" lat="59.2290277804" lon="11.6313888828">
		<tag k="fixme" v="consider natural=peak for the most distinct mountains in the district" />
		<tag k="name" v="Stabbås" />
		<tag k="natural" v="hill" />
		<tag k="place" v="locality" />
		<tag k="ssr:stedsnr" v="583501" />
	</node>
	<node id="-10222" lat="59.2581555518" lon="11.5684333379">
		<tag k="fixme" v="consider natural=peak for the most distinct mountains in the district" />
		<tag k="name" v="Kampetjernhøyda" />
		<tag k="natural" v="hill" />
		<tag k="place" v="locality" />
		<tag k="ssr:stedsnr" v="583368" />
	</node>
	<node id="-10237" lat="59.209452778" lon="11.7846666703">
		<tag k="name" v="Trolldalen" />
		<tag k="natural" v="valley" />
		<tag k="place" v="locality" />
		<tag k="ssr:stedsnr" v="597184" />
	</node>
	<node id="-9941" lat="59.1643472248" lon="11.6590666605">
		<tag k="fixme" v="consider natural=peak for the most distinct mountains in the district" />
		<tag k="name" v="Viggen" />
		<tag k="natural" v="hill" />
		<tag k="place" v="locality" />
		<tag k="ssr:stedsnr" v="234268" />
	</node>
	<node id="-9706" lat="59.1399777766" lon="11.7275916581">
		<tag k="fixme" v="consider natural=peak for the most distinct mountains in the district" />
		<tag k="name" v="Middagsåsen" />
		<tag k="natural" v="hill" />
		<tag k="place" v="locality" />
		<tag k="ssr:stedsnr" v="63020" />
	</node>
	<node id="-9700" lat="59.2428611138" lon="11.6645666691">
		<tag k="fixme" v="consider natural=peak for the most distinct mountains in the district" />
		<tag k="name" v="Tangenåsene" />
		<tag k="natural" v="hill" />
		<tag k="place" v="locality" />
		<tag k="ssr:stedsnr" v="62237" />
	</node>
	<node id="-10210" lat="59.3222805574" lon="11.6693611074">
		<tag k="fixme" v="consider natural=peak for the most distinct mountains in the district" />
		<tag k="name" v="Karlsåsen" />
		<tag k="natural" v="hill" />
		<tag k="place" v="locality" />
		<tag k="ssr:stedsnr" v="552067" />
	</node>
	<node id="-10720" lat="59.3009222185" lon="11.7758555595">
		<tag k="fixme" v="consider natural=peak for the most distinct mountains in the district" />
		<tag k="name" v="Mørkvikhøgda" />
		<tag k="natural" v="hill" />
		<tag k="place" v="locality" />
		<tag k="ssr:stedsnr" v="913639" />
	</node>
	<node id="-9694" lat="59.2412583358" lon="11.6110944423">
		<tag k="name" v="Lauvliene" />
		<tag k="natural" v="slope" />
		<tag k="place" v="locality" />
		<tag k="ssr:stedsnr" v="62133" />
	</node>
	<node id="-10717" lat="59.1213083353" lon="11.7661444415">
		<tag k="fixme" v="consider natural=peak for the most distinct mountains in the district" />
		<tag k="name" v="Sandbekkåsen" />
		<tag k="natural" v="hill" />
		<tag k="place" v="locality" />
		<tag k="ssr:stedsnr" v="913054" />
	</node>
	<node id="-9691" lat="59.1852055522" lon="11.6858999983">
		<tag k="alt_name" v="Tauås" />
		<tag k="fixme" v="consider natural=peak for the most distinct mountains in the district" />
		<tag k="name" v="Taugås" />
		<tag k="natural" v="hill" />
		<tag k="place" v="locality" />
		<tag k="ssr:stedsnr" v="62085" />
	</node>
	<node id="-10713" lat="59.1396916702" lon="11.7169499961">
		<tag k="name" v="Gravdalen" />
		<tag k="natural" v="valley" />
		<tag k="place" v="locality" />
		<tag k="ssr:stedsnr" v="913014" />
	</node>
	<node id="-10712" lat="59.0910583379" lon="11.6976694415">
		<tag k="fixme" v="consider natural=peak for the most distinct mountains in the district" />
		<tag k="name" v="Ekebakkåsen" />
		<tag k="natural" v="hill" />
		<tag k="place" v="locality" />
		<tag k="ssr:stedsnr" v="912516" />
	</node>
	<node id="-10198" lat="59.0982999976" lon="11.7191972155">
		<tag k="fixme" v="consider natural=peak for the most distinct mountains in the district" />
		<tag k="name" v="Lundene" />
		<tag k="natural" v="hill" />
		<tag k="place" v="locality" />
		<tag k="ssr:stedsnr" v="548454" />
	</node>
	<node id="-10233" lat="59.0845027739" lon="11.689194449">
		<tag k="fixme" v="consider natural=peak for the most distinct mountains in the district" />
		<tag k="name" v="Lille Ørnelund" />
		<tag k="natural" v="hill" />
		<tag k="place" v="locality" />
		<tag k="ssr:stedsnr" v="597067" />
	</node>
	<node id="-10707" lat="59.2267694452" lon="11.77114167">
		<tag k="alt_name" v="Rivekrake" />
		<tag k="fixme" v="consider natural=peak for the most distinct mountains in the district" />
		<tag k="name" v="Rivekrakken" />
		<tag k="natural" v="hill" />
		<tag k="place" v="locality" />
		<tag k="ssr:stedsnr" v="912148" />
	</node>
	<node id="-10194" lat="59.1283666695" lon="11.7221583345">
		<tag k="fixme" v="consider natural=peak for the most distinct mountains in the district" />
		<tag k="name" v="Galteryggen" />
		<tag k="natural" v="hill" />
		<tag k="place" v="locality" />
		<tag k="ssr:stedsnr" v="548050" />
	</node>
	<node id="-10193" lat="59.123499997" lon="11.6612638944">
		<tag k="fixme" v="consider natural=peak for the most distinct mountains in the district" />
		<tag k="name" v="Vardekollen" />
		<tag k="natural" v="hill" />
		<tag k="place" v="locality" />
		<tag k="ssr:stedsnr" v="548046" />
	</node>
	<node id="-10704" lat="59.1688083311" lon="11.6243777821">
		<tag k="fixme" v="consider natural=peak for the most distinct mountains in the district" />
		<tag k="name" v="Bastliåsen" />
		<tag k="natural" v="hill" />
		<tag k="place" v="locality" />
		<tag k="ssr:stedsnr" v="912100" />
	</node>
	<node id="-10191" lat="59.1383749973" lon="11.6414499921">
		<tag k="alt_name" v="Klaretjernhøyda" />
		<tag k="fixme" v="consider natural=peak for the most distinct mountains in the district" />
		<tag k="name" v="Klaretjernhøgda" />
		<tag k="natural" v="hill" />
		<tag k="place" v="locality" />
		<tag k="ssr:stedsnr" v="548029" />
	</node>
	<node id="-10699" lat="59.1861777759" lon="11.7139222294">
		<tag k="fixme" v="consider natural=peak for the most distinct mountains in the district" />
		<tag k="name" v="Kovåsen" />
		<tag k="natural" v="hill" />
		<tag k="place" v="locality" />
		<tag k="ssr:stedsnr" v="912079" />
	</node>
	<node id="-9674" lat="59.2191861136" lon="11.6247583288">
		<tag k="fixme" v="consider natural=peak for the most distinct mountains in the district" />
		<tag k="name" v="Seterhøyda" />
		<tag k="natural" v="hill" />
		<tag k="place" v="locality" />
		<tag k="ssr:stedsnr" v="52284" />
	</node>
	<node id="-10697" lat="59.105763891" lon="11.7040805483">
		<tag k="fixme" v="consider natural=peak for the most distinct mountains in the district" />
		<tag k="name" v="Hølåsen" />
		<tag k="natural" v="hill" />
		<tag k="place" v="locality" />
		<tag k="ssr:stedsnr" v="911461" />
	</node>
	<node id="-9671" lat="59.2083861118" lon="11.6394166664">
		<tag k="fixme" v="consider natural=peak for the most distinct mountains in the district" />
		<tag k="name" v="Abbortjernhøyda" />
		<tag k="natural" v="hill" />
		<tag k="place" v="locality" />
		<tag k="ssr:stedsnr" v="52279" />
	</node>
	<node id="-10690" lat="59.1792111091" lon="11.7659944411">
		<tag k="name" v="Rødeberg" />
		<tag k="natural" v="hill" />
		<tag k="place" v="locality" />
		<tag k="ssr:stedsnr" v="901953" />
	</node>
	<node id="-10177" lat="59.3004388899" lon="11.732966659">
		<tag k="fixme" v="consider natural=peak for the most distinct mountains in the district" />
		<tag k="name" v="Korpås" />
		<tag k="natural" v="hill" />
		<tag k="place" v="locality" />
		<tag k="ssr:stedsnr" v="537947" />
	</node>
	<node id="-10176" lat="59.1798500022" lon="11.7332722239">
		<tag k="name" v="Ormhaugen" />
		<tag k="natural" v="hill" />
		<tag k="place" v="locality" />
		<tag k="ssr:stedsnr" v="537925" />
	</node>
	<node id="-10175" lat="59.1655027751" lon="11.7603361131">
		<tag k="fixme" v="consider natural=peak for the most distinct mountains in the district" />
		<tag k="name" v="Trulsetjernhøyda" />
		<tag k="natural" v="hill" />
		<tag k="place" v="locality" />
		<tag k="ssr:stedsnr" v="537917" />
	</node>
	<node id="-10686" lat="59.2510138927" lon="11.7924944393">
		<tag k="fixme" v="consider natural=peak for the most distinct mountains in the district" />
		<tag k="name" v="Dammyrkollen" />
		<tag k="natural" v="hill" />
		<tag k="place" v="locality" />
		<tag k="ssr:stedsnr" v="901864" />
	</node>
	<node id="-10173" lat="59.1924027813" lon="11.7698083296">
		<tag k="name" v="Halvfardalen" />
		<tag k="natural" v="valley" />
		<tag k="place" v="locality" />
		<tag k="ssr:stedsnr" v="537906" />
	</node>
	<node id="-10683" lat="59.1403249982" lon="11.6819444413">
		<tag k="name" v="Kjerringdalen" />
		<tag k="natural" v="valley" />
		<tag k="place" v="locality" />
		<tag k="ssr:stedsnr" v="901485" />
	</node>
	<node id="-10170" lat="59.3100138902" lon="11.7404305494">
		<tag k="fixme" v="consider natural=peak for the most distinct mountains in the district" />
		<tag k="name" v="Eketjernshøyda" />
		<tag k="natural" v="hill" />
		<tag k="place" v="locality" />
		<tag k="ssr:stedsnr" v="537780" />
	</node>
	<node id="-10169" lat="59.3004166638" lon="11.7671194381">
		<tag k="fixme" v="consider natural=peak for the most distinct mountains in the district" />
		<tag k="name" v="Mørkvikhøyda" />
		<tag k="natural" v="hill" />
		<tag k="place" v="locality" />
		<tag k="ssr:stedsnr" v="537767" />
	</node>
	<node id="-10168" lat="59.2514611109" lon="11.6264694526">
		<tag k="name" v="Seljedalen" />
		<tag k="natural" v="valley" />
		<tag k="place" v="locality" />
		<tag k="ssr:stedsnr" v="537520" />
	</node>
	<node id="-10678" lat="59.1666777809" lon="11.720408341">
		<tag k="name" v="Drakehaugen" />
		<tag k="natural" v="hill" />
		<tag k="place" v="locality" />
		<tag k="ssr:stedsnr" v="901368" />
	</node>
	<node id="-9653" lat="59.0849416687" lon="11.7040166697">
		<tag k="fixme" v="consider natural=peak for the most distinct mountains in the district" />
		<tag k="name" v="Skogmyrhøydene" />
		<tag k="natural" v="hill" />
		<tag k="place" v="locality" />
		<tag k="ssr:stedsnr" v="51033" />
	</node>
	<node id="-10673" lat="59.210302775" lon="11.7032222248">
		<tag k="name" v="Krossbyhaugen" />
		<tag k="natural" v="hill" />
		<tag k="place" v="locality" />
		<tag k="ssr:stedsnr" v="901300" />
	</node>
	<node id="-9647" lat="59.2581222237" lon="11.6196833264">
		<tag k="fixme" v="consider natural=peak for the most distinct mountains in the district" />
		<tag k="name" v="Bjelledalshøyda" />
		<tag k="natural" v="hill" />
		<tag k="place" v="locality" />
		<tag k="ssr:stedsnr" v="38449" />
	</node>
	<node id="-10669" lat="59.3350833307" lon="11.6741805591">
		<tag k="fixme" v="consider natural=peak for the most distinct mountains in the district" />
		<tag k="name" v="Kutjernhøyda" />
		<tag k="natural" v="hill" />
		<tag k="place" v="locality" />
		<tag k="ssr:stedsnr" v="901179" />
	</node>
	<node id="-10667" lat="59.2350333317" lon="11.8101777695">
		<tag k="fixme" v="consider natural=peak for the most distinct mountains in the district" />
		<tag k="name" v="Bråtenåsen" />
		<tag k="natural" v="hill" />
		<tag k="place" v="locality" />
		<tag k="ssr:stedsnr" v="901128" />
	</node>
	<node id="-10662" lat="59.2853638904" lon="11.6259555523">
		<tag k="fixme" v="consider natural=peak for the most distinct mountains in the district" />
		<tag k="name" v="Godås" />
		<tag k="natural" v="hill" />
		<tag k="place" v="locality" />
		<tag k="ssr:stedsnr" v="901060" />
	</node>
	<node id="-10661" lat="59.1081916668" lon="11.7007805493">
		<tag k="fixme" v="consider natural=peak for the most distinct mountains in the district" />
		<tag k="name" v="Hølåsen" />
		<tag k="natural" v="hill" />
		<tag k="place" v="locality" />
		<tag k="ssr:stedsnr" v="901054" />
	</node>
	<node id="-9542" lat="59.1582111102" lon="11.6860583274">
		<tag k="name" v="Ulsrøddalen" />
		<tag k="natural" v="valley" />
		<tag k="place" v="locality" />
		<tag k="ssr:stedsnr" v="475480" />
	</node>
	<node id="-10655" lat="59.1577166689" lon="11.6886777758">
		<tag k="fixme" v="consider natural=peak for the most distinct mountains in the district" />
		<tag k="name" v="Daleåsen" />
		<tag k="natural" v="hill" />
		<tag k="place" v="locality" />
		<tag k="ssr:stedsnr" v="900478" />
	</node>
	<node id="-10141" lat="59.0515166687" lon="11.7263277801">
		<tag k="name" v="Folungdalen" />
		<tag k="natural" v="valley" />
		<tag k="place" v="locality" />
		<tag k="ssr:stedsnr" v="536056" />
	</node>
	<node id="-9455" lat="59.2457333358" lon="11.8006944432">
		<tag k="name" v="Vannskille" />
		<tag k="place" v="locality" />
		<tag k="ssr:stedsnr" v="354162" />
	</node>
	<node id="-9623" lat="59.3102861076" lon="11.6081611153">
		<tag k="fixme" v="consider natural=peak for the most distinct mountains in the district" />
		<tag k="name" v="Kileåsen" />
		<tag k="natural" v="hill" />
		<tag k="place" v="locality" />
		<tag k="ssr:stedsnr" v="3623" />
	</node>
	<node id="-9621" lat="59.2506472204" lon="11.7832027707">
		<tag k="alt_name" v="Bjørnemoshøyda" />
		<tag k="fixme" v="consider natural=peak for the most distinct mountains in the district" />
		<tag k="name" v="Bjørnemoshøgda" />
		<tag k="natural" v="hill" />
		<tag k="place" v="locality" />
		<tag k="ssr:stedsnr" v="3588" />
	</node>
	<node id="-10132" lat="59.2375527781" lon="11.665380563">
		<tag k="fixme" v="consider natural=peak for the most distinct mountains in the district" />
		<tag k="name" v="Mjølnerødåsene" />
		<tag k="natural" v="hill" />
		<tag k="place" v="locality" />
		<tag k="ssr:stedsnr" v="523556" />
	</node>
	<node id="-9710" lat="59.1692166688" lon="11.7407722198">
		<tag k="alt_name" v="Amundhaugen" />
		<tag k="name" v="Amundhøgda" />
		<tag k="natural" v="hill" />
		<tag k="place" v="locality" />
		<tag k="ssr:stedsnr" v="63105" />
	</node>
	<node id="-10129" lat="59.2590666627" lon="11.6320916663">
		<tag k="fixme" v="consider natural=peak for the most distinct mountains in the district" />
		<tag k="name" v="Stueåsen" />
		<tag k="natural" v="hill" />
		<tag k="place" v="locality" />
		<tag k="ssr:stedsnr" v="523515" />
	</node>
	<node id="-10640" lat="59.0954666629" lon="11.7347250043">
		<tag k="name" v="Mortvasskollene" />
		<tag k="natural" v="hill" />
		<tag k="place" v="locality" />
		<tag k="ssr:stedsnr" v="852439" />
	</node>
	<node id="-9615" lat="59.1609611085" lon="11.6651361188">
		<tag k="fixme" v="consider natural=peak for the most distinct mountains in the district" />
		<tag k="name" v="Øgårdsåsen" />
		<tag k="natural" v="hill" />
		<tag k="place" v="locality" />
		<tag k="ssr:stedsnr" v="2117" />
	</node>
	<node id="-10126" lat="59.2903888896" lon="11.5984888888">
		<tag k="name" v="Storedal" />
		<tag k="natural" v="valley" />
		<tag k="place" v="locality" />
		<tag k="ssr:stedsnr" v="523394" />
	</node>
	<node id="-10630" lat="59.2476277762" lon="11.790711113">
		<tag k="fixme" v="consider natural=peak for the most distinct mountains in the district" />
		<tag k="name" v="Kollerødfjellet" />
		<tag k="natural" v="hill" />
		<tag k="place" v="locality" />
		<tag k="ssr:stedsnr" v="851222" />
	</node>
	<node id="-9604" lat="59.1007083311" lon="11.6838444527">
		<tag k="fixme" v="consider natural=peak for the most distinct mountains in the district" />
		<tag k="name" v="Lille Vedøfsa" />
		<tag k="natural" v="hill" />
		<tag k="place" v="locality" />
		<tag k="ssr:stedsnr" v="1460" />
	</node>
	<node id="-9602" lat="59.2101166647" lon="11.7843861053">
		<tag k="alt_name" v="Lemberga" />
		<tag k="fixme" v="consider natural=peak for the most distinct mountains in the district" />
		<tag k="name" v="Lemberget" />
		<tag k="natural" v="hill" />
		<tag k="place" v="locality" />
		<tag k="ssr:stedsnr" v="1195" />
	</node>
	<node id="-10623" lat="59.1158722243" lon="11.6844361138">
		<tag k="alt_name" v="Dagtjernhøyda" />
		<tag k="fixme" v="consider natural=peak for the most distinct mountains in the district" />
		<tag k="name" v="Dagtjernhøgda" />
		<tag k="natural" v="hill" />
		<tag k="place" v="locality" />
		<tag k="ssr:stedsnr" v="851063" />
	</node>
	<node id="-10110" lat="59.1339138869" lon="11.6525277703">
		<tag k="alt_name" v="Lomtjernhøyda" />
		<tag k="fixme" v="consider natural=peak for the most distinct mountains in the district" />
		<tag k="name" v="Lomtjernhøgda" />
		<tag k="natural" v="hill" />
		<tag k="place" v="locality" />
		<tag k="ssr:stedsnr" v="488031" />
	</node>
	<node id="-10133" lat="59.2267222214" lon="11.630666672">
		<tag k="name" v="Vinterbakken" />
		<tag k="natural" v="slope" />
		<tag k="place" v="locality" />
		<tag k="ssr:stedsnr" v="523559" />
	</node>
	<node id="-10107" lat="59.0972499955" lon="11.7635388951">
		<tag k="fixme" v="consider natural=peak for the most distinct mountains in the district" />
		<tag k="name" v="Latjernsåsen" />
		<tag k="natural" v="hill" />
		<tag k="place" v="locality" />
		<tag k="ssr:stedsnr" v="487470" />
	</node>
	<node id="-10614" lat="59.182166668" lon="11.7643583342">
		<tag k="name" v="Svendsås" />
		<tag k="natural" v="hill" />
		<tag k="place" v="locality" />
		<tag k="ssr:stedsnr" v="841905" />
	</node>
	<node id="-10101" lat="59.1617027796" lon="11.6242166748">
		<tag k="fixme" v="consider natural=peak for the most distinct mountains in the district" />
		<tag k="name" v="Hiås" />
		<tag k="natural" v="hill" />
		<tag k="place" v="locality" />
		<tag k="ssr:stedsnr" v="487105" />
	</node>
	<node id="-10612" lat="59.2218333307" lon="11.6232444465">
		<tag k="fixme" v="consider natural=peak for the most distinct mountains in the district" />
		<tag k="name" v="Gjetås" />
		<tag k="natural" v="hill" />
		<tag k="place" v="locality" />
		<tag k="ssr:stedsnr" v="841335" />
	</node>
	<node id="-10611" lat="59.2164694401" lon="11.6213611182">
		<tag k="fixme" v="consider natural=peak for the most distinct mountains in the district" />
		<tag k="name" v="Abbortjernhøyda" />
		<tag k="natural" v="hill" />
		<tag k="place" v="locality" />
		<tag k="ssr:stedsnr" v="841331" />
	</node>
	<node id="-10610" lat="59.2200277734" lon="11.667797226">
		<tag k="name" v="Bikkjedalen" />
		<tag k="natural" v="valley" />
		<tag k="place" v="locality" />
		<tag k="ssr:stedsnr" v="841330" />
	</node>
	<node id="-10093" lat="59.0776416694" lon="11.7555749959">
		<tag k="alt_name" v="Ulverompene" />
		<tag k="fixme" v="consider natural=peak for the most distinct mountains in the district" />
		<tag k="name" v="Ulverumpene" />
		<tag k="natural" v="hill" />
		<tag k="place" v="locality" />
		<tag k="ssr:stedsnr" v="486488" />
	</node>
	<node id="-10604" lat="59.2479388852" lon="11.7907861123">
		<tag k="fixme" v="consider natural=peak for the most distinct mountains in the district" />
		<tag k="name" v="Trantjernhøyda" />
		<tag k="natural" v="hill" />
		<tag k="place" v="locality" />
		<tag k="ssr:stedsnr" v="840859" />
	</node>
	<node id="-10601" lat="59.2739666706" lon="11.7535611057">
		<tag k="fixme" v="consider natural=peak for the most distinct mountains in the district" />
		<tag k="name" v="Lajordshøyda" />
		<tag k="natural" v="hill" />
		<tag k="place" v="locality" />
		<tag k="ssr:stedsnr" v="840771" />
	</node>
	<node id="-10593" lat="59.1622805552" lon="11.6577166714">
		<tag k="name" v="Smelleberget" />
		<tag k="natural" v="hill" />
		<tag k="place" v="locality" />
		<tag k="ssr:stedsnr" v="840332" />
	</node>
	<node id="-10590" lat="59.2641277802" lon="11.77508889">
		<tag k="fixme" v="consider natural=peak for the most distinct mountains in the district" />
		<tag k="name" v="Bukkeklevåsen" />
		<tag k="natural" v="hill" />
		<tag k="place" v="locality" />
		<tag k="ssr:stedsnr" v="840147" />
	</node>
	<node id="-9562" lat="59.1975722237" lon="11.699255549">
		<tag k="fixme" v="consider natural=peak for the most distinct mountains in the district" />
		<tag k="name" v="Nordbyåsen" />
		<tag k="natural" v="hill" />
		<tag k="place" v="locality" />
		<tag k="ssr:stedsnr" v="476883" />
	</node>
	<node id="-9557" lat="59.1528527742" lon="11.7700055531">
		<tag k="fixme" v="consider natural=peak for the most distinct mountains in the district" />
		<tag k="name" v="Snaråsen" />
		<tag k="natural" v="hill" />
		<tag k="place" v="locality" />
		<tag k="ssr:stedsnr" v="476664" />
	</node>
	<node id="-10065" lat="59.2827249972" lon="11.6172888885">
		<tag k="alt_name" v="Berggrøten" />
		<tag k="fixme" v="consider natural=peak for the most distinct mountains in the district" />
		<tag k="name" v="Bergrøten" />
		<tag k="natural" v="hill" />
		<tag k="place" v="locality" />
		<tag k="ssr:stedsnr" v="428675" />
	</node>
	<node id="-10575" lat="59.2967694407" lon="11.7003500055">
		<tag k="fixme" v="consider natural=peak for the most distinct mountains in the district" />
		<tag k="name" v="Høyfjell" />
		<tag k="natural" v="hill" />
		<tag k="place" v="locality" />
		<tag k="ssr:stedsnr" v="827054" />
	</node>
	<node id="-9661" lat="59.2231972222" lon="11.7430666732">
		<tag k="fixme" v="consider natural=peak for the most distinct mountains in the district" />
		<tag k="name" v="Dammyråsen" />
		<tag k="natural" v="hill" />
		<tag k="place" v="locality" />
		<tag k="ssr:stedsnr" v="51227" />
	</node>
	<node id="-9357" lat="59.1541944459" lon="11.6329833401">
		<tag k="fixme" v="consider natural=peak for the most distinct mountains in the district" />
		<tag k="name" v="Orreberget" />
		<tag k="natural" v="hill" />
		<tag k="place" v="locality" />
		<tag k="ssr:stedsnr" v="293476" />
	</node>
	<node id="-10572" lat="59.3175944423" lon="11.6690638834">
		<tag k="fixme" v="consider natural=peak for the most distinct mountains in the district" />
		<tag k="name" v="Mokallåsen" />
		<tag k="natural" v="hill" />
		<tag k="place" v="locality" />
		<tag k="ssr:stedsnr" v="827010" />
	</node>
	<node id="-9544" lat="59.1575416647" lon="11.6745444451">
		<tag k="fixme" v="consider natural=peak for the most distinct mountains in the district" />
		<tag k="name" v="Ødegårdsåsen" />
		<tag k="natural" v="hill" />
		<tag k="place" v="locality" />
		<tag k="ssr:stedsnr" v="475514" />
	</node>
	<node id="-10054" lat="59.248069445" lon="11.630924999">
		<tag k="fixme" v="consider natural=peak for the most distinct mountains in the district" />
		<tag k="name" v="Gresholtkollen" />
		<tag k="natural" v="hill" />
		<tag k="place" v="locality" />
		<tag k="ssr:stedsnr" v="427272" />
	</node>
	<node id="-10155" lat="59.2483027943" lon="11.7850380005">
		<tag k="fixme" v="consider natural=peak for the most distinct mountains in the district" />
		<tag k="name" v="Korsmoshøyda" />
		<tag k="natural" v="hill" />
		<tag k="place" v="locality" />
		<tag k="ssr:stedsnr" v="536856" />
	</node>
	<node id="-9533" lat="59.2915083335" lon="11.6923277693">
		<tag k="fixme" v="consider natural=peak for the most distinct mountains in the district" />
		<tag k="name" v="Rødsåsen" />
		<tag k="natural" v="hill" />
		<tag k="place" v="locality" />
		<tag k="ssr:stedsnr" v="402041" />
	</node>
	<node id="-10043" lat="59.1333055562" lon="11.7668000046">
		<tag k="fixme" v="consider natural=peak for the most distinct mountains in the district" />
		<tag k="name" v="Husåsen" />
		<tag k="natural" v="hill" />
		<tag k="place" v="locality" />
		<tag k="ssr:stedsnr" v="427038" />
	</node>
	<node id="-9527" lat="59.2538638915" lon="11.5976361052">
		<tag k="fixme" v="consider natural=peak for the most distinct mountains in the district" />
		<tag k="name" v="Ormetjernshøyda" />
		<tag k="natural" v="hill" />
		<tag k="place" v="locality" />
		<tag k="ssr:stedsnr" v="401341" />
	</node>
	<node id="-10550" lat="59.2925888846" lon="11.7305972176">
		<tag k="alt_name" v="Skavlen" />
		<tag k="fixme" v="consider natural=peak for the most distinct mountains in the district" />
		<tag k="name" v="Skavelen" />
		<tag k="natural" v="hill" />
		<tag k="place" v="locality" />
		<tag k="ssr:stedsnr" v="792651" />
	</node>
	<node id="-10036" lat="59.1202861093" lon="11.7431861186">
		<tag k="alt_name" v="Bjerkeliene" />
		<tag k="name" v="Bjørkeliene" />
		<tag k="natural" v="slope" />
		<tag k="place" v="locality" />
		<tag k="ssr:stedsnr" v="426448" />
	</node>
	<node id="-10035" lat="59.1055027796" lon="11.7287472244">
		<tag k="alt_name" v="Mellemheia" />
		<tag k="fixme" v="consider natural=peak for the most distinct mountains in the district" />
		<tag k="name" v="Mellomheia" />
		<tag k="natural" v="hill" />
		<tag k="place" v="locality" />
		<tag k="ssr:stedsnr" v="426437" />
	</node>
	<node id="-10034" lat="59.0648500038" lon="11.7237388907">
		<tag k="fixme" v="consider natural=peak for the most distinct mountains in the district" />
		<tag k="name" v="Bukkeholøfsa" />
		<tag k="natural" v="hill" />
		<tag k="place" v="locality" />
		<tag k="ssr:stedsnr" v="426360" />
	</node>
	<node id="-10544" lat="59.1359999973" lon="11.7565750068">
		<tag k="fixme" v="consider natural=peak for the most distinct mountains in the district" />
		<tag k="name" v="Skåkåsen" />
		<tag k="natural" v="hill" />
		<tag k="place" v="locality" />
		<tag k="ssr:stedsnr" v="791034" />
	</node>
	<node id="-10029" lat="59.2081527783" lon="11.6275388925">
		<tag k="fixme" v="consider natural=peak for the most distinct mountains in the district" />
		<tag k="name" v="Abbortjernåsen" />
		<tag k="natural" v="hill" />
		<tag k="place" v="locality" />
		<tag k="ssr:stedsnr" v="426164" />
	</node>
	<node id="-10027" lat="59.2246999985" lon="11.6517694481">
		<tag k="fixme" v="consider natural=peak for the most distinct mountains in the district" />
		<tag k="name" v="Korpås" />
		<tag k="natural" v="hill" />
		<tag k="place" v="locality" />
		<tag k="ssr:stedsnr" v="426158" />
	</node>
	<node id="-10537" lat="59.0610805516" lon="11.7423499998">
		<tag k="alt_name" v="Landbladåsen" />
		<tag k="fixme" v="consider natural=peak for the most distinct mountains in the district" />
		<tag k="name" v="Landebladkollen" />
		<tag k="natural" v="hill" />
		<tag k="place" v="locality" />
		<tag k="ssr:stedsnr" v="790385" />
	</node>
	<node id="-10536" lat="59.0552638851" lon="11.709600008">
		<tag k="fixme" v="consider natural=peak for the most distinct mountains in the district" />
		<tag k="name" v="Duvleøfsa" />
		<tag k="natural" v="hill" />
		<tag k="place" v="locality" />
		<tag k="ssr:stedsnr" v="790379" />
	</node>
	<node id="-10022" lat="59.1916944454" lon="11.7667055489">
		<tag k="name" v="Halvfarkleva" />
		<tag k="place" v="locality" />
		<tag k="ssr:stedsnr" v="416898" />
	</node>
	<node id="-10021" lat="59.1959888918" lon="11.7524611188">
		<tag k="name" v="Vindtjernkleva" />
		<tag k="place" v="locality" />
		<tag k="ssr:stedsnr" v="416895" />
	</node>
	<node id="-9508" lat="59.1606250039" lon="11.7510194512">
		<tag k="alt_name" v="Ørneredet" />
		<tag k="fixme" v="consider natural=peak for the most distinct mountains in the district" />
		<tag k="name" v="Ørnereiret" />
		<tag k="natural" v="hill" />
		<tag k="place" v="locality" />
		<tag k="ssr:stedsnr" v="366103" />
	</node>
	<node id="-10531" lat="59.2344722188" lon="11.7861277771">
		<tag k="alt_name" v="Trolldalshøyda" />
		<tag k="fixme" v="consider natural=peak for the most distinct mountains in the district" />
		<tag k="name" v="Trollhøgda" />
		<tag k="natural" v="hill" />
		<tag k="place" v="locality" />
		<tag k="ssr:stedsnr" v="790105" />
	</node>
	<node id="-9472" lat="59.2475944465" lon="11.7906555516">
		<tag k="name" v="Runde kolle" />
		<tag k="natural" v="hill" />
		<tag k="place" v="locality" />
		<tag k="ssr:stedsnr" v="354845" />
	</node>
	<node id="-9505" lat="59.1228166701" lon="11.678355564">
		<tag k="alt_name" v="Seterhøydene" />
		<tag k="fixme" v="consider natural=peak for the most distinct mountains in the district" />
		<tag k="name" v="Seterhøgdene" />
		<tag k="natural" v="hill" />
		<tag k="place" v="locality" />
		<tag k="ssr:stedsnr" v="366044" />
	</node>
	<node id="-10015" lat="59.2134333294" lon="11.6289944388">
		<tag k="name" v="Abbortjerndalen" />
		<tag k="natural" v="valley" />
		<tag k="place" v="locality" />
		<tag k="ssr:stedsnr" v="416298" />
	</node>
	<node id="-10012" lat="59.2394055545" lon="11.6335388815">
		<tag k="fixme" v="consider natural=peak for the most distinct mountains in the district" />
		<tag k="name" v="Gressholtkollen" />
		<tag k="natural" v="hill" />
		<tag k="place" v="locality" />
		<tag k="ssr:stedsnr" v="416282" />
	</node>
	<node id="-9499" lat="59.1497361109" lon="11.7737222157">
		<tag k="fixme" v="multiple name tags, choose one and add the other to alt_name; consider natural=peak for the most distinct mountains in the district" />
		<tag k="name" v="Kolsbuåsen;Raudkoll" />
		<tag k="natural" v="hill" />
		<tag k="place" v="locality" />
		<tag k="ssr:stedsnr" v="366003" />
	</node>
	<node id="-9495" lat="59.2194027822" lon="11.6394611065">
		<tag k="fixme" v="consider natural=peak for the most distinct mountains in the district" />
		<tag k="name" v="Snupperås" />
		<tag k="natural" v="hill" />
		<tag k="place" v="locality" />
		<tag k="ssr:stedsnr" v="365167" />
	</node>
	<node id="-10006" lat="59.254977781" lon="11.7852916709">
		<tag k="name" v="Storkarsdal" />
		<tag k="natural" v="valley" />
		<tag k="place" v="locality" />
		<tag k="ssr:stedsnr" v="415869" />
	</node>
	<node id="-10516" lat="59.2172111092" lon="11.69278056">
		<tag k="fixme" v="consider natural=peak for the most distinct mountains in the district" />
		<tag k="name" v="Trosteberget" />
		<tag k="natural" v="hill" />
		<tag k="place" v="locality" />
		<tag k="ssr:stedsnr" v="780296" />
	</node>
	<node id="-10001" lat="59.1473444473" lon="11.6468694374">
		<tag k="fixme" v="consider natural=peak for the most distinct mountains in the district" />
		<tag k="name" v="Rødås" />
		<tag k="natural" v="hill" />
		<tag k="place" v="locality" />
		<tag k="ssr:stedsnr" v="415491" />
	</node>
	<node id="-9999" lat="59.2230472193" lon="11.7905583334">
		<tag k="fixme" v="consider natural=peak for the most distinct mountains in the district" />
		<tag k="name" v="Kippingtjernhøyda" />
		<tag k="natural" v="hill" />
		<tag k="place" v="locality" />
		<tag k="ssr:stedsnr" v="415174" />
	</node>
	<node id="-10510" lat="59.2666972177" lon="11.7063583391">
		<tag k="fixme" v="consider natural=peak for the most distinct mountains in the district" />
		<tag k="name" v="Løvås" />
		<tag k="natural" v="hill" />
		<tag k="place" v="locality" />
		<tag k="ssr:stedsnr" v="780084" />
	</node>
	<node id="-9485" lat="59.1953305546" lon="11.7836722277">
		<tag k="name" v="Stuteklev" />
		<tag k="place" v="locality" />
		<tag k="ssr:stedsnr" v="355900" />
	</node>
	<node id="-9995" lat="59.2394055513" lon="11.7840222249">
		<tag k="fixme" v="consider natural=peak for the most distinct mountains in the district" />
		<tag k="name" v="Kjeppås" />
		<tag k="natural" v="hill" />
		<tag k="place" v="locality" />
		<tag k="ssr:stedsnr" v="415131" />
	</node>
	<node id="-10506" lat="59.3200916633" lon="11.7537749933">
		<tag k="name" v="Duvledalen" />
		<tag k="natural" v="valley" />
		<tag k="place" v="locality" />
		<tag k="ssr:stedsnr" v="779945" />
	</node>
	<node id="-10505" lat="59.0466833341" lon="11.71520278">
		<tag k="fixme" v="consider natural=peak for the most distinct mountains in the district" />
		<tag k="name" v="Duvleøfsa" />
		<tag k="natural" v="hill" />
		<tag k="place" v="locality" />
		<tag k="ssr:stedsnr" v="779933" />
	</node>
	<node id="-9478" lat="59.218697218" lon="11.7103527777">
		<tag k="fixme" v="consider natural=peak for the most distinct mountains in the district" />
		<tag k="name" v="Jersengåsen" />
		<tag k="natural" v="hill" />
		<tag k="place" v="locality" />
		<tag k="ssr:stedsnr" v="355298" />
	</node>
	<node id="-9989" lat="59.1505305554" lon="11.6764472215">
		<tag k="name" v="Tretteråsen" />
		<tag k="natural" v="hill" />
		<tag k="place" v="locality" />
		<tag k="ssr:stedsnr" v="414475" />
	</node>
	<node id="-10496" lat="59.1523333315" lon="11.6590611097">
		<tag k="fixme" v="consider natural=peak for the most distinct mountains in the district" />
		<tag k="name" v="Humlegårdsåsen" />
		<tag k="natural" v="hill" />
		<tag k="place" v="locality" />
		<tag k="ssr:stedsnr" v="779504" />
	</node>
	<node id="-9471" lat="59.1449638915" lon="11.7535916746">
		<tag k="name" v="Tornehaug" />
		<tag k="natural" v="hill" />
		<tag k="place" v="locality" />
		<tag k="ssr:stedsnr" v="354840" />
	</node>
	<node id="-10493" lat="59.1670472213" lon="11.6816055505">
		<tag k="fixme" v="consider natural=peak for the most distinct mountains in the district" />
		<tag k="name" v="Tjernsåsen" />
		<tag k="natural" v="hill" />
		<tag k="place" v="locality" />
		<tag k="ssr:stedsnr" v="779378" />
	</node>
	<node id="-9980" lat="59.2784999979" lon="11.5719166679">
		<tag k="alt_name" v="Skjøljakollen" />
		<tag k="fixme" v="consider natural=peak for the most distinct mountains in the district" />
		<tag k="name" v="Sjulikollen" />
		<tag k="natural" v="hill" />
		<tag k="place" v="locality" />
		<tag k="ssr:stedsnr" v="246664" />
	</node>
	<node id="-10491" lat="59.1711861141" lon="11.6196416746">
		<tag k="name" v="Elggravdalen" />
		<tag k="natural" v="valley" />
		<tag k="place" v="locality" />
		<tag k="ssr:stedsnr" v="779363" />
	</node>
	<node id="-9599" lat="59.2358833338" lon="11.7113138892">
		<tag k="fixme" v="consider natural=peak for the most distinct mountains in the district" />
		<tag k="name" v="Flatlandsåsen" />
		<tag k="natural" v="hill" />
		<tag k="place" v="locality" />
		<tag k="ssr:stedsnr" v="1138" />
	</node>
	<node id="-10487" lat="59.2394944462" lon="11.7546027862">
		<tag k="name" v="Mardalen" />
		<tag k="natural" v="valley" />
		<tag k="place" v="locality" />
		<tag k="ssr:stedsnr" v="779162" />
	</node>
	<node id="-9462" lat="59.1605722228" lon="11.63489167">
		<tag k="name" v="Slorerdalen" />
		<tag k="natural" v="valley" />
		<tag k="place" v="locality" />
		<tag k="ssr:stedsnr" v="354457" />
	</node>
	<node id="-9513" lat="59.3046333356" lon="11.7002527865">
		<tag k="alt_name" v="Lundehøyda" />
		<tag k="fixme" v="consider natural=peak for the most distinct mountains in the district" />
		<tag k="name" v="Lundehøgda" />
		<tag k="natural" v="hill" />
		<tag k="place" v="locality" />
		<tag k="ssr:stedsnr" v="367634" />
	</node>
	<node id="-9460" lat="59.1622361098" lon="11.6800388881">
		<tag k="fixme" v="consider natural=peak for the most distinct mountains in the district" />
		<tag k="name" v="Revehiåsen" />
		<tag k="natural" v="hill" />
		<tag k="place" v="locality" />
		<tag k="ssr:stedsnr" v="354370" />
	</node>
	<node id="-9854" lat="59.2556999999" lon="11.8010027785">
		<tag k="name" v="Merradalen" />
		<tag k="natural" v="valley" />
		<tag k="place" v="locality" />
		<tag k="ssr:stedsnr" v="172883" />
	</node>
	<node id="-9969" lat="59.0802944439" lon="11.7140527705">
		<tag k="alt_name" v="Abbortjernåsen" />
		<tag k="fixme" v="consider natural=peak for the most distinct mountains in the district" />
		<tag k="name" v="Abbortjernsåsen" />
		<tag k="natural" v="hill" />
		<tag k="place" v="locality" />
		<tag k="ssr:stedsnr" v="244499" />
	</node>
	<node id="-9967" lat="59.107325001" lon="11.720169438">
		<tag k="name" v="Djupedal" />
		<tag k="natural" v="valley" />
		<tag k="place" v="locality" />
		<tag k="ssr:stedsnr" v="244465" />
	</node>
	<node id="-9966" lat="59.073119445" lon="11.6935222267">
		<tag k="alt_name" v="Gravdalsøfsa" />
		<tag k="name" v="Gravedalsøfsa" />
		<tag k="natural" v="hill" />
		<tag k="place" v="locality" />
		<tag k="ssr:stedsnr" v="244406" />
	</node>
	<node id="-9452" lat="59.2308166711" lon="11.765911106">
		<tag k="fixme" v="consider natural=peak for the most distinct mountains in the district" />
		<tag k="name" v="Siljedalshøydene" />
		<tag k="natural" v="hill" />
		<tag k="place" v="locality" />
		<tag k="ssr:stedsnr" v="354149" />
	</node>
	<node id="-9426" lat="59.3272694463" lon="11.7341194504">
		<tag k="alt_name" v="Høgås, vestre" />
		<tag k="fixme" v="consider natural=peak for the most distinct mountains in the district" />
		<tag k="name" v="Vestre Høyås" />
		<tag k="natural" v="hill" />
		<tag k="place" v="locality" />
		<tag k="ssr:stedsnr" v="306727" />
	</node>
	<node id="-9961" lat="59.2183388928" lon="11.6506666672">
		<tag k="fixme" v="consider natural=peak for the most distinct mountains in the district" />
		<tag k="name" v="Seterhøgda" />
		<tag k="natural" v="hill" />
		<tag k="place" v="locality" />
		<tag k="ssr:stedsnr" v="244172" />
	</node>
	<node id="-9959" lat="59.2147527804" lon="11.6603583323">
		<tag k="name" v="Stordalen" />
		<tag k="natural" v="valley" />
		<tag k="place" v="locality" />
		<tag k="ssr:stedsnr" v="244170" />
	</node>
	<node id="-9681" lat="59.1463888868" lon="11.7294138818">
		<tag k="fixme" v="consider natural=peak for the most distinct mountains in the district" />
		<tag k="name" v="Bryggehaugen" />
		<tag k="natural" v="hill" />
		<tag k="place" v="locality" />
		<tag k="ssr:stedsnr" v="52923" />
	</node>
	<node id="-9439" lat="59.297161112" lon="11.6823055538">
		<tag k="fixme" v="consider natural=peak for the most distinct mountains in the district" />
		<tag k="name" v="Korpåsen" />
		<tag k="natural" v="hill" />
		<tag k="place" v="locality" />
		<tag k="ssr:stedsnr" v="341049" />
	</node>
	<node id="-10461" lat="59.2493666646" lon="11.6046444442">
		<tag k="fixme" v="consider natural=peak for the most distinct mountains in the district" />
		<tag k="name" v="Eikelihøyda" />
		<tag k="natural" v="hill" />
		<tag k="place" v="locality" />
		<tag k="ssr:stedsnr" v="765333" />
	</node>
	<node id="-9606" lat="59.0779305585" lon="11.7022388812">
		<tag k="fixme" v="consider natural=peak for the most distinct mountains in the district" />
		<tag k="name" v="Salskrukkøfsa" />
		<tag k="natural" v="hill" />
		<tag k="place" v="locality" />
		<tag k="ssr:stedsnr" v="1488" />
	</node>
	<node id="-10456" lat="59.0895416711" lon="11.7254527705">
		<tag k="alt_name" v="Høyestang" />
		<tag k="fixme" v="consider natural=peak for the most distinct mountains in the district" />
		<tag k="name" v="Høgestang" />
		<tag k="natural" v="hill" />
		<tag k="place" v="locality" />
		<tag k="ssr:stedsnr" v="730519" />
	</node>
	<node id="-10454" lat="59.0487722215" lon="11.7080249942">
		<tag k="alt_name" v="Gråbeinåsen" />
		<tag k="fixme" v="consider natural=peak for the most distinct mountains in the district" />
		<tag k="name" v="Gråbenåsen" />
		<tag k="natural" v="hill" />
		<tag k="place" v="locality" />
		<tag k="ssr:stedsnr" v="730444" />
	</node>
	<node id="-10453" lat="59.2464444458" lon="11.6574944441">
		<tag k="name" v="Korset" />
		<tag k="natural" v="hill" />
		<tag k="place" v="locality" />
		<tag k="ssr:stedsnr" v="730241" />
	</node>
	<node id="-9427" lat="59.3256333338" lon="11.7568611103">
		<tag k="alt_name" v="Høgås, østre" />
		<tag k="fixme" v="consider natural=peak for the most distinct mountains in the district" />
		<tag k="name" v="Østre Høyås" />
		<tag k="natural" v="hill" />
		<tag k="place" v="locality" />
		<tag k="ssr:stedsnr" v="306726" />
	</node>
	<node id="-10450" lat="59.1825777806" lon="11.7488805538">
		<tag k="alt_name" v="Kisleberget" />
		<tag k="fixme" v="consider natural=peak for the most distinct mountains in the district" />
		<tag k="name" v="Kisselberget" />
		<tag k="natural" v="hill" />
		<tag k="place" v="locality" />
		<tag k="ssr:stedsnr" v="730086" />
	</node>
	<node id="-9936" lat="59.2525222193" lon="11.7812500059">
		<tag k="fixme" v="consider natural=peak for the most distinct mountains in the district" />
		<tag k="name" v="Igletjernshøyda" />
		<tag k="natural" v="hill" />
		<tag k="place" v="locality" />
		<tag k="ssr:stedsnr" v="233807" />
	</node>
	<node id="-9935" lat="59.1399333347" lon="11.6797111092">
		<tag k="fixme" v="consider natural=peak for the most distinct mountains in the district" />
		<tag k="name" v="Kjerringøfsa" />
		<tag k="natural" v="hill" />
		<tag k="place" v="locality" />
		<tag k="ssr:stedsnr" v="233514" />
	</node>
	<node id="-9421" lat="59.1304333329" lon="11.6993527803">
		<tag k="alt_name" v="Gøteliås" />
		<tag k="fixme" v="consider natural=peak for the most distinct mountains in the district" />
		<tag k="name" v="Gøteliåsen" />
		<tag k="natural" v="hill" />
		<tag k="place" v="locality" />
		<tag k="ssr:stedsnr" v="306061" />
	</node>
	<node id="-9420" lat="59.1314555555" lon="11.7032250043">
		<tag k="fixme" v="consider natural=peak for the most distinct mountains in the district" />
		<tag k="name" v="Blankefjell" />
		<tag k="natural" v="hill" />
		<tag k="place" v="locality" />
		<tag k="ssr:stedsnr" v="306042" />
	</node>
	<node id="-10437" lat="59.3334444444" lon="11.6974916732">
		<tag k="fixme" v="consider natural=peak for the most distinct mountains in the district" />
		<tag k="name" v="Kutjernhøyda" />
		<tag k="natural" v="hill" />
		<tag k="place" v="locality" />
		<tag k="ssr:stedsnr" v="720418" />
	</node>
	<node id="-9412" lat="59.2127638852" lon="11.5961250041">
		<tag k="fixme" v="consider natural=peak for the most distinct mountains in the district" />
		<tag k="name" v="Stangebråtåsen" />
		<tag k="natural" v="hill" />
		<tag k="place" v="locality" />
		<tag k="ssr:stedsnr" v="305160" />
	</node>
	<node id="-9411" lat="59.2098367525" lon="11.6697108128">
		<tag k="fixme" v="multiple name tags, choose one and add the other to alt_name; consider natural=peak for the most distinct mountains in the district" />
		<tag k="name" v="Skotsbergåsen;Vardeåsen" />
		<tag k="natural" v="hill" />
		<tag k="place" v="locality" />
		<tag k="ssr:stedsnr" v="305153" />
	</node>
	<node id="-9409" lat="59.1734555539" lon="11.6753166721">
		<tag k="fixme" v="consider natural=peak for the most distinct mountains in the district" />
		<tag k="name" v="Ørnekula" />
		<tag k="natural" v="hill" />
		<tag k="place" v="locality" />
		<tag k="ssr:stedsnr" v="305095" />
	</node>
	<node id="-9408" lat="59.1862083298" lon="11.6493833334">
		<tag k="name" v="Moene" />
		<tag k="place" v="locality" />
		<tag k="ssr:stedsnr" v="305076" />
	</node>
	<node id="-9767" lat="59.2015444416" lon="11.6418333403">
		<tag k="name" v="Høye ås" />
		<tag k="natural" v="hill" />
		<tag k="place" v="locality" />
		<tag k="ssr:stedsnr" v="112890" />
	</node>
	<node id="-9917" lat="59.1265750036" lon="11.7286222272">
		<tag k="name" v="Gravdalen" />
		<tag k="natural" v="valley" />
		<tag k="place" v="locality" />
		<tag k="ssr:stedsnr" v="220322" />
	</node>
	<node id="-9404" lat="59.1025888932" lon="11.6923916603">
		<tag k="alt_name" v="Torsengåsen" />
		<tag k="fixme" v="consider natural=peak for the most distinct mountains in the district" />
		<tag k="name" v="Toresengeråsen" />
		<tag k="natural" v="hill" />
		<tag k="place" v="locality" />
		<tag k="ssr:stedsnr" v="304444" />
	</node>
	<node id="-9403" lat="59.1075166655" lon="11.7639499979">
		<tag k="name" v="Storehaug" />
		<tag k="natural" v="hill" />
		<tag k="place" v="locality" />
		<tag k="ssr:stedsnr" v="304443" />
	</node>
	<node id="-9914" lat="59.3255500041" lon="11.6829083275">
		<tag k="fixme" v="consider natural=peak for the most distinct mountains in the district" />
		<tag k="name" v="Gressbekkåsen" />
		<tag k="natural" v="hill" />
		<tag k="place" v="locality" />
		<tag k="ssr:stedsnr" v="220005" />
	</node>
	<node id="-9588" lat="59.1496138899" lon="11.7020166596">
		<tag k="alt_name" v="Døhaug" />
		<tag k="name" v="Dødhaug" />
		<tag k="natural" v="hill" />
		<tag k="place" v="locality" />
		<tag k="ssr:stedsnr" v="122442" />
	</node>
	<node id="-9398" lat="59.3202416636" lon="11.7573222151">
		<tag k="fixme" v="consider natural=peak for the most distinct mountains in the district" />
		<tag k="name" v="Duvledalshøyda" />
		<tag k="natural" v="hill" />
		<tag k="place" v="locality" />
		<tag k="ssr:stedsnr" v="294957" />
	</node>
	<node id="-9397" lat="59.3172611145" lon="11.7435972292">
		<tag k="name" v="Ufredsdraua" />
		<tag k="natural" v="valley" />
		<tag k="place" v="locality" />
		<tag k="ssr:stedsnr" v="294955" />
	</node>
	<node id="-9395" lat="59.1494499992" lon="11.7389972193">
		<tag k="name" v="Norgårdlandet" />
		<tag k="place" v="locality" />
		<tag k="ssr:stedsnr" v="294936" />
	</node>
	<node id="-9392" lat="59.2010027799" lon="11.6212249995">
		<tag k="fixme" v="consider natural=peak for the most distinct mountains in the district" />
		<tag k="name" v="Røyterås" />
		<tag k="natural" v="hill" />
		<tag k="place" v="locality" />
		<tag k="ssr:stedsnr" v="294895" />
	</node>
	<node id="-10413" lat="59.1512416699" lon="11.6451944477">
		<tag k="fixme" v="consider natural=peak for the most distinct mountains in the district" />
		<tag k="name" v="Signalen" />
		<tag k="natural" v="hill" />
		<tag k="place" v="locality" />
		<tag k="ssr:stedsnr" v="718513" />
	</node>
	<node id="-9388" lat="59.3075916624" lon="11.7626944489">
		<tag k="fixme" v="consider natural=peak for the most distinct mountains in the district" />
		<tag k="name" v="Tjøsteltjernshøyda" />
		<tag k="natural" v="hill" />
		<tag k="place" v="locality" />
		<tag k="ssr:stedsnr" v="294801" />
	</node>
	<node id="-10098" lat="59.1720000039" lon="11.6390916639">
		<tag k="alt_name" v="Engkashøyda" />
		<tag k="fixme" v="consider natural=peak for the most distinct mountains in the district" />
		<tag k="name" v="Engkashøgda" />
		<tag k="natural" v="hill" />
		<tag k="place" v="locality" />
		<tag k="ssr:stedsnr" v="487090" />
	</node>
	<node id="-10410" lat="59.1344916661" lon="11.6908083347">
		<tag k="name" v="Pålebakkene" />
		<tag k="natural" v="slope" />
		<tag k="place" v="locality" />
		<tag k="ssr:stedsnr" v="718458" />
	</node>
	<node id="-10409" lat="59.0678138885" lon="11.7044833268">
		<tag k="fixme" v="consider natural=peak for the most distinct mountains in the district" />
		<tag k="name" v="Bekkengøfsa" />
		<tag k="natural" v="hill" />
		<tag k="place" v="locality" />
		<tag k="ssr:stedsnr" v="718937" />
	</node>
	<node id="-10408" lat="59.0489916706" lon="11.7178083381">
		<tag k="name" v="Bekkengdalen" />
		<tag k="natural" v="valley" />
		<tag k="place" v="locality" />
		<tag k="ssr:stedsnr" v="718935" />
	</node>
	<node id="-9756" lat="59.1837027782" lon="11.7660749971">
		<tag k="fixme" v="consider natural=peak for the most distinct mountains in the district" />
		<tag k="name" v="Busterudhøyda" />
		<tag k="natural" v="hill" />
		<tag k="place" v="locality" />
		<tag k="ssr:stedsnr" v="112920" />
	</node>
	<node id="-10401" lat="59.2266472233" lon="11.6622500079">
		<tag k="name" v="Grandalen" />
		<tag k="natural" v="valley" />
		<tag k="place" v="locality" />
		<tag k="ssr:stedsnr" v="705558" />
	</node>
	<node id="-9888" lat="59.2472527765" lon="11.7279333258">
		<tag k="fixme" v="consider natural=peak for the most distinct mountains in the district" />
		<tag k="name" v="Øfsa" />
		<tag k="natural" v="hill" />
		<tag k="place" v="locality" />
		<tag k="ssr:stedsnr" v="184234" />
	</node>
	<node id="-9887" lat="59.244958335" lon="11.8045777702">
		<tag k="alt_name" v="Skimtefjellet" />
		<tag k="fixme" v="consider natural=peak for the most distinct mountains in the district" />
		<tag k="name" v="Skimtefjell" />
		<tag k="natural" v="hill" />
		<tag k="place" v="locality" />
		<tag k="ssr:stedsnr" v="184229" />
	</node>
	<node id="-9885" lat="59.153949997" lon="11.6441249978">
		<tag k="fixme" v="consider natural=peak for the most distinct mountains in the district" />
		<tag k="name" v="Steinsåsen" />
		<tag k="natural" v="hill" />
		<tag k="place" v="locality" />
		<tag k="ssr:stedsnr" v="184110" />
	</node>
	<node id="-9754" lat="59.1429361154" lon="11.6943388968">
		<tag k="fixme" v="consider natural=peak for the most distinct mountains in the district" />
		<tag k="name" v="Svartåsen" />
		<tag k="natural" v="hill" />
		<tag k="place" v="locality" />
		<tag k="ssr:stedsnr" v="112498" />
	</node>
	<node id="-9882" lat="59.1889166687" lon="11.6171833256">
		<tag k="alt_name" v="Sørliåsen" />
		<tag k="fixme" v="consider natural=peak for the most distinct mountains in the district" />
		<tag k="name" v="Sørliåsene" />
		<tag k="natural" v="hill" />
		<tag k="place" v="locality" />
		<tag k="ssr:stedsnr" v="184054" />
	</node>
	<node id="-9369" lat="59.2255277801" lon="11.7867472251">
		<tag k="fixme" v="consider natural=peak for the most distinct mountains in the district" />
		<tag k="name" v="Runde kolle" />
		<tag k="natural" v="hill" />
		<tag k="place" v="locality" />
		<tag k="ssr:stedsnr" v="294132" />
	</node>
	<node id="-10391" lat="59.3298388886" lon="11.6766333262">
		<tag k="fixme" v="consider natural=peak for the most distinct mountains in the district" />
		<tag k="name" v="Koppervikåsen" />
		<tag k="natural" v="hill" />
		<tag k="place" v="locality" />
		<tag k="ssr:stedsnr" v="705013" />
	</node>
	<node id="-10390" lat="59.2256805555" lon="11.7133611178">
		<tag k="name" v="Perkollen" />
		<tag k="natural" v="hill" />
		<tag k="place" v="locality" />
		<tag k="ssr:stedsnr" v="704428" />
	</node>
	<node id="-10389" lat="59.2291166662" lon="11.7195249961">
		<tag k="fixme" v="consider natural=peak for the most distinct mountains in the district" />
		<tag k="name" v="Kirkeåsen" />
		<tag k="natural" v="hill" />
		<tag k="place" v="locality" />
		<tag k="ssr:stedsnr" v="704427" />
	</node>
	<node id="-9876" lat="59.0750305586" lon="11.7458555487">
		<tag k="alt_name" v="Høyklevåsen" />
		<tag k="fixme" v="consider natural=peak for the most distinct mountains in the district" />
		<tag k="name" v="Høykleivåsen" />
		<tag k="natural" v="hill" />
		<tag k="place" v="locality" />
		<tag k="ssr:stedsnr" v="183362" />
	</node>
	<node id="-9361" lat="59.0941750007" lon="11.7024194531">
		<tag k="fixme" v="consider natural=peak for the most distinct mountains in the district" />
		<tag k="name" v="Halvorshøgda" />
		<tag k="natural" v="hill" />
		<tag k="place" v="locality" />
		<tag k="ssr:stedsnr" v="294018" />
	</node>
	<node id="-9872" lat="59.2289750036" lon="11.6343111144">
		<tag k="name" v="Bjørkeliene" />
		<tag k="natural" v="slope" />
		<tag k="place" v="locality" />
		<tag k="ssr:stedsnr" v="183139" />
	</node>
	<node id="-9359" lat="59.1590388932" lon="11.6426111138">
		<tag k="fixme" v="consider natural=peak for the most distinct mountains in the district" />
		<tag k="name" v="Jonekasåsen" />
		<tag k="natural" v="hill" />
		<tag k="place" v="locality" />
		<tag k="ssr:stedsnr" v="293515" />
	</node>
	<node id="-9869" lat="59.2481805579" lon="11.5956777849">
		<tag k="fixme" v="consider natural=peak for the most distinct mountains in the district" />
		<tag k="name" v="Djupvannshøyda" />
		<tag k="natural" v="hill" />
		<tag k="place" v="locality" />
		<tag k="ssr:stedsnr" v="173982" />
	</node>
	<node id="-10092" lat="59.1075027813" lon="11.7421472306">
		<tag k="fixme" v="consider natural=peak for the most distinct mountains in the district" />
		<tag k="name" v="Lundeheia" />
		<tag k="natural" v="hill" />
		<tag k="place" v="locality" />
		<tag k="ssr:stedsnr" v="486468" />
	</node>
	<node id="-10370" lat="59.2093388875" lon="11.7546416595">
		<tag k="fixme" v="consider natural=peak for the most distinct mountains in the district" />
		<tag k="name" v="Røyås" />
		<tag k="natural" v="hill" />
		<tag k="place" v="locality" />
		<tag k="ssr:stedsnr" v="669163" />
	</node>
	<node id="-10369" lat="59.2060305535" lon="11.6422305495">
		<tag k="name" v="Bestedalen" />
		<tag k="natural" v="valley" />
		<tag k="place" v="locality" />
		<tag k="ssr:stedsnr" v="669158" />
	</node>
	<node id="-10366" lat="59.1956777804" lon="11.6083083257">
		<tag k="alt_name" v="Steinkallåsen" />
		<tag k="fixme" v="consider natural=peak for the most distinct mountains in the district" />
		<tag k="name" v="Steinkollåsen" />
		<tag k="natural" v="hill" />
		<tag k="place" v="locality" />
		<tag k="ssr:stedsnr" v="669150" />
	</node>
	<node id="-9749" lat="59.2798666668" lon="11.6196333262">
		<tag k="name" v="Jerpedalen" />
		<tag k="natural" v="valley" />
		<tag k="place" v="locality" />
		<tag k="ssr:stedsnr" v="112109" />
	</node>
	<node id="-9852" lat="59.3136416651" lon="11.7340083295">
		<tag k="fixme" v="consider natural=peak for the most distinct mountains in the district" />
		<tag k="name" v="Metartjernshøyda" />
		<tag k="natural" v="hill" />
		<tag k="place" v="locality" />
		<tag k="ssr:stedsnr" v="172959" />
	</node>
	<node id="-9851" lat="59.3168055599" lon="11.7684499977">
		<tag k="fixme" v="consider natural=peak for the most distinct mountains in the district" />
		<tag k="name" v="Skrikerbekkhøyda" />
		<tag k="natural" v="hill" />
		<tag k="place" v="locality" />
		<tag k="ssr:stedsnr" v="172954" />
	</node>
	<node id="-10362" lat="59.158794445" lon="11.6767916584">
		<tag k="alt_name" v="Brenteåsene" />
		<tag k="fixme" v="consider natural=peak for the most distinct mountains in the district" />
		<tag k="name" v="Brenteåsen" />
		<tag k="natural" v="hill" />
		<tag k="place" v="locality" />
		<tag k="ssr:stedsnr" v="669099" />
	</node>
	<node id="-10361" lat="59.1604722201" lon="11.7713555547">
		<tag k="fixme" v="consider natural=peak for the most distinct mountains in the district" />
		<tag k="name" v="Fagerliåsen" />
		<tag k="natural" v="hill" />
		<tag k="place" v="locality" />
		<tag k="ssr:stedsnr" v="669095" />
	</node>
	<node id="-10358" lat="59.0771888847" lon="11.7353777751">
		<tag k="fixme" v="consider natural=peak for the most distinct mountains in the district" />
		<tag k="name" v="Tangetjernfjellet" />
		<tag k="natural" v="hill" />
		<tag k="place" v="locality" />
		<tag k="ssr:stedsnr" v="668492" />
	</node>
	<node id="-10089" lat="59.2362138918" lon="11.7755861031">
		<tag k="alt_name" v="Løvheia" />
		<tag k="fixme" v="consider natural=peak for the most distinct mountains in the district" />
		<tag k="name" v="Lauen" />
		<tag k="natural" v="hill" />
		<tag k="place" v="locality" />
		<tag k="ssr:stedsnr" v="486104" />
	</node>
	<node id="-9844" lat="59.1567027811" lon="11.7740249993">
		<tag k="fixme" v="consider natural=peak for the most distinct mountains in the district" />
		<tag k="name" v="Kroktjernshøyda" />
		<tag k="natural" v="hill" />
		<tag k="place" v="locality" />
		<tag k="ssr:stedsnr" v="172708" />
	</node>
	<node id="-10523" lat="59.1786888905" lon="11.7748972303">
		<tag k="name" v="Lauvdal" />
		<tag k="natural" v="valley" />
		<tag k="place" v="locality" />
		<tag k="ssr:stedsnr" v="780911" />
	</node>
	<node id="-9405" lat="59.0992138932" lon="11.6778777743">
		<tag k="alt_name" v="Vedøfsa" />
		<tag k="fixme" v="consider natural=peak for the most distinct mountains in the district" />
		<tag k="name" v="Store Vedøfsa" />
		<tag k="natural" v="hill" />
		<tag k="place" v="locality" />
		<tag k="ssr:stedsnr" v="304447" />
	</node>
	<node id="-10340" lat="59.1410361079" lon="11.7075138934">
		<tag k="fixme" v="multiple name tags, choose one and add the other to alt_name; consider natural=peak for the most distinct mountains in the district" />
		<tag k="name" v="Gravedalsåsen;Halvfartjernhøyda" />
		<tag k="natural" v="hill" />
		<tag k="place" v="locality" />
		<tag k="ssr:stedsnr" v="658468" />
	</node>
	<node id="-10171" lat="59.182166668" lon="11.7643583342">
		<tag k="name" v="Knekedal" />
		<tag k="natural" v="valley" />
		<tag k="place" v="locality" />
		<tag k="ssr:stedsnr" v="537893" />
	</node>
	<node id="-10336" lat="59.1674972235" lon="11.619936116">
		<tag k="fixme" v="consider natural=peak for the most distinct mountains in the district" />
		<tag k="name" v="Langåsen" />
		<tag k="natural" v="hill" />
		<tag k="place" v="locality" />
		<tag k="ssr:stedsnr" v="658355" />
	</node>
	<node id="-10334" lat="59.2225861125" lon="11.7160777732">
		<tag k="name" v="Stoppedalen" />
		<tag k="natural" v="valley" />
		<tag k="place" v="locality" />
		<tag k="ssr:stedsnr" v="658318" />
	</node>
	<node id="-9821" lat="59.2562944484" lon="11.6291749945">
		<tag k="fixme" v="consider natural=peak for the most distinct mountains in the district" />
		<tag k="name" v="Høyås" />
		<tag k="natural" v="hill" />
		<tag k="place" v="locality" />
		<tag k="ssr:stedsnr" v="159497" />
	</node>
	<node id="-10426" lat="59.2700611152" lon="11.7452749917">
		<tag k="fixme" v="consider natural=peak for the most distinct mountains in the district" />
		<tag k="name" v="Gjølstadåsen" />
		<tag k="natural" v="hill" />
		<tag k="place" v="locality" />
		<tag k="ssr:stedsnr" v="719739" />
	</node>
	<node id="-10330" lat="59.2388000023" lon="11.7938805627">
		<tag k="name" v="Trolldalen" />
		<tag k="natural" v="valley" />
		<tag k="place" v="locality" />
		<tag k="ssr:stedsnr" v="658153" />
	</node>
	<node id="-9813" lat="59.3069194483" lon="11.7000999994">
		<tag k="fixme" v="consider natural=peak for the most distinct mountains in the district" />
		<tag k="name" v="Bergstrømhøyda" />
		<tag k="natural" v="hill" />
		<tag k="place" v="locality" />
		<tag k="ssr:stedsnr" v="159054" />
	</node>
	<node id="-10324" lat="59.2893166643" lon="11.6241194468">
		<tag k="fixme" v="consider natural=peak for the most distinct mountains in the district" />
		<tag k="name" v="Ørsknatten" />
		<tag k="natural" v="hill" />
		<tag k="place" v="locality" />
		<tag k="ssr:stedsnr" v="658065" />
	</node>
	<node id="-9486" lat="59.1872694471" lon="11.757661112">
		<tag k="fixme" v="consider natural=peak for the most distinct mountains in the district" />
		<tag k="name" v="Stendamåsen" />
		<tag k="natural" v="hill" />
		<tag k="place" v="locality" />
		<tag k="ssr:stedsnr" v="355904" />
	</node>
	<node id="-9531" lat="59.2977972266" lon="11.6684777783">
		<tag k="fixme" v="consider natural=peak for the most distinct mountains in the district" />
		<tag k="name" v="Lunneåsen" />
		<tag k="natural" v="hill" />
		<tag k="place" v="locality" />
		<tag k="ssr:stedsnr" v="402029" />
	</node>
	<node id="-10318" lat="59.0911111151" lon="11.6773833301">
		<tag k="fixme" v="consider natural=peak for the most distinct mountains in the district" />
		<tag k="name" v="Rytterøfsa" />
		<tag k="natural" v="hill" />
		<tag k="place" v="locality" />
		<tag k="ssr:stedsnr" v="658014" />
	</node>
	<node id="-9857" lat="59.2210138911" lon="11.6740111043">
		<tag k="fixme" v="consider natural=peak for the most distinct mountains in the district" />
		<tag k="name" v="Skakkestadåsen" />
		<tag k="natural" v="hill" />
		<tag k="place" v="locality" />
		<tag k="ssr:stedsnr" v="173296" />
	</node>
	<node id="-10314" lat="59.1591916652" lon="11.6955111168">
		<tag k="fixme" v="consider natural=peak for the most distinct mountains in the district" />
		<tag k="name" v="Ulsrødåsen" />
		<tag k="natural" v="hill" />
		<tag k="place" v="locality" />
		<tag k="ssr:stedsnr" v="657494" />
	</node>
	<node id="-9911" lat="59.2506222231" lon="11.6262111117">
		<tag k="fixme" v="consider natural=peak for the most distinct mountains in the district" />
		<tag k="name" v="Seljedalshøyda" />
		<tag k="natural" v="hill" />
		<tag k="place" v="locality" />
		<tag k="ssr:stedsnr" v="220510" />
	</node>
	<node id="-10308" lat="59.2346305549" lon="11.6234555468">
		<tag k="fixme" v="consider natural=peak for the most distinct mountains in the district" />
		<tag k="name" v="Høyfossåsen" />
		<tag k="natural" v="hill" />
		<tag k="place" v="locality" />
		<tag k="ssr:stedsnr" v="644521" />
	</node>
	<node id="-10166" lat="59.1431361079" lon="11.6768833403">
		<tag k="name" v="Sundkastet" />
		<tag k="natural" v="slope" />
		<tag k="place" v="locality" />
		<tag k="ssr:stedsnr" v="537459" />
	</node>
	<node id="-9824" lat="59.0790611126" lon="11.7111111158">
		<tag k="name" v="Abbortjerndraua" />
		<tag k="natural" v="valley" />
		<tag k="place" v="locality" />
		<tag k="ssr:stedsnr" v="172052" />
	</node>
	<node id="-9345" lat="59.252355553" lon="11.6262222136">
		<tag k="fixme" v="consider natural=peak for the most distinct mountains in the district" />
		<tag k="name" v="Seljedalshøyda" />
		<tag k="natural" v="hill" />
		<tag k="place" v="locality" />
		<tag k="ssr:stedsnr" v="280465" />
	</node>
	<node id="-9994" lat="59.278052779" lon="11.6204416727">
		<tag k="fixme" v="consider natural=peak for the most distinct mountains in the district" />
		<tag k="name" v="Glosås" />
		<tag k="natural" v="hill" />
		<tag k="place" v="locality" />
		<tag k="ssr:stedsnr" v="415081" />
	</node>
	<node id="-10078" lat="59.2961166693" lon="11.6214972222">
		<tag k="name" v="Skjellgropa" />
		<tag k="place" v="locality" />
		<tag k="ssr:stedsnr" v="462061" />
	</node>
	<node id="-9784" lat="59.0895138891" lon="11.7621000042">
		<tag k="alt_name" v="Abbortjernhøyda" />
		<tag k="fixme" v="consider natural=peak for the most distinct mountains in the district" />
		<tag k="name" v="Abbortjernshøgda" />
		<tag k="natural" v="hill" />
		<tag k="place" v="locality" />
		<tag k="ssr:stedsnr" v="122470" />
	</node>
	<node id="-9782" lat="59.0708861126" lon="11.7105361065">
		<tag k="alt_name" v="Langeås" />
		<tag k="fixme" v="consider natural=peak for the most distinct mountains in the district" />
		<tag k="name" v="Den lange åsen" />
		<tag k="natural" v="hill" />
		<tag k="place" v="locality" />
		<tag k="ssr:stedsnr" v="122403" />
	</node>
	<node id="-9993" lat="59.0980138846" lon="11.7101277834">
		<tag k="name" v="Skolestueåsen" />
		<tag k="natural" v="hill" />
		<tag k="place" v="locality" />
		<tag k="ssr:stedsnr" v="415052" />
	</node>
	<node id="-10291" lat="59.2933138848" lon="11.5986777717">
		<tag k="alt_name" v="Tilleråsen" />
		<tag k="fixme" v="consider natural=peak for the most distinct mountains in the district" />
		<tag k="name" v="Tillerås" />
		<tag k="natural" v="hill" />
		<tag k="place" v="locality" />
		<tag k="ssr:stedsnr" v="609648" />
	</node>
	<node id="-10289" lat="59.3031305546" lon="11.7577972239">
		<tag k="alt_name" v="Grevlinghøyda" />
		<tag k="fixme" v="consider natural=peak for the most distinct mountains in the district" />
		<tag k="name" v="Grevlinghøgda" />
		<tag k="natural" v="hill" />
		<tag k="place" v="locality" />
		<tag k="ssr:stedsnr" v="609637" />
	</node>
	<node id="-9776" lat="59.2163944421" lon="11.5793499957">
		<tag k="name" v="Store Kokka" />
		<tag k="natural" v="hill" />
		<tag k="place" v="locality" />
		<tag k="ssr:stedsnr" v="113966" />
	</node>
	<node id="-10197" lat="59.1731111104" lon="11.758341671">
		<tag k="alt_name" v="Kverntjernhøyda" />
		<tag k="name" v="Kverntjernshøgda" />
		<tag k="natural" v="hill" />
		<tag k="place" v="locality" />
		<tag k="ssr:stedsnr" v="548079" />
	</node>
	<node id="-10286" lat="59.1280500016" lon="11.738913883">
		<tag k="name" v="Halvfarhaugene" />
		<tag k="natural" v="hill" />
		<tag k="place" v="locality" />
		<tag k="ssr:stedsnr" v="609043" />
	</node>
	<node id="-9566" lat="59.17114722" lon="11.7309861172">
		<tag k="fixme" v="consider natural=peak for the most distinct mountains in the district" />
		<tag k="name" v="Høyås" />
		<tag k="natural" v="hill" />
		<tag k="place" v="locality" />
		<tag k="ssr:stedsnr" v="476938" />
	</node>
	<node id="-10279" lat="59.2214666679" lon="11.7831861044">
		<tag k="alt_name" v="Matholhøydene" />
		<tag k="fixme" v="consider natural=peak for the most distinct mountains in the district" />
		<tag k="name" v="Matholhøgda" />
		<tag k="natural" v="hill" />
		<tag k="place" v="locality" />
		<tag k="ssr:stedsnr" v="608138" />
	</node>
	<node id="-9649" lat="59.2338777799" lon="11.6420722233">
		<tag k="fixme" v="consider natural=peak for the most distinct mountains in the district" />
		<tag k="name" v="Fylaholtåsene" />
		<tag k="natural" v="hill" />
		<tag k="place" v="locality" />
		<tag k="ssr:stedsnr" v="38476" />
	</node>
	<node id="-10275" lat="59.1894638863" lon="11.6341055508">
		<tag k="alt_name" v="Lindtjernåsene" />
		<tag k="fixme" v="consider natural=peak for the most distinct mountains in the district" />
		<tag k="name" v="Lindtjernsåsene" />
		<tag k="natural" v="hill" />
		<tag k="place" v="locality" />
		<tag k="ssr:stedsnr" v="608069" />
	</node>
	<node id="-9762" lat="59.3056611066" lon="11.7549805604">
		<tag k="name" v="Bjørndalen" />
		<tag k="natural" v="valley" />
		<tag k="place" v="locality" />
		<tag k="ssr:stedsnr" v="112796" />
	</node>
	<node id="-9819" lat="59.2604833352" lon="11.562872217">
		<tag k="name" v="Laulunddalen" />
		<tag k="natural" v="valley" />
		<tag k="place" v="locality" />
		<tag k="ssr:stedsnr" v="159400" />
	</node>
	<node id="-10269" lat="59.2395305563" lon="11.5947055473">
		<tag k="alt_name" v="Rogdalshøyda" />
		<tag k="fixme" v="consider natural=peak for the most distinct mountains in the district" />
		<tag k="name" v="Rogdalshøgda" />
		<tag k="natural" v="hill" />
		<tag k="place" v="locality" />
		<tag k="ssr:stedsnr" v="607141" />
	</node>
	<node id="-10268" lat="59.2333972206" lon="11.7998750061">
		<tag k="alt_name" v="Skråhøyda" />
		<tag k="fixme" v="consider natural=peak for the most distinct mountains in the district" />
		<tag k="name" v="Skråhøgda" />
		<tag k="natural" v="hill" />
		<tag k="place" v="locality" />
		<tag k="ssr:stedsnr" v="607129" />
	</node>
	<node id="-10266" lat="59.2705944459" lon="11.6178861087">
		<tag k="fixme" v="consider natural=peak for the most distinct mountains in the district" />
		<tag k="name" v="Ulvedalshøyda" />
		<tag k="natural" v="hill" />
		<tag k="place" v="locality" />
		<tag k="ssr:stedsnr" v="598086" />
	</node>
	<node id="-9752" lat="59.3171444477" lon="11.7100333352">
		<tag k="fixme" v="consider natural=peak for the most distinct mountains in the district" />
		<tag k="name" v="Ingieråsen" />
		<tag k="natural" v="hill" />
		<tag k="place" v="locality" />
		<tag k="ssr:stedsnr" v="112221" />
	</node>
	<node id="-9751" lat="59.2641416636" lon="11.7532750079">
		<tag k="fixme" v="consider natural=peak for the most distinct mountains in the district" />
		<tag k="name" v="Kuåsen" />
		<tag k="natural" v="hill" />
		<tag k="place" v="locality" />
		<tag k="ssr:stedsnr" v="112180" />
	</node>
	<node id="-9750" lat="59.2347305556" lon="11.7626694493">
		<tag k="name" v="Siljedalen" />
		<tag k="natural" v="valley" />
		<tag k="place" v="locality" />
		<tag k="ssr:stedsnr" v="112163" />
	</node>
	<node id="-10261" lat="59.3190250033" lon="11.7454972145">
		<tag k="fixme" v="consider natural=peak for the most distinct mountains in the district" />
		<tag k="name" v="Kuåsen" />
		<tag k="natural" v="hill" />
		<tag k="place" v="locality" />
		<tag k="ssr:stedsnr" v="597959" />
	</node>
	<node id="-9748" lat="59.2896249958" lon="11.631097216">
		<tag k="name" v="Brudedalen" />
		<tag k="natural" v="valley" />
		<tag k="place" v="locality" />
		<tag k="ssr:stedsnr" v="112078" />
	</node>
	<node id="-10771" lat="59.1877541211" lon="11.7805162048">
		<tag k="name" v="Bikkjurda" />
		<tag k="natural" v="hill" />
		<tag k="place" v="locality" />
		<tag k="ssr:stedsnr" v="962885" />
	</node>
	<node id="-10769" lat="59.2554027754" lon="11.6043333393">
		<tag k="fixme" v="consider natural=peak for the most distinct mountains in the district" />
		<tag k="name" v="Brannskatthøyda" />
		<tag k="natural" v="hill" />
		<tag k="place" v="locality" />
		<tag k="ssr:stedsnr" v="962523" />
	</node>
	<node id="-9743" lat="59.1697249992" lon="11.6853861183">
		<tag k="name" v="Tjernsdalen" />
		<tag k="natural" v="valley" />
		<tag k="place" v="locality" />
		<tag k="ssr:stedsnr" v="112382" />
	</node>
	<node id="-9742" lat="59.1734305564" lon="11.611658342">
		<tag k="name" v="Tyvholtdalen" />
		<tag k="natural" v="valley" />
		<tag k="place" v="locality" />
		<tag k="ssr:stedsnr" v="112361" />
	</node>
	<node id="-9389" lat="59.2805083308" lon="11.7922250018">
		<tag k="fixme" v="consider natural=peak for the most distinct mountains in the district" />
		<tag k="name" v="Morttjernhøyda" />
		<tag k="natural" v="hill" />
		<tag k="place" v="locality" />
		<tag k="ssr:stedsnr" v="294814" />
	</node>
	<node id="-10763" lat="59.1363638871" lon="11.711741669">
		<tag k="name" v="Tretjernsdalen" />
		<tag k="natural" v="valley" />
		<tag k="place" v="locality" />
		<tag k="ssr:stedsnr" v="961868" />
	</node>
	<node id="-10248" lat="59.1500999998" lon="11.7502611073">
		<tag k="name" v="Kathaugen" />
		<tag k="natural" v="hill" />
		<tag k="place" v="locality" />
		<tag k="ssr:stedsnr" v="597592" />
	</node>
	<node id="-10400" lat="59.2405444472" lon="11.6710666692">
		<tag k="fixme" v="consider natural=peak for the most distinct mountains in the district" />
		<tag k="name" v="Kirkeåsen" />
		<tag k="natural" v="hill" />
		<tag k="place" v="locality" />
		<tag k="ssr:stedsnr" v="705552" />
	</node>
	<node id="-10244" lat="59.1355138891" lon="11.653350003">
		<tag k="name" v="Klaretjernåsen" />
		<tag k="natural" v="hill" />
		<tag k="place" v="locality" />
		<tag k="ssr:stedsnr" v="597417" />
	</node>
	<node id="-10755" lat="59.1197083366" lon="11.6879166676">
		<tag k="fixme" v="consider natural=peak for the most distinct mountains in the district" />
		<tag k="name" v="Kjellskashøyd" />
		<tag k="natural" v="hill" />
		<tag k="place" v="locality" />
		<tag k="ssr:stedsnr" v="961454" />
	</node>
	<node id="-10754" lat="59.1365999998" lon="11.7207138903">
		<tag k="name" v="Gravdalen" />
		<tag k="natural" v="valley" />
		<tag k="place" v="locality" />
		<tag k="ssr:stedsnr" v="961452" />
	</node>
	<node id="-9658" lat="59.2365916668" lon="11.7655916674">
		<tag k="name" v="Delingsdalen" />
		<tag k="natural" v="valley" />
		<tag k="place" v="locality" />
		<tag k="ssr:stedsnr" v="51136" />
	</node>
</osm>
