<?xml version="1.0" encoding="UTF-8"?>
<osm generator="osmapis" version="0.6">
	<node id="-10240" lat="59.2465999986" lon="11.6513888903">
		<tag k="name" v="Korset" />
		<tag k="place" v="locality" />
		<tag k="ssr:stedsnr" v="597307" />
	</node>
	<node id="-10216" lat="59.2967083302" lon="11.6376166629">
		<tag k="name" v="Søndre Pina" />
		<tag k="place" v="locality" />
		<tag k="ssr:stedsnr" v="583040" />
	</node>
	<node id="-10214" lat="59.3244888861" lon="11.6942333326">
		<tag k="name" v="Hagen" />
		<tag k="place" v="isolated_dwelling" />
		<tag k="ssr:stedsnr" v="583006" />
	</node>
	<node id="-10212" lat="59.2385527768" lon="11.6922527746">
		<tag k="name" v="Vikheim" />
		<tag k="place" v="farm" />
		<tag k="ssr:stedsnr" v="582436" />
	</node>
	<node id="-10211" lat="59.1846750045" lon="11.6706249997">
		<tag k="name" v="Vestlifeltet" />
		<tag k="place" v="quarter" />
		<tag k="ssr:stedsnr" v="567222" />
	</node>
	<node id="-10207" lat="59.2604111109" lon="11.780819442">
		<tag k="alt_name" v="Klokkestein" />
		<tag k="name" v="Klokkesten" />
		<tag k="place" v="farm" />
		<tag k="ssr:stedsnr" v="549715" />
	</node>
	<node id="-10206" lat="59.2713472223" lon="11.7663722232">
		<tag k="name" v="Røser" />
		<tag k="place" v="farm" />
		<tag k="ssr:stedsnr" v="549705" />
	</node>
	<node id="-10205" lat="59.2737472198" lon="11.7815222302">
		<tag k="name" v="Engerødegården" />
		<tag k="place" v="farm" />
		<tag k="ssr:stedsnr" v="549688" />
	</node>
	<node id="-10202" lat="59.3057500034" lon="11.6593361178">
		<tag k="fixme" v="consider place=hamlet" />
		<tag k="name" v="Strøm" />
		<tag k="place" v="farm" />
		<tag k="ssr:stedsnr" v="549637" />
	</node>
	<node id="-10196" lat="59.1814194469" lon="11.7312388926">
		<tag k="alt_name" v="Aspestrand østre;Østgården" />
		<tag k="fixme" v="consider place=hamlet" />
		<tag k="name" v="Østre Aspestrand" />
		<tag k="place" v="farm" />
		<tag k="ssr:stedsnr" v="548078" />
	</node>
	<node id="-10195" lat="59.1929027784" lon="11.6751916594">
		<tag k="fixme" v="consider place=hamlet" />
		<tag k="name" v="Årbu" />
		<tag k="place" v="farm" />
		<tag k="ssr:stedsnr" v="548068" />
	</node>
	<node id="-10190" lat="59.1427444436" lon="11.7600749952">
		<tag k="name" v="Myra" />
		<tag k="place" v="farm" />
		<tag k="ssr:stedsnr" v="548019" />
	</node>
	<node id="-10185" lat="59.2158444417" lon="11.7101083267">
		<tag k="alt_name" v="Gjerdsenga" />
		<tag k="name" v="Jersengen" />
		<tag k="place" v="farm" />
		<tag k="ssr:stedsnr" v="547181" />
	</node>
	<node id="-10183" lat="59.2382694449" lon="11.6749027811">
		<tag k="name" v="Tangen" />
		<tag k="place" v="locality" />
		<tag k="ssr:stedsnr" v="547152" />
	</node>
	<node id="-10162" lat="59.2437833363" lon="11.6414166713">
		<tag k="name" v="Gressholt" />
		<tag k="place" v="locality" />
		<tag k="ssr:stedsnr" v="537278" />
	</node>
	<node id="-10158" lat="59.2611591278" lon="11.7439609849">
		<tag k="fixme" v="consider place=hamlet" />
		<tag k="name" v="Hallesby" />
		<tag k="place" v="farm" />
		<tag k="ssr:stedsnr" v="537135" />
	</node>
	<node id="-10157" lat="59.2576194463" lon="11.7013194522">
		<tag k="alt_name" v="Iglerød nordre" />
		<tag k="name" v="Nordre Iglerød" />
		<tag k="place" v="farm" />
		<tag k="ssr:stedsnr" v="537069" />
	</node>
	<node id="-10152" lat="59.2494000026" lon="11.7467888834">
		<tag k="name" v="Nordre Kollerød" />
		<tag k="place" v="farm" />
		<tag k="ssr:stedsnr" v="536782" />
	</node>
	<node id="-10147" lat="59.2679888913" lon="11.7824055523">
		<tag k="name" v="Leksrødkasene" />
		<tag k="place" v="isolated_dwelling" />
		<tag k="ssr:stedsnr" v="536147" />
	</node>
	<node id="-10139" lat="59.3053749962" lon="11.646211106">
		<tag k="name" v="Østre Torget" />
		<tag k="place" v="isolated_dwelling" />
		<tag k="ssr:stedsnr" v="536046" />
	</node>
	<node id="-10138" lat="59.3057583344" lon="11.6437805512">
		<tag k="name" v="Vestre Torget" />
		<tag k="place" v="locality" />
		<tag k="ssr:stedsnr" v="536045" />
	</node>
	<node id="-10131" lat="59.2460722207" lon="11.7157194513">
		<tag k="name" v="Holmen" />
		<tag k="place" v="locality" />
		<tag k="ssr:stedsnr" v="523535" />
	</node>
	<node id="-10130" lat="59.2281777773" lon="11.72795278">
		<tag k="name" v="Espelund" />
		<tag k="place" v="farm" />
		<tag k="ssr:stedsnr" v="523533" />
	</node>
	<node id="-10124" lat="59.3074888893" lon="11.6606805589">
		<tag k="name" v="Nordre Strøm" />
		<tag k="place" v="farm" />
		<tag k="ssr:stedsnr" v="523055" />
	</node>
	<node id="-10122" lat="59.2405499969" lon="11.6943916693">
		<tag k="name" v="Nordre Wiig" />
		<tag k="place" v="farm" />
		<tag k="ssr:stedsnr" v="522455" />
	</node>
	<node id="-10118" lat="59.2595861068" lon="11.7409472197">
		<tag k="alt_name" v="Hallesby søndre;Søndre Hallesby" />
		<tag k="name" v="Sør-Hallesby" />
		<tag k="place" v="farm" />
		<tag k="ssr:stedsnr" v="489759" />
	</node>
	<node id="-10117" lat="59.2674527742" lon="11.6829861165">
		<tag k="alt_name" v="Fangekasa" />
		<tag k="name" v="Kasa" />
		<tag k="place" v="farm" />
		<tag k="ssr:stedsnr" v="489752" />
	</node>
	<node id="-10115" lat="59.2780888873" lon="11.7818944434">
		<tag k="name" v="Nyset" />
		<tag k="place" v="farm" />
		<tag k="ssr:stedsnr" v="488692" />
	</node>
	<node id="-10114" lat="59.2803111109" lon="11.6456694466">
		<tag k="alt_name" v="Rivegård" />
		<tag k="name" v="Riveødegård" />
		<tag k="place" v="farm" />
		<tag k="ssr:stedsnr" v="488680" />
	</node>
	<node id="-10113" lat="59.2835444461" lon="11.64553334">
		<tag k="alt_name" v="Lervik søndre" />
		<tag k="name" v="Søndre Lervik" />
		<tag k="place" v="farm" />
		<tag k="ssr:stedsnr" v="488655" />
	</node>
	<node id="-10109" lat="59.1428111079" lon="11.7622333395">
		<tag k="alt_name" v="Store Bjerkebekk;Bjerkebekk" />
		<tag k="name" v="Bjørkebekk" />
		<tag k="place" v="farm" />
		<tag k="ssr:stedsnr" v="488019" />
	</node>
	<node id="-10106" lat="59.207761108" lon="11.7241333305">
		<tag k="name" v="Haug" />
		<tag k="place" v="hamlet" />
		<tag k="ssr:stedsnr" v="487175" />
	</node>
	<node id="-10105" lat="59.196447223" lon="11.7204638834">
		<tag k="fixme" v="multiple name tags, choose one and add the other to alt_name" />
		<tag k="name" v="Bikkjerød;Glennekasa" />
		<tag k="place" v="farm" />
		<tag k="ssr:stedsnr" v="487172" />
	</node>
	<node id="-10103" lat="59.2187194453" lon="11.7327666743">
		<tag k="name" v="Tolverød" />
		<tag k="place" v="farm" />
		<tag k="ssr:stedsnr" v="487167" />
	</node>
	<node id="-10102" lat="59.2225629666" lon="11.6964073868">
		<tag k="fixme" v="consider place=hamlet" />
		<tag k="name" v="Fossby" />
		<tag k="place" v="farm" />
		<tag k="ssr:stedsnr" v="487154" />
	</node>
	<node id="-10100" lat="59.1594305582" lon="11.7301388849">
		<tag k="name" v="Tripperød" />
		<tag k="place" v="isolated_dwelling" />
		<tag k="ssr:stedsnr" v="487101" />
	</node>
	<node id="-10096" lat="59.290400004" lon="11.646675003">
		<tag k="fixme" v="consider place=hamlet" />
		<tag k="name" v="Lervik" />
		<tag k="place" v="farm" />
		<tag k="ssr:stedsnr" v="488649" />
	</node>
	<node id="-10095" lat="59.2519611116" lon="11.6439638804">
		<tag k="name" v="Teigen" />
		<tag k="place" v="farm" />
		<tag k="ssr:stedsnr" v="488605" />
	</node>
	<node id="-10088" lat="59.2299805581" lon="11.740072227">
		<tag k="name" v="Frydenlund" />
		<tag k="place" v="farm" />
		<tag k="ssr:stedsnr" v="486102" />
	</node>
	<node id="-10087" lat="59.2423805585" lon="11.6822777757">
		<tag k="alt_name" v="Kirkeng nordre" />
		<tag k="name" v="Nordre Kirkeng" />
		<tag k="place" v="farm" />
		<tag k="ssr:stedsnr" v="483186" />
	</node>
	<node id="-10086" lat="59.2553583344" lon="11.6799638872">
		<tag k="name" v="Arebekken" />
		<tag k="place" v="neighbourhood" />
		<tag k="ssr:stedsnr" v="466027" />
	</node>
	<node id="-10085" lat="59.2802666641" lon="11.6776916703">
		<tag k="name" v="Fangebukta" />
		<tag k="place" v="neighbourhood" />
		<tag k="ssr:stedsnr" v="466025" />
	</node>
	<node id="-10084" lat="59.2390499985" lon="11.6829972135">
		<tag k="name" v="Kirkeng" />
		<tag k="place" v="neighbourhood" />
		<tag k="ssr:stedsnr" v="466026" />
	</node>
	<node id="-10081" lat="59.246455556" lon="11.6916138946">
		<tag k="name" v="Nybo" />
		<tag k="place" v="isolated_dwelling" />
		<tag k="ssr:stedsnr" v="462472" />
	</node>
	<node id="-10080" lat="59.2289194415" lon="11.7242777844">
		<tag k="name" v="Bekkevangen" />
		<tag k="place" v="locality" />
		<tag k="ssr:stedsnr" v="462461" />
	</node>
	<node id="-10076" lat="59.2983055598" lon="11.6369138971">
		<tag k="name" v="Nordre Pina" />
		<tag k="place" v="locality" />
		<tag k="ssr:stedsnr" v="462046" />
	</node>
	<node id="-10070" lat="59.2632749978" lon="11.7605583244">
		<tag k="alt_name" v="Torkildsrød" />
		<tag k="name" v="Torkelsrød" />
		<tag k="place" v="farm" />
		<tag k="ssr:stedsnr" v="428718" />
	</node>
	<node id="-10069" lat="59.26611667" lon="11.6512027768">
		<tag k="alt_name" v="Holt" />
		<tag k="name" v="Østre Holt" />
		<tag k="place" v="farm" />
		<tag k="ssr:stedsnr" v="428711" />
	</node>
	<node id="-10068" lat="59.2661226308" lon="11.6459426603">
		<tag k="fixme" v="consider place=hamlet" />
		<tag k="name" v="Holt" />
		<tag k="place" v="farm" />
		<tag k="ssr:stedsnr" v="428710" />
	</node>
	<node id="-10066" lat="59.282197224" lon="11.6964555509">
		<tag k="name" v="Nordby" />
		<tag k="place" v="farm" />
		<tag k="ssr:stedsnr" v="428689" />
	</node>
	<node id="-10064" lat="59.2901111131" lon="11.677305557">
		<tag k="alt_name" v="Fange mellem;Fange" />
		<tag k="name" v="Mellom-Fange" />
		<tag k="old_name" v="Mellem-Fange" />
		<tag k="place" v="farm" />
		<tag k="ssr:stedsnr" v="428671" />
	</node>
	<node id="-10053" lat="59.2400944434" lon="11.6484944512">
		<tag k="alt_name" v="Buerødegård" />
		<tag k="name" v="Buerøgården" />
		<tag k="place" v="isolated_dwelling" />
		<tag k="ssr:stedsnr" v="427271" />
	</node>
	<node id="-10052" lat="59.2430333327" lon="11.6456027838">
		<tag k="name" v="Bakkeli" />
		<tag k="place" v="isolated_dwelling" />
		<tag k="ssr:stedsnr" v="427270" />
	</node>
	<node id="-10051" lat="59.2465611132" lon="11.6838333328">
		<tag k="alt_name" v="Prestegården" />
		<tag k="name" v="Aremark prestegård" />
		<tag k="place" v="farm" />
		<tag k="ssr:stedsnr" v="427268" />
	</node>
	<node id="-10048" lat="59.174355554" lon="11.6266361147">
		<tag k="name" v="Grøte" />
		<tag k="place" v="locality" />
		<tag k="ssr:stedsnr" v="427110" />
	</node>
	<node id="-10046" lat="59.1835388926" lon="11.6682083316">
		<tag k="name" v="Berger" />
		<tag k="place" v="farm" />
		<tag k="ssr:stedsnr" v="427101" />
	</node>
	<node id="-10040" lat="59.140266667" lon="11.7460250062">
		<tag k="name" v="Kasa" />
		<tag k="place" v="farm" />
		<tag k="ssr:stedsnr" v="427019" />
	</node>
	<node id="-10039" lat="59.1508888901" lon="11.7506527829">
		<tag k="name" v="Sand" />
		<tag k="place" v="farm" />
		<tag k="ssr:stedsnr" v="427008" />
	</node>
	<node id="-10038" lat="59.1480328823" lon="11.7505220526">
		<tag k="alt_name" v="Nordgården" />
		<tag k="fixme" v="multiple name tags, choose one and add the other to alt_name" />
		<tag k="name" v="Bjerkebekk;Nordgård" />
		<tag k="place" v="farm" />
		<tag k="ssr:stedsnr" v="427007" />
	</node>
	<node id="-10031" lat="59.1995944402" lon="11.7050333287">
		<tag k="name" v="Fossen" />
		<tag k="place" v="farm" />
		<tag k="ssr:stedsnr" v="426180" />
	</node>
	<node id="-10030" lat="59.2013638857" lon="11.7373916735">
		<tag k="name" v="Rødsmoen" />
		<tag k="place" v="locality" />
		<tag k="ssr:stedsnr" v="426178" />
	</node>
	<node id="-10026" lat="59.2303416709" lon="11.7814416584">
		<tag k="name" v="Kollerødhytta" />
		<tag k="place" v="isolated_dwelling" />
		<tag k="ssr:stedsnr" v="426133" />
	</node>
	<node id="-10024" lat="59.3078916697" lon="11.6244944529">
		<tag k="name" v="Våla" />
		<tag k="place" v="neighbourhood" />
		<tag k="ssr:stedsnr" v="419130" />
	</node>
	<node id="-10023" lat="59.1904277753" lon="11.6809861069">
		<tag k="name" v="Bakås" />
		<tag k="place" v="locality" />
		<tag k="ssr:stedsnr" v="416990" />
	</node>
	<node id="-10020" lat="59.2006083371" lon="11.7298333393">
		<tag k="fixme" v="consider place=hamlet" />
		<tag k="name" v="Rød" />
		<tag k="place" v="farm" />
		<tag k="ssr:stedsnr" v="416892" />
	</node>
	<node id="-10017" lat="59.2171555539" lon="11.6292805516">
		<tag k="name" v="Nordbyseter" />
		<tag k="place" v="locality" />
		<tag k="ssr:stedsnr" v="416304" />
	</node>
	<node id="-10016" lat="59.3126972191" lon="11.5958694475">
		<tag k="name" v="Søndre Kilebråten" />
		<tag k="place" v="farm" />
		<tag k="ssr:stedsnr" v="416305" />
	</node>
	<node id="-10014" lat="59.2146194425" lon="11.6960805606">
		<tag k="name" v="Nedre Flateby" />
		<tag k="place" v="farm" />
		<tag k="ssr:stedsnr" v="416294" />
	</node>
	<node id="-10008" lat="59.298647223" lon="11.7569250032">
		<tag k="alt_name" v="Størholt nordre" />
		<tag k="name" v="Nordre Størholt" />
		<tag k="place" v="locality" />
		<tag k="ssr:stedsnr" v="415965" />
	</node>
	<node id="-10005" lat="59.1585805554" lon="11.6532138895">
		<tag k="alt_name" v="Østensvik øvre" />
		<tag k="name" v="Øvre Østensvik" />
		<tag k="place" v="farm" />
		<tag k="ssr:stedsnr" v="415535" />
	</node>
	<node id="-9987" lat="59.2216388907" lon="11.6964249946">
		<tag k="fixme" v="consider place=hamlet" />
		<tag k="name" v="Fossby" />
		<tag k="place" v="village" />
		<tag k="ssr:stedsnr" v="267329" />
	</node>
	<node id="-9982" lat="59.2753916684" lon="11.7591499993">
		<tag k="name" v="Lajordet" />
		<tag k="place" v="farm" />
		<tag k="ssr:stedsnr" v="246672" />
	</node>
	<node id="-9979" lat="59.2969361075" lon="11.6572499981">
		<tag k="fixme" v="consider place=hamlet" />
		<tag k="name" v="Nes" />
		<tag k="place" v="farm" />
		<tag k="ssr:stedsnr" v="246646" />
	</node>
	<node id="-9974" lat="59.254941666" lon="11.6865972213">
		<tag k="name" v="Arebekken" />
		<tag k="place" v="farm" />
		<tag k="ssr:stedsnr" v="245600" />
	</node>
	<node id="-9972" lat="59.2382944484" lon="11.7873000036">
		<tag k="name" v="Doktorhytta" />
		<tag k="place" v="isolated_dwelling" />
		<tag k="ssr:stedsnr" v="245221" />
	</node>
	<node id="-9970" lat="59.0811333343" lon="11.6818611073">
		<tag k="name" v="Ørnelund" />
		<tag k="place" v="locality" />
		<tag k="ssr:stedsnr" v="244502" />
	</node>
	<node id="-9962" lat="59.2175055529" lon="11.755141667">
		<tag k="alt_name" v="Spanndalen" />
		<tag k="name" v="Spondalen" />
		<tag k="place" v="farm" />
		<tag k="ssr:stedsnr" v="244174" />
	</node>
	<node id="-9957" lat="59.2356166625" lon="11.6917249927">
		<tag k="name" v="Haugland" />
		<tag k="place" v="farm" />
		<tag k="ssr:stedsnr" v="244151" />
	</node>
	<node id="-9955" lat="59.2343499988" lon="11.742294449">
		<tag k="name" v="Rovedal" />
		<tag k="place" v="farm" />
		<tag k="ssr:stedsnr" v="244139" />
	</node>
	<node id="-9954" lat="59.1820194447" lon="11.7202277854">
		<tag k="alt_name" v="Aspestrand vestre;Aspestrand;Vestgården" />
		<tag k="fixme" v="consider place=hamlet" />
		<tag k="name" v="Vestre Aspestrand" />
		<tag k="place" v="farm" />
		<tag k="ssr:stedsnr" v="244102" />
	</node>
	<node id="-9953" lat="59.1812111114" lon="11.604933331">
		<tag k="name" v="Moen" />
		<tag k="place" v="farm" />
		<tag k="ssr:stedsnr" v="244088" />
	</node>
	<node id="-9951" lat="59.1919277739" lon="11.7353388882">
		<tag k="name" v="Rødsholtet" />
		<tag k="place" v="farm" />
		<tag k="ssr:stedsnr" v="244080" />
	</node>
	<node id="-9946" lat="59.1449638868" lon="11.730105548">
		<tag k="name" v="Øvre Holmegil" />
		<tag k="place" v="farm" />
		<tag k="ssr:stedsnr" v="234925" />
	</node>
	<node id="-9943" lat="59.3236694422" lon="11.6572166713">
		<tag k="name" v="Klokkerhytta" />
		<tag k="place" v="isolated_dwelling" />
		<tag k="ssr:stedsnr" v="234400" />
	</node>
	<node id="-9933" lat="59.2124555541" lon="11.7538249992">
		<tag k="name" v="Nordre Bråtane" />
		<tag k="place" v="locality" />
		<tag k="ssr:stedsnr" v="233240" />
	</node>
	<node id="-9930" lat="59.2305166698" lon="11.7521250086">
		<tag k="name" v="Vegne" />
		<tag k="place" v="farm" />
		<tag k="ssr:stedsnr" v="233148" />
	</node>
	<node id="-9928" lat="59.2767027794" lon="11.6405277795">
		<tag k="name" v="Søndre Dagerød" />
		<tag k="place" v="farm" />
		<tag k="ssr:stedsnr" v="233093" />
	</node>
	<node id="-9918" lat="59.2619499958" lon="11.6422638821">
		<tag k="name" v="Nordre Følingen" />
		<tag k="place" v="farm" />
		<tag k="ssr:stedsnr" v="220491" />
	</node>
	<node id="-9916" lat="59.3188138912" lon="11.7218388836">
		<tag k="name" v="Øvre Sørenskas" />
		<tag k="place" v="locality" />
		<tag k="ssr:stedsnr" v="220289" />
	</node>
	<node id="-9913" lat="59.2286527794" lon="11.6974694425">
		<tag k="name" v="Myrland" />
		<tag k="place" v="farm" />
		<tag k="ssr:stedsnr" v="219453" />
	</node>
	<node id="-9907" lat="59.2626333323" lon="11.8194722233">
		<tag k="name" v="Sikerød" />
		<tag k="place" v="isolated_dwelling" />
		<tag k="ssr:stedsnr" v="185709" />
	</node>
	<node id="-9906" lat="59.2565305535" lon="11.7650999941">
		<tag k="name" v="Moen" />
		<tag k="place" v="farm" />
		<tag k="ssr:stedsnr" v="185706" />
	</node>
	<node id="-9905" lat="59.2886777808" lon="11.7028166748">
		<tag k="alt_name" v="Fangesætret, nordre;Fangesætre;Nordre Fangesætret" />
		<tag k="name" v="Nordre Fangesetret" />
		<tag k="place" v="farm" />
		<tag k="ssr:stedsnr" v="185651" />
	</node>
	<node id="-9904" lat="59.2831416656" lon="11.7775500055">
		<tag k="name" v="Enger" />
		<tag k="place" v="farm" />
		<tag k="ssr:stedsnr" v="185649" />
	</node>
	<node id="-9902" lat="59.295994443" lon="11.7422527852">
		<tag k="name" v="Knatterød" />
		<tag k="place" v="locality" />
		<tag k="ssr:stedsnr" v="185631" />
	</node>
	<node id="-9896" lat="59.2726722209" lon="11.6629638817">
		<tag k="alt_name" v="Rive søndre" />
		<tag k="name" v="Søndre Rive" />
		<tag k="place" v="farm" />
		<tag k="ssr:stedsnr" v="185678" />
	</node>
	<node id="-9891" lat="59.0521916687" lon="11.7372583303">
		<tag k="fixme" v="consider tourism=alpine_hut or tourism=chalet" />
		<tag k="name" v="Budalsvika" />
		<tag k="ssr:stedsnr" v="184445" />
		<tag k="tourism" v="wilderness_hut" />
	</node>
	<node id="-9881" lat="59.1367277822" lon="11.7744194493">
		<tag k="alt_name" v="Allingmoen" />
		<tag k="name" v="Alingmoen" />
		<tag k="place" v="farm" />
		<tag k="ssr:stedsnr" v="184027" />
	</node>
	<node id="-9880" lat="59.1386805524" lon="11.7443777779">
		<tag k="alt_name" v="Kvernmoen" />
		<tag k="name" v="Kvernemoen" />
		<tag k="place" v="isolated_dwelling" />
		<tag k="ssr:stedsnr" v="184022" />
	</node>
	<node id="-9879" lat="59.1503527763" lon="11.7645888811">
		<tag k="name" v="Kolsbu" />
		<tag k="place" v="isolated_dwelling" />
		<tag k="ssr:stedsnr" v="184010" />
	</node>
	<node id="-9874" lat="59.2281583337" lon="11.7030055509">
		<tag k="alt_name" v="Myrene" />
		<tag k="name" v="Myrane" />
		<tag k="place" v="farm" />
		<tag k="ssr:stedsnr" v="183143" />
	</node>
	<node id="-9873" lat="59.227655554" lon="11.7270694379">
		<tag k="fixme" v="consider place=hamlet" />
		<tag k="name" v="Espelund" />
		<tag k="place" v="farm" />
		<tag k="ssr:stedsnr" v="183142" />
	</node>
	<node id="-9871" lat="59.2371722267" lon="11.696055549">
		<tag k="name" v="Lundeby" />
		<tag k="place" v="farm" />
		<tag k="ssr:stedsnr" v="183108" />
	</node>
	<node id="-9862" lat="59.1465666701" lon="11.7402194508">
		<tag k="name" v="Haugen" />
		<tag k="place" v="farm" />
		<tag k="ssr:stedsnr" v="173920" />
	</node>
	<node id="-9856" lat="59.2161861071" lon="11.7092611047">
		<tag k="name" v="Jersengen" />
		<tag k="place" v="farm" />
		<tag k="ssr:stedsnr" v="173283" />
	</node>
	<node id="-9849" lat="59.2778527797" lon="11.8038055609">
		<tag k="name" v="Hjerpenes" />
		<tag k="place" v="locality" />
		<tag k="ssr:stedsnr" v="172831" />
	</node>
	<node id="-9830" lat="59.3140263686" lon="11.7212551353">
		<tag k="alt_name" v="Søndre Bøensætre" />
		<tag k="name" v="Søndre Bøensetret" />
		<tag k="place" v="isolated_dwelling" />
		<tag k="ssr:stedsnr" v="172180" />
	</node>
	<node id="-9816" lat="59.2849666625" lon="11.6094555532">
		<tag k="name" v="Berggrøthytta" />
		<tag k="place" v="locality" />
		<tag k="ssr:stedsnr" v="159365" />
	</node>
	<node id="-9815" lat="59.3075916651" lon="11.715738881">
		<tag k="name" v="Langenes" />
		<tag k="place" v="locality" />
		<tag k="ssr:stedsnr" v="159057" />
	</node>
	<node id="-9811" lat="59.2965333346" lon="11.6577499983">
		<tag k="name" v="Søndre Nes" />
		<tag k="place" v="farm" />
		<tag k="ssr:stedsnr" v="159027" />
	</node>
	<node id="-9810" lat="59.2256166649" lon="11.715933336">
		<tag k="name" v="Holtekasa" />
		<tag k="place" v="farm" />
		<tag k="ssr:stedsnr" v="158454" />
	</node>
	<node id="-9806" lat="59.276541666" lon="11.58463611">
		<tag k="name" v="Kutjernshytta" />
		<tag k="place" v="isolated_dwelling" />
		<tag k="ssr:stedsnr" v="158353" />
	</node>
	<node id="-9798" lat="59.2723972237" lon="11.6809861146">
		<tag k="name" v="Rud" />
		<tag k="place" v="farm" />
		<tag k="ssr:stedsnr" v="124672" />
	</node>
	<node id="-9795" lat="59.2764972232" lon="11.6470583399">
		<tag k="name" v="Ødegården" />
		<tag k="place" v="locality" />
		<tag k="ssr:stedsnr" v="124638" />
	</node>
	<node id="-9790" lat="59.3186448161" lon="11.7213514613">
		<tag k="alt_name" v="Nedre Sørenskas" />
		<tag k="name" v="Sørenskas" />
		<tag k="place" v="isolated_dwelling" />
		<tag k="ssr:stedsnr" v="124592" />
	</node>
	<node id="-9789" lat="59.236938885" lon="11.8160361107">
		<tag k="name" v="Bråten" />
		<tag k="place" v="isolated_dwelling" />
		<tag k="ssr:stedsnr" v="123267" />
	</node>
	<node id="-9788" lat="59.1652861113" lon="11.6513361165">
		<tag k="name" v="Slorer" />
		<tag k="place" v="farm" />
		<tag k="ssr:stedsnr" v="123125" />
	</node>
	<node id="-9787" lat="59.1827527752" lon="11.6154861059">
		<tag k="name" v="Sørli" />
		<tag k="place" v="farm" />
		<tag k="ssr:stedsnr" v="123093" />
	</node>
	<node id="-9785" lat="59.1521861156" lon="11.6612333347">
		<tag k="alt_name" v="Østensvik nedre" />
		<tag k="name" v="Nedre Østensvik" />
		<tag k="place" v="farm" />
		<tag k="ssr:stedsnr" v="123003" />
	</node>
	<node id="-9783" lat="59.1123750029" lon="11.7661361065">
		<tag k="name" v="Neverlund" />
		<tag k="place" v="farm" />
		<tag k="ssr:stedsnr" v="122449" />
	</node>
	<node id="-9781" lat="59.2167638918" lon="11.7172805523">
		<tag k="fixme" v="consider place=hamlet" />
		<tag k="name" v="Kopperød" />
		<tag k="place" v="farm" />
		<tag k="ssr:stedsnr" v="122154" />
	</node>
	<node id="-9779" lat="59.2336083293" lon="11.5834555516">
		<tag k="name" v="Fjell" />
		<tag k="place" v="locality" />
		<tag k="ssr:stedsnr" v="122126" />
	</node>
	<node id="-9773" lat="59.241685908" lon="11.6466572212">
		<tag k="name" v="Åsheim" />
		<tag k="place" v="farm" />
		<tag k="ssr:stedsnr" v="113295" />
	</node>
	<node id="-9772" lat="59.2514361141" lon="11.715233337">
		<tag k="alt_name" v="Langedal nordre" />
		<tag k="name" v="Nordre Langedal" />
		<tag k="place" v="farm" />
		<tag k="ssr:stedsnr" v="113069" />
	</node>
	<node id="-9771" lat="59.2564861108" lon="11.6953694511">
		<tag k="name" v="Aspelund" />
		<tag k="place" v="farm" />
		<tag k="ssr:stedsnr" v="113066" />
	</node>
	<node id="-9769" lat="59.332066664" lon="11.7546916734">
		<tag k="alt_name" v="Korneliussætre" />
		<tag k="name" v="Korneliussetret" />
		<tag k="place" v="locality" />
		<tag k="ssr:stedsnr" v="112947" />
	</node>
	<node id="-9766" lat="59.1965111138" lon="11.6179916599">
		<tag k="fixme" v="multiple name tags, choose one and add the other to alt_name" />
		<tag k="name" v="Valbergsetret;Svensbysetret" />
		<tag k="place" v="locality" />
		<tag k="ssr:stedsnr" v="112885" />
	</node>
	<node id="-9765" lat="59.1997916626" lon="11.7047916667">
		<tag k="name" v="Fossen" />
		<tag k="place" v="locality" />
		<tag k="ssr:stedsnr" v="112881" />
	</node>
	<node id="-9763" lat="59.2635166626" lon="11.7905888914">
		<tag k="name" v="Gubberød" />
		<tag k="place" v="isolated_dwelling" />
		<tag k="ssr:stedsnr" v="112861" />
	</node>
	<node id="-9761" lat="59.2482444435" lon="11.758536116">
		<tag k="name" v="Bakkene" />
		<tag k="place" v="isolated_dwelling" />
		<tag k="ssr:stedsnr" v="112786" />
	</node>
	<node id="-9758" lat="59.1432500035" lon="11.7529999954">
		<tag k="alt_name" v="Bjerkebekk" />
		<tag k="name" v="Bjørkebekk" />
		<tag k="place" v="hamlet" />
		<tag k="ssr:stedsnr" v="112932" />
	</node>
	<node id="-9744" lat="59.1431444457" lon="11.6597999924">
		<tag k="name" v="Sund" />
		<tag k="place" v="farm" />
		<tag k="ssr:stedsnr" v="111482" />
	</node>
	<node id="-9740" lat="59.1303277747" lon="11.7555638876">
		<tag k="name" v="Søndre Svarød" />
		<tag k="place" v="locality" />
		<tag k="ssr:stedsnr" v="112319" />
	</node>
	<node id="-9735" lat="59.2410583364" lon="11.6875583385">
		<tag k="loc_name" v="Listeberg" />
		<tag k="name" v="Listeberghaugen" />
		<tag k="place" v="quarter" />
		<tag k="ssr:stedsnr" v="98492" />
	</node>
	<node id="-9734" lat="59.2253916665" lon="11.7275555487">
		<tag k="name" v="Østre Espelund" />
		<tag k="place" v="farm" />
		<tag k="ssr:stedsnr" v="98486" />
	</node>
	<node id="-9725" lat="59.2913277818" lon="11.6388666709">
		<tag k="name" v="Hyllestad" />
		<tag k="place" v="locality" />
		<tag k="ssr:stedsnr" v="98036" />
	</node>
	<node id="-9723" lat="59.2580111154" lon="11.6880694366">
		<tag k="name" v="Skjulstad" />
		<tag k="place" v="farm" />
		<tag k="ssr:stedsnr" v="64741" />
	</node>
	<node id="-9721" lat="59.2646472211" lon="11.7987027776">
		<tag k="name" v="Tolsby" />
		<tag k="place" v="farm" />
		<tag k="ssr:stedsnr" v="64729" />
	</node>
	<node id="-9720" lat="59.2745666694" lon="11.6439777838">
		<tag k="name" v="Hola" />
		<tag k="place" v="locality" />
		<tag k="ssr:stedsnr" v="64716" />
	</node>
	<node id="-9718" lat="59.3143449419" lon="11.7223174631">
		<tag k="name" v="Bøensetret" />
		<tag k="place" v="farm" />
		<tag k="ssr:stedsnr" v="64656" />
	</node>
	<node id="-9716" lat="59.3285638877" lon="11.6342666728">
		<tag k="alt_name" v="Vatnemellem" />
		<tag k="name" v="Vatnemellom" />
		<tag k="place" v="locality" />
		<tag k="ssr:stedsnr" v="64631" />
	</node>
	<node id="-9714" lat="59.250947223" lon="11.6536388942">
		<tag k="name" v="Buer" />
		<tag k="place" v="farm" />
		<tag k="ssr:stedsnr" v="64616" />
	</node>
	<node id="-9713" lat="59.1633666698" lon="11.6373083353">
		<tag k="name" v="Slorerkasa" />
		<tag k="place" v="locality" />
		<tag k="ssr:stedsnr" v="63127" />
	</node>
	<node id="-9712" lat="59.1725174896" lon="11.6548733862">
		<tag k="fixme" v="consider place=hamlet" />
		<tag k="name" v="Åsgård" />
		<tag k="place" v="farm" />
		<tag k="ssr:stedsnr" v="63114" />
	</node>
	<node id="-9711" lat="59.1748472259" lon="11.694136114">
		<tag k="name" v="Grinder" />
		<tag k="place" v="farm" />
		<tag k="ssr:stedsnr" v="63111" />
	</node>
	<node id="-9705" lat="59.153280559" lon="11.6790583268">
		<tag k="name" v="Rustad" />
		<tag k="place" v="isolated_dwelling" />
		<tag k="ssr:stedsnr" v="63001" />
	</node>
	<node id="-9702" lat="59.0595138901" lon="11.6828083374">
		<tag k="name" v="Skogen" />
		<tag k="place" v="locality" />
		<tag k="ssr:stedsnr" v="62385" />
	</node>
	<node id="-9699" lat="59.2422833353" lon="11.6822527727">
		<tag k="name" v="Kirkeng" />
		<tag k="place" v="farm" />
		<tag k="ssr:stedsnr" v="62234" />
	</node>
	<node id="-9697" lat="59.2144500029" lon="11.7353861146">
		<tag k="name" v="Rønningen" />
		<tag k="place" v="farm" />
		<tag k="ssr:stedsnr" v="62158" />
	</node>
	<node id="-9695" lat="59.2326749961" lon="11.6637694517">
		<tag k="name" v="Plassen" />
		<tag k="place" v="farm" />
		<tag k="ssr:stedsnr" v="62136" />
	</node>
	<node id="-9690" lat="59.1889249958" lon="11.7331000076">
		<tag k="name" v="Løverød" />
		<tag k="place" v="farm" />
		<tag k="ssr:stedsnr" v="62066" />
	</node>
	<node id="-9687" lat="59.21801111" lon="11.6914583369">
		<tag k="alt_name" v="Fladebyåsen" />
		<tag k="name" v="Flatebyåsen" />
		<tag k="place" v="quarter" />
		<tag k="ssr:stedsnr" v="59117" />
	</node>
	<node id="-9685" lat="59.2459888921" lon="11.6636194453">
		<tag k="name" v="Buer" />
		<tag k="place" v="neighbourhood" />
		<tag k="ssr:stedsnr" v="55117" />
	</node>
	<node id="-9677" lat="59.2029277753" lon="11.6952805472">
		<tag k="name" v="Sommerro" />
		<tag k="old_name" v="Sommero" />
		<tag k="place" v="isolated_dwelling" />
		<tag k="ssr:stedsnr" v="52883" />
	</node>
	<node id="-9676" lat="59.1955472231" lon="11.6785499982">
		<tag k="alt_name" v="Mørholt nedre" />
		<tag k="name" v="Nedre Mørholt" />
		<tag k="place" v="farm" />
		<tag k="ssr:stedsnr" v="52882" />
	</node>
	<node id="-9670" lat="59.2234472225" lon="11.7014222298">
		<tag k="alt_name" v="Fosbyåsen" />
		<tag k="name" v="Fossbyåsen" />
		<tag k="place" v="quarter" />
		<tag k="ssr:stedsnr" v="52278" />
	</node>
	<node id="-9669" lat="59.2098861073" lon="11.6915722212">
		<tag k="name" v="Søndre Skotsberg" />
		<tag k="place" v="farm" />
		<tag k="ssr:stedsnr" v="52270" />
	</node>
	<node id="-9668" lat="59.2503027816" lon="11.7148444362">
		<tag k="alt_name" v="Langedal søndre" />
		<tag k="name" v="Søndre Langedal" />
		<tag k="place" v="farm" />
		<tag k="ssr:stedsnr" v="52063" />
	</node>
	<node id="-9662" lat="59.1768083301" lon="11.6896861022">
		<tag k="name" v="Grinder" />
		<tag k="place" v="farm" />
		<tag k="ssr:stedsnr" v="51381" />
	</node>
	<node id="-9651" lat="59.2367694421" lon="11.6863777786">
		<tag k="name" v="Sjøvik" />
		<tag k="place" v="neighbourhood" />
		<tag k="ssr:stedsnr" v="41022" />
	</node>
	<node id="-9644" lat="59.3309916659" lon="11.6865027732">
		<tag k="name" v="Bjørkeli" />
		<tag k="place" v="farm" />
		<tag k="ssr:stedsnr" v="38001" />
	</node>
	<node id="-9642" lat="59.2419305571" lon="11.7092499947">
		<tag k="name" v="Sandbekk" />
		<tag k="place" v="farm" />
		<tag k="ssr:stedsnr" v="37482" />
	</node>
	<node id="-9633" lat="59.3245749956" lon="11.6739694431">
		<tag k="name" v="Søndre Bøen" />
		<tag k="place" v="farm" />
		<tag k="ssr:stedsnr" v="6058" />
	</node>
	<node id="-9631" lat="59.329157256" lon="11.6937969806">
		<tag k="alt_name" v="Bøenødegård nordre;Nordre Bøenødegård;Søndre Nordre Bønøgården" />
		<tag k="name" v="Nordre Bøenødegården" />
		<tag k="place" v="farm" />
		<tag k="ssr:stedsnr" v="3731" />
	</node>
	<node id="-9624" lat="59.2999083328" lon="11.6636361183">
		<tag k="name" v="Lund" />
		<tag k="place" v="farm" />
		<tag k="ssr:stedsnr" v="3636" />
	</node>
	<node id="-9618" lat="59.2431555524" lon="11.710805551">
		<tag k="name" v="Sandbekk" />
		<tag k="place" v="farm" />
		<tag k="ssr:stedsnr" v="2245" />
	</node>
	<node id="-9614" lat="59.1720722248" lon="11.7480527746">
		<tag k="fixme" v="multiple name tags, choose one and add the other to alt_name" />
		<tag k="name" v="Kjærhytta;Nordlihytta" />
		<tag k="place" v="isolated_dwelling" />
		<tag k="ssr:stedsnr" v="2112" />
	</node>
	<node id="-9613" lat="59.1819555516" lon="11.6869361165">
		<tag k="alt_name" v="Melby" />
		<tag k="name" v="Melleby" />
		<tag k="place" v="farm" />
		<tag k="ssr:stedsnr" v="2095" />
	</node>
	<node id="-9612" lat="59.182861112" lon="11.6741777731">
		<tag k="name" v="Svensby" />
		<tag k="place" v="farm" />
		<tag k="ssr:stedsnr" v="2092" />
	</node>
	<node id="-9611" lat="59.186136108" lon="11.6945305613">
		<tag k="fixme" v="consider place=hamlet" />
		<tag k="name" v="Rød" />
		<tag k="place" v="farm" />
		<tag k="ssr:stedsnr" v="2073" />
	</node>
	<node id="-9609" lat="59.1470388932" lon="11.7563083308">
		<tag k="name" v="Løkka" />
		<tag k="place" v="farm" />
		<tag k="ssr:stedsnr" v="2026" />
	</node>
	<node id="-9601" lat="59.1944777757" lon="11.7418138874">
		<tag k="alt_name" v="Vinmo" />
		<tag k="name" v="Vindmo" />
		<tag k="place" v="locality" />
		<tag k="ssr:stedsnr" v="1190" />
	</node>
	<node id="-9593" lat="59.3278486015" lon="11.6918166018">
		<tag k="name" v="Bøenødegården" />
		<tag k="place" v="locality" />
		<tag k="ssr:stedsnr" v="985614" />
	</node>
	<node id="-9583" lat="59.2105210356" lon="11.6905499168">
		<tag k="name" v="Skodsberg" />
		<tag k="place" v="farm" />
		<tag k="ssr:stedsnr" v="981778" />
	</node>
	<node id="-9577" lat="59.2662972221" lon="11.6423722247">
		<tag k="name" v="Vestre Holt" />
		<tag k="place" v="farm" />
		<tag k="ssr:stedsnr" v="887453" />
	</node>
	<node id="-9576" lat="59.2653055541" lon="11.6434166596">
		<tag k="name" v="Vestre Holt" />
		<tag k="place" v="farm" />
		<tag k="ssr:stedsnr" v="887454" />
	</node>
	<node id="-9575" lat="59.2819472217" lon="11.5797777834">
		<tag k="name" v="Blanketjernhytta" />
		<tag k="place" v="isolated_dwelling" />
		<tag k="ssr:stedsnr" v="887340" />
	</node>
	<node id="-9573" lat="59.3260694427" lon="11.6899805641">
		<tag k="alt_name" v="Bøenødegård søndre;Søndre Bøenødegård;Søndre Bønøgården" />
		<tag k="name" v="Søndre Bøenødegården" />
		<tag k="place" v="farm" />
		<tag k="ssr:stedsnr" v="887004" />
	</node>
	<node id="-9558" lat="59.2492666693" lon="11.7548111084">
		<tag k="name" v="Moskasa" />
		<tag k="place" v="isolated_dwelling" />
		<tag k="ssr:stedsnr" v="476783" />
	</node>
	<node id="-9556" lat="59.1560055575" lon="11.6609388895">
		<tag k="name" v="Solstad" />
		<tag k="place" v="farm" />
		<tag k="ssr:stedsnr" v="476518" />
	</node>
	<node id="-9548" lat="59.2581777799" lon="11.6983277715">
		<tag k="alt_name" v="Iglerød vestre" />
		<tag k="name" v="Vestre Iglerød" />
		<tag k="place" v="farm" />
		<tag k="ssr:stedsnr" v="476087" />
	</node>
	<node id="-9535" lat="59.2324972237" lon="11.6792583384">
		<tag k="name" v="Granly" />
		<tag k="place" v="isolated_dwelling" />
		<tag k="ssr:stedsnr" v="402485" />
	</node>
	<node id="-9530" lat="59.2352861116" lon="11.6650972302">
		<tag k="name" v="Mjølnerød" />
		<tag k="place" v="locality" />
		<tag k="ssr:stedsnr" v="401485" />
	</node>
	<node id="-9519" lat="59.2586416701" lon="11.8067555517">
		<tag k="name" v="Mosviken" />
		<tag k="place" v="farm" />
		<tag k="ssr:stedsnr" v="367724" />
	</node>
	<node id="-9517" lat="59.2794027754" lon="11.6933888815">
		<tag k="name" v="Sloreby" />
		<tag k="place" v="farm" />
		<tag k="ssr:stedsnr" v="367695" />
	</node>
	<node id="-9516" lat="59.2775944426" lon="11.696969449">
		<tag k="name" v="Elvestad" />
		<tag k="place" v="farm" />
		<tag k="ssr:stedsnr" v="367693" />
	</node>
	<node id="-9515" lat="59.3083777735" lon="11.6167305567">
		<tag k="name" v="Kilen" />
		<tag k="place" v="farm" />
		<tag k="ssr:stedsnr" v="367639" />
	</node>
	<node id="-9514" lat="59.3057027814" lon="11.5847222231">
		<tag k="alt_name" v="Hellesåen;Helleåsen, østre" />
		<tag k="name" v="Østre Hellesåen" />
		<tag k="place" v="farm" />
		<tag k="ssr:stedsnr" v="367635" />
	</node>
	<node id="-9512" lat="59.2554194458" lon="11.7361138945">
		<tag k="fixme" v="consider place=hamlet" />
		<tag k="name" v="Rød" />
		<tag k="place" v="farm" />
		<tag k="ssr:stedsnr" v="367602" />
	</node>
	<node id="-9509" lat="59.1613111113" lon="11.6578500066">
		<tag k="name" v="Granli" />
		<tag k="place" v="isolated_dwelling" />
		<tag k="ssr:stedsnr" v="366108" />
	</node>
	<node id="-9507" lat="59.1876749982" lon="11.5919916678">
		<tag k="name" v="Virås" />
		<tag k="place" v="farm" />
		<tag k="ssr:stedsnr" v="366059" />
	</node>
	<node id="-9506" lat="59.1872166626" lon="11.6006138929">
		<tag k="name" v="Hansesetret" />
		<tag k="place" v="locality" />
		<tag k="ssr:stedsnr" v="366056" />
	</node>
	<node id="-9500" lat="59.1444496436" lon="11.7340440495">
		<tag k="fixme" v="consider place=hamlet" />
		<tag k="name" v="Holmegil" />
		<tag k="place" v="farm" />
		<tag k="ssr:stedsnr" v="366016" />
	</node>
	<node id="-9494" lat="59.2145138889" lon="11.6848694525">
		<tag k="name" v="Tromopp" />
		<tag k="place" v="isolated_dwelling" />
		<tag k="ssr:stedsnr" v="365165" />
	</node>
	<node id="-9492" lat="59.1150305521" lon="11.698472216">
		<tag k="alt_name" v="Mortfallet" />
		<tag k="name" v="Mortefallet" />
		<tag k="place" v="isolated_dwelling" />
		<tag k="ssr:stedsnr" v="365068" />
	</node>
	<node id="-9490" lat="59.1445166624" lon="11.7522444383">
		<tag k="name" v="Nydal" />
		<tag k="place" v="farm" />
		<tag k="ssr:stedsnr" v="355920" />
	</node>
	<node id="-9489" lat="59.1474352103" lon="11.7344605355">
		<tag k="name" v="Nedre Holmegil" />
		<tag k="place" v="farm" />
		<tag k="ssr:stedsnr" v="355914" />
	</node>
	<node id="-9479" lat="59.2078750028" lon="11.7260000022">
		<tag k="alt_name" v="Haug øvre" />
		<tag k="name" v="Øvre Haug" />
		<tag k="place" v="farm" />
		<tag k="ssr:stedsnr" v="355301" />
	</node>
	<node id="-9477" lat="59.216449997" lon="11.7168166705">
		<tag k="alt_name" v="Kopperød østre" />
		<tag k="name" v="Østre Kopperød" />
		<tag k="place" v="farm" />
		<tag k="ssr:stedsnr" v="355297" />
	</node>
	<node id="-9474" lat="59.2673861088" lon="11.8041916647">
		<tag k="name" v="Tolsbysand" />
		<tag k="place" v="farm" />
		<tag k="ssr:stedsnr" v="354871" />
	</node>
	<node id="-9467" lat="59.1626833323" lon="11.6884027845">
		<tag k="name" v="Ulsrød" />
		<tag k="place" v="farm" />
		<tag k="ssr:stedsnr" v="354687" />
	</node>
	<node id="-9459" lat="59.212047218" lon="11.7556999998">
		<tag k="name" v="Søndre Bråtane" />
		<tag k="place" v="locality" />
		<tag k="ssr:stedsnr" v="354226" />
	</node>
	<node id="-9451" lat="59.2793777762" lon="11.6398222266">
		<tag k="alt_name" v="Dagerød vestre" />
		<tag k="name" v="Vestre Dagerød" />
		<tag k="place" v="farm" />
		<tag k="ssr:stedsnr" v="354097" />
	</node>
	<node id="-9437" lat="59.3016555574" lon="11.6365055576">
		<tag k="name" v="Østre Siljeholt" />
		<tag k="place" v="farm" />
		<tag k="ssr:stedsnr" v="341040" />
	</node>
	<node id="-9428" lat="59.2598630124" lon="11.6418941083">
		<tag k="fixme" v="consider place=hamlet" />
		<tag k="name" v="Følingen" />
		<tag k="place" v="farm" />
		<tag k="ssr:stedsnr" v="307738" />
	</node>
	<node id="-9425" lat="59.3332138933" lon="11.6829138836">
		<tag k="name" v="Nygård" />
		<tag k="place" v="locality" />
		<tag k="ssr:stedsnr" v="306723" />
	</node>
	<node id="-9424" lat="59.2797749956" lon="11.6957722254">
		<tag k="name" v="Østeby" />
		<tag k="place" v="isolated_dwelling" />
		<tag k="ssr:stedsnr" v="306681" />
	</node>
	<node id="-9422" lat="59.3149388863" lon="11.6754972267">
		<tag k="name" v="Holteberg" />
		<tag k="place" v="farm" />
		<tag k="ssr:stedsnr" v="306589" />
	</node>
	<node id="-9419" lat="59.1413305586" lon="11.7509166672">
		<tag k="name" v="Haugen" />
		<tag k="place" v="farm" />
		<tag k="ssr:stedsnr" v="306022" />
	</node>
	<node id="-9416" lat="59.2460722193" lon="11.7105083306">
		<tag k="fixme" v="consider place=hamlet" />
		<tag k="name" v="Kirkerød" />
		<tag k="place" v="farm" />
		<tag k="ssr:stedsnr" v="305242" />
	</node>
	<node id="-9415" lat="59.2053944481" lon="11.6924611151">
		<tag k="name" v="Nygård" />
		<tag k="place" v="farm" />
		<tag k="ssr:stedsnr" v="305176" />
	</node>
	<node id="-9414" lat="59.2111750037" lon="11.7048500088">
		<tag k="name" v="Krossby" />
		<tag k="place" v="farm" />
		<tag k="ssr:stedsnr" v="305175" />
	</node>
	<node id="-9413" lat="59.1953249966" lon="11.6770611115">
		<tag k="alt_name" v="Mørholt;Mørholt øvre" />
		<tag k="name" v="Øvre Mørholt" />
		<tag k="place" v="farm" />
		<tag k="ssr:stedsnr" v="305170" />
	</node>
	<node id="-9410" lat="59.1764055575" lon="11.6598805625">
		<tag k="name" v="Mosserød" />
		<tag k="place" v="isolated_dwelling" />
		<tag k="ssr:stedsnr" v="305097" />
	</node>
	<node id="-9407" lat="59.1877416669" lon="11.6747500073">
		<tag k="name" v="Kvisler" />
		<tag k="place" v="farm" />
		<tag k="ssr:stedsnr" v="305067" />
	</node>
	<node id="-9402" lat="59.2365694445" lon="11.6295638861">
		<tag k="name" v="Føllholtet" />
		<tag k="place" v="locality" />
		<tag k="ssr:stedsnr" v="304127" />
	</node>
	<node id="-9401" lat="59.2152061334" lon="11.6977923364">
		<tag k="name" v="Øvre Flateby" />
		<tag k="place" v="farm" />
		<tag k="ssr:stedsnr" v="302963" />
	</node>
	<node id="-9400" lat="59.21801111" lon="11.6914583369">
		<tag k="name" v="Skotsbergåsen" />
		<tag k="place" v="neighbourhood" />
		<tag k="ssr:stedsnr" v="300092" />
	</node>
	<node id="-9394" lat="59.1979972258" lon="11.7424111078">
		<tag k="name" v="Rødskasa" />
		<tag k="place" v="locality" />
		<tag k="ssr:stedsnr" v="294919" />
	</node>
	<node id="-9390" lat="59.2623027815" lon="11.818638883">
		<tag k="name" v="Sikerød" />
		<tag k="place" v="isolated_dwelling" />
		<tag k="ssr:stedsnr" v="294869" />
	</node>
	<node id="-9387" lat="59.2623166637" lon="11.7799611068">
		<tag k="name" v="Holtebrekke" />
		<tag k="place" v="isolated_dwelling" />
		<tag k="ssr:stedsnr" v="294787" />
	</node>
	<node id="-9374" lat="59.3225888845" lon="11.6771000081">
		<tag k="name" v="Bingen" />
		<tag k="place" v="locality" />
		<tag k="ssr:stedsnr" v="294188" />
	</node>
	<node id="-9372" lat="59.2456638874" lon="11.7487500036">
		<tag k="name" v="Søndre Kollerød" />
		<tag k="place" v="farm" />
		<tag k="ssr:stedsnr" v="294174" />
	</node>
	<node id="-9367" lat="59.2436111106" lon="11.7561611076">
		<tag k="name" v="Kverndalen" />
		<tag k="place" v="farm" />
		<tag k="ssr:stedsnr" v="294117" />
	</node>
	<node id="-9365" lat="59.2782361147" lon="11.6407166676">
		<tag k="name" v="Dagerød" />
		<tag k="place" v="farm" />
		<tag k="ssr:stedsnr" v="294082" />
	</node>
	<node id="-9351" lat="59.2971694437" lon="11.6582583278">
		<tag k="name" v="Nordre Nes" />
		<tag k="place" v="farm" />
		<tag k="ssr:stedsnr" v="281021" />
	</node>
	<node id="-9348" lat="59.2466055541" lon="11.709869448">
		<tag k="alt_name" v="Kirkerød vestre" />
		<tag k="name" v="Vestre Kirkerød" />
		<tag k="place" v="farm" />
		<tag k="ssr:stedsnr" v="280490" />
	</node>
	<node id="-9347" lat="59.2456397576" lon="11.7089825819">
		<tag k="alt_name" v="Kirkerød lille" />
		<tag k="name" v="Lille Kirkerød" />
		<tag k="place" v="farm" />
		<tag k="ssr:stedsnr" v="280488" />
	</node>
	<node id="-9339" lat="59.2390500038" lon="11.6969222204">
		<tag k="name" v="Søndre Vik" />
		<tag k="place" v="farm" />
		<tag k="ssr:stedsnr" v="279449" />
	</node>
	<node id="-9338" lat="59.2462083376" lon="11.6827666646">
		<tag k="fixme" v="consider place=hamlet" />
		<tag k="name" v="Aremark" />
		<tag k="place" v="village" />
		<tag k="ssr:stedsnr" v="273384" />
	</node>
	<node id="-10780" lat="59.0946151563" lon="11.710320815">
		<tag k="alt_name" v="Stangebråtan" />
		<tag k="name" v="Stangebråten" />
		<tag k="place" v="locality" />
		<tag k="ssr:stedsnr" v="981157" />
	</node>
	<node id="-10773" lat="59.1758388865" lon="11.730519436">
		<tag k="name" v="Ødegården" />
		<tag k="place" v="locality" />
		<tag k="ssr:stedsnr" v="962923" />
	</node>
	<node id="-10766" lat="59.2931805585" lon="11.6771083411">
		<tag k="fixme" v="consider place=hamlet" />
		<tag k="name" v="Nord-Fange" />
		<tag k="place" v="farm" />
		<tag k="ssr:stedsnr" v="962083" />
	</node>
	<node id="-10759" lat="59.1645083343" lon="11.7223694462">
		<tag k="name" v="Grotmål" />
		<tag k="place" v="farm" />
		<tag k="ssr:stedsnr" v="961686" />
	</node>
	<node id="-10746" lat="59.0969861117" lon="11.7111472167">
		<tag k="name" v="Nordre Stangebråten" />
		<tag k="place" v="farm" />
		<tag k="ssr:stedsnr" v="961058" />
	</node>
	<node id="-10742" lat="59.1688965979" lon="11.6611720106">
		<tag k="alt_name" v="Bøen vestre" />
		<tag k="name" v="Vestre Bøen" />
		<tag k="place" v="farm" />
		<tag k="ssr:stedsnr" v="951451" />
	</node>
	<node id="-10731" lat="59.3058305526" lon="11.6604805574">
		<tag k="name" v="Nordre Strøm" />
		<tag k="place" v="farm" />
		<tag k="ssr:stedsnr" v="948061" />
	</node>
	<node id="-10730" lat="59.3244888861" lon="11.6942333326">
		<tag k="name" v="Hagen" />
		<tag k="place" v="isolated_dwelling" />
		<tag k="ssr:stedsnr" v="948001" />
	</node>
	<node id="-10727" lat="59.2625198561" lon="11.7478901411">
		<tag k="alt_name" v="Hallesby nordre;Nordre Hallesby" />
		<tag k="name" v="Nord-Hallesby" />
		<tag k="place" v="farm" />
		<tag k="ssr:stedsnr" v="914748" />
	</node>
	<node id="-10726" lat="59.3143305567" lon="11.5962194471">
		<tag k="alt_name" v="Bråten" />
		<tag k="name" v="Nordre Kilebråten" />
		<tag k="place" v="farm" />
		<tag k="ssr:stedsnr" v="914667" />
	</node>
	<node id="-10724" lat="59.2770916693" lon="11.660341672">
		<tag k="name" v="Nordre Rive" />
		<tag k="place" v="farm" />
		<tag k="ssr:stedsnr" v="913687" />
	</node>
	<node id="-10723" lat="59.2890148477" lon="11.6777530542">
		<tag k="name" v="Fange" />
		<tag k="place" v="hamlet" />
		<tag k="ssr:stedsnr" v="913666" />
	</node>
	<node id="-10722" lat="59.3032725706" lon="11.6341361636">
		<tag k="alt_name" v="Siljeholt" />
		<tag k="name" v="Vestre Siljeholt" />
		<tag k="place" v="farm" />
		<tag k="ssr:stedsnr" v="913649" />
	</node>
	<node id="-10714" lat="59.145444448" lon="11.6919083383">
		<tag k="name" v="Holmegilkasene" />
		<tag k="place" v="locality" />
		<tag k="ssr:stedsnr" v="913013" />
	</node>
	<node id="-10710" lat="59.2398111141" lon="11.6956861194">
		<tag k="fixme" v="consider place=hamlet" />
		<tag k="name" v="Vik" />
		<tag k="place" v="farm" />
		<tag k="ssr:stedsnr" v="912251" />
	</node>
	<node id="-10709" lat="59.2122385407" lon="11.7548866996">
		<tag k="alt_name" v="Bråten" />
		<tag k="name" v="Bråtane" />
		<tag k="place" v="locality" />
		<tag k="ssr:stedsnr" v="912169" />
	</node>
	<node id="-10706" lat="59.1590388912" lon="11.7387277838">
		<tag k="name" v="Bråten" />
		<tag k="place" v="farm" />
		<tag k="ssr:stedsnr" v="912115" />
	</node>
	<node id="-10703" lat="59.1678590362" lon="11.6628810554">
		<tag k="alt_name" v="Ytre Bøen" />
		<tag k="fixme" v="consider place=hamlet" />
		<tag k="name" v="Bøen" />
		<tag k="place" v="farm" />
		<tag k="ssr:stedsnr" v="912098" />
	</node>
	<node id="-10702" lat="59.1681070664" lon="11.720650357">
		<tag k="name" v="Mo" />
		<tag k="place" v="farm" />
		<tag k="ssr:stedsnr" v="912095" />
	</node>
	<node id="-10701" lat="59.1736983135" lon="11.7231816696">
		<tag k="alt_name" v="Aspestrand søndre;Aspestrand;Sørgården" />
		<tag k="name" v="Søndre Aspestrand" />
		<tag k="place" v="farm" />
		<tag k="ssr:stedsnr" v="912092" />
	</node>
	<node id="-10698" lat="59.1561750006" lon="11.7450416715">
		<tag k="name" v="Holtet" />
		<tag k="place" v="farm" />
		<tag k="ssr:stedsnr" v="912007" />
	</node>
	<node id="-10695" lat="59.1721383374" lon="11.655225628">
		<tag k="name" v="Østre Åsgård" />
		<tag k="place" v="farm" />
		<tag k="ssr:stedsnr" v="909970" />
	</node>
	<node id="-10694" lat="59.2860500029" lon="11.6510138813">
		<tag k="name" v="Lervik" />
		<tag k="place" v="neighbourhood" />
		<tag k="ssr:stedsnr" v="905108" />
	</node>
	<node id="-10674" lat="59.2087972261" lon="11.7261944377">
		<tag k="alt_name" v="Haug østre" />
		<tag k="name" v="Østre Haug" />
		<tag k="place" v="farm" />
		<tag k="ssr:stedsnr" v="901306" />
	</node>
	<node id="-10672" lat="59.2058305571" lon="11.7262055544">
		<tag k="alt_name" v="Haug nedre" />
		<tag k="name" v="Nedre Haug" />
		<tag k="place" v="farm" />
		<tag k="ssr:stedsnr" v="901299" />
	</node>
	<node id="-10665" lat="59.2789027751" lon="11.6446305476">
		<tag k="name" v="Dagerød" />
		<tag k="place" v="farm" />
		<tag k="ssr:stedsnr" v="901078" />
	</node>
	<node id="-10654" lat="59.3267222226" lon="11.6722583351">
		<tag k="name" v="Nordre Bøen" />
		<tag k="place" v="farm" />
		<tag k="ssr:stedsnr" v="856049" />
	</node>
	<node id="-10652" lat="59.2696583302" lon="11.7937944476">
		<tag k="name" v="Leksrød" />
		<tag k="place" v="farm" />
		<tag k="ssr:stedsnr" v="853720" />
	</node>
	<node id="-10651" lat="59.2729638861" lon="11.6893166645">
		<tag k="name" v="Toverød" />
		<tag k="place" v="farm" />
		<tag k="ssr:stedsnr" v="853716" />
	</node>
	<node id="-10649" lat="59.2927777797" lon="11.6783777709">
		<tag k="alt_name" v="Fange nordre" />
		<tag k="name" v="Nord-Fange" />
		<tag k="place" v="farm" />
		<tag k="ssr:stedsnr" v="853674" />
	</node>
	<node id="-10646" lat="59.3071305556" lon="11.6296194372">
		<tag k="alt_name" v="Øvre Våla" />
		<tag k="name" v="Våla" />
		<tag k="place" v="locality" />
		<tag k="ssr:stedsnr" v="853645" />
	</node>
	<node id="-10644" lat="59.2518027823" lon="11.7027722223">
		<tag k="name" v="Rishaugen" />
		<tag k="place" v="farm" />
		<tag k="ssr:stedsnr" v="853606" />
	</node>
	<node id="-10643" lat="59.2499750041" lon="11.7149305583">
		<tag k="fixme" v="consider place=hamlet" />
		<tag k="name" v="Langedal" />
		<tag k="place" v="farm" />
		<tag k="ssr:stedsnr" v="853605" />
	</node>
	<node id="-10638" lat="59.1308555538" lon="11.7535944508">
		<tag k="alt_name" v="Nordre Svarød" />
		<tag k="name" v="Svarød" />
		<tag k="place" v="isolated_dwelling" />
		<tag k="ssr:stedsnr" v="852047" />
	</node>
	<node id="-10637" lat="59.130527778" lon="11.7635499949">
		<tag k="name" v="Husa" />
		<tag k="place" v="locality" />
		<tag k="ssr:stedsnr" v="852046" />
	</node>
	<node id="-10635" lat="59.1467178575" lon="11.750969874">
		<tag k="alt_name" v="Mellomgården" />
		<tag k="fixme" v="multiple name tags, choose one and add the other to alt_name" />
		<tag k="name" v="Bjerkebekk;Mellomgård" />
		<tag k="place" v="farm" />
		<tag k="ssr:stedsnr" v="852021" />
	</node>
	<node id="-10634" lat="59.1423916645" lon="11.6341750084">
		<tag k="name" v="Fjell" />
		<tag k="place" v="farm" />
		<tag k="ssr:stedsnr" v="852019" />
	</node>
	<node id="-10631" lat="59.0555833323" lon="11.6891305468">
		<tag k="alt_name" v="Skogsødegården" />
		<tag k="name" v="Ødegården" />
		<tag k="place" v="isolated_dwelling" />
		<tag k="ssr:stedsnr" v="851357" />
	</node>
	<node id="-10629" lat="59.2061666674" lon="11.7196249945">
		<tag k="name" v="Glenne" />
		<tag k="place" v="farm" />
		<tag k="ssr:stedsnr" v="851166" />
	</node>
	<node id="-10628" lat="59.2015611103" lon="11.6782111178">
		<tag k="name" v="Vesttorp" />
		<tag k="place" v="farm" />
		<tag k="ssr:stedsnr" v="851164" />
	</node>
	<node id="-10626" lat="59.215143046" lon="11.6961244154">
		<tag k="fixme" v="consider place=hamlet" />
		<tag k="name" v="Flateby" />
		<tag k="place" v="farm" />
		<tag k="ssr:stedsnr" v="851154" />
	</node>
	<node id="-10625" lat="59.2370611112" lon="11.7377250031">
		<tag k="alt_name" v="Teigen" />
		<tag k="name" v="Flatlandsteigen" />
		<tag k="place" v="farm" />
		<tag k="ssr:stedsnr" v="851122" />
	</node>
	<node id="-10624" lat="59.1805444455" lon="11.6098166737">
		<tag k="alt_name" v="Tostlund" />
		<tag k="name" v="Tostelund" />
		<tag k="place" v="farm" />
		<tag k="ssr:stedsnr" v="851079" />
	</node>
	<node id="-10622" lat="59.2584096332" lon="11.6429782691">
		<tag k="name" v="Søndre Følingen" />
		<tag k="place" v="farm" />
		<tag k="ssr:stedsnr" v="849976" />
	</node>
	<node id="-10617" lat="59.1897250044" lon="11.6910888876">
		<tag k="name" v="Nordby" />
		<tag k="place" v="farm" />
		<tag k="ssr:stedsnr" v="841988" />
	</node>
	<node id="-10616" lat="59.1696583311" lon="11.7292194433">
		<tag k="name" v="Nordli" />
		<tag k="place" v="isolated_dwelling" />
		<tag k="ssr:stedsnr" v="841923" />
	</node>
	<node id="-10608" lat="59.2551722226" lon="11.7019861127">
		<tag k="alt_name" v="Iglerød søndre" />
		<tag k="name" v="Søndre Iglerød" />
		<tag k="place" v="farm" />
		<tag k="ssr:stedsnr" v="841076" />
	</node>
	<node id="-10599" lat="59.1598499997" lon="11.6679722231">
		<tag k="name" v="Ødegårdene" />
		<tag k="place" v="locality" />
		<tag k="ssr:stedsnr" v="840500" />
	</node>
	<node id="-10597" lat="59.1109611083" lon="11.7468972159">
		<tag k="name" v="Øvre Lund" />
		<tag k="place" v="locality" />
		<tag k="ssr:stedsnr" v="840393" />
	</node>
	<node id="-10588" lat="59.2896333335" lon="11.6475694482">
		<tag k="name" v="Nordre Lervik" />
		<tag k="place" v="farm" />
		<tag k="ssr:stedsnr" v="840067" />
	</node>
	<node id="-10584" lat="59.2618055571" lon="11.685402775">
		<tag k="name" v="Skjulstad" />
		<tag k="place" v="neighbourhood" />
		<tag k="ssr:stedsnr" v="831027" />
	</node>
	<node id="-10583" lat="59.3284638929" lon="11.645475009">
		<tag k="name" v="Strøm" />
		<tag k="place" v="neighbourhood" />
		<tag k="ssr:stedsnr" v="831025" />
	</node>
	<node id="-10582" lat="59.1668361154" lon="11.6646666655">
		<tag k="alt_name" v="Bøen østre;Ytre Bøen" />
		<tag k="name" v="Østre Bøen" />
		<tag k="place" v="farm" />
		<tag k="ssr:stedsnr" v="830248" />
	</node>
	<node id="-10579" lat="59.227877778" lon="11.7345027855">
		<tag k="name" v="Espelundhagen" />
		<tag k="place" v="farm" />
		<tag k="ssr:stedsnr" v="827505" />
	</node>
	<node id="-10578" lat="59.2304027776" lon="11.7353888855">
		<tag k="name" v="Espelundhagen" />
		<tag k="place" v="isolated_dwelling" />
		<tag k="ssr:stedsnr" v="827503" />
	</node>
	<node id="-10576" lat="59.2972249984" lon="11.6752472267">
		<tag k="name" v="Nordenhaug" />
		<tag k="place" v="isolated_dwelling" />
		<tag k="ssr:stedsnr" v="827055" />
	</node>
	<node id="-10570" lat="59.3233472197" lon="11.691683332">
		<tag k="name" v="Kvernekasa" />
		<tag k="place" v="locality" />
		<tag k="ssr:stedsnr" v="827001" />
	</node>
	<node id="-10569" lat="59.245261109" lon="11.6955194367">
		<tag k="name" v="Lilledal" />
		<tag k="place" v="farm" />
		<tag k="ssr:stedsnr" v="826471" />
	</node>
	<node id="-10557" lat="59.2600472186" lon="11.7586138968">
		<tag k="name" v="Gleng" />
		<tag k="place" v="farm" />
		<tag k="ssr:stedsnr" v="792723" />
	</node>
	<node id="-10555" lat="59.2840944406" lon="11.6928472272">
		<tag k="name" v="Fangehagen" />
		<tag k="place" v="farm" />
		<tag k="ssr:stedsnr" v="792695" />
	</node>
	<node id="-10554" lat="59.2743750003" lon="11.7928444463">
		<tag k="name" v="Lia" />
		<tag k="place" v="isolated_dwelling" />
		<tag k="ssr:stedsnr" v="792685" />
	</node>
	<node id="-10551" lat="59.2870361108" lon="11.6454861117">
		<tag k="alt_name" v="Lervik søndre" />
		<tag k="name" v="Søndre Lervik" />
		<tag k="old_name" v="Lervik midtre" />
		<tag k="place" v="farm" />
		<tag k="ssr:stedsnr" v="792656" />
	</node>
	<node id="-10549" lat="59.2985333336" lon="11.7563361195">
		<tag k="name" v="Størholtet" />
		<tag k="place" v="locality" />
		<tag k="ssr:stedsnr" v="792649" />
	</node>
	<node id="-10548" lat="59.2954638853" lon="11.7460583275">
		<tag k="alt_name" v="Lagerrholt" />
		<tag k="name" v="Laggarholtet" />
		<tag k="place" v="farm" />
		<tag k="ssr:stedsnr" v="792647" />
	</node>
	<node id="-10545" lat="59.303461111" lon="11.7233694509">
		<tag k="name" v="Djupetjernkasa" />
		<tag k="place" v="isolated_dwelling" />
		<tag k="ssr:stedsnr" v="791652" />
	</node>
	<node id="-10534" lat="59.2200472262" lon="11.7042722172">
		<tag k="alt_name" v="Haugby" />
		<tag k="name" v="Haugeby" />
		<tag k="place" v="farm" />
		<tag k="ssr:stedsnr" v="790141" />
	</node>
	<node id="-10530" lat="59.2343638915" lon="11.6945527769">
		<tag k="name" v="Flatland" />
		<tag k="place" v="farm" />
		<tag k="ssr:stedsnr" v="790100" />
	</node>
	<node id="-10529" lat="59.2419944448" lon="11.6831250035">
		<tag k="name" v="Kirkeng" />
		<tag k="ssr:stedsnr" v="786144" />
		<tag k="tourism" v="camp_site" />
	</node>
	<node id="-10522" lat="59.1809915532" lon="11.7241256606">
		<tag k="name" v="Aspestrand" />
		<tag k="place" v="hamlet" />
		<tag k="ssr:stedsnr" v="780865" />
	</node>
	<node id="-10520" lat="59.1837611071" lon="11.6379888923">
		<tag k="name" v="Sandtorp" />
		<tag k="place" v="locality" />
		<tag k="ssr:stedsnr" v="780858" />
	</node>
	<node id="-10519" lat="59.2160861109" lon="11.6487555578">
		<tag k="name" v="Tuseter" />
		<tag k="place" v="locality" />
		<tag k="ssr:stedsnr" v="780304" />
	</node>
	<node id="-10515" lat="59.2229388913" lon="11.6948249951">
		<tag k="name" v="Vestre Fossby" />
		<tag k="place" v="farm" />
		<tag k="ssr:stedsnr" v="780295" />
	</node>
	<node id="-10514" lat="59.2098638884" lon="11.7232666582">
		<tag k="name" v="Haug" />
		<tag k="place" v="farm" />
		<tag k="ssr:stedsnr" v="780294" />
	</node>
	<node id="-10512" lat="59.216866671" lon="11.7162888851">
		<tag k="alt_name" v="Kopperød mellem" />
		<tag k="name" v="Mellom-Kopperød" />
		<tag k="place" v="farm" />
		<tag k="ssr:stedsnr" v="780290" />
	</node>
	<node id="-10499" lat="59.2979777768" lon="11.7724361128">
		<tag k="name" v="Pålstad" />
		<tag k="place" v="isolated_dwelling" />
		<tag k="ssr:stedsnr" v="779788" />
	</node>
	<node id="-10497" lat="59.1604888925" lon="11.6876361186">
		<tag k="name" v="Ulsrød" />
		<tag k="place" v="farm" />
		<tag k="ssr:stedsnr" v="779512" />
	</node>
	<node id="-10482" lat="59.3041111093" lon="11.6478888906">
		<tag k="name" v="Madserød" />
		<tag k="place" v="locality" />
		<tag k="ssr:stedsnr" v="779041" />
	</node>
	<node id="-10476" lat="59.329961115" lon="11.6349361145">
		<tag k="name" v="Vatnemellom" />
		<tag k="place" v="neighbourhood" />
		<tag k="ssr:stedsnr" v="770021" />
	</node>
	<node id="-10474" lat="59.2456448142" lon="11.7109442501">
		<tag k="alt_name" v="Kirkerød øvre" />
		<tag k="name" v="Øvre Kirkerød" />
		<tag k="place" v="farm" />
		<tag k="ssr:stedsnr" v="766460" />
	</node>
	<node id="-10472" lat="59.2259305518" lon="11.7241444515">
		<tag k="name" v="Søndre Espelund" />
		<tag k="place" v="farm" />
		<tag k="ssr:stedsnr" v="766451" />
	</node>
	<node id="-10468" lat="59.1736333336" lon="11.6530666592">
		<tag k="name" v="Vestre Åsgård" />
		<tag k="place" v="farm" />
		<tag k="ssr:stedsnr" v="766263" />
	</node>
	<node id="-10466" lat="59.3185406188" lon="11.7222292597">
		<tag k="name" v="Nedre Sørenskas" />
		<tag k="place" v="farm" />
		<tag k="ssr:stedsnr" v="766241" />
	</node>
	<node id="-10465" lat="59.2941861125" lon="11.6339777794">
		<tag k="name" v="Lundestad" />
		<tag k="place" v="locality" />
		<tag k="ssr:stedsnr" v="766031" />
	</node>
	<node id="-10459" lat="59.3316777752" lon="11.7025416677">
		<tag k="name" v="Nordby" />
		<tag k="place" v="locality" />
		<tag k="ssr:stedsnr" v="731730" />
	</node>
	<node id="-10458" lat="59.2565277819" lon="11.7490805557">
		<tag k="alt_name" v="Framgården" />
		<tag k="name" v="Frammegård" />
		<tag k="place" v="farm" />
		<tag k="ssr:stedsnr" v="731725" />
	</node>
	<node id="-10452" lat="59.221280552" lon="11.7147250019">
		<tag k="alt_name" v="Haugebyholtet" />
		<tag k="name" v="Holtet" />
		<tag k="place" v="isolated_dwelling" />
		<tag k="ssr:stedsnr" v="730143" />
	</node>
	<node id="-10451" lat="59.2247722248" lon="11.7530777735">
		<tag k="name" v="Krokstad" />
		<tag k="place" v="locality" />
		<tag k="ssr:stedsnr" v="730141" />
	</node>
	<node id="-10449" lat="59.1909638862" lon="11.6886277832">
		<tag k="name" v="Nordby" />
		<tag k="place" v="farm" />
		<tag k="ssr:stedsnr" v="730067" />
	</node>
	<node id="-10448" lat="59.1544944406" lon="11.7553527767">
		<tag k="name" v="Løndal" />
		<tag k="place" v="locality" />
		<tag k="ssr:stedsnr" v="730007" />
	</node>
	<node id="-10445" lat="59.1131444423" lon="11.7507388917">
		<tag k="alt_name" v="Lund" />
		<tag k="name" v="Nedre Lund" />
		<tag k="place" v="farm" />
		<tag k="ssr:stedsnr" v="729460" />
	</node>
	<node id="-10444" lat="59.2224000031" lon="11.6973416713">
		<tag k="name" v="Østre Fossby" />
		<tag k="place" v="farm" />
		<tag k="ssr:stedsnr" v="727974" />
	</node>
	<node id="-10442" lat="59.2865583337" lon="11.7013388895">
		<tag k="alt_name" v="Fangesætret, s;Fangesætre;Søndre Fangesætret" />
		<tag k="name" v="Søndre Fangesetret" />
		<tag k="place" v="isolated_dwelling" />
		<tag k="ssr:stedsnr" v="731660" />
	</node>
	<node id="-10441" lat="59.3000722245" lon="11.6801249938">
		<tag k="alt_name" v="Kommesaren" />
		<tag k="name" v="Kommisaren" />
		<tag k="place" v="isolated_dwelling" />
		<tag k="ssr:stedsnr" v="731644" />
	</node>
	<node id="-10440" lat="59.2943277744" lon="11.6468111044">
		<tag k="alt_name" v="Nesødegården" />
		<tag k="name" v="Nesødegård" />
		<tag k="place" v="farm" />
		<tag k="ssr:stedsnr" v="731642" />
	</node>
	<node id="-10434" lat="59.1755361149" lon="11.7385305565">
		<tag k="name" v="Bukkemoen" />
		<tag k="place" v="locality" />
		<tag k="ssr:stedsnr" v="719925" />
	</node>
	<node id="-10428" lat="59.2599694485" lon="11.7308277826">
		<tag k="name" v="Kleva" />
		<tag k="place" v="locality" />
		<tag k="ssr:stedsnr" v="719764" />
	</node>
	<node id="-10424" lat="59.1809111069" lon="11.6950527712">
		<tag k="name" v="Rødskasa" />
		<tag k="place" v="locality" />
		<tag k="ssr:stedsnr" v="719322" />
	</node>
	<node id="-10422" lat="59.2096777817" lon="11.7504638815">
		<tag k="name" v="Husebakken" />
		<tag k="place" v="locality" />
		<tag k="ssr:stedsnr" v="719216" />
	</node>
	<node id="-10419" lat="59.2844027818" lon="11.6762611169">
		<tag k="fixme" v="consider place=hamlet" />
		<tag k="name" v="Sør-Fange" />
		<tag k="place" v="farm" />
		<tag k="ssr:stedsnr" v="719076" />
	</node>
	<node id="-10414" lat="59.1575111092" lon="11.6488972198">
		<tag k="alt_name" v="Østensvik øvre" />
		<tag k="name" v="Øvre Østensvik" />
		<tag k="place" v="farm" />
		<tag k="ssr:stedsnr" v="718522" />
	</node>
	<node id="-10404" lat="59.3143996178" lon="11.7223405897">
		<tag k="alt_name" v="Nordre Bøensætre;Djuptjernkasa" />
		<tag k="name" v="Nordre Bøensetret" />
		<tag k="place" v="isolated_dwelling" />
		<tag k="ssr:stedsnr" v="709223" />
	</node>
	<node id="-10402" lat="59.3057055514" lon="11.7140444406">
		<tag k="name" v="Langenesåsen" />
		<tag k="place" v="locality" />
		<tag k="ssr:stedsnr" v="706046" />
	</node>
	<node id="-10398" lat="59.229249999" lon="11.7294416609">
		<tag k="name" v="Nordre Espelund" />
		<tag k="place" v="farm" />
		<tag k="ssr:stedsnr" v="705540" />
	</node>
	<node id="-10395" lat="59.3062111113" lon="11.6608083343">
		<tag k="alt_name" v="Mellem-Strøm" />
		<tag k="name" v="Mellom-Strøm" />
		<tag k="place" v="farm" />
		<tag k="ssr:stedsnr" v="705055" />
	</node>
	<node id="-10388" lat="59.2502305573" lon="11.8158861142">
		<tag k="name" v="Mosbekk" />
		<tag k="place" v="farm" />
		<tag k="ssr:stedsnr" v="731585" />
	</node>
	<node id="-10384" lat="59.2600527764" lon="11.7357833271">
		<tag k="name" v="Rødsmoen" />
		<tag k="place" v="farm" />
		<tag k="ssr:stedsnr" v="671738" />
	</node>
	<node id="-10383" lat="59.2572638907" lon="11.7010805505">
		<tag k="fixme" v="consider place=hamlet" />
		<tag k="name" v="Iglerød" />
		<tag k="place" v="farm" />
		<tag k="ssr:stedsnr" v="671737" />
	</node>
	<node id="-10381" lat="59.3255264873" lon="11.6730041166">
		<tag k="name" v="Bøen" />
		<tag k="place" v="hamlet" />
		<tag k="ssr:stedsnr" v="671641" />
	</node>
	<node id="-10378" lat="59.2567722227" lon="11.7988111135">
		<tag k="name" v="Berget" />
		<tag k="place" v="isolated_dwelling" />
		<tag k="ssr:stedsnr" v="670724" />
	</node>
	<node id="-10374" lat="59.3083472254" lon="11.6721500077">
		<tag k="name" v="Aslakstrøm" />
		<tag k="place" v="farm" />
		<tag k="ssr:stedsnr" v="670643" />
	</node>
	<node id="-10371" lat="59.2092277758" lon="11.7375111175">
		<tag k="name" v="Jettemoen" />
		<tag k="place" v="locality" />
		<tag k="ssr:stedsnr" v="669164" />
	</node>
	<node id="-10368" lat="59.210519449" lon="11.6905527706">
		<tag k="fixme" v="consider place=hamlet" />
		<tag k="name" v="Skotsberg" />
		<tag k="place" v="farm" />
		<tag k="ssr:stedsnr" v="669156" />
	</node>
	<node id="-10365" lat="59.2291027785" lon="11.6824249964">
		<tag k="name" v="Skolleborg" />
		<tag k="place" v="farm" />
		<tag k="ssr:stedsnr" v="669138" />
	</node>
	<node id="-10364" lat="59.2240777743" lon="11.6679055526">
		<tag k="alt_name" v="Hagen" />
		<tag k="name" v="Haugen" />
		<tag k="place" v="locality" />
		<tag k="ssr:stedsnr" v="669135" />
	</node>
	<node id="-10363" lat="59.1574138892" lon="11.6545555579">
		<tag k="alt_name" v="Østensvik øvre" />
		<tag k="name" v="Øvre Østensvik" />
		<tag k="place" v="farm" />
		<tag k="ssr:stedsnr" v="669104" />
	</node>
	<node id="-10359" lat="59.1883555584" lon="11.7445111199">
		<tag k="alt_name" v="Sandåker" />
		<tag k="name" v="Sandaker" />
		<tag k="place" v="isolated_dwelling" />
		<tag k="ssr:stedsnr" v="669054" />
	</node>
	<node id="-10356" lat="59.2371833347" lon="11.7147638932">
		<tag k="alt_name" v="Skulstad" />
		<tag k="name" v="Skjulstad" />
		<tag k="place" v="farm" />
		<tag k="ssr:stedsnr" v="668121" />
	</node>
	<node id="-10355" lat="59.1583688968" lon="11.6529957397">
		<tag k="fixme" v="consider place=hamlet" />
		<tag k="name" v="Østensvik" />
		<tag k="place" v="farm" />
		<tag k="ssr:stedsnr" v="661318" />
	</node>
	<node id="-10350" lat="59.2982833301" lon="11.756300004">
		<tag k="alt_name" v="Størholt søndre" />
		<tag k="name" v="Søndre Størholt" />
		<tag k="place" v="isolated_dwelling" />
		<tag k="ssr:stedsnr" v="658940" />
	</node>
	<node id="-10347" lat="59.1856722183" lon="11.7286083247">
		<tag k="name" v="Lauvmyr" />
		<tag k="place" v="farm" />
		<tag k="ssr:stedsnr" v="658867" />
	</node>
	<node id="-10345" lat="59.202075003" lon="11.6830749922">
		<tag k="name" v="Løkka" />
		<tag k="place" v="farm" />
		<tag k="ssr:stedsnr" v="658855" />
	</node>
	<node id="-10335" lat="59.2187611138" lon="11.6839111186">
		<tag k="name" v="Skakkestad" />
		<tag k="place" v="farm" />
		<tag k="ssr:stedsnr" v="658336" />
	</node>
	<node id="-10332" lat="59.3172055577" lon="11.7273361159">
		<tag k="alt_name" v="Bøensætrehagen" />
		<tag k="name" v="Bøenseterhagen" />
		<tag k="place" v="isolated_dwelling" />
		<tag k="ssr:stedsnr" v="658203" />
	</node>
	<node id="-10325" lat="59.2546000027" lon="11.6830972298">
		<tag k="name" v="Arebo" />
		<tag k="ssr:stedsnr" v="658066" />
		<tag k="tourism" v="guest_house" />
	</node>
	<node id="-10303" lat="59.3111888877" lon="11.6691055602">
		<tag k="name" v="Brekka" />
		<tag k="place" v="farm" />
		<tag k="ssr:stedsnr" v="644028" />
	</node>
	<node id="-10301" lat="59.2373361073" lon="11.6881583323">
		<tag k="name" v="Sjøvik" />
		<tag k="place" v="farm" />
		<tag k="ssr:stedsnr" v="643450" />
	</node>
	<node id="-10299" lat="59.277683337" lon="11.5886194464">
		<tag k="alt_name" v="Nordrive sætre" />
		<tag k="name" v="Nordrivesetret" />
		<tag k="place" v="locality" />
		<tag k="ssr:stedsnr" v="643328" />
	</node>
	<node id="-10298" lat="59.3307682804" lon="11.7106875475">
		<tag k="name" v="Burås" />
		<tag k="place" v="isolated_dwelling" />
		<tag k="ssr:stedsnr" v="610766" />
	</node>
	<node id="-10295" lat="59.2737055539" lon="11.5884583268">
		<tag k="alt_name" v="Dagerødsætre;Dagerødsætret" />
		<tag k="name" v="Dagerødsetret" />
		<tag k="place" v="isolated_dwelling" />
		<tag k="ssr:stedsnr" v="610733" />
	</node>
	<node id="-10293" lat="59.2762611123" lon="11.641450003">
		<tag k="fixme" v="consider place=hamlet" />
		<tag k="name" v="Dagerød" />
		<tag k="place" v="farm" />
		<tag k="ssr:stedsnr" v="610718" />
	</node>
	<node id="-10290" lat="59.3008763528" lon="11.6594260264">
		<tag k="fixme" v="consider place=hamlet" />
		<tag k="name" v="Strømsfoss" />
		<tag k="place" v="village" />
		<tag k="ssr:stedsnr" v="609644" />
	</node>
	<node id="-10288" lat="59.303602778" lon="11.6670166619">
		<tag k="name" v="Bergstrøm" />
		<tag k="place" v="farm" />
		<tag k="ssr:stedsnr" v="609614" />
	</node>
	<node id="-10284" lat="59.1425611079" lon="11.6648388834">
		<tag k="alt_name" v="Sund" />
		<tag k="name" v="Øvre Sund" />
		<tag k="place" v="farm" />
		<tag k="ssr:stedsnr" v="609013" />
	</node>
	<node id="-10281" lat="59.2496524253" lon="11.7466820557">
		<tag k="fixme" v="consider place=hamlet" />
		<tag k="name" v="Kollerød" />
		<tag k="place" v="farm" />
		<tag k="ssr:stedsnr" v="608224" />
	</node>
	<node id="-10280" lat="59.1971444445" lon="11.6257638908">
		<tag k="alt_name" v="Kvislersæter" />
		<tag k="historic" v="shieling" />
		<tag k="loc_name" v="Kvislersætret" />
		<tag k="name" v="Kvislerseter" />
		<tag k="place" v="locality" />
		<tag k="ssr:stedsnr" v="608163" />
	</node>
	<node id="-10278" lat="59.1614111114" lon="11.6897499921">
		<tag k="name" v="Ulsrød" />
		<tag k="place" v="farm" />
		<tag k="ssr:stedsnr" v="608105" />
	</node>
	<node id="-10277" lat="59.1640638851" lon="11.7242388945">
		<tag k="alt_name" v="Grotmal" />
		<tag k="name" v="Grotmål" />
		<tag k="place" v="farm" />
		<tag k="ssr:stedsnr" v="608101" />
	</node>
	<node id="-10272" lat="59.0930416626" lon="11.7107138875">
		<tag k="alt_name" v="Stangebråtan" />
		<tag k="name" v="Søndre Stangebråten" />
		<tag k="place" v="farm" />
		<tag k="ssr:stedsnr" v="607494" />
	</node>
	<node id="-10271" lat="59.0854777744" lon="11.7566083314">
		<tag k="name" v="Petersborg" />
		<tag k="place" v="isolated_dwelling" />
		<tag k="ssr:stedsnr" v="607492" />
	</node>
	<node id="-10265" lat="59.2871999996" lon="11.6782027825">
		<tag k="alt_name" v="Mellem-Fange" />
		<tag k="name" v="Mellom-Fange" />
		<tag k="place" v="farm" />
		<tag k="ssr:stedsnr" v="598084" />
	</node>
	<node id="-10264" lat="59.2977527809" lon="11.6941027718">
		<tag k="fixme" v="multiple name tags, choose one and add the other to alt_name" />
		<tag k="name" v="Fangemyra;Myra" />
		<tag k="place" v="farm" />
		<tag k="ssr:stedsnr" v="598056" />
	</node>
	<node id="-10256" lat="59.1432722182" lon="11.7391694441">
		<tag k="name" v="Neset" />
		<tag k="place" v="farm" />
		<tag k="ssr:stedsnr" v="597933" />
	</node>
	<node id="-10250" lat="59.2675472253" lon="11.7891111192">
		<tag k="name" v="Kasa" />
		<tag k="place" v="farm" />
		<tag k="ssr:stedsnr" v="597804" />
	</node>
	<node id="-10241" lat="59.225180553" lon="11.7170388919">
		<tag k="name" v="Solbakken" />
		<tag k="place" v="farm" />
		<tag k="ssr:stedsnr" v="597319" />
	</node>
</osm>
