<?xml version="1.0" encoding="UTF-8"?>
<osm generator="osmapis" version="0.6">
	<node id="-115963" lat="61.8756416656" lon="9.0957222302">
		<tag k="name" v="Vågå kommune" />
		<tag k="ssr:date" v="2016-05-10" />
		<tag k="ssr:gruppe" v="administrativeIndelinger" />
		<tag k="ssr:hovedgruppe" v="offentligAdministrasjon" />
		<tag k="ssr:stedsnr" v="388021" />
		<tag k="ssr:type" v="kommune" />
	</node>
	<node id="-116114" lat="61.6986278924" lon="9.12415420391">
		<tag k="name" v="Murudalsvegen" />
		<tag k="ssr:date" v="2019-05-30" />
		<tag k="ssr:gruppe" v="veg" />
		<tag k="ssr:hovedgruppe" v="infrastruktur" />
		<tag k="ssr:stedsnr" v="1012780" />
		<tag k="ssr:type" v="adressenavn" />
	</node>
	<node id="-116113" lat="61.9479409854" lon="9.12699085869">
		<tag k="name" v="Jøndalsvegen" />
		<tag k="ssr:date" v="2019-05-30" />
		<tag k="ssr:gruppe" v="veg" />
		<tag k="ssr:hovedgruppe" v="infrastruktur" />
		<tag k="ssr:stedsnr" v="1012775" />
		<tag k="ssr:type" v="adressenavn" />
	</node>
	<node id="-116112" lat="61.812878474" lon="9.27695482477">
		<tag k="name" v="Hovudvegen" />
		<tag k="ssr:date" v="2019-05-30" />
		<tag k="ssr:gruppe" v="veg" />
		<tag k="ssr:hovedgruppe" v="infrastruktur" />
		<tag k="ssr:stedsnr" v="1012719" />
		<tag k="ssr:type" v="adressenavn" />
	</node>
	<node id="-116111" lat="61.9573539457" lon="9.03412361457">
		<tag k="name" v="Holesætervegen" />
		<tag k="ssr:date" v="2019-05-30" />
		<tag k="ssr:gruppe" v="veg" />
		<tag k="ssr:hovedgruppe" v="infrastruktur" />
		<tag k="ssr:stedsnr" v="1012594" />
		<tag k="ssr:type" v="adressenavn" />
	</node>
	<node id="-116110" lat="61.754661959" lon="9.07468090454">
		<tag k="name" v="Sandnessætre" />
		<tag k="ssr:date" v="2019-05-30" />
		<tag k="ssr:gruppe" v="veg" />
		<tag k="ssr:hovedgruppe" v="infrastruktur" />
		<tag k="ssr:stedsnr" v="990016" />
		<tag k="ssr:type" v="adressenavn" />
	</node>
	<node id="-116109" lat="61.4187741018" lon="9.12347224295">
		<tag k="name" v="Oskampen" />
		<tag k="ssr:date" v="2019-05-30" />
		<tag k="ssr:gruppe" v="veg" />
		<tag k="ssr:hovedgruppe" v="infrastruktur" />
		<tag k="ssr:stedsnr" v="990015" />
		<tag k="ssr:type" v="adressenavn" />
	</node>
	<node id="-116108" lat="61.4690382715" lon="9.14179957404">
		<tag k="name" v="Flysetervegen" />
		<tag k="ssr:date" v="2019-05-30" />
		<tag k="ssr:gruppe" v="veg" />
		<tag k="ssr:hovedgruppe" v="infrastruktur" />
		<tag k="ssr:stedsnr" v="990014" />
		<tag k="ssr:type" v="adressenavn" />
	</node>
	<node id="-116107" lat="61.833049752" lon="9.28989693768">
		<tag k="name" v="Åsvegen" />
		<tag k="ssr:date" v="2019-05-30" />
		<tag k="ssr:gruppe" v="veg" />
		<tag k="ssr:hovedgruppe" v="infrastruktur" />
		<tag k="ssr:stedsnr" v="990013" />
		<tag k="ssr:type" v="adressenavn" />
	</node>
	<node id="-116106" lat="61.5721551897" lon="8.93549272022">
		<tag k="name" v="Sjosida" />
		<tag k="ssr:date" v="2019-05-30" />
		<tag k="ssr:gruppe" v="veg" />
		<tag k="ssr:hovedgruppe" v="infrastruktur" />
		<tag k="ssr:stedsnr" v="990010" />
		<tag k="ssr:type" v="adressenavn" />
	</node>
	<node id="-116105" lat="61.5714795343" lon="8.93065523987">
		<tag k="name" v="Russtangsida" />
		<tag k="ssr:date" v="2019-05-30" />
		<tag k="ssr:gruppe" v="veg" />
		<tag k="ssr:hovedgruppe" v="infrastruktur" />
		<tag k="ssr:stedsnr" v="990009" />
		<tag k="ssr:type" v="adressenavn" />
	</node>
	<node id="-116104" lat="61.8806609" lon="9.11368904315">
		<tag k="name" v="Berget" />
		<tag k="ssr:date" v="2019-05-30" />
		<tag k="ssr:gruppe" v="veg" />
		<tag k="ssr:hovedgruppe" v="infrastruktur" />
		<tag k="ssr:stedsnr" v="990007" />
		<tag k="ssr:type" v="adressenavn" />
	</node>
	<node id="-116103" lat="61.7505868984" lon="9.0889689423">
		<tag k="name" v="Nedre Rindhovdsida" />
		<tag k="ssr:date" v="2019-05-30" />
		<tag k="ssr:gruppe" v="veg" />
		<tag k="ssr:hovedgruppe" v="infrastruktur" />
		<tag k="ssr:stedsnr" v="990006" />
		<tag k="ssr:type" v="adressenavn" />
	</node>
	<node id="-117702" lat="60.5908609473" lon="9.63819281559">
		<tag k="fixme" v="multiple name tags, choose one and add the other to alt_name" />
		<tag k="name" v="Austlandet;Østlandet" />
		<tag k="ssr:date" v="2018-01-09" />
		<tag k="ssr:gruppe" v="administrativeIndelinger" />
		<tag k="ssr:hovedgruppe" v="offentligAdministrasjon" />
		<tag k="ssr:stedsnr" v="974775" />
		<tag k="ssr:type" v="annenAdministrativInndeling" />
	</node>
	<node id="-116101" lat="61.7532200708" lon="9.08431748686">
		<tag k="name" v="Trolhøsida" />
		<tag k="ssr:date" v="2019-05-30" />
		<tag k="ssr:gruppe" v="veg" />
		<tag k="ssr:hovedgruppe" v="infrastruktur" />
		<tag k="ssr:stedsnr" v="990004" />
		<tag k="ssr:type" v="adressenavn" />
	</node>
	<node id="-116100" lat="61.8794604845" lon="9.08546311117">
		<tag k="name" v="Blessomvollen" />
		<tag k="ssr:date" v="2019-05-30" />
		<tag k="ssr:gruppe" v="veg" />
		<tag k="ssr:hovedgruppe" v="infrastruktur" />
		<tag k="ssr:stedsnr" v="990003" />
		<tag k="ssr:type" v="adressenavn" />
	</node>
	<node id="-116102" lat="61.7531123481" lon="9.08431719223">
		<tag k="name" v="Nedre Trollhøsida" />
		<tag k="ssr:date" v="2019-05-30" />
		<tag k="ssr:gruppe" v="veg" />
		<tag k="ssr:hovedgruppe" v="infrastruktur" />
		<tag k="ssr:stedsnr" v="990005" />
		<tag k="ssr:type" v="adressenavn" />
	</node>
	<node id="-116098" lat="61.8104650617" lon="9.25296818418">
		<tag k="name" v="Hovdasætervegen" />
		<tag k="ssr:date" v="2019-05-30" />
		<tag k="ssr:gruppe" v="veg" />
		<tag k="ssr:hovedgruppe" v="infrastruktur" />
		<tag k="ssr:stedsnr" v="989843" />
		<tag k="ssr:type" v="adressenavn" />
	</node>
	<node id="-116099" lat="61.8721149863" lon="9.07433928033">
		<tag k="name" v="Kvarbergsåsen" />
		<tag k="ssr:date" v="2019-05-30" />
		<tag k="ssr:gruppe" v="veg" />
		<tag k="ssr:hovedgruppe" v="infrastruktur" />
		<tag k="ssr:stedsnr" v="990002" />
		<tag k="ssr:type" v="adressenavn" />
	</node>
</osm>
