<?xml version="1.0" encoding="UTF-8"?>
<osm version="0.6" generator="osmapis">
	<node lat="69.91163921033552" lon="20.167087140360938" id="-39455">
		<tag k="name" v="Nordlenangen" />
		<tag k="ssr:date" v="2021-01-14" />
		<tag k="ssr:gruppe" v="navigasjon" />
		<tag k="ssr:hovedgruppe" v="infrastruktur" />
		<tag k="ssr:stedsnr" v="19746" />
		<tag k="ssr:type" v="fyrlykt" />
	</node>
	<node lat="69.49417777451187" lon="20.247761091667623" id="-39465">
		<tag k="name" v="Ivgu" />
		<tag k="name:se" v="Ivgu" />
		<tag k="ssr:date" v="2019-12-27" />
		<tag k="ssr:gruppe" v="terrengområder" />
		<tag k="ssr:hovedgruppe" v="terreng" />
		<tag k="ssr:stedsnr" v="237968" />
		<tag k="ssr:type" v="landskapsområde" />
	</node>
	<node lat="69.89748333513052" lon="20.000161109906635" id="-39545">
		<tag k="name" v="Eidstranddjupet" />
		<tag k="ssr:date" v="2019-12-27" />
		<tag k="ssr:gruppe" v="sjøbunn" />
		<tag k="ssr:hovedgruppe" v="sjø" />
		<tag k="ssr:stedsnr" v="86528" />
		<tag k="ssr:type" v="havdyp" />
	</node>
	<node lat="69.84756666933337" lon="19.93750555791471" id="-39926">
		<tag k="name" v="Brosmeholet" />
		<tag k="ssr:date" v="2019-12-27" />
		<tag k="ssr:gruppe" v="sjøbunn" />
		<tag k="ssr:hovedgruppe" v="sjø" />
		<tag k="ssr:stedsnr" v="511504" />
		<tag k="ssr:type" v="bakkeISjø" />
	</node>
	<node lat="69.44131219557967" lon="20.163954342142386" id="-40523">
		<tag k="name" v="Lyngsdaløra" />
		<tag k="old_name" v="Lyngsdalsøra" />
		<tag k="ssr:date" v="2021-01-05" />
		<tag k="ssr:gruppe" v="navigasjon" />
		<tag k="ssr:hovedgruppe" v="infrastruktur" />
		<tag k="ssr:stedsnr" v="139251" />
		<tag k="ssr:type" v="fyrlykt" />
	</node>
</osm>
