<?xml version="1.0" encoding="UTF-8"?>
<<<<<<< HEAD
<osm version="0.6" generator="osmapis">
	<node lat="60.40192499966154" lon="5.679186118054648" id="-24921">
		<tag k="historic" v="shieling" />
		<tag k="name" v="Stallen" />
=======
<osm generator="osmapis" version="0.6">
	<node id="-629887" lat="60.3696416626" lon="5.80258888255">
		<tag k="name" v="Storemyri" />
		<tag k="natural" v="wetland" />
		<tag k="ssr:stedsnr" v="544041" />
	</node>
	<node id="-630398" lat="60.3453388931" lon="5.71913054705">
		<tag k="historic" v="shieling" />
		<tag k="name" v="Sandvikasetret" />
		<tag k="place" v="locality" />
		<tag k="ssr:stedsnr" v="540031" />
	</node>
	<node id="-629878" lat="60.4490027813" lon="5.83231945106">
		<tag k="name" v="Tosteinen" />
		<tag k="natural" v="stone" />
		<tag k="ssr:stedsnr" v="516543" />
	</node>
	<node id="-629741" lat="60.3836777751" lon="5.80984721692">
		<tag k="name" v="Stemmebakkane" />
		<tag k="place" v="locality" />
		<tag k="ssr:stedsnr" v="334308" />
	</node>
	<node id="-630508" lat="60.3501222206" lon="5.80470277835">
		<tag k="name" v="Setrauri" />
		<tag k="natural" v="scree" />
		<tag k="ssr:stedsnr" v="783014" />
	</node>
	<node id="-629995" lat="60.438566668" lon="5.90523611985">
		<tag k="name" v="Kvanndalsmarka" />
		<tag k="place" v="locality" />
		<tag k="ssr:stedsnr" v="759714" />
	</node>
	<node id="-630122" lat="60.3468138891" lon="5.63622778292">
		<tag k="name" v="Ospeskogen" />
		<tag k="place" v="locality" />
		<tag k="ssr:stedsnr" v="29901" />
	</node>
	<node id="-630121" lat="60.4019249997" lon="5.67918611805">
		<tag k="historic" v="shieling" />
		<tag k="name" v="Stallen" />
		<tag k="place" v="locality" />
		<tag k="ssr:stedsnr" v="29873" />
	</node>
	<node id="-629851" lat="60.4186361138" lon="5.83504999414">
		<tag k="name" v="Helgeland" />
		<tag k="place" v="locality" />
		<tag k="ssr:stedsnr" v="673099" />
	</node>
	<node id="-630231" lat="60.3624111144" lon="5.85253611886">
		<tag k="name" v="Moltemyri" />
		<tag k="natural" v="wetland" />
		<tag k="ssr:stedsnr" v="161945" />
	</node>
	<node id="-629715" lat="60.3544194475" lon="5.69879167098">
		<tag k="name" v="Lonane" />
		<tag k="natural" v="wetland" />
		<tag k="ssr:stedsnr" v="454935" />
	</node>
	<node id="-629970" lat="60.4091777759" lon="5.72391943916">
		<tag k="historic" v="shieling" />
		<tag k="name" v="Stølen" />
		<tag k="place" v="locality" />
		<tag k="ssr:stedsnr" v="696961" />
	</node>
	<node id="-630353" lat="60.4657833351" lon="5.90241388361">
		<tag k="name" v="Lammatræmyra" />
		<tag k="natural" v="wetland" />
		<tag k="ssr:stedsnr" v="369319" />
	</node>
	<node id="-630473" lat="60.3595694448" lon="5.68884165954">
		<tag k="name" v="Steinastykket" />
>>>>>>> e1d4bc35ff8a6074a6f2e91616a996b547c36f15
		<tag k="place" v="locality" />
		<tag k="ssr:stedsnr" v="29873" />
	</node>
<<<<<<< HEAD
	<node lat="60.35787778010508" lon="5.7692555516380795" id="-24929">
=======
	<node id="-629703" lat="60.3578777801" lon="5.76925555164">
>>>>>>> e1d4bc35ff8a6074a6f2e91616a996b547c36f15
		<tag k="historic" v="shieling" />
		<tag k="name" v="Gamlasetret" />
		<tag k="place" v="locality" />
		<tag k="ssr:stedsnr" v="237020" />
	</node>
<<<<<<< HEAD
	<node lat="60.417027777352104" lon="5.834788888247433" id="-24953">
		<tag k="name" v="Sjurane" />
		<tag k="place" v="locality" />
		<tag k="ssr:stedsnr" v="91217" />
	</node>
	<node lat="60.364555555159924" lon="5.638486113419658" id="-25005">
		<tag k="name" v="Hatlefloten" />
=======
	<node id="-630212" lat="60.4170750013" lon="5.8469499964">
		<tag k="landuse" v="meadow" />
		<tag k="name" v="Slåtta" />
		<tag k="ssr:stedsnr" v="126472" />
	</node>
	<node id="-629951" lat="60.3693027736" lon="5.67432500017">
		<tag k="name" v="Husnovemyra" />
		<tag k="natural" v="wetland" />
		<tag k="ssr:stedsnr" v="879545" />
	</node>
	<node id="-629689" lat="60.3321499991" lon="5.72425834128">
		<tag k="historic" v="shieling" />
		<tag k="name" v="Brunestølen" />
>>>>>>> e1d4bc35ff8a6074a6f2e91616a996b547c36f15
		<tag k="place" v="locality" />
		<tag k="ssr:stedsnr" v="211627" />
	</node>
<<<<<<< HEAD
	<node lat="60.3544194474929" lon="5.698791670979405" id="-25038">
		<tag k="name" v="Lonane" />
		<tag k="natural" v="wetland" />
		<tag k="ssr:stedsnr" v="454935" />
	</node>
	<node lat="60.40586666828591" lon="5.720613893396364" id="-25079">
=======
	<node id="-630454" lat="60.3434583307" lon="5.76931110503">
		<tag k="name" v="Langafonni" />
		<tag k="place" v="locality" />
		<tag k="ssr:stedsnr" v="601938" />
	</node>
	<node id="-630325" lat="60.4058666683" lon="5.7206138934">
>>>>>>> e1d4bc35ff8a6074a6f2e91616a996b547c36f15
		<tag k="name" v="Småmyrane" />
		<tag k="natural" v="wetland" />
		<tag k="ssr:stedsnr" v="332959" />
	</node>
<<<<<<< HEAD
	<node lat="60.38367777514663" lon="5.809847216922697" id="-25083">
		<tag k="name" v="Stemmebakkane" />
		<tag k="place" v="locality" />
		<tag k="ssr:stedsnr" v="334308" />
	</node>
	<node lat="60.46578333505062" lon="5.902413883610731" id="-25095">
		<tag k="name" v="Lammatræmyra" />
=======
	<node id="-630194" lat="60.3533249977" lon="5.81904443589">
		<tag k="name" v="Myrane" />
>>>>>>> e1d4bc35ff8a6074a6f2e91616a996b547c36f15
		<tag k="natural" v="wetland" />
		<tag k="ssr:stedsnr" v="369319" />
	</node>
<<<<<<< HEAD
	<node lat="60.3476333361699" lon="5.70042499148076" id="-25129">
		<tag k="name" v="Nevramyr" />
		<tag k="natural" v="wetland" />
		<tag k="ssr:stedsnr" v="419108" />
	</node>
	<node lat="60.322783336935586" lon="5.621166666601734" id="-25195">
		<tag k="name" v="Træet" />
		<tag k="place" v="locality" />
		<tag k="ssr:stedsnr" v="491223" />
	</node>
	<node lat="60.44900278128278" lon="5.832319451061015" id="-25207">
		<tag k="name" v="Tosteinen" />
		<tag k="natural" v="stone" />
		<tag k="ssr:stedsnr" v="516543" />
	</node>
	<node lat="60.409177775872024" lon="5.72391943916059" id="-25237">
		<tag k="historic" v="shieling" />
		<tag k="name" v="Stølen" />
		<tag k="place" v="locality" />
		<tag k="ssr:stedsnr" v="696961" />
	</node>
	<node lat="60.35143888617298" lon="5.798200007936086" id="-25250">
		<tag k="name" v="Setramyrane" />
		<tag k="natural" v="wetland" />
		<tag k="ssr:stedsnr" v="604040" />
	</node>
	<node lat="60.44705000089148" lon="5.890663888734413" id="-25268">
=======
	<node id="-630313" lat="60.3114500007" lon="5.62213888733">
		<tag k="name" v="Myra" />
		<tag k="place" v="locality" />
		<tag k="ssr:stedsnr" v="309283" />
	</node>
	<node id="-630176" lat="60.4688138922" lon="5.89111944594">
		<tag k="historic" v="shieling" />
		<tag k="name" v="Smalastølen" />
		<tag k="place" v="locality" />
		<tag k="ssr:stedsnr" v="91094" />
	</node>
	<node id="-629923" lat="60.4470500009" lon="5.89066388873">
>>>>>>> e1d4bc35ff8a6074a6f2e91616a996b547c36f15
		<tag k="name" v="Gadden" />
		<tag k="place" v="locality" />
		<tag k="ssr:stedsnr" v="637938" />
	</node>
<<<<<<< HEAD
	<node lat="60.41863611375495" lon="5.835049994142087" id="-25287">
		<tag k="name" v="Helgeland" />
=======
	<node id="-630178" lat="60.4170277774" lon="5.83478888825">
		<tag k="name" v="Sjurane" />
>>>>>>> e1d4bc35ff8a6074a6f2e91616a996b547c36f15
		<tag k="place" v="locality" />
		<tag k="ssr:stedsnr" v="673099" />
	</node>
<<<<<<< HEAD
	<node lat="60.43856666801244" lon="5.905236119848373" id="-25323">
		<tag k="name" v="Kvanndalsmarka" />
		<tag k="place" v="locality" />
		<tag k="ssr:stedsnr" v="759714" />
	</node>
	<node lat="60.35012222063416" lon="5.804702778353041" id="-25330">
		<tag k="name" v="Setrauri" />
		<tag k="natural" v="scree" />
		<tag k="ssr:stedsnr" v="783014" />
	</node>
	<node lat="60.346813889132974" lon="5.636227782920628" id="-25438">
		<tag k="name" v="Ospeskogen" />
		<tag k="place" v="locality" />
		<tag k="ssr:stedsnr" v="29901" />
	</node>
	<node lat="60.468813892240206" lon="5.891119445944743" id="-25475">
		<tag k="historic" v="shieling" />
		<tag k="name" v="Smalastølen" />
=======
	<node id="-630432" lat="60.4072888844" lon="5.72599166236">
		<tag k="name" v="Utgjerdet" />
		<tag k="place" v="locality" />
		<tag k="ssr:stedsnr" v="575941" />
	</node>
	<node id="-629660" lat="60.3340583339" lon="5.70221388656">
		<tag k="name" v="Skonholtet" />
		<tag k="place" v="locality" />
		<tag k="ssr:stedsnr" v="116015" />
	</node>
	<node id="-630045" lat="60.4301805529" lon="5.84256110779">
		<tag k="landuse" v="meadow" />
		<tag k="name" v="Vassenden" />
		<tag k="ssr:stedsnr" v="941448" />
	</node>
	<node id="-629788" lat="60.3476333362" lon="5.70042499148">
		<tag k="name" v="Nevramyr" />
		<tag k="natural" v="wetland" />
		<tag k="ssr:stedsnr" v="419108" />
	</node>
	<node id="-629907" lat="60.3514388862" lon="5.79820000794">
		<tag k="name" v="Setramyrane" />
		<tag k="natural" v="wetland" />
		<tag k="ssr:stedsnr" v="604040" />
	</node>
	<node id="-630542" lat="60.4492777791" lon="5.87237778285">
		<tag k="name" v="Gavlen" />
		<tag k="place" v="locality" />
		<tag k="ssr:stedsnr" v="820550" />
	</node>
	<node id="-630539" lat="60.4219500015" lon="5.81553611476">
		<tag k="name" v="Ytstafisket" />
>>>>>>> e1d4bc35ff8a6074a6f2e91616a996b547c36f15
		<tag k="place" v="locality" />
		<tag k="ssr:stedsnr" v="91094" />
	</node>
<<<<<<< HEAD
	<node lat="60.33405833393195" lon="5.702213886563529" id="-25486">
		<tag k="name" v="Skonholtet" />
		<tag k="place" v="locality" />
		<tag k="ssr:stedsnr" v="116015" />
	</node>
	<node lat="60.35332499769214" lon="5.819044435890306" id="-25489">
		<tag k="name" v="Myrane" />
		<tag k="natural" v="wetland" />
		<tag k="ssr:stedsnr" v="119042" />
	</node>
	<node lat="60.41707500126935" lon="5.846949996398136" id="-25494">
		<tag k="landuse" v="meadow" />
		<tag k="name" v="Slåtta" />
		<tag k="ssr:stedsnr" v="126472" />
	</node>
	<node lat="60.362411114362075" lon="5.85253611885892" id="-25515">
		<tag k="name" v="Moltemyri" />
		<tag k="natural" v="wetland" />
		<tag k="ssr:stedsnr" v="161945" />
	</node>
	<node lat="60.332149999148506" lon="5.724258341283549" id="-25568">
		<tag k="historic" v="shieling" />
		<tag k="name" v="Brunestølen" />
		<tag k="place" v="locality" />
		<tag k="ssr:stedsnr" v="298001" />
	</node>
	<node lat="60.31145000065154" lon="5.622138887328285" id="-25591">
		<tag k="name" v="Myra" />
		<tag k="place" v="locality" />
		<tag k="ssr:stedsnr" v="309283" />
	</node>
	<node lat="60.36629166407944" lon="5.731594449773947" id="-25636">
=======
	<node id="-630030" lat="60.4332305548" lon="5.80843333863">
		<tag k="name" v="Setrafeta" />
		<tag k="place" v="locality" />
		<tag k="ssr:stedsnr" v="819465" />
	</node>
	<node id="-630380" lat="60.3662916641" lon="5.73159444977">
>>>>>>> e1d4bc35ff8a6074a6f2e91616a996b547c36f15
		<tag k="name" v="Porsmyra" />
		<tag k="natural" v="wetland" />
		<tag k="ssr:stedsnr" v="423062" />
	</node>
<<<<<<< HEAD
	<node lat="60.345338893064174" lon="5.719130547051659" id="-25667">
		<tag k="historic" v="shieling" />
		<tag k="name" v="Sandvikasetret" />
		<tag k="place" v="locality" />
		<tag k="ssr:stedsnr" v="540031" />
	</node>
	<node lat="60.369641662597196" lon="5.802588882551189" id="-25672">
		<tag k="name" v="Storemyri" />
		<tag k="natural" v="wetland" />
		<tag k="ssr:stedsnr" v="544041" />
	</node>
	<node lat="60.40728888437081" lon="5.725991662356557" id="-25686">
		<tag k="name" v="Utgjerdet" />
		<tag k="place" v="locality" />
		<tag k="ssr:stedsnr" v="575941" />
	</node>
	<node lat="60.3434583306542" lon="5.769311105032234" id="-25706">
		<tag k="name" v="Langafonni" />
		<tag k="place" v="locality" />
		<tag k="ssr:stedsnr" v="601938" />
	</node>
	<node lat="60.35956944478702" lon="5.688841659542644" id="-25720">
		<tag k="name" v="Steinastykket" />
		<tag k="place" v="locality" />
		<tag k="ssr:stedsnr" v="635581" />
	</node>
	<node lat="60.42195000154208" lon="5.815536114756054" id="-25807">
		<tag k="name" v="Ytstafisket" />
		<tag k="place" v="locality" />
		<tag k="ssr:stedsnr" v="819498" />
	</node>
	<node lat="60.43323055476474" lon="5.808433338625772" id="-25811">
		<tag k="name" v="Setrafeta" />
		<tag k="place" v="locality" />
		<tag k="ssr:stedsnr" v="819465" />
	</node>
	<node lat="60.44927777905352" lon="5.872377782853855" id="-25814">
		<tag k="name" v="Gavlen" />
		<tag k="place" v="locality" />
		<tag k="ssr:stedsnr" v="820550" />
	</node>
	<node lat="60.36930277363803" lon="5.674325000173397" id="-25836">
		<tag k="name" v="Husnovemyra" />
		<tag k="natural" v="wetland" />
		<tag k="ssr:stedsnr" v="879545" />
	</node>
	<node lat="60.430180552893354" lon="5.8425611077871515" id="-25849">
		<tag k="landuse" v="meadow" />
		<tag k="name" v="Vassenden" />
		<tag k="ssr:stedsnr" v="941448" />
=======
	<node id="-629766" lat="60.3227833369" lon="5.6211666666">
		<tag k="name" v="Træet" />
		<tag k="place" v="locality" />
		<tag k="ssr:stedsnr" v="491223" />
	</node>
	<node id="-630275" lat="60.3645555552" lon="5.63848611342">
		<tag k="name" v="Hatlefloten" />
		<tag k="place" v="locality" />
		<tag k="ssr:stedsnr" v="211627" />
>>>>>>> e1d4bc35ff8a6074a6f2e91616a996b547c36f15
	</node>
</osm>
