<?xml version="1.0" encoding="UTF-8"?>
<osm version="0.6" generator="osmapis">
	<node lat="60.33357500441891" lon="5.655713888854518" id="-69884">
		<tag k="name" v="Ylstevika" />
		<tag k="natural" v="bay" />
		<tag k="ssr:stedsnr" v="237101" />
	</node>
	<node lat="60.36811110725254" lon="5.705025005832492" id="-69977">
		<tag k="name" v="Hetleviki" />
		<tag k="natural" v="bay" />
		<tag k="ssr:stedsnr" v="241041" />
	</node>
	<node lat="60.327644447935796" lon="5.6553777806739065" id="-70012">
		<tag k="name" v="Tjøregruva" />
		<tag k="natural" v="bay" />
		<tag k="ssr:stedsnr" v="298112" />
	</node>
	<node lat="60.34495555487724" lon="5.657630560617938" id="-70080">
		<tag k="name" v="Liodden" />
		<tag k="natural" v="cape" />
		<tag k="ssr:stedsnr" v="419099" />
	</node>
	<node lat="60.37175277722985" lon="5.658091664928797" id="-70095">
		<tag k="name" v="Skarsvåg" />
		<tag k="natural" v="bay" />
		<tag k="ssr:stedsnr" v="430149" />
	</node>
	<node lat="60.39923096893875" lon="5.733058977070172" id="-70154">
		<tag k="alt_name" v="Vågen" />
		<tag k="name" v="Grunnavågen" />
		<tag k="natural" v="bay" />
		<tag k="ssr:stedsnr" v="514966" />
	</node>
	<node lat="60.34258055650954" lon="5.675805554248412" id="-70230">
		<tag k="name" v="Rangesvika" />
		<tag k="natural" v="bay" />
		<tag k="ssr:stedsnr" v="661099" />
	</node>
	<node lat="60.33937222438431" lon="5.662116661269902" id="-70231">
		<tag k="name" v="Hunaneset" />
		<tag k="natural" v="cape" />
		<tag k="ssr:stedsnr" v="661102" />
	</node>
	<node lat="60.369097222075695" lon="5.740119446992577" id="-70359">
		<tag k="name" v="Kleppsviki" />
		<tag k="natural" v="bay" />
		<tag k="ssr:stedsnr" v="908051" />
	</node>
	<node lat="60.36886666737822" lon="5.717038887773605" id="-70360">
		<tag k="name" v="Ospeviki" />
		<tag k="natural" v="bay" />
		<tag k="ssr:stedsnr" v="908053" />
	</node>
	<node lat="60.33968055155465" lon="5.662991673796747" id="-70371">
		<tag k="name" v="Furnesbukta" />
		<tag k="natural" v="bay" />
		<tag k="ssr:stedsnr" v="965110" />
	</node>
	<node lat="60.345480558903276" lon="5.664177779482125" id="-70564">
		<tag k="name" v="Raudaneset" />
		<tag k="natural" v="cape" />
		<tag k="ssr:stedsnr" v="358093" />
	</node>
	<node lat="60.369661107632766" lon="5.736305561175688" id="-70565">
		<tag k="name" v="Barmaneset" />
		<tag k="natural" v="cape" />
		<tag k="ssr:stedsnr" v="362050" />
	</node>
	<node lat="60.330986109687004" lon="5.629044439909911" id="-70577">
		<tag k="name" v="Lensmannsflua" />
		<tag k="natural" v="shoal" />
		<tag k="place" v="locality" />
		<tag k="ssr:stedsnr" v="388149" />
	</node>
	<node lat="60.38097777675706" lon="5.762344444114172" id="-70605">
		<tag k="name" v="Hagamulen" />
		<tag k="natural" v="cape" />
		<tag k="ssr:stedsnr" v="510283" />
	</node>
	<node lat="60.34563610686774" lon="5.654986103279498" id="-70663">
		<tag k="name" v="Flæa" />
		<tag k="natural" v="bay" />
		<tag k="ssr:stedsnr" v="601079" />
	</node>
	<node lat="60.337474998760506" lon="5.632144447482634" id="-70722">
		<tag k="name" v="Hattavika" />
		<tag k="natural" v="bay" />
		<tag k="ssr:stedsnr" v="752279" />
	</node>
	<node lat="60.360177776315254" lon="5.655744448596699" id="-70792">
		<tag k="name" v="Ytstevågen" />
		<tag k="natural" v="bay" />
		<tag k="ssr:stedsnr" v="874312" />
	</node>
	<node lat="60.334252777434195" lon="5.6306111086144535" id="-70793">
		<tag k="name" v="Insteflua" />
		<tag k="natural" v="shoal" />
		<tag k="place" v="locality" />
		<tag k="ssr:stedsnr" v="874178" />
	</node>
	<node lat="60.385325076229854" lon="5.73077701771002" id="-70822">
		<tag k="bay" v="fjord" />
		<tag k="name" v="Indre Samnangerfjorden" />
		<tag k="natural" v="bay" />
		<tag k="ssr:stedsnr" v="991038" />
	</node>
</osm>
