<?xml version="1.0" encoding="UTF-8"?>
<<<<<<< HEAD
<osm version="0.6" generator="osmapis">
	<node lat="60.369033335981776" lon="5.747966657752142" id="-24972">
		<tag k="bridge" v="yes" />
		<tag k="layer" v="1" />
		<tag k="name" v="Barmstøl" />
		<tag k="ssr:stedsnr" v="108219" />
	</node>
	<node lat="60.32418889137689" lon="5.62387499234692" id="-24973">
		<tag k="bridge" v="yes" />
		<tag k="layer" v="1" />
		<tag k="name" v="Bykleiva" />
		<tag k="ssr:stedsnr" v="108223" />
	</node>
	<node lat="60.42834999680816" lon="5.837036106109829" id="-25012">
		<tag k="ford" v="yes" />
		<tag k="name" v="Dyravadet" />
		<tag k="place" v="locality" />
		<tag k="ssr:stedsnr" v="213426" />
	</node>
	<node lat="60.40645555419651" lon="5.790888887432712" id="-25084">
		<tag k="bridge" v="yes" />
		<tag k="layer" v="1" />
		<tag k="name" v="Vetle" />
		<tag k="ssr:stedsnr" v="472226" />
	</node>
	<node lat="60.391308334081984" lon="5.767363885461911" id="-25085">
		<tag k="man_made" v="breakwater" />
		<tag k="name" v="Gjerdsmoloen" />
		<tag k="place" v="locality" />
		<tag k="ssr:stedsnr" v="345417" />
	</node>
	<node lat="60.34544722585478" lon="5.684497219762886" id="-25086">
=======
<osm generator="osmapis" version="0.6">
	<node id="-630141" lat="60.3961694414" lon="5.76371388187">
		<tag k="bridge" v="yes" />
		<tag k="layer" v="1" />
		<tag k="name" v="Vika" />
		<tag k="ssr:stedsnr" v="47241" />
	</node>
	<node id="-630396" lat="60.3959777781" lon="5.70276666343">
>>>>>>> e1d4bc35ff8a6074a6f2e91616a996b547c36f15
		<tag k="bridge" v="yes" />
		<tag k="layer" v="1" />
		<tag k="name" v="Storkleiv" />
		<tag k="ssr:stedsnr" v="533234" />
	</node>
<<<<<<< HEAD
	<node lat="60.40154999751083" lon="5.754555547809831" id="-25209">
		<tag k="bridge" v="yes" />
		<tag k="layer" v="1" />
		<tag k="name" v="Aldalselva" />
		<tag k="ssr:stedsnr" v="533221" />
	</node>
	<node lat="60.39811111243917" lon="5.798363894150618" id="-25273">
		<tag k="bridge" v="yes" />
		<tag k="layer" v="1" />
		<tag k="name" v="Langeland" />
		<tag k="ssr:stedsnr" v="654233" />
	</node>
	<node lat="60.373761109568925" lon="5.753661115361268" id="-25274">
		<tag k="bridge" v="yes" />
		<tag k="layer" v="1" />
		<tag k="name" v="Tysse Ytre" />
		<tag k="ssr:stedsnr" v="654238" />
	</node>
	<node lat="60.42473888581594" lon="5.823447219408673" id="-25327">
		<tag k="bridge" v="yes" />
		<tag k="layer" v="1" />
		<tag k="name" v="Fiske" />
		<tag k="ssr:stedsnr" v="775206" />
	</node>
	<node lat="60.39283611542963" lon="5.7665999917978565" id="-25328">
		<tag k="bridge" v="yes" />
		<tag k="layer" v="1" />
		<tag k="name" v="Nesodden" />
		<tag k="ssr:stedsnr" v="775208" />
	</node>
	<node lat="60.391833334491054" lon="5.76917221434743" id="-25329">
		<tag k="bridge" v="yes" />
		<tag k="layer" v="1" />
		<tag k="name" v="Hagaåsen" />
		<tag k="ssr:stedsnr" v="775202" />
	</node>
	<node lat="60.44809722379491" lon="5.8622138916541795" id="-25373">
		<tag k="bridge" v="yes" />
		<tag k="layer" v="1" />
		<tag k="name" v="Tverrelva" />
		<tag k="ssr:stedsnr" v="836189" />
	</node>
	<node lat="60.33066944031471" lon="5.6881611186193215" id="-25374">
		<tag k="bridge" v="yes" />
		<tag k="layer" v="1" />
		<tag k="name" v="Sævild" />
		<tag k="ssr:stedsnr" v="836190" />
	</node>
	<node lat="60.32915833587048" lon="5.6142444373097256" id="-25391">
		<tag k="highway" v="path" />
		<tag k="name" v="Bykleiva" />
		<tag k="ssr:stedsnr" v="879912" />
	</node>
	<node lat="60.367325002309535" lon="5.724288883590541" id="-25398">
		<tag k="bridge" v="yes" />
		<tag k="layer" v="1" />
		<tag k="name" v="Gaupholm" />
		<tag k="ssr:stedsnr" v="897214" />
	</node>
	<node lat="60.40426110819854" lon="5.726991664351146" id="-25399">
		<tag k="bridge" v="yes" />
		<tag k="layer" v="1" />
		<tag k="name" v="Reistadvika" />
		<tag k="ssr:stedsnr" v="897215" />
	</node>
	<node lat="60.2964111127795" lon="5.616100005557193" id="-25400">
		<tag k="bridge" v="yes" />
		<tag k="layer" v="1" />
		<tag k="name" v="Solberg" />
		<tag k="ssr:stedsnr" v="897219" />
	</node>
	<node lat="60.377477781962185" lon="5.809197226458478" id="-25447">
		<tag k="bridge" v="yes" />
		<tag k="layer" v="1" />
		<tag k="name" v="Frøland" />
		<tag k="ssr:stedsnr" v="47232" />
	</node>
	<node lat="60.384516670311214" lon="5.8055361143283974" id="-25448">
		<tag k="bridge" v="yes" />
		<tag k="layer" v="1" />
		<tag k="name" v="Frølandskanalen" />
		<tag k="ssr:stedsnr" v="47233" />
	</node>
	<node lat="60.381258332944455" lon="5.860233332839345" id="-25449">
		<tag k="bridge" v="yes" />
		<tag k="layer" v="1" />
		<tag k="name" v="Kuholm" />
		<tag k="ssr:stedsnr" v="47236" />
	</node>
	<node lat="60.38903611143319" lon="5.666658330869916" id="-25450">
=======
	<node id="-630139" lat="60.3812583329" lon="5.86023333284">
		<tag k="bridge" v="yes" />
		<tag k="layer" v="1" />
		<tag k="name" v="Kuholm" />
		<tag k="ssr:stedsnr" v="47236" />
	</node>
	<node id="-630138" lat="60.3845166703" lon="5.80553611433">
		<tag k="bridge" v="yes" />
		<tag k="layer" v="1" />
		<tag k="name" v="Frølandskanalen" />
		<tag k="ssr:stedsnr" v="47233" />
	</node>
	<node id="-630137" lat="60.377477782" lon="5.80919722646">
		<tag k="bridge" v="yes" />
		<tag k="layer" v="1" />
		<tag k="name" v="Frøland" />
		<tag k="ssr:stedsnr" v="47232" />
	</node>
	<node id="-629880" lat="60.4015499975" lon="5.75455554781">
		<tag k="bridge" v="yes" />
		<tag k="layer" v="1" />
		<tag k="name" v="Aldalselva" />
		<tag k="ssr:stedsnr" v="533221" />
	</node>
	<node id="-629743" lat="60.3913083341" lon="5.76736388546">
		<tag k="man_made" v="breakwater" />
		<tag k="name" v="Gjerdsmoloen" />
		<tag k="place" v="locality" />
		<tag k="ssr:stedsnr" v="345417" />
	</node>
	<node id="-630507" lat="60.3606222184" lon="5.63263889346">
		<tag k="bridge" v="yes" />
		<tag k="layer" v="1" />
		<tag k="name" v="Sagelva" />
		<tag k="ssr:stedsnr" v="775215" />
	</node>
	<node id="-630506" lat="60.3928361154" lon="5.7665999918">
		<tag k="bridge" v="yes" />
		<tag k="layer" v="1" />
		<tag k="name" v="Nesodden" />
		<tag k="ssr:stedsnr" v="775208" />
	</node>
	<node id="-630505" lat="60.4247388858" lon="5.82344721941">
		<tag k="bridge" v="yes" />
		<tag k="layer" v="1" />
		<tag k="name" v="Fiske" />
		<tag k="ssr:stedsnr" v="775206" />
	</node>
	<node id="-630504" lat="60.3918333345" lon="5.76917221435">
		<tag k="bridge" v="yes" />
		<tag k="layer" v="1" />
		<tag k="name" v="Hagaåsen" />
		<tag k="ssr:stedsnr" v="775202" />
	</node>
	<node id="-630140" lat="60.3890361114" lon="5.66665833087">
		<tag k="bridge" v="yes" />
		<tag k="layer" v="1" />
		<tag k="name" v="Store" />
		<tag k="ssr:stedsnr" v="47237" />
	</node>
	<node id="-629733" lat="60.4064555542" lon="5.79088888743">
		<tag k="bridge" v="yes" />
		<tag k="layer" v="1" />
		<tag k="name" v="Vetle" />
		<tag k="ssr:stedsnr" v="472226" />
	</node>
	<node id="-630488" lat="60.3737611096" lon="5.75366111536">
		<tag k="bridge" v="yes" />
		<tag k="layer" v="1" />
		<tag k="name" v="Tysse Ytre" />
		<tag k="ssr:stedsnr" v="654238" />
	</node>
	<node id="-630487" lat="60.3981111124" lon="5.79836389415">
		<tag k="bridge" v="yes" />
		<tag k="layer" v="1" />
		<tag k="name" v="Langeland" />
		<tag k="ssr:stedsnr" v="654233" />
	</node>
	<node id="-630486" lat="60.4000027766" lon="5.70871665917">
		<tag k="bridge" v="yes" />
		<tag k="layer" v="1" />
		<tag k="name" v="Kvernbekk" />
		<tag k="ssr:stedsnr" v="654231" />
	</node>
	<node id="-629881" lat="60.4548666698" lon="5.88461389163">
		<tag k="bridge" v="yes" />
		<tag k="layer" v="1" />
		<tag k="name" v="Kvernelv" />
		<tag k="ssr:stedsnr" v="533232" />
	</node>
	<node id="-629956" lat="60.3291583359" lon="5.61424443731">
		<tag k="highway" v="path" />
		<tag k="name" v="Bykleiva" />
		<tag k="ssr:stedsnr" v="879912" />
	</node>
	<node id="-629699" lat="60.4283499968" lon="5.83703610611">
		<tag k="ford" v="yes" />
		<tag k="name" v="Dyravadet" />
		<tag k="place" v="locality" />
		<tag k="ssr:stedsnr" v="213426" />
	</node>
	<node id="-630335" lat="60.3454472259" lon="5.68449721976">
		<tag k="bridge" v="yes" />
		<tag k="layer" v="1" />
		<tag k="name" v="Juvik" />
		<tag k="ssr:stedsnr" v="350203" />
	</node>
	<node id="-629946" lat="60.4013277759" lon="5.75515000815">
>>>>>>> e1d4bc35ff8a6074a6f2e91616a996b547c36f15
		<tag k="bridge" v="yes" />
		<tag k="layer" v="1" />
		<tag k="name" v="Aldalen" />
		<tag k="ssr:stedsnr" v="654220" />
	</node>
<<<<<<< HEAD
	<node lat="60.39616944137368" lon="5.763713881868684" id="-25451">
		<tag k="bridge" v="yes" />
		<tag k="layer" v="1" />
		<tag k="name" v="Vika" />
		<tag k="ssr:stedsnr" v="47241" />
	</node>
	<node lat="60.3339638845098" lon="5.626724995247965" id="-25485">
		<tag k="bridge" v="yes" />
		<tag k="layer" v="1" />
		<tag k="name" v="Våge" />
		<tag k="ssr:stedsnr" v="108235" />
	</node>
	<node lat="60.4505638854175" lon="5.873205560389046" id="-25516">
		<tag k="bridge" v="yes" />
		<tag k="layer" v="1" />
		<tag k="name" v="Kleivane" />
		<tag k="ssr:stedsnr" v="168225" />
	</node>
	<node lat="60.45486666981003" lon="5.884613891628304" id="-25664">
		<tag k="bridge" v="yes" />
		<tag k="layer" v="1" />
		<tag k="name" v="Kvernelv" />
		<tag k="ssr:stedsnr" v="533232" />
	</node>
	<node lat="60.395977778083335" lon="5.702766663431357" id="-25665">
		<tag k="bridge" v="yes" />
		<tag k="layer" v="1" />
		<tag k="name" v="Storkleiv" />
		<tag k="ssr:stedsnr" v="533234" />
	</node>
	<node lat="60.4009888928815" lon="5.7552277841094694" id="-25702">
		<tag k="bridge" v="yes" />
		<tag k="layer" v="1" />
		<tag k="name" v="Aldal" />
		<tag k="ssr:stedsnr" v="593200" />
	</node>
	<node lat="60.4013277758712" lon="5.755150008149653" id="-25728">
		<tag k="bridge" v="yes" />
		<tag k="layer" v="1" />
		<tag k="name" v="Aldalen" />
		<tag k="ssr:stedsnr" v="654220" />
	</node>
	<node lat="60.400002776574745" lon="5.708716659171921" id="-25729">
		<tag k="bridge" v="yes" />
		<tag k="layer" v="1" />
		<tag k="name" v="Kvernbekk" />
		<tag k="ssr:stedsnr" v="654231" />
	</node>
	<node lat="60.39161944666617" lon="5.840866659128446" id="-25736">
=======
	<node id="-629683" lat="60.4505638854" lon="5.87320556039">
		<tag k="bridge" v="yes" />
		<tag k="layer" v="1" />
		<tag k="name" v="Kleivane" />
		<tag k="ssr:stedsnr" v="168225" />
	</node>
	<node id="-630066" lat="60.4042611082" lon="5.72699166435">
		<tag k="bridge" v="yes" />
		<tag k="layer" v="1" />
		<tag k="name" v="Reistadvika" />
		<tag k="ssr:stedsnr" v="897215" />
	</node>
	<node id="-630067" lat="60.2964111128" lon="5.61610000556">
		<tag k="bridge" v="yes" />
		<tag k="layer" v="1" />
		<tag k="name" v="Solberg" />
		<tag k="ssr:stedsnr" v="897219" />
	</node>
	<node id="-630447" lat="60.4009888929" lon="5.75522778411">
		<tag k="bridge" v="yes" />
		<tag k="layer" v="1" />
		<tag k="name" v="Aldal" />
		<tag k="ssr:stedsnr" v="593200" />
	</node>
	<node id="-630190" lat="60.3339638845" lon="5.62672499525">
		<tag k="bridge" v="yes" />
		<tag k="layer" v="1" />
		<tag k="name" v="Våge" />
		<tag k="ssr:stedsnr" v="108235" />
	</node>
	<node id="-630189" lat="60.3241888914" lon="5.62387499235">
		<tag k="bridge" v="yes" />
		<tag k="layer" v="1" />
		<tag k="name" v="Bykleiva" />
		<tag k="ssr:stedsnr" v="108223" />
	</node>
	<node id="-630572" lat="60.3878222209" lon="5.84838888268">
		<tag k="bridge" v="yes" />
		<tag k="layer" v="1" />
		<tag k="name" v="Verka" />
		<tag k="ssr:stedsnr" v="958240" />
	</node>
	<node id="-630571" lat="60.3773222235" lon="5.65305833064">
		<tag k="bridge" v="yes" />
		<tag k="layer" v="1" />
		<tag k="name" v="Nordbø" />
		<tag k="ssr:stedsnr" v="958237" />
	</node>
	<node id="-630065" lat="60.3673250023" lon="5.72428888359">
		<tag k="bridge" v="yes" />
		<tag k="layer" v="1" />
		<tag k="name" v="Gaupholm" />
		<tag k="ssr:stedsnr" v="897214" />
	</node>
	<node id="-629905" lat="60.3916194467" lon="5.84086665913">
>>>>>>> e1d4bc35ff8a6074a6f2e91616a996b547c36f15
		<tag k="bridge" v="yes" />
		<tag k="layer" v="1" />
		<tag k="name" v="Mørkhøl" />
		<tag k="ssr:stedsnr" v="715238" />
	</node>
<<<<<<< HEAD
	<node lat="60.36062221837134" lon="5.632638893456762" id="-25776">
		<tag k="bridge" v="yes" />
		<tag k="layer" v="1" />
		<tag k="name" v="Sagelva" />
		<tag k="ssr:stedsnr" v="775215" />
	</node>
	<node lat="60.37732222348915" lon="5.653058330640156" id="-25856">
		<tag k="bridge" v="yes" />
		<tag k="layer" v="1" />
		<tag k="name" v="Nordbø" />
		<tag k="ssr:stedsnr" v="958237" />
	</node>
	<node lat="60.387822220927525" lon="5.848388882680839" id="-25857">
		<tag k="bridge" v="yes" />
		<tag k="layer" v="1" />
		<tag k="name" v="Verka" />
		<tag k="ssr:stedsnr" v="958240" />
=======
	<node id="-630032" lat="60.3306694403" lon="5.68816111862">
		<tag k="bridge" v="yes" />
		<tag k="layer" v="1" />
		<tag k="name" v="Sævild" />
		<tag k="ssr:stedsnr" v="836190" />
	</node>
	<node id="-630031" lat="60.4480972238" lon="5.86221389165">
		<tag k="bridge" v="yes" />
		<tag k="layer" v="1" />
		<tag k="name" v="Tverrelva" />
		<tag k="ssr:stedsnr" v="836189" />
	</node>
	<node id="-630188" lat="60.369033336" lon="5.74796665775">
		<tag k="bridge" v="yes" />
		<tag k="layer" v="1" />
		<tag k="name" v="Barmstøl" />
		<tag k="ssr:stedsnr" v="108219" />
>>>>>>> e1d4bc35ff8a6074a6f2e91616a996b547c36f15
	</node>
</osm>
