<?xml version="1.0" encoding="UTF-8"?>
<<<<<<< HEAD
<osm version="0.6" generator="osmapis">
	<node lat="60.405261114375236" lon="5.768463895155536" id="-24904">
		<tag k="name" v="Raudaberget" />
		<tag k="natural" v="hill" />
		<tag k="place" v="locality" />
		<tag k="ssr:stedsnr" v="5081" />
	</node>
	<node lat="60.33959166701258" lon="5.604291672699211" id="-24906">
		<tag k="name" v="Elvane" />
		<tag k="natural" v="valley" />
=======
<osm generator="osmapis" version="0.6">
	<node id="-630577" lat="60.3165085415" lon="5.66557646392">
		<tag k="name" v="Hopsliskaret" />
		<tag k="natural" v="valley" />
		<tag k="place" v="locality" />
		<tag k="ssr:stedsnr" v="976353" />
	</node>
	<node id="-630576" lat="60.3158151853" lon="5.66194856724">
		<tag k="fixme" v="consider natural=peak for the most distinct mountains in the district" />
		<tag k="name" v="Ervikåsen" />
		<tag k="natural" v="hill" />
		<tag k="place" v="locality" />
		<tag k="ssr:stedsnr" v="976352" />
	</node>
	<node id="-630574" lat="60.3683027783" lon="5.78311111171">
		<tag k="name" v="Grøna lii" />
		<tag k="natural" v="slope" />
		<tag k="place" v="locality" />
		<tag k="ssr:stedsnr" v="969043" />
	</node>
	<node id="-630570" lat="60.3689472204" lon="5.82659167264">
		<tag k="name" v="Tørrnakken" />
		<tag k="place" v="locality" />
		<tag k="ssr:stedsnr" v="950963" />
	</node>
	<node id="-630568" lat="60.3835861137" lon="5.84665556155">
		<tag k="fixme" v="consider natural=peak for the most distinct mountains in the district" />
		<tag k="name" v="Bergsenden" />
		<tag k="natural" v="hill" />
>>>>>>> e1d4bc35ff8a6074a6f2e91616a996b547c36f15
		<tag k="place" v="locality" />
		<tag k="ssr:stedsnr" v="5211" />
	</node>
<<<<<<< HEAD
	<node lat="60.341847224601054" lon="5.616844450397753" id="-24907">
		<tag k="name" v="Hildersbotnen" />
		<tag k="natural" v="valley" />
=======
	<node id="-630562" lat="60.4635527819" lon="5.90584721476">
		<tag k="name" v="Vedlia" />
		<tag k="natural" v="slope" />
>>>>>>> e1d4bc35ff8a6074a6f2e91616a996b547c36f15
		<tag k="place" v="locality" />
		<tag k="ssr:stedsnr" v="5219" />
	</node>
<<<<<<< HEAD
	<node lat="60.43718055568682" lon="5.918175002941217" id="-24912">
		<tag k="name" v="Kvanndalsbotnane" />
		<tag k="natural" v="valley" />
=======
	<node id="-630561" lat="60.414955556" lon="5.82505833811">
		<tag k="fixme" v="consider natural=peak for the most distinct mountains in the district" />
		<tag k="name" v="Svensdalsåsen" />
		<tag k="natural" v="hill" />
>>>>>>> e1d4bc35ff8a6074a6f2e91616a996b547c36f15
		<tag k="place" v="locality" />
		<tag k="ssr:stedsnr" v="5412" />
	</node>
<<<<<<< HEAD
	<node lat="60.41422221813414" lon="5.848944446639527" id="-24913">
=======
	<node id="-630560" lat="60.4051916665" lon="5.68912499544">
>>>>>>> e1d4bc35ff8a6074a6f2e91616a996b547c36f15
		<tag k="fixme" v="consider natural=peak for the most distinct mountains in the district" />
		<tag k="name" v="Åsane" />
		<tag k="natural" v="hill" />
		<tag k="place" v="locality" />
		<tag k="ssr:stedsnr" v="5422" />
	</node>
<<<<<<< HEAD
	<node lat="60.40853611355047" lon="5.883491673063356" id="-24914">
		<tag k="name" v="Huldabotnen" />
		<tag k="natural" v="valley" />
=======
	<node id="-630557" lat="60.3509972236" lon="5.71075833017">
		<tag k="name" v="Saualego" />
>>>>>>> e1d4bc35ff8a6074a6f2e91616a996b547c36f15
		<tag k="place" v="locality" />
		<tag k="ssr:stedsnr" v="5425" />
	</node>
<<<<<<< HEAD
	<node lat="60.377005559888346" lon="5.644777772976941" id="-24915">
		<tag k="name" v="Rindane" />
		<tag k="natural" v="slope" />
=======
	<node id="-630556" lat="60.3509166694" lon="5.71298888604">
		<tag k="name" v="Fluheiane" />
		<tag k="natural" v="hill" />
>>>>>>> e1d4bc35ff8a6074a6f2e91616a996b547c36f15
		<tag k="place" v="locality" />
		<tag k="ssr:stedsnr" v="6160" />
	</node>
<<<<<<< HEAD
	<node lat="60.50633333368333" lon="5.981463885155761" id="-24916">
		<tag k="name" v="Høgda" />
=======
	<node id="-630555" lat="60.3503222177" lon="5.72432499238">
		<tag k="name" v="Utløhaugen" />
>>>>>>> e1d4bc35ff8a6074a6f2e91616a996b547c36f15
		<tag k="natural" v="hill" />
		<tag k="place" v="locality" />
		<tag k="ssr:stedsnr" v="6983" />
	</node>
<<<<<<< HEAD
	<node lat="60.39722499651451" lon="5.767502781179498" id="-24919">
		<tag k="name" v="Heia" />
=======
	<node id="-630550" lat="60.360794445" lon="5.88151666738">
		<tag k="name" v="Plytten" />
>>>>>>> e1d4bc35ff8a6074a6f2e91616a996b547c36f15
		<tag k="natural" v="hill" />
		<tag k="place" v="locality" />
		<tag k="ssr:stedsnr" v="29801" />
	</node>
<<<<<<< HEAD
	<node lat="60.39794999800086" lon="5.670344450021401" id="-24920">
		<tag k="name" v="Akselskaret" />
		<tag k="natural" v="valley" />
=======
	<node id="-630549" lat="60.3630861091" lon="5.85675278424">
		<tag k="name" v="Moltemyrkultane" />
		<tag k="natural" v="hill" />
>>>>>>> e1d4bc35ff8a6074a6f2e91616a996b547c36f15
		<tag k="place" v="locality" />
		<tag k="ssr:stedsnr" v="29871" />
	</node>
<<<<<<< HEAD
	<node lat="60.431194447752084" lon="5.879958334849811" id="-24923">
		<tag k="name" v="Vierkleiva" />
=======
	<node id="-630548" lat="60.3509916653" lon="5.88042222755">
		<tag k="fixme" v="consider natural=peak for the most distinct mountains in the district" />
		<tag k="name" v="Storagrøet" />
>>>>>>> e1d4bc35ff8a6074a6f2e91616a996b547c36f15
		<tag k="natural" v="hill" />
		<tag k="place" v="locality" />
		<tag k="ssr:stedsnr" v="31112" />
	</node>
<<<<<<< HEAD
	<node lat="60.44463888928065" lon="5.860122228686074" id="-24924">
		<tag k="name" v="Dyralia" />
		<tag k="natural" v="slope" />
=======
	<node id="-630547" lat="60.3360166711" lon="5.76403055469">
		<tag k="fixme" v="consider natural=peak for the most distinct mountains in the district" />
		<tag k="name" v="Burlisåta" />
		<tag k="natural" v="hill" />
>>>>>>> e1d4bc35ff8a6074a6f2e91616a996b547c36f15
		<tag k="place" v="locality" />
		<tag k="ssr:stedsnr" v="31510" />
	</node>
<<<<<<< HEAD
	<node lat="60.43975555621511" lon="5.846858333793489" id="-24926">
=======
	<node id="-630546" lat="60.4380250038" lon="5.84327221794">
>>>>>>> e1d4bc35ff8a6074a6f2e91616a996b547c36f15
		<tag k="fixme" v="consider natural=peak for the most distinct mountains in the district" />
		<tag k="name" v="Vetlåsen" />
		<tag k="natural" v="hill" />
		<tag k="place" v="locality" />
		<tag k="ssr:stedsnr" v="31979" />
	</node>
<<<<<<< HEAD
	<node lat="60.36844999631938" lon="5.664858340176777" id="-24927">
		<tag k="name" v="Senabrekka" />
=======
	<node id="-630543" lat="60.4500222193" lon="5.87394167184">
		<tag k="name" v="Kriken" />
>>>>>>> e1d4bc35ff8a6074a6f2e91616a996b547c36f15
		<tag k="natural" v="slope" />
		<tag k="place" v="locality" />
		<tag k="ssr:stedsnr" v="272538" />
	</node>
<<<<<<< HEAD
	<node lat="60.3528277791527" lon="5.791675006654446" id="-24928">
		<tag k="name" v="Haugslii" />
		<tag k="natural" v="slope" />
		<tag k="place" v="locality" />
		<tag k="ssr:stedsnr" v="237019" />
	</node>
	<node lat="60.34586944816584" lon="5.725655546801775" id="-24930">
		<tag k="name" v="Høystakkadalen" />
=======
	<node id="-630541" lat="60.3947305551" lon="5.86900000495">
		<tag k="name" v="Grøna Lia" />
		<tag k="natural" v="slope" />
		<tag k="place" v="locality" />
		<tag k="ssr:stedsnr" v="819426" />
	</node>
	<node id="-630540" lat="60.4200527744" lon="5.84046667387">
		<tag k="name" v="Heiabruna" />
		<tag k="natural" v="hill" />
		<tag k="place" v="locality" />
		<tag k="ssr:stedsnr" v="819400" />
	</node>
	<node id="-630538" lat="60.4237999967" lon="5.87451665835">
		<tag k="fixme" v="consider natural=peak for the most distinct mountains in the district" />
		<tag k="name" v="Skarsrusta" />
		<tag k="natural" v="hill" />
		<tag k="place" v="locality" />
		<tag k="ssr:stedsnr" v="819393" />
	</node>
	<node id="-630536" lat="60.3385861088" lon="5.61493333128">
		<tag k="name" v="Øykjadalen" />
>>>>>>> e1d4bc35ff8a6074a6f2e91616a996b547c36f15
		<tag k="natural" v="valley" />
		<tag k="place" v="locality" />
		<tag k="ssr:stedsnr" v="237021" />
	</node>
<<<<<<< HEAD
	<node lat="60.365847225380506" lon="5.880541659931567" id="-24933">
		<tag k="name" v="Plyttagjeldet" />
		<tag k="natural" v="valley" />
		<tag k="place" v="locality" />
		<tag k="ssr:stedsnr" v="40984" />
	</node>
	<node lat="60.343708334732916" lon="5.813527782479385" id="-24934">
		<tag k="name" v="Kvanndalsgjelet" />
=======
	<node id="-630531" lat="60.4057777745" lon="5.85500277532">
		<tag k="name" v="Utløbotnen" />
		<tag k="natural" v="valley" />
		<tag k="place" v="locality" />
		<tag k="ssr:stedsnr" v="794457" />
	</node>
	<node id="-630530" lat="60.4710722205" lon="5.85198333515">
		<tag k="fixme" v="consider natural=peak for the most distinct mountains in the district" />
		<tag k="name" v="Storafjellet" />
		<tag k="natural" v="hill" />
		<tag k="place" v="locality" />
		<tag k="ssr:stedsnr" v="794338" />
	</node>
	<node id="-630529" lat="60.4642250028" lon="5.91940556142">
		<tag k="name" v="Botnane" />
>>>>>>> e1d4bc35ff8a6074a6f2e91616a996b547c36f15
		<tag k="natural" v="valley" />
		<tag k="place" v="locality" />
		<tag k="ssr:stedsnr" v="237946" />
	</node>
<<<<<<< HEAD
	<node lat="60.35625277723986" lon="5.810697228812143" id="-24936">
		<tag k="name" v="Floren" />
=======
	<node id="-630527" lat="60.4975361096" lon="5.92013054938">
		<tag k="name" v="Gjetlo" />
>>>>>>> e1d4bc35ff8a6074a6f2e91616a996b547c36f15
		<tag k="natural" v="hill" />
		<tag k="place" v="locality" />
		<tag k="ssr:stedsnr" v="59008" />
	</node>
<<<<<<< HEAD
	<node lat="60.358919447364414" lon="5.760491659129947" id="-24937">
		<tag k="fixme" v="consider natural=peak for the most distinct mountains in the district" />
		<tag k="name" v="Skaråsen" />
		<tag k="natural" v="hill" />
=======
	<node id="-630526" lat="60.4913083378" lon="5.88770277718">
		<tag k="name" v="Herfangsgjelet" />
		<tag k="natural" v="valley" />
>>>>>>> e1d4bc35ff8a6074a6f2e91616a996b547c36f15
		<tag k="place" v="locality" />
		<tag k="ssr:stedsnr" v="241051" />
	</node>
<<<<<<< HEAD
	<node lat="60.34057222332291" lon="5.834130563721728" id="-24943">
		<tag k="fixme" v="consider natural=peak for the most distinct mountains in the district" />
		<tag k="name" v="Geitaloftet" />
		<tag k="natural" v="hill" />
=======
	<node id="-630524" lat="60.4106000001" lon="5.81042500661">
		<tag k="name" v="Svensdalen" />
		<tag k="natural" v="valley" />
>>>>>>> e1d4bc35ff8a6074a6f2e91616a996b547c36f15
		<tag k="place" v="locality" />
		<tag k="ssr:stedsnr" v="66222" />
	</node>
<<<<<<< HEAD
	<node lat="60.29776110994277" lon="5.603005558251863" id="-24944">
=======
	<node id="-630520" lat="60.4402749976" lon="5.73210832743">
>>>>>>> e1d4bc35ff8a6074a6f2e91616a996b547c36f15
		<tag k="fixme" v="consider natural=peak for the most distinct mountains in the district" />
		<tag k="name" v="Solbjørgfjellet" />
		<tag k="natural" v="hill" />
		<tag k="place" v="locality" />
		<tag k="ssr:stedsnr" v="66269" />
	</node>
<<<<<<< HEAD
	<node lat="60.348208328721306" lon="5.932547215487642" id="-24946">
=======
	<node id="-630517" lat="60.3338888848" lon="5.70479723166">
>>>>>>> e1d4bc35ff8a6074a6f2e91616a996b547c36f15
		<tag k="fixme" v="consider natural=peak for the most distinct mountains in the district" />
		<tag k="name" v="Høganova" />
		<tag k="natural" v="hill" />
		<tag k="place" v="locality" />
		<tag k="ssr:stedsnr" v="66575" />
	</node>
<<<<<<< HEAD
	<node lat="60.354427781623194" lon="5.876683330130276" id="-24947">
=======
	<node id="-630516" lat="60.3365555546" lon="5.76553611857">
>>>>>>> e1d4bc35ff8a6074a6f2e91616a996b547c36f15
		<tag k="fixme" v="consider natural=peak for the most distinct mountains in the district" />
		<tag k="name" v="Storagrønova" />
		<tag k="natural" v="hill" />
		<tag k="place" v="locality" />
		<tag k="ssr:stedsnr" v="66622" />
	</node>
	<node lat="60.35071944298756" lon="5.898327769561174" id="-24948">
		<tag k="name" v="Stutabotnen" />
		<tag k="natural" v="valley" />
		<tag k="place" v="locality" />
		<tag k="ssr:stedsnr" v="66623" />
	</node>
<<<<<<< HEAD
	<node lat="60.51966667024097" lon="5.91126666789409" id="-24949">
=======
	<node id="-630512" lat="60.3586249979" lon="5.6407138868">
>>>>>>> e1d4bc35ff8a6074a6f2e91616a996b547c36f15
		<tag k="fixme" v="consider natural=peak for the most distinct mountains in the district" />
		<tag k="name" v="Tverrberget" />
		<tag k="natural" v="hill" />
		<tag k="place" v="locality" />
		<tag k="ssr:stedsnr" v="67755" />
	</node>
<<<<<<< HEAD
	<node lat="60.35338611536349" lon="5.666322218883844" id="-24950">
		<tag k="name" v="Furehaugen" />
=======
	<node id="-630511" lat="60.361319441" lon="5.71871111752">
		<tag k="name" v="Rabbane" />
>>>>>>> e1d4bc35ff8a6074a6f2e91616a996b547c36f15
		<tag k="natural" v="hill" />
		<tag k="place" v="locality" />
		<tag k="ssr:stedsnr" v="90579" />
	</node>
<<<<<<< HEAD
	<node lat="60.361149998383" lon="5.696052779571292" id="-24951">
		<tag k="name" v="Kampalia" />
=======
	<node id="-630510" lat="60.3565138911" lon="5.72570833877">
		<tag k="name" v="Åsabrekkena" />
>>>>>>> e1d4bc35ff8a6074a6f2e91616a996b547c36f15
		<tag k="natural" v="slope" />
		<tag k="place" v="locality" />
		<tag k="ssr:stedsnr" v="90582" />
	</node>
<<<<<<< HEAD
	<node lat="60.4190333354944" lon="5.808880562779719" id="-24954">
		<tag k="name" v="Vetlebotnen" />
		<tag k="natural" v="valley" />
		<tag k="place" v="locality" />
		<tag k="ssr:stedsnr" v="91510" />
	</node>
	<node lat="60.40654166670255" lon="5.83877777688859" id="-24955">
		<tag k="name" v="Kleivane" />
=======
	<node id="-630503" lat="60.3683055514" lon="5.84300277494">
		<tag k="name" v="Dyrvasslii" />
>>>>>>> e1d4bc35ff8a6074a6f2e91616a996b547c36f15
		<tag k="natural" v="slope" />
		<tag k="place" v="locality" />
		<tag k="ssr:stedsnr" v="91517" />
	</node>
<<<<<<< HEAD
	<node lat="60.405049997659816" lon="5.849022223805234" id="-24956">
		<tag k="name" v="Fossabrekka" />
		<tag k="natural" v="slope" />
=======
	<node id="-630501" lat="60.3844527768" lon="5.89549444632">
		<tag k="name" v="Eikedalen" />
		<tag k="natural" v="valley" />
>>>>>>> e1d4bc35ff8a6074a6f2e91616a996b547c36f15
		<tag k="place" v="locality" />
		<tag k="ssr:stedsnr" v="91523" />
	</node>
<<<<<<< HEAD
	<node lat="60.382094444348816" lon="5.897538890979522" id="-24957">
		<tag k="name" v="Storstova" />
=======
	<node id="-630500" lat="60.4280888901" lon="5.84302776939">
		<tag k="name" v="Vårsvoa" />
>>>>>>> e1d4bc35ff8a6074a6f2e91616a996b547c36f15
		<tag k="natural" v="slope" />
		<tag k="place" v="locality" />
		<tag k="ssr:stedsnr" v="92616" />
	</node>
<<<<<<< HEAD
	<node lat="60.40599722604363" lon="5.897730553081514" id="-24967">
		<tag k="fixme" v="consider natural=peak for the most distinct mountains in the district" />
		<tag k="name" v="Vorefjellet" />
		<tag k="natural" v="hill" />
=======
	<node id="-630499" lat="60.4238333304" lon="5.90766389454">
		<tag k="name" v="Grøbotnen" />
		<tag k="natural" v="valley" />
>>>>>>> e1d4bc35ff8a6074a6f2e91616a996b547c36f15
		<tag k="place" v="locality" />
		<tag k="ssr:stedsnr" v="248433" />
	</node>
<<<<<<< HEAD
	<node lat="60.39418888491271" lon="5.854205558583252" id="-24970">
		<tag k="fixme" v="consider natural=peak for the most distinct mountains in the district" />
		<tag k="name" v="Kinna" />
=======
	<node id="-630498" lat="60.4050555521" lon="5.82897223119">
		<tag k="name" v="Dyrhaugane" />
>>>>>>> e1d4bc35ff8a6074a6f2e91616a996b547c36f15
		<tag k="natural" v="hill" />
		<tag k="place" v="locality" />
		<tag k="ssr:stedsnr" v="248754" />
	</node>
<<<<<<< HEAD
	<node lat="60.51571944323002" lon="5.962524997726973" id="-24974">
		<tag k="fixme" v="consider natural=peak for the most distinct mountains in the district" />
		<tag k="name" v="Småbrekkebukken" />
		<tag k="natural" v="hill" />
=======
	<node id="-630497" lat="60.3834250014" lon="5.60390554958">
		<tag k="name" v="Maribrautene" />
		<tag k="natural" v="slope" />
>>>>>>> e1d4bc35ff8a6074a6f2e91616a996b547c36f15
		<tag k="place" v="locality" />
		<tag k="ssr:stedsnr" v="249982" />
	</node>
<<<<<<< HEAD
	<node lat="60.33794999994584" lon="5.677472216436823" id="-24975">
		<tag k="name" v="Skjenet" />
=======
	<node id="-630493" lat="60.3649638935" lon="5.7015750085">
		<tag k="name" v="Berrhaug" />
>>>>>>> e1d4bc35ff8a6074a6f2e91616a996b547c36f15
		<tag k="natural" v="hill" />
		<tag k="place" v="locality" />
		<tag k="ssr:stedsnr" v="116111" />
	</node>
<<<<<<< HEAD
	<node lat="60.338369441306554" lon="5.695394436969605" id="-24976">
		<tag k="name" v="Aksla" />
=======
	<node id="-630491" lat="60.4009194481" lon="5.77434444443">
		<tag k="name" v="Storemyra" />
		<tag k="natural" v="valley" />
>>>>>>> e1d4bc35ff8a6074a6f2e91616a996b547c36f15
		<tag k="place" v="locality" />
		<tag k="ssr:stedsnr" v="116127" />
	</node>
<<<<<<< HEAD
	<node lat="60.355483332907504" lon="5.847236103722964" id="-24977">
		<tag k="name" v="Vigrabotnen" />
=======
	<node id="-630484" lat="60.3649111142" lon="5.9107833359">
		<tag k="name" v="Bjørnahiet" />
>>>>>>> e1d4bc35ff8a6074a6f2e91616a996b547c36f15
		<tag k="natural" v="valley" />
		<tag k="place" v="locality" />
		<tag k="ssr:stedsnr" v="116921" />
	</node>
<<<<<<< HEAD
	<node lat="60.327205554766714" lon="5.84474443849741" id="-24984">
		<tag k="name" v="Høganova" />
		<tag k="natural" v="hill" />
		<tag k="place" v="locality" />
		<tag k="ssr:stedsnr" v="126550" />
	</node>
	<node lat="60.38858333373661" lon="5.674552770033759" id="-24985">
		<tag k="name" v="Haugalia" />
=======
	<node id="-630482" lat="60.4039361075" lon="5.84870276969">
		<tag k="name" v="Kleiva" />
>>>>>>> e1d4bc35ff8a6074a6f2e91616a996b547c36f15
		<tag k="natural" v="slope" />
		<tag k="place" v="locality" />
		<tag k="ssr:stedsnr" v="127142" />
	</node>
<<<<<<< HEAD
	<node lat="60.38337499701846" lon="5.589233327144814" id="-24986">
=======
	<node id="-630481" lat="60.3991333353" lon="5.87835555247">
>>>>>>> e1d4bc35ff8a6074a6f2e91616a996b547c36f15
		<tag k="fixme" v="consider natural=peak for the most distinct mountains in the district" />
		<tag k="name" v="Blåmanen" />
		<tag k="natural" v="hill" />
		<tag k="place" v="locality" />
		<tag k="ssr:stedsnr" v="127143" />
	</node>
<<<<<<< HEAD
	<node lat="60.36300277974901" lon="5.644086110747409" id="-24989">
		<tag k="name" v="Skreiddalen" />
=======
	<node id="-630480" lat="60.4162805576" lon="5.77894723063">
		<tag k="name" v="Halsen" />
>>>>>>> e1d4bc35ff8a6074a6f2e91616a996b547c36f15
		<tag k="natural" v="valley" />
		<tag k="place" v="locality" />
		<tag k="ssr:stedsnr" v="150606" />
	</node>
<<<<<<< HEAD
	<node lat="60.41229999856686" lon="5.7701444433659645" id="-24991">
		<tag k="name" v="Terhaugane" />
=======
	<node id="-630479" lat="60.4156527796" lon="5.7804416741">
		<tag k="name" v="Kalvadalshaugane" />
>>>>>>> e1d4bc35ff8a6074a6f2e91616a996b547c36f15
		<tag k="natural" v="hill" />
		<tag k="place" v="locality" />
		<tag k="ssr:stedsnr" v="150958" />
	</node>
<<<<<<< HEAD
	<node lat="60.36216110980521" lon="5.653924996582623" id="-24992">
		<tag k="name" v="Øyahaugen" />
		<tag k="natural" v="hill" />
=======
	<node id="-630478" lat="60.3928305529" lon="5.70107221687">
		<tag k="name" v="Masterskaret" />
		<tag k="natural" v="valley" />
>>>>>>> e1d4bc35ff8a6074a6f2e91616a996b547c36f15
		<tag k="place" v="locality" />
		<tag k="ssr:stedsnr" v="172166" />
	</node>
<<<<<<< HEAD
	<node lat="60.36396944713847" lon="5.756330559676409" id="-24994">
		<tag k="name" v="Hovda" />
=======
	<node id="-630477" lat="60.3799527757" lon="5.64008333394">
		<tag k="name" v="Dysjemyrhaugen" />
>>>>>>> e1d4bc35ff8a6074a6f2e91616a996b547c36f15
		<tag k="natural" v="hill" />
		<tag k="place" v="locality" />
		<tag k="ssr:stedsnr" v="180055" />
	</node>
<<<<<<< HEAD
	<node lat="60.4601555594246" lon="5.956480561983336" id="-24996">
		<tag k="name" v="Fagerdalen" />
		<tag k="natural" v="valley" />
=======
	<node id="-630476" lat="60.3507916703" lon="5.63118055271">
		<tag k="name" v="Vasslia" />
		<tag k="natural" v="slope" />
>>>>>>> e1d4bc35ff8a6074a6f2e91616a996b547c36f15
		<tag k="place" v="locality" />
		<tag k="ssr:stedsnr" v="187327" />
	</node>
<<<<<<< HEAD
	<node lat="60.432359136295375" lon="5.912645926721571" id="-24997">
		<tag k="name" v="Kalvagjela" />
		<tag k="natural" v="gorge" />
		<tag k="ssr:stedsnr" v="187385" />
	</node>
	<node lat="60.38678055128856" lon="5.856536104038189" id="-25000">
		<tag k="name" v="Røssebotnen" />
=======
	<node id="-630475" lat="60.3494750006" lon="5.59718056366">
		<tag k="name" v="Brekkedalen" />
		<tag k="natural" v="valley" />
		<tag k="place" v="locality" />
		<tag k="ssr:stedsnr" v="635606" />
	</node>
	<node id="-630474" lat="60.3036277753" lon="5.59953889616">
		<tag k="name" v="Lauvlidalen" />
>>>>>>> e1d4bc35ff8a6074a6f2e91616a996b547c36f15
		<tag k="natural" v="valley" />
		<tag k="place" v="locality" />
		<tag k="ssr:stedsnr" v="187683" />
	</node>
<<<<<<< HEAD
	<node lat="60.3806083302878" lon="5.634308338767816" id="-25001">
=======
	<node id="-630472" lat="60.3554444442" lon="5.66160554704">
>>>>>>> e1d4bc35ff8a6074a6f2e91616a996b547c36f15
		<tag k="fixme" v="consider natural=peak for the most distinct mountains in the district" />
		<tag k="name" v="Rennebrotet" />
		<tag k="natural" v="hill" />
		<tag k="place" v="locality" />
		<tag k="ssr:stedsnr" v="188187" />
	</node>
<<<<<<< HEAD
	<node lat="60.34448333071948" lon="5.634774994567689" id="-25006">
		<tag k="name" v="Skaret" />
		<tag k="natural" v="valley" />
=======
	<node id="-630471" lat="60.4034027752" lon="5.79036110359">
		<tag k="name" v="Haugen" />
		<tag k="natural" v="hill" />
>>>>>>> e1d4bc35ff8a6074a6f2e91616a996b547c36f15
		<tag k="place" v="locality" />
		<tag k="ssr:stedsnr" v="211908" />
	</node>
<<<<<<< HEAD
	<node lat="60.334455557680656" lon="5.601047216493604" id="-25007">
		<tag k="name" v="Eikelunden" />
		<tag k="natural" v="slope" />
=======
	<node id="-630469" lat="60.3485194438" lon="5.85520000307">
		<tag k="name" v="Austebotnane" />
		<tag k="natural" v="valley" />
>>>>>>> e1d4bc35ff8a6074a6f2e91616a996b547c36f15
		<tag k="place" v="locality" />
		<tag k="ssr:stedsnr" v="211914" />
	</node>
<<<<<<< HEAD
	<node lat="60.40268055820767" lon="5.826358335034863" id="-25009">
		<tag k="name" v="Stigane" />
=======
	<node id="-630466" lat="60.3340416656" lon="5.71902778385">
		<tag k="fixme" v="consider natural=peak for the most distinct mountains in the district" />
		<tag k="name" v="Såta" />
>>>>>>> e1d4bc35ff8a6074a6f2e91616a996b547c36f15
		<tag k="natural" v="hill" />
		<tag k="place" v="locality" />
		<tag k="ssr:stedsnr" v="212487" />
	</node>
<<<<<<< HEAD
	<node lat="60.40107777433968" lon="5.834188892475062" id="-25010">
		<tag k="name" v="Høghaugen" />
=======
	<node id="-630464" lat="60.3602388869" lon="5.83848055736">
		<tag k="fixme" v="consider natural=peak for the most distinct mountains in the district" />
		<tag k="name" v="Storenipen" />
>>>>>>> e1d4bc35ff8a6074a6f2e91616a996b547c36f15
		<tag k="natural" v="hill" />
		<tag k="place" v="locality" />
		<tag k="ssr:stedsnr" v="212493" />
	</node>
<<<<<<< HEAD
	<node lat="60.42200832996824" lon="5.829219446145998" id="-25013">
		<tag k="name" v="Ytstalia" />
		<tag k="natural" v="slope" />
=======
	<node id="-630462" lat="60.4640888932" lon="5.94377500546">
		<tag k="fixme" v="consider natural=peak for the most distinct mountains in the district" />
		<tag k="name" v="Sotabottsnipa" />
		<tag k="natural" v="hill" />
>>>>>>> e1d4bc35ff8a6074a6f2e91616a996b547c36f15
		<tag k="place" v="locality" />
		<tag k="ssr:stedsnr" v="213385" />
	</node>
<<<<<<< HEAD
	<node lat="60.448597223310934" lon="5.849108336833126" id="-25014">
		<tag k="name" v="Storurhjellane" />
=======
	<node id="-630459" lat="60.4240027809" lon="5.8143722239">
		<tag k="name" v="Fiskekampen" />
>>>>>>> e1d4bc35ff8a6074a6f2e91616a996b547c36f15
		<tag k="natural" v="hill" />
		<tag k="place" v="locality" />
		<tag k="ssr:stedsnr" v="213591" />
	</node>
<<<<<<< HEAD
	<node lat="60.451269445858564" lon="5.871947215109116" id="-25015">
		<tag k="name" v="Elvadalen" />
		<tag k="natural" v="valley" />
=======
	<node id="-630458" lat="60.3335194447" lon="5.85814721319">
		<tag k="name" v="Bjørnakultane" />
		<tag k="natural" v="hill" />
>>>>>>> e1d4bc35ff8a6074a6f2e91616a996b547c36f15
		<tag k="place" v="locality" />
		<tag k="ssr:stedsnr" v="213592" />
	</node>
<<<<<<< HEAD
	<node lat="60.335297219127895" lon="5.669133339162423" id="-25022">
		<tag k="name" v="Barlindehaugen" />
=======
	<node id="-630456" lat="60.4409722211" lon="5.93172499154">
		<tag k="fixme" v="consider natural=peak for the most distinct mountains in the district" />
		<tag k="name" v="Røyrfjellet" />
>>>>>>> e1d4bc35ff8a6074a6f2e91616a996b547c36f15
		<tag k="natural" v="hill" />
		<tag k="place" v="locality" />
		<tag k="ssr:stedsnr" v="237104" />
	</node>
<<<<<<< HEAD
	<node lat="60.362497219602965" lon="5.773541665129656" id="-25023">
		<tag k="name" v="Bjørkhilderhaugen" />
		<tag k="natural" v="hill" />
=======
	<node id="-630453" lat="60.3494055599" lon="5.8278583396">
		<tag k="name" v="Skyttarglikka" />
>>>>>>> e1d4bc35ff8a6074a6f2e91616a996b547c36f15
		<tag k="place" v="locality" />
		<tag k="ssr:stedsnr" v="241029" />
	</node>
<<<<<<< HEAD
	<node lat="60.431338889974306" lon="5.827374995241839" id="-25026">
		<tag k="name" v="Helleberget" />
=======
	<node id="-630452" lat="60.3332361125" lon="5.68315555666">
		<tag k="name" v="Hedda" />
>>>>>>> e1d4bc35ff8a6074a6f2e91616a996b547c36f15
		<tag k="natural" v="hill" />
		<tag k="place" v="locality" />
		<tag k="ssr:stedsnr" v="248066" />
	</node>
<<<<<<< HEAD
	<node lat="60.329211110731926" lon="5.800369446923607" id="-25029">
		<tag k="fixme" v="consider natural=peak for the most distinct mountains in the district" />
		<tag k="name" v="Trælen" />
		<tag k="natural" v="hill" />
=======
	<node id="-630450" lat="60.3418722242" lon="5.6949333388">
		<tag k="name" v="Telleberglia" />
		<tag k="natural" v="slope" />
>>>>>>> e1d4bc35ff8a6074a6f2e91616a996b547c36f15
		<tag k="place" v="locality" />
		<tag k="ssr:stedsnr" v="248229" />
	</node>
<<<<<<< HEAD
	<node lat="60.48161666889398" lon="5.915580549278795" id="-25030">
		<tag k="name" v="Holegjelet" />
=======
	<node id="-630449" lat="60.3317694483" lon="5.77601389703">
		<tag k="name" v="Fagerdalen" />
>>>>>>> e1d4bc35ff8a6074a6f2e91616a996b547c36f15
		<tag k="natural" v="valley" />
		<tag k="place" v="locality" />
		<tag k="ssr:stedsnr" v="248309" />
	</node>
<<<<<<< HEAD
	<node lat="60.427119448401264" lon="5.84862777212116" id="-25031">
		<tag k="name" v="Tøgjelet" />
		<tag k="natural" v="gorge" />
		<tag k="ssr:stedsnr" v="248402" />
	</node>
	<node lat="60.39164444177486" lon="5.882330557760587" id="-25033">
=======
	<node id="-630444" lat="60.4439666688" lon="5.83440278041">
		<tag k="name" v="Svartaberget" />
		<tag k="natural" v="hill" />
		<tag k="place" v="locality" />
		<tag k="ssr:stedsnr" v="577563" />
	</node>
	<node id="-630443" lat="60.443611107" lon="5.86352777021">
>>>>>>> e1d4bc35ff8a6074a6f2e91616a996b547c36f15
		<tag k="fixme" v="consider natural=peak for the most distinct mountains in the district" />
		<tag k="name" v="Børdalsfjellet" />
		<tag k="natural" v="hill" />
		<tag k="place" v="locality" />
		<tag k="ssr:stedsnr" v="248473" />
	</node>
<<<<<<< HEAD
	<node lat="60.34031666457391" lon="5.913147224444003" id="-25034">
		<tag k="name" v="Kjebotnen" />
		<tag k="natural" v="valley" />
		<tag k="place" v="locality" />
		<tag k="ssr:stedsnr" v="248598" />
	</node>
	<node lat="60.382472219402636" lon="5.647755559778393" id="-25040">
		<tag k="name" v="Nordbøhaugen" />
=======
	<node id="-630441" lat="60.4339611137" lon="5.82312500081">
		<tag k="name" v="Seterhaugen" />
>>>>>>> e1d4bc35ff8a6074a6f2e91616a996b547c36f15
		<tag k="natural" v="hill" />
		<tag k="place" v="locality" />
		<tag k="ssr:stedsnr" v="454991" />
	</node>
<<<<<<< HEAD
	<node lat="60.38874999734334" lon="5.599477784556255" id="-25041">
		<tag k="fixme" v="consider natural=peak for the most distinct mountains in the district" />
		<tag k="name" v="Gullnipa" />
=======
	<node id="-630440" lat="60.4299722254" lon="5.80617777927">
		<tag k="name" v="Bjørnspetthaugen" />
>>>>>>> e1d4bc35ff8a6074a6f2e91616a996b547c36f15
		<tag k="natural" v="hill" />
		<tag k="place" v="locality" />
		<tag k="ssr:stedsnr" v="454999" />
	</node>
<<<<<<< HEAD
	<node lat="60.42394722341767" lon="5.834797219261227" id="-25042">
		<tag k="name" v="Instalia" />
		<tag k="natural" v="slope" />
=======
	<node id="-630439" lat="60.4232416666" lon="5.83601665913">
		<tag k="name" v="Kjerringarinden" />
		<tag k="natural" v="ridge" />
>>>>>>> e1d4bc35ff8a6074a6f2e91616a996b547c36f15
		<tag k="place" v="locality" />
		<tag k="ssr:stedsnr" v="455407" />
	</node>
<<<<<<< HEAD
	<node lat="60.37760277671311" lon="5.8369583380474" id="-25043">
		<tag k="name" v="Dal" />
		<tag k="natural" v="valley" />
=======
	<node id="-630436" lat="60.382444444" lon="5.66211666918">
		<tag k="name" v="Krossaleitet" />
		<tag k="natural" v="hill" />
>>>>>>> e1d4bc35ff8a6074a6f2e91616a996b547c36f15
		<tag k="place" v="locality" />
		<tag k="ssr:stedsnr" v="456493" />
	</node>
<<<<<<< HEAD
	<node lat="60.44378611435656" lon="5.837022230136978" id="-25045">
		<tag k="name" v="Svartabergslia" />
=======
	<node id="-630435" lat="60.3867305521" lon="5.63778333516">
		<tag k="name" v="Kvitlabrekka" />
>>>>>>> e1d4bc35ff8a6074a6f2e91616a996b547c36f15
		<tag k="natural" v="slope" />
		<tag k="place" v="locality" />
		<tag k="ssr:stedsnr" v="456553" />
	</node>
<<<<<<< HEAD
	<node lat="60.34829999861279" lon="5.626972217921553" id="-25049">
		<tag k="name" v="Heiane" />
=======
	<node id="-630434" lat="60.3869194418" lon="5.62887778132">
		<tag k="name" v="Lyningshaugen" />
>>>>>>> e1d4bc35ff8a6074a6f2e91616a996b547c36f15
		<tag k="natural" v="hill" />
		<tag k="place" v="locality" />
		<tag k="ssr:stedsnr" v="272582" />
	</node>
<<<<<<< HEAD
	<node lat="60.3427166673807" lon="5.60491666147136" id="-25050">
		<tag k="name" v="Fonnadalen" />
		<tag k="natural" v="valley" />
		<tag k="place" v="locality" />
		<tag k="ssr:stedsnr" v="272904" />
	</node>
	<node lat="60.340008333701626" lon="5.599794445188492" id="-25051">
		<tag k="name" v="Rundehaugen" />
=======
	<node id="-630433" lat="60.4033972232" lon="5.7380027765">
		<tag k="name" v="Høgeskolten" />
>>>>>>> e1d4bc35ff8a6074a6f2e91616a996b547c36f15
		<tag k="natural" v="hill" />
		<tag k="place" v="locality" />
		<tag k="ssr:stedsnr" v="272905" />
	</node>
<<<<<<< HEAD
	<node lat="60.35154722573025" lon="5.6575055626788595" id="-25052">
		<tag k="name" v="Bekkene" />
=======
	<node id="-630431" lat="60.3437083298" lon="5.60100278288">
		<tag k="name" v="Austrelia" />
>>>>>>> e1d4bc35ff8a6074a6f2e91616a996b547c36f15
		<tag k="natural" v="slope" />
		<tag k="place" v="locality" />
		<tag k="ssr:stedsnr" v="272926" />
	</node>
<<<<<<< HEAD
	<node lat="60.38881640863252" lon="5.592969064058721" id="-25053">
		<tag k="name" v="Gullfjellhalsen" />
		<tag k="natural" v="ridge" />
=======
	<node id="-630430" lat="60.3592861105" lon="5.66781110396">
		<tag k="name" v="Sauahaugen" />
		<tag k="natural" v="hill" />
>>>>>>> e1d4bc35ff8a6074a6f2e91616a996b547c36f15
		<tag k="place" v="locality" />
		<tag k="ssr:stedsnr" v="272972" />
	</node>
<<<<<<< HEAD
	<node lat="60.431227779168644" lon="5.7152694412038825" id="-25055">
		<tag k="name" v="Lynten" />
=======
	<node id="-630429" lat="60.3603888851" lon="5.69946943656">
		<tag k="name" v="Storekampen" />
>>>>>>> e1d4bc35ff8a6074a6f2e91616a996b547c36f15
		<tag k="natural" v="hill" />
		<tag k="place" v="locality" />
		<tag k="ssr:stedsnr" v="273278" />
	</node>
<<<<<<< HEAD
	<node lat="60.40967778029648" lon="5.834438895787634" id="-25056">
		<tag k="name" v="Smoget" />
		<tag k="natural" v="valley" />
=======
	<node id="-630427" lat="60.5203416679" lon="5.95565554956">
		<tag k="fixme" v="consider natural=peak for the most distinct mountains in the district" />
		<tag k="name" v="Bukkafjellet" />
		<tag k="natural" v="hill" />
>>>>>>> e1d4bc35ff8a6074a6f2e91616a996b547c36f15
		<tag k="place" v="locality" />
		<tag k="ssr:stedsnr" v="273482" />
	</node>
<<<<<<< HEAD
	<node lat="60.46257778092233" lon="5.922683326234135" id="-25058">
		<tag k="name" v="Neverkleiva" />
		<tag k="natural" v="slope" />
=======
	<node id="-630426" lat="60.3728999983" lon="5.88583611409">
		<tag k="name" v="Raunebotnen" />
		<tag k="natural" v="valley" />
>>>>>>> e1d4bc35ff8a6074a6f2e91616a996b547c36f15
		<tag k="place" v="locality" />
		<tag k="ssr:stedsnr" v="274085" />
	</node>
<<<<<<< HEAD
	<node lat="60.416869442625" lon="5.886897230074091" id="-25059">
		<tag k="name" v="Vorekleiva" />
		<tag k="natural" v="hill" />
		<tag k="place" v="locality" />
		<tag k="ssr:stedsnr" v="274109" />
	</node>
	<node lat="60.32990000194523" lon="5.679175003662542" id="-25061">
		<tag k="name" v="Botnen" />
		<tag k="natural" v="valley" />
		<tag k="place" v="locality" />
		<tag k="ssr:stedsnr" v="298115" />
	</node>
	<node lat="60.33927499627427" lon="5.682705555397485" id="-25062">
		<tag k="fixme" v="consider natural=peak for the most distinct mountains in the district" />
		<tag k="name" v="Djuvvikåsen" />
=======
	<node id="-630425" lat="60.3707055559" lon="5.88325833868">
		<tag k="name" v="Plitten" />
		<tag k="natural" v="gorge" />
		<tag k="ssr:stedsnr" v="551658" />
	</node>
	<node id="-630424" lat="60.4048333364" lon="5.87975556233">
		<tag k="name" v="Huldabottsgjelet" />
		<tag k="natural" v="gorge" />
		<tag k="ssr:stedsnr" v="551473" />
	</node>
	<node id="-630423" lat="60.4282972253" lon="5.89468055513">
		<tag k="name" v="Flatheiane" />
>>>>>>> e1d4bc35ff8a6074a6f2e91616a996b547c36f15
		<tag k="natural" v="hill" />
		<tag k="place" v="locality" />
		<tag k="ssr:stedsnr" v="298088" />
	</node>
<<<<<<< HEAD
	<node lat="60.35219722541119" lon="5.8367083301019855" id="-25063">
		<tag k="name" v="Kikenosi" />
=======
	<node id="-630421" lat="60.4312361122" lon="5.8715166657">
		<tag k="name" v="Renneberget" />
		<tag k="natural" v="hill" />
>>>>>>> e1d4bc35ff8a6074a6f2e91616a996b547c36f15
		<tag k="place" v="locality" />
		<tag k="ssr:stedsnr" v="298913" />
	</node>
<<<<<<< HEAD
	<node lat="60.453102777500135" lon="5.766105557057421" id="-25065">
=======
	<node id="-630419" lat="60.4687277743" lon="5.92676945363">
>>>>>>> e1d4bc35ff8a6074a6f2e91616a996b547c36f15
		<tag k="fixme" v="consider natural=peak for the most distinct mountains in the district" />
		<tag k="name" v="Storenuten" />
		<tag k="natural" v="hill" />
		<tag k="place" v="locality" />
		<tag k="ssr:stedsnr" v="308018" />
	</node>
<<<<<<< HEAD
	<node lat="60.44930555550546" lon="5.792063897981261" id="-25066">
		<tag k="name" v="Bogaskaret" />
=======
	<node id="-630418" lat="60.4989166678" lon="5.92245834185">
		<tag k="name" v="Insta Hestagjelet" />
>>>>>>> e1d4bc35ff8a6074a6f2e91616a996b547c36f15
		<tag k="natural" v="valley" />
		<tag k="place" v="locality" />
		<tag k="ssr:stedsnr" v="308019" />
	</node>
<<<<<<< HEAD
	<node lat="60.3732944419505" lon="5.605594439193351" id="-25070">
=======
	<node id="-630417" lat="60.4813222208" lon="5.87861110536">
>>>>>>> e1d4bc35ff8a6074a6f2e91616a996b547c36f15
		<tag k="fixme" v="consider natural=peak for the most distinct mountains in the district" />
		<tag k="name" v="Kofta" />
		<tag k="natural" v="hill" />
		<tag k="place" v="locality" />
		<tag k="ssr:stedsnr" v="309189" />
	</node>
<<<<<<< HEAD
	<node lat="60.35071666613336" lon="5.873683329125843" id="-25071">
		<tag k="name" v="Bjørnabakkane" />
		<tag k="natural" v="slope" />
=======
	<node id="-630416" lat="60.4871361144" lon="5.89141665733">
		<tag k="name" v="Tunga" />
		<tag k="natural" v="hill" />
>>>>>>> e1d4bc35ff8a6074a6f2e91616a996b547c36f15
		<tag k="place" v="locality" />
		<tag k="ssr:stedsnr" v="465958" />
	</node>
<<<<<<< HEAD
	<node lat="60.357275002531175" lon="5.658052785005463" id="-25073">
		<tag k="name" v="Stutaskora" />
=======
	<node id="-630415" lat="60.2929527783" lon="5.574650006">
		<tag k="name" v="Baggeskaret" />
		<tag k="natural" v="valley" />
>>>>>>> e1d4bc35ff8a6074a6f2e91616a996b547c36f15
		<tag k="place" v="locality" />
		<tag k="ssr:stedsnr" v="332597" />
	</node>
<<<<<<< HEAD
	<node lat="60.363788886939986" lon="5.692694439433682" id="-25074">
		<tag k="name" v="Lindhaugen" />
		<tag k="natural" v="hill" />
=======
	<node id="-630410" lat="60.3849000044" lon="5.62110834024">
		<tag k="name" v="Fagerbotnen" />
		<tag k="natural" v="valley" />
>>>>>>> e1d4bc35ff8a6074a6f2e91616a996b547c36f15
		<tag k="place" v="locality" />
		<tag k="ssr:stedsnr" v="332599" />
	</node>
<<<<<<< HEAD
	<node lat="60.39377499711044" lon="5.814541673006573" id="-25075">
		<tag k="name" v="Vardadalen" />
		<tag k="natural" v="valley" />
=======
	<node id="-630408" lat="60.3958249997" lon="5.82259999477">
		<tag k="fixme" v="consider natural=peak for the most distinct mountains in the district" />
		<tag k="name" v="Totlandsfjellet" />
		<tag k="natural" v="hill" />
>>>>>>> e1d4bc35ff8a6074a6f2e91616a996b547c36f15
		<tag k="place" v="locality" />
		<tag k="ssr:stedsnr" v="332820" />
	</node>
<<<<<<< HEAD
	<node lat="60.38704444532142" lon="5.590888886842549" id="-25081">
=======
	<node id="-630404" lat="60.4446888852" lon="5.78903888169">
>>>>>>> e1d4bc35ff8a6074a6f2e91616a996b547c36f15
		<tag k="fixme" v="consider natural=peak for the most distinct mountains in the district" />
		<tag k="name" v="Gullfjelltoppen" />
		<tag k="natural" v="hill" />
		<tag k="place" v="locality" />
<<<<<<< HEAD
		<tag k="ssr:stedsnr" v="333000" />
	</node>
	<node lat="60.422961107227195" lon="5.9249388945264085" id="-25082">
		<tag k="name" v="Læghildrane" />
=======
		<tag k="ssr:stedsnr" v="551042" />
	</node>
	<node id="-630402" lat="60.3398888849" lon="5.81571110523">
		<tag k="name" v="Kvanndalsbakkane" />
		<tag k="natural" v="slope" />
		<tag k="place" v="locality" />
		<tag k="ssr:stedsnr" v="540941" />
	</node>
	<node id="-630401" lat="60.3474222252" lon="5.77967221952">
		<tag k="name" v="Tangafjellet" />
		<tag k="natural" v="hill" />
>>>>>>> e1d4bc35ff8a6074a6f2e91616a996b547c36f15
		<tag k="place" v="locality" />
		<tag k="ssr:stedsnr" v="334113" />
	</node>
<<<<<<< HEAD
	<node lat="60.33937499753031" lon="5.678741669735376" id="-25087">
		<tag k="name" v="Mørkedalen" />
=======
	<node id="-630400" lat="60.3477416652" lon="5.77399999802">
		<tag k="name" v="Setrabotnen" />
>>>>>>> e1d4bc35ff8a6074a6f2e91616a996b547c36f15
		<tag k="natural" v="valley" />
		<tag k="place" v="locality" />
		<tag k="ssr:stedsnr" v="358113" />
	</node>
<<<<<<< HEAD
	<node lat="60.35787221897314" lon="5.776811102580989" id="-25088">
		<tag k="name" v="Krossdalen" />
=======
	<node id="-630397" lat="60.3400555545" lon="5.72651666883">
		<tag k="name" v="Fagerdalen" />
>>>>>>> e1d4bc35ff8a6074a6f2e91616a996b547c36f15
		<tag k="natural" v="valley" />
		<tag k="place" v="locality" />
		<tag k="ssr:stedsnr" v="479019" />
	</node>
<<<<<<< HEAD
	<node lat="60.40116666487726" lon="5.839322230261915" id="-25089">
		<tag k="name" v="Brannhaugen" />
=======
	<node id="-630395" lat="60.3666888897" lon="5.84983610293">
		<tag k="name" v="Vardenovi" />
>>>>>>> e1d4bc35ff8a6074a6f2e91616a996b547c36f15
		<tag k="natural" v="hill" />
		<tag k="place" v="locality" />
		<tag k="ssr:stedsnr" v="369109" />
	</node>
<<<<<<< HEAD
	<node lat="60.38741389041955" lon="5.699480562376296" id="-25090">
		<tag k="name" v="Høgåsen" />
=======
	<node id="-630394" lat="60.4330638912" lon="5.94288610292">
		<tag k="fixme" v="consider natural=peak for the most distinct mountains in the district" />
		<tag k="name" v="Storafjellet" />
>>>>>>> e1d4bc35ff8a6074a6f2e91616a996b547c36f15
		<tag k="natural" v="hill" />
		<tag k="place" v="locality" />
		<tag k="ssr:stedsnr" v="369125" />
	</node>
<<<<<<< HEAD
	<node lat="60.35360277633831" lon="5.613624997340694" id="-25091">
=======
	<node id="-630393" lat="60.3562222191" lon="5.8463583285">
>>>>>>> e1d4bc35ff8a6074a6f2e91616a996b547c36f15
		<tag k="fixme" v="consider natural=peak for the most distinct mountains in the district" />
		<tag k="name" v="Sauafjellet" />
		<tag k="natural" v="hill" />
		<tag k="place" v="locality" />
		<tag k="ssr:stedsnr" v="369188" />
	</node>
<<<<<<< HEAD
	<node lat="60.48496666325081" lon="5.886216663027299" id="-25092">
		<tag k="name" v="Røyrlia" />
		<tag k="natural" v="slope" />
		<tag k="place" v="locality" />
		<tag k="ssr:stedsnr" v="369302" />
	</node>
	<node lat="60.48159722491544" lon="5.945969443926733" id="-25093">
		<tag k="name" v="Trollskaret" />
=======
	<node id="-630391" lat="60.4313249984" lon="5.93100000497">
		<tag k="name" v="Hyttebotnen" />
>>>>>>> e1d4bc35ff8a6074a6f2e91616a996b547c36f15
		<tag k="natural" v="valley" />
		<tag k="place" v="locality" />
		<tag k="ssr:stedsnr" v="369306" />
	</node>
<<<<<<< HEAD
	<node lat="60.484066663511506" lon="5.937722215330607" id="-25094">
		<tag k="name" v="Skredene" />
		<tag k="natural" v="slope" />
		<tag k="place" v="locality" />
		<tag k="ssr:stedsnr" v="369307" />
	</node>
	<node lat="60.33492221869424" lon="5.8015249934207285" id="-25096">
		<tag k="alt_name" v="Haugsfjell" />
		<tag k="fixme" v="consider natural=peak for the most distinct mountains in the district" />
		<tag k="name" v="Haugsfjellet" />
=======
	<node id="-630388" lat="60.4539611124" lon="5.91523332926">
		<tag k="name" v="Sotabottshjellane" />
>>>>>>> e1d4bc35ff8a6074a6f2e91616a996b547c36f15
		<tag k="natural" v="hill" />
		<tag k="place" v="locality" />
		<tag k="ssr:stedsnr" v="369215" />
	</node>
<<<<<<< HEAD
	<node lat="60.423191670063225" lon="5.884055554927277" id="-25097">
		<tag k="fixme" v="consider natural=peak for the most distinct mountains in the district" />
		<tag k="name" v="Tøfjellet" />
		<tag k="natural" v="hill" />
=======
	<node id="-630387" lat="60.4813138925" lon="5.97530833937">
		<tag k="name" v="Vestra Trongasmoget" />
		<tag k="natural" v="valley" />
>>>>>>> e1d4bc35ff8a6074a6f2e91616a996b547c36f15
		<tag k="place" v="locality" />
		<tag k="ssr:stedsnr" v="369406" />
	</node>
<<<<<<< HEAD
	<node lat="60.42061111412814" lon="5.917027779066737" id="-25098">
=======
	<node id="-630386" lat="60.2974416667" lon="5.57420833002">
>>>>>>> e1d4bc35ff8a6074a6f2e91616a996b547c36f15
		<tag k="fixme" v="consider natural=peak for the most distinct mountains in the district" />
		<tag k="name" v="Flæfjellet" />
		<tag k="natural" v="hill" />
		<tag k="place" v="locality" />
		<tag k="ssr:stedsnr" v="369408" />
	</node>
<<<<<<< HEAD
	<node lat="60.508355552364655" lon="5.911305557319882" id="-25107">
		<tag k="name" v="Tjørnadalen" />
=======
	<node id="-630385" lat="60.3723694409" lon="5.91685277564">
		<tag k="name" v="Kvamsbotnen" />
>>>>>>> e1d4bc35ff8a6074a6f2e91616a996b547c36f15
		<tag k="natural" v="valley" />
		<tag k="place" v="locality" />
		<tag k="ssr:stedsnr" v="371021" />
	</node>
<<<<<<< HEAD
	<node lat="60.33763055781398" lon="5.794377781112152" id="-25108">
		<tag k="name" v="Trælagjelet" />
=======
	<node id="-630381" lat="60.3398083355" lon="5.84289443842">
		<tag k="name" v="Fagerdalen" />
>>>>>>> e1d4bc35ff8a6074a6f2e91616a996b547c36f15
		<tag k="natural" v="valley" />
		<tag k="place" v="locality" />
		<tag k="ssr:stedsnr" v="480953" />
	</node>
<<<<<<< HEAD
	<node lat="60.35899166364775" lon="5.711602772550081" id="-25110">
		<tag k="name" v="Kultane" />
=======
	<node id="-630379" lat="60.3613249998" lon="5.77137499866">
		<tag k="name" v="Høgehaugen" />
>>>>>>> e1d4bc35ff8a6074a6f2e91616a996b547c36f15
		<tag k="natural" v="hill" />
		<tag k="place" v="locality" />
		<tag k="ssr:stedsnr" v="483063" />
	</node>
<<<<<<< HEAD
	<node lat="60.35964721811169" lon="5.752966658573325" id="-25111">
		<tag k="name" v="Preikestolen" />
=======
	<node id="-630376" lat="60.3400583341" lon="5.77836944191">
		<tag k="name" v="Klypehaugen" />
>>>>>>> e1d4bc35ff8a6074a6f2e91616a996b547c36f15
		<tag k="natural" v="hill" />
		<tag k="place" v="locality" />
		<tag k="ssr:stedsnr" v="483067" />
	</node>
<<<<<<< HEAD
	<node lat="60.35629444233457" lon="5.7326138907077" id="-25114">
		<tag k="name" v="Ormadalen" />
		<tag k="natural" v="valley" />
=======
	<node id="-630374" lat="60.3439722226" lon="5.70770278346">
		<tag k="name" v="Moltemyrhaugane" />
		<tag k="natural" v="hill" />
>>>>>>> e1d4bc35ff8a6074a6f2e91616a996b547c36f15
		<tag k="place" v="locality" />
		<tag k="ssr:stedsnr" v="483046" />
	</node>
<<<<<<< HEAD
	<node lat="60.34433611395512" lon="5.624905548432038" id="-25116">
		<tag k="name" v="Stordalen" />
		<tag k="natural" v="valley" />
=======
	<node id="-630373" lat="60.3916666699" lon="5.9097138888">
		<tag k="name" v="Skarhaugen" />
		<tag k="natural" v="hill" />
>>>>>>> e1d4bc35ff8a6074a6f2e91616a996b547c36f15
		<tag k="place" v="locality" />
		<tag k="ssr:stedsnr" v="393903" />
	</node>
<<<<<<< HEAD
	<node lat="60.35471388543338" lon="5.669513881542662" id="-25117">
		<tag k="name" v="Djupedalen" />
=======
	<node id="-630372" lat="60.4464499999" lon="5.84776111132">
		<tag k="name" v="Kvernaholene" />
>>>>>>> e1d4bc35ff8a6074a6f2e91616a996b547c36f15
		<tag k="natural" v="valley" />
		<tag k="place" v="locality" />
		<tag k="ssr:stedsnr" v="393919" />
	</node>
<<<<<<< HEAD
	<node lat="60.39961944636809" lon="5.85391666563031" id="-25120">
		<tag k="name" v="Flatheiane" />
		<tag k="natural" v="hill" />
=======
	<node id="-630371" lat="60.3785972181" lon="5.84143056014">
		<tag k="name" v="Liaros" />
		<tag k="natural" v="slope" />
>>>>>>> e1d4bc35ff8a6074a6f2e91616a996b547c36f15
		<tag k="place" v="locality" />
		<tag k="ssr:stedsnr" v="394414" />
	</node>
<<<<<<< HEAD
	<node lat="60.415180559675065" lon="5.800591663585354" id="-25121">
		<tag k="name" v="Verkane" />
		<tag k="natural" v="valley" />
=======
	<node id="-630370" lat="60.4195666686" lon="5.91531943729">
		<tag k="name" v="Eikedalshilderen" />
>>>>>>> e1d4bc35ff8a6074a6f2e91616a996b547c36f15
		<tag k="place" v="locality" />
		<tag k="ssr:stedsnr" v="394498" />
	</node>
<<<<<<< HEAD
	<node lat="60.468705553576925" lon="5.912205548931265" id="-25123">
=======
	<node id="-630369" lat="60.4687055536" lon="5.91220554893">
>>>>>>> e1d4bc35ff8a6074a6f2e91616a996b547c36f15
		<tag k="name" v="Dyralia" />
		<tag k="natural" v="slope" />
		<tag k="place" v="locality" />
		<tag k="ssr:stedsnr" v="395090" />
	</node>
<<<<<<< HEAD
	<node lat="60.37859721808384" lon="5.841430560142289" id="-25124">
		<tag k="name" v="Liaros" />
		<tag k="natural" v="slope" />
=======
	<node id="-630367" lat="60.4151805597" lon="5.80059166359">
		<tag k="name" v="Verkane" />
		<tag k="natural" v="valley" />
>>>>>>> e1d4bc35ff8a6074a6f2e91616a996b547c36f15
		<tag k="place" v="locality" />
		<tag k="ssr:stedsnr" v="395332" />
	</node>
<<<<<<< HEAD
	<node lat="60.39166666994921" lon="5.909713888798233" id="-25125">
		<tag k="name" v="Skarhaugen" />
=======
	<node id="-630366" lat="60.3996194464" lon="5.85391666563">
		<tag k="name" v="Flatheiane" />
>>>>>>> e1d4bc35ff8a6074a6f2e91616a996b547c36f15
		<tag k="natural" v="hill" />
		<tag k="place" v="locality" />
		<tag k="ssr:stedsnr" v="395627" />
	</node>
<<<<<<< HEAD
	<node lat="60.34397222259424" lon="5.707702783458343" id="-25126">
		<tag k="name" v="Moltemyrhaugane" />
		<tag k="natural" v="hill" />
=======
	<node id="-630365" lat="60.4327138903" lon="5.85060834029">
		<tag k="name" v="Storhilderen" />
		<tag k="natural" v="slope" />
>>>>>>> e1d4bc35ff8a6074a6f2e91616a996b547c36f15
		<tag k="place" v="locality" />
		<tag k="ssr:stedsnr" v="419035" />
	</node>
<<<<<<< HEAD
	<node lat="60.38477714814368" lon="5.814907026245889" id="-25132">
		<tag k="name" v="Vetlebotnen" />
		<tag k="natural" v="valley" />
=======
	<node id="-630362" lat="60.3792388933" lon="5.65880000837">
		<tag k="name" v="Fitaheiane" />
		<tag k="natural" v="hill" />
>>>>>>> e1d4bc35ff8a6074a6f2e91616a996b547c36f15
		<tag k="place" v="locality" />
		<tag k="ssr:stedsnr" v="490165" />
	</node>
<<<<<<< HEAD
	<node lat="60.36376944255317" lon="5.837075005064706" id="-25133">
=======
	<node id="-630361" lat="60.3937777774" lon="5.77895832934">
>>>>>>> e1d4bc35ff8a6074a6f2e91616a996b547c36f15
		<tag k="fixme" v="consider natural=peak for the most distinct mountains in the district" />
		<tag k="name" v="Vetlenipen" />
		<tag k="natural" v="hill" />
		<tag k="place" v="locality" />
		<tag k="ssr:stedsnr" v="490169" />
	</node>
<<<<<<< HEAD
	<node lat="60.40756666897799" lon="5.844669450803577" id="-25134">
		<tag k="fixme" v="consider natural=peak for the most distinct mountains in the district" />
		<tag k="name" v="Geitafjellet" />
		<tag k="natural" v="hill" />
=======
	<node id="-630352" lat="60.4840666635" lon="5.93772221533">
		<tag k="name" v="Skredene" />
		<tag k="natural" v="slope" />
>>>>>>> e1d4bc35ff8a6074a6f2e91616a996b547c36f15
		<tag k="place" v="locality" />
		<tag k="ssr:stedsnr" v="490419" />
	</node>
<<<<<<< HEAD
	<node lat="60.4740055536152" lon="5.891672223100549" id="-25135">
		<tag k="name" v="Klungerdalen" />
		<tag k="natural" v="valley" />
		<tag k="place" v="locality" />
		<tag k="ssr:stedsnr" v="490345" />
	</node>
	<node lat="60.44330833076318" lon="5.884925008395021" id="-25137">
=======
	<node id="-630351" lat="60.4815972249" lon="5.94596944393">
		<tag k="name" v="Trollskaret" />
		<tag k="natural" v="valley" />
		<tag k="place" v="locality" />
		<tag k="ssr:stedsnr" v="369306" />
	</node>
	<node id="-630350" lat="60.4849666633" lon="5.88621666303">
		<tag k="name" v="Røyrlia" />
		<tag k="natural" v="slope" />
		<tag k="place" v="locality" />
		<tag k="ssr:stedsnr" v="369302" />
	</node>
	<node id="-630349" lat="60.3349222187" lon="5.80152499342">
		<tag k="alt_name" v="Haugsfjell" />
>>>>>>> e1d4bc35ff8a6074a6f2e91616a996b547c36f15
		<tag k="fixme" v="consider natural=peak for the most distinct mountains in the district" />
		<tag k="name" v="Tverrliegga" />
		<tag k="natural" v="hill" />
		<tag k="place" v="locality" />
		<tag k="ssr:stedsnr" v="490371" />
	</node>
<<<<<<< HEAD
	<node lat="60.33980833545" lon="5.8428944384219" id="-25140">
		<tag k="name" v="Fagerdalen" />
		<tag k="natural" v="valley" />
		<tag k="place" v="locality" />
		<tag k="ssr:stedsnr" v="430224" />
	</node>
	<node lat="60.497075000432595" lon="5.9065277749404395" id="-25141">
=======
	<node id="-630347" lat="60.3536027763" lon="5.61362499734">
>>>>>>> e1d4bc35ff8a6074a6f2e91616a996b547c36f15
		<tag k="fixme" v="consider natural=peak for the most distinct mountains in the district" />
		<tag k="name" v="Hesten" />
		<tag k="natural" v="hill" />
		<tag k="place" v="locality" />
		<tag k="ssr:stedsnr" v="490981" />
	</node>
	<node lat="60.48131389250433" lon="5.9753083393670465" id="-25145">
		<tag k="name" v="Vestra Trongasmoget" />
		<tag k="natural" v="valley" />
		<tag k="place" v="locality" />
		<tag k="ssr:stedsnr" v="430358" />
	</node>
<<<<<<< HEAD
	<node lat="60.32369444324357" lon="5.603605560045585" id="-25147">
=======
	<node id="-630346" lat="60.3586111126" lon="5.74205833062">
>>>>>>> e1d4bc35ff8a6074a6f2e91616a996b547c36f15
		<tag k="fixme" v="consider natural=peak for the most distinct mountains in the district" />
		<tag k="name" v="Fossafjellet" />
		<tag k="natural" v="hill" />
		<tag k="place" v="locality" />
		<tag k="ssr:stedsnr" v="491222" />
	</node>
<<<<<<< HEAD
	<node lat="60.431324998415214" lon="5.931000004967642" id="-25148">
		<tag k="name" v="Hyttebotnen" />
		<tag k="natural" v="valley" />
=======
	<node id="-630342" lat="60.3874138904" lon="5.69948056238">
		<tag k="name" v="Høgåsen" />
		<tag k="natural" v="hill" />
>>>>>>> e1d4bc35ff8a6074a6f2e91616a996b547c36f15
		<tag k="place" v="locality" />
		<tag k="ssr:stedsnr" v="430396" />
	</node>
<<<<<<< HEAD
	<node lat="60.37896666840422" lon="5.892422226384453" id="-25150">
		<tag k="name" v="Raunebottsdalen" />
		<tag k="natural" v="valley" />
		<tag k="place" v="locality" />
		<tag k="ssr:stedsnr" v="430654" />
	</node>
	<node lat="60.380638092074754" lon="5.77579203116958" id="-25152">
		<tag k="fixme" v="consider natural=peak for the most distinct mountains in the district" />
		<tag k="name" v="Hagåsen" />
=======
	<node id="-630341" lat="60.4011666649" lon="5.83932223026">
		<tag k="name" v="Brannhaugen" />
>>>>>>> e1d4bc35ff8a6074a6f2e91616a996b547c36f15
		<tag k="natural" v="hill" />
		<tag k="place" v="locality" />
		<tag k="ssr:stedsnr" v="491154" />
	</node>
<<<<<<< HEAD
	<node lat="60.433063891160984" lon="5.942886102921938" id="-25155">
		<tag k="fixme" v="consider natural=peak for the most distinct mountains in the district" />
		<tag k="name" v="Storafjellet" />
		<tag k="natural" v="hill" />
=======
	<node id="-630331" lat="60.4225527812" lon="5.80766666747">
		<tag k="name" v="Stofarinden" />
		<tag k="natural" v="ridge" />
>>>>>>> e1d4bc35ff8a6074a6f2e91616a996b547c36f15
		<tag k="place" v="locality" />
		<tag k="ssr:stedsnr" v="431641" />
	</node>
<<<<<<< HEAD
	<node lat="60.48253888951599" lon="5.9096277855768236" id="-25156">
		<tag k="fixme" v="consider natural=peak for the most distinct mountains in the district" />
		<tag k="name" v="Hjellafjellet" />
=======
	<node id="-630329" lat="60.3895388885" lon="5.78233054804">
		<tag k="name" v="Furhaugen" />
>>>>>>> e1d4bc35ff8a6074a6f2e91616a996b547c36f15
		<tag k="natural" v="hill" />
		<tag k="place" v="locality" />
		<tag k="ssr:stedsnr" v="491345" />
	</node>
<<<<<<< HEAD
	<node lat="60.35559722221819" lon="5.917597224083296" id="-25157">
=======
	<node id="-630328" lat="60.3870444453" lon="5.59088888684">
>>>>>>> e1d4bc35ff8a6074a6f2e91616a996b547c36f15
		<tag k="fixme" v="consider natural=peak for the most distinct mountains in the district" />
		<tag k="name" v="Bjørnahinova" />
		<tag k="natural" v="hill" />
		<tag k="place" v="locality" />
		<tag k="ssr:stedsnr" v="491647" />
	</node>
<<<<<<< HEAD
	<node lat="60.30243055924594" lon="5.603697229315375" id="-25159">
		<tag k="name" v="Revadalen" />
=======
	<node id="-630327" lat="60.3840944409" lon="5.58931666256">
		<tag k="name" v="Middagsdalen" />
>>>>>>> e1d4bc35ff8a6074a6f2e91616a996b547c36f15
		<tag k="natural" v="valley" />
		<tag k="place" v="locality" />
		<tag k="ssr:stedsnr" v="272586" />
	</node>
<<<<<<< HEAD
	<node lat="60.364569446383726" lon="5.604738882541295" id="-25161">
		<tag k="name" v="Purkedalsgjelet" />
		<tag k="natural" v="valley" />
=======
	<node id="-630321" lat="60.399008332" lon="5.66723055682">
		<tag k="name" v="Revabakken" />
		<tag k="natural" v="slope" />
>>>>>>> e1d4bc35ff8a6074a6f2e91616a996b547c36f15
		<tag k="place" v="locality" />
		<tag k="ssr:stedsnr" v="672140" />
	</node>
<<<<<<< HEAD
	<node lat="60.47088611123127" lon="5.896177772142072" id="-25162">
		<tag k="name" v="Geitaberget" />
=======
	<node id="-630320" lat="60.3637888869" lon="5.69269443943">
		<tag k="name" v="Lindhaugen" />
>>>>>>> e1d4bc35ff8a6074a6f2e91616a996b547c36f15
		<tag k="natural" v="hill" />
		<tag k="place" v="locality" />
		<tag k="ssr:stedsnr" v="672330" />
	</node>
<<<<<<< HEAD
	<node lat="60.39267777809665" lon="5.781108336319468" id="-25164">
		<tag k="name" v="Kolalia" />
		<tag k="natural" v="slope" />
=======
	<node id="-630319" lat="60.3572750025" lon="5.65805278501">
		<tag k="name" v="Stutaskora" />
>>>>>>> e1d4bc35ff8a6074a6f2e91616a996b547c36f15
		<tag k="place" v="locality" />
		<tag k="ssr:stedsnr" v="454805" />
	</node>
<<<<<<< HEAD
	<node lat="60.44883610694116" lon="5.914708340656267" id="-25165">
		<tag k="fixme" v="consider natural=peak for the most distinct mountains in the district" />
		<tag k="name" v="Aksla" />
=======
	<node id="-630318" lat="60.4097888886" lon="5.79275833244">
		<tag k="name" v="Ørnahushaugen" />
>>>>>>> e1d4bc35ff8a6074a6f2e91616a996b547c36f15
		<tag k="natural" v="hill" />
		<tag k="place" v="locality" />
		<tag k="ssr:stedsnr" v="672351" />
	</node>
<<<<<<< HEAD
	<node lat="60.44795833247675" lon="5.854052783737166" id="-25166">
		<tag k="name" v="Hjellane" />
=======
	<node id="-630314" lat="60.3605972185" lon="5.85521389655">
		<tag k="name" v="Kvannevikskulten" />
>>>>>>> e1d4bc35ff8a6074a6f2e91616a996b547c36f15
		<tag k="natural" v="hill" />
		<tag k="place" v="locality" />
		<tag k="ssr:stedsnr" v="672353" />
	</node>
<<<<<<< HEAD
	<node lat="60.45017499907439" lon="5.901205549082235" id="-25167">
		<tag k="name" v="Stortoberget" />
=======
	<node id="-630312" lat="60.3164555555" lon="5.61026945178">
		<tag k="name" v="Skorahaugen" />
>>>>>>> e1d4bc35ff8a6074a6f2e91616a996b547c36f15
		<tag k="natural" v="hill" />
		<tag k="place" v="locality" />
		<tag k="ssr:stedsnr" v="672356" />
	</node>
<<<<<<< HEAD
	<node lat="60.40059166804654" lon="5.7596500016100896" id="-25170">
		<tag k="name" v="Helgatona" />
=======
	<node id="-630309" lat="60.373294442" lon="5.60559443919">
		<tag k="fixme" v="consider natural=peak for the most distinct mountains in the district" />
		<tag k="name" v="Kofta" />
		<tag k="natural" v="hill" />
>>>>>>> e1d4bc35ff8a6074a6f2e91616a996b547c36f15
		<tag k="place" v="locality" />
		<tag k="ssr:stedsnr" v="454967" />
	</node>
<<<<<<< HEAD
	<node lat="60.41052778012969" lon="5.775786118351183" id="-25171">
		<tag k="fixme" v="consider natural=peak for the most distinct mountains in the district" />
		<tag k="name" v="Høgåsen" />
=======
	<node id="-630305" lat="60.3886499999" lon="5.62579166034">
		<tag k="name" v="Brualeitet" />
>>>>>>> e1d4bc35ff8a6074a6f2e91616a996b547c36f15
		<tag k="natural" v="hill" />
		<tag k="place" v="locality" />
		<tag k="ssr:stedsnr" v="454971" />
	</node>
<<<<<<< HEAD
	<node lat="60.428472218315434" lon="5.799524994157312" id="-25175">
		<tag k="name" v="Kampane" />
		<tag k="natural" v="hill" />
		<tag k="place" v="locality" />
		<tag k="ssr:stedsnr" v="455417" />
	</node>
	<node lat="60.384172221909914" lon="5.676380547663506" id="-25178">
=======
	<node id="-630300" lat="60.3664666637" lon="5.86137778697">
		<tag k="name" v="Setrabotnen" />
		<tag k="natural" v="valley" />
		<tag k="place" v="locality" />
		<tag k="ssr:stedsnr" v="308636" />
	</node>
	<node id="-630296" lat="60.4308479262" lon="5.89870535088">
		<tag k="name" v="Tungegjelet" />
		<tag k="natural" v="gorge" />
		<tag k="ssr:stedsnr" v="308375" />
	</node>
	<node id="-630295" lat="60.4269944468" lon="5.90903055046">
>>>>>>> e1d4bc35ff8a6074a6f2e91616a996b547c36f15
		<tag k="fixme" v="consider natural=peak for the most distinct mountains in the district" />
		<tag k="name" v="Einaråsen" />
		<tag k="natural" v="hill" />
		<tag k="place" v="locality" />
		<tag k="ssr:stedsnr" v="673149" />
	</node>
<<<<<<< HEAD
	<node lat="60.35952778213445" lon="5.619488887063273" id="-25181">
		<tag k="name" v="Brekkekleiva" />
		<tag k="natural" v="slope" />
		<tag k="place" v="locality" />
		<tag k="ssr:stedsnr" v="673199" />
	</node>
	<node lat="60.46067777689682" lon="5.9177111162894525" id="-25182">
		<tag k="name" v="Renneberget" />
=======
	<node id="-630292" lat="60.4063861083" lon="5.8004416681">
		<tag k="name" v="Totlandskampen" />
>>>>>>> e1d4bc35ff8a6074a6f2e91616a996b547c36f15
		<tag k="natural" v="hill" />
		<tag k="place" v="locality" />
		<tag k="ssr:stedsnr" v="673419" />
	</node>
<<<<<<< HEAD
	<node lat="60.487113887906915" lon="5.886611102570526" id="-25183">
		<tag k="name" v="Lavransskaret" />
=======
	<node id="-630290" lat="60.4493055555" lon="5.79206389798">
		<tag k="name" v="Bogaskaret" />
>>>>>>> e1d4bc35ff8a6074a6f2e91616a996b547c36f15
		<tag k="natural" v="valley" />
		<tag k="place" v="locality" />
		<tag k="ssr:stedsnr" v="673349" />
	</node>
<<<<<<< HEAD
	<node lat="60.40927500253756" lon="5.7493416642704265" id="-25186">
=======
	<node id="-630289" lat="60.4531027775" lon="5.76610555706">
>>>>>>> e1d4bc35ff8a6074a6f2e91616a996b547c36f15
		<tag k="fixme" v="consider natural=peak for the most distinct mountains in the district" />
		<tag k="name" v="Merkesåsen" />
		<tag k="natural" v="hill" />
		<tag k="place" v="locality" />
		<tag k="ssr:stedsnr" v="490089" />
	</node>
<<<<<<< HEAD
	<node lat="60.42559999743441" lon="5.864069440226538" id="-25192">
		<tag k="name" v="Lyningen" />
		<tag k="natural" v="hill" />
=======
	<node id="-630288" lat="60.3538638874" lon="5.75801388015">
		<tag k="name" v="Nedre Skaråsdalen" />
		<tag k="natural" v="valley" />
>>>>>>> e1d4bc35ff8a6074a6f2e91616a996b547c36f15
		<tag k="place" v="locality" />
		<tag k="ssr:stedsnr" v="490400" />
	</node>
<<<<<<< HEAD
	<node lat="60.42865833554085" lon="5.86844444233176" id="-25193">
		<tag k="name" v="Ruken" />
		<tag k="natural" v="hill" />
=======
	<node id="-630285" lat="60.4512694459" lon="5.87194721511">
		<tag k="name" v="Elvadalen" />
		<tag k="natural" v="valley" />
>>>>>>> e1d4bc35ff8a6074a6f2e91616a996b547c36f15
		<tag k="place" v="locality" />
		<tag k="ssr:stedsnr" v="490401" />
	</node>
<<<<<<< HEAD
	<node lat="60.40630833634982" lon="5.697241660656669" id="-25197">
		<tag k="name" v="Nysetebotnen" />
		<tag k="natural" v="valley" />
		<tag k="place" v="locality" />
		<tag k="ssr:stedsnr" v="514873" />
	</node>
	<node lat="60.3458444448875" lon="5.638830551539872" id="-25198">
		<tag k="name" v="Langedalen" />
		<tag k="natural" v="valley" />
		<tag k="place" v="locality" />
		<tag k="ssr:stedsnr" v="514903" />
	</node>
	<node lat="60.337766665366516" lon="5.616791663146124" id="-25199">
		<tag k="name" v="Halsane" />
		<tag k="natural" v="ridge" />
		<tag k="place" v="locality" />
		<tag k="ssr:stedsnr" v="514910" />
	</node>
	<node lat="60.35104722359806" lon="5.665299993811516" id="-25200">
		<tag k="fixme" v="consider natural=peak for the most distinct mountains in the district" />
		<tag k="name" v="Vardane" />
=======
	<node id="-630284" lat="60.4485972233" lon="5.84910833683">
		<tag k="name" v="Storurhjellane" />
>>>>>>> e1d4bc35ff8a6074a6f2e91616a996b547c36f15
		<tag k="natural" v="hill" />
		<tag k="place" v="locality" />
		<tag k="ssr:stedsnr" v="514929" />
	</node>
<<<<<<< HEAD
	<node lat="60.417994447155394" lon="5.85561944569345" id="-25204">
		<tag k="name" v="Liane" />
=======
	<node id="-630283" lat="60.42200833" lon="5.82921944615">
		<tag k="name" v="Ytstalia" />
>>>>>>> e1d4bc35ff8a6074a6f2e91616a996b547c36f15
		<tag k="natural" v="slope" />
		<tag k="place" v="locality" />
		<tag k="ssr:stedsnr" v="516268" />
	</node>
<<<<<<< HEAD
	<node lat="60.39263055912817" lon="5.828225007477035" id="-25205">
		<tag k="name" v="Fjellhaugen" />
=======
	<node id="-630281" lat="60.4629694478" lon="5.88178888392">
		<tag k="name" v="Leinane" />
>>>>>>> e1d4bc35ff8a6074a6f2e91616a996b547c36f15
		<tag k="natural" v="hill" />
		<tag k="place" v="locality" />
		<tag k="ssr:stedsnr" v="516405" />
	</node>
<<<<<<< HEAD
	<node lat="60.4120138857395" lon="5.885416658567186" id="-25206">
		<tag k="name" v="Gjela" />
		<tag k="natural" v="gorge" />
		<tag k="ssr:stedsnr" v="516418" />
	</node>
	<node lat="60.34774166518534" lon="5.773999998021497" id="-25211">
		<tag k="name" v="Setrabotnen" />
		<tag k="natural" v="valley" />
		<tag k="place" v="locality" />
		<tag k="ssr:stedsnr" v="540938" />
	</node>
	<node lat="60.3958249997001" lon="5.822599994767171" id="-25213">
		<tag k="fixme" v="consider natural=peak for the most distinct mountains in the district" />
		<tag k="name" v="Totlandsfjellet" />
=======
	<node id="-630279" lat="60.4010777743" lon="5.83418889248">
		<tag k="name" v="Høghaugen" />
>>>>>>> e1d4bc35ff8a6074a6f2e91616a996b547c36f15
		<tag k="natural" v="hill" />
		<tag k="place" v="locality" />
		<tag k="ssr:stedsnr" v="551142" />
	</node>
<<<<<<< HEAD
	<node lat="60.38490000437186" lon="5.621108340242782" id="-25215">
		<tag k="name" v="Fagerbotnen" />
		<tag k="natural" v="valley" />
		<tag k="place" v="locality" />
		<tag k="ssr:stedsnr" v="551151" />
	</node>
	<node lat="60.444688885237454" lon="5.789038881687645" id="-25218">
		<tag k="fixme" v="consider natural=peak for the most distinct mountains in the district" />
		<tag k="name" v="Vardane" />
=======
	<node id="-630278" lat="60.4026805582" lon="5.82635833503">
		<tag k="name" v="Stigane" />
>>>>>>> e1d4bc35ff8a6074a6f2e91616a996b547c36f15
		<tag k="natural" v="hill" />
		<tag k="place" v="locality" />
		<tag k="ssr:stedsnr" v="551042" />
	</node>
<<<<<<< HEAD
	<node lat="60.29295277834529" lon="5.574650005997271" id="-25222">
		<tag k="name" v="Baggeskaret" />
		<tag k="natural" v="valley" />
		<tag k="place" v="locality" />
		<tag k="ssr:stedsnr" v="551294" />
	</node>
	<node lat="60.43123611215975" lon="5.871516665698553" id="-25223">
		<tag k="name" v="Renneberget" />
=======
	<node id="-630277" lat="60.3871972247" lon="5.77430000378">
		<tag k="name" v="Neverhaugen" />
>>>>>>> e1d4bc35ff8a6074a6f2e91616a996b547c36f15
		<tag k="natural" v="hill" />
		<tag k="place" v="locality" />
		<tag k="ssr:stedsnr" v="551404" />
	</node>
<<<<<<< HEAD
	<node lat="60.36587499592872" lon="5.667588884047996" id="-25225">
		<tag k="name" v="Lialandet" />
		<tag k="natural" v="ridge" />
		<tag k="place" v="locality" />
		<tag k="ssr:stedsnr" v="692275" />
	</node>
	<node lat="60.35313332963893" lon="5.692119437986363" id="-25229">
		<tag k="name" v="Storlia" />
=======
	<node id="-630274" lat="60.3547888913" lon="5.62911667165">
		<tag k="name" v="Hestastigane" />
>>>>>>> e1d4bc35ff8a6074a6f2e91616a996b547c36f15
		<tag k="natural" v="slope" />
		<tag k="place" v="locality" />
		<tag k="ssr:stedsnr" v="575914" />
	</node>
<<<<<<< HEAD
	<node lat="60.40339722316164" lon="5.738002776502645" id="-25230">
		<tag k="name" v="Høgeskolten" />
=======
	<node id="-630272" lat="60.3521388905" lon="5.86351945018">
		<tag k="name" v="Holmavasskultane" />
>>>>>>> e1d4bc35ff8a6074a6f2e91616a996b547c36f15
		<tag k="natural" v="hill" />
		<tag k="place" v="locality" />
		<tag k="ssr:stedsnr" v="575961" />
	</node>
<<<<<<< HEAD
	<node lat="60.34370832980925" lon="5.6010027828826265" id="-25231">
		<tag k="name" v="Austrelia" />
		<tag k="natural" v="slope" />
=======
	<node id="-630271" lat="60.4839555568" lon="5.98441943563">
		<tag k="fixme" v="consider natural=peak for the most distinct mountains in the district" />
		<tag k="name" v="Bjørnaknausen" />
		<tag k="natural" v="hill" />
>>>>>>> e1d4bc35ff8a6074a6f2e91616a996b547c36f15
		<tag k="place" v="locality" />
		<tag k="ssr:stedsnr" v="575898" />
	</node>
<<<<<<< HEAD
	<node lat="60.429972225359215" lon="5.806177779268668" id="-25232">
		<tag k="name" v="Bjørnspetthaugen" />
=======
	<node id="-630269" lat="60.3806083303" lon="5.63430833877">
		<tag k="fixme" v="consider natural=peak for the most distinct mountains in the district" />
		<tag k="name" v="Rennebrotet" />
>>>>>>> e1d4bc35ff8a6074a6f2e91616a996b547c36f15
		<tag k="natural" v="hill" />
		<tag k="place" v="locality" />
		<tag k="ssr:stedsnr" v="576445" />
	</node>
<<<<<<< HEAD
	<node lat="60.43396111370616" lon="5.823125000806697" id="-25233">
		<tag k="name" v="Seterhaugen" />
		<tag k="natural" v="hill" />
=======
	<node id="-630267" lat="60.391202778" lon="5.78413056042">
		<tag k="name" v="Tysselandsdalen" />
		<tag k="natural" v="valley" />
>>>>>>> e1d4bc35ff8a6074a6f2e91616a996b547c36f15
		<tag k="place" v="locality" />
		<tag k="ssr:stedsnr" v="576446" />
	</node>
<<<<<<< HEAD
	<node lat="60.406741668935" lon="5.722602772544743" id="-25236">
		<tag k="name" v="Ormarinden" />
		<tag k="natural" v="ridge" />
=======
	<node id="-630266" lat="60.3867805513" lon="5.85653610404">
		<tag k="name" v="Røssebotnen" />
		<tag k="natural" v="valley" />
>>>>>>> e1d4bc35ff8a6074a6f2e91616a996b547c36f15
		<tag k="place" v="locality" />
		<tag k="ssr:stedsnr" v="696960" />
	</node>
<<<<<<< HEAD
	<node lat="60.41958888872964" lon="5.836061104035532" id="-25238">
		<tag k="name" v="Leitet" />
=======
	<node id="-630264" lat="60.3707416673" lon="5.85199166149">
		<tag k="fixme" v="consider natural=peak for the most distinct mountains in the district" />
		<tag k="name" v="Vardanova" />
>>>>>>> e1d4bc35ff8a6074a6f2e91616a996b547c36f15
		<tag k="natural" v="hill" />
		<tag k="place" v="locality" />
		<tag k="ssr:stedsnr" v="698244" />
	</node>
<<<<<<< HEAD
	<node lat="60.417438889671985" lon="5.725397220813137" id="-25239">
=======
	<node id="-630262" lat="60.3704611147" lon="5.9149944477">
>>>>>>> e1d4bc35ff8a6074a6f2e91616a996b547c36f15
		<tag k="fixme" v="consider natural=peak for the most distinct mountains in the district" />
		<tag k="name" v="Bjørnåsen" />
		<tag k="natural" v="hill" />
		<tag k="place" v="locality" />
<<<<<<< HEAD
		<tag k="ssr:stedsnr" v="698251" />
	</node>
	<node lat="60.452630555326195" lon="5.850355559012561" id="-25243">
		<tag k="name" v="Skoradalen" />
=======
		<tag k="ssr:stedsnr" v="187622" />
	</node>
	<node id="-630261" lat="60.338436112" lon="5.90378889701">
		<tag k="name" v="Danielsslåtten" />
		<tag k="place" v="locality" />
		<tag k="ssr:stedsnr" v="187548" />
	</node>
	<node id="-630259" lat="60.4323591363" lon="5.91264592672">
		<tag k="name" v="Kalvagjela" />
		<tag k="natural" v="gorge" />
		<tag k="ssr:stedsnr" v="187385" />
	</node>
	<node id="-630256" lat="60.4783027798" lon="5.91456389597">
		<tag k="name" v="Holene" />
>>>>>>> e1d4bc35ff8a6074a6f2e91616a996b547c36f15
		<tag k="natural" v="valley" />
		<tag k="place" v="locality" />
		<tag k="ssr:stedsnr" v="698535" />
	</node>
<<<<<<< HEAD
	<node lat="60.38836388482056" lon="5.908913893280808" id="-25244">
		<tag k="name" v="Haugen" />
		<tag k="natural" v="hill" />
=======
	<node id="-630255" lat="60.4704527814" lon="5.91020000716">
		<tag k="name" v="Lavranshola" />
		<tag k="natural" v="valley" />
>>>>>>> e1d4bc35ff8a6074a6f2e91616a996b547c36f15
		<tag k="place" v="locality" />
		<tag k="ssr:stedsnr" v="698578" />
	</node>
<<<<<<< HEAD
	<node lat="60.33176944830349" lon="5.77601389702894" id="-25245">
=======
	<node id="-630254" lat="60.4601555594" lon="5.95648056198">
>>>>>>> e1d4bc35ff8a6074a6f2e91616a996b547c36f15
		<tag k="name" v="Fagerdalen" />
		<tag k="natural" v="valley" />
		<tag k="place" v="locality" />
		<tag k="ssr:stedsnr" v="601059" />
	</node>
<<<<<<< HEAD
	<node lat="60.333236112482275" lon="5.683155556663176" id="-25246">
		<tag k="name" v="Hedda" />
=======
	<node id="-630252" lat="60.3390277786" lon="5.80156667326">
		<tag k="alt_name" v="Tindafjell" />
		<tag k="fixme" v="consider natural=peak for the most distinct mountains in the district" />
		<tag k="name" v="Tindafjellet" />
>>>>>>> e1d4bc35ff8a6074a6f2e91616a996b547c36f15
		<tag k="natural" v="hill" />
		<tag k="place" v="locality" />
		<tag k="ssr:stedsnr" v="601106" />
	</node>
<<<<<<< HEAD
	<node lat="60.34940555985737" lon="5.827858339598548" id="-25247">
		<tag k="name" v="Skyttarglikka" />
=======
	<node id="-630250" lat="60.364833329" lon="5.66852499563">
		<tag k="fixme" v="consider natural=peak for the most distinct mountains in the district" />
		<tag k="name" v="Liahædda" />
		<tag k="natural" v="hill" />
>>>>>>> e1d4bc35ff8a6074a6f2e91616a996b547c36f15
		<tag k="place" v="locality" />
		<tag k="ssr:stedsnr" v="601923" />
	</node>
<<<<<<< HEAD
	<node lat="60.440797219267516" lon="5.866538890780035" id="-25248">
		<tag k="name" v="Stigane" />
=======
	<node id="-630249" lat="60.3852388929" lon="5.79065833235">
		<tag k="name" v="Snauhaugen" />
>>>>>>> e1d4bc35ff8a6074a6f2e91616a996b547c36f15
		<tag k="natural" v="hill" />
		<tag k="place" v="locality" />
		<tag k="ssr:stedsnr" v="698954" />
	</node>
<<<<<<< HEAD
	<node lat="60.36233056002931" lon="5.801436118119592" id="-25249">
		<tag k="name" v="Kollhaugen" />
=======
	<node id="-630246" lat="60.4366361122" lon="5.69579722417">
		<tag k="fixme" v="multiple name tags, choose one and add the other to alt_name; consider natural=peak for the most distinct mountains in the district" />
		<tag k="name" v="Raudnipa;Trollabotsvarden" />
>>>>>>> e1d4bc35ff8a6074a6f2e91616a996b547c36f15
		<tag k="natural" v="hill" />
		<tag k="place" v="locality" />
		<tag k="ssr:stedsnr" v="604037" />
	</node>
<<<<<<< HEAD
	<node lat="60.47655000299696" lon="5.897988892741487" id="-25251">
=======
	<node id="-630243" lat="60.3409444447" lon="5.89526665977">
>>>>>>> e1d4bc35ff8a6074a6f2e91616a996b547c36f15
		<tag k="fixme" v="consider natural=peak for the most distinct mountains in the district" />
		<tag k="name" v="Fonnanipa" />
		<tag k="natural" v="hill" />
		<tag k="place" v="locality" />
		<tag k="ssr:stedsnr" v="611380" />
	</node>
<<<<<<< HEAD
	<node lat="60.42400278087021" lon="5.814372223901324" id="-25252">
		<tag k="name" v="Fiskekampen" />
=======
	<node id="-630242" lat="60.3620333314" lon="5.74560555001">
		<tag k="name" v="Løypehaugen" />
>>>>>>> e1d4bc35ff8a6074a6f2e91616a996b547c36f15
		<tag k="natural" v="hill" />
		<tag k="place" v="locality" />
		<tag k="ssr:stedsnr" v="612076" />
	</node>
<<<<<<< HEAD
	<node lat="60.360238886922374" lon="5.838480557362077" id="-25255">
		<tag k="fixme" v="consider natural=peak for the most distinct mountains in the district" />
		<tag k="name" v="Storenipen" />
		<tag k="natural" v="hill" />
		<tag k="place" v="locality" />
		<tag k="ssr:stedsnr" v="612206" />
	</node>
	<node lat="60.46408889321773" lon="5.943775005464646" id="-25257">
		<tag k="fixme" v="consider natural=peak for the most distinct mountains in the district" />
		<tag k="name" v="Sotabottsnipa" />
=======
	<node id="-630241" lat="60.3685916648" lon="5.80203054776">
		<tag k="name" v="Storemyrhaugen" />
		<tag k="natural" v="hill" />
		<tag k="place" v="locality" />
		<tag k="ssr:stedsnr" v="180033" />
	</node>
	<node id="-630240" lat="60.3365666696" lon="5.68256389356">
		<tag k="name" v="Tjørndalen" />
		<tag k="natural" v="valley" />
		<tag k="place" v="locality" />
		<tag k="ssr:stedsnr" v="176138" />
	</node>
	<node id="-630239" lat="60.3325472207" lon="5.66838055759">
		<tag k="name" v="Lyningshaugen" />
>>>>>>> e1d4bc35ff8a6074a6f2e91616a996b547c36f15
		<tag k="natural" v="hill" />
		<tag k="place" v="locality" />
		<tag k="ssr:stedsnr" v="612382" />
	</node>
<<<<<<< HEAD
	<node lat="60.34947500060872" lon="5.597180563659022" id="-25259">
		<tag k="name" v="Brekkedalen" />
=======
	<node id="-630237" lat="60.3446222244" lon="5.70178054857">
		<tag k="name" v="Høgaløypet" />
>>>>>>> e1d4bc35ff8a6074a6f2e91616a996b547c36f15
		<tag k="natural" v="valley" />
		<tag k="place" v="locality" />
		<tag k="ssr:stedsnr" v="635606" />
	</node>
<<<<<<< HEAD
	<node lat="60.350791670304034" lon="5.631180552708608" id="-25260">
		<tag k="name" v="Vasslia" />
=======
	<node id="-630235" lat="60.3420972195" lon="5.71958610716">
		<tag k="name" v="Geitalia" />
>>>>>>> e1d4bc35ff8a6074a6f2e91616a996b547c36f15
		<tag k="natural" v="slope" />
		<tag k="place" v="locality" />
		<tag k="ssr:stedsnr" v="635609" />
	</node>
<<<<<<< HEAD
	<node lat="60.33286944550323" lon="5.618069443397453" id="-25261">
		<tag k="name" v="Raudsteinshaugen" />
=======
	<node id="-630232" lat="60.3621611098" lon="5.65392499658">
		<tag k="name" v="Øyahaugen" />
>>>>>>> e1d4bc35ff8a6074a6f2e91616a996b547c36f15
		<tag k="natural" v="hill" />
		<tag k="place" v="locality" />
		<tag k="ssr:stedsnr" v="635908" />
	</node>
<<<<<<< HEAD
	<node lat="60.392830552940424" lon="5.701072216870441" id="-25262">
		<tag k="name" v="Masterskaret" />
=======
	<node id="-630230" lat="60.4459805537" lon="5.85615554846">
		<tag k="name" v="Åridalen" />
>>>>>>> e1d4bc35ff8a6074a6f2e91616a996b547c36f15
		<tag k="natural" v="valley" />
		<tag k="place" v="locality" />
		<tag k="ssr:stedsnr" v="635984" />
	</node>
<<<<<<< HEAD
	<node lat="60.40169999639781" lon="5.8536138949752" id="-25263">
		<tag k="name" v="Rinden" />
=======
	<node id="-630229" lat="60.4278833337" lon="5.83162777673">
		<tag k="name" v="Brennehaugen" />
>>>>>>> e1d4bc35ff8a6074a6f2e91616a996b547c36f15
		<tag k="natural" v="hill" />
		<tag k="place" v="locality" />
		<tag k="ssr:stedsnr" v="636411" />
	</node>
<<<<<<< HEAD
	<node lat="60.415652779582985" lon="5.780441674103481" id="-25264">
		<tag k="name" v="Kalvadalshaugane" />
		<tag k="natural" v="hill" />
		<tag k="place" v="locality" />
		<tag k="ssr:stedsnr" v="636488" />
	</node>
	<node lat="60.41628055759091" lon="5.778947230628396" id="-25265">
		<tag k="name" v="Halsen" />
		<tag k="natural" v="valley" />
=======
	<node id="-630228" lat="60.3973027763" lon="5.87216110559">
		<tag k="name" v="Eriksmuren" />
		<tag k="natural" v="hill" />
		<tag k="place" v="locality" />
		<tag k="ssr:stedsnr" v="151447" />
	</node>
	<node id="-630227" lat="60.3810527737" lon="5.77116110571">
		<tag k="name" v="Gryvlet" />
		<tag k="natural" v="gorge" />
		<tag k="ssr:stedsnr" v="151340" />
	</node>
	<node id="-630224" lat="60.4122999986" lon="5.77014444337">
		<tag k="name" v="Terhaugane" />
		<tag k="natural" v="hill" />
>>>>>>> e1d4bc35ff8a6074a6f2e91616a996b547c36f15
		<tag k="place" v="locality" />
		<tag k="ssr:stedsnr" v="636490" />
	</node>
<<<<<<< HEAD
	<node lat="60.42233055186426" lon="5.717669437845798" id="-25266">
		<tag k="name" v="Setralia" />
=======
	<node id="-630221" lat="60.3496027786" lon="5.6967416672">
		<tag k="name" v="Lyninghaugane" />
>>>>>>> e1d4bc35ff8a6074a6f2e91616a996b547c36f15
		<tag k="natural" v="hill" />
		<tag k="place" v="locality" />
		<tag k="ssr:stedsnr" v="637310" />
	</node>
<<<<<<< HEAD
	<node lat="60.36491111416054" lon="5.910783335898531" id="-25270">
		<tag k="name" v="Bjørnahiet" />
		<tag k="natural" v="valley" />
=======
	<node id="-630217" lat="60.5105722239" lon="5.99570832877">
		<tag k="name" v="Storlii" />
		<tag k="natural" v="slope" />
>>>>>>> e1d4bc35ff8a6074a6f2e91616a996b547c36f15
		<tag k="place" v="locality" />
		<tag k="ssr:stedsnr" v="646977" />
	</node>
<<<<<<< HEAD
	<node lat="60.36532222497941" lon="5.825294449307531" id="-25272">
		<tag k="name" v="Bølingahaugen" />
=======
	<node id="-630214" lat="60.3272055548" lon="5.8447444385">
		<tag k="name" v="Høganova" />
>>>>>>> e1d4bc35ff8a6074a6f2e91616a996b547c36f15
		<tag k="natural" v="hill" />
		<tag k="place" v="locality" />
		<tag k="ssr:stedsnr" v="707947" />
	</node>
<<<<<<< HEAD
	<node lat="60.32806389308567" lon="5.698352775919737" id="-25275">
		<tag k="name" v="Stongahjellen" />
=======
	<node id="-630213" lat="60.4027611101" lon="5.88711389296">
		<tag k="fixme" v="consider natural=peak for the most distinct mountains in the district" />
		<tag k="name" v="Huldabottsfjellet" />
		<tag k="natural" v="hill" />
>>>>>>> e1d4bc35ff8a6074a6f2e91616a996b547c36f15
		<tag k="place" v="locality" />
		<tag k="ssr:stedsnr" v="661011" />
	</node>
<<<<<<< HEAD
	<node lat="60.355066665612036" lon="5.731888881313723" id="-25278">
		<tag k="name" v="Fossabrekka" />
		<tag k="natural" v="slope" />
=======
	<node id="-630208" lat="60.4761250034" lon="5.92790277223">
		<tag k="name" v="Dukabotnen" />
		<tag k="natural" v="valley" />
>>>>>>> e1d4bc35ff8a6074a6f2e91616a996b547c36f15
		<tag k="place" v="locality" />
		<tag k="ssr:stedsnr" v="665038" />
	</node>
<<<<<<< HEAD
	<node lat="60.469494442082805" lon="5.8986027762718605" id="-25281">
=======
	<node id="-630200" lat="60.4586916692" lon="5.79693610364">
>>>>>>> e1d4bc35ff8a6074a6f2e91616a996b547c36f15
		<tag k="fixme" v="consider natural=peak for the most distinct mountains in the district" />
		<tag k="name" v="Nova" />
		<tag k="natural" v="hill" />
		<tag k="place" v="locality" />
		<tag k="ssr:stedsnr" v="672327" />
	</node>
<<<<<<< HEAD
	<node lat="60.350433333816895" lon="5.711397230116265" id="-25288">
=======
	<node id="-630198" lat="60.383374997" lon="5.58923332714">
>>>>>>> e1d4bc35ff8a6074a6f2e91616a996b547c36f15
		<tag k="fixme" v="consider natural=peak for the most distinct mountains in the district" />
		<tag k="name" v="Steinafjellet" />
		<tag k="natural" v="hill" />
		<tag k="place" v="locality" />
		<tag k="ssr:stedsnr" v="673206" />
	</node>
<<<<<<< HEAD
	<node lat="60.36754722401198" lon="5.8244249922379225" id="-25293">
		<tag k="name" v="Haraskori" />
=======
	<node id="-630197" lat="60.3885833337" lon="5.67455277003">
		<tag k="name" v="Haugalia" />
		<tag k="natural" v="slope" />
>>>>>>> e1d4bc35ff8a6074a6f2e91616a996b547c36f15
		<tag k="place" v="locality" />
		<tag k="ssr:stedsnr" v="890978" />
	</node>
<<<<<<< HEAD
	<node lat="60.411386109883374" lon="5.783544450915079" id="-25297">
=======
	<node id="-630196" lat="60.3935361068" lon="5.79067222354">
>>>>>>> e1d4bc35ff8a6074a6f2e91616a996b547c36f15
		<tag k="fixme" v="consider natural=peak for the most distinct mountains in the district" />
		<tag k="name" v="Vinsjansen" />
		<tag k="natural" v="hill" />
		<tag k="place" v="locality" />
		<tag k="ssr:stedsnr" v="696206" />
	</node>
<<<<<<< HEAD
	<node lat="60.39590277707317" lon="5.795555554367444" id="-25302">
		<tag k="name" v="Hjellane" />
=======
	<node id="-630193" lat="60.3235277802" lon="5.77077499442">
		<tag k="name" v="Skodvasshaugen" />
>>>>>>> e1d4bc35ff8a6074a6f2e91616a996b547c36f15
		<tag k="natural" v="hill" />
		<tag k="place" v="locality" />
		<tag k="ssr:stedsnr" v="696774" />
	</node>
<<<<<<< HEAD
	<node lat="60.41663888758299" lon="5.85597222203893" id="-25305">
		<tag k="name" v="Kuhaugen" />
		<tag k="natural" v="hill" />
=======
	<node id="-630192" lat="60.327880553" lon="5.71924444142">
		<tag k="name" v="Seterdalen" />
		<tag k="natural" v="valley" />
>>>>>>> e1d4bc35ff8a6074a6f2e91616a996b547c36f15
		<tag k="place" v="locality" />
		<tag k="ssr:stedsnr" v="698232" />
	</node>
<<<<<<< HEAD
	<node lat="60.3703999977906" lon="5.905711108855928" id="-25309">
		<tag k="name" v="Bjørnagjelet" />
		<tag k="natural" v="valley" />
=======
	<node id="-630191" lat="60.3383694413" lon="5.69539443697">
		<tag k="name" v="Aksla" />
>>>>>>> e1d4bc35ff8a6074a6f2e91616a996b547c36f15
		<tag k="place" v="locality" />
		<tag k="ssr:stedsnr" v="707976" />
	</node>
<<<<<<< HEAD
	<node lat="60.32830277855459" lon="5.67013610642792" id="-25310">
		<tag k="name" v="Olderbakkane" />
		<tag k="natural" v="slope" />
=======
	<node id="-630187" lat="60.4313444483" lon="5.94159999059">
		<tag k="name" v="Hardingaskaret" />
		<tag k="natural" v="hill" />
>>>>>>> e1d4bc35ff8a6074a6f2e91616a996b547c36f15
		<tag k="place" v="locality" />
		<tag k="ssr:stedsnr" v="722117" />
	</node>
<<<<<<< HEAD
	<node lat="60.33896666904316" lon="5.79044167285595" id="-25311">
		<tag k="name" v="Haugssteinen" />
		<tag k="natural" v="hill" />
=======
	<node id="-630186" lat="60.3590083379" lon="5.88504167453">
		<tag k="name" v="Helvetesbotnen" />
		<tag k="natural" v="valley" />
>>>>>>> e1d4bc35ff8a6074a6f2e91616a996b547c36f15
		<tag k="place" v="locality" />
		<tag k="ssr:stedsnr" v="723923" />
	</node>
<<<<<<< HEAD
	<node lat="60.34736111110027" lon="5.795000000050102" id="-25312">
		<tag k="name" v="Trælaflatane" />
=======
	<node id="-630183" lat="60.4522888864" lon="5.86524445127">
		<tag k="name" v="Hilderen" />
>>>>>>> e1d4bc35ff8a6074a6f2e91616a996b547c36f15
		<tag k="place" v="locality" />
		<tag k="ssr:stedsnr" v="723924" />
	</node>
<<<<<<< HEAD
	<node lat="60.40488888968138" lon="5.670333338181489" id="-25313">
		<tag k="fixme" v="consider natural=peak for the most distinct mountains in the district" />
		<tag k="name" v="Holdhusfjellet" />
		<tag k="natural" v="hill" />
=======
	<node id="-630181" lat="60.4227833299" lon="5.83571110851">
		<tag k="name" v="Kjerringadalen" />
		<tag k="natural" v="valley" />
>>>>>>> e1d4bc35ff8a6074a6f2e91616a996b547c36f15
		<tag k="place" v="locality" />
		<tag k="ssr:stedsnr" v="733095" />
	</node>
<<<<<<< HEAD
	<node lat="60.42434166765239" lon="5.889163880127172" id="-25315">
		<tag k="name" v="Middagsskaret" />
		<tag k="natural" v="valley" />
=======
	<node id="-630180" lat="60.3776972209" lon="5.81384444127">
		<tag k="name" v="Apalluren" />
		<tag k="natural" v="hill" />
>>>>>>> e1d4bc35ff8a6074a6f2e91616a996b547c36f15
		<tag k="place" v="locality" />
		<tag k="ssr:stedsnr" v="733394" />
	</node>
<<<<<<< HEAD
	<node lat="60.36255833494587" lon="5.857927783652041" id="-25316">
=======
	<node id="-630179" lat="60.3760333293" lon="5.79279445007">
>>>>>>> e1d4bc35ff8a6074a6f2e91616a996b547c36f15
		<tag k="fixme" v="consider natural=peak for the most distinct mountains in the district" />
		<tag k="name" v="Grøet" />
		<tag k="natural" v="hill" />
		<tag k="place" v="locality" />
		<tag k="ssr:stedsnr" v="733632" />
	</node>
<<<<<<< HEAD
	<node lat="60.33742221883908" lon="5.7271250018116" id="-25318">
		<tag k="name" v="Austerdalane" />
		<tag k="natural" v="valley" />
=======
	<node id="-630175" lat="60.3836250039" lon="5.61773610703">
		<tag k="name" v="Namnlausehaugen" />
		<tag k="natural" v="hill" />
>>>>>>> e1d4bc35ff8a6074a6f2e91616a996b547c36f15
		<tag k="place" v="locality" />
		<tag k="ssr:stedsnr" v="905029" />
	</node>
<<<<<<< HEAD
	<node lat="60.4238333304099" lon="5.907663894540109" id="-25320">
		<tag k="name" v="Grøbotnen" />
		<tag k="natural" v="valley" />
=======
	<node id="-630174" lat="60.3777222243" lon="5.64422500391">
		<tag k="name" v="Rindastølshaugen" />
		<tag k="natural" v="hill" />
>>>>>>> e1d4bc35ff8a6074a6f2e91616a996b547c36f15
		<tag k="place" v="locality" />
		<tag k="ssr:stedsnr" v="759120" />
	</node>
<<<<<<< HEAD
	<node lat="60.42808889010182" lon="5.843027769390493" id="-25321">
		<tag k="name" v="Vårsvoa" />
=======
	<node id="-630169" lat="60.3611499984" lon="5.69605277957">
		<tag k="name" v="Kampalia" />
>>>>>>> e1d4bc35ff8a6074a6f2e91616a996b547c36f15
		<tag k="natural" v="slope" />
		<tag k="place" v="locality" />
		<tag k="ssr:stedsnr" v="759405" />
	</node>
<<<<<<< HEAD
	<node lat="60.384452776752994" lon="5.895494446320216" id="-25322">
		<tag k="name" v="Eikedalen" />
		<tag k="natural" v="valley" />
=======
	<node id="-630168" lat="60.3533861154" lon="5.66632221888">
		<tag k="name" v="Furehaugen" />
		<tag k="natural" v="hill" />
>>>>>>> e1d4bc35ff8a6074a6f2e91616a996b547c36f15
		<tag k="place" v="locality" />
		<tag k="ssr:stedsnr" v="759610" />
	</node>
<<<<<<< HEAD
	<node lat="60.352561111369525" lon="5.724633339831082" id="-25325">
		<tag k="name" v="Tøleitet" />
		<tag k="place" v="locality" />
		<tag k="ssr:stedsnr" v="908035" />
	</node>
	<node lat="60.35299999800679" lon="5.748899999159227" id="-25326">
		<tag k="name" v="Dyrhaugane" />
=======
	<node id="-630167" lat="60.4076416626" lon="5.78274166265">
		<tag k="name" v="Gjelet" />
		<tag k="natural" v="gorge" />
		<tag k="ssr:stedsnr" v="90160" />
	</node>
	<node id="-630165" lat="60.5196666702" lon="5.91126666789">
		<tag k="fixme" v="consider natural=peak for the most distinct mountains in the district" />
		<tag k="name" v="Tverrberget" />
>>>>>>> e1d4bc35ff8a6074a6f2e91616a996b547c36f15
		<tag k="natural" v="hill" />
		<tag k="place" v="locality" />
		<tag k="ssr:stedsnr" v="908038" />
	</node>
<<<<<<< HEAD
	<node lat="60.361319441020406" lon="5.718711117518099" id="-25332">
		<tag k="name" v="Rabbane" />
=======
	<node id="-630164" lat="60.3482083287" lon="5.93254721549">
		<tag k="fixme" v="consider natural=peak for the most distinct mountains in the district" />
		<tag k="name" v="Høganova" />
>>>>>>> e1d4bc35ff8a6074a6f2e91616a996b547c36f15
		<tag k="natural" v="hill" />
		<tag k="place" v="locality" />
		<tag k="ssr:stedsnr" v="787051" />
	</node>
<<<<<<< HEAD
	<node lat="60.41060000009818" lon="5.810425006609548" id="-25334">
		<tag k="name" v="Svensdalen" />
		<tag k="natural" v="valley" />
		<tag k="place" v="locality" />
		<tag k="ssr:stedsnr" v="794096" />
	</node>
	<node lat="60.403019441769196" lon="5.841997225709259" id="-25337">
		<tag k="name" v="Børdalen" />
		<tag k="natural" v="valley" />
=======
	<node id="-630162" lat="60.350719443" lon="5.89832776956">
		<tag k="name" v="Stutabotnen" />
		<tag k="natural" v="valley" />
		<tag k="place" v="locality" />
		<tag k="ssr:stedsnr" v="66623" />
	</node>
	<node id="-630161" lat="60.3544277816" lon="5.87668333013">
		<tag k="fixme" v="consider natural=peak for the most distinct mountains in the district" />
		<tag k="name" v="Storagrønova" />
		<tag k="natural" v="hill" />
		<tag k="place" v="locality" />
		<tag k="ssr:stedsnr" v="66622" />
	</node>
	<node id="-630159" lat="60.2977611099" lon="5.60300555825">
		<tag k="fixme" v="consider natural=peak for the most distinct mountains in the district" />
		<tag k="name" v="Solbjørgfjellet" />
		<tag k="natural" v="hill" />
>>>>>>> e1d4bc35ff8a6074a6f2e91616a996b547c36f15
		<tag k="place" v="locality" />
		<tag k="ssr:stedsnr" v="794115" />
	</node>
<<<<<<< HEAD
	<node lat="60.35862499791897" lon="5.640713886804895" id="-25339">
		<tag k="fixme" v="consider natural=peak for the most distinct mountains in the district" />
		<tag k="name" v="Store Sundhaugen" />
=======
	<node id="-630156" lat="60.3405722233" lon="5.83413056372">
		<tag k="fixme" v="consider natural=peak for the most distinct mountains in the district" />
		<tag k="name" v="Geitaloftet" />
		<tag k="natural" v="hill" />
		<tag k="place" v="locality" />
		<tag k="ssr:stedsnr" v="66222" />
	</node>
	<node id="-630148" lat="60.3670166636" lon="5.77468055741">
		<tag k="name" v="Slåtten" />
>>>>>>> e1d4bc35ff8a6074a6f2e91616a996b547c36f15
		<tag k="natural" v="hill" />
		<tag k="place" v="locality" />
		<tag k="ssr:stedsnr" v="794168" />
	</node>
<<<<<<< HEAD
	<node lat="60.49130833784247" lon="5.887702777183413" id="-25344">
		<tag k="name" v="Herfangsgjelet" />
		<tag k="natural" v="valley" />
=======
	<node id="-630147" lat="60.3562527772" lon="5.81069722881">
		<tag k="name" v="Floren" />
		<tag k="natural" v="hill" />
>>>>>>> e1d4bc35ff8a6074a6f2e91616a996b547c36f15
		<tag k="place" v="locality" />
		<tag k="ssr:stedsnr" v="794317" />
	</node>
<<<<<<< HEAD
	<node lat="60.43798611530472" lon="5.858855555203232" id="-25347">
		<tag k="name" v="Klentangliane" />
		<tag k="natural" v="slope" />
=======
	<node id="-630146" lat="60.3316166698" lon="5.69312223089">
		<tag k="name" v="Høgehaugen" />
		<tag k="natural" v="hill" />
>>>>>>> e1d4bc35ff8a6074a6f2e91616a996b547c36f15
		<tag k="place" v="locality" />
		<tag k="ssr:stedsnr" v="794420" />
	</node>
<<<<<<< HEAD
	<node lat="60.45887500427432" lon="5.91179444890792" id="-25349">
		<tag k="name" v="Fossagjelet" />
		<tag k="natural" v="gorge" />
		<tag k="ssr:stedsnr" v="794374" />
	</node>
	<node lat="60.46006111509354" lon="5.9308722153973585" id="-25352">
		<tag k="name" v="Sotabotnen" />
=======
	<node id="-630145" lat="60.3445416639" lon="5.71680555222">
		<tag k="name" v="Utløhaugane" />
		<tag k="natural" v="hill" />
		<tag k="place" v="locality" />
		<tag k="ssr:stedsnr" v="55037" />
	</node>
	<node id="-630143" lat="60.3309638899" lon="5.65904443809">
		<tag k="name" v="Jonadalen" />
>>>>>>> e1d4bc35ff8a6074a6f2e91616a996b547c36f15
		<tag k="natural" v="valley" />
		<tag k="place" v="locality" />
		<tag k="ssr:stedsnr" v="915380" />
	</node>
<<<<<<< HEAD
	<node lat="60.451791667589724" lon="5.945930552205354" id="-25353">
		<tag k="name" v="Fangaskorgjelet" />
=======
	<node id="-630142" lat="60.3475999996" lon="5.69286667027">
		<tag k="name" v="Rinden" />
>>>>>>> e1d4bc35ff8a6074a6f2e91616a996b547c36f15
		<tag k="place" v="locality" />
		<tag k="ssr:stedsnr" v="915357" />
	</node>
<<<<<<< HEAD
	<node lat="60.40153055278226" lon="5.873080557292013" id="-25357">
		<tag k="fixme" v="consider natural=peak for the most distinct mountains in the district" />
		<tag k="name" v="Utløbottsfjellet" />
		<tag k="natural" v="hill" />
=======
	<node id="-630136" lat="60.3658472254" lon="5.88054165993">
		<tag k="name" v="Plyttagjeldet" />
		<tag k="natural" v="valley" />
>>>>>>> e1d4bc35ff8a6074a6f2e91616a996b547c36f15
		<tag k="place" v="locality" />
		<tag k="ssr:stedsnr" v="915464" />
	</node>
<<<<<<< HEAD
	<node lat="60.3422305519048" lon="5.856691668154499" id="-25358">
		<tag k="name" v="Grashaugen" />
=======
	<node id="-630135" lat="60.4397555562" lon="5.84685833379">
		<tag k="fixme" v="consider natural=peak for the most distinct mountains in the district" />
		<tag k="name" v="Vetlåsen" />
>>>>>>> e1d4bc35ff8a6074a6f2e91616a996b547c36f15
		<tag k="natural" v="hill" />
		<tag k="place" v="locality" />
		<tag k="ssr:stedsnr" v="915559" />
	</node>
<<<<<<< HEAD
	<node lat="60.41563611068022" lon="5.840405555222025" id="-25359">
		<tag k="name" v="Florhaugen" />
		<tag k="natural" v="hill" />
=======
	<node id="-630132" lat="60.4403138925" lon="5.82658610681">
		<tag k="name" v="Fossane" />
		<tag k="natural" v="ridge" />
>>>>>>> e1d4bc35ff8a6074a6f2e91616a996b547c36f15
		<tag k="place" v="locality" />
		<tag k="ssr:stedsnr" v="916095" />
	</node>
<<<<<<< HEAD
	<node lat="60.394730555098036" lon="5.869000004946334" id="-25369">
		<tag k="name" v="Grøna Lia" />
=======
	<node id="-630131" lat="60.4446388893" lon="5.86012222869">
		<tag k="name" v="Dyralia" />
>>>>>>> e1d4bc35ff8a6074a6f2e91616a996b547c36f15
		<tag k="natural" v="slope" />
		<tag k="place" v="locality" />
		<tag k="ssr:stedsnr" v="819426" />
	</node>
<<<<<<< HEAD
	<node lat="60.336016671070766" lon="5.7640305546895645" id="-25370">
		<tag k="fixme" v="consider natural=peak for the most distinct mountains in the district" />
		<tag k="name" v="Burlisåta" />
=======
	<node id="-630130" lat="60.4311944478" lon="5.87995833485">
		<tag k="name" v="Vierkleiva" />
>>>>>>> e1d4bc35ff8a6074a6f2e91616a996b547c36f15
		<tag k="natural" v="hill" />
		<tag k="place" v="locality" />
		<tag k="ssr:stedsnr" v="826368" />
	</node>
<<<<<<< HEAD
	<node lat="60.36308610911868" lon="5.856752784243361" id="-25371">
		<tag k="name" v="Moltemyrkultane" />
		<tag k="natural" v="hill" />
		<tag k="place" v="locality" />
		<tag k="ssr:stedsnr" v="829963" />
	</node>
	<node lat="60.36079444500934" lon="5.881516667383638" id="-25372">
		<tag k="name" v="Plytten" />
		<tag k="natural" v="hill" />
=======
	<node id="-630129" lat="60.4630777755" lon="5.88945833968">
		<tag k="name" v="Høghaugen" />
		<tag k="natural" v="hill" />
		<tag k="place" v="locality" />
		<tag k="ssr:stedsnr" v="31077" />
	</node>
	<node id="-630128" lat="60.4106750039" lon="5.84183610403">
		<tag k="name" v="Sørlia" />
		<tag k="natural" v="slope" />
		<tag k="place" v="locality" />
		<tag k="ssr:stedsnr" v="30496" />
	</node>
	<node id="-630125" lat="60.4268666694" lon="5.7267527729">
		<tag k="name" v="Tjørndalen" />
		<tag k="natural" v="valley" />
		<tag k="place" v="locality" />
		<tag k="ssr:stedsnr" v="30305" />
	</node>
	<node id="-630123" lat="60.3395472238" lon="5.62317777524">
		<tag k="name" v="Mørkedalen" />
		<tag k="natural" v="valley" />
>>>>>>> e1d4bc35ff8a6074a6f2e91616a996b547c36f15
		<tag k="place" v="locality" />
		<tag k="ssr:stedsnr" v="829966" />
	</node>
<<<<<<< HEAD
	<node lat="60.350322217717846" lon="5.724324992384436" id="-25378">
		<tag k="name" v="Utløhaugen" />
		<tag k="natural" v="hill" />
=======
	<node id="-630120" lat="60.397949998" lon="5.67034445002">
		<tag k="name" v="Akselskaret" />
		<tag k="natural" v="valley" />
>>>>>>> e1d4bc35ff8a6074a6f2e91616a996b547c36f15
		<tag k="place" v="locality" />
		<tag k="ssr:stedsnr" v="848029" />
	</node>
<<<<<<< HEAD
	<node lat="60.39883888517898" lon="5.62098888767067" id="-25379">
		<tag k="fixme" v="multiple name tags, choose one and add the other to alt_name; consider natural=peak for the most distinct mountains in the district" />
		<tag k="name" v="Kråfjellet;Mannaleitnipa" />
=======
	<node id="-630119" lat="60.3972249965" lon="5.76750278118">
		<tag k="name" v="Heia" />
>>>>>>> e1d4bc35ff8a6074a6f2e91616a996b547c36f15
		<tag k="natural" v="hill" />
		<tag k="place" v="locality" />
		<tag k="ssr:stedsnr" v="855105" />
	</node>
<<<<<<< HEAD
	<node lat="60.4149555560138" lon="5.825058338114981" id="-25382">
		<tag k="fixme" v="consider natural=peak for the most distinct mountains in the district" />
		<tag k="name" v="Svensdalsåsen" />
=======
	<node id="-630117" lat="60.5063333337" lon="5.98146388516">
		<tag k="name" v="Høgda" />
>>>>>>> e1d4bc35ff8a6074a6f2e91616a996b547c36f15
		<tag k="natural" v="hill" />
		<tag k="place" v="locality" />
		<tag k="ssr:stedsnr" v="855094" />
	</node>
<<<<<<< HEAD
	<node lat="60.46355278188563" lon="5.905847214756187" id="-25385">
		<tag k="name" v="Vedlia" />
=======
	<node id="-630115" lat="60.3770055599" lon="5.64477777298">
		<tag k="name" v="Rindane" />
>>>>>>> e1d4bc35ff8a6074a6f2e91616a996b547c36f15
		<tag k="natural" v="slope" />
		<tag k="place" v="locality" />
		<tag k="ssr:stedsnr" v="855336" />
	</node>
<<<<<<< HEAD
	<node lat="60.38778888935618" lon="5.773450002295585" id="-25392">
		<tag k="name" v="Tømmerløypet" />
=======
	<node id="-630113" lat="60.3660472206" lon="5.88246389099">
		<tag k="name" v="Rauneskarnovene" />
		<tag k="natural" v="hill" />
>>>>>>> e1d4bc35ff8a6074a6f2e91616a996b547c36f15
		<tag k="place" v="locality" />
		<tag k="ssr:stedsnr" v="880145" />
	</node>
<<<<<<< HEAD
	<node lat="60.38261389008315" lon="5.77524443700671" id="-25393">
		<tag k="name" v="Kampaliane" />
		<tag k="natural" v="slope" />
=======
	<node id="-630112" lat="60.4085361136" lon="5.88349167306">
		<tag k="name" v="Huldabotnen" />
		<tag k="natural" v="valley" />
>>>>>>> e1d4bc35ff8a6074a6f2e91616a996b547c36f15
		<tag k="place" v="locality" />
		<tag k="ssr:stedsnr" v="880316" />
	</node>
<<<<<<< HEAD
	<node lat="60.39914999742794" lon="5.834891663695717" id="-25395">
		<tag k="name" v="Steingjelet" />
		<tag k="natural" v="gorge" />
		<tag k="ssr:stedsnr" v="880507" />
	</node>
	<node lat="60.406727773845475" lon="5.852050002623465" id="-25396">
		<tag k="name" v="Toskahovgjelet" />
		<tag k="natural" v="gorge" />
		<tag k="ssr:stedsnr" v="880500" />
	</node>
	<node lat="60.350788891240875" lon="5.769744436330363" id="-25401">
		<tag k="name" v="Bjørkesmettet" />
		<tag k="natural" v="hill" />
		<tag k="place" v="locality" />
		<tag k="ssr:stedsnr" v="905024" />
	</node>
	<node lat="60.34820832956196" lon="5.806741674545967" id="-25402">
		<tag k="name" v="Kalvabotnen" />
=======
	<node id="-630111" lat="60.4142222181" lon="5.84894444664">
		<tag k="fixme" v="consider natural=peak for the most distinct mountains in the district" />
		<tag k="name" v="Åsane" />
		<tag k="natural" v="hill" />
		<tag k="place" v="locality" />
		<tag k="ssr:stedsnr" v="5422" />
	</node>
	<node id="-630110" lat="60.4371805557" lon="5.91817500294">
		<tag k="name" v="Kvanndalsbotnane" />
		<tag k="natural" v="valley" />
		<tag k="place" v="locality" />
		<tag k="ssr:stedsnr" v="5412" />
	</node>
	<node id="-630105" lat="60.3448222206" lon="5.83973611668">
		<tag k="fixme" v="consider natural=peak for the most distinct mountains in the district" />
		<tag k="name" v="Jarlandsfjellet" />
		<tag k="natural" v="hill" />
		<tag k="place" v="locality" />
		<tag k="ssr:stedsnr" v="5227" />
	</node>
	<node id="-630104" lat="60.3418472246" lon="5.6168444504">
		<tag k="name" v="Hildersbotnen" />
		<tag k="natural" v="valley" />
		<tag k="place" v="locality" />
		<tag k="ssr:stedsnr" v="5219" />
	</node>
	<node id="-630103" lat="60.339591667" lon="5.6042916727">
		<tag k="name" v="Elvane" />
>>>>>>> e1d4bc35ff8a6074a6f2e91616a996b547c36f15
		<tag k="natural" v="valley" />
		<tag k="place" v="locality" />
		<tag k="ssr:stedsnr" v="905954" />
	</node>
<<<<<<< HEAD
	<node lat="60.35509166464835" lon="5.832938884419383" id="-25405">
		<tag k="name" v="Kikenosbotnen" />
=======
	<node id="-630100" lat="60.3879694412" lon="5.63466667137">
		<tag k="name" v="Nordbøbotnen" />
>>>>>>> e1d4bc35ff8a6074a6f2e91616a996b547c36f15
		<tag k="natural" v="valley" />
		<tag k="place" v="locality" />
		<tag k="ssr:stedsnr" v="915175" />
	</node>
<<<<<<< HEAD
	<node lat="60.40008055529518" lon="5.85032223035375" id="-25406">
		<tag k="name" v="Svartabergslia" />
		<tag k="natural" v="slope" />
=======
	<node id="-630099" lat="60.3940138883" lon="5.65600832682">
		<tag k="name" v="Grasdalen" />
		<tag k="natural" v="valley" />
>>>>>>> e1d4bc35ff8a6074a6f2e91616a996b547c36f15
		<tag k="place" v="locality" />
		<tag k="ssr:stedsnr" v="915470" />
	</node>
<<<<<<< HEAD
	<node lat="60.35142500132336" lon="5.622025000310422" id="-25409">
		<tag k="name" v="Lomahaugen" />
=======
	<node id="-630095" lat="60.4052611144" lon="5.76846389516">
		<tag k="name" v="Raudaberget" />
>>>>>>> e1d4bc35ff8a6074a6f2e91616a996b547c36f15
		<tag k="natural" v="hill" />
		<tag k="place" v="locality" />
		<tag k="ssr:stedsnr" v="939632" />
	</node>
<<<<<<< HEAD
	<node lat="60.359700002357336" lon="5.621769447689751" id="-25410">
		<tag k="name" v="Storebrekken" />
=======
	<node id="-630092" lat="60.4324166648" lon="5.78389445251">
		<tag k="name" v="Breilia" />
>>>>>>> e1d4bc35ff8a6074a6f2e91616a996b547c36f15
		<tag k="natural" v="slope" />
		<tag k="place" v="locality" />
		<tag k="ssr:stedsnr" v="939635" />
	</node>
<<<<<<< HEAD
	<node lat="60.29555555898833" lon="5.592833339883854" id="-25411">
		<tag k="name" v="Rotveltedalen" />
=======
	<node id="-630080" lat="60.3387361071" lon="5.70291388643">
		<tag k="name" v="Stemmedalen" />
>>>>>>> e1d4bc35ff8a6074a6f2e91616a996b547c36f15
		<tag k="natural" v="valley" />
		<tag k="place" v="locality" />
		<tag k="ssr:stedsnr" v="939640" />
	</node>
<<<<<<< HEAD
	<node lat="60.395872220379424" lon="5.701219448226155" id="-25412">
=======
	<node id="-630079" lat="60.3958722204" lon="5.70121944823">
>>>>>>> e1d4bc35ff8a6074a6f2e91616a996b547c36f15
		<tag k="name" v="Storkleiva" />
		<tag k="natural" v="slope" />
		<tag k="place" v="locality" />
		<tag k="ssr:stedsnr" v="939987" />
	</node>
<<<<<<< HEAD
	<node lat="60.36830277828268" lon="5.7831111117063" id="-25417">
		<tag k="name" v="Grøna lii" />
=======
	<node id="-630074" lat="60.3422305519" lon="5.85669166815">
		<tag k="name" v="Grashaugen" />
		<tag k="natural" v="hill" />
		<tag k="place" v="locality" />
		<tag k="ssr:stedsnr" v="915559" />
	</node>
	<node id="-630073" lat="60.4000805553" lon="5.85032223035">
		<tag k="name" v="Svartabergslia" />
>>>>>>> e1d4bc35ff8a6074a6f2e91616a996b547c36f15
		<tag k="natural" v="slope" />
		<tag k="place" v="locality" />
		<tag k="ssr:stedsnr" v="969043" />
	</node>
<<<<<<< HEAD
	<node lat="60.31581518527046" lon="5.66194856724099" id="-25418">
=======
	<node id="-630072" lat="60.4015305528" lon="5.87308055729">
>>>>>>> e1d4bc35ff8a6074a6f2e91616a996b547c36f15
		<tag k="fixme" v="consider natural=peak for the most distinct mountains in the district" />
		<tag k="name" v="Ervikåsen" />
		<tag k="natural" v="hill" />
		<tag k="place" v="locality" />
<<<<<<< HEAD
		<tag k="ssr:stedsnr" v="976352" />
	</node>
	<node lat="60.31650854146457" lon="5.665576463922908" id="-25419">
		<tag k="name" v="Hopsliskaret" />
		<tag k="natural" v="valley" />
		<tag k="place" v="locality" />
		<tag k="ssr:stedsnr" v="976353" />
	</node>
	<node lat="60.4324166647681" lon="5.783894452505448" id="-25422">
		<tag k="name" v="Breilia" />
=======
		<tag k="ssr:stedsnr" v="915464" />
	</node>
	<node id="-630071" lat="60.4517916676" lon="5.94593055221">
		<tag k="name" v="Fangaskorgjelet" />
		<tag k="place" v="locality" />
		<tag k="ssr:stedsnr" v="915357" />
	</node>
	<node id="-630068" lat="60.3482083296" lon="5.80674167455">
		<tag k="name" v="Kalvabotnen" />
		<tag k="natural" v="valley" />
		<tag k="place" v="locality" />
		<tag k="ssr:stedsnr" v="905954" />
	</node>
	<node id="-630064" lat="60.4171666671" lon="5.80240834132">
		<tag k="name" v="Kjørslehaugen" />
		<tag k="natural" v="hill" />
		<tag k="place" v="locality" />
		<tag k="ssr:stedsnr" v="880484" />
	</node>
	<node id="-630063" lat="60.3991499974" lon="5.8348916637">
		<tag k="name" v="Steingjelet" />
		<tag k="natural" v="gorge" />
		<tag k="ssr:stedsnr" v="880507" />
	</node>
	<node id="-630056" lat="60.4778055583" lon="5.9499833285">
		<tag k="fixme" v="consider natural=peak for the most distinct mountains in the district" />
		<tag k="name" v="Trollskarnuten" />
		<tag k="natural" v="hill" />
		<tag k="place" v="locality" />
		<tag k="ssr:stedsnr" v="855363" />
	</node>
	<node id="-630051" lat="60.3988388852" lon="5.62098888767">
		<tag k="fixme" v="multiple name tags, choose one and add the other to alt_name; consider natural=peak for the most distinct mountains in the district" />
		<tag k="name" v="Kråfjellet;Mannaleitnipa" />
		<tag k="natural" v="hill" />
		<tag k="place" v="locality" />
		<tag k="ssr:stedsnr" v="855105" />
	</node>
	<node id="-630048" lat="60.4371333364" lon="5.82980277728">
		<tag k="name" v="Ospelia" />
>>>>>>> e1d4bc35ff8a6074a6f2e91616a996b547c36f15
		<tag k="natural" v="slope" />
		<tag k="place" v="locality" />
		<tag k="ssr:stedsnr" v="5034" />
	</node>
<<<<<<< HEAD
	<node lat="60.39401388826259" lon="5.656008326818329" id="-25425">
		<tag k="name" v="Grasdalen" />
		<tag k="natural" v="valley" />
=======
	<node id="-630047" lat="60.4534888848" lon="5.88093055527">
		<tag k="name" v="Veståslia" />
		<tag k="natural" v="slope" />
>>>>>>> e1d4bc35ff8a6074a6f2e91616a996b547c36f15
		<tag k="place" v="locality" />
		<tag k="ssr:stedsnr" v="5134" />
	</node>
<<<<<<< HEAD
	<node lat="60.38796944120878" lon="5.634666671371953" id="-25426">
		<tag k="name" v="Nordbøbotnen" />
		<tag k="natural" v="valley" />
=======
	<node id="-630044" lat="60.3950361081" lon="5.84502222254">
		<tag k="name" v="Tømmerskarshaugen" />
		<tag k="natural" v="hill" />
>>>>>>> e1d4bc35ff8a6074a6f2e91616a996b547c36f15
		<tag k="place" v="locality" />
		<tag k="ssr:stedsnr" v="5137" />
	</node>
<<<<<<< HEAD
	<node lat="60.34482222064137" lon="5.839736116681118" id="-25427">
		<tag k="fixme" v="consider natural=peak for the most distinct mountains in the district" />
		<tag k="name" v="Jarlandsfjellet" />
		<tag k="natural" v="hill" />
		<tag k="place" v="locality" />
		<tag k="ssr:stedsnr" v="5227" />
	</node>
	<node lat="60.36604722063859" lon="5.882463890986" id="-25431">
		<tag k="name" v="Rauneskarnovene" />
=======
	<node id="-630043" lat="60.4240083337" lon="5.83848055856">
		<tag k="name" v="Vardabrotet" />
		<tag k="natural" v="hill" />
		<tag k="place" v="locality" />
		<tag k="ssr:stedsnr" v="941353" />
	</node>
	<node id="-630042" lat="60.4191472233" lon="5.84758889343">
		<tag k="name" v="Storhoggene" />
		<tag k="natural" v="slope" />
		<tag k="place" v="locality" />
		<tag k="ssr:stedsnr" v="941239" />
	</node>
	<node id="-630041" lat="60.3893055585" lon="5.77451666545">
		<tag k="name" v="Haugane" />
>>>>>>> e1d4bc35ff8a6074a6f2e91616a996b547c36f15
		<tag k="natural" v="hill" />
		<tag k="place" v="locality" />
		<tag k="ssr:stedsnr" v="5645" />
	</node>
<<<<<<< HEAD
	<node lat="60.33954722379645" lon="5.623177775243669" id="-25439">
		<tag k="name" v="Mørkedalen" />
		<tag k="natural" v="valley" />
=======
	<node id="-630040" lat="60.3802027738" lon="5.84054999365">
		<tag k="name" v="Liarosnova" />
		<tag k="natural" v="hill" />
>>>>>>> e1d4bc35ff8a6074a6f2e91616a996b547c36f15
		<tag k="place" v="locality" />
		<tag k="ssr:stedsnr" v="29907" />
	</node>
<<<<<<< HEAD
	<node lat="60.426866669410806" lon="5.726752772901042" id="-25440">
		<tag k="name" v="Tjørndalen" />
=======
	<node id="-630037" lat="60.295555559" lon="5.59283333988">
		<tag k="name" v="Rotveltedalen" />
>>>>>>> e1d4bc35ff8a6074a6f2e91616a996b547c36f15
		<tag k="natural" v="valley" />
		<tag k="place" v="locality" />
		<tag k="ssr:stedsnr" v="30305" />
	</node>
<<<<<<< HEAD
	<node lat="60.410675003871795" lon="5.84183610402707" id="-25443">
		<tag k="name" v="Sørlia" />
		<tag k="natural" v="slope" />
		<tag k="place" v="locality" />
		<tag k="ssr:stedsnr" v="30496" />
	</node>
	<node lat="60.46307777548635" lon="5.8894583396803135" id="-25444">
		<tag k="name" v="Høghaugen" />
=======
	<node id="-630036" lat="60.3597000024" lon="5.62176944769">
		<tag k="name" v="Storebrekken" />
		<tag k="natural" v="slope" />
		<tag k="place" v="locality" />
		<tag k="ssr:stedsnr" v="939635" />
	</node>
	<node id="-630035" lat="60.3514250013" lon="5.62202500031">
		<tag k="name" v="Lomahaugen" />
		<tag k="natural" v="hill" />
		<tag k="place" v="locality" />
		<tag k="ssr:stedsnr" v="939632" />
	</node>
	<node id="-630027" lat="60.4036222263" lon="5.90987778091">
		<tag k="name" v="Kråkedalane" />
		<tag k="natural" v="valley" />
		<tag k="place" v="locality" />
		<tag k="ssr:stedsnr" v="819458" />
	</node>
	<node id="-630024" lat="60.3956861112" lon="5.77304722968">
		<tag k="name" v="Himmelhaugen" />
>>>>>>> e1d4bc35ff8a6074a6f2e91616a996b547c36f15
		<tag k="natural" v="hill" />
		<tag k="place" v="locality" />
		<tag k="ssr:stedsnr" v="31077" />
	</node>
<<<<<<< HEAD
	<node lat="60.440313892467636" lon="5.826586106812224" id="-25445">
		<tag k="name" v="Fossane" />
		<tag k="natural" v="ridge" />
=======
	<node id="-630023" lat="60.3999277794" lon="5.76312500682">
		<tag k="name" v="Kjerikakulten" />
		<tag k="natural" v="hill" />
>>>>>>> e1d4bc35ff8a6074a6f2e91616a996b547c36f15
		<tag k="place" v="locality" />
		<tag k="ssr:stedsnr" v="31528" />
	</node>
<<<<<<< HEAD
	<node lat="60.344541663898966" lon="5.7168055522221195" id="-25453">
		<tag k="name" v="Utløhaugane" />
		<tag k="natural" v="hill" />
		<tag k="place" v="locality" />
		<tag k="ssr:stedsnr" v="55037" />
	</node>
	<node lat="60.331616669773126" lon="5.693122230888603" id="-25454">
		<tag k="name" v="Høgehaugen" />
=======
	<node id="-630022" lat="60.3975000025" lon="5.77353888533">
		<tag k="name" v="Bolstadhaugen" />
		<tag k="natural" v="hill" />
		<tag k="place" v="locality" />
		<tag k="ssr:stedsnr" v="818260" />
	</node>
	<node id="-630019" lat="60.4588750043" lon="5.91179444891">
		<tag k="name" v="Fossagjelet" />
		<tag k="natural" v="gorge" />
		<tag k="ssr:stedsnr" v="794374" />
	</node>
	<node id="-630017" lat="60.4190055556" lon="5.90211388347">
		<tag k="fixme" v="consider natural=peak for the most distinct mountains in the district" />
		<tag k="name" v="Grøet" />
>>>>>>> e1d4bc35ff8a6074a6f2e91616a996b547c36f15
		<tag k="natural" v="hill" />
		<tag k="place" v="locality" />
		<tag k="ssr:stedsnr" v="55125" />
	</node>
<<<<<<< HEAD
	<node lat="60.34759999964838" lon="5.6928666702700905" id="-25455">
		<tag k="name" v="Rinden" />
=======
	<node id="-630016" lat="60.4379861153" lon="5.8588555552">
		<tag k="name" v="Klentangliane" />
		<tag k="natural" v="slope" />
>>>>>>> e1d4bc35ff8a6074a6f2e91616a996b547c36f15
		<tag k="place" v="locality" />
		<tag k="ssr:stedsnr" v="55094" />
	</node>
<<<<<<< HEAD
	<node lat="60.33096388990461" lon="5.659044438094601" id="-25456">
		<tag k="name" v="Jonadalen" />
		<tag k="natural" v="valley" />
		<tag k="place" v="locality" />
		<tag k="ssr:stedsnr" v="55100" />
	</node>
	<node lat="60.36701666356809" lon="5.774680557412812" id="-25457">
		<tag k="name" v="Slåtten" />
=======
	<node id="-630010" lat="60.4030194418" lon="5.84199722571">
		<tag k="name" v="Børdalen" />
		<tag k="natural" v="valley" />
		<tag k="place" v="locality" />
		<tag k="ssr:stedsnr" v="794115" />
	</node>
	<node id="-630009" lat="60.4231333305" lon="5.83011943843">
		<tag k="name" v="Høysetelia" />
		<tag k="natural" v="slope" />
		<tag k="place" v="locality" />
		<tag k="ssr:stedsnr" v="794071" />
	</node>
	<node id="-630008" lat="60.4270138861" lon="5.7430916662">
		<tag k="fixme" v="consider natural=peak for the most distinct mountains in the district" />
		<tag k="name" v="Høgåsen" />
>>>>>>> e1d4bc35ff8a6074a6f2e91616a996b547c36f15
		<tag k="natural" v="hill" />
		<tag k="place" v="locality" />
		<tag k="ssr:stedsnr" v="59030" />
	</node>
<<<<<<< HEAD
	<node lat="60.386363888199774" lon="5.775213886213387" id="-25464">
		<tag k="name" v="Raudskolten" />
=======
	<node id="-630007" lat="60.4228527738" lon="5.76473333339">
		<tag k="fixme" v="consider natural=peak for the most distinct mountains in the district" />
		<tag k="name" v="Gjerdssåta" />
>>>>>>> e1d4bc35ff8a6074a6f2e91616a996b547c36f15
		<tag k="natural" v="hill" />
		<tag k="place" v="locality" />
		<tag k="ssr:stedsnr" v="66133" />
	</node>
<<<<<<< HEAD
	<node lat="60.40764166258067" lon="5.7827416626467985" id="-25471">
		<tag k="name" v="Gjelet" />
		<tag k="natural" v="gorge" />
		<tag k="ssr:stedsnr" v="90160" />
	</node>
	<node lat="60.38362500388789" lon="5.617736107026915" id="-25474">
		<tag k="name" v="Namnlausehaugen" />
		<tag k="natural" v="hill" />
=======
	<node id="-630001" lat="60.4156361107" lon="5.84040555522">
		<tag k="name" v="Florhaugen" />
		<tag k="natural" v="hill" />
		<tag k="place" v="locality" />
		<tag k="ssr:stedsnr" v="916095" />
	</node>
	<node id="-629998" lat="60.4600611151" lon="5.9308722154">
		<tag k="name" v="Sotabotnen" />
		<tag k="natural" v="valley" />
>>>>>>> e1d4bc35ff8a6074a6f2e91616a996b547c36f15
		<tag k="place" v="locality" />
		<tag k="ssr:stedsnr" v="90997" />
	</node>
<<<<<<< HEAD
	<node lat="60.376033329275685" lon="5.792794450067419" id="-25477">
		<tag k="fixme" v="consider natural=peak for the most distinct mountains in the district" />
		<tag k="name" v="Såta" />
		<tag k="natural" v="hill" />
=======
	<node id="-629997" lat="60.3550916646" lon="5.83293888442">
		<tag k="name" v="Kikenosbotnen" />
		<tag k="natural" v="valley" />
>>>>>>> e1d4bc35ff8a6074a6f2e91616a996b547c36f15
		<tag k="place" v="locality" />
		<tag k="ssr:stedsnr" v="91278" />
	</node>
<<<<<<< HEAD
	<node lat="60.37772222432071" lon="5.644225003912942" id="-25479">
		<tag k="name" v="Rindastølshaugen" />
		<tag k="natural" v="hill" />
=======
	<node id="-629994" lat="60.4163111074" lon="5.83003888368">
		<tag k="name" v="Smogaholene" />
		<tag k="natural" v="valley" />
>>>>>>> e1d4bc35ff8a6074a6f2e91616a996b547c36f15
		<tag k="place" v="locality" />
		<tag k="ssr:stedsnr" v="90959" />
	</node>
<<<<<<< HEAD
	<node lat="60.37769722092097" lon="5.813844441273098" id="-25480">
		<tag k="name" v="Apalluren" />
		<tag k="natural" v="hill" />
=======
	<node id="-629993" lat="60.3968583317" lon="5.68044167569">
		<tag k="name" v="Hisdalen" />
		<tag k="natural" v="valley" />
>>>>>>> e1d4bc35ff8a6074a6f2e91616a996b547c36f15
		<tag k="place" v="locality" />
		<tag k="ssr:stedsnr" v="91387" />
	</node>
<<<<<<< HEAD
	<node lat="60.42278332988851" lon="5.835711108511816" id="-25481">
		<tag k="name" v="Kjerringadalen" />
		<tag k="natural" v="valley" />
=======
	<node id="-629989" lat="60.352999998" lon="5.74889999916">
		<tag k="name" v="Dyrhaugane" />
		<tag k="natural" v="hill" />
>>>>>>> e1d4bc35ff8a6074a6f2e91616a996b547c36f15
		<tag k="place" v="locality" />
		<tag k="ssr:stedsnr" v="91400" />
	</node>
<<<<<<< HEAD
	<node lat="60.452288886383904" lon="5.865244451272607" id="-25482">
		<tag k="name" v="Hilderen" />
=======
	<node id="-629988" lat="60.3525611114" lon="5.72463333983">
		<tag k="name" v="Tøleitet" />
>>>>>>> e1d4bc35ff8a6074a6f2e91616a996b547c36f15
		<tag k="place" v="locality" />
		<tag k="ssr:stedsnr" v="92560" />
	</node>
<<<<<<< HEAD
	<node lat="60.35900833791902" lon="5.885041674533998" id="-25483">
		<tag k="name" v="Helvetesbotnen" />
=======
	<node id="-629987" lat="60.3374222188" lon="5.72712500181">
		<tag k="name" v="Austerdalane" />
>>>>>>> e1d4bc35ff8a6074a6f2e91616a996b547c36f15
		<tag k="natural" v="valley" />
		<tag k="place" v="locality" />
		<tag k="ssr:stedsnr" v="101964" />
	</node>
<<<<<<< HEAD
	<node lat="60.431344448314285" lon="5.941599990588081" id="-25484">
		<tag k="name" v="Hardingaskaret" />
=======
	<node id="-629986" lat="60.3507888912" lon="5.76974443633">
		<tag k="name" v="Bjørkesmettet" />
>>>>>>> e1d4bc35ff8a6074a6f2e91616a996b547c36f15
		<tag k="natural" v="hill" />
		<tag k="place" v="locality" />
		<tag k="ssr:stedsnr" v="105826" />
	</node>
<<<<<<< HEAD
	<node lat="60.32352778022545" lon="5.770774994416452" id="-25487">
		<tag k="name" v="Skodvasshaugen" />
=======
	<node id="-629983" lat="60.3649472256" lon="5.72082777809">
		<tag k="name" v="Raudskoltane" />
>>>>>>> e1d4bc35ff8a6074a6f2e91616a996b547c36f15
		<tag k="natural" v="hill" />
		<tag k="place" v="locality" />
		<tag k="ssr:stedsnr" v="116080" />
	</node>
<<<<<<< HEAD
	<node lat="60.32788055304948" lon="5.719244441422927" id="-25488">
		<tag k="name" v="Seterdalen" />
=======
	<node id="-629982" lat="60.3655472179" lon="5.71611110717">
		<tag k="name" v="Trollabotn" />
>>>>>>> e1d4bc35ff8a6074a6f2e91616a996b547c36f15
		<tag k="natural" v="valley" />
		<tag k="place" v="locality" />
		<tag k="ssr:stedsnr" v="116042" />
	</node>
<<<<<<< HEAD
	<node lat="60.47612500344786" lon="5.9279027722251785" id="-25492">
		<tag k="name" v="Dukabotnen" />
=======
	<node id="-629981" lat="60.3690611125" lon="5.79775277984">
		<tag k="name" v="Norddalane" />
>>>>>>> e1d4bc35ff8a6074a6f2e91616a996b547c36f15
		<tag k="natural" v="valley" />
		<tag k="place" v="locality" />
		<tag k="ssr:stedsnr" v="126370" />
	</node>
<<<<<<< HEAD
	<node lat="60.402761110072035" lon="5.887113892963149" id="-25495">
		<tag k="fixme" v="consider natural=peak for the most distinct mountains in the district" />
		<tag k="name" v="Huldabottsfjellet" />
		<tag k="natural" v="hill" />
		<tag k="place" v="locality" />
		<tag k="ssr:stedsnr" v="126484" />
	</node>
	<node lat="60.45869166924837" lon="5.796936103639168" id="-25496">
		<tag k="fixme" v="consider natural=peak for the most distinct mountains in the district" />
		<tag k="name" v="Stabben" />
		<tag k="natural" v="hill" />
		<tag k="place" v="locality" />
		<tag k="ssr:stedsnr" v="126021" />
	</node>
	<node lat="60.393536106815645" lon="5.790672223542528" id="-25499">
=======
	<node id="-629980" lat="60.3545416662" lon="5.81754999859">
		<tag k="name" v="Leitet" />
		<tag k="natural" v="hill" />
		<tag k="place" v="locality" />
		<tag k="ssr:stedsnr" v="726043" />
	</node>
	<node id="-629979" lat="60.367547224" lon="5.82442499224">
		<tag k="name" v="Haraskori" />
		<tag k="place" v="locality" />
		<tag k="ssr:stedsnr" v="890978" />
	</node>
	<node id="-629976" lat="60.4407972193" lon="5.86653889078">
		<tag k="name" v="Stigane" />
		<tag k="natural" v="hill" />
		<tag k="place" v="locality" />
		<tag k="ssr:stedsnr" v="698954" />
	</node>
	<node id="-629969" lat="60.4067416689" lon="5.72260277254">
		<tag k="name" v="Ormarinden" />
		<tag k="natural" v="ridge" />
		<tag k="place" v="locality" />
		<tag k="ssr:stedsnr" v="696960" />
	</node>
	<node id="-629964" lat="60.4113861099" lon="5.78354445092">
>>>>>>> e1d4bc35ff8a6074a6f2e91616a996b547c36f15
		<tag k="fixme" v="consider natural=peak for the most distinct mountains in the district" />
		<tag k="name" v="Solåsen" />
		<tag k="natural" v="hill" />
		<tag k="place" v="locality" />
<<<<<<< HEAD
		<tag k="ssr:stedsnr" v="127134" />
	</node>
	<node lat="60.51057222394699" lon="5.995708328765028" id="-25501">
		<tag k="name" v="Storlii" />
=======
		<tag k="ssr:stedsnr" v="696206" />
	</node>
	<node id="-629961" lat="60.4067277738" lon="5.85205000262">
		<tag k="name" v="Toskahovgjelet" />
		<tag k="natural" v="gorge" />
		<tag k="ssr:stedsnr" v="880500" />
	</node>
	<node id="-629960" lat="60.3826138901" lon="5.77524443701">
		<tag k="name" v="Kampaliane" />
>>>>>>> e1d4bc35ff8a6074a6f2e91616a996b547c36f15
		<tag k="natural" v="slope" />
		<tag k="place" v="locality" />
		<tag k="ssr:stedsnr" v="127368" />
	</node>
<<<<<<< HEAD
	<node lat="60.39730277633573" lon="5.872161105589532" id="-25505">
		<tag k="name" v="Eriksmuren" />
		<tag k="natural" v="hill" />
=======
	<node id="-629959" lat="60.416836107" lon="5.82279444855">
		<tag k="name" v="Dalahaugen" />
		<tag k="natural" v="ridge" />
>>>>>>> e1d4bc35ff8a6074a6f2e91616a996b547c36f15
		<tag k="place" v="locality" />
		<tag k="ssr:stedsnr" v="151447" />
	</node>
<<<<<<< HEAD
	<node lat="60.3496027785694" lon="5.696741667196943" id="-25506">
		<tag k="name" v="Lyninghaugane" />
		<tag k="natural" v="hill" />
=======
	<node id="-629958" lat="60.380036107" lon="5.7747249922">
		<tag k="fixme" v="consider natural=peak for the most distinct mountains in the district" />
		<tag k="name" v="Kampen" />
		<tag k="natural" v="hill" />
		<tag k="ssr:stedsnr" v="880247" />
	</node>
	<node id="-629957" lat="60.3877888894" lon="5.7734500023">
		<tag k="name" v="Tømmerløypet" />
>>>>>>> e1d4bc35ff8a6074a6f2e91616a996b547c36f15
		<tag k="place" v="locality" />
		<tag k="ssr:stedsnr" v="150896" />
	</node>
<<<<<<< HEAD
	<node lat="60.381052773710586" lon="5.771161105714885" id="-25510">
		<tag k="name" v="Gryvlet" />
		<tag k="natural" v="gorge" />
		<tag k="ssr:stedsnr" v="151340" />
	</node>
	<node lat="60.427883333685905" lon="5.8316277767266005" id="-25511">
		<tag k="name" v="Brennehaugen" />
=======
	<node id="-629953" lat="60.3138694444" lon="5.60166111623">
		<tag k="name" v="Høgehaugen" />
>>>>>>> e1d4bc35ff8a6074a6f2e91616a996b547c36f15
		<tag k="natural" v="hill" />
		<tag k="place" v="locality" />
		<tag k="ssr:stedsnr" v="152433" />
	</node>
<<<<<<< HEAD
	<node lat="60.44598055365595" lon="5.856155548458669" id="-25512">
		<tag k="name" v="Åridalen" />
=======
	<node id="-629949" lat="60.4102888911" lon="5.78671111822">
		<tag k="name" v="Gaupeskaret" />
>>>>>>> e1d4bc35ff8a6074a6f2e91616a996b547c36f15
		<tag k="natural" v="valley" />
		<tag k="place" v="locality" />
		<tag k="ssr:stedsnr" v="152545" />
	</node>
<<<<<<< HEAD
	<node lat="60.404855552275265" lon="5.729188891626967" id="-25514">
		<tag k="name" v="Storhaugen" />
=======
	<node id="-629947" lat="60.3587444454" lon="5.73840832506">
		<tag k="name" v="Florhaugen" />
>>>>>>> e1d4bc35ff8a6074a6f2e91616a996b547c36f15
		<tag k="natural" v="hill" />
		<tag k="place" v="locality" />
		<tag k="ssr:stedsnr" v="272965" />
	</node>
<<<<<<< HEAD
	<node lat="60.34209721947001" lon="5.7195861071570455" id="-25519">
		<tag k="name" v="Geitalia" />
		<tag k="natural" v="slope" />
=======
	<node id="-629945" lat="60.345805558" lon="5.85235555266">
		<tag k="name" v="Ramnagjelet" />
		<tag k="natural" v="valley" />
>>>>>>> e1d4bc35ff8a6074a6f2e91616a996b547c36f15
		<tag k="place" v="locality" />
		<tag k="ssr:stedsnr" v="176031" />
	</node>
<<<<<<< HEAD
	<node lat="60.33254722074108" lon="5.668380557590208" id="-25521">
		<tag k="name" v="Lyningshaugen" />
		<tag k="natural" v="hill" />
		<tag k="place" v="locality" />
		<tag k="ssr:stedsnr" v="176119" />
	</node>
	<node lat="60.34462222444956" lon="5.701780548568496" id="-25522">
		<tag k="name" v="Høgaløypet" />
=======
	<node id="-629944" lat="60.4989416677" lon="5.91456943976">
		<tag k="name" v="Heimsta Hestagjelet" />
>>>>>>> e1d4bc35ff8a6074a6f2e91616a996b547c36f15
		<tag k="natural" v="valley" />
		<tag k="place" v="locality" />
		<tag k="ssr:stedsnr" v="176099" />
	</node>
<<<<<<< HEAD
	<node lat="60.3365666695943" lon="5.682563893557956" id="-25523">
		<tag k="name" v="Tjørndalen" />
=======
	<node id="-629943" lat="60.4859750007" lon="5.89214721364">
		<tag k="name" v="Glupagjelet" />
>>>>>>> e1d4bc35ff8a6074a6f2e91616a996b547c36f15
		<tag k="natural" v="valley" />
		<tag k="place" v="locality" />
		<tag k="ssr:stedsnr" v="176138" />
	</node>
<<<<<<< HEAD
	<node lat="60.353669440325866" lon="5.74314445172251" id="-25524">
		<tag k="name" v="Dyråsgjelet" />
=======
	<node id="-629940" lat="60.3995916703" lon="5.80075000514">
		<tag k="name" v="Bjørndalen" />
>>>>>>> e1d4bc35ff8a6074a6f2e91616a996b547c36f15
		<tag k="natural" v="valley" />
		<tag k="place" v="locality" />
		<tag k="ssr:stedsnr" v="180022" />
	</node>
<<<<<<< HEAD
	<node lat="60.36859166483736" lon="5.80203054776007" id="-25525">
		<tag k="name" v="Storemyrhaugen" />
=======
	<node id="-629938" lat="60.3796555546" lon="5.90026943609">
		<tag k="name" v="Rabalhei" />
>>>>>>> e1d4bc35ff8a6074a6f2e91616a996b547c36f15
		<tag k="natural" v="hill" />
		<tag k="place" v="locality" />
		<tag k="ssr:stedsnr" v="180033" />
	</node>
<<<<<<< HEAD
	<node lat="60.36203333143463" lon="5.745605550008927" id="-25526">
		<tag k="name" v="Løypehaugen" />
=======
	<node id="-629937" lat="60.3625583349" lon="5.85792778365">
		<tag k="fixme" v="consider natural=peak for the most distinct mountains in the district" />
		<tag k="name" v="Grøet" />
>>>>>>> e1d4bc35ff8a6074a6f2e91616a996b547c36f15
		<tag k="natural" v="hill" />
		<tag k="place" v="locality" />
		<tag k="ssr:stedsnr" v="180049" />
	</node>
<<<<<<< HEAD
	<node lat="60.34094444465267" lon="5.895266659766261" id="-25527">
		<tag k="fixme" v="consider natural=peak for the most distinct mountains in the district" />
		<tag k="name" v="Frølandsfjellet" />
		<tag k="natural" v="hill" />
=======
	<node id="-629936" lat="60.4243416677" lon="5.88916388013">
		<tag k="name" v="Middagsskaret" />
		<tag k="natural" v="valley" />
>>>>>>> e1d4bc35ff8a6074a6f2e91616a996b547c36f15
		<tag k="place" v="locality" />
		<tag k="ssr:stedsnr" v="180751" />
	</node>
<<<<<<< HEAD
	<node lat="60.38523889292388" lon="5.79065833235191" id="-25529">
		<tag k="name" v="Snauhaugen" />
=======
	<node id="-629930" lat="60.4667583374" lon="5.89718333136">
		<tag k="fixme" v="consider natural=peak for the most distinct mountains in the district" />
		<tag k="name" v="Bergsnipa" />
>>>>>>> e1d4bc35ff8a6074a6f2e91616a996b547c36f15
		<tag k="natural" v="hill" />
		<tag k="place" v="locality" />
		<tag k="ssr:stedsnr" v="187147" />
	</node>
<<<<<<< HEAD
	<node lat="60.3648333290146" lon="5.668524995625647" id="-25530">
=======
	<node id="-629927" lat="60.4048888897" lon="5.67033333818">
>>>>>>> e1d4bc35ff8a6074a6f2e91616a996b547c36f15
		<tag k="fixme" v="consider natural=peak for the most distinct mountains in the district" />
		<tag k="name" v="Liahædda" />
		<tag k="natural" v="hill" />
		<tag k="place" v="locality" />
		<tag k="ssr:stedsnr" v="187171" />
	</node>
<<<<<<< HEAD
	<node lat="60.43663611223488" lon="5.695797224166734" id="-25532">
		<tag k="fixme" v="multiple name tags, choose one and add the other to alt_name; consider natural=peak for the most distinct mountains in the district" />
		<tag k="name" v="Raudnipa;Trollabotsvarden" />
=======
	<node id="-629926" lat="60.4302861137" lon="5.79582499559">
		<tag k="name" v="Snilshaugen" />
>>>>>>> e1d4bc35ff8a6074a6f2e91616a996b547c36f15
		<tag k="natural" v="hill" />
		<tag k="place" v="locality" />
		<tag k="ssr:stedsnr" v="187042" />
	</node>
<<<<<<< HEAD
	<node lat="60.33902777861127" lon="5.801566673263236" id="-25535">
		<tag k="alt_name" v="Tindafjell" />
=======
	<node id="-629924" lat="60.4642583315" lon="5.84632500096">
>>>>>>> e1d4bc35ff8a6074a6f2e91616a996b547c36f15
		<tag k="fixme" v="consider natural=peak for the most distinct mountains in the district" />
		<tag k="name" v="Tindafjellet" />
		<tag k="natural" v="hill" />
		<tag k="place" v="locality" />
		<tag k="ssr:stedsnr" v="187219" />
	</node>
<<<<<<< HEAD
	<node lat="60.470452781377034" lon="5.9102000071615945" id="-25537">
		<tag k="name" v="Lavranshola" />
		<tag k="natural" v="valley" />
=======
	<node id="-629922" lat="60.4223305519" lon="5.71766943785">
		<tag k="name" v="Setralia" />
		<tag k="natural" v="hill" />
>>>>>>> e1d4bc35ff8a6074a6f2e91616a996b547c36f15
		<tag k="place" v="locality" />
		<tag k="ssr:stedsnr" v="187337" />
	</node>
<<<<<<< HEAD
	<node lat="60.478302779786915" lon="5.91456389596823" id="-25538">
		<tag k="name" v="Holene" />
		<tag k="natural" v="valley" />
=======
	<node id="-629920" lat="60.4016999964" lon="5.85361389498">
		<tag k="name" v="Rinden" />
		<tag k="natural" v="hill" />
>>>>>>> e1d4bc35ff8a6074a6f2e91616a996b547c36f15
		<tag k="place" v="locality" />
		<tag k="ssr:stedsnr" v="187339" />
	</node>
<<<<<<< HEAD
	<node lat="60.33843611204164" lon="5.903788897013957" id="-25541">
		<tag k="name" v="Danielsslåtten" />
=======
	<node id="-629919" lat="60.3860833331" lon="5.77826110263">
		<tag k="name" v="Hagabotnane" />
		<tag k="natural" v="valley" />
>>>>>>> e1d4bc35ff8a6074a6f2e91616a996b547c36f15
		<tag k="place" v="locality" />
		<tag k="ssr:stedsnr" v="187548" />
	</node>
<<<<<<< HEAD
	<node lat="60.3704611146998" lon="5.914994447700761" id="-25542">
		<tag k="fixme" v="consider natural=peak for the most distinct mountains in the district" />
		<tag k="name" v="Kvamsbottshorga" />
=======
	<node id="-629917" lat="60.3328694455" lon="5.6180694434">
		<tag k="name" v="Raudsteinshaugen" />
>>>>>>> e1d4bc35ff8a6074a6f2e91616a996b547c36f15
		<tag k="natural" v="hill" />
		<tag k="place" v="locality" />
		<tag k="ssr:stedsnr" v="187622" />
	</node>
<<<<<<< HEAD
	<node lat="60.370741667302" lon="5.851991661485551" id="-25544">
		<tag k="fixme" v="consider natural=peak for the most distinct mountains in the district" />
		<tag k="name" v="Vardanova" />
		<tag k="natural" v="hill" />
=======
	<node id="-629916" lat="60.405080552" lon="5.64813611845">
		<tag k="name" v="Halsen" />
		<tag k="natural" v="valley" />
>>>>>>> e1d4bc35ff8a6074a6f2e91616a996b547c36f15
		<tag k="place" v="locality" />
		<tag k="ssr:stedsnr" v="187631" />
	</node>
<<<<<<< HEAD
	<node lat="60.39120277804729" lon="5.784130560423147" id="-25545">
		<tag k="name" v="Tysselandsdalen" />
		<tag k="natural" v="valley" />
=======
	<node id="-629915" lat="60.3473611111" lon="5.79500000005">
		<tag k="name" v="Trælaflatane" />
>>>>>>> e1d4bc35ff8a6074a6f2e91616a996b547c36f15
		<tag k="place" v="locality" />
		<tag k="ssr:stedsnr" v="188158" />
	</node>
<<<<<<< HEAD
	<node lat="60.48395555683423" lon="5.984419435627607" id="-25547">
		<tag k="fixme" v="consider natural=peak for the most distinct mountains in the district" />
		<tag k="name" v="Bjørnaknausen" />
=======
	<node id="-629914" lat="60.338966669" lon="5.79044167286">
		<tag k="name" v="Haugssteinen" />
>>>>>>> e1d4bc35ff8a6074a6f2e91616a996b547c36f15
		<tag k="natural" v="hill" />
		<tag k="place" v="locality" />
		<tag k="ssr:stedsnr" v="188358" />
	</node>
<<<<<<< HEAD
	<node lat="60.352138890548204" lon="5.863519450183931" id="-25548">
		<tag k="name" v="Holmavasskultane" />
		<tag k="natural" v="hill" />
=======
	<node id="-629913" lat="60.3570027739" lon="5.82088055179">
		<tag k="name" v="Ospebotnen" />
		<tag k="natural" v="valley" />
>>>>>>> e1d4bc35ff8a6074a6f2e91616a996b547c36f15
		<tag k="place" v="locality" />
		<tag k="ssr:stedsnr" v="188667" />
	</node>
<<<<<<< HEAD
	<node lat="60.354788891319494" lon="5.629116671646237" id="-25550">
		<tag k="name" v="Hestastigane" />
=======
	<node id="-629912" lat="60.3283027786" lon="5.67013610643">
		<tag k="name" v="Olderbakkane" />
>>>>>>> e1d4bc35ff8a6074a6f2e91616a996b547c36f15
		<tag k="natural" v="slope" />
		<tag k="place" v="locality" />
		<tag k="ssr:stedsnr" v="210658" />
	</node>
<<<<<<< HEAD
	<node lat="60.387197224685245" lon="5.7743000037769" id="-25551">
		<tag k="name" v="Neverhaugen" />
=======
	<node id="-629910" lat="60.3345444414" lon="5.87494166915">
		<tag k="name" v="Raudehaugen" />
>>>>>>> e1d4bc35ff8a6074a6f2e91616a996b547c36f15
		<tag k="natural" v="hill" />
		<tag k="place" v="locality" />
		<tag k="ssr:stedsnr" v="212141" />
	</node>
<<<<<<< HEAD
	<node lat="60.462969447792254" lon="5.881788883924481" id="-25552">
		<tag k="name" v="Leinane" />
=======
	<node id="-629909" lat="60.450555555" lon="5.87823611252">
		<tag k="name" v="Vetleåsen" />
>>>>>>> e1d4bc35ff8a6074a6f2e91616a996b547c36f15
		<tag k="natural" v="hill" />
		<tag k="place" v="locality" />
		<tag k="ssr:stedsnr" v="213098" />
	</node>
<<<<<<< HEAD
	<node lat="60.393122224462395" lon="5.849441673775969" id="-25554">
		<tag k="name" v="Kinnapresten" />
=======
	<node id="-629908" lat="60.476550003" lon="5.89798889274">
		<tag k="fixme" v="consider natural=peak for the most distinct mountains in the district" />
		<tag k="name" v="Fonnanipa" />
		<tag k="natural" v="hill" />
>>>>>>> e1d4bc35ff8a6074a6f2e91616a996b547c36f15
		<tag k="place" v="locality" />
		<tag k="ssr:stedsnr" v="212424" />
	</node>
<<<<<<< HEAD
	<node lat="60.396552778460325" lon="5.843469447050472" id="-25555">
		<tag k="name" v="Geitaryggen" />
		<tag k="natural" v="ridge" />
=======
	<node id="-629906" lat="60.36233056" lon="5.80143611812">
		<tag k="name" v="Kollhaugen" />
		<tag k="natural" v="hill" />
>>>>>>> e1d4bc35ff8a6074a6f2e91616a996b547c36f15
		<tag k="place" v="locality" />
		<tag k="ssr:stedsnr" v="212419" />
	</node>
<<<<<<< HEAD
	<node lat="60.45185555783035" lon="5.887825002280042" id="-25556">
		<tag k="name" v="Osdalen" />
=======
	<node id="-629903" lat="60.3703999978" lon="5.90571110886">
		<tag k="name" v="Bjørnagjelet" />
>>>>>>> e1d4bc35ff8a6074a6f2e91616a996b547c36f15
		<tag k="natural" v="valley" />
		<tag k="place" v="locality" />
		<tag k="ssr:stedsnr" v="213945" />
	</node>
<<<<<<< HEAD
	<node lat="60.42665833202336" lon="5.84295833548171" id="-25557">
		<tag k="name" v="Skavhilderane" />
=======
	<node id="-629902" lat="60.365322225" lon="5.82529444931">
		<tag k="name" v="Bølingahaugen" />
		<tag k="natural" v="hill" />
>>>>>>> e1d4bc35ff8a6074a6f2e91616a996b547c36f15
		<tag k="place" v="locality" />
		<tag k="ssr:stedsnr" v="213342" />
	</node>
<<<<<<< HEAD
	<node lat="60.42506944872133" lon="5.845899992242208" id="-25558">
		<tag k="name" v="Sauadalen" />
=======
	<node id="-629901" lat="60.3991833364" lon="5.84430556205">
		<tag k="name" v="Kråna" />
>>>>>>> e1d4bc35ff8a6074a6f2e91616a996b547c36f15
		<tag k="natural" v="valley" />
		<tag k="place" v="locality" />
		<tag k="ssr:stedsnr" v="213344" />
	</node>
<<<<<<< HEAD
	<node lat="60.36290833151003" lon="5.842002784216858" id="-25560">
		<tag k="name" v="Krærna" />
		<tag k="natural" v="valley" />
		<tag k="place" v="locality" />
		<tag k="ssr:stedsnr" v="222949" />
	</node>
	<node lat="60.35651666810709" lon="5.884972219588471" id="-25561">
		<tag k="name" v="Alsheller" />
		<tag k="place" v="locality" />
		<tag k="ssr:stedsnr" v="222953" />
	</node>
	<node lat="60.44965000318652" lon="5.844886118555904" id="-25564">
		<tag k="name" v="Småtjørnahjellane" />
=======
	<node id="-629900" lat="60.4234722192" lon="5.79900000157">
		<tag k="fixme" v="consider natural=peak for the most distinct mountains in the district" />
		<tag k="name" v="Bjørnåsen" />
>>>>>>> e1d4bc35ff8a6074a6f2e91616a996b547c36f15
		<tag k="natural" v="hill" />
		<tag k="place" v="locality" />
		<tag k="ssr:stedsnr" v="274529" />
	</node>
<<<<<<< HEAD
	<node lat="60.34855833327263" lon="5.66257500839672" id="-25569">
		<tag k="name" v="Skipet" />
		<tag k="natural" v="hill" />
=======
	<node id="-629899" lat="60.4188555552" lon="5.87452500137">
		<tag k="name" v="Fureskolten" />
		<tag k="natural" v="ridge" />
>>>>>>> e1d4bc35ff8a6074a6f2e91616a996b547c36f15
		<tag k="place" v="locality" />
		<tag k="ssr:stedsnr" v="298097" />
	</node>
<<<<<<< HEAD
	<node lat="60.34209166925659" lon="5.774486110425269" id="-25570">
		<tag k="name" v="Grønabrekka" />
=======
	<node id="-629898" lat="60.3531333296" lon="5.69211943799">
		<tag k="name" v="Storlia" />
>>>>>>> e1d4bc35ff8a6074a6f2e91616a996b547c36f15
		<tag k="natural" v="slope" />
		<tag k="place" v="locality" />
		<tag k="ssr:stedsnr" v="298066" />
	</node>
<<<<<<< HEAD
	<node lat="60.35386388738262" lon="5.758013880149343" id="-25572">
		<tag k="name" v="Nedre Skaråsdalen" />
=======
	<node id="-629896" lat="60.4526305553" lon="5.85035555901">
		<tag k="name" v="Skoradalen" />
>>>>>>> e1d4bc35ff8a6074a6f2e91616a996b547c36f15
		<tag k="natural" v="valley" />
		<tag k="place" v="locality" />
		<tag k="ssr:stedsnr" v="301049" />
	</node>
<<<<<<< HEAD
	<node lat="60.40638610832531" lon="5.800441668096492" id="-25574">
		<tag k="name" v="Totlandskampen" />
=======
	<node id="-629895" lat="60.3883638848" lon="5.90891389328">
		<tag k="name" v="Haugen" />
>>>>>>> e1d4bc35ff8a6074a6f2e91616a996b547c36f15
		<tag k="natural" v="hill" />
		<tag k="place" v="locality" />
		<tag k="ssr:stedsnr" v="308077" />
	</node>
<<<<<<< HEAD
	<node lat="60.42699444677007" lon="5.9090305504623055" id="-25575">
=======
	<node id="-629894" lat="60.4174388897" lon="5.72539722081">
>>>>>>> e1d4bc35ff8a6074a6f2e91616a996b547c36f15
		<tag k="fixme" v="consider natural=peak for the most distinct mountains in the district" />
		<tag k="name" v="Bukkanakken" />
		<tag k="natural" v="hill" />
		<tag k="place" v="locality" />
		<tag k="ssr:stedsnr" v="308373" />
	</node>
<<<<<<< HEAD
	<node lat="60.43084792621008" lon="5.898705350884568" id="-25576">
		<tag k="name" v="Tungegjelet" />
		<tag k="natural" v="gorge" />
		<tag k="ssr:stedsnr" v="308375" />
	</node>
	<node lat="60.36646666369186" lon="5.8613777869748125" id="-25580">
		<tag k="name" v="Setrabotnen" />
		<tag k="natural" v="valley" />
		<tag k="place" v="locality" />
		<tag k="ssr:stedsnr" v="308636" />
	</node>
	<node lat="60.38864999992965" lon="5.625791660338074" id="-25585">
		<tag k="name" v="Brualeitet" />
=======
	<node id="-629893" lat="60.4195888887" lon="5.83606110404">
		<tag k="name" v="Leitet" />
>>>>>>> e1d4bc35ff8a6074a6f2e91616a996b547c36f15
		<tag k="natural" v="hill" />
		<tag k="place" v="locality" />
		<tag k="ssr:stedsnr" v="309160" />
	</node>
<<<<<<< HEAD
	<node lat="60.31645555550254" lon="5.61026945178475" id="-25590">
		<tag k="name" v="Skorahaugen" />
=======
	<node id="-629892" lat="60.4166388876" lon="5.85597222204">
		<tag k="name" v="Kuhaugen" />
>>>>>>> e1d4bc35ff8a6074a6f2e91616a996b547c36f15
		<tag k="natural" v="hill" />
		<tag k="place" v="locality" />
		<tag k="ssr:stedsnr" v="309280" />
	</node>
<<<<<<< HEAD
	<node lat="60.36059721848415" lon="5.85521389654976" id="-25592">
		<tag k="name" v="Kvannevikskulten" />
=======
	<node id="-629889" lat="60.3959027771" lon="5.79555555437">
		<tag k="name" v="Hjellane" />
>>>>>>> e1d4bc35ff8a6074a6f2e91616a996b547c36f15
		<tag k="natural" v="hill" />
		<tag k="place" v="locality" />
		<tag k="ssr:stedsnr" v="309656" />
	</node>
<<<<<<< HEAD
	<node lat="60.409788888627844" lon="5.792758332439287" id="-25596">
		<tag k="name" v="Ørnahushaugen" />
=======
	<node id="-629888" lat="60.3637138933" lon="5.71265833854">
		<tag k="name" v="Trollabotshaugen" />
>>>>>>> e1d4bc35ff8a6074a6f2e91616a996b547c36f15
		<tag k="natural" v="hill" />
		<tag k="place" v="locality" />
		<tag k="ssr:stedsnr" v="332191" />
	</node>
<<<<<<< HEAD
	<node lat="60.39900833200316" lon="5.6672305568160235" id="-25597">
		<tag k="name" v="Revabakken" />
=======
	<node id="-629885" lat="60.359588885" lon="5.77125000298">
		<tag k="name" v="Heggelii" />
>>>>>>> e1d4bc35ff8a6074a6f2e91616a996b547c36f15
		<tag k="natural" v="slope" />
		<tag k="place" v="locality" />
		<tag k="ssr:stedsnr" v="332865" />
	</node>
<<<<<<< HEAD
	<node lat="60.384094440912996" lon="5.5893166625647845" id="-25598">
		<tag k="name" v="Middagsdalen" />
		<tag k="natural" v="valley" />
=======
	<node id="-629882" lat="60.3658749959" lon="5.66758888405">
		<tag k="name" v="Lialandet" />
		<tag k="natural" v="ridge" />
>>>>>>> e1d4bc35ff8a6074a6f2e91616a996b547c36f15
		<tag k="place" v="locality" />
		<tag k="ssr:stedsnr" v="332993" />
	</node>
<<<<<<< HEAD
	<node lat="60.38953888848612" lon="5.782330548037198" id="-25599">
		<tag k="name" v="Furhaugen" />
		<tag k="natural" v="hill" />
=======
	<node id="-629879" lat="60.3661555522" lon="5.89831111107">
		<tag k="name" v="Ingebriktstegen" />
>>>>>>> e1d4bc35ff8a6074a6f2e91616a996b547c36f15
		<tag k="place" v="locality" />
		<tag k="ssr:stedsnr" v="333273" />
	</node>
<<<<<<< HEAD
	<node lat="60.42255278115887" lon="5.8076666674729465" id="-25600">
		<tag k="name" v="Stofarinden" />
=======
	<node id="-629877" lat="60.4312055534" lon="5.8129027701">
		<tag k="name" v="Setrarinden" />
>>>>>>> e1d4bc35ff8a6074a6f2e91616a996b547c36f15
		<tag k="natural" v="ridge" />
		<tag k="place" v="locality" />
		<tag k="ssr:stedsnr" v="334433" />
	</node>
<<<<<<< HEAD
	<node lat="60.3299027823428" lon="5.7868555603765195" id="-25604">
		<tag k="name" v="Østerdalseggena" />
		<tag k="natural" v="ridge" />
		<tag k="place" v="locality" />
		<tag k="ssr:stedsnr" v="358076" />
	</node>
	<node lat="60.3586111126232" lon="5.742058330615622" id="-25614">
		<tag k="fixme" v="consider natural=peak for the most distinct mountains in the district" />
		<tag k="name" v="Førøyåsen" />
=======
	<node id="-629876" lat="60.4120138857" lon="5.88541665857">
		<tag k="name" v="Gjela" />
		<tag k="natural" v="gorge" />
		<tag k="ssr:stedsnr" v="516418" />
	</node>
	<node id="-629875" lat="60.3926305591" lon="5.82822500748">
		<tag k="name" v="Fjellhaugen" />
>>>>>>> e1d4bc35ff8a6074a6f2e91616a996b547c36f15
		<tag k="natural" v="hill" />
		<tag k="place" v="locality" />
		<tag k="ssr:stedsnr" v="369164" />
	</node>
<<<<<<< HEAD
	<node lat="60.39377777741688" lon="5.7789583293375575" id="-25619">
=======
	<node id="-629873" lat="60.3510472236" lon="5.66529999381">
>>>>>>> e1d4bc35ff8a6074a6f2e91616a996b547c36f15
		<tag k="fixme" v="consider natural=peak for the most distinct mountains in the district" />
		<tag k="name" v="Åsen" />
		<tag k="natural" v="hill" />
		<tag k="place" v="locality" />
		<tag k="ssr:stedsnr" v="393249" />
	</node>
<<<<<<< HEAD
	<node lat="60.36798055861394" lon="5.696013880669008" id="-25620">
		<tag k="name" v="Hovda" />
		<tag k="natural" v="hill" />
=======
	<node id="-629872" lat="60.3377666654" lon="5.61679166315">
		<tag k="name" v="Halsane" />
		<tag k="natural" v="ridge" />
>>>>>>> e1d4bc35ff8a6074a6f2e91616a996b547c36f15
		<tag k="place" v="locality" />
		<tag k="ssr:stedsnr" v="393571" />
	</node>
<<<<<<< HEAD
	<node lat="60.4003944403302" lon="5.755627786287821" id="-25623">
		<tag k="name" v="Aldalen" />
=======
	<node id="-629871" lat="60.3458444449" lon="5.63883055154">
		<tag k="name" v="Langedalen" />
>>>>>>> e1d4bc35ff8a6074a6f2e91616a996b547c36f15
		<tag k="natural" v="valley" />
		<tag k="place" v="locality" />
		<tag k="ssr:stedsnr" v="393957" />
	</node>
<<<<<<< HEAD
	<node lat="60.40921111440046" lon="5.7301611173888505" id="-25624">
		<tag k="name" v="Heiane" />
		<tag k="natural" v="hill" />
		<tag k="place" v="locality" />
		<tag k="ssr:stedsnr" v="393961" />
	</node>
	<node lat="60.379238893252214" lon="5.658800008370701" id="-25625">
		<tag k="name" v="Fitaheiane" />
=======
	<node id="-629865" lat="60.4606777769" lon="5.91771111629">
		<tag k="name" v="Renneberget" />
		<tag k="natural" v="hill" />
		<tag k="place" v="locality" />
		<tag k="ssr:stedsnr" v="673419" />
	</node>
	<node id="-629864" lat="60.4871138879" lon="5.88661110257">
		<tag k="name" v="Lavransskaret" />
		<tag k="natural" v="valley" />
		<tag k="place" v="locality" />
		<tag k="ssr:stedsnr" v="673349" />
	</node>
	<node id="-629860" lat="60.3504333338" lon="5.71139723012">
		<tag k="fixme" v="consider natural=peak for the most distinct mountains in the district" />
		<tag k="name" v="Steinafjellet" />
>>>>>>> e1d4bc35ff8a6074a6f2e91616a996b547c36f15
		<tag k="natural" v="hill" />
		<tag k="place" v="locality" />
		<tag k="ssr:stedsnr" v="393979" />
	</node>
<<<<<<< HEAD
	<node lat="60.43271389025835" lon="5.850608340289027" id="-25627">
		<tag k="name" v="Storhilderen" />
		<tag k="natural" v="slope" />
		<tag k="place" v="locality" />
		<tag k="ssr:stedsnr" v="394374" />
	</node>
	<node lat="60.41956666855516" lon="5.91531943728587" id="-25628">
		<tag k="name" v="Eikedalshilderen" />
=======
	<node id="-629859" lat="60.3595277821" lon="5.61948888706">
		<tag k="name" v="Brekkekleiva" />
		<tag k="natural" v="slope" />
		<tag k="place" v="locality" />
		<tag k="ssr:stedsnr" v="673199" />
	</node>
	<node id="-629857" lat="60.3841722219" lon="5.67638054766">
		<tag k="fixme" v="consider natural=peak for the most distinct mountains in the district" />
		<tag k="name" v="Einaråsen" />
		<tag k="natural" v="hill" />
		<tag k="place" v="locality" />
		<tag k="ssr:stedsnr" v="673149" />
	</node>
	<node id="-629854" lat="60.3596472181" lon="5.75296665857">
		<tag k="name" v="Preikestolen" />
		<tag k="natural" v="hill" />
>>>>>>> e1d4bc35ff8a6074a6f2e91616a996b547c36f15
		<tag k="place" v="locality" />
		<tag k="ssr:stedsnr" v="395117" />
	</node>
<<<<<<< HEAD
	<node lat="60.44644999989316" lon="5.847761111320847" id="-25629">
		<tag k="name" v="Kvernaholene" />
		<tag k="natural" v="valley" />
=======
	<node id="-629853" lat="60.3589916636" lon="5.71160277255">
		<tag k="name" v="Kultane" />
		<tag k="natural" v="hill" />
>>>>>>> e1d4bc35ff8a6074a6f2e91616a996b547c36f15
		<tag k="place" v="locality" />
		<tag k="ssr:stedsnr" v="395576" />
	</node>
<<<<<<< HEAD
	<node lat="60.362038888604374" lon="5.850122219121743" id="-25630">
		<tag k="name" v="Moltemyrnakken" />
=======
	<node id="-629847" lat="60.3376305578" lon="5.79437778111">
		<tag k="name" v="Trælagjelet" />
		<tag k="natural" v="valley" />
>>>>>>> e1d4bc35ff8a6074a6f2e91616a996b547c36f15
		<tag k="place" v="locality" />
		<tag k="ssr:stedsnr" v="404957" />
	</node>
<<<<<<< HEAD
	<node lat="60.3400583341018" lon="5.778369441913711" id="-25631">
		<tag k="name" v="Klypehaugen" />
=======
	<node id="-629842" lat="60.4501749991" lon="5.90120554908">
		<tag k="name" v="Stortoberget" />
>>>>>>> e1d4bc35ff8a6074a6f2e91616a996b547c36f15
		<tag k="natural" v="hill" />
		<tag k="place" v="locality" />
		<tag k="ssr:stedsnr" v="419082" />
	</node>
<<<<<<< HEAD
	<node lat="60.331244447159726" lon="5.702163889398761" id="-25632">
		<tag k="name" v="Lømønet" />
=======
	<node id="-629841" lat="60.4479583325" lon="5.85405278374">
		<tag k="name" v="Hjellane" />
		<tag k="natural" v="hill" />
>>>>>>> e1d4bc35ff8a6074a6f2e91616a996b547c36f15
		<tag k="place" v="locality" />
		<tag k="ssr:stedsnr" v="419016" />
	</node>
<<<<<<< HEAD
	<node lat="60.36132499981269" lon="5.771374998658032" id="-25635">
		<tag k="name" v="Høgehaugen" />
=======
	<node id="-629840" lat="60.4488361069" lon="5.91470834066">
		<tag k="fixme" v="consider natural=peak for the most distinct mountains in the district" />
		<tag k="name" v="Aksla" />
>>>>>>> e1d4bc35ff8a6074a6f2e91616a996b547c36f15
		<tag k="natural" v="hill" />
		<tag k="place" v="locality" />
		<tag k="ssr:stedsnr" v="423039" />
	</node>
<<<<<<< HEAD
	<node lat="60.29744166668431" lon="5.574208330018846" id="-25638">
		<tag k="fixme" v="consider natural=peak for the most distinct mountains in the district" />
		<tag k="name" v="Selsfjellet" />
=======
	<node id="-629838" lat="60.4708861112" lon="5.89617777214">
		<tag k="name" v="Geitaberget" />
>>>>>>> e1d4bc35ff8a6074a6f2e91616a996b547c36f15
		<tag k="natural" v="hill" />
		<tag k="place" v="locality" />
		<tag k="ssr:stedsnr" v="430276" />
	</node>
<<<<<<< HEAD
	<node lat="60.45396111240022" lon="5.915233329257836" id="-25639">
		<tag k="name" v="Sotabottshjellane" />
=======
	<node id="-629837" lat="60.4694944421" lon="5.89860277627">
		<tag k="fixme" v="consider natural=peak for the most distinct mountains in the district" />
		<tag k="name" v="Nova" />
>>>>>>> e1d4bc35ff8a6074a6f2e91616a996b547c36f15
		<tag k="natural" v="hill" />
		<tag k="place" v="locality" />
		<tag k="ssr:stedsnr" v="430382" />
	</node>
<<<<<<< HEAD
	<node lat="60.37236944087061" lon="5.91685277563766" id="-25642">
		<tag k="name" v="Kvamsbotnen" />
=======
	<node id="-629836" lat="60.3645694464" lon="5.60473888254">
		<tag k="name" v="Purkedalsgjelet" />
>>>>>>> e1d4bc35ff8a6074a6f2e91616a996b547c36f15
		<tag k="natural" v="valley" />
		<tag k="place" v="locality" />
		<tag k="ssr:stedsnr" v="430677" />
	</node>
<<<<<<< HEAD
	<node lat="60.35618333359218" lon="5.867719435992572" id="-25643">
		<tag k="name" v="Storagrøbotnen" />
		<tag k="natural" v="valley" />
		<tag k="old_name" v="Storegrøbotnen" />
=======
	<node id="-629832" lat="60.3507166661" lon="5.87368332913">
		<tag k="name" v="Bjørnabakkane" />
		<tag k="natural" v="slope" />
>>>>>>> e1d4bc35ff8a6074a6f2e91616a996b547c36f15
		<tag k="place" v="locality" />
		<tag k="ssr:stedsnr" v="430635" />
	</node>
<<<<<<< HEAD
	<node lat="60.356222219051986" lon="5.846358328503784" id="-25645">
		<tag k="fixme" v="consider natural=peak for the most distinct mountains in the district" />
		<tag k="name" v="Gråfjellet" />
		<tag k="natural" v="hill" />
=======
	<node id="-629831" lat="60.3550666656" lon="5.73188888131">
		<tag k="name" v="Fossabrekka" />
		<tag k="natural" v="slope" />
>>>>>>> e1d4bc35ff8a6074a6f2e91616a996b547c36f15
		<tag k="place" v="locality" />
		<tag k="ssr:stedsnr" v="431635" />
	</node>
<<<<<<< HEAD
	<node lat="60.407661115307434" lon="5.792286107596921" id="-25648">
		<tag k="name" v="Saghaugen" />
=======
	<node id="-629827" lat="60.3824722194" lon="5.64775555978">
		<tag k="name" v="Nordbøhaugen" />
>>>>>>> e1d4bc35ff8a6074a6f2e91616a996b547c36f15
		<tag k="natural" v="hill" />
		<tag k="place" v="locality" />
		<tag k="ssr:stedsnr" v="514224" />
	</node>
<<<<<<< HEAD
	<node lat="60.35965833645468" lon="5.633800001336291" id="-25650">
		<tag k="name" v="Tjørndalshaugane" />
=======
	<node id="-629826" lat="60.4105277801" lon="5.77578611835">
		<tag k="fixme" v="consider natural=peak for the most distinct mountains in the district" />
		<tag k="name" v="Høgåsen" />
>>>>>>> e1d4bc35ff8a6074a6f2e91616a996b547c36f15
		<tag k="natural" v="hill" />
		<tag k="place" v="locality" />
		<tag k="ssr:stedsnr" v="514650" />
	</node>
<<<<<<< HEAD
	<node lat="60.44113333430855" lon="5.868844436573513" id="-25652">
		<tag k="name" v="Tverrligjelet" />
		<tag k="natural" v="gorge" />
		<tag k="ssr:stedsnr" v="516948" />
	</node>
	<node lat="60.382374999636845" lon="5.772963890298933" id="-25654">
		<tag k="name" v="Skavdalen" />
		<tag k="natural" v="valley" />
=======
	<node id="-629825" lat="60.400591668" lon="5.75965000161">
		<tag k="name" v="Helgatona" />
>>>>>>> e1d4bc35ff8a6074a6f2e91616a996b547c36f15
		<tag k="place" v="locality" />
		<tag k="ssr:stedsnr" v="516321" />
	</node>
<<<<<<< HEAD
	<node lat="60.396786113325845" lon="5.833583335933386" id="-25656">
		<tag k="name" v="Engjalia" />
=======
	<node id="-629822" lat="60.3926777781" lon="5.78110833632">
		<tag k="name" v="Kolalia" />
>>>>>>> e1d4bc35ff8a6074a6f2e91616a996b547c36f15
		<tag k="natural" v="slope" />
		<tag k="place" v="locality" />
		<tag k="ssr:stedsnr" v="516396" />
	</node>
<<<<<<< HEAD
	<node lat="60.43120555342724" lon="5.812902770104166" id="-25657">
		<tag k="name" v="Setrarinden" />
		<tag k="natural" v="ridge" />
=======
	<node id="-629818" lat="60.351613889" lon="5.76241388993">
		<tag k="name" v="Blåheien" />
		<tag k="natural" v="slope" />
>>>>>>> e1d4bc35ff8a6074a6f2e91616a996b547c36f15
		<tag k="place" v="locality" />
		<tag k="ssr:stedsnr" v="516448" />
	</node>
<<<<<<< HEAD
	<node lat="60.44837499755544" lon="5.8741638926975455" id="-25658">
		<tag k="name" v="Geitaryggen" />
		<tag k="natural" v="ridge" />
		<tag k="place" v="locality" />
		<tag k="ssr:stedsnr" v="516548" />
	</node>
	<node lat="60.407355555505724" lon="5.830663889265958" id="-25659">
		<tag k="name" v="Trollhaugen" />
=======
	<node id="-629817" lat="60.3496861085" lon="5.78304721708">
		<tag k="fixme" v="consider natural=peak for the most distinct mountains in the district" />
		<tag k="name" v="Ullandsfjellet" />
>>>>>>> e1d4bc35ff8a6074a6f2e91616a996b547c36f15
		<tag k="natural" v="hill" />
		<tag k="place" v="locality" />
		<tag k="ssr:stedsnr" v="516488" />
	</node>
<<<<<<< HEAD
	<node lat="60.38454722357876" lon="5.891725004531195" id="-25661">
		<tag k="name" v="Gråsida" />
		<tag k="natural" v="slope" />
=======
	<node id="-629816" lat="60.3280638931" lon="5.69835277592">
		<tag k="name" v="Stongahjellen" />
>>>>>>> e1d4bc35ff8a6074a6f2e91616a996b547c36f15
		<tag k="place" v="locality" />
		<tag k="ssr:stedsnr" v="516588" />
	</node>
<<<<<<< HEAD
	<node lat="60.36668888969115" lon="5.849836102925729" id="-25662">
		<tag k="name" v="Vardenovi" />
=======
	<node id="-629815" lat="60.3397916631" lon="5.68794721612">
		<tag k="name" v="Skifteshaugen" />
>>>>>>> e1d4bc35ff8a6074a6f2e91616a996b547c36f15
		<tag k="natural" v="hill" />
		<tag k="place" v="locality" />
		<tag k="ssr:stedsnr" v="525943" />
	</node>
<<<<<<< HEAD
	<node lat="60.36615555215718" lon="5.898311111067886" id="-25663">
		<tag k="name" v="Ingebriktstegen" />
=======
	<node id="-629813" lat="60.3789666684" lon="5.89242222638">
		<tag k="name" v="Raunebottsdalen" />
		<tag k="natural" v="valley" />
>>>>>>> e1d4bc35ff8a6074a6f2e91616a996b547c36f15
		<tag k="place" v="locality" />
		<tag k="ssr:stedsnr" v="525953" />
	</node>
<<<<<<< HEAD
	<node lat="60.34005555449008" lon="5.72651666882727" id="-25666">
		<tag k="name" v="Fagerdalen" />
=======
	<node id="-629811" lat="60.3561833336" lon="5.86771943599">
		<tag k="name" v="Storagrøbotnen" />
>>>>>>> e1d4bc35ff8a6074a6f2e91616a996b547c36f15
		<tag k="natural" v="valley" />
		<tag k="place" v="locality" />
		<tag k="ssr:stedsnr" v="540027" />
	</node>
<<<<<<< HEAD
	<node lat="60.34742222520917" lon="5.779672219515463" id="-25668">
		<tag k="name" v="Tangafjellet" />
		<tag k="natural" v="hill" />
		<tag k="place" v="locality" />
		<tag k="ssr:stedsnr" v="540940" />
	</node>
	<node lat="60.339888884852755" lon="5.815711105231643" id="-25669">
		<tag k="name" v="Kvanndalsbakkane" />
=======
	<node id="-629808" lat="60.4411333343" lon="5.86884443657">
		<tag k="name" v="Tverrligjelet" />
		<tag k="natural" v="gorge" />
		<tag k="ssr:stedsnr" v="516948" />
	</node>
	<node id="-629807" lat="60.3845472236" lon="5.89172500453">
		<tag k="name" v="Gråsida" />
>>>>>>> e1d4bc35ff8a6074a6f2e91616a996b547c36f15
		<tag k="natural" v="slope" />
		<tag k="place" v="locality" />
		<tag k="ssr:stedsnr" v="540941" />
	</node>
<<<<<<< HEAD
	<node lat="60.35958888500664" lon="5.771250002976027" id="-25670">
		<tag k="name" v="Heggelii" />
		<tag k="natural" v="slope" />
=======
	<node id="-629805" lat="60.4483749976" lon="5.8741638927">
		<tag k="name" v="Geitaryggen" />
		<tag k="natural" v="ridge" />
>>>>>>> e1d4bc35ff8a6074a6f2e91616a996b547c36f15
		<tag k="place" v="locality" />
		<tag k="ssr:stedsnr" v="544032" />
	</node>
	<node lat="60.36371389334866" lon="5.712658338536525" id="-25673">
		<tag k="name" v="Trollabotshaugen" />
		<tag k="natural" v="hill" />
		<tag k="place" v="locality" />
		<tag k="ssr:stedsnr" v="544049" />
	</node>
<<<<<<< HEAD
	<node lat="60.4871361143782" lon="5.891416657333109" id="-25676">
		<tag k="name" v="Tunga" />
=======
	<node id="-629804" lat="60.4073555555" lon="5.83066388927">
		<tag k="name" v="Trollhaugen" />
>>>>>>> e1d4bc35ff8a6074a6f2e91616a996b547c36f15
		<tag k="natural" v="hill" />
		<tag k="place" v="locality" />
		<tag k="ssr:stedsnr" v="551318" />
	</node>
<<<<<<< HEAD
	<node lat="60.48132222079703" lon="5.878611105358835" id="-25677">
		<tag k="fixme" v="consider natural=peak for the most distinct mountains in the district" />
		<tag k="name" v="Klungerdalsnipa" />
		<tag k="natural" v="hill" />
=======
	<node id="-629803" lat="60.3967861133" lon="5.83358333593">
		<tag k="name" v="Engjalia" />
		<tag k="natural" v="slope" />
>>>>>>> e1d4bc35ff8a6074a6f2e91616a996b547c36f15
		<tag k="place" v="locality" />
		<tag k="ssr:stedsnr" v="551319" />
	</node>
<<<<<<< HEAD
	<node lat="60.49891666780531" lon="5.922458341854686" id="-25678">
		<tag k="name" v="Insta Hestagjelet" />
=======
	<node id="-629801" lat="60.3823749996" lon="5.7729638903">
		<tag k="name" v="Skavdalen" />
>>>>>>> e1d4bc35ff8a6074a6f2e91616a996b547c36f15
		<tag k="natural" v="valley" />
		<tag k="place" v="locality" />
		<tag k="ssr:stedsnr" v="551332" />
	</node>
<<<<<<< HEAD
	<node lat="60.46872777434924" lon="5.926769453626894" id="-25679">
		<tag k="fixme" v="consider natural=peak for the most distinct mountains in the district" />
		<tag k="name" v="Lurafjellet" />
		<tag k="natural" v="hill" />
=======
	<node id="-629800" lat="60.4179944472" lon="5.85561944569">
		<tag k="name" v="Liane" />
		<tag k="natural" v="slope" />
>>>>>>> e1d4bc35ff8a6074a6f2e91616a996b547c36f15
		<tag k="place" v="locality" />
		<tag k="ssr:stedsnr" v="551337" />
	</node>
<<<<<<< HEAD
	<node lat="60.4048333364367" lon="5.879755562331638" id="-25680">
		<tag k="name" v="Huldabottsgjelet" />
		<tag k="natural" v="gorge" />
		<tag k="ssr:stedsnr" v="551473" />
	</node>
	<node lat="60.37289999833745" lon="5.885836114088649" id="-25681">
		<tag k="name" v="Raunebotnen" />
=======
	<node id="-629794" lat="60.4063083363" lon="5.69724166066">
		<tag k="name" v="Nysetebotnen" />
>>>>>>> e1d4bc35ff8a6074a6f2e91616a996b547c36f15
		<tag k="natural" v="valley" />
		<tag k="place" v="locality" />
		<tag k="ssr:stedsnr" v="551696" />
	</node>
<<<<<<< HEAD
	<node lat="60.42829722533075" lon="5.894680555131021" id="-25683">
		<tag k="name" v="Flatheiane" />
=======
	<node id="-629793" lat="60.3596583365" lon="5.63380000134">
		<tag k="name" v="Tjørndalshaugane" />
>>>>>>> e1d4bc35ff8a6074a6f2e91616a996b547c36f15
		<tag k="natural" v="hill" />
		<tag k="place" v="locality" />
		<tag k="ssr:stedsnr" v="551435" />
	</node>
<<<<<<< HEAD
	<node lat="60.370705555877116" lon="5.883258338680032" id="-25684">
		<tag k="name" v="Plitten" />
		<tag k="natural" v="gorge" />
		<tag k="ssr:stedsnr" v="551658" />
	</node>
	<node lat="60.52034166794962" lon="5.9556555495625405" id="-25685">
		<tag k="fixme" v="consider natural=peak for the most distinct mountains in the district" />
		<tag k="name" v="Bukkafjellet" />
=======
	<node id="-629791" lat="60.4076611153" lon="5.7922861076">
		<tag k="name" v="Saghaugen" />
>>>>>>> e1d4bc35ff8a6074a6f2e91616a996b547c36f15
		<tag k="natural" v="hill" />
		<tag k="place" v="locality" />
		<tag k="ssr:stedsnr" v="552766" />
	</node>
<<<<<<< HEAD
	<node lat="60.360388885054384" lon="5.699469436560899" id="-25687">
		<tag k="name" v="Storekampen" />
		<tag k="natural" v="hill" />
=======
	<node id="-629789" lat="60.3312444472" lon="5.7021638894">
		<tag k="name" v="Lømønet" />
>>>>>>> e1d4bc35ff8a6074a6f2e91616a996b547c36f15
		<tag k="place" v="locality" />
		<tag k="ssr:stedsnr" v="575573" />
	</node>
<<<<<<< HEAD
	<node lat="60.35928611049414" lon="5.667811103958907" id="-25688">
		<tag k="name" v="Sauahaugen" />
		<tag k="natural" v="hill" />
=======
	<node id="-629786" lat="60.3620388886" lon="5.85012221912">
		<tag k="name" v="Moltemyrnakken" />
>>>>>>> e1d4bc35ff8a6074a6f2e91616a996b547c36f15
		<tag k="place" v="locality" />
		<tag k="ssr:stedsnr" v="575575" />
	</node>
<<<<<<< HEAD
	<node lat="60.3869194418297" lon="5.6288777813206865" id="-25689">
		<tag k="name" v="Lyningshaugen" />
=======
	<node id="-629784" lat="60.4092111144" lon="5.73016111739">
		<tag k="name" v="Heiane" />
>>>>>>> e1d4bc35ff8a6074a6f2e91616a996b547c36f15
		<tag k="natural" v="hill" />
		<tag k="place" v="locality" />
		<tag k="ssr:stedsnr" v="575969" />
	</node>
<<<<<<< HEAD
	<node lat="60.38673055208704" lon="5.637783335160658" id="-25690">
		<tag k="name" v="Kvitlabrekka" />
		<tag k="natural" v="slope" />
=======
	<node id="-629783" lat="60.4003944403" lon="5.75562778629">
		<tag k="name" v="Aldalen" />
		<tag k="natural" v="valley" />
>>>>>>> e1d4bc35ff8a6074a6f2e91616a996b547c36f15
		<tag k="place" v="locality" />
		<tag k="ssr:stedsnr" v="575971" />
	</node>
<<<<<<< HEAD
	<node lat="60.38244444400455" lon="5.662116669178204" id="-25691">
		<tag k="name" v="Krossaleitet" />
		<tag k="natural" v="hill" />
=======
	<node id="-629781" lat="60.3547138854" lon="5.66951388154">
		<tag k="name" v="Djupedalen" />
		<tag k="natural" v="valley" />
>>>>>>> e1d4bc35ff8a6074a6f2e91616a996b547c36f15
		<tag k="place" v="locality" />
		<tag k="ssr:stedsnr" v="575982" />
	</node>
<<<<<<< HEAD
	<node lat="60.41885555519211" lon="5.874525001369723" id="-25692">
		<tag k="name" v="Fureskolten" />
		<tag k="natural" v="ridge" />
=======
	<node id="-629780" lat="60.344336114" lon="5.62490554843">
		<tag k="name" v="Stordalen" />
		<tag k="natural" v="valley" />
>>>>>>> e1d4bc35ff8a6074a6f2e91616a996b547c36f15
		<tag k="place" v="locality" />
		<tag k="ssr:stedsnr" v="576259" />
	</node>
<<<<<<< HEAD
	<node lat="60.4232416665692" lon="5.836016659127648" id="-25695">
		<tag k="name" v="Kjerringarinden" />
		<tag k="natural" v="ridge" />
		<tag k="place" v="locality" />
		<tag k="ssr:stedsnr" v="576378" />
	</node>
	<node lat="60.42347221919212" lon="5.799000001566505" id="-25696">
		<tag k="fixme" v="consider natural=peak for the most distinct mountains in the district" />
		<tag k="name" v="Bjørnåsen" />
=======
	<node id="-629778" lat="60.3679805586" lon="5.69601388067">
		<tag k="name" v="Hovda" />
>>>>>>> e1d4bc35ff8a6074a6f2e91616a996b547c36f15
		<tag k="natural" v="hill" />
		<tag k="place" v="locality" />
		<tag k="ssr:stedsnr" v="576473" />
	</node>
<<<<<<< HEAD
	<node lat="60.39918333643944" lon="5.844305562045466" id="-25697">
		<tag k="name" v="Kråna" />
=======
	<node id="-629775" lat="60.5083555524" lon="5.91130555732">
		<tag k="name" v="Tjørnadalen" />
>>>>>>> e1d4bc35ff8a6074a6f2e91616a996b547c36f15
		<tag k="natural" v="valley" />
		<tag k="place" v="locality" />
		<tag k="ssr:stedsnr" v="576513" />
	</node>
<<<<<<< HEAD
	<node lat="60.4439666687724" lon="5.834402780414029" id="-25698">
		<tag k="name" v="Svartaberget" />
=======
	<node id="-629774" lat="60.4206111141" lon="5.91702777907">
		<tag k="fixme" v="consider natural=peak for the most distinct mountains in the district" />
		<tag k="name" v="Flæfjellet" />
>>>>>>> e1d4bc35ff8a6074a6f2e91616a996b547c36f15
		<tag k="natural" v="hill" />
		<tag k="place" v="locality" />
		<tag k="ssr:stedsnr" v="577563" />
	</node>
<<<<<<< HEAD
	<node lat="60.4436111069584" lon="5.863527770208404" id="-25699">
=======
	<node id="-629773" lat="60.4231916701" lon="5.88405555493">
>>>>>>> e1d4bc35ff8a6074a6f2e91616a996b547c36f15
		<tag k="fixme" v="consider natural=peak for the most distinct mountains in the district" />
		<tag k="name" v="Høghaugen" />
		<tag k="natural" v="hill" />
		<tag k="place" v="locality" />
<<<<<<< HEAD
		<tag k="ssr:stedsnr" v="577521" />
	</node>
	<node lat="60.341872224206696" lon="5.694933338799113" id="-25703">
		<tag k="name" v="Telleberglia" />
		<tag k="natural" v="slope" />
=======
		<tag k="ssr:stedsnr" v="369406" />
	</node>
	<node id="-629771" lat="60.3393749975" lon="5.67874166974">
		<tag k="name" v="Mørkedalen" />
		<tag k="natural" v="valley" />
		<tag k="place" v="locality" />
		<tag k="ssr:stedsnr" v="358113" />
	</node>
	<node id="-629770" lat="60.3299027823" lon="5.78685556038">
		<tag k="name" v="Østerdalseggena" />
		<tag k="natural" v="ridge" />
>>>>>>> e1d4bc35ff8a6074a6f2e91616a996b547c36f15
		<tag k="place" v="locality" />
		<tag k="ssr:stedsnr" v="601076" />
	</node>
<<<<<<< HEAD
	<node lat="60.45055555498262" lon="5.878236112524329" id="-25708">
		<tag k="name" v="Vetleåsen" />
=======
	<node id="-629769" lat="60.3555972222" lon="5.91759722408">
		<tag k="fixme" v="consider natural=peak for the most distinct mountains in the district" />
		<tag k="name" v="Bjørnahinova" />
>>>>>>> e1d4bc35ff8a6074a6f2e91616a996b547c36f15
		<tag k="natural" v="hill" />
		<tag k="place" v="locality" />
		<tag k="ssr:stedsnr" v="611399" />
	</node>
<<<<<<< HEAD
	<node lat="60.44097222113975" lon="5.931724991543853" id="-25709">
=======
	<node id="-629768" lat="60.4825388895" lon="5.90962778558">
>>>>>>> e1d4bc35ff8a6074a6f2e91616a996b547c36f15
		<tag k="fixme" v="consider natural=peak for the most distinct mountains in the district" />
		<tag k="name" v="Røyrfjellet" />
		<tag k="natural" v="hill" />
		<tag k="place" v="locality" />
		<tag k="ssr:stedsnr" v="611438" />
	</node>
<<<<<<< HEAD
	<node lat="60.33351944470696" lon="5.858147213190388" id="-25711">
		<tag k="name" v="Bjørnakultane" />
=======
	<node id="-629765" lat="60.3236944432" lon="5.60360556005">
		<tag k="fixme" v="consider natural=peak for the most distinct mountains in the district" />
		<tag k="name" v="Fossafjellet" />
>>>>>>> e1d4bc35ff8a6074a6f2e91616a996b547c36f15
		<tag k="natural" v="hill" />
		<tag k="place" v="locality" />
		<tag k="ssr:stedsnr" v="611585" />
	</node>
<<<<<<< HEAD
	<node lat="60.34851944380951" lon="5.855200003068467" id="-25712">
		<tag k="name" v="Austebotnane" />
		<tag k="natural" v="valley" />
=======
	<node id="-629763" lat="60.3806380921" lon="5.77579203117">
		<tag k="fixme" v="consider natural=peak for the most distinct mountains in the district" />
		<tag k="name" v="Hagåsen" />
		<tag k="natural" v="hill" />
>>>>>>> e1d4bc35ff8a6074a6f2e91616a996b547c36f15
		<tag k="place" v="locality" />
		<tag k="ssr:stedsnr" v="612633" />
	</node>
<<<<<<< HEAD
	<node lat="60.334041665618074" lon="5.7190277838453145" id="-25714">
=======
	<node id="-629758" lat="60.407566669" lon="5.8446694508">
>>>>>>> e1d4bc35ff8a6074a6f2e91616a996b547c36f15
		<tag k="fixme" v="consider natural=peak for the most distinct mountains in the district" />
		<tag k="name" v="Såta" />
		<tag k="natural" v="hill" />
		<tag k="place" v="locality" />
		<tag k="ssr:stedsnr" v="612227" />
	</node>
<<<<<<< HEAD
	<node lat="60.33454444136404" lon="5.87494166914578" id="-25717">
		<tag k="name" v="Raudehaugen" />
=======
	<node id="-629757" lat="60.4286583355" lon="5.86844444233">
		<tag k="name" v="Ruken" />
>>>>>>> e1d4bc35ff8a6074a6f2e91616a996b547c36f15
		<tag k="natural" v="hill" />
		<tag k="place" v="locality" />
		<tag k="ssr:stedsnr" v="612573" />
	</node>
<<<<<<< HEAD
	<node lat="60.40340277517563" lon="5.790361103586861" id="-25718">
		<tag k="name" v="Haugen" />
=======
	<node id="-629756" lat="60.4255999974" lon="5.86406944023">
		<tag k="name" v="Lyningen" />
>>>>>>> e1d4bc35ff8a6074a6f2e91616a996b547c36f15
		<tag k="natural" v="hill" />
		<tag k="place" v="locality" />
		<tag k="ssr:stedsnr" v="635252" />
	</node>
<<<<<<< HEAD
	<node lat="60.35544444416054" lon="5.661605547038179" id="-25719">
=======
	<node id="-629753" lat="60.4433083308" lon="5.8849250084">
>>>>>>> e1d4bc35ff8a6074a6f2e91616a996b547c36f15
		<tag k="fixme" v="consider natural=peak for the most distinct mountains in the district" />
		<tag k="name" v="Storafjellet" />
		<tag k="natural" v="hill" />
		<tag k="place" v="locality" />
		<tag k="ssr:stedsnr" v="635579" />
	</node>
<<<<<<< HEAD
	<node lat="60.30362777529082" lon="5.599538896157921" id="-25721">
		<tag k="name" v="Lauvlidalen" />
=======
	<node id="-629751" lat="60.4740055536" lon="5.8916722231">
		<tag k="name" v="Klungerdalen" />
>>>>>>> e1d4bc35ff8a6074a6f2e91616a996b547c36f15
		<tag k="natural" v="valley" />
		<tag k="place" v="locality" />
		<tag k="ssr:stedsnr" v="635586" />
	</node>
<<<<<<< HEAD
	<node lat="60.40508055203196" lon="5.648136118453166" id="-25723">
		<tag k="name" v="Halsen" />
		<tag k="natural" v="valley" />
		<tag k="place" v="locality" />
		<tag k="ssr:stedsnr" v="635865" />
	</node>
	<node lat="60.37995277567412" lon="5.640083333938105" id="-25724">
		<tag k="name" v="Dysjemyrhaugen" />
=======
	<node id="-629748" lat="60.3637694426" lon="5.83707500506">
		<tag k="fixme" v="consider natural=peak for the most distinct mountains in the district" />
		<tag k="name" v="Vetlenipen" />
>>>>>>> e1d4bc35ff8a6074a6f2e91616a996b547c36f15
		<tag k="natural" v="hill" />
		<tag k="place" v="locality" />
		<tag k="ssr:stedsnr" v="635966" />
	</node>
<<<<<<< HEAD
	<node lat="60.38608333306605" lon="5.7782611026253985" id="-25725">
		<tag k="name" v="Hagabotnane" />
=======
	<node id="-629747" lat="60.3847771481" lon="5.81490702625">
		<tag k="name" v="Vetlebotnen" />
>>>>>>> e1d4bc35ff8a6074a6f2e91616a996b547c36f15
		<tag k="natural" v="valley" />
		<tag k="place" v="locality" />
		<tag k="ssr:stedsnr" v="636157" />
	</node>
<<<<<<< HEAD
	<node lat="60.399133335271074" lon="5.878355552469606" id="-25726">
=======
	<node id="-629745" lat="60.4092750025" lon="5.74934166427">
>>>>>>> e1d4bc35ff8a6074a6f2e91616a996b547c36f15
		<tag k="fixme" v="consider natural=peak for the most distinct mountains in the district" />
		<tag k="name" v="Flatafjellet" />
		<tag k="natural" v="hill" />
		<tag k="place" v="locality" />
		<tag k="ssr:stedsnr" v="636439" />
	</node>
<<<<<<< HEAD
	<node lat="60.403936107522505" lon="5.848702769687509" id="-25727">
		<tag k="name" v="Kleiva" />
		<tag k="natural" v="slope" />
		<tag k="place" v="locality" />
		<tag k="ssr:stedsnr" v="637541" />
	</node>
	<node lat="60.349686108533" lon="5.783047217078291" id="-25730">
=======
	<node id="-629744" lat="60.4970750004" lon="5.90652777494">
>>>>>>> e1d4bc35ff8a6074a6f2e91616a996b547c36f15
		<tag k="fixme" v="consider natural=peak for the most distinct mountains in the district" />
		<tag k="name" v="Ullandsfjellet" />
		<tag k="natural" v="hill" />
		<tag k="place" v="locality" />
		<tag k="ssr:stedsnr" v="661018" />
	</node>
<<<<<<< HEAD
	<node lat="60.351613889012825" lon="5.762413889930229" id="-25731">
		<tag k="name" v="Blåheien" />
		<tag k="natural" v="slope" />
		<tag k="place" v="locality" />
		<tag k="ssr:stedsnr" v="661023" />
	</node>
	<node lat="60.33979166306031" lon="5.68794721612335" id="-25733">
		<tag k="name" v="Skifteshaugen" />
		<tag k="natural" v="hill" />
		<tag k="place" v="locality" />
		<tag k="ssr:stedsnr" v="661076" />
	</node>
	<node lat="60.35874444535379" lon="5.73840832506354" id="-25735">
		<tag k="name" v="Florhaugen" />
		<tag k="natural" v="hill" />
		<tag k="place" v="locality" />
		<tag k="ssr:stedsnr" v="665062" />
	</node>
	<node lat="60.35700277387953" lon="5.82088055178897" id="-25738">
		<tag k="name" v="Ospebotnen" />
=======
	<node id="-629742" lat="60.3562944423" lon="5.73261389071">
		<tag k="name" v="Ormadalen" />
>>>>>>> e1d4bc35ff8a6074a6f2e91616a996b547c36f15
		<tag k="natural" v="valley" />
		<tag k="place" v="locality" />
		<tag k="ssr:stedsnr" v="723904" />
	</node>
<<<<<<< HEAD
	<node lat="60.354541666152095" lon="5.817549998586563" id="-25739">
		<tag k="name" v="Leitet" />
		<tag k="natural" v="hill" />
=======
	<node id="-629740" lat="60.4229611072" lon="5.92493889453">
		<tag k="name" v="Læghildrane" />
>>>>>>> e1d4bc35ff8a6074a6f2e91616a996b547c36f15
		<tag k="place" v="locality" />
		<tag k="ssr:stedsnr" v="726043" />
	</node>
<<<<<<< HEAD
	<node lat="60.369061112507964" lon="5.7977527798392865" id="-25740">
		<tag k="name" v="Norddalane" />
=======
	<node id="-629739" lat="60.3937749971" lon="5.81454167301">
		<tag k="name" v="Vardadalen" />
>>>>>>> e1d4bc35ff8a6074a6f2e91616a996b547c36f15
		<tag k="natural" v="valley" />
		<tag k="place" v="locality" />
		<tag k="ssr:stedsnr" v="726046" />
	</node>
<<<<<<< HEAD
	<node lat="60.36554721786396" lon="5.716111107166761" id="-25741">
		<tag k="name" v="Trollabotn" />
=======
	<node id="-629734" lat="60.357872219" lon="5.77681110258">
		<tag k="name" v="Krossdalen" />
>>>>>>> e1d4bc35ff8a6074a6f2e91616a996b547c36f15
		<tag k="natural" v="valley" />
		<tag k="place" v="locality" />
		<tag k="ssr:stedsnr" v="726049" />
	</node>
<<<<<<< HEAD
	<node lat="60.364947225573175" lon="5.720827778093512" id="-25742">
		<tag k="name" v="Raudskoltane" />
		<tag k="natural" v="hill" />
=======
	<node id="-629732" lat="60.3521972254" lon="5.8367083301">
		<tag k="name" v="Kikenosi" />
>>>>>>> e1d4bc35ff8a6074a6f2e91616a996b547c36f15
		<tag k="place" v="locality" />
		<tag k="ssr:stedsnr" v="726051" />
	</node>
<<<<<<< HEAD
	<node lat="60.4642583315007" lon="5.84632500096169" id="-25746">
		<tag k="fixme" v="consider natural=peak for the most distinct mountains in the district" />
		<tag k="name" v="Gråfjellet" />
=======
	<node id="-629731" lat="60.4168694426" lon="5.88689723007">
		<tag k="name" v="Vorekleiva" />
>>>>>>> e1d4bc35ff8a6074a6f2e91616a996b547c36f15
		<tag k="natural" v="hill" />
		<tag k="place" v="locality" />
		<tag k="ssr:stedsnr" v="733038" />
	</node>
<<<<<<< HEAD
	<node lat="60.430286113681035" lon="5.795824995585436" id="-25748">
		<tag k="name" v="Snilshaugen" />
=======
	<node id="-629730" lat="60.4312277792" lon="5.7152694412">
		<tag k="name" v="Lynten" />
>>>>>>> e1d4bc35ff8a6074a6f2e91616a996b547c36f15
		<tag k="natural" v="hill" />
		<tag k="place" v="locality" />
		<tag k="ssr:stedsnr" v="733080" />
	</node>
<<<<<<< HEAD
	<node lat="60.46675833738633" lon="5.897183331355042" id="-25749">
		<tag k="fixme" v="consider natural=peak for the most distinct mountains in the district" />
		<tag k="name" v="Bergsnipa" />
		<tag k="natural" v="hill" />
=======
	<node id="-629728" lat="60.3888164086" lon="5.59296906406">
		<tag k="name" v="Gullfjellhalsen" />
		<tag k="natural" v="ridge" />
>>>>>>> e1d4bc35ff8a6074a6f2e91616a996b547c36f15
		<tag k="place" v="locality" />
		<tag k="ssr:stedsnr" v="733322" />
	</node>
<<<<<<< HEAD
	<node lat="60.37965555460689" lon="5.900269436091708" id="-25755">
		<tag k="name" v="Rabalhei" />
=======
	<node id="-629727" lat="60.4048555523" lon="5.72918889163">
		<tag k="name" v="Storhaugen" />
>>>>>>> e1d4bc35ff8a6074a6f2e91616a996b547c36f15
		<tag k="natural" v="hill" />
		<tag k="place" v="locality" />
		<tag k="ssr:stedsnr" v="733671" />
	</node>
<<<<<<< HEAD
	<node lat="60.3995916703135" lon="5.8007500051399825" id="-25757">
		<tag k="name" v="Bjørndalen" />
		<tag k="natural" v="valley" />
=======
	<node id="-629725" lat="60.3515472257" lon="5.65750556268">
		<tag k="name" v="Bekkene" />
		<tag k="natural" v="slope" />
>>>>>>> e1d4bc35ff8a6074a6f2e91616a996b547c36f15
		<tag k="place" v="locality" />
		<tag k="ssr:stedsnr" v="734120" />
	</node>
<<<<<<< HEAD
	<node lat="60.48597500068161" lon="5.892147213640014" id="-25760">
		<tag k="name" v="Glupagjelet" />
		<tag k="natural" v="valley" />
=======
	<node id="-629724" lat="60.3400083337" lon="5.59979444519">
		<tag k="name" v="Rundehaugen" />
		<tag k="natural" v="hill" />
>>>>>>> e1d4bc35ff8a6074a6f2e91616a996b547c36f15
		<tag k="place" v="locality" />
		<tag k="ssr:stedsnr" v="734359" />
	</node>
<<<<<<< HEAD
	<node lat="60.49894166767549" lon="5.914569439761928" id="-25761">
		<tag k="name" v="Heimsta Hestagjelet" />
=======
	<node id="-629723" lat="60.3427166674" lon="5.60491666147">
		<tag k="name" v="Fonnadalen" />
>>>>>>> e1d4bc35ff8a6074a6f2e91616a996b547c36f15
		<tag k="natural" v="valley" />
		<tag k="place" v="locality" />
		<tag k="ssr:stedsnr" v="734377" />
	</node>
<<<<<<< HEAD
	<node lat="60.34580555804734" lon="5.852355552656578" id="-25762">
		<tag k="name" v="Ramnagjelet" />
		<tag k="natural" v="valley" />
=======
	<node id="-629721" lat="60.4437861144" lon="5.83702223014">
		<tag k="name" v="Svartabergslia" />
		<tag k="natural" v="slope" />
>>>>>>> e1d4bc35ff8a6074a6f2e91616a996b547c36f15
		<tag k="place" v="locality" />
		<tag k="ssr:stedsnr" v="734658" />
	</node>
<<<<<<< HEAD
	<node lat="60.40091944807195" lon="5.774344444430165" id="-25765">
		<tag k="name" v="Storemyra" />
=======
	<node id="-629719" lat="60.3776027767" lon="5.83695833805">
		<tag k="name" v="Dal" />
>>>>>>> e1d4bc35ff8a6074a6f2e91616a996b547c36f15
		<tag k="natural" v="valley" />
		<tag k="place" v="locality" />
		<tag k="ssr:stedsnr" v="757242" />
	</node>
<<<<<<< HEAD
	<node lat="60.36496389346999" lon="5.701575008495454" id="-25767">
		<tag k="name" v="Berrhaug" />
=======
	<node id="-629717" lat="60.4284722183" lon="5.79952499416">
		<tag k="name" v="Kampane" />
>>>>>>> e1d4bc35ff8a6074a6f2e91616a996b547c36f15
		<tag k="natural" v="hill" />
		<tag k="place" v="locality" />
		<tag k="ssr:stedsnr" v="757581" />
	</node>
<<<<<<< HEAD
	<node lat="60.396858331716935" lon="5.68044167568571" id="-25769">
		<tag k="name" v="Hisdalen" />
		<tag k="natural" v="valley" />
		<tag k="place" v="locality" />
		<tag k="ssr:stedsnr" v="757878" />
	</node>
	<node lat="60.383425001356876" lon="5.603905549581655" id="-25771">
		<tag k="name" v="Maribrautene" />
=======
	<node id="-629716" lat="60.4239472234" lon="5.83479721926">
		<tag k="name" v="Instalia" />
>>>>>>> e1d4bc35ff8a6074a6f2e91616a996b547c36f15
		<tag k="natural" v="slope" />
		<tag k="place" v="locality" />
		<tag k="ssr:stedsnr" v="757981" />
	</node>
<<<<<<< HEAD
	<node lat="60.40505555207642" lon="5.828972231192747" id="-25772">
		<tag k="name" v="Dyrhaugane" />
=======
	<node id="-629714" lat="60.3887499973" lon="5.59947778456">
		<tag k="fixme" v="consider natural=peak for the most distinct mountains in the district" />
		<tag k="name" v="Gullnipa" />
>>>>>>> e1d4bc35ff8a6074a6f2e91616a996b547c36f15
		<tag k="natural" v="hill" />
		<tag k="place" v="locality" />
		<tag k="ssr:stedsnr" v="758538" />
	</node>
<<<<<<< HEAD
	<node lat="60.41631110744222" lon="5.830038883682398" id="-25773">
		<tag k="name" v="Smogaholene" />
=======
	<node id="-629709" lat="60.3403166646" lon="5.91314722444">
		<tag k="name" v="Kjebotnen" />
>>>>>>> e1d4bc35ff8a6074a6f2e91616a996b547c36f15
		<tag k="natural" v="valley" />
		<tag k="place" v="locality" />
		<tag k="ssr:stedsnr" v="759278" />
	</node>
<<<<<<< HEAD
	<node lat="60.36830555137826" lon="5.843002774937277" id="-25775">
		<tag k="name" v="Dyrvasslii" />
		<tag k="natural" v="slope" />
=======
	<node id="-629704" lat="60.3458694482" lon="5.7256555468">
		<tag k="name" v="Høystakkadalen" />
		<tag k="natural" v="valley" />
>>>>>>> e1d4bc35ff8a6074a6f2e91616a996b547c36f15
		<tag k="place" v="locality" />
		<tag k="ssr:stedsnr" v="768961" />
	</node>
<<<<<<< HEAD
	<node lat="60.35651389114481" lon="5.725708338765983" id="-25777">
		<tag k="name" v="Åsabrekkena" />
=======
	<node id="-629702" lat="60.3528277792" lon="5.79167500665">
		<tag k="name" v="Haugslii" />
>>>>>>> e1d4bc35ff8a6074a6f2e91616a996b547c36f15
		<tag k="natural" v="slope" />
		<tag k="place" v="locality" />
		<tag k="ssr:stedsnr" v="787031" />
	</node>
<<<<<<< HEAD
	<node lat="60.49753610959839" lon="5.920130549383262" id="-25778">
		<tag k="name" v="Gjetlo" />
		<tag k="natural" v="hill" />
=======
	<node id="-629700" lat="60.4518555578" lon="5.88782500228">
		<tag k="name" v="Osdalen" />
		<tag k="natural" v="valley" />
>>>>>>> e1d4bc35ff8a6074a6f2e91616a996b547c36f15
		<tag k="place" v="locality" />
		<tag k="ssr:stedsnr" v="794318" />
	</node>
<<<<<<< HEAD
	<node lat="60.46422500284299" lon="5.919405561423741" id="-25780">
		<tag k="name" v="Botnane" />
		<tag k="natural" v="valley" />
		<tag k="place" v="locality" />
		<tag k="ssr:stedsnr" v="794325" />
	</node>
	<node lat="60.440274997560884" lon="5.732108327433829" id="-25781">
		<tag k="fixme" v="consider natural=peak for the most distinct mountains in the district" />
		<tag k="name" v="Geitanipa" />
		<tag k="natural" v="hill" />
=======
	<node id="-629698" lat="60.4250694487" lon="5.84589999224">
		<tag k="name" v="Sauadalen" />
		<tag k="natural" v="valley" />
		<tag k="place" v="locality" />
		<tag k="ssr:stedsnr" v="213344" />
	</node>
	<node id="-629697" lat="60.426658332" lon="5.84295833548">
		<tag k="name" v="Skavhilderane" />
		<tag k="place" v="locality" />
		<tag k="ssr:stedsnr" v="213342" />
	</node>
	<node id="-629696" lat="60.3299000019" lon="5.67917500366">
		<tag k="name" v="Botnen" />
		<tag k="natural" v="valley" />
>>>>>>> e1d4bc35ff8a6074a6f2e91616a996b547c36f15
		<tag k="place" v="locality" />
		<tag k="ssr:stedsnr" v="794039" />
	</node>
<<<<<<< HEAD
	<node lat="60.42285277378804" lon="5.764733333386009" id="-25784">
		<tag k="fixme" v="consider natural=peak for the most distinct mountains in the district" />
		<tag k="name" v="Gjerdssåta" />
=======
	<node id="-629694" lat="60.3485583333" lon="5.6625750084">
		<tag k="name" v="Skipet" />
>>>>>>> e1d4bc35ff8a6074a6f2e91616a996b547c36f15
		<tag k="natural" v="hill" />
		<tag k="place" v="locality" />
		<tag k="ssr:stedsnr" v="794058" />
	</node>
<<<<<<< HEAD
	<node lat="60.42701388605295" lon="5.743091666204201" id="-25785">
=======
	<node id="-629693" lat="60.3392749963" lon="5.6827055554">
>>>>>>> e1d4bc35ff8a6074a6f2e91616a996b547c36f15
		<tag k="fixme" v="consider natural=peak for the most distinct mountains in the district" />
		<tag k="name" v="Høgåsen" />
		<tag k="natural" v="hill" />
		<tag k="place" v="locality" />
		<tag k="ssr:stedsnr" v="794062" />
	</node>
<<<<<<< HEAD
	<node lat="60.42313333054453" lon="5.830119438430901" id="-25788">
		<tag k="name" v="Høysetelia" />
		<tag k="natural" v="slope" />
		<tag k="place" v="locality" />
		<tag k="ssr:stedsnr" v="794071" />
	</node>
	<node lat="60.336555554640576" lon="5.765536118569932" id="-25790">
		<tag k="fixme" v="consider natural=peak for the most distinct mountains in the district" />
		<tag k="name" v="Burlifjellet" />
		<tag k="natural" v="hill" />
=======
	<node id="-629692" lat="60.3420916693" lon="5.77448611043">
		<tag k="name" v="Grønabrekka" />
		<tag k="natural" v="slope" />
		<tag k="place" v="locality" />
		<tag k="ssr:stedsnr" v="298066" />
	</node>
	<node id="-629691" lat="60.3931222245" lon="5.84944167378">
		<tag k="name" v="Kinnapresten" />
		<tag k="place" v="locality" />
		<tag k="ssr:stedsnr" v="212424" />
	</node>
	<node id="-629690" lat="60.3965527785" lon="5.84346944705">
		<tag k="name" v="Geitaryggen" />
		<tag k="natural" v="ridge" />
>>>>>>> e1d4bc35ff8a6074a6f2e91616a996b547c36f15
		<tag k="place" v="locality" />
		<tag k="ssr:stedsnr" v="794196" />
	</node>
<<<<<<< HEAD
	<node lat="60.33388888479093" lon="5.704797231659834" id="-25791">
		<tag k="fixme" v="consider natural=peak for the most distinct mountains in the district" />
		<tag k="name" v="Fløyen" />
		<tag k="natural" v="hill" />
=======
	<node id="-629688" lat="60.3344555577" lon="5.60104721649">
		<tag k="name" v="Eikelunden" />
		<tag k="natural" v="slope" />
>>>>>>> e1d4bc35ff8a6074a6f2e91616a996b547c36f15
		<tag k="place" v="locality" />
		<tag k="ssr:stedsnr" v="794198" />
	</node>
<<<<<<< HEAD
	<node lat="60.47107222052167" lon="5.851983335154221" id="-25792">
		<tag k="fixme" v="consider natural=peak for the most distinct mountains in the district" />
		<tag k="name" v="Storafjellet" />
		<tag k="natural" v="hill" />
=======
	<node id="-629687" lat="60.3444833307" lon="5.63477499457">
		<tag k="name" v="Skaret" />
		<tag k="natural" v="valley" />
>>>>>>> e1d4bc35ff8a6074a6f2e91616a996b547c36f15
		<tag k="place" v="locality" />
		<tag k="ssr:stedsnr" v="794338" />
	</node>
<<<<<<< HEAD
	<node lat="60.41900555564005" lon="5.9021138834736755" id="-25793">
		<tag k="fixme" v="consider natural=peak for the most distinct mountains in the district" />
		<tag k="name" v="Grøet" />
=======
	<node id="-629685" lat="60.3639694471" lon="5.75633055968">
		<tag k="name" v="Hovda" />
>>>>>>> e1d4bc35ff8a6074a6f2e91616a996b547c36f15
		<tag k="natural" v="hill" />
		<tag k="place" v="locality" />
		<tag k="ssr:stedsnr" v="794438" />
	</node>
<<<<<<< HEAD
	<node lat="60.40577777447723" lon="5.855002775318057" id="-25794">
		<tag k="name" v="Utløbotnen" />
=======
	<node id="-629684" lat="60.3536694403" lon="5.74314445172">
		<tag k="name" v="Dyråsgjelet" />
>>>>>>> e1d4bc35ff8a6074a6f2e91616a996b547c36f15
		<tag k="natural" v="valley" />
		<tag k="place" v="locality" />
		<tag k="ssr:stedsnr" v="794457" />
	</node>
<<<<<<< HEAD
	<node lat="60.338586108762016" lon="5.614933331279586" id="-25798">
		<tag k="name" v="Øykjadalen" />
=======
	<node id="-629679" lat="60.3630027797" lon="5.64408611075">
		<tag k="name" v="Skreiddalen" />
>>>>>>> e1d4bc35ff8a6074a6f2e91616a996b547c36f15
		<tag k="natural" v="valley" />
		<tag k="place" v="locality" />
		<tag k="ssr:stedsnr" v="818918" />
	</node>
<<<<<<< HEAD
	<node lat="60.397500002457726" lon="5.773538885330302" id="-25800">
		<tag k="name" v="Bolstadhaugen" />
		<tag k="natural" v="hill" />
		<tag k="place" v="locality" />
		<tag k="ssr:stedsnr" v="818260" />
	</node>
	<node lat="60.39992777936751" lon="5.763125006816739" id="-25801">
		<tag k="name" v="Kjerikakulten" />
		<tag k="natural" v="hill" />
=======
	<node id="-629678" lat="60.4496500032" lon="5.84488611856">
		<tag k="name" v="Småtjørnahjellane" />
		<tag k="natural" v="hill" />
		<tag k="place" v="locality" />
		<tag k="ssr:stedsnr" v="274529" />
	</node>
	<node id="-629677" lat="60.4625777809" lon="5.92268332623">
		<tag k="name" v="Neverkleiva" />
		<tag k="natural" v="slope" />
		<tag k="place" v="locality" />
		<tag k="ssr:stedsnr" v="274085" />
	</node>
	<node id="-629675" lat="60.4096777803" lon="5.83443889579">
		<tag k="name" v="Smoget" />
		<tag k="natural" v="valley" />
>>>>>>> e1d4bc35ff8a6074a6f2e91616a996b547c36f15
		<tag k="place" v="locality" />
		<tag k="ssr:stedsnr" v="818261" />
	</node>
<<<<<<< HEAD
	<node lat="60.39568611122657" lon="5.773047229682115" id="-25802">
		<tag k="name" v="Himmelhaugen" />
		<tag k="natural" v="hill" />
=======
	<node id="-629671" lat="60.3684499963" lon="5.66485834018">
		<tag k="name" v="Senabrekka" />
		<tag k="natural" v="slope" />
>>>>>>> e1d4bc35ff8a6074a6f2e91616a996b547c36f15
		<tag k="place" v="locality" />
		<tag k="ssr:stedsnr" v="818825" />
	</node>
<<<<<<< HEAD
	<node lat="60.423799996702435" lon="5.8745166583520145" id="-25803">
		<tag k="fixme" v="consider natural=peak for the most distinct mountains in the district" />
		<tag k="name" v="Skarsrusta" />
		<tag k="natural" v="hill" />
=======
	<node id="-629669" lat="60.3024305592" lon="5.60369722932">
		<tag k="name" v="Revadalen" />
		<tag k="natural" v="valley" />
>>>>>>> e1d4bc35ff8a6074a6f2e91616a996b547c36f15
		<tag k="place" v="locality" />
		<tag k="ssr:stedsnr" v="819393" />
	</node>
<<<<<<< HEAD
	<node lat="60.42005277438261" lon="5.840466673865404" id="-25804">
		<tag k="name" v="Heiabruna" />
=======
	<node id="-629668" lat="60.3482999986" lon="5.62697221792">
		<tag k="name" v="Heiane" />
>>>>>>> e1d4bc35ff8a6074a6f2e91616a996b547c36f15
		<tag k="natural" v="hill" />
		<tag k="place" v="locality" />
		<tag k="ssr:stedsnr" v="819400" />
	</node>
<<<<<<< HEAD
	<node lat="60.403622226322796" lon="5.909877780909769" id="-25808">
		<tag k="name" v="Kråkedalane" />
=======
	<node id="-629662" lat="60.3554833329" lon="5.84723610372">
		<tag k="name" v="Vigrabotnen" />
>>>>>>> e1d4bc35ff8a6074a6f2e91616a996b547c36f15
		<tag k="natural" v="valley" />
		<tag k="place" v="locality" />
		<tag k="ssr:stedsnr" v="819458" />
	</node>
<<<<<<< HEAD
	<node lat="60.438025003799844" lon="5.843272217944954" id="-25813">
		<tag k="fixme" v="consider natural=peak for the most distinct mountains in the district" />
		<tag k="name" v="Storåsen" />
=======
	<node id="-629661" lat="60.3379499999" lon="5.67747221644">
		<tag k="name" v="Skjenet" />
>>>>>>> e1d4bc35ff8a6074a6f2e91616a996b547c36f15
		<tag k="natural" v="hill" />
		<tag k="place" v="locality" />
		<tag k="ssr:stedsnr" v="820982" />
	</node>
<<<<<<< HEAD
	<node lat="60.45002221932962" lon="5.87394167184148" id="-25815">
		<tag k="name" v="Kriken" />
=======
	<node id="-629659" lat="60.3820944443" lon="5.89753889098">
		<tag k="name" v="Storstova" />
>>>>>>> e1d4bc35ff8a6074a6f2e91616a996b547c36f15
		<tag k="natural" v="slope" />
		<tag k="place" v="locality" />
		<tag k="ssr:stedsnr" v="820552" />
	</node>
<<<<<<< HEAD
	<node lat="60.35099166533957" lon="5.880422227548411" id="-25817">
		<tag k="fixme" v="consider natural=peak for the most distinct mountains in the district" />
		<tag k="name" v="Storagrøet" />
		<tag k="natural" v="hill" />
=======
	<node id="-629658" lat="60.4050499977" lon="5.84902222381">
		<tag k="name" v="Fossabrekka" />
		<tag k="natural" v="slope" />
>>>>>>> e1d4bc35ff8a6074a6f2e91616a996b547c36f15
		<tag k="place" v="locality" />
		<tag k="ssr:stedsnr" v="829961" />
	</node>
<<<<<<< HEAD
	<node lat="60.40519166649995" lon="5.689124995441789" id="-25820">
		<tag k="fixme" v="consider natural=peak for the most distinct mountains in the district" />
		<tag k="name" v="Hisdalsfjellet" />
		<tag k="natural" v="hill" />
=======
	<node id="-629657" lat="60.4065416667" lon="5.83877777689">
		<tag k="name" v="Kleivane" />
		<tag k="natural" v="slope" />
>>>>>>> e1d4bc35ff8a6074a6f2e91616a996b547c36f15
		<tag k="place" v="locality" />
		<tag k="ssr:stedsnr" v="855084" />
	</node>
<<<<<<< HEAD
	<node lat="60.350916669441744" lon="5.712988886038049" id="-25822">
		<tag k="name" v="Fluheiane" />
		<tag k="natural" v="hill" />
=======
	<node id="-629656" lat="60.4190333355" lon="5.80888056278">
		<tag k="name" v="Vetlebotnen" />
		<tag k="natural" v="valley" />
>>>>>>> e1d4bc35ff8a6074a6f2e91616a996b547c36f15
		<tag k="place" v="locality" />
		<tag k="ssr:stedsnr" v="848036" />
	</node>
	<node lat="60.35099722358921" lon="5.710758330168681" id="-25823">
		<tag k="name" v="Saualego" />
		<tag k="place" v="locality" />
		<tag k="ssr:stedsnr" v="848041" />
	</node>
<<<<<<< HEAD
	<node lat="60.47780555832452" lon="5.9499833285018875" id="-25830">
=======
	<node id="-629655" lat="60.5157194432" lon="5.96252499773">
>>>>>>> e1d4bc35ff8a6074a6f2e91616a996b547c36f15
		<tag k="fixme" v="consider natural=peak for the most distinct mountains in the district" />
		<tag k="name" v="Trollskarnuten" />
		<tag k="natural" v="hill" />
		<tag k="place" v="locality" />
		<tag k="ssr:stedsnr" v="855363" />
	</node>
<<<<<<< HEAD
	<node lat="60.38358611370938" lon="5.846655561553185" id="-25831">
=======
	<node id="-629653" lat="60.3941888849" lon="5.85420555858">
>>>>>>> e1d4bc35ff8a6074a6f2e91616a996b547c36f15
		<tag k="fixme" v="consider natural=peak for the most distinct mountains in the district" />
		<tag k="name" v="Bergsenden" />
		<tag k="natural" v="hill" />
		<tag k="place" v="locality" />
		<tag k="ssr:stedsnr" v="855733" />
	</node>
<<<<<<< HEAD
	<node lat="60.41028889106086" lon="5.786711118215142" id="-25837">
		<tag k="name" v="Gaupeskaret" />
		<tag k="natural" v="valley" />
		<tag k="place" v="locality" />
		<tag k="ssr:stedsnr" v="879190" />
	</node>
	<node lat="60.313869444392246" lon="5.601661116234495" id="-25839">
		<tag k="name" v="Høgehaugen" />
=======
	<node id="-629650" lat="60.3916444418" lon="5.88233055776">
		<tag k="fixme" v="consider natural=peak for the most distinct mountains in the district" />
		<tag k="name" v="Børdalsfjellet" />
>>>>>>> e1d4bc35ff8a6074a6f2e91616a996b547c36f15
		<tag k="natural" v="hill" />
		<tag k="place" v="locality" />
		<tag k="ssr:stedsnr" v="879571" />
	</node>
<<<<<<< HEAD
	<node lat="60.38003610695611" lon="5.774724992201013" id="-25840">
=======
	<node id="-629649" lat="60.405997226" lon="5.89773055308">
>>>>>>> e1d4bc35ff8a6074a6f2e91616a996b547c36f15
		<tag k="fixme" v="consider natural=peak for the most distinct mountains in the district" />
		<tag k="name" v="Kampen" />
		<tag k="natural" v="hill" />
		<tag k="place" v="locality" />
<<<<<<< HEAD
		<tag k="ssr:stedsnr" v="880247" />
	</node>
	<node lat="60.41683610699858" lon="5.822794448546567" id="-25841">
		<tag k="name" v="Dalahaugen" />
		<tag k="natural" v="ridge" />
=======
		<tag k="ssr:stedsnr" v="248433" />
	</node>
	<node id="-629647" lat="60.4271194484" lon="5.84862777212">
		<tag k="name" v="Tøgjelet" />
		<tag k="natural" v="gorge" />
		<tag k="ssr:stedsnr" v="248402" />
	</node>
	<node id="-629643" lat="60.4816166689" lon="5.91558054928">
		<tag k="name" v="Holegjelet" />
		<tag k="natural" v="valley" />
>>>>>>> e1d4bc35ff8a6074a6f2e91616a996b547c36f15
		<tag k="place" v="locality" />
		<tag k="ssr:stedsnr" v="880292" />
	</node>
<<<<<<< HEAD
	<node lat="60.41716666708918" lon="5.802408341318337" id="-25842">
		<tag k="name" v="Kjørslehaugen" />
=======
	<node id="-629641" lat="60.3292111107" lon="5.80036944692">
		<tag k="fixme" v="consider natural=peak for the most distinct mountains in the district" />
		<tag k="name" v="Trælen" />
>>>>>>> e1d4bc35ff8a6074a6f2e91616a996b547c36f15
		<tag k="natural" v="hill" />
		<tag k="place" v="locality" />
		<tag k="ssr:stedsnr" v="880484" />
	</node>
<<<<<<< HEAD
	<node lat="60.38020277380175" lon="5.840549993654569" id="-25845">
		<tag k="name" v="Liarosnova" />
=======
	<node id="-629635" lat="60.43133889" lon="5.82737499524">
		<tag k="name" v="Helleberget" />
>>>>>>> e1d4bc35ff8a6074a6f2e91616a996b547c36f15
		<tag k="natural" v="hill" />
		<tag k="place" v="locality" />
		<tag k="ssr:stedsnr" v="940527" />
	</node>
<<<<<<< HEAD
	<node lat="60.38930555847567" lon="5.77451666545306" id="-25846">
		<tag k="name" v="Haugane" />
=======
	<node id="-629631" lat="60.3863638882" lon="5.77521388621">
		<tag k="name" v="Raudskolten" />
>>>>>>> e1d4bc35ff8a6074a6f2e91616a996b547c36f15
		<tag k="natural" v="hill" />
		<tag k="place" v="locality" />
		<tag k="ssr:stedsnr" v="941208" />
	</node>
<<<<<<< HEAD
	<node lat="60.41914722329286" lon="5.847588893427889" id="-25847">
		<tag k="name" v="Storhoggene" />
		<tag k="natural" v="slope" />
		<tag k="place" v="locality" />
		<tag k="ssr:stedsnr" v="941239" />
	</node>
	<node lat="60.42400833372439" lon="5.838480558559997" id="-25848">
		<tag k="name" v="Vardabrotet" />
=======
	<node id="-629628" lat="60.3589194474" lon="5.76049165913">
		<tag k="fixme" v="consider natural=peak for the most distinct mountains in the district" />
		<tag k="name" v="Skaråsen" />
>>>>>>> e1d4bc35ff8a6074a6f2e91616a996b547c36f15
		<tag k="natural" v="hill" />
		<tag k="place" v="locality" />
		<tag k="ssr:stedsnr" v="941353" />
	</node>
<<<<<<< HEAD
	<node lat="60.39503610814073" lon="5.845022222541573" id="-25851">
		<tag k="name" v="Tømmerskarshaugen" />
=======
	<node id="-629625" lat="60.3624972196" lon="5.77354166513">
		<tag k="name" v="Bjørkhilderhaugen" />
>>>>>>> e1d4bc35ff8a6074a6f2e91616a996b547c36f15
		<tag k="natural" v="hill" />
		<tag k="place" v="locality" />
		<tag k="ssr:stedsnr" v="941411" />
	</node>
<<<<<<< HEAD
	<node lat="60.453488884802915" lon="5.8809305552667634" id="-25852">
		<tag k="name" v="Veståslia" />
		<tag k="natural" v="slope" />
=======
	<node id="-629624" lat="60.3437083347" lon="5.81352778248">
		<tag k="name" v="Kvanndalsgjelet" />
		<tag k="natural" v="valley" />
>>>>>>> e1d4bc35ff8a6074a6f2e91616a996b547c36f15
		<tag k="place" v="locality" />
		<tag k="ssr:stedsnr" v="941941" />
	</node>
<<<<<<< HEAD
	<node lat="60.43713333635065" lon="5.829802777276484" id="-25853">
		<tag k="name" v="Ospelia" />
		<tag k="natural" v="slope" />
=======
	<node id="-629622" lat="60.3352972191" lon="5.66913333916">
		<tag k="name" v="Barlindehaugen" />
		<tag k="natural" v="hill" />
>>>>>>> e1d4bc35ff8a6074a6f2e91616a996b547c36f15
		<tag k="place" v="locality" />
		<tag k="ssr:stedsnr" v="941954" />
	</node>
<<<<<<< HEAD
	<node lat="60.368947220427586" lon="5.826591672639681" id="-25855">
		<tag k="name" v="Tørrnakken" />
=======
	<node id="-629615" lat="60.3565166681" lon="5.88497221959">
		<tag k="name" v="Alsheller" />
>>>>>>> e1d4bc35ff8a6074a6f2e91616a996b547c36f15
		<tag k="place" v="locality" />
		<tag k="ssr:stedsnr" v="950963" />
	</node>
<<<<<<< HEAD
	<node lat="60.33873610705628" lon="5.702913886427491" id="-25858">
		<tag k="name" v="Stemmedalen" />
=======
	<node id="-629614" lat="60.3629083315" lon="5.84200278422">
		<tag k="name" v="Krærna" />
>>>>>>> e1d4bc35ff8a6074a6f2e91616a996b547c36f15
		<tag k="natural" v="valley" />
		<tag k="place" v="locality" />
		<tag k="ssr:stedsnr" v="965022" />
	</node>
</osm>
