<?xml version="1.0" encoding="UTF-8"?>
<osm version="0.6" generator="osmapis">
	<node lat="60.37380277786963" lon="5.760330563480158" id="-74043">
		<tag k="name" v="Tysseelva" />
		<tag k="ssr:stedsnr" v="66148" />
		<tag k="waterway" v="river" />
	</node>
	<node lat="60.44069444250312" lon="5.851338887436296" id="-74061">
		<tag k="name" v="Nausttangen" />
		<tag k="natural" v="cape" />
		<tag k="ssr:stedsnr" v="92968" />
	</node>
	<node lat="60.43966111004955" lon="5.850147225879163" id="-74062">
		<tag k="name" v="Vetlåsneset" />
		<tag k="natural" v="cape" />
		<tag k="ssr:stedsnr" v="92969" />
	</node>
	<node lat="60.333338886648285" lon="5.7251222309625" id="-74070">
		<tag k="name" v="Heimsta Brunetjørna" />
		<tag k="natural" v="water" />
		<tag k="ssr:stedsnr" v="237002" />
		<tag k="water" v="pond" />
	</node>
	<node lat="60.34599195906522" lon="5.71473913657786" id="-74074">
		<tag k="name" v="Utløhaugtjørni" />
		<tag k="natural" v="water" />
		<tag k="ssr:stedsnr" v="237024" />
	</node>
	<node lat="60.34809444623668" lon="5.715752782323295" id="-74075">
		<tag k="name" v="Skorvena" />
		<tag k="ssr:stedsnr" v="237028" />
		<tag k="waterway" v="stream" />
	</node>
	<node lat="60.33808888682706" lon="5.711416669429461" id="-74076">
		<tag k="name" v="Grytena" />
		<tag k="place" v="islet" />
		<tag k="ssr:stedsnr" v="237033" />
	</node>
	<node lat="60.394322847061986" lon="5.647286198022496" id="-74081">
		<tag k="name" v="Måsatjørna" />
		<tag k="natural" v="water" />
		<tag k="ssr:stedsnr" v="126102" />
	</node>
	<node lat="60.29404994340139" lon="5.583551928486313" id="-74085">
		<tag k="name" v="Sætertjørna" />
		<tag k="natural" v="water" />
		<tag k="ssr:stedsnr" v="126254" />
	</node>
	<node lat="60.41288611038433" lon="5.861330548623291" id="-74087">
		<tag k="name" v="Lonatjørna" />
		<tag k="natural" v="water" />
		<tag k="ssr:stedsnr" v="126441" />
	</node>
	<node lat="60.40788501042926" lon="5.854472946150017" id="-74088">
		<tag k="name" v="Smistabbatjørna" />
		<tag k="natural" v="water" />
		<tag k="ssr:stedsnr" v="126442" />
	</node>
	<node lat="60.48681424365026" lon="5.899988630696805" id="-74091">
		<tag k="name" v="Kvanngrøtjørna" />
		<tag k="natural" v="water" />
		<tag k="ssr:stedsnr" v="127346" />
	</node>
	<node lat="60.34689444889581" lon="5.693136114230441" id="-74108">
		<tag k="name" v="Øpstebøelva" />
		<tag k="ssr:stedsnr" v="176105" />
		<tag k="waterway" v="stream" />
	</node>
	<node lat="60.39766185475888" lon="5.888785525518434" id="-74109">
		<tag k="name" v="Setratjørna" />
		<tag k="natural" v="water" />
		<tag k="ssr:stedsnr" v="248753" />
	</node>
	<node lat="60.38349167078655" lon="5.665552779702916" id="-74115">
		<tag k="name" v="Storelva" />
		<tag k="ssr:stedsnr" v="249582" />
		<tag k="waterway" v="river" />
	</node>
	<node lat="60.29808238617633" lon="5.583770742115354" id="-74122">
		<tag k="name" v="Botnavatnet" />
		<tag k="natural" v="water" />
		<tag k="ssr:stedsnr" v="187271" />
	</node>
	<node lat="60.440100117913794" lon="5.894395412724019" id="-74123">
		<tag k="name" v="Kvanndalsvatnet" />
		<tag k="natural" v="water" />
		<tag k="ssr:stedsnr" v="187403" />
		<tag k="water" v="lake" />
	</node>
	<node lat="60.36279166945476" lon="5.890866672498452" id="-74125">
		<tag k="name" v="Stutabottselva" />
		<tag k="ssr:stedsnr" v="187626" />
		<tag k="waterway" v="stream" />
	</node>
	<node lat="60.381058330706004" lon="5.88556110731513" id="-74126">
		<tag k="name" v="Fossen bratte" />
		<tag k="natural" v="waterfall" />
		<tag k="ssr:stedsnr" v="187681" />
	</node>
	<node lat="60.401808071873816" lon="5.831637243413698" id="-74133">
		<tag k="name" v="Svartatjørna" />
		<tag k="natural" v="water" />
		<tag k="ssr:stedsnr" v="212494" />
	</node>
	<node lat="60.46508888680043" lon="5.890500002352188" id="-74135">
		<tag k="name" v="Stølabekken" />
		<tag k="ssr:stedsnr" v="213101" />
		<tag k="waterway" v="stream" />
	</node>
	<node lat="60.444408330796215" lon="5.833041663536215" id="-74140">
		<tag k="name" v="Svartabergstjørna" />
		<tag k="natural" v="water" />
		<tag k="ssr:stedsnr" v="213594" />
	</node>
	<node lat="60.36328888826265" lon="5.82141111595892" id="-74141">
		<tag k="name" v="Tverrelvi" />
		<tag k="ssr:stedsnr" v="222948" />
		<tag k="waterway" v="stream" />
	</node>
	<node lat="60.327716666806396" lon="5.69125277907958" id="-74145">
		<tag k="name" v="Rømmaholken" />
		<tag k="natural" v="cape" />
		<tag k="ssr:stedsnr" v="479129" />
	</node>
	<node lat="60.491380555280095" lon="5.948344444743081" id="-74148">
		<tag k="name" v="Lonane" />
		<tag k="place" v="locality" />
		<tag k="ssr:stedsnr" v="248300" />
	</node>
	<node lat="60.43661446230913" lon="5.849085879932196" id="-74150">
		<tag k="name" v="Grønsdalsvatnet" />
		<tag k="natural" v="water" />
		<tag k="ssr:stedsnr" v="248415" />
		<tag k="water" v="lake" />
	</node>
	<node lat="60.473480558038645" lon="5.896947225105503" id="-74152">
		<tag k="name" v="Fonnabekken" />
		<tag k="ssr:stedsnr" v="248340" />
		<tag k="waterway" v="stream" />
	</node>
	<node lat="60.47684722159137" lon="5.89007778571108" id="-74153">
		<tag k="name" v="Klungerdalsvatnet" />
		<tag k="natural" v="water" />
		<tag k="ssr:stedsnr" v="248342" />
	</node>
	<node lat="60.36342947087833" lon="5.910115621784676" id="-74156">
		<tag k="name" v="Langatjørna" />
		<tag k="natural" v="water" />
		<tag k="ssr:stedsnr" v="248672" />
	</node>
	<node lat="60.40639444268861" lon="5.79115277705938" id="-74161">
		<tag k="name" v="Kvernelva" />
		<tag k="ssr:stedsnr" v="272196" />
		<tag k="waterway" v="river" />
	</node>
	<node lat="60.34283588535748" lon="5.591937309255312" id="-74163">
		<tag k="name" v="Vetlabrekkvatnet" />
		<tag k="natural" v="water" />
		<tag k="ssr:stedsnr" v="272897" />
		<tag k="water" v="lake" />
	</node>
	<node lat="60.394925840059784" lon="5.6821122682008784" id="-74165">
		<tag k="name" v="Midttjørna" />
		<tag k="natural" v="water" />
		<tag k="ssr:stedsnr" v="272990" />
	</node>
	<node lat="60.35301723337466" lon="5.605489593319233" id="-74170">
		<tag k="name" v="Stora Brekkevatnet" />
		<tag k="natural" v="water" />
		<tag k="ssr:stedsnr" v="453653" />
		<tag k="water" v="lake" />
	</node>
	<node lat="60.322441941268615" lon="5.6176790809823345" id="-74188">
		<tag k="name" v="Vetlavatnet" />
		<tag k="natural" v="water" />
		<tag k="ssr:stedsnr" v="309254" />
	</node>
	<node lat="60.45363611169999" lon="5.875641671862858" id="-74193">
		<tag k="name" v="Storholmen" />
		<tag k="place" v="islet" />
		<tag k="ssr:stedsnr" v="456548" />
	</node>
	<node lat="60.43632499915833" lon="5.851311115992793" id="-74195">
		<tag k="name" v="Klentangen" />
		<tag k="natural" v="cape" />
		<tag k="ssr:stedsnr" v="456965" />
	</node>
	<node lat="60.39923611354569" lon="5.68023332686084" id="-74207">
		<tag k="name" v="Dalaelva" />
		<tag k="ssr:stedsnr" v="369077" />
		<tag k="waterway" v="stream" />
	</node>
	<node lat="60.389158337902025" lon="5.89781111475808" id="-74218">
		<tag k="name" v="Storebekken" />
		<tag k="ssr:stedsnr" v="369675" />
		<tag k="waterway" v="stream" />
	</node>
	<node lat="60.460699997479345" lon="5.89661110694211" id="-74227">
		<tag k="name" v="Halsen" />
		<tag k="natural" v="cape" />
		<tag k="ssr:stedsnr" v="395104" />
	</node>
	<node lat="60.341049997640276" lon="5.723058328041759" id="-74231">
		<tag k="name" v="Geitalibekken" />
		<tag k="ssr:stedsnr" v="419030" />
		<tag k="waterway" v="stream" />
	</node>
	<node lat="60.3328333327132" lon="5.705463889456331" id="-74233">
		<tag k="name" v="Svartetjørna" />
		<tag k="natural" v="water" />
		<tag k="ssr:stedsnr" v="419037" />
	</node>
	<node lat="60.360987509465836" lon="5.72913744805989" id="-74238">
		<tag k="name" v="Setratjørnane" />
		<tag k="natural" v="water" />
		<tag k="ssr:stedsnr" v="430170" />
		<tag k="water" v="lake" />
	</node>
	<node lat="60.45880277458427" lon="5.95591667102169" id="-74243">
		<tag k="name" v="Fagerdalsvatnet" />
		<tag k="natural" v="water" />
		<tag k="ssr:stedsnr" v="430383" />
	</node>
	<node lat="60.32456264132802" lon="5.710097553402467" id="-74246">
		<tag k="name" v="Stussvatnet" />
		<tag k="natural" v="water" />
		<tag k="ssr:stedsnr" v="431251" />
	</node>
	<node lat="60.33447778140045" lon="5.677183332340372" id="-74247">
		<tag k="name" v="Storavatnet" />
		<tag k="natural" v="water" />
		<tag k="ssr:stedsnr" v="479123" />
	</node>
	<node lat="60.32942221906333" lon="5.690944440217692" id="-74248">
		<tag k="name" v="Loggneset" />
		<tag k="natural" v="cape" />
		<tag k="ssr:stedsnr" v="479126" />
	</node>
	<node lat="60.476694449078884" lon="5.9136250071319365" id="-74258">
		<tag k="name" v="Holebekken" />
		<tag k="ssr:stedsnr" v="456115" />
		<tag k="waterway" v="stream" />
	</node>
	<node lat="60.36644722007779" lon="5.748230555230522" id="-74262">
		<tag k="name" v="Stølaelvi" />
		<tag k="ssr:stedsnr" v="483069" />
		<tag k="waterway" v="stream" />
	</node>
	<node lat="60.461484770148324" lon="5.797286357796224" id="-74264">
		<tag k="name" v="Fossatjørna" />
		<tag k="natural" v="water" />
		<tag k="ssr:stedsnr" v="490015" />
	</node>
	<node lat="60.33355833393577" lon="5.596316665308948" id="-74269">
		<tag k="name" v="Eikelundsbekken" />
		<tag k="ssr:stedsnr" v="491203" />
		<tag k="waterway" v="stream" />
	</node>
	<node lat="60.43537050860154" lon="5.710627362428268" id="-74272">
		<tag k="name" v="Krokvatnet" />
		<tag k="natural" v="water" />
		<tag k="ssr:stedsnr" v="672054" />
	</node>
	<node lat="60.47750277323582" lon="5.928494439008925" id="-74276">
		<tag k="name" v="Dukafossen" />
		<tag k="natural" v="waterfall" />
		<tag k="ssr:stedsnr" v="672337" />
	</node>
	<node lat="60.44868611298511" lon="5.885097227280561" id="-74280">
		<tag k="name" v="Breivika" />
		<tag k="natural" v="bay" />
		<tag k="ssr:stedsnr" v="672357" />
	</node>
	<node lat="60.32455498303742" lon="5.69347675347825" id="-74294">
		<tag k="alt_name" v="Sævlavatnet" />
		<tag k="name" v="Sævellavatnet" />
		<tag k="natural" v="water" />
		<tag k="ssr:stedsnr" v="673246" />
		<tag k="water" v="lake" />
	</node>
	<node lat="60.50567040424054" lon="5.952798945322163" id="-74303">
		<tag k="name" v="Gulltjørna" />
		<tag k="natural" v="water" />
		<tag k="ssr:stedsnr" v="674976" />
	</node>
	<node lat="60.34467778039216" lon="5.686380553716158" id="-74307">
		<tag k="name" v="Djuvvikelva" />
		<tag k="ssr:stedsnr" v="540112" />
		<tag k="waterway" v="stream" />
	</node>
	<node lat="60.349001762876604" lon="5.715175859820726" id="-74309">
		<tag k="name" v="Skorvetjørni" />
		<tag k="natural" v="water" />
		<tag k="ssr:stedsnr" v="544034" />
	</node>
	<node lat="60.42922907038952" lon="5.734622841447035" id="-74313">
		<tag k="name" v="Slåttetjørna" />
		<tag k="natural" v="water" />
		<tag k="ssr:stedsnr" v="551062" />
	</node>
	<node lat="60.4450611116388" lon="5.8949611040391945" id="-74318">
		<tag k="name" v="Kvanndalselva" />
		<tag k="ssr:stedsnr" v="551399" />
		<tag k="waterway" v="river" />
	</node>
	<node lat="60.45536376877409" lon="5.824061008068801" id="-74330">
		<tag k="name" v="Kløvsteinstjørna" />
		<tag k="natural" v="water" />
		<tag k="ssr:stedsnr" v="577618" />
	</node>
	<node lat="60.32475939873532" lon="5.766884200842757" id="-74333">
		<tag k="name" v="Svartatjørni" />
		<tag k="natural" v="water" />
		<tag k="ssr:stedsnr" v="583664" />
	</node>
	<node lat="60.341220080036585" lon="5.711941982092544" id="-74346">
		<tag k="name" v="Stemmevatnet" />
		<tag k="natural" v="water" />
		<tag k="ssr:stedsnr" v="612241" />
	</node>
	<node lat="60.42783055289862" lon="5.822333341307101" id="-74355">
		<tag k="name" v="Matsekkelva" />
		<tag k="ssr:stedsnr" v="637408" />
		<tag k="waterway" v="river" />
	</node>
	<node lat="60.439836355220486" lon="5.908514187564592" id="-74377">
		<tag k="name" v="Gamlafetelva" />
		<tag k="ssr:stedsnr" v="672412" />
		<tag k="waterway" v="river" />
	</node>
	<node lat="60.43084162088179" lon="5.711798517876013" id="-74379">
		<tag k="name" v="Lomsvatnet" />
		<tag k="natural" v="water" />
		<tag k="ssr:stedsnr" v="673064" />
	</node>
	<node lat="60.33546111093402" lon="5.92569722393849" id="-74383">
		<tag k="name" v="Krokvatnet" />
		<tag k="natural" v="water" />
		<tag k="ssr:stedsnr" v="673562" />
		<tag k="water" v="lake" />
	</node>
	<node lat="60.37435648456027" lon="5.67417018569343" id="-74390">
		<tag k="name" v="Skarselva" />
		<tag k="ssr:stedsnr" v="696978" />
		<tag k="waterway" v="river" />
	</node>
	<node lat="60.41003114269679" lon="5.731478711585389" id="-74403">
		<tag k="name" v="Nordvikavatnet" />
		<tag k="natural" v="water" />
		<tag k="ssr:stedsnr" v="733103" />
	</node>
	<node lat="60.435813890256924" lon="5.725916659158753" id="-74404">
		<tag k="alt_name" v="Bjørkerindtjørna" />
		<tag k="name" v="Godmortjørnane" />
		<tag k="natural" v="water" />
		<tag k="ssr:stedsnr" v="733064" />
		<tag k="water" v="lake" />
	</node>
	<node lat="60.47508527379672" lon="5.924976839995586" id="-74405">
		<tag k="name" v="Dukabottsvatnet" />
		<tag k="natural" v="water" />
		<tag k="ssr:stedsnr" v="733348" />
		<tag k="water" v="lake" />
	</node>
	<node lat="60.44513710744804" lon="5.910212502652326" id="-74406">
		<tag k="name" v="Tjørnane" />
		<tag k="natural" v="water" />
		<tag k="ssr:stedsnr" v="733355" />
		<tag k="water" v="lake" />
	</node>
	<node lat="60.35058571015551" lon="5.816338703605904" id="-74423">
		<tag k="name" v="Kikedalsvatnet" />
		<tag k="natural" v="water" />
		<tag k="ssr:stedsnr" v="794205" />
	</node>
	<node lat="60.442176492265894" lon="5.937119683792361" id="-74425">
		<tag k="name" v="Røyrfjellstjørna" />
		<tag k="natural" v="water" />
		<tag k="ssr:stedsnr" v="794415" />
	</node>
	<node lat="60.35851944593802" lon="5.805149996909841" id="-74427">
		<tag k="name" v="Haugselva" />
		<tag k="ssr:stedsnr" v="794175" />
		<tag k="waterway" v="stream" />
	</node>
	<node lat="60.35045729119445" lon="5.636508171978222" id="-74429">
		<tag k="name" v="Sagavatnet" />
		<tag k="natural" v="water" />
		<tag k="ssr:stedsnr" v="794189" />
	</node>
	<node lat="60.49101111024336" lon="5.893741675016546" id="-74430">
		<tag k="name" v="Vestelva" />
		<tag k="ssr:stedsnr" v="794315" />
		<tag k="waterway" v="stream" />
	</node>
	<node lat="60.4667305519416" lon="5.889983326342424" id="-74433">
		<tag k="name" v="Kloppabekken" />
		<tag k="ssr:stedsnr" v="794319" />
		<tag k="waterway" v="stream" />
	</node>
	<node lat="60.45715833246259" lon="5.874836105556179" id="-74435">
		<tag k="name" v="Ytstebekken" />
		<tag k="ssr:stedsnr" v="794373" />
		<tag k="waterway" v="stream" />
	</node>
	<node lat="60.38782500050133" lon="5.84839166390448" id="-74441">
		<tag k="name" v="Verkafossen" />
		<tag k="natural" v="waterfall" />
		<tag k="ssr:stedsnr" v="907425" />
	</node>
	<node lat="60.34205278115792" lon="5.689602779110406" id="-74451">
		<tag k="name" v="Borddalstjørna" />
		<tag k="natural" v="water" />
		<tag k="ssr:stedsnr" v="844086" />
	</node>
	<node lat="60.395675948925174" lon="5.68950135272659" id="-74455">
		<tag k="name" v="Instatjørna" />
		<tag k="natural" v="water" />
		<tag k="ssr:stedsnr" v="855107" />
	</node>
	<node lat="60.497174998800936" lon="5.922005561251819" id="-74469">
		<tag k="name" v="Elvakrokane" />
		<tag k="place" v="locality" />
		<tag k="ssr:stedsnr" v="916338" />
	</node>
	<node lat="60.34509676043949" lon="5.866835882521358" id="-74470">
		<tag k="name" v="Holmavatnet" />
		<tag k="natural" v="water" />
		<tag k="ssr:stedsnr" v="916652" />
		<tag k="water" v="lake" />
	</node>
	<node lat="60.40514999939037" lon="5.833255554695374" id="-74481">
		<tag k="name" v="Svartatjørnsbekken" />
		<tag k="ssr:stedsnr" v="880503" />
		<tag k="waterway" v="stream" />
	</node>
	<node lat="60.36043611187852" lon="5.847302786317129" id="-74483">
		<tag k="name" v="Kvannevikselvi" />
		<tag k="ssr:stedsnr" v="890965" />
		<tag k="waterway" v="river" />
	</node>
	<node lat="60.344061701803625" lon="5.911937702988968" id="-74498">
		<tag k="name" v="Nedsta Botnavatnet" />
		<tag k="natural" v="water" />
		<tag k="ssr:stedsnr" v="916624" />
	</node>
	<node lat="60.50206341047066" lon="5.9606266888382295" id="-74499">
		<tag k="name" v="Nedre Gulltjørna" />
		<tag k="natural" v="water" />
		<tag k="ssr:stedsnr" v="917976" />
	</node>
	<node lat="60.345100004377066" lon="5.718288895175905" id="-74510">
		<tag k="name" v="Setrabekken" />
		<tag k="ssr:stedsnr" v="965039" />
		<tag k="waterway" v="stream" />
	</node>
	<node lat="60.36660321348337" lon="5.584992940114161" id="-74518">
		<tag k="name" v="Gullfjelltjørnane" />
		<tag k="natural" v="water" />
		<tag k="ssr:stedsnr" v="5162" />
		<tag k="water" v="lake" />
	</node>
	<node lat="60.3603029706075" lon="5.76746135248247" id="-74519">
		<tag k="name" v="Smådalsvatnet" />
		<tag k="natural" v="water" />
		<tag k="ssr:stedsnr" v="5182" />
	</node>
	<node lat="60.30120113227902" lon="5.591451833677534" id="-74521">
		<tag k="name" v="Langavatnet" />
		<tag k="natural" v="water" />
		<tag k="ssr:stedsnr" v="5242" />
	</node>
	<node lat="60.463450002321395" lon="5.90746666303857" id="-74528">
		<tag k="name" v="Dukaelva" />
		<tag k="ssr:stedsnr" v="5331" />
		<tag k="waterway" v="stream" />
	</node>
	<node lat="60.381724999074" lon="5.793055552944668" id="-74531">
		<tag k="name" v="Frølandsvatnet" />
		<tag k="natural" v="water" />
		<tag k="ssr:stedsnr" v="6151" />
		<tag k="water" v="lake" />
	</node>
	<node lat="60.48403611236992" lon="5.929930558617682" id="-74532">
		<tag k="name" v="Nedsta Dukavatnet" />
		<tag k="natural" v="water" />
		<tag k="ssr:stedsnr" v="6346" />
		<tag k="water" v="lake" />
	</node>
	<node lat="60.432370967172105" lon="5.799360711803807" id="-74540">
		<tag k="name" v="Kampatjørna" />
		<tag k="natural" v="water" />
		<tag k="ssr:stedsnr" v="30441" />
	</node>
	<node lat="60.42590357219447" lon="5.81285877155545" id="-74541">
		<tag k="name" v="Larstjørna" />
		<tag k="natural" v="water" />
		<tag k="ssr:stedsnr" v="30443" />
	</node>
	<node lat="60.45640277613524" lon="5.884947229972423" id="-74546">
		<tag k="name" v="Neset" />
		<tag k="natural" v="cape" />
		<tag k="ssr:stedsnr" v="31950" />
	</node>
	<node lat="60.34424883328478" lon="5.722693596456627" id="-74553">
		<tag k="name" v="Rundehaugtjørni" />
		<tag k="natural" v="water" />
		<tag k="ssr:stedsnr" v="55026" />
	</node>
	<node lat="60.33175574316924" lon="5.675143053579135" id="-74557">
		<tag k="name" v="Vetlavatnet" />
		<tag k="natural" v="water" />
		<tag k="ssr:stedsnr" v="55104" />
	</node>
	<node lat="60.36766389097887" lon="5.726802781977776" id="-74559">
		<tag k="name" v="Insta Setervikselvi" />
		<tag k="ssr:stedsnr" v="59048" />
		<tag k="waterway" v="stream" />
	</node>
	<node lat="60.445208229185724" lon="5.777331806869072" id="-74560">
		<tag k="name" v="Øyskrøvatnet" />
		<tag k="natural" v="water" />
		<tag k="ssr:stedsnr" v="66037" />
	</node>
	<node lat="60.47051389270052" lon="5.914213890855331" id="-74566">
		<tag k="name" v="Lavransfossen" />
		<tag k="natural" v="waterfall" />
		<tag k="ssr:stedsnr" v="66339" />
	</node>
	<node lat="60.4266264214219" lon="5.709731023464687" id="-74567">
		<tag k="name" v="Kalivatnet" />
		<tag k="natural" v="water" />
		<tag k="ssr:stedsnr" v="66063" />
	</node>
	<node lat="60.42573610860994" lon="5.688722229497595" id="-74568">
		<tag k="name" v="Holmavatnet" />
		<tag k="natural" v="water" />
		<tag k="ssr:stedsnr" v="66064" />
		<tag k="water" v="lake" />
	</node>
	<node lat="60.34435850098272" lon="5.921639884745509" id="-74570">
		<tag k="name" v="Botnavatnet" />
		<tag k="natural" v="water" />
		<tag k="ssr:stedsnr" v="66566" />
	</node>
	<node lat="60.40572222329239" lon="5.830747230560128" id="-74583">
		<tag k="name" v="Smogabekken" />
		<tag k="ssr:stedsnr" v="91453" />
		<tag k="waterway" v="stream" />
	</node>
	<node lat="60.35726389192481" lon="5.814188888769033" id="-74590">
		<tag k="name" v="Kikedalselvi" />
		<tag k="ssr:stedsnr" v="119043" />
		<tag k="waterway" v="river" />
	</node>
	<node lat="60.42319055432599" lon="5.821042196624141" id="-74592">
		<tag k="name" v="Fiskevatnet" />
		<tag k="natural" v="water" />
		<tag k="ssr:stedsnr" v="126073" />
		<tag k="water" v="lake" />
	</node>
	<node lat="60.49453610831245" lon="5.963049996446866" id="-74599">
		<tag k="name" v="Øvsta Dukavatnet" />
		<tag k="natural" v="water" />
		<tag k="ssr:stedsnr" v="127335" />
		<tag k="water" v="lake" />
	</node>
	<node lat="60.49053333320459" lon="5.903313887568098" id="-74601">
		<tag k="name" v="Hytteelva" />
		<tag k="ssr:stedsnr" v="127370" />
		<tag k="waterway" v="stream" />
	</node>
	<node lat="60.3942603647527" lon="5.696485074393026" id="-74605">
		<tag k="name" v="Raunekleivtjørna" />
		<tag k="natural" v="water" />
		<tag k="ssr:stedsnr" v="150980" />
	</node>
	<node lat="60.34748610726008" lon="5.710580557450989" id="-74612">
		<tag k="name" v="Gamlasetertjørni" />
		<tag k="natural" v="water" />
		<tag k="ssr:stedsnr" v="176027" />
	</node>
	<node lat="60.34255278054971" lon="5.717450008257201" id="-74613">
		<tag k="name" v="Geitaliholmen" />
		<tag k="place" v="islet" />
		<tag k="ssr:stedsnr" v="176029" />
	</node>
	<node lat="60.34038333410013" lon="5.710247220149852" id="-74615">
		<tag k="name" v="Kvalen" />
		<tag k="place" v="islet" />
		<tag k="ssr:stedsnr" v="176033" />
	</node>
	<node lat="60.42979999802104" lon="5.753086103260384" id="-74623">
		<tag k="name" v="Fitjavatnet" />
		<tag k="natural" v="water" />
		<tag k="ssr:stedsnr" v="187039" />
		<tag k="water" v="lake" />
	</node>
	<node lat="60.45793863027363" lon="5.807583712023852" id="-74625">
		<tag k="name" v="Rossatjørna" />
		<tag k="natural" v="water" />
		<tag k="ssr:stedsnr" v="187018" />
	</node>
	<node lat="60.427931020537564" lon="5.7247187934818164" id="-74628">
		<tag k="name" v="Instatjørna" />
		<tag k="natural" v="water" />
		<tag k="ssr:stedsnr" v="187063" />
	</node>
	<node lat="60.46147714756254" lon="5.95463078802446" id="-74631">
		<tag k="name" v="Fagerdalstjørna" />
		<tag k="natural" v="water" />
		<tag k="ssr:stedsnr" v="187363" />
	</node>
	<node lat="60.454201299763554" lon="5.878885881244623" id="-74632">
		<tag k="name" v="Kleivavatnet" />
		<tag k="natural" v="water" />
		<tag k="ssr:stedsnr" v="187367" />
		<tag k="water" v="lake" />
	</node>
	<node lat="60.366474996591286" lon="5.817980563756475" id="-74660">
		<tag k="name" v="Jarlandselva" />
		<tag k="ssr:stedsnr" v="273374" />
		<tag k="waterway" v="river" />
	</node>
	<node lat="60.434042400816296" lon="5.828510184577216" id="-74661">
		<tag k="name" v="Setratjørna" />
		<tag k="natural" v="water" />
		<tag k="ssr:stedsnr" v="273435" />
	</node>
	<node lat="60.439686111121546" lon="5.8603888832313205" id="-74664">
		<tag k="name" v="Vikane" />
		<tag k="natural" v="bay" />
		<tag k="ssr:stedsnr" v="274949" />
	</node>
	<node lat="60.35354791367016" lon="5.740033189641742" id="-74665">
		<tag k="name" v="Kollstegtjørna" />
		<tag k="natural" v="water" />
		<tag k="ssr:stedsnr" v="280673" />
	</node>
	<node lat="60.363755272713696" lon="5.782434400223799" id="-74669">
		<tag k="name" v="Stemmetjørnane" />
		<tag k="natural" v="water" />
		<tag k="ssr:stedsnr" v="301031" />
		<tag k="water" v="lake" />
	</node>
	<node lat="60.47775853330085" lon="5.982036550052668" id="-74671">
		<tag k="name" v="Trongasmogtjørna" />
		<tag k="natural" v="water" />
		<tag k="ssr:stedsnr" v="308339" />
	</node>
	<node lat="60.33463370059597" lon="5.8791535075092725" id="-74672">
		<tag k="name" v="Bessavatnet" />
		<tag k="natural" v="water" />
		<tag k="ssr:stedsnr" v="308517" />
	</node>
	<node lat="60.372794444943295" lon="5.75530278108063" id="-74674">
		<tag k="name" v="Smådalselva" />
		<tag k="ssr:stedsnr" v="308156" />
		<tag k="waterway" v="river" />
	</node>
	<node lat="60.32699159126622" lon="5.850952204086996" id="-74678">
		<tag k="name" v="Hestaskovatnet" />
		<tag k="natural" v="water" />
		<tag k="ssr:stedsnr" v="308519" />
	</node>
	<node lat="60.38255919210344" lon="5.915728408890697" id="-74679">
		<tag k="name" v="Skiftesberget" />
		<tag k="natural" v="cape" />
		<tag k="ssr:stedsnr" v="308685" />
	</node>
	<node lat="60.38243055737696" lon="5.7087638880556115" id="-74684">
		<tag k="name" v="Kvernesvatnet" />
		<tag k="natural" v="water" />
		<tag k="ssr:stedsnr" v="309173" />
		<tag k="water" v="lake" />
	</node>
	<node lat="60.32996666986317" lon="5.616658324224437" id="-74689">
		<tag k="name" v="Sandelva" />
		<tag k="ssr:stedsnr" v="309236" />
		<tag k="waterway" v="river" />
	</node>
	<node lat="60.39822763311767" lon="5.742705967061394" id="-74701">
		<tag k="name" v="Lauskartjørna" />
		<tag k="natural" v="water" />
		<tag k="ssr:stedsnr" v="332953" />
	</node>
	<node lat="60.44604166915152" lon="5.861913890104034" id="-74704">
		<tag k="name" v="Åritangen" />
		<tag k="natural" v="cape" />
		<tag k="ssr:stedsnr" v="334493" />
	</node>
	<node lat="60.45333333666973" lon="5.908130564301661" id="-74705">
		<tag k="name" v="Matsekken" />
		<tag k="ssr:stedsnr" v="334931" />
		<tag k="waterway" v="stream" />
	</node>
	<node lat="60.45651111489049" lon="5.907444447655557" id="-74706">
		<tag k="name" v="Fossaneset" />
		<tag k="natural" v="cape" />
		<tag k="ssr:stedsnr" v="334941" />
	</node>
	<node lat="60.401637595059576" lon="5.649757132498736" id="-74710">
		<tag k="name" v="Langavatnet" />
		<tag k="natural" v="water" />
		<tag k="ssr:stedsnr" v="369096" />
		<tag k="water" v="lake" />
	</node>
	<node lat="60.40276111315032" lon="5.845911117342252" id="-74712">
		<tag k="name" v="Storelva" />
		<tag k="ssr:stedsnr" v="369418" />
		<tag k="waterway" v="stream" />
	</node>
	<node lat="60.42778370724087" lon="5.934692064842821" id="-74718">
		<tag k="name" v="Skeisskartjørna" />
		<tag k="natural" v="water" />
		<tag k="ssr:stedsnr" v="369367" />
	</node>
	<node lat="60.39455769267143" lon="5.678857538142381" id="-74725">
		<tag k="name" v="Vossatjørna" />
		<tag k="natural" v="water" />
		<tag k="ssr:stedsnr" v="393993" />
	</node>
	<node lat="60.3895944444843" lon="5.840413879862171" id="-74731">
		<tag k="name" v="Mørkhølen" />
		<tag k="place" v="locality" />
		<tag k="ssr:stedsnr" v="394715" />
	</node>
	<node lat="60.45758059232763" lon="5.846109620311654" id="-74743">
		<tag k="name" v="Skoradalstjørna" />
		<tag k="natural" v="water" />
		<tag k="ssr:stedsnr" v="430387" />
	</node>
	<node lat="60.35644722356879" lon="5.856391644932587" id="-74746">
		<tag k="name" v="Kvanneviksvatnet" />
		<tag k="natural" v="water" />
		<tag k="ssr:stedsnr" v="430637" />
	</node>
	<node lat="60.34646111349084" lon="5.722986109788157" id="-74750">
		<tag k="name" v="Setratjørnane" />
		<tag k="natural" v="water" />
		<tag k="ssr:stedsnr" v="661029" />
		<tag k="water" v="lake" />
	</node>
	<node lat="60.46395833423104" lon="5.883636112751505" id="-74762">
		<tag k="name" v="Grøneviksbekken" />
		<tag k="ssr:stedsnr" v="490329" />
		<tag k="waterway" v="stream" />
	</node>
	<node lat="60.45658071124296" lon="5.915842071716649" id="-74765">
		<tag k="name" v="Nedsta Sotabottsvatnet" />
		<tag k="natural" v="water" />
		<tag k="ssr:stedsnr" v="490379" />
		<tag k="water" v="lake" />
	</node>
	<node lat="60.455475002093685" lon="5.898227775272748" id="-74766">
		<tag k="name" v="Kvitingsvatnet" />
		<tag k="natural" v="water" />
		<tag k="ssr:stedsnr" v="490383" />
		<tag k="water" v="lake" />
	</node>
	<node lat="60.386036799893816" lon="5.856488974781425" id="-74767">
		<tag k="name" v="Lona" />
		<tag k="place" v="locality" />
		<tag k="ssr:stedsnr" v="490721" />
	</node>
	<node lat="60.39541389108472" lon="5.799077784354422" id="-74775">
		<tag k="name" v="Storelva" />
		<tag k="ssr:stedsnr" v="492556" />
		<tag k="waterway" v="river" />
	</node>
	<node lat="60.36338889122904" lon="5.659063882891355" id="-74779">
		<tag k="name" v="Øyaelva" />
		<tag k="ssr:stedsnr" v="514633" />
		<tag k="waterway" v="river" />
	</node>
	<node lat="60.37097434975076" lon="5.828269662166229" id="-74791">
		<tag k="name" v="Åsatjørnane" />
		<tag k="natural" v="water" />
		<tag k="ssr:stedsnr" v="516585" />
		<tag k="water" v="lake" />
	</node>
	<node lat="60.32134146345544" lon="5.600326567513051" id="-74806">
		<tag k="name" v="Fossavatnet" />
		<tag k="natural" v="water" />
		<tag k="ssr:stedsnr" v="551249" />
	</node>
	<node lat="60.435416671188264" lon="5.923247229160401" id="-74807">
		<tag k="name" v="Røyrfjellelva" />
		<tag k="ssr:stedsnr" v="551415" />
		<tag k="waterway" v="river" />
	</node>
	<node lat="60.44504610563081" lon="5.743493818941319" id="-74808">
		<tag k="name" v="Futivatnet" />
		<tag k="natural" v="water" />
		<tag k="ssr:stedsnr" v="551039" />
	</node>
	<node lat="60.427089539488215" lon="5.724800117534087" id="-74824">
		<tag k="name" v="Tjørndalstjørnane" />
		<tag k="natural" v="water" />
		<tag k="ssr:stedsnr" v="576279" />
		<tag k="water" v="lake" />
	</node>
	<node lat="60.43443611009107" lon="5.8066861150148394" id="-74829">
		<tag k="name" v="Setraelva" />
		<tag k="ssr:stedsnr" v="576450" />
		<tag k="waterway" v="river" />
	</node>
	<node lat="60.3361920882083" lon="5.706184933701229" id="-74831">
		<tag k="name" v="Lomatjørna" />
		<tag k="natural" v="water" />
		<tag k="ssr:stedsnr" v="601032" />
	</node>
	<node lat="60.31291388561261" lon="5.616049994197059" id="-74844">
		<tag k="fixme" v="multiple name tags, choose one and add the other to alt_name" />
		<tag k="name" v="Rolsvågvatnet;Storavatnet" />
		<tag k="natural" v="water" />
		<tag k="ssr:stedsnr" v="612259" />
	</node>
	<node lat="60.40769999851323" lon="5.822333326017807" id="-74869">
		<tag k="name" v="Svensdalstjørna" />
		<tag k="natural" v="water" />
		<tag k="ssr:stedsnr" v="698461" />
	</node>
	<node lat="60.44663333611444" lon="5.868122225369029" id="-74873">
		<tag k="name" v="Geitabekken" />
		<tag k="ssr:stedsnr" v="699504" />
		<tag k="waterway" v="stream" />
	</node>
	<node lat="60.34201944646714" lon="5.777722213836159" id="-74876">
		<tag k="name" v="Tangatjørnane" />
		<tag k="natural" v="water" />
		<tag k="ssr:stedsnr" v="722087" />
		<tag k="water" v="lake" />
	</node>
	<node lat="60.37206388584119" lon="5.84198055793619" id="-74883">
		<tag k="name" v="Kvannevikselva" />
		<tag k="ssr:stedsnr" v="733167" />
		<tag k="waterway" v="river" />
	</node>
	<node lat="60.45940306799536" lon="5.945987813155155" id="-74884">
		<tag k="name" v="Insta Sotabottsvatnet" />
		<tag k="natural" v="water" />
		<tag k="ssr:stedsnr" v="733368" />
	</node>
	<node lat="60.452930552051406" lon="5.8534250012178495" id="-74885">
		<tag k="name" v="Tverrelva" />
		<tag k="ssr:stedsnr" v="733373" />
		<tag k="waterway" v="river" />
	</node>
	<node lat="60.465524999351935" lon="5.94103610785961" id="-74888">
		<tag k="name" v="Setrabekken" />
		<tag k="ssr:stedsnr" v="733327" />
		<tag k="waterway" v="stream" />
	</node>
	<node lat="60.44115833525272" lon="5.8560583260916985" id="-74907">
		<tag k="name" v="Rotavikneset" />
		<tag k="natural" v="cape" />
		<tag k="ssr:stedsnr" v="759973" />
	</node>
	<node lat="60.343730559082445" lon="5.787994448074334" id="-74910">
		<tag k="name" v="Spongatjørni" />
		<tag k="natural" v="water" />
		<tag k="ssr:stedsnr" v="783056" />
	</node>
	<node lat="60.385880555338844" lon="5.837663880298501" id="-74914">
		<tag k="name" v="Frølandselva" />
		<tag k="ssr:stedsnr" v="794134" />
		<tag k="waterway" v="river" />
	</node>
	<node lat="60.41263498183983" lon="5.8343790915285245" id="-74915">
		<tag k="name" v="Høysetetjørna" />
		<tag k="natural" v="water" />
		<tag k="ssr:stedsnr" v="794095" />
	</node>
	<node lat="60.42864113412842" lon="5.699682436908416" id="-74923">
		<tag k="name" v="Raudvatnet" />
		<tag k="natural" v="water" />
		<tag k="ssr:stedsnr" v="794052" />
	</node>
	<node lat="60.37862487689358" lon="5.684292938423938" id="-74927">
		<tag k="name" v="Skarsvatnet" />
		<tag k="natural" v="water" />
		<tag k="ssr:stedsnr" v="795184" />
	</node>
	<node lat="60.3806341910004" lon="5.654594929329304" id="-74928">
		<tag k="name" v="Nordbøvatnet" />
		<tag k="natural" v="water" />
		<tag k="ssr:stedsnr" v="795186" />
	</node>
	<node lat="60.389492390591364" lon="5.916870052269298" id="-74931">
		<tag k="name" v="Eikedalsvatnet" />
		<tag k="natural" v="water" />
		<tag k="ssr:stedsnr" v="794737" />
		<tag k="water" v="lake" />
	</node>
	<node lat="60.45391944681457" lon="5.885777770757652" id="-74949">
		<tag k="name" v="Kvernaelva" />
		<tag k="ssr:stedsnr" v="820952" />
		<tag k="waterway" v="river" />
	</node>
	<node lat="60.33796705096869" lon="5.6851728379153945" id="-74955">
		<tag k="name" v="Tjørndalstjørna" />
		<tag k="natural" v="water" />
		<tag k="ssr:stedsnr" v="844125" />
	</node>
	<node lat="60.360484058375526" lon="5.705814733159017" id="-74959">
		<tag k="name" v="Kampatjørna" />
		<tag k="natural" v="water" />
		<tag k="ssr:stedsnr" v="855169" />
	</node>
	<node lat="60.43222977982896" lon="5.742382597441891" id="-74960">
		<tag k="name" v="Tronivatnet" />
		<tag k="natural" v="water" />
		<tag k="ssr:stedsnr" v="855039" />
		<tag k="water" v="lake" />
	</node>
	<node lat="60.434723590948735" lon="5.732885956357738" id="-74961">
		<tag k="name" v="Langatjørna" />
		<tag k="natural" v="water" />
		<tag k="ssr:stedsnr" v="855040" />
	</node>
	<node lat="60.327338884403595" lon="5.679669443057768" id="-74963">
		<tag k="name" v="Botnavatnet" />
		<tag k="natural" v="water" />
		<tag k="ssr:stedsnr" v="855229" />
	</node>
	<node lat="60.440272221667996" lon="5.838880550708075" id="-74980">
		<tag k="name" v="Storemyrbekken" />
		<tag k="ssr:stedsnr" v="941977" />
		<tag k="waterway" v="stream" />
	</node>
	<node lat="60.484509153104" lon="5.970963521378778" id="-74987">
		<tag k="name" v="Vestra Trongasmogtjørni" />
		<tag k="natural" v="water" />
		<tag k="ssr:stedsnr" v="991139" />
	</node>
</osm>
