<?xml version="1.0" encoding="UTF-8"?>
<<<<<<< HEAD
<osm version="0.6" generator="osmapis">
	<node lat="60.398538092794" lon="5.679824314077348" id="-24908">
		<tag k="alt_name" v="Hisdalen" />
		<tag k="name" v="Hisdal" />
		<tag k="place" v="hamlet" />
		<tag k="ssr:stedsnr" v="5101" />
	</node>
	<node lat="60.401250000742536" lon="5.728899997165822" id="-24909">
		<tag k="name" v="Bjørkheim" />
=======
<osm generator="osmapis" version="0.6">
	<node id="-629759" lat="60.415183332" lon="5.8438944423">
		<tag k="name" v="Haugen" />
		<tag k="place" v="farm" />
		<tag k="ssr:stedsnr" v="490434" />
	</node>
	<node id="-630270" lat="60.3199439936" lon="5.62608273541">
		<tag k="fixme" v="consider place=hamlet" />
		<tag k="name" v="Rolsvåg" />
		<tag k="place" v="farm" />
		<tag k="ssr:stedsnr" v="188271" />
	</node>
	<node id="-629752" lat="60.4479361113" lon="5.86947777973">
		<tag k="name" v="Steinhushaugen" />
		<tag k="place" v="farm" />
		<tag k="ssr:stedsnr" v="490367" />
	</node>
	<node id="-629749" lat="60.3737329125" lon="5.816649444">
		<tag k="fixme" v="consider place=hamlet" />
		<tag k="name" v="Jarland" />
		<tag k="place" v="farm" />
		<tag k="ssr:stedsnr" v="490180" />
	</node>
	<node id="-629746" lat="60.3742265767" lon="5.80847350116">
		<tag k="fixme" v="consider place=hamlet" />
		<tag k="name" v="Haug" />
		<tag k="place" v="farm" />
		<tag k="ssr:stedsnr" v="490155" />
	</node>
	<node id="-630251" lat="60.3634138888" lon="5.81261111427">
		<tag k="name" v="Holmane" />
		<tag k="place" v="farm" />
		<tag k="ssr:stedsnr" v="187182" />
	</node>
	<node id="-629737" lat="60.3360277755" lon="5.69170833169">
		<tag k="name" v="Liabøen" />
		<tag k="place" v="farm" />
		<tag k="ssr:stedsnr" v="479128" />
	</node>
	<node id="-630248" lat="60.4080805569" lon="5.7690583389">
		<tag k="name" v="Dalane" />
		<tag k="place" v="farm" />
		<tag k="ssr:stedsnr" v="187086" />
	</node>
	<node id="-630226" lat="60.4180055533" lon="5.7557194468">
		<tag k="name" v="Myrland" />
		<tag k="place" v="farm" />
		<tag k="ssr:stedsnr" v="151301" />
	</node>
	<node id="-629712" lat="60.3969333332" lon="5.78626110207">
		<tag k="name" v="Nytveit" />
		<tag k="place" v="farm" />
		<tag k="ssr:stedsnr" v="454254" />
	</node>
	<node id="-630220" lat="60.3301437495" lon="5.69365490567">
		<tag k="fixme" v="consider place=hamlet" />
		<tag k="name" v="Sævell" />
		<tag k="place" v="farm" />
		<tag k="ssr:stedsnr" v="145481" />
	</node>
	<node id="-630209" lat="60.4414951894" lon="5.84768548241">
		<tag k="fixme" v="consider place=hamlet" />
		<tag k="name" v="Grønsdalen" />
		<tag k="place" v="farm" />
		<tag k="ssr:stedsnr" v="126382" />
	</node>
	<node id="-630206" lat="60.3407583331" lon="5.6357527852">
		<tag k="name" v="Austavik" />
>>>>>>> e1d4bc35ff8a6074a6f2e91616a996b547c36f15
		<tag k="place" v="farm" />
		<tag k="ssr:stedsnr" v="5102" />
	</node>
<<<<<<< HEAD
	<node lat="60.4424138869261" lon="5.85517778013828" id="-24925">
		<tag k="historic" v="shieling" />
		<tag k="name" v="Geitastølen" />
		<tag k="place" v="isolated_dwelling" />
		<tag k="ssr:stedsnr" v="31580" />
	</node>
	<node lat="60.38007312917167" lon="5.807987776523839" id="-24940">
		<tag k="fixme" v="consider place=hamlet" />
		<tag k="name" v="Frøland" />
=======
	<node id="-630205" lat="60.3318061892" lon="5.6260277772">
		<tag k="fixme" v="consider place=hamlet" />
		<tag k="name" v="Våga" />
		<tag k="place" v="farm" />
		<tag k="ssr:stedsnr" v="126201" />
	</node>
	<node id="-630204" lat="60.365986755" lon="5.69662179227">
		<tag k="fixme" v="consider place=hamlet" />
		<tag k="name" v="Gaupholm" />
		<tag k="place" v="farm" />
		<tag k="ssr:stedsnr" v="126147" />
	</node>
	<node id="-630201" lat="60.4295388849" lon="5.80832222983">
		<tag k="name" v="Øvrebø" />
>>>>>>> e1d4bc35ff8a6074a6f2e91616a996b547c36f15
		<tag k="place" v="farm" />
		<tag k="ssr:stedsnr" v="66156" />
	</node>
<<<<<<< HEAD
	<node lat="60.405579556841296" lon="5.739092947234834" id="-24941">
=======
	<node id="-630199" lat="60.3764866299" lon="5.65063631282">
>>>>>>> e1d4bc35ff8a6074a6f2e91616a996b547c36f15
		<tag k="fixme" v="consider place=hamlet" />
		<tag k="name" v="Rødne" />
		<tag k="place" v="farm" />
<<<<<<< HEAD
		<tag k="ssr:stedsnr" v="66097" />
	</node>
	<node lat="60.335982421253235" lon="5.657099770119604" id="-24942">
		<tag k="fixme" v="consider place=hamlet" />
		<tag k="name" v="Utskot" />
=======
		<tag k="ssr:stedsnr" v="127158" />
	</node>
	<node id="-629680" lat="60.4425333377" lon="5.9210583329">
		<tag k="historic" v="shieling" />
		<tag k="name" v="Bjørkestølane" />
		<tag k="place" v="locality" />
		<tag k="ssr:stedsnr" v="274695" />
	</node>
	<node id="-629670" lat="60.366580553" lon="5.67968333337">
		<tag k="name" v="Oldervollen" />
>>>>>>> e1d4bc35ff8a6074a6f2e91616a996b547c36f15
		<tag k="place" v="farm" />
		<tag k="ssr:stedsnr" v="66202" />
	</node>
<<<<<<< HEAD
	<node lat="60.35516666680456" lon="5.696552779262019" id="-24952">
		<tag k="name" v="Ytste-Kampen" />
=======
	<node id="-629664" lat="60.3867468813" lon="5.76504619934">
		<tag k="alt_name" v="Indra Haga" />
		<tag k="name" v="Indre Haga" />
>>>>>>> e1d4bc35ff8a6074a6f2e91616a996b547c36f15
		<tag k="place" v="farm" />
		<tag k="ssr:stedsnr" v="90913" />
	</node>
<<<<<<< HEAD
	<node lat="60.3944611096059" lon="5.674300008109437" id="-24962">
		<tag k="name" v="Holdhus" />
=======
	<node id="-630173" lat="60.3518861142" lon="5.66936667441">
		<tag k="name" v="Stykket" />
>>>>>>> e1d4bc35ff8a6074a6f2e91616a996b547c36f15
		<tag k="place" v="farm" />
		<tag k="ssr:stedsnr" v="248099" />
	</node>
<<<<<<< HEAD
	<node lat="60.37692291508582" lon="5.697918752840231" id="-24963">
		<tag k="fixme" v="consider place=hamlet" />
		<tag k="name" v="Øvre-Kvernes" />
=======
	<node id="-630172" lat="60.3551666668" lon="5.69655277926">
		<tag k="name" v="Ytste-Kampen" />
>>>>>>> e1d4bc35ff8a6074a6f2e91616a996b547c36f15
		<tag k="place" v="farm" />
		<tag k="ssr:stedsnr" v="248144" />
	</node>
<<<<<<< HEAD
	<node lat="60.378341391916955" lon="5.69194683214562" id="-24964">
=======
	<node id="-630160" lat="60.2993427225" lon="5.61886894288">
>>>>>>> e1d4bc35ff8a6074a6f2e91616a996b547c36f15
		<tag k="fixme" v="consider place=hamlet" />
		<tag k="name" v="Kleppe" />
		<tag k="place" v="farm" />
		<tag k="ssr:stedsnr" v="248145" />
	</node>
<<<<<<< HEAD
	<node lat="60.45181666706527" lon="5.865313882186422" id="-24966">
=======
	<node id="-629646" lat="60.4518166671" lon="5.86531388219">
>>>>>>> e1d4bc35ff8a6074a6f2e91616a996b547c36f15
		<tag k="name" v="Kleivane" />
		<tag k="place" v="farm" />
		<tag k="ssr:stedsnr" v="248380" />
	</node>
<<<<<<< HEAD
	<node lat="60.3659867550241" lon="5.6966217922652405" id="-24979">
		<tag k="fixme" v="consider place=hamlet" />
		<tag k="name" v="Gaupholm" />
=======
	<node id="-630157" lat="60.3522305564" lon="5.7310555584">
		<tag k="name" v="Fossåsen" />
>>>>>>> e1d4bc35ff8a6074a6f2e91616a996b547c36f15
		<tag k="place" v="farm" />
		<tag k="ssr:stedsnr" v="126147" />
	</node>
<<<<<<< HEAD
	<node lat="60.42953888489841" lon="5.808322229829419" id="-24980">
		<tag k="name" v="Øvrebø" />
=======
	<node id="-630155" lat="60.4055795568" lon="5.73909294723">
		<tag k="fixme" v="consider place=hamlet" />
		<tag k="name" v="Rødne" />
>>>>>>> e1d4bc35ff8a6074a6f2e91616a996b547c36f15
		<tag k="place" v="farm" />
		<tag k="ssr:stedsnr" v="126064" />
	</node>
<<<<<<< HEAD
	<node lat="60.34075833308547" lon="5.635752785195854" id="-24982">
		<tag k="name" v="Austavik" />
		<tag k="place" v="farm" />
		<tag k="ssr:stedsnr" v="126205" />
	</node>
	<node lat="60.33180618917719" lon="5.626027777198412" id="-24983">
=======
	<node id="-630152" lat="60.3800731292" lon="5.80798777652">
		<tag k="fixme" v="consider place=hamlet" />
		<tag k="name" v="Frøland" />
		<tag k="place" v="farm" />
		<tag k="ssr:stedsnr" v="66156" />
	</node>
	<node id="-629638" lat="60.3783413919" lon="5.69194683215">
>>>>>>> e1d4bc35ff8a6074a6f2e91616a996b547c36f15
		<tag k="fixme" v="consider place=hamlet" />
		<tag k="name" v="Våga" />
		<tag k="place" v="farm" />
		<tag k="ssr:stedsnr" v="126201" />
	</node>
<<<<<<< HEAD
	<node lat="60.376486629877604" lon="5.65063631281856" id="-24987">
=======
	<node id="-629637" lat="60.3769229151" lon="5.69791875284">
>>>>>>> e1d4bc35ff8a6074a6f2e91616a996b547c36f15
		<tag k="fixme" v="consider place=hamlet" />
		<tag k="name" v="Trengereid" />
		<tag k="place" v="farm" />
		<tag k="ssr:stedsnr" v="127158" />
	</node>
<<<<<<< HEAD
	<node lat="60.40808055689895" lon="5.769058338896517" id="-24995">
		<tag k="name" v="Dalane" />
=======
	<node id="-629636" lat="60.3944611096" lon="5.67430000811">
		<tag k="name" v="Holdhus" />
>>>>>>> e1d4bc35ff8a6074a6f2e91616a996b547c36f15
		<tag k="place" v="farm" />
		<tag k="ssr:stedsnr" v="187086" />
	</node>
<<<<<<< HEAD
	<node lat="60.31994399363651" lon="5.626082735414263" id="-25002">
		<tag k="fixme" v="consider place=hamlet" />
		<tag k="name" v="Rolsvåg" />
		<tag k="place" v="farm" />
		<tag k="ssr:stedsnr" v="188271" />
	</node>
	<node lat="60.38674688128923" lon="5.765046199343282" id="-25004">
		<tag k="alt_name" v="Indra Haga" />
		<tag k="name" v="Indre Haga" />
=======
	<node id="-629634" lat="60.3359824213" lon="5.65709977012">
		<tag k="fixme" v="consider place=hamlet" />
		<tag k="name" v="Utskot" />
>>>>>>> e1d4bc35ff8a6074a6f2e91616a996b547c36f15
		<tag k="place" v="farm" />
		<tag k="ssr:stedsnr" v="267260" />
	</node>
<<<<<<< HEAD
	<node lat="60.369438889380035" lon="5.747213897737049" id="-25017">
		<tag k="name" v="Indre Barmen" />
=======
	<node id="-629632" lat="60.3830833363" lon="5.65890555792">
		<tag k="name" v="Krossaleitet" />
>>>>>>> e1d4bc35ff8a6074a6f2e91616a996b547c36f15
		<tag k="place" v="farm" />
		<tag k="ssr:stedsnr" v="449300" />
	</node>
<<<<<<< HEAD
	<node lat="60.35396666816015" lon="5.797738897346148" id="-25024">
		<tag k="historic" v="shieling" />
		<tag k="name" v="Haugssetret" />
		<tag k="place" v="isolated_dwelling" />
		<tag k="ssr:stedsnr" v="241035" />
	</node>
	<node lat="60.34780555497613" lon="5.685972214739644" id="-25028">
		<tag k="name" v="Bakke" />
=======
	<node id="-629630" lat="60.3928144261" lon="5.67708278396">
		<tag k="fixme" v="consider place=hamlet" />
		<tag k="name" v="Haugen" />
>>>>>>> e1d4bc35ff8a6074a6f2e91616a996b547c36f15
		<tag k="place" v="farm" />
		<tag k="ssr:stedsnr" v="248209" />
	</node>
<<<<<<< HEAD
	<node lat="60.396933333199776" lon="5.7862611020701005" id="-25036">
		<tag k="name" v="Nytveit" />
=======
	<node id="-629629" lat="60.4005944464" lon="5.75420834011">
		<tag k="alt_name" v="Aldal" />
		<tag k="name" v="Alldalen" />
>>>>>>> e1d4bc35ff8a6074a6f2e91616a996b547c36f15
		<tag k="place" v="farm" />
		<tag k="ssr:stedsnr" v="454254" />
	</node>
<<<<<<< HEAD
	<node lat="60.413093205583166" lon="5.733471461466792" id="-25039">
		<tag k="fixme" v="consider place=hamlet" />
		<tag k="name" v="Nordvika" />
		<tag k="place" v="farm" />
		<tag k="ssr:stedsnr" v="454960" />
	</node>
	<node lat="60.43729444367939" lon="5.747683336770032" id="-25064">
		<tag k="historic" v="shieling" />
		<tag k="name" v="Nordvikasetret" />
		<tag k="place" v="isolated_dwelling" />
		<tag k="ssr:stedsnr" v="308044" />
	</node>
	<node lat="60.358356656788004" lon="5.690591954028551" id="-25067">
		<tag k="alt_name" v="Nygård" />
		<tag k="name" v="Nygard" />
=======
	<node id="-629626" lat="60.3539666682" lon="5.79773889735">
		<tag k="historic" v="shieling" />
		<tag k="name" v="Haugssetret" />
		<tag k="place" v="locality" />
		<tag k="ssr:stedsnr" v="241035" />
	</node>
	<node id="-630133" lat="60.4424138869" lon="5.85517778014">
		<tag k="historic" v="shieling" />
		<tag k="name" v="Geitastølen" />
>>>>>>> e1d4bc35ff8a6074a6f2e91616a996b547c36f15
		<tag k="place" v="locality" />
		<tag k="ssr:stedsnr" v="308152" />
	</node>
<<<<<<< HEAD
	<node lat="60.38150602812269" lon="5.647227798408758" id="-25069">
		<tag k="fixme" v="consider place=hamlet" />
		<tag k="name" v="Nordbø" />
		<tag k="place" v="farm" />
		<tag k="ssr:stedsnr" v="309183" />
	</node>
	<node lat="60.40410833296711" lon="5.723133336834614" id="-25072">
		<tag k="fixme" v="consider place=hamlet" />
		<tag k="name" v="Samnanger" />
		<tag k="place" v="village" />
		<tag k="ssr:stedsnr" v="328266" />
	</node>
	<node lat="60.39893333108395" lon="5.711380558675597" id="-25080">
		<tag k="fixme" v="consider place=hamlet" />
		<tag k="name" v="Ådland" />
		<tag k="place" v="farm" />
		<tag k="ssr:stedsnr" v="332963" />
	</node>
	<node lat="60.3967416646197" lon="5.855349995129272" id="-25101">
=======
	<node id="-629620" lat="60.3220277802" lon="5.60054166942">
		<tag k="historic" v="shieling" />
		<tag k="name" v="Vågasetret" />
		<tag k="place" v="locality" />
		<tag k="ssr:stedsnr" v="29609" />
	</node>
	<node id="-629618" lat="60.3578666701" lon="5.60994443741">
>>>>>>> e1d4bc35ff8a6074a6f2e91616a996b547c36f15
		<tag k="historic" v="shieling" />
		<tag k="name" v="Børdalssetret" />
		<tag k="place" v="isolated_dwelling" />
		<tag k="ssr:stedsnr" v="369711" />
	</node>
	<node lat="60.336027775483046" lon="5.691708331687275" id="-25105">
		<tag k="name" v="Liabøen" />
		<tag k="place" v="farm" />
		<tag k="ssr:stedsnr" v="479128" />
	</node>
	<node lat="60.36780383553999" lon="5.73428320027322" id="-25109">
		<tag k="name" v="Ytste Barmen" />
		<tag k="place" v="locality" />
		<tag k="ssr:stedsnr" v="483060" />
	</node>
<<<<<<< HEAD
	<node lat="60.36840027429164" lon="5.73672492852218" id="-25112">
		<tag k="name" v="Barmen" />
=======
	<node id="-629616" lat="60.3268222257" lon="5.61858333291">
		<tag k="name" v="Gryvlet" />
>>>>>>> e1d4bc35ff8a6074a6f2e91616a996b547c36f15
		<tag k="place" v="farm" />
		<tag k="ssr:stedsnr" v="483068" />
	</node>
<<<<<<< HEAD
	<node lat="60.373645463330504" lon="5.75583998251045" id="-25119">
		<tag k="fixme" v="consider place=hamlet" />
		<tag k="name" v="Ytre-Tysse" />
		<tag k="place" v="farm" />
		<tag k="ssr:stedsnr" v="394236" />
	</node>
	<node lat="60.37422657668323" lon="5.808473501158375" id="-25131">
=======
	<node id="-630108" lat="60.4635855912" lon="5.89406463844">
>>>>>>> e1d4bc35ff8a6074a6f2e91616a996b547c36f15
		<tag k="fixme" v="consider place=hamlet" />
		<tag k="name" v="Haug" />
		<tag k="place" v="farm" />
		<tag k="ssr:stedsnr" v="490155" />
	</node>
<<<<<<< HEAD
	<node lat="60.44793611132859" lon="5.869477779727865" id="-25136">
		<tag k="name" v="Steinhushaugen" />
=======
	<node id="-630107" lat="60.2895805533" lon="5.61519166866">
		<tag k="name" v="Skiftesvika" />
>>>>>>> e1d4bc35ff8a6074a6f2e91616a996b547c36f15
		<tag k="place" v="farm" />
		<tag k="ssr:stedsnr" v="490367" />
	</node>
<<<<<<< HEAD
	<node lat="60.3996537411231" lon="5.783606320094614" id="-25142">
		<tag k="fixme" v="consider place=hamlet" />
		<tag k="name" v="Tveitarås" />
=======
	<node id="-630098" lat="60.4012500007" lon="5.72889999717">
		<tag k="name" v="Bjørkheim" />
>>>>>>> e1d4bc35ff8a6074a6f2e91616a996b547c36f15
		<tag k="place" v="farm" />
		<tag k="ssr:stedsnr" v="430105" />
	</node>
<<<<<<< HEAD
	<node lat="60.380722222236734" lon="5.8765861042238745" id="-25149">
		<tag k="name" v="Storlia" />
		<tag k="place" v="farm" />
		<tag k="ssr:stedsnr" v="430704" />
	</node>
	<node lat="60.39226443791244" lon="5.770019889827467" id="-25151">
		<tag k="fixme" v="consider place=hamlet" />
		<tag k="name" v="Steinsland" />
=======
	<node id="-630097" lat="60.3985380928" lon="5.67982431408">
		<tag k="alt_name" v="Hisdalen" />
		<tag k="name" v="Hisdal" />
		<tag k="place" v="hamlet" />
		<tag k="ssr:stedsnr" v="5101" />
	</node>
	<node id="-630096" lat="60.3967888888" lon="5.68847777278">
		<tag k="name" v="Leitet" />
>>>>>>> e1d4bc35ff8a6074a6f2e91616a996b547c36f15
		<tag k="place" v="farm" />
		<tag k="ssr:stedsnr" v="491142" />
	</node>
<<<<<<< HEAD
	<node lat="60.41402222505561" lon="5.760819451590604" id="-25172">
		<tag k="historic" v="shieling" />
		<tag k="name" v="Heimasetret" />
		<tag k="place" v="isolated_dwelling" />
		<tag k="ssr:stedsnr" v="455263" />
	</node>
	<node lat="60.404359353760825" lon="5.843440463102021" id="-25173">
=======
	<node id="-630093" lat="60.4334277816" lon="5.75791943781">
		<tag k="historic" v="shieling" />
		<tag k="name" v="Rødssetret" />
		<tag k="place" v="locality" />
		<tag k="ssr:stedsnr" v="5035" />
	</node>
	<node id="-629814" lat="60.3807222222" lon="5.87658610422">
		<tag k="name" v="Storlia" />
		<tag k="place" v="farm" />
		<tag k="ssr:stedsnr" v="430704" />
	</node>
	<node id="-630082" lat="60.3540805555" lon="5.7549222188">
		<tag k="name" v="Skaråstølen" />
		<tag k="place" v="locality" />
		<tag k="ssr:stedsnr" v="969062" />
	</node>
	<node id="-630076" lat="60.3762035193" lon="5.69437386999">
>>>>>>> e1d4bc35ff8a6074a6f2e91616a996b547c36f15
		<tag k="fixme" v="consider place=hamlet" />
		<tag k="name" v="Børdalen" />
		<tag k="place" v="farm" />
		<tag k="ssr:stedsnr" v="672441" />
	</node>
<<<<<<< HEAD
	<node lat="60.37830497805967" lon="5.801511192160347" id="-25174">
=======
	<node id="-630075" lat="60.3748200009" lon="5.68645753237">
>>>>>>> e1d4bc35ff8a6074a6f2e91616a996b547c36f15
		<tag k="fixme" v="consider place=hamlet" />
		<tag k="name" v="Ulland" />
		<tag k="place" v="farm" />
		<tag k="ssr:stedsnr" v="455330" />
	</node>
<<<<<<< HEAD
	<node lat="60.39032499875709" lon="5.907486106715662" id="-25184">
		<tag k="fixme" v="consider place=hamlet" />
		<tag k="name" v="Eikedalen" />
		<tag k="place" v="village" />
		<tag k="ssr:stedsnr" v="673732" />
	</node>
	<node lat="60.3737329125128" lon="5.816649444004019" id="-25187">
		<tag k="fixme" v="consider place=hamlet" />
		<tag k="name" v="Jarland" />
=======
	<node id="-630070" lat="60.3687750008" lon="5.72255832581">
		<tag k="name" v="Sætreviki" />
>>>>>>> e1d4bc35ff8a6074a6f2e91616a996b547c36f15
		<tag k="place" v="farm" />
		<tag k="ssr:stedsnr" v="490180" />
	</node>
<<<<<<< HEAD
	<node lat="60.415183331957856" lon="5.843894442298949" id="-25188">
		<tag k="name" v="Haugen" />
=======
	<node id="-630409" lat="60.3905361092" lon="5.65523611821">
		<tag k="name" v="Oppheim" />
		<tag k="place" v="farm" />
		<tag k="ssr:stedsnr" v="551145" />
	</node>
	<node id="-629640" lat="60.347805555" lon="5.68597221474">
		<tag k="name" v="Bakke" />
		<tag k="place" v="farm" />
		<tag k="ssr:stedsnr" v="248209" />
	</node>
	<node id="-630060" lat="60.3172388848" lon="5.62381388867">
		<tag k="name" v="Berget" />
>>>>>>> e1d4bc35ff8a6074a6f2e91616a996b547c36f15
		<tag k="place" v="farm" />
		<tag k="ssr:stedsnr" v="490434" />
	</node>
<<<<<<< HEAD
	<node lat="60.42794166615246" lon="5.808805556250002" id="-25208">
		<tag k="name" v="Nyutløtræ" />
=======
	<node id="-630058" lat="60.3680750019" lon="5.67977500283">
		<tag k="name" v="Oldervik" />
>>>>>>> e1d4bc35ff8a6074a6f2e91616a996b547c36f15
		<tag k="place" v="farm" />
		<tag k="ssr:stedsnr" v="516479" />
	</node>
<<<<<<< HEAD
	<node lat="60.40363672312851" lon="5.7924642665272765" id="-25212">
		<tag k="fixme" v="consider place=hamlet" />
		<tag k="name" v="Langeland" />
=======
	<node id="-630057" lat="60.4434277756" lon="5.86616111714">
		<tag k="name" v="Røyrbotnen" />
>>>>>>> e1d4bc35ff8a6074a6f2e91616a996b547c36f15
		<tag k="place" v="farm" />
		<tag k="ssr:stedsnr" v="551119" />
	</node>
<<<<<<< HEAD
	<node lat="60.39053610924538" lon="5.655236118210977" id="-25214">
		<tag k="name" v="Oppheim" />
=======
	<node id="-630567" lat="60.3142777787" lon="5.62195276972">
		<tag k="name" v="Rinden" />
>>>>>>> e1d4bc35ff8a6074a6f2e91616a996b547c36f15
		<tag k="place" v="farm" />
		<tag k="ssr:stedsnr" v="551145" />
	</node>
<<<<<<< HEAD
	<node lat="60.38560754810554" lon="5.799998247290172" id="-25216">
=======
	<node id="-630054" lat="60.3755579214" lon="5.7838589832">
>>>>>>> e1d4bc35ff8a6074a6f2e91616a996b547c36f15
		<tag k="fixme" v="consider place=hamlet" />
		<tag k="name" v="Totland" />
		<tag k="place" v="farm" />
		<tag k="ssr:stedsnr" v="551153" />
	</node>
<<<<<<< HEAD
	<node lat="60.41331111523546" lon="5.786866658778812" id="-25220">
		<tag k="name" v="Nygård" />
		<tag k="place" v="farm" />
		<tag k="ssr:stedsnr" v="551100" />
	</node>
	<node lat="60.35492232757423" lon="5.696573801017168" id="-25221">
		<tag k="name" v="Kampen" />
		<tag k="place" v="farm" />
		<tag k="ssr:stedsnr" v="551218" />
	</node>
	<node lat="60.33634999579561" lon="5.66094166484982" id="-25226">
		<tag k="name" v="Stølen" />
=======
	<node id="-630053" lat="60.4000777761" lon="5.79077777406">
		<tag k="name" v="Austbø" />
		<tag k="place" v="farm" />
		<tag k="ssr:stedsnr" v="855111" />
	</node>
	<node id="-630564" lat="60.3502579835" lon="5.68388103616">
		<tag k="name" v="Sagi" />
		<tag k="place" v="farm" />
		<tag k="ssr:stedsnr" v="855201" />
	</node>
	<node id="-630563" lat="60.3510125801" lon="5.68563377729">
		<tag k="fixme" v="consider place=hamlet" />
		<tag k="name" v="Sandvika" />
		<tag k="place" v="farm" />
		<tag k="ssr:stedsnr" v="855200" />
	</node>
	<node id="-630050" lat="60.3459638852" lon="5.69105555249">
		<tag k="alt_name" v="Øvstebø" />
		<tag k="name" v="Øpstebø" />
		<tag k="old_name" v="Øystebø" />
		<tag k="place" v="farm" />
		<tag k="ssr:stedsnr" v="855210" />
	</node>
	<node id="-630046" lat="60.4185999977" lon="5.78234166464">
		<tag k="name" v="Totræna" />
		<tag k="place" v="farm" />
		<tag k="ssr:stedsnr" v="941474" />
	</node>
	<node id="-630551" lat="60.3563805523" lon="5.77316943896">
		<tag k="name" v="Dunsengi" />
		<tag k="place" v="isolated_dwelling" />
		<tag k="ssr:stedsnr" v="844023" />
	</node>
	<node id="-630038" lat="60.3959472236" lon="5.76513888881">
		<tag k="historic" v="shieling" />
		<tag k="name" v="Stølen" />
		<tag k="place" v="locality" />
		<tag k="ssr:stedsnr" v="939807" />
	</node>
	<node id="-630033" lat="60.4103194416" lon="5.78913056229">
		<tag k="historic" v="shieling" />
		<tag k="name" v="Kloppastølen" />
		<tag k="place" v="locality" />
		<tag k="ssr:stedsnr" v="939208" />
	</node>
	<node id="-630029" lat="60.4271138931" lon="5.78984166307">
		<tag k="historic" v="shieling" />
		<tag k="name" v="Tosetret" />
		<tag k="place" v="locality" />
		<tag k="ssr:stedsnr" v="819463" />
	</node>
	<node id="-630028" lat="60.4300666634" lon="5.78442500003">
		<tag k="historic" v="shieling" />
		<tag k="name" v="Steinslandssetret" />
		<tag k="place" v="locality" />
		<tag k="ssr:stedsnr" v="819460" />
	</node>
	<node id="-630026" lat="60.4196499962" lon="5.75666666018">
		<tag k="name" v="Hildersmark" />
>>>>>>> e1d4bc35ff8a6074a6f2e91616a996b547c36f15
		<tag k="place" v="farm" />
		<tag k="ssr:stedsnr" v="692278" />
	</node>
<<<<<<< HEAD
	<node lat="60.37969444045457" lon="5.8931972293196475" id="-25235">
		<tag k="name" v="Fossen" />
		<tag k="place" v="locality" />
		<tag k="ssr:stedsnr" v="577609" />
	</node>
	<node lat="60.42455277737324" lon="5.820650003221842" id="-25240">
		<tag k="name" v="Fisket" />
		<tag k="place" v="farm" />
		<tag k="ssr:stedsnr" v="698361" />
	</node>
	<node lat="60.41697222177804" lon="5.78916111283297" id="-25241">
		<tag k="name" v="Nordtveit" />
=======
	<node id="-630535" lat="60.4047416712" lon="5.67526944705">
		<tag k="historic" v="shieling" />
		<tag k="name" v="Huldastølen" />
		<tag k="place" v="locality" />
		<tag k="ssr:stedsnr" v="818889" />
	</node>
	<node id="-630534" lat="60.4080245486" lon="5.78851905193">
		<tag k="fixme" v="consider place=hamlet" />
		<tag k="name" v="Tveit" />
		<tag k="place" v="farm" />
		<tag k="ssr:stedsnr" v="818200" />
	</node>
	<node id="-630533" lat="60.3470500038" lon="5.68887777154">
		<tag k="name" v="Lundebø" />
		<tag k="place" v="farm" />
		<tag k="ssr:stedsnr" v="813275" />
	</node>
	<node id="-630014" lat="60.4297361149" lon="5.85133332411">
		<tag k="name" v="Tøene" />
		<tag k="place" v="farm" />
		<tag k="ssr:stedsnr" v="794405" />
	</node>
	<node id="-629973" lat="60.4286138894" lon="5.7895388868">
		<tag k="historic" v="shieling" />
		<tag k="name" v="Hagasetret" />
		<tag k="place" v="locality" />
		<tag k="ssr:stedsnr" v="698414" />
	</node>
	<node id="-630012" lat="60.3921055533" lon="5.71431110853">
		<tag k="alt_name" v="Sørvika" />
		<tag k="name" v="Søvik" />
		<tag k="place" v="farm" />
		<tag k="ssr:stedsnr" v="794132" />
	</node>
	<node id="-630522" lat="60.4136694458" lon="5.73205278027">
		<tag k="fixme" v="consider place=hamlet" />
		<tag k="name" v="Nordbygda" />
		<tag k="place" v="village" />
		<tag k="ssr:stedsnr" v="794074" />
	</node>
	<node id="-630521" lat="60.4348527766" lon="5.81472777869">
		<tag k="name" v="Dyrhovden" />
>>>>>>> e1d4bc35ff8a6074a6f2e91616a996b547c36f15
		<tag k="place" v="farm" />
		<tag k="ssr:stedsnr" v="698453" />
	</node>
<<<<<<< HEAD
	<node lat="60.42164722238641" lon="5.717858327286183" id="-25253">
		<tag k="historic" v="shieling" />
		<tag k="name" v="Heiasetret" />
		<tag k="place" v="isolated_dwelling" />
		<tag k="ssr:stedsnr" v="612082" />
	</node>
	<node lat="60.395771543135716" lon="5.747852844837916" id="-25254">
		<tag k="fixme" v="consider place=hamlet" />
		<tag k="name" v="Haukaneset" />
=======
	<node id="-630518" lat="60.3454222228" lon="5.64205277184">
		<tag k="name" v="Sagi" />
		<tag k="place" v="farm" />
		<tag k="ssr:stedsnr" v="794204" />
	</node>
	<node id="-630002" lat="60.345478269" lon="5.68338854813">
		<tag k="alt_name" v="Djuvvik" />
		<tag k="fixme" v="consider place=hamlet" />
		<tag k="name" v="Djupviki" />
		<tag k="place" v="farm" />
		<tag k="ssr:stedsnr" v="916232" />
	</node>
	<node id="-629971" lat="60.4245527774" lon="5.82065000322">
		<tag k="name" v="Fisket" />
		<tag k="place" v="farm" />
		<tag k="ssr:stedsnr" v="698361" />
	</node>
	<node id="-630000" lat="60.4190999998" lon="5.72468610828">
		<tag k="name" v="Bjørnåsen" />
>>>>>>> e1d4bc35ff8a6074a6f2e91616a996b547c36f15
		<tag k="place" v="farm" />
		<tag k="ssr:stedsnr" v="612130" />
	</node>
<<<<<<< HEAD
	<node lat="60.351788889805206" lon="5.669780557352057" id="-25256">
		<tag k="name" v="Brattli" />
=======
	<node id="-629999" lat="60.4129166656" lon="5.91350278561">
		<tag k="historic" v="shieling" />
		<tag k="name" v="Svensdalssetret" />
>>>>>>> e1d4bc35ff8a6074a6f2e91616a996b547c36f15
		<tag k="place" v="locality" />
		<tag k="ssr:stedsnr" v="612215" />
	</node>
<<<<<<< HEAD
	<node lat="60.34410555817116" lon="5.680727770149759" id="-25258">
		<tag k="alt_name" v="Bjørkelund" />
		<tag k="name" v="Bjørkeland" />
		<tag k="place" v="farm" />
		<tag k="ssr:stedsnr" v="631283" />
	</node>
	<node lat="60.37603258648083" lon="5.759956115465926" id="-25269">
		<tag k="fixme" v="consider place=hamlet" />
		<tag k="name" v="Indre-Tysse" />
=======
	<node id="-629992" lat="60.3996972193" lon="5.73674443875">
		<tag k="name" v="Myrvang" />
		<tag k="place" v="farm" />
		<tag k="ssr:stedsnr" v="752319" />
	</node>
	<node id="-630496" lat="60.3744555585" lon="5.66203055306">
		<tag k="name" v="Nordbøfeta" />
		<tag k="place" v="locality" />
		<tag k="ssr:stedsnr" v="757970" />
	</node>
	<node id="-630495" lat="60.3959472236" lon="5.76513888881">
		<tag k="historic" v="shieling" />
		<tag k="name" v="Stølen" />
		<tag k="place" v="locality" />
		<tag k="ssr:stedsnr" v="757785" />
	</node>
	<node id="-630565" lat="60.3245555533" lon="5.61413610796">
		<tag k="name" v="Nymark" />
		<tag k="place" v="farm" />
		<tag k="ssr:stedsnr" v="855224" />
	</node>
	<node id="-629974" lat="60.4169722218" lon="5.78916111283">
		<tag k="name" v="Nordtveit" />
>>>>>>> e1d4bc35ff8a6074a6f2e91616a996b547c36f15
		<tag k="place" v="farm" />
		<tag k="ssr:stedsnr" v="638198" />
	</node>
<<<<<<< HEAD
	<node lat="60.500775001839365" lon="5.960580558763183" id="-25271">
=======
	<node id="-630485" lat="60.5007750018" lon="5.96058055876">
>>>>>>> e1d4bc35ff8a6074a6f2e91616a996b547c36f15
		<tag k="fixme" v="consider tourism=alpine_hut or tourism=chalet" />
		<tag k="name" v="Gullhorgabu" />
		<tag k="ssr:stedsnr" v="648007" />
		<tag k="tourism" v="wilderness_hut" />
	</node>
<<<<<<< HEAD
	<node lat="60.40963537691681" lon="5.723920698610078" id="-25279">
		<tag k="fixme" v="consider place=hamlet" />
		<tag k="name" v="Reistad" />
		<tag k="place" v="farm" />
		<tag k="ssr:stedsnr" v="672089" />
	</node>
	<node lat="60.400163886614024" lon="5.710847220945395" id="-25280">
=======
	<node id="-629972" lat="60.4283222218" lon="5.79184722483">
		<tag k="historic" v="shieling" />
		<tag k="name" v="Tveitasetret" />
		<tag k="place" v="locality" />
		<tag k="ssr:stedsnr" v="698411" />
	</node>
	<node id="-630483" lat="60.3760325865" lon="5.75995611547">
>>>>>>> e1d4bc35ff8a6074a6f2e91616a996b547c36f15
		<tag k="fixme" v="consider place=hamlet" />
		<tag k="name" v="Ådland" />
		<tag k="place" v="village" />
		<tag k="ssr:stedsnr" v="672103" />
	</node>
	<node lat="60.36658055295855" lon="5.67968333337269" id="-25282">
		<tag k="name" v="Oldervollen" />
		<tag k="place" v="farm" />
		<tag k="ssr:stedsnr" v="272535" />
	</node>
<<<<<<< HEAD
	<node lat="60.44028888453377" lon="5.881744438340338" id="-25283">
		<tag k="name" v="Tverrlia" />
=======
	<node id="-629968" lat="60.3947027772" lon="5.76686944211">
		<tag k="name" v="Neset" />
>>>>>>> e1d4bc35ff8a6074a6f2e91616a996b547c36f15
		<tag k="place" v="farm" />
		<tag k="ssr:stedsnr" v="672410" />
	</node>
<<<<<<< HEAD
	<node lat="60.42016111497111" lon="5.715169443182636" id="-25285">
		<tag k="historic" v="shieling" />
		<tag k="name" v="Reistadsetret" />
		<tag k="place" v="isolated_dwelling" />
		<tag k="ssr:stedsnr" v="673092" />
	</node>
	<node lat="60.41837500450179" lon="5.755075000399404" id="-25286">
		<tag k="historic" v="shieling" />
		<tag k="name" v="Myrland" />
		<tag k="place" v="isolated_dwelling" />
		<tag k="ssr:stedsnr" v="673095" />
	</node>
	<node lat="60.34793333685644" lon="5.595713884135674" id="-25289">
		<tag k="name" v="Brekkehytta" />
		<tag k="place" v="isolated_dwelling" />
		<tag k="ssr:stedsnr" v="673215" />
	</node>
	<node lat="60.33870832918329" lon="5.665300001736246" id="-25290">
		<tag k="name" v="Yndestad" />
=======
	<node id="-629967" lat="60.3160388849" lon="5.62263611512">
		<tag k="name" v="Øvenane" />
		<tag k="place" v="locality" />
		<tag k="ssr:stedsnr" v="696615" />
	</node>
	<node id="-629965" lat="60.3569861112" lon="5.69874444901">
		<tag k="name" v="Espeli" />
		<tag k="place" v="farm" />
		<tag k="ssr:stedsnr" v="696604" />
	</node>
	<node id="-629963" lat="60.2980138923" lon="5.61844722634">
		<tag k="name" v="Hagen" />
>>>>>>> e1d4bc35ff8a6074a6f2e91616a996b547c36f15
		<tag k="place" v="farm" />
		<tag k="ssr:stedsnr" v="673230" />
	</node>
<<<<<<< HEAD
	<node lat="60.41618028521725" lon="5.83472866377223" id="-25294">
=======
	<node id="-629962" lat="60.4161802852" lon="5.83472866377">
>>>>>>> e1d4bc35ff8a6074a6f2e91616a996b547c36f15
		<tag k="fixme" v="consider place=hamlet" />
		<tag k="name" v="Høyseter" />
		<tag k="place" v="farm" />
		<tag k="ssr:stedsnr" v="674620" />
	</node>
<<<<<<< HEAD
	<node lat="60.29801389232625" lon="5.618447226335633" id="-25296">
		<tag k="name" v="Hagen" />
=======
	<node id="-629708" lat="60.3694388894" lon="5.74721389774">
		<tag k="name" v="Indre Barmen" />
		<tag k="place" v="farm" />
		<tag k="ssr:stedsnr" v="449300" />
	</node>
	<node id="-630470" lat="60.3441055582" lon="5.68072777015">
		<tag k="alt_name" v="Bjørkelund" />
		<tag k="name" v="Bjørkeland" />
>>>>>>> e1d4bc35ff8a6074a6f2e91616a996b547c36f15
		<tag k="place" v="farm" />
		<tag k="ssr:stedsnr" v="692818" />
	</node>
<<<<<<< HEAD
	<node lat="60.35698611123777" lon="5.69874444901468" id="-25298">
		<tag k="name" v="Espeli" />
		<tag k="place" v="farm" />
		<tag k="ssr:stedsnr" v="696604" />
	</node>
	<node lat="60.31603888487157" lon="5.622636115117126" id="-25299">
		<tag k="name" v="Øvenane" />
=======
	<node id="-630465" lat="60.3517888898" lon="5.66978055735">
		<tag k="name" v="Brattli" />
>>>>>>> e1d4bc35ff8a6074a6f2e91616a996b547c36f15
		<tag k="place" v="locality" />
		<tag k="ssr:stedsnr" v="696615" />
	</node>
<<<<<<< HEAD
	<node lat="60.394702777232936" lon="5.766869442105914" id="-25301">
		<tag k="name" v="Neset" />
=======
	<node id="-630463" lat="60.3957715431" lon="5.74785284484">
		<tag k="fixme" v="consider place=hamlet" />
		<tag k="name" v="Haukaneset" />
>>>>>>> e1d4bc35ff8a6074a6f2e91616a996b547c36f15
		<tag k="place" v="farm" />
		<tag k="ssr:stedsnr" v="696814" />
	</node>
<<<<<<< HEAD
	<node lat="60.3776899410874" lon="5.662434272520717" id="-25304">
		<tag k="name" v="Stolpane" />
=======
	<node id="-629950" lat="60.4036527813" lon="5.76394444632">
		<tag k="name" v="Myra" />
>>>>>>> e1d4bc35ff8a6074a6f2e91616a996b547c36f15
		<tag k="place" v="farm" />
		<tag k="ssr:stedsnr" v="696980" />
	</node>
<<<<<<< HEAD
	<node lat="60.42832222176032" lon="5.791847224828473" id="-25306">
		<tag k="historic" v="shieling" />
		<tag k="name" v="Tveitasetret" />
		<tag k="place" v="isolated_dwelling" />
		<tag k="ssr:stedsnr" v="698411" />
	</node>
	<node lat="60.42861388935953" lon="5.789538886799068" id="-25307">
=======
	<node id="-630460" lat="60.4216472224" lon="5.71785832729">
		<tag k="historic" v="shieling" />
		<tag k="name" v="Heiasetret" />
		<tag k="place" v="locality" />
		<tag k="ssr:stedsnr" v="612082" />
	</node>
	<node id="-630457" lat="60.4351281697" lon="5.89501738054">
>>>>>>> e1d4bc35ff8a6074a6f2e91616a996b547c36f15
		<tag k="historic" v="shieling" />
		<tag k="name" v="Hagasetret" />
		<tag k="place" v="isolated_dwelling" />
		<tag k="ssr:stedsnr" v="698414" />
	</node>
<<<<<<< HEAD
	<node lat="60.39969721927411" lon="5.736744438749447" id="-25317">
		<tag k="name" v="Myrvang" />
=======
	<node id="-630455" lat="60.3682333363" lon="5.7324111085">
		<tag k="name" v="Barmen" />
>>>>>>> e1d4bc35ff8a6074a6f2e91616a996b547c36f15
		<tag k="place" v="farm" />
		<tag k="ssr:stedsnr" v="752319" />
	</node>
<<<<<<< HEAD
	<node lat="60.345422222825476" lon="5.642052771841277" id="-25335">
		<tag k="name" v="Sagi" />
=======
	<node id="-629941" lat="60.3765153716" lon="5.66343975791">
		<tag k="fixme" v="consider place=hamlet" />
		<tag k="name" v="Skjeljåna" />
>>>>>>> e1d4bc35ff8a6074a6f2e91616a996b547c36f15
		<tag k="place" v="farm" />
		<tag k="ssr:stedsnr" v="794204" />
	</node>
<<<<<<< HEAD
	<node lat="60.42973611492946" lon="5.851333324109723" id="-25345">
		<tag k="name" v="Tøene" />
		<tag k="place" v="farm" />
		<tag k="ssr:stedsnr" v="794405" />
	</node>
	<node lat="60.36877500083589" lon="5.72255832580912" id="-25354">
		<tag k="name" v="Sætreviki" />
=======
	<node id="-629939" lat="60.402613887" lon="5.75609722881">
		<tag k="name" v="Slåtta" />
		<tag k="place" v="farm" />
		<tag k="ssr:stedsnr" v="734117" />
	</node>
	<node id="-630445" lat="60.3796944405" lon="5.89319722932">
		<tag k="name" v="Fossen" />
		<tag k="place" v="locality" />
		<tag k="ssr:stedsnr" v="577609" />
	</node>
	<node id="-629929" lat="60.294624998" lon="5.61743889634">
		<tag k="name" v="Træet" />
>>>>>>> e1d4bc35ff8a6074a6f2e91616a996b547c36f15
		<tag k="place" v="farm" />
		<tag k="ssr:stedsnr" v="915153" />
	</node>
<<<<<<< HEAD
	<node lat="60.412916665566144" lon="5.913502785609584" id="-25356">
=======
	<node id="-630438" lat="60.419233329" lon="5.7137999929">
>>>>>>> e1d4bc35ff8a6074a6f2e91616a996b547c36f15
		<tag k="historic" v="shieling" />
		<tag k="name" v="Svensdalssetret" />
		<tag k="place" v="isolated_dwelling" />
		<tag k="ssr:stedsnr" v="915424" />
	</node>
<<<<<<< HEAD
	<node lat="60.37482000092546" lon="5.686457532373335" id="-25360">
=======
	<node id="-629918" lat="60.3654360986" lon="5.6554667716">
>>>>>>> e1d4bc35ff8a6074a6f2e91616a996b547c36f15
		<tag k="fixme" v="consider place=hamlet" />
		<tag k="name" v="Skar" />
		<tag k="place" v="farm" />
		<tag k="ssr:stedsnr" v="916154" />
	</node>
<<<<<<< HEAD
	<node lat="60.37620351932652" lon="5.694373869987658" id="-25361">
		<tag k="fixme" v="consider place=hamlet" />
		<tag k="name" v="Nedre-Kvernes" />
=======
	<node id="-630413" lat="60.3549223276" lon="5.69657380102">
		<tag k="name" v="Kampen" />
>>>>>>> e1d4bc35ff8a6074a6f2e91616a996b547c36f15
		<tag k="place" v="farm" />
		<tag k="ssr:stedsnr" v="916155" />
	</node>
<<<<<<< HEAD
	<node lat="60.34547826899404" lon="5.683388548131899" id="-25362">
		<tag k="alt_name" v="Djuvvik" />
=======
	<node id="-630411" lat="60.3856075481" lon="5.79999824729">
>>>>>>> e1d4bc35ff8a6074a6f2e91616a996b547c36f15
		<tag k="fixme" v="consider place=hamlet" />
		<tag k="name" v="Djupviki" />
		<tag k="place" v="farm" />
		<tag k="ssr:stedsnr" v="916232" />
	</node>
<<<<<<< HEAD
	<node lat="60.419649996214936" lon="5.756666660181481" id="-25368">
		<tag k="name" v="Hildersmark" />
		<tag k="place" v="farm" />
		<tag k="ssr:stedsnr" v="819311" />
	</node>
	<node lat="60.356380552345236" lon="5.773169438962799" id="-25375">
		<tag k="name" v="Dunsengi" />
		<tag k="place" v="isolated_dwelling" />
		<tag k="ssr:stedsnr" v="844023" />
	</node>
	<node lat="60.40007777614661" lon="5.790777774063826" id="-25381">
		<tag k="name" v="Austbø" />
=======
	<node id="-630039" lat="60.3869785397" lon="5.76741457502">
		<tag k="fixme" v="consider place=hamlet" />
		<tag k="name" v="Haga" />
		<tag k="place" v="farm" />
		<tag k="ssr:stedsnr" v="940156" />
	</node>
	<node id="-630407" lat="60.4036367231" lon="5.79246426653">
		<tag k="fixme" v="consider place=hamlet" />
		<tag k="name" v="Langeland" />
		<tag k="place" v="farm" />
		<tag k="ssr:stedsnr" v="551119" />
	</node>
	<node id="-630406" lat="60.4133111152" lon="5.78686665878">
		<tag k="name" v="Nygård" />
>>>>>>> e1d4bc35ff8a6074a6f2e91616a996b547c36f15
		<tag k="place" v="farm" />
		<tag k="ssr:stedsnr" v="855111" />
	</node>
<<<<<<< HEAD
	<node lat="60.3459638852202" lon="5.6910555524923" id="-25383">
		<tag k="alt_name" v="Øvstebø" />
		<tag k="name" v="Øpstebø" />
		<tag k="old_name" v="Øystebø" />
=======
	<node id="-629891" lat="60.3776899411" lon="5.66243427252">
		<tag k="name" v="Stolpane" />
>>>>>>> e1d4bc35ff8a6074a6f2e91616a996b547c36f15
		<tag k="place" v="farm" />
		<tag k="ssr:stedsnr" v="855210" />
	</node>
<<<<<<< HEAD
	<node lat="60.32455555331121" lon="5.614136107961828" id="-25384">
		<tag k="name" v="Nymark" />
=======
	<node id="-629883" lat="60.3363499958" lon="5.66094166485">
		<tag k="name" v="Stølen" />
>>>>>>> e1d4bc35ff8a6074a6f2e91616a996b547c36f15
		<tag k="place" v="farm" />
		<tag k="ssr:stedsnr" v="855224" />
	</node>
<<<<<<< HEAD
	<node lat="60.44342777556228" lon="5.8661611171437045" id="-25386">
		<tag k="name" v="Røyrbotnen" />
		<tag k="place" v="farm" />
		<tag k="ssr:stedsnr" v="855376" />
	</node>
	<node lat="60.37402778120037" lon="5.663522220623362" id="-25387">
		<tag k="name" v="Skarsvågen" />
		<tag k="place" v="farm" />
		<tag k="ssr:stedsnr" v="878962" />
	</node>
	<node lat="60.419099999790745" lon="5.724686108282387" id="-25407">
		<tag k="name" v="Bjørnåsen" />
=======
	<node id="-629874" lat="60.4120555528" lon="5.81418889807">
		<tag k="fixme" v="consider place=hamlet" />
		<tag k="name" v="Svensdalen" />
		<tag k="place" v="farm" />
		<tag k="ssr:stedsnr" v="514937" />
	</node>
	<node id="-629779" lat="60.3670555538" lon="5.6793527756">
		<tag k="name" v="Litangen" />
		<tag k="place" v="farm" />
		<tag k="ssr:stedsnr" v="393574" />
	</node>
	<node id="-629867" lat="60.3903249988" lon="5.90748610672">
		<tag k="fixme" v="consider place=hamlet" />
		<tag k="name" v="Eikedalen" />
		<tag k="place" v="village" />
		<tag k="ssr:stedsnr" v="673732" />
	</node>
	<node id="-630378" lat="60.3509305596" lon="5.75368610668">
		<tag k="name" v="Steinstølen" />
		<tag k="place" v="locality" />
		<tag k="ssr:stedsnr" v="423032" />
	</node>
	<node id="-629948" lat="60.3740277812" lon="5.66352222062">
		<tag k="name" v="Skarsvågen" />
		<tag k="place" v="farm" />
		<tag k="ssr:stedsnr" v="878962" />
	</node>
	<node id="-629862" lat="60.3387083292" lon="5.66530000174">
		<tag k="name" v="Yndestad" />
>>>>>>> e1d4bc35ff8a6074a6f2e91616a996b547c36f15
		<tag k="place" v="farm" />
		<tag k="ssr:stedsnr" v="916089" />
	</node>
<<<<<<< HEAD
	<node lat="60.41031944161416" lon="5.789130562285885" id="-25408">
		<tag k="historic" v="shieling" />
		<tag k="name" v="Kloppastølen" />
		<tag k="place" v="isolated_dwelling" />
		<tag k="ssr:stedsnr" v="939208" />
	</node>
	<node lat="60.396788888802156" lon="5.688477772779236" id="-25420">
		<tag k="name" v="Leitet" />
=======
	<node id="-630545" lat="60.4407833366" lon="5.84541666931">
		<tag k="historic" v="shieling" />
		<tag k="name" v="Storemyrstølen" />
		<tag k="place" v="locality" />
		<tag k="ssr:stedsnr" v="820981" />
	</node>
	<node id="-629855" lat="60.3685749998" lon="5.74544999362">
		<tag k="name" v="Barmen" />
		<tag k="place" v="hamlet" />
		<tag k="ssr:stedsnr" v="483068" />
	</node>
	<node id="-629861" lat="60.3479333369" lon="5.59571388414">
		<tag k="name" v="Brekkehytta" />
		<tag k="place" v="isolated_dwelling" />
		<tag k="ssr:stedsnr" v="673215" />
	</node>
	<node id="-630364" lat="60.3736454633" lon="5.75583998251">
		<tag k="fixme" v="consider place=hamlet" />
		<tag k="name" v="Ytre-Tysse" />
>>>>>>> e1d4bc35ff8a6074a6f2e91616a996b547c36f15
		<tag k="place" v="farm" />
		<tag k="ssr:stedsnr" v="5100" />
	</node>
<<<<<<< HEAD
	<node lat="60.28958055332341" lon="5.615191668662434" id="-25421">
		<tag k="name" v="Skiftesvika" />
		<tag k="place" v="farm" />
		<tag k="ssr:stedsnr" v="5264" />
	</node>
	<node lat="60.43342778155728" lon="5.757919437810064" id="-25423">
=======
	<node id="-629850" lat="60.4183750045" lon="5.7550750004">
		<tag k="historic" v="shieling" />
		<tag k="name" v="Myrland" />
		<tag k="place" v="locality" />
		<tag k="ssr:stedsnr" v="673095" />
	</node>
	<node id="-629849" lat="60.420161115" lon="5.71516944318">
>>>>>>> e1d4bc35ff8a6074a6f2e91616a996b547c36f15
		<tag k="historic" v="shieling" />
		<tag k="name" v="Rødssetret" />
		<tag k="place" v="isolated_dwelling" />
		<tag k="ssr:stedsnr" v="5035" />
	</node>
<<<<<<< HEAD
	<node lat="60.46358559115748" lon="5.894064638441752" id="-25429">
		<tag k="fixme" v="consider place=hamlet" />
		<tag k="name" v="Kvitingen" />
=======
	<node id="-630359" lat="60.3405555599" lon="5.67028332898">
		<tag k="alt_name" v="Fagerlia" />
		<tag k="name" v="Fagerli" />
>>>>>>> e1d4bc35ff8a6074a6f2e91616a996b547c36f15
		<tag k="place" v="farm" />
		<tag k="ssr:stedsnr" v="5330" />
	</node>
<<<<<<< HEAD
	<node lat="60.3268222257459" lon="5.61858333290914" id="-25434">
		<tag k="name" v="Gryvlet" />
=======
	<node id="-629846" lat="60.4043593538" lon="5.8434404631">
		<tag k="fixme" v="consider place=hamlet" />
		<tag k="name" v="Børdalen" />
>>>>>>> e1d4bc35ff8a6074a6f2e91616a996b547c36f15
		<tag k="place" v="farm" />
		<tag k="ssr:stedsnr" v="28551" />
	</node>
<<<<<<< HEAD
	<node lat="60.35786667014251" lon="5.609944437414719" id="-25436">
		<tag k="historic" v="shieling" />
		<tag k="name" v="Brekkesetret" />
		<tag k="place" v="isolated_dwelling" />
		<tag k="ssr:stedsnr" v="28653" />
	</node>
	<node lat="60.322027780190076" lon="5.600541669422749" id="-25437">
		<tag k="historic" v="shieling" />
		<tag k="name" v="Vågasetret" />
		<tag k="place" v="isolated_dwelling" />
		<tag k="ssr:stedsnr" v="29609" />
	</node>
	<node lat="60.35223055637419" lon="5.731055558397583" id="-25459">
		<tag k="name" v="Fossåsen" />
=======
	<node id="-630357" lat="60.3967416646" lon="5.85534999513">
		<tag k="historic" v="shieling" />
		<tag k="name" v="Børdalssetret" />
		<tag k="place" v="locality" />
		<tag k="ssr:stedsnr" v="369711" />
	</node>
	<node id="-629844" lat="60.4402888845" lon="5.88174443834">
		<tag k="name" v="Tverrlia" />
		<tag k="place" v="farm" />
		<tag k="ssr:stedsnr" v="672410" />
	</node>
	<node id="-629835" lat="60.4001638866" lon="5.71084722095">
		<tag k="fixme" v="consider place=hamlet" />
		<tag k="name" v="Ådland" />
		<tag k="place" v="village" />
		<tag k="ssr:stedsnr" v="672103" />
	</node>
	<node id="-629834" lat="60.4096353769" lon="5.72392069861">
		<tag k="fixme" v="consider place=hamlet" />
		<tag k="name" v="Reistad" />
>>>>>>> e1d4bc35ff8a6074a6f2e91616a996b547c36f15
		<tag k="place" v="farm" />
		<tag k="ssr:stedsnr" v="66184" />
	</node>
<<<<<<< HEAD
	<node lat="60.299342722494686" lon="5.618868942877776" id="-25460">
=======
	<node id="-630345" lat="60.363392472" lon="5.67621663687">
>>>>>>> e1d4bc35ff8a6074a6f2e91616a996b547c36f15
		<tag k="fixme" v="consider place=hamlet" />
		<tag k="name" v="Solbjørg" />
		<tag k="place" v="farm" />
		<tag k="ssr:stedsnr" v="66271" />
	</node>
<<<<<<< HEAD
	<node lat="60.4005944464341" lon="5.754208340109527" id="-25462">
		<tag k="alt_name" v="Aldal" />
		<tag k="name" v="Alldalen" />
		<tag k="place" v="farm" />
		<tag k="ssr:stedsnr" v="66114" />
	</node>
	<node lat="60.392814426147716" lon="5.677082783959537" id="-25463">
=======
	<node id="-630344" lat="60.3740305593" lon="5.75952777209">
		<tag k="name" v="Tysse" />
		<tag k="place" v="village" />
		<tag k="ssr:stedsnr" v="369145" />
	</node>
	<node id="-630343" lat="60.3856925591" lon="5.79569518771">
>>>>>>> e1d4bc35ff8a6074a6f2e91616a996b547c36f15
		<tag k="fixme" v="consider place=hamlet" />
		<tag k="name" v="Haugen" />
		<tag k="place" v="farm" />
		<tag k="ssr:stedsnr" v="66130" />
	</node>
<<<<<<< HEAD
	<node lat="60.383083336303166" lon="5.658905557919188" id="-25465">
		<tag k="name" v="Krossaleitet" />
		<tag k="place" v="farm" />
		<tag k="ssr:stedsnr" v="66135" />
	</node>
	<node lat="60.351886114218914" lon="5.6693666744084705" id="-25470">
		<tag k="name" v="Stykket" />
=======
	<node id="-629829" lat="60.4140222251" lon="5.76081945159">
		<tag k="historic" v="shieling" />
		<tag k="name" v="Heimasetret" />
		<tag k="place" v="locality" />
		<tag k="ssr:stedsnr" v="455263" />
	</node>
	<node id="-629828" lat="60.3783049781" lon="5.80151119216">
		<tag k="fixme" v="consider place=hamlet" />
		<tag k="name" v="Ulland" />
>>>>>>> e1d4bc35ff8a6074a6f2e91616a996b547c36f15
		<tag k="place" v="farm" />
		<tag k="ssr:stedsnr" v="90919" />
	</node>
<<<<<<< HEAD
	<node lat="60.44149518940765" lon="5.847685482406117" id="-25493">
		<tag k="fixme" v="consider place=hamlet" />
		<tag k="name" v="Grønsdalen" />
		<tag k="place" v="farm" />
		<tag k="ssr:stedsnr" v="126382" />
	</node>
	<node lat="60.330143749539104" lon="5.693654905668427" id="-25504">
=======
	<node id="-629823" lat="60.4130932056" lon="5.73347146147">
>>>>>>> e1d4bc35ff8a6074a6f2e91616a996b547c36f15
		<tag k="fixme" v="consider place=hamlet" />
		<tag k="name" v="Sævell" />
		<tag k="place" v="farm" />
		<tag k="ssr:stedsnr" v="145481" />
	</node>
<<<<<<< HEAD
	<node lat="60.41800555329256" lon="5.755719446802633" id="-25509">
		<tag k="name" v="Myrland" />
=======
	<node id="-630330" lat="60.386362998" lon="5.76694516665">
		<tag k="name" v="Haga" />
>>>>>>> e1d4bc35ff8a6074a6f2e91616a996b547c36f15
		<tag k="place" v="farm" />
		<tag k="ssr:stedsnr" v="151301" />
	</node>
<<<<<<< HEAD
	<node lat="60.36341388880206" lon="5.812611114266919" id="-25534">
		<tag k="name" v="Holmane" />
=======
	<node id="-630326" lat="60.3989333311" lon="5.71138055868">
		<tag k="fixme" v="consider place=hamlet" />
		<tag k="name" v="Ådland" />
>>>>>>> e1d4bc35ff8a6074a6f2e91616a996b547c36f15
		<tag k="place" v="farm" />
		<tag k="ssr:stedsnr" v="187182" />
	</node>
<<<<<<< HEAD
	<node lat="60.4425333376682" lon="5.921058332902673" id="-25563">
		<tag k="historic" v="shieling" />
		<tag k="name" v="Bjørkestølane" />
		<tag k="place" v="isolated_dwelling" />
		<tag k="ssr:stedsnr" v="274695" />
	</node>
	<node lat="60.39895278139722" lon="5.844205547039416" id="-25577">
		<tag k="name" v="Kråni" />
=======
	<node id="-629809" lat="60.3996537411" lon="5.78360632009">
		<tag k="fixme" v="consider place=hamlet" />
		<tag k="name" v="Tveitarås" />
>>>>>>> e1d4bc35ff8a6074a6f2e91616a996b547c36f15
		<tag k="place" v="farm" />
		<tag k="ssr:stedsnr" v="308443" />
	</node>
<<<<<<< HEAD
	<node lat="60.399916914211495" lon="5.740801968023996" id="-25582">
		<tag k="fixme" v="consider place=hamlet" />
		<tag k="name" v="Lauskar" />
		<tag k="place" v="farm" />
		<tag k="ssr:stedsnr" v="309112" />
	</node>
	<node lat="60.40427500022659" lon="5.78933889585607" id="-25583">
		<tag k="name" v="Tveit" />
=======
	<node id="-630315" lat="60.404108333" lon="5.72313333683">
		<tag k="fixme" v="consider place=hamlet" />
		<tag k="name" v="Samnanger" />
		<tag k="place" v="village" />
		<tag k="ssr:stedsnr" v="328266" />
	</node>
	<node id="-629802" lat="60.394461109" lon="5.83808054764">
		<tag k="historic" v="shieling" />
		<tag k="name" v="Engjalistølen" />
		<tag k="place" v="locality" />
		<tag k="ssr:stedsnr" v="516394" />
	</node>
	<node id="-629852" lat="60.3683944422" lon="5.73668611868">
		<tag k="name" v="Ytste Barmen" />
		<tag k="place" v="farm" />
		<tag k="ssr:stedsnr" v="483060" />
	</node>
	<node id="-629798" lat="60.4279416662" lon="5.80880555625">
		<tag k="name" v="Nyutløtræ" />
>>>>>>> e1d4bc35ff8a6074a6f2e91616a996b547c36f15
		<tag k="place" v="farm" />
		<tag k="ssr:stedsnr" v="309117" />
	</node>
<<<<<<< HEAD
	<node lat="60.41166566823018" lon="5.738737883083925" id="-25584">
=======
	<node id="-630308" lat="60.3815060281" lon="5.64722779841">
>>>>>>> e1d4bc35ff8a6074a6f2e91616a996b547c36f15
		<tag k="fixme" v="consider place=hamlet" />
		<tag k="name" v="Steintveit" />
		<tag k="place" v="farm" />
		<tag k="ssr:stedsnr" v="309081" />
	</node>
<<<<<<< HEAD
	<node lat="60.38323631201173" lon="5.767009304423352" id="-25586">
=======
	<node id="-630306" lat="60.383236312" lon="5.76700930442">
>>>>>>> e1d4bc35ff8a6074a6f2e91616a996b547c36f15
		<tag k="alt_name" v="Haga;Ytra Haga" />
		<tag k="name" v="Ytre Haga" />
		<tag k="place" v="farm" />
		<tag k="ssr:stedsnr" v="309170" />
	</node>
<<<<<<< HEAD
	<node lat="60.38636299802679" lon="5.766945166654546" id="-25595">
		<tag k="name" v="Haga" />
=======
	<node id="-630304" lat="60.4042750002" lon="5.78933889586">
		<tag k="name" v="Tveit" />
>>>>>>> e1d4bc35ff8a6074a6f2e91616a996b547c36f15
		<tag k="place" v="farm" />
		<tag k="ssr:stedsnr" v="333174" />
	</node>
<<<<<<< HEAD
	<node lat="60.385692559105685" lon="5.795695187707378" id="-25608">
=======
	<node id="-630303" lat="60.3999169142" lon="5.74080196802">
>>>>>>> e1d4bc35ff8a6074a6f2e91616a996b547c36f15
		<tag k="fixme" v="consider place=hamlet" />
		<tag k="name" v="Tysseland" />
		<tag k="place" v="farm" />
		<tag k="ssr:stedsnr" v="369130" />
	</node>
<<<<<<< HEAD
	<node lat="60.37403055930262" lon="5.759527772085704" id="-25612">
		<tag k="name" v="Tysse" />
		<tag k="place" v="village" />
		<tag k="ssr:stedsnr" v="369145" />
	</node>
	<node lat="60.36339247198424" lon="5.676216636866678" id="-25613">
=======
	<node id="-630302" lat="60.4116656682" lon="5.73873788308">
>>>>>>> e1d4bc35ff8a6074a6f2e91616a996b547c36f15
		<tag k="fixme" v="consider place=hamlet" />
		<tag k="name" v="Li" />
		<tag k="place" v="farm" />
		<tag k="ssr:stedsnr" v="369163" />
	</node>
<<<<<<< HEAD
	<node lat="60.359880556942215" lon="5.689844443042525" id="-25615">
		<tag k="name" v="Solbakken" />
=======
	<node id="-629787" lat="60.3963333331" lon="5.76898889207">
		<tag k="fixme" v="consider place=hamlet" />
		<tag k="name" v="Gjerde" />
>>>>>>> e1d4bc35ff8a6074a6f2e91616a996b547c36f15
		<tag k="place" v="farm" />
		<tag k="ssr:stedsnr" v="388269" />
	</node>
<<<<<<< HEAD
	<node lat="60.369216669162896" lon="5.729222226137831" id="-25616">
		<tag k="name" v="Nymark" />
=======
	<node id="-630297" lat="60.3989527814" lon="5.84420554704">
		<tag k="name" v="Kråni" />
>>>>>>> e1d4bc35ff8a6074a6f2e91616a996b547c36f15
		<tag k="place" v="farm" />
		<tag k="ssr:stedsnr" v="388275" />
	</node>
<<<<<<< HEAD
	<node lat="60.34055555990021" lon="5.670283328977083" id="-25617">
		<tag k="alt_name" v="Fagerlia" />
		<tag k="name" v="Fagerli" />
=======
	<node id="-630293" lat="60.3560583364" lon="5.68886666255">
		<tag k="alt_name" v="Nygård" />
		<tag k="name" v="Nygard" />
>>>>>>> e1d4bc35ff8a6074a6f2e91616a996b547c36f15
		<tag k="place" v="farm" />
		<tag k="ssr:stedsnr" v="388277" />
	</node>
<<<<<<< HEAD
	<node lat="60.36705555380508" lon="5.679352775597545" id="-25621">
		<tag k="name" v="Litangen" />
		<tag k="place" v="farm" />
		<tag k="ssr:stedsnr" v="393574" />
	</node>
	<node lat="60.3509305596083" lon="5.753686106684872" id="-25634">
		<tag k="name" v="Steinstølen" />
		<tag k="place" v="locality" />
		<tag k="ssr:stedsnr" v="423032" />
	</node>
	<node lat="60.39633333310033" lon="5.768988892069015" id="-25647">
		<tag k="fixme" v="consider place=hamlet" />
		<tag k="name" v="Gjerde" />
=======
	<node id="-630291" lat="60.4372944437" lon="5.74768333677">
		<tag k="historic" v="shieling" />
		<tag k="name" v="Nordvikasetret" />
		<tag k="place" v="locality" />
		<tag k="ssr:stedsnr" v="308044" />
	</node>
	<node id="-629777" lat="60.3692166692" lon="5.72922222614">
		<tag k="name" v="Nymark" />
>>>>>>> e1d4bc35ff8a6074a6f2e91616a996b547c36f15
		<tag k="place" v="farm" />
		<tag k="ssr:stedsnr" v="510347" />
	</node>
<<<<<<< HEAD
	<node lat="60.41205555276439" lon="5.814188898065162" id="-25651">
		<tag k="fixme" v="consider place=hamlet" />
		<tag k="name" v="Svensdalen" />
		<tag k="place" v="farm" />
		<tag k="ssr:stedsnr" v="514937" />
	</node>
	<node lat="60.39446110904948" lon="5.838080547635645" id="-25655">
		<tag k="historic" v="shieling" />
		<tag k="name" v="Engjalistølen" />
		<tag k="place" v="isolated_dwelling" />
		<tag k="ssr:stedsnr" v="516394" />
	</node>
	<node lat="60.41923332903975" lon="5.713799992897228" id="-25694">
		<tag k="historic" v="shieling" />
		<tag k="name" v="Utgjerdesetret" />
		<tag k="place" v="isolated_dwelling" />
		<tag k="ssr:stedsnr" v="576282" />
	</node>
	<node lat="60.368233336267664" lon="5.732411108499974" id="-25707">
		<tag k="name" v="Barmen" />
		<tag k="place" v="farm" />
		<tag k="ssr:stedsnr" v="611150" />
	</node>
	<node lat="60.435128169681846" lon="5.895017380539288" id="-25710">
		<tag k="historic" v="shieling" />
		<tag k="name" v="Kvanndalen" />
		<tag k="place" v="isolated_dwelling" />
		<tag k="ssr:stedsnr" v="611440" />
	</node>
	<node lat="60.36543609859844" lon="5.655466771602635" id="-25722">
=======
	<node id="-629776" lat="60.3598805569" lon="5.68984444304">
		<tag k="name" v="Solbakken" />
		<tag k="place" v="farm" />
		<tag k="ssr:stedsnr" v="388269" />
	</node>
	<node id="-629762" lat="60.3922644379" lon="5.77001988983">
>>>>>>> e1d4bc35ff8a6074a6f2e91616a996b547c36f15
		<tag k="fixme" v="consider place=hamlet" />
		<tag k="name" v="Liøyna" />
		<tag k="place" v="farm" />
		<tag k="ssr:stedsnr" v="635920" />
	</node>
<<<<<<< HEAD
	<node lat="60.29462499799182" lon="5.617438896344426" id="-25745">
		<tag k="name" v="Træet" />
		<tag k="place" v="farm" />
		<tag k="ssr:stedsnr" v="733260" />
	</node>
	<node lat="60.40261388695683" lon="5.756097228807023" id="-25756">
		<tag k="name" v="Slåtta" />
		<tag k="place" v="farm" />
		<tag k="ssr:stedsnr" v="734117" />
	</node>
	<node lat="60.37651537155986" lon="5.663439757907917" id="-25758">
		<tag k="fixme" v="consider place=hamlet" />
		<tag k="name" v="Skjeljåna" />
		<tag k="place" v="farm" />
		<tag k="ssr:stedsnr" v="734162" />
	</node>
	<node lat="60.39594722359325" lon="5.765138888808955" id="-25768">
		<tag k="historic" v="shieling" />
		<tag k="name" v="Stølen" />
		<tag k="place" v="isolated_dwelling" />
		<tag k="ssr:stedsnr" v="757785" />
	</node>
	<node lat="60.374455558544284" lon="5.662030553060281" id="-25770">
		<tag k="name" v="Nordbøfeta" />
		<tag k="place" v="locality" />
		<tag k="ssr:stedsnr" v="757970" />
	</node>
	<node lat="60.434852776585814" lon="5.814727778689371" id="-25782">
		<tag k="name" v="Dyrhovden" />
		<tag k="place" v="farm" />
		<tag k="ssr:stedsnr" v="794041" />
	</node>
	<node lat="60.39210555332307" lon="5.71431110852835" id="-25786">
		<tag k="alt_name" v="Sørvika" />
		<tag k="name" v="Søvik" />
		<tag k="place" v="farm" />
		<tag k="ssr:stedsnr" v="794132" />
	</node>
	<node lat="60.413669445775625" lon="5.732052780265627" id="-25789">
		<tag k="fixme" v="consider place=hamlet" />
		<tag k="name" v="Nordbygda" />
		<tag k="place" v="village" />
		<tag k="ssr:stedsnr" v="794074" />
	</node>
	<node lat="60.34705000384366" lon="5.688877771537348" id="-25796">
		<tag k="name" v="Lundebø" />
		<tag k="place" v="farm" />
		<tag k="ssr:stedsnr" v="813275" />
	</node>
	<node lat="60.408024548601595" lon="5.7885190519346565" id="-25797">
		<tag k="fixme" v="consider place=hamlet" />
		<tag k="name" v="Tveit" />
		<tag k="place" v="farm" />
		<tag k="ssr:stedsnr" v="818200" />
	</node>
	<node lat="60.40474167124852" lon="5.6752694470502325" id="-25805">
		<tag k="historic" v="shieling" />
		<tag k="name" v="Huldastølen" />
		<tag k="place" v="isolated_dwelling" />
		<tag k="ssr:stedsnr" v="818889" />
	</node>
	<node lat="60.430066663398456" lon="5.784425000029226" id="-25809">
		<tag k="historic" v="shieling" />
		<tag k="name" v="Steinslandssetret" />
		<tag k="place" v="isolated_dwelling" />
		<tag k="ssr:stedsnr" v="819460" />
	</node>
	<node lat="60.42711389308481" lon="5.789841663070612" id="-25810">
		<tag k="historic" v="shieling" />
		<tag k="name" v="Tosetret" />
		<tag k="place" v="isolated_dwelling" />
		<tag k="ssr:stedsnr" v="819463" />
	</node>
	<node lat="60.44078333660589" lon="5.8454166693140674" id="-25812">
		<tag k="historic" v="shieling" />
		<tag k="name" v="Storemyrstølen" />
		<tag k="place" v="isolated_dwelling" />
		<tag k="ssr:stedsnr" v="820981" />
	</node>
	<node lat="60.37555792143815" lon="5.783858983195324" id="-25824">
		<tag k="fixme" v="consider place=hamlet" />
		<tag k="name" v="Gåsdalen" />
		<tag k="place" v="farm" />
		<tag k="ssr:stedsnr" v="855156" />
	</node>
	<node lat="60.35101258012296" lon="5.685633777288992" id="-25826">
		<tag k="fixme" v="consider place=hamlet" />
		<tag k="name" v="Sandvika" />
		<tag k="place" v="farm" />
		<tag k="ssr:stedsnr" v="855200" />
	</node>
	<node lat="60.3502579835297" lon="5.683881036163851" id="-25827">
		<tag k="name" v="Sagi" />
		<tag k="place" v="farm" />
		<tag k="ssr:stedsnr" v="855201" />
	</node>
	<node lat="60.31427777867073" lon="5.621952769721043" id="-25829">
		<tag k="name" v="Rinden" />
		<tag k="place" v="farm" />
		<tag k="ssr:stedsnr" v="855250" />
	</node>
	<node lat="60.36807500188297" lon="5.679775002830191" id="-25834">
		<tag k="name" v="Oldervik" />
		<tag k="place" v="farm" />
		<tag k="ssr:stedsnr" v="874307" />
	</node>
	<node lat="60.317238884843256" lon="5.623813888670725" id="-25835">
		<tag k="name" v="Berget" />
		<tag k="place" v="farm" />
		<tag k="ssr:stedsnr" v="874825" />
	</node>
	<node lat="60.40365278130263" lon="5.763944446323678" id="-25838">
		<tag k="name" v="Myra" />
		<tag k="place" v="farm" />
		<tag k="ssr:stedsnr" v="879249" />
	</node>
	<node lat="60.38697853967156" lon="5.767414575022707" id="-25844">
		<tag k="fixme" v="consider place=hamlet" />
		<tag k="name" v="Haga" />
		<tag k="place" v="farm" />
		<tag k="ssr:stedsnr" v="940156" />
	</node>
	<node lat="60.418599997690784" lon="5.782341664635306" id="-25850">
		<tag k="name" v="Totræna" />
		<tag k="place" v="farm" />
		<tag k="ssr:stedsnr" v="941474" />
	</node>
	<node lat="60.35408055549352" lon="5.75492221879798" id="-25859">
		<tag k="name" v="Skaråstølen" />
		<tag k="place" v="locality" />
		<tag k="ssr:stedsnr" v="969062" />
	</node>
=======
>>>>>>> e1d4bc35ff8a6074a6f2e91616a996b547c36f15
</osm>
