<?xml version="1.0" encoding="UTF-8"?>
<<<<<<< HEAD
<osm version="0.6" generator="osmapis">
	<node lat="60.39969701003263" lon="5.710627959613674" id="-25146">
		<tag k="amenity" v="place_of_worship" />
		<tag k="denomination" v="lutheran" />
		<tag k="name" v="Ådland kyrkje" />
		<tag k="old_name" v="Samnanger;Samnanger kyrkje" />
		<tag k="religion" v="christian" />
		<tag k="ssr:stedsnr" v="491110" />
	</node>
	<node lat="60.2985666647268" lon="5.584872229065338" id="-25734">
		<tag k="name" v="Botnahytto" />
		<tag k="place" v="locality" />
		<tag k="ssr:stedsnr" v="664102" />
	</node>
	<node lat="60.38610661601797" lon="5.767791459664763" id="-25860">
=======
<osm generator="osmapis" version="0.6">
	<node id="-630575" lat="60.386106616" lon="5.76779145966">
>>>>>>> e1d4bc35ff8a6074a6f2e91616a996b547c36f15
		<tag k="amenity" v="place_of_worship" />
		<tag k="denomination" v="lutheran" />
		<tag k="name" v="Haga kyrkje" />
		<tag k="religion" v="christian" />
		<tag k="ssr:stedsnr" v="976276" />
	</node>
<<<<<<< HEAD
=======
	<node id="-629830" lat="60.2985666647" lon="5.58487222907">
		<tag k="name" v="Botnahytto" />
		<tag k="place" v="locality" />
		<tag k="ssr:stedsnr" v="664102" />
	</node>
	<node id="-629761" lat="60.39969701" lon="5.71062795961">
		<tag k="amenity" v="place_of_worship" />
		<tag k="denomination" v="lutheran" />
		<tag k="name" v="Ådland kyrkje" />
		<tag k="old_name" v="Samnanger;Samnanger kyrkje" />
		<tag k="religion" v="christian" />
		<tag k="ssr:stedsnr" v="491110" />
	</node>
>>>>>>> e1d4bc35ff8a6074a6f2e91616a996b547c36f15
</osm>
