<?xml version="1.0" encoding="UTF-8"?>
<osm generator="osmapis" version="0.6">
	<node id="-367616" lat="58.4177861093" lon="7.44829999888">
		<tag k="name" v="Skotebekken" />
		<tag k="ssr:stedsnr" v="825327" />
		<tag k="waterway" v="stream" />
	</node>
	<node id="-363519" lat="58.2992527794" lon="7.24443333533">
		<tag k="name" v="Pråmsvatn" />
		<tag k="natural" v="water" />
		<tag k="ssr:stedsnr" v="340891" />
		<tag k="water" v="lake" />
	</node>
	<node id="-363518" lat="58.3376666633" lon="7.31659166989">
		<tag k="name" v="Uførsbekken" />
		<tag k="ssr:stedsnr" v="340887" />
		<tag k="waterway" v="stream" />
	</node>
	<node id="-365052" lat="58.4058416696" lon="7.45373611758">
		<tag k="alt_name" v="Lomestjønn" />
		<tag k="name" v="Lomtjørn" />
		<tag k="natural" v="water" />
		<tag k="ssr:stedsnr" v="121902" />
	</node>
	<node id="-368123" lat="58.4390420013" lon="7.380830715">
		<tag k="loc_name" v="Skrikærkjødn" />
		<tag k="name" v="Skrigertjønn" />
		<tag k="natural" v="water" />
		<tag k="ssr:stedsnr" v="947100" />
	</node>
	<node id="-365049" lat="58.3417279901" lon="7.32676439051">
		<tag k="alt_name" v="Smørtjønn" />
		<tag k="name" v="Smørtjørna" />
		<tag k="natural" v="water" />
		<tag k="ssr:stedsnr" v="121690" />
	</node>
	<node id="-365048" lat="58.237351655" lon="7.39205289172">
		<tag k="alt_name" v="Berrvann" />
		<tag k="name" v="Bergvatnet" />
		<tag k="natural" v="water" />
		<tag k="ssr:stedsnr" v="121655" />
	</node>
	<node id="-363510" lat="58.2739222239" lon="7.34496666892">
		<tag k="name" v="Bukketjønn" />
		<tag k="natural" v="water" />
		<tag k="ssr:stedsnr" v="340815" />
	</node>
	<node id="-363509" lat="58.3349276767" lon="7.34308492927">
		<tag k="loc_name" v="Trodetjønn" />
		<tag k="name" v="Troddetjødn" />
		<tag k="natural" v="water" />
		<tag k="ssr:stedsnr" v="340778" />
	</node>
	<node id="-365044" lat="58.2982708461" lon="7.3137815691">
		<tag k="alt_name" v="Koltjønn" />
		<tag k="name" v="Koltjørn" />
		<tag k="natural" v="water" />
		<tag k="ssr:stedsnr" v="121527" />
	</node>
	<node id="-368115" lat="58.399991671" lon="7.36984167397">
		<tag k="loc_name" v="Nesetangen" />
		<tag k="name" v="Nesan" />
		<tag k="natural" v="cape" />
		<tag k="ssr:stedsnr" v="947038" />
	</node>
	<node id="-368114" lat="58.4028583374" lon="7.38710277509">
		<tag k="name" v="Ingeborgsodden" />
		<tag k="natural" v="cape" />
		<tag k="ssr:stedsnr" v="947030" />
	</node>
	<node id="-368112" lat="58.3749805593" lon="7.32161389462">
		<tag k="name" v="Vestertjødne" />
		<tag k="natural" v="water" />
		<tag k="ssr:stedsnr" v="947013" />
	</node>
	<node id="-363432" lat="58.4889777776" lon="7.48983333507">
		<tag k="name" v="Langedalsbekken" />
		<tag k="ssr:stedsnr" v="303594" />
		<tag k="waterway" v="stream" />
	</node>
	<node id="-367597" lat="58.2459953332" lon="7.27403965208">
		<tag k="name" v="Droga" />
		<tag k="natural" v="water" />
		<tag k="ssr:stedsnr" v="826256" />
	</node>
	<node id="-368107" lat="58.4497305584" lon="7.47569166273">
		<tag k="alt_name" v="Tungefoss" />
		<tag k="name" v="Tungefossen" />
		<tag k="natural" v="waterfall" />
		<tag k="ssr:stedsnr" v="910925" />
	</node>
	<node id="-368106" lat="58.440670952" lon="7.42894194472">
		<tag k="alt_name" v="Lauåstjønn" />
		<tag k="name" v="Lauvåstjørni" />
		<tag k="natural" v="water" />
		<tag k="ssr:stedsnr" v="910926" />
	</node>
	<node id="-363497" lat="58.3727111086" lon="7.36270000816">
		<tag k="name" v="Øydnekilen" />
		<tag k="natural" v="bay" />
		<tag k="ssr:stedsnr" v="340323" />
	</node>
	<node id="-367592" lat="58.4043527774" lon="7.34740277843">
		<tag k="alt_name" v="Tuptåna" />
		<tag k="name" v="Kvernåni" />
		<tag k="ssr:stedsnr" v="789908" />
		<tag k="waterway" v="stream" />
	</node>
	<node id="-363772" lat="58.4271416669" lon="7.3897305542">
		<tag k="name" v="Kvernbekken" />
		<tag k="ssr:stedsnr" v="364901" />
		<tag k="waterway" v="stream" />
	</node>
	<node id="-367590" lat="58.2752310423" lon="7.40487624503">
		<tag k="alt_name" v="Heslevatn" />
		<tag k="loc_name" v="Heslevanne" />
		<tag k="name" v="Heslevatnet" />
		<tag k="natural" v="water" />
		<tag k="ssr:stedsnr" v="789830" />
	</node>
	<node id="-363499" lat="58.3757138891" lon="7.35881667378">
		<tag k="name" v="Fjaddebekken" />
		<tag k="ssr:stedsnr" v="340343" />
		<tag k="waterway" v="stream" />
	</node>
	<node id="-367584" lat="58.2454638929" lon="7.29010278186">
		<tag k="alt_name" v="Eptevannet" />
		<tag k="name" v="Eptevatnet" />
		<tag k="natural" v="water" />
		<tag k="ssr:stedsnr" v="789405" />
		<tag k="water" v="lake" />
	</node>
	<node id="-368095" lat="58.4645509135" lon="7.44186466368">
		<tag k="alt_name" v="Bognevatn" />
		<tag k="name" v="Bognevatnet" />
		<tag k="natural" v="water" />
		<tag k="ssr:stedsnr" v="910576" />
	</node>
	<node id="-363484" lat="58.3969638845" lon="7.41461666728">
		<tag k="name" v="Lindestjønn" />
		<tag k="natural" v="water" />
		<tag k="ssr:stedsnr" v="340247" />
	</node>
	<node id="-363172" lat="58.472865334" lon="7.42258460593">
		<tag k="name" v="Bjendalstjønn" />
		<tag k="natural" v="water" />
		<tag k="ssr:stedsnr" v="280099" />
	</node>
	<node id="-366003" lat="58.3526916642" lon="7.31799999239">
		<tag k="name" v="Lonå" />
		<tag k="natural" v="water" />
		<tag k="ssr:stedsnr" v="522390" />
		<tag k="water" v="lake" />
	</node>
	<node id="-366037" lat="58.3299350361" lon="7.30808400776">
		<tag k="name" v="Stølstjønna" />
		<tag k="natural" v="water" />
		<tag k="ssr:stedsnr" v="522986" />
	</node>
	<node id="-363476" lat="58.4767611107" lon="7.4867666664">
		<tag k="name" v="Kollungtveittjønnan" />
		<tag k="natural" v="water" />
		<tag k="ssr:stedsnr" v="340198" />
	</node>
	<node id="-363474" lat="58.4761472218" lon="7.42113611665">
		<tag k="loc_name" v="Hoggåne" />
		<tag k="name" v="Hoggåna" />
		<tag k="ssr:stedsnr" v="340175" />
		<tag k="waterway" v="river" />
	</node>
	<node id="-363473" lat="58.4842944482" lon="7.47692221945">
		<tag k="name" v="Poddetjønn" />
		<tag k="natural" v="water" />
		<tag k="ssr:stedsnr" v="340170" />
	</node>
	<node id="-364777" lat="58.3619916657" lon="7.37045832967">
		<tag k="name" v="Sundet" />
		<tag k="natural" v="strait" />
		<tag k="ssr:stedsnr" v="97790" />
	</node>
	<node id="-363768" lat="58.4017527794" lon="7.32803055674">
		<tag k="alt_name" v="Lona" />
		<tag k="name" v="Lonin" />
		<tag k="natural" v="water" />
		<tag k="ssr:stedsnr" v="364650" />
		<tag k="water" v="lake" />
	</node>
	<node id="-366029" lat="58.3827083308" lon="7.37558888599">
		<tag k="name" v="Storefossen" />
		<tag k="natural" v="waterfall" />
		<tag k="ssr:stedsnr" v="522935" />
	</node>
	<node id="-364193" lat="58.2543962927" lon="7.29022196627">
		<tag k="loc_name" v="Rugebakktjønnå" />
		<tag k="name" v="Rugebakktjønna" />
		<tag k="natural" v="water" />
		<tag k="ssr:stedsnr" v="886841" />
	</node>
	<node id="-366020" lat="58.3371416711" lon="7.33516389264">
		<tag k="name" v="Brokkestemmen" />
		<tag k="ssr:stedsnr" v="522868" />
		<tag k="waterway" v="dam" />
	</node>
	<node id="-366019" lat="58.2485194406" lon="7.35949166518">
		<tag k="name" v="Skaretjønn" />
		<tag k="natural" v="water" />
		<tag k="ssr:stedsnr" v="522850" />
	</node>
	<node id="-363521" lat="58.3042388909" lon="7.38016388652">
		<tag k="name" v="Biktjønn" />
		<tag k="natural" v="water" />
		<tag k="ssr:stedsnr" v="340906" />
	</node>
	<node id="-363455" lat="58.4172611148" lon="7.40366945283">
		<tag k="name" v="Hårtveitskilen" />
		<tag k="natural" v="bay" />
		<tag k="ssr:stedsnr" v="340068" />
	</node>
	<node id="-366014" lat="58.2683880893" lon="7.32742734364">
		<tag k="name" v="Dyblemyrstemmen" />
		<tag k="natural" v="water" />
		<tag k="ssr:stedsnr" v="522801" />
	</node>
	<node id="-363452" lat="58.3649472232" lon="7.3243083377">
		<tag k="name" v="Grautestemmen" />
		<tag k="ssr:stedsnr" v="340033" />
		<tag k="waterway" v="dam" />
	</node>
	<node id="-366010" lat="58.2539583369" lon="7.27244722694">
		<tag k="name" v="Mjåvannet" />
		<tag k="natural" v="water" />
		<tag k="ssr:stedsnr" v="522762" />
		<tag k="water" v="lake" />
	</node>
	<node id="-366009" lat="58.2915722228" lon="7.26326667468">
		<tag k="name" v="Kromyrfossen" />
		<tag k="natural" v="waterfall" />
		<tag k="ssr:stedsnr" v="522761" />
	</node>
	<node id="-363447" lat="58.5181500009" lon="7.4909416644">
		<tag k="alt_name" v="Nordåna" />
		<tag k="name" v="Nordåni" />
		<tag k="ssr:stedsnr" v="304988" />
		<tag k="waterway" v="stream" />
	</node>
	<node id="-363445" lat="58.3553033816" lon="7.37317940338">
		<tag k="alt_name" v="Ytre Øydnevann" />
		<tag k="loc_name" v="Ytre Øydnevannet" />
		<tag k="name" v="Ytre Øydnavatnet" />
		<tag k="natural" v="water" />
		<tag k="ssr:stedsnr" v="303973" />
		<tag k="water" v="lake" />
	</node>
	<node id="-367028" lat="58.3419670105" lon="7.33809925654">
		<tag k="loc_name" v="Vesle Åltjønn" />
		<tag k="name" v="Lisla Åletjødn" />
		<tag k="natural" v="water" />
		<tag k="ssr:stedsnr" v="705891" />
	</node>
	<node id="-367027" lat="58.4363583309" lon="7.34918888947">
		<tag k="loc_name" v="Kvednæbekkjen" />
		<tag k="name" v="Kvednebekken" />
		<tag k="ssr:stedsnr" v="705410" />
		<tag k="waterway" v="stream" />
	</node>
	<node id="-364465" lat="58.3823083299" lon="7.37486665895">
		<tag k="name" v="Sagefossen" />
		<tag k="natural" v="waterfall" />
		<tag k="ssr:stedsnr" v="37951" />
	</node>
	<node id="-367024" lat="58.3351111141" lon="7.36946943674">
		<tag k="name" v="Kalvodden" />
		<tag k="natural" v="cape" />
		<tag k="ssr:stedsnr" v="704993" />
	</node>
	<node id="-367022" lat="58.3559222233" lon="7.39338611234">
		<tag k="name" v="Ågedalsbekken" />
		<tag k="ssr:stedsnr" v="704947" />
		<tag k="waterway" v="stream" />
	</node>
	<node id="-365469" lat="58.3858472226" lon="7.3808333385">
		<tag k="name" v="Pyttodden" />
		<tag k="natural" v="cape" />
		<tag k="ssr:stedsnr" v="219954" />
	</node>
	<node id="-363436" lat="58.3011083326" lon="7.38679167254">
		<tag k="name" v="Stemmetjørn" />
		<tag k="natural" v="water" />
		<tag k="ssr:stedsnr" v="303845" />
	</node>
	<node id="-363435" lat="58.4415416707" lon="7.34173611709">
		<tag k="alt_name" v="Stemtjønn;Ytre Stemtjønn" />
		<tag k="loc_name" v="Ytre Stemkjødn" />
		<tag k="name" v="Stemtjørni" />
		<tag k="natural" v="water" />
		<tag k="ssr:stedsnr" v="303679" />
	</node>
	<node id="-367017" lat="58.3130222231" lon="7.32932777352">
		<tag k="name" v="Langedretten" />
		<tag k="natural" v="cape" />
		<tag k="ssr:stedsnr" v="704874" />
	</node>
	<node id="-367016" lat="58.342389381" lon="7.32034254822">
		<tag k="loc_name" v="Foletjønn" />
		<tag k="name" v="Foletjødn" />
		<tag k="natural" v="water" />
		<tag k="ssr:stedsnr" v="704866" />
	</node>
	<node id="-363164" lat="58.3221694408" lon="7.33241666644">
		<tag k="name" v="Austevika" />
		<tag k="natural" v="bay" />
		<tag k="ssr:stedsnr" v="279997" />
	</node>
	<node id="-363430" lat="58.2917231147" lon="7.299989371">
		<tag k="alt_name" v="Måkevatn" />
		<tag k="name" v="Måkevatnet" />
		<tag k="natural" v="water" />
		<tag k="ssr:stedsnr" v="303524" />
	</node>
	<node id="-363156" lat="58.3047972233" lon="7.3381527745">
		<tag k="name" v="Høylungbakktjønn" />
		<tag k="natural" v="water" />
		<tag k="ssr:stedsnr" v="279889" />
	</node>
	<node id="-364451" lat="58.4683666628" lon="7.4593222283">
		<tag k="name" v="Mandalselva" />
		<tag k="ssr:stedsnr" v="37174" />
		<tag k="waterway" v="river" />
	</node>
	<node id="-365986" lat="58.2575722238" lon="7.34617777807">
		<tag k="name" v="Audna" />
		<tag k="ssr:stedsnr" v="522285" />
		<tag k="waterway" v="river" />
	</node>
	<node id="-364449" lat="58.4476222232" lon="7.458447214">
		<tag k="name" v="Lemtjønn" />
		<tag k="natural" v="water" />
		<tag k="ssr:stedsnr" v="37145" />
	</node>
	<node id="-364448" lat="58.4379481287" lon="7.38831756203">
		<tag k="name" v="Bergevatnan" />
		<tag k="natural" v="water" />
		<tag k="ssr:stedsnr" v="37143" />
	</node>
	<node id="-365471" lat="58.3574111149" lon="7.37936944059">
		<tag k="loc_name" v="Kvednhusodden" />
		<tag k="name" v="Kvernhusodden" />
		<tag k="natural" v="cape" />
		<tag k="ssr:stedsnr" v="219963" />
	</node>
	<node id="-364446" lat="58.4451027793" lon="7.33807499797">
		<tag k="loc_name" v="Dyblann" />
		<tag k="name" v="Dyblan" />
		<tag k="natural" v="water" />
		<tag k="ssr:stedsnr" v="37130" />
		<tag k="water" v="pond" />
	</node>
	<node id="-367005" lat="58.2715749975" lon="7.28694167516">
		<tag k="name" v="Oksekilen" />
		<tag k="natural" v="bay" />
		<tag k="ssr:stedsnr" v="704749" />
	</node>
	<node id="-365465" lat="58.2811527754" lon="7.31502499394">
		<tag k="name" v="Tedneset" />
		<tag k="natural" v="cape" />
		<tag k="ssr:stedsnr" v="219941" />
	</node>
	<node id="-366660" lat="58.2297388918" lon="7.37339722328">
		<tag k="name" v="Krogvannet" />
		<tag k="natural" v="water" />
		<tag k="ssr:stedsnr" v="643268" />
		<tag k="water" v="lake" />
	</node>
	<node id="-364438" lat="58.4307916664" lon="7.34354999248">
		<tag k="name" v="Skotetjønn" />
		<tag k="natural" v="water" />
		<tag k="ssr:stedsnr" v="37053" />
	</node>
	<node id="-364437" lat="58.3909611117" lon="7.37564166099">
		<tag k="name" v="Kreklingheineset" />
		<tag k="natural" v="cape" />
		<tag k="ssr:stedsnr" v="37051" />
	</node>
	<node id="-364436" lat="58.3913083329" lon="7.39726388951">
		<tag k="name" v="Ytre tjønnan" />
		<tag k="natural" v="water" />
		<tag k="ssr:stedsnr" v="37049" />
	</node>
	<node id="-366318" lat="58.374969441" lon="7.41975000212">
		<tag k="name" v="Stemmen" />
		<tag k="ssr:stedsnr" v="582264" />
		<tag k="waterway" v="dam" />
	</node>
	<node id="-364434" lat="58.4026416703" lon="7.36882500301">
		<tag k="name" v="Lyngneset" />
		<tag k="natural" v="cape" />
		<tag k="ssr:stedsnr" v="37038" />
	</node>
	<node id="-365455" lat="58.3595416636" lon="7.33757500413">
		<tag k="name" v="Lislebekkjen" />
		<tag k="ssr:stedsnr" v="219797" />
		<tag k="waterway" v="stream" />
	</node>
	<node id="-365454" lat="58.2289055514" lon="7.37004999568">
		<tag k="name" v="Bumyrdalstemmen" />
		<tag k="ssr:stedsnr" v="219794" />
		<tag k="waterway" v="dam" />
	</node>
	<node id="-365963" lat="58.3906805541" lon="7.38348333399">
		<tag k="name" v="Neset" />
		<tag k="natural" v="cape" />
		<tag k="ssr:stedsnr" v="522056" />
	</node>
	<node id="-365450" lat="58.3795750039" lon="7.34318332537">
		<tag k="name" v="Stokkebekkjen" />
		<tag k="ssr:stedsnr" v="219340" />
		<tag k="waterway" v="stream" />
	</node>
	<node id="-365961" lat="58.397280558" lon="7.33226111715">
		<tag k="name" v="Ramsheibekken" />
		<tag k="ssr:stedsnr" v="522042" />
		<tag k="waterway" v="stream" />
	</node>
	<node id="-365960" lat="58.4004666664" lon="7.37203333122">
		<tag k="name" v="Jovøy" />
		<tag k="place" v="islet" />
		<tag k="ssr:stedsnr" v="522041" />
	</node>
	<node id="-365957" lat="58.4565638848" lon="7.3665472232">
		<tag k="name" v="Håvåstjønn" />
		<tag k="natural" v="water" />
		<tag k="ssr:stedsnr" v="521131" />
	</node>
	<node id="-366977" lat="58.4514277785" lon="7.47987778084">
		<tag k="name" v="Tangen" />
		<tag k="natural" v="cape" />
		<tag k="ssr:stedsnr" v="704102" />
	</node>
	<node id="-366975" lat="58.4071611135" lon="7.44911389375">
		<tag k="name" v="Fæntjønn" />
		<tag k="natural" v="water" />
		<tag k="ssr:stedsnr" v="704094" />
	</node>
	<node id="-365950" lat="58.4345550062" lon="7.32192301277">
		<tag k="alt_name" v="Lølandslona" />
		<tag k="name" v="Lonin" />
		<tag k="natural" v="water" />
		<tag k="ssr:stedsnr" v="485632" />
	</node>
	<node id="-364412" lat="58.2758416647" lon="7.37695000767">
		<tag k="loc_name" v="Sauekjødnå" />
		<tag k="name" v="Sauetjønn" />
		<tag k="natural" v="water" />
		<tag k="ssr:stedsnr" v="36865" />
	</node>
	<node id="-366971" lat="58.4166500015" lon="7.48015555766">
		<tag k="name" v="Tvotjønn" />
		<tag k="natural" v="water" />
		<tag k="ssr:stedsnr" v="704075" />
	</node>
	<node id="-364410" lat="58.2725166674" lon="7.28462778423">
		<tag k="name" v="Saunesodden" />
		<tag k="natural" v="cape" />
		<tag k="ssr:stedsnr" v="36837" />
	</node>
	<node id="-366996" lat="58.3961805557" lon="7.35471389562">
		<tag k="name" v="Hagåna" />
		<tag k="ssr:stedsnr" v="704297" />
		<tag k="waterway" v="stream" />
	</node>
	<node id="-366966" lat="58.4088666632" lon="7.37388056038">
		<tag k="name" v="Lisleøy" />
		<tag k="place" v="islet" />
		<tag k="ssr:stedsnr" v="704032" />
	</node>
	<node id="-366965" lat="58.4108444486" lon="7.37880277043">
		<tag k="name" v="Vådneset" />
		<tag k="natural" v="cape" />
		<tag k="ssr:stedsnr" v="704028" />
	</node>
	<node id="-365428" lat="58.4816277749" lon="7.38083611432">
		<tag k="name" v="Brunesbekken" />
		<tag k="ssr:stedsnr" v="219152" />
		<tag k="waterway" v="stream" />
	</node>
	<node id="-366963" lat="58.3734277774" lon="7.32712778586">
		<tag k="name" v="Austertjødne" />
		<tag k="natural" v="water" />
		<tag k="ssr:stedsnr" v="704010" />
	</node>
	<node id="-366962" lat="58.4511972254" lon="7.46501666441">
		<tag k="name" v="Koletjønn" />
		<tag k="natural" v="water" />
		<tag k="ssr:stedsnr" v="704104" />
	</node>
	<node id="-366960" lat="58.4612361081" lon="7.38047778088">
		<tag k="name" v="Kleivebekken" />
		<tag k="ssr:stedsnr" v="703133" />
		<tag k="waterway" v="stream" />
	</node>
	<node id="-365419" lat="58.4176583374" lon="7.33830833267">
		<tag k="name" v="Vermåstjønn" />
		<tag k="natural" v="water" />
		<tag k="ssr:stedsnr" v="219053" />
	</node>
	<node id="-366953" lat="58.4732138863" lon="7.36613610538">
		<tag k="alt_name" v="Stemtjønn" />
		<tag k="name" v="Stemtjørn" />
		<tag k="natural" v="water" />
		<tag k="ssr:stedsnr" v="667865" />
	</node>
	<node id="-365416" lat="58.3915027776" lon="7.34368610789">
		<tag k="name" v="Hagåntjønn" />
		<tag k="natural" v="water" />
		<tag k="ssr:stedsnr" v="219035" />
	</node>
	<node id="-366951" lat="58.4314379225" lon="7.45615085577">
		<tag k="alt_name" v="Utbostadvatnet" />
		<tag k="name" v="Ubostadtjønn" />
		<tag k="natural" v="water" />
		<tag k="ssr:stedsnr" v="667850" />
		<tag k="water" v="lake" />
	</node>
	<node id="-366950" lat="58.2856588087" lon="7.39102615608">
		<tag k="alt_name" v="Urtjønn" />
		<tag k="name" v="Urdtjørn" />
		<tag k="natural" v="water" />
		<tag k="ssr:stedsnr" v="667840" />
	</node>
	<node id="-366949" lat="58.3365155309" lon="7.39907308139">
		<tag k="alt_name" v="Nåstadtjønna" />
		<tag k="name" v="Nåstadtjørni" />
		<tag k="natural" v="water" />
		<tag k="ssr:stedsnr" v="667773" />
	</node>
	<node id="-366947" lat="58.346464816" lon="7.4116434253">
		<tag k="alt_name" v="Storatjønn" />
		<tag k="name" v="Solbjørstjørnane" />
		<tag k="natural" v="water" />
		<tag k="ssr:stedsnr" v="667738" />
	</node>
	<node id="-366945" lat="58.4011000393" lon="7.31699456898">
		<tag k="alt_name" v="Heddåsvatnet" />
		<tag k="name" v="Hellåsvatnet" />
		<tag k="natural" v="water" />
		<tag k="ssr:stedsnr" v="667583" />
	</node>
	<node id="-366943" lat="58.4976600664" lon="7.52012341761">
		<tag k="alt_name" v="Grasåstjønn" />
		<tag k="name" v="Grasåtjørni" />
		<tag k="natural" v="water" />
		<tag k="ssr:stedsnr" v="667567" />
	</node>
	<node id="-365918" lat="58.4354087436" lon="7.38249807548">
		<tag k="loc_name" v="Kittelsvannæ" />
		<tag k="name" v="Kitelsvatn" />
		<tag k="natural" v="water" />
		<tag k="ssr:stedsnr" v="462094" />
	</node>
	<node id="-367963" lat="58.4254141687" lon="7.49336993887">
		<tag k="alt_name" v="Bjortjønn" />
		<tag k="name" v="Bjortjørn" />
		<tag k="natural" v="water" />
		<tag k="ssr:stedsnr" v="850873" />
	</node>
	<node id="-364377" lat="58.4467001334" lon="7.39011414312">
		<tag k="name" v="Buvatnet" />
		<tag k="natural" v="water" />
		<tag k="ssr:stedsnr" v="921" />
	</node>
	<node id="-367960" lat="58.3794819231" lon="7.33465876685">
		<tag k="alt_name" v="Kræklingheivannet" />
		<tag k="name" v="Heievatnan" />
		<tag k="natural" v="water" />
		<tag k="ssr:stedsnr" v="850736" />
	</node>
	<node id="-365911" lat="58.4007750015" lon="7.39044444942">
		<tag k="loc_name" v="Heimra Sandvikjæ" />
		<tag k="name" v="Sandvika" />
		<tag k="natural" v="bay" />
		<tag k="ssr:stedsnr" v="462044" />
	</node>
	<node id="-364374" lat="58.5082472249" lon="7.38478055613">
		<tag k="alt_name" v="Eptevatn" />
		<tag k="name" v="Eptevatnet" />
		<tag k="natural" v="water" />
		<tag k="ssr:stedsnr" v="885" />
		<tag k="water" v="lake" />
	</node>
	<node id="-363861" lat="58.3242749982" lon="7.30498054766">
		<tag k="name" v="Ytre tjønna" />
		<tag k="natural" v="water" />
		<tag k="ssr:stedsnr" v="401994" />
	</node>
	<node id="-367954" lat="58.4758389988" lon="7.3553299093">
		<tag k="alt_name" v="Sandtjønn" />
		<tag k="name" v="Sandtjørni" />
		<tag k="natural" v="water" />
		<tag k="ssr:stedsnr" v="850581" />
	</node>
	<node id="-364369" lat="58.2327191326" lon="7.38913698174">
		<tag k="alt_name" v="Svartevann" />
		<tag k="name" v="Svartevatnet" />
		<tag k="natural" v="water" />
		<tag k="ssr:stedsnr" v="639" />
	</node>
	<node id="-364368" lat="58.4652175065" lon="7.41978509211">
		<tag k="alt_name" v="Brunstjønn" />
		<tag k="name" v="Bronstjørni" />
		<tag k="natural" v="water" />
		<tag k="ssr:stedsnr" v="555" />
	</node>
	<node id="-367950" lat="58.2981579179" lon="7.24160392492">
		<tag k="alt_name" v="Pråmvann" />
		<tag k="name" v="Pråmvatnet" />
		<tag k="natural" v="water" />
		<tag k="ssr:stedsnr" v="849551" />
	</node>
	<node id="-367948" lat="58.3111089429" lon="7.32408124606">
		<tag k="alt_name" v="Hellevatn" />
		<tag k="loc_name" v="Hellevann" />
		<tag k="name" v="Hellevatnet" />
		<tag k="natural" v="water" />
		<tag k="ssr:stedsnr" v="849571" />
		<tag k="water" v="lake" />
	</node>
	<node id="-364769" lat="58.3038111083" lon="7.32312222194">
		<tag k="name" v="Ytre Hellevatn" />
		<tag k="natural" v="water" />
		<tag k="ssr:stedsnr" v="97294" />
		<tag k="water" v="lake" />
	</node>
	<node id="-368182" lat="58.3271749994" lon="7.32006389037">
		<tag k="name" v="Nueneset" />
		<tag k="natural" v="cape" />
		<tag k="ssr:stedsnr" v="947998" />
	</node>
	<node id="-365887" lat="58.2573750013" lon="7.42766111198">
		<tag k="name" v="Heiestemmen" />
		<tag k="natural" v="water" />
		<tag k="ssr:stedsnr" v="461777" />
	</node>
	<node id="-365886" lat="58.2612555556" lon="7.42189999701">
		<tag k="name" v="Lauvdalstjønn" />
		<tag k="natural" v="water" />
		<tag k="ssr:stedsnr" v="461768" />
	</node>
	<node id="-365079" lat="58.4172166642" lon="7.32627500626">
		<tag k="name" v="Olavstjønn" />
		<tag k="natural" v="water" />
		<tag k="ssr:stedsnr" v="158077" />
	</node>
	<node id="-363835" lat="58.4480472259" lon="7.47021945246">
		<tag k="name" v="Koletjønn" />
		<tag k="natural" v="water" />
		<tag k="ssr:stedsnr" v="401115" />
	</node>
	<node id="-365881" lat="58.3478138898" lon="7.37489445291">
		<tag k="name" v="Staksholmen" />
		<tag k="natural" v="cape" />
		<tag k="ssr:stedsnr" v="461236" />
	</node>
	<node id="-365879" lat="58.3448583347" lon="7.37248611465">
		<tag k="name" v="Sundet" />
		<tag k="natural" v="strait" />
		<tag k="ssr:stedsnr" v="461230" />
	</node>
	<node id="-363829" lat="58.4146638846" lon="7.38844444064">
		<tag k="loc_name" v="Roshamåren" />
		<tag k="name" v="Rosshammeren" />
		<tag k="natural" v="cape" />
		<tag k="ssr:stedsnr" v="401069" />
	</node>
	<node id="-363826" lat="58.4042444436" lon="7.38896110334">
		<tag k="name" v="Storasundet" />
		<tag k="natural" v="strait" />
		<tag k="ssr:stedsnr" v="401026" />
	</node>
	<node id="-365866" lat="58.2957555599" lon="7.36116944282">
		<tag k="name" v="Hunsdalsbekken" />
		<tag k="ssr:stedsnr" v="461316" />
		<tag k="waterway" v="stream" />
	</node>
	<node id="-363816" lat="58.2421583358" lon="7.39626666931">
		<tag k="name" v="Lonen" />
		<tag k="natural" v="water" />
		<tag k="ssr:stedsnr" v="400883" />
		<tag k="water" v="lake" />
	</node>
	<node id="-363814" lat="58.2797305581" lon="7.38292500174">
		<tag k="name" v="Støa" />
		<tag k="natural" v="bay" />
		<tag k="ssr:stedsnr" v="400863" />
	</node>
	<node id="-366373" lat="58.3629805533" lon="7.36851665833">
		<tag k="name" v="Sundsodden" />
		<tag k="natural" v="cape" />
		<tag k="ssr:stedsnr" v="583964" />
	</node>
	<node id="-366372" lat="58.361952779" lon="7.34356944469">
		<tag k="name" v="Høylandsbekkjen" />
		<tag k="ssr:stedsnr" v="583960" />
		<tag k="waterway" v="stream" />
	</node>
	<node id="-363810" lat="58.2543359548" lon="7.31582936247">
		<tag k="name" v="Eigelandstjønn" />
		<tag k="natural" v="water" />
		<tag k="ssr:stedsnr" v="400845" />
	</node>
	<node id="-363807" lat="58.2413500044" lon="7.41481388529">
		<tag k="name" v="Krågetjønn" />
		<tag k="natural" v="water" />
		<tag k="ssr:stedsnr" v="400767" />
	</node>
	<node id="-366366" lat="58.4683277776" lon="7.40349444552">
		<tag k="name" v="Hålandstjønn" />
		<tag k="natural" v="water" />
		<tag k="ssr:stedsnr" v="583349" />
		<tag k="water" v="lake" />
	</node>
	<node id="-364421" lat="58.3110777734" lon="7.36175000359">
		<tag k="name" v="Storøy" />
		<tag k="natural" v="cape" />
		<tag k="ssr:stedsnr" v="36904" />
	</node>
	<node id="-365852" lat="58.4719418217" lon="7.41009619262">
		<tag k="alt_name" v="Hålandstjønn" />
		<tag k="name" v="Hålandstjørni" />
		<tag k="natural" v="water" />
		<tag k="ssr:stedsnr" v="425550" />
	</node>
	<node id="-365851" lat="58.4701888872" lon="7.47175278589">
		<tag k="alt_name" v="Kvernebekken" />
		<tag k="name" v="Kvernbekken" />
		<tag k="ssr:stedsnr" v="425538" />
		<tag k="waterway" v="stream" />
	</node>
	<node id="-363797" lat="58.3881000035" lon="7.43099999266">
		<tag k="name" v="Skogestemmen" />
		<tag k="ssr:stedsnr" v="400230" />
		<tag k="waterway" v="dam" />
	</node>
	<node id="-366355" lat="58.3759166625" lon="7.37065555778">
		<tag k="name" v="Storalona" />
		<tag k="natural" v="water" />
		<tag k="ssr:stedsnr" v="583004" />
		<tag k="water" v="lake" />
	</node>
	<node id="-364814" lat="58.3861888921" lon="7.33707221528">
		<tag k="name" v="Stemtjønn" />
		<tag k="natural" v="water" />
		<tag k="ssr:stedsnr" v="98944" />
	</node>
	<node id="-363513" lat="58.2574750021" lon="7.28743055374">
		<tag k="loc_name" v="Klamrefossen" />
		<tag k="name" v="Klamrefoss" />
		<tag k="natural" v="waterfall" />
		<tag k="ssr:stedsnr" v="340841" />
	</node>
	<node id="-366345" lat="58.3057888903" lon="7.36626943953">
		<tag k="name" v="Risbekken" />
		<tag k="ssr:stedsnr" v="582904" />
		<tag k="waterway" v="stream" />
	</node>
	<node id="-366344" lat="58.3026833311" lon="7.35827499435">
		<tag k="name" v="Ålgårdshylen" />
		<tag k="place" v="locality" />
		<tag k="ssr:stedsnr" v="582901" />
	</node>
	<node id="-366342" lat="58.3065638888" lon="7.32254444661">
		<tag k="name" v="Ronå" />
		<tag k="natural" v="bay" />
		<tag k="ssr:stedsnr" v="582883" />
	</node>
	<node id="-366340" lat="58.2506972263" lon="7.29700832549">
		<tag k="loc_name" v="Leirvigå" />
		<tag k="name" v="Leirvigen" />
		<tag k="natural" v="bay" />
		<tag k="ssr:stedsnr" v="582863" />
	</node>
	<node id="-366338" lat="58.2778555595" lon="7.35180278414">
		<tag k="name" v="Storeneset" />
		<tag k="natural" v="cape" />
		<tag k="ssr:stedsnr" v="582856" />
	</node>
	<node id="-366626" lat="58.3846028969" lon="7.42368294738">
		<tag k="alt_name" v="Dalandstjønna" />
		<tag k="name" v="Dalanstjørni" />
		<tag k="natural" v="water" />
		<tag k="ssr:stedsnr" v="606993" />
	</node>
	<node id="-363477" lat="58.4971916711" lon="7.48130554787">
		<tag k="name" v="Stebekken" />
		<tag k="ssr:stedsnr" v="340217" />
		<tag k="waterway" v="stream" />
	</node>
	<node id="-364796" lat="58.3938138854" lon="7.3811861036">
		<tag k="name" v="Buksholman" />
		<tag k="place" v="islet" />
		<tag k="ssr:stedsnr" v="98042" />
	</node>
	<node id="-364795" lat="58.3658361142" lon="7.35512500661">
		<tag k="name" v="Høylandsbekken" />
		<tag k="ssr:stedsnr" v="98019" />
		<tag k="waterway" v="stream" />
	</node>
	<node id="-363770" lat="58.4220934841" lon="7.3393698267">
		<tag k="alt_name" v="Fossvatn" />
		<tag k="name" v="Fossvatnet" />
		<tag k="natural" v="water" />
		<tag k="ssr:stedsnr" v="364669" />
	</node>
	<node id="-364792" lat="58.2950916654" lon="7.28803610673">
		<tag k="name" v="Smørtjødn" />
		<tag k="natural" v="water" />
		<tag k="ssr:stedsnr" v="97918" />
	</node>
	<node id="-364787" lat="58.2651277805" lon="7.40315276965">
		<tag k="name" v="Bustadtjønn" />
		<tag k="natural" v="water" />
		<tag k="ssr:stedsnr" v="97864" />
	</node>
	<node id="-367346" lat="58.3268944453" lon="7.42109721958">
		<tag k="name" v="Stemmyrstemmen" />
		<tag k="ssr:stedsnr" v="765979" />
		<tag k="waterway" v="dam" />
	</node>
	<node id="-367342" lat="58.385900004" lon="7.38307222516">
		<tag k="name" v="Osestøa" />
		<tag k="natural" v="bay" />
		<tag k="ssr:stedsnr" v="765944" />
	</node>
	<node id="-366316" lat="58.3447333322" lon="7.4139333395">
		<tag k="name" v="Lisletjønn" />
		<tag k="natural" v="water" />
		<tag k="ssr:stedsnr" v="582237" />
	</node>
	<node id="-366313" lat="58.35004722" lon="7.31095556195">
		<tag k="loc_name" v="Asalbukta" />
		<tag k="name" v="Åsålbuktå" />
		<tag k="natural" v="bay" />
		<tag k="ssr:stedsnr" v="582217" />
	</node>
	<node id="-364776" lat="58.3278777753" lon="7.28544722545">
		<tag k="name" v="Døynå" />
		<tag k="place" v="island" />
		<tag k="ssr:stedsnr" v="97786" />
	</node>
	<node id="-364775" lat="58.2702984917" lon="7.41672643055">
		<tag k="loc_name" v="Heddevanne" />
		<tag k="name" v="Heddevann" />
		<tag k="natural" v="water" />
		<tag k="ssr:stedsnr" v="97780" />
	</node>
	<node id="-367334" lat="58.2882111076" lon="7.3787972221">
		<tag k="name" v="Lonen" />
		<tag k="natural" v="water" />
		<tag k="ssr:stedsnr" v="765767" />
		<tag k="water" v="lake" />
	</node>
	<node id="-365400" lat="58.4286518464" lon="7.4067688755">
		<tag k="alt_name" v="Stedjanstjønn" />
		<tag k="name" v="Lonan" />
		<tag k="natural" v="water" />
		<tag k="ssr:stedsnr" v="182878" />
	</node>
	<node id="-366305" lat="58.3976204845" lon="7.37663558321">
		<tag k="alt_name" v="Øydnavatnet, øvre" />
		<tag k="loc_name" v="Øvre Øydnevannet" />
		<tag k="name" v="Øvre Øydnevatn" />
		<tag k="natural" v="water" />
		<tag k="ssr:stedsnr" v="546965" />
		<tag k="water" v="lake" />
	</node>
	<node id="-364767" lat="58.2901749967" lon="7.35517778152">
		<tag k="name" v="Audnaelva" />
		<tag k="ssr:stedsnr" v="97285" />
		<tag k="waterway" v="river" />
	</node>
	<node id="-367326" lat="58.3487083364" lon="7.40537221535">
		<tag k="name" v="Linlandsbekken" />
		<tag k="ssr:stedsnr" v="765212" />
		<tag k="waterway" v="stream" />
	</node>
	<node id="-365861" lat="58.4357000002" lon="7.35769999546">
		<tag k="alt_name" v="Våråna" />
		<tag k="loc_name" v="Ånæ" />
		<tag k="name" v="Vårdalsåni" />
		<tag k="ssr:stedsnr" v="425917" />
		<tag k="waterway" v="river" />
	</node>
	<node id="-365860" lat="58.505702025" lon="7.52167190191">
		<tag k="alt_name" v="Murtetjønn" />
		<tag k="name" v="Murtjørn" />
		<tag k="natural" v="water" />
		<tag k="ssr:stedsnr" v="425889" />
	</node>
	<node id="-366294" lat="58.485466663" lon="7.38668333448">
		<tag k="name" v="Kleivestemmen" />
		<tag k="natural" v="water" />
		<tag k="ssr:stedsnr" v="546568" />
	</node>
	<node id="-364756" lat="58.4979972188" lon="7.4887972209">
		<tag k="name" v="Breiva" />
		<tag k="place" v="locality" />
		<tag k="ssr:stedsnr" v="97216" />
	</node>
	<node id="-366291" lat="58.4767472232" lon="7.45999443969">
		<tag k="name" v="Kollungtveitfossen" />
		<tag k="natural" v="waterfall" />
		<tag k="ssr:stedsnr" v="546544" />
	</node>
	<node id="-367313" lat="58.4834249994" lon="7.45834444671">
		<tag k="name" v="Ferjestaden" />
		<tag k="natural" v="bay" />
		<tag k="ssr:stedsnr" v="765160" />
	</node>
	<node id="-367312" lat="58.4810861089" lon="7.44050834081">
		<tag k="name" v="Seljåstjønn" />
		<tag k="natural" v="water" />
		<tag k="ssr:stedsnr" v="765157" />
	</node>
	<node id="-368333" lat="58.4148305564" lon="7.38666111227">
		<tag k="name" v="Gaulevikskilen" />
		<tag k="natural" v="bay" />
		<tag k="ssr:stedsnr" v="961306" />
	</node>
	<node id="-364748" lat="58.4924555593" lon="7.51815833525">
		<tag k="name" v="Moltetjønn" />
		<tag k="natural" v="water" />
		<tag k="ssr:stedsnr" v="97159" />
	</node>
	<node id="-364747" lat="58.4795694434" lon="7.4453833298">
		<tag k="name" v="Seljåstjønn" />
		<tag k="natural" v="water" />
		<tag k="ssr:stedsnr" v="97144" />
	</node>
	<node id="-367306" lat="58.4392326532" lon="7.34046692151">
		<tag k="loc_name" v="Midtre Stemkjødn" />
		<tag k="name" v="Midtre Stemtjønn" />
		<tag k="natural" v="water" />
		<tag k="ssr:stedsnr" v="765111" />
	</node>
	<node id="-365943" lat="58.3064928092" lon="7.31228997492">
		<tag k="alt_name" v="Sobelitjønn" />
		<tag k="name" v="Såpetjørna" />
		<tag k="natural" v="water" />
		<tag k="ssr:stedsnr" v="485480" />
	</node>
	<node id="-364225" lat="58.3486638854" lon="7.37801388989">
		<tag k="name" v="Sannan" />
		<tag k="natural" v="beach" />
		<tag k="ssr:stedsnr" v="279241" />
	</node>
	<node id="-367296" lat="58.3997305567" lon="7.38674721511">
		<tag k="name" v="Slåtøy" />
		<tag k="place" v="islet" />
		<tag k="ssr:stedsnr" v="765044" />
	</node>
	<node id="-367295" lat="58.4070888913" lon="7.37843055904">
		<tag k="name" v="Geiteknodden" />
		<tag k="natural" v="cape" />
		<tag k="ssr:stedsnr" v="765040" />
	</node>
	<node id="-364221" lat="58.3490000042" lon="7.36698888115">
		<tag k="name" v="Grasvika" />
		<tag k="natural" v="bay" />
		<tag k="ssr:stedsnr" v="279213" />
	</node>
	<node id="-367292" lat="58.277169442" lon="7.30261944681">
		<tag k="name" v="Vestre Surtevann" />
		<tag k="natural" v="water" />
		<tag k="ssr:stedsnr" v="764941" />
		<tag k="water" v="lake" />
	</node>
	<node id="-367290" lat="58.2819861086" lon="7.28946389333">
		<tag k="name" v="Fossen" />
		<tag k="natural" v="waterfall" />
		<tag k="ssr:stedsnr" v="764936" />
	</node>
	<node id="-365855" lat="58.4305937997" lon="7.33048485549">
		<tag k="name" v="Lølandsvatnet" />
		<tag k="natural" v="water" />
		<tag k="ssr:stedsnr" v="425689" />
	</node>
	<node id="-364216" lat="58.4545583371" lon="7.46686388672">
		<tag k="name" v="Kolbekkhola" />
		<tag k="natural" v="bay" />
		<tag k="ssr:stedsnr" v="887115" />
	</node>
	<node id="-364726" lat="58.2789966251" lon="7.38519764359">
		<tag k="alt_name" v="Moslandsvatnet" />
		<tag k="name" v="Mosvatnet" />
		<tag k="natural" v="water" />
		<tag k="ssr:stedsnr" v="60874" />
	</node>
	<node id="-364745" lat="58.4900194432" lon="7.44426389584">
		<tag k="name" v="Storøy" />
		<tag k="place" v="island" />
		<tag k="ssr:stedsnr" v="97133" />
	</node>
	<node id="-364211" lat="58.4154805535" lon="7.4090416612">
		<tag k="name" v="Hårtveitsåna" />
		<tag k="ssr:stedsnr" v="887071" />
		<tag k="waterway" v="stream" />
	</node>
	<node id="-364210" lat="58.4013027773" lon="7.37438611511">
		<tag k="name" v="Hegrøy" />
		<tag k="place" v="islet" />
		<tag k="ssr:stedsnr" v="887044" />
	</node>
	<node id="-364209" lat="58.3684555553" lon="7.34829722535">
		<tag k="name" v="Rullandsbekken" />
		<tag k="ssr:stedsnr" v="887030" />
		<tag k="waterway" v="stream" />
	</node>
	<node id="-364207" lat="58.3287138849" lon="7.36769166674">
		<tag k="name" v="Vassvika" />
		<tag k="natural" v="bay" />
		<tag k="ssr:stedsnr" v="886982" />
	</node>
	<node id="-364206" lat="58.3286749979" lon="7.34831943727">
		<tag k="name" v="Stemmen" />
		<tag k="natural" v="water" />
		<tag k="ssr:stedsnr" v="886983" />
	</node>
	<node id="-364205" lat="58.2782916696" lon="7.29014167333">
		<tag k="name" v="Katteneset" />
		<tag k="natural" v="cape" />
		<tag k="ssr:stedsnr" v="886943" />
	</node>
	<node id="-363180" lat="58.3814777796" lon="7.36314444855">
		<tag k="name" v="Heiebekken" />
		<tag k="ssr:stedsnr" v="280948" />
		<tag k="waterway" v="stream" />
	</node>
	<node id="-368160" lat="58.2773111072" lon="7.35422221922">
		<tag k="name" v="Suggeneset" />
		<tag k="natural" v="cape" />
		<tag k="ssr:stedsnr" v="947845" />
	</node>
	<node id="-363177" lat="58.3459555519" lon="7.35155278588">
		<tag k="name" v="Åletjødnsbekkjen" />
		<tag k="ssr:stedsnr" v="280397" />
		<tag k="waterway" v="stream" />
	</node>
	<node id="-367271" lat="58.3917305534" lon="7.3810805633">
		<tag k="name" v="Mittingen" />
		<tag k="place" v="islet" />
		<tag k="ssr:stedsnr" v="728981" />
	</node>
	<node id="-364198" lat="58.306575002" lon="7.28259443737">
		<tag k="name" v="Sundsvatn" />
		<tag k="natural" v="water" />
		<tag k="ssr:stedsnr" v="886886" />
		<tag k="water" v="lake" />
	</node>
	<node id="-367269" lat="58.4472720527" lon="7.4216747823">
		<tag k="name" v="Grindheimsvatnet" />
		<tag k="natural" v="water" />
		<tag k="ssr:stedsnr" v="728904" />
		<tag k="water" v="lake" />
	</node>
	<node id="-367268" lat="58.4091421964" lon="7.45923514564">
		<tag k="loc_name" v="Biletjønn" />
		<tag k="name" v="Biletjørn" />
		<tag k="natural" v="water" />
		<tag k="ssr:stedsnr" v="728892" />
	</node>
	<node id="-365730" lat="58.2395402421" lon="7.40846392192">
		<tag k="name" v="Hunnsevannet" />
		<tag k="natural" v="water" />
		<tag k="ssr:stedsnr" v="265286" />
		<tag k="water" v="lake" />
	</node>
	<node id="-367265" lat="58.2650210683" lon="7.3966397509">
		<tag k="alt_name" v="Heiestemmen" />
		<tag k="name" v="Heistemmen" />
		<tag k="natural" v="water" />
		<tag k="ssr:stedsnr" v="728832" />
	</node>
	<node id="-367264" lat="58.2730191411" lon="7.4120262656">
		<tag k="alt_name" v="Urevatn" />
		<tag k="loc_name" v="Urevanne" />
		<tag k="name" v="Urdevatnet" />
		<tag k="natural" v="water" />
		<tag k="ssr:stedsnr" v="728812" />
	</node>
	<node id="-367263" lat="58.2727132938" lon="7.32390737913">
		<tag k="alt_name" v="Munlidtjønn" />
		<tag k="loc_name" v="Munlitjødnå" />
		<tag k="name" v="Munnlitjørna" />
		<tag k="natural" v="water" />
		<tag k="ssr:stedsnr" v="728598" />
	</node>
	<node id="-367262" lat="58.4899722196" lon="7.44669444972">
		<tag k="name" v="Kilen" />
		<tag k="place" v="locality" />
		<tag k="ssr:stedsnr" v="728575" />
	</node>
	<node id="-367261" lat="58.4829221824" lon="7.42980684334">
		<tag k="alt_name" v="Hannekilen" />
		<tag k="name" v="Hanekilen" />
		<tag k="natural" v="water" />
		<tag k="ssr:stedsnr" v="728573" />
		<tag k="water" v="lake" />
	</node>
	<node id="-367260" lat="58.2895493118" lon="7.27624389895">
		<tag k="alt_name" v="Åbestadtjødn" />
		<tag k="name" v="Åbestadtjørna" />
		<tag k="natural" v="water" />
		<tag k="ssr:stedsnr" v="728512" />
	</node>
	<node id="-363163" lat="58.2872194481" lon="7.33064444877">
		<tag k="name" v="Nepstadtjønn" />
		<tag k="natural" v="water" />
		<tag k="ssr:stedsnr" v="279926" />
	</node>
	<node id="-363162" lat="58.2934722215" lon="7.32479722332">
		<tag k="name" v="Stemmen" />
		<tag k="ssr:stedsnr" v="279920" />
		<tag k="waterway" v="dam" />
	</node>
	<node id="-365720" lat="58.3404987773" lon="7.33530561403">
		<tag k="alt_name" v="Åletjødn" />
		<tag k="loc_name" v="Åltjønn" />
		<tag k="name" v="Åltjørna" />
		<tag k="natural" v="water" />
		<tag k="ssr:stedsnr" v="243574" />
	</node>
	<node id="-365719" lat="58.2815694974" lon="7.31405406255">
		<tag k="alt_name" v="Austre Surtevatn" />
		<tag k="name" v="Surtevatnet" />
		<tag k="natural" v="water" />
		<tag k="ssr:stedsnr" v="243512" />
	</node>
	<node id="-365718" lat="58.2380840787" lon="7.26317503806">
		<tag k="alt_name" v="Homevannet" />
		<tag k="name" v="Homevatnet" />
		<tag k="natural" v="water" />
		<tag k="ssr:stedsnr" v="243434" />
	</node>
	<node id="-364180" lat="58.2775833351" lon="7.2870444405">
		<tag k="name" v="Barstadvann" />
		<tag k="natural" v="water" />
		<tag k="ssr:stedsnr" v="886294" />
		<tag k="water" v="lake" />
	</node>
	<node id="-363155" lat="58.3089694419" lon="7.32580000077">
		<tag k="loc_name" v="Furedræte" />
		<tag k="name" v="Furedretten" />
		<tag k="natural" v="cape" />
		<tag k="ssr:stedsnr" v="279884" />
	</node>
	<node id="-363154" lat="58.3113722243" lon="7.31143056155">
		<tag k="name" v="Lomstjønn" />
		<tag k="natural" v="water" />
		<tag k="ssr:stedsnr" v="279882" />
	</node>
	<node id="-363153" lat="58.3148777765" lon="7.29818610723">
		<tag k="name" v="Sundskilen" />
		<tag k="natural" v="bay" />
		<tag k="ssr:stedsnr" v="279880" />
	</node>
	<node id="-366616" lat="58.4702805574" lon="7.48957221738">
		<tag k="alt_name" v="Kollungtveittjørnan" />
		<tag k="name" v="Kollungtveittjørnane" />
		<tag k="natural" v="water" />
		<tag k="ssr:stedsnr" v="606562" />
	</node>
	<node id="-364169" lat="58.3470416667" lon="7.37378888782">
		<tag k="name" v="Midtholmen" />
		<tag k="place" v="islet" />
		<tag k="ssr:stedsnr" v="886192" />
	</node>
	<node id="-363144" lat="58.2765622133" lon="7.4010000526">
		<tag k="loc_name" v="Kålvedalskjødnå" />
		<tag k="name" v="Kålvedalstjønn" />
		<tag k="natural" v="water" />
		<tag k="ssr:stedsnr" v="279778" />
	</node>
	<node id="-364167" lat="58.5144904351" lon="7.51716671525">
		<tag k="name" v="Treskotjønn" />
		<tag k="natural" v="water" />
		<tag k="ssr:stedsnr" v="886176" />
	</node>
	<node id="-363140" lat="58.2535486823" lon="7.42602913017">
		<tag k="name" v="Djubetjønn" />
		<tag k="natural" v="water" />
		<tag k="ssr:stedsnr" v="279760" />
	</node>
	<node id="-364163" lat="58.4817472267" lon="7.35085000006">
		<tag k="name" v="Gråstadtjønn" />
		<tag k="natural" v="water" />
		<tag k="ssr:stedsnr" v="886156" />
	</node>
	<node id="-364158" lat="58.4903472234" lon="7.36505278327">
		<tag k="name" v="Teigetjønn" />
		<tag k="natural" v="water" />
		<tag k="ssr:stedsnr" v="886125" />
	</node>
	<node id="-367273" lat="58.2436166664" lon="7.34589166816">
		<tag k="name" v="Audna" />
		<tag k="ssr:stedsnr" v="764250" />
		<tag k="waterway" v="river" />
	</node>
	<node id="-368180" lat="58.3344083328" lon="7.36027221494">
		<tag k="name" v="Bustø" />
		<tag k="natural" v="cape" />
		<tag k="ssr:stedsnr" v="947980" />
	</node>
	<node id="-363130" lat="58.2721055553" lon="7.27958056265">
		<tag k="name" v="Øyna" />
		<tag k="place" v="island" />
		<tag k="ssr:stedsnr" v="279266" />
	</node>
	<node id="-364223" lat="58.3534861067" lon="7.31640277884">
		<tag k="name" v="Ivelandstjødnå" />
		<tag k="natural" v="water" />
		<tag k="ssr:stedsnr" v="279223" />
	</node>
	<node id="-364749" lat="58.4823694409" lon="7.50711110349">
		<tag k="name" v="Kartetjønn" />
		<tag k="natural" v="water" />
		<tag k="ssr:stedsnr" v="97162" />
	</node>
	<node id="-364393" lat="58.2671783845" lon="7.28471683037">
		<tag k="loc_name" v="Hestkjødnå" />
		<tag k="name" v="Hesttjønn" />
		<tag k="natural" v="water" />
		<tag k="ssr:stedsnr" v="36231" />
	</node>
	<node id="-363454" lat="58.3894805527" lon="7.37342777614">
		<tag k="name" v="Bladalsvika" />
		<tag k="natural" v="bay" />
		<tag k="ssr:stedsnr" v="340051" />
	</node>
	<node id="-363812" lat="58.2619472264" lon="7.28771666195">
		<tag k="loc_name" v="Mågeskjere" />
		<tag k="name" v="Måkeskjær" />
		<tag k="place" v="islet" />
		<tag k="ssr:stedsnr" v="400857" />
	</node>
	<node id="-363113" lat="58.37078611" lon="7.3722722274">
		<tag k="name" v="Skjeistokken" />
		<tag k="natural" v="cape" />
		<tag k="ssr:stedsnr" v="280014" />
	</node>
	<node id="-365927" lat="58.359236108" lon="7.36729167281">
		<tag k="name" v="Sandvika" />
		<tag k="natural" v="bay" />
		<tag k="ssr:stedsnr" v="462967" />
	</node>
	<node id="-366695" lat="58.3374916707" lon="7.36163334122">
		<tag k="name" v="Ivelandssanden" />
		<tag k="natural" v="beach" />
		<tag k="ssr:stedsnr" v="644000" />
	</node>
	<node id="-366692" lat="58.3224361106" lon="7.41807777319">
		<tag k="name" v="Steinstemmen" />
		<tag k="ssr:stedsnr" v="643978" />
		<tag k="waterway" v="dam" />
	</node>
	<node id="-364390" lat="58.3834944429" lon="7.40367221396">
		<tag k="name" v="Dyblan" />
		<tag k="natural" v="water" />
		<tag k="ssr:stedsnr" v="36212" />
		<tag k="water" v="pond" />
	</node>
	<node id="-364190" lat="58.322361114" lon="7.38751666931">
		<tag k="name" v="Røysebekken" />
		<tag k="ssr:stedsnr" v="886328" />
		<tag k="waterway" v="stream" />
	</node>
	<node id="-363111" lat="58.3811527789" lon="7.37296666457">
		<tag k="name" v="Osen" />
		<tag k="natural" v="bay" />
		<tag k="ssr:stedsnr" v="280008" />
	</node>
	<node id="-363469" lat="58.4787416642" lon="7.42685832602">
		<tag k="name" v="Hoggefossen" />
		<tag k="natural" v="waterfall" />
		<tag k="ssr:stedsnr" v="340160" />
	</node>
	<node id="-363145" lat="58.2678861131" lon="7.28293333568">
		<tag k="loc_name" v="Hestosen" />
		<tag k="name" v="Hesten" />
		<tag k="ssr:stedsnr" v="279827" />
		<tag k="waterway" v="stream" />
	</node>
	<node id="-363450" lat="58.3737111116" lon="7.38008611903">
		<tag k="name" v="Voddebekken" />
		<tag k="ssr:stedsnr" v="340023" />
		<tag k="waterway" v="stream" />
	</node>
	<node id="-365394" lat="58.2476780055" lon="7.38930626349">
		<tag k="alt_name" v="Fiddantjønn" />
		<tag k="name" v="Fidlandsvatnet" />
		<tag k="natural" v="water" />
		<tag k="ssr:stedsnr" v="182631" />
	</node>
	<node id="-367289" lat="58.2973861142" lon="7.27510556371">
		<tag k="name" v="Sundsosen" />
		<tag k="natural" v="bay" />
		<tag k="ssr:stedsnr" v="764933" />
	</node>
	<node id="-364387" lat="58.5023472217" lon="7.49326388033">
		<tag k="name" v="Verdalsbekken" />
		<tag k="ssr:stedsnr" v="36182" />
		<tag k="waterway" v="stream" />
	</node>
	<node id="-367600" lat="58.330722224" lon="7.28733888514">
		<tag k="name" v="Kvestadkilen" />
		<tag k="natural" v="strait" />
		<tag k="ssr:stedsnr" v="826275" />
	</node>
	<node id="-366661" lat="58.2715638891" lon="7.35086388781">
		<tag k="name" v="Audnaelva" />
		<tag k="ssr:stedsnr" v="643277" />
		<tag k="waterway" v="river" />
	</node>
	<node id="-367684" lat="58.2846916702" lon="7.27320278582">
		<tag k="name" v="Borgefoss" />
		<tag k="natural" v="waterfall" />
		<tag k="ssr:stedsnr" v="826941" />
	</node>
	<node id="-365123" lat="58.2758119307" lon="7.38793245159">
		<tag k="loc_name" v="Høylandstjødnå" />
		<tag k="name" v="Høylandstjønn" />
		<tag k="natural" v="water" />
		<tag k="ssr:stedsnr" v="158853" />
	</node>
	<node id="-365728" lat="58.4387153309" lon="7.47142813613">
		<tag k="alt_name" v="Bjorvann" />
		<tag k="name" v="Bjorvatnet" />
		<tag k="natural" v="water" />
		<tag k="ssr:stedsnr" v="243934" />
	</node>
	<node id="-365118" lat="58.2339083337" lon="7.40110833148">
		<tag k="name" v="Lomstjønn" />
		<tag k="natural" v="water" />
		<tag k="ssr:stedsnr" v="158773" />
	</node>
	<node id="-365919" lat="58.4365888931" lon="7.47620278046">
		<tag k="name" v="Kringletjønn" />
		<tag k="natural" v="water" />
		<tag k="ssr:stedsnr" v="462105" />
	</node>
	<node id="-367670" lat="58.2320583357" lon="7.37244443863">
		<tag k="name" v="Listadstemmen" />
		<tag k="ssr:stedsnr" v="826778" />
		<tag k="waterway" v="dam" />
	</node>
	<node id="-367668" lat="58.2315104257" lon="7.38097218535">
		<tag k="name" v="Fiskekrogen" />
		<tag k="natural" v="water" />
		<tag k="ssr:stedsnr" v="826760" />
	</node>
	<node id="-366643" lat="58.4309750008" lon="7.49233611575">
		<tag k="name" v="Haukåstjønn" />
		<tag k="natural" v="water" />
		<tag k="ssr:stedsnr" v="643105" />
	</node>
	<node id="-367665" lat="58.354230553" lon="7.33575000031">
		<tag k="name" v="Ivelandsbekken" />
		<tag k="ssr:stedsnr" v="826363" />
		<tag k="waterway" v="stream" />
	</node>
	<node id="-368176" lat="58.3222833344" lon="7.40620555753">
		<tag k="name" v="Sterkuldsbekken" />
		<tag k="ssr:stedsnr" v="947971" />
		<tag k="waterway" v="stream" />
	</node>
	<node id="-364808" lat="58.4691277796" lon="7.44430832681">
		<tag k="name" v="Stemtjønn" />
		<tag k="natural" v="water" />
		<tag k="ssr:stedsnr" v="98346" />
	</node>
	<node id="-368174" lat="58.3799722197" lon="7.37134167086">
		<tag k="name" v="Åsdølsvaet" />
		<tag k="natural" v="water" />
		<tag k="ssr:stedsnr" v="947945" />
		<tag k="water" v="lake" />
	</node>
	<node id="-368173" lat="58.3841527774" lon="7.37886389132">
		<tag k="name" v="Pytten" />
		<tag k="natural" v="bay" />
		<tag k="ssr:stedsnr" v="947941" />
	</node>
	<node id="-368172" lat="58.2861999991" lon="7.34104167355">
		<tag k="name" v="Poddetjønn" />
		<tag k="natural" v="water" />
		<tag k="ssr:stedsnr" v="947918" />
	</node>
	<node id="-364797" lat="58.4159611099" lon="7.40144723069">
		<tag k="loc_name" v="Sandsodden" />
		<tag k="name" v="Neset" />
		<tag k="natural" v="cape" />
		<tag k="ssr:stedsnr" v="98063" />
	</node>
	<node id="-367685" lat="58.375783332" lon="7.39012777133">
		<tag k="name" v="Storlibekken" />
		<tag k="ssr:stedsnr" v="826954" />
		<tag k="waterway" v="stream" />
	</node>
	<node id="-367286" lat="58.2916611138" lon="7.38365834145">
		<tag k="name" v="Igletjønn" />
		<tag k="natural" v="water" />
		<tag k="ssr:stedsnr" v="764925" />
	</node>
	<node id="-366627" lat="58.462588887" lon="7.46091388513">
		<tag k="name" v="Smedslandsfossen" />
		<tag k="natural" v="strait" />
		<tag k="ssr:stedsnr" v="642106" />
	</node>
	<node id="-367650" lat="58.4747361129" lon="7.37786388142">
		<tag k="name" v="Skarebekken" />
		<tag k="ssr:stedsnr" v="826186" />
		<tag k="waterway" v="stream" />
	</node>
	<node id="-367649" lat="58.4912888848" lon="7.5250111195">
		<tag k="name" v="Vakseringen" />
		<tag k="natural" v="water" />
		<tag k="ssr:stedsnr" v="826178" />
	</node>
	<node id="-367648" lat="58.4866055549" lon="7.35538611681">
		<tag k="name" v="Tådertjønn" />
		<tag k="natural" v="water" />
		<tag k="ssr:stedsnr" v="826176" />
	</node>
	<node id="-364464" lat="58.3833305597" lon="7.37693889699">
		<tag k="name" v="Litle fossen" />
		<tag k="natural" v="waterfall" />
		<tag k="ssr:stedsnr" v="37948" />
	</node>
	<node id="-367646" lat="58.4848969303" lon="7.39430287344">
		<tag k="name" v="Sollitjønn" />
		<tag k="natural" v="water" />
		<tag k="ssr:stedsnr" v="826171" />
	</node>
	<node id="-367645" lat="58.4871916681" lon="7.44654999347">
		<tag k="name" v="Voiland" />
		<tag k="natural" v="water" />
		<tag k="ssr:stedsnr" v="826165" />
		<tag k="water" v="lake" />
	</node>
	<node id="-367644" lat="58.4920916707" lon="7.38940277054">
		<tag k="name" v="Torvetjønn" />
		<tag k="natural" v="water" />
		<tag k="ssr:stedsnr" v="826160" />
	</node>
	<node id="-366619" lat="58.2616677861" lon="7.28745115461">
		<tag k="alt_name" v="Bergvannet" />
		<tag k="loc_name" v="Bærvannet" />
		<tag k="name" v="Bergvatnet" />
		<tag k="natural" v="water" />
		<tag k="ssr:stedsnr" v="606603" />
	</node>
	<node id="-365082" lat="58.4278805551" lon="7.44388889453">
		<tag k="name" v="Suslebekk" />
		<tag k="ssr:stedsnr" v="158097" />
		<tag k="waterway" v="stream" />
	</node>
	<node id="-368152" lat="58.2640222244" lon="7.42560556351">
		<tag k="name" v="Tådretjønn" />
		<tag k="natural" v="water" />
		<tag k="ssr:stedsnr" v="947757" />
	</node>
	<node id="-367639" lat="58.4393388877" lon="7.34480278639">
		<tag k="loc_name" v="Bjødnekjødn" />
		<tag k="name" v="Bjørnetjønn" />
		<tag k="natural" v="water" />
		<tag k="ssr:stedsnr" v="826128" />
	</node>
	<node id="-365078" lat="58.426677781" lon="7.37593610743">
		<tag k="alt_name" v="Skarkebekk" />
		<tag k="name" v="Skakkebekk" />
		<tag k="ssr:stedsnr" v="158070" />
		<tag k="waterway" v="stream" />
	</node>
	<node id="-365077" lat="58.3980694423" lon="7.35414444874">
		<tag k="name" v="Skrubbebekken" />
		<tag k="ssr:stedsnr" v="158052" />
		<tag k="waterway" v="stream" />
	</node>
	<node id="-367635" lat="58.4334972242" lon="7.47826667279">
		<tag k="name" v="Selandstjønn" />
		<tag k="natural" v="water" />
		<tag k="ssr:stedsnr" v="826096" />
	</node>
	<node id="-367634" lat="58.4249250028" lon="7.34327777531">
		<tag k="fixme" v="multiple name tags, choose one and add the other to alt_name" />
		<tag k="name" v="Fosslitjønn;Skotetjønn" />
		<tag k="natural" v="bay" />
		<tag k="ssr:stedsnr" v="826069" />
	</node>
	<node id="-364383" lat="58.4516416689" lon="7.39724722438">
		<tag k="name" v="Krossvatn" />
		<tag k="natural" v="water" />
		<tag k="ssr:stedsnr" v="36118" />
		<tag k="water" v="lake" />
	</node>
	<node id="-367631" lat="58.401127774" lon="7.32184999344">
		<tag k="name" v="Svartehølen" />
		<tag k="place" v="locality" />
		<tag k="ssr:stedsnr" v="826038" />
	</node>
	<node id="-363181" lat="58.381591548" lon="7.33646937965">
		<tag k="name" v="Indre Kræklingheivannet" />
		<tag k="natural" v="water" />
		<tag k="ssr:stedsnr" v="280950" />
		<tag k="water" v="lake" />
	</node>
	<node id="-363522" lat="58.2919055536" lon="7.37026666942">
		<tag k="name" v="Hestetjønn" />
		<tag k="natural" v="water" />
		<tag k="ssr:stedsnr" v="340916" />
	</node>
	<node id="-364375" lat="58.4203583341" lon="7.4322111076">
		<tag k="alt_name" v="Utbostadåni" />
		<tag k="name" v="Ubostadåni" />
		<tag k="ssr:stedsnr" v="888" />
		<tag k="waterway" v="stream" />
	</node>
	<node id="-367309" lat="58.4740611096" lon="7.43271110577">
		<tag k="name" v="Håvåstjønn" />
		<tag k="natural" v="water" />
		<tag k="ssr:stedsnr" v="765133" />
	</node>
	<node id="-364204" lat="58.2770277749" lon="7.29021388342">
		<tag k="name" v="Dølda" />
		<tag k="natural" v="cape" />
		<tag k="ssr:stedsnr" v="886941" />
	</node>
	<node id="-367622" lat="58.2952388853" lon="7.29055277196">
		<tag k="name" v="Paddetjødn" />
		<tag k="natural" v="water" />
		<tag k="ssr:stedsnr" v="825928" />
	</node>
	<node id="-363525" lat="58.3524166672" lon="7.3689555594">
		<tag k="name" v="Fylsehovet" />
		<tag k="natural" v="cape" />
		<tag k="ssr:stedsnr" v="340961" />
	</node>
	<node id="-366620" lat="58.2702048379" lon="7.28269932745">
		<tag k="alt_name" v="Hestvannet" />
		<tag k="name" v="Hestvatnet" />
		<tag k="natural" v="water" />
		<tag k="ssr:stedsnr" v="606610" />
	</node>
	<node id="-367618" lat="58.3015749989" lon="7.3218749933">
		<tag k="name" v="Kjerneset" />
		<tag k="natural" v="cape" />
		<tag k="ssr:stedsnr" v="825891" />
	</node>
	<node id="-368129" lat="58.4752027736" lon="7.5269138969">
		<tag k="name" v="Takhomtjønn" />
		<tag k="natural" v="water" />
		<tag k="ssr:stedsnr" v="947203" />
	</node>
</osm>
