<?xml version="1.0" encoding="UTF-8"?>
<osm generator="osmapis" version="0.6">
	<node id="-363520" lat="58.3077555563" lon="7.33078333287">
		<tag k="name" v="Tarjersmyra" />
		<tag k="natural" v="wetland" />
		<tag k="ssr:stedsnr" v="340898" />
	</node>
	<node id="-368127" lat="58.4971416667" lon="7.36710000027">
		<tag k="loc_name" v="Annerskjerran" />
		<tag k="name" v="Annerkjerran" />
		<tag k="natural" v="wetland" />
		<tag k="ssr:stedsnr" v="947189" />
	</node>
	<node id="-368125" lat="58.4875499959" lon="7.38488611301">
		<tag k="name" v="Sollistean" />
		<tag k="natural" v="wetland" />
		<tag k="ssr:stedsnr" v="947162" />
	</node>
	<node id="-368122" lat="58.4509777741" lon="7.36628054761">
		<tag k="loc_name" v="Bånnskoheislåttæ" />
		<tag k="name" v="Bånskoheislåtten" />
		<tag k="natural" v="wetland" />
		<tag k="ssr:stedsnr" v="947097" />
	</node>
	<node id="-367608" lat="58.2961166641" lon="7.25529444534">
		<tag k="name" v="Skoftemyr" />
		<tag k="natural" v="wetland" />
		<tag k="ssr:stedsnr" v="825245" />
	</node>
	<node id="-363511" lat="58.2564222232" lon="7.33421945101">
		<tag k="loc_name" v="Kjørkekjerret" />
		<tag k="name" v="Kirkekjerret" />
		<tag k="place" v="locality" />
		<tag k="ssr:stedsnr" v="340821" />
	</node>
	<node id="-363504" lat="58.4126750002" lon="7.4252361098">
		<tag k="name" v="Stedjan" />
		<tag k="natural" v="wetland" />
		<tag k="ssr:stedsnr" v="340369" />
	</node>
	<node id="-368111" lat="58.3733111108" lon="7.33475277995">
		<tag k="name" v="Kittelsmyr" />
		<tag k="natural" v="wetland" />
		<tag k="ssr:stedsnr" v="947009" />
	</node>
	<node id="-368110" lat="58.455397224" lon="7.41617222024">
		<tag k="name" v="Ballingsmyr" />
		<tag k="natural" v="wetland" />
		<tag k="ssr:stedsnr" v="946129" />
	</node>
	<node id="-367613" lat="58.3796805583" lon="7.37858054786">
		<tag k="name" v="Dalemyr" />
		<tag k="natural" v="wetland" />
		<tag k="ssr:stedsnr" v="825289" />
	</node>
	<node id="-367594" lat="58.2816361101" lon="7.39186389365">
		<tag k="name" v="Austre Skuggemyr" />
		<tag k="natural" v="wetland" />
		<tag k="ssr:stedsnr" v="811289" />
	</node>
	<node id="-363494" lat="58.262091664" lon="7.35449721663">
		<tag k="name" v="Homman" />
		<tag k="place" v="locality" />
		<tag k="ssr:stedsnr" v="340291" />
	</node>
	<node id="-363490" lat="58.2329777793" lon="7.33638055169">
		<tag k="loc_name" v="Veståsmyrå" />
		<tag k="name" v="Veståsmyr" />
		<tag k="natural" v="wetland" />
		<tag k="ssr:stedsnr" v="340275" />
	</node>
	<node id="-363487" lat="58.3825527811" lon="7.39578332721">
		<tag k="name" v="Rauneholtan" />
		<tag k="place" v="locality" />
		<tag k="ssr:stedsnr" v="340258" />
	</node>
	<node id="-363485" lat="58.3779222204" lon="7.39965556117">
		<tag k="name" v="Rundamyra" />
		<tag k="natural" v="wetland" />
		<tag k="ssr:stedsnr" v="340253" />
	</node>
	<node id="-367580" lat="58.4671055566" lon="7.4980833377">
		<tag k="alt_name" v="Storemyr" />
		<tag k="name" v="Storemyri" />
		<tag k="natural" v="wetland" />
		<tag k="ssr:stedsnr" v="788552" />
	</node>
	<node id="-363475" lat="58.503091669" lon="7.38852499613">
		<tag k="name" v="Joemyr" />
		<tag k="natural" v="wetland" />
		<tag k="ssr:stedsnr" v="340196" />
	</node>
	<node id="-366031" lat="58.3240249977" lon="7.35384721754">
		<tag k="name" v="Fjaddemyr" />
		<tag k="natural" v="wetland" />
		<tag k="ssr:stedsnr" v="522969" />
	</node>
	<node id="-364470" lat="58.3289777754" lon="7.38963333467">
		<tag k="name" v="Storemyr" />
		<tag k="natural" v="wetland" />
		<tag k="ssr:stedsnr" v="37981" />
	</node>
	<node id="-366024" lat="58.2963972232" lon="7.31795555512">
		<tag k="loc_name" v="Vonslandsmyrå" />
		<tag k="name" v="Vonslandsmyra" />
		<tag k="natural" v="wetland" />
		<tag k="ssr:stedsnr" v="522913" />
	</node>
	<node id="-366023" lat="58.3125694468" lon="7.35401111622">
		<tag k="name" v="Hyljemyr" />
		<tag k="natural" v="wetland" />
		<tag k="ssr:stedsnr" v="522896" />
	</node>
	<node id="-366022" lat="58.3061250009" lon="7.4102694383">
		<tag k="name" v="Rusteslåtta" />
		<tag k="natural" v="wetland" />
		<tag k="ssr:stedsnr" v="522886" />
	</node>
	<node id="-363460" lat="58.4278027781" lon="7.47415277696">
		<tag k="name" v="Bervamyr" />
		<tag k="natural" v="wetland" />
		<tag k="ssr:stedsnr" v="340093" />
	</node>
	<node id="-363458" lat="58.424775001" lon="7.43423333544">
		<tag k="loc_name" v="Aremyr" />
		<tag k="name" v="Aremyran" />
		<tag k="natural" v="wetland" />
		<tag k="ssr:stedsnr" v="340084" />
	</node>
	<node id="-366017" lat="58.2478805588" lon="7.35153888283">
		<tag k="name" v="Øygarden" />
		<tag k="place" v="locality" />
		<tag k="ssr:stedsnr" v="522844" />
	</node>
	<node id="-366015" lat="58.2743249996" lon="7.31342499683">
		<tag k="name" v="Jubemyr" />
		<tag k="natural" v="wetland" />
		<tag k="ssr:stedsnr" v="522804" />
	</node>
	<node id="-366013" lat="58.2703777821" lon="7.3354083354">
		<tag k="name" v="Torvemyr" />
		<tag k="natural" v="wetland" />
		<tag k="ssr:stedsnr" v="522800" />
	</node>
	<node id="-363451" lat="58.3726527747" lon="7.38683056292">
		<tag k="name" v="Bløtekjerr" />
		<tag k="natural" v="wetland" />
		<tag k="ssr:stedsnr" v="340026" />
	</node>
	<node id="-364474" lat="58.330441667" lon="7.29852778289">
		<tag k="name" v="Kleven" />
		<tag k="natural" v="wetland" />
		<tag k="ssr:stedsnr" v="37996" />
	</node>
	<node id="-363449" lat="58.3726111076" lon="7.36712777268">
		<tag k="name" v="Teigan" />
		<tag k="place" v="locality" />
		<tag k="ssr:stedsnr" v="340017" />
	</node>
	<node id="-366006" lat="58.2559277807" lon="7.3771944492">
		<tag k="name" v="Stokkedølen" />
		<tag k="natural" v="wetland" />
		<tag k="ssr:stedsnr" v="522748" />
	</node>
	<node id="-363444" lat="58.3526361149" lon="7.34944444826">
		<tag k="alt_name" v="Stedjan" />
		<tag k="name" v="Stean" />
		<tag k="natural" v="wetland" />
		<tag k="ssr:stedsnr" v="303974" />
	</node>
	<node id="-367025" lat="58.4390249967" lon="7.48553889132">
		<tag k="name" v="Hæmyr" />
		<tag k="natural" v="wetland" />
		<tag k="ssr:stedsnr" v="705379" />
	</node>
	<node id="-365999" lat="58.4164666704" lon="7.48473055581">
		<tag k="name" v="Viamyr" />
		<tag k="natural" v="wetland" />
		<tag k="ssr:stedsnr" v="522363" />
	</node>
	<node id="-367020" lat="58.2960916706" lon="7.31165556224">
		<tag k="name" v="Kåvelandsmyra" />
		<tag k="natural" v="wetland" />
		<tag k="ssr:stedsnr" v="704907" />
	</node>
	<node id="-367015" lat="58.2496611115" lon="7.38316389168">
		<tag k="name" v="Lågmyr" />
		<tag k="place" v="locality" />
		<tag k="ssr:stedsnr" v="704853" />
	</node>
	<node id="-367013" lat="58.2790611102" lon="7.41246389738">
		<tag k="loc_name" v="Torvmyrå" />
		<tag k="name" v="Torvmyr" />
		<tag k="natural" v="wetland" />
		<tag k="ssr:stedsnr" v="704835" />
	</node>
	<node id="-366685" lat="58.310611107" lon="7.36945555958">
		<tag k="name" v="Breilimoen" />
		<tag k="place" v="locality" />
		<tag k="ssr:stedsnr" v="643907" />
	</node>
	<node id="-364450" lat="58.4549222247" lon="7.36990000042">
		<tag k="name" v="Lundsmyr" />
		<tag k="natural" v="wetland" />
		<tag k="ssr:stedsnr" v="37175" />
	</node>
	<node id="-365984" lat="58.2588722198" lon="7.27479721859">
		<tag k="name" v="Storemyr" />
		<tag k="natural" v="wetland" />
		<tag k="ssr:stedsnr" v="522262" />
	</node>
	<node id="-364447" lat="58.445000004" lon="7.48101944262">
		<tag k="name" v="Raskemyr" />
		<tag k="natural" v="wetland" />
		<tag k="ssr:stedsnr" v="37139" />
	</node>
	<node id="-367006" lat="58.2334305554" lon="7.35883889174">
		<tag k="name" v="Gruemyra" />
		<tag k="natural" v="wetland" />
		<tag k="ssr:stedsnr" v="704761" />
	</node>
	<node id="-365980" lat="58.3518527803" lon="7.32506110943">
		<tag k="loc_name" v="Storåkeren" />
		<tag k="name" v="Storågren" />
		<tag k="place" v="locality" />
		<tag k="ssr:stedsnr" v="522214" />
	</node>
	<node id="-367003" lat="58.2666861114" lon="7.41334999636">
		<tag k="name" v="Åsemyr" />
		<tag k="natural" v="wetland" />
		<tag k="ssr:stedsnr" v="704743" />
	</node>
	<node id="-365978" lat="58.4983583353" lon="7.37435555966">
		<tag k="name" v="Runnamyr" />
		<tag k="natural" v="wetland" />
		<tag k="ssr:stedsnr" v="522194" />
	</node>
	<node id="-363503" lat="58.4154972261" lon="7.42305278304">
		<tag k="name" v="Sletteskog" />
		<tag k="place" v="locality" />
		<tag k="ssr:stedsnr" v="340359" />
	</node>
	<node id="-365976" lat="58.4777083328" lon="7.45108888347">
		<tag k="name" v="Storamyr" />
		<tag k="natural" v="wetland" />
		<tag k="ssr:stedsnr" v="522183" />
	</node>
	<node id="-365975" lat="58.4844333314" lon="7.49816110847">
		<tag k="name" v="Kleivmyran" />
		<tag k="natural" v="wetland" />
		<tag k="ssr:stedsnr" v="522181" />
	</node>
	<node id="-366998" lat="58.3759916673" lon="7.3267777753">
		<tag k="name" v="Tuvlan" />
		<tag k="natural" v="wetland" />
		<tag k="ssr:stedsnr" v="704310" />
	</node>
	<node id="-365461" lat="58.2585250018" lon="7.36642221449">
		<tag k="loc_name" v="Bydingsmyrå" />
		<tag k="name" v="Bydingsmyra" />
		<tag k="natural" v="wetland" />
		<tag k="ssr:stedsnr" v="219882" />
	</node>
	<node id="-366994" lat="58.3180861115" lon="7.41280555332">
		<tag k="name" v="Skogeholtmyra" />
		<tag k="natural" v="wetland" />
		<tag k="ssr:stedsnr" v="704272" />
	</node>
	<node id="-364432" lat="58.3668055566" lon="7.33958055231">
		<tag k="name" v="Storemyr" />
		<tag k="natural" v="wetland" />
		<tag k="ssr:stedsnr" v="37028" />
	</node>
	<node id="-364431" lat="58.3665749983" lon="7.34218333759">
		<tag k="name" v="Stora Myre" />
		<tag k="natural" v="wetland" />
		<tag k="ssr:stedsnr" v="37026" />
	</node>
	<node id="-365965" lat="58.4306027766" lon="7.44301111453">
		<tag k="name" v="Liksteinen" />
		<tag k="natural" v="stone" />
		<tag k="ssr:stedsnr" v="522087" />
	</node>
	<node id="-367656" lat="58.3768138907" lon="7.41674443698">
		<tag k="name" v="Røyjordsteinen" />
		<tag k="natural" v="stone" />
		<tag k="ssr:stedsnr" v="826218" />
	</node>
	<node id="-366987" lat="58.3920527797" lon="7.42654999553">
		<tag k="name" v="Spydalsmyra" />
		<tag k="natural" v="wetland" />
		<tag k="ssr:stedsnr" v="704230" />
	</node>
	<node id="-364426" lat="58.3435194407" lon="7.39842777596">
		<tag k="name" v="Leinlandsmyran" />
		<tag k="natural" v="wetland" />
		<tag k="ssr:stedsnr" v="36975" />
	</node>
	<node id="-365463" lat="58.3189805571" lon="7.33664166373">
		<tag k="name" v="Tåderen" />
		<tag k="natural" v="wetland" />
		<tag k="ssr:stedsnr" v="219895" />
	</node>
	<node id="-366982" lat="58.5066527765" lon="7.51351943656">
		<tag k="name" v="Langfjellslåtten" />
		<tag k="natural" v="wetland" />
		<tag k="ssr:stedsnr" v="704179" />
	</node>
	<node id="-365121" lat="58.2746722205" lon="7.32369166739">
		<tag k="name" v="Furåsmyra" />
		<tag k="natural" v="wetland" />
		<tag k="ssr:stedsnr" v="158831" />
	</node>
	<node id="-365462" lat="58.300033337" lon="7.30931944563">
		<tag k="name" v="Kalvåsmyra" />
		<tag k="natural" v="wetland" />
		<tag k="ssr:stedsnr" v="219894" />
	</node>
	<node id="-365953" lat="58.2629277784" lon="7.36682499431">
		<tag k="alt_name" v="Breimyr" />
		<tag k="name" v="Breidmyr" />
		<tag k="natural" v="wetland" />
		<tag k="ssr:stedsnr" v="485822" />
	</node>
	<node id="-365438" lat="58.242208332" lon="7.40508333348">
		<tag k="name" v="Langemyr" />
		<tag k="natural" v="wetland" />
		<tag k="ssr:stedsnr" v="219256" />
	</node>
	<node id="-364413" lat="58.2763194453" lon="7.35365556167">
		<tag k="name" v="Bordalsholtan" />
		<tag k="place" v="locality" />
		<tag k="ssr:stedsnr" v="36866" />
	</node>
	<node id="-365436" lat="58.3642861078" lon="7.40926110658">
		<tag k="name" v="Daleholtan" />
		<tag k="place" v="locality" />
		<tag k="ssr:stedsnr" v="219219" />
	</node>
	<node id="-364411" lat="58.2731472243" lon="7.33822221851">
		<tag k="loc_name" v="Viblemokjerret" />
		<tag k="name" v="Viblemokjerr" />
		<tag k="natural" v="wetland" />
		<tag k="ssr:stedsnr" v="36841" />
	</node>
	<node id="-366970" lat="58.4176527771" lon="7.48470000501">
		<tag k="name" v="Skogedalsmyr" />
		<tag k="natural" v="wetland" />
		<tag k="ssr:stedsnr" v="704071" />
	</node>
	<node id="-366969" lat="58.4218527803" lon="7.48091388193">
		<tag k="name" v="Molteteien" />
		<tag k="natural" v="wetland" />
		<tag k="ssr:stedsnr" v="704067" />
	</node>
	<node id="-364406" lat="58.2623527768" lon="7.31525277441">
		<tag k="name" v="Krossmyr" />
		<tag k="natural" v="wetland" />
		<tag k="ssr:stedsnr" v="36825" />
	</node>
	<node id="-364404" lat="58.2736277781" lon="7.42035000364">
		<tag k="name" v="Vollan" />
		<tag k="place" v="locality" />
		<tag k="ssr:stedsnr" v="36769" />
	</node>
	<node id="-364403" lat="58.2445916634" lon="7.40883332729">
		<tag k="name" v="Annaskjerr" />
		<tag k="natural" v="wetland" />
		<tag k="ssr:stedsnr" v="36756" />
	</node>
	<node id="-365426" lat="58.4336611117" lon="7.35994999627">
		<tag k="loc_name" v="Støæ" />
		<tag k="name" v="Støa" />
		<tag k="place" v="locality" />
		<tag k="ssr:stedsnr" v="219100" />
	</node>
	<node id="-365422" lat="58.4247666647" lon="7.47643889515">
		<tag k="name" v="Pressmyr" />
		<tag k="natural" v="wetland" />
		<tag k="ssr:stedsnr" v="219071" />
	</node>
	<node id="-365420" lat="58.4166055518" lon="7.32822778136">
		<tag k="name" v="Gunnildsmyr" />
		<tag k="natural" v="wetland" />
		<tag k="ssr:stedsnr" v="219052" />
	</node>
	<node id="-365458" lat="58.244774997" lon="7.27978610971">
		<tag k="name" v="Patentsteinen" />
		<tag k="natural" v="stone" />
		<tag k="ssr:stedsnr" v="219854" />
	</node>
	<node id="-365418" lat="58.4289499983" lon="7.35247221718">
		<tag k="loc_name" v="Ringerikjæ" />
		<tag k="name" v="Ringerike" />
		<tag k="natural" v="wetland" />
		<tag k="ssr:stedsnr" v="219040" />
	</node>
	<node id="-365415" lat="58.3972888877" lon="7.36523334117">
		<tag k="name" v="Fålkålsmyra" />
		<tag k="natural" v="wetland" />
		<tag k="ssr:stedsnr" v="219033" />
	</node>
	<node id="-365925" lat="58.3460111069" lon="7.33742778555">
		<tag k="name" v="Lunddalsmyrå" />
		<tag k="natural" v="wetland" />
		<tag k="ssr:stedsnr" v="462948" />
	</node>
	<node id="-367968" lat="58.3936750009" lon="7.43858056235">
		<tag k="alt_name" v="Bronemyr" />
		<tag k="name" v="Brånemyran" />
		<tag k="natural" v="wetland" />
		<tag k="ssr:stedsnr" v="850989" />
	</node>
	<node id="-364382" lat="58.2813583317" lon="7.39021944345">
		<tag k="name" v="Langemyr" />
		<tag k="natural" v="wetland" />
		<tag k="ssr:stedsnr" v="23333" />
	</node>
	<node id="-364380" lat="58.434352782" lon="7.43542777894">
		<tag k="alt_name" v="Kjørkjemyr" />
		<tag k="name" v="Kyrkjemyri" />
		<tag k="natural" v="wetland" />
		<tag k="ssr:stedsnr" v="942" />
	</node>
	<node id="-365915" lat="58.4263638866" lon="7.48406666466">
		<tag k="name" v="Stemmen" />
		<tag k="natural" v="wetland" />
		<tag k="ssr:stedsnr" v="462075" />
	</node>
	<node id="-365398" lat="58.3470527781" lon="7.42240833366">
		<tag k="alt_name" v="Storamyr" />
		<tag k="name" v="Stormyri" />
		<tag k="natural" v="wetland" />
		<tag k="ssr:stedsnr" v="182772" />
	</node>
	<node id="-365907" lat="58.3351888934" lon="7.42092222577">
		<tag k="name" v="Storesteggan" />
		<tag k="natural" v="wetland" />
		<tag k="ssr:stedsnr" v="461984" />
	</node>
	<node id="-367952" lat="58.2787416688" lon="7.33323333427">
		<tag k="name" v="Augland" />
		<tag k="place" v="locality" />
		<tag k="ssr:stedsnr" v="850514" />
	</node>
	<node id="-365903" lat="58.2799972216" lon="7.27645277993">
		<tag k="name" v="Knaie" />
		<tag k="natural" v="wetland" />
		<tag k="ssr:stedsnr" v="461940" />
	</node>
	<node id="-364758" lat="58.3469611148" lon="7.38731666049">
		<tag k="name" v="Brumyr" />
		<tag k="natural" v="wetland" />
		<tag k="ssr:stedsnr" v="97232" />
	</node>
	<node id="-365898" lat="58.3204222179" lon="7.37159722079">
		<tag k="name" v="Havna" />
		<tag k="place" v="locality" />
		<tag k="ssr:stedsnr" v="461910" />
	</node>
	<node id="-365896" lat="58.2419222229" lon="7.39707222099">
		<tag k="name" v="Fjellemyr" />
		<tag k="natural" v="wetland" />
		<tag k="ssr:stedsnr" v="461871" />
	</node>
	<node id="-363845" lat="58.4835000036" lon="7.36681111363">
		<tag k="name" v="Bumyra" />
		<tag k="natural" v="wetland" />
		<tag k="ssr:stedsnr" v="401179" />
	</node>
	<node id="-365889" lat="58.2335250009" lon="7.35251945119">
		<tag k="name" v="Librotsteinen" />
		<tag k="natural" v="stone" />
		<tag k="ssr:stedsnr" v="461786" />
	</node>
	<node id="-365888" lat="58.2330638866" lon="7.37908888412">
		<tag k="name" v="Leikarsteinen" />
		<tag k="natural" v="stone" />
		<tag k="ssr:stedsnr" v="461783" />
	</node>
	<node id="-365884" lat="58.3026666681" lon="7.32992778377">
		<tag k="name" v="Hugemyr" />
		<tag k="natural" v="wetland" />
		<tag k="ssr:stedsnr" v="461297" />
	</node>
	<node id="-364414" lat="58.2344666679" lon="7.34251666322">
		<tag k="name" v="Øyan" />
		<tag k="place" v="locality" />
		<tag k="ssr:stedsnr" v="36869" />
	</node>
	<node id="-365880" lat="58.3447555555" lon="7.31914444208">
		<tag k="name" v="Aslaksmyra" />
		<tag k="natural" v="wetland" />
		<tag k="ssr:stedsnr" v="461231" />
	</node>
	<node id="-365878" lat="58.354091666" lon="7.32965833045">
		<tag k="loc_name" v="Halevollen" />
		<tag k="name" v="Halevodden" />
		<tag k="place" v="locality" />
		<tag k="ssr:stedsnr" v="461215" />
	</node>
	<node id="-365449" lat="58.3795083324" lon="7.32944167045">
		<tag k="name" v="Stemmyr" />
		<tag k="natural" v="wetland" />
		<tag k="ssr:stedsnr" v="219336" />
	</node>
	<node id="-365872" lat="58.4951250032" lon="7.49394722502">
		<tag k="name" v="Torvemyr" />
		<tag k="natural" v="wetland" />
		<tag k="ssr:stedsnr" v="461171" />
	</node>
	<node id="-363821" lat="58.2846055601" lon="7.3987416734">
		<tag k="name" v="Birketveitslåtten" />
		<tag k="natural" v="wetland" />
		<tag k="ssr:stedsnr" v="400923" />
	</node>
	<node id="-363818" lat="58.2603916624" lon="7.37420555785">
		<tag k="loc_name" v="Bjødneægrå" />
		<tag k="name" v="Bjørnægra" />
		<tag k="natural" v="wetland" />
		<tag k="ssr:stedsnr" v="400888" />
	</node>
	<node id="-365863" lat="58.3069388866" lon="7.27396944601">
		<tag k="name" v="Sundsmyra" />
		<tag k="natural" v="wetland" />
		<tag k="ssr:stedsnr" v="461303" />
	</node>
	<node id="-368164" lat="58.337200004" lon="7.34576666832">
		<tag k="name" v="Ånenskjerran" />
		<tag k="natural" v="wetland" />
		<tag k="ssr:stedsnr" v="947877" />
	</node>
	<node id="-365958" lat="58.3721861109" lon="7.37792500055">
		<tag k="name" v="Skjeia" />
		<tag k="place" v="locality" />
		<tag k="ssr:stedsnr" v="522014" />
	</node>
	<node id="-365857" lat="58.3152861111" lon="7.39906943675">
		<tag k="name" v="Stormyra" />
		<tag k="natural" v="wetland" />
		<tag k="ssr:stedsnr" v="425761" />
	</node>
	<node id="-363808" lat="58.2535750003" lon="7.40238334049">
		<tag k="name" v="Stedjan" />
		<tag k="place" v="locality" />
		<tag k="ssr:stedsnr" v="400770" />
	</node>
	<node id="-363804" lat="58.3661249966" lon="7.32247777929">
		<tag k="name" v="Langemyran" />
		<tag k="natural" v="wetland" />
		<tag k="ssr:stedsnr" v="400305" />
	</node>
	<node id="-363803" lat="58.295627781" lon="7.33563055102">
		<tag k="name" v="Torvemyr" />
		<tag k="natural" v="wetland" />
		<tag k="ssr:stedsnr" v="400298" />
	</node>
	<node id="-366362" lat="58.4421666704" lon="7.33245832464">
		<tag k="name" v="Homman" />
		<tag k="natural" v="wetland" />
		<tag k="ssr:stedsnr" v="583095" />
	</node>
	<node id="-366361" lat="58.4427999982" lon="7.38689444873">
		<tag k="name" v="Gunvorsmyr" />
		<tag k="natural" v="wetland" />
		<tag k="ssr:stedsnr" v="583087" />
	</node>
	<node id="-366359" lat="58.4137083344" lon="7.36742778251">
		<tag k="name" v="Sletegra" />
		<tag k="place" v="locality" />
		<tag k="ssr:stedsnr" v="583070" />
	</node>
	<node id="-363793" lat="58.344080556" lon="7.33948333885">
		<tag k="name" v="Venamyr" />
		<tag k="natural" v="wetland" />
		<tag k="ssr:stedsnr" v="400208" />
	</node>
	<node id="-366346" lat="58.3148861152" lon="7.35078611496">
		<tag k="name" v="Skrubbekjerran" />
		<tag k="natural" v="wetland" />
		<tag k="ssr:stedsnr" v="582910" />
	</node>
	<node id="-366343" lat="58.3024305515" lon="7.34946388573">
		<tag k="name" v="Bjørnehola" />
		<tag k="natural" v="wetland" />
		<tag k="ssr:stedsnr" v="582895" />
	</node>
	<node id="-364805" lat="58.4364166693" lon="7.46726944902">
		<tag k="name" v="Teremyr" />
		<tag k="natural" v="wetland" />
		<tag k="ssr:stedsnr" v="98120" />
	</node>
	<node id="-366339" lat="58.2494694435" lon="7.38625278109">
		<tag k="name" v="Steinsmyr" />
		<tag k="place" v="locality" />
		<tag k="ssr:stedsnr" v="582864" />
	</node>
	<node id="-366336" lat="58.2509527789" lon="7.33487777217">
		<tag k="name" v="Bjorsteinen" />
		<tag k="natural" v="stone" />
		<tag k="ssr:stedsnr" v="582790" />
	</node>
	<node id="-364799" lat="58.4240972263" lon="7.48058055717">
		<tag k="name" v="Tranlemyrbukjerr" />
		<tag k="natural" v="wetland" />
		<tag k="ssr:stedsnr" v="98078" />
	</node>
	<node id="-363773" lat="58.4519277793" lon="7.37272777871">
		<tag k="alt_name" v="Vårdalsslåtten" />
		<tag k="loc_name" v="Vårdalsslåttæn" />
		<tag k="name" v="Vårdalslåtten" />
		<tag k="natural" v="wetland" />
		<tag k="ssr:stedsnr" v="364920" />
	</node>
	<node id="-366327" lat="58.3341916691" lon="7.31186388162">
		<tag k="name" v="Myre" />
		<tag k="natural" v="wetland" />
		<tag k="ssr:stedsnr" v="582316" />
	</node>
	<node id="-366326" lat="58.3045111092" lon="7.35136388394">
		<tag k="name" v="Langemyr" />
		<tag k="natural" v="wetland" />
		<tag k="ssr:stedsnr" v="582310" />
	</node>
	<node id="-367348" lat="58.3242583374" lon="7.34929999419">
		<tag k="name" v="Stejemyr" />
		<tag k="natural" v="wetland" />
		<tag k="ssr:stedsnr" v="765986" />
	</node>
	<node id="-366323" lat="58.2536000033" lon="7.36147222456">
		<tag k="name" v="Fiden" />
		<tag k="place" v="locality" />
		<tag k="ssr:stedsnr" v="582293" />
	</node>
	<node id="-364785" lat="58.2569583299" lon="7.39993889164">
		<tag k="name" v="Husamorsmyra" />
		<tag k="natural" v="wetland" />
		<tag k="ssr:stedsnr" v="97860" />
	</node>
	<node id="-365112" lat="58.3842500041" lon="7.36973333041">
		<tag k="name" v="Bladalsmyra" />
		<tag k="natural" v="wetland" />
		<tag k="ssr:stedsnr" v="158956" />
	</node>
	<node id="-364783" lat="58.2471166704" lon="7.35678888359">
		<tag k="name" v="Ryssemyr" />
		<tag k="natural" v="wetland" />
		<tag k="ssr:stedsnr" v="97850" />
	</node>
	<node id="-367338" lat="58.2433611094" lon="7.27528333785">
		<tag k="loc_name" v="Kirkesteinen" />
		<tag k="name" v="Kirkestein" />
		<tag k="natural" v="stone" />
		<tag k="ssr:stedsnr" v="765833" />
	</node>
	<node id="-366309" lat="58.4617999999" lon="7.41753611611">
		<tag k="name" v="Vestmyra" />
		<tag k="place" v="locality" />
		<tag k="ssr:stedsnr" v="582124" />
	</node>
	<node id="-367332" lat="58.491119442" lon="7.50917223069">
		<tag k="name" v="Dyblan" />
		<tag k="natural" v="wetland" />
		<tag k="ssr:stedsnr" v="765381" />
	</node>
	<node id="-364768" lat="58.3217777784" lon="7.3827027726">
		<tag k="name" v="Storemyr" />
		<tag k="natural" v="wetland" />
		<tag k="ssr:stedsnr" v="97292" />
	</node>
	<node id="-364765" lat="58.2638361072" lon="7.30469721858">
		<tag k="name" v="Spåmyr" />
		<tag k="natural" v="wetland" />
		<tag k="ssr:stedsnr" v="97264" />
	</node>
	<node id="-367324" lat="58.3492222239" lon="7.42002776977">
		<tag k="name" v="Stemman" />
		<tag k="natural" v="wetland" />
		<tag k="ssr:stedsnr" v="765210" />
	</node>
	<node id="-367323" lat="58.3750361128" lon="7.40257222054">
		<tag k="name" v="Skifjellmyr" />
		<tag k="natural" v="wetland" />
		<tag k="ssr:stedsnr" v="765205" />
	</node>
	<node id="-364762" lat="58.2499499993" lon="7.30757221944">
		<tag k="loc_name" v="Kusamyra" />
		<tag k="name" v="Kusamyr" />
		<tag k="natural" v="wetland" />
		<tag k="ssr:stedsnr" v="97253" />
	</node>
	<node id="-367319" lat="58.4988722255" lon="7.38963888702">
		<tag k="name" v="Eptevasstean" />
		<tag k="natural" v="wetland" />
		<tag k="ssr:stedsnr" v="765185" />
	</node>
	<node id="-367318" lat="58.5035805546" lon="7.38336388114">
		<tag k="name" v="Nepetveit" />
		<tag k="natural" v="wetland" />
		<tag k="ssr:stedsnr" v="765184" />
	</node>
	<node id="-364752" lat="58.4977166667" lon="7.37751111177">
		<tag k="name" v="Langmyr" />
		<tag k="natural" v="wetland" />
		<tag k="ssr:stedsnr" v="97191" />
	</node>
	<node id="-367307" lat="58.438372221" lon="7.4543611147">
		<tag k="loc_name" v="Heimste Sneisemyr" />
		<tag k="name" v="Sneisemyr" />
		<tag k="natural" v="wetland" />
		<tag k="ssr:stedsnr" v="765121" />
	</node>
	<node id="-364234" lat="58.3640694429" lon="7.33438333149">
		<tag k="name" v="Rysesteinen" />
		<tag k="natural" v="stone" />
		<tag k="ssr:stedsnr" v="887970" />
	</node>
	<node id="-364230" lat="58.3326833339" lon="7.3337444529">
		<tag k="name" v="Heståsmyr" />
		<tag k="natural" v="wetland" />
		<tag k="ssr:stedsnr" v="887889" />
	</node>
	<node id="-364229" lat="58.3485055512" lon="7.32857778616">
		<tag k="loc_name" v="Stormyr" />
		<tag k="name" v="Storemyr" />
		<tag k="natural" v="wetland" />
		<tag k="ssr:stedsnr" v="887408" />
	</node>
	<node id="-367299" lat="58.4239111113" lon="7.4635916591">
		<tag k="name" v="Storemyr" />
		<tag k="natural" v="wetland" />
		<tag k="ssr:stedsnr" v="765070" />
	</node>
	<node id="-364235" lat="58.3638166664" lon="7.33110833954">
		<tag k="name" v="Nerslåta" />
		<tag k="natural" v="wetland" />
		<tag k="ssr:stedsnr" v="887973" />
	</node>
	<node id="-367293" lat="58.3722861131" lon="7.36915278026">
		<tag k="name" v="Monen" />
		<tag k="place" v="locality" />
		<tag k="ssr:stedsnr" v="765025" />
	</node>
	<node id="-364217" lat="58.4408499969" lon="7.47453333729">
		<tag k="name" v="Loppemyr" />
		<tag k="natural" v="wetland" />
		<tag k="ssr:stedsnr" v="887124" />
	</node>
	<node id="-364215" lat="58.4359999956" lon="7.33281388261">
		<tag k="name" v="Torsslåtten" />
		<tag k="natural" v="wetland" />
		<tag k="ssr:stedsnr" v="887108" />
	</node>
	<node id="-364213" lat="58.4468027744" lon="7.38116388918">
		<tag k="loc_name" v="Øvre Sjurslåttæn" />
		<tag k="name" v="Øvre Sjurslåtten" />
		<tag k="natural" v="wetland" />
		<tag k="ssr:stedsnr" v="887097" />
	</node>
	<node id="-365086" lat="58.4429111103" lon="7.48280278342">
		<tag k="name" v="Trogekjerr" />
		<tag k="natural" v="wetland" />
		<tag k="ssr:stedsnr" v="158138" />
	</node>
	<node id="-367282" lat="58.3772499961" lon="7.33865277077">
		<tag k="name" v="Stora Myre" />
		<tag k="natural" v="wetland" />
		<tag k="ssr:stedsnr" v="764331" />
	</node>
	<node id="-363464" lat="58.4740027812" lon="7.42976388646">
		<tag k="name" v="Djupamyr" />
		<tag k="natural" v="wetland" />
		<tag k="ssr:stedsnr" v="340130" />
	</node>
	<node id="-363182" lat="58.3589027752" lon="7.34061666827">
		<tag k="name" v="Dukan" />
		<tag k="place" v="locality" />
		<tag k="ssr:stedsnr" v="280969" />
	</node>
	<node id="-367277" lat="58.2999500042" lon="7.28587221737">
		<tag k="name" v="Slåtten" />
		<tag k="natural" v="wetland" />
		<tag k="ssr:stedsnr" v="764270" />
	</node>
	<node id="-364203" lat="58.2815666671" lon="7.29174444263">
		<tag k="name" v="Ægra" />
		<tag k="place" v="locality" />
		<tag k="ssr:stedsnr" v="886937" />
	</node>
	<node id="-363178" lat="58.3866999975" lon="7.39556388491">
		<tag k="name" v="Valandsmyra" />
		<tag k="natural" v="wetland" />
		<tag k="ssr:stedsnr" v="280943" />
	</node>
	<node id="-364200" lat="58.283938889" lon="7.38706666004">
		<tag k="name" v="Haretjønn" />
		<tag k="natural" v="wetland" />
		<tag k="ssr:stedsnr" v="886911" />
	</node>
	<node id="-363175" lat="58.4684222178" lon="7.385636107">
		<tag k="name" v="Skrommyr" />
		<tag k="natural" v="wetland" />
		<tag k="ssr:stedsnr" v="280328" />
	</node>
	<node id="-363174" lat="58.3540527814" lon="7.34156388881">
		<tag k="name" v="Rydningsmyra" />
		<tag k="natural" v="wetland" />
		<tag k="ssr:stedsnr" v="280319" />
	</node>
	<node id="-364197" lat="58.2448166625" lon="7.35666944148">
		<tag k="name" v="Tandremyr" />
		<tag k="place" v="locality" />
		<tag k="ssr:stedsnr" v="886872" />
	</node>
	<node id="-364196" lat="58.2495555541" lon="7.31192777469">
		<tag k="name" v="Hanesteinen" />
		<tag k="natural" v="stone" />
		<tag k="ssr:stedsnr" v="886858" />
	</node>
	<node id="-363171" lat="58.4429777742" lon="7.45923889674">
		<tag k="name" v="Storemyran" />
		<tag k="natural" v="wetland" />
		<tag k="ssr:stedsnr" v="280091" />
	</node>
	<node id="-365083" lat="58.412669447" lon="7.33548056251">
		<tag k="loc_name" v="Småmyrane" />
		<tag k="name" v="Småmyran" />
		<tag k="natural" v="wetland" />
		<tag k="ssr:stedsnr" v="158102" />
	</node>
	<node id="-363167" lat="58.3754111085" lon="7.3621583329">
		<tag k="name" v="Kleivsvollen" />
		<tag k="place" v="locality" />
		<tag k="ssr:stedsnr" v="280001" />
	</node>
	<node id="-368154" lat="58.358074996" lon="7.34460555365">
		<tag k="name" v="Sålvesmyr" />
		<tag k="natural" v="wetland" />
		<tag k="ssr:stedsnr" v="947771" />
	</node>
	<node id="-364185" lat="58.2954611151" lon="7.29663611043">
		<tag k="name" v="Kvernhusmyra" />
		<tag k="natural" v="wetland" />
		<tag k="ssr:stedsnr" v="886305" />
	</node>
	<node id="-365466" lat="58.280074999" lon="7.28340556032">
		<tag k="name" v="Lonemyr" />
		<tag k="natural" v="wetland" />
		<tag k="ssr:stedsnr" v="219945" />
	</node>
	<node id="-364739" lat="58.403236111" lon="7.43295555182">
		<tag k="name" v="Slimyr" />
		<tag k="natural" v="wetland" />
		<tag k="ssr:stedsnr" v="61966" />
	</node>
	<node id="-368142" lat="58.2947277772" lon="7.26361111706">
		<tag k="name" v="Kromyr" />
		<tag k="natural" v="wetland" />
		<tag k="ssr:stedsnr" v="947312" />
	</node>
	<node id="-365721" lat="58.4838333316" lon="7.35908611179">
		<tag k="alt_name" v="Gråstad" />
		<tag k="name" v="Gråstadmyri" />
		<tag k="natural" v="wetland" />
		<tag k="ssr:stedsnr" v="243592" />
	</node>
	<node id="-364170" lat="58.3514472215" lon="7.32820000056">
		<tag k="name" v="Kjørkjemonen" />
		<tag k="place" v="locality" />
		<tag k="ssr:stedsnr" v="886194" />
	</node>
	<node id="-363657" lat="58.4706499974" lon="7.42452499766">
		<tag k="name" v="Småmyran" />
		<tag k="natural" v="wetland" />
		<tag k="ssr:stedsnr" v="353344" />
	</node>
	<node id="-364396" lat="58.2990277739" lon="7.26685000856">
		<tag k="name" v="Krommyra" />
		<tag k="natural" v="wetland" />
		<tag k="ssr:stedsnr" v="36258" />
	</node>
	<node id="-364166" lat="58.507666667" lon="7.50821110683">
		<tag k="name" v="Lomsemyr" />
		<tag k="natural" v="wetland" />
		<tag k="ssr:stedsnr" v="886174" />
	</node>
	<node id="-363141" lat="58.2317666653" lon="7.39817222415">
		<tag k="name" v="Kvasshammerslåtta" />
		<tag k="natural" v="wetland" />
		<tag k="ssr:stedsnr" v="279764" />
	</node>
	<node id="-364800" lat="58.4510750041" lon="7.38551111502">
		<tag k="loc_name" v="Nedre Sjurslåttæn" />
		<tag k="name" v="Nedre Sjurslåtten" />
		<tag k="natural" v="wetland" />
		<tag k="ssr:stedsnr" v="98089" />
	</node>
	<node id="-364161" lat="58.480480554" lon="7.45709999714">
		<tag k="name" v="Småmyran" />
		<tag k="natural" v="wetland" />
		<tag k="ssr:stedsnr" v="886144" />
	</node>
	<node id="-363836" lat="58.4427805572" lon="7.47573333625">
		<tag k="loc_name" v="Redslemyr" />
		<tag k="name" v="Restemyr" />
		<tag k="natural" v="wetland" />
		<tag k="ssr:stedsnr" v="401117" />
	</node>
	<node id="-363132" lat="58.2842944401" lon="7.26786111083">
		<tag k="name" v="Borgemyr" />
		<tag k="natural" v="wetland" />
		<tag k="ssr:stedsnr" v="279306" />
	</node>
	<node id="-363121" lat="58.4578444441" lon="7.46052499262">
		<tag k="name" v="Svomyr" />
		<tag k="natural" v="wetland" />
		<tag k="ssr:stedsnr" v="279119" />
	</node>
	<node id="-363120" lat="58.4565333324" lon="7.40171665962">
		<tag k="name" v="Dyblemyr" />
		<tag k="natural" v="wetland" />
		<tag k="ssr:stedsnr" v="279118" />
	</node>
	<node id="-363453" lat="58.3882638874" lon="7.39008332587">
		<tag k="name" v="Surtekjerret" />
		<tag k="natural" v="wetland" />
		<tag k="ssr:stedsnr" v="340050" />
	</node>
	<node id="-365073" lat="58.3684944472" lon="7.38447222488">
		<tag k="name" v="Dyblemyr" />
		<tag k="natural" v="wetland" />
		<tag k="ssr:stedsnr" v="158036" />
	</node>
	<node id="-366691" lat="58.3589416637" lon="7.34411945117">
		<tag k="name" v="Flone" />
		<tag k="place" v="locality" />
		<tag k="ssr:stedsnr" v="643974" />
	</node>
	<node id="-365413" lat="58.3657694438" lon="7.36009722974">
		<tag k="name" v="Maurbermyra" />
		<tag k="natural" v="wetland" />
		<tag k="ssr:stedsnr" v="219022" />
	</node>
	<node id="-366681" lat="58.3104972224" lon="7.41241665951">
		<tag k="name" v="Stemmyra" />
		<tag k="natural" v="wetland" />
		<tag k="ssr:stedsnr" v="643898" />
	</node>
	<node id="-366680" lat="58.3193083371" lon="7.32202500243">
		<tag k="name" v="Gåssteinen" />
		<tag k="natural" v="stone" />
		<tag k="ssr:stedsnr" v="643890" />
	</node>
	<node id="-366679" lat="58.2380194471" lon="7.38129722518">
		<tag k="name" v="Lømyr" />
		<tag k="place" v="locality" />
		<tag k="ssr:stedsnr" v="643865" />
	</node>
	<node id="-366676" lat="58.2414416629" lon="7.34026666343">
		<tag k="landuse" v="meadow" />
		<tag k="name" v="Kåsen" />
		<tag k="ssr:stedsnr" v="643846" />
	</node>
	<node id="-365070" lat="58.3720499999" lon="7.37204999208">
		<tag k="name" v="Brumyr" />
		<tag k="natural" v="wetland" />
		<tag k="ssr:stedsnr" v="158025" />
	</node>
	<node id="-366674" lat="58.273069447" lon="7.31676944102">
		<tag k="landuse" v="meadow" />
		<tag k="loc_name" v="Løslåta" />
		<tag k="name" v="Løslåtta" />
		<tag k="ssr:stedsnr" v="643818" />
	</node>
	<node id="-366672" lat="58.2301194464" lon="7.34800555535">
		<tag k="name" v="Røysa" />
		<tag k="natural" v="stone" />
		<tag k="ssr:stedsnr" v="643776" />
	</node>
	<node id="-366668" lat="58.243530558" lon="7.40869166786">
		<tag k="name" v="Steggan" />
		<tag k="natural" v="wetland" />
		<tag k="ssr:stedsnr" v="643753" />
	</node>
	<node id="-366666" lat="58.3951111075" lon="7.42607500365">
		<tag k="name" v="Eivindsmyr" />
		<tag k="natural" v="wetland" />
		<tag k="ssr:stedsnr" v="643374" />
	</node>
	<node id="-366664" lat="58.2856000012" lon="7.27764167124">
		<tag k="name" v="Torvemyr" />
		<tag k="natural" v="wetland" />
		<tag k="ssr:stedsnr" v="643297" />
	</node>
	<node id="-364440" lat="58.3904916702" lon="7.35860833921">
		<tag k="name" v="Skipermyr" />
		<tag k="natural" v="wetland" />
		<tag k="ssr:stedsnr" v="37056" />
	</node>
	<node id="-365126" lat="58.2998944478" lon="7.28989722448">
		<tag k="name" v="Kvernemyra" />
		<tag k="natural" v="wetland" />
		<tag k="ssr:stedsnr" v="158888" />
	</node>
	<node id="-365124" lat="58.2454305516" lon="7.34885832524">
		<tag k="name" v="Hagejordet" />
		<tag k="place" v="locality" />
		<tag k="ssr:stedsnr" v="158863" />
	</node>
	<node id="-366147" lat="58.4695944486" lon="7.42608056141">
		<tag k="name" v="Håvåsmyr" />
		<tag k="natural" v="wetland" />
		<tag k="ssr:stedsnr" v="535335" />
	</node>
	<node id="-367681" lat="58.2421638892" lon="7.37167777639">
		<tag k="name" v="Hæmyr" />
		<tag k="natural" v="wetland" />
		<tag k="ssr:stedsnr" v="826864" />
	</node>
	<node id="-363498" lat="58.3298388852" lon="7.42337221487">
		<tag k="name" v="Stemmyr" />
		<tag k="natural" v="wetland" />
		<tag k="ssr:stedsnr" v="340337" />
	</node>
	<node id="-365920" lat="58.4748416659" lon="7.4360833253">
		<tag k="name" v="Moltemyr" />
		<tag k="natural" v="wetland" />
		<tag k="ssr:stedsnr" v="462115" />
	</node>
	<node id="-365117" lat="58.3586444407" lon="7.30922500197">
		<tag k="name" v="Storemyr" />
		<tag k="natural" v="wetland" />
		<tag k="ssr:stedsnr" v="158976" />
	</node>
	<node id="-367672" lat="58.2753166652" lon="7.33215833048">
		<tag k="name" v="Auklandsmyr" />
		<tag k="natural" v="wetland" />
		<tag k="ssr:stedsnr" v="826818" />
	</node>
	<node id="-366647" lat="58.4349972244" lon="7.3620361168">
		<tag k="loc_name" v="Sandvannsmyræ" />
		<tag k="name" v="Sandvassmyr" />
		<tag k="natural" v="wetland" />
		<tag k="ssr:stedsnr" v="643119" />
	</node>
	<node id="-367669" lat="58.2534000037" lon="7.38232499208">
		<tag k="name" v="Fænura" />
		<tag k="natural" v="scree" />
		<tag k="ssr:stedsnr" v="826762" />
	</node>
	<node id="-366641" lat="58.4309111093" lon="7.44721388278">
		<tag k="name" v="Kjørkjekjerran" />
		<tag k="natural" v="wetland" />
		<tag k="ssr:stedsnr" v="643087" />
	</node>
	<node id="-366639" lat="58.4206194466" lon="7.42599166702">
		<tag k="name" v="Surtemyr" />
		<tag k="natural" v="wetland" />
		<tag k="ssr:stedsnr" v="643083" />
	</node>
	<node id="-367662" lat="58.4022722206" lon="7.40797222462">
		<tag k="name" v="Storamyra" />
		<tag k="natural" v="wetland" />
		<tag k="ssr:stedsnr" v="826241" />
	</node>
	<node id="-366637" lat="58.4172972258" lon="7.32180554841">
		<tag k="name" v="Stongsmyr" />
		<tag k="natural" v="wetland" />
		<tag k="ssr:stedsnr" v="643028" />
	</node>
	<node id="-368171" lat="58.2980000012" lon="7.33456945153">
		<tag k="name" v="Krogan" />
		<tag k="natural" v="wetland" />
		<tag k="ssr:stedsnr" v="947912" />
	</node>
	<node id="-366632" lat="58.3787749991" lon="7.38462500288">
		<tag k="name" v="Langemyran" />
		<tag k="natural" v="wetland" />
		<tag k="ssr:stedsnr" v="643314" />
	</node>
	<node id="-365094" lat="58.2486777821" lon="7.3655472251">
		<tag k="name" v="Hålandsmyr" />
		<tag k="natural" v="wetland" />
		<tag k="ssr:stedsnr" v="158285" />
	</node>
	<node id="-367652" lat="58.5129722217" lon="7.51331111206">
		<tag k="name" v="Dyblemyr" />
		<tag k="natural" v="wetland" />
		<tag k="ssr:stedsnr" v="826190" />
	</node>
	<node id="-365090" lat="58.4948222181" lon="7.48656111278">
		<tag k="name" v="Stongemyr" />
		<tag k="natural" v="wetland" />
		<tag k="ssr:stedsnr" v="158188" />
	</node>
	<node id="-368158" lat="58.258055552" lon="7.2809388945">
		<tag k="loc_name" v="Stegjemyr" />
		<tag k="name" v="Stegemyr" />
		<tag k="natural" v="wetland" />
		<tag k="ssr:stedsnr" v="947833" />
	</node>
	<node id="-368157" lat="58.2526916642" lon="7.28469999316">
		<tag k="name" v="Hamransmyra" />
		<tag k="natural" v="wetland" />
		<tag k="ssr:stedsnr" v="947832" />
	</node>
	<node id="-368156" lat="58.2509944433" lon="7.28568889687">
		<tag k="name" v="Finnmyran" />
		<tag k="natural" v="wetland" />
		<tag k="ssr:stedsnr" v="947825" />
	</node>
	<node id="-367643" lat="58.439661114" lon="7.44278611135">
		<tag k="name" v="Moltemyr" />
		<tag k="natural" v="wetland" />
		<tag k="ssr:stedsnr" v="826146" />
	</node>
	<node id="-367642" lat="58.4462305557" lon="7.44997222785">
		<tag k="name" v="Solmyr" />
		<tag k="natural" v="wetland" />
		<tag k="ssr:stedsnr" v="826145" />
	</node>
	<node id="-367641" lat="58.4400666652" lon="7.47898889018">
		<tag k="name" v="Lyngmyr" />
		<tag k="natural" v="wetland" />
		<tag k="ssr:stedsnr" v="826138" />
	</node>
	<node id="-367640" lat="58.4339027771" lon="7.45981944371">
		<tag k="name" v="Krikken" />
		<tag k="place" v="locality" />
		<tag k="ssr:stedsnr" v="826139" />
	</node>
	<node id="-368151" lat="58.2536583312" lon="7.39349166549">
		<tag k="name" v="Temyr" />
		<tag k="natural" v="wetland" />
		<tag k="ssr:stedsnr" v="947749" />
	</node>
	<node id="-367637" lat="58.421394447" lon="7.47565277312">
		<tag k="name" v="Joråskjerret" />
		<tag k="natural" v="wetland" />
		<tag k="ssr:stedsnr" v="826109" />
	</node>
	<node id="-368147" lat="58.439613891" lon="7.43763333675">
		<tag k="name" v="Persmyr" />
		<tag k="natural" v="wetland" />
		<tag k="ssr:stedsnr" v="947350" />
	</node>
	<node id="-367633" lat="58.3926111092" lon="7.35514444149">
		<tag k="name" v="Moltemyr" />
		<tag k="natural" v="wetland" />
		<tag k="ssr:stedsnr" v="826050" />
	</node>
	<node id="-365071" lat="58.3737833352" lon="7.34072222601">
		<tag k="name" v="Stølsmyre" />
		<tag k="natural" v="wetland" />
		<tag k="ssr:stedsnr" v="158028" />
	</node>
	<node id="-367630" lat="58.3666750008" lon="7.34903333844">
		<tag k="name" v="Ålmekjerret" />
		<tag k="natural" v="wetland" />
		<tag k="ssr:stedsnr" v="826033" />
	</node>
	<node id="-368138" lat="58.3060249975" lon="7.39500555407">
		<tag k="name" v="Torvemyr" />
		<tag k="natural" v="wetland" />
		<tag k="ssr:stedsnr" v="947284" />
	</node>
	<node id="-367624" lat="58.3411888855" lon="7.40846389553">
		<tag k="name" v="Dyblemyr" />
		<tag k="natural" v="wetland" />
		<tag k="ssr:stedsnr" v="825987" />
	</node>
	<node id="-365062" lat="58.3507055554" lon="7.38985833279">
		<tag k="name" v="Øygardsmyra" />
		<tag k="natural" v="wetland" />
		<tag k="ssr:stedsnr" v="158240" />
	</node>
	<node id="-365061" lat="58.5095555535" lon="7.49694166572">
		<tag k="name" v="Hagemyr" />
		<tag k="natural" v="wetland" />
		<tag k="ssr:stedsnr" v="158212" />
	</node>
	<node id="-365060" lat="58.4599416633" lon="7.39432221764">
		<tag k="name" v="Langemyr" />
		<tag k="natural" v="wetland" />
		<tag k="ssr:stedsnr" v="157110" />
	</node>
	<node id="-365064" lat="58.2807722233" lon="7.28212221816">
		<tag k="name" v="Stormyr" />
		<tag k="natural" v="wetland" />
		<tag k="ssr:stedsnr" v="158252" />
	</node>
	<node id="-363179" lat="58.3513638862" lon="7.42891944078">
		<tag k="name" v="Ikonsteinen" />
		<tag k="natural" v="stone" />
		<tag k="ssr:stedsnr" v="280944" />
	</node>
</osm>
