<?xml version="1.0" encoding="UTF-8"?>
<osm generator="osmapis" version="0.6">
	<node id="-366582" lat="58.3238444415" lon="7.42507222203">
		<tag k="name" v="Grengebrokka" />
		<tag k="natural" v="slope" />
		<tag k="place" v="locality" />
		<tag k="ssr:stedsnr" v="705970" />
	</node>
	<node id="-366581" lat="58.3603638916" lon="7.33478333055">
		<tag k="name" v="Brotan" />
		<tag k="natural" v="slope" />
		<tag k="place" v="locality" />
		<tag k="ssr:stedsnr" v="705966" />
	</node>
	<node id="-366578" lat="58.432022226" lon="7.33714444039">
		<tag k="name" v="Ulsdalen" />
		<tag k="natural" v="valley" />
		<tag k="place" v="locality" />
		<tag k="ssr:stedsnr" v="705383" />
	</node>
	<node id="-366575" lat="58.326241669" lon="7.37859999682">
		<tag k="fixme" v="consider natural=peak for the most distinct mountains in the district" />
		<tag k="name" v="Lindåsen" />
		<tag k="natural" v="hill" />
		<tag k="place" v="locality" />
		<tag k="ssr:stedsnr" v="704977" />
	</node>
	<node id="-366573" lat="58.3859527769" lon="7.36569722915">
		<tag k="name" v="Tjovedalskotet" />
		<tag k="natural" v="valley" />
		<tag k="place" v="locality" />
		<tag k="ssr:stedsnr" v="704934" />
	</node>
	<node id="-366571" lat="58.298600003" lon="7.34874166675">
		<tag k="name" v="Juå" />
		<tag k="natural" v="hill" />
		<tag k="place" v="locality" />
		<tag k="ssr:stedsnr" v="704902" />
	</node>
	<node id="-366570" lat="58.3025750018" lon="7.33948334025">
		<tag k="name" v="Sandkleiv" />
		<tag k="natural" v="slope" />
		<tag k="place" v="locality" />
		<tag k="ssr:stedsnr" v="704878" />
	</node>
	<node id="-366566" lat="58.2563833302" lon="7.30381666908">
		<tag k="fixme" v="consider natural=peak for the most distinct mountains in the district" />
		<tag k="name" v="Borgeråsen" />
		<tag k="natural" v="hill" />
		<tag k="place" v="locality" />
		<tag k="ssr:stedsnr" v="704839" />
	</node>
	<node id="-366564" lat="58.2626527774" lon="7.29338611219">
		<tag k="name" v="Kvåvan" />
		<tag k="natural" v="slope" />
		<tag k="place" v="locality" />
		<tag k="ssr:stedsnr" v="704818" />
	</node>
	<node id="-366563" lat="58.2427972214" lon="7.2712999974">
		<tag k="name" v="Stokken" />
		<tag k="place" v="locality" />
		<tag k="ssr:stedsnr" v="704813" />
	</node>
	<node id="-366562" lat="58.2473888924" lon="7.27888888455">
		<tag k="fixme" v="consider natural=peak for the most distinct mountains in the district" />
		<tag k="name" v="Hudefjellet" />
		<tag k="natural" v="hill" />
		<tag k="place" v="locality" />
		<tag k="ssr:stedsnr" v="704808" />
	</node>
	<node id="-366561" lat="58.2527861137" lon="7.26674444019">
		<tag k="name" v="Bjønnhommen" />
		<tag k="natural" v="valley" />
		<tag k="place" v="locality" />
		<tag k="ssr:stedsnr" v="704806" />
	</node>
	<node id="-366560" lat="58.2708250036" lon="7.34519444062">
		<tag k="fixme" v="consider natural=peak for the most distinct mountains in the district" />
		<tag k="name" v="Rebbåsen" />
		<tag k="natural" v="hill" />
		<tag k="place" v="locality" />
		<tag k="ssr:stedsnr" v="704800" />
	</node>
	<node id="-366559" lat="58.2656722219" lon="7.32460833612">
		<tag k="name" v="Hagemyrbakken" />
		<tag k="natural" v="hill" />
		<tag k="place" v="locality" />
		<tag k="ssr:stedsnr" v="704795" />
	</node>
	<node id="-366556" lat="58.2647972238" lon="7.41991111086">
		<tag k="fixme" v="consider natural=peak for the most distinct mountains in the district" />
		<tag k="name" v="Lauvåsen" />
		<tag k="natural" v="hill" />
		<tag k="place" v="locality" />
		<tag k="ssr:stedsnr" v="704745" />
	</node>
	<node id="-366554" lat="58.2567083336" lon="7.41437499331">
		<tag k="name" v="Husefjell" />
		<tag k="natural" v="hill" />
		<tag k="place" v="locality" />
		<tag k="ssr:stedsnr" v="704732" />
	</node>
	<node id="-366553" lat="58.3696916689" lon="7.39880834165">
		<tag k="name" v="Skåldalen" />
		<tag k="natural" v="valley" />
		<tag k="place" v="locality" />
		<tag k="ssr:stedsnr" v="704369" />
	</node>
	<node id="-366552" lat="58.4052027821" lon="7.44182777004">
		<tag k="name" v="Skarkedalen" />
		<tag k="natural" v="valley" />
		<tag k="place" v="locality" />
		<tag k="ssr:stedsnr" v="704356" />
	</node>
	<node id="-366551" lat="58.3772055555" lon="7.41374166025">
		<tag k="fixme" v="consider natural=peak for the most distinct mountains in the district" />
		<tag k="name" v="Espåsen" />
		<tag k="natural" v="hill" />
		<tag k="place" v="locality" />
		<tag k="ssr:stedsnr" v="704353" />
	</node>
	<node id="-366549" lat="58.3867333338" lon="7.36336666774">
		<tag k="name" v="Tjovedalen" />
		<tag k="natural" v="valley" />
		<tag k="place" v="locality" />
		<tag k="ssr:stedsnr" v="704299" />
	</node>
	<node id="-366547" lat="58.419402781" lon="7.35423888096">
		<tag k="name" v="Fossknuten" />
		<tag k="natural" v="hill" />
		<tag k="place" v="locality" />
		<tag k="ssr:stedsnr" v="704296" />
	</node>
	<node id="-366545" lat="58.270291663" lon="7.36229999939">
		<tag k="name" v="Hosledalen" />
		<tag k="natural" v="valley" />
		<tag k="place" v="locality" />
		<tag k="ssr:stedsnr" v="704261" />
	</node>
	<node id="-366544" lat="58.2324500016" lon="7.342949993">
		<tag k="name" v="Regåshaugen" />
		<tag k="natural" v="hill" />
		<tag k="place" v="locality" />
		<tag k="ssr:stedsnr" v="704248" />
	</node>
	<node id="-366543" lat="58.2944527802" lon="7.33696111828">
		<tag k="name" v="Nepstadhei" />
		<tag k="natural" v="hill" />
		<tag k="place" v="locality" />
		<tag k="ssr:stedsnr" v="704246" />
	</node>
	<node id="-366542" lat="58.2618805578" lon="7.3416750055">
		<tag k="name" v="Gilrifjellet" />
		<tag k="natural" v="hill" />
		<tag k="place" v="locality" />
		<tag k="ssr:stedsnr" v="704244" />
	</node>
	<node id="-366541" lat="58.3818416672" lon="7.41881111278">
		<tag k="fixme" v="consider natural=peak for the most distinct mountains in the district" />
		<tag k="name" v="Gaukåsen" />
		<tag k="natural" v="hill" />
		<tag k="place" v="locality" />
		<tag k="ssr:stedsnr" v="704232" />
	</node>
	<node id="-366540" lat="58.3790777803" lon="7.4073666672">
		<tag k="loc_name" v="Barlinskaræ" />
		<tag k="name" v="Barlinskaret" />
		<tag k="natural" v="valley" />
		<tag k="place" v="locality" />
		<tag k="ssr:stedsnr" v="704231" />
	</node>
	<node id="-366538" lat="58.3996083313" lon="7.42251388895">
		<tag k="name" v="Eivindsåsen" />
		<tag k="natural" v="hill" />
		<tag k="place" v="locality" />
		<tag k="ssr:stedsnr" v="704226" />
	</node>
	<node id="-366537" lat="58.3673583344" lon="7.41279999682">
		<tag k="loc_name" v="Daleslåtå" />
		<tag k="name" v="Daleslåtan" />
		<tag k="place" v="locality" />
		<tag k="ssr:stedsnr" v="704203" />
	</node>
	<node id="-366536" lat="58.3519055519" lon="7.31535833494">
		<tag k="loc_name" v="Osebakken" />
		<tag k="name" v="Osebakkjen" />
		<tag k="natural" v="slope" />
		<tag k="place" v="locality" />
		<tag k="ssr:stedsnr" v="704193" />
	</node>
	<node id="-366535" lat="58.5091111106" lon="7.47703610324">
		<tag k="name" v="Hyljestedjan" />
		<tag k="place" v="locality" />
		<tag k="ssr:stedsnr" v="704183" />
	</node>
	<node id="-366533" lat="58.4794222259" lon="7.35846111645">
		<tag k="name" v="Mannevegheia" />
		<tag k="natural" v="hill" />
		<tag k="place" v="locality" />
		<tag k="ssr:stedsnr" v="704172" />
	</node>
	<node id="-366532" lat="58.4767555594" lon="7.40331111763">
		<tag k="name" v="Mjunehei" />
		<tag k="natural" v="hill" />
		<tag k="place" v="locality" />
		<tag k="ssr:stedsnr" v="704169" />
	</node>
	<node id="-366531" lat="58.4960916674" lon="7.50110832483">
		<tag k="name" v="Tverrdalen" />
		<tag k="natural" v="valley" />
		<tag k="place" v="locality" />
		<tag k="ssr:stedsnr" v="704160" />
	</node>
	<node id="-366530" lat="58.4832472181" lon="7.38708333898">
		<tag k="name" v="Kleivan" />
		<tag k="natural" v="slope" />
		<tag k="place" v="locality" />
		<tag k="ssr:stedsnr" v="704151" />
	</node>
	<node id="-366528" lat="58.4368361119" lon="7.37395000716">
		<tag k="name" v="Skarkedalen" />
		<tag k="natural" v="valley" />
		<tag k="place" v="locality" />
		<tag k="ssr:stedsnr" v="704098" />
	</node>
	<node id="-366526" lat="58.4474583373" lon="7.40304999473">
		<tag k="name" v="Vardehei" />
		<tag k="natural" v="hill" />
		<tag k="place" v="locality" />
		<tag k="ssr:stedsnr" v="704088" />
	</node>
	<node id="-366525" lat="58.4215999974" lon="7.46919722088">
		<tag k="name" v="Hisåsen" />
		<tag k="natural" v="hill" />
		<tag k="place" v="locality" />
		<tag k="ssr:stedsnr" v="704083" />
	</node>
	<node id="-366524" lat="58.4131555557" lon="7.47740555281">
		<tag k="fixme" v="consider natural=peak for the most distinct mountains in the district" />
		<tag k="name" v="Skiptingsknuten" />
		<tag k="natural" v="hill" />
		<tag k="place" v="locality" />
		<tag k="ssr:stedsnr" v="704076" />
	</node>
	<node id="-366520" lat="58.4190194405" lon="7.37018333498">
		<tag k="name" v="Lysebakken" />
		<tag k="natural" v="slope" />
		<tag k="place" v="locality" />
		<tag k="ssr:stedsnr" v="704050" />
	</node>
	<node id="-366519" lat="58.4242027775" lon="7.38083333582">
		<tag k="fixme" v="consider natural=peak for the most distinct mountains in the district" />
		<tag k="loc_name" v="Æptkjærsheiæ" />
		<tag k="name" v="Eptekjerrhei" />
		<tag k="natural" v="hill" />
		<tag k="place" v="locality" />
		<tag k="ssr:stedsnr" v="704047" />
	</node>
	<node id="-366513" lat="58.4547472245" lon="7.43732778141">
		<tag k="name" v="Skovedalen" />
		<tag k="natural" v="valley" />
		<tag k="place" v="locality" />
		<tag k="ssr:stedsnr" v="703151" />
	</node>
	<node id="-366510" lat="58.4586083354" lon="7.43598888808">
		<tag k="fixme" v="consider natural=peak for the most distinct mountains in the district" />
		<tag k="name" v="Berreknuten" />
		<tag k="natural" v="hill" />
		<tag k="place" v="locality" />
		<tag k="ssr:stedsnr" v="703122" />
	</node>
	<node id="-366508" lat="58.3604972196" lon="7.39109167246">
		<tag k="alt_name" v="Ikonåsen" />
		<tag k="fixme" v="consider natural=peak for the most distinct mountains in the district" />
		<tag k="loc_name" v="Ikonnåsen" />
		<tag k="name" v="Ikornåsen" />
		<tag k="natural" v="hill" />
		<tag k="place" v="locality" />
		<tag k="ssr:stedsnr" v="667956" />
	</node>
	<node id="-366500" lat="58.3400666701" lon="7.37666389365">
		<tag k="alt_name" v="Storåsen" />
		<tag k="fixme" v="consider natural=peak for the most distinct mountains in the district" />
		<tag k="name" v="Nesåsen" />
		<tag k="natural" v="hill" />
		<tag k="place" v="locality" />
		<tag k="ssr:stedsnr" v="667739" />
	</node>
	<node id="-366494" lat="58.4929250038" lon="7.4741861095">
		<tag k="fixme" v="consider natural=peak for the most distinct mountains in the district" />
		<tag k="name" v="Husåsen" />
		<tag k="natural" v="hill" />
		<tag k="place" v="locality" />
		<tag k="ssr:stedsnr" v="667558" />
	</node>
	<node id="-366493" lat="58.4814499964" lon="7.52145833106">
		<tag k="alt_name" v="Skåreheii" />
		<tag k="fixme" v="consider natural=peak for the most distinct mountains in the district" />
		<tag k="loc_name" v="Skåreheia" />
		<tag k="name" v="Skorehei" />
		<tag k="natural" v="hill" />
		<tag k="place" v="locality" />
		<tag k="ssr:stedsnr" v="667553" />
	</node>
	<node id="-364367" lat="58.3285777757" lon="7.40422222627">
		<tag k="fixme" v="consider natural=peak for the most distinct mountains in the district" />
		<tag k="name" v="Boråsen" />
		<tag k="natural" v="hill" />
		<tag k="place" v="locality" />
		<tag k="ssr:stedsnr" v="98983" />
	</node>
	<node id="-364365" lat="58.3455527787" lon="7.33281388724">
		<tag k="name" v="Lunddalen" />
		<tag k="natural" v="valley" />
		<tag k="place" v="locality" />
		<tag k="ssr:stedsnr" v="98413" />
	</node>
	<node id="-364364" lat="58.4407972238" lon="7.35284167247">
		<tag k="loc_name" v="Skynneråsen" />
		<tag k="name" v="Sjinderåsen" />
		<tag k="natural" v="hill" />
		<tag k="place" v="locality" />
		<tag k="ssr:stedsnr" v="98403" />
	</node>
	<node id="-364363" lat="58.4036222238" lon="7.41554722782">
		<tag k="fixme" v="consider natural=peak for the most distinct mountains in the district" />
		<tag k="name" v="Nonåsen" />
		<tag k="natural" v="hill" />
		<tag k="place" v="locality" />
		<tag k="ssr:stedsnr" v="98400" />
	</node>
	<node id="-364362" lat="58.44914444" lon="7.39337777117">
		<tag k="name" v="Buvatnhei" />
		<tag k="natural" v="hill" />
		<tag k="place" v="locality" />
		<tag k="ssr:stedsnr" v="98359" />
	</node>
	<node id="-364361" lat="58.4741027768" lon="7.40611111758">
		<tag k="fixme" v="consider natural=peak for the most distinct mountains in the district" />
		<tag k="name" v="Stormoåsen" />
		<tag k="natural" v="hill" />
		<tag k="place" v="locality" />
		<tag k="ssr:stedsnr" v="98349" />
	</node>
	<node id="-364359" lat="58.4479722232" lon="7.45372777625">
		<tag k="name" v="Dalane" />
		<tag k="natural" v="valley" />
		<tag k="place" v="locality" />
		<tag k="ssr:stedsnr" v="98336" />
	</node>
	<node id="-364358" lat="58.448686107" lon="7.41103055245">
		<tag k="name" v="Båspordalen" />
		<tag k="natural" v="valley" />
		<tag k="place" v="locality" />
		<tag k="ssr:stedsnr" v="98337" />
	</node>
	<node id="-364356" lat="58.4454333307" lon="7.44031945119">
		<tag k="loc_name" v="Buffedalen" />
		<tag k="name" v="Bufferdalen" />
		<tag k="natural" v="valley" />
		<tag k="place" v="locality" />
		<tag k="ssr:stedsnr" v="98116" />
	</node>
	<node id="-364355" lat="58.4513305571" lon="7.45855556152">
		<tag k="name" v="Tjuvhelleren" />
		<tag k="place" v="locality" />
		<tag k="ssr:stedsnr" v="98107" />
	</node>
	<node id="-364354" lat="58.4344694411" lon="7.35099167027">
		<tag k="name" v="Urdalen" />
		<tag k="natural" v="valley" />
		<tag k="place" v="locality" />
		<tag k="ssr:stedsnr" v="98097" />
	</node>
	<node id="-364353" lat="58.446305555" lon="7.38532221709">
		<tag k="loc_name" v="Buvannskoræ" />
		<tag k="name" v="Buvatnskaret" />
		<tag k="natural" v="valley" />
		<tag k="place" v="locality" />
		<tag k="ssr:stedsnr" v="98092" />
	</node>
	<node id="-364350" lat="58.4239861117" lon="7.44659444479">
		<tag k="name" v="Bjørnehiet" />
		<tag k="place" v="locality" />
		<tag k="ssr:stedsnr" v="98070" />
	</node>
	<node id="-364346" lat="58.3743916631" lon="7.38326110407">
		<tag k="fixme" v="consider natural=peak for the most distinct mountains in the district" />
		<tag k="name" v="Kjørfjeddan" />
		<tag k="natural" v="hill" />
		<tag k="place" v="locality" />
		<tag k="ssr:stedsnr" v="98017" />
	</node>
	<node id="-364345" lat="58.2811305517" lon="7.30701388451">
		<tag k="fixme" v="consider natural=peak for the most distinct mountains in the district" />
		<tag k="loc_name" v="Fålkefjelle" />
		<tag k="name" v="Folkefjellet" />
		<tag k="natural" v="hill" />
		<tag k="place" v="locality" />
		<tag k="ssr:stedsnr" v="97928" />
	</node>
	<node id="-364343" lat="58.2852388854" lon="7.36970834132">
		<tag k="name" v="Eigeskaret" />
		<tag k="natural" v="valley" />
		<tag k="place" v="locality" />
		<tag k="ssr:stedsnr" v="97914" />
	</node>
	<node id="-364342" lat="58.3035750036" lon="7.36786945243">
		<tag k="loc_name" v="Espelidalen" />
		<tag k="name" v="Lille Haredal" />
		<tag k="natural" v="valley" />
		<tag k="place" v="locality" />
		<tag k="ssr:stedsnr" v="97902" />
	</node>
	<node id="-364341" lat="58.3066444486" lon="7.34094721364">
		<tag k="name" v="Torkelsplass" />
		<tag k="place" v="locality" />
		<tag k="ssr:stedsnr" v="97892" />
	</node>
	<node id="-364340" lat="58.3010722181" lon="7.32622500332">
		<tag k="fixme" v="consider natural=peak for the most distinct mountains in the district" />
		<tag k="name" v="Kjernesåsen" />
		<tag k="natural" v="hill" />
		<tag k="place" v="locality" />
		<tag k="ssr:stedsnr" v="97890" />
	</node>
	<node id="-364338" lat="58.266908335" lon="7.40146944334">
		<tag k="loc_name" v="St.Olavs kjelle" />
		<tag k="name" v="St. Olavs kjelde" />
		<tag k="place" v="locality" />
		<tag k="ssr:stedsnr" v="97863" />
	</node>
	<node id="-364336" lat="58.2503472217" lon="7.3940611159">
		<tag k="fixme" v="consider natural=peak for the most distinct mountains in the district" />
		<tag k="name" v="Lillehei" />
		<tag k="natural" v="hill" />
		<tag k="place" v="locality" />
		<tag k="ssr:stedsnr" v="97852" />
	</node>
	<node id="-364334" lat="58.2635583374" lon="7.29221667428">
		<tag k="name" v="Hepte" />
		<tag k="natural" v="slope" />
		<tag k="place" v="locality" />
		<tag k="ssr:stedsnr" v="97840" />
	</node>
	<node id="-364333" lat="58.2601222213" lon="7.30092500792">
		<tag k="name" v="Krågekniben" />
		<tag k="natural" v="hill" />
		<tag k="place" v="locality" />
		<tag k="ssr:stedsnr" v="97838" />
	</node>
	<node id="-364332" lat="58.2479250044" lon="7.27984166718">
		<tag k="name" v="Espeskaret" />
		<tag k="natural" v="valley" />
		<tag k="place" v="locality" />
		<tag k="ssr:stedsnr" v="97833" />
	</node>
	<node id="-364331" lat="58.2736638908" lon="7.32672222173">
		<tag k="loc_name" v="Kjøreberget" />
		<tag k="name" v="Tjøreberget" />
		<tag k="natural" v="hill" />
		<tag k="place" v="locality" />
		<tag k="ssr:stedsnr" v="97825" />
	</node>
	<node id="-364330" lat="58.2670222229" lon="7.33777221889">
		<tag k="name" v="Risbakken" />
		<tag k="natural" v="hill" />
		<tag k="place" v="locality" />
		<tag k="ssr:stedsnr" v="97820" />
	</node>
	<node id="-364326" lat="58.4166249971" lon="7.46051389158">
		<tag k="name" v="Heptedalen" />
		<tag k="natural" v="valley" />
		<tag k="place" v="locality" />
		<tag k="ssr:stedsnr" v="97377" />
	</node>
	<node id="-364325" lat="58.3700888931" lon="7.327347215">
		<tag k="fixme" v="consider natural=peak for the most distinct mountains in the district" />
		<tag k="name" v="Storåsen" />
		<tag k="natural" v="hill" />
		<tag k="place" v="locality" />
		<tag k="ssr:stedsnr" v="97346" />
	</node>
	<node id="-364324" lat="58.4178888855" lon="7.31513332513">
		<tag k="fixme" v="consider natural=peak for the most distinct mountains in the district" />
		<tag k="loc_name" v="Stainåsen" />
		<tag k="name" v="Stongåsen" />
		<tag k="natural" v="hill" />
		<tag k="place" v="locality" />
		<tag k="ssr:stedsnr" v="97318" />
	</node>
	<node id="-364323" lat="58.2759972225" lon="7.31035833754">
		<tag k="fixme" v="consider natural=peak for the most distinct mountains in the district" />
		<tag k="name" v="Høgåsen" />
		<tag k="natural" v="hill" />
		<tag k="place" v="locality" />
		<tag k="ssr:stedsnr" v="97307" />
	</node>
	<node id="-364322" lat="58.3031583354" lon="7.30849166009">
		<tag k="name" v="Løheia" />
		<tag k="natural" v="hill" />
		<tag k="place" v="locality" />
		<tag k="ssr:stedsnr" v="97297" />
	</node>
	<node id="-364318" lat="58.2731055569" lon="7.28737221876">
		<tag k="fixme" v="consider natural=peak for the most distinct mountains in the district" />
		<tag k="name" v="Nonåsen" />
		<tag k="natural" v="hill" />
		<tag k="place" v="locality" />
		<tag k="ssr:stedsnr" v="97267" />
	</node>
	<node id="-364316" lat="58.2637888905" lon="7.31316389596">
		<tag k="name" v="Eigelandshei" />
		<tag k="natural" v="hill" />
		<tag k="place" v="locality" />
		<tag k="ssr:stedsnr" v="97262" />
	</node>
	<node id="-364315" lat="58.2485999995" lon="7.30061388731">
		<tag k="loc_name" v="Kusadalen" />
		<tag k="name" v="Kusedalen" />
		<tag k="natural" v="valley" />
		<tag k="place" v="locality" />
		<tag k="ssr:stedsnr" v="97254" />
	</node>
	<node id="-364313" lat="58.2753388909" lon="7.37026667316">
		<tag k="name" v="Skavdalen" />
		<tag k="natural" v="valley" />
		<tag k="place" v="locality" />
		<tag k="ssr:stedsnr" v="97252" />
	</node>
	<node id="-364312" lat="58.3917750023" lon="7.41811111299">
		<tag k="name" v="Hervåsholtan" />
		<tag k="natural" v="slope" />
		<tag k="place" v="locality" />
		<tag k="ssr:stedsnr" v="97242" />
	</node>
	<node id="-364311" lat="58.3961694424" lon="7.43550277691">
		<tag k="name" v="Kvile" />
		<tag k="natural" v="valley" />
		<tag k="place" v="locality" />
		<tag k="ssr:stedsnr" v="97236" />
	</node>
	<node id="-364307" lat="58.3556333318" lon="7.33066945195">
		<tag k="name" v="Solbakkjen" />
		<tag k="natural" v="hill" />
		<tag k="place" v="locality" />
		<tag k="ssr:stedsnr" v="97207" />
	</node>
	<node id="-364306" lat="58.479636115" lon="7.50390554801">
		<tag k="name" v="Urdalen" />
		<tag k="natural" v="valley" />
		<tag k="place" v="locality" />
		<tag k="ssr:stedsnr" v="97200" />
	</node>
	<node id="-364305" lat="58.5023055576" lon="7.37863333665">
		<tag k="name" v="Knutslåtta" />
		<tag k="natural" v="slope" />
		<tag k="place" v="locality" />
		<tag k="ssr:stedsnr" v="97196" />
	</node>
	<node id="-364303" lat="58.5060083306" lon="7.50205833574">
		<tag k="name" v="Djupedalen" />
		<tag k="natural" v="valley" />
		<tag k="place" v="locality" />
		<tag k="ssr:stedsnr" v="97185" />
	</node>
	<node id="-364302" lat="58.501611109" lon="7.51788055875">
		<tag k="name" v="Skogere" />
		<tag k="natural" v="slope" />
		<tag k="place" v="locality" />
		<tag k="ssr:stedsnr" v="97182" />
	</node>
	<node id="-364298" lat="58.4553250041" lon="7.37771667289">
		<tag k="name" v="Hattefurstø" />
		<tag k="place" v="locality" />
		<tag k="ssr:stedsnr" v="97139" />
	</node>
	<node id="-364296" lat="58.4945916684" lon="7.36701945168">
		<tag k="fixme" v="consider natural=peak for the most distinct mountains in the district" />
		<tag k="name" v="Ørneknodden" />
		<tag k="natural" v="hill" />
		<tag k="place" v="locality" />
		<tag k="ssr:stedsnr" v="97129" />
	</node>
	<node id="-364295" lat="58.4574388917" lon="7.4480805581">
		<tag k="name" v="Blonnestadfjell" />
		<tag k="natural" v="hill" />
		<tag k="place" v="locality" />
		<tag k="ssr:stedsnr" v="97119" />
	</node>
	<node id="-364294" lat="58.4613249977" lon="7.42239721401">
		<tag k="name" v="Hallbratthei" />
		<tag k="natural" v="hill" />
		<tag k="place" v="locality" />
		<tag k="ssr:stedsnr" v="97116" />
	</node>
	<node id="-364293" lat="58.4660861099" lon="7.41207500208">
		<tag k="loc_name" v="Heddarknodden" />
		<tag k="name" v="Hedderen" />
		<tag k="natural" v="hill" />
		<tag k="place" v="locality" />
		<tag k="ssr:stedsnr" v="97114" />
	</node>
	<node id="-364292" lat="58.3908194479" lon="7.36114166501">
		<tag k="alt_name" v="Toppafjellet" />
		<tag k="fixme" v="consider natural=peak for the most distinct mountains in the district" />
		<tag k="loc_name" v="Ytre Toppårfjeddet" />
		<tag k="name" v="Topparfjellet" />
		<tag k="natural" v="hill" />
		<tag k="place" v="locality" />
		<tag k="ssr:stedsnr" v="61973" />
	</node>
	<node id="-364286" lat="58.4078916672" lon="7.32547777248">
		<tag k="alt_name" v="Stokkåshei" />
		<tag k="name" v="Stokkåsheii" />
		<tag k="natural" v="hill" />
		<tag k="place" v="locality" />
		<tag k="ssr:stedsnr" v="61632" />
	</node>
	<node id="-364285" lat="58.4968888846" lon="7.51290277579">
		<tag k="fixme" v="consider natural=peak for the most distinct mountains in the district" />
		<tag k="name" v="Kistefjell" />
		<tag k="natural" v="hill" />
		<tag k="place" v="locality" />
		<tag k="ssr:stedsnr" v="61595" />
	</node>
	<node id="-364284" lat="58.4885111075" lon="7.51450277018">
		<tag k="alt_name" v="Smørenåsen" />
		<tag k="fixme" v="consider natural=peak for the most distinct mountains in the district" />
		<tag k="loc_name" v="Smørneåsen" />
		<tag k="name" v="Smøreneåsen" />
		<tag k="natural" v="hill" />
		<tag k="place" v="locality" />
		<tag k="ssr:stedsnr" v="61588" />
	</node>
	<node id="-364282" lat="58.4744861092" lon="7.44458333404">
		<tag k="fixme" v="consider natural=peak for the most distinct mountains in the district" />
		<tag k="name" v="Seljeåsen" />
		<tag k="natural" v="hill" />
		<tag k="place" v="locality" />
		<tag k="ssr:stedsnr" v="61550" />
	</node>
	<node id="-362722" lat="58.4102222199" lon="7.44191667387">
		<tag k="fixme" v="consider natural=peak for the most distinct mountains in the district" />
		<tag k="name" v="Tereknuten" />
		<tag k="natural" v="hill" />
		<tag k="place" v="locality" />
		<tag k="ssr:stedsnr" v="280078" />
	</node>
	<node id="-366246" lat="58.3357527804" lon="7.39944722048">
		<tag k="name" v="Slåtehei" />
		<tag k="natural" v="ridge" />
		<tag k="place" v="locality" />
		<tag k="ssr:stedsnr" v="643994" />
	</node>
	<node id="-366245" lat="58.3433500026" lon="7.38490833004">
		<tag k="name" v="Rødningen" />
		<tag k="natural" v="slope" />
		<tag k="place" v="locality" />
		<tag k="ssr:stedsnr" v="643986" />
	</node>
	<node id="-366242" lat="58.3613194439" lon="7.34389444039">
		<tag k="name" v="Vodden" />
		<tag k="natural" v="slope" />
		<tag k="place" v="locality" />
		<tag k="ssr:stedsnr" v="643966" />
	</node>
	<node id="-366241" lat="58.3588722253" lon="7.38008054963">
		<tag k="fixme" v="consider natural=peak for the most distinct mountains in the district" />
		<tag k="name" v="Havsåsen" />
		<tag k="natural" v="hill" />
		<tag k="place" v="locality" />
		<tag k="ssr:stedsnr" v="643960" />
	</node>
	<node id="-366240" lat="58.3596638885" lon="7.39403055472">
		<tag k="loc_name" v="Knådden" />
		<tag k="name" v="Knodden" />
		<tag k="natural" v="hill" />
		<tag k="place" v="locality" />
		<tag k="ssr:stedsnr" v="643958" />
	</node>
	<node id="-366239" lat="58.3824499984" lon="7.38595555401">
		<tag k="name" v="Hosledalsheia" />
		<tag k="natural" v="hill" />
		<tag k="place" v="locality" />
		<tag k="ssr:stedsnr" v="643950" />
	</node>
	<node id="-366238" lat="58.2997972228" lon="7.38840834148">
		<tag k="name" v="Breidablikk" />
		<tag k="natural" v="hill" />
		<tag k="place" v="locality" />
		<tag k="ssr:stedsnr" v="643924" />
	</node>
	<node id="-366236" lat="58.3059305597" lon="7.35906666761">
		<tag k="name" v="Lisleøy" />
		<tag k="place" v="locality" />
		<tag k="ssr:stedsnr" v="643901" />
	</node>
	<node id="-366235" lat="58.3032666654" lon="7.35522222782">
		<tag k="name" v="Skotelia" />
		<tag k="natural" v="slope" />
		<tag k="place" v="locality" />
		<tag k="ssr:stedsnr" v="643899" />
	</node>
	<node id="-366234" lat="58.3131805552" lon="7.41582222294">
		<tag k="name" v="Langemyrbakken" />
		<tag k="natural" v="slope" />
		<tag k="place" v="locality" />
		<tag k="ssr:stedsnr" v="643897" />
	</node>
	<node id="-366230" lat="58.2500611109" lon="7.39534723055">
		<tag k="name" v="Sjerdal" />
		<tag k="natural" v="valley" />
		<tag k="place" v="locality" />
		<tag k="ssr:stedsnr" v="643859" />
	</node>
	<node id="-366229" lat="58.2484083346" lon="7.38721944956">
		<tag k="name" v="Støa" />
		<tag k="natural" v="valley" />
		<tag k="place" v="locality" />
		<tag k="ssr:stedsnr" v="643854" />
	</node>
	<node id="-366227" lat="58.2760250033" lon="7.308600005">
		<tag k="loc_name" v="Hausbarknodden" />
		<tag k="name" v="Haustbarkknodden" />
		<tag k="natural" v="hill" />
		<tag k="place" v="locality" />
		<tag k="ssr:stedsnr" v="643821" />
	</node>
	<node id="-366225" lat="58.2712833294" lon="7.31281943653">
		<tag k="name" v="Kjempevollen" />
		<tag k="place" v="locality" />
		<tag k="ssr:stedsnr" v="643816" />
	</node>
	<node id="-366223" lat="58.256505553" lon="7.35980278046">
		<tag k="name" v="Bjørneholen" />
		<tag k="place" v="locality" />
		<tag k="ssr:stedsnr" v="643770" />
	</node>
	<node id="-366221" lat="58.2460305532" lon="7.41288055567">
		<tag k="name" v="Raunsås" />
		<tag k="natural" v="hill" />
		<tag k="place" v="locality" />
		<tag k="ssr:stedsnr" v="643755" />
	</node>
	<node id="-366219" lat="58.2514749986" lon="7.41901388158">
		<tag k="name" v="Vindåsen" />
		<tag k="natural" v="hill" />
		<tag k="place" v="locality" />
		<tag k="ssr:stedsnr" v="643751" />
	</node>
	<node id="-366217" lat="58.2933444479" lon="7.37953611698">
		<tag k="name" v="Lian" />
		<tag k="natural" v="slope" />
		<tag k="place" v="locality" />
		<tag k="ssr:stedsnr" v="643300" />
	</node>
	<node id="-366215" lat="58.2856083341" lon="7.30982778049">
		<tag k="name" v="Åmlida" />
		<tag k="natural" v="slope" />
		<tag k="place" v="locality" />
		<tag k="ssr:stedsnr" v="643293" />
	</node>
	<node id="-366214" lat="58.2870694489" lon="7.36200277679">
		<tag k="loc_name" v="Kjørkeheiå" />
		<tag k="name" v="Kjørkehei" />
		<tag k="natural" v="hill" />
		<tag k="place" v="locality" />
		<tag k="ssr:stedsnr" v="643278" />
	</node>
	<node id="-366211" lat="58.2710472214" lon="7.38156945095">
		<tag k="loc_name" v="Skarefjelle" />
		<tag k="name" v="Skarefjellet" />
		<tag k="natural" v="hill" />
		<tag k="place" v="locality" />
		<tag k="ssr:stedsnr" v="643251" />
	</node>
	<node id="-366208" lat="58.3551833371" lon="7.43072778437">
		<tag k="name" v="Ropsholtet" />
		<tag k="natural" v="slope" />
		<tag k="place" v="locality" />
		<tag k="ssr:stedsnr" v="643239" />
	</node>
	<node id="-366207" lat="58.4950777794" lon="7.48074165867">
		<tag k="name" v="Hagere" />
		<tag k="natural" v="slope" />
		<tag k="place" v="locality" />
		<tag k="ssr:stedsnr" v="643200" />
	</node>
	<node id="-366206" lat="58.4770749985" lon="7.36823055964">
		<tag k="name" v="Kaldtjønnknuten" />
		<tag k="natural" v="hill" />
		<tag k="place" v="locality" />
		<tag k="ssr:stedsnr" v="643194" />
	</node>
	<node id="-366205" lat="58.4822944403" lon="7.4374583379">
		<tag k="name" v="Godal" />
		<tag k="natural" v="valley" />
		<tag k="place" v="locality" />
		<tag k="ssr:stedsnr" v="643173" />
	</node>
	<node id="-366204" lat="58.4939555586" lon="7.39598610403">
		<tag k="name" v="Høghei" />
		<tag k="natural" v="hill" />
		<tag k="place" v="locality" />
		<tag k="ssr:stedsnr" v="643167" />
	</node>
	<node id="-366203" lat="58.4909583301" lon="7.44372222331">
		<tag k="name" v="Stronna" />
		<tag k="natural" v="slope" />
		<tag k="place" v="locality" />
		<tag k="ssr:stedsnr" v="643166" />
	</node>
	<node id="-366202" lat="58.4883222266" lon="7.40696388657">
		<tag k="name" v="Ballingdalen" />
		<tag k="natural" v="valley" />
		<tag k="place" v="locality" />
		<tag k="ssr:stedsnr" v="643164" />
	</node>
	<node id="-366201" lat="58.4320722262" lon="7.45243889078">
		<tag k="name" v="Reveknodden" />
		<tag k="natural" v="hill" />
		<tag k="place" v="locality" />
		<tag k="ssr:stedsnr" v="643137" />
	</node>
	<node id="-366200" lat="58.4378999998" lon="7.34568611034">
		<tag k="name" v="Knipen" />
		<tag k="natural" v="hill" />
		<tag k="place" v="locality" />
		<tag k="ssr:stedsnr" v="643125" />
	</node>
	<node id="-366198" lat="58.420736115" lon="7.44315554777">
		<tag k="name" v="Skotstø" />
		<tag k="natural" v="valley" />
		<tag k="place" v="locality" />
		<tag k="ssr:stedsnr" v="643109" />
	</node>
	<node id="-366197" lat="58.4233583373" lon="7.4790777797">
		<tag k="fixme" v="consider natural=peak for the most distinct mountains in the district" />
		<tag k="name" v="Gildreåsen" />
		<tag k="natural" v="hill" />
		<tag k="place" v="locality" />
		<tag k="ssr:stedsnr" v="643110" />
	</node>
	<node id="-366196" lat="58.4303611133" lon="7.48149722806">
		<tag k="fixme" v="consider natural=peak for the most distinct mountains in the district" />
		<tag k="name" v="Huarknodden" />
		<tag k="natural" v="hill" />
		<tag k="place" v="locality" />
		<tag k="ssr:stedsnr" v="643106" />
	</node>
	<node id="-366194" lat="58.4293416674" lon="7.4327916701">
		<tag k="name" v="Possmyrdalen" />
		<tag k="natural" v="valley" />
		<tag k="place" v="locality" />
		<tag k="ssr:stedsnr" v="643092" />
	</node>
	<node id="-366192" lat="58.4154638846" lon="7.41870834024">
		<tag k="name" v="Rundehaugen" />
		<tag k="natural" v="hill" />
		<tag k="place" v="locality" />
		<tag k="ssr:stedsnr" v="643084" />
	</node>
	<node id="-366190" lat="58.419274998" lon="7.38441388529">
		<tag k="name" v="Sessedalen" />
		<tag k="natural" v="valley" />
		<tag k="place" v="locality" />
		<tag k="ssr:stedsnr" v="643079" />
	</node>
	<node id="-366188" lat="58.3697527742" lon="7.37782221647">
		<tag k="name" v="Klomreberget" />
		<tag k="natural" v="hill" />
		<tag k="place" v="locality" />
		<tag k="ssr:stedsnr" v="643019" />
	</node>
	<node id="-366187" lat="58.4187749992" lon="7.45860833496">
		<tag k="name" v="Høgåsen" />
		<tag k="natural" v="hill" />
		<tag k="place" v="locality" />
		<tag k="ssr:stedsnr" v="643345" />
	</node>
	<node id="-366186" lat="58.4419472179" lon="7.40551666629">
		<tag k="name" v="Buvassdalen" />
		<tag k="natural" v="valley" />
		<tag k="place" v="locality" />
		<tag k="ssr:stedsnr" v="643334" />
	</node>
	<node id="-366185" lat="58.4382750036" lon="7.4771166582">
		<tag k="name" v="Trolldalen" />
		<tag k="natural" v="valley" />
		<tag k="place" v="locality" />
		<tag k="ssr:stedsnr" v="643329" />
	</node>
	<node id="-366183" lat="58.4231833365" lon="7.35209166021">
		<tag k="loc_name" v="Fossvannsheiæ" />
		<tag k="name" v="Fossvatnheia" />
		<tag k="natural" v="hill" />
		<tag k="place" v="locality" />
		<tag k="ssr:stedsnr" v="643312" />
	</node>
	<node id="-366182" lat="58.3687055532" lon="7.32166388358">
		<tag k="name" v="Langemyrdalen" />
		<tag k="natural" v="valley" />
		<tag k="place" v="locality" />
		<tag k="ssr:stedsnr" v="643304" />
	</node>
	<node id="-366181" lat="58.4606666701" lon="7.39265833559">
		<tag k="fixme" v="consider natural=peak for the most distinct mountains in the district" />
		<tag k="name" v="Daurmolåsen" />
		<tag k="natural" v="hill" />
		<tag k="place" v="locality" />
		<tag k="ssr:stedsnr" v="642127" />
	</node>
	<node id="-366180" lat="58.457602774" lon="7.44573055943">
		<tag k="name" v="Blonnestaddalen" />
		<tag k="natural" v="valley" />
		<tag k="place" v="locality" />
		<tag k="ssr:stedsnr" v="642119" />
	</node>
	<node id="-366175" lat="58.4151638906" lon="7.34698055969">
		<tag k="alt_name" v="Åråtheia" />
		<tag k="name" v="Orrholtheii" />
		<tag k="natural" v="hill" />
		<tag k="place" v="locality" />
		<tag k="ssr:stedsnr" v="606875" />
	</node>
	<node id="-366174" lat="58.3599083327" lon="7.32165000611">
		<tag k="fixme" v="multiple name tags, choose one and add the other to alt_name; consider natural=peak for the most distinct mountains in the district" />
		<tag k="loc_name" v="Kvitakvedn" />
		<tag k="name" v="Kvidakvedn;Revsdalsfjellet" />
		<tag k="natural" v="hill" />
		<tag k="place" v="locality" />
		<tag k="ssr:stedsnr" v="606698" />
	</node>
	<node id="-366170" lat="58.4723972202" lon="7.37609722863">
		<tag k="alt_name" v="Liheia" />
		<tag k="name" v="Liheii" />
		<tag k="natural" v="hill" />
		<tag k="place" v="locality" />
		<tag k="ssr:stedsnr" v="606572" />
	</node>
	<node id="-366169" lat="58.4703638849" lon="7.4314416598">
		<tag k="alt_name" v="Håvåsen" />
		<tag k="fixme" v="consider natural=peak for the most distinct mountains in the district" />
		<tag k="name" v="Hovåsen" />
		<tag k="natural" v="hill" />
		<tag k="place" v="locality" />
		<tag k="ssr:stedsnr" v="606564" />
	</node>
	<node id="-363059" lat="58.2527638896" lon="7.33025832688">
		<tag k="name" v="Jerpåsen" />
		<tag k="natural" v="hill" />
		<tag k="place" v="locality" />
		<tag k="ssr:stedsnr" v="340766" />
	</node>
	<node id="-363058" lat="58.2513333323" lon="7.36647777587">
		<tag k="name" v="Prestefosshaugen" />
		<tag k="natural" v="hill" />
		<tag k="place" v="locality" />
		<tag k="ssr:stedsnr" v="340759" />
	</node>
	<node id="-364024" lat="58.3270777753" lon="7.39477222102">
		<tag k="name" v="Bytingsheia" />
		<tag k="natural" v="ridge" />
		<tag k="place" v="locality" />
		<tag k="ssr:stedsnr" v="37985" />
	</node>
	<node id="-364023" lat="58.3286194427" lon="7.38523888786">
		<tag k="name" v="Steinheia" />
		<tag k="natural" v="ridge" />
		<tag k="place" v="locality" />
		<tag k="ssr:stedsnr" v="37983" />
	</node>
	<node id="-364021" lat="58.3564833337" lon="7.35973611556">
		<tag k="name" v="Høgebrotan" />
		<tag k="natural" v="slope" />
		<tag k="place" v="locality" />
		<tag k="ssr:stedsnr" v="37964" />
	</node>
	<node id="-364020" lat="58.3553777761" lon="7.36183334152">
		<tag k="name" v="Flisdalen" />
		<tag k="natural" v="valley" />
		<tag k="place" v="locality" />
		<tag k="ssr:stedsnr" v="37963" />
	</node>
	<node id="-364019" lat="58.3650583316" lon="7.39155554866">
		<tag k="name" v="Setehaug" />
		<tag k="natural" v="hill" />
		<tag k="place" v="locality" />
		<tag k="ssr:stedsnr" v="37962" />
	</node>
	<node id="-364018" lat="58.3781972219" lon="7.38057221671">
		<tag k="name" v="Grandalen" />
		<tag k="natural" v="valley" />
		<tag k="place" v="locality" />
		<tag k="ssr:stedsnr" v="37953" />
	</node>
	<node id="-364015" lat="58.3316194453" lon="7.33316111422">
		<tag k="name" v="Snøkleiv" />
		<tag k="natural" v="slope" />
		<tag k="place" v="locality" />
		<tag k="ssr:stedsnr" v="37893" />
	</node>
	<node id="-364013" lat="58.3804472219" lon="7.40584166043">
		<tag k="loc_name" v="Tuslarheiæ" />
		<tag k="name" v="Tuslarhei" />
		<tag k="natural" v="hill" />
		<tag k="place" v="locality" />
		<tag k="ssr:stedsnr" v="37418" />
	</node>
	<node id="-364012" lat="58.3498833299" lon="7.34101944437">
		<tag k="name" v="Smålian" />
		<tag k="natural" v="slope" />
		<tag k="place" v="locality" />
		<tag k="ssr:stedsnr" v="37415" />
	</node>
	<node id="-364011" lat="58.349824996" lon="7.32314165854">
		<tag k="fixme" v="consider natural=peak for the most distinct mountains in the district" />
		<tag k="name" v="Vindåsen" />
		<tag k="natural" v="hill" />
		<tag k="place" v="locality" />
		<tag k="ssr:stedsnr" v="37413" />
	</node>
	<node id="-364010" lat="58.4477000024" lon="7.46322500466">
		<tag k="name" v="Smedslandsdalen" />
		<tag k="natural" v="valley" />
		<tag k="place" v="locality" />
		<tag k="ssr:stedsnr" v="37344" />
	</node>
	<node id="-364009" lat="58.4373611079" lon="7.44255555724">
		<tag k="name" v="Flatehei" />
		<tag k="natural" v="hill" />
		<tag k="place" v="locality" />
		<tag k="ssr:stedsnr" v="37339" />
	</node>
	<node id="-364008" lat="58.3565861121" lon="7.31642778492">
		<tag k="name" v="Åmdalen" />
		<tag k="natural" v="valley" />
		<tag k="place" v="locality" />
		<tag k="ssr:stedsnr" v="37214" />
	</node>
	<node id="-364006" lat="58.4834666636" lon="7.4456555473">
		<tag k="name" v="Kalvedalen" />
		<tag k="natural" v="valley" />
		<tag k="place" v="locality" />
		<tag k="ssr:stedsnr" v="37190" />
	</node>
	<node id="-364005" lat="58.4810194401" lon="7.34828333488">
		<tag k="name" v="Brendeknottan" />
		<tag k="natural" v="hill" />
		<tag k="place" v="locality" />
		<tag k="ssr:stedsnr" v="37187" />
	</node>
	<node id="-364004" lat="58.4831083357" lon="7.38427499491">
		<tag k="name" v="Brendeknodden" />
		<tag k="natural" v="hill" />
		<tag k="place" v="locality" />
		<tag k="ssr:stedsnr" v="37177" />
	</node>
	<node id="-363997" lat="58.42314722" lon="7.4547111101">
		<tag k="name" v="Siljordsdalen" />
		<tag k="natural" v="valley" />
		<tag k="place" v="locality" />
		<tag k="ssr:stedsnr" v="37108" />
	</node>
	<node id="-363996" lat="58.4230138933" lon="7.44008055092">
		<tag k="name" v="Lislemonen" />
		<tag k="place" v="locality" />
		<tag k="ssr:stedsnr" v="37107" />
	</node>
	<node id="-363995" lat="58.4216388853" lon="7.39405000112">
		<tag k="loc_name" v="Husefjeddæ" />
		<tag k="name" v="Husefjellet" />
		<tag k="natural" v="hill" />
		<tag k="place" v="locality" />
		<tag k="ssr:stedsnr" v="37064" />
	</node>
	<node id="-363994" lat="58.4306750003" lon="7.37950000308">
		<tag k="fixme" v="consider natural=peak for the most distinct mountains in the district" />
		<tag k="loc_name" v="Migarsfjeddet" />
		<tag k="name" v="Migarsfjellet" />
		<tag k="natural" v="hill" />
		<tag k="place" v="locality" />
		<tag k="ssr:stedsnr" v="37061" />
	</node>
	<node id="-363993" lat="58.4295527801" lon="7.36354444269">
		<tag k="loc_name" v="Slettåsbakkjen" />
		<tag k="name" v="Sletåsbakken" />
		<tag k="natural" v="hill" />
		<tag k="place" v="locality" />
		<tag k="ssr:stedsnr" v="37058" />
	</node>
	<node id="-363395" lat="58.4844361105" lon="7.39676943919">
		<tag k="loc_name" v="Sollihei" />
		<tag k="name" v="Solliheia" />
		<tag k="natural" v="hill" />
		<tag k="place" v="locality" />
		<tag k="ssr:stedsnr" v="401174" />
	</node>
	<node id="-363987" lat="58.3894861132" lon="7.38584166774">
		<tag k="loc_name" v="Ydra Svartingsskotet" />
		<tag k="name" v="Bergeskotet" />
		<tag k="natural" v="hill" />
		<tag k="place" v="locality" />
		<tag k="ssr:stedsnr" v="37046" />
	</node>
	<node id="-363985" lat="58.4055416709" lon="7.3608555573">
		<tag k="name" v="Urebakken" />
		<tag k="natural" v="slope" />
		<tag k="place" v="locality" />
		<tag k="ssr:stedsnr" v="37032" />
	</node>
	<node id="-363396" lat="58.4846000037" lon="7.40279999544">
		<tag k="name" v="Sollidalen" />
		<tag k="natural" v="valley" />
		<tag k="place" v="locality" />
		<tag k="ssr:stedsnr" v="401175" />
	</node>
	<node id="-363982" lat="58.3735833335" lon="7.39343610509">
		<tag k="name" v="Storliste" />
		<tag k="place" v="locality" />
		<tag k="ssr:stedsnr" v="37016" />
	</node>
	<node id="-363980" lat="58.3776083371" lon="7.3677361176">
		<tag k="name" v="Langemoen" />
		<tag k="place" v="locality" />
		<tag k="ssr:stedsnr" v="37004" />
	</node>
	<node id="-363979" lat="58.3215999964" lon="7.34166667261">
		<tag k="name" v="Tåderen" />
		<tag k="natural" v="valley" />
		<tag k="place" v="locality" />
		<tag k="ssr:stedsnr" v="36997" />
	</node>
	<node id="-363977" lat="58.2871138891" lon="7.27495000648">
		<tag k="fixme" v="consider natural=peak for the most distinct mountains in the district" />
		<tag k="name" v="Kjennbakken" />
		<tag k="natural" v="hill" />
		<tag k="place" v="locality" />
		<tag k="ssr:stedsnr" v="36922" />
	</node>
	<node id="-363976" lat="58.2970944486" lon="7.33926945127">
		<tag k="fixme" v="consider natural=peak for the most distinct mountains in the district" />
		<tag k="name" v="Kvednåsen" />
		<tag k="natural" v="hill" />
		<tag k="place" v="locality" />
		<tag k="ssr:stedsnr" v="36913" />
	</node>
	<node id="-363975" lat="58.2923388851" lon="7.35074999611">
		<tag k="fixme" v="consider natural=peak for the most distinct mountains in the district" />
		<tag k="name" v="Hudefjellet" />
		<tag k="natural" v="hill" />
		<tag k="place" v="locality" />
		<tag k="ssr:stedsnr" v="36910" />
	</node>
	<node id="-363974" lat="58.3132388883" lon="7.38285832484">
		<tag k="name" v="Knoddedalen" />
		<tag k="natural" v="valley" />
		<tag k="place" v="locality" />
		<tag k="ssr:stedsnr" v="36909" />
	</node>
	<node id="-363972" lat="58.3079777783" lon="7.37379722578">
		<tag k="name" v="Støa" />
		<tag k="natural" v="valley" />
		<tag k="place" v="locality" />
		<tag k="ssr:stedsnr" v="36901" />
	</node>
	<node id="-363971" lat="58.3384972216" lon="7.32228610968">
		<tag k="name" v="Røyåsskaret" />
		<tag k="natural" v="valley" />
		<tag k="place" v="locality" />
		<tag k="ssr:stedsnr" v="36886" />
	</node>
	<node id="-363970" lat="58.2603805577" lon="7.40118888296">
		<tag k="name" v="Gullgrubakken" />
		<tag k="natural" v="hill" />
		<tag k="place" v="locality" />
		<tag k="ssr:stedsnr" v="36883" />
	</node>
	<node id="-363967" lat="58.2498222186" lon="7.35596111133">
		<tag k="name" v="Gauksåsen" />
		<tag k="natural" v="hill" />
		<tag k="place" v="locality" />
		<tag k="ssr:stedsnr" v="36871" />
	</node>
	<node id="-363082" lat="58.3388277738" lon="7.36946666539">
		<tag k="name" v="Nesereet" />
		<tag k="natural" v="ridge" />
		<tag k="place" v="locality" />
		<tag k="ssr:stedsnr" v="341000" />
	</node>
	<node id="-363961" lat="58.2675527757" lon="7.31519723065">
		<tag k="name" v="Vardehei" />
		<tag k="natural" v="hill" />
		<tag k="place" v="locality" />
		<tag k="ssr:stedsnr" v="36833" />
	</node>
	<node id="-363959" lat="58.2576333373" lon="7.31348889037">
		<tag k="name" v="Kniben" />
		<tag k="natural" v="hill" />
		<tag k="place" v="locality" />
		<tag k="ssr:stedsnr" v="36826" />
	</node>
	<node id="-363957" lat="58.2621805568" lon="7.33435555815">
		<tag k="name" v="Åsen" />
		<tag k="natural" v="hill" />
		<tag k="place" v="locality" />
		<tag k="ssr:stedsnr" v="36823" />
	</node>
	<node id="-363954" lat="58.4177555597" lon="7.3547333347">
		<tag k="name" v="Høgafjellet" />
		<tag k="natural" v="hill" />
		<tag k="place" v="locality" />
		<tag k="ssr:stedsnr" v="36337" />
	</node>
	<node id="-363953" lat="58.3386527811" lon="7.43274444808">
		<tag k="fixme" v="consider natural=peak for the most distinct mountains in the district" />
		<tag k="name" v="Meåsen" />
		<tag k="natural" v="hill" />
		<tag k="place" v="locality" />
		<tag k="ssr:stedsnr" v="36300" />
	</node>
	<node id="-363952" lat="58.4037888859" lon="7.39357777038">
		<tag k="name" v="Lian" />
		<tag k="natural" v="slope" />
		<tag k="place" v="locality" />
		<tag k="ssr:stedsnr" v="36286" />
	</node>
	<node id="-363951" lat="58.2893499981" lon="7.28325277421">
		<tag k="name" v="Spikkerensla" />
		<tag k="natural" v="slope" />
		<tag k="place" v="locality" />
		<tag k="ssr:stedsnr" v="36272" />
	</node>
	<node id="-363950" lat="58.2900499983" lon="7.26171388421">
		<tag k="name" v="Skofteli" />
		<tag k="natural" v="slope" />
		<tag k="place" v="locality" />
		<tag k="ssr:stedsnr" v="36271" />
	</node>
	<node id="-363949" lat="58.2733472177" lon="7.29861110402">
		<tag k="name" v="Hægelandsheia" />
		<tag k="natural" v="hill" />
		<tag k="place" v="locality" />
		<tag k="ssr:stedsnr" v="36264" />
	</node>
	<node id="-363947" lat="58.3082833362" lon="7.31015832658">
		<tag k="name" v="Sobelifjellan" />
		<tag k="natural" v="hill" />
		<tag k="place" v="locality" />
		<tag k="ssr:stedsnr" v="36252" />
	</node>
	<node id="-363946" lat="58.3190999963" lon="7.3758166665">
		<tag k="name" v="Likdalen" />
		<tag k="natural" v="valley" />
		<tag k="place" v="locality" />
		<tag k="ssr:stedsnr" v="36247" />
	</node>
	<node id="-363944" lat="58.2600222255" lon="7.30728334155">
		<tag k="name" v="Holtan" />
		<tag k="natural" v="slope" />
		<tag k="place" v="locality" />
		<tag k="ssr:stedsnr" v="36228" />
	</node>
	<node id="-363943" lat="58.2578833313" lon="7.29735000561">
		<tag k="name" v="Brokkekniben" />
		<tag k="natural" v="hill" />
		<tag k="place" v="locality" />
		<tag k="ssr:stedsnr" v="36224" />
	</node>
	<node id="-363941" lat="58.3889472203" lon="7.41111111904">
		<tag k="name" v="Myglebåsen" />
		<tag k="natural" v="hill" />
		<tag k="place" v="locality" />
		<tag k="ssr:stedsnr" v="36205" />
	</node>
	<node id="-363940" lat="58.356819448" lon="7.42002499167">
		<tag k="name" v="Grånestean" />
		<tag k="place" v="locality" />
		<tag k="ssr:stedsnr" v="36186" />
	</node>
	<node id="-363938" lat="58.34878889" lon="7.32161666646">
		<tag k="name" v="Stolebrokkå" />
		<tag k="natural" v="slope" />
		<tag k="place" v="locality" />
		<tag k="ssr:stedsnr" v="36168" />
	</node>
	<node id="-363937" lat="58.3475583344" lon="7.36103610486">
		<tag k="name" v="Bjorstedjan" />
		<tag k="place" v="locality" />
		<tag k="ssr:stedsnr" v="36167" />
	</node>
	<node id="-363936" lat="58.5110333339" lon="7.48868611184">
		<tag k="name" v="Geiteråshei" />
		<tag k="natural" v="hill" />
		<tag k="place" v="locality" />
		<tag k="ssr:stedsnr" v="36152" />
	</node>
	<node id="-362736" lat="58.332399999" lon="7.29868889023">
		<tag k="fixme" v="consider natural=peak for the most distinct mountains in the district" />
		<tag k="loc_name" v="Klefjellet" />
		<tag k="name" v="Klefjell" />
		<tag k="natural" v="hill" />
		<tag k="place" v="locality" />
		<tag k="ssr:stedsnr" v="280996" />
	</node>
	<node id="-363933" lat="58.3939500041" lon="7.34872778325">
		<tag k="alt_name" v="Nouåshelleren" />
		<tag k="fixme" v="consider natural=peak for the most distinct mountains in the district" />
		<tag k="name" v="Nonåsen" />
		<tag k="natural" v="hill" />
		<tag k="place" v="locality" />
		<tag k="ssr:stedsnr" v="984" />
	</node>
	<node id="-363931" lat="58.4368222249" lon="7.38800277927">
		<tag k="alt_name" v="Byremohei" />
		<tag k="loc_name" v="Bergemosheien" />
		<tag k="name" v="Byremoheii" />
		<tag k="natural" v="hill" />
		<tag k="place" v="locality" />
		<tag k="ssr:stedsnr" v="943" />
	</node>
	<node id="-362735" lat="58.3599999987" lon="7.31690556161">
		<tag k="name" v="Gabet" />
		<tag k="natural" v="valley" />
		<tag k="place" v="locality" />
		<tag k="ssr:stedsnr" v="280978" />
	</node>
	<node id="-363928" lat="58.4504416656" lon="7.39893055409">
		<tag k="alt_name" v="Mandalshei" />
		<tag k="name" v="Maldalsheii" />
		<tag k="natural" v="hill" />
		<tag k="place" v="locality" />
		<tag k="ssr:stedsnr" v="918" />
	</node>
	<node id="-363076" lat="58.4104888859" lon="7.42107221754">
		<tag k="name" v="Siljestad" />
		<tag k="natural" v="slope" />
		<tag k="place" v="locality" />
		<tag k="ssr:stedsnr" v="340957" />
	</node>
	<node id="-365465" lat="58.3935305522" lon="7.36671110857">
		<tag k="name" v="Steinskotet" />
		<tag k="natural" v="valley" />
		<tag k="place" v="locality" />
		<tag k="ssr:stedsnr" v="462051" />
	</node>
	<node id="-363923" lat="58.3423916667" lon="7.43687777785">
		<tag k="name" v="Sollidalen" />
		<tag k="natural" v="valley" />
		<tag k="place" v="locality" />
		<tag k="ssr:stedsnr" v="787" />
	</node>
	<node id="-363922" lat="58.3709638924" lon="7.31673054749">
		<tag k="alt_name" v="Lislåsen" />
		<tag k="fixme" v="consider natural=peak for the most distinct mountains in the district" />
		<tag k="name" v="Litlåsen" />
		<tag k="natural" v="hill" />
		<tag k="place" v="locality" />
		<tag k="ssr:stedsnr" v="730" />
	</node>
	<node id="-363075" lat="58.2851277783" lon="7.29659444784">
		<tag k="name" v="Spahatten" />
		<tag k="natural" v="hill" />
		<tag k="place" v="locality" />
		<tag k="ssr:stedsnr" v="340944" />
	</node>
	<node id="-363414" lat="58.3239111125" lon="7.31200555921">
		<tag k="name" v="Maskefjellet" />
		<tag k="natural" v="hill" />
		<tag k="place" v="locality" />
		<tag k="ssr:stedsnr" v="401998" />
	</node>
	<node id="-363899" lat="58.4708694411" lon="7.42239444201">
		<tag k="name" v="Kleven" />
		<tag k="natural" v="valley" />
		<tag k="place" v="locality" />
		<tag k="ssr:stedsnr" v="899327" />
	</node>
	<node id="-363412" lat="58.324213891" lon="7.41224443697">
		<tag k="name" v="Hagehei" />
		<tag k="natural" v="hill" />
		<tag k="place" v="locality" />
		<tag k="ssr:stedsnr" v="401977" />
	</node>
	<node id="-363408" lat="58.3636305563" lon="7.3533777792">
		<tag k="fixme" v="consider natural=peak for the most distinct mountains in the district" />
		<tag k="name" v="Sviveråsen" />
		<tag k="natural" v="hill" />
		<tag k="place" v="locality" />
		<tag k="ssr:stedsnr" v="401965" />
	</node>
	<node id="-362728" lat="58.4352361155" lon="7.34916944232">
		<tag k="loc_name" v="Robbænn" />
		<tag k="name" v="Rubben" />
		<tag k="natural" v="hill" />
		<tag k="place" v="locality" />
		<tag k="ssr:stedsnr" v="280354" />
	</node>
	<node id="-363410" lat="58.36130833" lon="7.34169167217">
		<tag k="name" v="Store Fite" />
		<tag k="place" v="locality" />
		<tag k="ssr:stedsnr" v="401970" />
	</node>
	<node id="-363068" lat="58.2534916637" lon="7.29939167454">
		<tag k="fixme" v="consider natural=peak for the most distinct mountains in the district" />
		<tag k="name" v="Nonåsen" />
		<tag k="natural" v="hill" />
		<tag k="place" v="locality" />
		<tag k="ssr:stedsnr" v="340863" />
	</node>
	<node id="-363409" lat="58.3595777786" lon="7.33953888337">
		<tag k="loc_name" v="Skakkekraien" />
		<tag k="name" v="Skakkekragjen" />
		<tag k="natural" v="slope" />
		<tag k="place" v="locality" />
		<tag k="ssr:stedsnr" v="401969" />
	</node>
	<node id="-365923" lat="58.3786527765" lon="7.36927777541">
		<tag k="name" v="Stean" />
		<tag k="place" v="locality" />
		<tag k="ssr:stedsnr" v="583946" />
	</node>
	<node id="-365922" lat="58.3572833364" lon="7.42096944618">
		<tag k="name" v="Torshusdalen" />
		<tag k="natural" v="valley" />
		<tag k="place" v="locality" />
		<tag k="ssr:stedsnr" v="583404" />
	</node>
	<node id="-365921" lat="58.4462138859" lon="7.36898611202">
		<tag k="name" v="Flottorpsbergan" />
		<tag k="natural" v="hill" />
		<tag k="place" v="locality" />
		<tag k="ssr:stedsnr" v="583366" />
	</node>
	<node id="-365920" lat="58.4348305524" lon="7.44289722955">
		<tag k="name" v="Skoddehei" />
		<tag k="natural" v="hill" />
		<tag k="place" v="locality" />
		<tag k="ssr:stedsnr" v="583352" />
	</node>
	<node id="-365919" lat="58.4354111092" lon="7.4859749934">
		<tag k="loc_name" v="Grånedalen" />
		<tag k="name" v="Granedalen" />
		<tag k="natural" v="valley" />
		<tag k="place" v="locality" />
		<tag k="ssr:stedsnr" v="583350" />
	</node>
	<node id="-365917" lat="58.4391388875" lon="7.40218610561">
		<tag k="name" v="Bekkedalen" />
		<tag k="natural" v="valley" />
		<tag k="place" v="locality" />
		<tag k="ssr:stedsnr" v="583340" />
	</node>
	<node id="-365916" lat="58.4367583356" lon="7.45221110958">
		<tag k="name" v="Daleskotet" />
		<tag k="natural" v="valley" />
		<tag k="place" v="locality" />
		<tag k="ssr:stedsnr" v="583115" />
	</node>
	<node id="-365915" lat="58.4432694402" lon="7.341211107">
		<tag k="name" v="Tagedalsknuten" />
		<tag k="natural" v="hill" />
		<tag k="place" v="locality" />
		<tag k="ssr:stedsnr" v="583098" />
	</node>
	<node id="-365912" lat="58.4272833311" lon="7.45667221643">
		<tag k="name" v="Voddan" />
		<tag k="natural" v="slope" />
		<tag k="place" v="locality" />
		<tag k="ssr:stedsnr" v="583079" />
	</node>
	<node id="-365910" lat="58.4213972262" lon="7.32476388226">
		<tag k="fixme" v="consider natural=peak for the most distinct mountains in the district" />
		<tag k="name" v="Meåsen" />
		<tag k="natural" v="hill" />
		<tag k="place" v="locality" />
		<tag k="ssr:stedsnr" v="583058" />
	</node>
	<node id="-365909" lat="58.4314666677" lon="7.39709444736">
		<tag k="loc_name" v="Lokefjeddæ" />
		<tag k="name" v="Logefjell" />
		<tag k="natural" v="hill" />
		<tag k="place" v="locality" />
		<tag k="ssr:stedsnr" v="583054" />
	</node>
	<node id="-365908" lat="58.3694027774" lon="7.38685555002">
		<tag k="name" v="Hagen" />
		<tag k="natural" v="hill" />
		<tag k="place" v="locality" />
		<tag k="ssr:stedsnr" v="583019" />
	</node>
	<node id="-365906" lat="58.3748416698" lon="7.36757777394">
		<tag k="name" v="Husefjellet" />
		<tag k="natural" v="hill" />
		<tag k="place" v="locality" />
		<tag k="ssr:stedsnr" v="583002" />
	</node>
	<node id="-365905" lat="58.3365277782" lon="7.4127416714">
		<tag k="fixme" v="consider natural=peak for the most distinct mountains in the district" />
		<tag k="name" v="Kallåsen" />
		<tag k="natural" v="hill" />
		<tag k="place" v="locality" />
		<tag k="ssr:stedsnr" v="582988" />
	</node>
	<node id="-365904" lat="58.2786499981" lon="7.28051667299">
		<tag k="name" v="Kvernebakken" />
		<tag k="natural" v="hill" />
		<tag k="place" v="locality" />
		<tag k="ssr:stedsnr" v="582940" />
	</node>
	<node id="-365903" lat="58.2834583304" lon="7.34507777374">
		<tag k="name" v="Timrehola" />
		<tag k="natural" v="valley" />
		<tag k="place" v="locality" />
		<tag k="ssr:stedsnr" v="582935" />
	</node>
	<node id="-365902" lat="58.2879166652" lon="7.30561389085">
		<tag k="loc_name" v="Solheiå" />
		<tag k="name" v="Solheia" />
		<tag k="natural" v="slope" />
		<tag k="place" v="locality" />
		<tag k="ssr:stedsnr" v="582929" />
	</node>
	<node id="-365901" lat="58.2947888897" lon="7.31660555865">
		<tag k="name" v="Trappen" />
		<tag k="place" v="locality" />
		<tag k="ssr:stedsnr" v="582925" />
	</node>
	<node id="-365900" lat="58.314577776" lon="7.37273888913">
		<tag k="name" v="Seneskard" />
		<tag k="natural" v="slope" />
		<tag k="place" v="locality" />
		<tag k="ssr:stedsnr" v="582914" />
	</node>
	<node id="-365899" lat="58.2835055547" lon="7.36304166756">
		<tag k="name" v="Loftsvollen" />
		<tag k="natural" v="slope" />
		<tag k="place" v="locality" />
		<tag k="ssr:stedsnr" v="582913" />
	</node>
	<node id="-365893" lat="58.3004861138" lon="7.29208056215">
		<tag k="name" v="Bagligumpen" />
		<tag k="natural" v="hill" />
		<tag k="place" v="locality" />
		<tag k="ssr:stedsnr" v="582878" />
	</node>
	<node id="-365889" lat="58.2669805515" lon="7.35363889211">
		<tag k="name" v="Kjerålsnasa" />
		<tag k="natural" v="hill" />
		<tag k="place" v="locality" />
		<tag k="ssr:stedsnr" v="582849" />
	</node>
	<node id="-365887" lat="58.251786109" lon="7.41140833253">
		<tag k="name" v="Revedalen" />
		<tag k="natural" v="valley" />
		<tag k="place" v="locality" />
		<tag k="ssr:stedsnr" v="582773" />
	</node>
	<node id="-365886" lat="58.4266888875" lon="7.45037222353">
		<tag k="name" v="Bjarmolia" />
		<tag k="natural" v="slope" />
		<tag k="place" v="locality" />
		<tag k="ssr:stedsnr" v="582374" />
	</node>
	<node id="-365885" lat="58.3781805575" lon="7.37626666961">
		<tag k="name" v="Håvorsheia" />
		<tag k="natural" v="hill" />
		<tag k="place" v="locality" />
		<tag k="ssr:stedsnr" v="582358" />
	</node>
	<node id="-365884" lat="58.3786444477" lon="7.33052777071">
		<tag k="name" v="Kræklingheia" />
		<tag k="natural" v="hill" />
		<tag k="place" v="locality" />
		<tag k="ssr:stedsnr" v="582356" />
	</node>
	<node id="-365883" lat="58.3542666673" lon="7.39968333405">
		<tag k="loc_name" v="Lauåsen" />
		<tag k="name" v="Lauvåsen" />
		<tag k="natural" v="slope" />
		<tag k="place" v="locality" />
		<tag k="ssr:stedsnr" v="582347" />
	</node>
	<node id="-365882" lat="58.3894888916" lon="7.35446388492">
		<tag k="name" v="Høghei" />
		<tag k="natural" v="hill" />
		<tag k="place" v="locality" />
		<tag k="ssr:stedsnr" v="582345" />
	</node>
	<node id="-365881" lat="58.4270833295" lon="7.39338334001">
		<tag k="loc_name" v="Raundalsheiæ" />
		<tag k="name" v="Raundalsheia" />
		<tag k="natural" v="hill" />
		<tag k="place" v="locality" />
		<tag k="ssr:stedsnr" v="582343" />
	</node>
	<node id="-365880" lat="58.3994861104" lon="7.33168333757">
		<tag k="name" v="Tinnkjørrhei" />
		<tag k="natural" v="hill" />
		<tag k="place" v="locality" />
		<tag k="ssr:stedsnr" v="582332" />
	</node>
	<node id="-363060" lat="58.3320194418" lon="7.28997777305">
		<tag k="name" v="Stølsbytte" />
		<tag k="place" v="locality" />
		<tag k="ssr:stedsnr" v="340772" />
	</node>
	<node id="-365877" lat="58.3112361111" lon="7.35118333002">
		<tag k="name" v="Stoland" />
		<tag k="natural" v="valley" />
		<tag k="place" v="locality" />
		<tag k="ssr:stedsnr" v="582311" />
	</node>
	<node id="-365876" lat="58.2837944446" lon="7.37561389366">
		<tag k="loc_name" v="Bekkjarheiå" />
		<tag k="name" v="Bekkjarheia" />
		<tag k="natural" v="hill" />
		<tag k="place" v="locality" />
		<tag k="ssr:stedsnr" v="582307" />
	</node>
	<node id="-365874" lat="58.2546388915" lon="7.38819999355">
		<tag k="fixme" v="consider natural=peak for the most distinct mountains in the district" />
		<tag k="name" v="Stavfjell" />
		<tag k="natural" v="hill" />
		<tag k="place" v="locality" />
		<tag k="ssr:stedsnr" v="582289" />
	</node>
	<node id="-365873" lat="58.2421416641" lon="7.28181111393">
		<tag k="name" v="Vebramsdalen" />
		<tag k="natural" v="valley" />
		<tag k="place" v="locality" />
		<tag k="ssr:stedsnr" v="582273" />
	</node>
	<node id="-365872" lat="58.2567361067" lon="7.31481110409">
		<tag k="name" v="Krågedalen" />
		<tag k="natural" v="valley" />
		<tag k="place" v="locality" />
		<tag k="ssr:stedsnr" v="582272" />
	</node>
	<node id="-365871" lat="58.3847250032" lon="7.42881945276">
		<tag k="name" v="Brufjellet" />
		<tag k="natural" v="hill" />
		<tag k="place" v="locality" />
		<tag k="ssr:stedsnr" v="582266" />
	</node>
	<node id="-365869" lat="58.3603972193" lon="7.43022778555">
		<tag k="name" v="Lindeli" />
		<tag k="natural" v="slope" />
		<tag k="place" v="locality" />
		<tag k="ssr:stedsnr" v="582243" />
	</node>
	<node id="-365867" lat="58.5004250002" lon="7.4828500067">
		<tag k="name" v="Kleivan" />
		<tag k="natural" v="slope" />
		<tag k="place" v="locality" />
		<tag k="ssr:stedsnr" v="582235" />
	</node>
	<node id="-365866" lat="58.3479277795" lon="7.32391389669">
		<tag k="name" v="Jærbrokkå" />
		<tag k="natural" v="slope" />
		<tag k="place" v="locality" />
		<tag k="ssr:stedsnr" v="582222" />
	</node>
	<node id="-363399" lat="58.473194445" lon="7.35663889098">
		<tag k="name" v="Stemtjønnheia" />
		<tag k="natural" v="hill" />
		<tag k="place" v="locality" />
		<tag k="ssr:stedsnr" v="401343" />
	</node>
	<node id="-365864" lat="58.5063222222" lon="7.50968334154">
		<tag k="fixme" v="consider natural=peak for the most distinct mountains in the district" />
		<tag k="name" v="Heståsen" />
		<tag k="natural" v="hill" />
		<tag k="place" v="locality" />
		<tag k="ssr:stedsnr" v="582201" />
	</node>
	<node id="-365863" lat="58.5091305569" lon="7.51078054993">
		<tag k="name" v="Bjørkålhei" />
		<tag k="natural" v="hill" />
		<tag k="place" v="locality" />
		<tag k="ssr:stedsnr" v="582198" />
	</node>
	<node id="-365862" lat="58.4812555538" lon="7.39296666209">
		<tag k="name" v="Sollia" />
		<tag k="natural" v="slope" />
		<tag k="place" v="locality" />
		<tag k="ssr:stedsnr" v="582156" />
	</node>
	<node id="-363057" lat="58.24835" lon="7.41886110353">
		<tag k="alt_name" v="Beintrasheia" />
		<tag k="name" v="Beintråsheia" />
		<tag k="natural" v="hill" />
		<tag k="place" v="locality" />
		<tag k="ssr:stedsnr" v="340750" />
	</node>
	<node id="-365860" lat="58.465194448" lon="7.42954166101">
		<tag k="loc_name" v="Husefjedde" />
		<tag k="name" v="Husefjell" />
		<tag k="natural" v="hill" />
		<tag k="place" v="locality" />
		<tag k="ssr:stedsnr" v="582120" />
	</node>
	<node id="-365859" lat="58.4512749963" lon="7.43036388067">
		<tag k="name" v="Bratteskotet" />
		<tag k="natural" v="valley" />
		<tag k="place" v="locality" />
		<tag k="ssr:stedsnr" v="582105" />
	</node>
	<node id="-367141" lat="58.3461638925" lon="7.36320833185">
		<tag k="alt_name" v="Håbergsknuten" />
		<tag k="fixme" v="consider natural=peak for the most distinct mountains in the district" />
		<tag k="name" v="Hobbersknuten" />
		<tag k="natural" v="hill" />
		<tag k="place" v="locality" />
		<tag k="ssr:stedsnr" v="789792" />
	</node>
	<node id="-365855" lat="58.4993722191" lon="7.37995277225">
		<tag k="fixme" v="consider natural=peak for the most distinct mountains in the district" />
		<tag k="name" v="Svartefjellet" />
		<tag k="natural" v="hill" />
		<tag k="place" v="locality" />
		<tag k="ssr:stedsnr" v="546888" />
	</node>
	<node id="-365850" lat="58.3129027771" lon="7.4097250009">
		<tag k="alt_name" v="Goåsen" />
		<tag k="name" v="Utjordsheia" />
		<tag k="natural" v="hill" />
		<tag k="place" v="locality" />
		<tag k="ssr:stedsnr" v="546711" />
	</node>
	<node id="-365848" lat="58.4140416695" lon="7.31551389217">
		<tag k="alt_name" v="Svartupsheia" />
		<tag k="name" v="Svartupshei" />
		<tag k="natural" v="hill" />
		<tag k="place" v="locality" />
		<tag k="ssr:stedsnr" v="546609" />
	</node>
	<node id="-365847" lat="58.493494447" lon="7.37509444805">
		<tag k="alt_name" v="Heddehei" />
		<tag k="fixme" v="consider natural=peak for the most distinct mountains in the district" />
		<tag k="name" v="Ørnemyrfjellet" />
		<tag k="natural" v="hill" />
		<tag k="place" v="locality" />
		<tag k="ssr:stedsnr" v="546567" />
	</node>
	<node id="-365845" lat="58.4845777782" lon="7.40758333749">
		<tag k="alt_name" v="Sautindan" />
		<tag k="name" v="Sautind" />
		<tag k="natural" v="hill" />
		<tag k="place" v="locality" />
		<tag k="ssr:stedsnr" v="546548" />
	</node>
	<node id="-365844" lat="58.4827805551" lon="7.41485000188">
		<tag k="alt_name" v="Lubbedalen" />
		<tag k="name" v="Lobbedalen" />
		<tag k="natural" v="valley" />
		<tag k="place" v="locality" />
		<tag k="ssr:stedsnr" v="546546" />
	</node>
	<node id="-363054" lat="58.4285499972" lon="7.40282500046">
		<tag k="fixme" v="consider natural=peak for the most distinct mountains in the district" />
		<tag k="name" v="Lokefjellet" />
		<tag k="natural" v="hill" />
		<tag k="place" v="locality" />
		<tag k="ssr:stedsnr" v="340358" />
	</node>
	<node id="-365841" lat="58.2847777816" lon="7.29097500362">
		<tag k="name" v="Måkeheia" />
		<tag k="natural" v="hill" />
		<tag k="place" v="locality" />
		<tag k="ssr:stedsnr" v="546481" />
	</node>
	<node id="-363789" lat="58.3266916678" lon="7.38655832589">
		<tag k="name" v="Røysefjellet" />
		<tag k="natural" v="hill" />
		<tag k="place" v="locality" />
		<tag k="ssr:stedsnr" v="887988" />
	</node>
	<node id="-363788" lat="58.3631416711" lon="7.3330250039">
		<tag k="name" v="Lindålbakkan" />
		<tag k="natural" v="slope" />
		<tag k="place" v="locality" />
		<tag k="ssr:stedsnr" v="887972" />
	</node>
	<node id="-363394" lat="58.4642916702" lon="7.47579445187">
		<tag k="name" v="Hommehei" />
		<tag k="natural" v="hill" />
		<tag k="place" v="locality" />
		<tag k="ssr:stedsnr" v="401168" />
	</node>
	<node id="-363784" lat="58.3832361096" lon="7.34182777911">
		<tag k="loc_name" v="Ølskålæ" />
		<tag k="name" v="Ølskåle" />
		<tag k="place" v="locality" />
		<tag k="ssr:stedsnr" v="887961" />
	</node>
	<node id="-363783" lat="58.3563416636" lon="7.3445027733">
		<tag k="loc_name" v="Kvednåsbakken;Kvednhusbakkjen" />
		<tag k="name" v="Kvednåsbakkjen" />
		<tag k="natural" v="hill" />
		<tag k="place" v="locality" />
		<tag k="ssr:stedsnr" v="887955" />
	</node>
	<node id="-363780" lat="58.4874666704" lon="7.51226388693">
		<tag k="name" v="Hyggedalen" />
		<tag k="natural" v="valley" />
		<tag k="place" v="locality" />
		<tag k="ssr:stedsnr" v="887405" />
	</node>
	<node id="-363778" lat="58.391486111" lon="7.43945832548">
		<tag k="name" v="Prestefallan" />
		<tag k="natural" v="slope" />
		<tag k="place" v="locality" />
		<tag k="ssr:stedsnr" v="279250" />
	</node>
	<node id="-363776" lat="58.497924996" lon="7.46468333888">
		<tag k="name" v="Mørkedalen" />
		<tag k="natural" v="valley" />
		<tag k="place" v="locality" />
		<tag k="ssr:stedsnr" v="279227" />
	</node>
	<node id="-363774" lat="58.3509388869" lon="7.32513888667">
		<tag k="name" v="Brattevodden" />
		<tag k="natural" v="slope" />
		<tag k="place" v="locality" />
		<tag k="ssr:stedsnr" v="279217" />
	</node>
	<node id="-363772" lat="58.5095416635" lon="7.37641666837">
		<tag k="name" v="Hammerslettan" />
		<tag k="natural" v="slope" />
		<tag k="place" v="locality" />
		<tag k="ssr:stedsnr" v="279206" />
	</node>
	<node id="-363771" lat="58.4408361091" lon="7.45638333078">
		<tag k="name" v="Sneiseheia" />
		<tag k="natural" v="hill" />
		<tag k="place" v="locality" />
		<tag k="ssr:stedsnr" v="887345" />
	</node>
	<node id="-363770" lat="58.4699638899" lon="7.39338888751">
		<tag k="fixme" v="consider natural=peak for the most distinct mountains in the district" />
		<tag k="name" v="Gaupeknodden" />
		<tag k="natural" v="hill" />
		<tag k="place" v="locality" />
		<tag k="ssr:stedsnr" v="887130" />
	</node>
	<node id="-363766" lat="58.4350277816" lon="7.31633889546">
		<tag k="name" v="Stean" />
		<tag k="place" v="locality" />
		<tag k="ssr:stedsnr" v="887104" />
	</node>
	<node id="-363764" lat="58.4259638897" lon="7.48720832932">
		<tag k="fixme" v="consider natural=peak for the most distinct mountains in the district" />
		<tag k="name" v="Lærfjellet" />
		<tag k="natural" v="hill" />
		<tag k="place" v="locality" />
		<tag k="ssr:stedsnr" v="887085" />
	</node>
	<node id="-363760" lat="58.373408333" lon="7.38927223022">
		<tag k="name" v="Storeskot" />
		<tag k="natural" v="cliff" />
		<tag k="ssr:stedsnr" v="887019" />
	</node>
	<node id="-363389" lat="58.451991664" lon="7.4088999983">
		<tag k="name" v="Rateknuten" />
		<tag k="natural" v="hill" />
		<tag k="place" v="locality" />
		<tag k="ssr:stedsnr" v="401119" />
	</node>
	<node id="-363753" lat="58.2945583334" lon="7.37193054988">
		<tag k="name" v="Liknuten" />
		<tag k="natural" v="hill" />
		<tag k="place" v="locality" />
		<tag k="ssr:stedsnr" v="886916" />
	</node>
	<node id="-363751" lat="58.286249997" lon="7.34934166479">
		<tag k="name" v="Sletebakken" />
		<tag k="natural" v="hill" />
		<tag k="place" v="locality" />
		<tag k="ssr:stedsnr" v="886907" />
	</node>
	<node id="-363746" lat="58.2660083363" lon="7.36239165853">
		<tag k="fixme" v="consider natural=peak for the most distinct mountains in the district" />
		<tag k="name" v="Vindåsen" />
		<tag k="natural" v="hill" />
		<tag k="place" v="locality" />
		<tag k="ssr:stedsnr" v="886845" />
	</node>
	<node id="-363744" lat="58.2722972241" lon="7.30305832489">
		<tag k="name" v="Skår" />
		<tag k="natural" v="hill" />
		<tag k="place" v="locality" />
		<tag k="ssr:stedsnr" v="886836" />
	</node>
	<node id="-363743" lat="58.2656416629" lon="7.34578889351">
		<tag k="name" v="Husefjell" />
		<tag k="natural" v="hill" />
		<tag k="place" v="locality" />
		<tag k="ssr:stedsnr" v="886824" />
	</node>
	<node id="-363047" lat="58.282016671" lon="7.38798888972">
		<tag k="loc_name" v="Ormebrokkå" />
		<tag k="name" v="Ormebrokka" />
		<tag k="natural" v="slope" />
		<tag k="place" v="locality" />
		<tag k="ssr:stedsnr" v="340293" />
	</node>
	<node id="-363741" lat="58.3613055592" lon="7.33156111488">
		<tag k="fixme" v="consider natural=peak for the most distinct mountains in the district" />
		<tag k="name" v="Åsan" />
		<tag k="natural" v="hill" />
		<tag k="place" v="locality" />
		<tag k="ssr:stedsnr" v="886323" />
	</node>
	<node id="-363740" lat="58.389805559" lon="7.32930555657">
		<tag k="name" v="Nordbråtan" />
		<tag k="natural" v="slope" />
		<tag k="place" v="locality" />
		<tag k="ssr:stedsnr" v="886321" />
	</node>
	<node id="-363739" lat="58.397105559" lon="7.32402222461">
		<tag k="name" v="Stigbårhei" />
		<tag k="natural" v="hill" />
		<tag k="place" v="locality" />
		<tag k="ssr:stedsnr" v="886312" />
	</node>
	<node id="-363738" lat="58.3699111078" lon="7.30809444605">
		<tag k="name" v="Kolsli" />
		<tag k="natural" v="slope" />
		<tag k="place" v="locality" />
		<tag k="ssr:stedsnr" v="886307" />
	</node>
	<node id="-363735" lat="58.2836583378" lon="7.3299166618">
		<tag k="loc_name" v="Egebøåsen" />
		<tag k="name" v="Åsen" />
		<tag k="natural" v="hill" />
		<tag k="place" v="locality" />
		<tag k="ssr:stedsnr" v="886299" />
	</node>
	<node id="-363734" lat="58.2713611113" lon="7.30818056193">
		<tag k="name" v="Torvehei" />
		<tag k="natural" v="hill" />
		<tag k="place" v="locality" />
		<tag k="ssr:stedsnr" v="886297" />
	</node>
	<node id="-363733" lat="58.2818249957" lon="7.32562500571">
		<tag k="name" v="Eigebrokka" />
		<tag k="natural" v="slope" />
		<tag k="place" v="locality" />
		<tag k="ssr:stedsnr" v="886298" />
	</node>
	<node id="-363731" lat="58.2767694411" lon="7.3212249994">
		<tag k="name" v="Furåsen" />
		<tag k="natural" v="hill" />
		<tag k="place" v="locality" />
		<tag k="ssr:stedsnr" v="886295" />
	</node>
	<node id="-363730" lat="58.2659722213" lon="7.39188610847">
		<tag k="name" v="Leigefjellan" />
		<tag k="natural" v="hill" />
		<tag k="place" v="locality" />
		<tag k="ssr:stedsnr" v="886277" />
	</node>
	<node id="-363729" lat="58.2605333294" lon="7.35943056389">
		<tag k="name" v="Tormestihei" />
		<tag k="natural" v="hill" />
		<tag k="place" v="locality" />
		<tag k="ssr:stedsnr" v="886275" />
	</node>
	<node id="-363728" lat="58.2678138861" lon="7.41158055226">
		<tag k="loc_name" v="Åsen" />
		<tag k="name" v="Åsan" />
		<tag k="natural" v="hill" />
		<tag k="place" v="locality" />
		<tag k="ssr:stedsnr" v="886268" />
	</node>
	<node id="-363727" lat="58.2712388845" lon="7.40857221694">
		<tag k="loc_name" v="Asjershei" />
		<tag k="name" v="Åsjørshei" />
		<tag k="natural" v="hill" />
		<tag k="place" v="locality" />
		<tag k="ssr:stedsnr" v="886264" />
	</node>
	<node id="-363726" lat="58.2334694418" lon="7.37265833115">
		<tag k="name" v="Storheia" />
		<tag k="natural" v="hill" />
		<tag k="place" v="locality" />
		<tag k="ssr:stedsnr" v="886262" />
	</node>
	<node id="-363725" lat="58.2581249983" lon="7.34030277618">
		<tag k="name" v="Åmlid" />
		<tag k="natural" v="slope" />
		<tag k="place" v="locality" />
		<tag k="ssr:stedsnr" v="886255" />
	</node>
	<node id="-363724" lat="58.2702999973" lon="7.37567777972">
		<tag k="name" v="Skaren" />
		<tag k="natural" v="slope" />
		<tag k="place" v="locality" />
		<tag k="ssr:stedsnr" v="886243" />
	</node>
	<node id="-363723" lat="58.3878638858" lon="7.42228888131">
		<tag k="fixme" v="consider natural=peak for the most distinct mountains in the district" />
		<tag k="name" v="Nilsesfjellet" />
		<tag k="natural" v="hill" />
		<tag k="place" v="locality" />
		<tag k="ssr:stedsnr" v="886238" />
	</node>
	<node id="-363720" lat="58.505708332" lon="7.37513889121">
		<tag k="name" v="Osabakken" />
		<tag k="natural" v="slope" />
		<tag k="place" v="locality" />
		<tag k="ssr:stedsnr" v="886184" />
	</node>
	<node id="-363717" lat="58.4974694435" lon="7.51884166317">
		<tag k="fixme" v="consider natural=peak for the most distinct mountains in the district" />
		<tag k="name" v="Grasåsen" />
		<tag k="natural" v="hill" />
		<tag k="place" v="locality" />
		<tag k="ssr:stedsnr" v="886169" />
	</node>
	<node id="-363716" lat="58.4911472218" lon="7.45856944184">
		<tag k="name" v="Kjørkjeskaret" />
		<tag k="natural" v="valley" />
		<tag k="place" v="locality" />
		<tag k="ssr:stedsnr" v="886167" />
	</node>
	<node id="-363714" lat="58.4848805535" lon="7.39031111017">
		<tag k="name" v="Krossgilet" />
		<tag k="natural" v="valley" />
		<tag k="place" v="locality" />
		<tag k="ssr:stedsnr" v="886148" />
	</node>
	<node id="-363712" lat="58.4542888859" lon="7.39357500506">
		<tag k="loc_name" v="Blikæfjeddæ" />
		<tag k="name" v="Blikefjellet" />
		<tag k="natural" v="hill" />
		<tag k="place" v="locality" />
		<tag k="ssr:stedsnr" v="886133" />
	</node>
	<node id="-363711" lat="58.4889416703" lon="7.38743333768">
		<tag k="name" v="Sandbrotet" />
		<tag k="natural" v="slope" />
		<tag k="place" v="locality" />
		<tag k="ssr:stedsnr" v="886130" />
	</node>
	<node id="-363709" lat="58.458472224" lon="7.36606389314">
		<tag k="name" v="Gydalsknudan" />
		<tag k="natural" v="hill" />
		<tag k="place" v="locality" />
		<tag k="ssr:stedsnr" v="886123" />
	</node>
	<node id="-363708" lat="58.4577833363" lon="7.43993610746">
		<tag k="fixme" v="consider natural=peak for the most distinct mountains in the district" />
		<tag k="name" v="Lyngknuten" />
		<tag k="natural" v="hill" />
		<tag k="place" v="locality" />
		<tag k="ssr:stedsnr" v="886116" />
	</node>
	<node id="-363707" lat="58.4574305524" lon="7.45796667125">
		<tag k="name" v="Gråtarhei" />
		<tag k="natural" v="hill" />
		<tag k="place" v="locality" />
		<tag k="ssr:stedsnr" v="886111" />
	</node>
	<node id="-363706" lat="58.4595444421" lon="7.41151667099">
		<tag k="name" v="Maldalen" />
		<tag k="natural" v="valley" />
		<tag k="place" v="locality" />
		<tag k="ssr:stedsnr" v="886108" />
	</node>
	<node id="-363380" lat="58.4157916656" lon="7.38093610457">
		<tag k="fixme" v="consider natural=peak for the most distinct mountains in the district" />
		<tag k="name" v="Byråsen" />
		<tag k="natural" v="hill" />
		<tag k="place" v="locality" />
		<tag k="ssr:stedsnr" v="401064" />
	</node>
	<node id="-363038" lat="58.268855553" lon="7.38057499279">
		<tag k="fixme" v="consider natural=peak for the most distinct mountains in the district" />
		<tag k="name" v="Høgebakk" />
		<tag k="natural" v="hill" />
		<tag k="place" v="locality" />
		<tag k="ssr:stedsnr" v="340259" />
	</node>
	<node id="-363379" lat="58.3990472266" lon="7.32860000249">
		<tag k="fixme" v="consider natural=peak for the most distinct mountains in the district" />
		<tag k="name" v="Kjålmen" />
		<tag k="natural" v="hill" />
		<tag k="place" v="locality" />
		<tag k="ssr:stedsnr" v="401028" />
	</node>
	<node id="-363375" lat="58.3348777786" lon="7.38410833628">
		<tag k="name" v="Fureknuten" />
		<tag k="natural" v="ridge" />
		<tag k="place" v="locality" />
		<tag k="ssr:stedsnr" v="400994" />
	</node>
	<node id="-363374" lat="58.3379250009" lon="7.40894722584">
		<tag k="name" v="Raunlia" />
		<tag k="natural" v="slope" />
		<tag k="place" v="locality" />
		<tag k="ssr:stedsnr" v="400992" />
	</node>
	<node id="-363372" lat="58.2989861134" lon="7.32580833528">
		<tag k="loc_name" v="Stakkheiå" />
		<tag k="name" v="Stakkheia" />
		<tag k="natural" v="hill" />
		<tag k="place" v="locality" />
		<tag k="ssr:stedsnr" v="400903" />
	</node>
	<node id="-363044" lat="58.2539277822" lon="7.3684277753">
		<tag k="name" v="Djupedalen" />
		<tag k="natural" v="valley" />
		<tag k="place" v="locality" />
		<tag k="ssr:stedsnr" v="340280" />
	</node>
	<node id="-363371" lat="58.2989416624" lon="7.30549721578">
		<tag k="fixme" v="consider natural=peak for the most distinct mountains in the district" />
		<tag k="name" v="Kalvåsen" />
		<tag k="natural" v="hill" />
		<tag k="place" v="locality" />
		<tag k="ssr:stedsnr" v="400900" />
	</node>
	<node id="-367733" lat="58.3368555579" lon="7.39478889245">
		<tag k="fixme" v="consider natural=peak for the most distinct mountains in the district" />
		<tag k="name" v="Tinnan" />
		<tag k="natural" v="hill" />
		<tag k="place" v="locality" />
		<tag k="ssr:stedsnr" v="947990" />
	</node>
	<node id="-367731" lat="58.3357583347" lon="7.35065555405">
		<tag k="name" v="Varden" />
		<tag k="natural" v="ridge" />
		<tag k="place" v="locality" />
		<tag k="ssr:stedsnr" v="947978" />
	</node>
	<node id="-367730" lat="58.3227750035" lon="7.38414167482">
		<tag k="name" v="Saustea" />
		<tag k="place" v="locality" />
		<tag k="ssr:stedsnr" v="947974" />
	</node>
	<node id="-367729" lat="58.3214333308" lon="7.40558055396">
		<tag k="name" v="Rustan" />
		<tag k="natural" v="hill" />
		<tag k="place" v="locality" />
		<tag k="ssr:stedsnr" v="947972" />
	</node>
	<node id="-367722" lat="58.3160361127" lon="7.39137778409">
		<tag k="name" v="Mollbrotet" />
		<tag k="natural" v="slope" />
		<tag k="place" v="locality" />
		<tag k="ssr:stedsnr" v="947907" />
	</node>
	<node id="-367721" lat="58.3140750015" lon="7.35710555226">
		<tag k="name" v="Hyljeskotet" />
		<tag k="natural" v="valley" />
		<tag k="place" v="locality" />
		<tag k="ssr:stedsnr" v="947904" />
	</node>
	<node id="-367720" lat="58.3148166633" lon="7.35430555934">
		<tag k="name" v="Hyljeflaten" />
		<tag k="natural" v="hill" />
		<tag k="place" v="locality" />
		<tag k="ssr:stedsnr" v="947903" />
	</node>
	<node id="-367719" lat="58.304577778" lon="7.35390278113">
		<tag k="name" v="Brendahei" />
		<tag k="natural" v="hill" />
		<tag k="place" v="locality" />
		<tag k="ssr:stedsnr" v="947897" />
	</node>
	<node id="-367718" lat="58.2986888891" lon="7.32240554891">
		<tag k="name" v="Bjendalen" />
		<tag k="natural" v="valley" />
		<tag k="place" v="locality" />
		<tag k="ssr:stedsnr" v="947888" />
	</node>
	<node id="-367715" lat="58.3313444485" lon="7.34445278026">
		<tag k="name" v="Blomsterbakken" />
		<tag k="natural" v="slope" />
		<tag k="place" v="locality" />
		<tag k="ssr:stedsnr" v="947876" />
	</node>
	<node id="-367713" lat="58.2794083294" lon="7.42511943825">
		<tag k="loc_name" v="Skarstadheiå" />
		<tag k="name" v="Skardstadhei" />
		<tag k="natural" v="hill" />
		<tag k="place" v="locality" />
		<tag k="ssr:stedsnr" v="947851" />
	</node>
	<node id="-367711" lat="58.2464555584" lon="7.28213611808">
		<tag k="name" v="Haugedalen" />
		<tag k="natural" v="valley" />
		<tag k="place" v="locality" />
		<tag k="ssr:stedsnr" v="947835" />
	</node>
	<node id="-367707" lat="58.2725583373" lon="7.32990555408">
		<tag k="loc_name" v="Kvinnshheiå" />
		<tag k="name" v="Kvineshei" />
		<tag k="natural" v="hill" />
		<tag k="place" v="locality" />
		<tag k="ssr:stedsnr" v="947822" />
	</node>
	<node id="-367705" lat="58.2828277757" lon="7.4118333389">
		<tag k="fixme" v="consider natural=peak for the most distinct mountains in the district" />
		<tag k="loc_name" v="Jeidehheiå" />
		<tag k="name" v="Geithei" />
		<tag k="natural" v="hill" />
		<tag k="place" v="locality" />
		<tag k="ssr:stedsnr" v="947760" />
	</node>
	<node id="-367702" lat="58.3735499985" lon="7.39617221988">
		<tag k="name" v="Storlibakken" />
		<tag k="natural" v="slope" />
		<tag k="place" v="locality" />
		<tag k="ssr:stedsnr" v="947397" />
	</node>
	<node id="-367701" lat="58.4322472209" lon="7.47306111224">
		<tag k="name" v="Brondalen" />
		<tag k="natural" v="valley" />
		<tag k="place" v="locality" />
		<tag k="ssr:stedsnr" v="947358" />
	</node>
	<node id="-367700" lat="58.4744138906" lon="7.38817222686">
		<tag k="loc_name" v="Liheia" />
		<tag k="name" v="Mjunehei" />
		<tag k="natural" v="hill" />
		<tag k="place" v="locality" />
		<tag k="ssr:stedsnr" v="947356" />
	</node>
	<node id="-367698" lat="58.3805749958" lon="7.3884527756">
		<tag k="name" v="Uførsdalen" />
		<tag k="natural" v="valley" />
		<tag k="place" v="locality" />
		<tag k="ssr:stedsnr" v="947335" />
	</node>
	<node id="-367697" lat="58.3871416694" lon="7.37541111214">
		<tag k="name" v="Rolandsheia" />
		<tag k="natural" v="hill" />
		<tag k="place" v="locality" />
		<tag k="ssr:stedsnr" v="947330" />
	</node>
	<node id="-367696" lat="58.4179500017" lon="7.34209999168">
		<tag k="name" v="Pråmedalen" />
		<tag k="natural" v="valley" />
		<tag k="place" v="locality" />
		<tag k="ssr:stedsnr" v="947327" />
	</node>
	<node id="-367695" lat="58.3671583298" lon="7.32911110566">
		<tag k="name" v="Nerslåtdalen" />
		<tag k="natural" v="valley" />
		<tag k="place" v="locality" />
		<tag k="ssr:stedsnr" v="947325" />
	</node>
	<node id="-367693" lat="58.2726111104" lon="7.33948334024">
		<tag k="name" v="Storåsen" />
		<tag k="natural" v="hill" />
		<tag k="place" v="locality" />
		<tag k="ssr:stedsnr" v="947308" />
	</node>
	<node id="-367692" lat="58.3082027769" lon="7.36913333014">
		<tag k="name" v="Breilia" />
		<tag k="natural" v="slope" />
		<tag k="place" v="locality" />
		<tag k="ssr:stedsnr" v="947292" />
	</node>
	<node id="-367691" lat="58.3047222221" lon="7.39229445198">
		<tag k="name" v="Fureheia" />
		<tag k="natural" v="hill" />
		<tag k="place" v="locality" />
		<tag k="ssr:stedsnr" v="947286" />
	</node>
	<node id="-367689" lat="58.290788893" lon="7.36758888248">
		<tag k="name" v="Hesteheia" />
		<tag k="natural" v="hill" />
		<tag k="place" v="locality" />
		<tag k="ssr:stedsnr" v="947281" />
	</node>
	<node id="-367688" lat="58.2647611084" lon="7.31862221728">
		<tag k="name" v="Solhei" />
		<tag k="natural" v="hill" />
		<tag k="place" v="locality" />
		<tag k="ssr:stedsnr" v="947257" />
	</node>
	<node id="-367687" lat="58.258191665" lon="7.30411945103">
		<tag k="name" v="Hagefjellet" />
		<tag k="natural" v="hill" />
		<tag k="place" v="locality" />
		<tag k="ssr:stedsnr" v="947255" />
	</node>
	<node id="-367686" lat="58.2393444442" lon="7.27191944353">
		<tag k="name" v="Tangefjellan" />
		<tag k="natural" v="hill" />
		<tag k="place" v="locality" />
		<tag k="ssr:stedsnr" v="947253" />
	</node>
	<node id="-367685" lat="58.3447638874" lon="7.33977222021">
		<tag k="loc_name" v="Troddebakken" />
		<tag k="name" v="Troddebakkjen" />
		<tag k="natural" v="hill" />
		<tag k="place" v="locality" />
		<tag k="ssr:stedsnr" v="947232" />
	</node>
	<node id="-367684" lat="58.349949998" lon="7.42364443861">
		<tag k="name" v="Høgebakk" />
		<tag k="natural" v="hill" />
		<tag k="place" v="locality" />
		<tag k="ssr:stedsnr" v="947228" />
	</node>
	<node id="-367683" lat="58.3674694408" lon="7.4014500064">
		<tag k="fixme" v="consider natural=peak for the most distinct mountains in the district" />
		<tag k="name" v="Lemåsen" />
		<tag k="natural" v="hill" />
		<tag k="place" v="locality" />
		<tag k="ssr:stedsnr" v="947224" />
	</node>
	<node id="-367682" lat="58.5026861136" lon="7.49814444629">
		<tag k="name" v="Bjørndalskleivan" />
		<tag k="natural" v="slope" />
		<tag k="place" v="locality" />
		<tag k="ssr:stedsnr" v="947220" />
	</node>
	<node id="-367680" lat="58.4978833298" lon="7.38706111793">
		<tag k="loc_name" v="Tarakstad" />
		<tag k="name" v="Taraldstad" />
		<tag k="natural" v="slope" />
		<tag k="place" v="locality" />
		<tag k="ssr:stedsnr" v="947199" />
	</node>
	<node id="-367678" lat="58.4835111078" lon="7.51678610538">
		<tag k="name" v="Skåredalen" />
		<tag k="natural" v="valley" />
		<tag k="place" v="locality" />
		<tag k="ssr:stedsnr" v="947172" />
	</node>
	<node id="-367676" lat="58.4914694487" lon="7.39938332964">
		<tag k="name" v="Vindhei" />
		<tag k="natural" v="hill" />
		<tag k="place" v="locality" />
		<tag k="ssr:stedsnr" v="947161" />
	</node>
	<node id="-367673" lat="58.4255055562" lon="7.48049444121">
		<tag k="name" v="Kjellerheia" />
		<tag k="natural" v="hill" />
		<tag k="place" v="locality" />
		<tag k="ssr:stedsnr" v="947085" />
	</node>
	<node id="-367672" lat="58.4266916665" lon="7.42904721958">
		<tag k="name" v="Bjalkedalen" />
		<tag k="natural" v="valley" />
		<tag k="place" v="locality" />
		<tag k="ssr:stedsnr" v="947082" />
	</node>
	<node id="-367671" lat="58.4112194465" lon="7.35689166619">
		<tag k="name" v="Moldskotet" />
		<tag k="natural" v="valley" />
		<tag k="place" v="locality" />
		<tag k="ssr:stedsnr" v="947077" />
	</node>
	<node id="-367670" lat="58.4284138933" lon="7.38648055704">
		<tag k="loc_name" v="Løheiæ" />
		<tag k="name" v="Studeheia" />
		<tag k="natural" v="hill" />
		<tag k="place" v="locality" />
		<tag k="ssr:stedsnr" v="947065" />
	</node>
	<node id="-367669" lat="58.4293444414" lon="7.38157500277">
		<tag k="loc_name" v="Botnækronstøæ" />
		<tag k="name" v="Botnekron" />
		<tag k="natural" v="valley" />
		<tag k="place" v="locality" />
		<tag k="ssr:stedsnr" v="947064" />
	</node>
	<node id="-367668" lat="58.4285305566" lon="7.36479166056">
		<tag k="fixme" v="consider natural=peak for the most distinct mountains in the district" />
		<tag k="name" v="Sletåsen" />
		<tag k="natural" v="hill" />
		<tag k="place" v="locality" />
		<tag k="ssr:stedsnr" v="947062" />
	</node>
	<node id="-367661" lat="58.4669083336" lon="7.3699305537">
		<tag k="name" v="Varan" />
		<tag k="natural" v="slope" />
		<tag k="place" v="locality" />
		<tag k="ssr:stedsnr" v="946112" />
	</node>
	<node id="-367660" lat="58.4619361086" lon="7.41073333394">
		<tag k="loc_name" v="Ålmedalen" />
		<tag k="name" v="Almedalen" />
		<tag k="natural" v="valley" />
		<tag k="place" v="locality" />
		<tag k="ssr:stedsnr" v="946107" />
	</node>
	<node id="-367657" lat="58.4481277752" lon="7.46502778528">
		<tag k="alt_name" v="Kolefjellet" />
		<tag k="fixme" v="consider natural=peak for the most distinct mountains in the district" />
		<tag k="name" v="Kolefjell" />
		<tag k="natural" v="hill" />
		<tag k="place" v="locality" />
		<tag k="ssr:stedsnr" v="910924" />
	</node>
	<node id="-367651" lat="58.2650361152" lon="7.40583610489">
		<tag k="alt_name" v="Bustadhei" />
		<tag k="loc_name" v="Bustaheia" />
		<tag k="name" v="Bustadheia" />
		<tag k="natural" v="hill" />
		<tag k="place" v="locality" />
		<tag k="ssr:stedsnr" v="910833" />
	</node>
	<node id="-367650" lat="58.261299999" lon="7.39143056398">
		<tag k="alt_name" v="Svednahei" />
		<tag k="loc_name" v="Svednaheiå" />
		<tag k="name" v="Svedneheia" />
		<tag k="natural" v="hill" />
		<tag k="place" v="locality" />
		<tag k="ssr:stedsnr" v="910832" />
	</node>
	<node id="-367646" lat="58.3365500021" lon="7.30516388227">
		<tag k="loc_name" v="Høgahei" />
		<tag k="name" v="Høgehei" />
		<tag k="natural" v="hill" />
		<tag k="place" v="locality" />
		<tag k="ssr:stedsnr" v="910572" />
	</node>
	<node id="-365588" lat="58.3311888862" lon="7.30528055614">
		<tag k="name" v="Kalvehagen" />
		<tag k="natural" v="valley" />
		<tag k="place" v="locality" />
		<tag k="ssr:stedsnr" v="522984" />
	</node>
	<node id="-365587" lat="58.3339722252" lon="7.39818334171">
		<tag k="name" v="Brattebrokka" />
		<tag k="natural" v="slope" />
		<tag k="place" v="locality" />
		<tag k="ssr:stedsnr" v="522981" />
	</node>
	<node id="-365586" lat="58.3298444421" lon="7.3810749916">
		<tag k="name" v="Skulebrotskotet" />
		<tag k="natural" v="valley" />
		<tag k="place" v="locality" />
		<tag k="ssr:stedsnr" v="522976" />
	</node>
	<node id="-365585" lat="58.3260777814" lon="7.36815832905">
		<tag k="name" v="Øydneskleiva" />
		<tag k="natural" v="slope" />
		<tag k="place" v="locality" />
		<tag k="ssr:stedsnr" v="522975" />
	</node>
	<node id="-365584" lat="58.3300944411" lon="7.37063889201">
		<tag k="fixme" v="consider natural=peak for the most distinct mountains in the district" />
		<tag k="name" v="Vassvikåsen" />
		<tag k="natural" v="hill" />
		<tag k="place" v="locality" />
		<tag k="ssr:stedsnr" v="522973" />
	</node>
	<node id="-365580" lat="58.284863893" lon="7.28386944057">
		<tag k="name" v="Brebakken" />
		<tag k="natural" v="slope" />
		<tag k="place" v="locality" />
		<tag k="ssr:stedsnr" v="522928" />
	</node>
	<node id="-365579" lat="58.2863472189" lon="7.32409166473">
		<tag k="fixme" v="consider natural=peak for the most distinct mountains in the district" />
		<tag k="name" v="Knoddebakken" />
		<tag k="natural" v="hill" />
		<tag k="place" v="locality" />
		<tag k="ssr:stedsnr" v="522923" />
	</node>
	<node id="-365578" lat="58.2840944421" lon="7.29753055757">
		<tag k="name" v="Botnedalsbakken" />
		<tag k="natural" v="ridge" />
		<tag k="place" v="locality" />
		<tag k="ssr:stedsnr" v="522918" />
	</node>
	<node id="-365577" lat="58.2914833299" lon="7.34685277766">
		<tag k="name" v="Kjedderdalen" />
		<tag k="natural" v="valley" />
		<tag k="place" v="locality" />
		<tag k="ssr:stedsnr" v="522914" />
	</node>
	<node id="-365573" lat="58.3004638909" lon="7.26765832701">
		<tag k="name" v="Ribbakkan" />
		<tag k="natural" v="slope" />
		<tag k="place" v="locality" />
		<tag k="ssr:stedsnr" v="522873" />
	</node>
	<node id="-365570" lat="58.24889444" lon="7.38834443745">
		<tag k="name" v="Røyrbakken" />
		<tag k="natural" v="hill" />
		<tag k="place" v="locality" />
		<tag k="ssr:stedsnr" v="522847" />
	</node>
	<node id="-365568" lat="58.2483472242" lon="7.28378055097">
		<tag k="name" v="Løpsebakken" />
		<tag k="natural" v="hill" />
		<tag k="place" v="locality" />
		<tag k="ssr:stedsnr" v="522813" />
	</node>
	<node id="-365563" lat="58.3320666702" lon="7.31979722618">
		<tag k="name" v="Stølsbrotet" />
		<tag k="natural" v="slope" />
		<tag k="place" v="locality" />
		<tag k="ssr:stedsnr" v="522769" />
	</node>
	<node id="-365560" lat="58.2601805581" lon="7.42433055707">
		<tag k="fixme" v="consider natural=peak for the most distinct mountains in the district" />
		<tag k="name" v="Styggåsen" />
		<tag k="natural" v="hill" />
		<tag k="place" v="locality" />
		<tag k="ssr:stedsnr" v="522756" />
	</node>
	<node id="-365559" lat="58.2702166709" lon="7.4042055609">
		<tag k="name" v="Furuhei" />
		<tag k="natural" v="hill" />
		<tag k="place" v="locality" />
		<tag k="ssr:stedsnr" v="522755" />
	</node>
	<node id="-365556" lat="58.3756194442" lon="7.40935834069">
		<tag k="fixme" v="consider natural=peak for the most distinct mountains in the district" />
		<tag k="name" v="Lyngflaten" />
		<tag k="natural" v="hill" />
		<tag k="place" v="locality" />
		<tag k="ssr:stedsnr" v="522397" />
	</node>
	<node id="-365554" lat="58.4884083342" lon="7.51315000712">
		<tag k="name" v="Skjelvedalen" />
		<tag k="natural" v="valley" />
		<tag k="place" v="locality" />
		<tag k="ssr:stedsnr" v="522387" />
	</node>
	<node id="-365553" lat="58.3972500021" lon="7.44217778095">
		<tag k="name" v="Grashomman" />
		<tag k="natural" v="slope" />
		<tag k="place" v="locality" />
		<tag k="ssr:stedsnr" v="522381" />
	</node>
	<node id="-365552" lat="58.4218583317" lon="7.4225194413">
		<tag k="name" v="Varpehei" />
		<tag k="natural" v="hill" />
		<tag k="place" v="locality" />
		<tag k="ssr:stedsnr" v="522368" />
	</node>
	<node id="-365550" lat="58.417538893" lon="7.39541388126">
		<tag k="name" v="Haugan" />
		<tag k="natural" v="hill" />
		<tag k="place" v="locality" />
		<tag k="ssr:stedsnr" v="522357" />
	</node>
	<node id="-365549" lat="58.4627777759" lon="7.445180555">
		<tag k="name" v="Bognevatnlian" />
		<tag k="natural" v="slope" />
		<tag k="place" v="locality" />
		<tag k="ssr:stedsnr" v="522344" />
	</node>
	<node id="-365548" lat="58.4372944406" lon="7.46544999829">
		<tag k="name" v="Mellomdalen" />
		<tag k="natural" v="valley" />
		<tag k="place" v="locality" />
		<tag k="ssr:stedsnr" v="522340" />
	</node>
	<node id="-365547" lat="58.3783000031" lon="7.36556110501">
		<tag k="name" v="Brotan" />
		<tag k="natural" v="slope" />
		<tag k="place" v="locality" />
		<tag k="ssr:stedsnr" v="522338" />
	</node>
	<node id="-365546" lat="58.3760722264" lon="7.38576111153">
		<tag k="name" v="Stedjebakken" />
		<tag k="natural" v="slope" />
		<tag k="place" v="locality" />
		<tag k="ssr:stedsnr" v="522337" />
	</node>
	<node id="-365545" lat="58.374116666" lon="7.35527500227">
		<tag k="fixme" v="consider natural=peak for the most distinct mountains in the district" />
		<tag k="name" v="Kleppefjellan" />
		<tag k="natural" v="hill" />
		<tag k="place" v="locality" />
		<tag k="ssr:stedsnr" v="522334" />
	</node>
	<node id="-365544" lat="58.3714111092" lon="7.31144999441">
		<tag k="name" v="Kolsdalen" />
		<tag k="natural" v="valley" />
		<tag k="place" v="locality" />
		<tag k="ssr:stedsnr" v="522335" />
	</node>
	<node id="-365543" lat="58.3862027801" lon="7.37572777566">
		<tag k="name" v="Rolandsheia" />
		<tag k="natural" v="hill" />
		<tag k="place" v="locality" />
		<tag k="ssr:stedsnr" v="522325" />
	</node>
	<node id="-365542" lat="58.4301472227" lon="7.39108888188">
		<tag k="loc_name" v="Lokefjellsdalen" />
		<tag k="name" v="Logefjellsdalen" />
		<tag k="natural" v="valley" />
		<tag k="place" v="locality" />
		<tag k="ssr:stedsnr" v="522320" />
	</node>
	<node id="-365541" lat="58.4250944474" lon="7.38330556287">
		<tag k="loc_name" v="Brændahei" />
		<tag k="name" v="Brendahei" />
		<tag k="natural" v="hill" />
		<tag k="place" v="locality" />
		<tag k="ssr:stedsnr" v="522315" />
	</node>
	<node id="-365540" lat="58.3653083366" lon="7.34326388437">
		<tag k="fixme" v="consider natural=peak for the most distinct mountains in the district" />
		<tag k="name" v="Høylandsfjeddet" />
		<tag k="natural" v="hill" />
		<tag k="place" v="locality" />
		<tag k="ssr:stedsnr" v="522311" />
	</node>
	<node id="-365539" lat="58.3127805512" lon="7.3325777727">
		<tag k="name" v="Hellevannsdalen" />
		<tag k="natural" v="valley" />
		<tag k="place" v="locality" />
		<tag k="ssr:stedsnr" v="522290" />
	</node>
	<node id="-365537" lat="58.2590583364" lon="7.39061388914">
		<tag k="name" v="Støfjellan" />
		<tag k="natural" v="hill" />
		<tag k="place" v="locality" />
		<tag k="ssr:stedsnr" v="522283" />
	</node>
	<node id="-365535" lat="58.254005557" lon="7.31031111919">
		<tag k="loc_name" v="Kniben" />
		<tag k="name" v="Brastadhei" />
		<tag k="natural" v="hill" />
		<tag k="place" v="locality" />
		<tag k="ssr:stedsnr" v="522260" />
	</node>
	<node id="-365534" lat="58.2716555591" lon="7.39400832867">
		<tag k="name" v="Liåsen" />
		<tag k="natural" v="hill" />
		<tag k="place" v="locality" />
		<tag k="ssr:stedsnr" v="522258" />
	</node>
	<node id="-365533" lat="58.3884416634" lon="7.42735000855">
		<tag k="name" v="Knodden" />
		<tag k="natural" v="ridge" />
		<tag k="place" v="locality" />
		<tag k="ssr:stedsnr" v="522254" />
	</node>
	<node id="-365531" lat="58.3494388912" lon="7.32195834172">
		<tag k="name" v="Budalen" />
		<tag k="natural" v="valley" />
		<tag k="place" v="locality" />
		<tag k="ssr:stedsnr" v="522213" />
	</node>
	<node id="-367578" lat="58.4372111098" lon="7.37142222529">
		<tag k="fixme" v="consider natural=peak for the most distinct mountains in the district" />
		<tag k="name" v="Skarkedalsknuten" />
		<tag k="natural" v="hill" />
		<tag k="place" v="locality" />
		<tag k="ssr:stedsnr" v="900638" />
	</node>
	<node id="-365529" lat="58.4752888907" lon="7.41233333866">
		<tag k="fixme" v="consider natural=peak for the most distinct mountains in the district" />
		<tag k="name" v="Bruåsen" />
		<tag k="natural" v="hill" />
		<tag k="place" v="locality" />
		<tag k="ssr:stedsnr" v="522187" />
	</node>
	<node id="-365526" lat="58.4820499985" lon="7.46700278132">
		<tag k="fixme" v="consider natural=peak for the most distinct mountains in the district" />
		<tag k="name" v="Stønjursfjellet" />
		<tag k="natural" v="hill" />
		<tag k="place" v="locality" />
		<tag k="ssr:stedsnr" v="522178" />
	</node>
	<node id="-365525" lat="58.4893416635" lon="7.35620000616">
		<tag k="name" v="Juvasslia" />
		<tag k="natural" v="slope" />
		<tag k="place" v="locality" />
		<tag k="ssr:stedsnr" v="522171" />
	</node>
	<node id="-365524" lat="58.4891138915" lon="7.36582500433">
		<tag k="name" v="Kvevehei" />
		<tag k="natural" v="hill" />
		<tag k="place" v="locality" />
		<tag k="ssr:stedsnr" v="522168" />
	</node>
	<node id="-365523" lat="58.4816000017" lon="7.4203861157">
		<tag k="name" v="Våråsen" />
		<tag k="natural" v="hill" />
		<tag k="place" v="locality" />
		<tag k="ssr:stedsnr" v="522162" />
	</node>
	<node id="-365522" lat="58.490105557" lon="7.37529445254">
		<tag k="name" v="Raudarknodd" />
		<tag k="natural" v="hill" />
		<tag k="place" v="locality" />
		<tag k="ssr:stedsnr" v="522144" />
	</node>
	<node id="-365521" lat="58.4336361154" lon="7.46761667202">
		<tag k="name" v="Skaren" />
		<tag k="natural" v="slope" />
		<tag k="place" v="locality" />
		<tag k="ssr:stedsnr" v="522123" />
	</node>
	<node id="-365520" lat="58.4347055556" lon="7.42953054782">
		<tag k="name" v="Oluskleiv" />
		<tag k="natural" v="slope" />
		<tag k="place" v="locality" />
		<tag k="ssr:stedsnr" v="522124" />
	</node>
	<node id="-365519" lat="58.42308333" lon="7.48709444408">
		<tag k="name" v="Klyvæ" />
		<tag k="natural" v="slope" />
		<tag k="place" v="locality" />
		<tag k="ssr:stedsnr" v="522095" />
	</node>
	<node id="-365518" lat="58.4264277777" lon="7.44545000206">
		<tag k="name" v="Stedjan" />
		<tag k="place" v="locality" />
		<tag k="ssr:stedsnr" v="522090" />
	</node>
	<node id="-365516" lat="58.4251611093" lon="7.35899999389">
		<tag k="fixme" v="consider natural=peak for the most distinct mountains in the district" />
		<tag k="loc_name" v="Møddom Skotæ" />
		<tag k="name" v="Skotet" />
		<tag k="natural" v="hill" />
		<tag k="place" v="locality" />
		<tag k="ssr:stedsnr" v="522063" />
	</node>
	<node id="-365514" lat="58.3950527817" lon="7.3888972197">
		<tag k="name" v="Neseskotet" />
		<tag k="natural" v="valley" />
		<tag k="place" v="locality" />
		<tag k="ssr:stedsnr" v="522045" />
	</node>
	<node id="-365508" lat="58.4586111089" lon="7.38819444565">
		<tag k="fixme" v="consider natural=peak for the most distinct mountains in the district" />
		<tag k="name" v="Kasåsen" />
		<tag k="natural" v="hill" />
		<tag k="place" v="locality" />
		<tag k="ssr:stedsnr" v="521127" />
	</node>
	<node id="-365507" lat="58.4663638929" lon="7.409699997">
		<tag k="loc_name" v="Sætesdalen" />
		<tag k="name" v="Setesdalen" />
		<tag k="natural" v="valley" />
		<tag k="place" v="locality" />
		<tag k="ssr:stedsnr" v="521124" />
	</node>
	<node id="-365501" lat="58.4894666667" lon="7.39193888269">
		<tag k="alt_name" v="Vardehei" />
		<tag k="name" v="Solliheii" />
		<tag k="natural" v="hill" />
		<tag k="place" v="locality" />
		<tag k="ssr:stedsnr" v="485563" />
	</node>
	<node id="-365498" lat="58.4678500035" lon="7.36180833525">
		<tag k="alt_name" v="Breidlihei" />
		<tag k="name" v="Breidliheii" />
		<tag k="natural" v="hill" />
		<tag k="place" v="locality" />
		<tag k="ssr:stedsnr" v="485536" />
	</node>
	<node id="-365478" lat="58.3823972231" lon="7.36923889609">
		<tag k="name" v="Bladalan" />
		<tag k="natural" v="valley" />
		<tag k="place" v="locality" />
		<tag k="ssr:stedsnr" v="462955" />
	</node>
	<node id="-365476" lat="58.4921388846" lon="7.50076111189">
		<tag k="name" v="Tvørrdalen" />
		<tag k="natural" v="valley" />
		<tag k="place" v="locality" />
		<tag k="ssr:stedsnr" v="462386" />
	</node>
	<node id="-365475" lat="58.3883055523" lon="7.42499444302">
		<tag k="name" v="Bjalkedalen" />
		<tag k="natural" v="valley" />
		<tag k="place" v="locality" />
		<tag k="ssr:stedsnr" v="462380" />
	</node>
	<node id="-365474" lat="58.464838886" lon="7.46323611977">
		<tag k="name" v="Fossehei" />
		<tag k="natural" v="hill" />
		<tag k="place" v="locality" />
		<tag k="ssr:stedsnr" v="462336" />
	</node>
	<node id="-365473" lat="58.4358138855" lon="7.49089444373">
		<tag k="name" v="Åsen" />
		<tag k="natural" v="hill" />
		<tag k="place" v="locality" />
		<tag k="ssr:stedsnr" v="462321" />
	</node>
	<node id="-365469" lat="58.4118805561" lon="7.45119444626">
		<tag k="name" v="Stolknodden" />
		<tag k="natural" v="hill" />
		<tag k="place" v="locality" />
		<tag k="ssr:stedsnr" v="462091" />
	</node>
	<node id="-365468" lat="58.4415111081" lon="7.34472222871">
		<tag k="name" v="Høyskarknuten" />
		<tag k="natural" v="hill" />
		<tag k="place" v="locality" />
		<tag k="ssr:stedsnr" v="462088" />
	</node>
	<node id="-365466" lat="58.4235249959" lon="7.3769166674">
		<tag k="loc_name" v="Asåldalen" />
		<tag k="name" v="Aseldalen" />
		<tag k="natural" v="valley" />
		<tag k="place" v="locality" />
		<tag k="ssr:stedsnr" v="462059" />
	</node>
	<node id="-367513" lat="58.3079694462" lon="7.3493222219">
		<tag k="name" v="Helleheia" />
		<tag k="natural" v="hill" />
		<tag k="place" v="locality" />
		<tag k="ssr:stedsnr" v="850751" />
	</node>
	<node id="-365464" lat="58.3975555583" lon="7.39004166346">
		<tag k="loc_name" v="Heimra Svartingsskotet" />
		<tag k="name" v="Svartingsskotet" />
		<tag k="natural" v="hill" />
		<tag k="place" v="locality" />
		<tag k="ssr:stedsnr" v="462043" />
	</node>
	<node id="-367511" lat="58.3725138904" lon="7.33918611573">
		<tag k="alt_name" v="Øvre Solåsen" />
		<tag k="fixme" v="consider natural=peak for the most distinct mountains in the district" />
		<tag k="name" v="Stølsåsen" />
		<tag k="natural" v="hill" />
		<tag k="place" v="locality" />
		<tag k="ssr:stedsnr" v="850709" />
	</node>
	<node id="-365462" lat="58.3764638932" lon="7.34571943683">
		<tag k="name" v="Bjødneholå" />
		<tag k="natural" v="valley" />
		<tag k="place" v="locality" />
		<tag k="ssr:stedsnr" v="462016" />
	</node>
	<node id="-365461" lat="58.3775027771" lon="7.32707499533">
		<tag k="name" v="Stakkestengan" />
		<tag k="natural" v="hill" />
		<tag k="place" v="locality" />
		<tag k="ssr:stedsnr" v="462015" />
	</node>
	<node id="-365460" lat="58.3368166639" lon="7.40469166851">
		<tag k="name" v="Hestebeite" />
		<tag k="natural" v="slope" />
		<tag k="place" v="locality" />
		<tag k="ssr:stedsnr" v="461987" />
	</node>
	<node id="-365458" lat="58.3382611102" lon="7.42589167209">
		<tag k="fixme" v="consider natural=peak for the most distinct mountains in the district" />
		<tag k="name" v="Eikåsen" />
		<tag k="natural" v="hill" />
		<tag k="place" v="locality" />
		<tag k="ssr:stedsnr" v="461982" />
	</node>
	<node id="-365457" lat="58.3315083303" lon="7.35911111772">
		<tag k="name" v="Svartups" />
		<tag k="natural" v="cliff" />
		<tag k="ssr:stedsnr" v="461975" />
	</node>
	<node id="-365456" lat="58.3543111128" lon="7.39023332815">
		<tag k="loc_name" v="Stokkebrunå" />
		<tag k="name" v="Stokkebrua" />
		<tag k="place" v="locality" />
		<tag k="ssr:stedsnr" v="461959" />
	</node>
	<node id="-367503" lat="58.4539222181" lon="7.44473334189">
		<tag k="alt_name" v="Grøsåsen" />
		<tag k="fixme" v="consider natural=peak for the most distinct mountains in the district" />
		<tag k="name" v="Solfjell" />
		<tag k="natural" v="hill" />
		<tag k="place" v="locality" />
		<tag k="ssr:stedsnr" v="849909" />
	</node>
	<node id="-363406" lat="58.3634055541" lon="7.38463332725">
		<tag k="name" v="Skrymteopsa" />
		<tag k="natural" v="cliff" />
		<tag k="ssr:stedsnr" v="401953" />
	</node>
	<node id="-363405" lat="58.3753750042" lon="7.38246389617">
		<tag k="name" v="Skaret" />
		<tag k="natural" v="valley" />
		<tag k="place" v="locality" />
		<tag k="ssr:stedsnr" v="401933" />
	</node>
	<node id="-363404" lat="58.3322805522" lon="7.32711666121">
		<tag k="name" v="Husebakken" />
		<tag k="natural" v="hill" />
		<tag k="place" v="locality" />
		<tag k="ssr:stedsnr" v="401843" />
	</node>
	<node id="-365451" lat="58.2905555559" lon="7.2693694488">
		<tag k="name" v="Opselen" />
		<tag k="natural" v="slope" />
		<tag k="place" v="locality" />
		<tag k="ssr:stedsnr" v="461924" />
	</node>
	<node id="-363402" lat="58.3488555529" lon="7.38178332606">
		<tag k="fixme" v="consider natural=peak for the most distinct mountains in the district" />
		<tag k="name" v="Åsen" />
		<tag k="natural" v="hill" />
		<tag k="place" v="locality" />
		<tag k="ssr:stedsnr" v="401410" />
	</node>
	<node id="-365449" lat="58.2994222193" lon="7.36953888737">
		<tag k="name" v="Haredalen" />
		<tag k="natural" v="valley" />
		<tag k="place" v="locality" />
		<tag k="ssr:stedsnr" v="461899" />
	</node>
	<node id="-363400" lat="58.4412500014" lon="7.38055277396">
		<tag k="loc_name" v="Monæhei" />
		<tag k="name" v="Monehei" />
		<tag k="natural" v="hill" />
		<tag k="place" v="locality" />
		<tag k="ssr:stedsnr" v="401353" />
	</node>
	<node id="-365447" lat="58.2594277814" lon="7.28614166761">
		<tag k="loc_name" v="Sølvbergje" />
		<tag k="name" v="Sylvberget" />
		<tag k="place" v="locality" />
		<tag k="ssr:stedsnr" v="461846" />
	</node>
	<node id="-365446" lat="58.2523250001" lon="7.29324444579">
		<tag k="loc_name" v="Småslåten" />
		<tag k="name" v="Småslåtten" />
		<tag k="natural" v="slope" />
		<tag k="place" v="locality" />
		<tag k="ssr:stedsnr" v="461837" />
	</node>
	<node id="-365445" lat="58.2488500037" lon="7.26952777406">
		<tag k="name" v="Vardehei" />
		<tag k="natural" v="hill" />
		<tag k="place" v="locality" />
		<tag k="ssr:stedsnr" v="461831" />
	</node>
	<node id="-365444" lat="58.2755166687" lon="7.31413888571">
		<tag k="name" v="Støen" />
		<tag k="natural" v="slope" />
		<tag k="place" v="locality" />
		<tag k="ssr:stedsnr" v="461829" />
	</node>
	<node id="-365443" lat="58.2637416702" lon="7.32328611691">
		<tag k="name" v="Krågehei" />
		<tag k="natural" v="hill" />
		<tag k="place" v="locality" />
		<tag k="ssr:stedsnr" v="461817" />
	</node>
	<node id="-365442" lat="58.3219638874" lon="7.28993054895">
		<tag k="name" v="Eikelandsheiå" />
		<tag k="natural" v="hill" />
		<tag k="place" v="locality" />
		<tag k="ssr:stedsnr" v="461789" />
	</node>
	<node id="-363393" lat="58.4605583324" lon="7.46828333668">
		<tag k="name" v="Langelian" />
		<tag k="natural" v="slope" />
		<tag k="place" v="locality" />
		<tag k="ssr:stedsnr" v="401167" />
	</node>
	<node id="-363392" lat="58.472836113" lon="7.46400554972">
		<tag k="name" v="Fosshei" />
		<tag k="natural" v="hill" />
		<tag k="place" v="locality" />
		<tag k="ssr:stedsnr" v="401164" />
	</node>
	<node id="-363391" lat="58.4911472243" lon="7.36958889085">
		<tag k="name" v="Teigedalan" />
		<tag k="natural" v="valley" />
		<tag k="place" v="locality" />
		<tag k="ssr:stedsnr" v="401155" />
	</node>
	<node id="-363390" lat="58.468008336" lon="7.36606111405">
		<tag k="loc_name" v="Høgheiæ" />
		<tag k="name" v="Høghei" />
		<tag k="natural" v="hill" />
		<tag k="place" v="locality" />
		<tag k="ssr:stedsnr" v="401127" />
	</node>
	<node id="-365437" lat="58.2609055584" lon="7.40519721431">
		<tag k="name" v="Bådneflaten" />
		<tag k="natural" v="hill" />
		<tag k="place" v="locality" />
		<tag k="ssr:stedsnr" v="461766" />
	</node>
	<node id="-365435" lat="58.2711166642" lon="7.28896666506">
		<tag k="name" v="Homman" />
		<tag k="natural" v="slope" />
		<tag k="place" v="locality" />
		<tag k="ssr:stedsnr" v="461272" />
	</node>
	<node id="-363386" lat="58.4372833289" lon="7.36496389437">
		<tag k="name" v="Kjørkja" />
		<tag k="place" v="locality" />
		<tag k="ssr:stedsnr" v="401111" />
	</node>
	<node id="-363385" lat="58.4118833338" lon="7.46511944172">
		<tag k="name" v="Elgdalen" />
		<tag k="natural" v="valley" />
		<tag k="place" v="locality" />
		<tag k="ssr:stedsnr" v="401098" />
	</node>
	<node id="-363384" lat="58.4331444484" lon="7.48803611339">
		<tag k="name" v="Danefall" />
		<tag k="natural" v="slope" />
		<tag k="place" v="locality" />
		<tag k="ssr:stedsnr" v="401086" />
	</node>
	<node id="-363383" lat="58.432547219" lon="7.4925694454">
		<tag k="name" v="Trona" />
		<tag k="place" v="locality" />
		<tag k="ssr:stedsnr" v="401084" />
	</node>
	<node id="-363382" lat="58.4247861076" lon="7.45786945211">
		<tag k="name" v="Nylende" />
		<tag k="natural" v="hill" />
		<tag k="place" v="locality" />
		<tag k="ssr:stedsnr" v="401073" />
	</node>
	<node id="-365428" lat="58.4793722245" lon="7.37941110445">
		<tag k="fixme" v="consider natural=peak for the most distinct mountains in the district" />
		<tag k="name" v="Heståsen" />
		<tag k="natural" v="hill" />
		<tag k="place" v="locality" />
		<tag k="ssr:stedsnr" v="461188" />
	</node>
	<node id="-365427" lat="58.4771861153" lon="7.45483888529">
		<tag k="name" v="Vetingsdalen" />
		<tag k="natural" v="valley" />
		<tag k="place" v="locality" />
		<tag k="ssr:stedsnr" v="461183" />
	</node>
	<node id="-365426" lat="58.4802138851" lon="7.4967416584">
		<tag k="fixme" v="consider natural=peak for the most distinct mountains in the district" />
		<tag k="loc_name" v="Utskorna" />
		<tag k="name" v="Utskårna" />
		<tag k="natural" v="hill" />
		<tag k="place" v="locality" />
		<tag k="ssr:stedsnr" v="461180" />
	</node>
	<node id="-363377" lat="58.3747222201" lon="7.334830559">
		<tag k="name" v="Kittelsdalen" />
		<tag k="natural" v="valley" />
		<tag k="place" v="locality" />
		<tag k="ssr:stedsnr" v="401010" />
	</node>
	<node id="-363376" lat="58.3767916703" lon="7.3643083359">
		<tag k="name" v="Kreklingheia" />
		<tag k="natural" v="hill" />
		<tag k="place" v="locality" />
		<tag k="ssr:stedsnr" v="401002" />
	</node>
	<node id="-365423" lat="58.4802194437" lon="7.43266389393">
		<tag k="fixme" v="consider natural=peak for the most distinct mountains in the district" />
		<tag k="name" v="Grokleivåsen" />
		<tag k="natural" v="hill" />
		<tag k="place" v="locality" />
		<tag k="ssr:stedsnr" v="461158" />
	</node>
	<node id="-365422" lat="58.4224333379" lon="7.4444111142">
		<tag k="name" v="Renndalen" />
		<tag k="natural" v="valley" />
		<tag k="place" v="locality" />
		<tag k="ssr:stedsnr" v="461371" />
	</node>
	<node id="-365421" lat="58.4116194438" lon="7.37203888516">
		<tag k="fixme" v="consider natural=peak for the most distinct mountains in the district" />
		<tag k="name" v="Brubakken" />
		<tag k="natural" v="hill" />
		<tag k="place" v="locality" />
		<tag k="ssr:stedsnr" v="461360" />
	</node>
	<node id="-365420" lat="58.4156305575" lon="7.39117221966">
		<tag k="name" v="Bakkan" />
		<tag k="natural" v="slope" />
		<tag k="place" v="locality" />
		<tag k="ssr:stedsnr" v="461361" />
	</node>
	<node id="-365419" lat="58.400827776" lon="7.3365500026">
		<tag k="name" v="Jåkjerrhei" />
		<tag k="natural" v="hill" />
		<tag k="place" v="locality" />
		<tag k="ssr:stedsnr" v="461319" />
	</node>
	<node id="-365417" lat="58.2892444479" lon="7.31726944414">
		<tag k="name" v="Kovan" />
		<tag k="natural" v="valley" />
		<tag k="place" v="locality" />
		<tag k="ssr:stedsnr" v="461315" />
	</node>
	<node id="-365416" lat="58.2949527737" lon="7.27199166252">
		<tag k="name" v="Oselia" />
		<tag k="natural" v="slope" />
		<tag k="place" v="locality" />
		<tag k="ssr:stedsnr" v="461312" />
	</node>
	<node id="-363367" lat="58.2805888883" lon="7.40541666887">
		<tag k="loc_name" v="Espelandsheiå" />
		<tag k="name" v="Espelandshei" />
		<tag k="natural" v="hill" />
		<tag k="place" v="locality" />
		<tag k="ssr:stedsnr" v="400869" />
	</node>
	<node id="-363365" lat="58.2770611115" lon="7.39177777918">
		<tag k="name" v="Konsmobakken" />
		<tag k="natural" v="hill" />
		<tag k="place" v="locality" />
		<tag k="ssr:stedsnr" v="400862" />
	</node>
	<node id="-365411" lat="58.2807555587" lon="7.41935277732">
		<tag k="alt_name" v="Skreddarhei" />
		<tag k="loc_name" v="Skreddarheiå" />
		<tag k="name" v="Skreddarsheia" />
		<tag k="natural" v="hill" />
		<tag k="place" v="locality" />
		<tag k="ssr:stedsnr" v="425870" />
	</node>
	<node id="-363358" lat="58.4244777756" lon="7.40935556171">
		<tag k="name" v="Hårtveitsheia" />
		<tag k="natural" v="hill" />
		<tag k="place" v="locality" />
		<tag k="ssr:stedsnr" v="400359" />
	</node>
	<node id="-363357" lat="58.4233777793" lon="7.41097777658">
		<tag k="name" v="Rekedalen" />
		<tag k="natural" v="valley" />
		<tag k="place" v="locality" />
		<tag k="ssr:stedsnr" v="400356" />
	</node>
	<node id="-363354" lat="58.2996222231" lon="7.27523889442">
		<tag k="name" v="Oselia" />
		<tag k="natural" v="slope" />
		<tag k="place" v="locality" />
		<tag k="ssr:stedsnr" v="400291" />
	</node>
	<node id="-363353" lat="58.3141166645" lon="7.34108611804">
		<tag k="name" v="Jonsokfjellan" />
		<tag k="natural" v="hill" />
		<tag k="place" v="locality" />
		<tag k="ssr:stedsnr" v="400281" />
	</node>
	<node id="-363352" lat="58.2684611105" lon="7.37276389264">
		<tag k="name" v="Rispedalen" />
		<tag k="natural" v="valley" />
		<tag k="place" v="locality" />
		<tag k="ssr:stedsnr" v="400275" />
	</node>
	<node id="-363351" lat="58.2574972206" lon="7.37375832731">
		<tag k="name" v="Røyåsan" />
		<tag k="natural" v="hill" />
		<tag k="place" v="locality" />
		<tag k="ssr:stedsnr" v="400274" />
	</node>
	<node id="-363348" lat="58.3888972192" lon="7.40114166268">
		<tag k="fixme" v="consider natural=peak for the most distinct mountains in the district" />
		<tag k="loc_name" v="Ydre Bjermåsen" />
		<tag k="name" v="Bjermåsen" />
		<tag k="natural" v="hill" />
		<tag k="place" v="locality" />
		<tag k="ssr:stedsnr" v="400226" />
	</node>
	<node id="-363347" lat="58.4065222199" lon="7.43193889552">
		<tag k="fixme" v="consider natural=peak for the most distinct mountains in the district" />
		<tag k="name" v="Slimyrknuten" />
		<tag k="natural" v="hill" />
		<tag k="place" v="locality" />
		<tag k="ssr:stedsnr" v="400215" />
	</node>
	<node id="-363346" lat="58.3617444483" lon="7.40313054897">
		<tag k="name" v="Langehaugen" />
		<tag k="natural" v="ridge" />
		<tag k="place" v="locality" />
		<tag k="ssr:stedsnr" v="400209" />
	</node>
	<node id="-363344" lat="58.3512749961" lon="7.33457499261">
		<tag k="loc_name" v="Lauåsen" />
		<tag k="name" v="Lauvåsen" />
		<tag k="natural" v="hill" />
		<tag k="place" v="locality" />
		<tag k="ssr:stedsnr" v="400187" />
	</node>
	<node id="-363343" lat="58.4649749978" lon="7.40549166818">
		<tag k="name" v="Sjalskotknodden" />
		<tag k="natural" v="hill" />
		<tag k="place" v="locality" />
		<tag k="ssr:stedsnr" v="400123" />
	</node>
	<node id="-363342" lat="58.4626611133" lon="7.3677916683">
		<tag k="name" v="Fjeddestødalen" />
		<tag k="natural" v="valley" />
		<tag k="place" v="locality" />
		<tag k="ssr:stedsnr" v="400122" />
	</node>
	<node id="-363341" lat="58.4612666647" lon="7.42995555306">
		<tag k="name" v="Vassfjellet" />
		<tag k="natural" v="hill" />
		<tag k="place" v="locality" />
		<tag k="ssr:stedsnr" v="400120" />
	</node>
	<node id="-363340" lat="58.4612277745" lon="7.3990666676">
		<tag k="name" v="Heptesknodden" />
		<tag k="natural" v="hill" />
		<tag k="place" v="locality" />
		<tag k="ssr:stedsnr" v="400115" />
	</node>
	<node id="-363339" lat="58.4576055572" lon="7.40328055981">
		<tag k="name" v="Maien" />
		<tag k="natural" v="hill" />
		<tag k="place" v="locality" />
		<tag k="ssr:stedsnr" v="400116" />
	</node>
	<node id="-363319" lat="58.459722219" lon="7.36739722226">
		<tag k="name" v="Gydalen" />
		<tag k="natural" v="valley" />
		<tag k="place" v="locality" />
		<tag k="ssr:stedsnr" v="364576" />
	</node>
	<node id="-363595" lat="58.4708694411" lon="7.42239444201">
		<tag k="name" v="Klevheie" />
		<tag k="natural" v="hill" />
		<tag k="place" v="locality" />
		<tag k="ssr:stedsnr" v="474318" />
	</node>
	<node id="-365281" lat="58.3583222245" lon="7.34804999898">
		<tag k="alt_name" v="Heptehei" />
		<tag k="name" v="Hepteheii" />
		<tag k="natural" v="hill" />
		<tag k="place" v="locality" />
		<tag k="ssr:stedsnr" v="243969" />
	</node>
	<node id="-365277" lat="58.4193888886" lon="7.49072222158">
		<tag k="alt_name" v="Krossfjellan" />
		<tag k="name" v="Selandsheii" />
		<tag k="natural" v="hill" />
		<tag k="place" v="locality" />
		<tag k="ssr:stedsnr" v="243885" />
	</node>
	<node id="-365275" lat="58.2740611142" lon="7.37415832753">
		<tag k="alt_name" v="Bjørnskarhei" />
		<tag k="loc_name" v="Bjønnskarheiå" />
		<tag k="name" v="Bjørnskardheia" />
		<tag k="natural" v="hill" />
		<tag k="place" v="locality" />
		<tag k="ssr:stedsnr" v="243825" />
	</node>
	<node id="-365268" lat="58.3022305522" lon="7.2661555629">
		<tag k="name" v="Vardehei" />
		<tag k="natural" v="hill" />
		<tag k="place" v="locality" />
		<tag k="ssr:stedsnr" v="242494" />
	</node>
	<node id="-363369" lat="58.2579944411" lon="7.39590833294">
		<tag k="name" v="Tronstadknodden" />
		<tag k="natural" v="hill" />
		<tag k="place" v="locality" />
		<tag k="ssr:stedsnr" v="400885" />
	</node>
	<node id="-367242" lat="58.3293805574" lon="7.31974167029">
		<tag k="name" v="Ormebrotet" />
		<tag k="natural" v="slope" />
		<tag k="place" v="locality" />
		<tag k="ssr:stedsnr" v="826999" />
	</node>
	<node id="-367241" lat="58.3317222192" lon="7.30244722031">
		<tag k="name" v="Hestelia" />
		<tag k="natural" v="slope" />
		<tag k="place" v="locality" />
		<tag k="ssr:stedsnr" v="826998" />
	</node>
	<node id="-367240" lat="58.3240888928" lon="7.38774165935">
		<tag k="fixme" v="consider natural=peak for the most distinct mountains in the district" />
		<tag k="name" v="Røyseåsen" />
		<tag k="natural" v="hill" />
		<tag k="place" v="locality" />
		<tag k="ssr:stedsnr" v="826981" />
	</node>
	<node id="-367239" lat="58.3838249984" lon="7.35779445196">
		<tag k="name" v="Spranget" />
		<tag k="place" v="locality" />
		<tag k="ssr:stedsnr" v="826961" />
	</node>
	<node id="-367238" lat="58.3543416706" lon="7.34821666792">
		<tag k="name" v="Stedjebakken" />
		<tag k="natural" v="slope" />
		<tag k="place" v="locality" />
		<tag k="ssr:stedsnr" v="826960" />
	</node>
	<node id="-367235" lat="58.3380111112" lon="7.34271943837">
		<tag k="fixme" v="consider natural=peak for the most distinct mountains in the district" />
		<tag k="name" v="Troåsen" />
		<tag k="natural" v="hill" />
		<tag k="place" v="locality" />
		<tag k="ssr:stedsnr" v="826878" />
	</node>
	<node id="-367234" lat="58.2657555572" lon="7.37580554929">
		<tag k="fixme" v="consider natural=peak for the most distinct mountains in the district" />
		<tag k="name" v="Vindåsen" />
		<tag k="natural" v="hill" />
		<tag k="place" v="locality" />
		<tag k="ssr:stedsnr" v="826873" />
	</node>
	<node id="-367232" lat="58.2515805575" lon="7.37163055001">
		<tag k="name" v="Øyna" />
		<tag k="natural" v="slope" />
		<tag k="place" v="locality" />
		<tag k="ssr:stedsnr" v="826858" />
	</node>
	<node id="-367231" lat="58.2492472248" lon="7.35289444508">
		<tag k="fixme" v="consider natural=peak for the most distinct mountains in the district" />
		<tag k="name" v="Løfjell" />
		<tag k="natural" v="hill" />
		<tag k="place" v="locality" />
		<tag k="ssr:stedsnr" v="826856" />
	</node>
	<node id="-367230" lat="58.2453194447" lon="7.34566944098">
		<tag k="fixme" v="consider natural=peak for the most distinct mountains in the district" />
		<tag k="name" v="Ravnefjell" />
		<tag k="natural" v="hill" />
		<tag k="place" v="locality" />
		<tag k="ssr:stedsnr" v="826849" />
	</node>
	<node id="-367229" lat="58.2800138854" lon="7.39629723016">
		<tag k="fixme" v="consider natural=peak for the most distinct mountains in the district" />
		<tag k="name" v="Krågeknatten" />
		<tag k="natural" v="hill" />
		<tag k="place" v="locality" />
		<tag k="ssr:stedsnr" v="826838" />
	</node>
	<node id="-367228" lat="58.2614444418" lon="7.35749722114">
		<tag k="name" v="Sigmundsskotet" />
		<tag k="natural" v="valley" />
		<tag k="place" v="locality" />
		<tag k="ssr:stedsnr" v="826837" />
	</node>
	<node id="-367227" lat="58.2615833317" lon="7.36480000236">
		<tag k="fixme" v="consider natural=peak for the most distinct mountains in the district" />
		<tag k="loc_name" v="Kvævfjelle" />
		<tag k="name" v="Kvævfjellet" />
		<tag k="natural" v="hill" />
		<tag k="place" v="locality" />
		<tag k="ssr:stedsnr" v="826835" />
	</node>
	<node id="-367226" lat="58.2451000023" lon="7.27706944876">
		<tag k="name" v="Slåtteheia" />
		<tag k="natural" v="hill" />
		<tag k="place" v="locality" />
		<tag k="ssr:stedsnr" v="826826" />
	</node>
	<node id="-367225" lat="58.2535611081" lon="7.3354805599">
		<tag k="fixme" v="consider natural=peak for the most distinct mountains in the district" />
		<tag k="name" v="Høgåsen" />
		<tag k="natural" v="hill" />
		<tag k="place" v="locality" />
		<tag k="ssr:stedsnr" v="826824" />
	</node>
	<node id="-367223" lat="58.2664277748" lon="7.34307221803">
		<tag k="name" v="Storlida" />
		<tag k="natural" v="slope" />
		<tag k="place" v="locality" />
		<tag k="ssr:stedsnr" v="826811" />
	</node>
	<node id="-367219" lat="58.3440499996" lon="7.32507222865">
		<tag k="fixme" v="consider natural=peak for the most distinct mountains in the district" />
		<tag k="name" v="Smørtjødnbakkjan" />
		<tag k="natural" v="hill" />
		<tag k="place" v="locality" />
		<tag k="ssr:stedsnr" v="826414" />
	</node>
	<node id="-367218" lat="58.4395888913" lon="7.32611388773">
		<tag k="name" v="Kjaddanshei" />
		<tag k="natural" v="hill" />
		<tag k="place" v="locality" />
		<tag k="ssr:stedsnr" v="826377" />
	</node>
	<node id="-367216" lat="58.3024111114" lon="7.37827222663">
		<tag k="loc_name" v="Biktjønheiå" />
		<tag k="name" v="Biktjønnheia" />
		<tag k="natural" v="hill" />
		<tag k="place" v="locality" />
		<tag k="ssr:stedsnr" v="826299" />
	</node>
	<node id="-367215" lat="58.2694027757" lon="7.36007778045">
		<tag k="name" v="Høylandsbakken" />
		<tag k="natural" v="hill" />
		<tag k="place" v="locality" />
		<tag k="ssr:stedsnr" v="826288" />
	</node>
	<node id="-367213" lat="58.3994861079" lon="7.43238611124">
		<tag k="name" v="Skabergan" />
		<tag k="natural" v="hill" />
		<tag k="place" v="locality" />
		<tag k="ssr:stedsnr" v="826240" />
	</node>
	<node id="-367212" lat="58.2616250022" lon="7.29931110599">
		<tag k="name" v="Lihei" />
		<tag k="natural" v="hill" />
		<tag k="place" v="locality" />
		<tag k="ssr:stedsnr" v="826238" />
	</node>
	<node id="-367211" lat="58.2936499965" lon="7.32129722608">
		<tag k="name" v="Ormebergan" />
		<tag k="natural" v="slope" />
		<tag k="place" v="locality" />
		<tag k="ssr:stedsnr" v="826237" />
	</node>
	<node id="-367210" lat="58.3473194441" lon="7.39313056336">
		<tag k="name" v="Svartupsa" />
		<tag k="natural" v="cliff" />
		<tag k="ssr:stedsnr" v="826236" />
	</node>
	<node id="-367207" lat="58.4996722218" lon="7.46401944054">
		<tag k="name" v="Klemstre" />
		<tag k="natural" v="valley" />
		<tag k="place" v="locality" />
		<tag k="ssr:stedsnr" v="826210" />
	</node>
	<node id="-367206" lat="58.4973583344" lon="7.47183332787">
		<tag k="fixme" v="consider natural=peak for the most distinct mountains in the district" />
		<tag k="name" v="Øksåsen" />
		<tag k="natural" v="hill" />
		<tag k="place" v="locality" />
		<tag k="ssr:stedsnr" v="826203" />
	</node>
	<node id="-367205" lat="58.3478277778" lon="7.33226944985">
		<tag k="name" v="Trøngsle" />
		<tag k="natural" v="valley" />
		<tag k="place" v="locality" />
		<tag k="ssr:stedsnr" v="826197" />
	</node>
	<node id="-367203" lat="58.4956833366" lon="7.51516388936">
		<tag k="fixme" v="consider natural=peak for the most distinct mountains in the district" />
		<tag k="name" v="Lisle Kistefjell" />
		<tag k="natural" v="hill" />
		<tag k="place" v="locality" />
		<tag k="ssr:stedsnr" v="826189" />
	</node>
	<node id="-367199" lat="58.486069442" lon="7.37472500484">
		<tag k="name" v="Bergsvoan" />
		<tag k="natural" v="slope" />
		<tag k="place" v="locality" />
		<tag k="ssr:stedsnr" v="826172" />
	</node>
	<node id="-367190" lat="58.4388583323" lon="7.35635833662">
		<tag k="loc_name" v="Næperbakkjen" />
		<tag k="name" v="Næparbakken" />
		<tag k="natural" v="slope" />
		<tag k="place" v="locality" />
		<tag k="ssr:stedsnr" v="826121" />
	</node>
	<node id="-367188" lat="58.4124277766" lon="7.41162221535">
		<tag k="fixme" v="consider natural=peak for the most distinct mountains in the district" />
		<tag k="name" v="Skytebane" />
		<tag k="natural" v="hill" />
		<tag k="place" v="locality" />
		<tag k="ssr:stedsnr" v="826107" />
	</node>
	<node id="-367184" lat="58.4001833353" lon="7.35358888206">
		<tag k="name" v="Reierøystein" />
		<tag k="place" v="locality" />
		<tag k="ssr:stedsnr" v="826048" />
	</node>
	<node id="-367181" lat="58.372966671" lon="7.38222499496">
		<tag k="name" v="Vodden" />
		<tag k="natural" v="slope" />
		<tag k="place" v="locality" />
		<tag k="ssr:stedsnr" v="826015" />
	</node>
	<node id="-367180" lat="58.3801194444" lon="7.3230138839">
		<tag k="name" v="St. Olavs kjelda" />
		<tag k="place" v="locality" />
		<tag k="ssr:stedsnr" v="826012" />
	</node>
	<node id="-367179" lat="58.3801055537" lon="7.35855000167">
		<tag k="name" v="På Vondaskotet" />
		<tag k="natural" v="ridge" />
		<tag k="place" v="locality" />
		<tag k="ssr:stedsnr" v="826007" />
	</node>
	<node id="-367178" lat="58.3804000009" lon="7.36083333583">
		<tag k="loc_name" v="Dukjærskotet" />
		<tag k="name" v="Duekjerrskotet" />
		<tag k="natural" v="valley" />
		<tag k="place" v="locality" />
		<tag k="ssr:stedsnr" v="826006" />
	</node>
	<node id="-367177" lat="58.3767083293" lon="7.36174444059">
		<tag k="name" v="Olavsdalen" />
		<tag k="natural" v="valley" />
		<tag k="place" v="locality" />
		<tag k="ssr:stedsnr" v="826001" />
	</node>
	<node id="-363080" lat="58.3622305592" lon="7.33035278008">
		<tag k="name" v="Støyten" />
		<tag k="natural" v="slope" />
		<tag k="place" v="locality" />
		<tag k="ssr:stedsnr" v="340969" />
	</node>
	<node id="-367175" lat="58.2890805518" lon="7.32676944367">
		<tag k="name" v="Klokkåsen" />
		<tag k="natural" v="hill" />
		<tag k="place" v="locality" />
		<tag k="ssr:stedsnr" v="825931" />
	</node>
	<node id="-363078" lat="58.3568888912" lon="7.38960000627">
		<tag k="name" v="Sveigan" />
		<tag k="natural" v="hill" />
		<tag k="place" v="locality" />
		<tag k="ssr:stedsnr" v="340962" />
	</node>
	<node id="-367173" lat="58.3059555555" lon="7.376977774">
		<tag k="loc_name" v="Skinnarbrotet" />
		<tag k="name" v="Skinnarsbrotet" />
		<tag k="natural" v="slope" />
		<tag k="place" v="locality" />
		<tag k="ssr:stedsnr" v="825907" />
	</node>
	<node id="-367172" lat="58.3006249971" lon="7.35270555301">
		<tag k="name" v="Stifjellet" />
		<tag k="natural" v="hill" />
		<tag k="place" v="locality" />
		<tag k="ssr:stedsnr" v="825902" />
	</node>
	<node id="-367171" lat="58.304308333" lon="7.3331722238">
		<tag k="name" v="Hujen" />
		<tag k="place" v="locality" />
		<tag k="ssr:stedsnr" v="825892" />
	</node>
	<node id="-367169" lat="58.3012416702" lon="7.31745277487">
		<tag k="name" v="Hella" />
		<tag k="place" v="locality" />
		<tag k="ssr:stedsnr" v="825884" />
	</node>
	<node id="-367167" lat="58.4107916672" lon="7.36176388248">
		<tag k="name" v="Skrasledal" />
		<tag k="natural" v="valley" />
		<tag k="place" v="locality" />
		<tag k="ssr:stedsnr" v="825320" />
	</node>
	<node id="-367166" lat="58.3772527807" lon="7.38512777907">
		<tag k="name" v="Stedjan" />
		<tag k="place" v="locality" />
		<tag k="ssr:stedsnr" v="825290" />
	</node>
	<node id="-363069" lat="58.3380416708" lon="7.33116111736">
		<tag k="fixme" v="consider natural=peak for the most distinct mountains in the district" />
		<tag k="name" v="Bordalsknuten" />
		<tag k="natural" v="hill" />
		<tag k="place" v="locality" />
		<tag k="ssr:stedsnr" v="340886" />
	</node>
	<node id="-367164" lat="58.3292666685" lon="7.37841111087">
		<tag k="name" v="Lauheia" />
		<tag k="natural" v="slope" />
		<tag k="place" v="locality" />
		<tag k="ssr:stedsnr" v="825283" />
	</node>
	<node id="-367163" lat="58.4264944486" lon="7.38550833838">
		<tag k="loc_name" v="Holkedalsheiæ" />
		<tag k="name" v="Liheia" />
		<tag k="natural" v="hill" />
		<tag k="place" v="locality" />
		<tag k="ssr:stedsnr" v="825259" />
	</node>
	<node id="-367162" lat="58.3683972236" lon="7.34556666142">
		<tag k="name" v="Gullestødalen" />
		<tag k="natural" v="valley" />
		<tag k="place" v="locality" />
		<tag k="ssr:stedsnr" v="825257" />
	</node>
	<node id="-367161" lat="58.3684277822" lon="7.38166944291">
		<tag k="fixme" v="consider natural=peak for the most distinct mountains in the district" />
		<tag k="name" v="Åsen" />
		<tag k="natural" v="hill" />
		<tag k="place" v="locality" />
		<tag k="ssr:stedsnr" v="825254" />
	</node>
	<node id="-363064" lat="58.2563027749" lon="7.27356666739">
		<tag k="name" v="Kvåsskaret" />
		<tag k="natural" v="valley" />
		<tag k="place" v="locality" />
		<tag k="ssr:stedsnr" v="340831" />
	</node>
	<node id="-367159" lat="58.2825055544" lon="7.29035277246">
		<tag k="name" v="Refsdalen" />
		<tag k="natural" v="valley" />
		<tag k="place" v="locality" />
		<tag k="ssr:stedsnr" v="825240" />
	</node>
	<node id="-367158" lat="58.4546499979" lon="7.43153888106">
		<tag k="fixme" v="consider natural=peak for the most distinct mountains in the district" />
		<tag k="name" v="Åsan" />
		<tag k="natural" v="hill" />
		<tag k="place" v="locality" />
		<tag k="ssr:stedsnr" v="825093" />
	</node>
	<node id="-367157" lat="58.4576333335" lon="7.37331667237">
		<tag k="fixme" v="consider natural=peak for the most distinct mountains in the district" />
		<tag k="name" v="Håvåsen" />
		<tag k="natural" v="hill" />
		<tag k="place" v="locality" />
		<tag k="ssr:stedsnr" v="825088" />
	</node>
	<node id="-367156" lat="58.4583333297" lon="7.45501388575">
		<tag k="name" v="Klamredalen" />
		<tag k="natural" v="valley" />
		<tag k="place" v="locality" />
		<tag k="ssr:stedsnr" v="825083" />
	</node>
	<node id="-367155" lat="58.4682527812" lon="7.4267333272">
		<tag k="name" v="Nedre Håvåsen" />
		<tag k="natural" v="hill" />
		<tag k="place" v="locality" />
		<tag k="ssr:stedsnr" v="825074" />
	</node>
	<node id="-367154" lat="58.2626527779" lon="7.39220000335">
		<tag k="name" v="Høylandshei" />
		<tag k="natural" v="hill" />
		<tag k="place" v="locality" />
		<tag k="ssr:stedsnr" v="826286" />
	</node>
	<node id="-367153" lat="58.2342583357" lon="7.39394999279">
		<tag k="name" v="Trohei" />
		<tag k="natural" v="hill" />
		<tag k="place" v="locality" />
		<tag k="ssr:stedsnr" v="826285" />
	</node>
	<node id="-367151" lat="58.3427722254" lon="7.43485278344">
		<tag k="name" v="Sollia" />
		<tag k="natural" v="slope" />
		<tag k="place" v="locality" />
		<tag k="ssr:stedsnr" v="826271" />
	</node>
	<node id="-367150" lat="58.2647027818" lon="7.29178888577">
		<tag k="name" v="Ystedalen" />
		<tag k="natural" v="valley" />
		<tag k="place" v="locality" />
		<tag k="ssr:stedsnr" v="826263" />
	</node>
	<node id="-363052" lat="58.4428083336" lon="7.47203333453">
		<tag k="name" v="Entreheia" />
		<tag k="natural" v="hill" />
		<tag k="place" v="locality" />
		<tag k="ssr:stedsnr" v="340346" />
	</node>
	<node id="-363048" lat="58.2716944442" lon="7.32865555368">
		<tag k="name" v="Grasdalen" />
		<tag k="natural" v="valley" />
		<tag k="place" v="locality" />
		<tag k="ssr:stedsnr" v="340301" />
	</node>
	<node id="-367143" lat="58.512336114" lon="7.52049167301">
		<tag k="fixme" v="consider natural=peak for the most distinct mountains in the district" />
		<tag k="name" v="Vidarsgjøvet" />
		<tag k="natural" v="hill" />
		<tag k="place" v="locality" />
		<tag k="ssr:stedsnr" v="789892" />
	</node>
	<node id="-363045" lat="58.2470611107" lon="7.37341110703">
		<tag k="loc_name" v="Skareliå" />
		<tag k="name" v="Skarelia" />
		<tag k="natural" v="slope" />
		<tag k="place" v="locality" />
		<tag k="ssr:stedsnr" v="340282" />
	</node>
	<node id="-367140" lat="58.3241249984" lon="7.37338056279">
		<tag k="fixme" v="consider natural=peak for the most distinct mountains in the district" />
		<tag k="name" v="Lindåsknuten" />
		<tag k="natural" v="hill" />
		<tag k="place" v="locality" />
		<tag k="ssr:stedsnr" v="789768" />
	</node>
	<node id="-363043" lat="58.2524499989" lon="7.37356388858">
		<tag k="name" v="Vorbakkan" />
		<tag k="natural" v="slope" />
		<tag k="place" v="locality" />
		<tag k="ssr:stedsnr" v="340278" />
	</node>
	<node id="-363041" lat="58.2463694442" lon="7.29933611418">
		<tag k="fixme" v="consider natural=peak for the most distinct mountains in the district" />
		<tag k="name" v="Storåsen" />
		<tag k="natural" v="hill" />
		<tag k="place" v="locality" />
		<tag k="ssr:stedsnr" v="340263" />
	</node>
	<node id="-363040" lat="58.2690055591" lon="7.39156111249">
		<tag k="fixme" v="consider natural=peak for the most distinct mountains in the district" />
		<tag k="loc_name" v="Husefjelle" />
		<tag k="name" v="Husefjell" />
		<tag k="natural" v="hill" />
		<tag k="place" v="locality" />
		<tag k="ssr:stedsnr" v="340261" />
	</node>
	<node id="-367134" lat="58.4438111086" lon="7.34843056219">
		<tag k="name" v="Vårdalsdalen" />
		<tag k="natural" v="valley" />
		<tag k="place" v="locality" />
		<tag k="ssr:stedsnr" v="788910" />
	</node>
	<node id="-363035" lat="58.4017666645" lon="7.44936111787">
		<tag k="fixme" v="consider natural=peak for the most distinct mountains in the district" />
		<tag k="name" v="Blannestadknuten" />
		<tag k="natural" v="hill" />
		<tag k="place" v="locality" />
		<tag k="ssr:stedsnr" v="340245" />
	</node>
	<node id="-363034" lat="58.2351527744" lon="7.38459721853">
		<tag k="loc_name" v="Svartevannshei" />
		<tag k="name" v="Svartevannsheia" />
		<tag k="natural" v="hill" />
		<tag k="place" v="locality" />
		<tag k="ssr:stedsnr" v="340244" />
	</node>
	<node id="-363033" lat="58.4077305536" lon="7.40523611913">
		<tag k="fixme" v="consider natural=peak for the most distinct mountains in the district" />
		<tag k="name" v="Teddåsen" />
		<tag k="natural" v="hill" />
		<tag k="place" v="locality" />
		<tag k="ssr:stedsnr" v="340243" />
	</node>
	<node id="-363032" lat="58.3482388852" lon="7.39004722264">
		<tag k="name" v="Langebakk" />
		<tag k="natural" v="hill" />
		<tag k="place" v="locality" />
		<tag k="ssr:stedsnr" v="340240" />
	</node>
	<node id="-363031" lat="58.3770638846" lon="7.40690832511">
		<tag k="name" v="Espåsbeite" />
		<tag k="natural" v="slope" />
		<tag k="place" v="locality" />
		<tag k="ssr:stedsnr" v="340226" />
	</node>
	<node id="-363030" lat="58.3423638855" lon="7.42344166122">
		<tag k="name" v="Dalen" />
		<tag k="natural" v="valley" />
		<tag k="place" v="locality" />
		<tag k="ssr:stedsnr" v="340221" />
	</node>
	<node id="-363023" lat="58.4859749961" lon="7.36615555771">
		<tag k="name" v="Kvæven" />
		<tag k="natural" v="valley" />
		<tag k="place" v="locality" />
		<tag k="ssr:stedsnr" v="340166" />
	</node>
	<node id="-363022" lat="58.4847111079" lon="7.44855555236">
		<tag k="name" v="Hålandsvollen" />
		<tag k="natural" v="slope" />
		<tag k="place" v="locality" />
		<tag k="ssr:stedsnr" v="340163" />
	</node>
	<node id="-363020" lat="58.4735666678" lon="7.49896667371">
		<tag k="name" v="Futebrotan" />
		<tag k="natural" v="slope" />
		<tag k="place" v="locality" />
		<tag k="ssr:stedsnr" v="340157" />
	</node>
	<node id="-363019" lat="58.4666277803" lon="7.46844999612">
		<tag k="name" v="Jammerdalen" />
		<tag k="natural" v="valley" />
		<tag k="place" v="locality" />
		<tag k="ssr:stedsnr" v="340156" />
	</node>
	<node id="-363018" lat="58.4869583295" lon="7.42834722624">
		<tag k="name" v="Ramstad" />
		<tag k="place" v="locality" />
		<tag k="ssr:stedsnr" v="340152" />
	</node>
	<node id="-363017" lat="58.4883972244" lon="7.42278889183">
		<tag k="name" v="Søtefitskotet" />
		<tag k="natural" v="valley" />
		<tag k="place" v="locality" />
		<tag k="ssr:stedsnr" v="340148" />
	</node>
	<node id="-363015" lat="58.4485277765" lon="7.47594444955">
		<tag k="name" v="Fellesskotet" />
		<tag k="natural" v="valley" />
		<tag k="place" v="locality" />
		<tag k="ssr:stedsnr" v="340120" />
	</node>
	<node id="-363014" lat="58.4438666649" lon="7.37419166863">
		<tag k="loc_name" v="Håmman" />
		<tag k="name" v="Homman" />
		<tag k="natural" v="valley" />
		<tag k="place" v="locality" />
		<tag k="ssr:stedsnr" v="340108" />
	</node>
	<node id="-363013" lat="58.4262305575" lon="7.47034166583">
		<tag k="name" v="Dauråslia" />
		<tag k="natural" v="slope" />
		<tag k="place" v="locality" />
		<tag k="ssr:stedsnr" v="340098" />
	</node>
	<node id="-363011" lat="58.4105111112" lon="7.33183055764">
		<tag k="name" v="Kvassåsen" />
		<tag k="natural" v="hill" />
		<tag k="place" v="locality" />
		<tag k="ssr:stedsnr" v="340085" />
	</node>
	<node id="-363009" lat="58.4248666675" lon="7.46264166438">
		<tag k="fixme" v="consider natural=peak for the most distinct mountains in the district" />
		<tag k="name" v="Tørefjellet" />
		<tag k="natural" v="hill" />
		<tag k="place" v="locality" />
		<tag k="ssr:stedsnr" v="340078" />
	</node>
	<node id="-363008" lat="58.4304722233" lon="7.46186110515">
		<tag k="fixme" v="consider natural=peak for the most distinct mountains in the district" />
		<tag k="name" v="Hammaren" />
		<tag k="natural" v="hill" />
		<tag k="place" v="locality" />
		<tag k="ssr:stedsnr" v="340077" />
	</node>
	<node id="-363000" lat="58.4298000003" lon="7.47216666566">
		<tag k="name" v="Selandsdalen" />
		<tag k="natural" v="valley" />
		<tag k="place" v="locality" />
		<tag k="ssr:stedsnr" v="121876" />
	</node>
	<node id="-362998" lat="58.4023583363" lon="7.41580277619">
		<tag k="fixme" v="consider natural=peak for the most distinct mountains in the district" />
		<tag k="name" v="Åsan" />
		<tag k="natural" v="hill" />
		<tag k="place" v="locality" />
		<tag k="ssr:stedsnr" v="303979" />
	</node>
	<node id="-362995" lat="58.3691805513" lon="7.39300555765">
		<tag k="alt_name" v="Ørneheia" />
		<tag k="name" v="Ørneheii" />
		<tag k="natural" v="hill" />
		<tag k="place" v="locality" />
		<tag k="ssr:stedsnr" v="303946" />
	</node>
	<node id="-363363" lat="58.2536999957" lon="7.29350833339">
		<tag k="name" v="Mjaunebakken" />
		<tag k="natural" v="ridge" />
		<tag k="place" v="locality" />
		<tag k="ssr:stedsnr" v="400848" />
	</node>
	<node id="-362990" lat="58.4128333325" lon="7.47029167263">
		<tag k="alt_name" v="Gloanheii" />
		<tag k="loc_name" v="Gloanheia" />
		<tag k="name" v="Gloanshei" />
		<tag k="natural" v="hill" />
		<tag k="place" v="locality" />
		<tag k="ssr:stedsnr" v="303892" />
	</node>
	<node id="-365026" lat="58.3333250024" lon="7.41311943729">
		<tag k="fixme" v="consider natural=peak for the most distinct mountains in the district" />
		<tag k="name" v="Grønåsen" />
		<tag k="natural" v="hill" />
		<tag k="place" v="locality" />
		<tag k="ssr:stedsnr" v="219989" />
	</node>
	<node id="-365025" lat="58.3314444461" lon="7.37461110416">
		<tag k="name" v="Ospelunden" />
		<tag k="natural" v="slope" />
		<tag k="place" v="locality" />
		<tag k="ssr:stedsnr" v="219986" />
	</node>
	<node id="-365022" lat="58.3712944482" lon="7.4143999925">
		<tag k="name" v="Hepte" />
		<tag k="natural" v="valley" />
		<tag k="place" v="locality" />
		<tag k="ssr:stedsnr" v="219957" />
	</node>
	<node id="-365020" lat="58.2781944449" lon="7.27272499591">
		<tag k="name" v="Vestheia" />
		<tag k="natural" v="hill" />
		<tag k="place" v="locality" />
		<tag k="ssr:stedsnr" v="219949" />
	</node>
	<node id="-365019" lat="58.2842305514" lon="7.2718361117">
		<tag k="fixme" v="consider natural=peak for the most distinct mountains in the district" />
		<tag k="name" v="Borgå" />
		<tag k="natural" v="hill" />
		<tag k="place" v="locality" />
		<tag k="ssr:stedsnr" v="219944" />
	</node>
	<node id="-365012" lat="58.2499388884" lon="7.39688332614">
		<tag k="name" v="Vardehei" />
		<tag k="natural" v="hill" />
		<tag k="place" v="locality" />
		<tag k="ssr:stedsnr" v="219880" />
	</node>
	<node id="-365011" lat="58.2816333346" lon="7.4163833326">
		<tag k="loc_name" v="Leidingsvaren" />
		<tag k="name" v="Leidingsvarden" />
		<tag k="natural" v="ridge" />
		<tag k="place" v="locality" />
		<tag k="ssr:stedsnr" v="219865" />
	</node>
	<node id="-365009" lat="58.2687305547" lon="7.33376944138">
		<tag k="loc_name" v="Heptesknodden" />
		<tag k="name" v="Hepteknodden" />
		<tag k="natural" v="hill" />
		<tag k="place" v="locality" />
		<tag k="ssr:stedsnr" v="219840" />
	</node>
	<node id="-365008" lat="58.2702805574" lon="7.34658888372">
		<tag k="name" v="Skaren" />
		<tag k="natural" v="valley" />
		<tag k="place" v="locality" />
		<tag k="ssr:stedsnr" v="219834" />
	</node>
	<node id="-365434" lat="58.3955583331" lon="7.44651388335">
		<tag k="name" v="Skogebåsen" />
		<tag k="natural" v="ridge" />
		<tag k="place" v="locality" />
		<tag k="ssr:stedsnr" v="461254" />
	</node>
	<node id="-365005" lat="58.2585500019" lon="7.41214443967">
		<tag k="name" v="Lammestien" />
		<tag k="natural" v="slope" />
		<tag k="place" v="locality" />
		<tag k="ssr:stedsnr" v="219773" />
	</node>
	<node id="-365004" lat="58.3724555571" lon="7.40544722027">
		<tag k="name" v="Skifjelldalen" />
		<tag k="natural" v="valley" />
		<tag k="place" v="locality" />
		<tag k="ssr:stedsnr" v="219394" />
	</node>
	<node id="-365003" lat="58.4398666707" lon="7.36670556272">
		<tag k="fixme" v="consider natural=peak for the most distinct mountains in the district" />
		<tag k="loc_name" v="Middagsfjeddæ" />
		<tag k="name" v="Middagsfjellet" />
		<tag k="natural" v="hill" />
		<tag k="place" v="locality" />
		<tag k="ssr:stedsnr" v="219357" />
	</node>
	<node id="-365000" lat="58.3830833314" lon="7.39127222026">
		<tag k="name" v="Uførsdalsheia" />
		<tag k="natural" v="hill" />
		<tag k="place" v="locality" />
		<tag k="ssr:stedsnr" v="219329" />
	</node>
	<node id="-364999" lat="58.3928944458" lon="7.34148888704">
		<tag k="name" v="Lislehei" />
		<tag k="natural" v="hill" />
		<tag k="place" v="locality" />
		<tag k="ssr:stedsnr" v="219324" />
	</node>
	<node id="-364998" lat="58.4276416643" lon="7.39567777397">
		<tag k="name" v="Raundalen" />
		<tag k="natural" v="valley" />
		<tag k="place" v="locality" />
		<tag k="ssr:stedsnr" v="219319" />
	</node>
	<node id="-364997" lat="58.370449997" lon="7.3911138839">
		<tag k="name" v="Tåmåsdalen" />
		<tag k="natural" v="valley" />
		<tag k="place" v="locality" />
		<tag k="ssr:stedsnr" v="219316" />
	</node>
	<node id="-364996" lat="58.3712833301" lon="7.39095556214">
		<tag k="fixme" v="consider natural=peak for the most distinct mountains in the district" />
		<tag k="name" v="Tåmåsen" />
		<tag k="natural" v="hill" />
		<tag k="place" v="locality" />
		<tag k="ssr:stedsnr" v="219314" />
	</node>
	<node id="-364995" lat="58.2973277818" lon="7.32732499954">
		<tag k="name" v="Ormedalen" />
		<tag k="natural" v="valley" />
		<tag k="place" v="locality" />
		<tag k="ssr:stedsnr" v="219306" />
	</node>
	<node id="-364994" lat="58.2834944414" lon="7.31255000094">
		<tag k="name" v="Surtevannsheia" />
		<tag k="natural" v="hill" />
		<tag k="place" v="locality" />
		<tag k="ssr:stedsnr" v="219297" />
	</node>
	<node id="-364993" lat="58.2896416668" lon="7.33913333054">
		<tag k="loc_name" v="Kjørkebakkan" />
		<tag k="name" v="Kjørkebakken" />
		<tag k="natural" v="hill" />
		<tag k="place" v="locality" />
		<tag k="ssr:stedsnr" v="219296" />
	</node>
	<node id="-364992" lat="58.2766194459" lon="7.27427499406">
		<tag k="name" v="Åsan" />
		<tag k="natural" v="slope" />
		<tag k="place" v="locality" />
		<tag k="ssr:stedsnr" v="219289" />
	</node>
	<node id="-364991" lat="58.2558444401" lon="7.39656388641">
		<tag k="name" v="Bakkan" />
		<tag k="natural" v="slope" />
		<tag k="place" v="locality" />
		<tag k="ssr:stedsnr" v="219259" />
	</node>
	<node id="-364989" lat="58.2709500003" lon="7.38883056109">
		<tag k="fixme" v="consider natural=peak for the most distinct mountains in the district" />
		<tag k="name" v="Krylåsen" />
		<tag k="natural" v="hill" />
		<tag k="place" v="locality" />
		<tag k="ssr:stedsnr" v="219232" />
	</node>
	<node id="-364987" lat="58.3681555532" lon="7.39408334045">
		<tag k="name" v="Hundepytten" />
		<tag k="place" v="locality" />
		<tag k="ssr:stedsnr" v="219214" />
	</node>
	<node id="-364986" lat="58.3559305591" lon="7.34164445083">
		<tag k="loc_name" v="Holmebakken" />
		<tag k="name" v="Holmebakkjen" />
		<tag k="natural" v="hill" />
		<tag k="place" v="locality" />
		<tag k="ssr:stedsnr" v="219202" />
	</node>
	<node id="-364985" lat="58.4776027758" lon="7.49821389598">
		<tag k="name" v="Rupemyrholen" />
		<tag k="natural" v="slope" />
		<tag k="place" v="locality" />
		<tag k="ssr:stedsnr" v="219189" />
	</node>
	<node id="-364984" lat="58.478594444" lon="7.50927777433">
		<tag k="loc_name" v="Rankebakken" />
		<tag k="name" v="Rankebakkan" />
		<tag k="natural" v="slope" />
		<tag k="place" v="locality" />
		<tag k="ssr:stedsnr" v="219187" />
	</node>
	<node id="-364983" lat="58.4923583318" lon="7.48218332791">
		<tag k="name" v="Stolpetrødalen" />
		<tag k="natural" v="valley" />
		<tag k="place" v="locality" />
		<tag k="ssr:stedsnr" v="219174" />
	</node>
	<node id="-364982" lat="58.4845277777" lon="7.45419999382">
		<tag k="name" v="Husebakken" />
		<tag k="natural" v="slope" />
		<tag k="place" v="locality" />
		<tag k="ssr:stedsnr" v="219156" />
	</node>
	<node id="-364981" lat="58.4856222217" lon="7.45669167448">
		<tag k="name" v="Kråkebakken" />
		<tag k="natural" v="slope" />
		<tag k="place" v="locality" />
		<tag k="ssr:stedsnr" v="219153" />
	</node>
	<node id="-364979" lat="58.4687638881" lon="7.41234167338">
		<tag k="fixme" v="consider natural=peak for the most distinct mountains in the district" />
		<tag k="loc_name" v="Hvalfjell" />
		<tag k="name" v="Valefjell" />
		<tag k="natural" v="hill" />
		<tag k="place" v="locality" />
		<tag k="ssr:stedsnr" v="219132" />
	</node>
	<node id="-364977" lat="58.4462777794" lon="7.37922777364">
		<tag k="loc_name" v="Varæhei" />
		<tag k="name" v="Vardehei" />
		<tag k="natural" v="hill" />
		<tag k="place" v="locality" />
		<tag k="ssr:stedsnr" v="219096" />
	</node>
	<node id="-364976" lat="58.4452694468" lon="7.3857805471">
		<tag k="loc_name" v="Nibbæn" />
		<tag k="name" v="Nibben" />
		<tag k="natural" v="ridge" />
		<tag k="place" v="locality" />
		<tag k="ssr:stedsnr" v="219089" />
	</node>
	<node id="-364975" lat="58.4202250024" lon="7.48037222266">
		<tag k="name" v="Lelandslåtta" />
		<tag k="natural" v="slope" />
		<tag k="place" v="locality" />
		<tag k="ssr:stedsnr" v="219081" />
	</node>
	<node id="-364973" lat="58.4262583305" lon="7.4061222286">
		<tag k="name" v="Monan" />
		<tag k="place" v="locality" />
		<tag k="ssr:stedsnr" v="219069" />
	</node>
	<node id="-364969" lat="58.3935833292" lon="7.37014444114">
		<tag k="name" v="Stigetroppa" />
		<tag k="place" v="locality" />
		<tag k="ssr:stedsnr" v="219037" />
	</node>
	<node id="-364966" lat="58.3990611121" lon="7.39191389709">
		<tag k="name" v="Sandvikskotet" />
		<tag k="natural" v="valley" />
		<tag k="place" v="locality" />
		<tag k="ssr:stedsnr" v="219029" />
	</node>
	<node id="-364964" lat="58.3747555571" lon="7.34347777009">
		<tag k="fixme" v="consider natural=peak for the most distinct mountains in the district" />
		<tag k="name" v="Stølsåsen" />
		<tag k="natural" v="hill" />
		<tag k="place" v="locality" />
		<tag k="ssr:stedsnr" v="219004" />
	</node>
	<node id="-364962" lat="58.4674916634" lon="7.37556944065">
		<tag k="name" v="Runsedalen" />
		<tag k="natural" v="valley" />
		<tag k="place" v="locality" />
		<tag k="ssr:stedsnr" v="219122" />
	</node>
	<node id="-364961" lat="58.4469277761" lon="7.43123611952">
		<tag k="name" v="Kjørkjefjellet" />
		<tag k="natural" v="hill" />
		<tag k="place" v="locality" />
		<tag k="ssr:stedsnr" v="219115" />
	</node>
	<node id="-364960" lat="58.4554527758" lon="7.38602221925">
		<tag k="fixme" v="consider natural=peak for the most distinct mountains in the district" />
		<tag k="name" v="Tåkhei" />
		<tag k="natural" v="hill" />
		<tag k="place" v="locality" />
		<tag k="ssr:stedsnr" v="218149" />
	</node>
	<node id="-364959" lat="58.4657888891" lon="7.36353610775">
		<tag k="fixme" v="consider natural=peak for the most distinct mountains in the district" />
		<tag k="loc_name" v="Hunnåsen" />
		<tag k="name" v="Hundåsen" />
		<tag k="natural" v="hill" />
		<tag k="place" v="locality" />
		<tag k="ssr:stedsnr" v="218139" />
	</node>
	<node id="-364958" lat="58.4617055549" lon="7.36485554945">
		<tag k="name" v="Ospeteinan" />
		<tag k="natural" v="hill" />
		<tag k="place" v="locality" />
		<tag k="ssr:stedsnr" v="218137" />
	</node>
	<node id="-364957" lat="58.457380557" lon="7.3986277749">
		<tag k="loc_name" v="Dybleknatten" />
		<tag k="name" v="Dybleknuten" />
		<tag k="natural" v="hill" />
		<tag k="place" v="locality" />
		<tag k="ssr:stedsnr" v="218130" />
	</node>
	<node id="-364956" lat="58.4702944415" lon="7.46376389623">
		<tag k="name" v="Støyland" />
		<tag k="place" v="locality" />
		<tag k="ssr:stedsnr" v="218123" />
	</node>
	<node id="-364951" lat="58.4267555567" lon="7.42591665885">
		<tag k="fixme" v="consider natural=peak for the most distinct mountains in the district" />
		<tag k="name" v="Hisåsen" />
		<tag k="natural" v="hill" />
		<tag k="place" v="locality" />
		<tag k="ssr:stedsnr" v="182871" />
	</node>
	<node id="-364944" lat="58.4891361112" lon="7.44966389426">
		<tag k="alt_name" v="Monen" />
		<tag k="name" v="Moen" />
		<tag k="place" v="locality" />
		<tag k="ssr:stedsnr" v="182593" />
	</node>
	<node id="-363066" lat="58.2744972179" lon="7.35941666172">
		<tag k="name" v="Merreskotet" />
		<tag k="natural" v="valley" />
		<tag k="place" v="locality" />
		<tag k="ssr:stedsnr" v="340850" />
	</node>
	<node id="-363401" lat="58.3475333334" lon="7.3151999976">
		<tag k="name" v="Høgåsen" />
		<tag k="natural" v="hill" />
		<tag k="place" v="locality" />
		<tag k="ssr:stedsnr" v="401406" />
	</node>
	<node id="-366899" lat="58.3224555592" lon="7.39485277018">
		<tag k="name" v="Vrålshagen" />
		<tag k="natural" v="slope" />
		<tag k="place" v="locality" />
		<tag k="ssr:stedsnr" v="765983" />
	</node>
	<node id="-366897" lat="58.3569138904" lon="7.35190000816">
		<tag k="name" v="Bumyrbakken" />
		<tag k="natural" v="ridge" />
		<tag k="place" v="locality" />
		<tag k="ssr:stedsnr" v="765969" />
	</node>
	<node id="-366896" lat="58.351516664" lon="7.4251388847">
		<tag k="name" v="Snøkleiv" />
		<tag k="natural" v="slope" />
		<tag k="place" v="locality" />
		<tag k="ssr:stedsnr" v="765953" />
	</node>
	<node id="-366895" lat="58.3752111105" lon="7.39250277436">
		<tag k="name" v="Moldberskotet" />
		<tag k="natural" v="valley" />
		<tag k="place" v="locality" />
		<tag k="ssr:stedsnr" v="765950" />
	</node>
	<node id="-366893" lat="58.3325527759" lon="7.34388888188">
		<tag k="name" v="Furedalen" />
		<tag k="natural" v="valley" />
		<tag k="place" v="locality" />
		<tag k="ssr:stedsnr" v="765862" />
	</node>
	<node id="-366892" lat="58.2492583351" lon="7.39824722329">
		<tag k="name" v="Høneskard" />
		<tag k="natural" v="valley" />
		<tag k="place" v="locality" />
		<tag k="ssr:stedsnr" v="765854" />
	</node>
	<node id="-366891" lat="58.2699888917" lon="7.39790555229">
		<tag k="name" v="Skubbebakken" />
		<tag k="natural" v="hill" />
		<tag k="place" v="locality" />
		<tag k="ssr:stedsnr" v="765840" />
	</node>
	<node id="-366889" lat="58.22693889" lon="7.36787777456">
		<tag k="name" v="Fuglen" />
		<tag k="natural" v="hill" />
		<tag k="place" v="locality" />
		<tag k="ssr:stedsnr" v="765773" />
	</node>
	<node id="-366888" lat="58.2315055513" lon="7.3740777815">
		<tag k="fixme" v="consider natural=peak for the most distinct mountains in the district" />
		<tag k="name" v="Fiskefjell" />
		<tag k="natural" v="hill" />
		<tag k="place" v="locality" />
		<tag k="ssr:stedsnr" v="765771" />
	</node>
	<node id="-366887" lat="58.2524055569" lon="7.36344721464">
		<tag k="name" v="Høgabrodet" />
		<tag k="natural" v="hill" />
		<tag k="place" v="locality" />
		<tag k="ssr:stedsnr" v="765770" />
	</node>
	<node id="-366885" lat="58.3663166631" lon="7.40452500142">
		<tag k="name" v="Raunehei" />
		<tag k="natural" v="hill" />
		<tag k="place" v="locality" />
		<tag k="ssr:stedsnr" v="765398" />
	</node>
	<node id="-366883" lat="58.4697055599" lon="7.41461110877">
		<tag k="name" v="Borgefjell" />
		<tag k="natural" v="hill" />
		<tag k="place" v="locality" />
		<tag k="ssr:stedsnr" v="765326" />
	</node>
	<node id="-366882" lat="58.4649527772" lon="7.42368611799">
		<tag k="name" v="Flaten" />
		<tag k="natural" v="hill" />
		<tag k="place" v="locality" />
		<tag k="ssr:stedsnr" v="765323" />
	</node>
	<node id="-366881" lat="58.2682055548" lon="7.29609443848">
		<tag k="name" v="Stordalen" />
		<tag k="natural" v="valley" />
		<tag k="place" v="locality" />
		<tag k="ssr:stedsnr" v="765239" />
	</node>
	<node id="-366879" lat="58.3999499968" lon="7.40138334114">
		<tag k="fixme" v="consider natural=peak for the most distinct mountains in the district" />
		<tag k="name" v="Kjørberåsen" />
		<tag k="natural" v="hill" />
		<tag k="place" v="locality" />
		<tag k="ssr:stedsnr" v="765219" />
	</node>
	<node id="-366877" lat="58.3520222194" lon="7.39526944647">
		<tag k="name" v="Bakkan" />
		<tag k="natural" v="slope" />
		<tag k="place" v="locality" />
		<tag k="ssr:stedsnr" v="765213" />
	</node>
	<node id="-366874" lat="58.5057277802" lon="7.49537500363">
		<tag k="name" v="Svingarberget" />
		<tag k="natural" v="hill" />
		<tag k="place" v="locality" />
		<tag k="ssr:stedsnr" v="765202" />
	</node>
	<node id="-366873" lat="58.5008111142" lon="7.5021888903">
		<tag k="name" v="Langestedjan" />
		<tag k="natural" v="valley" />
		<tag k="place" v="locality" />
		<tag k="ssr:stedsnr" v="765199" />
	</node>
	<node id="-366872" lat="58.3513666646" lon="7.32167778221">
		<tag k="name" v="Hagebakkjen" />
		<tag k="natural" v="ridge" />
		<tag k="place" v="locality" />
		<tag k="ssr:stedsnr" v="765191" />
	</node>
	<node id="-366869" lat="58.485247221" lon="7.46954166228">
		<tag k="fixme" v="consider natural=peak for the most distinct mountains in the district" />
		<tag k="name" v="Lundefjellet" />
		<tag k="natural" v="hill" />
		<tag k="old_name" v="Nauteberget" />
		<tag k="place" v="locality" />
		<tag k="ssr:stedsnr" v="765170" />
	</node>
	<node id="-366868" lat="58.4888000022" lon="7.48963056095">
		<tag k="name" v="Langedalen" />
		<tag k="natural" v="valley" />
		<tag k="place" v="locality" />
		<tag k="ssr:stedsnr" v="765168" />
	</node>
	<node id="-366867" lat="58.4805361086" lon="7.36982778479">
		<tag k="name" v="Gullsmedberget" />
		<tag k="natural" v="slope" />
		<tag k="place" v="locality" />
		<tag k="ssr:stedsnr" v="765165" />
	</node>
	<node id="-366866" lat="58.4851555549" lon="7.37032777376">
		<tag k="name" v="Rolighola" />
		<tag k="natural" v="valley" />
		<tag k="place" v="locality" />
		<tag k="ssr:stedsnr" v="765163" />
	</node>
	<node id="-366863" lat="58.4944583361" lon="7.38191110739">
		<tag k="name" v="Trappeslåtta" />
		<tag k="natural" v="slope" />
		<tag k="place" v="locality" />
		<tag k="ssr:stedsnr" v="765145" />
	</node>
	<node id="-366862" lat="58.4903777785" lon="7.37926667335">
		<tag k="name" v="Smådalan" />
		<tag k="natural" v="valley" />
		<tag k="place" v="locality" />
		<tag k="ssr:stedsnr" v="765146" />
	</node>
	<node id="-366860" lat="58.4705416705" lon="7.38108610746">
		<tag k="name" v="Flottorpdalen" />
		<tag k="natural" v="valley" />
		<tag k="place" v="locality" />
		<tag k="ssr:stedsnr" v="765128" />
	</node>
	<node id="-366857" lat="58.4497111142" lon="7.36970832855">
		<tag k="fixme" v="consider natural=peak for the most distinct mountains in the district" />
		<tag k="loc_name" v="Rysæhei" />
		<tag k="name" v="Rysehei" />
		<tag k="natural" v="hill" />
		<tag k="place" v="locality" />
		<tag k="ssr:stedsnr" v="765098" />
	</node>
	<node id="-366856" lat="58.4471944422" lon="7.36685278271">
		<tag k="name" v="Hålandsdalen" />
		<tag k="natural" v="valley" />
		<tag k="place" v="locality" />
		<tag k="ssr:stedsnr" v="765097" />
	</node>
	<node id="-366855" lat="58.4197305517" lon="7.46409445036">
		<tag k="loc_name" v="Brendebakker" />
		<tag k="name" v="Brendebakkan" />
		<tag k="natural" v="slope" />
		<tag k="place" v="locality" />
		<tag k="ssr:stedsnr" v="765092" />
	</node>
	<node id="-366853" lat="58.4279388872" lon="7.48825278482">
		<tag k="name" v="Trondalsheia" />
		<tag k="natural" v="hill" />
		<tag k="place" v="locality" />
		<tag k="ssr:stedsnr" v="765083" />
	</node>
	<node id="-366852" lat="58.4253444412" lon="7.45323333664">
		<tag k="name" v="Bukkeknodden" />
		<tag k="natural" v="hill" />
		<tag k="place" v="locality" />
		<tag k="ssr:stedsnr" v="765074" />
	</node>
	<node id="-366850" lat="58.4200972227" lon="7.42135277655">
		<tag k="name" v="Varpet" />
		<tag k="natural" v="hill" />
		<tag k="place" v="locality" />
		<tag k="ssr:stedsnr" v="765065" />
	</node>
	<node id="-366849" lat="58.4187694416" lon="7.41433888722">
		<tag k="fixme" v="consider natural=peak for the most distinct mountains in the district" />
		<tag k="name" v="Lindåsen" />
		<tag k="natural" v="hill" />
		<tag k="place" v="locality" />
		<tag k="ssr:stedsnr" v="765066" />
	</node>
	<node id="-366846" lat="58.3692555587" lon="7.33731944944">
		<tag k="name" v="Nedre Solåshei" />
		<tag k="natural" v="hill" />
		<tag k="place" v="locality" />
		<tag k="ssr:stedsnr" v="765034" />
	</node>
	<node id="-366843" lat="58.2791333371" lon="7.30017222958">
		<tag k="name" v="Knodden" />
		<tag k="natural" v="hill" />
		<tag k="place" v="locality" />
		<tag k="ssr:stedsnr" v="764942" />
	</node>
	<node id="-366840" lat="58.2980527795" lon="7.34761388894">
		<tag k="fixme" v="consider natural=peak for the most distinct mountains in the district" />
		<tag k="name" v="Steivafjell" />
		<tag k="natural" v="hill" />
		<tag k="place" v="locality" />
		<tag k="ssr:stedsnr" v="764931" />
	</node>
	<node id="-366839" lat="58.2923277736" lon="7.34600832923">
		<tag k="fixme" v="consider natural=peak for the most distinct mountains in the district" />
		<tag k="name" v="Nonåsen" />
		<tag k="natural" v="hill" />
		<tag k="place" v="locality" />
		<tag k="ssr:stedsnr" v="764929" />
	</node>
	<node id="-366837" lat="58.319380556" lon="7.35789167249">
		<tag k="name" v="Tjovedalen" />
		<tag k="natural" v="valley" />
		<tag k="place" v="locality" />
		<tag k="ssr:stedsnr" v="764919" />
	</node>
	<node id="-366836" lat="58.3083555557" lon="7.35802499424">
		<tag k="name" v="Veaskotet" />
		<tag k="natural" v="valley" />
		<tag k="place" v="locality" />
		<tag k="ssr:stedsnr" v="764914" />
	</node>
	<node id="-366835" lat="58.3095777747" lon="7.3417472283">
		<tag k="name" v="Rasmusplass" />
		<tag k="natural" v="valley" />
		<tag k="place" v="locality" />
		<tag k="ssr:stedsnr" v="764905" />
	</node>
	<node id="-366833" lat="58.3730111076" lon="7.34506944696">
		<tag k="name" v="Linddalen" />
		<tag k="natural" v="valley" />
		<tag k="place" v="locality" />
		<tag k="ssr:stedsnr" v="764325" />
	</node>
	<node id="-366832" lat="58.3263361141" lon="7.35455000086">
		<tag k="fixme" v="consider natural=peak for the most distinct mountains in the district" />
		<tag k="name" v="Høgåsen" />
		<tag k="natural" v="hill" />
		<tag k="place" v="locality" />
		<tag k="ssr:stedsnr" v="764320" />
	</node>
	<node id="-366831" lat="58.3623861121" lon="7.3124249939">
		<tag k="name" v="Vesthei" />
		<tag k="natural" v="hill" />
		<tag k="place" v="locality" />
		<tag k="ssr:stedsnr" v="764316" />
	</node>
	<node id="-366830" lat="58.3878888875" lon="7.38576667452">
		<tag k="name" v="Hoppedalen" />
		<tag k="natural" v="valley" />
		<tag k="place" v="locality" />
		<tag k="ssr:stedsnr" v="764310" />
	</node>
	<node id="-366828" lat="58.3141361121" lon="7.31655000074">
		<tag k="fixme" v="consider natural=peak for the most distinct mountains in the district" />
		<tag k="name" v="Ramsåsen" />
		<tag k="natural" v="hill" />
		<tag k="place" v="locality" />
		<tag k="ssr:stedsnr" v="764269" />
	</node>
	<node id="-366827" lat="58.337786111" lon="7.31248888758">
		<tag k="name" v="Sletthei" />
		<tag k="natural" v="hill" />
		<tag k="place" v="locality" />
		<tag k="ssr:stedsnr" v="764267" />
	</node>
	<node id="-366826" lat="58.3109694426" lon="7.33293888913">
		<tag k="name" v="Grasdalen" />
		<tag k="natural" v="valley" />
		<tag k="place" v="locality" />
		<tag k="ssr:stedsnr" v="764264" />
	</node>
	<node id="-366824" lat="58.4687833327" lon="7.44851666936">
		<tag k="name" v="Steinkleiv" />
		<tag k="natural" v="slope" />
		<tag k="place" v="locality" />
		<tag k="ssr:stedsnr" v="764107" />
	</node>
	<node id="-362725" lat="58.4439583303" lon="7.41146944123">
		<tag k="name" v="Ribben" />
		<tag k="natural" v="ridge" />
		<tag k="place" v="locality" />
		<tag k="ssr:stedsnr" v="280312" />
	</node>
	<node id="-366818" lat="58.4332833345" lon="7.34856111164">
		<tag k="fixme" v="consider natural=peak for the most distinct mountains in the district" />
		<tag k="loc_name" v="Ørnefjeddæ" />
		<tag k="name" v="Ørnefjell" />
		<tag k="natural" v="hill" />
		<tag k="place" v="locality" />
		<tag k="ssr:stedsnr" v="728875" />
	</node>
	<node id="-362721" lat="58.4472944433" lon="7.35708610894">
		<tag k="loc_name" v="Inni Klevæn" />
		<tag k="name" v="Kleven" />
		<tag k="natural" v="valley" />
		<tag k="place" v="locality" />
		<tag k="ssr:stedsnr" v="280079" />
	</node>
	<node id="-362720" lat="58.4185750039" lon="7.35506944031">
		<tag k="name" v="Setesdal" />
		<tag k="natural" v="valley" />
		<tag k="place" v="locality" />
		<tag k="ssr:stedsnr" v="280054" />
	</node>
	<node id="-362718" lat="58.3390444458" lon="7.35400832759">
		<tag k="name" v="Raunestø" />
		<tag k="natural" v="valley" />
		<tag k="place" v="locality" />
		<tag k="ssr:stedsnr" v="279999" />
	</node>
	<node id="-362717" lat="58.3418833342" lon="7.3608749946">
		<tag k="name" v="Måbergslia" />
		<tag k="natural" v="slope" />
		<tag k="place" v="locality" />
		<tag k="ssr:stedsnr" v="279998" />
	</node>
	<node id="-362713" lat="58.2870722268" lon="7.26738334107">
		<tag k="name" v="Borgevollen" />
		<tag k="natural" v="slope" />
		<tag k="place" v="locality" />
		<tag k="ssr:stedsnr" v="279917" />
	</node>
	<node id="-362712" lat="58.2968555567" lon="7.34196944684">
		<tag k="name" v="Linneskaret" />
		<tag k="natural" v="valley" />
		<tag k="place" v="locality" />
		<tag k="ssr:stedsnr" v="279915" />
	</node>
	<node id="-362711" lat="58.3129249967" lon="7.40472222145">
		<tag k="name" v="Utjordheia" />
		<tag k="natural" v="hill" />
		<tag k="place" v="locality" />
		<tag k="ssr:stedsnr" v="279904" />
	</node>
	<node id="-362710" lat="58.3084583343" lon="7.35297222231">
		<tag k="name" v="Skarkedalsskotet" />
		<tag k="natural" v="valley" />
		<tag k="place" v="locality" />
		<tag k="ssr:stedsnr" v="279899" />
	</node>
	<node id="-362709" lat="58.3106777779" lon="7.34567222589">
		<tag k="loc_name" v="Stødalan" />
		<tag k="name" v="Stødalen" />
		<tag k="natural" v="valley" />
		<tag k="place" v="locality" />
		<tag k="ssr:stedsnr" v="279892" />
	</node>
	<node id="-362704" lat="58.24532222" lon="7.35357222464">
		<tag k="fixme" v="consider natural=peak for the most distinct mountains in the district" />
		<tag k="name" v="Skiptingsåsen" />
		<tag k="natural" v="hill" />
		<tag k="place" v="locality" />
		<tag k="ssr:stedsnr" v="279869" />
	</node>
	<node id="-362703" lat="58.2486472227" lon="7.3362055634">
		<tag k="loc_name" v="Høgastøå" />
		<tag k="name" v="Høgstøa" />
		<tag k="natural" v="hill" />
		<tag k="place" v="locality" />
		<tag k="ssr:stedsnr" v="279859" />
	</node>
	<node id="-362702" lat="58.2341000033" lon="7.33178610401">
		<tag k="loc_name" v="Kjodringheiå" />
		<tag k="name" v="Kjodringshei" />
		<tag k="natural" v="hill" />
		<tag k="place" v="locality" />
		<tag k="ssr:stedsnr" v="279857" />
	</node>
	<node id="-362701" lat="58.2797777801" lon="7.4015527808">
		<tag k="loc_name" v="Hagefjelle" />
		<tag k="name" v="Hagefjellet" />
		<tag k="natural" v="ridge" />
		<tag k="place" v="locality" />
		<tag k="ssr:stedsnr" v="279851" />
	</node>
	<node id="-362700" lat="58.2794694445" lon="7.39898888222">
		<tag k="loc_name" v="Tinnkleivå" />
		<tag k="name" v="Tinnkleiva" />
		<tag k="natural" v="valley" />
		<tag k="place" v="locality" />
		<tag k="ssr:stedsnr" v="279850" />
	</node>
	<node id="-362699" lat="58.2644472207" lon="7.29961667386">
		<tag k="name" v="Kniben" />
		<tag k="natural" v="hill" />
		<tag k="place" v="locality" />
		<tag k="ssr:stedsnr" v="279844" />
	</node>
	<node id="-362698" lat="58.2525499958" lon="7.32719999829">
		<tag k="name" v="Kvernhusdalen" />
		<tag k="natural" v="valley" />
		<tag k="place" v="locality" />
		<tag k="ssr:stedsnr" v="279835" />
	</node>
	<node id="-362695" lat="58.2547472186" lon="7.2724222206">
		<tag k="loc_name" v="Mjåvannsheiå" />
		<tag k="name" v="Mjåvannshei" />
		<tag k="natural" v="hill" />
		<tag k="place" v="locality" />
		<tag k="ssr:stedsnr" v="279774" />
	</node>
	<node id="-362691" lat="58.2429500027" lon="7.41381666748">
		<tag k="name" v="Krågebakkan" />
		<tag k="natural" v="hill" />
		<tag k="place" v="locality" />
		<tag k="ssr:stedsnr" v="279761" />
	</node>
	<node id="-362690" lat="58.4151888858" lon="7.43717776958">
		<tag k="name" v="Store Breidal" />
		<tag k="natural" v="valley" />
		<tag k="place" v="locality" />
		<tag k="ssr:stedsnr" v="279362" />
	</node>
	<node id="-362689" lat="58.4191888854" lon="7.42218333074">
		<tag k="name" v="Trædalen" />
		<tag k="natural" v="valley" />
		<tag k="place" v="locality" />
		<tag k="ssr:stedsnr" v="279357" />
	</node>
	<node id="-362688" lat="58.4280805574" lon="7.47650832821">
		<tag k="name" v="Skogedalen" />
		<tag k="natural" v="valley" />
		<tag k="place" v="locality" />
		<tag k="ssr:stedsnr" v="279352" />
	</node>
	<node id="-362687" lat="58.4237305583" lon="7.35632221661">
		<tag k="name" v="Skoddedalsrinnan" />
		<tag k="natural" v="ridge" />
		<tag k="place" v="locality" />
		<tag k="ssr:stedsnr" v="279323" />
	</node>
	<node id="-362686" lat="58.3947944461" lon="7.33327500502">
		<tag k="name" v="Midtheia" />
		<tag k="natural" v="hill" />
		<tag k="place" v="locality" />
		<tag k="ssr:stedsnr" v="279317" />
	</node>
	<node id="-362685" lat="58.2926138902" lon="7.33607778393">
		<tag k="name" v="Skaren" />
		<tag k="natural" v="slope" />
		<tag k="place" v="locality" />
		<tag k="ssr:stedsnr" v="279314" />
	</node>
	<node id="-362683" lat="58.2401527812" lon="7.36390554922">
		<tag k="fixme" v="consider natural=peak for the most distinct mountains in the district" />
		<tag k="name" v="Åsen" />
		<tag k="natural" v="hill" />
		<tag k="place" v="locality" />
		<tag k="ssr:stedsnr" v="279277" />
	</node>
	<node id="-362681" lat="58.2499972232" lon="7.27221389349">
		<tag k="loc_name" v="Eikebøheia" />
		<tag k="name" v="Eigebøheia" />
		<tag k="natural" v="hill" />
		<tag k="place" v="locality" />
		<tag k="ssr:stedsnr" v="279259" />
	</node>
	<node id="-362680" lat="58.5000222245" lon="7.37375832694">
		<tag k="name" v="Lislåta" />
		<tag k="natural" v="slope" />
		<tag k="place" v="locality" />
		<tag k="ssr:stedsnr" v="279198" />
	</node>
	<node id="-362679" lat="58.476758332" lon="7.35792221742">
		<tag k="fixme" v="consider natural=peak for the most distinct mountains in the district" />
		<tag k="name" v="Trodalheia" />
		<tag k="natural" v="hill" />
		<tag k="place" v="locality" />
		<tag k="ssr:stedsnr" v="279188" />
	</node>
	<node id="-362678" lat="58.4773750017" lon="7.36184721739">
		<tag k="name" v="Trodalen" />
		<tag k="natural" v="valley" />
		<tag k="place" v="locality" />
		<tag k="ssr:stedsnr" v="279186" />
	</node>
	<node id="-362677" lat="58.4823305577" lon="7.3812111077">
		<tag k="name" v="Holtan" />
		<tag k="natural" v="slope" />
		<tag k="place" v="locality" />
		<tag k="ssr:stedsnr" v="279147" />
	</node>
	<node id="-362676" lat="58.4530416629" lon="7.45558055414">
		<tag k="fixme" v="consider natural=peak for the most distinct mountains in the district" />
		<tag k="name" v="Smeddarknuten" />
		<tag k="natural" v="hill" />
		<tag k="place" v="locality" />
		<tag k="ssr:stedsnr" v="279143" />
	</node>
	<node id="-362675" lat="58.4535000012" lon="7.3879611029">
		<tag k="loc_name" v="Blikæfjeddstøæ" />
		<tag k="name" v="Blikefjellstø" />
		<tag k="natural" v="valley" />
		<tag k="place" v="locality" />
		<tag k="ssr:stedsnr" v="279138" />
	</node>
	<node id="-362674" lat="58.4940083289" lon="7.39003333893">
		<tag k="loc_name" v="Grauteberjet" />
		<tag k="name" v="Grauteberget" />
		<tag k="natural" v="hill" />
		<tag k="place" v="locality" />
		<tag k="ssr:stedsnr" v="279128" />
	</node>
	<node id="-362671" lat="58.4705583314" lon="7.45818611892">
		<tag k="name" v="Hestebakken" />
		<tag k="natural" v="slope" />
		<tag k="place" v="locality" />
		<tag k="ssr:stedsnr" v="279107" />
	</node>
	<node id="-362670" lat="58.3893027765" lon="7.36348055119">
		<tag k="name" v="Tjovhedderen" />
		<tag k="place" v="locality" />
		<tag k="ssr:stedsnr" v="280040" />
	</node>
	<node id="-362669" lat="58.3938527795" lon="7.39048610825">
		<tag k="name" v="Rusten" />
		<tag k="natural" v="hill" />
		<tag k="place" v="locality" />
		<tag k="ssr:stedsnr" v="280039" />
	</node>
	<node id="-362668" lat="58.3948750042" lon="7.35966111226">
		<tag k="name" v="Røyflaten" />
		<tag k="natural" v="hill" />
		<tag k="place" v="locality" />
		<tag k="ssr:stedsnr" v="280036" />
	</node>
	<node id="-362667" lat="58.3652055554" lon="7.34499166283">
		<tag k="name" v="Langeskor" />
		<tag k="place" v="locality" />
		<tag k="ssr:stedsnr" v="280021" />
	</node>
	<node id="-362666" lat="58.3647833309" lon="7.3504555493">
		<tag k="name" v="Sletan" />
		<tag k="place" v="locality" />
		<tag k="ssr:stedsnr" v="280020" />
	</node>
	<node id="-362664" lat="58.3767972184" lon="7.35471665941">
		<tag k="name" v="Sandkleiv" />
		<tag k="natural" v="slope" />
		<tag k="place" v="locality" />
		<tag k="ssr:stedsnr" v="280007" />
	</node>
	<node id="-364680" lat="58.3359138847" lon="7.42651944206">
		<tag k="name" v="Lauvhei" />
		<tag k="natural" v="hill" />
		<tag k="place" v="locality" />
		<tag k="ssr:stedsnr" v="158993" />
	</node>
	<node id="-364679" lat="58.3053305522" lon="7.34400556032">
		<tag k="fixme" v="consider natural=peak for the most distinct mountains in the district" />
		<tag k="name" v="Heiersåsen" />
		<tag k="natural" v="hill" />
		<tag k="place" v="locality" />
		<tag k="ssr:stedsnr" v="158899" />
	</node>
	<node id="-364674" lat="58.2454222237" lon="7.28324166681">
		<tag k="fixme" v="consider natural=peak for the most distinct mountains in the district" />
		<tag k="loc_name" v="Slåteheifjellet" />
		<tag k="name" v="Slåtteheifjellet" />
		<tag k="natural" v="hill" />
		<tag k="place" v="locality" />
		<tag k="ssr:stedsnr" v="158841" />
	</node>
	<node id="-364672" lat="58.2703305558" lon="7.34275278108">
		<tag k="fixme" v="consider natural=peak for the most distinct mountains in the district" />
		<tag k="name" v="Midthei" />
		<tag k="natural" v="hill" />
		<tag k="place" v="locality" />
		<tag k="ssr:stedsnr" v="158828" />
	</node>
	<node id="-364671" lat="58.2520750021" lon="7.27386944922">
		<tag k="name" v="Kovehei" />
		<tag k="natural" v="hill" />
		<tag k="place" v="locality" />
		<tag k="ssr:stedsnr" v="158783" />
	</node>
	<node id="-364666" lat="58.3558194444" lon="7.35208332946">
		<tag k="name" v="Ringebrokka" />
		<tag k="natural" v="slope" />
		<tag k="place" v="locality" />
		<tag k="ssr:stedsnr" v="158963" />
	</node>
	<node id="-364665" lat="58.3574888884" lon="7.31185556219">
		<tag k="name" v="Lemmen" />
		<tag k="natural" v="ridge" />
		<tag k="place" v="locality" />
		<tag k="ssr:stedsnr" v="158962" />
	</node>
	<node id="-364663" lat="58.278344444" lon="7.30876944809">
		<tag k="name" v="Langemyrbakken" />
		<tag k="natural" v="ridge" />
		<tag k="place" v="locality" />
		<tag k="ssr:stedsnr" v="158948" />
	</node>
	<node id="-364662" lat="58.2816805526" lon="7.39210833975">
		<tag k="name" v="Åmdalen" />
		<tag k="natural" v="valley" />
		<tag k="place" v="locality" />
		<tag k="ssr:stedsnr" v="158919" />
	</node>
	<node id="-364661" lat="58.3147000014" lon="7.37679444497">
		<tag k="name" v="Einardalen" />
		<tag k="natural" v="valley" />
		<tag k="place" v="locality" />
		<tag k="ssr:stedsnr" v="158914" />
	</node>
	<node id="-364660" lat="58.291997225" lon="7.31478055798">
		<tag k="fixme" v="consider natural=peak for the most distinct mountains in the district" />
		<tag k="loc_name" v="Lyknuden" />
		<tag k="name" v="Lyknuten" />
		<tag k="natural" v="hill" />
		<tag k="place" v="locality" />
		<tag k="ssr:stedsnr" v="158406" />
	</node>
	<node id="-364659" lat="58.4124277766" lon="7.41162221535">
		<tag k="fixme" v="consider natural=peak for the most distinct mountains in the district" />
		<tag k="name" v="Høgåsen" />
		<tag k="natural" v="hill" />
		<tag k="place" v="locality" />
		<tag k="ssr:stedsnr" v="158391" />
	</node>
	<node id="-364658" lat="58.4505194481" lon="7.36286667469">
		<tag k="loc_name" v="Bånnskohei" />
		<tag k="name" v="Bånskohei" />
		<tag k="natural" v="hill" />
		<tag k="place" v="locality" />
		<tag k="ssr:stedsnr" v="158386" />
	</node>
	<node id="-364657" lat="58.4244361075" lon="7.41786388857">
		<tag k="name" v="Lian" />
		<tag k="natural" v="slope" />
		<tag k="place" v="locality" />
		<tag k="ssr:stedsnr" v="158373" />
	</node>
	<node id="-364656" lat="58.4186638893" lon="7.453033334">
		<tag k="name" v="Høgåsen" />
		<tag k="natural" v="hill" />
		<tag k="place" v="locality" />
		<tag k="ssr:stedsnr" v="158371" />
	</node>
	<node id="-364655" lat="58.4373388881" lon="7.48313333551">
		<tag k="loc_name" v="Ryllensfjeddan" />
		<tag k="name" v="Ryllensfjell" />
		<tag k="natural" v="hill" />
		<tag k="place" v="locality" />
		<tag k="ssr:stedsnr" v="158355" />
	</node>
	<node id="-364654" lat="58.3768305566" lon="7.32276944707">
		<tag k="name" v="Blomlidalen" />
		<tag k="natural" v="valley" />
		<tag k="place" v="locality" />
		<tag k="ssr:stedsnr" v="158350" />
	</node>
	<node id="-364653" lat="58.3267500033" lon="7.33342221598">
		<tag k="fixme" v="consider natural=peak for the most distinct mountains in the district" />
		<tag k="name" v="Knivåsen" />
		<tag k="natural" v="hill" />
		<tag k="place" v="locality" />
		<tag k="ssr:stedsnr" v="158342" />
	</node>
	<node id="-364652" lat="58.3321694439" lon="7.30845832493">
		<tag k="fixme" v="consider natural=peak for the most distinct mountains in the district" />
		<tag k="name" v="Skaråsen" />
		<tag k="natural" v="hill" />
		<tag k="place" v="locality" />
		<tag k="ssr:stedsnr" v="158343" />
	</node>
	<node id="-364651" lat="58.3356083292" lon="7.38110000767">
		<tag k="name" v="Martensheia" />
		<tag k="natural" v="hill" />
		<tag k="place" v="locality" />
		<tag k="ssr:stedsnr" v="158341" />
	</node>
	<node id="-364650" lat="58.2948833355" lon="7.3025361045">
		<tag k="name" v="Paddåsholtan" />
		<tag k="natural" v="slope" />
		<tag k="place" v="locality" />
		<tag k="ssr:stedsnr" v="158326" />
	</node>
	<node id="-364649" lat="58.2960777801" lon="7.3710333287">
		<tag k="name" v="Hunsdalslia" />
		<tag k="natural" v="slope" />
		<tag k="place" v="locality" />
		<tag k="ssr:stedsnr" v="158324" />
	</node>
	<node id="-364648" lat="58.2836805594" lon="7.30180555574">
		<tag k="name" v="Vardehei" />
		<tag k="natural" v="hill" />
		<tag k="place" v="locality" />
		<tag k="ssr:stedsnr" v="158316" />
	</node>
	<node id="-364647" lat="58.3389249972" lon="7.32720832594">
		<tag k="name" v="Hellevannshei" />
		<tag k="natural" v="hill" />
		<tag k="place" v="locality" />
		<tag k="ssr:stedsnr" v="158310" />
	</node>
	<node id="-364645" lat="58.2589777755" lon="7.35797778335">
		<tag k="name" v="Tormestidalen" />
		<tag k="natural" v="valley" />
		<tag k="place" v="locality" />
		<tag k="ssr:stedsnr" v="158286" />
	</node>
	<node id="-364644" lat="58.2499388869" lon="7.40725278076">
		<tag k="name" v="Haukre" />
		<tag k="natural" v="valley" />
		<tag k="place" v="locality" />
		<tag k="ssr:stedsnr" v="158282" />
	</node>
	<node id="-364643" lat="58.2600194478" lon="7.32808332628">
		<tag k="name" v="Bydingsdalen" />
		<tag k="natural" v="valley" />
		<tag k="place" v="locality" />
		<tag k="ssr:stedsnr" v="158275" />
	</node>
	<node id="-364641" lat="58.4693888926" lon="7.4107833371">
		<tag k="fixme" v="consider natural=peak for the most distinct mountains in the district" />
		<tag k="name" v="Langemohei" />
		<tag k="natural" v="hill" />
		<tag k="place" v="locality" />
		<tag k="ssr:stedsnr" v="158158" />
	</node>
	<node id="-364640" lat="58.4484722197" lon="7.44948610726">
		<tag k="name" v="Solfjell" />
		<tag k="natural" v="hill" />
		<tag k="place" v="locality" />
		<tag k="ssr:stedsnr" v="158144" />
	</node>
	<node id="-364639" lat="58.4476861069" lon="7.41986110955">
		<tag k="fixme" v="consider natural=peak for the most distinct mountains in the district" />
		<tag k="name" v="Hægåsen" />
		<tag k="natural" v="hill" />
		<tag k="place" v="locality" />
		<tag k="ssr:stedsnr" v="158139" />
	</node>
	<node id="-364637" lat="58.418094444" lon="7.47007500116">
		<tag k="name" v="Sidalen" />
		<tag k="natural" v="valley" />
		<tag k="place" v="locality" />
		<tag k="ssr:stedsnr" v="158121" />
	</node>
	<node id="-364636" lat="58.4162972243" lon="7.46575833773">
		<tag k="name" v="Årestø" />
		<tag k="natural" v="slope" />
		<tag k="place" v="locality" />
		<tag k="ssr:stedsnr" v="158118" />
	</node>
	<node id="-364633" lat="58.410741669" lon="7.3635777727">
		<tag k="fixme" v="consider natural=peak for the most distinct mountains in the district" />
		<tag k="name" v="Skjebrofjellet" />
		<tag k="natural" v="hill" />
		<tag k="place" v="locality" />
		<tag k="ssr:stedsnr" v="158085" />
	</node>
	<node id="-364632" lat="58.4195694474" lon="7.38854444348">
		<tag k="fixme" v="consider natural=peak for the most distinct mountains in the district" />
		<tag k="name" v="Furåsen" />
		<tag k="natural" v="hill" />
		<tag k="place" v="locality" />
		<tag k="ssr:stedsnr" v="158081" />
	</node>
	<node id="-364628" lat="58.3672055558" lon="7.34691666453">
		<tag k="name" v="Gullestø" />
		<tag k="natural" v="slope" />
		<tag k="place" v="locality" />
		<tag k="ssr:stedsnr" v="158041" />
	</node>
	<node id="-364624" lat="58.368575001" lon="7.35513055409">
		<tag k="name" v="Høylandslia" />
		<tag k="natural" v="slope" />
		<tag k="place" v="locality" />
		<tag k="ssr:stedsnr" v="158033" />
	</node>
	<node id="-364621" lat="58.3763638903" lon="7.37500278217">
		<tag k="name" v="Kalveskora" />
		<tag k="place" v="locality" />
		<tag k="ssr:stedsnr" v="158014" />
	</node>
	<node id="-364620" lat="58.376238891" lon="7.35798332503">
		<tag k="name" v="Kvassekleiv" />
		<tag k="natural" v="slope" />
		<tag k="place" v="locality" />
		<tag k="ssr:stedsnr" v="158011" />
	</node>
	<node id="-364619" lat="58.3770638903" lon="7.3703666649">
		<tag k="name" v="Tainlaie" />
		<tag k="place" v="locality" />
		<tag k="ssr:stedsnr" v="158007" />
	</node>
	<node id="-364618" lat="58.393244448" lon="7.42515000219">
		<tag k="fixme" v="consider natural=peak for the most distinct mountains in the district" />
		<tag k="name" v="Spydalsknuten" />
		<tag k="natural" v="hill" />
		<tag k="place" v="locality" />
		<tag k="ssr:stedsnr" v="158254" />
	</node>
	<node id="-364617" lat="58.2605416643" lon="7.38183332982">
		<tag k="name" v="Øyan" />
		<tag k="natural" v="hill" />
		<tag k="place" v="locality" />
		<tag k="ssr:stedsnr" v="158253" />
	</node>
	<node id="-364615" lat="58.3488472259" lon="7.3920111166">
		<tag k="name" v="Under Lian" />
		<tag k="natural" v="slope" />
		<tag k="place" v="locality" />
		<tag k="ssr:stedsnr" v="158250" />
	</node>
	<node id="-364611" lat="58.4670972226" lon="7.38723332932">
		<tag k="loc_name" v="Enkjerfjeddan" />
		<tag k="name" v="Enkjerfjellet" />
		<tag k="natural" v="hill" />
		<tag k="place" v="locality" />
		<tag k="ssr:stedsnr" v="157108" />
	</node>
	<node id="-364610" lat="58.4634000012" lon="7.37697222626">
		<tag k="name" v="Åsen" />
		<tag k="natural" v="hill" />
		<tag k="place" v="locality" />
		<tag k="ssr:stedsnr" v="157105" />
	</node>
	<node id="-364609" lat="58.4746916711" lon="7.44882221531">
		<tag k="fixme" v="consider natural=peak for the most distinct mountains in the district" />
		<tag k="name" v="Skarehei" />
		<tag k="natural" v="hill" />
		<tag k="place" v="locality" />
		<tag k="ssr:stedsnr" v="157097" />
	</node>
	<node id="-364607" lat="58.3864222255" lon="7.41318054918">
		<tag k="alt_name" v="Klovsteinheia" />
		<tag k="name" v="Klovsteinsheii" />
		<tag k="natural" v="hill" />
		<tag k="place" v="locality" />
		<tag k="ssr:stedsnr" v="121983" />
	</node>
	<node id="-364605" lat="58.3719555512" lon="7.40884721704">
		<tag k="fixme" v="consider natural=peak for the most distinct mountains in the district" />
		<tag k="loc_name" v="Skifjedde" />
		<tag k="name" v="Skifjell" />
		<tag k="natural" v="hill" />
		<tag k="place" v="locality" />
		<tag k="ssr:stedsnr" v="121941" />
	</node>
</osm>
