<?xml version="1.0" encoding="UTF-8"?>
<osm generator="osmapis" version="0.6">
	<node id="-365056" lat="58.387141666" lon="7.42590277236">
		<tag k="name" v="Dalan" />
		<tag k="place" v="farm" />
		<tag k="ssr:stedsnr" v="121989" />
	</node>
	<node id="-368410" lat="58.42423939" lon="7.34874683939">
		<tag k="fixme" v="consider place=hamlet" />
		<tag k="name" v="Skåt" />
		<tag k="place" v="farm" />
		<tag k="ssr:stedsnr" v="979403" />
	</node>
	<node id="-365397" lat="58.3226416699" lon="7.37061388067">
		<tag k="alt_name" v="Øydnesklev" />
		<tag k="fixme" v="consider place=hamlet" />
		<tag k="name" v="Øydneskleiv" />
		<tag k="place" v="farm" />
		<tag k="ssr:stedsnr" v="182745" />
	</node>
	<node id="-365051" lat="58.2968861095" lon="7.37818055123">
		<tag k="alt_name" v="Hunsdal" />
		<tag k="fixme" v="consider place=hamlet" />
		<tag k="name" v="Hundsdal" />
		<tag k="place" v="farm" />
		<tag k="ssr:stedsnr" v="121855" />
	</node>
	<node id="-365047" lat="58.4992361118" lon="7.48148054872">
		<tag k="name" v="Fugletveit" />
		<tag k="place" v="farm" />
		<tag k="ssr:stedsnr" v="121609" />
	</node>
	<node id="-365046" lat="58.4755944442" lon="7.46792499484">
		<tag k="fixme" v="consider place=hamlet" />
		<tag k="name" v="Kollungtveit" />
		<tag k="place" v="farm" />
		<tag k="ssr:stedsnr" v="121571" />
	</node>
	<node id="-365045" lat="58.3047166703" lon="7.34056388191">
		<tag k="alt_name" v="Høylungbakken" />
		<tag k="name" v="Høylombakken" />
		<tag k="place" v="locality" />
		<tag k="ssr:stedsnr" v="121534" />
	</node>
	<node id="-365043" lat="58.2903777814" lon="7.27155832718">
		<tag k="fixme" v="consider place=hamlet" />
		<tag k="name" v="Åbestad" />
		<tag k="place" v="farm" />
		<tag k="ssr:stedsnr" v="121521" />
	</node>
	<node id="-365042" lat="58.4632027739" lon="7.42603610809">
		<tag k="name" v="Bronnesdal" />
		<tag k="place" v="farm" />
		<tag k="ssr:stedsnr" v="121266" />
	</node>
	<node id="-368113" lat="58.3738805531" lon="7.37766944569">
		<tag k="name" v="Fjaddåkeren" />
		<tag k="place" v="farm" />
		<tag k="ssr:stedsnr" v="947021" />
	</node>
	<node id="-365040" lat="58.4632722206" lon="7.4271666677">
		<tag k="fixme" v="consider place=hamlet" />
		<tag k="name" v="Bronnesdal" />
		<tag k="place" v="farm" />
		<tag k="ssr:stedsnr" v="121229" />
	</node>
	<node id="-367595" lat="58.4885138889" lon="7.46647222881">
		<tag k="fixme" v="consider place=hamlet" />
		<tag k="name" v="Sveindal" />
		<tag k="place" v="village" />
		<tag k="ssr:stedsnr" v="813148" />
	</node>
	<node id="-367593" lat="58.359913891" lon="7.40405000488">
		<tag k="alt_name" v="Ytre Ågedal" />
		<tag k="fixme" v="consider place=hamlet" />
		<tag k="name" v="Ågedal" />
		<tag k="place" v="farm" />
		<tag k="ssr:stedsnr" v="789969" />
	</node>
	<node id="-368104" lat="58.4569805564" lon="7.42503610325">
		<tag k="alt_name" v="Botnan" />
		<tag k="fixme" v="consider place=hamlet" />
		<tag k="name" v="Vassbotnen" />
		<tag k="place" v="farm" />
		<tag k="ssr:stedsnr" v="910921" />
	</node>
	<node id="-368103" lat="58.4090055524" lon="7.41921110855">
		<tag k="name" v="Ågedal" />
		<tag k="place" v="farm" />
		<tag k="ssr:stedsnr" v="910905" />
	</node>
	<node id="-368102" lat="58.4213861138" lon="7.40276667437">
		<tag k="fixme" v="consider place=hamlet" />
		<tag k="name" v="Byremo" />
		<tag k="place" v="village" />
		<tag k="ssr:stedsnr" v="910893" />
	</node>
	<node id="-368101" lat="58.2852944423" lon="7.35600834065">
		<tag k="fixme" v="consider place=hamlet" />
		<tag k="name" v="Konsmo" />
		<tag k="place" v="village" />
		<tag k="ssr:stedsnr" v="910880" />
	</node>
	<node id="-368100" lat="58.2999250038" lon="7.35935555761">
		<tag k="name" v="Monan" />
		<tag k="place" v="farm" />
		<tag k="ssr:stedsnr" v="910864" />
	</node>
	<node id="-367587" lat="58.3307138909" lon="7.39949999281">
		<tag k="name" v="Midtbø" />
		<tag k="place" v="farm" />
		<tag k="ssr:stedsnr" v="789767" />
	</node>
	<node id="-367586" lat="58.2301527768" lon="7.35991667271">
		<tag k="alt_name" v="Bumyrdal" />
		<tag k="name" v="Bumyrdalen" />
		<tag k="place" v="isolated_dwelling" />
		<tag k="ssr:stedsnr" v="789735" />
	</node>
	<node id="-368097" lat="58.3378388867" lon="7.37367777922">
		<tag k="alt_name" v="Langneset" />
		<tag k="fixme" v="consider place=hamlet" />
		<tag k="name" v="Langsneset" />
		<tag k="place" v="farm" />
		<tag k="ssr:stedsnr" v="910800" />
	</node>
	<node id="-368096" lat="58.2379194484" lon="7.36418888721">
		<tag k="fixme" v="consider place=hamlet" />
		<tag k="name" v="Listad" />
		<tag k="place" v="farm" />
		<tag k="ssr:stedsnr" v="910647" />
	</node>
	<node id="-367583" lat="58.3707638873" lon="7.35989999319">
		<tag k="alt_name" v="Øydna, yt;Ytre Øydne" />
		<tag k="fixme" v="consider place=hamlet" />
		<tag k="name" v="Ytre Øydna" />
		<tag k="place" v="farm" />
		<tag k="ssr:stedsnr" v="788944" />
	</node>
	<node id="-367581" lat="58.4457750009" lon="7.41877778406">
		<tag k="name" v="Grindheim" />
		<tag k="place" v="farm" />
		<tag k="ssr:stedsnr" v="788905" />
	</node>
	<node id="-367579" lat="58.2994944408" lon="7.30195278209">
		<tag k="fixme" v="consider place=hamlet" />
		<tag k="name" v="Koveland" />
		<tag k="place" v="farm" />
		<tag k="ssr:stedsnr" v="788522" />
	</node>
	<node id="-365391" lat="58.4760777767" lon="7.41650832691">
		<tag k="fixme" v="consider place=hamlet" />
		<tag k="name" v="Håland" />
		<tag k="place" v="farm" />
		<tag k="ssr:stedsnr" v="182573" />
	</node>
	<node id="-363472" lat="58.4898361068" lon="7.48339722922">
		<tag k="name" v="Lian" />
		<tag k="place" v="farm" />
		<tag k="ssr:stedsnr" v="340168" />
	</node>
	<node id="-366030" lat="58.3253722225" lon="7.40755277812">
		<tag k="fixme" v="consider place=hamlet" />
		<tag k="name" v="Kisland" />
		<tag k="place" v="farm" />
		<tag k="ssr:stedsnr" v="522966" />
	</node>
	<node id="-365389" lat="58.2803416699" lon="7.29245000139">
		<tag k="loc_name" v="Der Auste" />
		<tag k="name" v="Barstad" />
		<tag k="place" v="farm" />
		<tag k="ssr:stedsnr" v="182493" />
	</node>
	<node id="-363429" lat="58.2822361112" lon="7.33393889332">
		<tag k="alt_name" v="Eigebø" />
		<tag k="name" v="Eikebø" />
		<tag k="place" v="farm" />
		<tag k="ssr:stedsnr" v="303507" />
	</node>
	<node id="-363515" lat="58.2462277761" lon="7.34256110894">
		<tag k="fixme" v="consider place=hamlet" />
		<tag k="name" v="Indre Skår" />
		<tag k="place" v="farm" />
		<tag k="ssr:stedsnr" v="340861" />
	</node>
	<node id="-364473" lat="58.3254777812" lon="7.3933000083">
		<tag k="fixme" v="consider place=hamlet" />
		<tag k="name" v="Røysen" />
		<tag k="place" v="farm" />
		<tag k="ssr:stedsnr" v="37988" />
	</node>
	<node id="-363441" lat="58.4424111114" lon="7.35940555653">
		<tag k="fixme" v="consider place=hamlet" />
		<tag k="name" v="Vårdal" />
		<tag k="place" v="farm" />
		<tag k="ssr:stedsnr" v="303921" />
	</node>
	<node id="-363440" lat="58.4122305585" lon="7.40044443586">
		<tag k="alt_name" v="Revsnes" />
		<tag k="loc_name" v="Der heima" />
		<tag k="name" v="Refsnes" />
		<tag k="place" v="farm" />
		<tag k="ssr:stedsnr" v="303902" />
	</node>
	<node id="-363439" lat="58.4072944458" lon="7.42035000407">
		<tag k="name" v="Dynjan" />
		<tag k="place" v="farm" />
		<tag k="ssr:stedsnr" v="303901" />
	</node>
	<node id="-364462" lat="58.3238361112" lon="7.29354166925">
		<tag k="name" v="Øvre Eikeland" />
		<tag k="place" v="locality" />
		<tag k="ssr:stedsnr" v="37791" />
	</node>
	<node id="-363437" lat="58.2756833358" lon="7.39905833756">
		<tag k="loc_name" v="Der Heima" />
		<tag k="name" v="Espeland" />
		<tag k="place" v="farm" />
		<tag k="ssr:stedsnr" v="303859" />
	</node>
	<node id="-363434" lat="58.2616777742" lon="7.27996666524">
		<tag k="fixme" v="consider place=hamlet" />
		<tag k="name" v="Risdal" />
		<tag k="place" v="farm" />
		<tag k="ssr:stedsnr" v="303607" />
	</node>
	<node id="-363433" lat="58.2545888852" lon="7.32427778214">
		<tag k="alt_name" v="Eigeland" />
		<tag k="name" v="Eikeland" />
		<tag k="place" v="farm" />
		<tag k="ssr:stedsnr" v="303602" />
	</node>
	<node id="-363431" lat="58.3218999965" lon="7.2984388836">
		<tag k="name" v="Eikeland" />
		<tag k="place" v="farm" />
		<tag k="ssr:stedsnr" v="303544" />
	</node>
	<node id="-363855" lat="58.3634416666" lon="7.34162499476">
		<tag k="loc_name" v="Der inne" />
		<tag k="name" v="Furebakkjen" />
		<tag k="place" v="farm" />
		<tag k="ssr:stedsnr" v="401963" />
	</node>
	<node id="-365041" lat="58.4649888896" lon="7.42816943764">
		<tag k="name" v="Bronnesdal" />
		<tag k="place" v="farm" />
		<tag k="ssr:stedsnr" v="121230" />
	</node>
	<node id="-364962" lat="58.4276750019" lon="7.36346388467">
		<tag k="loc_name" v="Slettåsen" />
		<tag k="name" v="Sletåsen" />
		<tag k="place" v="farm" />
		<tag k="ssr:stedsnr" v="111533" />
	</node>
	<node id="-365472" lat="58.3228083333" lon="7.39857777009">
		<tag k="name" v="Voddan" />
		<tag k="place" v="farm" />
		<tag k="ssr:stedsnr" v="219977" />
	</node>
	<node id="-365464" lat="58.2803555577" lon="7.29091388096">
		<tag k="loc_name" v="Hampen" />
		<tag k="name" v="Hagen" />
		<tag k="place" v="farm" />
		<tag k="ssr:stedsnr" v="219939" />
	</node>
	<node id="-364439" lat="58.4298972227" lon="7.32448889618">
		<tag k="name" v="Løland" />
		<tag k="place" v="isolated_dwelling" />
		<tag k="ssr:stedsnr" v="37054" />
	</node>
	<node id="-365959" lat="58.371227782" lon="7.35783332498">
		<tag k="loc_name" v="Der oppe i Samloga" />
		<tag k="name" v="Samloka" />
		<tag k="place" v="farm" />
		<tag k="ssr:stedsnr" v="522017" />
	</node>
	<node id="-365954" lat="58.4135638922" lon="7.41750000773">
		<tag k="name" v="Åmot" />
		<tag k="place" v="farm" />
		<tag k="ssr:stedsnr" v="485878" />
	</node>
	<node id="-364417" lat="58.2434583363" lon="7.36636388347">
		<tag k="loc_name" v="Myrå" />
		<tag k="name" v="Myra" />
		<tag k="place" v="locality" />
		<tag k="ssr:stedsnr" v="36877" />
	</node>
	<node id="-365952" lat="58.2743708848" lon="7.41498117774">
		<tag k="alt_name" v="Skardstad" />
		<tag k="loc_name" v="Austigaren" />
		<tag k="name" v="Skarstad" />
		<tag k="place" v="farm" />
		<tag k="ssr:stedsnr" v="485786" />
	</node>
	<node id="-365951" lat="58.3063694401" lon="7.40345555066">
		<tag k="fixme" v="consider place=hamlet" />
		<tag k="name" v="Kvelland" />
		<tag k="place" v="farm" />
		<tag k="ssr:stedsnr" v="485725" />
	</node>
	<node id="-365947" lat="58.479200004" lon="7.38897777312">
		<tag k="alt_name" v="Flottorp, øvre" />
		<tag k="fixme" v="consider place=hamlet" />
		<tag k="name" v="Øvre Flottorp" />
		<tag k="place" v="farm" />
		<tag k="ssr:stedsnr" v="485544" />
	</node>
	<node id="-365945" lat="58.3279999997" lon="7.30800000394">
		<tag k="alt_name" v="Gunleivstøl;Gunleifstøl" />
		<tag k="fixme" v="consider place=hamlet" />
		<tag k="name" v="Gunnleivsstøl" />
		<tag k="place" v="farm" />
		<tag k="ssr:stedsnr" v="485499" />
	</node>
	<node id="-365944" lat="58.3252916683" lon="7.31724999733">
		<tag k="historic" v="shieling" />
		<tag k="name" v="Hellestøl" />
		<tag k="place" v="locality" />
		<tag k="ssr:stedsnr" v="485495" />
	</node>
	<node id="-365942" lat="58.2423472185" lon="7.33898055279">
		<tag k="alt_name" v="Ytre Skår" />
		<tag k="fixme" v="consider place=hamlet" />
		<tag k="name" v="Skår" />
		<tag k="place" v="farm" />
		<tag k="ssr:stedsnr" v="485322" />
	</node>
	<node id="-365941" lat="58.4018972206" lon="7.36261111686">
		<tag k="name" v="Ekra" />
		<tag k="place" v="farm" />
		<tag k="ssr:stedsnr" v="485981" />
	</node>
	<node id="-366959" lat="58.4665444451" lon="7.39576388979">
		<tag k="name" v="Øygarden" />
		<tag k="place" v="farm" />
		<tag k="ssr:stedsnr" v="703129" />
	</node>
	<node id="-366957" lat="58.3523805527" lon="7.38580277873">
		<tag k="alt_name" v="Ågedalstø" />
		<tag k="name" v="Ågedalstøi" />
		<tag k="place" v="farm" />
		<tag k="ssr:stedsnr" v="667970" />
	</node>
	<node id="-366955" lat="58.3714194474" lon="7.41671944302">
		<tag k="alt_name" v="Dalan" />
		<tag k="name" v="Ytre Dalan" />
		<tag k="place" v="farm" />
		<tag k="ssr:stedsnr" v="667940" />
	</node>
	<node id="-366954" lat="58.4043638872" lon="7.3441333268">
		<tag k="name" v="Ås" />
		<tag k="place" v="farm" />
		<tag k="ssr:stedsnr" v="667867" />
	</node>
	<node id="-366952" lat="58.423302775" lon="7.36579722135">
		<tag k="alt_name" v="Rebåsen;Reppåsen" />
		<tag k="fixme" v="consider place=hamlet" />
		<tag k="loc_name" v="Rebbåsæn" />
		<tag k="name" v="Rebbåsen" />
		<tag k="place" v="farm" />
		<tag k="ssr:stedsnr" v="667856" />
	</node>
	<node id="-366946" lat="58.2401500042" lon="7.36594721563">
		<tag k="fixme" v="consider place=hamlet" />
		<tag k="name" v="Håland" />
		<tag k="place" v="farm" />
		<tag k="ssr:stedsnr" v="667592" />
	</node>
	<node id="-366944" lat="58.2650749976" lon="7.28855000766">
		<tag k="name" v="Åsan" />
		<tag k="place" v="isolated_dwelling" />
		<tag k="ssr:stedsnr" v="667574" />
	</node>
	<node id="-367967" lat="58.3586861101" lon="7.38296944008">
		<tag k="loc_name" v="Sannen" />
		<tag k="name" v="Sanden" />
		<tag k="place" v="farm" />
		<tag k="ssr:stedsnr" v="850949" />
	</node>
	<node id="-367966" lat="58.4168583367" lon="7.40737778397">
		<tag k="fixme" v="consider place=hamlet" />
		<tag k="name" v="Hårtveit" />
		<tag k="place" v="farm" />
		<tag k="ssr:stedsnr" v="850884" />
	</node>
	<node id="-367965" lat="58.4138499966" lon="7.36929721885">
		<tag k="name" v="Bakkan" />
		<tag k="place" v="farm" />
		<tag k="ssr:stedsnr" v="850881" />
	</node>
	<node id="-367964" lat="58.427777778" lon="7.37181388326">
		<tag k="fixme" v="consider place=hamlet" />
		<tag k="name" v="Botnan" />
		<tag k="place" v="farm" />
		<tag k="ssr:stedsnr" v="850878" />
	</node>
	<node id="-366939" lat="58.2402194479" lon="7.34792499995">
		<tag k="name" v="Geislefos" />
		<tag k="place" v="farm" />
		<tag k="ssr:stedsnr" v="667236" />
	</node>
	<node id="-367962" lat="58.2601388858" lon="7.35063611782">
		<tag k="alt_name" v="Hommemoen" />
		<tag k="name" v="Hommoen" />
		<tag k="place" v="farm" />
		<tag k="ssr:stedsnr" v="850843" />
	</node>
	<node id="-366937" lat="58.2841083322" lon="7.35811111458">
		<tag k="name" v="Lien" />
		<tag k="place" v="locality" />
		<tag k="ssr:stedsnr" v="666106" />
	</node>
	<node id="-367958" lat="58.24492778" lon="7.34881388808">
		<tag k="alt_name" v="Geislefos" />
		<tag k="name" v="Geislafoss" />
		<tag k="place" v="farm" />
		<tag k="ssr:stedsnr" v="850618" />
	</node>
	<node id="-364373" lat="58.3035249963" lon="7.38330278107">
		<tag k="alt_name" v="Biktjønn" />
		<tag k="name" v="Biktjørn" />
		<tag k="place" v="isolated_dwelling" />
		<tag k="ssr:stedsnr" v="854" />
	</node>
	<node id="-365396" lat="58.3246972267" lon="7.4003861171">
		<tag k="fixme" v="consider place=hamlet" />
		<tag k="name" v="Strisland" />
		<tag k="place" v="farm" />
		<tag k="ssr:stedsnr" v="182729" />
	</node>
	<node id="-367955" lat="58.25280278" lon="7.30094443999">
		<tag k="alt_name" v="Brastad" />
		<tag k="fixme" v="consider place=hamlet" />
		<tag k="name" v="Brasstad" />
		<tag k="place" v="farm" />
		<tag k="ssr:stedsnr" v="850594" />
	</node>
	<node id="-365393" lat="58.4870722268" lon="7.48456111591">
		<tag k="fixme" v="consider place=hamlet" />
		<tag k="name" v="Butveit" />
		<tag k="place" v="farm" />
		<tag k="ssr:stedsnr" v="182595" />
	</node>
	<node id="-364367" lat="58.2901583366" lon="7.33105277934">
		<tag k="loc_name" v="I Jile" />
		<tag k="name" v="Nepstad" />
		<tag k="place" v="farm" />
		<tag k="ssr:stedsnr" v="517" />
	</node>
	<node id="-365390" lat="58.2835472214" lon="7.30694999727">
		<tag k="loc_name" v="Bruliå" />
		<tag k="name" v="Brulia" />
		<tag k="place" v="farm" />
		<tag k="ssr:stedsnr" v="182508" />
	</node>
	<node id="-367949" lat="58.4669000022" lon="7.45393055444">
		<tag k="name" v="Smedsland" />
		<tag k="place" v="farm" />
		<tag k="ssr:stedsnr" v="849602" />
	</node>
	<node id="-365900" lat="58.2833750039" lon="7.30684443746">
		<tag k="name" v="Brulid" />
		<tag k="place" v="locality" />
		<tag k="ssr:stedsnr" v="461927" />
	</node>
	<node id="-367947" lat="58.3102249961" lon="7.33575000695">
		<tag k="name" v="Hellesheia" />
		<tag k="place" v="farm" />
		<tag k="ssr:stedsnr" v="849557" />
	</node>
	<node id="-367946" lat="58.2405472253" lon="7.34760277963">
		<tag k="name" v="Geislefos" />
		<tag k="place" v="farm" />
		<tag k="ssr:stedsnr" v="849265" />
	</node>
	<node id="-367945" lat="58.2537416649" lon="7.38974445042">
		<tag k="alt_name" v="Stavedal" />
		<tag k="fixme" v="consider place=hamlet" />
		<tag k="name" v="Stavedalen" />
		<tag k="place" v="farm" />
		<tag k="ssr:stedsnr" v="849248" />
	</node>
	<node id="-363846" lat="58.4829333366" lon="7.46338055244">
		<tag k="name" v="Fidje" />
		<tag k="place" v="farm" />
		<tag k="ssr:stedsnr" v="401181" />
	</node>
	<node id="-367585" lat="58.2527590466" lon="7.33828980106">
		<tag k="alt_name" v="Bjodan" />
		<tag k="name" v="Bjodland" />
		<tag k="place" v="farm" />
		<tag k="ssr:stedsnr" v="789595" />
	</node>
	<node id="-365402" lat="58.378861114" lon="7.36655278344">
		<tag k="name" v="Stedjan" />
		<tag k="place" v="farm" />
		<tag k="ssr:stedsnr" v="182983" />
	</node>
	<node id="-365877" lat="58.3570722182" lon="7.34072222098">
		<tag k="name" v="Holmen" />
		<tag k="place" v="farm" />
		<tag k="ssr:stedsnr" v="461216" />
	</node>
	<node id="-365873" lat="58.4838611134" lon="7.4814416618">
		<tag k="name" v="Myran" />
		<tag k="place" v="farm" />
		<tag k="ssr:stedsnr" v="461177" />
	</node>
	<node id="-368093" lat="58.2465916648" lon="7.26217499583">
		<tag k="alt_name" v="Eigebø" />
		<tag k="name" v="Eikjebø" />
		<tag k="place" v="farm" />
		<tag k="ssr:stedsnr" v="910378" />
	</node>
	<node id="-368428" lat="58.4716303284" lon="7.38859108176">
		<tag k="name" v="Fottorp" />
		<tag k="place" v="hamlet" />
		<tag k="ssr:stedsnr" v="979409" />
	</node>
	<node id="-368427" lat="58.441873439" lon="7.41690949726">
		<tag k="fixme" v="consider place=hamlet" />
		<tag k="name" v="Øvre Grindheim" />
		<tag k="place" v="farm" />
		<tag k="ssr:stedsnr" v="979408" />
	</node>
	<node id="-368426" lat="58.3854858119" lon="7.44481547286">
		<tag k="name" v="Åsen" />
		<tag k="place" v="hamlet" />
		<tag k="ssr:stedsnr" v="979445" />
	</node>
	<node id="-368425" lat="58.3840897203" lon="7.42042504309">
		<tag k="fixme" v="consider place=hamlet" />
		<tag k="name" v="Rosseland" />
		<tag k="place" v="farm" />
		<tag k="ssr:stedsnr" v="979444" />
	</node>
	<node id="-368424" lat="58.3430495274" lon="7.4021846735">
		<tag k="name" v="Lindland" />
		<tag k="place" v="locality" />
		<tag k="ssr:stedsnr" v="979442" />
	</node>
	<node id="-368423" lat="58.3502923168" lon="7.38274751376">
		<tag k="fixme" v="consider place=hamlet" />
		<tag k="name" v="Ågedalstranden" />
		<tag k="place" v="farm" />
		<tag k="ssr:stedsnr" v="979441" />
	</node>
	<node id="-368422" lat="58.3846940571" lon="7.44146242783">
		<tag k="fixme" v="consider place=hamlet" />
		<tag k="name" v="Vestre Åsen" />
		<tag k="place" v="farm" />
		<tag k="ssr:stedsnr" v="979440" />
	</node>
	<node id="-368421" lat="58.3872630553" lon="7.44464921656">
		<tag k="fixme" v="consider place=hamlet" />
		<tag k="name" v="Øvre Åsen" />
		<tag k="place" v="farm" />
		<tag k="ssr:stedsnr" v="979439" />
	</node>
	<node id="-368420" lat="58.4084115769" lon="7.41794974631">
		<tag k="fixme" v="consider place=hamlet" />
		<tag k="name" v="Øvre Ågedal" />
		<tag k="place" v="farm" />
		<tag k="ssr:stedsnr" v="979415" />
	</node>
	<node id="-368419" lat="58.428389402" lon="7.45582526171">
		<tag k="fixme" v="consider place=hamlet" />
		<tag k="name" v="Utbostad" />
		<tag k="place" v="farm" />
		<tag k="ssr:stedsnr" v="979414" />
	</node>
	<node id="-368418" lat="58.4292622502" lon="7.46624188183">
		<tag k="fixme" v="consider place=hamlet" />
		<tag k="name" v="Leland" />
		<tag k="place" v="farm" />
		<tag k="ssr:stedsnr" v="979413" />
	</node>
	<node id="-368417" lat="58.4317916497" lon="7.47423913615">
		<tag k="fixme" v="consider place=hamlet" />
		<tag k="name" v="Seland" />
		<tag k="place" v="farm" />
		<tag k="ssr:stedsnr" v="979412" />
	</node>
	<node id="-368416" lat="58.4893186521" lon="7.46618673545">
		<tag k="name" v="Sveindal" />
		<tag k="place" v="hamlet" />
		<tag k="ssr:stedsnr" v="979411" />
	</node>
	<node id="-368415" lat="58.439402095" lon="7.41685272176">
		<tag k="name" v="Grindheim" />
		<tag k="place" v="hamlet" />
		<tag k="ssr:stedsnr" v="979410" />
	</node>
	<node id="-368414" lat="58.4388245779" lon="7.41461373871">
		<tag k="fixme" v="consider place=hamlet" />
		<tag k="name" v="Ytre Grindheim" />
		<tag k="place" v="farm" />
		<tag k="ssr:stedsnr" v="979407" />
	</node>
	<node id="-368413" lat="58.412429151" lon="7.40082334659">
		<tag k="fixme" v="consider place=hamlet" />
		<tag k="name" v="Refsnes" />
		<tag k="place" v="farm" />
		<tag k="ssr:stedsnr" v="979406" />
	</node>
	<node id="-368412" lat="58.3784057961" lon="7.33084660652">
		<tag k="fixme" v="consider place=hamlet" />
		<tag k="name" v="Øyheien" />
		<tag k="place" v="farm" />
		<tag k="ssr:stedsnr" v="979405" />
	</node>
	<node id="-368411" lat="58.418831371" lon="7.39804593176">
		<tag k="fixme" v="consider place=hamlet" />
		<tag k="name" v="Byremo" />
		<tag k="place" v="farm" />
		<tag k="ssr:stedsnr" v="979404" />
	</node>
	<node id="-365850" lat="58.3328916679" lon="7.30469443753">
		<tag k="fixme" v="consider place=hamlet" />
		<tag k="name" v="Røynesdal" />
		<tag k="place" v="farm" />
		<tag k="ssr:stedsnr" v="425533" />
	</node>
	<node id="-368409" lat="58.3946557422" lon="7.36694274184">
		<tag k="name" v="Øydne" />
		<tag k="place" v="hamlet" />
		<tag k="ssr:stedsnr" v="979402" />
	</node>
	<node id="-368408" lat="58.2565572289" lon="7.41122250034">
		<tag k="fixme" v="consider place=hamlet" />
		<tag k="name" v="Birkeland" />
		<tag k="place" v="farm" />
		<tag k="ssr:stedsnr" v="979401" />
	</node>
	<node id="-368407" lat="58.2689159678" lon="7.38449152804">
		<tag k="fixme" v="consider place=hamlet" />
		<tag k="name" v="Høyland" />
		<tag k="place" v="farm" />
		<tag k="ssr:stedsnr" v="979400" />
	</node>
	<node id="-368406" lat="58.2739657841" lon="7.41801064525">
		<tag k="fixme" v="consider place=hamlet" />
		<tag k="name" v="Skarstad" />
		<tag k="place" v="farm" />
		<tag k="ssr:stedsnr" v="979399" />
	</node>
	<node id="-368405" lat="58.2768134611" lon="7.39617159369">
		<tag k="fixme" v="consider place=hamlet" />
		<tag k="name" v="Espeland" />
		<tag k="place" v="farm" />
		<tag k="ssr:stedsnr" v="979398" />
	</node>
	<node id="-368404" lat="58.3036729598" lon="7.38244036315">
		<tag k="fixme" v="consider place=hamlet" />
		<tag k="name" v="Bigkjøn" />
		<tag k="place" v="farm" />
		<tag k="ssr:stedsnr" v="979397" />
	</node>
	<node id="-368403" lat="58.2961110554" lon="7.35447366845">
		<tag k="fixme" v="consider place=hamlet" />
		<tag k="name" v="Helle" />
		<tag k="place" v="farm" />
		<tag k="ssr:stedsnr" v="979396" />
	</node>
	<node id="-368402" lat="58.283336686" lon="7.35934347819">
		<tag k="fixme" v="consider place=hamlet" />
		<tag k="name" v="Konsmo" />
		<tag k="place" v="farm" />
		<tag k="ssr:stedsnr" v="979395" />
	</node>
	<node id="-368401" lat="58.2643373219" lon="7.34868671487">
		<tag k="fixme" v="consider place=hamlet" />
		<tag k="name" v="Skarpe-Seland" />
		<tag k="place" v="farm" />
		<tag k="ssr:stedsnr" v="979394" />
	</node>
	<node id="-368400" lat="58.2448649622" lon="7.34023339317">
		<tag k="name" v="Skår" />
		<tag k="place" v="hamlet" />
		<tag k="ssr:stedsnr" v="979393" />
	</node>
	<node id="-368399" lat="58.2542998622" lon="7.32476696428">
		<tag k="fixme" v="consider place=hamlet" />
		<tag k="name" v="Ytre Eikeland" />
		<tag k="place" v="farm" />
		<tag k="ssr:stedsnr" v="979391" />
	</node>
	<node id="-368398" lat="58.2472822155" lon="7.26281930388">
		<tag k="fixme" v="consider place=hamlet" />
		<tag k="name" v="Vestre Eikebø" />
		<tag k="place" v="farm" />
		<tag k="ssr:stedsnr" v="979390" />
	</node>
	<node id="-368397" lat="58.2684583728" lon="7.31167675445">
		<tag k="fixme" v="consider place=hamlet" />
		<tag k="name" v="Vestre Hægeland" />
		<tag k="place" v="farm" />
		<tag k="ssr:stedsnr" v="979389" />
	</node>
	<node id="-368396" lat="58.2814160904" lon="7.33411518327">
		<tag k="fixme" v="consider place=hamlet" />
		<tag k="name" v="Østre Eikebø" />
		<tag k="place" v="farm" />
		<tag k="ssr:stedsnr" v="979388" />
	</node>
	<node id="-368395" lat="58.2906461549" lon="7.32979689274">
		<tag k="fixme" v="consider place=hamlet" />
		<tag k="name" v="Nepstad" />
		<tag k="place" v="farm" />
		<tag k="ssr:stedsnr" v="979387" />
	</node>
	<node id="-368394" lat="58.2792409485" lon="7.2906883245">
		<tag k="fixme" v="consider place=hamlet" />
		<tag k="name" v="Barstad" />
		<tag k="place" v="farm" />
		<tag k="ssr:stedsnr" v="979386" />
	</node>
	<node id="-368393" lat="58.3050823426" lon="7.26780021163">
		<tag k="name" v="Røyseland" />
		<tag k="place" v="locality" />
		<tag k="ssr:stedsnr" v="979385" />
	</node>
	<node id="-368392" lat="58.3517466427" lon="7.32306320332">
		<tag k="fixme" v="consider place=hamlet" />
		<tag k="name" v="Iveland" />
		<tag k="place" v="farm" />
		<tag k="ssr:stedsnr" v="979367" />
	</node>
	<node id="-364378" lat="58.4340277803" lon="7.48221666016">
		<tag k="loc_name" v="Der heima" />
		<tag k="name" v="Seland" />
		<tag k="place" v="farm" />
		<tag k="ssr:stedsnr" v="938" />
	</node>
	<node id="-364416" lat="58.246919445" lon="7.38271388242">
		<tag k="name" v="Nerejordet" />
		<tag k="place" v="farm" />
		<tag k="ssr:stedsnr" v="36873" />
	</node>
	<node id="-363771" lat="58.3432555596" lon="7.41987777173">
		<tag k="alt_name" v="Solberg" />
		<tag k="fixme" v="consider place=hamlet" />
		<tag k="name" v="Solbjør" />
		<tag k="place" v="farm" />
		<tag k="ssr:stedsnr" v="364799" />
	</node>
	<node id="-363769" lat="58.4042944438" lon="7.3435111063">
		<tag k="fixme" v="consider place=hamlet" />
		<tag k="name" v="Ås" />
		<tag k="place" v="farm" />
		<tag k="ssr:stedsnr" v="364665" />
	</node>
	<node id="-365862" lat="58.3833694424" lon="7.41663055251">
		<tag k="alt_name" v="Flåt" />
		<tag k="name" v="Flot" />
		<tag k="place" v="farm" />
		<tag k="ssr:stedsnr" v="425990" />
	</node>
	<node id="-366306" lat="58.3520666684" lon="7.32421388631">
		<tag k="name" v="Iveland" />
		<tag k="place" v="hamlet" />
		<tag k="ssr:stedsnr" v="570147" />
	</node>
	<node id="-366304" lat="58.35426667" lon="7.42189721695">
		<tag k="fixme" v="consider place=hamlet" />
		<tag k="name" v="Langåsen" />
		<tag k="place" v="farm" />
		<tag k="ssr:stedsnr" v="546952" />
	</node>
	<node id="-366302" lat="58.4288166698" lon="7.45711388715">
		<tag k="alt_name" v="Utbostad" />
		<tag k="loc_name" v="Der nede" />
		<tag k="name" v="Ubostad" />
		<tag k="place" v="farm" />
		<tag k="ssr:stedsnr" v="546861" />
	</node>
	<node id="-366301" lat="58.2979638911" lon="7.35452222839">
		<tag k="loc_name" v="Der heima" />
		<tag k="name" v="Kleivan" />
		<tag k="place" v="farm" />
		<tag k="ssr:stedsnr" v="546843" />
	</node>
	<node id="-366300" lat="58.2678527766" lon="7.38643055376">
		<tag k="loc_name" v="Der Heima" />
		<tag k="name" v="Høyland" />
		<tag k="place" v="farm" />
		<tag k="ssr:stedsnr" v="546824" />
	</node>
	<node id="-367957" lat="58.2467611085" lon="7.40161111557">
		<tag k="alt_name" v="Havre Seland" />
		<tag k="fixme" v="consider place=hamlet" />
		<tag k="name" v="Havreseland" />
		<tag k="place" v="farm" />
		<tag k="ssr:stedsnr" v="850615" />
	</node>
	<node id="-366297" lat="58.3608611097" lon="7.3393777834">
		<tag k="name" v="Høyland" />
		<tag k="place" v="farm" />
		<tag k="ssr:stedsnr" v="546674" />
	</node>
	<node id="-364757" lat="58.5041888845" lon="7.47304443607">
		<tag k="name" v="Gyros øygard" />
		<tag k="place" v="locality" />
		<tag k="ssr:stedsnr" v="97221" />
	</node>
	<node id="-366290" lat="58.4639611101" lon="7.4263111154">
		<tag k="alt_name" v="Brandsdalen;Bronnesdal" />
		<tag k="fixme" v="consider place=hamlet" />
		<tag k="name" v="Bransdal" />
		<tag k="place" v="farm" />
		<tag k="ssr:stedsnr" v="546521" />
	</node>
	<node id="-366288" lat="58.2534861123" lon="7.35174999933">
		<tag k="alt_name" v="Viblemo" />
		<tag k="fixme" v="consider place=hamlet" />
		<tag k="name" v="Vivlemo" />
		<tag k="place" v="farm" />
		<tag k="ssr:stedsnr" v="546206" />
	</node>
	<node id="-364408" lat="58.270402777" lon="7.32339444135">
		<tag k="name" v="Roset" />
		<tag k="place" v="locality" />
		<tag k="ssr:stedsnr" v="36829" />
	</node>
	<node id="-365858" lat="58.3311222193" lon="7.35314444701">
		<tag k="fixme" v="consider place=hamlet" />
		<tag k="name" v="Undeland" />
		<tag k="place" v="farm" />
		<tag k="ssr:stedsnr" v="425774" />
	</node>
	<node id="-364233" lat="58.3520138891" lon="7.38490277879">
		<tag k="name" v="Vollan" />
		<tag k="place" v="farm" />
		<tag k="ssr:stedsnr" v="887967" />
	</node>
	<node id="-364738" lat="58.3566388885" lon="7.39848610783">
		<tag k="loc_name" v="Røyjordæ" />
		<tag k="name" v="Røyjordet" />
		<tag k="place" v="farm" />
		<tag k="ssr:stedsnr" v="61958" />
	</node>
	<node id="-364737" lat="58.40631944" lon="7.40884999229">
		<tag k="alt_name" v="Rudlend" />
		<tag k="fixme" v="consider place=hamlet" />
		<tag k="name" v="Rydlendet" />
		<tag k="place" v="farm" />
		<tag k="ssr:stedsnr" v="61901" />
	</node>
	<node id="-364736" lat="58.4078388879" lon="7.35860555003">
		<tag k="name" v="Vestegarden" />
		<tag k="place" v="farm" />
		<tag k="ssr:stedsnr" v="61899" />
	</node>
	<node id="-365856" lat="58.3532194454" lon="7.32296944791">
		<tag k="loc_name" v="Der borte" />
		<tag k="name" v="Iveland" />
		<tag k="place" v="farm" />
		<tag k="ssr:stedsnr" v="425725" />
	</node>
	<node id="-367956" lat="58.2679138928" lon="7.31237500606">
		<tag k="name" v="Hægeland" />
		<tag k="place" v="farm" />
		<tag k="ssr:stedsnr" v="850601" />
	</node>
	<node id="-364731" lat="58.4835888894" lon="7.4529999973">
		<tag k="alt_name" v="Svindal, vestre" />
		<tag k="fixme" v="consider place=hamlet" />
		<tag k="name" v="Vestre Sveindal" />
		<tag k="place" v="farm" />
		<tag k="ssr:stedsnr" v="61580" />
	</node>
	<node id="-364729" lat="58.3322250038" lon="7.32279721857">
		<tag k="alt_name" v="Hellevatn" />
		<tag k="fixme" v="consider place=hamlet" />
		<tag k="name" v="Hellevann" />
		<tag k="place" v="farm" />
		<tag k="ssr:stedsnr" v="61531" />
	</node>
	<node id="-364728" lat="58.38634167" lon="7.44322222229">
		<tag k="name" v="Skogen" />
		<tag k="place" v="farm" />
		<tag k="ssr:stedsnr" v="60994" />
	</node>
	<node id="-364727" lat="58.3728444439" lon="7.35617777454">
		<tag k="name" v="Kleppan" />
		<tag k="place" v="farm" />
		<tag k="ssr:stedsnr" v="60945" />
	</node>
	<node id="-364725" lat="58.2554067952" lon="7.40893479329">
		<tag k="alt_name" v="Birkjeland" />
		<tag k="loc_name" v="Eigerunnan" />
		<tag k="name" v="Birkeland" />
		<tag k="place" v="farm" />
		<tag k="ssr:stedsnr" v="60215" />
	</node>
	<node id="-365854" lat="58.2625138918" lon="7.3315944416">
		<tag k="fixme" v="consider place=hamlet" />
		<tag k="name" v="Vrålstad" />
		<tag k="place" v="farm" />
		<tag k="ssr:stedsnr" v="425596" />
	</node>
	<node id="-365853" lat="58.4923749957" lon="7.46424167264">
		<tag k="alt_name" v="Svindal, østre;Østre Sveindal" />
		<tag k="fixme" v="consider place=hamlet" />
		<tag k="name" v="Austre Sveindal" />
		<tag k="place" v="farm" />
		<tag k="ssr:stedsnr" v="425574" />
	</node>
	<node id="-367270" lat="58.4325277798" lon="7.41024444928">
		<tag k="name" v="Stedjan" />
		<tag k="place" v="farm" />
		<tag k="ssr:stedsnr" v="728928" />
	</node>
	<node id="-367267" lat="58.3604111126" lon="7.3434749919">
		<tag k="name" v="Høyland" />
		<tag k="place" v="farm" />
		<tag k="ssr:stedsnr" v="728881" />
	</node>
	<node id="-365727" lat="58.4405500001" lon="7.40804721393">
		<tag k="fixme" v="consider place=hamlet" />
		<tag k="name" v="Skår" />
		<tag k="place" v="farm" />
		<tag k="ssr:stedsnr" v="243911" />
	</node>
	<node id="-365726" lat="58.4063027737" lon="7.36630833537">
		<tag k="alt_name" v="Øydna, øvre;Øvre Øydne" />
		<tag k="fixme" v="consider place=hamlet" />
		<tag k="name" v="Øvre Øydna" />
		<tag k="place" v="farm" />
		<tag k="ssr:stedsnr" v="243897" />
	</node>
	<node id="-365724" lat="58.4159576189" lon="7.38233807021">
		<tag k="name" v="Golevik" />
		<tag k="place" v="farm" />
		<tag k="ssr:stedsnr" v="243870" />
	</node>
	<node id="-367259" lat="58.2430138877" lon="7.35082777859">
		<tag k="fixme" v="consider place=hamlet" />
		<tag k="name" v="Geislefoss" />
		<tag k="place" v="farm" />
		<tag k="ssr:stedsnr" v="727258" />
	</node>
	<node id="-365722" lat="58.4820444464" lon="7.46345833384">
		<tag k="name" v="Lunden" />
		<tag k="place" v="farm" />
		<tag k="ssr:stedsnr" v="243596" />
	</node>
	<node id="-364184" lat="58.2887055518" lon="7.31186389265">
		<tag k="name" v="Bjåskog" />
		<tag k="place" v="locality" />
		<tag k="ssr:stedsnr" v="886301" />
	</node>
	<node id="-364735" lat="58.3514860511" lon="7.38496997787">
		<tag k="alt_name" v="Ødegård" />
		<tag k="name" v="Øygard" />
		<tag k="place" v="farm" />
		<tag k="ssr:stedsnr" v="61776" />
	</node>
	<node id="-365074" lat="58.3684555575" lon="7.37854166989">
		<tag k="name" v="Utjordet" />
		<tag k="place" v="farm" />
		<tag k="ssr:stedsnr" v="158035" />
	</node>
	<node id="-367953" lat="58.3302555533" lon="7.34189444491">
		<tag k="alt_name" v="Brokka" />
		<tag k="name" v="Brokke" />
		<tag k="place" v="isolated_dwelling" />
		<tag k="ssr:stedsnr" v="850549" />
	</node>
	<node id="-366299" lat="58.3424638863" lon="7.40086389221">
		<tag k="loc_name" v="Leinlann" />
		<tag k="name" v="Leinland" />
		<tag k="place" v="isolated_dwelling" />
		<tag k="ssr:stedsnr" v="546756" />
	</node>
	<node id="-365395" lat="58.2396277746" lon="7.34674444868">
		<tag k="alt_name" v="Gislefos" />
		<tag k="name" v="Gislefoss" />
		<tag k="place" v="farm" />
		<tag k="ssr:stedsnr" v="182653" />
	</node>
	<node id="-366670" lat="58.2548083304" lon="7.35733333047">
		<tag k="name" v="Kleven" />
		<tag k="place" v="farm" />
		<tag k="ssr:stedsnr" v="643762" />
	</node>
	<node id="-364372" lat="58.335175002" lon="7.40927222646">
		<tag k="name" v="Nåstad" />
		<tag k="place" v="farm" />
		<tag k="ssr:stedsnr" v="808" />
	</node>
	<node id="-365125" lat="58.2438138903" lon="7.40248611237">
		<tag k="alt_name" v="Ytre Hvreseland" />
		<tag k="name" v="Ytre Havre Seland" />
		<tag k="place" v="farm" />
		<tag k="ssr:stedsnr" v="158876" />
	</node>
	<node id="-366658" lat="58.3489222182" lon="7.38664722758">
		<tag k="name" v="Tupten" />
		<tag k="place" v="farm" />
		<tag k="ssr:stedsnr" v="643241" />
	</node>
	<node id="-366657" lat="58.3590416681" lon="7.41359167221">
		<tag k="name" v="Langåsbua" />
		<tag k="place" v="locality" />
		<tag k="ssr:stedsnr" v="643238" />
	</node>
	<node id="-365116" lat="58.3584277753" lon="7.39671389603">
		<tag k="name" v="Grytinga" />
		<tag k="place" v="farm" />
		<tag k="ssr:stedsnr" v="158970" />
	</node>
	<node id="-367657" lat="58.349697226" lon="7.38500277769">
		<tag k="name" v="Hagåkeren" />
		<tag k="place" v="farm" />
		<tag k="ssr:stedsnr" v="826231" />
	</node>
	<node id="-366940" lat="58.3095111095" lon="7.31482500152">
		<tag k="alt_name" v="Sobelia" />
		<tag k="name" v="Såpelia" />
		<tag k="place" v="farm" />
		<tag k="ssr:stedsnr" v="667502" />
	</node>
	<node id="-368165" lat="58.3006138881" lon="7.25921111764">
		<tag k="name" v="Røyseland" />
		<tag k="place" v="locality" />
		<tag k="ssr:stedsnr" v="947882" />
	</node>
	<node id="-368162" lat="58.2375194486" lon="7.37511389409">
		<tag k="name" v="Kvidalen" />
		<tag k="place" v="locality" />
		<tag k="ssr:stedsnr" v="947867" />
	</node>
	<node id="-366625" lat="58.3737555557" lon="7.3752805624">
		<tag k="fixme" v="consider place=hamlet" />
		<tag k="name" v="Valand" />
		<tag k="place" v="farm" />
		<tag k="ssr:stedsnr" v="606939" />
	</node>
	<node id="-366624" lat="58.4312611126" lon="7.47161666255">
		<tag k="loc_name" v="Krokan" />
		<tag k="name" v="Leland" />
		<tag k="place" v="farm" />
		<tag k="ssr:stedsnr" v="606928" />
	</node>
	<node id="-363859" lat="58.3264277817" lon="7.40356388712">
		<tag k="name" v="Berslåten" />
		<tag k="place" v="farm" />
		<tag k="ssr:stedsnr" v="401973" />
	</node>
	<node id="-366621" lat="58.2454166701" lon="7.38346389707">
		<tag k="fixme" v="consider place=hamlet" />
		<tag k="loc_name" v="Fiddan" />
		<tag k="name" v="Fidland" />
		<tag k="place" v="farm" />
		<tag k="ssr:stedsnr" v="606625" />
	</node>
	<node id="-366938" lat="58.2407666623" lon="7.34725278327">
		<tag k="fixme" v="consider place=hamlet" />
		<tag k="name" v="Geislefos" />
		<tag k="place" v="farm" />
		<tag k="ssr:stedsnr" v="667235" />
	</node>
	<node id="-366615" lat="58.4633500026" lon="7.38315555945">
		<tag k="alt_name" v="Flottorp, nedre" />
		<tag k="fixme" v="consider place=hamlet" />
		<tag k="name" v="Nedre Flottorp" />
		<tag k="place" v="farm" />
		<tag k="ssr:stedsnr" v="606555" />
	</node>
	<node id="-366614" lat="58.2890444433" lon="7.25443333249">
		<tag k="alt_name" v="Skofteland" />
		<tag k="fixme" v="consider place=hamlet" />
		<tag k="name" v="Skopteland" />
		<tag k="place" v="farm" />
		<tag k="ssr:stedsnr" v="606513" />
	</node>
	<node id="-366613" lat="58.4152176501" lon="7.38142135024">
		<tag k="name" v="Golevik" />
		<tag k="place" v="farm" />
		<tag k="ssr:stedsnr" v="605165" />
	</node>
	<node id="-366612" lat="58.2931694476" lon="7.35764721792">
		<tag k="loc_name" v="Storkemoen" />
		<tag k="name" v="Helle" />
		<tag k="place" v="farm" />
		<tag k="ssr:stedsnr" v="606861" />
	</node>
	<node id="-366611" lat="58.2647111148" lon="7.3474861109">
		<tag k="loc_name" v="På ægrå" />
		<tag k="name" v="Seland" />
		<tag k="place" v="farm" />
		<tag k="ssr:stedsnr" v="606835" />
	</node>
	<node id="-366610" lat="58.2720861134" lon="7.35530554714">
		<tag k="alt_name" v="Bordalen" />
		<tag k="name" v="Bordal" />
		<tag k="place" v="farm" />
		<tag k="ssr:stedsnr" v="606818" />
	</node>
	<node id="-364455" lat="58.4801999999" lon="7.39570555424">
		<tag k="name" v="Øygarden" />
		<tag k="place" v="farm" />
		<tag k="ssr:stedsnr" v="37191" />
	</node>
	<node id="-363529" lat="58.3412250038" lon="7.41669445047">
		<tag k="name" v="Under Brotan" />
		<tag k="place" v="farm" />
		<tag k="ssr:stedsnr" v="340987" />
	</node>
	<node id="-363527" lat="58.3528416672" lon="7.38505000564">
		<tag k="name" v="Monen" />
		<tag k="place" v="farm" />
		<tag k="ssr:stedsnr" v="340965" />
	</node>
</osm>
