<?xml version="1.0" encoding="UTF-8"?>
<osm generator="osmapis" version="0.6">
	<node id="-365050" lat="58.3190249977" lon="7.36747500547">
		<tag k="alt_name" v="Audnedal stasjon" />
		<tag k="name" v="Audnedal" />
		<tag k="railway" v="station" />
		<tag k="ssr:stedsnr" v="121738" />
		<tag k="train" v="yes" />
	</node>
	<node id="-367350" lat="58.4886555582" lon="7.46674444374">
		<tag k="bridge" v="yes" />
		<tag k="layer" v="1" />
		<tag k="name" v="Butveit" />
		<tag k="ssr:stedsnr" v="775021" />
	</node>
	<node id="-366696" lat="58.4319222196" lon="7.41155833547">
		<tag k="bridge" v="yes" />
		<tag k="layer" v="1" />
		<tag k="name" v="Stedjan" />
		<tag k="ssr:stedsnr" v="653023" />
	</node>
	<node id="-363501" lat="58.3551055529" lon="7.33297499975">
		<tag k="highway" v="path" />
		<tag k="name" v="Buvegen" />
		<tag k="ssr:stedsnr" v="340350" />
	</node>
	<node id="-366697" lat="58.422644443" lon="7.43814445131">
		<tag k="bridge" v="yes" />
		<tag k="layer" v="1" />
		<tag k="name" v="Ubostad" />
		<tag k="ssr:stedsnr" v="653026" />
	</node>
	<node id="-365928" lat="58.4622333301" lon="7.38351667322">
		<tag k="bridge" v="yes" />
		<tag k="layer" v="1" />
		<tag k="name" v="Kleivabekk" />
		<tag k="ssr:stedsnr" v="471020" />
	</node>
	<node id="-364476" lat="58.2838166679" lon="7.36584444392">
		<tag k="bridge" v="yes" />
		<tag k="layer" v="1" />
		<tag k="name" v="Konsmobekk" />
		<tag k="ssr:stedsnr" v="46021" />
	</node>
	<node id="-365411" lat="58.3749027798" lon="7.3695222154">
		<tag k="alt_name" v="Kringlen" />
		<tag k="bridge" v="yes" />
		<tag k="layer" v="1" />
		<tag k="name" v="Kringlen bru" />
		<tag k="ssr:stedsnr" v="219001" />
	</node>
	<node id="-364475" lat="58.3536250043" lon="7.33257776921">
		<tag k="bridge" v="yes" />
		<tag k="layer" v="1" />
		<tag k="name" v="Iveland" />
		<tag k="ssr:stedsnr" v="46020" />
	</node>
	<node id="-363192" lat="58.3792055544" lon="7.36823610784">
		<tag k="bridge" v="yes" />
		<tag k="layer" v="1" />
		<tag k="name" v="Ytre Øydne" />
		<tag k="ssr:stedsnr" v="289539" />
	</node>
	<node id="-363868" lat="58.4213805546" lon="7.40232499653">
		<tag k="bridge" v="yes" />
		<tag k="layer" v="1" />
		<tag k="name" v="Byremo" />
		<tag k="ssr:stedsnr" v="411021" />
	</node>
	<node id="-363863" lat="58.4055027814" lon="7.36284445065">
		<tag k="bridge" v="yes" />
		<tag k="layer" v="1" />
		<tag k="name" v="Tofte" />
		<tag k="ssr:stedsnr" v="410026" />
	</node>
	<node id="-366038" lat="58.400349998" lon="7.36353611732">
		<tag k="bridge" v="yes" />
		<tag k="layer" v="1" />
		<tag k="name" v="Hagåna" />
		<tag k="ssr:stedsnr" v="532026" />
	</node>
	<node id="-363193" lat="58.3583555554" lon="7.39911388221">
		<tag k="bridge" v="yes" />
		<tag k="layer" v="1" />
		<tag k="name" v="Ågedal" />
		<tag k="ssr:stedsnr" v="289540" />
	</node>
	<node id="-365902" lat="58.2851083368" lon="7.29035556293">
		<tag k="man_made" v="cairn" />
		<tag k="name" v="Refsvarden" />
		<tag k="place" v="locality" />
		<tag k="ssr:stedsnr" v="461936" />
	</node>
	<node id="-364242" lat="58.3328027767" lon="7.32019167268">
		<tag k="bridge" v="yes" />
		<tag k="layer" v="1" />
		<tag k="name" v="Hellevatn" />
		<tag k="ssr:stedsnr" v="896019" />
	</node>
	<node id="-364241" lat="58.3538194483" lon="7.38496388278">
		<tag k="bridge" v="yes" />
		<tag k="layer" v="1" />
		<tag k="name" v="Ågedalstø" />
		<tag k="ssr:stedsnr" v="896550" />
	</node>
	<node id="-364240" lat="58.321433337" lon="7.36622499862">
		<tag k="bridge" v="yes" />
		<tag k="layer" v="1" />
		<tag k="name" v="Øydneskleiv" />
		<tag k="ssr:stedsnr" v="896546" />
	</node>
	<node id="-364239" lat="58.3207777775" lon="7.3679444458">
		<tag k="bridge" v="yes" />
		<tag k="layer" v="1" />
		<tag k="name" v="Øydneskleiv" />
		<tag k="ssr:stedsnr" v="896544" />
	</node>
	<node id="-364238" lat="58.2514583294" lon="7.35279166444">
		<tag k="bridge" v="yes" />
		<tag k="layer" v="1" />
		<tag k="name" v="Viblemo" />
		<tag k="ssr:stedsnr" v="896541" />
	</node>
	<node id="-365901" lat="58.2852638847" lon="7.34615000499">
		<tag k="highway" v="path" />
		<tag k="name" v="Fårestien" />
		<tag k="ssr:stedsnr" v="461929" />
	</node>
	<node id="-363851" lat="58.2764555514" lon="7.36738888401">
		<tag k="loc_name" v="Eivinsvaren" />
		<tag k="man_made" v="cairn" />
		<tag k="name" v="Eivindsvarden" />
		<tag k="place" v="locality" />
		<tag k="ssr:stedsnr" v="401751" />
	</node>
	<node id="-367302" lat="58.4223583328" lon="7.48740277053">
		<tag k="highway" v="path" />
		<tag k="name" v="Presteveien" />
		<tag k="ssr:stedsnr" v="765087" />
	</node>
	<node id="-367036" lat="58.413130558" lon="7.37218054854">
		<tag k="bridge" v="yes" />
		<tag k="layer" v="1" />
		<tag k="name" v="Våråna" />
		<tag k="ssr:stedsnr" v="714445" />
	</node>
	<node id="-365115" lat="58.3842027806" lon="7.35579999585">
		<tag k="fixme" v="consider highway=path" />
		<tag k="highway" v="track" />
		<tag k="name" v="Stokkekleiv" />
		<tag k="ssr:stedsnr" v="158964" />
	</node>
	<node id="-367034" lat="58.4974722222" lon="7.48017499928">
		<tag k="bridge" v="yes" />
		<tag k="layer" v="1" />
		<tag k="name" v="Fugletveit" />
		<tag k="ssr:stedsnr" v="714028" />
	</node>
	<node id="-368185" lat="58.486652779" lon="7.46063332834">
		<tag k="bridge" v="yes" />
		<tag k="layer" v="1" />
		<tag k="name" v="Sveindal" />
		<tag k="ssr:stedsnr" v="957025" />
	</node>
	<node id="-368184" lat="58.2794888885" lon="7.35671388461">
		<tag k="bridge" v="yes" />
		<tag k="layer" v="1" />
		<tag k="name" v="Sål" />
		<tag k="ssr:stedsnr" v="957026" />
	</node>
	<node id="-368183" lat="58.4300944473" lon="7.4707833346">
		<tag k="bridge" v="yes" />
		<tag k="layer" v="1" />
		<tag k="name" v="Leland" />
		<tag k="ssr:stedsnr" v="957023" />
	</node>
	<node id="-366005" lat="58.2765972259" lon="7.40839167122">
		<tag k="highway" v="path" />
		<tag k="name" v="Bergestien" />
		<tag k="ssr:stedsnr" v="522746" />
	</node>
	<node id="-367035" lat="58.3735361152" lon="7.37535277254">
		<tag k="bridge" v="yes" />
		<tag k="layer" v="1" />
		<tag k="name" v="Valand" />
		<tag k="ssr:stedsnr" v="714034" />
	</node>
	<node id="-363185" lat="58.2854694408" lon="7.35356110619">
		<tag k="bridge" v="yes" />
		<tag k="layer" v="1" />
		<tag k="name" v="Konsmo" />
		<tag k="ssr:stedsnr" v="289023" />
	</node>
	<node id="-364202" lat="58.2902194427" lon="7.2874361196">
		<tag k="man_made" v="cairn" />
		<tag k="name" v="Varden" />
		<tag k="place" v="locality" />
		<tag k="ssr:stedsnr" v="886923" />
	</node>
	<node id="-366374" lat="58.3327638931" lon="7.31267221696">
		<tag k="bridge" v="yes" />
		<tag k="layer" v="1" />
		<tag k="name" v="Røynesdal" />
		<tag k="ssr:stedsnr" v="592024" />
	</node>
	<node id="-365476" lat="58.3615916651" lon="7.34029723082">
		<tag k="bridge" v="yes" />
		<tag k="layer" v="1" />
		<tag k="name" v="Høyland" />
		<tag k="ssr:stedsnr" v="229030" />
	</node>
	<node id="-364195" lat="58.2339333319" lon="7.34227777971">
		<tag k="bridge" v="yes" />
		<tag k="layer" v="1" />
		<tag k="name" v="Gramsbrua" />
		<tag k="ssr:stedsnr" v="886852" />
	</node>
	<node id="-363809" lat="58.2550388863" lon="7.34507778453">
		<tag k="bridge" v="yes" />
		<tag k="layer" v="1" />
		<tag k="name" v="Viblemo bru" />
		<tag k="ssr:stedsnr" v="400843" />
	</node>
	<node id="-363798" lat="58.2366027755" lon="7.35803055283">
		<tag k="highway" v="path" />
		<tag k="name" v="Bumyrdalsvegen" />
		<tag k="ssr:stedsnr" v="400269" />
	</node>
	<node id="-365075" lat="58.365641665" lon="7.38019443854">
		<tag k="fixme" v="consider highway=path" />
		<tag k="highway" v="track" />
		<tag k="name" v="Utjordskleiva" />
		<tag k="ssr:stedsnr" v="158038" />
	</node>
	<node id="-364429" lat="58.3765416711" lon="7.35093055725">
		<tag k="highway" v="path" />
		<tag k="name" v="Heieveien" />
		<tag k="ssr:stedsnr" v="37006" />
	</node>
	<node id="-363142" lat="58.2538361142" lon="7.36964167271">
		<tag k="highway" v="path" />
		<tag k="name" v="Fårlandsstien" />
		<tag k="ssr:stedsnr" v="279767" />
	</node>
</osm>
