<?xml version="1.0" encoding="UTF-8"?>
<osm generator="osmapis" version="0.6">
	<node changeset="62004364" id="5858844672" lat="58.2820835" lon="8.0966985" timestamp="2018-08-26T11:22:55Z" uid="3842253" user="NKA_import" version="1" />
	<node changeset="62004364" id="5858844673" lat="58.2820666" lon="8.0961084" timestamp="2018-08-26T11:22:55Z" uid="3842253" user="NKA_import" version="1" />
	<node changeset="62004364" id="5858844674" lat="58.2820638" lon="8.095336" timestamp="2018-08-26T11:22:55Z" uid="3842253" user="NKA_import" version="1" />
	<node changeset="62004364" id="5858844675" lat="58.282061" lon="8.0948371" timestamp="2018-08-26T11:22:55Z" uid="3842253" user="NKA_import" version="1" />
	<node changeset="62004364" id="5858844676" lat="58.2820159" lon="8.0952501" timestamp="2018-08-26T11:22:55Z" uid="3842253" user="NKA_import" version="1" />
	<node changeset="62004364" id="5858844677" lat="58.2821005" lon="8.0943543" timestamp="2018-08-26T11:22:55Z" uid="3842253" user="NKA_import" version="1" />
	<node changeset="62004364" id="5858844678" lat="58.2820723" lon="8.0940217" timestamp="2018-08-26T11:22:55Z" uid="3842253" user="NKA_import" version="1" />
	<node changeset="62004364" id="5858844679" lat="58.2820779" lon="8.0933511" timestamp="2018-08-26T11:22:55Z" uid="3842253" user="NKA_import" version="1" />
	<node changeset="62004364" id="5858844680" lat="58.2820328" lon="8.0930614" timestamp="2018-08-26T11:22:55Z" uid="3842253" user="NKA_import" version="1" />
	<node changeset="62004364" id="5858844681" lat="58.2819284" lon="8.0930078" timestamp="2018-08-26T11:22:55Z" uid="3842253" user="NKA_import" version="1" />
	<node changeset="62004364" id="5858844682" lat="58.2818297" lon="8.0924284" timestamp="2018-08-26T11:22:55Z" uid="3842253" user="NKA_import" version="1" />
	<node changeset="62004364" id="5858844683" lat="58.2818664" lon="8.0917793" timestamp="2018-08-26T11:22:55Z" uid="3842253" user="NKA_import" version="1" />
	<node changeset="62004364" id="5858844684" lat="58.2819002" lon="8.0912858" timestamp="2018-08-26T11:22:55Z" uid="3842253" user="NKA_import" version="1" />
	<node changeset="57982147" id="252371635" lat="58.4601225" lon="8.3341625" timestamp="2018-04-10T18:39:58Z" uid="3497659" user="NKA" version="5">
		<tag k="name" v="Søre Herefoss" />
		<tag k="place" v="village" />
		<tag k="ssr:stedsnr" v="850488" />
		<tag k="ssr:type" v="bygdelagBygd" />
	</node>
	<node changeset="62081523" id="5864106685" lat="58.2685958" lon="8.1700972" timestamp="2018-08-28T18:58:07Z" uid="3842253" user="NKA_import" version="1" />
	<node changeset="62081523" id="5864106686" lat="58.2686805" lon="8.1700328" timestamp="2018-08-28T18:58:07Z" uid="3842253" user="NKA_import" version="1" />
	<node changeset="62004364" id="5858857109" lat="58.283619" lon="8.1037075" timestamp="2018-08-26T11:24:33Z" uid="3842253" user="NKA_import" version="1" />
	<node changeset="62004364" id="5858857110" lat="58.2835819" lon="8.1035906" timestamp="2018-08-26T11:24:33Z" uid="3842253" user="NKA_import" version="1" />
	<node changeset="62004364" id="5858857111" lat="58.2834886" lon="8.1032729" timestamp="2018-08-26T11:24:33Z" uid="3842253" user="NKA_import" version="1" />
	<node changeset="62004364" id="5858857112" lat="58.2834631" lon="8.1029218" timestamp="2018-08-26T11:24:33Z" uid="3842253" user="NKA_import" version="1" />
	<node changeset="62004364" id="5858857113" lat="58.2834042" lon="8.1027164" timestamp="2018-08-26T11:24:33Z" uid="3842253" user="NKA_import" version="1" />
	<node changeset="62004364" id="5858857114" lat="58.2832603" lon="8.1025652" timestamp="2018-08-26T11:24:33Z" uid="3842253" user="NKA_import" version="1" />
	<node changeset="62004364" id="5858857115" lat="58.2831717" lon="8.1022697" timestamp="2018-08-26T11:24:33Z" uid="3842253" user="NKA_import" version="1" />
	<node changeset="62004364" id="5858857116" lat="58.2831081" lon="8.1022814" timestamp="2018-08-26T11:24:33Z" uid="3842253" user="NKA_import" version="1" />
	<node changeset="62004364" id="5858857117" lat="58.2829471" lon="8.1023709" timestamp="2018-08-26T11:24:33Z" uid="3842253" user="NKA_import" version="1" />
	<node changeset="62004364" id="5858857118" lat="58.2828661" lon="8.1023559" timestamp="2018-08-26T11:24:33Z" uid="3842253" user="NKA_import" version="1" />
	<node changeset="62004364" id="5858857119" lat="58.2826305" lon="8.102055" timestamp="2018-08-26T11:24:33Z" uid="3842253" user="NKA_import" version="1" />
	<node changeset="62004364" id="5858857120" lat="58.2825848" lon="8.1019537" timestamp="2018-08-26T11:24:33Z" uid="3842253" user="NKA_import" version="1" />
	<node changeset="62004364" id="5858857121" lat="58.2825084" lon="8.1012907" timestamp="2018-08-26T11:24:33Z" uid="3842253" user="NKA_import" version="1" />
	<node changeset="62004364" id="5858857122" lat="58.2824967" lon="8.1009157" timestamp="2018-08-26T11:24:33Z" uid="3842253" user="NKA_import" version="1" />
	<node changeset="62004364" id="5858857123" lat="58.2825369" lon="8.1002326" timestamp="2018-08-26T11:24:33Z" uid="3842253" user="NKA_import" version="1" />
	<node changeset="62004364" id="5858857124" lat="58.2824724" lon="8.1000125" timestamp="2018-08-26T11:24:34Z" uid="3842253" user="NKA_import" version="1" />
	<node changeset="62004364" id="5858857125" lat="58.2824655" lon="8.1" timestamp="2018-08-26T11:24:34Z" uid="3842253" user="NKA_import" version="1" />
	<node changeset="62004364" id="5858844885" lat="58.2818269" lon="8.0907011" timestamp="2018-08-26T11:22:55Z" uid="3842253" user="NKA_import" version="1" />
	<node changeset="57982147" id="264728812" lat="58.4445271" lon="8.1115875" timestamp="2018-04-10T18:39:58Z" uid="3497659" user="NKA" version="5">
		<tag k="name" v="Oggevatn" />
		<tag k="place" v="village" />
		<tag k="ssr:stedsnr" v="446997" />
		<tag k="ssr:type" v="grend" />
	</node>
	<node changeset="57982147" id="252371788" lat="58.4166679" lon="8.287663" timestamp="2018-04-10T18:39:58Z" uid="3497659" user="NKA" version="7">
		<tag k="alt_name" v="Sennumstad" />
		<tag k="name" v="Senumstad" />
		<tag k="place" v="hamlet" />
		<tag k="ssr:stedsnr" v="606393" />
		<tag k="ssr:type" v="gard" />
	</node>
	<node changeset="57982147" id="2600751720" lat="58.5242643" lon="8.3514301" timestamp="2018-04-10T18:40:08Z" uid="3497659" user="NKA" version="4">
		<tag k="name" v="Herefoss" />
		<tag k="place" v="village" />
		<tag k="ssr:stedsnr" v="668040" />
		<tag k="ssr:type" v="bygdelagBygd" />
	</node>
	<node changeset="62004364" id="5858861683" lat="58.2814484" lon="8.0936607" timestamp="2018-08-26T11:25:30Z" uid="3842253" user="NKA_import" version="1" />
	<node changeset="57982147" id="4463977089" lat="58.4578136" lon="8.1436712" timestamp="2018-04-10T18:47:23Z" uid="3497659" user="NKA" version="2">
		<tag k="alt_name" v="Sundstøl lille;Sundstøl austre" />
		<tag k="name" v="Austre Sundstøl" />
		<tag k="place" v="farm" />
		<tag k="ssr:stedsnr" v="364483" />
		<tag k="ssr:type" v="bruk" />
	</node>
	<node changeset="57982147" id="4463977090" lat="58.5283889" lon="8.1192556" timestamp="2018-04-10T18:47:23Z" uid="3497659" user="NKA" version="2">
		<tag k="name" v="Bakke" />
		<tag k="place" v="farm" />
		<tag k="ssr:stedsnr" v="839138" />
		<tag k="ssr:type" v="bruk" />
	</node>
	<node changeset="57982147" id="4463977091" lat="58.5140252" lon="8.0825203" timestamp="2018-04-10T18:47:23Z" uid="3497659" user="NKA" version="2">
		<tag k="name" v="Belland" />
		<tag k="place" v="farm" />
		<tag k="ssr:stedsnr" v="607424" />
		<tag k="ssr:type" v="bruk" />
	</node>
	<node changeset="57982147" id="4463977092" lat="58.4334323" lon="8.1145872" timestamp="2018-04-10T18:47:24Z" uid="3497659" user="NKA" version="2">
		<tag k="name" v="Bergli" />
		<tag k="place" v="farm" />
		<tag k="ssr:stedsnr" v="468485" />
		<tag k="ssr:type" v="bruk" />
	</node>
	<node changeset="56035354" id="4463977093" lat="58.311487" lon="8.1898691" timestamp="2018-02-03T17:50:01Z" uid="2114448" user="FredrikLindseth_import" version="3" />
	<node changeset="57982147" id="4463977094" lat="58.421332" lon="8.2485113" timestamp="2018-04-10T18:47:24Z" uid="3497659" user="NKA" version="2">
		<tag k="building" v="cabin" />
		<tag k="name" v="Bjelkeberg" />
		<tag k="place" v="isolated_dwelling" />
		<tag k="ssr:stedsnr" v="303390" />
		<tag k="ssr:type" v="fritidsbolig" />
	</node>
	<node changeset="57982147" id="4463977095" lat="58.4980862" lon="8.3342689" timestamp="2018-04-10T18:47:24Z" uid="3497659" user="NKA" version="2">
		<tag k="building" v="cabin" />
		<tag k="name" v="Bjelkeberga" />
		<tag k="place" v="isolated_dwelling" />
		<tag k="ssr:stedsnr" v="882207" />
		<tag k="ssr:type" v="fritidsbolig" />
	</node>
	<node changeset="57982147" id="4463977096" lat="58.4981139" lon="8.3006866" timestamp="2018-04-10T18:47:24Z" uid="3497659" user="NKA" version="2">
		<tag k="name" v="Bjelland" />
		<tag k="place" v="farm" />
		<tag k="ssr:stedsnr" v="606037" />
		<tag k="ssr:type" v="bruk" />
	</node>
	<node changeset="57982147" id="4463977097" lat="58.3061433" lon="8.1805531" timestamp="2018-04-10T18:47:24Z" uid="3497659" user="NKA" version="2">
		<tag k="name" v="Bjorhus" />
		<tag k="place" v="farm" />
		<tag k="ssr:stedsnr" v="182273" />
		<tag k="ssr:type" v="bruk" />
	</node>
	<node changeset="57982147" id="4463977098" lat="58.2809752" lon="8.1810181" timestamp="2018-04-10T18:47:24Z" uid="3497659" user="NKA" version="2">
		<tag k="name" v="Bordhaugen" />
		<tag k="place" v="farm" />
		<tag k="ssr:stedsnr" v="850735" />
		<tag k="ssr:type" v="eneboligMindreBoligbygg" />
	</node>
	<node changeset="57982147" id="4463977099" lat="58.561314" lon="8.2037705" timestamp="2018-04-10T18:47:24Z" uid="3497659" user="NKA" version="2">
		<tag k="alt_name" v="Breidsåsen" />
		<tag k="name" v="Breisåsen" />
		<tag k="place" v="farm" />
		<tag k="ssr:stedsnr" v="486131" />
		<tag k="ssr:type" v="bruk" />
	</node>
	<node changeset="57982147" id="4463977100" lat="58.4949398" lon="8.1258975" timestamp="2018-04-10T18:47:24Z" uid="3497659" user="NKA" version="2">
		<tag k="name" v="Brekka" />
		<tag k="place" v="farm" />
		<tag k="ssr:stedsnr" v="850036" />
		<tag k="ssr:type" v="bruk" />
	</node>
	<node changeset="57982147" id="4463977101" lat="58.5098353" lon="8.3330818" timestamp="2018-04-10T18:47:24Z" uid="3497659" user="NKA" version="2">
		<tag k="name" v="Bua" />
		<tag k="place" v="farm" />
		<tag k="ssr:stedsnr" v="122010" />
		<tag k="ssr:type" v="bruk" />
	</node>
	<node changeset="57982147" id="4463977102" lat="58.3960565" lon="8.1082826" timestamp="2018-04-10T18:47:24Z" uid="3497659" user="NKA" version="2">
		<tag k="name" v="Buli" />
		<tag k="place" v="farm" />
		<tag k="ssr:stedsnr" v="61425" />
		<tag k="ssr:type" v="bruk" />
	</node>
	<node changeset="57982147" id="4463977103" lat="58.4565512" lon="8.2588782" timestamp="2018-04-10T18:47:25Z" uid="3497659" user="NKA" version="2">
		<tag k="name" v="Børufsduk" />
		<tag k="place" v="farm" />
		<tag k="ssr:stedsnr" v="590823" />
		<tag k="ssr:type" v="bruk" />
	</node>
	<node changeset="57982147" id="4463977104" lat="58.3264278" lon="8.1146057" timestamp="2018-04-10T18:47:25Z" uid="3497659" user="NKA" version="2">
		<tag k="name" v="Dalane" />
		<tag k="place" v="farm" />
		<tag k="ssr:stedsnr" v="303256" />
		<tag k="ssr:type" v="bruk" />
	</node>
	<node changeset="57982147" id="4463977105" lat="58.4376637" lon="8.2716294" timestamp="2018-04-10T18:47:25Z" uid="3497659" user="NKA" version="2">
		<tag k="name" v="Dalane" />
		<tag k="place" v="farm" />
		<tag k="ssr:stedsnr" v="546344" />
		<tag k="ssr:type" v="bruk" />
	</node>
	<node changeset="57982147" id="4463977106" lat="58.3591049" lon="8.0562116" timestamp="2018-04-10T18:47:25Z" uid="3497659" user="NKA" version="2">
		<tag k="name" v="Dale" />
		<tag k="place" v="farm" />
		<tag k="ssr:stedsnr" v="182070" />
		<tag k="ssr:type" v="bruk" />
	</node>
	<node changeset="57982147" id="4463977107" lat="58.5384948" lon="8.0726009" timestamp="2018-04-10T18:47:25Z" uid="3497659" user="NKA" version="2">
		<tag k="name" v="Der nord" />
		<tag k="place" v="farm" />
		<tag k="ssr:stedsnr" v="535211" />
		<tag k="ssr:type" v="bruk" />
	</node>
	<node changeset="57982147" id="4463977108" lat="58.5356199" lon="8.0696035" timestamp="2018-04-10T18:47:25Z" uid="3497659" user="NKA" version="2">
		<tag k="name" v="Der vest" />
		<tag k="place" v="farm" />
		<tag k="ssr:stedsnr" v="414247" />
		<tag k="ssr:type" v="bruk" />
	</node>
	<node changeset="57982147" id="4463977109" lat="58.4970516" lon="8.3459191" timestamp="2018-04-10T18:47:25Z" uid="3497659" user="NKA" version="2">
		<tag k="name" v="Direnes" />
		<tag k="place" v="farm" />
		<tag k="ssr:stedsnr" v="667050" />
		<tag k="ssr:type" v="bruk" />
	</node>
	<node changeset="57982147" id="4463977110" lat="58.3763091" lon="8.1572138" timestamp="2018-04-10T18:47:25Z" uid="3497659" user="NKA" version="2">
		<tag k="name" v="Djupedalen" />
		<tag k="place" v="farm" />
		<tag k="ssr:stedsnr" v="425329" />
		<tag k="ssr:type" v="bruk" />
	</node>
	<node changeset="57982147" id="4463977111" lat="58.5246056" lon="8.0407079" timestamp="2018-04-10T18:47:25Z" uid="3497659" user="NKA" version="2">
		<tag k="name" v="Dovland" />
		<tag k="place" v="farm" />
		<tag k="ssr:stedsnr" v="668447" />
		<tag k="ssr:type" v="bruk" />
	</node>
	<node changeset="57982147" id="4463977112" lat="58.3336498" lon="8.3098548" timestamp="2018-04-10T18:47:25Z" uid="3497659" user="NKA" version="2">
		<tag k="building" v="cabin" />
		<tag k="name" v="Eggevad" />
		<tag k="place" v="isolated_dwelling" />
		<tag k="ssr:stedsnr" v="667251" />
		<tag k="ssr:type" v="fritidsbolig" />
	</node>
	<node changeset="57982147" id="4463977113" lat="58.4989095" lon="8.0794551" timestamp="2018-04-10T18:47:26Z" uid="3497659" user="NKA" version="2">
		<tag k="name" v="Eikelia" />
		<tag k="place" v="farm" />
		<tag k="ssr:stedsnr" v="364228" />
		<tag k="ssr:type" v="bruk" />
	</node>
	<node changeset="57982147" id="4463977114" lat="58.3549024" lon="8.1844996" timestamp="2018-04-10T18:47:26Z" uid="3497659" user="NKA" version="2">
		<tag k="fixme" v="check position" />
		<tag k="historic" v="ruins" />
		<tag k="name" v="Eikhola" />
		<tag k="place" v="locality" />
		<tag k="ssr:stedsnr" v="469699" />
		<tag k="ssr:type" v="gammelBosettingsplass" />
	</node>
	<node changeset="57982147" id="4463977115" lat="58.3450259" lon="8.0651573" timestamp="2018-04-10T18:47:26Z" uid="3497659" user="NKA" version="2">
		<tag k="building" v="cabin" />
		<tag k="name" v="Eldhuset" />
		<tag k="place" v="isolated_dwelling" />
		<tag k="ssr:stedsnr" v="347772" />
		<tag k="ssr:type" v="fritidsbolig" />
	</node>
	<node changeset="57982147" id="4463977116" lat="58.4887568" lon="8.3540867" timestamp="2018-04-10T18:47:26Z" uid="3497659" user="NKA" version="2">
		<tag k="name" v="Engebu" />
		<tag k="place" v="farm" />
		<tag k="ssr:stedsnr" v="182428" />
		<tag k="ssr:type" v="bruk" />
	</node>
	<node changeset="57982147" id="4463977117" lat="58.5314175" lon="8.1181706" timestamp="2018-04-10T18:47:26Z" uid="3497659" user="NKA" version="2">
		<tag k="name" v="Engesland" />
		<tag k="place" v="village" />
		<tag k="ssr:stedsnr" v="122195" />
		<tag k="ssr:type" v="bygdelagBygd" />
	</node>
	<node changeset="57982147" id="4463977118" lat="58.2550864" lon="8.1709025" timestamp="2018-04-10T18:47:26Z" uid="3497659" user="NKA" version="2">
		<tag k="name" v="Espegra" />
		<tag k="place" v="farm" />
		<tag k="ssr:stedsnr" v="606701" />
		<tag k="ssr:type" v="bruk" />
	</node>
	<node changeset="57982147" id="4463977119" lat="58.4916955" lon="8.019419" timestamp="2018-04-10T18:47:26Z" uid="3497659" user="NKA" version="2">
		<tag k="name" v="Eveli" />
		<tag k="place" v="farm" />
		<tag k="ssr:stedsnr" v="242180" />
		<tag k="ssr:type" v="bruk" />
	</node>
	<node changeset="57982147" id="4463977120" lat="58.5095039" lon="8.001655" timestamp="2018-04-10T18:47:26Z" uid="3497659" user="NKA" version="2">
		<tag k="name" v="Fidjeland" />
		<tag k="place" v="farm" />
		<tag k="ssr:stedsnr" v="911432" />
		<tag k="ssr:type" v="bruk" />
	</node>
	<node changeset="57982147" id="4463977121" lat="58.515841" lon="8.0255726" timestamp="2018-04-10T18:47:26Z" uid="3497659" user="NKA" version="2">
		<tag k="name" v="Fidjeland" />
		<tag k="place" v="farm" />
		<tag k="ssr:stedsnr" v="62422" />
		<tag k="ssr:type" v="bruk" />
	</node>
	<node changeset="57982147" id="4463977122" lat="58.3483774" lon="8.0572988" timestamp="2018-04-10T18:47:27Z" uid="3497659" user="NKA" version="2">
		<tag k="name" v="Fjellom" />
		<tag k="place" v="farm" />
		<tag k="ssr:stedsnr" v="303060" />
		<tag k="ssr:type" v="bruk" />
	</node>
	<node changeset="57982147" id="4463977123" lat="58.2761296" lon="8.2318612" timestamp="2018-04-10T18:47:27Z" uid="3497659" user="NKA" version="2">
		<tag k="name" v="Fjellskår" />
		<tag k="place" v="farm" />
		<tag k="ssr:stedsnr" v="910722" />
		<tag k="ssr:type" v="bruk" />
	</node>
	<node changeset="57982147" id="4463977124" lat="58.3334256" lon="8.2063335" timestamp="2018-04-10T18:47:27Z" uid="3497659" user="NKA" version="2">
		<tag k="name" v="Flakk" />
		<tag k="place" v="farm" />
		<tag k="ssr:stedsnr" v="788255" />
		<tag k="ssr:type" v="bruk" />
	</node>
	<node changeset="57982147" id="4463977125" lat="58.3361856" lon="8.2104443" timestamp="2018-04-10T18:47:27Z" uid="3497659" user="NKA" version="2">
		<tag k="name" v="Flakk" />
		<tag k="place" v="hamlet" />
		<tag k="ssr:stedsnr" v="788868" />
		<tag k="ssr:type" v="gard" />
	</node>
	<node changeset="57982147" id="4463977126" lat="58.593418" lon="8.1509155" timestamp="2018-04-10T18:47:27Z" uid="3497659" user="NKA" version="2">
		<tag k="name" v="Flateland" />
		<tag k="place" v="farm" />
		<tag k="ssr:stedsnr" v="122333" />
		<tag k="ssr:type" v="bruk" />
	</node>
	<node changeset="57982147" id="4463977127" lat="58.3323032" lon="8.2798551" timestamp="2018-04-10T18:47:27Z" uid="3497659" user="NKA" version="2">
		<tag k="name" v="Flaten" />
		<tag k="place" v="farm" />
		<tag k="ssr:stedsnr" v="606240" />
		<tag k="ssr:type" v="bruk" />
	</node>
	<node changeset="57982147" id="4463977128" lat="58.3828193" lon="8.2675139" timestamp="2018-04-10T18:47:27Z" uid="3497659" user="NKA" version="2">
		<tag k="name" v="Flå" />
		<tag k="place" v="farm" />
		<tag k="ssr:stedsnr" v="789349" />
		<tag k="ssr:type" v="bruk" />
	</node>
	<node changeset="57982147" id="4463977129" lat="58.3829956" lon="8.2690891" timestamp="2018-04-10T18:47:27Z" uid="3497659" user="NKA" version="2">
		<tag k="name" v="Flå" />
		<tag k="place" v="hamlet" />
		<tag k="ssr:stedsnr" v="789348" />
		<tag k="ssr:type" v="grend" />
	</node>
	<node changeset="57982147" id="4463977130" lat="58.4488831" lon="8.3205728" timestamp="2018-04-10T18:47:27Z" uid="3497659" user="NKA" version="2">
		<tag k="name" v="Fossane" />
		<tag k="place" v="farm" />
		<tag k="ssr:stedsnr" v="396070" />
		<tag k="ssr:type" v="bruk" />
	</node>
	<node changeset="57982147" id="4463977131" lat="58.3387124" lon="8.3272272" timestamp="2018-04-10T18:47:27Z" uid="3497659" user="NKA" version="2">
		<tag k="name" v="Froholtskjerr" />
		<tag k="place" v="farm" />
		<tag k="ssr:stedsnr" v="573657" />
		<tag k="ssr:type" v="bruk" />
	</node>
	<node changeset="57982147" id="4463977132" lat="58.3969022" lon="8.2754205" timestamp="2018-04-10T18:47:28Z" uid="3497659" user="NKA" version="2">
		<tag k="name" v="Furholt" />
		<tag k="place" v="locality" />
		<tag k="ssr:stedsnr" v="546395" />
		<tag k="ssr:type" v="fritidsbolig" />
	</node>
	<node changeset="57982147" id="4463977133" lat="58.5344875" lon="8.2338312" timestamp="2018-04-10T18:47:28Z" uid="3497659" user="NKA" version="2">
		<tag k="name" v="Furholt" />
		<tag k="place" v="farm" />
		<tag k="ssr:stedsnr" v="364219" />
		<tag k="ssr:type" v="bruk" />
	</node>
	<node changeset="57982147" id="4463977134" lat="58.5372214" lon="8.0680624" timestamp="2018-04-10T18:47:28Z" uid="3497659" user="NKA" version="2">
		<tag k="name" v="Furujordet" />
		<tag k="place" v="farm" />
		<tag k="ssr:stedsnr" v="596247" />
		<tag k="ssr:type" v="bruk" />
	</node>
	<node changeset="57982147" id="4463977135" lat="58.2806782" lon="8.2240448" timestamp="2018-04-10T18:47:28Z" uid="3497659" user="NKA" version="2">
		<tag k="fixme" v="check position" />
		<tag k="historic" v="ruins" />
		<tag k="name" v="Furåsen" />
		<tag k="place" v="locality" />
		<tag k="ssr:stedsnr" v="634345" />
		<tag k="ssr:type" v="gammelBosettingsplass" />
	</node>
	<node changeset="57982147" id="4463977136" lat="58.2833206" lon="8.2215533" timestamp="2018-04-10T18:47:28Z" uid="3497659" user="NKA" version="2">
		<tag k="fixme" v="check position" />
		<tag k="historic" v="ruins" />
		<tag k="name" v="Furåsen" />
		<tag k="place" v="locality" />
		<tag k="ssr:stedsnr" v="756286" />
		<tag k="ssr:type" v="gammelBosettingsplass" />
	</node>
	<node changeset="57982147" id="4463977137" lat="58.2768527" lon="8.1173551" timestamp="2018-04-10T18:47:28Z" uid="3497659" user="NKA" version="2">
		<tag k="name" v="Følsvatn" />
		<tag k="place" v="farm" />
		<tag k="ssr:stedsnr" v="747" />
		<tag k="ssr:type" v="bruk" />
	</node>
	<node changeset="57982147" id="4463977138" lat="58.491107" lon="8.2417146" timestamp="2018-04-10T18:47:28Z" uid="3497659" user="NKA" version="2">
		<tag k="fixme" v="check position" />
		<tag k="historic" v="ruins" />
		<tag k="name" v="Gamle Håstøl" />
		<tag k="place" v="locality" />
		<tag k="ssr:stedsnr" v="590757" />
		<tag k="ssr:type" v="gammelBosettingsplass" />
	</node>
	<node changeset="57982147" id="4463977139" lat="58.5718412" lon="8.3835858" timestamp="2018-04-10T18:47:28Z" uid="3497659" user="NKA" version="2">
		<tag k="name" v="Gauslå" />
		<tag k="place" v="farm" />
		<tag k="ssr:stedsnr" v="547154" />
		<tag k="ssr:type" v="bruk" />
	</node>
	<node changeset="57982147" id="4463977140" lat="58.5259638" lon="7.9534989" timestamp="2018-04-10T18:47:29Z" uid="3497659" user="NKA" version="2">
		<tag k="name" v="Gjerustad" />
		<tag k="place" v="farm" />
		<tag k="ssr:stedsnr" v="61653" />
		<tag k="ssr:type" v="bruk" />
	</node>
	<node changeset="57982147" id="4463977141" lat="58.3741146" lon="8.2951555" timestamp="2018-04-10T18:47:29Z" uid="3497659" user="NKA" version="2">
		<tag k="name" v="Granåsen" />
		<tag k="place" v="farm" />
		<tag k="ssr:stedsnr" v="364354" />
		<tag k="ssr:type" v="bruk" />
	</node>
	<node changeset="57982147" id="4463977142" lat="58.2829742" lon="8.080665" timestamp="2018-04-10T18:47:29Z" uid="3497659" user="NKA" version="2">
		<tag k="name" v="Grua" />
		<tag k="place" v="farm" />
		<tag k="ssr:stedsnr" v="789008" />
		<tag k="ssr:type" v="bruk" />
	</node>
	<node changeset="57982147" id="4463977143" lat="58.3717267" lon="8.0553818" timestamp="2018-04-10T18:47:29Z" uid="3497659" user="NKA" version="2">
		<tag k="name" v="Grunnetjønn" />
		<tag k="place" v="farm" />
		<tag k="ssr:stedsnr" v="182067" />
		<tag k="ssr:type" v="bruk" />
	</node>
	<node changeset="57982147" id="4463977144" lat="58.264541" lon="8.1688138" timestamp="2018-04-10T18:47:29Z" uid="3497659" user="NKA" version="2">
		<tag k="name" v="Grødum" />
		<tag k="place" v="hamlet" />
		<tag k="ssr:stedsnr" v="667670" />
		<tag k="ssr:type" v="bruk" />
	</node>
	<node changeset="57982147" id="4463977145" lat="58.6235484" lon="8.178009" timestamp="2018-04-10T18:47:29Z" uid="3497659" user="NKA" version="2">
		<tag k="building" v="cabin" />
		<tag k="name" v="Gunnarsbu" />
		<tag k="place" v="isolated_dwelling" />
		<tag k="ssr:stedsnr" v="899749" />
		<tag k="ssr:type" v="fritidsbolig" />
	</node>
	<node changeset="57982147" id="4463977146" lat="58.3629746" lon="8.2496331" timestamp="2018-04-10T18:47:29Z" uid="3497659" user="NKA" version="2">
		<tag k="name" v="Hagestad" />
		<tag k="place" v="farm" />
		<tag k="ssr:stedsnr" v="243343" />
		<tag k="ssr:type" v="bruk" />
	</node>
	<node changeset="57982147" id="4463977147" lat="58.4538164" lon="8.2485573" timestamp="2018-04-10T18:47:29Z" uid="3497659" user="NKA" version="2">
		<tag k="name" v="Hasllia" />
		<tag k="place" v="farm" />
		<tag k="ssr:stedsnr" v="243499" />
		<tag k="ssr:type" v="bruk" />
	</node>
	<node changeset="57982147" id="4463977148" lat="58.3313372" lon="8.2490811" timestamp="2018-04-10T18:47:29Z" uid="3497659" user="NKA" version="2">
		<tag k="name" v="Haugelia" />
		<tag k="place" v="farm" />
		<tag k="ssr:stedsnr" v="513361" />
		<tag k="ssr:type" v="bruk" />
	</node>
	<node changeset="57982147" id="4463977149" lat="58.4438082" lon="8.2764142" timestamp="2018-04-10T18:47:29Z" uid="3497659" user="NKA" version="2">
		<tag k="name" v="Haugen" />
		<tag k="place" v="farm" />
		<tag k="ssr:stedsnr" v="393" />
		<tag k="ssr:type" v="bruk" />
	</node>
	<node changeset="57982147" id="4463977150" lat="58.5375649" lon="8.0747326" timestamp="2018-04-10T18:47:30Z" uid="3497659" user="NKA" version="2">
		<tag k="name" v="Haugen" />
		<tag k="place" v="farm" />
		<tag k="ssr:stedsnr" v="596217" />
		<tag k="ssr:type" v="bruk" />
	</node>
	<node changeset="57982147" id="4463977151" lat="58.4582814" lon="8.1032686" timestamp="2018-04-10T18:47:30Z" uid="3497659" user="NKA" version="2">
		<tag k="name" v="Hauger" />
		<tag k="place" v="farm" />
		<tag k="ssr:stedsnr" v="546446" />
		<tag k="ssr:type" v="bruk" />
	</node>
	<node changeset="57982147" id="4463977152" lat="58.4498721" lon="8.0861306" timestamp="2018-04-10T18:47:30Z" uid="3497659" user="NKA" version="2">
		<tag k="name" v="Haugland" />
		<tag k="place" v="farm" />
		<tag k="ssr:stedsnr" v="182209" />
		<tag k="ssr:type" v="bruk" />
	</node>
	<node changeset="57982147" id="4463977153" lat="58.3252706" lon="8.2061124" timestamp="2018-04-10T18:47:30Z" uid="3497659" user="NKA" version="2">
		<tag k="name" v="Havane" />
		<tag k="place" v="farm" />
		<tag k="ssr:stedsnr" v="243254" />
		<tag k="ssr:type" v="bruk" />
	</node>
	<node changeset="57982147" id="4463977154" lat="58.2858322" lon="8.1864101" timestamp="2018-04-10T18:47:30Z" uid="3497659" user="NKA" version="2">
		<tag k="name" v="Have" />
		<tag k="place" v="farm" />
		<tag k="ssr:stedsnr" v="182303" />
		<tag k="ssr:type" v="bruk" />
	</node>
	<node changeset="57982147" id="4463977155" lat="58.2875648" lon="8.0916799" timestamp="2018-04-10T18:47:30Z" uid="3497659" user="NKA" version="2">
		<tag k="name" v="Haven" />
		<tag k="place" v="farm" />
		<tag k="ssr:stedsnr" v="833569" />
		<tag k="ssr:type" v="bruk" />
	</node>
	<node changeset="57982147" id="4463977156" lat="58.4308873" lon="8.3038134" timestamp="2018-04-10T18:47:30Z" uid="3497659" user="NKA" version="2">
		<tag k="alt_name" v="Hagen" />
		<tag k="name" v="Haven" />
		<tag k="place" v="farm" />
		<tag k="ssr:stedsnr" v="364407" />
		<tag k="ssr:type" v="bruk" />
	</node>
	<node changeset="57982147" id="4463977157" lat="58.310656" lon="8.282793" timestamp="2018-04-10T18:47:30Z" uid="3497659" user="NKA" version="2">
		<tag k="historic" v="yes" />
		<tag k="name" v="Hefte" />
		<tag k="place" v="locality" />
		<tag k="ssr:stedsnr" v="634421" />
		<tag k="ssr:type" v="stø" />
	</node>
	<node changeset="57982147" id="4463977158" lat="58.4485853" lon="8.2263443" timestamp="2018-04-10T18:47:30Z" uid="3497659" user="NKA" version="2">
		<tag k="name" v="Heimdal" />
		<tag k="place" v="farm" />
		<tag k="ssr:stedsnr" v="243496" />
		<tag k="ssr:type" v="bruk" />
	</node>
	<node changeset="57982147" id="4463977159" lat="58.4165891" lon="8.1742546" timestamp="2018-04-10T18:47:31Z" uid="3497659" user="NKA" version="2">
		<tag k="name" v="Hellerslia" />
		<tag k="place" v="farm" />
		<tag k="ssr:stedsnr" v="910420" />
		<tag k="ssr:type" v="eneboligMindreBoligbygg" />
	</node>
	<node changeset="56035354" id="4463977160" lat="58.5230963" lon="8.349949" timestamp="2018-02-03T17:50:01Z" uid="2114448" user="FredrikLindseth_import" version="3" />
	<node changeset="57982147" id="4463977161" lat="58.3127924" lon="8.2332117" timestamp="2018-04-10T18:47:31Z" uid="3497659" user="NKA" version="2">
		<tag k="name" v="Herregård" />
		<tag k="place" v="isolated_dwelling" />
		<tag k="ssr:stedsnr" v="695741" />
		<tag k="ssr:type" v="fritidsbolig" />
	</node>
	<node changeset="57982147" id="4463977162" lat="58.4432701" lon="8.1051976" timestamp="2018-04-10T18:47:31Z" uid="3497659" user="NKA" version="2">
		<tag k="name" v="Holmgard" />
		<tag k="place" v="farm" />
		<tag k="ssr:stedsnr" v="711529" />
		<tag k="ssr:type" v="bruk" />
	</node>
	<node changeset="57982147" id="4463977163" lat="58.4833351" lon="8.1018899" timestamp="2018-04-10T18:47:31Z" uid="3497659" user="NKA" version="2">
		<tag k="name" v="Hommen" />
		<tag k="place" v="farm" />
		<tag k="ssr:stedsnr" v="850462" />
		<tag k="ssr:type" v="bruk" />
	</node>
	<node changeset="57982147" id="4463977164" lat="58.3512232" lon="8.1919632" timestamp="2018-04-10T18:47:31Z" uid="3497659" user="NKA" version="3">
		<tag k="building" v="cabin" />
		<tag k="historic" v="croft" />
		<tag k="name" v="Homslia" />
		<tag k="place" v="isolated_dwelling" />
		<tag k="ssr:stedsnr" v="849365" />
		<tag k="ssr:type" v="fritidsbolig" />
	</node>
	<node changeset="57982147" id="4463977165" lat="58.4213817" lon="8.2964632" timestamp="2018-04-10T18:47:31Z" uid="3497659" user="NKA" version="2">
		<tag k="fixme" v="check position" />
		<tag k="historic" v="ruins" />
		<tag k="name" v="Hovet" />
		<tag k="place" v="locality" />
		<tag k="ssr:stedsnr" v="154020" />
		<tag k="ssr:type" v="gammelBosettingsplass" />
	</node>
	<node changeset="57982147" id="4463977168" lat="58.3392696" lon="8.268224" timestamp="2018-04-10T18:47:31Z" uid="3497659" user="NKA" version="2">
		<tag k="name" v="Huset" />
		<tag k="place" v="farm" />
		<tag k="ssr:stedsnr" v="392416" />
		<tag k="ssr:type" v="bruk" />
	</node>
	<node changeset="57982147" id="4463977169" lat="58.3423855" lon="8.2726646" timestamp="2018-04-10T18:47:32Z" uid="3497659" user="NKA" version="2">
		<tag k="alt_name" v="Håbesland" />
		<tag k="name" v="Håbbesland" />
		<tag k="place" v="hamlet" />
		<tag k="ssr:stedsnr" v="485304" />
		<tag k="ssr:type" v="bygdelagBygd" />
	</node>
	<node changeset="57982147" id="4463977170" lat="58.490207" lon="8.2384984" timestamp="2018-04-10T18:47:32Z" uid="3497659" user="NKA" version="2">
		<tag k="name" v="Håstøl" />
		<tag k="place" v="farm" />
		<tag k="ssr:stedsnr" v="667418" />
		<tag k="ssr:type" v="bruk" />
	</node>
	<node changeset="57982147" id="4463977171" lat="58.5034384" lon="8.1150756" timestamp="2018-04-10T18:47:32Z" uid="3497659" user="NKA" version="2">
		<tag k="alt_name" v="Håvardstad" />
		<tag k="name" v="Håverstad" />
		<tag k="place" v="farm" />
		<tag k="ssr:stedsnr" v="486041" />
		<tag k="ssr:type" v="bruk" />
	</node>
	<node changeset="57982147" id="4463977172" lat="58.2926517" lon="8.1848712" timestamp="2018-04-10T18:47:32Z" uid="3497659" user="NKA" version="2">
		<tag k="name" v="Høygilt" />
		<tag k="place" v="hamlet" />
		<tag k="ssr:stedsnr" v="317" />
		<tag k="ssr:type" v="gard" />
	</node>
	<node changeset="57982147" id="4463977173" lat="58.2812233" lon="8.124501" timestamp="2018-04-10T18:47:32Z" uid="3497659" user="NKA" version="2">
		<tag k="fixme" v="check position" />
		<tag k="historic" v="ruins" />
		<tag k="name" v="Høyvoll" />
		<tag k="place" v="locality" />
		<tag k="ssr:stedsnr" v="700942" />
		<tag k="ssr:type" v="gammelBosettingsplass" />
	</node>
	<node changeset="57982147" id="4463977174" lat="58.3608638" lon="8.2847441" timestamp="2018-04-10T18:47:32Z" uid="3497659" user="NKA" version="2">
		<tag k="name" v="Jamsland" />
		<tag k="place" v="farm" />
		<tag k="ssr:stedsnr" v="304352" />
		<tag k="ssr:type" v="bruk" />
	</node>
	<node changeset="57982147" id="4463977175" lat="58.376032" lon="8.262821" timestamp="2018-04-10T18:47:32Z" uid="3497659" user="NKA" version="2">
		<tag k="fixme" v="check position" />
		<tag k="historic" v="ruins" />
		<tag k="name" v="Jordfallet" />
		<tag k="place" v="locality" />
		<tag k="ssr:stedsnr" v="215869" />
		<tag k="ssr:type" v="gammelBosettingsplass" />
	</node>
	<node changeset="57982147" id="4463977176" lat="58.40445" lon="8.113366" timestamp="2018-04-10T18:47:32Z" uid="3497659" user="NKA" version="2">
		<tag k="name" v="Joreid" />
		<tag k="place" v="farm" />
		<tag k="ssr:stedsnr" v="546379" />
		<tag k="ssr:type" v="bruk" />
	</node>
	<node changeset="57982147" id="4463977177" lat="58.321959" lon="8.2450202" timestamp="2018-04-10T18:47:32Z" uid="3497659" user="NKA" version="2">
		<tag k="name" v="Kalvåsen" />
		<tag k="place" v="locality" />
		<tag k="ssr:stedsnr" v="938348" />
		<tag k="ssr:type" v="gammelBosettingsplass" />
	</node>
	<node changeset="57982147" id="4463977178" lat="58.580043" lon="8.1367358" timestamp="2018-04-10T18:47:33Z" uid="3497659" user="NKA" version="2">
		<tag k="name" v="Karten" />
		<tag k="place" v="farm" />
		<tag k="ssr:stedsnr" v="534078" />
		<tag k="ssr:type" v="bruk" />
	</node>
	<node changeset="57982147" id="4463977179" lat="58.5352936" lon="7.9441741" timestamp="2018-04-10T18:47:33Z" uid="3497659" user="NKA" version="2">
		<tag k="alt_name" v="Katterås" />
		<tag k="name" v="Katerås" />
		<tag k="place" v="hamlet" />
		<tag k="ssr:stedsnr" v="486681" />
		<tag k="ssr:type" v="bruk" />
	</node>
	<node changeset="57982147" id="4463977180" lat="58.533736" lon="7.989122" timestamp="2018-04-10T18:47:33Z" uid="3497659" user="NKA" version="2">
		<tag k="alt_name" v="Kjælevatn" />
		<tag k="name" v="Kjellevatn" />
		<tag k="place" v="farm" />
		<tag k="ssr:stedsnr" v="546631" />
		<tag k="ssr:type" v="bruk" />
	</node>
	<node changeset="57982147" id="4463977182" lat="58.4043377" lon="8.2800189" timestamp="2018-04-10T18:47:33Z" uid="3497659" user="NKA" version="2">
		<tag k="name" v="Kjærestrøm" />
		<tag k="place" v="farm" />
		<tag k="ssr:stedsnr" v="789439" />
		<tag k="ssr:type" v="bruk" />
	</node>
	<node changeset="57982147" id="4463977183" lat="58.2679636" lon="8.2276597" timestamp="2018-04-10T18:47:33Z" uid="3497659" user="NKA" version="2">
		<tag k="building" v="cabin" />
		<tag k="name" v="Klepp" />
		<tag k="place" v="isolated_dwelling" />
		<tag k="ssr:stedsnr" v="60737" />
		<tag k="ssr:type" v="fritidsbolig" />
	</node>
	<node changeset="57982147" id="4463977184" lat="58.3562895" lon="8.0750712" timestamp="2018-04-10T18:47:33Z" uid="3497659" user="NKA" version="2">
		<tag k="name" v="Klepp" />
		<tag k="place" v="farm" />
		<tag k="ssr:stedsnr" v="485061" />
		<tag k="ssr:type" v="bruk" />
	</node>
	<node changeset="57982147" id="4463977185" lat="58.370973" lon="8.1768019" timestamp="2018-04-10T18:47:33Z" uid="3497659" user="NKA" version="2">
		<tag k="name" v="Knappholt" />
		<tag k="place" v="farm" />
		<tag k="ssr:stedsnr" v="789359" />
		<tag k="ssr:type" v="bruk" />
	</node>
	<node changeset="57982147" id="4463977186" lat="58.4904528" lon="8.3723183" timestamp="2018-04-10T18:47:33Z" uid="3497659" user="NKA" version="2">
		<tag k="fixme" v="check position" />
		<tag k="historic" v="ruins" />
		<tag k="name" v="Kolfrajordet" />
		<tag k="place" v="locality" />
		<tag k="ssr:stedsnr" v="518225" />
		<tag k="ssr:type" v="gammelBosettingsplass" />
	</node>
	<node changeset="57982147" id="4463977187" lat="58.286024" lon="8.0875328" timestamp="2018-04-10T18:47:34Z" uid="3497659" user="NKA" version="2">
		<tag k="name" v="Krona" />
		<tag k="place" v="farm" />
		<tag k="ssr:stedsnr" v="667006" />
		<tag k="ssr:type" v="bruk" />
	</node>
	<node changeset="57982147" id="4463977188" lat="58.4446645" lon="8.3546001" timestamp="2018-04-10T18:47:34Z" uid="3497659" user="NKA" version="2">
		<tag k="alt_name" v="Krokedal" />
		<tag k="building" v="cabin" />
		<tag k="name" v="Kråkedal" />
		<tag k="place" v="isolated_dwelling" />
		<tag k="ssr:stedsnr" v="304388" />
		<tag k="ssr:type" v="fritidsbolig" />
	</node>
	<node changeset="57982147" id="3951893298" lat="58.5788028" lon="8.1470377" timestamp="2018-04-10T18:40:14Z" uid="3497659" user="NKA" version="4">
		<tag k="name" v="Vegusdal" />
		<tag k="place" v="village" />
		<tag k="ssr:stedsnr" v="244188" />
		<tag k="ssr:type" v="grend" />
	</node>
	<node changeset="62004418" id="2775632693" lat="58.2819321" lon="8.0985598" timestamp="2018-08-26T14:08:06Z" uid="3842253" user="NKA_import" version="2" />
	<node changeset="62004418" id="2775632694" lat="58.2819427" lon="8.0975021" timestamp="2018-08-26T14:08:06Z" uid="3842253" user="NKA_import" version="2" />
	<node changeset="62004418" id="2775632695" lat="58.2819488" lon="8.0978127" timestamp="2018-08-26T14:08:06Z" uid="3842253" user="NKA_import" version="2" />
	<node changeset="62004418" id="2775632696" lat="58.2816343" lon="8.0958048" timestamp="2018-08-26T14:08:06Z" uid="3842253" user="NKA_import" version="2" />
	<node changeset="62004418" id="2775632697" lat="58.2814251" lon="8.0928939" timestamp="2018-08-26T14:08:06Z" uid="3842253" user="NKA_import" version="2" />
	<node changeset="62004418" id="2775632699" lat="58.2812311" lon="8.0908697" timestamp="2018-08-26T14:08:06Z" uid="3842253" user="NKA_import" version="2" />
	<node changeset="62004418" id="2775632700" lat="58.2812469" lon="8.0905623" timestamp="2018-08-26T14:08:06Z" uid="3842253" user="NKA_import" version="2" />
	<node changeset="62004418" id="2775632701" lat="58.2818932" lon="8.0968554" timestamp="2018-08-26T14:08:06Z" uid="3842253" user="NKA_import" version="2" />
	<node changeset="62004418" id="2775632703" lat="58.2820139" lon="8.0989994" timestamp="2018-08-26T14:08:06Z" uid="3842253" user="NKA_import" version="2" />
	<node changeset="62004418" id="2775632705" lat="58.2822176" lon="8.0995416" timestamp="2018-08-26T14:08:06Z" uid="3842253" user="NKA_import" version="2" />
	<node changeset="62004418" id="2775632707" lat="58.2819336" lon="8.0987643" timestamp="2018-08-26T14:08:06Z" uid="3842253" user="NKA_import" version="2" />
	<node changeset="62004418" id="2775632709" lat="58.2821875" lon="8.0992884" timestamp="2018-08-26T14:08:06Z" uid="3842253" user="NKA_import" version="2" />
	<node changeset="57982147" id="4463977290" lat="58.4812562" lon="8.2732381" timestamp="2018-04-10T18:47:34Z" uid="3497659" user="NKA" version="2">
		<tag k="name" v="Kylland" />
		<tag k="place" v="farm" />
		<tag k="ssr:stedsnr" v="304460" />
		<tag k="ssr:type" v="bruk" />
	</node>
	<node changeset="57982147" id="4463977291" lat="58.5017052" lon="8.2565961" timestamp="2018-04-10T18:47:34Z" uid="3497659" user="NKA" version="2">
		<tag k="name" v="Lande" />
		<tag k="place" v="farm" />
		<tag k="ssr:stedsnr" v="62011" />
		<tag k="ssr:type" v="bruk" />
	</node>
	<node changeset="57982147" id="4463977292" lat="58.504785" lon="8.275035" timestamp="2018-04-10T18:47:34Z" uid="3497659" user="NKA" version="2">
		<tag k="name" v="Landås" />
		<tag k="place" v="farm" />
		<tag k="ssr:stedsnr" v="547012" />
		<tag k="ssr:type" v="bruk" />
	</node>
	<node changeset="57982147" id="4463977293" lat="58.3437185" lon="8.290048" timestamp="2018-04-10T18:47:34Z" uid="3497659" user="NKA" version="2">
		<tag k="fixme" v="check position" />
		<tag k="historic" v="ruins" />
		<tag k="name" v="Larsbakk" />
		<tag k="place" v="locality" />
		<tag k="ssr:stedsnr" v="210683" />
		<tag k="ssr:type" v="gammelBosettingsplass" />
	</node>
	<node changeset="57982147" id="4463977294" lat="58.3694259" lon="8.2067587" timestamp="2018-04-10T18:47:34Z" uid="3497659" user="NKA" version="2">
		<tag k="name" v="Lauvdalen" />
		<tag k="place" v="farm" />
		<tag k="ssr:stedsnr" v="425343" />
		<tag k="ssr:type" v="bruk" />
	</node>
	<node changeset="57982147" id="4463977295" lat="58.4580077" lon="8.3555596" timestamp="2018-04-10T18:47:34Z" uid="3497659" user="NKA" version="2">
		<tag k="name" v="Lauvåsen" />
		<tag k="place" v="farm" />
		<tag k="ssr:stedsnr" v="303483" />
		<tag k="ssr:type" v="bruk" />
	</node>
	<node changeset="57982147" id="4463977296" lat="58.3818415" lon="8.2459265" timestamp="2018-04-10T18:47:35Z" uid="3497659" user="NKA" version="2">
		<tag k="name" v="Lia" />
		<tag k="place" v="farm" />
		<tag k="ssr:stedsnr" v="789347" />
		<tag k="ssr:type" v="bruk" />
	</node>
	<node changeset="57982147" id="4463977297" lat="58.4757167" lon="8.1892791" timestamp="2018-04-10T18:47:35Z" uid="3497659" user="NKA" version="2">
		<tag k="building" v="cabin" />
		<tag k="name" v="Lia" />
		<tag k="place" v="isolated_dwelling" />
		<tag k="ssr:stedsnr" v="243460" />
		<tag k="ssr:type" v="fritidsbolig" />
	</node>
	<node changeset="57982147" id="4463977298" lat="58.4985386" lon="8.3290999" timestamp="2018-04-10T18:47:35Z" uid="3497659" user="NKA" version="2">
		<tag k="name" v="Lia" />
		<tag k="place" v="farm" />
		<tag k="ssr:stedsnr" v="910055" />
		<tag k="ssr:type" v="bruk" />
	</node>
	<node changeset="57982147" id="4463977299" lat="58.3694604" lon="8.2579761" timestamp="2018-04-10T18:47:35Z" uid="3497659" user="NKA" version="2">
		<tag k="name" v="Liane" />
		<tag k="place" v="farm" />
		<tag k="ssr:stedsnr" v="182333" />
		<tag k="ssr:type" v="bruk" />
	</node>
	<node changeset="57982147" id="4463977300" lat="58.3117109" lon="8.1170684" timestamp="2018-04-10T18:47:35Z" uid="3497659" user="NKA" version="2">
		<tag k="name" v="Lille Svaland" />
		<tag k="place" v="farm" />
		<tag k="ssr:stedsnr" v="469261" />
		<tag k="ssr:type" v="bruk" />
	</node>
	<node changeset="57982147" id="4463977301" lat="58.464894" lon="8.2741025" timestamp="2018-04-10T18:47:35Z" uid="3497659" user="NKA" version="2">
		<tag k="name" v="Lilleheimdal" />
		<tag k="place" v="farm" />
		<tag k="ssr:stedsnr" v="849488" />
		<tag k="ssr:type" v="bruk" />
	</node>
	<node changeset="57982147" id="4463977303" lat="58.5230448" lon="8.1252553" timestamp="2018-04-10T18:47:35Z" uid="3497659" user="NKA" version="2">
		<tag k="name" v="Linmyr" />
		<tag k="place" v="farm" />
		<tag k="ssr:stedsnr" v="353150" />
		<tag k="ssr:type" v="bruk" />
	</node>
	<node changeset="57982147" id="4463977304" lat="58.5259125" lon="8.1229516" timestamp="2018-04-10T18:47:35Z" uid="3497659" user="NKA" version="2">
		<tag k="name" v="Litveit" />
		<tag k="place" v="farm" />
		<tag k="ssr:stedsnr" v="353175" />
		<tag k="ssr:type" v="bruk" />
	</node>
	<node changeset="57982147" id="4463977306" lat="58.3467354" lon="8.3085241" timestamp="2018-04-10T18:47:36Z" uid="3497659" user="NKA" version="2">
		<tag k="building" v="cabin" />
		<tag k="name" v="Lonåsen" />
		<tag k="place" v="isolated_dwelling" />
		<tag k="ssr:stedsnr" v="788352" />
		<tag k="ssr:type" v="fritidsbolig" />
	</node>
	<node changeset="57982147" id="4463977307" lat="58.4446658" lon="8.1056795" timestamp="2018-04-10T18:47:36Z" uid="3497659" user="NKA" version="2">
		<tag k="name" v="Lund" />
		<tag k="place" v="farm" />
		<tag k="ssr:stedsnr" v="43524" />
		<tag k="ssr:type" v="bruk" />
	</node>
	<node changeset="57982147" id="4463977308" lat="58.3386826" lon="8.2190953" timestamp="2018-04-10T18:47:36Z" uid="3497659" user="NKA" version="2">
		<tag k="name" v="Lunden" />
		<tag k="place" v="farm" />
		<tag k="ssr:stedsnr" v="696373" />
		<tag k="ssr:type" v="bruk" />
	</node>
	<node changeset="57982147" id="4463977309" lat="58.4630026" lon="8.2126235" timestamp="2018-04-10T18:47:36Z" uid="3497659" user="NKA" version="2">
		<tag k="name" v="Lunden" />
		<tag k="place" v="farm" />
		<tag k="ssr:stedsnr" v="303477" />
		<tag k="ssr:type" v="bruk" />
	</node>
	<node changeset="57982147" id="4463977310" lat="58.4693758" lon="8.2738154" timestamp="2018-04-10T18:47:36Z" uid="3497659" user="NKA" version="2">
		<tag k="name" v="Løland" />
		<tag k="place" v="farm" />
		<tag k="ssr:stedsnr" v="425445" />
		<tag k="ssr:type" v="bruk" />
	</node>
	<node changeset="57982147" id="4463977311" lat="58.4813962" lon="8.1359979" timestamp="2018-04-10T18:47:36Z" uid="3497659" user="NKA" version="2">
		<tag k="name" v="Løland" />
		<tag k="place" v="farm" />
		<tag k="ssr:stedsnr" v="121452" />
		<tag k="ssr:type" v="bruk" />
	</node>
	<node changeset="57982147" id="4463977312" lat="58.4373275" lon="8.1183078" timestamp="2018-04-10T18:47:36Z" uid="3497659" user="NKA" version="2">
		<tag k="fixme" v="check position" />
		<tag k="historic" v="ruins" />
		<tag k="name" v="Løynjordet" />
		<tag k="place" v="locality" />
		<tag k="ssr:stedsnr" v="772519" />
		<tag k="ssr:type" v="gammelBosettingsplass" />
	</node>
	<node changeset="57982147" id="4463977313" lat="58.3329502" lon="8.3405011" timestamp="2018-04-10T18:47:36Z" uid="3497659" user="NKA" version="2">
		<tag k="name" v="Mannfallmyra" />
		<tag k="place" v="farm" />
		<tag k="ssr:stedsnr" v="243248" />
		<tag k="ssr:type" v="eneboligMindreBoligbygg" />
	</node>
	<node changeset="70819513" id="4463977314" lat="58.2619074" lon="8.1710717" timestamp="2019-05-31T18:50:22Z" uid="151615" user="Erling Thingelstad" version="3">
		<tag k="name" v="Mjølemonen" />
		<tag k="place" v="farm" />
		<tag k="ssr:stedsnr" v="723" />
		<tag k="ssr:type" v="bruk" />
	</node>
	<node changeset="57982147" id="4463977315" lat="58.2989306" lon="8.278573" timestamp="2018-04-10T18:47:37Z" uid="3497659" user="NKA" version="2">
		<tag k="fixme" v="check position" />
		<tag k="historic" v="ruins" />
		<tag k="name" v="Modalen" />
		<tag k="place" v="locality" />
		<tag k="ssr:stedsnr" v="695744" />
		<tag k="ssr:type" v="gammelBosettingsplass" />
	</node>
	<node changeset="57982147" id="4463977316" lat="58.3249991" lon="8.1894241" timestamp="2018-04-10T18:47:37Z" uid="3497659" user="NKA" version="2">
		<tag k="name" v="Moen" />
		<tag k="place" v="farm" />
		<tag k="ssr:stedsnr" v="364283" />
		<tag k="ssr:type" v="bruk" />
	</node>
	<node changeset="57982147" id="4463977317" lat="58.5711377" lon="8.3777403" timestamp="2018-04-10T18:47:37Z" uid="3497659" user="NKA" version="2">
		<tag k="name" v="Moen" />
		<tag k="place" v="farm" />
		<tag k="ssr:stedsnr" v="93244" />
		<tag k="ssr:type" v="bruk" />
	</node>
	<node changeset="57982147" id="4463977318" lat="58.3069858" lon="8.2569426" timestamp="2018-04-10T18:47:37Z" uid="3497659" user="NKA" version="2">
		<tag k="name" v="Mofia" />
		<tag k="place" v="farm" />
		<tag k="ssr:stedsnr" v="121287" />
		<tag k="ssr:type" v="bruk" />
	</node>
	<node changeset="57982147" id="4463977319" lat="58.523618" lon="8.0315155" timestamp="2018-04-10T18:47:37Z" uid="3497659" user="NKA" version="2">
		<tag k="name" v="Monen" />
		<tag k="place" v="farm" />
		<tag k="ssr:stedsnr" v="232648" />
		<tag k="ssr:type" v="bruk" />
	</node>
	<node changeset="57982147" id="4463977320" lat="58.4493995" lon="8.3494499" timestamp="2018-04-10T18:47:37Z" uid="3497659" user="NKA" version="2">
		<tag k="fixme" v="check position" />
		<tag k="historic" v="ruins" />
		<tag k="name" v="Morfjell" />
		<tag k="place" v="locality" />
		<tag k="ssr:stedsnr" v="882054" />
		<tag k="ssr:type" v="gammelBosettingsplass" />
	</node>
	<node changeset="57982147" id="4463977321" lat="58.3775924" lon="8.2148443" timestamp="2018-04-10T18:47:37Z" uid="3497659" user="NKA" version="2">
		<tag k="name" v="Mosfjell" />
		<tag k="place" v="hamlet" />
		<tag k="ssr:stedsnr" v="332" />
		<tag k="ssr:type" v="bruk" />
	</node>
	<node changeset="57982147" id="4463977323" lat="58.2666664" lon="8.2128169" timestamp="2018-04-10T18:47:37Z" uid="3497659" user="NKA" version="2">
		<tag k="name" v="Myra" />
		<tag k="place" v="farm" />
		<tag k="ssr:stedsnr" v="788710" />
		<tag k="ssr:type" v="bruk" />
	</node>
	<node changeset="57982147" id="4463977324" lat="58.2821341" lon="8.1774626" timestamp="2018-04-10T18:47:38Z" uid="3497659" user="NKA" version="2">
		<tag k="name" v="Myrane" />
		<tag k="place" v="farm" />
		<tag k="ssr:stedsnr" v="728704" />
		<tag k="ssr:type" v="bruk" />
	</node>
	<node changeset="57982147" id="4463977325" lat="58.526241" lon="8.0080955" timestamp="2018-04-10T18:47:38Z" uid="3497659" user="NKA" version="2">
		<tag k="fixme" v="check position" />
		<tag k="historic" v="ruins" />
		<tag k="name" v="Myrane" />
		<tag k="place" v="farm" />
		<tag k="ssr:stedsnr" v="474704" />
		<tag k="ssr:type" v="bruk" />
	</node>
	<node changeset="57982147" id="4463977326" lat="58.3788712" lon="8.1936306" timestamp="2018-04-10T18:47:38Z" uid="3497659" user="NKA" version="2">
		<tag k="name" v="Myrvang" />
		<tag k="place" v="farm" />
		<tag k="ssr:stedsnr" v="327337" />
		<tag k="ssr:type" v="bruk" />
	</node>
	<node changeset="57982147" id="4463977327" lat="58.2583567" lon="8.209948" timestamp="2018-04-10T18:47:38Z" uid="3497659" user="NKA" version="2">
		<tag k="name" v="Møretrå" />
		<tag k="place" v="farm" />
		<tag k="ssr:stedsnr" v="275902" />
		<tag k="ssr:type" v="bruk" />
	</node>
	<node changeset="57982147" id="4463977328" lat="58.2592744" lon="8.2101756" timestamp="2018-04-10T18:47:38Z" uid="3497659" user="NKA" version="2">
		<tag k="name" v="Møretrå" />
		<tag k="place" v="hamlet" />
		<tag k="ssr:stedsnr" v="789717" />
		<tag k="ssr:type" v="gard" />
	</node>
	<node changeset="57982147" id="4463977329" lat="58.3630076" lon="8.1732321" timestamp="2018-04-10T18:47:38Z" uid="3497659" user="NKA" version="2">
		<tag k="name" v="Natveit" />
		<tag k="place" v="farm" />
		<tag k="ssr:stedsnr" v="668383" />
		<tag k="ssr:type" v="bruk" />
	</node>
	<node changeset="57982147" id="4463977330" lat="58.3567859" lon="8.1574143" timestamp="2018-04-10T18:47:38Z" uid="3497659" user="NKA" version="2">
		<tag k="building" v="cabin" />
		<tag k="name" v="Natveitdalen" />
		<tag k="place" v="isolated_dwelling" />
		<tag k="ssr:stedsnr" v="361" />
		<tag k="ssr:type" v="fritidsbolig" />
	</node>
	<node changeset="57982147" id="4463977331" lat="58.3588373" lon="8.2642773" timestamp="2018-04-10T18:47:38Z" uid="3497659" user="NKA" version="2">
		<tag k="alt_name" v="Holte nedre" />
		<tag k="name" v="Nedre Holte" />
		<tag k="place" v="farm" />
		<tag k="ssr:stedsnr" v="364364" />
		<tag k="ssr:type" v="bruk" />
	</node>
	<node changeset="57982147" id="4463977332" lat="58.3969252" lon="8.192229" timestamp="2018-04-10T18:47:38Z" uid="3497659" user="NKA" version="2">
		<tag k="name" v="Nedre Tjønntveit" />
		<tag k="place" v="farm" />
		<tag k="ssr:stedsnr" v="546400" />
		<tag k="ssr:type" v="bruk" />
	</node>
	<node changeset="57982147" id="4463977333" lat="58.311563" lon="8.0923728" timestamp="2018-04-10T18:47:39Z" uid="3497659" user="NKA" version="2">
		<tag k="alt_name" v="Ås" />
		<tag k="name" v="Nedre Ås" />
		<tag k="place" v="farm" />
		<tag k="ssr:stedsnr" v="546112" />
		<tag k="ssr:type" v="bruk" />
	</node>
	<node changeset="57982147" id="4463977334" lat="58.4738705" lon="8.2977879" timestamp="2018-04-10T18:47:39Z" uid="3497659" user="NKA" version="2">
		<tag k="name" v="Nesbu" />
		<tag k="place" v="farm" />
		<tag k="ssr:stedsnr" v="425464" />
		<tag k="ssr:type" v="bruk" />
	</node>
	<node changeset="57982147" id="4463977335" lat="58.4701609" lon="8.2919968" timestamp="2018-04-10T18:47:39Z" uid="3497659" user="NKA" version="2">
		<tag k="fixme" v="check position" />
		<tag k="historic" v="ruins" />
		<tag k="name" v="Nesbuplassen" />
		<tag k="place" v="locality" />
		<tag k="ssr:stedsnr" v="154138" />
		<tag k="ssr:type" v="gammelBosettingsplass" />
	</node>
	<node changeset="57982147" id="4463977336" lat="58.441461" lon="8.1160879" timestamp="2018-04-10T18:47:39Z" uid="3497659" user="NKA" version="2">
		<tag k="name" v="Neset" />
		<tag k="place" v="farm" />
		<tag k="ssr:stedsnr" v="287566" />
		<tag k="ssr:type" v="bruk" />
	</node>
	<node changeset="57982147" id="4463977337" lat="58.2754273" lon="8.1128011" timestamp="2018-04-10T18:47:39Z" uid="3497659" user="NKA" version="2">
		<tag k="name" v="Nesset" />
		<tag k="place" v="farm" />
		<tag k="ssr:stedsnr" v="943942" />
		<tag k="ssr:type" v="bruk" />
	</node>
	<node changeset="57982147" id="4463977338" lat="58.3274933" lon="8.1971485" timestamp="2018-04-10T18:47:39Z" uid="3497659" user="NKA" version="2">
		<tag k="alt_name" v="Neset" />
		<tag k="name" v="Nesset" />
		<tag k="place" v="farm" />
		<tag k="ssr:stedsnr" v="667275" />
		<tag k="ssr:type" v="bruk" />
	</node>
	<node changeset="57982147" id="4463977339" lat="58.5311094" lon="7.954633" timestamp="2018-04-10T18:47:39Z" uid="3497659" user="NKA" version="2">
		<tag k="alt_name" v="Nygard" />
		<tag k="name" v="Nygård" />
		<tag k="place" v="farm" />
		<tag k="ssr:stedsnr" v="546627" />
		<tag k="ssr:type" v="bruk" />
	</node>
	<node changeset="57982147" id="4463977341" lat="58.3274674" lon="8.2184611" timestamp="2018-04-10T18:47:40Z" uid="3497659" user="NKA" version="2">
		<tag k="name" v="Nyhaven" />
		<tag k="place" v="farm" />
		<tag k="ssr:stedsnr" v="28386" />
		<tag k="ssr:type" v="bruk" />
	</node>
	<node changeset="57982147" id="4463977342" lat="58.3474036" lon="8.2531997" timestamp="2018-04-10T18:47:40Z" uid="3497659" user="NKA" version="2">
		<tag k="name" v="Nyhaven" />
		<tag k="place" v="farm" />
		<tag k="ssr:stedsnr" v="943788" />
		<tag k="ssr:type" v="bruk" />
	</node>
	<node changeset="57982147" id="4463977343" lat="58.3417267" lon="8.2216109" timestamp="2018-04-10T18:47:40Z" uid="3497659" user="NKA" version="2">
		<tag k="name" v="Nyhus" />
		<tag k="place" v="farm" />
		<tag k="ssr:stedsnr" v="444924" />
		<tag k="ssr:type" v="bruk" />
	</node>
	<node changeset="57982147" id="4463977344" lat="58.4965263" lon="8.340657" timestamp="2018-04-10T18:47:40Z" uid="3497659" user="NKA" version="2">
		<tag k="name" v="Odden" />
		<tag k="place" v="farm" />
		<tag k="ssr:stedsnr" v="667055" />
		<tag k="ssr:type" v="eneboligMindreBoligbygg" />
	</node>
	<node changeset="57982147" id="4463977345" lat="58.3794653" lon="8.1258633" timestamp="2018-04-10T18:47:40Z" uid="3497659" user="NKA" version="2">
		<tag k="building" v="cabin" />
		<tag k="name" v="Odderdalen" />
		<tag k="place" v="isolated_dwelling" />
		<tag k="ssr:stedsnr" v="425330" />
		<tag k="ssr:type" v="fritidsbolig" />
	</node>
	<node changeset="57982147" id="4463977346" lat="58.4436771" lon="8.1037254" timestamp="2018-04-10T18:47:40Z" uid="3497659" user="NKA" version="2">
		<tag k="alt_name" v="Orrgard" />
		<tag k="name" v="Orgard" />
		<tag k="place" v="farm" />
		<tag k="ssr:stedsnr" v="546456" />
		<tag k="ssr:type" v="bruk" />
	</node>
	<node changeset="57982147" id="4463977347" lat="58.448192" lon="8.1028459" timestamp="2018-04-10T18:47:40Z" uid="3497659" user="NKA" version="2">
		<tag k="alt_name" v="Orrheim" />
		<tag k="name" v="Orheim" />
		<tag k="place" v="farm" />
		<tag k="ssr:stedsnr" v="121492" />
		<tag k="ssr:type" v="bruk" />
	</node>
	<node changeset="57982147" id="4463977348" lat="58.354128" lon="8.062285" timestamp="2018-04-10T18:47:40Z" uid="3497659" user="NKA" version="2">
		<tag k="name" v="Osen" />
		<tag k="place" v="farm" />
		<tag k="ssr:stedsnr" v="408644" />
		<tag k="ssr:type" v="bruk" />
	</node>
	<node changeset="57982147" id="4463977349" lat="58.4304136" lon="8.3212525" timestamp="2018-04-10T18:47:40Z" uid="3497659" user="NKA" version="2">
		<tag k="fixme" v="check position" />
		<tag k="historic" v="ruins" />
		<tag k="name" v="Ospelunden" />
		<tag k="place" v="locality" />
		<tag k="ssr:stedsnr" v="882021" />
		<tag k="ssr:type" v="gammelBosettingsplass" />
	</node>
	<node changeset="57982147" id="4463977350" lat="58.5388185" lon="8.2674039" timestamp="2018-04-10T18:47:40Z" uid="3497659" user="NKA" version="2">
		<tag k="alt_name" v="Neset" />
		<tag k="name" v="Plassen" />
		<tag k="place" v="farm" />
		<tag k="ssr:stedsnr" v="486181" />
		<tag k="ssr:type" v="bruk" />
	</node>
	<node changeset="57982147" id="4463977351" lat="58.3643506" lon="8.2547371" timestamp="2018-04-10T18:47:41Z" uid="3497659" user="NKA" version="2">
		<tag k="name" v="Pråmsnes" />
		<tag k="place" v="farm" />
		<tag k="ssr:stedsnr" v="304348" />
		<tag k="ssr:type" v="bruk" />
	</node>
	<node changeset="57982147" id="4463977352" lat="58.3532113" lon="8.1138256" timestamp="2018-04-10T18:47:41Z" uid="3497659" user="NKA" version="2">
		<tag k="name" v="Ramselia" />
		<tag k="place" v="farm" />
		<tag k="ssr:stedsnr" v="364368" />
		<tag k="ssr:type" v="bruk" />
	</node>
	<node changeset="57982147" id="4463977353" lat="58.4698764" lon="8.2460835" timestamp="2018-04-10T18:47:41Z" uid="3497659" user="NKA" version="2">
		<tag k="name" v="Ramselia" />
		<tag k="place" v="farm" />
		<tag k="ssr:stedsnr" v="485395" />
		<tag k="ssr:type" v="bruk" />
	</node>
	<node changeset="57982147" id="4463977354" lat="58.3822452" lon="8.1676086" timestamp="2018-04-10T18:47:41Z" uid="3497659" user="NKA" version="2">
		<tag k="name" v="Refstad" />
		<tag k="place" v="farm" />
		<tag k="ssr:stedsnr" v="121328" />
		<tag k="ssr:type" v="bruk" />
	</node>
	<node changeset="57982147" id="4463977355" lat="58.3698746" lon="8.2909391" timestamp="2018-04-10T18:47:41Z" uid="3497659" user="NKA" version="2">
		<tag k="name" v="Refsteina" />
		<tag k="place" v="farm" />
		<tag k="ssr:stedsnr" v="121346" />
		<tag k="ssr:type" v="bruk" />
	</node>
	<node changeset="57982147" id="4463977356" lat="58.5016989" lon="8.2047783" timestamp="2018-04-10T18:47:41Z" uid="3497659" user="NKA" version="2">
		<tag k="name" v="Retterholt" />
		<tag k="place" v="farm" />
		<tag k="ssr:stedsnr" v="789045" />
		<tag k="ssr:type" v="bruk" />
	</node>
	<node changeset="57982147" id="4463977357" lat="58.5433129" lon="8.3277086" timestamp="2018-04-10T18:47:41Z" uid="3497659" user="NKA" version="2">
		<tag k="name" v="Retterstøl" />
		<tag k="place" v="farm" />
		<tag k="ssr:stedsnr" v="607199" />
		<tag k="ssr:type" v="eneboligMindreBoligbygg" />
	</node>
	<node changeset="57982147" id="4463977358" lat="58.5591644" lon="8.4156896" timestamp="2018-04-10T18:47:41Z" uid="3497659" user="NKA" version="2">
		<tag k="name" v="Ringstøl" />
		<tag k="place" v="farm" />
		<tag k="ssr:stedsnr" v="911232" />
		<tag k="ssr:type" v="eneboligMindreBoligbygg" />
	</node>
	<node changeset="57982147" id="4463977359" lat="58.4369944" lon="8.2475037" timestamp="2018-04-10T18:47:41Z" uid="3497659" user="NKA" version="2">
		<tag k="building" v="cabin" />
		<tag k="name" v="Risbu" />
		<tag k="place" v="isolated_dwelling" />
		<tag k="ssr:stedsnr" v="788360" />
		<tag k="ssr:type" v="fritidsbolig" />
	</node>
	<node changeset="57982147" id="4463977360" lat="58.4238455" lon="8.2983896" timestamp="2018-04-10T18:47:41Z" uid="3497659" user="NKA" version="2">
		<tag k="name" v="Rislå" />
		<tag k="place" v="hamlet" />
		<tag k="ssr:stedsnr" v="303387" />
		<tag k="ssr:type" v="gard" />
	</node>
	<node changeset="57982147" id="4463977361" lat="58.3302259" lon="8.2720375" timestamp="2018-04-10T18:47:42Z" uid="3497659" user="NKA" version="2">
		<tag k="name" v="Risvann" />
		<tag k="place" v="farm" />
		<tag k="ssr:stedsnr" v="667268" />
		<tag k="ssr:type" v="bruk" />
	</node>
	<node changeset="57982147" id="4463977362" lat="58.4374299" lon="8.3515271" timestamp="2018-04-10T18:47:42Z" uid="3497659" user="NKA" version="2">
		<tag k="name" v="Rodalen" />
		<tag k="place" v="farm" />
		<tag k="ssr:stedsnr" v="788390" />
		<tag k="ssr:type" v="bruk" />
	</node>
	<node changeset="57982147" id="4463977363" lat="58.3804358" lon="8.3229043" timestamp="2018-04-10T18:47:42Z" uid="3497659" user="NKA" version="2">
		<tag k="building" v="cabin" />
		<tag k="name" v="Ronnen" />
		<tag k="place" v="isolated_dwelling" />
		<tag k="ssr:stedsnr" v="700025" />
		<tag k="ssr:type" v="fritidsbolig" />
	</node>
	<node changeset="57982147" id="4463977364" lat="58.294951" lon="8.0817841" timestamp="2018-04-10T18:47:42Z" uid="3497659" user="NKA" version="2">
		<tag k="name" v="Rosseland" />
		<tag k="place" v="farm" />
		<tag k="ssr:stedsnr" v="910029" />
		<tag k="ssr:type" v="bruk" />
	</node>
	<node changeset="57982147" id="4463977365" lat="58.4611304" lon="8.3614036" timestamp="2018-04-10T18:47:42Z" uid="3497659" user="NKA" version="2">
		<tag k="name" v="Rosåsen" />
		<tag k="place" v="farm" />
		<tag k="ssr:stedsnr" v="788462" />
		<tag k="ssr:type" v="bruk" />
	</node>
	<node changeset="57982147" id="4463977366" lat="58.2894863" lon="8.1762428" timestamp="2018-04-10T18:47:42Z" uid="3497659" user="NKA" version="2">
		<tag k="name" v="Rugsland" />
		<tag k="place" v="hamlet" />
		<tag k="ssr:stedsnr" v="121317" />
		<tag k="ssr:type" v="bruk" />
	</node>
	<node changeset="57982147" id="4463977367" lat="58.4445042" lon="8.1090284" timestamp="2018-04-10T18:47:42Z" uid="3497659" user="NKA" version="2">
		<tag k="name" v="Rydland" />
		<tag k="place" v="farm" />
		<tag k="ssr:stedsnr" v="468501" />
		<tag k="ssr:type" v="bruk" />
	</node>
	<node changeset="57982147" id="4463977368" lat="58.5322841" lon="8.2635971" timestamp="2018-04-10T18:47:42Z" uid="3497659" user="NKA" version="2">
		<tag k="name" v="Råbudalen" />
		<tag k="place" v="farm" />
		<tag k="ssr:stedsnr" v="607204" />
		<tag k="ssr:type" v="bruk" />
	</node>
	<node changeset="57982147" id="4463977369" lat="58.4011847" lon="8.1109676" timestamp="2018-04-10T18:47:42Z" uid="3497659" user="NKA" version="2">
		<tag k="name" v="Røli" />
		<tag k="place" v="farm" />
		<tag k="ssr:stedsnr" v="448" />
		<tag k="ssr:type" v="bruk" />
	</node>
	<node changeset="57982147" id="4463977370" lat="58.3786402" lon="8.3154583" timestamp="2018-04-10T18:47:42Z" uid="3497659" user="NKA" version="2">
		<tag k="fixme" v="check position" />
		<tag k="historic" v="ruins" />
		<tag k="name" v="Rønningen" />
		<tag k="place" v="locality" />
		<tag k="ssr:stedsnr" v="700019" />
		<tag k="ssr:type" v="gammelBosettingsplass" />
	</node>
	<node changeset="57982147" id="4463977371" lat="58.4210538" lon="8.2880911" timestamp="2018-04-10T18:47:43Z" uid="3497659" user="NKA" version="2">
		<tag k="name" v="Rønningen" />
		<tag k="place" v="farm" />
		<tag k="ssr:stedsnr" v="404" />
		<tag k="ssr:type" v="bruk" />
	</node>
	<node changeset="57982147" id="4463977372" lat="58.4611655" lon="8.3671741" timestamp="2018-04-10T18:47:43Z" uid="3497659" user="NKA" version="2">
		<tag k="name" v="Rønningen" />
		<tag k="place" v="farm" />
		<tag k="ssr:stedsnr" v="788464" />
		<tag k="ssr:type" v="bruk" />
	</node>
	<node changeset="57982147" id="4463977373" lat="58.5297402" lon="8.0487835" timestamp="2018-04-10T18:47:43Z" uid="3497659" user="NKA" version="2">
		<tag k="name" v="Røyland" />
		<tag k="place" v="farm" />
		<tag k="ssr:stedsnr" v="607671" />
		<tag k="ssr:type" v="bruk" />
	</node>
	<node changeset="57982147" id="4463977374" lat="58.2839703" lon="8.2709862" timestamp="2018-04-10T18:47:43Z" uid="3497659" user="NKA" version="2">
		<tag k="fixme" v="check position" />
		<tag k="historic" v="ruins" />
		<tag k="name" v="Røyseland" />
		<tag k="place" v="locality" />
		<tag k="ssr:stedsnr" v="634385" />
		<tag k="ssr:type" v="gammelBosettingsplass" />
	</node>
	<node changeset="57982147" id="4463977375" lat="58.3662147" lon="8.3165051" timestamp="2018-04-10T18:47:43Z" uid="3497659" user="NKA" version="2">
		<tag k="building" v="cabin" />
		<tag k="name" v="Saga" />
		<tag k="place" v="isolated_dwelling" />
		<tag k="ssr:stedsnr" v="304353" />
		<tag k="ssr:type" v="fritidsbolig" />
	</node>
	<node changeset="57982147" id="4463977376" lat="58.254956" lon="8.2246812" timestamp="2018-04-10T18:47:43Z" uid="3497659" user="NKA" version="2">
		<tag k="alt_name" v="Saga" />
		<tag k="fixme" v="check position" />
		<tag k="historic" v="ruins" />
		<tag k="name" v="Sagen" />
		<tag k="place" v="farm" />
		<tag k="ssr:stedsnr" v="667660" />
		<tag k="ssr:type" v="bruk" />
	</node>
	<node changeset="57982147" id="4463977377" lat="58.436014" lon="8.3277522" timestamp="2018-04-10T18:47:43Z" uid="3497659" user="NKA" version="2">
		<tag k="name" v="Senningtveit" />
		<tag k="place" v="farm" />
		<tag k="ssr:stedsnr" v="485310" />
		<tag k="ssr:type" v="gard" />
	</node>
	<node changeset="57982147" id="4463977378" lat="58.3649843" lon="8.0874457" timestamp="2018-04-10T18:47:43Z" uid="3497659" user="NKA" version="2">
		<tag k="name" v="Sirekilen" />
		<tag k="place" v="farm" />
		<tag k="ssr:stedsnr" v="243082" />
		<tag k="ssr:type" v="bruk" />
	</node>
	<node changeset="57982147" id="4463977379" lat="58.3785219" lon="8.311313" timestamp="2018-04-10T18:47:44Z" uid="3497659" user="NKA" version="2">
		<tag k="building" v="cabin" />
		<tag k="name" v="Skallen" />
		<tag k="place" v="isolated_dwelling" />
		<tag k="ssr:stedsnr" v="700021" />
		<tag k="ssr:type" v="fritidsbolig" />
	</node>
	<node changeset="57982147" id="4463977380" lat="58.4224839" lon="8.2334919" timestamp="2018-04-10T18:47:44Z" uid="3497659" user="NKA" version="2">
		<tag k="fixme" v="check position" />
		<tag k="historic" v="ruins" />
		<tag k="name" v="Skauen" />
		<tag k="place" v="locality" />
		<tag k="ssr:stedsnr" v="833452" />
		<tag k="ssr:type" v="gammelBosettingsplass" />
	</node>
	<node changeset="57982147" id="4463977381" lat="58.5877212" lon="8.4413973" timestamp="2018-04-10T18:47:44Z" uid="3497659" user="NKA" version="2">
		<tag k="name" v="Skogtveit" />
		<tag k="place" v="farm" />
		<tag k="ssr:stedsnr" v="668198" />
		<tag k="ssr:type" v="bruk" />
	</node>
	<node changeset="57982147" id="4463977382" lat="58.4653746" lon="8.1363624" timestamp="2018-04-10T18:47:44Z" uid="3497659" user="NKA" version="2">
		<tag k="name" v="Skreros" />
		<tag k="place" v="farm" />
		<tag k="ssr:stedsnr" v="61447" />
		<tag k="ssr:type" v="bruk" />
	</node>
	<node changeset="57982147" id="4463977383" lat="58.5929003" lon="8.1330151" timestamp="2018-04-10T18:47:44Z" uid="3497659" user="NKA" version="2">
		<tag k="name" v="Skåre" />
		<tag k="place" v="farm" />
		<tag k="ssr:stedsnr" v="426309" />
		<tag k="ssr:type" v="bruk" />
	</node>
	<node changeset="57982147" id="4463977384" lat="58.5112794" lon="8.3461998" timestamp="2018-04-10T18:47:44Z" uid="3497659" user="NKA" version="2">
		<tag k="name" v="Slettene" />
		<tag k="place" v="farm" />
		<tag k="ssr:stedsnr" v="518224" />
		<tag k="ssr:type" v="bruk" />
	</node>
	<node changeset="57982147" id="4463977385" lat="58.3513879" lon="8.2409164" timestamp="2018-04-10T18:47:44Z" uid="3497659" user="NKA" version="2">
		<tag k="name" v="Slogedalen" />
		<tag k="place" v="farm" />
		<tag k="ssr:stedsnr" v="788340" />
		<tag k="ssr:type" v="bruk" />
	</node>
	<node changeset="57982147" id="4463977386" lat="58.3432813" lon="8.3232882" timestamp="2018-04-10T18:47:44Z" uid="3497659" user="NKA" version="2">
		<tag k="name" v="Slottet" />
		<tag k="place" v="farm" />
		<tag k="ssr:stedsnr" v="182362" />
		<tag k="ssr:type" v="bruk" />
	</node>
	<node changeset="57982147" id="4463977387" lat="58.5176461" lon="8.3482965" timestamp="2018-04-10T18:47:44Z" uid="3497659" user="NKA" version="2">
		<tag k="name" v="Smedbakken" />
		<tag k="place" v="farm" />
		<tag k="ssr:stedsnr" v="215257" />
		<tag k="ssr:type" v="bruk" />
	</node>
	<node changeset="57982147" id="4463977388" lat="58.4318828" lon="8.3066468" timestamp="2018-04-10T18:47:45Z" uid="3497659" user="NKA" version="2">
		<tag k="name" v="Solbakken" />
		<tag k="place" v="farm" />
		<tag k="ssr:stedsnr" v="727026" />
		<tag k="ssr:type" v="bruk" />
	</node>
	<node changeset="57982147" id="4463977389" lat="58.3477524" lon="8.325037" timestamp="2018-04-10T18:47:45Z" uid="3497659" user="NKA" version="2">
		<tag k="alt_name" v="Solberg" />
		<tag k="name" v="Solborg" />
		<tag k="place" v="farm" />
		<tag k="ssr:stedsnr" v="372" />
		<tag k="ssr:type" v="bruk" />
	</node>
	<node changeset="57982147" id="4463977390" lat="58.4779169" lon="8.3622546" timestamp="2018-04-10T18:47:45Z" uid="3497659" user="NKA" version="2">
		<tag k="building" v="cabin" />
		<tag k="name" v="Solheim" />
		<tag k="place" v="isolated_dwelling" />
		<tag k="ssr:stedsnr" v="607465" />
		<tag k="ssr:type" v="fritidsbolig" />
	</node>
	<node changeset="57982147" id="4463977391" lat="58.3130609" lon="8.1063771" timestamp="2018-04-10T18:47:45Z" uid="3497659" user="NKA" version="2">
		<tag k="name" v="Solli" />
		<tag k="place" v="farm" />
		<tag k="ssr:stedsnr" v="954723" />
		<tag k="ssr:type" v="bruk" />
	</node>
	<node changeset="57982147" id="4463977392" lat="58.5382209" lon="8.099695" timestamp="2018-04-10T18:47:45Z" uid="3497659" user="NKA" version="2">
		<tag k="name" v="Solås" />
		<tag k="place" v="farm" />
		<tag k="ssr:stedsnr" v="839222" />
		<tag k="ssr:type" v="bruk" />
	</node>
	<node changeset="57982147" id="4463977393" lat="58.3932568" lon="8.2482663" timestamp="2018-04-10T18:47:45Z" uid="3497659" user="NKA" version="2">
		<tag k="name" v="Spjote" />
		<tag k="place" v="farm" />
		<tag k="ssr:stedsnr" v="728278" />
		<tag k="ssr:type" v="bruk" />
	</node>
	<node changeset="57982147" id="4463977394" lat="58.3212025" lon="8.1430758" timestamp="2018-04-10T18:47:45Z" uid="3497659" user="NKA" version="2">
		<tag k="fixme" v="check position" />
		<tag k="historic" v="ruins" />
		<tag k="name" v="Stafjell" />
		<tag k="place" v="locality" />
		<tag k="ssr:stedsnr" v="303254" />
		<tag k="ssr:type" v="gammelBosettingsplass" />
	</node>
	<node changeset="57982147" id="4463977395" lat="58.2903032" lon="8.1480059" timestamp="2018-04-10T18:47:45Z" uid="3497659" user="NKA" version="2">
		<tag k="name" v="Steane" />
		<tag k="place" v="farm" />
		<tag k="ssr:stedsnr" v="304298" />
		<tag k="ssr:type" v="bruk" />
	</node>
	<node changeset="57982147" id="4463977396" lat="58.3202964" lon="8.0691844" timestamp="2018-04-10T18:47:45Z" uid="3497659" user="NKA" version="2">
		<tag k="name" v="Steinsland" />
		<tag k="place" v="farm" />
		<tag k="ssr:stedsnr" v="243099" />
		<tag k="ssr:type" v="bruk" />
	</node>
	<node changeset="57982147" id="4463977397" lat="58.3775043" lon="8.3075712" timestamp="2018-04-10T18:47:46Z" uid="3497659" user="NKA" version="2">
		<tag k="name" v="Steinsvatn" />
		<tag k="place" v="farm" />
		<tag k="ssr:stedsnr" v="121333" />
		<tag k="ssr:type" v="bruk" />
	</node>
	<node changeset="57982147" id="4463977398" lat="58.4634331" lon="8.3694999" timestamp="2018-04-10T18:47:46Z" uid="3497659" user="NKA" version="2">
		<tag k="name" v="Stie (nedre)" />
		<tag k="place" v="farm" />
		<tag k="ssr:stedsnr" v="396834" />
		<tag k="ssr:type" v="bruk" />
	</node>
	<node changeset="57982147" id="4463977399" lat="58.4664014" lon="8.3721882" timestamp="2018-04-10T18:47:46Z" uid="3497659" user="NKA" version="2">
		<tag k="name" v="Stie" />
		<tag k="place" v="farm" />
		<tag k="ssr:stedsnr" v="61461" />
		<tag k="ssr:type" v="bruk" />
	</node>
	<node changeset="57982147" id="4463977400" lat="58.4932788" lon="8.3450061" timestamp="2018-04-10T18:47:46Z" uid="3497659" user="NKA" version="2">
		<tag k="name" v="Stien" />
		<tag k="place" v="farm" />
		<tag k="ssr:stedsnr" v="61429" />
		<tag k="ssr:type" v="eneboligMindreBoligbygg" />
	</node>
	<node changeset="57982147" id="4463977401" lat="58.2787853" lon="8.1880777" timestamp="2018-04-10T18:47:46Z" uid="3497659" user="NKA" version="2">
		<tag k="fixme" v="check position" />
		<tag k="historic" v="ruins" />
		<tag k="name" v="Stolen" />
		<tag k="place" v="locality" />
		<tag k="ssr:stedsnr" v="883000" />
		<tag k="ssr:type" v="gammelBosettingsplass" />
	</node>
	<node changeset="57982147" id="4463977402" lat="58.4427637" lon="8.1206108" timestamp="2018-04-10T18:47:46Z" uid="3497659" user="NKA" version="2">
		<tag k="alt_name" v="Sundstøl store" />
		<tag k="name" v="Store Sundstøl" />
		<tag k="place" v="farm" />
		<tag k="ssr:stedsnr" v="728353" />
		<tag k="ssr:type" v="bruk" />
	</node>
	<node changeset="57982147" id="4463977403" lat="58.4275671" lon="8.1576529" timestamp="2018-04-10T18:47:46Z" uid="3497659" user="NKA" version="2">
		<tag k="fixme" v="check position" />
		<tag k="historic" v="ruins" />
		<tag k="name" v="Storeheiplassen" />
		<tag k="place" v="locality" />
		<tag k="ssr:stedsnr" v="105467" />
		<tag k="ssr:type" v="gammelBosettingsplass" />
	</node>
	<node changeset="57982147" id="4463977404" lat="58.6094604" lon="8.1168706" timestamp="2018-04-10T18:47:46Z" uid="3497659" user="NKA" version="2">
		<tag k="fixme" v="check position" />
		<tag k="historic" v="ruins" />
		<tag k="name" v="Storeliøygarden" />
		<tag k="place" v="locality" />
		<tag k="ssr:stedsnr" v="183334" />
		<tag k="ssr:type" v="gammelBosettingsplass" />
	</node>
	<node changeset="57982147" id="4463977405" lat="58.459662" lon="8.3063637" timestamp="2018-04-10T18:47:46Z" uid="3497659" user="NKA" version="2">
		<tag k="name" v="Stoveland" />
		<tag k="place" v="farm" />
		<tag k="ssr:stedsnr" v="728451" />
		<tag k="ssr:type" v="bruk" />
	</node>
	<node changeset="57982147" id="4463977406" lat="58.3422047" lon="8.2258541" timestamp="2018-04-10T18:47:47Z" uid="3497659" user="NKA" version="2">
		<tag k="name" v="Stykket" />
		<tag k="place" v="farm" />
		<tag k="ssr:stedsnr" v="210396" />
		<tag k="ssr:type" v="bruk" />
	</node>
	<node changeset="57982147" id="4463977407" lat="58.4888525" lon="8.3451046" timestamp="2018-04-10T18:47:47Z" uid="3497659" user="NKA" version="2">
		<tag k="name" v="Støa" />
		<tag k="place" v="farm" />
		<tag k="ssr:stedsnr" v="789448" />
		<tag k="ssr:type" v="bruk" />
	</node>
	<node changeset="57982147" id="4463977408" lat="58.3119815" lon="8.1067207" timestamp="2018-04-10T18:47:47Z" uid="3497659" user="NKA" version="2">
		<tag k="name" v="Stølen" />
		<tag k="place" v="farm" />
		<tag k="ssr:stedsnr" v="728253" />
		<tag k="ssr:type" v="bruk" />
	</node>
	<node changeset="57982147" id="4463977409" lat="58.3687735" lon="8.2248047" timestamp="2018-04-10T18:47:47Z" uid="3497659" user="NKA" version="2">
		<tag k="fixme" v="check position" />
		<tag k="historic" v="ruins" />
		<tag k="name" v="Stølen" />
		<tag k="place" v="locality" />
		<tag k="ssr:stedsnr" v="154846" />
		<tag k="ssr:type" v="gammelBosettingsplass" />
	</node>
	<node changeset="57982147" id="4463977410" lat="58.516475" lon="8.1327945" timestamp="2018-04-10T18:47:47Z" uid="3497659" user="NKA" version="2">
		<tag k="name" v="Stølen" />
		<tag k="place" v="farm" />
		<tag k="ssr:stedsnr" v="547050" />
		<tag k="ssr:type" v="bruk" />
	</node>
	<node changeset="57982147" id="4463977411" lat="58.4800578" lon="8.3279599" timestamp="2018-04-10T18:47:47Z" uid="3497659" user="NKA" version="2">
		<tag k="name" v="Suggelia" />
		<tag k="place" v="farm" />
		<tag k="ssr:stedsnr" v="425455" />
		<tag k="ssr:type" v="bruk" />
	</node>
	<node changeset="57982147" id="4463977412" lat="58.4813405" lon="8.3325865" timestamp="2018-04-10T18:47:47Z" uid="3497659" user="NKA" version="2">
		<tag k="historic" v="yes" />
		<tag k="name" v="Suggelistøa" />
		<tag k="place" v="locality" />
		<tag k="ssr:stedsnr" v="154296" />
		<tag k="ssr:type" v="stø" />
	</node>
	<node changeset="57982147" id="4463977413" lat="58.5401876" lon="8.1002374" timestamp="2018-04-10T18:47:47Z" uid="3497659" user="NKA" version="2">
		<tag k="name" v="Sundbø" />
		<tag k="place" v="farm" />
		<tag k="ssr:stedsnr" v="352343" />
		<tag k="ssr:type" v="bruk" />
	</node>
	<node changeset="57982147" id="4463977414" lat="58.6208258" lon="8.1631649" timestamp="2018-04-10T18:47:47Z" uid="3497659" user="NKA" version="2">
		<tag k="fixme" v="check position" />
		<tag k="historic" v="ruins" />
		<tag k="name" v="Sundsliøygarden" />
		<tag k="place" v="locality" />
		<tag k="ssr:stedsnr" v="122366" />
		<tag k="ssr:type" v="gammelBosettingsplass" />
	</node>
	<node changeset="57982147" id="4463977415" lat="58.4395571" lon="8.3099461" timestamp="2018-04-10T18:47:48Z" uid="3497659" user="NKA" version="2">
		<tag k="alt_name" v="Sundtjørn" />
		<tag k="name" v="Sundtjønn" />
		<tag k="place" v="farm" />
		<tag k="ssr:stedsnr" v="243388" />
		<tag k="ssr:type" v="bruk" />
	</node>
	<node changeset="57982147" id="4463977416" lat="58.3140334" lon="8.1113745" timestamp="2018-04-10T18:47:48Z" uid="3497659" user="NKA" version="2">
		<tag k="name" v="Svaland" />
		<tag k="place" v="hamlet" />
		<tag k="ssr:stedsnr" v="910282" />
		<tag k="ssr:type" v="bruk" />
	</node>
	<node changeset="57982147" id="4463977417" lat="58.5292031" lon="7.9522601" timestamp="2018-04-10T18:47:48Z" uid="3497659" user="NKA" version="2">
		<tag k="alt_name" v="Svåland" />
		<tag k="name" v="Svaland" />
		<tag k="place" v="farm" />
		<tag k="ssr:stedsnr" v="668699" />
		<tag k="ssr:type" v="bruk" />
	</node>
	<node changeset="57982147" id="4463977418" lat="58.3262854" lon="8.212848" timestamp="2018-04-10T18:47:48Z" uid="3497659" user="NKA" version="2">
		<tag k="name" v="Svåberg" />
		<tag k="place" v="farm" />
		<tag k="ssr:stedsnr" v="210394" />
		<tag k="ssr:type" v="eneboligMindreBoligbygg" />
	</node>
	<node changeset="57982147" id="4463977419" lat="58.4253846" lon="8.294503" timestamp="2018-04-10T18:47:48Z" uid="3497659" user="NKA" version="2">
		<tag k="name" v="Sønninga" />
		<tag k="place" v="farm" />
		<tag k="ssr:stedsnr" v="850417" />
		<tag k="ssr:type" v="bruk" />
	</node>
	<node changeset="57982147" id="4463977420" lat="58.4353917" lon="8.117174" timestamp="2018-04-10T18:47:48Z" uid="3497659" user="NKA" version="2">
		<tag k="name" v="Sørli" />
		<tag k="place" v="farm" />
		<tag k="ssr:stedsnr" v="61371" />
		<tag k="ssr:type" v="bruk" />
	</node>
	<node changeset="57982147" id="4463977421" lat="58.4758881" lon="8.3503461" timestamp="2018-04-10T18:47:48Z" uid="3497659" user="NKA" version="2">
		<tag k="name" v="Topland" />
		<tag k="place" v="farm" />
		<tag k="ssr:stedsnr" v="546432" />
		<tag k="ssr:type" v="bruk" />
	</node>
	<node changeset="57982147" id="4463977422" lat="58.4794203" lon="8.3698428" timestamp="2018-04-10T18:47:48Z" uid="3497659" user="NKA" version="2">
		<tag k="fixme" v="check position" />
		<tag k="historic" v="ruins" />
		<tag k="name" v="Toplandsheia" />
		<tag k="place" v="locality" />
		<tag k="ssr:stedsnr" v="761261" />
		<tag k="ssr:type" v="gammelBosettingsplass" />
	</node>
	<node changeset="57982147" id="4463977423" lat="58.4792494" lon="8.3394216" timestamp="2018-04-10T18:47:48Z" uid="3497659" user="NKA" version="2">
		<tag k="historic" v="yes" />
		<tag k="name" v="Toplandstøa" />
		<tag k="place" v="locality" />
		<tag k="ssr:stedsnr" v="882181" />
		<tag k="ssr:type" v="stø" />
	</node>
	<node changeset="57982147" id="4463977424" lat="58.4397197" lon="8.1917036" timestamp="2018-04-10T18:47:48Z" uid="3497659" user="NKA" version="2">
		<tag k="building" v="cabin" />
		<tag k="name" v="Trolldalen" />
		<tag k="place" v="isolated_dwelling" />
		<tag k="ssr:stedsnr" v="425388" />
		<tag k="ssr:type" v="fritidsbolig" />
	</node>
	<node changeset="57982147" id="4463977425" lat="58.302385" lon="8.2294957" timestamp="2018-04-10T18:47:49Z" uid="3497659" user="NKA" version="2">
		<tag k="name" v="Tveide" />
		<tag k="place" v="hamlet" />
		<tag k="ssr:stedsnr" v="243280" />
		<tag k="ssr:type" v="bruk" />
	</node>
	<node changeset="57982147" id="4463977426" lat="58.5267469" lon="8.1230454" timestamp="2018-04-10T18:47:49Z" uid="3497659" user="NKA" version="2">
		<tag k="name" v="Tveit" />
		<tag k="place" v="farm" />
		<tag k="ssr:stedsnr" v="486210" />
		<tag k="ssr:type" v="bruk" />
	</node>
	<node changeset="57982147" id="4463977428" lat="58.3904735" lon="8.2514236" timestamp="2018-04-10T18:47:49Z" uid="3497659" user="NKA" version="2">
		<tag k="name" v="Tveiten" />
		<tag k="place" v="farm" />
		<tag k="ssr:stedsnr" v="850311" />
		<tag k="ssr:type" v="bruk" />
	</node>
	<node changeset="57982147" id="4463977429" lat="58.3238507" lon="8.1986221" timestamp="2018-04-10T18:47:49Z" uid="3497659" user="NKA" version="2">
		<tag k="name" v="Ugland" />
		<tag k="place" v="farm" />
		<tag k="ssr:stedsnr" v="910273" />
		<tag k="ssr:type" v="eneboligMindreBoligbygg" />
	</node>
	<node changeset="57982147" id="4463977430" lat="58.3981057" lon="8.1897005" timestamp="2018-04-10T18:47:49Z" uid="3497659" user="NKA" version="2">
		<tag k="name" v="Vadrås" />
		<tag k="place" v="farm" />
		<tag k="ssr:stedsnr" v="954480" />
		<tag k="ssr:type" v="bruk" />
	</node>
	<node changeset="57982147" id="4463977431" lat="58.3032262" lon="8.192551" timestamp="2018-04-10T18:47:49Z" uid="3497659" user="NKA" version="2">
		<tag k="name" v="Varpelia" />
		<tag k="place" v="farm" />
		<tag k="ssr:stedsnr" v="61277" />
		<tag k="ssr:type" v="bruk" />
	</node>
	<node changeset="57982147" id="4463977432" lat="58.3133106" lon="8.2272272" timestamp="2018-04-10T18:47:49Z" uid="3497659" user="NKA" version="2">
		<tag k="name" v="Vassbotn" />
		<tag k="place" v="farm" />
		<tag k="ssr:stedsnr" v="789288" />
		<tag k="ssr:type" v="bruk" />
	</node>
	<node changeset="57982147" id="4463977433" lat="58.3716387" lon="8.1056569" timestamp="2018-04-10T18:47:49Z" uid="3497659" user="NKA" version="2">
		<tag k="name" v="Vassbotn" />
		<tag k="place" v="hamlet" />
		<tag k="ssr:stedsnr" v="425345" />
		<tag k="ssr:type" v="bruk" />
	</node>
	<node changeset="57982147" id="4463977434" lat="58.5352706" lon="7.9770878" timestamp="2018-04-10T18:47:49Z" uid="3497659" user="NKA" version="2">
		<tag k="name" v="Vatne" />
		<tag k="place" v="hamlet" />
		<tag k="ssr:stedsnr" v="668698" />
		<tag k="ssr:type" v="bruk" />
	</node>
	<node changeset="57982147" id="4463977435" lat="58.5773677" lon="8.3836339" timestamp="2018-04-10T18:47:50Z" uid="3497659" user="NKA" version="2">
		<tag k="historic" v="yes" />
		<tag k="name" v="Vedderstø" />
		<tag k="place" v="locality" />
		<tag k="ssr:stedsnr" v="275267" />
		<tag k="ssr:type" v="stø" />
	</node>
	<node changeset="56035354" id="4463977436" lat="58.5341912" lon="8.1226238" timestamp="2018-02-03T17:50:01Z" uid="2114448" user="FredrikLindseth_import" version="3" />
	<node changeset="57982147" id="4463977437" lat="58.5365821" lon="8.072394" timestamp="2018-04-10T18:47:50Z" uid="3497659" user="NKA" version="2">
		<tag k="name" v="Vest på haugen" />
		<tag k="place" v="farm" />
		<tag k="ssr:stedsnr" v="535213" />
		<tag k="ssr:type" v="bruk" />
	</node>
	<node changeset="57982147" id="4463977438" lat="58.5678159" lon="8.3753525" timestamp="2018-04-10T18:47:50Z" uid="3497659" user="NKA" version="2">
		<tag k="name" v="Vestli" />
		<tag k="place" v="farm" />
		<tag k="ssr:stedsnr" v="215347" />
		<tag k="ssr:type" v="eneboligMindreBoligbygg" />
	</node>
	<node changeset="57982147" id="4463977439" lat="58.3833988" lon="8.2593514" timestamp="2018-04-10T18:47:50Z" uid="3497659" user="NKA" version="2">
		<tag k="name" v="Vestre Flå" />
		<tag k="place" v="farm" />
		<tag k="ssr:stedsnr" v="943817" />
		<tag k="ssr:type" v="bruk" />
	</node>
	<node changeset="57982147" id="4463977440" lat="58.5529571" lon="7.977591" timestamp="2018-04-10T18:47:50Z" uid="3497659" user="NKA" version="2">
		<tag k="alt_name" v="Haukom vestre" />
		<tag k="name" v="Vestre Haukom" />
		<tag k="place" v="farm" />
		<tag k="ssr:stedsnr" v="364693" />
		<tag k="ssr:type" v="bruk" />
	</node>
	<node changeset="57982147" id="4463977441" lat="58.3186825" lon="8.1875636" timestamp="2018-04-10T18:47:50Z" uid="3497659" user="NKA" version="2">
		<tag k="name" v="Vestre Mollestad" />
		<tag k="place" v="farm" />
		<tag k="ssr:stedsnr" v="287" />
		<tag k="ssr:type" v="bruk" />
	</node>
	<node changeset="57982147" id="4463977442" lat="58.4722568" lon="8.0683782" timestamp="2018-04-10T18:47:50Z" uid="3497659" user="NKA" version="2">
		<tag k="alt_name" v="Tveit vestre;Tveit" />
		<tag k="name" v="Vestre Tveit" />
		<tag k="place" v="farm" />
		<tag k="ssr:stedsnr" v="364260" />
		<tag k="ssr:type" v="bruk" />
	</node>
	<node changeset="57982147" id="4463977443" lat="58.4874761" lon="8.1919999" timestamp="2018-04-10T18:47:50Z" uid="3497659" user="NKA" version="2">
		<tag k="name" v="Vestøl" />
		<tag k="place" v="farm" />
		<tag k="ssr:stedsnr" v="728429" />
		<tag k="ssr:type" v="bruk" />
	</node>
	<node changeset="57982147" id="4463977444" lat="58.4938765" lon="8.0359554" timestamp="2018-04-10T18:47:50Z" uid="3497659" user="NKA" version="2">
		<tag k="name" v="Vetrhus" />
		<tag k="place" v="farm" />
		<tag k="ssr:stedsnr" v="546195" />
		<tag k="ssr:type" v="bruk" />
	</node>
	<node changeset="57982147" id="4463977445" lat="58.4407282" lon="8.151082" timestamp="2018-04-10T18:47:51Z" uid="3497659" user="NKA" version="2">
		<tag k="name" v="Vindvann" />
		<tag k="place" v="farm" />
		<tag k="ssr:stedsnr" v="667376" />
		<tag k="ssr:type" v="bruk" />
	</node>
	<node changeset="57982147" id="4463977446" lat="58.3574818" lon="8.3034093" timestamp="2018-04-10T18:47:51Z" uid="3497659" user="NKA" version="2">
		<tag k="name" v="Vinsland" />
		<tag k="place" v="farm" />
		<tag k="ssr:stedsnr" v="303361" />
		<tag k="ssr:type" v="bruk" />
	</node>
	<node changeset="57982147" id="4463977447" lat="58.4141454" lon="8.2927885" timestamp="2018-04-10T18:47:51Z" uid="3497659" user="NKA" version="2">
		<tag k="name" v="Vinterstøa" />
		<tag k="place" v="farm" />
		<tag k="ssr:stedsnr" v="910417" />
		<tag k="ssr:type" v="eneboligMindreBoligbygg" />
	</node>
	<node changeset="57982147" id="4463977448" lat="58.5066427" lon="8.2834749" timestamp="2018-04-10T18:47:51Z" uid="3497659" user="NKA" version="2">
		<tag k="historic" v="yes" />
		<tag k="name" v="Vinterstøa" />
		<tag k="place" v="locality" />
		<tag k="ssr:stedsnr" v="639285" />
		<tag k="ssr:type" v="stø" />
	</node>
	<node changeset="57982147" id="4463977449" lat="58.5986169" lon="8.1894079" timestamp="2018-04-10T18:47:51Z" uid="3497659" user="NKA" version="2">
		<tag k="name" v="Vågsdalen" />
		<tag k="place" v="farm" />
		<tag k="ssr:stedsnr" v="304305" />
		<tag k="ssr:type" v="bruk" />
	</node>
	<node changeset="57982147" id="4463977450" lat="58.4590182" lon="8.2658481" timestamp="2018-04-10T18:47:51Z" uid="3497659" user="NKA" version="2">
		<tag k="name" v="Væting" />
		<tag k="place" v="farm" />
		<tag k="ssr:stedsnr" v="121463" />
		<tag k="ssr:type" v="bruk" />
	</node>
	<node changeset="57982147" id="4463977451" lat="58.3431898" lon="8.232547" timestamp="2018-04-10T18:47:51Z" uid="3497659" user="NKA" version="2">
		<tag k="alt_name" v="Ytterhus" />
		<tag k="name" v="Ydrehus" />
		<tag k="place" v="farm" />
		<tag k="ssr:stedsnr" v="121367" />
		<tag k="ssr:type" v="bruk" />
	</node>
	<node changeset="57982147" id="4463977452" lat="58.2629013" lon="8.2125454" timestamp="2018-04-10T18:47:52Z" uid="3497659" user="NKA" version="2">
		<tag k="name" v="Ytre Røynås" />
		<tag k="place" v="farm" />
		<tag k="ssr:stedsnr" v="303711" />
		<tag k="ssr:type" v="bruk" />
	</node>
	<node changeset="57982147" id="4463977453" lat="58.4774352" lon="8.2709958" timestamp="2018-04-10T18:47:52Z" uid="3497659" user="NKA" version="2">
		<tag k="fixme" v="check position" />
		<tag k="historic" v="ruins" />
		<tag k="name" v="Ytre Øygard" />
		<tag k="place" v="locality" />
		<tag k="ssr:stedsnr" v="468972" />
		<tag k="ssr:type" v="gammelBosettingsplass" />
	</node>
	<node changeset="56035354" id="4463977459" lat="58.3112925" lon="8.1901782" timestamp="2018-02-03T17:50:01Z" uid="2114448" user="FredrikLindseth_import" version="2" />
	<node changeset="56035354" id="4463977460" lat="58.3113088" lon="8.1902326" timestamp="2018-02-03T17:50:01Z" uid="2114448" user="FredrikLindseth_import" version="2" />
	<node changeset="56035354" id="4463977461" lat="58.3113101" lon="8.190075" timestamp="2018-02-03T17:50:01Z" uid="2114448" user="FredrikLindseth_import" version="2" />
	<node changeset="56035354" id="4463977462" lat="58.3113152" lon="8.1901922" timestamp="2018-02-03T17:50:01Z" uid="2114448" user="FredrikLindseth_import" version="2" />
	<node changeset="56035354" id="4463977463" lat="58.3113134" lon="8.1904278" timestamp="2018-02-03T17:50:01Z" uid="2114448" user="FredrikLindseth_import" version="2" />
	<node changeset="56035354" id="4463977464" lat="58.3113193" lon="8.1903446" timestamp="2018-02-03T17:50:01Z" uid="2114448" user="FredrikLindseth_import" version="2" />
	<node changeset="56035354" id="4463977465" lat="58.311326" lon="8.1903479" timestamp="2018-02-03T17:50:01Z" uid="2114448" user="FredrikLindseth_import" version="2" />
	<node changeset="56035354" id="4463977466" lat="58.3113315" lon="8.190088" timestamp="2018-02-03T17:50:01Z" uid="2114448" user="FredrikLindseth_import" version="2" />
	<node changeset="56035354" id="4463977467" lat="58.3113346" lon="8.1902473" timestamp="2018-02-03T17:50:01Z" uid="2114448" user="FredrikLindseth_import" version="2" />
	<node changeset="56035354" id="4463977468" lat="58.3113377" lon="8.190049" timestamp="2018-02-03T17:50:01Z" uid="2114448" user="FredrikLindseth_import" version="2" />
	<node changeset="56035354" id="4463977469" lat="58.3113654" lon="8.1900645" timestamp="2018-02-03T17:50:01Z" uid="2114448" user="FredrikLindseth_import" version="2" />
	<node changeset="56035354" id="4463977470" lat="58.3113897" lon="8.1899095" timestamp="2018-02-03T17:50:01Z" uid="2114448" user="FredrikLindseth_import" version="2" />
	<node changeset="56035354" id="4463977471" lat="58.3113964" lon="8.1904749" timestamp="2018-02-03T17:50:01Z" uid="2114448" user="FredrikLindseth_import" version="2" />
	<node changeset="56035354" id="4463977472" lat="58.3114055" lon="8.1899183" timestamp="2018-02-03T17:50:01Z" uid="2114448" user="FredrikLindseth_import" version="2" />
	<node changeset="56035354" id="4463977473" lat="58.3114089" lon="8.1903951" timestamp="2018-02-03T17:50:01Z" uid="2114448" user="FredrikLindseth_import" version="2" />
	<node changeset="56035354" id="4463977474" lat="58.3114149" lon="8.1903989" timestamp="2018-02-03T17:50:01Z" uid="2114448" user="FredrikLindseth_import" version="2" />
	<node changeset="56035354" id="4463977475" lat="58.3114192" lon="8.1898309" timestamp="2018-02-03T17:50:01Z" uid="2114448" user="FredrikLindseth_import" version="2" />
	<node changeset="56035354" id="4463977476" lat="58.31143" lon="8.1903056" timestamp="2018-02-03T17:50:01Z" uid="2114448" user="FredrikLindseth_import" version="2" />
	<node changeset="56035354" id="4463977477" lat="58.3114576" lon="8.190321" timestamp="2018-02-03T17:50:01Z" uid="2114448" user="FredrikLindseth_import" version="2" />
	<node changeset="56035354" id="4463977478" lat="58.3114617" lon="8.1901204" timestamp="2018-02-03T17:50:01Z" uid="2114448" user="FredrikLindseth_import" version="2" />
	<node changeset="56035354" id="4463977479" lat="58.3114634" lon="8.1902831" timestamp="2018-02-03T17:50:01Z" uid="2114448" user="FredrikLindseth_import" version="2" />
	<node changeset="56035354" id="4463977480" lat="58.3114732" lon="8.1899567" timestamp="2018-02-03T17:50:01Z" uid="2114448" user="FredrikLindseth_import" version="2" />
	<node changeset="56035354" id="4463977481" lat="58.3114805" lon="8.1901743" timestamp="2018-02-03T17:50:01Z" uid="2114448" user="FredrikLindseth_import" version="2" />
	<node changeset="56035354" id="4463977483" lat="58.3114863" lon="8.1899643" timestamp="2018-02-03T17:50:01Z" uid="2114448" user="FredrikLindseth_import" version="2" />
	<node changeset="56035354" id="4463977484" lat="58.3114859" lon="8.1902957" timestamp="2018-02-03T17:50:01Z" uid="2114448" user="FredrikLindseth_import" version="2" />
	<node changeset="56035354" id="4463977485" lat="58.3114868" lon="8.1901347" timestamp="2018-02-03T17:50:01Z" uid="2114448" user="FredrikLindseth_import" version="2" />
	<node changeset="56035354" id="4463977486" lat="58.3115036" lon="8.1901878" timestamp="2018-02-03T17:50:01Z" uid="2114448" user="FredrikLindseth_import" version="2" />
	<node changeset="62004364" id="5858853917" lat="58.2836403" lon="8.1037746" timestamp="2018-08-26T11:24:06Z" uid="3842253" user="NKA_import" version="1" />
	<node changeset="62004364" id="5858853918" lat="58.2839487" lon="8.1029965" timestamp="2018-08-26T11:24:06Z" uid="3842253" user="NKA_import" version="1" />
	<node changeset="62004364" id="5858853919" lat="58.2836597" lon="8.0999642" timestamp="2018-08-26T11:24:06Z" uid="3842253" user="NKA_import" version="1" />
	<node changeset="62004364" id="5858853920" lat="58.2828468" lon="8.0986833" timestamp="2018-08-26T11:24:06Z" uid="3842253" user="NKA_import" version="1" />
	<node changeset="62004364" id="5858853921" lat="58.2821938" lon="8.0966335" timestamp="2018-08-26T11:24:06Z" uid="3842253" user="NKA_import" version="1" />
	<node changeset="62004364" id="5858853922" lat="58.2820051" lon="8.096307" timestamp="2018-08-26T11:24:06Z" uid="3842253" user="NKA_import" version="1" />
	<node changeset="62004364" id="5858853923" lat="58.2815244" lon="8.0902769" timestamp="2018-08-26T11:24:06Z" uid="3842253" user="NKA_import" version="1" />
	<node changeset="62004364" id="5858853924" lat="58.2813955" lon="8.0904107" timestamp="2018-08-26T11:24:06Z" uid="3842253" user="NKA_import" version="1" />
	<node changeset="62081523" id="5864105183" lat="58.2686085" lon="8.1701937" timestamp="2018-08-28T18:58:07Z" uid="3842253" user="NKA_import" version="1" />
	<node changeset="62081523" id="5864105184" lat="58.2684787" lon="8.1699926" timestamp="2018-08-28T18:58:07Z" uid="3842253" user="NKA_import" version="1" />
	<node changeset="57982147" id="252192032" lat="58.330797" lon="8.2320026" timestamp="2018-04-10T18:39:58Z" uid="3497659" user="NKA" version="7">
		<tag k="name" v="Birkeland" />
		<tag k="place" v="village" />
		<tag k="ssr:stedsnr" v="182259" />
		<tag k="ssr:type" v="tettsted" />
	</node>
	<node changeset="57982147" id="288218544" lat="58.2785252" lon="8.1707835" timestamp="2018-04-10T18:39:59Z" uid="3497659" user="NKA" version="6">
		<tag k="name" v="Raen" />
		<tag k="place" v="hamlet" />
		<tag k="ssr:stedsnr" v="425753" />
		<tag k="ssr:type" v="bruk" />
	</node>
	<node changeset="62004364" id="5858846282" lat="58.2817811" lon="8.0962443" timestamp="2018-08-26T11:23:04Z" uid="3842253" user="NKA_import" version="1" />
	<node changeset="62004364" id="5858846283" lat="58.281653" lon="8.0959065" timestamp="2018-08-26T11:23:04Z" uid="3842253" user="NKA_import" version="1" />
	<node changeset="62004364" id="5858846284" lat="58.2816386" lon="8.0951395" timestamp="2018-08-26T11:23:04Z" uid="3842253" user="NKA_import" version="1" />
	<node changeset="56035354" id="4463978027" lat="58.523038" lon="8.350133" timestamp="2018-02-03T17:50:02Z" uid="2114448" user="FredrikLindseth_import" version="2" />
	<node changeset="56035354" id="4463978028" lat="58.5230489" lon="8.349983" timestamp="2018-02-03T17:50:02Z" uid="2114448" user="FredrikLindseth_import" version="2" />
	<node changeset="56035354" id="4463978029" lat="58.5230564" lon="8.3502303" timestamp="2018-02-03T17:50:02Z" uid="2114448" user="FredrikLindseth_import" version="2" />
	<node changeset="56035354" id="4463978030" lat="58.5230607" lon="8.3500427" timestamp="2018-02-03T17:50:02Z" uid="2114448" user="FredrikLindseth_import" version="2" />
	<node changeset="56035354" id="4463978032" lat="58.5231049" lon="8.3502706" timestamp="2018-02-03T17:50:02Z" uid="2114448" user="FredrikLindseth_import" version="2" />
	<node changeset="56035354" id="4463978033" lat="58.5231086" lon="8.3500071" timestamp="2018-02-03T17:50:02Z" uid="2114448" user="FredrikLindseth_import" version="2" />
	<node changeset="56035354" id="4463978034" lat="58.5231196" lon="8.3503631" timestamp="2018-02-03T17:50:02Z" uid="2114448" user="FredrikLindseth_import" version="2" />
	<node changeset="56035354" id="4463978035" lat="58.5231538" lon="8.3502376" timestamp="2018-02-03T17:50:02Z" uid="2114448" user="FredrikLindseth_import" version="2" />
	<node changeset="56035354" id="4463978036" lat="58.5231574" lon="8.3500511" timestamp="2018-02-03T17:50:02Z" uid="2114448" user="FredrikLindseth_import" version="2" />
	<node changeset="56035354" id="4463978037" lat="58.5231722" lon="8.3503264" timestamp="2018-02-03T17:50:02Z" uid="2114448" user="FredrikLindseth_import" version="2" />
	<node changeset="56035354" id="4463978038" lat="58.523176" lon="8.3501421" timestamp="2018-02-03T17:50:02Z" uid="2114448" user="FredrikLindseth_import" version="2" />
	<node changeset="43174071" id="4463978039" lat="58.5251163" lon="8.3543733" timestamp="2016-10-25T20:14:49Z" uid="3842253" user="NKA_import" version="1" />
	<node changeset="43174071" id="4463978040" lat="58.5251947" lon="8.3537243" timestamp="2016-10-25T20:14:49Z" uid="3842253" user="NKA_import" version="1" />
	<node changeset="43174071" id="4463978041" lat="58.5266092" lon="8.355056" timestamp="2016-10-25T20:14:49Z" uid="3842253" user="NKA_import" version="1" />
	<node changeset="43174071" id="4463978042" lat="58.5268724" lon="8.3531932" timestamp="2016-10-25T20:14:49Z" uid="3842253" user="NKA_import" version="1" />
	<node changeset="43174071" id="4463978043" lat="58.5272085" lon="8.3551901" timestamp="2016-10-25T20:14:49Z" uid="3842253" user="NKA_import" version="1" />
	<node changeset="43174071" id="4463978044" lat="58.5274214" lon="8.3532361" timestamp="2016-10-25T20:14:49Z" uid="3842253" user="NKA_import" version="1" />
	<node changeset="43174071" id="4463978045" lat="58.527623" lon="8.3549795" timestamp="2016-10-25T20:14:49Z" uid="3842253" user="NKA_import" version="1" />
	<node changeset="43174071" id="4463978046" lat="58.5276398" lon="8.3539925" timestamp="2016-10-25T20:14:49Z" uid="3842253" user="NKA_import" version="1" />
	<node changeset="56035354" id="4463978057" lat="58.5340599" lon="8.1226885" timestamp="2018-02-03T17:50:02Z" uid="2114448" user="FredrikLindseth_import" version="2" />
	<node changeset="56035354" id="4463978058" lat="58.5340727" lon="8.1225711" timestamp="2018-02-03T17:50:02Z" uid="2114448" user="FredrikLindseth_import" version="2" />
	<node changeset="56035354" id="4463978059" lat="58.5340807" lon="8.1228376" timestamp="2018-02-03T17:50:02Z" uid="2114448" user="FredrikLindseth_import" version="2" />
	<node changeset="56035354" id="4463978060" lat="58.5340872" lon="8.1226747" timestamp="2018-02-03T17:50:02Z" uid="2114448" user="FredrikLindseth_import" version="2" />
	<node changeset="56035354" id="4463978061" lat="58.5340879" lon="8.1225119" timestamp="2018-02-03T17:50:02Z" uid="2114448" user="FredrikLindseth_import" version="2" />
	<node changeset="56035354" id="4463978062" lat="58.5340946" lon="8.1225599" timestamp="2018-02-03T17:50:02Z" uid="2114448" user="FredrikLindseth_import" version="2" />
	<node changeset="56035354" id="4463978063" lat="58.5341075" lon="8.1228239" timestamp="2018-02-03T17:50:02Z" uid="2114448" user="FredrikLindseth_import" version="2" />
	<node changeset="56035354" id="4463978064" lat="58.5341135" lon="8.1228672" timestamp="2018-02-03T17:50:02Z" uid="2114448" user="FredrikLindseth_import" version="2" />
	<node changeset="56035354" id="4463978065" lat="58.5341207" lon="8.1224953" timestamp="2018-02-03T17:50:02Z" uid="2114448" user="FredrikLindseth_import" version="2" />
	<node changeset="56035354" id="4463978066" lat="58.5341263" lon="8.1228607" timestamp="2018-02-03T17:50:02Z" uid="2114448" user="FredrikLindseth_import" version="2" />
	<node changeset="56035354" id="4463978067" lat="58.5341274" lon="8.1225431" timestamp="2018-02-03T17:50:02Z" uid="2114448" user="FredrikLindseth_import" version="2" />
	<node changeset="56035354" id="4463978068" lat="58.534143" lon="8.1229794" timestamp="2018-02-03T17:50:02Z" uid="2114448" user="FredrikLindseth_import" version="2" />
	<node changeset="56035354" id="4463978069" lat="58.5341509" lon="8.1225312" timestamp="2018-02-03T17:50:02Z" uid="2114448" user="FredrikLindseth_import" version="2" />
	<node changeset="56035354" id="4463978070" lat="58.5341658" lon="8.1226367" timestamp="2018-02-03T17:50:02Z" uid="2114448" user="FredrikLindseth_import" version="2" />
	<node changeset="56035354" id="4463978071" lat="58.534176" lon="8.1228353" timestamp="2018-02-03T17:50:02Z" uid="2114448" user="FredrikLindseth_import" version="2" />
	<node changeset="56035354" id="4463978072" lat="58.5341851" lon="8.1227861" timestamp="2018-02-03T17:50:02Z" uid="2114448" user="FredrikLindseth_import" version="2" />
	<node changeset="56035354" id="4463978073" lat="58.5341909" lon="8.1228277" timestamp="2018-02-03T17:50:02Z" uid="2114448" user="FredrikLindseth_import" version="2" />
	<node changeset="56035354" id="4463978075" lat="58.5341926" lon="8.122954" timestamp="2018-02-03T17:50:02Z" uid="2114448" user="FredrikLindseth_import" version="2" />
	<node changeset="56035354" id="4463978076" lat="58.534212" lon="8.1227722" timestamp="2018-02-03T17:50:02Z" uid="2114448" user="FredrikLindseth_import" version="2" />
	<node changeset="57982147" id="4463978077" lat="58.2711681" lon="8.1752328" timestamp="2018-04-10T18:47:52Z" uid="3497659" user="NKA" version="2">
		<tag k="name" v="Åbål" />
		<tag k="place" v="farm" />
		<tag k="ssr:stedsnr" v="709804" />
		<tag k="ssr:type" v="bruk" />
	</node>
	<node changeset="57982147" id="4463978078" lat="58.2739214" lon="8.1741535" timestamp="2018-04-10T18:47:52Z" uid="3497659" user="NKA" version="2">
		<tag k="name" v="Åbål" />
		<tag k="place" v="hamlet" />
		<tag k="ssr:stedsnr" v="182719" />
		<tag k="ssr:type" v="gard" />
	</node>
	<node changeset="57982147" id="4463978079" lat="58.4475054" lon="8.2458826" timestamp="2018-04-10T18:47:52Z" uid="3497659" user="NKA" version="2">
		<tag k="name" v="Ånnesland" />
		<tag k="place" v="farm" />
		<tag k="ssr:stedsnr" v="789401" />
		<tag k="ssr:type" v="bruk" />
	</node>
	<node changeset="57982147" id="4463978080" lat="58.3480887" lon="8.2385871" timestamp="2018-04-10T18:47:52Z" uid="3497659" user="NKA" version="2">
		<tag k="name" v="Årdalen" />
		<tag k="place" v="farm" />
		<tag k="ssr:stedsnr" v="121368" />
		<tag k="ssr:type" v="bruk" />
	</node>
	<node changeset="57982147" id="4463978081" lat="58.4931688" lon="8.1080068" timestamp="2018-04-10T18:47:52Z" uid="3497659" user="NKA" version="2">
		<tag k="name" v="Årikstad" />
		<tag k="place" v="farm" />
		<tag k="ssr:stedsnr" v="910058" />
		<tag k="ssr:type" v="bruk" />
	</node>
	<node changeset="57982147" id="4463978082" lat="58.3353012" lon="8.2836805" timestamp="2018-04-10T18:47:52Z" uid="3497659" user="NKA" version="2">
		<tag k="name" v="Ås" />
		<tag k="place" v="farm" />
		<tag k="ssr:stedsnr" v="182241" />
		<tag k="ssr:type" v="bruk" />
	</node>
	<node changeset="57982147" id="4463978083" lat="58.5193091" lon="8.130952" timestamp="2018-04-10T18:47:53Z" uid="3497659" user="NKA" version="2">
		<tag k="name" v="Ås" />
		<tag k="place" v="farm" />
		<tag k="ssr:stedsnr" v="243201" />
		<tag k="ssr:type" v="bruk" />
	</node>
	<node changeset="57982147" id="4463978084" lat="58.3603821" lon="8.0735522" timestamp="2018-04-10T18:47:53Z" uid="3497659" user="NKA" version="2">
		<tag k="name" v="Åsen" />
		<tag k="place" v="farm" />
		<tag k="ssr:stedsnr" v="894694" />
		<tag k="ssr:type" v="bruk" />
	</node>
	<node changeset="57982147" id="4463978085" lat="58.3432527" lon="8.2733574" timestamp="2018-04-10T18:47:53Z" uid="3497659" user="NKA" version="2">
		<tag k="name" v="Østerhus" />
		<tag k="place" v="farm" />
		<tag k="ssr:stedsnr" v="695400" />
		<tag k="ssr:type" v="bruk" />
	</node>
	<node changeset="57982147" id="4463978086" lat="58.5563595" lon="8.0953359" timestamp="2018-04-10T18:47:53Z" uid="3497659" user="NKA" version="2">
		<tag k="alt_name" v="Haukom østre" />
		<tag k="name" v="Østre Haukom" />
		<tag k="place" v="farm" />
		<tag k="ssr:stedsnr" v="607155" />
		<tag k="ssr:type" v="bruk" />
	</node>
	<node changeset="57982147" id="4463978087" lat="58.3793787" lon="8.2210812" timestamp="2018-04-10T18:47:53Z" uid="3497659" user="NKA" version="2">
		<tag k="name" v="Østre Mosfjell" />
		<tag k="place" v="farm" />
		<tag k="ssr:stedsnr" v="396797" />
		<tag k="ssr:type" v="bruk" />
	</node>
	<node changeset="57982147" id="4463978088" lat="58.345741" lon="8.2896241" timestamp="2018-04-10T18:47:53Z" uid="3497659" user="NKA" version="2">
		<tag k="name" v="Øvland" />
		<tag k="place" v="farm" />
		<tag k="ssr:stedsnr" v="788350" />
		<tag k="ssr:type" v="bruk" />
	</node>
	<node changeset="57982147" id="4463978089" lat="58.3235697" lon="8.246681" timestamp="2018-04-10T18:47:53Z" uid="3497659" user="NKA" version="2">
		<tag k="name" v="Øvre Birkeland" />
		<tag k="place" v="farm" />
		<tag k="ssr:stedsnr" v="20927" />
		<tag k="ssr:type" v="bruk" />
	</node>
	<node changeset="57982147" id="4463978090" lat="58.5372709" lon="8.0728736" timestamp="2018-04-10T18:47:53Z" uid="3497659" user="NKA" version="2">
		<tag k="alt_name" v="Engesland øvre" />
		<tag k="name" v="Øvre Engesland" />
		<tag k="place" v="hamlet" />
		<tag k="ssr:stedsnr" v="729683" />
		<tag k="ssr:type" v="gard" />
	</node>
	<node changeset="57982147" id="4463978091" lat="58.4822198" lon="8.0525554" timestamp="2018-04-10T18:47:53Z" uid="3497659" user="NKA" version="2">
		<tag k="alt_name" v="Fjermedal øvre" />
		<tag k="name" v="Øvre Fjermedal" />
		<tag k="place" v="farm" />
		<tag k="ssr:stedsnr" v="121250" />
		<tag k="ssr:type" v="bruk" />
	</node>
	<node changeset="57982147" id="4463978092" lat="58.3611764" lon="8.2722302" timestamp="2018-04-10T18:47:53Z" uid="3497659" user="NKA" version="2">
		<tag k="alt_name" v="Holte øvre" />
		<tag k="name" v="Øvre Holte" />
		<tag k="place" v="farm" />
		<tag k="ssr:stedsnr" v="546323" />
		<tag k="ssr:type" v="bruk" />
	</node>
	<node changeset="57982147" id="4463978093" lat="58.2721221" lon="8.2065327" timestamp="2018-04-10T18:47:54Z" uid="3497659" user="NKA" version="2">
		<tag k="name" v="Øvre Røynås" />
		<tag k="place" v="farm" />
		<tag k="ssr:stedsnr" v="60735" />
		<tag k="ssr:type" v="bruk" />
	</node>
	<node changeset="57982147" id="4463978094" lat="58.4011977" lon="8.1902342" timestamp="2018-04-10T18:47:54Z" uid="3497659" user="NKA" version="2">
		<tag k="alt_name" v="Tjørntveit" />
		<tag k="name" v="Øvre Tjørntveit" />
		<tag k="place" v="farm" />
		<tag k="ssr:stedsnr" v="606408" />
		<tag k="ssr:type" v="bruk" />
	</node>
	<node changeset="57982147" id="4463978095" lat="58.3118056" lon="8.0968456" timestamp="2018-04-10T18:47:54Z" uid="3497659" user="NKA" version="2">
		<tag k="alt_name" v="Ås" />
		<tag k="name" v="Øvre Ås" />
		<tag k="place" v="farm" />
		<tag k="ssr:stedsnr" v="728872" />
		<tag k="ssr:type" v="bruk" />
	</node>
	<node changeset="57982147" id="4463978096" lat="58.3095338" lon="8.231617" timestamp="2018-04-10T18:47:54Z" uid="3497659" user="NKA" version="2">
		<tag k="alt_name" v="Øyda" />
		<tag k="name" v="Øydna" />
		<tag k="place" v="farm" />
		<tag k="ssr:stedsnr" v="243269" />
		<tag k="ssr:type" v="bruk" />
	</node>
	<node changeset="57982147" id="4463978097" lat="58.3170119" lon="8.2518066" timestamp="2018-04-10T18:47:54Z" uid="3497659" user="NKA" version="2">
		<tag k="name" v="Øygard" />
		<tag k="place" v="farm" />
		<tag k="ssr:stedsnr" v="182264" />
		<tag k="ssr:type" v="bruk" />
	</node>
	<node changeset="57982147" id="4463978098" lat="58.2894343" lon="8.2552311" timestamp="2018-04-10T18:47:54Z" uid="3497659" user="NKA" version="2">
		<tag k="building" v="cabin" />
		<tag k="name" v="Øygarden" />
		<tag k="place" v="isolated_dwelling" />
		<tag k="ssr:stedsnr" v="696285" />
		<tag k="ssr:type" v="fritidsbolig" />
	</node>
	<node changeset="57982147" id="4463978099" lat="58.302147" lon="8.1477426" timestamp="2018-04-10T18:47:54Z" uid="3497659" user="NKA" version="2">
		<tag k="fixme" v="check position" />
		<tag k="historic" v="ruins" />
		<tag k="name" v="Øygarden" />
		<tag k="place" v="locality" />
		<tag k="ssr:stedsnr" v="215955" />
		<tag k="ssr:type" v="gammelBosettingsplass" />
	</node>
	<node changeset="57982147" id="4463978100" lat="58.3418116" lon="8.2754145" timestamp="2018-04-10T18:47:54Z" uid="3497659" user="NKA" version="2">
		<tag k="name" v="Øygarden" />
		<tag k="place" v="farm" />
		<tag k="ssr:stedsnr" v="149387" />
		<tag k="ssr:type" v="bruk" />
	</node>
	<node changeset="57982147" id="4463978101" lat="58.3896489" lon="8.2268226" timestamp="2018-04-10T18:47:55Z" uid="3497659" user="NKA" version="2">
		<tag k="name" v="Øygarden" />
		<tag k="place" v="farm" />
		<tag k="ssr:stedsnr" v="61312" />
		<tag k="ssr:type" v="bruk" />
	</node>
	<node changeset="57982147" id="4463978102" lat="58.485134" lon="8.2686245" timestamp="2018-04-10T18:47:55Z" uid="3497659" user="NKA" version="2">
		<tag k="name" v="Øygarden" />
		<tag k="place" v="farm" />
		<tag k="ssr:stedsnr" v="606435" />
		<tag k="ssr:type" v="bruk" />
	</node>
	<node changeset="57982147" id="4463978103" lat="58.5288576" lon="7.9433866" timestamp="2018-04-10T18:47:55Z" uid="3497659" user="NKA" version="2">
		<tag k="fixme" v="check position" />
		<tag k="historic" v="ruins" />
		<tag k="name" v="Øygarden" />
		<tag k="place" v="locality" />
		<tag k="ssr:stedsnr" v="353658" />
		<tag k="ssr:type" v="gammelBosettingsplass" />
	</node>
	<node changeset="62004364" id="5858846385" lat="58.2816006" lon="8.0948677" timestamp="2018-08-26T11:23:04Z" uid="3842253" user="NKA_import" version="1" />
	<node changeset="62004364" id="5858846386" lat="58.2815359" lon="8.0945794" timestamp="2018-08-26T11:23:04Z" uid="3842253" user="NKA_import" version="1" />
	<node changeset="62004364" id="5858846387" lat="58.2815418" lon="8.0941699" timestamp="2018-08-26T11:23:04Z" uid="3842253" user="NKA_import" version="1" />
	<node changeset="62004364" id="5858846388" lat="58.2814944" lon="8.093796" timestamp="2018-08-26T11:23:04Z" uid="3842253" user="NKA_import" version="1" />
	<node changeset="62004364" id="5858846389" lat="58.281411" lon="8.09344" timestamp="2018-08-26T11:23:04Z" uid="3842253" user="NKA_import" version="1" />
	<node changeset="62004364" id="5858846390" lat="58.2814178" lon="8.0930748" timestamp="2018-08-26T11:23:04Z" uid="3842253" user="NKA_import" version="1" />
	<node changeset="62004364" id="5858846391" lat="58.2814196" lon="8.0921269" timestamp="2018-08-26T11:23:04Z" uid="3842253" user="NKA_import" version="1" />
	<node changeset="62004364" id="5858846392" lat="58.2813701" lon="8.0914801" timestamp="2018-08-26T11:23:04Z" uid="3842253" user="NKA_import" version="1" />
	<node changeset="57982147" id="4115885836" lat="58.2849593" lon="8.1359549" timestamp="2018-04-10T18:40:19Z" uid="3497659" user="NKA" version="3">
		<tag k="name" v="Bjorvann" />
		<tag k="place" v="hamlet" />
		<tag k="ssr:stedsnr" v="607323" />
		<tag k="ssr:type" v="gard" />
	</node>
	<node changeset="57982147" id="4385834860" lat="58.5183329" lon="8.2282243" timestamp="2018-04-10T18:44:14Z" uid="3497659" user="NKA" version="3">
		<tag k="name" v="Fidje" />
		<tag k="place" v="hamlet" />
		<tag k="ssr:stedsnr" v="183055" />
		<tag k="ssr:type" v="bruk" />
	</node>
	<node changeset="62004364" id="5858844643" lat="58.2819933" lon="8.0979967" timestamp="2018-08-26T11:22:54Z" uid="3842253" user="NKA_import" version="1" />
	<node changeset="62004364" id="5858844644" lat="58.2819369" lon="8.0983078" timestamp="2018-08-26T11:22:54Z" uid="3842253" user="NKA_import" version="1" />
	<node changeset="62004364" id="5858844645" lat="58.2837898" lon="8.1041121" timestamp="2018-08-26T11:22:54Z" uid="3842253" user="NKA_import" version="1" />
	<node changeset="62004364" id="5858844646" lat="58.2840013" lon="8.1041229" timestamp="2018-08-26T11:22:54Z" uid="3842253" user="NKA_import" version="1" />
	<node changeset="62004364" id="5858844647" lat="58.2841056" lon="8.103919" timestamp="2018-08-26T11:22:54Z" uid="3842253" user="NKA_import" version="1" />
	<node changeset="62004364" id="5858844648" lat="58.2841028" lon="8.1036401" timestamp="2018-08-26T11:22:54Z" uid="3842253" user="NKA_import" version="1" />
	<node changeset="62004364" id="5858844649" lat="58.2840267" lon="8.1035221" timestamp="2018-08-26T11:22:54Z" uid="3842253" user="NKA_import" version="1" />
	<node changeset="62004364" id="5858844650" lat="58.284052" lon="8.103345" timestamp="2018-08-26T11:22:54Z" uid="3842253" user="NKA_import" version="1" />
	<node changeset="62004364" id="5858844651" lat="58.2838969" lon="8.1031305" timestamp="2018-08-26T11:22:54Z" uid="3842253" user="NKA_import" version="1" />
	<node changeset="62004364" id="5858844652" lat="58.28399" lon="8.1024867" timestamp="2018-08-26T11:22:54Z" uid="3842253" user="NKA_import" version="1" />
	<node changeset="62004364" id="5858844653" lat="58.2839139" lon="8.1024009" timestamp="2018-08-26T11:22:54Z" uid="3842253" user="NKA_import" version="1" />
	<node changeset="62004364" id="5858844654" lat="58.2839674" lon="8.1017303" timestamp="2018-08-26T11:22:54Z" uid="3842253" user="NKA_import" version="1" />
	<node changeset="62004364" id="5858844655" lat="58.2838885" lon="8.1016982" timestamp="2018-08-26T11:22:54Z" uid="3842253" user="NKA_import" version="1" />
	<node changeset="62004364" id="5858844656" lat="58.2838631" lon="8.1015211" timestamp="2018-08-26T11:22:54Z" uid="3842253" user="NKA_import" version="1" />
	<node changeset="62004364" id="5858844657" lat="58.2839082" lon="8.1014246" timestamp="2018-08-26T11:22:54Z" uid="3842253" user="NKA_import" version="1" />
	<node changeset="62004364" id="5858844658" lat="58.2838067" lon="8.1009042" timestamp="2018-08-26T11:22:54Z" uid="3842253" user="NKA_import" version="1" />
	<node changeset="62004364" id="5858844659" lat="58.2838321" lon="8.1004965" timestamp="2018-08-26T11:22:54Z" uid="3842253" user="NKA_import" version="1" />
	<node changeset="62004364" id="5858844660" lat="58.2834232" lon="8.0997831" timestamp="2018-08-26T11:22:54Z" uid="3842253" user="NKA_import" version="1" />
	<node changeset="62004364" id="5858844661" lat="58.2833949" lon="8.0990481" timestamp="2018-08-26T11:22:54Z" uid="3842253" user="NKA_import" version="1" />
	<node changeset="62004364" id="5858844662" lat="58.2832229" lon="8.0985331" timestamp="2018-08-26T11:22:55Z" uid="3842253" user="NKA_import" version="1" />
	<node changeset="62004364" id="5858844663" lat="58.2831101" lon="8.0986029" timestamp="2018-08-26T11:22:55Z" uid="3842253" user="NKA_import" version="1" />
	<node changeset="62004364" id="5858844664" lat="58.2830537" lon="8.0988711" timestamp="2018-08-26T11:22:55Z" uid="3842253" user="NKA_import" version="1" />
	<node changeset="62004364" id="5858844665" lat="58.282955" lon="8.0989301" timestamp="2018-08-26T11:22:55Z" uid="3842253" user="NKA_import" version="1" />
	<node changeset="62004364" id="5858844666" lat="58.2826109" lon="8.0988121" timestamp="2018-08-26T11:22:55Z" uid="3842253" user="NKA_import" version="1" />
	<node changeset="62004364" id="5858844667" lat="58.282563" lon="8.0985707" timestamp="2018-08-26T11:22:55Z" uid="3842253" user="NKA_import" version="1" />
	<node changeset="62004364" id="5858844668" lat="58.2825714" lon="8.0982971" timestamp="2018-08-26T11:22:55Z" uid="3842253" user="NKA_import" version="1" />
	<node changeset="62004364" id="5858844669" lat="58.2826166" lon="8.0980128" timestamp="2018-08-26T11:22:55Z" uid="3842253" user="NKA_import" version="1" />
	<node changeset="62004364" id="5858844670" lat="58.2823966" lon="8.097294" timestamp="2018-08-26T11:22:55Z" uid="3842253" user="NKA_import" version="1" />
	<node changeset="62004364" id="5858844671" lat="58.2823628" lon="8.0970365" timestamp="2018-08-26T11:22:55Z" uid="3842253" user="NKA_import" version="1" />
	<way changeset="57983805" id="449445250" timestamp="2018-04-10T19:47:58Z" uid="3497659" user="NKA" version="5">
		<tag k="amenity" v="place_of_worship" />
		<tag k="architect" v="F.von der Lippe" />
		<tag k="building" v="church" />
		<tag k="capacity" v="350" />
		<tag k="deanery" v="Vest-Nedenes" />
		<tag k="denomination" v="lutheran" />
		<tag k="diocese" v="Agder og Telemark" />
		<tag k="name" v="Vegusdal kyrkje" />
		<tag k="note" v="Soknekirke" />
		<tag k="operator" v="Birkenes kirkelige fellesråd" />
		<tag k="parish" v="Vegusdal" />
		<tag k="religion" v="christian" />
		<tag k="ssr:stedsnr" v="729204" />
		<tag k="ssr:type" v="kirke" />
		<tag k="start_date" v="1867" />
		<tag k="website" v="http://www.birkenes.kirken.no" />
		<tag k="wikidata" v="Q15627840" />
		<nd ref="4463978067" />
		<nd ref="4463978069" />
		<nd ref="4463978070" />
		<nd ref="4463977436" />
		<nd ref="4463978076" />
		<nd ref="4463978072" />
		<nd ref="4463978073" />
		<nd ref="4463978071" />
		<nd ref="4463978075" />
		<nd ref="4463978068" />
		<nd ref="4463978066" />
		<nd ref="4463978064" />
		<nd ref="4463978063" />
		<nd ref="4463978059" />
		<nd ref="4463978057" />
		<nd ref="4463978060" />
		<nd ref="4463978058" />
		<nd ref="4463978062" />
		<nd ref="4463978061" />
		<nd ref="4463978065" />
		<nd ref="4463978067" />
	</way>
	<way changeset="57983805" id="449445251" timestamp="2018-04-10T19:47:59Z" uid="3497659" user="NKA" version="5">
		<tag k="amenity" v="place_of_worship" />
		<tag k="architect" v="Chr. H. Grosch" />
		<tag k="building" v="church" />
		<tag k="capacity" v="650" />
		<tag k="deanery" v="Vest-Nedenes" />
		<tag k="denomination" v="lutheran" />
		<tag k="diocese" v="Agder og Telemark" />
		<tag k="image" v="https://www.kirkebyggdatabasen.no/KBDBweb/getPublicImage.aspx?vedleggId=7C7F0B75-2B1A-48E7-8746-E00CC6EE29EC" />
		<tag k="name" v="Birkenes kirke" />
		<tag k="note" v="Soknekirke" />
		<tag k="operator" v="Birkenes kirkelige fellesråd" />
		<tag k="parish" v="Birkenes" />
		<tag k="religion" v="christian" />
		<tag k="ssr:stedsnr" v="182271" />
		<tag k="ssr:type" v="kirke" />
		<tag k="start_date" v="1858" />
		<tag k="toilets" v="yes" />
		<tag k="website" v="http://www.birkenes.kirken.no" />
		<tag k="wikidata" v="Q15630677" />
		<nd ref="4463977472" />
		<nd ref="4463977475" />
		<nd ref="4463977093" />
		<nd ref="4463977480" />
		<nd ref="4463977483" />
		<nd ref="4463977478" />
		<nd ref="4463977485" />
		<nd ref="4463977481" />
		<nd ref="4463977486" />
		<nd ref="4463977484" />
		<nd ref="4463977479" />
		<nd ref="4463977477" />
		<nd ref="4463977476" />
		<nd ref="4463977474" />
		<nd ref="4463977473" />
		<nd ref="4463977471" />
		<nd ref="4463977463" />
		<nd ref="4463977465" />
		<nd ref="4463977464" />
		<nd ref="4463977467" />
		<nd ref="4463977460" />
		<nd ref="4463977462" />
		<nd ref="4463977459" />
		<nd ref="4463977461" />
		<nd ref="4463977466" />
		<nd ref="4463977468" />
		<nd ref="4463977469" />
		<nd ref="4463977470" />
		<nd ref="4463977472" />
	</way>
	<way changeset="62004418" id="620108068" timestamp="2018-08-26T14:05:59Z" uid="3842253" user="NKA_import" version="1">
		<nd ref="5858853924" />
		<nd ref="5858853923" />
		<nd ref="5858844885" />
		<nd ref="5858844684" />
		<nd ref="5858844683" />
		<nd ref="5858844682" />
		<nd ref="5858844681" />
		<nd ref="5858844680" />
		<nd ref="5858844679" />
		<nd ref="5858844678" />
		<nd ref="5858844677" />
		<nd ref="5858844675" />
		<nd ref="5858844676" />
		<nd ref="5858844674" />
		<nd ref="5858844673" />
		<nd ref="5858853922" />
		<nd ref="5858844672" />
		<nd ref="5858853921" />
		<nd ref="5858844671" />
		<nd ref="5858844670" />
		<nd ref="5858844669" />
		<nd ref="5858844668" />
		<nd ref="5858844667" />
		<nd ref="5858844666" />
		<nd ref="5858853920" />
		<nd ref="5858844665" />
		<nd ref="5858844664" />
		<nd ref="5858844663" />
		<nd ref="5858844662" />
		<nd ref="5858844661" />
		<nd ref="5858844660" />
		<nd ref="5858853919" />
		<nd ref="5858844659" />
		<nd ref="5858844658" />
		<nd ref="5858844657" />
		<nd ref="5858844656" />
		<nd ref="5858844655" />
		<nd ref="5858844654" />
		<nd ref="5858844653" />
		<nd ref="5858844652" />
		<nd ref="5858853918" />
		<nd ref="5858844651" />
		<nd ref="5858844650" />
		<nd ref="5858844649" />
		<nd ref="5858844648" />
		<nd ref="5858844647" />
		<nd ref="5858844646" />
		<nd ref="5858844645" />
		<nd ref="5858853917" />
		<nd ref="5858857109" />
	</way>
	<way changeset="62081523" id="620691467" timestamp="2018-08-28T18:58:09Z" uid="3842253" user="NKA_import" version="1">
		<tag k="name" v="Gullringholmen" />
		<tag k="place" v="islet" />
		<tag k="ssr:stedsnr" v="227116" />
		<tag k="ssr:type" v="holme" />
		<nd ref="5864106686" />
		<nd ref="5864106685" />
		<nd ref="5864105184" />
		<nd ref="5864105183" />
		<nd ref="5864106686" />
	</way>
	<way changeset="57983805" id="449445233" timestamp="2018-04-10T19:47:57Z" uid="3497659" user="NKA" version="2">
		<tag k="landuse" v="residential" />
		<tag k="name" v="Hamnehagen" />
		<tag k="ssr:stedsnr" v="154355" />
		<tag k="ssr:type" v="boligfelt" />
		<nd ref="4463978045" />
		<nd ref="4463978046" />
		<nd ref="4463978044" />
		<nd ref="4463978042" />
		<nd ref="4463978040" />
		<nd ref="4463978039" />
		<nd ref="4463978041" />
		<nd ref="4463978043" />
		<nd ref="4463978045" />
	</way>
	<way changeset="62004418" id="620108276" timestamp="2018-08-26T14:06:09Z" uid="3842253" user="NKA_import" version="1">
		<nd ref="5858857125" />
		<nd ref="5858857124" />
		<nd ref="5858857123" />
		<nd ref="5858857122" />
		<nd ref="5858857121" />
		<nd ref="5858857120" />
		<nd ref="5858857119" />
		<nd ref="5858857118" />
		<nd ref="5858857117" />
		<nd ref="5858857116" />
		<nd ref="5858857115" />
		<nd ref="5858857114" />
		<nd ref="5858857113" />
		<nd ref="5858857112" />
		<nd ref="5858857111" />
		<nd ref="5858857110" />
		<nd ref="5858857109" />
	</way>
	<way changeset="62004418" id="272616921" timestamp="2018-08-26T14:09:33Z" uid="3842253" user="NKA_import" version="2">
		<nd ref="5858853924" />
		<nd ref="2775632700" />
		<nd ref="2775632699" />
		<nd ref="5858846392" />
		<nd ref="5858846391" />
		<nd ref="2775632697" />
		<nd ref="5858846390" />
		<nd ref="5858846389" />
		<nd ref="5858861683" />
		<nd ref="5858846388" />
		<nd ref="5858846387" />
		<nd ref="5858846386" />
		<nd ref="5858846385" />
		<nd ref="5858846284" />
		<nd ref="2775632696" />
		<nd ref="5858846283" />
		<nd ref="5858846282" />
		<nd ref="2775632701" />
		<nd ref="2775632694" />
		<nd ref="2775632695" />
		<nd ref="5858844643" />
		<nd ref="5858844644" />
		<nd ref="2775632693" />
		<nd ref="2775632707" />
		<nd ref="2775632703" />
		<nd ref="2775632709" />
		<nd ref="2775632705" />
		<nd ref="5858857125" />
	</way>
	<way changeset="57983805" id="449445245" timestamp="2018-04-10T19:47:58Z" uid="3497659" user="NKA" version="4">
		<tag k="amenity" v="place_of_worship" />
		<tag k="architect" v="J.W.Nordan" />
		<tag k="building" v="church" />
		<tag k="capacity" v="200" />
		<tag k="deanery" v="Vest-Nedenes" />
		<tag k="denomination" v="lutheran" />
		<tag k="diocese" v="Agder og Telemark" />
		<tag k="image" v="https://www.kirkebyggdatabasen.no/KBDBweb/getPublicImage.aspx?vedleggId=FAE8048D-02C3-499D-8548-EE1FA698445F" />
		<tag k="name" v="Herefoss kyrkje" />
		<tag k="note" v="Soknekirke" />
		<tag k="operator" v="Birkenes kirkelige fellesråd" />
		<tag k="parish" v="Herefoss" />
		<tag k="religion" v="christian" />
		<tag k="ssr:stedsnr" v="426044" />
		<tag k="ssr:type" v="kirke" />
		<tag k="start_date" v="1865" />
		<tag k="website" v="http://www.birkenes.kirken.no" />
		<tag k="wikidata" v="Q11975157" />
		<tag k="wikipedia" v="en:Herefoss Church" />
		<nd ref="4463978027" />
		<nd ref="4463978030" />
		<nd ref="4463978028" />
		<nd ref="4463977160" />
		<nd ref="4463978033" />
		<nd ref="4463978036" />
		<nd ref="4463978038" />
		<nd ref="4463978035" />
		<nd ref="4463978037" />
		<nd ref="4463978034" />
		<nd ref="4463978032" />
		<nd ref="4463978029" />
		<nd ref="4463978027" />
	</way>
	<relation changeset="62190327" id="8600468" timestamp="2018-09-01T05:49:51Z" uid="3842253" user="NKA_import" version="2">
		<tag k="name" v="Fiskelausvatn" />
		<tag k="natural" v="water" />
		<tag k="old_name" v="Fiskelaus;Fiskelausvannet" />
		<tag k="ssr:stedsnr" v="425750" />
		<tag k="ssr:type" v="tjern" />
		<tag k="type" v="multipolygon" />
		<tag k="water" v="lake" />
		<member ref="620108276" role="outer" type="way" />
		<member ref="272616921" role="outer" type="way" />
		<member ref="620108068" role="outer" type="way" />
	</relation>
</osm>
