<?xml version="1.0" encoding="UTF-8"?>
<osm generator="osmapis" version="0.6">
	<node id="-548382" lat="61.9052071447" lon="6.69997758265">
		<tag k="name" v="Vikalida" />
		<tag k="ssr:date" v="2019-05-31" />
		<tag k="ssr:gruppe" v="veg" />
		<tag k="ssr:hovedgruppe" v="infrastruktur" />
		<tag k="ssr:stedsnr" v="1053326" />
		<tag k="ssr:type" v="adressenavn" />
	</node>
	<node id="-549146" lat="61.9036027762" lon="6.71869999616">
		<tag k="name" v="Stryn kommune" />
		<tag k="ssr:date" v="2016-05-10" />
		<tag k="ssr:gruppe" v="administrativeIndelinger" />
		<tag k="ssr:hovedgruppe" v="offentligAdministrasjon" />
		<tag k="ssr:stedsnr" v="146204" />
		<tag k="ssr:type" v="kommune" />
	</node>
	<node id="-551025" lat="61.7859341518" lon="6.98575615912">
		<tag k="name" v="Nesdal" />
		<tag k="ssr:date" v="2019-05-31" />
		<tag k="ssr:gruppe" v="veg" />
		<tag k="ssr:hovedgruppe" v="infrastruktur" />
		<tag k="ssr:stedsnr" v="975223" />
		<tag k="ssr:type" v="adressenavn" />
	</node>
	<node id="-551024" lat="61.8810030711" lon="6.36077548369">
		<tag k="name" v="Randastøylen" />
		<tag k="ssr:date" v="2019-05-31" />
		<tag k="ssr:gruppe" v="veg" />
		<tag k="ssr:hovedgruppe" v="infrastruktur" />
		<tag k="ssr:stedsnr" v="975210" />
		<tag k="ssr:type" v="adressenavn" />
	</node>
	<node id="-551023" lat="61.8846820564" lon="6.31971148838">
		<tag k="name" v="Ålandsstøylen" />
		<tag k="ssr:date" v="2019-05-31" />
		<tag k="ssr:gruppe" v="veg" />
		<tag k="ssr:hovedgruppe" v="infrastruktur" />
		<tag k="ssr:stedsnr" v="975194" />
		<tag k="ssr:type" v="adressenavn" />
	</node>
	<node id="-551022" lat="61.8726659185" lon="6.27548350536">
		<tag k="name" v="Utitunsstøylen" />
		<tag k="ssr:date" v="2019-05-31" />
		<tag k="ssr:gruppe" v="veg" />
		<tag k="ssr:hovedgruppe" v="infrastruktur" />
		<tag k="ssr:stedsnr" v="975192" />
		<tag k="ssr:type" v="adressenavn" />
	</node>
	<node id="-551021" lat="61.8849444266" lon="6.30280696648">
		<tag k="name" v="Innitunsstøylen" />
		<tag k="ssr:date" v="2019-05-31" />
		<tag k="ssr:gruppe" v="veg" />
		<tag k="ssr:hovedgruppe" v="infrastruktur" />
		<tag k="ssr:stedsnr" v="975191" />
		<tag k="ssr:type" v="adressenavn" />
	</node>
	<node id="-551020" lat="61.8292690893" lon="6.80954532903">
		<tag k="name" v="Brynestadvegen" />
		<tag k="ssr:date" v="2019-05-31" />
		<tag k="ssr:gruppe" v="veg" />
		<tag k="ssr:hovedgruppe" v="infrastruktur" />
		<tag k="ssr:stedsnr" v="975169" />
		<tag k="ssr:type" v="adressenavn" />
	</node>
	<node id="-551019" lat="61.9250109306" lon="7.08563860924">
		<tag k="name" v="Segestad" />
		<tag k="ssr:date" v="2019-05-31" />
		<tag k="ssr:gruppe" v="veg" />
		<tag k="ssr:hovedgruppe" v="infrastruktur" />
		<tag k="ssr:stedsnr" v="975160" />
		<tag k="ssr:type" v="adressenavn" />
	</node>
	<node id="-551018" lat="60.8816104596" lon="6.30047518531">
		<tag k="name" v="Vestlandet" />
		<tag k="ssr:date" v="2019-01-06" />
		<tag k="ssr:gruppe" v="administrativeIndelinger" />
		<tag k="ssr:hovedgruppe" v="offentligAdministrasjon" />
		<tag k="ssr:stedsnr" v="974777" />
		<tag k="ssr:type" v="annenAdministrativInndeling" />
	</node>
	<node id="-549065" lat="61.8691944448" lon="6.79378054931">
		<tag k="alt_name" v="Rakenes" />
		<tag k="name" v="Rakenes lykt" />
		<tag k="ssr:date" v="2016-05-10" />
		<tag k="ssr:gruppe" v="navigasjon" />
		<tag k="ssr:hovedgruppe" v="infrastruktur" />
		<tag k="ssr:stedsnr" v="100480" />
		<tag k="ssr:type" v="fyrlykt" />
	</node>
	<node id="-550561" lat="61.8429083305" lon="6.51679445294">
		<tag k="name" v="Gamlevegen" />
		<tag k="ssr:date" v="2016-05-11" />
		<tag k="ssr:gruppe" v="veg" />
		<tag k="ssr:hovedgruppe" v="infrastruktur" />
		<tag k="ssr:stedsnr" v="785297" />
		<tag k="ssr:type" v="vegstrekning" />
	</node>
</osm>
