<?xml version="1.0" encoding="UTF-8"?>
<osm generator="osmapis" version="0.6">
	<node id="-674304" lat="61.4538001576" lon="5.90274918096">
		<tag k="name" v="Viebakkane" />
		<tag k="ssr:date" v="2019-12-27" />
		<tag k="ssr:gruppe" v="veg" />
		<tag k="ssr:hovedgruppe" v="infrastruktur" />
		<tag k="ssr:stedsnr" v="1053780" />
		<tag k="ssr:type" v="adressenavn" />
	</node>
	<node id="-674303" lat="61.5148014904" lon="5.73933263734">
		<tag k="name" v="Øvre Grimsethmarka" />
		<tag k="ssr:date" v="2019-12-27" />
		<tag k="ssr:gruppe" v="veg" />
		<tag k="ssr:hovedgruppe" v="infrastruktur" />
		<tag k="ssr:stedsnr" v="1053875" />
		<tag k="ssr:type" v="adressenavn" />
	</node>
	<node id="-674302" lat="61.4957455969" lon="5.31360838921">
		<tag k="name" v="Seljevollvegen" />
		<tag k="ssr:date" v="2019-12-27" />
		<tag k="ssr:gruppe" v="veg" />
		<tag k="ssr:hovedgruppe" v="infrastruktur" />
		<tag k="ssr:stedsnr" v="1053874" />
		<tag k="ssr:type" v="adressenavn" />
	</node>
	<node id="-674301" lat="61.4926269133" lon="5.50347109669">
		<tag k="name" v="Nordvika" />
		<tag k="ssr:date" v="2019-12-27" />
		<tag k="ssr:gruppe" v="veg" />
		<tag k="ssr:hovedgruppe" v="infrastruktur" />
		<tag k="ssr:stedsnr" v="1053873" />
		<tag k="ssr:type" v="adressenavn" />
	</node>
	<node id="-674300" lat="61.4904835701" lon="5.39368093843">
		<tag k="name" v="Vevringskyrkjevegen" />
		<tag k="ssr:date" v="2019-12-27" />
		<tag k="ssr:gruppe" v="veg" />
		<tag k="ssr:hovedgruppe" v="infrastruktur" />
		<tag k="ssr:stedsnr" v="1053872" />
		<tag k="ssr:type" v="adressenavn" />
	</node>
	<node id="-674299" lat="61.4904860202" lon="5.3832656017">
		<tag k="name" v="Vassbotnvegen" />
		<tag k="ssr:date" v="2019-12-27" />
		<tag k="ssr:gruppe" v="veg" />
		<tag k="ssr:hovedgruppe" v="infrastruktur" />
		<tag k="ssr:stedsnr" v="1053871" />
		<tag k="ssr:type" v="adressenavn" />
	</node>
	<node id="-674298" lat="61.4613136354" lon="5.53498825388">
		<tag k="name" v="Klubbavegen" />
		<tag k="ssr:date" v="2019-12-27" />
		<tag k="ssr:gruppe" v="veg" />
		<tag k="ssr:hovedgruppe" v="infrastruktur" />
		<tag k="ssr:stedsnr" v="1053870" />
		<tag k="ssr:type" v="adressenavn" />
	</node>
	<node id="-674297" lat="61.4646513338" lon="5.49783870792">
		<tag k="name" v="Vatnelia" />
		<tag k="ssr:date" v="2019-12-27" />
		<tag k="ssr:gruppe" v="veg" />
		<tag k="ssr:hovedgruppe" v="infrastruktur" />
		<tag k="ssr:stedsnr" v="1053869" />
		<tag k="ssr:type" v="adressenavn" />
	</node>
	<node id="-674296" lat="61.4606345467" lon="5.49431796324">
		<tag k="name" v="Hellenesvegen" />
		<tag k="ssr:date" v="2019-12-27" />
		<tag k="ssr:gruppe" v="veg" />
		<tag k="ssr:hovedgruppe" v="infrastruktur" />
		<tag k="ssr:stedsnr" v="1053868" />
		<tag k="ssr:type" v="adressenavn" />
	</node>
	<node id="-674295" lat="61.4761428938" lon="5.59808424304">
		<tag k="name" v="Storelivegen" />
		<tag k="ssr:date" v="2019-12-27" />
		<tag k="ssr:gruppe" v="veg" />
		<tag k="ssr:hovedgruppe" v="infrastruktur" />
		<tag k="ssr:stedsnr" v="1053867" />
		<tag k="ssr:type" v="adressenavn" />
	</node>
	<node id="-674294" lat="61.4689864355" lon="5.55646855415">
		<tag k="name" v="Hellevegen" />
		<tag k="ssr:date" v="2019-12-27" />
		<tag k="ssr:gruppe" v="veg" />
		<tag k="ssr:hovedgruppe" v="infrastruktur" />
		<tag k="ssr:stedsnr" v="1053866" />
		<tag k="ssr:type" v="adressenavn" />
	</node>
	<node id="-674293" lat="61.4643803948" lon="5.5420832094">
		<tag k="name" v="Vatnevegen" />
		<tag k="ssr:date" v="2019-12-27" />
		<tag k="ssr:gruppe" v="veg" />
		<tag k="ssr:hovedgruppe" v="infrastruktur" />
		<tag k="ssr:stedsnr" v="1053865" />
		<tag k="ssr:type" v="adressenavn" />
	</node>
	<node id="-674292" lat="61.4666017168" lon="5.56084940357">
		<tag k="name" v="Einevollsvegen" />
		<tag k="ssr:date" v="2019-12-27" />
		<tag k="ssr:gruppe" v="veg" />
		<tag k="ssr:hovedgruppe" v="infrastruktur" />
		<tag k="ssr:stedsnr" v="1053864" />
		<tag k="ssr:type" v="adressenavn" />
	</node>
	<node id="-674291" lat="61.4531526996" lon="5.90434338477">
		<tag k="name" v="Rennebakkane" />
		<tag k="ssr:date" v="2019-12-27" />
		<tag k="ssr:gruppe" v="veg" />
		<tag k="ssr:hovedgruppe" v="infrastruktur" />
		<tag k="ssr:stedsnr" v="1053829" />
		<tag k="ssr:type" v="adressenavn" />
	</node>
	<node id="-674290" lat="61.4483847065" lon="5.87461898754">
		<tag k="name" v="Veg 1017" />
		<tag k="ssr:date" v="2019-12-27" />
		<tag k="ssr:gruppe" v="veg" />
		<tag k="ssr:hovedgruppe" v="infrastruktur" />
		<tag k="ssr:stedsnr" v="1053823" />
		<tag k="ssr:type" v="adressenavn" />
	</node>
	<node id="-674288" lat="61.432086193" lon="5.90170739593">
		<tag k="name" v="Skavdalsvegen" />
		<tag k="ssr:date" v="2019-12-27" />
		<tag k="ssr:gruppe" v="veg" />
		<tag k="ssr:hovedgruppe" v="infrastruktur" />
		<tag k="ssr:stedsnr" v="982544" />
		<tag k="ssr:type" v="adressenavn" />
	</node>
	<node id="-674287" lat="61.4316029782" lon="5.90179287559">
		<tag k="name" v="Storelia" />
		<tag k="ssr:date" v="2019-12-27" />
		<tag k="ssr:gruppe" v="veg" />
		<tag k="ssr:hovedgruppe" v="infrastruktur" />
		<tag k="ssr:stedsnr" v="982542" />
		<tag k="ssr:type" v="adressenavn" />
	</node>
	<node id="-674286" lat="61.4292779908" lon="5.99971013212">
		<tag k="name" v="Naustvegen" />
		<tag k="ssr:date" v="2019-12-27" />
		<tag k="ssr:gruppe" v="veg" />
		<tag k="ssr:hovedgruppe" v="infrastruktur" />
		<tag k="ssr:stedsnr" v="982540" />
		<tag k="ssr:type" v="adressenavn" />
	</node>
	<node id="-674285" lat="61.4586276502" lon="5.88994562063">
		<tag k="name" v="Svanehaugvegen" />
		<tag k="ssr:date" v="2019-12-27" />
		<tag k="ssr:gruppe" v="veg" />
		<tag k="ssr:hovedgruppe" v="infrastruktur" />
		<tag k="ssr:stedsnr" v="982539" />
		<tag k="ssr:type" v="adressenavn" />
	</node>
	<node id="-674284" lat="61.4349403273" lon="5.98275083078">
		<tag k="name" v="Movegen" />
		<tag k="ssr:date" v="2019-12-27" />
		<tag k="ssr:gruppe" v="veg" />
		<tag k="ssr:hovedgruppe" v="infrastruktur" />
		<tag k="ssr:stedsnr" v="982533" />
		<tag k="ssr:type" v="adressenavn" />
	</node>
	<node id="-671770" lat="61.4775833312" lon="5.66173610519">
		<tag k="alt_name" v="Geitneset;Gjesnes" />
		<tag k="name" v="Geitsneset" />
		<tag k="ssr:date" v="2019-12-27" />
		<tag k="ssr:gruppe" v="navigasjon" />
		<tag k="ssr:hovedgruppe" v="infrastruktur" />
		<tag k="ssr:stedsnr" v="129708" />
		<tag k="ssr:type" v="fyrlykt" />
	</node>
	<node id="-671884" lat="61.4878722234" lon="5.46414166947">
		<tag k="name" v="Grytten lykt" />
		<tag k="ssr:date" v="2019-12-27" />
		<tag k="ssr:gruppe" v="navigasjon" />
		<tag k="ssr:hovedgruppe" v="infrastruktur" />
		<tag k="ssr:stedsnr" v="165108" />
		<tag k="ssr:type" v="fyrlykt" />
	</node>
	<node id="-674306" lat="61.5015094572" lon="5.68538845554">
		<tag k="name" v="Sælavegen" />
		<tag k="ssr:date" v="2019-12-27" />
		<tag k="ssr:gruppe" v="veg" />
		<tag k="ssr:hovedgruppe" v="infrastruktur" />
		<tag k="ssr:stedsnr" v="1053915" />
		<tag k="ssr:type" v="adressenavn" />
	</node>
	<node id="-674305" lat="61.4524220858" lon="5.89924250543">
		<tag k="name" v="Råkane" />
		<tag k="ssr:date" v="2019-12-27" />
		<tag k="ssr:gruppe" v="veg" />
		<tag k="ssr:hovedgruppe" v="infrastruktur" />
		<tag k="ssr:stedsnr" v="1053785" />
		<tag k="ssr:type" v="adressenavn" />
	</node>
</osm>
