<?xml version="1.0" encoding="UTF-8"?>
<osm version="0.6" generator="osmapis">
	<node id="2399186617" lat="62.2578375" lon="8.2061041" version="3" timestamp="2022-03-31T17:11:14Z" changeset="119170451" uid="3497659" user="NKA">
		<tag k="name" v="Bjorli" />
		<tag k="place" v="village" />
		<tag k="ssr:stedsnr" v="936536" />
	</node>
	<node id="3098295487" lat="62.2326103" lon="8.3564784" version="2" timestamp="2022-03-31T17:11:14Z" changeset="119170451" uid="3497659" user="NKA">
		<tag k="name" v="Lesjaskog" />
		<tag k="place" v="village" />
		<tag k="ssr:stedsnr" v="921851" />
	</node>
	<node id="3398459298" lat="62.1447135" lon="9.0110448" version="3" timestamp="2022-03-31T17:11:14Z" changeset="119170451" uid="3497659" user="NKA">
		<tag k="alt_name" v="Reindøl" />
		<tag k="historic" v="shieling" />
		<tag k="name" v="Reindølsætrin" />
		<tag k="place" v="hamlet" />
		<tag k="ssr:stedsnr" v="860932" />
	</node>
	<node id="3405775191" lat="62.1796764" lon="8.9067387" version="3" timestamp="2022-03-31T17:11:14Z" changeset="119170451" uid="3497659" user="NKA">
		<tag k="historic" v="shieling" />
		<tag k="name" v="Filling" />
		<tag k="place" v="hamlet" />
		<tag k="ssr:stedsnr" v="556975" />
	</node>
	<node id="3405775192" lat="62.1977689" lon="8.9247056" version="3" timestamp="2022-03-31T17:11:14Z" changeset="119170451" uid="3497659" user="NKA">
		<tag k="alt_name" v="Nysætri" />
		<tag k="name" v="Nysætre" />
		<tag k="place" v="hamlet" />
		<tag k="ssr:stedsnr" v="921941" />
	</node>
	<node id="3405826218" lat="62.2134631" lon="9.2226628" version="2" timestamp="2022-03-31T17:11:14Z" changeset="119170451" uid="3497659" user="NKA">
		<tag k="name" v="Skredalægret" />
		<tag k="place" v="locality" />
		<tag k="ssr:stedsnr" v="10749" />
	</node>
	<node id="3418177191" lat="62.2181095" lon="8.8699969" version="3" timestamp="2022-03-31T17:11:14Z" changeset="119170451" uid="3497659" user="NKA">
		<tag k="name" v="Sjong" />
		<tag k="place" v="hamlet" />
		<tag k="ssr:stedsnr" v="921932" />
	</node>
	<node id="3420479785" lat="62.2001299" lon="8.8739158" version="3" timestamp="2022-03-31T17:11:14Z" changeset="119170451" uid="3497659" user="NKA">
		<tag k="alt_name" v="Tandesætri" />
		<tag k="name" v="Tandsætre" />
		<tag k="place" v="hamlet" />
		<tag k="ssr:stedsnr" v="314929" />
	</node>
	<node id="3696620848" lat="62.2350139" lon="8.9741361" version="2" timestamp="2022-03-31T17:11:14Z" changeset="119170451" uid="3497659" user="NKA">
		<tag k="historic" v="shieling" />
		<tag k="name" v="Skamsdalsætrin" />
		<tag k="place" v="isolated_dwelling" />
		<tag k="ssr:stedsnr" v="497000" />
	</node>
	<node id="5789111401" lat="62.2398395" lon="8.82986" version="3" timestamp="2022-02-01T16:51:09Z" changeset="116876628" uid="3497659" user="NKA">
		<tag k="junction" v="yes" />
		<tag k="name" v="Kvitakrysset" />
		<tag k="ssr:stedsnr" v="778693" />
	</node>
	<node id="6236538516" lat="62.1439447" lon="8.6962223" version="2" timestamp="2022-03-31T17:11:14Z" changeset="119170451" uid="3497659" user="NKA">
		<tag k="name" v="Lora" />
		<tag k="place" v="quarter" />
		<tag k="ssr:stedsnr" v="435773" />
	</node>
	<node id="6236538523" lat="62.1922545" lon="8.5403326" version="2" timestamp="2022-03-31T17:11:14Z" changeset="119170451" uid="3497659" user="NKA">
		<tag k="name" v="Lesjaverk" />
		<tag k="place" v="village" />
		<tag k="ssr:stedsnr" v="799867" />
	</node>
	<node id="6236538526" lat="62.1183499" lon="8.8639467" version="3" timestamp="2022-03-31T17:11:14Z" changeset="119170451" uid="3497659" user="NKA">
		<tag k="name" v="Lesja" />
		<tag k="place" v="village" />
		<tag k="population" v="226" />
		<tag k="population:date" v="2019-01-01" />
		<tag k="ref:ssb_tettsted" v="1531" />
		<tag k="ssr:stedsnr" v="631861" />
	</node>
	<node id="7545289095" lat="62.0554333" lon="8.3560001" version="2" timestamp="2022-03-31T17:11:14Z" changeset="119170451" uid="3497659" user="NKA">
		<tag k="alt_name" v="Nysætre" />
		<tag k="historic" v="shieling" />
		<tag k="name" v="Nysætri" />
		<tag k="place" v="isolated_dwelling" />
		<tag k="ssr:stedsnr" v="254737" />
	</node>
	<node id="7855457821" lat="62.2179833" lon="8.5578612" version="2" timestamp="2022-03-31T17:11:14Z" changeset="119170451" uid="3497659" user="NKA">
		<tag k="historic" v="shieling" />
		<tag k="name" v="Lynningen" />
		<tag k="place" v="isolated_dwelling" />
		<tag k="ssr:stedsnr" v="132818" />
	</node>
	<node id="9627052198" lat="62.1186916" lon="8.7863805" version="1" timestamp="2022-03-31T17:11:14Z" changeset="119170451" uid="3497659" user="NKA">
		<tag k="name" v="Myrlykkja" />
		<tag k="place" v="farm" />
		<tag k="ssr:stedsnr" v="535646" />
	</node>
	<node id="9627052199" lat="62.0956306" lon="9.0430249" version="1" timestamp="2022-03-31T17:11:14Z" changeset="119170451" uid="3497659" user="NKA">
		<tag k="name" v="Hågålykkja" />
		<tag k="place" v="farm" />
		<tag k="ssr:stedsnr" v="292887" />
	</node>
	<node id="9627052200" lat="62.1176609" lon="8.8812844" version="1" timestamp="2022-03-31T17:11:14Z" changeset="119170451" uid="3497659" user="NKA">
		<tag k="name" v="Hole" />
		<tag k="place" v="farm" />
		<tag k="ssr:stedsnr" v="132879" />
	</node>
	<node id="9627052201" lat="62.2140417" lon="8.8797194" version="1" timestamp="2022-03-31T17:11:14Z" changeset="119170451" uid="3497659" user="NKA">
		<tag k="name" v="Kårbøskvee" />
		<tag k="place" v="locality" />
		<tag k="ssr:stedsnr" v="960911" />
	</node>
	<node id="9627052202" lat="62.0977566" lon="8.9674366" version="1" timestamp="2022-03-31T17:11:14Z" changeset="119170451" uid="3497659" user="NKA">
		<tag k="alt_name" v="Bøloghaug nedre" />
		<tag k="name" v="Nedre Bøloghaugen" />
		<tag k="place" v="farm" />
		<tag k="ssr:stedsnr" v="1075512" />
	</node>
	<node id="9627052203" lat="62.2363139" lon="8.2928277" version="1" timestamp="2022-03-31T17:11:14Z" changeset="119170451" uid="3497659" user="NKA">
		<tag k="name" v="Hammeren" />
		<tag k="place" v="farm" />
		<tag k="ssr:stedsnr" v="50054" />
	</node>
	<node id="9627052204" lat="62.1205411" lon="8.7610408" version="1" timestamp="2022-03-31T17:11:14Z" changeset="119170451" uid="3497659" user="NKA">
		<tag k="name" v="Mitti Lyftingmo" />
		<tag k="place" v="farm" />
		<tag k="ssr:stedsnr" v="474668" />
	</node>
	<node id="9627052205" lat="62.1766305" lon="8.6236277" version="1" timestamp="2022-03-31T17:11:14Z" changeset="119170451" uid="3497659" user="NKA">
		<tag k="name" v="Toftan" />
		<tag k="place" v="locality" />
		<tag k="ssr:stedsnr" v="839343" />
	</node>
	<node id="9627052206" lat="62.1414566" lon="9.0358164" version="1" timestamp="2022-03-31T17:11:14Z" changeset="119170451" uid="3497659" user="NKA">
		<tag k="historic" v="shieling" />
		<tag k="name" v="Svartdalsætrin" />
		<tag k="place" v="hamlet" />
		<tag k="ssr:stedsnr" v="496914" />
	</node>
	<node id="9627052207" lat="62.1212" lon="8.7937723" version="1" timestamp="2022-03-31T17:11:14Z" changeset="119170451" uid="3497659" user="NKA">
		<tag k="name" v="Vetle Avdem" />
		<tag k="place" v="farm" />
		<tag k="ssr:stedsnr" v="778711" />
	</node>
	<node id="9627052208" lat="62.1648861" lon="8.6537223" version="1" timestamp="2022-03-31T17:11:14Z" changeset="119170451" uid="3497659" user="NKA">
		<tag k="alt_name" v="Rislykkja, s" />
		<tag k="name" v="Søre Rislykkja" />
		<tag k="place" v="farm" />
		<tag k="ssr:stedsnr" v="71830" />
	</node>
	<node id="9627052209" lat="62.1391528" lon="8.7009111" version="1" timestamp="2022-03-31T17:11:14Z" changeset="119170451" uid="3497659" user="NKA">
		<tag k="loc_name" v="Vesl-Bjøkne" />
		<tag k="name" v="Lillebjøkne" />
		<tag k="place" v="farm" />
		<tag k="ssr:stedsnr" v="656539" />
	</node>
	<node id="9627052210" lat="62.2325806" lon="8.3443222" version="1" timestamp="2022-03-31T17:11:14Z" changeset="119170451" uid="3497659" user="NKA">
		<tag k="name" v="Kyrkjeholen" />
		<tag k="place" v="locality" />
		<tag k="ssr:stedsnr" v="353088" />
	</node>
	<node id="9627052211" lat="62.0890944" lon="9.0899528" version="1" timestamp="2022-03-31T17:11:14Z" changeset="119170451" uid="3497659" user="NKA">
		<tag k="name" v="Veltstugu" />
		<tag k="place" v="isolated_dwelling" />
		<tag k="ssr:stedsnr" v="899808" />
	</node>
	<node id="9627052212" lat="62.1687806" lon="8.6474889" version="1" timestamp="2022-03-31T17:11:14Z" changeset="119170451" uid="3497659" user="NKA">
		<tag k="alt_name" v="Rislykkja, nordre" />
		<tag k="name" v="Nordre Rislykkja" />
		<tag k="old_name" v="Ris-lykkja, nordre" />
		<tag k="place" v="farm" />
		<tag k="ssr:stedsnr" v="253802" />
	</node>
	<node id="9627052213" lat="62.1133011" lon="8.8771259" version="1" timestamp="2022-03-31T17:11:14Z" changeset="119170451" uid="3497659" user="NKA">
		<tag k="name" v="Holshaugen" />
		<tag k="place" v="farm" />
		<tag k="ssr:stedsnr" v="778642" />
	</node>
	<node id="9627052214" lat="62.1254842" lon="8.7249138" version="1" timestamp="2022-03-31T17:11:14Z" changeset="119170451" uid="3497659" user="NKA">
		<tag k="name" v="Flitti" />
		<tag k="place" v="farm" />
		<tag k="ssr:stedsnr" v="678914" />
	</node>
	<node id="9627052215" lat="62.221175" lon="8.3843251" version="1" timestamp="2022-03-31T17:11:14Z" changeset="119170451" uid="3497659" user="NKA">
		<tag k="historic" v="shieling" />
		<tag k="name" v="Øygardan" />
		<tag k="place" v="isolated_dwelling" />
		<tag k="ssr:stedsnr" v="50055" />
	</node>
	<node id="9627052216" lat="62.0981509" lon="9.0734142" version="1" timestamp="2022-03-31T17:11:14Z" changeset="119170451" uid="3497659" user="NKA">
		<tag k="name" v="Eremittbue" />
		<tag k="place" v="locality" />
		<tag k="ssr:stedsnr" v="171850" />
	</node>
	<node id="9627062317" lat="62.1621493" lon="8.6571472" version="1" timestamp="2022-03-31T17:11:14Z" changeset="119170451" uid="3497659" user="NKA">
		<tag k="alt_name" v="Rise midtre" />
		<tag k="name" v="Rise" />
		<tag k="place" v="farm" />
		<tag k="ssr:stedsnr" v="799827" />
	</node>
	<node id="9627062318" lat="62.2646916" lon="8.2243361" version="1" timestamp="2022-03-31T17:11:14Z" changeset="119170451" uid="3497659" user="NKA">
		<tag k="name" v="Nyheim" />
		<tag k="place" v="farm" />
		<tag k="ssr:stedsnr" v="194271" />
	</node>
	<node id="9627062319" lat="62.2365993" lon="8.3959173" version="1" timestamp="2022-03-31T17:11:14Z" changeset="119170451" uid="3497659" user="NKA">
		<tag k="name" v="Nordskotte" />
		<tag k="place" v="farm" />
		<tag k="ssr:stedsnr" v="800830" />
	</node>
	<node id="9627062320" lat="62.0516111" lon="8.3526194" version="1" timestamp="2022-03-31T17:11:14Z" changeset="119170451" uid="3497659" user="NKA">
		<tag k="historic" v="shieling" />
		<tag k="name" v="Nordstølen" />
		<tag k="place" v="isolated_dwelling" />
		<tag k="ssr:stedsnr" v="617975" />
	</node>
	<node id="9627062321" lat="62.1442889" lon="8.6912973" version="1" timestamp="2022-03-31T17:11:14Z" changeset="119170451" uid="3497659" user="NKA">
		<tag k="name" v="Jørstad" />
		<tag k="place" v="farm" />
		<tag k="ssr:stedsnr" v="556767" />
	</node>
	<node id="9627062322" lat="62.1315778" lon="8.7079778" version="1" timestamp="2022-03-31T17:11:14Z" changeset="119170451" uid="3497659" user="NKA">
		<tag k="alt_name" v="Holløkken" />
		<tag k="name" v="Hollykkja" />
		<tag k="place" v="farm" />
		<tag k="ssr:stedsnr" v="71783" />
	</node>
	<node id="9627062323" lat="62.1575112" lon="8.6798056" version="1" timestamp="2022-03-31T17:11:14Z" changeset="119170451" uid="3497659" user="NKA">
		<tag k="alt_name" v="Sveen" />
		<tag k="name" v="Svedi" />
		<tag k="place" v="farm" />
		<tag k="ssr:stedsnr" v="921813" />
	</node>
	<node id="9627062324" lat="62.1177799" lon="8.9004941" version="1" timestamp="2022-03-31T17:11:14Z" changeset="119170451" uid="3497659" user="NKA">
		<tag k="name" v="Hattrem" />
		<tag k="place" v="hamlet" />
		<tag k="ssr:stedsnr" v="921880" />
	</node>
	<node id="9627062325" lat="62.2308334" lon="8.3543055" version="1" timestamp="2022-03-31T17:11:14Z" changeset="119170451" uid="3497659" user="NKA">
		<tag k="name" v="Rundtom" />
		<tag k="place" v="farm" />
		<tag k="ssr:stedsnr" v="900089" />
	</node>
	<node id="9627062326" lat="62.214375" lon="8.4792002" version="1" timestamp="2022-03-31T17:11:14Z" changeset="119170451" uid="3497659" user="NKA">
		<tag k="name" v="Gravset" />
		<tag k="place" v="farm" />
		<tag k="ssr:stedsnr" v="800797" />
	</node>
	<node id="9627062327" lat="62.1229035" lon="8.7558376" version="1" timestamp="2022-03-31T17:11:14Z" changeset="119170451" uid="3497659" user="NKA">
		<tag k="name" v="Svartbrenna" />
		<tag k="place" v="locality" />
		<tag k="ssr:stedsnr" v="984038" />
	</node>
	<node id="9627062328" lat="62.2813972" lon="8.1436889" version="1" timestamp="2022-03-31T17:11:14Z" changeset="119170451" uid="3497659" user="NKA">
		<tag k="name" v="Tangøye" />
		<tag k="place" v="farm" />
		<tag k="ssr:stedsnr" v="172258" />
	</node>
	<node id="9627062329" lat="62.1213944" lon="8.9340166" version="1" timestamp="2022-03-31T17:11:14Z" changeset="119170451" uid="3497659" user="NKA">
		<tag k="alt_name" v="Lykkja;Løkken" />
		<tag k="name" v="Ulateigslykkja" />
		<tag k="place" v="farm" />
		<tag k="ssr:stedsnr" v="436882" />
	</node>
	<node id="9627062330" lat="62.1136142" lon="8.9498291" version="1" timestamp="2022-03-31T17:11:14Z" changeset="119170451" uid="3497659" user="NKA">
		<tag k="name" v="Isaksbø" />
		<tag k="place" v="farm" />
		<tag k="ssr:stedsnr" v="984131" />
	</node>
	<node id="9627062331" lat="62.2437806" lon="8.4196445" version="1" timestamp="2022-03-31T17:11:14Z" changeset="119170451" uid="3497659" user="NKA">
		<tag k="alt_name" v="Jonsgardsætre" />
		<tag k="historic" v="shieling" />
		<tag k="name" v="Jonsgardsætri" />
		<tag k="place" v="isolated_dwelling" />
		<tag k="ssr:stedsnr" v="556865" />
	</node>
	<node id="9627062332" lat="62.0934036" lon="9.0539964" version="1" timestamp="2022-03-31T17:11:14Z" changeset="119170451" uid="3497659" user="NKA">
		<tag k="alt_name" v="Amundgård;Ommundgard" />
		<tag k="name" v="Amundgard" />
		<tag k="old_name" v="Ommundgaard;Ommundgård;Amundgaard" />
		<tag k="place" v="farm" />
		<tag k="ssr:stedsnr" v="726537" />
	</node>
	<node id="9627062333" lat="62.1919492" lon="8.548741" version="1" timestamp="2022-03-31T17:11:14Z" changeset="119170451" uid="3497659" user="NKA">
		<tag k="alt_name" v="Endresplass" />
		<tag k="name" v="Endresplassen" />
		<tag k="place" v="farm" />
		<tag k="ssr:stedsnr" v="960322" />
	</node>
	<node id="9627062334" lat="62.2513028" lon="8.3136221" version="1" timestamp="2022-03-31T17:11:14Z" changeset="119170451" uid="3497659" user="NKA">
		<tag k="historic" v="shieling" />
		<tag k="name" v="Søreinbusætre" />
		<tag k="place" v="isolated_dwelling" />
		<tag k="ssr:stedsnr" v="717090" />
	</node>
	<node id="9627062335" lat="62.2357227" lon="8.3989965" version="1" timestamp="2022-03-31T17:11:14Z" changeset="119170451" uid="3497659" user="NKA">
		<tag k="name" v="Sørskotte" />
		<tag k="place" v="farm" />
		<tag k="ssr:stedsnr" v="678836" />
	</node>
	<node id="9627062336" lat="62.2401168" lon="8.2728408" version="1" timestamp="2022-03-31T17:11:14Z" changeset="119170451" uid="3497659" user="NKA">
		<tag k="name" v="Einbu" />
		<tag k="place" v="hamlet" />
		<tag k="ssr:stedsnr" v="1080330" />
	</node>
	<node id="9627062337" lat="62.1156306" lon="8.8524723" version="1" timestamp="2022-03-31T17:11:14Z" changeset="119170451" uid="3497659" user="NKA">
		<tag k="name" v="Klokstad" />
		<tag k="place" v="farm" />
		<tag k="ssr:stedsnr" v="475525" />
	</node>
	<node id="9627062338" lat="62.1178081" lon="8.9156034" version="1" timestamp="2022-03-31T17:11:14Z" changeset="119170451" uid="3497659" user="NKA">
		<tag k="name" v="Ølstad" />
		<tag k="place" v="farm" />
		<tag k="ssr:stedsnr" v="678870" />
	</node>
	<node id="9627062339" lat="62.2400648" lon="8.3706981" version="1" timestamp="2022-03-31T17:11:14Z" changeset="119170451" uid="3497659" user="NKA">
		<tag k="alt_name" v="Enstad" />
		<tag k="name" v="Nordpå-Enstad" />
		<tag k="place" v="farm" />
		<tag k="ssr:stedsnr" v="314253" />
	</node>
	<node id="9627062340" lat="62.1240861" lon="8.7975278" version="1" timestamp="2022-03-31T17:11:14Z" changeset="119170451" uid="3497659" user="NKA">
		<tag k="name" v="Avdemshaugen" />
		<tag k="place" v="farm" />
		<tag k="ssr:stedsnr" v="171747" />
	</node>
	<node id="9627062341" lat="62.1899694" lon="8.2545778" version="1" timestamp="2022-03-31T17:11:14Z" changeset="119170451" uid="3497659" user="NKA">
		<tag k="name" v="Knutbrenna" />
		<tag k="place" v="locality" />
		<tag k="ssr:stedsnr" v="495851" />
	</node>
	<node id="9627062342" lat="62.1209805" lon="8.7795306" version="1" timestamp="2022-03-31T17:11:14Z" changeset="119170451" uid="3497659" user="NKA">
		<tag k="name" v="Lyftingsbakken" />
		<tag k="place" v="farm" />
		<tag k="ssr:stedsnr" v="960639" />
	</node>
	<node id="9627062343" lat="62.2143166" lon="8.2299333" version="1" timestamp="2022-03-31T17:11:14Z" changeset="119170451" uid="3497659" user="NKA">
		<tag k="historic" v="shieling" />
		<tag k="name" v="Einbusætre" />
		<tag k="place" v="isolated_dwelling" />
		<tag k="ssr:stedsnr" v="657170" />
	</node>
	<node id="9627062344" lat="62.091875" lon="8.7429444" version="1" timestamp="2022-03-31T17:11:14Z" changeset="119170451" uid="3497659" user="NKA">
		<tag k="historic" v="shieling" />
		<tag k="loc_name" v="Lyftingmosætre" />
		<tag k="name" v="Lyftingmosætri" />
		<tag k="place" v="isolated_dwelling" />
		<tag k="ssr:stedsnr" v="132622" />
	</node>
	<node id="9627062345" lat="62.1164389" lon="8.8684251" version="1" timestamp="2022-03-31T17:11:14Z" changeset="119170451" uid="3497659" user="NKA">
		<tag k="name" v="Tande" />
		<tag k="place" v="farm" />
		<tag k="ssr:stedsnr" v="375878" />
	</node>
	<node id="9627062346" lat="62.1188972" lon="8.7981861" version="1" timestamp="2022-03-31T17:11:14Z" changeset="119170451" uid="3497659" user="NKA">
		<tag k="name" v="Grindstugu" />
		<tag k="place" v="farm" />
		<tag k="ssr:stedsnr" v="111686" />
	</node>
	<node id="9627062347" lat="62.1934333" lon="8.5584001" version="1" timestamp="2022-03-31T17:11:14Z" changeset="119170451" uid="3497659" user="NKA">
		<tag k="name" v="Åkerlykkja" />
		<tag k="place" v="farm" />
		<tag k="ssr:stedsnr" v="192863" />
	</node>
	<node id="9627062348" lat="62.1278268" lon="8.7152023" version="1" timestamp="2022-03-31T17:11:14Z" changeset="119170451" uid="3497659" user="NKA">
		<tag k="name" v="Norderhus" />
		<tag k="place" v="farm" />
		<tag k="ssr:stedsnr" v="678741" />
	</node>
	<node id="9627062349" lat="62.2659639" lon="8.22175" version="1" timestamp="2022-03-31T17:11:14Z" changeset="119170451" uid="3497659" user="NKA">
		<tag k="alt_name" v="Bjorlisletten" />
		<tag k="name" v="Bjorlisletti" />
		<tag k="place" v="farm" />
		<tag k="ssr:stedsnr" v="133264" />
	</node>
	<node id="9627062350" lat="62.1222639" lon="8.7855638" version="1" timestamp="2022-03-31T17:11:14Z" changeset="119170451" uid="3497659" user="NKA">
		<tag k="name" v="Frekgarden" />
		<tag k="place" v="farm" />
		<tag k="ssr:stedsnr" v="474669" />
	</node>
	<node id="9627062351" lat="62.093211" lon="9.0434346" version="1" timestamp="2022-03-31T17:11:14Z" changeset="119170451" uid="3497659" user="NKA">
		<tag k="alt_name" v="Nørstebø" />
		<tag k="loc_name" v="Nørdstebø" />
		<tag k="name" v="Nørdstbø" />
		<tag k="place" v="hamlet" />
		<tag k="ssr:stedsnr" v="420396" />
	</node>
	<node id="9627062352" lat="62.2352667" lon="8.3295472" version="1" timestamp="2022-03-31T17:11:14Z" changeset="119170451" uid="3497659" user="NKA">
		<tag k="name" v="Branna" />
		<tag k="place" v="locality" />
		<tag k="ssr:stedsnr" v="839089" />
	</node>
	<node id="9627062353" lat="62.1223056" lon="9.0757138" version="1" timestamp="2022-03-31T17:11:14Z" changeset="119170451" uid="3497659" user="NKA">
		<tag k="historic" v="shieling" />
		<tag k="name" v="Tunga" />
		<tag k="place" v="isolated_dwelling" />
		<tag k="ssr:stedsnr" v="496871" />
	</node>
	<node id="9627062354" lat="62.0939799" lon="9.0500619" version="1" timestamp="2022-03-31T17:11:14Z" changeset="119170451" uid="3497659" user="NKA">
		<tag k="name" v="Kjøremsgrende" />
		<tag k="place" v="quarter" />
		<tag k="ssr:stedsnr" v="738602" />
	</node>
	<node id="9627062355" lat="62.2130723" lon="8.4865918" version="1" timestamp="2022-03-31T17:11:14Z" changeset="119170451" uid="3497659" user="NKA">
		<tag k="name" v="Øverjordet" />
		<tag k="place" v="locality" />
		<tag k="ssr:stedsnr" v="779450" />
	</node>
	<node id="9627062356" lat="62.2106278" lon="8.4150944" version="1" timestamp="2022-03-31T17:11:14Z" changeset="119170451" uid="3497659" user="NKA">
		<tag k="alt_name" v="Prestsætre" />
		<tag k="historic" v="shieling" />
		<tag k="name" v="Prestsætri" />
		<tag k="place" v="isolated_dwelling" />
		<tag k="ssr:stedsnr" v="314819" />
	</node>
	<node id="9627062357" lat="62.2006694" lon="8.6388" version="1" timestamp="2022-03-31T17:11:14Z" changeset="119170451" uid="3497659" user="NKA">
		<tag k="alt_name" v="Vangsætran" />
		<tag k="name" v="Vangsætri" />
		<tag k="place" v="isolated_dwelling" />
		<tag k="ssr:stedsnr" v="253848" />
	</node>
	<node id="9627062358" lat="62.1244602" lon="8.8150754" version="1" timestamp="2022-03-31T17:11:14Z" changeset="119170451" uid="3497659" user="NKA">
		<tag k="name" v="Øverlia" />
		<tag k="place" v="farm" />
		<tag k="ssr:stedsnr" v="906363" />
	</node>
	<node id="9627062359" lat="62.1512861" lon="8.6832945" version="1" timestamp="2022-03-31T17:11:14Z" changeset="119170451" uid="3497659" user="NKA">
		<tag k="name" v="Steinbakken" />
		<tag k="place" v="farm" />
		<tag k="ssr:stedsnr" v="617817" />
	</node>
	<node id="9627062360" lat="62.236725" lon="8.2040028" version="1" timestamp="2022-03-31T17:11:14Z" changeset="119170451" uid="3497659" user="NKA">
		<tag k="name" v="Brekkeli" />
		<tag k="place" v="farm" />
		<tag k="ssr:stedsnr" v="353199" />
	</node>
	<node id="9627062361" lat="62.2145083" lon="8.4582083" version="1" timestamp="2022-03-31T17:11:14Z" changeset="119170451" uid="3497659" user="NKA">
		<tag k="name" v="Flaten" />
		<tag k="place" v="farm" />
		<tag k="ssr:stedsnr" v="840434" />
	</node>
	<node id="9627062362" lat="62.2356604" lon="8.397326" version="1" timestamp="2022-03-31T17:11:14Z" changeset="119170451" uid="3497659" user="NKA">
		<tag k="name" v="Skotte" />
		<tag k="place" v="farm" />
		<tag k="ssr:stedsnr" v="984026" />
	</node>
	<node id="9627062363" lat="62.1742917" lon="8.642864" version="1" timestamp="2022-03-31T17:11:14Z" changeset="119170451" uid="3497659" user="NKA">
		<tag k="name" v="Søre Åvangen" />
		<tag k="place" v="farm" />
		<tag k="ssr:stedsnr" v="901692" />
	</node>
	<node id="9627062364" lat="62.0820916" lon="9.0529472" version="1" timestamp="2022-03-31T17:11:14Z" changeset="119170451" uid="3497659" user="NKA">
		<tag k="name" v="Strandheim" />
		<tag k="place" v="farm" />
		<tag k="ssr:stedsnr" v="799610" />
	</node>
	<node id="9627062365" lat="62.097625" lon="8.939525" version="1" timestamp="2022-03-31T17:11:14Z" changeset="119170451" uid="3497659" user="NKA">
		<tag k="name" v="Bølund" />
		<tag k="place" v="farm" />
		<tag k="ssr:stedsnr" v="193621" />
	</node>
	<node id="9627062366" lat="62.2382486" lon="8.409051" version="1" timestamp="2022-03-31T17:11:14Z" changeset="119170451" uid="3497659" user="NKA">
		<tag k="name" v="Sæter" />
		<tag k="place" v="farm" />
		<tag k="ssr:stedsnr" v="253877" />
	</node>
	<node id="9627062367" lat="62.1164221" lon="8.7540829" version="1" timestamp="2022-03-31T17:11:14Z" changeset="119170451" uid="3497659" user="NKA">
		<tag k="name" v="Nedre Lyftingmo" />
		<tag k="place" v="farm" />
		<tag k="ssr:stedsnr" v="899665" />
	</node>
	<node id="9627062368" lat="62.1182333" lon="8.77255" version="1" timestamp="2022-03-31T17:11:14Z" changeset="119170451" uid="3497659" user="NKA">
		<tag k="name" v="Brenna" />
		<tag k="place" v="farm" />
		<tag k="ssr:stedsnr" v="556882" />
	</node>
	<node id="9627062369" lat="62.043775" lon="8.3022888" version="1" timestamp="2022-03-31T17:11:14Z" changeset="119170451" uid="3497659" user="NKA">
		<tag k="name" v="Firskissun" />
		<tag k="place" v="locality" />
		<tag k="ssr:stedsnr" v="617972" />
	</node>
	<node id="9627062370" lat="62.1058278" lon="8.9187028" version="1" timestamp="2022-03-31T17:11:14Z" changeset="119170451" uid="3497659" user="NKA">
		<tag k="name" v="Svanborg" />
		<tag k="place" v="farm" />
		<tag k="ssr:stedsnr" v="617901" />
	</node>
	<node id="9627062371" lat="62.1001435" lon="8.9968716" version="1" timestamp="2022-03-31T17:11:14Z" changeset="119170451" uid="3497659" user="NKA">
		<tag k="alt_name" v="Bottem" />
		<tag k="name" v="Bottheim" />
		<tag k="place" v="hamlet" />
		<tag k="ssr:stedsnr" v="921640" />
	</node>
	<node id="9627062372" lat="62.151956" lon="8.6781519" version="1" timestamp="2022-03-31T17:11:14Z" changeset="119170451" uid="3497659" user="NKA">
		<tag k="name" v="Stavem" />
		<tag k="place" v="hamlet" />
		<tag k="ssr:stedsnr" v="984036" />
	</node>
	<node id="9627062373" lat="62.1447752" lon="8.6844272" version="1" timestamp="2022-03-31T17:11:14Z" changeset="119170451" uid="3497659" user="NKA">
		<tag k="loc_name" v="Hågån" />
		<tag k="name" v="Hagen" />
		<tag k="place" v="farm" />
		<tag k="ssr:stedsnr" v="984037" />
	</node>
	<node id="9627062374" lat="62.115025" lon="8.8505944" version="1" timestamp="2022-03-31T17:11:14Z" changeset="119170451" uid="3497659" user="NKA">
		<tag k="name" v="Uppistugu Hågå" />
		<tag k="place" v="farm" />
		<tag k="ssr:stedsnr" v="657707" />
	</node>
	<node id="9627062375" lat="62.1235167" lon="8.8276108" version="1" timestamp="2022-03-31T17:11:14Z" changeset="119170451" uid="3497659" user="NKA">
		<tag k="name" v="Steine" />
		<tag k="place" v="farm" />
		<tag k="ssr:stedsnr" v="496937" />
	</node>
	<node id="9627062376" lat="62.0901388" lon="9.0996638" version="1" timestamp="2022-03-31T17:11:14Z" changeset="119170451" uid="3497659" user="NKA">
		<tag k="alt_name" v="Dompen" />
		<tag k="loc_name" v="Dumpe" />
		<tag k="name" v="Dompi" />
		<tag k="place" v="farm" />
		<tag k="ssr:stedsnr" v="131595" />
	</node>
	<node id="9627062377" lat="62.2648722" lon="8.2101084" version="1" timestamp="2022-03-31T17:11:14Z" changeset="119170451" uid="3497659" user="NKA">
		<tag k="name" v="Løkjebakken" />
		<tag k="place" v="isolated_dwelling" />
		<tag k="ssr:stedsnr" v="839120" />
	</node>
	<node id="9627062378" lat="62.2069278" lon="8.4832472" version="1" timestamp="2022-03-31T17:11:14Z" changeset="119170451" uid="3497659" user="NKA">
		<tag k="name" v="Kveldro" />
		<tag k="place" v="farm" />
		<tag k="ssr:stedsnr" v="961457" />
	</node>
	<node id="9627062379" lat="62.2408667" lon="8.2011501" version="1" timestamp="2022-03-31T17:11:14Z" changeset="119170451" uid="3497659" user="NKA">
		<tag k="name" v="Furuheim" />
		<tag k="place" v="farm" />
		<tag k="ssr:stedsnr" v="717160" />
	</node>
	<node id="9627062380" lat="62.2108712" lon="8.4865359" version="1" timestamp="2022-03-31T17:11:14Z" changeset="119170451" uid="3497659" user="NKA">
		<tag k="alt_name" v="Løkken" />
		<tag k="name" v="Lykkja" />
		<tag k="place" v="farm" />
		<tag k="ssr:stedsnr" v="678809" />
	</node>
	<node id="9627062381" lat="62.1225592" lon="8.7631083" version="1" timestamp="2022-03-31T17:11:14Z" changeset="119170451" uid="3497659" user="NKA">
		<tag k="alt_name" v="Lyftingmo" />
		<tag k="name" v="Øvre Lyftingmo" />
		<tag k="place" v="farm" />
		<tag k="ssr:stedsnr" v="556931" />
	</node>
	<node id="9627062382" lat="62.1476111" lon="8.6859612" version="1" timestamp="2022-03-31T17:11:14Z" changeset="119170451" uid="3497659" user="NKA">
		<tag k="alt_name" v="Lillejordet" />
		<tag k="name" v="Vesljordet" />
		<tag k="old_name" v="Vesljardet" />
		<tag k="place" v="farm" />
		<tag k="ssr:stedsnr" v="353541" />
	</node>
	<node id="9627062383" lat="62.1225566" lon="8.7940586" version="1" timestamp="2022-03-31T17:11:14Z" changeset="119170451" uid="3497659" user="NKA">
		<tag k="alt_name" v="Avdem Nordigard" />
		<tag k="name" v="Avdem" />
		<tag k="place" v="farm" />
		<tag k="ssr:stedsnr" v="496932" />
	</node>
	<node id="9627062384" lat="62.2276834" lon="8.4493945" version="1" timestamp="2022-03-31T17:11:14Z" changeset="119170451" uid="3497659" user="NKA">
		<tag k="alt_name" v="Gruvlisætre" />
		<tag k="historic" v="shieling" />
		<tag k="name" v="Gruvlisætri" />
		<tag k="place" v="isolated_dwelling" />
		<tag k="ssr:stedsnr" v="314839" />
	</node>
	<node id="9627062385" lat="62.1790391" lon="8.6340671" version="1" timestamp="2022-03-31T17:11:14Z" changeset="119170451" uid="3497659" user="NKA">
		<tag k="name" v="Mosenden" />
		<tag k="place" v="farm" />
		<tag k="ssr:stedsnr" v="860816" />
	</node>
	<node id="9627062386" lat="62.1975984" lon="8.3150761" version="1" timestamp="2022-03-31T17:11:14Z" changeset="119170451" uid="3497659" user="NKA">
		<tag k="alt_name" v="Enstadsætre" />
		<tag k="historic" v="shieling" />
		<tag k="name" v="Enstadsætri" />
		<tag k="place" v="isolated_dwelling" />
		<tag k="ssr:stedsnr" v="435864" />
	</node>
	<node id="9627062387" lat="62.112375" lon="8.9710167" version="1" timestamp="2022-03-31T17:11:14Z" changeset="119170451" uid="3497659" user="NKA">
		<tag k="name" v="Nyborg" />
		<tag k="place" v="isolated_dwelling" />
		<tag k="ssr:stedsnr" v="50993" />
	</node>
	<node id="9627062388" lat="62.2163518" lon="8.4728166" version="1" timestamp="2022-03-31T17:11:14Z" changeset="119170451" uid="3497659" user="NKA">
		<tag k="name" v="Sandgro" />
		<tag k="place" v="farm" />
		<tag k="ssr:stedsnr" v="779449" />
	</node>
	<node id="9627062390" lat="62.1779555" lon="8.5195945" version="1" timestamp="2022-03-31T17:11:14Z" changeset="119170451" uid="3497659" user="NKA">
		<tag k="historic" v="shieling" />
		<tag k="name" v="Heggestølen" />
		<tag k="place" v="isolated_dwelling" />
		<tag k="ssr:stedsnr" v="131826" />
	</node>
	<node id="9627062391" lat="62.1213417" lon="8.8351416" version="1" timestamp="2022-03-31T17:11:14Z" changeset="119170451" uid="3497659" user="NKA">
		<tag k="name" v="Reitan" />
		<tag k="place" v="locality" />
		<tag k="ssr:stedsnr" v="293737" />
	</node>
	<node id="9627062392" lat="62.0968156" lon="8.965531" version="1" timestamp="2022-03-31T17:11:14Z" changeset="119170451" uid="3497659" user="NKA">
		<tag k="name" v="Bøloghaugen" />
		<tag k="place" v="locality" />
		<tag k="ssr:stedsnr" v="132633" />
	</node>
	<node id="9627062393" lat="62.1845639" lon="8.284639" version="1" timestamp="2022-03-31T17:11:14Z" changeset="119170451" uid="3497659" user="NKA">
		<tag k="name" v="Ørnskjellen" />
		<tag k="place" v="locality" />
		<tag k="ssr:stedsnr" v="799853" />
	</node>
	<node id="9627062394" lat="62.0802389" lon="8.9196751" version="1" timestamp="2022-03-31T17:11:14Z" changeset="119170451" uid="3497659" user="NKA">
		<tag k="alt_name" v="Bøsætre" />
		<tag k="historic" v="shieling" />
		<tag k="loc_name" v="Beiasætre" />
		<tag k="name" v="Bøsætri" />
		<tag k="place" v="hamlet" />
		<tag k="ssr:stedsnr" v="678591" />
	</node>
	<node id="9627062395" lat="62.2366" lon="8.3472973" version="1" timestamp="2022-03-31T17:11:14Z" changeset="119170451" uid="3497659" user="NKA">
		<tag k="name" v="Nylykkja" />
		<tag k="place" v="isolated_dwelling" />
		<tag k="ssr:stedsnr" v="232082" />
	</node>
	<node id="9627062396" lat="62.1129496" lon="8.8620747" version="1" timestamp="2022-03-31T17:11:14Z" changeset="119170451" uid="3497659" user="NKA">
		<tag k="alt_name" v="Nestande" />
		<tag k="name" v="Nesttande" />
		<tag k="place" v="farm" />
		<tag k="ssr:stedsnr" v="556889" />
	</node>
	<node id="9627062397" lat="62.0922361" lon="9.0364612" version="1" timestamp="2022-03-31T17:11:14Z" changeset="119170451" uid="3497659" user="NKA">
		<tag k="name" v="Søre Rolstad" />
		<tag k="place" v="farm" />
		<tag k="ssr:stedsnr" v="420900" />
	</node>
	<node id="9627062398" lat="62.1299583" lon="8.7147306" version="1" timestamp="2022-03-31T17:11:14Z" changeset="119170451" uid="3497659" user="NKA">
		<tag k="name" v="Nyhus" />
		<tag k="place" v="farm" />
		<tag k="ssr:stedsnr" v="435763" />
	</node>
	<node id="9627062399" lat="62.1200645" lon="8.7545734" version="1" timestamp="2022-03-31T17:11:14Z" changeset="119170451" uid="3497659" user="NKA">
		<tag k="name" v="Heraslette" />
		<tag k="place" v="locality" />
		<tag k="ssr:stedsnr" v="984039" />
	</node>
	<node id="9627062400" lat="62.1136877" lon="8.8383092" version="1" timestamp="2022-03-31T17:11:14Z" changeset="119170451" uid="3497659" user="NKA">
		<tag k="alt_name" v="Kolstad, vetle" />
		<tag k="name" v="Vetle Kolstad" />
		<tag k="place" v="farm" />
		<tag k="ssr:stedsnr" v="71900" />
	</node>
	<node id="9627062401" lat="62.1750101" lon="8.6403692" version="1" timestamp="2022-03-31T17:11:14Z" changeset="119170451" uid="3497659" user="NKA">
		<tag k="name" v="Åvangen" />
		<tag k="place" v="hamlet" />
		<tag k="ssr:stedsnr" v="984032" />
	</node>
	<node id="9627062402" lat="62.1903676" lon="8.5650453" version="1" timestamp="2022-03-31T17:11:14Z" changeset="119170451" uid="3497659" user="NKA">
		<tag k="alt_name" v="Morken" />
		<tag k="name" v="Morki" />
		<tag k="place" v="farm" />
		<tag k="ssr:stedsnr" v="192819" />
	</node>
	<node id="9627062403" lat="62.1480806" lon="8.6392666" version="1" timestamp="2022-03-31T17:11:14Z" changeset="119170451" uid="3497659" user="NKA">
		<tag k="loc_name" v="Vitlsætre" />
		<tag k="name" v="Vitlsæteren" />
		<tag k="place" v="locality" />
		<tag k="ssr:stedsnr" v="353552" />
	</node>
	<node id="9627062404" lat="62.1420111" lon="8.9560722" version="1" timestamp="2022-03-31T17:11:14Z" changeset="119170451" uid="3497659" user="NKA">
		<tag k="historic" v="shieling" />
		<tag k="name" v="Mariussætre" />
		<tag k="place" v="isolated_dwelling" />
		<tag k="ssr:stedsnr" v="900927" />
	</node>
	<node id="9627062405" lat="62.2349656" lon="8.4290027" version="1" timestamp="2022-03-31T17:11:14Z" changeset="119170451" uid="3497659" user="NKA">
		<tag k="alt_name" v="Brandli" />
		<tag k="name" v="Brandlii" />
		<tag k="place" v="farm" />
		<tag k="ssr:stedsnr" v="375829" />
	</node>
	<node id="9627062406" lat="62.2321973" lon="8.2949362" version="1" timestamp="2022-03-31T17:11:14Z" changeset="119170451" uid="3497659" user="NKA">
		<tag k="alt_name" v="Bergan" />
		<tag k="name" v="Bergene" />
		<tag k="place" v="isolated_dwelling" />
		<tag k="ssr:stedsnr" v="11864" />
	</node>
	<node id="9627062407" lat="62.1666601" lon="8.6724984" version="1" timestamp="2022-03-31T17:11:14Z" changeset="119170451" uid="3497659" user="NKA">
		<tag k="name" v="Skrøya" />
		<tag k="place" v="farm" />
		<tag k="ssr:stedsnr" v="132779" />
	</node>
	<node id="9627062408" lat="62.1213472" lon="8.8680805" version="1" timestamp="2022-03-31T17:11:14Z" changeset="119170451" uid="3497659" user="NKA">
		<tag k="name" v="Aurtande" />
		<tag k="place" v="farm" />
		<tag k="ssr:stedsnr" v="900526" />
	</node>
	<node id="9627062409" lat="62.1634527" lon="8.6482778" version="1" timestamp="2022-03-31T17:11:14Z" changeset="119170451" uid="3497659" user="NKA">
		<tag k="name" v="Søre Leirmo" />
		<tag k="place" v="farm" />
		<tag k="ssr:stedsnr" v="901678" />
	</node>
	<node id="9627062410" lat="62.0914167" lon="9.0646639" version="1" timestamp="2022-03-31T17:11:14Z" changeset="119170451" uid="3497659" user="NKA">
		<tag k="name" v="Synstbøbakken" />
		<tag k="place" v="locality" />
		<tag k="ssr:stedsnr" v="171795" />
	</node>
	<node id="9627062411" lat="62.16735" lon="8.3116361" version="1" timestamp="2022-03-31T17:11:14Z" changeset="119170451" uid="3497659" user="NKA">
		<tag k="name" v="Knutstugu" />
		<tag k="old_name" v="Knutstugo" />
		<tag k="place" v="isolated_dwelling" />
		<tag k="ssr:stedsnr" v="799813" />
	</node>
	<node id="9627062412" lat="62.0934361" lon="8.9743667" version="1" timestamp="2022-03-31T17:11:14Z" changeset="119170451" uid="3497659" user="NKA">
		<tag k="name" v="Holten" />
		<tag k="place" v="farm" />
		<tag k="ssr:stedsnr" v="800609" />
	</node>
	<node id="9627062413" lat="62.2058138" lon="8.4961386" version="1" timestamp="2022-03-31T17:11:14Z" changeset="119170451" uid="3497659" user="NKA">
		<tag k="name" v="Knipa" />
		<tag k="place" v="hamlet" />
		<tag k="ssr:stedsnr" v="984030" />
	</node>
	<node id="9627062414" lat="62.2328361" lon="8.4096917" version="1" timestamp="2022-03-31T17:11:14Z" changeset="119170451" uid="3497659" user="NKA">
		<tag k="name" v="Rud" />
		<tag k="place" v="farm" />
		<tag k="ssr:stedsnr" v="72824" />
	</node>
	<node id="9627062415" lat="62.0846139" lon="9.0333333" version="1" timestamp="2022-03-31T17:11:14Z" changeset="119170451" uid="3497659" user="NKA">
		<tag k="name" v="Brustugu" />
		<tag k="place" v="farm" />
		<tag k="ssr:stedsnr" v="921624" />
	</node>
	<node id="9627062416" lat="62.1310667" lon="8.7050612" version="1" timestamp="2022-03-31T17:11:14Z" changeset="119170451" uid="3497659" user="NKA">
		<tag k="name" v="Utheim" />
		<tag k="place" v="isolated_dwelling" />
		<tag k="ssr:stedsnr" v="414416" />
	</node>
	<node id="9627062417" lat="62.1197911" lon="8.9192692" version="1" timestamp="2022-03-31T17:11:14Z" changeset="119170451" uid="3497659" user="NKA">
		<tag k="name" v="Sillibakken" />
		<tag k="place" v="farm" />
		<tag k="ssr:stedsnr" v="900961" />
	</node>
	<node id="9627062418" lat="62.1064472" lon="8.9115889" version="1" timestamp="2022-03-31T17:11:14Z" changeset="119170451" uid="3497659" user="NKA">
		<tag k="name" v="Søre Åsveen" />
		<tag k="place" v="farm" />
		<tag k="ssr:stedsnr" v="111985" />
	</node>
	<node id="9627062419" lat="62.1564634" lon="8.6695472" version="1" timestamp="2022-03-31T17:11:14Z" changeset="119170451" uid="3497659" user="NKA">
		<tag k="name" v="Kjellshus" />
		<tag k="place" v="farm" />
		<tag k="ssr:stedsnr" v="984035" />
	</node>
	<node id="9627062420" lat="62.0931343" lon="9.0782067" version="1" timestamp="2022-03-31T17:11:14Z" changeset="119170451" uid="3497659" user="NKA">
		<tag k="name" v="Brenna" />
		<tag k="place" v="locality" />
		<tag k="ssr:stedsnr" v="976234" />
	</node>
	<node id="9627062421" lat="62.2033889" lon="8.4920751" version="1" timestamp="2022-03-31T17:11:14Z" changeset="119170451" uid="3497659" user="NKA">
		<tag k="name" v="Bjørke" />
		<tag k="place" v="farm" />
		<tag k="ssr:stedsnr" v="921827" />
	</node>
	<node id="9627062422" lat="62.1565333" lon="8.6708944" version="1" timestamp="2022-03-31T17:11:14Z" changeset="119170451" uid="3497659" user="NKA">
		<tag k="name" v="Søre Kjelshus" />
		<tag k="place" v="farm" />
		<tag k="ssr:stedsnr" v="232485" />
	</node>
	<node id="9627062423" lat="62.0883811" lon="9.0900476" version="1" timestamp="2022-03-31T17:11:14Z" changeset="119170451" uid="3497659" user="NKA">
		<tag k="name" v="Lidal" />
		<tag k="place" v="farm" />
		<tag k="ssr:stedsnr" v="414768" />
	</node>
	<node id="9627062424" lat="62.1055167" lon="8.8142444" version="1" timestamp="2022-03-31T17:11:14Z" changeset="119170451" uid="3497659" user="NKA">
		<tag k="name" v="Belleøygården" />
		<tag k="place" v="locality" />
		<tag k="ssr:stedsnr" v="717644" />
	</node>
	<node id="9627062425" lat="62.1223353" lon="8.8176093" version="1" timestamp="2022-03-31T17:11:14Z" changeset="119170451" uid="3497659" user="NKA">
		<tag k="name" v="Sørli" />
		<tag k="place" v="farm" />
		<tag k="ssr:stedsnr" v="293739" />
	</node>
	<node id="9627062426" lat="62.1723694" lon="8.6505028" version="1" timestamp="2022-03-31T17:11:14Z" changeset="119170451" uid="3497659" user="NKA">
		<tag k="name" v="Vangen" />
		<tag k="place" v="farm" />
		<tag k="ssr:stedsnr" v="132775" />
	</node>
	<node id="9627062427" lat="62.217244" lon="8.4427659" version="1" timestamp="2022-03-31T17:11:14Z" changeset="119170451" uid="3497659" user="NKA">
		<tag k="alt_name" v="Bryggen" />
		<tag k="name" v="Bryggja" />
		<tag k="place" v="farm" />
		<tag k="ssr:stedsnr" v="557849" />
	</node>
	<node id="9627062428" lat="62.0908222" lon="9.0782583" version="1" timestamp="2022-03-31T17:11:14Z" changeset="119170451" uid="3497659" user="NKA">
		<tag k="name" v="Simensrud" />
		<tag k="place" v="farm" />
		<tag k="ssr:stedsnr" v="110799" />
	</node>
	<node id="9627062429" lat="62.2171254" lon="8.4509323" version="1" timestamp="2022-03-31T17:11:14Z" changeset="119170451" uid="3497659" user="NKA">
		<tag k="name" v="Bergly" />
		<tag k="place" v="farm" />
		<tag k="ssr:stedsnr" v="961448" />
	</node>
	<node id="9627062430" lat="62.2401166" lon="8.1904973" version="1" timestamp="2022-03-31T17:11:14Z" changeset="119170451" uid="3497659" user="NKA">
		<tag k="name" v="Søristun" />
		<tag k="place" v="farm" />
		<tag k="ssr:stedsnr" v="717154" />
	</node>
	<node id="9627062431" lat="62.2402833" lon="8.7645055" version="1" timestamp="2022-03-31T17:11:14Z" changeset="119170451" uid="3497659" user="NKA">
		<tag k="historic" v="shieling" />
		<tag k="name" v="Kvita" />
		<tag k="place" v="hamlet" />
		<tag k="ssr:stedsnr" v="314972" />
	</node>
	<node id="9627062432" lat="62.0981222" lon="8.9346499" version="1" timestamp="2022-03-31T17:11:14Z" changeset="119170451" uid="3497659" user="NKA">
		<tag k="name" v="Ivashaug" />
		<tag k="place" v="farm" />
		<tag k="ssr:stedsnr" v="657965" />
	</node>
	<node id="9627062433" lat="62.0682472" lon="9.03515" version="1" timestamp="2022-03-31T17:11:14Z" changeset="119170451" uid="3497659" user="NKA">
		<tag k="name" v="Millislette" />
		<tag k="place" v="locality" />
		<tag k="ssr:stedsnr" v="839754" />
	</node>
	<node id="9627062434" lat="62.1202997" lon="8.8948387" version="1" timestamp="2022-03-31T17:11:14Z" changeset="119170451" uid="3497659" user="NKA">
		<tag k="name" v="Gongstad" />
		<tag k="place" v="locality" />
		<tag k="ssr:stedsnr" v="353955" />
	</node>
	<node id="9627062435" lat="62.1578676" lon="8.6661626" version="1" timestamp="2022-03-31T17:11:14Z" changeset="119170451" uid="3497659" user="NKA">
		<tag k="alt_name" v="Molterud" />
		<tag k="name" v="Motterud" />
		<tag k="place" v="farm" />
		<tag k="ssr:stedsnr" v="860833" />
	</node>
	<node id="9627062436" lat="62.1223571" lon="8.7369258" version="1" timestamp="2022-03-31T17:11:14Z" changeset="119170451" uid="3497659" user="NKA">
		<tag k="name" v="Rudi" />
		<tag k="place" v="farm" />
		<tag k="ssr:stedsnr" v="110402" />
	</node>
	<node id="9627062437" lat="62.1952362" lon="8.4763937" version="1" timestamp="2022-03-31T17:11:14Z" changeset="119170451" uid="3497659" user="NKA">
		<tag k="name" v="Søre Tandsætre" />
		<tag k="place" v="farm" />
		<tag k="ssr:stedsnr" v="596424" />
	</node>
	<node id="9627062438" lat="62.1263243" lon="8.7227738" version="1" timestamp="2022-03-31T17:11:14Z" changeset="119170451" uid="3497659" user="NKA">
		<tag k="name" v="Nørstegård" />
		<tag k="place" v="farm" />
		<tag k="ssr:stedsnr" v="414391" />
	</node>
	<node id="9627062439" lat="62.2250472" lon="8.4185668" version="1" timestamp="2022-03-31T17:11:14Z" changeset="119170451" uid="3497659" user="NKA">
		<tag k="name" v="Høgholen" />
		<tag k="place" v="isolated_dwelling" />
		<tag k="ssr:stedsnr" v="779485" />
	</node>
	<node id="9627062440" lat="62.1154307" lon="8.9348598" version="1" timestamp="2022-03-31T17:11:14Z" changeset="119170451" uid="3497659" user="NKA">
		<tag k="name" v="Kårbø" />
		<tag k="place" v="farm" />
		<tag k="ssr:stedsnr" v="617889" />
	</node>
	<node id="9627062441" lat="62.2350491" lon="8.411669" version="1" timestamp="2022-03-31T17:11:14Z" changeset="119170451" uid="3497659" user="NKA">
		<tag k="name" v="Bjølverud" />
		<tag k="place" v="hamlet" />
		<tag k="ssr:stedsnr" v="375828" />
	</node>
	<node id="9627062442" lat="62.1176491" lon="8.8126434" version="1" timestamp="2022-03-31T17:11:14Z" changeset="119170451" uid="3497659" user="NKA">
		<tag k="alt_name" v="Nedre Siem" />
		<tag k="name" v="Siem" />
		<tag k="place" v="farm" />
		<tag k="ssr:stedsnr" v="132877" />
	</node>
	<node id="9627062443" lat="62.2409722" lon="8.3305167" version="1" timestamp="2022-03-31T17:11:14Z" changeset="119170451" uid="3497659" user="NKA">
		<tag k="name" v="Søre Lien" />
		<tag k="place" v="farm" />
		<tag k="ssr:stedsnr" v="414099" />
	</node>
	<node id="9627062444" lat="62.1153666" lon="8.8457639" version="1" timestamp="2022-03-31T17:11:14Z" changeset="119170451" uid="3497659" user="NKA">
		<tag k="name" v="Nordre Hågå" />
		<tag k="place" v="farm" />
		<tag k="ssr:stedsnr" v="739871" />
	</node>
	<node id="9627062445" lat="62.2398083" lon="8.2368027" version="1" timestamp="2022-03-31T17:11:14Z" changeset="119170451" uid="3497659" user="NKA">
		<tag k="name" v="Løskam" />
		<tag k="place" v="farm" />
		<tag k="ssr:stedsnr" v="171147" />
	</node>
	<node id="9627062446" lat="62.1117377" lon="8.9556329" version="1" timestamp="2022-03-31T17:11:14Z" changeset="119170451" uid="3497659" user="NKA">
		<tag k="name" v="Hovauk" />
		<tag k="place" v="farm" />
		<tag k="ssr:stedsnr" v="556896" />
	</node>
	<node id="9627062447" lat="62.0929163" lon="9.0340962" version="1" timestamp="2022-03-31T17:11:14Z" changeset="119170451" uid="3497659" user="NKA">
		<tag k="alt_name" v="Rollstad" />
		<tag k="name" v="Rolstad" />
		<tag k="place" v="hamlet" />
		<tag k="ssr:stedsnr" v="481608" />
	</node>
	<node id="9627062448" lat="62.0898231" lon="8.5014251" version="1" timestamp="2022-03-31T17:11:14Z" changeset="119170451" uid="3497659" user="NKA">
		<tag k="alt_name" v="Bjøknesætre" />
		<tag k="historic" v="shieling" />
		<tag k="loc_name" v="Bjørknesætre" />
		<tag k="name" v="Bjøknesætri" />
		<tag k="place" v="hamlet" />
		<tag k="ssr:stedsnr" v="132768" />
	</node>
	<node id="9627062449" lat="62.1889916" lon="8.5740444" version="1" timestamp="2022-03-31T17:11:14Z" changeset="119170451" uid="3497659" user="NKA">
		<tag k="name" v="Søre Morken" />
		<tag k="place" v="farm" />
		<tag k="ssr:stedsnr" v="839511" />
	</node>
	<node id="9627062450" lat="62.119136" lon="8.7447034" version="1" timestamp="2022-03-31T17:11:14Z" changeset="119170451" uid="3497659" user="NKA">
		<tag k="alt_name" v="Breidgutu" />
		<tag k="name" v="Breigutu" />
		<tag k="place" v="farm" />
		<tag k="ssr:stedsnr" v="71898" />
	</node>
	<node id="9627062451" lat="62.1226445" lon="8.778" version="1" timestamp="2022-03-31T17:11:14Z" changeset="119170451" uid="3497659" user="NKA">
		<tag k="name" v="Løvset" />
		<tag k="place" v="isolated_dwelling" />
		<tag k="ssr:stedsnr" v="656677" />
	</node>
	<node id="9627062452" lat="62.1181497" lon="8.8376941" version="1" timestamp="2022-03-31T17:11:14Z" changeset="119170451" uid="3497659" user="NKA">
		<tag k="alt_name" v="Kolstad store;Storkolstad" />
		<tag k="name" v="Store Kolstad" />
		<tag k="place" v="farm" />
		<tag k="ssr:stedsnr" v="314860" />
	</node>
	<node id="9627062453" lat="62.1976998" lon="8.5274512" version="1" timestamp="2022-03-31T17:11:14Z" changeset="119170451" uid="3497659" user="NKA">
		<tag k="name" v="Steinbakken" />
		<tag k="place" v="farm" />
		<tag k="ssr:stedsnr" v="656330" />
	</node>
	<node id="9627062454" lat="62.051525" lon="8.3408388" version="1" timestamp="2022-03-31T17:11:14Z" changeset="119170451" uid="3497659" user="NKA">
		<tag k="name" v="Saustad" />
		<tag k="place" v="isolated_dwelling" />
		<tag k="ssr:stedsnr" v="496968" />
	</node>
	<node id="9627062455" lat="62.2700445" lon="8.2060722" version="1" timestamp="2022-03-31T17:11:14Z" changeset="119170451" uid="3497659" user="NKA">
		<tag k="name" v="Nepåhaugen" />
		<tag k="place" v="farm" />
		<tag k="ssr:stedsnr" v="253156" />
	</node>
	<node id="9627062456" lat="62.1643805" lon="8.6456972" version="1" timestamp="2022-03-31T17:11:14Z" changeset="119170451" uid="3497659" user="NKA">
		<tag k="name" v="Midtre Leirmo" />
		<tag k="place" v="farm" />
		<tag k="ssr:stedsnr" v="961690" />
	</node>
	<node id="9627062457" lat="62.1140083" lon="8.7682084" version="1" timestamp="2022-03-31T17:11:14Z" changeset="119170451" uid="3497659" user="NKA">
		<tag k="name" v="Holnes" />
		<tag k="place" v="farm" />
		<tag k="ssr:stedsnr" v="132869" />
	</node>
	<node id="9627062458" lat="62.2356" lon="8.206589" version="1" timestamp="2022-03-31T17:11:14Z" changeset="119170451" uid="3497659" user="NKA">
		<tag k="alt_name" v="Søndre Brekken" />
		<tag k="name" v="Søre Brekka" />
		<tag k="place" v="farm" />
		<tag k="ssr:stedsnr" v="535167" />
	</node>
	<node id="9627062459" lat="62.1666" lon="8.5898916" version="1" timestamp="2022-03-31T17:11:14Z" changeset="119170451" uid="3497659" user="NKA">
		<tag k="name" v="Lauvhytta" />
		<tag k="place" v="locality" />
		<tag k="ssr:stedsnr" v="51374" />
	</node>
	<node id="9627062460" lat="62.1269464" lon="8.7376245" version="1" timestamp="2022-03-31T17:11:14Z" changeset="119170451" uid="3497659" user="NKA">
		<tag k="name" v="Skogly" />
		<tag k="place" v="farm" />
		<tag k="ssr:stedsnr" v="717407" />
	</node>
	<node id="9627062461" lat="62.0966" lon="8.9534444" version="1" timestamp="2022-03-31T17:11:14Z" changeset="119170451" uid="3497659" user="NKA">
		<tag k="name" v="Solstad" />
		<tag k="place" v="farm" />
		<tag k="ssr:stedsnr" v="800626" />
	</node>
	<node id="9627062462" lat="62.1778917" lon="8.6369027" version="1" timestamp="2022-03-31T17:11:14Z" changeset="119170451" uid="3497659" user="NKA">
		<tag k="name" v="Bjørklund" />
		<tag k="place" v="farm" />
		<tag k="ssr:stedsnr" v="314794" />
	</node>
	<node id="9627062463" lat="62.2392631" lon="8.3719803" version="1" timestamp="2022-03-31T17:11:14Z" changeset="119170451" uid="3497659" user="NKA">
		<tag k="name" v="Enstad" />
		<tag k="place" v="farm" />
		<tag k="ssr:stedsnr" v="984024" />
	</node>
	<node id="9627062464" lat="62.1192417" lon="8.1688529" version="1" timestamp="2022-03-31T17:11:14Z" changeset="119170451" uid="3497659" user="NKA">
		<tag k="loc_name" v="Grønbue" />
		<tag k="name" v="Grønbu" />
		<tag k="place" v="isolated_dwelling" />
		<tag k="ssr:stedsnr" v="374217" />
	</node>
	<node id="9627062465" lat="62.1218442" lon="8.8914676" version="1" timestamp="2022-03-31T17:11:14Z" changeset="119170451" uid="3497659" user="NKA">
		<tag k="alt_name" v="Flaggestadhagen" />
		<tag k="loc_name" v="Flågåstadhågån" />
		<tag k="name" v="Flagestadhagen" />
		<tag k="place" v="farm" />
		<tag k="ssr:stedsnr" v="414947" />
	</node>
	<node id="9627062466" lat="62.0905861" lon="8.9410805" version="1" timestamp="2022-03-31T17:11:14Z" changeset="119170451" uid="3497659" user="NKA">
		<tag k="name" v="Lauvhuset" />
		<tag k="place" v="locality" />
		<tag k="ssr:stedsnr" v="171784" />
	</node>
	<node id="9627062467" lat="62.1249601" lon="8.7876239" version="1" timestamp="2022-03-31T17:11:14Z" changeset="119170451" uid="3497659" user="NKA">
		<tag k="alt_name" v="Søre Oderlykkja" />
		<tag k="name" v="Søre Olderlykkja" />
		<tag k="place" v="farm" />
		<tag k="ssr:stedsnr" v="657689" />
	</node>
	<node id="9627062468" lat="62.1222444" lon="8.8046888" version="1" timestamp="2022-03-31T17:11:14Z" changeset="119170451" uid="3497659" user="NKA">
		<tag k="name" v="Prestlykkja" />
		<tag k="place" v="farm" />
		<tag k="ssr:stedsnr" v="596705" />
	</node>
	<node id="9627062469" lat="62.2709417" lon="8.2069723" version="1" timestamp="2022-03-31T17:11:14Z" changeset="119170451" uid="3497659" user="NKA">
		<tag k="name" v="Toftan" />
		<tag k="place" v="farm" />
		<tag k="ssr:stedsnr" v="678135" />
	</node>
	<node id="9627062470" lat="62.2930972" lon="8.731314" version="1" timestamp="2022-03-31T17:11:14Z" changeset="119170451" uid="3497659" user="NKA">
		<tag k="alt_name" v="Grøven" />
		<tag k="historic" v="shieling" />
		<tag k="loc_name" v="Grøvusætre" />
		<tag k="name" v="Grøvusætri" />
		<tag k="place" v="isolated_dwelling" />
		<tag k="ssr:stedsnr" v="921412" />
	</node>
	<node id="9627062471" lat="62.2077694" lon="8.4862472" version="1" timestamp="2022-03-31T17:11:14Z" changeset="119170451" uid="3497659" user="NKA">
		<tag k="name" v="Krokrud" />
		<tag k="place" v="farm" />
		<tag k="ssr:stedsnr" v="193826" />
	</node>
	<node id="9627062472" lat="62.2386833" lon="8.1617501" version="1" timestamp="2022-03-31T17:11:14Z" changeset="119170451" uid="3497659" user="NKA">
		<tag k="name" v="Nigard" />
		<tag k="place" v="farm" />
		<tag k="ssr:stedsnr" v="111152" />
	</node>
	<node id="9627062473" lat="62.0949056" lon="9.0314278" version="1" timestamp="2022-03-31T17:11:14Z" changeset="119170451" uid="3497659" user="NKA">
		<tag k="name" v="Slettmo" />
		<tag k="place" v="farm" />
		<tag k="ssr:stedsnr" v="474894" />
	</node>
	<node id="9627062474" lat="62.093913" lon="9.0471145" version="1" timestamp="2022-03-31T17:11:14Z" changeset="119170451" uid="3497659" user="NKA">
		<tag k="alt_name" v="Skålgård Søndre;Søndre Skålgård" />
		<tag k="name" v="Søre Skålgard" />
		<tag k="place" v="farm" />
		<tag k="ssr:stedsnr" v="617624" />
	</node>
	<node id="9627062475" lat="62.1188262" lon="8.8317602" version="1" timestamp="2022-03-31T17:11:14Z" changeset="119170451" uid="3497659" user="NKA">
		<tag k="alt_name" v="Hogsvold" />
		<tag k="name" v="Hogsvål" />
		<tag k="place" v="farm" />
		<tag k="ssr:stedsnr" v="314862" />
	</node>
	<node id="9627062476" lat="62.2397231" lon="8.3031503" version="1" timestamp="2022-03-31T17:11:14Z" changeset="119170451" uid="3497659" user="NKA">
		<tag k="name" v="Søreinbu" />
		<tag k="place" v="hamlet" />
		<tag k="ssr:stedsnr" v="976275" />
	</node>
	<node id="9627062477" lat="62.1193172" lon="8.9422565" version="1" timestamp="2022-03-31T17:11:14Z" changeset="119170451" uid="3497659" user="NKA">
		<tag k="name" v="Hagen" />
		<tag k="place" v="farm" />
		<tag k="ssr:stedsnr" v="839958" />
	</node>
	<node id="9627062478" lat="62.172967" lon="8.6346494" version="1" timestamp="2022-03-31T17:11:14Z" changeset="119170451" uid="3497659" user="NKA">
		<tag k="name" v="Vangrud" />
		<tag k="place" v="farm" />
		<tag k="ssr:stedsnr" v="233715" />
	</node>
	<node id="9627062479" lat="62.16135" lon="8.6580834" version="1" timestamp="2022-03-31T17:11:14Z" changeset="119170451" uid="3497659" user="NKA">
		<tag k="name" v="Store Rise" />
		<tag k="place" v="farm" />
		<tag k="ssr:stedsnr" v="354693" />
	</node>
	<node id="9627062480" lat="62.2177778" lon="8.4153306" version="1" timestamp="2022-03-31T17:11:14Z" changeset="119170451" uid="3497659" user="NKA">
		<tag k="name" v="Buaholmen" />
		<tag k="place" v="isolated_dwelling" />
		<tag k="ssr:stedsnr" v="314850" />
	</node>
	<node id="9627062481" lat="62.0644806" lon="8.4114666" version="1" timestamp="2022-03-31T17:11:14Z" changeset="119170451" uid="3497659" user="NKA">
		<tag k="historic" v="shieling" />
		<tag k="name" v="Løstølen" />
		<tag k="place" v="isolated_dwelling" />
		<tag k="ssr:stedsnr" v="193754" />
	</node>
	<node id="9627062482" lat="62.0780084" lon="8.9899499" version="1" timestamp="2022-03-31T17:11:14Z" changeset="119170451" uid="3497659" user="NKA">
		<tag k="alt_name" v="Bottemsætre" />
		<tag k="historic" v="shieling" />
		<tag k="loc_name" v="Bottheimsætre" />
		<tag k="name" v="Bottheimsætri" />
		<tag k="place" v="isolated_dwelling" />
		<tag k="ssr:stedsnr" v="71650" />
	</node>
	<node id="9627062483" lat="62.1039389" lon="8.5720111" version="1" timestamp="2022-03-31T17:11:14Z" changeset="119170451" uid="3497659" user="NKA">
		<tag k="name" v="Slettmohytta" />
		<tag k="place" v="isolated_dwelling" />
		<tag k="ssr:stedsnr" v="621751" />
	</node>
	<node id="9627062484" lat="62.0822639" lon="9.0612444" version="1" timestamp="2022-03-31T17:11:14Z" changeset="119170451" uid="3497659" user="NKA">
		<tag k="alt_name" v="Myre" />
		<tag k="name" v="Myri" />
		<tag k="place" v="farm" />
		<tag k="ssr:stedsnr" v="921622" />
	</node>
	<node id="9627062485" lat="62.2678056" lon="8.2098028" version="1" timestamp="2022-03-31T17:11:14Z" changeset="119170451" uid="3497659" user="NKA">
		<tag k="alt_name" v="Bjorlivolden" />
		<tag k="name" v="Bjorlivollen" />
		<tag k="place" v="farm" />
		<tag k="ssr:stedsnr" v="800116" />
	</node>
	<node id="9627062486" lat="62.25815" lon="8.2097251" version="1" timestamp="2022-03-31T17:11:14Z" changeset="119170451" uid="3497659" user="NKA">
		<tag k="name" v="Bøvermoen" />
		<tag k="place" v="isolated_dwelling" />
		<tag k="ssr:stedsnr" v="960120" />
	</node>
	<node id="9627062487" lat="62.0925932" lon="9.0574806" version="1" timestamp="2022-03-31T17:11:14Z" changeset="119170451" uid="3497659" user="NKA">
		<tag k="alt_name" v="Sønstebø" />
		<tag k="name" v="Synstbø" />
		<tag k="place" v="farm" />
		<tag k="ssr:stedsnr" v="359635" />
	</node>
	<node id="9627062488" lat="62.0932195" lon="9.0920222" version="1" timestamp="2022-03-31T17:11:14Z" changeset="119170451" uid="3497659" user="NKA">
		<tag k="name" v="Skogstad" />
		<tag k="place" v="farm" />
		<tag k="ssr:stedsnr" v="435620" />
	</node>
	<node id="9627062489" lat="62.232575" lon="8.3323222" version="1" timestamp="2022-03-31T17:11:14Z" changeset="119170451" uid="3497659" user="NKA">
		<tag k="name" v="Plassan" />
		<tag k="place" v="locality" />
		<tag k="ssr:stedsnr" v="717067" />
	</node>
	<node id="9627062490" lat="62.1202904" lon="8.9067897" version="1" timestamp="2022-03-31T17:11:14Z" changeset="119170451" uid="3497659" user="NKA">
		<tag k="name" v="Joslåtten" />
		<tag k="place" v="farm" />
		<tag k="ssr:stedsnr" v="111964" />
	</node>
	<node id="9627062491" lat="62.1910752" lon="8.5535029" version="1" timestamp="2022-03-31T17:11:14Z" changeset="119170451" uid="3497659" user="NKA">
		<tag k="alt_name" v="Fransplass" />
		<tag k="name" v="Fransplassen" />
		<tag k="place" v="farm" />
		<tag k="ssr:stedsnr" v="900354" />
	</node>
	<node id="9627062492" lat="62.1757901" lon="8.6392608" version="1" timestamp="2022-03-31T17:11:14Z" changeset="119170451" uid="3497659" user="NKA">
		<tag k="alt_name" v="Åvangen;Åvangen nordre" />
		<tag k="name" v="Nordre Åvangen" />
		<tag k="place" v="farm" />
		<tag k="ssr:stedsnr" v="921793" />
	</node>
	<node id="9627062493" lat="62.2308972" lon="8.3100195" version="1" timestamp="2022-03-31T17:11:14Z" changeset="119170451" uid="3497659" user="NKA">
		<tag k="alt_name" v="Kvitlan" />
		<tag k="name" v="Kvisli" />
		<tag k="place" v="farm" />
		<tag k="ssr:stedsnr" v="253873" />
	</node>
	<node id="9627062494" lat="62.123379" lon="8.7432224" version="1" timestamp="2022-03-31T17:11:14Z" changeset="119170451" uid="3497659" user="NKA">
		<tag k="name" v="Øverlund" />
		<tag k="place" v="farm" />
		<tag k="ssr:stedsnr" v="292372" />
	</node>
	<node id="9627062495" lat="62.1409917" lon="8.6887528" version="1" timestamp="2022-03-31T17:11:14Z" changeset="119170451" uid="3497659" user="NKA">
		<tag k="name" v="Hosetstuen" />
		<tag k="place" v="farm" />
		<tag k="ssr:stedsnr" v="839529" />
	</node>
	<node id="9627062496" lat="62.1223639" lon="8.7882695" version="1" timestamp="2022-03-31T17:11:14Z" changeset="119170451" uid="3497659" user="NKA">
		<tag k="name" v="Åmundstad" />
		<tag k="place" v="farm" />
		<tag k="ssr:stedsnr" v="656676" />
	</node>
	<node id="9627062497" lat="62.0999972" lon="8.9476667" version="1" timestamp="2022-03-31T17:11:14Z" changeset="119170451" uid="3497659" user="NKA">
		<tag k="name" v="Simahaug" />
		<tag k="place" v="farm" />
		<tag k="ssr:stedsnr" v="72597" />
	</node>
	<node id="9627062498" lat="62.2331777" lon="8.3664777" version="1" timestamp="2022-03-31T17:11:14Z" changeset="119170451" uid="3497659" user="NKA">
		<tag k="alt_name" v="Myre" />
		<tag k="name" v="Myri" />
		<tag k="place" v="farm" />
		<tag k="ssr:stedsnr" v="314844" />
	</node>
	<node id="9627062499" lat="62.2398444" lon="8.37305" version="1" timestamp="2022-03-31T17:11:14Z" changeset="119170451" uid="3497659" user="NKA">
		<tag k="name" v="Sørpå-Enstad" />
		<tag k="place" v="farm" />
		<tag k="ssr:stedsnr" v="111106" />
	</node>
	<node id="9627062500" lat="62.1215233" lon="8.8930811" version="1" timestamp="2022-03-31T17:11:14Z" changeset="119170451" uid="3497659" user="NKA">
		<tag k="name" v="Byggjordet" />
		<tag k="place" v="farm" />
		<tag k="ssr:stedsnr" v="960959" />
	</node>
	<node id="9627062501" lat="62.2449277" lon="8.2409834" version="1" timestamp="2022-03-31T17:11:14Z" changeset="119170451" uid="3497659" user="NKA">
		<tag k="alt_name" v="Morki søre" />
		<tag k="name" v="Søre Morki" />
		<tag k="place" v="farm" />
		<tag k="ssr:stedsnr" v="496243" />
	</node>
	<node id="9627062502" lat="62.1312666" lon="8.7198222" version="1" timestamp="2022-03-31T17:11:14Z" changeset="119170451" uid="3497659" user="NKA">
		<tag k="name" v="Grinda" />
		<tag k="place" v="farm" />
		<tag k="ssr:stedsnr" v="50390" />
	</node>
	<node id="9627062503" lat="62.084075" lon="8.9052333" version="1" timestamp="2022-03-31T17:11:14Z" changeset="119170451" uid="3497659" user="NKA">
		<tag k="alt_name" v="Snarstadsætri" />
		<tag k="historic" v="shieling" />
		<tag k="name" v="Snarstadsætre" />
		<tag k="place" v="isolated_dwelling" />
		<tag k="ssr:stedsnr" v="10618" />
	</node>
	<node id="9627062504" lat="62.1458242" lon="8.6857629" version="1" timestamp="2022-03-31T17:11:14Z" changeset="119170451" uid="3497659" user="NKA">
		<tag k="alt_name" v="Hagen;Hagen nordre" />
		<tag k="name" v="Nørdre Hagen" />
		<tag k="place" v="farm" />
		<tag k="ssr:stedsnr" v="132798" />
	</node>
	<node id="9627062505" lat="62.0918584" lon="9.0845612" version="1" timestamp="2022-03-31T17:11:14Z" changeset="119170451" uid="3497659" user="NKA">
		<tag k="name" v="Søre nedre Jonsgard" />
		<tag k="place" v="farm" />
		<tag k="ssr:stedsnr" v="110802" />
	</node>
	<node id="9627062506" lat="62.1242944" lon="8.7656417" version="1" timestamp="2022-03-31T17:11:14Z" changeset="119170451" uid="3497659" user="NKA">
		<tag k="name" v="Karibakka" />
		<tag k="place" v="isolated_dwelling" />
		<tag k="ssr:stedsnr" v="717663" />
	</node>
	<node id="9627062507" lat="62.0815805" lon="9.0178944" version="1" timestamp="2022-03-31T17:11:14Z" changeset="119170451" uid="3497659" user="NKA">
		<tag k="name" v="Dalom" />
		<tag k="place" v="farm" />
		<tag k="ssr:stedsnr" v="374575" />
	</node>
	<node id="9627062508" lat="62.0973139" lon="8.9737334" version="1" timestamp="2022-03-31T17:11:14Z" changeset="119170451" uid="3497659" user="NKA">
		<tag k="alt_name" v="Ljosness;Ljøsnes" />
		<tag k="name" v="Ljosnes" />
		<tag k="place" v="farm" />
		<tag k="ssr:stedsnr" v="800623" />
	</node>
	<node id="9627062509" lat="62.0914639" lon="9.0207916" version="1" timestamp="2022-03-31T17:11:14Z" changeset="119170451" uid="3497659" user="NKA">
		<tag k="name" v="Tråsådal" />
		<tag k="place" v="farm" />
		<tag k="ssr:stedsnr" v="861577" />
	</node>
	<node id="9627062510" lat="62.2403511" lon="8.2699959" version="1" timestamp="2022-03-31T17:11:14Z" changeset="119170451" uid="3497659" user="NKA">
		<tag k="alt_name" v="Einbu, nordre;Nordre Einbu;Nordre Enebo" />
		<tag k="loc_name" v="Nordistugu Einbu" />
		<tag k="name" v="Nørdre Einbu" />
		<tag k="place" v="farm" />
		<tag k="ssr:stedsnr" v="860256" />
	</node>
	<node id="9627062511" lat="62.2382752" lon="8.3820834" version="1" timestamp="2022-03-31T17:11:14Z" changeset="119170451" uid="3497659" user="NKA">
		<tag k="alt_name" v="Midtislettom" />
		<tag k="name" v="Midti Slettum" />
		<tag k="place" v="farm" />
		<tag k="ssr:stedsnr" v="374245" />
	</node>
	<node id="9627062512" lat="62.1743917" lon="8.642864" version="1" timestamp="2022-03-31T17:11:14Z" changeset="119170451" uid="3497659" user="NKA">
		<tag k="name" v="Slettahaug" />
		<tag k="place" v="farm" />
		<tag k="ssr:stedsnr" v="536684" />
	</node>
	<node id="9627062513" lat="62.0960833" lon="8.9827083" version="1" timestamp="2022-03-31T17:11:14Z" changeset="119170451" uid="3497659" user="NKA">
		<tag k="name" v="Olalykkja" />
		<tag k="place" v="locality" />
		<tag k="ssr:stedsnr" v="900946" />
	</node>
	<node id="9627062514" lat="62.1232695" lon="8.7527917" version="1" timestamp="2022-03-31T17:11:14Z" changeset="119170451" uid="3497659" user="NKA">
		<tag k="name" v="Pettergarden" />
		<tag k="place" v="isolated_dwelling" />
		<tag k="ssr:stedsnr" v="353713" />
	</node>
	<node id="9627062515" lat="62.1250166" lon="8.7700028" version="1" timestamp="2022-03-31T17:11:14Z" changeset="119170451" uid="3497659" user="NKA">
		<tag k="name" v="Plassbakken" />
		<tag k="place" v="isolated_dwelling" />
		<tag k="ssr:stedsnr" v="839716" />
	</node>
	<node id="9627062516" lat="62.0897333" lon="9.0912889" version="1" timestamp="2022-03-31T17:11:14Z" changeset="119170451" uid="3497659" user="NKA">
		<tag k="name" v="Frekstad" />
		<tag k="place" v="farm" />
		<tag k="ssr:stedsnr" v="778768" />
	</node>
	<node id="9627062517" lat="62.2374889" lon="8.1672999" version="1" timestamp="2022-03-31T17:11:14Z" changeset="119170451" uid="3497659" user="NKA">
		<tag k="name" v="Sygard" />
		<tag k="place" v="farm" />
		<tag k="ssr:stedsnr" v="717138" />
	</node>
	<node id="9627062518" lat="62.234825" lon="8.4837" version="1" timestamp="2022-03-31T17:11:14Z" changeset="119170451" uid="3497659" user="NKA">
		<tag k="alt_name" v="Sandgrovsætre" />
		<tag k="historic" v="shieling" />
		<tag k="name" v="Sandgrosætri" />
		<tag k="place" v="isolated_dwelling" />
		<tag k="ssr:stedsnr" v="739848" />
	</node>
	<node id="9627062519" lat="62.1204623" lon="8.7661818" version="1" timestamp="2022-03-31T17:11:14Z" changeset="119170451" uid="3497659" user="NKA">
		<tag k="name" v="Nilsplassen" />
		<tag k="place" v="farm" />
		<tag k="ssr:stedsnr" v="778654" />
	</node>
	<node id="9627062520" lat="62.2029417" lon="8.5470777" version="1" timestamp="2022-03-31T17:11:14Z" changeset="119170451" uid="3497659" user="NKA">
		<tag k="name" v="Jolykkja" />
		<tag k="place" v="locality" />
		<tag k="ssr:stedsnr" v="414488" />
	</node>
	<node id="9627062521" lat="62.0618612" lon="9.0297862" version="1" timestamp="2022-03-31T17:11:14Z" changeset="119170451" uid="3497659" user="NKA">
		<tag k="alt_name" v="Høgsætri" />
		<tag k="loc_name" v="Høgsætre" />
		<tag k="name" v="Høgsætrin" />
		<tag k="place" v="hamlet" />
		<tag k="ssr:stedsnr" v="496602" />
	</node>
	<node id="9627062522" lat="62.2314333" lon="8.3514389" version="1" timestamp="2022-03-31T17:11:14Z" changeset="119170451" uid="3497659" user="NKA">
		<tag k="name" v="Mølmshaug" />
		<tag k="place" v="farm" />
		<tag k="ssr:stedsnr" v="840093" />
	</node>
	<node id="9627062523" lat="62.0954972" lon="9.0353834" version="1" timestamp="2022-03-31T17:11:14Z" changeset="119170451" uid="3497659" user="NKA">
		<tag k="alt_name" v="Svaet" />
		<tag k="name" v="Svadet" />
		<tag k="place" v="farm" />
		<tag k="ssr:stedsnr" v="375584" />
	</node>
	<node id="9627062524" lat="62.2384762" lon="8.285515" version="1" timestamp="2022-03-31T17:11:14Z" changeset="119170451" uid="3497659" user="NKA">
		<tag k="name" v="Kvam" />
		<tag k="place" v="farm" />
		<tag k="ssr:stedsnr" v="976274" />
	</node>
	<node id="9627062525" lat="62.2427271" lon="8.3460743" version="1" timestamp="2022-03-31T17:11:14Z" changeset="119170451" uid="3497659" user="NKA">
		<tag k="name" v="Øverli" />
		<tag k="place" v="farm" />
		<tag k="ssr:stedsnr" v="860254" />
	</node>
	<node id="9627062526" lat="62.1129778" lon="8.9791306" version="1" timestamp="2022-03-31T17:11:14Z" changeset="119170451" uid="3497659" user="NKA">
		<tag k="name" v="Anderslykkja" />
		<tag k="place" v="locality" />
		<tag k="ssr:stedsnr" v="839998" />
	</node>
	<node id="9627062527" lat="62.1376861" lon="8.7030612" version="1" timestamp="2022-03-31T17:11:14Z" changeset="119170451" uid="3497659" user="NKA">
		<tag k="name" v="Ljosbakken" />
		<tag k="place" v="farm" />
		<tag k="ssr:stedsnr" v="253787" />
	</node>
	<node id="9627062528" lat="62.1172082" lon="8.9072297" version="1" timestamp="2022-03-31T17:11:14Z" changeset="119170451" uid="3497659" user="NKA">
		<tag k="alt_name" v="Hauje" />
		<tag k="name" v="Hauge" />
		<tag k="place" v="farm" />
		<tag k="ssr:stedsnr" v="314871" />
	</node>
	<node id="9627062529" lat="62.1043695" lon="8.8742639" version="1" timestamp="2022-03-31T17:11:14Z" changeset="119170451" uid="3497659" user="NKA">
		<tag k="name" v="Elgli" />
		<tag k="place" v="farm" />
		<tag k="ssr:stedsnr" v="193890" />
	</node>
	<node id="9627062530" lat="62.1481083" lon="8.6847195" version="1" timestamp="2022-03-31T17:11:14Z" changeset="119170451" uid="3497659" user="NKA">
		<tag k="alt_name" v="Stavemshaugen;Haugen nedre" />
		<tag k="name" v="Nedre Haugen" />
		<tag k="place" v="farm" />
		<tag k="ssr:stedsnr" v="921807" />
	</node>
	<node id="9627062531" lat="62.1047972" lon="8.9134167" version="1" timestamp="2022-03-31T17:11:14Z" changeset="119170451" uid="3497659" user="NKA">
		<tag k="alt_name" v="Ølstadløkken" />
		<tag k="name" v="Ølstadlykkja" />
		<tag k="place" v="farm" />
		<tag k="ssr:stedsnr" v="678886" />
	</node>
	<node id="9627062532" lat="62.2385361" lon="8.3790722" version="1" timestamp="2022-03-31T17:11:14Z" changeset="119170451" uid="3497659" user="NKA">
		<tag k="name" v="Ner-Slettum" />
		<tag k="place" v="farm" />
		<tag k="ssr:stedsnr" v="535091" />
	</node>
	<node id="9627062533" lat="62.0980973" lon="9.0415084" version="1" timestamp="2022-03-31T17:11:14Z" changeset="119170451" uid="3497659" user="NKA">
		<tag k="name" v="Brattbakken" />
		<tag k="place" v="locality" />
		<tag k="ssr:stedsnr" v="534895" />
	</node>
	<node id="9627062534" lat="62.0975195" lon="8.6841777" version="1" timestamp="2022-03-31T17:11:14Z" changeset="119170451" uid="3497659" user="NKA">
		<tag k="alt_name" v="Vigga, nordre;Vigga" />
		<tag k="historic" v="shieling" />
		<tag k="loc_name" v="Nørdre Vigga" />
		<tag k="name" v="Nordre Vigga" />
		<tag k="place" v="isolated_dwelling" />
		<tag k="ssr:stedsnr" v="193761" />
	</node>
	<node id="9627062535" lat="62.1216334" lon="8.7704499" version="1" timestamp="2022-03-31T17:11:14Z" changeset="119170451" uid="3497659" user="NKA">
		<tag k="name" v="Plassen" />
		<tag k="place" v="farm" />
		<tag k="ssr:stedsnr" v="253935" />
	</node>
	<node id="9627062536" lat="62.2539667" lon="8.2223361" version="1" timestamp="2022-03-31T17:11:14Z" changeset="119170451" uid="3497659" user="NKA">
		<tag k="name" v="Heimdal" />
		<tag k="place" v="quarter" />
		<tag k="ssr:stedsnr" v="596135" />
	</node>
	<node id="9627062537" lat="62.2660778" lon="8.1865751" version="1" timestamp="2022-03-31T17:11:14Z" changeset="119170451" uid="3497659" user="NKA">
		<tag k="name" v="Kågen" />
		<tag k="place" v="farm" />
		<tag k="ssr:stedsnr" v="253159" />
	</node>
	<node id="9627062538" lat="62.0959889" lon="8.9646139" version="1" timestamp="2022-03-31T17:11:14Z" changeset="119170451" uid="3497659" user="NKA">
		<tag k="alt_name" v="Øvre Bøloghaug" />
		<tag k="name" v="Øvre Bøloghaugen" />
		<tag k="place" v="farm" />
		<tag k="ssr:stedsnr" v="232940" />
	</node>
	<node id="9627062539" lat="62.1953447" lon="8.4663731" version="1" timestamp="2022-03-31T17:11:14Z" changeset="119170451" uid="3497659" user="NKA">
		<tag k="alt_name" v="Tandsætri;Tandsætre nordre" />
		<tag k="loc_name" v="Tandsætre" />
		<tag k="name" v="Nordre Tandsætre" />
		<tag k="place" v="farm" />
		<tag k="ssr:stedsnr" v="920855" />
	</node>
	<node id="9627062540" lat="62.1347028" lon="8.7120195" version="1" timestamp="2022-03-31T17:11:14Z" changeset="119170451" uid="3497659" user="NKA">
		<tag k="name" v="Øverhol" />
		<tag k="place" v="farm" />
		<tag k="ssr:stedsnr" v="232383" />
	</node>
	<node id="9627062541" lat="62.1202111" lon="8.9596694" version="1" timestamp="2022-03-31T17:11:14Z" changeset="119170451" uid="3497659" user="NKA">
		<tag k="name" v="Helgestad" />
		<tag k="place" v="locality" />
		<tag k="ssr:stedsnr" v="778960" />
	</node>
	<node id="9627062542" lat="62.0951536" lon="9.0479825" version="1" timestamp="2022-03-31T17:11:14Z" changeset="119170451" uid="3497659" user="NKA">
		<tag k="name" v="Heggelykkja" />
		<tag k="place" v="farm" />
		<tag k="ssr:stedsnr" v="292888" />
	</node>
	<node id="9627062543" lat="62.2045861" lon="8.4962666" version="1" timestamp="2022-03-31T17:11:14Z" changeset="119170451" uid="3497659" user="NKA">
		<tag k="name" v="Søre Knipa" />
		<tag k="place" v="farm" />
		<tag k="ssr:stedsnr" v="233479" />
	</node>
	<node id="9627062544" lat="62.1208167" lon="8.9010667" version="1" timestamp="2022-03-31T17:11:14Z" changeset="119170451" uid="3497659" user="NKA">
		<tag k="name" v="Hattremslykkja" />
		<tag k="place" v="farm" />
		<tag k="ssr:stedsnr" v="778966" />
	</node>
	<node id="9627062545" lat="62.1140083" lon="8.8465903" version="1" timestamp="2022-03-31T17:11:14Z" changeset="119170451" uid="3497659" user="NKA">
		<tag k="name" v="Hågå" />
		<tag k="place" v="farm" />
		<tag k="ssr:stedsnr" v="984124" />
	</node>
	<node id="9627062546" lat="62.2303055" lon="8.4174194" version="1" timestamp="2022-03-31T17:11:14Z" changeset="119170451" uid="3497659" user="NKA">
		<tag k="name" v="Kveum" />
		<tag k="place" v="farm" />
		<tag k="ssr:stedsnr" v="172495" />
	</node>
	<node id="9627062547" lat="62.1432166" lon="8.6929167" version="1" timestamp="2022-03-31T17:11:14Z" changeset="119170451" uid="3497659" user="NKA">
		<tag k="alt_name" v="Kornkveen" />
		<tag k="name" v="Kornkvei" />
		<tag k="place" v="farm" />
		<tag k="ssr:stedsnr" v="739765" />
	</node>
	<node id="9627062548" lat="62.2465056" lon="8.238361" version="1" timestamp="2022-03-31T17:11:14Z" changeset="119170451" uid="3497659" user="NKA">
		<tag k="alt_name" v="Morki, nordre" />
		<tag k="name" v="Nordre Morki" />
		<tag k="place" v="farm" />
		<tag k="ssr:stedsnr" v="739222" />
	</node>
	<node id="9627062549" lat="62.2369338" lon="8.3833892" version="1" timestamp="2022-03-31T17:11:14Z" changeset="119170451" uid="3497659" user="NKA">
		<tag k="name" v="Slettum" />
		<tag k="place" v="hamlet" />
		<tag k="ssr:stedsnr" v="984025" />
	</node>
	<node id="9627062550" lat="62.2689444" lon="8.2090638" version="1" timestamp="2022-03-31T17:11:14Z" changeset="119170451" uid="3497659" user="NKA">
		<tag k="name" v="Bjordal" />
		<tag k="place" v="farm" />
		<tag k="ssr:stedsnr" v="132109" />
	</node>
	<node id="9627062551" lat="62.1135389" lon="8.9450104" version="1" timestamp="2022-03-31T17:11:14Z" changeset="119170451" uid="3497659" user="NKA">
		<tag k="name" v="Bø" />
		<tag k="place" v="farm" />
		<tag k="ssr:stedsnr" v="132890" />
	</node>
	<node id="9627062552" lat="62.1135437" lon="8.9417981" version="1" timestamp="2022-03-31T17:11:14Z" changeset="119170451" uid="3497659" user="NKA">
		<tag k="name" v="Augard" />
		<tag k="place" v="hamlet" />
		<tag k="ssr:stedsnr" v="984129" />
	</node>
	<node id="9627062553" lat="62.1141194" lon="8.8721056" version="1" timestamp="2022-03-31T17:11:14Z" changeset="119170451" uid="3497659" user="NKA">
		<tag k="name" v="Holsmyren" />
		<tag k="place" v="farm" />
		<tag k="ssr:stedsnr" v="50601" />
	</node>
	<node id="9627062554" lat="62.2392555" lon="8.2749194" version="1" timestamp="2022-03-31T17:11:14Z" changeset="119170451" uid="3497659" user="NKA">
		<tag k="alt_name" v="Einbu, s;Søre Einbu" />
		<tag k="name" v="Ni-Einbu" />
		<tag k="place" v="farm" />
		<tag k="ssr:stedsnr" v="11216" />
	</node>
	<node id="9627062555" lat="62.119301" lon="8.7805305" version="1" timestamp="2022-03-31T17:11:14Z" changeset="119170451" uid="3497659" user="NKA">
		<tag k="name" v="Kolådalen" />
		<tag k="place" v="farm" />
		<tag k="ssr:stedsnr" v="899659" />
	</node>
	<node id="9627062556" lat="62.1086927" lon="8.976159" version="1" timestamp="2022-03-31T17:11:14Z" changeset="119170451" uid="3497659" user="NKA">
		<tag k="alt_name" v="Håkenstad" />
		<tag k="name" v="Håkåstad" />
		<tag k="place" v="farm" />
		<tag k="ssr:stedsnr" v="436894" />
	</node>
	<node id="9627062557" lat="62.0870389" lon="9.0953222" version="1" timestamp="2022-03-31T17:11:14Z" changeset="119170451" uid="3497659" user="NKA">
		<tag k="name" v="Olalykkja" />
		<tag k="place" v="locality" />
		<tag k="ssr:stedsnr" v="474788" />
	</node>
	<node id="9627062558" lat="62.1220286" lon="8.8386171" version="1" timestamp="2022-03-31T17:11:14Z" changeset="119170451" uid="3497659" user="NKA">
		<tag k="name" v="Huse" />
		<tag k="place" v="farm" />
		<tag k="ssr:stedsnr" v="475727" />
	</node>
	<node id="9627062559" lat="62.1327388" lon="8.7037583" version="1" timestamp="2022-03-31T17:11:14Z" changeset="119170451" uid="3497659" user="NKA">
		<tag k="name" v="Bjøknestuen" />
		<tag k="place" v="locality" />
		<tag k="ssr:stedsnr" v="960397" />
	</node>
	<node id="9627062560" lat="62.2352778" lon="8.2998528" version="1" timestamp="2022-03-31T17:11:14Z" changeset="119170451" uid="3497659" user="NKA">
		<tag k="name" v="Bjørkøy" />
		<tag k="place" v="farm" />
		<tag k="ssr:stedsnr" v="111094" />
	</node>
	<node id="9627062561" lat="62.0963499" lon="8.9492363" version="1" timestamp="2022-03-31T17:11:14Z" changeset="119170451" uid="3497659" user="NKA">
		<tag k="name" v="Hovhaugholen" />
		<tag k="place" v="farm" />
		<tag k="ssr:stedsnr" v="171995" />
	</node>
	<node id="9627062562" lat="62.1754528" lon="8.5597555" version="1" timestamp="2022-03-31T17:11:14Z" changeset="119170451" uid="3497659" user="NKA">
		<tag k="alt_name" v="Nordmannssætri" />
		<tag k="historic" v="shieling" />
		<tag k="name" v="Nordmannssætre" />
		<tag k="place" v="isolated_dwelling" />
		<tag k="ssr:stedsnr" v="678774" />
	</node>
	<node id="9627062563" lat="62.1255862" lon="8.8112758" version="1" timestamp="2022-03-31T17:11:14Z" changeset="119170451" uid="3497659" user="NKA">
		<tag k="name" v="Vanglykkja" />
		<tag k="place" v="farm" />
		<tag k="ssr:stedsnr" v="193927" />
	</node>
	<node id="9627062564" lat="62.1351833" lon="9.00445" version="1" timestamp="2022-03-31T17:11:14Z" changeset="119170451" uid="3497659" user="NKA">
		<tag k="alt_name" v="Reindøl, nedre" />
		<tag k="historic" v="shieling" />
		<tag k="name" v="Nedre Reindøl" />
		<tag k="place" v="isolated_dwelling" />
		<tag k="ssr:stedsnr" v="678910" />
	</node>
	<node id="9627062565" lat="62.0661083" lon="9.0491055" version="1" timestamp="2022-03-31T17:11:14Z" changeset="119170451" uid="3497659" user="NKA">
		<tag k="name" v="Ekrum" />
		<tag k="place" v="locality" />
		<tag k="ssr:stedsnr" v="292745" />
	</node>
	<node id="9627062566" lat="62.1234667" lon="8.7489221" version="1" timestamp="2022-03-31T17:11:14Z" changeset="119170451" uid="3497659" user="NKA">
		<tag k="name" v="Høgbrenna" />
		<tag k="place" v="farm" />
		<tag k="ssr:stedsnr" v="474400" />
	</node>
	<node id="9627062567" lat="62.2374167" lon="8.1514889" version="1" timestamp="2022-03-31T17:11:14Z" changeset="119170451" uid="3497659" user="NKA">
		<tag k="name" v="Rånålykkja" />
		<tag k="place" v="locality" />
		<tag k="ssr:stedsnr" v="111154" />
	</node>
	<node id="9627062568" lat="62.154075" lon="8.6760695" version="1" timestamp="2022-03-31T17:11:14Z" changeset="119170451" uid="3497659" user="NKA">
		<tag k="name" v="Nordre søre Stavem" />
		<tag k="place" v="farm" />
		<tag k="ssr:stedsnr" v="414521" />
	</node>
	<node id="9627062569" lat="62.2374027" lon="8.2811222" version="1" timestamp="2022-03-31T17:11:14Z" changeset="119170451" uid="3497659" user="NKA">
		<tag k="alt_name" v="Kvam søre;Søre Kvam" />
		<tag k="name" v="Nistugu Kvam" />
		<tag k="place" v="farm" />
		<tag k="ssr:stedsnr" v="314259" />
	</node>
	<node id="9627062570" lat="62.1499278" lon="8.6854473" version="1" timestamp="2022-03-31T17:11:14Z" changeset="119170451" uid="3497659" user="NKA">
		<tag k="name" v="Øvre Haugen" />
		<tag k="place" v="farm" />
		<tag k="ssr:stedsnr" v="717546" />
	</node>
	<node id="9627062571" lat="62.1081408" lon="8.9693183" version="1" timestamp="2022-03-31T17:11:14Z" changeset="119170451" uid="3497659" user="NKA">
		<tag k="alt_name" v="Nyhagen" />
		<tag k="name" v="Nyhågån" />
		<tag k="place" v="farm" />
		<tag k="ssr:stedsnr" v="314880" />
	</node>
	<node id="9627062572" lat="62.257275" lon="8.2272251" version="1" timestamp="2022-03-31T17:11:14Z" changeset="119170451" uid="3497659" user="NKA">
		<tag k="name" v="Lysbakken" />
		<tag k="place" v="farm" />
		<tag k="ssr:stedsnr" v="800303" />
	</node>
	<node id="9627062573" lat="62.2420964" lon="8.3296899" version="1" timestamp="2022-03-31T17:11:14Z" changeset="119170451" uid="3497659" user="NKA">
		<tag k="alt_name" v="Lien nordre" />
		<tag k="name" v="Lii" />
		<tag k="place" v="farm" />
		<tag k="ssr:stedsnr" v="860253" />
	</node>
	<node id="9627062574" lat="62.1079055" lon="8.9076695" version="1" timestamp="2022-03-31T17:11:14Z" changeset="119170451" uid="3497659" user="NKA">
		<tag k="alt_name" v="Åsveen" />
		<tag k="name" v="Åssvea" />
		<tag k="place" v="farm" />
		<tag k="ssr:stedsnr" v="617904" />
	</node>
	<node id="9627062575" lat="62.1450305" lon="8.6877972" version="1" timestamp="2022-03-31T17:11:14Z" changeset="119170451" uid="3497659" user="NKA">
		<tag k="name" v="Søre Hagen" />
		<tag k="place" v="farm" />
		<tag k="ssr:stedsnr" v="535539" />
	</node>
	<node id="9627062576" lat="62.0914" lon="9.0936833" version="1" timestamp="2022-03-31T17:11:14Z" changeset="119170451" uid="3497659" user="NKA">
		<tag k="name" v="Haldogplassen" />
		<tag k="place" v="locality" />
		<tag k="ssr:stedsnr" v="839777" />
	</node>
	<node id="9627062577" lat="62.1240153" lon="8.7440332" version="1" timestamp="2022-03-31T17:11:14Z" changeset="119170451" uid="3497659" user="NKA">
		<tag k="name" v="Haugen" />
		<tag k="place" v="farm" />
		<tag k="ssr:stedsnr" v="800931" />
	</node>
	<node id="9627062578" lat="62.2102472" lon="8.4357528" version="1" timestamp="2022-03-31T17:11:14Z" changeset="119170451" uid="3497659" user="NKA">
		<tag k="alt_name" v="Bryggesætre" />
		<tag k="historic" v="shieling" />
		<tag k="name" v="Bryggjesætri" />
		<tag k="place" v="isolated_dwelling" />
		<tag k="ssr:stedsnr" v="11833" />
	</node>
	<node id="9627062579" lat="62.1035917" lon="8.9888472" version="1" timestamp="2022-03-31T17:11:14Z" changeset="119170451" uid="3497659" user="NKA">
		<tag k="alt_name" v="Nyland" />
		<tag k="name" v="Nylendet" />
		<tag k="place" v="farm" />
		<tag k="ssr:stedsnr" v="678616" />
	</node>
	<node id="9627062580" lat="62.1893452" lon="8.5456378" version="1" timestamp="2022-03-31T17:11:14Z" changeset="119170451" uid="3497659" user="NKA">
		<tag k="name" v="Lesjaverk gard" />
		<tag k="place" v="farm" />
		<tag k="ssr:stedsnr" v="596337" />
	</node>
	<node id="9627062581" lat="62.1389027" lon="8.7040138" version="1" timestamp="2022-03-31T17:11:14Z" changeset="119170451" uid="3497659" user="NKA">
		<tag k="name" v="Steinan" />
		<tag k="place" v="farm" />
		<tag k="ssr:stedsnr" v="595503" />
	</node>
	<node id="9627062582" lat="62.2099601" lon="8.478768" version="1" timestamp="2022-03-31T17:11:14Z" changeset="119170451" uid="3497659" user="NKA">
		<tag k="alt_name" v="Plassen nordre" />
		<tag k="name" v="Plassen" />
		<tag k="place" v="farm" />
		<tag k="ssr:stedsnr" v="678805" />
	</node>
	<node id="9627062583" lat="62.1119149" lon="8.962185" version="1" timestamp="2022-03-31T17:11:14Z" changeset="119170451" uid="3497659" user="NKA">
		<tag k="alt_name" v="Holaker" />
		<tag k="name" v="Holåker" />
		<tag k="place" v="farm" />
		<tag k="ssr:stedsnr" v="193889" />
	</node>
	<node id="9627062584" lat="62.0933306" lon="9.0567806" version="1" timestamp="2022-03-31T17:11:14Z" changeset="119170451" uid="3497659" user="NKA">
		<tag k="name" v="Sønstebø" />
		<tag k="place" v="farm" />
		<tag k="ssr:stedsnr" v="717846" />
	</node>
	<node id="9627062585" lat="62.1838166" lon="8.6089195" version="1" timestamp="2022-03-31T17:11:14Z" changeset="119170451" uid="3497659" user="NKA">
		<tag k="alt_name" v="Melien" />
		<tag k="name" v="Melii" />
		<tag k="place" v="farm" />
		<tag k="ssr:stedsnr" v="435812" />
	</node>
	<node id="9627062586" lat="62.2406278" lon="8.3063389" version="1" timestamp="2022-03-31T17:11:14Z" changeset="119170451" uid="3497659" user="NKA">
		<tag k="alt_name" v="Søre Sørenebo" />
		<tag k="name" v="Søre Søreinbu" />
		<tag k="place" v="farm" />
		<tag k="ssr:stedsnr" v="717080" />
	</node>
	<node id="9627062587" lat="62.1728694" lon="8.6646944" version="1" timestamp="2022-03-31T17:11:14Z" changeset="119170451" uid="3497659" user="NKA">
		<tag k="name" v="Studulen" />
		<tag k="place" v="locality" />
		<tag k="ssr:stedsnr" v="172736" />
	</node>
	<node id="9627062588" lat="62.2023127" lon="8.4936666" version="1" timestamp="2022-03-31T17:11:14Z" changeset="119170451" uid="3497659" user="NKA">
		<tag k="alt_name" v="Knipstuen" />
		<tag k="name" v="Knipstugu" />
		<tag k="place" v="farm" />
		<tag k="ssr:stedsnr" v="475470" />
	</node>
	<node id="9627062589" lat="62.1055417" lon="8.9888694" version="1" timestamp="2022-03-31T17:11:14Z" changeset="119170451" uid="3497659" user="NKA">
		<tag k="alt_name" v="Nyjordet øvre" />
		<tag k="name" v="Nyjordet" />
		<tag k="place" v="farm" />
		<tag k="ssr:stedsnr" v="193893" />
	</node>
	<node id="9627062590" lat="62.3130217" lon="8.5363082" version="1" timestamp="2022-03-31T17:11:14Z" changeset="119170451" uid="3497659" user="NKA">
		<tag k="name" v="Morkabui" />
		<tag k="place" v="locality" />
		<tag k="ssr:stedsnr" v="375231" />
	</node>
	<node id="9627062591" lat="62.2367639" lon="8.1667584" version="1" timestamp="2022-03-31T17:11:14Z" changeset="119170451" uid="3497659" user="NKA">
		<tag k="name" v="Rånå" />
		<tag k="place" v="hamlet" />
		<tag k="ssr:stedsnr" v="414146" />
	</node>
	<node id="9627062592" lat="62.0880389" lon="9.0377138" version="1" timestamp="2022-03-31T17:11:14Z" changeset="119170451" uid="3497659" user="NKA">
		<tag k="name" v="Skogen" />
		<tag k="place" v="farm" />
		<tag k="ssr:stedsnr" v="495609" />
	</node>
	<node id="9627062593" lat="62.28085" lon="8.6869806" version="1" timestamp="2022-03-31T17:11:14Z" changeset="119170451" uid="3497659" user="NKA">
		<tag k="alt_name" v="Gåsbui" />
		<tag k="historic" v="shieling" />
		<tag k="name" v="Gåsbue" />
		<tag k="place" v="hamlet" />
		<tag k="ssr:stedsnr" v="133265" />
	</node>
	<node id="9627062594" lat="62.103575" lon="8.8329638" version="1" timestamp="2022-03-31T17:11:14Z" changeset="119170451" uid="3497659" user="NKA">
		<tag k="name" v="Hovdan" />
		<tag k="place" v="farm" />
		<tag k="ssr:stedsnr" v="617907" />
	</node>
	<node id="9627062595" lat="62.1926887" lon="8.546273" version="1" timestamp="2022-03-31T17:11:14Z" changeset="119170451" uid="3497659" user="NKA">
		<tag k="alt_name" v="Torsplass" />
		<tag k="name" v="Torsplassen" />
		<tag k="place" v="farm" />
		<tag k="ssr:stedsnr" v="192864" />
	</node>
	<node id="9627062596" lat="62.1008" lon="8.9489084" version="1" timestamp="2022-03-31T17:11:14Z" changeset="119170451" uid="3497659" user="NKA">
		<tag k="alt_name" v="Pålseng" />
		<tag k="name" v="Paulseng" />
		<tag k="place" v="farm" />
		<tag k="ssr:stedsnr" v="436600" />
	</node>
	<node id="9627062597" lat="62.1531833" lon="8.9362388" version="1" timestamp="2022-03-31T17:11:14Z" changeset="119170451" uid="3497659" user="NKA">
		<tag k="name" v="Siemshytta" />
		<tag k="place" v="isolated_dwelling" />
		<tag k="ssr:stedsnr" v="535933" />
	</node>
	<node id="9627062598" lat="62.2710639" lon="8.2097056" version="1" timestamp="2022-03-31T17:11:14Z" changeset="119170451" uid="3497659" user="NKA">
		<tag k="name" v="Bjorlihaugen" />
		<tag k="place" v="farm" />
		<tag k="ssr:stedsnr" v="496127" />
	</node>
	<node id="9627062599" lat="62.1182917" lon="8.8925" version="1" timestamp="2022-03-31T17:11:14Z" changeset="119170451" uid="3497659" user="NKA">
		<tag k="name" v="Kjørvenær" />
		<tag k="place" v="farm" />
		<tag k="ssr:stedsnr" v="536962" />
	</node>
	<node id="9627062600" lat="62.2080722" lon="8.4790806" version="1" timestamp="2022-03-31T17:11:14Z" changeset="119170451" uid="3497659" user="NKA">
		<tag k="name" v="Lund" />
		<tag k="place" v="farm" />
		<tag k="ssr:stedsnr" v="132815" />
	</node>
	<node id="9627062601" lat="62.1974833" lon="8.5713694" version="1" timestamp="2022-03-31T17:11:14Z" changeset="119170451" uid="3497659" user="NKA">
		<tag k="name" v="Torslykkje" />
		<tag k="place" v="locality" />
		<tag k="ssr:stedsnr" v="596460" />
	</node>
	<node id="9627062602" lat="62.0942139" lon="9.0410611" version="1" timestamp="2022-03-31T17:11:14Z" changeset="119170451" uid="3497659" user="NKA">
		<tag k="alt_name" v="Nordre Skålgård" />
		<tag k="name" v="Nørdre Skålgard" />
		<tag k="place" v="farm" />
		<tag k="ssr:stedsnr" v="232833" />
	</node>
	<node id="9627062603" lat="62.12885" lon="8.7321195" version="1" timestamp="2022-03-31T17:11:14Z" changeset="119170451" uid="3497659" user="NKA">
		<tag k="name" v="Skartun" />
		<tag k="place" v="farm" />
		<tag k="ssr:stedsnr" v="171391" />
	</node>
	<node id="9627062604" lat="62.0938306" lon="9.048425" version="1" timestamp="2022-03-31T17:11:14Z" changeset="119170451" uid="3497659" user="NKA">
		<tag k="name" v="Neristuen Nørstebø" />
		<tag k="place" v="farm" />
		<tag k="ssr:stedsnr" v="111881" />
	</node>
	<node id="9627062605" lat="62.2378917" lon="8.2678" version="1" timestamp="2022-03-31T17:11:14Z" changeset="119170451" uid="3497659" user="NKA">
		<tag k="name" v="Voll" />
		<tag k="place" v="farm" />
		<tag k="ssr:stedsnr" v="11215" />
	</node>
	<node id="9627062606" lat="62.2385611" lon="8.3719944" version="1" timestamp="2022-03-31T17:11:14Z" changeset="119170451" uid="3497659" user="NKA">
		<tag k="name" v="Ner-Enstad" />
		<tag k="place" v="farm" />
		<tag k="ssr:stedsnr" v="292090" />
	</node>
	<node id="9627062607" lat="62.1134806" lon="8.8566362" version="1" timestamp="2022-03-31T17:11:14Z" changeset="119170451" uid="3497659" user="NKA">
		<tag k="name" v="Rydningen" />
		<tag k="place" v="farm" />
		<tag k="ssr:stedsnr" v="353647" />
	</node>
	<node id="9627062608" lat="62.2604805" lon="8.2297667" version="1" timestamp="2022-03-31T17:11:14Z" changeset="119170451" uid="3497659" user="NKA">
		<tag k="name" v="Skreda" />
		<tag k="place" v="farm" />
		<tag k="ssr:stedsnr" v="861290" />
	</node>
	<node id="9627062609" lat="62.2317833" lon="8.3623444" version="1" timestamp="2022-03-31T17:11:14Z" changeset="119170451" uid="3497659" user="NKA">
		<tag k="name" v="Haugen" />
		<tag k="place" v="farm" />
		<tag k="ssr:stedsnr" v="496842" />
	</node>
	<node id="9627062610" lat="62.1270379" lon="8.748384" version="1" timestamp="2022-03-31T17:11:14Z" changeset="119170451" uid="3497659" user="NKA">
		<tag k="name" v="Kloppadalen" />
		<tag k="place" v="farm" />
		<tag k="ssr:stedsnr" v="595371" />
	</node>
	<node id="9627062611" lat="62.1180704" lon="8.7583763" version="1" timestamp="2022-03-31T17:11:14Z" changeset="119170451" uid="3497659" user="NKA">
		<tag k="name" v="Lyftingmo" />
		<tag k="place" v="hamlet" />
		<tag k="ssr:stedsnr" v="984094" />
	</node>
	<node id="9627062612" lat="62.0969055" lon="8.9951111" version="1" timestamp="2022-03-31T17:11:14Z" changeset="119170451" uid="3497659" user="NKA">
		<tag k="name" v="Bottheimslykkja" />
		<tag k="place" v="farm" />
		<tag k="ssr:stedsnr" v="132630" />
	</node>
	<node id="9627062613" lat="62.191586" lon="8.5913766" version="1" timestamp="2022-03-31T17:11:14Z" changeset="119170451" uid="3497659" user="NKA">
		<tag k="name" v="Nygarden" />
		<tag k="place" v="farm" />
		<tag k="ssr:stedsnr" v="131819" />
	</node>
	<node id="9627062614" lat="62.2289861" lon="8.3310417" version="1" timestamp="2022-03-31T17:11:14Z" changeset="119170451" uid="3497659" user="NKA">
		<tag k="name" v="Øyholen" />
		<tag k="place" v="locality" />
		<tag k="ssr:stedsnr" v="172091" />
	</node>
	<node id="9627062615" lat="62.2710694" lon="8.1705972" version="1" timestamp="2022-03-31T17:11:14Z" changeset="119170451" uid="3497659" user="NKA">
		<tag k="alt_name" v="Nystuen" />
		<tag k="name" v="Nystugu" />
		<tag k="place" v="farm" />
		<tag k="ssr:stedsnr" v="739113" />
	</node>
	<node id="9627062616" lat="62.2392222" lon="8.2961473" version="1" timestamp="2022-03-31T17:11:14Z" changeset="119170451" uid="3497659" user="NKA">
		<tag k="name" v="Vegmillom" />
		<tag k="place" v="farm" />
		<tag k="ssr:stedsnr" v="921238" />
	</node>
	<node id="9627062617" lat="62.2487389" lon="8.8181472" version="1" timestamp="2022-03-31T17:11:14Z" changeset="119170451" uid="3497659" user="NKA">
		<tag k="historic" v="shieling" />
		<tag k="name" v="Sørhella" />
		<tag k="place" v="hamlet" />
		<tag k="ssr:stedsnr" v="678965" />
	</node>
	<node id="9627062618" lat="62.1264" lon="8.7796584" version="1" timestamp="2022-03-31T17:11:14Z" changeset="119170451" uid="3497659" user="NKA">
		<tag k="name" v="Timberbakken" />
		<tag k="place" v="isolated_dwelling" />
		<tag k="ssr:stedsnr" v="475715" />
	</node>
	<node id="9627062619" lat="62.2367611" lon="8.2783833" version="1" timestamp="2022-03-31T17:11:14Z" changeset="119170451" uid="3497659" user="NKA">
		<tag k="name" v="Rusten" />
		<tag k="place" v="farm" />
		<tag k="ssr:stedsnr" v="475096" />
	</node>
	<node id="9627062620" lat="62.2112672" lon="8.4709927" version="1" timestamp="2022-03-31T17:11:14Z" changeset="119170451" uid="3497659" user="NKA">
		<tag k="alt_name" v="Sørsletten" />
		<tag k="name" v="Sørsletti" />
		<tag k="place" v="farm" />
		<tag k="ssr:stedsnr" v="617835" />
	</node>
	<node id="9627062621" lat="62.1059916" lon="8.8714971" version="1" timestamp="2022-03-31T17:11:14Z" changeset="119170451" uid="3497659" user="NKA">
		<tag k="alt_name" v="Øygarden" />
		<tag k="name" v="Øygard" />
		<tag k="place" v="farm" />
		<tag k="ssr:stedsnr" v="496887" />
	</node>
	<node id="9627062622" lat="62.2389389" lon="8.3013999" version="1" timestamp="2022-03-31T17:11:14Z" changeset="119170451" uid="3497659" user="NKA">
		<tag k="alt_name" v="Søreinbu;Sørenebo nordre" />
		<tag k="name" v="Nørdre Søreinbu" />
		<tag k="place" v="farm" />
		<tag k="ssr:stedsnr" v="800229" />
	</node>
	<node id="9627062623" lat="62.0991635" lon="9.0152533" version="1" timestamp="2022-03-31T17:11:14Z" changeset="119170451" uid="3497659" user="NKA">
		<tag k="name" v="Brekka" />
		<tag k="place" v="farm" />
		<tag k="ssr:stedsnr" v="436597" />
	</node>
	<node id="9627062624" lat="62.0921083" lon="9.0317861" version="1" timestamp="2022-03-31T17:11:14Z" changeset="119170451" uid="3497659" user="NKA">
		<tag k="alt_name" v="Nordre Rolstad" />
		<tag k="name" v="Nørdre Rolstad" />
		<tag k="place" v="farm" />
		<tag k="ssr:stedsnr" v="845441" />
	</node>
	<node id="9627062625" lat="62.0919611" lon="9.0801999" version="1" timestamp="2022-03-31T17:11:14Z" changeset="119170451" uid="3497659" user="NKA">
		<tag k="loc_name" v="Lykkja" />
		<tag k="name" v="Løkken" />
		<tag k="place" v="farm" />
		<tag k="ssr:stedsnr" v="839768" />
	</node>
	<node id="9627062626" lat="62.2054222" lon="8.4930612" version="1" timestamp="2022-03-31T17:11:14Z" changeset="119170451" uid="3497659" user="NKA">
		<tag k="alt_name" v="Knipa;Knipa nordre" />
		<tag k="name" v="Nordre Knipa" />
		<tag k="place" v="farm" />
		<tag k="ssr:stedsnr" v="254796" />
	</node>
	<node id="9627062627" lat="62.1673167" lon="8.6542417" version="1" timestamp="2022-03-31T17:11:14Z" changeset="119170451" uid="3497659" user="NKA">
		<tag k="name" v="Fjellstad" />
		<tag k="place" v="farm" />
		<tag k="ssr:stedsnr" v="496796" />
	</node>
	<node id="9627062628" lat="62.1204486" lon="8.7390841" version="1" timestamp="2022-03-31T17:11:14Z" changeset="119170451" uid="3497659" user="NKA">
		<tag k="alt_name" v="Brenden" />
		<tag k="name" v="Brenna" />
		<tag k="place" v="farm" />
		<tag k="ssr:stedsnr" v="678858" />
	</node>
	<node id="9627062629" lat="62.1824122" lon="8.601256" version="1" timestamp="2022-03-31T17:11:14Z" changeset="119170451" uid="3497659" user="NKA">
		<tag k="alt_name" v="Sandom" />
		<tag k="name" v="Sandan" />
		<tag k="place" v="farm" />
		<tag k="ssr:stedsnr" v="617810" />
	</node>
	<node id="9627062630" lat="62.1063278" lon="8.7922695" version="1" timestamp="2022-03-31T17:11:14Z" changeset="119170451" uid="3497659" user="NKA">
		<tag k="name" v="Tynnøløygarden" />
		<tag k="place" v="locality" />
		<tag k="ssr:stedsnr" v="717654" />
	</node>
	<node id="9627062631" lat="62.2393972" lon="8.288625" version="1" timestamp="2022-03-31T17:11:14Z" changeset="119170451" uid="3497659" user="NKA">
		<tag k="name" v="Sy-Kvam" />
		<tag k="place" v="farm" />
		<tag k="ssr:stedsnr" v="596094" />
	</node>
	<node id="9627062632" lat="62.1972611" lon="8.542525" version="1" timestamp="2022-03-31T17:11:14Z" changeset="119170451" uid="3497659" user="NKA">
		<tag k="name" v="Anset" />
		<tag k="place" v="farm" />
		<tag k="ssr:stedsnr" v="920851" />
	</node>
	<node id="9627062633" lat="62.2143445" lon="8.3331444" version="1" timestamp="2022-03-31T17:11:14Z" changeset="119170451" uid="3497659" user="NKA">
		<tag k="alt_name" v="Grønvedsætre" />
		<tag k="historic" v="shieling" />
		<tag k="loc_name" v="Grønvesætre" />
		<tag k="name" v="Grønvesætri" />
		<tag k="place" v="isolated_dwelling" />
		<tag k="ssr:stedsnr" v="254846" />
	</node>
	<node id="9627062634" lat="62.2424556" lon="8.3176834" version="1" timestamp="2022-03-31T17:11:14Z" changeset="119170451" uid="3497659" user="NKA">
		<tag k="name" v="Holen" />
		<tag k="place" v="farm" />
		<tag k="ssr:stedsnr" v="678242" />
	</node>
	<node id="9627062635" lat="62.071925" lon="9.0633306" version="1" timestamp="2022-03-31T17:11:14Z" changeset="119170451" uid="3497659" user="NKA">
		<tag k="alt_name" v="Eiedet" />
		<tag k="name" v="Eidet" />
		<tag k="place" v="farm" />
		<tag k="ssr:stedsnr" v="253618" />
	</node>
	<node id="9627062636" lat="62.1142884" lon="8.9541897" version="1" timestamp="2022-03-31T17:11:14Z" changeset="119170451" uid="3497659" user="NKA">
		<tag k="name" v="Selsjord" />
		<tag k="place" v="farm" />
		<tag k="ssr:stedsnr" v="71906" />
	</node>
	<node id="9627062637" lat="62.090975" lon="9.0705306" version="1" timestamp="2022-03-31T17:11:14Z" changeset="119170451" uid="3497659" user="NKA">
		<tag k="loc_name" v="Søre Bakkelykkja" />
		<tag k="name" v="Søre Bakkeløkken" />
		<tag k="place" v="farm" />
		<tag k="ssr:stedsnr" v="717782" />
	</node>
	<node id="9627062638" lat="62.1222991" lon="8.8133502" version="1" timestamp="2022-03-31T17:11:14Z" changeset="119170451" uid="3497659" user="NKA">
		<tag k="name" v="Lia" />
		<tag k="place" v="hamlet" />
		<tag k="ssr:stedsnr" v="739925" />
	</node>
	<node id="9627062639" lat="62.0893575" lon="9.0960496" version="1" timestamp="2022-03-31T17:11:14Z" changeset="119170451" uid="3497659" user="NKA">
		<tag k="name" v="Joramo" />
		<tag k="place" v="quarter" />
		<tag k="ssr:stedsnr" v="71655" />
	</node>
	<node id="9627062640" lat="62.2373722" lon="8.2031529" version="1" timestamp="2022-03-31T17:11:14Z" changeset="119170451" uid="3497659" user="NKA">
		<tag k="name" v="Brekka" />
		<tag k="place" v="farm" />
		<tag k="ssr:stedsnr" v="556152" />
	</node>
	<node id="9627062641" lat="62.2457391" lon="8.2405148" version="1" timestamp="2022-03-31T17:11:14Z" changeset="119170451" uid="3497659" user="NKA">
		<tag k="alt_name" v="Morken" />
		<tag k="name" v="Morki" />
		<tag k="place" v="locality" />
		<tag k="ssr:stedsnr" v="1080704" />
	</node>
	<node id="9627062642" lat="62.2390723" lon="8.1731417" version="1" timestamp="2022-03-31T17:11:14Z" changeset="119170451" uid="3497659" user="NKA">
		<tag k="name" v="Lotten" />
		<tag k="place" v="farm" />
		<tag k="ssr:stedsnr" v="800119" />
	</node>
	<node id="9627062643" lat="62.163" lon="8.6502889" version="1" timestamp="2022-03-31T17:11:14Z" changeset="119170451" uid="3497659" user="NKA">
		<tag k="name" v="Lyngmo" />
		<tag k="place" v="farm" />
		<tag k="ssr:stedsnr" v="51710" />
	</node>
	<node id="9627062644" lat="62.0561639" lon="8.4004223" version="1" timestamp="2022-03-31T17:11:14Z" changeset="119170451" uid="3497659" user="NKA">
		<tag k="name" v="Tøma" />
		<tag k="place" v="locality" />
		<tag k="ssr:stedsnr" v="314961" />
	</node>
	<node id="9627062645" lat="62.1160303" lon="8.8669735" version="1" timestamp="2022-03-31T17:11:14Z" changeset="119170451" uid="3497659" user="NKA">
		<tag k="name" v="Store Tande" />
		<tag k="place" v="farm" />
		<tag k="ssr:stedsnr" v="353524" />
	</node>
	<node id="9627062646" lat="62.10195" lon="8.8512862" version="1" timestamp="2022-03-31T17:11:14Z" changeset="119170451" uid="3497659" user="NKA">
		<tag k="name" v="Sjåheim" />
		<tag k="place" v="farm" />
		<tag k="ssr:stedsnr" v="254897" />
	</node>
	<node id="9627062647" lat="62.0829778" lon="9.0548667" version="1" timestamp="2022-03-31T17:11:14Z" changeset="119170451" uid="3497659" user="NKA">
		<tag k="name" v="Evjen" />
		<tag k="place" v="farm" />
		<tag k="ssr:stedsnr" v="232779" />
	</node>
	<node id="9627062648" lat="62.0974889" lon="8.9601055" version="1" timestamp="2022-03-31T17:11:14Z" changeset="119170451" uid="3497659" user="NKA">
		<tag k="name" v="Farheim" />
		<tag k="place" v="farm" />
		<tag k="ssr:stedsnr" v="50949" />
	</node>
	<node id="9627062649" lat="62.0985222" lon="8.9998528" version="1" timestamp="2022-03-31T17:11:14Z" changeset="119170451" uid="3497659" user="NKA">
		<tag k="name" v="Bruhaugen" />
		<tag k="place" v="farm" />
		<tag k="ssr:stedsnr" v="716878" />
	</node>
	<node id="9627062650" lat="62.1301744" lon="8.6798161" version="1" timestamp="2022-03-31T17:11:14Z" changeset="119170451" uid="3497659" user="NKA">
		<tag k="name" v="Kjørkjesbakken" />
		<tag k="place" v="farm" />
		<tag k="ssr:stedsnr" v="171406" />
	</node>
	<node id="9627062651" lat="62.2437111" lon="8.4150083" version="1" timestamp="2022-03-31T17:11:14Z" changeset="119170451" uid="3497659" user="NKA">
		<tag k="alt_name" v="Sætromsætre" />
		<tag k="historic" v="shieling" />
		<tag k="loc_name" v="Sætersætre" />
		<tag k="name" v="Sætresætri" />
		<tag k="place" v="isolated_dwelling" />
		<tag k="ssr:stedsnr" v="374876" />
	</node>
	<node id="9627062652" lat="62.190722" lon="9.1849651" version="1" timestamp="2022-03-31T17:11:14Z" changeset="119170451" uid="3497659" user="NKA">
		<tag k="name" v="Korpestugu" />
		<tag k="place" v="locality" />
		<tag k="ssr:stedsnr" v="10962" />
	</node>
	<node id="9627062653" lat="62.1262306" lon="8.7666445" version="1" timestamp="2022-03-31T17:11:14Z" changeset="119170451" uid="3497659" user="NKA">
		<tag k="name" v="Åsheim" />
		<tag k="place" v="farm" />
		<tag k="ssr:stedsnr" v="496931" />
	</node>
	<node id="9627062654" lat="62.1008836" lon="8.9997884" version="1" timestamp="2022-03-31T17:11:14Z" changeset="119170451" uid="3497659" user="NKA">
		<tag k="name" v="Nerigard Bottem" />
		<tag k="place" v="farm" />
		<tag k="ssr:stedsnr" v="474888" />
	</node>
	<node id="9627062655" lat="62.1187372" lon="8.8266061" version="1" timestamp="2022-03-31T17:11:14Z" changeset="119170451" uid="3497659" user="NKA">
		<tag k="alt_name" v="Hole" />
		<tag k="name" v="Nord-Hole" />
		<tag k="place" v="farm" />
		<tag k="ssr:stedsnr" v="496873" />
	</node>
	<node id="9627062656" lat="62.1187195" lon="8.788739" version="1" timestamp="2022-03-31T17:11:14Z" changeset="119170451" uid="3497659" user="NKA">
		<tag k="name" v="Åndsetdalen" />
		<tag k="place" v="locality" />
		<tag k="ssr:stedsnr" v="596628" />
	</node>
	<node id="9627062657" lat="62.1301417" lon="8.7391499" version="1" timestamp="2022-03-31T17:11:14Z" changeset="119170451" uid="3497659" user="NKA">
		<tag k="name" v="Heggeruste" />
		<tag k="place" v="locality" />
		<tag k="ssr:stedsnr" v="414383" />
	</node>
	<node id="9627062658" lat="62.1031555" lon="9.0051944" version="1" timestamp="2022-03-31T17:11:14Z" changeset="119170451" uid="3497659" user="NKA">
		<tag k="name" v="Rise" />
		<tag k="place" v="farm" />
		<tag k="ssr:stedsnr" v="193618" />
	</node>
	<node id="9627062659" lat="62.1750258" lon="8.6311171" version="1" timestamp="2022-03-31T17:11:14Z" changeset="119170451" uid="3497659" user="NKA">
		<tag k="name" v="Mosendsletten" />
		<tag k="place" v="farm" />
		<tag k="ssr:stedsnr" v="719656" />
	</node>
	<node id="9627062660" lat="62.20945" lon="8.482275" version="1" timestamp="2022-03-31T17:11:14Z" changeset="119170451" uid="3497659" user="NKA">
		<tag k="name" v="Søre Plassen" />
		<tag k="place" v="farm" />
		<tag k="ssr:stedsnr" v="172464" />
	</node>
	<node id="9627062661" lat="62.1247973" lon="8.7828678" version="1" timestamp="2022-03-31T17:11:14Z" changeset="119170451" uid="3497659" user="NKA">
		<tag k="alt_name" v="Oderlykkja" />
		<tag k="name" v="Olderlykkja" />
		<tag k="place" v="farm" />
		<tag k="ssr:stedsnr" v="678916" />
	</node>
	<node id="9627062662" lat="62.2800762" lon="8.1492403" version="1" timestamp="2022-03-31T17:11:14Z" changeset="119170451" uid="3497659" user="NKA">
		<tag k="alt_name" v="Stuguflotten" />
		<tag k="name" v="Stuguflåten" />
		<tag k="place" v="farm" />
		<tag k="ssr:stedsnr" v="921137" />
	</node>
	<node id="9627062663" lat="62.0861806" lon="9.0224584" version="1" timestamp="2022-03-31T17:11:14Z" changeset="119170451" uid="3497659" user="NKA">
		<tag k="name" v="Veslhaugen" />
		<tag k="place" v="farm" />
		<tag k="ssr:stedsnr" v="617611" />
	</node>
	<node id="9627062664" lat="62.1445584" lon="8.691339" version="1" timestamp="2022-03-31T17:11:14Z" changeset="119170451" uid="3497659" user="NKA">
		<tag k="loc_name" v="Nylykkja" />
		<tag k="name" v="Nyløkken" />
		<tag k="place" v="farm" />
		<tag k="ssr:stedsnr" v="656546" />
	</node>
	<node id="9627062665" lat="62.2395111" lon="8.1997555" version="1" timestamp="2022-03-31T17:11:14Z" changeset="119170451" uid="3497659" user="NKA">
		<tag k="name" v="Rånåbrekka" />
		<tag k="place" v="farm" />
		<tag k="ssr:stedsnr" v="111160" />
	</node>
	<node id="9627062666" lat="62.2368167" lon="8.2928834" version="1" timestamp="2022-03-31T17:11:14Z" changeset="119170451" uid="3497659" user="NKA">
		<tag k="name" v="Svensrud" />
		<tag k="place" v="farm" />
		<tag k="ssr:stedsnr" v="475094" />
	</node>
	<node id="9627062667" lat="62.1569382" lon="8.6702788" version="1" timestamp="2022-03-31T17:11:14Z" changeset="119170451" uid="3497659" user="NKA">
		<tag k="alt_name" v="Kjellshus;Kjelshus nordre" />
		<tag k="name" v="Nordre Kjellshus" />
		<tag k="place" v="farm" />
		<tag k="ssr:stedsnr" v="921802" />
	</node>
	<node id="9627062668" lat="62.1359167" lon="8.6992472" version="1" timestamp="2022-03-31T17:11:14Z" changeset="119170451" uid="3497659" user="NKA">
		<tag k="alt_name" v="Bjøkne" />
		<tag k="name" v="Nedre nordre Bjøkne" />
		<tag k="old_name" v="Nedre Bjøkne;Bjørkne" />
		<tag k="place" v="farm" />
		<tag k="ssr:stedsnr" v="587443" />
	</node>
	<node id="9627062669" lat="62.2241702" lon="8.4354985" version="1" timestamp="2022-03-31T17:11:14Z" changeset="119170451" uid="3497659" user="NKA">
		<tag k="alt_name" v="Merrasletten" />
		<tag k="name" v="Merrasletti" />
		<tag k="place" v="farm" />
		<tag k="ssr:stedsnr" v="800853" />
	</node>
	<node id="9627062670" lat="62.2382333" lon="8.2597389" version="1" timestamp="2022-03-31T17:11:14Z" changeset="119170451" uid="3497659" user="NKA">
		<tag k="name" v="Øygarden" />
		<tag k="place" v="farm" />
		<tag k="ssr:stedsnr" v="860257" />
	</node>
	<node id="9627062671" lat="62.1299916" lon="8.7124111" version="1" timestamp="2022-03-31T17:11:14Z" changeset="119170451" uid="3497659" user="NKA">
		<tag k="alt_name" v="Kjønnrud" />
		<tag k="name" v="Tjørnrud" />
		<tag k="place" v="farm" />
		<tag k="ssr:stedsnr" v="921761" />
	</node>
	<node id="9627062672" lat="62.0944611" lon="9.0390695" version="1" timestamp="2022-03-31T17:11:14Z" changeset="119170451" uid="3497659" user="NKA">
		<tag k="name" v="Kullungstad" />
		<tag k="place" v="farm" />
		<tag k="ssr:stedsnr" v="617610" />
	</node>
	<node id="9627062673" lat="62.1367167" lon="8.7071139" version="1" timestamp="2022-03-31T17:11:14Z" changeset="119170451" uid="3497659" user="NKA">
		<tag k="name" v="Rognerud" />
		<tag k="place" v="farm" />
		<tag k="ssr:stedsnr" v="132756" />
	</node>
	<node id="9627062674" lat="62.1212083" lon="8.7840556" version="1" timestamp="2022-03-31T17:11:14Z" changeset="119170451" uid="3497659" user="NKA">
		<tag k="name" v="Stugun" />
		<tag k="place" v="farm" />
		<tag k="ssr:stedsnr" v="899666" />
	</node>
	<node id="9627062675" lat="62.1675688" lon="8.6444559" version="1" timestamp="2022-03-31T17:11:14Z" changeset="119170451" uid="3497659" user="NKA">
		<tag k="name" v="Nordre Leirmo" />
		<tag k="place" v="farm" />
		<tag k="ssr:stedsnr" v="476682" />
	</node>
	<node id="9627062676" lat="62.1109417" lon="8.9773084" version="1" timestamp="2022-03-31T17:11:14Z" changeset="119170451" uid="3497659" user="NKA">
		<tag k="name" v="Håkåstadlykkja" />
		<tag k="place" v="farm" />
		<tag k="ssr:stedsnr" v="678892" />
	</node>
	<node id="9627062677" lat="62.0932584" lon="9.0588084" version="1" timestamp="2022-03-31T17:11:14Z" changeset="119170451" uid="3497659" user="NKA">
		<tag k="alt_name" v="Synstbø søre" />
		<tag k="name" v="Søre Synstbø" />
		<tag k="place" v="farm" />
		<tag k="ssr:stedsnr" v="845464" />
	</node>
	<node id="9627062678" lat="62.2318361" lon="8.3497278" version="1" timestamp="2022-03-31T17:11:14Z" changeset="119170451" uid="3497659" user="NKA">
		<tag k="alt_name" v="Mølmen" />
		<tag k="name" v="Mølme" />
		<tag k="place" v="farm" />
		<tag k="ssr:stedsnr" v="617853" />
	</node>
	<node id="9627062679" lat="62.104875" lon="8.5990944" version="1" timestamp="2022-03-31T17:11:14Z" changeset="119170451" uid="3497659" user="NKA">
		<tag k="alt_name" v="Sausætre" />
		<tag k="name" v="Sausæter" />
		<tag k="place" v="hamlet" />
		<tag k="ssr:stedsnr" v="436763" />
	</node>
	<node id="9627062680" lat="62.1347806" lon="8.7096833" version="1" timestamp="2022-03-31T17:11:14Z" changeset="119170451" uid="3497659" user="NKA">
		<tag k="loc_name" v="Søre Bjøknelykkja" />
		<tag k="name" v="Løkken" />
		<tag k="place" v="farm" />
		<tag k="ssr:stedsnr" v="656424" />
	</node>
	<node id="9627062681" lat="62.1118" lon="8.6945749" version="1" timestamp="2022-03-31T17:11:14Z" changeset="119170451" uid="3497659" user="NKA">
		<tag k="name" v="Grønkjelda" />
		<tag k="place" v="farm" />
		<tag k="ssr:stedsnr" v="557757" />
	</node>
	<node id="9627062682" lat="62.2655916" lon="8.2926583" version="1" timestamp="2022-03-31T17:11:14Z" changeset="119170451" uid="3497659" user="NKA">
		<tag k="name" v="Åmillom" />
		<tag k="place" v="locality" />
		<tag k="ssr:stedsnr" v="254281" />
	</node>
	<node id="9627062683" lat="62.1174573" lon="8.8213267" version="1" timestamp="2022-03-31T17:11:14Z" changeset="119170451" uid="3497659" user="NKA">
		<tag k="name" v="Belle" />
		<tag k="place" v="farm" />
		<tag k="ssr:stedsnr" v="71902" />
	</node>
	<node id="9627062684" lat="62.2378778" lon="8.3589333" version="1" timestamp="2022-03-31T17:11:14Z" changeset="119170451" uid="3497659" user="NKA">
		<tag k="alt_name" v="Ensrud" />
		<tag k="name" v="Einsrud" />
		<tag k="place" v="farm" />
		<tag k="ssr:stedsnr" v="556256" />
	</node>
	<node id="9627062685" lat="62.2390805" lon="8.1471666" version="1" timestamp="2022-03-31T17:11:14Z" changeset="119170451" uid="3497659" user="NKA">
		<tag k="name" v="Kvenngarden" />
		<tag k="place" v="farm" />
		<tag k="ssr:stedsnr" v="717145" />
	</node>
	<node id="9627062686" lat="62.105975" lon="8.7896611" version="1" timestamp="2022-03-31T17:11:14Z" changeset="119170451" uid="3497659" user="NKA">
		<tag k="name" v="Grindstuguøygarden" />
		<tag k="old_name" v="Gringstuguøygarden" />
		<tag k="place" v="locality" />
		<tag k="ssr:stedsnr" v="535645" />
	</node>
	<node id="9627062687" lat="62.0886389" lon="9.0983084" version="1" timestamp="2022-03-31T17:11:14Z" changeset="119170451" uid="3497659" user="NKA">
		<tag k="name" v="Jorabakken" />
		<tag k="place" v="isolated_dwelling" />
		<tag k="ssr:stedsnr" v="292792" />
	</node>
	<node id="9627062688" lat="62.2685984" lon="8.2123727" version="1" timestamp="2022-03-31T17:11:14Z" changeset="119170451" uid="3497659" user="NKA">
		<tag k="name" v="Bjorli" />
		<tag k="place" v="farm" />
		<tag k="ssr:stedsnr" v="253178" />
	</node>
	<node id="9627062689" lat="62.121675" lon="8.7449166" version="1" timestamp="2022-03-31T17:11:14Z" changeset="119170451" uid="3497659" user="NKA">
		<tag k="name" v="Storhaug" />
		<tag k="place" v="farm" />
		<tag k="ssr:stedsnr" v="717409" />
	</node>
	<node id="9627062690" lat="62.0980556" lon="8.9378473" version="1" timestamp="2022-03-31T17:11:14Z" changeset="119170451" uid="3497659" user="NKA">
		<tag k="name" v="Nordre Bøhaug" />
		<tag k="place" v="farm" />
		<tag k="ssr:stedsnr" v="960943" />
	</node>
	<node id="9627062691" lat="62.1323823" lon="8.7124532" version="1" timestamp="2022-03-31T17:11:14Z" changeset="119170451" uid="3497659" user="NKA">
		<tag k="name" v="Holen" />
		<tag k="place" v="farm" />
		<tag k="ssr:stedsnr" v="50394" />
	</node>
	<node id="9627062692" lat="62.2137772" lon="8.4625733" version="1" timestamp="2022-03-31T17:11:14Z" changeset="119170451" uid="3497659" user="NKA">
		<tag k="alt_name" v="Nordsletten" />
		<tag k="name" v="Nordsletti" />
		<tag k="place" v="farm" />
		<tag k="ssr:stedsnr" v="496822" />
	</node>
	<node id="9627062693" lat="62.1182222" lon="8.8422805" version="1" timestamp="2022-03-31T17:11:14Z" changeset="119170451" uid="3497659" user="NKA">
		<tag k="name" v="Blakar" />
		<tag k="place" v="farm" />
		<tag k="ssr:stedsnr" v="536747" />
	</node>
	<node id="9627062694" lat="62.2167494" lon="8.4551157" version="1" timestamp="2022-03-31T17:11:14Z" changeset="119170451" uid="3497659" user="NKA">
		<tag k="name" v="Berget" />
		<tag k="place" v="farm" />
		<tag k="ssr:stedsnr" v="254810" />
	</node>
	<node id="9627062695" lat="62.1069192" lon="8.9825505" version="1" timestamp="2022-03-31T17:11:14Z" changeset="119170451" uid="3497659" user="NKA">
		<tag k="name" v="Hådi" />
		<tag k="place" v="farm" />
		<tag k="ssr:stedsnr" v="314879" />
	</node>
	<node id="9627062696" lat="62.1552889" lon="8.6749111" version="1" timestamp="2022-03-31T17:11:14Z" changeset="119170451" uid="3497659" user="NKA">
		<tag k="name" v="Nøysom" />
		<tag k="old_name" v="Nølsom" />
		<tag k="place" v="farm" />
		<tag k="ssr:stedsnr" v="657546" />
	</node>
	<node id="9627062697" lat="62.0847111" lon="9.0484945" version="1" timestamp="2022-03-31T17:11:14Z" changeset="119170451" uid="3497659" user="NKA">
		<tag k="name" v="Mariplassen" />
		<tag k="place" v="farm" />
		<tag k="ssr:stedsnr" v="71647" />
	</node>
	<node id="9627062698" lat="62.149275" lon="8.6835612" version="1" timestamp="2022-03-31T17:11:14Z" changeset="119170451" uid="3497659" user="NKA">
		<tag k="name" v="Nordre Haugen" />
		<tag k="place" v="farm" />
		<tag k="ssr:stedsnr" v="171551" />
	</node>
	<node id="9627062699" lat="62.1183" lon="8.6067279" version="1" timestamp="2022-03-31T17:11:14Z" changeset="119170451" uid="3497659" user="NKA">
		<tag k="alt_name" v="Haukruste" />
		<tag k="historic" v="shieling" />
		<tag k="name" v="Haukrusti" />
		<tag k="place" v="isolated_dwelling" />
		<tag k="ssr:stedsnr" v="11760" />
	</node>
	<node id="9627062700" lat="62.1961334" lon="8.5265278" version="1" timestamp="2022-03-31T17:11:14Z" changeset="119170451" uid="3497659" user="NKA">
		<tag k="name" v="Steinsrud" />
		<tag k="place" v="farm" />
		<tag k="ssr:stedsnr" v="860864" />
	</node>
	<node id="9627062701" lat="62.0934551" lon="9.0513095" version="1" timestamp="2022-03-31T17:11:14Z" changeset="119170451" uid="3497659" user="NKA">
		<tag k="alt_name" v="Sørumgård" />
		<tag k="name" v="Sørunggard" />
		<tag k="place" v="farm" />
		<tag k="ssr:stedsnr" v="617625" />
	</node>
	<node id="9627062702" lat="62.2204278" lon="8.3967057" version="1" timestamp="2022-03-31T17:11:14Z" changeset="119170451" uid="3497659" user="NKA">
		<tag k="alt_name" v="Bjølverudsætre" />
		<tag k="historic" v="shieling" />
		<tag k="name" v="Bjølverudsætri" />
		<tag k="place" v="isolated_dwelling" />
		<tag k="ssr:stedsnr" v="193866" />
	</node>
	<node id="9627062703" lat="62.1190859" lon="8.8873568" version="1" timestamp="2022-03-31T17:11:14Z" changeset="119170451" uid="3497659" user="NKA">
		<tag k="name" v="Holsbrekken" />
		<tag k="place" v="farm" />
		<tag k="ssr:stedsnr" v="596956" />
	</node>
	<node id="9627062704" lat="62.1253815" lon="8.7325636" version="1" timestamp="2022-03-31T17:11:14Z" changeset="119170451" uid="3497659" user="NKA">
		<tag k="name" v="Tordhol" />
		<tag k="place" v="farm" />
		<tag k="ssr:stedsnr" v="414392" />
	</node>
	<node id="9627062705" lat="62.1995784" lon="8.521952" version="1" timestamp="2022-03-31T17:11:14Z" changeset="119170451" uid="3497659" user="NKA">
		<tag k="name" v="Doset" />
		<tag k="place" v="hamlet" />
		<tag k="ssr:stedsnr" v="738859" />
	</node>
	<node id="9627062706" lat="62.1624339" lon="8.6568182" version="1" timestamp="2022-03-31T17:11:14Z" changeset="119170451" uid="3497659" user="NKA">
		<tag k="loc_name" v="Vesl-Rise" />
		<tag k="name" v="Lille Rise" />
		<tag k="place" v="farm" />
		<tag k="ssr:stedsnr" v="718666" />
	</node>
	<node id="9627062707" lat="62.1402528" lon="8.702014" version="1" timestamp="2022-03-31T17:11:14Z" changeset="119170451" uid="3497659" user="NKA">
		<tag k="name" v="Torelykkja" />
		<tag k="place" v="farm" />
		<tag k="ssr:stedsnr" v="778517" />
	</node>
	<node id="9627062708" lat="62.2404722" lon="8.2841473" version="1" timestamp="2022-03-31T17:11:14Z" changeset="119170451" uid="3497659" user="NKA">
		<tag k="alt_name" v="Kvam" />
		<tag k="name" v="Uppistugu Kvam" />
		<tag k="place" v="farm" />
		<tag k="ssr:stedsnr" v="800227" />
	</node>
	<node id="9627062709" lat="62.1045945" lon="8.9246945" version="1" timestamp="2022-03-31T17:11:14Z" changeset="119170451" uid="3497659" user="NKA">
		<tag k="alt_name" v="Kårbøsæter" />
		<tag k="name" v="Kårbøsætri" />
		<tag k="place" v="farm" />
		<tag k="ssr:stedsnr" v="739879" />
	</node>
	<node id="9627062710" lat="62.1001889" lon="8.9336556" version="1" timestamp="2022-03-31T17:11:14Z" changeset="119170451" uid="3497659" user="NKA">
		<tag k="name" v="Torstad" />
		<tag k="place" v="farm" />
		<tag k="ssr:stedsnr" v="739630" />
	</node>
	<node id="9627062711" lat="62.0929639" lon="9.0165305" version="1" timestamp="2022-03-31T17:11:14Z" changeset="119170451" uid="3497659" user="NKA">
		<tag k="name" v="Nordre Tråsdal" />
		<tag k="place" v="farm" />
		<tag k="ssr:stedsnr" v="352875" />
	</node>
	<node id="9627062712" lat="62.1595639" lon="8.6196584" version="1" timestamp="2022-03-31T17:11:14Z" changeset="119170451" uid="3497659" user="NKA">
		<tag k="name" v="Motterudkoia" />
		<tag k="place" v="locality" />
		<tag k="ssr:stedsnr" v="597334" />
	</node>
	<node id="9627062713" lat="62.1041556" lon="8.985625" version="1" timestamp="2022-03-31T17:11:14Z" changeset="119170451" uid="3497659" user="NKA">
		<tag k="name" v="Nedre Nyjordet" />
		<tag k="place" v="farm" />
		<tag k="ssr:stedsnr" v="596986" />
	</node>
	<node id="9627062714" lat="62.2370889" lon="8.3647056" version="1" timestamp="2022-03-31T17:11:14Z" changeset="119170451" uid="3497659" user="NKA">
		<tag k="name" v="Nistugu Enstad" />
		<tag k="place" v="farm" />
		<tag k="ssr:stedsnr" v="899117" />
	</node>
	<node id="9627062715" lat="62.2353416" lon="8.3861694" version="1" timestamp="2022-03-31T17:11:14Z" changeset="119170451" uid="3497659" user="NKA">
		<tag k="name" v="Sør-Slettum" />
		<tag k="place" v="farm" />
		<tag k="ssr:stedsnr" v="779468" />
	</node>
	<node id="9627062716" lat="62.1035334" lon="8.8661333" version="1" timestamp="2022-03-31T17:11:14Z" changeset="119170451" uid="3497659" user="NKA">
		<tag k="name" v="Furuheim" />
		<tag k="place" v="farm" />
		<tag k="ssr:stedsnr" v="921642" />
	</node>
	<node id="9627062717" lat="62.1242529" lon="8.7341543" version="1" timestamp="2022-03-31T17:11:14Z" changeset="119170451" uid="3497659" user="NKA">
		<tag k="name" v="Brennjord" />
		<tag k="place" v="farm" />
		<tag k="ssr:stedsnr" v="253934" />
	</node>
	<node id="9627062718" lat="62.1997695" lon="8.5257194" version="1" timestamp="2022-03-31T17:11:14Z" changeset="119170451" uid="3497659" user="NKA">
		<tag k="name" v="Søristugu" />
		<tag k="place" v="farm" />
		<tag k="ssr:stedsnr" v="474326" />
	</node>
	<node id="9627062719" lat="62.1680235" lon="8.6640179" version="1" timestamp="2022-03-31T17:11:14Z" changeset="119170451" uid="3497659" user="NKA">
		<tag k="name" v="Sæterjordet" />
		<tag k="place" v="locality" />
		<tag k="ssr:stedsnr" v="556793" />
	</node>
	<node id="9627062720" lat="62.1365444" lon="8.7647417" version="1" timestamp="2022-03-31T17:11:14Z" changeset="119170451" uid="3497659" user="NKA">
		<tag k="alt_name" v="Plassætre" />
		<tag k="historic" v="shieling" />
		<tag k="name" v="Plassætri" />
		<tag k="place" v="isolated_dwelling" />
		<tag k="ssr:stedsnr" v="678909" />
	</node>
	<node id="9627062721" lat="62.0805694" lon="8.8969444" version="1" timestamp="2022-03-31T17:11:14Z" changeset="119170451" uid="3497659" user="NKA">
		<tag k="name" v="Lurvestugu" />
		<tag k="place" v="isolated_dwelling" />
		<tag k="ssr:stedsnr" v="50986" />
	</node>
	<node id="9627062722" lat="62.1432695" lon="8.702161" version="1" timestamp="2022-03-31T17:11:14Z" changeset="119170451" uid="3497659" user="NKA">
		<tag k="name" v="Steinlykkja" />
		<tag k="place" v="locality" />
		<tag k="ssr:stedsnr" v="656538" />
	</node>
	<node id="9627062723" lat="62.2380742" lon="8.1557512" version="1" timestamp="2022-03-31T17:11:14Z" changeset="119170451" uid="3497659" user="NKA">
		<tag k="alt_name" v="Rånå" />
		<tag k="name" v="Nordre Nigard" />
		<tag k="place" v="farm" />
		<tag k="ssr:stedsnr" v="678139" />
	</node>
	<node id="9627062724" lat="62.2380417" lon="8.2017639" version="1" timestamp="2022-03-31T17:11:14Z" changeset="119170451" uid="3497659" user="NKA">
		<tag k="name" v="Furulund" />
		<tag k="place" v="farm" />
		<tag k="ssr:stedsnr" v="50175" />
	</node>
	<node id="9627062725" lat="62.1032916" lon="8.9219695" version="1" timestamp="2022-03-31T17:11:14Z" changeset="119170451" uid="3497659" user="NKA">
		<tag k="alt_name" v="Drågen" />
		<tag k="name" v="Silihågan" />
		<tag k="place" v="farm" />
		<tag k="ssr:stedsnr" v="375594" />
	</node>
	<node id="9627062726" lat="62.1174242" lon="8.9216962" version="1" timestamp="2022-03-31T17:11:14Z" changeset="119170451" uid="3497659" user="NKA">
		<tag k="alt_name" v="Silli" />
		<tag k="name" v="Sili" />
		<tag k="place" v="farm" />
		<tag k="ssr:stedsnr" v="617892" />
	</node>
	<node id="9627062727" lat="62.2318528" lon="8.4194279" version="1" timestamp="2022-03-31T17:11:14Z" changeset="119170451" uid="3497659" user="NKA">
		<tag k="name" v="Kvean" />
		<tag k="place" v="isolated_dwelling" />
		<tag k="ssr:stedsnr" v="253862" />
	</node>
	<node id="9627062728" lat="62.1176833" lon="8.8720278" version="1" timestamp="2022-03-31T17:11:14Z" changeset="119170451" uid="3497659" user="NKA">
		<tag k="name" v="Vetle Tande" />
		<tag k="place" v="farm" />
		<tag k="ssr:stedsnr" v="718539" />
	</node>
	<node id="9627062729" lat="62.1416151" lon="8.6931334" version="1" timestamp="2022-03-31T17:11:14Z" changeset="119170451" uid="3497659" user="NKA">
		<tag k="name" v="Hoset" />
		<tag k="place" v="farm" />
		<tag k="ssr:stedsnr" v="860791" />
	</node>
	<node id="9627062730" lat="62.1955472" lon="8.3135167" version="1" timestamp="2022-03-31T17:11:14Z" changeset="119170451" uid="3497659" user="NKA">
		<tag k="alt_name" v="Sykvamsætre" />
		<tag k="historic" v="shieling" />
		<tag k="name" v="Kvamsætri" />
		<tag k="place" v="isolated_dwelling" />
		<tag k="ssr:stedsnr" v="556854" />
	</node>
	<node id="9627062731" lat="62.1095984" lon="8.8537091" version="1" timestamp="2022-03-31T17:11:14Z" changeset="119170451" uid="3497659" user="NKA">
		<tag k="name" v="Hov" />
		<tag k="place" v="farm" />
		<tag k="ssr:stedsnr" v="193894" />
	</node>
	<node id="9627062732" lat="62.2334111" lon="8.2228723" version="1" timestamp="2022-03-31T17:11:14Z" changeset="119170451" uid="3497659" user="NKA">
		<tag k="name" v="Grasflatlykkja" />
		<tag k="place" v="locality" />
		<tag k="ssr:stedsnr" v="717172" />
	</node>
	<node id="9627062733" lat="62.2392769" lon="8.2460626" version="1" timestamp="2022-03-31T17:11:14Z" changeset="119170451" uid="3497659" user="NKA">
		<tag k="name" v="Kjønnsletten" />
		<tag k="place" v="farm" />
		<tag k="ssr:stedsnr" v="657158" />
	</node>
	<node id="9627062734" lat="62.0899433" lon="9.0864456" version="1" timestamp="2022-03-31T17:11:14Z" changeset="119170451" uid="3497659" user="NKA">
		<tag k="name" v="Jonsgard" />
		<tag k="place" v="locality" />
		<tag k="ssr:stedsnr" v="50729" />
	</node>
	<node id="9627062735" lat="62.1165851" lon="8.8903105" version="1" timestamp="2022-03-31T17:11:14Z" changeset="119170451" uid="3497659" user="NKA">
		<tag k="alt_name" v="Flagestad" />
		<tag k="name" v="Flågåstad" />
		<tag k="place" v="farm" />
		<tag k="ssr:stedsnr" v="800875" />
	</node>
	<node id="9627062736" lat="62.1882639" lon="8.6217416" version="1" timestamp="2022-03-31T17:11:14Z" changeset="119170451" uid="3497659" user="NKA">
		<tag k="name" v="Flatruste" />
		<tag k="place" v="locality" />
		<tag k="ssr:stedsnr" v="111469" />
	</node>
	<node id="9627062737" lat="62.2334667" lon="8.3369945" version="1" timestamp="2022-03-31T17:11:14Z" changeset="119170451" uid="3497659" user="NKA">
		<tag k="name" v="Krossom" />
		<tag k="place" v="locality" />
		<tag k="ssr:stedsnr" v="292070" />
	</node>
	<node id="9627062738" lat="62.094125" lon="9.0428778" version="1" timestamp="2022-03-31T17:11:14Z" changeset="119170451" uid="3497659" user="NKA">
		<tag k="loc_name" v="Nørdstebø" />
		<tag k="name" v="Nørstebø" />
		<tag k="place" v="farm" />
		<tag k="ssr:stedsnr" v="496626" />
	</node>
	<node id="9627062739" lat="62.22015" lon="8.3854027" version="1" timestamp="2022-03-31T17:11:14Z" changeset="119170451" uid="3497659" user="NKA">
		<tag k="alt_name" v="Øygardssætre" />
		<tag k="historic" v="shieling" />
		<tag k="name" v="Øygardsætri" />
		<tag k="place" v="isolated_dwelling" />
		<tag k="ssr:stedsnr" v="557864" />
	</node>
	<node id="9627062740" lat="62.1204667" lon="8.8990306" version="1" timestamp="2022-03-31T17:11:14Z" changeset="119170451" uid="3497659" user="NKA">
		<tag k="name" v="Bakken" />
		<tag k="place" v="farm" />
		<tag k="ssr:stedsnr" v="414943" />
	</node>
	<node id="9627062741" lat="62.0931473" lon="9.0886501" version="1" timestamp="2022-03-31T17:11:14Z" changeset="119170451" uid="3497659" user="NKA">
		<tag k="name" v="Jonsrud" />
		<tag k="place" v="farm" />
		<tag k="ssr:stedsnr" v="132626" />
	</node>
	<node id="9627062742" lat="62.2377805" lon="8.2637779" version="1" timestamp="2022-03-31T17:11:14Z" changeset="119170451" uid="3497659" user="NKA">
		<tag k="name" v="Grind" />
		<tag k="place" v="farm" />
		<tag k="ssr:stedsnr" v="293081" />
	</node>
	<node id="9627062743" lat="62.118275" lon="8.8284111" version="1" timestamp="2022-03-31T17:11:14Z" changeset="119170451" uid="3497659" user="NKA">
		<tag k="name" v="Søre Hole" />
		<tag k="place" v="farm" />
		<tag k="ssr:stedsnr" v="657702" />
	</node>
	<node id="9627062744" lat="62.2469806" lon="8.570125" version="1" timestamp="2022-03-31T17:11:14Z" changeset="119170451" uid="3497659" user="NKA">
		<tag k="historic" v="shieling" />
		<tag k="loc_name" v="Merrabottsætre" />
		<tag k="name" v="Merrabottsætri" />
		<tag k="place" v="isolated_dwelling" />
		<tag k="ssr:stedsnr" v="71884" />
	</node>
	<node id="9627062745" lat="62.0894305" lon="8.5229306" version="1" timestamp="2022-03-31T17:11:14Z" changeset="119170451" uid="3497659" user="NKA">
		<tag k="alt_name" v="Ruste" />
		<tag k="historic" v="shieling" />
		<tag k="name" v="Rusti" />
		<tag k="place" v="isolated_dwelling" />
		<tag k="ssr:stedsnr" v="193766" />
	</node>
	<node id="9627062746" lat="62.1388081" lon="8.6979532" version="1" timestamp="2022-03-31T17:11:14Z" changeset="119170451" uid="3497659" user="NKA">
		<tag k="name" v="Bjøkne" />
		<tag k="place" v="farm" />
		<tag k="ssr:stedsnr" v="71789" />
	</node>
	<node id="9627062747" lat="62.1921667" lon="8.3024834" version="1" timestamp="2022-03-31T17:11:14Z" changeset="119170451" uid="3497659" user="NKA">
		<tag k="alt_name" v="Kvamsætri" />
		<tag k="historic" v="shieling" />
		<tag k="name" v="Kvamsætre" />
		<tag k="place" v="isolated_dwelling" />
		<tag k="ssr:stedsnr" v="131885" />
	</node>
	<node id="9627062748" lat="62.1237972" lon="8.7924444" version="1" timestamp="2022-03-31T17:11:14Z" changeset="119170451" uid="3497659" user="NKA">
		<tag k="name" v="Avdemshågån" />
		<tag k="place" v="isolated_dwelling" />
		<tag k="ssr:stedsnr" v="900722" />
	</node>
	<node id="9627062749" lat="62.1541306" lon="8.682055" version="1" timestamp="2022-03-31T17:11:14Z" changeset="119170451" uid="3497659" user="NKA">
		<tag k="name" v="Brennhaugen" />
		<tag k="place" v="farm" />
		<tag k="ssr:stedsnr" v="435823" />
	</node>
	<node id="9627062750" lat="62.2372053" lon="8.1820027" version="1" timestamp="2022-03-31T17:11:14Z" changeset="119170451" uid="3497659" user="NKA">
		<tag k="name" v="Myrhaug" />
		<tag k="place" v="farm" />
		<tag k="ssr:stedsnr" v="778148" />
	</node>
	<node id="9627062751" lat="62.1549361" lon="8.6925166" version="1" timestamp="2022-03-31T17:11:14Z" changeset="119170451" uid="3497659" user="NKA">
		<tag k="name" v="Stavemsespet" />
		<tag k="place" v="locality" />
		<tag k="ssr:stedsnr" v="414518" />
	</node>
	<node id="9627062752" lat="62.1202833" lon="8.7755749" version="1" timestamp="2022-03-31T17:11:14Z" changeset="119170451" uid="3497659" user="NKA">
		<tag k="name" v="Torsgard" />
		<tag k="place" v="farm" />
		<tag k="ssr:stedsnr" v="778651" />
	</node>
	<node id="9627062753" lat="62.0925722" lon="9.0796001" version="1" timestamp="2022-03-31T17:11:14Z" changeset="119170451" uid="3497659" user="NKA">
		<tag k="name" v="Lerhol" />
		<tag k="place" v="farm" />
		<tag k="ssr:stedsnr" v="50811" />
	</node>
	<node id="9627062754" lat="62.1664147" lon="8.646981" version="1" timestamp="2022-03-31T17:11:14Z" changeset="119170451" uid="3497659" user="NKA">
		<tag k="alt_name" v="Leirmo øvre" />
		<tag k="name" v="Leirmo" />
		<tag k="place" v="hamlet" />
		<tag k="ssr:stedsnr" v="435830" />
	</node>
	<node id="9627062755" lat="62.2668" lon="8.2192278" version="1" timestamp="2022-03-31T17:11:14Z" changeset="119170451" uid="3497659" user="NKA">
		<tag k="alt_name" v="Bjorlien søre" />
		<tag k="name" v="Sørlistugu" />
		<tag k="place" v="farm" />
		<tag k="ssr:stedsnr" v="194274" />
	</node>
	<node id="9627062756" lat="62.093075" lon="9.0467429" version="1" timestamp="2022-03-31T17:11:14Z" changeset="119170451" uid="3497659" user="NKA">
		<tag k="alt_name" v="Skålgård" />
		<tag k="name" v="Skålgard" />
		<tag k="place" v="farm" />
		<tag k="ssr:stedsnr" v="984140" />
	</node>
	<node id="9627062757" lat="62.2407555" lon="8.2505001" version="1" timestamp="2022-03-31T17:11:14Z" changeset="119170451" uid="3497659" user="NKA">
		<tag k="alt_name" v="Løkken" />
		<tag k="name" v="Lykkja" />
		<tag k="place" v="farm" />
		<tag k="ssr:stedsnr" v="71247" />
	</node>
	<node id="9627062758" lat="62.0688778" lon="8.4424611" version="1" timestamp="2022-03-31T17:11:14Z" changeset="119170451" uid="3497659" user="NKA">
		<tag k="alt_name" v="Storsætre" />
		<tag k="historic" v="shieling" />
		<tag k="name" v="Storsætri" />
		<tag k="place" v="hamlet" />
		<tag k="ssr:stedsnr" v="678764" />
	</node>
	<node id="9627062759" lat="62.0996698" lon="9.0062137" version="1" timestamp="2022-03-31T17:11:14Z" changeset="119170451" uid="3497659" user="NKA">
		<tag k="name" v="Teigen" />
		<tag k="place" v="farm" />
		<tag k="ssr:stedsnr" v="739622" />
	</node>
	<node id="9627062760" lat="62.1304389" lon="8.692114" version="1" timestamp="2022-03-31T17:11:14Z" changeset="119170451" uid="3497659" user="NKA">
		<tag k="name" v="Lorvoll" />
		<tag k="place" v="farm" />
		<tag k="ssr:stedsnr" v="556764" />
	</node>
	<node id="9627062761" lat="62.09585" lon="8.9783944" version="1" timestamp="2022-03-31T17:11:14Z" changeset="119170451" uid="3497659" user="NKA">
		<tag k="loc_name" v="Søristugu Hådi" />
		<tag k="name" v="Søristuen Hådi" />
		<tag k="place" v="farm" />
		<tag k="ssr:stedsnr" v="111943" />
	</node>
	<node id="9627062762" lat="62.33845" lon="8.6992529" version="1" timestamp="2022-03-31T17:11:14Z" changeset="119170451" uid="3497659" user="NKA">
		<tag k="name" v="Geitavollen" />
		<tag k="place" v="isolated_dwelling" />
		<tag k="ssr:stedsnr" v="254324" />
	</node>
	<node id="9627062763" lat="62.2340194" lon="8.3524695" version="1" timestamp="2022-03-31T17:11:14Z" changeset="119170451" uid="3497659" user="NKA">
		<tag k="name" v="Lillehjem" />
		<tag k="place" v="farm" />
		<tag k="ssr:stedsnr" v="900084" />
	</node>
	<node id="9627062764" lat="62.2388806" lon="8.1851389" version="1" timestamp="2022-03-31T17:11:14Z" changeset="119170451" uid="3497659" user="NKA">
		<tag k="name" v="Haugen" />
		<tag k="place" v="farm" />
		<tag k="ssr:stedsnr" v="800120" />
	</node>
	<node id="9627062765" lat="62.1358583" lon="8.6968501" version="1" timestamp="2022-03-31T17:11:14Z" changeset="119170451" uid="3497659" user="NKA">
		<tag k="alt_name" v="Ekren" />
		<tag k="name" v="Ekra" />
		<tag k="place" v="farm" />
		<tag k="ssr:stedsnr" v="921777" />
	</node>
	<node id="9627062766" lat="62.1411556" lon="8.6639417" version="1" timestamp="2022-03-31T17:11:14Z" changeset="119170451" uid="3497659" user="NKA">
		<tag k="name" v="Flåtåmoen" />
		<tag k="place" v="locality" />
		<tag k="ssr:stedsnr" v="435827" />
	</node>
	<node id="9627062767" lat="62.1266522" lon="8.7286068" version="1" timestamp="2022-03-31T17:11:14Z" changeset="119170451" uid="3497659" user="NKA">
		<tag k="name" v="Skarphol" />
		<tag k="place" v="farm" />
		<tag k="ssr:stedsnr" v="253931" />
	</node>
	<node id="9627062768" lat="62.1231727" lon="8.8109771" version="1" timestamp="2022-03-31T17:11:14Z" changeset="119170451" uid="3497659" user="NKA">
		<tag k="name" v="Nordre Lia" />
		<tag k="place" v="farm" />
		<tag k="ssr:stedsnr" v="50684" />
	</node>
	<node id="9627062769" lat="62.2291834" lon="8.5410001" version="1" timestamp="2022-03-31T17:11:14Z" changeset="119170451" uid="3497659" user="NKA">
		<tag k="historic" v="shieling" />
		<tag k="loc_name" v="Kvernslåe" />
		<tag k="name" v="Kvernslåi" />
		<tag k="place" v="isolated_dwelling" />
		<tag k="ssr:stedsnr" v="556876" />
	</node>
	<node id="9627062770" lat="62.1188117" lon="8.8035489" version="1" timestamp="2022-03-31T17:11:14Z" changeset="119170451" uid="3497659" user="NKA">
		<tag k="name" v="Tynnøl" />
		<tag k="place" v="farm" />
		<tag k="ssr:stedsnr" v="678865" />
	</node>
	<node id="9627062771" lat="62.1936043" lon="8.5386617" version="1" timestamp="2022-03-31T17:11:14Z" changeset="119170451" uid="3497659" user="NKA">
		<tag k="name" v="Myren" />
		<tag k="place" v="farm" />
		<tag k="ssr:stedsnr" v="960320" />
	</node>
	<node id="9627062772" lat="62.2682" lon="8.1778555" version="1" timestamp="2022-03-31T17:11:14Z" changeset="119170451" uid="3497659" user="NKA">
		<tag k="name" v="Bakken" />
		<tag k="place" v="farm" />
		<tag k="ssr:stedsnr" v="921132" />
	</node>
	<node id="9627062773" lat="62.2359694" lon="8.374439" version="1" timestamp="2022-03-31T17:11:14Z" changeset="119170451" uid="3497659" user="NKA">
		<tag k="name" v="Lunde" />
		<tag k="place" v="farm" />
		<tag k="ssr:stedsnr" v="678833" />
	</node>
	<node id="9627062774" lat="62.2349028" lon="8.2884084" version="1" timestamp="2022-03-31T17:11:14Z" changeset="119170451" uid="3497659" user="NKA">
		<tag k="name" v="Moen" />
		<tag k="place" v="farm" />
		<tag k="ssr:stedsnr" v="11862" />
	</node>
	<node id="9627062775" lat="62.1162327" lon="8.9275403" version="1" timestamp="2022-03-31T17:11:14Z" changeset="119170451" uid="3497659" user="NKA">
		<tag k="name" v="Ulateig" />
		<tag k="place" v="farm" />
		<tag k="ssr:stedsnr" v="496881" />
	</node>
	<node id="9627062776" lat="62.1497333" lon="8.6800167" version="1" timestamp="2022-03-31T17:11:14Z" changeset="119170451" uid="3497659" user="NKA">
		<tag k="name" v="Søndre søre Stavem" />
		<tag k="place" v="farm" />
		<tag k="ssr:stedsnr" v="353538" />
	</node>
	<node id="9627062777" lat="62.2133333" lon="8.4574557" version="1" timestamp="2022-03-31T17:11:14Z" changeset="119170451" uid="3497659" user="NKA">
		<tag k="name" v="Toppen" />
		<tag k="place" v="farm" />
		<tag k="ssr:stedsnr" v="254808" />
	</node>
	<node id="9627062778" lat="62.1162659" lon="8.8572589" version="1" timestamp="2022-03-31T17:11:14Z" changeset="119170451" uid="3497659" user="NKA">
		<tag k="alt_name" v="Hagestande" />
		<tag k="name" v="Hågåstande" />
		<tag k="place" v="farm" />
		<tag k="ssr:stedsnr" v="800879" />
	</node>
	<node id="9627062779" lat="62.1961778" lon="8.3040777" version="1" timestamp="2022-03-31T17:11:14Z" changeset="119170451" uid="3497659" user="NKA">
		<tag k="alt_name" v="Kvitlandsætre" />
		<tag k="name" v="Kvislesætri" />
		<tag k="place" v="locality" />
		<tag k="ssr:stedsnr" v="374864" />
	</node>
	<node id="9627062780" lat="62.0885056" lon="8.8299056" version="1" timestamp="2022-03-31T17:11:14Z" changeset="119170451" uid="3497659" user="NKA">
		<tag k="alt_name" v="Avdemsætre" />
		<tag k="historic" v="shieling" />
		<tag k="name" v="Avdemsætri" />
		<tag k="place" v="isolated_dwelling" />
		<tag k="ssr:stedsnr" v="921631" />
	</node>
	<node id="9627062781" lat="62.2618833" lon="8.2312612" version="1" timestamp="2022-03-31T17:11:14Z" changeset="119170451" uid="3497659" user="NKA">
		<tag k="alt_name" v="Vetlejordet" />
		<tag k="name" v="Veslejordet" />
		<tag k="place" v="farm" />
		<tag k="ssr:stedsnr" v="739290" />
	</node>
	<node id="9270265179" lat="62.2193291" lon="8.871647" version="1" timestamp="2021-11-20T18:45:32Z" changeset="114037428" uid="3497659" user="NKA" />
	<node id="9270265180" lat="62.2193209" lon="8.8716621" version="1" timestamp="2021-11-20T18:45:32Z" changeset="114037428" uid="3497659" user="NKA" />
	<node id="9270265181" lat="62.2193311" lon="8.8716878" version="1" timestamp="2021-11-20T18:45:32Z" changeset="114037428" uid="3497659" user="NKA" />
	<node id="9270265182" lat="62.219299" lon="8.871747" version="1" timestamp="2021-11-20T18:45:32Z" changeset="114037428" uid="3497659" user="NKA" />
	<node id="9270265183" lat="62.219289" lon="8.8717219" version="1" timestamp="2021-11-20T18:45:32Z" changeset="114037428" uid="3497659" user="NKA" />
	<node id="9270265184" lat="62.2192848" lon="8.8717295" version="1" timestamp="2021-11-20T18:45:32Z" changeset="114037428" uid="3497659" user="NKA" />
	<node id="9270265185" lat="62.2192273" lon="8.8715858" version="1" timestamp="2021-11-20T18:45:32Z" changeset="114037428" uid="3497659" user="NKA" />
	<node id="9270265186" lat="62.2192718" lon="8.8715039" version="1" timestamp="2021-11-20T18:45:32Z" changeset="114037428" uid="3497659" user="NKA" />
	<way id="1004751055" version="2" timestamp="2022-03-31T17:11:14Z" changeset="119170451" uid="3497659" user="NKA">
		<tag k="amenity" v="place_of_worship" />
		<tag k="building" v="chapel" />
		<tag k="denomination" v="lutheran" />
		<tag k="name" v="Sjong seterkapell" />
		<tag k="ref:bygningsnr" v="155934034" />
		<tag k="religion" v="christian" />
		<tag k="ssr:stedsnr" v="544400" />
		<nd ref="9270265186" />
		<nd ref="9270265185" />
		<nd ref="9270265184" />
		<nd ref="9270265183" />
		<nd ref="9270265182" />
		<nd ref="9270265181" />
		<nd ref="9270265180" />
		<nd ref="9270265179" />
		<nd ref="9270265186" />
	</way>
</osm>
