<?xml version="1.0" encoding="UTF-8"?>
<osm generator="osmapis" version="0.6">
	<node id="-134035" lat="60.2313070486" lon="10.4807044489">
		<tag k="name" v="Sandbekkveien" />
		<tag k="ssr:date" v="2019-05-30" />
		<tag k="ssr:gruppe" v="veg" />
		<tag k="ssr:hovedgruppe" v="infrastruktur" />
		<tag k="ssr:stedsnr" v="1015719" />
		<tag k="ssr:type" v="adressenavn" />
	</node>
	<node id="-133931" lat="60.2930055549" lon="10.4243277693">
		<tag k="name" v="Bergensbanen" />
		<tag k="ssr:date" v="2016-05-10" />
		<tag k="ssr:gruppe" v="bane" />
		<tag k="ssr:hovedgruppe" v="infrastruktur" />
		<tag k="ssr:stedsnr" v="337160" />
		<tag k="ssr:type" v="banestrekning" />
	</node>
	<node id="-134055" lat="60.2934024627" lon="10.3577682544">
		<tag k="name" v="Sandvikslandet" />
		<tag k="ssr:date" v="2019-05-30" />
		<tag k="ssr:gruppe" v="veg" />
		<tag k="ssr:hovedgruppe" v="infrastruktur" />
		<tag k="ssr:stedsnr" v="1015829" />
		<tag k="ssr:type" v="adressenavn" />
	</node>
	<node id="-134054" lat="60.3056856448" lon="10.4563163744">
		<tag k="name" v="Veloveien" />
		<tag k="ssr:date" v="2019-05-30" />
		<tag k="ssr:gruppe" v="veg" />
		<tag k="ssr:hovedgruppe" v="infrastruktur" />
		<tag k="ssr:stedsnr" v="1015825" />
		<tag k="ssr:type" v="adressenavn" />
	</node>
	<node id="-134053" lat="60.2677863819" lon="10.4984881777">
		<tag k="name" v="Feldbergveien" />
		<tag k="ssr:date" v="2019-05-30" />
		<tag k="ssr:gruppe" v="veg" />
		<tag k="ssr:hovedgruppe" v="infrastruktur" />
		<tag k="ssr:stedsnr" v="1015821" />
		<tag k="ssr:type" v="adressenavn" />
	</node>
	<node id="-134052" lat="60.3014392832" lon="10.3516414908">
		<tag k="name" v="Steinhusveien" />
		<tag k="ssr:date" v="2019-05-30" />
		<tag k="ssr:gruppe" v="veg" />
		<tag k="ssr:hovedgruppe" v="infrastruktur" />
		<tag k="ssr:stedsnr" v="1015807" />
		<tag k="ssr:type" v="adressenavn" />
	</node>
	<node id="-134051" lat="60.2681657268" lon="10.4628559782">
		<tag k="name" v="Haugsveien" />
		<tag k="ssr:date" v="2019-05-30" />
		<tag k="ssr:gruppe" v="veg" />
		<tag k="ssr:hovedgruppe" v="infrastruktur" />
		<tag k="ssr:stedsnr" v="1015798" />
		<tag k="ssr:type" v="adressenavn" />
	</node>
	<node id="-134050" lat="60.2674395868" lon="10.4602927307">
		<tag k="name" v="Karlsrudveien" />
		<tag k="ssr:date" v="2019-05-30" />
		<tag k="ssr:gruppe" v="veg" />
		<tag k="ssr:hovedgruppe" v="infrastruktur" />
		<tag k="ssr:stedsnr" v="1015794" />
		<tag k="ssr:type" v="adressenavn" />
	</node>
	<node id="-134049" lat="60.2673304071" lon="10.5383645039">
		<tag k="name" v="Holåsveien" />
		<tag k="ssr:date" v="2019-05-30" />
		<tag k="ssr:gruppe" v="veg" />
		<tag k="ssr:hovedgruppe" v="infrastruktur" />
		<tag k="ssr:stedsnr" v="1015782" />
		<tag k="ssr:type" v="adressenavn" />
	</node>
	<node id="-134048" lat="60.2583183651" lon="10.4344948449">
		<tag k="name" v="Øvre Vangsvei" />
		<tag k="ssr:date" v="2019-05-30" />
		<tag k="ssr:gruppe" v="veg" />
		<tag k="ssr:hovedgruppe" v="infrastruktur" />
		<tag k="ssr:stedsnr" v="1015776" />
		<tag k="ssr:type" v="adressenavn" />
	</node>
	<node id="-134047" lat="60.2859439061" lon="10.4116666132">
		<tag k="name" v="Sognsbakka" />
		<tag k="ssr:date" v="2019-05-30" />
		<tag k="ssr:gruppe" v="veg" />
		<tag k="ssr:hovedgruppe" v="infrastruktur" />
		<tag k="ssr:stedsnr" v="1015767" />
		<tag k="ssr:type" v="adressenavn" />
	</node>
	<node id="-134046" lat="60.287355298" lon="10.4735532749">
		<tag k="name" v="Galtedalstjern" />
		<tag k="ssr:date" v="2019-05-30" />
		<tag k="ssr:gruppe" v="veg" />
		<tag k="ssr:hovedgruppe" v="infrastruktur" />
		<tag k="ssr:stedsnr" v="1015762" />
		<tag k="ssr:type" v="adressenavn" />
	</node>
	<node id="-134045" lat="60.2879478832" lon="10.342476809">
		<tag k="name" v="Fikerudveien" />
		<tag k="ssr:date" v="2019-05-30" />
		<tag k="ssr:gruppe" v="veg" />
		<tag k="ssr:hovedgruppe" v="infrastruktur" />
		<tag k="ssr:stedsnr" v="1015757" />
		<tag k="ssr:type" v="adressenavn" />
	</node>
	<node id="-134044" lat="60.2643208053" lon="10.5042178739">
		<tag k="name" v="Langdalen" />
		<tag k="ssr:date" v="2019-05-30" />
		<tag k="ssr:gruppe" v="veg" />
		<tag k="ssr:hovedgruppe" v="infrastruktur" />
		<tag k="ssr:stedsnr" v="1015752" />
		<tag k="ssr:type" v="adressenavn" />
	</node>
	<node id="-134043" lat="60.2395204385" lon="10.4271886528">
		<tag k="name" v="Øvre Hovsbakken" />
		<tag k="ssr:date" v="2019-05-30" />
		<tag k="ssr:gruppe" v="veg" />
		<tag k="ssr:hovedgruppe" v="infrastruktur" />
		<tag k="ssr:stedsnr" v="1015747" />
		<tag k="ssr:type" v="adressenavn" />
	</node>
	<node id="-134042" lat="60.3713310763" lon="10.3551880991">
		<tag k="name" v="Vestsidevegen" />
		<tag k="ssr:date" v="2019-05-30" />
		<tag k="ssr:gruppe" v="veg" />
		<tag k="ssr:hovedgruppe" v="infrastruktur" />
		<tag k="ssr:stedsnr" v="1015858" />
		<tag k="ssr:type" v="adressenavn" />
	</node>
	<node id="-134041" lat="60.255346409" lon="10.4294496146">
		<tag k="name" v="Olumslinna" />
		<tag k="ssr:date" v="2019-05-30" />
		<tag k="ssr:gruppe" v="veg" />
		<tag k="ssr:hovedgruppe" v="infrastruktur" />
		<tag k="ssr:stedsnr" v="1015855" />
		<tag k="ssr:type" v="adressenavn" />
	</node>
	<node id="-134040" lat="60.3110172095" lon="10.3851621982">
		<tag k="name" v="Fjordlinna" />
		<tag k="ssr:date" v="2019-05-30" />
		<tag k="ssr:gruppe" v="veg" />
		<tag k="ssr:hovedgruppe" v="infrastruktur" />
		<tag k="ssr:stedsnr" v="1015849" />
		<tag k="ssr:type" v="adressenavn" />
	</node>
	<node id="-134039" lat="60.2783752207" lon="10.5244523862">
		<tag k="name" v="Prestensrudveien" />
		<tag k="ssr:date" v="2019-05-30" />
		<tag k="ssr:gruppe" v="veg" />
		<tag k="ssr:hovedgruppe" v="infrastruktur" />
		<tag k="ssr:stedsnr" v="1015844" />
		<tag k="ssr:type" v="adressenavn" />
	</node>
	<node id="-134038" lat="60.2937845302" lon="10.3564091451">
		<tag k="name" v="Fallaveien" />
		<tag k="ssr:date" v="2019-05-30" />
		<tag k="ssr:gruppe" v="veg" />
		<tag k="ssr:hovedgruppe" v="infrastruktur" />
		<tag k="ssr:stedsnr" v="1015833" />
		<tag k="ssr:type" v="adressenavn" />
	</node>
	<node id="-134037" lat="60.2738088741" lon="10.3225469817">
		<tag k="name" v="Fuglesangveien" />
		<tag k="ssr:date" v="2019-05-30" />
		<tag k="ssr:gruppe" v="veg" />
		<tag k="ssr:hovedgruppe" v="infrastruktur" />
		<tag k="ssr:stedsnr" v="1015733" />
		<tag k="ssr:type" v="adressenavn" />
	</node>
	<node id="-134036" lat="60.2259036762" lon="10.3580637681">
		<tag k="name" v="Bergermotunet" />
		<tag k="ssr:date" v="2019-05-30" />
		<tag k="ssr:gruppe" v="veg" />
		<tag k="ssr:hovedgruppe" v="infrastruktur" />
		<tag k="ssr:stedsnr" v="1015728" />
		<tag k="ssr:type" v="adressenavn" />
	</node>
	<node id="-134675" lat="60.5908609473" lon="9.63819281559">
		<tag k="fixme" v="multiple name tags, choose one and add the other to alt_name" />
		<tag k="name" v="Austlandet;Østlandet" />
		<tag k="ssr:date" v="2018-01-09" />
		<tag k="ssr:gruppe" v="administrativeIndelinger" />
		<tag k="ssr:hovedgruppe" v="offentligAdministrasjon" />
		<tag k="ssr:stedsnr" v="974775" />
		<tag k="ssr:type" v="annenAdministrativInndeling" />
	</node>
	<node id="-134034" lat="60.2279899498" lon="10.4753611899">
		<tag k="name" v="Finnerudseterveien" />
		<tag k="ssr:date" v="2019-05-30" />
		<tag k="ssr:gruppe" v="veg" />
		<tag k="ssr:hovedgruppe" v="infrastruktur" />
		<tag k="ssr:stedsnr" v="1015696" />
		<tag k="ssr:type" v="adressenavn" />
	</node>
	<node id="-134033" lat="60.356421002" lon="10.2442906819">
		<tag k="name" v="Flåtjernsveien" />
		<tag k="ssr:date" v="2019-05-30" />
		<tag k="ssr:gruppe" v="veg" />
		<tag k="ssr:hovedgruppe" v="infrastruktur" />
		<tag k="ssr:stedsnr" v="1015676" />
		<tag k="ssr:type" v="adressenavn" />
	</node>
	<node id="-134032" lat="60.2265078433" lon="10.3508479313">
		<tag k="name" v="Energiveien" />
		<tag k="ssr:date" v="2019-05-30" />
		<tag k="ssr:gruppe" v="veg" />
		<tag k="ssr:hovedgruppe" v="infrastruktur" />
		<tag k="ssr:stedsnr" v="1015742" />
		<tag k="ssr:type" v="adressenavn" />
	</node>
	<node id="-134540" lat="60.2406000031" lon="10.3858750082">
		<tag k="name" v="Jevnaker kommune" />
		<tag k="ssr:date" v="2016-05-11" />
		<tag k="ssr:gruppe" v="administrativeIndelinger" />
		<tag k="ssr:hovedgruppe" v="offentligAdministrasjon" />
		<tag k="ssr:stedsnr" v="752931" />
		<tag k="ssr:type" v="kommune" />
	</node>
	<node id="-133897" lat="60.3025416691" lon="10.4333027849">
		<tag k="name" v="Sognsvegen" />
		<tag k="ssr:date" v="2016-05-10" />
		<tag k="ssr:gruppe" v="veg" />
		<tag k="ssr:hovedgruppe" v="infrastruktur" />
		<tag k="ssr:stedsnr" v="299861" />
		<tag k="ssr:type" v="vegstrekning" />
	</node>
</osm>
