<?xml version="1.0" encoding="UTF-8"?>
<osm generator="osmapis" version="0.6">
	<node id="-911356" lat="64.9898527752" lon="11.7304416629">
		<tag k="amenity" v="school" />
		<tag k="name" v="Gravvik oppvekstsenter" />
		<tag k="old_name" v="Gravvik skole" />
		<tag k="ssr:stedsnr" v="905408" />
	</node>
	<node id="-911350" lat="64.8258944426" lon="11.3895444436">
		<tag k="name" v="Haugli" />
		<tag k="place" v="farm" />
		<tag k="ssr:stedsnr" v="257304" />
	</node>
	<node id="-909300" lat="64.9113085922" lon="11.5211243669">
		<tag k="fixme" v="consider place=hamlet" />
		<tag k="name" v="Langstranda" />
		<tag k="place" v="farm" />
		<tag k="ssr:stedsnr" v="14029" />
	</node>
	<node id="-909295" lat="64.8417111117" lon="11.4344999991">
		<tag k="fixme" v="consider place=hamlet" />
		<tag k="name" v="Rotvika" />
		<tag k="place" v="farm" />
		<tag k="ssr:stedsnr" v="468105" />
	</node>
	<node id="-909294" lat="64.8653487468" lon="11.3579736714">
		<tag k="fixme" v="consider place=hamlet" />
		<tag k="name" v="Holand" />
		<tag k="place" v="farm" />
		<tag k="ssr:stedsnr" v="439393" />
	</node>
	<node id="-911340" lat="64.9349083332" lon="11.6675638868">
		<tag k="name" v="Fjellstad" />
		<tag k="place" v="locality" />
		<tag k="ssr:stedsnr" v="714618" />
	</node>
	<node id="-911332" lat="64.830558337" lon="11.265563881">
		<tag k="name" v="Høgset" />
		<tag k="place" v="farm" />
		<tag k="ssr:stedsnr" v="378261" />
	</node>
	<node id="-909278" lat="64.739200004" lon="11.6512250003">
		<tag k="name" v="Lundasetran" />
		<tag k="place" v="isolated_dwelling" />
		<tag k="ssr:stedsnr" v="560722" />
	</node>
	<node id="-913371" lat="64.8234333329" lon="11.4987888899">
		<tag k="name" v="Skagakorsen" />
		<tag k="place" v="isolated_dwelling" />
		<tag k="ssr:stedsnr" v="75286" />
	</node>
	<node id="-913370" lat="64.8083083378" lon="11.4577166617">
		<tag k="name" v="Skjåneset" />
		<tag k="place" v="farm" />
		<tag k="ssr:stedsnr" v="499260" />
	</node>
	<node id="-911321" lat="64.8752833363" lon="11.4232666566">
		<tag k="name" v="Vestre Sørå" />
		<tag k="place" v="farm" />
		<tag k="ssr:stedsnr" v="560395" />
	</node>
	<node id="-913368" lat="64.9031638869" lon="11.5183444401">
		<tag k="name" v="Røyrdalen" />
		<tag k="place" v="isolated_dwelling" />
		<tag k="ssr:stedsnr" v="560034" />
	</node>
	<node id="-909271" lat="64.8178111137" lon="11.521916665">
		<tag k="name" v="Litlenget" />
		<tag k="place" v="farm" />
		<tag k="ssr:stedsnr" v="468114" />
	</node>
	<node id="-911318" lat="64.9740273529" lon="11.8385366245">
		<tag k="fixme" v="consider place=hamlet" />
		<tag k="name" v="Knutåsen" />
		<tag k="place" v="farm" />
		<tag k="ssr:stedsnr" v="743644" />
	</node>
	<node id="-913362" lat="65.065402782" lon="11.9571999929">
		<tag k="name" v="Åsheim" />
		<tag k="place" v="farm" />
		<tag k="ssr:stedsnr" v="841810" />
	</node>
	<node id="-909259" lat="65.0107726127" lon="11.7178133402">
		<tag k="fixme" v="consider place=hamlet" />
		<tag k="name" v="Fjølvika" />
		<tag k="place" v="farm" />
		<tag k="ssr:stedsnr" v="317823" />
	</node>
	<node id="-913354" lat="64.8274138904" lon="11.5309305539">
		<tag k="name" v="Åsheim" />
		<tag k="place" v="farm" />
		<tag k="ssr:stedsnr" v="439271" />
	</node>
	<node id="-911305" lat="64.9690638927" lon="11.8413416637">
		<tag k="name" v="Åsen" />
		<tag k="place" v="farm" />
		<tag k="ssr:stedsnr" v="743646" />
	</node>
	<node id="-909251" lat="64.8679972228" lon="11.7024666683">
		<tag k="alt_name" v="Blavika" />
		<tag k="name" v="Bladvika" />
		<tag k="place" v="isolated_dwelling" />
		<tag k="ssr:stedsnr" v="500500" />
	</node>
	<node id="-913345" lat="64.962100004" lon="12.0216888818">
		<tag k="name" v="Leirvik" />
		<tag k="place" v="farm" />
		<tag k="ssr:stedsnr" v="28341" />
	</node>
	<node id="-913339" lat="64.8204777774" lon="11.3356138979">
		<tag k="name" v="Dalen prestegard" />
		<tag k="place" v="farm" />
		<tag k="ssr:stedsnr" v="500358" />
	</node>
	<node id="-911289" lat="65.0245555554" lon="11.847650002">
		<tag k="alt_name" v="Olderbotnet" />
		<tag k="name" v="Olderbotn" />
		<tag k="place" v="isolated_dwelling" />
		<tag k="ssr:stedsnr" v="864144" />
	</node>
	<node id="-911288" lat="64.9156888876" lon="11.8094833337">
		<tag k="name" v="Rokkskogen" />
		<tag k="place" v="farm" />
		<tag k="ssr:stedsnr" v="621585" />
	</node>
	<node id="-910324" lat="64.9163907657" lon="11.6025515519">
		<tag k="fixme" v="consider place=hamlet" />
		<tag k="name" v="Fjær" />
		<tag k="place" v="farm" />
		<tag k="ssr:stedsnr" v="971864" />
	</node>
	<node id="-913331" lat="64.9191611139" lon="11.8560833377">
		<tag k="name" v="Åsen" />
		<tag k="place" v="farm" />
		<tag k="ssr:stedsnr" v="269003" />
	</node>
	<node id="-909232" lat="64.8254249968" lon="11.5089499981">
		<tag k="name" v="Nordly" />
		<tag k="place" v="farm" />
		<tag k="ssr:stedsnr" v="925324" />
	</node>
	<node id="-913322" lat="64.9394666689" lon="11.4956916737">
		<tag k="alt_name" v="Skarstad" />
		<tag k="name" v="Skardstad" />
		<tag k="place" v="farm" />
		<tag k="ssr:stedsnr" v="621206" />
	</node>
	<node id="-909223" lat="64.8487944428" lon="11.5148805517">
		<tag k="name" v="Haugen" />
		<tag k="place" v="farm" />
		<tag k="ssr:stedsnr" v="196398" />
	</node>
	<node id="-909222" lat="65.036188891" lon="11.9786638908">
		<tag k="name" v="Simle Statsskog" />
		<tag k="place" v="locality" />
		<tag k="ssr:stedsnr" v="532051" />
	</node>
	<node id="-913314" lat="64.9166611106" lon="11.8409249958">
		<tag k="name" v="Hesthagan" />
		<tag k="place" v="farm" />
		<tag k="ssr:stedsnr" v="269001" />
	</node>
	<node id="-909216" lat="64.9702916661" lon="12.0947611049">
		<tag k="name" v="Groftbuenget" />
		<tag k="place" v="farm" />
		<tag k="ssr:stedsnr" v="682682" />
	</node>
	<node id="-911263" lat="64.9840722192" lon="12.1744527795">
		<tag k="name" v="Leirneset" />
		<tag k="place" v="farm" />
		<tag k="ssr:stedsnr" v="270268" />
	</node>
	<node id="-911262" lat="64.9221239435" lon="11.5840422412">
		<tag k="fixme" v="consider place=hamlet" />
		<tag k="name" v="Fjærlia" />
		<tag k="place" v="farm" />
		<tag k="ssr:stedsnr" v="318024" />
	</node>
	<node id="-911257" lat="64.9304916679" lon="11.6130027724">
		<tag k="name" v="Lendinga" />
		<tag k="place" v="isolated_dwelling" />
		<tag k="ssr:stedsnr" v="957172" />
	</node>
	<node id="-913304" lat="64.8159833333" lon="11.5335666645">
		<tag k="name" v="Sjøbursenget" />
		<tag k="place" v="farm" />
		<tag k="ssr:stedsnr" v="864326" />
	</node>
	<node id="-913300" lat="64.9104519076" lon="11.5885136831">
		<tag k="fixme" v="consider place=hamlet" />
		<tag k="name" v="Ramfjord" />
		<tag k="place" v="farm" />
		<tag k="ssr:stedsnr" v="560041" />
	</node>
	<node id="-913295" lat="64.8143277776" lon="11.446066673">
		<tag k="name" v="Hongstaden" />
		<tag k="place" v="farm" />
		<tag k="ssr:stedsnr" v="864325" />
	</node>
	<node id="-911245" lat="65.0006833363" lon="11.7284638844">
		<tag k="name" v="Fossmoen" />
		<tag k="place" v="isolated_dwelling" />
		<tag k="ssr:stedsnr" v="472532" />
	</node>
	<node id="-913290" lat="64.8308666643" lon="11.3952777869">
		<tag k="name" v="Bustad" />
		<tag k="place" v="farm" />
		<tag k="ssr:stedsnr" v="75279" />
	</node>
	<node id="-913288" lat="64.9337500009" lon="11.9098999903">
		<tag k="name" v="Kvernmoen" />
		<tag k="place" v="farm" />
		<tag k="ssr:stedsnr" v="136575" />
	</node>
	<node id="-911238" lat="64.8490333358" lon="11.2451222257">
		<tag k="name" v="Marøyvollen" />
		<tag k="place" v="isolated_dwelling" />
		<tag k="ssr:stedsnr" v="756443" />
	</node>
	<node id="-909633" lat="64.8425027784" lon="11.3421861207">
		<tag k="name" v="Sørli" />
		<tag k="place" v="farm" />
		<tag k="ssr:stedsnr" v="196450" />
	</node>
	<node id="-913284" lat="64.8426388888" lon="11.2768111208">
		<tag k="name" v="Solenget" />
		<tag k="place" v="farm" />
		<tag k="ssr:stedsnr" v="378470" />
	</node>
	<node id="-909186" lat="64.8007805534" lon="11.8638833425">
		<tag k="fixme" v="consider place=suburb, village or hamlet" />
		<tag k="name" v="Salsbruket" />
		<tag k="place" v="quarter" />
		<tag k="ssr:stedsnr" v="196935" />
	</node>
	<node id="-913273" lat="65.0013249964" lon="11.7315833404">
		<tag k="name" v="Finnsetmostranda" />
		<tag k="place" v="isolated_dwelling" />
		<tag k="ssr:stedsnr" v="957496" />
	</node>
	<node id="-913265" lat="64.8405638919" lon="11.2915027719">
		<tag k="name" v="Liland" />
		<tag k="place" v="farm" />
		<tag k="ssr:stedsnr" v="682553" />
	</node>
	<node id="-909167" lat="65.0431916701" lon="11.8914055461">
		<tag k="name" v="Kvernmoen" />
		<tag k="place" v="farm" />
		<tag k="ssr:stedsnr" v="47457" />
	</node>
	<node id="-909165" lat="64.8564166673" lon="11.8550249962">
		<tag k="name" v="Kvistarøysætran" />
		<tag k="place" v="isolated_dwelling" />
		<tag k="ssr:stedsnr" v="864997" />
	</node>
	<node id="-911209" lat="64.9642999992" lon="12.043722212">
		<tag k="fixme" v="multiple name tags, choose one and add the other to alt_name" />
		<tag k="name" v="Naustenget;Åsheim" />
		<tag k="place" v="farm" />
		<tag k="ssr:stedsnr" v="500702" />
	</node>
	<node id="-913255" lat="65.007144443" lon="11.6487638872">
		<tag k="name" v="Dolmsundet" />
		<tag k="place" v="farm" />
		<tag k="ssr:stedsnr" v="864855" />
	</node>
	<node id="-911206" lat="64.8442222224" lon="11.4209361033">
		<tag k="name" v="Hestlia" />
		<tag k="place" v="farm" />
		<tag k="ssr:stedsnr" v="925520" />
	</node>
	<node id="-909156" lat="64.8865249978" lon="11.3227194365">
		<tag k="name" v="Hestvika" />
		<tag k="place" v="farm" />
		<tag k="ssr:stedsnr" v="682126" />
	</node>
	<node id="-911199" lat="64.8506972242" lon="11.2283305528">
		<tag k="name" v="Smevikaunet" />
		<tag k="place" v="farm" />
		<tag k="ssr:stedsnr" v="573428" />
	</node>
	<node id="-911197" lat="64.8695583291" lon="11.2875777673">
		<tag k="name" v="Hagan" />
		<tag k="place" v="farm" />
		<tag k="ssr:stedsnr" v="560389" />
	</node>
	<node id="-909147" lat="64.9125277743" lon="11.4938194527">
		<tag k="name" v="Litlenget" />
		<tag k="place" v="farm" />
		<tag k="ssr:stedsnr" v="378034" />
	</node>
	<node id="-913242" lat="64.9601694475" lon="11.6619361096">
		<tag k="name" v="Osplia" />
		<tag k="place" v="farm" />
		<tag k="ssr:stedsnr" v="925183" />
	</node>
	<node id="-913234" lat="64.8331555557" lon="11.2811527839">
		<tag k="name" v="Bekkvika" />
		<tag k="place" v="farm" />
		<tag k="ssr:stedsnr" v="15525" />
	</node>
	<node id="-911185" lat="64.8378861084" lon="11.4008166749">
		<tag k="name" v="Nordbø" />
		<tag k="place" v="farm" />
		<tag k="ssr:stedsnr" v="925531" />
	</node>
	<node id="-909136" lat="64.8622500017" lon="11.5682166646">
		<tag k="name" v="Haugnes" />
		<tag k="place" v="farm" />
		<tag k="ssr:stedsnr" v="197474" />
	</node>
	<node id="-913231" lat="64.8257944451" lon="11.2759805658">
		<tag k="name" v="Vassenget" />
		<tag k="place" v="farm" />
		<tag k="ssr:stedsnr" v="75271" />
	</node>
	<node id="-909132" lat="64.9871055539" lon="12.119150003">
		<tag k="name" v="Tjønnsetran" />
		<tag k="place" v="isolated_dwelling" />
		<tag k="ssr:stedsnr" v="136687" />
	</node>
	<node id="-911178" lat="64.843091671" lon="11.2141194389">
		<tag k="name" v="Haugheim" />
		<tag k="place" v="isolated_dwelling" />
		<tag k="ssr:stedsnr" v="378821" />
	</node>
	<node id="-909121" lat="64.8070527738" lon="11.3351694527">
		<tag k="name" v="Eidem" />
		<tag k="place" v="farm" />
		<tag k="ssr:stedsnr" v="621341" />
	</node>
	<node id="-913216" lat="64.8582988681" lon="11.6726648644">
		<tag k="fixme" v="consider place=hamlet" />
		<tag k="name" v="Finnestranda" />
		<tag k="place" v="farm" />
		<tag k="ssr:stedsnr" v="257479" />
	</node>
	<node id="-913215" lat="64.8328750035" lon="11.3168944545">
		<tag k="fixme" v="multiple name tags, choose one and add the other to alt_name" />
		<tag k="name" v="Gjersenget;Vassli" />
		<tag k="place" v="farm" />
		<tag k="ssr:stedsnr" v="439251" />
	</node>
	<node id="-911161" lat="64.8178234066" lon="11.9035769335">
		<tag k="fixme" v="consider place=hamlet" />
		<tag k="name" v="Synnes" />
		<tag k="place" v="farm" />
		<tag k="ssr:stedsnr" v="379899" />
	</node>
	<node id="-911159" lat="64.9459083367" lon="11.8716388791">
		<tag k="historic" v="shieling" />
		<tag k="name" v="Kreklingsetran" />
		<tag k="place" v="locality" />
		<tag k="ssr:stedsnr" v="693262" />
	</node>
	<node id="-913206" lat="64.9693833377" lon="12.0682861033">
		<tag k="name" v="Heimstad" />
		<tag k="place" v="locality" />
		<tag k="ssr:stedsnr" v="149339" />
	</node>
	<node id="-911156" lat="64.9644888877" lon="11.7344416663">
		<tag k="name" v="Tømmervika" />
		<tag k="place" v="farm" />
		<tag k="ssr:stedsnr" v="743631" />
	</node>
	<node id="-913374" lat="64.8380999977" lon="11.3315527859">
		<tag k="name" v="Skardet" />
		<tag k="place" v="farm" />
		<tag k="ssr:stedsnr" v="682547" />
	</node>
	<node id="-911152" lat="64.8356777768" lon="11.4014194418">
		<tag k="alt_name" v="Bjønndalen" />
		<tag k="name" v="Bjørndal" />
		<tag k="place" v="farm" />
		<tag k="ssr:stedsnr" v="925526" />
	</node>
	<node id="-909096" lat="64.8741833312" lon="11.4444555514">
		<tag k="name" v="Sørådalen" />
		<tag k="place" v="farm" />
		<tag k="ssr:stedsnr" v="439382" />
	</node>
	<node id="-911143" lat="65.0442111108" lon="11.8962722174">
		<tag k="fixme" v="consider place=hamlet" />
		<tag k="name" v="Kvernan" />
		<tag k="place" v="farm" />
		<tag k="ssr:stedsnr" v="500140" />
	</node>
	<node id="-912996" lat="64.8446027749" lon="11.3115972313">
		<tag k="fixme" v="multiple name tags, choose one and add the other to alt_name" />
		<tag k="name" v="Nyvoll;Vikmoen" />
		<tag k="place" v="farm" />
		<tag k="ssr:stedsnr" v="682507" />
	</node>
	<node id="-913189" lat="64.7484277767" lon="11.5663250091">
		<tag k="name" v="Sminesvika" />
		<tag k="place" v="farm" />
		<tag k="ssr:stedsnr" v="621756" />
	</node>
	<node id="-913188" lat="64.9278611101" lon="11.7454555498">
		<tag k="name" v="Høgstad" />
		<tag k="place" v="farm" />
		<tag k="ssr:stedsnr" v="804580" />
	</node>
	<node id="-909090" lat="64.768855556" lon="11.6876277723">
		<tag k="name" v="Bossvika" />
		<tag k="place" v="isolated_dwelling" />
		<tag k="ssr:stedsnr" v="379700" />
	</node>
	<node id="-913185" lat="65.0346003522" lon="11.7660587314">
		<tag k="fixme" v="consider place=hamlet" />
		<tag k="name" v="Heller" />
		<tag k="place" v="farm" />
		<tag k="ssr:stedsnr" v="925156" />
	</node>
	<node id="-910298" lat="64.9454916712" lon="12.1855249993">
		<tag k="alt_name" v="Bergsvik" />
		<tag k="name" v="Bergsvika" />
		<tag k="place" v="farm" />
		<tag k="ssr:stedsnr" v="197604" />
	</node>
	<node id="-913171" lat="64.8361833343" lon="11.3733111153">
		<tag k="name" v="Slettenget" />
		<tag k="place" v="farm" />
		<tag k="ssr:stedsnr" v="15520" />
	</node>
	<node id="-913167" lat="64.9343638863" lon="11.6321500069">
		<tag k="name" v="Fredheim" />
		<tag k="place" v="farm" />
		<tag k="ssr:stedsnr" v="743269" />
	</node>
	<node id="-913159" lat="64.9326729658" lon="11.6196977489">
		<tag k="fixme" v="consider place=hamlet" />
		<tag k="name" v="Rødseidet" />
		<tag k="place" v="farm" />
		<tag k="ssr:stedsnr" v="743270" />
	</node>
	<node id="-909061" lat="64.8146472196" lon="11.6978249993">
		<tag k="name" v="Gammelgården" />
		<tag k="place" v="locality" />
		<tag k="ssr:stedsnr" v="468070" />
	</node>
	<node id="-913156" lat="64.858399998" lon="11.6460138901">
		<tag k="name" v="Storvika" />
		<tag k="place" v="farm" />
		<tag k="ssr:stedsnr" v="257476" />
	</node>
	<node id="-913152" lat="64.8456861115" lon="11.2548888926">
		<tag k="name" v="Marøystranda" />
		<tag k="place" v="farm" />
		<tag k="ssr:stedsnr" v="572902" />
	</node>
	<node id="-909054" lat="64.8289194427" lon="11.2763249963">
		<tag k="name" v="Løenget" />
		<tag k="place" v="farm" />
		<tag k="ssr:stedsnr" v="925309" />
	</node>
	<node id="-909052" lat="64.9084166691" lon="11.3816527719">
		<tag k="fixme" v="multiple name tags, choose one and add the other to alt_name" />
		<tag k="name" v="Køyta;Oterbekken" />
		<tag k="place" v="isolated_dwelling" />
		<tag k="ssr:stedsnr" v="378025" />
	</node>
	<node id="-913144" lat="64.8414697912" lon="11.3152403562">
		<tag k="fixme" v="consider place=hamlet" />
		<tag k="name" v="Øyahalsen" />
		<tag k="place" v="farm" />
		<tag k="ssr:stedsnr" v="803492" />
	</node>
	<node id="-911093" lat="64.8233833344" lon="11.4143194438">
		<tag k="name" v="Sletta" />
		<tag k="place" v="farm" />
		<tag k="ssr:stedsnr" v="803290" />
	</node>
	<node id="-913140" lat="64.8240388917" lon="11.4166333311">
		<tag k="name" v="Bjørkli" />
		<tag k="place" v="farm" />
		<tag k="ssr:stedsnr" v="500328" />
	</node>
	<node id="-909043" lat="64.8815027797" lon="11.7065166749">
		<tag k="name" v="Finnemoen" />
		<tag k="place" v="farm" />
		<tag k="ssr:stedsnr" v="682109" />
	</node>
	<node id="-913137" lat="64.8199638867" lon="11.3865305564">
		<tag k="name" v="Framtid" />
		<tag k="place" v="farm" />
		<tag k="ssr:stedsnr" v="864319" />
	</node>
	<node id="-913136" lat="64.844302776" lon="11.4952638964">
		<tag k="name" v="Lausetet" />
		<tag k="place" v="farm" />
		<tag k="ssr:stedsnr" v="682540" />
	</node>
	<node id="-913134" lat="64.8467833289" lon="11.3779000055">
		<tag k="name" v="Moholt" />
		<tag k="place" v="farm" />
		<tag k="ssr:stedsnr" v="14412" />
	</node>
	<node id="-909037" lat="64.8297670776" lon="11.2198745504">
		<tag k="alt_name" v="Nærøya" />
		<tag k="fixme" v="consider place=hamlet" />
		<tag k="name" v="Nærøy" />
		<tag k="place" v="farm" />
		<tag k="ssr:stedsnr" v="925302" />
	</node>
	<node id="-909036" lat="64.7789722242" lon="11.7714388802">
		<tag k="fixme" v="multiple name tags, choose one and add the other to alt_name; consider place=hamlet" />
		<tag k="name" v="Hjelmsøya;Monsøya" />
		<tag k="place" v="farm" />
		<tag k="ssr:stedsnr" v="899083" />
	</node>
	<node id="-911082" lat="64.9594361087" lon="12.0186888798">
		<tag k="name" v="Skaftnesmoen" />
		<tag k="place" v="farm" />
		<tag k="ssr:stedsnr" v="500673" />
	</node>
	<node id="-913129" lat="64.8135638904" lon="11.3446666749">
		<tag k="name" v="Haug" />
		<tag k="place" v="farm" />
		<tag k="ssr:stedsnr" v="864317" />
	</node>
	<node id="-913127" lat="64.8294194448" lon="11.6146805609">
		<tag k="name" v="Høgmoen" />
		<tag k="place" v="farm" />
		<tag k="ssr:stedsnr" v="75262" />
	</node>
	<node id="-913124" lat="65.0579250014" lon="11.926916672">
		<tag k="name" v="Simlehagan" />
		<tag k="place" v="locality" />
		<tag k="ssr:stedsnr" v="411430" />
	</node>
	<node id="-909025" lat="64.8787361147" lon="11.4230666583">
		<tag k="name" v="Myrset" />
		<tag k="place" v="farm" />
		<tag k="ssr:stedsnr" v="348349" />
	</node>
	<node id="-909024" lat="64.950080554" lon="11.9592861215">
		<tag k="name" v="Utgården" />
		<tag k="place" v="locality" />
		<tag k="ssr:stedsnr" v="86212" />
	</node>
	<node id="-911071" lat="64.8416555568" lon="11.2743111112">
		<tag k="name" v="Lines" />
		<tag k="place" v="isolated_dwelling" />
		<tag k="ssr:stedsnr" v="771194" />
	</node>
	<node id="-911070" lat="64.9510805579" lon="12.2498972182">
		<tag k="name" v="Osan" />
		<tag k="place" v="isolated_dwelling" />
		<tag k="ssr:stedsnr" v="15860" />
	</node>
	<node id="-911068" lat="64.8760305582" lon="11.6601111057">
		<tag k="alt_name" v="Finne vestre" />
		<tag k="name" v="Finne" />
		<tag k="place" v="farm" />
		<tag k="ssr:stedsnr" v="560367" />
	</node>
	<node id="-909018" lat="65.0642138908" lon="11.9744055549">
		<tag k="name" v="Vassmoen" />
		<tag k="place" v="isolated_dwelling" />
		<tag k="ssr:stedsnr" v="52801" />
	</node>
	<node id="-911063" lat="64.9611166704" lon="12.1778250081">
		<tag k="amenity" v="school" />
		<tag k="name" v="Foldereid oppvekstsenter" />
		<tag k="ssr:stedsnr" v="466001" />
	</node>
	<node id="-913109" lat="64.9492527775" lon="11.5101777871">
		<tag k="alt_name" v="Nord-Tangen" />
		<tag k="name" v="Nordtangen" />
		<tag k="place" v="isolated_dwelling" />
		<tag k="ssr:stedsnr" v="925171" />
	</node>
	<node id="-909011" lat="64.8971916677" lon="11.5609888941">
		<tag k="name" v="Sørstranda" />
		<tag k="place" v="locality" />
		<tag k="ssr:stedsnr" v="15075" />
	</node>
	<node id="-913106" lat="64.9348250026" lon="12.0351861179">
		<tag k="name" v="Steinan" />
		<tag k="place" v="isolated_dwelling" />
		<tag k="ssr:stedsnr" v="804587" />
	</node>
	<node id="-909009" lat="64.8475361083" lon="11.5100277748">
		<tag k="name" v="Horvereid" />
		<tag k="place" v="farm" />
		<tag k="ssr:stedsnr" v="104089" />
	</node>
	<node id="-910968" lat="64.8427111093" lon="11.5173500099">
		<tag k="name" v="Gjerdet" />
		<tag k="place" v="farm" />
		<tag k="ssr:stedsnr" v="925516" />
	</node>
	<node id="-913101" lat="64.9217305591" lon="11.5644999945">
		<tag k="fixme" v="consider place=hamlet" />
		<tag k="name" v="Nubbdal" />
		<tag k="place" v="farm" />
		<tag k="ssr:stedsnr" v="804031" />
	</node>
	<node id="-909004" lat="64.9159833373" lon="12.1178444532">
		<tag k="historic" v="shieling" />
		<tag k="name" v="Svarttjønnsetran" />
		<tag k="place" v="locality" />
		<tag k="ssr:stedsnr" v="52797" />
	</node>
	<node id="-909002" lat="64.957527774" lon="11.7853249964">
		<tag k="name" v="Fagerli" />
		<tag k="place" v="farm" />
		<tag k="ssr:stedsnr" v="14543" />
	</node>
	<node id="-911047" lat="65.0004083298" lon="11.6843361179">
		<tag k="name" v="Sveet" />
		<tag k="place" v="farm" />
		<tag k="ssr:stedsnr" v="472511" />
	</node>
	<node id="-908997" lat="64.9254969008" lon="11.8874124685">
		<tag k="fixme" v="consider place=hamlet" />
		<tag k="name" v="Kreklingan" />
		<tag k="place" v="farm" />
		<tag k="ssr:stedsnr" v="378580" />
	</node>
	<node id="-913355" lat="64.8235333333" lon="11.4239888877">
		<tag k="name" v="Brekstad" />
		<tag k="place" v="farm" />
		<tag k="ssr:stedsnr" v="75283" />
	</node>
	<node id="-908992" lat="65.0084083342" lon="11.7255305621">
		<tag k="name" v="Nordstrand" />
		<tag k="place" v="isolated_dwelling" />
		<tag k="ssr:stedsnr" v="653558" />
	</node>
	<node id="-908986" lat="64.9232826589" lon="12.3960713961">
		<tag k="fixme" v="consider place=hamlet" />
		<tag k="name" v="Grytbugen" />
		<tag k="place" v="farm" />
		<tag k="ssr:stedsnr" v="925836" />
	</node>
	<node id="-908984" lat="64.7988666709" lon="11.2970388987">
		<tag k="name" v="Fredtun" />
		<tag k="place" v="farm" />
		<tag k="ssr:stedsnr" v="318347" />
	</node>
	<node id="-908983" lat="64.8666972252" lon="11.5907916659">
		<tag k="name" v="Kolvereid prestegard" />
		<tag k="place" v="farm" />
		<tag k="ssr:stedsnr" v="500459" />
	</node>
	<node id="-913076" lat="64.9585472254" lon="12.0175138936">
		<tag k="name" v="Øvermoen" />
		<tag k="place" v="farm" />
		<tag k="ssr:stedsnr" v="149326" />
	</node>
	<node id="-911026" lat="64.8310138873" lon="11.1999500067">
		<tag k="name" v="Finnvika" />
		<tag k="place" v="isolated_dwelling" />
		<tag k="ssr:stedsnr" v="257816" />
	</node>
	<node id="-911025" lat="64.889082987" lon="11.3366953671">
		<tag k="alt_name" v="Torstad" />
		<tag k="name" v="Dalan" />
		<tag k="place" v="farm" />
		<tag k="ssr:stedsnr" v="76138" />
	</node>
	<node id="-913069" lat="64.8422249984" lon="11.3353916748">
		<tag k="fixme" v="multiple name tags, choose one and add the other to alt_name" />
		<tag k="name" v="Løhaugen;Nybrott" />
		<tag k="place" v="farm" />
		<tag k="ssr:stedsnr" v="14408" />
	</node>
	<node id="-913068" lat="64.8604694418" lon="11.399475001">
		<tag k="alt_name" v="Vestmo" />
		<tag k="name" v="Vestmoen" />
		<tag k="place" v="farm" />
		<tag k="ssr:stedsnr" v="257466" />
	</node>
	<node id="-908967" lat="64.87775556" lon="11.6571083312">
		<tag k="name" v="Finne" />
		<tag k="place" v="farm" />
		<tag k="ssr:stedsnr" v="26070" />
	</node>
	<node id="-908964" lat="64.8051444428" lon="11.8840416616">
		<tag k="name" v="Bergsmo" />
		<tag k="place" v="farm" />
		<tag k="ssr:stedsnr" v="954299" />
	</node>
	<node id="-908961" lat="64.8621861132" lon="11.4253666742">
		<tag k="name" v="Sandnesenget" />
		<tag k="place" v="farm" />
		<tag k="ssr:stedsnr" v="197451" />
	</node>
	<node id="-911008" lat="65.0200328599" lon="11.7501835346">
		<tag k="fixme" v="consider place=hamlet" />
		<tag k="name" v="Skotnes" />
		<tag k="place" v="farm" />
		<tag k="ssr:stedsnr" v="533954" />
	</node>
	<node id="-911003" lat="64.7790895031" lon="11.7716823634">
		<tag k="fixme" v="multiple name tags, choose one and add the other to alt_name" />
		<tag k="name" v="Hjelmsøya;Monsøya" />
		<tag k="place" v="farm" />
		<tag k="ssr:stedsnr" v="974426" />
	</node>
	<node id="-908953" lat="64.8598555542" lon="11.4025444496">
		<tag k="name" v="Austmoen" />
		<tag k="place" v="farm" />
		<tag k="ssr:stedsnr" v="197452" />
	</node>
	<node id="-910996" lat="64.7870802943" lon="11.4198353045">
		<tag k="name" v="Lissval" />
		<tag k="place" v="farm" />
		<tag k="ssr:stedsnr" v="974425" />
	</node>
	<node id="-910995" lat="64.7342333365" lon="11.6407166725">
		<tag k="name" v="Oterbekken" />
		<tag k="place" v="farm" />
		<tag k="ssr:stedsnr" v="803297" />
	</node>
	<node id="-913039" lat="64.847508334" lon="11.2859555558">
		<tag k="name" v="Lørdagsvika" />
		<tag k="place" v="farm" />
		<tag k="ssr:stedsnr" v="682512" />
	</node>
	<node id="-910989" lat="64.938441283" lon="12.2367967577">
		<tag k="fixme" v="consider place=hamlet" />
		<tag k="name" v="Fesund" />
		<tag k="place" v="farm" />
		<tag k="ssr:stedsnr" v="15855" />
	</node>
	<node id="-910987" lat="64.9636583295" lon="12.0325138935">
		<tag k="loc_name" v="Naustenget" />
		<tag k="name" v="Fagerheim" />
		<tag k="place" v="farm" />
		<tag k="ssr:stedsnr" v="210348" />
	</node>
	<node id="-910986" lat="64.7934083355" lon="11.4174916715">
		<tag k="name" v="Korsskogan" />
		<tag k="place" v="farm" />
		<tag k="ssr:stedsnr" v="560358" />
	</node>
	<node id="-910983" lat="65.0372111131" lon="11.8771527755">
		<tag k="name" v="Lundberg" />
		<tag k="place" v="isolated_dwelling" />
		<tag k="ssr:stedsnr" v="350337" />
	</node>
	<node id="-908932" lat="64.8638277816" lon="11.3510944529">
		<tag k="alt_name" v="Engdalen" />
		<tag k="name" v="Engdal" />
		<tag k="place" v="farm" />
		<tag k="ssr:stedsnr" v="197447" />
	</node>
	<node id="-913023" lat="64.7800555556" lon="11.3905583262">
		<tag k="name" v="Solheim" />
		<tag k="place" v="farm" />
		<tag k="ssr:stedsnr" v="75789" />
	</node>
	<node id="-908920" lat="64.864416666" lon="11.5533750076">
		<tag k="name" v="Aunet" />
		<tag k="place" v="farm" />
		<tag k="ssr:stedsnr" v="500448" />
	</node>
	<node id="-913014" lat="65.0071916685" lon="11.6514361094">
		<tag k="name" v="Solheim" />
		<tag k="place" v="farm" />
		<tag k="ssr:stedsnr" v="169867" />
	</node>
	<node id="-908917" lat="64.9661361123" lon="12.0169861121">
		<tag k="name" v="Takåsen" />
		<tag k="place" v="farm" />
		<tag k="ssr:stedsnr" v="136662" />
	</node>
	<node id="-908914" lat="64.8648361143" lon="11.5561555602">
		<tag k="name" v="Mulstadenget" />
		<tag k="place" v="farm" />
		<tag k="ssr:stedsnr" v="500446" />
	</node>
	<node id="-908912" lat="64.96543333" lon="12.0085722233">
		<tag k="name" v="Høgheim" />
		<tag k="place" v="farm" />
		<tag k="ssr:stedsnr" v="136663" />
	</node>
	<node id="-908909" lat="64.9184555594" lon="11.516624996">
		<tag k="alt_name" v="Småengan" />
		<tag k="name" v="Småenget" />
		<tag k="place" v="farm" />
		<tag k="ssr:stedsnr" v="257046" />
	</node>
	<node id="-908908" lat="64.7902722184" lon="11.4005583334">
		<tag k="name" v="Valan" />
		<tag k="place" v="farm" />
		<tag k="ssr:stedsnr" v="75380" />
	</node>
	<node id="-912997" lat="64.8098212965" lon="11.7437451331">
		<tag k="fixme" v="consider place=hamlet" />
		<tag k="name" v="Risvika" />
		<tag k="place" v="farm" />
		<tag k="ssr:stedsnr" v="865914" />
	</node>
	<node id="-910948" lat="64.8172353063" lon="11.2630870727">
		<tag k="fixme" v="consider place=hamlet" />
		<tag k="name" v="Lundring" />
		<tag k="place" v="farm" />
		<tag k="ssr:stedsnr" v="682321" />
	</node>
	<node id="-912995" lat="64.8586722179" lon="11.5260861176">
		<tag k="name" v="Haugland" />
		<tag k="place" v="farm" />
		<tag k="ssr:stedsnr" v="954099" />
	</node>
	<node id="-910946" lat="64.9170641234" lon="11.7103101595">
		<tag k="fixme" v="consider place=hamlet" />
		<tag k="name" v="Horven" />
		<tag k="place" v="farm" />
		<tag k="ssr:stedsnr" v="196031" />
	</node>
	<node id="-908897" lat="64.9226194485" lon="11.8774166734">
		<tag k="name" v="Saltkjelvika" />
		<tag k="place" v="farm" />
		<tag k="ssr:stedsnr" v="257593" />
	</node>
	<node id="-912989" lat="64.7875305529" lon="11.4583527685">
		<tag k="name" v="Hestvika" />
		<tag k="place" v="farm" />
		<tag k="ssr:stedsnr" v="318749" />
	</node>
	<node id="-910936" lat="64.905286115" lon="11.5459638907">
		<tag k="alt_name" v="Nubbdalsenget" />
		<tag k="name" v="Nubdalsenget" />
		<tag k="place" v="farm" />
		<tag k="ssr:stedsnr" v="743056" />
	</node>
	<node id="-908900" lat="64.7869755424" lon="11.4180041645">
		<tag k="fixme" v="consider place=hamlet" />
		<tag k="name" v="Lissval" />
		<tag k="place" v="farm" />
		<tag k="ssr:stedsnr" v="75381" />
	</node>
	<node id="-908886" lat="64.8144027822" lon="11.6943166628">
		<tag k="name" v="Sørenmoen" />
		<tag k="place" v="farm" />
		<tag k="ssr:stedsnr" v="621331" />
	</node>
	<node id="-910932" lat="64.8303027805" lon="11.5077555463">
		<tag k="name" v="Myrvoll" />
		<tag k="place" v="farm" />
		<tag k="ssr:stedsnr" v="135250" />
	</node>
	<node id="-912979" lat="64.843258333" lon="11.2354583432">
		<tag k="name" v="Moan" />
		<tag k="place" v="farm" />
		<tag k="ssr:stedsnr" v="803477" />
	</node>
	<node id="-912974" lat="64.8508694404" lon="11.5371249946">
		<tag k="alt_name" v="Hammer" />
		<tag k="name" v="Hammar" />
		<tag k="place" v="farm" />
		<tag k="ssr:stedsnr" v="14398" />
	</node>
	<node id="-908875" lat="64.794894447" lon="11.7703749929">
		<tag k="name" v="Lautvika" />
		<tag k="place" v="isolated_dwelling" />
		<tag k="ssr:stedsnr" v="292107" />
	</node>
	<node id="-912970" lat="64.9802928644" lon="11.7099088017">
		<tag k="alt_name" v="Nordeitran" />
		<tag k="fixme" v="consider place=hamlet" />
		<tag k="name" v="Nord-Eitran" />
		<tag k="place" v="farm" />
		<tag k="ssr:stedsnr" v="317116" />
	</node>
	<node id="-910917" lat="64.7304194479" lon="11.6300305616">
		<tag k="historic" v="shieling" />
		<tag k="name" v="Fjærangssetran" />
		<tag k="place" v="locality" />
		<tag k="ssr:stedsnr" v="803295" />
	</node>
	<node id="-912962" lat="64.913741668" lon="11.3959027779">
		<tag k="name" v="Bosskogmarka" />
		<tag k="place" v="farm" />
		<tag k="ssr:stedsnr" v="560008" />
	</node>
	<node id="-912958" lat="64.804984733" lon="11.5137879285">
		<tag k="fixme" v="consider place=hamlet" />
		<tag k="name" v="Øksninga" />
		<tag k="place" v="farm" />
		<tag k="ssr:stedsnr" v="954943" />
	</node>
	<node id="-910906" lat="64.9873416689" lon="11.7704055587">
		<tag k="name" v="Nytun" />
		<tag k="place" v="farm" />
		<tag k="ssr:stedsnr" v="714533" />
	</node>
	<node id="-908853" lat="64.873683333" lon="11.707149996">
		<tag k="name" v="Nordhalsen" />
		<tag k="place" v="farm" />
		<tag k="ssr:stedsnr" v="26053" />
	</node>
	<node id="-908852" lat="64.9479527817" lon="12.0126000109">
		<tag k="name" v="Laberg" />
		<tag k="place" v="farm" />
		<tag k="ssr:stedsnr" v="15626" />
	</node>
	<node id="-910899" lat="64.849697223" lon="11.4191527799">
		<tag k="fixme" v="multiple name tags, choose one and add the other to alt_name" />
		<tag k="name" v="Hestlia;Litlveamoen" />
		<tag k="place" v="farm" />
		<tag k="ssr:stedsnr" v="925488" />
	</node>
	<node id="-908848" lat="64.9248805531" lon="11.8788972143">
		<tag k="name" v="Kreklingmoen" />
		<tag k="place" v="farm" />
		<tag k="ssr:stedsnr" v="390245" />
	</node>
	<node id="-912715" lat="64.7486144444" lon="11.2943985816">
		<tag k="alt_name" v="Stein" />
		<tag k="fixme" v="consider place=hamlet" />
		<tag k="name" v="Steine" />
		<tag k="place" v="farm" />
		<tag k="ssr:stedsnr" v="75764" />
	</node>
	<node id="-912942" lat="64.9543611124" lon="12.2311833255">
		<tag k="name" v="Moen" />
		<tag k="place" v="farm" />
		<tag k="ssr:stedsnr" v="500853" />
	</node>
	<node id="-912938" lat="64.8109916701" lon="11.3330861204">
		<tag k="name" v="Soltun" />
		<tag k="place" v="farm" />
		<tag k="ssr:stedsnr" v="76331" />
	</node>
	<node id="-908840" lat="64.9974027761" lon="11.7201805645">
		<tag k="name" v="Myrvang" />
		<tag k="place" v="isolated_dwelling" />
		<tag k="ssr:stedsnr" v="897456" />
	</node>
	<node id="-912935" lat="64.786086113" lon="11.2828805601">
		<tag k="name" v="Moen" />
		<tag k="place" v="farm" />
		<tag k="ssr:stedsnr" v="439746" />
	</node>
	<node id="-908837" lat="64.8215333344" lon="11.2850805568">
		<tag k="alt_name" v="Svenninga" />
		<tag k="name" v="Svenningan" />
		<tag k="place" v="farm" />
		<tag k="ssr:stedsnr" v="621308" />
	</node>
	<node id="-908835" lat="65.0329805527" lon="11.767488895">
		<tag k="loc_name" v="Heller Søndre" />
		<tag k="name" v="Søndre Heller" />
		<tag k="place" v="farm" />
		<tag k="ssr:stedsnr" v="540388" />
	</node>
	<node id="-912930" lat="64.8290555575" lon="11.322655557">
		<tag k="name" v="Vågsmyra" />
		<tag k="place" v="farm" />
		<tag k="ssr:stedsnr" v="197309" />
	</node>
	<node id="-908830" lat="64.9245333341" lon="11.7325194477">
		<tag k="name" v="Solvang" />
		<tag k="place" v="farm" />
		<tag k="ssr:stedsnr" v="378565" />
	</node>
	<node id="-908828" lat="64.9116999992" lon="11.3912777684">
		<tag k="name" v="Laukvikstranda" />
		<tag k="place" v="isolated_dwelling" />
		<tag k="ssr:stedsnr" v="257037" />
	</node>
	<node id="-908826" lat="64.9180749996" lon="11.8507916581">
		<tag k="name" v="Åsheim" />
		<tag k="place" v="farm" />
		<tag k="ssr:stedsnr" v="257583" />
	</node>
	<node id="-910873" lat="64.8626055578" lon="11.5991000062">
		<tag k="amenity" v="school" />
		<tag k="name" v="Nærøy ungdomsskole" />
		<tag k="ssr:stedsnr" v="891285" />
	</node>
	<node id="-908822" lat="64.8210944405" lon="11.293747217">
		<tag k="name" v="Nyheim" />
		<tag k="place" v="farm" />
		<tag k="ssr:stedsnr" v="621306" />
	</node>
	<node id="-912917" lat="64.8598666628" lon="11.3301694353">
		<tag k="name" v="Holandslia" />
		<tag k="place" v="isolated_dwelling" />
		<tag k="ssr:stedsnr" v="378430" />
	</node>
	<node id="-909918" lat="64.9380694417" lon="12.3264138787">
		<tag k="name" v="Heimsnes" />
		<tag k="place" v="hamlet" />
		<tag k="ssr:stedsnr" v="756276" />
	</node>
	<node id="-912911" lat="64.8024055549" lon="11.8329805594">
		<tag k="amenity" v="school" />
		<tag k="name" v="Oplø oppvekstsenter" />
		<tag k="ssr:stedsnr" v="102299" />
	</node>
	<node id="-908805" lat="64.8517444477" lon="11.9672166759">
		<tag k="name" v="Storslåtten" />
		<tag k="place" v="locality" />
		<tag k="ssr:stedsnr" v="76989" />
	</node>
	<node id="-908804" lat="64.9458500032" lon="11.9599249976">
		<tag k="name" v="Bergheim" />
		<tag k="place" v="farm" />
		<tag k="ssr:stedsnr" v="682628" />
	</node>
	<node id="-912897" lat="65.0186555599" lon="12.1299694448">
		<tag k="name" v="Grønlandssætra" />
		<tag k="place" v="locality" />
		<tag k="ssr:stedsnr" v="621179" />
	</node>
	<node id="-908800" lat="65.0187583298" lon="11.6439055542">
		<tag k="alt_name" v="Aunet" />
		<tag k="name" v="Dolmaunet" />
		<tag k="place" v="isolated_dwelling" />
		<tag k="ssr:stedsnr" v="75901" />
	</node>
	<node id="-912895" lat="64.7715722261" lon="11.3657750099">
		<tag k="name" v="Haugen" />
		<tag k="place" v="farm" />
		<tag k="ssr:stedsnr" v="893151" />
	</node>
	<node id="-908796" lat="64.8526805514" lon="11.2436333295">
		<tag k="name" v="Nygården" />
		<tag k="place" v="isolated_dwelling" />
		<tag k="ssr:stedsnr" v="28467" />
	</node>
	<node id="-908792" lat="64.8690750019" lon="11.6185777848">
		<tag k="name" v="Hagan" />
		<tag k="place" v="farm" />
		<tag k="ssr:stedsnr" v="197434" />
	</node>
	<node id="-912887" lat="64.8713999964" lon="11.4395027844">
		<tag k="name" v="Dalasjøen" />
		<tag k="place" v="isolated_dwelling" />
		<tag k="ssr:stedsnr" v="712330" />
	</node>
	<node id="-908787" lat="64.944402781" lon="11.766933329">
		<tag k="name" v="Granås" />
		<tag k="place" v="farm" />
		<tag k="ssr:stedsnr" v="803591" />
	</node>
	<node id="-908780" lat="64.9109305566" lon="11.5952083348">
		<tag k="name" v="Moen" />
		<tag k="place" v="farm" />
		<tag k="ssr:stedsnr" v="803042" />
	</node>
	<node id="-912874" lat="64.8415750038" lon="11.2812555483">
		<tag k="fixme" v="multiple name tags, choose one and add the other to alt_name" />
		<tag k="name" v="Komland;Lundgård" />
		<tag k="place" v="farm" />
		<tag k="ssr:stedsnr" v="135444" />
	</node>
	<node id="-910824" lat="64.9728724114" lon="11.8112608377">
		<tag k="fixme" v="consider place=hamlet" />
		<tag k="name" v="Fredrikmoen" />
		<tag k="place" v="farm" />
		<tag k="ssr:stedsnr" v="197662" />
	</node>
	<node id="-910808" lat="64.822961112" lon="11.5308750101">
		<tag k="name" v="Sørheim" />
		<tag k="place" v="farm" />
		<tag k="ssr:stedsnr" v="682308" />
	</node>
	<node id="-908758" lat="64.8707888928" lon="11.2796194355">
		<tag k="name" v="Juldagen" />
		<tag k="place" v="farm" />
		<tag k="ssr:stedsnr" v="210806" />
	</node>
	<node id="-910801" lat="64.9168250039" lon="12.4077861219">
		<tag k="name" v="Holandsætran" />
		<tag k="place" v="locality" />
		<tag k="ssr:stedsnr" v="682848" />
	</node>
	<node id="-910800" lat="64.7723166641" lon="11.6560916673">
		<tag k="name" v="Garnvika" />
		<tag k="place" v="isolated_dwelling" />
		<tag k="ssr:stedsnr" v="596941" />
	</node>
	<node id="-912847" lat="64.947400001" lon="12.2510055584">
		<tag k="name" v="Holandsjøen" />
		<tag k="place" v="farm" />
		<tag k="ssr:stedsnr" v="197851" />
	</node>
	<node id="-911266" lat="64.7970726317" lon="11.7464578974">
		<tag k="fixme" v="consider place=hamlet" />
		<tag k="name" v="Galtneset" />
		<tag k="place" v="farm" />
		<tag k="ssr:stedsnr" v="15880" />
	</node>
	<node id="-910792" lat="64.9670348559" lon="12.0769036298">
		<tag k="fixme" v="consider place=hamlet" />
		<tag k="name" v="Sjølstad" />
		<tag k="place" v="farm" />
		<tag k="ssr:stedsnr" v="388394" />
	</node>
	<node id="-912839" lat="64.8092305522" lon="11.6967749986">
		<tag k="alt_name" v="Litl-Hestvika" />
		<tag k="name" v="Litlhestvika" />
		<tag k="place" v="farm" />
		<tag k="ssr:stedsnr" v="865357" />
	</node>
	<node id="-910789" lat="65.013266671" lon="11.804172217">
		<tag k="name" v="Rønningen" />
		<tag k="place" v="farm" />
		<tag k="ssr:stedsnr" v="229262" />
	</node>
	<node id="-908731" lat="64.8320944476" lon="11.7366805507">
		<tag k="name" v="Midterenget" />
		<tag k="place" v="farm" />
		<tag k="ssr:stedsnr" v="500972" />
	</node>
	<node id="-910772" lat="64.8474805524" lon="11.3836361155">
		<tag k="name" v="Sandnesaunmoen" />
		<tag k="place" v="farm" />
		<tag k="ssr:stedsnr" v="346148" />
	</node>
	<node id="-908722" lat="64.7993000004" lon="11.4246944417">
		<tag k="name" v="Myra" />
		<tag k="place" v="farm" />
		<tag k="ssr:stedsnr" v="75363" />
	</node>
	<node id="-912816" lat="64.7466999992" lon="11.6270722278">
		<tag k="name" v="Lundaunet" />
		<tag k="place" v="farm" />
		<tag k="ssr:stedsnr" v="439744" />
	</node>
	<node id="-910764" lat="64.9181416678" lon="11.6017305576">
		<tag k="name" v="Slåtten" />
		<tag k="place" v="farm" />
		<tag k="ssr:stedsnr" v="75035" />
	</node>
	<node id="-910763" lat="64.9434111134" lon="11.7232500002">
		<tag k="name" v="Bjørnviksetran" />
		<tag k="place" v="isolated_dwelling" />
		<tag k="ssr:stedsnr" v="500657" />
	</node>
	<node id="-910759" lat="64.8050750021" lon="11.7799027828">
		<tag k="historic" v="shieling" />
		<tag k="name" v="Galtnessetran" />
		<tag k="place" v="locality" />
		<tag k="ssr:stedsnr" v="529017" />
	</node>
	<node id="-912805" lat="64.7555396625" lon="11.392014387">
		<tag k="fixme" v="consider place=hamlet" />
		<tag k="name" v="Hundhammaren" />
		<tag k="place" v="farm" />
		<tag k="ssr:stedsnr" v="742677" />
	</node>
	<node id="-908708" lat="64.8746222252" lon="11.6691749991">
		<tag k="name" v="Buvika" />
		<tag k="place" v="isolated_dwelling" />
		<tag k="ssr:stedsnr" v="500434" />
	</node>
	<node id="-910755" lat="64.8093083375" lon="11.3724833257">
		<tag k="name" v="Fagerheim" />
		<tag k="place" v="farm" />
		<tag k="ssr:stedsnr" v="804368" />
	</node>
	<node id="-910741" lat="64.9589499965" lon="12.1889722264">
		<tag k="name" v="Finnmoen" />
		<tag k="place" v="farm" />
		<tag k="ssr:stedsnr" v="500658" />
	</node>
	<node id="-910737" lat="64.9059805511" lon="11.5301527834">
		<tag k="name" v="Steinmoen" />
		<tag k="place" v="farm" />
		<tag k="ssr:stedsnr" v="439023" />
	</node>
	<node id="-908688" lat="64.8933388918" lon="11.5777194381">
		<tag k="name" v="Kjellingaunet" />
		<tag k="place" v="farm" />
		<tag k="ssr:stedsnr" v="682080" />
	</node>
	<node id="-908687" lat="64.9348499956" lon="12.2384861136">
		<tag k="name" v="Åsheim" />
		<tag k="place" v="farm" />
		<tag k="ssr:stedsnr" v="318853" />
	</node>
	<node id="-910734" lat="64.9403472257" lon="11.9230250009">
		<tag k="name" v="Kalvikmoen" />
		<tag k="place" v="farm" />
		<tag k="ssr:stedsnr" v="439559" />
	</node>
	<node id="-912781" lat="64.8496583344" lon="11.3002333309">
		<tag k="alt_name" v="Neset" />
		<tag k="name" v="Næs" />
		<tag k="place" v="farm" />
		<tag k="ssr:stedsnr" v="14382" />
	</node>
	<node id="-908866" lat="64.8578833361" lon="11.3817055484">
		<tag k="name" v="Bergem" />
		<tag k="place" v="farm" />
		<tag k="ssr:stedsnr" v="76461" />
	</node>
	<node id="-908681" lat="64.853933333" lon="11.6672749989">
		<tag k="name" v="Bjørnhammaren" />
		<tag k="place" v="isolated_dwelling" />
		<tag k="ssr:stedsnr" v="76442" />
	</node>
	<node id="-910728" lat="64.8557751182" lon="11.3636054259">
		<tag k="fixme" v="consider place=hamlet" />
		<tag k="name" v="Sandnes" />
		<tag k="place" v="farm" />
		<tag k="ssr:stedsnr" v="925493" />
	</node>
	<node id="-912775" lat="64.9084611133" lon="11.8102166672">
		<tag k="name" v="Buvika" />
		<tag k="place" v="farm" />
		<tag k="ssr:stedsnr" v="560534" />
	</node>
	<node id="-910726" lat="64.9633509479" lon="12.0209318272">
		<tag k="fixme" v="consider place=hamlet" />
		<tag k="name" v="Leirvika" />
		<tag k="place" v="farm" />
		<tag k="ssr:stedsnr" v="391339" />
	</node>
	<node id="-910721" lat="64.9337777759" lon="12.2802027698">
		<tag k="name" v="Forneset" />
		<tag k="place" v="farm" />
		<tag k="ssr:stedsnr" v="210307" />
	</node>
	<node id="-908670" lat="64.9375444455" lon="12.225227782">
		<tag k="name" v="Sørheim" />
		<tag k="place" v="farm" />
		<tag k="ssr:stedsnr" v="439852" />
	</node>
	<node id="-912765" lat="64.9264611097" lon="11.8948055552">
		<tag k="name" v="Sandvika" />
		<tag k="place" v="farm" />
		<tag k="ssr:stedsnr" v="512010" />
	</node>
	<node id="-912762" lat="64.862088885" lon="11.6149416677">
		<tag k="name" v="Odden" />
		<tag k="place" v="farm" />
		<tag k="ssr:stedsnr" v="15479" />
	</node>
	<node id="-910713" lat="64.9313777808" lon="11.7533805631">
		<tag k="name" v="Skogmo" />
		<tag k="place" v="farm" />
		<tag k="ssr:stedsnr" v="75582" />
	</node>
	<node id="-908662" lat="65.0405500004" lon="12.0242305482">
		<tag k="alt_name" v="Saglisetran" />
		<tag k="name" v="Saglisætran" />
		<tag k="place" v="isolated_dwelling" />
		<tag k="ssr:stedsnr" v="560110" />
	</node>
	<node id="-912757" lat="64.9214277765" lon="11.7233249995">
		<tag k="name" v="Moen" />
		<tag k="place" v="farm" />
		<tag k="ssr:stedsnr" v="560535" />
	</node>
	<node id="-912161" lat="64.8162861114" lon="11.5152749983">
		<tag k="name" v="Strandeng" />
		<tag k="place" v="farm" />
		<tag k="ssr:stedsnr" v="226128" />
	</node>
	<node id="-912755" lat="64.9844230469" lon="11.6253215107">
		<tag k="fixme" v="consider place=hamlet" />
		<tag k="name" v="Eiternes" />
		<tag k="place" v="farm" />
		<tag k="ssr:stedsnr" v="742136" />
	</node>
	<node id="-912749" lat="64.8099583348" lon="11.2740749963">
		<tag k="name" v="Nyrud" />
		<tag k="place" v="farm" />
		<tag k="ssr:stedsnr" v="865368" />
	</node>
	<node id="-908650" lat="64.9674833321" lon="12.0468583394">
		<tag k="fixme" v="multiple name tags, choose one and add the other to alt_name" />
		<tag k="name" v="Lund;Saltbuenget" />
		<tag k="place" v="farm" />
		<tag k="ssr:stedsnr" v="24613" />
	</node>
	<node id="-908647" lat="64.9486054552" lon="12.2288811897">
		<tag k="fixme" v="consider place=hamlet" />
		<tag k="name" v="Vennavika" />
		<tag k="place" v="farm" />
		<tag k="ssr:stedsnr" v="439855" />
	</node>
	<node id="-912742" lat="64.811980555" lon="11.7029222209">
		<tag k="historic" v="shieling" />
		<tag k="name" v="Buøysetran" />
		<tag k="place" v="locality" />
		<tag k="ssr:stedsnr" v="408035" />
	</node>
	<node id="-910689" lat="64.9310305558" lon="11.9006888784">
		<tag k="name" v="Sandmoen" />
		<tag k="place" v="farm" />
		<tag k="ssr:stedsnr" v="439546" />
	</node>
	<node id="-908639" lat="64.9692611114" lon="12.0918805483">
		<tag k="name" v="Grønli" />
		<tag k="place" v="farm" />
		<tag k="ssr:stedsnr" v="804652" />
	</node>
	<node id="-909541" lat="64.9343388847" lon="11.6654083306">
		<tag k="name" v="Vangsås" />
		<tag k="place" v="locality" />
		<tag k="ssr:stedsnr" v="897593" />
	</node>
	<node id="-910684" lat="64.7294444435" lon="11.1801222141">
		<tag k="fixme" v="consider place=suburb, village or hamlet" />
		<tag k="name" v="Abelvær" />
		<tag k="place" v="quarter" />
		<tag k="ssr:stedsnr" v="620946" />
	</node>
	<node id="-910678" lat="64.9081194478" lon="11.5055694538">
		<tag k="name" v="Kobbsteinvika" />
		<tag k="place" v="locality" />
		<tag k="ssr:stedsnr" v="75025" />
	</node>
	<node id="-912270" lat="64.8266999965" lon="11.5948805461">
		<tag k="name" v="Permoen" />
		<tag k="place" v="farm" />
		<tag k="ssr:stedsnr" v="893053" />
	</node>
	<node id="-908626" lat="64.9631416681" lon="12.0162333251">
		<tag k="name" v="Leirvik" />
		<tag k="place" v="farm" />
		<tag k="ssr:stedsnr" v="452326" />
	</node>
	<node id="-912721" lat="65.0175250039" lon="11.7519138935">
		<tag k="alt_name" v="Skotnes, nedre;Skotnes" />
		<tag k="name" v="Nedre Skotnes" />
		<tag k="place" v="farm" />
		<tag k="ssr:stedsnr" v="621165" />
	</node>
	<node id="-910672" lat="64.8317249961" lon="11.333005562">
		<tag k="name" v="Furem" />
		<tag k="place" v="farm" />
		<tag k="ssr:stedsnr" v="136314" />
	</node>
	<node id="-910670" lat="64.9387333292" lon="11.479727775">
		<tag k="fixme" v="consider place=hamlet" />
		<tag k="name" v="Måneset" />
		<tag k="place" v="village" />
		<tag k="ssr:stedsnr" v="14176" />
	</node>
	<node id="-912717" lat="64.8048444464" lon="11.7871861135">
		<tag k="name" v="Setran" />
		<tag k="place" v="farm" />
		<tag k="ssr:stedsnr" v="14911" />
	</node>
	<node id="-908619" lat="64.9295444462" lon="11.7486499936">
		<tag k="name" v="Jonsrud" />
		<tag k="place" v="farm" />
		<tag k="ssr:stedsnr" v="682611" />
	</node>
	<node id="-908615" lat="64.9284857168" lon="11.6440648665">
		<tag k="fixme" v="consider place=hamlet" />
		<tag k="name" v="Rød" />
		<tag k="place" v="farm" />
		<tag k="ssr:stedsnr" v="208329" />
	</node>
	<node id="-912709" lat="64.8513694481" lon="11.3206333282">
		<tag k="name" v="Leirvika" />
		<tag k="place" v="farm" />
		<tag k="ssr:stedsnr" v="682497" />
	</node>
	<node id="-912708" lat="64.8652583307" lon="11.6099305501">
		<tag k="name" v="Sanden" />
		<tag k="place" v="farm" />
		<tag k="ssr:stedsnr" v="378414" />
	</node>
	<node id="-912707" lat="64.8242694406" lon="11.4079694492">
		<tag k="name" v="Solvoll" />
		<tag k="place" v="farm" />
		<tag k="ssr:stedsnr" v="864280" />
	</node>
	<node id="-908610" lat="64.824565613" lon="11.3183259253">
		<tag k="fixme" v="consider place=hamlet" />
		<tag k="name" v="Våg" />
		<tag k="place" v="farm" />
		<tag k="ssr:stedsnr" v="621278" />
	</node>
	<node id="-910654" lat="64.912749997" lon="12.2731250088">
		<tag k="historic" v="shieling" />
		<tag k="name" v="Ole Samuelsensetran" />
		<tag k="place" v="locality" />
		<tag k="ssr:stedsnr" v="210302" />
	</node>
	<node id="-908605" lat="64.95231944" lon="12.3635305596">
		<tag k="name" v="Teplingsætran" />
		<tag k="place" v="locality" />
		<tag k="ssr:stedsnr" v="75882" />
	</node>
	<node id="-908604" lat="64.9670305587" lon="12.0776972245">
		<tag k="name" v="Øystergården" />
		<tag k="place" v="farm" />
		<tag k="ssr:stedsnr" v="804653" />
	</node>
	<node id="-912698" lat="64.8435555578" lon="11.3518027746">
		<tag k="name" v="Øyahalsengan" />
		<tag k="place" v="farm" />
		<tag k="ssr:stedsnr" v="286170" />
	</node>
	<node id="-908599" lat="64.8080215252" lon="11.7230240753">
		<tag k="name" v="Hyttevollen" />
		<tag k="place" v="farm" />
		<tag k="ssr:stedsnr" v="864928" />
	</node>
	<node id="-912692" lat="64.8495593004" lon="11.4077503449">
		<tag k="fixme" v="consider place=hamlet" />
		<tag k="name" v="Litlvea" />
		<tag k="place" v="farm" />
		<tag k="ssr:stedsnr" v="682494" />
	</node>
	<node id="-912690" lat="64.9761361101" lon="12.056563891">
		<tag k="name" v="Leirbogen" />
		<tag k="place" v="farm" />
		<tag k="ssr:stedsnr" v="521342" />
	</node>
	<node id="-912689" lat="64.9850694485" lon="12.147449996">
		<tag k="historic" v="shieling" />
		<tag k="name" v="Nersetran" />
		<tag k="place" v="locality" />
		<tag k="ssr:stedsnr" v="621711" />
	</node>
	<node id="-908590" lat="64.8867910037" lon="11.5341458806">
		<tag k="fixme" v="consider place=hamlet" />
		<tag k="name" v="Li" />
		<tag k="place" v="farm" />
		<tag k="ssr:stedsnr" v="560102" />
	</node>
	<node id="-908588" lat="64.9050833327" lon="11.3747500049">
		<tag k="name" v="Stranda" />
		<tag k="place" v="isolated_dwelling" />
		<tag k="ssr:stedsnr" v="803034" />
	</node>
	<node id="-912683" lat="64.8417305587" lon="11.792577775">
		<tag k="name" v="Kvistagården" />
		<tag k="place" v="isolated_dwelling" />
		<tag k="ssr:stedsnr" v="475828" />
	</node>
	<node id="-910634" lat="64.9572111139" lon="12.0253111024">
		<tag k="name" v="Rønningen" />
		<tag k="place" v="farm" />
		<tag k="ssr:stedsnr" v="197638" />
	</node>
	<node id="-910632" lat="64.865494448" lon="11.6046472146">
		<tag k="name" v="Kolvereid" />
		<tag k="place" v="town" />
		<tag k="ssr:stedsnr" v="925480" />
	</node>
	<node id="-912676" lat="64.8724111106" lon="11.8461638845">
		<tag k="alt_name" v="Løenget" />
		<tag k="name" v="Lauvenget" />
		<tag k="place" v="locality" />
		<tag k="ssr:stedsnr" v="257972" />
	</node>
	<node id="-912673" lat="65.0021861078" lon="11.6814527745">
		<tag k="name" v="Nordvika" />
		<tag k="place" v="isolated_dwelling" />
		<tag k="ssr:stedsnr" v="229532" />
	</node>
	<node id="-908576" lat="64.8218555588" lon="11.5655055645">
		<tag k="name" v="Fagerbakken" />
		<tag k="place" v="farm" />
		<tag k="ssr:stedsnr" v="621295" />
	</node>
	<node id="-910621" lat="64.8334916663" lon="11.267374996">
		<tag k="name" v="Sande" />
		<tag k="place" v="farm" />
		<tag k="ssr:stedsnr" v="318521" />
	</node>
	<node id="-912668" lat="64.7988663283" lon="11.8520216401">
		<tag k="fixme" v="consider place=hamlet" />
		<tag k="name" v="Oppløya" />
		<tag k="place" v="farm" />
		<tag k="ssr:stedsnr" v="14908" />
	</node>
	<node id="-910618" lat="64.7774500012" lon="11.706288881">
		<tag k="name" v="Oddvika" />
		<tag k="place" v="isolated_dwelling" />
		<tag k="ssr:stedsnr" v="378767" />
	</node>
	<node id="-912943" lat="64.8627027757" lon="11.4400138815">
		<tag k="name" v="Åslia" />
		<tag k="place" v="farm" />
		<tag k="ssr:stedsnr" v="378433" />
	</node>
	<node id="-911236" lat="64.9471415336" lon="12.3075439035">
		<tag k="fixme" v="consider place=hamlet" />
		<tag k="name" v="Teplingan" />
		<tag k="place" v="farm" />
		<tag k="ssr:stedsnr" v="682876" />
	</node>
	<node id="-912658" lat="64.9971249974" lon="12.1802138875">
		<tag k="alt_name" v="Lien" />
		<tag k="name" v="Lia" />
		<tag k="place" v="isolated_dwelling" />
		<tag k="ssr:stedsnr" v="742661" />
	</node>
	<node id="-908561" lat="64.8611761068" lon="11.6564279115">
		<tag k="fixme" v="consider place=hamlet" />
		<tag k="name" v="Korsneset" />
		<tag k="place" v="farm" />
		<tag k="ssr:stedsnr" v="76434" />
	</node>
	<node id="-908558" lat="64.9254055844" lon="11.4836212675">
		<tag k="name" v="Bakkan" />
		<tag k="place" v="farm" />
		<tag k="ssr:stedsnr" v="925247" />
	</node>
	<node id="-910600" lat="64.8056333328" lon="11.3689416728">
		<tag k="name" v="Fuglvika" />
		<tag k="place" v="farm" />
		<tag k="ssr:stedsnr" v="379313" />
	</node>
	<node id="-910597" lat="65.0036583353" lon="11.6657305498">
		<tag k="name" v="Aunet" />
		<tag k="place" v="isolated_dwelling" />
		<tag k="ssr:stedsnr" v="593843" />
	</node>
	<node id="-912632" lat="64.9328861117" lon="12.2822777721">
		<tag k="name" v="Forneset" />
		<tag k="place" v="farm" />
		<tag k="ssr:stedsnr" v="88215" />
	</node>
	<node id="-908535" lat="64.9430916681" lon="11.9350416575">
		<tag k="name" v="Sørvika" />
		<tag k="place" v="farm" />
		<tag k="ssr:stedsnr" v="803585" />
	</node>
	<node id="-910577" lat="64.9957083293" lon="11.7213027677">
		<tag k="name" v="Solstad" />
		<tag k="place" v="isolated_dwelling" />
		<tag k="ssr:stedsnr" v="108532" />
	</node>
	<node id="-912624" lat="64.8895999986" lon="11.6716361108">
		<tag k="name" v="Fjellmoen" />
		<tag k="place" v="farm" />
		<tag k="ssr:stedsnr" v="317083" />
	</node>
	<node id="-910575" lat="64.8102055526" lon="11.3478111004">
		<tag k="fixme" v="consider place=hamlet" />
		<tag k="name" v="Varøya" />
		<tag k="place" v="village" />
		<tag k="ssr:stedsnr" v="379315" />
	</node>
	<node id="-908526" lat="64.9195750016" lon="11.5953500022">
		<tag k="name" v="Stranda" />
		<tag k="place" v="farm" />
		<tag k="ssr:stedsnr" v="15027" />
	</node>
	<node id="-908522" lat="64.9715722239" lon="12.1213555592">
		<tag k="name" v="Solli" />
		<tag k="place" v="isolated_dwelling" />
		<tag k="ssr:stedsnr" v="804642" />
	</node>
	<node id="-910565" lat="64.9486162105" lon="11.9657601302">
		<tag k="fixme" v="consider place=hamlet" />
		<tag k="name" v="Årfor" />
		<tag k="place" v="farm" />
		<tag k="ssr:stedsnr" v="971874" />
	</node>
	<node id="-912933" lat="64.8131361142" lon="11.3297527872">
		<tag k="name" v="Storvollen" />
		<tag k="place" v="farm" />
		<tag k="ssr:stedsnr" v="76332" />
	</node>
	<node id="-912250" lat="64.9528916654" lon="11.7034138784">
		<tag k="fixme" v="consider place=hamlet" />
		<tag k="name" v="Bjørnvika" />
		<tag k="place" v="farm" />
		<tag k="ssr:stedsnr" v="439153" />
	</node>
	<node id="-910551" lat="64.7508777752" lon="11.3000083351">
		<tag k="name" v="Krokan" />
		<tag k="place" v="farm" />
		<tag k="ssr:stedsnr" v="711140" />
	</node>
	<node id="-910542" lat="64.7679055544" lon="11.6005444542">
		<tag k="fixme" v="consider place=hamlet" />
		<tag k="name" v="Lund" />
		<tag k="place" v="village" />
		<tag k="ssr:stedsnr" v="378759" />
	</node>
	<node id="-908493" lat="64.9742656083" lon="12.0588960455">
		<tag k="alt_name" v="Bustholet" />
		<tag k="name" v="Heggli" />
		<tag k="place" v="farm" />
		<tag k="ssr:stedsnr" v="560648" />
	</node>
	<node id="-908492" lat="64.8282503713" lon="11.6090491479">
		<tag k="fixme" v="consider place=hamlet" />
		<tag k="name" v="Hoflesja" />
		<tag k="place" v="farm" />
		<tag k="ssr:stedsnr" v="621265" />
	</node>
	<node id="-910534" lat="64.9143653174" lon="11.8255191309">
		<tag k="fixme" v="consider place=hamlet" />
		<tag k="name" v="Rokka" />
		<tag k="place" v="farm" />
		<tag k="ssr:stedsnr" v="75559" />
	</node>
	<node id="-910533" lat="64.9328352937" lon="12.011354308">
		<tag k="alt_name" v="Svinnstineset" />
		<tag k="fixme" v="consider place=hamlet" />
		<tag k="name" v="Neset" />
		<tag k="place" v="farm" />
		<tag k="ssr:stedsnr" v="743560" />
	</node>
	<node id="-908483" lat="64.9988527739" lon="11.7224055515">
		<tag k="fixme" v="consider place=hamlet" />
		<tag k="name" v="Kaldvika" />
		<tag k="place" v="village" />
		<tag k="ssr:stedsnr" v="836511" />
	</node>
	<node id="-908481" lat="64.8002944445" lon="11.7915861192">
		<tag k="name" v="Båsen" />
		<tag k="place" v="isolated_dwelling" />
		<tag k="ssr:stedsnr" v="778068" />
	</node>
	<node id="-908479" lat="64.7481055587" lon="11.2400361106">
		<tag k="alt_name" v="Ramstad Østre" />
		<tag k="name" v="Østre Ramstad" />
		<tag k="place" v="farm" />
		<tag k="ssr:stedsnr" v="891643" />
	</node>
	<node id="-910522" lat="64.9950388921" lon="11.6737777794">
		<tag k="name" v="Myrmo" />
		<tag k="place" v="farm" />
		<tag k="ssr:stedsnr" v="108524" />
	</node>
	<node id="-912244" lat="64.8521729947" lon="11.4797332782">
		<tag k="name" v="Nakling" />
		<tag k="place" v="farm" />
		<tag k="ssr:stedsnr" v="589111" />
	</node>
	<node id="-908468" lat="64.8891638903" lon="11.5553250042">
		<tag k="name" v="Liaaunet" />
		<tag k="place" v="isolated_dwelling" />
		<tag k="ssr:stedsnr" v="560100" />
	</node>
	<node id="-911884" lat="64.9786000007" lon="11.8353361153">
		<tag k="name" v="Øvermoen" />
		<tag k="place" v="isolated_dwelling" />
		<tag k="ssr:stedsnr" v="75685" />
	</node>
	<node id="-910514" lat="65.0009944469" lon="11.7018027763">
		<tag k="name" v="Vasslia" />
		<tag k="place" v="farm" />
		<tag k="ssr:stedsnr" v="560850" />
	</node>
	<node id="-908460" lat="64.815799996" lon="11.6296972287">
		<tag k="alt_name" v="Nesset" />
		<tag k="name" v="Neset" />
		<tag k="place" v="farm" />
		<tag k="ssr:stedsnr" v="75331" />
	</node>
	<node id="-910503" lat="64.9382046493" lon="12.3245668298">
		<tag k="fixme" v="consider place=hamlet" />
		<tag k="name" v="Heimsnes" />
		<tag k="place" v="farm" />
		<tag k="ssr:stedsnr" v="971878" />
	</node>
	<node id="-908450" lat="65.0171866237" lon="11.835404651">
		<tag k="fixme" v="consider place=hamlet" />
		<tag k="name" v="Kil" />
		<tag k="place" v="farm" />
		<tag k="ssr:stedsnr" v="924151" />
	</node>
	<node id="-911747" lat="64.8171805538" lon="11.5122666703">
		<tag k="name" v="Bø" />
		<tag k="place" v="farm" />
		<tag k="ssr:stedsnr" v="378313" />
	</node>
	<node id="-912544" lat="64.9658611076" lon="11.7994166671">
		<tag k="name" v="Åsheim" />
		<tag k="place" v="farm" />
		<tag k="ssr:stedsnr" v="925660" />
	</node>
	<node id="-912543" lat="64.9962305584" lon="11.7695361145">
		<tag k="alt_name" v="Østvika" />
		<tag k="name" v="Austvika" />
		<tag k="place" v="farm" />
		<tag k="ssr:stedsnr" v="318707" />
	</node>
	<node id="-910494" lat="64.8498833368" lon="11.4112888834">
		<tag k="name" v="Vea" />
		<tag k="place" v="farm" />
		<tag k="ssr:stedsnr" v="711946" />
	</node>
	<node id="-908441" lat="64.8240762762" lon="11.3307662194">
		<tag k="fixme" v="consider place=hamlet" />
		<tag k="name" v="Skillingstad" />
		<tag k="place" v="farm" />
		<tag k="ssr:stedsnr" v="621275" />
	</node>
	<node id="-912535" lat="64.9600527759" lon="11.7843583231">
		<tag k="name" v="Skogstad" />
		<tag k="place" v="farm" />
		<tag k="ssr:stedsnr" v="925661" />
	</node>
	<node id="-908438" lat="64.9731944487" lon="11.8410333429">
		<tag k="name" v="Vårtun" />
		<tag k="place" v="isolated_dwelling" />
		<tag k="ssr:stedsnr" v="47337" />
	</node>
	<node id="-908436" lat="64.7804499989" lon="11.3889305577">
		<tag k="name" v="Engesneset" />
		<tag k="place" v="farm" />
		<tag k="ssr:stedsnr" v="925789" />
	</node>
	<node id="-912531" lat="64.9451707466" lon="11.4417334577">
		<tag k="fixme" v="consider place=hamlet" />
		<tag k="name" v="Gjerdinga" />
		<tag k="place" v="farm" />
		<tag k="ssr:stedsnr" v="75206" />
	</node>
	<node id="-910482" lat="64.949929668" lon="12.0108367543">
		<tag k="fixme" v="consider place=hamlet" />
		<tag k="name" v="Skaftnes" />
		<tag k="place" v="farm" />
		<tag k="ssr:stedsnr" v="971875" />
	</node>
	<node id="-908433" lat="64.9327590583" lon="12.1939756146">
		<tag k="fixme" v="consider place=hamlet" />
		<tag k="name" v="Bogan" />
		<tag k="place" v="farm" />
		<tag k="ssr:stedsnr" v="682608" />
	</node>
	<node id="-912527" lat="64.7838138897" lon="11.8195694399">
		<tag k="name" v="Sandvika" />
		<tag k="place" v="isolated_dwelling" />
		<tag k="ssr:stedsnr" v="408015" />
	</node>
	<node id="-911213" lat="64.8499083333" lon="11.2255555489">
		<tag k="name" v="Vestvik" />
		<tag k="place" v="farm" />
		<tag k="ssr:stedsnr" v="573426" />
	</node>
	<node id="-910476" lat="64.7708361074" lon="11.7470555573">
		<tag k="name" v="Bugen" />
		<tag k="place" v="farm" />
		<tag k="ssr:stedsnr" v="695471" />
	</node>
	<node id="-912522" lat="64.7671187432" lon="11.582625944">
		<tag k="alt_name" v="Myra" />
		<tag k="name" v="Faksmyra" />
		<tag k="place" v="farm" />
		<tag k="ssr:stedsnr" v="743738" />
	</node>
	<node id="-908424" lat="64.8185666702" lon="11.564686107">
		<tag k="name" v="Hillestad" />
		<tag k="place" v="farm" />
		<tag k="ssr:stedsnr" v="743346" />
	</node>
	<node id="-912514" lat="64.79916944" lon="11.8468388886">
		<tag k="name" v="Oppløya" />
		<tag k="place" v="village" />
		<tag k="ssr:stedsnr" v="589968" />
	</node>
	<node id="-910460" lat="64.7460638931" lon="11.3318555557">
		<tag k="name" v="Løvmo" />
		<tag k="place" v="farm" />
		<tag k="ssr:stedsnr" v="257764" />
	</node>
	<node id="-912503" lat="64.9355750037" lon="11.4637666668">
		<tag k="name" v="Nerneset" />
		<tag k="place" v="farm" />
		<tag k="ssr:stedsnr" v="197269" />
	</node>
	<node id="-908406" lat="64.8089166702" lon="11.4491361026">
		<tag k="name" v="Bogen" />
		<tag k="place" v="farm" />
		<tag k="ssr:stedsnr" v="439312" />
	</node>
	<node id="-912499" lat="64.7776388877" lon="11.7174388862">
		<tag k="name" v="Juvika" />
		<tag k="place" v="farm" />
		<tag k="ssr:stedsnr" v="864773" />
	</node>
	<node id="-912497" lat="64.8013361131" lon="11.80947777">
		<tag k="name" v="Bursvika" />
		<tag k="place" v="farm" />
		<tag k="ssr:stedsnr" v="43014" />
	</node>
	<node id="-908399" lat="64.9171805552" lon="11.4959166624">
		<tag k="name" v="Halsan" />
		<tag k="place" v="farm" />
		<tag k="ssr:stedsnr" v="450082" />
	</node>
	<node id="-912492" lat="64.7434138877" lon="11.2083583295">
		<tag k="name" v="Stranda" />
		<tag k="place" v="isolated_dwelling" />
		<tag k="ssr:stedsnr" v="589972" />
	</node>
	<node id="-910443" lat="64.9492111074" lon="11.7793527755">
		<tag k="name" v="Svanås" />
		<tag k="place" v="farm" />
		<tag k="ssr:stedsnr" v="197615" />
	</node>
	<node id="-910183" lat="64.870719446" lon="11.7131166568">
		<tag k="alt_name" v="Aunvik" />
		<tag k="name" v="Aunvika" />
		<tag k="place" v="farm" />
		<tag k="ssr:stedsnr" v="925418" />
	</node>
	<node id="-908391" lat="64.9692944481" lon="12.0701138807">
		<tag k="fixme" v="multiple name tags, choose one and add the other to alt_name" />
		<tag k="name" v="Kvammen;Kvammoen" />
		<tag k="place" v="farm" />
		<tag k="ssr:stedsnr" v="804648" />
	</node>
	<node id="-912484" lat="64.7685805518" lon="11.6806805489">
		<tag k="name" v="Dyrvika" />
		<tag k="place" v="isolated_dwelling" />
		<tag k="ssr:stedsnr" v="743737" />
	</node>
	<node id="-913073" lat="64.8193333295" lon="11.3306055476">
		<tag k="name" v="Fikkan" />
		<tag k="place" v="farm" />
		<tag k="ssr:stedsnr" v="864316" />
	</node>
	<node id="-910432" lat="64.8629500023" lon="11.4104611147">
		<tag k="name" v="Framnes" />
		<tag k="place" v="farm" />
		<tag k="ssr:stedsnr" v="925454" />
	</node>
	<node id="-908382" lat="64.828852781" lon="11.261963899">
		<tag k="name" v="Flosanden" />
		<tag k="place" v="farm" />
		<tag k="ssr:stedsnr" v="621270" />
	</node>
	<node id="-908381" lat="64.828974997" lon="11.2995000043">
		<tag k="name" v="Staverenget" />
		<tag k="place" v="farm" />
		<tag k="ssr:stedsnr" v="742244" />
	</node>
	<node id="-909767" lat="64.8378888917" lon="11.3876166624">
		<tag k="fixme" v="multiple name tags, choose one and add the other to alt_name" />
		<tag k="name" v="Haug;Medeng" />
		<tag k="place" v="farm" />
		<tag k="ssr:stedsnr" v="864532" />
	</node>
	<node id="-912469" lat="64.8120638925" lon="11.3639944449">
		<tag k="name" v="Varøya" />
		<tag k="place" v="farm" />
		<tag k="ssr:stedsnr" v="226181" />
	</node>
	<node id="-910417" lat="64.9164225763" lon="11.6036423058">
		<tag k="alt_name" v="Fjær søre" />
		<tag k="name" v="Fjær" />
		<tag k="place" v="farm" />
		<tag k="ssr:stedsnr" v="197069" />
	</node>
	<node id="-910415" lat="64.9817615772" lon="11.7669273794">
		<tag k="fixme" v="consider place=hamlet" />
		<tag k="name" v="Strømsneset" />
		<tag k="place" v="farm" />
		<tag k="ssr:stedsnr" v="392102" />
	</node>
	<node id="-908572" lat="64.9467750041" lon="12.221911101">
		<tag k="name" v="Bliksvik" />
		<tag k="place" v="farm" />
		<tag k="ssr:stedsnr" v="452312" />
	</node>
	<node id="-912459" lat="65.0091749979" lon="11.8912083432">
		<tag k="name" v="Sætran" />
		<tag k="place" v="isolated_dwelling" />
		<tag k="ssr:stedsnr" v="318156" />
	</node>
	<node id="-908362" lat="65.0143598523" lon="11.7103146443">
		<tag k="name" v="Fjølvika" />
		<tag k="place" v="farm" />
		<tag k="ssr:stedsnr" v="196847" />
	</node>
	<node id="-912455" lat="64.8011250036" lon="11.8247361167">
		<tag k="alt_name" v="Langneset" />
		<tag k="name" v="Langnes" />
		<tag k="place" v="hamlet" />
		<tag k="ssr:stedsnr" v="257951" />
	</node>
	<node id="-912452" lat="64.9639000009" lon="12.026274992">
		<tag k="name" v="Leirvik" />
		<tag k="place" v="farm" />
		<tag k="ssr:stedsnr" v="817336" />
	</node>
	<node id="-908353" lat="64.8074611137" lon="11.35079167">
		<tag k="name" v="Haugen" />
		<tag k="place" v="farm" />
		<tag k="ssr:stedsnr" v="500393" />
	</node>
	<node id="-912446" lat="64.9283777797" lon="11.8924000054">
		<tag k="name" v="Skogly" />
		<tag k="place" v="farm" />
		<tag k="ssr:stedsnr" v="572013" />
	</node>
	<node id="-910397" lat="64.955128543" lon="11.6317338228">
		<tag k="fixme" v="consider place=hamlet" />
		<tag k="name" v="Hjelmsenget" />
		<tag k="place" v="farm" />
		<tag k="ssr:stedsnr" v="378166" />
	</node>
	<node id="-908347" lat="64.8245111146" lon="11.5494638881">
		<tag k="name" v="Skogly" />
		<tag k="place" v="farm" />
		<tag k="ssr:stedsnr" v="743321" />
	</node>
	<node id="-912442" lat="64.7703638858" lon="11.6548583331">
		<tag k="name" v="Harraneset" />
		<tag k="place" v="farm" />
		<tag k="ssr:stedsnr" v="743733" />
	</node>
	<node id="-908345" lat="64.9661111099" lon="11.9378861077">
		<tag k="historic" v="shieling" />
		<tag k="name" v="Sørlisetran" />
		<tag k="place" v="locality" />
		<tag k="ssr:stedsnr" v="692174" />
	</node>
	<node id="-910392" lat="64.9082527787" lon="11.5866000046">
		<tag k="name" v="Ekrån" />
		<tag k="place" v="farm" />
		<tag k="ssr:stedsnr" v="197063" />
	</node>
	<node id="-910391" lat="64.944902777" lon="11.941438881">
		<tag k="name" v="Hestmarka" />
		<tag k="place" v="farm" />
		<tag k="ssr:stedsnr" v="197611" />
	</node>
	<node id="-908341" lat="64.7373166687" lon="11.6235638935">
		<tag k="name" v="Halsen" />
		<tag k="place" v="isolated_dwelling" />
		<tag k="ssr:stedsnr" v="925766" />
	</node>
	<node id="-912436" lat="64.9952083374" lon="11.7987333387">
		<tag k="name" v="Høgmoen" />
		<tag k="place" v="farm" />
		<tag k="ssr:stedsnr" v="742655" />
	</node>
	<node id="-910386" lat="64.8544861124" lon="11.5309027709">
		<tag k="name" v="Neset" />
		<tag k="place" v="farm" />
		<tag k="ssr:stedsnr" v="621475" />
	</node>
	<node id="-908334" lat="64.7686916662" lon="11.6037083337">
		<tag k="name" v="Rønningen" />
		<tag k="place" v="farm" />
		<tag k="ssr:stedsnr" v="925767" />
	</node>
	<node id="-912429" lat="64.928254028" lon="12.3177135062">
		<tag k="alt_name" v="Løkholmen" />
		<tag k="fixme" v="consider place=hamlet" />
		<tag k="name" v="Holmen" />
		<tag k="place" v="farm" />
		<tag k="ssr:stedsnr" v="440778" />
	</node>
	<node id="-908332" lat="64.9457222266" lon="11.4326444366">
		<tag k="name" v="Solbakken" />
		<tag k="place" v="farm" />
		<tag k="ssr:stedsnr" v="171512" />
	</node>
	<node id="-908331" lat="64.9605027741" lon="12.0238361126">
		<tag k="name" v="Leirvika" />
		<tag k="place" v="hamlet" />
		<tag k="ssr:stedsnr" v="804624" />
	</node>
	<node id="-912424" lat="64.907833331" lon="11.5286166713">
		<tag k="fixme" v="consider place=hamlet" />
		<tag k="name" v="Langstranda" />
		<tag k="place" v="village" />
		<tag k="ssr:stedsnr" v="471033" />
	</node>
	<node id="-908326" lat="64.921927779" lon="11.5321638809">
		<tag k="name" v="Stormyra" />
		<tag k="place" v="isolated_dwelling" />
		<tag k="ssr:stedsnr" v="287141" />
	</node>
	<node id="-908325" lat="64.8732111109" lon="12.0598444532">
		<tag k="name" v="Åsvasskroken" />
		<tag k="place" v="isolated_dwelling" />
		<tag k="ssr:stedsnr" v="598798" />
	</node>
	<node id="-912413" lat="65.0033518816" lon="11.7619394098">
		<tag k="fixme" v="consider place=hamlet" />
		<tag k="name" v="Høkholm" />
		<tag k="place" v="farm" />
		<tag k="ssr:stedsnr" v="75190" />
	</node>
	<node id="-912412" lat="64.8252972254" lon="11.5768166751">
		<tag k="name" v="Skagamoen" />
		<tag k="place" v="farm" />
		<tag k="ssr:stedsnr" v="286110" />
	</node>
	<node id="-910852" lat="64.8613861134" lon="11.6176805505">
		<tag k="name" v="Rønningen" />
		<tag k="place" v="farm" />
		<tag k="ssr:stedsnr" v="925483" />
	</node>
	<node id="-910355" lat="64.845291667" lon="11.5208027679">
		<tag k="fixme" v="consider place=hamlet" />
		<tag k="name" v="Horvereid" />
		<tag k="place" v="farm" />
		<tag k="ssr:stedsnr" v="711108" />
	</node>
	<node id="-910354" lat="64.8159305556" lon="11.6851722181">
		<tag k="name" v="Ospvika" />
		<tag k="place" v="farm" />
		<tag k="ssr:stedsnr" v="468291" />
	</node>
	<node id="-908305" lat="64.9569083295" lon="12.0133277777">
		<tag k="name" v="Brekka" />
		<tag k="place" v="farm" />
		<tag k="ssr:stedsnr" v="136607" />
	</node>
	<node id="-908304" lat="64.8099666622" lon="11.7559750029">
		<tag k="name" v="Risviksetran" />
		<tag k="place" v="locality" />
		<tag k="ssr:stedsnr" v="500934" />
	</node>
	<node id="-908302" lat="64.8214916689" lon="11.5122694355">
		<tag k="name" v="Sørly" />
		<tag k="place" v="farm" />
		<tag k="ssr:stedsnr" v="743319" />
	</node>
	<node id="-912396" lat="64.9420527811" lon="11.568458334">
		<tag k="name" v="Innerplassen" />
		<tag k="place" v="locality" />
		<tag k="ssr:stedsnr" v="897208" />
	</node>
	<node id="-910346" lat="64.9301549412" lon="11.4509446861">
		<tag k="fixme" v="consider place=hamlet" />
		<tag k="name" v="Eidshaug" />
		<tag k="place" v="farm" />
		<tag k="ssr:stedsnr" v="971865" />
	</node>
	<node id="-910344" lat="64.910698196" lon="11.5000171616">
		<tag k="name" v="Bogen" />
		<tag k="place" v="farm" />
		<tag k="ssr:stedsnr" v="864039" />
	</node>
	<node id="-910342" lat="64.9306527774" lon="11.450366665">
		<tag k="fixme" v="consider place=hamlet" />
		<tag k="name" v="Eidshaug" />
		<tag k="place" v="village" />
		<tag k="ssr:stedsnr" v="136283" />
	</node>
	<node id="-910339" lat="64.8776722242" lon="11.4279361207">
		<tag k="name" v="Sørågården" />
		<tag k="place" v="farm" />
		<tag k="ssr:stedsnr" v="894405" />
	</node>
	<node id="-912386" lat="64.9503750008" lon="11.9491777791">
		<tag k="name" v="Heimly" />
		<tag k="place" v="farm" />
		<tag k="ssr:stedsnr" v="925639" />
	</node>
	<node id="-910337" lat="64.7774444406" lon="11.3787111147">
		<tag k="alt_name" v="Vannholmen" />
		<tag k="name" v="Vandholmen" />
		<tag k="place" v="farm" />
		<tag k="ssr:stedsnr" v="378752" />
	</node>
	<node id="-912383" lat="64.7509059824" lon="11.5526508882">
		<tag k="fixme" v="consider place=hamlet" />
		<tag k="name" v="Smineset" />
		<tag k="place" v="farm" />
		<tag k="ssr:stedsnr" v="75734" />
	</node>
	<node id="-908285" lat="64.8075249994" lon="11.4405833278">
		<tag k="name" v="Strandvalen" />
		<tag k="place" v="farm" />
		<tag k="ssr:stedsnr" v="864355" />
	</node>
	<node id="-910329" lat="64.8748972221" lon="11.4398694536">
		<tag k="name" v="Høgstad" />
		<tag k="place" v="farm" />
		<tag k="ssr:stedsnr" v="894406" />
	</node>
	<node id="-912375" lat="64.9468166625" lon="11.5044861095">
		<tag k="name" v="Tangen" />
		<tag k="place" v="farm" />
		<tag k="ssr:stedsnr" v="196176" />
	</node>
	<node id="-912374" lat="64.917263885" lon="12.3089305462">
		<tag k="name" v="Holmdalssætra" />
		<tag k="place" v="locality" />
		<tag k="ssr:stedsnr" v="197802" />
	</node>
	<node id="-908276" lat="64.8553476995" lon="11.651261761">
		<tag k="name" v="Finnvika" />
		<tag k="place" v="isolated_dwelling" />
		<tag k="ssr:stedsnr" v="865459" />
	</node>
	<node id="-908265" lat="64.8138111154" lon="11.4001249954">
		<tag k="name" v="Åsli" />
		<tag k="place" v="locality" />
		<tag k="ssr:stedsnr" v="743331" />
	</node>
	<node id="-912359" lat="64.8785750015" lon="11.7403361208">
		<tag k="name" v="Kjøløymoen" />
		<tag k="place" v="farm" />
		<tag k="ssr:stedsnr" v="15979" />
	</node>
	<node id="-910307" lat="64.7467472251" lon="11.2325027784">
		<tag k="fixme" v="consider place=hamlet" />
		<tag k="name" v="Ramstad" />
		<tag k="place" v="farm" />
		<tag k="ssr:stedsnr" v="682801" />
	</node>
	<node id="-912350" lat="65.0108305601" lon="11.8051499972">
		<tag k="name" v="Løvollen" />
		<tag k="place" v="farm" />
		<tag k="ssr:stedsnr" v="75183" />
	</node>
	<node id="-910301" lat="64.769019752" lon="11.7056477997">
		<tag k="fixme" v="consider place=hamlet" />
		<tag k="name" v="Lian" />
		<tag k="place" v="farm" />
		<tag k="ssr:stedsnr" v="257747" />
	</node>
	<node id="-912346" lat="64.9534750001" lon="11.5739305627">
		<tag k="name" v="Sandvika" />
		<tag k="place" v="isolated_dwelling" />
		<tag k="ssr:stedsnr" v="196169" />
	</node>
	<node id="-910297" lat="64.9589583327" lon="12.0283361186">
		<tag k="name" v="Sjøstranda" />
		<tag k="place" v="farm" />
		<tag k="ssr:stedsnr" v="756332" />
	</node>
	<node id="-912341" lat="64.7992972188" lon="11.8541416596">
		<tag k="name" v="Oppløya" />
		<tag k="place" v="farm" />
		<tag k="ssr:stedsnr" v="344773" />
	</node>
	<node id="-908242" lat="64.8296122162" lon="11.3904955863">
		<tag k="alt_name" v="Bjønndalen" />
		<tag k="fixme" v="consider place=hamlet" />
		<tag k="loc_name" v="Bjørndalen" />
		<tag k="name" v="Bjørndal" />
		<tag k="place" v="farm" />
		<tag k="ssr:stedsnr" v="318273" />
	</node>
	<node id="-910287" lat="65.0223863517" lon="11.7931629528">
		<tag k="name" v="Døløra" />
		<tag k="place" v="farm" />
		<tag k="ssr:stedsnr" v="14135" />
	</node>
	<node id="-908238" lat="64.903197767" lon="11.6651673018">
		<tag k="fixme" v="consider place=hamlet" />
		<tag k="name" v="Osen" />
		<tag k="place" v="farm" />
		<tag k="ssr:stedsnr" v="560069" />
	</node>
	<node id="-908237" lat="64.8172333313" lon="11.4395861121">
		<tag k="name" v="Berg" />
		<tag k="place" v="farm" />
		<tag k="ssr:stedsnr" v="75312" />
	</node>
	<node id="-910284" lat="64.8161444485" lon="11.3810944387">
		<tag k="name" v="Myrheim" />
		<tag k="place" v="farm" />
		<tag k="ssr:stedsnr" v="560294" />
	</node>
	<node id="-910283" lat="64.8781583346" lon="11.66486389">
		<tag k="fixme" v="consider place=hamlet" />
		<tag k="name" v="Finne" />
		<tag k="place" v="farm" />
		<tag k="ssr:stedsnr" v="451040" />
	</node>
	<node id="-910282" lat="64.9985305539" lon="11.6305749939">
		<tag k="name" v="Myrvang" />
		<tag k="place" v="locality" />
		<tag k="ssr:stedsnr" v="229997" />
	</node>
	<node id="-908231" lat="64.9979578265" lon="11.6715345052">
		<tag k="fixme" v="consider place=hamlet" />
		<tag k="name" v="Tennfjord" />
		<tag k="place" v="farm" />
		<tag k="ssr:stedsnr" v="924132" />
	</node>
	<node id="-908229" lat="64.8355305564" lon="11.3289611042">
		<tag k="name" v="Lauvskogan" />
		<tag k="place" v="farm" />
		<tag k="ssr:stedsnr" v="833149" />
	</node>
	<node id="-908227" lat="64.9995222242" lon="11.6728583347">
		<tag k="name" v="Nordgården" />
		<tag k="place" v="farm" />
		<tag k="ssr:stedsnr" v="836499" />
	</node>
	<node id="-910274" lat="64.7654972245" lon="11.6729833384">
		<tag k="name" v="Finnheimen" />
		<tag k="place" v="locality" />
		<tag k="ssr:stedsnr" v="293067" />
	</node>
	<node id="-912320" lat="64.9671527771" lon="12.0711000013">
		<tag k="name" v="Sjølstad" />
		<tag k="place" v="hamlet" />
		<tag k="ssr:stedsnr" v="148360" />
	</node>
	<node id="-910271" lat="64.9250999972" lon="12.3916805626">
		<tag k="name" v="Gammelgården" />
		<tag k="place" v="locality" />
		<tag k="ssr:stedsnr" v="271792" />
	</node>
	<node id="-910270" lat="64.9653166669" lon="12.0263305495">
		<tag k="name" v="Sommarvoll" />
		<tag k="place" v="farm" />
		<tag k="ssr:stedsnr" v="756328" />
	</node>
	<node id="-908220" lat="64.8552555593" lon="11.547288892">
		<tag k="name" v="Engan" />
		<tag k="place" v="farm" />
		<tag k="ssr:stedsnr" v="257518" />
	</node>
	<node id="-912315" lat="64.9937027768" lon="11.7693388942">
		<tag k="name" v="Gravvikmoen" />
		<tag k="place" v="farm" />
		<tag k="ssr:stedsnr" v="75726" />
	</node>
	<node id="-908217" lat="64.9713916657" lon="12.1241250028">
		<tag k="name" v="Gravmoen" />
		<tag k="place" v="isolated_dwelling" />
		<tag k="ssr:stedsnr" v="560624" />
	</node>
	<node id="-910264" lat="64.9366666662" lon="11.923563892">
		<tag k="alt_name" v="Kalvika nedre" />
		<tag k="name" v="Kalvika" />
		<tag k="place" v="farm" />
		<tag k="ssr:stedsnr" v="197598" />
	</node>
	<node id="-908213" lat="64.9672805566" lon="12.0701388905">
		<tag k="name" v="Brenna" />
		<tag k="place" v="isolated_dwelling" />
		<tag k="ssr:stedsnr" v="560626" />
	</node>
	<node id="-912301" lat="64.8440027785" lon="11.9126805535">
		<tag k="name" v="Isakstua" />
		<tag k="place" v="isolated_dwelling" />
		<tag k="ssr:stedsnr" v="51011" />
	</node>
	<node id="-910252" lat="64.869116666" lon="11.5765166661">
		<tag k="name" v="Nordsjøen" />
		<tag k="place" v="farm" />
		<tag k="ssr:stedsnr" v="815393" />
	</node>
	<node id="-910251" lat="64.929725002" lon="11.4591722254">
		<tag k="name" v="Reitmoen" />
		<tag k="place" v="isolated_dwelling" />
		<tag k="ssr:stedsnr" v="693145" />
	</node>
	<node id="-912296" lat="64.8014000037" lon="11.4649444548">
		<tag k="name" v="Skogly" />
		<tag k="place" v="farm" />
		<tag k="ssr:stedsnr" v="257394" />
	</node>
	<node id="-910245" lat="64.844599999" lon="11.5176305491">
		<tag k="name" v="Vollen" />
		<tag k="place" v="farm" />
		<tag k="ssr:stedsnr" v="318493" />
	</node>
	<node id="-910239" lat="64.9359000018" lon="11.765075007">
		<tag k="name" v="Solberg" />
		<tag k="place" v="farm" />
		<tag k="ssr:stedsnr" v="197600" />
	</node>
	<node id="-910238" lat="65.0137083372" lon="11.8162361159">
		<tag k="name" v="Leikvang" />
		<tag k="place" v="farm" />
		<tag k="ssr:stedsnr" v="378162" />
	</node>
	<node id="-912284" lat="64.7948527763" lon="11.7607805517">
		<tag k="name" v="Barnesvika" />
		<tag k="place" v="isolated_dwelling" />
		<tag k="ssr:stedsnr" v="717107" />
	</node>
	<node id="-910235" lat="64.7735833294" lon="11.3780777704">
		<tag k="name" v="Åsheim" />
		<tag k="place" v="farm" />
		<tag k="ssr:stedsnr" v="378740" />
	</node>
	<node id="-912277" lat="64.797927776" lon="11.4242361146">
		<tag k="name" v="Lauga" />
		<tag k="place" v="farm" />
		<tag k="ssr:stedsnr" v="226149" />
	</node>
	<node id="-908174" lat="64.8062750013" lon="11.397474997">
		<tag k="name" v="Vindskielva" />
		<tag k="place" v="farm" />
		<tag k="ssr:stedsnr" v="196297" />
	</node>
	<node id="-912269" lat="64.9924916674" lon="11.7740749972">
		<tag k="name" v="Nerli" />
		<tag k="place" v="farm" />
		<tag k="ssr:stedsnr" v="439686" />
	</node>
	<node id="-908172" lat="64.9414944475" lon="11.7781333286">
		<tag k="name" v="Nylienget" />
		<tag k="place" v="farm" />
		<tag k="ssr:stedsnr" v="136595" />
	</node>
	<node id="-910218" lat="64.9206722198" lon="11.8689916574">
		<tag k="name" v="Bergtun" />
		<tag k="place" v="farm" />
		<tag k="ssr:stedsnr" v="26266" />
	</node>
	<node id="-910487" lat="64.9703555544" lon="12.1400527856">
		<tag k="name" v="Stevika" />
		<tag k="place" v="farm" />
		<tag k="ssr:stedsnr" v="440606" />
	</node>
	<node id="-910215" lat="64.9361250019" lon="11.6352444474">
		<tag k="name" v="Sjurstranda" />
		<tag k="place" v="farm" />
		<tag k="ssr:stedsnr" v="803202" />
	</node>
	<node id="-912256" lat="64.8008833308" lon="11.4116333277">
		<tag k="name" v="Yttersjøen" />
		<tag k="place" v="farm" />
		<tag k="ssr:stedsnr" v="257391" />
	</node>
	<node id="-910207" lat="64.872131629" lon="11.7095643525">
		<tag k="alt_name" v="Urdshalsen" />
		<tag k="fixme" v="consider place=hamlet" />
		<tag k="name" v="Urshalsen" />
		<tag k="place" v="farm" />
		<tag k="ssr:stedsnr" v="925417" />
	</node>
	<node id="-910826" lat="64.9574527772" lon="12.020683341">
		<tag k="name" v="Jakobslåttet" />
		<tag k="place" v="farm" />
		<tag k="ssr:stedsnr" v="513365" />
	</node>
	<node id="-908154" lat="64.8133333313" lon="11.3711527879">
		<tag k="name" v="Tunga" />
		<tag k="place" v="farm" />
		<tag k="ssr:stedsnr" v="440350" />
	</node>
	<node id="-908153" lat="64.7708888921" lon="11.7470583378">
		<tag k="name" v="Øyster-Bugen" />
		<tag k="place" v="farm" />
		<tag k="ssr:stedsnr" v="500917" />
	</node>
	<node id="-908151" lat="64.8082388876" lon="11.7044249929">
		<tag k="alt_name" v="Stor-Hestvika" />
		<tag k="name" v="Storhestvika" />
		<tag k="place" v="isolated_dwelling" />
		<tag k="ssr:stedsnr" v="499286" />
	</node>
	<node id="-908148" lat="64.9040388919" lon="11.710330564">
		<tag k="name" v="Verkarplassen" />
		<tag k="place" v="locality" />
		<tag k="ssr:stedsnr" v="269026" />
	</node>
	<node id="-911123" lat="64.793269447" lon="11.8525750058">
		<tag k="alt_name" v="Hagan" />
		<tag k="name" v="Hagen" />
		<tag k="place" v="farm" />
		<tag k="ssr:stedsnr" v="136885" />
	</node>
	<node id="-908139" lat="64.9814638884" lon="11.7862333379">
		<tag k="fixme" v="consider place=hamlet" />
		<tag k="name" v="Fossenget" />
		<tag k="place" v="farm" />
		<tag k="ssr:stedsnr" v="592629" />
	</node>
	<node id="-910185" lat="64.9371999986" lon="11.6265638918">
		<tag k="name" v="Hemmingstranda" />
		<tag k="place" v="farm" />
		<tag k="ssr:stedsnr" v="803204" />
	</node>
	<node id="-912231" lat="64.7859777785" lon="11.4213972135">
		<tag k="amenity" v="school" />
		<tag k="name" v="Val videregående skole" />
		<tag k="ssr:stedsnr" v="285249" />
	</node>
	<node id="-910181" lat="64.7599555557" lon="11.3396777833">
		<tag k="name" v="Storeinen" />
		<tag k="place" v="farm" />
		<tag k="ssr:stedsnr" v="257741" />
	</node>
	<node id="-912225" lat="65.0009777736" lon="11.7014444364">
		<tag k="name" v="Vasslian" />
		<tag k="place" v="farm" />
		<tag k="ssr:stedsnr" v="532534" />
	</node>
	<node id="-912218" lat="64.8039388909" lon="11.4342444511">
		<tag k="name" v="Moan" />
		<tag k="place" v="farm" />
		<tag k="ssr:stedsnr" v="226147" />
	</node>
	<node id="-910166" lat="64.7922388923" lon="11.4411777746">
		<tag k="name" v="Innersjøen" />
		<tag k="place" v="farm" />
		<tag k="ssr:stedsnr" v="15763" />
	</node>
	<node id="-912205" lat="64.8498083322" lon="11.2251388923">
		<tag k="name" v="Smedvikaunet" />
		<tag k="place" v="farm" />
		<tag k="ssr:stedsnr" v="560470" />
	</node>
	<node id="-908108" lat="64.8930916691" lon="11.5738194547">
		<tag k="name" v="Solheim" />
		<tag k="place" v="isolated_dwelling" />
		<tag k="ssr:stedsnr" v="894071" />
	</node>
	<node id="-910148" lat="64.8179138911" lon="11.2973750093">
		<tag k="name" v="Solvika" />
		<tag k="place" v="isolated_dwelling" />
		<tag k="ssr:stedsnr" v="560289" />
	</node>
	<node id="-909110" lat="65.0146366616" lon="11.767916284">
		<tag k="fixme" v="consider place=hamlet" />
		<tag k="name" v="Dragland" />
		<tag k="place" v="farm" />
		<tag k="ssr:stedsnr" v="560161" />
	</node>
	<node id="-912194" lat="64.937365676" lon="11.6487030097">
		<tag k="alt_name" v="Røyrstranda" />
		<tag k="fixme" v="consider place=hamlet" />
		<tag k="name" v="Rørstranda" />
		<tag k="place" v="farm" />
		<tag k="ssr:stedsnr" v="864198" />
	</node>
	<node id="-910144" lat="64.9973333344" lon="11.7335361068">
		<tag k="name" v="Austvang" />
		<tag k="place" v="isolated_dwelling" />
		<tag k="ssr:stedsnr" v="257735" />
	</node>
	<node id="-910143" lat="64.9090666698" lon="11.7857749922">
		<tag k="name" v="Skogen" />
		<tag k="place" v="farm" />
		<tag k="ssr:stedsnr" v="500605" />
	</node>
	<node id="-912190" lat="64.8525305512" lon="11.5609194474">
		<tag k="name" v="Kjerkskardet" />
		<tag k="old_name" v="Skaret øvre;Øvre Skaret" />
		<tag k="place" v="farm" />
		<tag k="ssr:stedsnr" v="560474" />
	</node>
	<node id="-912186" lat="64.9937416673" lon="11.7168749956">
		<tag k="name" v="Grindstad" />
		<tag k="place" v="farm" />
		<tag k="ssr:stedsnr" v="196151" />
	</node>
	<node id="-911053" lat="64.9513457468" lon="12.2397963518">
		<tag k="fixme" v="consider place=hamlet" />
		<tag k="name" v="Holand" />
		<tag k="place" v="farm" />
		<tag k="ssr:stedsnr" v="682855" />
	</node>
	<node id="-908081" lat="64.8635972198" lon="11.547450003">
		<tag k="alt_name" v="Mulstadaunet Vestre" />
		<tag k="fixme" v="multiple name tags, choose one and add the other to alt_name" />
		<tag k="name" v="Mulstadaunet;Vestre Mulstadaunet" />
		<tag k="place" v="farm" />
		<tag k="ssr:stedsnr" v="905687" />
	</node>
	<node id="-908077" lat="64.9270055555" lon="11.5180416619">
		<tag k="name" v="Osan" />
		<tag k="place" v="farm" />
		<tag k="ssr:stedsnr" v="136024" />
	</node>
	<node id="-908074" lat="64.9875694449" lon="11.7258083254">
		<tag k="name" v="Skardet" />
		<tag k="place" v="farm" />
		<tag k="ssr:stedsnr" v="533518" />
	</node>
	<node id="-910119" lat="64.9997625715" lon="11.7354909352">
		<tag k="fixme" v="consider place=hamlet" />
		<tag k="name" v="Finnsetmoen" />
		<tag k="place" v="farm" />
		<tag k="ssr:stedsnr" v="378719" />
	</node>
	<node id="-908068" lat="64.9610916665" lon="11.8013555477">
		<tag k="name" v="Bjørndalen" />
		<tag k="place" v="farm" />
		<tag k="ssr:stedsnr" v="379596" />
	</node>
	<node id="-910115" lat="64.7369305597" lon="11.6656416704">
		<tag k="name" v="Grønland" />
		<tag k="place" v="locality" />
		<tag k="ssr:stedsnr" v="960175" />
	</node>
	<node id="-910113" lat="64.9142138876" lon="11.8356361097">
		<tag k="name" v="Litlvika" />
		<tag k="place" v="farm" />
		<tag k="ssr:stedsnr" v="743538" />
	</node>
	<node id="-908063" lat="64.8574202827" lon="11.2880866474">
		<tag k="fixme" v="consider place=suburb, village or hamlet" />
		<tag k="name" v="Ottersøya" />
		<tag k="place" v="quarter" />
		<tag k="ssr:stedsnr" v="257500" />
	</node>
	<node id="-912157" lat="64.9586583376" lon="11.6640944344">
		<tag k="name" v="Vollen" />
		<tag k="place" v="farm" />
		<tag k="ssr:stedsnr" v="439146" />
	</node>
	<node id="-912155" lat="64.9721361067" lon="12.0555388908">
		<tag k="name" v="Åbogen" />
		<tag k="place" v="farm" />
		<tag k="ssr:stedsnr" v="877390" />
	</node>
	<node id="-910105" lat="65.0303777786" lon="11.85805277">
		<tag k="name" v="Sørtun" />
		<tag k="place" v="isolated_dwelling" />
		<tag k="ssr:stedsnr" v="108463" />
	</node>
	<node id="-912151" lat="64.9627749983" lon="11.9763166565">
		<tag k="historic" v="shieling" />
		<tag k="name" v="Moasetran" />
		<tag k="place" v="locality" />
		<tag k="ssr:stedsnr" v="621654" />
	</node>
	<node id="-912150" lat="64.986316668" lon="11.7505250034">
		<tag k="name" v="Sildvika" />
		<tag k="place" v="farm" />
		<tag k="ssr:stedsnr" v="439685" />
	</node>
	<node id="-908051" lat="64.9661694434" lon="11.9809999895">
		<tag k="historic" v="shieling" />
		<tag k="name" v="Moasetran" />
		<tag k="place" v="locality" />
		<tag k="ssr:stedsnr" v="149379" />
	</node>
	<node id="-908048" lat="64.9197055585" lon="11.5356361155">
		<tag k="name" v="Småenglia" />
		<tag k="place" v="farm" />
		<tag k="ssr:stedsnr" v="136027" />
	</node>
	<node id="-908046" lat="64.809907829" lon="11.4845137083">
		<tag k="fixme" v="consider place=hamlet" />
		<tag k="name" v="Strand" />
		<tag k="place" v="farm" />
		<tag k="ssr:stedsnr" v="864348" />
	</node>
	<node id="-908418" lat="64.851111115" lon="11.2486194347">
		<tag k="name" v="Myra" />
		<tag k="place" v="isolated_dwelling" />
		<tag k="ssr:stedsnr" v="88376" />
	</node>
	<node id="-908042" lat="64.8101472192" lon="11.4707805626">
		<tag k="name" v="Strandhaugan" />
		<tag k="place" v="farm" />
		<tag k="ssr:stedsnr" v="864347" />
	</node>
	<node id="-908040" lat="64.8230277772" lon="11.5175333348">
		<tag k="name" v="Lauvåsen" />
		<tag k="place" v="farm" />
		<tag k="ssr:stedsnr" v="75291" />
	</node>
	<node id="-910085" lat="64.7667161162" lon="11.5985885282">
		<tag k="fixme" v="consider place=hamlet" />
		<tag k="name" v="Lund" />
		<tag k="place" v="farm" />
		<tag k="ssr:stedsnr" v="971858" />
	</node>
	<node id="-908036" lat="64.8117583317" lon="11.616211108">
		<tag k="alt_name" v="Buøya søre" />
		<tag k="name" v="Søre Buøya" />
		<tag k="place" v="farm" />
		<tag k="ssr:stedsnr" v="408964" />
	</node>
	<node id="-912854" lat="64.9859510471" lon="11.7562792537">
		<tag k="name" v="Naustbukta" />
		<tag k="place" v="farm" />
		<tag k="ssr:stedsnr" v="229558" />
	</node>
	<node id="-908029" lat="64.8339305512" lon="11.3694027873">
		<tag k="name" v="Dy" />
		<tag k="place" v="farm" />
		<tag k="ssr:stedsnr" v="197528" />
	</node>
	<node id="-908026" lat="65.0071277804" lon="11.645963888">
		<tag k="name" v="Vestervika" />
		<tag k="place" v="isolated_dwelling" />
		<tag k="ssr:stedsnr" v="229881" />
	</node>
	<node id="-912121" lat="64.9689888869" lon="11.8503861168">
		<tag k="name" v="Nordbakk" />
		<tag k="place" v="farm" />
		<tag k="ssr:stedsnr" v="318653" />
	</node>
	<node id="-912116" lat="65.0553305514" lon="11.9910694346">
		<tag k="name" v="Durmålslia" />
		<tag k="place" v="farm" />
		<tag k="ssr:stedsnr" v="621098" />
	</node>
	<node id="-912892" lat="64.8521666635" lon="11.5647277678">
		<tag k="alt_name" v="Nedre Kjerkskardet" />
		<tag k="name" v="Skogmo" />
		<tag k="place" v="farm" />
		<tag k="ssr:stedsnr" v="803482" />
	</node>
	<node id="-909779" lat="64.841063885" lon="11.353961105">
		<tag k="fixme" v="consider place=hamlet" />
		<tag k="name" v="Storvea" />
		<tag k="place" v="farm" />
		<tag k="ssr:stedsnr" v="864533" />
	</node>
	<node id="-908014" lat="64.9637861072" lon="12.2003111054">
		<tag k="loc_name" v="Engan" />
		<tag k="name" v="Skardmoen" />
		<tag k="place" v="farm" />
		<tag k="ssr:stedsnr" v="681606" />
	</node>
	<node id="-908013" lat="64.8526749974" lon="11.5223750084">
		<tag k="name" v="Haugli" />
		<tag k="place" v="farm" />
		<tag k="ssr:stedsnr" v="864480" />
	</node>
	<node id="-908012" lat="64.8616638872" lon="11.5962166621">
		<tag k="name" v="Kjerkåsen" />
		<tag k="place" v="isolated_dwelling" />
		<tag k="ssr:stedsnr" v="75455" />
	</node>
	<node id="-910056" lat="64.9510416673" lon="11.5856638936">
		<tag k="fixme" v="consider place=hamlet" />
		<tag k="name" v="Klungvika" />
		<tag k="place" v="farm" />
		<tag k="ssr:stedsnr" v="378147" />
	</node>
	<node id="-910055" lat="64.8370607643" lon="11.2899783385">
		<tag k="name" v="Moritsøya" />
		<tag k="place" v="farm" />
		<tag k="ssr:stedsnr" v="75516" />
	</node>
	<node id="-908004" lat="64.8692666648" lon="11.6463027798">
		<tag k="name" v="Djupvika" />
		<tag k="place" v="isolated_dwelling" />
		<tag k="ssr:stedsnr" v="318420" />
	</node>
	<node id="-911323" lat="64.9649666666" lon="12.0315361188">
		<tag k="loc_name" v="Bergenget" />
		<tag k="name" v="Solberg" />
		<tag k="place" v="farm" />
		<tag k="ssr:stedsnr" v="391408" />
	</node>
	<node id="-908002" lat="64.863669442" lon="11.5482750091">
		<tag k="name" v="Mulstadaunet" />
		<tag k="place" v="farm" />
		<tag k="ssr:stedsnr" v="318418" />
	</node>
	<node id="-910049" lat="65.0041132947" lon="11.9223328762">
		<tag k="name" v="Heimen" />
		<tag k="place" v="isolated_dwelling" />
		<tag k="ssr:stedsnr" v="15199" />
	</node>
	<node id="-910045" lat="64.9033287473" lon="11.8358316156">
		<tag k="fixme" v="consider place=hamlet" />
		<tag k="name" v="Lassemoen" />
		<tag k="place" v="farm" />
		<tag k="ssr:stedsnr" v="500598" />
	</node>
	<node id="-910042" lat="64.8722111123" lon="11.4388055656">
		<tag k="name" v="Bakken" />
		<tag k="place" v="isolated_dwelling" />
		<tag k="ssr:stedsnr" v="955351" />
	</node>
	<node id="-907991" lat="64.9074305528" lon="11.529275007">
		<tag k="name" v="Strandaenget" />
		<tag k="place" v="isolated_dwelling" />
		<tag k="ssr:stedsnr" v="532043" />
	</node>
	<node id="-907990" lat="64.8551027798" lon="11.50103333">
		<tag k="name" v="Heimstad" />
		<tag k="place" v="farm" />
		<tag k="ssr:stedsnr" v="104110" />
	</node>
	<node id="-907989" lat="64.8689833341" lon="11.5765916718">
		<tag k="alt_name" v="Nordsjøen" />
		<tag k="name" v="Åsheim" />
		<tag k="place" v="farm" />
		<tag k="ssr:stedsnr" v="329502" />
	</node>
	<node id="-912083" lat="64.8692555567" lon="11.2885861161">
		<tag k="name" v="Øverenget" />
		<tag k="place" v="farm" />
		<tag k="ssr:stedsnr" v="136453" />
	</node>
	<node id="-910033" lat="64.7523055551" lon="11.2838750057">
		<tag k="name" v="Ottersøya" />
		<tag k="place" v="farm" />
		<tag k="ssr:stedsnr" v="14650" />
	</node>
	<node id="-910031" lat="64.9592556537" lon="11.6688748627">
		<tag k="fixme" v="consider place=hamlet" />
		<tag k="name" v="Sør-Eitran" />
		<tag k="place" v="farm" />
		<tag k="ssr:stedsnr" v="803180" />
	</node>
	<node id="-907979" lat="64.8965750044" lon="11.359586112">
		<tag k="fixme" v="consider place=hamlet" />
		<tag k="name" v="Torstad" />
		<tag k="place" v="village" />
		<tag k="ssr:stedsnr" v="682100" />
	</node>
	<node id="-912074" lat="64.7437965615" lon="11.1431056352">
		<tag k="fixme" v="consider place=hamlet" />
		<tag k="name" v="Tviberg" />
		<tag k="place" v="farm" />
		<tag k="ssr:stedsnr" v="803935" />
	</node>
	<node id="-911137" lat="64.9616777815" lon="12.1911749985">
		<tag k="name" v="Stormoen" />
		<tag k="place" v="farm" />
		<tag k="ssr:stedsnr" v="864659" />
	</node>
	<node id="-907972" lat="64.8769873491" lon="11.3013130303">
		<tag k="name" v="Garmannvika" />
		<tag k="place" v="farm" />
		<tag k="ssr:stedsnr" v="1071953" />
	</node>
	<node id="-907971" lat="64.7478795162" lon="11.2347517557">
		<tag k="name" v="Nergården" />
		<tag k="place" v="farm" />
		<tag k="ssr:stedsnr" v="1071952" />
	</node>
	<node id="-910795" lat="64.8296027771" lon="11.3470555629">
		<tag k="fixme" v="multiple name tags, choose one and add the other to alt_name" />
		<tag k="name" v="Nyland;Storenget" />
		<tag k="place" v="farm" />
		<tag k="ssr:stedsnr" v="803281" />
	</node>
	<node id="-910016" lat="65.0208638925" lon="11.7625972221">
		<tag k="alt_name" v="Skotnes, øvre;Øver-Skotnes" />
		<tag k="name" v="Øvre Skotnes" />
		<tag k="place" v="farm" />
		<tag k="ssr:stedsnr" v="135158" />
	</node>
	<node id="-912063" lat="64.8797222224" lon="11.4234166714">
		<tag k="fixme" v="consider place=hamlet" />
		<tag k="name" v="Søråa" />
		<tag k="place" v="village" />
		<tag k="ssr:stedsnr" v="803396" />
	</node>
	<node id="-910013" lat="64.8327305525" lon="11.3300138864">
		<tag k="name" v="Myrmo" />
		<tag k="place" v="farm" />
		<tag k="ssr:stedsnr" v="75510" />
	</node>
	<node id="-909770" lat="64.8089638882" lon="11.8773916741">
		<tag k="name" v="Brottenget" />
		<tag k="place" v="isolated_dwelling" />
		<tag k="ssr:stedsnr" v="925940" />
	</node>
	<node id="-910006" lat="64.8328138858" lon="11.3604500086">
		<tag k="name" v="Li" />
		<tag k="place" v="farm" />
		<tag k="ssr:stedsnr" v="75511" />
	</node>
	<node id="-912045" lat="64.8034999988" lon="11.5146583246">
		<tag k="alt_name" v="Øksningen, vestre" />
		<tag k="fixme" v="multiple name tags, choose one and add the other to alt_name" />
		<tag k="name" v="Øksninga;Vestre Øksningen" />
		<tag k="place" v="farm" />
		<tag k="ssr:stedsnr" v="681332" />
	</node>
	<node id="-912041" lat="64.7601555569" lon="11.6026000021">
		<tag k="name" v="Småvika" />
		<tag k="place" v="isolated_dwelling" />
		<tag k="ssr:stedsnr" v="657942" />
	</node>
	<node id="-912037" lat="64.7715583362" lon="11.381224991">
		<tag k="name" v="Myrvang" />
		<tag k="place" v="farm" />
		<tag k="ssr:stedsnr" v="864742" />
	</node>
	<node id="-909988" lat="64.8023000028" lon="11.4502833368">
		<tag k="name" v="Austvika" />
		<tag k="place" v="farm" />
		<tag k="ssr:stedsnr" v="925396" />
	</node>
	<node id="-912035" lat="64.9627722256" lon="12.1777444395">
		<tag k="name" v="Foldereid" />
		<tag k="place" v="village" />
		<tag k="ssr:stedsnr" v="317564" />
	</node>
	<node id="-910107" lat="64.8771694426" lon="11.4300527816">
		<tag k="name" v="Heimtun" />
		<tag k="place" v="isolated_dwelling" />
		<tag k="ssr:stedsnr" v="955356" />
	</node>
	<node id="-912028" lat="64.9945722231" lon="11.7457638869">
		<tag k="name" v="Bjørkmoen" />
		<tag k="place" v="farm" />
		<tag k="ssr:stedsnr" v="500765" />
	</node>
	<node id="-909979" lat="64.9432000023" lon="11.5699944524">
		<tag k="name" v="Plassen" />
		<tag k="place" v="locality" />
		<tag k="ssr:stedsnr" v="532202" />
	</node>
	<node id="-912024" lat="64.792961109" lon="11.3079249987">
		<tag k="name" v="Nordgård" />
		<tag k="place" v="farm" />
		<tag k="ssr:stedsnr" v="803376" />
	</node>
	<node id="-909974" lat="64.963344449" lon="11.7912694373">
		<tag k="name" v="Engstad" />
		<tag k="place" v="farm" />
		<tag k="ssr:stedsnr" v="865632" />
	</node>
	<node id="-912016" lat="65.0304166697" lon="11.8131750103">
		<tag k="name" v="Hagan" />
		<tag k="place" v="farm" />
		<tag k="ssr:stedsnr" v="440182" />
	</node>
	<node id="-912011" lat="64.9896000035" lon="11.6149083399">
		<tag k="name" v="Sandvika" />
		<tag k="place" v="isolated_dwelling" />
		<tag k="ssr:stedsnr" v="439126" />
	</node>
	<node id="-909962" lat="64.9539816861" lon="11.7110304255">
		<tag k="fixme" v="consider place=hamlet" />
		<tag k="name" v="Djupvika" />
		<tag k="place" v="farm" />
		<tag k="ssr:stedsnr" v="803177" />
	</node>
	<node id="-910638" lat="64.81778077" lon="11.6393737138">
		<tag k="fixme" v="consider place=hamlet" />
		<tag k="name" v="Geisnes" />
		<tag k="place" v="farm" />
		<tag k="ssr:stedsnr" v="26322" />
	</node>
	<node id="-909956" lat="64.9873500028" lon="11.7285500083">
		<tag k="name" v="Solbakken" />
		<tag k="place" v="farm" />
		<tag k="ssr:stedsnr" v="378698" />
	</node>
	<node id="-909953" lat="64.9989262466" lon="11.625415707">
		<tag k="name" v="Kråkvika" />
		<tag k="place" v="farm" />
		<tag k="ssr:stedsnr" v="257161" />
	</node>
	<node id="-911998" lat="64.7878861068" lon="11.3949138858">
		<tag k="name" v="Utheim" />
		<tag k="place" v="farm" />
		<tag k="ssr:stedsnr" v="682399" />
	</node>
	<node id="-909946" lat="64.7659083326" lon="11.4135805548">
		<tag k="name" v="Hamlandsvika" />
		<tag k="place" v="farm" />
		<tag k="ssr:stedsnr" v="682765" />
	</node>
	<node id="-909943" lat="64.9016583335" lon="11.6614083231">
		<tag k="name" v="Osen" />
		<tag k="place" v="farm" />
		<tag k="ssr:stedsnr" v="166123" />
	</node>
	<node id="-911986" lat="64.790041671" lon="11.2900777686">
		<tag k="name" v="Skardet" />
		<tag k="place" v="farm" />
		<tag k="ssr:stedsnr" v="803372" />
	</node>
	<node id="-909075" lat="64.8801527753" lon="11.4232000003">
		<tag k="name" v="Solli" />
		<tag k="place" v="farm" />
		<tag k="ssr:stedsnr" v="682114" />
	</node>
	<node id="-909934" lat="64.8893516391" lon="11.3370210979">
		<tag k="fixme" v="consider place=hamlet" />
		<tag k="name" v="Torstad" />
		<tag k="place" v="farm" />
		<tag k="ssr:stedsnr" v="971839" />
	</node>
	<node id="-911979" lat="64.996741666" lon="11.6713583376">
		<tag k="name" v="Østtun" />
		<tag k="place" v="isolated_dwelling" />
		<tag k="ssr:stedsnr" v="350484" />
	</node>
	<node id="-911977" lat="64.9047527773" lon="11.8574972215">
		<tag k="name" v="Vågen" />
		<tag k="place" v="isolated_dwelling" />
		<tag k="ssr:stedsnr" v="451260" />
	</node>
	<node id="-909928" lat="64.8483805559" lon="11.4405749915">
		<tag k="name" v="Fjellborg" />
		<tag k="place" v="farm" />
		<tag k="ssr:stedsnr" v="318455" />
	</node>
	<node id="-909927" lat="64.8625638916" lon="11.6841944413">
		<tag k="name" v="Straumvika" />
		<tag k="place" v="farm" />
		<tag k="ssr:stedsnr" v="621446" />
	</node>
	<node id="-909926" lat="64.8978138913" lon="11.7661888946">
		<tag k="name" v="Torgerhaugen" />
		<tag k="place" v="farm" />
		<tag k="ssr:stedsnr" v="743521" />
	</node>
	<node id="-909923" lat="64.8256944481" lon="11.6945833409">
		<tag k="name" v="Mølnvika" />
		<tag k="place" v="farm" />
		<tag k="ssr:stedsnr" v="560259" />
	</node>
	<node id="-910779" lat="64.9511199065" lon="12.174980304">
		<tag k="fixme" v="consider place=hamlet" />
		<tag k="name" v="Berg" />
		<tag k="place" v="farm" />
		<tag k="ssr:stedsnr" v="743598" />
	</node>
	<node id="-909920" lat="64.9907361145" lon="12.1490249912">
		<tag k="name" v="Litlkvennlisetran" />
		<tag k="place" v="isolated_dwelling" />
		<tag k="ssr:stedsnr" v="257713" />
	</node>
	<node id="-911966" lat="64.7500999993" lon="11.2735361177">
		<tag k="name" v="Grindvollen" />
		<tag k="place" v="farm" />
		<tag k="ssr:stedsnr" v="500767" />
	</node>
	<node id="-909916" lat="64.8441361099" lon="11.8948361051">
		<tag k="name" v="Osvollen" />
		<tag k="place" v="isolated_dwelling" />
		<tag k="ssr:stedsnr" v="293017" />
	</node>
	<node id="-911963" lat="64.8585611111" lon="11.3097750072">
		<tag k="name" v="Valheim" />
		<tag k="place" v="isolated_dwelling" />
		<tag k="ssr:stedsnr" v="560460" />
	</node>
	<node id="-909914" lat="64.9865111109" lon="11.7597777801">
		<tag k="name" v="Sørtun" />
		<tag k="place" v="farm" />
		<tag k="ssr:stedsnr" v="107589" />
	</node>
	<node id="-909913" lat="65.0240694436" lon="11.7982999973">
		<tag k="name" v="Aspenget" />
		<tag k="place" v="farm" />
		<tag k="ssr:stedsnr" v="135142" />
	</node>
	<node id="-909910" lat="64.8370249999" lon="11.6816385193">
		<tag k="fixme" v="consider place=hamlet" />
		<tag k="name" v="Kvistarøya" />
		<tag k="place" v="farm" />
		<tag k="ssr:stedsnr" v="500580" />
	</node>
	<node id="-911957" lat="64.8077277771" lon="11.3450249938">
		<tag k="fixme" v="consider place=hamlet" />
		<tag k="name" v="Varøya" />
		<tag k="place" v="farm" />
		<tag k="ssr:stedsnr" v="119257" />
	</node>
	<node id="-912142" lat="64.994602778" lon="11.7201805648">
		<tag k="name" v="Austvang" />
		<tag k="place" v="farm" />
		<tag k="ssr:stedsnr" v="715524" />
	</node>
	<node id="-911951" lat="64.7930944474" lon="11.4500194385">
		<tag k="name" v="Innerberget" />
		<tag k="old_name" v="Indreberg" />
		<tag k="place" v="isolated_dwelling" />
		<tag k="ssr:stedsnr" v="197760" />
	</node>
	<node id="-909897" lat="64.924074999" lon="11.5001416631">
		<tag k="name" v="Straumen" />
		<tag k="place" v="farm" />
		<tag k="ssr:stedsnr" v="76026" />
	</node>
	<node id="-911944" lat="64.9998055538" lon="11.8005138943">
		<tag k="alt_name" v="Kongsvik" />
		<tag k="name" v="Kongsvika" />
		<tag k="place" v="farm" />
		<tag k="ssr:stedsnr" v="452864" />
	</node>
	<node id="-911940" lat="64.8117750044" lon="11.4458333396">
		<tag k="name" v="Ørstranda" />
		<tag k="place" v="farm" />
		<tag k="ssr:stedsnr" v="378333" />
	</node>
	<node id="-912139" lat="64.8532638872" lon="11.5413805586">
		<tag k="name" v="Lia" />
		<tag k="place" v="farm" />
		<tag k="ssr:stedsnr" v="560477" />
	</node>
	<node id="-911932" lat="64.9426944403" lon="11.4977972162">
		<tag k="alt_name" v="Lømoen søndre" />
		<tag k="name" v="Søndre Lømoen" />
		<tag k="place" v="farm" />
		<tag k="ssr:stedsnr" v="208053" />
	</node>
	<node id="-909880" lat="64.8259000015" lon="11.2757972147">
		<tag k="name" v="Nergård" />
		<tag k="place" v="farm" />
		<tag k="ssr:stedsnr" v="560262" />
	</node>
	<node id="-909876" lat="64.9212444402" lon="11.4858305522">
		<tag k="fixme" v="multiple name tags, choose one and add the other to alt_name" />
		<tag k="name" v="Kvalvika;Asplund" />
		<tag k="place" v="farm" />
		<tag k="ssr:stedsnr" v="500019" />
	</node>
	<node id="-909875" lat="65.0288611147" lon="11.808550007">
		<tag k="name" v="Fagerbakken" />
		<tag k="place" v="isolated_dwelling" />
		<tag k="ssr:stedsnr" v="135143" />
	</node>
	<node id="-912136" lat="64.9358944456" lon="11.622224995">
		<tag k="name" v="Bakkeli" />
		<tag k="place" v="farm" />
		<tag k="ssr:stedsnr" v="197230" />
	</node>
	<node id="-909612" lat="64.794569446" lon="11.7473888791">
		<tag k="name" v="Årvika" />
		<tag k="place" v="isolated_dwelling" />
		<tag k="ssr:stedsnr" v="414056" />
	</node>
	<node id="-911915" lat="65.0281833314" lon="11.8542444364">
		<tag k="alt_name" v="Brattåa" />
		<tag k="name" v="Lundset" />
		<tag k="place" v="farm" />
		<tag k="ssr:stedsnr" v="499110" />
	</node>
	<node id="-911912" lat="64.933425002" lon="11.7585583426">
		<tag k="name" v="Bjørkås" />
		<tag k="place" v="isolated_dwelling" />
		<tag k="ssr:stedsnr" v="925596" />
	</node>
	<node id="-909404" lat="64.9462888895" lon="12.2249722195">
		<tag k="name" v="Stranda" />
		<tag k="place" v="farm" />
		<tag k="ssr:stedsnr" v="925879" />
	</node>
	<node id="-909861" lat="64.8492833341" lon="11.5373138957">
		<tag k="name" v="Tømmervika" />
		<tag k="place" v="farm" />
		<tag k="ssr:stedsnr" v="75494" />
	</node>
	<node id="-909859" lat="64.8430527793" lon="11.3392805503">
		<tag k="name" v="Aunet" />
		<tag k="place" v="farm" />
		<tag k="ssr:stedsnr" v="500564" />
	</node>
	<node id="-911906" lat="64.8518500011" lon="11.4459083383">
		<tag k="name" v="Vestgård" />
		<tag k="place" v="farm" />
		<tag k="ssr:stedsnr" v="560444" />
	</node>
	<node id="-909855" lat="64.8420388855" lon="11.2978138802">
		<tag k="alt_name" v="Østvika" />
		<tag k="name" v="Austvik" />
		<tag k="place" v="farm" />
		<tag k="ssr:stedsnr" v="408438" />
	</node>
	<node id="-909854" lat="64.8742305567" lon="11.2932111036">
		<tag k="name" v="Odden" />
		<tag k="place" v="farm" />
		<tag k="ssr:stedsnr" v="621422" />
	</node>
	<node id="-909060" lat="64.8789133971" lon="11.5587611614">
		<tag k="fixme" v="consider place=hamlet" />
		<tag k="name" v="Liavika" />
		<tag k="place" v="farm" />
		<tag k="ssr:stedsnr" v="439372" />
	</node>
	<node id="-909846" lat="64.920927775" lon="11.5133499934">
		<tag k="name" v="Hesenget" />
		<tag k="place" v="farm" />
		<tag k="ssr:stedsnr" v="197021" />
	</node>
	<node id="-911886" lat="65.0369054367" lon="11.8372426403">
		<tag k="name" v="Selliset" />
		<tag k="place" v="farm" />
		<tag k="ssr:stedsnr" v="440179" />
	</node>
	<node id="-911885" lat="64.9724305547" lon="12.0579194408">
		<tag k="name" v="Litlenget" />
		<tag k="place" v="farm" />
		<tag k="ssr:stedsnr" v="318641" />
	</node>
	<node id="-909836" lat="64.811063885" lon="11.3861444336">
		<tag k="alt_name" v="Fagervollen" />
		<tag k="name" v="Fagervoll" />
		<tag k="place" v="farm" />
		<tag k="ssr:stedsnr" v="924300" />
	</node>
	<node id="-909832" lat="64.8327694423" lon="11.3349499911">
		<tag k="alt_name" v="Drolen" />
		<tag k="name" v="Granheim" />
		<tag k="place" v="farm" />
		<tag k="ssr:stedsnr" v="500571" />
	</node>
	<node id="-911879" lat="65.0270194422" lon="11.8052805536">
		<tag k="name" v="Solvang" />
		<tag k="place" v="isolated_dwelling" />
		<tag k="ssr:stedsnr" v="836237" />
	</node>
	<node id="-910088" lat="64.9273138855" lon="11.8918333408">
		<tag k="name" v="Øystergården" />
		<tag k="place" v="farm" />
		<tag k="ssr:stedsnr" v="451018" />
	</node>
	<node id="-911873" lat="64.7644027754" lon="11.6913972223">
		<tag k="name" v="Vasslian" />
		<tag k="place" v="farm" />
		<tag k="ssr:stedsnr" v="197752" />
	</node>
	<node id="-909824" lat="64.9693129904" lon="12.0698671274">
		<tag k="name" v="Kvammoen" />
		<tag k="place" v="farm" />
		<tag k="ssr:stedsnr" v="830238" />
	</node>
	<node id="-909823" lat="64.8066499969" lon="11.3854361045">
		<tag k="name" v="Rønningan" />
		<tag k="place" v="farm" />
		<tag k="ssr:stedsnr" v="925380" />
	</node>
	<node id="-909822" lat="64.7992416657" lon="11.8741333231">
		<tag k="name" v="Borkmoen" />
		<tag k="place" v="farm" />
		<tag k="ssr:stedsnr" v="528010" />
	</node>
	<node id="-910156" lat="64.7577027759" lon="11.5805027698">
		<tag k="name" v="Hestvika" />
		<tag k="place" v="locality" />
		<tag k="ssr:stedsnr" v="960936" />
	</node>
	<node id="-909819" lat="64.9272805511" lon="11.440111113">
		<tag k="name" v="Sandvika" />
		<tag k="place" v="isolated_dwelling" />
		<tag k="ssr:stedsnr" v="804251" />
	</node>
	<node id="-909815" lat="64.98703908" lon="11.7354237431">
		<tag k="name" v="Årlia" />
		<tag k="place" v="farm" />
		<tag k="ssr:stedsnr" v="682738" />
	</node>
	<node id="-910376" lat="64.9188000006" lon="11.8608999933">
		<tag k="name" v="Rotvika" />
		<tag k="place" v="farm" />
		<tag k="ssr:stedsnr" v="439516" />
	</node>
	<node id="-911859" lat="64.9262861152" lon="11.7388416619">
		<tag k="name" v="Bakketun" />
		<tag k="place" v="farm" />
		<tag k="ssr:stedsnr" v="925592" />
	</node>
	<node id="-909810" lat="64.8670722244" lon="11.6004583261">
		<tag k="amenity" v="school" />
		<tag k="name" v="Kolvereid skole" />
		<tag k="ssr:stedsnr" v="527256" />
	</node>
	<node id="-911855" lat="65.0190138921" lon="11.8341055661">
		<tag k="name" v="Kil" />
		<tag k="place" v="farm" />
		<tag k="ssr:stedsnr" v="836241" />
	</node>
	<node id="-911848" lat="64.8169916655" lon="11.4494888863">
		<tag k="name" v="Tvillstad" />
		<tag k="place" v="farm" />
		<tag k="ssr:stedsnr" v="378309" />
	</node>
	<node id="-909799" lat="64.988469447" lon="11.7658305467">
		<tag k="name" v="Sletta" />
		<tag k="place" v="farm" />
		<tag k="ssr:stedsnr" v="135680" />
	</node>
	<node id="-909795" lat="65.0317720949" lon="11.8657523558">
		<tag k="fixme" v="consider place=hamlet" />
		<tag k="name" v="Lundsenget" />
		<tag k="place" v="farm" />
		<tag k="ssr:stedsnr" v="257146" />
	</node>
	<node id="-909790" lat="64.887100001" lon="11.7345749976">
		<tag k="name" v="Finnehaugen" />
		<tag k="place" v="farm" />
		<tag k="ssr:stedsnr" v="197556" />
	</node>
	<node id="-910757" lat="64.9077138928" lon="11.5305694405">
		<tag k="name" v="Strandaenget" />
		<tag k="place" v="farm" />
		<tag k="ssr:stedsnr" v="439021" />
	</node>
	<node id="-909783" lat="64.8312861094" lon="11.7306333316">
		<tag k="name" v="Hermannstranda" />
		<tag k="place" v="isolated_dwelling" />
		<tag k="ssr:stedsnr" v="318975" />
	</node>
	<node id="-909781" lat="64.9500333316" lon="11.4524999937">
		<tag k="name" v="Moen" />
		<tag k="place" v="farm" />
		<tag k="ssr:stedsnr" v="803173" />
	</node>
	<node id="-911827" lat="64.7693805526" lon="11.669044434">
		<tag k="name" v="Ørnvika" />
		<tag k="place" v="isolated_dwelling" />
		<tag k="ssr:stedsnr" v="197746" />
	</node>
	<node id="-909609" lat="64.9974166687" lon="11.7979500099">
		<tag k="name" v="Sørheim" />
		<tag k="place" v="farm" />
		<tag k="ssr:stedsnr" v="682728" />
	</node>
	<node id="-909772" lat="64.9534750008" lon="11.685949998">
		<tag k="name" v="Osan" />
		<tag k="place" v="isolated_dwelling" />
		<tag k="ssr:stedsnr" v="682201" />
	</node>
	<node id="-911818" lat="64.7742583342" lon="11.7970055622">
		<tag k="name" v="Monsøysetran" />
		<tag k="place" v="isolated_dwelling" />
		<tag k="ssr:stedsnr" v="682926" />
	</node>
	<node id="-911815" lat="64.9452277779" lon="11.961402768">
		<tag k="name" v="Årstad" />
		<tag k="place" v="farm" />
		<tag k="ssr:stedsnr" v="621618" />
	</node>
	<node id="-911813" lat="64.9895305583" lon="11.771202778">
		<tag k="alt_name" v="Gravika" />
		<tag k="name" v="Gravvika" />
		<tag k="place" v="hamlet" />
		<tag k="ssr:stedsnr" v="196660" />
	</node>
	<node id="-910495" lat="64.9317444478" lon="11.6623499998">
		<tag k="name" v="Vangsåsen" />
		<tag k="place" v="isolated_dwelling" />
		<tag k="ssr:stedsnr" v="682258" />
	</node>
	<node id="-911808" lat="64.8568882277" lon="11.6703270339">
		<tag k="name" v="Litlstranda" />
		<tag k="place" v="farm" />
		<tag k="ssr:stedsnr" v="804450" />
	</node>
	<node id="-911804" lat="64.8759222254" lon="11.6722166713">
		<tag k="name" v="Buvika" />
		<tag k="place" v="hamlet" />
		<tag k="ssr:stedsnr" v="208047" />
	</node>
	<node id="-911799" lat="64.8604166656" lon="11.563125007">
		<tag k="name" v="Elvenes" />
		<tag k="place" v="farm" />
		<tag k="ssr:stedsnr" v="560435" />
	</node>
	<node id="-909746" lat="64.9152444488" lon="11.6004305524">
		<tag k="fixme" v="consider place=hamlet" />
		<tag k="name" v="Fjær" />
		<tag k="place" v="village" />
		<tag k="ssr:stedsnr" v="350157" />
	</node>
	<node id="-911793" lat="64.8106055575" lon="11.277500002">
		<tag k="name" v="Grevstad" />
		<tag k="place" v="farm" />
		<tag k="ssr:stedsnr" v="257351" />
	</node>
	<node id="-911790" lat="64.8015333326" lon="11.4328999946">
		<tag k="name" v="Lystad" />
		<tag k="place" v="farm" />
		<tag k="ssr:stedsnr" v="682381" />
	</node>
	<node id="-911108" lat="64.9242111078" lon="11.5161305651">
		<tag k="name" v="Åsheim" />
		<tag k="place" v="farm" />
		<tag k="ssr:stedsnr" v="318017" />
	</node>
	<node id="-911089" lat="64.9489250017" lon="12.006705561">
		<tag k="alt_name" v="Skaftnes nedre" />
		<tag k="name" v="Nerstad" />
		<tag k="place" v="farm" />
		<tag k="ssr:stedsnr" v="864642" />
	</node>
	<node id="-909604" lat="64.9562000007" lon="11.6630444411">
		<tag k="name" v="Moen" />
		<tag k="place" v="farm" />
		<tag k="ssr:stedsnr" v="136201" />
	</node>
	<node id="-911779" lat="64.8593000004" lon="11.6216194515">
		<tag k="fixme" v="multiple name tags, choose one and add the other to alt_name" />
		<tag k="name" v="Knårråmoen;Moen" />
		<tag k="place" v="farm" />
		<tag k="ssr:stedsnr" v="560437" />
	</node>
	<node id="-911778" lat="64.7983000031" lon="11.4098638919">
		<tag k="name" v="Sjøbursenget" />
		<tag k="place" v="farm" />
		<tag k="ssr:stedsnr" v="682382" />
	</node>
	<node id="-911777" lat="64.9669055577" lon="11.803552769">
		<tag k="name" v="Fjellheim" />
		<tag k="place" v="farm" />
		<tag k="ssr:stedsnr" v="318631" />
	</node>
	<node id="-909728" lat="64.8474638878" lon="11.3010361069">
		<tag k="alt_name" v="Klungervika" />
		<tag k="name" v="Klungvika" />
		<tag k="place" v="farm" />
		<tag k="ssr:stedsnr" v="439445" />
	</node>
	<node id="-911771" lat="64.9658388877" lon="12.0828583265">
		<tag k="name" v="Sandan" />
		<tag k="place" v="farm" />
		<tag k="ssr:stedsnr" v="270347" />
	</node>
	<node id="-909722" lat="64.8437888869" lon="11.5146249915">
		<tag k="name" v="Horvereid" />
		<tag k="place" v="farm" />
		<tag k="ssr:stedsnr" v="743479" />
	</node>
	<node id="-908356" lat="64.8467888845" lon="11.3680638914">
		<tag k="alt_name" v="Fagerlia" />
		<tag k="name" v="Fagerli" />
		<tag k="place" v="farm" />
		<tag k="ssr:stedsnr" v="257531" />
	</node>
	<node id="-909713" lat="64.8338888885" lon="11.2714527696">
		<tag k="name" v="Austvik" />
		<tag k="place" v="farm" />
		<tag k="ssr:stedsnr" v="197549" />
	</node>
	<node id="-910084" lat="64.9203583341" lon="11.8607833262">
		<tag k="name" v="Rotvikhaugen" />
		<tag k="place" v="farm" />
		<tag k="ssr:stedsnr" v="197580" />
	</node>
	<node id="-911084" lat="64.9230694486" lon="12.2312805622">
		<tag k="historic" v="shieling" />
		<tag k="name" v="Fesundsetran" />
		<tag k="place" v="locality" />
		<tag k="ssr:stedsnr" v="332173" />
	</node>
	<node id="-909699" lat="64.992808143" lon="11.7453694247">
		<tag k="fixme" v="consider place=hamlet" />
		<tag k="name" v="Finnset" />
		<tag k="place" v="farm" />
		<tag k="ssr:stedsnr" v="135674" />
	</node>
	<node id="-909698" lat="65.0579583312" lon="12.044180553">
		<tag k="name" v="Saglia" />
		<tag k="place" v="isolated_dwelling" />
		<tag k="ssr:stedsnr" v="14072" />
	</node>
	<node id="-908447" lat="64.8391833329" lon="11.2209888863">
		<tag k="name" v="Storvollen" />
		<tag k="place" v="farm" />
		<tag k="ssr:stedsnr" v="378525" />
	</node>
	<node id="-909686" lat="64.9884610555" lon="11.8494436769">
		<tag k="fixme" v="consider place=hamlet" />
		<tag k="name" v="Stongvika" />
		<tag k="place" v="farm" />
		<tag k="ssr:stedsnr" v="378678" />
	</node>
	<node id="-911733" lat="64.9165749992" lon="11.8390194373">
		<tag k="name" v="Rønningsmoen" />
		<tag k="place" v="farm" />
		<tag k="ssr:stedsnr" v="925577" />
	</node>
	<node id="-911731" lat="65.0092136208" lon="11.6282176839">
		<tag k="fixme" v="consider place=hamlet" />
		<tag k="name" v="Dolma" />
		<tag k="place" v="farm" />
		<tag k="ssr:stedsnr" v="378869" />
	</node>
	<node id="-909031" lat="65.0023388884" lon="11.7990388974">
		<tag k="name" v="Skotvika" />
		<tag k="place" v="isolated_dwelling" />
		<tag k="ssr:stedsnr" v="391876" />
	</node>
	<node id="-911715" lat="64.8093138867" lon="11.3664499992">
		<tag k="name" v="Bakkan" />
		<tag k="place" v="farm" />
		<tag k="ssr:stedsnr" v="257344" />
	</node>
	<node id="-911714" lat="64.9477499968" lon="11.7926749948">
		<tag k="name" v="Masterdalen" />
		<tag k="place" v="farm" />
		<tag k="ssr:stedsnr" v="621628" />
	</node>
	<node id="-911713" lat="64.8054444437" lon="11.8730222216">
		<tag k="name" v="Brottet" />
		<tag k="place" v="isolated_dwelling" />
		<tag k="ssr:stedsnr" v="286010" />
	</node>
	<node id="-909662" lat="64.9319730321" lon="11.4982147238">
		<tag k="fixme" v="consider place=hamlet" />
		<tag k="name" v="Værem" />
		<tag k="place" v="farm" />
		<tag k="ssr:stedsnr" v="560239" />
	</node>
	<node id="-910394" lat="64.9423098735" lon="11.5738525606">
		<tag k="fixme" v="consider place=hamlet" />
		<tag k="name" v="Båfjord" />
		<tag k="place" v="farm" />
		<tag k="ssr:stedsnr" v="135191" />
	</node>
	<node id="-911706" lat="64.9387732313" lon="11.9217757095">
		<tag k="fixme" v="consider place=hamlet" />
		<tag k="name" v="Kalvika" />
		<tag k="place" v="farm" />
		<tag k="ssr:stedsnr" v="389206" />
	</node>
	<node id="-909657" lat="64.9359361086" lon="11.479949997">
		<tag k="alt_name" v="Måneset indre" />
		<tag k="name" v="Indre Måneset" />
		<tag k="place" v="farm" />
		<tag k="ssr:stedsnr" v="147214" />
	</node>
	<node id="-911700" lat="64.7983867602" lon="11.4348166765">
		<tag k="fixme" v="consider place=hamlet" />
		<tag k="name" v="Lauga" />
		<tag k="place" v="farm" />
		<tag k="ssr:stedsnr" v="135332" />
	</node>
	<node id="-911698" lat="64.8247499993" lon="11.4139000045">
		<tag k="name" v="Valmyra" />
		<tag k="place" v="hamlet" />
		<tag k="ssr:stedsnr" v="893810" />
	</node>
	<node id="-911697" lat="64.7750833359" lon="11.3700166731">
		<tag k="name" v="Herseidet" />
		<tag k="place" v="farm" />
		<tag k="ssr:stedsnr" v="772159" />
	</node>
	<node id="-909648" lat="64.8748166697" lon="11.4282083261">
		<tag k="name" v="Buvollan" />
		<tag k="place" v="farm" />
		<tag k="ssr:stedsnr" v="621412" />
	</node>
	<node id="-909644" lat="65.0425194421" lon="11.8892361141">
		<tag k="name" v="Tømmermoen" />
		<tag k="place" v="farm" />
		<tag k="ssr:stedsnr" v="328868" />
	</node>
	<node id="-909642" lat="64.8850361116" lon="11.6355361017">
		<tag k="name" v="Lauta" />
		<tag k="place" v="farm" />
		<tag k="ssr:stedsnr" v="378088" />
	</node>
	<node id="-909641" lat="64.8436527794" lon="11.3478972146">
		<tag k="name" v="Nordli" />
		<tag k="place" v="farm" />
		<tag k="ssr:stedsnr" v="196449" />
	</node>
	<node id="-911684" lat="64.8601611079" lon="11.5565138837">
		<tag k="name" v="Åneset" />
		<tag k="place" v="farm" />
		<tag k="ssr:stedsnr" v="804454" />
	</node>
	<node id="-911682" lat="64.9748138848" lon="11.5367638878">
		<tag k="fixme" v="consider place=hamlet" />
		<tag k="name" v="Risværet" />
		<tag k="place" v="farm" />
		<tag k="ssr:stedsnr" v="439106" />
	</node>
	<node id="-911681" lat="64.8509888851" lon="11.4387833401">
		<tag k="name" v="Sollia" />
		<tag k="place" v="farm" />
		<tag k="ssr:stedsnr" v="379426" />
	</node>
	<node id="-911679" lat="64.8635916627" lon="11.5705611176">
		<tag k="alt_name" v="Østmo" />
		<tag k="name" v="Austmoen" />
		<tag k="place" v="farm" />
		<tag k="ssr:stedsnr" v="560427" />
	</node>
	<node id="-910389" lat="64.8638418554" lon="11.4299868233">
		<tag k="fixme" v="consider place=hamlet" />
		<tag k="name" v="Prestvika" />
		<tag k="place" v="farm" />
		<tag k="ssr:stedsnr" v="971861" />
	</node>
	<node id="-909628" lat="64.8483269447" lon="11.3914731456">
		<tag k="fixme" v="consider place=hamlet" />
		<tag k="name" v="Sandnesaunet" />
		<tag k="place" v="farm" />
		<tag k="ssr:stedsnr" v="196443" />
	</node>
	<node id="-911675" lat="64.8517916709" lon="11.233116669">
		<tag k="name" v="Haug" />
		<tag k="place" v="farm" />
		<tag k="ssr:stedsnr" v="391464" />
	</node>
	<node id="-909625" lat="64.7833555599" lon="11.8119083364">
		<tag k="fixme" v="consider place=hamlet" />
		<tag k="name" v="Salvika" />
		<tag k="place" v="farm" />
		<tag k="ssr:stedsnr" v="711019" />
	</node>
	<node id="-911670" lat="64.9819888901" lon="12.1802583389">
		<tag k="name" v="Botnet" />
		<tag k="place" v="farm" />
		<tag k="ssr:stedsnr" v="75668" />
	</node>
	<node id="-911668" lat="64.8172527816" lon="11.8991861096">
		<tag k="alt_name" v="Synnesbrekka" />
		<tag k="name" v="Brekka" />
		<tag k="place" v="farm" />
		<tag k="ssr:stedsnr" v="15919" />
	</node>
	<node id="-911666" lat="64.9242083301" lon="11.4858305629">
		<tag k="name" v="Bjørge" />
		<tag k="place" v="farm" />
		<tag k="ssr:stedsnr" v="925025" />
	</node>
	<node id="-911664" lat="64.8588500007" lon="11.6493944382">
		<tag k="name" v="Austvika" />
		<tag k="place" v="farm" />
		<tag k="ssr:stedsnr" v="804452" />
	</node>
	<node id="-909614" lat="65.0651605602" lon="11.9665362481">
		<tag k="fixme" v="consider place=hamlet" />
		<tag k="name" v="Simle" />
		<tag k="place" v="farm" />
		<tag k="ssr:stedsnr" v="14065" />
	</node>
	<node id="-911660" lat="64.8774638894" lon="11.886388894">
		<tag k="historic" v="shieling" />
		<tag k="name" v="Fuglmosetran" />
		<tag k="place" v="locality" />
		<tag k="ssr:stedsnr" v="111803" />
	</node>
	<node id="-909611" lat="65.0346861142" lon="11.7660083349">
		<tag k="loc_name" v="Heller Østre" />
		<tag k="name" v="Østre Heller" />
		<tag k="place" v="farm" />
		<tag k="ssr:stedsnr" v="237403" />
	</node>
	<node id="-910727" lat="64.9036666647" lon="12.2515555647">
		<tag k="alt_name" v="Reinbærslisætra;Reinberlisetran" />
		<tag k="name" v="Reinbærlisætra" />
		<tag k="place" v="isolated_dwelling" />
		<tag k="ssr:stedsnr" v="15832" />
	</node>
	<node id="-911654" lat="64.8506083321" lon="11.2359833413">
		<tag k="name" v="Moen" />
		<tag k="place" v="farm" />
		<tag k="ssr:stedsnr" v="210456" />
	</node>
	<node id="-911652" lat="64.9230416631" lon="11.5594861082">
		<tag k="name" v="Øvergården" />
		<tag k="place" v="farm" />
		<tag k="ssr:stedsnr" v="106157" />
	</node>
	<node id="-909603" lat="64.8103099102" lon="11.2868200961">
		<tag k="fixme" v="consider place=hamlet" />
		<tag k="name" v="Rossøya" />
		<tag k="place" v="farm" />
		<tag k="ssr:stedsnr" v="925374" />
	</node>
	<node id="-911158" lat="64.9292833337" lon="12.0436083288">
		<tag k="name" v="Gammelgården" />
		<tag k="place" v="isolated_dwelling" />
		<tag k="ssr:stedsnr" v="780776" />
	</node>
	<node id="-910285" lat="65.0093555584" lon="11.7242138835">
		<tag k="name" v="Nordtun" />
		<tag k="place" v="farm" />
		<tag k="ssr:stedsnr" v="257199" />
	</node>
	<node id="-909598" lat="64.853259179" lon="11.4831254179">
		<tag k="fixme" v="consider place=hamlet" />
		<tag k="name" v="Nakling" />
		<tag k="place" v="farm" />
		<tag k="ssr:stedsnr" v="75463" />
	</node>
	<node id="-911642" lat="65.0035916687" lon="11.7268361065">
		<tag k="alt_name" v="Skottheim" />
		<tag k="name" v="Skotheim" />
		<tag k="place" v="farm" />
		<tag k="ssr:stedsnr" v="864170" />
	</node>
	<node id="-911637" lat="64.8571277753" lon="11.2918638887">
		<tag k="amenity" v="school" />
		<tag k="name" v="Nærøysundet skole" />
		<tag k="ssr:stedsnr" v="406272" />
	</node>
	<node id="-911633" lat="64.8154846319" lon="11.4412698105">
		<tag k="fixme" v="consider place=hamlet" />
		<tag k="name" v="Storval" />
		<tag k="place" v="farm" />
		<tag k="ssr:stedsnr" v="257331" />
	</node>
	<node id="-911632" lat="64.8591805579" lon="11.6803833416">
		<tag k="name" v="Tuva" />
		<tag k="place" v="farm" />
		<tag k="ssr:stedsnr" v="415874" />
	</node>
	<node id="-910489" lat="64.9628763019" lon="12.1747297371">
		<tag k="fixme" v="consider place=hamlet" />
		<tag k="name" v="Foldereid" />
		<tag k="place" v="farm" />
		<tag k="ssr:stedsnr" v="971877" />
	</node>
	<node id="-911626" lat="64.8200555532" lon="11.4476388846">
		<tag k="name" v="Vassdalen" />
		<tag k="place" v="farm" />
		<tag k="ssr:stedsnr" v="257332" />
	</node>
	<node id="-911624" lat="64.9496166642" lon="11.9613638856">
		<tag k="name" v="Årfor" />
		<tag k="place" v="hamlet" />
		<tag k="ssr:stedsnr" v="571200" />
	</node>
	<node id="-909575" lat="64.8632858684" lon="11.4297691531">
		<tag k="alt_name" v="Prestvika" />
		<tag k="name" v="Prestvikenget" />
		<tag k="place" v="farm" />
		<tag k="ssr:stedsnr" v="318414" />
	</node>
	<node id="-909569" lat="64.8476749997" lon="11.5107027866">
		<tag k="name" v="Korshaugan" />
		<tag k="place" v="farm" />
		<tag k="ssr:stedsnr" v="439430" />
	</node>
	<node id="-910037" lat="64.8644527795" lon="11.6117527703">
		<tag k="name" v="Aldergodt" />
		<tag k="place" v="farm" />
		<tag k="ssr:stedsnr" v="621441" />
	</node>
	<node id="-909563" lat="65.0742916682" lon="11.9541694459">
		<tag k="name" v="Valen" />
		<tag k="place" v="isolated_dwelling" />
		<tag k="ssr:stedsnr" v="328860" />
	</node>
	<node id="-911609" lat="64.9702833357" lon="12.0967277747">
		<tag k="name" v="Lømoen" />
		<tag k="place" v="farm" />
		<tag k="ssr:stedsnr" v="75664" />
	</node>
	<node id="-909560" lat="64.8815726715" lon="11.429196741">
		<tag k="fixme" v="consider place=hamlet" />
		<tag k="name" v="Søråaunet" />
		<tag k="place" v="farm" />
		<tag k="ssr:stedsnr" v="227394" />
	</node>
	<node id="-911607" lat="64.950869443" lon="11.9629527708">
		<tag k="name" v="Storgården" />
		<tag k="place" v="farm" />
		<tag k="ssr:stedsnr" v="389197" />
	</node>
	<node id="-909558" lat="64.742854233" lon="11.2187768854">
		<tag k="name" v="Ramstad" />
		<tag k="place" v="farm" />
		<tag k="ssr:stedsnr" v="44222" />
	</node>
	<node id="-909353" lat="64.878032228" lon="11.5064300476">
		<tag k="fixme" v="consider place=hamlet" />
		<tag k="name" v="Fossåa" />
		<tag k="place" v="farm" />
		<tag k="ssr:stedsnr" v="318385" />
	</node>
	<node id="-909056" lat="64.8460138855" lon="11.4297638835">
		<tag k="name" v="Midtbø" />
		<tag k="place" v="farm" />
		<tag k="ssr:stedsnr" v="44937" />
	</node>
	<node id="-913107" lat="64.7716888877" lon="11.735505547">
		<tag k="name" v="Vester-Bugen" />
		<tag k="place" v="farm" />
		<tag k="ssr:stedsnr" v="76885" />
	</node>
	<node id="-911600" lat="64.8263555583" lon="11.5809666656">
		<tag k="name" v="Skagamoen" />
		<tag k="place" v="farm" />
		<tag k="ssr:stedsnr" v="378287" />
	</node>
	<node id="-909551" lat="64.7705647961" lon="11.3732085726">
		<tag k="fixme" v="consider place=hamlet" />
		<tag k="name" v="Hamland" />
		<tag k="place" v="farm" />
		<tag k="ssr:stedsnr" v="136737" />
	</node>
	<node id="-911058" lat="64.8203194473" lon="11.5319944424">
		<tag k="name" v="Tømmermoen" />
		<tag k="place" v="farm" />
		<tag k="ssr:stedsnr" v="682314" />
	</node>
	<node id="-912081" lat="64.7476083307" lon="11.349519441">
		<tag k="name" v="Klungset" />
		<tag k="place" v="farm" />
		<tag k="ssr:stedsnr" v="864746" />
	</node>
	<node id="-911588" lat="64.9487055585" lon="12.2711083432">
		<tag k="alt_name" v="Stienget" />
		<tag k="name" v="Stigen" />
		<tag k="place" v="farm" />
		<tag k="ssr:stedsnr" v="378861" />
	</node>
	<node id="-911587" lat="64.7979138883" lon="11.2761527719">
		<tag k="name" v="Gullbringen" />
		<tag k="place" v="farm" />
		<tag k="ssr:stedsnr" v="135320" />
	</node>
	<node id="-911583" lat="64.892461112" lon="11.5389611026">
		<tag k="name" v="Hesthagan" />
		<tag k="place" v="farm" />
		<tag k="ssr:stedsnr" v="318064" />
	</node>
	<node id="-910373" lat="64.8672789078" lon="11.5930937352">
		<tag k="fixme" v="consider place=hamlet" />
		<tag k="name" v="Kolvereid" />
		<tag k="place" v="farm" />
		<tag k="ssr:stedsnr" v="971859" />
	</node>
	<node id="-911569" lat="64.8041861134" lon="11.5314055471">
		<tag k="alt_name" v="Øksningen, austre" />
		<tag k="fixme" v="multiple name tags, choose one and add the other to alt_name" />
		<tag k="name" v="Øksninga;Austre Øksningen" />
		<tag k="place" v="farm" />
		<tag k="ssr:stedsnr" v="135315" />
	</node>
	<node id="-911565" lat="64.9135777765" lon="11.4942916572">
		<tag k="name" v="Brattberg" />
		<tag k="place" v="farm" />
		<tag k="ssr:stedsnr" v="268101" />
	</node>
	<node id="-911564" lat="64.8400861142" lon="11.3402722286">
		<tag k="name" v="Bangan" />
		<tag k="place" v="farm" />
		<tag k="ssr:stedsnr" v="469281" />
	</node>
	<node id="-909512" lat="64.9944500016" lon="11.7080527876">
		<tag k="name" v="Fagertun" />
		<tag k="place" v="farm" />
		<tag k="ssr:stedsnr" v="682166" />
	</node>
	<node id="-911557" lat="64.9231472236" lon="11.4904444547">
		<tag k="name" v="Valen" />
		<tag k="place" v="farm" />
		<tag k="ssr:stedsnr" v="268100" />
	</node>
	<node id="-911552" lat="64.7450416658" lon="11.2324055481">
		<tag k="alt_name" v="Ramstad Øvre" />
		<tag k="name" v="Øvre Ramstad" />
		<tag k="place" v="farm" />
		<tag k="ssr:stedsnr" v="709610" />
	</node>
	<node id="-909497" lat="64.9083972244" lon="11.5280805547">
		<tag k="name" v="Strandaenget" />
		<tag k="place" v="farm" />
		<tag k="ssr:stedsnr" v="348431" />
	</node>
	<node id="-911544" lat="65.0390486098" lon="11.8448591171">
		<tag k="fixme" v="consider place=hamlet" />
		<tag k="name" v="Selliset" />
		<tag k="place" v="farm" />
		<tag k="ssr:stedsnr" v="775409" />
	</node>
	<node id="-911539" lat="64.9834166638" lon="11.764202773">
		<tag k="alt_name" v="Straumlia;Strømlia" />
		<tag k="name" v="Strømslia" />
		<tag k="place" v="farm" />
		<tag k="ssr:stedsnr" v="743653" />
	</node>
	<node id="-909490" lat="64.9307555538" lon="12.3894972313">
		<tag k="historic" v="shieling" />
		<tag k="name" v="Grytbugsetran" />
		<tag k="place" v="locality" />
		<tag k="ssr:stedsnr" v="817743" />
	</node>
	<node id="-909683" lat="64.8390777763" lon="11.7174305611">
		<tag k="name" v="Myra" />
		<tag k="place" v="locality" />
		<tag k="ssr:stedsnr" v="414838" />
	</node>
	<node id="-909486" lat="64.8150000007" lon="11.5351000086">
		<tag k="name" v="Skagasjøen" />
		<tag k="place" v="farm" />
		<tag k="ssr:stedsnr" v="925356" />
	</node>
	<node id="-910365" lat="64.7753388912" lon="11.3766527741">
		<tag k="name" v="Nordmoen" />
		<tag k="place" v="farm" />
		<tag k="ssr:stedsnr" v="378744" />
	</node>
	<node id="-911529" lat="64.9570250046" lon="11.7721138793">
		<tag k="name" v="Lavasslia" />
		<tag k="place" v="farm" />
		<tag k="ssr:stedsnr" v="742575" />
	</node>
	<node id="-909476" lat="64.8602388922" lon="11.6023305486">
		<tag k="name" v="Åsly" />
		<tag k="place" v="farm" />
		<tag k="ssr:stedsnr" v="500523" />
	</node>
	<node id="-911522" lat="64.8597999968" lon="11.5351583384">
		<tag k="name" v="Mulstadlia" />
		<tag k="place" v="farm" />
		<tag k="ssr:stedsnr" v="804439" />
	</node>
	<node id="-911520" lat="64.8592527748" lon="11.5214305512">
		<tag k="name" v="Leirbogen" />
		<tag k="place" v="farm" />
		<tag k="ssr:stedsnr" v="560408" />
	</node>
	<node id="-911516" lat="64.8134333334" lon="11.702630553">
		<tag k="name" v="Buøysetra" />
		<tag k="place" v="farm" />
		<tag k="ssr:stedsnr" v="15349" />
	</node>
	<node id="-909466" lat="64.8331305595" lon="11.2753944353">
		<tag k="name" v="Bekkvikmoen" />
		<tag k="place" v="farm" />
		<tag k="ssr:stedsnr" v="104178" />
	</node>
	<node id="-911513" lat="65.0484027739" lon="11.870691676">
		<tag k="name" v="Sørlia" />
		<tag k="place" v="farm" />
		<tag k="ssr:stedsnr" v="532422" />
	</node>
	<node id="-912068" lat="64.9953750039" lon="12.0072555602">
		<tag k="name" v="Tørbermoen" />
		<tag k="old_name" v="Tørrbergmoen" />
		<tag k="place" v="locality" />
		<tag k="ssr:stedsnr" v="439674" />
	</node>
	<node id="-911510" lat="64.8082611103" lon="11.7277749951">
		<tag k="name" v="Sandvika" />
		<tag k="place" v="farm" />
		<tag k="ssr:stedsnr" v="136917" />
	</node>
	<node id="-909337" lat="64.752202781" lon="11.2635416656">
		<tag k="name" v="Ramstad" />
		<tag k="place" v="farm" />
		<tag k="ssr:stedsnr" v="104148" />
	</node>
	<node id="-909460" lat="64.8565083317" lon="11.5692694356">
		<tag k="name" v="Austli" />
		<tag k="place" v="farm" />
		<tag k="ssr:stedsnr" v="287321" />
	</node>
	<node id="-911504" lat="64.9203055537" lon="11.5657416646">
		<tag k="building" v="industrial" />
		<tag k="name" v="Nergården" />
		<tag k="ssr:stedsnr" v="712129" />
	</node>
	<node id="-909455" lat="64.7413555575" lon="11.2301638827">
		<tag k="name" v="Dalen" />
		<tag k="place" v="farm" />
		<tag k="ssr:stedsnr" v="925333" />
	</node>
	<node id="-909451" lat="64.7751285052" lon="11.4162661263">
		<tag k="fixme" v="consider place=hamlet" />
		<tag k="name" v="Torland" />
		<tag k="place" v="farm" />
		<tag k="ssr:stedsnr" v="804733" />
	</node>
	<node id="-911495" lat="64.8190522633" lon="11.5401793303">
		<tag k="fixme" v="consider place=hamlet" />
		<tag k="name" v="Skaga" />
		<tag k="place" v="farm" />
		<tag k="ssr:stedsnr" v="15344" />
	</node>
	<node id="-909446" lat="64.7571194453" lon="11.3171805553">
		<tag k="name" v="Aspmoen" />
		<tag k="place" v="isolated_dwelling" />
		<tag k="ssr:stedsnr" v="650336" />
	</node>
	<node id="-912065" lat="64.9154444429" lon="11.9108722202">
		<tag k="historic" v="shieling" />
		<tag k="name" v="Persviksetran" />
		<tag k="place" v="locality" />
		<tag k="ssr:stedsnr" v="451273" />
	</node>
	<node id="-911490" lat="64.9593084491" lon="11.7393817165">
		<tag k="fixme" v="consider place=hamlet" />
		<tag k="name" v="Fjellaunet" />
		<tag k="place" v="farm" />
		<tag k="ssr:stedsnr" v="742574" />
	</node>
	<node id="-909441" lat="64.7661138897" lon="11.5915277775">
		<tag k="name" v="Møla" />
		<tag k="place" v="isolated_dwelling" />
		<tag k="ssr:stedsnr" v="354000" />
	</node>
	<node id="-911485" lat="64.8172444416" lon="11.5290916567">
		<tag k="fixme" v="multiple name tags, choose one and add the other to alt_name" />
		<tag k="name" v="Odden;Skaga" />
		<tag k="place" v="farm" />
		<tag k="ssr:stedsnr" v="15343" />
	</node>
	<node id="-911483" lat="64.8505416707" lon="11.2280444525">
		<tag k="name" v="Smevika" />
		<tag k="place" v="farm" />
		<tag k="ssr:stedsnr" v="379409" />
	</node>
	<node id="-911481" lat="64.7630638896" lon="11.409644451">
		<tag k="name" v="Skogmo" />
		<tag k="place" v="farm" />
		<tag k="ssr:stedsnr" v="440693" />
	</node>
	<node id="-909432" lat="64.8629583363" lon="11.6984222226">
		<tag k="name" v="Setervika" />
		<tag k="place" v="farm" />
		<tag k="ssr:stedsnr" v="75440" />
	</node>
	<node id="-909429" lat="64.8784712754" lon="11.7348614193">
		<tag k="fixme" v="consider place=hamlet" />
		<tag k="name" v="Kjøløya" />
		<tag k="place" v="farm" />
		<tag k="ssr:stedsnr" v="453297" />
	</node>
	<node id="-911464" lat="64.7505194481" lon="11.5404944404">
		<tag k="name" v="Oldervika" />
		<tag k="place" v="farm" />
		<tag k="ssr:stedsnr" v="499632" />
	</node>
	<node id="-909415" lat="64.8593357214" lon="11.5274631794">
		<tag k="fixme" v="consider place=hamlet" />
		<tag k="name" v="Mulstad" />
		<tag k="place" v="farm" />
		<tag k="ssr:stedsnr" v="743438" />
	</node>
	<node id="-911461" lat="64.7297138854" lon="11.1813611008">
		<tag k="amenity" v="school" />
		<tag k="name" v="Abelvær oppvekstsenter" />
		<tag k="ssr:stedsnr" v="952278" />
	</node>
	<node id="-911460" lat="65.0404472247" lon="11.8832083256">
		<tag k="name" v="Kvernastranda" />
		<tag k="place" v="farm" />
		<tag k="ssr:stedsnr" v="85823" />
	</node>
	<node id="-909409" lat="64.9490944455" lon="11.9485277768">
		<tag k="name" v="Sørlia" />
		<tag k="place" v="farm" />
		<tag k="ssr:stedsnr" v="257649" />
	</node>
	<node id="-911456" lat="64.902333334" lon="11.3607861077">
		<tag k="name" v="Moen" />
		<tag k="place" v="farm" />
		<tag k="ssr:stedsnr" v="743113" />
	</node>
	<node id="-909733" lat="65.0386055514" lon="11.8788194408">
		<tag k="name" v="Nygård" />
		<tag k="place" v="farm" />
		<tag k="ssr:stedsnr" v="378113" />
	</node>
	<node id="-911452" lat="64.8250166643" lon="11.4840749976">
		<tag k="name" v="Bjørlia" />
		<tag k="place" v="farm" />
		<tag k="ssr:stedsnr" v="378282" />
	</node>
	<node id="-911451" lat="64.807858329" lon="11.3884083357">
		<tag k="name" v="Bakkestranda" />
		<tag k="place" v="farm" />
		<tag k="ssr:stedsnr" v="135309" />
	</node>
	<node id="-909399" lat="64.9934944481" lon="11.6728555648">
		<tag k="name" v="Rishaugen" />
		<tag k="place" v="farm" />
		<tag k="ssr:stedsnr" v="47495" />
	</node>
	<node id="-909398" lat="64.8597112719" lon="11.6747725349">
		<tag k="name" v="Myrmoen" />
		<tag k="place" v="farm" />
		<tag k="ssr:stedsnr" v="743435" />
	</node>
	<node id="-909391" lat="64.8533388915" lon="11.242074998">
		<tag k="name" v="Nygården" />
		<tag k="place" v="farm" />
		<tag k="ssr:stedsnr" v="743436" />
	</node>
	<node id="-911434" lat="64.8163750002" lon="11.2618861182">
		<tag k="name" v="Lundring" />
		<tag k="place" v="farm" />
		<tag k="ssr:stedsnr" v="257322" />
	</node>
	<node id="-911433" lat="64.9674416705" lon="12.0759138796">
		<tag k="name" v="Vestergården" />
		<tag k="place" v="farm" />
		<tag k="ssr:stedsnr" v="864673" />
	</node>
	<node id="-909665" lat="64.8313083347" lon="11.3967277821">
		<tag k="name" v="Heimstad" />
		<tag k="place" v="farm" />
		<tag k="ssr:stedsnr" v="196454" />
	</node>
	<node id="-911426" lat="64.8864416657" lon="11.761369443">
		<tag k="name" v="Hopen" />
		<tag k="place" v="farm" />
		<tag k="ssr:stedsnr" v="875035" />
	</node>
	<node id="-911423" lat="64.805544444" lon="11.4587083298">
		<tag k="name" v="Laugmoen" />
		<tag k="place" v="farm" />
		<tag k="ssr:stedsnr" v="14250" />
	</node>
	<node id="-909372" lat="64.8333833328" lon="11.4042722166">
		<tag k="name" v="Østgård" />
		<tag k="place" v="farm" />
		<tag k="ssr:stedsnr" v="468119" />
	</node>
	<node id="-909368" lat="64.9803750005" lon="11.8282694508">
		<tag k="name" v="Hansmoen" />
		<tag k="place" v="farm" />
		<tag k="ssr:stedsnr" v="15683" />
	</node>
	<node id="-909366" lat="64.9443499996" lon="11.5033027731">
		<tag k="alt_name" v="Lømoen nordre" />
		<tag k="name" v="Lømoen" />
		<tag k="place" v="farm" />
		<tag k="ssr:stedsnr" v="560193" />
	</node>
	<node id="-913005" lat="65.0048361074" lon="11.6567833359">
		<tag k="name" v="Lomtjønna" />
		<tag k="place" v="isolated_dwelling" />
		<tag k="ssr:stedsnr" v="169868" />
	</node>
	<node id="-909363" lat="64.9087500001" lon="11.56881666">
		<tag k="name" v="Ærshylla" />
		<tag k="place" v="farm" />
		<tag k="ssr:stedsnr" v="14035" />
	</node>
	<node id="-911511" lat="64.9179749977" lon="11.5367611122">
		<tag k="name" v="Marikoven" />
		<tag k="place" v="farm" />
		<tag k="ssr:stedsnr" v="621047" />
	</node>
	<node id="-909358" lat="64.7311416636" lon="11.226166669">
		<tag k="name" v="Neset" />
		<tag k="place" v="locality" />
		<tag k="ssr:stedsnr" v="165197" />
	</node>
	<node id="-911403" lat="64.8785483891" lon="11.3028941666">
		<tag k="name" v="Garmannvika" />
		<tag k="place" v="farm" />
		<tag k="ssr:stedsnr" v="499074" />
	</node>
	<node id="-911401" lat="64.9600499996" lon="12.2174361062">
		<tag k="name" v="Øverås" />
		<tag k="place" v="farm" />
		<tag k="ssr:stedsnr" v="75643" />
	</node>
	<node id="-911397" lat="64.9479374299" lon="11.968370008">
		<tag k="alt_name" v="Inngården" />
		<tag k="name" v="Årfora" />
		<tag k="place" v="farm" />
		<tag k="ssr:stedsnr" v="318597" />
	</node>
	<node id="-911394" lat="64.8226083331" lon="11.493275005">
		<tag k="name" v="Bjørset" />
		<tag k="place" v="farm" />
		<tag k="ssr:stedsnr" v="257309" />
	</node>
	<node id="-911391" lat="64.819277777" lon="11.44141389">
		<tag k="name" v="Valmoen" />
		<tag k="place" v="farm" />
		<tag k="ssr:stedsnr" v="15336" />
	</node>
	<node id="-909342" lat="65.0331722204" lon="11.7535027724">
		<tag k="name" v="Elvheim" />
		<tag k="place" v="isolated_dwelling" />
		<tag k="ssr:stedsnr" v="715937" />
	</node>
	<node id="-909339" lat="64.8084416671" lon="11.5055527793">
		<tag k="name" v="Nyheim" />
		<tag k="place" v="farm" />
		<tag k="ssr:stedsnr" v="317306" />
	</node>
	<node id="-911385" lat="64.9703055509" lon="12.1069277875">
		<tag k="name" v="Breivika" />
		<tag k="place" v="farm" />
		<tag k="ssr:stedsnr" v="864671" />
	</node>
	<node id="-911382" lat="65.0278749973" lon="12.0337194467">
		<tag k="loc_name" v="Myra" />
		<tag k="name" v="Myrå" />
		<tag k="place" v="farm" />
		<tag k="ssr:stedsnr" v="500165" />
	</node>
	<node id="-909329" lat="65.0521416658" lon="11.8787972224">
		<tag k="fixme" v="consider place=hamlet" />
		<tag k="name" v="Årset" />
		<tag k="place" v="farm" />
		<tag k="ssr:stedsnr" v="803117" />
	</node>
	<node id="-911376" lat="65.0327222254" lon="12.0319361193">
		<tag k="alt_name" v="Gammelsetran" />
		<tag k="name" v="Gammelsætra" />
		<tag k="place" v="isolated_dwelling" />
		<tag k="ssr:stedsnr" v="864135" />
	</node>
	<node id="-911375" lat="64.9031111089" lon="11.5646416641">
		<tag k="name" v="Fallet" />
		<tag k="place" v="farm" />
		<tag k="ssr:stedsnr" v="318046" />
	</node>
	<node id="-911372" lat="64.8173361155" lon="11.5168750018">
		<tag k="name" v="Fagerli" />
		<tag k="place" v="farm" />
		<tag k="ssr:stedsnr" v="682345" />
	</node>
	<node id="-909322" lat="64.8599333348" lon="11.6282416771">
		<tag k="alt_name" v="Korsnesøra;Øyra" />
		<tag k="name" v="Øren" />
		<tag k="place" v="farm" />
		<tag k="ssr:stedsnr" v="500507" />
	</node>
	<node id="-911368" lat="64.9509023324" lon="12.0131865991">
		<tag k="alt_name" v="Skaftnes øvre" />
		<tag k="name" v="Skaftnes" />
		<tag k="place" v="farm" />
		<tag k="ssr:stedsnr" v="318595" />
	</node>
	<node id="-911364" lat="64.9698166633" lon="12.0498694341">
		<tag k="name" v="Leirviksetran" />
		<tag k="place" v="farm" />
		<tag k="ssr:stedsnr" v="210406" />
	</node>
	<node id="-908401" lat="64.9288583321" lon="12.0227361183">
		<tag k="name" v="Varpmoen" />
		<tag k="place" v="farm" />
		<tag k="ssr:stedsnr" v="682603" />
	</node>
</osm>
