<?xml version="1.0" encoding="UTF-8"?>
<osm generator="osmapis" version="0.6">
	<node id="-912896" lat="64.8211777808" lon="11.7472861143">
		<tag k="name" v="Petterslættet" />
		<tag k="place" v="locality" />
		<tag k="ssr:stedsnr" v="590037" />
	</node>
	<node id="-912384" lat="64.9907388906" lon="11.8638083347">
		<tag k="name" v="Stormyrå" />
		<tag k="natural" v="wetland" />
		<tag k="ssr:stedsnr" v="836316" />
	</node>
	<node id="-909440" lat="64.9807055531" lon="11.7165277844">
		<tag k="name" v="Nordskogen" />
		<tag k="place" v="locality" />
		<tag k="ssr:stedsnr" v="47503" />
	</node>
	<node id="-911869" lat="64.9273499978" lon="11.5067694457">
		<tag k="name" v="Bjørnakløyvmyra" />
		<tag k="natural" v="wetland" />
		<tag k="ssr:stedsnr" v="25063" />
	</node>
	<node id="-910762" lat="64.9106305577" lon="11.4566916638">
		<tag k="name" v="Tverrlimyrå" />
		<tag k="natural" v="wetland" />
		<tag k="ssr:stedsnr" v="591361" />
	</node>
	<node id="-912888" lat="64.8833277794" lon="11.5323722128">
		<tag k="name" v="Liamyra" />
		<tag k="natural" v="wetland" />
		<tag k="ssr:stedsnr" v="411411" />
	</node>
	<node id="-911351" lat="64.8819111068" lon="11.6596611126">
		<tag k="name" v="Langmyra" />
		<tag k="natural" v="wetland" />
		<tag k="ssr:stedsnr" v="875049" />
	</node>
	<node id="-910582" lat="64.9699972249" lon="12.1700611086">
		<tag k="name" v="Valåsmyra" />
		<tag k="natural" v="wetland" />
		<tag k="ssr:stedsnr" v="513323" />
	</node>
	<node id="-912884" lat="64.8215722228" lon="11.7812694409">
		<tag k="name" v="Kråe" />
		<tag k="natural" v="wetland" />
		<tag k="ssr:stedsnr" v="590040" />
	</node>
	<node id="-912371" lat="64.8962805551" lon="11.8439444375">
		<tag k="name" v="Middagsmarka" />
		<tag k="natural" v="wetland" />
		<tag k="ssr:stedsnr" v="511229" />
	</node>
	<node id="-911858" lat="64.8246833351" lon="11.2808333423">
		<tag k="name" v="Krokmyrin" />
		<tag k="place" v="locality" />
		<tag k="ssr:stedsnr" v="529176" />
	</node>
	<node id="-913088" lat="65.0166666706" lon="11.8127722162">
		<tag k="name" v="Stormyrå" />
		<tag k="natural" v="wetland" />
		<tag k="ssr:stedsnr" v="168254" />
	</node>
	<node id="-909968" lat="64.8424777764" lon="11.6357583423">
		<tag k="historic" v="shieling" />
		<tag k="name" v="Setran" />
		<tag k="place" v="locality" />
		<tag k="ssr:stedsnr" v="105098" />
	</node>
	<node id="-910830" lat="65.0630999962" lon="11.9067916694">
		<tag k="name" v="Årsetengan" />
		<tag k="place" v="locality" />
		<tag k="ssr:stedsnr" v="350329" />
	</node>
	<node id="-909291" lat="64.798086113" lon="11.4464888793">
		<tag k="name" v="Mentsenplassen" />
		<tag k="place" v="locality" />
		<tag k="ssr:stedsnr" v="104141" />
	</node>
	<node id="-911271" lat="64.9794611105" lon="11.6316861009">
		<tag k="name" v="Sandan" />
		<tag k="natural" v="beach" />
		<tag k="ssr:stedsnr" v="897839" />
		<tag k="surface" v="sand" />
	</node>
	<node id="-910311" lat="64.7577138848" lon="11.6629638898">
		<tag k="name" v="Skårmyrån" />
		<tag k="natural" v="wetland" />
		<tag k="ssr:stedsnr" v="414918" />
	</node>
	<node id="-909283" lat="64.8990111123" lon="11.6256666581">
		<tag k="name" v="Storgryttjønnmyrå" />
		<tag k="natural" v="wetland" />
		<tag k="ssr:stedsnr" v="651125" />
	</node>
	<node id="-911840" lat="64.8098694475" lon="11.8025472237">
		<tag k="name" v="Sankthanshagen" />
		<tag k="place" v="locality" />
		<tag k="ssr:stedsnr" v="589040" />
	</node>
	<node id="-911327" lat="64.9056888888" lon="11.6099000065">
		<tag k="name" v="Bjørkskardmyrå" />
		<tag k="natural" v="wetland" />
		<tag k="ssr:stedsnr" v="106108" />
	</node>
	<node id="-909959" lat="64.7358944437" lon="11.5773333396">
		<tag k="name" v="Dumålmyra" />
		<tag k="natural" v="wetland" />
		<tag k="ssr:stedsnr" v="475476" />
	</node>
	<node id="-913372" lat="64.9425111082" lon="11.5713500039">
		<tag k="name" v="Leirå" />
		<tag k="place" v="locality" />
		<tag k="ssr:stedsnr" v="654224" />
	</node>
	<node id="-913369" lat="64.8427055542" lon="11.2323638839">
		<tag k="name" v="Per-Olsaslåtten" />
		<tag k="place" v="locality" />
		<tag k="ssr:stedsnr" v="512918" />
	</node>
	<node id="-913367" lat="64.7738194406" lon="11.7909166702">
		<tag k="name" v="Ranvika" />
		<tag k="place" v="locality" />
		<tag k="ssr:stedsnr" v="353028" />
	</node>
	<node id="-909270" lat="64.8131277816" lon="11.8835805513">
		<tag k="name" v="Stormyra" />
		<tag k="natural" v="wetland" />
		<tag k="ssr:stedsnr" v="710031" />
	</node>
	<node id="-908245" lat="64.9473999961" lon="11.8164916614">
		<tag k="name" v="Vassbygda Statsskog" />
		<tag k="place" v="locality" />
		<tag k="ssr:stedsnr" v="775718" />
	</node>
	<node id="-908243" lat="64.8650861092" lon="11.7894777689">
		<tag k="historic" v="shieling" />
		<tag k="name" v="Djupviksetran" />
		<tag k="place" v="locality" />
		<tag k="ssr:stedsnr" v="718848" />
	</node>
	<node id="-911313" lat="64.9407944422" lon="11.7264277674">
		<tag k="name" v="Setermyrån" />
		<tag k="natural" v="wetland" />
		<tag k="ssr:stedsnr" v="108631" />
	</node>
	<node id="-908239" lat="64.7873944468" lon="11.2714361119">
		<tag k="name" v="Tormoen" />
		<tag k="place" v="locality" />
		<tag k="ssr:stedsnr" v="650166" />
	</node>
	<node id="-909389" lat="64.9245722254" lon="11.5569138965">
		<tag k="name" v="Klokkaåttemyrå" />
		<tag k="natural" v="wetland" />
		<tag k="ssr:stedsnr" v="288135" />
	</node>
	<node id="-911308" lat="64.8496833336" lon="11.4637083252">
		<tag k="name" v="Dyrstanskleiva" />
		<tag k="place" v="locality" />
		<tag k="ssr:stedsnr" v="772104" />
	</node>
	<node id="-912119" lat="64.9272694446" lon="12.0786249929">
		<tag k="alt_name" v="Stråmyra" />
		<tag k="name" v="Strålmyra" />
		<tag k="natural" v="wetland" />
		<tag k="ssr:stedsnr" v="720841" />
	</node>
	<node id="-912325" lat="64.9480527761" lon="11.6250111173">
		<tag k="name" v="Skavrapet" />
		<tag k="place" v="locality" />
		<tag k="ssr:stedsnr" v="897180" />
	</node>
	<node id="-909763" lat="64.7352277765" lon="11.2074694515">
		<tag k="name" v="Hesthagan" />
		<tag k="place" v="locality" />
		<tag k="ssr:stedsnr" v="468198" />
	</node>
	<node id="-910786" lat="64.9662611099" lon="12.4493499971">
		<tag k="alt_name" v="Erikmyrån" />
		<tag k="name" v="Erikmyran" />
		<tag k="natural" v="wetland" />
		<tag k="ssr:stedsnr" v="803824" />
	</node>
	<node id="-909761" lat="64.8146527796" lon="11.7758000004">
		<tag k="name" v="Kvistamyrå" />
		<tag k="natural" v="wetland" />
		<tag k="ssr:stedsnr" v="105057" />
	</node>
	<node id="-909835" lat="64.939625002" lon="11.9146333337">
		<tag k="name" v="Stormyra" />
		<tag k="natural" v="wetland" />
		<tag k="ssr:stedsnr" v="510195" />
	</node>
	<node id="-910783" lat="64.9101972205" lon="11.4427777685">
		<tag k="name" v="Granvikmyrå" />
		<tag k="natural" v="wetland" />
		<tag k="ssr:stedsnr" v="591358" />
	</node>
	<node id="-908732" lat="64.7749833334" lon="11.7374583422">
		<tag k="name" v="Kjerksteinen" />
		<tag k="natural" v="stone" />
		<tag k="ssr:stedsnr" v="292074" />
	</node>
	<node id="-909949" lat="64.8251777803" lon="11.9186972168">
		<tag k="name" v="Steinbrumyra" />
		<tag k="natural" v="wetland" />
		<tag k="ssr:stedsnr" v="293021" />
	</node>
	<node id="-911283" lat="64.923505552" lon="12.2376916639">
		<tag k="name" v="Råsbakkenget" />
		<tag k="natural" v="wetland" />
		<tag k="ssr:stedsnr" v="211188" />
	</node>
	<node id="-909745" lat="64.8634305591" lon="11.8061583297">
		<tag k="name" v="Fagervollen" />
		<tag k="place" v="locality" />
		<tag k="ssr:stedsnr" v="779836" />
	</node>
	<node id="-911792" lat="64.8000222221" lon="11.881172222">
		<tag k="name" v="Firhunderen" />
		<tag k="place" v="locality" />
		<tag k="ssr:stedsnr" v="832005" />
	</node>
	<node id="-913327" lat="64.8134527815" lon="11.4029444414">
		<tag k="name" v="Stormyra" />
		<tag k="natural" v="wetland" />
		<tag k="ssr:stedsnr" v="650104" />
	</node>
	<node id="-909741" lat="64.9276749995" lon="12.0295138981">
		<tag k="name" v="Langmarka" />
		<tag k="place" v="locality" />
		<tag k="ssr:stedsnr" v="113799" />
	</node>
	<node id="-912810" lat="64.9197916687" lon="12.2198611033">
		<tag k="name" v="Litl-Nesenget" />
		<tag k="natural" v="wetland" />
		<tag k="ssr:stedsnr" v="818179" />
	</node>
	<node id="-911273" lat="64.7665111146" lon="11.6967055494">
		<tag k="name" v="Stormyra" />
		<tag k="natural" v="wetland" />
		<tag k="ssr:stedsnr" v="657051" />
	</node>
	<node id="-908711" lat="65.0095500001" lon="11.9888111049">
		<tag k="name" v="Dalenget" />
		<tag k="place" v="locality" />
		<tag k="ssr:stedsnr" v="538188" />
	</node>
	<node id="-913316" lat="64.7330500024" lon="11.6479583343">
		<tag k="name" v="Sammarfjøsmyra" />
		<tag k="natural" v="wetland" />
		<tag k="ssr:stedsnr" v="293508" />
	</node>
	<node id="-912803" lat="64.9688361128" lon="12.1649722265">
		<tag k="name" v="Brubuktmyra" />
		<tag k="natural" v="wetland" />
		<tag k="ssr:stedsnr" v="149281" />
	</node>
	<node id="-909729" lat="64.9230583343" lon="12.0517444501">
		<tag k="name" v="Hesthagan" />
		<tag k="place" v="locality" />
		<tag k="ssr:stedsnr" v="113791" />
	</node>
	<node id="-913310" lat="65.0476944444" lon="11.9264555575">
		<tag k="name" v="Langenget" />
		<tag k="place" v="locality" />
		<tag k="ssr:stedsnr" v="593429" />
	</node>
	<node id="-913309" lat="64.731399996" lon="11.6421944365">
		<tag k="name" v="Markleinmyra" />
		<tag k="natural" v="wetland" />
		<tag k="ssr:stedsnr" v="293506" />
	</node>
	<node id="-908700" lat="64.9869194447" lon="12.0712888901">
		<tag k="name" v="Tverrakselsetran" />
		<tag k="place" v="locality" />
		<tag k="ssr:stedsnr" v="902801" />
	</node>
	<node id="-908698" lat="64.9762583358" lon="12.0511777789">
		<tag k="name" v="Hopskogen" />
		<tag k="place" v="locality" />
		<tag k="ssr:stedsnr" v="598855" />
	</node>
	<node id="-908185" lat="64.8364055534" lon="11.519058342">
		<tag k="fixme" v="multiple name tags, choose one and add the other to alt_name" />
		<tag k="name" v="Stormyra;Torvmyra" />
		<tag k="natural" v="wetland" />
		<tag k="ssr:stedsnr" v="318254" />
	</node>
	<node id="-911767" lat="64.9758250043" lon="12.0262444378">
		<tag k="name" v="Blåmyrån" />
		<tag k="natural" v="wetland" />
		<tag k="ssr:stedsnr" v="743669" />
	</node>
	<node id="-911765" lat="64.8082777798" lon="11.8491361047">
		<tag k="name" v="Jensåkkråa" />
		<tag k="natural" v="wetland" />
		<tag k="ssr:stedsnr" v="286030" />
	</node>
	<node id="-911251" lat="65.0378694414" lon="11.7922611034">
		<tag k="name" v="Joenget" />
		<tag k="place" v="locality" />
		<tag k="ssr:stedsnr" v="836939" />
	</node>
	<node id="-912784" lat="64.8132333305" lon="11.1592972163">
		<tag k="name" v="Kjerksanden" />
		<tag k="natural" v="beach" />
		<tag k="ssr:stedsnr" v="350613" />
		<tag k="surface" v="sand" />
	</node>
	<node id="-910735" lat="64.7697000046" lon="11.5979277691">
		<tag k="name" v="Viskogan" />
		<tag k="place" v="locality" />
		<tag k="ssr:stedsnr" v="414997" />
	</node>
	<node id="-912782" lat="64.9511111083" lon="11.4048611192">
		<tag k="name" v="Arvikmyrån" />
		<tag k="natural" v="wetland" />
		<tag k="ssr:stedsnr" v="414495" />
	</node>
	<node id="-910220" lat="65.0494888886" lon="11.9396194529">
		<tag k="name" v="Hattbrottmyrå" />
		<tag k="natural" v="wetland" />
		<tag k="ssr:stedsnr" v="108472" />
	</node>
	<node id="-910731" lat="64.8214166665" lon="11.2670166767">
		<tag k="name" v="Skurstranda" />
		<tag k="place" v="locality" />
		<tag k="ssr:stedsnr" v="711195" />
	</node>
	<node id="-909743" lat="64.768841667" lon="11.7513111045">
		<tag k="name" v="Småmyrån" />
		<tag k="natural" v="wetland" />
		<tag k="ssr:stedsnr" v="414076" />
	</node>
	<node id="-909463" lat="64.9778416628" lon="11.8252361003">
		<tag k="name" v="Langmyrå" />
		<tag k="natural" v="wetland" />
		<tag k="ssr:stedsnr" v="108355" />
	</node>
	<node id="-912264" lat="65.0087305566" lon="11.9897138846">
		<tag k="name" v="Marka" />
		<tag k="place" v="locality" />
		<tag k="ssr:stedsnr" v="75175" />
	</node>
	<node id="-909191" lat="64.9936666651" lon="11.9471055595">
		<tag k="name" v="Hesthagan" />
		<tag k="place" v="locality" />
		<tag k="ssr:stedsnr" v="598922" />
	</node>
	<node id="-913286" lat="64.9906388882" lon="11.7187194454">
		<tag k="name" v="Nordeitermyrån" />
		<tag k="natural" v="wetland" />
		<tag k="ssr:stedsnr" v="533509" />
	</node>
	<node id="-909189" lat="64.8464361148" lon="12.0198555662">
		<tag k="name" v="Rørtjønnmarka" />
		<tag k="place" v="locality" />
		<tag k="ssr:stedsnr" v="743948" />
	</node>
	<node id="-910352" lat="64.9080861147" lon="11.5375138954">
		<tag k="name" v="Høgsetmyra" />
		<tag k="natural" v="wetland" />
		<tag k="ssr:stedsnr" v="957027" />
	</node>
	<node id="-910722" lat="64.826350001" lon="11.2664361129">
		<tag k="name" v="Litlflosanden" />
		<tag k="place" v="locality" />
		<tag k="ssr:stedsnr" v="105204" />
	</node>
	<node id="-910720" lat="64.7805750038" lon="11.7064638819">
		<tag k="name" v="Flaget" />
		<tag k="place" v="locality" />
		<tag k="ssr:stedsnr" v="50024" />
	</node>
	<node id="-908159" lat="64.7721583364" lon="11.7594027703">
		<tag k="name" v="Kjerringflaugmyra" />
		<tag k="natural" v="wetland" />
		<tag k="ssr:stedsnr" v="535080" />
	</node>
	<node id="-909694" lat="64.900611108" lon="11.8173416686">
		<tag k="name" v="Kjeurda" />
		<tag k="natural" v="scree" />
		<tag k="ssr:stedsnr" v="269266" />
	</node>
	<node id="-911229" lat="64.8961916684" lon="11.6871305479">
		<tag k="name" v="Geitaklauvmyra" />
		<tag k="natural" v="wetland" />
		<tag k="ssr:stedsnr" v="754039" />
	</node>
	<node id="-911226" lat="64.8550305579" lon="11.6063638858">
		<tag k="name" v="Langmyra" />
		<tag k="natural" v="wetland" />
		<tag k="ssr:stedsnr" v="347071" />
	</node>
	<node id="-908351" lat="64.9142999995" lon="12.2399944423">
		<tag k="name" v="Langmyra" />
		<tag k="natural" v="wetland" />
		<tag k="ssr:stedsnr" v="29194" />
	</node>
	<node id="-911224" lat="64.9065694443" lon="11.856502787">
		<tag k="name" v="Vågamyra" />
		<tag k="natural" v="wetland" />
		<tag k="ssr:stedsnr" v="87232" />
	</node>
	<node id="-912247" lat="64.8596777787" lon="12.0035277844">
		<tag k="name" v="Vakkermyra" />
		<tag k="natural" v="wetland" />
		<tag k="ssr:stedsnr" v="682991" />
	</node>
	<node id="-908150" lat="64.949794441" lon="11.4366583368">
		<tag k="name" v="Ramtindmyrå" />
		<tag k="natural" v="wetland" />
		<tag k="ssr:stedsnr" v="171481" />
	</node>
	<node id="-908149" lat="64.7615027756" lon="11.7266361183">
		<tag k="name" v="Botnmyra" />
		<tag k="natural" v="wetland" />
		<tag k="ssr:stedsnr" v="535081" />
	</node>
	<node id="-910356" lat="64.7423555555" lon="11.6456944469">
		<tag k="name" v="Aunbumyra" />
		<tag k="natural" v="wetland" />
		<tag k="ssr:stedsnr" v="414937" />
	</node>
	<node id="-908145" lat="64.9345472262" lon="11.8402888891">
		<tag k="historic" v="shieling" />
		<tag k="name" v="Haugasetran" />
		<tag k="place" v="locality" />
		<tag k="ssr:stedsnr" v="168325" />
	</node>
	<node id="-912239" lat="64.7920333293" lon="11.3162361077">
		<tag k="name" v="Øysanden" />
		<tag k="place" v="locality" />
		<tag k="ssr:stedsnr" v="226959" />
	</node>
	<node id="-912504" lat="64.7861249996" lon="11.4339027723">
		<tag k="name" v="Austmarka" />
		<tag k="place" v="locality" />
		<tag k="ssr:stedsnr" v="589145" />
	</node>
	<node id="-908653" lat="64.9710361105" lon="11.8462583227">
		<tag k="name" v="Stormyra" />
		<tag k="natural" v="wetland" />
		<tag k="ssr:stedsnr" v="804659" />
	</node>
	<node id="-910188" lat="64.8306111147" lon="11.7103749957">
		<tag k="name" v="Urdsflauget" />
		<tag k="place" v="locality" />
		<tag k="ssr:stedsnr" v="596856" />
	</node>
	<node id="-913259" lat="64.8108694403" lon="11.4078388814">
		<tag k="name" v="Stormomyra" />
		<tag k="natural" v="wetland" />
		<tag k="ssr:stedsnr" v="833106" />
	</node>
	<node id="-908137" lat="64.771222222" lon="11.4047138831">
		<tag k="name" v="Vikaskarmyra" />
		<tag k="natural" v="wetland" />
		<tag k="ssr:stedsnr" v="590131" />
	</node>
	<node id="-912744" lat="64.9011972266" lon="11.708527782">
		<tag k="name" v="Stimyra" />
		<tag k="natural" v="wetland" />
		<tag k="ssr:stedsnr" v="572043" />
	</node>
	<node id="-912230" lat="64.7423611109" lon="11.2704527732">
		<tag k="name" v="Mariusskogen" />
		<tag k="place" v="locality" />
		<tag k="ssr:stedsnr" v="226144" />
	</node>
	<node id="-908131" lat="64.9893111085" lon="11.6803361131">
		<tag k="name" v="Langmyrå" />
		<tag k="natural" v="wetland" />
		<tag k="ssr:stedsnr" v="957505" />
	</node>
	<node id="-908640" lat="64.7925250023" lon="11.3007305454">
		<tag k="name" v="Dya" />
		<tag k="place" v="locality" />
		<tag k="ssr:stedsnr" v="590204" />
	</node>
	<node id="-912528" lat="64.8090500009" lon="11.7486333286">
		<tag k="name" v="Bjønnavika" />
		<tag k="place" v="locality" />
		<tag k="ssr:stedsnr" v="43022" />
	</node>
	<node id="-908637" lat="64.8883222209" lon="11.4906833257">
		<tag k="name" v="Hololimyra" />
		<tag k="natural" v="wetland" />
		<tag k="ssr:stedsnr" v="168400" />
	</node>
	<node id="-911708" lat="64.9270833312" lon="11.5269666635">
		<tag k="name" v="Masterholmyra" />
		<tag k="natural" v="wetland" />
		<tag k="ssr:stedsnr" v="875092" />
	</node>
	<node id="-912079" lat="64.8162083293" lon="11.4632166629">
		<tag k="name" v="Momyra" />
		<tag k="natural" v="wetland" />
		<tag k="ssr:stedsnr" v="226126" />
	</node>
	<node id="-910680" lat="64.8773222191" lon="11.440988888">
		<tag k="name" v="Runghaugmyrå" />
		<tag k="natural" v="wetland" />
		<tag k="ssr:stedsnr" v="894457" />
	</node>
	<node id="-912727" lat="64.931580559" lon="11.7696777799">
		<tag k="name" v="Storenget" />
		<tag k="natural" v="wetland" />
		<tag k="ssr:stedsnr" v="632034" />
	</node>
	<node id="-912793" lat="64.8862083324" lon="11.5055666565">
		<tag k="name" v="Storlimyra" />
		<tag k="natural" v="wetland" />
		<tag k="ssr:stedsnr" v="836358" />
	</node>
	<node id="-909138" lat="64.8292694408" lon="11.605966658">
		<tag k="name" v="Skjurarevvå" />
		<tag k="place" v="locality" />
		<tag k="ssr:stedsnr" v="44954" />
	</node>
	<node id="-908771" lat="64.9212222245" lon="12.4076944458">
		<tag k="name" v="Saltbumarka" />
		<tag k="place" v="locality" />
		<tag k="ssr:stedsnr" v="716602" />
	</node>
	<node id="-912204" lat="64.7420777787" lon="11.2566444352">
		<tag k="name" v="Lian" />
		<tag k="place" v="locality" />
		<tag k="ssr:stedsnr" v="226136" />
	</node>
	<node id="-908618" lat="64.9231833304" lon="11.6590888887">
		<tag k="name" v="Lømarka" />
		<tag k="place" v="locality" />
		<tag k="ssr:stedsnr" v="803023" />
	</node>
	<node id="-908104" lat="64.7728722236" lon="11.7084750066">
		<tag k="name" v="Rapet" />
		<tag k="place" v="locality" />
		<tag k="ssr:stedsnr" v="353042" />
	</node>
	<node id="-913223" lat="65.0218250028" lon="11.824927779">
		<tag k="name" v="Hagan" />
		<tag k="place" v="locality" />
		<tag k="ssr:stedsnr" v="168284" />
	</node>
	<node id="-910662" lat="64.7811583377" lon="11.7328750049">
		<tag k="name" v="Kjeurda" />
		<tag k="natural" v="scree" />
		<tag k="ssr:stedsnr" v="900080" />
	</node>
	<node id="-912196" lat="64.7976222199" lon="11.2711666702">
		<tag k="name" v="Ramnflauget" />
		<tag k="place" v="locality" />
		<tag k="ssr:stedsnr" v="347193" />
	</node>
	<node id="-911414" lat="64.8089194466" lon="11.7111055544">
		<tag k="historic" v="shieling" />
		<tag k="name" v="Nersetran" />
		<tag k="place" v="locality" />
		<tag k="ssr:stedsnr" v="226034" />
	</node>
	<node id="-913217" lat="64.8110111112" lon="11.7152138873">
		<tag k="historic" v="shieling" />
		<tag k="name" v="Øversetran" />
		<tag k="place" v="locality" />
		<tag k="ssr:stedsnr" v="833063" />
	</node>
	<node id="-913120" lat="64.9238305525" lon="12.077016663">
		<tag k="name" v="Bergbakkmyra" />
		<tag k="natural" v="wetland" />
		<tag k="ssr:stedsnr" v="416790" />
	</node>
	<node id="-912366" lat="64.994019442" lon="11.7964611058">
		<tag k="landuse" v="quarry" />
		<tag k="name" v="Grustaket" />
		<tag k="ssr:stedsnr" v="532562" />
	</node>
	<node id="-911677" lat="64.9593444423" lon="11.5904472296">
		<tag k="name" v="Bursurda" />
		<tag k="natural" v="scree" />
		<tag k="ssr:stedsnr" v="654812" />
	</node>
	<node id="-911162" lat="64.8087194435" lon="11.7784194527">
		<tag k="name" v="Arnbakkmyrå" />
		<tag k="natural" v="wetland" />
		<tag k="ssr:stedsnr" v="347047" />
	</node>
	<node id="-908601" lat="64.9412555564" lon="11.4929805526">
		<tag k="name" v="Revskogmyra" />
		<tag k="natural" v="wetland" />
		<tag k="ssr:stedsnr" v="147057" />
	</node>
	<node id="-910136" lat="64.7666722248" lon="11.702133339">
		<tag k="name" v="Torpet" />
		<tag k="place" v="locality" />
		<tag k="ssr:stedsnr" v="293060" />
	</node>
	<node id="-910647" lat="64.9572027745" lon="12.2275861154">
		<tag k="name" v="Stormyra" />
		<tag k="natural" v="wetland" />
		<tag k="ssr:stedsnr" v="391327" />
	</node>
	<node id="-912182" lat="64.908774997" lon="11.8801194441">
		<tag k="name" v="Røyrmyra" />
		<tag k="natural" v="wetland" />
		<tag k="ssr:stedsnr" v="780877" />
	</node>
	<node id="-908597" lat="64.8350111111" lon="11.557141668">
		<tag k="name" v="Stavåsmyra" />
		<tag k="natural" v="wetland" />
		<tag k="ssr:stedsnr" v="165070" />
	</node>
	<node id="-908339" lat="64.8078694428" lon="11.7204166687">
		<tag k="name" v="Tømmerstranda" />
		<tag k="place" v="locality" />
		<tag k="ssr:stedsnr" v="165034" />
	</node>
	<node id="-912688" lat="64.8732888932" lon="11.4349305655">
		<tag k="name" v="Langmyrå" />
		<tag k="natural" v="wetland" />
		<tag k="ssr:stedsnr" v="469443" />
	</node>
	<node id="-909726" lat="64.7644027772" lon="11.7485138812">
		<tag k="name" v="Stormyra" />
		<tag k="natural" v="wetland" />
		<tag k="ssr:stedsnr" v="960086" />
	</node>
	<node id="-912686" lat="64.7915138912" lon="11.2576666624">
		<tag k="name" v="Stokkdikberget" />
		<tag k="place" v="locality" />
		<tag k="ssr:stedsnr" v="226209" />
	</node>
	<node id="-913197" lat="64.9250027776" lon="12.0241555505">
		<tag k="name" v="Nesasetran" />
		<tag k="place" v="locality" />
		<tag k="ssr:stedsnr" v="841789" />
	</node>
	<node id="-910636" lat="64.9043194451" lon="11.4166499969">
		<tag k="name" v="Øvermarka" />
		<tag k="place" v="locality" />
		<tag k="ssr:stedsnr" v="75021" />
	</node>
	<node id="-912928" lat="64.9752555536" lon="12.1153916621">
		<tag k="name" v="Langmarkmyran" />
		<tag k="natural" v="wetland" />
		<tag k="ssr:stedsnr" v="925703" />
	</node>
	<node id="-909610" lat="64.9847416661" lon="11.6852999915">
		<tag k="name" v="Heimerengan" />
		<tag k="place" v="locality" />
		<tag k="ssr:stedsnr" v="654506" />
	</node>
	<node id="-913193" lat="64.8140555591" lon="11.7332277758">
		<tag k="name" v="Bukkatjønnmyrå" />
		<tag k="natural" v="wetland" />
		<tag k="ssr:stedsnr" v="287047" />
	</node>
	<node id="-911656" lat="64.8945555544" lon="11.6780277838">
		<tag k="name" v="Storsteinmyra" />
		<tag k="natural" v="wetland" />
		<tag k="ssr:stedsnr" v="208029" />
	</node>
	<node id="-909788" lat="64.8118083289" lon="11.9811777851">
		<tag k="name" v="Storskogen" />
		<tag k="place" v="locality" />
		<tag k="ssr:stedsnr" v="839053" />
	</node>
	<node id="-912677" lat="64.9432388897" lon="11.412983334">
		<tag k="name" v="Breivikmyrå" />
		<tag k="natural" v="wetland" />
		<tag k="ssr:stedsnr" v="960507" />
	</node>
	<node id="-908067" lat="64.9558583342" lon="11.9940111062">
		<tag k="name" v="Åsmyra" />
		<tag k="natural" v="wetland" />
		<tag k="ssr:stedsnr" v="88324" />
	</node>
	<node id="-911067" lat="64.823374999" lon="11.7197499932">
		<tag k="name" v="Søkkjå" />
		<tag k="natural" v="wetland" />
		<tag k="ssr:stedsnr" v="529053" />
	</node>
	<node id="-911648" lat="65.0481944436" lon="11.9009277804">
		<tag k="name" v="Kvernaengan" />
		<tag k="place" v="locality" />
		<tag k="ssr:stedsnr" v="532458" />
	</node>
	<node id="-909777" lat="64.7381416669" lon="11.2085555654">
		<tag k="name" v="Aunet" />
		<tag k="place" v="locality" />
		<tag k="ssr:stedsnr" v="468200" />
	</node>
	<node id="-910336" lat="65.0184694452" lon="11.8080944436">
		<tag k="name" v="Myrvika" />
		<tag k="place" v="locality" />
		<tag k="ssr:stedsnr" v="532260" />
	</node>
	<node id="-908614" lat="64.9160611132" lon="11.5260000079">
		<tag k="name" v="Småengdalsmyra" />
		<tag k="natural" v="wetland" />
		<tag k="ssr:stedsnr" v="328054" />
	</node>
	<node id="-908568" lat="64.8327972191" lon="11.6269500035">
		<tag k="name" v="Øystervika" />
		<tag k="place" v="locality" />
		<tag k="ssr:stedsnr" v="165072" />
	</node>
	<node id="-911639" lat="64.8192361121" lon="11.7209666719">
		<tag k="name" v="Bustamyrå" />
		<tag k="natural" v="wetland" />
		<tag k="ssr:stedsnr" v="226070" />
	</node>
	<node id="-911126" lat="64.7851833315" lon="11.7173805635">
		<tag k="name" v="Tåmmåsurda" />
		<tag k="natural" v="scree" />
		<tag k="ssr:stedsnr" v="596995" />
	</node>
	<node id="-909589" lat="64.9257277738" lon="11.5636944496">
		<tag k="name" v="Urdmomyrå" />
		<tag k="natural" v="wetland" />
		<tag k="ssr:stedsnr" v="288159" />
	</node>
	<node id="-911662" lat="64.9181777747" lon="11.5520027746">
		<tag k="name" v="Høgmyrå" />
		<tag k="natural" v="wetland" />
		<tag k="ssr:stedsnr" v="470103" />
	</node>
	<node id="-909586" lat="64.9352083294" lon="11.7792805499">
		<tag k="name" v="Storenget" />
		<tag k="place" v="locality" />
		<tag k="ssr:stedsnr" v="593671" />
	</node>
	<node id="-913169" lat="64.7706694418" lon="11.7122000065">
		<tag k="name" v="Engan" />
		<tag k="place" v="locality" />
		<tag k="ssr:stedsnr" v="535029" />
	</node>
	<node id="-912656" lat="64.9235583332" lon="12.0640277804">
		<tag k="name" v="Seterurda" />
		<tag k="natural" v="scree" />
		<tag k="ssr:stedsnr" v="962783" />
	</node>
	<node id="-908559" lat="64.7700472243" lon="11.8425583315">
		<tag k="name" v="Salviksetran" />
		<tag k="place" v="locality" />
		<tag k="ssr:stedsnr" v="778102" />
	</node>
	<node id="-911118" lat="64.8227833321" lon="11.6808861182">
		<tag k="name" v="Røyrmyrå" />
		<tag k="natural" v="wetland" />
		<tag k="ssr:stedsnr" v="347057" />
	</node>
	<node id="-913170" lat="64.9267472262" lon="11.5921805655">
		<tag k="name" v="Mundmyrå" />
		<tag k="natural" v="wetland" />
		<tag k="ssr:stedsnr" v="348163" />
	</node>
	<node id="-909068" lat="64.812344447" lon="11.3748555501">
		<tag k="name" v="Langsigmyra" />
		<tag k="natural" v="wetland" />
		<tag k="ssr:stedsnr" v="165149" />
	</node>
	<node id="-909067" lat="64.8269444474" lon="11.3823583308">
		<tag k="name" v="Arnhaugmyran" />
		<tag k="natural" v="wetland" />
		<tag k="ssr:stedsnr" v="954346" />
	</node>
	<node id="-909065" lat="64.9331305557" lon="11.8499388848">
		<tag k="name" v="Haltussmyrån" />
		<tag k="natural" v="wetland" />
		<tag k="ssr:stedsnr" v="378591" />
	</node>
	<node id="-908551" lat="64.7649138852" lon="11.8187666767">
		<tag k="name" v="Monsøysetran" />
		<tag k="place" v="locality" />
		<tag k="ssr:stedsnr" v="778103" />
	</node>
	<node id="-911589" lat="64.7370472259" lon="11.6599555615">
		<tag k="name" v="Langslåtten" />
		<tag k="place" v="locality" />
		<tag k="ssr:stedsnr" v="900213" />
	</node>
	<node id="-912131" lat="64.8017027738" lon="11.7599916651">
		<tag k="name" v="Stormyrå" />
		<tag k="natural" v="wetland" />
		<tag k="ssr:stedsnr" v="111076" />
	</node>
	<node id="-912130" lat="64.7621000007" lon="11.7479638873">
		<tag k="name" v="Stakkenget" />
		<tag k="place" v="locality" />
		<tag k="ssr:stedsnr" v="717082" />
	</node>
	<node id="-911105" lat="64.816647218" lon="11.7762638947">
		<tag k="name" v="Peenget" />
		<tag k="natural" v="wetland" />
		<tag k="ssr:stedsnr" v="772046" />
	</node>
	<node id="-910080" lat="64.9666305539" lon="11.6277555563">
		<tag k="name" v="Otersteinan" />
		<tag k="natural" v="stone" />
		<tag k="ssr:stedsnr" v="836793" />
	</node>
	<node id="-912000" lat="64.9599249994" lon="11.9331999906">
		<tag k="name" v="Benjaminsetran" />
		<tag k="place" v="locality" />
		<tag k="ssr:stedsnr" v="355859" />
	</node>
	<node id="-913149" lat="64.9486277774" lon="11.42340001">
		<tag k="name" v="Feskjivågmyrå" />
		<tag k="natural" v="wetland" />
		<tag k="ssr:stedsnr" v="839505" />
	</node>
	<node id="-908027" lat="64.7996361116" lon="11.7794805646">
		<tag k="name" v="Finnstranda" />
		<tag k="place" v="locality" />
		<tag k="ssr:stedsnr" v="960066" />
	</node>
	<node id="-911098" lat="64.7694611137" lon="11.7459333262">
		<tag k="name" v="Lurmyrå" />
		<tag k="natural" v="wetland" />
		<tag k="ssr:stedsnr" v="50072" />
	</node>
	<node id="-913279" lat="64.8774555588" lon="11.4336500026">
		<tag k="name" v="Stormyrå" />
		<tag k="natural" v="wetland" />
		<tag k="ssr:stedsnr" v="712392" />
	</node>
	<node id="-912631" lat="64.9148555526" lon="11.7355777873">
		<tag k="name" v="Stormyra" />
		<tag k="natural" v="wetland" />
		<tag k="ssr:stedsnr" v="936025" />
	</node>
	<node id="-909046" lat="64.8795249999" lon="11.464311114">
		<tag k="name" v="Stakkmyra" />
		<tag k="natural" v="wetland" />
		<tag k="ssr:stedsnr" v="75398" />
	</node>
	<node id="-911091" lat="64.8844222188" lon="11.4490305604">
		<tag k="name" v="Peengmyrå" />
		<tag k="natural" v="wetland" />
		<tag k="ssr:stedsnr" v="651415" />
	</node>
	<node id="-908755" lat="64.9697944416" lon="11.9872944407">
		<tag k="name" v="Nordmarka" />
		<tag k="place" v="locality" />
		<tag k="ssr:stedsnr" v="136649" />
	</node>
	<node id="-912111" lat="64.8370666648" lon="11.8144333229">
		<tag k="name" v="Langmarka" />
		<tag k="place" v="locality" />
		<tag k="ssr:stedsnr" v="15955" />
	</node>
	<node id="-911598" lat="64.7354833293" lon="11.6587472238">
		<tag k="name" v="Jordfallet" />
		<tag k="place" v="locality" />
		<tag k="ssr:stedsnr" v="900211" />
	</node>
	<node id="-912109" lat="64.8185277738" lon="11.8187527789">
		<tag k="historic" v="shieling" />
		<tag k="name" v="Setersetran" />
		<tag k="place" v="locality" />
		<tag k="ssr:stedsnr" v="893027" />
	</node>
	<node id="-912594" lat="64.8952749992" lon="11.606599997">
		<tag k="name" v="Dragskardmyrå" />
		<tag k="natural" v="wetland" />
		<tag k="ssr:stedsnr" v="773107" />
	</node>
	<node id="-910353" lat="64.9289194446" lon="11.4589861177">
		<tag k="name" v="Jomyra" />
		<tag k="natural" v="wetland" />
		<tag k="ssr:stedsnr" v="935077" />
	</node>
	<node id="-908007" lat="64.9629694425" lon="12.1991999951">
		<tag k="name" v="Enget" />
		<tag k="place" v="locality" />
		<tag k="ssr:stedsnr" v="695317" />
	</node>
	<node id="-911078" lat="64.7666805514" lon="11.7422333243">
		<tag k="name" v="Kråmyra" />
		<tag k="natural" v="wetland" />
		<tag k="ssr:stedsnr" v="50069" />
	</node>
	<node id="-908517" lat="64.8157833294" lon="11.494541657">
		<tag k="name" v="Strandamarka" />
		<tag k="place" v="locality" />
		<tag k="ssr:stedsnr" v="743339" />
	</node>
	<node id="-909537" lat="64.9859666667" lon="11.8614861006">
		<tag k="historic" v="shieling" />
		<tag k="name" v="Melkarvollen" />
		<tag k="place" v="locality" />
		<tag k="ssr:stedsnr" v="108360" />
	</node>
	<node id="-908000" lat="64.8938083296" lon="11.4594611178">
		<tag k="name" v="Seterlia" />
		<tag k="place" v="locality" />
		<tag k="ssr:stedsnr" v="227391" />
	</node>
	<node id="-911374" lat="64.8373083335" lon="11.4736361142">
		<tag k="name" v="Vidmarka" />
		<tag k="place" v="locality" />
		<tag k="ssr:stedsnr" v="347094" />
	</node>
	<node id="-911582" lat="64.8885388926" lon="11.5492500102">
		<tag k="name" v="Heimsenget" />
		<tag k="place" v="locality" />
		<tag k="ssr:stedsnr" v="775410" />
	</node>
	<node id="-911653" lat="64.9471861127" lon="12.2093694523">
		<tag k="name" v="Hesthagan" />
		<tag k="place" v="locality" />
		<tag k="ssr:stedsnr" v="270334" />
	</node>
	<node id="-908985" lat="64.7723277747" lon="11.3777305515">
		<tag k="name" v="Vargtuva" />
		<tag k="place" v="locality" />
		<tag k="ssr:stedsnr" v="165137" />
	</node>
	<node id="-909019" lat="64.9553944453" lon="11.9414638887">
		<tag k="name" v="Stormyra" />
		<tag k="natural" v="wetland" />
		<tag k="ssr:stedsnr" v="86211" />
	</node>
	<node id="-908751" lat="64.7711888864" lon="11.7283833347">
		<tag k="name" v="Småmyrån" />
		<tag k="natural" v="wetland" />
		<tag k="ssr:stedsnr" v="292077" />
	</node>
	<node id="-908504" lat="64.9178749956" lon="11.7009055522">
		<tag k="name" v="Nakkmyrå" />
		<tag k="natural" v="wetland" />
		<tag k="ssr:stedsnr" v="229706" />
	</node>
	<node id="-909015" lat="64.8702249984" lon="11.5910249966">
		<tag k="name" v="Leirvikmyra" />
		<tag k="natural" v="wetland" />
		<tag k="ssr:stedsnr" v="500457" />
	</node>
	<node id="-908502" lat="64.9782583332" lon="12.0428722151">
		<tag k="name" v="Sivertsetran" />
		<tag k="place" v="locality" />
		<tag k="ssr:stedsnr" v="538872" />
	</node>
	<node id="-909433" lat="64.9707416659" lon="11.8190694548">
		<tag k="name" v="Haltussvassmyra" />
		<tag k="natural" v="wetland" />
		<tag k="ssr:stedsnr" v="682687" />
	</node>
	<node id="-909012" lat="64.7634472218" lon="11.7386444369">
		<tag k="name" v="Svarttjønnmyra" />
		<tag k="natural" v="wetland" />
		<tag k="ssr:stedsnr" v="232091" />
	</node>
	<node id="-911169" lat="64.9526944475" lon="12.0696055589">
		<tag k="name" v="Kalvhagan" />
		<tag k="place" v="locality" />
		<tag k="ssr:stedsnr" v="391374" />
	</node>
	<node id="-908498" lat="64.9550833325" lon="11.9341027803">
		<tag k="name" v="Olavssetran" />
		<tag k="place" v="locality" />
		<tag k="ssr:stedsnr" v="841882" />
	</node>
	<node id="-913103" lat="64.9296611128" lon="11.6328083309">
		<tag k="name" v="Haugamyrå" />
		<tag k="natural" v="wetland" />
		<tag k="ssr:stedsnr" v="654205" />
	</node>
	<node id="-908494" lat="64.979336114" lon="12.038608341">
		<tag k="name" v="Sveinsetran" />
		<tag k="place" v="locality" />
		<tag k="ssr:stedsnr" v="538871" />
	</node>
	<node id="-910097" lat="64.8974361074" lon="11.618727776">
		<tag k="name" v="Gryttjønnmyrå" />
		<tag k="natural" v="wetland" />
		<tag k="ssr:stedsnr" v="45111" />
	</node>
	<node id="-912511" lat="65.0245222246" lon="11.8672472315">
		<tag k="name" v="Hogget" />
		<tag k="place" v="locality" />
		<tag k="ssr:stedsnr" v="290288" />
	</node>
	<node id="-908919" lat="64.9361222239" lon="11.7181111063">
		<tag k="name" v="Horven Statsskog" />
		<tag k="place" v="locality" />
		<tag k="ssr:stedsnr" v="836599" />
	</node>
	<node id="-912071" lat="64.8579944425" lon="11.517100002">
		<tag k="name" v="Ryphammaren" />
		<tag k="place" v="locality" />
		<tag k="ssr:stedsnr" v="226114" />
	</node>
	<node id="-912064" lat="64.8756499965" lon="11.378702779">
		<tag k="name" v="Bidalsmyra" />
		<tag k="natural" v="wetland" />
		<tag k="ssr:stedsnr" v="694888" />
	</node>
	<node id="-910015" lat="64.9353527792" lon="11.5604416641">
		<tag k="name" v="Urda" />
		<tag k="natural" v="scree" />
		<tag k="ssr:stedsnr" v="532198" />
	</node>
	<node id="-908475" lat="64.8938555593" lon="11.3706083397">
		<tag k="historic" v="shieling" />
		<tag k="name" v="Fagervollen" />
		<tag k="place" v="locality" />
		<tag k="ssr:stedsnr" v="560097" />
	</node>
	<node id="-912058" lat="64.9236444452" lon="11.433508325">
		<tag k="name" v="Fjellmyra" />
		<tag k="natural" v="wetland" />
		<tag k="ssr:stedsnr" v="875129" />
	</node>
	<node id="-910009" lat="64.8758805531" lon="11.4908527793">
		<tag k="name" v="Fossåenget" />
		<tag k="place" v="locality" />
		<tag k="ssr:stedsnr" v="108452" />
	</node>
	<node id="-912056" lat="64.9236944421" lon="12.2136277773">
		<tag k="name" v="Skjeftmyra" />
		<tag k="natural" v="wetland" />
		<tag k="ssr:stedsnr" v="575176" />
	</node>
	<node id="-909428" lat="64.9486277762" lon="11.4117527763">
		<tag k="name" v="Langmyrå" />
		<tag k="natural" v="wetland" />
		<tag k="ssr:stedsnr" v="111476" />
	</node>
	<node id="-908469" lat="64.9246083294" lon="12.0664333362">
		<tag k="name" v="Svinnstisetran" />
		<tag k="place" v="locality" />
		<tag k="ssr:stedsnr" v="173790" />
	</node>
	<node id="-910145" lat="64.8798500032" lon="11.3200222289">
		<tag k="name" v="Åsmyra" />
		<tag k="natural" v="wetland" />
		<tag k="ssr:stedsnr" v="695419" />
	</node>
	<node id="-908466" lat="65.0728861097" lon="11.9699805607">
		<tag k="name" v="Marenhalla" />
		<tag k="place" v="locality" />
		<tag k="ssr:stedsnr" v="598824" />
	</node>
	<node id="-911535" lat="65.0241249993" lon="11.7663750025">
		<tag k="alt_name" v="Skotnesmyrån" />
		<tag k="name" v="Skotnesmyra" />
		<tag k="natural" v="wetland" />
		<tag k="ssr:stedsnr" v="197168" />
	</node>
	<node id="-911533" lat="64.9115000043" lon="11.799455552">
		<tag k="name" v="Stormyra" />
		<tag k="natural" v="wetland" />
		<tag k="ssr:stedsnr" v="925563" />
	</node>
	<node id="-912043" lat="64.7573166624" lon="11.6488305654">
		<tag k="name" v="Breivikmyrån" />
		<tag k="natural" v="wetland" />
		<tag k="ssr:stedsnr" v="657943" />
	</node>
	<node id="-912553" lat="64.9358888906" lon="11.7894999935">
		<tag k="name" v="Nærøy prestegårdsskog" />
		<tag k="place" v="locality" />
		<tag k="ssr:stedsnr" v="472717" />
	</node>
	<node id="-912039" lat="64.8877249975" lon="11.4543083402">
		<tag k="name" v="Stormyra" />
		<tag k="natural" v="wetland" />
		<tag k="ssr:stedsnr" v="318112" />
	</node>
	<node id="-913111" lat="64.873638887" lon="11.6491888979">
		<tag k="name" v="Torvsjåmyra" />
		<tag k="natural" v="wetland" />
		<tag k="ssr:stedsnr" v="815045" />
	</node>
	<node id="-912088" lat="64.9519722193" lon="12.1372638868">
		<tag k="name" v="Kålåmarka" />
		<tag k="place" v="locality" />
		<tag k="ssr:stedsnr" v="938320" />
	</node>
	<node id="-908448" lat="64.8142944422" lon="11.7464666694">
		<tag k="name" v="Limyrå" />
		<tag k="natural" v="wetland" />
		<tag k="ssr:stedsnr" v="165044" />
	</node>
	<node id="-908446" lat="64.7388333299" lon="11.5689027839">
		<tag k="name" v="Aunsetran" />
		<tag k="place" v="locality" />
		<tag k="ssr:stedsnr" v="171521" />
	</node>
	<node id="-912027" lat="64.9305111124" lon="12.0421805547">
		<tag k="name" v="Aunet" />
		<tag k="place" v="locality" />
		<tag k="ssr:stedsnr" v="720833" />
	</node>
	<node id="-911406" lat="64.8651583357" lon="11.4844166636">
		<tag k="name" v="Mulstadmarka" />
		<tag k="place" v="locality" />
		<tag k="ssr:stedsnr" v="347087" />
	</node>
	<node id="-912537" lat="64.7679861086" lon="11.356813884">
		<tag k="name" v="Nordstranda" />
		<tag k="place" v="locality" />
		<tag k="ssr:stedsnr" v="286971" />
	</node>
	<node id="-913048" lat="64.8839500006" lon="11.4605999996">
		<tag k="name" v="Peenget" />
		<tag k="place" v="locality" />
		<tag k="ssr:stedsnr" v="925143" />
	</node>
	<node id="-910999" lat="64.8198944488" lon="11.1981611185">
		<tag k="historic" v="shieling" />
		<tag k="name" v="Springarvollen" />
		<tag k="place" v="locality" />
		<tag k="ssr:stedsnr" v="711232" />
	</node>
	<node id="-912534" lat="64.9039694454" lon="12.2363166722">
		<tag k="name" v="Svartvassetran" />
		<tag k="place" v="locality" />
		<tag k="ssr:stedsnr" v="780212" />
	</node>
	<node id="-913044" lat="64.8979055586" lon="11.6957861104">
		<tag k="name" v="Brumyra" />
		<tag k="natural" v="wetland" />
		<tag k="ssr:stedsnr" v="330041" />
	</node>
	<node id="-910994" lat="64.9730444419" lon="12.0658305458">
		<tag k="name" v="Stakkmyra" />
		<tag k="natural" v="wetland" />
		<tag k="ssr:stedsnr" v="513368" />
	</node>
	<node id="-913041" lat="64.8505948579" lon="11.5939973142">
		<tag k="name" v="Hestdalsmyra" />
		<tag k="natural" v="wetland" />
		<tag k="ssr:stedsnr" v="803479" />
	</node>
	<node id="-910480" lat="64.7636055545" lon="11.7140833333">
		<tag k="name" v="Peenget" />
		<tag k="place" v="locality" />
		<tag k="ssr:stedsnr" v="900057" />
	</node>
	<node id="-913038" lat="64.9710583325" lon="12.0858388989">
		<tag k="name" v="Langmyra" />
		<tag k="natural" v="wetland" />
		<tag k="ssr:stedsnr" v="634366" />
	</node>
	<node id="-911501" lat="64.8145888862" lon="11.9271388991">
		<tag k="name" v="Gammelsetermarka" />
		<tag k="place" v="locality" />
		<tag k="ssr:stedsnr" v="589004" />
	</node>
	<node id="-908166" lat="64.8629944418" lon="11.3062083393">
		<tag k="name" v="Fagervollen" />
		<tag k="place" v="locality" />
		<tag k="ssr:stedsnr" v="390891" />
	</node>
	<node id="-913034" lat="64.8302694477" lon="11.5503666707">
		<tag k="name" v="Gåsmyra" />
		<tag k="natural" v="wetland" />
		<tag k="ssr:stedsnr" v="439238" />
	</node>
	<node id="-913033" lat="64.9426416653" lon="11.4067055571">
		<tag k="name" v="Botsvikmyrå" />
		<tag k="natural" v="wetland" />
		<tag k="ssr:stedsnr" v="596473" />
	</node>
	<node id="-908936" lat="64.8491388872" lon="11.310088892">
		<tag k="name" v="Laugmyra" />
		<tag k="natural" v="wetland" />
		<tag k="ssr:stedsnr" v="269912" />
	</node>
	<node id="-913031" lat="64.9541444481" lon="12.004563897">
		<tag k="name" v="Tømmermyra" />
		<tag k="natural" v="wetland" />
		<tag k="ssr:stedsnr" v="634365" />
	</node>
	<node id="-908422" lat="64.9029416679" lon="12.1202388864">
		<tag k="name" v="Venneviksetran" />
		<tag k="place" v="locality" />
		<tag k="ssr:stedsnr" v="173783" />
	</node>
	<node id="-908054" lat="64.903922222" lon="11.3692666612">
		<tag k="name" v="Plassen" />
		<tag k="place" v="locality" />
		<tag k="ssr:stedsnr" v="572938" />
	</node>
	<node id="-908928" lat="64.9280583373" lon="12.0428388833">
		<tag k="name" v="Gammelgårdsmyrån" />
		<tag k="natural" v="wetland" />
		<tag k="ssr:stedsnr" v="52785" />
	</node>
	<node id="-911487" lat="64.8198611128" lon="11.9256166652">
		<tag k="name" v="Aunan" />
		<tag k="place" v="locality" />
		<tag k="ssr:stedsnr" v="589006" />
	</node>
	<node id="-908414" lat="64.922216665" lon="11.6073166734">
		<tag k="name" v="Smådalsmyrå" />
		<tag k="natural" v="wetland" />
		<tag k="ssr:stedsnr" v="108167" />
	</node>
	<node id="-913021" lat="65.0065777741" lon="11.8041138862">
		<tag k="landuse" v="meadow" />
		<tag k="name" v="Storenget" />
		<tag k="ssr:stedsnr" v="168250" />
	</node>
	<node id="-910972" lat="64.8216222185" lon="11.6880277756">
		<tag k="name" v="Buøymyrå" />
		<tag k="natural" v="wetland" />
		<tag k="ssr:stedsnr" v="772057" />
	</node>
	<node id="-910970" lat="64.9724638913" lon="12.0780194371">
		<tag k="name" v="Stormyra" />
		<tag k="natural" v="wetland" />
		<tag k="ssr:stedsnr" v="513372" />
	</node>
	<node id="-911551" lat="64.9917972195" lon="11.6133055506">
		<tag k="name" v="Nordsanden" />
		<tag k="natural" v="beach" />
		<tag k="ssr:stedsnr" v="168869" />
		<tag k="surface" v="sand" />
	</node>
	<node id="-908922" lat="64.7525111088" lon="11.2693694502">
		<tag k="name" v="Gildevangen" />
		<tag k="place" v="locality" />
		<tag k="ssr:stedsnr" v="165124" />
	</node>
	<node id="-909785" lat="64.8422027791" lon="11.7220972206">
		<tag k="name" v="Myra" />
		<tag k="natural" v="wetland" />
		<tag k="ssr:stedsnr" v="779848" />
	</node>
	<node id="-911990" lat="65.0006638917" lon="12.1712527784">
		<tag k="name" v="Fjellmyrene" />
		<tag k="natural" v="wetland" />
		<tag k="ssr:stedsnr" v="477215" />
	</node>
	<node id="-911989" lat="64.9257388878" lon="11.5584944485">
		<tag k="name" v="Stormyrå" />
		<tag k="natural" v="wetland" />
		<tag k="ssr:stedsnr" v="470140" />
	</node>
	<node id="-911988" lat="64.8550777755" lon="11.4710805621">
		<tag k="name" v="Naklingsmarka" />
		<tag k="place" v="locality" />
		<tag k="ssr:stedsnr" v="226113" />
	</node>
	<node id="-908114" lat="64.7681722211" lon="11.7221972184">
		<tag k="name" v="Langmyra" />
		<tag k="natural" v="wetland" />
		<tag k="ssr:stedsnr" v="353043" />
	</node>
	<node id="-910696" lat="65.0084027736" lon="11.7933083396">
		<tag k="name" v="Flauga" />
		<tag k="place" v="locality" />
		<tag k="ssr:stedsnr" v="108552" />
	</node>
	<node id="-910985" lat="64.8324250011" lon="11.3223888825">
		<tag k="name" v="Beinmyra" />
		<tag k="natural" v="wetland" />
		<tag k="ssr:stedsnr" v="346179" />
	</node>
	<node id="-910955" lat="64.927316664" lon="11.6269916575">
		<tag k="alt_name" v="Botnmyrå" />
		<tag k="name" v="Botnmyran" />
		<tag k="natural" v="wetland" />
		<tag k="ssr:stedsnr" v="378231" />
	</node>
	<node id="-911978" lat="64.9281388863" lon="11.4470916639">
		<tag k="name" v="Langmyra" />
		<tag k="natural" v="wetland" />
		<tag k="ssr:stedsnr" v="25074" />
	</node>
	<node id="-910441" lat="64.7701944466" lon="11.7475583371">
		<tag k="name" v="Luren" />
		<tag k="place" v="locality" />
		<tag k="ssr:stedsnr" v="839922" />
	</node>
	<node id="-912485" lat="64.7840861148" lon="11.3974972246">
		<tag k="name" v="Vestmarka" />
		<tag k="place" v="locality" />
		<tag k="ssr:stedsnr" v="589148" />
	</node>
	<node id="-911718" lat="64.9405388863" lon="12.1612166766">
		<tag k="name" v="Bogaenget" />
		<tag k="natural" v="wetland" />
		<tag k="ssr:stedsnr" v="270328" />
	</node>
	<node id="-909410" lat="64.7387611093" lon="11.2281194485">
		<tag k="name" v="Dalen" />
		<tag k="place" v="locality" />
		<tag k="ssr:stedsnr" v="165198" />
	</node>
	<node id="-913083" lat="64.8316944471" lon="11.6034388831">
		<tag k="name" v="Lomtjønnskogen" />
		<tag k="place" v="locality" />
		<tag k="ssr:stedsnr" v="408090" />
	</node>
	<node id="-912033" lat="64.9576444403" lon="12.2157444527">
		<tag k="name" v="Halvardenget" />
		<tag k="place" v="locality" />
		<tag k="ssr:stedsnr" v="938314" />
	</node>
	<node id="-912991" lat="64.8135999955" lon="11.1747750039">
		<tag k="landuse" v="meadow" />
		<tag k="name" v="Frukostenget" />
		<tag k="ssr:stedsnr" v="897272" />
	</node>
	<node id="-911830" lat="64.8445944466" lon="11.7363499931">
		<tag k="name" v="Myra" />
		<tag k="natural" v="wetland" />
		<tag k="ssr:stedsnr" v="136943" />
	</node>
	<node id="-909904" lat="64.9135277759" lon="11.4495249927">
		<tag k="name" v="Blekkadalsmyra" />
		<tag k="natural" v="wetland" />
		<tag k="ssr:stedsnr" v="328914" />
	</node>
	<node id="-911959" lat="64.7983138875" lon="11.7636277831">
		<tag k="name" v="Løvikmyrå" />
		<tag k="natural" v="wetland" />
		<tag k="ssr:stedsnr" v="717056" />
	</node>
	<node id="-912982" lat="64.8645638892" lon="11.5147055527">
		<tag k="name" v="Leirmoen" />
		<tag k="place" v="locality" />
		<tag k="ssr:stedsnr" v="893974" />
	</node>
	<node id="-908885" lat="64.946255556" lon="11.9001916704">
		<tag k="name" v="Hølbekkemyra" />
		<tag k="natural" v="wetland" />
		<tag k="ssr:stedsnr" v="572267" />
	</node>
	<node id="-909895" lat="64.8134833321" lon="11.737013894">
		<tag k="name" v="Småengmarka" />
		<tag k="place" v="locality" />
		<tag k="ssr:stedsnr" v="528024" />
	</node>
	<node id="-912976" lat="64.8271888934" lon="11.5994777726">
		<tag k="name" v="Trinehaugen" />
		<tag k="place" v="locality" />
		<tag k="ssr:stedsnr" v="590054" />
	</node>
	<node id="-912263" lat="64.7376611145" lon="11.2189972131">
		<tag k="name" v="Tjukkskogan" />
		<tag k="place" v="locality" />
		<tag k="ssr:stedsnr" v="347206" />
	</node>
	<node id="-912973" lat="64.8790527801" lon="11.5350083354">
		<tag k="name" v="Toskardmyra" />
		<tag k="natural" v="wetland" />
		<tag k="ssr:stedsnr" v="957428" />
	</node>
	<node id="-910411" lat="64.9832527813" lon="11.6712000066">
		<tag k="name" v="Ytter-Heimerengan" />
		<tag k="place" v="locality" />
		<tag k="ssr:stedsnr" v="169507" />
	</node>
	<node id="-910410" lat="64.9848972261" lon="11.6633333333">
		<tag k="name" v="Potturda" />
		<tag k="natural" v="scree" />
		<tag k="ssr:stedsnr" v="411867" />
	</node>
	<node id="-908873" lat="64.7387250009" lon="11.5844777689">
		<tag k="name" v="Sagmestermoen" />
		<tag k="place" v="locality" />
		<tag k="ssr:stedsnr" v="657491" />
	</node>
	<node id="-911116" lat="65.0127083349" lon="11.7209194392">
		<tag k="name" v="Jomyrå" />
		<tag k="natural" v="wetland" />
		<tag k="ssr:stedsnr" v="472526" />
	</node>
	<node id="-912963" lat="64.9167861127" lon="11.7515111037">
		<tag k="name" v="Litlenget" />
		<tag k="natural" v="wetland" />
		<tag k="ssr:stedsnr" v="815021" />
	</node>
	<node id="-909890" lat="64.7652638877" lon="11.7367583281">
		<tag k="name" v="Hopamyra" />
		<tag k="natural" v="wetland" />
		<tag k="ssr:stedsnr" v="839072" />
	</node>
	<node id="-911627" lat="64.8167083308" lon="11.6576388986">
		<tag k="name" v="Sandgrova" />
		<tag k="natural" v="beach" />
		<tag k="ssr:stedsnr" v="226059" />
		<tag k="surface" v="sand" />
	</node>
	<node id="-912170" lat="65.0228749998" lon="11.9414833439">
		<tag k="name" v="Skjulheimen" />
		<tag k="place" v="locality" />
		<tag k="ssr:stedsnr" v="537923" />
	</node>
	<node id="-910399" lat="64.9064055587" lon="11.6282888866">
		<tag k="name" v="Bjørkskardmyra" />
		<tag k="natural" v="wetland" />
		<tag k="ssr:stedsnr" v="500057" />
	</node>
	<node id="-911928" lat="64.8332194462" lon="11.899186119">
		<tag k="name" v="Vannhagan" />
		<tag k="place" v="locality" />
		<tag k="ssr:stedsnr" v="172010" />
	</node>
	<node id="-912971" lat="64.8770166676" lon="11.5119027678">
		<tag k="name" v="Urtergården" />
		<tag k="place" v="locality" />
		<tag k="ssr:stedsnr" v="290369" />
	</node>
	<node id="-912950" lat="64.8225361076" lon="11.7005833254">
		<tag k="historic" v="shieling" />
		<tag k="name" v="Geisnessetran" />
		<tag k="place" v="locality" />
		<tag k="ssr:stedsnr" v="408062" />
	</node>
	<node id="-910901" lat="64.9786500018" lon="11.8384444443">
		<tag k="landuse" v="meadow" />
		<tag k="name" v="Lidarenget" />
		<tag k="ssr:stedsnr" v="775311" />
	</node>
	<node id="-910900" lat="64.9431888903" lon="12.1629583318">
		<tag k="name" v="Stormyra" />
		<tag k="natural" v="wetland" />
		<tag k="ssr:stedsnr" v="210334" />
	</node>
	<node id="-909472" lat="64.9141277783" lon="11.7017638807">
		<tag k="name" v="Lonmyrå" />
		<tag k="natural" v="wetland" />
		<tag k="ssr:stedsnr" v="836692" />
	</node>
	<node id="-911922" lat="64.8481361069" lon="11.9624916698">
		<tag k="name" v="Blakkmyra" />
		<tag k="natural" v="wetland" />
		<tag k="ssr:stedsnr" v="682954" />
	</node>
	<node id="-912430" lat="64.9694944415" lon="11.9235722178">
		<tag k="name" v="Årforsetran" />
		<tag k="place" v="locality" />
		<tag k="ssr:stedsnr" v="355185" />
	</node>
	<node id="-908844" lat="64.8796527742" lon="11.4464944355">
		<tag k="alt_name" v="Gråhaugmyrå" />
		<tag k="name" v="Gråhaugmyra" />
		<tag k="natural" v="wetland" />
		<tag k="ssr:stedsnr" v="500440" />
	</node>
	<node id="-909315" lat="64.8131499989" lon="11.7812916622">
		<tag k="alt_name" v="Setermyra" />
		<tag k="name" v="Urddalsmyra" />
		<tag k="natural" v="wetland" />
		<tag k="ssr:stedsnr" v="318927" />
	</node>
	<node id="-909865" lat="64.9036555538" lon="11.8453027761">
		<tag k="name" v="Ormmyra" />
		<tag k="natural" v="wetland" />
		<tag k="ssr:stedsnr" v="147241" />
	</node>
	<node id="-909351" lat="64.943569445" lon="11.5809666619">
		<tag k="name" v="Jektvikmyrån" />
		<tag k="natural" v="wetland" />
		<tag k="ssr:stedsnr" v="472235" />
	</node>
	<node id="-909350" lat="64.7374638867" lon="11.2561888921">
		<tag k="name" v="Juvika" />
		<tag k="place" v="locality" />
		<tag k="ssr:stedsnr" v="165195" />
	</node>
	<node id="-913175" lat="64.9173888877" lon="11.4556472163">
		<tag k="name" v="Nils-Jensmyra" />
		<tag k="natural" v="wetland" />
		<tag k="ssr:stedsnr" v="25917" />
	</node>
	<node id="-912851" lat="64.9723611104" lon="12.1336027708">
		<tag k="name" v="Stevikenget" />
		<tag k="natural" v="wetland" />
		<tag k="ssr:stedsnr" v="149289" />
	</node>
	<node id="-908050" lat="64.9131055514" lon="11.8154861095">
		<tag k="name" v="Storsteinmyra" />
		<tag k="natural" v="wetland" />
		<tag k="ssr:stedsnr" v="269013" />
	</node>
	<node id="-910880" lat="64.9142583358" lon="11.4049666566">
		<tag k="name" v="Markaholet" />
		<tag k="place" v="locality" />
		<tag k="ssr:stedsnr" v="693915" />
	</node>
	<node id="-910603" lat="64.8867555595" lon="11.4546027801">
		<tag k="name" v="Søkkmyrå" />
		<tag k="natural" v="wetland" />
		<tag k="ssr:stedsnr" v="44389" />
	</node>
	<node id="-909850" lat="65.0024444484" lon="12.1668361157">
		<tag k="name" v="Hjartura" />
		<tag k="natural" v="scree" />
		<tag k="ssr:stedsnr" v="52204" />
	</node>
	<node id="-910255" lat="64.9487055526" lon="12.3246361162">
		<tag k="name" v="Stormyra" />
		<tag k="natural" v="wetland" />
		<tag k="ssr:stedsnr" v="804834" />
	</node>
	<node id="-909124" lat="64.7999249967" lon="11.9405944446">
		<tag k="name" v="Elgåvassmyrån" />
		<tag k="natural" v="wetland" />
		<tag k="ssr:stedsnr" v="196932" />
	</node>
	<node id="-911895" lat="64.9589472228" lon="12.1956138835">
		<tag k="name" v="Stormyra" />
		<tag k="natural" v="wetland" />
		<tag k="ssr:stedsnr" v="938297" />
	</node>
	<node id="-911893" lat="64.8845777742" lon="12.2044138931">
		<tag k="name" v="Rakelsetran" />
		<tag k="name:sma" v="Rakelsetran" />
		<tag k="place" v="locality" />
		<tag k="ssr:stedsnr" v="477208" />
	</node>
	<node id="-908820" lat="65.0621666628" lon="11.9631916669">
		<tag k="name" v="Sømlimarka" />
		<tag k="place" v="locality" />
		<tag k="ssr:stedsnr" v="295844" />
	</node>
	<node id="-911379" lat="64.9319833363" lon="11.6362694407">
		<tag k="name" v="Stimyrå" />
		<tag k="natural" v="wetland" />
		<tag k="ssr:stedsnr" v="957192" />
	</node>
	<node id="-909330" lat="64.9308111082" lon="12.1772861088">
		<tag k="name" v="Storbergmyra" />
		<tag k="natural" v="wetland" />
		<tag k="ssr:stedsnr" v="756171" />
	</node>
	<node id="-912643" lat="64.8315611102" lon="11.4413250058">
		<tag k="name" v="Kistmyra" />
		<tag k="natural" v="wetland" />
		<tag k="ssr:stedsnr" v="499191" />
	</node>
	<node id="-910864" lat="64.9116166659" lon="11.5331222309">
		<tag k="name" v="Torvhaugmyra" />
		<tag k="natural" v="wetland" />
		<tag k="ssr:stedsnr" v="653027" />
	</node>
	<node id="-910992" lat="64.8378944488" lon="11.6066666666">
		<tag k="alt_name" v="Stormyrå" />
		<tag k="name" v="Stormyra" />
		<tag k="natural" v="wetland" />
		<tag k="ssr:stedsnr" v="925513" />
	</node>
	<node id="-911377" lat="64.8291861091" lon="11.6028027729">
		<tag k="name" v="Storholet" />
		<tag k="place" v="locality" />
		<tag k="ssr:stedsnr" v="772089" />
	</node>
	<node id="-910871" lat="64.9211611139" lon="11.4485333232">
		<tag k="name" v="Steinskardskogen" />
		<tag k="place" v="locality" />
		<tag k="ssr:stedsnr" v="389109" />
	</node>
	<node id="-908299" lat="64.7262999973" lon="11.6501194437">
		<tag k="name" v="Søyringa" />
		<tag k="place" v="locality" />
		<tag k="ssr:stedsnr" v="171508" />
	</node>
	<node id="-912087" lat="64.9463944488" lon="11.5822416653">
		<tag k="name" v="Klungvikmyrån" />
		<tag k="natural" v="wetland" />
		<tag k="ssr:stedsnr" v="593228" />
	</node>
	<node id="-909318" lat="64.7839999965" lon="11.8993583403">
		<tag k="historic" v="shieling" />
		<tag k="name" v="Borkmosetran" />
		<tag k="place" v="locality" />
		<tag k="ssr:stedsnr" v="468946" />
	</node>
	<node id="-908291" lat="64.928969442" lon="11.5061388912">
		<tag k="name" v="Torvmyra" />
		<tag k="natural" v="wetland" />
		<tag k="ssr:stedsnr" v="450074" />
	</node>
</osm>
