<?xml version="1.0" encoding="UTF-8"?>
<osm generator="osmapis" version="0.6">
	<node id="-932220" lat="64.8423666694" lon="11.4245638975">
		<tag k="ford" v="yes" />
		<tag k="name" v="Kuvadet" />
		<tag k="place" v="locality" />
		<tag k="ssr:stedsnr" v="286122" />
	</node>
	<node id="-928761" lat="64.9535222184" lon="11.9921722246">
		<tag k="junction" v="yes" />
		<tag k="name" v="Skaftneskorsen" />
		<tag k="place" v="locality" />
		<tag k="ssr:stedsnr" v="452378" />
	</node>
	<node id="-931832" lat="64.9394833318" lon="11.7822194537">
		<tag k="highway" v="path" />
		<tag k="name" v="Elgstien" />
		<tag k="ssr:stedsnr" v="108734" />
	</node>
	<node id="-928374" lat="64.79352222" lon="11.3125944519">
		<tag k="fixme" v="verify maritime location" />
		<tag k="mooring" v="yes" />
		<tag k="name" v="Varøystøa" />
		<tag k="place" v="locality" />
		<tag k="ssr:stedsnr" v="833199" />
	</node>
	<node id="-929521" lat="64.8159611073" lon="11.6260666727">
		<tag k="amenity" v="ferry_terminal" />
		<tag k="name" v="Geisnes ferjekai" />
		<tag k="ssr:stedsnr" v="703858" />
	</node>
	<node id="-928624" lat="64.9980972213" lon="11.7458972264">
		<tag k="fixme" v="verify maritime location" />
		<tag k="mooring" v="yes" />
		<tag k="name" v="Finnsetsjøen" />
		<tag k="place" v="locality" />
		<tag k="ssr:stedsnr" v="653530" />
	</node>
	<node id="-930925" lat="64.7163444442" lon="11.1020444462">
		<tag k="name" v="Tvibergleia" />
		<tag k="old_name" v="Tvibergleden" />
		<tag k="place" v="locality" />
		<tag k="ssr:stedsnr" v="634096" />
	</node>
	<node id="-931563" lat="64.9581472249" lon="12.2143583388">
		<tag k="junction" v="yes" />
		<tag k="name" v="Vennevikkorsen" />
		<tag k="place" v="locality" />
		<tag k="ssr:stedsnr" v="270330" />
	</node>
	<node id="-929253" lat="64.939975003" lon="12.3141583438">
		<tag k="fixme" v="verify maritime location" />
		<tag k="mooring" v="yes" />
		<tag k="name" v="Gammelstøa" />
		<tag k="place" v="locality" />
		<tag k="ssr:stedsnr" v="695292" />
	</node>
	<node id="-931172" lat="64.9477944446" lon="12.2803499978">
		<tag k="highway" v="path" />
		<tag k="name" v="Teplingstien" />
		<tag k="ssr:stedsnr" v="877311" />
	</node>
	<node id="-927970" lat="64.9417000045" lon="12.1862888877">
		<tag k="layer" v="-1" />
		<tag k="name" v="Bergsvik" />
		<tag k="ssr:stedsnr" v="590130" />
		<tag k="tunnel" v="yes" />
	</node>
	<node id="-927909" lat="64.9424527784" lon="12.0734305568">
		<tag k="man_made" v="cairn" />
		<tag k="name" v="Grønnlivarden" />
		<tag k="place" v="locality" />
		<tag k="ssr:stedsnr" v="173738" />
	</node>
	<node id="-931130" lat="64.9551027733" lon="11.6529944535">
		<tag k="highway" v="path" />
		<tag k="name" v="Dyrstien" />
		<tag k="ssr:stedsnr" v="47795" />
	</node>
	<node id="-932050" lat="64.7716388887" lon="11.7014138984">
		<tag k="fixme" v="verify maritime location" />
		<tag k="mooring" v="yes" />
		<tag k="name" v="Liastøa" />
		<tag k="place" v="locality" />
		<tag k="ssr:stedsnr" v="864758" />
	</node>
	<node id="-930380" lat="64.7899055594" lon="11.3990972219">
		<tag k="bridge" v="yes" />
		<tag k="layer" v="1" />
		<tag k="name" v="Lunnan" />
		<tag k="ssr:stedsnr" v="271829" />
	</node>
	<node id="-933065" lat="64.8089750015" lon="11.7450666668">
		<tag k="layer" v="-1" />
		<tag k="name" v="Risvik" />
		<tag k="ssr:stedsnr" v="772385" />
		<tag k="tunnel" v="yes" />
	</node>
	<node id="-928198" lat="64.955705556" lon="12.1876166661">
		<tag k="layer" v="-1" />
		<tag k="name" v="Finnmo" />
		<tag k="ssr:stedsnr" v="772433" />
		<tag k="tunnel" v="yes" />
	</node>
	<node id="-930497" lat="64.7680472212" lon="11.6246249995">
		<tag k="amenity" v="ferry_terminal" />
		<tag k="name" v="Lund ferjekai" />
		<tag k="ssr:stedsnr" v="521850" />
	</node>
	<node id="-929088" lat="64.8879194447" lon="11.438338897">
		<tag k="name" v="Velte" />
		<tag k="place" v="locality" />
		<tag k="ssr:stedsnr" v="530413" />
	</node>
	<node id="-931002" lat="64.9764305511" lon="12.0673111128">
		<tag k="highway" v="path" />
		<tag k="name" v="Beretvegen" />
		<tag k="ssr:stedsnr" v="355755" />
	</node>
	<node id="-931001" lat="64.9310583287" lon="12.0349083427">
		<tag k="highway" v="path" />
		<tag k="name" v="Svinnstien" />
		<tag k="ssr:stedsnr" v="318568" />
	</node>
	<node id="-933175" lat="65.0327555592" lon="11.8697444349">
		<tag k="highway" v="path" />
		<tag k="name" v="Fjellmannveigen" />
		<tag k="ssr:stedsnr" v="593423" />
	</node>
	<node id="-928691" lat="64.9206972267" lon="11.5697499904">
		<tag k="highway" v="path" />
		<tag k="name" v="Revstien" />
		<tag k="ssr:stedsnr" v="955140" />
	</node>
	<node id="-931372" lat="64.933394448" lon="11.4492750014">
		<tag k="fixme" v="verify maritime location" />
		<tag k="mooring" v="yes" />
		<tag k="name" v="Litlstøa" />
		<tag k="place" v="locality" />
		<tag k="ssr:stedsnr" v="146106" />
	</node>
	<node id="-930603" lat="65.0119638906" lon="11.8097388934">
		<tag k="highway" v="path" />
		<tag k="name" v="Geitstien" />
		<tag k="ssr:stedsnr" v="229266" />
	</node>
	<node id="-930981" lat="65.0085722247" lon="11.6267999909">
		<tag k="fixme" v="verify maritime location" />
		<tag k="mooring" v="yes" />
		<tag k="name" v="Dolmstøa" />
		<tag k="place" v="locality" />
		<tag k="ssr:stedsnr" v="897855" />
	</node>
	<node id="-930979" lat="64.7709444452" lon="11.6016888842">
		<tag k="man_made" v="quay" />
		<tag k="name" v="Lundasjøen" />
		<tag k="place" v="locality" />
		<tag k="ssr:stedsnr" v="900942" />
	</node>
	<node id="-931745" lat="65.0155083359" lon="11.6381305613">
		<tag k="highway" v="path" />
		<tag k="name" v="Breiveigen" />
		<tag k="ssr:stedsnr" v="47875" />
	</node>
	<node id="-930459" lat="65.0467750005" lon="11.9136277704">
		<tag k="highway" v="path" />
		<tag k="name" v="Steinveigen" />
		<tag k="ssr:stedsnr" v="725105" />
	</node>
	<node id="-932113" lat="64.9252583337" lon="12.0450333268">
		<tag k="ford" v="yes" />
		<tag k="name" v="Hesthagavadet" />
		<tag k="place" v="locality" />
		<tag k="ssr:stedsnr" v="234824" />
	</node>
	<node id="-928143" lat="64.8372222237" lon="11.5962638806">
		<tag k="highway" v="path" />
		<tag k="name" v="Vattaveigen" />
		<tag k="ssr:stedsnr" v="650963" />
	</node>
	<node id="-931726" lat="64.9700611142" lon="12.1606138835">
		<tag k="junction" v="yes" />
		<tag k="name" v="Nordlandskorsen" />
		<tag k="place" v="locality" />
		<tag k="ssr:stedsnr" v="938296" />
	</node>
	<node id="-928172" lat="65.0122888909" lon="11.8030499936">
		<tag k="man_made" v="quay" />
		<tag k="name" v="Rønningvåg" />
		<tag k="place" v="locality" />
		<tag k="ssr:stedsnr" v="411523" />
	</node>
</osm>
