<?xml version="1.0" encoding="UTF-8"?>
<osm generator="osmapis" version="0.6">
	<node id="-909630" lat="64.8664291943" lon="11.596462648">
		<tag k="amenity" v="place_of_worship" />
		<tag k="denomination" v="lutheran" />
		<tag k="name" v="Kolvereid kirke" />
		<tag k="religion" v="christian" />
		<tag k="ssr:stedsnr" v="938787" />
	</node>
	<node id="-911772" lat="64.9901343804" lon="11.7688736412">
		<tag k="alt_name" v="Gravvik" />
		<tag k="amenity" v="place_of_worship" />
		<tag k="denomination" v="lutheran" />
		<tag k="name" v="Gravvik kirke" />
		<tag k="religion" v="christian" />
		<tag k="ssr:stedsnr" v="196655" />
	</node>
	<node id="-912923" lat="64.7478333375" lon="11.1372666705">
		<tag k="name" v="Skaret" />
		<tag k="place" v="locality" />
		<tag k="ssr:stedsnr" v="226253" />
	</node>
	<node id="-910233" lat="64.8370888893" lon="11.626158328">
		<tag k="name" v="Trollborga" />
		<tag k="place" v="locality" />
		<tag k="ssr:stedsnr" v="318491" />
	</node>
	<node id="-910648" lat="64.7984472227" lon="11.844572218">
		<tag k="amenity" v="place_of_worship" />
		<tag k="denomination" v="lutheran" />
		<tag k="name" v="Salsbruket kapell" />
		<tag k="religion" v="christian" />
		<tag k="ssr:stedsnr" v="924921" />
	</node>
	<node id="-908214" lat="64.8937333316" lon="11.3471388816">
		<tag k="name" v="Jektsetet" />
		<tag k="place" v="locality" />
		<tag k="ssr:stedsnr" v="330928" />
	</node>
	<node id="-911860" lat="65.0326277775" lon="11.8244777774">
		<tag k="alt_name" v="Hasselmo" />
		<tag k="amenity" v="community_centre" />
		<tag k="name" v="Hasselmoen" />
		<tag k="ssr:stedsnr" v="440181" />
	</node>
	<node id="-911186" lat="64.8956916645" lon="11.6183194463">
		<tag k="name" v="Fjalsetran" />
		<tag k="place" v="locality" />
		<tag k="ssr:stedsnr" v="743084" />
	</node>
	<node id="-910225" lat="64.8166617345" lon="11.2569343309">
		<tag k="amenity" v="place_of_worship" />
		<tag k="denomination" v="lutheran" />
		<tag k="name" v="Nærøy kirke" />
		<tag k="religion" v="christian" />
		<tag k="ssr:stedsnr" v="560282" />
	</node>
	<node id="-908140" lat="64.9629250026" lon="12.178486111">
		<tag k="amenity" v="place_of_worship" />
		<tag k="denomination" v="lutheran" />
		<tag k="name" v="Foldereid kirke" />
		<tag k="religion" v="christian" />
		<tag k="ssr:stedsnr" v="560616" />
	</node>
	<node id="-912705" lat="64.7550131415" lon="11.3056950622">
		<tag k="amenity" v="place_of_worship" />
		<tag k="denomination" v="lutheran" />
		<tag k="name" v="Steine kapell" />
		<tag k="religion" v="christian" />
		<tag k="ssr:stedsnr" v="317633" />
	</node>
</osm>
