<?xml version="1.0" encoding="UTF-8"?>
<osm version="0.6" generator="osmapis">
	<node lat="59.896421256798035" lon="10.503444667699135" id="-27768">
		<tag k="name" v="Hamang" />
		<tag k="place" v="farm" />
		<tag k="ssr:stedsnr" v="4870" />
	</node>
	<node lat="59.89398046524799" lon="10.459088932994042" id="-27769">
		<tag k="name" v="Ringi" />
		<tag k="place" v="farm" />
		<tag k="ssr:stedsnr" v="4880" />
	</node>
	<node lat="59.94071388455535" lon="10.404427776944786" id="-27770">
		<tag k="alt_name" v="Rustad" />
		<tag k="name" v="Rustan" />
		<tag k="place" v="farm" />
		<tag k="ssr:stedsnr" v="4962" />
	</node>
	<node lat="59.93241641210068" lon="10.561721074339646" id="-27771">
		<tag k="name" v="Øverland" />
		<tag k="place" v="farm" />
		<tag k="ssr:stedsnr" v="4964" />
	</node>
	<node lat="59.932641884612266" lon="10.58079173534496" id="-27772">
		<tag k="name" v="Hosle" />
		<tag k="place" v="farm" />
		<tag k="ssr:stedsnr" v="4965" />
	</node>
	<node lat="59.914480557393794" lon="10.59144721560336" id="-27776">
		<tag k="amenity" v="school" />
		<tag k="name" v="Stabekk skole" />
		<tag k="ssr:stedsnr" v="22887" />
	</node>
	<node lat="59.920002775503356" lon="10.627111114814108" id="-27777">
		<tag k="amenity" v="school" />
		<tag k="name" v="Jar skole" />
		<tag k="ssr:stedsnr" v="22916" />
	</node>
	<node lat="59.98669444748197" lon="10.5181444463814" id="-27778">
		<tag k="historic" v="shieling" />
		<tag k="name" v="Barlinddalen" />
		<tag k="place" v="isolated_dwelling" />
		<tag k="ssr:stedsnr" v="22933" />
	</node>
	<node lat="59.928758333787584" lon="10.497613894768604" id="-27779">
		<tag k="loc_name" v="Spikerhammaren" />
		<tag k="name" v="Spikerhammarn" />
		<tag k="place" v="locality" />
		<tag k="ssr:stedsnr" v="22939" />
	</node>
	<node lat="59.97049444290245" lon="10.45700833026261" id="-27784">
		<tag k="historic" v="shieling" />
		<tag k="name" v="Granbakken" />
		<tag k="place" v="isolated_dwelling" />
		<tag k="ssr:stedsnr" v="23088" />
	</node>
	<node lat="59.96272777549604" lon="10.469297215231679" id="-27787">
		<tag k="alt_name" v="Bjerke øvre" />
		<tag k="name" v="Øvre Bjerke" />
		<tag k="place" v="farm" />
		<tag k="ssr:stedsnr" v="23099" />
	</node>
	<node lat="59.96451111484426" lon="10.621630562865539" id="-27790">
		<tag k="name" v="Osbakken" />
		<tag k="place" v="farm" />
		<tag k="ssr:stedsnr" v="23137" />
	</node>
	<node lat="59.896633334532915" lon="10.588980555486982" id="-27791">
		<tag k="name" v="Granly barnehjem" />
		<tag k="ssr:stedsnr" v="23308" />
		<tag k="tourism" v="guest_house" />
	</node>
	<node lat="59.895713892579614" lon="10.576013895807678" id="-27793">
		<tag k="alt_name" v="Høvik nordre" />
		<tag k="name" v="Nordre Høvik" />
		<tag k="place" v="farm" />
		<tag k="ssr:stedsnr" v="23340" />
	</node>
	<node lat="59.89560680930657" lon="10.451541511796298" id="-27794">
		<tag k="name" v="Jansbråtan" />
		<tag k="place" v="isolated_dwelling" />
		<tag k="ssr:stedsnr" v="23637" />
	</node>
	<node lat="59.8963611081776" lon="10.4772722186975" id="-27795">
		<tag k="name" v="Søndre Tanum" />
		<tag k="place" v="farm" />
		<tag k="ssr:stedsnr" v="23643" />
	</node>
	<node lat="59.88708610947993" lon="10.629616666047509" id="-27809">
		<tag k="name" v="Hamna" />
		<tag k="place" v="locality" />
		<tag k="ssr:stedsnr" v="65865" />
	</node>
	<node lat="59.8931972218812" lon="10.56796389289969" id="-27810">
		<tag k="name" v="Høvik verk" />
		<tag k="place" v="village" />
		<tag k="ssr:stedsnr" v="65869" />
	</node>
	<node lat="59.934071684187174" lon="10.458038522349671" id="-27811">
		<tag k="alt_name" v="Tandberg;Tanberg" />
		<tag k="name" v="Tannberg" />
		<tag k="place" v="farm" />
		<tag k="ssr:stedsnr" v="65960" />
	</node>
	<node lat="59.94005278232613" lon="10.46360277382833" id="-27812">
		<tag k="name" v="Solfjellstua" />
		<tag k="place" v="isolated_dwelling" />
		<tag k="ssr:stedsnr" v="65965" />
	</node>
	<node lat="59.90891111422907" lon="10.641369451759061" id="-27817">
		<tag k="building" v="commercial" />
		<tag k="name" v="Godthåp" />
		<tag k="ssr:stedsnr" v="83093" />
	</node>
	<node lat="59.880332325175324" lon="10.461158175588809" id="-27821">
		<tag k="name" v="Vestre Furuset" />
		<tag k="place" v="farm" />
		<tag k="ssr:stedsnr" v="83600" />
	</node>
	<node lat="59.89534999867992" lon="10.453269449123027" id="-27822">
		<tag k="name" v="Tyskestua" />
		<tag k="place" v="isolated_dwelling" />
		<tag k="ssr:stedsnr" v="83601" />
	</node>
	<node lat="59.88772222381309" lon="10.454213890861187" id="-27823">
		<tag k="alt_name" v="Holo søndre" />
		<tag k="name" v="Søndre Holo" />
		<tag k="place" v="farm" />
		<tag k="ssr:stedsnr" v="83603" />
	</node>
	<node lat="59.897719440312294" lon="10.507258333967654" id="-27824">
		<tag k="amenity" v="hospital" />
		<tag k="name" v="Martina Hansens hospital" />
		<tag k="ssr:stedsnr" v="83907" />
	</node>
	<node lat="59.924091667683676" lon="10.57303056335732" id="-27826">
		<tag k="amenity" v="school" />
		<tag k="name" v="Haslum skole" />
		<tag k="ssr:stedsnr" v="83990" />
	</node>
	<node lat="59.89976742302964" lon="10.564331041194258" id="-27827">
		<tag k="name" v="Ramstad" />
		<tag k="place" v="farm" />
		<tag k="ssr:stedsnr" v="83897" />
	</node>
	<node lat="59.912092907408905" lon="10.486434369322858" id="-27834">
		<tag k="name" v="Vøyen" />
		<tag k="place" v="farm" />
		<tag k="ssr:stedsnr" v="236639" />
	</node>
	<node lat="59.967093717494386" lon="10.471021172441604" id="-27837">
		<tag k="alt_name" v="Jonsrud, nedre;Jonsrud nedre" />
		<tag k="name" v="Nedre Jonsrud" />
		<tag k="place" v="farm" />
		<tag k="ssr:stedsnr" v="124024" />
	</node>
	<node lat="59.9673749976568" lon="10.612813895539087" id="-27840">
		<tag k="name" v="Strømstad" />
		<tag k="place" v="farm" />
		<tag k="ssr:stedsnr" v="125047" />
	</node>
	<node lat="59.95779818443775" lon="10.481232425666754" id="-27841">
		<tag k="alt_name" v="Krysby" />
		<tag k="name" v="Kryssby" />
		<tag k="place" v="farm" />
		<tag k="ssr:stedsnr" v="125048" />
	</node>
	<node lat="59.9552583366135" lon="10.374727784021644" id="-27842">
		<tag k="name" v="Avtjerna" />
		<tag k="place" v="locality" />
		<tag k="ssr:stedsnr" v="125053" />
	</node>
	<node lat="59.90845833117374" lon="10.474755558276351" id="-27844">
		<tag k="name" v="Vøyenenga" />
		<tag k="place" v="quarter" />
		<tag k="ssr:stedsnr" v="125905" />
	</node>
	<node lat="59.91570441972327" lon="10.496469749517628" id="-27845">
		<tag k="name" v="Løken" />
		<tag k="place" v="farm" />
		<tag k="ssr:stedsnr" v="125915" />
	</node>
	<node lat="59.90103128164142" lon="10.48580313620317" id="-27846">
		<tag k="name" v="Haug" />
		<tag k="place" v="farm" />
		<tag k="ssr:stedsnr" v="125900" />
	</node>
	<node lat="59.959099999279" lon="10.601308330237831" id="-27850">
		<tag k="name" v="Dælihuset" />
		<tag k="place" v="farm" />
		<tag k="ssr:stedsnr" v="125994" />
	</node>
	<node lat="59.889583333217494" lon="10.452933330560763" id="-27856">
		<tag k="alt_name" v="Holo nordre" />
		<tag k="name" v="Nordre Holo" />
		<tag k="place" v="farm" />
		<tag k="ssr:stedsnr" v="143600" />
	</node>
	<node lat="59.94846111563836" lon="10.634347214236099" id="-27857">
		<tag k="name" v="Saga II" />
		<tag k="place" v="locality" />
		<tag k="ssr:stedsnr" v="143908" />
	</node>
	<node lat="59.93571111239448" lon="10.49518889112499" id="-27859">
		<tag k="name" v="Eplehaugen" />
		<tag k="place" v="farm" />
		<tag k="ssr:stedsnr" v="143934" />
	</node>
	<node lat="59.93307500446815" lon="10.580572224670538" id="-27860">
		<tag k="alt_name" v="Hosle østre" />
		<tag k="name" v="Østre Hosle" />
		<tag k="place" v="farm" />
		<tag k="ssr:stedsnr" v="143987" />
	</node>
	<node lat="59.890902780267254" lon="10.479661118362296" id="-27865">
		<tag k="name" v="Lund" />
		<tag k="place" v="farm" />
		<tag k="ssr:stedsnr" v="144624" />
	</node>
	<node lat="59.933841137868264" lon="10.457329154351125" id="-27867">
		<tag k="alt_name" v="Busop;Tandberg" />
		<tag k="fixme" v="multiple name tags, choose one and add the other to alt_name" />
		<tag k="name" v="Busopp;Tannberg" />
		<tag k="place" v="farm" />
		<tag k="ssr:stedsnr" v="162487" />
	</node>
	<node lat="59.976258331671865" lon="10.46884444445429" id="-27868">
		<tag k="name" v="Lommedalen" />
		<tag k="place" v="quarter" />
		<tag k="ssr:stedsnr" v="246045" />
	</node>
	<node lat="59.9813083352623" lon="10.445908338938906" id="-27872">
		<tag k="building" v="industrial" />
		<tag k="industrial" v="factory" />
		<tag k="name" v="Guribysaga" />
		<tag k="ssr:stedsnr" v="247104" />
	</node>
	<node lat="59.90426941830053" lon="10.536861339147974" id="-27874">
		<tag k="name" v="Solberg" />
		<tag k="place" v="farm" />
		<tag k="ssr:stedsnr" v="247876" />
	</node>
	<node lat="59.90860862064224" lon="10.446811697409402" id="-27876">
		<tag k="name" v="Libakke" />
		<tag k="place" v="locality" />
		<tag k="ssr:stedsnr" v="247884" />
	</node>
	<node lat="59.90703798932445" lon="10.553765945268031" id="-27877">
		<tag k="name" v="Løkeberg" />
		<tag k="place" v="farm" />
		<tag k="ssr:stedsnr" v="247890" />
	</node>
	<node lat="59.9385555528483" lon="10.455249999582641" id="-27881">
		<tag k="alt_name" v="Enli" />
		<tag k="name" v="Endli" />
		<tag k="place" v="farm" />
		<tag k="ssr:stedsnr" v="247955" />
	</node>
	<node lat="59.93385555841337" lon="10.470130559465469" id="-27882">
		<tag k="name" v="Rykkinn" />
		<tag k="place" v="farm" />
		<tag k="ssr:stedsnr" v="247964" />
	</node>
	<node lat="59.8907258751162" lon="10.527743421708653" id="-27883">
		<tag k="name" v="Sandvika" />
		<tag k="place" v="town" />
		<tag k="ssr:stedsnr" v="180676" />
	</node>
	<node lat="59.94732777869546" lon="10.558452769295481" id="-27887">
		<tag k="name" v="Holen" />
		<tag k="place" v="isolated_dwelling" />
		<tag k="ssr:stedsnr" v="186970" />
	</node>
	<node lat="59.9480611093502" lon="10.401241673139658" id="-27890">
		<tag k="name" v="Løkkene" />
		<tag k="place" v="farm" />
		<tag k="ssr:stedsnr" v="186998" />
	</node>
	<node lat="59.9534750006651" lon="10.485438889017633" id="-27894">
		<tag k="alt_name" v="Haug nedre" />
		<tag k="name" v="Nedre Haug" />
		<tag k="place" v="farm" />
		<tag k="ssr:stedsnr" v="204010" />
	</node>
	<node lat="59.92412892800689" lon="10.61806640271607" id="-27895">
		<tag k="name" v="Jar" />
		<tag k="place" v="neighbourhood" />
		<tag k="ssr:stedsnr" v="204911" />
	</node>
	<node lat="59.93231388950842" lon="10.502883325907362" id="-27897">
		<tag k="name" v="Kastet" />
		<tag k="place" v="farm" />
		<tag k="ssr:stedsnr" v="204953" />
	</node>
	<node lat="59.984178390733" lon="10.472023391263267" id="-27899">
		<tag k="alt_name" v="Åmot nordre" />
		<tag k="name" v="Nordre Åmot" />
		<tag k="place" v="farm" />
		<tag k="ssr:stedsnr" v="204963" />
	</node>
	<node lat="59.98865000139976" lon="10.474652780296513" id="-27900">
		<tag k="name" v="Torgholtet" />
		<tag k="place" v="farm" />
		<tag k="ssr:stedsnr" v="204967" />
	</node>
	<node lat="59.88102319203214" lon="10.503646317426874" id="-27903">
		<tag k="name" v="Hilton" />
		<tag k="place" v="farm" />
		<tag k="ssr:stedsnr" v="205592" />
	</node>
	<node lat="59.96711388493665" lon="10.483263893540904" id="-27905">
		<tag k="alt_name" v="Kirkeby nedre" />
		<tag k="name" v="Nedre Kirkeby" />
		<tag k="place" v="farm" />
		<tag k="ssr:stedsnr" v="205965" />
	</node>
	<node lat="59.97617778207246" lon="10.47701944063918" id="-27906">
		<tag k="alt_name" v="Vensås østre" />
		<tag k="name" v="Østre Vensås" />
		<tag k="place" v="farm" />
		<tag k="ssr:stedsnr" v="205968" />
	</node>
	<node lat="59.975666140037696" lon="10.476521534191482" id="-27917">
		<tag k="name" v="Vensås" />
		<tag k="place" v="farm" />
		<tag k="ssr:stedsnr" v="246032" />
	</node>
	<node lat="59.980286114979435" lon="10.51154166096122" id="-27921">
		<tag k="name" v="Haugen" />
		<tag k="place" v="farm" />
		<tag k="ssr:stedsnr" v="247017" />
	</node>
	<node lat="59.96489799726027" lon="10.479807779392415" id="-27923">
		<tag k="name" v="Kirkeby" />
		<tag k="place" v="farm" />
		<tag k="ssr:stedsnr" v="247028" />
	</node>
	<node lat="59.95891034209147" lon="10.477155241907967" id="-27924">
		<tag k="name" v="Trulsrud" />
		<tag k="place" v="farm" />
		<tag k="ssr:stedsnr" v="247030" />
	</node>
	<node lat="59.95025999479859" lon="10.61009445469524" id="-27925">
		<tag k="name" v="Østern" />
		<tag k="place" v="farm" />
		<tag k="ssr:stedsnr" v="247984" />
	</node>
	<node lat="59.94150555764842" lon="10.433072213706106" id="-27927">
		<tag k="alt_name" v="Merkebekk øvre" />
		<tag k="name" v="Øvre Merkebekk" />
		<tag k="place" v="isolated_dwelling" />
		<tag k="ssr:stedsnr" v="447025" />
	</node>
	<node lat="59.90482499951659" lon="10.389752774339682" id="-27928">
		<tag k="name" v="Tanumvollen" />
		<tag k="place" v="locality" />
		<tag k="ssr:stedsnr" v="447026" />
	</node>
	<node lat="59.92575555767503" lon="10.45210832830689" id="-27931">
		<tag k="name" v="Tyskland" />
		<tag k="place" v="farm" />
		<tag k="ssr:stedsnr" v="447061" />
	</node>
	<node lat="59.93525277901395" lon="10.466019452155733" id="-27932">
		<tag k="name" v="Mallinsrud" />
		<tag k="place" v="farm" />
		<tag k="ssr:stedsnr" v="447067" />
	</node>
	<node lat="59.879388891040726" lon="10.506572229302147" id="-27934">
		<tag k="building" v="commercial" />
		<tag k="name" v="Sjøengen" />
		<tag k="ssr:stedsnr" v="447515" />
	</node>
	<node lat="59.91030278222006" lon="10.6412416703808" id="-27937">
		<tag k="building" v="apartments" />
		<tag k="name" v="Odden" />
		<tag k="ssr:stedsnr" v="264104" />
	</node>
	<node lat="59.94329166973244" lon="10.596236103052828" id="-27939">
		<tag k="name" v="Toppås" />
		<tag k="place" v="neighbourhood" />
		<tag k="ssr:stedsnr" v="447923" />
	</node>
	<node lat="59.89375833112404" lon="10.570486118910432" id="-27940">
		<tag k="amenity" v="school" />
		<tag k="name" v="Høvik verk skole" />
		<tag k="ssr:stedsnr" v="264272" />
	</node>
	<node lat="59.96639166502633" lon="10.48003055821878" id="-27943">
		<tag k="name" v="Solhaug" />
		<tag k="place" v="farm" />
		<tag k="ssr:stedsnr" v="447955" />
	</node>
	<node lat="59.92164444449912" lon="10.583822222143079" id="-27944">
		<tag k="leisure" v="pitch" />
		<tag k="name" v="Nadderudhallen" />
		<tag k="ssr:stedsnr" v="447973" />
	</node>
	<node lat="59.94133611549472" lon="10.611647228526252" id="-27945">
		<tag k="amenity" v="hospital" />
		<tag k="name" v="Eiksåsen sykehjem" />
		<tag k="ssr:stedsnr" v="264912" />
	</node>
	<node lat="59.924169442042825" lon="10.587780562801752" id="-27948">
		<tag k="amenity" v="school" />
		<tag k="name" v="Britisk skole" />
		<tag k="ssr:stedsnr" v="447975" />
	</node>
	<node lat="59.91703889016818" lon="10.46424721707826" id="-27949">
		<tag k="name" v="Hasle" />
		<tag k="place" v="farm" />
		<tag k="ssr:stedsnr" v="265051" />
	</node>
	<node lat="59.921827774233925" lon="10.448691675005934" id="-27952">
		<tag k="alt_name" v="Sand øvre" />
		<tag k="name" v="Øvre Sand" />
		<tag k="place" v="farm" />
		<tag k="ssr:stedsnr" v="265063" />
	</node>
	<node lat="59.92812500267223" lon="10.446672226908024" id="-27953">
		<tag k="name" v="Haugen" />
		<tag k="place" v="farm" />
		<tag k="ssr:stedsnr" v="265066" />
	</node>
	<node lat="59.92729722666248" lon="10.446713889488656" id="-27954">
		<tag k="amenity" v="school" />
		<tag k="name" v="Skui skole" />
		<tag k="ssr:stedsnr" v="265067" />
	</node>
	<node lat="59.939241665286595" lon="10.412305555706588" id="-27957">
		<tag k="name" v="Bjørumsbråtan" />
		<tag k="place" v="locality" />
		<tag k="ssr:stedsnr" v="265122" />
	</node>
	<node lat="59.887449996642104" lon="10.496625002226946" id="-27961">
		<tag k="amenity" v="sports_centre" />
		<tag k="name" v="Combihallen" />
		<tag k="ssr:stedsnr" v="265562" />
	</node>
	<node lat="59.88754444065368" lon="10.498447222385732" id="-27962">
		<tag k="amenity" v="school" />
		<tag k="name" v="Bjørnegård skole" />
		<tag k="ssr:stedsnr" v="265563" />
	</node>
	<node lat="59.862673534837874" lon="10.579415217477106" id="-27966">
		<tag k="name" v="Lille Ost" />
		<tag k="place" v="locality" />
		<tag k="ssr:stedsnr" v="266257" />
	</node>
	<node lat="59.96735833714849" lon="10.547449999388515" id="-27970">
		<tag k="fixme" v="consider tourism=alpine_hut or tourism=chalet" />
		<tag k="name" v="Brunkollen turisthytte" />
		<tag k="old_name" v="Brunkollhytta;Brunkollen" />
		<tag k="ssr:stedsnr" v="307022" />
		<tag k="tourism" v="wilderness_hut" />
	</node>
	<node lat="59.935458329988826" lon="10.424063880153463" id="-27975">
		<tag k="name" v="Solstad" />
		<tag k="place" v="farm" />
		<tag k="ssr:stedsnr" v="307960" />
	</node>
	<node lat="59.94776044836887" lon="10.56216052149746" id="-27977">
		<tag k="alt_name" v="Sæteren" />
		<tag k="name" v="Sætra" />
		<tag k="old_name" v="Haugssætheren;Haugsæteren" />
		<tag k="place" v="farm" />
		<tag k="ssr:stedsnr" v="307971" />
	</node>
	<node lat="59.94840136145749" lon="10.482152840448373" id="-27978">
		<tag k="name" v="Eine" />
		<tag k="place" v="farm" />
		<tag k="ssr:stedsnr" v="307974" />
	</node>
	<node lat="59.90647390967628" lon="10.511659588330092" id="-27979">
		<tag k="name" v="Levre" />
		<tag k="place" v="farm" />
		<tag k="ssr:stedsnr" v="307885" />
	</node>
	<node lat="59.962297166908485" lon="10.468906566827435" id="-27980">
		<tag k="name" v="Bjørke" />
		<tag k="place" v="farm" />
		<tag k="ssr:stedsnr" v="308027" />
	</node>
	<node lat="59.96020056091243" lon="10.50178568358997" id="-27981">
		<tag k="name" v="Burud" />
		<tag k="place" v="farm" />
		<tag k="ssr:stedsnr" v="308028" />
	</node>
	<node lat="59.914536109432454" lon="10.455722213762943" id="-27984">
		<tag k="alt_name" v="Horni nedre" />
		<tag k="name" v="Nedre Horni" />
		<tag k="place" v="farm" />
		<tag k="ssr:stedsnr" v="325040" />
	</node>
	<node lat="59.941535469741936" lon="10.518274481311094" id="-27985">
		<tag k="name" v="Helset" />
		<tag k="place" v="neighbourhood" />
		<tag k="ssr:stedsnr" v="325235" />
	</node>
	<node lat="59.93828888808304" lon="10.61777500207382" id="-27991">
		<tag k="leisure" v="pitch" />
		<tag k="name" v="Øvrevoll galoppbane" />
		<tag k="ssr:stedsnr" v="325905" />
	</node>
	<node lat="59.878583333112275" lon="10.42293332954527" id="-27999">
		<tag k="name" v="Backerhytta" />
		<tag k="place" v="isolated_dwelling" />
		<tag k="ssr:stedsnr" v="326626" />
	</node>
	<node lat="59.88999999822642" lon="10.474386110716601" id="-28000">
		<tag k="name" v="Tanumbråtan" />
		<tag k="place" v="isolated_dwelling" />
		<tag k="ssr:stedsnr" v="326642" />
	</node>
	<node lat="59.96835920896606" lon="10.608493240309825" id="-28005">
		<tag k="name" v="Lathus" />
		<tag k="place" v="locality" />
		<tag k="ssr:stedsnr" v="367036" />
	</node>
	<node lat="59.974383335877896" lon="10.607550006960961" id="-28006">
		<tag k="name" v="Kråka" />
		<tag k="place" v="farm" />
		<tag k="ssr:stedsnr" v="367038" />
	</node>
	<node lat="59.913012860578995" lon="10.636562802248681" id="-28015">
		<tag k="name" v="Lysaker" />
		<tag k="place" v="quarter" />
		<tag k="ssr:stedsnr" v="368909" />
	</node>
	<node lat="59.93780277338731" lon="10.405552786380255" id="-28017">
		<tag k="name" v="Ullbråtan" />
		<tag k="place" v="farm" />
		<tag k="ssr:stedsnr" v="368964" />
	</node>
	<node lat="59.94054166780608" lon="10.407261102363771" id="-28018">
		<tag k="alt_name" v="Brennengen" />
		<tag k="name" v="Brennenga" />
		<tag k="place" v="farm" />
		<tag k="ssr:stedsnr" v="368965" />
	</node>
	<node lat="59.88782500162702" lon="10.563636112793311" id="-28019">
		<tag k="building" v="industrial" />
		<tag k="industrial" v="factory" />
		<tag k="name" v="Det Norske Veritas" />
		<tag k="old_name" v="Veritas" />
		<tag k="ssr:stedsnr" v="368880" />
	</node>
	<node lat="59.90246747505516" lon="10.527882296684266" id="-28020">
		<tag k="name" v="Valler" />
		<tag k="place" v="farm" />
		<tag k="ssr:stedsnr" v="368895" />
	</node>
	<node lat="59.89942222453877" lon="10.496341658687829" id="-28021">
		<tag k="building" v="industrial" />
		<tag k="industrial" v="factory" />
		<tag k="name" v="Franzefoss" />
		<tag k="old_name" v="Franzefoss Bruk" />
		<tag k="ssr:stedsnr" v="368896" />
	</node>
	<node lat="59.888091664722545" lon="10.457102777106483" id="-28024">
		<tag k="name" v="Moltemyra" />
		<tag k="place" v="isolated_dwelling" />
		<tag k="ssr:stedsnr" v="386611" />
	</node>
	<node lat="59.89311388870676" lon="10.50216110510076" id="-28026">
		<tag k="alt_name" v="Jong østre" />
		<tag k="name" v="Østre Jong" />
		<tag k="place" v="farm" />
		<tag k="ssr:stedsnr" v="387308" />
	</node>
	<node lat="59.95585555312508" lon="10.50883889364715" id="-28030">
		<tag k="fixme" v="multiple name tags, choose one and add the other to alt_name" />
		<tag k="name" v="Sledeskuret;Helgerud;Sleaskjulet" />
		<tag k="place" v="farm" />
		<tag k="ssr:stedsnr" v="404044" />
	</node>
	<node lat="59.99313611093307" lon="10.537352783001506" id="-28037">
		<tag k="alt_name" v="Søthølet" />
		<tag k="name" v="Søtholet" />
		<tag k="place" v="isolated_dwelling" />
		<tag k="ssr:stedsnr" v="429116" />
	</node>
	<node lat="59.98689999842615" lon="10.46524165879844" id="-28039">
		<tag k="name" v="Jordbærhaugen" />
		<tag k="place" v="farm" />
		<tag k="ssr:stedsnr" v="429087" />
	</node>
	<node lat="59.902702774574486" lon="10.484100008628467" id="-28041">
		<tag k="name" v="Kirkerud" />
		<tag k="old_name" v="Kjerkerud" />
		<tag k="place" v="farm" />
		<tag k="ssr:stedsnr" v="429880" />
	</node>
	<node lat="59.894945422406735" lon="10.575802350905422" id="-28042">
		<tag k="name" v="Høvik" />
		<tag k="place" v="farm" />
		<tag k="ssr:stedsnr" v="429885" />
	</node>
	<node lat="59.921808331086645" lon="10.481052772812397" id="-28046">
		<tag k="name" v="Kullebundbråten" />
		<tag k="place" v="farm" />
		<tag k="ssr:stedsnr" v="447083" />
	</node>
	<node lat="59.914194447176044" lon="10.636316667951425" id="-28049">
		<tag k="name" v="Lysaker mølle" />
		<tag k="place" v="neighbourhood" />
		<tag k="ssr:stedsnr" v="447091" />
	</node>
	<node lat="59.89888055638424" lon="10.514819436969674" id="-28052">
		<tag k="amenity" v="school" />
		<tag k="name" v="Evje skole" />
		<tag k="ssr:stedsnr" v="447887" />
	</node>
	<node lat="59.967788892181865" lon="10.608344446721837" id="-28053">
		<tag k="alt_name" v="Lathus søndre" />
		<tag k="name" v="Søndre Lathus" />
		<tag k="place" v="farm" />
		<tag k="ssr:stedsnr" v="447892" />
	</node>
	<node lat="59.92046944081687" lon="10.624697214237559" id="-28054">
		<tag k="amenity" v="nursing_home" />
		<tag k="name" v="Storenga sykehjem" />
		<tag k="ssr:stedsnr" v="447913" />
	</node>
	<node lat="59.926186111353786" lon="10.494644438609992" id="-28055">
		<tag k="name" v="Spikerbrukfallet" />
		<tag k="place" v="isolated_dwelling" />
		<tag k="ssr:stedsnr" v="447933" />
	</node>
	<node lat="59.93385000314649" lon="10.575291668039997" id="-28056">
		<tag k="name" v="Petersborg" />
		<tag k="place" v="farm" />
		<tag k="ssr:stedsnr" v="447988" />
	</node>
	<node lat="59.92671111419606" lon="10.535894452253364" id="-28057">
		<tag k="name" v="Rølles" />
		<tag k="place" v="isolated_dwelling" />
		<tag k="ssr:stedsnr" v="447992" />
	</node>
	<node lat="59.89284166753679" lon="10.560844437973378" id="-28062">
		<tag k="amenity" v="nursing_home" />
		<tag k="name" v="Solvik aldershjem" />
		<tag k="ssr:stedsnr" v="448307" />
	</node>
	<node lat="59.938374012481596" lon="10.444640742806257" id="-28071">
		<tag k="name" v="Isi" />
		<tag k="place" v="farm" />
		<tag k="ssr:stedsnr" v="489957" />
	</node>
	<node lat="59.933492981427975" lon="10.442211740322366" id="-28072">
		<tag k="name" v="Bjørum" />
		<tag k="place" v="farm" />
		<tag k="ssr:stedsnr" v="489958" />
	</node>
	<node lat="59.88689258204594" lon="10.430258805188412" id="-28073">
		<tag k="alt_name" v="Vestmarksætra" />
		<tag k="name" v="Vestmarksetra" />
		<tag k="place" v="farm" />
		<tag k="ssr:stedsnr" v="489848" />
	</node>
	<node lat="59.95141666482889" lon="10.516583325489929" id="-28076">
		<tag k="name" v="Grorudenga" />
		<tag k="place" v="farm" />
		<tag k="ssr:stedsnr" v="490989" />
	</node>
	<node lat="59.956543311323394" lon="10.5501728839589" id="-28077">
		<tag k="alt_name" v="Veimyr" />
		<tag k="name" v="Vegmyr" />
		<tag k="place" v="locality" />
		<tag k="ssr:stedsnr" v="490991" />
	</node>
	<node lat="59.98398511000024" lon="10.472700348443523" id="-28080">
		<tag k="name" v="Tyttebærhaugen" />
		<tag k="place" v="farm" />
		<tag k="ssr:stedsnr" v="671016" />
	</node>
	<node lat="59.96374525503983" lon="10.352844643074985" id="-28082">
		<tag k="name" v="Sollihøgda" />
		<tag k="old_name" v="Solihøjden" />
		<tag k="place" v="village" />
		<tag k="ssr:stedsnr" v="671044" />
	</node>
	<node lat="59.929238891211476" lon="10.442461114619897" id="-28083">
		<tag k="name" v="Smedstad" />
		<tag k="place" v="isolated_dwelling" />
		<tag k="ssr:stedsnr" v="671937" />
	</node>
	<node lat="59.92511447970389" lon="10.59169944569866" id="-28085">
		<tag k="name" v="Nadderud" />
		<tag k="place" v="farm" />
		<tag k="ssr:stedsnr" v="671948" />
	</node>
	<node lat="59.9523527773519" lon="10.506097215003733" id="-28088">
		<tag k="alt_name" v="Skollerud nordre" />
		<tag k="name" v="Nordre Skollerud" />
		<tag k="place" v="farm" />
		<tag k="ssr:stedsnr" v="507092" />
	</node>
	<node lat="59.94725000184836" lon="10.513752776604282" id="-28089">
		<tag k="name" v="Sørbråtan" />
		<tag k="place" v="farm" />
		<tag k="ssr:stedsnr" v="507096" />
	</node>
	<node lat="59.951330551507674" lon="10.47772500092932" id="-28090">
		<tag k="name" v="Goslia" />
		<tag k="place" v="neighbourhood" />
		<tag k="ssr:stedsnr" v="507214" />
	</node>
	<node lat="59.94193611217433" lon="10.610355562862864" id="-28092">
		<tag k="amenity" v="hospital" />
		<tag k="name" v="Østerås sykehjem" />
		<tag k="ssr:stedsnr" v="507909" />
	</node>
	<node lat="59.930577779349385" lon="10.605316664045853" id="-28095">
		<tag k="amenity" v="school" />
		<tag k="name" v="Steinerskolen" />
		<tag k="ssr:stedsnr" v="507919" />
	</node>
	<node lat="59.907413891875436" lon="10.531858334658972" id="-28097">
		<tag k="amenity" v="school" />
		<tag k="name" v="Gjettum skole" />
		<tag k="ssr:stedsnr" v="507976" />
	</node>
	<node lat="59.915699567088716" lon="10.573300416162901" id="-28098">
		<tag k="alt_name" v="Nadderud v.g. skole" />
		<tag k="amenity" v="school" />
		<tag k="name" v="Nadderud videregående skole" />
		<tag k="ssr:stedsnr" v="507983" />
	</node>
	<node lat="59.90956666838674" lon="10.506144442139004" id="-28099">
		<tag k="amenity" v="school" />
		<tag k="name" v="Rosenvilde videregående skole" />
		<tag k="ssr:stedsnr" v="507989" />
	</node>
	<node lat="59.87738753590034" lon="10.614654947211392" id="-28102">
		<tag k="name" v="Strøm" />
		<tag k="place" v="farm" />
		<tag k="ssr:stedsnr" v="671815" />
	</node>
	<node lat="59.92495833631045" lon="10.484675008032285" id="-28104">
		<tag k="amenity" v="nursing_home" />
		<tag k="name" v="Rykkinn sykehjem" />
		<tag k="ssr:stedsnr" v="508064" />
	</node>
	<node lat="59.882613885639834" lon="10.48282499673632" id="-28105">
		<tag k="name" v="Reverud" />
		<tag k="place" v="farm" />
		<tag k="ssr:stedsnr" v="671843" />
	</node>
	<node lat="59.89405555942661" lon="10.584455561507669" id="-28106">
		<tag k="name" v="Sarbuvollen" />
		<tag k="place" v="isolated_dwelling" />
		<tag k="ssr:stedsnr" v="671863" />
	</node>
	<node lat="59.89256789465652" lon="10.491413696434485" id="-28107">
		<tag k="name" v="Tokerud" />
		<tag k="place" v="farm" />
		<tag k="ssr:stedsnr" v="671867" />
	</node>
	<node lat="59.9287056395226" lon="10.549068404023936" id="-28108">
		<tag k="name" v="Skotta" />
		<tag k="place" v="farm" />
		<tag k="ssr:stedsnr" v="671952" />
	</node>
	<node lat="59.86845191174527" lon="10.580638356297456" id="-28114">
		<tag k="name" v="Ost" />
		<tag k="place" v="farm" />
		<tag k="ssr:stedsnr" v="549810" />
	</node>
	<node lat="59.885768709890336" lon="10.52661164086957" id="-28115">
		<tag k="alt_name" v="Kjørbo" />
		<tag k="name" v="Kjørbu" />
		<tag k="place" v="farm" />
		<tag k="ssr:stedsnr" v="549827" />
	</node>
	<node lat="59.98269937874089" lon="10.481385748562593" id="-28116">
		<tag k="name" v="Tolverud" />
		<tag k="place" v="farm" />
		<tag k="ssr:stedsnr" v="550015" />
	</node>
	<node lat="59.96019166805984" lon="10.545230559910037" id="-28118">
		<tag k="name" v="Muren" />
		<tag k="place" v="farm" />
		<tag k="ssr:stedsnr" v="550064" />
	</node>
	<node lat="59.89416212576581" lon="10.504923328849843" id="-28120">
		<tag k="alt_name" v="Bjørnegård" />
		<tag k="name" v="Bjørnegard" />
		<tag k="old_name" v="Bjørnegaard" />
		<tag k="place" v="farm" />
		<tag k="ssr:stedsnr" v="550858" />
	</node>
	<node lat="59.91821461819711" lon="10.577952711471024" id="-28121">
		<tag k="name" v="Gjønnes" />
		<tag k="place" v="farm" />
		<tag k="ssr:stedsnr" v="550908" />
	</node>
	<node lat="59.93038889204265" lon="10.498874992901966" id="-28123">
		<tag k="name" v="Glitterud" />
		<tag k="place" v="isolated_dwelling" />
		<tag k="ssr:stedsnr" v="550959" />
	</node>
	<node lat="59.93465444166205" lon="10.545285523609644" id="-28124">
		<tag k="name" v="Stein" />
		<tag k="place" v="farm" />
		<tag k="ssr:stedsnr" v="550970" />
	</node>
	<node lat="59.954358335632044" lon="10.481836103105145" id="-28126">
		<tag k="alt_name" v="Haug nordre" />
		<tag k="name" v="Nordre Haug" />
		<tag k="place" v="farm" />
		<tag k="ssr:stedsnr" v="567017" />
	</node>
	<node lat="59.96077221870954" lon="10.473174994276796" id="-28127">
		<tag k="amenity" v="school" />
		<tag k="name" v="Lommedalen skole" />
		<tag k="ssr:stedsnr" v="567023" />
	</node>
	<node lat="59.95883333167251" lon="10.474552782553086" id="-28128">
		<tag k="alt_name" v="Trulsrud øvre" />
		<tag k="name" v="Øvre Trulsrud" />
		<tag k="place" v="farm" />
		<tag k="ssr:stedsnr" v="567024" />
	</node>
	<node lat="59.9321138892927" lon="10.580630552635732" id="-28130">
		<tag k="alt_name" v="Hosle vestre" />
		<tag k="name" v="Vestre Hosle" />
		<tag k="place" v="locality" />
		<tag k="ssr:stedsnr" v="567913" />
	</node>
	<node lat="59.903283333313496" lon="10.603327785199987" id="-28134">
		<tag k="name" v="Holtet" />
		<tag k="place" v="neighbourhood" />
		<tag k="ssr:stedsnr" v="568111" />
	</node>
	<node lat="59.96890555886507" lon="10.607883339654029" id="-28135">
		<tag k="alt_name" v="Lathus nordre" />
		<tag k="name" v="Nordre Lathus" />
		<tag k="place" v="farm" />
		<tag k="ssr:stedsnr" v="568113" />
	</node>
	<node lat="59.88514444268114" lon="10.477013896674043" id="-28139">
		<tag k="amenity" v="school" />
		<tag k="name" v="Tanum skole" />
		<tag k="ssr:stedsnr" v="568606" />
	</node>
	<node lat="59.964352779468896" lon="10.36660834198045" id="-28143">
		<tag k="name" v="Skogen" />
		<tag k="place" v="farm" />
		<tag k="ssr:stedsnr" v="610039" />
	</node>
	<node lat="59.963638893313686" lon="10.406466668702445" id="-28144">
		<tag k="name" v="Kjaglienga" />
		<tag k="place" v="farm" />
		<tag k="ssr:stedsnr" v="610041" />
	</node>
	<node lat="59.89147500361925" lon="10.44041111880219" id="-28149">
		<tag k="name" v="Kattås" />
		<tag k="place" v="locality" />
		<tag k="ssr:stedsnr" v="610889" />
	</node>
	<node lat="59.94601389222374" lon="10.431072223621264" id="-28153">
		<tag k="name" v="Aspelund" />
		<tag k="place" v="farm" />
		<tag k="ssr:stedsnr" v="610995" />
	</node>
	<node lat="59.91802777987986" lon="10.479844447020005" id="-28157">
		<tag k="name" v="Bakken" />
		<tag k="place" v="farm" />
		<tag k="ssr:stedsnr" v="689058" />
	</node>
	<node lat="59.91570833106689" lon="10.454263886594257" id="-28158">
		<tag k="alt_name" v="Horni øvre" />
		<tag k="name" v="Øvre Horni" />
		<tag k="place" v="farm" />
		<tag k="ssr:stedsnr" v="689059" />
	</node>
	<node lat="59.91460277700342" lon="10.471827780409063" id="-28159">
		<tag k="name" v="Vefsrud" />
		<tag k="place" v="farm" />
		<tag k="ssr:stedsnr" v="689061" />
	</node>
	<node lat="59.9386833299716" lon="10.605627782142486" id="-28166">
		<tag k="amenity" v="school" />
		<tag k="name" v="Østerås skole" />
		<tag k="ssr:stedsnr" v="689923" />
	</node>
	<node lat="59.94425555209312" lon="10.578108325859462" id="-28167">
		<tag k="alt_name" v="Haga øvre" />
		<tag k="name" v="Øvre Haga" />
		<tag k="place" v="farm" />
		<tag k="ssr:stedsnr" v="689854" />
	</node>
	<node lat="59.90180197963552" lon="10.504173449040932" id="-28171">
		<tag k="amenity" v="nursing_home" />
		<tag k="name" v="Dønski sykehjem" />
		<tag k="old_name" v="Dønski servicehus" />
		<tag k="ssr:stedsnr" v="689977" />
	</node>
	<node lat="59.9218138874195" lon="10.469124993798358" id="-28172">
		<tag k="alt_name" v="Økern søndre" />
		<tag k="name" v="Søndre Økern" />
		<tag k="place" v="farm" />
		<tag k="ssr:stedsnr" v="690055" />
	</node>
	<node lat="59.96532221996556" lon="10.47996667126989" id="-28174">
		<tag k="alt_name" v="Kirkeby øvre" />
		<tag k="name" v="Øvre Kirkeby" />
		<tag k="place" v="farm" />
		<tag k="ssr:stedsnr" v="690078" />
	</node>
	<node lat="59.88936710007368" lon="10.444142643334995" id="-28176">
		<tag k="name" v="Nordli" />
		<tag k="place" v="isolated_dwelling" />
		<tag k="ssr:stedsnr" v="690651" />
	</node>
	<node lat="59.89106111119064" lon="10.477305550382692" id="-28177">
		<tag k="name" v="Søbråtan" />
		<tag k="place" v="farm" />
		<tag k="ssr:stedsnr" v="690657" />
	</node>
	<node lat="59.889233333937526" lon="10.47779443742788" id="-28178">
		<tag k="name" v="Hellerud" />
		<tag k="place" v="farm" />
		<tag k="ssr:stedsnr" v="690662" />
	</node>
	<node lat="59.95204722548917" lon="10.578127783256646" id="-28182">
		<tag k="name" v="Enga" />
		<tag k="place" v="farm" />
		<tag k="ssr:stedsnr" v="628852" />
	</node>
	<node lat="59.99180277348761" lon="10.501163888347559" id="-28185">
		<tag k="name" v="Gamlevollen" />
		<tag k="place" v="locality" />
		<tag k="ssr:stedsnr" v="628906" />
	</node>
	<node lat="59.904416668878696" lon="10.51981111461596" id="-28188">
		<tag k="building" v="commercial" />
		<tag k="name" v="Samvirkeinstituttet" />
		<tag k="ssr:stedsnr" v="628966" />
	</node>
	<node lat="59.92227500370471" lon="10.585786106840587" id="-28189">
		<tag k="leisure" v="pitch" />
		<tag k="name" v="Bekkestuabanen" />
		<tag k="ssr:stedsnr" v="628967" />
	</node>
	<node lat="59.931661110120096" lon="10.561316665022952" id="-28191">
		<tag k="alt_name" v="Øverland vestre" />
		<tag k="name" v="Vestre Øverland" />
		<tag k="place" v="farm" />
		<tag k="ssr:stedsnr" v="628997" />
	</node>
	<node lat="59.88041111103023" lon="10.420111116184415" id="-28198">
		<tag k="name" v="Nedre Gupu" />
		<tag k="place" v="farm" />
		<tag k="ssr:stedsnr" v="629604" />
	</node>
	<node lat="59.88445833127492" lon="10.467416662863297" id="-28199">
		<tag k="name" v="Staverstua" />
		<tag k="place" v="isolated_dwelling" />
		<tag k="ssr:stedsnr" v="629618" />
	</node>
	<node lat="59.89402778207235" lon="10.577433338840962" id="-28203">
		<tag k="name" v="Båtstø" />
		<tag k="place" v="isolated_dwelling" />
		<tag k="ssr:stedsnr" v="630249" />
	</node>
	<node lat="59.90833653086134" lon="10.601524723457093" id="-28206">
		<tag k="name" v="Stabekk" />
		<tag k="place" v="quarter" />
		<tag k="ssr:stedsnr" v="633987" />
	</node>
	<node lat="59.880991668542215" lon="10.504875000112806" id="-28207">
		<tag k="name" v="Slependen" />
		<tag k="place" v="quarter" />
		<tag k="ssr:stedsnr" v="693959" />
	</node>
	<node lat="59.87846666273159" lon="10.418419449212307" id="-28212">
		<tag k="name" v="Gupu" />
		<tag k="place" v="farm" />
		<tag k="ssr:stedsnr" v="671846" />
	</node>
	<node lat="59.897299997455455" lon="10.485336106692147" id="-28214">
		<tag k="name" v="Grini" />
		<tag k="place" v="isolated_dwelling" />
		<tag k="ssr:stedsnr" v="671883" />
	</node>
	<node lat="59.91168611283495" lon="10.503616661501368" id="-28215">
		<tag k="alt_name" v="Hauger vestre" />
		<tag k="name" v="Vestre Hauger" />
		<tag k="old_name" v="Hauger, midtre" />
		<tag k="place" v="farm" />
		<tag k="ssr:stedsnr" v="671893" />
	</node>
	<node lat="59.952659104065006" lon="10.602340537603887" id="-28216">
		<tag k="name" v="Dæli" />
		<tag k="place" v="farm" />
		<tag k="ssr:stedsnr" v="671985" />
	</node>
	<node lat="60.00918889109128" lon="10.480580562455037" id="-28218">
		<tag k="name" v="Kampen" />
		<tag k="place" v="farm" />
		<tag k="ssr:stedsnr" v="672879" />
	</node>
	<node lat="59.95114444303538" lon="10.405608327172924" id="-28222">
		<tag k="historic" v="shieling" />
		<tag k="name" v="Sellanrå" />
		<tag k="place" v="isolated_dwelling" />
		<tag k="ssr:stedsnr" v="689007" />
	</node>
	<node lat="59.901755552365856" lon="10.439402772365064" id="-28226">
		<tag k="name" v="Søbråten" />
		<tag k="place" v="locality" />
		<tag k="ssr:stedsnr" v="689051" />
	</node>
	<node lat="59.904216669298755" lon="10.54345555697267" id="-28228">
		<tag k="amenity" v="social_facility" />
		<tag k="name" v="Lillehagen" />
		<tag k="social_facility" v="group_home" />
		<tag k="ssr:stedsnr" v="689889" />
	</node>
	<node lat="59.916802775730176" lon="10.549930559034363" id="-28229">
		<tag k="alt_name" v="Nes søndre" />
		<tag k="name" v="Søndre Nes" />
		<tag k="place" v="farm" />
		<tag k="ssr:stedsnr" v="689891" />
	</node>
	<node lat="59.90179166661582" lon="10.511894448803803" id="-28230">
		<tag k="amenity" v="social_facility" />
		<tag k="name" v="Helgerud barnebolig" />
		<tag k="old_name" v="Helgerud barnehjem" />
		<tag k="social_facility" v="group_home" />
		<tag k="ssr:stedsnr" v="689895" />
	</node>
	<node lat="59.88465713250693" lon="10.494615250321228" id="-28231">
		<tag k="amenity" v="kindergarten" />
		<tag k="name" v="Vågebytoppen" />
		<tag k="ssr:stedsnr" v="690585" />
	</node>
	<node lat="59.899511115025604" lon="10.628691672410508" id="-28233">
		<tag k="name" v="Fornebu" />
		<tag k="place" v="quarter" />
		<tag k="ssr:stedsnr" v="695985" />
	</node>
	<node lat="59.971736106705755" lon="10.48377777667201" id="-28240">
		<tag k="name" v="Hagan" />
		<tag k="place" v="locality" />
		<tag k="ssr:stedsnr" v="731019" />
	</node>
	<node lat="59.971297576200136" lon="10.459504422349292" id="-28241">
		<tag k="name" v="Trillerud" />
		<tag k="place" v="isolated_dwelling" />
		<tag k="ssr:stedsnr" v="731021" />
	</node>
	<node lat="59.90389273651023" lon="10.635658642715676" id="-28243">
		<tag k="alt_name" v="Fornebo" />
		<tag k="name" v="Fornebu" />
		<tag k="place" v="farm" />
		<tag k="ssr:stedsnr" v="732860" />
	</node>
	<node lat="59.89764166412379" lon="10.604480560552263" id="-28244">
		<tag k="building" v="industrial" />
		<tag k="industrial" v="factory" />
		<tag k="name" v="Oksenøya bruk" />
		<tag k="ssr:stedsnr" v="732863" />
	</node>
	<node lat="59.93077499735692" lon="10.618500002009677" id="-28246">
		<tag k="name" v="Voll" />
		<tag k="place" v="suburb" />
		<tag k="ssr:stedsnr" v="732948" />
	</node>
	<node lat="59.936030349021834" lon="10.573193052057855" id="-28247">
		<tag k="name" v="Haug" />
		<tag k="place" v="farm" />
		<tag k="ssr:stedsnr" v="732966" />
	</node>
	<node lat="59.9138912110674" lon="10.535058529088934" id="-28248">
		<tag k="name" v="Fleskum" />
		<tag k="place" v="farm" />
		<tag k="ssr:stedsnr" v="732900" />
	</node>
	<node lat="59.91717434131303" lon="10.534270932532376" id="-28249">
		<tag k="name" v="Dæli" />
		<tag k="place" v="farm" />
		<tag k="ssr:stedsnr" v="732901" />
	</node>
	<node lat="59.97340277452154" lon="10.466405562983045" id="-28252">
		<tag k="alt_name" v="Guriby nordre" />
		<tag k="name" v="Nordre Guriby" />
		<tag k="place" v="farm" />
		<tag k="ssr:stedsnr" v="750064" />
	</node>
	<node lat="59.977108330537085" lon="10.47592221553588" id="-28253">
		<tag k="alt_name" v="Vensås vestre" />
		<tag k="name" v="Vestre Vensås" />
		<tag k="place" v="farm" />
		<tag k="ssr:stedsnr" v="750066" />
	</node>
	<node lat="59.980019445891024" lon="10.453941675249458" id="-28254">
		<tag k="name" v="Nordli" />
		<tag k="place" v="farm" />
		<tag k="ssr:stedsnr" v="750072" />
	</node>
	<node lat="59.90970000047352" lon="10.616827784992362" id="-28255">
		<tag k="amenity" v="school" />
		<tag k="name" v="Lysaker skole" />
		<tag k="ssr:stedsnr" v="750076" />
	</node>
	<node lat="59.905647220032044" lon="10.634925006521987" id="-28256">
		<tag k="building" v="yes" />
		<tag k="name" v="Polhøgda" />
		<tag k="ssr:stedsnr" v="750078" />
	</node>
	<node lat="59.95340555803943" lon="10.50163611120228" id="-28257">
		<tag k="alt_name" v="Skollerud mellom" />
		<tag k="name" v="Mellom-Skollerud" />
		<tag k="place" v="farm" />
		<tag k="ssr:stedsnr" v="750082" />
	</node>
	<node lat="59.93254999876397" lon="10.429822217550912" id="-28258">
		<tag k="alt_name" v="Jammerdal søndre" />
		<tag k="name" v="Søndre Jammerdal" />
		<tag k="place" v="farm" />
		<tag k="ssr:stedsnr" v="750087" />
	</node>
	<node lat="59.89567222499731" lon="10.536624995904425" id="-28269">
		<tag k="name" v="Bakåsen" />
		<tag k="place" v="neighbourhood" />
		<tag k="ssr:stedsnr" v="751563" />
	</node>
	<node lat="59.89388728068875" lon="10.51258201868584" id="-28270">
		<tag k="name" v="Øde Hamang" />
		<tag k="place" v="farm" />
		<tag k="ssr:stedsnr" v="751566" />
	</node>
	<node lat="59.99663055755754" lon="10.505911112320518" id="-28279">
		<tag k="alt_name" v="Vensåssætra" />
		<tag k="historic" v="shieling" />
		<tag k="name" v="Vensåssetra" />
		<tag k="place" v="isolated_dwelling" />
		<tag k="ssr:stedsnr" v="792087" />
	</node>
	<node lat="59.979625001229145" lon="10.453683333663616" id="-28280">
		<tag k="name" v="Guribyenga" />
		<tag k="place" v="farm" />
		<tag k="ssr:stedsnr" v="793114" />
	</node>
	<node lat="59.91434999565731" lon="10.43105000261671" id="-28281">
		<tag k="name" v="Rønningen" />
		<tag k="place" v="farm" />
		<tag k="ssr:stedsnr" v="793897" />
	</node>
	<node lat="59.93226666501546" lon="10.535627779085258" id="-28284">
		<tag k="name" v="Knabberud" />
		<tag k="place" v="farm" />
		<tag k="ssr:stedsnr" v="793975" />
	</node>
	<node lat="59.94185277644973" lon="10.586763890298007" id="-28285">
		<tag k="name" v="Bråten" />
		<tag k="place" v="farm" />
		<tag k="ssr:stedsnr" v="793987" />
	</node>
	<node lat="59.941411112311584" lon="10.433252770896338" id="-28286">
		<tag k="name" v="Markebekk" />
		<tag k="place" v="farm" />
		<tag k="ssr:stedsnr" v="793992" />
	</node>
	<node lat="60.01082731371944" lon="10.488961016311697" id="-28287">
		<tag k="name" v="Jonsrudkampen" />
		<tag k="place" v="isolated_dwelling" />
		<tag k="ssr:stedsnr" v="794872" />
	</node>
	<node lat="59.88760555813408" lon="10.440400002568108" id="-28290">
		<tag k="name" v="Sagbakken" />
		<tag k="place" v="isolated_dwelling" />
		<tag k="ssr:stedsnr" v="811594" />
	</node>
	<node lat="59.89144978540652" lon="10.444412672126752" id="-28291">
		<tag k="name" v="Bakken" />
		<tag k="place" v="isolated_dwelling" />
		<tag k="ssr:stedsnr" v="811596" />
	</node>
	<node lat="59.90278333275523" lon="10.537708325683337" id="-28292">
		<tag k="name" v="Krabberud" />
		<tag k="place" v="isolated_dwelling" />
		<tag k="ssr:stedsnr" v="811885" />
	</node>
	<node lat="59.94963611229428" lon="10.633269440190071" id="-28293">
		<tag k="name" v="Saga I" />
		<tag k="place" v="locality" />
		<tag k="ssr:stedsnr" v="811896" />
	</node>
	<node lat="59.933413889004825" lon="10.60475278479606" id="-28294">
		<tag k="leisure" v="pitch" />
		<tag k="name" v="Hagabråten" />
		<tag k="ssr:stedsnr" v="811914" />
	</node>
	<node lat="59.92429721925101" lon="10.563694443637884" id="-28297">
		<tag k="alt_name" v="Haslum østre" />
		<tag k="name" v="Østre Haslum" />
		<tag k="place" v="farm" />
		<tag k="ssr:stedsnr" v="811987" />
	</node>
	<node lat="59.935391668663335" lon="10.558544452468448" id="-28298">
		<tag k="name" v="Svingen" />
		<tag k="place" v="farm" />
		<tag k="ssr:stedsnr" v="812000" />
	</node>
	<node lat="59.89280683286281" lon="10.502111244543315" id="-28309">
		<tag k="name" v="Jong" />
		<tag k="place" v="farm" />
		<tag k="ssr:stedsnr" v="854856" />
	</node>
	<node lat="59.888666441052614" lon="10.453864149159335" id="-28310">
		<tag k="name" v="Holo" />
		<tag k="place" v="farm" />
		<tag k="ssr:stedsnr" v="854860" />
	</node>
	<node lat="59.973174146352974" lon="10.465465539029433" id="-28317">
		<tag k="name" v="Guriby" />
		<tag k="place" v="farm" />
		<tag k="ssr:stedsnr" v="914026" />
	</node>
	<node lat="59.902271798802836" lon="10.46014738268188" id="-28318">
		<tag k="name" v="Butterud" />
		<tag k="place" v="farm" />
		<tag k="ssr:stedsnr" v="914879" />
	</node>
	<node lat="59.91153182905275" lon="10.485925890316707" id="-28319">
		<tag k="name" v="Vøyen" />
		<tag k="place" v="farm" />
		<tag k="ssr:stedsnr" v="914886" />
	</node>
	<node lat="59.90880555183603" lon="10.495811115008514" id="-28320">
		<tag k="name" v="Rud" />
		<tag k="place" v="farm" />
		<tag k="ssr:stedsnr" v="914895" />
	</node>
	<node lat="59.91184166814107" lon="10.492711105962009" id="-28321">
		<tag k="name" v="Hagan" />
		<tag k="place" v="farm" />
		<tag k="ssr:stedsnr" v="914896" />
	</node>
	<node lat="59.91114999715262" lon="10.527786114956317" id="-28322">
		<tag k="alt_name" v="Gjettum, nordre" />
		<tag k="name" v="Nordre Gjettum" />
		<tag k="place" v="farm" />
		<tag k="ssr:stedsnr" v="914900" />
	</node>
	<node lat="59.93820927230393" lon="10.418654846785358" id="-28324">
		<tag k="name" v="Hvile" />
		<tag k="place" v="isolated_dwelling" />
		<tag k="ssr:stedsnr" v="914961" />
	</node>
	<node lat="59.91004166323669" lon="10.615986107368176" id="-28334">
		<tag k="amenity" v="school" />
		<tag k="name" v="Stabekk videregående skole" />
		<tag k="ssr:stedsnr" v="871085" />
	</node>
	<node lat="59.94295555347182" lon="10.604377784704152" id="-28335">
		<tag k="name" v="Østerås" />
		<tag k="place" v="village" />
		<tag k="ssr:stedsnr" v="871903" />
	</node>
	<node lat="59.925855557067536" lon="10.615919444585225" id="-28336">
		<tag k="leisure" v="pitch" />
		<tag k="name" v="Jarmyra" />
		<tag k="ssr:stedsnr" v="871910" />
	</node>
	<node lat="59.89729722617798" lon="10.608183336643757" id="-28340">
		<tag k="name" v="Lilleøystua" />
		<tag k="place" v="locality" />
		<tag k="ssr:stedsnr" v="872117" />
	</node>
	<node lat="59.922175002717125" lon="10.532513882596229" id="-28351">
		<tag k="name" v="Dalbo" />
		<tag k="place" v="farm" />
		<tag k="ssr:stedsnr" v="914906" />
	</node>
	<node lat="59.93274444426635" lon="10.53723889011556" id="-28363">
		<tag k="name" v="Gorudstua" />
		<tag k="place" v="isolated_dwelling" />
		<tag k="ssr:stedsnr" v="932995" />
	</node>
	<node lat="59.89007500106082" lon="10.393013880809303" id="-28364">
		<tag k="name" v="Persbonn" />
		<tag k="place" v="isolated_dwelling" />
		<tag k="ssr:stedsnr" v="933625" />
	</node>
	<node lat="59.88614722534105" lon="10.411369443826528" id="-28365">
		<tag k="name" v="Tranby" />
		<tag k="place" v="isolated_dwelling" />
		<tag k="ssr:stedsnr" v="933632" />
	</node>
	<node lat="59.89461111466095" lon="10.459888889680341" id="-28366">
		<tag k="alt_name" v="Ringi øvre" />
		<tag k="name" v="Øvre Ringi" />
		<tag k="place" v="farm" />
		<tag k="ssr:stedsnr" v="933642" />
	</node>
	<node lat="59.91933625695907" lon="10.389864638614664" id="-28376">
		<tag k="fixme" v="consider tourism=alpine_hut or tourism=chalet" />
		<tag k="name" v="Svartvannshytta" />
		<tag k="ssr:stedsnr" v="973899" />
		<tag k="tourism" v="wilderness_hut" />
	</node>
	<node lat="59.93876062766587" lon="10.511180447225323" id="-28382">
		<tag k="name" v="Toppenhaug" />
		<tag k="place" v="neighbourhood" />
		<tag k="ssr:stedsnr" v="981111" />
	</node>
	<node lat="59.95889992789814" lon="10.495047972372351" id="-28383">
		<tag k="name" v="Hellerud" />
		<tag k="place" v="neighbourhood" />
		<tag k="ssr:stedsnr" v="981112" />
	</node>
	<node lat="59.957799459627225" lon="10.46666714594839" id="-28384">
		<tag k="name" v="Trulsrudmarka" />
		<tag k="place" v="neighbourhood" />
		<tag k="ssr:stedsnr" v="981113" />
	</node>
	<node lat="59.963132653751686" lon="10.468407453060484" id="-28385">
		<tag k="name" v="Bjerke" />
		<tag k="place" v="neighbourhood" />
		<tag k="ssr:stedsnr" v="981114" />
	</node>
	<node lat="59.954243459295846" lon="10.51355068743538" id="-28386">
		<tag k="name" v="Trulsebråten" />
		<tag k="place" v="neighbourhood" />
		<tag k="ssr:stedsnr" v="981115" />
	</node>
	<node lat="59.95202428673283" lon="10.513628547501511" id="-28387">
		<tag k="name" v="Lesterud" />
		<tag k="place" v="neighbourhood" />
		<tag k="ssr:stedsnr" v="981116" />
	</node>
	<node lat="59.94648423839289" lon="10.501739330911706" id="-28388">
		<tag k="name" v="Sleiverud" />
		<tag k="place" v="neighbourhood" />
		<tag k="ssr:stedsnr" v="981117" />
	</node>
	<node lat="59.946898538237036" lon="10.50793450859552" id="-28389">
		<tag k="name" v="Grorudhaugen" />
		<tag k="place" v="neighbourhood" />
		<tag k="ssr:stedsnr" v="981118" />
	</node>
	<node lat="59.888970304093164" lon="10.477125373924054" id="-28390">
		<tag k="name" v="Tanum" />
		<tag k="place" v="neighbourhood" />
		<tag k="ssr:stedsnr" v="981119" />
	</node>
	<node lat="59.95307258037096" lon="10.480603943416716" id="-28391">
		<tag k="name" v="Børjerlia" />
		<tag k="place" v="neighbourhood" />
		<tag k="ssr:stedsnr" v="981120" />
	</node>
	<node lat="59.88413608512688" lon="10.603334628609808" id="-28392">
		<tag k="name" v="Langodden" />
		<tag k="place" v="neighbourhood" />
		<tag k="ssr:stedsnr" v="981121" />
	</node>
	<node lat="59.88030130345026" lon="10.607741813965976" id="-28393">
		<tag k="name" v="Snarøya" />
		<tag k="place" v="neighbourhood" />
		<tag k="ssr:stedsnr" v="981122" />
	</node>
	<node lat="59.886848171466035" lon="10.626071933617242" id="-28394">
		<tag k="name" v="Halden" />
		<tag k="place" v="neighbourhood" />
		<tag k="ssr:stedsnr" v="981124" />
	</node>
	<node lat="59.89395671698868" lon="10.491783103006451" id="-28398">
		<tag k="alt_name" v="Tokerud" />
		<tag k="name" v="Emma Hjorth" />
		<tag k="place" v="quarter" />
		<tag k="ssr:stedsnr" v="987822" />
	</node>
	<node lat="59.91969968646664" lon="10.595472232461452" id="-28402">
		<tag k="name" v="Egne Hjem" />
		<tag k="place" v="neighbourhood" />
		<tag k="ssr:stedsnr" v="989214" />
	</node>
	<node lat="59.92042788733211" lon="10.610515879623152" id="-28403">
		<tag k="name" v="Tjernsrud" />
		<tag k="place" v="neighbourhood" />
		<tag k="ssr:stedsnr" v="989215" />
	</node>
	<node lat="59.97752990841602" lon="10.468570899488101" id="-28421">
		<tag k="name" v="Åmot" />
		<tag k="place" v="farm" />
		<tag k="ssr:stedsnr" v="3031" />
	</node>
	<node lat="59.96102499846287" lon="10.583311115909341" id="-28424">
		<tag k="name" v="Skytterkollen" />
		<tag k="place" v="isolated_dwelling" />
		<tag k="ssr:stedsnr" v="4061" />
	</node>
	<node lat="59.91757175949184" lon="10.521653839083616" id="-28426">
		<tag k="name" v="Kif-hytta" />
		<tag k="place" v="isolated_dwelling" />
		<tag k="ssr:stedsnr" v="4923" />
	</node>
	<node lat="59.91318228725198" lon="10.557594904488461" id="-28427">
		<tag k="name" v="Avløs" />
		<tag k="place" v="farm" />
		<tag k="ssr:stedsnr" v="4927" />
	</node>
	<node lat="59.89949999570109" lon="10.595222222677204" id="-28429">
		<tag k="name" v="Strand" />
		<tag k="place" v="isolated_dwelling" />
		<tag k="ssr:stedsnr" v="4888" />
	</node>
	<node lat="59.94945277946811" lon="10.554988895643321" id="-28431">
		<tag k="name" v="Mellom" />
		<tag k="place" v="locality" />
		<tag k="ssr:stedsnr" v="4992" />
	</node>
	<node lat="59.92009722025035" lon="10.453036112697536" id="-28433">
		<tag k="name" v="Søndre Skui" />
		<tag k="place" v="farm" />
		<tag k="ssr:stedsnr" v="4948" />
	</node>
	<node lat="59.92610059154611" lon="10.466021440937299" id="-28434">
		<tag k="name" v="Berger" />
		<tag k="place" v="farm" />
		<tag k="ssr:stedsnr" v="4956" />
	</node>
	<node lat="59.94419166274417" lon="10.430597213811945" id="-28440">
		<tag k="alt_name" v="Aspelund nedre" />
		<tag k="name" v="Nedre Aspelund" />
		<tag k="place" v="farm" />
		<tag k="ssr:stedsnr" v="22021" />
	</node>
	<node lat="59.93899444843727" lon="10.505219442142435" id="-28441">
		<tag k="name" v="Toppenhaug" />
		<tag k="place" v="locality" />
		<tag k="ssr:stedsnr" v="22948" />
	</node>
	<node lat="59.934866662483486" lon="10.58451666118792" id="-28444">
		<tag k="amenity" v="school" />
		<tag k="name" v="Hosle skole" />
		<tag k="ssr:stedsnr" v="22977" />
	</node>
	<node lat="59.919802777088606" lon="10.583775007874488" id="-28445">
		<tag k="amenity" v="school" />
		<tag k="name" v="Amerikansk skole" />
		<tag k="ssr:stedsnr" v="22979" />
	</node>
	<node lat="59.92078610819183" lon="10.471244445450228" id="-28447">
		<tag k="alt_name" v="Økern lille" />
		<tag k="name" v="Lille Økern" />
		<tag k="place" v="farm" />
		<tag k="ssr:stedsnr" v="23077" />
	</node>
	<node lat="59.88753611445425" lon="10.510200003285075" id="-28452">
		<tag k="amenity" v="school" />
		<tag k="name" v="Jong skole" />
		<tag k="ssr:stedsnr" v="23588" />
	</node>
	<node lat="59.89461111108337" lon="10.414750008071106" id="-28453">
		<tag k="name" v="Saubakken" />
		<tag k="place" v="isolated_dwelling" />
		<tag k="ssr:stedsnr" v="23628" />
	</node>
	<node lat="59.91219205077694" lon="10.458959022257929" id="-28455">
		<tag k="name" v="Nordre Stovi" />
		<tag k="place" v="farm" />
		<tag k="ssr:stedsnr" v="39395" />
	</node>
	<node lat="59.95882777417828" lon="10.51112500286737" id="-28464">
		<tag k="name" v="Helgerud" />
		<tag k="place" v="farm" />
		<tag k="ssr:stedsnr" v="65027" />
	</node>
	<node lat="59.91381111087482" lon="10.50453333417429" id="-28465">
		<tag k="alt_name" v="Hauger, nordre" />
		<tag k="name" v="Nordre Hauger" />
		<tag k="place" v="farm" />
		<tag k="ssr:stedsnr" v="65916" />
	</node>
	<node lat="59.94573888970273" lon="10.589366666116772" id="-28469">
		<tag k="name" v="Nordli" />
		<tag k="place" v="farm" />
		<tag k="ssr:stedsnr" v="65969" />
	</node>
	<node lat="59.94986859703866" lon="10.509126802513075" id="-28470">
		<tag k="name" v="Grorud" />
		<tag k="place" v="farm" />
		<tag k="ssr:stedsnr" v="65971" />
	</node>
	<node lat="59.95719117798908" lon="10.568479860926729" id="-28471">
		<tag k="name" v="Lund" />
		<tag k="place" v="isolated_dwelling" />
		<tag k="ssr:stedsnr" v="65993" />
	</node>
	<node lat="59.94916666973535" lon="10.40088611784301" id="-28475">
		<tag k="alt_name" v="Løkken øvre" />
		<tag k="name" v="Øvre Løkken" />
		<tag k="place" v="farm" />
		<tag k="ssr:stedsnr" v="82009" />
	</node>
	<node lat="59.900727778148045" lon="10.459513897487945" id="-28477">
		<tag k="name" v="Gamle Butterud" />
		<tag k="place" v="locality" />
		<tag k="ssr:stedsnr" v="82045" />
	</node>
	<node lat="59.92851389082273" lon="10.607611104377893" id="-28478">
		<tag k="amenity" v="school" />
		<tag k="name" v="Grav skole" />
		<tag k="ssr:stedsnr" v="82922" />
	</node>
	<node lat="59.92465833782237" lon="10.538141660224936" id="-28479">
		<tag k="name" v="Hestebråtan" />
		<tag k="place" v="farm" />
		<tag k="ssr:stedsnr" v="82995" />
	</node>
	<node lat="59.90401944206563" lon="10.466761111011298" id="-28481">
		<tag k="name" v="Solheim" />
		<tag k="place" v="farm" />
		<tag k="ssr:stedsnr" v="83046" />
	</node>
	<node lat="59.913986114498314" lon="10.4728499971218" id="-28482">
		<tag k="name" v="Holma" />
		<tag k="place" v="farm" />
		<tag k="ssr:stedsnr" v="83052" />
	</node>
	<node lat="59.923997224713645" lon="10.474725005566125" id="-28483">
		<tag k="name" v="Makedonien" />
		<tag k="place" v="farm" />
		<tag k="ssr:stedsnr" v="83060" />
	</node>
	<node lat="59.93114722010481" lon="10.438008336793342" id="-28484">
		<tag k="name" v="Holmen" />
		<tag k="place" v="farm" />
		<tag k="ssr:stedsnr" v="83064" />
	</node>
	<node lat="59.94370555729657" lon="10.57485554795692" id="-28486">
		<tag k="alt_name" v="Haga nedre" />
		<tag k="name" v="Nedre Haga" />
		<tag k="place" v="farm" />
		<tag k="ssr:stedsnr" v="83877" />
	</node>
	<node lat="59.9062527809165" lon="10.490527774087258" id="-28489">
		<tag k="name" v="Løxa" />
		<tag k="place" v="farm" />
		<tag k="ssr:stedsnr" v="83971" />
	</node>
	<node lat="59.90470918289503" lon="10.536965234180471" id="-28490">
		<tag k="amenity" v="nursing_home" />
		<tag k="name" v="Spesialsykehuset for epilepsi" />
		<tag k="old_name" v="Statens senter for epilepsi" />
		<tag k="ssr:stedsnr" v="83975" />
	</node>
	<node lat="59.88065277577069" lon="10.586438891896867" id="-28495">
		<tag k="fixme" v="consider tourism=alpine_hut or tourism=chalet" />
		<tag k="name" v="Kjeholmen" />
		<tag k="ssr:stedsnr" v="103343" />
		<tag k="tourism" v="wilderness_hut" />
	</node>
	<node lat="59.96679166737375" lon="10.403949992137587" id="-28501">
		<tag k="alt_name" v="Kjaglia, nordre;Kraglia nordre" />
		<tag k="name" v="Nordre Kjaglia" />
		<tag k="place" v="isolated_dwelling" />
		<tag k="ssr:stedsnr" v="125036" />
	</node>
	<node lat="59.872300002782225" lon="10.560569444328243" id="-28502">
		<tag k="name" v="Prinsen" />
		<tag k="place" v="isolated_dwelling" />
		<tag k="ssr:stedsnr" v="125836" />
	</node>
	<node lat="59.87363924976904" lon="10.561841342163337" id="-28503">
		<tag k="alt_name" v="Dronningen" />
		<tag k="name" v="Dronninga" />
		<tag k="place" v="isolated_dwelling" />
		<tag k="ssr:stedsnr" v="125837" />
	</node>
	<node lat="59.92020555138578" lon="10.420030560161866" id="-28505">
		<tag k="name" v="Risfjellkastet" />
		<tag k="place" v="isolated_dwelling" />
		<tag k="ssr:stedsnr" v="125941" />
	</node>
	<node lat="59.935763887936176" lon="10.410655547089684" id="-28506">
		<tag k="name" v="Bakken" />
		<tag k="place" v="farm" />
		<tag k="ssr:stedsnr" v="125970" />
	</node>
	<node lat="59.946826952185106" lon="10.569782541641072" id="-28508">
		<tag k="name" v="Madserud" />
		<tag k="place" v="isolated_dwelling" />
		<tag k="ssr:stedsnr" v="125980" />
	</node>
	<node lat="59.90016388489237" lon="10.377719446193431" id="-28509">
		<tag k="name" v="Rudsmyrhytta" />
		<tag k="place" v="isolated_dwelling" />
		<tag k="ssr:stedsnr" v="143026" />
	</node>
	<node lat="59.9027777789047" lon="10.469808324692755" id="-28513">
		<tag k="alt_name" v="Grinibråten øvre" />
		<tag k="name" v="Øvre Grinibråten" />
		<tag k="place" v="farm" />
		<tag k="ssr:stedsnr" v="143042" />
	</node>
	<node lat="59.91139921241135" lon="10.458985141353343" id="-28514">
		<tag k="alt_name" v="Stovi søndre" />
		<tag k="name" v="Søndre Stovi" />
		<tag k="place" v="farm" />
		<tag k="ssr:stedsnr" v="143046" />
	</node>
	<node lat="59.93076666533311" lon="10.46623334147516" id="-28515">
		<tag k="amenity" v="hospital" />
		<tag k="name" v="Løkka sykehjem" />
		<tag k="ssr:stedsnr" v="143054" />
	</node>
	<node lat="59.931086111966586" lon="10.474188893053817" id="-28516">
		<tag k="name" v="Labråtan" />
		<tag k="place" v="isolated_dwelling" />
		<tag k="ssr:stedsnr" v="143064" />
	</node>
	<node lat="59.90141666381758" lon="10.524994447353128" id="-28517">
		<tag k="amenity" v="school" />
		<tag k="name" v="Valler videregående skole" />
		<tag k="ssr:stedsnr" v="143897" />
	</node>
	<node lat="59.95165833485375" lon="10.58455556147453" id="-28520">
		<tag k="alt_name" v="Ila nedre" />
		<tag k="name" v="Nedre Ila" />
		<tag k="place" v="locality" />
		<tag k="ssr:stedsnr" v="143853" />
	</node>
	<node lat="59.93350555835645" lon="10.501947227919011" id="-28524">
		<tag k="name" v="Kjerringløkka" />
		<tag k="place" v="farm" />
		<tag k="ssr:stedsnr" v="143938" />
	</node>
	<node lat="59.93872500426447" lon="10.521911110829285" id="-28525">
		<tag k="alt_name" v="Steinskogen nordre" />
		<tag k="name" v="Nordre Steinskogen" />
		<tag k="place" v="isolated_dwelling" />
		<tag k="ssr:stedsnr" v="143942" />
	</node>
	<node lat="59.906922223386594" lon="10.50948610511298" id="-28528">
		<tag k="amenity" v="school" />
		<tag k="name" v="Levre skole" />
		<tag k="ssr:stedsnr" v="143968" />
	</node>
	<node lat="59.907808335836506" lon="10.501652783184458" id="-28529">
		<tag k="amenity" v="school" />
		<tag k="name" v="Rud videregående skole" />
		<tag k="ssr:stedsnr" v="143971" />
	</node>
	<node lat="59.98841389129372" lon="10.481302785905234" id="-28541">
		<tag k="name" v="Tobonn" />
		<tag k="place" v="locality" />
		<tag k="ssr:stedsnr" v="181781" />
	</node>
	<node lat="59.87993821915009" lon="10.50811013192685" id="-28544">
		<tag k="name" v="Gyssestad" />
		<tag k="place" v="farm" />
		<tag k="ssr:stedsnr" v="185831" />
	</node>
	<node lat="59.919119763902316" lon="10.555141754350846" id="-28545">
		<tag k="name" v="Nes" />
		<tag k="place" v="farm" />
		<tag k="ssr:stedsnr" v="186914" />
	</node>
	<node lat="59.96038610844938" lon="10.463480553045073" id="-28546">
		<tag k="name" v="Knutsløkka" />
		<tag k="place" v="farm" />
		<tag k="ssr:stedsnr" v="186035" />
	</node>
	<node lat="59.890842253122855" lon="10.463860592118035" id="-28547">
		<tag k="name" v="Bjerke" />
		<tag k="place" v="farm" />
		<tag k="ssr:stedsnr" v="186861" />
	</node>
	<node lat="59.90427500344151" lon="10.412752768985376" id="-28548">
		<tag k="name" v="Stovivollen" />
		<tag k="place" v="isolated_dwelling" />
		<tag k="ssr:stedsnr" v="186882" />
	</node>
	<node lat="59.90354911548485" lon="10.397351661427777" id="-28549">
		<tag k="name" v="Grønland" />
		<tag k="place" v="isolated_dwelling" />
		<tag k="ssr:stedsnr" v="186883" />
	</node>
	<node lat="59.899779394001165" lon="10.513845043441075" id="-28550">
		<tag k="name" v="Evje" />
		<tag k="place" v="suburb" />
		<tag k="ssr:stedsnr" v="186885" />
	</node>
	<node lat="59.91175993002239" lon="10.458941901450624" id="-28555">
		<tag k="name" v="Stovi" />
		<tag k="old_name" v="Staavi" />
		<tag k="place" v="farm" />
		<tag k="ssr:stedsnr" v="186899" />
	</node>
	<node lat="59.930769712619615" lon="10.606390712509569" id="-28559">
		<tag k="name" v="Grav" />
		<tag k="place" v="farm" />
		<tag k="ssr:stedsnr" v="186944" />
	</node>
	<node lat="59.92708509633885" lon="10.457430623908435" id="-28561">
		<tag k="name" v="Frogner" />
		<tag k="place" v="farm" />
		<tag k="ssr:stedsnr" v="186952" />
	</node>
	<node lat="59.91232500235138" lon="10.446444439036865" id="-28566">
		<tag k="name" v="Bakken" />
		<tag k="place" v="locality" />
		<tag k="ssr:stedsnr" v="204038" />
	</node>
	<node lat="59.951788888999694" lon="10.506816670683618" id="-28567">
		<tag k="alt_name" v="Skollerud søndre" />
		<tag k="name" v="Søndre Skollerud" />
		<tag k="place" v="farm" />
		<tag k="ssr:stedsnr" v="204083" />
	</node>
	<node lat="59.943041669067654" lon="10.485575006155782" id="-28569">
		<tag k="name" v="Gullhaug" />
		<tag k="place" v="neighbourhood" />
		<tag k="ssr:stedsnr" v="204186" />
	</node>
	<node lat="59.92995555170814" lon="10.552238896100608" id="-28570">
		<tag k="name" v="Løkka" />
		<tag k="place" v="farm" />
		<tag k="ssr:stedsnr" v="204988" />
	</node>
	<node lat="59.90376666386651" lon="10.604374998212112" id="-28574">
		<tag k="amenity" v="school" />
		<tag k="name" v="Holtekilen folkehøgskole" />
		<tag k="ssr:stedsnr" v="205129" />
	</node>
	<node lat="59.938174996313684" lon="10.405552771431365" id="-28575">
		<tag k="alt_name" v="Ullbråten søndre" />
		<tag k="name" v="Søndre Ullbråten" />
		<tag k="place" v="farm" />
		<tag k="ssr:stedsnr" v="205133" />
	</node>
	<node lat="59.927436114012785" lon="10.548997225175523" id="-28577">
		<tag k="alt_name" v="Skotta søndre" />
		<tag k="name" v="Søndre Skotta" />
		<tag k="place" v="farm" />
		<tag k="ssr:stedsnr" v="204990" />
	</node>
	<node lat="59.93026110796117" lon="10.47398055868912" id="-28579">
		<tag k="amenity" v="school" />
		<tag k="name" v="Berger skole" />
		<tag k="ssr:stedsnr" v="205066" />
	</node>
	<node lat="59.93918333383047" lon="10.45105278254748" id="-28580">
		<tag k="name" v="Bakken" />
		<tag k="place" v="farm" />
		<tag k="ssr:stedsnr" v="205078" />
	</node>
	<node lat="59.96345000235225" lon="10.47688332948248" id="-28581">
		<tag k="alt_name" v="Bjerke nedre" />
		<tag k="name" v="Nedre Bjerke" />
		<tag k="place" v="farm" />
		<tag k="ssr:stedsnr" v="205086" />
	</node>
	<node lat="59.973108336320465" lon="10.466980552456134" id="-28582">
		<tag k="alt_name" v="Guriby søndre" />
		<tag k="name" v="Søndre Guriby" />
		<tag k="place" v="farm" />
		<tag k="ssr:stedsnr" v="205094" />
	</node>
	<node lat="59.974919441595894" lon="10.47566944729445" id="-28583">
		<tag k="alt_name" v="Vensås nedre" />
		<tag k="name" v="Nedre Vensås" />
		<tag k="place" v="farm" />
		<tag k="ssr:stedsnr" v="205095" />
	</node>
	<node lat="59.91939166823362" lon="10.478869452961483" id="-28584">
		<tag k="name" v="Grindstua" />
		<tag k="place" v="farm" />
		<tag k="ssr:stedsnr" v="205097" />
	</node>
	<node lat="59.92022342151281" lon="10.486566804223193" id="-28585">
		<tag k="name" v="Bryn" />
		<tag k="place" v="farm" />
		<tag k="ssr:stedsnr" v="205098" />
	</node>
	<node lat="59.88485833324249" lon="10.447850006329178" id="-28586">
		<tag k="historic" v="shieling" />
		<tag k="name" v="Kølabråtan" />
		<tag k="place" v="isolated_dwelling" />
		<tag k="ssr:stedsnr" v="205628" />
	</node>
	<node lat="59.890458332275365" lon="10.448597227590167" id="-28588">
		<tag k="name" v="Seterbråten" />
		<tag k="place" v="isolated_dwelling" />
		<tag k="ssr:stedsnr" v="205631" />
	</node>
	<node lat="59.98687499935145" lon="10.570400003566334" id="-28595">
		<tag k="name" v="Åbortjernshytta" />
		<tag k="place" v="isolated_dwelling" />
		<tag k="ssr:stedsnr" v="264098" />
	</node>
	<node lat="59.94087222049419" lon="10.562202778465664" id="-28597">
		<tag k="name" v="Saghytta" />
		<tag k="place" v="isolated_dwelling" />
		<tag k="ssr:stedsnr" v="264869" />
	</node>
	<node lat="59.954363893353616" lon="10.57080000376926" id="-28598">
		<tag k="name" v="Øverstemarka" />
		<tag k="place" v="locality" />
		<tag k="ssr:stedsnr" v="264872" />
	</node>
	<node lat="59.95912222336249" lon="10.56494167486988" id="-28599">
		<tag k="name" v="Nordremarka" />
		<tag k="place" v="locality" />
		<tag k="ssr:stedsnr" v="264874" />
	</node>
	<node lat="59.906472219290194" lon="10.514152781342215" id="-28604">
		<tag k="alt_name" v="Levre søndre" />
		<tag k="name" v="Søndre Levre" />
		<tag k="place" v="farm" />
		<tag k="ssr:stedsnr" v="264990" />
	</node>
	<node lat="59.8804555521413" lon="10.474211113322063" id="-28607">
		<tag k="name" v="Staverhagen" />
		<tag k="place" v="farm" />
		<tag k="ssr:stedsnr" v="265644" />
	</node>
	<node lat="59.89108888920271" lon="10.498369436940273" id="-28608">
		<tag k="alt_name" v="Jong vestre" />
		<tag k="name" v="Vestre Jong" />
		<tag k="place" v="farm" />
		<tag k="ssr:stedsnr" v="265548" />
	</node>
	<node lat="59.8981472235581" lon="10.547972228085545" id="-28609">
		<tag k="amenity" v="school" />
		<tag k="name" v="Blommenholm skole" />
		<tag k="ssr:stedsnr" v="265895" />
	</node>
	<node lat="59.887258336738405" lon="10.50692777621902" id="-28611">
		<tag k="alt_name" v="Jong;Jong søndre" />
		<tag k="name" v="Søndre Jong" />
		<tag k="place" v="farm" />
		<tag k="ssr:stedsnr" v="268228" />
	</node>
	<node lat="59.90659655015809" lon="10.579340458186463" id="-28618">
		<tag k="name" v="Ballerud" />
		<tag k="place" v="farm" />
		<tag k="ssr:stedsnr" v="307889" />
	</node>
	<node lat="59.88637500167882" lon="10.474394438807938" id="-28621">
		<tag k="name" v="Lagerud" />
		<tag k="place" v="farm" />
		<tag k="ssr:stedsnr" v="307848" />
	</node>
	<node lat="59.926291670271524" lon="10.389197222744228" id="-28624">
		<tag k="alt_name" v="Gotland" />
		<tag k="name" v="Godtland" />
		<tag k="place" v="locality" />
		<tag k="ssr:stedsnr" v="307939" />
	</node>
	<node lat="59.92314522966881" lon="10.48891915814822" id="-28625">
		<tag k="name" v="Belset" />
		<tag k="place" v="farm" />
		<tag k="ssr:stedsnr" v="307951" />
	</node>
	<node lat="59.95905555557412" lon="10.6025138892744" id="-28634">
		<tag k="name" v="Bakken" />
		<tag k="place" v="farm" />
		<tag k="ssr:stedsnr" v="325857" />
	</node>
	<node lat="59.95306944665006" lon="10.577336114566785" id="-28635">
		<tag k="name" v="Bråtastua" />
		<tag k="place" v="farm" />
		<tag k="ssr:stedsnr" v="325861" />
	</node>
	<node lat="59.90335833758683" lon="10.492763881066082" id="-28642">
		<tag k="name" v="Langelår" />
		<tag k="place" v="locality" />
		<tag k="ssr:stedsnr" v="325970" />
	</node>
	<node lat="59.93601388837405" lon="10.60159444036115" id="-28643">
		<tag k="alt_name" v="Eikeli v.g. skole" />
		<tag k="amenity" v="school" />
		<tag k="name" v="Eikeli videregående skole" />
		<tag k="ssr:stedsnr" v="325974" />
	</node>
	<node lat="59.924275003738444" lon="10.46529999470571" id="-28645">
		<tag k="alt_name" v="Økern nordre" />
		<tag k="name" v="Nordre Økern" />
		<tag k="place" v="farm" />
		<tag k="ssr:stedsnr" v="326051" />
	</node>
	<node lat="59.98262777434412" lon="10.470774992611505" id="-28646">
		<tag k="name" v="Bruløkka" />
		<tag k="place" v="farm" />
		<tag k="ssr:stedsnr" v="326072" />
	</node>
	<node lat="59.95187777553689" lon="10.491216670012946" id="-28663">
		<tag k="name" v="Solberg" />
		<tag k="place" v="farm" />
		<tag k="ssr:stedsnr" v="368053" />
	</node>
	<node lat="59.95546265446511" lon="10.49629650303111" id="-28664">
		<tag k="name" v="Muserud" />
		<tag k="place" v="farm" />
		<tag k="ssr:stedsnr" v="368055" />
	</node>
	<node lat="59.963199995530346" lon="10.574497226519547" id="-28667">
		<tag k="leisure" v="pitch" />
		<tag k="name" v="Løvenskioldbanen" />
		<tag k="ssr:stedsnr" v="368078" />
	</node>
	<node lat="59.91050833734273" lon="10.390486119295016" id="-28668">
		<tag k="name" v="Ringivollen" />
		<tag k="place" v="locality" />
		<tag k="ssr:stedsnr" v="368924" />
	</node>
	<node lat="59.93285003602496" lon="10.489811673854163" id="-28669">
		<tag k="name" v="Gommerud" />
		<tag k="place" v="farm" />
		<tag k="ssr:stedsnr" v="368979" />
	</node>
	<node lat="59.94062499849158" lon="10.583627784244063" id="-28670">
		<tag k="name" v="Toppen" />
		<tag k="place" v="farm" />
		<tag k="ssr:stedsnr" v="368987" />
	</node>
	<node lat="59.95680278201808" lon="10.517708341056156" id="-28672">
		<tag k="name" v="Kleiva" />
		<tag k="place" v="farm" />
		<tag k="ssr:stedsnr" v="368993" />
	</node>
	<node lat="59.954452774917335" lon="10.5829500009818" id="-28673">
		<tag k="amenity" v="prison" />
		<tag k="name" v="Ila fengsel og forvaringsanstalt" />
		<tag k="ssr:stedsnr" v="368995" />
	</node>
	<node lat="59.92765833033116" lon="10.498758337711282" id="-28674">
		<tag k="alt_name" v="Hammarbakken" />
		<tag k="name" v="Hammerbakken" />
		<tag k="old_name" v="Hamarbakken" />
		<tag k="place" v="farm" />
		<tag k="ssr:stedsnr" v="368955" />
	</node>
	<node lat="59.93068333492485" lon="10.467216668978546" id="-28675">
		<tag k="name" v="Løkka" />
		<tag k="place" v="neighbourhood" />
		<tag k="ssr:stedsnr" v="368957" />
	</node>
	<node lat="59.92664444733452" lon="10.48852777566238" id="-28678">
		<tag k="amenity" v="school" />
		<tag k="name" v="Belset skole" />
		<tag k="ssr:stedsnr" v="386062" />
	</node>
	<node lat="59.92873889083432" lon="10.475313887913376" id="-28679">
		<tag k="loc_name" v="Rykkin" />
		<tag k="name" v="Rykkinn" />
		<tag k="place" v="quarter" />
		<tag k="ssr:stedsnr" v="386070" />
	</node>
	<node lat="59.92587499926957" lon="10.466233338894025" id="-28680">
		<tag k="alt_name" v="Berger søndre" />
		<tag k="name" v="Søndre Berger" />
		<tag k="place" v="farm" />
		<tag k="ssr:stedsnr" v="386072" />
	</node>
	<node lat="59.95927222378306" lon="10.47923888868918" id="-28682">
		<tag k="alt_name" v="Trulsrud nedre" />
		<tag k="name" v="Nedre Trulsrud" />
		<tag k="place" v="farm" />
		<tag k="ssr:stedsnr" v="386019" />
	</node>
	<node lat="59.95689722471431" lon="10.372824995196472" id="-28684">
		<tag k="historic" v="shieling" />
		<tag k="name" v="Avtjernsetra" />
		<tag k="place" v="isolated_dwelling" />
		<tag k="ssr:stedsnr" v="386036" />
	</node>
	<node lat="59.958822218186036" lon="10.361075008351674" id="-28685">
		<tag k="name" v="Bjerkestua" />
		<tag k="place" v="isolated_dwelling" />
		<tag k="ssr:stedsnr" v="386043" />
	</node>
	<node lat="59.907191670393054" lon="10.473544451914382" id="-28687">
		<tag k="name" v="Borkenholm" />
		<tag k="place" v="farm" />
		<tag k="ssr:stedsnr" v="386049" />
	</node>
	<node lat="59.94159721899063" lon="10.533002782468207" id="-28694">
		<tag k="name" v="Lybråtan" />
		<tag k="place" v="locality" />
		<tag k="ssr:stedsnr" v="386096" />
	</node>
	<node lat="59.948380552018804" lon="10.622341667499828" id="-28700">
		<tag k="amenity" v="school" />
		<tag k="name" v="Eiksmarka skole" />
		<tag k="ssr:stedsnr" v="386913" />
	</node>
	<node lat="59.94950000257573" lon="10.629513883547869" id="-28701">
		<tag k="name" v="Grini" />
		<tag k="place" v="farm" />
		<tag k="ssr:stedsnr" v="386915" />
	</node>
	<node lat="59.912474997710994" lon="10.58707776942232" id="-28705">
		<tag k="name" v="Kleven" />
		<tag k="place" v="farm" />
		<tag k="ssr:stedsnr" v="386888" />
	</node>
	<node lat="59.9107924052009" lon="10.591903086042146" id="-28706">
		<tag k="name" v="Skallum" />
		<tag k="place" v="farm" />
		<tag k="ssr:stedsnr" v="386890" />
	</node>
	<node lat="59.92818055875262" lon="10.494380550086916" id="-28711">
		<tag k="name" v="Gamlebruket" />
		<tag k="place" v="locality" />
		<tag k="ssr:stedsnr" v="386944" />
	</node>
	<node lat="59.92295555173359" lon="10.554224995510928" id="-28714">
		<tag k="name" v="Åsterud" />
		<tag k="place" v="farm" />
		<tag k="ssr:stedsnr" v="386988" />
	</node>
	<node lat="59.88865833240246" lon="10.62296666682525" id="-28715">
		<tag k="amenity" v="school" />
		<tag k="name" v="Snarøya skole" />
		<tag k="ssr:stedsnr" v="387248" />
	</node>
	<node lat="59.96997500131996" lon="10.481191670095807" id="-28719">
		<tag k="name" v="Tasserud" />
		<tag k="place" v="farm" />
		<tag k="ssr:stedsnr" v="428017" />
	</node>
	<node lat="59.959261114058855" lon="10.408327772154458" id="-28721">
		<tag k="alt_name" v="Kjaglia søndre" />
		<tag k="name" v="Søndre Kjaglia" />
		<tag k="place" v="farm" />
		<tag k="ssr:stedsnr" v="429043" />
	</node>
	<node lat="59.95819259944903" lon="10.6125610822945" id="-28722">
		<tag k="name" v="Malin" />
		<tag k="place" v="farm" />
		<tag k="ssr:stedsnr" v="429048" />
	</node>
	<node lat="59.88187499580662" lon="10.408513894268197" id="-28723">
		<tag k="name" v="Furuholmen" />
		<tag k="ssr:stedsnr" v="429845" />
		<tag k="tourism" v="hotel" />
	</node>
	<node lat="59.89163055162717" lon="10.63541111295611" id="-28726">
		<tag k="name" v="Rolfstangen" />
		<tag k="place" v="farm" />
		<tag k="ssr:stedsnr" v="429853" />
	</node>
	<node lat="59.918377778907775" lon="10.430599996617554" id="-28728">
		<tag k="alt_name" v="Persbråten" />
		<tag k="name" v="Persbråtan" />
		<tag k="place" v="farm" />
		<tag k="ssr:stedsnr" v="429940" />
	</node>
	<node lat="59.92685833088098" lon="10.438616673838734" id="-28729">
		<tag k="name" v="Kleiva" />
		<tag k="place" v="locality" />
		<tag k="ssr:stedsnr" v="429945" />
	</node>
	<node lat="59.92813610856867" lon="10.553238890854715" id="-28732">
		<tag k="alt_name" v="Godthåp rekonvalesenthjem" />
		<tag k="amenity" v="nursing_home" />
		<tag k="name" v="Godthåp" />
		<tag k="ssr:stedsnr" v="429953" />
	</node>
	<node lat="59.93858055408198" lon="10.45131388771104" id="-28733">
		<tag k="name" v="Grinda" />
		<tag k="place" v="farm" />
		<tag k="ssr:stedsnr" v="429958" />
	</node>
	<node lat="59.9467054396942" lon="10.402814451497838" id="-28734">
		<tag k="name" v="Brenna" />
		<tag k="place" v="farm" />
		<tag k="ssr:stedsnr" v="429996" />
	</node>
	<node lat="59.944427774421975" lon="10.427563880868364" id="-28735">
		<tag k="name" v="Engebråtan" />
		<tag k="place" v="farm" />
		<tag k="ssr:stedsnr" v="429997" />
	</node>
	<node lat="59.96963610892229" lon="10.611597223503523" id="-28737">
		<tag k="alt_name" v="Kråkabråtan" />
		<tag k="name" v="Kråkebråtan" />
		<tag k="place" v="farm" />
		<tag k="ssr:stedsnr" v="489051" />
	</node>
	<node lat="59.90199498822549" lon="10.512218389933093" id="-28741">
		<tag k="name" v="Helgerud" />
		<tag k="place" v="farm" />
		<tag k="ssr:stedsnr" v="489880" />
	</node>
	<node lat="59.92856094368942" lon="10.464104588992914" id="-28745">
		<tag k="name" v="Brekke" />
		<tag k="place" v="farm" />
		<tag k="ssr:stedsnr" v="489930" />
	</node>
	<node lat="59.92781388582579" lon="10.375758330763873" id="-28746">
		<tag k="name" v="Burås" />
		<tag k="place" v="locality" />
		<tag k="ssr:stedsnr" v="489939" />
	</node>
	<node lat="59.94438055903413" lon="10.494280558024451" id="-28748">
		<tag k="name" v="Grinda" />
		<tag k="place" v="farm" />
		<tag k="ssr:stedsnr" v="489976" />
	</node>
	<node lat="59.95462499816425" lon="10.61117499273616" id="-28749">
		<tag k="name" v="Listua" />
		<tag k="place" v="farm" />
		<tag k="ssr:stedsnr" v="489986" />
	</node>
	<node lat="59.905547226366984" lon="10.479577771895034" id="-28752">
		<tag k="name" v="Åmotenga" />
		<tag k="place" v="neighbourhood" />
		<tag k="ssr:stedsnr" v="507036" />
	</node>
	<node lat="59.93812499603816" lon="10.604269450294225" id="-28757">
		<tag k="amenity" v="school" />
		<tag k="name" v="Eikeli skole" />
		<tag k="ssr:stedsnr" v="507930" />
	</node>
	<node lat="59.920711107400855" lon="10.438705549582208" id="-28763">
		<tag k="name" v="Kroken" />
		<tag k="place" v="farm" />
		<tag k="ssr:stedsnr" v="508062" />
	</node>
	<node lat="59.92698611196232" lon="10.46558333724431" id="-28765">
		<tag k="alt_name" v="Berger nordre" />
		<tag k="name" v="Nordre Berger" />
		<tag k="place" v="farm" />
		<tag k="ssr:stedsnr" v="508080" />
	</node>
	<node lat="59.886288888865806" lon="10.513802778999572" id="-28779">
		<tag k="name" v="Jongskollen" />
		<tag k="place" v="neighbourhood" />
		<tag k="ssr:stedsnr" v="549828" />
	</node>
	<node lat="59.88470764303988" lon="10.48689800986102" id="-28780">
		<tag k="alt_name" v="Øvre Ås" />
		<tag k="name" v="Ås" />
		<tag k="place" v="farm" />
		<tag k="ssr:stedsnr" v="549830" />
	</node>
	<node lat="59.95402488052494" lon="10.483955039781886" id="-28781">
		<tag k="name" v="Haug" />
		<tag k="place" v="farm" />
		<tag k="ssr:stedsnr" v="550052" />
	</node>
	<node lat="59.952727843443085" lon="10.504009471749466" id="-28782">
		<tag k="name" v="Skollerud" />
		<tag k="place" v="farm" />
		<tag k="ssr:stedsnr" v="550054" />
	</node>
	<node lat="59.947124996724895" lon="10.362822213523872" id="-28783">
		<tag k="name" v="Bråtan" />
		<tag k="place" v="farm" />
		<tag k="ssr:stedsnr" v="550999" />
	</node>
	<node lat="59.90242614549999" lon="10.501146072606488" id="-28784">
		<tag k="name" v="Dønski" />
		<tag k="place" v="suburb" />
		<tag k="ssr:stedsnr" v="550881" />
	</node>
	<node lat="59.914811106617414" lon="10.455706355194545" id="-28785">
		<tag k="name" v="Horni" />
		<tag k="place" v="farm" />
		<tag k="ssr:stedsnr" v="550888" />
	</node>
	<node lat="59.90572595446103" lon="10.58924228912968" id="-28787">
		<tag k="alt_name" v="Stabekk, store" />
		<tag k="name" v="Store Stabekk" />
		<tag k="place" v="farm" />
		<tag k="ssr:stedsnr" v="550899" />
	</node>
	<node lat="59.913177780280755" lon="10.5189361143031" id="-28788">
		<tag k="name" v="Toppås" />
		<tag k="place" v="isolated_dwelling" />
		<tag k="ssr:stedsnr" v="550901" />
	</node>
	<node lat="59.91609725229387" lon="10.431348419958107" id="-28789">
		<tag k="name" v="Kveisebråtan" />
		<tag k="place" v="isolated_dwelling" />
		<tag k="ssr:stedsnr" v="550939" />
	</node>
	<node lat="59.93223333411644" lon="10.429100000860906" id="-28791">
		<tag k="name" v="Skuiløkka" />
		<tag k="place" v="isolated_dwelling" />
		<tag k="ssr:stedsnr" v="550946" />
	</node>
	<node lat="59.906936106944215" lon="10.506841657725278" id="-28801">
		<tag k="amenity" v="school" />
		<tag k="name" v="Dønski videregående skole" />
		<tag k="ssr:stedsnr" v="567981" />
	</node>
	<node lat="59.93389721984261" lon="10.561627772893258" id="-28803">
		<tag k="alt_name" v="Øverland østre" />
		<tag k="name" v="Østre Øverland" />
		<tag k="place" v="farm" />
		<tag k="ssr:stedsnr" v="567996" />
	</node>
	<node lat="59.92944722195547" lon="10.549219451100944" id="-28804">
		<tag k="alt_name" v="Skotta nordre" />
		<tag k="name" v="Nordre Skotta" />
		<tag k="place" v="farm" />
		<tag k="ssr:stedsnr" v="567921" />
	</node>
	<node lat="59.9604861135578" lon="10.624538883823137" id="-28805">
		<tag k="name" v="Fossum" />
		<tag k="place" v="quarter" />
		<tag k="ssr:stedsnr" v="567932" />
	</node>
	<node lat="59.94119444575857" lon="10.586494451038444" id="-28807">
		<tag k="amenity" v="school" />
		<tag k="name" v="Hosletoppen skole" />
		<tag k="ssr:stedsnr" v="567942" />
	</node>
	<node lat="59.920747223307394" lon="10.494397215910537" id="-28808">
		<tag k="amenity" v="school" />
		<tag k="name" v="Bryn skole" />
		<tag k="ssr:stedsnr" v="567950" />
	</node>
	<node lat="59.920349998718784" lon="10.463811117339553" id="-28812">
		<tag k="name" v="Gata" />
		<tag k="place" v="farm" />
		<tag k="ssr:stedsnr" v="568060" />
	</node>
	<node lat="59.92045555124694" lon="10.476341674540652" id="-28813">
		<tag k="name" v="Angerst" />
		<tag k="place" v="locality" />
		<tag k="ssr:stedsnr" v="568080" />
	</node>
	<node lat="59.90597777425654" lon="10.572752774758335" id="-28814">
		<tag k="amenity" v="school" />
		<tag k="name" v="Ramstad skole" />
		<tag k="ssr:stedsnr" v="568890" />
	</node>
	<node lat="59.88628055513979" lon="10.456866673650191" id="-28817">
		<tag k="name" v="Løkka" />
		<tag k="place" v="farm" />
		<tag k="ssr:stedsnr" v="568597" />
	</node>
	<node lat="59.939308332357285" lon="10.498741663471321" id="-28822">
		<tag k="name" v="Ullern" />
		<tag k="place" v="locality" />
		<tag k="ssr:stedsnr" v="568944" />
	</node>
	<node lat="59.93431388612347" lon="10.496986112982462" id="-28823">
		<tag k="name" v="Sletta" />
		<tag k="place" v="isolated_dwelling" />
		<tag k="ssr:stedsnr" v="568953" />
	</node>
	<node lat="59.979922984516485" lon="10.46571116128672" id="-28831">
		<tag k="name" v="By" />
		<tag k="place" v="farm" />
		<tag k="ssr:stedsnr" v="610018" />
	</node>
	<node lat="59.969857979415" lon="10.42122572686053" id="-28832">
		<tag k="name" v="Rognlia" />
		<tag k="place" v="farm" />
		<tag k="ssr:stedsnr" v="610028" />
	</node>
	<node lat="59.971822467031444" lon="10.388859924259108" id="-28833">
		<tag k="name" v="Knappnæring" />
		<tag k="place" v="isolated_dwelling" />
		<tag k="ssr:stedsnr" v="610030" />
	</node>
	<node lat="59.96019999972933" lon="10.547827782162154" id="-28841">
		<tag k="alt_name" v="Nygård" />
		<tag k="name" v="Nygard" />
		<tag k="place" v="farm" />
		<tag k="ssr:stedsnr" v="611062" />
	</node>
	<node lat="59.89831944786219" lon="10.512113896556096" id="-28844">
		<tag k="amenity" v="hospital" />
		<tag k="name" v="Bærum sykehus" />
		<tag k="ssr:stedsnr" v="628882" />
	</node>
	<node lat="59.95251944812441" lon="10.483297222517495" id="-28849">
		<tag k="alt_name" v="Haug øvre" />
		<tag k="name" v="Øvre Haug" />
		<tag k="place" v="farm" />
		<tag k="ssr:stedsnr" v="628892" />
	</node>
	<node lat="59.93469444143927" lon="10.575305553056568" id="-28850">
		<tag k="amenity" v="school" />
		<tag k="name" v="Haug skole" />
		<tag k="ssr:stedsnr" v="628978" />
	</node>
	<node lat="59.92257222605938" lon="10.587697215600114" id="-28851">
		<tag k="amenity" v="school" />
		<tag k="name" v="Bekkestua skole" />
		<tag k="ssr:stedsnr" v="628990" />
	</node>
	<node lat="59.9367222223365" lon="10.574099993299424" id="-28852">
		<tag k="alt_name" v="Haug nordre" />
		<tag k="name" v="Nordre Haug" />
		<tag k="place" v="farm" />
		<tag k="ssr:stedsnr" v="628994" />
	</node>
	<node lat="59.922197225033756" lon="10.449527784595746" id="-28853">
		<tag k="alt_name" v="Sand nedre" />
		<tag k="name" v="Nedre Sand" />
		<tag k="place" v="farm" />
		<tag k="ssr:stedsnr" v="629071" />
	</node>
	<node lat="59.923747218397835" lon="10.465947224252679" id="-28854">
		<tag k="alt_name" v="Økern vestre" />
		<tag k="name" v="Vestre Økern" />
		<tag k="place" v="farm" />
		<tag k="ssr:stedsnr" v="629080" />
	</node>
	<node lat="59.976913887154616" lon="10.476424999297286" id="-28859">
		<tag k="alt_name" v="Vensås øvre" />
		<tag k="name" v="Øvre Vensås" />
		<tag k="place" v="farm" />
		<tag k="ssr:stedsnr" v="629978" />
	</node>
	<node lat="59.972031325876046" lon="10.37167954155479" id="-28861">
		<tag k="fixme" v="consider tourism=alpine_hut or tourism=chalet" />
		<tag k="name" v="Mustadkroken" />
		<tag k="ssr:stedsnr" v="631121" />
		<tag k="tourism" v="wilderness_hut" />
	</node>
	<node lat="59.91363055328852" lon="10.511913895741248" id="-28863">
		<tag k="name" v="Kolsås" />
		<tag k="place" v="quarter" />
		<tag k="ssr:stedsnr" v="632931" />
	</node>
	<node lat="59.90699999812654" lon="10.527994441401507" id="-28869">
		<tag k="alt_name" v="Gjettum, søndre" />
		<tag k="name" v="Søndre Gjettum" />
		<tag k="place" v="farm" />
		<tag k="ssr:stedsnr" v="732887" />
	</node>
	<node lat="59.88968055193477" lon="10.633316663997189" id="-28870">
		<tag k="name" v="Pælvika" />
		<tag k="place" v="locality" />
		<tag k="ssr:stedsnr" v="732844" />
	</node>
	<node lat="59.922813889962526" lon="10.436386103360515" id="-28871">
		<tag k="alt_name" v="Linbråten" />
		<tag k="name" v="Linbråtan" />
		<tag k="place" v="farm" />
		<tag k="ssr:stedsnr" v="732936" />
	</node>
	<node lat="59.94541666272479" lon="10.504155562332805" id="-28872">
		<tag k="name" v="Sleiverud" />
		<tag k="place" v="farm" />
		<tag k="ssr:stedsnr" v="732979" />
	</node>
	<node lat="59.94427898779532" lon="10.602712626717308" id="-28873">
		<tag k="name" v="Østerås" />
		<tag k="place" v="farm" />
		<tag k="ssr:stedsnr" v="732983" />
	</node>
	<node lat="59.95040120311967" lon="10.622650114471128" id="-28875">
		<tag k="name" v="Grini" />
		<tag k="place" v="farm" />
		<tag k="ssr:stedsnr" v="732992" />
	</node>
	<node lat="59.92944999858911" lon="10.472249998342294" id="-28876">
		<tag k="name" v="Berger" />
		<tag k="place" v="farm" />
		<tag k="ssr:stedsnr" v="733484" />
	</node>
	<node lat="59.9178805598941" lon="10.432652784131944" id="-28881">
		<tag k="name" v="Holmenløkka" />
		<tag k="place" v="farm" />
		<tag k="ssr:stedsnr" v="750038" />
	</node>
	<node lat="59.933844444186605" lon="10.43469444450027" id="-28883">
		<tag k="amenity" v="social_facility" />
		<tag k="name" v="Nordby" />
		<tag k="social_facility" v="group_home" />
		<tag k="ssr:stedsnr" v="750053" />
	</node>
	<node lat="59.929000003226164" lon="10.436883341687984" id="-28884">
		<tag k="name" v="Åsen" />
		<tag k="place" v="farm" />
		<tag k="ssr:stedsnr" v="750059" />
	</node>
	<node lat="59.93416944462311" lon="10.476113893342054" id="-28885">
		<tag k="amenity" v="nursing_home" />
		<tag k="name" v="Sjømennenes helseheim" />
		<tag k="ssr:stedsnr" v="750062" />
	</node>
	<node lat="59.905825001636195" lon="10.512972227885747" id="-28887">
		<tag k="name" v="Elverksbygningen" />
		<tag k="place" v="neighbourhood" />
		<tag k="ssr:stedsnr" v="750968" />
	</node>
	<node lat="59.9185388887343" lon="10.600683329540514" id="-28889">
		<tag k="amenity" v="school" />
		<tag k="name" v="Ringstabekk skole" />
		<tag k="ssr:stedsnr" v="750995" />
	</node>
	<node lat="59.93476944778265" lon="10.55636389408995" id="-28890">
		<tag k="name" v="Lønli" />
		<tag k="place" v="farm" />
		<tag k="ssr:stedsnr" v="750998" />
	</node>
	<node lat="59.895105554269065" lon="10.491338896035481" id="-28898">
		<tag k="amenity" v="nursing_home" />
		<tag k="name" v="Akershus vernepleierskole" />
		<tag k="ssr:stedsnr" v="751558" />
	</node>
	<node lat="59.969828856382975" lon="10.464255736896808" id="-28904">
		<tag k="alt_name" v="Jonsrud, øvre;Jonsrud øvre" />
		<tag k="name" v="Øvre Jonsrud" />
		<tag k="place" v="farm" />
		<tag k="ssr:stedsnr" v="792031" />
	</node>
	<node lat="59.880015012890915" lon="10.465567258421732" id="-28906">
		<tag k="name" v="Furuset" />
		<tag k="place" v="farm" />
		<tag k="ssr:stedsnr" v="792823" />
	</node>
	<node lat="59.8836061496721" lon="10.469900160519007" id="-28907">
		<tag k="name" v="Staver" />
		<tag k="place" v="farm" />
		<tag k="ssr:stedsnr" v="792826" />
	</node>
	<node lat="59.96032504261064" lon="10.490226270361047" id="-28910">
		<tag k="name" v="Hellerud" />
		<tag k="place" v="farm" />
		<tag k="ssr:stedsnr" v="793019" />
	</node>
	<node lat="59.96213611095095" lon="10.511433331936363" id="-28911">
		<tag k="name" v="Solli" />
		<tag k="place" v="farm" />
		<tag k="ssr:stedsnr" v="793024" />
	</node>
	<node lat="59.90834721875383" lon="10.438486117503608" id="-28913">
		<tag k="name" v="Jordbru" />
		<tag k="place" v="locality" />
		<tag k="ssr:stedsnr" v="793900" />
	</node>
	<node lat="59.88771666304191" lon="10.466466666124969" id="-28915">
		<tag k="name" v="Bjerketun" />
		<tag k="place" v="isolated_dwelling" />
		<tag k="ssr:stedsnr" v="793862" />
	</node>
	<node lat="59.922735465446785" lon="10.47073461340326" id="-28916">
		<tag k="name" v="Økern" />
		<tag k="place" v="farm" />
		<tag k="ssr:stedsnr" v="793953" />
	</node>
	<node lat="59.936036113281574" lon="10.464713886624159" id="-28917">
		<tag k="name" v="Nordby" />
		<tag k="place" v="farm" />
		<tag k="ssr:stedsnr" v="793965" />
	</node>
	<node lat="59.9117611118851" lon="10.464591673827561" id="-28923">
		<tag k="name" v="Bekkeløkka" />
		<tag k="place" v="farm" />
		<tag k="ssr:stedsnr" v="811061" />
	</node>
	<node lat="59.91041110841315" lon="10.468724996715459" id="-28924">
		<tag k="name" v="Ringvoll" />
		<tag k="place" v="village" />
		<tag k="ssr:stedsnr" v="811062" />
	</node>
	<node lat="59.90500555711855" lon="10.60472777842057" id="-28934">
		<tag k="amenity" v="school" />
		<tag k="name" v="NKI-skolen" />
		<tag k="ssr:stedsnr" v="811105" />
	</node>
	<node lat="59.947438887403685" lon="10.514288884632208" id="-28936">
		<tag k="name" v="Grorudbråtan" />
		<tag k="place" v="farm" />
		<tag k="ssr:stedsnr" v="811111" />
	</node>
	<node lat="59.94710000145127" lon="10.515186115064337" id="-28937">
		<tag k="name" v="Linderud" />
		<tag k="place" v="farm" />
		<tag k="ssr:stedsnr" v="811116" />
	</node>
	<node lat="59.900449997475796" lon="10.573975004667947" id="-28940">
		<tag k="alt_name" v="Høvik søndre" />
		<tag k="name" v="Søndre Høvik" />
		<tag k="place" v="farm" />
		<tag k="ssr:stedsnr" v="811871" />
	</node>
	<node lat="59.91659999801435" lon="10.593274996947573" id="-28942">
		<tag k="name" v="Ringstabekk" />
		<tag k="place" v="quarter" />
		<tag k="ssr:stedsnr" v="811879" />
	</node>
	<node lat="59.907197224976024" lon="10.512022220737297" id="-28946">
		<tag k="alt_name" v="Levre nordre" />
		<tag k="name" v="Nordre Levre" />
		<tag k="place" v="farm" />
		<tag k="ssr:stedsnr" v="811969" />
	</node>
	<node lat="59.906144447455965" lon="10.511008341206741" id="-28947">
		<tag k="building" v="civic" />
		<tag k="name" v="Gjettum brannstasjon" />
		<tag k="ssr:stedsnr" v="811971" />
	</node>
	<node lat="59.86657500155431" lon="10.557972225477336" id="-28952">
		<tag k="name" v="Ostomnen" />
		<tag k="place" v="locality" />
		<tag k="ssr:stedsnr" v="812264" />
	</node>
	<node lat="59.91774840394028" lon="10.587330212116711" id="-28955">
		<tag k="name" v="Bekkestua" />
		<tag k="place" v="quarter" />
		<tag k="ssr:stedsnr" v="816967" />
	</node>
	<node lat="59.938330551874095" lon="10.427897228796393" id="-28956">
		<tag k="building" v="industrial" />
		<tag k="industrial" v="factory" />
		<tag k="name" v="Bjørumsaga" />
		<tag k="old_name" v="Bjørumssaga;Bjørum sag" />
		<tag k="ssr:stedsnr" v="830956" />
	</node>
	<node lat="59.94789888122829" lon="10.56249649588217" id="-28957">
		<tag k="fixme" v="consider tourism=alpine_hut or tourism=chalet" />
		<tag k="name" v="Sæteren Gård" />
		<tag k="old_name" v="Sæteren;Sætra" />
		<tag k="ssr:stedsnr" v="843114" />
		<tag k="tourism" v="wilderness_hut" />
	</node>
	<node lat="59.96165267342197" lon="10.62566610747445" id="-28961">
		<tag k="name" v="Fossum" />
		<tag k="place" v="farm" />
		<tag k="ssr:stedsnr" v="854041" />
	</node>
	<node lat="59.897086109898105" lon="10.417005547798194" id="-28962">
		<tag k="alt_name" v="Rolihølet" />
		<tag k="name" v="Roligholet" />
		<tag k="place" v="isolated_dwelling" />
		<tag k="ssr:stedsnr" v="854884" />
	</node>
	<node lat="59.89706476539538" lon="10.47804316611985" id="-28963">
		<tag k="name" v="Tanum" />
		<tag k="place" v="farm" />
		<tag k="ssr:stedsnr" v="854887" />
	</node>
	<node lat="59.92223639593813" lon="10.447833525225061" id="-28964">
		<tag k="name" v="Sand" />
		<tag k="place" v="farm" />
		<tag k="ssr:stedsnr" v="854932" />
	</node>
	<node lat="59.918296893865026" lon="10.455491635186146" id="-28965">
		<tag k="name" v="Kveise" />
		<tag k="place" v="farm" />
		<tag k="ssr:stedsnr" v="854935" />
	</node>
	<node lat="59.926622219203146" lon="10.441119441424927" id="-28966">
		<tag k="leisure" v="pitch" />
		<tag k="name" v="Skuibakken" />
		<tag k="ssr:stedsnr" v="854939" />
	</node>
	<node lat="59.9433434659144" lon="10.578005400105319" id="-28967">
		<tag k="name" v="Haga" />
		<tag k="place" v="farm" />
		<tag k="ssr:stedsnr" v="854967" />
	</node>
	<node lat="59.941472287665796" lon="10.502734769166542" id="-28968">
		<tag k="name" v="Bærums verk" />
		<tag k="place" v="quarter" />
		<tag k="ssr:stedsnr" v="854972" />
	</node>
	<node lat="59.94253333511575" lon="10.598616660158354" id="-28969">
		<tag k="name" v="Lønnås" />
		<tag k="old_name" v="Lønås" />
		<tag k="place" v="farm" />
		<tag k="ssr:stedsnr" v="854979" />
	</node>
	<node lat="59.949405802646716" lon="10.600063246462204" id="-28970">
		<tag k="name" v="Nordby" />
		<tag k="place" v="farm" />
		<tag k="ssr:stedsnr" v="854983" />
	</node>
	<node lat="59.95659166375796" lon="10.61775278387791" id="-28971">
		<tag k="name" v="Haugen" />
		<tag k="place" v="farm" />
		<tag k="ssr:stedsnr" v="854984" />
	</node>
	<node lat="59.93983610705706" lon="10.402638892743953" id="-28972">
		<tag k="alt_name" v="Ullbråten nordre" />
		<tag k="name" v="Nordre Ullbråten" />
		<tag k="place" v="farm" />
		<tag k="ssr:stedsnr" v="871033" />
	</node>
	<node lat="59.90406389202237" lon="10.48135832468253" id="-28973">
		<tag k="aerialway" v="drag_lift" />
		<tag k="fixme" v="consider the other aerialway types" />
		<tag k="name" v="Kirkerudbakken" />
		<tag k="ssr:stedsnr" v="871044" />
	</node>
	<node lat="59.915408335002404" lon="10.46645832764152" id="-28974">
		<tag k="name" v="Hornienga" />
		<tag k="place" v="farm" />
		<tag k="ssr:stedsnr" v="871053" />
	</node>
	<node lat="59.95414722084579" lon="10.584991665479878" id="-28979">
		<tag k="alt_name" v="Ila øvre" />
		<tag k="name" v="Øvre Ila" />
		<tag k="place" v="locality" />
		<tag k="ssr:stedsnr" v="871864" />
	</node>
	<node lat="59.90274444178528" lon="10.572016664857742" id="-28981">
		<tag k="amenity" v="school" />
		<tag k="name" v="Høvik skole" />
		<tag k="ssr:stedsnr" v="871877" />
	</node>
	<node lat="59.90127221913664" lon="10.500944441045357" id="-28982">
		<tag k="amenity" v="nursing_home" />
		<tag k="name" v="Marie Plahtes Minde" />
		<tag k="ssr:stedsnr" v="871973" />
	</node>
	<node lat="59.9146666672527" lon="10.50796945167955" id="-28983">
		<tag k="amenity" v="hospital" />
		<tag k="name" v="Kolsås sykehjem" />
		<tag k="ssr:stedsnr" v="871978" />
	</node>
	<node lat="59.91015000242398" lon="10.50614166427702" id="-28984">
		<tag k="amenity" v="school" />
		<tag k="name" v="Hauger skole" />
		<tag k="ssr:stedsnr" v="871982" />
	</node>
	<node lat="59.92356666813114" lon="10.562447222895708" id="-28985">
		<tag k="alt_name" v="Haslum vestre" />
		<tag k="name" v="Vestre Haslum" />
		<tag k="place" v="farm" />
		<tag k="ssr:stedsnr" v="871990" />
	</node>
	<node lat="59.93626389180095" lon="10.544463883699919" id="-28986">
		<tag k="name" v="Sagstua" />
		<tag k="place" v="isolated_dwelling" />
		<tag k="ssr:stedsnr" v="871996" />
	</node>
	<node lat="59.89420833716679" lon="10.4564583405916" id="-28987">
		<tag k="alt_name" v="Ringi nedre" />
		<tag k="name" v="Nedre Ringi" />
		<tag k="place" v="farm" />
		<tag k="ssr:stedsnr" v="872633" />
	</node>
	<node lat="59.913577776735174" lon="10.408344437583743" id="-28994">
		<tag k="loc_name" v="Langåshytta" />
		<tag k="name" v="Ramsåshytta" />
		<tag k="place" v="isolated_dwelling" />
		<tag k="ssr:stedsnr" v="932039" />
	</node>
	<node lat="59.9337126355316" lon="10.554024158946099" id="-28995">
		<tag k="name" v="Gardlaus" />
		<tag k="place" v="farm" />
		<tag k="ssr:stedsnr" v="932981" />
	</node>
	<node lat="59.932083330284655" lon="10.576283324282315" id="-28996">
		<tag k="alt_name" v="Hosle søndre" />
		<tag k="name" v="Søndre Hosle" />
		<tag k="place" v="farm" />
		<tag k="ssr:stedsnr" v="932985" />
	</node>
	<node lat="59.93007500142777" lon="10.480777786313734" id="-28998">
		<tag k="amenity" v="school" />
		<tag k="name" v="Gommerud skole" />
		<tag k="ssr:stedsnr" v="933067" />
	</node>
	<node lat="59.92933888674874" lon="10.44236389548261" id="-28999">
		<tag k="fixme" v="multiple name tags, choose one and add the other to alt_name" />
		<tag k="name" v="Nordre Skui;Hagabråten" />
		<tag k="place" v="farm" />
		<tag k="ssr:stedsnr" v="933068" />
	</node>
	<node lat="59.91879444210826" lon="10.462980550455885" id="-29000">
		<tag k="name" v="England" />
		<tag k="place" v="farm" />
		<tag k="ssr:stedsnr" v="933070" />
	</node>
	<node lat="59.9731916670761" lon="10.576441670895326" id="-29002">
		<tag k="name" v="Skillebekkhytta" />
		<tag k="place" v="isolated_dwelling" />
		<tag k="ssr:stedsnr" v="932871" />
	</node>
	<node lat="59.899708333988116" lon="10.595149995158168" id="-29004">
		<tag k="amenity" v="cafe" />
		<tag k="name" v="Strand restaurant" />
		<tag k="ssr:stedsnr" v="932881" />
	</node>
	<node lat="59.89628888738859" lon="10.517361102350325" id="-29005">
		<tag k="name" v="Hagelund" />
		<tag k="place" v="farm" />
		<tag k="ssr:stedsnr" v="933565" />
	</node>
	<node lat="59.86861175922232" lon="10.580558924556575" id="-30029">
		<tag k="alt_name" v="Ostøya" />
		<tag k="name" v="Oust" />
		<tag k="place" v="farm" />
		<tag k="ssr:stedsnr" v="1075055" />
	</node>
	<node lat="59.87174269412063" lon="10.566672497105762" id="-30030">
		<tag k="name" v="Oust skog" />
		<tag k="place" v="farm" />
		<tag k="ssr:stedsnr" v="1075063" />
	</node>
	<node lat="59.923938107038985" lon="10.563276061857852" id="-30032">
		<tag k="name" v="Haslum" />
		<tag k="place" v="farm" />
		<tag k="ssr:stedsnr" v="1078433" />
	</node>
	<node lat="59.91986496914138" lon="10.45376109970899" id="-30033">
		<tag k="name" v="Skui" />
		<tag k="place" v="farm" />
		<tag k="ssr:stedsnr" v="1078436" />
	</node>
	<node lat="59.91045238016962" lon="10.527683222819068" id="-30034">
		<tag k="name" v="Gjettum" />
		<tag k="place" v="farm" />
		<tag k="ssr:stedsnr" v="1078437" />
	</node>
	<node lat="59.89754731124138" lon="10.477338839373491" id="-30038">
		<tag k="name" v="Nordre Tanum" />
		<tag k="place" v="farm" />
		<tag k="ssr:stedsnr" v="1080231" />
	</node>
	<node lat="59.90681609268795" lon="10.535032683040896" id="-30040">
		<tag k="amenity" v="nursing_home" />
		<tag k="name" v="Lindelia sykehjem" />
		<tag k="ssr:stedsnr" v="1081488" />
	</node>
	<node lat="59.9009082891041" lon="10.502704870807975" id="-30041">
		<tag k="amenity" v="nursing_home" />
		<tag k="name" v="Carpe Diem demenslandsby" />
		<tag k="ssr:stedsnr" v="1081498" />
	</node>
	<node lat="59.95679647180263" lon="10.612711615200693" id="-30057">
		<tag k="name" v="Solveg" />
		<tag k="place" v="farm" />
		<tag k="ssr:stedsnr" v="1083258" />
	</node>
	<node lat="59.87704215337745" lon="10.58916602553492" id="-30059">
		<tag k="name" v="Framnes" />
		<tag k="place" v="farm" />
		<tag k="ssr:stedsnr" v="1083363" />
	</node>
	<node lat="59.9004312658974" lon="10.608686568751327" id="-30084">
		<tag k="name" v="Solstua" />
		<tag k="place" v="isolated_dwelling" />
		<tag k="ssr:stedsnr" v="1085082" />
	</node>
	<node lat="59.91463774579688" lon="10.622787155481186" id="-30085">
		<tag k="name" v="Symrebakken" />
		<tag k="place" v="farm" />
		<tag k="ssr:stedsnr" v="1085161" />
	</node>
</osm>
