<?xml version="1.0" encoding="UTF-8"?>
<<<<<<< HEAD
<osm version="0.6" generator="osmapis">
	<node lat="59.925405555685494" lon="10.53395278478116" id="-13163">
		<tag k="fixme" v="consider boundary=protected_area and relevant protect_class if not nature reserve" />
		<tag k="leisure" v="nature_reserve" />
		<tag k="name" v="Dalbo naturreservat" />
		<tag k="ssr:stedsnr" v="22997" />
	</node>
	<node lat="59.93795833076179" lon="10.550913896439438" id="-13194">
		<tag k="fixme" v="consider boundary=protected_area and relevant protect_class if not nature reserve" />
		<tag k="leisure" v="nature_reserve" />
		<tag k="name" v="Gardlaushøgda naturreservat" />
		<tag k="ssr:stedsnr" v="243000" />
	</node>
	<node lat="59.93537778117447" lon="10.504294453314236" id="-13705">
=======
<osm generator="osmapis" version="0.6">
	<node id="-248760" lat="59.9428804238" lon="10.473263956">
		<tag k="fixme" v="consider boundary=protected_area and relevant protect_class if not nature reserve" />
		<tag k="leisure" v="nature_reserve" />
		<tag k="name" v="Eine naturreservat" />
		<tag k="ssr:stedsnr" v="989151" />
	</node>
	<node id="-247575" lat="59.9379583308" lon="10.5509138964">
		<tag k="fixme" v="consider boundary=protected_area and relevant protect_class if not nature reserve" />
		<tag k="leisure" v="nature_reserve" />
		<tag k="name" v="Gardlaushøgda naturreservat" />
		<tag k="ssr:stedsnr" v="243000" />
	</node>
	<node id="-248116" lat="59.9254055557" lon="10.5339527848">
		<tag k="fixme" v="consider boundary=protected_area and relevant protect_class if not nature reserve" />
		<tag k="leisure" v="nature_reserve" />
		<tag k="name" v="Dalbo naturreservat" />
		<tag k="ssr:stedsnr" v="22997" />
	</node>
	<node id="-248563" lat="59.9005305598" lon="10.4469611078">
>>>>>>> e1d4bc35ff8a6074a6f2e91616a996b547c36f15
		<tag k="fixme" v="consider boundary=protected_area and relevant protect_class if not nature reserve" />
		<tag k="leisure" v="nature_reserve" />
		<tag k="name" v="Ringiåsen naturreservat" />
		<tag k="ssr:stedsnr" v="605998" />
	</node>
	<node id="-248082" lat="59.8919655751" lon="10.6208859385">
		<tag k="name" v="Fornebulandet sokn" />
		<tag k="old_name" v="Lysaker/Snarøya sokn" />
		<tag k="place" v="hamlet" />
		<tag k="ssr:stedsnr" v="971502" />
	</node>
<<<<<<< HEAD
	<node lat="59.97164144693468" lon="10.40524333289964" id="-13841">
=======
	<node id="-248145" lat="59.9718194428" lon="10.4046527743">
>>>>>>> e1d4bc35ff8a6074a6f2e91616a996b547c36f15
		<tag k="fixme" v="consider boundary=protected_area and relevant protect_class if not nature reserve" />
		<tag k="leisure" v="nature_reserve" />
		<tag k="name" v="Djupdalen og Kjaglidalen naturreservat" />
		<tag k="ssr:stedsnr" v="60491" />
	</node>
<<<<<<< HEAD
	<node lat="59.92731667024343" lon="10.516291659023823" id="-14049">
=======
	<node id="-248784" lat="59.9032765069" lon="10.5547226526">
>>>>>>> e1d4bc35ff8a6074a6f2e91616a996b547c36f15
		<tag k="fixme" v="consider boundary=protected_area and relevant protect_class if not nature reserve" />
		<tag k="leisure" v="nature_reserve" />
		<tag k="name" v="Kloppa naturreservat" />
		<tag k="ssr:stedsnr" v="1074750" />
	</node>
<<<<<<< HEAD
	<node lat="59.90053055981721" lon="10.446961107752024" id="-14177">
		<tag k="fixme" v="consider boundary=protected_area and relevant protect_class if not nature reserve" />
		<tag k="leisure" v="nature_reserve" />
		<tag k="name" v="Ringiåsen naturreservat" />
		<tag k="ssr:stedsnr" v="605998" />
	</node>
	<node lat="59.92661944391381" lon="10.511969452444747" id="-14294">
		<tag k="fixme" v="consider boundary=protected_area and relevant protect_class if not nature reserve" />
		<tag k="leisure" v="nature_reserve" />
		<tag k="name" v="Kolsåsstupene naturreservat" />
		<tag k="ssr:stedsnr" v="811944" />
	</node>
	<node lat="59.89196557512856" lon="10.620885938497754" id="-14351">
		<tag k="name" v="Fornebulandet sokn" />
		<tag k="old_name" v="Lysaker/Snarøya sokn" />
		<tag k="place" v="hamlet" />
		<tag k="ssr:stedsnr" v="971502" />
	</node>
	<node lat="59.893682512785254" lon="10.39227298811884" id="-14359">
=======
	<node id="-248012" lat="59.9266194439" lon="10.5119694524">
		<tag k="fixme" v="consider boundary=protected_area and relevant protect_class if not nature reserve" />
		<tag k="leisure" v="nature_reserve" />
		<tag k="name" v="Kolsåsstupene naturreservat" />
		<tag k="ssr:stedsnr" v="811944" />
	</node>
	<node id="-248011" lat="59.9353777812" lon="10.5042944533">
		<tag k="fixme" v="consider boundary=protected_area and relevant protect_class if not nature reserve" />
		<tag k="leisure" v="nature_reserve" />
		<tag k="name" v="Kolsås landskapsvernområde" />
		<tag k="ssr:stedsnr" v="811941" />
	</node>
	<node id="-248759" lat="59.8936825128" lon="10.3922729881">
>>>>>>> e1d4bc35ff8a6074a6f2e91616a996b547c36f15
		<tag k="fixme" v="consider boundary=protected_area and relevant protect_class if not nature reserve" />
		<tag k="leisure" v="nature_reserve" />
		<tag k="name" v="Vassmyråsen naturreservat" />
		<tag k="ssr:stedsnr" v="989150" />
	</node>
<<<<<<< HEAD
	<node lat="59.942880423847335" lon="10.473263956004198" id="-14360">
		<tag k="fixme" v="consider boundary=protected_area and relevant protect_class if not nature reserve" />
		<tag k="leisure" v="nature_reserve" />
		<tag k="name" v="Eine naturreservat" />
		<tag k="ssr:stedsnr" v="989151" />
	</node>
	<node lat="59.90327650690925" lon="10.55472265258188" id="-14381">
		<tag k="fixme" v="consider boundary=protected_area and relevant protect_class if not nature reserve" />
		<tag k="leisure" v="nature_reserve" />
		<tag k="name" v="Kloppa naturreservat" />
		<tag k="ssr:stedsnr" v="1074750" />
=======
	<node id="-248451" lat="59.9273166702" lon="10.516291659">
		<tag k="fixme" v="consider boundary=protected_area and relevant protect_class if not nature reserve" />
		<tag k="leisure" v="nature_reserve" />
		<tag k="name" v="Kolsåstoppen naturreservat" />
		<tag k="ssr:stedsnr" v="386933" />
>>>>>>> e1d4bc35ff8a6074a6f2e91616a996b547c36f15
	</node>
</osm>
