<?xml version="1.0" encoding="UTF-8"?>
<<<<<<< HEAD
<osm version="0.6" generator="osmapis">
	<node lat="59.908480248442906" lon="10.607649140745622" id="-13148">
		<tag k="name" v="Stabekk stasjon" />
		<tag k="railway" v="station" />
		<tag k="ssr:stedsnr" v="4922" />
		<tag k="train" v="yes" />
	</node>
	<node lat="59.896097217894024" lon="10.560347227176957" id="-13174">
		<tag k="alt_name" v="Solvikvegen" />
		<tag k="bridge" v="yes" />
		<tag k="layer" v="1" />
		<tag k="name" v="Solvikveien kulvert" />
		<tag k="ssr:stedsnr" v="46102" />
	</node>
	<node lat="59.946147224992025" lon="10.594211111379153" id="-13175">
		<tag k="bridge" v="yes" />
		<tag k="layer" v="1" />
		<tag k="name" v="Østerndalen" />
		<tag k="ssr:stedsnr" v="46092" />
	</node>
	<node lat="59.88779999970158" lon="10.523286103579231" id="-13256">
		<tag k="bridge" v="yes" />
		<tag k="layer" v="1" />
		<tag k="name" v="Kjørbo" />
		<tag k="ssr:stedsnr" v="167107" />
	</node>
	<node lat="59.892180556239154" lon="10.514125000855975" id="-13257">
		<tag k="bridge" v="yes" />
		<tag k="layer" v="1" />
		<tag k="name" v="Hamangskogen" />
		<tag k="ssr:stedsnr" v="167122" />
	</node>
	<node lat="59.89908888737741" lon="10.568833331791298" id="-13268">
		<tag k="highway" v="bus_stop" />
		<tag k="name" v="Ramstad" />
		<tag k="ssr:stedsnr" v="186889" />
	</node>
	<node lat="59.90606111154955" lon="10.52151665928927" id="-13286">
		<tag k="name" v="Gjettum" />
		<tag k="railway" v="station" />
		<tag k="ssr:stedsnr" v="264981" />
		<tag k="train" v="yes" />
	</node>
	<node lat="59.89308055537229" lon="10.507841664217445" id="-13319">
		<tag k="junction" v="yes" />
		<tag k="name" v="Bjørnegård" />
		<tag k="place" v="locality" />
		<tag k="ssr:stedsnr" v="205591" />
	</node>
	<node lat="59.90292499614596" lon="10.493730546490001" id="-13322">
		<tag k="bridge" v="yes" />
		<tag k="layer" v="1" />
		<tag k="name" v="Vebekk" />
		<tag k="ssr:stedsnr" v="228102" />
	</node>
	<node lat="59.921813888042095" lon="10.498294446398644" id="-13323">
		<tag k="bridge" v="yes" />
		<tag k="layer" v="1" />
		<tag k="name" v="Kremlegrenda" />
		<tag k="ssr:stedsnr" v="228108" />
	</node>
	<node lat="59.90975277930989" lon="10.559416668099738" id="-13324">
		<tag k="bridge" v="yes" />
		<tag k="layer" v="1" />
		<tag k="name" v="Løkkeberg" />
		<tag k="ssr:stedsnr" v="228109" />
	</node>
	<node lat="59.9277166661131" lon="10.49579166263265" id="-13325">
		<tag k="bridge" v="yes" />
		<tag k="layer" v="1" />
		<tag k="name" v="Glitredammen" />
		<tag k="ssr:stedsnr" v="228111" />
	</node>
	<node lat="59.911051320658224" lon="10.510369433401031" id="-13340">
		<tag k="name" v="Hauger" />
		<tag k="railway" v="halt" />
		<tag k="ssr:stedsnr" v="264991" />
		<tag k="train" v="yes" />
	</node>
	<node lat="59.91220833572827" lon="10.634461103621469" id="-13350">
		<tag k="bridge" v="yes" />
		<tag k="layer" v="1" />
		<tag k="name" v="Vollsveien P-hus" />
		<tag k="ssr:stedsnr" v="289081" />
	</node>
	<node lat="59.90816944086788" lon="10.53388056305861" id="-13351">
		<tag k="bridge" v="yes" />
		<tag k="layer" v="1" />
		<tag k="name" v="Gjettum" />
		<tag k="ssr:stedsnr" v="289104" />
	</node>
	<node lat="59.88766388756201" lon="10.501036113123062" id="-13377">
		<tag k="junction" v="yes" />
		<tag k="name" v="Jong" />
		<tag k="place" v="locality" />
		<tag k="ssr:stedsnr" v="326570" />
	</node>
	<node lat="59.910958337618524" lon="10.627408335099016" id="-13383">
		<tag k="bridge" v="yes" />
		<tag k="layer" v="1" />
		<tag k="name" v="Tjernsmyr" />
		<tag k="ssr:stedsnr" v="471096" />
	</node>
	<node lat="59.90326944308465" lon="10.596930555328548" id="-13384">
		<tag k="bridge" v="yes" />
		<tag k="layer" v="1" />
		<tag k="name" v="Strand" />
		<tag k="ssr:stedsnr" v="471098" />
	</node>
	<node lat="59.932347225684275" lon="10.436761116905544" id="-13385">
		<tag k="bridge" v="yes" />
		<tag k="layer" v="1" />
		<tag k="name" v="Sølvholen" />
		<tag k="ssr:stedsnr" v="349118" />
	</node>
	<node lat="59.91175833560254" lon="10.506411104441948" id="-13386">
		<tag k="bridge" v="yes" />
		<tag k="layer" v="1" />
		<tag k="name" v="Kløftaveien" />
		<tag k="ssr:stedsnr" v="349119" />
	</node>
	<node lat="59.91438055678385" lon="10.551677772318337" id="-13415">
		<tag k="name" v="Avløs stasjon" />
		<tag k="railway" v="station" />
		<tag k="ssr:stedsnr" v="386894" />
		<tag k="train" v="yes" />
	</node>
	<node lat="59.898000003995634" lon="10.5575694488096" id="-13419">
		<tag k="bridge" v="yes" />
		<tag k="layer" v="1" />
		<tag k="name" v="Stasjonsveien" />
		<tag k="ssr:stedsnr" v="410104" />
	</node>
	<node lat="59.94988333054002" lon="10.61893889471036" id="-13420">
		<tag k="bridge" v="yes" />
		<tag k="layer" v="1" />
		<tag k="name" v="Listuveien" />
		<tag k="ssr:stedsnr" v="410109" />
	</node>
	<node lat="59.89423332985238" lon="10.545169440428081" id="-13421">
		<tag k="bridge" v="yes" />
		<tag k="layer" v="1" />
		<tag k="name" v="Sandviksveien" />
		<tag k="ssr:stedsnr" v="410098" />
	</node>
	<node lat="59.892727781510146" lon="10.525208328864315" id="-13428">
		<tag k="name" v="Sandvika stasjon" />
		<tag k="railway" v="station" />
		<tag k="ssr:stedsnr" v="489856" />
		<tag k="train" v="yes" />
	</node>
	<node lat="59.888163892604446" lon="10.523936115506688" id="-13476">
=======
<osm generator="osmapis" version="0.6">
	<node id="-247782" lat="59.8927972246" lon="10.522402772">
		<tag k="junction" v="yes" />
		<tag k="name" v="Leif Tronstads plass" />
		<tag k="place" v="locality" />
		<tag k="ssr:stedsnr" v="508590" />
	</node>
	<node id="-248794" lat="59.9182057465" lon="10.6304003699">
		<tag k="bridge" v="yes" />
		<tag k="layer" v="1" />
		<tag k="name" v="Fåbru" />
		<tag k="old_name" v="Flåbru" />
		<tag k="ssr:stedsnr" v="689102" />
	</node>
	<node id="-248279" lat="59.9261972221" lon="10.619230558">
		<tag k="name" v="Jar" />
		<tag k="railway" v="halt" />
		<tag k="ssr:stedsnr" v="186943" />
		<tag k="train" v="yes" />
	</node>
	<node id="-248276" lat="59.9141327754" lon="10.5016199652">
		<tag k="name" v="Kolsås" />
		<tag k="railway" v="halt" />
		<tag k="ssr:stedsnr" v="186910" />
		<tag k="train" v="yes" />
	</node>
	<node id="-247630" lat="59.9060611115" lon="10.5215166593">
		<tag k="name" v="Gjettum" />
		<tag k="railway" v="station" />
		<tag k="ssr:stedsnr" v="264981" />
		<tag k="train" v="yes" />
	</node>
	<node id="-248270" lat="59.8990888874" lon="10.5688333318">
		<tag k="highway" v="bus_stop" />
		<tag k="name" v="Ramstad" />
		<tag k="ssr:stedsnr" v="186889" />
	</node>
	<node id="-248261" lat="59.8853884838" lon="10.50287813">
		<tag k="name" v="Slependen holdeplass" />
		<tag k="railway" v="halt" />
		<tag k="ssr:stedsnr" v="185829" />
		<tag k="train" v="yes" />
	</node>
	<node id="-248256" lat="59.9077861133" lon="10.4831861121">
>>>>>>> e1d4bc35ff8a6074a6f2e91616a996b547c36f15
		<tag k="bridge" v="yes" />
		<tag k="layer" v="1" />
		<tag k="name" v="Kjørbo kulvert" />
		<tag k="ssr:stedsnr" v="471102" />
	</node>
<<<<<<< HEAD
	<node lat="59.91302500117503" lon="10.491122216504758" id="-13477">
=======
	<node id="-248255" lat="59.8921805562" lon="10.5141250009">
>>>>>>> e1d4bc35ff8a6074a6f2e91616a996b547c36f15
		<tag k="bridge" v="yes" />
		<tag k="layer" v="1" />
		<tag k="name" v="Lomma" />
		<tag k="ssr:stedsnr" v="471105" />
	</node>
<<<<<<< HEAD
	<node lat="59.951386565413436" lon="10.63412886745212" id="-13493">
=======
	<node id="-248254" lat="59.9028222256" lon="10.4928666691">
>>>>>>> e1d4bc35ff8a6074a6f2e91616a996b547c36f15
		<tag k="bridge" v="yes" />
		<tag k="layer" v="1" />
		<tag k="name" v="Grini bru" />
		<tag k="ssr:stedsnr" v="507916" />
	</node>
<<<<<<< HEAD
	<node lat="59.89775277370681" lon="10.498424991096496" id="-13499">
=======
	<node id="-248253" lat="59.89446389" lon="10.5256999999">
>>>>>>> e1d4bc35ff8a6074a6f2e91616a996b547c36f15
		<tag k="bridge" v="yes" />
		<tag k="layer" v="1" />
		<tag k="name" v="Kalkmølla" />
		<tag k="ssr:stedsnr" v="531102" />
	</node>
<<<<<<< HEAD
	<node lat="59.90974167029832" lon="10.543177780702825" id="-13500">
=======
	<node id="-248252" lat="59.9059999995" lon="10.6291527846">
>>>>>>> e1d4bc35ff8a6074a6f2e91616a996b547c36f15
		<tag k="bridge" v="yes" />
		<tag k="layer" v="1" />
		<tag k="name" v="Durud" />
		<tag k="ssr:stedsnr" v="531108" />
	</node>
<<<<<<< HEAD
	<node lat="59.910097220947094" lon="10.545941675435154" id="-13501">
=======
	<node id="-248251" lat="59.9392027766" lon="10.5193055587">
>>>>>>> e1d4bc35ff8a6074a6f2e91616a996b547c36f15
		<tag k="bridge" v="yes" />
		<tag k="layer" v="1" />
		<tag k="name" v="Frøysveien" />
		<tag k="ssr:stedsnr" v="531109" />
	</node>
<<<<<<< HEAD
	<node lat="59.89726667101809" lon="10.499744436319258" id="-13502">
		<tag k="bridge" v="yes" />
		<tag k="layer" v="1" />
		<tag k="name" v="Hamang" />
		<tag k="ssr:stedsnr" v="531114" />
	</node>
	<node lat="59.92024999853544" lon="10.603533332663632" id="-13524">
		<tag k="name" v="Ringstabekk" />
		<tag k="railway" v="halt" />
		<tag k="ssr:stedsnr" v="689245" />
		<tag k="train" v="yes" />
	</node>
	<node lat="59.887255558900705" lon="10.632652784035027" id="-13539">
		<tag k="man_made" v="quay" />
		<tag k="name" v="Halden brygge" />
		<tag k="place" v="locality" />
		<tag k="ssr:stedsnr" v="691260" />
	</node>
	<node lat="59.888338892194845" lon="10.525397225534265" id="-13592">
		<tag k="bridge" v="yes" />
		<tag k="layer" v="1" />
		<tag k="name" v="Kadettangen" />
		<tag k="ssr:stedsnr" v="652103" />
	</node>
	<node lat="59.918205746476225" lon="10.630400369867031" id="-13613">
		<tag k="bridge" v="yes" />
		<tag k="layer" v="1" />
		<tag k="name" v="Fåbru" />
		<tag k="old_name" v="Flåbru" />
		<tag k="ssr:stedsnr" v="689102" />
	</node>
	<node lat="59.93041666448803" lon="10.565500003919178" id="-13626">
		<tag k="bridge" v="yes" />
		<tag k="layer" v="1" />
		<tag k="name" v="Øverland" />
		<tag k="ssr:stedsnr" v="713085" />
	</node>
	<node lat="59.945030554434844" lon="10.507455561786244" id="-13627">
		<tag k="bridge" v="yes" />
		<tag k="layer" v="1" />
		<tag k="name" v="Vigfoss" />
		<tag k="ssr:stedsnr" v="713089" />
	</node>
	<node lat="59.90885277503763" lon="10.609011106627104" id="-13628">
		<tag k="bridge" v="yes" />
		<tag k="layer" v="1" />
		<tag k="name" v="Stabekk" />
		<tag k="ssr:stedsnr" v="713097" />
	</node>
	<node lat="59.93950277386441" lon="10.608700003986899" id="-13638">
		<tag k="name" v="Østerås" />
		<tag k="railway" v="station" />
		<tag k="ssr:stedsnr" v="750917" />
		<tag k="train" v="yes" />
	</node>
	<node lat="59.8629250041118" lon="10.583038896828299" id="-13715">
		<tag k="man_made" v="quay" />
		<tag k="name" v="Bjørnen" />
		<tag k="place" v="locality" />
		<tag k="ssr:stedsnr" v="854803" />
	</node>
	<node lat="59.89051388697459" lon="10.527752776353491" id="-13752">
=======
	<node id="-247737" lat="59.8927277815" lon="10.5252083289">
		<tag k="name" v="Sandvika stasjon" />
		<tag k="railway" v="station" />
		<tag k="ssr:stedsnr" v="489856" />
		<tag k="train" v="yes" />
	</node>
	<node id="-247728" lat="59.9476111077" lon="10.3849083255">
		<tag k="bridge" v="yes" />
		<tag k="layer" v="1" />
		<tag k="name" v="Brekkedalen" />
		<tag k="ssr:stedsnr" v="349154" />
	</node>
	<node id="-248751" lat="59.9104723259" lon="10.5875733596">
		<tag k="layer" v="-1" />
		<tag k="name" v="Gjønnestunnelen" />
		<tag k="ssr:stedsnr" v="982308" />
		<tag k="tunnel" v="yes" />
	</node>
	<node id="-248750" lat="59.9018619378" lon="10.5851368041">
		<tag k="layer" v="-1" />
		<tag k="name" v="Høviktunnelen" />
		<tag k="ssr:stedsnr" v="982307" />
		<tag k="tunnel" v="yes" />
	</node>
	<node id="-248749" lat="59.9053004511" lon="10.6132639763">
		<tag k="layer" v="-1" />
		<tag k="name" v="Kiletunnelen" />
		<tag k="ssr:stedsnr" v="982305" />
		<tag k="tunnel" v="yes" />
	</node>
	<node id="-248748" lat="59.9070594108" lon="10.6143768351">
		<tag k="layer" v="-1" />
		<tag k="name" v="Stabekklokket" />
		<tag k="ssr:stedsnr" v="982303" />
		<tag k="tunnel" v="yes" />
	</node>
	<node id="-248747" lat="59.9126427713" lon="10.6242657576">
		<tag k="layer" v="-1" />
		<tag k="name" v="Tjernsmyrtunnelen" />
		<tag k="ssr:stedsnr" v="982300" />
		<tag k="tunnel" v="yes" />
	</node>
	<node id="-247709" lat="59.9130250012" lon="10.4911222165">
>>>>>>> e1d4bc35ff8a6074a6f2e91616a996b547c36f15
		<tag k="bridge" v="yes" />
		<tag k="layer" v="1" />
		<tag k="name" v="Kadettveien" />
		<tag k="ssr:stedsnr" v="896103" />
	</node>
<<<<<<< HEAD
	<node lat="59.90038888899512" lon="10.527497229587649" id="-13770">
=======
	<node id="-247708" lat="59.8881638926" lon="10.5239361155">
>>>>>>> e1d4bc35ff8a6074a6f2e91616a996b547c36f15
		<tag k="bridge" v="yes" />
		<tag k="layer" v="1" />
		<tag k="name" v="Solberg" />
		<tag k="ssr:stedsnr" v="956106" />
	</node>
<<<<<<< HEAD
	<node lat="59.90745555704259" lon="10.618094448107723" id="-13771">
=======
	<node id="-247707" lat="59.9032694431" lon="10.5969305553">
>>>>>>> e1d4bc35ff8a6074a6f2e91616a996b547c36f15
		<tag k="bridge" v="yes" />
		<tag k="layer" v="1" />
		<tag k="name" v="Oksnøy" />
		<tag k="ssr:stedsnr" v="956109" />
	</node>
<<<<<<< HEAD
	<node lat="59.92686666463121" lon="10.621763880728796" id="-13772">
=======
	<node id="-247706" lat="59.9109583376" lon="10.6274083351">
>>>>>>> e1d4bc35ff8a6074a6f2e91616a996b547c36f15
		<tag k="bridge" v="yes" />
		<tag k="layer" v="1" />
		<tag k="name" v="Kolsåsbanen" />
		<tag k="ssr:stedsnr" v="956115" />
	</node>
<<<<<<< HEAD
	<node lat="59.93690833515624" lon="10.607302785101032" id="-13773">
=======
	<node id="-247705" lat="59.9081694409" lon="10.5338805631">
>>>>>>> e1d4bc35ff8a6074a6f2e91616a996b547c36f15
		<tag k="bridge" v="yes" />
		<tag k="layer" v="1" />
		<tag k="name" v="Nordveien" />
		<tag k="ssr:stedsnr" v="956119" />
	</node>
<<<<<<< HEAD
	<node lat="59.91476110721486" lon="10.631133329508748" id="-13774">
=======
	<node id="-248728" lat="59.9147611072" lon="10.6311333295">
>>>>>>> e1d4bc35ff8a6074a6f2e91616a996b547c36f15
		<tag k="bridge" v="yes" />
		<tag k="layer" v="1" />
		<tag k="name" v="Granfoss" />
		<tag k="ssr:stedsnr" v="956123" />
	</node>
<<<<<<< HEAD
	<node lat="59.91264277129127" lon="10.624265757599181" id="-13788">
		<tag k="layer" v="-1" />
		<tag k="name" v="Tjernsmyrtunnelen" />
		<tag k="ssr:stedsnr" v="982300" />
		<tag k="tunnel" v="yes" />
	</node>
	<node lat="59.90705941075195" lon="10.61437683511642" id="-13789">
		<tag k="layer" v="-1" />
		<tag k="name" v="Stabekklokket" />
		<tag k="ssr:stedsnr" v="982303" />
		<tag k="tunnel" v="yes" />
	</node>
	<node lat="59.90530045105733" lon="10.613263976255901" id="-13790">
		<tag k="layer" v="-1" />
		<tag k="name" v="Kiletunnelen" />
		<tag k="ssr:stedsnr" v="982305" />
		<tag k="tunnel" v="yes" />
	</node>
	<node lat="59.901861937769304" lon="10.585136804104895" id="-13791">
		<tag k="layer" v="-1" />
		<tag k="name" v="Høviktunnelen" />
		<tag k="ssr:stedsnr" v="982307" />
		<tag k="tunnel" v="yes" />
	</node>
	<node lat="59.910472325912366" lon="10.587573359576243" id="-13792">
		<tag k="layer" v="-1" />
		<tag k="name" v="Gjønnestunnelen" />
		<tag k="ssr:stedsnr" v="982308" />
		<tag k="tunnel" v="yes" />
	</node>
	<node lat="59.98771666328692" lon="10.479191665304382" id="-13819">
		<tag k="amenity" v="parking" />
		<tag k="name" v="Tobonn" />
		<tag k="ssr:stedsnr" v="22961" />
	</node>
	<node lat="59.95101666320104" lon="10.628147219562827" id="-13837">
=======
	<node id="-248727" lat="59.9369083352" lon="10.6073027851">
		<tag k="bridge" v="yes" />
		<tag k="layer" v="1" />
		<tag k="name" v="Nordveien" />
		<tag k="ssr:stedsnr" v="956119" />
	</node>
	<node id="-248726" lat="59.9268666646" lon="10.6217638807">
>>>>>>> e1d4bc35ff8a6074a6f2e91616a996b547c36f15
		<tag k="bridge" v="yes" />
		<tag k="layer" v="1" />
		<tag k="name" v="Vollsveien" />
		<tag k="ssr:stedsnr" v="46095" />
	</node>
<<<<<<< HEAD
	<node lat="59.943183335352344" lon="10.507077785404077" id="-13838">
=======
	<node id="-248725" lat="59.907455557" lon="10.6180944481">
>>>>>>> e1d4bc35ff8a6074a6f2e91616a996b547c36f15
		<tag k="bridge" v="yes" />
		<tag k="layer" v="1" />
		<tag k="name" v="Gulbrandslia" />
		<tag k="ssr:stedsnr" v="46115" />
	</node>
<<<<<<< HEAD
	<node lat="59.900830552604305" lon="10.495141658407126" id="-13839">
=======
	<node id="-248724" lat="59.900388889" lon="10.5274972296">
>>>>>>> e1d4bc35ff8a6074a6f2e91616a996b547c36f15
		<tag k="bridge" v="yes" />
		<tag k="layer" v="1" />
		<tag k="name" v="Grinienga" />
		<tag k="ssr:stedsnr" v="46116" />
	</node>
<<<<<<< HEAD
	<node lat="59.91656666639012" lon="10.587852770611137" id="-13846">
		<tag k="name" v="Bekkestua" />
		<tag k="railway" v="halt" />
		<tag k="ssr:stedsnr" v="65929" />
		<tag k="train" v="yes" />
	</node>
	<node lat="59.949111111861335" lon="10.49865555301286" id="-13873">
=======
	<node id="-248706" lat="59.9133707786" lon="10.6370518593">
		<tag k="alt_name" v="Lysaker" />
		<tag k="name" v="Lysaker stasjon" />
		<tag k="railway" v="station" />
		<tag k="ssr:stedsnr" v="854909" />
		<tag k="train" v="yes" />
	</node>
	<node id="-248183" lat="59.9491111119" lon="10.498655553">
>>>>>>> e1d4bc35ff8a6074a6f2e91616a996b547c36f15
		<tag k="bridge" v="yes" />
		<tag k="layer" v="1" />
		<tag k="name" v="Møllakrysset" />
		<tag k="ssr:stedsnr" v="107084" />
	</node>
<<<<<<< HEAD
	<node lat="59.93920277660022" lon="10.519305558659301" id="-13915">
=======
	<node id="-247667" lat="59.8986277817" lon="10.4969972308">
		<tag k="bridge" v="yes" />
		<tag k="layer" v="1" />
		<tag k="name" v="Elvebråten" />
		<tag k="ssr:stedsnr" v="228115" />
	</node>
	<node id="-247666" lat="59.9277166661" lon="10.4957916626">
		<tag k="bridge" v="yes" />
		<tag k="layer" v="1" />
		<tag k="name" v="Glitredammen" />
		<tag k="ssr:stedsnr" v="228111" />
	</node>
	<node id="-247665" lat="59.9097527793" lon="10.5594166681">
>>>>>>> e1d4bc35ff8a6074a6f2e91616a996b547c36f15
		<tag k="bridge" v="yes" />
		<tag k="layer" v="1" />
		<tag k="name" v="Øvre Toppenhaug" />
		<tag k="ssr:stedsnr" v="167083" />
	</node>
<<<<<<< HEAD
	<node lat="59.90599999953646" lon="10.629152784601668" id="-13916">
=======
	<node id="-247664" lat="59.921813888" lon="10.4982944464">
>>>>>>> e1d4bc35ff8a6074a6f2e91616a996b547c36f15
		<tag k="bridge" v="yes" />
		<tag k="layer" v="1" />
		<tag k="name" v="Snarøyveien" />
		<tag k="ssr:stedsnr" v="167094" />
	</node>
<<<<<<< HEAD
	<node lat="59.89446389001589" lon="10.525699999872373" id="-13917">
=======
	<node id="-247663" lat="59.9029249961" lon="10.4937305465">
>>>>>>> e1d4bc35ff8a6074a6f2e91616a996b547c36f15
		<tag k="bridge" v="yes" />
		<tag k="layer" v="1" />
		<tag k="name" v="Rønne" />
		<tag k="ssr:stedsnr" v="167097" />
	</node>
<<<<<<< HEAD
	<node lat="59.90282222556692" lon="10.492866669115713" id="-13918">
=======
	<node id="-247661" lat="59.9122083357" lon="10.6344611036">
>>>>>>> e1d4bc35ff8a6074a6f2e91616a996b547c36f15
		<tag k="bridge" v="yes" />
		<tag k="layer" v="1" />
		<tag k="name" v="Tangen" />
		<tag k="ssr:stedsnr" v="167099" />
	</node>
<<<<<<< HEAD
	<node lat="59.907786113283876" lon="10.483186112105226" id="-13919">
=======
	<node id="-247659" lat="59.8877999997" lon="10.5232861036">
>>>>>>> e1d4bc35ff8a6074a6f2e91616a996b547c36f15
		<tag k="bridge" v="yes" />
		<tag k="layer" v="1" />
		<tag k="name" v="Agnes" />
		<tag k="ssr:stedsnr" v="167134" />
	</node>
<<<<<<< HEAD
	<node lat="59.88538848384505" lon="10.502878130015402" id="-13924">
		<tag k="name" v="Slependen holdeplass" />
		<tag k="railway" v="halt" />
		<tag k="ssr:stedsnr" v="185829" />
		<tag k="train" v="yes" />
	</node>
	<node lat="59.91413277536678" lon="10.50161996519161" id="-13927">
		<tag k="name" v="Kolsås" />
=======
	<node id="-248676" lat="59.914649998" lon="10.5813666743">
		<tag k="name" v="Gjønnes" />
		<tag k="railway" v="station" />
		<tag k="ssr:stedsnr" v="811878" />
		<tag k="train" v="yes" />
	</node>
	<node id="-248155" lat="59.9165666664" lon="10.5878527706">
		<tag k="name" v="Bekkestua" />
>>>>>>> e1d4bc35ff8a6074a6f2e91616a996b547c36f15
		<tag k="railway" v="halt" />
		<tag k="ssr:stedsnr" v="186910" />
		<tag k="train" v="yes" />
	</node>
<<<<<<< HEAD
	<node lat="59.92619722209666" lon="10.61923055797986" id="-13930">
		<tag k="name" v="Jar" />
=======
	<node id="-247633" lat="59.9108916688" lon="10.5111944358">
		<tag k="name" v="Hauger" />
>>>>>>> e1d4bc35ff8a6074a6f2e91616a996b547c36f15
		<tag k="railway" v="halt" />
		<tag k="ssr:stedsnr" v="186943" />
		<tag k="train" v="yes" />
	</node>
<<<<<<< HEAD
	<node lat="59.908591669468215" lon="10.62790000248409" id="-13963">
		<tag k="layer" v="-1" />
		<tag k="name" v="Teleplanbygget" />
		<tag k="ssr:stedsnr" v="226721" />
		<tag k="tunnel" v="yes" />
	</node>
	<node lat="59.89862778172863" lon="10.4969972308493" id="-13964">
=======
	<node id="-248143" lat="59.9008305526" lon="10.4951416584">
		<tag k="bridge" v="yes" />
		<tag k="layer" v="1" />
		<tag k="name" v="Grinienga" />
		<tag k="ssr:stedsnr" v="46116" />
	</node>
	<node id="-248142" lat="59.9431833354" lon="10.5070777854">
>>>>>>> e1d4bc35ff8a6074a6f2e91616a996b547c36f15
		<tag k="bridge" v="yes" />
		<tag k="layer" v="1" />
		<tag k="name" v="Elvebråten" />
		<tag k="ssr:stedsnr" v="228115" />
	</node>
<<<<<<< HEAD
	<node lat="59.903313887492715" lon="10.596411104874353" id="-13973">
		<tag k="highway" v="bus_stop" />
		<tag k="name" v="Strand" />
		<tag k="ssr:stedsnr" v="307895" />
	</node>
	<node lat="59.91870277625683" lon="10.495088889427082" id="-13986">
		<tag k="alt_name" v="Løken" />
=======
	<node id="-248141" lat="59.8960972179" lon="10.5603472272">
		<tag k="alt_name" v="Solvikvegen" />
		<tag k="bridge" v="yes" />
		<tag k="layer" v="1" />
		<tag k="name" v="Solvikveien kulvert" />
		<tag k="ssr:stedsnr" v="46102" />
	</node>
	<node id="-248140" lat="59.9510166632" lon="10.6281472196">
>>>>>>> e1d4bc35ff8a6074a6f2e91616a996b547c36f15
		<tag k="bridge" v="yes" />
		<tag k="layer" v="1" />
		<tag k="name" v="Løkenbrua" />
		<tag k="ssr:stedsnr" v="325930" />
	</node>
<<<<<<< HEAD
	<node lat="59.94761110769071" lon="10.384908325510178" id="-14012">
=======
	<node id="-248139" lat="59.946147225" lon="10.5942111114">
>>>>>>> e1d4bc35ff8a6074a6f2e91616a996b547c36f15
		<tag k="bridge" v="yes" />
		<tag k="layer" v="1" />
		<tag k="name" v="Brekkedalen" />
		<tag k="ssr:stedsnr" v="349154" />
	</node>
<<<<<<< HEAD
	<node lat="59.91505833342587" lon="10.560713897273974" id="-14027">
		<tag k="name" v="Haslum" />
		<tag k="railway" v="halt" />
		<tag k="ssr:stedsnr" v="368903" />
		<tag k="train" v="yes" />
	</node>
	<node lat="59.94168333440487" lon="10.616988885835312" id="-14032">
		<tag k="name" v="Lijordet" />
		<tag k="railway" v="halt" />
		<tag k="ssr:stedsnr" v="368989" />
		<tag k="train" v="yes" />
	</node>
	<node lat="59.89362777391487" lon="10.5112083416774" id="-14064">
=======
	<node id="-248111" lat="59.9877166633" lon="10.4791916653">
		<tag k="amenity" v="parking" />
		<tag k="name" v="Tobonn" />
		<tag k="ssr:stedsnr" v="22961" />
	</node>
	<node id="-248093" lat="59.9084802484" lon="10.6076491407">
		<tag k="name" v="Stabekk stasjon" />
		<tag k="railway" v="station" />
		<tag k="ssr:stedsnr" v="4922" />
		<tag k="train" v="yes" />
	</node>
	<node id="-248601" lat="59.927183329" lon="10.621775008">
>>>>>>> e1d4bc35ff8a6074a6f2e91616a996b547c36f15
		<tag k="bridge" v="yes" />
		<tag k="layer" v="1" />
		<tag k="name" v="Bjørnegård" />
		<tag k="ssr:stedsnr" v="410121" />
	</node>
<<<<<<< HEAD
	<node lat="59.90328333389072" lon="10.491102775076628" id="-14065">
=======
	<node id="-248600" lat="59.9048555542" lon="10.4913555563">
>>>>>>> e1d4bc35ff8a6074a6f2e91616a996b547c36f15
		<tag k="bridge" v="yes" />
		<tag k="layer" v="1" />
		<tag k="name" v="Borkentangen" />
		<tag k="ssr:stedsnr" v="410123" />
	</node>
<<<<<<< HEAD
	<node lat="59.89710277772787" lon="10.555224993589944" id="-14084">
		<tag k="alt_name" v="Blommenholm hpl." />
		<tag k="name" v="Blommenholm stasjon" />
		<tag k="railway" v="station" />
		<tag k="ssr:stedsnr" v="429894" />
		<tag k="train" v="yes" />
	</node>
	<node lat="59.89279722457266" lon="10.522402772004087" id="-14126">
		<tag k="junction" v="yes" />
		<tag k="name" v="Leif Tronstads plass" />
		<tag k="place" v="locality" />
		<tag k="ssr:stedsnr" v="508590" />
	</node>
	<node lat="59.8936000003461" lon="10.511677775432366" id="-14133">
=======
	<node id="-248599" lat="59.9416999962" lon="10.5094500075">
		<tag k="bridge" v="yes" />
		<tag k="layer" v="1" />
		<tag k="name" v="Nedre Toppenhaug" />
		<tag k="ssr:stedsnr" v="652093" />
	</node>
	<node id="-247563" lat="59.9085916695" lon="10.6279000025">
		<tag k="layer" v="-1" />
		<tag k="name" v="Teleplanbygget" />
		<tag k="ssr:stedsnr" v="226721" />
		<tag k="tunnel" v="yes" />
	</node>
	<node id="-248561" lat="59.94171944" lon="10.5031361185">
>>>>>>> e1d4bc35ff8a6074a6f2e91616a996b547c36f15
		<tag k="bridge" v="yes" />
		<tag k="layer" v="1" />
		<tag k="name" v="Ødehamang" />
		<tag k="ssr:stedsnr" v="531086" />
	</node>
<<<<<<< HEAD
	<node lat="59.91142222008842" lon="10.626988893603436" id="-14134">
=======
	<node id="-248038" lat="59.89987778" lon="10.5815916635">
>>>>>>> e1d4bc35ff8a6074a6f2e91616a996b547c36f15
		<tag k="bridge" v="yes" />
		<tag k="layer" v="1" />
		<tag k="name" v="Professor Kohts vei" />
		<tag k="ssr:stedsnr" v="531096" />
	</node>
<<<<<<< HEAD
	<node lat="59.90765555418369" lon="10.512930562147702" id="-14163">
=======
	<node id="-248536" lat="59.9076555542" lon="10.5129305621">
>>>>>>> e1d4bc35ff8a6074a6f2e91616a996b547c36f15
		<tag k="junction" v="yes" />
		<tag k="name" v="Levre" />
		<tag k="place" v="locality" />
		<tag k="ssr:stedsnr" v="567983" />
	</node>
<<<<<<< HEAD
	<node lat="59.94171943995645" lon="10.503136118497357" id="-14175">
		<tag k="bridge" v="yes" />
		<tag k="layer" v="1" />
		<tag k="name" v="Triangelen" />
		<tag k="ssr:stedsnr" v="592097" />
	</node>
	<node lat="59.90059999608751" lon="10.580280553673346" id="-14201">
		<tag k="name" v="Høvik stasjon" />
		<tag k="railway" v="station" />
		<tag k="ssr:stedsnr" v="628867" />
		<tag k="train" v="yes" />
	</node>
	<node lat="59.91754444337993" lon="10.587647217857814" id="-14202">
		<tag k="junction" v="yes" />
		<tag k="name" v="Ole Tokeruds plass" />
		<tag k="place" v="locality" />
		<tag k="ssr:stedsnr" v="628873" />
	</node>
	<node lat="59.87827499852904" lon="10.510811115552405" id="-14211">
		<tag k="man_made" v="quay" />
		<tag k="name" v="Gyssestad båthavn" />
		<tag k="place" v="locality" />
		<tag k="ssr:stedsnr" v="629560" />
	</node>
	<node lat="59.88632825614591" lon="10.427102903312989" id="-14217">
		<tag k="amenity" v="parking" />
		<tag k="name" v="Franskleiv" />
		<tag k="ssr:stedsnr" v="646437" />
	</node>
	<node lat="59.941699996222994" lon="10.509450007541648" id="-14218">
=======
	<node id="-248461" lat="59.9498833305" lon="10.6189388947">
		<tag k="bridge" v="yes" />
		<tag k="layer" v="1" />
		<tag k="name" v="Listuveien" />
		<tag k="ssr:stedsnr" v="410109" />
	</node>
	<node id="-248691" lat="59.9182999978" lon="10.4965861096">
		<tag k="bridge" v="yes" />
		<tag k="layer" v="1" />
		<tag k="name" v="Kolsås" />
		<tag k="ssr:stedsnr" v="835099" />
	</node>
	<node id="-248690" lat="59.9026027792" lon="10.5145777736">
		<tag k="bridge" v="yes" />
		<tag k="layer" v="1" />
		<tag k="name" v="Sykehusveien" />
		<tag k="ssr:stedsnr" v="835095" />
	</node>
	<node id="-248490" lat="59.9100972209" lon="10.5459416754">
		<tag k="bridge" v="yes" />
		<tag k="layer" v="1" />
		<tag k="name" v="Frøysveien" />
		<tag k="ssr:stedsnr" v="531109" />
	</node>
	<node id="-248489" lat="59.9097416703" lon="10.5431777807">
		<tag k="bridge" v="yes" />
		<tag k="layer" v="1" />
		<tag k="name" v="Durud" />
		<tag k="ssr:stedsnr" v="531108" />
	</node>
	<node id="-248488" lat="59.8977527737" lon="10.4984249911">
>>>>>>> e1d4bc35ff8a6074a6f2e91616a996b547c36f15
		<tag k="bridge" v="yes" />
		<tag k="layer" v="1" />
		<tag k="name" v="Nedre Toppenhaug" />
		<tag k="ssr:stedsnr" v="652093" />
	</node>
<<<<<<< HEAD
	<node lat="59.90485555420102" lon="10.491355556251644" id="-14219">
=======
	<node id="-248487" lat="59.9114222201" lon="10.6269888936">
>>>>>>> e1d4bc35ff8a6074a6f2e91616a996b547c36f15
		<tag k="bridge" v="yes" />
		<tag k="layer" v="1" />
		<tag k="name" v="Langelår" />
		<tag k="ssr:stedsnr" v="652094" />
	</node>
<<<<<<< HEAD
	<node lat="59.927183328952715" lon="10.621775007969838" id="-14220">
		<tag k="bridge" v="yes" />
		<tag k="layer" v="1" />
		<tag k="name" v="Jar" />
		<tag k="ssr:stedsnr" v="652101" />
	</node>
	<node lat="59.89464999666734" lon="10.549230562783812" id="-14221">
=======
	<node id="-248486" lat="59.8936000003" lon="10.5116777754">
		<tag k="bridge" v="yes" />
		<tag k="layer" v="1" />
		<tag k="name" v="Ødehamang" />
		<tag k="ssr:stedsnr" v="531086" />
	</node>
	<node id="-248477" lat="59.8971027777" lon="10.5552249936">
		<tag k="alt_name" v="Blommenholm hpl." />
		<tag k="name" v="Blommenholm stasjon" />
		<tag k="railway" v="station" />
		<tag k="ssr:stedsnr" v="429894" />
		<tag k="train" v="yes" />
	</node>
	<node id="-247964" lat="59.9395027739" lon="10.608700004">
		<tag k="name" v="Østerås" />
		<tag k="railway" v="station" />
		<tag k="ssr:stedsnr" v="750917" />
		<tag k="train" v="yes" />
	</node>
	<node id="-247960" lat="59.890513887" lon="10.5277527764">
>>>>>>> e1d4bc35ff8a6074a6f2e91616a996b547c36f15
		<tag k="bridge" v="yes" />
		<tag k="layer" v="1" />
		<tag k="name" v="Blommenholm" />
		<tag k="ssr:stedsnr" v="713137" />
	</node>
<<<<<<< HEAD
	<node lat="59.89799721819613" lon="10.570297213268569" id="-14222">
		<tag k="alt_name" v="Kirkevegen" />
		<tag k="bridge" v="yes" />
		<tag k="layer" v="1" />
		<tag k="name" v="Kirkeveien gangkulvert" />
		<tag k="ssr:stedsnr" v="713111" />
	</node>
	<node lat="59.892055552888706" lon="10.519116671216103" id="-14223">
=======
	<node id="-247957" lat="59.8883388922" lon="10.5253972255">
		<tag k="bridge" v="yes" />
		<tag k="layer" v="1" />
		<tag k="name" v="Kadettangen" />
		<tag k="ssr:stedsnr" v="652103" />
	</node>
	<node id="-247953" lat="59.8863282561" lon="10.4271029033">
		<tag k="amenity" v="parking" />
		<tag k="name" v="Franskleiv" />
		<tag k="ssr:stedsnr" v="646437" />
	</node>
	<node id="-248463" lat="59.9032833339" lon="10.4911027751">
>>>>>>> e1d4bc35ff8a6074a6f2e91616a996b547c36f15
		<tag k="bridge" v="yes" />
		<tag k="layer" v="1" />
		<tag k="name" v="Løkke" />
		<tag k="ssr:stedsnr" v="713118" />
	</node>
<<<<<<< HEAD
	<node lat="59.89385555666712" lon="10.526838880079563" id="-14224">
=======
	<node id="-248462" lat="59.8936277739" lon="10.5112083417">
>>>>>>> e1d4bc35ff8a6074a6f2e91616a996b547c36f15
		<tag k="bridge" v="yes" />
		<tag k="layer" v="1" />
		<tag k="name" v="Engervannet" />
		<tag k="ssr:stedsnr" v="713123" />
	</node>
<<<<<<< HEAD
	<node lat="59.94716111347604" lon="10.62375555601704" id="-14237">
=======
	<node id="-247949" lat="59.9471611135" lon="10.623755556">
>>>>>>> e1d4bc35ff8a6074a6f2e91616a996b547c36f15
		<tag k="name" v="Eiksmarka" />
		<tag k="railway" v="halt" />
		<tag k="ssr:stedsnr" v="732987" />
		<tag k="train" v="yes" />
	</node>
<<<<<<< HEAD
	<node lat="59.914649997964844" lon="10.581366674340025" id="-14288">
		<tag k="name" v="Gjønnes" />
=======
	<node id="-248460" lat="59.898000004" lon="10.5575694488">
		<tag k="bridge" v="yes" />
		<tag k="layer" v="1" />
		<tag k="name" v="Stasjonsveien" />
		<tag k="ssr:stedsnr" v="410104" />
	</node>
	<node id="-248459" lat="59.8942333299" lon="10.5451694404">
		<tag k="bridge" v="yes" />
		<tag k="layer" v="1" />
		<tag k="name" v="Sandviksveien" />
		<tag k="ssr:stedsnr" v="410098" />
	</node>
	<node id="-248449" lat="59.9143805568" lon="10.5516777723">
		<tag k="name" v="Avløs stasjon" />
>>>>>>> e1d4bc35ff8a6074a6f2e91616a996b547c36f15
		<tag k="railway" v="station" />
		<tag k="ssr:stedsnr" v="811878" />
		<tag k="train" v="yes" />
	</node>
<<<<<<< HEAD
	<node lat="59.9026027791644" lon="10.51457777356968" id="-14304">
		<tag k="bridge" v="yes" />
		<tag k="layer" v="1" />
		<tag k="name" v="Sykehusveien" />
		<tag k="ssr:stedsnr" v="835095" />
	</node>
	<node lat="59.91829999784905" lon="10.496586109636038" id="-14305">
		<tag k="bridge" v="yes" />
		<tag k="layer" v="1" />
		<tag k="name" v="Kolsås" />
		<tag k="ssr:stedsnr" v="835099" />
	</node>
	<node lat="59.89987778000642" lon="10.581591663507654" id="-14306">
		<tag k="bridge" v="yes" />
		<tag k="layer" v="1" />
		<tag k="name" v="Høvik" />
		<tag k="ssr:stedsnr" v="835114" />
	</node>
	<node lat="59.913370778591506" lon="10.637051859325043" id="-14325">
		<tag k="alt_name" v="Lysaker" />
		<tag k="name" v="Lysaker stasjon" />
		<tag k="railway" v="station" />
		<tag k="ssr:stedsnr" v="854909" />
		<tag k="train" v="yes" />
=======
	<node id="-247929" lat="59.8782749985" lon="10.5108111156">
		<tag k="man_made" v="quay" />
		<tag k="name" v="Gyssestad båthavn" />
		<tag k="place" v="locality" />
		<tag k="ssr:stedsnr" v="629560" />
	</node>
	<node id="-247920" lat="59.9175444434" lon="10.5876472179">
		<tag k="junction" v="yes" />
		<tag k="name" v="Ole Tokeruds plass" />
		<tag k="place" v="locality" />
		<tag k="ssr:stedsnr" v="628873" />
	</node>
	<node id="-247919" lat="59.9005999961" lon="10.5802805537">
		<tag k="name" v="Høvik stasjon" />
		<tag k="railway" v="station" />
		<tag k="ssr:stedsnr" v="628867" />
		<tag k="train" v="yes" />
	</node>
	<node id="-248423" lat="59.9416833344" lon="10.6169888858">
		<tag k="name" v="Lijordet" />
		<tag k="railway" v="halt" />
		<tag k="ssr:stedsnr" v="368989" />
		<tag k="train" v="yes" />
	</node>
	<node id="-247902" lat="59.8946499967" lon="10.5492305628">
		<tag k="bridge" v="yes" />
		<tag k="layer" v="1" />
		<tag k="name" v="Blommenholm" />
		<tag k="ssr:stedsnr" v="713137" />
	</node>
	<node id="-247901" lat="59.8938555567" lon="10.5268388801">
		<tag k="bridge" v="yes" />
		<tag k="layer" v="1" />
		<tag k="name" v="Engervannet" />
		<tag k="ssr:stedsnr" v="713123" />
	</node>
	<node id="-248412" lat="59.9150583334" lon="10.5607138973">
		<tag k="name" v="Haslum" />
		<tag k="railway" v="halt" />
		<tag k="ssr:stedsnr" v="368903" />
		<tag k="train" v="yes" />
	</node>
	<node id="-247899" lat="59.8979972182" lon="10.5702972133">
		<tag k="alt_name" v="Kirkevegen" />
		<tag k="bridge" v="yes" />
		<tag k="layer" v="1" />
		<tag k="name" v="Kirkeveien gangkulvert" />
		<tag k="ssr:stedsnr" v="713111" />
	</node>
	<node id="-247898" lat="59.908852775" lon="10.6090111066">
		<tag k="bridge" v="yes" />
		<tag k="layer" v="1" />
		<tag k="name" v="Stabekk" />
		<tag k="ssr:stedsnr" v="713097" />
	</node>
	<node id="-247897" lat="59.9450305544" lon="10.5074555618">
		<tag k="bridge" v="yes" />
		<tag k="layer" v="1" />
		<tag k="name" v="Vigfoss" />
		<tag k="ssr:stedsnr" v="713089" />
	</node>
	<node id="-247896" lat="59.9304166645" lon="10.5655000039">
		<tag k="bridge" v="yes" />
		<tag k="layer" v="1" />
		<tag k="name" v="Øverland" />
		<tag k="ssr:stedsnr" v="713085" />
	</node>
	<node id="-247884" lat="59.8872555589" lon="10.632652784">
		<tag k="man_made" v="quay" />
		<tag k="name" v="Halden brygge" />
		<tag k="place" v="locality" />
		<tag k="ssr:stedsnr" v="691260" />
	</node>
	<node id="-248390" lat="59.9117583356" lon="10.5064111044">
		<tag k="bridge" v="yes" />
		<tag k="layer" v="1" />
		<tag k="name" v="Kløftaveien" />
		<tag k="ssr:stedsnr" v="349119" />
	</node>
	<node id="-248389" lat="59.9323472257" lon="10.4367611169">
		<tag k="bridge" v="yes" />
		<tag k="layer" v="1" />
		<tag k="name" v="Sølvholen" />
		<tag k="ssr:stedsnr" v="349118" />
	</node>
	<node id="-248384" lat="59.8876638876" lon="10.5010361131">
		<tag k="junction" v="yes" />
		<tag k="name" v="Jong" />
		<tag k="place" v="locality" />
		<tag k="ssr:stedsnr" v="326570" />
	</node>
	<node id="-247861" lat="59.9202499985" lon="10.6035333327">
		<tag k="name" v="Ringstabekk" />
		<tag k="railway" v="halt" />
		<tag k="ssr:stedsnr" v="689245" />
		<tag k="train" v="yes" />
	</node>
	<node id="-247900" lat="59.8920555529" lon="10.5191166712">
		<tag k="bridge" v="yes" />
		<tag k="layer" v="1" />
		<tag k="name" v="Løkke" />
		<tag k="ssr:stedsnr" v="713118" />
	</node>
	<node id="-248356" lat="59.9187027763" lon="10.4950888894">
		<tag k="alt_name" v="Løken" />
		<tag k="bridge" v="yes" />
		<tag k="layer" v="1" />
		<tag k="name" v="Løkenbrua" />
		<tag k="ssr:stedsnr" v="325930" />
	</node>
	<node id="-247835" lat="59.9513865654" lon="10.6341288675">
		<tag k="bridge" v="yes" />
		<tag k="layer" v="1" />
		<tag k="name" v="Grini bru" />
		<tag k="ssr:stedsnr" v="507916" />
	</node>
	<node id="-248339" lat="59.9033138875" lon="10.5964111049">
		<tag k="highway" v="bus_stop" />
		<tag k="name" v="Strand" />
		<tag k="ssr:stedsnr" v="307895" />
	</node>
	<node id="-248325" lat="59.8930805554" lon="10.5078416642">
		<tag k="junction" v="yes" />
		<tag k="name" v="Bjørnegård" />
		<tag k="place" v="locality" />
		<tag k="ssr:stedsnr" v="205591" />
	</node>
	<node id="-248491" lat="59.897266671" lon="10.4997444363">
		<tag k="bridge" v="yes" />
		<tag k="layer" v="1" />
		<tag k="name" v="Hamang" />
		<tag k="ssr:stedsnr" v="531114" />
>>>>>>> e1d4bc35ff8a6074a6f2e91616a996b547c36f15
	</node>
</osm>
