<?xml version="1.0" encoding="UTF-8"?>
<osm generator="osmapis" version="0.6">
	<node id="-29694" lat="59.9061833316" lon="10.3839138957">
		<tag k="name" v="Kveisemyrbekken" />
		<tag k="ssr:stedsnr" v="386029" />
		<tag k="waterway" v="stream" />
	</node>
	<node id="-29690" lat="60.0279750009" lon="10.4586666691">
		<tag k="name" v="Tvillingvanna" />
		<tag k="natural" v="water" />
		<tag k="ssr:stedsnr" v="369985" />
	</node>
	<node id="-29175" lat="59.9015388879" lon="10.4002999919">
		<tag k="alt_name" v="Vassmyrputten" />
		<tag k="name" v="Vassputten" />
		<tag k="natural" v="water" />
		<tag k="ssr:stedsnr" v="610907" />
	</node>
	<node id="-29174" lat="59.9687138848" lon="10.5818527701">
		<tag k="name" v="Østernvann" />
		<tag k="natural" v="water" />
		<tag k="ssr:stedsnr" v="610049" />
	</node>
	<node id="-29683" lat="59.9311250025" lon="10.630058327">
		<tag k="name" v="Lysakerelva" />
		<tag k="ssr:stedsnr" v="368973" />
		<tag k="waterway" v="river" />
	</node>
	<node id="-29670" lat="59.9858888888" lon="10.5292083296">
		<tag k="alt_name" v="Blekkevann" />
		<tag k="name" v="Blekketjern" />
		<tag k="natural" v="water" />
		<tag k="old_name" v="Blekktjern" />
		<tag k="ssr:stedsnr" v="368136" />
	</node>
	<node id="-29666" lat="59.963299997" lon="10.5242249915">
		<tag k="name" v="Kringletjern" />
		<tag k="natural" v="water" />
		<tag k="ssr:stedsnr" v="368075" />
	</node>
	<node id="-29605" lat="59.9200499992" lon="10.3868083406">
		<tag k="name" v="Svartvann" />
		<tag k="natural" v="water" />
		<tag k="ssr:stedsnr" v="307924" />
	</node>
	<node id="-29178" lat="59.9602166671" lon="10.4118416657">
		<tag k="name" v="Øvre Riskleivbekken" />
		<tag k="ssr:stedsnr" v="628006" />
		<tag k="waterway" v="stream" />
	</node>
	<node id="-29141" lat="59.8926277783" lon="10.4153833365">
		<tag k="name" v="Brubekken" />
		<tag k="ssr:stedsnr" v="690646" />
		<tag k="waterway" v="stream" />
	</node>
	<node id="-29603" lat="59.9166916655" lon="10.3756000028">
		<tag k="alt_name" v="Kalvemyrsputten" />
		<tag k="name" v="Kalvemyrputten" />
		<tag k="natural" v="water" />
		<tag k="ssr:stedsnr" v="307920" />
		<tag k="water" v="pond" />
	</node>
	<node id="-29136" lat="59.9819388881" lon="10.4817416675">
		<tag k="name" v="Tolverudbekken" />
		<tag k="ssr:stedsnr" v="690070" />
		<tag k="waterway" v="stream" />
	</node>
	<node id="-29133" lat="60.0250444458" lon="10.4421888943">
		<tag k="name" v="Slåttmyrbekken" />
		<tag k="ssr:stedsnr" v="689963" />
		<tag k="waterway" v="stream" />
	</node>
	<node id="-29640" lat="59.9374250032" lon="10.3751333387">
		<tag k="name" v="Langbakkbekken" />
		<tag k="ssr:stedsnr" v="325901" />
		<tag k="waterway" v="stream" />
	</node>
	<node id="-29111" lat="59.9549277743" lon="10.4194055481">
		<tag k="name" v="Nedre Riskleivbekken" />
		<tag k="ssr:stedsnr" v="689008" />
		<tag k="waterway" v="stream" />
	</node>
	<node id="-29622" lat="59.9969805563" lon="10.4699666658">
		<tag k="name" v="Kolleputten" />
		<tag k="natural" v="water" />
		<tag k="ssr:stedsnr" v="325950" />
	</node>
	<node id="-29620" lat="59.9317388893" lon="10.4980055512">
		<tag k="name" v="Glittredammen" />
		<tag k="natural" v="water" />
		<tag k="ssr:stedsnr" v="325939" />
	</node>
	<node id="-29617" lat="60.0048861151" lon="10.4746166628">
		<tag k="name" v="Kollevann" />
		<tag k="natural" v="water" />
		<tag k="ssr:stedsnr" v="308874" />
	</node>
	<node id="-29610" lat="59.9362527753" lon="10.5322916638">
		<tag k="alt_name" v="Steinstjern" />
		<tag k="name" v="Steinstjernet" />
		<tag k="natural" v="water" />
		<tag k="old_name" v="Steintjernet" />
		<tag k="ssr:stedsnr" v="307969" />
	</node>
	<node id="-29097" lat="60.0037444461" lon="10.446652776">
		<tag k="alt_name" v="Småvasselva" />
		<tag k="name" v="Småvannselva" />
		<tag k="ssr:stedsnr" v="507914" />
		<tag k="waterway" v="stream" />
	</node>
	<node id="-28828" lat="59.9727499999" lon="10.5405138927">
		<tag k="alt_name" v="Setertjern" />
		<tag k="name" v="Sætertjernet" />
		<tag k="natural" v="water" />
		<tag k="ssr:stedsnr" v="307024" />
	</node>
	<node id="-29094" lat="59.9148138923" lon="10.5271666645">
		<tag k="name" v="Dælibekken" />
		<tag k="ssr:stedsnr" v="507906" />
		<tag k="waterway" v="stream" />
	</node>
	<node id="-29093" lat="59.901030554" lon="10.4245611111">
		<tag k="name" v="Ormeflåen" />
		<tag k="natural" v="water" />
		<tag k="ssr:stedsnr" v="507052" />
	</node>
	<node id="-29091" lat="60.0019722219" lon="10.4531638871">
		<tag k="name" v="Aurevann" />
		<tag k="natural" v="water" />
		<tag k="ssr:stedsnr" v="490908" />
		<tag k="water" v="lake" />
	</node>
	<node id="-29090" lat="60.0252515376" lon="10.4348761977">
		<tag k="alt_name" v="Byvann;Byvannet" />
		<tag k="name" v="Byvatnet" />
		<tag k="natural" v="water" />
		<tag k="ssr:stedsnr" v="673987" />
		<tag k="water" v="lake" />
	</node>
	<node id="-29089" lat="60.0142" lon="10.5234472213">
		<tag k="name" v="Fløyta" />
		<tag k="ssr:stedsnr" v="673912" />
		<tag k="waterway" v="stream" />
	</node>
	<node id="-29088" lat="60.0083694425" lon="10.4740000038">
		<tag k="name" v="Bikkjevann" />
		<tag k="natural" v="water" />
		<tag k="ssr:stedsnr" v="672881" />
	</node>
	<node id="-29079" lat="59.8942472204" lon="10.5017166737">
		<tag k="name" v="Sandvikselva" />
		<tag k="ssr:stedsnr" v="671901" />
		<tag k="waterway" v="river" />
	</node>
	<node id="-29069" lat="59.971349999" lon="10.569058332">
		<tag k="name" v="Hestmyrbekken" />
		<tag k="ssr:stedsnr" v="671018" />
		<tag k="waterway" v="stream" />
	</node>
	<node id="-29054" lat="59.9818527771" lon="10.5135861184">
		<tag k="alt_name" v="Svendshølbekken" />
		<tag k="name" v="Svensholbekken" />
		<tag k="ssr:stedsnr" v="429013" />
		<tag k="waterway" v="stream" />
	</node>
	<node id="-29053" lat="59.9736861137" lon="10.440099999">
		<tag k="alt_name" v="Seterbekken" />
		<tag k="name" v="Sæterbekken" />
		<tag k="ssr:stedsnr" v="428024" />
		<tag k="waterway" v="stream" />
	</node>
	<node id="-29563" lat="59.9215416649" lon="10.6091027745">
		<tag k="name" v="Tjernsrudtjernet" />
		<tag k="natural" v="water" />
		<tag k="ssr:stedsnr" v="204922" />
	</node>
	<node id="-29048" lat="59.8904305534" lon="10.3997444522">
		<tag k="name" v="Vassmyrbekken" />
		<tag k="ssr:stedsnr" v="508624" />
		<tag k="waterway" v="stream" />
	</node>
	<node id="-29047" lat="59.887727781" lon="10.3848222246">
		<tag k="name" v="Tuemyrbekken" />
		<tag k="ssr:stedsnr" v="508619" />
		<tag k="waterway" v="stream" />
	</node>
	<node id="-29551" lat="59.9465638866" lon="10.3901194381">
		<tag k="alt_name" v="Rustadelva" />
		<tag k="name" v="Rustanbekken" />
		<tag k="ssr:stedsnr" v="187000" />
		<tag k="waterway" v="stream" />
	</node>
	<node id="-29548" lat="59.9495249996" lon="10.5363749914">
		<tag k="alt_name" v="Fiskelaustjern" />
		<tag k="name" v="Fiskelaustjernet" />
		<tag k="natural" v="water" />
		<tag k="ssr:stedsnr" v="186972" />
	</node>
	<node id="-29544" lat="59.9263722236" lon="10.560766668">
		<tag k="name" v="Øverlandselva" />
		<tag k="ssr:stedsnr" v="186946" />
		<tag k="waterway" v="stream" />
	</node>
	<node id="-29538" lat="59.9093250028" lon="10.4498777739">
		<tag k="name" v="Stovivannet" />
		<tag k="natural" v="water" />
		<tag k="ssr:stedsnr" v="186901" />
		<tag k="water" v="lake" />
	</node>
	<node id="-29024" lat="59.9654638889" lon="10.5922305592">
		<tag k="name" v="Østernbekken" />
		<tag k="ssr:stedsnr" v="386876" />
		<tag k="waterway" v="stream" />
	</node>
	<node id="-29535" lat="59.8969405289" lon="10.5341429987">
		<tag k="name" v="Engervannet" />
		<tag k="natural" v="water" />
		<tag k="ssr:stedsnr" v="186894" />
	</node>
	<node id="-29021" lat="59.8873583354" lon="10.4714749964">
		<tag k="name" v="Lagerudbekken" />
		<tag k="ssr:stedsnr" v="386618" />
		<tag k="waterway" v="stream" />
	</node>
	<node id="-29014" lat="60.003625" lon="10.4924944485">
		<tag k="name" v="Rognlivann" />
		<tag k="natural" v="water" />
		<tag k="ssr:stedsnr" v="490877" />
	</node>
	<node id="-28899" lat="59.9003388902" lon="10.4155277772">
		<tag k="name" v="Delingsbekken" />
		<tag k="ssr:stedsnr" v="265055" />
		<tag k="waterway" v="stream" />
	</node>
	<node id="-29002" lat="59.8945750022" lon="10.3883166724">
		<tag k="name" v="Korselva" />
		<tag k="ssr:stedsnr" v="489864" />
		<tag k="waterway" v="stream" />
	</node>
	<node id="-29284" lat="59.9050444448" lon="10.4864805573">
		<tag k="name" v="Tangen" />
		<tag k="natural" v="cape" />
		<tag k="ssr:stedsnr" v="932049" />
	</node>
	<node id="-28993" lat="59.9699527777" lon="10.4315305569">
		<tag k="alt_name" v="Jonsrudtjern" />
		<tag k="name" v="Jonsrudtjernet" />
		<tag k="natural" v="water" />
		<tag k="ssr:stedsnr" v="489030" />
	</node>
	<node id="-28992" lat="59.9746916646" lon="10.5140138962">
		<tag k="name" v="Burudvann" />
		<tag k="natural" v="water" />
		<tag k="ssr:stedsnr" v="489025" />
	</node>
	<node id="-29497" lat="60.0013194452" lon="10.4460638966">
		<tag k="name" v="Kringlevann" />
		<tag k="natural" v="water" />
		<tag k="ssr:stedsnr" v="143945" />
	</node>
	<node id="-28984" lat="59.8943527773" lon="10.4192388947">
		<tag k="name" v="Svartebekken" />
		<tag k="ssr:stedsnr" v="326623" />
		<tag k="waterway" v="stream" />
	</node>
	<node id="-28983" lat="59.893236111" lon="10.4192944456">
		<tag k="name" v="Diket" />
		<tag k="natural" v="water" />
		<tag k="ssr:stedsnr" v="326622" />
	</node>
	<node id="-28975" lat="59.9205694489" lon="10.5402083355">
		<tag k="name" v="Dælivannet" />
		<tag k="natural" v="water" />
		<tag k="ssr:stedsnr" v="307903" />
	</node>
	<node id="-28974" lat="59.9830944419" lon="10.4158277828">
		<tag k="alt_name" v="Langbrutjernet" />
		<tag k="name" v="Langebrutjern" />
		<tag k="natural" v="water" />
		<tag k="ssr:stedsnr" v="307124" />
	</node>
	<node id="-29986" lat="59.868030557" lon="10.5745666685">
		<tag k="name" v="Postdammen" />
		<tag k="natural" v="water" />
		<tag k="ssr:stedsnr" v="873251" />
		<tag k="water" v="pond" />
	</node>
	<node id="-28960" lat="59.919691669" lon="10.4119055633">
		<tag k="name" v="Urdselva" />
		<tag k="ssr:stedsnr" v="247934" />
		<tag k="waterway" v="stream" />
	</node>
	<node id="-29978" lat="59.9923972259" lon="10.4376249958">
		<tag k="name" v="Raufjellputten" />
		<tag k="natural" v="water" />
		<tag k="ssr:stedsnr" v="871946" />
	</node>
	<node id="-28945" lat="59.9535833291" lon="10.5792305622">
		<tag k="name" v="Skutebekken" />
		<tag k="ssr:stedsnr" v="447850" />
		<tag k="waterway" v="stream" />
	</node>
	<node id="-28941" lat="59.9508083361" lon="10.5408249928">
		<tag k="name" v="Fiskelausbekken" />
		<tag k="ssr:stedsnr" v="447089" />
		<tag k="waterway" v="stream" />
	</node>
	<node id="-29451" lat="59.9790888931" lon="10.561055558">
		<tag k="name" v="Skillebekk" />
		<tag k="ssr:stedsnr" v="125007" />
		<tag k="waterway" v="stream" />
	</node>
	<node id="-28933" lat="59.9087694458" lon="10.4248861092">
		<tag k="name" v="Tjernsøyet" />
		<tag k="natural" v="water" />
		<tag k="ssr:stedsnr" v="447028" />
	</node>
	<node id="-28916" lat="60.0152504363" lon="10.4714823915">
		<tag k="name" v="Setervann" />
		<tag k="natural" v="water" />
		<tag k="ssr:stedsnr" v="127909" />
		<tag k="water" v="lake" />
	</node>
	<node id="-29931" lat="59.9840999965" lon="10.4229916656">
		<tag k="name" v="Langebrubekken" />
		<tag k="ssr:stedsnr" v="811107" />
		<tag k="waterway" v="stream" />
	</node>
	<node id="-29925" lat="59.9408972262" lon="10.4262777798">
		<tag k="name" v="Liabekken" />
		<tag k="ssr:stedsnr" v="811002" />
		<tag k="waterway" v="stream" />
	</node>
	<node id="-29924" lat="59.9995416698" lon="10.4322583312">
		<tag k="alt_name" v="Holmenvatnet" />
		<tag k="name" v="Holmenvann" />
		<tag k="natural" v="water" />
		<tag k="ssr:stedsnr" v="794935" />
	</node>
	<node id="-29411" lat="59.9792611126" lon="10.39124166">
		<tag k="name" v="Isielva" />
		<tag k="ssr:stedsnr" v="65023" />
		<tag k="waterway" v="river" />
	</node>
	<node id="-29920" lat="59.9512555546" lon="10.3485111095">
		<tag k="alt_name" v="Huldertjern;Huldretjern" />
		<tag k="name" v="Huldertjernet" />
		<tag k="natural" v="water" />
		<tag k="ssr:stedsnr" v="793998" />
	</node>
	<node id="-29387" lat="59.9615777779" lon="10.4735305531">
		<tag k="name" v="Skolebekken" />
		<tag k="ssr:stedsnr" v="23098" />
		<tag k="waterway" v="stream" />
	</node>
	<node id="-29383" lat="59.9625166709" lon="10.3534611083">
		<tag k="name" v="Nordre Tjernslitjern" />
		<tag k="natural" v="water" />
		<tag k="ssr:stedsnr" v="23053" />
	</node>
	<node id="-29889" lat="59.9726805596" lon="10.5125861102">
		<tag k="name" v="Burudodden" />
		<tag k="natural" v="cape" />
		<tag k="ssr:stedsnr" v="750866" />
	</node>
	<node id="-29372" lat="59.9373277788" lon="10.5070555614">
		<tag k="name" v="Vallersbekken" />
		<tag k="old_name" v="Valtersbekken" />
		<tag k="ssr:stedsnr" v="22944" />
		<tag k="waterway" v="stream" />
	</node>
	<node id="-29371" lat="59.9838194477" lon="10.4299083282">
		<tag k="name" v="Sølvbekken" />
		<tag k="ssr:stedsnr" v="22089" />
		<tag k="waterway" v="stream" />
	</node>
	<node id="-29370" lat="60.0253722244" lon="10.4753305601">
		<tag k="alt_name" v="Helvetesputten" />
		<tag k="name" v="Helvetesputtane" />
		<tag k="natural" v="water" />
		<tag k="ssr:stedsnr" v="5985" />
	</node>
	<node id="-28848" lat="59.9761111149" lon="10.3811777767">
		<tag k="name" v="Grautturubekken" />
		<tag k="ssr:stedsnr" v="247026" />
		<tag k="waterway" v="stream" />
	</node>
	<node id="-29350" lat="59.9669611126" lon="10.5215055567">
		<tag k="name" v="Øyervann" />
		<tag k="natural" v="water" />
		<tag k="ssr:stedsnr" v="4034" />
	</node>
	<node id="-29349" lat="59.9821388851" lon="10.5002305561">
		<tag k="name" v="Petersbekken" />
		<tag k="ssr:stedsnr" v="4009" />
		<tag k="waterway" v="stream" />
	</node>
	<node id="-28836" lat="59.9825416647" lon="10.582761114">
		<tag k="alt_name" v="Åbortjernbekken" />
		<tag k="name" v="Åborbekken" />
		<tag k="ssr:stedsnr" v="65006" />
		<tag k="waterway" v="stream" />
	</node>
	<node id="-28835" lat="59.9921750039" lon="10.5629861118">
		<tag k="alt_name" v="Abortjernet;Åbortjernet" />
		<tag k="name" v="Åbortjern" />
		<tag k="natural" v="water" />
		<tag k="ssr:stedsnr" v="65104" />
	</node>
	<node id="-28833" lat="59.8764861137" lon="10.4603472294">
		<tag k="name" v="Stokkerelva" />
		<tag k="ssr:stedsnr" v="64839" />
		<tag k="waterway" v="stream" />
	</node>
	<node id="-29340" lat="59.9294277794" lon="10.5162972199">
		<tag k="name" v="Kolsåsputten" />
		<tag k="natural" v="water" />
		<tag k="ssr:stedsnr" v="932933" />
	</node>
	<node id="-29039" lat="59.9882805522" lon="10.4840972277">
		<tag k="name" v="Gransnarbekken" />
		<tag k="ssr:stedsnr" v="507963" />
		<tag k="waterway" v="stream" />
	</node>
	<node id="-29846" lat="59.9268611107" lon="10.5421694393">
		<tag k="alt_name" v="Stensbekken" />
		<tag k="name" v="Steinsbekken" />
		<tag k="ssr:stedsnr" v="628996" />
		<tag k="waterway" v="stream" />
	</node>
	<node id="-29330" lat="59.894288889" lon="10.4439722142">
		<tag k="name" v="Skvallerbekk" />
		<tag k="ssr:stedsnr" v="872631" />
		<tag k="waterway" v="stream" />
	</node>
	<node id="-29328" lat="59.936811112" lon="10.3672166696">
		<tag k="name" v="Kjagdalsbekken" />
		<tag k="ssr:stedsnr" v="872121" />
		<tag k="waterway" v="stream" />
	</node>
	<node id="-29325" lat="59.9726194413" lon="10.4742166708">
		<tag k="name" v="Vensåsbekken" />
		<tag k="ssr:stedsnr" v="872077" />
		<tag k="waterway" v="stream" />
	</node>
	<node id="-29323" lat="59.978536114" lon="10.4535055516">
		<tag k="name" v="Nordlibekken" />
		<tag k="ssr:stedsnr" v="872070" />
		<tag k="waterway" v="stream" />
	</node>
	<node id="-29321" lat="59.9010527821" lon="10.5664333388">
		<tag k="name" v="Ramstaddammen" />
		<tag k="natural" v="water" />
		<tag k="ssr:stedsnr" v="871873" />
	</node>
	<node id="-29832" lat="59.956094444" lon="10.4020361153">
		<tag k="name" v="Ålevann" />
		<tag k="natural" v="water" />
		<tag k="ssr:stedsnr" v="611054" />
	</node>
	<node id="-29829" lat="59.9912833345" lon="10.459419444">
		<tag k="alt_name" v="Vesleelva" />
		<tag k="name" v="Veslelva" />
		<tag k="ssr:stedsnr" v="610114" />
		<tag k="waterway" v="stream" />
	</node>
	<node id="-29828" lat="59.99218056" lon="10.4445750062">
		<tag k="alt_name" v="Holmevannsbekken" />
		<tag k="name" v="Holmevassbekken" />
		<tag k="ssr:stedsnr" v="610111" />
		<tag k="waterway" v="stream" />
	</node>
	<node id="-29313" lat="59.9547361104" lon="10.4058250064">
		<tag k="name" v="Ålevannsbekken" />
		<tag k="ssr:stedsnr" v="871008" />
		<tag k="waterway" v="stream" />
	</node>
	<node id="-29304" lat="59.8757527812" lon="10.4133499953">
		<tag k="name" v="Gupuelva" />
		<tag k="ssr:stedsnr" v="853826" />
		<tag k="waterway" v="stream" />
	</node>
	<node id="-29796" lat="59.9867055521" lon="10.4326222277">
		<tag k="name" v="Trangfoss" />
		<tag k="natural" v="waterfall" />
		<tag k="ssr:stedsnr" v="567969" />
	</node>
	<node id="-29786" lat="59.9503250034" lon="10.5058250002">
		<tag k="name" v="Burudelva" />
		<tag k="ssr:stedsnr" v="567110" />
		<tag k="waterway" v="stream" />
	</node>
	<node id="-29784" lat="59.909188891" lon="10.393444446">
		<tag k="name" v="Ringdalsbekken" />
		<tag k="ssr:stedsnr" v="567034" />
		<tag k="waterway" v="stream" />
	</node>
	<node id="-29271" lat="59.9498138921" lon="10.5868000041">
		<tag k="name" v="Ilabekken" />
		<tag k="ssr:stedsnr" v="811922" />
		<tag k="waterway" v="stream" />
	</node>
	<node id="-29269" lat="59.9111250015" lon="10.4073666655">
		<tag k="name" v="Langåsbekken" />
		<tag k="ssr:stedsnr" v="811046" />
		<tag k="waterway" v="stream" />
	</node>
	<node id="-29267" lat="59.9066833296" lon="10.3793333341">
		<tag k="name" v="Steindalsbekken" />
		<tag k="ssr:stedsnr" v="811039" />
		<tag k="waterway" v="stream" />
	</node>
	<node id="-29778" lat="60.0106749991" lon="10.4335111114">
		<tag k="name" v="Småvann" />
		<tag k="natural" v="water" />
		<tag k="ssr:stedsnr" v="551890" />
		<tag k="water" v="lake" />
	</node>
	<node id="-29774" lat="59.9256000027" lon="10.5204722175">
		<tag k="alt_name" v="Setertjern" />
		<tag k="name" v="Sætertjernet" />
		<tag k="natural" v="water" />
		<tag k="ssr:stedsnr" v="550957" />
	</node>
	<node id="-29261" lat="59.9489277778" lon="10.428533327">
		<tag k="name" v="Langemyrsbekken" />
		<tag k="ssr:stedsnr" v="811009" />
		<tag k="waterway" v="stream" />
	</node>
	<node id="-29252" lat="59.9537527804" lon="10.55368611">
		<tag k="alt_name" v="Sæternbekken" />
		<tag k="name" v="Sæterbekken" />
		<tag k="ssr:stedsnr" v="915502" />
		<tag k="waterway" v="stream" />
	</node>
	<node id="-29241" lat="59.9901916697" lon="10.4265638892">
		<tag k="name" v="Lomma" />
		<tag k="ssr:stedsnr" v="914113" />
		<tag k="waterway" v="river" />
	</node>
	<node id="-29239" lat="59.9943027748" lon="10.4774555603">
		<tag k="name" v="Haukedalsbekken" />
		<tag k="ssr:stedsnr" v="914085" />
		<tag k="waterway" v="stream" />
	</node>
	<node id="-29237" lat="59.9776305511" lon="10.5285222221">
		<tag k="name" v="Svartvann" />
		<tag k="natural" v="water" />
		<tag k="ssr:stedsnr" v="914015" />
	</node>
	<node id="-29732" lat="59.9691305542" lon="10.3761750009">
		<tag k="alt_name" v="Holmevannsbekken" />
		<tag k="name" v="Holmevassbekken" />
		<tag k="ssr:stedsnr" v="429490" />
		<tag k="waterway" v="stream" />
	</node>
	<node id="-29219" lat="60.0201666674" lon="10.4756722246">
		<tag k="name" v="Jonsputten" />
		<tag k="natural" v="water" />
		<tag k="ssr:stedsnr" v="734901" />
	</node>
	<node id="-29709" lat="59.9770583307" lon="10.51759723">
		<tag k="name" v="Svartvannsbekken" />
		<tag k="ssr:stedsnr" v="386885" />
		<tag k="waterway" v="stream" />
	</node>
	<node id="-29705" lat="59.8905694468" lon="10.4195388946">
		<tag k="name" v="Haugsvollbekken" />
		<tag k="ssr:stedsnr" v="386590" />
		<tag k="waterway" v="stream" />
	</node>
	<node id="-29699" lat="59.9635944409" lon="10.4549861139">
		<tag k="name" v="Granholtbekken" />
		<tag k="ssr:stedsnr" v="386078" />
		<tag k="waterway" v="stream" />
	</node>
</osm>
