<?xml version="1.0" encoding="UTF-8"?>
<<<<<<< HEAD
<osm version="0.6" generator="osmapis">
	<node lat="59.97507222294252" lon="10.453569453082109" id="-13166">
		<tag k="name" v="Moltemyr" />
		<tag k="natural" v="wetland" />
		<tag k="ssr:stedsnr" v="23095" />
	</node>
	<node lat="59.90649166985893" lon="10.417338886479456" id="-13173">
		<tag k="alt_name" v="Breidmåsan;Breidmosan" />
		<tag k="name" v="Breimåsan" />
		<tag k="natural" v="wetland" />
		<tag k="ssr:stedsnr" v="39877" />
	</node>
	<node lat="59.942574997514974" lon="10.43392222573258" id="-13196">
		<tag k="name" v="Springslettmyra" />
		<tag k="natural" v="wetland" />
		<tag k="ssr:stedsnr" v="83022" />
	</node>
	<node lat="60.028494446376705" lon="10.449608331960567" id="-13228">
		<tag k="name" v="Slåttmyra" />
		<tag k="natural" v="wetland" />
		<tag k="ssr:stedsnr" v="248986" />
	</node>
	<node lat="59.97946111106058" lon="10.521472223535136" id="-13233">
		<tag k="name" v="Bærumsmarka" />
		<tag k="place" v="locality" />
		<tag k="ssr:stedsnr" v="125010" />
	</node>
	<node lat="59.97452500025063" lon="10.559766659489629" id="-13234">
		<tag k="alt_name" v="Hestmyr" />
		<tag k="name" v="Hestemyra" />
		<tag k="natural" v="wetland" />
		<tag k="ssr:stedsnr" v="125015" />
	</node>
	<node lat="59.95083055737769" lon="10.39444444755667" id="-13241">
		<tag k="historic" v="shieling" />
		<tag k="name" v="Vuivollen" />
		<tag k="place" v="locality" />
		<tag k="ssr:stedsnr" v="143004" />
	</node>
	<node lat="59.996605559442145" lon="10.54338610685303" id="-13280">
		<tag k="name" v="Breimåsan" />
		<tag k="natural" v="wetland" />
		<tag k="ssr:stedsnr" v="264921" />
	</node>
	<node lat="59.988425001089645" lon="10.509858336633718" id="-13281">
		<tag k="name" v="Haugkollmyra" />
		<tag k="natural" v="wetland" />
		<tag k="ssr:stedsnr" v="264924" />
	</node>
	<node lat="59.92997777733423" lon="10.517563891350308" id="-13308">
		<tag k="name" v="Kolsåsmyra" />
		<tag k="natural" v="wetland" />
		<tag k="ssr:stedsnr" v="204943" />
	</node>
	<node lat="59.893839527746806" lon="10.420546562798982" id="-13332">
		<tag k="historic" v="shieling" />
		<tag k="name" v="Haugsvollen" />
		<tag k="place" v="locality" />
		<tag k="ssr:stedsnr" v="247854" />
	</node>
	<node lat="59.92978610952504" lon="10.37498056303259" id="-13341">
		<tag k="name" v="Buråsmyra" />
		<tag k="natural" v="wetland" />
		<tag k="ssr:stedsnr" v="265113" />
	</node>
	<node lat="59.927219442499045" lon="10.414688894884627" id="-13342">
		<tag k="historic" v="shieling" />
		<tag k="name" v="Økrisetervollen" />
		<tag k="place" v="locality" />
		<tag k="ssr:stedsnr" v="265114" />
	</node>
	<node lat="59.94643056000704" lon="10.481516667799731" id="-13366">
		<tag k="name" v="Bjønnemyra" />
=======
<osm generator="osmapis" version="0.6">
	<node id="-247801" lat="59.9866138914" lon="10.480705556">
		<tag k="name" v="Flekkrosmyra" />
>>>>>>> e1d4bc35ff8a6074a6f2e91616a996b547c36f15
		<tag k="natural" v="wetland" />
		<tag k="ssr:stedsnr" v="325017" />
	</node>
<<<<<<< HEAD
	<node lat="59.94199999785883" lon="10.4874694432975" id="-13368">
		<tag k="name" v="Gruvemyra" />
=======
	<node id="-247793" lat="59.9212805575" lon="10.4053027704">
		<tag k="name" v="Stakamyr" />
>>>>>>> e1d4bc35ff8a6074a6f2e91616a996b547c36f15
		<tag k="natural" v="wetland" />
		<tag k="ssr:stedsnr" v="325102" />
	</node>
<<<<<<< HEAD
	<node lat="59.951458331274424" lon="10.445494453177487" id="-13369">
		<tag k="historic" v="shieling" />
		<tag k="name" v="Isivollen" />
		<tag k="place" v="locality" />
		<tag k="ssr:stedsnr" v="325103" />
	</node>
	<node lat="59.986427779948855" lon="10.54303055552594" id="-13374">
		<tag k="alt_name" v="Ødegårdsmyra" />
		<tag k="name" v="Øgardsmyra" />
=======
	<node id="-248303" lat="59.9299777773" lon="10.5175638914">
		<tag k="name" v="Kolsåsmyra" />
		<tag k="natural" v="wetland" />
		<tag k="ssr:stedsnr" v="204943" />
	</node>
	<node id="-248298" lat="59.9624527759" lon="10.587516672">
		<tag k="name" v="Dæhlimåsan" />
>>>>>>> e1d4bc35ff8a6074a6f2e91616a996b547c36f15
		<tag k="natural" v="wetland" />
		<tag k="ssr:stedsnr" v="325915" />
	</node>
<<<<<<< HEAD
	<node lat="59.93144444335227" lon="10.391166672507287" id="-13375">
		<tag k="name" v="Nysetermyra" />
		<tag k="natural" v="wetland" />
		<tag k="ssr:stedsnr" v="326108" />
	</node>
	<node lat="59.92619999804686" lon="10.417058335260423" id="-13402">
=======
	<node id="-247780" lat="59.9248249989" lon="10.3859583282">
		<tag k="name" v="Gotlandsmyra" />
		<tag k="natural" v="wetland" />
		<tag k="ssr:stedsnr" v="508109" />
	</node>
	<node id="-248283" lat="59.9365527808" lon="10.5206666693">
		<tag k="alt_name" v="Steinskogen" />
		<tag k="name" v="Steinsskogen" />
		<tag k="place" v="locality" />
		<tag k="ssr:stedsnr" v="186965" />
	</node>
	<node id="-248779" lat="59.8849002651" lon="10.5231607096">
		<tag k="name" v="Bestemorskogen" />
		<tag k="place" v="locality" />
		<tag k="ssr:stedsnr" v="1072603" />
	</node>
	<node id="-247754" lat="59.926199998" lon="10.4170583353">
>>>>>>> e1d4bc35ff8a6074a6f2e91616a996b547c36f15
		<tag k="name" v="Fuglemyr" />
		<tag k="natural" v="wetland" />
		<tag k="ssr:stedsnr" v="386117" />
	</node>
<<<<<<< HEAD
	<node lat="59.88111388583229" lon="10.415380548936144" id="-13411">
		<tag k="name" v="Gupumyrene" />
		<tag k="natural" v="wetland" />
		<tag k="ssr:stedsnr" v="386596" />
	</node>
	<node lat="59.88340555800531" lon="10.395041666025023" id="-13427">
=======
	<node id="-248138" lat="59.9064916699" lon="10.4173388865">
		<tag k="alt_name" v="Breidmåsan;Breidmosan" />
		<tag k="name" v="Breimåsan" />
		<tag k="natural" v="wetland" />
		<tag k="ssr:stedsnr" v="39877" />
	</node>
	<node id="-247736" lat="59.883405558" lon="10.395041666">
>>>>>>> e1d4bc35ff8a6074a6f2e91616a996b547c36f15
		<tag k="alt_name" v="Semsmosan" />
		<tag k="name" v="Semsmåsan" />
		<tag k="natural" v="wetland" />
		<tag k="ssr:stedsnr" v="489853" />
	</node>
<<<<<<< HEAD
	<node lat="59.92128055753154" lon="10.40530277043036" id="-13452">
		<tag k="name" v="Stakamyr" />
		<tag k="natural" v="wetland" />
		<tag k="ssr:stedsnr" v="447110" />
	</node>
	<node lat="59.95379166610476" lon="10.43519999719777" id="-13471">
		<tag k="name" v="Langmyr" />
=======
	<node id="-248230" lat="60.0157083307" lon="10.4901000022">
		<tag k="name" v="L-stein" />
		<tag k="natural" v="stone" />
		<tag k="ssr:stedsnr" v="143928" />
	</node>
	<node id="-247717" lat="59.9314444434" lon="10.3911666725">
		<tag k="name" v="Nysetermyra" />
>>>>>>> e1d4bc35ff8a6074a6f2e91616a996b547c36f15
		<tag k="natural" v="wetland" />
		<tag k="ssr:stedsnr" v="672055" />
	</node>
<<<<<<< HEAD
	<node lat="59.872994448741075" lon="10.574080559550234" id="-13489">
		<tag k="name" v="Nordhagen" />
		<tag k="place" v="locality" />
		<tag k="ssr:stedsnr" v="507260" />
	</node>
	<node lat="59.924824998863976" lon="10.385958328216399" id="-13496">
		<tag k="name" v="Gotlandsmyra" />
=======
	<node id="-247716" lat="59.9864277799" lon="10.5430305555">
		<tag k="alt_name" v="Ødegårdsmyra" />
		<tag k="name" v="Øgardsmyra" />
>>>>>>> e1d4bc35ff8a6074a6f2e91616a996b547c36f15
		<tag k="natural" v="wetland" />
		<tag k="ssr:stedsnr" v="508109" />
	</node>
<<<<<<< HEAD
	<node lat="59.97411110670197" lon="10.412497230630766" id="-13518">
		<tag k="name" v="Hengsveputt" />
=======
	<node id="-248225" lat="59.981891669" lon="10.5701166745">
		<tag k="name" v="Lille Lønnemåsan" />
>>>>>>> e1d4bc35ff8a6074a6f2e91616a996b547c36f15
		<tag k="natural" v="wetland" />
		<tag k="ssr:stedsnr" v="689019" />
	</node>
<<<<<<< HEAD
	<node lat="59.94860555448679" lon="10.531691658767848" id="-13519">
		<tag k="name" v="Olasmyra" />
=======
	<node id="-248223" lat="59.9672333297" lon="10.5942833353">
		<tag k="name" v="Slepmyr" />
>>>>>>> e1d4bc35ff8a6074a6f2e91616a996b547c36f15
		<tag k="natural" v="wetland" />
		<tag k="ssr:stedsnr" v="689116" />
	</node>
<<<<<<< HEAD
	<node lat="59.93437499583814" lon="10.393069437922302" id="-13532">
		<tag k="name" v="Kavringen" />
=======
	<node id="-248220" lat="59.9839555564" lon="10.5486499968">
		<tag k="historic" v="shieling" />
		<tag k="name" v="Dæliseterhyttene" />
>>>>>>> e1d4bc35ff8a6074a6f2e91616a996b547c36f15
		<tag k="place" v="locality" />
		<tag k="ssr:stedsnr" v="690115" />
	</node>
<<<<<<< HEAD
	<node lat="59.92396666843869" lon="10.401988896849634" id="-13549">
		<tag k="name" v="Krakmyr" />
=======
	<node id="-248219" lat="59.984572218" lon="10.5599138815">
		<tag k="name" v="Store Lønnemåsan" />
>>>>>>> e1d4bc35ff8a6074a6f2e91616a996b547c36f15
		<tag k="natural" v="wetland" />
		<tag k="ssr:stedsnr" v="568103" />
	</node>
<<<<<<< HEAD
	<node lat="59.91871944570538" lon="10.385930555974562" id="-13551">
=======
	<node id="-247699" lat="59.8931000003" lon="10.4233777756">
>>>>>>> e1d4bc35ff8a6074a6f2e91616a996b547c36f15
		<tag k="historic" v="shieling" />
		<tag k="name" v="Hornivollen" />
		<tag k="place" v="locality" />
		<tag k="ssr:stedsnr" v="568107" />
	</node>
<<<<<<< HEAD
	<node lat="59.885569445869734" lon="10.409422219241064" id="-13557">
		<tag k="name" v="Tranbymyra" />
=======
	<node id="-248205" lat="59.9240027735" lon="10.3959749922">
		<tag k="name" v="Puttmyrene" />
>>>>>>> e1d4bc35ff8a6074a6f2e91616a996b547c36f15
		<tag k="natural" v="wetland" />
		<tag k="ssr:stedsnr" v="568576" />
	</node>
<<<<<<< HEAD
	<node lat="59.882188885597806" lon="10.42037776870622" id="-13586">
		<tag k="historic" v="shieling" />
		<tag k="name" v="Askersetra" />
		<tag k="place" v="locality" />
		<tag k="ssr:stedsnr" v="629594" />
	</node>
	<node lat="59.89033611271524" lon="10.383763886605704" id="-13604">
		<tag k="name" v="Jongsmyr" />
		<tag k="natural" v="wetland" />
		<tag k="ssr:stedsnr" v="671873" />
	</node>
	<node lat="59.95196944474665" lon="10.363277773091514" id="-13612">
		<tag k="name" v="Purkemyr" />
=======
	<node id="-247683" lat="59.9736972245" lon="10.5077833326">
		<tag k="name" v="Momyra" />
>>>>>>> e1d4bc35ff8a6074a6f2e91616a996b547c36f15
		<tag k="natural" v="wetland" />
		<tag k="ssr:stedsnr" v="689045" />
	</node>
<<<<<<< HEAD
	<node lat="59.89517777724602" lon="10.394236115124984" id="-13621">
		<tag k="name" v="Nedre Vassmyr" />
		<tag k="natural" v="wetland" />
		<tag k="ssr:stedsnr" v="690632" />
	</node>
	<node lat="59.99242499973794" lon="10.482741665879935" id="-13642">
		<tag k="name" v="Smedmyrene" />
		<tag k="natural" v="wetland" />
		<tag k="ssr:stedsnr" v="750957" />
	</node>
	<node lat="59.89416667020006" lon="10.442255555610169" id="-13653">
		<tag k="name" v="Trollmyr" />
=======
	<node id="-248702" lat="59.9456249973" lon="10.4581027713">
		<tag k="name" v="Isimyra" />
		<tag k="natural" v="wetland" />
		<tag k="ssr:stedsnr" v="854995" />
	</node>
	<node id="-247677" lat="59.9662583331" lon="10.4406611118">
		<tag k="name" v="Råmarka" />
		<tag k="place" v="locality" />
		<tag k="ssr:stedsnr" v="447085" />
	</node>
	<node id="-247672" lat="59.9526527807" lon="10.3698388847">
		<tag k="name" v="Haugermyr" />
>>>>>>> e1d4bc35ff8a6074a6f2e91616a996b547c36f15
		<tag k="natural" v="wetland" />
		<tag k="ssr:stedsnr" v="751614" />
	</node>
<<<<<<< HEAD
	<node lat="60.009802776603415" lon="10.468177771095956" id="-13665">
		<tag k="name" v="Hellerudmyra" />
		<tag k="natural" v="wetland" />
		<tag k="ssr:stedsnr" v="794874" />
	</node>
	<node lat="59.95873888690492" lon="10.397963888444576" id="-13690">
		<tag k="name" v="Lillevannsmyr" />
=======
	<node id="-248211" lat="59.9508305574" lon="10.3944444476">
		<tag k="historic" v="shieling" />
		<tag k="name" v="Vuivollen" />
		<tag k="place" v="locality" />
		<tag k="ssr:stedsnr" v="143004" />
	</node>
	<node id="-248687" lat="59.8660999964" lon="10.5832500046">
		<tag k="landuse" v="meadow" />
		<tag k="name" v="Storenga" />
		<tag k="ssr:stedsnr" v="812270" />
	</node>
	<node id="-248167" lat="59.9734999994" lon="10.5961583402">
		<tag k="name" v="Fløtmyr" />
>>>>>>> e1d4bc35ff8a6074a6f2e91616a996b547c36f15
		<tag k="natural" v="wetland" />
		<tag k="ssr:stedsnr" v="811016" />
	</node>
	<node lat="59.96614167039956" lon="10.400755555013948" id="-13691">
		<tag k="name" v="Larsløkka" />
		<tag k="place" v="locality" />
		<tag k="ssr:stedsnr" v="811024" />
	</node>
	<node lat="59.96001666677363" lon="10.484388895283098" id="-13693">
		<tag k="landuse" v="meadow" />
		<tag k="name" v="Trulsrudholmen" />
		<tag k="ssr:stedsnr" v="811030" />
	</node>
<<<<<<< HEAD
	<node lat="59.896274999294" lon="10.400883333661579" id="-13700">
=======
	<node id="-248123" lat="59.9750722229" lon="10.4535694531">
		<tag k="name" v="Moltemyr" />
		<tag k="natural" v="wetland" />
		<tag k="ssr:stedsnr" v="23095" />
	</node>
	<node id="-248672" lat="59.8962749993" lon="10.4008833337">
>>>>>>> e1d4bc35ff8a6074a6f2e91616a996b547c36f15
		<tag k="name" v="Kirkerudmyra" />
		<tag k="natural" v="wetland" />
		<tag k="ssr:stedsnr" v="811581" />
	</node>
<<<<<<< HEAD
	<node lat="59.996075003494994" lon="10.43396667373893" id="-13711">
		<tag k="name" v="Torgemyra" />
		<tag k="natural" v="wetland" />
		<tag k="ssr:stedsnr" v="853059" />
	</node>
	<node lat="59.93632499881142" lon="10.364619441981569" id="-13717">
		<tag k="name" v="Persmyra" />
=======
	<node id="-248671" lat="59.9233944402" lon="10.4220000019">
		<tag k="name" v="Risfjellmyra" />
		<tag k="natural" v="wetland" />
		<tag k="ssr:stedsnr" v="811123" />
	</node>
	<node id="-247642" lat="59.9272194425" lon="10.4146888949">
		<tag k="historic" v="shieling" />
		<tag k="name" v="Økrisetervollen" />
		<tag k="place" v="locality" />
		<tag k="ssr:stedsnr" v="265114" />
	</node>
	<node id="-247641" lat="59.9297861095" lon="10.374980563">
		<tag k="name" v="Buråsmyra" />
>>>>>>> e1d4bc35ff8a6074a6f2e91616a996b547c36f15
		<tag k="natural" v="wetland" />
		<tag k="ssr:stedsnr" v="854953" />
	</node>
<<<<<<< HEAD
	<node lat="59.94578333388687" lon="10.462341670870272" id="-13722">
		<tag k="name" v="Vintermyra" />
=======
	<node id="-248659" lat="60.0098027766" lon="10.4681777711">
		<tag k="name" v="Hellerudmyra" />
>>>>>>> e1d4bc35ff8a6074a6f2e91616a996b547c36f15
		<tag k="natural" v="wetland" />
		<tag k="ssr:stedsnr" v="871022" />
	</node>
<<<<<<< HEAD
	<node lat="59.94313055774896" lon="10.433666666583054" id="-13734">
		<tag k="name" v="Engebråtmyra" />
=======
	<node id="-247627" lat="59.9884250011" lon="10.5098583366">
		<tag k="name" v="Haugkollmyra" />
>>>>>>> e1d4bc35ff8a6074a6f2e91616a996b547c36f15
		<tag k="natural" v="wetland" />
		<tag k="ssr:stedsnr" v="932028" />
	</node>
<<<<<<< HEAD
	<node lat="59.99474722042474" lon="10.525066662418032" id="-13745">
		<tag k="name" v="Slåttemyra" />
		<tag k="natural" v="wetland" />
		<tag k="ssr:stedsnr" v="932915" />
	</node>
	<node lat="59.978575003666705" lon="10.542913886857328" id="-13754">
		<tag k="alt_name" v="Puttmyr" />
		<tag k="name" v="Puttmyra" />
=======
	<node id="-247626" lat="59.9966055594" lon="10.5433861069">
		<tag k="name" v="Breimåsan" />
		<tag k="natural" v="wetland" />
		<tag k="ssr:stedsnr" v="264921" />
	</node>
	<node id="-248131" lat="59.8637638916" lon="10.5650555626">
		<tag k="landuse" v="meadow" />
		<tag k="name" v="Møllerenga" />
		<tag k="ssr:stedsnr" v="23296" />
	</node>
	<node id="-248640" lat="59.9732444437" lon="10.5453027726">
		<tag k="alt_name" v="Setermyra" />
		<tag k="name" v="Sætermyra" />
>>>>>>> e1d4bc35ff8a6074a6f2e91616a996b547c36f15
		<tag k="natural" v="wetland" />
		<tag k="ssr:stedsnr" v="914014" />
	</node>
<<<<<<< HEAD
	<node lat="59.9500750022368" lon="10.580661108754647" id="-13765">
		<tag k="name" v="Engjordene" />
		<tag k="place" v="locality" />
		<tag k="ssr:stedsnr" v="932862" />
	</node>
	<node lat="59.94404999992513" lon="10.538016673070056" id="-13809">
		<tag k="name" v="Vintermyrene" />
		<tag k="natural" v="wetland" />
		<tag k="ssr:stedsnr" v="4972" />
	</node>
	<node lat="59.95854722547681" lon="10.48570555234137" id="-13814">
		<tag k="landuse" v="meadow" />
		<tag k="name" v="Krysbyholmen" />
		<tag k="ssr:stedsnr" v="22013" />
	</node>
	<node lat="59.94430277529114" lon="10.458022221825555" id="-13815">
		<tag k="name" v="Haugsmyra" />
=======
	<node id="-247611" lat="59.8706861129" lon="10.5820694459">
		<tag k="name" v="Salpejordet" />
		<tag k="place" v="locality" />
		<tag k="ssr:stedsnr" v="84261" />
	</node>
	<node id="-247607" lat="60.0061583339" lon="10.4507888857">
		<tag k="name" v="Nedre Småvassmyra" />
>>>>>>> e1d4bc35ff8a6074a6f2e91616a996b547c36f15
		<tag k="natural" v="wetland" />
		<tag k="ssr:stedsnr" v="22018" />
	</node>
<<<<<<< HEAD
	<node lat="59.9721166701442" lon="10.532594441508182" id="-13821">
		<tag k="name" v="Fuglleikmyra" />
=======
	<node id="-247606" lat="59.9726055562" lon="10.481558336">
		<tag k="name" v="Vensåsmyra" />
>>>>>>> e1d4bc35ff8a6074a6f2e91616a996b547c36f15
		<tag k="natural" v="wetland" />
		<tag k="ssr:stedsnr" v="83964" />
	</node>
<<<<<<< HEAD
	<node lat="60.01713055524558" lon="10.480716672993507" id="-13822">
		<tag k="name" v="Puttemyra" />
		<tag k="natural" v="wetland" />
		<tag k="ssr:stedsnr" v="22969" />
	</node>
	<node lat="59.91654444269214" lon="10.538616661148104" id="-13825">
=======
	<node id="-248115" lat="59.9165444427" lon="10.5386166611">
>>>>>>> e1d4bc35ff8a6074a6f2e91616a996b547c36f15
		<tag k="landuse" v="meadow" />
		<tag k="name" v="Langenga" />
		<tag k="ssr:stedsnr" v="22981" />
	</node>
<<<<<<< HEAD
	<node lat="59.86376389158731" lon="10.565055562613495" id="-13833">
		<tag k="landuse" v="meadow" />
		<tag k="name" v="Møllerenga" />
		<tag k="ssr:stedsnr" v="23296" />
	</node>
	<node lat="59.94428055650276" lon="10.464930563044476" id="-13850">
		<tag k="name" v="Torvmyra" />
		<tag k="natural" v="wetland" />
		<tag k="ssr:stedsnr" v="82024" />
	</node>
	<node lat="59.973499999387826" lon="10.596158340235172" id="-13852">
		<tag k="name" v="Fløtmyr" />
=======
	<node id="-247601" lat="59.8950805526" lon="10.3833333244">
		<tag k="name" v="Blekkemyr" />
		<tag k="natural" v="wetland" />
		<tag k="ssr:stedsnr" v="83571" />
	</node>
	<node id="-248112" lat="60.0171305552" lon="10.480716673">
		<tag k="name" v="Puttemyra" />
>>>>>>> e1d4bc35ff8a6074a6f2e91616a996b547c36f15
		<tag k="natural" v="wetland" />
		<tag k="ssr:stedsnr" v="82896" />
	</node>
<<<<<<< HEAD
	<node lat="59.895080552588084" lon="10.383333324435585" id="-13858">
		<tag k="name" v="Blekkemyr" />
=======
	<node id="-248623" lat="59.9705805575" lon="10.5014166739">
		<tag k="name" v="Bikkjemyrene" />
>>>>>>> e1d4bc35ff8a6074a6f2e91616a996b547c36f15
		<tag k="natural" v="wetland" />
		<tag k="ssr:stedsnr" v="83571" />
	</node>
<<<<<<< HEAD
	<node lat="59.97260555618497" lon="10.481558335992451" id="-13861">
		<tag k="name" v="Vensåsmyra" />
=======
	<node id="-247597" lat="59.9425749975" lon="10.4339222257">
		<tag k="name" v="Springslettmyra" />
>>>>>>> e1d4bc35ff8a6074a6f2e91616a996b547c36f15
		<tag k="natural" v="wetland" />
		<tag k="ssr:stedsnr" v="83964" />
	</node>
<<<<<<< HEAD
	<node lat="60.00615833394236" lon="10.45078888572951" id="-13862">
		<tag k="name" v="Nedre Småvassmyra" />
		<tag k="natural" v="wetland" />
		<tag k="ssr:stedsnr" v="83965" />
	</node>
	<node lat="59.87068611290253" lon="10.582069445869356" id="-13868">
		<tag k="name" v="Salpejordet" />
		<tag k="place" v="locality" />
		<tag k="ssr:stedsnr" v="84261" />
	</node>
	<node lat="59.92400277345842" lon="10.395974992211634" id="-13884">
		<tag k="name" v="Puttmyrene" />
=======
	<node id="-248618" lat="59.9924249997" lon="10.4827416659">
		<tag k="name" v="Smedmyrene" />
		<tag k="natural" v="wetland" />
		<tag k="ssr:stedsnr" v="750957" />
	</node>
	<node id="-247592" lat="59.9442805565" lon="10.464930563">
		<tag k="name" v="Torvmyra" />
		<tag k="natural" v="wetland" />
		<tag k="ssr:stedsnr" v="82024" />
	</node>
	<node id="-248103" lat="59.9440499999" lon="10.5380166731">
		<tag k="name" v="Vintermyrene" />
>>>>>>> e1d4bc35ff8a6074a6f2e91616a996b547c36f15
		<tag k="natural" v="wetland" />
		<tag k="ssr:stedsnr" v="125950" />
	</node>
<<<<<<< HEAD
	<node lat="59.984572217960086" lon="10.559913881476161" id="-13895">
		<tag k="name" v="Store Lønnemåsan" />
=======
	<node id="-247590" lat="60.0284944464" lon="10.449608332">
		<tag k="name" v="Slåttmyra" />
>>>>>>> e1d4bc35ff8a6074a6f2e91616a996b547c36f15
		<tag k="natural" v="wetland" />
		<tag k="ssr:stedsnr" v="143085" />
	</node>
<<<<<<< HEAD
	<node lat="59.98395555637597" lon="10.548649996815117" id="-13896">
=======
	<node id="-248625" lat="59.9735638885" lon="10.5114361097">
		<tag k="name" v="Vintermyra" />
		<tag k="natural" v="wetland" />
		<tag k="ssr:stedsnr" v="750865" />
	</node>
	<node id="-248590" lat="59.8821888856" lon="10.4203777687">
>>>>>>> e1d4bc35ff8a6074a6f2e91616a996b547c36f15
		<tag k="historic" v="shieling" />
		<tag k="name" v="Dæliseterhyttene" />
		<tag k="place" v="locality" />
		<tag k="ssr:stedsnr" v="143087" />
	</node>
<<<<<<< HEAD
	<node lat="59.9672333296627" lon="10.59428333530574" id="-13899">
		<tag k="name" v="Slepmyr" />
=======
	<node id="-247853" lat="59.9519694447" lon="10.3632777731">
		<tag k="name" v="Purkemyr" />
		<tag k="natural" v="wetland" />
		<tag k="ssr:stedsnr" v="689045" />
	</node>
	<node id="-248076" lat="59.9947472204" lon="10.5250666624">
		<tag k="name" v="Slåttemyra" />
>>>>>>> e1d4bc35ff8a6074a6f2e91616a996b547c36f15
		<tag k="natural" v="wetland" />
		<tag k="ssr:stedsnr" v="143869" />
	</node>
<<<<<<< HEAD
	<node lat="59.98189166899182" lon="10.570116674489462" id="-13901">
		<tag k="name" v="Lille Lønnemåsan" />
=======
	<node id="-248586" lat="59.9871583325" lon="10.5038111029">
		<tag k="name" v="Rompemyra" />
>>>>>>> e1d4bc35ff8a6074a6f2e91616a996b547c36f15
		<tag k="natural" v="wetland" />
		<tag k="ssr:stedsnr" v="143874" />
	</node>
<<<<<<< HEAD
	<node lat="60.01570833065732" lon="10.490100002228516" id="-13902">
		<tag k="name" v="L-stein" />
		<tag k="natural" v="stone" />
		<tag k="ssr:stedsnr" v="143928" />
	</node>
	<node lat="59.936552780785036" lon="10.520666669263631" id="-13934">
		<tag k="alt_name" v="Steinskogen" />
		<tag k="name" v="Steinsskogen" />
		<tag k="place" v="locality" />
		<tag k="ssr:stedsnr" v="186965" />
	</node>
	<node lat="59.96245277593032" lon="10.587516672042065" id="-13944">
		<tag k="name" v="Dæhlimåsan" />
		<tag k="natural" v="wetland" />
		<tag k="ssr:stedsnr" v="204876" />
	</node>
	<node lat="59.95112499956897" lon="10.353086108853054" id="-13983">
		<tag k="name" v="Huldremyr" />
=======
	<node id="-248069" lat="59.8618055529" lon="10.570311116">
		<tag k="landuse" v="meadow" />
		<tag k="name" v="Hestehagen" />
		<tag k="ssr:stedsnr" v="873257" />
	</node>
	<node id="-248022" lat="59.9500750022" lon="10.5806611088">
		<tag k="name" v="Engjordene" />
		<tag k="place" v="locality" />
		<tag k="ssr:stedsnr" v="932862" />
	</node>
	<node id="-248066" lat="59.8955944466" lon="10.4393305484">
		<tag k="name" v="Guttemyr" />
>>>>>>> e1d4bc35ff8a6074a6f2e91616a996b547c36f15
		<tag k="natural" v="wetland" />
		<tag k="ssr:stedsnr" v="325030" />
	</node>
<<<<<<< HEAD
	<node lat="59.96506666674659" lon="10.445936114412287" id="-14046">
		<tag k="name" v="Kirkebymyra" />
=======
	<node id="-248577" lat="59.9578583352" lon="10.3699805641">
		<tag k="name" v="Avtjernsmyra" />
>>>>>>> e1d4bc35ff8a6074a6f2e91616a996b547c36f15
		<tag k="natural" v="wetland" />
		<tag k="ssr:stedsnr" v="386090" />
	</node>
<<<<<<< HEAD
	<node lat="59.9526527807042" lon="10.369838884721622" id="-14086">
		<tag k="name" v="Haugermyr" />
=======
	<node id="-248576" lat="59.9110361123" lon="10.3822555566">
		<tag k="name" v="Kveisemyr" />
>>>>>>> e1d4bc35ff8a6074a6f2e91616a996b547c36f15
		<tag k="natural" v="wetland" />
		<tag k="ssr:stedsnr" v="447037" />
	</node>
<<<<<<< HEAD
	<node lat="59.96625833309065" lon="10.440661111774704" id="-14090">
		<tag k="name" v="Råmarka" />
		<tag k="place" v="locality" />
		<tag k="ssr:stedsnr" v="447085" />
	</node>
	<node lat="59.97369722451336" lon="10.50778333260813" id="-14102">
		<tag k="name" v="Momyra" />
=======
	<node id="-248052" lat="59.9457833339" lon="10.4623416709">
		<tag k="name" v="Vintermyra" />
>>>>>>> e1d4bc35ff8a6074a6f2e91616a996b547c36f15
		<tag k="natural" v="wetland" />
		<tag k="ssr:stedsnr" v="447869" />
	</node>
<<<<<<< HEAD
	<node lat="59.986613891396836" lon="10.480705555996025" id="-14104">
		<tag k="name" v="Flekkrosmyra" />
		<tag k="natural" v="wetland" />
		<tag k="ssr:stedsnr" v="447946" />
	</node>
	<node lat="59.899516667897906" lon="10.421091659674733" id="-14156">
		<tag k="name" v="Snømyr" />
=======
	<node id="-248190" lat="59.9745250003" lon="10.5597666595">
		<tag k="alt_name" v="Hestmyr" />
		<tag k="name" v="Hestemyra" />
		<tag k="natural" v="wetland" />
		<tag k="ssr:stedsnr" v="125015" />
	</node>
	<node id="-248616" lat="59.922100003" lon="10.3806222229">
		<tag k="name" v="Ormekollsmyra" />
		<tag k="natural" v="wetland" />
		<tag k="ssr:stedsnr" v="750089" />
	</node>
	<node id="-248046" lat="59.9363249988" lon="10.364619442">
		<tag k="name" v="Persmyra" />
>>>>>>> e1d4bc35ff8a6074a6f2e91616a996b547c36f15
		<tag k="natural" v="wetland" />
		<tag k="ssr:stedsnr" v="568052" />
	</node>
	<node lat="60.01670277953613" lon="10.458072223631495" id="-14161">
		<tag k="name" v="Krysbymyra" />
		<tag k="natural" v="wetland" />
		<tag k="ssr:stedsnr" v="567979" />
	</node>
<<<<<<< HEAD
	<node lat="59.86103333192437" lon="10.578308327106383" id="-14172">
=======
	<node id="-248189" lat="59.9794611111" lon="10.5214722235">
		<tag k="name" v="Bærumsmarka" />
		<tag k="place" v="locality" />
		<tag k="ssr:stedsnr" v="125010" />
	</node>
	<node id="-248555" lat="59.8610333319" lon="10.5783083271">
>>>>>>> e1d4bc35ff8a6074a6f2e91616a996b547c36f15
		<tag k="landuse" v="meadow" />
		<tag k="name" v="Bjørnenga" />
		<tag k="ssr:stedsnr" v="569252" />
	</node>
<<<<<<< HEAD
	<node lat="59.9110361122887" lon="10.382255556606156" id="-14191">
		<tag k="name" v="Kveisemyr" />
		<tag k="natural" v="wetland" />
		<tag k="ssr:stedsnr" v="628033" />
	</node>
	<node lat="59.95785833520683" lon="10.369980564133591" id="-14192">
		<tag k="name" v="Avtjernsmyra" />
=======
	<node id="-248039" lat="59.9960750035" lon="10.4339666737">
		<tag k="name" v="Torgemyra" />
		<tag k="natural" v="wetland" />
		<tag k="ssr:stedsnr" v="853059" />
	</node>
	<node id="-248545" lat="59.9187194457" lon="10.385930556">
		<tag k="historic" v="shieling" />
		<tag k="name" v="Hornivollen" />
		<tag k="place" v="locality" />
		<tag k="ssr:stedsnr" v="568107" />
	</node>
	<node id="-248543" lat="59.9239666684" lon="10.4019888968">
		<tag k="name" v="Krakmyr" />
>>>>>>> e1d4bc35ff8a6074a6f2e91616a996b547c36f15
		<tag k="natural" v="wetland" />
		<tag k="ssr:stedsnr" v="628035" />
	</node>
<<<<<<< HEAD
	<node lat="59.987158332471616" lon="10.503811102860626" id="-14195">
		<tag k="name" v="Rompemyra" />
=======
	<node id="-248539" lat="59.8995166679" lon="10.4210916597">
		<tag k="name" v="Snømyr" />
>>>>>>> e1d4bc35ff8a6074a6f2e91616a996b547c36f15
		<tag k="natural" v="wetland" />
		<tag k="ssr:stedsnr" v="628910" />
	</node>
<<<<<<< HEAD
	<node lat="59.92210000299525" lon="10.380622222906956" id="-14254">
		<tag k="name" v="Ormekollsmyra" />
		<tag k="natural" v="wetland" />
		<tag k="ssr:stedsnr" v="750089" />
	</node>
	<node lat="59.97058055754157" lon="10.501416673882751" id="-14255">
		<tag k="name" v="Bikkjemyrene" />
=======
	<node id="-248534" lat="60.0167027795" lon="10.4580722236">
		<tag k="name" v="Krysbymyra" />
>>>>>>> e1d4bc35ff8a6074a6f2e91616a996b547c36f15
		<tag k="natural" v="wetland" />
		<tag k="ssr:stedsnr" v="750860" />
	</node>
<<<<<<< HEAD
	<node lat="59.9735638884711" lon="10.511436109682775" id="-14257">
		<tag k="name" v="Vintermyra" />
		<tag k="natural" v="wetland" />
		<tag k="ssr:stedsnr" v="750865" />
	</node>
	<node lat="59.97324444374538" lon="10.545302772551707" id="-14271">
		<tag k="alt_name" v="Setermyra" />
		<tag k="name" v="Sætermyra" />
=======
	<node id="-248017" lat="59.9431305577" lon="10.4336666666">
		<tag k="name" v="Engebråtmyra" />
		<tag k="natural" v="wetland" />
		<tag k="ssr:stedsnr" v="932028" />
	</node>
	<node id="-248014" lat="60.0126944483" lon="10.4378472277">
		<tag k="name" v="Øvre Småvassmyra" />
		<tag k="natural" v="wetland" />
		<tag k="ssr:stedsnr" v="811964" />
	</node>
	<node id="-248002" lat="59.9600166668" lon="10.4843888953">
		<tag k="landuse" v="meadow" />
		<tag k="name" v="Trulsrudholmen" />
		<tag k="ssr:stedsnr" v="811030" />
	</node>
	<node id="-248000" lat="59.9661416704" lon="10.400755555">
		<tag k="name" v="Larsløkka" />
		<tag k="place" v="locality" />
		<tag k="ssr:stedsnr" v="811024" />
	</node>
	<node id="-247999" lat="59.9587388869" lon="10.3979638884">
		<tag k="name" v="Lillevannsmyr" />
>>>>>>> e1d4bc35ff8a6074a6f2e91616a996b547c36f15
		<tag k="natural" v="wetland" />
		<tag k="ssr:stedsnr" v="792027" />
	</node>
<<<<<<< HEAD
	<node lat="59.92339444023964" lon="10.422000001926317" id="-14286">
		<tag k="name" v="Risfjellmyra" />
		<tag k="natural" v="wetland" />
		<tag k="ssr:stedsnr" v="811123" />
	</node>
	<node lat="60.01269444834133" lon="10.437847227691174" id="-14296">
		<tag k="name" v="Øvre Småvassmyra" />
		<tag k="natural" v="wetland" />
		<tag k="ssr:stedsnr" v="811964" />
	</node>
	<node lat="59.86609999644053" lon="10.5832500045701" id="-14300">
		<tag k="landuse" v="meadow" />
		<tag k="name" v="Storenga" />
		<tag k="ssr:stedsnr" v="812270" />
	</node>
	<node lat="59.94562499728936" lon="10.458102771296875" id="-14307">
		<tag k="name" v="Isimyra" />
=======
	<node id="-247973" lat="59.9785750037" lon="10.5429138869">
		<tag k="alt_name" v="Puttmyr" />
		<tag k="name" v="Puttmyra" />
>>>>>>> e1d4bc35ff8a6074a6f2e91616a996b547c36f15
		<tag k="natural" v="wetland" />
		<tag k="ssr:stedsnr" v="854995" />
	</node>
<<<<<<< HEAD
	<node lat="59.948091663858825" lon="10.384522227400272" id="-14308">
		<tag k="name" v="Skoglund" />
		<tag k="place" v="locality" />
		<tag k="ssr:stedsnr" v="854999" />
	</node>
	<node lat="59.895594446600086" lon="10.439330548391743" id="-14340">
		<tag k="name" v="Guttemyr" />
		<tag k="natural" v="wetland" />
		<tag k="ssr:stedsnr" v="872625" />
	</node>
	<node lat="59.86180555285828" lon="10.570311116041534" id="-14347">
		<tag k="landuse" v="meadow" />
		<tag k="name" v="Hestehagen" />
		<tag k="ssr:stedsnr" v="873257" />
	</node>
	<node lat="59.88490026514486" lon="10.523160709560617" id="-14376">
		<tag k="name" v="Bestemorskogen" />
		<tag k="place" v="locality" />
		<tag k="ssr:stedsnr" v="1072603" />
=======
	<node id="-247970" lat="59.8941666702" lon="10.4422555556">
		<tag k="name" v="Trollmyr" />
		<tag k="natural" v="wetland" />
		<tag k="ssr:stedsnr" v="751614" />
	</node>
	<node id="-248118" lat="59.9721166701" lon="10.5325944415">
		<tag k="name" v="Fuglleikmyra" />
		<tag k="natural" v="wetland" />
		<tag k="ssr:stedsnr" v="22879" />
	</node>
	<node id="-248444" lat="59.8811138858" lon="10.4153805489">
		<tag k="name" v="Gupumyrene" />
		<tag k="natural" v="wetland" />
		<tag k="ssr:stedsnr" v="386596" />
	</node>
	<node id="-248439" lat="59.9650666667" lon="10.4459361144">
		<tag k="name" v="Kirkebymyra" />
		<tag k="natural" v="wetland" />
		<tag k="ssr:stedsnr" v="386090" />
>>>>>>> e1d4bc35ff8a6074a6f2e91616a996b547c36f15
	</node>
	<node id="-247894" lat="59.8855694459" lon="10.4094222192">
		<tag k="name" v="Tranbymyra" />
		<tag k="natural" v="wetland" />
		<tag k="ssr:stedsnr" v="568576" />
	</node>
	<node id="-247877" lat="59.8951777772" lon="10.3942361151">
		<tag k="name" v="Nedre Vassmyr" />
		<tag k="natural" v="wetland" />
		<tag k="ssr:stedsnr" v="690632" />
	</node>
	<node id="-247875" lat="59.9343749958" lon="10.3930694379">
		<tag k="name" v="Kavringen" />
		<tag k="place" v="locality" />
		<tag k="ssr:stedsnr" v="690115" />
	</node>
	<node id="-247860" lat="59.9486055545" lon="10.5316916588">
		<tag k="name" v="Olasmyra" />
		<tag k="natural" v="wetland" />
		<tag k="ssr:stedsnr" v="689116" />
	</node>
	<node id="-248368" lat="59.9514583313" lon="10.4454944532">
		<tag k="historic" v="shieling" />
		<tag k="name" v="Isivollen" />
		<tag k="place" v="locality" />
		<tag k="ssr:stedsnr" v="325103" />
	</node>
	<node id="-248367" lat="59.9419999979" lon="10.4874694433">
		<tag k="name" v="Gruvemyra" />
		<tag k="natural" v="wetland" />
		<tag k="ssr:stedsnr" v="325102" />
	</node>
	<node id="-248365" lat="59.9511249996" lon="10.3530861089">
		<tag k="name" v="Huldremyr" />
		<tag k="natural" v="wetland" />
		<tag k="ssr:stedsnr" v="325030" />
	</node>
	<node id="-248363" lat="59.94643056" lon="10.4815166678">
		<tag k="name" v="Bjønnemyra" />
		<tag k="natural" v="wetland" />
		<tag k="ssr:stedsnr" v="325017" />
	</node>
	<node id="-247850" lat="59.9741111067" lon="10.4124972306">
		<tag k="name" v="Hengsveputt" />
		<tag k="natural" v="wetland" />
		<tag k="ssr:stedsnr" v="689019" />
	</node>
	<node id="-247829" lat="59.8729944487" lon="10.5740805596">
		<tag k="name" v="Nordhagen" />
		<tag k="place" v="locality" />
		<tag k="ssr:stedsnr" v="507260" />
	</node>
	<node id="-247555" lat="59.9443027753" lon="10.4580222218">
		<tag k="name" v="Haugsmyra" />
		<tag k="natural" v="wetland" />
		<tag k="ssr:stedsnr" v="22018" />
	</node>
	<node id="-247822" lat="59.9537916661" lon="10.4351999972">
		<tag k="name" v="Langmyr" />
		<tag k="natural" v="wetland" />
		<tag k="ssr:stedsnr" v="672055" />
	</node>
	<node id="-247554" lat="59.9585472255" lon="10.4857055523">
		<tag k="landuse" v="meadow" />
		<tag k="name" v="Krysbyholmen" />
		<tag k="ssr:stedsnr" v="22013" />
	</node>
	<node id="-247813" lat="59.8903361127" lon="10.3837638866">
		<tag k="name" v="Jongsmyr" />
		<tag k="natural" v="wetland" />
		<tag k="ssr:stedsnr" v="671873" />
	</node>
</osm>
