<?xml version="1.0" encoding="UTF-8"?>
<osm version="0.6" generator="osmapis">
	<node lat="59.913800004167165" lon="10.403266660721336" id="-13151">
		<tag k="fixme" v="consider natural=peak for the most distinct mountains in the district" />
		<tag k="name" v="Langåsen" />
		<tag k="natural" v="hill" />
		<tag k="place" v="locality" />
		<tag k="ssr:stedsnr" v="4931" />
	</node>
	<node lat="59.91873055409954" lon="10.441913887120275" id="-13152">
		<tag k="fixme" v="consider natural=peak for the most distinct mountains in the district" />
		<tag k="name" v="Svartoråsen" />
		<tag k="natural" v="hill" />
		<tag k="place" v="locality" />
		<tag k="ssr:stedsnr" v="4946" />
	</node>
	<node lat="60.00976388926641" lon="10.45470555910205" id="-13155">
		<tag k="alt_name" v="Krysbydalen" />
		<tag k="name" v="Kryssbydalen" />
		<tag k="natural" v="valley" />
		<tag k="place" v="locality" />
		<tag k="ssr:stedsnr" v="5858" />
	</node>
	<node lat="59.95654444873093" lon="10.423813880732604" id="-13156">
		<tag k="name" v="Riskleivdalen" />
		<tag k="natural" v="valley" />
		<tag k="place" v="locality" />
		<tag k="ssr:stedsnr" v="22008" />
	</node>
	<node lat="59.97689166248452" lon="10.419233334689" id="-13176">
		<tag k="fixme" v="consider natural=peak for the most distinct mountains in the district" />
		<tag k="name" v="Rognliåsen" />
		<tag k="natural" v="hill" />
		<tag k="place" v="locality" />
		<tag k="ssr:stedsnr" v="64021" />
	</node>
	<node lat="59.96643888488769" lon="10.391830550383927" id="-13177">
		<tag k="name" v="Sirisdalen" />
		<tag k="natural" v="valley" />
		<tag k="old_name" v="Sirrisdalen" />
		<tag k="place" v="locality" />
		<tag k="ssr:stedsnr" v="64029" />
	</node>
	<node lat="59.9950583300788" lon="10.492374997719045" id="-13178">
		<tag k="fixme" v="consider natural=peak for the most distinct mountains in the district" />
		<tag k="name" v="Tømmeråsen" />
		<tag k="natural" v="hill" />
		<tag k="old_name" v="Tømmerås" />
		<tag k="place" v="locality" />
		<tag k="ssr:stedsnr" v="64064" />
	</node>
	<node lat="59.98570555463044" lon="10.557913891334811" id="-13182">
		<tag k="alt_name" v="Lønnemåsahøgda" />
		<tag k="fixme" v="consider natural=peak for the most distinct mountains in the district" />
		<tag k="name" v="Lønnmåsahøgda" />
		<tag k="natural" v="hill" />
		<tag k="old_name" v="Lønnmosahøgda" />
		<tag k="place" v="locality" />
		<tag k="ssr:stedsnr" v="65103" />
	</node>
	<node lat="59.92542222613571" lon="10.4030999947772" id="-13200">
		<tag k="fixme" v="consider natural=peak for the most distinct mountains in the district" />
		<tag k="name" v="Jansbonnåsen" />
		<tag k="natural" v="hill" />
		<tag k="place" v="locality" />
		<tag k="ssr:stedsnr" v="83107" />
	</node>
	<node lat="59.880886112836905" lon="10.401208338565432" id="-13203">
		<tag k="name" v="Brennene" />
		<tag k="place" v="locality" />
		<tag k="ssr:stedsnr" v="83581" />
	</node>
	<node lat="59.92923333676267" lon="10.519036104081957" id="-13207">
		<tag k="fixme" v="consider natural=peak for the most distinct mountains in the district" />
		<tag k="name" v="Varden" />
		<tag k="natural" v="hill" />
		<tag k="place" v="locality" />
		<tag k="ssr:stedsnr" v="83938" />
	</node>
	<node lat="59.888708334727525" lon="10.400924999862308" id="-13220">
		<tag k="fixme" v="consider natural=peak for the most distinct mountains in the district" />
		<tag k="name" v="Kjølåsen" />
		<tag k="natural" v="hill" />
		<tag k="place" v="locality" />
		<tag k="ssr:stedsnr" v="247836" />
	</node>
	<node lat="59.91623055256965" lon="10.383533334363573" id="-13226">
		<tag k="fixme" v="consider natural=peak for the most distinct mountains in the district" />
		<tag k="name" v="Hornivollåsen" />
		<tag k="natural" v="hill" />
		<tag k="place" v="locality" />
		<tag k="ssr:stedsnr" v="247933" />
	</node>
	<node lat="59.96989166424734" lon="10.49582777749166" id="-13229">
		<tag k="fixme" v="consider natural=peak for the most distinct mountains in the district" />
		<tag k="name" v="Kirkebykollen" />
		<tag k="natural" v="hill" />
		<tag k="old_name" v="Kjerkebykollen" />
		<tag k="place" v="locality" />
		<tag k="ssr:stedsnr" v="124022" />
	</node>
	<node lat="59.96646388825827" lon="10.600750001010978" id="-13236">
		<tag k="fixme" v="consider natural=peak for the most distinct mountains in the district" />
		<tag k="name" v="Lathusåsen" />
		<tag k="natural" v="hill" />
		<tag k="place" v="locality" />
		<tag k="ssr:stedsnr" v="125066" />
	</node>
	<node lat="59.90621944237862" lon="10.36981389581932" id="-13242">
		<tag k="fixme" v="consider natural=peak for the most distinct mountains in the district" />
		<tag k="name" v="Paiåsen" />
		<tag k="natural" v="hill" />
		<tag k="place" v="locality" />
		<tag k="ssr:stedsnr" v="143038" />
	</node>
	<node lat="59.97698611448689" lon="10.405366666569694" id="-13259">
		<tag k="fixme" v="consider natural=peak for the most distinct mountains in the district" />
		<tag k="name" v="Høgbrenna" />
		<tag k="natural" v="hill" />
		<tag k="place" v="locality" />
		<tag k="ssr:stedsnr" v="185036" />
	</node>
	<node lat="59.95480277675595" lon="10.530599998895434" id="-13262">
		<tag k="fixme" v="consider natural=peak for the most distinct mountains in the district" />
		<tag k="name" v="Skollerudåsen" />
		<tag k="natural" v="hill" />
		<tag k="place" v="locality" />
		<tag k="ssr:stedsnr" v="186987" />
	</node>
	<node lat="59.89765555448924" lon="10.529916674533187" id="-13271">
		<tag k="fixme" v="consider natural=peak for the most distinct mountains in the district" />
		<tag k="name" v="Løkkeåsen" />
		<tag k="natural" v="hill" />
		<tag k="place" v="locality" />
		<tag k="ssr:stedsnr" v="186896" />
	</node>
	<node lat="59.948266664834094" lon="10.425711110886093" id="-13274">
		<tag k="fixme" v="consider natural=peak for the most distinct mountains in the district" />
		<tag k="name" v="Ormeåsen" />
		<tag k="natural" v="hill" />
		<tag k="place" v="locality" />
		<tag k="ssr:stedsnr" v="264008" />
	</node>
	<node lat="59.91210555312597" lon="10.389733335444973" id="-13276">
		<tag k="fixme" v="consider natural=peak for the most distinct mountains in the district" />
		<tag k="name" v="Ringvollåsen" />
		<tag k="natural" v="hill" />
		<tag k="place" v="locality" />
		<tag k="ssr:stedsnr" v="264041" />
	</node>
	<node lat="59.903475003962384" lon="10.450663888713375" id="-13277">
		<tag k="name" v="Svenskehella" />
		<tag k="natural" v="slope" />
		<tag k="place" v="locality" />
		<tag k="ssr:stedsnr" v="264055" />
	</node>
	<node lat="59.99946111524682" lon="10.436561117733564" id="-13285">
		<tag k="name" v="Grunndalen" />
		<tag k="natural" v="valley" />
		<tag k="place" v="locality" />
		<tag k="ssr:stedsnr" v="264971" />
	</node>
	<node lat="59.90085833140699" lon="10.396958334451464" id="-13287">
		<tag k="name" v="Skurvehaugen" />
		<tag k="natural" v="hill" />
		<tag k="place" v="locality" />
		<tag k="ssr:stedsnr" v="265054" />
	</node>
	<node lat="59.87796944712553" lon="10.494994444002826" id="-13294">
		<tag k="name" v="Åsløkka" />
		<tag k="place" v="locality" />
		<tag k="ssr:stedsnr" v="265551" />
	</node>
	<node lat="59.89441666706141" lon="10.53636110651264" id="-13295">
		<tag k="fixme" v="consider natural=peak for the most distinct mountains in the district" />
		<tag k="name" v="Sandviksåsen" />
		<tag k="natural" v="hill" />
		<tag k="place" v="locality" />
		<tag k="ssr:stedsnr" v="265557" />
	</node>
	<node lat="59.946533336683764" lon="10.520627770305303" id="-13303">
		<tag k="fixme" v="consider natural=peak for the most distinct mountains in the district" />
		<tag k="name" v="Sveltåsen" />
		<tag k="natural" v="hill" />
		<tag k="place" v="locality" />
		<tag k="ssr:stedsnr" v="204087" />
	</node>
	<node lat="59.99352500219779" lon="10.51240554791399" id="-13306">
		<tag k="fixme" v="consider natural=peak for the most distinct mountains in the district" />
		<tag k="name" v="Heggåsen" />
		<tag k="natural" v="hill" />
		<tag k="place" v="locality" />
		<tag k="ssr:stedsnr" v="204931" />
	</node>
	<node lat="60.00363888622335" lon="10.50581666985202" id="-13307">
		<tag k="name" v="Karidalen" />
		<tag k="natural" v="valley" />
		<tag k="place" v="locality" />
		<tag k="ssr:stedsnr" v="204937" />
	</node>
	<node lat="59.92354444806567" lon="10.52479165825246" id="-13317">
		<tag k="fixme" v="consider natural=peak for the most distinct mountains in the district" />
		<tag k="name" v="Gråmagan" />
		<tag k="natural" v="hill" />
		<tag k="place" v="locality" />
		<tag k="ssr:stedsnr" v="204993" />
	</node>
	<node lat="59.88248055224056" lon="10.539374993034123" id="-13321">
		<tag k="name" v="Kælvenrabben" />
		<tag k="natural" v="hill" />
		<tag k="place" v="locality" />
		<tag k="ssr:stedsnr" v="205596" />
	</node>
	<node lat="59.876061113955" lon="10.374024996715578" id="-13328">
		<tag k="name" v="Vestmarka" />
		<tag k="natural" v="wood" />
		<tag k="ssr:stedsnr" v="246804" />
	</node>
	<node lat="60.02698889193668" lon="10.462797228391262" id="-13337">
		<tag k="fixme" v="consider natural=peak for the most distinct mountains in the district" />
		<tag k="name" v="Tvillingvassbrenna" />
		<tag k="natural" v="hill" />
		<tag k="place" v="locality" />
		<tag k="ssr:stedsnr" v="264947" />
	</node>
	<node lat="59.91795555292982" lon="10.515869452395679" id="-13338">
		<tag k="fixme" v="consider natural=peak for the most distinct mountains in the district" />
		<tag k="name" v="Kolsås" />
		<tag k="natural" v="hill" />
		<tag k="place" v="locality" />
		<tag k="ssr:stedsnr" v="264988" />
	</node>
	<node lat="59.98148055755253" lon="10.435444442993528" id="-13343">
		<tag k="fixme" v="consider natural=peak for the most distinct mountains in the district" />
		<tag k="name" v="Larsåsen" />
		<tag k="natural" v="hill" />
		<tag k="place" v="locality" />
		<tag k="ssr:stedsnr" v="265093" />
	</node>
	<node lat="59.89508610688513" lon="10.402069449261935" id="-13344">
		<tag k="fixme" v="consider natural=peak for the most distinct mountains in the district" />
		<tag k="name" v="Rognåsen" />
		<tag k="natural" v="hill" />
		<tag k="place" v="locality" />
		<tag k="ssr:stedsnr" v="265615" />
	</node>
	<node lat="59.98702500146023" lon="10.440152780559323" id="-13352">
		<tag k="fixme" v="consider natural=peak for the most distinct mountains in the district" />
		<tag k="name" v="Solkollen" />
		<tag k="natural" v="hill" />
		<tag k="place" v="locality" />
		<tag k="ssr:stedsnr" v="307108" />
	</node>
	<node lat="59.95815277961262" lon="10.440266672776856" id="-13354">
		<tag k="fixme" v="consider natural=peak for the most distinct mountains in the district" />
		<tag k="name" v="Dromåsen" />
		<tag k="natural" v="hill" />
		<tag k="old_name" v="Dromås" />
		<tag k="place" v="locality" />
		<tag k="ssr:stedsnr" v="308047" />
	</node>
	<node lat="59.92156388924792" lon="10.377624992256195" id="-13359">
		<tag k="fixme" v="consider natural=peak for the most distinct mountains in the district" />
		<tag k="name" v="Ormekollen" />
		<tag k="natural" v="hill" />
		<tag k="place" v="locality" />
		<tag k="ssr:stedsnr" v="307921" />
	</node>
	<node lat="60.02909722415549" lon="10.486583341819024" id="-13363">
		<tag k="fixme" v="consider natural=peak for the most distinct mountains in the district" />
		<tag k="name" v="Vidvangshøgda" />
		<tag k="natural" v="hill" />
		<tag k="place" v="locality" />
		<tag k="ssr:stedsnr" v="309993" />
	</node>
	<node lat="59.96678055525219" lon="10.420891658643201" id="-13364">
		<tag k="fixme" v="consider natural=peak for the most distinct mountains in the district" />
		<tag k="name" v="Rognlifjell" />
		<tag k="natural" v="hill" />
		<tag k="place" v="locality" />
		<tag k="ssr:stedsnr" v="325012" />
	</node>
	<node lat="59.96580555749172" lon="10.410963881413156" id="-13365">
		<tag k="name" v="Engadalen" />
		<tag k="natural" v="valley" />
		<tag k="place" v="locality" />
		<tag k="ssr:stedsnr" v="325013" />
	</node>
	<node lat="59.94720555342609" lon="10.459075003889117" id="-13367">
		<tag k="fixme" v="consider natural=peak for the most distinct mountains in the district" />
		<tag k="name" v="Hompekollen" />
		<tag k="natural" v="hill" />
		<tag k="place" v="locality" />
		<tag k="ssr:stedsnr" v="325023" />
	</node>
	<node lat="59.94924444130033" lon="10.520469451007775" id="-13370">
		<tag k="name" v="Hestekleiva" />
		<tag k="natural" v="slope" />
		<tag k="place" v="locality" />
		<tag k="ssr:stedsnr" v="325109" />
	</node>
	<node lat="59.94434166359705" lon="10.519622226427078" id="-13371">
		<tag k="fixme" v="consider natural=peak for the most distinct mountains in the district" />
		<tag k="name" v="Helsetåsen" />
		<tag k="natural" v="hill" />
		<tag k="place" v="locality" />
		<tag k="ssr:stedsnr" v="325110" />
	</node>
	<node lat="59.88805277347506" lon="10.388797227931857" id="-13378">
		<tag k="fixme" v="consider natural=peak for the most distinct mountains in the district" />
		<tag k="name" v="Tuemyrkollen" />
		<tag k="natural" v="hill" />
		<tag k="place" v="locality" />
		<tag k="ssr:stedsnr" v="326609" />
	</node>
	<node lat="59.86946111153924" lon="10.55606666364284" id="-13380">
		<tag k="fixme" v="consider natural=peak for the most distinct mountains in the district" />
		<tag k="name" v="Hanseberget" />
		<tag k="natural" v="hill" />
		<tag k="place" v="locality" />
		<tag k="ssr:stedsnr" v="327227" />
	</node>
	<node lat="59.87233611463648" lon="10.564638882322832" id="-13381">
		<tag k="fixme" v="consider natural=peak for the most distinct mountains in the district" />
		<tag k="name" v="Dronningåsen" />
		<tag k="natural" v="hill" />
		<tag k="place" v="locality" />
		<tag k="ssr:stedsnr" v="327228" />
	</node>
	<node lat="59.91873333513467" lon="10.516205562359314" id="-13394">
		<tag k="alt_name" v="Kolsås, søndre" />
		<tag k="fixme" v="consider natural=peak for the most distinct mountains in the district" />
		<tag k="name" v="Søndre Kolsås" />
		<tag k="natural" v="hill" />
		<tag k="place" v="locality" />
		<tag k="ssr:stedsnr" v="368916" />
	</node>
	<node lat="60.01326666385032" lon="10.466394442323995" id="-13400">
		<tag k="alt_name" v="Sætervassberget" />
		<tag k="fixme" v="consider natural=peak for the most distinct mountains in the district" />
		<tag k="name" v="Setervassberget" />
		<tag k="natural" v="hill" />
		<tag k="place" v="locality" />
		<tag k="ssr:stedsnr" v="369905" />
	</node>
	<node lat="59.960322222933165" lon="10.358408325498578" id="-13404">
		<tag k="fixme" v="consider natural=peak for the most distinct mountains in the district" />
		<tag k="name" v="Løvhøgda" />
		<tag k="natural" v="hill" />
		<tag k="place" v="locality" />
		<tag k="ssr:stedsnr" v="386046" />
	</node>
	<node lat="59.89640833476465" lon="10.42438333949514" id="-13410">
		<tag k="fixme" v="consider natural=peak for the most distinct mountains in the district" />
		<tag k="name" v="Ytre Ramsås" />
		<tag k="natural" v="hill" />
		<tag k="place" v="locality" />
		<tag k="ssr:stedsnr" v="386594" />
	</node>
	<node lat="59.89735000409095" lon="10.523463890043717" id="-13416">
		<tag k="fixme" v="consider natural=peak for the most distinct mountains in the district" />
		<tag k="name" v="Skytteråsen" />
		<tag k="natural" v="hill" />
		<tag k="place" v="locality" />
		<tag k="ssr:stedsnr" v="386895" />
	</node>
	<node lat="59.890036112772" lon="10.408986105821477" id="-13429">
		<tag k="fixme" v="consider natural=peak for the most distinct mountains in the district" />
		<tag k="name" v="Bruåsen" />
		<tag k="natural" v="hill" />
		<tag k="place" v="locality" />
		<tag k="ssr:stedsnr" v="489858" />
	</node>
	<node lat="59.92893333257191" lon="10.518905563106333" id="-13433">
		<tag k="alt_name" v="Kolsås, nordre" />
		<tag k="fixme" v="consider natural=peak for the most distinct mountains in the district" />
		<tag k="name" v="Nordre Kolsås" />
		<tag k="natural" v="hill" />
		<tag k="place" v="locality" />
		<tag k="ssr:stedsnr" v="489950" />
	</node>
	<node lat="59.93718889183793" lon="10.473177780210019" id="-13436">
		<tag k="fixme" v="consider natural=peak for the most distinct mountains in the district" />
		<tag k="name" v="Eineåsen" />
		<tag k="natural" v="hill" />
		<tag k="place" v="locality" />
		<tag k="ssr:stedsnr" v="489970" />
	</node>
	<node lat="59.976319448497314" lon="10.457802785669516" id="-13453">
		<tag k="fixme" v="consider natural=peak for the most distinct mountains in the district" />
		<tag k="name" v="Engeråsen" />
		<tag k="natural" v="hill" />
		<tag k="place" v="locality" />
		<tag k="ssr:stedsnr" v="447072" />
	</node>
	<node lat="59.88556389285395" lon="10.430049994385243" id="-13456">
		<tag k="name" v="Franskleiv" />
		<tag k="natural" v="slope" />
		<tag k="place" v="locality" />
		<tag k="ssr:stedsnr" v="447579" />
	</node>
	<node lat="59.96278055724321" lon="10.421913884812373" id="-13484">
		<tag k="fixme" v="consider natural=peak for the most distinct mountains in the district" />
		<tag k="name" v="Kuhaugen" />
		<tag k="natural" v="hill" />
		<tag k="place" v="locality" />
		<tag k="ssr:stedsnr" v="507007" />
	</node>
	<node lat="59.96924166403963" lon="10.40658054841208" id="-13485">
		<tag k="fixme" v="consider natural=peak for the most distinct mountains in the district" />
		<tag k="name" v="Engaåsen" />
		<tag k="natural" v="hill" />
		<tag k="place" v="locality" />
		<tag k="ssr:stedsnr" v="507009" />
	</node>
	<node lat="59.9428638848821" lon="10.443133330310664" id="-13486">
		<tag k="fixme" v="consider natural=peak for the most distinct mountains in the district" />
		<tag k="name" v="Furuåsen" />
		<tag k="natural" v="hill" />
		<tag k="place" v="locality" />
		<tag k="ssr:stedsnr" v="507019" />
	</node>
	<node lat="59.9431416623597" lon="10.43921110209083" id="-13487">
		<tag k="fixme" v="consider natural=peak for the most distinct mountains in the district" />
		<tag k="name" v="Brubråteåsen" />
		<tag k="natural" v="hill" />
		<tag k="place" v="locality" />
		<tag k="ssr:stedsnr" v="507020" />
	</node>
	<node lat="59.98195277519497" lon="10.50837777183912" id="-13495">
		<tag k="name" v="Ulvebråtan" />
		<tag k="natural" v="slope" />
		<tag k="place" v="locality" />
		<tag k="ssr:stedsnr" v="507896" />
	</node>
	<node lat="59.92175277471333" lon="10.414811114664179" id="-13497">
		<tag k="fixme" v="consider natural=peak for the most distinct mountains in the district" />
		<tag k="name" v="Røverkulåsen" />
		<tag k="natural" v="hill" />
		<tag k="place" v="locality" />
		<tag k="ssr:stedsnr" v="508110" />
	</node>
	<node lat="59.96903333635587" lon="10.53331666463201" id="-13503">
		<tag k="fixme" v="consider natural=peak for the most distinct mountains in the district" />
		<tag k="name" v="Brunkollen" />
		<tag k="natural" v="hill" />
		<tag k="place" v="locality" />
		<tag k="ssr:stedsnr" v="549030" />
	</node>
	<node lat="59.9583250025749" lon="10.421016670145251" id="-13507">
		<tag k="name" v="Riskleivkollen" />
		<tag k="natural" v="hill" />
		<tag k="place" v="locality" />
		<tag k="ssr:stedsnr" v="550058" />
	</node>
	<node lat="59.90348333349353" lon="10.405633332591552" id="-13523">
		<tag k="name" v="Anderskleiva" />
		<tag k="natural" v="slope" />
		<tag k="place" v="locality" />
		<tag k="ssr:stedsnr" v="689064" />
	</node>
	<node lat="59.988750001708254" lon="10.518275008978224" id="-13526">
		<tag k="fixme" v="consider natural=peak for the most distinct mountains in the district" />
		<tag k="name" v="Barlinddalshøgda" />
		<tag k="natural" v="hill" />
		<tag k="place" v="locality" />
		<tag k="ssr:stedsnr" v="689926" />
	</node>
	<node lat="59.96279999609538" lon="10.50226945195674" id="-13528">
		<tag k="fixme" v="consider natural=peak for the most distinct mountains in the district" />
		<tag k="name" v="Badstuåsen" />
		<tag k="natural" v="hill" />
		<tag k="place" v="locality" />
		<tag k="ssr:stedsnr" v="689866" />
	</node>
	<node lat="59.957127780463054" lon="10.431127774230191" id="-13540">
		<tag k="fixme" v="consider natural=peak for the most distinct mountains in the district" />
		<tag k="name" v="Hellebonnsåsen" />
		<tag k="natural" v="hill" />
		<tag k="place" v="locality" />
		<tag k="ssr:stedsnr" v="567006" />
	</node>
	<node lat="59.88247222184618" lon="10.47258889749722" id="-13554">
		<tag k="name" v="Staversletta" />
		<tag k="place" v="locality" />
		<tag k="ssr:stedsnr" v="568602" />
	</node>
	<node lat="59.890852776074986" lon="10.405569445943206" id="-13556">
		<tag k="fixme" v="consider natural=peak for the most distinct mountains in the district" />
		<tag k="name" v="Lauvåsen" />
		<tag k="natural" v="hill" />
		<tag k="place" v="locality" />
		<tag k="ssr:stedsnr" v="568575" />
	</node>
	<node lat="59.9633333346794" lon="10.427324997341792" id="-13568">
		<tag k="fixme" v="consider natural=peak for the most distinct mountains in the district" />
		<tag k="name" v="Furuåsen" />
		<tag k="natural" v="hill" />
		<tag k="place" v="locality" />
		<tag k="ssr:stedsnr" v="610042" />
	</node>
	<node lat="59.89568055565402" lon="10.430247228908247" id="-13570">
		<tag k="alt_name" v="Ringi-Kastet" />
		<tag k="name" v="Ringikastet" />
		<tag k="natural" v="cliff" />
		<tag k="ssr:stedsnr" v="610887" />
	</node>
	<node lat="59.93890555505815" lon="10.55045555816104" id="-13574">
		<tag k="fixme" v="consider natural=peak for the most distinct mountains in the district" />
		<tag k="name" v="Gardlaushøgda" />
		<tag k="natural" v="hill" />
		<tag k="old_name" v="Garlaushøgda" />
		<tag k="place" v="locality" />
		<tag k="ssr:stedsnr" v="610978" />
	</node>
	<node lat="59.94929166852498" lon="10.475144452085006" id="-13576">
		<tag k="fixme" v="consider natural=peak for the most distinct mountains in the district" />
		<tag k="name" v="Haugsåsen" />
		<tag k="natural" v="hill" />
		<tag k="place" v="locality" />
		<tag k="ssr:stedsnr" v="628013" />
	</node>
	<node lat="59.944413888589835" lon="10.450133328597797" id="-13577">
		<tag k="fixme" v="consider natural=peak for the most distinct mountains in the district" />
		<tag k="name" v="Øvre Leikeren" />
		<tag k="natural" v="hill" />
		<tag k="place" v="locality" />
		<tag k="ssr:stedsnr" v="628021" />
	</node>
	<node lat="59.985111111991706" lon="10.533705560516378" id="-13595">
		<tag k="alt_name" v="Løkebergsæterhøgda" />
		<tag k="name" v="Løkkebergseterhøgda" />
		<tag k="natural" v="hill" />
		<tag k="place" v="locality" />
		<tag k="ssr:stedsnr" v="671012" />
	</node>
	<node lat="59.96217499643285" lon="10.376299998100354" id="-13598">
		<tag k="fixme" v="consider natural=peak for the most distinct mountains in the district" />
		<tag k="name" v="Kollen" />
		<tag k="natural" v="hill" />
		<tag k="place" v="locality" />
		<tag k="ssr:stedsnr" v="671041" />
	</node>
	<node lat="59.93329999940405" lon="10.38022222125791" id="-13601">
		<tag k="alt_name" v="Siljudalen" />
		<tag k="name" v="Syljudalen" />
		<tag k="natural" v="valley" />
		<tag k="place" v="locality" />
		<tag k="ssr:stedsnr" v="671942" />
	</node>
	<node lat="59.94145555136502" lon="10.374966670626636" id="-13606">
		<tag k="fixme" v="consider natural=peak for the most distinct mountains in the district" />
		<tag k="name" v="Myrbonnsåsen" />
		<tag k="natural" v="hill" />
		<tag k="place" v="locality" />
		<tag k="ssr:stedsnr" v="689003" />
	</node>
	<node lat="59.95765278163374" lon="10.428761118318162" id="-13609">
		<tag k="fixme" v="consider natural=peak for the most distinct mountains in the district" />
		<tag k="name" v="Skarpsnoåsen" />
		<tag k="natural" v="hill" />
		<tag k="place" v="locality" />
		<tag k="ssr:stedsnr" v="689009" />
	</node>
	<node lat="59.954822218209024" lon="10.427711106115499" id="-13610">
		<tag k="name" v="Greindalen" />
		<tag k="natural" v="valley" />
		<tag k="place" v="locality" />
		<tag k="ssr:stedsnr" v="689031" />
	</node>
	<node lat="59.954855551044226" lon="10.447075007276213" id="-13611">
		<tag k="fixme" v="consider natural=peak for the most distinct mountains in the district" />
		<tag k="name" v="Pinnerudberga" />
		<tag k="natural" v="hill" />
		<tag k="place" v="locality" />
		<tag k="ssr:stedsnr" v="689033" />
	</node>
	<node lat="59.95133611279245" lon="10.526505559831847" id="-13614">
		<tag k="name" v="Junteruddalen" />
		<tag k="natural" v="valley" />
		<tag k="place" v="locality" />
		<tag k="ssr:stedsnr" v="689114" />
	</node>
	<node lat="59.98483333755368" lon="10.527577776995647" id="-13618">
		<tag k="fixme" v="consider natural=peak for the most distinct mountains in the district" />
		<tag k="name" v="Elgkollen" />
		<tag k="natural" v="hill" />
		<tag k="place" v="locality" />
		<tag k="ssr:stedsnr" v="689918" />
	</node>
	<node lat="59.97062778117755" lon="10.550516671579198" id="-13629">
		<tag k="name" v="Gravsvollhøgda" />
		<tag k="natural" v="hill" />
		<tag k="place" v="locality" />
		<tag k="ssr:stedsnr" v="731013" />
	</node>
	<node lat="60.02143611412526" lon="10.456852782629452" id="-13635">
		<tag k="alt_name" v="Dritarholshøgda" />
		<tag k="name" v="Dritarholberget" />
		<tag k="natural" v="hill" />
		<tag k="place" v="locality" />
		<tag k="ssr:stedsnr" v="734899" />
	</node>
	<node lat="59.91777221822972" lon="10.417047221808433" id="-13637">
		<tag k="name" v="Peterskleiva" />
		<tag k="natural" v="slope" />
		<tag k="place" v="locality" />
		<tag k="ssr:stedsnr" v="750021" />
	</node>
	<node lat="59.991983335926165" lon="10.491469436498827" id="-13639">
		<tag k="fixme" v="consider natural=peak for the most distinct mountains in the district" />
		<tag k="name" v="Slottåsen" />
		<tag k="natural" v="hill" />
		<tag k="place" v="locality" />
		<tag k="ssr:stedsnr" v="750925" />
	</node>
	<node lat="59.92425277528724" lon="10.50785555575441" id="-13640">
		<tag k="name" v="Lauvkleiva" />
		<tag k="natural" v="slope" />
		<tag k="place" v="locality" />
		<tag k="ssr:stedsnr" v="750940" />
	</node>
	<node lat="59.994866670917745" lon="10.473333337337417" id="-13641">
		<tag k="fixme" v="consider natural=peak for the most distinct mountains in the district" />
		<tag k="name" v="Krokskollen" />
		<tag k="natural" v="hill" />
		<tag k="place" v="locality" />
		<tag k="ssr:stedsnr" v="750950" />
	</node>
	<node lat="59.86603333332356" lon="10.563419437149987" id="-13645">
		<tag k="fixme" v="consider natural=peak for the most distinct mountains in the district" />
		<tag k="name" v="Furustrandåsen" />
		<tag k="natural" v="hill" />
		<tag k="place" v="locality" />
		<tag k="ssr:stedsnr" v="751272" />
	</node>
	<node lat="59.884266667107234" lon="10.50861389068346" id="-13651">
		<tag k="fixme" v="consider natural=peak for the most distinct mountains in the district" />
		<tag k="name" v="Jongåsen" />
		<tag k="natural" v="hill" />
		<tag k="place" v="locality" />
		<tag k="ssr:stedsnr" v="751572" />
	</node>
	<node lat="59.98645000102463" lon="10.510605551704423" id="-13657">
		<tag k="fixme" v="consider natural=peak for the most distinct mountains in the district" />
		<tag k="name" v="Haugkollen" />
		<tag k="natural" v="hill" />
		<tag k="place" v="locality" />
		<tag k="ssr:stedsnr" v="793116" />
	</node>
	<node lat="59.95344167046106" lon="10.426000006295311" id="-13660">
		<tag k="alt_name" v="Hujonfjell;Hvilebergsåsen" />
		<tag k="fixme" v="consider natural=peak for the most distinct mountains in the district" />
		<tag k="name" v="Hujonfjellet" />
		<tag k="natural" v="hill" />
		<tag k="place" v="locality" />
		<tag k="ssr:stedsnr" v="793049" />
	</node>
	<node lat="59.94111666622589" lon="10.381549997895997" id="-13662">
		<tag k="name" v="Brekkedalen" />
		<tag k="natural" v="valley" />
		<tag k="place" v="locality" />
		<tag k="ssr:stedsnr" v="793971" />
	</node>
	<node lat="60.00953889067537" lon="10.443358324556776" id="-13666">
		<tag k="fixme" v="consider natural=peak for the most distinct mountains in the district" />
		<tag k="name" v="Småvassåsen" />
		<tag k="natural" v="hill" />
		<tag k="place" v="locality" />
		<tag k="ssr:stedsnr" v="794876" />
	</node>
	<node lat="59.94891110739706" lon="10.532941664480406" id="-13675">
		<tag k="fixme" v="consider natural=peak for the most distinct mountains in the district" />
		<tag k="name" v="Grorudåsen" />
		<tag k="natural" v="hill" />
		<tag k="place" v="locality" />
		<tag k="ssr:stedsnr" v="914977" />
	</node>
	<node lat="59.951425003215604" lon="10.436208325610046" id="-13676">
		<tag k="alt_name" v="Røstvetfjell" />
		<tag k="fixme" v="consider natural=peak for the most distinct mountains in the district" />
		<tag k="name" v="Røstvetfjellet" />
		<tag k="natural" v="hill" />
		<tag k="place" v="locality" />
		<tag k="ssr:stedsnr" v="915043" />
	</node>
	<node lat="59.95132500178809" lon="10.462924993861378" id="-13677">
		<tag k="fixme" v="consider natural=peak for the most distinct mountains in the district" />
		<tag k="name" v="Trulsrudkollen" />
		<tag k="natural" v="hill" />
		<tag k="place" v="locality" />
		<tag k="ssr:stedsnr" v="915045" />
	</node>
	<node lat="59.94387777924971" lon="10.392527784326708" id="-13688">
		<tag k="fixme" v="consider natural=peak for the most distinct mountains in the district" />
		<tag k="name" v="Bjørkåsen" />
		<tag k="natural" v="hill" />
		<tag k="place" v="locality" />
		<tag k="ssr:stedsnr" v="811005" />
	</node>
	<node lat="59.96081666618176" lon="10.479444449637185" id="-13692">
		<tag k="name" v="Kjonedalen" />
		<tag k="natural" v="valley" />
		<tag k="place" v="locality" />
		<tag k="ssr:stedsnr" v="811028" />
	</node>
	<node lat="59.94018333478013" lon="10.428538897478623" id="-13694">
		<tag k="fixme" v="consider natural=peak for the most distinct mountains in the district" />
		<tag k="name" v="Fiskesleåsen" />
		<tag k="natural" v="hill" />
		<tag k="place" v="locality" />
		<tag k="ssr:stedsnr" v="811034" />
	</node>
	<node lat="59.90538055667243" lon="10.426274993581746" id="-13696">
		<tag k="name" v="Ramsåsdalen" />
		<tag k="natural" v="valley" />
		<tag k="place" v="locality" />
		<tag k="ssr:stedsnr" v="811043" />
	</node>
	<node lat="59.93030833152625" lon="10.505561102621638" id="-13703">
		<tag k="name" v="Fløyberget" />
		<tag k="natural" v="hill" />
		<tag k="place" v="locality" />
		<tag k="ssr:stedsnr" v="811929" />
	</node>
	<node lat="59.92323611298793" lon="10.51168611225563" id="-13704">
		<tag k="name" v="Merradalen" />
		<tag k="natural" v="valley" />
		<tag k="place" v="locality" />
		<tag k="ssr:stedsnr" v="811931" />
	</node>
	<node lat="59.964902775533965" lon="10.558336104978109" id="-13709">
		<tag k="loc_name" v="Skuta" />
		<tag k="name" v="Skutehøgda" />
		<tag k="natural" v="hill" />
		<tag k="place" v="locality" />
		<tag k="ssr:stedsnr" v="853016" />
	</node>
	<node lat="59.96945000219148" lon="10.410372228105961" id="-13710">
		<tag k="alt_name" v="Bjørndalen" />
		<tag k="name" v="Bjørnedalen" />
		<tag k="natural" v="valley" />
		<tag k="place" v="locality" />
		<tag k="ssr:stedsnr" v="853026" />
	</node>
	<node lat="59.972911107883355" lon="10.396683326125483" id="-13714">
		<tag k="name" v="Kroken" />
		<tag k="natural" v="gorge" />
		<tag k="ssr:stedsnr" v="854023" />
	</node>
	<node lat="59.94603611340021" lon="10.42778888960882" id="-13719">
		<tag k="fixme" v="consider natural=peak for the most distinct mountains in the district" />
		<tag k="name" v="Tåjeåsen" />
		<tag k="natural" v="hill" />
		<tag k="place" v="locality" />
		<tag k="ssr:stedsnr" v="871003" />
	</node>
	<node lat="59.964452780492365" lon="10.400969438489128" id="-13721">
		<tag k="fixme" v="consider natural=peak for the most distinct mountains in the district" />
		<tag k="name" v="Øgardåsen" />
		<tag k="natural" v="hill" />
		<tag k="place" v="locality" />
		<tag k="ssr:stedsnr" v="871016" />
	</node>
	<node lat="59.924158332948764" lon="10.510233333829055" id="-13728">
		<tag k="fixme" v="consider natural=peak for the most distinct mountains in the district" />
		<tag k="name" v="Lille Kolsås" />
		<tag k="natural" v="hill" />
		<tag k="place" v="locality" />
		<tag k="ssr:stedsnr" v="871933" />
	</node>
	<node lat="59.92789722232661" lon="10.38780556211905" id="-13732">
		<tag k="fixme" v="consider natural=peak for the most distinct mountains in the district" />
		<tag k="name" v="Kveåsen" />
		<tag k="natural" v="hill" />
		<tag k="place" v="locality" />
		<tag k="ssr:stedsnr" v="872104" />
	</node>
	<node lat="59.946111109103775" lon="10.43827499176837" id="-13733">
		<tag k="name" v="Liskenkampen" />
		<tag k="natural" v="hill" />
		<tag k="place" v="locality" />
		<tag k="ssr:stedsnr" v="932026" />
	</node>
	<node lat="59.97934722058463" lon="10.49424443680448" id="-13736">
		<tag k="fixme" v="consider natural=peak for the most distinct mountains in the district" />
		<tag k="name" v="Lauvåsen" />
		<tag k="natural" v="hill" />
		<tag k="place" v="locality" />
		<tag k="ssr:stedsnr" v="932880" />
	</node>
	<node lat="59.993674997063074" lon="10.431155553632273" id="-13756">
		<tag k="alt_name" v="Raufjellåsen" />
		<tag k="fixme" v="consider natural=peak for the most distinct mountains in the district" />
		<tag k="name" v="Raudfjellåsen" />
		<tag k="natural" v="hill" />
		<tag k="place" v="locality" />
		<tag k="ssr:stedsnr" v="914111" />
	</node>
	<node lat="60.001451666936546" lon="10.444664000486604" id="-13760">
		<tag k="fixme" v="consider natural=peak for the most distinct mountains in the district" />
		<tag k="name" v="Aurevassflaka" />
		<tag k="natural" v="hill" />
		<tag k="place" v="locality" />
		<tag k="ssr:stedsnr" v="915925" />
	</node>
	<node lat="59.915608330431986" lon="10.413169438977427" id="-13762">
		<tag k="name" v="Furuåsen" />
		<tag k="natural" v="hill" />
		<tag k="place" v="locality" />
		<tag k="ssr:stedsnr" v="932041" />
	</node>
	<node lat="59.91381389288619" lon="10.420747225962302" id="-13763">
		<tag k="name" v="Merradalen" />
		<tag k="natural" v="valley" />
		<tag k="place" v="locality" />
		<tag k="ssr:stedsnr" v="932042" />
	</node>
	<node lat="59.901211110343624" lon="10.445825004541756" id="-13807">
		<tag k="alt_name" v="Ringsås" />
		<tag k="fixme" v="consider natural=peak for the most distinct mountains in the district" />
		<tag k="name" v="Ringiåsen" />
		<tag k="natural" v="hill" />
		<tag k="place" v="locality" />
		<tag k="ssr:stedsnr" v="4894" />
	</node>
	<node lat="60.01694722245359" lon="10.455094443121652" id="-13811">
		<tag k="fixme" v="consider natural=peak for the most distinct mountains in the district" />
		<tag k="name" v="Slettfjella" />
		<tag k="natural" v="hill" />
		<tag k="place" v="locality" />
		<tag k="ssr:stedsnr" v="5887" />
	</node>
	<node lat="59.9682833377278" lon="10.388597218337114" id="-13813">
		<tag k="name" v="Kvernhusdalen" />
		<tag k="natural" v="valley" />
		<tag k="place" v="locality" />
		<tag k="ssr:stedsnr" v="22012" />
	</node>
	<node lat="59.97534166380496" lon="10.549500001806798" id="-13820">
		<tag k="fixme" v="consider natural=peak for the most distinct mountains in the district" />
		<tag k="name" v="Hestmyråsen" />
		<tag k="natural" v="hill" />
		<tag k="place" v="locality" />
		<tag k="ssr:stedsnr" v="22877" />
	</node>
	<node lat="59.9495000006501" lon="10.444380546925956" id="-13845">
		<tag k="name" v="Gaupeberget" />
		<tag k="natural" v="hill" />
		<tag k="place" v="locality" />
		<tag k="ssr:stedsnr" v="65994" />
	</node>
	<node lat="59.97012222160362" lon="10.557522220473988" id="-13851">
		<tag k="fixme" v="consider natural=peak for the most distinct mountains in the district" />
		<tag k="name" v="Dølefjell" />
		<tag k="natural" v="hill" />
		<tag k="place" v="locality" />
		<tag k="ssr:stedsnr" v="82893" />
	</node>
	<node lat="59.88163333592699" lon="10.506130549003991" id="-13857">
		<tag k="name" v="Jongsbakken" />
		<tag k="natural" v="slope" />
		<tag k="place" v="locality" />
		<tag k="ssr:stedsnr" v="83528" />
	</node>
	<node lat="59.89208889230668" lon="10.402716668753055" id="-13859">
		<tag k="name" v="Gråmerradalen" />
		<tag k="natural" v="valley" />
		<tag k="place" v="locality" />
		<tag k="ssr:stedsnr" v="83578" />
	</node>
	<node lat="59.86961110753625" lon="10.574702770790518" id="-13867">
		<tag k="name" v="Prestejordet" />
		<tag k="place" v="locality" />
		<tag k="ssr:stedsnr" v="84259" />
	</node>
	<node lat="59.94592777721936" lon="10.411841662290852" id="-13871">
		<tag k="alt_name" v="Bjørumsåsen" />
		<tag k="fixme" v="multiple name tags, choose one and add the other to alt_name; consider natural=peak for the most distinct mountains in the district" />
		<tag k="name" v="Bukkesteinshøgda;Bjørumåsen" />
		<tag k="natural" v="hill" />
		<tag k="old_name" v="Bokkestenhøjden" />
		<tag k="place" v="locality" />
		<tag k="ssr:stedsnr" v="100993" />
	</node>
	<node lat="59.91417500153306" lon="10.378352784900118" id="-13881">
		<tag k="fixme" v="consider natural=peak for the most distinct mountains in the district" />
		<tag k="name" v="Sveltåsen" />
		<tag k="natural" v="hill" />
		<tag k="place" v="locality" />
		<tag k="ssr:stedsnr" v="125928" />
	</node>
	<node lat="59.91846666225642" lon="10.414452780827157" id="-13883">
		<tag k="name" v="Skosliteren" />
		<tag k="natural" v="slope" />
		<tag k="old_name" v="Skoslitern" />
		<tag k="place" v="locality" />
		<tag k="ssr:stedsnr" v="125942" />
	</node>
	<node lat="59.9339638932103" lon="10.388950004685894" id="-13886">
		<tag k="fixme" v="consider natural=peak for the most distinct mountains in the district" />
		<tag k="name" v="Heståsen" />
		<tag k="natural" v="hill" />
		<tag k="place" v="locality" />
		<tag k="ssr:stedsnr" v="125971" />
	</node>
	<node lat="59.94565000168395" lon="10.465963882490017" id="-13889">
		<tag k="fixme" v="consider natural=peak for the most distinct mountains in the district" />
		<tag k="name" v="Haugskollen" />
		<tag k="natural" v="hill" />
		<tag k="place" v="locality" />
		<tag k="ssr:stedsnr" v="125997" />
	</node>
	<node lat="59.99140555143119" lon="10.555488896279492" id="-13894">
		<tag k="fixme" v="consider natural=peak for the most distinct mountains in the district" />
		<tag k="name" v="Triungsvannsåsen" />
		<tag k="natural" v="hill" />
		<tag k="place" v="locality" />
		<tag k="ssr:stedsnr" v="143081" />
	</node>
	<node lat="59.98520000181696" lon="10.50335834170669" id="-13897">
		<tag k="fixme" v="consider natural=peak for the most distinct mountains in the district" />
		<tag k="name" v="Antenesåsen" />
		<tag k="natural" v="hill" />
		<tag k="place" v="locality" />
		<tag k="ssr:stedsnr" v="143923" />
	</node>
	<node lat="59.9767138931655" lon="10.59566111140691" id="-13900">
		<tag k="name" v="Kråkadalen" />
		<tag k="natural" v="valley" />
		<tag k="place" v="locality" />
		<tag k="ssr:stedsnr" v="143873" />
	</node>
	<node lat="60.005777777046035" lon="10.462211115563248" id="-13907">
		<tag k="name" v="Seterdalen" />
		<tag k="natural" v="valley" />
		<tag k="place" v="locality" />
		<tag k="ssr:stedsnr" v="143963" />
	</node>
	<node lat="59.88372778207238" lon="10.537422216592038" id="-13908">
		<tag k="name" v="Blinkenrabben" />
		<tag k="natural" v="hill" />
		<tag k="place" v="locality" />
		<tag k="ssr:stedsnr" v="144565" />
	</node>
	<node lat="59.882352782262004" lon="10.487536102441174" id="-13913">
		<tag k="fixme" v="consider natural=peak for the most distinct mountains in the district" />
		<tag k="name" v="Granåsen" />
		<tag k="natural" v="hill" />
		<tag k="place" v="locality" />
		<tag k="ssr:stedsnr" v="144627" />
	</node>
	<node lat="59.986075000578566" lon="10.422780550544521" id="-13922">
		<tag k="alt_name" v="Villhaug" />
		<tag k="name" v="Villhaugen" />
		<tag k="natural" v="hill" />
		<tag k="place" v="locality" />
		<tag k="ssr:stedsnr" v="186093" />
	</node>
	<node lat="59.95900833253194" lon="10.420766660583542" id="-13937">
		<tag k="fixme" v="consider natural=peak for the most distinct mountains in the district" />
		<tag k="name" v="Bemplebonnsnudden" />
		<tag k="natural" v="hill" />
		<tag k="place" v="locality" />
		<tag k="ssr:stedsnr" v="204005" />
	</node>
	<node lat="59.96170555761922" lon="10.419022216251719" id="-13938">
		<tag k="name" v="Albuekleiva" />
		<tag k="natural" v="slope" />
		<tag k="place" v="locality" />
		<tag k="ssr:stedsnr" v="204006" />
	</node>
	<node lat="59.903649999377215" lon="10.427913882657325" id="-13940">
		<tag k="fixme" v="consider natural=peak for the most distinct mountains in the district" />
		<tag k="name" v="Ramsåsutsikten" />
		<tag k="natural" v="hill" />
		<tag k="place" v="locality" />
		<tag k="ssr:stedsnr" v="204021" />
	</node>
	<node lat="59.95095555110424" lon="10.369658339361367" id="-13941">
		<tag k="name" v="Tømmerdalen" />
		<tag k="natural" v="valley" />
		<tag k="place" v="locality" />
		<tag k="ssr:stedsnr" v="204030" />
	</node>
	<node lat="59.98955555499329" lon="10.455708324852392" id="-13946">
		<tag k="name" v="Jordbærhaugkollen" />
		<tag k="natural" v="hill" />
		<tag k="place" v="locality" />
		<tag k="ssr:stedsnr" v="204958" />
	</node>
	<node lat="59.93548611137459" lon="10.375280561845281" id="-13951">
		<tag k="fixme" v="consider natural=peak for the most distinct mountains in the district" />
		<tag k="name" v="Brekkedalsåsen" />
		<tag k="natural" v="hill" />
		<tag k="place" v="locality" />
		<tag k="ssr:stedsnr" v="205134" />
	</node>
	<node lat="59.886269445805254" lon="10.443775006648726" id="-13957">
		<tag k="name" v="Generalsbråten" />
		<tag k="place" v="locality" />
		<tag k="ssr:stedsnr" v="205629" />
	</node>
	<node lat="59.925799999516414" lon="10.403166667481782" id="-13974">
		<tag k="fixme" v="consider natural=peak for the most distinct mountains in the district" />
		<tag k="name" v="Risfjellet" />
		<tag k="natural" v="hill" />
		<tag k="place" v="locality" />
		<tag k="ssr:stedsnr" v="307938" />
	</node>
	<node lat="59.98125556015807" lon="10.57422777003074" id="-13980">
		<tag k="fixme" v="consider natural=peak for the most distinct mountains in the district" />
		<tag k="name" v="Tømmeråsen" />
		<tag k="natural" v="hill" />
		<tag k="old_name" v="Tømmerås" />
		<tag k="place" v="locality" />
		<tag k="ssr:stedsnr" v="308480" />
	</node>
	<node lat="59.942480555895195" lon="10.427266672395637" id="-13982">
		<tag k="fixme" v="consider natural=peak for the most distinct mountains in the district" />
		<tag k="name" v="Sleåsen" />
		<tag k="natural" v="hill" />
		<tag k="place" v="locality" />
		<tag k="ssr:stedsnr" v="325001" />
	</node>
	<node lat="59.998341668499414" lon="10.48400555879749" id="-13988">
		<tag k="name" v="Kampekleiva" />
		<tag k="natural" v="slope" />
		<tag k="place" v="locality" />
		<tag k="ssr:stedsnr" v="325947" />
	</node>
	<node lat="59.96743055681192" lon="10.593280556433752" id="-13992">
		<tag k="fixme" v="consider natural=peak for the most distinct mountains in the district" />
		<tag k="name" v="Orrhaneberget" />
		<tag k="natural" v="hill" />
		<tag k="place" v="locality" />
		<tag k="ssr:stedsnr" v="325863" />
	</node>
	<node lat="59.972602776338114" lon="10.586080551016744" id="-13993">
		<tag k="name" v="Grønnebunn" />
		<tag k="place" v="locality" />
		<tag k="ssr:stedsnr" v="325864" />
	</node>
	<node lat="59.93361666726503" lon="10.403183336469066" id="-13999">
		<tag k="name" v="Barlindsletta" />
		<tag k="place" v="locality" />
		<tag k="ssr:stedsnr" v="326091" />
	</node>
	<node lat="59.86666944482175" lon="10.570805563240809" id="-14000">
		<tag k="fixme" v="consider natural=peak for the most distinct mountains in the district" />
		<tag k="name" v="Møllerengåsen" />
		<tag k="natural" v="hill" />
		<tag k="place" v="locality" />
		<tag k="ssr:stedsnr" v="327232" />
	</node>
	<node lat="59.877702777431324" lon="10.42461666366346" id="-14007">
		<tag k="name" v="Gupukleiva" />
		<tag k="natural" v="slope" />
		<tag k="place" v="locality" />
		<tag k="ssr:stedsnr" v="326625" />
	</node>
	<node lat="59.88858611444589" lon="10.482736114066816" id="-14010">
		<tag k="fixme" v="consider natural=peak for the most distinct mountains in the district" />
		<tag k="name" v="Tanumåsen" />
		<tag k="natural" v="hill" />
		<tag k="place" v="locality" />
		<tag k="ssr:stedsnr" v="326647" />
	</node>
	<node lat="59.88572500150372" lon="10.48385555710476" id="-14011">
		<tag k="fixme" v="consider natural=peak for the most distinct mountains in the district" />
		<tag k="name" v="Åsfjellet" />
		<tag k="natural" v="hill" />
		<tag k="place" v="locality" />
		<tag k="ssr:stedsnr" v="326648" />
	</node>
	<node lat="60.00113781258826" lon="10.471207163197787" id="-14022">
		<tag k="alt_name" v="Åmotkollene" />
		<tag k="fixme" v="consider natural=peak for the most distinct mountains in the district" />
		<tag k="name" v="Åmotkollane" />
		<tag k="natural" v="hill" />
		<tag k="place" v="locality" />
		<tag k="ssr:stedsnr" v="368099" />
	</node>
	<node lat="59.95968888713035" lon="10.411458338616992" id="-14023">
		<tag k="name" v="Kjaglidalen" />
		<tag k="natural" v="valley" />
		<tag k="place" v="locality" />
		<tag k="ssr:stedsnr" v="368060" />
	</node>
	<node lat="59.988519445345354" lon="10.527569437339006" id="-14024">
		<tag k="alt_name" v="Tjæregrashøgda" />
		<tag k="fixme" v="consider natural=peak for the most distinct mountains in the district" />
		<tag k="name" v="Tjæregravshøgda" />
		<tag k="natural" v="hill" />
		<tag k="old_name" v="TjæregravHdn" />
		<tag k="place" v="locality" />
		<tag k="ssr:stedsnr" v="368135" />
	</node>
	<node lat="59.987763892885674" lon="10.54721944178855" id="-14026">
		<tag k="alt_name" v="Dælisæteråsen" />
		<tag k="fixme" v="consider natural=peak for the most distinct mountains in the district" />
		<tag k="name" v="Dæliseteråsen" />
		<tag k="natural" v="hill" />
		<tag k="place" v="locality" />
		<tag k="ssr:stedsnr" v="368138" />
	</node>
	<node lat="60.01609166532482" lon="10.49009443607932" id="-14036">
		<tag k="fixme" v="consider natural=peak for the most distinct mountains in the district" />
		<tag k="name" v="Danielshøgda" />
		<tag k="natural" v="hill" />
		<tag k="place" v="locality" />
		<tag k="ssr:stedsnr" v="369900" />
	</node>
	<node lat="59.9600416636317" lon="10.381144437067839" id="-14037">
		<tag k="name" v="Kollekleiva" />
		<tag k="natural" v="slope" />
		<tag k="place" v="locality" />
		<tag k="ssr:stedsnr" v="386011" />
	</node>
	<node lat="59.96352222628754" lon="10.4498861110612" id="-14044">
		<tag k="fixme" v="consider natural=peak for the most distinct mountains in the district" />
		<tag k="name" v="Tretteråsen" />
		<tag k="natural" v="hill" />
		<tag k="place" v="locality" />
		<tag k="ssr:stedsnr" v="386079" />
	</node>
	<node lat="59.96130277723298" lon="10.45316111117492" id="-14045">
		<tag k="fixme" v="consider natural=peak for the most distinct mountains in the district" />
		<tag k="name" v="Slåttåsen" />
		<tag k="natural" v="hill" />
		<tag k="place" v="locality" />
		<tag k="ssr:stedsnr" v="386080" />
	</node>
	<node lat="59.88836666561111" lon="10.519677774815126" id="-14048">
		<tag k="name" v="Kjørbohaugen" />
		<tag k="natural" v="hill" />
		<tag k="place" v="locality" />
		<tag k="ssr:stedsnr" v="386527" />
	</node>
	<node lat="59.927033337627456" lon="10.506083327772938" id="-14050">
		<tag k="name" v="Åsbråtekleiva" />
		<tag k="natural" v="slope" />
		<tag k="place" v="locality" />
		<tag k="ssr:stedsnr" v="386936" />
	</node>
	<node lat="59.883397225094775" lon="10.413688893721332" id="-14051">
		<tag k="fixme" v="consider natural=peak for the most distinct mountains in the district" />
		<tag k="name" v="Bjerkelund" />
		<tag k="natural" v="hill" />
		<tag k="place" v="locality" />
		<tag k="ssr:stedsnr" v="386588" />
	</node>
	<node lat="59.99191944567377" lon="10.476419449918255" id="-14057">
		<tag k="name" v="Haukedalen" />
		<tag k="natural" v="valley" />
		<tag k="place" v="locality" />
		<tag k="ssr:stedsnr" v="386951" />
	</node>
	<node lat="59.9074944485735" lon="10.536450003274211" id="-14058">
		<tag k="fixme" v="consider natural=peak for the most distinct mountains in the district" />
		<tag k="name" v="Solbergåsen" />
		<tag k="natural" v="hill" />
		<tag k="place" v="locality" />
		<tag k="ssr:stedsnr" v="386974" />
	</node>
	<node lat="59.892013884459104" lon="10.432733335556025" id="-14069">
		<tag k="fixme" v="consider natural=peak for the most distinct mountains in the district" />
		<tag k="name" v="Kattåsen" />
		<tag k="natural" v="hill" />
		<tag k="place" v="locality" />
		<tag k="ssr:stedsnr" v="429866" />
	</node>
	<node lat="59.992086108551504" lon="10.498277785037585" id="-14075">
		<tag k="fixme" v="consider natural=peak for the most distinct mountains in the district" />
		<tag k="name" v="Pelåsen" />
		<tag k="natural" v="hill" />
		<tag k="place" v="locality" />
		<tag k="ssr:stedsnr" v="429086" />
	</node>
	<node lat="59.94127499905928" lon="10.533894442258031" id="-14081">
		<tag k="name" v="Steinshøgda" />
		<tag k="natural" v="hill" />
		<tag k="place" v="locality" />
		<tag k="ssr:stedsnr" v="429976" />
	</node>
	<node lat="59.945138886043424" lon="10.360347228455726" id="-14085">
		<tag k="name" v="Bråtanløkka" />
		<tag k="place" v="locality" />
		<tag k="ssr:stedsnr" v="447036" />
	</node>
	<node lat="59.932233332042024" lon="10.38398610273357" id="-14093">
		<tag k="name" v="Tiurleikryggen" />
		<tag k="natural" v="ridge" />
		<tag k="place" v="locality" />
		<tag k="ssr:stedsnr" v="447121" />
	</node>
	<node lat="59.956772222540636" lon="10.353561106084161" id="-14108">
		<tag k="name" v="Saksen" />
		<tag k="place" v="locality" />
		<tag k="ssr:stedsnr" v="507032" />
	</node>
	<node lat="59.99088611112176" lon="10.511830553045625" id="-14114">
		<tag k="name" v="Tyridalen" />
		<tag k="natural" v="valley" />
		<tag k="place" v="locality" />
		<tag k="ssr:stedsnr" v="507937" />
	</node>
	<node lat="59.929233335346396" lon="10.507322230030523" id="-14115">
		<tag k="fixme" v="consider natural=peak for the most distinct mountains in the district" />
		<tag k="name" v="Åsbråtefjellet" />
		<tag k="natural" v="hill" />
		<tag k="place" v="locality" />
		<tag k="ssr:stedsnr" v="507941" />
	</node>
	<node lat="59.934274997194606" lon="10.522063896022642" id="-14116">
		<tag k="name" v="Kolsåsbakken" />
		<tag k="natural" v="slope" />
		<tag k="place" v="locality" />
		<tag k="ssr:stedsnr" v="507950" />
	</node>
	<node lat="59.984547221447606" lon="10.479269449166205" id="-14117">
		<tag k="fixme" v="consider natural=peak for the most distinct mountains in the district" />
		<tag k="name" v="Falkeåsen" />
		<tag k="natural" v="hill" />
		<tag k="place" v="locality" />
		<tag k="ssr:stedsnr" v="507960" />
	</node>
	<node lat="59.889819441459004" lon="10.511650001149997" id="-14127">
		<tag k="name" v="Kampebråten" />
		<tag k="natural" v="hill" />
		<tag k="place" v="locality" />
		<tag k="ssr:stedsnr" v="508595" />
	</node>
	<node lat="59.943336107295664" lon="10.445508331673398" id="-14147">
		<tag k="fixme" v="consider natural=peak for the most distinct mountains in the district" />
		<tag k="name" v="Hesthellåsen" />
		<tag k="natural" v="hill" />
		<tag k="place" v="locality" />
		<tag k="ssr:stedsnr" v="567029" />
	</node>
	<node lat="59.909722221162816" lon="10.622761109486223" id="-14149">
		<tag k="name" v="Lysakermyra" />
		<tag k="place" v="locality" />
		<tag k="ssr:stedsnr" v="567100" />
	</node>
	<node lat="59.9251027806926" lon="10.512336103335144" id="-14154">
		<tag k="fixme" v="consider natural=peak for the most distinct mountains in the district" />
		<tag k="name" v="Kløvkollen" />
		<tag k="natural" v="hill" />
		<tag k="place" v="locality" />
		<tag k="ssr:stedsnr" v="567951" />
	</node>
	<node lat="59.90010277560413" lon="10.372058339751344" id="-14155">
		<tag k="name" v="Buråskleiva" />
		<tag k="natural" v="slope" />
		<tag k="place" v="locality" />
		<tag k="ssr:stedsnr" v="568040" />
	</node>
	<node lat="59.87219166740219" lon="10.580600002676766" id="-14157">
		<tag k="name" v="Prekestolen" />
		<tag k="natural" v="cliff" />
		<tag k="ssr:stedsnr" v="569242" />
	</node>
	<node lat="59.948725003509544" lon="10.575674996411575" id="-14158">
		<tag k="fixme" v="consider natural=peak for the most distinct mountains in the district" />
		<tag k="name" v="Mellomåsen" />
		<tag k="natural" v="hill" />
		<tag k="place" v="locality" />
		<tag k="ssr:stedsnr" v="567881" />
	</node>
	<node lat="59.97984999692471" lon="10.58291388041349" id="-14159">
		<tag k="name" v="Fjellsbunn" />
		<tag k="place" v="locality" />
		<tag k="ssr:stedsnr" v="567893" />
	</node>
	<node lat="59.93051388533946" lon="10.396988883529142" id="-14165">
		<tag k="name" v="Kudalen" />
		<tag k="natural" v="valley" />
		<tag k="place" v="locality" />
		<tag k="ssr:stedsnr" v="568101" />
	</node>
	<node lat="59.8897750037005" lon="10.46613611941661" id="-14166">
		<tag k="name" v="Sopelimkroken" />
		<tag k="place" v="locality" />
		<tag k="ssr:stedsnr" v="568596" />
	</node>
	<node lat="59.86565833230365" lon="10.580486117878513" id="-14171">
		<tag k="name" v="Ringerikshaugene" />
		<tag k="natural" v="hill" />
		<tag k="place" v="locality" />
		<tag k="ssr:stedsnr" v="569248" />
	</node>
	<node lat="59.97843610775071" lon="10.494238893270504" id="-14179">
		<tag k="alt_name" v="Vensåskollene" />
		<tag k="fixme" v="consider natural=peak for the most distinct mountains in the district" />
		<tag k="name" v="Vensåskollane" />
		<tag k="natural" v="hill" />
		<tag k="place" v="locality" />
		<tag k="ssr:stedsnr" v="610016" />
	</node>
	<node lat="59.9971527807115" lon="10.488991672473984" id="-14182">
		<tag k="alt_name" v="Bessliåsen" />
		<tag k="fixme" v="consider natural=peak for the most distinct mountains in the district" />
		<tag k="name" v="Beksliåsen" />
		<tag k="natural" v="hill" />
		<tag k="place" v="locality" />
		<tag k="ssr:stedsnr" v="610086" />
	</node>
	<node lat="59.96264999657252" lon="10.530836105751334" id="-14186">
		<tag k="name" v="Skriverberget" />
		<tag k="natural" v="hill" />
		<tag k="place" v="locality" />
		<tag k="ssr:stedsnr" v="611061" />
	</node>
	<node lat="59.91057222472331" lon="10.377313890033495" id="-14190">
		<tag k="name" v="Steindalen" />
		<tag k="natural" v="valley" />
		<tag k="place" v="locality" />
		<tag k="ssr:stedsnr" v="610943" />
	</node>
	<node lat="59.94330833452489" lon="10.530469453110308" id="-14193">
		<tag k="name" v="Grevlingberget" />
		<tag k="natural" v="hill" />
		<tag k="place" v="locality" />
		<tag k="ssr:stedsnr" v="628083" />
	</node>
	<node lat="59.875027776483286" lon="10.571802786537226" id="-14194">
		<tag k="name" v="Prestevikjordet" />
		<tag k="place" v="locality" />
		<tag k="ssr:stedsnr" v="628271" />
	</node>
	<node lat="60.00633333707101" lon="10.494736118497915" id="-14196">
		<tag k="fixme" v="consider natural=peak for the most distinct mountains in the district" />
		<tag k="name" v="Skjuleåsen" />
		<tag k="natural" v="hill" />
		<tag k="place" v="locality" />
		<tag k="ssr:stedsnr" v="628914" />
	</node>
	<node lat="59.874436109877756" lon="10.580000008803346" id="-14198">
		<tag k="name" v="Stuteberget" />
		<tag k="natural" v="slope" />
		<tag k="place" v="locality" />
		<tag k="ssr:stedsnr" v="630262" />
	</node>
	<node lat="59.981511110454484" lon="10.511516668927516" id="-14200">
		<tag k="name" v="Bråtan" />
		<tag k="natural" v="slope" />
		<tag k="place" v="locality" />
		<tag k="ssr:stedsnr" v="628864" />
	</node>
	<node lat="59.93657221961421" lon="10.426441663350907" id="-14209">
		<tag k="name" v="Sagåsberget" />
		<tag k="natural" v="hill" />
		<tag k="place" v="locality" />
		<tag k="ssr:stedsnr" v="629082" />
	</node>
	<node lat="59.96579722613309" lon="10.48470556281008" id="-14213">
		<tag k="fixme" v="consider natural=peak for the most distinct mountains in the district" />
		<tag k="name" v="Stampeliberget" />
		<tag k="natural" v="hill" />
		<tag k="place" v="locality" />
		<tag k="ssr:stedsnr" v="629976" />
	</node>
	<node lat="59.99749999891667" lon="10.441574994778536" id="-14226">
		<tag k="fixme" v="consider natural=peak for the most distinct mountains in the district" />
		<tag k="name" v="Grunndalsåsen" />
		<tag k="natural" v="hill" />
		<tag k="place" v="locality" />
		<tag k="ssr:stedsnr" v="732098" />
	</node>
	<node lat="59.89123888570868" lon="10.423816659179703" id="-14227">
		<tag k="name" v="Eikelundshøgda" />
		<tag k="natural" v="hill" />
		<tag k="place" v="locality" />
		<tag k="ssr:stedsnr" v="732853" />
	</node>
	<node lat="60.00565277596304" lon="10.422386110441632" id="-14239">
		<tag k="fixme" v="consider natural=peak for the most distinct mountains in the district" />
		<tag k="name" v="Greinåsen" />
		<tag k="natural" v="hill" />
		<tag k="place" v="locality" />
		<tag k="ssr:stedsnr" v="733875" />
	</node>
	<node lat="60.02970555436564" lon="10.475722230663214" id="-14240">
		<tag k="fixme" v="consider natural=peak for the most distinct mountains in the district" />
		<tag k="name" v="Utsikten" />
		<tag k="natural" v="hill" />
		<tag k="place" v="locality" />
		<tag k="ssr:stedsnr" v="733981" />
	</node>
	<node lat="59.91871111343084" lon="10.411141662231653" id="-14241">
		<tag k="name" v="Urdsdalen" />
		<tag k="natural" v="valley" />
		<tag k="place" v="locality" />
		<tag k="ssr:stedsnr" v="748984" />
	</node>
	<node lat="59.899136106688736" lon="10.405102786107014" id="-14243">
		<tag k="name" v="Myssmørkleiva" />
		<tag k="natural" v="slope" />
		<tag k="place" v="locality" />
		<tag k="ssr:stedsnr" v="750043" />
	</node>
	<node lat="59.97471944612737" lon="10.527883328005181" id="-14256">
		<tag k="fixme" v="consider natural=peak for the most distinct mountains in the district" />
		<tag k="name" v="Fuglleiken" />
		<tag k="natural" v="hill" />
		<tag k="place" v="locality" />
		<tag k="ssr:stedsnr" v="750863" />
	</node>
	<node lat="59.89419166750686" lon="10.391947219127136" id="-14264">
		<tag k="fixme" v="consider natural=peak for the most distinct mountains in the district" />
		<tag k="name" v="Vassmyråsen" />
		<tag k="natural" v="hill" />
		<tag k="place" v="locality" />
		<tag k="ssr:stedsnr" v="751594" />
	</node>
	<node lat="59.89273333181077" lon="10.405769442080432" id="-14265">
		<tag k="fixme" v="consider natural=peak for the most distinct mountains in the district" />
		<tag k="name" v="Rogneberget" />
		<tag k="natural" v="hill" />
		<tag k="place" v="locality" />
		<tag k="ssr:stedsnr" v="751598" />
	</node>
	<node lat="59.908234877731395" lon="10.423475144892357" id="-14276">
		<tag k="fixme" v="consider natural=peak for the most distinct mountains in the district" />
		<tag k="name" v="Ramsås" />
		<tag k="natural" v="hill" />
		<tag k="place" v="locality" />
		<tag k="ssr:stedsnr" v="793899" />
	</node>
	<node lat="59.97908610808364" lon="10.449741668109477" id="-14284">
		<tag k="fixme" v="consider natural=peak for the most distinct mountains in the district" />
		<tag k="name" v="Maribråtaåsen" />
		<tag k="natural" v="hill" />
		<tag k="place" v="locality" />
		<tag k="ssr:stedsnr" v="811089" />
	</node>
	<node lat="59.977886107509605" lon="10.487752769730468" id="-14285">
		<tag k="fixme" v="consider natural=peak for the most distinct mountains in the district" />
		<tag k="name" v="Bjønneberget" />
		<tag k="natural" v="hill" />
		<tag k="place" v="locality" />
		<tag k="ssr:stedsnr" v="811094" />
	</node>
	<node lat="59.99466388768135" lon="10.465272220918271" id="-14295">
		<tag k="fixme" v="consider natural=peak for the most distinct mountains in the district" />
		<tag k="name" v="Kolletuppen" />
		<tag k="natural" v="hill" />
		<tag k="place" v="locality" />
		<tag k="ssr:stedsnr" v="811952" />
	</node>
	<node lat="59.97452221991092" lon="10.455991665437024" id="-14319">
		<tag k="name" v="Langmyr" />
		<tag k="natural" v="hill" />
		<tag k="place" v="locality" />
		<tag k="ssr:stedsnr" v="872073" />
	</node>
	<node lat="59.945713888962345" lon="10.436972219500458" id="-14329">
		<tag k="fixme" v="consider natural=peak for the most distinct mountains in the district" />
		<tag k="name" v="Roliåsen" />
		<tag k="natural" v="hill" />
		<tag k="place" v="locality" />
		<tag k="ssr:stedsnr" v="871026" />
	</node>
	<node lat="59.89951666450691" lon="10.425094436203883" id="-14331">
		<tag k="fixme" v="consider natural=peak for the most distinct mountains in the district" />
		<tag k="name" v="Ramsåspynten" />
		<tag k="natural" v="hill" />
		<tag k="place" v="locality" />
		<tag k="ssr:stedsnr" v="871061" />
	</node>
	<node lat="59.891927780613585" lon="10.486811108437431" id="-14343">
		<tag k="fixme" v="consider natural=peak for the most distinct mountains in the district" />
		<tag k="name" v="Tokerudutsikten" />
		<tag k="natural" v="hill" />
		<tag k="place" v="locality" />
		<tag k="ssr:stedsnr" v="872637" />
	</node>
	<node lat="59.884063594730556" lon="10.496049644632091" id="-14385">
		<tag k="fixme" v="consider natural=peak for the most distinct mountains in the district" />
		<tag k="name" v="Juterudåsen" />
		<tag k="natural" v="hill" />
		<tag k="place" v="locality" />
		<tag k="ssr:stedsnr" v="1076453" />
	</node>
</osm>
