<?xml version="1.0" encoding="UTF-8"?>
<osm generator="osmapis" version="0.6">
	<node id="-754815" lat="69.4222583363" lon="17.1555527705">
		<tag k="name" v="Flatholmen" />
		<tag k="ssr:date" v="2016-05-10" />
		<tag k="ssr:gruppe" v="navigasjon" />
		<tag k="ssr:hovedgruppe" v="infrastruktur" />
		<tag k="ssr:stedsnr" v="261255" />
		<tag k="ssr:type" v="fyrlykt" />
	</node>
	<node id="-754298" lat="69.444441663" lon="17.2995000005">
		<tag k="name" v="Berg kommune" />
		<tag k="ssr:date" v="2016-05-10" />
		<tag k="ssr:gruppe" v="administrativeIndelinger" />
		<tag k="ssr:hovedgruppe" v="offentligAdministrasjon" />
		<tag k="ssr:stedsnr" v="329674" />
		<tag k="ssr:type" v="kommune" />
	</node>
	<node id="-754452" lat="69.4418023168" lon="17.1423328663">
		<tag k="name" v="Kjøpmannsøya" />
		<tag k="ssr:date" v="2019-05-30" />
		<tag k="ssr:gruppe" v="veg" />
		<tag k="ssr:hovedgruppe" v="infrastruktur" />
		<tag k="ssr:stedsnr" v="1011869" />
		<tag k="ssr:type" v="adressenavn" />
	</node>
	<node id="-754435" lat="69.3074136567" lon="17.5389702055">
		<tag k="name" v="Svandalsveien" />
		<tag k="ssr:date" v="2019-05-30" />
		<tag k="ssr:gruppe" v="veg" />
		<tag k="ssr:hovedgruppe" v="infrastruktur" />
		<tag k="ssr:stedsnr" v="1011429" />
		<tag k="ssr:type" v="adressenavn" />
	</node>
	<node id="-754663" lat="69.451844445" lon="17.1407944462">
		<tag k="name" v="Hjelmen" />
		<tag k="ssr:date" v="2016-05-10" />
		<tag k="ssr:gruppe" v="navigasjon" />
		<tag k="ssr:hovedgruppe" v="infrastruktur" />
		<tag k="ssr:stedsnr" v="140311" />
		<tag k="ssr:type" v="fyrlykt" />
	</node>
	<node id="-755556" lat="68.4849327361" lon="16.2297866207">
		<tag k="fixme" v="multiple name tags, choose one and add the other to alt_name" />
		<tag k="name" v="Nord-Noreg;Nord-Norge" />
		<tag k="ssr:date" v="2017-05-18" />
		<tag k="ssr:gruppe" v="administrativeIndelinger" />
		<tag k="ssr:hovedgruppe" v="offentligAdministrasjon" />
		<tag k="ssr:stedsnr" v="976106" />
		<tag k="ssr:type" v="annenAdministrativInndeling" />
	</node>
	<node id="-754901" lat="69.5402611092" lon="17.3095805519">
		<tag k="name" v="Okseneset" />
		<tag k="ssr:date" v="2016-05-10" />
		<tag k="ssr:gruppe" v="navigasjon" />
		<tag k="ssr:hovedgruppe" v="infrastruktur" />
		<tag k="ssr:stedsnr" v="469964" />
		<tag k="ssr:type" v="fyrlykt" />
	</node>
	<node id="-754644" lat="69.4969555524" lon="17.1984472253">
		<tag k="name" v="Røra" />
		<tag k="old_name" v="Roren" />
		<tag k="ssr:date" v="2016-05-10" />
		<tag k="ssr:gruppe" v="navigasjon" />
		<tag k="ssr:hovedgruppe" v="infrastruktur" />
		<tag k="ssr:stedsnr" v="139211" />
		<tag k="ssr:type" v="fyrlykt" />
	</node>
	<node id="-755146" lat="69.413558337" lon="17.1401333256">
		<tag k="name" v="Hamn" />
		<tag k="ssr:date" v="2016-05-11" />
		<tag k="ssr:gruppe" v="navigasjon" />
		<tag k="ssr:hovedgruppe" v="infrastruktur" />
		<tag k="ssr:stedsnr" v="685260" />
		<tag k="ssr:type" v="fyrlykt" />
	</node>
	<node id="-755395" lat="69.4662830382" lon="17.2230361712">
		<tag k="name" v="Bøvær" />
		<tag k="ssr:date" v="2019-09-25" />
		<tag k="ssr:gruppe" v="navigasjon" />
		<tag k="ssr:hovedgruppe" v="infrastruktur" />
		<tag k="ssr:stedsnr" v="868261" />
		<tag k="ssr:type" v="fyrlykt" />
	</node>
	<node id="-755389" lat="69.4784999966" lon="17.3148638801">
		<tag k="name" v="Steinfjorden" />
		<tag k="ssr:date" v="2016-05-11" />
		<tag k="ssr:gruppe" v="navigasjon" />
		<tag k="ssr:hovedgruppe" v="infrastruktur" />
		<tag k="ssr:stedsnr" v="868171" />
		<tag k="ssr:type" v="fyrlykt" />
	</node>
	<node id="-754463" lat="69.5144127952" lon="17.4421410261">
		<tag k="name" v="Bjorvika" />
		<tag k="ssr:date" v="2019-05-30" />
		<tag k="ssr:gruppe" v="veg" />
		<tag k="ssr:hovedgruppe" v="infrastruktur" />
		<tag k="ssr:stedsnr" v="1011880" />
		<tag k="ssr:type" v="adressenavn" />
	</node>
	<node id="-754355" lat="69.4413027815" lon="17.1367694378">
		<tag k="name" v="Kjøbmandsøy" />
		<tag k="old_name" v="Kjøpmannsøy" />
		<tag k="ssr:date" v="2016-05-10" />
		<tag k="ssr:gruppe" v="navigasjon" />
		<tag k="ssr:hovedgruppe" v="infrastruktur" />
		<tag k="ssr:stedsnr" v="382312" />
		<tag k="ssr:type" v="fyrlykt" />
	</node>
	<node id="-754990" lat="69.4237277816" lon="17.2399944396">
		<tag k="name" v="Kvanholmen" />
		<tag k="old_name" v="Kvannholmen" />
		<tag k="ssr:date" v="2016-05-10" />
		<tag k="ssr:gruppe" v="navigasjon" />
		<tag k="ssr:hovedgruppe" v="infrastruktur" />
		<tag k="ssr:stedsnr" v="564246" />
		<tag k="ssr:type" v="fyrlykt" />
	</node>
	<node id="-754346" lat="69.4519138889" lon="17.1404666716">
		<tag k="name" v="Lille Teistholmen" />
		<tag k="ssr:date" v="2016-05-10" />
		<tag k="ssr:gruppe" v="navigasjon" />
		<tag k="ssr:hovedgruppe" v="infrastruktur" />
		<tag k="ssr:stedsnr" v="360322" />
		<tag k="ssr:type" v="fyrlykt" />
	</node>
	<node id="-754464" lat="69.4474649032" lon="17.278971619">
		<tag k="name" v="Nedre Kjæsvika" />
		<tag k="ssr:date" v="2019-05-30" />
		<tag k="ssr:gruppe" v="veg" />
		<tag k="ssr:hovedgruppe" v="infrastruktur" />
		<tag k="ssr:stedsnr" v="1011881" />
		<tag k="ssr:type" v="adressenavn" />
	</node>
	<node id="-755487" lat="69.4894499965" lon="17.3344527706">
		<tag k="name" v="Tungeneset" />
		<tag k="ssr:date" v="2016-05-11" />
		<tag k="ssr:gruppe" v="navigasjon" />
		<tag k="ssr:hovedgruppe" v="infrastruktur" />
		<tag k="ssr:stedsnr" v="929179" />
		<tag k="ssr:type" v="fyrlykt" />
	</node>
	<node id="-754462" lat="69.499912442" lon="17.4892681057">
		<tag k="name" v="Arthurbakken" />
		<tag k="ssr:date" v="2019-05-30" />
		<tag k="ssr:gruppe" v="veg" />
		<tag k="ssr:hovedgruppe" v="infrastruktur" />
		<tag k="ssr:stedsnr" v="1011879" />
		<tag k="ssr:type" v="adressenavn" />
	</node>
	<node id="-754461" lat="69.4634301165" lon="17.3449381358">
		<tag k="name" v="Steinfjorden" />
		<tag k="ssr:date" v="2019-05-30" />
		<tag k="ssr:gruppe" v="veg" />
		<tag k="ssr:hovedgruppe" v="infrastruktur" />
		<tag k="ssr:stedsnr" v="1011878" />
		<tag k="ssr:type" v="adressenavn" />
	</node>
	<node id="-754460" lat="69.5206464897" lon="17.438257203">
		<tag k="name" v="Brakkeveien" />
		<tag k="ssr:date" v="2019-05-30" />
		<tag k="ssr:gruppe" v="veg" />
		<tag k="ssr:hovedgruppe" v="infrastruktur" />
		<tag k="ssr:stedsnr" v="1011877" />
		<tag k="ssr:type" v="adressenavn" />
	</node>
	<node id="-754459" lat="69.4071796593" lon="17.3370995365">
		<tag k="name" v="Lavoll" />
		<tag k="ssr:date" v="2019-05-30" />
		<tag k="ssr:gruppe" v="veg" />
		<tag k="ssr:hovedgruppe" v="infrastruktur" />
		<tag k="ssr:stedsnr" v="1011876" />
		<tag k="ssr:type" v="adressenavn" />
	</node>
	<node id="-754458" lat="69.4822265009" lon="17.2861844953">
		<tag k="name" v="Strandbyveien" />
		<tag k="ssr:date" v="2019-05-30" />
		<tag k="ssr:gruppe" v="veg" />
		<tag k="ssr:hovedgruppe" v="infrastruktur" />
		<tag k="ssr:stedsnr" v="1011875" />
		<tag k="ssr:type" v="adressenavn" />
	</node>
	<node id="-754457" lat="69.4959880376" lon="17.4845500154">
		<tag k="name" v="Skoleveien" />
		<tag k="ssr:date" v="2019-05-30" />
		<tag k="ssr:gruppe" v="veg" />
		<tag k="ssr:hovedgruppe" v="infrastruktur" />
		<tag k="ssr:stedsnr" v="1011874" />
		<tag k="ssr:type" v="adressenavn" />
	</node>
	<node id="-754456" lat="69.4694004494" lon="17.6914387505">
		<tag k="name" v="Mefjordbotn" />
		<tag k="ssr:date" v="2019-05-30" />
		<tag k="ssr:gruppe" v="veg" />
		<tag k="ssr:hovedgruppe" v="infrastruktur" />
		<tag k="ssr:stedsnr" v="1011873" />
		<tag k="ssr:type" v="adressenavn" />
	</node>
	<node id="-754455" lat="69.4579885972" lon="17.1255008602">
		<tag k="name" v="Netøya" />
		<tag k="ssr:date" v="2019-05-30" />
		<tag k="ssr:gruppe" v="veg" />
		<tag k="ssr:hovedgruppe" v="infrastruktur" />
		<tag k="ssr:stedsnr" v="1011872" />
		<tag k="ssr:type" v="adressenavn" />
	</node>
	<node id="-755478" lat="69.4239499991" lon="17.2976500067">
		<tag k="name" v="Flatneset" />
		<tag k="ssr:date" v="2016-05-11" />
		<tag k="ssr:gruppe" v="navigasjon" />
		<tag k="ssr:hovedgruppe" v="infrastruktur" />
		<tag k="ssr:stedsnr" v="928225" />
		<tag k="ssr:type" v="fyrlykt" />
	</node>
	<node id="-754453" lat="69.4428268736" lon="17.1289165217">
		<tag k="name" v="Ertnøya" />
		<tag k="ssr:date" v="2019-05-30" />
		<tag k="ssr:gruppe" v="veg" />
		<tag k="ssr:hovedgruppe" v="infrastruktur" />
		<tag k="ssr:stedsnr" v="1011870" />
		<tag k="ssr:type" v="adressenavn" />
	</node>
	<node id="-755476" lat="69.5256083302" lon="17.4320777695">
		<tag k="name" v="Mefjord" />
		<tag k="old_name" v="Mefjordvær" />
		<tag k="ssr:date" v="2016-05-11" />
		<tag k="ssr:gruppe" v="navigasjon" />
		<tag k="ssr:hovedgruppe" v="infrastruktur" />
		<tag k="ssr:stedsnr" v="929812" />
		<tag k="ssr:type" v="fyrlykt" />
	</node>
	<node id="-754451" lat="69.454495569" lon="17.6064291953">
		<tag k="name" v="Svartholvatnet" />
		<tag k="ssr:date" v="2019-05-30" />
		<tag k="ssr:gruppe" v="veg" />
		<tag k="ssr:hovedgruppe" v="infrastruktur" />
		<tag k="ssr:stedsnr" v="1011868" />
		<tag k="ssr:type" v="adressenavn" />
	</node>
	<node id="-754450" lat="69.3835551563" lon="17.2075091107">
		<tag k="name" v="Stor-Tolevatnet" />
		<tag k="ssr:date" v="2019-05-30" />
		<tag k="ssr:gruppe" v="veg" />
		<tag k="ssr:hovedgruppe" v="infrastruktur" />
		<tag k="ssr:stedsnr" v="1011867" />
		<tag k="ssr:type" v="adressenavn" />
	</node>
	<node id="-754449" lat="69.4125529318" lon="17.2866369359">
		<tag k="name" v="Hovsøya" />
		<tag k="ssr:date" v="2019-05-30" />
		<tag k="ssr:gruppe" v="veg" />
		<tag k="ssr:hovedgruppe" v="infrastruktur" />
		<tag k="ssr:stedsnr" v="1011866" />
		<tag k="ssr:type" v="adressenavn" />
	</node>
	<node id="-754448" lat="69.3900847811" lon="17.395740907">
		<tag k="name" v="Hamnveien" />
		<tag k="ssr:date" v="2019-05-30" />
		<tag k="ssr:gruppe" v="veg" />
		<tag k="ssr:hovedgruppe" v="infrastruktur" />
		<tag k="ssr:stedsnr" v="1011863" />
		<tag k="ssr:type" v="adressenavn" />
	</node>
	<node id="-754447" lat="69.4817071011" lon="17.4040866592">
		<tag k="name" v="Ersfjorden" />
		<tag k="ssr:date" v="2019-05-30" />
		<tag k="ssr:gruppe" v="veg" />
		<tag k="ssr:hovedgruppe" v="infrastruktur" />
		<tag k="ssr:stedsnr" v="1011860" />
		<tag k="ssr:type" v="adressenavn" />
	</node>
	<node id="-754446" lat="69.4973437895" lon="17.5027046098">
		<tag k="name" v="Mefjordveien" />
		<tag k="ssr:date" v="2019-05-30" />
		<tag k="ssr:gruppe" v="veg" />
		<tag k="ssr:hovedgruppe" v="infrastruktur" />
		<tag k="ssr:stedsnr" v="1011859" />
		<tag k="ssr:type" v="adressenavn" />
	</node>
	<node id="-754445" lat="69.3908230219" lon="17.4020638525">
		<tag k="name" v="Bergsfjordveien" />
		<tag k="ssr:date" v="2019-05-30" />
		<tag k="ssr:gruppe" v="veg" />
		<tag k="ssr:hovedgruppe" v="infrastruktur" />
		<tag k="ssr:stedsnr" v="1011858" />
		<tag k="ssr:type" v="adressenavn" />
	</node>
	<node id="-754444" lat="69.4612150457" lon="17.3539433039">
		<tag k="name" v="Ersfjordveien" />
		<tag k="ssr:date" v="2019-05-30" />
		<tag k="ssr:gruppe" v="veg" />
		<tag k="ssr:hovedgruppe" v="infrastruktur" />
		<tag k="ssr:stedsnr" v="1011857" />
		<tag k="ssr:type" v="adressenavn" />
	</node>
	<node id="-754443" lat="69.44668013" lon="17.2939709192">
		<tag k="name" v="Prestegårdsveien" />
		<tag k="ssr:date" v="2019-05-30" />
		<tag k="ssr:gruppe" v="veg" />
		<tag k="ssr:hovedgruppe" v="infrastruktur" />
		<tag k="ssr:stedsnr" v="1011856" />
		<tag k="ssr:type" v="adressenavn" />
	</node>
	<node id="-754442" lat="69.4456253231" lon="17.2965907187">
		<tag k="name" v="Ingrid Bjerkås-veien" />
		<tag k="ssr:date" v="2019-05-30" />
		<tag k="ssr:gruppe" v="veg" />
		<tag k="ssr:hovedgruppe" v="infrastruktur" />
		<tag k="ssr:stedsnr" v="1011855" />
		<tag k="ssr:type" v="adressenavn" />
	</node>
	<node id="-754441" lat="69.4648335502" lon="17.2254447869">
		<tag k="name" v="Skjæringa" />
		<tag k="ssr:date" v="2019-05-30" />
		<tag k="ssr:gruppe" v="veg" />
		<tag k="ssr:hovedgruppe" v="infrastruktur" />
		<tag k="ssr:stedsnr" v="1011854" />
		<tag k="ssr:type" v="adressenavn" />
	</node>
	<node id="-754440" lat="69.4473579349" lon="17.2833681915">
		<tag k="name" v="Kjæsvika" />
		<tag k="ssr:date" v="2019-05-30" />
		<tag k="ssr:gruppe" v="veg" />
		<tag k="ssr:hovedgruppe" v="infrastruktur" />
		<tag k="ssr:stedsnr" v="1011853" />
		<tag k="ssr:type" v="adressenavn" />
	</node>
	<node id="-754439" lat="69.4044714064" lon="17.3207685297">
		<tag k="name" v="Straumsnes" />
		<tag k="ssr:date" v="2019-05-30" />
		<tag k="ssr:gruppe" v="veg" />
		<tag k="ssr:hovedgruppe" v="infrastruktur" />
		<tag k="ssr:stedsnr" v="1011852" />
		<tag k="ssr:type" v="adressenavn" />
	</node>
	<node id="-754438" lat="69.3659134846" lon="17.4142264323">
		<tag k="name" v="Elvevollen" />
		<tag k="ssr:date" v="2019-05-30" />
		<tag k="ssr:gruppe" v="veg" />
		<tag k="ssr:hovedgruppe" v="infrastruktur" />
		<tag k="ssr:stedsnr" v="1011851" />
		<tag k="ssr:type" v="adressenavn" />
	</node>
	<node id="-754437" lat="69.4422632319" lon="17.325900471">
		<tag k="name" v="Fjellveien" />
		<tag k="ssr:date" v="2019-05-30" />
		<tag k="ssr:gruppe" v="veg" />
		<tag k="ssr:hovedgruppe" v="infrastruktur" />
		<tag k="ssr:stedsnr" v="1011850" />
		<tag k="ssr:type" v="adressenavn" />
	</node>
	<node id="-754436" lat="69.4099973702" lon="17.2638798695">
		<tag k="name" v="Trollveien" />
		<tag k="ssr:date" v="2019-05-30" />
		<tag k="ssr:gruppe" v="veg" />
		<tag k="ssr:hovedgruppe" v="infrastruktur" />
		<tag k="ssr:stedsnr" v="1011849" />
		<tag k="ssr:type" v="adressenavn" />
	</node>
	<node id="-754454" lat="69.4054942065" lon="17.2423627883">
		<tag k="name" v="Finnsætervatnet" />
		<tag k="ssr:date" v="2019-05-30" />
		<tag k="ssr:gruppe" v="veg" />
		<tag k="ssr:hovedgruppe" v="infrastruktur" />
		<tag k="ssr:stedsnr" v="1011871" />
		<tag k="ssr:type" v="adressenavn" />
	</node>
	<node id="-754434" lat="69.4721978388" lon="17.7559712139">
		<tag k="name" v="Stønesbotnveien" />
		<tag k="ssr:date" v="2019-05-30" />
		<tag k="ssr:gruppe" v="veg" />
		<tag k="ssr:hovedgruppe" v="infrastruktur" />
		<tag k="ssr:stedsnr" v="1010390" />
		<tag k="ssr:type" v="adressenavn" />
	</node>
</osm>
