<?xml version="1.0" encoding="UTF-8"?>
<osm generator="osmapis" version="0.6">
	<node id="-842589" lat="63.458194443" lon="9.90603334069">
		<tag k="alt_name" v="Ingdalen kirke" />
		<tag k="amenity" v="place_of_worship" />
		<tag k="denomination" v="lutheran" />
		<tag k="name" v="Ingdalen kapell" />
		<tag k="religion" v="christian" />
		<tag k="ssr:stedsnr" v="38538" />
	</node>
	<node id="-841051" lat="63.4776027804" lon="9.76519722753">
		<tag k="amenity" v="community_centre" />
		<tag k="name" v="Singstadskolen forsamlingshus" />
		<tag k="ssr:stedsnr" v="662581" />
	</node>
	<node id="-841594" lat="63.6168250023" lon="9.71443889537">
		<tag k="amenity" v="community_centre" />
		<tag k="name" v="Varden forsamlingshus" />
		<tag k="ssr:stedsnr" v="664557" />
	</node>
	<node id="-841915" lat="63.6457722508" lon="9.74738777354">
		<tag k="name" v="Agdenes fyr" />
		<tag k="ssr:stedsnr" v="180575" />
		<tag k="tourism" v="museum" />
	</node>
	<node id="-842360" lat="63.489702775" lon="9.74821389643">
		<tag k="name" v="Frostad bygdatun" />
		<tag k="ssr:stedsnr" v="540601" />
		<tag k="tourism" v="museum" />
	</node>
	<node id="-841367" lat="63.6038999968" lon="9.65641666446">
		<tag k="amenity" v="community_centre" />
		<tag k="name" v="Åsheim forsamlingshus" />
		<tag k="ssr:stedsnr" v="360568" />
	</node>
	<node id="-840789" lat="63.6461444466" lon="9.74084444039">
		<tag k="name" v="Gammalfyret" />
		<tag k="place" v="locality" />
		<tag k="ssr:stedsnr" v="341034" />
	</node>
	<node id="-842235" lat="63.5147956548" lon="9.80668670154">
		<tag k="alt_name" v="Lensvik" />
		<tag k="amenity" v="place_of_worship" />
		<tag k="denomination" v="lutheran" />
		<tag k="name" v="Lensvik kirke" />
		<tag k="religion" v="christian" />
		<tag k="ssr:stedsnr" v="498675" />
	</node>
	<node id="-842611" lat="63.5750944414" lon="9.32825555633">
		<tag k="amenity" v="community_centre" />
		<tag k="name" v="Leksa forsamlingshus" />
		<tag k="ssr:stedsnr" v="465582" />
	</node>
	<node id="-842001" lat="63.4596994515" lon="9.90532561416">
		<tag k="amenity" v="community_centre" />
		<tag k="name" v="Ingdalen forsamlingshus" />
		<tag k="ssr:stedsnr" v="298563" />
	</node>
	<node id="-840840" lat="63.619241663" lon="9.59784723118">
		<tag k="name" v="Røysa" />
		<tag k="ssr:stedsnr" v="584325" />
		<tag k="tourism" v="attraction" />
	</node>
	<node id="-841292" lat="63.5604666656" lon="9.78418887898">
		<tag k="amenity" v="community_centre" />
		<tag k="name" v="Størdalen forsamlingshus" />
		<tag k="ssr:stedsnr" v="360561" />
	</node>
	<node id="-841195" lat="63.5053055524" lon="9.82741943964">
		<tag k="amenity" v="place_of_worship" />
		<tag k="fixme" v="specify religion=*, denomination=*, building=* etc" />
		<tag k="name" v="Lensvik bedehus" />
		<tag k="ssr:stedsnr" v="969604" />
	</node>
	<node id="-842154" lat="63.5049388854" lon="9.82236665724">
		<tag k="amenity" v="community_centre" />
		<tag k="name" v="Lensvik flerbrukshus" />
		<tag k="ssr:stedsnr" v="176525" />
	</node>
	<node id="-840745" lat="63.6317777751" lon="9.73929444623">
		<tag k="name" v="Tjalvehallaren" />
		<tag k="place" v="locality" />
		<tag k="ssr:stedsnr" v="815088" />
	</node>
	<node id="-841576" lat="63.6460138926" lon="9.73672500105">
		<tag k="name" v="Kong Øysteins hamn" />
		<tag k="ssr:stedsnr" v="827030" />
		<tag k="tourism" v="attraction" />
	</node>
	<node id="-840871" lat="63.582883734" lon="9.51628581872">
		<tag k="alt_name" v="Agdenes" />
		<tag k="amenity" v="place_of_worship" />
		<tag k="denomination" v="lutheran" />
		<tag k="name" v="Agdenes kirke" />
		<tag k="religion" v="christian" />
		<tag k="ssr:stedsnr" v="13118" />
	</node>
	<node id="-841157" lat="63.6139305514" lon="9.64910555527">
		<tag k="amenity" v="place_of_worship" />
		<tag k="fixme" v="specify religion=*, denomination=*, building=* etc" />
		<tag k="name" v="Vassbygda bedehus" />
		<tag k="ssr:stedsnr" v="969608" />
	</node>
	<node id="-842596" lat="63.646133337" lon="9.74905833517">
		<tag k="name" v="Kong Øysteins hamn" />
		<tag k="place" v="locality" />
		<tag k="ssr:stedsnr" v="632108" />
	</node>
	<node id="-842433" lat="63.5930027787" lon="9.53837222606">
		<tag k="amenity" v="community_centre" />
		<tag k="name" v="Slettvika forsamlingshus" />
		<tag k="ssr:stedsnr" v="846583" />
	</node>
</osm>
