<?xml version="1.0" encoding="UTF-8"?>
<osm generator="osmapis" version="0.6">
	<node id="-842492" lat="63.464586115" lon="9.81011111063">
		<tag k="ford" v="yes" />
		<tag k="name" v="Nonsheivadet" />
		<tag k="place" v="locality" />
		<tag k="ssr:stedsnr" v="828882" />
	</node>
	<node id="-841588" lat="63.626405559" lon="9.74196112045">
		<tag k="landuse" v="harbour" />
		<tag k="name" v="Breivika småbåthavn" />
		<tag k="seamark:type" v="harbour" />
		<tag k="ssr:stedsnr" v="423623" />
	</node>
	<node id="-841713" lat="63.4676555595" lon="9.81746944609">
		<tag k="ford" v="yes" />
		<tag k="name" v="Hestlivadet" />
		<tag k="place" v="locality" />
		<tag k="ssr:stedsnr" v="281924" />
	</node>
	<node id="-842223" lat="63.6388833359" lon="9.6874805498">
		<tag k="amenity" v="ferry_terminal" />
		<tag k="name" v="Valset ferjekai" />
		<tag k="ssr:stedsnr" v="461865" />
	</node>
	<node id="-840941" lat="63.5719194451" lon="9.78742500853">
		<tag k="landuse" v="harbour" />
		<tag k="name" v="Årem småbåthavn" />
		<tag k="seamark:type" v="harbour" />
		<tag k="ssr:stedsnr" v="907544" />
	</node>
	<node id="-841188" lat="63.5497138865" lon="9.73016111199">
		<tag k="highway" v="path" />
		<tag k="name" v="Skåvegen" />
		<tag k="ssr:stedsnr" v="524901" />
	</node>
	<node id="-840803" lat="63.5872833357" lon="9.39919722475">
		<tag k="amenity" v="ferry_terminal" />
		<tag k="name" v="Nordleksa ferjekai" />
		<tag k="ssr:stedsnr" v="161562" />
	</node>
	<node id="-841311" lat="63.4949055535" lon="9.70283333136">
		<tag k="highway" v="path" />
		<tag k="name" v="Kollheistigan" />
		<tag k="ssr:stedsnr" v="463389" />
	</node>
	<node id="-842078" lat="63.4761888899" lon="9.74667222047">
		<tag k="name" v="Kanalen" />
		<tag k="ssr:stedsnr" v="827096" />
		<tag k="waterway" v="canal" />
	</node>
	<node id="-842454" lat="63.5470416703" lon="9.71945277657">
		<tag k="highway" v="path" />
		<tag k="name" v="Lykkjvegen" />
		<tag k="ssr:stedsnr" v="706925" />
	</node>
	<node id="-841295" lat="63.4971222186" lon="9.72076945294">
		<tag k="highway" v="path" />
		<tag k="name" v="Hyllvegen" />
		<tag k="ssr:stedsnr" v="463392" />
	</node>
	<node id="-841933" lat="63.6151861096" lon="9.72276944796">
		<tag k="landuse" v="harbour" />
		<tag k="name" v="Selva småbåthavn" />
		<tag k="seamark:type" v="harbour" />
		<tag k="ssr:stedsnr" v="844602" />
	</node>
	<node id="-841404" lat="63.568966665" lon="9.32405832816">
		<tag k="man_made" v="quay" />
		<tag k="name" v="Sørleksa kai" />
		<tag k="place" v="locality" />
		<tag k="ssr:stedsnr" v="40603" />
	</node>
	<node id="-841146" lat="63.6160138913" lon="9.72942499977">
		<tag k="man_made" v="quay" />
		<tag k="name" v="Selva industrikai" />
		<tag k="place" v="locality" />
		<tag k="ssr:stedsnr" v="725536" />
	</node>
	<node id="-842166" lat="63.5815999993" lon="9.50761667105">
		<tag k="landuse" v="harbour" />
		<tag k="name" v="Åkervika småbåthavn" />
		<tag k="seamark:type" v="harbour" />
		<tag k="ssr:stedsnr" v="950575" />
	</node>
	<node id="-842549" lat="63.6177083324" lon="9.72049443896">
		<tag k="man_made" v="quay" />
		<tag k="name" v="Kai" />
		<tag k="place" v="locality" />
		<tag k="ssr:stedsnr" v="888173" />
	</node>
	<node id="-841774" lat="63.6139777743" lon="9.56394721607">
		<tag k="name" v="Trondheimsleia" />
		<tag k="place" v="locality" />
		<tag k="ssr:stedsnr" v="888416" />
	</node>
	<node id="-842157" lat="63.5073777798" lon="9.8307555645">
		<tag k="landuse" v="harbour" />
		<tag k="name" v="Lensvik småbåthavn" />
		<tag k="seamark:type" v="harbour" />
		<tag k="ssr:stedsnr" v="55548" />
	</node>
	<node id="-842539" lat="63.5808916703" lon="9.50953887906">
		<tag k="amenity" v="ferry_terminal" />
		<tag k="name" v="Vernes ferjekai" />
		<tag k="old_name" v="Vernes kai" />
		<tag k="ssr:stedsnr" v="400571" />
	</node>
	<node id="-841495" lat="63.5876611149" lon="9.3988194497">
		<tag k="man_made" v="quay" />
		<tag k="name" v="Nordleksa kai" />
		<tag k="place" v="locality" />
		<tag k="ssr:stedsnr" v="343613" />
	</node>
	<node id="-842262" lat="63.5053055573" lon="9.83051389565">
		<tag k="man_made" v="quay" />
		<tag k="name" v="Lensvik hurtigbåtkai" />
		<tag k="place" v="locality" />
		<tag k="ssr:stedsnr" v="540580" />
	</node>
	<node id="-842516" lat="63.5044861111" lon="9.84610000151">
		<tag k="man_made" v="quay" />
		<tag k="name" v="Lensvik industrikai" />
		<tag k="place" v="locality" />
		<tag k="ssr:stedsnr" v="783572" />
	</node>
	<node id="-842386" lat="63.6208916672" lon="9.60244166081">
		<tag k="landuse" v="harbour" />
		<tag k="name" v="Røysa småbåthavn" />
		<tag k="seamark:type" v="harbour" />
		<tag k="ssr:stedsnr" v="587985" />
	</node>
	<node id="-840967" lat="63.5812472195" lon="9.52068332857">
		<tag k="landuse" v="harbour" />
		<tag k="name" v="Vernes småbåthavn" />
		<tag k="seamark:type" v="harbour" />
		<tag k="ssr:stedsnr" v="525588" />
	</node>
	<node id="-841475" lat="63.4900861118" lon="9.70596944403">
		<tag k="highway" v="path" />
		<tag k="name" v="Korsvegen" />
		<tag k="ssr:stedsnr" v="827457" />
	</node>
	<node id="-842114" lat="63.6219472223" lon="9.64682500249">
		<tag k="landuse" v="harbour" />
		<tag k="name" v="Synnavika småbåthavn" />
		<tag k="seamark:type" v="harbour" />
		<tag k="ssr:stedsnr" v="59591" />
	</node>
</osm>
