<?xml version="1.0" encoding="UTF-8"?>
<osm generator="osmapis" version="0.6">
	<node id="-841213" lat="63.5109083335" lon="9.81878611919">
		<tag k="name" v="Vika" />
		<tag k="natural" v="bay" />
		<tag k="ssr:stedsnr" v="280006" />
	</node>
	<node id="-841212" lat="63.5503861077" lon="9.56906110789">
		<tag k="name" v="Ratneset" />
		<tag k="natural" v="cape" />
		<tag k="ssr:stedsnr" v="38658" />
	</node>
	<node id="-842232" lat="63.5568500001" lon="9.81148333344">
		<tag k="alt_name" v="Buvikbukta" />
		<tag k="name" v="Buvika" />
		<tag k="natural" v="bay" />
		<tag k="ssr:stedsnr" v="377601" />
	</node>
	<node id="-841207" lat="63.5911944403" lon="9.36303333062">
		<tag k="name" v="Småholman" />
		<tag k="place" v="islet" />
		<tag k="ssr:stedsnr" v="462934" />
	</node>
	<node id="-841206" lat="63.6190333338" lon="9.72541111245">
		<tag k="name" v="Liatåa" />
		<tag k="natural" v="cape" />
		<tag k="ssr:stedsnr" v="645168" />
	</node>
	<node id="-841205" lat="63.5283972221" lon="9.82559445376">
		<tag k="alt_name" v="Alvika" />
		<tag k="name" v="Almvika" />
		<tag k="natural" v="bay" />
		<tag k="ssr:stedsnr" v="619652" />
	</node>
	<node id="-841470" lat="63.6342472209" lon="9.67128333847">
		<tag k="name" v="Ytstholmen" />
		<tag k="natural" v="cape" />
		<tag k="ssr:stedsnr" v="195074" />
	</node>
	<node id="-841896" lat="63.6287166691" lon="9.7438388892">
		<tag k="name" v="Djupviktåa" />
		<tag k="natural" v="cape" />
		<tag k="ssr:stedsnr" v="38364" />
	</node>
	<node id="-842222" lat="63.5892027738" lon="9.27195833731">
		<tag k="name" v="Mefjordgrunnen" />
		<tag k="natural" v="shoal" />
		<tag k="place" v="locality" />
		<tag k="ssr:stedsnr" v="469845" />
	</node>
	<node id="-842219" lat="63.5940416673" lon="9.37533055663">
		<tag k="name" v="Sundflua" />
		<tag k="natural" v="shoal" />
		<tag k="place" v="locality" />
		<tag k="ssr:stedsnr" v="471932" />
	</node>
	<node id="-842216" lat="63.5808694408" lon="9.76317500559">
		<tag k="name" v="Krekbergneset" />
		<tag k="natural" v="cape" />
		<tag k="ssr:stedsnr" v="402160" />
	</node>
	<node id="-841701" lat="63.5029444459" lon="9.82814166967">
		<tag k="name" v="Sandan" />
		<tag k="natural" v="beach" />
		<tag k="place" v="locality" />
		<tag k="ssr:stedsnr" v="765019" />
	</node>
	<node id="-841186" lat="63.6157999976" lon="9.73627778071">
		<tag k="name" v="Selvneset" />
		<tag k="natural" v="cape" />
		<tag k="ssr:stedsnr" v="377981" />
	</node>
	<node id="-842208" lat="63.5888527774" lon="9.38886111004">
		<tag k="name" v="Nordleksa" />
		<tag k="place" v="island" />
		<tag k="ssr:stedsnr" v="377081" />
	</node>
	<node id="-841180" lat="63.6345805598" lon="9.67655833876">
		<tag k="name" v="Meholmbukta" />
		<tag k="natural" v="bay" />
		<tag k="ssr:stedsnr" v="281313" />
	</node>
	<node id="-841179" lat="63.5799888922" lon="9.29835833397">
		<tag k="name" v="Saltviktaren" />
		<tag k="natural" v="shoal" />
		<tag k="place" v="locality" />
		<tag k="ssr:stedsnr" v="651849" />
	</node>
	<node id="-841039" lat="63.5923666629" lon="9.28387777783">
		<tag k="name" v="Storstø" />
		<tag k="natural" v="shoal" />
		<tag k="place" v="locality" />
		<tag k="ssr:stedsnr" v="834836" />
	</node>
	<node id="-842198" lat="63.5808111089" lon="9.5215166596">
		<tag k="fixme" v="consider seamark:type=rock or natural=shoal" />
		<tag k="name" v="Skjeret" />
		<tag k="place" v="islet" />
		<tag k="ssr:stedsnr" v="584655" />
	</node>
	<node id="-841173" lat="63.5855693228" lon="9.37451363215">
		<tag k="name" v="Lekssundet" />
		<tag k="natural" v="strait" />
		<tag k="ssr:stedsnr" v="934844" />
	</node>
	<node id="-841683" lat="63.649752776" lon="9.72564723043">
		<tag k="name" v="Storflua" />
		<tag k="natural" v="shoal" />
		<tag k="place" v="locality" />
		<tag k="ssr:stedsnr" v="273708" />
	</node>
	<node id="-842193" lat="63.6044555569" lon="9.54782221552">
		<tag k="name" v="Brekstadskjæret" />
		<tag k="natural" v="cape" />
		<tag k="ssr:stedsnr" v="680087" />
	</node>
	<node id="-841166" lat="63.5941083319" lon="9.42218610801">
		<tag k="name" v="Innerflua" />
		<tag k="natural" v="shoal" />
		<tag k="place" v="locality" />
		<tag k="ssr:stedsnr" v="774952" />
	</node>
	<node id="-842061" lat="63.6425704922" lon="9.69558085814">
		<tag k="fixme" v="consider seamark:type=rock or natural=shoal" />
		<tag k="name" v="Fokkenborgskjæret" />
		<tag k="place" v="islet" />
		<tag k="ssr:stedsnr" v="972332" />
	</node>
	<node id="-842187" lat="63.5038750012" lon="9.84323054935">
		<tag k="alt_name" v="Berganneset" />
		<tag k="name" v="Berganeset" />
		<tag k="natural" v="cape" />
		<tag k="ssr:stedsnr" v="923759" />
	</node>
	<node id="-842186" lat="63.6384166624" lon="9.74608333278">
		<tag k="name" v="Storvika" />
		<tag k="natural" v="bay" />
		<tag k="ssr:stedsnr" v="160297" />
	</node>
	<node id="-841673" lat="63.5793555598" lon="9.52461667595">
		<tag k="name" v="Rundholmen" />
		<tag k="place" v="islet" />
		<tag k="ssr:stedsnr" v="195103" />
	</node>
	<node id="-842184" lat="63.5672638932" lon="9.32220555926">
		<tag k="name" v="Neset" />
		<tag k="natural" v="cape" />
		<tag k="ssr:stedsnr" v="644972" />
	</node>
	<node id="-841159" lat="63.5680111152" lon="9.79285277859">
		<tag k="alt_name" v="Årsteinneset" />
		<tag k="name" v="Årsteinsneset" />
		<tag k="natural" v="cape" />
		<tag k="ssr:stedsnr" v="645185" />
	</node>
	<node id="-842180" lat="63.5163722261" lon="9.80683611555">
		<tag k="name" v="Melangsøra" />
		<tag k="natural" v="beach" />
		<tag k="place" v="locality" />
		<tag k="ssr:stedsnr" v="523411" />
	</node>
	<node id="-842174" lat="63.6268166666" lon="9.65143611494">
		<tag k="name" v="Mølnbukta" />
		<tag k="natural" v="bay" />
		<tag k="ssr:stedsnr" v="377068" />
	</node>
	<node id="-841290" lat="63.6336805585" lon="9.67397499806">
		<tag k="name" v="Ytstholmvalen" />
		<tag k="place" v="locality" />
		<tag k="ssr:stedsnr" v="828254" />
	</node>
	<node id="-841657" lat="63.5797361133" lon="9.36211111754">
		<tag k="alt_name" v="Rotskjeret" />
		<tag k="fixme" v="consider seamark:type=rock or natural=shoal" />
		<tag k="name" v="Rotskjæret" />
		<tag k="place" v="islet" />
		<tag k="ssr:stedsnr" v="887946" />
	</node>
	<node id="-841652" lat="63.5855666638" lon="9.33248611579">
		<tag k="fixme" v="consider seamark:type=rock or natural=shoal" />
		<tag k="name" v="Silvikskjæra" />
		<tag k="place" v="islet" />
		<tag k="ssr:stedsnr" v="166837" />
	</node>
	<node id="-841138" lat="63.5739111136" lon="9.34650833865">
		<tag k="name" v="Storholmflua" />
		<tag k="natural" v="shoal" />
		<tag k="place" v="locality" />
		<tag k="ssr:stedsnr" v="167960" />
	</node>
	<node id="-840947" lat="63.5889472231" lon="9.76024721696">
		<tag k="name" v="Kjerringneset" />
		<tag k="natural" v="cape" />
		<tag k="ssr:stedsnr" v="923585" />
	</node>
	<node id="-840997" lat="63.5771555519" lon="9.31764443451">
		<tag k="name" v="Sørleksa" />
		<tag k="place" v="island" />
		<tag k="ssr:stedsnr" v="619106" />
	</node>
	<node id="-841131" lat="63.5872194447" lon="9.32625833377">
		<tag k="bay" v="fjord" />
		<tag k="name" v="Kråkvågfjorden" />
		<tag k="natural" v="bay" />
		<tag k="ssr:stedsnr" v="99961" />
	</node>
	<node id="-841640" lat="63.507111107" lon="9.82839445334">
		<tag k="name" v="Hamnaneset" />
		<tag k="natural" v="cape" />
		<tag k="ssr:stedsnr" v="255752" />
	</node>
	<node id="-841126" lat="63.5929111068" lon="9.76045278003">
		<tag k="alt_name" v="Gåsneset" />
		<tag k="name" v="Gåsaneset" />
		<tag k="natural" v="cape" />
		<tag k="ssr:stedsnr" v="316978" />
	</node>
	<node id="-842148" lat="63.5435555549" lon="9.57638612094">
		<tag k="name" v="Holtneset" />
		<tag k="natural" v="cape" />
		<tag k="ssr:stedsnr" v="826685" />
	</node>
	<node id="-842144" lat="63.6389861098" lon="9.68673610461">
		<tag k="name" v="Medholmen" />
		<tag k="place" v="islet" />
		<tag k="ssr:stedsnr" v="802091" />
	</node>
	<node id="-842650" lat="63.5055166656" lon="9.84496667306">
		<tag k="alt_name" v="Bergannesflua" />
		<tag k="name" v="Berganesflua" />
		<tag k="natural" v="shoal" />
		<tag k="place" v="locality" />
		<tag k="ssr:stedsnr" v="469125" />
	</node>
	<node id="-841113" lat="63.5630861151" lon="9.57166943592">
		<tag k="name" v="Langstranda" />
		<tag k="natural" v="beach" />
		<tag k="place" v="locality" />
		<tag k="ssr:stedsnr" v="99502" />
	</node>
	<node id="-842646" lat="63.638455559" lon="9.75087222354">
		<tag k="name" v="Vorpflua" />
		<tag k="natural" v="shoal" />
		<tag k="place" v="locality" />
		<tag k="ssr:stedsnr" v="377921" />
	</node>
	<node id="-841101" lat="63.5626194479" lon="9.79411111867">
		<tag k="name" v="Størdalsbukta" />
		<tag k="natural" v="bay" />
		<tag k="ssr:stedsnr" v="559607" />
	</node>
	<node id="-841100" lat="63.4968111111" lon="9.84859722087">
		<tag k="name" v="Ratvika" />
		<tag k="natural" v="bay" />
		<tag k="ssr:stedsnr" v="584041" />
	</node>
	<node id="-841282" lat="63.6364055544" lon="9.74686389684">
		<tag k="name" v="Vorptåa" />
		<tag k="natural" v="cape" />
		<tag k="ssr:stedsnr" v="863887" />
	</node>
	<node id="-841607" lat="63.5449277761" lon="9.82560278587">
		<tag k="name" v="Ludduneset" />
		<tag k="natural" v="cape" />
		<tag k="ssr:stedsnr" v="463024" />
	</node>
	<node id="-841090" lat="63.6419503328" lon="9.69459947463">
		<tag k="name" v="Fokkenborg" />
		<tag k="natural" v="cape" />
		<tag k="ssr:stedsnr" v="584043" />
	</node>
	<node id="-841601" lat="63.5929611151" lon="9.40243888894">
		<tag k="name" v="Grasneset" />
		<tag k="natural" v="cape" />
		<tag k="ssr:stedsnr" v="887968" />
	</node>
	<node id="-842623" lat="63.5823472211" lon="9.49683333256">
		<tag k="fixme" v="consider seamark:type=rock or natural=shoal" />
		<tag k="name" v="Garvikskjeret" />
		<tag k="place" v="islet" />
		<tag k="ssr:stedsnr" v="888605" />
	</node>
	<node id="-840788" lat="63.5603583378" lon="9.79851666394">
		<tag k="alt_name" v="Litlneset" />
		<tag k="name" v="Litleneset" />
		<tag k="natural" v="cape" />
		<tag k="ssr:stedsnr" v="741683" />
	</node>
	<node id="-841082" lat="63.6440138904" lon="9.70608054667">
		<tag k="fixme" v="consider seamark:type=rock or natural=shoal" />
		<tag k="name" v="Valsetskjera" />
		<tag k="place" v="islet" />
		<tag k="ssr:stedsnr" v="584045" />
	</node>
	<node id="-841081" lat="63.5969333373" lon="9.36323889385">
		<tag k="bay" v="fjord" />
		<tag k="name" v="Kråkvågfjorden" />
		<tag k="natural" v="bay" />
		<tag k="ssr:stedsnr" v="342905" />
	</node>
	<node id="-841591" lat="63.4780388919" lon="9.87494166837">
		<tag k="name" v="Kleivtangen" />
		<tag k="natural" v="cape" />
		<tag k="ssr:stedsnr" v="74068" />
	</node>
	<node id="-842102" lat="63.5656638852" lon="9.29583334182">
		<tag k="name" v="Beinvika" />
		<tag k="natural" v="bay" />
		<tag k="ssr:stedsnr" v="644974" />
	</node>
	<node id="-841587" lat="63.4636611069" lon="9.91063055218">
		<tag k="name" v="Ingdalsbukta" />
		<tag k="natural" v="bay" />
		<tag k="ssr:stedsnr" v="463029" />
	</node>
	<node id="-841586" lat="63.6273250008" lon="9.66498611611">
		<tag k="name" v="Risvika" />
		<tag k="natural" v="bay" />
		<tag k="ssr:stedsnr" v="766272" />
	</node>
	<node id="-842609" lat="63.6412916655" lon="9.74655555371">
		<tag k="name" v="Skardsvika" />
		<tag k="natural" v="bay" />
		<tag k="ssr:stedsnr" v="766043" />
	</node>
	<node id="-841069" lat="63.5910972235" lon="9.36475277454">
		<tag k="alt_name" v="Småholmen" />
		<tag k="name" v="Småholman" />
		<tag k="place" v="islet" />
		<tag k="ssr:stedsnr" v="619101" />
	</node>
	<node id="-842603" lat="63.5977500027" lon="9.52146944956">
		<tag k="fixme" v="consider seamark:type=rock or natural=shoal" />
		<tag k="name" v="Rishaugskjæret" />
		<tag k="place" v="islet" />
		<tag k="ssr:stedsnr" v="652994" />
	</node>
	<node id="-842087" lat="63.5955305521" lon="9.39755278625">
		<tag k="name" v="Hestneset" />
		<tag k="natural" v="cape" />
		<tag k="ssr:stedsnr" v="705965" />
	</node>
	<node id="-842595" lat="63.4709777771" lon="9.90049722582">
		<tag k="name" v="Hestvika" />
		<tag k="natural" v="bay" />
		<tag k="ssr:stedsnr" v="523047" />
	</node>
	<node id="-842592" lat="63.620597221" lon="9.61319443483">
		<tag k="name" v="Fagervika" />
		<tag k="natural" v="bay" />
		<tag k="ssr:stedsnr" v="221294" />
	</node>
	<node id="-841565" lat="63.6086861148" lon="9.74615555966">
		<tag k="alt_name" v="Skrebukta" />
		<tag k="name" v="Skreabukta" />
		<tag k="natural" v="bay" />
		<tag k="ssr:stedsnr" v="619982" />
	</node>
	<node id="-840847" lat="63.6006083322" lon="9.40567222998">
		<tag k="name" v="Nordflua" />
		<tag k="natural" v="shoal" />
		<tag k="place" v="locality" />
		<tag k="ssr:stedsnr" v="896952" />
	</node>
	<node id="-841555" lat="63.6454166634" lon="9.7519666726">
		<tag k="name" v="Agdeneståa" />
		<tag k="natural" v="cape" />
		<tag k="ssr:stedsnr" v="863915" />
	</node>
	<node id="-841041" lat="63.6405540098" lon="9.70347081136">
		<tag k="name" v="Langsandan" />
		<tag k="natural" v="beach" />
		<tag k="place" v="locality" />
		<tag k="ssr:stedsnr" v="873530" />
	</node>
	<node id="-841040" lat="63.6244166639" lon="9.65990832884">
		<tag k="name" v="Varvika" />
		<tag k="natural" v="bay" />
		<tag k="ssr:stedsnr" v="281303" />
	</node>
	<node id="-842063" lat="63.4740250019" lon="9.88612222901">
		<tag k="name" v="Oldervika" />
		<tag k="natural" v="bay" />
		<tag k="ssr:stedsnr" v="948054" />
	</node>
	<node id="-841549" lat="63.6249805564" lon="9.63466665929">
		<tag k="fixme" v="consider seamark:type=rock or natural=shoal" />
		<tag k="name" v="Heggagalten" />
		<tag k="place" v="islet" />
		<tag k="ssr:stedsnr" v="438055" />
	</node>
	<node id="-842557" lat="63.6329749993" lon="9.67294999446">
		<tag k="name" v="Risvika" />
		<tag k="natural" v="bay" />
		<tag k="ssr:stedsnr" v="516259" />
	</node>
	<node id="-841272" lat="63.6344416624" lon="9.74299445182">
		<tag k="alt_name" v="Vorpvika" />
		<tag k="name" v="Vorpa" />
		<tag k="natural" v="bay" />
		<tag k="ssr:stedsnr" v="923915" />
	</node>
	<node id="-842555" lat="63.4615472227" lon="9.92604721553">
		<tag k="name" v="Ramnåsneset" />
		<tag k="natural" v="cape" />
		<tag k="ssr:stedsnr" v="38065" />
	</node>
	<node id="-842554" lat="63.6205694423" lon="9.60181667517">
		<tag k="name" v="Grøthaugbukta" />
		<tag k="natural" v="bay" />
		<tag k="ssr:stedsnr" v="99308" />
	</node>
	<node id="-842551" lat="63.6215055528" lon="9.64281944427">
		<tag k="fixme" v="consider seamark:type=rock or natural=shoal" />
		<tag k="name" v="Gammelnaustskjeret" />
		<tag k="place" v="islet" />
		<tag k="ssr:stedsnr" v="584287" />
	</node>
	<node id="-842038" lat="63.5801777743" lon="9.76549444442">
		<tag k="name" v="Buvika" />
		<tag k="natural" v="bay" />
		<tag k="ssr:stedsnr" v="99169" />
	</node>
	<node id="-841865" lat="63.5838361127" lon="9.76281112061">
		<tag k="name" v="Grønningsbukta" />
		<tag k="natural" v="bay" />
		<tag k="ssr:stedsnr" v="134583" />
	</node>
	<node id="-842543" lat="63.5742694434" lon="9.52232778409">
		<tag k="name" v="Holmgrunnen" />
		<tag k="natural" v="shoal" />
		<tag k="place" v="locality" />
		<tag k="ssr:stedsnr" v="289997" />
	</node>
	<node id="-842540" lat="63.6196472214" lon="9.73293333236">
		<tag k="name" v="Selvbukta" />
		<tag k="natural" v="bay" />
		<tag k="ssr:stedsnr" v="74997" />
	</node>
	<node id="-841514" lat="63.6462111136" lon="9.73701111074">
		<tag k="name" v="Agdenesbukta" />
		<tag k="natural" v="bay" />
		<tag k="ssr:stedsnr" v="463018" />
	</node>
	<node id="-841095" lat="63.5585888919" lon="9.80581667065">
		<tag k="name" v="Storneset" />
		<tag k="natural" v="cape" />
		<tag k="ssr:stedsnr" v="741229" />
	</node>
	<node id="-842536" lat="63.5845750041" lon="9.50844166401">
		<tag k="fixme" v="consider seamark:type=rock or natural=shoal" />
		<tag k="name" v="Prestskjeret" />
		<tag k="place" v="islet" />
		<tag k="ssr:stedsnr" v="281664" />
	</node>
	<node id="-842534" lat="63.5782027762" lon="9.49548889672">
		<tag k="name" v="Tindvika" />
		<tag k="natural" v="bay" />
		<tag k="ssr:stedsnr" v="741132" />
	</node>
	<node id="-841509" lat="63.4699888933" lon="9.90491667658">
		<tag k="name" v="Stokkbergneset" />
		<tag k="natural" v="cape" />
		<tag k="ssr:stedsnr" v="74059" />
	</node>
	<node id="-842530" lat="63.5671305562" lon="9.27841111555">
		<tag k="name" v="Rognan" />
		<tag k="place" v="islet" />
		<tag k="ssr:stedsnr" v="680122" />
	</node>
	<node id="-841505" lat="63.6427777743" lon="9.71981667649">
		<tag k="name" v="Valsetstranda" />
		<tag k="natural" v="beach" />
		<tag k="place" v="locality" />
		<tag k="ssr:stedsnr" v="584047" />
	</node>
	<node id="-841504" lat="63.5040250017" lon="9.83138054973">
		<tag k="name" v="Hamnabukta" />
		<tag k="natural" v="bay" />
		<tag k="ssr:stedsnr" v="741780" />
	</node>
	<node id="-842525" lat="63.6237055578" lon="9.60968055263">
		<tag k="name" v="Røysastøtta" />
		<tag k="natural" v="shoal" />
		<tag k="place" v="locality" />
		<tag k="ssr:stedsnr" v="637306" />
	</node>
	<node id="-842011" lat="63.6442083311" lon="9.70517499518">
		<tag k="fixme" v="consider seamark:type=rock or natural=shoal" />
		<tag k="name" v="Valsetskjæret" />
		<tag k="place" v="islet" />
		<tag k="ssr:stedsnr" v="699985" />
	</node>
	<node id="-842010" lat="63.5828333319" lon="9.38569721271">
		<tag k="name" v="Kuneset" />
		<tag k="natural" v="cape" />
		<tag k="ssr:stedsnr" v="644955" />
	</node>
	<node id="-842514" lat="63.5262277778" lon="9.82549167038">
		<tag k="alt_name" v="Alvikneset" />
		<tag k="name" v="Almvikneset" />
		<tag k="natural" v="cape" />
		<tag k="ssr:stedsnr" v="377641" />
	</node>
	<node id="-841486" lat="63.6462055516" lon="9.73162223068">
		<tag k="fixme" v="consider seamark:type=rock or natural=shoal" />
		<tag k="name" v="Langskjeret" />
		<tag k="place" v="islet" />
		<tag k="ssr:stedsnr" v="584050" />
	</node>
	<node id="-842509" lat="63.5706638866" lon="9.32945278301">
		<tag k="name" v="Ringholmen" />
		<tag k="place" v="islet" />
		<tag k="ssr:stedsnr" v="523960" />
	</node>
	<node id="-841996" lat="63.5970861101" lon="9.38401665955">
		<tag k="name" v="Svennholman" />
		<tag k="place" v="islet" />
		<tag k="ssr:stedsnr" v="558102" />
	</node>
	<node id="-842504" lat="63.5612888898" lon="9.78886944038">
		<tag k="name" v="Størdalsøra" />
		<tag k="natural" v="beach" />
		<tag k="place" v="locality" />
		<tag k="ssr:stedsnr" v="402227" />
	</node>
	<node id="-842502" lat="63.5773499984" lon="9.49869721372">
		<tag k="name" v="Tindviktangen" />
		<tag k="natural" v="cape" />
		<tag k="ssr:stedsnr" v="289989" />
	</node>
	<node id="-841471" lat="63.5702944475" lon="9.55848055176">
		<tag k="name" v="Grindviktangen" />
		<tag k="natural" v="cape" />
		<tag k="ssr:stedsnr" v="99506" />
	</node>
	<node id="-842494" lat="63.5963083362" lon="9.40560000322">
		<tag k="alt_name" v="Torkelskjera" />
		<tag k="fixme" v="consider seamark:type=rock or natural=shoal" />
		<tag k="name" v="Torkelskjæra" />
		<tag k="place" v="islet" />
		<tag k="ssr:stedsnr" v="159968" />
	</node>
	<node id="-841978" lat="63.6058277771" lon="9.55945555497">
		<tag k="fixme" v="consider seamark:type=rock or natural=shoal" />
		<tag k="name" v="Vorpskjeret" />
		<tag k="place" v="islet" />
		<tag k="ssr:stedsnr" v="828404" />
	</node>
	<node id="-841972" lat="63.6236166672" lon="9.73993054952">
		<tag k="fixme" v="consider seamark:type=rock or natural=shoal" />
		<tag k="name" v="Breivikskjæret" />
		<tag k="place" v="islet" />
		<tag k="ssr:stedsnr" v="699950" />
	</node>
	<node id="-842483" lat="63.5660777788" lon="9.29257500669">
		<tag k="name" v="Valneset" />
		<tag k="natural" v="cape" />
		<tag k="ssr:stedsnr" v="134139" />
	</node>
	<node id="-840946" lat="63.5929277789" lon="9.54580556252">
		<tag k="name" v="Hopavågen" />
		<tag k="natural" v="bay" />
		<tag k="ssr:stedsnr" v="619083" />
	</node>
	<node id="-841512" lat="63.5827499978" lon="9.56212777697">
		<tag k="name" v="Malevika" />
		<tag k="natural" v="bay" />
		<tag k="ssr:stedsnr" v="863106" />
	</node>
	<node id="-841849" lat="63.5854944411" lon="9.54610556429">
		<tag k="name" v="Gravvikbukta" />
		<tag k="natural" v="bay" />
		<tag k="ssr:stedsnr" v="195123" />
	</node>
	<node id="-841963" lat="63.5082361117" lon="9.82419167644">
		<tag k="name" v="Hamnavika" />
		<tag k="natural" v="bay" />
		<tag k="ssr:stedsnr" v="644003" />
	</node>
	<node id="-841450" lat="63.4514694417" lon="9.94185278342">
		<tag k="name" v="Djupdalsvika" />
		<tag k="natural" v="bay" />
		<tag k="ssr:stedsnr" v="620076" />
	</node>
	<node id="-841169" lat="63.473549999" lon="9.8931083343">
		<tag k="name" v="Vorpneset" />
		<tag k="natural" v="cape" />
		<tag k="ssr:stedsnr" v="863060" />
	</node>
	<node id="-840929" lat="63.5809833333" lon="9.50045277252">
		<tag k="alt_name" v="Værnestangen" />
		<tag k="name" v="Vernestangen" />
		<tag k="natural" v="cape" />
		<tag k="ssr:stedsnr" v="705711" />
	</node>
	<node id="-842463" lat="63.6045416665" lon="9.75212222683">
		<tag k="name" v="Dyrvika" />
		<tag k="natural" v="bay" />
		<tag k="ssr:stedsnr" v="827235" />
	</node>
	<node id="-842462" lat="63.6133249975" lon="9.74073055148">
		<tag k="alt_name" v="Hambårbukta" />
		<tag k="name" v="Hamborbukta" />
		<tag k="natural" v="bay" />
		<tag k="ssr:stedsnr" v="681984" />
	</node>
	<node id="-841437" lat="63.5557083331" lon="9.81277500512">
		<tag k="alt_name" v="Inner Buvikneset" />
		<tag k="name" v="Indre Buvikneset" />
		<tag k="natural" v="cape" />
		<tag k="ssr:stedsnr" v="584227" />
	</node>
	<node id="-842459" lat="63.6478972188" lon="9.73747223012">
		<tag k="name" v="Kjerringa" />
		<tag k="natural" v="shoal" />
		<tag k="place" v="locality" />
		<tag k="ssr:stedsnr" v="316863" />
	</node>
	<node id="-840922" lat="63.5523305527" lon="9.81876111326">
		<tag k="name" v="Selneset" />
		<tag k="natural" v="cape" />
		<tag k="ssr:stedsnr" v="833544" />
	</node>
	<node id="-841433" lat="63.541175" lon="9.82926111377">
		<tag k="alt_name" v="Kinebbeneset" />
		<tag k="name" v="Kinebbneset" />
		<tag k="natural" v="cape" />
		<tag k="ssr:stedsnr" v="316712" />
	</node>
	<node id="-840825" lat="63.5877722233" lon="9.52779444859">
		<tag k="name" v="Vernes" />
		<tag k="natural" v="cape" />
		<tag k="ssr:stedsnr" v="13111" />
	</node>
	<node id="-841428" lat="63.5872472201" lon="9.39893611899">
		<tag k="name" v="Heradsvikneset" />
		<tag k="natural" v="cape" />
		<tag k="ssr:stedsnr" v="228952" />
	</node>
	<node id="-841939" lat="63.5787805535" lon="9.34176389522">
		<tag k="name" v="Håvika" />
		<tag k="natural" v="bay" />
		<tag k="ssr:stedsnr" v="281969" />
	</node>
	<node id="-841935" lat="63.573166668" lon="9.78594723167">
		<tag k="name" v="Åremsstranda" />
		<tag k="natural" v="beach" />
		<tag k="place" v="locality" />
		<tag k="ssr:stedsnr" v="220267" />
	</node>
	<node id="-842445" lat="63.5173361126" lon="9.80828610702">
		<tag k="name" v="Melangsbukta" />
		<tag k="natural" v="bay" />
		<tag k="ssr:stedsnr" v="826374" />
	</node>
	<node id="-841506" lat="63.5955500029" lon="9.52113332546">
		<tag k="name" v="Rishaugtangen" />
		<tag k="natural" v="cape" />
		<tag k="ssr:stedsnr" v="523715" />
	</node>
	<node id="-842442" lat="63.5875111087" lon="9.51811110137">
		<tag k="name" v="Halvkannvika" />
		<tag k="natural" v="bay" />
		<tag k="ssr:stedsnr" v="888601" />
	</node>
	<node id="-841926" lat="63.6414111078" lon="9.68999721638">
		<tag k="name" v="Saratåa" />
		<tag k="natural" v="cape" />
		<tag k="ssr:stedsnr" v="281045" />
	</node>
	<node id="-841925" lat="63.6257444446" lon="9.74103055044">
		<tag k="name" v="Breivikbukta" />
		<tag k="natural" v="bay" />
		<tag k="ssr:stedsnr" v="38366" />
	</node>
	<node id="-842436" lat="63.5749944488" lon="9.55577500303">
		<tag k="name" v="Vikaholmen" />
		<tag k="place" v="islet" />
		<tag k="ssr:stedsnr" v="888591" />
	</node>
	<node id="-841922" lat="63.5185972198" lon="9.81640834306">
		<tag k="name" v="Lensvikbukta" />
		<tag k="natural" v="bay" />
		<tag k="ssr:stedsnr" v="74644" />
	</node>
	<node id="-841675" lat="63.6443444473" lon="9.72321666407">
		<tag k="fixme" v="consider seamark:type=rock or natural=shoal" />
		<tag k="name" v="Larsskjeret" />
		<tag k="place" v="islet" />
		<tag k="ssr:stedsnr" v="463038" />
	</node>
	<node id="-841407" lat="63.5768527743" lon="9.78468333509">
		<tag k="name" v="Åremsneset" />
		<tag k="natural" v="cape" />
		<tag k="ssr:stedsnr" v="160128" />
	</node>
	<node id="-840892" lat="63.5923333309" lon="9.41359721445">
		<tag k="fixme" v="consider seamark:type=rock or natural=shoal" />
		<tag k="name" v="Fiskungan" />
		<tag k="place" v="islet" />
		<tag k="ssr:stedsnr" v="341967" />
	</node>
	<node id="-840890" lat="63.5863000007" lon="9.37402222149">
		<tag k="name" v="Sundholmen" />
		<tag k="place" v="islet" />
		<tag k="ssr:stedsnr" v="220942" />
	</node>
	<node id="-841912" lat="63.6253305564" lon="9.74160832642">
		<tag k="name" v="Breiviktåa" />
		<tag k="natural" v="cape" />
		<tag k="ssr:stedsnr" v="699944" />
	</node>
	<node id="-841421" lat="63.5607833333" lon="9.79078054912">
		<tag k="name" v="Gammelvorpa" />
		<tag k="natural" v="beach" />
		<tag k="place" v="locality" />
		<tag k="ssr:stedsnr" v="38245" />
	</node>
	<node id="-842421" lat="63.4630000018" lon="9.90686666829">
		<tag k="name" v="Husberget" />
		<tag k="natural" v="cape" />
		<tag k="ssr:stedsnr" v="159040" />
	</node>
	<node id="-841392" lat="63.5807222189" lon="9.56727221574">
		<tag k="name" v="Seterbukta" />
		<tag k="natural" v="bay" />
		<tag k="ssr:stedsnr" v="766673" />
	</node>
	<node id="-841902" lat="63.5463083364" lon="9.82289999048">
		<tag k="name" v="Bekkjadalsbukta" />
		<tag k="natural" v="bay" />
		<tag k="ssr:stedsnr" v="281026" />
	</node>
	<node id="-840875" lat="63.5738416698" lon="9.33764445428">
		<tag k="name" v="Storholmen" />
		<tag k="place" v="islet" />
		<tag k="ssr:stedsnr" v="255117" />
	</node>
	<node id="-841898" lat="63.4806611088" lon="9.86814722368">
		<tag k="name" v="Sørlottbukta" />
		<tag k="natural" v="bay" />
		<tag k="ssr:stedsnr" v="948043" />
	</node>
	<node id="-842408" lat="63.5621111138" lon="9.78880277477">
		<tag k="name" v="Størdalsbugen" />
		<tag k="natural" v="beach" />
		<tag k="place" v="locality" />
		<tag k="ssr:stedsnr" v="466980" />
	</node>
	<node id="-840909" lat="63.5911277752" lon="9.51574443946">
		<tag k="name" v="Stavøya" />
		<tag k="natural" v="cape" />
		<tag k="ssr:stedsnr" v="619094" />
	</node>
	<node id="-841380" lat="63.600611109" lon="9.52721112038">
		<tag k="name" v="Laukhaugneset" />
		<tag k="natural" v="cape" />
		<tag k="ssr:stedsnr" v="159691" />
	</node>
	<node id="-841379" lat="63.5107861103" lon="9.83242221335">
		<tag k="name" v="Hamnanesflua" />
		<tag k="natural" v="shoal" />
		<tag k="place" v="locality" />
		<tag k="ssr:stedsnr" v="106120" />
	</node>
	<node id="-840986" lat="63.5641555529" lon="9.79161388769">
		<tag k="name" v="Laksvorpa" />
		<tag k="natural" v="cape" />
		<tag k="ssr:stedsnr" v="706184" />
	</node>
	<node id="-842393" lat="63.6462444432" lon="9.74298333282">
		<tag k="name" v="Leirvika" />
		<tag k="natural" v="bay" />
		<tag k="ssr:stedsnr" v="38030" />
	</node>
	<node id="-842390" lat="63.6465416656" lon="9.73231110322">
		<tag k="fixme" v="consider seamark:type=rock or natural=shoal" />
		<tag k="name" v="Skjeringsskjeret" />
		<tag k="place" v="islet" />
		<tag k="ssr:stedsnr" v="38027" />
	</node>
	<node id="-842388" lat="63.6410444434" lon="9.69302222241">
		<tag k="name" v="Høgholmen" />
		<tag k="place" v="islet" />
		<tag k="ssr:stedsnr" v="255063" />
	</node>
	<node id="-841875" lat="63.5745861116" lon="9.56130278014">
		<tag k="alt_name" v="Musdalsvik" />
		<tag k="name" v="Musdalsvika" />
		<tag k="natural" v="bay" />
		<tag k="ssr:stedsnr" v="195129" />
	</node>
	<node id="-841359" lat="63.5254638873" lon="9.82477500398">
		<tag k="name" v="Biskophamna" />
		<tag k="natural" v="bay" />
		<tag k="ssr:stedsnr" v="706225" />
	</node>
	<node id="-841358" lat="63.5898694459" lon="9.51928056005">
		<tag k="name" v="Stavøysundet" />
		<tag k="natural" v="strait" />
		<tag k="ssr:stedsnr" v="159695" />
	</node>
	<node id="-842380" lat="63.5965805514" lon="9.43603055291">
		<tag k="name" v="Skallen" />
		<tag k="natural" v="shoal" />
		<tag k="place" v="locality" />
		<tag k="ssr:stedsnr" v="289962" />
	</node>
	<node id="-841867" lat="63.4747222204" lon="9.88453610857">
		<tag k="name" v="Kjerringberget" />
		<tag k="natural" v="cape" />
		<tag k="ssr:stedsnr" v="281033" />
	</node>
	<node id="-841354" lat="63.6020555547" lon="9.75251388265">
		<tag k="name" v="Dyrvikneset" />
		<tag k="natural" v="cape" />
		<tag k="ssr:stedsnr" v="13976" />
	</node>
	<node id="-842377" lat="63.5706000012" lon="9.55999723037">
		<tag k="name" v="Lauvneset" />
		<tag k="natural" v="cape" />
		<tag k="ssr:stedsnr" v="377106" />
	</node>
	<node id="-842373" lat="63.5956923166" lon="9.40954718099">
		<tag k="name" v="Fiskarholmen" />
		<tag k="place" v="islet" />
		<tag k="ssr:stedsnr" v="316080" />
	</node>
	<node id="-841067" lat="63.5966694417" lon="9.64013611968">
		<tag k="name" v="Steinan" />
		<tag k="natural" v="beach" />
		<tag k="place" v="locality" />
		<tag k="ssr:stedsnr" v="948751" />
	</node>
	<node id="-840827" lat="63.5655361133" lon="9.56446667307">
		<tag k="bay" v="fjord" />
		<tag k="name" v="Verrafjorden" />
		<tag k="natural" v="bay" />
		<tag k="ssr:stedsnr" v="316127" />
	</node>
	<node id="-841338" lat="63.6157444431" lon="9.74135832695">
		<tag k="name" v="Selvneståa" />
		<tag k="natural" v="cape" />
		<tag k="ssr:stedsnr" v="924981" />
	</node>
	<node id="-842361" lat="63.5934888912" lon="9.5352277776">
		<tag k="name" v="Straumen" />
		<tag k="natural" v="strait" />
		<tag k="ssr:stedsnr" v="402665" />
	</node>
	<node id="-842357" lat="63.621952775" lon="9.62061666269">
		<tag k="name" v="Kasperberget" />
		<tag k="natural" v="cape" />
		<tag k="ssr:stedsnr" v="99268" />
	</node>
	<node id="-841163" lat="63.538627777" lon="9.8308583409">
		<tag k="name" v="Kinebbvika" />
		<tag k="natural" v="bay" />
		<tag k="ssr:stedsnr" v="255686" />
	</node>
	<node id="-842352" lat="63.597380559" lon="9.52813889625">
		<tag k="name" v="Tindvika" />
		<tag k="natural" v="bay" />
		<tag k="ssr:stedsnr" v="402668" />
	</node>
	<node id="-842351" lat="63.6321000037" lon="9.67204444386">
		<tag k="name" v="Mortenstøa" />
		<tag k="natural" v="bay" />
		<tag k="ssr:stedsnr" v="221241" />
	</node>
	<node id="-840813" lat="63.5577777804" lon="9.28353332764">
		<tag k="name" v="Årsgrunnen" />
		<tag k="natural" v="shoal" />
		<tag k="place" v="locality" />
		<tag k="ssr:stedsnr" v="894864" />
	</node>
	<node id="-841322" lat="63.6067388901" lon="9.56324999832">
		<tag k="fixme" v="consider seamark:type=rock or natural=shoal" />
		<tag k="name" v="Storskjeret" />
		<tag k="place" v="islet" />
		<tag k="ssr:stedsnr" v="463416" />
	</node>
	<node id="-840809" lat="63.6446861121" lon="9.72616667131">
		<tag k="fixme" v="consider seamark:type=rock or natural=shoal" />
		<tag k="name" v="Kvitskjeret" />
		<tag k="place" v="islet" />
		<tag k="ssr:stedsnr" v="341050" />
	</node>
	<node id="-841320" lat="63.6254527794" lon="9.6624305574">
		<tag k="name" v="Sandvika" />
		<tag k="natural" v="bay" />
		<tag k="ssr:stedsnr" v="828241" />
	</node>
	<node id="-842341" lat="63.5638000044" lon="9.30523333044">
		<tag k="name" v="Beinvikneset" />
		<tag k="natural" v="cape" />
		<tag k="ssr:stedsnr" v="558143" />
	</node>
	<node id="-840804" lat="63.48270556" lon="9.86753610394">
		<tag k="name" v="Sørlottneset" />
		<tag k="natural" v="cape" />
		<tag k="ssr:stedsnr" v="619062" />
	</node>
	<node id="-841827" lat="63.5770248959" lon="9.29168037658">
		<tag k="name" v="Aukneset" />
		<tag k="natural" v="cape" />
		<tag k="ssr:stedsnr" v="438084" />
	</node>
	<node id="-842334" lat="63.564680554" lon="9.79119166562">
		<tag k="name" v="Vika" />
		<tag k="natural" v="bay" />
		<tag k="ssr:stedsnr" v="584233" />
	</node>
	<node id="-841309" lat="63.5875305532" lon="9.3604416638">
		<tag k="name" v="Ratvika" />
		<tag k="natural" v="bay" />
		<tag k="ssr:stedsnr" v="462935" />
	</node>
	<node id="-840795" lat="63.5805888846" lon="9.50602500192">
		<tag k="name" v="Åkervika" />
		<tag k="natural" v="bay" />
		<tag k="ssr:stedsnr" v="255111" />
	</node>
	<node id="-842330" lat="63.5972638848" lon="9.75579167392">
		<tag k="name" v="Kallurddalsbukta" />
		<tag k="natural" v="bay" />
		<tag k="ssr:stedsnr" v="195959" />
	</node>
	<node id="-841300" lat="63.4545944428" lon="9.92890277225">
		<tag k="name" v="Purkvika" />
		<tag k="natural" v="bay" />
		<tag k="ssr:stedsnr" v="524109" />
	</node>
	<node id="-841298" lat="63.582180553" lon="9.52994166658">
		<tag k="name" v="Røykbuneset" />
		<tag k="natural" v="cape" />
		<tag k="ssr:stedsnr" v="766654" />
	</node>
	<node id="-841059" lat="63.5876638889" lon="9.37726111394">
		<tag k="name" v="Sundet" />
		<tag k="natural" v="strait" />
		<tag k="ssr:stedsnr" v="167962" />
	</node>
	<node id="-840923" lat="63.5357694481" lon="9.57847499023">
		<tag k="name" v="Håvikneset" />
		<tag k="natural" v="cape" />
		<tag k="ssr:stedsnr" v="644680" />
	</node>
	<node id="-842314" lat="63.6392861154" lon="9.68450277918">
		<tag k="name" v="Meholmvika" />
		<tag k="natural" v="bay" />
		<tag k="ssr:stedsnr" v="220359" />
	</node>
	<node id="-841484" lat="63.5886638896" lon="9.3521166582">
		<tag k="name" v="Vassgåsholmen" />
		<tag k="place" v="islet" />
		<tag k="ssr:stedsnr" v="887941" />
	</node>
	<node id="-841797" lat="63.5701861106" lon="9.32288056111">
		<tag k="name" v="Sørhamna" />
		<tag k="natural" v="bay" />
		<tag k="ssr:stedsnr" v="438089" />
	</node>
	<node id="-841284" lat="63.633049996" lon="9.66992221528">
		<tag k="name" v="Vorpstøa" />
		<tag k="natural" v="bay" />
		<tag k="ssr:stedsnr" v="828253" />
	</node>
	<node id="-842065" lat="63.6298138866" lon="9.74061665847">
		<tag k="name" v="Djupvikbukta" />
		<tag k="natural" v="bay" />
		<tag k="ssr:stedsnr" v="498918" />
	</node>
	<node id="-841794" lat="63.4683638846" lon="9.90574721561">
		<tag k="name" v="Blåbærvika" />
		<tag k="natural" v="bay" />
		<tag k="ssr:stedsnr" v="827040" />
	</node>
	<node id="-842302" lat="63.5752305553" lon="9.48603332892">
		<tag k="name" v="Kobbnaglen" />
		<tag k="natural" v="shoal" />
		<tag k="place" v="locality" />
		<tag k="ssr:stedsnr" v="410995" />
	</node>
	<node id="-841277" lat="63.5595611154" lon="9.8003083432">
		<tag k="alt_name" v="Løvika" />
		<tag k="name" v="Lauvvika" />
		<tag k="natural" v="bay" />
		<tag k="ssr:stedsnr" v="894575" />
	</node>
	<node id="-841787" lat="63.4642944421" lon="9.90394723056">
		<tag k="name" v="Husbergvika" />
		<tag k="natural" v="bay" />
		<tag k="ssr:stedsnr" v="827038" />
	</node>
	<node id="-842298" lat="63.5847972267" lon="9.39191112076">
		<tag k="name" v="Gårdersbukta" />
		<tag k="natural" v="bay" />
		<tag k="ssr:stedsnr" v="592958" />
	</node>
	<node id="-842297" lat="63.6101666687" lon="9.56922500319">
		<tag k="name" v="Stavneset" />
		<tag k="natural" v="cape" />
		<tag k="ssr:stedsnr" v="680085" />
	</node>
	<node id="-841784" lat="63.572122226" lon="9.33629444445">
		<tag k="name" v="Flatholmen" />
		<tag k="place" v="islet" />
		<tag k="ssr:stedsnr" v="438088" />
	</node>
	<node id="-841225" lat="63.5009555528" lon="9.85119721444">
		<tag k="name" v="Nålneset" />
		<tag k="natural" v="cape" />
		<tag k="ssr:stedsnr" v="134755" />
	</node>
	<node id="-840756" lat="63.6222111124" lon="9.64923332331">
		<tag k="name" v="Synnavika" />
		<tag k="natural" v="bay" />
		<tag k="ssr:stedsnr" v="402283" />
	</node>
	<node id="-841264" lat="63.5967416658" lon="9.38564722131">
		<tag k="name" v="Svennholman" />
		<tag k="place" v="islet" />
		<tag k="ssr:stedsnr" v="462946" />
	</node>
	<node id="-840750" lat="63.5577083319" lon="9.80865555963">
		<tag k="alt_name" v="Ytter Buvikneset" />
		<tag k="name" v="Ytre Buvikneset" />
		<tag k="natural" v="cape" />
		<tag k="ssr:stedsnr" v="281233" />
	</node>
	<node id="-841251" lat="63.5882472997" lon="9.39723434109">
		<tag k="name" v="Heradsvika" />
		<tag k="natural" v="bay" />
		<tag k="ssr:stedsnr" v="401931" />
	</node>
	<node id="-841242" lat="63.4849444448" lon="9.84903332939">
		<tag k="name" v="Tennelbukta" />
		<tag k="natural" v="bay" />
		<tag k="ssr:stedsnr" v="195036" />
	</node>
	<node id="-842263" lat="63.6125055553" lon="9.7432305488">
		<tag k="alt_name" v="Hambårneset" />
		<tag k="name" v="Hambortåa" />
		<tag k="natural" v="cape" />
		<tag k="ssr:stedsnr" v="559990" />
	</node>
	<node id="-841747" lat="63.6194072242" lon="9.59715773568">
		<tag k="name" v="Røysaneset" />
		<tag k="natural" v="cape" />
		<tag k="ssr:stedsnr" v="455342" />
	</node>
	<node id="-841731" lat="63.5780194485" lon="9.51947500155">
		<tag k="name" v="Vernesholmen" />
		<tag k="place" v="islet" />
		<tag k="ssr:stedsnr" v="498106" />
	</node>
	<node id="-841742" lat="63.5495000044" lon="9.57188888536">
		<tag k="alt_name" v="Skjeret;Fjordaskjeret" />
		<tag k="fixme" v="consider seamark:type=rock or natural=shoal" />
		<tag k="name" v="Fjordaskjæret" />
		<tag k="place" v="islet" />
		<tag k="ssr:stedsnr" v="341716" />
	</node>
	<node id="-841737" lat="63.609477774" lon="9.73943889697">
		<tag k="name" v="Steinvika" />
		<tag k="natural" v="bay" />
		<tag k="ssr:stedsnr" v="524211" />
	</node>
	<node id="-842243" lat="63.5843583313" lon="9.547891673">
		<tag k="fixme" v="consider seamark:type=rock or natural=shoal" />
		<tag k="name" v="Gravvikskjeret" />
		<tag k="place" v="islet" />
		<tag k="ssr:stedsnr" v="584644" />
	</node>
</osm>
