<?xml version="1.0" encoding="UTF-8"?>
<osm generator="osmapis" version="0.6">
	<node id="-835579" lat="63.4745055564" lon="9.86390277098">
		<tag k="name" v="Krikja" />
		<tag k="place" v="locality" />
		<tag k="ssr:stedsnr" v="98030" />
	</node>
	<node id="-836863" lat="63.4279388858" lon="9.85071389188">
		<tag k="name" v="Dyrlimyran" />
		<tag k="natural" v="wetland" />
		<tag k="ssr:stedsnr" v="99186" />
	</node>
	<node id="-836589" lat="63.4364888875" lon="9.82298334137">
		<tag k="landuse" v="meadow" />
		<tag k="name" v="Mortenenget" />
		<tag k="ssr:stedsnr" v="342163" />
	</node>
	<node id="-837100" lat="63.4901722199" lon="9.80783610758">
		<tag k="name" v="Røtningsskardurda" />
		<tag k="natural" v="scree" />
		<tag k="ssr:stedsnr" v="523461" />
	</node>
	<node id="-836587" lat="63.5772055541" lon="9.73210277493">
		<tag k="name" v="Øyan" />
		<tag k="place" v="locality" />
		<tag k="ssr:stedsnr" v="98690" />
	</node>
	<node id="-835562" lat="63.6292472194" lon="9.71384999266">
		<tag k="name" v="Vassmyran" />
		<tag k="natural" v="wetland" />
		<tag k="ssr:stedsnr" v="99343" />
	</node>
	<node id="-837097" lat="63.6139972188" lon="9.67861110438">
		<tag k="name" v="Ytterskogen" />
		<tag k="place" v="locality" />
		<tag k="ssr:stedsnr" v="342285" />
	</node>
	<node id="-836071" lat="63.5290194453" lon="9.64204166009">
		<tag k="name" v="Strupan" />
		<tag k="place" v="locality" />
		<tag k="ssr:stedsnr" v="159678" />
	</node>
	<node id="-837094" lat="63.5161527734" lon="9.78586665879">
		<tag k="name" v="Toskavollen" />
		<tag k="place" v="locality" />
		<tag k="ssr:stedsnr" v="341404" />
	</node>
	<node id="-836069" lat="63.4316611128" lon="9.8133472161">
		<tag k="name" v="Varggjøta" />
		<tag k="natural" v="wetland" />
		<tag k="ssr:stedsnr" v="160508" />
	</node>
	<node id="-835556" lat="63.5723166629" lon="9.74808333086">
		<tag k="name" v="Flongmyra" />
		<tag k="natural" v="wetland" />
		<tag k="ssr:stedsnr" v="559521" />
	</node>
	<node id="-835555" lat="63.5551972217" lon="9.7315249911">
		<tag k="name" v="Stakkenget" />
		<tag k="natural" v="wetland" />
		<tag k="ssr:stedsnr" v="949980" />
	</node>
	<node id="-836578" lat="63.6299111102" lon="9.73028610707">
		<tag k="name" v="Fagerlimyra" />
		<tag k="natural" v="wetland" />
		<tag k="ssr:stedsnr" v="74894" />
	</node>
	<node id="-836574" lat="63.5467888895" lon="9.77506111386">
		<tag k="name" v="Svartlimyran" />
		<tag k="natural" v="wetland" />
		<tag k="ssr:stedsnr" v="706328" />
	</node>
	<node id="-837085" lat="63.4740666633" lon="9.7809944387">
		<tag k="landuse" v="meadow" />
		<tag k="name" v="Gunnhildenget" />
		<tag k="ssr:stedsnr" v="523464" />
	</node>
	<node id="-837082" lat="63.4598333309" lon="9.7654750095">
		<tag k="name" v="Bjørklimyran" />
		<tag k="natural" v="wetland" />
		<tag k="ssr:stedsnr" v="706889" />
	</node>
	<node id="-835545" lat="63.4459694467" lon="9.73653056092">
		<tag k="name" v="Gryta" />
		<tag k="natural" v="wetland" />
		<tag k="ssr:stedsnr" v="706966" />
	</node>
	<node id="-836054" lat="63.6401201445" lon="9.70330046029">
		<tag k="name" v="Langsandan" />
		<tag k="place" v="locality" />
		<tag k="ssr:stedsnr" v="281352" />
	</node>
	<node id="-837074" lat="63.5004361146" lon="9.82358888831">
		<tag k="name" v="Myran" />
		<tag k="place" v="locality" />
		<tag k="ssr:stedsnr" v="159011" />
	</node>
	<node id="-835536" lat="63.5522166677" lon="9.74340834263">
		<tag k="name" v="Skreddarplassen" />
		<tag k="place" v="locality" />
		<tag k="ssr:stedsnr" v="645934" />
	</node>
	<node id="-835533" lat="63.5998999985" lon="9.66514167055">
		<tag k="name" v="Tjørnamyra" />
		<tag k="natural" v="wetland" />
		<tag k="ssr:stedsnr" v="584315" />
	</node>
	<node id="-837068" lat="63.6173000027" lon="9.69872499611">
		<tag k="name" v="Buskardmyra" />
		<tag k="natural" v="wetland" />
		<tag k="ssr:stedsnr" v="584222" />
	</node>
	<node id="-836428" lat="63.6336638879" lon="9.67981945375">
		<tag k="name" v="Lunden" />
		<tag k="place" v="locality" />
		<tag k="ssr:stedsnr" v="38308" />
	</node>
	<node id="-836546" lat="63.4712166623" lon="9.86236110254">
		<tag k="name" v="Nebsve" />
		<tag k="natural" v="wetland" />
		<tag k="ssr:stedsnr" v="765006" />
	</node>
	<node id="-836545" lat="63.5077999982" lon="9.76702221319">
		<tag k="name" v="Mehaugåsmyra" />
		<tag k="natural" v="wetland" />
		<tag k="ssr:stedsnr" v="524207" />
	</node>
	<node id="-835518" lat="63.5564666708" lon="9.75372776872">
		<tag k="name" v="Hamptjørnmyra" />
		<tag k="natural" v="wetland" />
		<tag k="ssr:stedsnr" v="949149" />
	</node>
	<node id="-836874" lat="63.5317638909" lon="9.77721666135">
		<tag k="name" v="Rogna" />
		<tag k="place" v="locality" />
		<tag k="ssr:stedsnr" v="159396" />
	</node>
	<node id="-835515" lat="63.5971277769" lon="9.54781665675">
		<tag k="name" v="Rishaugurda" />
		<tag k="natural" v="scree" />
		<tag k="ssr:stedsnr" v="948701" />
	</node>
	<node id="-837043" lat="63.4662833342" lon="9.82567221968">
		<tag k="name" v="Løyfta" />
		<tag k="place" v="locality" />
		<tag k="ssr:stedsnr" v="644077" />
	</node>
	<node id="-835912" lat="63.6104861139" lon="9.7244999933">
		<tag k="name" v="Storgjøta" />
		<tag k="natural" v="wetland" />
		<tag k="ssr:stedsnr" v="160155" />
	</node>
	<node id="-836014" lat="63.4298777748" lon="9.75903055559">
		<tag k="name" v="Almholet" />
		<tag k="natural" v="wetland" />
		<tag k="ssr:stedsnr" v="524508" />
	</node>
	<node id="-837037" lat="63.4468138909" lon="9.80566389414">
		<tag k="name" v="Varghiet" />
		<tag k="place" v="locality" />
		<tag k="ssr:stedsnr" v="281596" />
	</node>
	<node id="-836523" lat="63.5642027736" lon="9.75190833053">
		<tag k="name" v="Karlmyra" />
		<tag k="natural" v="wetland" />
		<tag k="ssr:stedsnr" v="342151" />
	</node>
	<node id="-836005" lat="63.6353861112" lon="9.68600277235">
		<tag k="name" v="Trøa" />
		<tag k="place" v="locality" />
		<tag k="ssr:stedsnr" v="281341" />
	</node>
	<node id="-836516" lat="63.4538083374" lon="9.76335556551">
		<tag k="name" v="Fjeringsslættet" />
		<tag k="place" v="locality" />
		<tag k="ssr:stedsnr" v="888877" />
	</node>
	<node id="-837027" lat="63.4813027743" lon="9.84724999103">
		<tag k="name" v="Auna" />
		<tag k="place" v="locality" />
		<tag k="ssr:stedsnr" v="645015" />
	</node>
	<node id="-836514" lat="63.4981444464" lon="9.82068611673">
		<tag k="name" v="Lia" />
		<tag k="place" v="locality" />
		<tag k="ssr:stedsnr" v="765024" />
	</node>
	<node id="-835739" lat="63.4433138929" lon="9.72566389736">
		<tag k="name" v="Storslættet" />
		<tag k="place" v="locality" />
		<tag k="ssr:stedsnr" v="706984" />
	</node>
	<node id="-836511" lat="63.5061277823" lon="9.82174443586">
		<tag k="name" v="Hjellmyra" />
		<tag k="natural" v="wetland" />
		<tag k="ssr:stedsnr" v="948019" />
	</node>
	<node id="-837022" lat="63.5747861136" lon="9.7687777736">
		<tag k="name" v="Grønningsmyra" />
		<tag k="natural" v="wetland" />
		<tag k="ssr:stedsnr" v="827173" />
	</node>
	<node id="-835997" lat="63.4888277749" lon="9.79193333276">
		<tag k="name" v="Ølstermyra" />
		<tag k="natural" v="wetland" />
		<tag k="ssr:stedsnr" v="584412" />
	</node>
	<node id="-835989" lat="63.6337583346" lon="9.68503610182">
		<tag k="name" v="Torvdamman" />
		<tag k="natural" v="wetland" />
		<tag k="ssr:stedsnr" v="281338" />
	</node>
	<node id="-837008" lat="63.6138833317" lon="9.71850833338">
		<tag k="name" v="Tinden" />
		<tag k="place" v="locality" />
		<tag k="ssr:stedsnr" v="584212" />
	</node>
	<node id="-835983" lat="63.4564999963" lon="9.92407777186">
		<tag k="name" v="Vikan" />
		<tag k="place" v="locality" />
		<tag k="ssr:stedsnr" v="220106" />
	</node>
	<node id="-836493" lat="63.4465694427" lon="9.74674722927">
		<tag k="name" v="Svartholet" />
		<tag k="natural" v="wetland" />
		<tag k="ssr:stedsnr" v="342968" />
	</node>
	<node id="-835972" lat="63.6262277753" lon="9.7180916669">
		<tag k="name" v="Fagerlimyra" />
		<tag k="natural" v="wetland" />
		<tag k="ssr:stedsnr" v="402360" />
	</node>
	<node id="-836480" lat="63.5555388877" lon="9.75919721396">
		<tag k="landuse" v="meadow" />
		<tag k="name" v="Nilsstuplassen" />
		<tag k="ssr:stedsnr" v="342154" />
	</node>
	<node id="-836990" lat="63.4252055571" lon="9.75850278084">
		<tag k="name" v="Høybuenget" />
		<tag k="place" v="locality" />
		<tag k="ssr:stedsnr" v="949866" />
	</node>
	<node id="-837098" lat="63.5612916626" lon="9.65840555069">
		<tag k="name" v="Urda" />
		<tag k="natural" v="scree" />
		<tag k="ssr:stedsnr" v="888561" />
	</node>
	<node id="-836470" lat="63.5535083297" lon="9.74493611702">
		<tag k="name" v="Midtirekstrert" />
		<tag k="place" v="locality" />
		<tag k="ssr:stedsnr" v="402948" />
	</node>
	<node id="-835955" lat="63.5793611124" lon="9.63469999822">
		<tag k="name" v="Høtterdalsmyra" />
		<tag k="natural" v="wetland" />
		<tag k="ssr:stedsnr" v="706633" />
	</node>
	<node id="-836465" lat="63.4879916654" lon="9.75434722973">
		<tag k="name" v="Frostamyra" />
		<tag k="natural" v="wetland" />
		<tag k="ssr:stedsnr" v="948433" />
	</node>
	<node id="-836464" lat="63.4901499962" lon="9.75928888048">
		<tag k="name" v="Haggelneset" />
		<tag k="natural" v="wetland" />
		<tag k="ssr:stedsnr" v="99100" />
	</node>
	<node id="-835749" lat="63.4652277811" lon="9.83466111946">
		<tag k="name" v="Sørlimyran" />
		<tag k="natural" v="wetland" />
		<tag k="ssr:stedsnr" v="341074" />
	</node>
	<node id="-836462" lat="63.4942638908" lon="9.83408332672">
		<tag k="name" v="Innergårdsmyran" />
		<tag k="natural" v="wetland" />
		<tag k="ssr:stedsnr" v="463034" />
	</node>
	<node id="-836970" lat="63.537494442" lon="9.57096387948">
		<tag k="name" v="Fjellet" />
		<tag k="place" v="locality" />
		<tag k="ssr:stedsnr" v="463626" />
	</node>
	<node id="-835944" lat="63.4673027735" lon="9.85628054634">
		<tag k="name" v="Sjørgrova" />
		<tag k="place" v="locality" />
		<tag k="ssr:stedsnr" v="220090" />
	</node>
	<node id="-835932" lat="63.4487861109" lon="9.76633054807">
		<tag k="name" v="Groven" />
		<tag k="place" v="locality" />
		<tag k="ssr:stedsnr" v="342843" />
	</node>
	<node id="-836955" lat="63.4771166675" lon="9.8404416667">
		<tag k="name" v="Flata" />
		<tag k="place" v="locality" />
		<tag k="ssr:stedsnr" v="949014" />
	</node>
	<node id="-836442" lat="63.5045083296" lon="9.75621388648">
		<tag k="name" v="Støttingvadet" />
		<tag k="natural" v="wetland" />
		<tag k="ssr:stedsnr" v="524202" />
	</node>
	<node id="-835926" lat="63.4577888915" lon="9.72994166167">
		<tag k="name" v="Ramnåsurden" />
		<tag k="natural" v="scree" />
		<tag k="ssr:stedsnr" v="99424" />
	</node>
	<node id="-836949" lat="63.448519447" lon="9.82127777438">
		<tag k="name" v="Pikslætthalsen" />
		<tag k="place" v="locality" />
		<tag k="ssr:stedsnr" v="644055" />
	</node>
	<node id="-836436" lat="63.5422138883" lon="9.59340834005">
		<tag k="name" v="Hessa" />
		<tag k="place" v="locality" />
		<tag k="ssr:stedsnr" v="341708" />
	</node>
	<node id="-836579" lat="63.4367055537" lon="9.82901666073">
		<tag k="name" v="Pølmyran" />
		<tag k="natural" v="wetland" />
		<tag k="ssr:stedsnr" v="342161" />
	</node>
	<node id="-836431" lat="63.6425194413" lon="9.73211388438">
		<tag k="name" v="Kamsheimyra" />
		<tag k="natural" v="wetland" />
		<tag k="ssr:stedsnr" v="463041" />
	</node>
	<node id="-837005" lat="63.4400527778" lon="9.8567444368">
		<tag k="name" v="Kringlotmyra" />
		<tag k="natural" v="wetland" />
		<tag k="ssr:stedsnr" v="827176" />
	</node>
	<node id="-836940" lat="63.4833305596" lon="9.84473611278">
		<tag k="historic" v="shieling" />
		<tag k="name" v="Jensstuvollen" />
		<tag k="place" v="locality" />
		<tag k="ssr:stedsnr" v="949017" />
	</node>
	<node id="-836939" lat="63.4860166701" lon="9.73845556282">
		<tag k="name" v="Frostaaunet" />
		<tag k="place" v="locality" />
		<tag k="ssr:stedsnr" v="888062" />
	</node>
	<node id="-836936" lat="63.5006388861" lon="9.71596666748">
		<tag k="name" v="Dammyra" />
		<tag k="natural" v="wetland" />
		<tag k="ssr:stedsnr" v="38435" />
	</node>
	<node id="-836928" lat="63.5372722191" lon="9.80384443788">
		<tag k="name" v="Stormyra" />
		<tag k="natural" v="wetland" />
		<tag k="ssr:stedsnr" v="195692" />
	</node>
	<node id="-835903" lat="63.5535305593" lon="9.79635833037">
		<tag k="name" v="Buvikmyra" />
		<tag k="natural" v="wetland" />
		<tag k="ssr:stedsnr" v="705391" />
	</node>
	<node id="-836414" lat="63.5047611079" lon="9.76304166855">
		<tag k="name" v="Rotan" />
		<tag k="natural" v="wetland" />
		<tag k="ssr:stedsnr" v="524205" />
	</node>
	<node id="-836413" lat="63.4835361155" lon="9.77914999597">
		<tag k="name" v="Ormkleiva" />
		<tag k="place" v="locality" />
		<tag k="ssr:stedsnr" v="644393" />
	</node>
	<node id="-836412" lat="63.5708194452" lon="9.66729721919">
		<tag k="name" v="Ratslættet" />
		<tag k="place" v="locality" />
		<tag k="ssr:stedsnr" v="220664" />
	</node>
	<node id="-836411" lat="63.3997666669" lon="9.84247221912">
		<tag k="name" v="Bjørnbetflotten" />
		<tag k="natural" v="wetland" />
		<tag k="ssr:stedsnr" v="463500" />
	</node>
	<node id="-836409" lat="63.5617111117" lon="9.78459167197">
		<tag k="name" v="Aunet" />
		<tag k="place" v="locality" />
		<tag k="ssr:stedsnr" v="342142" />
	</node>
	<node id="-836919" lat="63.5628222205" lon="9.65107499988">
		<tag k="name" v="Skjenngrasholet" />
		<tag k="place" v="locality" />
		<tag k="ssr:stedsnr" v="584641" />
	</node>
	<node id="-835891" lat="63.4382055565" lon="9.79102223183">
		<tag k="name" v="Storlihalsen" />
		<tag k="place" v="locality" />
		<tag k="ssr:stedsnr" v="39527" />
	</node>
	<node id="-836913" lat="63.4577194427" lon="9.83648056064">
		<tag k="historic" v="shieling" />
		<tag k="name" v="Fjølåssetra" />
		<tag k="place" v="locality" />
		<tag k="ssr:stedsnr" v="948100" />
	</node>
	<node id="-837424" lat="63.605722221" lon="9.7032361039">
		<tag k="name" v="Middagsskardmyra" />
		<tag k="natural" v="wetland" />
		<tag k="ssr:stedsnr" v="281209" />
	</node>
	<node id="-837422" lat="63.5843166628" lon="9.59375554935">
		<tag k="name" v="Vikamyran" />
		<tag k="natural" v="wetland" />
		<tag k="ssr:stedsnr" v="888613" />
	</node>
	<node id="-837421" lat="63.6363305577" lon="9.7034555479">
		<tag k="name" v="Skardsura" />
		<tag k="natural" v="scree" />
		<tag k="ssr:stedsnr" v="99334" />
	</node>
	<node id="-837418" lat="63.4820722242" lon="9.82847222145">
		<tag k="name" v="Vindmyran" />
		<tag k="natural" v="wetland" />
		<tag k="ssr:stedsnr" v="827253" />
	</node>
	<node id="-835719" lat="63.6339083321" lon="9.73079722872">
		<tag k="name" v="Agdenesmyran" />
		<tag k="natural" v="wetland" />
		<tag k="ssr:stedsnr" v="584354" />
	</node>
	<node id="-837416" lat="63.6220249988" lon="9.68081667015">
		<tag k="name" v="Fagerkinna" />
		<tag k="place" v="locality" />
		<tag k="ssr:stedsnr" v="463263" />
	</node>
	<node id="-836903" lat="63.4713777806" lon="9.83945277215">
		<tag k="name" v="Stormyra" />
		<tag k="natural" v="wetland" />
		<tag k="ssr:stedsnr" v="706010" />
	</node>
	<node id="-837410" lat="63.438366669" lon="9.83994445051">
		<tag k="name" v="Fabolimyran" />
		<tag k="natural" v="wetland" />
		<tag k="ssr:stedsnr" v="403158" />
	</node>
	<node id="-835873" lat="63.4633638933" lon="9.89083055196">
		<tag k="name" v="Ingdalshagan" />
		<tag k="place" v="locality" />
		<tag k="ssr:stedsnr" v="99039" />
	</node>
	<node id="-837405" lat="63.516569442" lon="9.79729444592">
		<tag k="name" v="Haugdalen" />
		<tag k="place" v="locality" />
		<tag k="ssr:stedsnr" v="826376" />
	</node>
	<node id="-836891" lat="63.5581305558" lon="9.77885000166">
		<tag k="name" v="Olderlendet" />
		<tag k="place" v="locality" />
		<tag k="ssr:stedsnr" v="463138" />
	</node>
	<node id="-837402" lat="63.551191667" lon="9.74176389851">
		<tag k="name" v="Sandbakkmyra" />
		<tag k="natural" v="wetland" />
		<tag k="ssr:stedsnr" v="949930" />
	</node>
	<node id="-835631" lat="63.4720416623" lon="9.71485832979">
		<tag k="landuse" v="meadow" />
		<tag k="name" v="Stakkenget" />
		<tag k="ssr:stedsnr" v="159120" />
	</node>
	<node id="-835862" lat="63.6073277747" lon="9.71153611288">
		<tag k="name" v="Hyllmyra" />
		<tag k="natural" v="wetland" />
		<tag k="ssr:stedsnr" v="524152" />
	</node>
	<node id="-837396" lat="63.4535166669" lon="9.91807778528">
		<tag k="name" v="Gjøtmyra" />
		<tag k="natural" v="wetland" />
		<tag k="ssr:stedsnr" v="38080" />
	</node>
	<node id="-836173" lat="63.4313972263" lon="9.77553610903">
		<tag k="name" v="Kvellhagan" />
		<tag k="place" v="locality" />
		<tag k="ssr:stedsnr" v="39510" />
	</node>
	<node id="-835867" lat="63.4495694407" lon="9.75578332343">
		<tag k="name" v="Svartholhalsen" />
		<tag k="place" v="locality" />
		<tag k="ssr:stedsnr" v="463893" />
	</node>
	<node id="-835856" lat="63.48704167" lon="9.77111666243">
		<tag k="historic" v="shieling" />
		<tag k="name" v="Grindvollen" />
		<tag k="place" v="locality" />
		<tag k="ssr:stedsnr" v="827412" />
	</node>
	<node id="-835800" lat="63.6344166653" lon="9.73046111489">
		<tag k="name" v="Stormyra" />
		<tag k="natural" v="wetland" />
		<tag k="ssr:stedsnr" v="619918" />
	</node>
	<node id="-836397" lat="63.5416694459" lon="9.7037222139">
		<tag k="name" v="Laksrenslet" />
		<tag k="natural" v="wetland" />
		<tag k="ssr:stedsnr" v="221889" />
	</node>
	<node id="-835851" lat="63.6392749995" lon="9.70310554985">
		<tag k="name" v="Rugekra" />
		<tag k="place" v="locality" />
		<tag k="ssr:stedsnr" v="402347" />
	</node>
	<node id="-836362" lat="63.526483332" lon="9.64847499904">
		<tag k="name" v="Sør Bjørkholet" />
		<tag k="place" v="locality" />
		<tag k="ssr:stedsnr" v="341691" />
	</node>
	<node id="-837384" lat="63.6128416673" lon="9.64444722661">
		<tag k="name" v="Stormyra" />
		<tag k="natural" v="wetland" />
		<tag k="ssr:stedsnr" v="584306" />
	</node>
	<node id="-836869" lat="63.4405416674" lon="9.79167776951">
		<tag k="name" v="Tuvmyran" />
		<tag k="natural" v="wetland" />
		<tag k="ssr:stedsnr" v="584603" />
	</node>
	<node id="-836352" lat="63.4456972197" lon="9.73398611048">
		<tag k="name" v="Dalen" />
		<tag k="place" v="locality" />
		<tag k="ssr:stedsnr" v="342942" />
	</node>
	<node id="-837375" lat="63.4258388925" lon="9.75834721342">
		<tag k="name" v="Høybuenget" />
		<tag k="place" v="locality" />
		<tag k="ssr:stedsnr" v="706524" />
	</node>
	<node id="-836857" lat="63.4494805523" lon="9.87845000703">
		<tag k="name" v="Husmyra" />
		<tag k="natural" v="wetland" />
		<tag k="ssr:stedsnr" v="827104" />
	</node>
	<node id="-836478" lat="63.6014638878" lon="9.66565000035">
		<tag k="name" v="Svartholet" />
		<tag k="place" v="locality" />
		<tag k="ssr:stedsnr" v="766298" />
	</node>
	<node id="-837360" lat="63.6119638891" lon="9.68658056267">
		<tag k="name" v="Slottet" />
		<tag k="place" v="locality" />
		<tag k="ssr:stedsnr" v="888181" />
	</node>
	<node id="-837359" lat="63.5731222181" lon="9.68061389023">
		<tag k="name" v="Bladbakkmyra" />
		<tag k="natural" v="wetland" />
		<tag k="ssr:stedsnr" v="644647" />
	</node>
	<node id="-836845" lat="63.5253750002" lon="9.80192500589">
		<tag k="name" v="Fjellsaunet" />
		<tag k="natural" v="wetland" />
		<tag k="ssr:stedsnr" v="159392" />
	</node>
	<node id="-835538" lat="63.471302782" lon="9.86935832481">
		<tag k="name" v="Fjølåsmyran" />
		<tag k="natural" v="wetland" />
		<tag k="ssr:stedsnr" v="401001" />
	</node>
	<node id="-836391" lat="63.4973305564" lon="9.81351943727">
		<tag k="name" v="Langfallmyra" />
		<tag k="natural" v="wetland" />
		<tag k="ssr:stedsnr" v="524182" />
	</node>
	<node id="-837351" lat="63.4647750016" lon="9.76581388074">
		<tag k="name" v="Tjurrugeilmyra" />
		<tag k="natural" v="wetland" />
		<tag k="ssr:stedsnr" v="645911" />
	</node>
	<node id="-836323" lat="63.5475194471" lon="9.72389167195">
		<tag k="name" v="Lykkja" />
		<tag k="place" v="locality" />
		<tag k="ssr:stedsnr" v="221882" />
	</node>
	<node id="-837346" lat="63.4496777761" lon="9.89533610599">
		<tag k="name" v="Fitjmyran" />
		<tag k="natural" v="wetland" />
		<tag k="ssr:stedsnr" v="766063" />
	</node>
	<node id="-836048" lat="63.5458305523" lon="9.72027776878">
		<tag k="name" v="Setermyrhalsen" />
		<tag k="natural" v="wetland" />
		<tag k="ssr:stedsnr" v="160918" />
	</node>
	<node id="-836318" lat="63.449055555" lon="9.81305555677">
		<tag k="name" v="Grova" />
		<tag k="place" v="locality" />
		<tag k="ssr:stedsnr" v="402917" />
	</node>
	<node id="-836828" lat="63.6377277775" lon="9.68981943502">
		<tag k="name" v="Kulan" />
		<tag k="place" v="locality" />
		<tag k="ssr:stedsnr" v="524281" />
	</node>
	<node id="-835801" lat="63.4772916632" lon="9.77199167172">
		<tag k="name" v="Melan" />
		<tag k="place" v="locality" />
		<tag k="ssr:stedsnr" v="99403" />
	</node>
	<node id="-836824" lat="63.4511694463" lon="9.83796666526">
		<tag k="name" v="Taraldslættet" />
		<tag k="place" v="locality" />
		<tag k="ssr:stedsnr" v="888046" />
	</node>
	<node id="-835799" lat="63.5194138863" lon="9.59905000131">
		<tag k="name" v="Setra" />
		<tag k="place" v="locality" />
		<tag k="ssr:stedsnr" v="342405" />
	</node>
	<node id="-836308" lat="63.5883472211" lon="9.65399722525">
		<tag k="name" v="Hopskogen" />
		<tag k="place" v="locality" />
		<tag k="ssr:stedsnr" v="523741" />
	</node>
	<node id="-835794" lat="63.6162472181" lon="9.71543055125">
		<tag k="name" v="Naustvollen" />
		<tag k="place" v="locality" />
		<tag k="ssr:stedsnr" v="645163" />
	</node>
	<node id="-836305" lat="63.4648444483" lon="9.8525499974">
		<tag k="name" v="Trøen" />
		<tag k="place" v="locality" />
		<tag k="ssr:stedsnr" v="584069" />
	</node>
	<node id="-836302" lat="63.482574997" lon="9.78605556368">
		<tag k="name" v="Stormyra" />
		<tag k="natural" v="wetland" />
		<tag k="ssr:stedsnr" v="888356" />
	</node>
	<node id="-836898" lat="63.5256750031" lon="9.730555557">
		<tag k="name" v="Bingsholmyran" />
		<tag k="natural" v="wetland" />
		<tag k="ssr:stedsnr" v="256612" />
	</node>
	<node id="-835786" lat="63.6393916671" lon="9.71804167063">
		<tag k="name" v="Fossmyra" />
		<tag k="natural" v="wetland" />
		<tag k="ssr:stedsnr" v="827347" />
	</node>
	<node id="-835785" lat="63.4761638925" lon="9.7585694436">
		<tag k="historic" v="shieling" />
		<tag k="name" v="Aunvollen" />
		<tag k="place" v="locality" />
		<tag k="ssr:stedsnr" v="341086" />
	</node>
	<node id="-836805" lat="63.3975138929" lon="9.76875000781">
		<tag k="name" v="Isdalsøyan" />
		<tag k="natural" v="wetland" />
		<tag k="ssr:stedsnr" v="99634" />
	</node>
	<node id="-837315" lat="63.6113083348" lon="9.68228610225">
		<tag k="name" v="Slottet" />
		<tag k="place" v="locality" />
		<tag k="ssr:stedsnr" v="706108" />
	</node>
	<node id="-836289" lat="63.5019583311" lon="9.76538889561">
		<tag k="name" v="Utnesmyran" />
		<tag k="natural" v="wetland" />
		<tag k="ssr:stedsnr" v="38284" />
	</node>
	<node id="-836286" lat="63.4527444432" lon="9.82031110296">
		<tag k="historic" v="shieling" />
		<tag k="name" v="Vollen" />
		<tag k="place" v="locality" />
		<tag k="ssr:stedsnr" v="99060" />
	</node>
	<node id="-835764" lat="63.6210888916" lon="9.62067778415">
		<tag k="historic" v="shieling" />
		<tag k="name" v="Fagervollen" />
		<tag k="place" v="locality" />
		<tag k="ssr:stedsnr" v="281289" />
	</node>
	<node id="-835897" lat="63.4427583341" lon="9.76507222653">
		<tag k="historic" v="shieling" />
		<tag k="name" v="Sannerdalsvollen" />
		<tag k="place" v="locality" />
		<tag k="ssr:stedsnr" v="342497" />
	</node>
	<node id="-837295" lat="63.6130694455" lon="9.73823610711">
		<tag k="name" v="Hambåra" />
		<tag k="place" v="locality" />
		<tag k="ssr:stedsnr" v="463233" />
	</node>
	<node id="-836269" lat="63.5802694439" lon="9.30991111954">
		<tag k="name" v="Gangstøa" />
		<tag k="place" v="locality" />
		<tag k="ssr:stedsnr" v="342915" />
	</node>
	<node id="-836267" lat="63.4634111136" lon="9.713127774">
		<tag k="name" v="Stormyra" />
		<tag k="natural" v="wetland" />
		<tag k="ssr:stedsnr" v="888379" />
	</node>
	<node id="-835751" lat="63.4634472239" lon="9.74450833492">
		<tag k="name" v="Klumpmyran" />
		<tag k="natural" v="wetland" />
		<tag k="ssr:stedsnr" v="342392" />
	</node>
	<node id="-835953" lat="63.5491944431" lon="9.8123222165">
		<tag k="name" v="Selnes" />
		<tag k="place" v="locality" />
		<tag k="ssr:stedsnr" v="827376" />
	</node>
	<node id="-836772" lat="63.5386444431" lon="9.67227778559">
		<tag k="name" v="Pire" />
		<tag k="natural" v="wetland" />
		<tag k="ssr:stedsnr" v="584596" />
	</node>
	<node id="-836257" lat="63.4575722205" lon="9.76460555068">
		<tag k="name" v="Middagsheia" />
		<tag k="place" v="locality" />
		<tag k="ssr:stedsnr" v="402901" />
	</node>
	<node id="-835781" lat="63.5844305584" lon="9.36436388052">
		<tag k="name" v="Tinnen" />
		<tag k="place" v="locality" />
		<tag k="ssr:stedsnr" v="583941" />
	</node>
	<node id="-836763" lat="63.5586888856" lon="9.65881665865">
		<tag k="name" v="Grønningsbakken" />
		<tag k="place" v="locality" />
		<tag k="ssr:stedsnr" v="463574" />
	</node>
	<node id="-837272" lat="63.53180278" lon="9.66799721268">
		<tag k="name" v="Bjørkholet" />
		<tag k="place" v="locality" />
		<tag k="ssr:stedsnr" v="827667" />
	</node>
	<node id="-837268" lat="63.552049998" lon="9.73424444884">
		<tag k="name" v="Løften" />
		<tag k="natural" v="wetland" />
		<tag k="ssr:stedsnr" v="766917" />
	</node>
	<node id="-836755" lat="63.4462388892" lon="9.74205277362">
		<tag k="name" v="Svartholøyan" />
		<tag k="natural" v="wetland" />
		<tag k="ssr:stedsnr" v="281978" />
	</node>
	<node id="-836754" lat="63.4603861098" lon="9.86694167477">
		<tag k="name" v="Revurdmyran" />
		<tag k="natural" v="wetland" />
		<tag k="ssr:stedsnr" v="281056" />
	</node>
	<node id="-836752" lat="63.6369388867" lon="9.70667499235">
		<tag k="name" v="Skjulbergsurda" />
		<tag k="natural" v="scree" />
		<tag k="ssr:stedsnr" v="766320" />
	</node>
	<node id="-836239" lat="63.5140222247" lon="9.78478612042">
		<tag k="name" v="Aunan" />
		<tag k="place" v="locality" />
		<tag k="ssr:stedsnr" v="705420" />
	</node>
	<node id="-835623" lat="63.5982416699" lon="9.66979166125">
		<tag k="name" v="Tverrhoggmyra" />
		<tag k="natural" v="wetland" />
		<tag k="ssr:stedsnr" v="584323" />
	</node>
	<node id="-836749" lat="63.5829277811" lon="9.70514999659">
		<tag k="name" v="Granslættet" />
		<tag k="place" v="locality" />
		<tag k="ssr:stedsnr" v="341758" />
	</node>
	<node id="-835723" lat="63.4471416625" lon="9.81192222327">
		<tag k="name" v="Grova" />
		<tag k="place" v="locality" />
		<tag k="ssr:stedsnr" v="645538" />
	</node>
	<node id="-836745" lat="63.4687305588" lon="9.86217777207">
		<tag k="name" v="Eggen" />
		<tag k="place" v="locality" />
		<tag k="ssr:stedsnr" v="827072" />
	</node>
	<node id="-836231" lat="63.5735222206" lon="9.75334444037">
		<tag k="name" v="Flonna" />
		<tag k="natural" v="wetland" />
		<tag k="ssr:stedsnr" v="402162" />
	</node>
	<node id="-837254" lat="63.5312611096" lon="9.6242611197">
		<tag k="name" v="Krakmarka" />
		<tag k="place" v="locality" />
		<tag k="ssr:stedsnr" v="888580" />
	</node>
	<node id="-836738" lat="63.4929333294" lon="9.82549166532">
		<tag k="name" v="Dalan" />
		<tag k="place" v="locality" />
		<tag k="ssr:stedsnr" v="281039" />
	</node>
	<node id="-837248" lat="63.5489666661" lon="9.81719723175">
		<tag k="name" v="Trøa" />
		<tag k="place" v="locality" />
		<tag k="ssr:stedsnr" v="523046" />
	</node>
	<node id="-837246" lat="63.6408166634" lon="9.71036110642">
		<tag k="name" v="Torvbærtofta" />
		<tag k="natural" v="wetland" />
		<tag k="ssr:stedsnr" v="38047" />
	</node>
	<node id="-837241" lat="63.5763305538" lon="9.56814166631">
		<tag k="name" v="Vika" />
		<tag k="place" v="locality" />
		<tag k="ssr:stedsnr" v="827692" />
	</node>
	<node id="-836727" lat="63.4851027744" lon="9.64424722744">
		<tag k="landuse" v="meadow" />
		<tag k="name" v="Litlenget" />
		<tag k="ssr:stedsnr" v="949375" />
	</node>
	<node id="-835699" lat="63.4801611135" lon="9.7399805539">
		<tag k="name" v="Trygan" />
		<tag k="place" v="locality" />
		<tag k="ssr:stedsnr" v="341078" />
	</node>
	<node id="-837230" lat="63.5139277813" lon="9.73500832711">
		<tag k="name" v="Geitholet" />
		<tag k="place" v="locality" />
		<tag k="ssr:stedsnr" v="766938" />
	</node>
	<node id="-835656" lat="63.5634805575" lon="9.68222499164">
		<tag k="name" v="Klingermyra" />
		<tag k="natural" v="wetland" />
		<tag k="ssr:stedsnr" v="706571" />
	</node>
	<node id="-835686" lat="63.6304277816" lon="9.69906667303">
		<tag k="name" v="Langmyran" />
		<tag k="natural" v="wetland" />
		<tag k="ssr:stedsnr" v="584336" />
	</node>
	<node id="-836197" lat="63.4852999983" lon="9.78974721979">
		<tag k="name" v="Ballfatet" />
		<tag k="place" v="locality" />
		<tag k="ssr:stedsnr" v="827437" />
	</node>
	<node id="-835681" lat="63.4513666691" lon="9.91615832733">
		<tag k="name" v="Dikslættmyran" />
		<tag k="natural" v="wetland" />
		<tag k="ssr:stedsnr" v="523104" />
	</node>
	<node id="-835679" lat="63.6229666626" lon="9.70310834328">
		<tag k="name" v="Løstadmyran" />
		<tag k="natural" v="wetland" />
		<tag k="ssr:stedsnr" v="463304" />
	</node>
	<node id="-837214" lat="63.4608499964" lon="9.72653888159">
		<tag k="name" v="Setra" />
		<tag k="place" v="locality" />
		<tag k="ssr:stedsnr" v="523492" />
	</node>
	<node id="-836189" lat="63.5165222248" lon="9.79399722331">
		<tag k="name" v="Trøberg" />
		<tag k="place" v="locality" />
		<tag k="ssr:stedsnr" v="948393" />
	</node>
	<node id="-835853" lat="63.4195083358" lon="9.7606777711">
		<tag k="name" v="Bjørklimyran" />
		<tag k="natural" v="wetland" />
		<tag k="ssr:stedsnr" v="160884" />
	</node>
	<node id="-836172" lat="63.5134611082" lon="9.75541389734">
		<tag k="name" v="Tverr-råa" />
		<tag k="place" v="locality" />
		<tag k="ssr:stedsnr" v="948383" />
	</node>
	<node id="-836684" lat="63.4806944439" lon="9.76452499524">
		<tag k="name" v="Lykkja" />
		<tag k="place" v="locality" />
		<tag k="ssr:stedsnr" v="402086" />
	</node>
	<node id="-836168" lat="63.4929333364" lon="9.80965555356">
		<tag k="name" v="Liamyra" />
		<tag k="natural" v="wetland" />
		<tag k="ssr:stedsnr" v="159243" />
	</node>
	<node id="-836163" lat="63.4411833357" lon="9.82262778098">
		<tag k="landuse" v="meadow" />
		<tag k="name" v="Andersenget" />
		<tag k="ssr:stedsnr" v="524141" />
	</node>
	<node id="-836162" lat="63.4713361072" lon="9.82253889165">
		<tag k="name" v="Kvernhusmyra" />
		<tag k="natural" v="wetland" />
		<tag k="ssr:stedsnr" v="159240" />
	</node>
	<node id="-835649" lat="63.506736114" lon="9.67538610137">
		<tag k="name" v="Øvermyran" />
		<tag k="natural" v="wetland" />
		<tag k="ssr:stedsnr" v="948728" />
	</node>
	<node id="-836667" lat="63.4587611082" lon="9.91808333256">
		<tag k="landuse" v="meadow" />
		<tag k="name" v="Eintrøa" />
		<tag k="ssr:stedsnr" v="402068" />
	</node>
	<node id="-836510" lat="63.5029138878" lon="9.7700055481">
		<tag k="name" v="Svartmyra" />
		<tag k="natural" v="wetland" />
		<tag k="ssr:stedsnr" v="524210" />
	</node>
	<node id="-835635" lat="63.6232805576" lon="9.6834305475">
		<tag k="name" v="Dalen" />
		<tag k="place" v="locality" />
		<tag k="ssr:stedsnr" v="402289" />
	</node>
	<node id="-836656" lat="63.4740194443" lon="9.75510832947">
		<tag k="name" v="Orrleikmyra" />
		<tag k="natural" v="wetland" />
		<tag k="ssr:stedsnr" v="827092" />
	</node>
	<node id="-836360" lat="63.4498222265" lon="9.91882500942">
		<tag k="name" v="Kjøldskardmyra" />
		<tag k="natural" v="wetland" />
		<tag k="ssr:stedsnr" v="584085" />
	</node>
	<node id="-835629" lat="63.5564166699" lon="9.76591666708">
		<tag k="name" v="Stamphusgrubba" />
		<tag k="place" v="locality" />
		<tag k="ssr:stedsnr" v="706127" />
	</node>
	<node id="-837162" lat="63.6071611099" lon="9.67975554551">
		<tag k="name" v="Selvmyran" />
		<tag k="natural" v="wetland" />
		<tag k="ssr:stedsnr" v="342287" />
	</node>
	<node id="-837160" lat="63.4475666635" lon="9.74479999134">
		<tag k="name" v="Svartholmyran" />
		<tag k="natural" v="wetland" />
		<tag k="ssr:stedsnr" v="159473" />
	</node>
	<node id="-836135" lat="63.4328944459" lon="9.67221943883">
		<tag k="name" v="Tjørnholet" />
		<tag k="natural" v="wetland" />
		<tag k="ssr:stedsnr" v="160936" />
	</node>
	<node id="-837158" lat="63.5729833377" lon="9.64598333597">
		<tag k="name" v="Bjørnadalsmyra" />
		<tag k="natural" v="wetland" />
		<tag k="ssr:stedsnr" v="827645" />
	</node>
	<node id="-835807" lat="63.4570972191" lon="9.73767777924">
		<tag k="name" v="Smørauga" />
		<tag k="place" v="locality" />
		<tag k="ssr:stedsnr" v="220508" />
	</node>
	<node id="-836126" lat="63.4811138906" lon="9.84351110486">
		<tag k="name" v="Snaunet" />
		<tag k="place" v="locality" />
		<tag k="ssr:stedsnr" v="99014" />
	</node>
	<node id="-835845" lat="63.5016027822" lon="9.81873888114">
		<tag k="name" v="Blekkan" />
		<tag k="place" v="locality" />
		<tag k="ssr:stedsnr" v="462021" />
	</node>
	<node id="-835610" lat="63.4211388862" lon="9.86859166133">
		<tag k="name" v="Kluften" />
		<tag k="place" v="locality" />
		<tag k="ssr:stedsnr" v="159572" />
	</node>
	<node id="-835607" lat="63.6208361135" lon="9.67302777791">
		<tag k="name" v="Lauta" />
		<tag k="place" v="locality" />
		<tag k="ssr:stedsnr" v="402287" />
	</node>
	<node id="-837141" lat="63.44401111" lon="9.79368611476">
		<tag k="name" v="Tuva" />
		<tag k="place" v="locality" />
		<tag k="ssr:stedsnr" v="888550" />
	</node>
	<node id="-837136" lat="63.4523472243" lon="9.81531388865">
		<tag k="name" v="Blautgrovholet" />
		<tag k="natural" v="wetland" />
		<tag k="ssr:stedsnr" v="949881" />
	</node>
	<node id="-836620" lat="63.4668999994" lon="9.81098332978">
		<tag k="name" v="Hallan" />
		<tag k="place" v="locality" />
		<tag k="ssr:stedsnr" v="888899" />
	</node>
	<node id="-837128" lat="63.5775722213" lon="9.62416667309">
		<tag k="name" v="Dammyra" />
		<tag k="natural" v="wetland" />
		<tag k="ssr:stedsnr" v="463647" />
	</node>
	<node id="-836147" lat="63.4450472235" lon="9.77787778463">
		<tag k="name" v="Jobjørka" />
		<tag k="place" v="locality" />
		<tag k="ssr:stedsnr" v="160526" />
	</node>
	<node id="-835806" lat="63.4615472267" lon="9.84941666936">
		<tag k="name" v="Høybuenget" />
		<tag k="place" v="locality" />
		<tag k="ssr:stedsnr" v="220068" />
	</node>
	<node id="-837124" lat="63.4237027786" lon="9.77422221729">
		<tag k="name" v="Mørkloftet" />
		<tag k="place" v="locality" />
		<tag k="ssr:stedsnr" v="706896" />
	</node>
	<node id="-836611" lat="63.4877333352" lon="9.79781667623">
		<tag k="historic" v="shieling" />
		<tag k="name" v="Ballvollen" />
		<tag k="place" v="locality" />
		<tag k="ssr:stedsnr" v="644434" />
	</node>
	<node id="-837122" lat="63.5309722201" lon="9.60858610917">
		<tag k="name" v="Krakmarka" />
		<tag k="place" v="locality" />
		<tag k="ssr:stedsnr" v="438157" />
	</node>
</osm>
