<?xml version="1.0" encoding="UTF-8"?>
<osm generator="osmapis" version="0.6">
	<node id="-841728" lat="63.6184777801" lon="9.6141055508">
		<tag k="name" v="Brattbekkskardet" />
		<tag k="natural" v="valley" />
		<tag k="place" v="locality" />
		<tag k="ssr:stedsnr" v="38330" />
	</node>
	<node id="-841726" lat="63.5286666707" lon="9.64879444329">
		<tag k="name" v="Holbekkdalen" />
		<tag k="natural" v="valley" />
		<tag k="place" v="locality" />
		<tag k="ssr:stedsnr" v="220684" />
	</node>
	<node id="-841725" lat="63.4988305545" lon="9.81818332716">
		<tag k="name" v="Liahalsen" />
		<tag k="natural" v="slope" />
		<tag k="place" v="locality" />
		<tag k="ssr:stedsnr" v="37012" />
	</node>
	<node id="-841722" lat="63.5352583306" lon="9.79520277603">
		<tag k="name" v="Stormyrdalen" />
		<tag k="natural" v="valley" />
		<tag k="place" v="locality" />
		<tag k="ssr:stedsnr" v="645320" />
	</node>
	<node id="-841721" lat="63.5866333295" lon="9.75463332758">
		<tag k="fixme" v="consider natural=peak for the most distinct mountains in the district" />
		<tag k="name" v="Sagkallklumpen" />
		<tag k="natural" v="hill" />
		<tag k="place" v="locality" />
		<tag k="ssr:stedsnr" v="342159" />
	</node>
	<node id="-841720" lat="63.5156361137" lon="9.6171000019">
		<tag k="fixme" v="consider natural=peak for the most distinct mountains in the district" />
		<tag k="name" v="Steinsdalsknubben" />
		<tag k="natural" v="hill" />
		<tag k="place" v="locality" />
		<tag k="ssr:stedsnr" v="888424" />
	</node>
	<node id="-841719" lat="63.4594500003" lon="9.82108611465">
		<tag k="name" v="Bjørndalen" />
		<tag k="natural" v="valley" />
		<tag k="place" v="locality" />
		<tag k="ssr:stedsnr" v="463058" />
	</node>
	<node id="-841712" lat="63.4573083336" lon="9.89238332918">
		<tag k="name" v="Grostadkleiva" />
		<tag k="natural" v="slope" />
		<tag k="place" v="locality" />
		<tag k="ssr:stedsnr" v="221110" />
	</node>
	<node id="-841710" lat="63.6089361121" lon="9.61375277134">
		<tag k="name" v="Kobbhyllan" />
		<tag k="natural" v="ridge" />
		<tag k="place" v="locality" />
		<tag k="ssr:stedsnr" v="221111" />
	</node>
	<node id="-841705" lat="63.4436222234" lon="9.74491110693">
		<tag k="name" v="Henrikseterholet" />
		<tag k="natural" v="valley" />
		<tag k="place" v="locality" />
		<tag k="ssr:stedsnr" v="342967" />
	</node>
	<node id="-841703" lat="63.4807944401" lon="9.6879194364">
		<tag k="name" v="Tjørnhaugen" />
		<tag k="natural" v="hill" />
		<tag k="place" v="locality" />
		<tag k="ssr:stedsnr" v="888430" />
	</node>
	<node id="-841698" lat="63.4839833309" lon="9.80301666827">
		<tag k="name" v="Blomdalan" />
		<tag k="natural" v="valley" />
		<tag k="place" v="locality" />
		<tag k="ssr:stedsnr" v="644435" />
	</node>
	<node id="-841697" lat="63.5598222238" lon="9.77238332414">
		<tag k="name" v="Einarhagan" />
		<tag k="natural" v="slope" />
		<tag k="place" v="locality" />
		<tag k="ssr:stedsnr" v="342139" />
	</node>
	<node id="-841696" lat="63.4824861136" lon="9.64223611034">
		<tag k="name" v="Svartlia" />
		<tag k="natural" v="slope" />
		<tag k="place" v="locality" />
		<tag k="ssr:stedsnr" v="281465" />
	</node>
	<node id="-841695" lat="63.4913444431" lon="9.83892221889">
		<tag k="name" v="Kammen" />
		<tag k="natural" v="ridge" />
		<tag k="place" v="locality" />
		<tag k="ssr:stedsnr" v="463036" />
	</node>
	<node id="-841694" lat="63.4741361144" lon="9.87602777711">
		<tag k="name" v="Tangviklia" />
		<tag k="natural" v="slope" />
		<tag k="place" v="locality" />
		<tag k="ssr:stedsnr" v="37001" />
	</node>
	<node id="-841693" lat="63.571149997" lon="9.6740638968">
		<tag k="name" v="Vassdalen" />
		<tag k="natural" v="valley" />
		<tag k="place" v="locality" />
		<tag k="ssr:stedsnr" v="220665" />
	</node>
	<node id="-841691" lat="63.4751916674" lon="9.77431945271">
		<tag k="name" v="Finngrefta" />
		<tag k="place" v="locality" />
		<tag k="ssr:stedsnr" v="644404" />
	</node>
	<node id="-841690" lat="63.4506611073" lon="9.75120556322">
		<tag k="name" v="Svartholhalsen" />
		<tag k="natural" v="slope" />
		<tag k="place" v="locality" />
		<tag k="ssr:stedsnr" v="827474" />
	</node>
	<node id="-841689" lat="63.482708332" lon="9.63528611721">
		<tag k="name" v="Sluppheian" />
		<tag k="natural" v="hill" />
		<tag k="place" v="locality" />
		<tag k="ssr:stedsnr" v="315980" />
	</node>
	<node id="-841685" lat="63.4960916711" lon="9.79416111138">
		<tag k="name" v="Mathaugen" />
		<tag k="natural" v="hill" />
		<tag k="place" v="locality" />
		<tag k="ssr:stedsnr" v="524195" />
	</node>
	<node id="-841682" lat="63.4783083372" lon="9.69751388619">
		<tag k="name" v="Frostadalen" />
		<tag k="natural" v="valley" />
		<tag k="place" v="locality" />
		<tag k="ssr:stedsnr" v="315978" />
	</node>
	<node id="-841681" lat="63.514413892" lon="9.74392221993">
		<tag k="name" v="Settan" />
		<tag k="natural" v="slope" />
		<tag k="place" v="locality" />
		<tag k="ssr:stedsnr" v="584960" />
	</node>
	<node id="-841680" lat="63.4541666645" lon="9.74323332448">
		<tag k="name" v="Valtjørnholet" />
		<tag k="natural" v="slope" />
		<tag k="place" v="locality" />
		<tag k="ssr:stedsnr" v="281445" />
	</node>
	<node id="-841677" lat="63.473294442" lon="9.76077778504">
		<tag k="name" v="Elvaslættet" />
		<tag k="place" v="locality" />
		<tag k="ssr:stedsnr" v="644400" />
	</node>
	<node id="-841674" lat="63.5992388863" lon="9.5694499978">
		<tag k="name" v="Hopamoen" />
		<tag k="place" v="locality" />
		<tag k="ssr:stedsnr" v="888394" />
	</node>
	<node id="-841667" lat="63.4639999966" lon="9.72132500651">
		<tag k="name" v="Solmerkberget" />
		<tag k="natural" v="hill" />
		<tag k="place" v="locality" />
		<tag k="ssr:stedsnr" v="888382" />
	</node>
	<node id="-841666" lat="63.4874694479" lon="9.78154999884">
		<tag k="name" v="Stuhaugen" />
		<tag k="natural" v="hill" />
		<tag k="place" v="locality" />
		<tag k="ssr:stedsnr" v="705436" />
	</node>
	<node id="-841665" lat="63.6213805555" lon="9.65701944284">
		<tag k="fixme" v="consider natural=peak for the most distinct mountains in the district" />
		<tag k="name" v="Høggjørrestolen" />
		<tag k="natural" v="hill" />
		<tag k="place" v="locality" />
		<tag k="ssr:stedsnr" v="766266" />
	</node>
	<node id="-841663" lat="63.6384027793" lon="9.70593888746">
		<tag k="name" v="Skjulberget" />
		<tag k="natural" v="hill" />
		<tag k="place" v="locality" />
		<tag k="ssr:stedsnr" v="706304" />
	</node>
	<node id="-841662" lat="63.4773749978" lon="9.75489444269">
		<tag k="name" v="Aunlia" />
		<tag k="natural" v="slope" />
		<tag k="place" v="locality" />
		<tag k="ssr:stedsnr" v="99094" />
	</node>
	<node id="-841661" lat="63.4798000024" lon="9.69323332922">
		<tag k="name" v="Tjørnhaugen" />
		<tag k="natural" v="hill" />
		<tag k="place" v="locality" />
		<tag k="ssr:stedsnr" v="315982" />
	</node>
	<node id="-841656" lat="63.4882888852" lon="9.61904166094">
		<tag k="name" v="Bjørndalen" />
		<tag k="natural" v="valley" />
		<tag k="place" v="locality" />
		<tag k="ssr:stedsnr" v="160190" />
	</node>
	<node id="-841655" lat="63.5521083319" lon="9.70328055781">
		<tag k="fixme" v="consider natural=peak for the most distinct mountains in the district" />
		<tag k="name" v="Snaufjellet" />
		<tag k="natural" v="hill" />
		<tag k="place" v="locality" />
		<tag k="ssr:stedsnr" v="923166" />
	</node>
	<node id="-841654" lat="63.5945083324" lon="9.60151945329">
		<tag k="fixme" v="consider natural=peak for the most distinct mountains in the district" />
		<tag k="name" v="Kjølen" />
		<tag k="natural" v="hill" />
		<tag k="place" v="locality" />
		<tag k="ssr:stedsnr" v="438070" />
	</node>
	<node id="-841651" lat="63.5971861083" lon="9.59408055568">
		<tag k="name" v="Stordalen" />
		<tag k="natural" v="valley" />
		<tag k="place" v="locality" />
		<tag k="ssr:stedsnr" v="281453" />
	</node>
	<node id="-841649" lat="63.515872224" lon="9.69216944146">
		<tag k="fixme" v="consider natural=peak for the most distinct mountains in the district" />
		<tag k="name" v="Grøndalsknubben" />
		<tag k="natural" v="hill" />
		<tag k="place" v="locality" />
		<tag k="ssr:stedsnr" v="402951" />
	</node>
	<node id="-841648" lat="63.5846722219" lon="9.34270000283">
		<tag k="name" v="Håvikhøgda" />
		<tag k="natural" v="hill" />
		<tag k="place" v="locality" />
		<tag k="ssr:stedsnr" v="584967" />
	</node>
	<node id="-841646" lat="63.4367500043" lon="9.74896666744">
		<tag k="name" v="Sandørdalshaugan" />
		<tag k="natural" v="hill" />
		<tag k="place" v="locality" />
		<tag k="ssr:stedsnr" v="342955" />
	</node>
	<node id="-841644" lat="63.5698222249" lon="9.68390278542">
		<tag k="name" v="Kjerrklumpen" />
		<tag k="natural" v="hill" />
		<tag k="place" v="locality" />
		<tag k="ssr:stedsnr" v="220662" />
	</node>
	<node id="-841643" lat="63.5130555553" lon="9.72124722004">
		<tag k="fixme" v="consider natural=peak for the most distinct mountains in the district" />
		<tag k="name" v="Seterkammen" />
		<tag k="natural" v="hill" />
		<tag k="place" v="locality" />
		<tag k="ssr:stedsnr" v="402952" />
	</node>
	<node id="-841641" lat="63.4865555536" lon="9.82495277645">
		<tag k="name" v="Kammen" />
		<tag k="natural" v="ridge" />
		<tag k="place" v="locality" />
		<tag k="ssr:stedsnr" v="341241" />
	</node>
	<node id="-841639" lat="63.4653999967" lon="9.63508055498">
		<tag k="name" v="Raudlidalen" />
		<tag k="natural" v="valley" />
		<tag k="place" v="locality" />
		<tag k="ssr:stedsnr" v="160193" />
	</node>
	<node id="-841637" lat="63.6199555552" lon="9.66078054696">
		<tag k="name" v="Bengtsberget" />
		<tag k="natural" v="hill" />
		<tag k="place" v="locality" />
		<tag k="ssr:stedsnr" v="766264" />
	</node>
	<node id="-841629" lat="63.483361108" lon="9.76881666904">
		<tag k="name" v="Huslia" />
		<tag k="natural" v="slope" />
		<tag k="place" v="locality" />
		<tag k="ssr:stedsnr" v="644392" />
	</node>
	<node id="-841628" lat="63.6229583315" lon="9.66796667253">
		<tag k="name" v="Kallklovabakken" />
		<tag k="natural" v="slope" />
		<tag k="place" v="locality" />
		<tag k="ssr:stedsnr" v="38306" />
	</node>
	<node id="-841627" lat="63.4698249989" lon="9.81202223001">
		<tag k="name" v="Mekveldsheia" />
		<tag k="natural" v="hill" />
		<tag k="place" v="locality" />
		<tag k="ssr:stedsnr" v="705458" />
	</node>
	<node id="-841625" lat="63.5568555541" lon="9.74906666016">
		<tag k="fixme" v="consider natural=peak for the most distinct mountains in the district" />
		<tag k="name" v="Stakkengåsen" />
		<tag k="natural" v="hill" />
		<tag k="place" v="locality" />
		<tag k="ssr:stedsnr" v="74609" />
	</node>
	<node id="-841623" lat="63.4705999961" lon="9.87490000569">
		<tag k="name" v="Rakkelhaugan" />
		<tag k="natural" v="hill" />
		<tag k="place" v="locality" />
		<tag k="ssr:stedsnr" v="765001" />
	</node>
	<node id="-841616" lat="63.5395083318" lon="9.6940361144">
		<tag k="name" v="Skjeggmelan" />
		<tag k="natural" v="slope" />
		<tag k="place" v="locality" />
		<tag k="ssr:stedsnr" v="463928" />
	</node>
	<node id="-841612" lat="63.5361194407" lon="9.70084165825">
		<tag k="name" v="Høybuskardet" />
		<tag k="natural" v="valley" />
		<tag k="place" v="locality" />
		<tag k="ssr:stedsnr" v="221890" />
	</node>
	<node id="-841609" lat="63.4100861149" lon="9.7648333262">
		<tag k="name" v="Styggholet" />
		<tag k="natural" v="valley" />
		<tag k="place" v="locality" />
		<tag k="ssr:stedsnr" v="221891" />
	</node>
	<node id="-841606" lat="63.4197277765" lon="9.82936389863">
		<tag k="name" v="Rangvasshalsen" />
		<tag k="natural" v="valley" />
		<tag k="place" v="locality" />
		<tag k="ssr:stedsnr" v="463480" />
	</node>
	<node id="-841604" lat="63.5656444421" lon="9.68981387898">
		<tag k="name" v="Grønningsdalen" />
		<tag k="natural" v="valley" />
		<tag k="place" v="locality" />
		<tag k="ssr:stedsnr" v="99997" />
	</node>
	<node id="-841600" lat="63.4622277815" lon="9.83206944935">
		<tag k="name" v="Middagshaugen" />
		<tag k="natural" v="hill" />
		<tag k="place" v="locality" />
		<tag k="ssr:stedsnr" v="584081" />
	</node>
	<node id="-841599" lat="63.5839472218" lon="9.73416389533">
		<tag k="alt_name" v="Husfjellet" />
		<tag k="fixme" v="consider natural=peak for the most distinct mountains in the district" />
		<tag k="name" v="Husfjellheia" />
		<tag k="natural" v="hill" />
		<tag k="place" v="locality" />
		<tag k="ssr:stedsnr" v="498594" />
	</node>
	<node id="-841596" lat="63.4467222196" lon="9.73665277763">
		<tag k="name" v="Valen" />
		<tag k="natural" v="valley" />
		<tag k="place" v="locality" />
		<tag k="ssr:stedsnr" v="99996" />
	</node>
	<node id="-841595" lat="63.5910250026" lon="9.39170556304">
		<tag k="name" v="Nonsvarden" />
		<tag k="natural" v="hill" />
		<tag k="place" v="locality" />
		<tag k="ssr:stedsnr" v="584507" />
	</node>
	<node id="-841593" lat="63.4488805548" lon="9.85049166049">
		<tag k="fixme" v="consider natural=peak for the most distinct mountains in the district" />
		<tag k="name" v="Storliheia" />
		<tag k="natural" v="hill" />
		<tag k="place" v="locality" />
		<tag k="ssr:stedsnr" v="195088" />
	</node>
	<node id="-841590" lat="63.4232138896" lon="9.72740278774">
		<tag k="name" v="Granskardknubben" />
		<tag k="natural" v="hill" />
		<tag k="place" v="locality" />
		<tag k="ssr:stedsnr" v="767932" />
	</node>
	<node id="-841585" lat="63.5783888851" lon="9.77223611594">
		<tag k="name" v="Oterhola" />
		<tag k="natural" v="valley" />
		<tag k="place" v="locality" />
		<tag k="ssr:stedsnr" v="220195" />
	</node>
	<node id="-841583" lat="63.5151027766" lon="9.70698611512">
		<tag k="name" v="Grøndalen" />
		<tag k="natural" v="valley" />
		<tag k="place" v="locality" />
		<tag k="ssr:stedsnr" v="463483" />
	</node>
	<node id="-841581" lat="63.6322638916" lon="9.72520834041">
		<tag k="name" v="Revabakken" />
		<tag k="natural" v="slope" />
		<tag k="place" v="locality" />
		<tag k="ssr:stedsnr" v="706316" />
	</node>
	<node id="-841579" lat="63.5690416692" lon="9.73837778468">
		<tag k="name" v="Litlvassliklumpen" />
		<tag k="natural" v="hill" />
		<tag k="place" v="locality" />
		<tag k="ssr:stedsnr" v="160993" />
	</node>
	<node id="-841578" lat="63.5492388895" lon="9.71599723033">
		<tag k="name" v="Gråfjell-lia" />
		<tag k="natural" v="slope" />
		<tag k="place" v="locality" />
		<tag k="ssr:stedsnr" v="767928" />
	</node>
	<node id="-841573" lat="63.6267944432" lon="9.6897138975">
		<tag k="name" v="Ytter Vass-skardet" />
		<tag k="natural" v="valley" />
		<tag k="place" v="locality" />
		<tag k="ssr:stedsnr" v="645291" />
	</node>
	<node id="-841572" lat="63.4214777799" lon="9.73850278417">
		<tag k="name" v="Granlia" />
		<tag k="natural" v="slope" />
		<tag k="place" v="locality" />
		<tag k="ssr:stedsnr" v="584957" />
	</node>
	<node id="-841571" lat="63.4472111089" lon="9.70674167036">
		<tag k="name" v="Hanstjørnlia" />
		<tag k="natural" v="slope" />
		<tag k="place" v="locality" />
		<tag k="ssr:stedsnr" v="281436" />
	</node>
	<node id="-841570" lat="63.4744916634" lon="9.77406111051">
		<tag k="name" v="Sprangslætta" />
		<tag k="place" v="locality" />
		<tag k="ssr:stedsnr" v="644407" />
	</node>
	<node id="-841569" lat="63.4543833339" lon="9.88652501004">
		<tag k="name" v="Steindalslia" />
		<tag k="natural" v="slope" />
		<tag k="place" v="locality" />
		<tag k="ssr:stedsnr" v="463031" />
	</node>
	<node id="-841568" lat="63.5050249984" lon="9.77762499489">
		<tag k="name" v="Einhaugen" />
		<tag k="natural" v="hill" />
		<tag k="place" v="locality" />
		<tag k="ssr:stedsnr" v="160179" />
	</node>
	<node id="-841562" lat="63.4483388872" lon="9.89782221643">
		<tag k="fixme" v="consider natural=peak for the most distinct mountains in the district" />
		<tag k="name" v="Nonshaugen" />
		<tag k="natural" v="hill" />
		<tag k="place" v="locality" />
		<tag k="ssr:stedsnr" v="99074" />
	</node>
	<node id="-841561" lat="63.5372472179" lon="9.76773889456">
		<tag k="fixme" v="consider natural=peak for the most distinct mountains in the district" />
		<tag k="name" v="Slettet" />
		<tag k="natural" v="hill" />
		<tag k="place" v="locality" />
		<tag k="ssr:stedsnr" v="862578" />
	</node>
	<node id="-841558" lat="63.3913805586" lon="9.7887138888">
		<tag k="name" v="Nasen" />
		<tag k="natural" v="hill" />
		<tag k="place" v="locality" />
		<tag k="ssr:stedsnr" v="863374" />
	</node>
	<node id="-841557" lat="63.6241138859" lon="9.68197499994">
		<tag k="name" v="Leirskallhaugen" />
		<tag k="natural" v="hill" />
		<tag k="place" v="locality" />
		<tag k="ssr:stedsnr" v="645259" />
	</node>
	<node id="-841556" lat="63.4614333348" lon="9.7675083388">
		<tag k="name" v="Bjørklia" />
		<tag k="natural" v="slope" />
		<tag k="place" v="locality" />
		<tag k="ssr:stedsnr" v="463914" />
	</node>
	<node id="-841552" lat="63.4843611135" lon="9.62101667137">
		<tag k="name" v="Bjugnlia" />
		<tag k="natural" v="slope" />
		<tag k="place" v="locality" />
		<tag k="ssr:stedsnr" v="584490" />
	</node>
	<node id="-841551" lat="63.4635083378" lon="9.86109444343">
		<tag k="name" v="Grostadskardet" />
		<tag k="natural" v="valley" />
		<tag k="place" v="locality" />
		<tag k="ssr:stedsnr" v="584065" />
	</node>
	<node id="-841550" lat="63.4632111107" lon="9.8818166626">
		<tag k="name" v="Glenna" />
		<tag k="natural" v="slope" />
		<tag k="place" v="locality" />
		<tag k="ssr:stedsnr" v="584064" />
	</node>
	<node id="-841548" lat="63.5480027738" lon="9.73419999659">
		<tag k="name" v="Gammelsaglia" />
		<tag k="natural" v="slope" />
		<tag k="place" v="locality" />
		<tag k="ssr:stedsnr" v="463919" />
	</node>
	<node id="-841542" lat="63.4743722186" lon="9.69255834217">
		<tag k="name" v="Fjøsdalen" />
		<tag k="natural" v="valley" />
		<tag k="place" v="locality" />
		<tag k="ssr:stedsnr" v="376979" />
	</node>
	<node id="-841541" lat="63.4922416643" lon="9.71615832586">
		<tag k="name" v="Kleivlia" />
		<tag k="natural" v="slope" />
		<tag k="place" v="locality" />
		<tag k="ssr:stedsnr" v="888365" />
	</node>
	<node id="-841539" lat="63.6212055541" lon="9.60480278194">
		<tag k="name" v="Grøthaugen" />
		<tag k="natural" v="hill" />
		<tag k="place" v="locality" />
		<tag k="ssr:stedsnr" v="949285" />
	</node>
	<node id="-841538" lat="63.4499249989" lon="9.7232666699">
		<tag k="fixme" v="consider natural=peak for the most distinct mountains in the district" />
		<tag k="name" v="Valheia" />
		<tag k="natural" v="hill" />
		<tag k="place" v="locality" />
		<tag k="ssr:stedsnr" v="498081" />
	</node>
	<node id="-841537" lat="63.4887555571" lon="9.84662500244">
		<tag k="name" v="Munkelhaugen" />
		<tag k="natural" v="hill" />
		<tag k="place" v="locality" />
		<tag k="ssr:stedsnr" v="887028" />
	</node>
	<node id="-841536" lat="63.4885472196" lon="9.80684166471">
		<tag k="name" v="Røtningsskardet" />
		<tag k="natural" v="valley" />
		<tag k="place" v="locality" />
		<tag k="ssr:stedsnr" v="888352" />
	</node>
	<node id="-841534" lat="63.476711108" lon="9.59446667484">
		<tag k="name" v="Kjekkelslætthaugan" />
		<tag k="natural" v="hill" />
		<tag k="place" v="locality" />
		<tag k="ssr:stedsnr" v="584494" />
	</node>
	<node id="-841533" lat="63.4017416647" lon="9.74260278018">
		<tag k="name" v="Austvasslia" />
		<tag k="natural" v="slope" />
		<tag k="place" v="locality" />
		<tag k="ssr:stedsnr" v="99520" />
	</node>
	<node id="-841532" lat="63.5169805585" lon="9.78694165991">
		<tag k="name" v="Toskalia" />
		<tag k="natural" v="slope" />
		<tag k="place" v="locality" />
		<tag k="ssr:stedsnr" v="948396" />
	</node>
	<node id="-841531" lat="63.5795750032" lon="9.64146944096">
		<tag k="name" v="Høtterdalen" />
		<tag k="natural" v="valley" />
		<tag k="place" v="locality" />
		<tag k="ssr:stedsnr" v="766692" />
	</node>
	<node id="-841526" lat="63.4943638873" lon="9.81343056092">
		<tag k="name" v="Innerlidalen" />
		<tag k="natural" v="valley" />
		<tag k="place" v="locality" />
		<tag k="ssr:stedsnr" v="524176" />
	</node>
	<node id="-841525" lat="63.4509916685" lon="9.85715000342">
		<tag k="name" v="Sannerdalshaugan" />
		<tag k="natural" v="hill" />
		<tag k="place" v="locality" />
		<tag k="ssr:stedsnr" v="99064" />
	</node>
	<node id="-841523" lat="63.6245277773" lon="9.67310555204">
		<tag k="name" v="Kallklova" />
		<tag k="natural" v="valley" />
		<tag k="place" v="locality" />
		<tag k="ssr:stedsnr" v="706273" />
	</node>
	<node id="-841522" lat="63.5609388884" lon="9.69424721644">
		<tag k="name" v="Svartbakkliklumpen" />
		<tag k="natural" v="hill" />
		<tag k="place" v="locality" />
		<tag k="ssr:stedsnr" v="524999" />
	</node>
	<node id="-841521" lat="63.5645916635" lon="9.69191110187">
		<tag k="name" v="Grønningsdalen" />
		<tag k="natural" v="valley" />
		<tag k="place" v="locality" />
		<tag k="ssr:stedsnr" v="863107" />
	</node>
	<node id="-841520" lat="63.4590805595" lon="9.89645556524">
		<tag k="name" v="Kvernhusbakken" />
		<tag k="natural" v="slope" />
		<tag k="place" v="locality" />
		<tag k="ssr:stedsnr" v="99070" />
	</node>
	<node id="-841519" lat="63.454725004" lon="9.80776389144">
		<tag k="fixme" v="consider natural=peak for the most distinct mountains in the district" />
		<tag k="name" v="Nonsheia" />
		<tag k="natural" v="hill" />
		<tag k="place" v="locality" />
		<tag k="ssr:stedsnr" v="438059" />
	</node>
	<node id="-841518" lat="63.4126500043" lon="9.83080555183">
		<tag k="name" v="Grønlia" />
		<tag k="natural" v="slope" />
		<tag k="place" v="locality" />
		<tag k="ssr:stedsnr" v="99524" />
	</node>
	<node id="-841516" lat="63.5804888884" lon="9.66108889166">
		<tag k="name" v="Tobakken" />
		<tag k="natural" v="slope" />
		<tag k="place" v="locality" />
		<tag k="ssr:stedsnr" v="523742" />
	</node>
	<node id="-841515" lat="63.5601222249" lon="9.68799167505">
		<tag k="name" v="Svartbakklia" />
		<tag k="natural" v="slope" />
		<tag k="place" v="locality" />
		<tag k="ssr:stedsnr" v="524998" />
	</node>
	<node id="-841503" lat="63.5505833291" lon="9.71895834118">
		<tag k="name" v="Gråfjellkammen" />
		<tag k="natural" v="hill" />
		<tag k="place" v="locality" />
		<tag k="ssr:stedsnr" v="681569" />
	</node>
	<node id="-841502" lat="63.5532499965" lon="9.78238055594">
		<tag k="fixme" v="consider natural=peak for the most distinct mountains in the district" />
		<tag k="name" v="Tverrliklumpen" />
		<tag k="natural" v="hill" />
		<tag k="place" v="locality" />
		<tag k="ssr:stedsnr" v="317530" />
	</node>
	<node id="-841498" lat="63.4802111132" lon="9.77618610405">
		<tag k="name" v="Myra" />
		<tag k="natural" v="slope" />
		<tag k="place" v="locality" />
		<tag k="ssr:stedsnr" v="644389" />
	</node>
	<node id="-841497" lat="63.525544444" lon="9.60907777435">
		<tag k="fixme" v="consider natural=peak for the most distinct mountains in the district" />
		<tag k="name" v="Krakmarkkammen" />
		<tag k="natural" v="hill" />
		<tag k="place" v="locality" />
		<tag k="ssr:stedsnr" v="463448" />
	</node>
	<node id="-841496" lat="63.5988138914" lon="9.65423611294">
		<tag k="name" v="Fjøshaugan" />
		<tag k="natural" v="hill" />
		<tag k="place" v="locality" />
		<tag k="ssr:stedsnr" v="645272" />
	</node>
	<node id="-841493" lat="63.4695666697" lon="9.77646110906">
		<tag k="fixme" v="consider natural=peak for the most distinct mountains in the district" />
		<tag k="name" v="Litlheia" />
		<tag k="natural" v="hill" />
		<tag k="place" v="locality" />
		<tag k="ssr:stedsnr" v="948418" />
	</node>
	<node id="-841490" lat="63.5933083367" lon="9.72819722574">
		<tag k="fixme" v="consider natural=peak for the most distinct mountains in the district" />
		<tag k="name" v="Selvheia" />
		<tag k="natural" v="hill" />
		<tag k="place" v="locality" />
		<tag k="ssr:stedsnr" v="159735" />
	</node>
	<node id="-841488" lat="63.4838694485" lon="9.7731472176">
		<tag k="name" v="Haukreiret" />
		<tag k="natural" v="slope" />
		<tag k="place" v="locality" />
		<tag k="ssr:stedsnr" v="644387" />
	</node>
	<node id="-841487" lat="63.5677305591" lon="9.70964722478">
		<tag k="name" v="Skjennhola" />
		<tag k="natural" v="valley" />
		<tag k="place" v="locality" />
		<tag k="ssr:stedsnr" v="524978" />
	</node>
	<node id="-841485" lat="63.5374333361" lon="9.76559444854">
		<tag k="name" v="Øver Rogndalen" />
		<tag k="natural" v="valley" />
		<tag k="place" v="locality" />
		<tag k="ssr:stedsnr" v="949310" />
	</node>
	<node id="-841483" lat="63.542172225" lon="9.65886945238">
		<tag k="name" v="Oksholet" />
		<tag k="natural" v="slope" />
		<tag k="place" v="locality" />
		<tag k="ssr:stedsnr" v="342510" />
	</node>
	<node id="-841481" lat="63.3981222227" lon="9.79544999084">
		<tag k="name" v="Litlhåvårdsdalen" />
		<tag k="natural" v="valley" />
		<tag k="place" v="locality" />
		<tag k="ssr:stedsnr" v="39540" />
	</node>
	<node id="-841478" lat="63.4611694425" lon="9.71663054964">
		<tag k="name" v="Brenthaugen" />
		<tag k="natural" v="hill" />
		<tag k="place" v="locality" />
		<tag k="ssr:stedsnr" v="888380" />
	</node>
	<node id="-841476" lat="63.5177500029" lon="9.75991389869">
		<tag k="fixme" v="consider natural=peak for the most distinct mountains in the district" />
		<tag k="name" v="Storkollheia" />
		<tag k="natural" v="hill" />
		<tag k="place" v="locality" />
		<tag k="ssr:stedsnr" v="37374" />
	</node>
	<node id="-841472" lat="63.6119388919" lon="9.72380278707">
		<tag k="fixme" v="consider natural=peak for the most distinct mountains in the district" />
		<tag k="name" v="Tindaksla" />
		<tag k="natural" v="hill" />
		<tag k="place" v="locality" />
		<tag k="ssr:stedsnr" v="160153" />
	</node>
	<node id="-841469" lat="63.4640916639" lon="9.80150555015">
		<tag k="name" v="Mekveldsheipynten" />
		<tag k="natural" v="hill" />
		<tag k="place" v="locality" />
		<tag k="ssr:stedsnr" v="402912" />
	</node>
	<node id="-841468" lat="63.4982249982" lon="9.79694443925">
		<tag k="name" v="Bakdalan" />
		<tag k="natural" v="valley" />
		<tag k="place" v="locality" />
		<tag k="ssr:stedsnr" v="38273" />
	</node>
	<node id="-841466" lat="63.4574027784" lon="9.74889721903">
		<tag k="fixme" v="consider natural=peak for the most distinct mountains in the district" />
		<tag k="name" v="Klumprapet" />
		<tag k="natural" v="hill" />
		<tag k="place" v="locality" />
		<tag k="ssr:stedsnr" v="402458" />
	</node>
	<node id="-841465" lat="63.6164499991" lon="9.69156388847">
		<tag k="name" v="Høgfjellet" />
		<tag k="natural" v="hill" />
		<tag k="place" v="locality" />
		<tag k="ssr:stedsnr" v="524162" />
	</node>
	<node id="-841463" lat="63.4619055589" lon="9.77648889691">
		<tag k="name" v="Revhiet" />
		<tag k="place" v="locality" />
		<tag k="ssr:stedsnr" v="584928" />
	</node>
	<node id="-841462" lat="63.6162250021" lon="9.6379055519">
		<tag k="name" v="Heggabakken" />
		<tag k="place" v="locality" />
		<tag k="ssr:stedsnr" v="645264" />
	</node>
	<node id="-841459" lat="63.6034611152" lon="9.65884444456">
		<tag k="fixme" v="consider natural=peak for the most distinct mountains in the district" />
		<tag k="name" v="Bjørdalsåsen" />
		<tag k="natural" v="hill" />
		<tag k="place" v="locality" />
		<tag k="ssr:stedsnr" v="706286" />
	</node>
	<node id="-841457" lat="63.5933472201" lon="9.62495555799">
		<tag k="name" v="Musdalshaugen" />
		<tag k="natural" v="hill" />
		<tag k="place" v="locality" />
		<tag k="ssr:stedsnr" v="766703" />
	</node>
	<node id="-841455" lat="63.6182166706" lon="9.69980276917">
		<tag k="name" v="Gongskardet" />
		<tag k="natural" v="valley" />
		<tag k="place" v="locality" />
		<tag k="ssr:stedsnr" v="584224" />
	</node>
	<node id="-841451" lat="63.5784083343" lon="9.76058054651">
		<tag k="name" v="Litlkammen" />
		<tag k="natural" v="hill" />
		<tag k="place" v="locality" />
		<tag k="ssr:stedsnr" v="827164" />
	</node>
	<node id="-841448" lat="63.4777027793" lon="9.69261389328">
		<tag k="name" v="Låset" />
		<tag k="natural" v="valley" />
		<tag k="place" v="locality" />
		<tag k="ssr:stedsnr" v="705129" />
	</node>
	<node id="-841447" lat="63.4775833338" lon="9.63131667332">
		<tag k="name" v="Jutulberga" />
		<tag k="natural" v="hill" />
		<tag k="place" v="locality" />
		<tag k="ssr:stedsnr" v="645411" />
	</node>
	<node id="-841443" lat="63.4848388874" lon="9.69686111677">
		<tag k="name" v="Sluppan" />
		<tag k="place" v="locality" />
		<tag k="ssr:stedsnr" v="705132" />
	</node>
	<node id="-841441" lat="63.4497583344" lon="9.75959166154">
		<tag k="name" v="Svarthollia" />
		<tag k="natural" v="slope" />
		<tag k="place" v="locality" />
		<tag k="ssr:stedsnr" v="949863" />
	</node>
	<node id="-841439" lat="63.6261638907" lon="9.67146945289">
		<tag k="name" v="Risvikskardet" />
		<tag k="natural" v="valley" />
		<tag k="place" v="locality" />
		<tag k="ssr:stedsnr" v="221233" />
	</node>
	<node id="-841438" lat="63.4660500036" lon="9.82112222047">
		<tag k="name" v="Hestliurden" />
		<tag k="natural" v="slope" />
		<tag k="place" v="locality" />
		<tag k="ssr:stedsnr" v="948106" />
	</node>
	<node id="-841436" lat="63.5404888848" lon="9.66269721454">
		<tag k="name" v="Langdansen" />
		<tag k="natural" v="slope" />
		<tag k="place" v="locality" />
		<tag k="ssr:stedsnr" v="281601" />
	</node>
	<node id="-841435" lat="63.6084555582" lon="9.67098888444">
		<tag k="fixme" v="consider natural=peak for the most distinct mountains in the district" />
		<tag k="name" v="Vindaberga" />
		<tag k="natural" v="hill" />
		<tag k="place" v="locality" />
		<tag k="ssr:stedsnr" v="828286" />
	</node>
	<node id="-841430" lat="63.5688333293" lon="9.67584167171">
		<tag k="name" v="Vassdalsklumpen" />
		<tag k="natural" v="hill" />
		<tag k="place" v="locality" />
		<tag k="ssr:stedsnr" v="523687" />
	</node>
	<node id="-841429" lat="63.4574805547" lon="9.64453333406">
		<tag k="fixme" v="consider natural=peak for the most distinct mountains in the district" />
		<tag k="name" v="Raudlia" />
		<tag k="natural" v="hill" />
		<tag k="place" v="locality" />
		<tag k="ssr:stedsnr" v="315932" />
	</node>
	<node id="-841427" lat="63.4738027745" lon="9.80947499484">
		<tag k="name" v="Øver Tennelsdalen" />
		<tag k="natural" v="valley" />
		<tag k="place" v="locality" />
		<tag k="ssr:stedsnr" v="402422" />
	</node>
	<node id="-841424" lat="63.5535027748" lon="9.80403611473">
		<tag k="name" v="Kopparholet" />
		<tag k="natural" v="valley" />
		<tag k="place" v="locality" />
		<tag k="ssr:stedsnr" v="281374" />
	</node>
	<node id="-841420" lat="63.4799583326" lon="9.59370278735">
		<tag k="name" v="Rundkrinsen" />
		<tag k="natural" v="hill" />
		<tag k="place" v="locality" />
		<tag k="ssr:stedsnr" v="221446" />
	</node>
	<node id="-841414" lat="63.5087083291" lon="9.78584445178">
		<tag k="name" v="Langdalshaugen" />
		<tag k="natural" v="hill" />
		<tag k="place" v="locality" />
		<tag k="ssr:stedsnr" v="766229" />
	</node>
	<node id="-841412" lat="63.5352249997" lon="9.64995277713">
		<tag k="name" v="Holbekkdalen" />
		<tag k="natural" v="valley" />
		<tag k="place" v="locality" />
		<tag k="ssr:stedsnr" v="524549" />
	</node>
	<node id="-841410" lat="63.5502305566" lon="9.79497778238">
		<tag k="name" v="Kopparholet" />
		<tag k="natural" v="valley" />
		<tag k="place" v="locality" />
		<tag k="ssr:stedsnr" v="37351" />
	</node>
	<node id="-841406" lat="63.4657833377" lon="9.87029722481">
		<tag k="name" v="Ingdalsslættet" />
		<tag k="old_name" v="Ingdalslettet" />
		<tag k="place" v="locality" />
		<tag k="ssr:stedsnr" v="559072" />
	</node>
	<node id="-841405" lat="63.57910278" lon="9.57736111295">
		<tag k="name" v="Vikamoen" />
		<tag k="place" v="locality" />
		<tag k="ssr:stedsnr" v="766676" />
	</node>
	<node id="-841402" lat="63.5529361105" lon="9.73188888695">
		<tag k="fixme" v="consider natural=peak for the most distinct mountains in the district" />
		<tag k="name" v="Stakkengåsen" />
		<tag k="natural" v="hill" />
		<tag k="place" v="locality" />
		<tag k="ssr:stedsnr" v="99933" />
	</node>
	<node id="-841400" lat="63.5845083369" lon="9.67273054802">
		<tag k="name" v="Attvendtdalen" />
		<tag k="natural" v="valley" />
		<tag k="place" v="locality" />
		<tag k="ssr:stedsnr" v="863094" />
	</node>
	<node id="-841399" lat="63.4952638889" lon="9.63873055404">
		<tag k="name" v="Øya" />
		<tag k="place" v="locality" />
		<tag k="ssr:stedsnr" v="766678" />
	</node>
	<node id="-841397" lat="63.4776583362" lon="9.76630000615">
		<tag k="name" v="Botn" />
		<tag k="place" v="locality" />
		<tag k="ssr:stedsnr" v="888342" />
	</node>
	<node id="-841396" lat="63.6243277809" lon="9.67564445352">
		<tag k="name" v="Henrikberget" />
		<tag k="natural" v="hill" />
		<tag k="place" v="locality" />
		<tag k="ssr:stedsnr" v="706264" />
	</node>
	<node id="-841391" lat="63.4772388924" lon="9.80568889149">
		<tag k="fixme" v="consider natural=peak for the most distinct mountains in the district" />
		<tag k="name" v="Åsan" />
		<tag k="natural" v="hill" />
		<tag k="place" v="locality" />
		<tag k="ssr:stedsnr" v="827429" />
	</node>
	<node id="-841389" lat="63.4700027775" lon="9.82040276948">
		<tag k="fixme" v="consider natural=peak for the most distinct mountains in the district" />
		<tag k="name" v="Tømmerhaugen" />
		<tag k="natural" v="hill" />
		<tag k="place" v="locality" />
		<tag k="ssr:stedsnr" v="766223" />
	</node>
	<node id="-841388" lat="63.4882555574" lon="9.63570833305">
		<tag k="name" v="Kvernalia" />
		<tag k="natural" v="slope" />
		<tag k="place" v="locality" />
		<tag k="ssr:stedsnr" v="463431" />
	</node>
	<node id="-841387" lat="63.5900472231" lon="9.38405832447">
		<tag k="name" v="Nordhaugan" />
		<tag k="natural" v="hill" />
		<tag k="place" v="locality" />
		<tag k="ssr:stedsnr" v="826972" />
	</node>
	<node id="-841381" lat="63.5754194428" lon="9.58284444347">
		<tag k="name" v="Tuva" />
		<tag k="place" v="locality" />
		<tag k="ssr:stedsnr" v="766675" />
	</node>
	<node id="-841378" lat="63.5182944481" lon="9.58876110214">
		<tag k="name" v="Middagshaugen" />
		<tag k="natural" v="hill" />
		<tag k="place" v="locality" />
		<tag k="ssr:stedsnr" v="13175" />
	</node>
	<node id="-841374" lat="63.4339749971" lon="9.76563611317">
		<tag k="name" v="Kleiva" />
		<tag k="place" v="locality" />
		<tag k="ssr:stedsnr" v="39506" />
	</node>
	<node id="-841373" lat="63.5252222192" lon="9.56619999431">
		<tag k="name" v="Espedalen" />
		<tag k="natural" v="valley" />
		<tag k="place" v="locality" />
		<tag k="ssr:stedsnr" v="221429" />
	</node>
	<node id="-841368" lat="63.6005222202" lon="9.75195555081">
		<tag k="name" v="Brattlia" />
		<tag k="natural" v="slope" />
		<tag k="place" v="locality" />
		<tag k="ssr:stedsnr" v="38234" />
	</node>
	<node id="-841365" lat="63.4574750027" lon="9.72784999952">
		<tag k="fixme" v="consider natural=peak for the most distinct mountains in the district" />
		<tag k="name" v="Ramnåsen" />
		<tag k="natural" v="hill" />
		<tag k="old_name" v="Rannåsen" />
		<tag k="place" v="locality" />
		<tag k="ssr:stedsnr" v="863073" />
	</node>
	<node id="-841364" lat="63.6254861128" lon="9.73094444626">
		<tag k="name" v="Rundhaugen" />
		<tag k="natural" v="hill" />
		<tag k="place" v="locality" />
		<tag k="ssr:stedsnr" v="281359" />
	</node>
	<node id="-841360" lat="63.5513166696" lon="9.77882778777">
		<tag k="name" v="Tverrliskardet" />
		<tag k="natural" v="valley" />
		<tag k="place" v="locality" />
		<tag k="ssr:stedsnr" v="888306" />
	</node>
	<node id="-841353" lat="63.4411527742" lon="9.68287776904">
		<tag k="fixme" v="consider natural=peak for the most distinct mountains in the district" />
		<tag k="name" v="Øyansfjellet" />
		<tag k="natural" v="hill" />
		<tag k="place" v="locality" />
		<tag k="ssr:stedsnr" v="160937" />
	</node>
	<node id="-841350" lat="63.552472218" lon="9.72390832743">
		<tag k="name" v="Gråfjellskardet" />
		<tag k="natural" v="valley" />
		<tag k="place" v="locality" />
		<tag k="ssr:stedsnr" v="342884" />
	</node>
	<node id="-841349" lat="63.5353138906" lon="9.68435276937">
		<tag k="name" v="Tjørnbekkslættet" />
		<tag k="place" v="locality" />
		<tag k="ssr:stedsnr" v="160520" />
	</node>
	<node id="-841346" lat="63.6034833289" lon="9.57918889049">
		<tag k="name" v="Strandaskardet" />
		<tag k="natural" v="valley" />
		<tag k="place" v="locality" />
		<tag k="ssr:stedsnr" v="463413" />
	</node>
	<node id="-841345" lat="63.4598500021" lon="9.85823888602">
		<tag k="alt_name" v="Høybukammen" />
		<tag k="fixme" v="consider natural=peak for the most distinct mountains in the district" />
		<tag k="name" v="Høgbukammen" />
		<tag k="natural" v="hill" />
		<tag k="place" v="locality" />
		<tag k="ssr:stedsnr" v="863069" />
	</node>
	<node id="-841344" lat="63.4664083366" lon="9.7687583258">
		<tag k="name" v="Orrhønbakkan" />
		<tag k="natural" v="slope" />
		<tag k="place" v="locality" />
		<tag k="ssr:stedsnr" v="99919" />
	</node>
	<node id="-841341" lat="63.5178888863" lon="9.58785000244">
		<tag k="name" v="Seterkollen" />
		<tag k="natural" v="hill" />
		<tag k="place" v="locality" />
		<tag k="ssr:stedsnr" v="221422" />
	</node>
	<node id="-841339" lat="63.6016833348" lon="9.55850000011">
		<tag k="name" v="Blomdalen" />
		<tag k="natural" v="valley" />
		<tag k="place" v="locality" />
		<tag k="ssr:stedsnr" v="463412" />
	</node>
	<node id="-841337" lat="63.5049499962" lon="9.56626389566">
		<tag k="name" v="Espedalen" />
		<tag k="natural" v="valley" />
		<tag k="place" v="locality" />
		<tag k="ssr:stedsnr" v="741212" />
	</node>
	<node id="-841336" lat="63.5452666694" lon="9.79551944612">
		<tag k="name" v="Høglia" />
		<tag k="natural" v="slope" />
		<tag k="place" v="locality" />
		<tag k="ssr:stedsnr" v="827381" />
	</node>
	<node id="-841334" lat="63.5415999985" lon="9.71633612111">
		<tag k="name" v="Lundhaugskardet" />
		<tag k="natural" v="valley" />
		<tag k="place" v="locality" />
		<tag k="ssr:stedsnr" v="342883" />
	</node>
	<node id="-841332" lat="63.4984694438" lon="9.58101945429">
		<tag k="name" v="Mossåholheia" />
		<tag k="natural" v="hill" />
		<tag k="place" v="locality" />
		<tag k="ssr:stedsnr" v="220131" />
	</node>
	<node id="-841328" lat="63.6281249976" lon="9.73796944425">
		<tag k="name" v="Djupvikhaugen" />
		<tag k="natural" v="hill" />
		<tag k="place" v="locality" />
		<tag k="ssr:stedsnr" v="888299" />
	</node>
	<node id="-841324" lat="63.4630083378" lon="9.62248889403">
		<tag k="name" v="Remmadalen" />
		<tag k="natural" v="valley" />
		<tag k="place" v="locality" />
		<tag k="ssr:stedsnr" v="255961" />
	</node>
	<node id="-841321" lat="63.4074388933" lon="9.74566110145">
		<tag k="name" v="Austvasslia" />
		<tag k="natural" v="slope" />
		<tag k="place" v="locality" />
		<tag k="ssr:stedsnr" v="160930" />
	</node>
	<node id="-841318" lat="63.5590222221" lon="9.77603333212">
		<tag k="name" v="Størdalen" />
		<tag k="natural" v="valley" />
		<tag k="place" v="locality" />
		<tag k="ssr:stedsnr" v="160118" />
	</node>
	<node id="-841316" lat="63.526858329" lon="9.58409166554">
		<tag k="name" v="Øra" />
		<tag k="place" v="locality" />
		<tag k="ssr:stedsnr" v="221427" />
	</node>
	<node id="-841315" lat="63.4863305585" lon="9.83160554946">
		<tag k="alt_name" v="Slønglikammen" />
		<tag k="fixme" v="consider natural=peak for the most distinct mountains in the district" />
		<tag k="name" v="Stengslikammen" />
		<tag k="natural" v="hill" />
		<tag k="place" v="locality" />
		<tag k="ssr:stedsnr" v="559049" />
	</node>
	<node id="-841312" lat="63.5018527776" lon="9.73141389804">
		<tag k="name" v="Nonshaugen" />
		<tag k="natural" v="hill" />
		<tag k="place" v="locality" />
		<tag k="ssr:stedsnr" v="463390" />
	</node>
	<node id="-841310" lat="63.5432055528" lon="9.68819999358">
		<tag k="name" v="Slupphaugen" />
		<tag k="natural" v="hill" />
		<tag k="place" v="locality" />
		<tag k="ssr:stedsnr" v="160514" />
	</node>
	<node id="-841308" lat="63.6193861093" lon="9.62913333477">
		<tag k="name" v="Porten" />
		<tag k="natural" v="valley" />
		<tag k="place" v="locality" />
		<tag k="ssr:stedsnr" v="706244" />
	</node>
	<node id="-841307" lat="63.4470694406" lon="9.72810833447">
		<tag k="name" v="Steinbakken" />
		<tag k="natural" v="slope" />
		<tag k="place" v="locality" />
		<tag k="ssr:stedsnr" v="463395" />
	</node>
	<node id="-841306" lat="63.4934000012" lon="9.60743610352">
		<tag k="name" v="Svinslættet" />
		<tag k="place" v="locality" />
		<tag k="ssr:stedsnr" v="220126" />
	</node>
	<node id="-841305" lat="63.6440777736" lon="9.74502500391">
		<tag k="alt_name" v="Gongarheia" />
		<tag k="name" v="Gangerheia" />
		<tag k="natural" v="hill" />
		<tag k="place" v="locality" />
		<tag k="ssr:stedsnr" v="316954" />
	</node>
	<node id="-841301" lat="63.461802776" lon="9.81173056081">
		<tag k="name" v="Jonslættet" />
		<tag k="place" v="locality" />
		<tag k="ssr:stedsnr" v="99915" />
	</node>
	<node id="-841299" lat="63.478336108" lon="9.84908055285">
		<tag k="name" v="Dølholet" />
		<tag k="place" v="locality" />
		<tag k="ssr:stedsnr" v="99009" />
	</node>
	<node id="-841297" lat="63.5540694435" lon="9.70142222902">
		<tag k="fixme" v="consider natural=peak for the most distinct mountains in the district" />
		<tag k="name" v="Snaufjellet" />
		<tag k="natural" v="hill" />
		<tag k="place" v="locality" />
		<tag k="ssr:stedsnr" v="524522" />
	</node>
	<node id="-841296" lat="63.4634472246" lon="9.81477222607">
		<tag k="name" v="Jonslætthaugan" />
		<tag k="natural" v="hill" />
		<tag k="place" v="locality" />
		<tag k="ssr:stedsnr" v="342861" />
	</node>
	<node id="-841287" lat="63.4684805531" lon="9.78358612095">
		<tag k="name" v="Steinbrottet" />
		<tag k="place" v="locality" />
		<tag k="ssr:stedsnr" v="342872" />
	</node>
	<node id="-841286" lat="63.5024611148" lon="9.72050000078">
		<tag k="name" v="Kringlothaugen" />
		<tag k="natural" v="hill" />
		<tag k="place" v="locality" />
		<tag k="ssr:stedsnr" v="584426" />
	</node>
	<node id="-841285" lat="63.5082416661" lon="9.75707499007">
		<tag k="name" v="Mehaughaugen" />
		<tag k="natural" v="hill" />
		<tag k="place" v="locality" />
		<tag k="ssr:stedsnr" v="437746" />
	</node>
	<node id="-841281" lat="63.5823166702" lon="9.32364721932">
		<tag k="fixme" v="consider natural=peak for the most distinct mountains in the district" />
		<tag k="name" v="Varden" />
		<tag k="natural" v="hill" />
		<tag k="place" v="locality" />
		<tag k="ssr:stedsnr" v="524935" />
	</node>
	<node id="-841275" lat="63.5726861084" lon="9.62775278192">
		<tag k="name" v="Lemman" />
		<tag k="natural" v="slope" />
		<tag k="place" v="locality" />
		<tag k="ssr:stedsnr" v="766645" />
	</node>
	<node id="-841271" lat="63.6085972251" lon="9.7229861029">
		<tag k="alt_name" v="Vettaheia" />
		<tag k="fixme" v="consider natural=peak for the most distinct mountains in the district" />
		<tag k="name" v="Vetaliheia" />
		<tag k="natural" v="hill" />
		<tag k="place" v="locality" />
		<tag k="ssr:stedsnr" v="680984" />
	</node>
	<node id="-841269" lat="63.4855083359" lon="9.6124888812">
		<tag k="name" v="Bjugnskardet" />
		<tag k="natural" v="valley" />
		<tag k="place" v="locality" />
		<tag k="ssr:stedsnr" v="767470" />
	</node>
	<node id="-841262" lat="63.4649000018" lon="9.64650833619">
		<tag k="name" v="Åsmulraudlia" />
		<tag k="natural" v="slope" />
		<tag k="place" v="locality" />
		<tag k="ssr:stedsnr" v="706233" />
	</node>
	<node id="-841261" lat="63.6306666651" lon="9.69160832351">
		<tag k="name" v="Steinbakken" />
		<tag k="natural" v="slope" />
		<tag k="place" v="locality" />
		<tag k="ssr:stedsnr" v="281349" />
	</node>
	<node id="-841259" lat="63.5753472221" lon="9.76368612064">
		<tag k="fixme" v="consider natural=peak for the most distinct mountains in the district" />
		<tag k="name" v="Kjølen" />
		<tag k="natural" v="hill" />
		<tag k="place" v="locality" />
		<tag k="ssr:stedsnr" v="766160" />
	</node>
	<node id="-841258" lat="63.6001722183" lon="9.71287777685">
		<tag k="fixme" v="consider natural=peak for the most distinct mountains in the district" />
		<tag k="name" v="Stakkslættet" />
		<tag k="natural" v="hill" />
		<tag k="place" v="locality" />
		<tag k="ssr:stedsnr" v="38203" />
	</node>
	<node id="-841254" lat="63.4099138876" lon="9.77255276785">
		<tag k="name" v="Åltjørnlia" />
		<tag k="natural" v="slope" />
		<tag k="place" v="locality" />
		<tag k="ssr:stedsnr" v="524912" />
	</node>
	<node id="-841252" lat="63.4252527743" lon="9.77403332689">
		<tag k="fixme" v="consider natural=peak for the most distinct mountains in the district" />
		<tag k="name" v="Skjeldbreiknubben" />
		<tag k="natural" v="hill" />
		<tag k="place" v="locality" />
		<tag k="ssr:stedsnr" v="342850" />
	</node>
	<node id="-841241" lat="63.4126472217" lon="9.75452499201">
		<tag k="fixme" v="consider natural=peak for the most distinct mountains in the district" />
		<tag k="name" v="Styggholhøgda" />
		<tag k="natural" v="hill" />
		<tag k="place" v="locality" />
		<tag k="ssr:stedsnr" v="524916" />
	</node>
	<node id="-841240" lat="63.4760444489" lon="9.78651945272">
		<tag k="name" v="Staurhuslia" />
		<tag k="natural" v="slope" />
		<tag k="place" v="locality" />
		<tag k="ssr:stedsnr" v="584408" />
	</node>
	<node id="-841237" lat="63.5511611155" lon="9.73486944101">
		<tag k="name" v="Brensellia" />
		<tag k="natural" v="slope" />
		<tag k="place" v="locality" />
		<tag k="ssr:stedsnr" v="160911" />
	</node>
	<node id="-841234" lat="63.6114638846" lon="9.64066944409">
		<tag k="name" v="Skardahaugen" />
		<tag k="natural" v="hill" />
		<tag k="place" v="locality" />
		<tag k="ssr:stedsnr" v="281326" />
	</node>
	<node id="-841231" lat="63.5159333347" lon="9.74089723012">
		<tag k="name" v="Dyrlia" />
		<tag k="natural" v="slope" />
		<tag k="place" v="locality" />
		<tag k="ssr:stedsnr" v="524921" />
	</node>
	<node id="-841230" lat="63.5312944403" lon="9.54643610103">
		<tag k="fixme" v="consider natural=peak for the most distinct mountains in the district" />
		<tag k="name" v="Håkavikfjellet" />
		<tag k="natural" v="hill" />
		<tag k="place" v="locality" />
		<tag k="ssr:stedsnr" v="13156" />
	</node>
	<node id="-841229" lat="63.5103527753" lon="9.71639999091">
		<tag k="name" v="Vasslia" />
		<tag k="natural" v="slope" />
		<tag k="place" v="locality" />
		<tag k="ssr:stedsnr" v="463384" />
	</node>
	<node id="-841227" lat="63.4726472237" lon="9.64540000169">
		<tag k="name" v="Stjørnryggen" />
		<tag k="natural" v="ridge" />
		<tag k="place" v="locality" />
		<tag k="ssr:stedsnr" v="767433" />
	</node>
	<node id="-841224" lat="63.6369694476" lon="9.6989083358">
		<tag k="name" v="Kaukarhaugen" />
		<tag k="natural" v="hill" />
		<tag k="place" v="locality" />
		<tag k="ssr:stedsnr" v="827353" />
	</node>
	<node id="-841223" lat="63.6358333366" lon="9.69042499564">
		<tag k="name" v="Bergsnebben" />
		<tag k="natural" v="hill" />
		<tag k="place" v="locality" />
		<tag k="ssr:stedsnr" v="281340" />
	</node>
	<node id="-841222" lat="63.5223749989" lon="9.79739444766">
		<tag k="alt_name" v="Bjørnlihaugen" />
		<tag k="name" v="Bømlihaugen" />
		<tag k="natural" v="hill" />
		<tag k="place" v="locality" />
		<tag k="ssr:stedsnr" v="619655" />
	</node>
	<node id="-841221" lat="63.6054361137" lon="9.74524444699">
		<tag k="name" v="Hauberget" />
		<tag k="natural" v="hill" />
		<tag k="place" v="locality" />
		<tag k="ssr:stedsnr" v="38197" />
	</node>
	<node id="-841220" lat="63.6004555592" lon="9.56553610295">
		<tag k="name" v="Hopaskardet" />
		<tag k="natural" v="valley" />
		<tag k="place" v="locality" />
		<tag k="ssr:stedsnr" v="99436" />
	</node>
	<node id="-841219" lat="63.5186666628" lon="9.78778333901">
		<tag k="name" v="Brannhaugen" />
		<tag k="natural" v="hill" />
		<tag k="place" v="locality" />
		<tag k="ssr:stedsnr" v="316690" />
	</node>
	<node id="-841217" lat="63.4879111074" lon="9.66718610989">
		<tag k="name" v="Storbulia" />
		<tag k="natural" v="slope" />
		<tag k="place" v="locality" />
		<tag k="ssr:stedsnr" v="437998" />
	</node>
	<node id="-841215" lat="63.4263666667" lon="9.77985277495">
		<tag k="name" v="Urdtjørnlia" />
		<tag k="natural" v="slope" />
		<tag k="place" v="locality" />
		<tag k="ssr:stedsnr" v="524511" />
	</node>
	<node id="-841211" lat="63.4273527768" lon="9.83976389314">
		<tag k="name" v="Dyrlia" />
		<tag k="natural" v="slope" />
		<tag k="place" v="locality" />
		<tag k="ssr:stedsnr" v="38196" />
	</node>
	<node id="-841208" lat="63.628797219" lon="9.69666387906">
		<tag k="name" v="Brannhaugan" />
		<tag k="natural" v="hill" />
		<tag k="place" v="locality" />
		<tag k="ssr:stedsnr" v="888272" />
	</node>
	<node id="-841202" lat="63.4158555545" lon="9.77988611388">
		<tag k="name" v="Nord Mjøvasslia" />
		<tag k="natural" v="slope" />
		<tag k="place" v="locality" />
		<tag k="ssr:stedsnr" v="342854" />
	</node>
	<node id="-841201" lat="63.4991305547" lon="9.81628333561">
		<tag k="name" v="Blekkaberga" />
		<tag k="natural" v="hill" />
		<tag k="place" v="locality" />
		<tag k="ssr:stedsnr" v="706194" />
	</node>
	<node id="-841200" lat="63.4871472178" lon="9.77801111281">
		<tag k="name" v="Ølsterdalen" />
		<tag k="natural" v="valley" />
		<tag k="place" v="locality" />
		<tag k="ssr:stedsnr" v="463361" />
	</node>
	<node id="-841199" lat="63.6216861137" lon="9.71470832758">
		<tag k="fixme" v="consider natural=peak for the most distinct mountains in the district" />
		<tag k="name" v="Buskardåsen" />
		<tag k="natural" v="hill" />
		<tag k="place" v="locality" />
		<tag k="ssr:stedsnr" v="402359" />
	</node>
	<node id="-841198" lat="63.4624805532" lon="9.63618054801">
		<tag k="name" v="Raudlihøgden" />
		<tag k="natural" v="hill" />
		<tag k="place" v="locality" />
		<tag k="ssr:stedsnr" v="403232" />
	</node>
	<node id="-841196" lat="63.5463111154" lon="9.74398333603">
		<tag k="name" v="Snurrheia" />
		<tag k="natural" v="hill" />
		<tag k="place" v="locality" />
		<tag k="ssr:stedsnr" v="524899" />
	</node>
	<node id="-841194" lat="63.5008777795" lon="9.80460833478">
		<tag k="name" v="Akselhaugen" />
		<tag k="natural" v="hill" />
		<tag k="place" v="locality" />
		<tag k="ssr:stedsnr" v="645194" />
	</node>
	<node id="-841191" lat="63.5330305554" lon="9.77215277166">
		<tag k="name" v="Rogndalen" />
		<tag k="natural" v="valley" />
		<tag k="place" v="locality" />
		<tag k="ssr:stedsnr" v="680727" />
	</node>
	<node id="-841190" lat="63.4569555532" lon="9.74519721673">
		<tag k="name" v="Brannan" />
		<tag k="natural" v="slope" />
		<tag k="place" v="locality" />
		<tag k="ssr:stedsnr" v="99428" />
	</node>
	<node id="-841187" lat="63.572419448" lon="9.69316388107">
		<tag k="name" v="Seterliheia" />
		<tag k="natural" v="hill" />
		<tag k="place" v="locality" />
		<tag k="ssr:stedsnr" v="220998" />
	</node>
	<node id="-841185" lat="63.4616361102" lon="9.79707500758">
		<tag k="name" v="Mekveldsheia" />
		<tag k="natural" v="hill" />
		<tag k="place" v="locality" />
		<tag k="ssr:stedsnr" v="160896" />
	</node>
	<node id="-841184" lat="63.6250916668" lon="9.71656111451">
		<tag k="name" v="Breivikmunnen" />
		<tag k="natural" v="slope" />
		<tag k="place" v="locality" />
		<tag k="ssr:stedsnr" v="402362" />
	</node>
	<node id="-841181" lat="63.506105555" lon="9.80961943638">
		<tag k="alt_name" v="Melangsåsen" />
		<tag k="fixme" v="consider natural=peak for the most distinct mountains in the district" />
		<tag k="name" v="Mellandsåsen" />
		<tag k="natural" v="hill" />
		<tag k="place" v="locality" />
		<tag k="ssr:stedsnr" v="558770" />
	</node>
	<node id="-841177" lat="63.4470805586" lon="9.91246667475">
		<tag k="name" v="Hallkleiva" />
		<tag k="natural" v="slope" />
		<tag k="place" v="locality" />
		<tag k="ssr:stedsnr" v="38187" />
	</node>
	<node id="-841172" lat="63.5759333296" lon="9.66162500135">
		<tag k="name" v="Hjerthaugen" />
		<tag k="natural" v="hill" />
		<tag k="place" v="locality" />
		<tag k="ssr:stedsnr" v="706632" />
	</node>
	<node id="-841171" lat="63.4878888907" lon="9.63463610697">
		<tag k="name" v="Bjorliheia" />
		<tag k="natural" v="hill" />
		<tag k="place" v="locality" />
		<tag k="ssr:stedsnr" v="12882" />
	</node>
	<node id="-841170" lat="63.4790944487" lon="9.799813883">
		<tag k="name" v="Sollia" />
		<tag k="natural" v="slope" />
		<tag k="place" v="locality" />
		<tag k="ssr:stedsnr" v="463368" />
	</node>
	<node id="-841167" lat="63.4929361083" lon="9.69036945261">
		<tag k="name" v="Kjøltjørnlia" />
		<tag k="natural" v="slope" />
		<tag k="place" v="locality" />
		<tag k="ssr:stedsnr" v="99422" />
	</node>
	<node id="-841164" lat="63.5065416705" lon="9.77711388039">
		<tag k="fixme" v="consider natural=peak for the most distinct mountains in the district" />
		<tag k="name" v="Sniphaugen" />
		<tag k="natural" v="hill" />
		<tag k="place" v="locality" />
		<tag k="ssr:stedsnr" v="706211" />
	</node>
	<node id="-841161" lat="63.570525" lon="9.72839165686">
		<tag k="name" v="Tjurruhjellen" />
		<tag k="place" v="locality" />
		<tag k="ssr:stedsnr" v="220990" />
	</node>
	<node id="-841160" lat="63.4884444465" lon="9.78403333416">
		<tag k="fixme" v="consider natural=peak for the most distinct mountains in the district" />
		<tag k="name" v="Gammeltoften" />
		<tag k="natural" v="hill" />
		<tag k="place" v="locality" />
		<tag k="ssr:stedsnr" v="584399" />
	</node>
	<node id="-841158" lat="63.5188972203" lon="9.68003055729">
		<tag k="fixme" v="consider natural=peak for the most distinct mountains in the district" />
		<tag k="name" v="Vester Varden" />
		<tag k="natural" v="hill" />
		<tag k="ssr:stedsnr" v="38643" />
	</node>
	<node id="-841155" lat="63.5330416697" lon="9.64208332418">
		<tag k="name" v="Holbekkdalshaugen" />
		<tag k="natural" v="hill" />
		<tag k="place" v="locality" />
		<tag k="ssr:stedsnr" v="934834" />
	</node>
	<node id="-841154" lat="63.4736083376" lon="9.87053611699">
		<tag k="alt_name" v="Fjølås" />
		<tag k="fixme" v="consider natural=peak for the most distinct mountains in the district" />
		<tag k="name" v="Fjølåsen" />
		<tag k="natural" v="hill" />
		<tag k="place" v="locality" />
		<tag k="ssr:stedsnr" v="863063" />
	</node>
	<node id="-841151" lat="63.5436916628" lon="9.71438332875">
		<tag k="name" v="Lundhaugen" />
		<tag k="natural" v="hill" />
		<tag k="place" v="locality" />
		<tag k="ssr:stedsnr" v="524909" />
	</node>
	<node id="-841150" lat="63.5413472237" lon="9.76428888473">
		<tag k="name" v="Slættet" />
		<tag k="natural" v="slope" />
		<tag k="place" v="locality" />
		<tag k="ssr:stedsnr" v="402364" />
	</node>
	<node id="-841148" lat="63.5903138858" lon="9.68190556189">
		<tag k="fixme" v="consider natural=peak for the most distinct mountains in the district" />
		<tag k="name" v="Attvendtdalsheia" />
		<tag k="natural" v="hill" />
		<tag k="place" v="locality" />
		<tag k="ssr:stedsnr" v="706623" />
	</node>
	<node id="-841145" lat="63.6194638929" lon="9.64114167069">
		<tag k="name" v="Mølnhaugen" />
		<tag k="natural" v="hill" />
		<tag k="place" v="locality" />
		<tag k="ssr:stedsnr" v="828228" />
	</node>
	<node id="-841143" lat="63.4954000035" lon="9.80407222185">
		<tag k="name" v="Langfallan" />
		<tag k="natural" v="hill" />
		<tag k="place" v="locality" />
		<tag k="ssr:stedsnr" v="498029" />
	</node>
	<node id="-841142" lat="63.6274722234" lon="9.74090278175">
		<tag k="name" v="Kuberget" />
		<tag k="natural" v="hill" />
		<tag k="place" v="locality" />
		<tag k="ssr:stedsnr" v="402366" />
	</node>
	<node id="-841141" lat="63.4468055591" lon="9.65743054647">
		<tag k="fixme" v="consider natural=peak for the most distinct mountains in the district" />
		<tag k="name" v="Småskarda" />
		<tag k="natural" v="hill" />
		<tag k="place" v="locality" />
		<tag k="ssr:stedsnr" v="403238" />
	</node>
	<node id="-841140" lat="63.4784666643" lon="9.71221110852">
		<tag k="name" v="Tverrliberga" />
		<tag k="natural" v="hill" />
		<tag k="place" v="locality" />
		<tag k="ssr:stedsnr" v="341103" />
	</node>
	<node id="-841136" lat="63.4613666638" lon="9.8419972146">
		<tag k="name" v="Rødslættet" />
		<tag k="natural" v="slope" />
		<tag k="place" v="locality" />
		<tag k="ssr:stedsnr" v="99054" />
	</node>
	<node id="-841135" lat="63.4253399417" lon="9.7741842211">
		<tag k="name" v="Skilbreidknubben" />
		<tag k="natural" v="hill" />
		<tag k="place" v="locality" />
		<tag k="ssr:stedsnr" v="630832" />
	</node>
	<node id="-841134" lat="63.4836333369" lon="9.60695277384">
		<tag k="name" v="Nordlian" />
		<tag k="natural" v="slope" />
		<tag k="place" v="locality" />
		<tag k="ssr:stedsnr" v="463459" />
	</node>
	<node id="-841132" lat="63.4669000001" lon="9.77558333231">
		<tag k="name" v="Litjheia" />
		<tag k="natural" v="hill" />
		<tag k="place" v="locality" />
		<tag k="ssr:stedsnr" v="584931" />
	</node>
	<node id="-841130" lat="63.5368472197" lon="9.81245832837">
		<tag k="name" v="Kinebblia" />
		<tag k="natural" v="slope" />
		<tag k="place" v="locality" />
		<tag k="ssr:stedsnr" v="949305" />
	</node>
	<node id="-841129" lat="63.4490583323" lon="9.85022221853">
		<tag k="fixme" v="consider natural=peak for the most distinct mountains in the district" />
		<tag k="name" v="Fjellnova" />
		<tag k="natural" v="hill" />
		<tag k="place" v="locality" />
		<tag k="ssr:stedsnr" v="584059" />
	</node>
	<node id="-841127" lat="63.4790138918" lon="9.7671111072">
		<tag k="name" v="Ytterlia" />
		<tag k="natural" v="slope" />
		<tag k="place" v="locality" />
		<tag k="ssr:stedsnr" v="888330" />
	</node>
	<node id="-841123" lat="63.4881666656" lon="9.6501777776">
		<tag k="name" v="Saghaugen" />
		<tag k="natural" v="hill" />
		<tag k="place" v="locality" />
		<tag k="ssr:stedsnr" v="463434" />
	</node>
	<node id="-841122" lat="63.469375004" lon="9.7553916603">
		<tag k="name" v="Saghaugan" />
		<tag k="natural" v="hill" />
		<tag k="place" v="locality" />
		<tag k="ssr:stedsnr" v="827416" />
	</node>
	<node id="-841117" lat="63.4613194459" lon="9.83106111367">
		<tag k="fixme" v="consider natural=peak for the most distinct mountains in the district" />
		<tag k="name" v="Middagsheia" />
		<tag k="natural" v="hill" />
		<tag k="place" v="locality" />
		<tag k="ssr:stedsnr" v="195070" />
	</node>
	<node id="-841116" lat="63.5431611126" lon="9.56766388708">
		<tag k="name" v="Almgjøta" />
		<tag k="natural" v="slope" />
		<tag k="place" v="locality" />
		<tag k="ssr:stedsnr" v="766666" />
	</node>
	<node id="-841111" lat="63.4461555549" lon="9.75073611495">
		<tag k="name" v="Svarthollia" />
		<tag k="natural" v="slope" />
		<tag k="place" v="locality" />
		<tag k="ssr:stedsnr" v="160963" />
	</node>
	<node id="-841110" lat="63.4554222184" lon="9.75539722425">
		<tag k="name" v="Fjeringslia" />
		<tag k="natural" v="slope" />
		<tag k="place" v="locality" />
		<tag k="ssr:stedsnr" v="463890" />
	</node>
	<node id="-841108" lat="63.5964833351" lon="9.74019166824">
		<tag k="fixme" v="consider natural=peak for the most distinct mountains in the district" />
		<tag k="name" v="Ørnfjellet" />
		<tag k="natural" v="hill" />
		<tag k="place" v="locality" />
		<tag k="ssr:stedsnr" v="316976" />
	</node>
	<node id="-841106" lat="63.4788777803" lon="9.72297500946">
		<tag k="alt_name" v="Tverrlihøgda" />
		<tag k="fixme" v="consider natural=peak for the most distinct mountains in the district" />
		<tag k="name" v="Tverrlia" />
		<tag k="natural" v="hill" />
		<tag k="place" v="locality" />
		<tag k="ssr:stedsnr" v="74046" />
	</node>
	<node id="-841105" lat="63.4952777807" lon="9.84533610367">
		<tag k="name" v="Vikhalshaugen" />
		<tag k="natural" v="hill" />
		<tag k="place" v="locality" />
		<tag k="ssr:stedsnr" v="584040" />
	</node>
	<node id="-841104" lat="63.4220416702" lon="9.75914999419">
		<tag k="name" v="Bjørklia" />
		<tag k="natural" v="slope" />
		<tag k="place" v="locality" />
		<tag k="ssr:stedsnr" v="584910" />
	</node>
	<node id="-841103" lat="63.5398444445" lon="9.68882499888">
		<tag k="name" v="Skjeggbakken" />
		<tag k="natural" v="slope" />
		<tag k="place" v="locality" />
		<tag k="ssr:stedsnr" v="39902" />
	</node>
	<node id="-841099" lat="63.5845305523" lon="9.65376389167">
		<tag k="fixme" v="consider natural=peak for the most distinct mountains in the district" />
		<tag k="name" v="Vesterfjella" />
		<tag k="natural" v="hill" />
		<tag k="place" v="locality" />
		<tag k="ssr:stedsnr" v="159715" />
	</node>
	<node id="-841098" lat="63.5478194402" lon="9.70618610371">
		<tag k="name" v="Vakkerliskardet" />
		<tag k="natural" v="valley" />
		<tag k="place" v="locality" />
		<tag k="ssr:stedsnr" v="342506" />
	</node>
	<node id="-841096" lat="63.6009388902" lon="9.6949583294">
		<tag k="name" v="Smådalan" />
		<tag k="natural" v="valley" />
		<tag k="place" v="locality" />
		<tag k="ssr:stedsnr" v="524149" />
	</node>
	<node id="-841093" lat="63.5491027795" lon="9.57842778125">
		<tag k="name" v="Kvernabakken" />
		<tag k="natural" v="slope" />
		<tag k="place" v="locality" />
		<tag k="ssr:stedsnr" v="766665" />
	</node>
	<node id="-841092" lat="63.5856222267" lon="9.66949166782">
		<tag k="name" v="Attvendtdalen" />
		<tag k="natural" v="valley" />
		<tag k="place" v="locality" />
		<tag k="ssr:stedsnr" v="159713" />
	</node>
	<node id="-841091" lat="63.5992305585" lon="9.75078332418">
		<tag k="name" v="Ørnhallaren" />
		<tag k="place" v="locality" />
		<tag k="ssr:stedsnr" v="766213" />
	</node>
	<node id="-841087" lat="63.4258444477" lon="9.77466667052">
		<tag k="fixme" v="consider natural=peak for the most distinct mountains in the district" />
		<tag k="name" v="Skjeldbreiknubben" />
		<tag k="natural" v="hill" />
		<tag k="place" v="locality" />
		<tag k="ssr:stedsnr" v="342501" />
	</node>
	<node id="-841086" lat="63.6161249967" lon="9.61338889091">
		<tag k="name" v="Bjørkmoen" />
		<tag k="place" v="locality" />
		<tag k="ssr:stedsnr" v="584470" />
	</node>
	<node id="-841084" lat="63.4698444449" lon="9.62034999495">
		<tag k="name" v="Dyrstilia" />
		<tag k="natural" v="slope" />
		<tag k="place" v="locality" />
		<tag k="ssr:stedsnr" v="645223" />
	</node>
	<node id="-841080" lat="63.6014166694" lon="9.71225277147">
		<tag k="fixme" v="consider natural=peak for the most distinct mountains in the district" />
		<tag k="name" v="Stakkslættmunnen" />
		<tag k="natural" v="hill" />
		<tag k="place" v="locality" />
		<tag k="ssr:stedsnr" v="160143" />
	</node>
	<node id="-841078" lat="63.4868583368" lon="9.59017777214">
		<tag k="name" v="Rognlia" />
		<tag k="natural" v="slope" />
		<tag k="place" v="locality" />
		<tag k="ssr:stedsnr" v="767483" />
	</node>
	<node id="-841076" lat="63.4228749995" lon="9.77766943457">
		<tag k="name" v="Kvernhusliknubben" />
		<tag k="natural" v="hill" />
		<tag k="place" v="locality" />
		<tag k="ssr:stedsnr" v="463896" />
	</node>
	<node id="-841071" lat="63.5221583372" lon="9.76211389033">
		<tag k="fixme" v="consider natural=peak for the most distinct mountains in the district" />
		<tag k="name" v="Landrøsheia" />
		<tag k="natural" v="hill" />
		<tag k="place" v="locality" />
		<tag k="ssr:stedsnr" v="887371" />
	</node>
	<node id="-841068" lat="63.5459722199" lon="9.64139999319">
		<tag k="fixme" v="consider natural=peak for the most distinct mountains in the district" />
		<tag k="name" v="Gråfjellet" />
		<tag k="natural" v="hill" />
		<tag k="place" v="locality" />
		<tag k="ssr:stedsnr" v="13144" />
	</node>
	<node id="-841065" lat="63.4486000041" lon="9.86703611516">
		<tag k="name" v="Høglia" />
		<tag k="natural" v="slope" />
		<tag k="place" v="locality" />
		<tag k="ssr:stedsnr" v="220084" />
	</node>
	<node id="-841064" lat="63.5930527734" lon="9.62878056112">
		<tag k="name" v="Rivdalen" />
		<tag k="natural" v="valley" />
		<tag k="place" v="locality" />
		<tag k="ssr:stedsnr" v="948752" />
	</node>
	<node id="-841062" lat="63.5924305532" lon="9.73729721387">
		<tag k="name" v="Vollan" />
		<tag k="place" v="locality" />
		<tag k="ssr:stedsnr" v="644716" />
	</node>
	<node id="-841060" lat="63.6346305577" lon="9.68971666721">
		<tag k="name" v="Meraftåsskardet" />
		<tag k="natural" v="valley" />
		<tag k="place" v="locality" />
		<tag k="ssr:stedsnr" v="402343" />
	</node>
	<node id="-841058" lat="63.6327138922" lon="9.7015138855">
		<tag k="fixme" v="consider natural=peak for the most distinct mountains in the district" />
		<tag k="name" v="Dumulsheia" />
		<tag k="natural" v="hill" />
		<tag k="place" v="locality" />
		<tag k="ssr:stedsnr" v="402344" />
	</node>
	<node id="-841056" lat="63.5639305543" lon="9.67343333564">
		<tag k="name" v="Damslætthøgda" />
		<tag k="natural" v="hill" />
		<tag k="place" v="locality" />
		<tag k="ssr:stedsnr" v="645564" />
	</node>
	<node id="-841055" lat="63.4598388891" lon="9.84999999651">
		<tag k="fixme" v="consider natural=peak for the most distinct mountains in the district" />
		<tag k="name" v="Inner Neverhaugen" />
		<tag k="natural" v="hill" />
		<tag k="place" v="locality" />
		<tag k="ssr:stedsnr" v="220074" />
	</node>
	<node id="-841050" lat="63.61449444" lon="9.69348056144">
		<tag k="name" v="Litlgjøta" />
		<tag k="natural" v="valley" />
		<tag k="place" v="locality" />
		<tag k="ssr:stedsnr" v="706173" />
	</node>
	<node id="-841049" lat="63.6234000044" lon="9.6757722158">
		<tag k="name" v="Hestholhaugen" />
		<tag k="natural" v="hill" />
		<tag k="place" v="locality" />
		<tag k="ssr:stedsnr" v="281308" />
	</node>
	<node id="-841043" lat="63.5050611092" lon="9.69778054606">
		<tag k="fixme" v="consider natural=peak for the most distinct mountains in the district" />
		<tag k="name" v="Renne" />
		<tag k="natural" v="hill" />
		<tag k="place" v="locality" />
		<tag k="ssr:stedsnr" v="99409" />
	</node>
	<node id="-841037" lat="63.4327277812" lon="9.72276943757">
		<tag k="name" v="Kleivdalen" />
		<tag k="natural" v="valley" />
		<tag k="place" v="locality" />
		<tag k="ssr:stedsnr" v="645994" />
	</node>
	<node id="-841036" lat="63.4682972183" lon="9.72365000546">
		<tag k="name" v="Nonshaugen" />
		<tag k="natural" v="hill" />
		<tag k="place" v="locality" />
		<tag k="ssr:stedsnr" v="767427" />
	</node>
	<node id="-841035" lat="63.5065277775" lon="9.60921945396">
		<tag k="name" v="Tømmerholet" />
		<tag k="natural" v="valley" />
		<tag k="place" v="locality" />
		<tag k="ssr:stedsnr" v="341091" />
	</node>
	<node id="-841032" lat="63.4594888893" lon="9.735169439">
		<tag k="name" v="Valbakkan" />
		<tag k="natural" v="slope" />
		<tag k="place" v="locality" />
		<tag k="ssr:stedsnr" v="767428" />
	</node>
	<node id="-841029" lat="63.4686638891" lon="9.7218416633">
		<tag k="name" v="Nonshaugen" />
		<tag k="natural" v="hill" />
		<tag k="place" v="locality" />
		<tag k="ssr:stedsnr" v="341089" />
	</node>
	<node id="-841023" lat="63.4739055559" lon="9.75271389693">
		<tag k="name" v="Aunstrupen" />
		<tag k="natural" v="valley" />
		<tag k="place" v="locality" />
		<tag k="ssr:stedsnr" v="341087" />
	</node>
	<node id="-841018" lat="63.5211527791" lon="9.72292221445">
		<tag k="fixme" v="consider natural=peak for the most distinct mountains in the district" />
		<tag k="name" v="Geitholheia" />
		<tag k="natural" v="hill" />
		<tag k="place" v="locality" />
		<tag k="ssr:stedsnr" v="741716" />
	</node>
	<node id="-841016" lat="63.5374111073" lon="9.77547223191">
		<tag k="name" v="Ner Rogndalen" />
		<tag k="natural" v="valley" />
		<tag k="place" v="locality" />
		<tag k="ssr:stedsnr" v="584364" />
	</node>
	<node id="-841012" lat="63.4629000043" lon="9.84896666335">
		<tag k="name" v="Fremmer Neverhaugen" />
		<tag k="natural" v="hill" />
		<tag k="place" v="locality" />
		<tag k="ssr:stedsnr" v="220072" />
	</node>
	<node id="-841011" lat="63.4689000043" lon="9.76585000625">
		<tag k="name" v="Orrhønbakkan" />
		<tag k="natural" v="slope" />
		<tag k="place" v="locality" />
		<tag k="ssr:stedsnr" v="99401" />
	</node>
	<node id="-841010" lat="63.4873250023" lon="9.73291389164">
		<tag k="name" v="Frostaskardet" />
		<tag k="natural" v="valley" />
		<tag k="place" v="locality" />
		<tag k="ssr:stedsnr" v="341085" />
	</node>
	<node id="-841009" lat="63.5899805516" lon="9.38054443558">
		<tag k="name" v="Bukkhallaren" />
		<tag k="place" v="locality" />
		<tag k="ssr:stedsnr" v="98952" />
	</node>
	<node id="-841005" lat="63.4879055586" lon="9.84219722911">
		<tag k="name" v="Hagalia" />
		<tag k="natural" v="slope" />
		<tag k="place" v="locality" />
		<tag k="ssr:stedsnr" v="462011" />
	</node>
	<node id="-841004" lat="63.5148388872" lon="9.78037776978">
		<tag k="name" v="Havahaugen" />
		<tag k="natural" v="hill" />
		<tag k="place" v="locality" />
		<tag k="ssr:stedsnr" v="887376" />
	</node>
	<node id="-841003" lat="63.4154222256" lon="9.77123055461">
		<tag k="name" v="Matbrunndalshalsen" />
		<tag k="natural" v="valley" />
		<tag k="place" v="locality" />
		<tag k="ssr:stedsnr" v="524879" />
	</node>
	<node id="-841000" lat="63.4932194417" lon="9.84309445272">
		<tag k="name" v="Troll-lia" />
		<tag k="natural" v="slope" />
		<tag k="place" v="locality" />
		<tag k="ssr:stedsnr" v="220060" />
	</node>
	<node id="-840998" lat="63.602644443" lon="9.57658332854">
		<tag k="name" v="Furuknollen" />
		<tag k="natural" v="hill" />
		<tag k="place" v="locality" />
		<tag k="ssr:stedsnr" v="767421" />
	</node>
	<node id="-840994" lat="63.5358083376" lon="9.73922221355">
		<tag k="name" v="Sæterdalen" />
		<tag k="natural" v="valley" />
		<tag k="place" v="locality" />
		<tag k="ssr:stedsnr" v="802215" />
	</node>
	<node id="-840993" lat="63.6305583362" lon="9.70222778719">
		<tag k="name" v="Kuskardet" />
		<tag k="natural" v="valley" />
		<tag k="place" v="locality" />
		<tag k="ssr:stedsnr" v="827336" />
	</node>
	<node id="-840990" lat="63.5540861124" lon="9.80675278557">
		<tag k="fixme" v="consider natural=peak for the most distinct mountains in the district" />
		<tag k="name" v="Grovahaugan" />
		<tag k="natural" v="hill" />
		<tag k="place" v="locality" />
		<tag k="ssr:stedsnr" v="584370" />
	</node>
	<node id="-840988" lat="63.6129611076" lon="9.62715832758">
		<tag k="fixme" v="consider natural=peak for the most distinct mountains in the district" />
		<tag k="name" v="Storhuset" />
		<tag k="natural" v="hill" />
		<tag k="place" v="locality" />
		<tag k="ssr:stedsnr" v="923093" />
	</node>
	<node id="-840987" lat="63.5657333333" lon="9.65097222877">
		<tag k="name" v="Merradalen" />
		<tag k="natural" v="valley" />
		<tag k="place" v="locality" />
		<tag k="ssr:stedsnr" v="38613" />
	</node>
	<node id="-840983" lat="63.495844448" lon="9.81822777395">
		<tag k="name" v="Liaråa" />
		<tag k="natural" v="slope" />
		<tag k="place" v="locality" />
		<tag k="ssr:stedsnr" v="462017" />
	</node>
	<node id="-840981" lat="63.497588886" lon="9.64882778104">
		<tag k="name" v="Helvetet" />
		<tag k="natural" v="valley" />
		<tag k="place" v="locality" />
		<tag k="ssr:stedsnr" v="644688" />
	</node>
	<node id="-840980" lat="63.5259638899" lon="9.75802776786">
		<tag k="fixme" v="consider natural=peak for the most distinct mountains in the district" />
		<tag k="name" v="Sørvarden" />
		<tag k="natural" v="hill" />
		<tag k="ssr:stedsnr" v="13654" />
	</node>
	<node id="-840979" lat="63.4412555599" lon="9.74478333617">
		<tag k="name" v="Saglia" />
		<tag k="natural" v="slope" />
		<tag k="place" v="locality" />
		<tag k="ssr:stedsnr" v="828957" />
	</node>
	<node id="-840978" lat="63.5626388881" lon="9.67483611021">
		<tag k="name" v="Damslættet" />
		<tag k="place" v="locality" />
		<tag k="ssr:stedsnr" v="706565" />
	</node>
	<node id="-840977" lat="63.445883329" lon="9.82069443597">
		<tag k="name" v="Pikslættet" />
		<tag k="place" v="locality" />
		<tag k="ssr:stedsnr" v="949163" />
	</node>
	<node id="-840975" lat="63.5282388863" lon="9.82000832561">
		<tag k="fixme" v="consider natural=peak for the most distinct mountains in the district" />
		<tag k="name" v="Alvikhaugan" />
		<tag k="natural" v="hill" />
		<tag k="place" v="locality" />
		<tag k="ssr:stedsnr" v="281272" />
	</node>
	<node id="-840974" lat="63.5248249963" lon="9.75968610544">
		<tag k="fixme" v="consider natural=peak for the most distinct mountains in the district" />
		<tag k="name" v="Landrøsheia" />
		<tag k="natural" v="hill" />
		<tag k="place" v="locality" />
		<tag k="ssr:stedsnr" v="680687" />
	</node>
	<node id="-840973" lat="63.594127778" lon="9.60447499546">
		<tag k="name" v="Djupdalen" />
		<tag k="natural" v="valley" />
		<tag k="place" v="locality" />
		<tag k="ssr:stedsnr" v="948719" />
	</node>
	<node id="-840968" lat="63.6120666632" lon="9.67125833259">
		<tag k="name" v="Klomstadbakken" />
		<tag k="natural" v="slope" />
		<tag k="place" v="locality" />
		<tag k="ssr:stedsnr" v="402318" />
	</node>
	<node id="-840966" lat="63.5755222199" lon="9.60749167646">
		<tag k="name" v="Kartdalen" />
		<tag k="natural" v="valley" />
		<tag k="place" v="locality" />
		<tag k="ssr:stedsnr" v="705718" />
	</node>
	<node id="-840965" lat="63.5485666699" lon="9.75401110414">
		<tag k="name" v="Gaddholet" />
		<tag k="natural" v="valley" />
		<tag k="place" v="locality" />
		<tag k="ssr:stedsnr" v="463322" />
	</node>
	<node id="-840963" lat="63.4366111089" lon="9.71152500383">
		<tag k="name" v="Valhaugen" />
		<tag k="natural" v="hill" />
		<tag k="place" v="locality" />
		<tag k="ssr:stedsnr" v="949993" />
	</node>
	<node id="-840962" lat="63.4617166685" lon="9.6543249925">
		<tag k="name" v="Maliholet" />
		<tag k="natural" v="valley" />
		<tag k="place" v="locality" />
		<tag k="ssr:stedsnr" v="888222" />
	</node>
	<node id="-840961" lat="63.6241611073" lon="9.71461110235">
		<tag k="name" v="Storrundhaugen" />
		<tag k="natural" v="hill" />
		<tag k="place" v="locality" />
		<tag k="ssr:stedsnr" v="584352" />
	</node>
	<node id="-840959" lat="63.5985500002" lon="9.55657500707">
		<tag k="fixme" v="consider natural=peak for the most distinct mountains in the district" />
		<tag k="name" v="Rishaugkammen" />
		<tag k="natural" v="hill" />
		<tag k="place" v="locality" />
		<tag k="ssr:stedsnr" v="619084" />
	</node>
	<node id="-840958" lat="63.4559666629" lon="9.65286945255">
		<tag k="name" v="Øyangsraudlia" />
		<tag k="natural" v="slope" />
		<tag k="place" v="locality" />
		<tag k="ssr:stedsnr" v="888224" />
	</node>
	<node id="-840957" lat="63.4353444458" lon="9.73791110483">
		<tag k="name" v="Sagholet" />
		<tag k="natural" v="valley" />
		<tag k="place" v="locality" />
		<tag k="ssr:stedsnr" v="828960" />
	</node>
	<node id="-840956" lat="63.5998472205" lon="9.65830555178">
		<tag k="fixme" v="consider natural=peak for the most distinct mountains in the district" />
		<tag k="name" v="Gråberga" />
		<tag k="natural" v="hill" />
		<tag k="place" v="locality" />
		<tag k="ssr:stedsnr" v="402314" />
	</node>
	<node id="-840951" lat="63.512191668" lon="9.58292222496">
		<tag k="name" v="Vasslia" />
		<tag k="natural" v="slope" />
		<tag k="place" v="locality" />
		<tag k="ssr:stedsnr" v="342401" />
	</node>
	<node id="-840950" lat="63.5776500038" lon="9.72641666711">
		<tag k="name" v="Olderdalsbakken" />
		<tag k="natural" v="slope" />
		<tag k="place" v="locality" />
		<tag k="ssr:stedsnr" v="765663" />
	</node>
	<node id="-840948" lat="63.5855333372" lon="9.56237500829">
		<tag k="name" v="Gravvikdalen" />
		<tag k="natural" v="valley" />
		<tag k="place" v="locality" />
		<tag k="ssr:stedsnr" v="644686" />
	</node>
	<node id="-840945" lat="63.5785138929" lon="9.61029722959">
		<tag k="name" v="Grandalen" />
		<tag k="natural" v="valley" />
		<tag k="place" v="locality" />
		<tag k="ssr:stedsnr" v="705714" />
	</node>
	<node id="-840943" lat="63.560461109" lon="9.75183611991">
		<tag k="name" v="Skardlia" />
		<tag k="natural" v="slope" />
		<tag k="place" v="locality" />
		<tag k="ssr:stedsnr" v="949157" />
	</node>
	<node id="-840942" lat="63.5766888879" lon="9.73924445426">
		<tag k="fixme" v="consider natural=peak for the most distinct mountains in the district" />
		<tag k="name" v="Skardhaugen" />
		<tag k="natural" v="hill" />
		<tag k="place" v="locality" />
		<tag k="ssr:stedsnr" v="765664" />
	</node>
	<node id="-840939" lat="63.5526999994" lon="9.68958611367">
		<tag k="name" v="Prekstollia" />
		<tag k="natural" v="slope" />
		<tag k="place" v="locality" />
		<tag k="ssr:stedsnr" v="645537" />
	</node>
	<node id="-840938" lat="63.4698472243" lon="9.83483332379">
		<tag k="name" v="Rønningan" />
		<tag k="natural" v="slope" />
		<tag k="place" v="locality" />
		<tag k="ssr:stedsnr" v="826008" />
	</node>
	<node id="-840936" lat="63.6313722241" lon="9.72966110491">
		<tag k="name" v="Dyrestigen" />
		<tag k="natural" v="valley" />
		<tag k="place" v="locality" />
		<tag k="ssr:stedsnr" v="463324" />
	</node>
	<node id="-840934" lat="63.5437527793" lon="9.77637221668">
		<tag k="fixme" v="consider natural=peak for the most distinct mountains in the district" />
		<tag k="name" v="Skardåsheia" />
		<tag k="natural" v="hill" />
		<tag k="place" v="locality" />
		<tag k="ssr:stedsnr" v="463329" />
	</node>
	<node id="-840933" lat="63.5825444485" lon="9.61313889776">
		<tag k="name" v="Seterlia" />
		<tag k="natural" v="slope" />
		<tag k="place" v="locality" />
		<tag k="ssr:stedsnr" v="644682" />
	</node>
	<node id="-840932" lat="63.5915111073" lon="9.6019777793">
		<tag k="fixme" v="consider natural=peak for the most distinct mountains in the district" />
		<tag k="name" v="Åsan" />
		<tag k="natural" v="hill" />
		<tag k="place" v="locality" />
		<tag k="ssr:stedsnr" v="948714" />
	</node>
	<node id="-840931" lat="63.4424222204" lon="9.87403611655">
		<tag k="name" v="Hesthaugan" />
		<tag k="natural" v="hill" />
		<tag k="place" v="locality" />
		<tag k="ssr:stedsnr" v="949160" />
	</node>
	<node id="-840930" lat="63.5876944464" lon="9.39135833328">
		<tag k="name" v="Heradsvikhøgda" />
		<tag k="natural" v="hill" />
		<tag k="place" v="locality" />
		<tag k="ssr:stedsnr" v="98932" />
	</node>
	<node id="-840927" lat="63.4918583324" lon="9.57406388617">
		<tag k="name" v="Åstkleiva" />
		<tag k="natural" v="slope" />
		<tag k="place" v="locality" />
		<tag k="ssr:stedsnr" v="523128" />
	</node>
	<node id="-840924" lat="63.4327472225" lon="9.78788611782">
		<tag k="name" v="Krettlia" />
		<tag k="natural" v="slope" />
		<tag k="place" v="locality" />
		<tag k="ssr:stedsnr" v="645532" />
	</node>
	<node id="-840919" lat="63.5724944482" lon="9.7316194523">
		<tag k="name" v="Boteldalen" />
		<tag k="natural" v="valley" />
		<tag k="place" v="locality" />
		<tag k="ssr:stedsnr" v="949988" />
	</node>
	<node id="-840914" lat="63.5475555569" lon="9.80113055761">
		<tag k="fixme" v="consider natural=peak for the most distinct mountains in the district" />
		<tag k="name" v="Svarthaugen" />
		<tag k="natural" v="hill" />
		<tag k="place" v="locality" />
		<tag k="ssr:stedsnr" v="99372" />
	</node>
	<node id="-840912" lat="63.601344441" lon="9.68801389679">
		<tag k="fixme" v="consider natural=peak for the most distinct mountains in the district" />
		<tag k="name" v="Smådalsheia" />
		<tag k="natural" v="hill" />
		<tag k="place" v="locality" />
		<tag k="ssr:stedsnr" v="949174" />
	</node>
	<node id="-840911" lat="63.6322361104" lon="9.69998610904">
		<tag k="name" v="Dyrklova" />
		<tag k="natural" v="valley" />
		<tag k="place" v="locality" />
		<tag k="ssr:stedsnr" v="584335" />
	</node>
	<node id="-840908" lat="63.6197666636" lon="9.70645000939">
		<tag k="fixme" v="consider natural=peak for the most distinct mountains in the district" />
		<tag k="name" v="Løstadheia" />
		<tag k="natural" v="hill" />
		<tag k="place" v="locality" />
		<tag k="ssr:stedsnr" v="463306" />
	</node>
	<node id="-840905" lat="63.5837472243" lon="9.62915277842">
		<tag k="name" v="Sagstillingsdalen" />
		<tag k="natural" v="valley" />
		<tag k="place" v="locality" />
		<tag k="ssr:stedsnr" v="644702" />
	</node>
	<node id="-840903" lat="63.6071055543" lon="9.70642499435">
		<tag k="name" v="Selvheia" />
		<tag k="natural" v="hill" />
		<tag k="place" v="locality" />
		<tag k="ssr:stedsnr" v="949176" />
	</node>
	<node id="-840899" lat="63.4266555568" lon="9.70417778155">
		<tag k="name" v="Granhaugen" />
		<tag k="natural" v="hill" />
		<tag k="place" v="locality" />
		<tag k="ssr:stedsnr" v="828969" />
	</node>
	<node id="-840898" lat="63.4973513086" lon="9.77025522381">
		<tag k="fixme" v="consider natural=peak for the most distinct mountains in the district" />
		<tag k="name" v="Baklia" />
		<tag k="natural" v="hill" />
		<tag k="place" v="locality" />
		<tag k="ssr:stedsnr" v="863030" />
	</node>
	<node id="-840897" lat="63.5627833378" lon="9.77785277083">
		<tag k="name" v="Alteret" />
		<tag k="natural" v="hill" />
		<tag k="place" v="locality" />
		<tag k="ssr:stedsnr" v="645138" />
	</node>
	<node id="-840896" lat="63.6068694453" lon="9.60687223178">
		<tag k="name" v="Svinryggen" />
		<tag k="natural" v="ridge" />
		<tag k="place" v="locality" />
		<tag k="ssr:stedsnr" v="342378" />
	</node>
	<node id="-840894" lat="63.5938166635" lon="9.64228333967">
		<tag k="fixme" v="consider natural=peak for the most distinct mountains in the district" />
		<tag k="name" v="Steinfjellet" />
		<tag k="natural" v="hill" />
		<tag k="place" v="locality" />
		<tag k="ssr:stedsnr" v="948738" />
	</node>
	<node id="-840891" lat="63.5160083337" lon="9.61819722172">
		<tag k="fixme" v="consider natural=peak for the most distinct mountains in the district" />
		<tag k="name" v="Steinsdalsheia" />
		<tag k="natural" v="hill" />
		<tag k="place" v="locality" />
		<tag k="ssr:stedsnr" v="256184" />
	</node>
	<node id="-840889" lat="63.5007638921" lon="9.81034999046">
		<tag k="name" v="Smådalan" />
		<tag k="natural" v="valley" />
		<tag k="place" v="locality" />
		<tag k="ssr:stedsnr" v="281252" />
	</node>
	<node id="-840887" lat="63.4840805559" lon="9.5910888903">
		<tag k="alt_name" v="Rognliheian" />
		<tag k="name" v="Rognliheia" />
		<tag k="natural" v="hill" />
		<tag k="place" v="locality" />
		<tag k="ssr:stedsnr" v="194992" />
	</node>
	<node id="-840881" lat="63.5186666697" lon="9.56740000171">
		<tag k="name" v="Seterdalen" />
		<tag k="natural" v="valley" />
		<tag k="place" v="locality" />
		<tag k="ssr:stedsnr" v="680174" />
	</node>
	<node id="-840878" lat="63.4962555556" lon="9.64379722986">
		<tag k="name" v="Herdalsbakken" />
		<tag k="natural" v="slope" />
		<tag k="place" v="locality" />
		<tag k="ssr:stedsnr" v="948726" />
	</node>
	<node id="-840874" lat="63.427897219" lon="9.73764444045">
		<tag k="name" v="Granskardbakkan" />
		<tag k="natural" v="slope" />
		<tag k="place" v="locality" />
		<tag k="ssr:stedsnr" v="645959" />
	</node>
	<node id="-840873" lat="63.4608555516" lon="9.72149444986">
		<tag k="name" v="Geitstigen" />
		<tag k="natural" v="slope" />
		<tag k="place" v="locality" />
		<tag k="ssr:stedsnr" v="220475" />
	</node>
	<node id="-840872" lat="63.4998166658" lon="9.64904443562">
		<tag k="name" v="Svartbekkslættet" />
		<tag k="place" v="locality" />
		<tag k="ssr:stedsnr" v="948727" />
	</node>
	<node id="-840868" lat="63.4422111115" lon="9.89120277591">
		<tag k="fixme" v="consider natural=peak for the most distinct mountains in the district" />
		<tag k="name" v="Klumpen" />
		<tag k="natural" v="hill" />
		<tag k="place" v="locality" />
		<tag k="ssr:stedsnr" v="38125" />
	</node>
	<node id="-840865" lat="63.5026750033" lon="9.67017222961">
		<tag k="name" v="Solemsdalen" />
		<tag k="natural" v="valley" />
		<tag k="place" v="locality" />
		<tag k="ssr:stedsnr" v="644691" />
	</node>
	<node id="-840864" lat="63.5982055559" lon="9.62358889522">
		<tag k="name" v="Musdalshaugen" />
		<tag k="natural" v="hill" />
		<tag k="place" v="locality" />
		<tag k="ssr:stedsnr" v="402305" />
	</node>
	<node id="-840863" lat="63.6075944439" lon="9.69685833808">
		<tag k="name" v="Selvskardet" />
		<tag k="natural" v="valley" />
		<tag k="place" v="locality" />
		<tag k="ssr:stedsnr" v="706156" />
	</node>
	<node id="-840862" lat="63.6164944437" lon="9.63166111677">
		<tag k="fixme" v="consider natural=peak for the most distinct mountains in the district" />
		<tag k="name" v="Reitkletten" />
		<tag k="natural" v="hill" />
		<tag k="place" v="locality" />
		<tag k="ssr:stedsnr" v="402306" />
	</node>
	<node id="-840861" lat="63.458788891" lon="9.71277500467">
		<tag k="name" v="Seterdalen" />
		<tag k="natural" v="valley" />
		<tag k="place" v="locality" />
		<tag k="ssr:stedsnr" v="767395" />
	</node>
	<node id="-840858" lat="63.611800004" lon="9.70906944591">
		<tag k="name" v="Litlgjøta" />
		<tag k="natural" v="valley" />
		<tag k="place" v="locality" />
		<tag k="ssr:stedsnr" v="706158" />
	</node>
	<node id="-840855" lat="63.4936305573" lon="9.84092222643">
		<tag k="name" v="Gaupskardet" />
		<tag k="natural" v="valley" />
		<tag k="place" v="locality" />
		<tag k="ssr:stedsnr" v="341047" />
	</node>
	<node id="-840853" lat="63.507077778" lon="9.77008333522">
		<tag k="alt_name" v="Haukåsen" />
		<tag k="fixme" v="consider natural=peak for the most distinct mountains in the district" />
		<tag k="name" v="Haugåsen" />
		<tag k="natural" v="hill" />
		<tag k="place" v="locality" />
		<tag k="ssr:stedsnr" v="862751" />
	</node>
	<node id="-840849" lat="63.4446083331" lon="9.80808888311">
		<tag k="name" v="Pikslætthaugen" />
		<tag k="natural" v="hill" />
		<tag k="place" v="locality" />
		<tag k="ssr:stedsnr" v="828547" />
	</node>
	<node id="-840848" lat="63.5448555544" lon="9.66483611415">
		<tag k="name" v="Gammelbuhola" />
		<tag k="natural" v="hill" />
		<tag k="place" v="locality" />
		<tag k="ssr:stedsnr" v="706539" />
	</node>
	<node id="-840845" lat="63.5459361133" lon="9.61027499417">
		<tag k="name" v="Bakkslættheia" />
		<tag k="natural" v="hill" />
		<tag k="place" v="locality" />
		<tag k="ssr:stedsnr" v="802181" />
	</node>
	<node id="-840843" lat="63.4459305585" lon="9.75698055244">
		<tag k="name" v="Svarttjørnlia" />
		<tag k="natural" v="slope" />
		<tag k="place" v="locality" />
		<tag k="ssr:stedsnr" v="828544" />
	</node>
	<node id="-840842" lat="63.5882027799" lon="9.64589165691">
		<tag k="name" v="Dyrgrova" />
		<tag k="natural" v="valley" />
		<tag k="place" v="locality" />
		<tag k="ssr:stedsnr" v="888640" />
	</node>
	<node id="-840837" lat="63.4979111081" lon="9.76881944493">
		<tag k="name" v="Ulkstadbaklia" />
		<tag k="natural" v="slope" />
		<tag k="place" v="locality" />
		<tag k="ssr:stedsnr" v="827280" />
	</node>
	<node id="-840835" lat="63.6280638909" lon="9.69148611589">
		<tag k="name" v="Inner Vass-skardet" />
		<tag k="natural" v="valley" />
		<tag k="place" v="locality" />
		<tag k="ssr:stedsnr" v="463295" />
	</node>
	<node id="-840832" lat="63.457341668" lon="9.82956389546">
		<tag k="name" v="Litlslættet" />
		<tag k="place" v="locality" />
		<tag k="ssr:stedsnr" v="523094" />
	</node>
	<node id="-840830" lat="63.4743361136" lon="9.83283055657">
		<tag k="name" v="Slættet" />
		<tag k="place" v="locality" />
		<tag k="ssr:stedsnr" v="888195" />
	</node>
	<node id="-840829" lat="63.4354777734" lon="9.79310834202">
		<tag k="fixme" v="consider natural=peak for the most distinct mountains in the district" />
		<tag k="name" v="Krettlihåmmåren" />
		<tag k="natural" v="hill" />
		<tag k="place" v="locality" />
		<tag k="ssr:stedsnr" v="828548" />
	</node>
	<node id="-840823" lat="63.6207027764" lon="9.61851666924">
		<tag k="name" v="Fagervollen" />
		<tag k="place" v="locality" />
		<tag k="ssr:stedsnr" v="463293" />
	</node>
	<node id="-840821" lat="63.5574120785" lon="9.62921425658">
		<tag k="fixme" v="consider natural=peak for the most distinct mountains in the district" />
		<tag k="name" v="Høgloftet" />
		<tag k="natural" v="hill" />
		<tag k="place" v="locality" />
		<tag k="ssr:stedsnr" v="316132" />
	</node>
	<node id="-840820" lat="63.5214027753" lon="9.61906666981">
		<tag k="name" v="Storlia" />
		<tag k="natural" v="slope" />
		<tag k="place" v="locality" />
		<tag k="ssr:stedsnr" v="39408" />
	</node>
	<node id="-840819" lat="63.5740500015" lon="9.67961944829">
		<tag k="name" v="Bladbakken" />
		<tag k="natural" v="slope" />
		<tag k="place" v="locality" />
		<tag k="ssr:stedsnr" v="948679" />
	</node>
	<node id="-840817" lat="63.4577666694" lon="9.75092499332">
		<tag k="fixme" v="consider natural=peak for the most distinct mountains in the district" />
		<tag k="name" v="Klumpen" />
		<tag k="natural" v="hill" />
		<tag k="place" v="locality" />
		<tag k="ssr:stedsnr" v="619064" />
	</node>
	<node id="-840815" lat="63.4714472266" lon="9.69703888196">
		<tag k="name" v="Øyangskammen" />
		<tag k="natural" v="ridge" />
		<tag k="place" v="locality" />
		<tag k="ssr:stedsnr" v="38108" />
	</node>
	<node id="-840812" lat="63.4779027813" lon="9.69873610883">
		<tag k="name" v="Ytter Bjørnaskardet" />
		<tag k="natural" v="valley" />
		<tag k="place" v="locality" />
		<tag k="ssr:stedsnr" v="38111" />
	</node>
	<node id="-840811" lat="63.5441194432" lon="9.69338612065">
		<tag k="name" v="Vassoshaugan" />
		<tag k="natural" v="hill" />
		<tag k="place" v="locality" />
		<tag k="ssr:stedsnr" v="706533" />
	</node>
	<node id="-840808" lat="63.4615999991" lon="9.71213611303">
		<tag k="fixme" v="consider natural=peak for the most distinct mountains in the district" />
		<tag k="name" v="Seterdalskleiva" />
		<tag k="natural" v="hill" />
		<tag k="place" v="locality" />
		<tag k="ssr:stedsnr" v="342371" />
	</node>
	<node id="-840807" lat="63.4338861085" lon="9.73808610952">
		<tag k="name" v="Sagholhaugan" />
		<tag k="natural" v="hill" />
		<tag k="place" v="locality" />
		<tag k="ssr:stedsnr" v="766971" />
	</node>
	<node id="-840805" lat="63.5021944457" lon="9.72021111064">
		<tag k="alt_name" v="Solemsheian" />
		<tag k="fixme" v="consider natural=peak for the most distinct mountains in the district" />
		<tag k="name" v="Solemsheia" />
		<tag k="natural" v="hill" />
		<tag k="place" v="locality" />
		<tag k="ssr:stedsnr" v="862749" />
	</node>
	<node id="-840798" lat="63.439536108" lon="9.74682778578">
		<tag k="name" v="Saglihøgda" />
		<tag k="natural" v="hill" />
		<tag k="place" v="locality" />
		<tag k="ssr:stedsnr" v="766973" />
	</node>
	<node id="-840797" lat="63.5881555535" lon="9.62710278186">
		<tag k="name" v="Liakammen" />
		<tag k="natural" v="ridge" />
		<tag k="place" v="locality" />
		<tag k="ssr:stedsnr" v="888637" />
	</node>
	<node id="-840794" lat="63.5339083303" lon="9.72239999533">
		<tag k="fixme" v="consider natural=peak for the most distinct mountains in the district" />
		<tag k="name" v="Svartdalsheia" />
		<tag k="natural" v="hill" />
		<tag k="place" v="locality" />
		<tag k="ssr:stedsnr" v="134704" />
	</node>
	<node id="-840792" lat="63.5386666707" lon="9.78230277666">
		<tag k="name" v="Svarthamran" />
		<tag k="natural" v="hill" />
		<tag k="place" v="locality" />
		<tag k="ssr:stedsnr" v="619618" />
	</node>
	<node id="-840790" lat="63.4515750031" lon="9.87963054888">
		<tag k="name" v="Grostadlia" />
		<tag k="natural" v="slope" />
		<tag k="place" v="locality" />
		<tag k="ssr:stedsnr" v="766094" />
	</node>
	<node id="-840787" lat="63.5719666683" lon="9.72421111899">
		<tag k="name" v="Furulihaugen" />
		<tag k="natural" v="hill" />
		<tag k="place" v="locality" />
		<tag k="ssr:stedsnr" v="949977" />
	</node>
	<node id="-840786" lat="63.4728750007" lon="9.87276388313">
		<tag k="name" v="Ørhaugan" />
		<tag k="natural" v="hill" />
		<tag k="place" v="locality" />
		<tag k="ssr:stedsnr" v="826002" />
	</node>
	<node id="-840785" lat="63.5402083372" lon="9.808594444">
		<tag k="name" v="Aunlia" />
		<tag k="natural" v="slope" />
		<tag k="place" v="locality" />
		<tag k="ssr:stedsnr" v="377668" />
	</node>
	<node id="-840784" lat="63.4719055549" lon="9.86555555184">
		<tag k="name" v="Benkslættet" />
		<tag k="place" v="locality" />
		<tag k="ssr:stedsnr" v="583003" />
	</node>
	<node id="-840782" lat="63.5350694446" lon="9.75000277291">
		<tag k="fixme" v="consider natural=peak for the most distinct mountains in the district" />
		<tag k="name" v="Sæterdalsheia" />
		<tag k="natural" v="hill" />
		<tag k="place" v="locality" />
		<tag k="ssr:stedsnr" v="802734" />
	</node>
	<node id="-840781" lat="63.6126861074" lon="9.68717221981">
		<tag k="fixme" v="consider natural=peak for the most distinct mountains in the district" />
		<tag k="name" v="Slottheia" />
		<tag k="natural" v="hill" />
		<tag k="place" v="locality" />
		<tag k="ssr:stedsnr" v="281224" />
	</node>
	<node id="-840775" lat="63.4218222207" lon="9.85793333373">
		<tag k="name" v="Saglia" />
		<tag k="natural" v="slope" />
		<tag k="place" v="locality" />
		<tag k="ssr:stedsnr" v="159556" />
	</node>
	<node id="-840773" lat="63.5320361105" lon="9.66608333032">
		<tag k="name" v="Størdalen" />
		<tag k="natural" v="valley" />
		<tag k="place" v="locality" />
		<tag k="ssr:stedsnr" v="680156" />
	</node>
	<node id="-840772" lat="63.4275055556" lon="9.76941666136">
		<tag k="name" v="Skjeldbreia" />
		<tag k="natural" v="slope" />
		<tag k="place" v="locality" />
		<tag k="ssr:stedsnr" v="403549" />
	</node>
	<node id="-840768" lat="63.4797499987" lon="9.8151027846">
		<tag k="fixme" v="consider natural=peak for the most distinct mountains in the district" />
		<tag k="name" v="Merradalsknubben" />
		<tag k="natural" v="hill" />
		<tag k="place" v="locality" />
		<tag k="ssr:stedsnr" v="220443" />
	</node>
	<node id="-840767" lat="63.6060222201" lon="9.65408889104">
		<tag k="name" v="Litlutangsberget" />
		<tag k="natural" v="hill" />
		<tag k="place" v="locality" />
		<tag k="ssr:stedsnr" v="584313" />
	</node>
	<node id="-840764" lat="63.5136416662" lon="9.71375554562">
		<tag k="name" v="Litlheia" />
		<tag k="natural" v="slope" />
		<tag k="place" v="locality" />
		<tag k="ssr:stedsnr" v="645935" />
	</node>
	<node id="-840762" lat="63.5299416697" lon="9.67409721278">
		<tag k="name" v="Tokanbakken" />
		<tag k="natural" v="slope" />
		<tag k="place" v="locality" />
		<tag k="ssr:stedsnr" v="705699" />
	</node>
	<node id="-840758" lat="63.5060222228" lon="9.59761665712">
		<tag k="name" v="Mossåholdalen" />
		<tag k="natural" v="valley" />
		<tag k="place" v="locality" />
		<tag k="ssr:stedsnr" v="766087" />
	</node>
	<node id="-840755" lat="63.5669638874" lon="9.6328083304">
		<tag k="name" v="Bjørnalihaugen" />
		<tag k="natural" v="hill" />
		<tag k="place" v="locality" />
		<tag k="ssr:stedsnr" v="948696" />
	</node>
	<node id="-840749" lat="63.4698722231" lon="9.84681111862">
		<tag k="name" v="Urden" />
		<tag k="natural" v="slope" />
		<tag k="place" v="locality" />
		<tag k="ssr:stedsnr" v="583011" />
	</node>
	<node id="-840748" lat="63.4456777805" lon="9.76619722266">
		<tag k="name" v="Groven" />
		<tag k="natural" v="slope" />
		<tag k="place" v="locality" />
		<tag k="ssr:stedsnr" v="706543" />
	</node>
	<node id="-840747" lat="63.5155194421" lon="9.62818055825">
		<tag k="name" v="Steinsdalsheia" />
		<tag k="natural" v="hill" />
		<tag k="place" v="locality" />
		<tag k="ssr:stedsnr" v="644668" />
	</node>
	<node id="-840744" lat="63.6185638917" lon="9.60888888869">
		<tag k="name" v="Telegrafhaugen" />
		<tag k="natural" v="hill" />
		<tag k="place" v="locality" />
		<tag k="ssr:stedsnr" v="463287" />
	</node>
	<node id="-840742" lat="63.5465750038" lon="9.65947500433">
		<tag k="name" v="Oksholheian" />
		<tag k="natural" v="hill" />
		<tag k="place" v="locality" />
		<tag k="ssr:stedsnr" v="403556" />
	</node>
	<node id="-840739" lat="63.4860611147" lon="9.76161945133">
		<tag k="name" v="Brannan" />
		<tag k="natural" v="slope" />
		<tag k="place" v="locality" />
		<tag k="ssr:stedsnr" v="38092" />
	</node>
	<node id="-840737" lat="63.6134805562" lon="9.73175276865">
		<tag k="fixme" v="consider natural=peak for the most distinct mountains in the district" />
		<tag k="name" v="Hambåråsen" />
		<tag k="natural" v="hill" />
		<tag k="place" v="locality" />
		<tag k="ssr:stedsnr" v="827286" />
	</node>
	<node id="-840736" lat="63.6192611119" lon="9.61676944212">
		<tag k="fixme" v="consider natural=peak for the most distinct mountains in the district" />
		<tag k="name" v="Storportfjellet" />
		<tag k="natural" v="hill" />
		<tag k="place" v="locality" />
		<tag k="ssr:stedsnr" v="13095" />
	</node>
	<node id="-840733" lat="63.5774166683" lon="9.76238054774">
		<tag k="name" v="Storkammen" />
		<tag k="natural" v="hill" />
		<tag k="place" v="locality" />
		<tag k="ssr:stedsnr" v="706132" />
	</node>
	<node id="-842659" lat="63.445388889" lon="9.80551111282">
		<tag k="name" v="Tuvhaugen" />
		<tag k="natural" v="hill" />
		<tag k="place" v="locality" />
		<tag k="ssr:stedsnr" v="949528" />
	</node>
	<node id="-842657" lat="63.5904333293" lon="9.67276945038">
		<tag k="name" v="Gaddholet" />
		<tag k="natural" v="valley" />
		<tag k="place" v="locality" />
		<tag k="ssr:stedsnr" v="827706" />
	</node>
	<node id="-842656" lat="63.4245055592" lon="9.73694443662">
		<tag k="name" v="Granskarda" />
		<tag k="natural" v="valley" />
		<tag k="place" v="locality" />
		<tag k="ssr:stedsnr" v="828913" />
	</node>
	<node id="-842654" lat="63.4732666697" lon="9.61432499641">
		<tag k="fixme" v="consider natural=peak for the most distinct mountains in the district" />
		<tag k="name" v="Dyrstien" />
		<tag k="natural" v="hill" />
		<tag k="place" v="locality" />
		<tag k="ssr:stedsnr" v="497973" />
	</node>
	<node id="-842653" lat="63.4399777806" lon="9.80122778528">
		<tag k="name" v="Storlia" />
		<tag k="natural" v="slope" />
		<tag k="place" v="locality" />
		<tag k="ssr:stedsnr" v="949530" />
	</node>
	<node id="-842649" lat="63.5086111129" lon="9.75640276989">
		<tag k="fixme" v="consider natural=peak for the most distinct mountains in the district" />
		<tag k="name" v="Mehaugåsen" />
		<tag k="natural" v="hill" />
		<tag k="place" v="locality" />
		<tag k="ssr:stedsnr" v="402261" />
	</node>
	<node id="-842643" lat="63.4737583358" lon="9.72340277799">
		<tag k="name" v="Bjørnstadhaugan" />
		<tag k="natural" v="hill" />
		<tag k="place" v="locality" />
		<tag k="ssr:stedsnr" v="159096" />
	</node>
	<node id="-842640" lat="63.4762111154" lon="9.73614444694">
		<tag k="name" v="Høybuhaugen" />
		<tag k="natural" v="hill" />
		<tag k="place" v="locality" />
		<tag k="ssr:stedsnr" v="159093" />
	</node>
	<node id="-842637" lat="63.5988527815" lon="9.68195834184">
		<tag k="fixme" v="consider natural=peak for the most distinct mountains in the district" />
		<tag k="name" v="Tverrhoggaksla" />
		<tag k="natural" v="hill" />
		<tag k="place" v="locality" />
		<tag k="ssr:stedsnr" v="741128" />
	</node>
	<node id="-842636" lat="63.5823361082" lon="9.66636944293">
		<tag k="name" v="Hjertlia" />
		<tag k="natural" v="slope" />
		<tag k="place" v="locality" />
		<tag k="ssr:stedsnr" v="827708" />
	</node>
	<node id="-842635" lat="63.6075444429" lon="9.73869166844">
		<tag k="name" v="Skredalen" />
		<tag k="natural" v="valley" />
		<tag k="place" v="locality" />
		<tag k="ssr:stedsnr" v="888158" />
	</node>
	<node id="-842632" lat="63.5363999996" lon="9.71071944673">
		<tag k="name" v="Tåghaugen" />
		<tag k="natural" v="hill" />
		<tag k="place" v="locality" />
		<tag k="ssr:stedsnr" v="403927" />
	</node>
	<node id="-842624" lat="63.6346555574" lon="9.69696388168">
		<tag k="name" v="Lågja" />
		<tag k="natural" v="valley" />
		<tag k="place" v="locality" />
		<tag k="ssr:stedsnr" v="99322" />
	</node>
	<node id="-842618" lat="63.4971174502" lon="9.77163667016">
		<tag k="fixme" v="consider natural=peak for the most distinct mountains in the district" />
		<tag k="name" v="Ulkstadhaugen" />
		<tag k="natural" v="hill" />
		<tag k="place" v="locality" />
		<tag k="ssr:stedsnr" v="402262" />
	</node>
	<node id="-842617" lat="63.5919361093" lon="9.66786666163">
		<tag k="name" v="Smidalen" />
		<tag k="natural" v="valley" />
		<tag k="place" v="locality" />
		<tag k="ssr:stedsnr" v="741124" />
	</node>
	<node id="-842614" lat="63.6413472202" lon="9.72269444805">
		<tag k="name" v="Oterklipa" />
		<tag k="natural" v="valley" />
		<tag k="place" v="locality" />
		<tag k="ssr:stedsnr" v="766042" />
	</node>
	<node id="-842612" lat="63.5199138848" lon="9.77691388949">
		<tag k="name" v="Grønsløgda" />
		<tag k="natural" v="slope" />
		<tag k="place" v="locality" />
		<tag k="ssr:stedsnr" v="280336" />
	</node>
	<node id="-842608" lat="63.4133722237" lon="9.76152222208">
		<tag k="name" v="Styggholhaugan" />
		<tag k="natural" v="hill" />
		<tag k="place" v="locality" />
		<tag k="ssr:stedsnr" v="828910" />
	</node>
	<node id="-842606" lat="63.5486555587" lon="9.72217499509">
		<tag k="name" v="Lykkjhaugen" />
		<tag k="natural" v="hill" />
		<tag k="place" v="locality" />
		<tag k="ssr:stedsnr" v="706927" />
	</node>
	<node id="-842604" lat="63.468966671" lon="9.6177472171">
		<tag k="name" v="Mossåholet" />
		<tag k="natural" v="valley" />
		<tag k="place" v="locality" />
		<tag k="ssr:stedsnr" v="524411" />
	</node>
	<node id="-842602" lat="63.4480166639" lon="9.82462778723">
		<tag k="name" v="Kollheiholet" />
		<tag k="natural" v="valley" />
		<tag k="place" v="locality" />
		<tag k="ssr:stedsnr" v="523071" />
	</node>
	<node id="-842601" lat="63.5758638929" lon="9.66934444865">
		<tag k="alt_name" v="Hjertlikammen" />
		<tag k="fixme" v="consider natural=peak for the most distinct mountains in the district" />
		<tag k="name" v="Hjertkammen" />
		<tag k="natural" v="hill" />
		<tag k="place" v="locality" />
		<tag k="ssr:stedsnr" v="741137" />
	</node>
	<node id="-842600" lat="63.5023972221" lon="9.56339166224">
		<tag k="fixme" v="consider natural=peak for the most distinct mountains in the district" />
		<tag k="name" v="Kvithunden" />
		<tag k="natural" v="hill" />
		<tag k="place" v="locality" />
		<tag k="ssr:stedsnr" v="949124" />
	</node>
	<node id="-842597" lat="63.5972805589" lon="9.74888054691">
		<tag k="name" v="Brattlia" />
		<tag k="natural" v="slope" />
		<tag k="place" v="locality" />
		<tag k="ssr:stedsnr" v="802969" />
	</node>
	<node id="-842593" lat="63.5087555543" lon="9.81896666329">
		<tag k="name" v="Kleivberga" />
		<tag k="natural" v="hill" />
		<tag k="place" v="locality" />
		<tag k="ssr:stedsnr" v="341005" />
	</node>
	<node id="-842591" lat="63.4718916662" lon="9.6601222176">
		<tag k="name" v="Hoøyholet" />
		<tag k="natural" v="valley" />
		<tag k="place" v="locality" />
		<tag k="ssr:stedsnr" v="160385" />
	</node>
	<node id="-842590" lat="63.6070972256" lon="9.7407583257">
		<tag k="name" v="Skrea" />
		<tag k="natural" v="slope" />
		<tag k="place" v="locality" />
		<tag k="ssr:stedsnr" v="281196" />
	</node>
	<node id="-842588" lat="63.4643722219" lon="9.82711389252">
		<tag k="name" v="Hestlihaugen" />
		<tag k="natural" v="hill" />
		<tag k="place" v="locality" />
		<tag k="ssr:stedsnr" v="766066" />
	</node>
	<node id="-842587" lat="63.4442805573" lon="9.65732499719">
		<tag k="name" v="Småskarda" />
		<tag k="natural" v="valley" />
		<tag k="place" v="locality" />
		<tag k="ssr:stedsnr" v="38999" />
	</node>
	<node id="-842586" lat="63.4377361124" lon="9.89671943849">
		<tag k="name" v="Englian" />
		<tag k="natural" v="slope" />
		<tag k="place" v="locality" />
		<tag k="ssr:stedsnr" v="706116" />
	</node>
	<node id="-842584" lat="63.4306999963" lon="9.76938055096">
		<tag k="name" v="Litlknubben" />
		<tag k="natural" v="hill" />
		<tag k="place" v="locality" />
		<tag k="ssr:stedsnr" v="828532" />
	</node>
	<node id="-842579" lat="63.4894972203" lon="9.76787499024">
		<tag k="name" v="Skavlia" />
		<tag k="natural" v="slope" />
		<tag k="place" v="locality" />
		<tag k="ssr:stedsnr" v="220428" />
	</node>
	<node id="-842578" lat="63.4401472255" lon="9.90847500223">
		<tag k="name" v="Plasshaugen" />
		<tag k="natural" v="hill" />
		<tag k="place" v="locality" />
		<tag k="ssr:stedsnr" v="706111" />
	</node>
	<node id="-842577" lat="63.6018611144" lon="9.54678056028">
		<tag k="name" v="Rishaugmoen" />
		<tag k="natural" v="slope" />
		<tag k="place" v="locality" />
		<tag k="ssr:stedsnr" v="281657" />
	</node>
	<node id="-842576" lat="63.6185499984" lon="9.62576111271">
		<tag k="fixme" v="consider natural=peak for the most distinct mountains in the district" />
		<tag k="name" v="Litlportfjellet" />
		<tag k="natural" v="hill" />
		<tag k="place" v="locality" />
		<tag k="ssr:stedsnr" v="463249" />
	</node>
	<node id="-842573" lat="63.5722305513" lon="9.68206945436">
		<tag k="name" v="Baklia" />
		<tag k="natural" v="slope" />
		<tag k="place" v="locality" />
		<tag k="ssr:stedsnr" v="948677" />
	</node>
	<node id="-842572" lat="63.5914194424" lon="9.63939999506">
		<tag k="fixme" v="consider natural=peak for the most distinct mountains in the district" />
		<tag k="name" v="Steinfjellet" />
		<tag k="natural" v="hill" />
		<tag k="place" v="locality" />
		<tag k="ssr:stedsnr" v="741136" />
	</node>
	<node id="-842568" lat="63.4729833367" lon="9.89175832926">
		<tag k="name" v="Vorphaugen" />
		<tag k="natural" v="hill" />
		<tag k="place" v="locality" />
		<tag k="ssr:stedsnr" v="523051" />
	</node>
	<node id="-842566" lat="63.6199083348" lon="9.63795278611">
		<tag k="name" v="Rundhaugen" />
		<tag k="natural" v="hill" />
		<tag k="place" v="locality" />
		<tag k="ssr:stedsnr" v="584284" />
	</node>
	<node id="-842565" lat="63.473808329" lon="9.61403610337">
		<tag k="name" v="Dyrstilia" />
		<tag k="natural" v="slope" />
		<tag k="place" v="locality" />
		<tag k="ssr:stedsnr" v="160390" />
	</node>
	<node id="-842564" lat="63.5732694406" lon="9.66114167387">
		<tag k="name" v="Hjarta" />
		<tag k="natural" v="slope" />
		<tag k="place" v="locality" />
		<tag k="ssr:stedsnr" v="705670" />
	</node>
	<node id="-842563" lat="63.5848333299" lon="9.61971944148">
		<tag k="name" v="Fossberget" />
		<tag k="natural" v="hill" />
		<tag k="place" v="locality" />
		<tag k="ssr:stedsnr" v="281669" />
	</node>
	<node id="-842562" lat="63.6152749993" lon="9.68386943648">
		<tag k="name" v="Handhavet" />
		<tag k="natural" v="valley" />
		<tag k="place" v="locality" />
		<tag k="ssr:stedsnr" v="221286" />
	</node>
	<node id="-842560" lat="63.4375861069" lon="9.66673888996">
		<tag k="fixme" v="consider natural=peak for the most distinct mountains in the district" />
		<tag k="name" v="Lodvikfjellet" />
		<tag k="natural" v="hill" />
		<tag k="place" v="locality" />
		<tag k="ssr:stedsnr" v="949943" />
	</node>
	<node id="-842559" lat="63.5682805567" lon="9.29938332696">
		<tag k="name" v="Jøtuldalskallen" />
		<tag k="natural" v="hill" />
		<tag k="place" v="locality" />
		<tag k="ssr:stedsnr" v="316108" />
	</node>
	<node id="-842553" lat="63.4969111133" lon="9.69935000477">
		<tag k="fixme" v="consider natural=peak for the most distinct mountains in the district" />
		<tag k="name" v="Kollheia" />
		<tag k="natural" v="hill" />
		<tag k="place" v="locality" />
		<tag k="ssr:stedsnr" v="679873" />
	</node>
	<node id="-842552" lat="63.438963887" lon="9.77522499649">
		<tag k="name" v="Ryplia" />
		<tag k="natural" v="slope" />
		<tag k="place" v="locality" />
		<tag k="ssr:stedsnr" v="706519" />
	</node>
	<node id="-842547" lat="63.5518944472" lon="9.80221387992">
		<tag k="name" v="Selneslia" />
		<tag k="natural" v="slope" />
		<tag k="place" v="locality" />
		<tag k="ssr:stedsnr" v="280325" />
	</node>
	<node id="-842545" lat="63.4959972207" lon="9.80760832899">
		<tag k="name" v="Langfall-lia" />
		<tag k="natural" v="slope" />
		<tag k="place" v="locality" />
		<tag k="ssr:stedsnr" v="827259" />
	</node>
	<node id="-842544" lat="63.464624998" lon="9.86487778434">
		<tag k="name" v="Revurden" />
		<tag k="natural" v="hill" />
		<tag k="place" v="locality" />
		<tag k="ssr:stedsnr" v="38061" />
	</node>
	<node id="-842542" lat="63.4845138896" lon="9.58145555425">
		<tag k="name" v="Brattstigen" />
		<tag k="natural" v="slope" />
		<tag k="place" v="locality" />
		<tag k="ssr:stedsnr" v="949121" />
	</node>
	<node id="-842537" lat="63.4396361152" lon="9.76815833931">
		<tag k="name" v="Sannerdalslia" />
		<tag k="natural" v="slope" />
		<tag k="place" v="locality" />
		<tag k="ssr:stedsnr" v="828529" />
	</node>
	<node id="-842535" lat="63.5964333323" lon="9.72140554818">
		<tag k="fixme" v="consider natural=peak for the most distinct mountains in the district" />
		<tag k="name" v="Kallurddalsheia" />
		<tag k="natural" v="hill" />
		<tag k="place" v="locality" />
		<tag k="ssr:stedsnr" v="802967" />
	</node>
	<node id="-842528" lat="63.3990416643" lon="9.7813972239">
		<tag k="name" v="Håvårdsdalslia" />
		<tag k="natural" v="slope" />
		<tag k="place" v="locality" />
		<tag k="ssr:stedsnr" v="281648" />
	</node>
	<node id="-842527" lat="63.6328666677" lon="9.7158333398">
		<tag k="fixme" v="consider natural=peak for the most distinct mountains in the district" />
		<tag k="name" v="Ormhaugfjellet" />
		<tag k="natural" v="hill" />
		<tag k="place" v="locality" />
		<tag k="ssr:stedsnr" v="255078" />
	</node>
	<node id="-842523" lat="63.3936333329" lon="9.79465832424">
		<tag k="fixme" v="consider natural=peak for the most distinct mountains in the district" />
		<tag k="name" v="Håvårdsdalsnasen" />
		<tag k="natural" v="hill" />
		<tag k="place" v="locality" />
		<tag k="ssr:stedsnr" v="281646" />
	</node>
	<node id="-842520" lat="63.4438888885" lon="9.8648055603">
		<tag k="name" v="Granlia" />
		<tag k="natural" v="slope" />
		<tag k="place" v="locality" />
		<tag k="ssr:stedsnr" v="888137" />
	</node>
	<node id="-842519" lat="63.4441944472" lon="9.83711944667">
		<tag k="name" v="Storlibaklia" />
		<tag k="natural" v="slope" />
		<tag k="place" v="locality" />
		<tag k="ssr:stedsnr" v="281182" />
	</node>
	<node id="-842515" lat="63.518044444" lon="9.75417223023">
		<tag k="name" v="Tverradalen" />
		<tag k="natural" v="valley" />
		<tag k="place" v="locality" />
		<tag k="ssr:stedsnr" v="220411" />
	</node>
	<node id="-842512" lat="63.4402999989" lon="9.87921667473">
		<tag k="name" v="Dyrgrova" />
		<tag k="natural" v="valley" />
		<tag k="place" v="locality" />
		<tag k="ssr:stedsnr" v="888139" />
	</node>
	<node id="-842511" lat="63.5769583332" lon="9.70798333799">
		<tag k="fixme" v="consider natural=peak for the most distinct mountains in the district" />
		<tag k="name" v="Jerpholklumpen" />
		<tag k="natural" v="hill" />
		<tag k="place" v="locality" />
		<tag k="ssr:stedsnr" v="887700" />
	</node>
	<node id="-842510" lat="63.5509916643" lon="9.77006666147">
		<tag k="name" v="Rolidalen" />
		<tag k="natural" v="valley" />
		<tag k="place" v="locality" />
		<tag k="ssr:stedsnr" v="342315" />
	</node>
	<node id="-842508" lat="63.5758305541" lon="9.74056111563">
		<tag k="name" v="Skardhaugan" />
		<tag k="natural" v="hill" />
		<tag k="place" v="locality" />
		<tag k="ssr:stedsnr" v="741637" />
	</node>
	<node id="-842507" lat="63.6398166691" lon="9.74402222157">
		<tag k="name" v="Raudhammaren" />
		<tag k="natural" v="hill" />
		<tag k="place" v="locality" />
		<tag k="ssr:stedsnr" v="342312" />
	</node>
	<node id="-842506" lat="63.5770388882" lon="9.76150000805">
		<tag k="name" v="Kammen" />
		<tag k="natural" v="hill" />
		<tag k="place" v="locality" />
		<tag k="ssr:stedsnr" v="741638" />
	</node>
	<node id="-842505" lat="63.5407166644" lon="9.73225000505">
		<tag k="name" v="Seterdalen" />
		<tag k="natural" v="valley" />
		<tag k="place" v="locality" />
		<tag k="ssr:stedsnr" v="766921" />
	</node>
	<node id="-842503" lat="63.4349694464" lon="9.86937777915">
		<tag k="fixme" v="consider natural=peak for the most distinct mountains in the district" />
		<tag k="name" v="Svarttjørnåsen" />
		<tag k="natural" v="hill" />
		<tag k="place" v="locality" />
		<tag k="ssr:stedsnr" v="281178" />
	</node>
	<node id="-842501" lat="63.4576777784" lon="9.77503612014">
		<tag k="name" v="Heian" />
		<tag k="natural" v="hill" />
		<tag k="place" v="locality" />
		<tag k="ssr:stedsnr" v="645870" />
	</node>
	<node id="-842499" lat="63.5381194401" lon="9.72969999294">
		<tag k="name" v="Bengshollia" />
		<tag k="natural" v="slope" />
		<tag k="place" v="locality" />
		<tag k="ssr:stedsnr" v="766915" />
	</node>
	<node id="-842497" lat="63.4737999958" lon="9.83538332591">
		<tag k="name" v="Slætthaugen" />
		<tag k="natural" v="hill" />
		<tag k="place" v="locality" />
		<tag k="ssr:stedsnr" v="402236" />
	</node>
	<node id="-842489" lat="63.4942000023" lon="9.67861389698">
		<tag k="name" v="Solemsheian" />
		<tag k="natural" v="hill" />
		<tag k="place" v="locality" />
		<tag k="ssr:stedsnr" v="402701" />
	</node>
	<node id="-842488" lat="63.5528388888" lon="9.79015278328">
		<tag k="name" v="Tverrlia" />
		<tag k="natural" v="slope" />
		<tag k="place" v="locality" />
		<tag k="ssr:stedsnr" v="342323" />
	</node>
	<node id="-842485" lat="63.481741671" lon="9.85403056448">
		<tag k="name" v="Nordlia" />
		<tag k="natural" v="slope" />
		<tag k="place" v="locality" />
		<tag k="ssr:stedsnr" v="766020" />
	</node>
	<node id="-842484" lat="63.5604916711" lon="9.65072777151">
		<tag k="name" v="Høgloftet" />
		<tag k="natural" v="hill" />
		<tag k="place" v="locality" />
		<tag k="ssr:stedsnr" v="281653" />
	</node>
	<node id="-842479" lat="63.4633888909" lon="9.64239999568">
		<tag k="fixme" v="consider natural=peak for the most distinct mountains in the district" />
		<tag k="name" v="Raudlikammen" />
		<tag k="natural" v="hill" />
		<tag k="place" v="locality" />
		<tag k="ssr:stedsnr" v="558962" />
	</node>
	<node id="-842476" lat="63.5394222241" lon="9.80234999002">
		<tag k="fixme" v="consider natural=peak for the most distinct mountains in the district" />
		<tag k="name" v="Middagsvarden" />
		<tag k="natural" v="hill" />
		<tag k="place" v="locality" />
		<tag k="ssr:stedsnr" v="342319" />
	</node>
	<node id="-842475" lat="63.4734277779" lon="9.84679443877">
		<tag k="name" v="Middagsskardet" />
		<tag k="natural" v="valley" />
		<tag k="place" v="locality" />
		<tag k="ssr:stedsnr" v="766016" />
	</node>
	<node id="-842473" lat="63.428563887" lon="9.86769167428">
		<tag k="name" v="Seterbekkdalen" />
		<tag k="natural" v="valley" />
		<tag k="place" v="locality" />
		<tag k="ssr:stedsnr" v="888134" />
	</node>
	<node id="-842470" lat="63.5673416626" lon="9.79145276915">
		<tag k="name" v="Båthaugen" />
		<tag k="natural" v="hill" />
		<tag k="place" v="locality" />
		<tag k="ssr:stedsnr" v="402234" />
	</node>
	<node id="-842467" lat="63.4365166663" lon="9.84711667568">
		<tag k="alt_name" v="Fuggelleikåsen" />
		<tag k="fixme" v="consider natural=peak for the most distinct mountains in the district" />
		<tag k="name" v="Fuglleikåsen" />
		<tag k="natural" v="hill" />
		<tag k="place" v="locality" />
		<tag k="ssr:stedsnr" v="741120" />
	</node>
	<node id="-842466" lat="63.4263750039" lon="9.82533888113">
		<tag k="name" v="Buttelskjøvlia" />
		<tag k="natural" v="slope" />
		<tag k="place" v="locality" />
		<tag k="ssr:stedsnr" v="888151" />
	</node>
	<node id="-842460" lat="63.4974277795" lon="9.84235278735">
		<tag k="name" v="Granåshaugen" />
		<tag k="natural" v="hill" />
		<tag k="place" v="locality" />
		<tag k="ssr:stedsnr" v="159049" />
	</node>
	<node id="-842458" lat="63.4408194415" lon="9.83610000938">
		<tag k="name" v="Fabolia" />
		<tag k="natural" v="slope" />
		<tag k="place" v="locality" />
		<tag k="ssr:stedsnr" v="888150" />
	</node>
	<node id="-842456" lat="63.4947611119" lon="9.84306665671">
		<tag k="name" v="Hagaskardet" />
		<tag k="natural" v="valley" />
		<tag k="place" v="locality" />
		<tag k="ssr:stedsnr" v="766039" />
	</node>
	<node id="-842448" lat="63.4601833308" lon="9.72961111356">
		<tag k="name" v="Granen" />
		<tag k="natural" v="slope" />
		<tag k="place" v="locality" />
		<tag k="ssr:stedsnr" v="523485" />
	</node>
	<node id="-842447" lat="63.5446611102" lon="9.77386944681">
		<tag k="name" v="Tollhaugan" />
		<tag k="natural" v="hill" />
		<tag k="place" v="locality" />
		<tag k="ssr:stedsnr" v="220395" />
	</node>
	<node id="-842444" lat="63.5386944423" lon="9.74317222128">
		<tag k="name" v="Seterdalsheia" />
		<tag k="natural" v="hill" />
		<tag k="place" v="locality" />
		<tag k="ssr:stedsnr" v="706922" />
	</node>
	<node id="-842443" lat="63.5841972264" lon="9.53306111857">
		<tag k="name" v="Kleivan" />
		<tag k="natural" v="slope" />
		<tag k="place" v="locality" />
		<tag k="ssr:stedsnr" v="402675" />
	</node>
	<node id="-842440" lat="63.4939777822" lon="9.77712778343">
		<tag k="name" v="Ulkstadlia" />
		<tag k="natural" v="slope" />
		<tag k="place" v="locality" />
		<tag k="ssr:stedsnr" v="584258" />
	</node>
	<node id="-842438" lat="63.5899416647" lon="9.57798889771">
		<tag k="fixme" v="consider natural=peak for the most distinct mountains in the district" />
		<tag k="name" v="Gravvikheia" />
		<tag k="natural" v="hill" />
		<tag k="place" v="locality" />
		<tag k="ssr:stedsnr" v="316091" />
	</node>
	<node id="-842435" lat="63.476880558" lon="9.5876361101">
		<tag k="fixme" v="consider natural=peak for the most distinct mountains in the district" />
		<tag k="name" v="Prekstolen" />
		<tag k="natural" v="hill" />
		<tag k="place" v="locality" />
		<tag k="ssr:stedsnr" v="38501" />
	</node>
	<node id="-842431" lat="63.4757277821" lon="9.60412778753">
		<tag k="name" v="Kjekkelslættet" />
		<tag k="natural" v="slope" />
		<tag k="place" v="locality" />
		<tag k="ssr:stedsnr" v="38500" />
	</node>
	<node id="-842430" lat="63.5251638894" lon="9.56091666934">
		<tag k="fixme" v="consider natural=peak for the most distinct mountains in the district" />
		<tag k="name" v="Urdskammen" />
		<tag k="natural" v="hill" />
		<tag k="place" v="locality" />
		<tag k="ssr:stedsnr" v="498203" />
	</node>
	<node id="-842429" lat="63.4707583304" lon="9.88329166146">
		<tag k="fixme" v="consider natural=peak for the most distinct mountains in the district" />
		<tag k="name" v="Tømmerhaugen" />
		<tag k="natural" v="hill" />
		<tag k="place" v="locality" />
		<tag k="ssr:stedsnr" v="38037" />
	</node>
	<node id="-842428" lat="63.6225611132" lon="9.66019166291">
		<tag k="name" v="Varvikskardet" />
		<tag k="natural" v="valley" />
		<tag k="place" v="locality" />
		<tag k="ssr:stedsnr" v="99278" />
	</node>
	<node id="-842427" lat="63.4530388873" lon="9.70937777861">
		<tag k="name" v="Graslia" />
		<tag k="natural" v="slope" />
		<tag k="place" v="locality" />
		<tag k="ssr:stedsnr" v="160354" />
	</node>
	<node id="-842426" lat="63.4401666673" lon="9.86095555443">
		<tag k="name" v="Negardshaugen" />
		<tag k="natural" v="hill" />
		<tag k="place" v="locality" />
		<tag k="ssr:stedsnr" v="281174" />
	</node>
	<node id="-842420" lat="63.64560278" lon="9.73293888263">
		<tag k="name" v="Agdeneshaugen" />
		<tag k="natural" v="hill" />
		<tag k="place" v="locality" />
		<tag k="ssr:stedsnr" v="766028" />
	</node>
	<node id="-842417" lat="63.4472611088" lon="9.86399443773">
		<tag k="fixme" v="consider natural=peak for the most distinct mountains in the district" />
		<tag k="name" v="Olderstigen" />
		<tag k="natural" v="hill" />
		<tag k="place" v="locality" />
		<tag k="ssr:stedsnr" v="281172" />
	</node>
	<node id="-842416" lat="63.5856944483" lon="9.61988611324">
		<tag k="name" v="Donnalia" />
		<tag k="natural" v="slope" />
		<tag k="place" v="locality" />
		<tag k="ssr:stedsnr" v="402681" />
	</node>
	<node id="-842415" lat="63.4534194404" lon="9.89127222522">
		<tag k="name" v="Steindalen" />
		<tag k="natural" v="valley" />
		<tag k="place" v="locality" />
		<tag k="ssr:stedsnr" v="159043" />
	</node>
	<node id="-842414" lat="63.6118527765" lon="9.60714166316">
		<tag k="name" v="Kjørarskardet" />
		<tag k="natural" v="valley" />
		<tag k="place" v="locality" />
		<tag k="ssr:stedsnr" v="524372" />
	</node>
	<node id="-842412" lat="63.4216972211" lon="9.78373888025">
		<tag k="name" v="Kvernhuslia" />
		<tag k="natural" v="slope" />
		<tag k="place" v="locality" />
		<tag k="ssr:stedsnr" v="766891" />
	</node>
	<node id="-842411" lat="63.6219611105" lon="9.71228610498">
		<tag k="name" v="Buskardet" />
		<tag k="natural" v="valley" />
		<tag k="place" v="locality" />
		<tag k="ssr:stedsnr" v="342307" />
	</node>
	<node id="-842409" lat="63.560180556" lon="9.7656194441">
		<tag k="alt_name" v="Nordåsen" />
		<tag k="fixme" v="consider natural=peak for the most distinct mountains in the district" />
		<tag k="name" v="Åsen" />
		<tag k="natural" v="hill" />
		<tag k="place" v="locality" />
		<tag k="ssr:stedsnr" v="438168" />
	</node>
	<node id="-842406" lat="63.4599305566" lon="9.80734166256">
		<tag k="name" v="Knutslættet" />
		<tag k="place" v="locality" />
		<tag k="ssr:stedsnr" v="949884" />
	</node>
	<node id="-842405" lat="63.6216305592" lon="9.68237500298">
		<tag k="name" v="Skottaberget" />
		<tag k="natural" v="hill" />
		<tag k="place" v="locality" />
		<tag k="ssr:stedsnr" v="221255" />
	</node>
	<node id="-842404" lat="63.6218416641" lon="9.72795834031">
		<tag k="name" v="Oterholet" />
		<tag k="natural" v="slope" />
		<tag k="place" v="locality" />
		<tag k="ssr:stedsnr" v="220379" />
	</node>
	<node id="-842403" lat="63.5024027762" lon="9.67744167062">
		<tag k="name" v="Solemsdalen" />
		<tag k="natural" v="valley" />
		<tag k="place" v="locality" />
		<tag k="ssr:stedsnr" v="266864" />
	</node>
	<node id="-842401" lat="63.5761555599" lon="9.6366222311">
		<tag k="name" v="Bjørnadalen" />
		<tag k="natural" v="valley" />
		<tag k="place" v="locality" />
		<tag k="ssr:stedsnr" v="584685" />
	</node>
	<node id="-842400" lat="63.478727775" lon="9.82914166612">
		<tag k="fixme" v="consider natural=peak for the most distinct mountains in the district" />
		<tag k="name" v="Kalvhaugan" />
		<tag k="natural" v="hill" />
		<tag k="place" v="locality" />
		<tag k="ssr:stedsnr" v="463208" />
	</node>
	<node id="-842399" lat="63.5756138887" lon="9.63125833921">
		<tag k="fixme" v="consider natural=peak for the most distinct mountains in the district" />
		<tag k="name" v="Bjørnadalsheia" />
		<tag k="natural" v="hill" />
		<tag k="place" v="locality" />
		<tag k="ssr:stedsnr" v="584686" />
	</node>
	<node id="-842398" lat="63.4544500025" lon="9.79378333062">
		<tag k="name" v="Magnelslættet" />
		<tag k="place" v="locality" />
		<tag k="ssr:stedsnr" v="949886" />
	</node>
	<node id="-842397" lat="63.5029416695" lon="9.82442223037">
		<tag k="name" v="Kråkhaugen" />
		<tag k="natural" v="hill" />
		<tag k="place" v="locality" />
		<tag k="ssr:stedsnr" v="523010" />
	</node>
	<node id="-842396" lat="63.5984583338" lon="9.69751111012">
		<tag k="name" v="Vesterfjella" />
		<tag k="natural" v="mountain_range" />
		<tag k="ssr:stedsnr" v="402200" />
	</node>
	<node id="-842394" lat="63.5910499968" lon="9.75095277473">
		<tag k="fixme" v="consider natural=peak for the most distinct mountains in the district" />
		<tag k="name" v="Gåsahaugan" />
		<tag k="natural" v="hill" />
		<tag k="place" v="locality" />
		<tag k="ssr:stedsnr" v="827187" />
	</node>
	<node id="-842392" lat="63.6053750002" lon="9.68094722914">
		<tag k="name" v="Sørlia" />
		<tag k="natural" v="slope" />
		<tag k="place" v="locality" />
		<tag k="ssr:stedsnr" v="342289" />
	</node>
	<node id="-842387" lat="63.5096777775" lon="9.70766387999">
		<tag k="name" v="Slættlia" />
		<tag k="natural" v="slope" />
		<tag k="place" v="locality" />
		<tag k="ssr:stedsnr" v="523474" />
	</node>
	<node id="-842376" lat="63.5215638877" lon="9.65842222206">
		<tag k="name" v="Landerøsheia" />
		<tag k="natural" v="hill" />
		<tag k="place" v="locality" />
		<tag k="ssr:stedsnr" v="469078" />
	</node>
	<node id="-842374" lat="63.4934805563" lon="9.81829721876">
		<tag k="name" v="Brenselhaugen" />
		<tag k="natural" v="hill" />
		<tag k="place" v="locality" />
		<tag k="ssr:stedsnr" v="523015" />
	</node>
	<node id="-842372" lat="63.6123055582" lon="9.71091943816">
		<tag k="name" v="Gjøtberget" />
		<tag k="natural" v="hill" />
		<tag k="place" v="locality" />
		<tag k="ssr:stedsnr" v="402207" />
	</node>
	<node id="-842369" lat="63.4930583297" lon="9.69901666739">
		<tag k="name" v="Tømmerlundlien" />
		<tag k="natural" v="slope" />
		<tag k="place" v="locality" />
		<tag k="ssr:stedsnr" v="523478" />
	</node>
	<node id="-842368" lat="63.5001083314" lon="9.81503611632">
		<tag k="fixme" v="consider natural=peak for the most distinct mountains in the district" />
		<tag k="name" v="Vollahaugen" />
		<tag k="natural" v="hill" />
		<tag k="place" v="locality" />
		<tag k="ssr:stedsnr" v="87092" />
	</node>
	<node id="-842366" lat="63.5517694485" lon="9.79431944078">
		<tag k="fixme" v="consider natural=peak for the most distinct mountains in the district" />
		<tag k="name" v="Høgåsen" />
		<tag k="natural" v="hill" />
		<tag k="place" v="locality" />
		<tag k="ssr:stedsnr" v="462330" />
	</node>
	<node id="-842362" lat="63.5072722234" lon="9.78922222469">
		<tag k="name" v="Sterthaugen" />
		<tag k="natural" v="hill" />
		<tag k="place" v="locality" />
		<tag k="ssr:stedsnr" v="463220" />
	</node>
	<node id="-842353" lat="63.454572219" lon="9.81427777269">
		<tag k="name" v="Litlslættet" />
		<tag k="place" v="locality" />
		<tag k="ssr:stedsnr" v="949883" />
	</node>
	<node id="-842349" lat="63.5004361075" lon="9.74443332419">
		<tag k="name" v="Utneslia" />
		<tag k="natural" v="slope" />
		<tag k="place" v="locality" />
		<tag k="ssr:stedsnr" v="862708" />
	</node>
	<node id="-842342" lat="63.5554694429" lon="9.79422221745">
		<tag k="fixme" v="consider natural=peak for the most distinct mountains in the district" />
		<tag k="name" v="Buvikåsen" />
		<tag k="natural" v="hill" />
		<tag k="place" v="locality" />
		<tag k="ssr:stedsnr" v="463193" />
	</node>
	<node id="-842337" lat="63.4339333302" lon="9.85958888829">
		<tag k="name" v="Fuggelleikbakken" />
		<tag k="natural" v="slope" />
		<tag k="place" v="locality" />
		<tag k="ssr:stedsnr" v="827201" />
	</node>
	<node id="-842336" lat="63.3945305514" lon="9.75057499526">
		<tag k="name" v="Seterhaugen" />
		<tag k="natural" v="hill" />
		<tag k="place" v="locality" />
		<tag k="ssr:stedsnr" v="402652" />
	</node>
	<node id="-842331" lat="63.5157500036" lon="9.76519721892">
		<tag k="name" v="Trovoll-lia" />
		<tag k="natural" v="slope" />
		<tag k="place" v="locality" />
		<tag k="ssr:stedsnr" v="583359" />
	</node>
	<node id="-842328" lat="63.5660583364" lon="9.78850555196">
		<tag k="fixme" v="consider natural=peak for the most distinct mountains in the district" />
		<tag k="name" v="Svartvika" />
		<tag k="natural" v="hill" />
		<tag k="place" v="locality" />
		<tag k="ssr:stedsnr" v="463197" />
	</node>
	<node id="-842327" lat="63.4193111149" lon="9.80170278587">
		<tag k="name" v="Nygårdshaugen" />
		<tag k="natural" v="hill" />
		<tag k="place" v="locality" />
		<tag k="ssr:stedsnr" v="828879" />
	</node>
	<node id="-842323" lat="63.4791694406" lon="9.82455556391">
		<tag k="name" v="Revdalen" />
		<tag k="natural" v="valley" />
		<tag k="place" v="locality" />
		<tag k="ssr:stedsnr" v="463201" />
	</node>
	<node id="-842317" lat="63.5752722267" lon="9.69371943473">
		<tag k="name" v="Kallurddalen" />
		<tag k="natural" v="valley" />
		<tag k="place" v="locality" />
		<tag k="ssr:stedsnr" v="377099" />
	</node>
	<node id="-842315" lat="63.5850361134" lon="9.57440276864">
		<tag k="name" v="Djupdalen" />
		<tag k="natural" v="valley" />
		<tag k="place" v="locality" />
		<tag k="ssr:stedsnr" v="680107" />
	</node>
	<node id="-842313" lat="63.4961222239" lon="9.63453888351">
		<tag k="name" v="Herdalen" />
		<tag k="place" v="locality" />
		<tag k="ssr:stedsnr" v="584679" />
	</node>
	<node id="-842310" lat="63.4855027812" lon="9.61928888402">
		<tag k="name" v="Bjugnliheian" />
		<tag k="natural" v="hill" />
		<tag k="place" v="locality" />
		<tag k="ssr:stedsnr" v="99254" />
	</node>
	<node id="-842308" lat="63.5074249992" lon="9.82774165913">
		<tag k="name" v="Hamnahaugen" />
		<tag k="natural" v="hill" />
		<tag k="place" v="locality" />
		<tag k="ssr:stedsnr" v="523006" />
	</node>
	<node id="-842306" lat="63.5822055547" lon="9.68726112078">
		<tag k="fixme" v="consider natural=peak for the most distinct mountains in the district" />
		<tag k="name" v="Kallurddalsbrotet" />
		<tag k="natural" v="hill" />
		<tag k="place" v="locality" />
		<tag k="ssr:stedsnr" v="377096" />
	</node>
	<node id="-842305" lat="63.497575002" lon="9.73336389277">
		<tag k="name" v="Solemslia" />
		<tag k="natural" v="slope" />
		<tag k="place" v="locality" />
		<tag k="ssr:stedsnr" v="159463" />
	</node>
	<node id="-842301" lat="63.5759250015" lon="9.65837222731">
		<tag k="name" v="Bjørnhiet" />
		<tag k="natural" v="ridge" />
		<tag k="place" v="locality" />
		<tag k="ssr:stedsnr" v="584682" />
	</node>
	<node id="-842299" lat="63.5740222255" lon="9.67660555336">
		<tag k="fixme" v="consider natural=peak for the most distinct mountains in the district" />
		<tag k="name" v="Litlfjellet" />
		<tag k="natural" v="hill" />
		<tag k="place" v="locality" />
		<tag k="ssr:stedsnr" v="888566" />
	</node>
	<node id="-842292" lat="63.4780861107" lon="9.59059444469">
		<tag k="name" v="Svevbakken" />
		<tag k="natural" v="slope" />
		<tag k="place" v="locality" />
		<tag k="ssr:stedsnr" v="403465" />
	</node>
	<node id="-842291" lat="63.4646777745" lon="9.77476388462">
		<tag k="name" v="Møssmerbakken" />
		<tag k="natural" v="slope" />
		<tag k="place" v="locality" />
		<tag k="ssr:stedsnr" v="38924" />
	</node>
	<node id="-842289" lat="63.5901472259" lon="9.61883888408">
		<tag k="name" v="Rivdalen" />
		<tag k="natural" v="valley" />
		<tag k="place" v="locality" />
		<tag k="ssr:stedsnr" v="463632" />
	</node>
	<node id="-842286" lat="63.5585972222" lon="9.60031943824">
		<tag k="fixme" v="consider natural=peak for the most distinct mountains in the district" />
		<tag k="name" v="Rundklumpen" />
		<tag k="natural" v="hill" />
		<tag k="place" v="locality" />
		<tag k="ssr:stedsnr" v="558136" />
	</node>
	<node id="-842285" lat="63.4641138877" lon="9.60378334065">
		<tag k="name" v="Grytholet" />
		<tag k="natural" v="valley" />
		<tag k="place" v="locality" />
		<tag k="ssr:stedsnr" v="645413" />
	</node>
	<node id="-842283" lat="63.4623194483" lon="9.75834722768">
		<tag k="name" v="Klumpaksla" />
		<tag k="natural" v="hill" />
		<tag k="place" v="locality" />
		<tag k="ssr:stedsnr" v="38926" />
	</node>
	<node id="-842282" lat="63.4889111133" lon="9.73682500828">
		<tag k="name" v="Gjøthaugen" />
		<tag k="natural" v="hill" />
		<tag k="place" v="locality" />
		<tag k="ssr:stedsnr" v="644081" />
	</node>
	<node id="-842280" lat="63.5296750006" lon="9.79215278196">
		<tag k="name" v="Møsengliheia" />
		<tag k="natural" v="hill" />
		<tag k="place" v="locality" />
		<tag k="ssr:stedsnr" v="341391" />
	</node>
	<node id="-842278" lat="63.6407666708" lon="9.73300832965">
		<tag k="fixme" v="consider natural=peak for the most distinct mountains in the district" />
		<tag k="name" v="Kamsheia" />
		<tag k="natural" v="hill" />
		<tag k="place" v="locality" />
		<tag k="ssr:stedsnr" v="498949" />
	</node>
	<node id="-842277" lat="63.5270388934" lon="9.79983610142">
		<tag k="name" v="Fjellslia" />
		<tag k="natural" v="slope" />
		<tag k="place" v="locality" />
		<tag k="ssr:stedsnr" v="341392" />
	</node>
	<node id="-842274" lat="63.4400416696" lon="9.79917499311">
		<tag k="name" v="Piggsletthaugen" />
		<tag k="natural" v="hill" />
		<tag k="place" v="locality" />
		<tag k="ssr:stedsnr" v="802109" />
	</node>
	<node id="-842272" lat="63.4603861141" lon="9.81455555025">
		<tag k="name" v="Bjørndalshaugan" />
		<tag k="natural" v="hill" />
		<tag k="place" v="locality" />
		<tag k="ssr:stedsnr" v="38919" />
	</node>
	<node id="-842269" lat="63.4720666641" lon="9.86050000508">
		<tag k="name" v="Kollhaugen" />
		<tag k="natural" v="hill" />
		<tag k="place" v="locality" />
		<tag k="ssr:stedsnr" v="159002" />
	</node>
	<node id="-842268" lat="63.4234194426" lon="9.82415832748">
		<tag k="name" v="Rangvasslia" />
		<tag k="natural" v="slope" />
		<tag k="place" v="locality" />
		<tag k="ssr:stedsnr" v="705578" />
	</node>
	<node id="-842266" lat="63.5728111117" lon="9.59026944244">
		<tag k="fixme" v="consider natural=peak for the most distinct mountains in the district" />
		<tag k="name" v="Lauvnesheia" />
		<tag k="natural" v="hill" />
		<tag k="place" v="locality" />
		<tag k="ssr:stedsnr" v="256102" />
	</node>
	<node id="-842264" lat="63.4202666684" lon="9.76870833018">
		<tag k="name" v="Matbrunndalen" />
		<tag k="natural" v="valley" />
		<tag k="place" v="locality" />
		<tag k="ssr:stedsnr" v="38913" />
	</node>
	<node id="-842261" lat="63.585830558" lon="9.65543333469">
		<tag k="name" v="Rapet" />
		<tag k="natural" v="ridge" />
		<tag k="place" v="locality" />
		<tag k="ssr:stedsnr" v="99694" />
	</node>
	<node id="-842260" lat="63.4872222241" lon="9.7174583426">
		<tag k="name" v="Graslia" />
		<tag k="natural" v="slope" />
		<tag k="place" v="locality" />
		<tag k="ssr:stedsnr" v="948111" />
	</node>
	<node id="-842258" lat="63.5306666678" lon="9.72458888361">
		<tag k="name" v="Bingsådalen" />
		<tag k="natural" v="valley" />
		<tag k="place" v="locality" />
		<tag k="ssr:stedsnr" v="862680" />
	</node>
	<node id="-842257" lat="63.4683666642" lon="9.7446722192">
		<tag k="name" v="Fjølåshaugen" />
		<tag k="natural" v="hill" />
		<tag k="place" v="locality" />
		<tag k="ssr:stedsnr" v="645405" />
	</node>
	<node id="-842256" lat="63.4353666629" lon="9.87789445359">
		<tag k="name" v="Svartholet" />
		<tag k="natural" v="valley" />
		<tag k="place" v="locality" />
		<tag k="ssr:stedsnr" v="402170" />
	</node>
	<node id="-842255" lat="63.4885944418" lon="9.67850833787">
		<tag k="name" v="Slættlia" />
		<tag k="natural" v="slope" />
		<tag k="place" v="locality" />
		<tag k="ssr:stedsnr" v="828441" />
	</node>
	<node id="-842253" lat="63.5612999991" lon="9.61962777331">
		<tag k="name" v="Kjellerholet" />
		<tag k="natural" v="ridge" />
		<tag k="place" v="locality" />
		<tag k="ssr:stedsnr" v="403470" />
	</node>
	<node id="-842252" lat="63.4683194484" lon="9.82939444848">
		<tag k="name" v="Sørlia" />
		<tag k="natural" v="slope" />
		<tag k="place" v="locality" />
		<tag k="ssr:stedsnr" v="888080" />
	</node>
	<node id="-842251" lat="63.6150777822" lon="9.70328054873">
		<tag k="name" v="Selvlia" />
		<tag k="natural" v="slope" />
		<tag k="place" v="locality" />
		<tag k="ssr:stedsnr" v="463187" />
	</node>
	<node id="-842250" lat="63.4619833325" lon="9.88488055162">
		<tag k="name" v="Hagalia" />
		<tag k="natural" v="slope" />
		<tag k="place" v="locality" />
		<tag k="ssr:stedsnr" v="644075" />
	</node>
	<node id="-842246" lat="63.5645694476" lon="9.71367777124">
		<tag k="name" v="Øykskardet" />
		<tag k="natural" v="valley" />
		<tag k="place" v="locality" />
		<tag k="ssr:stedsnr" v="888985" />
	</node>
	<node id="-842241" lat="63.4609888882" lon="9.74824444421">
		<tag k="fixme" v="consider natural=peak for the most distinct mountains in the district" />
		<tag k="name" v="Ytter Klumpan" />
		<tag k="natural" v="hill" />
		<tag k="place" v="locality" />
		<tag k="ssr:stedsnr" v="766421" />
	</node>
	<node id="-842240" lat="63.5869638916" lon="9.53232500867">
		<tag k="fixme" v="consider natural=peak for the most distinct mountains in the district" />
		<tag k="name" v="Verneskammen" />
		<tag k="natural" v="hill" />
		<tag k="place" v="locality" />
		<tag k="ssr:stedsnr" v="463616" />
	</node>
	<node id="-842239" lat="63.5305916696" lon="9.59908333124">
		<tag k="name" v="Kjerringdalen" />
		<tag k="natural" v="valley" />
		<tag k="place" v="locality" />
		<tag k="ssr:stedsnr" v="645427" />
	</node>
	<node id="-842237" lat="63.411408333" lon="9.78946111101">
		<tag k="name" v="Sør Mjøvasslia" />
		<tag k="natural" v="slope" />
		<tag k="place" v="locality" />
		<tag k="ssr:stedsnr" v="38911" />
	</node>
	<node id="-842234" lat="63.6041916698" lon="9.67103888283">
		<tag k="name" v="Bjørdalen" />
		<tag k="natural" v="valley" />
		<tag k="place" v="locality" />
		<tag k="ssr:stedsnr" v="73089" />
	</node>
	<node id="-842233" lat="63.4996861129" lon="9.63144999293">
		<tag k="name" v="Heia" />
		<tag k="natural" v="hill" />
		<tag k="place" v="locality" />
		<tag k="ssr:stedsnr" v="99687" />
	</node>
	<node id="-842229" lat="63.5413888932" lon="9.73958888495">
		<tag k="alt_name" v="Snurruklumpen" />
		<tag k="fixme" v="consider natural=peak for the most distinct mountains in the district" />
		<tag k="name" v="Snuruliklumpen" />
		<tag k="natural" v="hill" />
		<tag k="place" v="locality" />
		<tag k="ssr:stedsnr" v="134636" />
	</node>
	<node id="-842224" lat="63.6253583356" lon="9.68143889747">
		<tag k="name" v="Sommarfjøslia" />
		<tag k="natural" v="slope" />
		<tag k="place" v="locality" />
		<tag k="ssr:stedsnr" v="342260" />
	</node>
	<node id="-842221" lat="63.5546194462" lon="9.7458194375">
		<tag k="name" v="Sjåknubben" />
		<tag k="natural" v="hill" />
		<tag k="place" v="locality" />
		<tag k="ssr:stedsnr" v="644555" />
	</node>
	<node id="-842220" lat="63.5521749982" lon="9.59493889063">
		<tag k="name" v="Fjordadalen" />
		<tag k="natural" v="valley" />
		<tag k="place" v="locality" />
		<tag k="ssr:stedsnr" v="463624" />
	</node>
	<node id="-842218" lat="63.5147777773" lon="9.56477499174">
		<tag k="name" v="Storheia" />
		<tag k="natural" v="hill" />
		<tag k="place" v="locality" />
		<tag k="ssr:stedsnr" v="645419" />
	</node>
	<node id="-842217" lat="63.4283944465" lon="9.69277500656">
		<tag k="name" v="Kollheia" />
		<tag k="natural" v="hill" />
		<tag k="place" v="locality" />
		<tag k="ssr:stedsnr" v="644554" />
	</node>
	<node id="-842214" lat="63.5873555601" lon="9.39179722796">
		<tag k="name" v="Jotuva" />
		<tag k="natural" v="hill" />
		<tag k="place" v="locality" />
		<tag k="ssr:stedsnr" v="802115" />
	</node>
	<node id="-842213" lat="63.433725002" lon="9.72867777915">
		<tag k="fixme" v="consider natural=peak for the most distinct mountains in the district" />
		<tag k="name" v="Singstadfjellet" />
		<tag k="natural" v="hill" />
		<tag k="place" v="locality" />
		<tag k="ssr:stedsnr" v="888980" />
	</node>
	<node id="-842209" lat="63.5438916703" lon="9.77528333006">
		<tag k="name" v="Slættstrupen" />
		<tag k="natural" v="valley" />
		<tag k="place" v="locality" />
		<tag k="ssr:stedsnr" v="98344" />
	</node>
	<node id="-842207" lat="63.4660722223" lon="9.7139944455">
		<tag k="name" v="Haugen" />
		<tag k="natural" v="hill" />
		<tag k="place" v="locality" />
		<tag k="ssr:stedsnr" v="38441" />
	</node>
	<node id="-842205" lat="63.6171638853" lon="9.63643611077">
		<tag k="name" v="Heggabakken" />
		<tag k="natural" v="slope" />
		<tag k="place" v="locality" />
		<tag k="ssr:stedsnr" v="220334" />
	</node>
	<node id="-842204" lat="63.39736389" lon="9.82731667241">
		<tag k="name" v="Langleiet" />
		<tag k="natural" v="slope" />
		<tag k="place" v="locality" />
		<tag k="ssr:stedsnr" v="705587" />
	</node>
	<node id="-842202" lat="63.4795249959" lon="9.79047778355">
		<tag k="name" v="Kråkhaugan" />
		<tag k="natural" v="hill" />
		<tag k="place" v="locality" />
		<tag k="ssr:stedsnr" v="159433" />
	</node>
	<node id="-842201" lat="63.4451611092" lon="9.89849999249">
		<tag k="name" v="Nonshaugen" />
		<tag k="natural" v="hill" />
		<tag k="place" v="locality" />
		<tag k="ssr:stedsnr" v="377077" />
	</node>
	<node id="-842200" lat="63.4082861129" lon="9.84691666151">
		<tag k="fixme" v="consider natural=peak for the most distinct mountains in the district" />
		<tag k="name" v="Raudåkamman" />
		<tag k="natural" v="hill" />
		<tag k="place" v="locality" />
		<tag k="ssr:stedsnr" v="705590" />
	</node>
	<node id="-842199" lat="63.5662750009" lon="9.77930000773">
		<tag k="name" v="Stormyrskardet" />
		<tag k="natural" v="valley" />
		<tag k="place" v="locality" />
		<tag k="ssr:stedsnr" v="99223" />
	</node>
	<node id="-842196" lat="63.4390805594" lon="9.81834999167">
		<tag k="name" v="Varggjota" />
		<tag k="natural" v="hill" />
		<tag k="place" v="locality" />
		<tag k="ssr:stedsnr" v="802118" />
	</node>
	<node id="-842191" lat="63.4341555566" lon="9.7875027815">
		<tag k="fixme" v="consider natural=peak for the most distinct mountains in the district" />
		<tag k="name" v="Kreklia" />
		<tag k="natural" v="hill" />
		<tag k="place" v="locality" />
		<tag k="ssr:stedsnr" v="802117" />
	</node>
	<node id="-842189" lat="63.5406333314" lon="9.61418333029">
		<tag k="fixme" v="consider natural=peak for the most distinct mountains in the district" />
		<tag k="name" v="Snaufjellet" />
		<tag k="natural" v="hill" />
		<tag k="place" v="locality" />
		<tag k="ssr:stedsnr" v="438142" />
	</node>
	<node id="-842188" lat="63.4598888884" lon="9.92225000161">
		<tag k="fixme" v="consider natural=peak for the most distinct mountains in the district" />
		<tag k="name" v="Ramnåsen" />
		<tag k="natural" v="hill" />
		<tag k="place" v="locality" />
		<tag k="ssr:stedsnr" v="802095" />
	</node>
	<node id="-842185" lat="63.472519443" lon="9.78402222317">
		<tag k="name" v="Lykkja" />
		<tag k="natural" v="slope" />
		<tag k="place" v="locality" />
		<tag k="ssr:stedsnr" v="159422" />
	</node>
	<node id="-842183" lat="63.4893222217" lon="9.77641667448">
		<tag k="name" v="Åsmullia" />
		<tag k="natural" v="slope" />
		<tag k="place" v="locality" />
		<tag k="ssr:stedsnr" v="159419" />
	</node>
	<node id="-842181" lat="63.4541861127" lon="9.83382222283">
		<tag k="alt_name" v="Kollheia" />
		<tag k="fixme" v="consider natural=peak for the most distinct mountains in the district" />
		<tag k="name" v="Holheia" />
		<tag k="natural" v="hill" />
		<tag k="place" v="locality" />
		<tag k="ssr:stedsnr" v="134095" />
	</node>
	<node id="-842173" lat="63.5171694413" lon="9.5921388819">
		<tag k="name" v="Granbakken" />
		<tag k="natural" v="slope" />
		<tag k="place" v="locality" />
		<tag k="ssr:stedsnr" v="403438" />
	</node>
	<node id="-842169" lat="63.6202694487" lon="9.64443888758">
		<tag k="name" v="Synnavikhaugen" />
		<tag k="natural" v="hill" />
		<tag k="place" v="locality" />
		<tag k="ssr:stedsnr" v="342237" />
	</node>
	<node id="-842165" lat="63.4749888888" lon="9.71017777295">
		<tag k="name" v="Øyangslia" />
		<tag k="natural" v="slope" />
		<tag k="place" v="locality" />
		<tag k="ssr:stedsnr" v="281094" />
	</node>
	<node id="-842164" lat="63.6008333311" lon="9.7317833259">
		<tag k="name" v="Snaufjella" />
		<tag k="natural" v="mountain_range" />
		<tag k="ssr:stedsnr" v="584197" />
	</node>
	<node id="-842163" lat="63.6050499959" lon="9.5899694498">
		<tag k="name" v="Eidemstuva" />
		<tag k="natural" v="hill" />
		<tag k="place" v="locality" />
		<tag k="ssr:stedsnr" v="134098" />
	</node>
	<node id="-842160" lat="63.6152138859" lon="9.61697778566">
		<tag k="fixme" v="consider natural=peak for the most distinct mountains in the district" />
		<tag k="name" v="Portfjellet" />
		<tag k="natural" v="hill" />
		<tag k="place" v="locality" />
		<tag k="ssr:stedsnr" v="828422" />
	</node>
	<node id="-842155" lat="63.6253944467" lon="9.67082777181">
		<tag k="name" v="Ramnklova" />
		<tag k="natural" v="valley" />
		<tag k="place" v="locality" />
		<tag k="ssr:stedsnr" v="342246" />
	</node>
	<node id="-842153" lat="63.4391027759" lon="9.88795555934">
		<tag k="name" v="Breiskardet" />
		<tag k="natural" v="valley" />
		<tag k="place" v="locality" />
		<tag k="ssr:stedsnr" v="281106" />
	</node>
	<node id="-842151" lat="63.5499972219" lon="9.81023055488">
		<tag k="fixme" v="consider natural=peak for the most distinct mountains in the district" />
		<tag k="name" v="Haugan" />
		<tag k="natural" v="hill" />
		<tag k="place" v="locality" />
		<tag k="ssr:stedsnr" v="524305" />
	</node>
	<node id="-842142" lat="63.6033805571" lon="9.6930083285">
		<tag k="name" v="Issvollskardet" />
		<tag k="natural" v="valley" />
		<tag k="place" v="locality" />
		<tag k="ssr:stedsnr" v="584202" />
	</node>
	<node id="-842137" lat="63.4752416629" lon="9.84611110801">
		<tag k="name" v="Setlia" />
		<tag k="natural" v="slope" />
		<tag k="place" v="locality" />
		<tag k="ssr:stedsnr" v="706012" />
	</node>
	<node id="-842134" lat="63.4658583313" lon="9.65490555011">
		<tag k="fixme" v="consider natural=peak for the most distinct mountains in the district" />
		<tag k="name" v="Maliholhaugan" />
		<tag k="natural" v="hill" />
		<tag k="place" v="locality" />
		<tag k="ssr:stedsnr" v="342225" />
	</node>
	<node id="-842133" lat="63.6312749973" lon="9.69793888015">
		<tag k="name" v="Kvithyllberga" />
		<tag k="natural" v="hill" />
		<tag k="place" v="locality" />
		<tag k="ssr:stedsnr" v="524285" />
	</node>
	<node id="-842132" lat="63.4639416665" lon="9.78641665689">
		<tag k="fixme" v="consider natural=peak for the most distinct mountains in the district" />
		<tag k="name" v="Snauheia" />
		<tag k="natural" v="hill" />
		<tag k="place" v="locality" />
		<tag k="ssr:stedsnr" v="680074" />
	</node>
	<node id="-842129" lat="63.4774499964" lon="9.78030554568">
		<tag k="name" v="Slætta" />
		<tag k="place" v="locality" />
		<tag k="ssr:stedsnr" v="38417" />
	</node>
	<node id="-842127" lat="63.4740722225" lon="9.75981389749">
		<tag k="name" v="Elvaslætthaugan" />
		<tag k="natural" v="hill" />
		<tag k="place" v="locality" />
		<tag k="ssr:stedsnr" v="281079" />
	</node>
	<node id="-842124" lat="63.6401111111" lon="9.71508610137">
		<tag k="name" v="Brystvernet" />
		<tag k="natural" v="slope" />
		<tag k="place" v="locality" />
		<tag k="ssr:stedsnr" v="524288" />
	</node>
	<node id="-842122" lat="63.5700833373" lon="9.69641111684">
		<tag k="name" v="Storslættlia" />
		<tag k="natural" v="slope" />
		<tag k="place" v="locality" />
		<tag k="ssr:stedsnr" v="282000" />
	</node>
	<node id="-842121" lat="63.4802194456" lon="9.71793611844">
		<tag k="name" v="Fremmer Bjørnaskardet" />
		<tag k="natural" v="valley" />
		<tag k="place" v="locality" />
		<tag k="ssr:stedsnr" v="705112" />
	</node>
	<node id="-842116" lat="63.4810333318" lon="9.73119166657">
		<tag k="name" v="Tverrlia" />
		<tag k="natural" v="slope" />
		<tag k="place" v="locality" />
		<tag k="ssr:stedsnr" v="705114" />
	</node>
	<node id="-842115" lat="63.4495305523" lon="9.88199721933">
		<tag k="name" v="Smihaugen" />
		<tag k="natural" v="hill" />
		<tag k="place" v="locality" />
		<tag k="ssr:stedsnr" v="281089" />
	</node>
	<node id="-842111" lat="63.6211194468" lon="9.62347222732">
		<tag k="name" v="Reksterberget" />
		<tag k="natural" v="hill" />
		<tag k="place" v="locality" />
		<tag k="ssr:stedsnr" v="342231" />
	</node>
	<node id="-842107" lat="63.5189916639" lon="9.75398333058">
		<tag k="name" v="Tverra" />
		<tag k="natural" v="valley" />
		<tag k="place" v="locality" />
		<tag k="ssr:stedsnr" v="681650" />
	</node>
	<node id="-842104" lat="63.5164805544" lon="9.64408056291">
		<tag k="name" v="Steindalsknubben" />
		<tag k="natural" v="hill" />
		<tag k="place" v="locality" />
		<tag k="ssr:stedsnr" v="99653" />
	</node>
	<node id="-842103" lat="63.5209666632" lon="9.78606388907">
		<tag k="name" v="Dyrgrova" />
		<tag k="natural" v="slope" />
		<tag k="place" v="locality" />
		<tag k="ssr:stedsnr" v="523407" />
	</node>
	<node id="-842100" lat="63.5493805571" lon="9.6003888955">
		<tag k="alt_name" v="Fjordheia" />
		<tag k="name" v="Fjordaheia" />
		<tag k="natural" v="hill" />
		<tag k="place" v="locality" />
		<tag k="ssr:stedsnr" v="438120" />
	</node>
	<node id="-842099" lat="63.4976944446" lon="9.78389444383">
		<tag k="name" v="Kleivan" />
		<tag k="natural" v="ridge" />
		<tag k="place" v="locality" />
		<tag k="ssr:stedsnr" v="342213" />
	</node>
	<node id="-842098" lat="63.6050111085" lon="9.65412499811">
		<tag k="name" v="Storutangsberget" />
		<tag k="natural" v="hill" />
		<tag k="place" v="locality" />
		<tag k="ssr:stedsnr" v="524272" />
	</node>
	<node id="-842097" lat="63.4431444422" lon="9.84713332339">
		<tag k="name" v="Storlia" />
		<tag k="natural" v="slope" />
		<tag k="place" v="locality" />
		<tag k="ssr:stedsnr" v="99182" />
	</node>
	<node id="-842094" lat="63.4712361111" lon="9.64519999827">
		<tag k="name" v="Granholet" />
		<tag k="natural" v="valley" />
		<tag k="place" v="locality" />
		<tag k="ssr:stedsnr" v="403417" />
	</node>
	<node id="-842093" lat="63.5180666688" lon="9.60226110346">
		<tag k="name" v="Lensvikdalen" />
		<tag k="natural" v="valley" />
		<tag k="place" v="locality" />
		<tag k="ssr:stedsnr" v="923219" />
	</node>
	<node id="-842092" lat="63.4719027787" lon="9.85211666673">
		<tag k="fixme" v="consider natural=peak for the most distinct mountains in the district" />
		<tag k="name" v="Åsen" />
		<tag k="natural" v="hill" />
		<tag k="place" v="locality" />
		<tag k="ssr:stedsnr" v="134077" />
	</node>
	<node id="-842089" lat="63.493094445" lon="9.78035278687">
		<tag k="name" v="Åsmullia" />
		<tag k="natural" v="slope" />
		<tag k="place" v="locality" />
		<tag k="ssr:stedsnr" v="342210" />
	</node>
	<node id="-842086" lat="63.5872916659" lon="9.36494445156">
		<tag k="name" v="Ratvikhøgda" />
		<tag k="natural" v="hill" />
		<tag k="place" v="locality" />
		<tag k="ssr:stedsnr" v="558105" />
	</node>
	<node id="-842083" lat="63.4764999978" lon="9.86141388198">
		<tag k="name" v="Troll-lia" />
		<tag k="natural" v="slope" />
		<tag k="place" v="locality" />
		<tag k="ssr:stedsnr" v="644026" />
	</node>
	<node id="-842081" lat="63.4909027752" lon="9.66466389581">
		<tag k="name" v="Brannhaugen" />
		<tag k="natural" v="hill" />
		<tag k="place" v="locality" />
		<tag k="ssr:stedsnr" v="437856" />
	</node>
	<node id="-842080" lat="63.5310472217" lon="9.77415833948">
		<tag k="name" v="Midter Rogndalen" />
		<tag k="natural" v="valley" />
		<tag k="place" v="locality" />
		<tag k="ssr:stedsnr" v="401684" />
	</node>
	<node id="-842076" lat="63.6089166628" lon="9.73703610102">
		<tag k="name" v="Steinvikdalen" />
		<tag k="natural" v="valley" />
		<tag k="place" v="locality" />
		<tag k="ssr:stedsnr" v="220295" />
	</node>
	<node id="-842074" lat="63.5929444476" lon="9.65356111268">
		<tag k="name" v="Stordalen" />
		<tag k="natural" v="valley" />
		<tag k="place" v="locality" />
		<tag k="ssr:stedsnr" v="558108" />
	</node>
	<node id="-842073" lat="63.4076861139" lon="9.82523332464">
		<tag k="name" v="Godgraslia" />
		<tag k="natural" v="slope" />
		<tag k="place" v="locality" />
		<tag k="ssr:stedsnr" v="827556" />
	</node>
	<node id="-842071" lat="63.5426194483" lon="9.77013054731">
		<tag k="name" v="Nilsslættet" />
		<tag k="natural" v="slope" />
		<tag k="place" v="locality" />
		<tag k="ssr:stedsnr" v="766344" />
	</node>
	<node id="-842070" lat="63.571024999" lon="9.66322221369">
		<tag k="name" v="Ratslætthøgda" />
		<tag k="natural" v="hill" />
		<tag k="place" v="locality" />
		<tag k="ssr:stedsnr" v="584610" />
	</node>
	<node id="-842066" lat="63.6315111101" lon="9.73539721813">
		<tag k="fixme" v="consider natural=peak for the most distinct mountains in the district" />
		<tag k="name" v="Djupvikheia" />
		<tag k="natural" v="hill" />
		<tag k="place" v="locality" />
		<tag k="ssr:stedsnr" v="766339" />
	</node>
	<node id="-842064" lat="63.6455888893" lon="9.7428805472">
		<tag k="name" v="Sevaldsenberget" />
		<tag k="natural" v="hill" />
		<tag k="place" v="locality" />
		<tag k="ssr:stedsnr" v="888026" />
	</node>
	<node id="-842060" lat="63.4314249975" lon="9.82303889281">
		<tag k="fixme" v="consider natural=peak for the most distinct mountains in the district" />
		<tag k="name" v="Hjortkammen" />
		<tag k="natural" v="hill" />
		<tag k="place" v="locality" />
		<tag k="ssr:stedsnr" v="862108" />
	</node>
	<node id="-842059" lat="63.4998583308" lon="9.83448056353">
		<tag k="name" v="Karibakken" />
		<tag k="natural" v="slope" />
		<tag k="place" v="locality" />
		<tag k="ssr:stedsnr" v="705066" />
	</node>
	<node id="-842058" lat="63.530555557" lon="9.82516666808">
		<tag k="name" v="Alvikstigen" />
		<tag k="natural" v="slope" />
		<tag k="place" v="locality" />
		<tag k="ssr:stedsnr" v="220300" />
	</node>
	<node id="-842054" lat="63.3948555513" lon="9.78602778632">
		<tag k="name" v="Håvårdsdalen" />
		<tag k="natural" v="valley" />
		<tag k="place" v="locality" />
		<tag k="ssr:stedsnr" v="99638" />
	</node>
	<node id="-842051" lat="63.4359249958" lon="9.87217500356">
		<tag k="alt_name" v="Breiskardåsen" />
		<tag k="fixme" v="consider natural=peak for the most distinct mountains in the district" />
		<tag k="name" v="Breidskardåsen" />
		<tag k="natural" v="hill" />
		<tag k="place" v="locality" />
		<tag k="ssr:stedsnr" v="862109" />
	</node>
	<node id="-842048" lat="63.4581722244" lon="9.85560000213">
		<tag k="name" v="Kjerringholet" />
		<tag k="natural" v="valley" />
		<tag k="place" v="locality" />
		<tag k="ssr:stedsnr" v="705089" />
	</node>
	<node id="-842047" lat="63.5453694486" lon="9.76433611243">
		<tag k="name" v="Svartlia" />
		<tag k="natural" v="slope" />
		<tag k="place" v="locality" />
		<tag k="ssr:stedsnr" v="558625" />
	</node>
	<node id="-842045" lat="63.5968833293" lon="9.58659721865">
		<tag k="fixme" v="consider natural=peak for the most distinct mountains in the district" />
		<tag k="name" v="Varden" />
		<tag k="natural" v="hill" />
		<tag k="place" v="locality" />
		<tag k="ssr:stedsnr" v="403402" />
	</node>
	<node id="-842043" lat="63.4729388876" lon="9.59368888798">
		<tag k="name" v="Eidlia" />
		<tag k="natural" v="slope" />
		<tag k="place" v="locality" />
		<tag k="ssr:stedsnr" v="949411" />
	</node>
	<node id="-842040" lat="63.4813777816" lon="9.75840832907">
		<tag k="alt_name" v="Høkollen" />
		<tag k="fixme" v="consider natural=peak for the most distinct mountains in the district" />
		<tag k="name" v="Høgkollen" />
		<tag k="natural" v="hill" />
		<tag k="place" v="locality" />
		<tag k="ssr:stedsnr" v="134069" />
	</node>
	<node id="-842037" lat="63.5588694402" lon="9.77282500968">
		<tag k="name" v="Stallbakken" />
		<tag k="natural" v="slope" />
		<tag k="place" v="locality" />
		<tag k="ssr:stedsnr" v="584153" />
	</node>
	<node id="-842034" lat="63.392308337" lon="9.76338332966">
		<tag k="name" v="Isdalsøyan" />
		<tag k="place" v="locality" />
		<tag k="ssr:stedsnr" v="438374" />
	</node>
	<node id="-842031" lat="63.4559888931" lon="9.85748332929">
		<tag k="name" v="Kjerringholhaugan" />
		<tag k="natural" v="hill" />
		<tag k="place" v="locality" />
		<tag k="ssr:stedsnr" v="281053" />
	</node>
	<node id="-842030" lat="63.6117083341" lon="9.68083333026">
		<tag k="name" v="Bergsnebben" />
		<tag k="natural" v="hill" />
		<tag k="place" v="locality" />
		<tag k="ssr:stedsnr" v="160266" />
	</node>
	<node id="-842029" lat="63.5788138883" lon="9.7274166635">
		<tag k="name" v="Bjørndalen" />
		<tag k="natural" v="valley" />
		<tag k="place" v="locality" />
		<tag k="ssr:stedsnr" v="401675" />
	</node>
	<node id="-842028" lat="63.5729722197" lon="9.65070277936">
		<tag k="fixme" v="consider natural=peak for the most distinct mountains in the district" />
		<tag k="name" v="Svennholet" />
		<tag k="natural" v="hill" />
		<tag k="place" v="locality" />
		<tag k="ssr:stedsnr" v="402560" />
	</node>
	<node id="-842020" lat="63.5488777779" lon="9.66720276788">
		<tag k="fixme" v="consider natural=peak for the most distinct mountains in the district" />
		<tag k="name" v="Dyrskolten" />
		<tag k="natural" v="hill" />
		<tag k="place" v="locality" />
		<tag k="ssr:stedsnr" v="74123" />
	</node>
	<node id="-842019" lat="63.5716055562" lon="9.61855278024">
		<tag k="name" v="Svartdalsklinken" />
		<tag k="natural" v="hill" />
		<tag k="place" v="locality" />
		<tag k="ssr:stedsnr" v="949415" />
	</node>
	<node id="-842018" lat="63.5096138852" lon="9.74175832319">
		<tag k="alt_name" v="Durshaugen" />
		<tag k="name" v="Dyrhaugen" />
		<tag k="natural" v="hill" />
		<tag k="place" v="locality" />
		<tag k="ssr:stedsnr" v="619781" />
	</node>
	<node id="-842017" lat="63.4660111121" lon="9.86393333878">
		<tag k="name" v="Middagslættet" />
		<tag k="natural" v="slope" />
		<tag k="place" v="locality" />
		<tag k="ssr:stedsnr" v="888051" />
	</node>
	<node id="-842015" lat="63.5848583356" lon="9.74721111213">
		<tag k="name" v="Slættet" />
		<tag k="natural" v="slope" />
		<tag k="place" v="locality" />
		<tag k="ssr:stedsnr" v="220745" />
	</node>
	<node id="-842014" lat="63.5988388853" lon="9.5579249977">
		<tag k="fixme" v="consider natural=peak for the most distinct mountains in the district" />
		<tag k="name" v="Ramnfjellet" />
		<tag k="natural" v="hill" />
		<tag k="place" v="locality" />
		<tag k="ssr:stedsnr" v="706396" />
	</node>
	<node id="-842013" lat="63.450855555" lon="9.87264444895">
		<tag k="name" v="Grandalen" />
		<tag k="natural" v="valley" />
		<tag k="place" v="locality" />
		<tag k="ssr:stedsnr" v="705087" />
	</node>
	<node id="-842012" lat="63.4084444465" lon="9.81413055855">
		<tag k="fixme" v="consider natural=peak for the most distinct mountains in the district" />
		<tag k="name" v="Templet" />
		<tag k="natural" v="hill" />
		<tag k="place" v="locality" />
		<tag k="ssr:stedsnr" v="438114" />
	</node>
	<node id="-842009" lat="63.5674722184" lon="9.59926666439">
		<tag k="name" v="Tullheia" />
		<tag k="natural" v="hill" />
		<tag k="place" v="locality" />
		<tag k="ssr:stedsnr" v="949417" />
	</node>
	<node id="-842007" lat="63.5022416654" lon="9.84255555865">
		<tag k="name" v="Berget" />
		<tag k="natural" v="hill" />
		<tag k="place" v="locality" />
		<tag k="ssr:stedsnr" v="888038" />
	</node>
	<node id="-842006" lat="63.4308583339" lon="9.89705555049">
		<tag k="fixme" v="consider natural=peak for the most distinct mountains in the district" />
		<tag k="name" v="Grubbhøgda" />
		<tag k="natural" v="hill" />
		<tag k="place" v="locality" />
		<tag k="ssr:stedsnr" v="463112" />
	</node>
	<node id="-842005" lat="63.4673444406" lon="9.75330277734">
		<tag k="name" v="Saghaugen" />
		<tag k="natural" v="hill" />
		<tag k="place" v="locality" />
		<tag k="ssr:stedsnr" v="828403" />
	</node>
	<node id="-842004" lat="63.4343888925" lon="9.80255276985">
		<tag k="name" v="Storlidalen" />
		<tag k="natural" v="valley" />
		<tag k="place" v="locality" />
		<tag k="ssr:stedsnr" v="463571" />
	</node>
	<node id="-842003" lat="63.5803833359" lon="9.62596943833">
		<tag k="fixme" v="consider natural=peak for the most distinct mountains in the district" />
		<tag k="name" v="Tømmerholten" />
		<tag k="natural" v="hill" />
		<tag k="place" v="locality" />
		<tag k="ssr:stedsnr" v="220731" />
	</node>
	<node id="-842002" lat="63.6033666711" lon="9.55716388256">
		<tag k="name" v="Grøngjøta" />
		<tag k="natural" v="valley" />
		<tag k="place" v="locality" />
		<tag k="ssr:stedsnr" v="706390" />
	</node>
	<node id="-841999" lat="63.5599916648" lon="9.68461944926">
		<tag k="name" v="Svartbakklia" />
		<tag k="natural" v="slope" />
		<tag k="place" v="locality" />
		<tag k="ssr:stedsnr" v="221565" />
	</node>
	<node id="-841997" lat="63.458969446" lon="9.84363888507">
		<tag k="name" v="Raudbulia" />
		<tag k="natural" v="slope" />
		<tag k="place" v="locality" />
		<tag k="ssr:stedsnr" v="888042" />
	</node>
	<node id="-841993" lat="63.5784583359" lon="9.72413888097">
		<tag k="name" v="Skardet" />
		<tag k="natural" v="valley" />
		<tag k="place" v="locality" />
		<tag k="ssr:stedsnr" v="401676" />
	</node>
	<node id="-841989" lat="63.4346083316" lon="9.69255277664">
		<tag k="fixme" v="consider natural=peak for the most distinct mountains in the district" />
		<tag k="name" v="Bjørnstadfjellet" />
		<tag k="natural" v="hill" />
		<tag k="place" v="locality" />
		<tag k="ssr:stedsnr" v="221958" />
	</node>
	<node id="-841988" lat="63.4115055519" lon="9.7688583327">
		<tag k="name" v="Styggholknubben" />
		<tag k="natural" v="hill" />
		<tag k="place" v="locality" />
		<tag k="ssr:stedsnr" v="74118" />
	</node>
	<node id="-841982" lat="63.4659527771" lon="9.84723056126">
		<tag k="name" v="Øyan" />
		<tag k="place" v="locality" />
		<tag k="ssr:stedsnr" v="705080" />
	</node>
	<node id="-841981" lat="63.4813222182" lon="9.60533055594">
		<tag k="name" v="Selstadlia" />
		<tag k="natural" v="slope" />
		<tag k="place" v="locality" />
		<tag k="ssr:stedsnr" v="949409" />
	</node>
	<node id="-841980" lat="63.6074833365" lon="9.60174722705">
		<tag k="name" v="Eidemslia" />
		<tag k="natural" v="slope" />
		<tag k="place" v="locality" />
		<tag k="ssr:stedsnr" v="706388" />
	</node>
	<node id="-841979" lat="63.4417555566" lon="9.72446110617">
		<tag k="name" v="Langdalen" />
		<tag k="natural" v="valley" />
		<tag k="place" v="locality" />
		<tag k="ssr:stedsnr" v="221960" />
	</node>
	<node id="-841970" lat="63.6300694489" lon="9.67242499011">
		<tag k="name" v="Risvikhaugan" />
		<tag k="natural" v="hill" />
		<tag k="place" v="locality" />
		<tag k="ssr:stedsnr" v="524247" />
	</node>
	<node id="-841968" lat="63.5733166681" lon="9.61271388686">
		<tag k="name" v="Svartdalen" />
		<tag k="natural" v="valley" />
		<tag k="place" v="locality" />
		<tag k="ssr:stedsnr" v="438104" />
	</node>
	<node id="-841964" lat="63.4383472213" lon="9.81734445135">
		<tag k="name" v="Mortenenghøgda" />
		<tag k="natural" v="hill" />
		<tag k="place" v="locality" />
		<tag k="ssr:stedsnr" v="99615" />
	</node>
	<node id="-841962" lat="63.4144694423" lon="9.81156389509">
		<tag k="name" v="Tempelgroven" />
		<tag k="natural" v="slope" />
		<tag k="place" v="locality" />
		<tag k="ssr:stedsnr" v="888886" />
	</node>
	<node id="-841959" lat="63.5644833348" lon="9.70606667589">
		<tag k="name" v="Øykskardklumpen" />
		<tag k="natural" v="hill" />
		<tag k="place" v="locality" />
		<tag k="ssr:stedsnr" v="464000" />
	</node>
	<node id="-841957" lat="63.5640277775" lon="9.69841667027">
		<tag k="name" v="Rapurdskardet" />
		<tag k="natural" v="valley" />
		<tag k="place" v="locality" />
		<tag k="ssr:stedsnr" v="463999" />
	</node>
	<node id="-841952" lat="63.4307472254" lon="9.73830556387">
		<tag k="name" v="Granskardet" />
		<tag k="natural" v="valley" />
		<tag k="place" v="locality" />
		<tag k="ssr:stedsnr" v="221951" />
	</node>
	<node id="-841951" lat="63.4557472247" lon="9.90991112">
		<tag k="name" v="Urda" />
		<tag k="natural" v="cliff" />
		<tag k="ssr:stedsnr" v="827076" />
	</node>
	<node id="-841950" lat="63.5513833367" lon="9.7897611187">
		<tag k="name" v="Åsholet" />
		<tag k="natural" v="valley" />
		<tag k="place" v="locality" />
		<tag k="ssr:stedsnr" v="159375" />
	</node>
	<node id="-841948" lat="63.4904777801" lon="9.84657221744">
		<tag k="name" v="Fætta" />
		<tag k="place" v="locality" />
		<tag k="ssr:stedsnr" v="340035" />
	</node>
	<node id="-841947" lat="63.4409166684" lon="9.7667250073">
		<tag k="name" v="Sannerdalen" />
		<tag k="natural" v="valley" />
		<tag k="place" v="locality" />
		<tag k="ssr:stedsnr" v="463549" />
	</node>
	<node id="-841946" lat="63.4500638845" lon="9.73483611409">
		<tag k="name" v="Litlslættet" />
		<tag k="place" v="locality" />
		<tag k="ssr:stedsnr" v="644459" />
	</node>
	<node id="-841943" lat="63.6304444469" lon="9.72230833301">
		<tag k="alt_name" v="Røstmoliheia" />
		<tag k="name" v="Rosmolheia" />
		<tag k="natural" v="hill" />
		<tag k="place" v="locality" />
		<tag k="ssr:stedsnr" v="195896" />
	</node>
	<node id="-841934" lat="63.4465805591" lon="9.73395555149">
		<tag k="name" v="Steinbakken" />
		<tag k="natural" v="slope" />
		<tag k="place" v="locality" />
		<tag k="ssr:stedsnr" v="221943" />
	</node>
	<node id="-841932" lat="63.5489666636" lon="9.7798333398">
		<tag k="name" v="Baklia" />
		<tag k="natural" v="slope" />
		<tag k="place" v="locality" />
		<tag k="ssr:stedsnr" v="38371" />
	</node>
	<node id="-841929" lat="63.4509555524" lon="9.86632777888">
		<tag k="name" v="Sannerdalen" />
		<tag k="natural" v="valley" />
		<tag k="place" v="locality" />
		<tag k="ssr:stedsnr" v="827064" />
	</node>
	<node id="-841928" lat="63.5882638869" lon="9.6832805615">
		<tag k="name" v="Hjertligjøta" />
		<tag k="natural" v="valley" />
		<tag k="place" v="locality" />
		<tag k="ssr:stedsnr" v="220718" />
	</node>
	<node id="-841927" lat="63.4435222243" lon="9.81246667286">
		<tag k="name" v="Pikslættet" />
		<tag k="place" v="locality" />
		<tag k="ssr:stedsnr" v="221554" />
	</node>
	<node id="-841924" lat="63.4549111067" lon="9.73027500224">
		<tag k="name" v="Dyrstigen" />
		<tag k="natural" v="slope" />
		<tag k="place" v="locality" />
		<tag k="ssr:stedsnr" v="644453" />
	</node>
	<node id="-841921" lat="63.6124805551" lon="9.68280000108">
		<tag k="name" v="Storgjøta" />
		<tag k="natural" v="valley" />
		<tag k="place" v="locality" />
		<tag k="ssr:stedsnr" v="766310" />
	</node>
	<node id="-841920" lat="63.4813749964" lon="9.86424722848">
		<tag k="name" v="Sørlotthaugen" />
		<tag k="natural" v="hill" />
		<tag k="place" v="locality" />
		<tag k="ssr:stedsnr" v="705036" />
	</node>
	<node id="-841916" lat="63.6181166646" lon="9.63269723159">
		<tag k="name" v="Fyrbakken" />
		<tag k="natural" v="slope" />
		<tag k="place" v="locality" />
		<tag k="ssr:stedsnr" v="160250" />
	</node>
	<node id="-841913" lat="63.5485277735" lon="9.78751943788">
		<tag k="fixme" v="consider natural=peak for the most distinct mountains in the district" />
		<tag k="name" v="Tverråsen" />
		<tag k="natural" v="hill" />
		<tag k="place" v="locality" />
		<tag k="ssr:stedsnr" v="38368" />
	</node>
	<node id="-841907" lat="63.4811472202" lon="9.61203610549">
		<tag k="name" v="Bukkslættet" />
		<tag k="place" v="locality" />
		<tag k="ssr:stedsnr" v="888444" />
	</node>
	<node id="-841901" lat="63.5455444436" lon="9.69928334168">
		<tag k="name" v="Vakkerlia" />
		<tag k="natural" v="slope" />
		<tag k="place" v="locality" />
		<tag k="ssr:stedsnr" v="221544" />
	</node>
	<node id="-841895" lat="63.4731638926" lon="9.74659445026">
		<tag k="name" v="Kvitberga" />
		<tag k="natural" v="hill" />
		<tag k="place" v="locality" />
		<tag k="ssr:stedsnr" v="463078" />
	</node>
	<node id="-841894" lat="63.4567416711" lon="9.71152221426">
		<tag k="name" v="Terninghaugan" />
		<tag k="natural" v="hill" />
		<tag k="place" v="locality" />
		<tag k="ssr:stedsnr" v="828385" />
	</node>
	<node id="-841892" lat="63.541802781" lon="9.66322777612">
		<tag k="name" v="Slipsteinholet" />
		<tag k="natural" v="slope" />
		<tag k="place" v="locality" />
		<tag k="ssr:stedsnr" v="99600" />
	</node>
	<node id="-841891" lat="63.4854111089" lon="9.7163583394">
		<tag k="fixme" v="consider natural=peak for the most distinct mountains in the district" />
		<tag k="name" v="Sollihøgda" />
		<tag k="natural" v="hill" />
		<tag k="place" v="locality" />
		<tag k="ssr:stedsnr" v="827087" />
	</node>
	<node id="-841888" lat="63.6311166665" lon="9.73961667153">
		<tag k="name" v="Djupvikkleiva" />
		<tag k="natural" v="slope" />
		<tag k="place" v="locality" />
		<tag k="ssr:stedsnr" v="766338" />
	</node>
	<node id="-841887" lat="63.5172111076" lon="9.73391666315">
		<tag k="name" v="Geithol" />
		<tag k="natural" v="valley" />
		<tag k="place" v="locality" />
		<tag k="ssr:stedsnr" v="195652" />
	</node>
	<node id="-841886" lat="63.5946722239" lon="9.61820833416">
		<tag k="name" v="Musdalen" />
		<tag k="natural" v="valley" />
		<tag k="place" v="locality" />
		<tag k="ssr:stedsnr" v="220711" />
	</node>
	<node id="-841885" lat="63.5626222228" lon="9.69241389012">
		<tag k="name" v="Kattegat" />
		<tag k="natural" v="hill" />
		<tag k="place" v="locality" />
		<tag k="ssr:stedsnr" v="402994" />
	</node>
	<node id="-841884" lat="63.4924888905" lon="9.59118054646">
		<tag k="name" v="Herdalen" />
		<tag k="natural" v="valley" />
		<tag k="place" v="locality" />
		<tag k="ssr:stedsnr" v="497873" />
	</node>
	<node id="-841882" lat="63.5951583336" lon="9.66277776792">
		<tag k="name" v="Svartdalen" />
		<tag k="natural" v="valley" />
		<tag k="place" v="locality" />
		<tag k="ssr:stedsnr" v="341741" />
	</node>
	<node id="-841880" lat="63.5779972247" lon="9.65245278152">
		<tag k="name" v="Hjerthaugen" />
		<tag k="natural" v="hill" />
		<tag k="place" v="locality" />
		<tag k="ssr:stedsnr" v="195127" />
	</node>
	<node id="-841879" lat="63.4490749957" lon="9.80195278248">
		<tag k="name" v="Grønlia" />
		<tag k="natural" v="slope" />
		<tag k="place" v="locality" />
		<tag k="ssr:stedsnr" v="888904" />
	</node>
	<node id="-841877" lat="63.5669166658" lon="9.72997777075">
		<tag k="name" v="Storvassliklumpen" />
		<tag k="natural" v="hill" />
		<tag k="place" v="locality" />
		<tag k="ssr:stedsnr" v="463991" />
	</node>
	<node id="-841876" lat="63.4234694416" lon="9.83048333997">
		<tag k="name" v="Buttulsjølia" />
		<tag k="natural" v="slope" />
		<tag k="place" v="locality" />
		<tag k="ssr:stedsnr" v="888461" />
	</node>
	<node id="-841872" lat="63.5587861123" lon="9.70444722407">
		<tag k="fixme" v="consider natural=peak for the most distinct mountains in the district" />
		<tag k="name" v="Snøfjellet" />
		<tag k="natural" v="hill" />
		<tag k="place" v="locality" />
		<tag k="ssr:stedsnr" v="463989" />
	</node>
	<node id="-841871" lat="63.4649055595" lon="9.72203889825">
		<tag k="name" v="Graslia" />
		<tag k="natural" v="slope" />
		<tag k="place" v="locality" />
		<tag k="ssr:stedsnr" v="705512" />
	</node>
	<node id="-841866" lat="63.6145388848" lon="9.69656110968">
		<tag k="fixme" v="consider natural=peak for the most distinct mountains in the district" />
		<tag k="name" v="Selvheia" />
		<tag k="natural" v="hill" />
		<tag k="place" v="locality" />
		<tag k="ssr:stedsnr" v="220254" />
	</node>
	<node id="-841864" lat="63.5463944433" lon="9.69396110576">
		<tag k="name" v="Ospdalen" />
		<tag k="natural" v="valley" />
		<tag k="place" v="locality" />
		<tag k="ssr:stedsnr" v="99593" />
	</node>
	<node id="-841863" lat="63.441311114" lon="9.6519888977">
		<tag k="name" v="Storbakken" />
		<tag k="natural" v="hill" />
		<tag k="place" v="locality" />
		<tag k="ssr:stedsnr" v="679777" />
	</node>
	<node id="-841862" lat="63.6273027817" lon="9.72734166731">
		<tag k="fixme" v="consider natural=peak for the most distinct mountains in the district" />
		<tag k="name" v="Kråkliåsen" />
		<tag k="natural" v="hill" />
		<tag k="place" v="locality" />
		<tag k="ssr:stedsnr" v="38357" />
	</node>
	<node id="-841861" lat="63.5187444418" lon="9.67988611681">
		<tag k="fixme" v="consider natural=peak for the most distinct mountains in the district" />
		<tag k="name" v="Hestgrovheia" />
		<tag k="natural" v="hill" />
		<tag k="place" v="locality" />
		<tag k="ssr:stedsnr" v="863167" />
	</node>
	<node id="-841859" lat="63.478833336" lon="9.86817223159">
		<tag k="name" v="Tangvik-kleiva" />
		<tag k="natural" v="slope" />
		<tag k="place" v="locality" />
		<tag k="ssr:stedsnr" v="948037" />
	</node>
	<node id="-841858" lat="63.4135527808" lon="9.75013611722">
		<tag k="fixme" v="consider natural=peak for the most distinct mountains in the district" />
		<tag k="name" v="Lysvasshaugan" />
		<tag k="natural" v="hill" />
		<tag k="place" v="locality" />
		<tag k="ssr:stedsnr" v="281953" />
	</node>
	<node id="-841857" lat="63.4501944424" lon="9.88872778517">
		<tag k="name" v="Grostaddalen" />
		<tag k="natural" v="valley" />
		<tag k="place" v="locality" />
		<tag k="ssr:stedsnr" v="827079" />
	</node>
	<node id="-841855" lat="63.4790055518" lon="9.85645278256">
		<tag k="name" v="Sørlottlia" />
		<tag k="natural" v="slope" />
		<tag k="place" v="locality" />
		<tag k="ssr:stedsnr" v="340032" />
	</node>
	<node id="-841853" lat="63.4459999977" lon="9.89200278031">
		<tag k="name" v="Durmåldalen" />
		<tag k="natural" v="valley" />
		<tag k="place" v="locality" />
		<tag k="ssr:stedsnr" v="584134" />
	</node>
	<node id="-841852" lat="63.492422224" lon="9.58891667291">
		<tag k="name" v="Storslættet" />
		<tag k="place" v="locality" />
		<tag k="ssr:stedsnr" v="463089" />
	</node>
	<node id="-841850" lat="63.4577722187" lon="9.92218889826">
		<tag k="name" v="Bessfarhaugen" />
		<tag k="natural" v="hill" />
		<tag k="place" v="locality" />
		<tag k="ssr:stedsnr" v="402070" />
	</node>
	<node id="-841848" lat="63.4599388847" lon="9.80293332323">
		<tag k="name" v="Mekveldsheidalen" />
		<tag k="natural" v="valley" />
		<tag k="place" v="locality" />
		<tag k="ssr:stedsnr" v="888897" />
	</node>
	<node id="-841845" lat="63.4791333319" lon="9.8437833378">
		<tag k="name" v="Nygårdshola" />
		<tag k="natural" v="slope" />
		<tag k="place" v="locality" />
		<tag k="ssr:stedsnr" v="888015" />
	</node>
	<node id="-841844" lat="63.4617472204" lon="9.82705000753">
		<tag k="name" v="Hestlia" />
		<tag k="natural" v="slope" />
		<tag k="place" v="locality" />
		<tag k="ssr:stedsnr" v="827083" />
	</node>
	<node id="-841843" lat="63.6009777813" lon="9.68968889698">
		<tag k="fixme" v="consider natural=peak for the most distinct mountains in the district" />
		<tag k="name" v="Sørliheia" />
		<tag k="natural" v="hill" />
		<tag k="place" v="locality" />
		<tag k="ssr:stedsnr" v="862099" />
	</node>
	<node id="-841841" lat="63.6259944401" lon="9.70599721759">
		<tag k="name" v="Skjulberget" />
		<tag k="natural" v="hill" />
		<tag k="place" v="locality" />
		<tag k="ssr:stedsnr" v="38352" />
	</node>
	<node id="-841837" lat="63.5837138858" lon="9.69584999669">
		<tag k="name" v="Selvheia" />
		<tag k="natural" v="hill" />
		<tag k="place" v="locality" />
		<tag k="ssr:stedsnr" v="583677" />
	</node>
	<node id="-841835" lat="63.4974527744" lon="9.63500276809">
		<tag k="name" v="Herdalslia" />
		<tag k="natural" v="slope" />
		<tag k="place" v="locality" />
		<tag k="ssr:stedsnr" v="341729" />
	</node>
	<node id="-841834" lat="63.5578499961" lon="9.75234723187">
		<tag k="name" v="Størdalsskardet" />
		<tag k="natural" v="valley" />
		<tag k="place" v="locality" />
		<tag k="ssr:stedsnr" v="221127" />
	</node>
	<node id="-841832" lat="63.4300527755" lon="9.85871388422">
		<tag k="name" v="Maritlia" />
		<tag k="natural" v="slope" />
		<tag k="place" v="locality" />
		<tag k="ssr:stedsnr" v="342165" />
	</node>
	<node id="-841831" lat="63.4900916638" lon="9.83980556192">
		<tag k="name" v="Troll-lia" />
		<tag k="natural" v="slope" />
		<tag k="place" v="locality" />
		<tag k="ssr:stedsnr" v="37027" />
	</node>
	<node id="-841829" lat="63.526780553" lon="9.78591665924">
		<tag k="alt_name" v="Øyskardet" />
		<tag k="name" v="Økskardet" />
		<tag k="natural" v="valley" />
		<tag k="place" v="locality" />
		<tag k="ssr:stedsnr" v="195644" />
	</node>
	<node id="-841828" lat="63.4299111116" lon="9.68868611095">
		<tag k="name" v="Kollheia" />
		<tag k="natural" v="hill" />
		<tag k="place" v="locality" />
		<tag k="ssr:stedsnr" v="827954" />
	</node>
	<node id="-841826" lat="63.4292055529" lon="9.89252778359">
		<tag k="name" v="Grubben" />
		<tag k="natural" v="ridge" />
		<tag k="place" v="locality" />
		<tag k="ssr:stedsnr" v="99129" />
	</node>
	<node id="-841825" lat="63.4274861087" lon="9.73243055651">
		<tag k="name" v="Granskardhaugan" />
		<tag k="natural" v="hill" />
		<tag k="place" v="locality" />
		<tag k="ssr:stedsnr" v="584985" />
	</node>
	<node id="-841824" lat="63.6126305574" lon="9.58509444472">
		<tag k="name" v="Oterholet" />
		<tag k="natural" v="valley" />
		<tag k="place" v="locality" />
		<tag k="ssr:stedsnr" v="281476" />
	</node>
	<node id="-841823" lat="63.4539555547" lon="9.78315278292">
		<tag k="name" v="Damtjørnhaugan" />
		<tag k="natural" v="hill" />
		<tag k="place" v="locality" />
		<tag k="ssr:stedsnr" v="281932" />
	</node>
	<node id="-841822" lat="63.4406194443" lon="9.75872222511">
		<tag k="name" v="Sannerdalshaugan" />
		<tag k="natural" v="hill" />
		<tag k="place" v="locality" />
		<tag k="ssr:stedsnr" v="99584" />
	</node>
	<node id="-841820" lat="63.5082749974" lon="9.63658333429">
		<tag k="name" v="Landrøsheian" />
		<tag k="natural" v="hill" />
		<tag k="place" v="locality" />
		<tag k="ssr:stedsnr" v="341728" />
	</node>
	<node id="-841819" lat="63.4723583319" lon="9.84275833107">
		<tag k="name" v="Småurden" />
		<tag k="natural" v="slope" />
		<tag k="place" v="locality" />
		<tag k="ssr:stedsnr" v="281011" />
	</node>
	<node id="-841818" lat="63.5893722191" lon="9.71687223137">
		<tag k="name" v="Selvskardet" />
		<tag k="natural" v="valley" />
		<tag k="place" v="locality" />
		<tag k="ssr:stedsnr" v="98692" />
	</node>
	<node id="-841817" lat="63.608800004" lon="9.58332500158">
		<tag k="fixme" v="consider natural=peak for the most distinct mountains in the district" />
		<tag k="name" v="Tømmeråsen" />
		<tag k="natural" v="hill" />
		<tag k="place" v="locality" />
		<tag k="ssr:stedsnr" v="281475" />
	</node>
	<node id="-841816" lat="63.4633916694" lon="9.78570833279">
		<tag k="name" v="Snauheia" />
		<tag k="natural" v="hill" />
		<tag k="place" v="locality" />
		<tag k="ssr:stedsnr" v="281931" />
	</node>
	<node id="-841810" lat="63.4533805558" lon="9.84709166636">
		<tag k="fixme" v="consider natural=peak for the most distinct mountains in the district" />
		<tag k="name" v="Arnslættkammen" />
		<tag k="natural" v="hill" />
		<tag k="place" v="locality" />
		<tag k="ssr:stedsnr" v="402047" />
	</node>
	<node id="-841807" lat="63.627227779" lon="9.71820833632">
		<tag k="name" v="Fagerlia" />
		<tag k="natural" v="slope" />
		<tag k="place" v="locality" />
		<tag k="ssr:stedsnr" v="645308" />
	</node>
	<node id="-841805" lat="63.508663885" lon="9.6931499993">
		<tag k="name" v="Furuholtrennet" />
		<tag k="natural" v="slope" />
		<tag k="place" v="locality" />
		<tag k="ssr:stedsnr" v="644428" />
	</node>
	<node id="-841803" lat="63.4570166674" lon="9.84305832772">
		<tag k="name" v="Rullkavlen" />
		<tag k="natural" v="slope" />
		<tag k="place" v="locality" />
		<tag k="ssr:stedsnr" v="402048" />
	</node>
	<node id="-841802" lat="63.6277972214" lon="9.68252499782">
		<tag k="fixme" v="consider natural=peak for the most distinct mountains in the district" />
		<tag k="name" v="Kaldklovafjellet" />
		<tag k="natural" v="hill" />
		<tag k="place" v="locality" />
		<tag k="ssr:stedsnr" v="862079" />
	</node>
	<node id="-841793" lat="63.5207472234" lon="9.58921666628">
		<tag k="name" v="Sagmyrkammen" />
		<tag k="natural" v="ridge" />
		<tag k="place" v="locality" />
		<tag k="ssr:stedsnr" v="281484" />
	</node>
	<node id="-841791" lat="63.485791667" lon="9.62772778431">
		<tag k="name" v="Bjugnliheian" />
		<tag k="natural" v="hill" />
		<tag k="place" v="locality" />
		<tag k="ssr:stedsnr" v="888409" />
	</node>
	<node id="-841790" lat="63.5010388888" lon="9.70006944919">
		<tag k="fixme" v="consider natural=peak for the most distinct mountains in the district" />
		<tag k="name" v="Valheia" />
		<tag k="natural" v="hill" />
		<tag k="place" v="locality" />
		<tag k="ssr:stedsnr" v="948454" />
	</node>
	<node id="-841789" lat="63.5620416695" lon="9.7185611067">
		<tag k="name" v="Fjell-lia" />
		<tag k="natural" v="slope" />
		<tag k="place" v="locality" />
		<tag k="ssr:stedsnr" v="402985" />
	</node>
	<node id="-841786" lat="63.4876555535" lon="9.70575833261">
		<tag k="name" v="Tverrlia" />
		<tag k="natural" v="slope" />
		<tag k="place" v="locality" />
		<tag k="ssr:stedsnr" v="584120" />
	</node>
	<node id="-841785" lat="63.6199611072" lon="9.72041110438">
		<tag k="fixme" v="consider natural=peak for the most distinct mountains in the district" />
		<tag k="name" v="Liahaugen" />
		<tag k="natural" v="hill" />
		<tag k="place" v="locality" />
		<tag k="ssr:stedsnr" v="645304" />
	</node>
	<node id="-841783" lat="63.4427916639" lon="9.7530777748">
		<tag k="name" v="Svarttjørnlia" />
		<tag k="natural" v="slope" />
		<tag k="place" v="locality" />
		<tag k="ssr:stedsnr" v="463979" />
	</node>
	<node id="-841782" lat="63.628116663" lon="9.7159555461">
		<tag k="fixme" v="consider natural=peak for the most distinct mountains in the district" />
		<tag k="name" v="Fagerliåsen" />
		<tag k="natural" v="hill" />
		<tag k="place" v="locality" />
		<tag k="ssr:stedsnr" v="558072" />
	</node>
	<node id="-841778" lat="63.6071749979" lon="9.72958334043">
		<tag k="fixme" v="consider natural=peak for the most distinct mountains in the district" />
		<tag k="name" v="Skreknollen" />
		<tag k="natural" v="hill" />
		<tag k="place" v="locality" />
		<tag k="ssr:stedsnr" v="342168" />
	</node>
	<node id="-841777" lat="63.5866333367" lon="9.65700833187">
		<tag k="name" v="Stordalen" />
		<tag k="natural" v="valley" />
		<tag k="place" v="locality" />
		<tag k="ssr:stedsnr" v="341734" />
	</node>
	<node id="-841776" lat="63.5679138878" lon="9.74269722686">
		<tag k="name" v="Litlvasslia" />
		<tag k="natural" v="slope" />
		<tag k="place" v="locality" />
		<tag k="ssr:stedsnr" v="342981" />
	</node>
	<node id="-841775" lat="63.606186112" lon="9.6930611132">
		<tag k="name" v="Sørlia" />
		<tag k="natural" v="slope" />
		<tag k="place" v="locality" />
		<tag k="ssr:stedsnr" v="220242" />
	</node>
	<node id="-841773" lat="63.5055277787" lon="9.69213334222">
		<tag k="name" v="Stibakken" />
		<tag k="natural" v="slope" />
		<tag k="place" v="locality" />
		<tag k="ssr:stedsnr" v="705464" />
	</node>
	<node id="-841771" lat="63.4692416681" lon="9.87529999574">
		<tag k="name" v="Ingdalslættet" />
		<tag k="place" v="locality" />
		<tag k="ssr:stedsnr" v="402057" />
	</node>
	<node id="-841769" lat="63.6253666637" lon="9.68680278572">
		<tag k="name" v="Telebrekka" />
		<tag k="natural" v="slope" />
		<tag k="place" v="locality" />
		<tag k="ssr:stedsnr" v="38337" />
	</node>
	<node id="-841764" lat="63.4401472245" lon="9.7214138846">
		<tag k="name" v="Valan" />
		<tag k="natural" v="valley" />
		<tag k="place" v="locality" />
		<tag k="ssr:stedsnr" v="342964" />
	</node>
	<node id="-841758" lat="63.4708138929" lon="9.63060278773">
		<tag k="name" v="Dyrstiliholet" />
		<tag k="natural" v="valley" />
		<tag k="place" v="locality" />
		<tag k="ssr:stedsnr" v="281463" />
	</node>
	<node id="-841757" lat="63.4773722266" lon="9.85672499789">
		<tag k="name" v="Hushaugen" />
		<tag k="natural" v="hill" />
		<tag k="place" v="locality" />
		<tag k="ssr:stedsnr" v="705035" />
	</node>
	<node id="-841756" lat="63.4250583327" lon="9.78078610764">
		<tag k="name" v="Urdtjørnlia" />
		<tag k="natural" v="slope" />
		<tag k="place" v="locality" />
		<tag k="ssr:stedsnr" v="281918" />
	</node>
	<node id="-841755" lat="63.5741166625" lon="9.76135277523">
		<tag k="fixme" v="consider natural=peak for the most distinct mountains in the district" />
		<tag k="name" v="Tømmeråsen" />
		<tag k="natural" v="hill" />
		<tag k="place" v="locality" />
		<tag k="ssr:stedsnr" v="342150" />
	</node>
	<node id="-841754" lat="63.5374333296" lon="9.66178611208">
		<tag k="name" v="Bjørnahaugen" />
		<tag k="natural" v="hill" />
		<tag k="place" v="locality" />
		<tag k="ssr:stedsnr" v="863152" />
	</node>
	<node id="-841752" lat="63.429327777" lon="9.87079167581">
		<tag k="fixme" v="consider natural=peak for the most distinct mountains in the district" />
		<tag k="name" v="Engåsen" />
		<tag k="natural" v="hill" />
		<tag k="place" v="locality" />
		<tag k="ssr:stedsnr" v="498101" />
	</node>
	<node id="-841750" lat="63.4914444467" lon="9.73480833716">
		<tag k="name" v="Baklia" />
		<tag k="natural" v="slope" />
		<tag k="place" v="locality" />
		<tag k="ssr:stedsnr" v="705488" />
	</node>
	<node id="-841744" lat="63.4653805543" lon="9.84291944522">
		<tag k="name" v="Blombakkan" />
		<tag k="natural" v="slope" />
		<tag k="place" v="locality" />
		<tag k="ssr:stedsnr" v="463048" />
	</node>
	<node id="-841743" lat="63.4474555559" lon="9.77730554924">
		<tag k="name" v="Bjørklia" />
		<tag k="natural" v="slope" />
		<tag k="place" v="locality" />
		<tag k="ssr:stedsnr" v="888874" />
	</node>
	<node id="-841740" lat="63.5627333294" lon="9.72854445012">
		<tag k="name" v="Storvasslia" />
		<tag k="natural" v="slope" />
		<tag k="place" v="locality" />
		<tag k="ssr:stedsnr" v="256566" />
	</node>
	<node id="-841734" lat="63.4844472184" lon="9.83807777061">
		<tag k="name" v="Storlia" />
		<tag k="natural" v="slope" />
		<tag k="place" v="locality" />
		<tag k="ssr:stedsnr" v="705029" />
	</node>
	<node id="-841730" lat="63.6112333306" lon="9.67124999366">
		<tag k="name" v="Lushaugen" />
		<tag k="natural" v="hill" />
		<tag k="place" v="locality" />
		<tag k="ssr:stedsnr" v="766303" />
	</node>
</osm>
