<?xml version="1.0" encoding="UTF-8"?>
<osm generator="osmapis" version="0.6">
	<node id="-843776" lat="63.5129611139" lon="9.80866944903">
		<tag k="fixme" v="consider place=hamlet" />
		<tag k="name" v="Lensvik" />
		<tag k="place" v="village" />
		<tag k="ssr:stedsnr" v="510207" />
	</node>
	<node id="-843093" lat="63.4997194479" lon="9.82026665767">
		<tag k="name" v="Myran boligfelt" />
		<tag k="place" v="quarter" />
		<tag k="ssr:stedsnr" v="343631" />
	</node>
	<node id="-843260" lat="63.5854916711" lon="9.55292778199">
		<tag k="name" v="Gravvikan" />
		<tag k="place" v="farm" />
		<tag k="ssr:stedsnr" v="220691" />
	</node>
	<node id="-842410" lat="63.6166079558" lon="9.68040382632">
		<tag k="fixme" v="consider place=hamlet" />
		<tag k="name" v="Løstad" />
		<tag k="place" v="farm" />
		<tag k="ssr:stedsnr" v="619080" />
	</node>
	<node id="-843258" lat="63.5333020403" lon="9.57296568947">
		<tag k="fixme" v="multiple name tags, choose one and add the other to alt_name" />
		<tag k="name" v="Asbjørnsvika;Håkavika" />
		<tag k="place" v="farm" />
		<tag k="ssr:stedsnr" v="863140" />
	</node>
	<node id="-843767" lat="63.4396500037" lon="9.84061666294">
		<tag k="alt_name" v="Fabolisetra" />
		<tag k="name" v="Fabolia" />
		<tag k="place" v="isolated_dwelling" />
		<tag k="ssr:stedsnr" v="802110" />
	</node>
	<node id="-843254" lat="63.5063944478" lon="9.8268944481">
		<tag k="name" v="Hamna" />
		<tag k="place" v="farm" />
		<tag k="ssr:stedsnr" v="705010" />
	</node>
	<node id="-842741" lat="63.5107361155" lon="9.80669443571">
		<tag k="name" v="Jostu" />
		<tag k="place" v="farm" />
		<tag k="ssr:stedsnr" v="706203" />
	</node>
	<node id="-842737" lat="63.6117138886" lon="9.65133889178">
		<tag k="name" v="Innergården" />
		<tag k="place" v="farm" />
		<tag k="ssr:stedsnr" v="281331" />
	</node>
	<node id="-843248" lat="63.46994167" lon="9.73278611636">
		<tag k="name" v="Varghaugen" />
		<tag k="place" v="farm" />
		<tag k="ssr:stedsnr" v="584103" />
	</node>
	<node id="-843759" lat="63.6110972196" lon="9.69211110802">
		<tag k="name" v="Gjerdet" />
		<tag k="place" v="farm" />
		<tag k="ssr:stedsnr" v="463184" />
	</node>
	<node id="-842222" lat="63.4807127864" lon="9.86295308793">
		<tag k="name" v="Sørlotten" />
		<tag k="place" v="farm" />
		<tag k="ssr:stedsnr" v="985289" />
	</node>
	<node id="-842733" lat="63.5155500024" lon="9.80375278658">
		<tag k="alt_name" v="Ystlangen;Ysland" />
		<tag k="fixme" v="consider place=hamlet" />
		<tag k="name" v="Ystland" />
		<tag k="place" v="farm" />
		<tag k="ssr:stedsnr" v="316688" />
	</node>
	<node id="-842732" lat="63.5055694434" lon="9.78216111378">
		<tag k="name" v="Sterten" />
		<tag k="place" v="hamlet" />
		<tag k="ssr:stedsnr" v="949215" />
	</node>
	<node id="-843241" lat="63.5711944439" lon="9.78502500525">
		<tag k="name" v="Åremmen" />
		<tag k="place" v="farm" />
		<tag k="ssr:stedsnr" v="619209" />
	</node>
	<node id="-842748" lat="63.5973027786" lon="9.62836667523">
		<tag k="name" v="Austre Musdalen" />
		<tag k="place" v="farm" />
		<tag k="ssr:stedsnr" v="37750" />
	</node>
	<node id="-843852" lat="63.5766176947" lon="9.57042316585">
		<tag k="fixme" v="consider place=hamlet" />
		<tag k="name" v="Musdalsvik" />
		<tag k="place" v="farm" />
		<tag k="ssr:stedsnr" v="971044" />
	</node>
	<node id="-843236" lat="63.4937194466" lon="9.732605552">
		<tag k="name" v="Skogbandet" />
		<tag k="place" v="farm" />
		<tag k="ssr:stedsnr" v="644447" />
	</node>
	<node id="-842723" lat="63.5914442617" lon="9.53607662172">
		<tag k="fixme" v="consider place=hamlet" />
		<tag k="name" v="Slettvika" />
		<tag k="place" v="farm" />
		<tag k="ssr:stedsnr" v="923109" />
	</node>
	<node id="-843234" lat="63.4996581505" lon="9.76084030246">
		<tag k="fixme" v="consider place=hamlet" />
		<tag k="name" v="Utnes" />
		<tag k="place" v="farm" />
		<tag k="ssr:stedsnr" v="619747" />
	</node>
	<node id="-842721" lat="63.4858565258" lon="9.84588321497">
		<tag k="fixme" v="consider place=hamlet" />
		<tag k="name" v="Nedre Tennel" />
		<tag k="place" v="farm" />
		<tag k="ssr:stedsnr" v="195038" />
	</node>
	<node id="-843987" lat="63.5140833313" lon="9.79317778454">
		<tag k="name" v="Rya" />
		<tag k="place" v="farm" />
		<tag k="ssr:stedsnr" v="462353" />
	</node>
	<node id="-842717" lat="63.5510305572" lon="9.81473610551">
		<tag k="name" v="Grinda" />
		<tag k="place" v="farm" />
		<tag k="ssr:stedsnr" v="402382" />
	</node>
	<node id="-843736" lat="63.4440277747" lon="9.88298610884">
		<tag k="name" v="Skoglund" />
		<tag k="place" v="farm" />
		<tag k="ssr:stedsnr" v="377075" />
	</node>
	<node id="-843735" lat="63.4956416635" lon="9.78733334143">
		<tag k="fixme" v="consider place=hamlet" />
		<tag k="name" v="Åsmulen" />
		<tag k="place" v="farm" />
		<tag k="ssr:stedsnr" v="13035" />
	</node>
	<node id="-843357" lat="63.4834416698" lon="9.78125556232">
		<tag k="name" v="Ølstran" />
		<tag k="place" v="farm" />
		<tag k="ssr:stedsnr" v="802067" />
	</node>
	<node id="-843730" lat="63.6150777762" lon="9.71419443436">
		<tag k="fixme" v="consider place=hamlet" />
		<tag k="name" v="Selva" />
		<tag k="place" v="village" />
		<tag k="ssr:stedsnr" v="741088" />
	</node>
	<node id="-842705" lat="63.5681194473" lon="9.78973611358">
		<tag k="alt_name" v="Åremmen" />
		<tag k="name" v="Årstein" />
		<tag k="place" v="farm" />
		<tag k="ssr:stedsnr" v="256486" />
	</node>
	<node id="-842488" lat="63.61890328" lon="9.63858112041">
		<tag k="fixme" v="consider place=hamlet" />
		<tag k="name" v="Hegg" />
		<tag k="place" v="farm" />
		<tag k="ssr:stedsnr" v="923090" />
	</node>
	<node id="-843724" lat="63.6183527819" lon="9.64938611231">
		<tag k="name" v="Nordgjerdet" />
		<tag k="place" v="farm" />
		<tag k="ssr:stedsnr" v="377073" />
	</node>
	<node id="-842914" lat="63.4741833323" lon="9.82440833283">
		<tag k="name" v="Skogan" />
		<tag k="place" v="farm" />
		<tag k="ssr:stedsnr" v="38250" />
	</node>
	<node id="-843719" lat="63.5863651096" lon="9.36976357573">
		<tag k="name" v="Leksa" />
		<tag k="place" v="hamlet" />
		<tag k="ssr:stedsnr" v="802124" />
	</node>
	<node id="-842897" lat="63.5117611069" lon="9.78798610242">
		<tag k="name" v="Myra" />
		<tag k="place" v="farm" />
		<tag k="ssr:stedsnr" v="766230" />
	</node>
	<node id="-842692" lat="63.4450694421" lon="9.91690278617">
		<tag k="name" v="Svingen" />
		<tag k="place" v="farm" />
		<tag k="ssr:stedsnr" v="923103" />
	</node>
	<node id="-842241" lat="63.5113861086" lon="9.79127499561">
		<tag k="name" v="Landrø" />
		<tag k="place" v="farm" />
		<tag k="ssr:stedsnr" v="888198" />
	</node>
	<node id="-843714" lat="63.4795055586" lon="9.76638889382">
		<tag k="name" v="Singstad" />
		<tag k="place" v="farm" />
		<tag k="ssr:stedsnr" v="316055" />
	</node>
	<node id="-843713" lat="63.5992444475" lon="9.53481945334">
		<tag k="name" v="Laukhaugen" />
		<tag k="place" v="farm" />
		<tag k="ssr:stedsnr" v="73087" />
	</node>
	<node id="-843199" lat="63.4473500044" lon="9.87719444541">
		<tag k="name" v="Aunet" />
		<tag k="place" v="farm" />
		<tag k="ssr:stedsnr" v="74088" />
	</node>
	<node id="-842686" lat="63.6158444416" lon="9.73284999446">
		<tag k="building" v="commercial" />
		<tag k="name" v="Elpro Selva" />
		<tag k="ssr:stedsnr" v="542577" />
	</node>
	<node id="-843196" lat="63.6196361108" lon="9.63408055197">
		<tag k="name" v="Hegg" />
		<tag k="place" v="farm" />
		<tag k="ssr:stedsnr" v="160209" />
	</node>
	<node id="-843195" lat="63.6268916649" lon="9.73997500324">
		<tag k="name" v="Breivika camping" />
		<tag k="ssr:stedsnr" v="605594" />
		<tag k="tourism" v="camp_site" />
	</node>
	<node id="-842681" lat="63.5911166698" lon="9.53880000623">
		<tag k="amenity" v="school" />
		<tag k="name" v="Slettvika skole" />
		<tag k="ssr:stedsnr" v="178578" />
	</node>
	<node id="-843192" lat="63.5822321279" lon="9.74975687914">
		<tag k="fixme" v="consider place=hamlet" />
		<tag k="name" v="Grønningen" />
		<tag k="place" v="farm" />
		<tag k="ssr:stedsnr" v="377544" />
	</node>
	<node id="-844020" lat="63.6138749968" lon="9.71321944483">
		<tag k="name" v="Holtet" />
		<tag k="place" v="farm" />
		<tag k="ssr:stedsnr" v="888177" />
	</node>
	<node id="-842299" lat="63.6239222222" lon="9.68948889399">
		<tag k="name" v="Svean" />
		<tag k="place" v="farm" />
		<tag k="ssr:stedsnr" v="463297" />
	</node>
	<node id="-843699" lat="63.4802500006" lon="9.77271945173">
		<tag k="fixme" v="consider place=hamlet" />
		<tag k="name" v="Singstad" />
		<tag k="place" v="village" />
		<tag k="ssr:stedsnr" v="523433" />
	</node>
	<node id="-842672" lat="63.3976500034" lon="9.7886249964">
		<tag k="alt_name" v="Håvardsdalssætra" />
		<tag k="name" v="Håvårdsdalssætra" />
		<tag k="place" v="isolated_dwelling" />
		<tag k="ssr:stedsnr" v="741460" />
	</node>
	<node id="-842671" lat="63.6235027789" lon="9.72727778059">
		<tag k="name" v="Breivika" />
		<tag k="place" v="hamlet" />
		<tag k="ssr:stedsnr" v="402355" />
	</node>
	<node id="-842667" lat="63.4804972245" lon="9.86265555209">
		<tag k="fixme" v="consider place=hamlet" />
		<tag k="name" v="Sørlotten" />
		<tag k="place" v="farm" />
		<tag k="ssr:stedsnr" v="462038" />
	</node>
	<node id="-843685" lat="63.572225003" lon="9.78469722669">
		<tag k="name" v="Åremsanden" />
		<tag k="place" v="farm" />
		<tag k="ssr:stedsnr" v="402157" />
	</node>
	<node id="-843682" lat="63.4753166655" lon="9.75314722036">
		<tag k="name" v="Aunet" />
		<tag k="place" v="farm" />
		<tag k="ssr:stedsnr" v="644089" />
	</node>
	<node id="-842657" lat="63.5061416702" lon="9.82228055376">
		<tag k="leisure" v="pitch" />
		<tag k="name" v="Lensvik kunstgressbane" />
		<tag k="ssr:stedsnr" v="722582" />
	</node>
	<node id="-843167" lat="63.4654250041" lon="9.89354167467">
		<tag k="leisure" v="pitch" />
		<tag k="name" v="Ingdalen fotballbane" />
		<tag k="ssr:stedsnr" v="419574" />
	</node>
	<node id="-843247" lat="63.4697636455" lon="9.70944535317">
		<tag k="name" v="Øyangen" />
		<tag k="place" v="hamlet" />
		<tag k="ssr:stedsnr" v="99117" />
	</node>
	<node id="-843159" lat="63.5128527792" lon="9.80423887929">
		<tag k="alt_name" v="Nystu" />
		<tag k="name" v="Melland" />
		<tag k="place" v="farm" />
		<tag k="ssr:stedsnr" v="863661" />
	</node>
	<node id="-843670" lat="63.6110361122" lon="9.69686110409">
		<tag k="name" v="Selven" />
		<tag k="place" v="farm" />
		<tag k="ssr:stedsnr" v="99210" />
	</node>
	<node id="-843157" lat="63.5585944475" lon="9.80096388418">
		<tag k="alt_name" v="Lauvvika" />
		<tag k="name" v="Løvika" />
		<tag k="place" v="farm" />
		<tag k="ssr:stedsnr" v="74613" />
	</node>
	<node id="-843156" lat="63.5941944475" lon="9.3917750007">
		<tag k="name" v="Gjerdet" />
		<tag k="place" v="farm" />
		<tag k="ssr:stedsnr" v="438072" />
	</node>
	<node id="-842641" lat="63.6203527748" lon="9.69026111705">
		<tag k="name" v="Løstadmyra" />
		<tag k="place" v="farm" />
		<tag k="ssr:stedsnr" v="888284" />
	</node>
	<node id="-843664" lat="63.6105027759" lon="9.66893055984">
		<tag k="amenity" v="school" />
		<tag k="name" v="Lysheim skole" />
		<tag k="ssr:stedsnr" v="647248" />
	</node>
	<node id="-843663" lat="63.4934500041" lon="9.82664999597">
		<tag k="name" v="Dalan" />
		<tag k="place" v="farm" />
		<tag k="ssr:stedsnr" v="13026" />
	</node>
	<node id="-842638" lat="63.5061749975" lon="9.80048056099">
		<tag k="leisure" v="pitch" />
		<tag k="name" v="Åsmyra fotballstadion" />
		<tag k="ssr:stedsnr" v="116568" />
	</node>
	<node id="-843267" lat="63.5010416661" lon="9.82773610886">
		<tag k="name" v="Leiringen" />
		<tag k="place" v="farm" />
		<tag k="ssr:stedsnr" v="827045" />
	</node>
	<node id="-843660" lat="63.5051444435" lon="9.82261388781">
		<tag k="amenity" v="school" />
		<tag k="name" v="Lensvik skole" />
		<tag k="ssr:stedsnr" v="101207" />
	</node>
	<node id="-843147" lat="63.4440999996" lon="9.91691112103">
		<tag k="alt_name" v="Brovoll" />
		<tag k="name" v="Bruvoll" />
		<tag k="place" v="farm" />
		<tag k="ssr:stedsnr" v="195094" />
	</node>
	<node id="-843658" lat="63.4501361126" lon="9.90746387984">
		<tag k="name" v="Myra" />
		<tag k="place" v="farm" />
		<tag k="ssr:stedsnr" v="705100" />
	</node>
	<node id="-842633" lat="63.6379861147" lon="9.69782499044">
		<tag k="name" v="Valset" />
		<tag k="place" v="farm" />
		<tag k="ssr:stedsnr" v="888286" />
	</node>
	<node id="-843656" lat="63.6113944433" lon="9.62829444276">
		<tag k="name" v="Reitan" />
		<tag k="place" v="hamlet" />
		<tag k="ssr:stedsnr" v="134099" />
	</node>
	<node id="-843655" lat="63.4614118119" lon="9.90329507207">
		<tag k="alt_name" v="Ner Ingdalen;Ingdal, nedre" />
		<tag k="fixme" v="consider place=hamlet" />
		<tag k="name" v="Nedre Ingdal" />
		<tag k="place" v="farm" />
		<tag k="ssr:stedsnr" v="377065" />
	</node>
	<node id="-843900" lat="63.4552111069" lon="9.89164167185">
		<tag k="name" v="Bakken" />
		<tag k="place" v="farm" />
		<tag k="ssr:stedsnr" v="159044" />
	</node>
	<node id="-842305" lat="63.5421047774" lon="9.58178817297">
		<tag k="fixme" v="consider place=hamlet" />
		<tag k="name" v="Holtan" />
		<tag k="place" v="farm" />
		<tag k="ssr:stedsnr" v="134176" />
	</node>
	<node id="-842626" lat="63.5155010926" lon="9.78256523976">
		<tag k="name" v="Landrø" />
		<tag k="place" v="hamlet" />
		<tag k="ssr:stedsnr" v="705419" />
	</node>
	<node id="-844011" lat="63.495619445" lon="9.79702777393">
		<tag k="name" v="Ligård" />
		<tag k="place" v="farm" />
		<tag k="ssr:stedsnr" v="619032" />
	</node>
	<node id="-843647" lat="63.5755333375" lon="9.32832221806">
		<tag k="fixme" v="consider place=hamlet" />
		<tag k="name" v="Sørleksa" />
		<tag k="place" v="village" />
		<tag k="ssr:stedsnr" v="37971" />
	</node>
	<node id="-842645" lat="63.4984735784" lon="9.83016094144">
		<tag k="alt_name" v="Innergarden" />
		<tag k="fixme" v="consider place=hamlet" />
		<tag k="name" v="Innergården" />
		<tag k="old_name" v="Indergarden" />
		<tag k="place" v="farm" />
		<tag k="ssr:stedsnr" v="498028" />
	</node>
	<node id="-843644" lat="63.6181700392" lon="9.60032287745">
		<tag k="name" v="Raustein" />
		<tag k="place" v="farm" />
		<tag k="ssr:stedsnr" v="298960" />
	</node>
	<node id="-843130" lat="63.6009222248" lon="9.6099305527">
		<tag k="name" v="Barset" />
		<tag k="place" v="farm" />
		<tag k="ssr:stedsnr" v="888388" />
	</node>
	<node id="-842614" lat="63.5489527739" lon="9.81628889417">
		<tag k="alt_name" v="Trøa" />
		<tag k="name" v="Selnes" />
		<tag k="place" v="farm" />
		<tag k="ssr:stedsnr" v="772538" />
	</node>
	<node id="-843637" lat="63.449391664" lon="9.81389166989">
		<tag k="name" v="Grova" />
		<tag k="place" v="isolated_dwelling" />
		<tag k="ssr:stedsnr" v="134091" />
	</node>
	<node id="-842814" lat="63.4335527768" lon="9.64884723165">
		<tag k="name" v="Steinvassbua" />
		<tag k="place" v="isolated_dwelling" />
		<tag k="ssr:stedsnr" v="965574" />
	</node>
	<node id="-843633" lat="63.5685274791" lon="9.56525990053">
		<tag k="name" v="Lauvneset" />
		<tag k="place" v="farm" />
		<tag k="ssr:stedsnr" v="949421" />
	</node>
	<node id="-843120" lat="63.5056805598" lon="9.8261444485">
		<tag k="building" v="commercial" />
		<tag k="name" v="Agdenes rådhus" />
		<tag k="ssr:stedsnr" v="419582" />
	</node>
	<node id="-843631" lat="63.4674194425" lon="9.89261665966">
		<tag k="name" v="Tronstad" />
		<tag k="place" v="farm" />
		<tag k="ssr:stedsnr" v="680062" />
	</node>
	<node id="-843118" lat="63.5054194401" lon="9.80150833566">
		<tag k="name" v="Rønningan" />
		<tag k="place" v="farm" />
		<tag k="ssr:stedsnr" v="524181" />
	</node>
	<node id="-843628" lat="63.6200888933" lon="9.68153055499">
		<tag k="name" v="Tofta" />
		<tag k="place" v="farm" />
		<tag k="ssr:stedsnr" v="342243" />
	</node>
	<node id="-844139" lat="63.4996388932" lon="9.82894721747">
		<tag k="name" v="Perstu" />
		<tag k="place" v="farm" />
		<tag k="ssr:stedsnr" v="523060" />
	</node>
	<node id="-843626" lat="63.6203361145" lon="9.62728055596">
		<tag k="name" v="Utheim" />
		<tag k="place" v="farm" />
		<tag k="ssr:stedsnr" v="680077" />
	</node>
	<node id="-844135" lat="63.4956027764" lon="9.82590555346">
		<tag k="name" v="Jostu" />
		<tag k="place" v="farm" />
		<tag k="ssr:stedsnr" v="523063" />
	</node>
	<node id="-842598" lat="63.4790611101" lon="9.78193332399">
		<tag k="name" v="Nygård" />
		<tag k="place" v="farm" />
		<tag k="ssr:stedsnr" v="498062" />
	</node>
	<node id="-843109" lat="63.448327778" lon="9.8820999956">
		<tag k="name" v="Grostad" />
		<tag k="place" v="farm" />
		<tag k="ssr:stedsnr" v="498084" />
	</node>
	<node id="-843108" lat="63.4490638845" lon="9.88484999249">
		<tag k="name" v="Grostad" />
		<tag k="place" v="hamlet" />
		<tag k="ssr:stedsnr" v="584076" />
	</node>
	<node id="-843619" lat="63.5064472183" lon="9.82849722178">
		<tag k="amenity" v="nursing_home" />
		<tag k="name" v="Agdenes helsesenter" />
		<tag k="ssr:stedsnr" v="480596" />
	</node>
	<node id="-843106" lat="63.4706888881" lon="9.73182222837">
		<tag k="name" v="Bjørnstad" />
		<tag k="place" v="hamlet" />
		<tag k="ssr:stedsnr" v="99087" />
	</node>
	<node id="-843835" lat="63.5557777768" lon="9.57928889208">
		<tag k="fixme" v="consider place=hamlet" />
		<tag k="name" v="Fjorden" />
		<tag k="place" v="farm" />
		<tag k="ssr:stedsnr" v="645454" />
	</node>
	<node id="-843616" lat="63.6183134493" lon="9.71920771658">
		<tag k="fixme" v="consider place=hamlet" />
		<tag k="name" v="Selvlia" />
		<tag k="place" v="farm" />
		<tag k="ssr:stedsnr" v="864000" />
	</node>
	<node id="-843103" lat="63.594331616" lon="9.55487055251">
		<tag k="name" v="Hopavågen" />
		<tag k="place" v="farm" />
		<tag k="ssr:stedsnr" v="195091" />
	</node>
	<node id="-843614" lat="63.6190111148" lon="9.63891388715">
		<tag k="fixme" v="consider place=hamlet" />
		<tag k="name" v="Vassbygda" />
		<tag k="place" v="village" />
		<tag k="ssr:stedsnr" v="680073" />
	</node>
	<node id="-844125" lat="63.4961749982" lon="9.82333612078">
		<tag k="name" v="Nyheim" />
		<tag k="place" v="farm" />
		<tag k="ssr:stedsnr" v="523064" />
	</node>
	<node id="-843611" lat="63.5191222212" lon="9.8041388886">
		<tag k="name" v="Bondvika" />
		<tag k="place" v="farm" />
		<tag k="ssr:stedsnr" v="438659" />
	</node>
	<node id="-842586" lat="63.5735410347" lon="9.78355687206">
		<tag k="fixme" v="consider place=hamlet" />
		<tag k="name" v="Åremmen" />
		<tag k="place" v="farm" />
		<tag k="ssr:stedsnr" v="377510" />
	</node>
	<node id="-842330" lat="63.4513166665" lon="9.90794444945">
		<tag k="name" v="Eggan" />
		<tag k="place" v="farm" />
		<tag k="ssr:stedsnr" v="523089" />
	</node>
	<node id="-843605" lat="63.6359882627" lon="9.69567420236">
		<tag k="fixme" v="consider place=hamlet" />
		<tag k="name" v="Valset" />
		<tag k="place" v="farm" />
		<tag k="ssr:stedsnr" v="73071" />
	</node>
	<node id="-843091" lat="63.6155590907" lon="9.71044087808">
		<tag k="fixme" v="consider place=hamlet" />
		<tag k="name" v="Selven" />
		<tag k="old_name" v="Storgjøta" />
		<tag k="place" v="farm" />
		<tag k="ssr:stedsnr" v="438062" />
	</node>
	<node id="-843600" lat="63.4759861102" lon="9.77484443541">
		<tag k="name" v="Nytun" />
		<tag k="place" v="farm" />
		<tag k="ssr:stedsnr" v="741064" />
	</node>
	<node id="-843086" lat="63.5407527809" lon="9.83022778464">
		<tag k="name" v="Neset" />
		<tag k="place" v="farm" />
		<tag k="ssr:stedsnr" v="463023" />
	</node>
	<node id="-843597" lat="63.4777861154" lon="9.76815277419">
		<tag k="name" v="Singstad" />
		<tag k="place" v="hamlet" />
		<tag k="ssr:stedsnr" v="766381" />
	</node>
	<node id="-843596" lat="63.5889027789" lon="9.5473194513">
		<tag k="name" v="Eidet" />
		<tag k="place" v="farm" />
		<tag k="ssr:stedsnr" v="99654" />
	</node>
	<node id="-843594" lat="63.4568680385" lon="9.90708696782">
		<tag k="alt_name" v="Ingdal, øvre;Øver Ingdalen" />
		<tag k="name" v="Øvre Ingdal" />
		<tag k="place" v="farm" />
		<tag k="ssr:stedsnr" v="802102" />
	</node>
	<node id="-843148" lat="63.5109277813" lon="9.81706110985">
		<tag k="name" v="Vika" />
		<tag k="place" v="farm" />
		<tag k="ssr:stedsnr" v="341245" />
	</node>
	<node id="-843589" lat="63.4750638125" lon="9.78994302418">
		<tag k="fixme" v="consider place=hamlet" />
		<tag k="name" v="Auset" />
		<tag k="place" v="farm" />
		<tag k="ssr:stedsnr" v="134078" />
	</node>
	<node id="-842559" lat="63.4729916688" lon="9.70928889265">
		<tag k="name" v="Myran" />
		<tag k="place" v="farm" />
		<tag k="ssr:stedsnr" v="341102" />
	</node>
	<node id="-843065" lat="63.505494441" lon="9.77942778452">
		<tag k="name" v="Grindhaugen" />
		<tag k="place" v="farm" />
		<tag k="ssr:stedsnr" v="524191" />
	</node>
	<node id="-843576" lat="63.515338892" lon="9.79822222219">
		<tag k="alt_name" v="Haugen øvre" />
		<tag k="name" v="Øvre Haugen" />
		<tag k="place" v="farm" />
		<tag k="ssr:stedsnr" v="159399" />
	</node>
	<node id="-843063" lat="63.5183277817" lon="9.79681665797">
		<tag k="name" v="Andersplasen" />
		<tag k="place" v="farm" />
		<tag k="ssr:stedsnr" v="523757" />
	</node>
	<node id="-842377" lat="63.5054500003" lon="9.82089444721">
		<tag k="amenity" v="kindergarten" />
		<tag k="name" v="Lensvik barnehage" />
		<tag k="ssr:stedsnr" v="237572" />
	</node>
	<node id="-842543" lat="63.6207583348" lon="9.67598333777">
		<tag k="name" v="Vatn" />
		<tag k="place" v="farm" />
		<tag k="ssr:stedsnr" v="888240" />
	</node>
	<node id="-843054" lat="63.6197333349" lon="9.63862776773">
		<tag k="name" v="Hegg" />
		<tag k="place" v="farm" />
		<tag k="ssr:stedsnr" v="38297" />
	</node>
	<node id="-842608" lat="63.5151333372" lon="9.78368056259">
		<tag k="name" v="Aunan" />
		<tag k="place" v="farm" />
		<tag k="ssr:stedsnr" v="765358" />
	</node>
	<node id="-843052" lat="63.4448305534" lon="9.79324999304">
		<tag k="name" v="Tuva" />
		<tag k="place" v="isolated_dwelling" />
		<tag k="ssr:stedsnr" v="195083" />
	</node>
	<node id="-843563" lat="63.498850001" lon="9.78699443861">
		<tag k="name" v="Tangvik" />
		<tag k="place" v="farm" />
		<tag k="ssr:stedsnr" v="741041" />
	</node>
	<node id="-842537" lat="63.5359194455" lon="9.58663054793">
		<tag k="name" v="Vorrvika" />
		<tag k="place" v="farm" />
		<tag k="ssr:stedsnr" v="741179" />
	</node>
	<node id="-843047" lat="63.4564277749" lon="9.90265277461">
		<tag k="name" v="Meland" />
		<tag k="place" v="farm" />
		<tag k="ssr:stedsnr" v="99073" />
	</node>
	<node id="-842801" lat="63.4918694463" lon="9.76679999965">
		<tag k="name" v="Skavlia" />
		<tag k="place" v="farm" />
		<tag k="ssr:stedsnr" v="195043" />
	</node>
	<node id="-843556" lat="63.6190292558" lon="9.68458822794">
		<tag k="name" v="Løstad" />
		<tag k="place" v="farm" />
		<tag k="ssr:stedsnr" v="524279" />
	</node>
	<node id="-844067" lat="63.4946944444" lon="9.72876111064">
		<tag k="name" v="Solem" />
		<tag k="place" v="hamlet" />
		<tag k="ssr:stedsnr" v="341451" />
	</node>
	<node id="-843042" lat="63.4945944444" lon="9.73606944687">
		<tag k="name" v="Kalslættet" />
		<tag k="place" v="farm" />
		<tag k="ssr:stedsnr" v="827447" />
	</node>
	<node id="-843041" lat="63.621511111" lon="9.68603332371">
		<tag k="name" v="Løstadbakken" />
		<tag k="place" v="farm" />
		<tag k="ssr:stedsnr" v="949295" />
	</node>
	<node id="-842527" lat="63.5425697748" lon="9.82167062001">
		<tag k="fixme" v="consider place=hamlet" />
		<tag k="name" v="Selnesaunet" />
		<tag k="place" v="farm" />
		<tag k="ssr:stedsnr" v="255681" />
	</node>
	<node id="-842373" lat="63.6175638854" lon="9.64594999695">
		<tag k="name" v="Nygården" />
		<tag k="place" v="farm" />
		<tag k="ssr:stedsnr" v="402308" />
	</node>
	<node id="-843035" lat="63.5810861091" lon="9.75167777877">
		<tag k="fixme" v="consider place=hamlet" />
		<tag k="name" v="Grønningen" />
		<tag k="place" v="village" />
		<tag k="ssr:stedsnr" v="220190" />
	</node>
	<node id="-843545" lat="63.5965012486" lon="9.62544931414">
		<tag k="fixme" v="consider place=hamlet" />
		<tag k="name" v="Musdalen" />
		<tag k="place" v="farm" />
		<tag k="ssr:stedsnr" v="558110" />
	</node>
	<node id="-843806" lat="63.5131861066" lon="9.79840833911">
		<tag k="name" v="Botnbakken" />
		<tag k="place" v="farm" />
		<tag k="ssr:stedsnr" v="583364" />
	</node>
	<node id="-843031" lat="63.6221739626" lon="9.67912069931">
		<tag k="fixme" v="consider place=hamlet" />
		<tag k="name" v="Vatn" />
		<tag k="place" v="farm" />
		<tag k="ssr:stedsnr" v="498078" />
	</node>
	<node id="-842402" lat="63.4961192892" lon="9.77709306282">
		<tag k="alt_name" v="Ulkstad" />
		<tag k="fixme" v="consider place=hamlet" />
		<tag k="name" v="Ulkestad" />
		<tag k="place" v="farm" />
		<tag k="ssr:stedsnr" v="863031" />
	</node>
	<node id="-843537" lat="63.5759100988" lon="9.56590393114">
		<tag k="alt_name" v="Vika" />
		<tag k="name" v="Musdalsvik" />
		<tag k="place" v="farm" />
		<tag k="ssr:stedsnr" v="202109" />
	</node>
	<node id="-843821" lat="63.6236472191" lon="9.68516666008">
		<tag k="name" v="Dalan" />
		<tag k="place" v="farm" />
		<tag k="ssr:stedsnr" v="220366" />
	</node>
	<node id="-842508" lat="63.5944142823" lon="9.53019085078">
		<tag k="fixme" v="consider place=hamlet" />
		<tag k="name" v="Rishaugen" />
		<tag k="place" v="farm" />
		<tag k="ssr:stedsnr" v="923098" />
	</node>
	<node id="-843223" lat="63.5032805576" lon="9.82239445024">
		<tag k="name" v="Vollan" />
		<tag k="place" v="farm" />
		<tag k="ssr:stedsnr" v="948018" />
	</node>
	<node id="-843016" lat="63.4596444418" lon="9.90930832929">
		<tag k="fixme" v="consider place=hamlet" />
		<tag k="name" v="Ingdalen" />
		<tag k="place" v="village" />
		<tag k="ssr:stedsnr" v="438057" />
	</node>
	<node id="-842503" lat="63.5823378126" lon="9.51493478576">
		<tag k="fixme" v="consider place=hamlet" />
		<tag k="name" v="Vernes" />
		<tag k="place" v="farm" />
		<tag k="ssr:stedsnr" v="389121" />
	</node>
	<node id="-842502" lat="63.503794444" lon="9.82769722875">
		<tag k="building" v="commercial" />
		<tag k="name" v="Coop Lensvik" />
		<tag k="ssr:stedsnr" v="237593" />
	</node>
	<node id="-844037" lat="63.4282888878" lon="9.77047500955">
		<tag k="name" v="Skilbreid" />
		<tag k="place" v="isolated_dwelling" />
		<tag k="ssr:stedsnr" v="316107" />
	</node>
	<node id="-843524" lat="63.4809527735" lon="9.78583888128">
		<tag k="alt_name" v="Slætta" />
		<tag k="name" v="Sletta" />
		<tag k="place" v="farm" />
		<tag k="ssr:stedsnr" v="134067" />
	</node>
	<node id="-844033" lat="63.6060111082" lon="9.56794443736">
		<tag k="name" v="Strand" />
		<tag k="place" v="farm" />
		<tag k="ssr:stedsnr" v="39368" />
	</node>
	<node id="-843005" lat="63.4851638897" lon="9.84422776865">
		<tag k="name" v="Nystu" />
		<tag k="place" v="farm" />
		<tag k="ssr:stedsnr" v="887031" />
	</node>
	<node id="-842490" lat="63.4926" lon="9.84508333283">
		<tag k="name" v="Trollia" />
		<tag k="place" v="farm" />
		<tag k="ssr:stedsnr" v="863044" />
	</node>
	<node id="-843513" lat="63.5134802589" lon="9.78403863609">
		<tag k="fixme" v="consider place=hamlet" />
		<tag k="name" v="Landrø" />
		<tag k="place" v="farm" />
		<tag k="ssr:stedsnr" v="74654" />
	</node>
	<node id="-843512" lat="63.6133194489" lon="9.65140556252">
		<tag k="name" v="Rønningen" />
		<tag k="place" v="farm" />
		<tag k="ssr:stedsnr" v="524264" />
	</node>
	<node id="-843511" lat="63.504922225" lon="9.78173889448">
		<tag k="name" v="Nygard" />
		<tag k="place" v="farm" />
		<tag k="ssr:stedsnr" v="376773" />
	</node>
	<node id="-842998" lat="63.454116663" lon="9.90613055859">
		<tag k="name" v="Nygård" />
		<tag k="place" v="farm" />
		<tag k="ssr:stedsnr" v="584074" />
	</node>
	<node id="-842484" lat="63.6194111072" lon="9.6531472132">
		<tag k="name" v="Nordgård" />
		<tag k="place" v="farm" />
		<tag k="ssr:stedsnr" v="281294" />
	</node>
	<node id="-844019" lat="63.3891527756" lon="9.76425832792">
		<tag k="name" v="Kattugla" />
		<tag k="place" v="locality" />
		<tag k="ssr:stedsnr" v="802442" />
	</node>
	<node id="-842481" lat="63.5680416705" lon="9.77776110888">
		<tag k="name" v="Trøa" />
		<tag k="place" v="farm" />
		<tag k="ssr:stedsnr" v="949196" />
	</node>
	<node id="-844016" lat="63.4280619477" lon="9.77011369321">
		<tag k="fixme" v="consider place=hamlet" />
		<tag k="name" v="Skjelbrei" />
		<tag k="place" v="farm" />
		<tag k="ssr:stedsnr" v="971056" />
	</node>
	<node id="-842280" lat="63.4880305517" lon="9.7927694456">
		<tag k="name" v="Ospbakken" />
		<tag k="place" v="farm" />
		<tag k="ssr:stedsnr" v="220451" />
	</node>
	<node id="-844013" lat="63.4727833342" lon="9.89023610693">
		<tag k="alt_name" v="Vikamoen" />
		<tag k="name" v="Vikamo" />
		<tag k="place" v="farm" />
		<tag k="ssr:stedsnr" v="13075" />
	</node>
	<node id="-842987" lat="63.5963111125" lon="9.6257861058">
		<tag k="name" v="Vestre Musdalen" />
		<tag k="place" v="farm" />
		<tag k="ssr:stedsnr" v="582756" />
	</node>
	<node id="-842535" lat="63.5782444449" lon="9.75403889686">
		<tag k="name" v="Nyheim" />
		<tag k="place" v="farm" />
		<tag k="ssr:stedsnr" v="863573" />
	</node>
	<node id="-844008" lat="63.418098734" lon="9.8551900159">
		<tag k="alt_name" v="Ingdalssetra" />
		<tag k="historic" v="shieling" />
		<tag k="name" v="Ingdalsslættet" />
		<tag k="old_name" v="Ingdalsætra" />
		<tag k="place" v="locality" />
		<tag k="ssr:stedsnr" v="134144" />
	</node>
	<node id="-842471" lat="63.6108250035" lon="9.64910277529">
		<tag k="name" v="Lunda" />
		<tag k="place" v="farm" />
		<tag k="ssr:stedsnr" v="888259" />
	</node>
	<node id="-842982" lat="63.6068500032" lon="9.57029999447">
		<tag k="name" v="Strand" />
		<tag k="place" v="farm" />
		<tag k="ssr:stedsnr" v="195078" />
	</node>
	<node id="-844004" lat="63.4736978204" lon="9.86992344315">
		<tag k="fixme" v="consider place=hamlet" />
		<tag k="name" v="Fjølås" />
		<tag k="place" v="farm" />
		<tag k="ssr:stedsnr" v="971055" />
	</node>
	<node id="-842790" lat="63.6136944485" lon="9.58638888416">
		<tag k="name" v="Raustein" />
		<tag k="place" v="farm" />
		<tag k="ssr:stedsnr" v="99461" />
	</node>
	<node id="-842937" lat="63.6130111083" lon="9.70430000218">
		<tag k="name" v="Selven" />
		<tag k="place" v="farm" />
		<tag k="ssr:stedsnr" v="463181" />
	</node>
	<node id="-842465" lat="63.5019833371" lon="9.82601111199">
		<tag k="name" v="Ned Selbekken" />
		<tag k="place" v="farm" />
		<tag k="ssr:stedsnr" v="826017" />
	</node>
	<node id="-843488" lat="63.602261108" lon="9.65183054703">
		<tag k="name" v="Olderen" />
		<tag k="place" v="farm" />
		<tag k="ssr:stedsnr" v="524269" />
	</node>
	<node id="-843483" lat="63.3953388851" lon="9.74395278125">
		<tag k="historic" v="shieling" />
		<tag k="name" v="Austvass-setra" />
		<tag k="place" v="locality" />
		<tag k="ssr:stedsnr" v="281524" />
	</node>
	<node id="-844108" lat="63.4599138846" lon="9.91589167269">
		<tag k="name" v="Sjøtrøa" />
		<tag k="place" v="farm" />
		<tag k="ssr:stedsnr" v="159082" />
	</node>
	<node id="-842968" lat="63.4734333365" lon="9.88562221294">
		<tag k="name" v="Oldervika" />
		<tag k="old_name" v="Oldervik" />
		<tag k="place" v="farm" />
		<tag k="ssr:stedsnr" v="498071" />
	</node>
	<node id="-843475" lat="63.6103194468" lon="9.6958444462">
		<tag k="name" v="Sørheim" />
		<tag k="place" v="farm" />
		<tag k="ssr:stedsnr" v="558101" />
	</node>
	<node id="-842962" lat="63.5158416712" lon="9.78234999901">
		<tag k="name" v="Steinvollen" />
		<tag k="place" v="farm" />
		<tag k="ssr:stedsnr" v="705424" />
	</node>
	<node id="-843471" lat="63.5146472249" lon="9.8027361014">
		<tag k="alt_name" v="Haugen nedre" />
		<tag k="name" v="Nedre Haugen" />
		<tag k="place" v="farm" />
		<tag k="ssr:stedsnr" v="826676" />
	</node>
	<node id="-843980" lat="63.5011472257" lon="9.8154861167">
		<tag k="name" v="Vollahaugen boligfelt" />
		<tag k="place" v="quarter" />
		<tag k="ssr:stedsnr" v="284985" />
	</node>
	<node id="-842443" lat="63.5042194418" lon="9.84257778516">
		<tag k="building" v="commercial" />
		<tag k="name" v="Storvask Agdenes" />
		<tag k="ssr:stedsnr" v="57549" />
	</node>
	<node id="-843974" lat="63.4752588393" lon="9.76558625322">
		<tag k="fixme" v="consider place=hamlet" />
		<tag k="name" v="Singstad" />
		<tag k="place" v="farm" />
		<tag k="ssr:stedsnr" v="377124" />
	</node>
	<node id="-843973" lat="63.5136250017" lon="9.79376388914">
		<tag k="name" v="Landrø" />
		<tag k="place" v="farm" />
		<tag k="ssr:stedsnr" v="462350" />
	</node>
	<node id="-842946" lat="63.4527444477" lon="9.82561667529">
		<tag k="name" v="Bjørklia" />
		<tag k="place" v="isolated_dwelling" />
		<tag k="ssr:stedsnr" v="195075" />
	</node>
	<node id="-843969" lat="63.4743805566" lon="9.8806527843">
		<tag k="name" v="Tangvika" />
		<tag k="old_name" v="Tangvik" />
		<tag k="place" v="isolated_dwelling" />
		<tag k="ssr:stedsnr" v="13072" />
	</node>
	<node id="-842944" lat="63.6444833291" lon="9.73798889677">
		<tag k="fixme" v="consider place=hamlet" />
		<tag k="name" v="Agdenes" />
		<tag k="place" v="farm" />
		<tag k="ssr:stedsnr" v="498943" />
	</node>
	<node id="-843967" lat="63.4962000013" lon="9.84334166834">
		<tag k="alt_name" v="Vikhalsenn" />
		<tag k="name" v="Vikahalsen" />
		<tag k="place" v="farm" />
		<tag k="ssr:stedsnr" v="619026" />
	</node>
	<node id="-843454" lat="63.4979694475" lon="9.82739166878">
		<tag k="name" v="Larsstu" />
		<tag k="place" v="farm" />
		<tag k="ssr:stedsnr" v="281040" />
	</node>
	<node id="-843453" lat="63.6120527743" lon="9.65006944298">
		<tag k="name" v="Fremstad" />
		<tag k="place" v="hamlet" />
		<tag k="ssr:stedsnr" v="160253" />
	</node>
	<node id="-843449" lat="63.5517249956" lon="9.81211667204">
		<tag k="name" v="Erikstu" />
		<tag k="place" v="farm" />
		<tag k="ssr:stedsnr" v="38377" />
	</node>
	<node id="-843959" lat="63.5592138863" lon="9.57579722412">
		<tag k="name" v="Haugen" />
		<tag k="place" v="farm" />
		<tag k="ssr:stedsnr" v="645457" />
	</node>
	<node id="-842933" lat="63.4995111155" lon="9.79006943758">
		<tag k="name" v="Åsmulen" />
		<tag k="place" v="hamlet" />
		<tag k="ssr:stedsnr" v="99245" />
	</node>
	<node id="-843444" lat="63.5883500015" lon="9.39610832392">
		<tag k="name" v="Heradsvika" />
		<tag k="place" v="farm" />
		<tag k="ssr:stedsnr" v="107953" />
	</node>
	<node id="-843955" lat="63.4830638917" lon="9.85040277143">
		<tag k="name" v="Nordlia" />
		<tag k="place" v="farm" />
		<tag k="ssr:stedsnr" v="24872" />
	</node>
	<node id="-842930" lat="63.56005278" lon="9.78097776817">
		<tag k="name" v="Størdal" />
		<tag k="place" v="hamlet" />
		<tag k="ssr:stedsnr" v="134644" />
	</node>
	<node id="-842417" lat="63.5833138905" lon="9.75286945014">
		<tag k="name" v="Bakken" />
		<tag k="place" v="farm" />
		<tag k="ssr:stedsnr" v="706144" />
	</node>
	<node id="-842928" lat="63.5798666661" lon="9.75306667619">
		<tag k="name" v="Holten" />
		<tag k="place" v="farm" />
		<tag k="ssr:stedsnr" v="827161" />
	</node>
	<node id="-842415" lat="63.4754247526" lon="9.82753869166">
		<tag k="fixme" v="consider place=hamlet" />
		<tag k="name" v="Øvre Tennel" />
		<tag k="place" v="farm" />
		<tag k="ssr:stedsnr" v="923077" />
	</node>
	<node id="-842414" lat="63.4470722259" lon="9.87649444801">
		<tag k="name" v="Gjerdet" />
		<tag k="place" v="farm" />
		<tag k="ssr:stedsnr" v="949161" />
	</node>
	<node id="-842922" lat="63.471496693" lon="9.72882776669">
		<tag k="fixme" v="consider place=hamlet" />
		<tag k="name" v="Bjørnstad" />
		<tag k="place" v="farm" />
		<tag k="ssr:stedsnr" v="559066" />
	</node>
	<node id="-842919" lat="63.5816861106" lon="9.51827500911">
		<tag k="name" v="Vernes camping" />
		<tag k="ssr:stedsnr" v="40610" />
		<tag k="tourism" v="camp_site" />
	</node>
	<node id="-843430" lat="63.5071027807" lon="9.78204167088">
		<tag k="name" v="Åsmyra" />
		<tag k="place" v="farm" />
		<tag k="ssr:stedsnr" v="376770" />
	</node>
	<node id="-843428" lat="63.6146666661" lon="9.71363888265">
		<tag k="amenity" v="cafe" />
		<tag k="name" v="Selva kro" />
		<tag k="ssr:stedsnr" v="844603" />
	</node>
	<node id="-843939" lat="63.5157416685" lon="9.7872583368">
		<tag k="name" v="Plassen" />
		<tag k="place" v="farm" />
		<tag k="ssr:stedsnr" v="401357" />
	</node>
	<node id="-843938" lat="63.44324167" lon="9.88231945294">
		<tag k="alt_name" v="Breiskardet" />
		<tag k="name" v="Breidskard" />
		<tag k="place" v="farm" />
		<tag k="ssr:stedsnr" v="316084" />
	</node>
	<node id="-843425" lat="63.6117852675" lon="9.65317551669">
		<tag k="fixme" v="consider place=hamlet" />
		<tag k="name" v="Fremstad" />
		<tag k="place" v="farm" />
		<tag k="ssr:stedsnr" v="862087" />
	</node>
	<node id="-842911" lat="63.6202305524" lon="9.65593888563">
		<tag k="name" v="Østgård" />
		<tag k="place" v="farm" />
		<tag k="ssr:stedsnr" v="645244" />
	</node>
	<node id="-843418" lat="63.4832249966" lon="9.85292499544">
		<tag k="name" v="Nordlia" />
		<tag k="place" v="farm" />
		<tag k="ssr:stedsnr" v="219020" />
	</node>
	<node id="-843928" lat="63.6123638927" lon="9.65295278409">
		<tag k="name" v="Bakken" />
		<tag k="place" v="farm" />
		<tag k="ssr:stedsnr" v="221273" />
	</node>
	<node id="-842903" lat="63.5044027763" lon="9.81345278318">
		<tag k="name" v="Øverle" />
		<tag k="place" v="farm" />
		<tag k="ssr:stedsnr" v="159248" />
	</node>
	<node id="-844057" lat="63.56901352" lon="9.56411681789">
		<tag k="fixme" v="consider place=hamlet" />
		<tag k="name" v="Lauvneset" />
		<tag k="place" v="farm" />
		<tag k="ssr:stedsnr" v="475145" />
	</node>
	<node id="-843411" lat="63.4993305533" lon="9.84294999901">
		<tag k="name" v="Granåsen" />
		<tag k="place" v="farm" />
		<tag k="ssr:stedsnr" v="680032" />
	</node>
	<node id="-843921" lat="63.4549138871" lon="9.89519723044">
		<tag k="name" v="Dalen" />
		<tag k="place" v="farm" />
		<tag k="ssr:stedsnr" v="159041" />
	</node>
	<node id="-843406" lat="63.5579305572" lon="9.57841667373">
		<tag k="name" v="Djupvika" />
		<tag k="place" v="isolated_dwelling" />
		<tag k="ssr:stedsnr" v="281509" />
	</node>
	<node id="-842891" lat="63.4743444485" lon="9.76951943943">
		<tag k="name" v="Myran" />
		<tag k="place" v="farm" />
		<tag k="ssr:stedsnr" v="827424" />
	</node>
	<node id="-843402" lat="63.4770250006" lon="9.83333332818">
		<tag k="name" v="Vollan" />
		<tag k="place" v="farm" />
		<tag k="ssr:stedsnr" v="220271" />
	</node>
	<node id="-843543" lat="63.4823416709" lon="9.78927499361">
		<tag k="name" v="Stormyra" />
		<tag k="place" v="farm" />
		<tag k="ssr:stedsnr" v="802077" />
	</node>
	<node id="-843912" lat="63.552042891" lon="9.81611920513">
		<tag k="fixme" v="consider place=hamlet" />
		<tag k="name" v="Selnes" />
		<tag k="place" v="farm" />
		<tag k="ssr:stedsnr" v="13588" />
	</node>
	<node id="-842604" lat="63.6193611149" lon="9.64837222071">
		<tag k="name" v="Nordgjerdet" />
		<tag k="place" v="farm" />
		<tag k="ssr:stedsnr" v="706253" />
	</node>
	<node id="-843910" lat="63.6152222229" lon="9.71222221463">
		<tag k="building" v="commercial" />
		<tag k="name" v="Selva senter" />
		<tag k="ssr:stedsnr" v="176581" />
	</node>
	<node id="-843397" lat="63.4457638869" lon="9.91166388588">
		<tag k="name" v="Dalan" />
		<tag k="place" v="hamlet" />
		<tag k="ssr:stedsnr" v="463101" />
	</node>
	<node id="-842372" lat="63.4817138876" lon="9.76353054968">
		<tag k="name" v="Skardet" />
		<tag k="place" v="isolated_dwelling" />
		<tag k="ssr:stedsnr" v="523110" />
	</node>
	<node id="-842374" lat="63.6204083305" lon="9.6069111085">
		<tag k="name" v="Hegg camping" />
		<tag k="ssr:stedsnr" v="666590" />
		<tag k="tourism" v="camp_site" />
	</node>
	<node id="-843906" lat="63.5206388859" lon="9.80880277768">
		<tag k="name" v="Bondvik" />
		<tag k="place" v="farm" />
		<tag k="ssr:stedsnr" v="462343" />
	</node>
	<node id="-843393" lat="63.6149583314" lon="9.63723334127">
		<tag k="name" v="Reitan" />
		<tag k="place" v="farm" />
		<tag k="ssr:stedsnr" v="160248" />
	</node>
	<node id="-843968" lat="63.5800388901" lon="9.33997499265">
		<tag k="name" v="Håvika" />
		<tag k="place" v="farm" />
		<tag k="ssr:stedsnr" v="680114" />
	</node>
	<node id="-842365" lat="63.6177555533" lon="9.64844722134">
		<tag k="name" v="Vestgården" />
		<tag k="place" v="farm" />
		<tag k="ssr:stedsnr" v="402309" />
	</node>
	<node id="-843388" lat="63.6070305307" lon="9.57054649108">
		<tag k="fixme" v="consider place=hamlet" />
		<tag k="name" v="Djupvikstrand" />
		<tag k="place" v="farm" />
		<tag k="ssr:stedsnr" v="971020" />
	</node>
	<node id="-844138" lat="63.4712138847" lon="9.7266722297">
		<tag k="name" v="Trøbakken" />
		<tag k="place" v="farm" />
		<tag k="ssr:stedsnr" v="159091" />
	</node>
	<node id="-842851" lat="63.4792111141" lon="9.77402778294">
		<tag k="name" v="Trøhaugen" />
		<tag k="place" v="farm" />
		<tag k="ssr:stedsnr" v="402401" />
	</node>
	<node id="-843894" lat="63.604178114" lon="9.59602292078">
		<tag k="fixme" v="consider place=hamlet" />
		<tag k="name" v="Eidem" />
		<tag k="place" v="farm" />
		<tag k="ssr:stedsnr" v="316076" />
	</node>
	<node id="-843942" lat="63.600838534" lon="9.60957328626">
		<tag k="name" v="Holtan" />
		<tag k="place" v="farm" />
		<tag k="ssr:stedsnr" v="741121" />
	</node>
	<node id="-842259" lat="63.6104111153" lon="9.66055276788">
		<tag k="name" v="Myran" />
		<tag k="place" v="farm" />
		<tag k="ssr:stedsnr" v="584312" />
	</node>
	<node id="-843965" lat="63.5921388917" lon="9.5204388963">
		<tag k="fixme" v="consider place=hamlet" />
		<tag k="name" v="Stavøya" />
		<tag k="place" v="farm" />
		<tag k="ssr:stedsnr" v="827672" />
	</node>
	<node id="-842348" lat="63.6103305594" lon="9.66896666193">
		<tag k="amenity" v="kindergarten" />
		<tag k="name" v="Mølnbukt barnehage" />
		<tag k="ssr:stedsnr" v="300589" />
	</node>
	<node id="-843371" lat="63.5833420656" lon="9.56946259521">
		<tag k="fixme" v="consider place=hamlet" />
		<tag k="name" v="Setran" />
		<tag k="place" v="farm" />
		<tag k="ssr:stedsnr" v="498122" />
	</node>
	<node id="-842346" lat="63.5045520052" lon="9.82430440912">
		<tag k="fixme" v="consider place=hamlet" />
		<tag k="name" v="Selbekken" />
		<tag k="place" v="farm" />
		<tag k="ssr:stedsnr" v="971060" />
	</node>
	<node id="-843878" lat="63.5050666674" lon="9.81963889803">
		<tag k="name" v="Øvergårdan" />
		<tag k="place" v="farm" />
		<tag k="ssr:stedsnr" v="523011" />
	</node>
	<node id="-842513" lat="63.5043999977" lon="9.8247916745">
		<tag k="name" v="Toften" />
		<tag k="place" v="farm" />
		<tag k="ssr:stedsnr" v="462013" />
	</node>
	<node id="-843876" lat="63.4552583318" lon="9.73710555368">
		<tag k="building" v="industrial" />
		<tag k="name" v="Valan renseanlegg" />
		<tag k="ssr:stedsnr" v="176579" />
	</node>
	<node id="-842854" lat="63.6200388898" lon="9.64112223061">
		<tag k="name" v="Mølna" />
		<tag k="place" v="farm" />
		<tag k="ssr:stedsnr" v="949242" />
	</node>
	<node id="-842407" lat="63.5813055594" lon="9.75256666207">
		<tag k="name" v="Auna" />
		<tag k="place" v="farm" />
		<tag k="ssr:stedsnr" v="706145" />
	</node>
	<node id="-843361" lat="63.5019611075" lon="9.82633611741">
		<tag k="name" v="Selbekken" />
		<tag k="place" v="farm" />
		<tag k="ssr:stedsnr" v="741035" />
	</node>
	<node id="-843869" lat="63.6089722211" lon="9.68286666">
		<tag k="name" v="Moen" />
		<tag k="place" v="farm" />
		<tag k="ssr:stedsnr" v="680100" />
	</node>
	<node id="-843356" lat="63.5823972184" lon="9.56845832898">
		<tag k="name" v="Setran" />
		<tag k="place" v="farm" />
		<tag k="ssr:stedsnr" v="220714" />
	</node>
	<node id="-843866" lat="63.6256222207" lon="9.73382776868">
		<tag k="name" v="Breivika" />
		<tag k="place" v="farm" />
		<tag k="ssr:stedsnr" v="134907" />
	</node>
	<node id="-843865" lat="63.6287454521" lon="9.73762507325">
		<tag k="fixme" v="consider place=hamlet" />
		<tag k="name" v="Djupvika" />
		<tag k="place" v="farm" />
		<tag k="ssr:stedsnr" v="377898" />
	</node>
	<node id="-842327" lat="63.4951055556" lon="9.83090555235">
		<tag k="name" v="Nydalen" />
		<tag k="place" v="farm" />
		<tag k="ssr:stedsnr" v="341044" />
	</node>
	<node id="-843961" lat="63.4693919973" lon="9.70909895659">
		<tag k="fixme" v="consider place=hamlet" />
		<tag k="name" v="Øyangen" />
		<tag k="place" v="farm" />
		<tag k="ssr:stedsnr" v="862973" />
	</node>
	<node id="-842323" lat="63.5794777783" lon="9.309330557">
		<tag k="name" v="Gangstøa" />
		<tag k="place" v="isolated_dwelling" />
		<tag k="ssr:stedsnr" v="255114" />
	</node>
	<node id="-843857" lat="63.4671111115" lon="9.71454444624">
		<tag k="name" v="Foss" />
		<tag k="place" v="farm" />
		<tag k="ssr:stedsnr" v="766428" />
	</node>
	<node id="-844009" lat="63.6108916695" lon="9.64484444363">
		<tag k="name" v="Skarda" />
		<tag k="place" v="farm" />
		<tag k="ssr:stedsnr" v="99301" />
	</node>
	<node id="-842831" lat="63.5481222237" lon="9.81575555812">
		<tag k="name" v="Petterstu" />
		<tag k="place" v="farm" />
		<tag k="ssr:stedsnr" v="827382" />
	</node>
	<node id="-843854" lat="63.5025000001" lon="9.80404999882">
		<tag k="name" v="Veneset" />
		<tag k="place" v="farm" />
		<tag k="ssr:stedsnr" v="584247" />
	</node>
	<node id="-842828" lat="63.6148777799" lon="9.71804166739">
		<tag k="name" v="Selvleiret industriområde" />
		<tag k="place" v="quarter" />
		<tag k="ssr:stedsnr" v="116599" />
	</node>
	<node id="-843339" lat="63.4865805559" lon="9.84579721413">
		<tag k="name" v="Gjerdet" />
		<tag k="place" v="farm" />
		<tag k="ssr:stedsnr" v="340030" />
	</node>
	<node id="-843882" lat="63.560130558" lon="9.77947221257">
		<tag k="name" v="Mælingan" />
		<tag k="place" v="farm" />
		<tag k="ssr:stedsnr" v="281153" />
	</node>
	<node id="-843334" lat="63.4884271544" lon="9.7879517499">
		<tag k="fixme" v="consider place=hamlet" />
		<tag k="name" v="Ølstran" />
		<tag k="place" v="farm" />
		<tag k="ssr:stedsnr" v="802068" />
	</node>
	<node id="-844129" lat="63.4920138914" lon="9.84516667486">
		<tag k="name" v="Hagan" />
		<tag k="place" v="farm" />
		<tag k="ssr:stedsnr" v="923049" />
	</node>
	<node id="-843842" lat="63.5440333293" lon="9.82291943447">
		<tag k="name" v="Selnesaunet" />
		<tag k="place" v="farm" />
		<tag k="ssr:stedsnr" v="159032" />
	</node>
	<node id="-842817" lat="63.4776111099" lon="9.77099166475">
		<tag k="name" v="Olastu" />
		<tag k="place" v="farm" />
		<tag k="ssr:stedsnr" v="402415" />
	</node>
	<node id="-843327" lat="63.5036472184" lon="9.77360834053">
		<tag k="alt_name" v="Aunet" />
		<tag k="name" v="Stertaunet" />
		<tag k="place" v="farm" />
		<tag k="ssr:stedsnr" v="680793" />
	</node>
	<node id="-843326" lat="63.5090305591" lon="9.78601388052">
		<tag k="building" v="commercial" />
		<tag k="name" v="Nordbygda grendahus" />
		<tag k="ssr:stedsnr" v="844584" />
	</node>
	<node id="-843836" lat="63.4826500028" lon="9.848469441">
		<tag k="name" v="Øverstu" />
		<tag k="place" v="farm" />
		<tag k="ssr:stedsnr" v="38015" />
	</node>
	<node id="-842811" lat="63.494949281" lon="9.72714179498">
		<tag k="fixme" v="consider place=hamlet" />
		<tag k="name" v="Solem" />
		<tag k="place" v="farm" />
		<tag k="ssr:stedsnr" v="438021" />
	</node>
	<node id="-842591" lat="63.4799833318" lon="9.76949722889">
		<tag k="name" v="Gårda" />
		<tag k="place" v="farm" />
		<tag k="ssr:stedsnr" v="281399" />
	</node>
	<node id="-843426" lat="63.6125944479" lon="9.63314166778">
		<tag k="name" v="Reitan" />
		<tag k="place" v="hamlet" />
		<tag k="ssr:stedsnr" v="524256" />
	</node>
	<node id="-843831" lat="63.4461305543" lon="9.87352778709">
		<tag k="name" v="Granlia" />
		<tag k="place" v="farm" />
		<tag k="ssr:stedsnr" v="741102" />
	</node>
	<node id="-843318" lat="63.5386183536" lon="9.5803875954">
		<tag k="fixme" v="consider place=hamlet" />
		<tag k="name" v="Bakken" />
		<tag k="place" v="farm" />
		<tag k="ssr:stedsnr" v="863144" />
	</node>
	<node id="-842805" lat="63.4938083357" lon="9.79820277448">
		<tag k="name" v="Lia" />
		<tag k="place" v="farm" />
		<tag k="ssr:stedsnr" v="498039" />
	</node>
	<node id="-842235" lat="63.5401459072" lon="9.82519791556">
		<tag k="fixme" v="consider place=hamlet" />
		<tag k="name" v="Kinebb" />
		<tag k="place" v="farm" />
		<tag k="ssr:stedsnr" v="134696" />
	</node>
	<node id="-843102" lat="63.504152776" lon="9.82648332458">
		<tag k="fixme" v="consider place=hamlet" />
		<tag k="name" v="Selbekken" />
		<tag k="place" v="village" />
		<tag k="ssr:stedsnr" v="13751" />
	</node>
	<node id="-842802" lat="63.5257253585" lon="9.58990929737">
		<tag k="fixme" v="consider place=hamlet" />
		<tag k="name" v="Steinsdalen" />
		<tag k="place" v="farm" />
		<tag k="ssr:stedsnr" v="316187" />
	</node>
	<node id="-843187" lat="63.6170388916" lon="9.64842778474">
		<tag k="building" v="commercial" />
		<tag k="name" v="Coop Mølnbukt" />
		<tag k="ssr:stedsnr" v="605596" />
	</node>
	<node id="-842399" lat="63.5970472239" lon="9.65348056359">
		<tag k="name" v="Øvervollen" />
		<tag k="place" v="farm" />
		<tag k="ssr:stedsnr" v="705735" />
	</node>
	<node id="-843823" lat="63.4895525244" lon="9.75100567608">
		<tag k="alt_name" v="Frosta" />
		<tag k="fixme" v="consider place=hamlet" />
		<tag k="name" v="Frostad" />
		<tag k="place" v="farm" />
		<tag k="ssr:stedsnr" v="13053" />
	</node>
	<node id="-843309" lat="63.6206944479" lon="9.66742778687">
		<tag k="name" v="Vatn" />
		<tag k="place" v="farm" />
		<tag k="ssr:stedsnr" v="160225" />
	</node>
	<node id="-843820" lat="63.5335292112" lon="9.57325346759">
		<tag k="fixme" v="consider place=hamlet" />
		<tag k="name" v="Asbjørnvik" />
		<tag k="place" v="farm" />
		<tag k="ssr:stedsnr" v="971045" />
	</node>
	<node id="-842282" lat="63.4466444417" lon="9.91697777977">
		<tag k="name" v="Solberg" />
		<tag k="place" v="farm" />
		<tag k="ssr:stedsnr" v="13103" />
	</node>
	<node id="-843817" lat="63.5800194467" lon="9.7591888949">
		<tag k="name" v="Myran" />
		<tag k="place" v="farm" />
		<tag k="ssr:stedsnr" v="888126" />
	</node>
	<node id="-842792" lat="63.4810527734" lon="9.77885833382">
		<tag k="name" v="Kjerringslættet" />
		<tag k="place" v="farm" />
		<tag k="ssr:stedsnr" v="827407" />
	</node>
	<node id="-843303" lat="63.5796499964" lon="9.31946944585">
		<tag k="name" v="Tokle" />
		<tag k="place" v="isolated_dwelling" />
		<tag k="ssr:stedsnr" v="827960" />
	</node>
	<node id="-843302" lat="63.5537666661" lon="9.75285000129">
		<tag k="alt_name" v="Oppigården;Størdal" />
		<tag k="name" v="Oppigard" />
		<tag k="place" v="farm" />
		<tag k="ssr:stedsnr" v="620546" />
	</node>
	<node id="-843812" lat="63.5985306704" lon="9.65368029077">
		<tag k="name" v="Vollen" />
		<tag k="place" v="farm" />
		<tag k="ssr:stedsnr" v="680109" />
	</node>
	<node id="-843496" lat="63.5011944451" lon="9.79952500311">
		<tag k="name" v="Brennet" />
		<tag k="place" v="farm" />
		<tag k="ssr:stedsnr" v="342206" />
	</node>
	<node id="-843099" lat="63.5111638845" lon="9.80235277371">
		<tag k="name" v="Endan" />
		<tag k="place" v="farm" />
		<tag k="ssr:stedsnr" v="524185" />
	</node>
	<node id="-843296" lat="63.6198472239" lon="9.66366666608">
		<tag k="name" v="Berg" />
		<tag k="place" v="farm" />
		<tag k="ssr:stedsnr" v="160227" />
	</node>
	<node id="-843294" lat="63.4733583353" lon="9.7348777709">
		<tag k="name" v="Gjerdet" />
		<tag k="place" v="farm" />
		<tag k="ssr:stedsnr" v="463067" />
	</node>
	<node id="-843269" lat="63.4653333356" lon="9.71124166501">
		<tag k="leisure" v="pitch" />
		<tag k="name" v="Øyangen lysløype" />
		<tag k="ssr:stedsnr" v="967893" />
	</node>
	<node id="-842267" lat="63.4998694483" lon="9.84819166321">
		<tag k="name" v="Vikan" />
		<tag k="place" v="farm" />
		<tag k="ssr:stedsnr" v="498743" />
	</node>
	<node id="-843287" lat="63.6176247318" lon="9.59925793885">
		<tag k="fixme" v="consider place=hamlet" />
		<tag k="name" v="Raustein" />
		<tag k="place" v="farm" />
		<tag k="ssr:stedsnr" v="862073" />
	</node>
	<node id="-843286" lat="63.6202111155" lon="9.65836667539">
		<tag k="name" v="Gjørrestolen" />
		<tag k="place" v="farm" />
		<tag k="ssr:stedsnr" v="160219" />
	</node>
	<node id="-843283" lat="63.4758111074" lon="9.75861665687">
		<tag k="name" v="Singstadaunet" />
		<tag k="place" v="farm" />
		<tag k="ssr:stedsnr" v="463073" />
	</node>
	<node id="-842258" lat="63.4444303677" lon="9.87676843663">
		<tag k="alt_name" v="Elvamyra" />
		<tag k="name" v="Elvevang" />
		<tag k="place" v="farm" />
		<tag k="ssr:stedsnr" v="13100" />
	</node>
	<node id="-843342" lat="63.5470583377" lon="9.8174222187">
		<tag k="name" v="Bekkjadalen" />
		<tag k="place" v="farm" />
		<tag k="ssr:stedsnr" v="281031" />
	</node>
	<node id="-842768" lat="63.5059255887" lon="9.78668119762">
		<tag k="fixme" v="consider place=hamlet" />
		<tag k="name" v="Sterten" />
		<tag k="place" v="farm" />
		<tag k="ssr:stedsnr" v="558792" />
	</node>
	<node id="-842242" lat="63.470802778" lon="9.89494444005">
		<tag k="name" v="Hestvika" />
		<tag k="place" v="farm" />
		<tag k="ssr:stedsnr" v="341038" />
	</node>
	<node id="-842250" lat="63.5458083307" lon="9.81631945395">
		<tag k="name" v="Selnesbakken" />
		<tag k="place" v="farm" />
		<tag k="ssr:stedsnr" v="134694" />
	</node>
	<node id="-842249" lat="63.5562915931" lon="9.7614257147">
		<tag k="fixme" v="consider place=hamlet" />
		<tag k="name" v="Størdal" />
		<tag k="place" v="farm" />
		<tag k="ssr:stedsnr" v="13622" />
	</node>
	<node id="-843783" lat="63.5273996804" lon="9.57972075289">
		<tag k="alt_name" v="Espe" />
		<tag k="fixme" v="consider place=hamlet" />
		<tag k="name" v="Espa" />
		<tag k="place" v="farm" />
		<tag k="ssr:stedsnr" v="706431" />
	</node>
	<node id="-842596" lat="63.6196416681" lon="9.65447777697">
		<tag k="name" v="Varvika" />
		<tag k="place" v="farm" />
		<tag k="ssr:stedsnr" v="195072" />
	</node>
	<node id="-842756" lat="63.5043666668" lon="9.82524167532">
		<tag k="amenity" v="cafe" />
		<tag k="name" v="Lensvik kro" />
		<tag k="ssr:stedsnr" v="722600" />
	</node>
	<node id="-842371" lat="63.5532888126" lon="9.57834402194">
		<tag k="name" v="Fjorden" />
		<tag k="place" v="farm" />
		<tag k="ssr:stedsnr" v="316141" />
	</node>
	<node id="-842754" lat="63.5072768474" lon="9.80218440643">
		<tag k="alt_name" v="Melangen;Meland" />
		<tag k="fixme" v="consider place=hamlet" />
		<tag k="name" v="Melland" />
		<tag k="place" v="farm" />
		<tag k="ssr:stedsnr" v="73751" />
	</node>
	<node id="-842830" lat="63.511900001" lon="9.8095638798">
		<tag k="name" v="Bukkhaugen" />
		<tag k="place" v="farm" />
		<tag k="ssr:stedsnr" v="645200" />
	</node>
</osm>
