<?xml version="1.0" encoding="UTF-8"?>
<osm generator="osmapis" version="0.6">
	<node id="-843775" lat="63.543336107" lon="9.58418333951">
		<tag k="name" v="Holtbekken" />
		<tag k="ssr:stedsnr" v="584658" />
		<tag k="waterway" v="stream" />
	</node>
	<node id="-843772" lat="63.4979583328" lon="9.82202223181">
		<tag k="name" v="Merkesgrøfta" />
		<tag k="ssr:stedsnr" v="159010" />
		<tag k="waterway" v="drain" />
	</node>
	<node id="-843769" lat="63.4886361134" lon="9.58246389855">
		<tag k="name" v="Rognlieidet" />
		<tag k="natural" v="strait" />
		<tag k="ssr:stedsnr" v="403471" />
	</node>
	<node id="-843764" lat="63.490277782" lon="9.79399166159">
		<tag k="name" v="Malifosshølen" />
		<tag k="place" v="locality" />
		<tag k="ssr:stedsnr" v="159441" />
	</node>
	<node id="-843763" lat="63.478383329" lon="9.83864722787">
		<tag k="name" v="Tennelselva" />
		<tag k="ssr:stedsnr" v="159005" />
		<tag k="waterway" v="river" />
	</node>
	<node id="-843761" lat="63.4870527769" lon="9.6883805545">
		<tag k="name" v="Kutjørna" />
		<tag k="natural" v="water" />
		<tag k="ssr:stedsnr" v="828438" />
	</node>
	<node id="-843758" lat="63.6109749993" lon="9.63702500718">
		<tag k="name" v="Skardsneset" />
		<tag k="natural" v="cape" />
		<tag k="ssr:stedsnr" v="342271" />
	</node>
	<node id="-843755" lat="63.4831444452" lon="9.68204721836">
		<tag k="name" v="Naustneset" />
		<tag k="natural" v="cape" />
		<tag k="ssr:stedsnr" v="828437" />
	</node>
	<node id="-843742" lat="63.4723500009" lon="9.81180833157">
		<tag k="name" v="Storbekken" />
		<tag k="ssr:stedsnr" v="523451" />
		<tag k="waterway" v="stream" />
	</node>
	<node id="-843733" lat="63.4842722246" lon="9.61311111641">
		<tag k="name" v="Bjugnskardtjørna" />
		<tag k="natural" v="water" />
		<tag k="ssr:stedsnr" v="706443" />
	</node>
	<node id="-843726" lat="63.4032833361" lon="9.82219723089">
		<tag k="name" v="Håvårdsdalsbekken" />
		<tag k="ssr:stedsnr" v="948585" />
		<tag k="waterway" v="stream" />
	</node>
	<node id="-843716" lat="63.4391666679" lon="9.86756110654">
		<tag k="name" v="Damtjørna" />
		<tag k="natural" v="water" />
		<tag k="ssr:stedsnr" v="620083" />
	</node>
	<node id="-843703" lat="63.4667666648" lon="9.66925555662">
		<tag k="name" v="Maliholneset" />
		<tag k="natural" v="cape" />
		<tag k="ssr:stedsnr" v="221209" />
	</node>
	<node id="-843698" lat="63.4800083314" lon="9.61179444415">
		<tag k="name" v="Kjøkkenbukta" />
		<tag k="natural" v="bay" />
		<tag k="ssr:stedsnr" v="403460" />
	</node>
	<node id="-843691" lat="63.4215277768" lon="9.84493888801">
		<tag k="name" v="Seterelva" />
		<tag k="ssr:stedsnr" v="644551" />
		<tag k="waterway" v="river" />
	</node>
	<node id="-843683" lat="63.4152249968" lon="9.788388888">
		<tag k="name" v="Mjøvatnet" />
		<tag k="natural" v="water" />
		<tag k="old_name" v="Mevatnet" />
		<tag k="ssr:stedsnr" v="558135" />
		<tag k="water" v="lake" />
	</node>
	<node id="-843678" lat="63.5404388848" lon="9.76597778525">
		<tag k="name" v="Slættbekken" />
		<tag k="ssr:stedsnr" v="160306" />
		<tag k="waterway" v="stream" />
	</node>
	<node id="-843667" lat="63.5211722221" lon="9.62801944173">
		<tag k="name" v="Skavla" />
		<tag k="ssr:stedsnr" v="463601" />
		<tag k="waterway" v="stream" />
	</node>
	<node id="-843666" lat="63.5271194439" lon="9.61786110132">
		<tag k="name" v="Krakmarktjørna" />
		<tag k="natural" v="water" />
		<tag k="ssr:stedsnr" v="403442" />
	</node>
	<node id="-843640" lat="63.5263027751" lon="9.57302778636">
		<tag k="name" v="Espebekken" />
		<tag k="ssr:stedsnr" v="403447" />
		<tag k="waterway" v="stream" />
	</node>
	<node id="-843635" lat="63.4552805575" lon="9.71575555319">
		<tag k="name" v="Graslibekken" />
		<tag k="ssr:stedsnr" v="645380" />
		<tag k="waterway" v="stream" />
	</node>
	<node id="-843634" lat="63.5316805531" lon="9.81820832656">
		<tag k="name" v="Erikvikbekken" />
		<tag k="ssr:stedsnr" v="195691" />
		<tag k="waterway" v="stream" />
	</node>
	<node id="-843627" lat="63.4645638891" lon="9.69092222633">
		<tag k="name" v="Fuggeløya" />
		<tag k="place" v="island" />
		<tag k="ssr:stedsnr" v="706402" />
	</node>
	<node id="-843624" lat="63.4352527823" lon="9.74338332475">
		<tag k="name" v="Skjeldbreiosen" />
		<tag k="natural" v="bay" />
		<tag k="ssr:stedsnr" v="221986" />
	</node>
	<node id="-843618" lat="63.4851444448" lon="9.68485555708">
		<tag k="name" v="Kutjørnosen" />
		<tag k="natural" v="bay" />
		<tag k="ssr:stedsnr" v="828435" />
	</node>
	<node id="-843607" lat="63.5720444411" lon="9.56282777766">
		<tag k="name" v="Springarbekken" />
		<tag k="ssr:stedsnr" v="403434" />
		<tag k="waterway" v="stream" />
	</node>
	<node id="-843606" lat="63.5155111096" lon="9.58933610193">
		<tag k="name" v="Espeelva" />
		<tag k="ssr:stedsnr" v="828425" />
		<tag k="waterway" v="stream" />
	</node>
	<node id="-843598" lat="63.4957138846" lon="9.60706667434">
		<tag k="name" v="Svinslættbekken" />
		<tag k="ssr:stedsnr" v="281087" />
		<tag k="waterway" v="stream" />
	</node>
	<node id="-843593" lat="63.6030111089" lon="9.72126666363">
		<tag k="name" v="Spæltrolltjørna" />
		<tag k="natural" v="water" />
		<tag k="ssr:stedsnr" v="99192" />
	</node>
	<node id="-843583" lat="63.4629944456" lon="9.70418610393">
		<tag k="name" v="Seterdalsholmen" />
		<tag k="place" v="islet" />
		<tag k="ssr:stedsnr" v="706385" />
	</node>
	<node id="-843578" lat="63.4857972184" lon="9.81880277169">
		<tag k="alt_name" v="Innergårdsbekken" />
		<tag k="name" v="Innergårdbekken" />
		<tag k="old_name" v="Indergardbekken" />
		<tag k="ssr:stedsnr" v="680048" />
		<tag k="waterway" v="stream" />
	</node>
	<node id="-843572" lat="63.5491583345" lon="9.779108336">
		<tag k="name" v="Selneselva" />
		<tag k="ssr:stedsnr" v="134612" />
		<tag k="waterway" v="stream" />
	</node>
	<node id="-843570" lat="63.5539972218" lon="9.71989166119">
		<tag k="name" v="Stakkengsbekken" />
		<tag k="ssr:stedsnr" v="888918" />
		<tag k="waterway" v="stream" />
	</node>
	<node id="-843565" lat="63.4982444408" lon="9.83675833825">
		<tag k="name" v="Leirbekken" />
		<tag k="ssr:stedsnr" v="705068" />
		<tag k="waterway" v="stream" />
	</node>
	<node id="-843560" lat="63.3948222252" lon="9.77444166438">
		<tag k="name" v="Håvårdsdalstjørna" />
		<tag k="natural" v="water" />
		<tag k="ssr:stedsnr" v="99636" />
	</node>
	<node id="-843557" lat="63.5815166654" lon="9.70858332992">
		<tag k="name" v="Granslætt-tjørna" />
		<tag k="natural" v="water" />
		<tag k="ssr:stedsnr" v="220749" />
	</node>
	<node id="-843550" lat="63.3903638845" lon="9.74486389351">
		<tag k="name" v="Holbekken" />
		<tag k="ssr:stedsnr" v="99640" />
		<tag k="waterway" v="stream" />
	</node>
	<node id="-843544" lat="63.5635833291" lon="9.7324249994">
		<tag k="name" v="Storvasslibekken" />
		<tag k="ssr:stedsnr" v="281993" />
		<tag k="waterway" v="stream" />
	</node>
	<node id="-843541" lat="63.4818555594" lon="9.68321388992">
		<tag k="name" v="Slupposen" />
		<tag k="natural" v="bay" />
		<tag k="ssr:stedsnr" v="949396" />
	</node>
	<node id="-843540" lat="63.4160722234" lon="9.84771387968">
		<tag k="name" v="Grønlibekken" />
		<tag k="ssr:stedsnr" v="827559" />
		<tag k="waterway" v="stream" />
	</node>
	<node id="-843532" lat="63.4164361082" lon="9.74829444232">
		<tag k="name" v="Lysvatnet" />
		<tag k="natural" v="water" />
		<tag k="ssr:stedsnr" v="888930" />
		<tag k="water" v="lake" />
	</node>
	<node id="-843530" lat="63.4669833374" lon="9.74078611669">
		<tag k="alt_name" v="Fjeringen;Fjæringen" />
		<tag k="name" v="Fjerdingen" />
		<tag k="natural" v="water" />
		<tag k="ssr:stedsnr" v="802089" />
	</node>
	<node id="-843529" lat="63.4924277791" lon="9.79083055189">
		<tag k="name" v="Pinøya" />
		<tag k="natural" v="cape" />
		<tag k="ssr:stedsnr" v="220288" />
	</node>
	<node id="-843527" lat="63.4889666625" lon="9.69606388223">
		<tag k="alt_name" v="Kjøltjørna" />
		<tag k="name" v="Kjølvatnet" />
		<tag k="natural" v="water" />
		<tag k="ssr:stedsnr" v="13000" />
	</node>
	<node id="-843523" lat="63.4345611138" lon="9.72018334326">
		<tag k="name" v="Fjellbekken" />
		<tag k="ssr:stedsnr" v="221962" />
		<tag k="waterway" v="stream" />
	</node>
	<node id="-843521" lat="63.562066664" lon="9.67829721768">
		<tag k="name" v="Klingermyrtjørna" />
		<tag k="natural" v="water" />
		<tag k="ssr:stedsnr" v="99627" />
	</node>
	<node id="-843520" lat="63.4962249991" lon="9.62451944102">
		<tag k="name" v="Grytbekken" />
		<tag k="ssr:stedsnr" v="402097" />
		<tag k="waterway" v="stream" />
	</node>
	<node id="-843514" lat="63.5381222228" lon="9.64950276839">
		<tag k="name" v="Holbekken" />
		<tag k="ssr:stedsnr" v="584589" />
		<tag k="waterway" v="stream" />
	</node>
	<node id="-843510" lat="63.5666277767" lon="9.7410666591">
		<tag k="name" v="Åremsvatnet" />
		<tag k="natural" v="water" />
		<tag k="ssr:stedsnr" v="680583" />
	</node>
	<node id="-843509" lat="63.5525277764" lon="9.61542777002">
		<tag k="name" v="Mylivatnet" />
		<tag k="natural" v="water" />
		<tag k="ssr:stedsnr" v="195143" />
	</node>
	<node id="-843504" lat="63.429483335" lon="9.86695554687">
		<tag k="name" v="Seterbekken" />
		<tag k="ssr:stedsnr" v="99172" />
		<tag k="waterway" v="stream" />
	</node>
	<node id="-843486" lat="63.5429305539" lon="9.79833056462">
		<tag k="name" v="Kinnabekken" />
		<tag k="ssr:stedsnr" v="437593" />
		<tag k="waterway" v="stream" />
	</node>
	<node id="-843480" lat="63.4690025169" lon="9.63357137115">
		<tag k="name" v="Gorrtjørna" />
		<tag k="natural" v="water" />
		<tag k="ssr:stedsnr" v="922975" />
	</node>
	<node id="-843479" lat="63.4679416681" lon="9.70607499832">
		<tag k="name" v="Øyangsbukta" />
		<tag k="natural" v="bay" />
		<tag k="ssr:stedsnr" v="706386" />
	</node>
	<node id="-843478" lat="63.4424611083" lon="9.73900554552">
		<tag k="name" v="Saglielva" />
		<tag k="ssr:stedsnr" v="281980" />
		<tag k="waterway" v="river" />
	</node>
	<node id="-843474" lat="63.5377972245" lon="9.67775833754">
		<tag k="name" v="Tjørnbekken" />
		<tag k="ssr:stedsnr" v="584597" />
		<tag k="waterway" v="stream" />
	</node>
	<node id="-843472" lat="63.4067361123" lon="9.77579999226">
		<tag k="name" v="Åltjørna" />
		<tag k="natural" v="water" />
		<tag k="ssr:stedsnr" v="74119" />
	</node>
	<node id="-843463" lat="63.4680611071" lon="9.73246945217">
		<tag k="name" v="Naustbukta" />
		<tag k="natural" v="bay" />
		<tag k="ssr:stedsnr" v="949370" />
	</node>
	<node id="-843461" lat="63.5589527774" lon="9.6627555488">
		<tag k="name" v="Damslættvatnet" />
		<tag k="natural" v="water" />
		<tag k="ssr:stedsnr" v="767587" />
		<tag k="water" v="lake" />
	</node>
	<node id="-843457" lat="63.3898416638" lon="9.74132222244">
		<tag k="name" v="Hølbekken" />
		<tag k="ssr:stedsnr" v="74380" />
		<tag k="waterway" v="stream" />
	</node>
	<node id="-843446" lat="63.41805278" lon="9.78976945023">
		<tag k="name" v="Mjøvasseidet" />
		<tag k="natural" v="strait" />
		<tag k="ssr:stedsnr" v="888889" />
	</node>
	<node id="-843443" lat="63.565074997" lon="9.61583889549">
		<tag k="name" v="Svantjørna" />
		<tag k="natural" v="water" />
		<tag k="ssr:stedsnr" v="498131" />
	</node>
	<node id="-843442" lat="63.4789916708" lon="9.73998611763">
		<tag k="name" v="Trygbekken" />
		<tag k="ssr:stedsnr" v="402082" />
		<tag k="waterway" v="stream" />
	</node>
	<node id="-843441" lat="63.4626361126" lon="9.89234444454">
		<tag k="name" v="Vikabekken" />
		<tag k="ssr:stedsnr" v="281036" />
		<tag k="waterway" v="stream" />
	</node>
	<node id="-843433" lat="63.5138444452" lon="9.73687222651">
		<tag k="name" v="Geitholbekken" />
		<tag k="ssr:stedsnr" v="281956" />
		<tag k="waterway" v="stream" />
	</node>
	<node id="-843432" lat="63.6113888926" lon="9.63485277547">
		<tag k="name" v="Reitbukta" />
		<tag k="natural" v="bay" />
		<tag k="ssr:stedsnr" v="524254" />
	</node>
	<node id="-843429" lat="63.4957944445" lon="9.75445278261">
		<tag k="name" v="Utnesvatnet" />
		<tag k="natural" v="water" />
		<tag k="ssr:stedsnr" v="680034" />
		<tag k="water" v="lake" />
	</node>
	<node id="-843424" lat="63.4673222262" lon="9.75063054755">
		<tag k="name" v="Kubukta" />
		<tag k="natural" v="bay" />
		<tag k="ssr:stedsnr" v="949365" />
	</node>
	<node id="-843419" lat="63.4665722244" lon="9.70433055518">
		<tag k="name" v="Småholman" />
		<tag k="place" v="islet" />
		<tag k="ssr:stedsnr" v="403398" />
	</node>
	<node id="-843407" lat="63.61803333" lon="9.66259722619">
		<tag k="name" v="Litlvatnet" />
		<tag k="natural" v="water" />
		<tag k="ssr:stedsnr" v="558092" />
		<tag k="water" v="lake" />
	</node>
	<node id="-843405" lat="63.433094449" lon="9.67588332455">
		<tag k="name" v="Svarttjørna" />
		<tag k="natural" v="water" />
		<tag k="ssr:stedsnr" v="281966" />
	</node>
	<node id="-843399" lat="63.5653888899" lon="9.66035277487">
		<tag k="name" v="Vassdalsneset" />
		<tag k="natural" v="cape" />
		<tag k="ssr:stedsnr" v="767579" />
	</node>
	<node id="-843398" lat="63.5568472196" lon="9.75470833998">
		<tag k="name" v="Nilsstubekken" />
		<tag k="ssr:stedsnr" v="99153" />
		<tag k="waterway" v="stream" />
	</node>
	<node id="-843396" lat="63.5457555555" lon="9.80319723177">
		<tag k="name" v="Bekkjadalselva" />
		<tag k="ssr:stedsnr" v="645327" />
		<tag k="waterway" v="stream" />
	</node>
	<node id="-843392" lat="63.5514888921" lon="9.75700278017">
		<tag k="name" v="Oppigardbekken" />
		<tag k="ssr:stedsnr" v="38362" />
		<tag k="waterway" v="stream" />
	</node>
	<node id="-843391" lat="63.4784750013" lon="9.6797444533">
		<tag k="name" v="Hoøyneset" />
		<tag k="natural" v="cape" />
		<tag k="ssr:stedsnr" v="281493" />
	</node>
	<node id="-843387" lat="63.6159944449" lon="9.5903111073">
		<tag k="name" v="Naustøra" />
		<tag k="natural" v="cape" />
		<tag k="ssr:stedsnr" v="949384" />
	</node>
	<node id="-843385" lat="63.5804333291" lon="9.6020694366">
		<tag k="name" v="Lauvnestjørna" />
		<tag k="natural" v="water" />
		<tag k="ssr:stedsnr" v="498120" />
	</node>
	<node id="-843381" lat="63.4840194476" lon="9.67065000159">
		<tag k="name" v="Ytter Storbulineset" />
		<tag k="natural" v="cape" />
		<tag k="ssr:stedsnr" v="281491" />
	</node>
	<node id="-843378" lat="63.5937222257" lon="9.63056388382">
		<tag k="name" v="Rivdalsbekken" />
		<tag k="ssr:stedsnr" v="341743" />
		<tag k="waterway" v="stream" />
	</node>
	<node id="-843369" lat="63.4856833318" lon="9.6720416662">
		<tag k="name" v="Storbulibukta" />
		<tag k="natural" v="bay" />
		<tag k="ssr:stedsnr" v="281488" />
	</node>
	<node id="-843362" lat="63.4588638898" lon="9.71328610177">
		<tag k="name" v="Seterdalsbekken" />
		<tag k="ssr:stedsnr" v="706367" />
		<tag k="waterway" v="stream" />
	</node>
	<node id="-843358" lat="63.5507972205" lon="9.66412777597">
		<tag k="name" v="Grønningsbekken" />
		<tag k="ssr:stedsnr" v="221550" />
		<tag k="waterway" v="stream" />
	</node>
	<node id="-843348" lat="63.624580558" lon="9.72277777976">
		<tag k="name" v="Kvernhusbekken" />
		<tag k="ssr:stedsnr" v="766330" />
		<tag k="waterway" v="stream" />
	</node>
	<node id="-843344" lat="63.4402666646" lon="9.70999167308">
		<tag k="name" v="Litltjørna" />
		<tag k="natural" v="water" />
		<tag k="ssr:stedsnr" v="888895" />
	</node>
	<node id="-843335" lat="63.489344444" lon="9.59598054792">
		<tag k="name" v="Herdalselva" />
		<tag k="ssr:stedsnr" v="463087" />
		<tag k="waterway" v="river" />
	</node>
	<node id="-843328" lat="63.5016055553" lon="9.57859444785">
		<tag k="name" v="Fugeltjørnan" />
		<tag k="natural" v="water" />
		<tag k="ssr:stedsnr" v="863170" />
	</node>
	<node id="-843301" lat="63.4579472261" lon="9.66550833573">
		<tag k="name" v="Litlneset" />
		<tag k="natural" v="cape" />
		<tag k="ssr:stedsnr" v="524224" />
	</node>
	<node id="-843300" lat="63.4275777759" lon="9.78137222035">
		<tag k="name" v="Urdtjørna" />
		<tag k="natural" v="water" />
		<tag k="ssr:stedsnr" v="99589" />
	</node>
	<node id="-843292" lat="63.4741250041" lon="9.86298888807">
		<tag k="name" v="Kvernhusfossen" />
		<tag k="natural" v="waterfall" />
		<tag k="ssr:stedsnr" v="219003" />
	</node>
	<node id="-843280" lat="63.4570222179" lon="9.69833056024">
		<tag k="name" v="Sundholman" />
		<tag k="place" v="islet" />
		<tag k="ssr:stedsnr" v="403374" />
	</node>
	<node id="-843276" lat="63.4871527766" lon="9.65004722428">
		<tag k="name" v="Herdalsosen" />
		<tag k="natural" v="bay" />
		<tag k="ssr:stedsnr" v="888412" />
	</node>
	<node id="-843268" lat="63.4303499989" lon="9.74628332556">
		<tag k="alt_name" v="Skjeldbreivatnet;Skjellbreia" />
		<tag k="name" v="Skilbreidvatnet" />
		<tag k="natural" v="water" />
		<tag k="ssr:stedsnr" v="584994" />
		<tag k="water" v="lake" />
	</node>
	<node id="-843253" lat="63.468669981" lon="9.63357396805">
		<tag k="name" v="Gorrtjørna" />
		<tag k="natural" v="water" />
		<tag k="ssr:stedsnr" v="281464" />
	</node>
	<node id="-843250" lat="63.4843277775" lon="9.69109999508">
		<tag k="name" v="Nausttjørna" />
		<tag k="natural" v="water" />
		<tag k="ssr:stedsnr" v="99118" />
	</node>
	<node id="-843249" lat="63.4238194453" lon="9.81018333717">
		<tag k="name" v="Granneset" />
		<tag k="natural" v="cape" />
		<tag k="ssr:stedsnr" v="281919" />
	</node>
	<node id="-843237" lat="63.4549083322" lon="9.86795833505">
		<tag k="name" v="Grostadtjørna" />
		<tag k="natural" v="water" />
		<tag k="ssr:stedsnr" v="681071" />
	</node>
	<node id="-843229" lat="63.5775638898" lon="9.74968334282">
		<tag k="name" v="Svebekken" />
		<tag k="ssr:stedsnr" v="583667" />
		<tag k="waterway" v="stream" />
	</node>
	<node id="-843227" lat="63.479036107" lon="9.86305833717">
		<tag k="name" v="Sørlottbekken" />
		<tag k="ssr:stedsnr" v="705030" />
		<tag k="waterway" v="stream" />
	</node>
	<node id="-843217" lat="63.4290972226" lon="9.71746945441">
		<tag k="name" v="Singstadtjørna" />
		<tag k="natural" v="water" />
		<tag k="ssr:stedsnr" v="342959" />
	</node>
	<node id="-843215" lat="63.461663885" lon="9.73366945391">
		<tag k="name" v="Valelvosen" />
		<tag k="natural" v="bay" />
		<tag k="ssr:stedsnr" v="281458" />
	</node>
	<node id="-843212" lat="63.4591472253" lon="9.90126944371">
		<tag k="name" v="Kvernhushølen" />
		<tag k="place" v="locality" />
		<tag k="ssr:stedsnr" v="463052" />
	</node>
	<node id="-843211" lat="63.555675002" lon="9.76907222466">
		<tag k="name" v="Tverrlibekken" />
		<tag k="ssr:stedsnr" v="221120" />
		<tag k="waterway" v="stream" />
	</node>
	<node id="-843206" lat="63.5686611149" lon="9.77047777588">
		<tag k="name" v="Åremselva" />
		<tag k="ssr:stedsnr" v="134564" />
		<tag k="waterway" v="stream" />
	</node>
	<node id="-843205" lat="63.5487527764" lon="9.79516110418">
		<tag k="name" v="kvernhushølen" />
		<tag k="place" v="locality" />
		<tag k="ssr:stedsnr" v="645319" />
	</node>
	<node id="-843204" lat="63.5933944421" lon="9.74533610132">
		<tag k="name" v="Kallurddalselva" />
		<tag k="ssr:stedsnr" v="583673" />
		<tag k="waterway" v="river" />
	</node>
	<node id="-843202" lat="63.451377779" lon="9.89216666205">
		<tag k="name" v="Grostadbekken" />
		<tag k="ssr:stedsnr" v="463057" />
		<tag k="waterway" v="stream" />
	</node>
	<node id="-843197" lat="63.492877782" lon="9.62439165703">
		<tag k="name" v="Gryta" />
		<tag k="natural" v="water" />
		<tag k="ssr:stedsnr" v="99108" />
	</node>
	<node id="-843194" lat="63.5471166696" lon="9.67931388906">
		<tag k="name" v="Holmtjørna" />
		<tag k="natural" v="water" />
		<tag k="ssr:stedsnr" v="863151" />
	</node>
	<node id="-843176" lat="63.5026333341" lon="9.79503611016">
		<tag k="name" v="Lena" />
		<tag k="ssr:stedsnr" v="13759" />
		<tag k="waterway" v="river" />
	</node>
	<node id="-843166" lat="63.4946138902" lon="9.61525000127">
		<tag k="name" v="Langvassbekken" />
		<tag k="ssr:stedsnr" v="99106" />
		<tag k="waterway" v="stream" />
	</node>
	<node id="-843164" lat="63.530624996" lon="9.65407777178">
		<tag k="name" v="Størdalselva" />
		<tag k="ssr:stedsnr" v="341695" />
		<tag k="waterway" v="river" />
	</node>
	<node id="-843160" lat="63.5559416664" lon="9.76588610404">
		<tag k="name" v="Stamhusfossen" />
		<tag k="natural" v="waterfall" />
		<tag k="ssr:stedsnr" v="342135" />
	</node>
	<node id="-843158" lat="63.5582732475" lon="9.64700443529">
		<tag k="name" v="Rørtjørna" />
		<tag k="natural" v="water" />
		<tag k="ssr:stedsnr" v="863129" />
	</node>
	<node id="-843135" lat="63.4519027817" lon="9.73946111109">
		<tag k="name" v="Valtjørna" />
		<tag k="natural" v="water" />
		<tag k="ssr:stedsnr" v="74076" />
	</node>
	<node id="-843133" lat="63.3984416653" lon="9.79871110283">
		<tag k="name" v="Håvårdsdalsbekken" />
		<tag k="ssr:stedsnr" v="463502" />
		<tag k="waterway" v="stream" />
	</node>
	<node id="-843126" lat="63.466444448" lon="9.7113638949">
		<tag k="name" v="Katt-tjørna" />
		<tag k="natural" v="water" />
		<tag k="ssr:stedsnr" v="281451" />
	</node>
	<node id="-843114" lat="63.5421138897" lon="9.69512222884">
		<tag k="name" v="Høybubekken" />
		<tag k="ssr:stedsnr" v="221888" />
		<tag k="waterway" v="stream" />
	</node>
	<node id="-843112" lat="63.4825083295" lon="9.79275277691">
		<tag k="name" v="Stormyrbekken" />
		<tag k="ssr:stedsnr" v="948446" />
		<tag k="waterway" v="stream" />
	</node>
	<node id="-843110" lat="63.5633527803" lon="9.57955000566">
		<tag k="name" v="Langstrandbekken" />
		<tag k="ssr:stedsnr" v="584502" />
		<tag k="waterway" v="stream" />
	</node>
	<node id="-843105" lat="63.4736333323" lon="9.79041388586">
		<tag k="name" v="Ausetbekken" />
		<tag k="ssr:stedsnr" v="644416" />
		<tag k="waterway" v="stream" />
	</node>
	<node id="-843098" lat="63.6009305528" lon="9.57887777337">
		<tag k="name" v="Eidemstjørna" />
		<tag k="natural" v="water" />
		<tag k="ssr:stedsnr" v="195092" />
	</node>
	<node id="-843096" lat="63.4545111097" lon="9.66396112003">
		<tag k="name" v="Raudlibukta" />
		<tag k="natural" v="bay" />
		<tag k="ssr:stedsnr" v="922932" />
	</node>
	<node id="-843090" lat="63.4780194443" lon="9.66384444883">
		<tag k="name" v="Hoøya" />
		<tag k="natural" v="cape" />
		<tag k="ssr:stedsnr" v="376989" />
	</node>
	<node id="-843085" lat="63.4074166693" lon="9.8563916734">
		<tag k="name" v="Raudåa" />
		<tag k="ssr:stedsnr" v="863405" />
		<tag k="waterway" v="stream" />
	</node>
	<node id="-843080" lat="63.5703083327" lon="9.70772777078">
		<tag k="name" v="Grønningselva" />
		<tag k="ssr:stedsnr" v="463485" />
		<tag k="waterway" v="river" />
	</node>
	<node id="-843077" lat="63.5983333292" lon="9.71283334059">
		<tag k="name" v="Stokkslættjørn" />
		<tag k="natural" v="water" />
		<tag k="ssr:stedsnr" v="144576" />
	</node>
	<node id="-843068" lat="63.6254444421" lon="9.69691388599">
		<tag k="name" v="Vassbekken" />
		<tag k="ssr:stedsnr" v="645292" />
		<tag k="waterway" v="stream" />
	</node>
	<node id="-843055" lat="63.515552777" lon="9.71823332477">
		<tag k="name" v="Vasslibekken" />
		<tag k="ssr:stedsnr" v="463940" />
		<tag k="waterway" v="stream" />
	</node>
	<node id="-843051" lat="63.4229055585" lon="9.86629445269">
		<tag k="name" v="Seterbekken" />
		<tag k="ssr:stedsnr" v="99528" />
		<tag k="waterway" v="stream" />
	</node>
	<node id="-843048" lat="63.5932333291" lon="9.65790832954">
		<tag k="name" v="Fossen" />
		<tag k="natural" v="waterfall" />
		<tag k="ssr:stedsnr" v="766699" />
	</node>
	<node id="-843034" lat="63.58867222" lon="9.58558888801">
		<tag k="name" v="Djupdalstjørn" />
		<tag k="natural" v="water" />
		<tag k="ssr:stedsnr" v="144573" />
	</node>
	<node id="-843032" lat="63.4421055573" lon="9.79161944582">
		<tag k="name" v="Tuvtjørna" />
		<tag k="natural" v="water" />
		<tag k="ssr:stedsnr" v="342519" />
	</node>
	<node id="-843023" lat="63.4445555533" lon="9.70323611461">
		<tag k="alt_name" v="Hanstjørna, nedre;Nedre Hanstjørna" />
		<tag k="name" v="Ner Hanstjørna" />
		<tag k="natural" v="water" />
		<tag k="ssr:stedsnr" v="221871" />
	</node>
	<node id="-843017" lat="63.4848777755" lon="9.7949749964">
		<tag k="name" v="Nilsskardbekken" />
		<tag k="ssr:stedsnr" v="888354" />
		<tag k="waterway" v="stream" />
	</node>
	<node id="-843001" lat="63.5572888878" lon="9.58554999202">
		<tag k="name" v="Fjordabekken" />
		<tag k="ssr:stedsnr" v="463472" />
		<tag k="waterway" v="stream" />
	</node>
	<node id="-842995" lat="63.4780583352" lon="9.63696944758">
		<tag k="name" v="Sluppen" />
		<tag k="natural" v="strait" />
		<tag k="ssr:stedsnr" v="740986" />
	</node>
	<node id="-842989" lat="63.4221888924" lon="9.8087222301">
		<tag k="name" v="Kjerka" />
		<tag k="natural" v="cape" />
		<tag k="ssr:stedsnr" v="584917" />
	</node>
	<node id="-842988" lat="63.508280552" lon="9.71225277149">
		<tag k="name" v="Slættlibekken" />
		<tag k="ssr:stedsnr" v="402448" />
		<tag k="waterway" v="stream" />
	</node>
	<node id="-842980" lat="63.6154416664" lon="9.6766861138">
		<tag k="name" v="Løstadelva" />
		<tag k="ssr:stedsnr" v="706296" />
		<tag k="waterway" v="stream" />
	</node>
	<node id="-842970" lat="63.5584111139" lon="9.79119167083">
		<tag k="name" v="Litlnesbekken" />
		<tag k="ssr:stedsnr" v="160163" />
		<tag k="waterway" v="stream" />
	</node>
	<node id="-842965" lat="63.4635277761" lon="9.72299443648">
		<tag k="name" v="Holbekken" />
		<tag k="ssr:stedsnr" v="827465" />
		<tag k="waterway" v="stream" />
	</node>
	<node id="-842961" lat="63.4559666677" lon="9.78238610895">
		<tag k="name" v="Damtjørna" />
		<tag k="natural" v="water" />
		<tag k="ssr:stedsnr" v="195073" />
	</node>
	<node id="-842955" lat="63.4681083296" lon="9.67390834312">
		<tag k="name" v="Øyangsvatnet" />
		<tag k="natural" v="water" />
		<tag k="ssr:stedsnr" v="376977" />
		<tag k="water" v="lake" />
	</node>
	<node id="-842952" lat="63.5007249983" lon="9.78447777934">
		<tag k="name" v="Stertelva" />
		<tag k="ssr:stedsnr" v="13726" />
		<tag k="waterway" v="stream" />
	</node>
	<node id="-842948" lat="63.472930553" lon="9.74156944889">
		<tag k="name" v="Fiskløysa" />
		<tag k="natural" v="water" />
		<tag k="ssr:stedsnr" v="438051" />
	</node>
	<node id="-842942" lat="63.445997221" lon="9.92099167411">
		<tag k="name" v="Djupdalsbekken" />
		<tag k="ssr:stedsnr" v="281124" />
		<tag k="waterway" v="stream" />
	</node>
	<node id="-842940" lat="63.4773361109" lon="9.64584722924">
		<tag k="name" v="Brannøya" />
		<tag k="natural" v="cape" />
		<tag k="ssr:stedsnr" v="645412" />
	</node>
	<node id="-842934" lat="63.4479833292" lon="9.79387777347">
		<tag k="name" v="Grønlitjørna" />
		<tag k="natural" v="water" />
		<tag k="ssr:stedsnr" v="38920" />
	</node>
	<node id="-842932" lat="63.4779499976" lon="9.60831666585">
		<tag k="name" v="Ingebriktbukta" />
		<tag k="natural" v="bay" />
		<tag k="ssr:stedsnr" v="403463" />
	</node>
	<node id="-842920" lat="63.604427774" lon="9.72973332776">
		<tag k="alt_name" v="Skreatjørna" />
		<tag k="name" v="Skretjørna" />
		<tag k="natural" v="water" />
		<tag k="ssr:stedsnr" v="255972" />
	</node>
	<node id="-842913" lat="63.5333222235" lon="9.67276110731">
		<tag k="name" v="Størdalselva" />
		<tag k="ssr:stedsnr" v="39519" />
		<tag k="waterway" v="river" />
	</node>
	<node id="-842910" lat="63.4772942483" lon="9.76805764483">
		<tag k="name" v="Holtbekken" />
		<tag k="ssr:stedsnr" v="402416" />
		<tag k="waterway" v="stream" />
	</node>
	<node id="-842905" lat="63.5049902057" lon="9.66492999927">
		<tag k="name" v="Svartbekken" />
		<tag k="ssr:stedsnr" v="630818" />
		<tag k="waterway" v="stream" />
	</node>
	<node id="-842904" lat="63.4599194485" lon="9.70274167466">
		<tag k="name" v="Langneset" />
		<tag k="natural" v="cape" />
		<tag k="ssr:stedsnr" v="619969" />
	</node>
	<node id="-842896" lat="63.4848194416" lon="9.65917500814">
		<tag k="name" v="Spikarneset" />
		<tag k="natural" v="cape" />
		<tag k="ssr:stedsnr" v="221435" />
	</node>
	<node id="-842889" lat="63.4810611082" lon="9.6466972141">
		<tag k="name" v="Sluppneset" />
		<tag k="natural" v="cape" />
		<tag k="ssr:stedsnr" v="463426" />
	</node>
	<node id="-842886" lat="63.6115083315" lon="9.65831666105">
		<tag k="name" v="Fremstadelva" />
		<tag k="ssr:stedsnr" v="828277" />
		<tag k="waterway" v="river" />
	</node>
	<node id="-842881" lat="63.3919888864" lon="9.77012221989">
		<tag k="name" v="Øybekken" />
		<tag k="ssr:stedsnr" v="524555" />
		<tag k="waterway" v="stream" />
	</node>
	<node id="-842874" lat="63.4714749966" lon="9.68433887985">
		<tag k="name" v="Århønneset" />
		<tag k="natural" v="cape" />
		<tag k="ssr:stedsnr" v="99481" />
	</node>
	<node id="-842871" lat="63.4894999989" lon="9.79929999644">
		<tag k="name" v="Ballvollbekken" />
		<tag k="ssr:stedsnr" v="402427" />
		<tag k="waterway" v="stream" />
	</node>
	<node id="-842870" lat="63.5585333328" lon="9.77571944805">
		<tag k="name" v="Størdalselva" />
		<tag k="ssr:stedsnr" v="38238" />
		<tag k="waterway" v="river" />
	</node>
	<node id="-842865" lat="63.4826805526" lon="9.78149165683">
		<tag k="name" v="Tvikløfta" />
		<tag k="place" v="locality" />
		<tag k="ssr:stedsnr" v="402406" />
	</node>
	<node id="-842864" lat="63.5305555529" lon="9.59969999453">
		<tag k="name" v="Kjerringbekken" />
		<tag k="ssr:stedsnr" v="99471" />
		<tag k="waterway" v="stream" />
	</node>
	<node id="-842863" lat="63.5939055561" lon="9.63591388308">
		<tag k="name" v="Rivdalsfossen" />
		<tag k="natural" v="waterfall" />
		<tag k="ssr:stedsnr" v="38694" />
	</node>
	<node id="-842860" lat="63.6198000042" lon="9.63998889335">
		<tag k="name" v="Heggaelva" />
		<tag k="ssr:stedsnr" v="949241" />
		<tag k="waterway" v="river" />
	</node>
	<node id="-842859" lat="63.4830388889" lon="9.65978055863">
		<tag k="name" v="Kvernhusholmen" />
		<tag k="place" v="islet" />
		<tag k="ssr:stedsnr" v="767466" />
	</node>
	<node id="-842858" lat="63.4896888904" lon="9.58901389388">
		<tag k="name" v="Rognlitjørna" />
		<tag k="natural" v="water" />
		<tag k="ssr:stedsnr" v="618860" />
	</node>
	<node id="-842850" lat="63.455386112" lon="9.75932500789">
		<tag k="alt_name" v="Fjerdingen, l;Litlfjeringen" />
		<tag k="name" v="Litle Fjerdingen" />
		<tag k="natural" v="water" />
		<tag k="ssr:stedsnr" v="863076" />
	</node>
	<node id="-842849" lat="63.4474972257" lon="9.7369611029">
		<tag k="name" v="Valen" />
		<tag k="natural" v="water" />
		<tag k="ssr:stedsnr" v="584436" />
	</node>
	<node id="-842844" lat="63.4611555538" lon="9.70890277242">
		<tag k="name" v="Seterdalsbukta" />
		<tag k="natural" v="bay" />
		<tag k="ssr:stedsnr" v="584438" />
	</node>
	<node id="-842843" lat="63.5456611123" lon="9.70815276853">
		<tag k="name" v="Kronbekken" />
		<tag k="ssr:stedsnr" v="99929" />
		<tag k="waterway" v="stream" />
	</node>
	<node id="-842840" lat="63.5082277817" lon="9.72838056559">
		<tag k="name" v="Lomtjørna" />
		<tag k="natural" v="water" />
		<tag k="ssr:stedsnr" v="802781" />
	</node>
	<node id="-842839" lat="63.5433333289" lon="9.7296694522">
		<tag k="name" v="Seterbekken" />
		<tag k="ssr:stedsnr" v="99928" />
		<tag k="waterway" v="stream" />
	</node>
	<node id="-842835" lat="63.5591841737" lon="9.6443456503">
		<tag k="name" v="Svantjørna" />
		<tag k="natural" v="water" />
		<tag k="ssr:stedsnr" v="159683" />
	</node>
	<node id="-842823" lat="63.4670416633" lon="9.70678610962">
		<tag k="name" v="Stabben" />
		<tag k="place" v="islet" />
		<tag k="ssr:stedsnr" v="584441" />
	</node>
	<node id="-842821" lat="63.4119638859" lon="9.84456111474">
		<tag k="alt_name" v="Håvardsdalsbekken" />
		<tag k="name" v="Håvårdsdalsbekken" />
		<tag k="ssr:stedsnr" v="220575" />
		<tag k="waterway" v="stream" />
	</node>
	<node id="-842819" lat="63.4578500033" lon="9.68301389537">
		<tag k="name" v="Storøya" />
		<tag k="place" v="island" />
		<tag k="ssr:stedsnr" v="315928" />
	</node>
	<node id="-842818" lat="63.603541668" lon="9.6032222197">
		<tag k="name" v="Eidsneset" />
		<tag k="natural" v="cape" />
		<tag k="ssr:stedsnr" v="584442" />
	</node>
	<node id="-842815" lat="63.5456611124" lon="9.76419445143">
		<tag k="name" v="Svartlibekken" />
		<tag k="ssr:stedsnr" v="281366" />
		<tag k="waterway" v="stream" />
	</node>
	<node id="-842813" lat="63.549008335" lon="9.73520277268">
		<tag k="name" v="Gammelsagfossen" />
		<tag k="natural" v="waterfall" />
		<tag k="ssr:stedsnr" v="99923" />
	</node>
	<node id="-842807" lat="63.4822166705" lon="9.84562221725">
		<tag k="name" v="Kvernhushølen" />
		<tag k="place" v="locality" />
		<tag k="ssr:stedsnr" v="584020" />
	</node>
	<node id="-842791" lat="63.4835861153" lon="9.78431665857">
		<tag k="name" v="Geitklauvhølen" />
		<tag k="place" v="locality" />
		<tag k="ssr:stedsnr" v="584422" />
	</node>
	<node id="-842782" lat="63.4689638857" lon="9.89111944212">
		<tag k="name" v="Aunbekken" />
		<tag k="ssr:stedsnr" v="524108" />
		<tag k="waterway" v="stream" />
	</node>
	<node id="-842777" lat="63.547813889" lon="9.79067778347">
		<tag k="name" v="Tverråsbekken" />
		<tag k="ssr:stedsnr" v="888309" />
		<tag k="waterway" v="stream" />
	</node>
	<node id="-842776" lat="63.4647694422" lon="9.73080278435">
		<tag k="name" v="Stokkneset" />
		<tag k="natural" v="cape" />
		<tag k="ssr:stedsnr" v="463398" />
	</node>
	<node id="-842771" lat="63.427399999" lon="9.78190833667">
		<tag k="name" v="Matbrønn" />
		<tag k="natural" v="water" />
		<tag k="ssr:stedsnr" v="923125" />
	</node>
	<node id="-842767" lat="63.4123749972" lon="9.7747722278">
		<tag k="name" v="Litlåltjørna" />
		<tag k="natural" v="water" />
		<tag k="ssr:stedsnr" v="99909" />
	</node>
	<node id="-842766" lat="63.475611115" lon="9.6478611138">
		<tag k="name" v="Stjørna" />
		<tag k="natural" v="bay" />
		<tag k="ssr:stedsnr" v="221412" />
	</node>
	<node id="-842762" lat="63.6034166686" lon="9.62478610796">
		<tag k="name" v="Midtiholmen" />
		<tag k="place" v="islet" />
		<tag k="ssr:stedsnr" v="828257" />
	</node>
	<node id="-842761" lat="63.472424996" lon="9.65351388118">
		<tag k="name" v="Litl Raudlitjørna" />
		<tag k="natural" v="water" />
		<tag k="ssr:stedsnr" v="99454" />
	</node>
	<node id="-842755" lat="63.462833334" lon="9.65919999526">
		<tag k="name" v="Maliholbukta" />
		<tag k="natural" v="bay" />
		<tag k="ssr:stedsnr" v="706234" />
	</node>
	<node id="-842753" lat="63.5107722255" lon="9.73075000814">
		<tag k="name" v="Landrøselva" />
		<tag k="ssr:stedsnr" v="584432" />
		<tag k="waterway" v="river" />
	</node>
	<node id="-842751" lat="63.6002250008" lon="9.68810556328">
		<tag k="name" v="Smådalstjørna" />
		<tag k="natural" v="water" />
		<tag k="ssr:stedsnr" v="766195" />
	</node>
	<node id="-842745" lat="63.6404861102" lon="9.71393333931">
		<tag k="name" v="Hagabekken" />
		<tag k="ssr:stedsnr" v="827360" />
		<tag k="waterway" v="stream" />
	</node>
	<node id="-842744" lat="63.4696722236" lon="9.63883889666">
		<tag k="name" v="Ner Dyrstilitjørna" />
		<tag k="natural" v="water" />
		<tag k="ssr:stedsnr" v="221403" />
	</node>
	<node id="-842743" lat="63.4482499983" lon="9.67677777768">
		<tag k="name" v="Svarttjørnbekken" />
		<tag k="ssr:stedsnr" v="828219" />
		<tag k="waterway" v="stream" />
	</node>
	<node id="-842738" lat="63.4470833362" lon="9.65436666365">
		<tag k="name" v="Raudlielva" />
		<tag k="ssr:stedsnr" v="828218" />
		<tag k="waterway" v="river" />
	</node>
	<node id="-842736" lat="63.5066916651" lon="9.74606388355">
		<tag k="name" v="Myrbekken" />
		<tag k="ssr:stedsnr" v="73748" />
		<tag k="waterway" v="stream" />
	</node>
	<node id="-842735" lat="63.4679111081" lon="9.73978610537">
		<tag k="name" v="Fjærvika" />
		<tag k="natural" v="bay" />
		<tag k="ssr:stedsnr" v="99442" />
	</node>
	<node id="-842734" lat="63.4223999966" lon="9.8133055614">
		<tag k="name" v="Rangvatnet" />
		<tag k="natural" v="water" />
		<tag k="ssr:stedsnr" v="619117" />
		<tag k="water" v="lake" />
	</node>
	<node id="-842731" lat="63.464097218" lon="9.73614444271">
		<tag k="name" v="Brann-neset" />
		<tag k="natural" v="cape" />
		<tag k="ssr:stedsnr" v="99449" />
	</node>
	<node id="-842727" lat="63.4584888889" lon="9.73285556461">
		<tag k="name" v="Valelva" />
		<tag k="ssr:stedsnr" v="99448" />
		<tag k="waterway" v="river" />
	</node>
	<node id="-842726" lat="63.4533027749" lon="9.6834500008">
		<tag k="name" v="Litlsandbukta" />
		<tag k="natural" v="bay" />
		<tag k="ssr:stedsnr" v="828221" />
	</node>
	<node id="-842703" lat="63.4069861102" lon="9.77699445093">
		<tag k="name" v="Åltjørna" />
		<tag k="natural" v="water" />
		<tag k="ssr:stedsnr" v="342858" />
	</node>
	<node id="-842698" lat="63.5090388915" lon="9.721027784">
		<tag k="alt_name" v="Litlvatnet" />
		<tag k="name" v="Litlevatnet" />
		<tag k="natural" v="water" />
		<tag k="ssr:stedsnr" v="558784" />
	</node>
	<node id="-842678" lat="63.6099444402" lon="9.62272777148">
		<tag k="name" v="Larsbukta" />
		<tag k="natural" v="bay" />
		<tag k="ssr:stedsnr" v="281316" />
	</node>
	<node id="-842664" lat="63.6151555533" lon="9.59980555775">
		<tag k="name" v="Grøthaugbekken" />
		<tag k="ssr:stedsnr" v="767451" />
		<tag k="waterway" v="stream" />
	</node>
	<node id="-842651" lat="63.5595743999" lon="9.6649711201">
		<tag k="name" v="Grønningsvatnet" />
		<tag k="natural" v="water" />
		<tag k="ssr:stedsnr" v="13147" />
	</node>
	<node id="-842628" lat="63.4901000007" lon="9.72575278408">
		<tag k="name" v="Graslitjørna" />
		<tag k="natural" v="water" />
		<tag k="ssr:stedsnr" v="99415" />
	</node>
	<node id="-842617" lat="63.4564638914" lon="9.88484999926">
		<tag k="name" v="Kleivabekken" />
		<tag k="ssr:stedsnr" v="584033" />
		<tag k="waterway" v="stream" />
	</node>
	<node id="-842610" lat="63.4537416646" lon="9.68531389799">
		<tag k="name" v="Piggstein" />
		<tag k="natural" v="bay" />
		<tag k="ssr:stedsnr" v="645231" />
	</node>
	<node id="-842609" lat="63.474963887" lon="9.77750276944">
		<tag k="name" v="Sprang-slætt-bekken" />
		<tag k="ssr:stedsnr" v="402435" />
		<tag k="waterway" v="stream" />
	</node>
	<node id="-842603" lat="63.5553166638" lon="9.8035361152">
		<tag k="name" v="Buvikbekken" />
		<tag k="ssr:stedsnr" v="766215" />
		<tag k="waterway" v="stream" />
	</node>
	<node id="-842578" lat="63.5259916658" lon="9.66674444976">
		<tag k="name" v="Bjørkholbekken" />
		<tag k="ssr:stedsnr" v="523708" />
		<tag k="waterway" v="stream" />
	</node>
	<node id="-842574" lat="63.5992833372" lon="9.63408054658">
		<tag k="name" v="Musdalsneset" />
		<tag k="natural" v="cape" />
		<tag k="ssr:stedsnr" v="949263" />
	</node>
	<node id="-842568" lat="63.4770527766" lon="9.82208887991">
		<tag k="name" v="Litlbekken" />
		<tag k="ssr:stedsnr" v="38255" />
		<tag k="waterway" v="stream" />
	</node>
	<node id="-842564" lat="63.4327138913" lon="9.83247778705">
		<tag k="name" v="Pølbekken" />
		<tag k="ssr:stedsnr" v="645153" />
		<tag k="waterway" v="stream" />
	</node>
	<node id="-842562" lat="63.5597472183" lon="9.73772222093">
		<tag k="name" v="Stakkengbekken" />
		<tag k="ssr:stedsnr" v="645978" />
		<tag k="waterway" v="stream" />
	</node>
	<node id="-842552" lat="63.4319055515" lon="9.87044999436">
		<tag k="name" v="Svarttjørna" />
		<tag k="natural" v="water" />
		<tag k="ssr:stedsnr" v="619100" />
	</node>
	<node id="-842550" lat="63.5685499975" lon="9.66123889161">
		<tag k="name" v="Holmen" />
		<tag k="place" v="islet" />
		<tag k="ssr:stedsnr" v="645566" />
	</node>
	<node id="-842542" lat="63.4777166654" lon="9.79328888477">
		<tag k="name" v="Slættbekken" />
		<tag k="ssr:stedsnr" v="99406" />
		<tag k="waterway" v="stream" />
	</node>
	<node id="-842541" lat="63.5206361094" lon="9.79468055885">
		<tag k="name" v="Rønningbekken" />
		<tag k="ssr:stedsnr" v="705746" />
		<tag k="waterway" v="stream" />
	</node>
	<node id="-842536" lat="63.5760750025" lon="9.64141110927">
		<tag k="name" v="Litlvatnet" />
		<tag k="natural" v="water" />
		<tag k="ssr:stedsnr" v="948744" />
		<tag k="water" v="lake" />
	</node>
	<node id="-842534" lat="63.5594361096" lon="9.78029999098">
		<tag k="name" v="Brufossen" />
		<tag k="natural" v="waterfall" />
		<tag k="ssr:stedsnr" v="645142" />
	</node>
	<node id="-842533" lat="63.4409527789" lon="9.73243611813">
		<tag k="name" v="Fjellbekken" />
		<tag k="ssr:stedsnr" v="645970" />
		<tag k="waterway" v="stream" />
	</node>
	<node id="-842531" lat="63.5794916687" lon="9.73995277666">
		<tag k="name" v="Grønningselva" />
		<tag k="ssr:stedsnr" v="644705" />
		<tag k="waterway" v="river" />
	</node>
	<node id="-842523" lat="63.4426638846" lon="9.75732499723">
		<tag k="name" v="Svarttjørna" />
		<tag k="natural" v="water" />
		<tag k="ssr:stedsnr" v="923096" />
	</node>
	<node id="-842522" lat="63.464522222" lon="9.84812223047">
		<tag k="name" v="Øyabekken" />
		<tag k="ssr:stedsnr" v="220067" />
		<tag k="waterway" v="stream" />
	</node>
	<node id="-842520" lat="63.4590972203" lon="9.90076666488">
		<tag k="name" v="Ingdalsfossen" />
		<tag k="natural" v="waterfall" />
		<tag k="ssr:stedsnr" v="237590" />
	</node>
	<node id="-842519" lat="63.4314416629" lon="9.75389167008">
		<tag k="name" v="Oksleggen" />
		<tag k="place" v="islet" />
		<tag k="ssr:stedsnr" v="645992" />
	</node>
	<node id="-842515" lat="63.4858166703" lon="9.69693610116">
		<tag k="name" v="Gammelbukttjørna" />
		<tag k="natural" v="water" />
		<tag k="ssr:stedsnr" v="523134" />
	</node>
	<node id="-842514" lat="63.4727388871" lon="9.60576389032">
		<tag k="name" v="Frostaeidet" />
		<tag k="natural" v="strait" />
		<tag k="ssr:stedsnr" v="437972" />
	</node>
	<node id="-842506" lat="63.5648833289" lon="9.75485000187">
		<tag k="name" v="Skardbekken" />
		<tag k="ssr:stedsnr" v="38155" />
		<tag k="waterway" v="stream" />
	</node>
	<node id="-842497" lat="63.4623500018" lon="9.69127222653">
		<tag k="name" v="Småskjera" />
		<tag k="place" v="islet" />
		<tag k="ssr:stedsnr" v="221370" />
	</node>
	<node id="-842485" lat="63.4775305548" lon="9.61355000972">
		<tag k="name" v="Bjugnneset" />
		<tag k="natural" v="cape" />
		<tag k="ssr:stedsnr" v="342416" />
	</node>
	<node id="-842480" lat="63.4677722195" lon="9.70814443629">
		<tag k="name" v="Singstadnaustberget" />
		<tag k="natural" v="cape" />
		<tag k="ssr:stedsnr" v="767417" />
	</node>
	<node id="-842478" lat="63.3922166685" lon="9.76036111077">
		<tag k="name" v="Holbekken" />
		<tag k="ssr:stedsnr" v="645574" />
		<tag k="waterway" v="stream" />
	</node>
	<node id="-842473" lat="63.4704722228" lon="9.76154721672">
		<tag k="name" v="Klumpbekken" />
		<tag k="ssr:stedsnr" v="99394" />
		<tag k="waterway" v="stream" />
	</node>
	<node id="-842460" lat="63.4449055599" lon="9.91006667187">
		<tag k="name" v="Litlelva" />
		<tag k="ssr:stedsnr" v="766109" />
		<tag k="waterway" v="river" />
	</node>
	<node id="-842458" lat="63.5890111114" lon="9.58564999612">
		<tag k="name" v="Djupdalstjørna" />
		<tag k="natural" v="water" />
		<tag k="ssr:stedsnr" v="705723" />
	</node>
	<node id="-842453" lat="63.6161666633" lon="9.64620555501">
		<tag k="name" v="Nordgjerdselva" />
		<tag k="ssr:stedsnr" v="402312" />
		<tag k="waterway" v="river" />
	</node>
	<node id="-842444" lat="63.4617111136" lon="9.8200222187">
		<tag k="name" v="Hestlibekken" />
		<tag k="ssr:stedsnr" v="341071" />
		<tag k="waterway" v="stream" />
	</node>
	<node id="-842442" lat="63.4681583319" lon="9.73651110708">
		<tag k="name" v="Lomneset" />
		<tag k="natural" v="cape" />
		<tag k="ssr:stedsnr" v="342390" />
	</node>
	<node id="-842441" lat="63.4830861085" lon="9.69286389837">
		<tag k="name" v="Ytter Slupptjørna" />
		<tag k="natural" v="water" />
		<tag k="ssr:stedsnr" v="766100" />
	</node>
	<node id="-842438" lat="63.5217472187" lon="9.61020000198">
		<tag k="name" v="Steinsdalselva" />
		<tag k="ssr:stedsnr" v="134193" />
		<tag k="waterway" v="stream" />
	</node>
	<node id="-842426" lat="63.5400499964" lon="9.81958334172">
		<tag k="name" v="Kinebbelva" />
		<tag k="ssr:stedsnr" v="220048" />
		<tag k="waterway" v="stream" />
	</node>
	<node id="-842406" lat="63.3953249972" lon="9.77543056412">
		<tag k="name" v="Håvardsdalstjørna" />
		<tag k="natural" v="water" />
		<tag k="ssr:stedsnr" v="680436" />
	</node>
	<node id="-842405" lat="63.4956999994" lon="9.63193889503">
		<tag k="name" v="Buvatnet" />
		<tag k="natural" v="water" />
		<tag k="ssr:stedsnr" v="376891" />
	</node>
	<node id="-842404" lat="63.4228111079" lon="9.842325">
		<tag k="name" v="Sæterelva" />
		<tag k="ssr:stedsnr" v="376112" />
		<tag k="waterway" v="stream" />
	</node>
	<node id="-842395" lat="63.5781972207" lon="9.63626388965">
		<tag k="name" v="Langvatnet" />
		<tag k="natural" v="water" />
		<tag k="ssr:stedsnr" v="255122" />
	</node>
	<node id="-842393" lat="63.4519666646" lon="9.67844166116">
		<tag k="name" v="Sandbukta" />
		<tag k="natural" v="bay" />
		<tag k="ssr:stedsnr" v="801936" />
	</node>
	<node id="-842390" lat="63.5631222212" lon="9.67822222204">
		<tag k="name" v="Grønningselva" />
		<tag k="ssr:stedsnr" v="403575" />
		<tag k="waterway" v="river" />
	</node>
	<node id="-842384" lat="63.5126388854" lon="9.58036389835">
		<tag k="name" v="Espevatnet" />
		<tag k="natural" v="water" />
		<tag k="ssr:stedsnr" v="680176" />
	</node>
	<node id="-842382" lat="63.4370805593" lon="9.74016944347">
		<tag k="name" v="Skjeldbreifossen" />
		<tag k="natural" v="waterfall" />
		<tag k="ssr:stedsnr" v="706997" />
	</node>
	<node id="-842375" lat="63.4412888925" lon="9.67781944098">
		<tag k="name" v="Tuvtjørna" />
		<tag k="natural" v="water" />
		<tag k="ssr:stedsnr" v="220943" />
	</node>
	<node id="-842369" lat="63.5914083315" lon="9.65866389643">
		<tag k="name" v="Stordiket" />
		<tag k="natural" v="water" />
		<tag k="ssr:stedsnr" v="644695" />
		<tag k="water" v="lake" />
	</node>
	<node id="-842368" lat="63.4948305538" lon="9.77638333143">
		<tag k="name" v="Ulkstadelva" />
		<tag k="ssr:stedsnr" v="281265" />
		<tag k="waterway" v="river" />
	</node>
	<node id="-842358" lat="63.6372472258" lon="9.72437777225">
		<tag k="name" v="Lomtjørna" />
		<tag k="natural" v="water" />
		<tag k="ssr:stedsnr" v="741956" />
	</node>
	<node id="-842356" lat="63.5924805588" lon="9.66079443694">
		<tag k="name" v="Vollaelva" />
		<tag k="ssr:stedsnr" v="38120" />
		<tag k="waterway" v="river" />
	</node>
	<node id="-842355" lat="63.4557722202" lon="9.6920388901">
		<tag k="name" v="Sunda" />
		<tag k="natural" v="strait" />
		<tag k="ssr:stedsnr" v="767393" />
	</node>
	<node id="-842349" lat="63.5612388853" lon="9.66075000708">
		<tag k="name" v="Osen" />
		<tag k="natural" v="bay" />
		<tag k="ssr:stedsnr" v="706569" />
	</node>
	<node id="-842340" lat="63.4620944404" lon="9.70430278547">
		<tag k="name" v="Litlseterdalsholmen" />
		<tag k="place" v="islet" />
		<tag k="ssr:stedsnr" v="342368" />
	</node>
	<node id="-842335" lat="63.4434030716" lon="9.74790201219">
		<tag k="name" v="Henrikseterholbekken" />
		<tag k="ssr:stedsnr" v="766983" />
		<tag k="waterway" v="stream" />
	</node>
	<node id="-842328" lat="63.4348013885" lon="9.7056255707">
		<tag k="name" v="Midter Hanstjørna" />
		<tag k="natural" v="water" />
		<tag k="ssr:stedsnr" v="766978" />
	</node>
	<node id="-842325" lat="63.430930553" lon="9.70901388214">
		<tag k="name" v="Øver Hanstjørna" />
		<tag k="natural" v="water" />
		<tag k="ssr:stedsnr" v="766979" />
	</node>
	<node id="-842322" lat="63.4938027804" lon="9.64051111482">
		<tag k="alt_name" v="Øvervatnet" />
		<tag k="name" v="Øvrevatnet" />
		<tag k="natural" v="water" />
		<tag k="ssr:stedsnr" v="255905" />
	</node>
	<node id="-842315" lat="63.4510777806" lon="9.69830276945">
		<tag k="name" v="Sagbekken" />
		<tag k="ssr:stedsnr" v="342362" />
		<tag k="waterway" v="stream" />
	</node>
	<node id="-842313" lat="63.4803527816" lon="9.70503889156">
		<tag k="name" v="Frostadalstjørna" />
		<tag k="natural" v="water" />
		<tag k="ssr:stedsnr" v="159122" />
	</node>
	<node id="-842311" lat="63.4814749959" lon="9.6210444358">
		<tag k="alt_name" v="Bjugna" />
		<tag k="name" v="Bjugn" />
		<tag k="natural" v="bay" />
		<tag k="ssr:stedsnr" v="497992" />
	</node>
	<node id="-842307" lat="63.4809583376" lon="9.84672221306">
		<tag k="name" v="Trollvadet" />
		<tag k="place" v="locality" />
		<tag k="ssr:stedsnr" v="524021" />
	</node>
	<node id="-842303" lat="63.5661527795" lon="9.67446112103">
		<tag k="name" v="Damslættjørna" />
		<tag k="natural" v="water" />
		<tag k="ssr:stedsnr" v="948681" />
	</node>
	<node id="-842295" lat="63.6336138894" lon="9.71628610171">
		<tag k="name" v="Ormtjørna" />
		<tag k="natural" v="water" />
		<tag k="ssr:stedsnr" v="463303" />
	</node>
	<node id="-842291" lat="63.5983472228" lon="9.71251666013">
		<tag k="name" v="Stakkslættjørna" />
		<tag k="natural" v="water" />
		<tag k="ssr:stedsnr" v="949134" />
	</node>
	<node id="-842290" lat="63.5415055596" lon="9.66991944256">
		<tag k="name" v="Kokfisktjørna" />
		<tag k="natural" v="water" />
		<tag k="ssr:stedsnr" v="828543" />
	</node>
	<node id="-842288" lat="63.4640388914" lon="9.70595278764">
		<tag k="name" v="Olaneset" />
		<tag k="natural" v="cape" />
		<tag k="ssr:stedsnr" v="342369" />
	</node>
	<node id="-842285" lat="63.4722972258" lon="9.83425000946">
		<tag k="name" v="Rønningsbekken" />
		<tag k="ssr:stedsnr" v="220024" />
		<tag k="waterway" v="stream" />
	</node>
	<node id="-842269" lat="63.6038166642" lon="9.62859166803">
		<tag k="name" v="Storvatnet" />
		<tag k="natural" v="water" />
		<tag k="ssr:stedsnr" v="619076" />
		<tag k="water" v="lake" />
	</node>
	<node id="-842268" lat="63.4686194452" lon="9.69361111449">
		<tag k="name" v="Brann-neset" />
		<tag k="natural" v="cape" />
		<tag k="ssr:stedsnr" v="38098" />
	</node>
	<node id="-842263" lat="63.4936750044" lon="9.62475556567">
		<tag k="name" v="Grytøya" />
		<tag k="place" v="island" />
		<tag k="ssr:stedsnr" v="38101" />
	</node>
	<node id="-842260" lat="63.6016555547" lon="9.62001666358">
		<tag k="name" v="Bersetholmen" />
		<tag k="place" v="islet" />
		<tag k="ssr:stedsnr" v="255106" />
	</node>
	<node id="-842254" lat="63.5040416703" lon="9.79676388252">
		<tag k="name" v="Storelva" />
		<tag k="ssr:stedsnr" v="888196" />
		<tag k="waterway" v="river" />
	</node>
	<node id="-842252" lat="63.4575916707" lon="9.70228333346">
		<tag k="name" v="Graslibukta" />
		<tag k="natural" v="bay" />
		<tag k="ssr:stedsnr" v="342361" />
	</node>
	<node id="-842240" lat="63.4842222251" lon="9.6775805563">
		<tag k="name" v="Fremmerneset" />
		<tag k="natural" v="cape" />
		<tag k="ssr:stedsnr" v="160406" />
	</node>
	<node id="-842232" lat="63.5238472263" lon="9.6494083402">
		<tag k="name" v="Holbekken" />
		<tag k="ssr:stedsnr" v="644667" />
		<tag k="waterway" v="stream" />
	</node>
	<node id="-842230" lat="63.5160111119" lon="9.75431667537">
		<tag k="name" v="Tverrabekken" />
		<tag k="ssr:stedsnr" v="280346" />
		<tag k="waterway" v="stream" />
	</node>
	<node id="-842224" lat="63.5397138919" lon="9.6976222303">
		<tag k="name" v="Størdalselva" />
		<tag k="ssr:stedsnr" v="802185" />
		<tag k="waterway" v="stream" />
	</node>
	<node id="-844148" lat="63.5181333361" lon="9.78144999455">
		<tag k="name" v="Steinvollbekken" />
		<tag k="ssr:stedsnr" v="826383" />
		<tag k="waterway" v="stream" />
	</node>
	<node id="-844147" lat="63.4835305514" lon="9.72641665987">
		<tag k="name" v="Vollabekken" />
		<tag k="ssr:stedsnr" v="38087" />
		<tag k="waterway" v="stream" />
	</node>
	<node id="-844145" lat="63.6018499978" lon="9.70547499253">
		<tag k="name" v="Smådalsbekken" />
		<tag k="ssr:stedsnr" v="888164" />
		<tag k="waterway" v="stream" />
	</node>
	<node id="-844142" lat="63.4994388902" lon="9.8273694517">
		<tag k="name" v="Litlbekken" />
		<tag k="ssr:stedsnr" v="523061" />
		<tag k="waterway" v="stream" />
	</node>
	<node id="-844121" lat="63.5996972264" lon="9.62992778438">
		<tag k="name" v="Bukkholet" />
		<tag k="natural" v="bay" />
		<tag k="ssr:stedsnr" v="463268" />
	</node>
	<node id="-844118" lat="63.4881138859" lon="9.6474527695">
		<tag k="name" v="Gryta" />
		<tag k="natural" v="water" />
		<tag k="ssr:stedsnr" v="160394" />
	</node>
	<node id="-844117" lat="63.455494448" lon="9.84594999947">
		<tag k="name" v="Rullkavelbekken" />
		<tag k="ssr:stedsnr" v="766045" />
		<tag k="waterway" v="stream" />
	</node>
	<node id="-844116" lat="63.6050027784" lon="9.62815277011">
		<tag k="name" v="Grunna" />
		<tag k="natural" v="shoal" />
		<tag k="place" v="locality" />
		<tag k="ssr:stedsnr" v="584300" />
	</node>
	<node id="-844114" lat="63.4912833305" lon="9.60922777875">
		<tag k="name" v="Langvatnet" />
		<tag k="natural" v="water" />
		<tag k="ssr:stedsnr" v="740865" />
	</node>
	<node id="-844113" lat="63.4818361114" lon="9.65791110261">
		<tag k="name" v="Rognneset" />
		<tag k="natural" v="cape" />
		<tag k="ssr:stedsnr" v="524406" />
	</node>
	<node id="-844109" lat="63.5525444457" lon="9.77535556406">
		<tag k="name" v="Tverrlitjørna" />
		<tag k="natural" v="water" />
		<tag k="ssr:stedsnr" v="741653" />
	</node>
	<node id="-844107" lat="63.4690638881" lon="9.64928888108">
		<tag k="name" v="Raudlitjørna" />
		<tag k="natural" v="water" />
		<tag k="ssr:stedsnr" v="558979" />
		<tag k="water" v="lake" />
	</node>
	<node id="-844103" lat="63.4503416653" lon="9.84248334237">
		<tag k="name" v="Taraldtjørna" />
		<tag k="natural" v="water" />
		<tag k="ssr:stedsnr" v="523070" />
	</node>
	<node id="-844102" lat="63.5040805564" lon="9.82269721986">
		<tag k="name" v="Sandabekken" />
		<tag k="ssr:stedsnr" v="98006" />
		<tag k="waterway" v="stream" />
	</node>
	<node id="-844100" lat="63.4207166643" lon="9.7451666728">
		<tag k="name" v="Granlielva" />
		<tag k="ssr:stedsnr" v="828912" />
		<tag k="waterway" v="river" />
	</node>
	<node id="-844097" lat="63.5797527792" lon="9.57903333439">
		<tag k="name" v="Vikabekken" />
		<tag k="ssr:stedsnr" v="281677" />
		<tag k="waterway" v="stream" />
	</node>
	<node id="-844092" lat="63.4275083309" lon="9.88416666571">
		<tag k="name" v="Ingdalselva" />
		<tag k="ssr:stedsnr" v="741125" />
		<tag k="waterway" v="river" />
	</node>
	<node id="-844086" lat="63.4854416696" lon="9.64957499545">
		<tag k="name" v="Kvernaneset" />
		<tag k="natural" v="cape" />
		<tag k="ssr:stedsnr" v="524387" />
	</node>
	<node id="-844081" lat="63.4849499957" lon="9.74376666568">
		<tag k="alt_name" v="Frostavatnet" />
		<tag k="name" v="Frostadvatnet" />
		<tag k="natural" v="water" />
		<tag k="ssr:stedsnr" v="923056" />
		<tag k="water" v="lake" />
	</node>
	<node id="-844072" lat="63.4681416644" lon="9.66091667213">
		<tag k="name" v="Søreidet" />
		<tag k="natural" v="strait" />
		<tag k="ssr:stedsnr" v="160386" />
	</node>
	<node id="-844068" lat="63.584636109" lon="9.64148611126">
		<tag k="name" v="Lomtjørna" />
		<tag k="natural" v="water" />
		<tag k="ssr:stedsnr" v="316101" />
	</node>
	<node id="-844062" lat="63.5859138873" lon="9.67541944244">
		<tag k="name" v="Hjertlibekken" />
		<tag k="ssr:stedsnr" v="402704" />
		<tag k="waterway" v="stream" />
	</node>
	<node id="-844058" lat="63.471958329" lon="9.63671388662">
		<tag k="name" v="Øver Dyrstilitjørna" />
		<tag k="natural" v="water" />
		<tag k="ssr:stedsnr" v="160389" />
	</node>
	<node id="-844054" lat="63.5460780447" lon="9.69075949097">
		<tag k="name" v="Høybuvatnet" />
		<tag k="natural" v="water" />
		<tag k="ssr:stedsnr" v="256149" />
	</node>
	<node id="-844043" lat="63.5523757353" lon="9.68568106967">
		<tag k="name" v="Prekstollitjørna" />
		<tag k="natural" v="water" />
		<tag k="ssr:stedsnr" v="680144" />
	</node>
	<node id="-844035" lat="63.5090361084" lon="9.80151666332">
		<tag k="name" v="Brattfossen" />
		<tag k="natural" v="waterfall" />
		<tag k="ssr:stedsnr" v="402247" />
	</node>
	<node id="-844028" lat="63.5503305563" lon="9.62185833607">
		<tag k="name" v="Holtvatnet" />
		<tag k="natural" v="water" />
		<tag k="ssr:stedsnr" v="134153" />
	</node>
	<node id="-844018" lat="63.5616166683" lon="9.63398611161">
		<tag k="name" v="Merradalstjørna" />
		<tag k="natural" v="water" />
		<tag k="ssr:stedsnr" v="888584" />
	</node>
	<node id="-843985" lat="63.5501416706" lon="9.72865555239">
		<tag k="name" v="Risdambekken" />
		<tag k="ssr:stedsnr" v="949903" />
		<tag k="waterway" v="stream" />
	</node>
	<node id="-843983" lat="63.6049805524" lon="9.71922222265">
		<tag k="name" v="Måsetjørna" />
		<tag k="natural" v="water" />
		<tag k="ssr:stedsnr" v="862972" />
	</node>
	<node id="-843977" lat="63.6099305524" lon="9.63045555169">
		<tag k="name" v="Reitneset" />
		<tag k="natural" v="cape" />
		<tag k="ssr:stedsnr" v="99293" />
	</node>
	<node id="-843952" lat="63.6077944456" lon="9.62623889675">
		<tag k="name" v="Reitholmen" />
		<tag k="place" v="islet" />
		<tag k="ssr:stedsnr" v="316085" />
	</node>
	<node id="-843948" lat="63.426616668" lon="9.80972778055">
		<tag k="name" v="Hjortkamneset" />
		<tag k="natural" v="cape" />
		<tag k="ssr:stedsnr" v="949517" />
	</node>
	<node id="-843944" lat="63.5665805563" lon="9.65851389278">
		<tag k="name" v="Svartvatnet" />
		<tag k="natural" v="water" />
		<tag k="ssr:stedsnr" v="680130" />
		<tag k="water" v="lake" />
	</node>
	<node id="-843937" lat="63.568366671" lon="9.57981110639">
		<tag k="name" v="Lauvnesbekken" />
		<tag k="ssr:stedsnr" v="38510" />
		<tag k="waterway" v="stream" />
	</node>
	<node id="-843936" lat="63.4272166699" lon="9.82082776966">
		<tag k="name" v="Rangvasselva" />
		<tag k="ssr:stedsnr" v="888152" />
		<tag k="waterway" v="river" />
	</node>
	<node id="-843933" lat="63.5030250034" lon="9.62839721913">
		<tag k="name" v="Grytbekken" />
		<tag k="ssr:stedsnr" v="206844" />
		<tag k="waterway" v="stream" />
	</node>
	<node id="-843926" lat="63.4240222207" lon="9.76124722808">
		<tag k="name" v="Matbrunnen" />
		<tag k="natural" v="bay" />
		<tag k="ssr:stedsnr" v="645884" />
	</node>
	<node id="-843919" lat="63.5492972194" lon="9.58605555394">
		<tag k="name" v="Fjordabekken" />
		<tag k="ssr:stedsnr" v="402683" />
		<tag k="waterway" v="stream" />
	</node>
	<node id="-843911" lat="63.4068944461" lon="9.75319999039">
		<tag k="name" v="Austvatnet" />
		<tag k="natural" v="water" />
		<tag k="ssr:stedsnr" v="802152" />
		<tag k="water" v="lake" />
	</node>
	<node id="-843909" lat="63.4277138851" lon="9.83349444346">
		<tag k="name" v="Buttulsjøa" />
		<tag k="natural" v="water" />
		<tag k="old_name" v="Butulsjøva" />
		<tag k="ssr:stedsnr" v="134134" />
	</node>
	<node id="-843905" lat="63.5984555532" lon="9.59747778339">
		<tag k="name" v="Stordalsbekken" />
		<tag k="ssr:stedsnr" v="524370" />
		<tag k="waterway" v="stream" />
	</node>
	<node id="-843897" lat="63.4365500046" lon="9.78388054635">
		<tag k="name" v="Karusdammen" />
		<tag k="natural" v="water" />
		<tag k="ssr:stedsnr" v="281621" />
	</node>
	<node id="-843889" lat="63.437122222" lon="9.6757833322">
		<tag k="name" v="Svarttjørnbekken" />
		<tag k="ssr:stedsnr" v="38954" />
		<tag k="waterway" v="stream" />
	</node>
	<node id="-843871" lat="63.4332138898" lon="9.67751667188">
		<tag k="name" v="Svarttjørna" />
		<tag k="natural" v="water" />
		<tag k="ssr:stedsnr" v="12787" />
	</node>
	<node id="-843862" lat="63.5870500032" lon="9.61657500729">
		<tag k="name" v="Musdalselva" />
		<tag k="ssr:stedsnr" v="134125" />
		<tag k="waterway" v="stream" />
	</node>
	<node id="-843858" lat="63.4270694432" lon="9.71409166657">
		<tag k="name" v="Fjellbekken" />
		<tag k="ssr:stedsnr" v="888995" />
		<tag k="waterway" v="stream" />
	</node>
	<node id="-843847" lat="63.4838999991" lon="9.70047222227">
		<tag k="name" v="Inner Slupptjørna" />
		<tag k="natural" v="water" />
		<tag k="ssr:stedsnr" v="644104" />
	</node>
	<node id="-843844" lat="63.4195861069" lon="9.74320000793">
		<tag k="name" v="Granlitjørna" />
		<tag k="natural" v="water" />
		<tag k="ssr:stedsnr" v="38943" />
	</node>
	<node id="-843843" lat="63.4551972226" lon="9.69509999249">
		<tag k="name" v="Froskholbukta" />
		<tag k="natural" v="bay" />
		<tag k="ssr:stedsnr" v="39334" />
	</node>
	<node id="-843833" lat="63.5268972195" lon="9.63009444844">
		<tag k="name" v="Damman" />
		<tag k="ssr:stedsnr" v="827663" />
		<tag k="waterway" v="stream" />
	</node>
	<node id="-843828" lat="63.5579166672" lon="9.67100000252">
		<tag k="name" v="Svartbakklitjørna" />
		<tag k="natural" v="water" />
		<tag k="ssr:stedsnr" v="888571" />
	</node>
	<node id="-843827" lat="63.4880250009" lon="9.57669444668">
		<tag k="name" v="Selstaddaltjørna" />
		<tag k="natural" v="water" />
		<tag k="ssr:stedsnr" v="99256" />
	</node>
	<node id="-843826" lat="63.5030222184" lon="9.69055000942">
		<tag k="name" v="Setertjørna" />
		<tag k="natural" v="water" />
		<tag k="ssr:stedsnr" v="523455" />
	</node>
	<node id="-843814" lat="63.614302775" lon="9.66358333625">
		<tag k="name" v="Kvitneset" />
		<tag k="natural" v="cape" />
		<tag k="ssr:stedsnr" v="342273" />
	</node>
	<node id="-843813" lat="63.5486333297" lon="9.74245834096">
		<tag k="name" v="Snurrbekken" />
		<tag k="ssr:stedsnr" v="38932" />
		<tag k="waterway" v="stream" />
	</node>
	<node id="-843809" lat="63.5565361098" lon="9.61633889371">
		<tag k="name" v="Fjordavatnet" />
		<tag k="natural" v="water" />
		<tag k="ssr:stedsnr" v="256110" />
	</node>
	<node id="-843800" lat="63.4679527741" lon="9.81751667483">
		<tag k="name" v="Tennelselva" />
		<tag k="ssr:stedsnr" v="766902" />
		<tag k="waterway" v="river" />
	</node>
	<node id="-843799" lat="63.6008944408" lon="9.65297499375">
		<tag k="name" v="Bjørdalsbekken" />
		<tag k="ssr:stedsnr" v="342281" />
		<tag k="waterway" v="stream" />
	</node>
	<node id="-843791" lat="63.5524083295" lon="9.74224166358">
		<tag k="name" v="Skreddarbekken" />
		<tag k="ssr:stedsnr" v="38930" />
		<tag k="waterway" v="stream" />
	</node>
	<node id="-843788" lat="63.4313891088" lon="9.71001851403">
		<tag k="alt_name" v="Hanstjørna, øvre" />
		<tag k="name" v="Øvre Hanstjørna" />
		<tag k="natural" v="water" />
		<tag k="ssr:stedsnr" v="922751" />
	</node>
	<node id="-843782" lat="63.4935611072" lon="9.59501389118">
		<tag k="name" v="Storslættbekken" />
		<tag k="ssr:stedsnr" v="888082" />
		<tag k="waterway" v="stream" />
	</node>
	<node id="-843781" lat="63.5137583301" lon="9.76457778109">
		<tag k="name" v="Litleelva" />
		<tag k="ssr:stedsnr" v="620610" />
		<tag k="waterway" v="river" />
	</node>
</osm>
