<?xml version="1.0" encoding="UTF-8"?>
<osm generator="osmapis" version="0.6">
	<node id="-436224" lat="59.7800500018" lon="6.14913611128">
		<tag k="name" v="Skiftesbekken" />
		<tag k="ssr:stedsnr" v="671350" />
		<tag k="waterway" v="stream" />
	</node>
	<node id="-436735" lat="59.641268704" lon="5.98148408">
		<tag k="name" v="Kråketjørna" />
		<tag k="natural" v="water" />
		<tag k="ssr:stedsnr" v="948760" />
	</node>
	<node id="-435710" lat="59.8966715097" lon="6.22613415493">
		<tag k="name" v="Tjørndalsvatna" />
		<tag k="natural" v="water" />
		<tag k="ssr:stedsnr" v="247445" />
	</node>
	<node id="-436221" lat="59.8686805582" lon="6.19761944566">
		<tag k="name" v="Krokavatna" />
		<tag k="natural" v="water" />
		<tag k="ssr:stedsnr" v="671151" />
		<tag k="water" v="lake" />
	</node>
	<node id="-435705" lat="59.836400003" lon="6.20942499785">
		<tag k="alt_name" v="Tjødnajuvbekken" />
		<tag k="name" v="Tjørnagjuvbekken" />
		<tag k="ssr:stedsnr" v="247198" />
		<tag k="waterway" v="stream" />
	</node>
	<node id="-436216" lat="59.8096666664" lon="6.36585278172">
		<tag k="name" v="Borgedalselva" />
		<tag k="ssr:stedsnr" v="671078" />
		<tag k="waterway" v="stream" />
	</node>
	<node id="-436215" lat="59.7844286085" lon="6.27862670905">
		<tag k="name" v="Tvitjørnene" />
		<tag k="natural" v="water" />
		<tag k="ssr:stedsnr" v="671072" />
		<tag k="water" v="lake" />
	</node>
	<node id="-436393" lat="59.7149888891" lon="6.19584444666">
		<tag k="name" v="Sørklakkebekken" />
		<tag k="ssr:stedsnr" v="765477" />
		<tag k="waterway" v="stream" />
	</node>
	<node id="-436212" lat="59.8570651851" lon="6.48751407618">
		<tag k="name" v="Sandvatnet" />
		<tag k="natural" v="water" />
		<tag k="ssr:stedsnr" v="671007" />
	</node>
	<node id="-435698" lat="59.7051833305" lon="6.20888889399">
		<tag k="name" v="Svalevatnet" />
		<tag k="natural" v="water" />
		<tag k="ssr:stedsnr" v="246687" />
	</node>
	<node id="-435697" lat="59.7086527797" lon="6.15116111807">
		<tag k="name" v="Floteelva" />
		<tag k="ssr:stedsnr" v="246682" />
		<tag k="waterway" v="river" />
	</node>
	<node id="-436208" lat="59.6960361112" lon="5.87750000681">
		<tag k="alt_name" v="Lauvvikevatnet" />
		<tag k="name" v="Lauvvikvatnet" />
		<tag k="natural" v="water" />
		<tag k="ssr:stedsnr" v="670703" />
	</node>
	<node id="-434856" lat="59.7221833324" lon="5.95509165872">
		<tag k="name" v="Valdraelva" />
		<tag k="ssr:stedsnr" v="306644" />
		<tag k="waterway" v="stream" />
	</node>
	<node id="-436246" lat="59.7492416697" lon="6.11782221884">
		<tag k="name" v="Frøklebekken" />
		<tag k="ssr:stedsnr" v="705045" />
		<tag k="waterway" v="stream" />
	</node>
	<node id="-435181" lat="59.7277297881" lon="6.12147907196">
		<tag k="alt_name" v="Laugareidtjørna" />
		<tag k="name" v="Lauareidtjørna" />
		<tag k="natural" v="water" />
		<tag k="ssr:stedsnr" v="3631" />
	</node>
	<node id="-436716" lat="59.7191277733" lon="6.19651944016">
		<tag k="name" v="Måsanes" />
		<tag k="natural" v="cape" />
		<tag k="ssr:stedsnr" v="948551" />
	</node>
	<node id="-435178" lat="59.6162583375" lon="6.17383889367">
		<tag k="name" v="Svartavatnet" />
		<tag k="natural" v="water" />
		<tag k="ssr:stedsnr" v="3502" />
	</node>
	<node id="-436713" lat="59.7323194481" lon="6.1703999919">
		<tag k="name" v="Tveitabekken" />
		<tag k="ssr:stedsnr" v="948497" />
		<tag k="waterway" v="stream" />
	</node>
	<node id="-436712" lat="59.6943611114" lon="6.08595833411">
		<tag k="name" v="Sandvikane" />
		<tag k="natural" v="bay" />
		<tag k="ssr:stedsnr" v="948462" />
	</node>
	<node id="-436199" lat="59.6037305517" lon="6.18268888587">
		<tag k="alt_name" v="Regnfossvatnet" />
		<tag k="name" v="Reinsfossvatnet" />
		<tag k="natural" v="water" />
		<tag k="ssr:stedsnr" v="670522" />
		<tag k="water" v="lake" />
	</node>
	<node id="-436198" lat="59.6059560894" lon="6.09503462765">
		<tag k="name" v="Knutsvatnet" />
		<tag k="natural" v="water" />
		<tag k="ssr:stedsnr" v="670520" />
	</node>
	<node id="-436708" lat="59.6851194465" lon="6.15587221511">
		<tag k="name" v="Djupavasselva" />
		<tag k="ssr:stedsnr" v="948403" />
		<tag k="waterway" v="river" />
	</node>
	<node id="-436707" lat="59.7045111122" lon="6.0737916705">
		<tag k="name" v="Trollholmen" />
		<tag k="place" v="islet" />
		<tag k="ssr:stedsnr" v="948328" />
	</node>
	<node id="-435170" lat="59.8126333348" lon="6.23001666327">
		<tag k="alt_name" v="Flåtebekken" />
		<tag k="name" v="Flotabekken" />
		<tag k="ssr:stedsnr" v="3079" />
		<tag k="waterway" v="stream" />
	</node>
	<node id="-435451" lat="59.7427824447" lon="6.16754030009">
		<tag k="alt_name" v="Litlavatnet" />
		<tag k="name" v="Litla Verdalsvatnet" />
		<tag k="natural" v="water" />
		<tag k="ssr:stedsnr" v="124603" />
	</node>
	<node id="-436192" lat="59.6513250042" lon="6.17926388472">
		<tag k="alt_name" v="Avelsvatnet, nedre;Nedre Avelsvatnet" />
		<tag k="name" v="Nedra Avelsvatnet" />
		<tag k="natural" v="water" />
		<tag k="ssr:stedsnr" v="670479" />
		<tag k="water" v="lake" />
	</node>
	<node id="-435679" lat="59.8086722254" lon="6.38087500696">
		<tag k="name" v="Driftavatnet" />
		<tag k="natural" v="water" />
		<tag k="ssr:stedsnr" v="246082" />
	</node>
	<node id="-435678" lat="59.8031779324" lon="6.38222215312">
		<tag k="name" v="Eljarvikbotnvatnet" />
		<tag k="natural" v="water" />
		<tag k="ssr:stedsnr" v="246073" />
	</node>
	<node id="-436701" lat="59.6857222253" lon="6.01182500658">
		<tag k="name" v="Horsnes" />
		<tag k="natural" v="cape" />
		<tag k="ssr:stedsnr" v="948274" />
	</node>
	<node id="-436188" lat="59.6564694436" lon="5.97053611176">
		<tag k="name" v="Sørelva" />
		<tag k="ssr:stedsnr" v="670468" />
		<tag k="waterway" v="river" />
	</node>
	<node id="-436698" lat="59.8292777782" lon="6.30534166718">
		<tag k="name" v="Lusaskarstjødno" />
		<tag k="natural" v="water" />
		<tag k="ssr:stedsnr" v="948227" />
	</node>
	<node id="-436185" lat="59.8442222563" lon="6.21062610426">
		<tag k="alt_name" v="Grånuttjødno" />
		<tag k="name" v="Grånuttjørn" />
		<tag k="natural" v="water" />
		<tag k="ssr:stedsnr" v="671205" />
	</node>
	<node id="-436693" lat="59.8067305527" lon="6.24866666633">
		<tag k="name" v="Markhuselva" />
		<tag k="ssr:stedsnr" v="948179" />
		<tag k="waterway" v="river" />
	</node>
	<node id="-436692" lat="59.7936487593" lon="6.26456270086">
		<tag k="name" v="Skutatjørna" />
		<tag k="natural" v="water" />
		<tag k="ssr:stedsnr" v="948176" />
	</node>
	<node id="-435854" lat="59.834525002" lon="6.13645000415">
		<tag k="name" v="Skadvatna" />
		<tag k="natural" v="water" />
		<tag k="ssr:stedsnr" v="489234" />
		<tag k="water" v="lake" />
	</node>
	<node id="-435154" lat="59.5919779303" lon="6.02907392009">
		<tag k="alt_name" v="Lysavatnet" />
		<tag k="name" v="Lysevatnet" />
		<tag k="natural" v="water" />
		<tag k="ssr:stedsnr" v="731528" />
		<tag k="water" v="lake" />
	</node>
	<node id="-436689" lat="59.7421305532" lon="6.12822778284">
		<tag k="name" v="Skarhaugbekken" />
		<tag k="ssr:stedsnr" v="948120" />
		<tag k="waterway" v="stream" />
	</node>
	<node id="-436688" lat="59.9013444458" lon="6.48673611228">
		<tag k="name" v="Utløholmen" />
		<tag k="place" v="islet" />
		<tag k="ssr:stedsnr" v="948092" />
	</node>
	<node id="-435960" lat="59.5928249955" lon="5.98968610613">
		<tag k="alt_name" v="Forevatnet" />
		<tag k="name" v="Furevatnet" />
		<tag k="natural" v="water" />
		<tag k="ssr:stedsnr" v="549534" />
		<tag k="water" v="lake" />
	</node>
	<node id="-435660" lat="59.8769249959" lon="6.42921945255">
		<tag k="name" v="Øynaelva" />
		<tag k="ssr:stedsnr" v="220818" />
		<tag k="waterway" v="river" />
	</node>
	<node id="-435959" lat="59.6091593619" lon="6.00233283164">
		<tag k="alt_name" v="Kattatjørn" />
		<tag k="name" v="Kattatjørna" />
		<tag k="natural" v="water" />
		<tag k="ssr:stedsnr" v="549530" />
	</node>
	<node id="-436166" lat="59.6338027762" lon="5.99734166603">
		<tag k="name" v="Svelgjand" />
		<tag k="ssr:stedsnr" v="644752" />
		<tag k="waterway" v="river" />
	</node>
	<node id="-435652" lat="59.7067750028" lon="6.07066945232">
		<tag k="name" v="Honsvik" />
		<tag k="natural" v="bay" />
		<tag k="ssr:stedsnr" v="220370" />
	</node>
	<node id="-435446" lat="59.6299601142" lon="6.16261482963">
		<tag k="name" v="Krokavatnet" />
		<tag k="natural" v="water" />
		<tag k="ssr:stedsnr" v="124482" />
	</node>
	<node id="-436674" lat="59.9053194475" lon="6.27352778106">
		<tag k="alt_name" v="Sæterdalsvatnet, øvsta" />
		<tag k="name" v="Øvsta Sæterdalsvatnet" />
		<tag k="natural" v="water" />
		<tag k="ssr:stedsnr" v="914495" />
		<tag k="water" v="lake" />
	</node>
	<node id="-436672" lat="59.9183944444" lon="6.36731111071">
		<tag k="name" v="Sandvikevatnet" />
		<tag k="natural" v="water" />
		<tag k="ssr:stedsnr" v="914489" />
		<tag k="water" v="lake" />
	</node>
	<node id="-435646" lat="59.8298250011" lon="6.29768888376">
		<tag k="name" v="Rønndalsbekken" />
		<tag k="ssr:stedsnr" v="220263" />
		<tag k="waterway" v="stream" />
	</node>
	<node id="-435957" lat="59.6229765063" lon="5.95399268545">
		<tag k="alt_name" v="Pålstjørn" />
		<tag k="name" v="Pålstjørna" />
		<tag k="natural" v="water" />
		<tag k="ssr:stedsnr" v="549509" />
	</node>
	<node id="-435131" lat="59.6935376553" lon="5.90359257684">
		<tag k="name" v="Fitjatjørna" />
		<tag k="natural" v="water" />
		<tag k="ssr:stedsnr" v="887723" />
	</node>
	<node id="-434847" lat="59.6157280821" lon="5.9263044088">
		<tag k="alt_name" v="Grosteinstjørn" />
		<tag k="name" v="Grosteinstjørna" />
		<tag k="natural" v="water" />
		<tag k="ssr:stedsnr" v="306514" />
	</node>
	<node id="-435128" lat="59.647805556" lon="6.04561389051">
		<tag k="name" v="Geitskarbekken" />
		<tag k="ssr:stedsnr" v="887685" />
		<tag k="waterway" v="stream" />
	</node>
	<node id="-435444" lat="59.6392138887" lon="6.02611666341">
		<tag k="name" v="Kaldeimselva" />
		<tag k="ssr:stedsnr" v="124459" />
		<tag k="waterway" v="stream" />
	</node>
	<node id="-435126" lat="59.6343638862" lon="5.83463334131">
		<tag k="name" v="Grindavatnet" />
		<tag k="natural" v="water" />
		<tag k="ssr:stedsnr" v="887629" />
		<tag k="water" v="lake" />
	</node>
	<node id="-435635" lat="59.7191888895" lon="5.96887500098">
		<tag k="name" v="Øvste Bekkjen" />
		<tag k="ssr:stedsnr" v="220123" />
		<tag k="waterway" v="stream" />
	</node>
	<node id="-435631" lat="59.7491305595" lon="6.20221667287">
		<tag k="name" v="Honnsfoss" />
		<tag k="natural" v="waterfall" />
		<tag k="ssr:stedsnr" v="220028" />
	</node>
	<node id="-436651" lat="59.8008665551" lon="6.28426865799">
		<tag k="name" v="Kuskardvatnet" />
		<tag k="natural" v="water" />
		<tag k="ssr:stedsnr" v="914091" />
	</node>
	<node id="-435114" lat="59.7448192527" lon="6.14954299904">
		<tag k="name" v="Blomtjørn" />
		<tag k="natural" v="water" />
		<tag k="ssr:stedsnr" v="887404" />
	</node>
	<node id="-435307" lat="59.7811715877" lon="6.28791575293">
		<tag k="alt_name" v="Blomvatnet" />
		<tag k="name" v="Plomvatnet" />
		<tag k="natural" v="water" />
		<tag k="ssr:stedsnr" v="64053" />
	</node>
	<node id="-436647" lat="59.8394666708" lon="6.39696943928">
		<tag k="name" v="Blomstølsvatnet" />
		<tag k="natural" v="water" />
		<tag k="ssr:stedsnr" v="914040" />
	</node>
	<node id="-436646" lat="59.8152527763" lon="6.24772777213">
		<tag k="alt_name" v="Miljateigelva" />
		<tag k="name" v="Miljateigselva" />
		<tag k="ssr:stedsnr" v="914034" />
		<tag k="waterway" v="stream" />
	</node>
	<node id="-435109" lat="59.6944833312" lon="6.03647222454">
		<tag k="name" v="Revsnes" />
		<tag k="natural" v="cape" />
		<tag k="ssr:stedsnr" v="887294" />
	</node>
	<node id="-435105" lat="59.7005444458" lon="6.04947777497">
		<tag k="name" v="Eikjenes" />
		<tag k="natural" v="cape" />
		<tag k="ssr:stedsnr" v="887251" />
	</node>
	<node id="-435104" lat="59.6873333297" lon="6.01732221811">
		<tag k="name" v="Mjånes" />
		<tag k="natural" v="cape" />
		<tag k="ssr:stedsnr" v="887246" />
	</node>
	<node id="-435103" lat="59.6956333365" lon="6.02409721771">
		<tag k="name" v="Vikatræbekken" />
		<tag k="ssr:stedsnr" v="887234" />
		<tag k="waterway" v="stream" />
	</node>
	<node id="-435101" lat="59.8668333373" lon="6.29145278049">
		<tag k="name" v="Revelva" />
		<tag k="ssr:stedsnr" v="887192" />
		<tag k="waterway" v="stream" />
	</node>
	<node id="-436636" lat="59.7202888898" lon="6.12240278238">
		<tag k="alt_name" v="Laugareidvika" />
		<tag k="name" v="Lauareidvik" />
		<tag k="natural" v="bay" />
		<tag k="ssr:stedsnr" v="913662" />
	</node>
	<node id="-435611" lat="59.7407635677" lon="6.18288411812">
		<tag k="name" v="Skartjørna" />
		<tag k="natural" v="water" />
		<tag k="ssr:stedsnr" v="219503" />
	</node>
	<node id="-435098" lat="59.8096916703" lon="6.26534165877">
		<tag k="name" v="Måsegroelva" />
		<tag k="ssr:stedsnr" v="887173" />
		<tag k="waterway" v="river" />
	</node>
	<node id="-435609" lat="59.7212472181" lon="6.20487778509">
		<tag k="name" v="Hellaugbekken" />
		<tag k="ssr:stedsnr" v="219486" />
		<tag k="waterway" v="stream" />
	</node>
	<node id="-436630" lat="59.605116617" lon="5.98356598128">
		<tag k="alt_name" v="Holmavatnet" />
		<tag k="name" v="Holmevatnet" />
		<tag k="natural" v="water" />
		<tag k="ssr:stedsnr" v="913532" />
	</node>
	<node id="-436629" lat="59.6140504161" lon="5.99970964869">
		<tag k="alt_name" v="Skittjørn" />
		<tag k="name" v="Skittjørna" />
		<tag k="natural" v="water" />
		<tag k="ssr:stedsnr" v="913525" />
	</node>
	<node id="-434893" lat="59.8869166666" lon="6.43431667013">
		<tag k="name" v="Kvernhuselva" />
		<tag k="ssr:stedsnr" v="307506" />
		<tag k="waterway" v="stream" />
	</node>
	<node id="-436115" lat="59.89840278" lon="6.4825555509">
		<tag k="name" v="Dalelva" />
		<tag k="ssr:stedsnr" v="611602" />
		<tag k="waterway" v="river" />
	</node>
	<node id="-435779" lat="59.7415555564" lon="6.02955277766">
		<tag k="name" v="Leitesbekk" />
		<tag k="ssr:stedsnr" v="462323" />
		<tag k="waterway" v="stream" />
	</node>
	<node id="-435088" lat="59.6408361107" lon="5.89878888298">
		<tag k="name" v="Melandselva" />
		<tag k="ssr:stedsnr" v="887566" />
		<tag k="waterway" v="river" />
	</node>
	<node id="-436111" lat="59.9327875415" lon="6.3422816233">
		<tag k="name" v="Blomstølsskardvatnet" />
		<tag k="natural" v="water" />
		<tag k="ssr:stedsnr" v="610493" />
	</node>
	<node id="-436620" lat="59.6688999987" lon="5.83058610428">
		<tag k="alt_name" v="Vasstølsvatn" />
		<tag k="name" v="Vasstølsvatnet" />
		<tag k="natural" v="water" />
		<tag k="ssr:stedsnr" v="913024" />
	</node>
	<node id="-436106" lat="59.7789318087" lon="6.27329163861">
		<tag k="name" v="Svartavatnet" />
		<tag k="natural" v="water" />
		<tag k="ssr:stedsnr" v="610136" />
	</node>
	<node id="-435593" lat="59.9025416675" lon="6.23885833917">
		<tag k="name" v="Smådalsvatna" />
		<tag k="natural" v="water" />
		<tag k="ssr:stedsnr" v="186528" />
	</node>
	<node id="-436103" lat="59.8015518575" lon="6.402945698">
		<tag k="name" v="Svartavatnet" />
		<tag k="natural" v="water" />
		<tag k="ssr:stedsnr" v="610082" />
		<tag k="water" v="lake" />
	</node>
	<node id="-436100" lat="59.8711583374" lon="6.41405555804">
		<tag k="name" v="Rullestadvatnet" />
		<tag k="natural" v="water" />
		<tag k="ssr:stedsnr" v="610032" />
		<tag k="water" v="lake" />
	</node>
	<node id="-436099" lat="59.8542944465" lon="6.27202499098">
		<tag k="name" v="Eikemoelva" />
		<tag k="ssr:stedsnr" v="610015" />
		<tag k="waterway" v="river" />
	</node>
	<node id="-436610" lat="59.7615142309" lon="6.15740650201">
		<tag k="alt_name" v="Skreddalstjønno" />
		<tag k="name" v="Skreddalstjørn" />
		<tag k="natural" v="water" />
		<tag k="ssr:stedsnr" v="854388" />
	</node>
	<node id="-436095" lat="59.6884603434" lon="6.14503453549">
		<tag k="name" v="Djupavatnet" />
		<tag k="natural" v="water" />
		<tag k="ssr:stedsnr" v="609693" />
	</node>
	<node id="-436605" lat="59.7983140954" lon="6.36564923653">
		<tag k="alt_name" v="Borgedalsvatnet, nedre" />
		<tag k="name" v="Nedra Borgedalsvatnet" />
		<tag k="natural" v="water" />
		<tag k="ssr:stedsnr" v="854052" />
	</node>
	<node id="-435580" lat="59.8620473749" lon="6.29520720154">
		<tag k="name" v="Skidalsvatnet" />
		<tag k="natural" v="water" />
		<tag k="ssr:stedsnr" v="186015" />
	</node>
	<node id="-435578" lat="59.666255556" lon="5.94736111912">
		<tag k="alt_name" v="Etneelvi" />
		<tag k="name" v="Etneelva" />
		<tag k="ssr:stedsnr" v="185719" />
		<tag k="waterway" v="river" />
	</node>
	<node id="-436089" lat="59.7456273245" lon="6.1638003132">
		<tag k="alt_name" v="Veradalstjørna" />
		<tag k="name" v="Verdalsvatnet" />
		<tag k="natural" v="water" />
		<tag k="ssr:stedsnr" v="609621" />
	</node>
	<node id="-435064" lat="59.7504833321" lon="6.20425833078">
		<tag k="name" v="Holmen" />
		<tag k="place" v="islet" />
		<tag k="ssr:stedsnr" v="402018" />
	</node>
	<node id="-436087" lat="59.6044333335" lon="6.03977500371">
		<tag k="alt_name" v="Veradalstjørn" />
		<tag k="name" v="Veradalstjørnene" />
		<tag k="natural" v="water" />
		<tag k="ssr:stedsnr" v="609523" />
	</node>
	<node id="-436086" lat="59.6160914199" lon="6.05842966765">
		<tag k="name" v="Ilsvatnet" />
		<tag k="natural" v="water" />
		<tag k="ssr:stedsnr" v="609522" />
		<tag k="water" v="lake" />
	</node>
	<node id="-435573" lat="59.7237694441" lon="5.87276111415">
		<tag k="name" v="Mortveitvatnet" />
		<tag k="natural" v="water" />
		<tag k="ssr:stedsnr" v="185612" />
	</node>
	<node id="-436596" lat="59.7345524165" lon="6.26874779384">
		<tag k="alt_name" v="Skiftesvatnet" />
		<tag k="name" v="Skiftestjørna" />
		<tag k="natural" v="water" />
		<tag k="ssr:stedsnr" v="853930" />
	</node>
	<node id="-436595" lat="59.6709187021" lon="6.20633365746">
		<tag k="name" v="Krokavatnet" />
		<tag k="natural" v="water" />
		<tag k="ssr:stedsnr" v="853733" />
	</node>
	<node id="-435570" lat="59.6165268028" lon="6.02485788795">
		<tag k="name" v="Høylandsvatnet" />
		<tag k="natural" v="water" />
		<tag k="ssr:stedsnr" v="185498" />
	</node>
	<node id="-436593" lat="59.6801828151" lon="5.87300220666">
		<tag k="alt_name" v="Krokavatn" />
		<tag k="name" v="Krokavatnet" />
		<tag k="natural" v="water" />
		<tag k="ssr:stedsnr" v="853721" />
	</node>
	<node id="-435568" lat="59.646019442" lon="6.07258888455">
		<tag k="name" v="Strypetjørna" />
		<tag k="natural" v="water" />
		<tag k="ssr:stedsnr" v="185478" />
		<tag k="water" v="lake" />
	</node>
	<node id="-435054" lat="59.7192250037" lon="5.96625554863">
		<tag k="name" v="Nedste Bekkjen" />
		<tag k="ssr:stedsnr" v="401655" />
		<tag k="waterway" v="stream" />
	</node>
	<node id="-435562" lat="59.6921666633" lon="6.11593056125">
		<tag k="name" v="Kvamselva" />
		<tag k="ssr:stedsnr" v="185703" />
		<tag k="waterway" v="stream" />
	</node>
	<node id="-436585" lat="59.595691668" lon="6.00705000444">
		<tag k="name" v="Kaldebekk" />
		<tag k="ssr:stedsnr" v="853538" />
		<tag k="waterway" v="stream" />
	</node>
	<node id="-436071" lat="59.8690194416" lon="6.39965278087">
		<tag k="name" v="Svobekken" />
		<tag k="ssr:stedsnr" v="583796" />
		<tag k="waterway" v="stream" />
	</node>
	<node id="-435558" lat="59.7188475856" lon="6.21525061366">
		<tag k="alt_name" v="Fetavatnet" />
		<tag k="name" v="Fitavatnet" />
		<tag k="natural" v="water" />
		<tag k="ssr:stedsnr" v="185655" />
	</node>
	<node id="-435686" lat="59.6635833348" lon="6.20078888001">
		<tag k="name" v="Kjeringvatnet" />
		<tag k="natural" v="water" />
		<tag k="ssr:stedsnr" v="246467" />
	</node>
	<node id="-435042" lat="59.6845999963" lon="6.15170554838">
		<tag k="name" v="Litla Djupavassneset" />
		<tag k="natural" v="cape" />
		<tag k="ssr:stedsnr" v="401447" />
	</node>
	<node id="-436576" lat="59.8489249973" lon="6.196686107">
		<tag k="alt_name" v="Øystølsvatnet" />
		<tag k="name" v="Øydstølsvatnet" />
		<tag k="natural" v="water" />
		<tag k="ssr:stedsnr" v="853137" />
	</node>
	<node id="-436112" lat="59.9237861155" lon="6.39447777948">
		<tag k="name" v="Tverrelva" />
		<tag k="ssr:stedsnr" v="610514" />
		<tag k="waterway" v="stream" />
	</node>
	<node id="-436573" lat="59.8203722461" lon="6.39136119464">
		<tag k="name" v="Sauanutvatnet" />
		<tag k="natural" v="water" />
		<tag k="ssr:stedsnr" v="853073" />
	</node>
	<node id="-436572" lat="59.817733336" lon="6.3612722187">
		<tag k="name" v="Vaulaneset" />
		<tag k="natural" v="cape" />
		<tag k="ssr:stedsnr" v="853072" />
	</node>
	<node id="-435514" lat="59.6901222214" lon="6.04005555999">
		<tag k="name" v="Åsbøvik" />
		<tag k="natural" v="bay" />
		<tag k="ssr:stedsnr" v="159315" />
	</node>
	<node id="-435032" lat="59.7334333232" lon="6.01084613146">
		<tag k="name" v="Tjødno" />
		<tag k="natural" v="water" />
		<tag k="ssr:stedsnr" v="401339" />
	</node>
	<node id="-436196" lat="59.6241168696" lon="6.07860402097">
		<tag k="name" v="Krokavatnet" />
		<tag k="natural" v="water" />
		<tag k="ssr:stedsnr" v="670506" />
		<tag k="water" v="lake" />
	</node>
	<node id="-434807" lat="59.7160972263" lon="6.19226388286">
		<tag k="name" v="Måsanesbekken" />
		<tag k="ssr:stedsnr" v="280522" />
		<tag k="waterway" v="stream" />
	</node>
	<node id="-435028" lat="59.6884611074" lon="5.9786166686">
		<tag k="name" v="Austrheimsbekken" />
		<tag k="ssr:stedsnr" v="401284" />
		<tag k="waterway" v="stream" />
	</node>
	<node id="-435539" lat="59.6442305538" lon="5.99756111429">
		<tag k="name" v="Sveljan" />
		<tag k="ssr:stedsnr" v="159709" />
		<tag k="waterway" v="stream" />
	</node>
	<node id="-435026" lat="59.6892138932" lon="6.00129445292">
		<tag k="name" v="Grønstadbekken" />
		<tag k="ssr:stedsnr" v="401238" />
		<tag k="waterway" v="stream" />
	</node>
	<node id="-436049" lat="59.714724999" lon="6.20456665908">
		<tag k="name" v="Svalebekken" />
		<tag k="ssr:stedsnr" v="583506" />
		<tag k="waterway" v="stream" />
	</node>
	<node id="-436413" lat="59.8654277779" lon="6.41239167113">
		<tag k="name" v="Bjørndalsbekken" />
		<tag k="ssr:stedsnr" v="765795" />
		<tag k="waterway" v="stream" />
	</node>
	<node id="-436556" lat="59.7981555599" lon="6.2135694403">
		<tag k="name" v="Ripelselva" />
		<tag k="ssr:stedsnr" v="833025" />
		<tag k="waterway" v="river" />
	</node>
	<node id="-435527" lat="59.6876527799" lon="6.1473027806">
		<tag k="name" v="Stora Djupavassneset" />
		<tag k="natural" v="cape" />
		<tag k="ssr:stedsnr" v="159477" />
	</node>
	<node id="-436544" lat="59.7153111148" lon="6.07346111624">
		<tag k="name" v="Bjørkelitjørno" />
		<tag k="natural" v="water" />
		<tag k="ssr:stedsnr" v="827348" />
	</node>
	<node id="-435680" lat="59.8038405142" lon="6.30297041941">
		<tag k="name" v="Langvotna" />
		<tag k="natural" v="water" />
		<tag k="ssr:stedsnr" v="246085" />
	</node>
	<node id="-435004" lat="59.8530805516" lon="6.36306943765">
		<tag k="alt_name" v="Saltåa" />
		<tag k="name" v="Saltåna" />
		<tag k="ssr:stedsnr" v="368073" />
		<tag k="waterway" v="stream" />
	</node>
	<node id="-435003" lat="59.8437499998" lon="6.33980555777">
		<tag k="loc_name" v="Langfossen" />
		<tag k="name" v="Langfoss" />
		<tag k="natural" v="waterfall" />
		<tag k="ssr:stedsnr" v="368072" />
	</node>
	<node id="-436026" lat="59.6832999984" lon="6.00990277201">
		<tag k="name" v="Lurasundholmen" />
		<tag k="place" v="islet" />
		<tag k="ssr:stedsnr" v="583230" />
	</node>
	<node id="-435001" lat="59.8534694425" lon="6.28438054781">
		<tag k="alt_name" v="Haukvamselva" />
		<tag k="name" v="Haugkvamselva" />
		<tag k="ssr:stedsnr" v="368014" />
		<tag k="waterway" v="stream" />
	</node>
	<node id="-436536" lat="59.6939861114" lon="6.01265277513">
		<tag k="name" v="Øvstebøbekken" />
		<tag k="ssr:stedsnr" v="827287" />
		<tag k="waterway" v="stream" />
	</node>
	<node id="-434998" lat="59.7102555561" lon="6.22911111488">
		<tag k="name" v="Holsnåna" />
		<tag k="ssr:stedsnr" v="367958" />
		<tag k="waterway" v="stream" />
	</node>
	<node id="-436019" lat="59.8289749963" lon="6.29678610935">
		<tag k="name" v="Viskjerelva" />
		<tag k="ssr:stedsnr" v="583194" />
		<tag k="waterway" v="stream" />
	</node>
	<node id="-436529" lat="59.8900067116" lon="6.34757361034">
		<tag k="name" v="Longatjødno" />
		<tag k="natural" v="water" />
		<tag k="ssr:stedsnr" v="827209" />
	</node>
	<node id="-436016" lat="59.7044694455" lon="6.12084999139">
		<tag k="name" v="Krypsbekken" />
		<tag k="ssr:stedsnr" v="583094" />
		<tag k="waterway" v="stream" />
	</node>
	<node id="-434991" lat="59.709824999" lon="6.11762777818">
		<tag k="name" v="Stordalsvatnet" />
		<tag k="natural" v="water" />
		<tag k="ssr:stedsnr" v="367700" />
		<tag k="water" v="lake" />
	</node>
	<node id="-435320" lat="59.6580916696" lon="6.12881944675">
		<tag k="name" v="Lykilsvatnet" />
		<tag k="natural" v="water" />
		<tag k="ssr:stedsnr" v="64495" />
		<tag k="water" v="lake" />
	</node>
	<node id="-436011" lat="59.7024027771" lon="5.97195833664">
		<tag k="name" v="Skjeldalstjørnane" />
		<tag k="natural" v="water" />
		<tag k="ssr:stedsnr" v="583286" />
	</node>
	<node id="-436009" lat="59.8026138885" lon="6.15113333964">
		<tag k="name" v="Kaldåna" />
		<tag k="ssr:stedsnr" v="610262" />
		<tag k="waterway" v="stream" />
	</node>
	<node id="-436006" lat="59.8816583319" lon="6.41538332721">
		<tag k="alt_name" v="Smieelva" />
		<tag k="name" v="Smielva" />
		<tag k="ssr:stedsnr" v="550485" />
		<tag k="waterway" v="stream" />
	</node>
	<node id="-436017" lat="59.6403361116" lon="6.0681555556">
		<tag k="name" v="Krokavatn" />
		<tag k="natural" v="water" />
		<tag k="ssr:stedsnr" v="583122" />
		<tag k="water" v="lake" />
	</node>
	<node id="-435492" lat="59.7064629116" lon="6.18662462384">
		<tag k="name" v="Svartatjørna" />
		<tag k="natural" v="water" />
		<tag k="ssr:stedsnr" v="159084" />
	</node>
	<node id="-435491" lat="59.7170527816" lon="6.18956110931">
		<tag k="name" v="Øykjanesbekken" />
		<tag k="ssr:stedsnr" v="159083" />
		<tag k="waterway" v="stream" />
	</node>
	<node id="-434978" lat="59.6072277739" lon="6.17229166593">
		<tag k="name" v="Reinsfossen" />
		<tag k="natural" v="waterfall" />
		<tag k="ssr:stedsnr" v="367496" />
	</node>
	<node id="-436000" lat="59.9220114229" lon="6.41308587676">
		<tag k="name" v="Tverrelvvatnet" />
		<tag k="natural" v="water" />
		<tag k="ssr:stedsnr" v="550455" />
	</node>
	<node id="-434992" lat="59.6788186359" lon="5.8801546529">
		<tag k="alt_name" v="Mørkevatn" />
		<tag k="name" v="Mørkavatnet" />
		<tag k="natural" v="water" />
		<tag k="ssr:stedsnr" v="367710" />
	</node>
	<node id="-435166" lat="59.8203230792" lon="6.12551947842">
		<tag k="name" v="Somen" />
		<tag k="natural" v="water" />
		<tag k="ssr:stedsnr" v="887736" />
	</node>
	<node id="-434971" lat="59.8202523521" lon="6.31564183456">
		<tag k="name" v="Sæterdalsvatnet" />
		<tag k="natural" v="water" />
		<tag k="ssr:stedsnr" v="367080" />
	</node>
	<node id="-435993" lat="59.8352527792" lon="6.20194999328">
		<tag k="name" v="Tonaelva" />
		<tag k="ssr:stedsnr" v="550208" />
		<tag k="waterway" v="stream" />
	</node>
	<node id="-436504" lat="59.714488887" lon="6.18843610874">
		<tag k="name" v="Gollafossen" />
		<tag k="natural" v="waterfall" />
		<tag k="ssr:stedsnr" v="826503" />
	</node>
	<node id="-435588" lat="59.7602833367" lon="6.23181110463">
		<tag k="alt_name" v="Raunestølbekken" />
		<tag k="name" v="Raunestølsbekken" />
		<tag k="ssr:stedsnr" v="186108" />
		<tag k="waterway" v="stream" />
	</node>
	<node id="-435989" lat="59.7519249999" lon="6.22028611792">
		<tag k="alt_name" v="Tverråno" />
		<tag k="name" v="Tverråna" />
		<tag k="ssr:stedsnr" v="550123" />
		<tag k="waterway" v="stream" />
	</node>
	<node id="-435476" lat="59.8911888856" lon="6.33197223129">
		<tag k="name" v="Hjorto" />
		<tag k="ssr:stedsnr" v="125504" />
		<tag k="waterway" v="stream" />
	</node>
	<node id="-435473" lat="59.8261749994" lon="6.13010000616">
		<tag k="name" v="Småvatna" />
		<tag k="natural" v="water" />
		<tag k="ssr:stedsnr" v="125229" />
	</node>
	<node id="-435471" lat="59.8144666677" lon="6.29422778506">
		<tag k="name" v="Vierdalsvatnet" />
		<tag k="natural" v="water" />
		<tag k="ssr:stedsnr" v="125103" />
	</node>
	<node id="-436494" lat="59.7007777786" lon="6.12287500057">
		<tag k="name" v="Klakkabekken" />
		<tag k="ssr:stedsnr" v="826388" />
		<tag k="waterway" v="stream" />
	</node>
	<node id="-435980" lat="59.865166665" lon="6.42232777272">
		<tag k="name" v="Sagelva" />
		<tag k="ssr:stedsnr" v="550025" />
		<tag k="waterway" v="stream" />
	</node>
	<node id="-435467" lat="59.7691338118" lon="6.24869208427">
		<tag k="name" v="Blomstølvatnet" />
		<tag k="natural" v="water" />
		<tag k="ssr:stedsnr" v="125068" />
	</node>
	<node id="-435977" lat="59.6793831606" lon="6.12290044333">
		<tag k="name" v="Austmannavatnet" />
		<tag k="natural" v="water" />
		<tag k="ssr:stedsnr" v="549723" />
	</node>
	<node id="-435244" lat="59.7107444421" lon="6.14208056336">
		<tag k="name" v="Sandakrebekken" />
		<tag k="ssr:stedsnr" v="37421" />
		<tag k="waterway" v="stream" />
	</node>
	<node id="-435462" lat="59.7061953843" lon="6.22345526498">
		<tag k="name" v="Litlavatnet" />
		<tag k="natural" v="water" />
		<tag k="ssr:stedsnr" v="124964" />
	</node>
	<node id="-435972" lat="59.7020000035" lon="6.06707777405">
		<tag k="name" v="Eikreimsholmen" />
		<tag k="place" v="islet" />
		<tag k="ssr:stedsnr" v="549696" />
	</node>
	<node id="-436481" lat="59.8515464518" lon="6.26141486182">
		<tag k="alt_name" v="Trolltjørna" />
		<tag k="name" v="Trollatjørna" />
		<tag k="natural" v="water" />
		<tag k="ssr:stedsnr" v="793012" />
	</node>
	<node id="-436480" lat="59.8684861137" lon="6.43409445016">
		<tag k="alt_name" v="Raudbekken" />
		<tag k="name" v="Raudbekk" />
		<tag k="ssr:stedsnr" v="793010" />
		<tag k="waterway" v="stream" />
	</node>
	<node id="-435840" lat="59.6822249986" lon="6.16564999972">
		<tag k="name" v="Mjåvatnet" />
		<tag k="natural" v="water" />
		<tag k="ssr:stedsnr" v="488730" />
		<tag k="water" v="lake" />
	</node>
	<node id="-434942" lat="59.6925677296" lon="6.12608478711">
		<tag k="name" v="Krypstjørna" />
		<tag k="natural" v="water" />
		<tag k="ssr:stedsnr" v="341467" />
	</node>
	<node id="-435453" lat="59.7073293216" lon="6.05033295536">
		<tag k="alt_name" v="Noreimsstranda" />
		<tag k="name" v="Norheimsstranda" />
		<tag k="natural" v="beach" />
		<tag k="ssr:stedsnr" v="124631" />
	</node>
	<node id="-435452" lat="59.7200833294" lon="6.19462499478">
		<tag k="name" v="Hellaugvatnet" />
		<tag k="natural" v="water" />
		<tag k="ssr:stedsnr" v="124625" />
		<tag k="water" v="lake" />
	</node>
	<node id="-436475" lat="59.6783666636" lon="6.21060832828">
		<tag k="name" v="Gardlagvatna" />
		<tag k="natural" v="water" />
		<tag k="ssr:stedsnr" v="792724" />
		<tag k="water" v="lake" />
	</node>
	<node id="-436474" lat="59.7047250009" lon="6.08799999898">
		<tag k="name" v="Nesaholmen" />
		<tag k="place" v="islet" />
		<tag k="ssr:stedsnr" v="792702" />
	</node>
	<node id="-436473" lat="59.6902083362" lon="5.96267499217">
		<tag k="alt_name" v="Stølebekken" />
		<tag k="name" v="Stødlebekken" />
		<tag k="ssr:stedsnr" v="792692" />
		<tag k="waterway" v="stream" />
	</node>
	<node id="-436472" lat="59.7080500007" lon="6.03076666023">
		<tag k="name" v="Kvernabekken" />
		<tag k="ssr:stedsnr" v="792679" />
		<tag k="waterway" v="stream" />
	</node>
	<node id="-436471" lat="59.7095500029" lon="5.89144999277">
		<tag k="alt_name" v="Martveitvatnet" />
		<tag k="name" v="Mortveitvatna" />
		<tag k="natural" v="water" />
		<tag k="ssr:stedsnr" v="792676" />
	</node>
	<node id="-435958" lat="59.6230833377" lon="6.13576666216">
		<tag k="alt_name" v="Jordavatnet, nedre;Nedre Jordavatnet" />
		<tag k="name" v="Ytra Jordavatnet" />
		<tag k="natural" v="water" />
		<tag k="ssr:stedsnr" v="549519" />
		<tag k="water" v="lake" />
	</node>
	<node id="-436469" lat="59.731802893" lon="6.05068703811">
		<tag k="alt_name" v="Vatnadalsvatnet" />
		<tag k="name" v="Vatnedalsvatnet" />
		<tag k="natural" v="water" />
		<tag k="ssr:stedsnr" v="792660" />
	</node>
	<node id="-435956" lat="59.6329736904" lon="6.18594864826">
		<tag k="name" v="Fiskedalstjørna" />
		<tag k="natural" v="water" />
		<tag k="ssr:stedsnr" v="549507" />
	</node>
	<node id="-436466" lat="59.6192027798" lon="6.14940000803">
		<tag k="alt_name" v="Jordavatnet, in;Indre Jordavatnet" />
		<tag k="name" v="Indra Jordavatnet" />
		<tag k="natural" v="water" />
		<tag k="ssr:stedsnr" v="792526" />
		<tag k="water" v="lake" />
	</node>
	<node id="-436463" lat="59.6595705659" lon="6.08971974679">
		<tag k="name" v="Hårlandsvatnet" />
		<tag k="natural" v="water" />
		<tag k="ssr:stedsnr" v="792493" />
	</node>
	<node id="-435369" lat="59.6914749989" lon="6.00325556444">
		<tag k="name" v="Skjeldalsbekken" />
		<tag k="ssr:stedsnr" v="98227" />
		<tag k="waterway" v="stream" />
	</node>
	<node id="-435581" lat="59.8808337367" lon="6.45519988292">
		<tag k="alt_name" v="Stemtjørna" />
		<tag k="name" v="Stemtjørn" />
		<tag k="natural" v="water" />
		<tag k="ssr:stedsnr" v="186025" />
	</node>
	<node id="-436460" lat="59.9214111135" lon="6.22868333991">
		<tag k="name" v="Blådalselvi" />
		<tag k="ssr:stedsnr" v="792441" />
		<tag k="waterway" v="river" />
	</node>
	<node id="-436459" lat="59.9624388869" lon="6.44476388445">
		<tag k="name" v="Sauanutvatnet" />
		<tag k="natural" v="water" />
		<tag k="ssr:stedsnr" v="792406" />
	</node>
	<node id="-434922" lat="59.6430371965" lon="6.07509798632">
		<tag k="name" v="Osatjørna" />
		<tag k="natural" v="water" />
		<tag k="ssr:stedsnr" v="341104" />
	</node>
	<node id="-435945" lat="59.8321208932" lon="6.36564171875">
		<tag k="name" v="Kråketjørn" />
		<tag k="natural" v="water" />
		<tag k="ssr:stedsnr" v="549048" />
	</node>
	<node id="-436453" lat="59.7910361092" lon="6.18748610841">
		<tag k="name" v="Tretteteigelva" />
		<tag k="ssr:stedsnr" v="792325" />
		<tag k="waterway" v="stream" />
	</node>
	<node id="-434982" lat="59.7249416689" lon="6.17656944887">
		<tag k="name" v="Hellaugelva" />
		<tag k="ssr:stedsnr" v="367657" />
		<tag k="waterway" v="stream" />
	</node>
	<node id="-436449" lat="59.8339975328" lon="6.36468593554">
		<tag k="name" v="Vinjakvelvtjørn" />
		<tag k="natural" v="water" />
		<tag k="ssr:stedsnr" v="792045" />
	</node>
	<node id="-435493" lat="59.7491138861" lon="6.20005277101">
		<tag k="name" v="Bakkabekken" />
		<tag k="ssr:stedsnr" v="159090" />
		<tag k="waterway" v="stream" />
	</node>
	<node id="-434908" lat="59.6667166658" lon="5.9326000005">
		<tag k="name" v="Gamleelva" />
		<tag k="ssr:stedsnr" v="340521" />
		<tag k="waterway" v="river" />
	</node>
	<node id="-435948" lat="59.8224888912" lon="6.26131666482">
		<tag k="name" v="Skålneselva" />
		<tag k="ssr:stedsnr" v="549062" />
		<tag k="waterway" v="stream" />
	</node>
	<node id="-434904" lat="59.6790361079" lon="5.80962221677">
		<tag k="name" v="Sandvikeelva" />
		<tag k="ssr:stedsnr" v="340456" />
		<tag k="waterway" v="river" />
	</node>
	<node id="-435927" lat="59.6050624383" lon="5.95004170638">
		<tag k="name" v="Staurskartjørn" />
		<tag k="natural" v="water" />
		<tag k="ssr:stedsnr" v="523729" />
	</node>
	<node id="-434902" lat="59.7433944413" lon="6.18569721422">
		<tag k="name" v="Klokkabekken" />
		<tag k="ssr:stedsnr" v="340447" />
		<tag k="waterway" v="stream" />
	</node>
	<node id="-434901" lat="59.6923277814" lon="6.09836389539">
		<tag k="name" v="Liabekken" />
		<tag k="ssr:stedsnr" v="340421" />
		<tag k="waterway" v="stream" />
	</node>
	<node id="-435409" lat="59.6200277757" lon="5.99762778386">
		<tag k="name" v="Skarstølsbekken" />
		<tag k="ssr:stedsnr" v="98736" />
		<tag k="waterway" v="stream" />
	</node>
	<node id="-434895" lat="59.7091500011" lon="6.25230555051">
		<tag k="name" v="Sandvatna" />
		<tag k="natural" v="water" />
		<tag k="ssr:stedsnr" v="307970" />
		<tag k="water" v="lake" />
	</node>
	<node id="-435405" lat="59.6592361124" lon="5.95643055192">
		<tag k="name" v="Auenbekk" />
		<tag k="ssr:stedsnr" v="98689" />
		<tag k="waterway" v="stream" />
	</node>
	<node id="-435404" lat="59.6515166657" lon="5.96685277462">
		<tag k="name" v="Fossabekken" />
		<tag k="ssr:stedsnr" v="98687" />
		<tag k="waterway" v="stream" />
	</node>
	<node id="-436135" lat="59.7867111104" lon="6.17784167515">
		<tag k="name" v="Rafdalselva" />
		<tag k="ssr:stedsnr" v="644135" />
		<tag k="waterway" v="river" />
	</node>
	<node id="-435401" lat="59.6401166703" lon="6.01736110728">
		<tag k="name" v="Håttbekk" />
		<tag k="ssr:stedsnr" v="98660" />
		<tag k="waterway" v="stream" />
	</node>
	<node id="-435912" lat="59.6426888881" lon="5.87613610921">
		<tag k="name" v="Veelva" />
		<tag k="ssr:stedsnr" v="523578" />
		<tag k="waterway" v="river" />
	</node>
	<node id="-436423" lat="59.8082805588" lon="6.23709999591">
		<tag k="name" v="Hetleflåtelva" />
		<tag k="ssr:stedsnr" v="766161" />
		<tag k="waterway" v="river" />
	</node>
	<node id="-434885" lat="59.7659000016" lon="6.16425556038">
		<tag k="name" v="Krokavatnet" />
		<tag k="natural" v="water" />
		<tag k="ssr:stedsnr" v="307381" />
	</node>
	<node id="-436420" lat="59.6408125519" lon="6.09338215711">
		<tag k="name" v="Kvartelstjørn" />
		<tag k="natural" v="water" />
		<tag k="ssr:stedsnr" v="766101" />
	</node>
	<node id="-434882" lat="59.818913885" lon="6.25918333984">
		<tag k="name" v="Fjellbekken" />
		<tag k="ssr:stedsnr" v="307100" />
		<tag k="waterway" v="stream" />
	</node>
	<node id="-436416" lat="59.7548777783" lon="6.20014999968">
		<tag k="name" v="Kaldhusbekken" />
		<tag k="ssr:stedsnr" v="766013" />
		<tag k="waterway" v="stream" />
	</node>
	<node id="-435247" lat="59.6925455115" lon="6.13672916094">
		<tag k="name" v="Tvillingtjørnane" />
		<tag k="natural" v="water" />
		<tag k="ssr:stedsnr" v="37457" />
		<tag k="water" v="lake" />
	</node>
	<node id="-435901" lat="59.6978888884" lon="6.04265000377">
		<tag k="name" v="Lambanes" />
		<tag k="natural" v="cape" />
		<tag k="ssr:stedsnr" v="523319" />
	</node>
	<node id="-435900" lat="59.7031611154" lon="5.98048610407">
		<tag k="name" v="Skjeldalsskarsvatn" />
		<tag k="natural" v="water" />
		<tag k="ssr:stedsnr" v="523316" />
		<tag k="water" v="lake" />
	</node>
	<node id="-435999" lat="59.9281261932" lon="6.46395326466">
		<tag k="alt_name" v="Bergstødvatnet" />
		<tag k="name" v="Bergstøvatnet" />
		<tag k="natural" v="water" />
		<tag k="ssr:stedsnr" v="550448" />
	</node>
	<node id="-435189" lat="59.6615777777" lon="5.962244446">
		<tag k="name" v="Nordelva" />
		<tag k="ssr:stedsnr" v="3734" />
		<tag k="waterway" v="river" />
	</node>
	<node id="-435572" lat="59.5954194467" lon="6.12440277329">
		<tag k="name" v="Stigatjørna" />
		<tag k="natural" v="water" />
		<tag k="ssr:stedsnr" v="185512" />
	</node>
	<node id="-436406" lat="59.7298166703" lon="5.93559444898">
		<tag k="name" v="Miljaelv" />
		<tag k="ssr:stedsnr" v="765740" />
		<tag k="waterway" v="river" />
	</node>
	<node id="-435657" lat="59.699547221" lon="6.06288611192">
		<tag k="name" v="Sandnes" />
		<tag k="natural" v="cape" />
		<tag k="ssr:stedsnr" v="220467" />
	</node>
	<node id="-436032" lat="59.6947805539" lon="6.03926111654">
		<tag k="name" v="Brusporen" />
		<tag k="natural" v="strait" />
		<tag k="ssr:stedsnr" v="583283" />
	</node>
	<node id="-434863" lat="59.6908727884" lon="5.87512629213">
		<tag k="name" v="Plomlivatnet" />
		<tag k="natural" v="water" />
		<tag k="ssr:stedsnr" v="306694" />
	</node>
	<node id="-434861" lat="59.7039055599" lon="6.07756110296">
		<tag k="alt_name" v="Nesaklubben" />
		<tag k="name" v="Neseklubben" />
		<tag k="natural" v="cape" />
		<tag k="ssr:stedsnr" v="306690" />
	</node>
	<node id="-434940" lat="59.690686114" lon="6.08498333872">
		<tag k="name" v="Kleppsdjuvbekken" />
		<tag k="ssr:stedsnr" v="341455" />
		<tag k="waterway" v="stream" />
	</node>
	<node id="-434857" lat="59.736309905" lon="6.18448446496">
		<tag k="name" v="Stordalselva" />
		<tag k="ssr:stedsnr" v="306648" />
		<tag k="waterway" v="river" />
	</node>
	<node id="-435880" lat="59.7487384098" lon="6.15569425253">
		<tag k="name" v="Smørgrøvetjørna" />
		<tag k="natural" v="water" />
		<tag k="ssr:stedsnr" v="523038" />
	</node>
	<node id="-436543" lat="59.7054277736" lon="6.07388332592">
		<tag k="alt_name" v="Eskjevikjo" />
		<tag k="name" v="Eskjevika" />
		<tag k="natural" v="bay" />
		<tag k="ssr:stedsnr" v="827337" />
	</node>
	<node id="-436081" lat="59.6377824456" lon="5.83486163471">
		<tag k="alt_name" v="Mørkavatnet" />
		<tag k="name" v="Myrkavatnet" />
		<tag k="natural" v="water" />
		<tag k="ssr:stedsnr" v="609432" />
	</node>
	<node id="-434852" lat="59.597794448" lon="6.13923055372">
		<tag k="alt_name" v="Bjørndalsvatnet, nordre" />
		<tag k="name" v="Nordre Bjørndalsvatnet" />
		<tag k="natural" v="water" />
		<tag k="ssr:stedsnr" v="306531" />
		<tag k="water" v="lake" />
	</node>
	<node id="-436387" lat="59.6912083339" lon="6.07762777537">
		<tag k="name" v="Heleflotbekken" />
		<tag k="ssr:stedsnr" v="765417" />
		<tag k="waterway" v="stream" />
	</node>
	<node id="-435874" lat="59.6936416642" lon="6.10019166762">
		<tag k="name" v="Kokebekken" />
		<tag k="ssr:stedsnr" v="523486" />
		<tag k="waterway" v="stream" />
	</node>
	<node id="-435361" lat="59.7169277769" lon="6.15342221864">
		<tag k="name" v="Kyrfonnbekken" />
		<tag k="ssr:stedsnr" v="98300" />
		<tag k="waterway" v="stream" />
	</node>
	<node id="-436383" lat="59.680575" lon="6.09158611264">
		<tag k="name" v="Hordalandsvatnet" />
		<tag k="natural" v="water" />
		<tag k="ssr:stedsnr" v="765353" />
	</node>
	<node id="-435358" lat="59.6959638903" lon="6.03926110706">
		<tag k="name" v="Staurnes" />
		<tag k="natural" v="cape" />
		<tag k="ssr:stedsnr" v="98274" />
	</node>
	<node id="-435869" lat="59.8971250002" lon="6.38015277659">
		<tag k="name" v="Holmane" />
		<tag k="place" v="islet" />
		<tag k="ssr:stedsnr" v="489507" />
	</node>
	<node id="-436380" lat="59.7129479625" lon="6.11170252678">
		<tag k="name" v="Klubben" />
		<tag k="natural" v="cape" />
		<tag k="ssr:stedsnr" v="765307" />
	</node>
	<node id="-435866" lat="59.7511416692" lon="6.19205555654">
		<tag k="name" v="Elvalibekken" />
		<tag k="ssr:stedsnr" v="489419" />
		<tag k="waterway" v="stream" />
	</node>
	<node id="-435396" lat="59.7262055574" lon="6.14971111488">
		<tag k="name" v="Stordalsvatnet" />
		<tag k="natural" v="water" />
		<tag k="ssr:stedsnr" v="98503" />
		<tag k="water" v="lake" />
	</node>
	<node id="-435199" lat="59.849174353" lon="6.17570470839">
		<tag k="alt_name" v="Bjellandsvatn" />
		<tag k="name" v="Bjellandsvatnet" />
		<tag k="natural" v="water" />
		<tag k="ssr:stedsnr" v="4179" />
	</node>
	<node id="-436371" lat="59.8802333367" lon="6.26691388602">
		<tag k="name" v="Sæterdalselva" />
		<tag k="ssr:stedsnr" v="732523" />
		<tag k="waterway" v="stream" />
	</node>
	<node id="-435343" lat="59.8950972211" lon="6.27919444231">
		<tag k="alt_name" v="Sæterdalsvatnet, heimsta" />
		<tag k="name" v="Heimsta Sæterdalsvatnet" />
		<tag k="natural" v="water" />
		<tag k="ssr:stedsnr" v="65458" />
		<tag k="water" v="lake" />
	</node>
	<node id="-436366" lat="59.7611500017" lon="6.20883055398">
		<tag k="name" v="Gloppebekken" />
		<tag k="ssr:stedsnr" v="732423" />
		<tag k="waterway" v="stream" />
	</node>
	<node id="-436333" lat="59.6214833375" lon="5.9988611069">
		<tag k="name" v="Bjørgelva" />
		<tag k="ssr:stedsnr" v="731502" />
		<tag k="waterway" v="stream" />
	</node>
	<node id="-435851" lat="59.8092305536" lon="6.23868332734">
		<tag k="name" v="Markhuselva" />
		<tag k="ssr:stedsnr" v="489106" />
		<tag k="waterway" v="stream" />
	</node>
	<node id="-435338" lat="59.8266916668" lon="6.15678610634">
		<tag k="alt_name" v="Kvanndalselv" />
		<tag k="name" v="Kvanndalselva" />
		<tag k="ssr:stedsnr" v="65208" />
		<tag k="waterway" v="stream" />
	</node>
	<node id="-435336" lat="59.8452000045" lon="6.14883056176">
		<tag k="fixme" v="multiple name tags, choose one and add the other to alt_name" />
		<tag k="name" v="Kvanndalsvatnet;Stølsvatnet" />
		<tag k="natural" v="water" />
		<tag k="ssr:stedsnr" v="65188" />
	</node>
	<node id="-435591" lat="59.91716944" lon="6.47646388773">
		<tag k="name" v="Stølselva" />
		<tag k="ssr:stedsnr" v="186519" />
		<tag k="waterway" v="stream" />
	</node>
	<node id="-435844" lat="59.8574166687" lon="6.40740554717">
		<tag k="name" v="Krosselva" />
		<tag k="ssr:stedsnr" v="489026" />
		<tag k="waterway" v="stream" />
	</node>
	<node id="-435331" lat="59.7036750035" lon="5.92736111113">
		<tag k="name" v="Tjedlavatna" />
		<tag k="natural" v="water" />
		<tag k="ssr:stedsnr" v="64692" />
		<tag k="water" v="lake" />
	</node>
	<node id="-435587" lat="59.8189458971" lon="6.40121496919">
		<tag k="name" v="Kjeringevatnet" />
		<tag k="natural" v="water" />
		<tag k="ssr:stedsnr" v="186082" />
	</node>
	<node id="-436352" lat="59.8126777767" lon="6.35163055311">
		<tag k="name" v="Vaulo" />
		<tag k="natural" v="water" />
		<tag k="ssr:stedsnr" v="732101" />
		<tag k="water" v="lake" />
	</node>
	<node id="-436160" lat="59.6752870345" lon="5.82985253406">
		<tag k="name" v="Knappatjødno" />
		<tag k="natural" v="water" />
		<tag k="ssr:stedsnr" v="644648" />
	</node>
	<node id="-435325" lat="59.6176000028" lon="6.09609999937">
		<tag k="name" v="Mørkavatnet" />
		<tag k="natural" v="water" />
		<tag k="ssr:stedsnr" v="64540" />
	</node>
	<node id="-436348" lat="59.8780416672" lon="6.45246389539">
		<tag k="alt_name" v="Fulltjørna" />
		<tag k="name" v="Fulltjørn" />
		<tag k="natural" v="water" />
		<tag k="ssr:stedsnr" v="732033" />
	</node>
	<node id="-435323" lat="59.647558332" lon="6.1263500062">
		<tag k="name" v="Raunevika" />
		<tag k="natural" v="bay" />
		<tag k="ssr:stedsnr" v="64514" />
	</node>
	<node id="-435832" lat="59.7286361082" lon="6.24390832766">
		<tag k="name" v="Ingebjørgsvatna" />
		<tag k="natural" v="water" />
		<tag k="ssr:stedsnr" v="488920" />
		<tag k="water" v="lake" />
	</node>
	<node id="-435831" lat="59.6345305601" lon="6.10758889521">
		<tag k="alt_name" v="Grindeimsvatnet" />
		<tag k="name" v="Grindheimsvatnet" />
		<tag k="natural" v="water" />
		<tag k="ssr:stedsnr" v="488522" />
		<tag k="water" v="lake" />
	</node>
	<node id="-435318" lat="59.8665611105" lon="6.32955000792">
		<tag k="name" v="Mosneselva" />
		<tag k="ssr:stedsnr" v="64486" />
		<tag k="waterway" v="river" />
	</node>
	<node id="-436341" lat="59.8543583361" lon="6.47002499252">
		<tag k="alt_name" v="Bordalselva" />
		<tag k="name" v="Borddalselva" />
		<tag k="ssr:stedsnr" v="732010" />
		<tag k="waterway" v="stream" />
	</node>
	<node id="-434804" lat="59.7291499975" lon="6.15182500707">
		<tag k="name" v="Lindebekken" />
		<tag k="ssr:stedsnr" v="280495" />
		<tag k="waterway" v="stream" />
	</node>
	<node id="-435827" lat="59.6463249964" lon="6.18446111288">
		<tag k="alt_name" v="Avelsvatnet, øvre;Øvre Avelsvatnet" />
		<tag k="name" v="Øvra Avelsvatnet" />
		<tag k="natural" v="water" />
		<tag k="ssr:stedsnr" v="488493" />
		<tag k="water" v="lake" />
	</node>
	<node id="-435825" lat="59.6545166708" lon="6.04361666417">
		<tag k="name" v="Litledalsvatnet" />
		<tag k="natural" v="water" />
		<tag k="old_name" v="Lilledalsvatnet" />
		<tag k="ssr:stedsnr" v="488470" />
		<tag k="water" v="lake" />
	</node>
	<node id="-436336" lat="59.6885588916" lon="6.13009683175">
		<tag k="name" v="Kvamstjørna" />
		<tag k="natural" v="water" />
		<tag k="ssr:stedsnr" v="731718" />
	</node>
	<node id="-435311" lat="59.809975004" lon="6.41027221853">
		<tag k="alt_name" v="Fjærebotnavatnet, nedre;Steffenvatnet" />
		<tag k="name" v="Nedra Fjærebotnavatnet" />
		<tag k="natural" v="water" />
		<tag k="ssr:stedsnr" v="64070" />
		<tag k="water" v="lake" />
	</node>
	<node id="-435309" lat="59.7944575366" lon="6.2837352218">
		<tag k="name" v="Nautavatnet" />
		<tag k="natural" v="water" />
		<tag k="ssr:stedsnr" v="64062" />
	</node>
	<node id="-435820" lat="59.7209277736" lon="6.1566277825">
		<tag k="alt_name" v="Frettestranda" />
		<tag k="name" v="Frettsstronda" />
		<tag k="natural" v="beach" />
		<tag k="ssr:stedsnr" v="488640" />
	</node>
	<node id="-436331" lat="59.6333249986" lon="6.0783805574">
		<tag k="name" v="Basurdevatnet" />
		<tag k="natural" v="water" />
		<tag k="ssr:stedsnr" v="731498" />
		<tag k="water" v="lake" />
	</node>
	<node id="-435177" lat="59.6312335304" lon="6.00148234205">
		<tag k="alt_name" v="Høylandstoska" />
		<tag k="name" v="Høylandstosko" />
		<tag k="natural" v="water" />
		<tag k="ssr:stedsnr" v="3487" />
	</node>
	<node id="-435342" lat="59.7512000038" lon="6.12238056323">
		<tag k="name" v="Furehaugbekken" />
		<tag k="ssr:stedsnr" v="65396" />
		<tag k="waterway" v="stream" />
	</node>
	<node id="-434870" lat="59.8417416665" lon="6.2315805499">
		<tag k="alt_name" v="Djuveelva" />
		<tag k="name" v="Gjuvselva" />
		<tag k="ssr:stedsnr" v="307009" />
		<tag k="waterway" v="stream" />
	</node>
	<node id="-436322" lat="59.6916181366" lon="5.86192349645">
		<tag k="alt_name" v="Buhildervatnet" />
		<tag k="name" v="Buhillersvatnet" />
		<tag k="natural" v="water" />
		<tag k="ssr:stedsnr" v="731689" />
	</node>
	<node id="-436321" lat="59.6801648935" lon="5.86443628767">
		<tag k="alt_name" v="Holmavatn" />
		<tag k="name" v="Holmavatnet" />
		<tag k="natural" v="water" />
		<tag k="ssr:stedsnr" v="731682" />
	</node>
	<node id="-435961" lat="59.7405527806" lon="6.14930000857">
		<tag k="alt_name" v="Revtjørn" />
		<tag k="name" v="Revtjørna" />
		<tag k="natural" v="water" />
		<tag k="ssr:stedsnr" v="549641" />
	</node>
	<node id="-436319" lat="59.7201111142" lon="6.15424166123">
		<tag k="alt_name" v="Røssevik" />
		<tag k="name" v="Røssevika" />
		<tag k="natural" v="bay" />
		<tag k="ssr:stedsnr" v="731658" />
	</node>
	<node id="-434959" lat="59.8312603888" lon="6.21540297317">
		<tag k="name" v="Tjørna" />
		<tag k="natural" v="water" />
		<tag k="ssr:stedsnr" v="429193" />
	</node>
	<node id="-434872" lat="59.8593583329" lon="6.39476944392">
		<tag k="name" v="Løyningsbekken" />
		<tag k="ssr:stedsnr" v="307028" />
		<tag k="waterway" v="stream" />
	</node>
	<node id="-436302" lat="59.6369583317" lon="6.00866111871">
		<tag k="name" v="Høylandselva" />
		<tag k="ssr:stedsnr" v="705781" />
		<tag k="waterway" v="river" />
	</node>
	<node id="-435789" lat="59.7271472189" lon="6.15702222789">
		<tag k="name" v="Neset" />
		<tag k="natural" v="cape" />
		<tag k="ssr:stedsnr" v="462480" />
	</node>
	<node id="-436300" lat="59.7197638851" lon="5.91537499666">
		<tag k="name" v="Hedlebekken" />
		<tag k="ssr:stedsnr" v="705771" />
		<tag k="waterway" v="stream" />
	</node>
	<node id="-435273" lat="59.8768416668" lon="6.40024443806">
		<tag k="name" v="Fjæraelva" />
		<tag k="ssr:stedsnr" v="37790" />
		<tag k="waterway" v="river" />
	</node>
	<node id="-435468" lat="59.773280885" lon="6.23279210669">
		<tag k="name" v="Austmannavatnet" />
		<tag k="natural" v="water" />
		<tag k="ssr:stedsnr" v="125071" />
	</node>
	<node id="-436291" lat="59.6776916681" lon="6.2162888836">
		<tag k="name" v="Andra Garlagvatnet" />
		<tag k="natural" v="water" />
		<tag k="ssr:stedsnr" v="705659" />
		<tag k="water" v="lake" />
	</node>
	<node id="-435778" lat="59.7099972255" lon="6.13311110623">
		<tag k="name" v="Klubben" />
		<tag k="natural" v="cape" />
		<tag k="ssr:stedsnr" v="462313" />
	</node>
	<node id="-435777" lat="59.7241805595" lon="6.1200222292">
		<tag k="name" v="Lauareidbekken" />
		<tag k="ssr:stedsnr" v="462308" />
		<tag k="waterway" v="stream" />
	</node>
	<node id="-436288" lat="59.6388589268" lon="5.84809483541">
		<tag k="name" v="Dyråstjørn" />
		<tag k="natural" v="water" />
		<tag k="ssr:stedsnr" v="705609" />
	</node>
	<node id="-435893" lat="59.6827750007" lon="6.00945277966">
		<tag k="name" v="Lurasund" />
		<tag k="natural" v="strait" />
		<tag k="ssr:stedsnr" v="523261" />
	</node>
	<node id="-435771" lat="59.7077713132" lon="6.09331858346">
		<tag k="alt_name" v="Bruravikjo" />
		<tag k="name" v="Bruravika" />
		<tag k="natural" v="bay" />
		<tag k="ssr:stedsnr" v="462275" />
	</node>
	<node id="-436575" lat="59.846574997" lon="6.13789444294">
		<tag k="name" v="Høylandsbygdtjørnene" />
		<tag k="natural" v="water" />
		<tag k="ssr:stedsnr" v="853132" />
	</node>
	<node id="-435380" lat="59.6994749995" lon="6.09876665912">
		<tag k="name" v="Kvamsvik" />
		<tag k="natural" v="bay" />
		<tag k="ssr:stedsnr" v="98431" />
	</node>
	<node id="-436276" lat="59.7272035366" lon="6.07809989837">
		<tag k="name" v="Dalatjørn" />
		<tag k="natural" v="water" />
		<tag k="ssr:stedsnr" v="705449" />
	</node>
	<node id="-435762" lat="59.7073055565" lon="6.13146111487">
		<tag k="name" v="Brøllomsbekken" />
		<tag k="ssr:stedsnr" v="462095" />
		<tag k="waterway" v="stream" />
	</node>
	<node id="-436271" lat="59.7126111154" lon="6.10742499272">
		<tag k="name" v="Sekjabekken" />
		<tag k="ssr:stedsnr" v="705371" />
		<tag k="waterway" v="stream" />
	</node>
	<node id="-436093" lat="59.7067916676" lon="5.91738333769">
		<tag k="alt_name" v="Leiknesvatna" />
		<tag k="name" v="Leknesvatna" />
		<tag k="natural" v="water" />
		<tag k="ssr:stedsnr" v="609664" />
	</node>
	<node id="-436268" lat="59.7103916643" lon="6.09761666098">
		<tag k="name" v="Nautanes" />
		<tag k="natural" v="cape" />
		<tag k="ssr:stedsnr" v="705344" />
	</node>
	<node id="-436267" lat="59.707027779" lon="6.08873610878">
		<tag k="alt_name" v="Hellenesvikjo" />
		<tag k="name" v="Hellenesvika" />
		<tag k="natural" v="bay" />
		<tag k="ssr:stedsnr" v="705343" />
	</node>
	<node id="-435192" lat="59.8561916646" lon="6.49313888456">
		<tag k="name" v="Sandvassfossen" />
		<tag k="natural" v="waterfall" />
		<tag k="ssr:stedsnr" v="4002" />
	</node>
	<node id="-436265" lat="59.6899194437" lon="6.02176110328">
		<tag k="name" v="Sandnes" />
		<tag k="natural" v="cape" />
		<tag k="ssr:stedsnr" v="705328" />
	</node>
	<node id="-435206" lat="59.9394027801" lon="6.45579444329">
		<tag k="name" v="Skjeggesvatnet" />
		<tag k="natural" v="water" />
		<tag k="ssr:stedsnr" v="4441" />
	</node>
	<node id="-435745" lat="59.9156236763" lon="6.45094012637">
		<tag k="name" v="Keidalsvatnet" />
		<tag k="natural" v="water" />
		<tag k="ssr:stedsnr" v="429458" />
	</node>
	<node id="-436351" lat="59.8081222203" lon="6.43306666208">
		<tag k="alt_name" v="Fjærebotnavatnet, øvre;Trongaskardvatnet" />
		<tag k="name" v="Øvra Fjærebotnavatnet" />
		<tag k="natural" v="water" />
		<tag k="ssr:stedsnr" v="732096" />
		<tag k="water" v="lake" />
	</node>
	<node id="-435742" lat="59.8559305581" lon="6.12183334085">
		<tag k="name" v="Svartatjørn" />
		<tag k="natural" v="water" />
		<tag k="ssr:stedsnr" v="429160" />
	</node>
	<node id="-435741" lat="59.7847999967" lon="6.30791388853">
		<tag k="name" v="Sandvatnet" />
		<tag k="natural" v="water" />
		<tag k="ssr:stedsnr" v="429062" />
		<tag k="water" v="lake" />
	</node>
	<node id="-434897" lat="59.7043677501" lon="6.25932515935">
		<tag k="name" v="Nordskorvatnet" />
		<tag k="natural" v="water" />
		<tag k="ssr:stedsnr" v="428961" />
	</node>
	<node id="-436250" lat="59.9122166622" lon="6.49191943707">
		<tag k="name" v="Stølselva" />
		<tag k="ssr:stedsnr" v="705098" />
		<tag k="waterway" v="river" />
	</node>
	<node id="-435846" lat="59.8386438634" lon="6.34314461164">
		<tag k="name" v="Tjørna" />
		<tag k="natural" v="water" />
		<tag k="ssr:stedsnr" v="489061" />
	</node>
	<node id="-436337" lat="59.687841664" lon="6.19490833826">
		<tag k="name" v="Mørkavatnet" />
		<tag k="natural" v="water" />
		<tag k="ssr:stedsnr" v="731720" />
	</node>
	<node id="-436195" lat="59.6165916696" lon="5.95822499431">
		<tag k="alt_name" v="Steintjørn" />
		<tag k="name" v="Steintjørna" />
		<tag k="natural" v="water" />
		<tag k="ssr:stedsnr" v="670498" />
	</node>
	<node id="-435725" lat="59.7000333371" lon="6.17559166894">
		<tag k="name" v="Flotevatnet" />
		<tag k="natural" v="water" />
		<tag k="ssr:stedsnr" v="428687" />
		<tag k="water" v="lake" />
	</node>
	<node id="-435724" lat="59.6906889923" lon="5.90662999697">
		<tag k="name" v="Fjøsnavatnet" />
		<tag k="natural" v="water" />
		<tag k="ssr:stedsnr" v="428685" />
	</node>
	<node id="-436231" lat="59.8924138895" lon="6.32538334022">
		<tag k="name" v="Kikalona" />
		<tag k="place" v="locality" />
		<tag k="ssr:stedsnr" v="671477" />
	</node>
	<node id="-435718" lat="59.6404281656" lon="6.09685100744">
		<tag k="name" v="Jørnåsvatnet" />
		<tag k="natural" v="water" />
		<tag k="ssr:stedsnr" v="428490" />
	</node>
	<node id="-435969" lat="59.7063416686" lon="5.86618889091">
		<tag k="name" v="Akslandselva" />
		<tag k="ssr:stedsnr" v="549678" />
		<tag k="waterway" v="stream" />
	</node>
	<node id="-435203" lat="59.7518634302" lon="6.1782470514">
		<tag k="alt_name" v="Svinåno" />
		<tag k="name" v="Svinåna" />
		<tag k="ssr:stedsnr" v="4399" />
		<tag k="waterway" v="stream" />
	</node>
	<node id="-435714" lat="59.6981055583" lon="5.83590277516">
		<tag k="name" v="Ebnaelva" />
		<tag k="ssr:stedsnr" v="428043" />
		<tag k="waterway" v="stream" />
	</node>
</osm>
