<?xml version="1.0" encoding="UTF-8"?>
<osm generator="osmapis" version="0.6">
	<node id="-436222" lat="59.7930388896" lon="6.20695000633">
		<tag k="historic" v="shieling" />
		<tag k="name" v="Ripelen" />
		<tag k="place" v="locality" />
		<tag k="ssr:stedsnr" v="671334" />
	</node>
	<node id="-436219" lat="59.8117194441" lon="6.21981944831">
		<tag k="alt_name" v="Inntveita" />
		<tag k="name" v="Vesle Eintveit" />
		<tag k="place" v="farm" />
		<tag k="ssr:stedsnr" v="671095" />
	</node>
	<node id="-436217" lat="59.8040666639" lon="6.23871943866">
		<tag k="alt_name" v="Hetleflåtstølen" />
		<tag k="historic" v="shieling" />
		<tag k="name" v="Hetleflotstølen" />
		<tag k="place" v="locality" />
		<tag k="ssr:stedsnr" v="671080" />
	</node>
	<node id="-436213" lat="59.857366667" lon="6.25471666441">
		<tag k="historic" v="shieling" />
		<tag k="name" v="Bakkastølen" />
		<tag k="place" v="locality" />
		<tag k="ssr:stedsnr" v="671020" />
	</node>
	<node id="-436211" lat="59.6757004288" lon="5.99980700081">
		<tag k="fixme" v="consider place=hamlet" />
		<tag k="name" v="Vad" />
		<tag k="place" v="farm" />
		<tag k="ssr:stedsnr" v="670713" />
	</node>
	<node id="-436210" lat="59.6759649044" lon="5.91003955088">
		<tag k="alt_name" v="Fjøsna (indre)" />
		<tag k="fixme" v="consider place=hamlet" />
		<tag k="name" v="Fjøsna" />
		<tag k="place" v="farm" />
		<tag k="ssr:stedsnr" v="670711" />
	</node>
	<node id="-436209" lat="59.6688073224" lon="5.8905047753">
		<tag k="alt_name" v="Bryllåm" />
		<tag k="fixme" v="consider place=hamlet" />
		<tag k="name" v="Brenneland" />
		<tag k="place" v="farm" />
		<tag k="ssr:stedsnr" v="670709" />
	</node>
	<node id="-436206" lat="59.7075818266" lon="5.8521245061">
		<tag k="fixme" v="consider place=hamlet" />
		<tag k="name" v="Lauvvika" />
		<tag k="place" v="farm" />
		<tag k="ssr:stedsnr" v="670678" />
	</node>
	<node id="-436205" lat="59.7308850028" lon="6.17249527144">
		<tag k="fixme" v="consider place=hamlet" />
		<tag k="name" v="Tveito" />
		<tag k="place" v="farm" />
		<tag k="ssr:stedsnr" v="670669" />
	</node>
	<node id="-436203" lat="59.7249347846" lon="5.93247471309">
		<tag k="fixme" v="consider place=hamlet" />
		<tag k="name" v="Tjedla" />
		<tag k="place" v="farm" />
		<tag k="ssr:stedsnr" v="670647" />
	</node>
	<node id="-436200" lat="59.5989305598" lon="5.98334166663">
		<tag k="alt_name" v="Gralsetestølen" />
		<tag k="historic" v="shieling" />
		<tag k="name" v="Grallsetstølen" />
		<tag k="place" v="locality" />
		<tag k="ssr:stedsnr" v="670530" />
	</node>
	<node id="-436194" lat="59.6316416668" lon="6.05775000437">
		<tag k="historic" v="shieling" />
		<tag k="name" v="Heimrestølen" />
		<tag k="place" v="locality" />
		<tag k="ssr:stedsnr" v="670491" />
	</node>
	<node id="-436191" lat="59.6396249983" lon="5.88285832957">
		<tag k="alt_name" v="Sørstrandi" />
		<tag k="fixme" v="consider place=hamlet" />
		<tag k="name" v="Sørstranda" />
		<tag k="place" v="village" />
		<tag k="ssr:stedsnr" v="670477" />
	</node>
	<node id="-436190" lat="59.6486338202" lon="6.03414132212">
		<tag k="alt_name" v="Kaldeim" />
		<tag k="fixme" v="consider place=hamlet" />
		<tag k="name" v="Kaldheim" />
		<tag k="place" v="farm" />
		<tag k="ssr:stedsnr" v="670475" />
	</node>
	<node id="-436187" lat="59.6632158864" lon="5.7993087276">
		<tag k="fixme" v="consider place=hamlet" />
		<tag k="name" v="Helleland" />
		<tag k="place" v="farm" />
		<tag k="ssr:stedsnr" v="670461" />
	</node>
	<node id="-436179" lat="59.7394194429" lon="6.06456667227">
		<tag k="name" v="Bakken" />
		<tag k="place" v="locality" />
		<tag k="ssr:stedsnr" v="650876" />
	</node>
	<node id="-436178" lat="59.6032944428" lon="5.9641583416">
		<tag k="alt_name" v="Staurskarstølen" />
		<tag k="historic" v="shieling" />
		<tag k="name" v="Staurskorsstølen" />
		<tag k="place" v="locality" />
		<tag k="ssr:stedsnr" v="731519" />
	</node>
	<node id="-436163" lat="59.668288916" lon="6.00532419335">
		<tag k="alt_name" v="Grindeim" />
		<tag k="fixme" v="consider place=hamlet" />
		<tag k="name" v="Grindheim" />
		<tag k="place" v="farm" />
		<tag k="ssr:stedsnr" v="644676" />
	</node>
	<node id="-436159" lat="59.7037638857" lon="5.82210834058">
		<tag k="name" v="Teigane" />
		<tag k="place" v="farm" />
		<tag k="ssr:stedsnr" v="644618" />
	</node>
	<node id="-436154" lat="59.73796111" lon="6.1511888912">
		<tag k="historic" v="shieling" />
		<tag k="name" v="Bjørkestølen" />
		<tag k="place" v="locality" />
		<tag k="ssr:stedsnr" v="644431" />
	</node>
	<node id="-436152" lat="59.7443104169" lon="6.10991075073">
		<tag k="alt_name" v="Sævareid nedre" />
		<tag k="fixme" v="consider place=hamlet" />
		<tag k="name" v="Nedre Sævareid" />
		<tag k="place" v="farm" />
		<tag k="ssr:stedsnr" v="644421" />
	</node>
	<node id="-436148" lat="59.6603833315" lon="6.05682777327">
		<tag k="name" v="Halsnes" />
		<tag k="place" v="farm" />
		<tag k="ssr:stedsnr" v="644381" />
	</node>
	<node id="-436147" lat="59.7146638894" lon="6.10500277356">
		<tag k="name" v="Øvernes" />
		<tag k="place" v="farm" />
		<tag k="ssr:stedsnr" v="644317" />
	</node>
	<node id="-436144" lat="59.7257" lon="5.98173056387">
		<tag k="historic" v="shieling" />
		<tag k="name" v="Nystøl" />
		<tag k="place" v="locality" />
		<tag k="ssr:stedsnr" v="644277" />
	</node>
	<node id="-436109" lat="59.7656555561" lon="5.93928333369">
		<tag k="name" v="Ytravannes" />
		<tag k="place" v="farm" />
		<tag k="ssr:stedsnr" v="610400" />
	</node>
	<node id="-436101" lat="59.8193611152" lon="6.23504444515">
		<tag k="fixme" v="multiple name tags, choose one and add the other to alt_name" />
		<tag k="name" v="Hagen;Klokkaren" />
		<tag k="place" v="farm" />
		<tag k="ssr:stedsnr" v="610037" />
	</node>
	<node id="-436097" lat="59.6614370126" lon="5.92750586926">
		<tag k="fixme" v="consider place=hamlet" />
		<tag k="name" v="Sæbø" />
		<tag k="place" v="farm" />
		<tag k="ssr:stedsnr" v="609702" />
	</node>
	<node id="-436096" lat="59.6635638438" lon="6.0928231854">
		<tag k="fixme" v="consider place=hamlet" />
		<tag k="name" v="Hårland" />
		<tag k="place" v="farm" />
		<tag k="ssr:stedsnr" v="609698" />
	</node>
	<node id="-436092" lat="59.7414833321" lon="5.96318054852">
		<tag k="fixme" v="consider place=hamlet" />
		<tag k="name" v="Flesjo" />
		<tag k="place" v="farm" />
		<tag k="ssr:stedsnr" v="609642" />
	</node>
	<node id="-436085" lat="59.6518139417" lon="5.99323020455">
		<tag k="fixme" v="consider place=hamlet" />
		<tag k="name" v="Eikeland" />
		<tag k="place" v="farm" />
		<tag k="ssr:stedsnr" v="609489" />
	</node>
	<node id="-436084" lat="59.6328527812" lon="5.96084999692">
		<tag k="historic" v="shieling" />
		<tag k="name" v="Mostølen" />
		<tag k="place" v="locality" />
		<tag k="ssr:stedsnr" v="609484" />
	</node>
	<node id="-436083" lat="59.6619138854" lon="5.97952778487">
		<tag k="name" v="Steinshagen" />
		<tag k="place" v="farm" />
		<tag k="ssr:stedsnr" v="609473" />
	</node>
	<node id="-436080" lat="59.7622553836" lon="6.20509426722">
		<tag k="alt_name" v="Gloppa" />
		<tag k="historic" v="shieling" />
		<tag k="name" v="Gloppo" />
		<tag k="place" v="locality" />
		<tag k="ssr:stedsnr" v="610434" />
	</node>
	<node id="-436075" lat="59.7393583332" lon="6.06747499377">
		<tag k="name" v="Osphaug" />
		<tag k="place" v="locality" />
		<tag k="ssr:stedsnr" v="590866" />
	</node>
	<node id="-436069" lat="59.8820666684" lon="6.4933916617">
		<tag k="alt_name" v="Skrommestølen øvre" />
		<tag k="historic" v="shieling" />
		<tag k="name" v="Øvre Skrommestølen" />
		<tag k="place" v="locality" />
		<tag k="ssr:stedsnr" v="583781" />
	</node>
	<node id="-436064" lat="59.7023611071" lon="5.82917222534">
		<tag k="name" v="Haugen" />
		<tag k="place" v="farm" />
		<tag k="ssr:stedsnr" v="583706" />
	</node>
	<node id="-436058" lat="59.6175777812" lon="5.90174722874">
		<tag k="historic" v="shieling" />
		<tag k="name" v="Bjødnastølen" />
		<tag k="place" v="locality" />
		<tag k="ssr:stedsnr" v="583609" />
	</node>
	<node id="-436052" lat="59.6420063033" lon="5.91579277154">
		<tag k="fixme" v="consider place=hamlet" />
		<tag k="name" v="Osvåg" />
		<tag k="place" v="farm" />
		<tag k="ssr:stedsnr" v="583528" />
	</node>
	<node id="-436047" lat="59.7259250008" lon="6.13880555653">
		<tag k="name" v="Trongjo" />
		<tag k="place" v="farm" />
		<tag k="ssr:stedsnr" v="583486" />
	</node>
	<node id="-436046" lat="59.7282500016" lon="6.14508889341">
		<tag k="name" v="Lundavågen" />
		<tag k="place" v="farm" />
		<tag k="ssr:stedsnr" v="583485" />
	</node>
	<node id="-436039" lat="59.6861000031" lon="6.1276750014">
		<tag k="historic" v="shieling" />
		<tag k="name" v="Flokatveitstølen" />
		<tag k="place" v="locality" />
		<tag k="ssr:stedsnr" v="583375" />
	</node>
	<node id="-436030" lat="59.7333027782" lon="5.99178333121">
		<tag k="name" v="Vikjo" />
		<tag k="place" v="farm" />
		<tag k="ssr:stedsnr" v="583257" />
	</node>
	<node id="-436012" lat="59.7466472189" lon="6.15873333042">
		<tag k="historic" v="shieling" />
		<tag k="name" v="Verdalen" />
		<tag k="place" v="locality" />
		<tag k="ssr:stedsnr" v="583027" />
	</node>
	<node id="-436005" lat="59.8814345618" lon="6.46471896189">
		<tag k="alt_name" v="Skromme" />
		<tag k="fixme" v="consider place=hamlet" />
		<tag k="name" v="Skrumme" />
		<tag k="place" v="farm" />
		<tag k="ssr:stedsnr" v="550482" />
	</node>
	<node id="-436001" lat="59.9053725939" lon="6.49369148632">
		<tag k="alt_name" v="Bergstød" />
		<tag k="fixme" v="consider place=hamlet" />
		<tag k="name" v="Bergstø" />
		<tag k="place" v="farm" />
		<tag k="ssr:stedsnr" v="550467" />
	</node>
	<node id="-435996" lat="59.766102796" lon="5.93821695565">
		<tag k="alt_name" v="Vannes aust;Indra Vannes" />
		<tag k="fixme" v="consider place=hamlet" />
		<tag k="name" v="Vannes" />
		<tag k="place" v="farm" />
		<tag k="ssr:stedsnr" v="550370" />
	</node>
	<node id="-435985" lat="59.8463305594" lon="6.45679444113">
		<tag k="fixme" v="consider tourism=alpine_hut or tourism=chalet" />
		<tag k="name" v="Simlebu" />
		<tag k="ssr:stedsnr" v="550067" />
		<tag k="tourism" v="wilderness_hut" />
	</node>
	<node id="-435981" lat="59.8649833289" lon="6.39883332534">
		<tag k="historic" v="shieling" />
		<tag k="name" v="Løyningsstølen" />
		<tag k="place" v="locality" />
		<tag k="ssr:stedsnr" v="550023" />
	</node>
	<node id="-435976" lat="59.65924075" lon="5.92153265689">
		<tag k="name" v="Matskår" />
		<tag k="place" v="farm" />
		<tag k="ssr:stedsnr" v="549721" />
	</node>
	<node id="-435975" lat="59.6903000018" lon="6.12835278328">
		<tag k="historic" v="shieling" />
		<tag k="name" v="Kvamsstølen" />
		<tag k="place" v="locality" />
		<tag k="ssr:stedsnr" v="549711" />
	</node>
	<node id="-435973" lat="59.6746096797" lon="5.93230241914">
		<tag k="alt_name" v="Fitje" />
		<tag k="fixme" v="consider place=hamlet" />
		<tag k="name" v="Fitja" />
		<tag k="place" v="farm" />
		<tag k="ssr:stedsnr" v="549703" />
	</node>
	<node id="-435963" lat="59.7214173326" lon="5.96989772551">
		<tag k="fixme" v="consider place=hamlet" />
		<tag k="name" v="Valdra" />
		<tag k="place" v="farm" />
		<tag k="ssr:stedsnr" v="549655" />
	</node>
	<node id="-435954" lat="59.6528638913" lon="6.02150000334">
		<tag k="name" v="Etne" />
		<tag k="place" v="farm" />
		<tag k="ssr:stedsnr" v="549495" />
	</node>
	<node id="-435953" lat="59.6390574774" lon="5.90045315102">
		<tag k="fixme" v="consider place=hamlet" />
		<tag k="name" v="Meland" />
		<tag k="place" v="farm" />
		<tag k="ssr:stedsnr" v="549489" />
	</node>
	<node id="-435946" lat="59.7043000036" lon="5.83450000298">
		<tag k="name" v="Tveitavollen" />
		<tag k="place" v="farm" />
		<tag k="ssr:stedsnr" v="549053" />
	</node>
	<node id="-435939" lat="59.6719177165" lon="5.95119875789">
		<tag k="fixme" v="consider place=hamlet" />
		<tag k="name" v="Enge" />
		<tag k="place" v="farm" />
		<tag k="ssr:stedsnr" v="529968" />
	</node>
	<node id="-435938" lat="59.7405916681" lon="6.11880833902">
		<tag k="name" v="Tono" />
		<tag k="place" v="isolated_dwelling" />
		<tag k="ssr:stedsnr" v="529921" />
	</node>
	<node id="-435937" lat="59.6600805545" lon="6.11571110588">
		<tag k="fixme" v="consider tourism=alpine_hut or tourism=chalet" />
		<tag k="name" v="Løkjelsvatnhytta" />
		<tag k="old_name" v="Lykilsvatnhytta turisthytte;Løkjelsvatnbrakka;Lykilsvatnhytta" />
		<tag k="ssr:stedsnr" v="526510" />
		<tag k="tourism" v="wilderness_hut" />
	</node>
	<node id="-435926" lat="59.6611972258" lon="5.94483055105">
		<tag k="fixme" v="consider place=hamlet" />
		<tag k="name" v="Skjensvoll" />
		<tag k="place" v="farm" />
		<tag k="ssr:stedsnr" v="523721" />
	</node>
	<node id="-435924" lat="59.6759636371" lon="5.8296430714">
		<tag k="historic" v="shieling" />
		<tag k="name" v="Sandvikstølen" />
		<tag k="place" v="locality" />
		<tag k="ssr:stedsnr" v="523683" />
	</node>
	<node id="-435914" lat="59.660391671" lon="5.93487777771">
		<tag k="fixme" v="consider place=hamlet" />
		<tag k="name" v="Haugen" />
		<tag k="place" v="farm" />
		<tag k="ssr:stedsnr" v="523593" />
	</node>
	<node id="-435911" lat="59.7454638903" lon="6.20026389135">
		<tag k="name" v="Volme" />
		<tag k="place" v="farm" />
		<tag k="ssr:stedsnr" v="523574" />
	</node>
	<node id="-435886" lat="59.7977472234" lon="6.24435833926">
		<tag k="historic" v="shieling" />
		<tag k="name" v="Kleppstølen" />
		<tag k="place" v="locality" />
		<tag k="ssr:stedsnr" v="523178" />
	</node>
	<node id="-435884" lat="59.7950249977" lon="6.23762500128">
		<tag k="historic" v="shieling" />
		<tag k="name" v="Nystøl" />
		<tag k="place" v="locality" />
		<tag k="ssr:stedsnr" v="523173" />
	</node>
	<node id="-435883" lat="59.7748888931" lon="6.1736305527">
		<tag k="historic" v="shieling" />
		<tag k="name" v="Slåttestølen" />
		<tag k="place" v="locality" />
		<tag k="ssr:stedsnr" v="523156" />
	</node>
	<node id="-435872" lat="59.6060222263" lon="5.97666388669">
		<tag k="historic" v="shieling" />
		<tag k="name" v="Fossastølen" />
		<tag k="place" v="locality" />
		<tag k="ssr:stedsnr" v="513096" />
	</node>
	<node id="-435870" lat="59.790913893" lon="6.30792777416">
		<tag k="fixme" v="consider tourism=alpine_hut or tourism=chalet" />
		<tag k="name" v="Sandvasshytta" />
		<tag k="ssr:stedsnr" v="510931" />
		<tag k="tourism" v="wilderness_hut" />
	</node>
	<node id="-435868" lat="59.9059194446" lon="6.33971388792">
		<tag k="historic" v="shieling" />
		<tag k="name" v="Lona" />
		<tag k="place" v="locality" />
		<tag k="ssr:stedsnr" v="489491" />
	</node>
	<node id="-435852" lat="59.8131793947" lon="6.18767336803">
		<tag k="alt_name" v="Hamarsland" />
		<tag k="fixme" v="consider place=hamlet" />
		<tag k="name" v="Hammarsland" />
		<tag k="place" v="farm" />
		<tag k="ssr:stedsnr" v="489220" />
	</node>
	<node id="-435847" lat="59.8495527822" lon="6.47012221988">
		<tag k="historic" v="shieling" />
		<tag k="name" v="Nystølen" />
		<tag k="place" v="locality" />
		<tag k="ssr:stedsnr" v="489072" />
	</node>
	<node id="-435841" lat="59.8543128554" lon="6.33672066583">
		<tag k="fixme" v="consider place=hamlet" />
		<tag k="name" v="Mosnes" />
		<tag k="place" v="farm" />
		<tag k="ssr:stedsnr" v="489008" />
	</node>
	<node id="-435839" lat="59.6817969372" lon="6.01624471863">
		<tag k="alt_name" v="Ramsvik" />
		<tag k="fixme" v="consider place=hamlet" />
		<tag k="name" v="Ramsvika" />
		<tag k="place" v="farm" />
		<tag k="ssr:stedsnr" v="488722" />
	</node>
	<node id="-435836" lat="59.6956835769" lon="6.07302849937">
		<tag k="fixme" v="consider place=hamlet" />
		<tag k="name" v="Sande" />
		<tag k="place" v="farm" />
		<tag k="ssr:stedsnr" v="488688" />
	</node>
	<node id="-435835" lat="59.7125138909" lon="6.09865000001">
		<tag k="name" v="Bjørndalen" />
		<tag k="place" v="farm" />
		<tag k="ssr:stedsnr" v="488672" />
	</node>
	<node id="-435826" lat="59.6459141115" lon="5.85194107133">
		<tag k="fixme" v="consider place=hamlet" />
		<tag k="name" v="Veste" />
		<tag k="place" v="farm" />
		<tag k="ssr:stedsnr" v="488486" />
	</node>
	<node id="-435822" lat="59.6691398154" lon="5.79230020537">
		<tag k="alt_name" v="Nervik" />
		<tag k="fixme" v="consider place=hamlet" />
		<tag k="name" v="Nervika" />
		<tag k="place" v="farm" />
		<tag k="ssr:stedsnr" v="488027" />
	</node>
	<node id="-435812" lat="59.7066305538" lon="5.82823333652">
		<tag k="name" v="Årvik" />
		<tag k="place" v="farm" />
		<tag k="ssr:stedsnr" v="468960" />
	</node>
	<node id="-435810" lat="59.7309638904" lon="5.91190556105">
		<tag k="name" v="Leite" />
		<tag k="place" v="isolated_dwelling" />
		<tag k="ssr:stedsnr" v="468909" />
	</node>
	<node id="-435801" lat="59.7308805555" lon="5.93546944376">
		<tag k="fixme" v="consider place=hamlet" />
		<tag k="name" v="Milja" />
		<tag k="place" v="farm" />
		<tag k="ssr:stedsnr" v="462731" />
	</node>
	<node id="-435800" lat="59.5941250039" lon="6.00020832492">
		<tag k="historic" v="shieling" />
		<tag k="name" v="Nystølen" />
		<tag k="place" v="locality" />
		<tag k="ssr:stedsnr" v="462724" />
	</node>
	<node id="-435797" lat="59.5975222212" lon="5.99156944217">
		<tag k="historic" v="shieling" />
		<tag k="name" v="Borgnystølen" />
		<tag k="place" v="locality" />
		<tag k="ssr:stedsnr" v="462650" />
	</node>
	<node id="-435796" lat="59.6288055523" lon="5.92046110932">
		<tag k="historic" v="shieling" />
		<tag k="name" v="Gamlestølen" />
		<tag k="place" v="locality" />
		<tag k="ssr:stedsnr" v="462621" />
	</node>
	<node id="-435795" lat="59.627452782" lon="5.91032222441">
		<tag k="historic" v="shieling" />
		<tag k="name" v="Eikanesstølen" />
		<tag k="place" v="locality" />
		<tag k="ssr:stedsnr" v="462619" />
	</node>
	<node id="-435794" lat="59.6370583372" lon="5.88908610874">
		<tag k="name" v="Åsen" />
		<tag k="place" v="farm" />
		<tag k="ssr:stedsnr" v="462611" />
	</node>
	<node id="-435793" lat="59.6248027816" lon="5.93090556009">
		<tag k="historic" v="shieling" />
		<tag k="name" v="Engelsgjerdstølen" />
		<tag k="place" v="locality" />
		<tag k="ssr:stedsnr" v="462610" />
	</node>
	<node id="-435783" lat="59.7257277753" lon="6.16760834026">
		<tag k="name" v="Solberget" />
		<tag k="place" v="farm" />
		<tag k="ssr:stedsnr" v="462437" />
	</node>
	<node id="-435764" lat="59.8443472236" lon="6.21521388217">
		<tag k="historic" v="shieling" />
		<tag k="name" v="Selborga" />
		<tag k="place" v="locality" />
		<tag k="ssr:stedsnr" v="462131" />
	</node>
	<node id="-435754" lat="59.7159611125" lon="5.91629443708">
		<tag k="historic" v="shieling" />
		<tag k="name" v="Leknesstølen" />
		<tag k="place" v="locality" />
		<tag k="ssr:stedsnr" v="462549" />
	</node>
	<node id="-435752" lat="59.650152777" lon="5.91000277793">
		<tag k="name" v="Osnes" />
		<tag k="place" v="farm" />
		<tag k="ssr:stedsnr" v="462516" />
	</node>
	<node id="-435743" lat="59.8118471365" lon="6.1722186589">
		<tag k="fixme" v="consider place=hamlet" />
		<tag k="name" v="Kvanndal" />
		<tag k="place" v="farm" />
		<tag k="ssr:stedsnr" v="429187" />
	</node>
	<node id="-435740" lat="59.8444722247" lon="6.2910944412">
		<tag k="historic" v="shieling" />
		<tag k="name" v="Bråskot" />
		<tag k="place" v="locality" />
		<tag k="ssr:stedsnr" v="429049" />
	</node>
	<node id="-435734" lat="59.8574916672" lon="6.46432222167">
		<tag k="alt_name" v="Mjølkestølen" />
		<tag k="historic" v="shieling" />
		<tag k="name" v="Mjelkestølen" />
		<tag k="place" v="locality" />
		<tag k="ssr:stedsnr" v="429006" />
	</node>
	<node id="-435733" lat="59.8574833342" lon="6.36910833775">
		<tag k="historic" v="shieling" />
		<tag k="name" v="Skrøyva" />
		<tag k="place" v="locality" />
		<tag k="ssr:stedsnr" v="429001" />
	</node>
	<node id="-435732" lat="59.6717415536" lon="5.99714002766">
		<tag k="name" v="Håfoss" />
		<tag k="place" v="village" />
		<tag k="ssr:stedsnr" v="428734" />
	</node>
	<node id="-435726" lat="59.708180553" lon="6.18265833092">
		<tag k="historic" v="shieling" />
		<tag k="name" v="Hovdastølen" />
		<tag k="place" v="locality" />
		<tag k="ssr:stedsnr" v="428699" />
	</node>
	<node id="-435723" lat="59.716208765" lon="6.09542534523">
		<tag k="alt_name" v="Håland indre" />
		<tag k="name" v="Håland" />
		<tag k="place" v="hamlet" />
		<tag k="ssr:stedsnr" v="428681" />
	</node>
	<node id="-435722" lat="59.7328805532" lon="5.93762500091">
		<tag k="name" v="Skånevik" />
		<tag k="place" v="village" />
		<tag k="ssr:stedsnr" v="428643" />
	</node>
	<node id="-435716" lat="59.6411300131" lon="5.90430422207">
		<tag k="fixme" v="consider place=hamlet" />
		<tag k="name" v="Eikanes" />
		<tag k="place" v="farm" />
		<tag k="ssr:stedsnr" v="428472" />
	</node>
	<node id="-435712" lat="59.6774166657" lon="5.93760833715">
		<tag k="name" v="Skomdal" />
		<tag k="place" v="farm" />
		<tag k="ssr:stedsnr" v="424687" />
	</node>
	<node id="-435711" lat="59.639283021" lon="5.88455109172">
		<tag k="fixme" v="consider place=hamlet" />
		<tag k="name" v="Ve" />
		<tag k="place" v="farm" />
		<tag k="ssr:stedsnr" v="424497" />
	</node>
	<node id="-435702" lat="59.8494472226" lon="6.22718888657">
		<tag k="historic" v="shieling" />
		<tag k="name" v="Gamlestølen" />
		<tag k="place" v="locality" />
		<tag k="ssr:stedsnr" v="247007" />
	</node>
	<node id="-435700" lat="59.6508103775" lon="5.92198286658">
		<tag k="fixme" v="consider place=hamlet" />
		<tag k="name" v="Vågen" />
		<tag k="place" v="farm" />
		<tag k="ssr:stedsnr" v="246709" />
	</node>
	<node id="-435699" lat="59.6575058284" lon="5.9607815749">
		<tag k="alt_name" v="Gralsete" />
		<tag k="fixme" v="consider place=hamlet" />
		<tag k="name" v="Grallsete" />
		<tag k="place" v="farm" />
		<tag k="ssr:stedsnr" v="246708" />
	</node>
	<node id="-435694" lat="59.7267568551" lon="6.16370781648">
		<tag k="fixme" v="consider place=hamlet" />
		<tag k="name" v="Frette" />
		<tag k="place" v="farm" />
		<tag k="ssr:stedsnr" v="246645" />
	</node>
	<node id="-435693" lat="59.7289975725" lon="6.16016600243">
		<tag k="fixme" v="consider place=hamlet" />
		<tag k="name" v="Vinja" />
		<tag k="place" v="farm" />
		<tag k="ssr:stedsnr" v="246644" />
	</node>
	<node id="-435688" lat="59.6442944441" lon="5.92245000109">
		<tag k="name" v="Gjerdsvik" />
		<tag k="place" v="farm" />
		<tag k="ssr:stedsnr" v="246480" />
	</node>
	<node id="-435687" lat="59.6590333293" lon="6.0534305559">
		<tag k="name" v="Halsnes" />
		<tag k="place" v="farm" />
		<tag k="ssr:stedsnr" v="246470" />
	</node>
	<node id="-435685" lat="59.6670511454" lon="5.79364240373">
		<tag k="fixme" v="consider place=hamlet" />
		<tag k="name" v="Tveit" />
		<tag k="place" v="farm" />
		<tag k="ssr:stedsnr" v="246460" />
	</node>
	<node id="-435684" lat="59.8901222252" lon="6.37673611624">
		<tag k="alt_name" v="Nystøl" />
		<tag k="historic" v="shieling" />
		<tag k="name" v="Nystølen" />
		<tag k="place" v="locality" />
		<tag k="ssr:stedsnr" v="246459" />
	</node>
	<node id="-435681" lat="59.7603916705" lon="6.24551389443">
		<tag k="historic" v="shieling" />
		<tag k="name" v="Røssedalen" />
		<tag k="place" v="locality" />
		<tag k="ssr:stedsnr" v="246124" />
	</node>
	<node id="-435677" lat="59.8240260376" lon="6.24740133443">
		<tag k="alt_name" v="Miljateig øvre" />
		<tag k="fixme" v="consider place=hamlet" />
		<tag k="name" v="Miljateigen" />
		<tag k="place" v="farm" />
		<tag k="ssr:stedsnr" v="246049" />
	</node>
	<node id="-435676" lat="59.818450001" lon="6.22901110765">
		<tag k="name" v="Markhus" />
		<tag k="place" v="hamlet" />
		<tag k="ssr:stedsnr" v="246047" />
	</node>
	<node id="-435675" lat="59.8176944675" lon="6.22963073575">
		<tag k="alt_name" v="Hetleflåt" />
		<tag k="fixme" v="consider place=hamlet" />
		<tag k="name" v="Hetleflota" />
		<tag k="place" v="farm" />
		<tag k="ssr:stedsnr" v="246043" />
	</node>
	<node id="-435674" lat="59.6854305545" lon="5.79189999643">
		<tag k="name" v="Husavika" />
		<tag k="place" v="farm" />
		<tag k="ssr:stedsnr" v="246016" />
	</node>
	<node id="-435672" lat="59.7466000022" lon="6.19638888366">
		<tag k="name" v="Volme" />
		<tag k="place" v="farm" />
		<tag k="ssr:stedsnr" v="245632" />
	</node>
	<node id="-435653" lat="59.7163861145" lon="6.08961944425">
		<tag k="alt_name" v="Håland ytre" />
		<tag k="name" v="Ytre Håland" />
		<tag k="place" v="farm" />
		<tag k="ssr:stedsnr" v="220373" />
	</node>
	<node id="-435650" lat="59.687941666" lon="6.00586388112">
		<tag k="alt_name" v="Hovland ytre" />
		<tag k="name" v="Ytre Hovland" />
		<tag k="place" v="farm" />
		<tag k="ssr:stedsnr" v="220313" />
	</node>
	<node id="-435648" lat="59.8199472238" lon="6.1821916722">
		<tag k="historic" v="shieling" />
		<tag k="name" v="Hamarlandstøl" />
		<tag k="place" v="locality" />
		<tag k="ssr:stedsnr" v="220299" />
	</node>
	<node id="-435610" lat="59.7314916682" lon="6.16779167345">
		<tag k="name" v="Tveito" />
		<tag k="place" v="farm" />
		<tag k="ssr:stedsnr" v="219499" />
	</node>
	<node id="-435596" lat="59.7587361129" lon="5.94503055102">
		<tag k="name" v="Kalvadalen" />
		<tag k="place" v="farm" />
		<tag k="ssr:stedsnr" v="186412" />
	</node>
	<node id="-435592" lat="59.9202638859" lon="6.48272222589">
		<tag k="alt_name" v="Bergstødstølen" />
		<tag k="historic" v="shieling" />
		<tag k="name" v="Bergstøstølen" />
		<tag k="place" v="locality" />
		<tag k="ssr:stedsnr" v="186521" />
	</node>
	<node id="-435579" lat="59.8498555574" lon="6.23290555279">
		<tag k="name" v="Bakkaløa" />
		<tag k="place" v="locality" />
		<tag k="ssr:stedsnr" v="186014" />
	</node>
	<node id="-435576" lat="59.6701916706" lon="6.11071389399">
		<tag k="historic" v="shieling" />
		<tag k="name" v="Undsteinsstølen" />
		<tag k="place" v="locality" />
		<tag k="ssr:stedsnr" v="185711" />
	</node>
	<node id="-435574" lat="59.742711112" lon="6.11157499176">
		<tag k="name" v="Kyrping" />
		<tag k="place" v="farm" />
		<tag k="ssr:stedsnr" v="185623" />
	</node>
	<node id="-435571" lat="59.5985611152" lon="6.1349111165">
		<tag k="alt_name" v="Bjørndalen, nordre" />
		<tag k="historic" v="shieling" />
		<tag k="name" v="Nordre Bjørndalen" />
		<tag k="place" v="locality" />
		<tag k="ssr:stedsnr" v="185511" />
	</node>
	<node id="-435569" lat="59.6236611083" lon="6.05564443782">
		<tag k="historic" v="shieling" />
		<tag k="name" v="Auastadstølen" />
		<tag k="place" v="locality" />
		<tag k="ssr:stedsnr" v="185489" />
	</node>
	<node id="-435566" lat="59.6497002758" lon="5.90662290352">
		<tag k="fixme" v="consider place=hamlet" />
		<tag k="name" v="Osnes" />
		<tag k="place" v="farm" />
		<tag k="ssr:stedsnr" v="185465" />
	</node>
	<node id="-435565" lat="59.6591870229" lon="6.02444670122">
		<tag k="alt_name" v="Halland" />
		<tag k="fixme" v="consider place=hamlet" />
		<tag k="name" v="Hallaland" />
		<tag k="place" v="farm" />
		<tag k="ssr:stedsnr" v="185461" />
	</node>
	<node id="-435564" lat="59.6554611085" lon="5.79382500351">
		<tag k="alt_name" v="Skare" />
		<tag k="name" v="Skarde" />
		<tag k="place" v="farm" />
		<tag k="ssr:stedsnr" v="185435" />
	</node>
	<node id="-435563" lat="59.6916055581" lon="6.16595833301">
		<tag k="alt_name" v="Håeimstølen" />
		<tag k="historic" v="shieling" />
		<tag k="name" v="Håheimstølen" />
		<tag k="place" v="locality" />
		<tag k="ssr:stedsnr" v="185705" />
	</node>
	<node id="-435561" lat="59.7058999996" lon="6.11563611849">
		<tag k="name" v="Langeland" />
		<tag k="place" v="farm" />
		<tag k="ssr:stedsnr" v="185681" />
	</node>
	<node id="-435560" lat="59.7077638891" lon="6.13146388937">
		<tag k="alt_name" v="Øygarden" />
		<tag k="name" v="Øydgarden" />
		<tag k="place" v="farm" />
		<tag k="ssr:stedsnr" v="185680" />
	</node>
	<node id="-435554" lat="59.7018787436" lon="5.82904921684">
		<tag k="alt_name" v="Midt-Ebna" />
		<tag k="name" v="Ebna" />
		<tag k="place" v="hamlet" />
		<tag k="ssr:stedsnr" v="185044" />
	</node>
	<node id="-435548" lat="59.7386611145" lon="5.94355555069">
		<tag k="name" v="Træet" />
		<tag k="place" v="farm" />
		<tag k="ssr:stedsnr" v="165924" />
	</node>
	<node id="-435547" lat="59.7612416646" lon="5.94396944407">
		<tag k="fixme" v="consider place=hamlet" />
		<tag k="name" v="Midtra Vannes" />
		<tag k="place" v="farm" />
		<tag k="ssr:stedsnr" v="165922" />
	</node>
	<node id="-435540" lat="59.6527583344" lon="5.97241666264">
		<tag k="alt_name" v="Fossa indre" />
		<tag k="name" v="Indre Fossa" />
		<tag k="place" v="farm" />
		<tag k="ssr:stedsnr" v="159727" />
	</node>
	<node id="-435532" lat="59.7267027783" lon="6.16188056232">
		<tag k="name" v="Frette" />
		<tag k="place" v="farm" />
		<tag k="ssr:stedsnr" v="159516" />
	</node>
	<node id="-435523" lat="59.7345305532" lon="5.99575276913">
		<tag k="name" v="Ytre Tungesvik" />
		<tag k="place" v="farm" />
		<tag k="ssr:stedsnr" v="159380" />
	</node>
	<node id="-435515" lat="59.6905166669" lon="6.01270833295">
		<tag k="fixme" v="consider place=hamlet" />
		<tag k="name" v="Skjeldal" />
		<tag k="place" v="farm" />
		<tag k="ssr:stedsnr" v="159316" />
	</node>
	<node id="-435511" lat="59.7355444426" lon="5.95900000604">
		<tag k="historic" v="shieling" />
		<tag k="name" v="Hordastølen" />
		<tag k="place" v="locality" />
		<tag k="ssr:stedsnr" v="159290" />
	</node>
	<node id="-435506" lat="59.8544444413" lon="6.33661111282">
		<tag k="alt_name" v="Mosnes ytre" />
		<tag k="name" v="Ytre Mosnes" />
		<tag k="place" v="farm" />
		<tag k="ssr:stedsnr" v="159209" />
	</node>
	<node id="-435502" lat="59.6629861106" lon="5.93930555274">
		<tag k="name" v="Gjerde" />
		<tag k="place" v="farm" />
		<tag k="ssr:stedsnr" v="159693" />
	</node>
	<node id="-435500" lat="59.6535249964" lon="5.79886389762">
		<tag k="name" v="Børjenes" />
		<tag k="place" v="farm" />
		<tag k="ssr:stedsnr" v="159645" />
	</node>
	<node id="-435488" lat="59.7476222239" lon="6.20113055237">
		<tag k="name" v="Volme" />
		<tag k="place" v="farm" />
		<tag k="ssr:stedsnr" v="159009" />
	</node>
	<node id="-435487" lat="59.7483833358" lon="6.18253610937">
		<tag k="historic" v="shieling" />
		<tag k="name" v="Skjoldalstølen" />
		<tag k="place" v="locality" />
		<tag k="ssr:stedsnr" v="159006" />
	</node>
	<node id="-435480" lat="59.6582662037" lon="5.92117127306">
		<tag k="loc_name" v="Matskår" />
		<tag k="name" v="Matskor" />
		<tag k="place" v="farm" />
		<tag k="ssr:stedsnr" v="141475" />
	</node>
	<node id="-435477" lat="59.8779376805" lon="6.42696413085">
		<tag k="fixme" v="consider place=hamlet" />
		<tag k="name" v="Rullestad" />
		<tag k="place" v="farm" />
		<tag k="ssr:stedsnr" v="125513" />
	</node>
	<node id="-435469" lat="59.7698805581" lon="6.24806111556">
		<tag k="fixme" v="consider tourism=alpine_hut or tourism=chalet" />
		<tag k="name" v="Blomstølen" />
		<tag k="ssr:stedsnr" v="125070" />
		<tag k="tourism" v="wilderness_hut" />
	</node>
	<node id="-435465" lat="59.8767972188" lon="6.40655834043">
		<tag k="name" v="Flota" />
		<tag k="place" v="farm" />
		<tag k="ssr:stedsnr" v="125024" />
	</node>
	<node id="-435463" lat="59.8411166682" lon="6.21940278382">
		<tag k="historic" v="shieling" />
		<tag k="name" v="Gjuvsstølen" />
		<tag k="place" v="locality" />
		<tag k="ssr:stedsnr" v="125003" />
	</node>
	<node id="-435456" lat="59.713569581" lon="6.08486352842">
		<tag k="alt_name" v="Hustuft" />
		<tag k="fixme" v="consider place=hamlet" />
		<tag k="name" v="Hustufta" />
		<tag k="place" v="farm" />
		<tag k="ssr:stedsnr" v="124648" />
	</node>
	<node id="-435450" lat="59.7283116112" lon="5.94850793285">
		<tag k="alt_name" v="Åseim" />
		<tag k="fixme" v="consider place=hamlet" />
		<tag k="name" v="Åsheim" />
		<tag k="place" v="farm" />
		<tag k="ssr:stedsnr" v="124598" />
	</node>
	<node id="-435449" lat="59.7480194411" lon="5.96214167061">
		<tag k="name" v="Eikenes" />
		<tag k="place" v="farm" />
		<tag k="ssr:stedsnr" v="124571" />
	</node>
	<node id="-435443" lat="59.6450498866" lon="5.86225698895">
		<tag k="fixme" v="consider place=hamlet" />
		<tag k="name" v="Utstono" />
		<tag k="place" v="farm" />
		<tag k="ssr:stedsnr" v="124454" />
	</node>
	<node id="-435442" lat="59.6557694407" lon="6.02393889385">
		<tag k="fixme" v="consider place=hamlet" />
		<tag k="name" v="Tessdal" />
		<tag k="place" v="farm" />
		<tag k="ssr:stedsnr" v="124444" />
	</node>
	<node id="-435441" lat="59.6645541404" lon="6.05410268985">
		<tag k="fixme" v="consider place=hamlet" />
		<tag k="name" v="Aukland" />
		<tag k="place" v="farm" />
		<tag k="ssr:stedsnr" v="124440" />
	</node>
	<node id="-435438" lat="59.8253833324" lon="6.24030832483">
		<tag k="name" v="Saghaugen" />
		<tag k="place" v="farm" />
		<tag k="ssr:stedsnr" v="124052" />
	</node>
	<node id="-435436" lat="59.7034250008" lon="5.82212777392">
		<tag k="name" v="Haugen" />
		<tag k="place" v="farm" />
		<tag k="ssr:stedsnr" v="124044" />
	</node>
	<node id="-435430" lat="59.7619379746" lon="6.12759244821">
		<tag k="fixme" v="consider place=hamlet" />
		<tag k="name" v="Blodteigen" />
		<tag k="place" v="farm" />
		<tag k="ssr:stedsnr" v="125415" />
	</node>
	<node id="-435403" lat="59.6557250028" lon="5.99883888934">
		<tag k="name" v="Rygg" />
		<tag k="place" v="farm" />
		<tag k="ssr:stedsnr" v="98676" />
	</node>
	<node id="-435368" lat="59.6925916669" lon="6.0003749988">
		<tag k="historic" v="shieling" />
		<tag k="name" v="Hovlandstøl" />
		<tag k="place" v="locality" />
		<tag k="ssr:stedsnr" v="98225" />
	</node>
	<node id="-435364" lat="59.7186611117" lon="6.08306388481">
		<tag k="historic" v="shieling" />
		<tag k="name" v="Håvastøl" />
		<tag k="place" v="locality" />
		<tag k="ssr:stedsnr" v="98321" />
	</node>
	<node id="-435360" lat="59.7142527732" lon="6.06341665923">
		<tag k="historic" v="shieling" />
		<tag k="name" v="Nernesstølen" />
		<tag k="place" v="locality" />
		<tag k="ssr:stedsnr" v="98290" />
	</node>
	<node id="-435352" lat="59.7485083347" lon="5.95409999651">
		<tag k="alt_name" v="Ness indre" />
		<tag k="name" v="Indre Ness" />
		<tag k="place" v="farm" />
		<tag k="ssr:stedsnr" v="98046" />
	</node>
	<node id="-435346" lat="59.7286749969" lon="5.91892500264">
		<tag k="name" v="Leknes" />
		<tag k="place" v="farm" />
		<tag k="ssr:stedsnr" v="81494" />
	</node>
	<node id="-435345" lat="59.6562289859" lon="5.92326715558">
		<tag k="loc_name" v="Matskår" />
		<tag k="name" v="Matskor" />
		<tag k="place" v="farm" />
		<tag k="ssr:stedsnr" v="81493" />
	</node>
	<node id="-435344" lat="59.7358361151" lon="5.90637499938">
		<tag k="name" v="Leknes" />
		<tag k="place" v="farm" />
		<tag k="ssr:stedsnr" v="81485" />
	</node>
	<node id="-435332" lat="59.6700055552" lon="5.9393833373">
		<tag k="alt_name" v="Øyno" />
		<tag k="name" v="Øyna" />
		<tag k="place" v="farm" />
		<tag k="ssr:stedsnr" v="64753" />
	</node>
	<node id="-435330" lat="59.7350528785" lon="6.12343699549">
		<tag k="fixme" v="consider place=hamlet" />
		<tag k="name" v="Tjelmeland" />
		<tag k="place" v="farm" />
		<tag k="ssr:stedsnr" v="64687" />
	</node>
	<node id="-435328" lat="59.7224543368" lon="6.12151320465">
		<tag k="fixme" v="consider place=hamlet" />
		<tag k="name" v="Lauareid" />
		<tag k="place" v="farm" />
		<tag k="ssr:stedsnr" v="64669" />
	</node>
	<node id="-435327" lat="59.591661113" lon="5.97832500037">
		<tag k="alt_name" v="Forvasstøl" />
		<tag k="historic" v="shieling" />
		<tag k="name" v="Furevasstølen" />
		<tag k="place" v="locality" />
		<tag k="ssr:stedsnr" v="64563" />
	</node>
	<node id="-435322" lat="59.6485499979" lon="5.91559999382">
		<tag k="name" v="Eiriksvik" />
		<tag k="place" v="farm" />
		<tag k="ssr:stedsnr" v="64502" />
	</node>
	<node id="-435321" lat="59.6518943879" lon="6.01287931138">
		<tag k="fixme" v="consider place=hamlet" />
		<tag k="name" v="Auastad" />
		<tag k="place" v="farm" />
		<tag k="ssr:stedsnr" v="64498" />
	</node>
	<node id="-435319" lat="59.8868722195" lon="6.48562500601">
		<tag k="alt_name" v="Skrommestølen nedre" />
		<tag k="historic" v="shieling" />
		<tag k="name" v="Skrumsstølen" />
		<tag k="place" v="locality" />
		<tag k="ssr:stedsnr" v="64489" />
	</node>
	<node id="-435312" lat="59.8067307566" lon="6.2189382082">
		<tag k="fixme" v="consider place=hamlet" />
		<tag k="name" v="Teigland" />
		<tag k="place" v="farm" />
		<tag k="ssr:stedsnr" v="64077" />
	</node>
	<node id="-435310" lat="59.7049249967" lon="5.82410278566">
		<tag k="name" v="Ørevik" />
		<tag k="place" v="farm" />
		<tag k="ssr:stedsnr" v="64069" />
	</node>
	<node id="-435306" lat="59.8230500022" lon="6.24549721876">
		<tag k="alt_name" v="Miljateigen, nedre" />
		<tag k="name" v="Nedre Miljateigen" />
		<tag k="place" v="locality" />
		<tag k="ssr:stedsnr" v="64043" />
	</node>
	<node id="-435302" lat="59.6947578277" lon="6.06814471892">
		<tag k="alt_name" v="Ekreim" />
		<tag k="fixme" v="consider place=hamlet" />
		<tag k="name" v="Ekrheim" />
		<tag k="place" v="farm" />
		<tag k="ssr:stedsnr" v="63714" />
	</node>
	<node id="-435301" lat="59.6752805566" lon="6.00986110801">
		<tag k="name" v="Vassenden" />
		<tag k="place" v="farm" />
		<tag k="ssr:stedsnr" v="63709" />
	</node>
	<node id="-435300" lat="59.7345957184" lon="5.91175690251">
		<tag k="fixme" v="consider place=hamlet" />
		<tag k="name" v="Leknes" />
		<tag k="place" v="farm" />
		<tag k="ssr:stedsnr" v="63671" />
	</node>
	<node id="-435298" lat="59.6451299943" lon="5.83233362042">
		<tag k="alt_name" v="Bjørgo" />
		<tag k="fixme" v="consider place=hamlet" />
		<tag k="name" v="Bjørgjo" />
		<tag k="place" v="farm" />
		<tag k="ssr:stedsnr" v="63492" />
	</node>
	<node id="-435297" lat="59.6928999969" lon="5.81132499183">
		<tag k="name" v="Vikane" />
		<tag k="place" v="isolated_dwelling" />
		<tag k="ssr:stedsnr" v="63069" />
	</node>
	<node id="-435290" lat="59.7349249972" lon="5.94290000867">
		<tag k="name" v="Stølen" />
		<tag k="place" v="farm" />
		<tag k="ssr:stedsnr" v="44906" />
	</node>
	<node id="-435283" lat="59.6751861078" lon="5.95260556401">
		<tag k="name" v="Silla" />
		<tag k="place" v="farm" />
		<tag k="ssr:stedsnr" v="38664" />
	</node>
	<node id="-435265" lat="59.7010500039" lon="5.8272972135">
		<tag k="name" v="Sør-Ebna" />
		<tag k="place" v="farm" />
		<tag k="ssr:stedsnr" v="37720" />
	</node>
	<node id="-435264" lat="59.7257583318" lon="5.86336111518">
		<tag k="fixme" v="consider place=hamlet" />
		<tag k="name" v="Mortveit" />
		<tag k="place" v="farm" />
		<tag k="ssr:stedsnr" v="37707" />
	</node>
	<node id="-435251" lat="59.7206388927" lon="6.20224444616">
		<tag k="name" v="Hellaug" />
		<tag k="place" v="farm" />
		<tag k="ssr:stedsnr" v="37517" />
	</node>
	<node id="-435241" lat="59.7434055527" lon="6.10584167369">
		<tag k="name" v="Kyrping" />
		<tag k="place" v="farm" />
		<tag k="ssr:stedsnr" v="37397" />
	</node>
	<node id="-435227" lat="59.7055958325" lon="5.94401873315">
		<tag k="alt_name" v="Miljaseter" />
		<tag k="historic" v="shieling" />
		<tag k="name" v="Miljasæter" />
		<tag k="place" v="locality" />
		<tag k="ssr:stedsnr" v="37277" />
	</node>
	<node id="-435215" lat="59.745369447" lon="5.95629166955">
		<tag k="name" v="Tjellflot" />
		<tag k="place" v="farm" />
		<tag k="ssr:stedsnr" v="31106" />
	</node>
	<node id="-435214" lat="59.734403742" lon="6.00015651594">
		<tag k="alt_name" v="Tungesvik" />
		<tag k="fixme" v="consider place=hamlet" />
		<tag k="name" v="Ytre Tungesvik" />
		<tag k="place" v="farm" />
		<tag k="ssr:stedsnr" v="24001" />
	</node>
	<node id="-435193" lat="59.85972462" lon="6.28005267765">
		<tag k="fixme" v="consider place=hamlet" />
		<tag k="name" v="Eikemo" />
		<tag k="place" v="farm" />
		<tag k="ssr:stedsnr" v="4014" />
	</node>
	<node id="-435188" lat="59.6652833293" lon="5.93708333095">
		<tag k="name" v="Etne" />
		<tag k="place" v="village" />
		<tag k="ssr:stedsnr" v="3732" />
	</node>
	<node id="-435187" lat="59.6906015911" lon="6.00859110023">
		<tag k="alt_name" v="Hovland indre" />
		<tag k="fixme" v="consider place=hamlet" />
		<tag k="name" v="Hovland" />
		<tag k="place" v="farm" />
		<tag k="ssr:stedsnr" v="3714" />
	</node>
	<node id="-435186" lat="59.6766111193" lon="5.95019054142">
		<tag k="fixme" v="consider place=hamlet" />
		<tag k="name" v="Silda" />
		<tag k="place" v="farm" />
		<tag k="ssr:stedsnr" v="3705" />
	</node>
	<node id="-435184" lat="59.7061087891" lon="6.07768244554">
		<tag k="alt_name" v="Neset" />
		<tag k="fixme" v="consider place=hamlet" />
		<tag k="name" v="Nernes" />
		<tag k="place" v="farm" />
		<tag k="ssr:stedsnr" v="3686" />
	</node>
	<node id="-435183" lat="59.6967266905" lon="6.09839974476">
		<tag k="fixme" v="consider place=hamlet" />
		<tag k="name" v="Flokatveit" />
		<tag k="place" v="farm" />
		<tag k="ssr:stedsnr" v="3675" />
	</node>
	<node id="-435180" lat="59.7413583373" lon="6.00543333781">
		<tag k="alt_name" v="Sjølyst" />
		<tag k="name" v="Skjela" />
		<tag k="place" v="farm" />
		<tag k="ssr:stedsnr" v="3624" />
	</node>
	<node id="-435176" lat="59.6315250027" lon="5.9834944442">
		<tag k="historic" v="shieling" />
		<tag k="name" v="Fossastølen" />
		<tag k="place" v="locality" />
		<tag k="ssr:stedsnr" v="3473" />
	</node>
	<node id="-435175" lat="59.6526416657" lon="5.98164722756">
		<tag k="fixme" v="consider place=hamlet" />
		<tag k="name" v="Sørbygda" />
		<tag k="place" v="village" />
		<tag k="ssr:stedsnr" v="3458" />
	</node>
	<node id="-435168" lat="59.8170833296" lon="6.22661667339">
		<tag k="alt_name" v="Flåtene" />
		<tag k="name" v="Floten" />
		<tag k="place" v="farm" />
		<tag k="ssr:stedsnr" v="3039" />
	</node>
	<node id="-435167" lat="59.6824576473" lon="5.80105959639">
		<tag k="alt_name" v="Sandvika, øvre;Sandvik (øvre)" />
		<tag k="fixme" v="consider place=hamlet" />
		<tag k="name" v="Øvre Sandvik" />
		<tag k="place" v="farm" />
		<tag k="ssr:stedsnr" v="3014" />
	</node>
	<node id="-435163" lat="59.71904379" lon="5.84395893904">
		<tag k="fixme" v="consider place=hamlet" />
		<tag k="name" v="Taraldsøya" />
		<tag k="place" v="farm" />
		<tag k="ssr:stedsnr" v="990204" />
	</node>
	<node id="-435162" lat="59.7408900925" lon="6.06693748017">
		<tag k="fixme" v="consider place=hamlet" />
		<tag k="name" v="Søhus" />
		<tag k="place" v="farm" />
		<tag k="ssr:stedsnr" v="990202" />
	</node>
	<node id="-435161" lat="59.8313766326" lon="6.27074170949">
		<tag k="fixme" v="consider place=hamlet" />
		<tag k="name" v="Glymje" />
		<tag k="place" v="farm" />
		<tag k="ssr:stedsnr" v="990199" />
	</node>
	<node id="-435160" lat="59.8760285696" lon="6.40090440905">
		<tag k="fixme" v="consider place=hamlet" />
		<tag k="name" v="Fjæra" />
		<tag k="place" v="farm" />
		<tag k="ssr:stedsnr" v="990198" />
	</node>
	<node id="-435159" lat="59.6912804531" lon="6.05321615898">
		<tag k="fixme" v="consider place=hamlet" />
		<tag k="name" v="Åsbø" />
		<tag k="place" v="farm" />
		<tag k="ssr:stedsnr" v="990142" />
	</node>
	<node id="-435158" lat="59.7044523254" lon="6.10429228672">
		<tag k="fixme" v="consider place=hamlet" />
		<tag k="name" v="Håheimsnes" />
		<tag k="place" v="farm" />
		<tag k="ssr:stedsnr" v="990141" />
	</node>
	<node id="-435157" lat="59.716240598" lon="6.14965095732">
		<tag k="fixme" v="consider place=hamlet" />
		<tag k="name" v="Rugtveit" />
		<tag k="place" v="farm" />
		<tag k="ssr:stedsnr" v="990140" />
	</node>
	<node id="-435156" lat="59.7297069553" lon="6.15416574541">
		<tag k="fixme" v="consider place=hamlet" />
		<tag k="name" v="Bjørk" />
		<tag k="place" v="farm" />
		<tag k="ssr:stedsnr" v="990138" />
	</node>
	<node id="-435155" lat="59.6913534246" lon="6.0161728986">
		<tag k="fixme" v="consider place=hamlet" />
		<tag k="name" v="Kallestadbakken" />
		<tag k="place" v="farm" />
		<tag k="ssr:stedsnr" v="990124" />
	</node>
	<node id="-435146" lat="59.6417749982" lon="5.92096111398">
		<tag k="fixme" v="consider place=hamlet" />
		<tag k="name" v="Ingelsgjerd" />
		<tag k="place" v="farm" />
		<tag k="ssr:stedsnr" v="590000" />
	</node>
	<node id="-435138" lat="59.7368499987" lon="6.01442222998">
		<tag k="name" v="Fredheim" />
		<tag k="place" v="farm" />
		<tag k="ssr:stedsnr" v="893928" />
	</node>
	<node id="-435136" lat="59.7495944454" lon="6.12155832531">
		<tag k="historic" v="shieling" />
		<tag k="name" v="Mikkjelstræet" />
		<tag k="place" v="locality" />
		<tag k="ssr:stedsnr" v="893887" />
	</node>
	<node id="-435135" lat="59.713427774" lon="5.86580000918">
		<tag k="name" v="Gjelmarvik" />
		<tag k="place" v="farm" />
		<tag k="ssr:stedsnr" v="887824" />
	</node>
	<node id="-435130" lat="59.6579833348" lon="5.94986110748">
		<tag k="alt_name" v="Enerhaug" />
		<tag k="name" v="Einerhaug" />
		<tag k="place" v="farm" />
		<tag k="ssr:stedsnr" v="887706" />
	</node>
	<node id="-435129" lat="59.6598777762" lon="5.94098610883">
		<tag k="name" v="Flåto" />
		<tag k="place" v="farm" />
		<tag k="ssr:stedsnr" v="887698" />
	</node>
	<node id="-435124" lat="59.6265694426" lon="5.88939166163">
		<tag k="name" v="Fikse" />
		<tag k="place" v="farm" />
		<tag k="ssr:stedsnr" v="887624" />
	</node>
	<node id="-435122" lat="59.6762916691" lon="5.90568055944">
		<tag k="name" v="Haugapadl" />
		<tag k="place" v="farm" />
		<tag k="ssr:stedsnr" v="887616" />
	</node>
	<node id="-435121" lat="59.7455361075" lon="6.15172222104">
		<tag k="historic" v="shieling" />
		<tag k="name" v="Tjelmelandstølen" />
		<tag k="place" v="locality" />
		<tag k="ssr:stedsnr" v="887499" />
	</node>
	<node id="-435111" lat="59.6836500033" lon="6.13095555621">
		<tag k="historic" v="shieling" />
		<tag k="name" v="Sønnereistølen" />
		<tag k="place" v="locality" />
		<tag k="ssr:stedsnr" v="887378" />
	</node>
	<node id="-435095" lat="59.7499555534" lon="6.18385833137">
		<tag k="historic" v="shieling" />
		<tag k="name" v="Sommarflot" />
		<tag k="place" v="locality" />
		<tag k="ssr:stedsnr" v="887021" />
	</node>
	<node id="-435094" lat="59.6525472202" lon="6.10369444607">
		<tag k="historic" v="shieling" />
		<tag k="name" v="Skarstøl" />
		<tag k="place" v="locality" />
		<tag k="ssr:stedsnr" v="887011" />
	</node>
	<node id="-435091" lat="59.7266555513" lon="6.27914722951">
		<tag k="name" v="Espeland" />
		<tag k="place" v="farm" />
		<tag k="ssr:stedsnr" v="887592" />
	</node>
	<node id="-435077" lat="59.6558083331" lon="5.94672222129">
		<tag k="name" v="Gjerde" />
		<tag k="place" v="farm" />
		<tag k="ssr:stedsnr" v="402732" />
	</node>
	<node id="-435075" lat="59.6528638876" lon="6.02589166781">
		<tag k="name" v="Tesdal" />
		<tag k="place" v="farm" />
		<tag k="ssr:stedsnr" v="402708" />
	</node>
	<node id="-435074" lat="59.6552583289" lon="6.03014999447">
		<tag k="name" v="Myro" />
		<tag k="place" v="farm" />
		<tag k="ssr:stedsnr" v="402707" />
	</node>
	<node id="-435057" lat="59.7360888881" lon="5.91307777019">
		<tag k="historic" v="shieling" />
		<tag k="name" v="Havnastøl" />
		<tag k="place" v="locality" />
		<tag k="ssr:stedsnr" v="401735" />
	</node>
	<node id="-435056" lat="59.7316944446" lon="5.93584722161">
		<tag k="name" v="Berge" />
		<tag k="place" v="farm" />
		<tag k="ssr:stedsnr" v="401733" />
	</node>
	<node id="-435053" lat="59.6713777791" lon="5.89303055976">
		<tag k="name" v="Brøllom" />
		<tag k="place" v="farm" />
		<tag k="ssr:stedsnr" v="401601" />
	</node>
	<node id="-435041" lat="59.6987025865" lon="6.11174676364">
		<tag k="alt_name" v="Håeim" />
		<tag k="fixme" v="consider place=hamlet" />
		<tag k="name" v="Håheim" />
		<tag k="place" v="farm" />
		<tag k="ssr:stedsnr" v="401439" />
	</node>
	<node id="-435038" lat="59.7438611089" lon="6.11559443848">
		<tag k="name" v="Varden" />
		<tag k="place" v="farm" />
		<tag k="ssr:stedsnr" v="401396" />
	</node>
	<node id="-435017" lat="59.7377083376" lon="6.11959445259">
		<tag k="name" v="Tjelmeland" />
		<tag k="place" v="farm" />
		<tag k="ssr:stedsnr" v="395141" />
	</node>
	<node id="-435016" lat="59.6390500012" lon="5.91358055453">
		<tag k="name" v="Osvåg" />
		<tag k="place" v="farm" />
		<tag k="ssr:stedsnr" v="388706" />
	</node>
	<node id="-435015" lat="59.7359805553" lon="5.91000554816">
		<tag k="name" v="Leknes" />
		<tag k="place" v="farm" />
		<tag k="ssr:stedsnr" v="384466" />
	</node>
	<node id="-435007" lat="59.8284166706" lon="6.18940277301">
		<tag k="alt_name" v="Bjellandstølen" />
		<tag k="historic" v="shieling" />
		<tag k="name" v="Bjellandsstøl" />
		<tag k="place" v="locality" />
		<tag k="ssr:stedsnr" v="368226" />
	</node>
	<node id="-435000" lat="59.8584805513" lon="6.47089167422">
		<tag k="alt_name" v="Bordalen" />
		<tag k="historic" v="shieling" />
		<tag k="name" v="Borddalen" />
		<tag k="place" v="locality" />
		<tag k="ssr:stedsnr" v="368008" />
	</node>
	<node id="-434999" lat="59.8433812054" lon="6.26771898587">
		<tag k="fixme" v="consider place=hamlet" />
		<tag k="name" v="Bakka" />
		<tag k="place" v="farm" />
		<tag k="ssr:stedsnr" v="368004" />
	</node>
	<node id="-434995" lat="59.6670437497" lon="6.0661755757">
		<tag k="fixme" v="consider place=hamlet" />
		<tag k="name" v="Gunnegjerd" />
		<tag k="place" v="farm" />
		<tag k="ssr:stedsnr" v="367722" />
	</node>
	<node id="-434994" lat="59.6693503269" lon="6.07107633523">
		<tag k="alt_name" v="Onstein" />
		<tag k="fixme" v="consider place=hamlet" />
		<tag k="name" v="Undstein" />
		<tag k="place" v="farm" />
		<tag k="ssr:stedsnr" v="367720" />
	</node>
	<node id="-434989" lat="59.6973007595" lon="6.03780814185">
		<tag k="alt_name" v="Noreim" />
		<tag k="fixme" v="consider place=hamlet" />
		<tag k="name" v="Norheim" />
		<tag k="place" v="farm" />
		<tag k="ssr:stedsnr" v="367688" />
	</node>
	<node id="-434986" lat="59.7203249955" lon="6.20349999315">
		<tag k="historic" v="shieling" />
		<tag k="name" v="Hellaug" />
		<tag k="place" v="locality" />
		<tag k="ssr:stedsnr" v="367669" />
	</node>
	<node id="-434985" lat="59.7132349244" lon="6.14314340524">
		<tag k="fixme" v="consider place=hamlet" />
		<tag k="name" v="Flote" />
		<tag k="place" v="farm" />
		<tag k="ssr:stedsnr" v="367667" />
	</node>
	<node id="-434981" lat="59.73408889" lon="5.99280833094">
		<tag k="alt_name" v="Ytra Tungesvik" />
		<tag k="name" v="Tungesvikstranda" />
		<tag k="place" v="farm" />
		<tag k="ssr:stedsnr" v="367653" />
	</node>
	<node id="-434974" lat="59.6609000017" lon="6.01277777051">
		<tag k="name" v="Nedraberge" />
		<tag k="place" v="farm" />
		<tag k="ssr:stedsnr" v="367433" />
	</node>
	<node id="-434970" lat="59.8195083377" lon="6.2835055607">
		<tag k="historic" v="shieling" />
		<tag k="name" v="Skålnesstølen" />
		<tag k="place" v="locality" />
		<tag k="ssr:stedsnr" v="367076" />
	</node>
	<node id="-434968" lat="59.8053833326" lon="6.25096943735">
		<tag k="historic" v="shieling" />
		<tag k="name" v="Markhusstølen" />
		<tag k="place" v="locality" />
		<tag k="ssr:stedsnr" v="367070" />
	</node>
	<node id="-434956" lat="59.8392999958" lon="6.20932499489">
		<tag k="alt_name" v="Intveitstølen" />
		<tag k="historic" v="shieling" />
		<tag k="name" v="Eintveitstølen" />
		<tag k="place" v="locality" />
		<tag k="ssr:stedsnr" v="429191" />
	</node>
	<node id="-434952" lat="59.7876666664" lon="6.17801111012">
		<tag k="name" v="Nygard" />
		<tag k="place" v="isolated_dwelling" />
		<tag k="ssr:stedsnr" v="347029" />
	</node>
	<node id="-434951" lat="59.8248055535" lon="6.23740556058">
		<tag k="name" v="Haugane" />
		<tag k="place" v="isolated_dwelling" />
		<tag k="ssr:stedsnr" v="347026" />
	</node>
	<node id="-434950" lat="59.8384166641" lon="6.23141111389">
		<tag k="name" v="Eikehaug" />
		<tag k="place" v="locality" />
		<tag k="ssr:stedsnr" v="347025" />
	</node>
	<node id="-434946" lat="59.6484416628" lon="6.00935000313">
		<tag k="fixme" v="consider place=hamlet" />
		<tag k="name" v="Høyland" />
		<tag k="place" v="farm" />
		<tag k="ssr:stedsnr" v="341739" />
	</node>
	<node id="-434938" lat="59.6662638922" lon="6.07896389653">
		<tag k="name" v="Viveli" />
		<tag k="place" v="farm" />
		<tag k="ssr:stedsnr" v="341406" />
	</node>
	<node id="-434923" lat="59.8496888867" lon="6.23394721765">
		<tag k="historic" v="shieling" />
		<tag k="name" v="Selborga" />
		<tag k="place" v="locality" />
		<tag k="ssr:stedsnr" v="341117" />
	</node>
	<node id="-434919" lat="59.7479361121" lon="6.13771111925">
		<tag k="historic" v="shieling" />
		<tag k="name" v="Sævareidstølen" />
		<tag k="place" v="locality" />
		<tag k="ssr:stedsnr" v="341030" />
	</node>
	<node id="-434896" lat="59.7345000005" lon="5.90815834204">
		<tag k="name" v="Leknes" />
		<tag k="place" v="farm" />
		<tag k="ssr:stedsnr" v="324478" />
	</node>
	<node id="-434894" lat="59.8726944417" lon="6.26167222524">
		<tag k="historic" v="shieling" />
		<tag k="name" v="Vetrhus" />
		<tag k="place" v="locality" />
		<tag k="ssr:stedsnr" v="307512" />
	</node>
	<node id="-434892" lat="59.6540231974" lon="5.79706029152">
		<tag k="alt_name" v="Bjørkjenes" />
		<tag k="fixme" v="consider place=hamlet" />
		<tag k="name" v="Børkjenes" />
		<tag k="place" v="farm" />
		<tag k="ssr:stedsnr" v="307496" />
	</node>
	<node id="-434891" lat="59.6524166624" lon="5.80495832831">
		<tag k="name" v="Vaulen" />
		<tag k="place" v="farm" />
		<tag k="ssr:stedsnr" v="307495" />
	</node>
	<node id="-434886" lat="59.7598805524" lon="5.94686943675">
		<tag k="name" v="Indravannes" />
		<tag k="place" v="farm" />
		<tag k="ssr:stedsnr" v="307389" />
	</node>
	<node id="-434883" lat="59.8386750032" lon="6.15044444714">
		<tag k="historic" v="shieling" />
		<tag k="name" v="Kvanndalsstølen" />
		<tag k="place" v="locality" />
		<tag k="ssr:stedsnr" v="307238" />
	</node>
	<node id="-434880" lat="59.8083972206" lon="6.27272778493">
		<tag k="historic" v="shieling" />
		<tag k="name" v="Møssegro" />
		<tag k="place" v="locality" />
		<tag k="ssr:stedsnr" v="307085" />
	</node>
	<node id="-434877" lat="59.8446386061" lon="6.26975971306">
		<tag k="alt_name" v="Tøsse" />
		<tag k="fixme" v="consider place=hamlet" />
		<tag k="name" v="Tysse" />
		<tag k="place" v="farm" />
		<tag k="ssr:stedsnr" v="307061" />
	</node>
	<node id="-434876" lat="59.8377583338" lon="6.34828055496">
		<tag k="historic" v="shieling" />
		<tag k="name" v="Langfosstølen" />
		<tag k="place" v="locality" />
		<tag k="ssr:stedsnr" v="307057" />
	</node>
	<node id="-434875" lat="59.8309169421" lon="6.25418474103">
		<tag k="fixme" v="consider place=hamlet" />
		<tag k="name" v="Skålnes" />
		<tag k="place" v="farm" />
		<tag k="ssr:stedsnr" v="307054" />
	</node>
	<node id="-434874" lat="59.8366310102" lon="6.24267656598">
		<tag k="alt_name" v="Tysseteigen" />
		<tag k="fixme" v="consider place=hamlet" />
		<tag k="name" v="Teigen" />
		<tag k="place" v="farm" />
		<tag k="ssr:stedsnr" v="307052" />
	</node>
	<node id="-434873" lat="59.8197988832" lon="6.23967056142">
		<tag k="fixme" v="consider place=hamlet" />
		<tag k="name" v="Markhus" />
		<tag k="place" v="farm" />
		<tag k="ssr:stedsnr" v="307042" />
	</node>
	<node id="-434868" lat="59.7851277751" lon="6.19197778159">
		<tag k="alt_name" v="Rafdalsstøl, nedre" />
		<tag k="historic" v="shieling" />
		<tag k="name" v="Nedre Rafdalsstøl" />
		<tag k="place" v="locality" />
		<tag k="ssr:stedsnr" v="307348" />
	</node>
	<node id="-434867" lat="59.659322135" lon="5.92982065532">
		<tag k="fixme" v="consider place=hamlet" />
		<tag k="name" v="Gjerde" />
		<tag k="place" v="farm" />
		<tag k="ssr:stedsnr" v="306716" />
	</node>
	<node id="-434865" lat="59.6724611118" lon="5.97669999672">
		<tag k="name" v="Hetlebrekk" />
		<tag k="place" v="farm" />
		<tag k="ssr:stedsnr" v="306701" />
	</node>
	<node id="-434860" lat="59.6962999983" lon="6.16646944528">
		<tag k="historic" v="shieling" />
		<tag k="name" v="Flotestølen" />
		<tag k="place" v="locality" />
		<tag k="ssr:stedsnr" v="306682" />
	</node>
	<node id="-434859" lat="59.7311888886" lon="6.05953610292">
		<tag k="name" v="Miljateigen" />
		<tag k="place" v="farm" />
		<tag k="ssr:stedsnr" v="306653" />
	</node>
	<node id="-434855" lat="59.7453611138" lon="6.17737500628">
		<tag k="historic" v="shieling" />
		<tag k="name" v="Tveitastølen" />
		<tag k="place" v="locality" />
		<tag k="ssr:stedsnr" v="306622" />
	</node>
	<node id="-434854" lat="59.7420991181" lon="6.19451132035">
		<tag k="fixme" v="consider place=hamlet" />
		<tag k="name" v="Skjold" />
		<tag k="place" v="farm" />
		<tag k="ssr:stedsnr" v="306621" />
	</node>
	<node id="-434853" lat="59.7428096922" lon="6.11501848288">
		<tag k="name" v="Sævareid" />
		<tag k="place" v="hamlet" />
		<tag k="ssr:stedsnr" v="306614" />
	</node>
	<node id="-434851" lat="59.6091000032" lon="6.01260833541">
		<tag k="historic" v="shieling" />
		<tag k="name" v="Kattastølen" />
		<tag k="place" v="locality" />
		<tag k="ssr:stedsnr" v="306522" />
	</node>
	<node id="-434836" lat="59.7377638902" lon="6.11442500351">
		<tag k="name" v="Grøtle" />
		<tag k="place" v="farm" />
		<tag k="ssr:stedsnr" v="287901" />
	</node>
	<node id="-434835" lat="59.7340660238" lon="6.04443201064">
		<tag k="fixme" v="consider place=hamlet" />
		<tag k="name" v="Vatnedalstveito" />
		<tag k="place" v="farm" />
		<tag k="ssr:stedsnr" v="287881" />
	</node>
	<node id="-434831" lat="59.7469222237" lon="6.19601667342">
		<tag k="name" v="Halleland" />
		<tag k="place" v="farm" />
		<tag k="ssr:stedsnr" v="281004" />
	</node>
	<node id="-434828" lat="59.8763611134" lon="6.39837499938">
		<tag k="name" v="Fossheim" />
		<tag k="place" v="farm" />
		<tag k="ssr:stedsnr" v="280787" />
	</node>
	<node id="-434776" lat="59.770980555" lon="6.17737221811">
		<tag k="historic" v="shieling" />
		<tag k="name" v="Øyskarstølen" />
		<tag k="place" v="locality" />
		<tag k="ssr:stedsnr" v="280111" />
	</node>
	<node id="-436757" lat="59.644396374" lon="5.88020629486">
		<tag k="name" v="Havnen" />
		<tag k="place" v="farm" />
		<tag k="ssr:stedsnr" v="974347" />
	</node>
	<node id="-436756" lat="59.7292831309" lon="5.87905089571">
		<tag k="name" v="Skoglund" />
		<tag k="place" v="farm" />
		<tag k="ssr:stedsnr" v="974120" />
	</node>
	<node id="-436752" lat="59.9604638874" lon="6.4332527703">
		<tag k="fixme" v="consider tourism=alpine_hut or tourism=chalet" />
		<tag k="name" v="Sauabrehytta" />
		<tag k="ssr:stedsnr" v="962848" />
		<tag k="tourism" v="wilderness_hut" />
	</node>
	<node id="-436748" lat="59.727696082" lon="5.88926393226">
		<tag k="fixme" v="consider place=hamlet" />
		<tag k="name" v="Tenndalen" />
		<tag k="place" v="farm" />
		<tag k="ssr:stedsnr" v="954921" />
	</node>
	<node id="-436737" lat="59.6253194446" lon="5.99553054935">
		<tag k="historic" v="shieling" />
		<tag k="name" v="Rus-stølen" />
		<tag k="place" v="locality" />
		<tag k="ssr:stedsnr" v="948797" />
	</node>
	<node id="-436736" lat="59.657252775" lon="5.99044444162">
		<tag k="fixme" v="consider place=hamlet" />
		<tag k="name" v="Rygg" />
		<tag k="place" v="farm" />
		<tag k="ssr:stedsnr" v="948763" />
	</node>
	<node id="-436726" lat="59.6606444433" lon="5.94245000553">
		<tag k="fixme" v="consider place=hamlet" />
		<tag k="name" v="Dyngjebakken" />
		<tag k="place" v="farm" />
		<tag k="ssr:stedsnr" v="948710" />
	</node>
	<node id="-436717" lat="59.708824999" lon="6.18138333334">
		<tag k="historic" v="shieling" />
		<tag k="name" v="Frettestølen" />
		<tag k="place" v="locality" />
		<tag k="ssr:stedsnr" v="948565" />
	</node>
	<node id="-436710" lat="59.7305361072" lon="6.1465416702">
		<tag k="name" v="Lunda" />
		<tag k="place" v="farm" />
		<tag k="ssr:stedsnr" v="948447" />
	</node>
	<node id="-436706" lat="59.7023472206" lon="6.04098056387">
		<tag k="name" v="Norheimsstranda" />
		<tag k="place" v="farm" />
		<tag k="ssr:stedsnr" v="948315" />
	</node>
	<node id="-436700" lat="59.6865333352" lon="6.00543055292">
		<tag k="fixme" v="consider place=hamlet" />
		<tag k="name" v="Grønstad" />
		<tag k="place" v="farm" />
		<tag k="ssr:stedsnr" v="948272" />
	</node>
	<node id="-436691" lat="59.8524777768" lon="6.2695805529">
		<tag k="name" v="Fitjaneset" />
		<tag k="place" v="farm" />
		<tag k="ssr:stedsnr" v="948145" />
	</node>
	<node id="-436680" lat="59.7604833356" lon="5.94703610467">
		<tag k="name" v="Vannes aust" />
		<tag k="place" v="farm" />
		<tag k="ssr:stedsnr" v="947060" />
	</node>
	<node id="-436679" lat="59.7499833332" lon="5.95644444964">
		<tag k="alt_name" v="Ness indre" />
		<tag k="fixme" v="consider place=hamlet" />
		<tag k="name" v="Indre Ness" />
		<tag k="place" v="farm" />
		<tag k="ssr:stedsnr" v="947052" />
	</node>
	<node id="-436676" lat="59.8741722191" lon="6.38196111742">
		<tag k="alt_name" v="Åkrabotn" />
		<tag k="fixme" v="consider place=hamlet" />
		<tag k="name" v="Fjæra" />
		<tag k="place" v="village" />
		<tag k="ssr:stedsnr" v="914515" />
	</node>
	<node id="-436667" lat="59.7538194488" lon="6.18775555762">
		<tag k="alt_name" v="Hallelandstølen" />
		<tag k="historic" v="shieling" />
		<tag k="name" v="Hallalandsstølen" />
		<tag k="place" v="locality" />
		<tag k="ssr:stedsnr" v="914406" />
	</node>
	<node id="-436658" lat="59.8079166696" lon="6.14952500652">
		<tag k="alt_name" v="Kalvikstøl" />
		<tag k="historic" v="shieling" />
		<tag k="name" v="Kallviksstøl" />
		<tag k="place" v="locality" />
		<tag k="ssr:stedsnr" v="914221" />
	</node>
	<node id="-436657" lat="59.8095964716" lon="6.16580250889">
		<tag k="alt_name" v="Kaldvik;Kalvik" />
		<tag k="fixme" v="consider place=hamlet" />
		<tag k="name" v="Kallvika" />
		<tag k="place" v="farm" />
		<tag k="ssr:stedsnr" v="914218" />
	</node>
	<node id="-436653" lat="59.7096111149" lon="5.84032500785">
		<tag k="alt_name" v="Lauvvika" />
		<tag k="name" v="Lauvvik" />
		<tag k="place" v="farm" />
		<tag k="ssr:stedsnr" v="914099" />
	</node>
	<node id="-436649" lat="59.8463388887" lon="6.37121944812">
		<tag k="historic" v="shieling" />
		<tag k="name" v="Fitastølen" />
		<tag k="place" v="locality" />
		<tag k="ssr:stedsnr" v="914063" />
	</node>
	<node id="-436645" lat="59.873472221" lon="6.39252221609">
		<tag k="name" v="Fossheim" />
		<tag k="place" v="farm" />
		<tag k="ssr:stedsnr" v="914024" />
	</node>
	<node id="-436642" lat="59.8592772128" lon="6.35571164624">
		<tag k="alt_name" v="Eljarvik" />
		<tag k="fixme" v="consider place=hamlet" />
		<tag k="name" v="Eljarvika" />
		<tag k="place" v="farm" />
		<tag k="ssr:stedsnr" v="914002" />
	</node>
	<node id="-436641" lat="59.6620820498" lon="5.85498570514">
		<tag k="fixme" v="consider place=hamlet" />
		<tag k="name" v="Aksdal" />
		<tag k="place" v="farm" />
		<tag k="ssr:stedsnr" v="913720" />
	</node>
	<node id="-436640" lat="59.6600925289" lon="5.94091586775">
		<tag k="alt_name" v="Flota;Floti" />
		<tag k="fixme" v="consider place=hamlet" />
		<tag k="name" v="Flåto" />
		<tag k="place" v="farm" />
		<tag k="ssr:stedsnr" v="913716" />
	</node>
	<node id="-436638" lat="59.7091242759" lon="5.8584649846">
		<tag k="fixme" v="consider place=hamlet" />
		<tag k="name" v="Aksland" />
		<tag k="place" v="farm" />
		<tag k="ssr:stedsnr" v="913670" />
	</node>
	<node id="-436632" lat="59.724936112" lon="5.86416944827">
		<tag k="fixme" v="consider place=hamlet" />
		<tag k="name" v="Mortveit" />
		<tag k="place" v="village" />
		<tag k="ssr:stedsnr" v="913628" />
	</node>
	<node id="-436631" lat="59.7457841171" lon="5.95306087689">
		<tag k="fixme" v="consider place=hamlet" />
		<tag k="name" v="Tjellflot" />
		<tag k="place" v="farm" />
		<tag k="ssr:stedsnr" v="913610" />
	</node>
	<node id="-436628" lat="59.637127778" lon="6.11940000304">
		<tag k="alt_name" v="Grindeimsstølen" />
		<tag k="historic" v="shieling" />
		<tag k="name" v="Grindheimsstølen" />
		<tag k="place" v="locality" />
		<tag k="ssr:stedsnr" v="913496" />
	</node>
	<node id="-436627" lat="59.6265828898" lon="5.90047319532">
		<tag k="fixme" v="consider place=hamlet" />
		<tag k="name" v="Kvammen" />
		<tag k="place" v="farm" />
		<tag k="ssr:stedsnr" v="913493" />
	</node>
	<node id="-436624" lat="59.6586602799" lon="5.96626769497">
		<tag k="fixme" v="consider place=hamlet" />
		<tag k="name" v="Mo" />
		<tag k="place" v="farm" />
		<tag k="ssr:stedsnr" v="913473" />
	</node>
	<node id="-436623" lat="59.6638745102" lon="6.06743932909">
		<tag k="fixme" v="consider place=hamlet" />
		<tag k="name" v="Litledalen" />
		<tag k="place" v="farm" />
		<tag k="ssr:stedsnr" v="913470" />
	</node>
	<node id="-436621" lat="59.6992138877" lon="5.82441111591">
		<tag k="name" v="Gardvik" />
		<tag k="place" v="farm" />
		<tag k="ssr:stedsnr" v="913040" />
	</node>
	<node id="-436619" lat="59.7426236062" lon="6.11858171154">
		<tag k="alt_name" v="Sævareid øvre" />
		<tag k="fixme" v="consider place=hamlet" />
		<tag k="name" v="Øvre Sævareid" />
		<tag k="place" v="farm" />
		<tag k="ssr:stedsnr" v="910593" />
	</node>
	<node id="-436614" lat="59.8968666667" lon="6.47743054849">
		<tag k="name" v="Langebu" />
		<tag k="place" v="farm" />
		<tag k="ssr:stedsnr" v="854471" />
	</node>
	<node id="-436612" lat="59.9074111079" lon="6.34326111162">
		<tag k="historic" v="shieling" />
		<tag k="name" v="Blomstølen" />
		<tag k="place" v="locality" />
		<tag k="ssr:stedsnr" v="854450" />
	</node>
	<node id="-436606" lat="59.815225" lon="6.19251111837">
		<tag k="alt_name" v="Strand" />
		<tag k="name" v="Strond" />
		<tag k="place" v="farm" />
		<tag k="ssr:stedsnr" v="854185" />
	</node>
	<node id="-436604" lat="59.8452305526" lon="6.38276944184">
		<tag k="historic" v="shieling" />
		<tag k="name" v="Saltedalen" />
		<tag k="place" v="locality" />
		<tag k="ssr:stedsnr" v="854040" />
	</node>
	<node id="-436601" lat="59.8620527879" lon="6.31176115738">
		<tag k="fixme" v="consider place=hamlet" />
		<tag k="name" v="Glåmo" />
		<tag k="place" v="farm" />
		<tag k="ssr:stedsnr" v="854013" />
	</node>
	<node id="-436594" lat="59.6878568967" lon="6.02368885033">
		<tag k="fixme" v="consider place=hamlet" />
		<tag k="name" v="Rame" />
		<tag k="place" v="farm" />
		<tag k="ssr:stedsnr" v="853723" />
	</node>
	<node id="-436592" lat="59.6756280079" lon="5.90328839825">
		<tag k="fixme" v="consider place=hamlet" />
		<tag k="name" v="Øvstebø" />
		<tag k="place" v="farm" />
		<tag k="ssr:stedsnr" v="853710" />
	</node>
	<node id="-436591" lat="59.6978262385" lon="6.10143818881">
		<tag k="alt_name" v="Kvamen" />
		<tag k="fixme" v="consider place=hamlet" />
		<tag k="name" v="Kvammen" />
		<tag k="place" v="farm" />
		<tag k="ssr:stedsnr" v="853698" />
	</node>
	<node id="-436590" lat="59.713587241" lon="6.10968871097">
		<tag k="alt_name" v="Øvrenes" />
		<tag k="fixme" v="consider place=hamlet" />
		<tag k="name" v="Øvernes" />
		<tag k="place" v="farm" />
		<tag k="ssr:stedsnr" v="853670" />
	</node>
	<node id="-436588" lat="59.716274998" lon="5.8665250071">
		<tag k="fixme" v="consider place=hamlet" />
		<tag k="name" v="Gjelmarvika" />
		<tag k="place" v="farm" />
		<tag k="ssr:stedsnr" v="853664" />
	</node>
	<node id="-436587" lat="59.7295833318" lon="6.15092778304">
		<tag k="fixme" v="consider place=hamlet" />
		<tag k="name" v="Lunda" />
		<tag k="place" v="farm" />
		<tag k="ssr:stedsnr" v="853656" />
	</node>
	<node id="-436583" lat="59.6583996794" lon="5.98084087834">
		<tag k="fixme" v="consider place=hamlet" />
		<tag k="name" v="Steine" />
		<tag k="place" v="farm" />
		<tag k="ssr:stedsnr" v="853486" />
	</node>
	<node id="-436570" lat="59.7346930318" lon="5.92372681837">
		<tag k="fixme" v="consider place=hamlet" />
		<tag k="name" v="Skålnes" />
		<tag k="place" v="farm" />
		<tag k="ssr:stedsnr" v="852649" />
	</node>
	<node id="-436569" lat="59.7488888916" lon="5.95622499213">
		<tag k="name" v="Breidvik" />
		<tag k="place" v="farm" />
		<tag k="ssr:stedsnr" v="852624" />
	</node>
	<node id="-436567" lat="59.6590756879" lon="5.92229044465">
		<tag k="fixme" v="consider place=hamlet" />
		<tag k="name" v="Matskår" />
		<tag k="place" v="farm" />
		<tag k="ssr:stedsnr" v="849281" />
	</node>
	<node id="-436563" lat="59.7481194449" lon="5.9496194417">
		<tag k="name" v="Breidvik" />
		<tag k="place" v="farm" />
		<tag k="ssr:stedsnr" v="833944" />
	</node>
	<node id="-436562" lat="59.7322916635" lon="5.94248333247">
		<tag k="name" v="Stykket" />
		<tag k="place" v="farm" />
		<tag k="ssr:stedsnr" v="833945" />
	</node>
	<node id="-436560" lat="59.7399305544" lon="6.11687222816">
		<tag k="name" v="Nylende" />
		<tag k="place" v="farm" />
		<tag k="ssr:stedsnr" v="833902" />
	</node>
	<node id="-436548" lat="59.6604222265" lon="6.01416110478">
		<tag k="name" v="Berge" />
		<tag k="place" v="farm" />
		<tag k="ssr:stedsnr" v="827730" />
	</node>
	<node id="-436531" lat="59.8373166705" lon="6.30153333604">
		<tag k="name" v="Rotalsviknes" />
		<tag k="place" v="farm" />
		<tag k="ssr:stedsnr" v="827228" />
	</node>
	<node id="-436527" lat="59.8369166685" lon="6.22911110228">
		<tag k="name" v="Djuve" />
		<tag k="place" v="farm" />
		<tag k="ssr:stedsnr" v="827121" />
	</node>
	<node id="-436526" lat="59.8363759432" lon="6.23374300427">
		<tag k="name" v="Djuveland" />
		<tag k="place" v="farm" />
		<tag k="ssr:stedsnr" v="827120" />
	</node>
	<node id="-436508" lat="59.6745194475" lon="5.90628055921">
		<tag k="name" v="Fjøsna (yttre)" />
		<tag k="place" v="farm" />
		<tag k="ssr:stedsnr" v="826523" />
	</node>
	<node id="-436507" lat="59.6387999971" lon="5.89026110795">
		<tag k="name" v="Åsen" />
		<tag k="place" v="farm" />
		<tag k="ssr:stedsnr" v="826519" />
	</node>
	<node id="-436489" lat="59.8241086187" lon="6.20774456037">
		<tag k="fixme" v="consider place=hamlet" />
		<tag k="name" v="Bjelland" />
		<tag k="place" v="farm" />
		<tag k="ssr:stedsnr" v="793207" />
	</node>
	<node id="-436487" lat="59.8346560969" lon="6.28851519002">
		<tag k="alt_name" v="Visskjær" />
		<tag k="fixme" v="consider place=hamlet" />
		<tag k="name" v="Viskjer" />
		<tag k="place" v="farm" />
		<tag k="ssr:stedsnr" v="793046" />
	</node>
	<node id="-436486" lat="59.8366571806" lon="6.23103733556">
		<tag k="alt_name" v="Djuve" />
		<tag k="fixme" v="consider place=hamlet" />
		<tag k="name" v="Gjuve" />
		<tag k="place" v="farm" />
		<tag k="ssr:stedsnr" v="793041" />
	</node>
	<node id="-436485" lat="59.8210194445" lon="6.23870555783">
		<tag k="alt_name" v="Bråte" />
		<tag k="name" v="Brotet" />
		<tag k="place" v="farm" />
		<tag k="ssr:stedsnr" v="793036" />
	</node>
	<node id="-436479" lat="59.867955557" lon="6.46091667223">
		<tag k="historic" v="shieling" />
		<tag k="name" v="Bjørnastølen" />
		<tag k="place" v="locality" />
		<tag k="ssr:stedsnr" v="793009" />
	</node>
	<node id="-436477" lat="59.6654450251" lon="5.96624193651">
		<tag k="alt_name" v="Søreim" />
		<tag k="fixme" v="consider place=hamlet" />
		<tag k="name" v="Sørheim" />
		<tag k="place" v="farm" />
		<tag k="ssr:stedsnr" v="792739" />
	</node>
	<node id="-436476" lat="59.6694302613" lon="5.98448055158">
		<tag k="alt_name" v="Austreim" />
		<tag k="fixme" v="consider place=hamlet" />
		<tag k="name" v="Austrheim" />
		<tag k="place" v="farm" />
		<tag k="ssr:stedsnr" v="792737" />
	</node>
	<node id="-436470" lat="59.7291428255" lon="6.06219097511">
		<tag k="alt_name" v="Vatndal" />
		<tag k="fixme" v="consider place=hamlet" />
		<tag k="name" v="Vatnedalen" />
		<tag k="place" v="farm" />
		<tag k="ssr:stedsnr" v="792664" />
	</node>
	<node id="-436468" lat="59.7221739016" lon="5.86351384696">
		<tag k="fixme" v="consider place=hamlet" />
		<tag k="name" v="Molnes" />
		<tag k="place" v="farm" />
		<tag k="ssr:stedsnr" v="792654" />
	</node>
	<node id="-436464" lat="59.6539225819" lon="5.96889014353">
		<tag k="alt_name" v="Fossa ytre" />
		<tag k="name" v="Fossa" />
		<tag k="place" v="hamlet" />
		<tag k="ssr:stedsnr" v="792498" />
	</node>
	<node id="-436461" lat="59.6589888879" lon="5.79511389547">
		<tag k="alt_name" v="Skjervik" />
		<tag k="name" v="Skjersvika" />
		<tag k="place" v="farm" />
		<tag k="ssr:stedsnr" v="792460" />
	</node>
	<node id="-436455" lat="59.7863792745" lon="6.1761335975">
		<tag k="alt_name" v="Rafdal, nedre;Rafdal;Rafdal nedre" />
		<tag k="fixme" v="consider place=hamlet" />
		<tag k="name" v="Nedre Rafdal" />
		<tag k="place" v="farm" />
		<tag k="ssr:stedsnr" v="792334" />
	</node>
	<node id="-436454" lat="59.7844924954" lon="6.17312978316">
		<tag k="alt_name" v="Rafdal, øvre;Rafdal;Rafdal øvre" />
		<tag k="fixme" v="consider place=hamlet" />
		<tag k="name" v="Øvre Rafdal" />
		<tag k="place" v="farm" />
		<tag k="ssr:stedsnr" v="792326" />
	</node>
	<node id="-436451" lat="59.8236166677" lon="6.30010556169">
		<tag k="historic" v="shieling" />
		<tag k="name" v="Viskjerstølen" />
		<tag k="place" v="locality" />
		<tag k="ssr:stedsnr" v="792058" />
	</node>
	<node id="-436447" lat="59.6647315528" lon="5.87308572586">
		<tag k="alt_name" v="Rivås" />
		<tag k="fixme" v="consider place=hamlet" />
		<tag k="name" v="Rivåsen" />
		<tag k="place" v="farm" />
		<tag k="ssr:stedsnr" v="791734" />
	</node>
	<node id="-436446" lat="59.6725378093" lon="5.9680461672">
		<tag k="alt_name" v="Støle" />
		<tag k="fixme" v="consider place=hamlet" />
		<tag k="name" v="Stødle" />
		<tag k="place" v="farm" />
		<tag k="ssr:stedsnr" v="791713" />
	</node>
	<node id="-436445" lat="59.7360444448" lon="6.02538055851">
		<tag k="alt_name" v="Tungesvika, in" />
		<tag k="fixme" v="consider place=hamlet" />
		<tag k="name" v="Indra Tungesvik" />
		<tag k="place" v="farm" />
		<tag k="ssr:stedsnr" v="791657" />
	</node>
	<node id="-436430" lat="59.6785666698" lon="5.9529805511">
		<tag k="name" v="Støle" />
		<tag k="place" v="farm" />
		<tag k="ssr:stedsnr" v="771937" />
	</node>
	<node id="-436429" lat="59.6623750002" lon="6.01601666182">
		<tag k="historic" v="shieling" />
		<tag k="name" v="Bergsstølane" />
		<tag k="place" v="locality" />
		<tag k="ssr:stedsnr" v="766709" />
	</node>
	<node id="-436428" lat="59.6595194476" lon="6.01297500059">
		<tag k="name" v="Berge" />
		<tag k="place" v="hamlet" />
		<tag k="ssr:stedsnr" v="766693" />
	</node>
	<node id="-436427" lat="59.6538499972" lon="6.019186118">
		<tag k="amenity" v="school" />
		<tag k="name" v="Etne jordbruksskule" />
		<tag k="ssr:stedsnr" v="766688" />
	</node>
	<node id="-436411" lat="59.8761305536" lon="6.4065333254">
		<tag k="name" v="Austarheim" />
		<tag k="place" v="farm" />
		<tag k="ssr:stedsnr" v="765776" />
	</node>
	<node id="-436399" lat="59.6632472253" lon="5.93732221802">
		<tag k="name" v="Gjerde" />
		<tag k="place" v="farm" />
		<tag k="ssr:stedsnr" v="765576" />
	</node>
	<node id="-436379" lat="59.7213694477" lon="6.11106944829">
		<tag k="historic" v="shieling" />
		<tag k="name" v="Gamlestølen" />
		<tag k="place" v="locality" />
		<tag k="ssr:stedsnr" v="765305" />
	</node>
	<node id="-436358" lat="59.7753972239" lon="6.18794167046">
		<tag k="alt_name" v="Rafdalsstøl, øvre" />
		<tag k="historic" v="shieling" />
		<tag k="name" v="Øvre Rafdalsstøl" />
		<tag k="place" v="locality" />
		<tag k="ssr:stedsnr" v="732343" />
	</node>
	<node id="-436357" lat="59.8047500002" lon="6.21536389106">
		<tag k="name" v="Krokstød" />
		<tag k="place" v="farm" />
		<tag k="ssr:stedsnr" v="732336" />
	</node>
	<node id="-436355" lat="59.821550004" lon="6.17446110621">
		<tag k="historic" v="shieling" />
		<tag k="name" v="Hammarslandsstøl" />
		<tag k="place" v="locality" />
		<tag k="ssr:stedsnr" v="732227" />
	</node>
	<node id="-436350" lat="59.8374743978" lon="6.3106129918">
		<tag k="alt_name" v="Bjørkestrand" />
		<tag k="fixme" v="consider place=hamlet" />
		<tag k="name" v="Bjørkestronda" />
		<tag k="place" v="farm" />
		<tag k="ssr:stedsnr" v="732061" />
	</node>
	<node id="-436346" lat="59.8764250023" lon="6.39999445013">
		<tag k="name" v="Austerheim" />
		<tag k="place" v="farm" />
		<tag k="ssr:stedsnr" v="732026" />
	</node>
	<node id="-436343" lat="59.8639942286" lon="6.32850992349">
		<tag k="alt_name" v="Masdal" />
		<tag k="fixme" v="consider place=hamlet" />
		<tag k="name" v="Mosdalen" />
		<tag k="place" v="farm" />
		<tag k="ssr:stedsnr" v="732016" />
	</node>
	<node id="-436335" lat="59.6753915254" lon="5.95577754839">
		<tag k="fixme" v="consider place=hamlet" />
		<tag k="name" v="Kambe" />
		<tag k="place" v="farm" />
		<tag k="ssr:stedsnr" v="731705" />
	</node>
	<node id="-436334" lat="59.6259277735" lon="5.99986666476">
		<tag k="historic" v="shieling" />
		<tag k="name" v="Rus" />
		<tag k="place" v="locality" />
		<tag k="ssr:stedsnr" v="731503" />
	</node>
	<node id="-436330" lat="59.6251555543" lon="5.94247500598">
		<tag k="historic" v="shieling" />
		<tag k="name" v="Hamrestølen" />
		<tag k="place" v="locality" />
		<tag k="ssr:stedsnr" v="731496" />
	</node>
	<node id="-436327" lat="59.6862674829" lon="5.79841118546">
		<tag k="alt_name" v="Sandvika;Sandvik (nedre)" />
		<tag k="fixme" v="consider place=hamlet" />
		<tag k="name" v="Nedre Sandvik" />
		<tag k="place" v="farm" />
		<tag k="ssr:stedsnr" v="731050" />
	</node>
	<node id="-436317" lat="59.7231694413" lon="6.13247499657">
		<tag k="fixme" v="consider place=hamlet" />
		<tag k="name" v="Lussnes" />
		<tag k="place" v="farm" />
		<tag k="ssr:stedsnr" v="731636" />
	</node>
	<node id="-436316" lat="59.7266740916" lon="5.87959714408">
		<tag k="fixme" v="consider place=hamlet" />
		<tag k="name" v="Skoga" />
		<tag k="place" v="farm" />
		<tag k="ssr:stedsnr" v="731612" />
	</node>
	<node id="-436314" lat="59.8264583344" lon="6.211097228">
		<tag k="alt_name" v="Intveit" />
		<tag k="fixme" v="consider place=hamlet" />
		<tag k="name" v="Eintveit" />
		<tag k="place" v="farm" />
		<tag k="ssr:stedsnr" v="721178" />
	</node>
	<node id="-436311" lat="59.6732638886" lon="5.78729167403">
		<tag k="name" v="Stølane" />
		<tag k="place" v="locality" />
		<tag k="ssr:stedsnr" v="711947" />
	</node>
	<node id="-436298" lat="59.7284083307" lon="5.86933889796">
		<tag k="name" v="Mortveit" />
		<tag k="place" v="farm" />
		<tag k="ssr:stedsnr" v="705761" />
	</node>
	<node id="-436295" lat="59.6722222265" lon="5.95443888677">
		<tag k="name" v="Revhaug" />
		<tag k="place" v="farm" />
		<tag k="ssr:stedsnr" v="705721" />
	</node>
	<node id="-436294" lat="59.6736916625" lon="5.9418555639">
		<tag k="name" v="Øvre Fitja" />
		<tag k="place" v="farm" />
		<tag k="ssr:stedsnr" v="705717" />
	</node>
	<node id="-436293" lat="59.6703183054" lon="6.00179303451">
		<tag k="name" v="Håfoss" />
		<tag k="place" v="farm" />
		<tag k="ssr:stedsnr" v="705706" />
	</node>
	<node id="-436280" lat="59.6886194442" lon="6.08146389777">
		<tag k="name" v="Klepp" />
		<tag k="place" v="farm" />
		<tag k="ssr:stedsnr" v="705491" />
	</node>
	<node id="-436275" lat="59.6657638902" lon="6.0701111151">
		<tag k="name" v="Kvio" />
		<tag k="place" v="farm" />
		<tag k="ssr:stedsnr" v="705422" />
	</node>
	<node id="-436273" lat="59.7234916662" lon="6.12783611423">
		<tag k="name" v="Ljusnes" />
		<tag k="place" v="farm" />
		<tag k="ssr:stedsnr" v="705375" />
	</node>
	<node id="-436264" lat="59.6994111079" lon="6.01485277859">
		<tag k="historic" v="shieling" />
		<tag k="name" v="Fjellstølen" />
		<tag k="place" v="locality" />
		<tag k="ssr:stedsnr" v="705325" />
	</node>
	<node id="-436260" lat="59.8447416675" lon="6.29108610438">
		<tag k="fixme" v="consider place=hamlet" />
		<tag k="name" v="Bråskot" />
		<tag k="place" v="farm" />
		<tag k="ssr:stedsnr" v="705256" />
	</node>
	<node id="-436258" lat="59.8233083355" lon="6.24600554668">
		<tag k="alt_name" v="Miljateig nedre;Miljateig" />
		<tag k="name" v="Nedre Miljateig" />
		<tag k="place" v="farm" />
		<tag k="ssr:stedsnr" v="705245" />
	</node>
	<node id="-436233" lat="59.6546249992" lon="5.83392500531">
		<tag k="name" v="Holmaseid" />
		<tag k="place" v="farm" />
		<tag k="ssr:stedsnr" v="671481" />
	</node>
	<node id="-436232" lat="59.8894226022" lon="6.32090411767">
		<tag k="historic" v="shieling" />
		<tag k="name" v="Lunddalen" />
		<tag k="place" v="locality" />
		<tag k="ssr:stedsnr" v="671479" />
	</node>
	<node id="-436230" lat="59.9258361089" lon="6.37960555544">
		<tag k="historic" v="shieling" />
		<tag k="name" v="Sandvikestølen" />
		<tag k="place" v="locality" />
		<tag k="ssr:stedsnr" v="671455" />
	</node>
	<node id="-436228" lat="59.7523640104" lon="6.20407898977">
		<tag k="alt_name" v="Øyno" />
		<tag k="fixme" v="consider place=hamlet" />
		<tag k="name" v="Øyna" />
		<tag k="place" v="farm" />
		<tag k="ssr:stedsnr" v="671399" />
	</node>
	<node id="-436227" lat="59.7594249991" lon="6.19408611254">
		<tag k="historic" v="shieling" />
		<tag k="name" v="Gamlestølen" />
		<tag k="place" v="locality" />
		<tag k="ssr:stedsnr" v="671393" />
	</node>
	<node id="-436225" lat="59.7720916626" lon="6.15375833506">
		<tag k="historic" v="shieling" />
		<tag k="name" v="Bergastølen" />
		<tag k="place" v="locality" />
		<tag k="ssr:stedsnr" v="671366" />
	</node>
</osm>
