<?xml version="1.0" encoding="UTF-8"?>
<<<<<<< HEAD
<osm version="0.6" generator="osmapis">
	<node lat="69.15108055147523" lon="15.68174166313371" id="-10174">
		<tag k="name" v="Indreleia" />
		<tag k="place" v="locality" />
		<tag k="ssr:stedsnr" v="229826" />
	</node>
	<node lat="69.32571666504391" lon="16.140183320001125" id="-10182">
		<tag k="man_made" v="breakwater" />
		<tag k="name" v="Nakkespirmoloen" />
		<tag k="place" v="locality" />
		<tag k="ssr:stedsnr" v="18153" />
	</node>
	<node lat="69.35133333128961" lon="16.066666660351892" id="-10276">
		<tag k="name" v="Senholmleia" />
		<tag k="place" v="locality" />
		<tag k="ssr:stedsnr" v="99075" />
	</node>
	<node lat="69.32633055859934" lon="16.117522225204695" id="-10394">
		<tag k="man_made" v="breakwater" />
		<tag k="name" v="Gammelmoloen" />
		<tag k="place" v="locality" />
		<tag k="ssr:stedsnr" v="179803" />
	</node>
	<node lat="69.33083610758655" lon="15.960038880403848" id="-10527">
		<tag k="name" v="Moholmleia" />
		<tag k="place" v="locality" />
		<tag k="ssr:stedsnr" v="463128" />
	</node>
	<node lat="69.15605278035888" lon="15.613977773039235" id="-10911">
		<tag k="name" v="Skavdalsleia" />
		<tag k="place" v="locality" />
		<tag k="ssr:stedsnr" v="654341" />
	</node>
	<node lat="69.03276666754115" lon="15.529269440382567" id="-10927">
		<tag k="junction" v="yes" />
		<tag k="name" v="Bø-Svingen" />
		<tag k="place" v="locality" />
		<tag k="ssr:stedsnr" v="709767" />
	</node>
	<node lat="69.32961666989506" lon="16.12820278484827" id="-10968">
		<tag k="alt_name" v="Skarvbardsmoloen" />
		<tag k="man_made" v="breakwater" />
		<tag k="name" v="Skarvbarmoloen" />
		<tag k="place" v="locality" />
		<tag k="ssr:stedsnr" v="686148" />
	</node>
	<node lat="69.29329444711921" lon="15.825777789418845" id="-10992">
		<tag k="name" v="Nattmålsleia" />
		<tag k="place" v="locality" />
		<tag k="ssr:stedsnr" v="897084" />
	</node>
	<node lat="69.2933638930861" lon="15.97751389041354" id="-10993">
		<tag k="name" v="Stavleia" />
		<tag k="place" v="locality" />
		<tag k="ssr:stedsnr" v="706464" />
	</node>
	<node lat="69.0128388885418" lon="15.770527769364495" id="-11047">
		<tag k="ford" v="yes" />
		<tag k="name" v="Tørrvaet" />
		<tag k="place" v="locality" />
		<tag k="ssr:stedsnr" v="764841" />
	</node>
	<node lat="69.32854444533068" lon="16.144113878356336" id="-11117">
		<tag k="man_made" v="breakwater" />
		<tag k="name" v="Børingsmoloen" />
		<tag k="place" v="locality" />
		<tag k="ssr:stedsnr" v="847812" />
	</node>
	<node lat="69.30109444487682" lon="16.126816665868297" id="-11162">
		<tag k="aeroway" v="aerodrome" />
		<tag k="alt_name:no" v="Andenes" />
		<tag k="loc_name:se" v="Ánda;Ándda girdihámman" />
		<tag k="name" v="Andøya lufthavn, Andenes" />
		<tag k="name:no" v="Andøya lufthavn, Andenes" />
		<tag k="old_name:no" v="Andøya Lufthavn;Andøya flystasjon;Andøya" />
		<tag k="ssr:stedsnr" v="929139" />
	</node>
	<node lat="68.9554416689556" lon="15.648516668396022" id="-11176">
		<tag k="man_made" v="quay" />
		<tag k="name" v="Standland" />
		<tag k="place" v="locality" />
		<tag k="ssr:stedsnr" v="887934" />
	</node>
	<node lat="69.24633888689546" lon="16.129111102874305" id="-11255">
		<tag k="leisure" v="marina" />
		<tag k="name" v="Skarstein Småbåthavn" />
		<tag k="ssr:stedsnr" v="968812" />
	</node>
	<node lat="68.95562500337154" lon="15.647822230458923" id="-11430">
		<tag k="man_made" v="quay" />
		<tag k="name" v="Kaia" />
		<tag k="place" v="locality" />
		<tag k="ssr:stedsnr" v="96433" />
	</node>
	<node lat="69.18431666366335" lon="15.68172222865007" id="-11459">
=======
<osm generator="osmapis" version="0.6">
	<node id="-206974" lat="69.2395638885" lon="15.9446555616">
		<tag k="highway" v="path" />
		<tag k="name" v="Nonsheivegen" />
		<tag k="ssr:stedsnr" v="886639" />
	</node>
	<node id="-207455" lat="69.1843166637" lon="15.6817222287">
>>>>>>> e1d4bc35ff8a6074a6f2e91616a996b547c36f15
		<tag k="name" v="Skogvolleia" />
		<tag k="place" v="locality" />
		<tag k="ssr:stedsnr" v="107353" />
	</node>
<<<<<<< HEAD
	<node lat="69.32698055500454" lon="16.132355562589275" id="-11463">
=======
	<node id="-206302" lat="69.326980555" lon="16.1323555626">
>>>>>>> e1d4bc35ff8a6074a6f2e91616a996b547c36f15
		<tag k="man_made" v="breakwater" />
		<tag k="name" v="Nysjeteen" />
		<tag k="place" v="locality" />
		<tag k="ssr:stedsnr" v="118806" />
	</node>
<<<<<<< HEAD
	<node lat="69.3164666652729" lon="15.887880566877467" id="-11549">
		<tag k="name" v="Helleleia" />
=======
	<node id="-206556" lat="69.3308361076" lon="15.9600388804">
		<tag k="name" v="Moholmleia" />
		<tag k="place" v="locality" />
		<tag k="ssr:stedsnr" v="463128" />
	</node>
	<node id="-206161" lat="69.1510805515" lon="15.6817416631">
		<tag k="name" v="Indreleia" />
>>>>>>> e1d4bc35ff8a6074a6f2e91616a996b547c36f15
		<tag k="place" v="locality" />
		<tag k="ssr:stedsnr" v="168873" />
	</node>
<<<<<<< HEAD
	<node lat="69.12962221916533" lon="16.013705543253113" id="-11746">
		<tag k="landuse" v="harbour" />
		<tag k="name" v="Saura havn" />
		<tag k="seamark:type" v="harbour" />
		<tag k="ssr:stedsnr" v="338140" />
	</node>
	<node lat="69.02590277864307" lon="15.80605832499895" id="-12149">
=======
	<node id="-206798" lat="69.3296166699" lon="16.1282027848">
		<tag k="alt_name" v="Skarvbardsmoloen" />
		<tag k="man_made" v="breakwater" />
		<tag k="name" v="Skarvbarmoloen" />
		<tag k="place" v="locality" />
		<tag k="ssr:stedsnr" v="686148" />
	</node>
	<node id="-207138" lat="69.3010944449" lon="16.1268166659">
		<tag k="aeroway" v="aerodrome" />
		<tag k="alt_name:no" v="Andenes" />
		<tag k="loc_name:se" v="Ánda;Ándda girdihámman" />
		<tag k="name" v="Andøya lufthavn, Andenes" />
		<tag k="name:no" v="Andøya lufthavn, Andenes" />
		<tag k="old_name:no" v="Andøya Lufthavn;Andøya flystasjon;Andøya" />
		<tag k="ssr:stedsnr" v="929139" />
	</node>
	<node id="-208073" lat="69.0259027786" lon="15.806058325">
>>>>>>> e1d4bc35ff8a6074a6f2e91616a996b547c36f15
		<tag k="highway" v="path" />
		<tag k="name" v="Martavegen" />
		<tag k="ssr:stedsnr" v="600446" />
	</node>
<<<<<<< HEAD
	<node lat="69.25956944798604" lon="16.166999994668753" id="-12354">
		<tag k="leisure" v="marina" />
		<tag k="name" v="Fiskenes Småbåthavn" />
		<tag k="ssr:stedsnr" v="786793" />
	</node>
	<node lat="69.32540277444839" lon="16.126408340822042" id="-12355">
=======
	<node id="-207428" lat="68.9556250034" lon="15.6478222305">
		<tag k="man_made" v="quay" />
		<tag k="name" v="Kaia" />
		<tag k="place" v="locality" />
		<tag k="ssr:stedsnr" v="96433" />
	</node>
	<node id="-208441" lat="69.1414000003" lon="15.6735361079">
		<tag k="man_made" v="breakwater" />
		<tag k="name" v="Vestermoloen" />
		<tag k="place" v="locality" />
		<tag k="ssr:stedsnr" v="848058" />
	</node>
	<node id="-208308" lat="69.3254027744" lon="16.1264083408">
>>>>>>> e1d4bc35ff8a6074a6f2e91616a996b547c36f15
		<tag k="landuse" v="harbour" />
		<tag k="name" v="Andenes havn" />
		<tag k="seamark:type" v="harbour" />
		<tag k="ssr:stedsnr" v="786794" />
	</node>
<<<<<<< HEAD
	<node lat="69.24399722270653" lon="15.973041671892782" id="-12424">
		<tag k="highway" v="path" />
		<tag k="name" v="Breivikheivegen" />
		<tag k="ssr:stedsnr" v="825602" />
	</node>
	<node lat="69.00268333779313" lon="15.512841665521721" id="-12461">
=======
	<node id="-207155" lat="69.3285444453" lon="16.1441138784">
		<tag k="man_made" v="breakwater" />
		<tag k="name" v="Børingsmoloen" />
		<tag k="place" v="locality" />
		<tag k="ssr:stedsnr" v="847812" />
	</node>
	<node id="-208307" lat="69.259569448" lon="16.1669999947">
		<tag k="leisure" v="marina" />
		<tag k="name" v="Fiskenes Småbåthavn" />
		<tag k="ssr:stedsnr" v="786793" />
	</node>
	<node id="-208431" lat="69.0026833378" lon="15.5128416655">
>>>>>>> e1d4bc35ff8a6074a6f2e91616a996b547c36f15
		<tag k="highway" v="path" />
		<tag k="name" v="Gammelvegen" />
		<tag k="ssr:stedsnr" v="846973" />
	</node>
<<<<<<< HEAD
	<node lat="69.14140000029212" lon="15.673536107850365" id="-12475">
=======
	<node id="-207272" lat="69.325716665" lon="16.14018332">
		<tag k="man_made" v="breakwater" />
		<tag k="name" v="Nakkespirmoloen" />
		<tag k="place" v="locality" />
		<tag k="ssr:stedsnr" v="18153" />
	</node>
	<node id="-206887" lat="69.0327666675" lon="15.5292694404">
		<tag k="junction" v="yes" />
		<tag k="name" v="Bø-Svingen" />
		<tag k="place" v="locality" />
		<tag k="ssr:stedsnr" v="709767" />
	</node>
	<node id="-206242" lat="69.3513333313" lon="16.0666666604">
		<tag k="name" v="Senholmleia" />
		<tag k="place" v="locality" />
		<tag k="ssr:stedsnr" v="99075" />
	</node>
	<node id="-207010" lat="69.2932944471" lon="15.8257777894">
		<tag k="name" v="Nattmålsleia" />
		<tag k="place" v="locality" />
		<tag k="ssr:stedsnr" v="897084" />
	</node>
	<node id="-206363" lat="69.3164666653" lon="15.8878805669">
		<tag k="name" v="Helleleia" />
		<tag k="place" v="locality" />
		<tag k="ssr:stedsnr" v="168873" />
	</node>
	<node id="-206383" lat="69.3263305586" lon="16.1175222252">
>>>>>>> e1d4bc35ff8a6074a6f2e91616a996b547c36f15
		<tag k="man_made" v="breakwater" />
		<tag k="name" v="Vestermoloen" />
		<tag k="place" v="locality" />
		<tag k="ssr:stedsnr" v="848058" />
	</node>
	<node lat="69.23956388852937" lon="15.94465556164977" id="-12557">
		<tag k="highway" v="path" />
		<tag k="name" v="Nonsheivegen" />
		<tag k="ssr:stedsnr" v="886639" />
	</node>
	<node lat="69.32606387230118" lon="16.134839812140093" id="-12759">
		<tag k="man_made" v="monitoring_station" />
		<tag k="monitoring:water_Level" v="yes" />
		<tag k="name" v="Andenes vannstandsmåler" />
		<tag k="ssr:stedsnr" v="1082329" />
	</node>
	<node id="-208196" lat="69.1560527804" lon="15.613977773">
		<tag k="name" v="Skavdalsleia" />
		<tag k="place" v="locality" />
		<tag k="ssr:stedsnr" v="654341" />
	</node>
	<node id="-208272" lat="69.0128388885" lon="15.7705277694">
		<tag k="ford" v="yes" />
		<tag k="name" v="Tørrvaet" />
		<tag k="place" v="locality" />
		<tag k="ssr:stedsnr" v="764841" />
	</node>
	<node id="-206859" lat="69.2933638931" lon="15.9775138904">
		<tag k="name" v="Stavleia" />
		<tag k="place" v="locality" />
		<tag k="ssr:stedsnr" v="706464" />
	</node>
	<node id="-207236" lat="69.2463388869" lon="16.1291111029">
		<tag k="leisure" v="marina" />
		<tag k="name" v="Skarstein Småbåthavn" />
		<tag k="ssr:stedsnr" v="968812" />
	</node>
	<node id="-206979" lat="68.955441669" lon="15.6485166684">
		<tag k="man_made" v="quay" />
		<tag k="name" v="Standland" />
		<tag k="place" v="locality" />
		<tag k="ssr:stedsnr" v="887934" />
	</node>
	<node id="-206594" lat="69.1296222192" lon="16.0137055433">
		<tag k="landuse" v="harbour" />
		<tag k="name" v="Saura havn" />
		<tag k="seamark:type" v="harbour" />
		<tag k="ssr:stedsnr" v="338140" />
	</node>
	<node id="-208385" lat="69.2439972227" lon="15.9730416719">
		<tag k="highway" v="path" />
		<tag k="name" v="Breivikheivegen" />
		<tag k="ssr:stedsnr" v="825602" />
	</node>
</osm>
