<?xml version="1.0" encoding="UTF-8"?>
<<<<<<< HEAD
<osm version="0.6" generator="osmapis">
	<node lat="69.06383333588288" lon="15.602694444546852" id="-10175">
		<tag k="alt_name" v="Småklempvatnet, l;Littje-Småklempvatnet" />
		<tag k="name" v="Litle Småklempvatnet" />
		<tag k="natural" v="water" />
		<tag k="ssr:stedsnr" v="17403" />
	</node>
	<node lat="68.90608889217933" lon="15.695869456210579" id="-10180">
		<tag k="fixme" v="multiple name tags, choose one and add the other to alt_name" />
		<tag k="name" v="Langvatnet;Storvatnet" />
		<tag k="natural" v="water" />
		<tag k="ssr:stedsnr" v="18408" />
		<tag k="water" v="lake" />
	</node>
	<node lat="68.9746972195007" lon="15.637875005808725" id="-10184">
		<tag k="name" v="Kveldrovatnet" />
		<tag k="natural" v="water" />
		<tag k="ssr:stedsnr" v="18351" />
	</node>
	<node lat="69.15717499616107" lon="15.96247223056451" id="-10210">
		<tag k="name" v="Storneset" />
		<tag k="natural" v="cape" />
		<tag k="ssr:stedsnr" v="239876" />
	</node>
	<node lat="69.05834722131557" lon="15.78984999093301" id="-10212">
		<tag k="name" v="Tennfattjønna" />
		<tag k="natural" v="water" />
		<tag k="ssr:stedsnr" v="56100" />
	</node>
	<node lat="68.96893055431582" lon="15.534527772803095" id="-10214">
		<tag k="name" v="Gamvasselva" />
		<tag k="ssr:stedsnr" v="239967" />
		<tag k="waterway" v="stream" />
	</node>
	<node lat="68.9409722238778" lon="15.503052770915" id="-10216">
		<tag k="name" v="Mellavatnet" />
		<tag k="natural" v="water" />
		<tag k="ssr:stedsnr" v="239974" />
	</node>
	<node lat="69.18403611150596" lon="15.94623334242249" id="-10219">
		<tag k="name" v="Harryvatnet" />
		<tag k="natural" v="water" />
		<tag k="ssr:stedsnr" v="57317" />
	</node>
	<node lat="69.12179722133332" lon="15.656313877161232" id="-10231">
		<tag k="name" v="Kalvenesan" />
		<tag k="natural" v="cape" />
		<tag k="ssr:stedsnr" v="241015" />
	</node>
	<node lat="69.06837222579526" lon="15.610569450038524" id="-10237">
		<tag k="name" v="Kvannbekken" />
		<tag k="ssr:stedsnr" v="241198" />
		<tag k="waterway" v="stream" />
	</node>
	<node lat="69.08958333402613" lon="15.641788888445136" id="-10239">
		<tag k="name" v="Seljordnesan" />
		<tag k="natural" v="cape" />
		<tag k="ssr:stedsnr" v="241210" />
	</node>
	<node lat="69.0915222244109" lon="15.617188897406454" id="-10241">
		<tag k="name" v="Okkelbekkan" />
		<tag k="ssr:stedsnr" v="241239" />
		<tag k="waterway" v="stream" />
	</node>
	<node lat="68.94374166262105" lon="15.790161101382758" id="-10246">
		<tag k="name" v="Storelva" />
		<tag k="ssr:stedsnr" v="78309" />
		<tag k="waterway" v="river" />
	</node>
	<node lat="69.13302222507214" lon="15.840824992597163" id="-10249">
		<tag k="name" v="Lauvholelva" />
		<tag k="ssr:stedsnr" v="78250" />
		<tag k="waterway" v="stream" />
	</node>
	<node lat="69.10367777908465" lon="15.736994453758761" id="-10251">
		<tag k="alt_name" v="Krokratjørna" />
		<tag k="name" v="Krokratjønna" />
		<tag k="natural" v="water" />
		<tag k="ssr:stedsnr" v="78264" />
	</node>
	<node lat="68.90371388475981" lon="15.76851944280101" id="-10252">
		<tag k="name" v="Magervatnan" />
		<tag k="natural" v="water" />
		<tag k="ssr:stedsnr" v="78445" />
		<tag k="water" v="lake" />
	</node>
	<node lat="69.27366666515873" lon="16.055883323374943" id="-10257">
		<tag k="name" v="Storvatnet" />
		<tag k="natural" v="water" />
		<tag k="ssr:stedsnr" v="79048" />
		<tag k="water" v="lake" />
	</node>
	<node lat="69.2531583332591" lon="16.126716661909064" id="-10260">
		<tag k="name" v="Bukkebekken" />
		<tag k="ssr:stedsnr" v="79209" />
		<tag k="waterway" v="stream" />
	</node>
	<node lat="68.98714166595347" lon="15.441358331334134" id="-10262">
		<tag k="name" v="Haugelva" />
		<tag k="ssr:stedsnr" v="83441" />
		<tag k="waterway" v="river" />
	</node>
	<node lat="69.14838333550237" lon="15.891466672292" id="-10279">
		<tag k="name" v="Lakstjønna" />
		<tag k="natural" v="water" />
		<tag k="ssr:stedsnr" v="103313" />
	</node>
	<node lat="69.05481110691754" lon="15.768941660754667" id="-10297">
		<tag k="name" v="Ånesvatnet" />
		<tag k="natural" v="water" />
		<tag k="ssr:stedsnr" v="138224" />
		<tag k="water" v="lake" />
	</node>
	<node lat="69.07278889132006" lon="15.829208340948362" id="-10299">
		<tag k="name" v="Røllikelva" />
		<tag k="ssr:stedsnr" v="138236" />
		<tag k="waterway" v="stream" />
	</node>
	<node lat="69.00839722085516" lon="15.587566662403244" id="-10301">
		<tag k="name" v="Finnskjåbekken" />
		<tag k="ssr:stedsnr" v="138347" />
		<tag k="waterway" v="stream" />
	</node>
	<node lat="68.89310555813499" lon="15.663711118998778" id="-10309">
		<tag k="alt_name" v="Mellomvatnet" />
		<tag k="name" v="Mellavatnet" />
		<tag k="natural" v="water" />
		<tag k="ssr:stedsnr" v="139486" />
		<tag k="water" v="lake" />
	</node>
	<node lat="68.96644721847078" lon="15.511200002625642" id="-10310">
		<tag k="name" v="Semsheivatnet" />
		<tag k="natural" v="water" />
		<tag k="ssr:stedsnr" v="139602" />
	</node>
	<node lat="69.01947221948332" lon="15.710994431119742" id="-10318">
		<tag k="name" v="Hufatelva" />
		<tag k="ssr:stedsnr" v="156488" />
		<tag k="waterway" v="river" />
	</node>
	<node lat="69.04552221821089" lon="15.844441677144633" id="-10321">
		<tag k="name" v="Sæingstjønna" />
		<tag k="natural" v="water" />
		<tag k="ssr:stedsnr" v="157255" />
	</node>
	<node lat="69.24233888716256" lon="15.966850007635754" id="-10329">
		<tag k="name" v="Størstelva" />
		<tag k="ssr:stedsnr" v="157597" />
		<tag k="waterway" v="stream" />
	</node>
	<node lat="69.02931666637713" lon="15.528686098960446" id="-10345">
		<tag k="name" v="Jakobtjønna" />
		<tag k="natural" v="water" />
		<tag k="ssr:stedsnr" v="163776" />
	</node>
	<node lat="69.00581111218072" lon="15.707833340703157" id="-10352">
		<tag k="alt_name" v="Abrahamtjørna" />
		<tag k="name" v="Abrahamvatnet" />
		<tag k="natural" v="water" />
		<tag k="ssr:stedsnr" v="260083" />
	</node>
	<node lat="69.01799999850384" lon="15.741252766905804" id="-10353">
		<tag k="name" v="Åseelva" />
		<tag k="ssr:stedsnr" v="260086" />
		<tag k="waterway" v="river" />
	</node>
	<node lat="69.2269111119887" lon="15.93915278627768" id="-10354">
		<tag k="alt_name" v="Røysettbekken" />
		<tag k="name" v="Røysetbekken" />
		<tag k="ssr:stedsnr" v="260223" />
		<tag k="waterway" v="stream" />
	</node>
	<node lat="69.10361666450596" lon="15.693149993994217" id="-10360">
		<tag k="name" v="Kryssdalselva" />
		<tag k="ssr:stedsnr" v="260296" />
		<tag k="waterway" v="stream" />
	</node>
	<node lat="69.24684722718477" lon="15.959386100081419" id="-10362">
		<tag k="fixme" v="multiple name tags, choose one and add the other to alt_name" />
		<tag k="name" v="Helligøya;Helgøya" />
		<tag k="place" v="islet" />
		<tag k="ssr:stedsnr" v="260374" />
	</node>
	<node lat="69.25764443964573" lon="15.951186120367623" id="-10377">
		<tag k="name" v="Gåsøya" />
		<tag k="natural" v="cape" />
		<tag k="ssr:stedsnr" v="261216" />
	</node>
	<node lat="69.26284722490482" lon="16.050397215972314" id="-10378">
		<tag k="alt_name" v="Ner-Æråsvatnet;Æråsvatnet, nedre" />
		<tag k="name" v="Nedre Æråsvatnet" />
		<tag k="natural" v="water" />
		<tag k="ssr:stedsnr" v="261221" />
		<tag k="water" v="lake" />
	</node>
	<node lat="69.26852777530273" lon="15.937358337818731" id="-10381">
		<tag k="name" v="Holmevatnet" />
		<tag k="natural" v="water" />
		<tag k="ssr:stedsnr" v="261236" />
	</node>
	<node lat="68.98790555960306" lon="15.634288889030115" id="-10383">
		<tag k="alt_name" v="Valtjørnan" />
		<tag k="name" v="Valtjønna" />
		<tag k="natural" v="water" />
		<tag k="ssr:stedsnr" v="261380" />
	</node>
	<node lat="69.05128055653917" lon="15.807316674395922" id="-10390">
		<tag k="name" v="Fremste-Holbekken" />
		<tag k="ssr:stedsnr" v="177103" />
		<tag k="waterway" v="stream" />
	</node>
	<node lat="69.02816944863439" lon="15.777550002660387" id="-10392">
		<tag k="name" v="Sør-Sætersbekken" />
		<tag k="ssr:stedsnr" v="177504" />
		<tag k="waterway" v="stream" />
	</node>
	<node lat="68.92595555799902" lon="15.556141658086842" id="-10393">
		<tag k="name" v="Geitvatnet" />
		<tag k="natural" v="water" />
		<tag k="ssr:stedsnr" v="261627" />
	</node>
	<node lat="69.09770555151471" lon="15.680105547979899" id="-10404">
		<tag k="alt_name" v="Littjevatnet" />
		<tag k="name" v="Litlevatnet" />
		<tag k="natural" v="water" />
		<tag k="ssr:stedsnr" v="199215" />
	</node>
	<node lat="69.11398610699277" lon="15.937144452976158" id="-10407">
		<tag k="alt_name" v="Andholtjørna" />
		<tag k="name" v="Andholtjønna" />
		<tag k="natural" v="water" />
		<tag k="ssr:stedsnr" v="199262" />
	</node>
	<node lat="68.93627778069128" lon="15.80218887987097" id="-10412">
		<tag k="alt_name" v="Finngammelva" />
		<tag k="name" v="Finngamelva" />
		<tag k="ssr:stedsnr" v="200515" />
		<tag k="waterway" v="stream" />
	</node>
	<node lat="69.18698888509056" lon="16.024394442221844" id="-10414">
		<tag k="name" v="Vinterholtjønna" />
		<tag k="natural" v="water" />
		<tag k="ssr:stedsnr" v="217372" />
	</node>
	<node lat="68.88626944819113" lon="15.630769440539247" id="-10421">
		<tag k="name" v="Ørnsteinen" />
		<tag k="place" v="islet" />
		<tag k="ssr:stedsnr" v="218229" />
	</node>
	<node lat="69.24478333482197" lon="15.960813886867117" id="-10422">
		<tag k="name" v="Johan Hansa-neset" />
		<tag k="natural" v="cape" />
		<tag k="ssr:stedsnr" v="218577" />
	</node>
	<node lat="68.871858336549" lon="15.644777769017566" id="-10423">
		<tag k="name" v="Skavdalselva" />
		<tag k="ssr:stedsnr" v="218825" />
		<tag k="waterway" v="river" />
	</node>
	<node lat="68.84509166447351" lon="15.742202766916545" id="-10435">
		<tag k="name" v="Finnsæterholman" />
		<tag k="natural" v="cape" />
		<tag k="ssr:stedsnr" v="222825" />
	</node>
	<node lat="69.05551944754029" lon="15.778694452428365" id="-10443">
		<tag k="name" v="Storsteinneset" />
		<tag k="natural" v="cape" />
		<tag k="ssr:stedsnr" v="238104" />
	</node>
	<node lat="69.15580833009174" lon="15.953522223929355" id="-10445">
		<tag k="name" v="Vestneset" />
		<tag k="natural" v="cape" />
		<tag k="ssr:stedsnr" v="239879" />
	</node>
	<node lat="69.2648407030694" lon="15.919774154574275" id="-10446">
		<tag k="name" v="Vestraste-Steinsvatnet" />
		<tag k="natural" v="water" />
		<tag k="ssr:stedsnr" v="239890" />
	</node>
	<node lat="69.0180333292733" lon="15.654055560677238" id="-10454">
		<tag k="name" v="Svartvatnet" />
		<tag k="natural" v="water" />
		<tag k="ssr:stedsnr" v="260065" />
	</node>
	<node lat="69.06304444321019" lon="15.695255556618065" id="-10458">
		<tag k="name" v="Bødalselva" />
		<tag k="ssr:stedsnr" v="260262" />
		<tag k="waterway" v="stream" />
	</node>
	<node lat="68.82094444328011" lon="15.73660833621954" id="-10459">
		<tag k="name" v="Knurrvatnet" />
		<tag k="natural" v="water" />
		<tag k="ssr:stedsnr" v="260161" />
	</node>
	<node lat="68.94155000153924" lon="15.745566663213575" id="-10466">
		<tag k="alt_name" v="Litlevatnet" />
		<tag k="name" v="Littjevatnet" />
		<tag k="natural" v="water" />
		<tag k="ssr:stedsnr" v="260508" />
	</node>
	<node lat="69.01987222014195" lon="15.769672216459837" id="-10481">
		<tag k="name" v="Bekkan" />
		<tag k="ssr:stedsnr" v="279806" />
		<tag k="waterway" v="stream" />
	</node>
	<node lat="69.01926944124416" lon="15.725152772186087" id="-10495">
		<tag k="name" v="Gjølbekken" />
		<tag k="ssr:stedsnr" v="460566" />
		<tag k="waterway" v="stream" />
	</node>
	<node lat="68.9954083377978" lon="15.633469440390023" id="-10496">
		<tag k="name" v="Nordgårdsbekken" />
		<tag k="ssr:stedsnr" v="460571" />
		<tag k="waterway" v="stream" />
	</node>
	<node lat="69.2664444448897" lon="15.929777785331598" id="-10498">
		<tag k="name" v="Heimste-Steinsvatnet" />
		<tag k="natural" v="water" />
		<tag k="ssr:stedsnr" v="460642" />
		<tag k="water" v="lake" />
	</node>
	<node lat="68.99089722392546" lon="15.442158324839498" id="-10501">
		<tag k="name" v="Nestjønna" />
		<tag k="natural" v="water" />
		<tag k="ssr:stedsnr" v="283579" />
	</node>
	<node lat="69.20406666785068" lon="16.081888899537805" id="-10503">
		<tag k="name" v="Jokumbekken" />
		<tag k="ssr:stedsnr" v="460944" />
		<tag k="waterway" v="stream" />
	</node>
	<node lat="69.18296389184616" lon="15.838313887491353" id="-10513">
		<tag k="name" v="Steinsvatnet" />
		<tag k="natural" v="water" />
		<tag k="ssr:stedsnr" v="285308" />
	</node>
	<node lat="69.201827776103" lon="16.058077786567456" id="-10519">
		<tag k="name" v="Jokumbekken" />
		<tag k="ssr:stedsnr" v="461589" />
		<tag k="waterway" v="stream" />
	</node>
	<node lat="68.94524999631938" lon="15.829577768764043" id="-10530">
		<tag k="name" v="Durmålsdalsvatnet" />
		<tag k="natural" v="water" />
		<tag k="ssr:stedsnr" v="298011" />
	</node>
	<node lat="69.29014166750684" lon="16.091911108265506" id="-10534">
		<tag k="name" v="Littje-Løngvatnet" />
		<tag k="natural" v="water" />
		<tag k="ssr:stedsnr" v="300793" />
	</node>
	<node lat="69.06602777579717" lon="15.603655555814465" id="-10538">
		<tag k="name" v="Småklempelva" />
		<tag k="ssr:stedsnr" v="302226" />
		<tag k="waterway" v="stream" />
	</node>
	<node lat="69.03931389223864" lon="15.683958334248798" id="-10539">
		<tag k="name" v="Tredjevatnet" />
		<tag k="natural" v="water" />
		<tag k="ssr:stedsnr" v="302280" />
	</node>
	<node lat="69.01374722223085" lon="15.561608334624335" id="-10550">
		<tag k="name" v="Kobbedalselva" />
		<tag k="ssr:stedsnr" v="320337" />
		<tag k="waterway" v="stream" />
	</node>
	<node lat="69.0177249962047" lon="15.467922222101022" id="-10551">
		<tag k="alt_name" v="Skjeltjørna" />
		<tag k="name" v="Skjelltjønna" />
		<tag k="natural" v="water" />
		<tag k="ssr:stedsnr" v="320341" />
	</node>
	<node lat="68.94511388913783" lon="15.507238895827774" id="-10565">
		<tag k="fixme" v="multiple name tags, choose one and add the other to alt_name" />
		<tag k="name" v="Keipvatnet;Grinddalsvatnet" />
		<tag k="natural" v="water" />
		<tag k="ssr:stedsnr" v="321594" />
	</node>
	<node lat="69.2136194414182" lon="16.02291944867806" id="-10582">
		<tag k="name" v="Sverigedalstjønna" />
		<tag k="natural" v="water" />
		<tag k="ssr:stedsnr" v="339544" />
	</node>
	<node lat="69.23075277493278" lon="16.101211110763156" id="-10584">
		<tag k="name" v="Skjellbekken" />
		<tag k="ssr:stedsnr" v="339911" />
		<tag k="waterway" v="stream" />
	</node>
	<node lat="68.84158889188274" lon="15.681336118271986" id="-10587">
		<tag k="name" v="Bjørnlibekken" />
		<tag k="ssr:stedsnr" v="339993" />
		<tag k="waterway" v="stream" />
	</node>
	<node lat="69.02551389114504" lon="15.59903889092898" id="-10599">
		<tag k="name" v="Gamhågbekken" />
		<tag k="ssr:stedsnr" v="345776" />
		<tag k="waterway" v="stream" />
	</node>
	<node lat="69.03741111346658" lon="15.784916663858807" id="-10601">
		<tag k="name" v="Kalddiket" />
		<tag k="ssr:stedsnr" v="358372" />
		<tag k="waterway" v="stream" />
	</node>
	<node lat="69.02175555921676" lon="15.785608324529516" id="-10602">
		<tag k="name" v="Tverrløkkbekken" />
		<tag k="ssr:stedsnr" v="358453" />
		<tag k="waterway" v="stream" />
	</node>
	<node lat="69.11277222338576" lon="15.65056388260712" id="-10605">
		<tag k="name" v="Svanholmen" />
		<tag k="place" v="islet" />
		<tag k="ssr:stedsnr" v="359011" />
	</node>
	<node lat="69.17592499575083" lon="15.977316670735506" id="-10607">
		<tag k="name" v="Ramsåelva" />
		<tag k="ssr:stedsnr" v="360312" />
		<tag k="waterway" v="stream" />
	</node>
	<node lat="69.119797225587" lon="15.62055276916055" id="-10614">
		<tag k="alt_name" v="Littjelandsvatnet" />
		<tag k="name" v="Litlandsvatnet" />
=======
<osm generator="osmapis" version="0.6">
	<node id="-206847" lat="69.2063250017" lon="15.8713972148">
		<tag k="name" v="Laksneset" />
		<tag k="natural" v="cape" />
		<tag k="ssr:stedsnr" v="703913" />
	</node>
	<node id="-206833" lat="69.0128611124" lon="15.521686107">
		<tag k="alt_name" v="Bøbekkan" />
		<tag k="name" v="Bøbekken" />
		<tag k="ssr:stedsnr" v="563328" />
		<tag k="waterway" v="stream" />
	</node>
	<node id="-206831" lat="69.2511777818" lon="15.9162750117">
		<tag k="alt_name" v="Breiddalsvatnet" />
		<tag k="name" v="Breidalsvatnet" />
		<tag k="natural" v="water" />
		<tag k="ssr:stedsnr" v="563310" />
		<tag k="water" v="lake" />
	</node>
	<node id="-206830" lat="69.0038833309" lon="15.5069416758">
		<tag k="name" v="Kjerkebekken" />
		<tag k="ssr:stedsnr" v="563303" />
		<tag k="waterway" v="stream" />
	</node>
	<node id="-206826" lat="68.8933305589" lon="15.5037888787">
		<tag k="name" v="Laneselva" />
		<tag k="ssr:stedsnr" v="702982" />
		<tag k="waterway" v="stream" />
	</node>
	<node id="-206824" lat="69.019947222" lon="15.7468749941">
		<tag k="name" v="Mulelva" />
		<tag k="ssr:stedsnr" v="702429" />
		<tag k="waterway" v="stream" />
	</node>
	<node id="-206821" lat="68.9578583326" lon="15.733916676">
		<tag k="name" v="Sandbekken" />
		<tag k="ssr:stedsnr" v="702082" />
		<tag k="waterway" v="stream" />
	</node>
	<node id="-206809" lat="69.0544861095" lon="15.649963892">
		<tag k="name" v="Brekkelva" />
		<tag k="ssr:stedsnr" v="525190" />
		<tag k="waterway" v="stream" />
	</node>
	<node id="-206807" lat="68.9061861135" lon="15.763424998">
		<tag k="name" v="Ner-Magervatnet" />
		<tag k="natural" v="water" />
		<tag k="ssr:stedsnr" v="525186" />
	</node>
	<node id="-206790" lat="68.8811694444" lon="15.6536277886">
		<tag k="name" v="Kringvasselva" />
		<tag k="ssr:stedsnr" v="685431" />
		<tag k="waterway" v="stream" />
	</node>
	<node id="-206788" lat="69.0651027788" lon="15.5913916559">
		<tag k="alt_name" v="Heitjørna" />
		<tag k="name" v="Heitjønna" />
		<tag k="natural" v="water" />
		<tag k="ssr:stedsnr" v="685347" />
	</node>
	<node id="-206786" lat="69.0475444475" lon="15.6133472189">
		<tag k="name" v="Røyrbekken" />
		<tag k="ssr:stedsnr" v="685334" />
		<tag k="waterway" v="stream" />
	</node>
	<node id="-206783" lat="69.2516777817" lon="15.9517333278">
		<tag k="fixme" v="multiple name tags, choose one and add the other to alt_name" />
		<tag k="name" v="Bleiksvatnet;Storvatnet" />
		<tag k="natural" v="water" />
		<tag k="old_name" v="Bleikvatnet" />
		<tag k="ssr:stedsnr" v="685310" />
		<tag k="water" v="lake" />
	</node>
	<node id="-206774" lat="69.0833972222" lon="15.7272749928">
		<tag k="name" v="Grunnvatnet" />
		<tag k="natural" v="water" />
		<tag k="ssr:stedsnr" v="685184" />
		<tag k="water" v="lake" />
	</node>
	<node id="-206773" lat="69.0956277818" lon="15.9098638914">
		<tag k="alt_name" v="Bardåa;Baråelva" />
		<tag k="name" v="Baråa" />
		<tag k="ssr:stedsnr" v="685182" />
		<tag k="waterway" v="stream" />
	</node>
	<node id="-206769" lat="69.0060138936" lon="15.6745444362">
		<tag k="name" v="Andersåa" />
		<tag k="ssr:stedsnr" v="685058" />
		<tag k="waterway" v="stream" />
	</node>
	<node id="-206152" lat="69.0251027772" lon="15.5478611128">
		<tag k="name" v="Springarbekken" />
		<tag k="ssr:stedsnr" v="224762" />
		<tag k="waterway" v="stream" />
	</node>
	<node id="-206766" lat="68.8546861081" lon="15.6633194455">
		<tag k="name" v="Trollvatnet" />
		<tag k="natural" v="water" />
		<tag k="ssr:stedsnr" v="685049" />
	</node>
	<node id="-206765" lat="69.0347499958" lon="15.6970888848">
		<tag k="alt_name" v="Nupvatnet, øvre;Øver-Nupvatnet" />
		<tag k="name" v="Øvre Nupvatnet" />
		<tag k="natural" v="water" />
		<tag k="ssr:stedsnr" v="685043" />
		<tag k="water" v="lake" />
	</node>
	<node id="-206151" lat="69.0249527802" lon="15.5245500116">
		<tag k="name" v="Hagholtjønna" />
		<tag k="natural" v="water" />
		<tag k="ssr:stedsnr" v="224760" />
	</node>
	<node id="-206751" lat="68.9308361099" lon="15.6727944353">
		<tag k="fixme" v="multiple name tags, choose one and add the other to alt_name" />
		<tag k="name" v="Reinshaugsvatnan;Trollurvatnet" />
		<tag k="natural" v="water" />
		<tag k="ssr:stedsnr" v="503460" />
		<tag k="water" v="lake" />
	</node>
	<node id="-206748" lat="69.1749916659" lon="15.8723388933">
		<tag k="alt_name" v="Smågbekken" />
		<tag k="name" v="Smogbekken" />
		<tag k="ssr:stedsnr" v="503122" />
		<tag k="waterway" v="stream" />
	</node>
	<node id="-206741" lat="69.0556277821" lon="15.6886527803">
		<tag k="name" v="Gråtarbekken" />
		<tag k="ssr:stedsnr" v="484108" />
		<tag k="waterway" v="stream" />
	</node>
	<node id="-206736" lat="69.0593499984" lon="15.7707805643">
		<tag k="name" v="Elveneset" />
		<tag k="natural" v="cape" />
		<tag k="ssr:stedsnr" v="480102" />
	</node>
	<node id="-206727" lat="68.8563416659" lon="15.7295611009">
		<tag k="name" v="Øver-Ressmålsvatnet" />
		<tag k="natural" v="water" />
		<tag k="ssr:stedsnr" v="465878" />
	</node>
	<node id="-206725" lat="68.8600277754" lon="15.677008344">
		<tag k="name" v="Krengelvasstjønna" />
		<tag k="natural" v="water" />
		<tag k="ssr:stedsnr" v="465872" />
	</node>
	<node id="-206711" lat="68.9706194446" lon="15.53342221">
		<tag k="name" v="Gammelgamvasselva" />
		<tag k="ssr:stedsnr" v="664956" />
		<tag k="waterway" v="stream" />
	</node>
	<node id="-206707" lat="69.0388083317" lon="15.7969388823">
		<tag k="name" v="Stampelva" />
		<tag k="ssr:stedsnr" v="662099" />
		<tag k="waterway" v="stream" />
	</node>
	<node id="-206706" lat="69.0389527824" lon="15.8545583313">
		<tag k="name" v="Sør-Finnåa" />
		<tag k="ssr:stedsnr" v="661450" />
		<tag k="waterway" v="stream" />
	</node>
	<node id="-206705" lat="69.0410027739" lon="15.8621555619">
		<tag k="name" v="Nord-Finnåa" />
		<tag k="ssr:stedsnr" v="661449" />
		<tag k="waterway" v="stream" />
	</node>
	<node id="-206697" lat="69.0810805568" lon="15.6396083367">
		<tag k="name" v="Ner-Finnkondalsvatnet" />
		<tag k="natural" v="water" />
		<tag k="ssr:stedsnr" v="423230" />
		<tag k="water" v="lake" />
	</node>
	<node id="-206696" lat="69.0737722192" lon="15.6493555437">
		<tag k="name" v="Øver-Finnkondalsvatnet" />
		<tag k="natural" v="water" />
		<tag k="ssr:stedsnr" v="423229" />
		<tag k="water" v="lake" />
	</node>
	<node id="-206695" lat="69.0856972256" lon="15.6352499992">
		<tag k="loc_name" v="Finnkondalselva" />
		<tag k="name" v="Finnkongdalselva" />
		<tag k="ssr:stedsnr" v="423225" />
		<tag k="waterway" v="stream" />
	</node>
	<node id="-206693" lat="69.0581750015" lon="15.7126750012">
		<tag k="name" v="Mølnbekken" />
		<tag k="ssr:stedsnr" v="423133" />
		<tag k="waterway" v="stream" />
	</node>
	<node id="-206689" lat="68.8861444406" lon="15.8108944455">
		<tag k="name" v="Vesterelva" />
		<tag k="ssr:stedsnr" v="420004" />
		<tag k="waterway" v="stream" />
	</node>
	<node id="-206688" lat="69.0787944463" lon="15.5893527895">
		<tag k="name" v="Skogrøstan" />
		<tag k="ssr:stedsnr" v="406811" />
		<tag k="waterway" v="stream" />
	</node>
	<node id="-206683" lat="69.1341444444" lon="15.8762694324">
		<tag k="name" v="Lægdsrabekken" />
		<tag k="ssr:stedsnr" v="406324" />
		<tag k="waterway" v="stream" />
	</node>
	<node id="-206665" lat="68.9812027775" lon="15.5800972146">
		<tag k="name" v="Stokkelva" />
		<tag k="ssr:stedsnr" v="503536" />
		<tag k="waterway" v="stream" />
	</node>
	<node id="-206658" lat="69.1215527758" lon="15.9166499905">
		<tag k="name" v="Gravrongbekken" />
		<tag k="ssr:stedsnr" v="503216" />
		<tag k="waterway" v="stream" />
	</node>
	<node id="-206655" lat="69.1250777824" lon="15.6867388854">
		<tag k="name" v="Melaelva" />
		<tag k="ssr:stedsnr" v="503194" />
		<tag k="waterway" v="river" />
	</node>
	<node id="-206650" lat="69.2239555553" lon="15.9233888938">
		<tag k="name" v="Grunnvatnet" />
		<tag k="natural" v="water" />
		<tag k="ssr:stedsnr" v="503168" />
	</node>
	<node id="-206649" lat="69.2157111147" lon="15.9853138834">
		<tag k="alt_name" v="Tindvatnet, nedre;Nedste-Tindvatnet" />
		<tag k="name" v="Nedre Tindvatnet" />
		<tag k="natural" v="water" />
		<tag k="ssr:stedsnr" v="503162" />
	</node>
	<node id="-206646" lat="69.2278499975" lon="16.0126999902">
		<tag k="name" v="Trolldalsvatnet" />
		<tag k="natural" v="water" />
		<tag k="ssr:stedsnr" v="503152" />
	</node>
	<node id="-206644" lat="68.857949998" lon="15.6718499913">
		<tag k="name" v="Trollvasselva" />
		<tag k="ssr:stedsnr" v="503051" />
		<tag k="waterway" v="stream" />
	</node>
	<node id="-206643" lat="69.0340666634" lon="15.6747277726">
		<tag k="name" v="Vakkerdalsvatnet" />
		<tag k="natural" v="water" />
		<tag k="ssr:stedsnr" v="503036" />
	</node>
	<node id="-206641" lat="69.1368027813" lon="15.7423888855">
		<tag k="alt_name" v="Gjertrudselva" />
		<tag k="name" v="Gjertrudelva" />
		<tag k="ssr:stedsnr" v="502216" />
		<tag k="waterway" v="stream" />
	</node>
	<node id="-206640" lat="69.1304888873" lon="15.7466250117">
		<tag k="name" v="Bjerkedalselva" />
		<tag k="ssr:stedsnr" v="502205" />
		<tag k="waterway" v="river" />
	</node>
	<node id="-206639" lat="69.0635944439" lon="15.5787638931">
		<tag k="name" v="Heielva" />
		<tag k="ssr:stedsnr" v="502360" />
		<tag k="waterway" v="stream" />
	</node>
	<node id="-206637" lat="69.0720638929" lon="15.5958194446">
		<tag k="name" v="Dalsvatnet" />
		<tag k="natural" v="water" />
		<tag k="ssr:stedsnr" v="502358" />
		<tag k="water" v="lake" />
	</node>
	<node id="-206631" lat="68.969597222" lon="15.5070027733">
		<tag k="name" v="Littje-Semsheivatnet" />
		<tag k="natural" v="water" />
		<tag k="ssr:stedsnr" v="361952" />
	</node>
	<node id="-206626" lat="69.1759249958" lon="15.9773166707">
		<tag k="name" v="Ramsåelva" />
		<tag k="ssr:stedsnr" v="360312" />
		<tag k="waterway" v="stream" />
	</node>
	<node id="-206624" lat="69.1127722234" lon="15.6505638826">
		<tag k="name" v="Svanholmen" />
		<tag k="place" v="islet" />
		<tag k="ssr:stedsnr" v="359011" />
	</node>
	<node id="-206621" lat="69.0217555592" lon="15.7856083245">
		<tag k="name" v="Tverrløkkbekken" />
		<tag k="ssr:stedsnr" v="358453" />
		<tag k="waterway" v="stream" />
	</node>
	<node id="-206618" lat="69.0255138911" lon="15.5990388909">
		<tag k="name" v="Gamhågbekken" />
		<tag k="ssr:stedsnr" v="345776" />
		<tag k="waterway" v="stream" />
	</node>
	<node id="-206611" lat="69.0981194468" lon="15.6326972277">
		<tag k="name" v="Larsneset" />
		<tag k="natural" v="cape" />
		<tag k="ssr:stedsnr" v="484236" />
	</node>
	<node id="-206607" lat="69.2442277771" lon="15.9673388848">
		<tag k="name" v="Størstelvvika" />
		<tag k="natural" v="bay" />
		<tag k="ssr:stedsnr" v="339595" />
	</node>
	<node id="-206606" lat="69.2442833297" lon="15.9143388975">
		<tag k="name" v="Austerbotn" />
		<tag k="natural" v="bay" />
		<tag k="ssr:stedsnr" v="339592" />
	</node>
	<node id="-206602" lat="69.0627833321" lon="15.6773166744">
		<tag k="name" v="Bendikbekken" />
		<tag k="ssr:stedsnr" v="483181" />
		<tag k="waterway" v="stream" />
	</node>
	<node id="-206601" lat="68.989480557" lon="15.5725666736">
		<tag k="name" v="Måstjønna" />
		<tag k="natural" v="water" />
		<tag k="ssr:stedsnr" v="482991" />
	</node>
	<node id="-206597" lat="69.1782194478" lon="16.0492944355">
		<tag k="name" v="Einholmen" />
		<tag k="natural" v="cape" />
		<tag k="ssr:stedsnr" v="482849" />
	</node>
	<node id="-206596" lat="69.1545083315" lon="15.9630333433">
		<tag k="name" v="Hella" />
		<tag k="natural" v="cape" />
		<tag k="ssr:stedsnr" v="482841" />
	</node>
	<node id="-206586" lat="69.2316555549" lon="15.9244972321">
		<tag k="name" v="Trolldalsvatnet" />
		<tag k="natural" v="water" />
		<tag k="ssr:stedsnr" v="321155" />
	</node>
	<node id="-206582" lat="69.0538249975" lon="15.7522138836">
		<tag k="name" v="Stortuvbekken" />
		<tag k="ssr:stedsnr" v="302166" />
		<tag k="waterway" v="stream" />
	</node>
	<node id="-206579" lat="69.0660277758" lon="15.6036555558">
		<tag k="name" v="Småklempelva" />
		<tag k="ssr:stedsnr" v="302226" />
		<tag k="waterway" v="stream" />
	</node>
	<node id="-206578" lat="69.1450611145" lon="16.0134916743">
		<tag k="name" v="Gangarbekken" />
		<tag k="ssr:stedsnr" v="301312" />
		<tag k="waterway" v="stream" />
	</node>
	<node id="-206572" lat="68.9387194458" lon="15.5667861067">
		<tag k="name" v="Kjørrbekken" />
		<tag k="ssr:stedsnr" v="300956" />
		<tag k="waterway" v="stream" />
	</node>
	<node id="-206567" lat="69.0276916711" lon="15.5264694336">
		<tag k="name" v="Folltjønna" />
>>>>>>> e1d4bc35ff8a6074a6f2e91616a996b547c36f15
		<tag k="natural" v="water" />
		<tag k="ssr:stedsnr" v="467784" />
	</node>
<<<<<<< HEAD
	<node lat="69.25144166263424" lon="16.02419444678305" id="-10619">
		<tag k="alt_name" v="Reinslitjørna" />
		<tag k="name" v="Reinstitjønna" />
		<tag k="natural" v="water" />
		<tag k="ssr:stedsnr" v="382218" />
	</node>
	<node lat="69.15450833151353" lon="15.963033343312613" id="-10623">
		<tag k="name" v="Hella" />
		<tag k="natural" v="cape" />
		<tag k="ssr:stedsnr" v="482841" />
	</node>
	<node lat="69.17821944782328" lon="16.049294435476646" id="-10624">
		<tag k="name" v="Einholmen" />
		<tag k="natural" v="cape" />
		<tag k="ssr:stedsnr" v="482849" />
	</node>
	<node lat="68.98948055700511" lon="15.572566673569979" id="-10632">
		<tag k="name" v="Måstjønna" />
		<tag k="natural" v="water" />
		<tag k="ssr:stedsnr" v="482991" />
	</node>
	<node lat="69.09811944684614" lon="15.632697227724497" id="-10638">
		<tag k="name" v="Larsneset" />
		<tag k="natural" v="cape" />
		<tag k="ssr:stedsnr" v="484236" />
	</node>
	<node lat="68.94416388499342" lon="15.640277788417015" id="-10645">
		<tag k="name" v="Harlinbekken" />
		<tag k="ssr:stedsnr" v="399505" />
		<tag k="waterway" v="stream" />
	</node>
	<node lat="68.83657777613438" lon="15.662666658098875" id="-10651">
		<tag k="name" v="Tverrelva" />
		<tag k="ssr:stedsnr" v="399994" />
		<tag k="waterway" v="stream" />
	</node>
	<node lat="69.24317221847164" lon="15.955633344121596" id="-10653">
		<tag k="name" v="Dalbukta" />
		<tag k="natural" v="bay" />
		<tag k="ssr:stedsnr" v="400631" />
	</node>
	<node lat="68.89896666837747" lon="15.676280558594861" id="-10657">
		<tag k="name" v="Storvasselva" />
		<tag k="ssr:stedsnr" v="404179" />
		<tag k="waterway" v="river" />
	</node>
	<node lat="69.07879444631796" lon="15.58935278945294" id="-10662">
		<tag k="name" v="Skogrøstan" />
		<tag k="ssr:stedsnr" v="406811" />
		<tag k="waterway" v="stream" />
	</node>
	<node lat="68.88614444059975" lon="15.810894445489488" id="-10664">
		<tag k="name" v="Vesterelva" />
		<tag k="ssr:stedsnr" v="420004" />
		<tag k="waterway" v="stream" />
	</node>
	<node lat="69.04603610914593" lon="15.819677780662042" id="-10666">
		<tag k="name" v="Vasskjeften" />
		<tag k="natural" v="bay" />
		<tag k="ssr:stedsnr" v="420090" />
	</node>
	<node lat="69.05440555296217" lon="15.78281667405162" id="-10669">
		<tag k="name" v="Tjukkeskogneset" />
		<tag k="natural" v="cape" />
		<tag k="ssr:stedsnr" v="420098" />
	</node>
	<node lat="69.29191666706272" lon="16.106294446604224" id="-10672">
		<tag k="name" v="Haugneselva" />
		<tag k="ssr:stedsnr" v="422794" />
		<tag k="waterway" v="stream" />
	</node>
	<node lat="69.2030722197731" lon="16.089941671851033" id="-10674">
		<tag k="alt_name" v="Stiksåa" />
		<tag k="name" v="Stikksåa" />
		<tag k="ssr:stedsnr" v="442208" />
		<tag k="waterway" v="river" />
	</node>
	<node lat="69.21230555834451" lon="15.89292221989496" id="-10675">
		<tag k="name" v="Skogelva" />
		<tag k="ssr:stedsnr" v="442211" />
		<tag k="waterway" v="river" />
	</node>
	<node lat="69.01208333135611" lon="15.574730542959104" id="-10681">
		<tag k="alt_name" v="Tverrholtjørna" />
		<tag k="name" v="Tverrholtjønna" />
		<tag k="natural" v="water" />
		<tag k="ssr:stedsnr" v="442344" />
	</node>
	<node lat="68.91881110925361" lon="15.651777767243566" id="-10684">
		<tag k="name" v="Dalvatnet" />
		<tag k="natural" v="water" />
		<tag k="ssr:stedsnr" v="442439" />
	</node>
	<node lat="68.93554166636731" lon="15.561966663331086" id="-10691">
		<tag k="name" v="Grindelva" />
		<tag k="ssr:stedsnr" v="443606" />
		<tag k="waterway" v="stream" />
	</node>
	<node lat="68.92149167045878" lon="15.62571943706832" id="-10693">
=======
	<node id="-206551" lat="69.0512472254" lon="15.5781361187">
		<tag k="name" v="Littje-Aurtjønna" />
		<tag k="natural" v="water" />
		<tag k="ssr:stedsnr" v="285757" />
	</node>
	<node id="-206545" lat="69.2894361154" lon="16.060047212">
		<tag k="name" v="Tverrelva" />
		<tag k="ssr:stedsnr" v="461859" />
		<tag k="waterway" v="stream" />
	</node>
	<node id="-206543" lat="69.2404999958" lon="15.9555166719">
		<tag k="name" v="Dalbekken" />
		<tag k="ssr:stedsnr" v="461662" />
		<tag k="waterway" v="stream" />
	</node>
	<node id="-206542" lat="69.2018277761" lon="16.0580777866">
		<tag k="name" v="Jokumbekken" />
		<tag k="ssr:stedsnr" v="461589" />
		<tag k="waterway" v="stream" />
	</node>
	<node id="-206539" lat="68.8530555599" lon="15.5993222202">
		<tag k="name" v="Medbyelva" />
		<tag k="ssr:stedsnr" v="460969" />
		<tag k="waterway" v="river" />
	</node>
	<node id="-206538" lat="69.2040666679" lon="16.0818888995">
		<tag k="name" v="Jokumbekken" />
		<tag k="ssr:stedsnr" v="460944" />
		<tag k="waterway" v="stream" />
	</node>
	<node id="-206535" lat="69.2664444449" lon="15.9297777853">
		<tag k="name" v="Heimste-Steinsvatnet" />
		<tag k="natural" v="water" />
		<tag k="ssr:stedsnr" v="460642" />
		<tag k="water" v="lake" />
	</node>
	<node id="-206531" lat="68.9954083378" lon="15.6334694404">
		<tag k="name" v="Nordgårdsbekken" />
		<tag k="ssr:stedsnr" v="460571" />
		<tag k="waterway" v="stream" />
	</node>
	<node id="-206530" lat="69.0192694412" lon="15.7251527722">
		<tag k="name" v="Gjølbekken" />
		<tag k="ssr:stedsnr" v="460566" />
		<tag k="waterway" v="stream" />
	</node>
	<node id="-206529" lat="69.1337361119" lon="15.7340833406">
		<tag k="name" v="Hektholelva" />
		<tag k="ssr:stedsnr" v="460505" />
		<tag k="waterway" v="stream" />
	</node>
	<node id="-206518" lat="68.884699998" lon="15.6473638779">
		<tag k="name" v="Gressneset" />
		<tag k="natural" v="cape" />
		<tag k="ssr:stedsnr" v="278259" />
	</node>
	<node id="-206517" lat="69.2628472249" lon="16.050397216">
		<tag k="alt_name" v="Ner-Æråsvatnet;Æråsvatnet, nedre" />
		<tag k="name" v="Nedre Æråsvatnet" />
		<tag k="natural" v="water" />
		<tag k="ssr:stedsnr" v="261221" />
		<tag k="water" v="lake" />
	</node>
	<node id="-206516" lat="69.2576444396" lon="15.9511861204">
		<tag k="name" v="Gåsøya" />
		<tag k="natural" v="cape" />
		<tag k="ssr:stedsnr" v="261216" />
	</node>
	<node id="-206511" lat="69.226911112" lon="15.9391527863">
		<tag k="alt_name" v="Røysettbekken" />
		<tag k="name" v="Røysetbekken" />
		<tag k="ssr:stedsnr" v="260223" />
		<tag k="waterway" v="stream" />
	</node>
	<node id="-206507" lat="69.089583334" lon="15.6417888884">
		<tag k="name" v="Seljordnesan" />
		<tag k="natural" v="cape" />
		<tag k="ssr:stedsnr" v="241210" />
	</node>
	<node id="-206506" lat="69.1217972213" lon="15.6563138772">
		<tag k="name" v="Kalvenesan" />
		<tag k="natural" v="cape" />
		<tag k="ssr:stedsnr" v="241015" />
	</node>
	<node id="-206500" lat="68.9214916705" lon="15.6257194371">
>>>>>>> e1d4bc35ff8a6074a6f2e91616a996b547c36f15
		<tag k="name" v="Sørelva" />
		<tag k="ssr:stedsnr" v="446496" />
		<tag k="waterway" v="stream" />
	</node>
<<<<<<< HEAD
	<node lat="69.1337361118608" lon="15.734083340562117" id="-10699">
		<tag k="name" v="Hektholelva" />
		<tag k="ssr:stedsnr" v="460505" />
		<tag k="waterway" v="stream" />
	</node>
	<node lat="68.85305555994242" lon="15.59932222024251" id="-10703">
		<tag k="name" v="Medbyelva" />
		<tag k="ssr:stedsnr" v="460969" />
		<tag k="waterway" v="river" />
	</node>
	<node lat="69.2404999958089" lon="15.95551667187876" id="-10704">
		<tag k="name" v="Dalbekken" />
		<tag k="ssr:stedsnr" v="461662" />
		<tag k="waterway" v="stream" />
	</node>
	<node lat="69.28943611537925" lon="16.060047211967188" id="-10706">
		<tag k="name" v="Tverrelva" />
		<tag k="ssr:stedsnr" v="461859" />
		<tag k="waterway" v="stream" />
	</node>
	<node lat="68.86002777544094" lon="15.677008344017569" id="-10710">
		<tag k="name" v="Krengelvasstjønna" />
		<tag k="natural" v="water" />
		<tag k="ssr:stedsnr" v="465872" />
	</node>
	<node lat="68.85634166592257" lon="15.72956110085583" id="-10712">
		<tag k="name" v="Øver-Ressmålsvatnet" />
		<tag k="natural" v="water" />
		<tag k="ssr:stedsnr" v="465878" />
	</node>
	<node lat="69.0276916710847" lon="15.526469433566238" id="-10719">
		<tag k="name" v="Folltjønna" />
		<tag k="natural" v="water" />
		<tag k="ssr:stedsnr" v="467784" />
	</node>
	<node lat="69.059349998362" lon="15.770780564299862" id="-10722">
		<tag k="name" v="Elveneset" />
		<tag k="natural" v="cape" />
		<tag k="ssr:stedsnr" v="480102" />
	</node>
	<node lat="69.06278333206598" lon="15.677316674366507" id="-10724">
		<tag k="name" v="Bendikbekken" />
		<tag k="ssr:stedsnr" v="483181" />
		<tag k="waterway" v="stream" />
	</node>
	<node lat="69.05562778211512" lon="15.688652780296641" id="-10725">
		<tag k="name" v="Gråtarbekken" />
		<tag k="ssr:stedsnr" v="484108" />
		<tag k="waterway" v="stream" />
	</node>
	<node lat="69.13048888725002" lon="15.746625011693856" id="-10728">
		<tag k="name" v="Bjerkedalselva" />
		<tag k="ssr:stedsnr" v="502205" />
		<tag k="waterway" v="river" />
	</node>
	<node lat="69.13680278128363" lon="15.742388885536759" id="-10729">
		<tag k="alt_name" v="Gjertrudselva" />
		<tag k="name" v="Gjertrudelva" />
		<tag k="ssr:stedsnr" v="502216" />
		<tag k="waterway" v="stream" />
	</node>
	<node lat="69.17499166587282" lon="15.872338893318975" id="-10731">
		<tag k="alt_name" v="Smågbekken" />
		<tag k="name" v="Smogbekken" />
		<tag k="ssr:stedsnr" v="503122" />
		<tag k="waterway" v="stream" />
	</node>
	<node lat="69.03406666340844" lon="15.674727772556468" id="-10732">
		<tag k="name" v="Vakkerdalsvatnet" />
		<tag k="natural" v="water" />
		<tag k="ssr:stedsnr" v="503036" />
	</node>
	<node lat="69.03474999582758" lon="15.697088884834745" id="-10742">
		<tag k="alt_name" v="Nupvatnet, øvre;Øver-Nupvatnet" />
		<tag k="name" v="Øvre Nupvatnet" />
		<tag k="natural" v="water" />
		<tag k="ssr:stedsnr" v="685043" />
		<tag k="water" v="lake" />
	</node>
	<node lat="68.85468610814989" lon="15.66331944554053" id="-10743">
		<tag k="name" v="Trollvatnet" />
		<tag k="natural" v="water" />
		<tag k="ssr:stedsnr" v="685049" />
	</node>
	<node lat="69.00601389363517" lon="15.674544436201261" id="-10746">
		<tag k="name" v="Andersåa" />
		<tag k="ssr:stedsnr" v="685058" />
		<tag k="waterway" v="stream" />
	</node>
	<node lat="68.90488055417681" lon="15.536291672239086" id="-10749">
		<tag k="name" v="Danielneset" />
		<tag k="natural" v="cape" />
		<tag k="ssr:stedsnr" v="520962" />
	</node>
	<node lat="69.06186666824779" lon="15.852566676266381" id="-10753">
		<tag k="name" v="Kjerringtjønna" />
		<tag k="natural" v="water" />
		<tag k="ssr:stedsnr" v="521266" />
	</node>
	<node lat="69.09562778181936" lon="15.9098638913751" id="-10765">
		<tag k="alt_name" v="Bardåa;Baråelva" />
		<tag k="name" v="Baråa" />
		<tag k="ssr:stedsnr" v="685182" />
		<tag k="waterway" v="stream" />
	</node>
	<node lat="69.0833972222361" lon="15.727274992809159" id="-10766">
		<tag k="name" v="Grunnvatnet" />
		<tag k="natural" v="water" />
		<tag k="ssr:stedsnr" v="685184" />
		<tag k="water" v="lake" />
	</node>
	<node lat="69.1201861130888" lon="15.83945276539319" id="-10770">
		<tag k="name" v="Oklvatnet" />
		<tag k="natural" v="water" />
		<tag k="ssr:stedsnr" v="685231" />
	</node>
	<node lat="69.04754444753304" lon="15.613347218911922" id="-10779">
		<tag k="name" v="Røyrbekken" />
		<tag k="ssr:stedsnr" v="685334" />
		<tag k="waterway" v="stream" />
	</node>
	<node lat="68.88116944437301" lon="15.653627788573674" id="-10780">
		<tag k="name" v="Kringvasselva" />
		<tag k="ssr:stedsnr" v="685431" />
		<tag k="waterway" v="stream" />
	</node>
	<node lat="68.93140000329126" lon="15.501016660474033" id="-10783">
		<tag k="name" v="Trollvatnet" />
		<tag k="natural" v="water" />
		<tag k="ssr:stedsnr" v="685626" />
	</node>
	<node lat="69.09939722041908" lon="15.857244433822697" id="-10792">
		<tag k="name" v="Vesterbekken" />
		<tag k="ssr:stedsnr" v="527294" />
		<tag k="waterway" v="stream" />
	</node>
	<node lat="69.00800555559066" lon="15.615172216958136" id="-10816">
		<tag k="name" v="Einarslettbekken" />
		<tag k="ssr:stedsnr" v="581352" />
		<tag k="waterway" v="stream" />
	</node>
	<node lat="68.95013888659615" lon="15.63933054391663" id="-10820">
		<tag k="name" v="Elvetjønna" />
		<tag k="natural" v="water" />
		<tag k="ssr:stedsnr" v="581512" />
	</node>
	<node lat="69.26734722387594" lon="15.944827768562785" id="-10821">
		<tag k="name" v="Bukkevatnet" />
		<tag k="natural" v="water" />
		<tag k="ssr:stedsnr" v="581605" />
	</node>
	<node lat="69.25859722241896" lon="15.941105542937548" id="-10824">
		<tag k="name" v="Mjåsundholmen" />
		<tag k="place" v="islet" />
		<tag k="ssr:stedsnr" v="582645" />
	</node>
	<node lat="69.25375278045293" lon="15.92791943488078" id="-10825">
		<tag k="name" v="Breidalselva" />
		<tag k="ssr:stedsnr" v="582646" />
		<tag k="waterway" v="stream" />
	</node>
	<node lat="69.24394721827467" lon="16.085466667135595" id="-10827">
		<tag k="name" v="Tverrbekken" />
		<tag k="ssr:stedsnr" v="582917" />
		<tag k="waterway" v="stream" />
	</node>
	<node lat="69.18181110744199" lon="15.831763897890525" id="-10831">
		<tag k="name" v="Steintjønnsbekken" />
		<tag k="ssr:stedsnr" v="588304" />
		<tag k="waterway" v="stream" />
	</node>
	<node lat="69.05184166714865" lon="15.794330562156587" id="-10841">
		<tag k="name" v="Holbekkneset" />
		<tag k="natural" v="cape" />
		<tag k="ssr:stedsnr" v="601103" />
	</node>
	<node lat="68.95246666479063" lon="15.574874988299912" id="-10844">
		<tag k="name" v="Tjønnbekken" />
		<tag k="ssr:stedsnr" v="603965" />
		<tag k="waterway" v="stream" />
	</node>
	<node lat="69.10545000347125" lon="15.71692777553505" id="-10847">
		<tag k="name" v="Etjønna" />
		<tag k="natural" v="water" />
		<tag k="ssr:stedsnr" v="605250" />
	</node>
	<node lat="69.09078333163197" lon="15.630124992742383" id="-10849">
		<tag k="name" v="Feskeholmen" />
		<tag k="place" v="islet" />
		<tag k="ssr:stedsnr" v="605266" />
	</node>
	<node lat="69.0206666657168" lon="15.538588889873317" id="-10862">
		<tag k="alt_name" v="Stamptjørna" />
		<tag k="name" v="Stampetjønna" />
		<tag k="natural" v="water" />
		<tag k="ssr:stedsnr" v="624372" />
	</node>
	<node lat="69.06667499704385" lon="15.569013889698025" id="-10863">
		<tag k="name" v="Lusvatnet" />
		<tag k="natural" v="water" />
		<tag k="ssr:stedsnr" v="624377" />
	</node>
	<node lat="68.8933305588981" lon="15.503788878712625" id="-10864">
		<tag k="name" v="Laneselva" />
		<tag k="ssr:stedsnr" v="702982" />
		<tag k="waterway" v="stream" />
	</node>
	<node lat="68.90427222481743" lon="15.82169167156829" id="-10865">
		<tag k="alt_name" v="Bleiksvatnet" />
		<tag k="name" v="Bleksvatnet" />
		<tag k="natural" v="water" />
		<tag k="ssr:stedsnr" v="624462" />
		<tag k="water" v="lake" />
	</node>
	<node lat="68.96766388653916" lon="15.47113055630755" id="-10866">
		<tag k="name" v="Storvatnet" />
		<tag k="natural" v="water" />
		<tag k="ssr:stedsnr" v="624603" />
	</node>
	<node lat="68.97750833560603" lon="15.494147221992977" id="-10867">
		<tag k="name" v="Durmålsvatnet" />
		<tag k="natural" v="water" />
		<tag k="ssr:stedsnr" v="624612" />
	</node>
	<node lat="69.09936111304062" lon="15.887611101038438" id="-10885">
		<tag k="name" v="Hillesåa" />
		<tag k="ssr:stedsnr" v="642225" />
		<tag k="waterway" v="stream" />
	</node>
	<node lat="68.95153611350106" lon="15.659055552257577" id="-10886">
		<tag k="name" v="Kvitsandtjønna" />
		<tag k="natural" v="water" />
		<tag k="ssr:stedsnr" v="642414" />
	</node>
	<node lat="69.26305277941988" lon="16.082474989977023" id="-10892">
		<tag k="name" v="Nordvassosen" />
		<tag k="natural" v="bay" />
		<tag k="ssr:stedsnr" v="642925" />
	</node>
	<node lat="68.94565833663033" lon="15.443397221277595" id="-10898">
		<tag k="name" v="Norddalselva" />
		<tag k="ssr:stedsnr" v="646612" />
		<tag k="waterway" v="stream" />
	</node>
	<node lat="69.08348333262165" lon="15.595327779476275" id="-10903">
		<tag k="name" v="Aunbekken" />
		<tag k="ssr:stedsnr" v="648794" />
		<tag k="waterway" v="stream" />
	</node>
	<node lat="68.89374444082111" lon="15.674130547089625" id="-10904">
		<tag k="name" v="Ol-Andreasbekken" />
		<tag k="ssr:stedsnr" v="707192" />
		<tag k="waterway" v="stream" />
	</node>
	<node lat="68.90109443997716" lon="15.684436120466343" id="-10905">
		<tag k="name" v="Storvassholmen" />
		<tag k="place" v="islet" />
		<tag k="ssr:stedsnr" v="707199" />
	</node>
	<node lat="68.91353888649817" lon="15.549055542161502" id="-10908">
		<tag k="name" v="Håkjerringbekken" />
		<tag k="ssr:stedsnr" v="707900" />
		<tag k="waterway" v="stream" />
	</node>
	<node lat="69.0388083316616" lon="15.796938882285174" id="-10912">
		<tag k="name" v="Stampelva" />
		<tag k="ssr:stedsnr" v="662099" />
		<tag k="waterway" v="stream" />
	</node>
	<node lat="69.16864722588228" lon="15.84988610055841" id="-10916">
		<tag k="name" v="Snarsettjønna" />
		<tag k="natural" v="water" />
		<tag k="ssr:stedsnr" v="709322" />
	</node>
	<node lat="69.044936111158" lon="15.732063885924369" id="-10919">
		<tag k="alt_name" v="Tækndalselva" />
		<tag k="name" v="Teknedalselva" />
		<tag k="ssr:stedsnr" v="665139" />
		<tag k="waterway" v="stream" />
	</node>
	<node lat="69.04231666741697" lon="15.756705567922056" id="-10920">
		<tag k="alt_name" v="Tækndalstjønna" />
		<tag k="name" v="Teknedalstjønna" />
		<tag k="natural" v="water" />
		<tag k="ssr:stedsnr" v="665303" />
	</node>
	<node lat="69.13653333415779" lon="15.77116389845837" id="-10942">
		<tag k="name" v="Teppelva" />
		<tag k="ssr:stedsnr" v="892289" />
		<tag k="waterway" v="stream" />
	</node>
	<node lat="69.13101944534979" lon="16.01417777151568" id="-10951">
		<tag k="alt_name" v="Bogstjørna" />
		<tag k="name" v="Bogstjønna" />
		<tag k="natural" v="water" />
		<tag k="ssr:stedsnr" v="685205" />
	</node>
	<node lat="69.2516777816541" lon="15.951733327823662" id="-10957">
		<tag k="fixme" v="multiple name tags, choose one and add the other to alt_name" />
		<tag k="name" v="Bleiksvatnet;Storvatnet" />
		<tag k="natural" v="water" />
		<tag k="old_name" v="Bleikvatnet" />
		<tag k="ssr:stedsnr" v="685310" />
		<tag k="water" v="lake" />
	</node>
	<node lat="69.06510277880815" lon="15.591391655873696" id="-10962">
		<tag k="alt_name" v="Heitjørna" />
		<tag k="name" v="Heitjønna" />
		<tag k="natural" v="water" />
		<tag k="ssr:stedsnr" v="685347" />
	</node>
	<node lat="68.95785833262214" lon="15.733916676028537" id="-10974">
		<tag k="name" v="Sandbekken" />
		<tag k="ssr:stedsnr" v="702082" />
		<tag k="waterway" v="stream" />
	</node>
	<node lat="69.01994722197766" lon="15.746874994113941" id="-10975">
		<tag k="name" v="Mulelva" />
		<tag k="ssr:stedsnr" v="702429" />
		<tag k="waterway" v="stream" />
	</node>
	<node lat="69.20632500166448" lon="15.871397214828717" id="-10986">
		<tag k="name" v="Laksneset" />
		<tag k="natural" v="cape" />
		<tag k="ssr:stedsnr" v="703913" />
	</node>
	<node lat="68.9340305558216" lon="15.746163895685036" id="-11000">
		<tag k="name" v="Krokelva" />
		<tag k="ssr:stedsnr" v="707873" />
		<tag k="waterway" v="stream" />
	</node>
	<node lat="68.92016666902973" lon="15.70065000941956" id="-11001">
		<tag k="name" v="Skjellbekken" />
		<tag k="ssr:stedsnr" v="707876" />
		<tag k="waterway" v="stream" />
	</node>
	<node lat="69.06743888846123" lon="15.597874995748114" id="-11003">
		<tag k="name" v="Sivtjønna" />
		<tag k="natural" v="bay" />
		<tag k="ssr:stedsnr" v="709785" />
	</node>
	<node lat="69.24738333300046" lon="16.071044434607245" id="-11008">
		<tag k="name" v="Tverrbekken" />
		<tag k="ssr:stedsnr" v="725812" />
		<tag k="waterway" v="stream" />
	</node>
	<node lat="68.93993888604935" lon="15.541930547718975" id="-11014">
		<tag k="name" v="Høgtindbekken" />
		<tag k="ssr:stedsnr" v="725974" />
		<tag k="waterway" v="stream" />
	</node>
	<node lat="69.02477777815528" lon="15.716222210824867" id="-11016">
		<tag k="name" v="Tverrbekken" />
		<tag k="ssr:stedsnr" v="726287" />
		<tag k="waterway" v="stream" />
	</node>
	<node lat="69.07671666729419" lon="15.733149997431576" id="-11018">
		<tag k="name" v="Grunnvasselva" />
		<tag k="ssr:stedsnr" v="727216" />
		<tag k="waterway" v="stream" />
	</node>
	<node lat="69.23098610995129" lon="16.061191667224453" id="-11021">
		<tag k="name" v="Storvatnet" />
		<tag k="natural" v="water" />
		<tag k="ssr:stedsnr" v="745189" />
		<tag k="water" v="lake" />
	</node>
	<node lat="69.22926111302915" lon="16.03811111806324" id="-11022">
		<tag k="alt_name" v="Dalelva" />
		<tag k="name" v="Daleelva" />
		<tag k="ssr:stedsnr" v="745190" />
		<tag k="waterway" v="stream" />
	</node>
	<node lat="68.91098333320222" lon="15.517561115856445" id="-11025">
		<tag k="alt_name" v="Brynneldalsvatnet" />
		<tag k="name" v="Brynlidalsvatnet" />
		<tag k="natural" v="water" />
		<tag k="ssr:stedsnr" v="745674" />
	</node>
	<node lat="68.90991666367482" lon="15.47928889158852" id="-11026">
		<tag k="alt_name" v="Storvatnet" />
		<tag k="name" v="Dalsvatnet" />
		<tag k="natural" v="water" />
		<tag k="ssr:stedsnr" v="745676" />
	</node>
	<node lat="68.80942499831134" lon="15.697530553661549" id="-11027">
		<tag k="name" v="Forfjordelva" />
		<tag k="ssr:stedsnr" v="746118" />
		<tag k="waterway" v="river" />
	</node>
	<node lat="69.25791666698434" lon="15.958838886851744" id="-11029">
		<tag k="alt_name" v="Gåsøytjørna" />
		<tag k="name" v="Gåsøytjønna" />
		<tag k="natural" v="water" />
		<tag k="ssr:stedsnr" v="746214" />
	</node>
	<node lat="69.26768611459431" lon="16.027033328264324" id="-11031">
		<tag k="alt_name" v="Møskjevatnet" />
		<tag k="name" v="Møsjevatnet" />
		<tag k="natural" v="water" />
		<tag k="ssr:stedsnr" v="746221" />
	</node>
	<node lat="68.86399166471294" lon="15.575238882570567" id="-11038">
		<tag k="name" v="Forneselva" />
		<tag k="ssr:stedsnr" v="763954" />
		<tag k="waterway" v="river" />
	</node>
	<node lat="68.88607222641971" lon="15.635713879493967" id="-11043">
		<tag k="name" v="Teinelva" />
		<tag k="ssr:stedsnr" v="764206" />
		<tag k="waterway" v="river" />
	</node>
	<node lat="69.21328055636914" lon="15.870186111298619" id="-11051">
		<tag k="name" v="Stråvatnet" />
		<tag k="natural" v="water" />
		<tag k="ssr:stedsnr" v="764915" />
	</node>
	<node lat="69.20139166445756" lon="16.103083329001468" id="-11063">
		<tag k="name" v="Tørrtjønnan" />
		<tag k="natural" v="water" />
		<tag k="ssr:stedsnr" v="907799" />
		<tag k="water" v="lake" />
	</node>
	<node lat="69.04592778046533" lon="15.510669433052314" id="-11067">
		<tag k="name" v="Gorrtjønna" />
		<tag k="natural" v="water" />
		<tag k="ssr:stedsnr" v="907950" />
	</node>
	<node lat="69.02988056030384" lon="15.777811105562915" id="-11074">
		<tag k="name" v="Nord-Sætersbekken" />
		<tag k="ssr:stedsnr" v="783461" />
		<tag k="waterway" v="stream" />
	</node>
	<node lat="69.04698611384744" lon="15.787236113279752" id="-11077">
		<tag k="name" v="Langneset" />
		<tag k="natural" v="cape" />
		<tag k="ssr:stedsnr" v="784111" />
	</node>
	<node lat="69.28743610807241" lon="16.161808344009696" id="-11079">
		<tag k="name" v="Haugneselva" />
		<tag k="ssr:stedsnr" v="786808" />
		<tag k="waterway" v="stream" />
	</node>
	<node lat="68.9046111123371" lon="15.443047212444585" id="-11087">
		<tag k="name" v="Hestebekken" />
		<tag k="ssr:stedsnr" v="824022" />
		<tag k="waterway" v="stream" />
	</node>
	<node lat="68.89433888602633" lon="15.668800000923724" id="-11100">
		<tag k="name" v="Finnholmen" />
		<tag k="natural" v="cape" />
		<tag k="ssr:stedsnr" v="829170" />
	</node>
	<node lat="68.82547500140852" lon="15.746955560836858" id="-11104">
		<tag k="name" v="Knurrvasselva" />
		<tag k="ssr:stedsnr" v="829869" />
		<tag k="waterway" v="stream" />
	</node>
	<node lat="69.18104444599274" lon="15.827425005572797" id="-11106">
		<tag k="name" v="Benstjønna" />
		<tag k="natural" v="water" />
		<tag k="ssr:stedsnr" v="831311" />
	</node>
	<node lat="69.24498889221519" lon="16.069308333499837" id="-11118">
		<tag k="name" v="Sommarbekken" />
		<tag k="ssr:stedsnr" v="847853" />
		<tag k="waterway" v="stream" />
	</node>
	<node lat="69.10366667050717" lon="15.648308331004952" id="-11127">
		<tag k="alt_name" v="Nattmålstjørna" />
		<tag k="name" v="Nattmålstjønna" />
		<tag k="natural" v="water" />
		<tag k="ssr:stedsnr" v="927252" />
	</node>
	<node lat="68.84573610783124" lon="15.75717221541943" id="-11130">
		<tag k="name" v="Finnsæterelva" />
		<tag k="ssr:stedsnr" v="928028" />
		<tag k="waterway" v="stream" />
	</node>
	<node lat="68.8615361094016" lon="15.751499996578893" id="-11133">
		<tag k="name" v="Magervatnet" />
		<tag k="natural" v="water" />
		<tag k="ssr:stedsnr" v="928047" />
	</node>
	<node lat="68.80298055159406" lon="15.732247225283986" id="-11134">
		<tag k="name" v="Finnjonsabekken" />
		<tag k="ssr:stedsnr" v="928089" />
		<tag k="waterway" v="stream" />
	</node>
	<node lat="69.19561388501447" lon="15.958166661275806" id="-11135">
		<tag k="fixme" v="multiple name tags, choose one and add the other to alt_name" />
		<tag k="name" v="Ramsanakkvatnet;Feskelausvatnet;Høgfjellvatnet" />
		<tag k="natural" v="water" />
		<tag k="ssr:stedsnr" v="928116" />
	</node>
	<node lat="69.15623889074568" lon="15.9580500070983" id="-11138">
		<tag k="name" v="Sauravatnet" />
		<tag k="natural" v="water" />
		<tag k="ssr:stedsnr" v="928133" />
		<tag k="water" v="lake" />
	</node>
	<node lat="69.22715555895252" lon="16.072677789056335" id="-11140">
		<tag k="alt_name" v="Kroktjørna" />
		<tag k="name" v="Kroktjønna" />
		<tag k="natural" v="water" />
		<tag k="ssr:stedsnr" v="928141" />
	</node>
	<node lat="69.08123888871839" lon="15.808269450658948" id="-11146">
		<tag k="alt_name" v="Småtindsvatnan" />
		<tag k="name" v="Småtindvatnan" />
		<tag k="natural" v="water" />
		<tag k="ssr:stedsnr" v="928188" />
		<tag k="water" v="lake" />
	</node>
	<node lat="69.27326666441452" lon="16.10676112070721" id="-11147">
		<tag k="alt_name" v="Lomstjørna" />
		<tag k="name" v="Lomtjønna" />
		<tag k="natural" v="water" />
		<tag k="ssr:stedsnr" v="928212" />
	</node>
	<node lat="68.88509722183395" lon="15.643588879773628" id="-11149">
		<tag k="name" v="Teinvatnet" />
		<tag k="natural" v="water" />
		<tag k="ssr:stedsnr" v="928429" />
	</node>
	<node lat="68.91371666759777" lon="15.468486104767498" id="-11155">
		<tag k="name" v="Litlevatnet" />
		<tag k="place" v="locality" />
		<tag k="ssr:stedsnr" v="928620" />
	</node>
	<node lat="68.97501667007569" lon="15.468588901281818" id="-11158">
		<tag k="alt_name" v="Littjevatnet" />
		<tag k="name" v="Litlevatnet" />
		<tag k="natural" v="water" />
		<tag k="ssr:stedsnr" v="928579" />
	</node>
	<node lat="68.89644166410777" lon="15.498233328228345" id="-11161">
		<tag k="alt_name" v="Nermarskvatnet" />
		<tag k="fixme" v="multiple name tags, choose one and add the other to alt_name" />
		<tag k="name" v="Nermarkvatnet;Overmarkvatnet" />
		<tag k="natural" v="water" />
		<tag k="ssr:stedsnr" v="928662" />
	</node>
	<node lat="69.18748055502111" lon="16.035288894851423" id="-11164">
		<tag k="name" v="Nordelva" />
		<tag k="ssr:stedsnr" v="868103" />
		<tag k="waterway" v="river" />
	</node>
	<node lat="69.04272499952089" lon="15.540258334180871" id="-11165">
		<tag k="name" v="Bøelva" />
		<tag k="ssr:stedsnr" v="868107" />
		<tag k="waterway" v="river" />
	</node>
	<node lat="69.26081666811386" lon="15.913366675749014" id="-11166">
		<tag k="name" v="Solsvatnet" />
		<tag k="natural" v="water" />
		<tag k="ssr:stedsnr" v="868206" />
	</node>
	<node lat="69.01572499869769" lon="15.697711114684566" id="-11170">
		<tag k="name" v="Alterbekken" />
		<tag k="ssr:stedsnr" v="885518" />
		<tag k="waterway" v="stream" />
	</node>
	<node lat="68.90778333010154" lon="15.545574995778153" id="-11173">
		<tag k="name" v="Mølnelva" />
		<tag k="ssr:stedsnr" v="885919" />
		<tag k="waterway" v="river" />
	</node>
	<node lat="69.11474444768771" lon="15.668969442278957" id="-11189">
		<tag k="name" v="Steinneset" />
		<tag k="natural" v="cape" />
		<tag k="ssr:stedsnr" v="905013" />
	</node>
	<node lat="69.24949722562458" lon="16.014769442562564" id="-11192">
		<tag k="name" v="Trolldalselva" />
		<tag k="ssr:stedsnr" v="907812" />
		<tag k="waterway" v="stream" />
	</node>
	<node lat="69.15894166454693" lon="15.957486117189113" id="-11193">
		<tag k="name" v="Littjeneset" />
		<tag k="natural" v="cape" />
		<tag k="ssr:stedsnr" v="907817" />
	</node>
	<node lat="69.00874999828892" lon="15.470808338985025" id="-11196">
		<tag k="name" v="Mannratjønna" />
		<tag k="natural" v="water" />
		<tag k="ssr:stedsnr" v="907961" />
	</node>
	<node lat="69.01200000096303" lon="15.59646945652641" id="-11198">
		<tag k="name" v="Einebærholtjønna" />
		<tag k="natural" v="water" />
		<tag k="ssr:stedsnr" v="907974" />
	</node>
	<node lat="69.13997778069613" lon="15.933805544452111" id="-11200">
		<tag k="name" v="Valan" />
		<tag k="natural" v="bay" />
		<tag k="ssr:stedsnr" v="908358" />
	</node>
	<node lat="69.11764721923763" lon="15.741938881444048" id="-11205">
		<tag k="name" v="Steinvasselva" />
		<tag k="ssr:stedsnr" v="927268" />
		<tag k="waterway" v="stream" />
	</node>
	<node lat="69.01065278143531" lon="15.666447217411855" id="-11206">
		<tag k="alt_name" v="Litlevatnet" />
		<tag k="name" v="Littjevatnet" />
=======
	<node id="-206496" lat="68.9355416664" lon="15.5619666633">
		<tag k="name" v="Grindelva" />
		<tag k="ssr:stedsnr" v="443606" />
		<tag k="waterway" v="stream" />
	</node>
	<node id="-206493" lat="69.2639611122" lon="16.0214444528">
		<tag k="alt_name" v="Møskjebekken" />
		<tag k="name" v="Møsjebekken" />
		<tag k="ssr:stedsnr" v="443230" />
		<tag k="waterway" v="stream" />
	</node>
	<node id="-206492" lat="69.1438583379" lon="15.9194972133">
		<tag k="alt_name" v="Øvrevatnet" />
		<tag k="name" v="Øvervatnet" />
		<tag k="natural" v="water" />
		<tag k="ssr:stedsnr" v="443227" />
	</node>
	<node id="-208538" lat="69.0564138856" lon="15.7450333427">
		<tag k="name" v="Sandbekken" />
		<tag k="ssr:stedsnr" v="969151" />
		<tag k="waterway" v="stream" />
	</node>
	<node id="-208536" lat="69.0565194483" lon="15.7119694343">
		<tag k="name" v="Nordvatnet" />
		<tag k="natural" v="water" />
		<tag k="ssr:stedsnr" v="969138" />
	</node>
	<node id="-206484" lat="68.8703500044" lon="15.7641527731">
		<tag k="alt_name" v="Eikefjellvatna" />
		<tag k="fixme" v="multiple name tags, choose one and add the other to alt_name" />
		<tag k="name" v="Øver-Eikefjellvatnet;Eikefjellvatnet" />
		<tag k="natural" v="water" />
		<tag k="ssr:stedsnr" v="443052" />
		<tag k="water" v="lake" />
	</node>
	<node id="-206475" lat="68.9169222181" lon="15.444166676">
		<tag k="alt_name" v="Aurtjørna" />
		<tag k="name" v="Aurtjønna" />
		<tag k="natural" v="water" />
		<tag k="ssr:stedsnr" v="442695" />
	</node>
	<node id="-206444" lat="69.1782694476" lon="15.8464527739">
		<tag k="name" v="Kvanndalsbekken" />
		<tag k="ssr:stedsnr" v="442148" />
		<tag k="waterway" v="stream" />
	</node>
	<node id="-208517" lat="69.1458944422" lon="15.7751694316">
		<tag k="name" v="Vassbotn" />
		<tag k="natural" v="bay" />
		<tag k="ssr:stedsnr" v="952318" />
	</node>
	<node id="-206467" lat="68.8877722229" lon="15.7945861194">
		<tag k="name" v="Rundvatnet" />
		<tag k="natural" v="water" />
		<tag k="ssr:stedsnr" v="442460" />
	</node>
	<node id="-206466" lat="68.9188111093" lon="15.6517777672">
		<tag k="name" v="Dalvatnet" />
		<tag k="natural" v="water" />
		<tag k="ssr:stedsnr" v="442439" />
	</node>
	<node id="-208512" lat="68.9268194479" lon="15.5472416785">
		<tag k="name" v="Okstjønna" />
		<tag k="natural" v="water" />
		<tag k="ssr:stedsnr" v="950884" />
	</node>
	<node id="-206462" lat="69.0450249973" lon="15.6084666624">
		<tag k="alt_name" v="Sivvatnet" />
		<tag k="name" v="Sevvatnet" />
		<tag k="natural" v="water" />
		<tag k="ssr:stedsnr" v="442361" />
	</node>
	<node id="-208508" lat="68.9081722181" lon="15.7972861071">
		<tag k="name" v="Feskarneset" />
		<tag k="natural" v="cape" />
		<tag k="ssr:stedsnr" v="871536" />
	</node>
	<node id="-208503" lat="69.2608166681" lon="15.9133666757">
		<tag k="name" v="Solsvatnet" />
		<tag k="natural" v="water" />
		<tag k="ssr:stedsnr" v="868206" />
	</node>
	<node id="-206452" lat="69.2123055583" lon="15.8929222199">
		<tag k="name" v="Skogelva" />
		<tag k="ssr:stedsnr" v="442211" />
		<tag k="waterway" v="river" />
	</node>
	<node id="-206451" lat="69.2030722198" lon="16.0899416719">
		<tag k="alt_name" v="Stiksåa" />
		<tag k="name" v="Stikksåa" />
		<tag k="ssr:stedsnr" v="442208" />
		<tag k="waterway" v="river" />
	</node>
	<node id="-208493" lat="69.0427249995" lon="15.5402583342">
		<tag k="name" v="Bøelva" />
		<tag k="ssr:stedsnr" v="868107" />
		<tag k="waterway" v="river" />
	</node>
	<node id="-208492" lat="69.187480555" lon="16.0352888949">
		<tag k="name" v="Nordelva" />
		<tag k="ssr:stedsnr" v="868103" />
		<tag k="waterway" v="river" />
	</node>
	<node id="-208491" lat="68.8987111136" lon="15.4843722151">
		<tag k="name" v="Trollvatnet" />
		<tag k="natural" v="water" />
		<tag k="ssr:stedsnr" v="867732" />
	</node>
	<node id="-206439" lat="68.8718583365" lon="15.644777769">
		<tag k="name" v="Skavdalselva" />
		<tag k="ssr:stedsnr" v="218825" />
		<tag k="waterway" v="river" />
	</node>
	<node id="-206434" lat="69.2269249978" lon="15.9284666689">
		<tag k="name" v="Trolldalsbekken" />
		<tag k="ssr:stedsnr" v="217434" />
		<tag k="waterway" v="stream" />
	</node>
	<node id="-208477" lat="69.0625416659" lon="15.5873110999">
		<tag k="name" v="Heivatnet" />
		<tag k="natural" v="water" />
		<tag k="ssr:stedsnr" v="867390" />
	</node>
	<node id="-208476" lat="69.0747249998" lon="15.5704250066">
		<tag k="name" v="Storelva" />
		<tag k="ssr:stedsnr" v="867378" />
		<tag k="waterway" v="stream" />
	</node>
	<node id="-206427" lat="69.0351722255" lon="15.8534611105">
		<tag k="name" v="Kjosen" />
		<tag k="natural" v="bay" />
		<tag k="ssr:stedsnr" v="297468" />
	</node>
	<node id="-208472" lat="69.0079388883" lon="15.5957333246">
		<tag k="name" v="Storjordbekken" />
		<tag k="ssr:stedsnr" v="867342" />
		<tag k="waterway" v="stream" />
	</node>
	<node id="-208471" lat="69.1013472188" lon="15.5929999968">
		<tag k="fixme" v="multiple name tags, choose one and add the other to alt_name" />
		<tag k="name" v="Børvågdalsvatnet;Børvågvatnet" />
		<tag k="natural" v="water" />
		<tag k="ssr:stedsnr" v="867301" />
	</node>
	<node id="-208469" lat="69.1408750045" lon="15.7304972153">
		<tag k="alt_name" v="Fuggeltjønna" />
		<tag k="name" v="Fugltjørna" />
		<tag k="natural" v="water" />
		<tag k="ssr:stedsnr" v="867268" />
	</node>
	<node id="-208468" lat="69.0694472241" lon="15.8705722196">
		<tag k="name" v="Sellevollvatnet" />
		<tag k="natural" v="water" />
		<tag k="ssr:stedsnr" v="867254" />
		<tag k="water" v="lake" />
	</node>
	<node id="-208467" lat="69.0763000017" lon="15.8228166741">
		<tag k="name" v="Kannebekken" />
		<tag k="ssr:stedsnr" v="867250" />
		<tag k="waterway" v="stream" />
	</node>
	<node id="-206417" lat="69.2511888908" lon="16.0891416738">
		<tag k="alt_name" v="Litleelva" />
		<tag k="name" v="Littjeelva" />
		<tag k="ssr:stedsnr" v="200207" />
		<tag k="waterway" v="stream" />
	</node>
	<node id="-206416" lat="69.0678861143" lon="15.8863388801">
		<tag k="name" v="Oksåa" />
		<tag k="ssr:stedsnr" v="200203" />
		<tag k="waterway" v="stream" />
	</node>
	<node id="-206413" lat="69.0501888916" lon="15.6288083366">
		<tag k="alt_name" v="Midmålsvatnet" />
		<tag k="name" v="Memålstuvvatnet" />
		<tag k="natural" v="water" />
		<tag k="old_name" v="Memålsvatnet" />
		<tag k="ssr:stedsnr" v="200032" />
	</node>
	<node id="-208460" lat="68.8543749987" lon="15.7337694536">
		<tag k="name" v="Rismålsvatnan" />
		<tag k="natural" v="water" />
		<tag k="ssr:stedsnr" v="867052" />
		<tag k="water" v="lake" />
	</node>
	<node id="-208459" lat="68.82588333" lon="15.8086944398">
		<tag k="name" v="Durmålsvatnet" />
		<tag k="natural" v="water" />
		<tag k="ssr:stedsnr" v="867007" />
	</node>
	<node id="-208457" lat="69.1418138907" lon="15.937683333">
		<tag k="fixme" v="multiple name tags, choose one and add the other to alt_name" />
		<tag k="name" v="Oltervatnet;Prestvatnet" />
		<tag k="natural" v="water" />
		<tag k="ssr:stedsnr" v="867176" />
		<tag k="water" v="lake" />
	</node>
	<node id="-208456" lat="69.2005055527" lon="15.9608027803">
		<tag k="name" v="Rundnakkvatnet" />
		<tag k="natural" v="water" />
		<tag k="ssr:stedsnr" v="867169" />
		<tag k="water" v="lake" />
	</node>
	<node id="-208455" lat="69.1978000041" lon="15.8562194335">
		<tag k="alt_name" v="Staveelva" />
		<tag k="name" v="Stavaelva" />
		<tag k="ssr:stedsnr" v="867166" />
		<tag k="waterway" v="river" />
	</node>
	<node id="-208452" lat="69.1354611092" lon="15.9313722169">
		<tag k="name" v="Sørholmen" />
		<tag k="place" v="islet" />
		<tag k="ssr:stedsnr" v="848354" />
	</node>
	<node id="-208451" lat="69.0350444476" lon="15.6842249987">
		<tag k="name" v="Vakkerdalselva" />
		<tag k="ssr:stedsnr" v="848295" />
		<tag k="waterway" v="stream" />
	</node>
	<node id="-208449" lat="69.0243472208" lon="15.7578388961">
		<tag k="name" v="Bulibekken" />
		<tag k="ssr:stedsnr" v="848266" />
		<tag k="waterway" v="stream" />
	</node>
	<node id="-208447" lat="69.0960444478" lon="15.7560000013">
		<tag k="name" v="Åbergsjordelva" />
		<tag k="ssr:stedsnr" v="848238" />
		<tag k="waterway" v="stream" />
	</node>
	<node id="-208445" lat="69.0692055599" lon="15.6280499962">
		<tag k="name" v="Båsvatnet" />
		<tag k="natural" v="water" />
		<tag k="ssr:stedsnr" v="848221" />
	</node>
	<node id="-208443" lat="69.045536107" lon="15.6756805507">
		<tag k="name" v="Skarbekken" />
		<tag k="ssr:stedsnr" v="848171" />
		<tag k="waterway" v="stream" />
	</node>
	<node id="-208440" lat="69.1186055578" lon="15.6398999964">
		<tag k="name" v="Storsteinneset" />
		<tag k="natural" v="cape" />
		<tag k="ssr:stedsnr" v="848016" />
	</node>
	<node id="-206388" lat="69.2320250043" lon="15.8704055481">
		<tag k="name" v="Sørelva" />
		<tag k="ssr:stedsnr" v="285270" />
		<tag k="waterway" v="stream" />
	</node>
	<node id="-208435" lat="69.2449888922" lon="16.0693083335">
		<tag k="name" v="Sommarbekken" />
		<tag k="ssr:stedsnr" v="847853" />
		<tag k="waterway" v="stream" />
	</node>
	<node id="-208429" lat="69.0135833338" lon="15.4608055502">
		<tag k="name" v="Sør-Revsnestjønna" />
		<tag k="natural" v="water" />
		<tag k="ssr:stedsnr" v="846959" />
	</node>
	<node id="-206379" lat="69.0281694486" lon="15.7775500027">
		<tag k="name" v="Sør-Sætersbekken" />
		<tag k="ssr:stedsnr" v="177504" />
		<tag k="waterway" v="stream" />
	</node>
	<node id="-208425" lat="69.2385388886" lon="16.0536972296">
		<tag k="name" v="Kristenbekken" />
		<tag k="ssr:stedsnr" v="846870" />
		<tag k="waterway" v="stream" />
	</node>
	<node id="-208423" lat="69.0496805516" lon="15.7690888888">
		<tag k="alt_name" v="Tækndalsneset" />
		<tag k="name" v="Teknedalsneset" />
		<tag k="natural" v="cape" />
		<tag k="ssr:stedsnr" v="845122" />
	</node>
	<node id="-208422" lat="69.1227722236" lon="15.6801055634">
		<tag k="name" v="Vassosen" />
		<tag k="natural" v="bay" />
		<tag k="ssr:stedsnr" v="845023" />
	</node>
	<node id="-208419" lat="68.9004416619" lon="15.7741555628">
		<tag k="name" v="Øver-Magervatnet" />
		<tag k="natural" v="water" />
		<tag k="ssr:stedsnr" v="845006" />
	</node>
	<node id="-206370" lat="68.924019445" lon="15.6232749951">
		<tag k="name" v="Vednesbekken" />
		<tag k="ssr:stedsnr" v="283858" />
		<tag k="waterway" v="stream" />
	</node>
	<node id="-206369" lat="68.9908972239" lon="15.4421583248">
		<tag k="name" v="Nestjønna" />
		<tag k="natural" v="water" />
		<tag k="ssr:stedsnr" v="283579" />
	</node>
	<node id="-208401" lat="69.181044446" lon="15.8274250056">
		<tag k="name" v="Benstjønna" />
		<tag k="natural" v="water" />
		<tag k="ssr:stedsnr" v="831311" />
	</node>
	<node id="-206350" lat="69.0198722201" lon="15.7696722165">
		<tag k="name" v="Bekkan" />
		<tag k="ssr:stedsnr" v="279806" />
		<tag k="waterway" v="stream" />
	</node>
	<node id="-208395" lat="68.8254750014" lon="15.7469555608">
		<tag k="name" v="Knurrvasselva" />
		<tag k="ssr:stedsnr" v="829869" />
		<tag k="waterway" v="stream" />
	</node>
	<node id="-206423" lat="68.9362777807" lon="15.8021888799">
		<tag k="alt_name" v="Finngammelva" />
		<tag k="name" v="Finngamelva" />
		<tag k="ssr:stedsnr" v="200515" />
		<tag k="waterway" v="stream" />
	</node>
	<node id="-208390" lat="68.894338886" lon="15.6688000009">
		<tag k="name" v="Finnholmen" />
		<tag k="natural" v="cape" />
		<tag k="ssr:stedsnr" v="829170" />
	</node>
	<node id="-206339" lat="69.0455222182" lon="15.8444416771">
		<tag k="name" v="Sæingstjønna" />
		<tag k="natural" v="water" />
		<tag k="ssr:stedsnr" v="157255" />
	</node>
	<node id="-206411" lat="69.247186114" lon="16.0054305629">
		<tag k="alt_name" v="Trolldalsvatnet" />
		<tag k="name" v="Trolldalstjørna" />
		<tag k="natural" v="water" />
		<tag k="ssr:stedsnr" v="199330" />
	</node>
	<node id="-208374" lat="68.9575861079" lon="15.6875111034">
		<tag k="name" v="Tyssbekken" />
		<tag k="ssr:stedsnr" v="825037" />
		<tag k="waterway" v="stream" />
	</node>
	<node id="-208367" lat="68.8865833357" lon="15.4433833373">
		<tag k="name" v="Littje-Sandneselva" />
		<tag k="ssr:stedsnr" v="824050" />
		<tag k="waterway" v="stream" />
	</node>
	<node id="-208364" lat="69.2974666704" lon="16.0536472197">
		<tag k="name" v="Rambergselva" />
		<tag k="ssr:stedsnr" v="810843" />
		<tag k="waterway" v="river" />
	</node>
	<node id="-206312" lat="69.0727888913" lon="15.8292083409">
		<tag k="name" v="Røllikelva" />
		<tag k="ssr:stedsnr" v="138236" />
		<tag k="waterway" v="stream" />
	</node>
	<node id="-206310" lat="69.0548111069" lon="15.7689416608">
		<tag k="name" v="Ånesvatnet" />
		<tag k="natural" v="water" />
		<tag k="ssr:stedsnr" v="138224" />
		<tag k="water" v="lake" />
	</node>
	<node id="-208356" lat="69.2627694466" lon="15.9522444365">
		<tag k="alt_name" v="Litlevatnet" />
		<tag k="name" v="Littjevatnet" />
		<tag k="natural" v="water" />
		<tag k="ssr:stedsnr" v="807230" />
		<tag k="water" v="lake" />
	</node>
	<node id="-206305" lat="69.0288777782" lon="15.724644436">
		<tag k="name" v="Norddalselva" />
		<tag k="ssr:stedsnr" v="120257" />
		<tag k="waterway" v="stream" />
	</node>
	<node id="-206304" lat="69.1472166664" lon="15.9400805612">
		<tag k="name" v="Skogodden" />
		<tag k="natural" v="cape" />
		<tag k="ssr:stedsnr" v="119352" />
	</node>
	<node id="-206299" lat="68.925955558" lon="15.5561416581">
		<tag k="name" v="Geitvatnet" />
		<tag k="natural" v="water" />
		<tag k="ssr:stedsnr" v="261627" />
	</node>
	<node id="-208345" lat="68.8683138923" lon="15.6591888952">
		<tag k="name" v="Kringelvasstjørna" />
		<tag k="natural" v="water" />
		<tag k="ssr:stedsnr" v="807061" />
	</node>
	<node id="-208344" lat="68.8869305535" lon="15.7003444437">
		<tag k="name" v="Eikefjellelva" />
		<tag k="ssr:stedsnr" v="807451" />
		<tag k="waterway" v="river" />
	</node>
	<node id="-206293" lat="68.9879055596" lon="15.634288889">
		<tag k="alt_name" v="Valtjørnan" />
		<tag k="name" v="Valtjønna" />
		<tag k="natural" v="water" />
		<tag k="ssr:stedsnr" v="261380" />
	</node>
	<node id="-206289" lat="69.2685277753" lon="15.9373583378">
		<tag k="name" v="Holmevatnet" />
		<tag k="natural" v="water" />
		<tag k="ssr:stedsnr" v="261236" />
	</node>
	<node id="-208335" lat="69.0158444472" lon="15.6632750108">
		<tag k="name" v="Storvatnet" />
		<tag k="natural" v="water" />
		<tag k="ssr:stedsnr" v="807041" />
	</node>
	<node id="-208330" lat="69.0253694488" lon="15.6126527795">
		<tag k="alt_name" v="Kobbedalsvatnet, nedre;Ner-Kobbedalsvatnet" />
		<tag k="name" v="Nedre Kobbedalsvatnet" />
		<tag k="natural" v="water" />
		<tag k="ssr:stedsnr" v="806330" />
	</node>
	<node id="-208329" lat="69.2474944419" lon="15.8816722295">
		<tag k="name" v="Otervikvatnet" />
		<tag k="natural" v="water" />
		<tag k="ssr:stedsnr" v="806321" />
	</node>
	<node id="-208327" lat="69.1014194401" lon="15.7491000023">
		<tag k="name" v="Skavdalselva" />
		<tag k="ssr:stedsnr" v="806255" />
		<tag k="waterway" v="stream" />
	</node>
	<node id="-206277" lat="68.9415500015" lon="15.7455666632">
		<tag k="alt_name" v="Litlevatnet" />
		<tag k="name" v="Littjevatnet" />
		<tag k="natural" v="water" />
		<tag k="ssr:stedsnr" v="260508" />
	</node>
	<node id="-208322" lat="69.085000002" lon="15.7871055599">
		<tag k="fixme" v="multiple name tags, choose one and add the other to alt_name" />
		<tag k="name" v="Stortindvatnet;Storvatnet" />
		<tag k="natural" v="water" />
		<tag k="ssr:stedsnr" v="806189" />
		<tag k="water" v="lake" />
	</node>
	<node id="-206273" lat="69.2468472272" lon="15.9593861001">
		<tag k="fixme" v="multiple name tags, choose one and add the other to alt_name" />
		<tag k="name" v="Helgøya;Helligøya" />
		<tag k="place" v="islet" />
		<tag k="ssr:stedsnr" v="260374" />
	</node>
	<node id="-208320" lat="69.2218361094" lon="15.9276166647">
		<tag k="name" v="Sortebekken" />
		<tag k="ssr:stedsnr" v="806178" />
		<tag k="waterway" v="stream" />
	</node>
	<node id="-208318" lat="69.2196166704" lon="16.0249444376">
		<tag k="name" v="Brattheivatnet" />
		<tag k="natural" v="water" />
		<tag k="ssr:stedsnr" v="806174" />
	</node>
	<node id="-208317" lat="69.2152138908" lon="16.0062027867">
		<tag k="name" v="Sverigedalsvatnet" />
		<tag k="natural" v="water" />
		<tag k="ssr:stedsnr" v="806171" />
		<tag k="water" v="lake" />
	</node>
	<node id="-208315" lat="69.0439388859" lon="15.7214583352">
		<tag k="alt_name" v="Tækndalsvatnet" />
		<tag k="fixme" v="multiple name tags, choose one and add the other to alt_name" />
		<tag k="name" v="Breitindsvatnet;Teknedalsvatnet" />
		<tag k="natural" v="water" />
		<tag k="ssr:stedsnr" v="806039" />
	</node>
	<node id="-208313" lat="69.1510083312" lon="15.9598833404">
		<tag k="name" v="Sørneset" />
		<tag k="natural" v="cape" />
		<tag k="ssr:stedsnr" v="787343" />
	</node>
	<node id="-206264" lat="69.0630444432" lon="15.6952555566">
		<tag k="name" v="Bødalselva" />
		<tag k="ssr:stedsnr" v="260262" />
		<tag k="waterway" v="stream" />
	</node>
	<node id="-206409" lat="69.1244499993" lon="15.6335083322">
		<tag k="alt_name" v="Leirviktjørna" />
		<tag k="name" v="Leirviktjønna" />
		<tag k="natural" v="water" />
		<tag k="ssr:stedsnr" v="199247" />
	</node>
	<node id="-206260" lat="68.8209444433" lon="15.7366083362">
		<tag k="name" v="Knurrvatnet" />
		<tag k="natural" v="water" />
		<tag k="ssr:stedsnr" v="260161" />
	</node>
	<node id="-206257" lat="69.0179999985" lon="15.7412527669">
		<tag k="name" v="Åseelva" />
		<tag k="ssr:stedsnr" v="260086" />
		<tag k="waterway" v="river" />
	</node>
	<node id="-208304" lat="68.9458888891" lon="15.5679444413">
		<tag k="name" v="Krokbekken" />
		<tag k="ssr:stedsnr" v="785964" />
		<tag k="waterway" v="stream" />
	</node>
	<node id="-206253" lat="69.0180333293" lon="15.6540555607">
		<tag k="name" v="Svartvatnet" />
		<tag k="natural" v="water" />
		<tag k="ssr:stedsnr" v="260065" />
	</node>
	<node id="-208300" lat="69.0469861138" lon="15.7872361133">
		<tag k="name" v="Langneset" />
		<tag k="natural" v="cape" />
		<tag k="ssr:stedsnr" v="784111" />
	</node>
	<node id="-208297" lat="69.0272999964" lon="15.7890610973">
		<tag k="name" v="Lomstjønna" />
		<tag k="natural" v="water" />
		<tag k="ssr:stedsnr" v="783472" />
	</node>
	<node id="-206248" lat="68.9927694415" lon="15.539730564">
		<tag k="name" v="Orkleivbekken" />
		<tag k="ssr:stedsnr" v="103996" />
		<tag k="waterway" v="stream" />
	</node>
	<node id="-208295" lat="69.0298805603" lon="15.7778111056">
		<tag k="name" v="Nord-Sætersbekken" />
		<tag k="ssr:stedsnr" v="783461" />
		<tag k="waterway" v="stream" />
	</node>
	<node id="-206246" lat="68.9624888912" lon="15.8539000017">
		<tag k="name" v="Skjellbekken" />
		<tag k="ssr:stedsnr" v="321375" />
		<tag k="waterway" v="stream" />
	</node>
	<node id="-208279" lat="68.9254111144" lon="15.6885055538">
		<tag k="name" v="Skjellkråvatnet" />
		<tag k="natural" v="water" />
		<tag k="ssr:stedsnr" v="768889" />
	</node>
	<node id="-206220" lat="69.2531583333" lon="16.1267166619">
		<tag k="name" v="Bukkebekken" />
		<tag k="ssr:stedsnr" v="79209" />
		<tag k="waterway" v="stream" />
	</node>
	<node id="-208262" lat="68.8860722264" lon="15.6357138795">
		<tag k="name" v="Teinelva" />
		<tag k="ssr:stedsnr" v="764206" />
		<tag k="waterway" v="river" />
	</node>
	<node id="-206212" lat="69.1551416633" lon="15.9458611174">
		<tag k="name" v="Olterløken" />
		<tag k="ssr:stedsnr" v="79157" />
		<tag k="waterway" v="stream" />
	</node>
	<node id="-206407" lat="69.0796944431" lon="15.8404611206">
		<tag k="alt_name" v="Løyptjørna" />
		<tag k="name" v="Lauptjønna" />
		<tag k="natural" v="water" />
		<tag k="ssr:stedsnr" v="199233" />
	</node>
	<node id="-206206" lat="69.1330222251" lon="15.8408249926">
		<tag k="name" v="Lauvholelva" />
		<tag k="ssr:stedsnr" v="78250" />
		<tag k="waterway" v="stream" />
	</node>
	<node id="-208253" lat="68.8639916647" lon="15.5752388826">
		<tag k="name" v="Forneselva" />
		<tag k="ssr:stedsnr" v="763954" />
		<tag k="waterway" v="river" />
	</node>
	<node id="-206204" lat="69.0928861123" lon="15.8149777683">
		<tag k="name" v="Trollvatnet" />
		<tag k="natural" v="water" />
		<tag k="ssr:stedsnr" v="78223" />
	</node>
	<node id="-206203" lat="69.1064277751" lon="15.9331777656">
		<tag k="alt_name" v="Myrelva" />
		<tag k="name" v="Myraelva" />
		<tag k="ssr:stedsnr" v="78213" />
		<tag k="waterway" v="river" />
	</node>
	<node id="-206200" lat="69.0915222244" lon="15.6171888974">
		<tag k="name" v="Okkelbekkan" />
		<tag k="ssr:stedsnr" v="241239" />
		<tag k="waterway" v="stream" />
	</node>
	<node id="-206196" lat="69.0683722258" lon="15.61056945">
		<tag k="name" v="Kvannbekken" />
		<tag k="ssr:stedsnr" v="241198" />
		<tag k="waterway" v="stream" />
	</node>
	<node id="-208243" lat="68.9359666702" lon="15.4977249886">
		<tag k="name" v="Langvatnet" />
		<tag k="natural" v="water" />
		<tag k="ssr:stedsnr" v="750291" />
		<tag k="water" v="lake" />
	</node>
	<node id="-208239" lat="68.9563694436" lon="15.5128138902">
		<tag k="alt_name" v="Stor-Høgtindvatnet" />
		<tag k="fixme" v="multiple name tags, choose one and add the other to alt_name" />
		<tag k="name" v="Høgtindvatnet;Store Høgtindvatnet;Øver-Høgtindvatnet" />
		<tag k="natural" v="water" />
		<tag k="ssr:stedsnr" v="746625" />
		<tag k="water" v="lake" />
	</node>
	<node id="-208238" lat="68.9612249963" lon="15.4839222259">
		<tag k="alt_name" v="Trollbotsvatnet" />
		<tag k="name" v="Trollbotnvatnet" />
		<tag k="natural" v="water" />
		<tag k="ssr:stedsnr" v="746588" />
	</node>
	<node id="-206185" lat="68.9409722239" lon="15.5030527709">
		<tag k="name" v="Mellavatnet" />
		<tag k="natural" v="water" />
		<tag k="ssr:stedsnr" v="239974" />
	</node>
	<node id="-206183" lat="68.9689305543" lon="15.5345277728">
		<tag k="name" v="Gamvasselva" />
		<tag k="ssr:stedsnr" v="239967" />
		<tag k="waterway" v="stream" />
	</node>
	<node id="-208228" lat="69.208083334" lon="15.8714944564">
		<tag k="name" v="Måvatnet" />
		<tag k="natural" v="water" />
		<tag k="ssr:stedsnr" v="746137" />
		<tag k="water" v="lake" />
	</node>
	<node id="-206179" lat="69.1558083301" lon="15.9535222239">
		<tag k="name" v="Vestneset" />
		<tag k="natural" v="cape" />
		<tag k="ssr:stedsnr" v="239879" />
	</node>
	<node id="-206178" lat="69.1571749962" lon="15.9624722306">
		<tag k="name" v="Storneset" />
		<tag k="natural" v="cape" />
		<tag k="ssr:stedsnr" v="239876" />
	</node>
	<node id="-208225" lat="69.2676861146" lon="16.0270333283">
		<tag k="alt_name" v="Møskjevatnet" />
		<tag k="name" v="Møsjevatnet" />
>>>>>>> e1d4bc35ff8a6074a6f2e91616a996b547c36f15
		<tag k="natural" v="water" />
		<tag k="ssr:stedsnr" v="746221" />
	</node>
<<<<<<< HEAD
	<node lat="69.26199999689976" lon="16.134886113811344" id="-11217">
		<tag k="alt_name" v="Steintjørna" />
		<tag k="fixme" v="multiple name tags, choose one and add the other to alt_name" />
		<tag k="name" v="Sæingstjønna;Steintjønna" />
		<tag k="natural" v="water" />
		<tag k="ssr:stedsnr" v="928204" />
	</node>
	<node lat="69.2673888878314" lon="16.120991672120496" id="-11218">
		<tag k="name" v="Blomvatnet" />
		<tag k="natural" v="water" />
		<tag k="ssr:stedsnr" v="928206" />
	</node>
	<node lat="69.17578610899223" lon="16.003022218336948" id="-11223">
		<tag k="name" v="Gårdselva" />
		<tag k="ssr:stedsnr" v="929101" />
		<tag k="waterway" v="river" />
	</node>
	<node lat="68.89829444162096" lon="15.609505562820223" id="-11240">
		<tag k="name" v="Hestnestjønna" />
		<tag k="natural" v="water" />
		<tag k="ssr:stedsnr" v="950194" />
	</node>
	<node lat="68.92681944794049" lon="15.54724167852889" id="-11241">
		<tag k="name" v="Okstjønna" />
		<tag k="natural" v="water" />
		<tag k="ssr:stedsnr" v="950884" />
	</node>
	<node lat="69.01524999620631" lon="15.464591668836844" id="-11252">
		<tag k="name" v="Nord-Revsnestjønna" />
		<tag k="natural" v="water" />
		<tag k="ssr:stedsnr" v="967953" />
	</node>
	<node lat="69.05641388564622" lon="15.745033342737084" id="-11259">
		<tag k="name" v="Sandbekken" />
		<tag k="ssr:stedsnr" v="969151" />
		<tag k="waterway" v="stream" />
	</node>
	<node lat="69.03278610927217" lon="15.614588891251259" id="-11261">
		<tag k="name" v="Labakkelva" />
		<tag k="ssr:stedsnr" v="969157" />
		<tag k="waterway" v="stream" />
	</node>
	<node lat="69.09300000131698" lon="15.679808332926994" id="-11268">
		<tag k="name" v="Kryssdalsvatnet" />
		<tag k="natural" v="water" />
		<tag k="ssr:stedsnr" v="17224" />
	</node>
	<node lat="69.09336388733338" lon="15.638208331109853" id="-11269">
		<tag k="name" v="Nøssdalsvatnet" />
		<tag k="natural" v="water" />
		<tag k="ssr:stedsnr" v="17229" />
		<tag k="water" v="lake" />
	</node>
	<node lat="69.13380000358057" lon="15.967708343974437" id="-11272">
		<tag k="name" v="Prestelva" />
		<tag k="ssr:stedsnr" v="17258" />
		<tag k="waterway" v="river" />
	</node>
	<node lat="69.11598333722995" lon="15.656866677271383" id="-11276">
		<tag k="name" v="Melavatnet" />
		<tag k="natural" v="water" />
		<tag k="ssr:stedsnr" v="17290" />
		<tag k="water" v="lake" />
	</node>
	<node lat="68.96646389100363" lon="15.52927499979542" id="-11281">
		<tag k="name" v="Gamvatnet" />
		<tag k="natural" v="water" />
		<tag k="ssr:stedsnr" v="18556" />
	</node>
	<node lat="69.05252500245025" lon="15.696924990874944" id="-11285">
		<tag k="name" v="Svandalsloftvatnan" />
		<tag k="natural" v="water" />
		<tag k="ssr:stedsnr" v="18042" />
		<tag k="water" v="lake" />
	</node>
	<node lat="69.0479999983506" lon="15.675958339492924" id="-11287">
		<tag k="name" v="Lappmarkvatnet" />
		<tag k="natural" v="water" />
		<tag k="ssr:stedsnr" v="18045" />
	</node>
	<node lat="69.18931110872666" lon="15.836716652945904" id="-11289">
		<tag k="alt_name" v="Kinnvolltjørna" />
		<tag k="name" v="Kinnvolltjønna" />
		<tag k="natural" v="water" />
		<tag k="ssr:stedsnr" v="18134" />
	</node>
	<node lat="69.05581944387384" lon="15.829794448148775" id="-11296">
		<tag k="alt_name" v="Føltjørna" />
		<tag k="name" v="Følltjønna" />
		<tag k="natural" v="water" />
		<tag k="ssr:stedsnr" v="18193" />
	</node>
	<node lat="68.9872666634829" lon="15.672774991764614" id="-11298">
		<tag k="name" v="Risøyvatnet" />
		<tag k="natural" v="water" />
		<tag k="ssr:stedsnr" v="18332" />
	</node>
	<node lat="68.92414722046983" lon="15.632422230369807" id="-11301">
		<tag k="name" v="Nordelva" />
		<tag k="ssr:stedsnr" v="18457" />
		<tag k="waterway" v="stream" />
	</node>
	<node lat="69.08275555298617" lon="15.860916676919096" id="-11307">
		<tag k="name" v="Krokelva" />
		<tag k="ssr:stedsnr" v="19113" />
		<tag k="waterway" v="stream" />
	</node>
	<node lat="69.2868916677208" lon="16.106772231218013" id="-11309">
		<tag k="name" v="Nattmålsvatnet" />
		<tag k="natural" v="water" />
		<tag k="ssr:stedsnr" v="19125" />
	</node>
	<node lat="68.88021666477457" lon="15.476158334746335" id="-11316">
		<tag k="name" v="Gavlelva" />
		<tag k="ssr:stedsnr" v="35090" />
		<tag k="waterway" v="river" />
	</node>
	<node lat="69.12932500145325" lon="15.699297234530842" id="-11322">
		<tag k="name" v="Smågen" />
		<tag k="natural" v="bay" />
		<tag k="ssr:stedsnr" v="35336" />
	</node>
	<node lat="69.05643055771779" lon="15.893447216345514" id="-11324">
		<tag k="name" v="Løkketjønna" />
		<tag k="natural" v="water" />
		<tag k="ssr:stedsnr" v="35347" />
	</node>
	<node lat="69.25086666613362" lon="15.962222232001805" id="-11339">
		<tag k="name" v="Breineset" />
		<tag k="natural" v="cape" />
		<tag k="ssr:stedsnr" v="36555" />
	</node>
	<node lat="68.97210278241485" lon="15.538427774264717" id="-11366">
		<tag k="name" v="Ner-Stokkvatnet" />
		<tag k="natural" v="water" />
		<tag k="ssr:stedsnr" v="57939" />
	</node>
	<node lat="69.04753888845575" lon="15.665394432101074" id="-11373">
		<tag k="name" v="Littje-elva" />
		<tag k="ssr:stedsnr" v="59139" />
		<tag k="waterway" v="stream" />
	</node>
	<node lat="69.10224166937469" lon="15.655574994637142" id="-11375">
		<tag k="name" v="Fjellstadbekken" />
		<tag k="ssr:stedsnr" v="59246" />
		<tag k="waterway" v="stream" />
	</node>
	<node lat="69.02262777765768" lon="15.614002765207193" id="-11376">
		<tag k="name" v="Mellaelva" />
		<tag k="ssr:stedsnr" v="59257" />
		<tag k="waterway" v="stream" />
	</node>
	<node lat="69.20249166786941" lon="15.881111115122367" id="-11382">
		<tag k="name" v="Bjørnedalsbekken" />
		<tag k="ssr:stedsnr" v="78141" />
		<tag k="waterway" v="stream" />
	</node>
	<node lat="69.10642777513071" lon="15.93317776564132" id="-11384">
		<tag k="alt_name" v="Myrelva" />
		<tag k="name" v="Myraelva" />
		<tag k="ssr:stedsnr" v="78213" />
		<tag k="waterway" v="river" />
	</node>
	<node lat="69.09288611234463" lon="15.814977768298345" id="-11385">
		<tag k="name" v="Trollvatnet" />
		<tag k="natural" v="water" />
		<tag k="ssr:stedsnr" v="78223" />
	</node>
	<node lat="69.22356944050026" lon="16.051936119225015" id="-11388">
		<tag k="name" v="Nakkevatnet" />
		<tag k="natural" v="water" />
		<tag k="ssr:stedsnr" v="78188" />
	</node>
	<node lat="69.01677500008685" lon="15.592694453648825" id="-11393">
		<tag k="name" v="Tverrbekken" />
		<tag k="ssr:stedsnr" v="78333" />
		<tag k="waterway" v="stream" />
	</node>
	<node lat="69.15514166327036" lon="15.945861117361096" id="-11400">
		<tag k="name" v="Olterløken" />
		<tag k="ssr:stedsnr" v="79157" />
		<tag k="waterway" v="stream" />
	</node>
	<node lat="69.19266666630895" lon="16.038108329870923" id="-11422">
		<tag k="name" v="Ednybekken" />
		<tag k="ssr:stedsnr" v="96396" />
		<tag k="waterway" v="stream" />
	</node>
	<node lat="69.08165833055172" lon="15.569702767262056" id="-11452">
		<tag k="name" v="Littjeelva" />
		<tag k="ssr:stedsnr" v="103778" />
		<tag k="waterway" v="stream" />
	</node>
	<node lat="68.99276944146925" lon="15.539730564044413" id="-11456">
		<tag k="name" v="Orkleivbekken" />
		<tag k="ssr:stedsnr" v="103996" />
		<tag k="waterway" v="stream" />
	</node>
	<node lat="69.13797777985454" lon="15.723655547766407" id="-11460">
		<tag k="name" v="Nordelva" />
		<tag k="ssr:stedsnr" v="107356" />
		<tag k="waterway" v="stream" />
	</node>
	<node lat="69.0498222223867" lon="15.673533334426349" id="-11467">
		<tag k="name" v="Lappmarkelva" />
		<tag k="ssr:stedsnr" v="119163" />
		<tag k="waterway" v="stream" />
	</node>
	<node lat="69.14721666639568" lon="15.940080561200457" id="-11469">
		<tag k="name" v="Skogodden" />
		<tag k="natural" v="cape" />
		<tag k="ssr:stedsnr" v="119352" />
	</node>
	<node lat="69.03722777411394" lon="15.67131944522747" id="-11471">
		<tag k="name" v="Øver-Vakkerdalsvatnet" />
		<tag k="natural" v="water" />
		<tag k="ssr:stedsnr" v="120142" />
	</node>
	<node lat="69.02887777816129" lon="15.72464443595608" id="-11474">
		<tag k="name" v="Norddalselva" />
		<tag k="ssr:stedsnr" v="120257" />
		<tag k="waterway" v="stream" />
	</node>
	<node lat="69.11484722420272" lon="15.907066667351106" id="-11478">
		<tag k="alt_name" v="Daudmannstjørna" />
		<tag k="name" v="Daumannstjønna" />
		<tag k="natural" v="water" />
		<tag k="ssr:stedsnr" v="138267" />
	</node>
	<node lat="69.12613888968419" lon="15.912163899175571" id="-11479">
		<tag k="alt_name" v="Gravrongtjørna" />
		<tag k="name" v="Gravronntjønna" />
		<tag k="natural" v="water" />
		<tag k="ssr:stedsnr" v="138276" />
	</node>
	<node lat="69.02339722006232" lon="15.621683324090624" id="-11492">
		<tag k="alt_name" v="Kobbedalsvatnet, øvre;Øver-Kobbedalsvatnet" />
		<tag k="name" v="Øvre Kobbedalsvatnet" />
		<tag k="natural" v="water" />
		<tag k="ssr:stedsnr" v="139035" />
	</node>
	<node lat="69.0265222218949" lon="15.686563892335675" id="-11493">
		<tag k="alt_name" v="Nupvatnet, nedre;Ner-Nupvatnet" />
		<tag k="name" v="Nedre Nupvatnet" />
		<tag k="natural" v="water" />
		<tag k="ssr:stedsnr" v="139037" />
		<tag k="water" v="lake" />
	</node>
	<node lat="68.8798361106997" lon="15.59356943292095" id="-11506">
		<tag k="name" v="Manndalsvatnet" />
		<tag k="natural" v="water" />
		<tag k="ssr:stedsnr" v="144115" />
		<tag k="water" v="lake" />
	</node>
	<node lat="69.01710555958253" lon="15.734166670042063" id="-11517">
		<tag k="name" v="Smørbekken" />
		<tag k="ssr:stedsnr" v="156457" />
		<tag k="waterway" v="stream" />
	</node>
	<node lat="68.95228888862809" lon="15.640016663047334" id="-11524">
		<tag k="name" v="Øygårdstjønna" />
		<tag k="natural" v="water" />
		<tag k="ssr:stedsnr" v="157432" />
	</node>
	<node lat="69.23520833419924" lon="15.872227774713275" id="-11527">
		<tag k="name" v="Nordelva" />
		<tag k="ssr:stedsnr" v="157634" />
		<tag k="waterway" v="stream" />
	</node>
	<node lat="68.95206111215717" lon="15.755430550342377" id="-11529">
		<tag k="name" v="Littjelva" />
		<tag k="ssr:stedsnr" v="157369" />
		<tag k="waterway" v="stream" />
	</node>
	<node lat="69.25420833492834" lon="15.926672218412014" id="-11532">
		<tag k="name" v="Breidalshalsen" />
		<tag k="place" v="locality" />
		<tag k="ssr:stedsnr" v="157591" />
	</node>
	<node lat="68.90746666533651" lon="15.690186117354244" id="-11539">
		<tag k="name" v="Storjordsanden" />
		<tag k="natural" v="beach" />
		<tag k="ssr:stedsnr" v="161183" />
	</node>
	<node lat="69.12401666601276" lon="15.835525010352425" id="-11544">
		<tag k="name" v="Halvgåttbekken" />
		<tag k="ssr:stedsnr" v="163287" />
		<tag k="waterway" v="stream" />
	</node>
	<node lat="68.79699166873226" lon="15.739977774201204" id="-11553">
		<tag k="name" v="Totindelva" />
		<tag k="ssr:stedsnr" v="177533" />
		<tag k="waterway" v="stream" />
	</node>
	<node lat="69.27722777863283" lon="15.980966672313157" id="-11555">
		<tag k="name" v="Storveita" />
		<tag k="ssr:stedsnr" v="178834" />
		<tag k="waterway" v="stream" />
	</node>
	<node lat="68.94278055885351" lon="15.5135694396834" id="-11558">
		<tag k="name" v="Grinddalselva" />
		<tag k="ssr:stedsnr" v="178947" />
		<tag k="waterway" v="stream" />
	</node>
	<node lat="69.29208611553494" lon="16.08250554913581" id="-11563">
		<tag k="name" v="Steffabekken" />
		<tag k="ssr:stedsnr" v="179786" />
		<tag k="waterway" v="stream" />
	</node>
	<node lat="69.10086944624129" lon="15.650836102559728" id="-11570">
		<tag k="name" v="Nøssdalselva" />
		<tag k="ssr:stedsnr" v="180236" />
		<tag k="waterway" v="stream" />
	</node>
	<node lat="69.02495555515164" lon="15.637125011496305" id="-11571">
		<tag k="name" v="Austerdalsbekken" />
		<tag k="ssr:stedsnr" v="180249" />
		<tag k="waterway" v="stream" />
	</node>
	<node lat="69.07969444313918" lon="15.84046112064016" id="-11574">
		<tag k="alt_name" v="Løyptjørna" />
		<tag k="name" v="Lauptjønna" />
		<tag k="natural" v="water" />
		<tag k="ssr:stedsnr" v="199233" />
	</node>
	<node lat="69.12444999933096" lon="15.633508332245372" id="-11576">
		<tag k="alt_name" v="Leirviktjørna" />
		<tag k="name" v="Leirviktjønna" />
		<tag k="natural" v="water" />
		<tag k="ssr:stedsnr" v="199247" />
	</node>
	<node lat="69.24718611403286" lon="16.00543056293389" id="-11577">
		<tag k="alt_name" v="Trolldalstjørna;Trolldalsvatnet" />
		<tag k="name" v="Trolldalstjønna" />
		<tag k="natural" v="water" />
		<tag k="ssr:stedsnr" v="199330" />
	</node>
	<node lat="68.90608611101706" lon="15.53482776671393" id="-11581">
		<tag k="name" v="Norddalsvatnet" />
		<tag k="natural" v="water" />
		<tag k="ssr:stedsnr" v="199679" />
	</node>
	<node lat="69.06788611429019" lon="15.886338880096806" id="-11582">
		<tag k="name" v="Oksåa" />
		<tag k="ssr:stedsnr" v="200203" />
		<tag k="waterway" v="stream" />
	</node>
	<node lat="69.05018889162852" lon="15.628808336583583" id="-11584">
		<tag k="alt_name" v="Midmålsvatnet" />
		<tag k="name" v="Memålstuvvatnet" />
		<tag k="natural" v="water" />
		<tag k="old_name" v="Memålsvatnet" />
		<tag k="ssr:stedsnr" v="200032" />
	</node>
	<node lat="69.15484444438577" lon="15.810438900687945" id="-11590">
		<tag k="name" v="Skogvollvatnet" />
		<tag k="natural" v="water" />
		<tag k="ssr:stedsnr" v="200139" />
		<tag k="water" v="lake" />
	</node>
	<node lat="69.30724444817413" lon="16.09533333803642" id="-11593">
		<tag k="alt_name" v="Klevatnet" />
		<tag k="name" v="Kleivvatnet" />
		<tag k="natural" v="water" />
		<tag k="ssr:stedsnr" v="200146" />
	</node>
	<node lat="69.25118889082594" lon="16.08914167376866" id="-11594">
		<tag k="alt_name" v="Litleelva" />
		<tag k="name" v="Littjeelva" />
		<tag k="ssr:stedsnr" v="200207" />
		<tag k="waterway" v="stream" />
	</node>
	<node lat="69.22030277964065" lon="15.976252784833635" id="-11597">
		<tag k="alt_name" v="Tindvatnet, øvre;Øvste-Tindvatnet" />
		<tag k="name" v="Øvre Tindvatnet" />
		<tag k="natural" v="water" />
		<tag k="ssr:stedsnr" v="200165" />
	</node>
	<node lat="69.27426111444753" lon="16.12662777053497" id="-11604">
		<tag k="name" v="Skålbekken" />
		<tag k="old_name" v="Skåbekken" />
		<tag k="ssr:stedsnr" v="200234" />
		<tag k="waterway" v="stream" />
	</node>
	<node lat="69.26532113165813" lon="15.922546294118886" id="-11606">
		<tag k="name" v="Steinsvatnan" />
		<tag k="natural" v="water" />
		<tag k="ssr:stedsnr" v="200238" />
		<tag k="water" v="lake" />
	</node>
	<node lat="69.28490277661372" lon="16.05169444753039" id="-11612">
		<tag k="alt_name" v="Lomstjørna" />
		<tag k="name" v="Lomstjønna" />
		<tag k="natural" v="water" />
		<tag k="ssr:stedsnr" v="201121" />
	</node>
	<node lat="69.22692499781584" lon="15.928466668885555" id="-11616">
		<tag k="name" v="Trolldalsbekken" />
		<tag k="ssr:stedsnr" v="217434" />
		<tag k="waterway" v="stream" />
	</node>
	<node lat="68.90769166696175" lon="15.685363897880693" id="-11634">
		<tag k="name" v="Storjordbekken" />
		<tag k="ssr:stedsnr" v="222146" />
		<tag k="waterway" v="stream" />
	</node>
	<node lat="68.89854722407253" lon="15.75260834398653" id="-11635">
		<tag k="name" v="Svartvatnet" />
		<tag k="natural" v="water" />
		<tag k="ssr:stedsnr" v="222153" />
	</node>
	<node lat="68.91202222251255" lon="15.642111114120297" id="-11642">
		<tag k="name" v="Sørdalsvatnet" />
		<tag k="natural" v="water" />
		<tag k="ssr:stedsnr" v="222863" />
	</node>
	<node lat="69.11020277867155" lon="15.913611114122853" id="-11645">
		<tag k="name" v="Sæterelva" />
		<tag k="ssr:stedsnr" v="224304" />
		<tag k="waterway" v="stream" />
	</node>
	<node lat="69.02495278015303" lon="15.524550011643788" id="-11649">
		<tag k="name" v="Hagholtjønna" />
		<tag k="natural" v="water" />
		<tag k="ssr:stedsnr" v="224760" />
	</node>
	<node lat="69.02510277715736" lon="15.547861112759508" id="-11650">
		<tag k="name" v="Springarbekken" />
		<tag k="ssr:stedsnr" v="224762" />
		<tag k="waterway" v="stream" />
	</node>
	<node lat="68.88469999798593" lon="15.647363877857508" id="-11660">
		<tag k="name" v="Gressneset" />
		<tag k="natural" v="cape" />
		<tag k="ssr:stedsnr" v="278259" />
	</node>
	<node lat="68.92401944495182" lon="15.623274995066987" id="-11680">
		<tag k="name" v="Vednesbekken" />
		<tag k="ssr:stedsnr" v="283858" />
		<tag k="waterway" v="stream" />
	</node>
	<node lat="69.05124722542375" lon="15.578136118719417" id="-11684">
		<tag k="name" v="Litj-Aurtjønna" />
		<tag k="natural" v="water" />
		<tag k="ssr:stedsnr" v="285757" />
	</node>
	<node lat="69.2320250042769" lon="15.870405548110444" id="-11686">
		<tag k="name" v="Sørelva" />
		<tag k="ssr:stedsnr" v="285270" />
		<tag k="waterway" v="stream" />
	</node>
	<node lat="69.03517222546537" lon="15.853461110472857" id="-11696">
		<tag k="name" v="Kjosen" />
		<tag k="natural" v="bay" />
		<tag k="ssr:stedsnr" v="297468" />
	</node>
	<node lat="68.93871944575328" lon="15.566786106741953" id="-11702">
		<tag k="name" v="Kjørrbekken" />
		<tag k="ssr:stedsnr" v="300956" />
		<tag k="waterway" v="stream" />
	</node>
	<node lat="69.14506111450015" lon="16.013491674305076" id="-11706">
		<tag k="name" v="Gangarbekken" />
		<tag k="ssr:stedsnr" v="301312" />
		<tag k="waterway" v="stream" />
	</node>
	<node lat="69.04846666802524" lon="15.601419444445746" id="-11708">
		<tag k="name" v="Brekkholtjønna" />
		<tag k="natural" v="water" />
		<tag k="ssr:stedsnr" v="302180" />
	</node>
	<node lat="69.08743611094614" lon="15.628872209532405" id="-11713">
		<tag k="name" v="Magdalena Bay" />
		<tag k="natural" v="bay" />
		<tag k="ssr:stedsnr" v="302267" />
	</node>
	<node lat="69.05382499750431" lon="15.752213883553788" id="-11715">
		<tag k="name" v="Stortuvbekken" />
		<tag k="ssr:stedsnr" v="302166" />
		<tag k="waterway" v="stream" />
	</node>
	<node lat="69.1715138863826" lon="15.885783340534928" id="-11719">
		<tag k="name" v="Smibekken" />
		<tag k="ssr:stedsnr" v="321147" />
		<tag k="waterway" v="stream" />
	</node>
	<node lat="69.23165555492528" lon="15.92449723206286" id="-11720">
		<tag k="name" v="Trolldalsvatnet" />
		<tag k="natural" v="water" />
		<tag k="ssr:stedsnr" v="321155" />
	</node>
	<node lat="68.99971110813527" lon="15.473541677471529" id="-11723">
		<tag k="alt_name" v="Latjørna" />
		<tag k="name" v="Latjønna" />
		<tag k="natural" v="water" />
		<tag k="ssr:stedsnr" v="321549" />
	</node>
	<node lat="69.20000278009591" lon="16.001888892133135" id="-11727">
		<tag k="name" v="Tordalsvatnet" />
		<tag k="natural" v="water" />
		<tag k="ssr:stedsnr" v="321129" />
		<tag k="water" v="lake" />
	</node>
	<node lat="69.11939166730068" lon="15.899111110640938" id="-11730">
		<tag k="alt_name" v="Nattmåltjørna" />
		<tag k="name" v="Nattmålstjønna" />
		<tag k="natural" v="water" />
		<tag k="ssr:stedsnr" v="321225" />
	</node>
	<node lat="68.96248889119066" lon="15.853900001733814" id="-11733">
		<tag k="name" v="Skjellbekken" />
		<tag k="ssr:stedsnr" v="321375" />
		<tag k="waterway" v="stream" />
	</node>
	<node lat="68.94604166534579" lon="15.663105557219776" id="-11736">
		<tag k="name" v="Øygårdselva" />
		<tag k="ssr:stedsnr" v="321451" />
		<tag k="waterway" v="river" />
	</node>
	<node lat="69.26310833052634" lon="15.936391657334308" id="-11748">
		<tag k="name" v="Mikkelvatnet" />
		<tag k="natural" v="water" />
		<tag k="ssr:stedsnr" v="338553" />
	</node>
	<node lat="69.24428332970331" lon="15.914338897498391" id="-11758">
		<tag k="name" v="Austerbotn" />
		<tag k="natural" v="bay" />
		<tag k="ssr:stedsnr" v="339592" />
	</node>
	<node lat="69.24422777713298" lon="15.967338884756105" id="-11759">
		<tag k="name" v="Størstelvvika" />
		<tag k="natural" v="bay" />
		<tag k="ssr:stedsnr" v="339595" />
	</node>
	<node lat="68.89801944821873" lon="15.630977778147784" id="-11769">
		<tag k="name" v="Krokbekken" />
		<tag k="ssr:stedsnr" v="343162" />
		<tag k="waterway" v="stream" />
	</node>
	<node lat="69.18539166624646" lon="15.829455557955535" id="-11773">
		<tag k="name" v="Staveelva" />
		<tag k="ssr:stedsnr" v="345301" />
		<tag k="waterway" v="stream" />
	</node>
	<node lat="69.0423611091739" lon="15.50928332511644" id="-11775">
		<tag k="name" v="Storsteintjønna" />
		<tag k="natural" v="water" />
		<tag k="ssr:stedsnr" v="345748" />
	</node>
	<node lat="68.99055833331562" lon="15.563497220209616" id="-11776">
		<tag k="name" v="Steintjønna" />
		<tag k="natural" v="water" />
		<tag k="ssr:stedsnr" v="345750" />
	</node>
	<node lat="69.07143611384413" lon="15.59081111741074" id="-11779">
		<tag k="name" v="Jakobbekkneset" />
		<tag k="natural" v="cape" />
		<tag k="ssr:stedsnr" v="345791" />
	</node>
	<node lat="68.9695972220217" lon="15.507002773273665" id="-11782">
		<tag k="name" v="Littje-Semsheivatnet" />
		<tag k="natural" v="water" />
		<tag k="ssr:stedsnr" v="361952" />
	</node>
	<node lat="69.05325555586799" lon="15.798766676166847" id="-11785">
		<tag k="name" v="Heimste-Holbekken" />
		<tag k="ssr:stedsnr" v="359097" />
		<tag k="waterway" v="stream" />
	</node>
	<node lat="69.16916666823779" lon="15.972125001794792" id="-11789">
		<tag k="name" v="Sælebottjønna" />
		<tag k="natural" v="water" />
		<tag k="ssr:stedsnr" v="360840" />
	</node>
	<node lat="69.06348888833553" lon="15.730927785548067" id="-11795">
		<tag k="name" v="Svanholmen" />
		<tag k="place" v="islet" />
		<tag k="ssr:stedsnr" v="362138" />
	</node>
	<node lat="69.13871666613447" lon="15.936319436726512" id="-11802">
		<tag k="name" v="Bakkan" />
		<tag k="natural" v="cape" />
		<tag k="ssr:stedsnr" v="362343" />
	</node>
	<node lat="69.09823333027202" lon="15.645961114827136" id="-11804">
		<tag k="name" v="Elveblest" />
		<tag k="natural" v="bay" />
		<tag k="ssr:stedsnr" v="362271" />
	</node>
	<node lat="69.02825555758074" lon="15.71433334572593" id="-11805">
		<tag k="name" v="Sørdalsbekken" />
		<tag k="ssr:stedsnr" v="362281" />
		<tag k="waterway" v="stream" />
	</node>
	<node lat="69.07054166926561" lon="15.894900007614677" id="-11814">
		<tag k="alt_name" v="Valtjørna" />
		<tag k="name" v="Valtjønna" />
		<tag k="natural" v="water" />
		<tag k="ssr:stedsnr" v="381235" />
	</node>
	<node lat="69.12735277841817" lon="15.660025008570846" id="-11815">
		<tag k="alt_name" v="Eintjørna" />
		<tag k="loc_name" v="Endtjønna" />
		<tag k="name" v="Eintjønna" />
		<tag k="natural" v="water" />
		<tag k="ssr:stedsnr" v="381256" />
	</node>
	<node lat="69.05094444216195" lon="15.587452776137603" id="-11817">
		<tag k="name" v="Stor-Aurtjønna" />
		<tag k="natural" v="water" />
		<tag k="ssr:stedsnr" v="381345" />
	</node>
	<node lat="68.90688333029426" lon="15.728863891265242" id="-11822">
		<tag k="alt_name" v="Eikefjellelva, nordre;Nord-Eikefjellelva" />
		<tag k="name" v="Nordre Eikefjellelva" />
		<tag k="ssr:stedsnr" v="381451" />
		<tag k="waterway" v="stream" />
	</node>
	<node lat="68.86714999878166" lon="15.61816943127813" id="-11823">
		<tag k="name" v="Skavdalsvatnet" />
		<tag k="natural" v="water" />
		<tag k="ssr:stedsnr" v="381761" />
	</node>
	<node lat="69.01242777953341" lon="15.694255560371762" id="-11829">
		<tag k="alt_name" v="Nordbekken" />
		<tag k="name" v="Nordelva" />
		<tag k="ssr:stedsnr" v="382044" />
		<tag k="waterway" v="stream" />
	</node>
	<node lat="69.048483332978" lon="15.84796389122625" id="-11836">
=======
	<node id="-208222" lat="69.257916667" lon="15.9588388869">
		<tag k="alt_name" v="Gåsøytjørna" />
		<tag k="name" v="Gåsøytjønna" />
		<tag k="natural" v="water" />
		<tag k="ssr:stedsnr" v="746214" />
	</node>
	<node id="-208219" lat="69.2185388851" lon="16.0667472089">
		<tag k="alt_name" v="Statshavet" />
		<tag k="name" v="Stadshavet" />
		<tag k="natural" v="water" />
		<tag k="ssr:stedsnr" v="746182" />
	</node>
	<node id="-208213" lat="68.8094249983" lon="15.6975305537">
		<tag k="name" v="Forfjordelva" />
		<tag k="ssr:stedsnr" v="746118" />
		<tag k="waterway" v="river" />
	</node>
	<node id="-208204" lat="69.2370638858" lon="16.1030722087">
		<tag k="alt_name" v="Storeelva" />
		<tag k="name" v="Storelva" />
		<tag k="ssr:stedsnr" v="745197" />
		<tag k="waterway" v="river" />
	</node>
	<node id="-208202" lat="69.2285500015" lon="15.9312166792">
		<tag k="name" v="Holan" />
		<tag k="natural" v="water" />
		<tag k="ssr:stedsnr" v="745194" />
	</node>
	<node id="-208201" lat="69.229261113" lon="16.0381111181">
		<tag k="alt_name" v="Dalelva" />
		<tag k="name" v="Daleelva" />
		<tag k="ssr:stedsnr" v="745190" />
		<tag k="waterway" v="stream" />
	</node>
	<node id="-208200" lat="69.23098611" lon="16.0611916672">
		<tag k="name" v="Storvatnet" />
		<tag k="natural" v="water" />
		<tag k="ssr:stedsnr" v="745189" />
		<tag k="water" v="lake" />
	</node>
	<node id="-208199" lat="68.8472694485" lon="15.8078361212">
		<tag k="name" v="Finnsætervatnet" />
		<tag k="natural" v="water" />
		<tag k="ssr:stedsnr" v="745038" />
		<tag k="water" v="lake" />
	</node>
	<node id="-206148" lat="69.2868916677" lon="16.1067722312">
		<tag k="name" v="Nattmålsvatnet" />
		<tag k="natural" v="water" />
		<tag k="ssr:stedsnr" v="19125" />
	</node>
	<node id="-206146" lat="69.082755553" lon="15.8609166769">
		<tag k="name" v="Krokelva" />
		<tag k="ssr:stedsnr" v="19113" />
		<tag k="waterway" v="stream" />
	</node>
	<node id="-208192" lat="69.0834833326" lon="15.5953277795">
		<tag k="name" v="Aunbekken" />
		<tag k="ssr:stedsnr" v="648794" />
		<tag k="waterway" v="stream" />
	</node>
	<node id="-206142" lat="68.9060888922" lon="15.6958694562">
		<tag k="fixme" v="multiple name tags, choose one and add the other to alt_name" />
		<tag k="name" v="Langvatnet;Storvatnet" />
		<tag k="natural" v="water" />
		<tag k="ssr:stedsnr" v="18408" />
		<tag k="water" v="lake" />
	</node>
	<node id="-208186" lat="69.1692999999" lon="15.8609972127">
		<tag k="name" v="Snarsetbekken" />
		<tag k="ssr:stedsnr" v="648336" />
		<tag k="waterway" v="stream" />
	</node>
	<node id="-208185" lat="69.1863166704" lon="15.9008361062">
		<tag k="name" v="Kvanndalstjønna" />
		<tag k="natural" v="water" />
		<tag k="ssr:stedsnr" v="648334" />
	</node>
	<node id="-206136" lat="69.1893111087" lon="15.8367166529">
		<tag k="alt_name" v="Kinnvolltjørna" />
		<tag k="name" v="Kinnvolltjønna" />
		<tag k="natural" v="water" />
		<tag k="ssr:stedsnr" v="18134" />
	</node>
	<node id="-208183" lat="68.8524527802" lon="15.7345750117">
		<tag k="name" v="Ner-Ressmålsvatnet" />
		<tag k="natural" v="water" />
		<tag k="ssr:stedsnr" v="646850" />
	</node>
	<node id="-208182" lat="68.9168944445" lon="15.6460166773">
		<tag k="name" v="Littjevatnet" />
		<tag k="natural" v="water" />
		<tag k="ssr:stedsnr" v="646841" />
	</node>
	<node id="-206133" lat="69.0638333359" lon="15.6026944445">
		<tag k="alt_name" v="Småklempvatnet, l;Littje-Småklempvatnet" />
		<tag k="name" v="Litle Småklempvatnet" />
		<tag k="natural" v="water" />
		<tag k="ssr:stedsnr" v="17403" />
	</node>
	<node id="-208179" lat="68.9456583366" lon="15.4433972213">
		<tag k="name" v="Norddalselva" />
		<tag k="ssr:stedsnr" v="646612" />
		<tag k="waterway" v="stream" />
	</node>
	<node id="-206126" lat="68.9120222225" lon="15.6421111141">
		<tag k="name" v="Sørdalsvatnet" />
		<tag k="natural" v="water" />
		<tag k="ssr:stedsnr" v="222863" />
	</node>
	<node id="-206122" lat="68.8450916645" lon="15.7422027669">
		<tag k="name" v="Finnsæterholman" />
		<tag k="natural" v="cape" />
		<tag k="ssr:stedsnr" v="222825" />
	</node>
	<node id="-208169" lat="68.9948305562" lon="15.7373472174">
		<tag k="name" v="Breineset" />
		<tag k="ssr:stedsnr" v="643761" />
		<tag k="waterway" v="river" />
	</node>
	<node id="-208168" lat="69.2630527794" lon="16.08247499">
		<tag k="name" v="Nordvassosen" />
		<tag k="natural" v="bay" />
		<tag k="ssr:stedsnr" v="642925" />
	</node>
	<node id="-206404" lat="69.0977055515" lon="15.680105548">
		<tag k="alt_name" v="Littjevatnet" />
		<tag k="name" v="Litlevatnet" />
		<tag k="natural" v="water" />
		<tag k="ssr:stedsnr" v="199215" />
	</node>
	<node id="-206116" lat="68.8985472241" lon="15.752608344">
		<tag k="name" v="Svartvatnet" />
		<tag k="natural" v="water" />
		<tag k="ssr:stedsnr" v="222153" />
	</node>
	<node id="-206115" lat="68.907691667" lon="15.6853638979">
		<tag k="name" v="Storjordbekken" />
		<tag k="ssr:stedsnr" v="222146" />
		<tag k="waterway" v="stream" />
	</node>
	<node id="-208160" lat="69.1991250043" lon="16.0182777842">
		<tag k="name" v="Høgdatjønna" />
		<tag k="natural" v="water" />
		<tag k="ssr:stedsnr" v="642552" />
	</node>
	<node id="-206131" lat="69.1102027787" lon="15.9136111141">
		<tag k="name" v="Sæterelva" />
		<tag k="ssr:stedsnr" v="224304" />
		<tag k="waterway" v="stream" />
	</node>
	<node id="-208156" lat="68.9515361135" lon="15.6590555523">
		<tag k="name" v="Kvitsandtjønna" />
		<tag k="natural" v="water" />
		<tag k="ssr:stedsnr" v="642414" />
	</node>
	<node id="-208152" lat="69.099361113" lon="15.887611101">
		<tag k="name" v="Hillesåa" />
		<tag k="ssr:stedsnr" v="642225" />
		<tag k="waterway" v="stream" />
	</node>
	<node id="-206102" lat="69.2447833348" lon="15.9608138869">
		<tag k="name" v="Johan-Hansa-Neset" />
		<tag k="natural" v="cape" />
		<tag k="ssr:stedsnr" v="218577" />
	</node>
	<node id="-208147" lat="69.2592444426" lon="15.9226111033">
		<tag k="name" v="Gongakseltjønna" />
		<tag k="natural" v="water" />
		<tag k="ssr:stedsnr" v="641562" />
	</node>
	<node id="-208142" lat="69.0129666631" lon="15.6744555572">
		<tag k="name" v="Mellaelva" />
		<tag k="ssr:stedsnr" v="641343" />
		<tag k="waterway" v="river" />
	</node>
	<node id="-206093" lat="68.8862694482" lon="15.6307694405">
		<tag k="name" v="Ørnsteinen" />
		<tag k="place" v="islet" />
		<tag k="ssr:stedsnr" v="218229" />
	</node>
	<node id="-208139" lat="69.2563833361" lon="16.0348527879">
		<tag k="alt_name" v="Æråsvatnet, øvre;Øver-Æråsvatnet" />
		<tag k="name" v="Øvre Æråsvatnet" />
		<tag k="natural" v="water" />
		<tag k="ssr:stedsnr" v="625230" />
		<tag k="water" v="lake" />
	</node>
	<node id="-208138" lat="69.2538972254" lon="15.9394111119">
		<tag k="fixme" v="multiple name tags, choose one and add the other to alt_name" />
		<tag k="name" v="Arnfinnholmen;Kjiholmen" />
		<tag k="place" v="islet" />
		<tag k="ssr:stedsnr" v="625228" />
	</node>
	<node id="-208137" lat="69.2570916643" lon="16.0676527848">
		<tag k="alt_name" v="Einletvatnet" />
		<tag k="name" v="Einlettvatnet" />
		<tag k="natural" v="water" />
		<tag k="ssr:stedsnr" v="625227" />
		<tag k="water" v="lake" />
	</node>
	<node id="-208126" lat="68.9775083356" lon="15.494147222">
		<tag k="name" v="Durmålsvatnet" />
		<tag k="natural" v="water" />
		<tag k="ssr:stedsnr" v="624612" />
	</node>
	<node id="-208125" lat="68.9676638865" lon="15.4711305563">
		<tag k="name" v="Storvatnet" />
		<tag k="natural" v="water" />
		<tag k="ssr:stedsnr" v="624603" />
	</node>
	<node id="-208123" lat="68.9717777744" lon="15.538316656">
		<tag k="name" v="Stokkvatnan" />
		<tag k="natural" v="water" />
		<tag k="ssr:stedsnr" v="624600" />
		<tag k="water" v="lake" />
	</node>
	<node id="-208122" lat="68.9042722248" lon="15.8216916716">
		<tag k="alt_name" v="Bleiksvatnet" />
		<tag k="name" v="Bleksvatnet" />
		<tag k="natural" v="water" />
		<tag k="ssr:stedsnr" v="624462" />
		<tag k="water" v="lake" />
	</node>
	<node id="-208118" lat="69.066674997" lon="15.5690138897">
		<tag k="name" v="Lusvatnet" />
		<tag k="natural" v="water" />
		<tag k="ssr:stedsnr" v="624377" />
	</node>
	<node id="-208117" lat="69.0206666657" lon="15.5385888899">
		<tag k="alt_name" v="Stamptjørna" />
		<tag k="name" v="Stampetjønna" />
		<tag k="natural" v="water" />
		<tag k="ssr:stedsnr" v="624372" />
	</node>
	<node id="-208112" lat="69.1158250008" lon="15.7065083248">
		<tag k="name" v="Steinsvatnet" />
		<tag k="natural" v="water" />
		<tag k="ssr:stedsnr" v="624251" />
		<tag k="water" v="lake" />
	</node>
	<node id="-208111" lat="69.1087361097" lon="15.8550222325">
		<tag k="alt_name" v="Prestedalsvatnet" />
		<tag k="name" v="Prestdalsvatnet" />
		<tag k="natural" v="water" />
		<tag k="ssr:stedsnr" v="624245" />
	</node>
	<node id="-208106" lat="69.1701083339" lon="16.0954527787">
		<tag k="alt_name" v="Ramsåvatnet" />
		<tag k="name" v="Ramsavatnet" />
		<tag k="natural" v="water" />
		<tag k="ssr:stedsnr" v="624180" />
	</node>
	<node id="-208104" lat="69.1483083325" lon="15.8439083425">
		<tag k="alt_name" v="Kjerkeelva" />
		<tag k="name" v="Kirkeelva" />
		<tag k="ssr:stedsnr" v="624165" />
		<tag k="waterway" v="river" />
	</node>
	<node id="-208099" lat="69.2778555559" lon="16.078880549">
		<tag k="fixme" v="multiple name tags, choose one and add the other to alt_name" />
		<tag k="name" v="Storvasstjørna;Øvre-Langvatnet" />
		<tag k="natural" v="water" />
		<tag k="ssr:stedsnr" v="624153" />
	</node>
	<node id="-208091" lat="68.8313805548" lon="15.675488897">
		<tag k="alt_name" v="Gardselva" />
		<tag k="name" v="Gårdselva" />
		<tag k="ssr:stedsnr" v="624001" />
		<tag k="waterway" v="river" />
	</node>
	<node id="-208087" lat="69.0907833316" lon="15.6301249927">
		<tag k="name" v="Feskeholmen" />
		<tag k="place" v="islet" />
		<tag k="ssr:stedsnr" v="605266" />
	</node>
	<node id="-208085" lat="69.1054500035" lon="15.7169277755">
		<tag k="name" v="Etjønna" />
		<tag k="natural" v="water" />
		<tag k="ssr:stedsnr" v="605250" />
	</node>
	<node id="-208082" lat="69.154705559" lon="15.936777789">
		<tag k="name" v="Råttjønna" />
		<tag k="natural" v="water" />
		<tag k="ssr:stedsnr" v="603847" />
	</node>
	<node id="-208076" lat="69.0518416671" lon="15.7943305622">
		<tag k="name" v="Holbekkneset" />
		<tag k="natural" v="cape" />
		<tag k="ssr:stedsnr" v="601103" />
	</node>
	<node id="-208064" lat="69.0474527781" lon="15.56485555">
		<tag k="name" v="Tverrelva" />
		<tag k="ssr:stedsnr" v="588795" />
		<tag k="waterway" v="stream" />
	</node>
	<node id="-208050" lat="69.1818111074" lon="15.8317638979">
		<tag k="name" v="Steintjønnsbekken" />
		<tag k="ssr:stedsnr" v="588304" />
		<tag k="waterway" v="stream" />
	</node>
	<node id="-208044" lat="68.9190861129" lon="15.4429888837">
		<tag k="name" v="Dalelva" />
		<tag k="ssr:stedsnr" v="586578" />
		<tag k="waterway" v="stream" />
	</node>
	<node id="-208043" lat="68.9059833344" lon="15.6798583434">
		<tag k="name" v="Rabb-bekken" />
		<tag k="ssr:stedsnr" v="586170" />
		<tag k="waterway" v="stream" />
	</node>
	<node id="-208035" lat="69.2537527805" lon="15.9279194349">
		<tag k="name" v="Breidalselva" />
		<tag k="ssr:stedsnr" v="582646" />
		<tag k="waterway" v="stream" />
	</node>
	<node id="-208034" lat="69.2585972224" lon="15.9411055429">
		<tag k="name" v="Mjåsundholmen" />
		<tag k="place" v="islet" />
		<tag k="ssr:stedsnr" v="582645" />
	</node>
	<node id="-208033" lat="69.2462666706" lon="15.9523055507">
		<tag k="name" v="Steinneset" />
		<tag k="natural" v="cape" />
		<tag k="ssr:stedsnr" v="582618" />
	</node>
	<node id="-208030" lat="68.9952416674" lon="15.6970388889">
		<tag k="name" v="Stortjønna" />
		<tag k="natural" v="water" />
		<tag k="ssr:stedsnr" v="582782" />
	</node>
	<node id="-208016" lat="69.1505277809" lon="16.0745777831">
		<tag k="name" v="Fuggeltjønna" />
		<tag k="natural" v="water" />
		<tag k="ssr:stedsnr" v="581367" />
	</node>
	<node id="-208015" lat="69.0080055556" lon="15.615172217">
		<tag k="name" v="Einarslettbekken" />
		<tag k="ssr:stedsnr" v="581352" />
		<tag k="waterway" v="stream" />
	</node>
	<node id="-208012" lat="68.8864722247" lon="15.62487777">
		<tag k="name" v="Piksteinneset" />
		<tag k="natural" v="cape" />
		<tag k="ssr:stedsnr" v="581288" />
	</node>
	<node id="-208011" lat="68.8880166665" lon="15.6501722314">
		<tag k="name" v="Mellavasselva" />
		<tag k="ssr:stedsnr" v="581274" />
		<tag k="waterway" v="river" />
	</node>
	<node id="-208007" lat="68.9562194427" lon="15.8472999974">
		<tag k="name" v="Slettendalsvatnet" />
		<tag k="natural" v="water" />
		<tag k="ssr:stedsnr" v="567541" />
		<tag k="water" v="lake" />
	</node>
	<node id="-208006" lat="68.837277775" lon="15.8001249999">
		<tag k="name" v="Durmålsvatn" />
		<tag k="natural" v="water" />
		<tag k="ssr:stedsnr" v="567538" />
	</node>
	<node id="-208000" lat="69.27694167" lon="16.1686416575">
		<tag k="name" v="Kobbevatnet" />
		<tag k="natural" v="water" />
		<tag k="ssr:stedsnr" v="564226" />
	</node>
	<node id="-207993" lat="69.3000861125" lon="16.0796833214">
		<tag k="fixme" v="multiple name tags, choose one and add the other to alt_name" />
		<tag k="name" v="Steinsvatnet;Stor-Steinsvatnet" />
		<tag k="natural" v="water" />
		<tag k="ssr:stedsnr" v="564144" />
	</node>
	<node id="-207989" lat="68.8653749996" lon="15.6663722185">
		<tag k="alt_name" v="Krengelvatnet" />
		<tag k="name" v="Kringelvatnet" />
		<tag k="natural" v="water" />
		<tag k="ssr:stedsnr" v="564040" />
		<tag k="water" v="lake" />
	</node>
	<node id="-207984" lat="68.9520972212" lon="15.5375888918">
		<tag k="alt_name" v="Spiskammersvatnet" />
		<tag k="name" v="Spiskammerset" />
		<tag k="natural" v="water" />
		<tag k="ssr:stedsnr" v="563652" />
	</node>
	<node id="-207980" lat="68.9575083298" lon="15.569366668">
		<tag k="fixme" v="multiple name tags, choose one and add the other to alt_name" />
		<tag k="name" v="Mølnelva;Traneselva" />
		<tag k="ssr:stedsnr" v="563580" />
		<tag k="waterway" v="stream" />
	</node>
	<node id="-207979" lat="68.9280805545" lon="15.7261472214">
		<tag k="name" v="Storvatnet" />
		<tag k="natural" v="water" />
		<tag k="ssr:stedsnr" v="563485" />
		<tag k="water" v="lake" />
	</node>
	<node id="-207978" lat="68.8518111109" lon="15.6950110989">
		<tag k="name" v="Langvatnet" />
		<tag k="natural" v="water" />
		<tag k="ssr:stedsnr" v="563296" />
		<tag k="water" v="lake" />
	</node>
	<node id="-207973" lat="69.0767222238" lon="15.6466333431">
		<tag k="loc_name" v="Finnkondalsvatnan" />
		<tag k="name" v="Finnkongdalsvatna" />
		<tag k="natural" v="water" />
		<tag k="ssr:stedsnr" v="563197" />
		<tag k="water" v="lake" />
	</node>
	<node id="-207969" lat="69.2108416676" lon="15.9036166602">
		<tag k="name" v="Kaltdalsbekken" />
		<tag k="ssr:stedsnr" v="563177" />
		<tag k="waterway" v="stream" />
	</node>
	<node id="-207967" lat="69.2258805565" lon="15.9888833379">
		<tag k="alt_name" v="Nattmålstuvvatnet" />
		<tag k="fixme" v="multiple name tags, choose one and add the other to alt_name" />
		<tag k="name" v="Nattmålsvatnet;Øvste-Breivikvatnet" />
		<tag k="natural" v="water" />
		<tag k="ssr:stedsnr" v="563169" />
		<tag k="water" v="lake" />
	</node>
	<node id="-207965" lat="69.1684638893" lon="15.8320111163">
		<tag k="name" v="Skogvollelva" />
		<tag k="ssr:stedsnr" v="563156" />
		<tag k="waterway" v="stream" />
	</node>
	<node id="-207964" lat="69.144763888" lon="15.9920555592">
		<tag k="name" v="Stokkelva" />
		<tag k="ssr:stedsnr" v="563146" />
		<tag k="waterway" v="stream" />
	</node>
	<node id="-207957" lat="69.1411555532" lon="15.9528583243">
		<tag k="name" v="Kjerringrokktjønna" />
		<tag k="natural" v="water" />
		<tag k="ssr:stedsnr" v="544328" />
	</node>
	<node id="-207955" lat="69.0256694421" lon="15.616241673">
		<tag k="name" v="Grønnodden" />
		<tag k="natural" v="cape" />
		<tag k="ssr:stedsnr" v="544259" />
	</node>
	<node id="-207952" lat="69.0655611139" lon="15.7025833462">
		<tag k="name" v="Mølnbekken" />
		<tag k="ssr:stedsnr" v="544199" />
		<tag k="waterway" v="stream" />
	</node>
	<node id="-207930" lat="69.0993972204" lon="15.8572444338">
		<tag k="name" v="Vesterbekken" />
		<tag k="ssr:stedsnr" v="527294" />
		<tag k="waterway" v="stream" />
	</node>
	<node id="-207926" lat="68.9157194418" lon="15.4643694389">
		<tag k="name" v="Sørdalselva" />
		<tag k="ssr:stedsnr" v="525891" />
		<tag k="waterway" v="stream" />
	</node>
	<node id="-207925" lat="68.9297194426" lon="15.5568583353">
		<tag k="name" v="Langtjønna" />
		<tag k="natural" v="water" />
		<tag k="ssr:stedsnr" v="525889" />
	</node>
	<node id="-207909" lat="68.8814194406" lon="15.5951638969">
		<tag k="name" v="Manndalselva" />
		<tag k="ssr:stedsnr" v="521541" />
		<tag k="waterway" v="river" />
	</node>
	<node id="-207908" lat="68.9522805555" lon="15.6380944547">
		<tag k="name" v="Kjosen" />
		<tag k="natural" v="bay" />
		<tag k="ssr:stedsnr" v="521429" />
	</node>
	<node id="-207899" lat="69.0618666682" lon="15.8525666763">
		<tag k="name" v="Kjerringtjønna" />
		<tag k="natural" v="water" />
		<tag k="ssr:stedsnr" v="521266" />
	</node>
	<node id="-207898" lat="69.1004555554" lon="15.8428666576">
		<tag k="name" v="Sæterbekken" />
		<tag k="ssr:stedsnr" v="521240" />
		<tag k="waterway" v="stream" />
	</node>
	<node id="-206395" lat="69.1829638918" lon="15.8383138875">
		<tag k="name" v="Steinsvatnet" />
		<tag k="natural" v="water" />
		<tag k="ssr:stedsnr" v="285308" />
	</node>
	<node id="-207893" lat="68.9095388904" lon="15.4615500059">
		<tag k="name" v="Ellingdalstjønna" />
		<tag k="natural" v="water" />
		<tag k="ssr:stedsnr" v="521000" />
	</node>
	<node id="-207891" lat="68.9048805542" lon="15.5362916722">
		<tag k="name" v="Danielneset" />
		<tag k="natural" v="cape" />
		<tag k="ssr:stedsnr" v="520962" />
	</node>
	<node id="-207889" lat="69.0110277756" lon="15.6861305518">
		<tag k="name" v="Mellaelva" />
		<tag k="ssr:stedsnr" v="520494" />
		<tag k="waterway" v="stream" />
	</node>
	<node id="-207887" lat="69.0150861072" lon="15.6737694364">
		<tag k="name" v="Mellaelv-myra" />
		<tag k="ssr:stedsnr" v="520395" />
		<tag k="waterway" v="river" />
	</node>
	<node id="-207880" lat="69.1421944483" lon="15.938305548">
		<tag k="name" v="Nordholmen" />
		<tag k="place" v="islet" />
		<tag k="ssr:stedsnr" v="423366" />
	</node>
	<node id="-207874" lat="69.2919166671" lon="16.1062944466">
		<tag k="name" v="Haugneselva" />
		<tag k="ssr:stedsnr" v="422794" />
		<tag k="waterway" v="stream" />
	</node>
	<node id="-207873" lat="68.9822388869" lon="15.4775638771">
		<tag k="name" v="Nøkkeltjønna" />
		<tag k="natural" v="water" />
		<tag k="ssr:stedsnr" v="421983" />
	</node>
	<node id="-207871" lat="69.0149416627" lon="15.4694138904">
		<tag k="name" v="Febortjønna" />
		<tag k="natural" v="water" />
		<tag k="ssr:stedsnr" v="421971" />
	</node>
	<node id="-207866" lat="69.1230611068" lon="15.704505563">
		<tag k="name" v="Badevika" />
		<tag k="natural" v="bay" />
		<tag k="ssr:stedsnr" v="420001" />
	</node>
	<node id="-207865" lat="69.054405553" lon="15.7828166741">
		<tag k="name" v="Tjukkeskogneset" />
		<tag k="natural" v="cape" />
		<tag k="ssr:stedsnr" v="420098" />
	</node>
	<node id="-207862" lat="69.0460361091" lon="15.8196777807">
		<tag k="name" v="Vasskjeften" />
		<tag k="natural" v="bay" />
		<tag k="ssr:stedsnr" v="420090" />
	</node>
	<node id="-207855" lat="68.8989666684" lon="15.6762805586">
		<tag k="name" v="Storvasselva" />
		<tag k="ssr:stedsnr" v="404179" />
		<tag k="waterway" v="river" />
	</node>
	<node id="-207851" lat="69.2559444469" lon="16.1428444337">
		<tag k="name" v="Skjellbekken" />
		<tag k="ssr:stedsnr" v="400922" />
		<tag k="waterway" v="stream" />
	</node>
	<node id="-207845" lat="69.2431722185" lon="15.9556333441">
		<tag k="name" v="Dalbukta" />
		<tag k="natural" v="bay" />
		<tag k="ssr:stedsnr" v="400631" />
	</node>
	<node id="-207843" lat="68.8365777761" lon="15.6626666581">
		<tag k="name" v="Tverrelva" />
		<tag k="ssr:stedsnr" v="399994" />
		<tag k="waterway" v="stream" />
	</node>
	<node id="-207837" lat="68.944163885" lon="15.6402777884">
		<tag k="name" v="Harlinbekken" />
		<tag k="ssr:stedsnr" v="399505" />
		<tag k="waterway" v="stream" />
	</node>
	<node id="-207818" lat="68.9625250039" lon="15.7165222197">
		<tag k="name" v="Grindtabekken" />
		<tag k="ssr:stedsnr" v="398064" />
		<tag k="waterway" v="stream" />
	</node>
	<node id="-207817" lat="68.8867972263" lon="15.628991678">
		<tag k="name" v="Bassenget" />
		<tag k="natural" v="water" />
		<tag k="ssr:stedsnr" v="385489" />
		<tag k="water" v="lake" />
	</node>
	<node id="-206256" lat="69.0058111122" lon="15.7078333407">
		<tag k="alt_name" v="Abrahamtjørna" />
		<tag k="name" v="Abrahamvatnet" />
		<tag k="natural" v="water" />
		<tag k="ssr:stedsnr" v="260083" />
	</node>
	<node id="-207812" lat="69.2514416626" lon="16.0241944468">
		<tag k="alt_name" v="Reinslitjørna" />
		<tag k="name" v="Reinstitjønna" />
		<tag k="natural" v="water" />
		<tag k="ssr:stedsnr" v="382218" />
	</node>
	<node id="-207804" lat="69.14652222" lon="15.9508249921">
		<tag k="alt_name" v="Seingtjørna" />
		<tag k="name" v="Sæingstjønna" />
		<tag k="natural" v="water" />
		<tag k="ssr:stedsnr" v="382150" />
	</node>
	<node id="-207802" lat="69.2838944484" lon="16.092686123">
		<tag k="fixme" v="multiple name tags, choose one and add the other to alt_name" />
		<tag k="name" v="Lyngvatnet;Stor-Løngvatnet" />
		<tag k="natural" v="water" />
		<tag k="ssr:stedsnr" v="382139" />
	</node>
	<node id="-207799" lat="69.048483333" lon="15.8479638912">
>>>>>>> e1d4bc35ff8a6074a6f2e91616a996b547c36f15
		<tag k="name" v="Åelva" />
		<tag k="ssr:stedsnr" v="382135" />
		<tag k="waterway" v="river" />
	</node>
<<<<<<< HEAD
	<node lat="69.28389444840613" lon="16.09268612302578" id="-11839">
		<tag k="fixme" v="multiple name tags, choose one and add the other to alt_name" />
		<tag k="name" v="Lyngvatnet;Stor-Løngvatnet" />
		<tag k="natural" v="water" />
		<tag k="ssr:stedsnr" v="382139" />
	</node>
	<node lat="69.14652221996133" lon="15.950824992074452" id="-11841">
		<tag k="alt_name" v="Seingtjørna" />
		<tag k="name" v="Sæingstjønna" />
		<tag k="natural" v="water" />
		<tag k="ssr:stedsnr" v="382150" />
	</node>
	<node lat="68.88679722631036" lon="15.628991678044317" id="-11846">
		<tag k="name" v="Bassenget" />
		<tag k="natural" v="water" />
		<tag k="ssr:stedsnr" v="385489" />
		<tag k="water" v="lake" />
	</node>
	<node lat="68.96252500386281" lon="15.716522219696493" id="-11847">
		<tag k="name" v="Grindtabekken" />
		<tag k="ssr:stedsnr" v="398064" />
		<tag k="waterway" v="stream" />
	</node>
	<node lat="69.25594444685181" lon="16.142844433684818" id="-11865">
		<tag k="name" v="Skjellbekken" />
		<tag k="ssr:stedsnr" v="400922" />
		<tag k="waterway" v="stream" />
	</node>
	<node lat="69.13414444437247" lon="15.876269432359091" id="-11875">
		<tag k="name" v="Lægdsrabekken" />
		<tag k="ssr:stedsnr" v="406324" />
		<tag k="waterway" v="stream" />
	</node>
	<node lat="69.12306110684212" lon="15.704505563045318" id="-11882">
		<tag k="name" v="Badevika" />
		<tag k="natural" v="bay" />
		<tag k="ssr:stedsnr" v="420001" />
	</node>
	<node lat="69.08569722555825" lon="15.635249999178107" id="-11887">
		<tag k="loc_name" v="Finnkondalselva" />
		<tag k="name" v="Finnkongdalselva" />
		<tag k="ssr:stedsnr" v="423225" />
		<tag k="waterway" v="stream" />
	</node>
	<node lat="69.07377221915368" lon="15.649355543741589" id="-11888">
		<tag k="name" v="Øver-Finnkondalsvatnet" />
		<tag k="natural" v="water" />
		<tag k="ssr:stedsnr" v="423229" />
		<tag k="water" v="lake" />
	</node>
	<node lat="69.0810805567571" lon="15.639608336653348" id="-11889">
		<tag k="name" v="Ner-Finnkondalsvatnet" />
		<tag k="natural" v="water" />
		<tag k="ssr:stedsnr" v="423230" />
		<tag k="water" v="lake" />
	</node>
	<node lat="69.0149416626716" lon="15.469413890437483" id="-11892">
		<tag k="name" v="Febortjønna" />
		<tag k="natural" v="water" />
		<tag k="ssr:stedsnr" v="421971" />
	</node>
	<node lat="68.98223888693474" lon="15.477563877106938" id="-11894">
		<tag k="name" v="Nøkkeltjønna" />
		<tag k="natural" v="water" />
		<tag k="ssr:stedsnr" v="421983" />
	</node>
	<node lat="69.0581750014834" lon="15.712675001196041" id="-11895">
		<tag k="name" v="Mølnbekken" />
		<tag k="ssr:stedsnr" v="423133" />
		<tag k="waterway" v="stream" />
	</node>
	<node lat="69.14219444829479" lon="15.938305548029575" id="-11900">
		<tag k="name" v="Nordholmen" />
		<tag k="place" v="islet" />
		<tag k="ssr:stedsnr" v="423366" />
	</node>
	<node lat="69.17826944756874" lon="15.84645277394383" id="-11909">
		<tag k="name" v="Kvanndalsbekken" />
		<tag k="ssr:stedsnr" v="442148" />
		<tag k="waterway" v="stream" />
	</node>
	<node lat="69.04502499731076" lon="15.6084666623832" id="-11915">
		<tag k="alt_name" v="Sivvatnet" />
		<tag k="name" v="Sevvatnet" />
		<tag k="natural" v="water" />
		<tag k="ssr:stedsnr" v="442361" />
	</node>
	<node lat="68.88777222289069" lon="15.794586119363315" id="-11918">
		<tag k="name" v="Rundvatnet" />
		<tag k="natural" v="water" />
		<tag k="ssr:stedsnr" v="442460" />
	</node>
	<node lat="68.9169222180971" lon="15.444166675988106" id="-11922">
		<tag k="alt_name" v="Aurtjørna" />
		<tag k="name" v="Aurtjønna" />
		<tag k="natural" v="water" />
		<tag k="ssr:stedsnr" v="442695" />
	</node>
	<node lat="68.87035000438898" lon="15.764152773108632" id="-11928">
		<tag k="alt_name" v="Eikefjellvatna" />
=======
	<node id="-206460" lat="69.0120833314" lon="15.574730543">
		<tag k="alt_name" v="Tverrholtjørna" />
		<tag k="name" v="Tverrholtjønna" />
		<tag k="natural" v="water" />
		<tag k="ssr:stedsnr" v="442344" />
	</node>
	<node id="-207797" lat="69.0124277795" lon="15.6942555604">
		<tag k="alt_name" v="Nordbekken" />
		<tag k="name" v="Nordelva" />
		<tag k="ssr:stedsnr" v="382044" />
		<tag k="waterway" v="stream" />
	</node>
	<node id="-207795" lat="68.8671499988" lon="15.6181694313">
		<tag k="name" v="Skavdalsvatnet" />
		<tag k="natural" v="water" />
		<tag k="ssr:stedsnr" v="381761" />
	</node>
	<node id="-207787" lat="68.9068833303" lon="15.7288638913">
		<tag k="alt_name" v="Eikefjellelva, nordre;Nord-Eikefjellelva" />
		<tag k="name" v="Nordre Eikefjellelva" />
		<tag k="ssr:stedsnr" v="381451" />
		<tag k="waterway" v="stream" />
	</node>
	<node id="-207782" lat="69.0509444422" lon="15.5874527761">
		<tag k="fixme" v="multiple name tags, choose one and add the other to alt_name" />
		<tag k="name" v="Aurtjørna;Stor-Aurtjønna" />
		<tag k="natural" v="water" />
		<tag k="ssr:stedsnr" v="381345" />
	</node>
	<node id="-207778" lat="69.1197972256" lon="15.6205527692">
		<tag k="alt_name" v="Littjelandsvatnet" />
		<tag k="name" v="Litlandsvatnet" />
		<tag k="natural" v="water" />
		<tag k="ssr:stedsnr" v="381278" />
	</node>
	<node id="-207776" lat="69.1273527784" lon="15.6600250086">
		<tag k="alt_name" v="Eintjørna" />
		<tag k="loc_name" v="Endtjønna" />
		<tag k="name" v="Eintjønna" />
		<tag k="natural" v="water" />
		<tag k="ssr:stedsnr" v="381256" />
	</node>
	<node id="-207775" lat="69.0705416693" lon="15.8949000076">
		<tag k="alt_name" v="Valtjørna" />
		<tag k="name" v="Valtjønna" />
		<tag k="natural" v="water" />
		<tag k="ssr:stedsnr" v="381235" />
	</node>
	<node id="-207764" lat="69.0282555576" lon="15.7143333457">
		<tag k="name" v="Sørdalsbekken" />
		<tag k="ssr:stedsnr" v="362281" />
		<tag k="waterway" v="stream" />
	</node>
	<node id="-207763" lat="69.0982333303" lon="15.6459611148">
		<tag k="name" v="Elveblest" />
		<tag k="natural" v="bay" />
		<tag k="ssr:stedsnr" v="362271" />
	</node>
	<node id="-207761" lat="69.1387166661" lon="15.9363194367">
		<tag k="name" v="Bakkan" />
		<tag k="natural" v="cape" />
		<tag k="ssr:stedsnr" v="362343" />
	</node>
	<node id="-207757" lat="69.0634888883" lon="15.7309277855">
		<tag k="name" v="Svanholmen" />
		<tag k="place" v="islet" />
		<tag k="ssr:stedsnr" v="362138" />
	</node>
	<node id="-207753" lat="69.1691666682" lon="15.9721250018">
		<tag k="name" v="Sælebottjønna" />
		<tag k="natural" v="water" />
		<tag k="ssr:stedsnr" v="360840" />
	</node>
	<node id="-207751" lat="69.0532555559" lon="15.7987666762">
		<tag k="name" v="Heimste-Holbekken" />
		<tag k="ssr:stedsnr" v="359097" />
		<tag k="waterway" v="stream" />
	</node>
	<node id="-207748" lat="69.0374111135" lon="15.7849166639">
		<tag k="name" v="Kalddiket" />
		<tag k="ssr:stedsnr" v="358372" />
		<tag k="waterway" v="stream" />
	</node>
	<node id="-207746" lat="68.9905583333" lon="15.5634972202">
		<tag k="name" v="Steintjønna" />
		<tag k="natural" v="water" />
		<tag k="ssr:stedsnr" v="345750" />
	</node>
	<node id="-207745" lat="69.0423611092" lon="15.5092833251">
		<tag k="name" v="Storsteintjønna" />
		<tag k="natural" v="water" />
		<tag k="ssr:stedsnr" v="345748" />
	</node>
	<node id="-207744" lat="69.0714361138" lon="15.5908111174">
		<tag k="name" v="Jakobbekkneset" />
		<tag k="natural" v="cape" />
		<tag k="ssr:stedsnr" v="345791" />
	</node>
	<node id="-207742" lat="69.1853916662" lon="15.829455558">
		<tag k="name" v="Staveelva" />
		<tag k="ssr:stedsnr" v="345301" />
		<tag k="waterway" v="stream" />
	</node>
	<node id="-207731" lat="68.8980194482" lon="15.6309777781">
		<tag k="name" v="Krokbekken" />
		<tag k="ssr:stedsnr" v="343162" />
		<tag k="waterway" v="stream" />
	</node>
	<node id="-207725" lat="68.8415888919" lon="15.6813361183">
		<tag k="name" v="Bjørnlibekken" />
		<tag k="ssr:stedsnr" v="339993" />
		<tag k="waterway" v="stream" />
	</node>
	<node id="-207724" lat="69.2307527749" lon="16.1012111108">
		<tag k="name" v="Skjellbekken" />
		<tag k="ssr:stedsnr" v="339911" />
		<tag k="waterway" v="stream" />
	</node>
	<node id="-207715" lat="69.2136194414" lon="16.0229194487">
		<tag k="name" v="Sverigedalstjønna" />
		<tag k="natural" v="water" />
		<tag k="ssr:stedsnr" v="339544" />
	</node>
	<node id="-207699" lat="69.2631083305" lon="15.9363916573">
		<tag k="name" v="Mikkelvatnet" />
		<tag k="natural" v="water" />
		<tag k="ssr:stedsnr" v="338553" />
	</node>
	<node id="-207687" lat="68.9451138891" lon="15.5072388958">
>>>>>>> e1d4bc35ff8a6074a6f2e91616a996b547c36f15
		<tag k="fixme" v="multiple name tags, choose one and add the other to alt_name" />
		<tag k="name" v="Grinddalsvatnet;Keipvatnet" />
		<tag k="natural" v="water" />
		<tag k="ssr:stedsnr" v="321594" />
	</node>
	<node id="-207685" lat="68.9997111081" lon="15.4735416775">
		<tag k="alt_name" v="Latjørna" />
		<tag k="name" v="Latjønna" />
		<tag k="natural" v="water" />
		<tag k="ssr:stedsnr" v="321549" />
	</node>
	<node id="-207681" lat="68.9460416653" lon="15.6631055572">
		<tag k="name" v="Øygårdselva" />
		<tag k="ssr:stedsnr" v="321451" />
		<tag k="waterway" v="river" />
	</node>
	<node id="-207677" lat="69.1715138864" lon="15.8857833405">
		<tag k="name" v="Smibekken" />
		<tag k="ssr:stedsnr" v="321147" />
		<tag k="waterway" v="stream" />
	</node>
	<node id="-207675" lat="69.2000027801" lon="16.0018888921">
		<tag k="name" v="Torddalsvatnet" />
		<tag k="natural" v="water" />
		<tag k="old_name" v="Tordalsvatnet" />
		<tag k="ssr:stedsnr" v="321129" />
		<tag k="water" v="lake" />
	</node>
<<<<<<< HEAD
	<node lat="69.14385833786838" lon="15.919497213282318" id="-11939">
		<tag k="alt_name" v="Øvrevatnet" />
		<tag k="name" v="Øvervatnet" />
		<tag k="natural" v="water" />
		<tag k="ssr:stedsnr" v="443227" />
	</node>
	<node lat="69.26396111222626" lon="16.021444452807827" id="-11940">
		<tag k="alt_name" v="Møskjebekken" />
		<tag k="name" v="Møsjebekken" />
		<tag k="ssr:stedsnr" v="443230" />
		<tag k="waterway" v="stream" />
	</node>
	<node lat="69.07206389288618" lon="15.595819444594515" id="-11944">
		<tag k="name" v="Dalsvatnet" />
		<tag k="natural" v="water" />
		<tag k="ssr:stedsnr" v="502358" />
		<tag k="water" v="lake" />
	</node>
	<node lat="69.06359444386837" lon="15.57876389311725" id="-11946">
		<tag k="name" v="Heielva" />
		<tag k="ssr:stedsnr" v="502360" />
		<tag k="waterway" v="stream" />
	</node>
	<node lat="68.85794999797558" lon="15.6718499912808" id="-11947">
		<tag k="name" v="Trollvasselva" />
		<tag k="ssr:stedsnr" v="503051" />
		<tag k="waterway" v="stream" />
	</node>
	<node lat="69.12507778242654" lon="15.686738885412545" id="-11956">
		<tag k="name" v="Melaelva" />
		<tag k="ssr:stedsnr" v="503194" />
		<tag k="waterway" v="river" />
	</node>
	<node lat="69.12155277580055" lon="15.916649990482126" id="-11959">
		<tag k="name" v="Gravrongbekken" />
		<tag k="ssr:stedsnr" v="503216" />
		<tag k="waterway" v="stream" />
	</node>
	<node lat="69.2278499975153" lon="16.0126999902388" id="-11960">
		<tag k="name" v="Trolldalsvatnet" />
		<tag k="natural" v="water" />
		<tag k="ssr:stedsnr" v="503152" />
	</node>
	<node lat="69.21571111473213" lon="15.985313883385732" id="-11963">
		<tag k="alt_name" v="Tindvatnet, nedre;Nedste-Tindvatnet" />
		<tag k="name" v="Nedre Tindvatnet" />
		<tag k="natural" v="water" />
		<tag k="ssr:stedsnr" v="503162" />
	</node>
	<node lat="69.22395555526649" lon="15.923388893813721" id="-11964">
		<tag k="name" v="Grunnvatnet" />
		<tag k="natural" v="water" />
		<tag k="ssr:stedsnr" v="503168" />
	</node>
	<node lat="68.93083610988579" lon="15.67279443525372" id="-11970">
		<tag k="fixme" v="multiple name tags, choose one and add the other to alt_name" />
		<tag k="name" v="Reinshaugsvatnan;Trollurvatnet" />
		<tag k="natural" v="water" />
		<tag k="ssr:stedsnr" v="503460" />
		<tag k="water" v="lake" />
	</node>
	<node lat="68.9812027775133" lon="15.58009721456955" id="-11972">
		<tag k="name" v="Stokkelva" />
		<tag k="ssr:stedsnr" v="503536" />
		<tag k="waterway" v="stream" />
	</node>
	<node lat="69.01508610717319" lon="15.673769436354581" id="-11985">
		<tag k="name" v="Mellaelv-myra" />
		<tag k="ssr:stedsnr" v="520395" />
		<tag k="waterway" v="river" />
	</node>
	<node lat="69.01102777563689" lon="15.686130551784931" id="-11988">
		<tag k="name" v="Mellaelva" />
		<tag k="ssr:stedsnr" v="520494" />
		<tag k="waterway" v="stream" />
	</node>
	<node lat="68.90953889040549" lon="15.46155000593811" id="-11992">
		<tag k="name" v="Ellingdalstjønna" />
		<tag k="natural" v="water" />
		<tag k="ssr:stedsnr" v="521000" />
	</node>
	<node lat="68.95228055548398" lon="15.638094454685099" id="-11993">
		<tag k="name" v="Kjosen" />
		<tag k="natural" v="bay" />
		<tag k="ssr:stedsnr" v="521429" />
	</node>
	<node lat="69.10045555541052" lon="15.84286665763437" id="-11995">
		<tag k="name" v="Sæterbekken" />
		<tag k="ssr:stedsnr" v="521240" />
		<tag k="waterway" v="stream" />
	</node>
	<node lat="68.88141944064711" lon="15.595163896866067" id="-12001">
		<tag k="name" v="Manndalselva" />
		<tag k="ssr:stedsnr" v="521541" />
		<tag k="waterway" v="river" />
	</node>
	<node lat="68.90618611351796" lon="15.7634249979755" id="-12007">
		<tag k="name" v="Ner-Magervatnet" />
		<tag k="natural" v="water" />
		<tag k="ssr:stedsnr" v="525186" />
	</node>
	<node lat="69.05448610947956" lon="15.649963891953114" id="-12009">
		<tag k="name" v="Brekkelva" />
		<tag k="ssr:stedsnr" v="525190" />
		<tag k="waterway" v="stream" />
	</node>
	<node lat="68.92971944264708" lon="15.556858335337905" id="-12014">
		<tag k="name" v="Langtjønna" />
		<tag k="natural" v="water" />
		<tag k="ssr:stedsnr" v="525889" />
	</node>
	<node lat="68.9157194418358" lon="15.464369438857414" id="-12015">
		<tag k="name" v="Sørdalselva" />
		<tag k="ssr:stedsnr" v="525891" />
		<tag k="waterway" v="stream" />
	</node>
	<node lat="69.06556111390763" lon="15.70258334621208" id="-12033">
		<tag k="name" v="Mølnbekken" />
		<tag k="ssr:stedsnr" v="544199" />
		<tag k="waterway" v="stream" />
	</node>
	<node lat="69.02566944206004" lon="15.616241673038335" id="-12036">
		<tag k="name" v="Grønnodden" />
		<tag k="natural" v="cape" />
		<tag k="ssr:stedsnr" v="544259" />
	</node>
	<node lat="69.14115555319329" lon="15.952858324289187" id="-12037">
		<tag k="name" v="Kjerringrokktjønna" />
		<tag k="natural" v="water" />
		<tag k="ssr:stedsnr" v="544328" />
	</node>
	<node lat="69.21084166757146" lon="15.90361666015691" id="-12043">
		<tag k="name" v="Kaltdalsbekken" />
		<tag k="ssr:stedsnr" v="563177" />
		<tag k="waterway" v="stream" />
	</node>
	<node lat="69.07672222381646" lon="15.646633343064968" id="-12047">
		<tag k="loc_name" v="Finnkondalsvatnan" />
		<tag k="name" v="Finnkongdalsvatna" />
		<tag k="natural" v="water" />
		<tag k="ssr:stedsnr" v="563197" />
		<tag k="water" v="lake" />
	</node>
	<node lat="69.14476388803124" lon="15.992055559173993" id="-12050">
		<tag k="name" v="Stokkelva" />
		<tag k="ssr:stedsnr" v="563146" />
		<tag k="waterway" v="stream" />
	</node>
	<node lat="69.16846388931634" lon="15.83201111629588" id="-12051">
		<tag k="name" v="Skogvollelva" />
		<tag k="ssr:stedsnr" v="563156" />
		<tag k="waterway" v="stream" />
	</node>
	<node lat="69.22588055653729" lon="15.988883337924781" id="-12053">
		<tag k="alt_name" v="Nattmålstuvvatnet" />
		<tag k="fixme" v="multiple name tags, choose one and add the other to alt_name" />
		<tag k="name" v="Øvste-Breivikvatnet;Nattmålsvatnet" />
		<tag k="natural" v="water" />
		<tag k="ssr:stedsnr" v="563169" />
		<tag k="water" v="lake" />
	</node>
	<node lat="68.85181111093536" lon="15.695011098917423" id="-12056">
		<tag k="name" v="Langvatnet" />
		<tag k="natural" v="water" />
		<tag k="ssr:stedsnr" v="563296" />
		<tag k="water" v="lake" />
	</node>
	<node lat="69.00388333085358" lon="15.50694167584222" id="-12057">
		<tag k="name" v="Kjerkebekken" />
		<tag k="ssr:stedsnr" v="563303" />
		<tag k="waterway" v="stream" />
	</node>
	<node lat="69.25117778179774" lon="15.91627501168502" id="-12058">
		<tag k="alt_name" v="Breiddalsvatnet" />
		<tag k="name" v="Breidalsvatnet" />
		<tag k="natural" v="water" />
		<tag k="ssr:stedsnr" v="563310" />
		<tag k="water" v="lake" />
	</node>
	<node lat="69.0128611123545" lon="15.521686106999729" id="-12060">
		<tag k="alt_name" v="Bøbekkan" />
		<tag k="name" v="Bøbekken" />
		<tag k="ssr:stedsnr" v="563328" />
		<tag k="waterway" v="stream" />
	</node>
	<node lat="68.92808055447497" lon="15.726147221357186" id="-12064">
		<tag k="name" v="Storvatnet" />
		<tag k="natural" v="water" />
		<tag k="ssr:stedsnr" v="563485" />
		<tag k="water" v="lake" />
	</node>
	<node lat="68.95750832975017" lon="15.569366667950163" id="-12065">
		<tag k="fixme" v="multiple name tags, choose one and add the other to alt_name" />
		<tag k="name" v="Mølnelva;Traneselva" />
		<tag k="ssr:stedsnr" v="563580" />
		<tag k="waterway" v="stream" />
	</node>
	<node lat="68.95209722122627" lon="15.537588891825148" id="-12069">
		<tag k="alt_name" v="Spiskammersvatnet" />
		<tag k="name" v="Spiskammerset" />
		<tag k="natural" v="water" />
		<tag k="ssr:stedsnr" v="563652" />
	</node>
	<node lat="69.30008611249383" lon="16.07968332139104" id="-12076">
		<tag k="fixme" v="multiple name tags, choose one and add the other to alt_name" />
		<tag k="name" v="Steinsvatnet;Stor-Steinsvatnet" />
		<tag k="natural" v="water" />
		<tag k="ssr:stedsnr" v="564144" />
	</node>
	<node lat="68.86537499963642" lon="15.666372218503042" id="-12080">
		<tag k="alt_name" v="Krengelvatnet" />
		<tag k="name" v="Kringelvatnet" />
		<tag k="natural" v="water" />
		<tag k="ssr:stedsnr" v="564040" />
		<tag k="water" v="lake" />
	</node>
	<node lat="69.27694167000497" lon="16.16864165746186" id="-12084">
		<tag k="name" v="Kobbevatnet" />
		<tag k="natural" v="water" />
		<tag k="ssr:stedsnr" v="564226" />
	</node>
	<node lat="68.8372777749881" lon="15.800124999878363" id="-12089">
		<tag k="name" v="Durmålsvatn" />
		<tag k="natural" v="water" />
		<tag k="ssr:stedsnr" v="567538" />
	</node>
	<node lat="68.95621944273618" lon="15.847299997407223" id="-12090">
		<tag k="name" v="Slettendalsvatnet" />
		<tag k="natural" v="water" />
		<tag k="ssr:stedsnr" v="567541" />
		<tag k="water" v="lake" />
	</node>
	<node lat="68.88801666653751" lon="15.650172231442768" id="-12096">
		<tag k="name" v="Mellavasselva" />
		<tag k="ssr:stedsnr" v="581274" />
		<tag k="waterway" v="river" />
	</node>
	<node lat="68.88647222470263" lon="15.624877770026384" id="-12097">
		<tag k="name" v="Piksteinneset" />
		<tag k="natural" v="cape" />
		<tag k="ssr:stedsnr" v="581288" />
	</node>
	<node lat="69.15052778086412" lon="16.074577783110144" id="-12098">
		<tag k="name" v="Fuggeltjønna" />
		<tag k="natural" v="water" />
		<tag k="ssr:stedsnr" v="581367" />
	</node>
	<node lat="69.06423333242034" lon="15.845888878455877" id="-12100">
		<tag k="name" v="Røllikelva" />
		<tag k="ssr:stedsnr" v="581312" />
		<tag k="waterway" v="stream" />
	</node>
	<node lat="69.05571111449159" lon="15.893969451643589" id="-12101">
		<tag k="name" v="Løkkebekken" />
		<tag k="ssr:stedsnr" v="581318" />
		<tag k="waterway" v="stream" />
	</node>
	<node lat="69.24626667060761" lon="15.952305550726852" id="-12115">
		<tag k="name" v="Steinneset" />
		<tag k="natural" v="cape" />
		<tag k="ssr:stedsnr" v="582618" />
	</node>
	<node lat="68.99524166741145" lon="15.69703888886224" id="-12117">
		<tag k="name" v="Stortjønna" />
		<tag k="natural" v="water" />
		<tag k="ssr:stedsnr" v="582782" />
	</node>
	<node lat="68.905983334374" lon="15.679858343379221" id="-12126">
		<tag k="name" v="Rabb-bekken" />
		<tag k="ssr:stedsnr" v="586170" />
		<tag k="waterway" v="stream" />
	</node>
	<node lat="68.91908611287877" lon="15.442988883707883" id="-12127">
		<tag k="name" v="Dalelva" />
		<tag k="ssr:stedsnr" v="586578" />
		<tag k="waterway" v="stream" />
	</node>
	<node lat="69.04745277810441" lon="15.564855549967955" id="-12144">
		<tag k="name" v="Tverrelva" />
		<tag k="ssr:stedsnr" v="588795" />
		<tag k="waterway" v="stream" />
	</node>
	<node lat="69.1547055590362" lon="15.936777789038839" id="-12156">
		<tag k="name" v="Råttjønna" />
		<tag k="natural" v="water" />
		<tag k="ssr:stedsnr" v="603847" />
	</node>
	<node lat="68.83138055484773" lon="15.675488896961735" id="-12162">
		<tag k="alt_name" v="Gardselva" />
		<tag k="name" v="Gårdselva" />
		<tag k="ssr:stedsnr" v="624001" />
		<tag k="waterway" v="river" />
	</node>
	<node lat="69.14830833247905" lon="15.84390834252437" id="-12171">
		<tag k="alt_name" v="Kjerkeelva" />
		<tag k="name" v="Kirkeelva" />
		<tag k="ssr:stedsnr" v="624165" />
		<tag k="waterway" v="river" />
	</node>
	<node lat="69.1701083339193" lon="16.09545277869995" id="-12173">
		<tag k="alt_name" v="Ramsåvatnet" />
		<tag k="name" v="Ramsavatnet" />
		<tag k="natural" v="water" />
		<tag k="ssr:stedsnr" v="624180" />
	</node>
	<node lat="69.27785555586338" lon="16.078880549047735" id="-12175">
		<tag k="alt_name" v="Storvasstjørna" />
		<tag k="fixme" v="multiple name tags, choose one and add the other to alt_name" />
		<tag k="name" v="Øvre-Langvatnet;Storvasstjønna" />
		<tag k="natural" v="water" />
		<tag k="ssr:stedsnr" v="624153" />
	</node>
	<node lat="69.10873610967582" lon="15.8550222324804" id="-12179">
		<tag k="alt_name" v="Prestedalsvatnet" />
		<tag k="name" v="Prestdalsvatnet" />
		<tag k="natural" v="water" />
		<tag k="ssr:stedsnr" v="624245" />
	</node>
	<node lat="69.11582500078143" lon="15.706508324839163" id="-12182">
		<tag k="name" v="Steinsvatnet" />
		<tag k="natural" v="water" />
		<tag k="ssr:stedsnr" v="624251" />
		<tag k="water" v="lake" />
	</node>
	<node lat="68.97177777436669" lon="15.538316655967014" id="-12185">
		<tag k="name" v="Stokkvatnan" />
		<tag k="natural" v="water" />
		<tag k="ssr:stedsnr" v="624600" />
		<tag k="water" v="lake" />
	</node>
	<node lat="69.25709166427752" lon="16.067652784770473" id="-12193">
		<tag k="alt_name" v="Einletvatnet" />
		<tag k="name" v="Einlettvatnet" />
		<tag k="natural" v="water" />
		<tag k="ssr:stedsnr" v="625227" />
		<tag k="water" v="lake" />
	</node>
	<node lat="69.253897225354" lon="15.939411111930646" id="-12194">
		<tag k="fixme" v="multiple name tags, choose one and add the other to alt_name" />
		<tag k="name" v="Arnfinnholmen;Kjiholmen" />
		<tag k="place" v="islet" />
		<tag k="ssr:stedsnr" v="625228" />
	</node>
	<node lat="69.25638333605644" lon="16.034852787932305" id="-12195">
		<tag k="alt_name" v="Æråsvatnet, øvre;Øver-Æråsvatnet" />
		<tag k="name" v="Øvre Æråsvatnet" />
		<tag k="natural" v="water" />
		<tag k="ssr:stedsnr" v="625230" />
		<tag k="water" v="lake" />
	</node>
	<node lat="69.01296666313257" lon="15.674455557188375" id="-12197">
		<tag k="name" v="Mellaelva" />
		<tag k="ssr:stedsnr" v="641343" />
		<tag k="waterway" v="river" />
	</node>
	<node lat="69.25924444263151" lon="15.922611103284195" id="-12203">
		<tag k="name" v="Gongakseltjønna" />
		<tag k="natural" v="water" />
		<tag k="ssr:stedsnr" v="641562" />
	</node>
	<node lat="69.19912500425582" lon="16.01827778416793" id="-12212">
		<tag k="name" v="Høgdatjønna" />
		<tag k="natural" v="water" />
		<tag k="ssr:stedsnr" v="642552" />
	</node>
	<node lat="68.99483055620765" lon="15.737347217439094" id="-12215">
		<tag k="name" v="Breineset" />
		<tag k="ssr:stedsnr" v="643761" />
		<tag k="waterway" v="river" />
	</node>
	<node lat="68.91689444451592" lon="15.646016677317647" id="-12223">
		<tag k="name" v="Littjevatnet" />
		<tag k="natural" v="water" />
		<tag k="ssr:stedsnr" v="646841" />
	</node>
	<node lat="68.85245278016804" lon="15.734575011716775" id="-12224">
		<tag k="name" v="Ner-Ressmålsvatnet" />
		<tag k="natural" v="water" />
		<tag k="ssr:stedsnr" v="646850" />
	</node>
	<node lat="69.13141666721604" lon="15.775686118952358" id="-12227">
		<tag k="name" v="Bonstjønna" />
		<tag k="natural" v="water" />
		<tag k="ssr:stedsnr" v="648326" />
	</node>
	<node lat="69.1863166703893" lon="15.900836106228098" id="-12228">
		<tag k="name" v="Kvanndalstjønna" />
		<tag k="natural" v="water" />
		<tag k="ssr:stedsnr" v="648334" />
	</node>
	<node lat="69.16929999989577" lon="15.860997212745671" id="-12229">
		<tag k="name" v="Snarsetbekken" />
		<tag k="ssr:stedsnr" v="648336" />
		<tag k="waterway" v="stream" />
	</node>
	<node lat="69.04100277391066" lon="15.862155561854854" id="-12237">
		<tag k="name" v="Nord-Finnåa" />
		<tag k="ssr:stedsnr" v="661449" />
		<tag k="waterway" v="stream" />
	</node>
	<node lat="69.03895278238345" lon="15.854558331311939" id="-12238">
		<tag k="name" v="Sør-Finnåa" />
		<tag k="ssr:stedsnr" v="661450" />
		<tag k="waterway" v="stream" />
	</node>
	<node lat="68.97061944461146" lon="15.533422209960671" id="-12244">
		<tag k="name" v="Gammelgamvasselva" />
		<tag k="ssr:stedsnr" v="664956" />
		<tag k="waterway" v="stream" />
	</node>
	<node lat="69.30225278116922" lon="16.084508323422938" id="-12252">
		<tag k="name" v="Littje-Steinsvatnet" />
		<tag k="natural" v="water" />
		<tag k="ssr:stedsnr" v="725761" />
	</node>
	<node lat="68.97039444512535" lon="15.542455553979798" id="-12257">
		<tag k="name" v="Øver-Stokkvatnet" />
		<tag k="natural" v="water" />
		<tag k="ssr:stedsnr" v="725965" />
	</node>
	<node lat="69.04691944338332" lon="15.64247222707631" id="-12260">
		<tag k="name" v="Littje-Memålsvatnet" />
		<tag k="natural" v="water" />
		<tag k="ssr:stedsnr" v="726163" />
	</node>
	<node lat="69.22855000148991" lon="15.93121667921021" id="-12265">
		<tag k="name" v="Holan" />
		<tag k="natural" v="water" />
		<tag k="ssr:stedsnr" v="745194" />
	</node>
	<node lat="69.23706388579178" lon="16.103072208683905" id="-12267">
		<tag k="alt_name" v="Storeelva" />
		<tag k="name" v="Storelva" />
		<tag k="ssr:stedsnr" v="745197" />
		<tag k="waterway" v="river" />
	</node>
	<node lat="68.84726944847478" lon="15.807836121226208" id="-12271">
		<tag k="name" v="Finnsætervatnet" />
		<tag k="natural" v="water" />
		<tag k="ssr:stedsnr" v="745038" />
		<tag k="water" v="lake" />
	</node>
	<node lat="69.21853888507843" lon="16.066747208858573" id="-12287">
		<tag k="alt_name" v="Statshavet" />
		<tag k="name" v="Stadshavet" />
		<tag k="natural" v="water" />
		<tag k="ssr:stedsnr" v="746182" />
	</node>
	<node lat="69.20808333395723" lon="15.871494456364639" id="-12291">
		<tag k="name" v="Måvatnet" />
		<tag k="natural" v="water" />
		<tag k="ssr:stedsnr" v="746137" />
		<tag k="water" v="lake" />
	</node>
	<node lat="68.96122499627982" lon="15.48392222588105" id="-12300">
		<tag k="alt_name" v="Trollbotsvatnet" />
		<tag k="name" v="Trollbotnvatnet" />
=======
	<node id="-207667" lat="69.0177249962" lon="15.4679222221">
		<tag k="alt_name" v="Skjeltjørna" />
		<tag k="name" v="Skjelltjønna" />
		<tag k="natural" v="water" />
		<tag k="ssr:stedsnr" v="320341" />
	</node>
	<node id="-207666" lat="69.0137472222" lon="15.5616083346">
		<tag k="name" v="Kobbedalselva" />
		<tag k="ssr:stedsnr" v="320337" />
		<tag k="waterway" v="stream" />
	</node>
	<node id="-207663" lat="69.1193916673" lon="15.8991111106">
		<tag k="alt_name" v="Nattmåltjørna" />
		<tag k="name" v="Nattmålstjønna" />
		<tag k="natural" v="water" />
		<tag k="ssr:stedsnr" v="321225" />
	</node>
	<node id="-207653" lat="69.0393138922" lon="15.6839583342">
		<tag k="name" v="Tredjevatnet" />
		<tag k="natural" v="water" />
		<tag k="ssr:stedsnr" v="302280" />
	</node>
	<node id="-207652" lat="69.0874361109" lon="15.6288722095">
		<tag k="name" v="Magdalena Bay" />
		<tag k="natural" v="bay" />
		<tag k="ssr:stedsnr" v="302267" />
	</node>
	<node id="-207650" lat="69.048466668" lon="15.6014194444">
		<tag k="name" v="Brekkholtjønna" />
		<tag k="natural" v="water" />
		<tag k="ssr:stedsnr" v="302180" />
	</node>
	<node id="-207644" lat="69.2901416675" lon="16.0919111083">
		<tag k="name" v="Littje-Løngvatnet" />
		<tag k="natural" v="water" />
		<tag k="ssr:stedsnr" v="300793" />
	</node>
	<node id="-207641" lat="69.2849027766" lon="16.0516944475">
		<tag k="alt_name" v="Lomstjørna" />
		<tag k="name" v="Lomstjønna" />
		<tag k="natural" v="water" />
		<tag k="ssr:stedsnr" v="201121" />
	</node>
	<node id="-207633" lat="69.2203027796" lon="15.9762527848">
		<tag k="alt_name" v="Tindvatnet, øvre;Øvste-Tindvatnet" />
		<tag k="name" v="Øvre Tindvatnet" />
		<tag k="natural" v="water" />
		<tag k="ssr:stedsnr" v="200165" />
	</node>
	<node id="-207630" lat="69.2653211317" lon="15.9225462941">
		<tag k="name" v="Steinsvatnan" />
		<tag k="natural" v="water" />
		<tag k="ssr:stedsnr" v="200238" />
		<tag k="water" v="lake" />
	</node>
	<node id="-207628" lat="69.2742611144" lon="16.1266277705">
		<tag k="name" v="Skålbekken" />
		<tag k="old_name" v="Skåbekken" />
		<tag k="ssr:stedsnr" v="200234" />
		<tag k="waterway" v="stream" />
	</node>
	<node id="-207626" lat="69.3072444482" lon="16.095333338">
		<tag k="alt_name" v="Klevatnet" />
		<tag k="name" v="Kleivvatnet" />
		<tag k="natural" v="water" />
		<tag k="ssr:stedsnr" v="200146" />
	</node>
	<node id="-207623" lat="69.1548444444" lon="15.8104389007">
		<tag k="name" v="Skogvollvatnet" />
		<tag k="natural" v="water" />
		<tag k="ssr:stedsnr" v="200139" />
		<tag k="water" v="lake" />
	</node>
	<node id="-207617" lat="68.906086111" lon="15.5348277667">
		<tag k="name" v="Norddalsvatnet" />
		<tag k="natural" v="water" />
		<tag k="ssr:stedsnr" v="199679" />
	</node>
	<node id="-207611" lat="69.113986107" lon="15.937144453">
		<tag k="alt_name" v="Andholtjørna" />
		<tag k="name" v="Andholtjønna" />
		<tag k="natural" v="water" />
		<tag k="ssr:stedsnr" v="199262" />
	</node>
	<node id="-207608" lat="69.0249555552" lon="15.6371250115">
		<tag k="name" v="Austerdalsbekken" />
		<tag k="ssr:stedsnr" v="180249" />
		<tag k="waterway" v="stream" />
	</node>
	<node id="-207607" lat="69.1008694462" lon="15.6508361026">
		<tag k="name" v="Nøssdalselva" />
		<tag k="ssr:stedsnr" v="180236" />
		<tag k="waterway" v="stream" />
	</node>
	<node id="-207598" lat="69.2920861155" lon="16.0825055491">
		<tag k="name" v="Steffabekken" />
		<tag k="ssr:stedsnr" v="179786" />
		<tag k="waterway" v="stream" />
	</node>
	<node id="-207596" lat="68.9427805589" lon="15.5135694397">
		<tag k="name" v="Grinddalselva" />
		<tag k="ssr:stedsnr" v="178947" />
		<tag k="waterway" v="stream" />
	</node>
	<node id="-207593" lat="69.2772277786" lon="15.9809666723">
		<tag k="name" v="Storveita" />
		<tag k="ssr:stedsnr" v="178834" />
		<tag k="waterway" v="stream" />
	</node>
	<node id="-207592" lat="68.7969916687" lon="15.7399777742">
		<tag k="name" v="Totindelva" />
		<tag k="ssr:stedsnr" v="177533" />
		<tag k="waterway" v="stream" />
	</node>
	<node id="-207589" lat="69.0512805565" lon="15.8073166744">
		<tag k="name" v="Fremste-Holbekken" />
		<tag k="ssr:stedsnr" v="177103" />
		<tag k="waterway" v="stream" />
	</node>
	<node id="-206180" lat="69.2648407031" lon="15.9197741546">
		<tag k="name" v="Vestraste-Steinsvatnet" />
		<tag k="natural" v="water" />
		<tag k="ssr:stedsnr" v="239890" />
	</node>
	<node id="-207579" lat="69.0293166664" lon="15.528686099">
		<tag k="name" v="Jakobtjønna" />
		<tag k="natural" v="water" />
		<tag k="ssr:stedsnr" v="163776" />
	</node>
	<node id="-207578" lat="69.124016666" lon="15.8355250104">
		<tag k="name" v="Halvgåttbekken" />
		<tag k="ssr:stedsnr" v="163287" />
		<tag k="waterway" v="stream" />
	</node>
	<node id="-207570" lat="68.9074666653" lon="15.6901861174">
		<tag k="name" v="Storjordsanden" />
		<tag k="natural" v="beach" />
		<tag k="ssr:stedsnr" v="161183" />
	</node>
	<node id="-207554" lat="69.2352083342" lon="15.8722277747">
		<tag k="name" v="Nordelva" />
		<tag k="ssr:stedsnr" v="157634" />
		<tag k="waterway" v="stream" />
	</node>
	<node id="-207553" lat="69.2423388872" lon="15.9668500076">
		<tag k="name" v="Størstelva" />
		<tag k="ssr:stedsnr" v="157597" />
		<tag k="waterway" v="stream" />
	</node>
	<node id="-207552" lat="69.2542083349" lon="15.9266722184">
		<tag k="name" v="Breidalshalsen" />
		<tag k="natural" v="strait" />
		<tag k="ssr:stedsnr" v="157591" />
	</node>
	<node id="-207546" lat="68.9522888886" lon="15.640016663">
		<tag k="name" v="Øygårdstjønna" />
		<tag k="natural" v="water" />
		<tag k="ssr:stedsnr" v="157432" />
	</node>
	<node id="-207543" lat="68.9520611122" lon="15.7554305503">
		<tag k="name" v="Littjelva" />
		<tag k="ssr:stedsnr" v="157369" />
		<tag k="waterway" v="stream" />
	</node>
	<node id="-207530" lat="69.0194722195" lon="15.7109944311">
		<tag k="name" v="Hufatelva" />
		<tag k="ssr:stedsnr" v="156488" />
		<tag k="waterway" v="river" />
	</node>
	<node id="-207529" lat="69.0171055596" lon="15.73416667">
		<tag k="name" v="Smørbekken" />
		<tag k="ssr:stedsnr" v="156457" />
		<tag k="waterway" v="stream" />
	</node>
	<node id="-207518" lat="68.8798361107" lon="15.5935694329">
		<tag k="name" v="Manndalsvatnet" />
		<tag k="natural" v="water" />
		<tag k="ssr:stedsnr" v="144115" />
		<tag k="water" v="lake" />
	</node>
	<node id="-207512" lat="68.9664472185" lon="15.5112000026">
		<tag k="name" v="Semsheivatnet" />
		<tag k="natural" v="water" />
		<tag k="ssr:stedsnr" v="139602" />
	</node>
	<node id="-207511" lat="68.8931055581" lon="15.663711119">
		<tag k="alt_name" v="Mellomvatnet" />
		<tag k="name" v="Mellavatnet" />
		<tag k="natural" v="water" />
		<tag k="ssr:stedsnr" v="139486" />
		<tag k="water" v="lake" />
	</node>
	<node id="-207493" lat="69.0265222219" lon="15.6865638923">
		<tag k="alt_name" v="Nupvatnet, nedre;Ner-Nupvatnet" />
		<tag k="name" v="Nedre Nupvatnet" />
		<tag k="natural" v="water" />
		<tag k="ssr:stedsnr" v="139037" />
		<tag k="water" v="lake" />
	</node>
	<node id="-207492" lat="69.0233972201" lon="15.6216833241">
		<tag k="alt_name" v="Kobbedalsvatnet, øvre;Øver-Kobbedalsvatnet" />
		<tag k="name" v="Øvre Kobbedalsvatnet" />
		<tag k="natural" v="water" />
		<tag k="ssr:stedsnr" v="139035" />
	</node>
	<node id="-207483" lat="69.0083972209" lon="15.5875666624">
		<tag k="name" v="Finnskjåbekken" />
		<tag k="ssr:stedsnr" v="138347" />
		<tag k="waterway" v="stream" />
	</node>
	<node id="-207478" lat="69.1261388897" lon="15.9121638992">
		<tag k="alt_name" v="Gravrongtjørna" />
		<tag k="name" v="Gravronntjønna" />
		<tag k="natural" v="water" />
		<tag k="ssr:stedsnr" v="138276" />
	</node>
	<node id="-207477" lat="69.1148472242" lon="15.9070666674">
		<tag k="alt_name" v="Daudmannstjørna" />
		<tag k="name" v="Daumannstjønna" />
		<tag k="natural" v="water" />
		<tag k="ssr:stedsnr" v="138267" />
	</node>
	<node id="-207469" lat="69.0372277741" lon="15.6713194452">
		<tag k="name" v="Øver-Vakkerdalsvatnet" />
		<tag k="natural" v="water" />
		<tag k="ssr:stedsnr" v="120142" />
	</node>
	<node id="-207466" lat="69.0498222224" lon="15.6735333344">
		<tag k="name" v="Lappmarkelva" />
		<tag k="ssr:stedsnr" v="119163" />
		<tag k="waterway" v="stream" />
	</node>
	<node id="-206267" lat="69.1036166645" lon="15.693149994">
		<tag k="name" v="Kryssdalselva" />
		<tag k="ssr:stedsnr" v="260296" />
		<tag k="waterway" v="stream" />
	</node>
	<node id="-207456" lat="69.1379777799" lon="15.7236555478">
		<tag k="name" v="Nordelva" />
		<tag k="ssr:stedsnr" v="107356" />
		<tag k="waterway" v="stream" />
	</node>
	<node id="-207452" lat="69.0816583306" lon="15.5697027673">
		<tag k="name" v="Littjeelva" />
		<tag k="ssr:stedsnr" v="103778" />
		<tag k="waterway" v="stream" />
	</node>
	<node id="-207446" lat="69.1483833355" lon="15.8914666723">
		<tag k="name" v="Lakstjønna" />
		<tag k="natural" v="water" />
		<tag k="ssr:stedsnr" v="103313" />
	</node>
	<node id="-207419" lat="69.1926666663" lon="16.0381083299">
		<tag k="name" v="Ednybekken" />
		<tag k="ssr:stedsnr" v="96396" />
		<tag k="waterway" v="stream" />
	</node>
	<node id="-207415" lat="68.987141666" lon="15.4413583313">
		<tag k="name" v="Haugelva" />
		<tag k="ssr:stedsnr" v="83441" />
		<tag k="waterway" v="river" />
	</node>
	<node id="-207407" lat="69.2736666652" lon="16.0558833234">
		<tag k="name" v="Storvatnet" />
		<tag k="natural" v="water" />
		<tag k="ssr:stedsnr" v="79048" />
		<tag k="water" v="lake" />
	</node>
	<node id="-207399" lat="68.9037138848" lon="15.7685194428">
		<tag k="name" v="Magervatnan" />
		<tag k="natural" v="water" />
		<tag k="ssr:stedsnr" v="78445" />
		<tag k="water" v="lake" />
	</node>
	<node id="-207394" lat="69.0167750001" lon="15.5926944536">
		<tag k="name" v="Tverrbekken" />
		<tag k="ssr:stedsnr" v="78333" />
		<tag k="waterway" v="stream" />
	</node>
	<node id="-207391" lat="68.9437416626" lon="15.7901611014">
		<tag k="name" v="Storelva" />
		<tag k="ssr:stedsnr" v="78309" />
		<tag k="waterway" v="river" />
	</node>
	<node id="-207390" lat="69.1036777791" lon="15.7369944538">
		<tag k="alt_name" v="Krokratjørna" />
		<tag k="name" v="Krokratjønna" />
		<tag k="natural" v="water" />
		<tag k="ssr:stedsnr" v="78264" />
	</node>
	<node id="-207389" lat="69.2235694405" lon="16.0519361192">
		<tag k="name" v="Nakkevatnet" />
		<tag k="natural" v="water" />
		<tag k="ssr:stedsnr" v="78188" />
	</node>
	<node id="-207386" lat="69.2024916679" lon="15.8811111151">
		<tag k="name" v="Bjørnedalsbekken" />
		<tag k="ssr:stedsnr" v="78141" />
		<tag k="waterway" v="stream" />
	</node>
	<node id="-207381" lat="69.0226277777" lon="15.6140027652">
		<tag k="name" v="Mellaelva" />
		<tag k="ssr:stedsnr" v="59257" />
		<tag k="waterway" v="stream" />
	</node>
	<node id="-207380" lat="69.1022416694" lon="15.6555749946">
		<tag k="name" v="Fjellstadbekken" />
		<tag k="ssr:stedsnr" v="59246" />
		<tag k="waterway" v="stream" />
	</node>
	<node id="-207377" lat="69.0475388885" lon="15.6653944321">
		<tag k="name" v="Littje-elva" />
		<tag k="ssr:stedsnr" v="59139" />
		<tag k="waterway" v="stream" />
	</node>
	<node id="-207362" lat="68.9721027824" lon="15.5384277743">
		<tag k="name" v="Ner-Stokkvatnet" />
		<tag k="natural" v="water" />
		<tag k="ssr:stedsnr" v="57939" />
	</node>
	<node id="-207360" lat="69.1840361115" lon="15.9462333424">
		<tag k="name" v="Harryvatnet" />
		<tag k="natural" v="water" />
		<tag k="ssr:stedsnr" v="57317" />
	</node>
	<node id="-207358" lat="69.0583472213" lon="15.7898499909">
		<tag k="name" v="Tennfattjønna" />
		<tag k="natural" v="water" />
		<tag k="ssr:stedsnr" v="56100" />
	</node>
	<node id="-207328" lat="69.2508666661" lon="15.962222232">
		<tag k="name" v="Breineset" />
		<tag k="natural" v="cape" />
		<tag k="ssr:stedsnr" v="36555" />
	</node>
	<node id="-207305" lat="69.0564305577" lon="15.8934472163">
		<tag k="name" v="Løkketjønna" />
		<tag k="natural" v="water" />
		<tag k="ssr:stedsnr" v="35347" />
	</node>
	<node id="-207303" lat="69.1293250015" lon="15.6992972345">
		<tag k="name" v="Smågen" />
		<tag k="natural" v="bay" />
		<tag k="ssr:stedsnr" v="35336" />
	</node>
	<node id="-207299" lat="68.8802166648" lon="15.4761583347">
		<tag k="name" v="Gavlelva" />
		<tag k="ssr:stedsnr" v="35090" />
		<tag k="waterway" v="river" />
	</node>
	<node id="-207291" lat="68.9241472205" lon="15.6324222304">
		<tag k="name" v="Nordelva" />
		<tag k="ssr:stedsnr" v="18457" />
		<tag k="waterway" v="stream" />
	</node>
	<node id="-207287" lat="68.966463891" lon="15.5292749998">
		<tag k="name" v="Gamvatnet" />
		<tag k="natural" v="water" />
		<tag k="ssr:stedsnr" v="18556" />
	</node>
	<node id="-207286" lat="68.9746972195" lon="15.6378750058">
		<tag k="name" v="Kveldrovatnet" />
		<tag k="natural" v="water" />
		<tag k="ssr:stedsnr" v="18351" />
	</node>
	<node id="-207283" lat="68.9872666635" lon="15.6727749918">
		<tag k="name" v="Risøyvatnet" />
		<tag k="natural" v="water" />
		<tag k="ssr:stedsnr" v="18332" />
	</node>
	<node id="-207280" lat="69.0479999984" lon="15.6759583395">
		<tag k="name" v="Lappmarkvatnet" />
		<tag k="natural" v="water" />
		<tag k="ssr:stedsnr" v="18045" />
	</node>
	<node id="-207278" lat="69.0525250025" lon="15.6969249909">
		<tag k="name" v="Svandalsloftvatnan" />
		<tag k="natural" v="water" />
		<tag k="ssr:stedsnr" v="18042" />
		<tag k="water" v="lake" />
	</node>
	<node id="-207275" lat="69.0558194439" lon="15.8297944481">
		<tag k="alt_name" v="Føltjørna" />
		<tag k="name" v="Følltjønna" />
		<tag k="natural" v="water" />
		<tag k="ssr:stedsnr" v="18193" />
	</node>
	<node id="-207265" lat="69.1159833372" lon="15.6568666773">
		<tag k="name" v="Melavatnet" />
		<tag k="natural" v="water" />
		<tag k="ssr:stedsnr" v="17290" />
		<tag k="water" v="lake" />
	</node>
	<node id="-207261" lat="69.1338000036" lon="15.967708344">
		<tag k="name" v="Prestelva" />
		<tag k="ssr:stedsnr" v="17258" />
		<tag k="waterway" v="river" />
	</node>
	<node id="-207258" lat="69.0933638873" lon="15.6382083311">
		<tag k="name" v="Nøssdalsvatnet" />
		<tag k="natural" v="water" />
		<tag k="ssr:stedsnr" v="17229" />
		<tag k="water" v="lake" />
	</node>
	<node id="-207257" lat="69.0930000013" lon="15.6798083329">
		<tag k="name" v="Kryssdalsvatnet" />
		<tag k="natural" v="water" />
		<tag k="ssr:stedsnr" v="17224" />
	</node>
	<node id="-207246" lat="69.1869888851" lon="16.0243944422">
		<tag k="name" v="Vinterholtjønna" />
		<tag k="natural" v="water" />
		<tag k="ssr:stedsnr" v="217372" />
	</node>
	<node id="-207244" lat="69.1049305593" lon="15.6485222321">
		<tag k="name" v="Nattmålstjønnelva" />
		<tag k="ssr:stedsnr" v="969255" />
		<tag k="waterway" v="stream" />
	</node>
	<node id="-207242" lat="69.0327861093" lon="15.6145888913">
		<tag k="name" v="Labakkelva" />
		<tag k="ssr:stedsnr" v="969157" />
		<tag k="waterway" v="stream" />
	</node>
	<node id="-207240" lat="69.068644446" lon="15.696861104">
		<tag k="name" v="Sortakselbekken" />
		<tag k="ssr:stedsnr" v="969057" />
		<tag k="waterway" v="stream" />
	</node>
	<node id="-207232" lat="68.9982666693" lon="15.4798861014">
		<tag k="name" v="Latjønnbekken" />
		<tag k="ssr:stedsnr" v="967957" />
		<tag k="waterway" v="stream" />
	</node>
	<node id="-207231" lat="69.0152499962" lon="15.4645916688">
		<tag k="name" v="Nord-Revsnestjønna" />
		<tag k="natural" v="water" />
		<tag k="ssr:stedsnr" v="967953" />
	</node>
	<node id="-207229" lat="69.1559583349" lon="15.919402781">
		<tag k="name" v="Vargholtjønna" />
		<tag k="natural" v="water" />
		<tag k="ssr:stedsnr" v="967828" />
	</node>
	<node id="-207228" lat="69.0599388872" lon="15.7710277873">
		<tag k="name" v="Åneselva" />
		<tag k="ssr:stedsnr" v="966116" />
		<tag k="waterway" v="stream" />
	</node>
	<node id="-207214" lat="69.175786109" lon="16.0030222183">
		<tag k="name" v="Gårdselva" />
		<tag k="ssr:stedsnr" v="929101" />
		<tag k="waterway" v="river" />
	</node>
	<node id="-207212" lat="68.8850972218" lon="15.6435888798">
		<tag k="name" v="Teinvatnet" />
		<tag k="natural" v="water" />
		<tag k="ssr:stedsnr" v="928429" />
	</node>
	<node id="-207204" lat="69.1589416645" lon="15.9574861172">
		<tag k="name" v="Littjeneset" />
		<tag k="natural" v="cape" />
		<tag k="ssr:stedsnr" v="907817" />
	</node>
	<node id="-207203" lat="69.2494972256" lon="16.0147694426">
		<tag k="name" v="Trolldalselva" />
		<tag k="ssr:stedsnr" v="907812" />
		<tag k="waterway" v="stream" />
	</node>
	<node id="-207199" lat="69.1147444477" lon="15.6689694423">
		<tag k="name" v="Steinneset" />
		<tag k="natural" v="cape" />
		<tag k="ssr:stedsnr" v="905013" />
	</node>
	<node id="-207193" lat="69.2585194443" lon="15.9586138973">
		<tag k="name" v="Gåsøybekken" />
		<tag k="ssr:stedsnr" v="886611" />
		<tag k="waterway" v="stream" />
	</node>
	<node id="-207191" lat="68.9077833301" lon="15.5455749958">
		<tag k="name" v="Mølnelva" />
		<tag k="ssr:stedsnr" v="885919" />
		<tag k="waterway" v="river" />
	</node>
	<node id="-207190" lat="69.0157249987" lon="15.6977111147">
		<tag k="name" v="Alterbekken" />
		<tag k="ssr:stedsnr" v="885518" />
		<tag k="waterway" v="stream" />
	</node>
	<node id="-207186" lat="68.8982944416" lon="15.6095055628">
		<tag k="name" v="Hestnestjønna" />
		<tag k="natural" v="water" />
		<tag k="ssr:stedsnr" v="950194" />
	</node>
	<node id="-207180" lat="68.9972555557" lon="15.7284027848">
		<tag k="name" v="Ellingbekken" />
		<tag k="ssr:stedsnr" v="947748" />
		<tag k="waterway" v="stream" />
	</node>
	<node id="-207169" lat="69.049216669" lon="15.849769457">
		<tag k="name" v="Hønshøllet" />
		<tag k="place" v="locality" />
		<tag k="ssr:stedsnr" v="946260" />
	</node>
	<node id="-207156" lat="68.9599444455" lon="15.7349083445">
		<tag k="name" v="Jordbekken" />
		<tag k="ssr:stedsnr" v="945065" />
		<tag k="waterway" v="stream" />
	</node>
	<node id="-207153" lat="68.9730194484" lon="15.5404972218">
		<tag k="name" v="Elveosen" />
		<tag k="natural" v="bay" />
		<tag k="ssr:stedsnr" v="846939" />
	</node>
	<node id="-207145" lat="69.2263527783" lon="15.9349361203">
		<tag k="name" v="Manlebekken" />
		<tag k="ssr:stedsnr" v="824459" />
		<tag k="waterway" v="stream" />
	</node>
	<node id="-207142" lat="68.9046111123" lon="15.4430472124">
		<tag k="name" v="Hestebekken" />
		<tag k="ssr:stedsnr" v="824022" />
		<tag k="waterway" v="stream" />
	</node>
	<node id="-207136" lat="68.8964416641" lon="15.4982333282">
		<tag k="alt_name" v="Nermarskvatnet" />
		<tag k="fixme" v="multiple name tags, choose one and add the other to alt_name" />
		<tag k="name" v="Nermarkvatnet;Overmarkvatnet" />
		<tag k="natural" v="water" />
		<tag k="ssr:stedsnr" v="928662" />
	</node>
	<node id="-207133" lat="68.9137166676" lon="15.4684861048">
		<tag k="name" v="Litlevatnet" />
		<tag k="place" v="locality" />
		<tag k="ssr:stedsnr" v="928620" />
	</node>
	<node id="-207129" lat="68.9750166701" lon="15.4685889013">
		<tag k="alt_name" v="Littjevatnet" />
		<tag k="name" v="Litlevatnet" />
		<tag k="natural" v="water" />
		<tag k="ssr:stedsnr" v="928579" />
	</node>
	<node id="-207122" lat="69.2732666644" lon="16.1067611207">
		<tag k="alt_name" v="Lomstjørna" />
		<tag k="name" v="Lomtjønna" />
>>>>>>> e1d4bc35ff8a6074a6f2e91616a996b547c36f15
		<tag k="natural" v="water" />
		<tag k="ssr:stedsnr" v="928212" />
	</node>
<<<<<<< HEAD
	<node lat="68.95636944360972" lon="15.512813890203548" id="-12305">
		<tag k="alt_name" v="Stor-Høgtindvatnet" />
		<tag k="fixme" v="multiple name tags, choose one and add the other to alt_name" />
		<tag k="name" v="Store Høgtindvatnet;Øver-Høgtindvatnet;Høgtindvatnet" />
		<tag k="natural" v="water" />
		<tag k="ssr:stedsnr" v="746625" />
		<tag k="water" v="lake" />
	</node>
	<node lat="68.93596667023874" lon="15.497724988556927" id="-12308">
		<tag k="name" v="Langvatnet" />
		<tag k="natural" v="water" />
		<tag k="ssr:stedsnr" v="750291" />
		<tag k="water" v="lake" />
	</node>
	<node lat="68.97479999932575" lon="15.638372209969674" id="-12312">
		<tag k="name" v="Laugen" />
		<tag k="natural" v="water" />
		<tag k="ssr:stedsnr" v="763098" />
	</node>
	<node lat="68.93630555810437" lon="15.663786118112418" id="-12325">
		<tag k="name" v="Littje-Trollurvatnet" />
		<tag k="natural" v="water" />
		<tag k="ssr:stedsnr" v="764462" />
	</node>
	<node lat="68.92541111438513" lon="15.688505553769994" id="-12335">
		<tag k="name" v="Skjellkråvatnet" />
		<tag k="natural" v="water" />
		<tag k="ssr:stedsnr" v="768889" />
	</node>
	<node lat="69.02729999644744" lon="15.789061097282099" id="-12345">
		<tag k="name" v="Lomstjønna" />
		<tag k="natural" v="water" />
		<tag k="ssr:stedsnr" v="783472" />
	</node>
	<node lat="68.94588888909713" lon="15.567944441310624" id="-12350">
		<tag k="name" v="Krokbekken" />
		<tag k="ssr:stedsnr" v="785964" />
		<tag k="waterway" v="stream" />
	</node>
	<node lat="69.15100833120695" lon="15.959883340404902" id="-12359">
		<tag k="name" v="Sørneset" />
		<tag k="natural" v="cape" />
		<tag k="ssr:stedsnr" v="787343" />
	</node>
	<node lat="69.21521389079385" lon="16.006202786722785" id="-12361">
		<tag k="name" v="Sverigedalsvatnet" />
		<tag k="natural" v="water" />
		<tag k="ssr:stedsnr" v="806171" />
		<tag k="water" v="lake" />
	</node>
	<node lat="69.21961667044233" lon="16.024944437608074" id="-12362">
		<tag k="name" v="Brattheivatnet" />
		<tag k="natural" v="water" />
		<tag k="ssr:stedsnr" v="806174" />
	</node>
	<node lat="69.22183610941057" lon="15.927616664733707" id="-12364">
		<tag k="name" v="Sortebekken" />
		<tag k="ssr:stedsnr" v="806178" />
		<tag k="waterway" v="stream" />
	</node>
	<node lat="69.08500000199999" lon="15.787105559942473" id="-12366">
		<tag k="fixme" v="multiple name tags, choose one and add the other to alt_name" />
		<tag k="name" v="Storvatnet;Stortindvatnet" />
		<tag k="natural" v="water" />
		<tag k="ssr:stedsnr" v="806189" />
		<tag k="water" v="lake" />
	</node>
	<node lat="69.24749444189123" lon="15.88167222951067" id="-12367">
		<tag k="name" v="Otervikvatnet" />
		<tag k="natural" v="water" />
		<tag k="ssr:stedsnr" v="806321" />
	</node>
	<node lat="68.82601110990167" lon="15.753466678177547" id="-12368">
		<tag k="alt_name" v="Eidselva" />
		<tag k="name" v="Eideselva" />
		<tag k="ssr:stedsnr" v="806005" />
		<tag k="waterway" v="stream" />
	</node>
	<node lat="69.0439388858775" lon="15.721458335174875" id="-12370">
		<tag k="alt_name" v="Tækndalsvatnet" />
		<tag k="fixme" v="multiple name tags, choose one and add the other to alt_name" />
		<tag k="name" v="Breitindsvatnet;Teknedalsvatnet" />
		<tag k="natural" v="water" />
		<tag k="ssr:stedsnr" v="806039" />
	</node>
	<node lat="69.05626944266479" lon="15.671100002084074" id="-12373">
=======
	<node id="-207121" lat="69.2673888878" lon="16.1209916721">
		<tag k="name" v="Blomvatnet" />
		<tag k="natural" v="water" />
		<tag k="ssr:stedsnr" v="928206" />
	</node>
	<node id="-207120" lat="69.2619999969" lon="16.1348861138">
		<tag k="fixme" v="multiple name tags, choose one and add the other to alt_name" />
		<tag k="name" v="Steintjørna;Sæingstjønna" />
		<tag k="natural" v="water" />
		<tag k="ssr:stedsnr" v="928204" />
	</node>
	<node id="-207117" lat="69.0812388887" lon="15.8082694507">
		<tag k="alt_name" v="Småtindsvatnan" />
		<tag k="name" v="Småtindvatnan" />
		<tag k="natural" v="water" />
		<tag k="ssr:stedsnr" v="928188" />
		<tag k="water" v="lake" />
	</node>
	<node id="-207110" lat="69.227155559" lon="16.0726777891">
		<tag k="alt_name" v="Kroktjørna" />
		<tag k="name" v="Kroktjønna" />
		<tag k="natural" v="water" />
		<tag k="ssr:stedsnr" v="928141" />
	</node>
	<node id="-207108" lat="69.1562388907" lon="15.9580500071">
		<tag k="name" v="Sauravatnet" />
		<tag k="natural" v="water" />
		<tag k="ssr:stedsnr" v="928133" />
		<tag k="water" v="lake" />
	</node>
	<node id="-207105" lat="69.195613885" lon="15.9581666613">
		<tag k="fixme" v="multiple name tags, choose one and add the other to alt_name" />
		<tag k="name" v="Feskelausvatnet;Høgfjellvatnet;Ramsanakkvatnet" />
		<tag k="natural" v="water" />
		<tag k="ssr:stedsnr" v="928116" />
	</node>
	<node id="-207103" lat="68.8029805516" lon="15.7322472253">
		<tag k="name" v="Finnjonsabekken" />
		<tag k="ssr:stedsnr" v="928089" />
		<tag k="waterway" v="stream" />
	</node>
	<node id="-207102" lat="69.0106527814" lon="15.6664472174">
		<tag k="alt_name" v="Litlevatnet" />
		<tag k="name" v="Littjevatnet" />
		<tag k="natural" v="water" />
		<tag k="ssr:stedsnr" v="928051" />
	</node>
	<node id="-207101" lat="68.8615361094" lon="15.7514999966">
		<tag k="name" v="Magervatnet" />
		<tag k="natural" v="water" />
		<tag k="ssr:stedsnr" v="928047" />
	</node>
	<node id="-207098" lat="68.8457361078" lon="15.7571722154">
		<tag k="name" v="Finnsæterelva" />
		<tag k="ssr:stedsnr" v="928028" />
		<tag k="waterway" v="stream" />
	</node>
	<node id="-207095" lat="69.0614472216" lon="15.615391671">
		<tag k="alt_name" v="Småklempvatnet, store;Stor-Småklempvatnet" />
		<tag k="name" v="Store Småklempvatnet" />
		<tag k="natural" v="water" />
		<tag k="ssr:stedsnr" v="806366" />
	</node>
	<node id="-207093" lat="69.1212055585" lon="15.6656999916">
		<tag k="name" v="Vassøya" />
		<tag k="place" v="island" />
		<tag k="ssr:stedsnr" v="806230" />
	</node>
	<node id="-207092" lat="69.0699222247" lon="15.812066673">
		<tag k="alt_name" v="Mølnvatnet" />
		<tag k="name" v="Mølnevatnet" />
		<tag k="natural" v="water" />
		<tag k="ssr:stedsnr" v="806221" />
		<tag k="water" v="lake" />
	</node>
	<node id="-207091" lat="69.0562694427" lon="15.6711000021">
>>>>>>> e1d4bc35ff8a6074a6f2e91616a996b547c36f15
		<tag k="name" v="Bødalsvatnet" />
		<tag k="natural" v="water" />
		<tag k="ssr:stedsnr" v="806212" />
		<tag k="water" v="lake" />
	</node>
<<<<<<< HEAD
	<node lat="69.06992222474364" lon="15.812066672978998" id="-12374">
		<tag k="alt_name" v="Mølnvatnet" />
		<tag k="name" v="Mølnevatnet" />
		<tag k="natural" v="water" />
		<tag k="ssr:stedsnr" v="806221" />
		<tag k="water" v="lake" />
	</node>
	<node lat="69.12120555848774" lon="15.665699991629692" id="-12375">
		<tag k="name" v="Vassøya" />
		<tag k="place" v="island" />
		<tag k="ssr:stedsnr" v="806230" />
	</node>
	<node lat="69.10141944012527" lon="15.74910000229228" id="-12379">
		<tag k="name" v="Skavdalselva" />
		<tag k="ssr:stedsnr" v="806255" />
		<tag k="waterway" v="stream" />
	</node>
	<node lat="69.06144722155933" lon="15.615391671036095" id="-12382">
		<tag k="alt_name" v="Småklempvatnet, store;Stor-Småklempvatnet" />
		<tag k="name" v="Store Småklempvatnet" />
		<tag k="natural" v="water" />
		<tag k="ssr:stedsnr" v="806366" />
	</node>
	<node lat="69.02536944878277" lon="15.61265277950306" id="-12384">
		<tag k="alt_name" v="Kobbedalsvatnet, nedre;Ner-Kobbedalsvatnet" />
		<tag k="name" v="Nedre Kobbedalsvatnet" />
		<tag k="natural" v="water" />
		<tag k="ssr:stedsnr" v="806330" />
	</node>
	<node lat="69.01584444715142" lon="15.663275010751462" id="-12402">
		<tag k="name" v="Storvatnet" />
		<tag k="natural" v="water" />
		<tag k="ssr:stedsnr" v="807041" />
	</node>
	<node lat="68.86831389227741" lon="15.659188895167306" id="-12404">
		<tag k="alt_name" v="Kringelvasstjørna" />
		<tag k="name" v="Kringelvasstjønna" />
		<tag k="natural" v="water" />
		<tag k="ssr:stedsnr" v="807061" />
	</node>
	<node lat="69.2627694465815" lon="15.952244436494734" id="-12409">
		<tag k="alt_name" v="Litlevatnet" />
		<tag k="name" v="Littjevatnet" />
		<tag k="natural" v="water" />
		<tag k="ssr:stedsnr" v="807230" />
		<tag k="water" v="lake" />
	</node>
	<node lat="68.88693055348399" lon="15.700344443739535" id="-12412">
		<tag k="name" v="Eikefjellelva" />
		<tag k="ssr:stedsnr" v="807451" />
		<tag k="waterway" v="river" />
	</node>
	<node lat="69.29746667038226" lon="16.0536472197498" id="-12418">
		<tag k="name" v="Rambergselva" />
		<tag k="ssr:stedsnr" v="810843" />
		<tag k="waterway" v="river" />
	</node>
	<node lat="68.88658333567882" lon="15.44338333734494" id="-12425">
		<tag k="name" v="Littje-Sandneselva" />
		<tag k="ssr:stedsnr" v="824050" />
		<tag k="waterway" v="stream" />
	</node>
	<node lat="69.22635277834617" lon="15.934936120279993" id="-12432">
		<tag k="name" v="Manlebekken" />
		<tag k="ssr:stedsnr" v="824459" />
		<tag k="waterway" v="stream" />
	</node>
	<node lat="68.95758610787622" lon="15.68751110342182" id="-12436">
		<tag k="name" v="Tyssbekken" />
		<tag k="ssr:stedsnr" v="825037" />
		<tag k="waterway" v="stream" />
	</node>
	<node lat="68.90044166192884" lon="15.774155562837667" id="-12455">
		<tag k="name" v="Øver-Magervatnet" />
		<tag k="natural" v="water" />
		<tag k="ssr:stedsnr" v="845006" />
	</node>
	<node lat="69.1227722236041" lon="15.68010556343225" id="-12458">
		<tag k="name" v="Vassosen" />
		<tag k="natural" v="bay" />
		<tag k="ssr:stedsnr" v="845023" />
	</node>
	<node lat="69.04968055155801" lon="15.769088888796823" id="-12459">
		<tag k="alt_name" v="Tækndalsneset" />
		<tag k="name" v="Teknedalsneset" />
		<tag k="natural" v="cape" />
		<tag k="ssr:stedsnr" v="845122" />
	</node>
	<node lat="68.97301944844858" lon="15.540497221796002" id="-12464">
		<tag k="name" v="Elveosen" />
		<tag k="natural" v="bay" />
		<tag k="ssr:stedsnr" v="846939" />
	</node>
	<node lat="69.01358333381158" lon="15.460805550228308" id="-12467">
		<tag k="name" v="Sør-Revsnestjønna" />
		<tag k="natural" v="water" />
		<tag k="ssr:stedsnr" v="846959" />
	</node>
	<node lat="69.23853888859861" lon="16.05369722963594" id="-12469">
		<tag k="name" v="Kristenbekken" />
		<tag k="ssr:stedsnr" v="846870" />
		<tag k="waterway" v="stream" />
	</node>
	<node lat="69.11860555784455" lon="15.639899996383699" id="-12472">
		<tag k="name" v="Storsteinneset" />
		<tag k="natural" v="cape" />
		<tag k="ssr:stedsnr" v="848016" />
	</node>
	<node lat="69.06920555986018" lon="15.628049996180708" id="-12473">
		<tag k="name" v="Båsvatnet" />
		<tag k="natural" v="water" />
		<tag k="ssr:stedsnr" v="848221" />
	</node>
	<node lat="69.03504444757185" lon="15.684224998748515" id="-12474">
		<tag k="name" v="Vakkerdalselva" />
		<tag k="ssr:stedsnr" v="848295" />
		<tag k="waterway" v="stream" />
	</node>
	<node lat="69.04553610698632" lon="15.675680550733388" id="-12477">
		<tag k="name" v="Skarbekken" />
		<tag k="ssr:stedsnr" v="848171" />
		<tag k="waterway" v="stream" />
	</node>
	<node lat="69.09604444776981" lon="15.756000001343281" id="-12479">
		<tag k="name" v="Åbergsjordelva" />
		<tag k="ssr:stedsnr" v="848238" />
		<tag k="waterway" v="stream" />
	</node>
	<node lat="69.02434722083332" lon="15.757838896066003" id="-12481">
		<tag k="name" v="Bulibekken" />
		<tag k="ssr:stedsnr" v="848266" />
		<tag k="waterway" v="stream" />
	</node>
	<node lat="69.13546110916562" lon="15.931372216917055" id="-12482">
		<tag k="name" v="Sørholmen" />
		<tag k="place" v="islet" />
		<tag k="ssr:stedsnr" v="848354" />
	</node>
	<node lat="68.82588332997425" lon="15.80869443982983" id="-12484">
		<tag k="name" v="Durmålsvatnet" />
		<tag k="natural" v="water" />
		<tag k="ssr:stedsnr" v="867007" />
	</node>
	<node lat="69.0079388882892" lon="15.595733324597422" id="-12487">
		<tag k="name" v="Storjordbekken" />
		<tag k="ssr:stedsnr" v="867342" />
		<tag k="waterway" v="stream" />
	</node>
	<node lat="68.85437499865407" lon="15.73376945363656" id="-12490">
		<tag k="name" v="Ressmålsvatnan" />
		<tag k="natural" v="water" />
		<tag k="ssr:stedsnr" v="867052" />
		<tag k="water" v="lake" />
	</node>
	<node lat="69.19780000406179" lon="15.856219433467512" id="-12495">
		<tag k="alt_name" v="Staveelva" />
		<tag k="name" v="Stavaelva" />
		<tag k="ssr:stedsnr" v="867166" />
		<tag k="waterway" v="river" />
	</node>
	<node lat="69.20050555273147" lon="15.960802780289201" id="-12496">
		<tag k="name" v="Rundnakkvatnet" />
		<tag k="natural" v="water" />
		<tag k="ssr:stedsnr" v="867169" />
		<tag k="water" v="lake" />
	</node>
	<node lat="69.1418138907474" lon="15.937683332950298" id="-12497">
		<tag k="fixme" v="multiple name tags, choose one and add the other to alt_name" />
		<tag k="name" v="Oltervatnet;Prestvatnet" />
		<tag k="natural" v="water" />
		<tag k="ssr:stedsnr" v="867176" />
		<tag k="water" v="lake" />
	</node>
	<node lat="69.07630000170249" lon="15.82281667412085" id="-12500">
		<tag k="name" v="Kannebekken" />
		<tag k="ssr:stedsnr" v="867250" />
		<tag k="waterway" v="stream" />
	</node>
	<node lat="69.06944722409071" lon="15.870572219599842" id="-12501">
		<tag k="name" v="Sellevollvatnet" />
		<tag k="natural" v="water" />
		<tag k="ssr:stedsnr" v="867254" />
		<tag k="water" v="lake" />
	</node>
	<node lat="69.1408750045345" lon="15.73049721531847" id="-12502">
		<tag k="alt_name" v="Fugltjørna;Fuggeltjønna" />
		<tag k="name" v="Fugltjønna" />
		<tag k="natural" v="water" />
		<tag k="ssr:stedsnr" v="867268" />
	</node>
	<node lat="69.10134721882784" lon="15.592999996768311" id="-12504">
		<tag k="fixme" v="multiple name tags, choose one and add the other to alt_name" />
		<tag k="name" v="Børvågvatnet;Børvågdalsvatnet" />
		<tag k="natural" v="water" />
		<tag k="ssr:stedsnr" v="867301" />
	</node>
	<node lat="69.07472499984856" lon="15.570425006637254" id="-12505">
		<tag k="name" v="Storelva" />
		<tag k="ssr:stedsnr" v="867378" />
		<tag k="waterway" v="stream" />
	</node>
	<node lat="69.06254166592107" lon="15.587311099938645" id="-12506">
		<tag k="name" v="Heivatnet" />
		<tag k="natural" v="water" />
		<tag k="ssr:stedsnr" v="867390" />
	</node>
	<node lat="68.8987111136253" lon="15.48437221506285" id="-12521">
		<tag k="name" v="Trollvatnet" />
		<tag k="natural" v="water" />
		<tag k="ssr:stedsnr" v="867732" />
	</node>
	<node lat="68.90817221814322" lon="15.797286107130585" id="-12534">
		<tag k="name" v="Feskarneset" />
		<tag k="natural" v="cape" />
		<tag k="ssr:stedsnr" v="871536" />
	</node>
	<node lat="68.86746388833498" lon="15.735122216095215" id="-12538">
		<tag k="name" v="Høgtindholm" />
		<tag k="natural" v="cape" />
		<tag k="ssr:stedsnr" v="885095" />
	</node>
	<node lat="69.26599444504032" lon="15.95636111265072" id="-12545">
		<tag k="name" v="Vassosen" />
		<tag k="natural" v="bay" />
		<tag k="ssr:stedsnr" v="885580" />
	</node>
	<node lat="69.22078055943244" lon="15.855658339867501" id="-12551">
		<tag k="name" v="Sandelva" />
		<tag k="ssr:stedsnr" v="885936" />
		<tag k="waterway" v="stream" />
	</node>
	<node lat="69.25851944432151" lon="15.958613897318228" id="-12555">
		<tag k="name" v="Gåsøybekken" />
		<tag k="ssr:stedsnr" v="886611" />
		<tag k="waterway" v="stream" />
	</node>
	<node lat="69.24334166578353" lon="15.912655545840563" id="-12556">
		<tag k="name" v="Vesterbotn" />
		<tag k="natural" v="bay" />
		<tag k="ssr:stedsnr" v="886635" />
	</node>
	<node lat="68.95994444552083" lon="15.734908344523445" id="-12567">
		<tag k="name" v="Jordbekken" />
		<tag k="ssr:stedsnr" v="945065" />
		<tag k="waterway" v="stream" />
	</node>
	<node lat="69.04921666901356" lon="15.849769456952497" id="-12578">
		<tag k="name" v="Hønshøllet" />
		<tag k="place" v="locality" />
		<tag k="ssr:stedsnr" v="946260" />
	</node>
	<node lat="68.99725555572329" lon="15.728402784823063" id="-12586">
		<tag k="name" v="Ellingbekken" />
		<tag k="ssr:stedsnr" v="947748" />
		<tag k="waterway" v="stream" />
	</node>
	<node lat="69.14589444216874" lon="15.775169431581638" id="-12595">
		<tag k="name" v="Vassbotn" />
		<tag k="natural" v="bay" />
		<tag k="ssr:stedsnr" v="952318" />
	</node>
	<node lat="69.05993888724306" lon="15.771027787304206" id="-12604">
		<tag k="name" v="Åneselva" />
		<tag k="ssr:stedsnr" v="966116" />
		<tag k="waterway" v="stream" />
	</node>
	<node lat="68.9982666692944" lon="15.479886101413582" id="-12605">
		<tag k="name" v="Latjønnbekken" />
		<tag k="ssr:stedsnr" v="967957" />
		<tag k="waterway" v="stream" />
	</node>
	<node lat="69.15595833487343" lon="15.919402780958766" id="-12612">
		<tag k="name" v="Vargholtjønna" />
		<tag k="natural" v="water" />
		<tag k="ssr:stedsnr" v="967828" />
	</node>
	<node lat="69.06864444603117" lon="15.696861103950319" id="-12619">
		<tag k="name" v="Sortakselbekken" />
		<tag k="ssr:stedsnr" v="969057" />
		<tag k="waterway" v="stream" />
	</node>
	<node lat="69.05651944827393" lon="15.711969434348555" id="-12620">
		<tag k="name" v="Nordvatnet" />
		<tag k="natural" v="water" />
		<tag k="ssr:stedsnr" v="969138" />
	</node>
	<node lat="69.10493055930966" lon="15.64852223210764" id="-12622">
		<tag k="name" v="Nattmålstjønnelva" />
		<tag k="ssr:stedsnr" v="969255" />
=======
	<node id="-207089" lat="68.8260111099" lon="15.7534666782">
		<tag k="alt_name" v="Eidselva" />
		<tag k="name" v="Eideselva" />
		<tag k="ssr:stedsnr" v="806005" />
		<tag k="waterway" v="stream" />
	</node>
	<node id="-207085" lat="69.1176472192" lon="15.7419388814">
		<tag k="name" v="Steinvasselva" />
		<tag k="ssr:stedsnr" v="927268" />
		<tag k="waterway" v="stream" />
	</node>
	<node id="-207083" lat="69.1036666705" lon="15.648308331">
		<tag k="alt_name" v="Nattmålstjørna" />
		<tag k="name" v="Nattmålstjønna" />
		<tag k="natural" v="water" />
		<tag k="ssr:stedsnr" v="927252" />
	</node>
	<node id="-207073" lat="69.2874361081" lon="16.161808344">
		<tag k="name" v="Haugneselva" />
		<tag k="ssr:stedsnr" v="786808" />
		<tag k="waterway" v="stream" />
	</node>
	<node id="-207066" lat="69.2132805564" lon="15.8701861113">
		<tag k="name" v="Stråvatnet" />
		<tag k="natural" v="water" />
		<tag k="ssr:stedsnr" v="764915" />
	</node>
	<node id="-207063" lat="68.9363055581" lon="15.6637861181">
		<tag k="name" v="Littje-Trollurvatnet" />
		<tag k="natural" v="water" />
		<tag k="ssr:stedsnr" v="764462" />
	</node>
	<node id="-207060" lat="68.9747999993" lon="15.63837221">
		<tag k="name" v="Laugen" />
		<tag k="natural" v="water" />
		<tag k="ssr:stedsnr" v="763098" />
	</node>
	<node id="-207054" lat="69.1399777807" lon="15.9338055445">
		<tag k="name" v="Valan" />
		<tag k="natural" v="bay" />
		<tag k="ssr:stedsnr" v="908358" />
	</node>
	<node id="-207052" lat="69.012000001" lon="15.5964694565">
		<tag k="name" v="Einebærholtjønna" />
		<tag k="natural" v="water" />
		<tag k="ssr:stedsnr" v="907974" />
	</node>
	<node id="-207050" lat="69.0087499983" lon="15.470808339">
		<tag k="name" v="Mannratjønna" />
		<tag k="natural" v="water" />
		<tag k="ssr:stedsnr" v="907961" />
	</node>
	<node id="-207048" lat="69.0459277805" lon="15.5106694331">
		<tag k="name" v="Gorrtjønna" />
		<tag k="natural" v="water" />
		<tag k="ssr:stedsnr" v="907950" />
	</node>
	<node id="-207044" lat="69.2013916645" lon="16.103083329">
		<tag k="name" v="Tørrtjønnan" />
		<tag k="natural" v="water" />
		<tag k="ssr:stedsnr" v="907799" />
		<tag k="water" v="lake" />
	</node>
	<node id="-207033" lat="68.9099166637" lon="15.4792888916">
		<tag k="alt_name" v="Storvatnet" />
		<tag k="name" v="Dalsvatnet" />
		<tag k="natural" v="water" />
		<tag k="ssr:stedsnr" v="745676" />
	</node>
	<node id="-207032" lat="68.9109833332" lon="15.5175611159">
		<tag k="alt_name" v="Brynneldalsvatnet" />
		<tag k="name" v="Brynlidalsvatnet" />
		<tag k="natural" v="water" />
		<tag k="ssr:stedsnr" v="745674" />
	</node>
	<node id="-207021" lat="69.0469194434" lon="15.6424722271">
		<tag k="name" v="Littje-Memålsvatnet" />
		<tag k="natural" v="water" />
		<tag k="ssr:stedsnr" v="726163" />
	</node>
	<node id="-207018" lat="68.939938886" lon="15.5419305477">
		<tag k="name" v="Høgtindbekken" />
		<tag k="ssr:stedsnr" v="725974" />
		<tag k="waterway" v="stream" />
	</node>
	<node id="-207016" lat="68.9703944451" lon="15.542455554">
		<tag k="name" v="Øver-Stokkvatnet" />
		<tag k="natural" v="water" />
		<tag k="ssr:stedsnr" v="725965" />
	</node>
	<node id="-207014" lat="69.3022527812" lon="16.0845083234">
		<tag k="name" v="Littje-Steinsvatnet" />
		<tag k="natural" v="water" />
		<tag k="ssr:stedsnr" v="725761" />
	</node>
	<node id="-207007" lat="69.1686472259" lon="15.8498861006">
		<tag k="name" v="Snarsettjønna" />
		<tag k="natural" v="water" />
		<tag k="ssr:stedsnr" v="709322" />
	</node>
	<node id="-206993" lat="69.1365333342" lon="15.7711638985">
		<tag k="name" v="Teppelva" />
		<tag k="ssr:stedsnr" v="892289" />
		<tag k="waterway" v="stream" />
	</node>
	<node id="-206973" lat="69.2433416658" lon="15.9126555458">
		<tag k="name" v="Vesterbotn" />
		<tag k="natural" v="bay" />
		<tag k="ssr:stedsnr" v="886635" />
	</node>
	<node id="-206968" lat="69.2207805594" lon="15.8556583399">
		<tag k="name" v="Sandelva" />
		<tag k="ssr:stedsnr" v="885936" />
		<tag k="waterway" v="stream" />
	</node>
	<node id="-206965" lat="69.265994445" lon="15.9563611127">
		<tag k="name" v="Vassosen" />
		<tag k="natural" v="bay" />
		<tag k="ssr:stedsnr" v="885580" />
	</node>
	<node id="-206955" lat="68.8674638883" lon="15.7351222161">
		<tag k="name" v="Høgtindholm" />
		<tag k="natural" v="cape" />
		<tag k="ssr:stedsnr" v="885095" />
	</node>
	<node id="-206951" lat="68.9314000033" lon="15.5010166605">
		<tag k="name" v="Trollvatnet" />
		<tag k="natural" v="water" />
		<tag k="ssr:stedsnr" v="685626" />
	</node>
	<node id="-206947" lat="69.1201861131" lon="15.8394527654">
		<tag k="alt_name" v="Okkelvatnet" />
		<tag k="name" v="Oklevatnet" />
		<tag k="natural" v="water" />
		<tag k="ssr:stedsnr" v="685231" />
	</node>
	<node id="-206943" lat="69.1310194453" lon="16.0141777715">
		<tag k="name" v="Bogstjørna" />
		<tag k="natural" v="water" />
		<tag k="ssr:stedsnr" v="685205" />
	</node>
	<node id="-206942" lat="69.0423166674" lon="15.7567055679">
		<tag k="alt_name" v="Tækndalstjønna" />
		<tag k="name" v="Teknedalstjønna" />
		<tag k="natural" v="water" />
		<tag k="ssr:stedsnr" v="665303" />
	</node>
	<node id="-206937" lat="69.0449361112" lon="15.7320638859">
		<tag k="alt_name" v="Tækndalselva" />
		<tag k="name" v="Teknedalselva" />
		<tag k="ssr:stedsnr" v="665139" />
		<tag k="waterway" v="stream" />
	</node>
	<node id="-206935" lat="69.1314166672" lon="15.775686119">
		<tag k="name" v="Bonstjønna" />
		<tag k="natural" v="water" />
		<tag k="ssr:stedsnr" v="648326" />
	</node>
	<node id="-206926" lat="69.0767166673" lon="15.7331499974">
		<tag k="name" v="Grunnvasselva" />
		<tag k="ssr:stedsnr" v="727216" />
		<tag k="waterway" v="stream" />
	</node>
	<node id="-206922" lat="69.0247777782" lon="15.7162222108">
		<tag k="name" v="Tverrbekken" />
		<tag k="ssr:stedsnr" v="726287" />
		<tag k="waterway" v="stream" />
	</node>
	<node id="-206177" lat="69.0555194475" lon="15.7786944524">
		<tag k="name" v="Storsteinneset" />
		<tag k="natural" v="cape" />
		<tag k="ssr:stedsnr" v="238104" />
	</node>
	<node id="-206913" lat="69.247383333" lon="16.0710444346">
		<tag k="name" v="Tverrbekken" />
		<tag k="ssr:stedsnr" v="725812" />
		<tag k="waterway" v="stream" />
	</node>
	<node id="-206906" lat="68.9524666648" lon="15.5748749883">
		<tag k="name" v="Tjønnbekken" />
		<tag k="ssr:stedsnr" v="603965" />
		<tag k="waterway" v="stream" />
	</node>
	<node id="-206892" lat="69.0674388885" lon="15.5978749957">
		<tag k="name" v="Sivtjønna" />
		<tag k="natural" v="bay" />
		<tag k="ssr:stedsnr" v="709785" />
	</node>
	<node id="-206883" lat="69.2439472183" lon="16.0854666671">
		<tag k="name" v="Tverrbekken" />
		<tag k="ssr:stedsnr" v="582917" />
		<tag k="waterway" v="stream" />
	</node>
	<node id="-206880" lat="69.2673472239" lon="15.9448277686">
		<tag k="name" v="Bukkevatnet" />
		<tag k="natural" v="water" />
		<tag k="ssr:stedsnr" v="581605" />
	</node>
	<node id="-206876" lat="68.9501388866" lon="15.6393305439">
		<tag k="name" v="Elvetjønna" />
		<tag k="natural" v="water" />
		<tag k="ssr:stedsnr" v="581512" />
	</node>
	<node id="-206875" lat="69.0557111145" lon="15.8939694516">
		<tag k="name" v="Løkkebekken" />
		<tag k="ssr:stedsnr" v="581318" />
		<tag k="waterway" v="stream" />
	</node>
	<node id="-206874" lat="69.0642333324" lon="15.8458888785">
		<tag k="name" v="Røllikelva" />
		<tag k="ssr:stedsnr" v="581312" />
		<tag k="waterway" v="stream" />
	</node>
	<node id="-206871" lat="68.9135388865" lon="15.5490555422">
		<tag k="name" v="Håkjerringbekken" />
		<tag k="ssr:stedsnr" v="707900" />
		<tag k="waterway" v="stream" />
	</node>
	<node id="-206870" lat="68.920166669" lon="15.7006500094">
		<tag k="name" v="Skjellbekken" />
		<tag k="ssr:stedsnr" v="707876" />
		<tag k="waterway" v="stream" />
	</node>
	<node id="-206869" lat="68.9340305558" lon="15.7461638957">
		<tag k="name" v="Krokelva" />
		<tag k="ssr:stedsnr" v="707873" />
		<tag k="waterway" v="stream" />
	</node>
	<node id="-206429" lat="68.9452499963" lon="15.8295777688">
		<tag k="name" v="Durmålsdalsvatnet" />
		<tag k="natural" v="water" />
		<tag k="ssr:stedsnr" v="298011" />
	</node>
	<node id="-206863" lat="68.90109444" lon="15.6844361205">
		<tag k="name" v="Storvassholmen" />
		<tag k="place" v="islet" />
		<tag k="ssr:stedsnr" v="707199" />
	</node>
	<node id="-206862" lat="68.8937444408" lon="15.6741305471">
		<tag k="name" v="Ol-Andreasbekken" />
		<tag k="ssr:stedsnr" v="707192" />
>>>>>>> e1d4bc35ff8a6074a6f2e91616a996b547c36f15
		<tag k="waterway" v="stream" />
	</node>
	<node lat="69.0511357469561" lon="15.582521494578362" id="-12756">
		<tag k="name" v="Aurtjønna" />
		<tag k="natural" v="water" />
		<tag k="ssr:stedsnr" v="1081166" />
		<tag k="water" v="lake" />
	</node>
</osm>
