<?xml version="1.0" encoding="UTF-8"?>
<<<<<<< HEAD
<osm version="0.6" generator="osmapis">
	<node lat="69.25982499687369" lon="16.164494438250877" id="-10179">
		<tag k="name" v="Gårdsraet" />
		<tag k="place" v="farm" />
		<tag k="ssr:stedsnr" v="18213" />
	</node>
	<node lat="69.26330278176003" lon="16.06978055742389" id="-10195">
		<tag k="name" v="Nytoften Nordre" />
		<tag k="place" v="farm" />
		<tag k="ssr:stedsnr" v="36559" />
	</node>
	<node lat="69.30947499686248" lon="16.09478334148277" id="-10226">
		<tag k="name" v="Vestbyen industriområde" />
		<tag k="place" v="quarter" />
		<tag k="ssr:stedsnr" v="58794" />
	</node>
	<node lat="69.09726944214619" lon="15.744588886928982" id="-10228">
		<tag k="name" v="Tofta" />
		<tag k="place" v="farm" />
		<tag k="ssr:stedsnr" v="59212" />
	</node>
	<node lat="68.9998130909928" lon="15.635776418625584" id="-10256">
		<tag k="fixme" v="consider place=hamlet" />
		<tag k="name" v="Bjørnskinn" />
		<tag k="place" v="farm" />
		<tag k="ssr:stedsnr" v="79047" />
	</node>
	<node lat="69.00302500436953" lon="15.752752768833306" id="-10267">
		<tag k="name" v="Sørstranda" />
		<tag k="place" v="farm" />
		<tag k="ssr:stedsnr" v="96385" />
	</node>
	<node lat="69.10221944847567" lon="15.957769443955545" id="-10269">
		<tag k="name" v="Dahle" />
		<tag k="place" v="farm" />
		<tag k="ssr:stedsnr" v="96865" />
	</node>
	<node lat="68.96625000360164" lon="15.730300005347999" id="-10284">
		<tag k="name" v="Lovik" />
		<tag k="place" v="locality" />
		<tag k="ssr:stedsnr" v="114625" />
	</node>
	<node lat="69.05985833114335" lon="15.778974991331475" id="-10286">
		<tag k="name" v="Aspholen" />
		<tag k="place" v="farm" />
		<tag k="ssr:stedsnr" v="116125" />
	</node>
	<node lat="69.27456388701464" lon="15.962358321359286" id="-10304">
		<tag k="name" v="Nordgården" />
		<tag k="place" v="quarter" />
		<tag k="ssr:stedsnr" v="139143" />
	</node>
	<node lat="69.05084701271053" lon="15.872201339818032" id="-10316">
		<tag k="fixme" v="consider place=hamlet" />
		<tag k="name" v="Å" />
=======
<osm generator="osmapis" version="0.6">
	<node id="-208375" lat="68.9403250018" lon="15.6399416646">
		<tag k="name" v="Alsrud" />
		<tag k="place" v="farm" />
		<tag k="ssr:stedsnr" v="825426" />
	</node>
	<node id="-208373" lat="68.8845083312" lon="15.592088893">
		<tag k="name" v="Finvold" />
		<tag k="place" v="isolated_dwelling" />
		<tag k="ssr:stedsnr" v="824552" />
	</node>
	<node id="-208211" lat="68.9196222254" lon="15.618888892">
		<tag k="alt_name" v="Gobakken" />
		<tag k="name" v="Godbakken" />
		<tag k="place" v="farm" />
		<tag k="ssr:stedsnr" v="745702" />
	</node>
	<node id="-207344" lat="69.0747527816" lon="15.5620722217">
		<tag k="name" v="Gammelholen" />
		<tag k="place" v="farm" />
		<tag k="ssr:stedsnr" v="42743" />
	</node>
	<node id="-206318" lat="69.0508470127" lon="15.8722013398">
		<tag k="fixme" v="consider place=hamlet" />
		<tag k="name" v="Å" />
		<tag k="place" v="farm" />
		<tag k="ssr:stedsnr" v="146916" />
	</node>
	<node id="-206315" lat="69.2419277771" lon="16.1147499921">
		<tag k="name" v="Fredheim" />
		<tag k="place" v="farm" />
		<tag k="ssr:stedsnr" v="138185" />
	</node>
	<node id="-206588" lat="69.2612124351" lon="16.1715951735">
		<tag k="fixme" v="consider place=hamlet" />
		<tag k="name" v="Fiskenes" />
>>>>>>> e1d4bc35ff8a6074a6f2e91616a996b547c36f15
		<tag k="place" v="farm" />
		<tag k="ssr:stedsnr" v="146916" />
	</node>
<<<<<<< HEAD
	<node lat="68.92058835761911" lon="15.556195212195973" id="-10319">
		<tag k="fixme" v="consider place=hamlet" />
		<tag k="name" v="Nygård" />
		<tag k="place" v="farm" />
		<tag k="ssr:stedsnr" v="156934" />
	</node>
	<node lat="69.00075278164059" lon="15.626347221318532" id="-10326">
		<tag k="name" v="Mellagården" />
		<tag k="place" v="farm" />
		<tag k="ssr:stedsnr" v="157297" />
	</node>
	<node lat="68.87347777900322" lon="15.565441669569003" id="-10327">
		<tag k="name" v="Molund" />
		<tag k="place" v="farm" />
		<tag k="ssr:stedsnr" v="157486" />
	</node>
	<node lat="68.97528611223828" lon="15.431230565816909" id="-10339">
		<tag k="name" v="Nordjord" />
		<tag k="place" v="farm" />
		<tag k="ssr:stedsnr" v="161584" />
	</node>
	<node lat="68.90493332962576" lon="15.616213897965757" id="-10341">
		<tag k="name" v="Berget" />
		<tag k="place" v="farm" />
		<tag k="ssr:stedsnr" v="161847" />
	</node>
	<node lat="68.83672221831557" lon="15.619630557878052" id="-10350">
		<tag k="name" v="Myran" />
		<tag k="place" v="farm" />
		<tag k="ssr:stedsnr" v="260022" />
	</node>
	<node lat="68.83871944419056" lon="15.70539999246469" id="-10351">
		<tag k="name" v="Holman" />
		<tag k="place" v="isolated_dwelling" />
		<tag k="ssr:stedsnr" v="260026" />
	</node>
	<node lat="69.07566110967201" lon="15.558055546821073" id="-10363">
		<tag k="name" v="Dikvollen" />
		<tag k="place" v="farm" />
		<tag k="ssr:stedsnr" v="260394" />
	</node>
	<node lat="69.31435000453871" lon="16.119402770347236" id="-10372">
=======
	<node id="-207329" lat="69.2633027818" lon="16.0697805574">
		<tag k="name" v="Nytoften Nordre" />
		<tag k="place" v="farm" />
		<tag k="ssr:stedsnr" v="36559" />
	</node>
	<node id="-208347" lat="69.2726166644" lon="15.9554416756">
		<tag k="name" v="Bleik" />
		<tag k="place" v="village" />
		<tag k="ssr:stedsnr" v="807136" />
	</node>
	<node id="-207832" lat="69.001002778" lon="15.6342805653">
		<tag k="name" v="Innergården" />
		<tag k="place" v="farm" />
		<tag k="ssr:stedsnr" v="399356" />
	</node>
	<node id="-206295" lat="68.997797225" lon="15.6817083397">
		<tag k="name" v="Myrvoll" />
		<tag k="place" v="farm" />
		<tag k="ssr:stedsnr" v="261383" />
	</node>
	<node id="-208342" lat="68.8980625139" lon="15.424404179">
		<tag k="alt_name" v="Sandnes, store;Store Sandnes" />
		<tag k="fixme" v="consider place=hamlet" />
		<tag k="name" v="Stor-Sandnes" />
		<tag k="place" v="farm" />
		<tag k="ssr:stedsnr" v="806729" />
	</node>
	<node id="-207822" lat="68.8417444441" lon="15.597152787">
		<tag k="name" v="Myrset" />
		<tag k="place" v="farm" />
		<tag k="ssr:stedsnr" v="399024" />
	</node>
	<node id="-206796" lat="69.3025750009" lon="16.0664250108">
		<tag k="name" v="Haugland" />
		<tag k="place" v="farm" />
		<tag k="ssr:stedsnr" v="686132" />
	</node>
	<node id="-206283" lat="69.3143500045" lon="16.1194027703">
>>>>>>> e1d4bc35ff8a6074a6f2e91616a996b547c36f15
		<tag k="loc_name:se" v="Ánddanjárga" />
		<tag k="name" v="Andenes" />
		<tag k="name:no" v="Andenes" />
		<tag k="place" v="village" />
		<tag k="ssr:stedsnr" v="261155" />
<<<<<<< HEAD
	</node>
	<node lat="68.99746111028813" lon="15.716091672031984" id="-10384">
		<tag k="name" v="Myrset" />
		<tag k="place" v="farm" />
		<tag k="ssr:stedsnr" v="261382" />
	</node>
	<node lat="68.99779722499092" lon="15.681708339711498" id="-10385">
		<tag k="name" v="Myrvoll" />
		<tag k="place" v="farm" />
		<tag k="ssr:stedsnr" v="261383" />
	</node>
	<node lat="68.83878611463885" lon="15.606513883188326" id="-10400">
		<tag k="name" v="Myran" />
		<tag k="place" v="farm" />
		<tag k="ssr:stedsnr" v="199314" />
	</node>
	<node lat="68.93367777471359" lon="15.63349443522626" id="-10411">
		<tag k="name" v="Alset" />
		<tag k="place" v="farm" />
		<tag k="ssr:stedsnr" v="200513" />
	</node>
	<node lat="69.13284722068437" lon="15.674208338627725" id="-10419">
		<tag k="name" v="Sør-Nordmela" />
		<tag k="place" v="hamlet" />
		<tag k="ssr:stedsnr" v="217394" />
	</node>
	<node lat="68.92682222546242" lon="15.444241659271434" id="-10433">
		<tag k="name" v="Sørjord" />
		<tag k="place" v="farm" />
		<tag k="ssr:stedsnr" v="222528" />
	</node>
	<node lat="69.2542111077788" lon="16.15165832763667" id="-10451">
		<tag k="name" v="Fiskenes" />
		<tag k="place" v="farm" />
		<tag k="ssr:stedsnr" v="240839" />
	</node>
	<node lat="69.09619999685427" lon="15.945375010986156" id="-10478">
		<tag k="name" v="Barå" />
		<tag k="place" v="farm" />
		<tag k="ssr:stedsnr" v="278892" />
	</node>
	<node lat="69.01424722487607" lon="15.789869437551621" id="-10483">
		<tag k="name" v="Lyngra" />
		<tag k="place" v="farm" />
		<tag k="ssr:stedsnr" v="279816" />
	</node>
	<node lat="69.28546944865424" lon="16.166288881516177" id="-10536">
		<tag k="name" v="Nordgården" />
		<tag k="place" v="farm" />
		<tag k="ssr:stedsnr" v="300805" />
	</node>
	<node lat="69.18523610770015" lon="15.826472223352225" id="-10548">
		<tag k="name" v="Solheim" />
		<tag k="place" v="farm" />
		<tag k="ssr:stedsnr" v="467330" />
	</node>
	<node lat="69.08156389247809" lon="15.565886101386857" id="-10549">
		<tag k="name" v="Øvergården" />
		<tag k="place" v="farm" />
		<tag k="ssr:stedsnr" v="467794" />
	</node>
	<node lat="69.26121243512219" lon="16.17159517347847" id="-10556">
		<tag k="fixme" v="consider place=hamlet" />
		<tag k="name" v="Fiskenes" />
		<tag k="place" v="farm" />
		<tag k="ssr:stedsnr" v="321202" />
	</node>
	<node lat="69.09626736596323" lon="15.751373294736725" id="-10558">
		<tag k="alt_name" v="Åbergsjordet;Åbergsjord" />
		<tag k="fixme" v="consider place=hamlet" />
		<tag k="name" v="Åbergsjorda" />
=======
	</node>
	<node id="-207306" lat="68.99958056" lon="15.6424666592">
		<tag k="name" v="Nordgården" />
		<tag k="place" v="farm" />
		<tag k="ssr:stedsnr" v="35386" />
	</node>
	<node id="-207815" lat="68.9960611097" lon="15.693766675">
		<tag k="name" v="Myreng" />
		<tag k="place" v="farm" />
		<tag k="ssr:stedsnr" v="382373" />
	</node>
	<node id="-207813" lat="68.8522849247" lon="15.5762083212">
		<tag k="alt_name" v="Meby" />
		<tag k="fixme" v="consider place=hamlet" />
		<tag k="name" v="Medby" />
		<tag k="place" v="farm" />
		<tag k="ssr:stedsnr" v="382277" />
	</node>
	<node id="-206274" lat="69.0756611097" lon="15.5580555468">
		<tag k="name" v="Dikvollen" />
		<tag k="place" v="farm" />
		<tag k="ssr:stedsnr" v="260394" />
	</node>
	<node id="-207807" lat="69.3007555595" lon="16.054280557">
		<tag k="alt_name" v="Tofta" />
		<tag k="name" v="Toften" />
		<tag k="place" v="quarter" />
		<tag k="ssr:stedsnr" v="382156" />
	</node>
	<node id="-206837" lat="69.1348527739" lon="15.6782416606">
		<tag k="name" v="Berget" />
		<tag k="place" v="quarter" />
		<tag k="ssr:stedsnr" v="703325" />
	</node>
	<node id="-206775" lat="69.0805463521" lon="15.9115242287">
		<tag k="fixme" v="consider place=hamlet" />
		<tag k="name" v="Sellevoll" />
		<tag k="place" v="farm" />
		<tag k="ssr:stedsnr" v="685185" />
	</node>
	<node id="-208309" lat="69.3217111087" lon="16.1245916768">
		<tag k="name" v="Torvet" />
		<tag k="place" v="square" />
		<tag k="ssr:stedsnr" v="786796" />
	</node>
	<node id="-206771" lat="68.8094111066" lon="15.7090305626">
		<tag k="name" v="Tjærebrenna" />
		<tag k="place" v="isolated_dwelling" />
		<tag k="ssr:stedsnr" v="685097" />
	</node>
	<node id="-208306" lat="69.0194361078" lon="15.5962694512">
		<tag k="name" v="Øverdalsplassen" />
		<tag k="place" v="isolated_dwelling" />
		<tag k="ssr:stedsnr" v="785980" />
	</node>
	<node id="-208303" lat="69.2726361084" lon="15.9554222259">
		<tag k="name" v="Mellagården" />
		<tag k="place" v="quarter" />
		<tag k="ssr:stedsnr" v="785869" />
	</node>
	<node id="-207789" lat="68.9515333347" lon="15.6662055598">
		<tag k="name" v="Ryddeng" />
		<tag k="place" v="farm" />
		<tag k="ssr:stedsnr" v="381472" />
	</node>
	<node id="-207788" lat="68.9530583381" lon="15.6260138842">
		<tag k="alt_name" v="Øygarden;Øygård" />
		<tag k="name" v="Øygården" />
		<tag k="place" v="farm" />
		<tag k="ssr:stedsnr" v="381469" />
	</node>
	<node id="-206250" lat="68.8387194442" lon="15.7053999925">
		<tag k="name" v="Holman" />
		<tag k="place" v="isolated_dwelling" />
		<tag k="ssr:stedsnr" v="260026" />
	</node>
	<node id="-206249" lat="68.8367222183" lon="15.6196305579">
		<tag k="name" v="Myran" />
		<tag k="place" v="farm" />
		<tag k="ssr:stedsnr" v="260022" />
	</node>
	<node id="-207260" lat="69.0740666655" lon="15.9118777783">
		<tag k="name" v="Valneset" />
>>>>>>> e1d4bc35ff8a6074a6f2e91616a996b547c36f15
		<tag k="place" v="farm" />
		<tag k="ssr:stedsnr" v="321186" />
	</node>
<<<<<<< HEAD
	<node lat="69.06212451594017" lon="15.770130340925702" id="-10560">
		<tag k="fixme" v="consider place=hamlet" />
		<tag k="name" v="Ånes" />
		<tag k="place" v="farm" />
		<tag k="ssr:stedsnr" v="321193" />
	</node>
	<node lat="68.98514722017714" lon="15.556311112044662" id="-10563">
		<tag k="fixme" v="consider place=hamlet" />
		<tag k="name" v="Tranesvågen" />
		<tag k="place" v="village" />
		<tag k="ssr:stedsnr" v="321539" />
	</node>
	<node lat="68.83963888939249" lon="15.69405834439034" id="-10610">
		<tag k="name" v="Nyheim" />
		<tag k="place" v="farm" />
		<tag k="ssr:stedsnr" v="381020" />
	</node>
	<node lat="69.2343411313912" lon="15.872670401205045" id="-10611">
		<tag k="fixme" v="consider place=hamlet" />
		<tag k="name" v="Høyvika" />
		<tag k="place" v="farm" />
		<tag k="ssr:stedsnr" v="381176" />
	</node>
	<node lat="69.13906048124181" lon="16.038506080483" id="-10613">
		<tag k="fixme" v="consider place=hamlet" />
		<tag k="name" v="Saura" />
		<tag k="place" v="farm" />
		<tag k="ssr:stedsnr" v="381264" />
	</node>
	<node lat="68.95153333465937" lon="15.666205559785308" id="-10616">
		<tag k="name" v="Ryddeng" />
		<tag k="place" v="farm" />
		<tag k="ssr:stedsnr" v="381472" />
	</node>
	<node lat="68.89070833544233" lon="15.52253889292453" id="-10622">
		<tag k="name" v="Lanes" />
		<tag k="place" v="farm" />
		<tag k="ssr:stedsnr" v="386104" />
	</node>
	<node lat="69.01821666688528" lon="15.588230556082976" id="-10628">
		<tag k="name" v="Melladalsplassen" />
		<tag k="place" v="isolated_dwelling" />
		<tag k="ssr:stedsnr" v="482973" />
	</node>
	<node lat="69.32228333083185" lon="16.123455565994757" id="-10670">
		<tag k="name" v="Los plass" />
		<tag k="place" v="square" />
		<tag k="ssr:stedsnr" v="422807" />
	</node>
	<node lat="68.86195286931346" lon="15.561379578692158" id="-10689">
		<tag k="fixme" v="consider place=hamlet" />
		<tag k="name" v="Fornes" />
		<tag k="place" v="farm" />
		<tag k="ssr:stedsnr" v="442787" />
	</node>
	<node lat="68.97190277329413" lon="15.638136119513588" id="-10733">
		<tag k="name" v="Risøyhamn" />
		<tag k="place" v="village" />
		<tag k="ssr:stedsnr" v="503373" />
	</node>
	<node lat="69.28416944022341" lon="16.170172223099172" id="-10735">
		<tag k="name" v="Haugnes" />
		<tag k="place" v="locality" />
		<tag k="ssr:stedsnr" v="504102" />
	</node>
	<node lat="69.13125555263602" lon="16.00910277982782" id="-10740">
		<tag k="name" v="Bogen" />
		<tag k="place" v="farm" />
		<tag k="ssr:stedsnr" v="520171" />
	</node>
	<node lat="69.13709444429348" lon="15.68044999350155" id="-10754">
		<tag k="amenity" v="school" />
		<tag k="name" v="Nordmela skole" />
		<tag k="ssr:stedsnr" v="521269" />
	</node>
	<node lat="69.15303610738725" lon="16.084019444404415" id="-10757">
		<tag k="name" v="Kvalnes" />
		<tag k="place" v="farm" />
		<tag k="ssr:stedsnr" v="685219" />
	</node>
	<node lat="69.13497965319226" lon="15.67573242767966" id="-10758">
		<tag k="alt_name" v="Nordmjele" />
		<tag k="fixme" v="consider place=hamlet" />
		<tag k="name" v="Nordmela" />
		<tag k="place" v="farm" />
		<tag k="ssr:stedsnr" v="685222" />
	</node>
	<node lat="69.19446944864252" lon="15.829119451951847" id="-10763">
		<tag k="name" v="Kinnvollen" />
=======
	<node id="-207777" lat="69.1390604812" lon="16.0385060805">
		<tag k="fixme" v="consider place=hamlet" />
		<tag k="name" v="Saura" />
		<tag k="place" v="farm" />
		<tag k="ssr:stedsnr" v="381264" />
	</node>
	<node id="-207264" lat="69.09822914" lon="15.6704755924">
		<tag k="fixme" v="consider place=hamlet" />
		<tag k="name" v="Middagsfjellet" />
		<tag k="place" v="farm" />
		<tag k="ssr:stedsnr" v="17285" />
	</node>
	<node id="-206832" lat="69.2461847857" lon="16.1187078535">
		<tag k="alt_name" v="Skardstein" />
		<tag k="fixme" v="consider place=hamlet" />
		<tag k="name" v="Skarstein" />
		<tag k="place" v="farm" />
		<tag k="ssr:stedsnr" v="563313" />
	</node>
	<node id="-206238" lat="69.1022194485" lon="15.957769444">
		<tag k="name" v="Dahle" />
		<tag k="place" v="farm" />
		<tag k="ssr:stedsnr" v="96865" />
	</node>
	<node id="-208285" lat="69.0834777808" lon="15.5620194496">
		<tag k="name" v="Nergården" />
		<tag k="place" v="farm" />
		<tag k="ssr:stedsnr" v="770770" />
	</node>
	<node id="-207772" lat="69.2343411314" lon="15.8726704012">
		<tag k="fixme" v="consider place=hamlet" />
		<tag k="name" v="Høyvika" />
		<tag k="place" v="farm" />
		<tag k="ssr:stedsnr" v="381176" />
	</node>
	<node id="-207770" lat="69.1857317491" lon="16.0634556962">
		<tag k="alt_name" v="Ramså" />
		<tag k="fixme" v="consider place=hamlet" />
		<tag k="name" v="Ramsa" />
		<tag k="place" v="farm" />
		<tag k="ssr:stedsnr" v="381143" />
	</node>
	<node id="-206817" lat="69.0165666649" lon="15.5826305478">
		<tag k="name" v="Nerdalsplassen" />
		<tag k="place" v="isolated_dwelling" />
		<tag k="ssr:stedsnr" v="542977" />
	</node>
	<node id="-206660" lat="69.0455472213" lon="15.5624388847">
		<tag k="name" v="Loftan" />
		<tag k="place" v="isolated_dwelling" />
		<tag k="ssr:stedsnr" v="503328" />
	</node>
	<node id="-207251" lat="69.1328472207" lon="15.6742083386">
		<tag k="name" v="Sør-Nordmela" />
		<tag k="place" v="hamlet" />
		<tag k="ssr:stedsnr" v="217394" />
	</node>
	<node id="-207683" lat="68.9304083343" lon="15.6273166637">
		<tag k="alt_name" v="Toften" />
		<tag k="name" v="Toftar" />
		<tag k="place" v="farm" />
		<tag k="ssr:stedsnr" v="321462" />
	</node>
	<node id="-207245" lat="69.0972583374" lon="15.6283277859">
		<tag k="name" v="Uroa" />
		<tag k="place" v="isolated_dwelling" />
		<tag k="ssr:stedsnr" v="969256" />
	</node>
	<node id="-207767" lat="68.8396388894" lon="15.6940583444">
		<tag k="name" v="Nyheim" />
		<tag k="place" v="farm" />
		<tag k="ssr:stedsnr" v="381020" />
	</node>
	<node id="-208263" lat="69.1311194466" lon="16.0018277878">
		<tag k="name" v="Sandmelra" />
>>>>>>> e1d4bc35ff8a6074a6f2e91616a996b547c36f15
		<tag k="place" v="farm" />
		<tag k="ssr:stedsnr" v="764218" />
	</node>
<<<<<<< HEAD
	<node lat="69.08054635211879" lon="15.911524228680271" id="-10767">
		<tag k="fixme" v="consider place=hamlet" />
		<tag k="name" v="Sellevoll" />
		<tag k="place" v="farm" />
		<tag k="ssr:stedsnr" v="685185" />
	</node>
	<node lat="68.9165888910709" lon="15.611930560614631" id="-10788">
		<tag k="name" v="Lanes" />
		<tag k="place" v="farm" />
		<tag k="ssr:stedsnr" v="685664" />
	</node>
	<node lat="68.88414569364379" lon="15.44136292813834" id="-10795">
		<tag k="alt_name" v="Sandnes, litle;Litle Sandnes" />
		<tag k="fixme" v="consider place=hamlet" />
		<tag k="name" v="Littje-Sandnes" />
		<tag k="place" v="farm" />
		<tag k="ssr:stedsnr" v="527687" />
	</node>
	<node lat="68.96274085070566" lon="15.58239650227595" id="-10812">
		<tag k="fixme" v="consider place=hamlet" />
		<tag k="name" v="Tranes" />
		<tag k="place" v="farm" />
		<tag k="ssr:stedsnr" v="571929" />
	</node>
	<node lat="69.04299999526128" lon="15.523702788470596" id="-10836">
		<tag k="name" v="Holan" />
		<tag k="place" v="farm" />
		<tag k="ssr:stedsnr" v="588773" />
	</node>
	<node lat="68.83416534786276" lon="15.667153213556515" id="-10854">
		<tag k="alt_name" v="Forfjord" />
		<tag k="fixme" v="consider place=hamlet" />
		<tag k="name" v="Forfjorden" />
		<tag k="place" v="farm" />
		<tag k="ssr:stedsnr" v="624018" />
	</node>
	<node lat="68.96374166318539" lon="15.72804444679309" id="-10858">
		<tag k="alt_name" v="Lovik" />
		<tag k="fixme" v="consider place=hamlet" />
		<tag k="name" v="Lovika" />
		<tag k="place" v="farm" />
		<tag k="ssr:stedsnr" v="624412" />
	</node>
	<node lat="69.01271666980635" lon="15.777572224831378" id="-10879">
		<tag k="name" v="Bogen" />
		<tag k="place" v="quarter" />
		<tag k="ssr:stedsnr" v="704789" />
	</node>
	<node lat="69.01452707503667" lon="15.80732290090804" id="-10894">
		<tag k="name" v="Kjeldbakkan" />
		<tag k="old_name" v="Kildebakken" />
		<tag k="place" v="farm" />
		<tag k="ssr:stedsnr" v="643796" />
	</node>
	<node lat="68.88601944177596" lon="15.737505561996606" id="-10907">
		<tag k="name" v="Finngammen" />
		<tag k="place" v="locality" />
		<tag k="ssr:stedsnr" v="707855" />
	</node>
	<node lat="69.0826888856389" lon="15.564711106195096" id="-10930">
		<tag k="name" v="Mellagården" />
		<tag k="place" v="farm" />
		<tag k="ssr:stedsnr" v="709773" />
	</node>
	<node lat="69.04431944056753" lon="15.523486117792364" id="-10948">
		<tag k="name" v="Nord" />
		<tag k="place" v="farm" />
		<tag k="ssr:stedsnr" v="892735" />
	</node>
	<node lat="68.8094111065771" lon="15.709030562631046" id="-10950">
		<tag k="name" v="Tjærebrenna" />
		<tag k="place" v="isolated_dwelling" />
		<tag k="ssr:stedsnr" v="685097" />
	</node>
	<node lat="69.30257500094936" lon="16.066425010757456" id="-10967">
		<tag k="name" v="Haugland" />
		<tag k="place" v="farm" />
		<tag k="ssr:stedsnr" v="686132" />
	</node>
	<node lat="69.13485277392627" lon="15.678241660578404" id="-10978">
		<tag k="name" v="Berget" />
		<tag k="place" v="quarter" />
		<tag k="ssr:stedsnr" v="703325" />
	</node>
	<node lat="69.07379722208856" lon="15.555475006661329" id="-11004">
		<tag k="name" v="Dikan" />
		<tag k="place" v="farm" />
		<tag k="ssr:stedsnr" v="709790" />
	</node>
	<node lat="69.15377777388657" lon="16.073024998755585" id="-11010">
		<tag k="name" v="Kvalnes" />
		<tag k="place" v="hamlet" />
		<tag k="ssr:stedsnr" v="725830" />
	</node>
	<node lat="69.32370000233637" lon="16.117919433601774" id="-11011">
		<tag k="name" v="Dorps plass" />
		<tag k="place" v="square" />
		<tag k="ssr:stedsnr" v="725771" />
	</node>
	<node lat="69.11779722263279" lon="15.982361103897235" id="-11036">
		<tag k="name" v="Prestegården" />
		<tag k="place" v="farm" />
		<tag k="ssr:stedsnr" v="763394" />
	</node>
	<node lat="69.08573888838086" lon="15.922983340550077" id="-11041">
		<tag k="name" v="Høyning" />
		<tag k="place" v="farm" />
		<tag k="ssr:stedsnr" v="764009" />
	</node>
	<node lat="69.1311194465546" lon="16.00182778778941" id="-11044">
		<tag k="name" v="Sandmelra" />
		<tag k="place" v="farm" />
		<tag k="ssr:stedsnr" v="764218" />
	</node>
	<node lat="69.20617221900682" lon="15.862061098360673" id="-11050">
		<tag k="name" v="Stranda" />
		<tag k="place" v="hamlet" />
		<tag k="ssr:stedsnr" v="764911" />
	</node>
	<node lat="69.08347778083856" lon="15.562019449581245" id="-11060">
		<tag k="name" v="Nergården" />
		<tag k="place" v="farm" />
		<tag k="ssr:stedsnr" v="770770" />
	</node>
	<node lat="69.08744444234085" lon="15.63828887668542" id="-11084">
		<tag k="name" v="Maurtua" />
		<tag k="place" v="isolated_dwelling" />
		<tag k="ssr:stedsnr" v="787219" />
	</node>
	<node lat="69.23554722040234" lon="15.870849986677207" id="-11089">
		<tag k="name" v="Buggetomta" />
		<tag k="place" v="farm" />
		<tag k="ssr:stedsnr" v="824668" />
	</node>
	<node lat="68.9403250018358" lon="15.63994166462916" id="-11094">
		<tag k="name" v="Alsrud" />
		<tag k="place" v="farm" />
		<tag k="ssr:stedsnr" v="825426" />
	</node>
	<node lat="69.03449166318903" lon="15.51350832047445" id="-11111">
		<tag k="name" v="Fagervollen" />
		<tag k="place" v="farm" />
		<tag k="ssr:stedsnr" v="831739" />
	</node>
	<node lat="69.00188055290968" lon="15.752350000696563" id="-11132">
		<tag k="name" v="Framnes" />
		<tag k="place" v="farm" />
		<tag k="ssr:stedsnr" v="928046" />
	</node>
	<node lat="69.21183162649429" lon="16.079951901032995" id="-11142">
		<tag k="alt_name" v="Breidvika;Breivik" />
		<tag k="fixme" v="consider place=hamlet" />
		<tag k="name" v="Breivika" />
		<tag k="place" v="farm" />
		<tag k="ssr:stedsnr" v="928150" />
	</node>
	<node lat="69.10587777555381" lon="15.963080551615596" id="-11144">
		<tag k="name" v="Myre" />
		<tag k="place" v="village" />
		<tag k="ssr:stedsnr" v="928176" />
	</node>
	<node lat="68.92508611158568" lon="15.464274990933136" id="-11167">
		<tag k="name" v="Åsen" />
		<tag k="place" v="locality" />
		<tag k="ssr:stedsnr" v="868602" />
	</node>
	<node lat="69.1179283115777" lon="15.974323178240365" id="-11169">
		<tag k="fixme" v="consider place=hamlet" />
		<tag k="loc_name:se" v="Dearka" />
		<tag k="name" v="Dverberg" />
		<tag k="name:no" v="Dverberg" />
		<tag k="place" v="farm" />
		<tag k="ssr:stedsnr" v="885406" />
	</node>
	<node lat="69.04362247166397" lon="15.51810037811923" id="-11213">
		<tag k="fixme" v="consider place=hamlet" />
		<tag k="name" v="Bø" />
		<tag k="place" v="farm" />
		<tag k="ssr:stedsnr" v="928315" />
	</node>
	<node lat="69.26834166964996" lon="16.164280544244317" id="-11216">
		<tag k="name" v="Haugland" />
		<tag k="place" v="farm" />
		<tag k="ssr:stedsnr" v="928203" />
	</node>
	<node lat="68.91691111349472" lon="15.705527779330193" id="-11219">
		<tag k="name" v="Ånestoften" />
		<tag k="place" v="isolated_dwelling" />
		<tag k="ssr:stedsnr" v="928418" />
	</node>
	<node lat="68.8847822140465" lon="15.498176244888857" id="-11221">
		<tag k="alt_name" v="Skjolda" />
		<tag k="fixme" v="consider place=hamlet" />
		<tag k="name" v="Skjolde" />
		<tag k="place" v="farm" />
		<tag k="ssr:stedsnr" v="928654" />
	</node>
	<node lat="69.31505277462239" lon="16.127902783339813" id="-11254">
		<tag k="name" v="Fyrjorda" />
		<tag k="place" v="quarter" />
		<tag k="ssr:stedsnr" v="968804" />
	</node>
	<node lat="69.07406666545384" lon="15.911877778269677" id="-11271">
		<tag k="name" v="Valneset" />
		<tag k="place" v="farm" />
		<tag k="ssr:stedsnr" v="17253" />
	</node>
	<node lat="69.09822914004499" lon="15.67047559238101" id="-11275">
		<tag k="fixme" v="consider place=hamlet" />
		<tag k="name" v="Middagsfjellet" />
		<tag k="place" v="farm" />
		<tag k="ssr:stedsnr" v="17285" />
	</node>
	<node lat="68.95378611345568" lon="15.677697220498175" id="-11279">
		<tag k="name" v="Salstrand" />
		<tag k="place" v="farm" />
		<tag k="ssr:stedsnr" v="17489" />
	</node>
	<node lat="69.01737530282433" lon="15.807868985869707" id="-11283">
		<tag k="fixme" v="consider place=hamlet" />
		<tag k="name" v="Åse" />
		<tag k="place" v="farm" />
		<tag k="ssr:stedsnr" v="18058" />
	</node>
	<node lat="69.04779722435376" lon="15.87949165858935" id="-11286">
		<tag k="name" v="Øyra" />
		<tag k="place" v="farm" />
		<tag k="ssr:stedsnr" v="18043" />
	</node>
	<node lat="69.28226666526379" lon="16.171030543508532" id="-11308">
		<tag k="name" v="Solvoll" />
		<tag k="place" v="isolated_dwelling" />
		<tag k="ssr:stedsnr" v="19118" />
	</node>
	<node lat="68.99958056001094" lon="15.642466659156911" id="-11321">
		<tag k="name" v="Nordgården" />
		<tag k="place" v="farm" />
		<tag k="ssr:stedsnr" v="35386" />
	</node>
	<node lat="69.01540000474498" lon="15.798416658610456" id="-11340">
		<tag k="name" v="Grindtaet" />
		<tag k="place" v="farm" />
		<tag k="ssr:stedsnr" v="36811" />
	</node>
	<node lat="69.07475278157077" lon="15.562072221744282" id="-11354">
		<tag k="name" v="Gammelholen" />
		<tag k="place" v="farm" />
		<tag k="ssr:stedsnr" v="42743" />
	</node>
	<node lat="68.95324444060691" lon="15.671533337056145" id="-11378">
		<tag k="name" v="Olsrud" />
		<tag k="place" v="farm" />
		<tag k="ssr:stedsnr" v="78469" />
	</node>
	<node lat="69.10610278053132" lon="15.774788899921262" id="-11390">
		<tag k="name" v="Skavdal" />
		<tag k="place" v="farm" />
		<tag k="ssr:stedsnr" v="78266" />
	</node>
	<node lat="68.99628055734476" lon="15.675994438847551" id="-11412">
		<tag k="name" v="Øvereng" />
		<tag k="place" v="farm" />
		<tag k="ssr:stedsnr" v="79364" />
	</node>
	<node lat="68.96899722167984" lon="15.73386389138122" id="-11420">
		<tag k="name" v="Kvalvika" />
=======
	<node id="-207235" lat="69.3150527746" lon="16.1279027833">
		<tag k="name" v="Fyrjorda" />
		<tag k="place" v="quarter" />
		<tag k="ssr:stedsnr" v="968804" />
	</node>
	<node id="-208258" lat="69.0857388884" lon="15.9229833406">
		<tag k="name" v="Høyning" />
		<tag k="place" v="farm" />
		<tag k="ssr:stedsnr" v="764009" />
	</node>
	<node id="-206209" lat="69.1061027805" lon="15.7747888999">
		<tag k="name" v="Skavdal" />
		<tag k="place" v="farm" />
		<tag k="ssr:stedsnr" v="78266" />
	</node>
	<node id="-208251" lat="68.8836861136" lon="15.6012444486">
		<tag k="name" v="Bakken" />
		<tag k="place" v="isolated_dwelling" />
		<tag k="ssr:stedsnr" v="763567" />
	</node>
	<node id="-206458" lat="69.1252583297" lon="15.937552764">
		<tag k="name" v="Skogstad" />
		<tag k="place" v="farm" />
		<tag k="ssr:stedsnr" v="442291" />
	</node>
	<node id="-208248" lat="69.1177972226" lon="15.9823611039">
		<tag k="name" v="Prestegården" />
		<tag k="place" v="farm" />
		<tag k="ssr:stedsnr" v="763394" />
	</node>
	<node id="-206195" lat="69.2542111078" lon="16.1516583276">
		<tag k="name" v="Fiskenes" />
		<tag k="place" v="farm" />
		<tag k="ssr:stedsnr" v="240839" />
	</node>
	<node id="-208241" lat="68.9815749975" lon="15.5631416625">
		<tag k="name" v="Stokkland" />
		<tag k="place" v="hamlet" />
		<tag k="ssr:stedsnr" v="750083" />
	</node>
	<node id="-206568" lat="69.0815638925" lon="15.5658861014">
		<tag k="name" v="Øvergården" />
		<tag k="place" v="farm" />
		<tag k="ssr:stedsnr" v="467794" />
	</node>
	<node id="-208237" lat="68.877220724" lon="15.4783665849">
		<tag k="fixme" v="consider place=hamlet" />
		<tag k="name" v="Gavlen" />
		<tag k="place" v="farm" />
		<tag k="ssr:stedsnr" v="746694" />
	</node>
	<node id="-206482" lat="68.8619528693" lon="15.5613795787">
		<tag k="fixme" v="consider place=hamlet" />
		<tag k="name" v="Fornes" />
		<tag k="place" v="farm" />
		<tag k="ssr:stedsnr" v="442787" />
	</node>
	<node id="-207210" lat="68.9169111135" lon="15.7055277793">
		<tag k="name" v="Ånestoften" />
		<tag k="place" v="isolated_dwelling" />
		<tag k="ssr:stedsnr" v="928418" />
	</node>
	<node id="-207720" lat="69.16092222" lon="16.0948388899">
		<tag k="name" v="Toften" />
		<tag k="place" v="locality" />
		<tag k="ssr:stedsnr" v="339887" />
	</node>
	<node id="-207718" lat="69.3018833305" lon="16.0659305504">
		<tag k="name" v="Damsgård" />
		<tag k="place" v="quarter" />
		<tag k="ssr:stedsnr" v="339839" />
	</node>
	<node id="-206225" lat="68.9689972217" lon="15.7338638914">
		<tag k="name" v="Kvalvika" />
		<tag k="place" v="farm" />
		<tag k="ssr:stedsnr" v="96058" />
	</node>
	<node id="-206691" lat="69.3222833308" lon="16.123455566">
		<tag k="name" v="Los plass" />
		<tag k="place" v="square" />
		<tag k="ssr:stedsnr" v="422807" />
	</node>
	<node id="-207707" lat="69.0829611118" lon="15.9173444452">
		<tag k="name" v="Nordmo" />
		<tag k="place" v="farm" />
		<tag k="ssr:stedsnr" v="339337" />
	</node>
	<node id="-207704" lat="68.9655861109" lon="15.7260833403">
		<tag k="name" v="Bakken" />
		<tag k="place" v="farm" />
		<tag k="ssr:stedsnr" v="339056" />
	</node>
	<node id="-206678" lat="68.9198750043" lon="15.4427555575">
		<tag k="name" v="Dale" />
		<tag k="place" v="farm" />
		<tag k="ssr:stedsnr" v="404558" />
	</node>
	<node id="-207189" lat="69.1179283116" lon="15.9743231782">
		<tag k="fixme" v="consider place=hamlet" />
		<tag k="loc_name:se" v="Dearka" />
		<tag k="name" v="Dverberg" />
		<tag k="name:no" v="Dverberg" />
		<tag k="place" v="farm" />
		<tag k="ssr:stedsnr" v="885406" />
	</node>
	<node id="-206163" lat="69.0154000047" lon="15.7984166586">
		<tag k="name" v="Grindtaet" />
		<tag k="place" v="farm" />
		<tag k="ssr:stedsnr" v="36811" />
	</node>
	<node id="-206673" lat="68.897269443" lon="15.5296111084">
		<tag k="name" v="Heimtun" />
		<tag k="place" v="farm" />
		<tag k="ssr:stedsnr" v="399947" />
	</node>
	<node id="-206672" lat="68.8938805583" lon="15.5263694417">
		<tag k="alt_name" v="Myren;Myran" />
		<tag k="name" v="Myra" />
		<tag k="place" v="farm" />
		<tag k="ssr:stedsnr" v="503648" />
	</node>
	<node id="-206670" lat="68.9240348886" lon="15.4482733737">
		<tag k="fixme" v="consider place=hamlet" />
		<tag k="name" v="Svindalen" />
		<tag k="place" v="farm" />
		<tag k="ssr:stedsnr" v="503597" />
	</node>
	<node id="-207692" lat="68.8803499994" lon="15.4951888789">
		<tag k="alt_name" v="Skjoldhamn" />
		<tag k="name" v="Skjoldehamn" />
		<tag k="place" v="hamlet" />
		<tag k="ssr:stedsnr" v="321650" />
	</node>
	<node id="-206320" lat="68.8948333317" lon="15.4258555479">
		<tag k="name" v="Stranda" />
		<tag k="place" v="farm" />
		<tag k="ssr:stedsnr" v="278049" />
	</node>
	<node id="-206662" lat="68.8907083354" lon="15.5225388929">
		<tag k="name" v="Lanes" />
		<tag k="place" v="farm" />
		<tag k="ssr:stedsnr" v="386104" />
	</node>
	<node id="-206661" lat="68.9719027733" lon="15.6381361195">
		<tag k="name" v="Risøyhamn" />
		<tag k="place" v="village" />
		<tag k="ssr:stedsnr" v="503373" />
	</node>
	<node id="-207684" lat="68.9851472202" lon="15.556311112">
		<tag k="fixme" v="consider place=hamlet" />
		<tag k="name" v="Tranesvågen" />
		<tag k="place" v="village" />
		<tag k="ssr:stedsnr" v="321539" />
	</node>
	<node id="-206147" lat="69.2822666653" lon="16.1710305435">
		<tag k="name" v="Solvoll" />
		<tag k="place" v="isolated_dwelling" />
		<tag k="ssr:stedsnr" v="19118" />
	</node>
	<node id="-207680" lat="68.9554250009" lon="15.6484166757">
		<tag k="fixme" v="consider place=hamlet" />
		<tag k="name" v="Dragnes" />
		<tag k="place" v="village" />
		<tag k="ssr:stedsnr" v="321443" />
	</node>
	<node id="-206653" lat="69.0571083316" lon="15.6881972099">
		<tag k="alt_name" v="Bødal" />
		<tag k="name" v="Bødalen" />
		<tag k="place" v="isolated_dwelling" />
		<tag k="ssr:stedsnr" v="503183" />
	</node>
	<node id="-206139" lat="69.2598249969" lon="16.1644944383">
		<tag k="name" v="Gårdsraet" />
		<tag k="place" v="farm" />
		<tag k="ssr:stedsnr" v="18213" />
	</node>
	<node id="-206642" lat="69.1596534185" lon="15.8068367566">
		<tag k="fixme" v="consider place=hamlet" />
		<tag k="name" v="Skogvoll" />
		<tag k="place" v="farm" />
		<tag k="ssr:stedsnr" v="503138" />
	</node>
	<node id="-208008" lat="68.9627408507" lon="15.5823965023">
		<tag k="fixme" v="consider place=hamlet" />
		<tag k="name" v="Tranes" />
		<tag k="place" v="farm" />
		<tag k="ssr:stedsnr" v="571929" />
	</node>
	<node id="-207148" lat="69.2355472204" lon="15.8708499867">
		<tag k="name" v="Buggetomta" />
		<tag k="place" v="farm" />
		<tag k="ssr:stedsnr" v="824668" />
	</node>
	<node id="-207659" lat="69.0621245159" lon="15.7701303409">
		<tag k="fixme" v="consider place=hamlet" />
		<tag k="name" v="Ånes" />
		<tag k="place" v="farm" />
		<tag k="ssr:stedsnr" v="321193" />
	</node>
	<node id="-208170" lat="69.014527075" lon="15.8073229009">
		<tag k="name" v="Kjeldbakken" />
		<tag k="place" v="farm" />
		<tag k="ssr:stedsnr" v="643796" />
	</node>
	<node id="-207657" lat="69.096267366" lon="15.7513732947">
		<tag k="alt_name" v="Åbergsjordet;Åbergsjord" />
		<tag k="fixme" v="consider place=hamlet" />
		<tag k="name" v="Åbergsjorda" />
		<tag k="place" v="farm" />
		<tag k="ssr:stedsnr" v="321186" />
	</node>
	<node id="-206119" lat="68.9812999953" lon="15.4362444546">
		<tag k="name" v="Prøven" />
		<tag k="place" v="isolated_dwelling" />
		<tag k="ssr:stedsnr" v="222559" />
	</node>
	<node id="-206117" lat="68.9268222255" lon="15.4442416593">
		<tag k="name" v="Sørjord" />
		<tag k="place" v="farm" />
		<tag k="ssr:stedsnr" v="222528" />
	</node>
	<node id="-206628" lat="68.9721138922" lon="15.5490888988">
		<tag k="name" v="Buskerud" />
		<tag k="place" v="isolated_dwelling" />
		<tag k="ssr:stedsnr" v="360952" />
	</node>
	<node id="-207647" lat="69.0888944417" lon="15.9296694391">
		<tag k="name" v="Lager" />
		<tag k="place" v="farm" />
		<tag k="ssr:stedsnr" v="301320" />
	</node>
	<node id="-208154" lat="69.1512361124" lon="16.0676388978">
		<tag k="name" v="Kvalsnes" />
		<tag k="place" v="farm" />
		<tag k="ssr:stedsnr" v="642310" />
	</node>
	<node id="-208153" lat="69.1324472248" lon="15.6749972238">
		<tag k="name" v="Melan" />
		<tag k="place" v="quarter" />
		<tag k="ssr:stedsnr" v="642264" />
	</node>
	<node id="-206103" lat="69.0152027809" lon="15.8160027779">
		<tag k="name" v="Leite" />
		<tag k="place" v="farm" />
		<tag k="ssr:stedsnr" v="218761" />
	</node>
	<node id="-207635" lat="68.9968777752" lon="15.7293222151">
		<tag k="name" v="Røbekk" />
		<tag k="place" v="farm" />
		<tag k="ssr:stedsnr" v="200380" />
	</node>
	<node id="-206097" lat="68.833261115" lon="15.6507027709">
		<tag k="alt_name" v="Nordjorden" />
		<tag k="name" v="Nordjorda" />
		<tag k="place" v="farm" />
		<tag k="ssr:stedsnr" v="217997" />
	</node>
	<node id="-207119" lat="69.2683416696" lon="16.1642805442">
		<tag k="name" v="Haugland" />
		<tag k="place" v="farm" />
		<tag k="ssr:stedsnr" v="928203" />
	</node>
	<node id="-207629" lat="69.2664861095" lon="16.0147805669">
		<tag k="alt_name" v="Møskje" />
		<tag k="name" v="Møsje" />
		<tag k="place" v="isolated_dwelling" />
		<tag k="ssr:stedsnr" v="200236" />
	</node>
	<node id="-207115" lat="69.1058777756" lon="15.9630805516">
		<tag k="name" v="Myre" />
		<tag k="place" v="village" />
		<tag k="ssr:stedsnr" v="928176" />
	</node>
	<node id="-207112" lat="69.2118316265" lon="16.079951901">
		<tag k="alt_name" v="Breidvika;Breivik" />
		<tag k="fixme" v="consider place=hamlet" />
		<tag k="name" v="Breivika" />
		<tag k="place" v="farm" />
		<tag k="ssr:stedsnr" v="928150" />
	</node>
	<node id="-206636" lat="69.0794909282" lon="15.56810944">
		<tag k="fixme" v="consider place=hamlet" />
		<tag k="name" v="Nøss" />
		<tag k="place" v="farm" />
		<tag k="ssr:stedsnr" v="502352" />
	</node>
	<node id="-206598" lat="69.0182166669" lon="15.5882305561">
		<tag k="name" v="Melladalsplassen" />
		<tag k="place" v="isolated_dwelling" />
		<tag k="ssr:stedsnr" v="482973" />
	</node>
	<node id="-208513" lat="68.893177777" lon="15.5303111091">
		<tag k="building" v="industrial" />
		<tag k="name" v="Skjolde Klippfisk" />
		<tag k="ssr:stedsnr" v="950900" />
	</node>
	<node id="-206294" lat="68.9974611103" lon="15.716091672">
		<tag k="name" v="Myrset" />
		<tag k="place" v="farm" />
		<tag k="ssr:stedsnr" v="261382" />
	</node>
	<node id="-207615" lat="68.9865319128" lon="15.4496494078">
		<tag k="alt_name" v="Søndre Mjele" />
		<tag k="fixme" v="consider place=hamlet" />
		<tag k="name" v="Sørmela" />
		<tag k="place" v="farm" />
		<tag k="ssr:stedsnr" v="199575" />
	</node>
	<node id="-207100" lat="69.0018805529" lon="15.7523500007">
		<tag k="name" v="Framnes" />
		<tag k="place" v="farm" />
		<tag k="ssr:stedsnr" v="928046" />
	</node>
	<node id="-207255" lat="68.9537861135" lon="15.6776972205">
		<tag k="name" v="Salstrand" />
		<tag k="place" v="farm" />
		<tag k="ssr:stedsnr" v="17489" />
	</node>
	<node id="-208120" lat="68.9637416632" lon="15.7280444468">
		<tag k="alt_name" v="Lovik" />
		<tag k="fixme" v="consider place=hamlet" />
		<tag k="name" v="Lovika" />
		<tag k="place" v="farm" />
		<tag k="ssr:stedsnr" v="624412" />
	</node>
	<node id="-208119" lat="68.9979083295" lon="15.7330499929">
		<tag k="name" v="Breidnes" />
		<tag k="place" v="farm" />
		<tag k="ssr:stedsnr" v="624392" />
	</node>
	<node id="-206574" lat="69.2854694487" lon="16.1662888815">
		<tag k="name" v="Nordgården" />
		<tag k="place" v="farm" />
		<tag k="ssr:stedsnr" v="300805" />
	</node>
	<node id="-207597" lat="69.31155" lon="16.0991638808">
		<tag k="name" v="Vestbyen" />
		<tag k="place" v="quarter" />
		<tag k="ssr:stedsnr" v="179783" />
	</node>
	<node id="-208108" lat="69.2138670617" lon="15.8616301494">
		<tag k="fixme" v="consider place=hamlet" />
		<tag k="name" v="Stave" />
>>>>>>> e1d4bc35ff8a6074a6f2e91616a996b547c36f15
		<tag k="place" v="farm" />
		<tag k="ssr:stedsnr" v="624199" />
	</node>
<<<<<<< HEAD
	<node lat="69.00238055561059" lon="15.622866656345245" id="-11424">
		<tag k="name" v="Vesterjorda" />
		<tag k="place" v="farm" />
		<tag k="ssr:stedsnr" v="96343" />
	</node>
	<node lat="68.92258611232616" lon="15.620366668299065" id="-11443">
		<tag k="fixme" v="multiple name tags, choose one and add the other to alt_name" />
		<tag k="name" v="Buksnesstranda;Stranda" />
		<tag k="place" v="farm" />
		<tag k="ssr:stedsnr" v="98857" />
	</node>
	<node lat="69.2419277771362" lon="16.114749992098247" id="-11487">
		<tag k="name" v="Fredheim" />
		<tag k="place" v="farm" />
		<tag k="ssr:stedsnr" v="138185" />
	</node>
	<node lat="68.9844142235146" lon="15.439630384503177" id="-11489">
		<tag k="fixme" v="consider place=hamlet" />
		<tag k="name" v="Haugen" />
		<tag k="place" v="farm" />
		<tag k="ssr:stedsnr" v="138626" />
	</node>
	<node lat="69.31154999996959" lon="16.099163880810533" id="-11562">
		<tag k="name" v="Vestbyen" />
		<tag k="place" v="quarter" />
		<tag k="ssr:stedsnr" v="179783" />
	</node>
	<node lat="69.1347416658751" lon="15.692652784803519" id="-11567">
		<tag k="name" v="Leite" />
		<tag k="place" v="farm" />
		<tag k="ssr:stedsnr" v="180052" />
	</node>
	<node lat="68.98653191276973" lon="15.449649407807613" id="-11579">
		<tag k="alt_name" v="Søndre Mjele" />
		<tag k="fixme" v="consider place=hamlet" />
		<tag k="name" v="Sørmela" />
		<tag k="place" v="farm" />
		<tag k="ssr:stedsnr" v="199575" />
	</node>
	<node lat="69.26648610953315" lon="16.014780566902736" id="-11605">
		<tag k="alt_name" v="Møskje" />
		<tag k="name" v="Møsje" />
		<tag k="place" v="isolated_dwelling" />
		<tag k="ssr:stedsnr" v="200236" />
	</node>
	<node lat="68.99687777515693" lon="15.72932221509656" id="-11607">
		<tag k="name" v="Røbekk" />
		<tag k="old_name" v="Røbæk" />
		<tag k="place" v="farm" />
		<tag k="ssr:stedsnr" v="200380" />
	</node>
	<node lat="68.83326111498994" lon="15.65070277086734" id="-11618">
		<tag k="alt_name" v="Nordjorden" />
		<tag k="name" v="Nordjorda" />
		<tag k="place" v="farm" />
		<tag k="ssr:stedsnr" v="217997" />
	</node>
	<node lat="69.23259166314243" lon="15.868483331290316" id="-11631">
		<tag k="name" v="Littje-Kuforet" />
		<tag k="place" v="farm" />
		<tag k="ssr:stedsnr" v="218667" />
	</node>
	<node lat="69.01520278089879" lon="15.81600277791787" id="-11632">
		<tag k="name" v="Leite" />
		<tag k="place" v="farm" />
		<tag k="ssr:stedsnr" v="218761" />
	</node>
	<node lat="68.98129999526067" lon="15.436244454645603" id="-11637">
		<tag k="name" v="Prøven" />
		<tag k="place" v="isolated_dwelling" />
		<tag k="ssr:stedsnr" v="222559" />
	</node>
	<node lat="68.89483333174577" lon="15.425855547919792" id="-11656">
		<tag k="name" v="Stranda" />
		<tag k="place" v="farm" />
		<tag k="ssr:stedsnr" v="278049" />
	</node>
	<node lat="69.08889444174586" lon="15.929669439090599" id="-11707">
		<tag k="name" v="Lager" />
		<tag k="place" v="farm" />
		<tag k="ssr:stedsnr" v="301320" />
	</node>
	<node lat="68.95542500094756" lon="15.64841667566587" id="-11735">
		<tag k="fixme" v="consider place=hamlet" />
		<tag k="name" v="Dragnes" />
		<tag k="place" v="village" />
		<tag k="ssr:stedsnr" v="321443" />
	</node>
	<node lat="68.93040833431887" lon="15.627316663743485" id="-11738">
		<tag k="alt_name" v="Toften" />
		<tag k="name" v="Toftar" />
		<tag k="place" v="farm" />
		<tag k="ssr:stedsnr" v="321462" />
	</node>
	<node lat="68.88034999936737" lon="15.495188878890591" id="-11742">
		<tag k="alt_name" v="Skjoldhamn" />
		<tag k="name" v="Skjoldehamn" />
		<tag k="place" v="hamlet" />
		<tag k="ssr:stedsnr" v="321650" />
	</node>
	<node lat="68.96558611090936" lon="15.726083340253917" id="-11751">
		<tag k="name" v="Bakken" />
		<tag k="place" v="farm" />
		<tag k="ssr:stedsnr" v="339056" />
	</node>
	<node lat="69.08296111180167" lon="15.917344445207465" id="-11754">
		<tag k="name" v="Nordmo" />
=======
	<node id="-207080" lat="69.0874444423" lon="15.6382888767">
		<tag k="name" v="Maurtua" />
		<tag k="place" v="isolated_dwelling" />
		<tag k="ssr:stedsnr" v="787219" />
	</node>
	<node id="-206563" lat="69.1852361077" lon="15.8264722234">
		<tag k="name" v="Solheim" />
		<tag k="place" v="farm" />
		<tag k="ssr:stedsnr" v="467330" />
	</node>
	<node id="-207068" lat="69.2507527808" lon="16.1402166566">
		<tag k="name" v="Norgård" />
		<tag k="place" v="farm" />
		<tag k="ssr:stedsnr" v="764926" />
	</node>
	<node id="-206970" lat="68.8686583351" lon="15.5609416659">
		<tag k="name" v="Molund" />
		<tag k="place" v="farm" />
		<tag k="ssr:stedsnr" v="885945" />
	</node>
	<node id="-206749" lat="69.1447055537" lon="16.0487666722">
		<tag k="name" v="Myrset" />
		<tag k="place" v="hamlet" />
		<tag k="ssr:stedsnr" v="503129" />
	</node>
	<node id="-207065" lat="69.206172219" lon="15.8620610984">
		<tag k="name" v="Stranda" />
		<tag k="place" v="hamlet" />
		<tag k="ssr:stedsnr" v="764911" />
	</node>
	<node id="-207574" lat="68.9049333296" lon="15.616213898">
		<tag k="name" v="Berget" />
		<tag k="place" v="farm" />
		<tag k="ssr:stedsnr" v="161847" />
	</node>
	<node id="-207572" lat="68.9752861122" lon="15.4312305658">
		<tag k="name" v="Nordjord" />
		<tag k="place" v="farm" />
		<tag k="ssr:stedsnr" v="161584" />
	</node>
	<node id="-208081" lat="69.3228472209" lon="16.1197527887">
		<tag k="name" v="Kiilgården" />
		<tag k="place" v="farm" />
		<tag k="ssr:stedsnr" v="603771" />
	</node>
	<node id="-208080" lat="69.2585444399" lon="16.1621611211">
		<tag k="name" v="Fiskenes" />
		<tag k="place" v="farm" />
		<tag k="ssr:stedsnr" v="603768" />
	</node>
	<node id="-207550" lat="68.873477779" lon="15.5654416696">
		<tag k="name" v="Molund" />
		<tag k="place" v="farm" />
		<tag k="ssr:stedsnr" v="157486" />
	</node>
	<node id="-207135" lat="68.884782214" lon="15.4981762449">
		<tag k="alt_name" v="Skjolda" />
		<tag k="fixme" v="consider place=hamlet" />
		<tag k="name" v="Skjolde" />
		<tag k="place" v="farm" />
		<tag k="ssr:stedsnr" v="928654" />
	</node>
	<node id="-208056" lat="69.0429999953" lon="15.5237027885">
		<tag k="name" v="Holan" />
		<tag k="place" v="farm" />
		<tag k="ssr:stedsnr" v="588773" />
	</node>
	<node id="-207541" lat="69.0007527816" lon="15.6263472213">
		<tag k="name" v="Mellagården" />
		<tag k="place" v="farm" />
		<tag k="ssr:stedsnr" v="157297" />
	</node>
	<node id="-208560" lat="69.2561513584" lon="16.0444719247">
		<tag k="fixme" v="consider place=hamlet" />
		<tag k="name" v="Haugnes" />
>>>>>>> e1d4bc35ff8a6074a6f2e91616a996b547c36f15
		<tag k="place" v="farm" />
		<tag k="ssr:stedsnr" v="1076697" />
	</node>
<<<<<<< HEAD
	<node lat="69.30188333047761" lon="16.065930550372638" id="-11761">
		<tag k="name" v="Damsgård" />
		<tag k="place" v="quarter" />
		<tag k="ssr:stedsnr" v="339839" />
	</node>
	<node lat="69.23098333187818" lon="15.868897215500736" id="-11762">
		<tag k="name" v="Stor-Kuforet" />
		<tag k="place" v="farm" />
		<tag k="ssr:stedsnr" v="339636" />
	</node>
	<node lat="69.16092222000553" lon="16.09483888992891" id="-11763">
		<tag k="name" v="Toften" />
		<tag k="place" v="locality" />
		<tag k="ssr:stedsnr" v="339887" />
	</node>
	<node lat="68.97211389217136" lon="15.54908889877321" id="-11790">
		<tag k="name" v="Buskerud" />
		<tag k="place" v="isolated_dwelling" />
		<tag k="ssr:stedsnr" v="360952" />
	</node>
	<node lat="69.18573174914555" lon="16.063455696242205" id="-11811">
		<tag k="alt_name" v="Ramså" />
		<tag k="fixme" v="consider place=hamlet" />
		<tag k="name" v="Ramsa" />
		<tag k="place" v="farm" />
		<tag k="ssr:stedsnr" v="381143" />
	</node>
	<node lat="68.95305833805006" lon="15.62601388424488" id="-11824">
		<tag k="alt_name" v="Øygarden;Øygård" />
		<tag k="name" v="Øygården" />
		<tag k="place" v="farm" />
		<tag k="ssr:stedsnr" v="381469" />
	</node>
	<node lat="69.30075555949779" lon="16.05428055695551" id="-11831">
		<tag k="alt_name" v="Tofta" />
		<tag k="name" v="Toften" />
		<tag k="place" v="quarter" />
		<tag k="ssr:stedsnr" v="382156" />
	</node>
	<node lat="68.99606110974257" lon="15.693766674987053" id="-11843">
		<tag k="name" v="Myreng" />
		<tag k="place" v="farm" />
		<tag k="ssr:stedsnr" v="382373" />
	</node>
	<node lat="68.85228492474401" lon="15.57620832120357" id="-11845">
		<tag k="alt_name" v="Meby" />
		<tag k="fixme" v="consider place=hamlet" />
		<tag k="name" v="Medby" />
		<tag k="place" v="farm" />
		<tag k="ssr:stedsnr" v="382277" />
	</node>
	<node lat="68.84174444407344" lon="15.597152786995048" id="-11851">
		<tag k="name" v="Myrset" />
		<tag k="place" v="farm" />
		<tag k="ssr:stedsnr" v="399024" />
	</node>
	<node lat="69.00100277795956" lon="15.634280565254919" id="-11855">
		<tag k="name" v="Innergården" />
		<tag k="place" v="farm" />
		<tag k="ssr:stedsnr" v="399356" />
	</node>
	<node lat="68.89726944300433" lon="15.529611108413802" id="-11860">
		<tag k="name" v="Heimtun" />
		<tag k="place" v="farm" />
		<tag k="ssr:stedsnr" v="399947" />
	</node>
	<node lat="68.91987500433017" lon="15.442755557463856" id="-11870">
		<tag k="name" v="Dale" />
		<tag k="place" v="farm" />
		<tag k="ssr:stedsnr" v="404558" />
	</node>
	<node lat="69.12525832968046" lon="15.937552763967554" id="-11906">
		<tag k="name" v="Skogstad" />
		<tag k="place" v="farm" />
		<tag k="ssr:stedsnr" v="442291" />
	</node>
	<node lat="69.13611944788593" lon="16.03579722511732" id="-11912">
		<tag k="name" v="Korsnes" />
		<tag k="place" v="farm" />
		<tag k="ssr:stedsnr" v="442261" />
	</node>
	<node lat="68.92371111463656" lon="15.565305568120253" id="-11923">
		<tag k="name" v="Nygård" />
		<tag k="place" v="farm" />
		<tag k="ssr:stedsnr" v="442697" />
	</node>
	<node lat="69.07949092816942" lon="15.568109439961692" id="-11943">
		<tag k="fixme" v="consider place=hamlet" />
		<tag k="name" v="Nøss" />
		<tag k="place" v="farm" />
		<tag k="ssr:stedsnr" v="502352" />
	</node>
	<node lat="69.14470555370781" lon="16.048766672184474" id="-11948">
		<tag k="name" v="Myrset" />
		<tag k="place" v="hamlet" />
		<tag k="ssr:stedsnr" v="503129" />
	</node>
	<node lat="69.15965341850045" lon="15.80683675658171" id="-11950">
		<tag k="fixme" v="consider place=hamlet" />
		<tag k="name" v="Skogvoll" />
		<tag k="place" v="farm" />
		<tag k="ssr:stedsnr" v="503138" />
	</node>
	<node lat="69.05710833155511" lon="15.688197209875193" id="-11954">
		<tag k="alt_name" v="Bødal" />
		<tag k="name" v="Bødalen" />
		<tag k="place" v="isolated_dwelling" />
		<tag k="ssr:stedsnr" v="503183" />
	</node>
	<node lat="68.89388055826258" lon="15.526369441713914" id="-11965">
		<tag k="alt_name" v="Myren;Myran" />
		<tag k="name" v="Myra" />
		<tag k="place" v="farm" />
		<tag k="ssr:stedsnr" v="503648" />
	</node>
	<node lat="69.04554722133888" lon="15.562438884685013" id="-11968">
		<tag k="name" v="Loftan" />
		<tag k="place" v="isolated_dwelling" />
		<tag k="ssr:stedsnr" v="503328" />
	</node>
	<node lat="68.92886944343705" lon="15.629002781461482" id="-11971">
		<tag k="name" v="Sørheim" />
		<tag k="place" v="farm" />
		<tag k="ssr:stedsnr" v="503465" />
	</node>
	<node lat="68.92403488859858" lon="15.448273373663493" id="-11977">
		<tag k="fixme" v="consider place=hamlet" />
		<tag k="name" v="Svindalen" />
		<tag k="place" v="farm" />
		<tag k="ssr:stedsnr" v="503597" />
	</node>
	<node lat="69.15380106359369" lon="16.070981393120384" id="-11987">
		<tag k="fixme" v="consider place=hamlet" />
		<tag k="name" v="Kvalnes" />
		<tag k="place" v="farm" />
		<tag k="ssr:stedsnr" v="520341" />
	</node>
	<node lat="69.01656666492079" lon="15.582630547835766" id="-12028">
		<tag k="name" v="Nerdalsplassen" />
		<tag k="place" v="isolated_dwelling" />
		<tag k="ssr:stedsnr" v="542977" />
	</node>
	<node lat="69.06315046298286" lon="15.718483799359488" id="-12048">
		<tag k="alt_name" v="Svandal" />
		<tag k="fixme" v="consider place=hamlet" />
		<tag k="name" v="Svandalen" />
		<tag k="place" v="farm" />
		<tag k="ssr:stedsnr" v="563214" />
	</node>
	<node lat="69.24618478569603" lon="16.11870785346129" id="-12059">
		<tag k="alt_name" v="Skardstein" />
		<tag k="fixme" v="consider place=hamlet" />
		<tag k="name" v="Skarstein" />
		<tag k="place" v="farm" />
		<tag k="ssr:stedsnr" v="563313" />
	</node>
	<node lat="69.25673611140039" lon="16.158711104138444" id="-12081">
		<tag k="name" v="Fagermo" />
		<tag k="place" v="farm" />
		<tag k="ssr:stedsnr" v="564204" />
	</node>
	<node lat="69.27084722543617" lon="15.957036103616044" id="-12085">
		<tag k="name" v="Bruvollen" />
		<tag k="place" v="quarter" />
		<tag k="ssr:stedsnr" v="564229" />
	</node>
	<node lat="68.90314431742637" lon="15.620188066866827" id="-12091">
		<tag k="fixme" v="consider place=hamlet" />
		<tag k="name" v="Buksnes" />
		<tag k="place" v="farm" />
		<tag k="ssr:stedsnr" v="571858" />
	</node>
	<node lat="69.27219166570947" lon="15.948327787318727" id="-12113">
		<tag k="name" v="Vestergården" />
		<tag k="place" v="quarter" />
		<tag k="ssr:stedsnr" v="582582" />
	</node>
	<node lat="69.25854443993514" lon="16.162161121149936" id="-12152">
		<tag k="name" v="Fiskenes" />
		<tag k="place" v="farm" />
		<tag k="ssr:stedsnr" v="603768" />
	</node>
	<node lat="69.32284722090971" lon="16.119752788687506" id="-12153">
		<tag k="name" v="Kiilgården" />
		<tag k="place" v="farm" />
		<tag k="ssr:stedsnr" v="603771" />
	</node>
	<node lat="69.07926666331225" lon="15.736700005475333" id="-12161">
		<tag k="name" v="Rørjorda" />
		<tag k="place" v="isolated_dwelling" />
		<tag k="ssr:stedsnr" v="605242" />
	</node>
	<node lat="69.21386706172544" lon="15.861630149418598" id="-12174">
		<tag k="fixme" v="consider place=hamlet" />
		<tag k="name" v="Stave" />
		<tag k="place" v="farm" />
		<tag k="ssr:stedsnr" v="624199" />
	</node>
	<node lat="68.99790832946536" lon="15.733049992922751" id="-12183">
		<tag k="name" v="Breines" />
		<tag k="place" v="farm" />
		<tag k="ssr:stedsnr" v="624392" />
	</node>
	<node lat="69.13244722484022" lon="15.674997223773865" id="-12207">
		<tag k="name" v="Melan" />
		<tag k="place" v="quarter" />
		<tag k="ssr:stedsnr" v="642264" />
	</node>
	<node lat="69.09868889079797" lon="15.667324989094947" id="-12249">
		<tag k="name" v="Fjellstad" />
		<tag k="place" v="farm" />
		<tag k="ssr:stedsnr" v="665268" />
	</node>
	<node lat="68.91962222540913" lon="15.618888891950824" id="-12276">
		<tag k="alt_name" v="Gobakken" />
		<tag k="name" v="Godbakken" />
		<tag k="place" v="farm" />
		<tag k="ssr:stedsnr" v="745702" />
	</node>
	<node lat="68.87722072404375" lon="15.478366584857538" id="-12304">
		<tag k="fixme" v="consider place=hamlet" />
		<tag k="name" v="Gavlen" />
		<tag k="place" v="farm" />
		<tag k="ssr:stedsnr" v="746694" />
	</node>
	<node lat="68.98157499748477" lon="15.563141662486839" id="-12307">
		<tag k="name" v="Stokkland" />
		<tag k="place" v="hamlet" />
		<tag k="ssr:stedsnr" v="750083" />
	</node>
	<node lat="68.88368611356115" lon="15.601244448565174" id="-12319">
		<tag k="name" v="Bakken" />
		<tag k="place" v="isolated_dwelling" />
		<tag k="ssr:stedsnr" v="763567" />
	</node>
	<node lat="69.25075278082697" lon="16.14021665664021" id="-12333">
		<tag k="name" v="Norgård" />
		<tag k="place" v="farm" />
		<tag k="ssr:stedsnr" v="764926" />
	</node>
	<node lat="69.27263610839192" lon="15.955422225862204" id="-12349">
		<tag k="name" v="Mellagården" />
		<tag k="place" v="quarter" />
		<tag k="ssr:stedsnr" v="785869" />
	</node>
	<node lat="69.01943610778682" lon="15.596269451185986" id="-12351">
		<tag k="name" v="Øverdalsplassen" />
		<tag k="place" v="isolated_dwelling" />
		<tag k="ssr:stedsnr" v="785980" />
	</node>
	<node lat="69.32171110865849" lon="16.12459167679787" id="-12356">
		<tag k="name" v="Torvet" />
		<tag k="place" v="square" />
		<tag k="ssr:stedsnr" v="786796" />
	</node>
	<node lat="68.89806251394442" lon="15.424404178954136" id="-12394">
		<tag k="alt_name" v="Sandnes, store;Store Sandnes" />
		<tag k="fixme" v="consider place=hamlet" />
		<tag k="name" v="Stor-Sandnes" />
=======
	<node id="-208559" lat="69.3115058498" lon="16.1149735027">
		<tag k="name" v="Andenes" />
		<tag k="place" v="hamlet" />
		<tag k="ssr:stedsnr" v="1076696" />
	</node>
	<node id="-208558" lat="69.2734373988" lon="15.9618093304">
		<tag k="fixme" v="consider place=hamlet" />
		<tag k="name" v="Bleik" />
		<tag k="place" v="farm" />
		<tag k="ssr:stedsnr" v="1076695" />
	</node>
	<node id="-207533" lat="68.9205883576" lon="15.5561952122">
		<tag k="fixme" v="consider place=hamlet" />
		<tag k="name" v="Nygård" />
		<tag k="place" v="farm" />
		<tag k="ssr:stedsnr" v="156934" />
	</node>
	<node id="-208556" lat="69.1080221935" lon="15.949187348">
		<tag k="fixme" v="consider place=hamlet" />
		<tag k="name" v="Myre" />
		<tag k="place" v="farm" />
		<tag k="ssr:stedsnr" v="1076691" />
	</node>
	<node id="-208555" lat="68.9702935806" lon="15.6333423334">
		<tag k="alt_name" v="Risøy" />
		<tag k="fixme" v="consider place=hamlet" />
		<tag k="name" v="Risøya" />
		<tag k="place" v="farm" />
		<tag k="ssr:stedsnr" v="1076677" />
	</node>
	<node id="-208554" lat="68.9551699788" lon="15.6520713217">
		<tag k="name" v="Strandland" />
		<tag k="place" v="farm" />
		<tag k="ssr:stedsnr" v="1076181" />
	</node>
	<node id="-206791" lat="68.9165888911" lon="15.6119305606">
		<tag k="name" v="Lanes" />
		<tag k="place" v="farm" />
		<tag k="ssr:stedsnr" v="685664" />
	</node>
	<node id="-207015" lat="69.3237000023" lon="16.1179194336">
		<tag k="name" v="Dorps plass" />
		<tag k="place" v="square" />
		<tag k="ssr:stedsnr" v="725771" />
	</node>
	<node id="-208032" lat="69.2721916657" lon="15.9483277873">
		<tag k="name" v="Vestergården" />
		<tag k="place" v="quarter" />
		<tag k="ssr:stedsnr" v="582582" />
	</node>
	<node id="-206752" lat="68.9288694434" lon="15.6290027815">
		<tag k="name" v="Sørheim" />
		<tag k="place" v="farm" />
		<tag k="ssr:stedsnr" v="503465" />
	</node>
	<node id="-208092" lat="68.8341653479" lon="15.6671532136">
		<tag k="fixme" v="consider place=hamlet" />
		<tag k="name" v="Forfjord" />
		<tag k="place" v="farm" />
		<tag k="ssr:stedsnr" v="624018" />
	</node>
	<node id="-206999" lat="69.0443194406" lon="15.5234861178">
		<tag k="name" v="Nord" />
		<tag k="place" v="farm" />
		<tag k="ssr:stedsnr" v="892735" />
	</node>
	<node id="-206105" lat="69.2325916631" lon="15.8684833313">
		<tag k="name" v="Littje-Kuforet" />
		<tag k="place" v="farm" />
		<tag k="ssr:stedsnr" v="218667" />
	</node>
	<node id="-208530" lat="69.0199333358" lon="15.6001888966">
		<tag k="name" v="Tofta" />
		<tag k="place" v="locality" />
		<tag k="ssr:stedsnr" v="967971" />
	</node>
	<node id="-206476" lat="68.9237111146" lon="15.5653055681">
		<tag k="name" v="Nygård" />
		<tag k="place" v="farm" />
		<tag k="ssr:stedsnr" v="442697" />
	</node>
	<node id="-207496" lat="69.274563887" lon="15.9623583214">
		<tag k="name" v="Nordgården" />
		<tag k="place" v="quarter" />
		<tag k="ssr:stedsnr" v="139143" />
	</node>
	<node id="-207491" lat="68.9844142235" lon="15.4396303845">
		<tag k="fixme" v="consider place=hamlet" />
		<tag k="name" v="Haugen" />
		<tag k="place" v="farm" />
		<tag k="ssr:stedsnr" v="138626" />
	</node>
	<node id="-208001" lat="69.2708472254" lon="15.9570361036">
		<tag k="name" v="Bruvollen" />
		<tag k="place" v="quarter" />
		<tag k="ssr:stedsnr" v="564229" />
	</node>
	<node id="-207997" lat="69.2567361114" lon="16.1587111041">
		<tag k="name" v="Fagermo" />
		<tag k="place" v="farm" />
		<tag k="ssr:stedsnr" v="564204" />
	</node>
	<node id="-208507" lat="68.9250861116" lon="15.4642749909">
		<tag k="name" v="Åsen" />
		<tag k="place" v="locality" />
		<tag k="ssr:stedsnr" v="868602" />
	</node>
	<node id="-208506" lat="68.9980388932" lon="15.6973611141">
		<tag k="name" v="Nybrott" />
		<tag k="place" v="farm" />
		<tag k="ssr:stedsnr" v="868365" />
	</node>
	<node id="-206456" lat="69.1361194479" lon="16.0357972251">
		<tag k="name" v="Korsnes" />
		<tag k="place" v="farm" />
		<tag k="ssr:stedsnr" v="442261" />
	</node>
	<node id="-207370" lat="69.3094749969" lon="16.0947833415">
		<tag k="name" v="Vestbyen industriområde" />
		<tag k="place" v="quarter" />
		<tag k="ssr:stedsnr" v="58794" />
	</node>
	<node id="-208502" lat="69.2535527804" lon="16.1506610989">
		<tag k="name" v="Fagerlund" />
		<tag k="place" v="farm" />
		<tag k="ssr:stedsnr" v="868199" />
	</node>
	<node id="-207208" lat="69.0436224717" lon="15.5181003781">
		<tag k="fixme" v="consider place=hamlet" />
		<tag k="name" v="Bø" />
		<tag k="place" v="farm" />
		<tag k="ssr:stedsnr" v="928315" />
	</node>
	<node id="-206956" lat="69.1243277781" lon="15.9564249978">
		<tag k="name" v="Støa" />
		<tag k="place" v="isolated_dwelling" />
		<tag k="ssr:stedsnr" v="885376" />
	</node>
	<node id="-206954" lat="68.9576972253" lon="15.7000194482">
		<tag k="name" v="Tyssvoll" />
		<tag k="place" v="farm" />
		<tag k="ssr:stedsnr" v="885050" />
	</node>
	<node id="-208488" lat="68.8818432403" lon="15.603342681">
		<tag k="fixme" v="consider place=hamlet" />
		<tag k="name" v="Buksnesfjord" />
		<tag k="place" v="farm" />
		<tag k="ssr:stedsnr" v="867721" />
	</node>
	<node id="-207974" lat="69.063150463" lon="15.7184837994">
		<tag k="alt_name" v="Svandal" />
		<tag k="fixme" v="consider place=hamlet" />
		<tag k="name" v="Svandalen" />
		<tag k="place" v="farm" />
		<tag k="ssr:stedsnr" v="563214" />
	</node>
	<node id="-208484" lat="68.9713007887" lon="15.4442754686">
		<tag k="fixme" v="consider place=hamlet" />
		<tag k="name" v="Åknes" />
		<tag k="place" v="farm" />
		<tag k="ssr:stedsnr" v="867621" />
	</node>
	<node id="-207459" lat="69.0598583311" lon="15.7789749913">
		<tag k="name" v="Aspholen" />
		<tag k="place" v="farm" />
		<tag k="ssr:stedsnr" v="116125" />
	</node>
	<node id="-207458" lat="68.9662500036" lon="15.7303000053">
		<tag k="name" v="Lovik" />
		<tag k="place" v="locality" />
		<tag k="ssr:stedsnr" v="114625" />
	</node>
	<node id="-208481" lat="68.9277777792" lon="15.7843833447">
		<tag k="name" v="Ånesslåtta" />
		<tag k="place" v="locality" />
		<tag k="ssr:stedsnr" v="867511" />
	</node>
	<node id="-206944" lat="69.1530361074" lon="16.0840194444">
		<tag k="name" v="Kvalnes" />
		<tag k="place" v="farm" />
		<tag k="ssr:stedsnr" v="685219" />
	</node>
	<node id="-206941" lat="69.0986888908" lon="15.6673249891">
		<tag k="name" v="Fjellstad" />
		<tag k="place" v="farm" />
		<tag k="ssr:stedsnr" v="665268" />
	</node>
	<node id="-208470" lat="69.1245888885" lon="15.946427786">
		<tag k="name" v="Bjørkmo" />
		<tag k="place" v="farm" />
		<tag k="ssr:stedsnr" v="867289" />
	</node>
	<node id="-206861" lat="68.9031443174" lon="15.6201880669">
		<tag k="fixme" v="consider place=hamlet" />
		<tag k="name" v="Buksnes" />
		<tag k="place" v="farm" />
		<tag k="ssr:stedsnr" v="571858" />
	</node>
	<node id="-206410" lat="68.8387861146" lon="15.6065138832">
		<tag k="name" v="Myran" />
		<tag k="place" v="farm" />
		<tag k="ssr:stedsnr" v="199314" />
	</node>
	<node id="-206945" lat="69.1349796532" lon="15.6757324277">
		<tag k="alt_name" v="Nordmjele" />
		<tag k="fixme" v="consider place=hamlet" />
		<tag k="name" v="Nordmela" />
		<tag k="place" v="farm" />
		<tag k="ssr:stedsnr" v="685222" />
	</node>
	<node id="-206915" lat="69.1537777739" lon="16.0730249988">
		<tag k="name" v="Kvalnes" />
		<tag k="place" v="farm" />
		<tag k="ssr:stedsnr" v="725830" />
	</node>
	<node id="-206603" lat="69.2309833319" lon="15.8688972155">
		<tag k="name" v="Stor-Kuforet" />
>>>>>>> e1d4bc35ff8a6074a6f2e91616a996b547c36f15
		<tag k="place" v="farm" />
		<tag k="ssr:stedsnr" v="806729" />
	</node>
<<<<<<< HEAD
	<node lat="69.2726166643839" lon="15.955441675558358" id="-12406">
		<tag k="name" v="Bleik" />
		<tag k="place" v="village" />
		<tag k="ssr:stedsnr" v="807136" />
	</node>
	<node lat="68.88450833120983" lon="15.592088893012674" id="-12435">
		<tag k="name" v="Finvold" />
		<tag k="place" v="isolated_dwelling" />
		<tag k="ssr:stedsnr" v="824552" />
	</node>
	<node lat="69.31864444664483" lon="16.129599996923574" id="-12470">
		<tag k="name" v="Vikan" />
		<tag k="place" v="quarter" />
		<tag k="ssr:stedsnr" v="847796" />
	</node>
	<node lat="69.124588888538" lon="15.946427786026346" id="-12503">
		<tag k="name" v="Bjørkmo" />
		<tag k="place" v="farm" />
		<tag k="ssr:stedsnr" v="867289" />
	</node>
	<node lat="68.9277777792047" lon="15.784383344689395" id="-12510">
		<tag k="name" v="Ånesslåtta" />
		<tag k="place" v="locality" />
		<tag k="ssr:stedsnr" v="867511" />
	</node>
	<node lat="68.97130078874005" lon="15.444275468600646" id="-12514">
		<tag k="fixme" v="consider place=hamlet" />
		<tag k="name" v="Åknes" />
		<tag k="place" v="farm" />
		<tag k="ssr:stedsnr" v="867621" />
	</node>
	<node lat="68.8818432402613" lon="15.603342680991204" id="-12518">
		<tag k="fixme" v="consider place=hamlet" />
		<tag k="name" v="Buksnesfjord" />
		<tag k="place" v="farm" />
		<tag k="ssr:stedsnr" v="867721" />
	</node>
	<node lat="69.25355278037689" lon="16.15066109885186" id="-12530">
		<tag k="name" v="Fagerlund" />
		<tag k="place" v="farm" />
		<tag k="ssr:stedsnr" v="868199" />
	</node>
	<node lat="68.99803889319297" lon="15.697361114077681" id="-12533">
		<tag k="name" v="Nybrott" />
		<tag k="place" v="farm" />
		<tag k="ssr:stedsnr" v="868365" />
	</node>
	<node lat="68.95769722529786" lon="15.700019448220974" id="-12537">
		<tag k="name" v="Tyssvoll" />
		<tag k="place" v="farm" />
		<tag k="ssr:stedsnr" v="885050" />
	</node>
	<node lat="69.12432777808968" lon="15.95642499781561" id="-12544">
		<tag k="name" v="Støa" />
		<tag k="place" v="isolated_dwelling" />
		<tag k="ssr:stedsnr" v="885376" />
	</node>
	<node lat="68.86865833509323" lon="15.56094166592403" id="-12553">
		<tag k="name" v="Molund" />
		<tag k="place" v="farm" />
		<tag k="ssr:stedsnr" v="885945" />
	</node>
	<node lat="68.89317777698608" lon="15.53031110908032" id="-12590">
		<tag k="building" v="industrial" />
		<tag k="name" v="Skjolde Klippfisk" />
		<tag k="ssr:stedsnr" v="950900" />
	</node>
	<node lat="69.01993333582206" lon="15.60018889657512" id="-12608">
		<tag k="name" v="Tofta" />
		<tag k="place" v="locality" />
		<tag k="ssr:stedsnr" v="967971" />
	</node>
	<node lat="69.09725833740465" lon="15.628327785875701" id="-12623">
		<tag k="name" v="Uroa" />
		<tag k="place" v="isolated_dwelling" />
		<tag k="ssr:stedsnr" v="969256" />
	</node>
	<node lat="69.1083955239335" lon="15.886649836135277" id="-12634">
		<tag k="fixme" v="consider tourism=alpine_hut or tourism=chalet" />
		<tag k="name" v="Arlistua" />
		<tag k="ssr:stedsnr" v="1076130" />
		<tag k="tourism" v="wilderness_hut" />
	</node>
	<node lat="68.97029358063503" lon="15.633342333386654" id="-12635">
		<tag k="alt_name" v="Risøy" />
		<tag k="fixme" v="consider place=hamlet" />
		<tag k="name" v="Risøya" />
		<tag k="place" v="farm" />
		<tag k="ssr:stedsnr" v="1076677" />
	</node>
	<node lat="69.10802219350606" lon="15.949187347978967" id="-12636">
		<tag k="fixme" v="consider place=hamlet" />
		<tag k="name" v="Myre" />
		<tag k="place" v="farm" />
		<tag k="ssr:stedsnr" v="1076691" />
	</node>
	<node lat="69.25078404267684" lon="15.871619065477928" id="-12637">
		<tag k="name" v="Otervika" />
		<tag k="place" v="locality" />
		<tag k="ssr:stedsnr" v="1076694" />
	</node>
	<node lat="69.27343739878488" lon="15.961809330359618" id="-12638">
		<tag k="fixme" v="consider place=hamlet" />
		<tag k="name" v="Bleik" />
		<tag k="place" v="farm" />
		<tag k="ssr:stedsnr" v="1076695" />
	</node>
	<node lat="69.25615135840124" lon="16.044471924655515" id="-12639">
		<tag k="fixme" v="consider place=hamlet" />
		<tag k="name" v="Haugnes" />
		<tag k="place" v="farm" />
		<tag k="ssr:stedsnr" v="1076697" />
	</node>
	<node lat="69.0013434050415" lon="15.746518481359862" id="-12642">
		<tag k="name" v="Viddheim" />
		<tag k="place" v="farm" />
		<tag k="ssr:stedsnr" v="1078342" />
	</node>
	<node lat="69.0023175885407" lon="15.747137223159818" id="-12643">
		<tag k="name" v="Viddeheim" />
		<tag k="old_name" v="Viddheim II" />
		<tag k="place" v="farm" />
		<tag k="ssr:stedsnr" v="1078343" />
	</node>
	<node lat="68.95518201597298" lon="15.652117525272129" id="-12644">
		<tag k="name" v="Strandlandet" />
		<tag k="old_name" v="Strandland" />
		<tag k="place" v="farm" />
		<tag k="ssr:stedsnr" v="1078344" />
	</node>
	<node lat="69.15497668339668" lon="16.08138635685169" id="-12758">
		<tag k="name" v="Kvalnes" />
		<tag k="place" v="farm" />
		<tag k="ssr:stedsnr" v="1081841" />
	</node>
	<node lat="69.30520933442311" lon="16.098348008565633" id="-12760">
		<tag k="fixme" v="consider place=hamlet" />
		<tag k="name" v="Kleiven" />
		<tag k="place" v="farm" />
		<tag k="ssr:stedsnr" v="1082523" />
	</node>
	<node lat="69.3181700107068" lon="16.112696153451033" id="-12761">
		<tag k="fixme" v="consider place=hamlet" />
		<tag k="name" v="Lille Flamberget" />
		<tag k="place" v="farm" />
		<tag k="ssr:stedsnr" v="1082552" />
=======
	<node id="-207424" lat="69.0023805556" lon="15.6228666563">
		<tag k="name" v="Vesterjorda" />
		<tag k="place" v="farm" />
		<tag k="ssr:stedsnr" v="96343" />
	</node>
	<node id="-206909" lat="69.0792666633" lon="15.7367000055">
		<tag k="name" v="Rørjorda" />
		<tag k="place" v="isolated_dwelling" />
		<tag k="ssr:stedsnr" v="605242" />
	</node>
	<node id="-207931" lat="68.8841456936" lon="15.4413629281">
		<tag k="alt_name" v="Sandnes, litle;Litle Sandnes" />
		<tag k="fixme" v="consider place=hamlet" />
		<tag k="name" v="Littje-Sandnes" />
		<tag k="place" v="farm" />
		<tag k="ssr:stedsnr" v="527687" />
	</node>
	<node id="-207418" lat="69.0030250044" lon="15.7527527688">
		<tag k="name" v="Sørstranda" />
		<tag k="place" v="farm" />
		<tag k="ssr:stedsnr" v="96385" />
	</node>
	<node id="-207411" lat="68.9962805573" lon="15.6759944388">
		<tag k="name" v="Øvereng" />
		<tag k="place" v="farm" />
		<tag k="ssr:stedsnr" v="79364" />
	</node>
	<node id="-208433" lat="69.3186444466" lon="16.1295999969">
		<tag k="name" v="Vikan" />
		<tag k="place" v="quarter" />
		<tag k="ssr:stedsnr" v="847796" />
	</node>
	<node id="-206384" lat="69.1347416659" lon="15.6926527848">
		<tag k="name" v="Leite" />
		<tag k="place" v="farm" />
		<tag k="ssr:stedsnr" v="180052" />
	</node>
	<node id="-207406" lat="68.999813091" lon="15.6357764186">
		<tag k="fixme" v="consider place=hamlet" />
		<tag k="name" v="Bjørnskinn" />
		<tag k="place" v="farm" />
		<tag k="ssr:stedsnr" v="79047" />
	</node>
	<node id="-206893" lat="69.0737972221" lon="15.5554750067">
		<tag k="name" v="Dikan" />
		<tag k="place" v="farm" />
		<tag k="ssr:stedsnr" v="709790" />
	</node>
	<node id="-207915" lat="69.1944694486" lon="15.829119452">
		<tag k="name" v="Kinnvollen" />
		<tag k="place" v="farm" />
		<tag k="ssr:stedsnr" v="521914" />
	</node>
	<node id="-206890" lat="69.0826888856" lon="15.5647111062">
		<tag k="name" v="Mellagården" />
		<tag k="place" v="farm" />
		<tag k="ssr:stedsnr" v="709773" />
	</node>
	<node id="-207400" lat="68.9532444406" lon="15.6715333371">
		<tag k="name" v="Olsrud" />
		<tag k="place" v="farm" />
		<tag k="ssr:stedsnr" v="78469" />
	</node>
	<node id="-207282" lat="69.0173753028" lon="15.8078689859">
		<tag k="fixme" v="consider place=hamlet" />
		<tag k="name" v="Åse" />
		<tag k="place" v="farm" />
		<tag k="ssr:stedsnr" v="18058" />
	</node>
	<node id="-207900" lat="69.1370944443" lon="15.6804499935">
		<tag k="amenity" v="school" />
		<tag k="name" v="Nordmela skole" />
		<tag k="ssr:stedsnr" v="521269" />
	</node>
	<node id="-208410" lat="69.0344916632" lon="15.5135083205">
		<tag k="name" v="Fagervollen" />
		<tag k="place" v="farm" />
		<tag k="ssr:stedsnr" v="831739" />
	</node>
	<node id="-207279" lat="69.0477972244" lon="15.8794916586">
		<tag k="name" v="Øyra" />
		<tag k="place" v="farm" />
		<tag k="ssr:stedsnr" v="18043" />
	</node>
	<node id="-206753" lat="69.2841694402" lon="16.1701722231">
		<tag k="name" v="Haugnes" />
		<tag k="place" v="locality" />
		<tag k="ssr:stedsnr" v="504102" />
	</node>
	<node id="-206868" lat="68.8860194418" lon="15.737505562">
		<tag k="name" v="Finngammen" />
		<tag k="place" v="locality" />
		<tag k="ssr:stedsnr" v="707855" />
	</node>
	<node id="-207378" lat="69.0972694421" lon="15.7445888869">
		<tag k="name" v="Tofta" />
		<tag k="place" v="farm" />
		<tag k="ssr:stedsnr" v="59212" />
	</node>
	<node id="-206352" lat="69.0142472249" lon="15.7898694376">
		<tag k="name" v="Lyngra" />
		<tag k="place" v="farm" />
		<tag k="ssr:stedsnr" v="279816" />
	</node>
	<node id="-208557" lat="69.2507840427" lon="15.8716190655">
		<tag k="name" v="Otervika" />
		<tag k="place" v="locality" />
		<tag k="ssr:stedsnr" v="1076694" />
	</node>
	<node id="-207882" lat="69.1583467634" lon="16.0732060698">
		<tag k="fixme" v="consider place=hamlet" />
		<tag k="name" v="Kvalnes" />
		<tag k="place" v="farm" />
		<tag k="ssr:stedsnr" v="520341" />
	</node>
	<node id="-207881" lat="69.1312555526" lon="16.0091027798">
		<tag k="name" v="Bogen" />
		<tag k="place" v="farm" />
		<tag k="ssr:stedsnr" v="520171" />
	</node>
	<node id="-206855" lat="69.0127166698" lon="15.7775722248">
		<tag k="name" v="Bogen" />
		<tag k="place" v="quarter" />
		<tag k="ssr:stedsnr" v="704789" />
	</node>
	<node id="-206241" lat="68.9225861123" lon="15.6203666683">
		<tag k="fixme" v="multiple name tags, choose one and add the other to alt_name" />
		<tag k="name" v="Buksnesstranda;Stranda" />
		<tag k="place" v="farm" />
		<tag k="ssr:stedsnr" v="98857" />
	</node>
	<node id="-206340" lat="69.0961999969" lon="15.945375011">
		<tag k="name" v="Barå" />
		<tag k="place" v="farm" />
		<tag k="ssr:stedsnr" v="278892" />
	</node>
	<node id="-206422" lat="68.9336777747" lon="15.6334944352">
		<tag k="name" v="Alset" />
		<tag k="place" v="farm" />
		<tag k="ssr:stedsnr" v="200513" />
>>>>>>> e1d4bc35ff8a6074a6f2e91616a996b547c36f15
	</node>
</osm>
