<?xml version="1.0" encoding="UTF-8"?>
<<<<<<< HEAD
<osm version="0.6" generator="osmapis">
	<node lat="69.14385833564178" lon="15.751538881706152" id="-10395">
=======
<osm generator="osmapis" version="0.6">
	<node id="-206967" lat="68.8847055539" lon="15.6576138792">
		<tag k="fixme" v="consider boundary=protected_area and relevant protect_class if not nature reserve" />
		<tag k="leisure" v="nature_reserve" />
		<tag k="name" v="Eikeland Naturreservat" />
		<tag k="ssr:stedsnr" v="885845" />
	</node>
	<node id="-206846" lat="68.874977774" lon="15.6728500034">
>>>>>>> e1d4bc35ff8a6074a6f2e91616a996b547c36f15
		<tag k="fixme" v="consider boundary=protected_area and relevant protect_class if not nature reserve" />
		<tag k="leisure" v="nature_reserve" />
		<tag k="name" v="Eikefjelldalen Landskapsvernområde" />
		<tag k="ssr:stedsnr" v="703868" />
	</node>
<<<<<<< HEAD
	<node lat="69.26155555228014" lon="16.078147225259485" id="-10671">
=======
	<node id="-206692" lat="69.2615555523" lon="16.0781472253">
>>>>>>> e1d4bc35ff8a6074a6f2e91616a996b547c36f15
		<tag k="fixme" v="consider boundary=protected_area and relevant protect_class if not nature reserve" />
		<tag k="leisure" v="nature_reserve" />
		<tag k="name" v="Endletvatn Naturreservat" />
		<tag k="ssr:stedsnr" v="422828" />
	</node>
<<<<<<< HEAD
	<node lat="68.87497777400073" lon="15.67285000337408" id="-10985">
		<tag k="fixme" v="consider boundary=protected_area and relevant protect_class if not nature reserve" />
		<tag k="leisure" v="nature_reserve" />
		<tag k="name" v="Eikefjelldalen Landskapsvernområde" />
		<tag k="ssr:stedsnr" v="703868" />
	</node>
	<node lat="69.12181666301791" lon="15.83586945048767" id="-12135">
=======
	<node id="-206386" lat="69.1438583356" lon="15.7515388817">
		<tag k="fixme" v="consider boundary=protected_area and relevant protect_class if not nature reserve" />
		<tag k="leisure" v="nature_reserve" />
		<tag k="name" v="Skogvoll naturreservat" />
		<tag k="ssr:stedsnr" v="180208" />
	</node>
	<node id="-208049" lat="69.121816663" lon="15.8358694505">
>>>>>>> e1d4bc35ff8a6074a6f2e91616a996b547c36f15
		<tag k="fixme" v="specify shooting=range, clay_pigeon etc" />
		<tag k="leisure" v="pitch" />
		<tag k="name" v="Okla skytebane" />
		<tag k="sport" v="shooting" />
		<tag k="ssr:stedsnr" v="588299" />
	</node>
<<<<<<< HEAD
	<node lat="68.88470555394716" lon="15.657613879192668" id="-12549">
		<tag k="fixme" v="consider boundary=protected_area and relevant protect_class if not nature reserve" />
		<tag k="leisure" v="nature_reserve" />
		<tag k="name" v="Eikeland Naturreservat" />
		<tag k="ssr:stedsnr" v="885845" />
	</node>
=======
>>>>>>> e1d4bc35ff8a6074a6f2e91616a996b547c36f15
</osm>
