<?xml version="1.0" encoding="UTF-8"?>
<osm generator="osmapis" version="0.6">
	<node id="-26624" lat="68.9115305529" lon="15.4306111153">
		<tag k="name" v="Finnhamna" />
		<tag k="natural" v="bay" />
		<tag k="ssr:stedsnr" v="586586" />
	</node>
	<node id="-26621" lat="69.3498805545" lon="16.1332249999">
		<tag k="name" v="Flyndra" />
		<tag k="natural" v="shoal" />
		<tag k="place" v="locality" />
		<tag k="ssr:stedsnr" v="584757" />
	</node>
	<node id="-26619" lat="69.3130166634" lon="16.0653361074">
		<tag k="name" v="Sandfallan" />
		<tag k="natural" v="shoal" />
		<tag k="place" v="locality" />
		<tag k="ssr:stedsnr" v="584172" />
	</node>
	<node id="-26618" lat="69.2521722236" lon="16.157316662">
		<tag k="fixme" v="consider seamark:type=rock or natural=shoal" />
		<tag k="name" v="Skrivarskjeret" />
		<tag k="place" v="islet" />
		<tag k="ssr:stedsnr" v="584088" />
	</node>
	<node id="-26617" lat="69.1871277782" lon="16.0953749892">
		<tag k="name" v="Grasøyra" />
		<tag k="place" v="islet" />
		<tag k="ssr:stedsnr" v="582899" />
	</node>
	<node id="-26616" lat="69.1696861082" lon="16.1005222169">
		<tag k="name" v="Naustvika" />
		<tag k="natural" v="bay" />
		<tag k="ssr:stedsnr" v="582874" />
	</node>
	<node id="-26605" lat="69.210405558" lon="15.8550249912">
		<tag k="name" v="Kvernneset" />
		<tag k="natural" v="cape" />
		<tag k="ssr:stedsnr" v="581970" />
	</node>
	<node id="-26584" lat="68.9753388887" lon="15.6521277705">
		<tag k="alt_name" v="Hamnholmane" />
		<tag k="fixme" v="consider seamark:type=rock or natural=shoal" />
		<tag k="name" v="Hamnholman" />
		<tag k="place" v="islet" />
		<tag k="ssr:stedsnr" v="564396" />
	</node>
	<node id="-26583" lat="68.9830138929" lon="15.649483338">
		<tag k="name" v="Risøybukta" />
		<tag k="natural" v="bay" />
		<tag k="ssr:stedsnr" v="564395" />
	</node>
	<node id="-26582" lat="68.9811833371" lon="15.683125004">
		<tag k="alt_name" v="Krøkkjebærholmen" />
		<tag k="loc_name" v="Krøkebærholmen" />
		<tag k="name" v="Krøkjebærholmen" />
		<tag k="natural" v="cape" />
		<tag k="ssr:stedsnr" v="564394" />
	</node>
	<node id="-26581" lat="69.1154444402" lon="15.5718722182">
		<tag k="alt_name" v="Vøysskjeran" />
		<tag k="fixme" v="consider seamark:type=rock or natural=shoal" />
		<tag k="name" v="Børvågskjeran" />
		<tag k="place" v="islet" />
		<tag k="ssr:stedsnr" v="564230" />
	</node>
	<node id="-26578" lat="69.2700361139" lon="15.8932972169">
		<tag k="fixme" v="multiple name tags, choose one and add the other to alt_name; consider seamark:type=rock or natural=shoal" />
		<tag k="name" v="Bjørskjeret;Bøskjeret" />
		<tag k="place" v="islet" />
		<tag k="ssr:stedsnr" v="564223" />
	</node>
	<node id="-26575" lat="69.3436249956" lon="16.0188555569">
		<tag k="name" v="Andersskallen" />
		<tag k="natural" v="shoal" />
		<tag k="place" v="locality" />
		<tag k="ssr:stedsnr" v="564161" />
	</node>
	<node id="-26574" lat="69.3334888857" lon="15.9251444488">
		<tag k="name" v="Andørjaskolten" />
		<tag k="natural" v="shoal" />
		<tag k="place" v="locality" />
		<tag k="ssr:stedsnr" v="564160" />
	</node>
	<node id="-26573" lat="69.3086972186" lon="15.9181999872">
		<tag k="alt_name" v="Breidstavgrunnen, nordre" />
		<tag k="name" v="Nordre Breidstavgrunnen" />
		<tag k="natural" v="shoal" />
		<tag k="place" v="locality" />
		<tag k="ssr:stedsnr" v="564152" />
	</node>
	<node id="-26571" lat="69.3045083321" lon="16.1711360995">
		<tag k="name" v="Knappskolten" />
		<tag k="natural" v="shoal" />
		<tag k="place" v="locality" />
		<tag k="ssr:stedsnr" v="564133" />
	</node>
	<node id="-26570" lat="69.2934472229" lon="16.1600916548">
		<tag k="name" v="Slettneset" />
		<tag k="natural" v="cape" />
		<tag k="ssr:stedsnr" v="564125" />
	</node>
	<node id="-26567" lat="68.8766805571" lon="15.4574083446">
		<tag k="fixme" v="multiple name tags, choose one and add the other to alt_name; consider seamark:type=rock or natural=shoal" />
		<tag k="name" v="Urdgarden;Årgarden" />
		<tag k="place" v="islet" />
		<tag k="ssr:stedsnr" v="563773" />
	</node>
	<node id="-26566" lat="68.8914222205" lon="15.5292722107">
		<tag k="alt_name" v="Titingskjeret" />
		<tag k="fixme" v="consider seamark:type=rock or natural=shoal" />
		<tag k="name" v="Titlingskjeret" />
		<tag k="place" v="islet" />
		<tag k="ssr:stedsnr" v="563742" />
	</node>
	<node id="-26565" lat="68.9022277803" lon="15.4165138782">
		<tag k="alt_name" v="Sandnesbøen" />
		<tag k="name" v="Sandnesbåen" />
		<tag k="natural" v="shoal" />
		<tag k="place" v="locality" />
		<tag k="ssr:stedsnr" v="563734" />
	</node>
	<node id="-26564" lat="68.905924996" lon="15.5490638915">
		<tag k="name" v="Mølnneset" />
		<tag k="natural" v="cape" />
		<tag k="ssr:stedsnr" v="563687" />
	</node>
	<node id="-26560" lat="68.9619166694" lon="15.5892249886">
		<tag k="name" v="Klubben" />
		<tag k="natural" v="cape" />
		<tag k="ssr:stedsnr" v="563583" />
	</node>
	<node id="-26556" lat="69.1101749965" lon="16.002561122">
		<tag k="name" v="Hornet" />
		<tag k="natural" v="shoal" />
		<tag k="place" v="locality" />
		<tag k="ssr:stedsnr" v="563245" />
	</node>
	<node id="-26554" lat="69.0560833298" lon="15.9040777724">
		<tag k="name" v="Hundholmgrunnen" />
		<tag k="natural" v="shoal" />
		<tag k="place" v="locality" />
		<tag k="ssr:stedsnr" v="563215" />
	</node>
	<node id="-26549" lat="69.2232972244" lon="16.1085138783">
		<tag k="name" v="Hellneset" />
		<tag k="natural" v="cape" />
		<tag k="ssr:stedsnr" v="563178" />
	</node>
	<node id="-26547" lat="69.2057055583" lon="15.8553694433">
		<tag k="name" v="Finnebogen" />
		<tag k="natural" v="bay" />
		<tag k="ssr:stedsnr" v="563175" />
	</node>
	<node id="-26542" lat="69.1831333292" lon="16.0885416611">
		<tag k="name" v="Leira" />
		<tag k="natural" v="bay" />
		<tag k="ssr:stedsnr" v="563134" />
	</node>
	<node id="-26541" lat="69.1698694433" lon="15.7085805534">
		<tag k="alt_name" v="Ytre Revbåan" />
		<tag k="name" v="Revbåan" />
		<tag k="natural" v="shoal" />
		<tag k="place" v="locality" />
		<tag k="ssr:stedsnr" v="563132" />
	</node>
	<node id="-26526" lat="69.3266333365" lon="16.1222833457">
		<tag k="name" v="Sennholmen" />
		<tag k="place" v="islet" />
		<tag k="ssr:stedsnr" v="543793" />
	</node>
	<node id="-26516" lat="69.2791055584" lon="15.9202888792">
		<tag k="alt_name" v="Nattmonskjeret" />
		<tag k="fixme" v="consider seamark:type=rock or natural=shoal" />
		<tag k="name" v="Nattmålskjeret" />
		<tag k="place" v="islet" />
		<tag k="ssr:stedsnr" v="532083" />
	</node>
	<node id="-26515" lat="69.2685861107" lon="15.9230083237">
		<tag k="name" v="Storslettneset" />
		<tag k="natural" v="cape" />
		<tag k="ssr:stedsnr" v="532060" />
	</node>
	<node id="-26514" lat="69.094549997" lon="15.5662222159">
		<tag k="name" v="Sandvika" />
		<tag k="natural" v="bay" />
		<tag k="ssr:stedsnr" v="527780" />
	</node>
	<node id="-26513" lat="69.0963222194" lon="15.5647861201">
		<tag k="name" v="Kvalvika" />
		<tag k="natural" v="bay" />
		<tag k="ssr:stedsnr" v="527779" />
	</node>
	<node id="-26507" lat="69.2169055543" lon="15.8521222103">
		<tag k="name" v="Buholmen" />
		<tag k="natural" v="cape" />
		<tag k="ssr:stedsnr" v="527266" />
	</node>
	<node id="-26502" lat="68.9761750011" lon="15.4235055678">
		<tag k="fixme" v="consider seamark:type=rock or natural=shoal" />
		<tag k="name" v="Smørstabben" />
		<tag k="place" v="islet" />
		<tag k="ssr:stedsnr" v="525874" />
	</node>
	<node id="-24897" lat="69.1449361132" lon="15.7148750075">
		<tag k="name" v="Leira" />
		<tag k="place" v="locality" />
		<tag k="ssr:stedsnr" v="278032" />
	</node>
	<node id="-26497" lat="68.9850527763" lon="15.70596111">
		<tag k="name" v="Småholman" />
		<tag k="place" v="islet" />
		<tag k="ssr:stedsnr" v="522745" />
	</node>
	<node id="-26496" lat="69.0212583338" lon="15.8397555503">
		<tag k="name" v="Skitneset" />
		<tag k="natural" v="cape" />
		<tag k="ssr:stedsnr" v="522734" />
	</node>
	<node id="-26492" lat="69.2239805573" lon="15.8434555499">
		<tag k="name" v="Avløysa" />
		<tag k="natural" v="cape" />
		<tag k="ssr:stedsnr" v="521700" />
	</node>
	<node id="-26482" lat="69.0528305527" lon="15.8927222159">
		<tag k="name" v="Hundholmen" />
		<tag k="natural" v="cape" />
		<tag k="ssr:stedsnr" v="521300" />
	</node>
	<node id="-26476" lat="68.8860472218" lon="15.6104888969">
		<tag k="name" v="Skrivarneset" />
		<tag k="natural" v="cape" />
		<tag k="ssr:stedsnr" v="521229" />
	</node>
	<node id="-26467" lat="69.1428694413" lon="15.6669111024">
		<tag k="name" v="Nordlandsgrunnen" />
		<tag k="natural" v="shoal" />
		<tag k="place" v="locality" />
		<tag k="ssr:stedsnr" v="520399" />
	</node>
	<node id="-26464" lat="69.1459694418" lon="15.6444777761">
		<tag k="alt_name" v="Indre Skavdalsbåan" />
		<tag k="name" v="Skavdalsboan" />
		<tag k="natural" v="shoal" />
		<tag k="place" v="locality" />
		<tag k="ssr:stedsnr" v="520391" />
	</node>
	<node id="-26454" lat="69.3231722234" lon="16.1120805658">
		<tag k="name" v="Ravnholmen" />
		<tag k="place" v="islet" />
		<tag k="ssr:stedsnr" v="422801" />
	</node>
	<node id="-26440" lat="69.1711888882" lon="15.7401055525">
		<tag k="name" v="Søre Leiskjeret" />
		<tag k="natural" v="shoal" />
		<tag k="place" v="locality" />
		<tag k="ssr:stedsnr" v="410370" />
	</node>
	<node id="-26439" lat="69.1688888892" lon="15.8110888944">
		<tag k="name" v="Salttynnan" />
		<tag k="place" v="locality" />
		<tag k="seamark:type" v="rock" />
		<tag k="ssr:stedsnr" v="410132" />
	</node>
	<node id="-24749" lat="69.3260555556" lon="16.0861833309">
		<tag k="name" v="Indre Breitaren" />
		<tag k="natural" v="shoal" />
		<tag k="place" v="locality" />
		<tag k="ssr:stedsnr" v="38558" />
	</node>
	<node id="-26433" lat="69.3374694411" lon="16.1050694304">
		<tag k="name" v="Sandfallan" />
		<tag k="natural" v="shoal" />
		<tag k="place" v="locality" />
		<tag k="ssr:stedsnr" v="402596" />
	</node>
	<node id="-26432" lat="68.900316664" lon="15.5796916593">
		<tag k="name" v="Nygårdsrevet" />
		<tag k="natural" v="shoal" />
		<tag k="place" v="locality" />
		<tag k="ssr:stedsnr" v="401472" />
	</node>
	<node id="-26429" lat="69.2743416683" lon="16.1764277896">
		<tag k="alt_name" v="Skiftholmen" />
		<tag k="name" v="Skiftholman" />
		<tag k="place" v="islet" />
		<tag k="ssr:stedsnr" v="400918" />
	</node>
	<node id="-26426" lat="68.9892722203" lon="15.694425007">
		<tag k="fixme" v="consider seamark:type=rock or natural=shoal" />
		<tag k="name" v="Dranglan" />
		<tag k="place" v="islet" />
		<tag k="ssr:stedsnr" v="400775" />
	</node>
	<node id="-24884" lat="69.065424998" lon="15.9042222269">
		<tag k="name" v="Grønneset" />
		<tag k="natural" v="cape" />
		<tag k="ssr:stedsnr" v="264784" />
	</node>
	<node id="-26419" lat="68.9956027763" lon="15.6199749896">
		<tag k="name" v="Tømmerholman" />
		<tag k="place" v="islet" />
		<tag k="ssr:stedsnr" v="399551" />
	</node>
	<node id="-26417" lat="69.134069443" lon="15.6719277801">
		<tag k="name" v="Teigneset" />
		<tag k="natural" v="cape" />
		<tag k="ssr:stedsnr" v="399506" />
	</node>
	<node id="-26407" lat="69.2258972236" lon="15.8490638841">
		<tag k="name" v="Spanna" />
		<tag k="place" v="islet" />
		<tag k="ssr:stedsnr" v="399652" />
	</node>
	<node id="-26402" lat="68.9709305579" lon="15.7225388947">
		<tag k="name" v="Neset" />
		<tag k="natural" v="cape" />
		<tag k="ssr:stedsnr" v="399036" />
	</node>
	<node id="-26400" lat="69.0404444473" lon="15.8660166748">
		<tag k="name" v="Rørneset" />
		<tag k="natural" v="cape" />
		<tag k="ssr:stedsnr" v="398163" />
	</node>
	<node id="-26399" lat="69.070369443" lon="15.9050777872">
		<tag k="name" v="Dyna" />
		<tag k="natural" v="shoal" />
		<tag k="place" v="locality" />
		<tag k="ssr:stedsnr" v="398160" />
	</node>
	<node id="-26398" lat="69.0690500017" lon="15.9533361105">
		<tag k="name" v="Søre Bjelkan" />
		<tag k="natural" v="shoal" />
		<tag k="place" v="locality" />
		<tag k="ssr:stedsnr" v="398154" />
	</node>
	<node id="-26395" lat="68.9837388853" lon="15.6761611207">
		<tag k="name" v="Draglan" />
		<tag k="natural" v="cape" />
		<tag k="ssr:stedsnr" v="382376" />
	</node>
	<node id="-24879" lat="69.2868999987" lon="16.1733861198">
		<tag k="name" v="Littjesanden" />
		<tag k="natural" v="bay" />
		<tag k="ssr:stedsnr" v="118803" />
	</node>
	<node id="-26390" lat="69.3902027797" lon="16.1567027788">
		<tag k="name" v="Æråsbåen" />
		<tag k="natural" v="shoal" />
		<tag k="place" v="locality" />
		<tag k="ssr:stedsnr" v="382180" />
	</node>
	<node id="-26389" lat="69.336191668" lon="16.0591527809">
		<tag k="fixme" v="consider seamark:type=rock or natural=shoal" />
		<tag k="name" v="Bardan" />
		<tag k="place" v="islet" />
		<tag k="ssr:stedsnr" v="382172" />
	</node>
	<node id="-26388" lat="69.3242527783" lon="16.1030472328">
		<tag k="fixme" v="consider seamark:type=rock or natural=shoal" />
		<tag k="name" v="Kyta" />
		<tag k="place" v="islet" />
		<tag k="ssr:stedsnr" v="382167" />
	</node>
	<node id="-26387" lat="69.3180444424" lon="15.9827361209">
		<tag k="fixme" v="consider seamark:type=rock or natural=shoal" />
		<tag k="name" v="Kvithovudet" />
		<tag k="place" v="islet" />
		<tag k="ssr:stedsnr" v="382165" />
	</node>
	<node id="-26385" lat="69.2939111084" lon="15.8778833423">
		<tag k="name" v="Ytterfallan" />
		<tag k="natural" v="shoal" />
		<tag k="place" v="locality" />
		<tag k="ssr:stedsnr" v="382155" />
	</node>
	<node id="-26384" lat="69.2938999984" lon="15.894391677">
		<tag k="alt_name" v="Breidstavgrunnan, s" />
		<tag k="name" v="Søre Breidstavgrunnan" />
		<tag k="natural" v="shoal" />
		<tag k="place" v="locality" />
		<tag k="ssr:stedsnr" v="382154" />
	</node>
	<node id="-26382" lat="69.286380552" lon="16.1759416742">
		<tag k="name" v="Hamneneset" />
		<tag k="natural" v="cape" />
		<tag k="ssr:stedsnr" v="382144" />
	</node>
	<node id="-26380" lat="69.2814527798" lon="15.975938881">
		<tag k="name" v="Stranda" />
		<tag k="natural" v="beach" />
		<tag k="place" v="locality" />
		<tag k="ssr:stedsnr" v="382138" />
	</node>
	<node id="-26377" lat="69.2672472206" lon="16.1694888785">
		<tag k="name" v="Klubben" />
		<tag k="natural" v="cape" />
		<tag k="ssr:stedsnr" v="382051" />
	</node>
	<node id="-26371" lat="68.9794111132" lon="15.42076945">
		<tag k="fixme" v="consider seamark:type=rock or natural=shoal" />
		<tag k="name" v="Hornet" />
		<tag k="place" v="islet" />
		<tag k="ssr:stedsnr" v="381638" />
	</node>
	<node id="-26364" lat="68.9591583313" lon="15.7725472095">
		<tag k="name" v="Høystakkneset" />
		<tag k="natural" v="cape" />
		<tag k="ssr:stedsnr" v="381405" />
	</node>
	<node id="-24874" lat="68.9845861127" lon="15.7841972188">
		<tag k="alt_name" v="Flesa, litle" />
		<tag k="name" v="Litle Flesa" />
		<tag k="natural" v="shoal" />
		<tag k="place" v="locality" />
		<tag k="ssr:stedsnr" v="261388" />
	</node>
	<node id="-26360" lat="69.2471916671" lon="15.8544750076">
		<tag k="name" v="Rekvika" />
		<tag k="natural" v="bay" />
		<tag k="ssr:stedsnr" v="381327" />
	</node>
	<node id="-26353" lat="69.1010694483" lon="15.9908194566">
		<tag k="alt_name" v="Myrgrunnen" />
		<tag k="name" v="Myragrunnen" />
		<tag k="natural" v="shoal" />
		<tag k="place" v="locality" />
		<tag k="ssr:stedsnr" v="381225" />
	</node>
	<node id="-26352" lat="69.2113611096" lon="15.7717722264">
		<tag k="name" v="Måholmrevet" />
		<tag k="natural" v="shoal" />
		<tag k="place" v="locality" />
		<tag k="ssr:stedsnr" v="381190" />
	</node>
	<node id="-26350" lat="69.1861777798" lon="15.7681527668">
		<tag k="name" v="Tretteklakken" />
		<tag k="place" v="islet" />
		<tag k="ssr:stedsnr" v="381150" />
	</node>
	<node id="-26334" lat="69.2093527798" lon="16.1108333394">
		<tag k="fixme" v="consider seamark:type=rock or natural=shoal" />
		<tag k="name" v="Grasøyra" />
		<tag k="place" v="islet" />
		<tag k="ssr:stedsnr" v="361847" />
	</node>
	<node id="-26311" lat="68.9608888877" lon="15.4391861219">
		<tag k="name" v="Gobonkeila" />
		<tag k="natural" v="bay" />
		<tag k="ssr:stedsnr" v="343639" />
	</node>
	<node id="-26309" lat="69.3296361115" lon="16.0815666642">
		<tag k="name" v="Ytre Breitaren" />
		<tag k="natural" v="shoal" />
		<tag k="place" v="locality" />
		<tag k="ssr:stedsnr" v="342484" />
	</node>
	<node id="-26308" lat="69.3186027806" lon="16.0730472268">
		<tag k="fixme" v="consider seamark:type=rock or natural=shoal" />
		<tag k="name" v="Rundskjeret" />
		<tag k="place" v="islet" />
		<tag k="ssr:stedsnr" v="341192" />
	</node>
	<node id="-26306" lat="69.3011222249" lon="16.0029388844">
		<tag k="name" v="Spannbåen" />
		<tag k="natural" v="shoal" />
		<tag k="place" v="locality" />
		<tag k="ssr:stedsnr" v="341126" />
	</node>
	<node id="-26305" lat="69.0725694412" lon="15.540316675">
		<tag k="fixme" v="consider seamark:type=rock or natural=shoal" />
		<tag k="name" v="Lanesskjeret" />
		<tag k="place" v="islet" />
		<tag k="ssr:stedsnr" v="340878" />
	</node>
	<node id="-26300" lat="69.1890083316" lon="16.0915833361">
		<tag k="name" v="Nordelvholmen" />
		<tag k="place" v="islet" />
		<tag k="ssr:stedsnr" v="339890" />
	</node>
	<node id="-24863" lat="69.3354305586" lon="16.1765639005">
		<tag k="name" v="Tverrbåen" />
		<tag k="natural" v="shoal" />
		<tag k="place" v="locality" />
		<tag k="ssr:stedsnr" v="261160" />
	</node>
	<node id="-26292" lat="68.8854083309" lon="15.6090027807">
		<tag k="name" v="Skrivarneset" />
		<tag k="natural" v="cape" />
		<tag k="ssr:stedsnr" v="339529" />
	</node>
	<node id="-26291" lat="68.9925583295" lon="15.7317222115">
		<tag k="name" v="Rundholmen" />
		<tag k="place" v="islet" />
		<tag k="ssr:stedsnr" v="339498" />
	</node>
	<node id="-26287" lat="69.1401138869" lon="16.0544861005">
		<tag k="name" v="Elvebukta" />
		<tag k="natural" v="bay" />
		<tag k="ssr:stedsnr" v="339338" />
	</node>
	<node id="-26282" lat="68.9702833306" lon="15.7270138906">
		<tag k="name" v="Rørvika" />
		<tag k="natural" v="bay" />
		<tag k="ssr:stedsnr" v="339030" />
	</node>
	<node id="-26279" lat="69.0944611118" lon="16.0805416615">
		<tag k="name" v="Østerbåen" />
		<tag k="natural" v="shoal" />
		<tag k="place" v="locality" />
		<tag k="ssr:stedsnr" v="338910" />
	</node>
	<node id="-26275" lat="69.0199416682" lon="16.0056944525">
		<tag k="name" v="Lønegga" />
		<tag k="natural" v="shoal" />
		<tag k="place" v="locality" />
		<tag k="ssr:stedsnr" v="337167" />
	</node>
	<node id="-26272" lat="69.3215694487" lon="16.1116666636">
		<tag k="name" v="Gamholman" />
		<tag k="place" v="islet" />
		<tag k="ssr:stedsnr" v="322148" />
	</node>
	<node id="-26268" lat="68.9169805585" lon="15.4352500019">
		<tag k="name" v="Finnhamn" />
		<tag k="natural" v="bay" />
		<tag k="ssr:stedsnr" v="321641" />
	</node>
	<node id="-26265" lat="68.9463833295" lon="15.384969448">
		<tag k="bay" v="fjord" />
		<tag k="name" v="Gavlfjorden" />
		<tag k="natural" v="bay" />
		<tag k="old_name" v="Gavlefjorden" />
		<tag k="ssr:stedsnr" v="321585" />
	</node>
	<node id="-24857" lat="68.9924250033" lon="15.441563902">
		<tag k="name" v="Storneset" />
		<tag k="natural" v="cape" />
		<tag k="ssr:stedsnr" v="260592" />
	</node>
	<node id="-26258" lat="68.9863694483" lon="15.7127999944">
		<tag k="alt_name" v="Andersøyra" />
		<tag k="name" v="Andersøya" />
		<tag k="place" v="islet" />
		<tag k="ssr:stedsnr" v="321354" />
	</node>
	<node id="-26253" lat="69.1933666696" lon="16.0985888964">
		<tag k="alt_name" v="Stiksåholmen" />
		<tag k="name" v="Stikksåholmen" />
		<tag k="place" v="islet" />
		<tag k="ssr:stedsnr" v="321126" />
	</node>
	<node id="-26252" lat="69.2727500034" lon="15.9225666699">
		<tag k="fixme" v="consider seamark:type=rock or natural=shoal" />
		<tag k="name" v="Storslettskjeran" />
		<tag k="place" v="islet" />
		<tag k="ssr:stedsnr" v="321123" />
	</node>
	<node id="-26251" lat="69.1662666656" lon="15.6233972195">
		<tag k="name" v="Åknesbåan" />
		<tag k="natural" v="shoal" />
		<tag k="place" v="locality" />
		<tag k="ssr:stedsnr" v="321116" />
	</node>
	<node id="-26249" lat="69.0074111082" lon="15.8000166662">
		<tag k="name" v="Sørsteinen" />
		<tag k="natural" v="shoal" />
		<tag k="place" v="locality" />
		<tag k="ssr:stedsnr" v="321039" />
	</node>
	<node id="-26247" lat="68.827599998" lon="15.6462694491">
		<tag k="fixme" v="consider seamark:type=rock or natural=shoal" />
		<tag k="name" v="Laksholmen" />
		<tag k="place" v="islet" />
		<tag k="ssr:stedsnr" v="321002" />
	</node>
	<node id="-26243" lat="69.0881944484" lon="15.5517222354">
		<tag k="fixme" v="multiple name tags, choose one and add the other to alt_name" />
		<tag k="name" v="Fløberget;Fløbergneset" />
		<tag k="natural" v="cape" />
		<tag k="ssr:stedsnr" v="320266" />
	</node>
	<node id="-26240" lat="69.2535666671" lon="15.8708638998">
		<tag k="name" v="Otervika" />
		<tag k="natural" v="bay" />
		<tag k="ssr:stedsnr" v="321212" />
	</node>
	<node id="-26235" lat="69.2149805576" lon="15.7979083376">
		<tag k="alt_name" v="Trollskjeret" />
		<tag k="name" v="Skjergården" />
		<tag k="place" v="islet" />
		<tag k="ssr:stedsnr" v="321168" />
	</node>
	<node id="-26224" lat="69.3157416625" lon="16.1028694371">
		<tag k="fixme" v="consider seamark:type=rock or natural=shoal" />
		<tag k="name" v="Teistholmen" />
		<tag k="place" v="islet" />
		<tag k="ssr:stedsnr" v="300797" />
	</node>
	<node id="-26218" lat="69.0224027773" lon="15.4732277661">
		<tag k="name" v="Hestneset" />
		<tag k="natural" v="cape" />
		<tag k="ssr:stedsnr" v="201106" />
	</node>
	<node id="-26216" lat="68.9232555516" lon="15.5695805463">
		<tag k="name" v="Nygårdsneset" />
		<tag k="natural" v="cape" />
		<tag k="ssr:stedsnr" v="200638" />
	</node>
	<node id="-26215" lat="68.9801388932" lon="15.6660361125">
		<tag k="name" v="Knutholmen" />
		<tag k="natural" v="cape" />
		<tag k="ssr:stedsnr" v="200389" />
	</node>
	<node id="-26213" lat="69.069463893" lon="15.9019805597">
		<tag k="fixme" v="multiple name tags, choose one and add the other to alt_name" />
		<tag k="name" v="Sellevollvalan;Valan" />
		<tag k="natural" v="bay" />
		<tag k="ssr:stedsnr" v="200183" />
	</node>
	<node id="-26211" lat="69.3945611074" lon="16.1280138797">
		<tag k="name" v="Bjørka" />
		<tag k="natural" v="shoal" />
		<tag k="place" v="locality" />
		<tag k="ssr:stedsnr" v="200163" />
	</node>
	<node id="-26210" lat="69.3827666649" lon="16.1528166654">
		<tag k="name" v="Tindsbåan" />
		<tag k="natural" v="shoal" />
		<tag k="place" v="locality" />
		<tag k="ssr:stedsnr" v="200161" />
	</node>
	<node id="-26206" lat="69.2652472232" lon="15.9134999942">
		<tag k="name" v="Klubben" />
		<tag k="natural" v="cape" />
		<tag k="ssr:stedsnr" v="200233" />
	</node>
	<node id="-26204" lat="69.3124333355" lon="16.1490777657">
		<tag k="name" v="Skjeggfallan" />
		<tag k="natural" v="shoal" />
		<tag k="place" v="locality" />
		<tag k="ssr:stedsnr" v="200143" />
	</node>
	<node id="-26203" lat="69.1553250028" lon="16.0908805599">
		<tag k="name" v="Gullkista" />
		<tag k="place" v="islet" />
		<tag k="ssr:stedsnr" v="200140" />
	</node>
	<node id="-26199" lat="69.0278694421" lon="15.8721666676">
		<tag k="name" v="Stokksteinneset" />
		<tag k="natural" v="cape" />
		<tag k="ssr:stedsnr" v="200038" />
	</node>
	<node id="-26195" lat="68.9902694411" lon="15.616199994">
		<tag k="name" v="Tranesvågen" />
		<tag k="natural" v="bay" />
		<tag k="ssr:stedsnr" v="199586" />
	</node>
	<node id="-26166" lat="69.1422361107" lon="15.6423305472">
		<tag k="name" v="Steinen" />
		<tag k="natural" v="shoal" />
		<tag k="place" v="locality" />
		<tag k="ssr:stedsnr" v="168348" />
	</node>
	<node id="-26165" lat="69.2645833321" lon="15.9016027683">
		<tag k="name" v="Vesterklubben" />
		<tag k="natural" v="cape" />
		<tag k="ssr:stedsnr" v="168087" />
	</node>
	<node id="-26164" lat="69.2608555556" lon="15.887149997">
		<tag k="name" v="Steinen" />
		<tag k="natural" v="cape" />
		<tag k="ssr:stedsnr" v="168081" />
	</node>
	<node id="-26150" lat="68.9745916659" lon="15.4322666779">
		<tag k="name" v="Nordjordsanden" />
		<tag k="natural" v="beach" />
		<tag k="place" v="locality" />
		<tag k="ssr:stedsnr" v="161581" />
	</node>
	<node id="-26148" lat="69.1311722233" lon="16.0688972277">
		<tag k="name" v="Storbåen" />
		<tag k="natural" v="shoal" />
		<tag k="place" v="locality" />
		<tag k="ssr:stedsnr" v="160685" />
	</node>
	<node id="-26147" lat="69.3404305579" lon="16.1273944491">
		<tag k="name" v="Storstuerten" />
		<tag k="natural" v="shoal" />
		<tag k="place" v="locality" />
		<tag k="ssr:stedsnr" v="160484" />
	</node>
	<node id="-26146" lat="69.3299944445" lon="16.0945555602">
		<tag k="name" v="Skorsteinbåan" />
		<tag k="natural" v="shoal" />
		<tag k="place" v="locality" />
		<tag k="ssr:stedsnr" v="160480" />
	</node>
	<node id="-26145" lat="69.3169999967" lon="16.0768249895">
		<tag k="fixme" v="consider seamark:type=rock or natural=shoal" />
		<tag k="name" v="Sjåstein" />
		<tag k="place" v="islet" />
		<tag k="ssr:stedsnr" v="159198" />
	</node>
	<node id="-26144" lat="69.3066611129" lon="16.0171944435">
		<tag k="name" v="Yttergrunnan" />
		<tag k="natural" v="shoal" />
		<tag k="place" v="locality" />
		<tag k="ssr:stedsnr" v="159179" />
	</node>
	<node id="-26143" lat="68.9683916668" lon="15.6922444423">
		<tag k="name" v="Korsholmrevet" />
		<tag k="natural" v="shoal" />
		<tag k="place" v="locality" />
		<tag k="ssr:stedsnr" v="158940" />
	</node>
	<node id="-26142" lat="69.0932000011" lon="15.539519437">
		<tag k="name" v="Fløbergfluan" />
		<tag k="natural" v="shoal" />
		<tag k="place" v="locality" />
		<tag k="ssr:stedsnr" v="158880" />
	</node>
	<node id="-26137" lat="69.1817722228" lon="16.0952805509">
		<tag k="fixme" v="consider seamark:type=rock or natural=shoal" />
		<tag k="name" v="Klarasteinan" />
		<tag k="place" v="islet" />
		<tag k="ssr:stedsnr" v="157892" />
	</node>
	<node id="-26134" lat="69.013644443" lon="15.8189722317">
		<tag k="name" v="Nordsjøen" />
		<tag k="natural" v="beach" />
		<tag k="place" v="locality" />
		<tag k="ssr:stedsnr" v="157754" />
	</node>
	<node id="-26130" lat="68.9911722206" lon="15.7118805648">
		<tag k="name" v="Laneset" />
		<tag k="natural" v="cape" />
		<tag k="ssr:stedsnr" v="157521" />
	</node>
	<node id="-26117" lat="68.8886999975" lon="15.6159361119">
		<tag k="name" v="Storbukta" />
		<tag k="natural" v="bay" />
		<tag k="ssr:stedsnr" v="157200" />
	</node>
	<node id="-26115" lat="68.9703999966" lon="15.6439111109">
		<tag k="name" v="Hamarøyneset" />
		<tag k="natural" v="cape" />
		<tag k="ssr:stedsnr" v="157082" />
	</node>
	<node id="-26107" lat="69.1489388892" lon="15.6742972109">
		<tag k="name" v="Kalven" />
		<tag k="place" v="islet" />
		<tag k="ssr:stedsnr" v="156388" />
	</node>
	<node id="-26099" lat="69.1137333329" lon="16.0055555558">
		<tag k="name" v="Galten" />
		<tag k="natural" v="shoal" />
		<tag k="place" v="locality" />
		<tag k="ssr:stedsnr" v="155188" />
	</node>
	<node id="-26098" lat="69.0417194433" lon="15.9903555525">
		<tag k="name" v="Breidtindskallen" />
		<tag k="natural" v="shoal" />
		<tag k="place" v="locality" />
		<tag k="ssr:stedsnr" v="155171" />
	</node>
	<node id="-26088" lat="69.2570888853" lon="15.8036972091">
		<tag k="name" v="Ausa" />
		<tag k="natural" v="shoal" />
		<tag k="place" v="locality" />
		<tag k="ssr:stedsnr" v="139238" />
	</node>
	<node id="-26086" lat="69.1464500009" lon="15.7175472239">
		<tag k="name" v="Storøya" />
		<tag k="place" v="island" />
		<tag k="ssr:stedsnr" v="139234" />
	</node>
	<node id="-26084" lat="69.3788944471" lon="16.1332277874">
		<tag k="name" v="Kleivbåan" />
		<tag k="natural" v="shoal" />
		<tag k="place" v="locality" />
		<tag k="ssr:stedsnr" v="139181" />
	</node>
	<node id="-26083" lat="69.3694944428" lon="16.0431138885">
		<tag k="alt_name" v="Skolten, s" />
		<tag k="name" v="Søre Skolten" />
		<tag k="natural" v="shoal" />
		<tag k="place" v="locality" />
		<tag k="ssr:stedsnr" v="139178" />
	</node>
	<node id="-26082" lat="69.3470333369" lon="16.1698055515">
		<tag k="name" v="Kobbesteinan" />
		<tag k="natural" v="shoal" />
		<tag k="place" v="locality" />
		<tag k="ssr:stedsnr" v="139176" />
	</node>
	<node id="-26080" lat="69.3212722186" lon="15.9070583367">
		<tag k="name" v="Steinbitskallen" />
		<tag k="natural" v="shoal" />
		<tag k="place" v="locality" />
		<tag k="ssr:stedsnr" v="139165" />
	</node>
	<node id="-26079" lat="69.1612888886" lon="16.0950583222">
		<tag k="name" v="Hemundberget" />
		<tag k="natural" v="cape" />
		<tag k="ssr:stedsnr" v="139157" />
	</node>
	<node id="-26078" lat="69.1604638904" lon="16.0936583449">
		<tag k="name" v="Finnvika" />
		<tag k="natural" v="bay" />
		<tag k="ssr:stedsnr" v="139151" />
	</node>
	<node id="-26077" lat="69.2787083317" lon="15.9454472288">
		<tag k="fixme" v="multiple name tags, choose one and add the other to alt_name; consider seamark:type=rock or natural=shoal" />
		<tag k="name" v="Fugleskjeret;Kapproskjeret" />
		<tag k="place" v="islet" />
		<tag k="ssr:stedsnr" v="139145" />
	</node>
	<node id="-26076" lat="69.1663138906" lon="15.7620361052">
		<tag k="alt_name" v="Klumpholmen" />
		<tag k="name" v="Klunkholmen" />
		<tag k="old_name" v="Klonkholmen;Klompholmen" />
		<tag k="place" v="islet" />
		<tag k="ssr:stedsnr" v="139144" />
	</node>
	<node id="-26073" lat="69.0298805589" lon="15.8657500035">
		<tag k="name" v="Åholmen" />
		<tag k="natural" v="cape" />
		<tag k="ssr:stedsnr" v="139039" />
	</node>
	<node id="-26068" lat="68.9572944406" lon="15.753913881">
		<tag k="alt_name" v="Litlelvbukta" />
		<tag k="name" v="Litlebukta" />
		<tag k="natural" v="bay" />
		<tag k="ssr:stedsnr" v="138409" />
	</node>
	<node id="-26067" lat="68.9719444404" lon="15.7828972147">
		<tag k="name" v="Skallen" />
		<tag k="natural" v="shoal" />
		<tag k="place" v="locality" />
		<tag k="ssr:stedsnr" v="138405" />
	</node>
	<node id="-26987" lat="69.0236722216" lon="15.4936305454">
		<tag k="name" v="Lakeneset" />
		<tag k="natural" v="cape" />
		<tag k="ssr:stedsnr" v="831736" />
	</node>
	<node id="-26063" lat="69.2475944468" lon="16.1375722341">
		<tag k="fixme" v="consider seamark:type=rock or natural=shoal" />
		<tag k="name" v="Skarvesteinen" />
		<tag k="place" v="islet" />
		<tag k="ssr:stedsnr" v="138354" />
	</node>
	<node id="-26061" lat="69.12231111" lon="16.0079611174">
		<tag k="name" v="Hestneset" />
		<tag k="natural" v="cape" />
		<tag k="ssr:stedsnr" v="138284" />
	</node>
	<node id="-26059" lat="68.8316722246" lon="15.6442805558">
		<tag k="name" v="Naustneset" />
		<tag k="natural" v="cape" />
		<tag k="ssr:stedsnr" v="138012" />
	</node>
	<node id="-24822" lat="69.3259750044" lon="16.0644277719">
		<tag k="name" v="Moholmen" />
		<tag k="place" v="islet" />
		<tag k="ssr:stedsnr" v="99567" />
	</node>
	<node id="-24821" lat="69.3265444458" lon="16.1220500107">
		<tag k="name" v="Senholmen" />
		<tag k="place" v="islet" />
		<tag k="ssr:stedsnr" v="99273" />
	</node>
	<node id="-26044" lat="69.125436115" lon="15.6057222178">
		<tag k="fixme" v="consider seamark:type=rock or natural=shoal" />
		<tag k="name" v="Sør-Klubben" />
		<tag k="place" v="islet" />
		<tag k="ssr:stedsnr" v="119011" />
	</node>
	<node id="-26040" lat="69.0018500037" lon="15.4621583401">
		<tag k="name" v="Bukta" />
		<tag k="natural" v="bay" />
		<tag k="ssr:stedsnr" v="118965" />
	</node>
	<node id="-26036" lat="69.1457972263" lon="15.656352779">
		<tag k="fixme" v="consider seamark:type=rock or natural=shoal" />
		<tag k="name" v="Seiskjeret" />
		<tag k="place" v="islet" />
		<tag k="ssr:stedsnr" v="108800" />
	</node>
	<node id="-26032" lat="69.10324722" lon="15.5669722198">
		<tag k="fixme" v="consider seamark:type=rock or natural=shoal" />
		<tag k="name" v="Pengsekken og Kjerringa" />
		<tag k="place" v="islet" />
		<tag k="ssr:stedsnr" v="103781" />
	</node>
	<node id="-26027" lat="69.322022225" lon="16.1457222297">
		<tag k="name" v="Kviga" />
		<tag k="natural" v="shoal" />
		<tag k="place" v="locality" />
		<tag k="ssr:stedsnr" v="103335" />
	</node>
	<node id="-26018" lat="69.180966664" lon="16.0924416657">
		<tag k="name" v="Dragneset" />
		<tag k="natural" v="cape" />
		<tag k="ssr:stedsnr" v="97894" />
	</node>
	<node id="-26015" lat="69.0186083344" lon="15.8347472224">
		<tag k="name" v="Torgerneset" />
		<tag k="natural" v="cape" />
		<tag k="ssr:stedsnr" v="97774" />
	</node>
	<node id="-26008" lat="69.1351833348" lon="15.6525888932">
		<tag k="fixme" v="consider seamark:type=rock or natural=shoal" />
		<tag k="name" v="Åskjeret" />
		<tag k="place" v="islet" />
		<tag k="ssr:stedsnr" v="96503" />
	</node>
	<node id="-25995" lat="69.1402555559" lon="15.6634861217">
		<tag k="name" v="Storbollen" />
		<tag k="place" v="islet" />
		<tag k="ssr:stedsnr" v="95349" />
	</node>
	<node id="-25992" lat="69.2129111148" lon="16.1058111088">
		<tag k="name" v="Breivikleira" />
		<tag k="natural" v="shoal" />
		<tag k="place" v="locality" />
		<tag k="ssr:stedsnr" v="82779" />
	</node>
	<node id="-25991" lat="68.9905999971" lon="15.7990472208">
		<tag k="alt_name" v="Store Flesa" />
		<tag k="name" v="Åseflesa" />
		<tag k="natural" v="shoal" />
		<tag k="place" v="locality" />
		<tag k="ssr:stedsnr" v="79367" />
	</node>
	<node id="-25989" lat="69.2875388874" lon="15.9162805527">
		<tag k="fixme" v="multiple name tags, choose one and add the other to alt_name" />
		<tag k="name" v="Storbåen;Ytre Storbåen" />
		<tag k="natural" v="shoal" />
		<tag k="place" v="locality" />
		<tag k="ssr:stedsnr" v="79149" />
	</node>
	<node id="-25988" lat="69.1670138924" lon="15.7411527767">
		<tag k="alt_name" v="Svartskjeret" />
		<tag k="name" v="Svartskjer" />
		<tag k="natural" v="shoal" />
		<tag k="place" v="locality" />
		<tag k="ssr:stedsnr" v="79136" />
	</node>
	<node id="-25984" lat="68.8711027798" lon="15.4564777904">
		<tag k="name" v="Gavlgrunnen" />
		<tag k="natural" v="shoal" />
		<tag k="place" v="locality" />
		<tag k="ssr:stedsnr" v="78743" />
	</node>
	<node id="-25982" lat="68.8987944435" lon="15.5383416645">
		<tag k="alt_name" v="Falkgardneset" />
		<tag k="name" v="Falkarneset" />
		<tag k="natural" v="cape" />
		<tag k="ssr:stedsnr" v="78712" />
	</node>
	<node id="-25977" lat="68.9680944407" lon="15.6331694321">
		<tag k="alt_name" v="Hammarøya" />
		<tag k="name" v="Hamarøya" />
		<tag k="natural" v="cape" />
		<tag k="ssr:stedsnr" v="78401" />
	</node>
	<node id="-25976" lat="68.9582333301" lon="15.785786105">
		<tag k="name" v="Storelvbukta" />
		<tag k="natural" v="bay" />
		<tag k="ssr:stedsnr" v="78397" />
	</node>
	<node id="-25975" lat="68.9730111074" lon="15.6986083279">
		<tag k="fixme" v="consider seamark:type=rock or natural=shoal" />
		<tag k="name" v="Korsholmen" />
		<tag k="place" v="islet" />
		<tag k="ssr:stedsnr" v="78388" />
	</node>
	<node id="-25967" lat="69.2350194441" lon="15.7906360982">
		<tag k="name" v="Sørflua" />
		<tag k="natural" v="shoal" />
		<tag k="place" v="locality" />
		<tag k="ssr:stedsnr" v="78181" />
	</node>
	<node id="-25951" lat="69.2891222252" lon="16.1684889009">
		<tag k="name" v="Storsanden" />
		<tag k="natural" v="bay" />
		<tag k="ssr:stedsnr" v="58817" />
	</node>
	<node id="-25935" lat="69.2764805514" lon="15.8954611079">
		<tag k="name" v="Middagsbåan" />
		<tag k="natural" v="shoal" />
		<tag k="place" v="locality" />
		<tag k="ssr:stedsnr" v="47067" />
	</node>
	<node id="-25934" lat="69.2817944425" lon="15.8825083265">
		<tag k="name" v="Nordstein" />
		<tag k="natural" v="shoal" />
		<tag k="place" v="locality" />
		<tag k="ssr:stedsnr" v="47061" />
	</node>
	<node id="-25933" lat="69.2805222259" lon="15.8771388996">
		<tag k="name" v="Sørstein" />
		<tag k="natural" v="shoal" />
		<tag k="place" v="locality" />
		<tag k="ssr:stedsnr" v="47059" />
	</node>
	<node id="-25932" lat="69.1837222218" lon="15.7801444387">
		<tag k="name" v="Oklaflua" />
		<tag k="place" v="locality" />
		<tag k="seamark:type" v="rock" />
		<tag k="ssr:stedsnr" v="46153" />
	</node>
	<node id="-24801" lat="69.2624138893" lon="16.173352788">
		<tag k="name" v="Mortneset" />
		<tag k="natural" v="cape" />
		<tag k="ssr:stedsnr" v="79226" />
	</node>
	<node id="-25918" lat="69.2377916716" lon="15.8577444344">
		<tag k="name" v="Sandvika" />
		<tag k="natural" v="bay" />
		<tag k="ssr:stedsnr" v="42284" />
	</node>
	<node id="-25914" lat="69.1387055538" lon="16.0662944471">
		<tag k="name" v="Grunnkjenn" />
		<tag k="natural" v="shoal" />
		<tag k="place" v="locality" />
		<tag k="ssr:stedsnr" v="38766" />
	</node>
	<node id="-25913" lat="69.12395556" lon="16.108302777">
		<tag k="name" v="Klakken" />
		<tag k="natural" v="shoal" />
		<tag k="place" v="locality" />
		<tag k="ssr:stedsnr" v="38757" />
	</node>
	<node id="-25912" lat="69.3110027822" lon="16.0577027663">
		<tag k="name" v="Galaberit" />
		<tag k="natural" v="shoal" />
		<tag k="place" v="locality" />
		<tag k="ssr:stedsnr" v="38180" />
	</node>
	<node id="-25911" lat="68.8781833311" lon="15.5414138798">
		<tag k="name" v="Nordre Fornesgrunnen" />
		<tag k="natural" v="shoal" />
		<tag k="place" v="locality" />
		<tag k="ssr:stedsnr" v="37490" />
	</node>
	<node id="-25906" lat="69.2757138843" lon="15.9355166723">
		<tag k="name" v="Pikstabøen" />
		<tag k="place" v="locality" />
		<tag k="seamark:type" v="rock" />
		<tag k="ssr:stedsnr" v="36528" />
	</node>
	<node id="-25903" lat="68.8337305537" lon="15.6286305581">
		<tag k="name" v="Trollosen" />
		<tag k="natural" v="bay" />
		<tag k="ssr:stedsnr" v="35997" />
	</node>
	<node id="-25901" lat="69.091186108" lon="16.0545916609">
		<tag k="name" v="Skjenkelen" />
		<tag k="natural" v="shoal" />
		<tag k="place" v="locality" />
		<tag k="ssr:stedsnr" v="35930" />
	</node>
	<node id="-25898" lat="69.2246166637" lon="15.8452249992">
		<tag k="name" v="Årklypa" />
		<tag k="natural" v="strait" />
		<tag k="ssr:stedsnr" v="35715" />
	</node>
	<node id="-25893" lat="68.9356611072" lon="15.6278666583">
		<tag k="name" v="Mattiasodden" />
		<tag k="natural" v="cape" />
		<tag k="ssr:stedsnr" v="35547" />
	</node>
	<node id="-25890" lat="69.1450722207" lon="15.66987499">
		<tag k="name" v="Ringholman" />
		<tag k="place" v="islet" />
		<tag k="ssr:stedsnr" v="35490" />
	</node>
	<node id="-25883" lat="69.0599666684" lon="15.9014388854">
		<tag k="name" v="Skipsteinneset" />
		<tag k="natural" v="cape" />
		<tag k="ssr:stedsnr" v="35345" />
	</node>
	<node id="-25880" lat="68.9734055542" lon="15.6195499924">
		<tag k="name" v="Storsteinvika" />
		<tag k="natural" v="bay" />
		<tag k="ssr:stedsnr" v="35106" />
	</node>
	<node id="-25876" lat="68.888966664" lon="15.4336055431">
		<tag k="name" v="Bukta" />
		<tag k="natural" v="bay" />
		<tag k="ssr:stedsnr" v="35046" />
	</node>
	<node id="-25872" lat="69.297633336" lon="16.1648972285">
		<tag k="fixme" v="consider seamark:type=rock or natural=shoal" />
		<tag k="name" v="Trollflesa" />
		<tag k="place" v="islet" />
		<tag k="ssr:stedsnr" v="19136" />
	</node>
	<node id="-24792" lat="69.3016027805" lon="15.8295916689">
		<tag k="name" v="Skallen" />
		<tag k="natural" v="shoal" />
		<tag k="place" v="locality" />
		<tag k="ssr:stedsnr" v="79159" />
	</node>
	<node id="-24791" lat="69.3055888929" lon="15.9694194444">
		<tag k="alt_name" v="Forøya, l" />
		<tag k="name" v="Litle Forøya" />
		<tag k="place" v="islet" />
		<tag k="ssr:stedsnr" v="79158" />
	</node>
	<node id="-25864" lat="68.9744805525" lon="15.6440055632">
		<tag k="name" v="Gammalhamn" />
		<tag k="natural" v="cape" />
		<tag k="ssr:stedsnr" v="18350" />
	</node>
	<node id="-25863" lat="68.9896611132" lon="15.739694434">
		<tag k="alt_name" v="Tennskagan" />
		<tag k="name" v="Tennskagen" />
		<tag k="place" v="islet" />
		<tag k="ssr:stedsnr" v="18344" />
	</node>
	<node id="-25860" lat="69.0153277791" lon="15.837413878">
		<tag k="name" v="Leitsteinen" />
		<tag k="natural" v="shoal" />
		<tag k="place" v="locality" />
		<tag k="ssr:stedsnr" v="18057" />
	</node>
	<node id="-25855" lat="69.0724888893" lon="15.9654666753">
		<tag k="name" v="Nattmålsflua" />
		<tag k="natural" v="shoal" />
		<tag k="place" v="locality" />
		<tag k="ssr:stedsnr" v="18196" />
	</node>
	<node id="-25853" lat="69.0726583339" lon="15.9553305662">
		<tag k="fixme" v="multiple name tags, choose one and add the other to alt_name" />
		<tag k="name" v="Bjelkan;Nordre Bjelkan" />
		<tag k="natural" v="shoal" />
		<tag k="place" v="locality" />
		<tag k="ssr:stedsnr" v="18180" />
	</node>
	<node id="-25852" lat="69.318641664" lon="16.1330861132">
		<tag k="alt_name" v="Vikanberget" />
		<tag k="name" v="Vikaberget" />
		<tag k="natural" v="cape" />
		<tag k="ssr:stedsnr" v="18155" />
	</node>
	<node id="-25850" lat="69.3085194459" lon="16.0631361175">
		<tag k="name" v="Merkesholman" />
		<tag k="place" v="islet" />
		<tag k="ssr:stedsnr" v="18149" />
	</node>
	<node id="-25848" lat="69.1551138876" lon="15.671325011">
		<tag k="name" v="Klakksteinen" />
		<tag k="place" v="islet" />
		<tag k="ssr:stedsnr" v="18142" />
	</node>
	<node id="-25842" lat="69.1116944407" lon="15.9734166686">
		<tag k="alt_name" v="Rettarskardneset" />
		<tag k="name" v="Rettarstadneset" />
		<tag k="natural" v="cape" />
		<tag k="ssr:stedsnr" v="17271" />
	</node>
	<node id="-25832" lat="69.0299333354" lon="15.4990555523">
		<tag k="alt_name" v="Harhaugklubben" />
		<tag k="name" v="Harrhågklubben" />
		<tag k="natural" v="cape" />
		<tag k="ssr:stedsnr" v="17379" />
	</node>
	<node id="-25816" lat="69.1132972263" lon="15.5997833435">
		<tag k="name" v="Slåtterøya" />
		<tag k="place" v="islet" />
		<tag k="ssr:stedsnr" v="969006" />
	</node>
	<node id="-25812" lat="69.0035833369" lon="15.5848111237">
		<tag k="name" v="Gunnelneset" />
		<tag k="natural" v="cape" />
		<tag k="ssr:stedsnr" v="967970" />
	</node>
	<node id="-25805" lat="68.9581916673" lon="15.7743583352">
		<tag k="name" v="Osen" />
		<tag k="natural" v="bay" />
		<tag k="ssr:stedsnr" v="966004" />
	</node>
	<node id="-25804" lat="69.1531472233" lon="15.6549888866">
		<tag k="name" v="Seingen" />
		<tag k="natural" v="shoal" />
		<tag k="place" v="locality" />
		<tag k="ssr:stedsnr" v="957342" />
	</node>
	<node id="-25803" lat="69.1455361067" lon="15.5552333347">
		<tag k="name" v="Vinteregga" />
		<tag k="natural" v="shoal" />
		<tag k="place" v="locality" />
		<tag k="ssr:stedsnr" v="957339" />
	</node>
	<node id="-25802" lat="69.2083499967" lon="15.8518388813">
		<tag k="name" v="Littje Finn" />
		<tag k="place" v="islet" />
		<tag k="ssr:stedsnr" v="957319" />
	</node>
	<node id="-25800" lat="68.9514277802" lon="15.6211527857">
		<tag k="name" v="Øygårdsneset" />
		<tag k="natural" v="cape" />
		<tag k="ssr:stedsnr" v="947928" />
	</node>
	<node id="-25799" lat="68.9651916651" lon="15.7025277753">
		<tag k="name" v="Risøyvika" />
		<tag k="natural" v="bay" />
		<tag k="ssr:stedsnr" v="947925" />
	</node>
	<node id="-25798" lat="68.9917055581" lon="15.6980750088">
		<tag k="name" v="Kjosen" />
		<tag k="natural" v="bay" />
		<tag k="ssr:stedsnr" v="947753" />
	</node>
	<node id="-25791" lat="68.9562555567" lon="15.4380472301">
		<tag k="fixme" v="consider seamark:type=rock or natural=shoal" />
		<tag k="name" v="Lasteinen" />
		<tag k="place" v="islet" />
		<tag k="ssr:stedsnr" v="928603" />
	</node>
	<node id="-25787" lat="69.0316472256" lon="15.4931333325">
		<tag k="fixme" v="consider seamark:type=rock or natural=shoal" />
		<tag k="name" v="Kråka" />
		<tag k="place" v="islet" />
		<tag k="ssr:stedsnr" v="928319" />
	</node>
	<node id="-25772" lat="69.3254388869" lon="16.0149305567">
		<tag k="name" v="Stortaren" />
		<tag k="natural" v="shoal" />
		<tag k="place" v="locality" />
		<tag k="ssr:stedsnr" v="888154" />
	</node>
	<node id="-25762" lat="69.1758888888" lon="16.1066583401">
		<tag k="name" v="Båen" />
		<tag k="natural" v="shoal" />
		<tag k="old_name" v="Boen" />
		<tag k="place" v="locality" />
		<tag k="ssr:stedsnr" v="949573" />
	</node>
	<node id="-25761" lat="69.3275472227" lon="16.129211099">
		<tag k="fixme" v="consider seamark:type=rock or natural=shoal" />
		<tag k="name" v="Kapproskjeret" />
		<tag k="place" v="islet" />
		<tag k="ssr:stedsnr" v="949243" />
	</node>
	<node id="-25760" lat="69.2840777773" lon="15.9732694337">
		<tag k="fixme" v="consider seamark:type=rock or natural=shoal" />
		<tag k="name" v="Sandskjeret" />
		<tag k="place" v="islet" />
		<tag k="ssr:stedsnr" v="948592" />
	</node>
	<node id="-25755" lat="69.1646583298" lon="16.0956055519">
		<tag k="name" v="Sandvika" />
		<tag k="natural" v="bay" />
		<tag k="ssr:stedsnr" v="946876" />
	</node>
	<node id="-25751" lat="69.1316111074" lon="15.6345222281">
		<tag k="fixme" v="consider seamark:type=rock or natural=shoal" />
		<tag k="name" v="Kjerkeskjeret" />
		<tag k="place" v="islet" />
		<tag k="ssr:stedsnr" v="946448" />
	</node>
	<node id="-25742" lat="68.9621583352" lon="15.6877055521">
		<tag k="name" v="Småholman" />
		<tag k="place" v="islet" />
		<tag k="ssr:stedsnr" v="946042" />
	</node>
	<node id="-25741" lat="68.8835388857" lon="15.4372555558">
		<tag k="name" v="Berget" />
		<tag k="natural" v="cape" />
		<tag k="ssr:stedsnr" v="946028" />
	</node>
	<node id="-25740" lat="68.8300250008" lon="15.6522722289">
		<tag k="name" v="Stokkholmen" />
		<tag k="place" v="islet" />
		<tag k="ssr:stedsnr" v="945996" />
	</node>
	<node id="-25728" lat="69.3366500001" lon="16.1753750115">
		<tag k="name" v="Kjerkeflua" />
		<tag k="natural" v="shoal" />
		<tag k="place" v="locality" />
		<tag k="ssr:stedsnr" v="828523" />
	</node>
	<node id="-25719" lat="68.9647222205" lon="15.7205138822">
		<tag k="name" v="Valen" />
		<tag k="natural" v="bay" />
		<tag k="ssr:stedsnr" v="823063" />
	</node>
	<node id="-25718" lat="69.3765250024" lon="16.0397138913">
		<tag k="alt_name" v="Skolten, nordre" />
		<tag k="name" v="Nordre Skolten" />
		<tag k="natural" v="shoal" />
		<tag k="place" v="locality" />
		<tag k="ssr:stedsnr" v="929165" />
	</node>
	<node id="-25717" lat="69.3056944441" lon="15.9520638914">
		<tag k="name" v="Forøybåan" />
		<tag k="natural" v="shoal" />
		<tag k="place" v="locality" />
		<tag k="ssr:stedsnr" v="929144" />
	</node>
	<node id="-25715" lat="69.2863777794" lon="15.9502722304">
		<tag k="alt_name" v="Midnattskjeran" />
		<tag k="fixme" v="consider seamark:type=rock or natural=shoal" />
		<tag k="name" v="Midnattskjæran" />
		<tag k="place" v="islet" />
		<tag k="ssr:stedsnr" v="929128" />
	</node>
	<node id="-25706" lat="68.9757444429" lon="15.4264972152">
		<tag k="name" v="Nordklubben" />
		<tag k="natural" v="cape" />
		<tag k="ssr:stedsnr" v="928578" />
	</node>
	<node id="-25705" lat="68.9688277803" lon="15.4382972204">
		<tag k="name" v="Sørklubben" />
		<tag k="natural" v="cape" />
		<tag k="ssr:stedsnr" v="928576" />
	</node>
	<node id="-25703" lat="68.9592472239" lon="15.6733611202">
		<tag k="name" v="Ørnkulan" />
		<tag k="natural" v="cape" />
		<tag k="ssr:stedsnr" v="928376" />
	</node>
	<node id="-25702" lat="68.9815277748" lon="15.6309555657">
		<tag k="name" v="Finnbukta" />
		<tag k="natural" v="bay" />
		<tag k="ssr:stedsnr" v="928360" />
	</node>
	<node id="-25691" lat="69.2035555588" lon="15.7554833328">
		<tag k="name" v="Utsynningsbåan" />
		<tag k="natural" v="shoal" />
		<tag k="place" v="locality" />
		<tag k="ssr:stedsnr" v="928151" />
	</node>
	<node id="-25687" lat="69.2249888852" lon="15.7889861024">
		<tag k="alt_name" v="Skjærgarden" />
		<tag k="name" v="Skjærgården" />
		<tag k="natural" v="shoal" />
		<tag k="place" v="locality" />
		<tag k="ssr:stedsnr" v="928139" />
	</node>
	<node id="-25685" lat="69.1467527794" lon="15.7286472302">
		<tag k="name" v="Lambertsøya" />
		<tag k="place" v="island" />
		<tag k="ssr:stedsnr" v="928128" />
	</node>
	<node id="-25677" lat="69.0535194432" lon="15.9368361185">
		<tag k="name" v="Hundholmbåen" />
		<tag k="natural" v="shoal" />
		<tag k="place" v="locality" />
		<tag k="ssr:stedsnr" v="928038" />
	</node>
	<node id="-25674" lat="68.8833222185" lon="15.5055111195">
		<tag k="alt_name" v="Skjåneset" />
		<tag k="name" v="Skjoldeneset" />
		<tag k="natural" v="cape" />
		<tag k="ssr:stedsnr" v="806710" />
	</node>
	<node id="-25672" lat="69.1313611095" lon="15.6619194372">
		<tag k="name" v="Åvika" />
		<tag k="natural" v="bay" />
		<tag k="ssr:stedsnr" v="806238" />
	</node>
	<node id="-25655" lat="69.1277416647" lon="15.6306111122">
		<tag k="name" v="Oterstokkan" />
		<tag k="natural" v="bay" />
		<tag k="ssr:stedsnr" v="787018" />
	</node>
	<node id="-25654" lat="69.124641663" lon="15.6173944478">
		<tag k="name" v="Storvika" />
		<tag k="natural" v="bay" />
		<tag k="ssr:stedsnr" v="787015" />
	</node>
	<node id="-25652" lat="69.3275500022" lon="16.1383750065">
		<tag k="name" v="Vester-Steingrunnen" />
		<tag k="natural" v="shoal" />
		<tag k="place" v="locality" />
		<tag k="ssr:stedsnr" v="786811" />
	</node>
	<node id="-25650" lat="69.1356805593" lon="15.6399472287">
		<tag k="name" v="Hella" />
		<tag k="natural" v="shoal" />
		<tag k="place" v="locality" />
		<tag k="ssr:stedsnr" v="775316" />
	</node>
	<node id="-25648" lat="69.2990361157" lon="15.957513888">
		<tag k="name" v="Tvillingan" />
		<tag k="natural" v="shoal" />
		<tag k="place" v="locality" />
		<tag k="ssr:stedsnr" v="766510" />
	</node>
	<node id="-25645" lat="69.1877222265" lon="16.0847861088">
		<tag k="name" v="Melbekkneset" />
		<tag k="natural" v="cape" />
		<tag k="ssr:stedsnr" v="764917" />
	</node>
	<node id="-25642" lat="69.2009611157" lon="15.8554111007">
		<tag k="name" v="Skøytholmen" />
		<tag k="natural" v="cape" />
		<tag k="ssr:stedsnr" v="764906" />
	</node>
	<node id="-25620" lat="69.2904777815" lon="15.9915250091">
		<tag k="name" v="Ormetunga" />
		<tag k="natural" v="cape" />
		<tag k="ssr:stedsnr" v="747124" />
	</node>
	<node id="-25619" lat="69.1053583332" lon="15.5659972273">
		<tag k="name" v="Børhella" />
		<tag k="natural" v="cape" />
		<tag k="ssr:stedsnr" v="746254" />
	</node>
	<node id="-25617" lat="69.1575194453" lon="15.6593833365">
		<tag k="fixme" v="consider seamark:type=rock or natural=shoal" />
		<tag k="name" v="Langslog" />
		<tag k="place" v="islet" />
		<tag k="ssr:stedsnr" v="906527" />
	</node>
	<node id="-25616" lat="69.3284000022" lon="15.7911611096">
		<tag k="name" v="Tullen" />
		<tag k="natural" v="shoal" />
		<tag k="place" v="locality" />
		<tag k="ssr:stedsnr" v="746169" />
	</node>
	<node id="-25615" lat="69.3247722248" lon="16.1168499879">
		<tag k="name" v="Flambergsodden" />
		<tag k="natural" v="cape" />
		<tag k="ssr:stedsnr" v="746168" />
	</node>
	<node id="-25614" lat="69.327508331" lon="16.0665694419">
		<tag k="name" v="Vomma" />
		<tag k="place" v="islet" />
		<tag k="ssr:stedsnr" v="746166" />
	</node>
	<node id="-25613" lat="69.3203361085" lon="16.1307638924">
		<tag k="alt_name" v="Vikanbukta" />
		<tag k="name" v="Vikabukta" />
		<tag k="natural" v="bay" />
		<tag k="ssr:stedsnr" v="746157" />
	</node>
	<node id="-25612" lat="69.2980888928" lon="15.9970694464">
		<tag k="alt_name" v="Klævodden" />
		<tag k="name" v="Kleivodden" />
		<tag k="natural" v="cape" />
		<tag k="ssr:stedsnr" v="746153" />
	</node>
	<node id="-25609" lat="68.8959527791" lon="15.6040194502">
		<tag k="name" v="Hestneset" />
		<tag k="natural" v="cape" />
		<tag k="ssr:stedsnr" v="745754" />
	</node>
	<node id="-25608" lat="69.0455499987" lon="15.5044472146">
		<tag k="alt_name" v="Bøøyra" />
		<tag k="fixme" v="consider seamark:type=rock or natural=shoal" />
		<tag k="name" v="Bø-øyra" />
		<tag k="place" v="islet" />
		<tag k="ssr:stedsnr" v="745376" />
	</node>
	<node id="-25607" lat="69.0016861105" lon="15.5966888884">
		<tag k="name" v="Gunnarneset" />
		<tag k="natural" v="cape" />
		<tag k="ssr:stedsnr" v="745356" />
	</node>
	<node id="-25606" lat="69.1291055581" lon="16.0720416731">
		<tag k="name" v="Hammaren" />
		<tag k="natural" v="shoal" />
		<tag k="place" v="locality" />
		<tag k="ssr:stedsnr" v="745260" />
	</node>
	<node id="-25603" lat="68.8231333369" lon="15.6510027685">
		<tag k="name" v="Langneset" />
		<tag k="natural" v="cape" />
		<tag k="ssr:stedsnr" v="905594" />
	</node>
	<node id="-25598" lat="69.1261583357" lon="15.6292833449">
		<tag k="name" v="Leirvika" />
		<tag k="natural" v="bay" />
		<tag k="ssr:stedsnr" v="726017" />
	</node>
	<node id="-25591" lat="69.1392222233" lon="15.6711305502">
		<tag k="fixme" v="consider seamark:type=rock or natural=shoal" />
		<tag k="name" v="Tenndraget" />
		<tag k="place" v="islet" />
		<tag k="ssr:stedsnr" v="897798" />
	</node>
	<node id="-25589" lat="69.1402222175" lon="15.6315250101">
		<tag k="name" v="Bjerkedalsbåen" />
		<tag k="natural" v="shoal" />
		<tag k="place" v="locality" />
		<tag k="ssr:stedsnr" v="897337" />
	</node>
	<node id="-25587" lat="69.257130559" lon="15.8647333416">
		<tag k="name" v="Oteren" />
		<tag k="natural" v="shoal" />
		<tag k="place" v="locality" />
		<tag k="ssr:stedsnr" v="896388" />
	</node>
	<node id="-25581" lat="69.0707305537" lon="15.5440083209">
		<tag k="name" v="Grøpperten" />
		<tag k="natural" v="cape" />
		<tag k="ssr:stedsnr" v="892795" />
	</node>
	<node id="-25580" lat="69.0816583306" lon="15.5697027673">
		<tag k="name" v="Hamnneset" />
		<tag k="natural" v="cape" />
		<tag k="ssr:stedsnr" v="892780" />
	</node>
	<node id="-25575" lat="69.326377778" lon="16.1407499888">
		<tag k="fixme" v="consider seamark:type=rock or natural=shoal" />
		<tag k="name" v="Leiskjeret" />
		<tag k="place" v="islet" />
		<tag k="ssr:stedsnr" v="892324" />
	</node>
	<node id="-25574" lat="69.3292694426" lon="16.1457527698">
		<tag k="name" v="Ytre Steingrunnan" />
		<tag k="natural" v="shoal" />
		<tag k="place" v="locality" />
		<tag k="ssr:stedsnr" v="892320" />
	</node>
	<node id="-25573" lat="69.3238722219" lon="16.1477750052">
		<tag k="name" v="Kuten" />
		<tag k="natural" v="shoal" />
		<tag k="place" v="locality" />
		<tag k="ssr:stedsnr" v="892306" />
	</node>
	<node id="-25567" lat="68.9334111092" lon="15.4413833268">
		<tag k="name" v="Slettet" />
		<tag k="natural" v="bay" />
		<tag k="ssr:stedsnr" v="890651" />
	</node>
	<node id="-25566" lat="68.9857583352" lon="15.4249638817">
		<tag k="fixme" v="consider seamark:type=rock or natural=shoal" />
		<tag k="name" v="Fuggelskjeret" />
		<tag k="place" v="islet" />
		<tag k="ssr:stedsnr" v="890632" />
	</node>
	<node id="-25562" lat="69.2812638868" lon="15.969650004">
		<tag k="name" v="Stuflua" />
		<tag k="natural" v="shoal" />
		<tag k="place" v="locality" />
		<tag k="ssr:stedsnr" v="888474" />
	</node>
	<node id="-25561" lat="69.2929361119" lon="15.9852249944">
		<tag k="name" v="Båtløpet" />
		<tag k="natural" v="strait" />
		<tag k="ssr:stedsnr" v="888468" />
	</node>
	<node id="-25560" lat="69.2905333323" lon="15.9803277869">
		<tag k="name" v="Søsterbåen" />
		<tag k="natural" v="shoal" />
		<tag k="place" v="locality" />
		<tag k="ssr:stedsnr" v="888467" />
	</node>
	<node id="-25559" lat="69.3294861118" lon="16.1249444383">
		<tag k="fixme" v="consider seamark:type=rock or natural=shoal" />
		<tag k="name" v="Skarbarden" />
		<tag k="place" v="islet" />
		<tag k="ssr:stedsnr" v="888234" />
	</node>
	<node id="-25558" lat="69.3093055597" lon="16.044558331">
		<tag k="name" v="Trangbåan" />
		<tag k="natural" v="shoal" />
		<tag k="place" v="locality" />
		<tag k="ssr:stedsnr" v="888135" />
	</node>
	<node id="-25553" lat="69.1722277813" lon="16.1024138814">
		<tag k="name" v="Varden" />
		<tag k="natural" v="cape" />
		<tag k="ssr:stedsnr" v="886881" />
	</node>
	<node id="-24738" lat="69.1585805548" lon="16.0977694311">
		<tag k="name" v="Skaftebåen" />
		<tag k="natural" v="shoal" />
		<tag k="place" v="locality" />
		<tag k="ssr:stedsnr" v="229792" />
	</node>
	<node id="-24992" lat="69.2721000031" lon="15.8682666613">
		<tag k="name" v="Kalven" />
		<tag k="natural" v="cape" />
		<tag k="ssr:stedsnr" v="200119" />
	</node>
	<node id="-25542" lat="69.1370749999" lon="15.667113898">
		<tag k="name" v="Jektvika" />
		<tag k="natural" v="bay" />
		<tag k="ssr:stedsnr" v="885485" />
	</node>
	<node id="-25527" lat="68.8651416703" lon="15.5056222295">
		<tag k="name" v="Svensgrunnen" />
		<tag k="natural" v="shoal" />
		<tag k="place" v="locality" />
		<tag k="ssr:stedsnr" v="685719" />
	</node>
	<node id="-25526" lat="68.8720944448" lon="15.4850416665">
		<tag k="name" v="Gavlneset" />
		<tag k="natural" v="cape" />
		<tag k="ssr:stedsnr" v="685710" />
	</node>
	<node id="-25524" lat="69.2604999993" lon="15.8429527655">
		<tag k="alt_name" v="Stavskjeret, yt" />
		<tag k="fixme" v="consider seamark:type=rock or natural=shoal" />
		<tag k="name" v="Ytre Stavskjeret" />
		<tag k="place" v="islet" />
		<tag k="ssr:stedsnr" v="685229" />
	</node>
	<node id="-25509" lat="69.2457305575" lon="16.1316333414">
		<tag k="fixme" v="consider seamark:type=rock or natural=shoal" />
		<tag k="name" v="Flua" />
		<tag k="place" v="islet" />
		<tag k="ssr:stedsnr" v="645864" />
	</node>
	<node id="-25508" lat="69.3302055548" lon="16.0664360995">
		<tag k="name" v="Kvalbaken" />
		<tag k="natural" v="shoal" />
		<tag k="place" v="locality" />
		<tag k="ssr:stedsnr" v="645515" />
	</node>
	<node id="-25507" lat="69.3235083351" lon="16.079127783">
		<tag k="fixme" v="consider seamark:type=rock or natural=shoal" />
		<tag k="name" v="Seingan" />
		<tag k="place" v="islet" />
		<tag k="ssr:stedsnr" v="645513" />
	</node>
	<node id="-25482" lat="69.2118166689" lon="16.1113611195">
		<tag k="fixme" v="consider seamark:type=rock or natural=shoal" />
		<tag k="name" v="Molløyra" />
		<tag k="place" v="islet" />
		<tag k="ssr:stedsnr" v="603818" />
	</node>
	<node id="-25481" lat="69.332377775" lon="16.1048833378">
		<tag k="name" v="Indre Senholmbåan" />
		<tag k="natural" v="shoal" />
		<tag k="place" v="locality" />
		<tag k="ssr:stedsnr" v="714869" />
	</node>
	<node id="-25480" lat="69.2193138897" lon="15.796802788">
		<tag k="name" v="Skjærgårdsrevan" />
		<tag k="natural" v="shoal" />
		<tag k="place" v="locality" />
		<tag k="ssr:stedsnr" v="714290" />
	</node>
	<node id="-25475" lat="69.3311416701" lon="16.1525277822">
		<tag k="name" v="Stolpan" />
		<tag k="natural" v="shoal" />
		<tag k="place" v="locality" />
		<tag k="ssr:stedsnr" v="710353" />
	</node>
	<node id="-25474" lat="69.0835388897" lon="15.5316250041">
		<tag k="name" v="Gårdsflua" />
		<tag k="natural" v="shoal" />
		<tag k="place" v="locality" />
		<tag k="ssr:stedsnr" v="583883" />
	</node>
	<node id="-25473" lat="69.1059638858" lon="15.5394805529">
		<tag k="name" v="Isakflua" />
		<tag k="natural" v="shoal" />
		<tag k="place" v="locality" />
		<tag k="ssr:stedsnr" v="583874" />
	</node>
	<node id="-25469" lat="69.10165278" lon="15.5634916616">
		<tag k="name" v="Kjelen" />
		<tag k="natural" v="bay" />
		<tag k="ssr:stedsnr" v="709775" />
	</node>
	<node id="-25467" lat="69.0378972185" lon="15.5086777681">
		<tag k="name" v="Kobbedraget" />
		<tag k="natural" v="cape" />
		<tag k="ssr:stedsnr" v="709770" />
	</node>
	<node id="-25460" lat="69.2270777772" lon="15.8607083449">
		<tag k="name" v="Baukvika" />
		<tag k="natural" v="bay" />
		<tag k="ssr:stedsnr" v="581665" />
	</node>
	<node id="-25451" lat="68.9653999995" lon="15.7342666609">
		<tag k="fixme" v="consider seamark:type=rock or natural=shoal" />
		<tag k="name" v="Hjellberget" />
		<tag k="place" v="islet" />
		<tag k="ssr:stedsnr" v="581062" />
	</node>
	<node id="-25450" lat="68.9624694447" lon="15.7062611212">
		<tag k="name" v="Littje-Breineset" />
		<tag k="natural" v="cape" />
		<tag k="ssr:stedsnr" v="580053" />
	</node>
	<node id="-25444" lat="68.9640138908" lon="15.4407972174">
		<tag k="name" v="Melkeneset" />
		<tag k="natural" v="cape" />
		<tag k="ssr:stedsnr" v="707623" />
	</node>
	<node id="-25436" lat="69.267597223" lon="16.1747222127">
		<tag k="fixme" v="consider seamark:type=rock or natural=shoal" />
		<tag k="name" v="Tegnnesskjeret" />
		<tag k="place" v="islet" />
		<tag k="ssr:stedsnr" v="704887" />
	</node>
	<node id="-25434" lat="68.9788750009" lon="15.6002694329">
		<tag k="name" v="Breineset" />
		<tag k="natural" v="cape" />
		<tag k="ssr:stedsnr" v="704833" />
	</node>
	<node id="-25431" lat="69.2753027759" lon="15.9562638923">
		<tag k="fixme" v="consider seamark:type=rock or natural=shoal" />
		<tag k="name" v="Fastskjeret" />
		<tag k="place" v="islet" />
		<tag k="ssr:stedsnr" v="704553" />
	</node>
	<node id="-25430" lat="69.2084027767" lon="15.8430805553">
		<tag k="name" v="Storfinnen" />
		<tag k="place" v="islet" />
		<tag k="ssr:stedsnr" v="703984" />
	</node>
	<node id="-25426" lat="69.2442083336" lon="16.1206055643">
		<tag k="name" v="Stranda" />
		<tag k="natural" v="beach" />
		<tag k="place" v="locality" />
		<tag k="ssr:stedsnr" v="703920" />
	</node>
	<node id="-25416" lat="69.0469611067" lon="15.8808083397">
		<tag k="name" v="Øra" />
		<tag k="natural" v="cape" />
		<tag k="ssr:stedsnr" v="703337" />
	</node>
	<node id="-25057" lat="68.9021833372" lon="15.6105111014">
		<tag k="name" v="Holmen" />
		<tag k="natural" v="cape" />
		<tag k="ssr:stedsnr" v="442747" />
	</node>
	<node id="-24715" lat="68.8238944473" lon="15.6455416735">
		<tag k="fixme" v="consider seamark:type=rock or natural=shoal" />
		<tag k="name" v="Øra" />
		<tag k="place" v="islet" />
		<tag k="ssr:stedsnr" v="18001" />
	</node>
	<node id="-25406" lat="69.1398083305" lon="15.6906999875">
		<tag k="name" v="Langholmen" />
		<tag k="place" v="islet" />
		<tag k="ssr:stedsnr" v="703035" />
	</node>
	<node id="-25405" lat="68.9750888848" lon="15.7013694512">
		<tag k="name" v="Risøyrenna" />
		<tag k="place" v="locality" />
		<tag k="ssr:stedsnr" v="703030" />
	</node>
	<node id="-25403" lat="68.9827361125" lon="15.6263083425">
		<tag k="name" v="Finneshågen" />
		<tag k="natural" v="cape" />
		<tag k="ssr:stedsnr" v="702502" />
	</node>
	<node id="-25397" lat="68.9632083357" lon="15.7120277806">
		<tag k="name" v="Hestholmen" />
		<tag k="natural" v="cape" />
		<tag k="ssr:stedsnr" v="702067" />
	</node>
	<node id="-25396" lat="69.1267805515" lon="15.6090555607">
		<tag k="fixme" v="consider seamark:type=rock or natural=shoal" />
		<tag k="name" v="Nord-Klubben" />
		<tag k="place" v="islet" />
		<tag k="ssr:stedsnr" v="544022" />
	</node>
	<node id="-25390" lat="68.9607638859" lon="15.6537555484">
		<tag k="alt_name" v="Risøya, litle;Litle Risøya" />
		<tag k="name" v="Littje Risøya" />
		<tag k="place" v="islet" />
		<tag k="ssr:stedsnr" v="527406" />
	</node>
	<node id="-25389" lat="68.9705388866" lon="15.4387555488">
		<tag k="name" v="Sørkeila" />
		<tag k="natural" v="cape" />
		<tag k="ssr:stedsnr" v="525610" />
	</node>
	<node id="-25383" lat="69.2862861115" lon="15.9503638844">
		<tag k="fixme" v="consider seamark:type=rock or natural=shoal" />
		<tag k="name" v="Svartbarden" />
		<tag k="place" v="islet" />
		<tag k="ssr:stedsnr" v="524435" />
	</node>
	<node id="-25381" lat="69.2214611089" lon="15.8467444535">
		<tag k="name" v="Klubbvika" />
		<tag k="natural" v="bay" />
		<tag k="ssr:stedsnr" v="521719" />
	</node>
	<node id="-25380" lat="69.2224000028" lon="15.8473861106">
		<tag k="name" v="Klubban" />
		<tag k="natural" v="cape" />
		<tag k="ssr:stedsnr" v="521718" />
	</node>
	<node id="-25378" lat="69.3564166652" lon="16.1834583407">
		<tag k="name" v="Glimmen" />
		<tag k="natural" v="shoal" />
		<tag k="place" v="locality" />
		<tag k="ssr:stedsnr" v="686163" />
	</node>
	<node id="-25377" lat="69.3488222253" lon="16.2039833354">
		<tag k="name" v="Skallen" />
		<tag k="natural" v="shoal" />
		<tag k="place" v="locality" />
		<tag k="ssr:stedsnr" v="686160" />
	</node>
	<node id="-25375" lat="69.3103416647" lon="16.077711116">
		<tag k="name" v="Merket" />
		<tag k="natural" v="cape" />
		<tag k="ssr:stedsnr" v="686137" />
	</node>
	<node id="-25373" lat="69.1619194417" lon="15.6928333361">
		<tag k="fixme" v="multiple name tags, choose one and add the other to alt_name" />
		<tag k="name" v="Indre Revbåan;Revbåan" />
		<tag k="natural" v="shoal" />
		<tag k="place" v="locality" />
		<tag k="ssr:stedsnr" v="686105" />
	</node>
	<node id="-25370" lat="68.887352777" lon="15.61634445">
		<tag k="bay" v="fjord" />
		<tag k="name" v="Buksnesfjorden" />
		<tag k="natural" v="bay" />
		<tag k="ssr:stedsnr" v="685675" />
	</node>
	<node id="-25367" lat="68.9840499962" lon="15.6300444356">
		<tag k="name" v="Finneset" />
		<tag k="natural" v="cape" />
		<tag k="ssr:stedsnr" v="685358" />
	</node>
	<node id="-25360" lat="69.2440694476" lon="15.8287055589">
		<tag k="name" v="Olsgrunnan" />
		<tag k="natural" v="shoal" />
		<tag k="place" v="locality" />
		<tag k="ssr:stedsnr" v="685307" />
	</node>
	<node id="-25358" lat="68.9625583371" lon="15.7001361194">
		<tag k="alt_name" v="Breidneset" />
		<tag k="name" v="Breineset" />
		<tag k="natural" v="cape" />
		<tag k="ssr:stedsnr" v="685301" />
	</node>
	<node id="-25350" lat="69.1615694473" lon="15.7365277695">
		<tag k="name" v="Skogvollrevet" />
		<tag k="natural" v="shoal" />
		<tag k="place" v="locality" />
		<tag k="ssr:stedsnr" v="685151" />
	</node>
	<node id="-25348" lat="69.0114888875" lon="15.803369441">
		<tag k="name" v="Nordholmen" />
		<tag k="place" v="islet" />
		<tag k="ssr:stedsnr" v="685059" />
	</node>
	<node id="-25340" lat="69.2771277808" lon="15.8741388966">
		<tag k="fixme" v="consider seamark:type=rock or natural=shoal" />
		<tag k="name" v="Øyskjeran" />
		<tag k="place" v="islet" />
		<tag k="ssr:stedsnr" v="685122" />
	</node>
	<node id="-25338" lat="69.1721888895" lon="15.683763889">
		<tag k="name" v="Kinnfjellbåen" />
		<tag k="natural" v="shoal" />
		<tag k="place" v="locality" />
		<tag k="ssr:stedsnr" v="685115" />
	</node>
	<node id="-25337" lat="69.338766667" lon="16.175530554">
		<tag k="fixme" v="consider seamark:type=rock or natural=shoal" />
		<tag k="name" v="Flesan" />
		<tag k="place" v="islet" />
		<tag k="ssr:stedsnr" v="504144" />
	</node>
	<node id="-25336" lat="69.3221111075" lon="16.0506833291">
		<tag k="fixme" v="consider seamark:type=rock or natural=shoal" />
		<tag k="name" v="Drenkan" />
		<tag k="place" v="islet" />
		<tag k="ssr:stedsnr" v="504135" />
	</node>
	<node id="-25335" lat="69.3128250042" lon="16.0976972249">
		<tag k="name" v="Kjerringneset" />
		<tag k="natural" v="cape" />
		<tag k="ssr:stedsnr" v="504124" />
	</node>
	<node id="-25334" lat="69.2925388892" lon="15.9950666726">
		<tag k="alt_name" v="Klæva" />
		<tag k="name" v="Kleiva" />
		<tag k="natural" v="cape" />
		<tag k="ssr:stedsnr" v="504119" />
	</node>
	<node id="-25333" lat="69.2987972256" lon="16.0029333215">
		<tag k="fixme" v="multiple name tags, choose one and add the other to alt_name" />
		<tag k="name" v="Spannkallen;Sponna" />
		<tag k="natural" v="cape" />
		<tag k="ssr:stedsnr" v="504118" />
	</node>
	<node id="-25332" lat="69.2825833296" lon="15.8752166559">
		<tag k="name" v="Tåga" />
		<tag k="natural" v="shoal" />
		<tag k="place" v="locality" />
		<tag k="ssr:stedsnr" v="504103" />
	</node>
	<node id="-25328" lat="69.1489444419" lon="15.6825638973">
		<tag k="alt_name" v="Eggholmen" />
		<tag k="name" v="Eggøya" />
		<tag k="place" v="island" />
		<tag k="ssr:stedsnr" v="503132" />
	</node>
	<node id="-25324" lat="68.8221611146" lon="15.6588611063">
		<tag k="name" v="Langnesøyra" />
		<tag k="natural" v="cape" />
		<tag k="ssr:stedsnr" v="503113" />
	</node>
	<node id="-25317" lat="69.012050002" lon="15.4575194522">
		<tag k="name" v="Littje-Refsneset" />
		<tag k="natural" v="cape" />
		<tag k="ssr:stedsnr" v="482962" />
	</node>
	<node id="-25311" lat="69.0717944401" lon="15.5474722188">
		<tag k="name" v="Lanessanden" />
		<tag k="natural" v="beach" />
		<tag k="place" v="locality" />
		<tag k="ssr:stedsnr" v="467821" />
	</node>
	<node id="-25300" lat="69.2140388902" lon="16.1001888818">
		<tag k="name" v="Breivika" />
		<tag k="natural" v="bay" />
		<tag k="ssr:stedsnr" v="463618" />
	</node>
	<node id="-25280" lat="69.2929611146" lon="15.9690083322">
		<tag k="name" v="Langslog" />
		<tag k="place" v="islet" />
		<tag k="ssr:stedsnr" v="443143" />
	</node>
	<node id="-24692" lat="69.1734166658" lon="16.1867888895">
		<tag k="name" v="Seten" />
		<tag k="natural" v="shoal" />
		<tag k="place" v="locality" />
		<tag k="ssr:stedsnr" v="221692" />
	</node>
	<node id="-25032" lat="69.0918583331" lon="15.9406694472">
		<tag k="name" v="Rognanbukta" />
		<tag k="natural" v="bay" />
		<tag k="ssr:stedsnr" v="442232" />
	</node>
	<node id="-25262" lat="69.3141722232" lon="16.1322416776">
		<tag k="fixme" v="multiple name tags, choose one and add the other to alt_name" />
		<tag k="name" v="Sjægholmen;Skjeggholmen" />
		<tag k="place" v="islet" />
		<tag k="ssr:stedsnr" v="406358" />
	</node>
	<node id="-25254" lat="68.8633777753" lon="15.5522944442">
		<tag k="name" v="Fornesøya" />
		<tag k="place" v="locality" />
		<tag k="ssr:stedsnr" v="508104" />
	</node>
	<node id="-25253" lat="69.2212527824" lon="15.8526972188">
		<tag k="name" v="Nordsanden" />
		<tag k="natural" v="beach" />
		<tag k="place" v="locality" />
		<tag k="ssr:stedsnr" v="399953" />
	</node>
	<node id="-25249" lat="68.9151805529" lon="15.4263472132">
		<tag k="fixme" v="consider seamark:type=rock or natural=shoal" />
		<tag k="name" v="Dalskjeret" />
		<tag k="place" v="islet" />
		<tag k="ssr:stedsnr" v="503635" />
	</node>
	<node id="-24688" lat="69.3335055536" lon="16.1303333322">
		<tag k="fixme" v="consider seamark:type=rock or natural=shoal" />
		<tag k="name" v="Store Erten" />
		<tag k="place" v="islet" />
		<tag k="ssr:stedsnr" v="221215" />
	</node>
	<node id="-25245" lat="68.9904277778" lon="15.4404250108">
		<tag k="alt_name" v="Litleneset" />
		<tag k="name" v="Littjeneset" />
		<tag k="natural" v="cape" />
		<tag k="ssr:stedsnr" v="503540" />
	</node>
	<node id="-25028" lat="69.238219448" lon="15.8363499911">
		<tag k="alt_name" v="Belgan" />
		<tag k="name" v="Belgsholman" />
		<tag k="place" v="islet" />
		<tag k="ssr:stedsnr" v="442195" />
	</node>
	<node id="-25235" lat="69.2650638884" lon="15.9058750103">
		<tag k="name" v="Laupsvika" />
		<tag k="natural" v="bay" />
		<tag k="ssr:stedsnr" v="503213" />
	</node>
	<node id="-25234" lat="69.2656222253" lon="16.1805499971">
		<tag k="alt_name" v="Bufluan" />
		<tag k="name" v="Buflua" />
		<tag k="natural" v="shoal" />
		<tag k="place" v="locality" />
		<tag k="ssr:stedsnr" v="503212" />
	</node>
	<node id="-25026" lat="69.232941667" lon="15.7733694335">
		<tag k="name" v="Tusseflua" />
		<tag k="natural" v="shoal" />
		<tag k="place" v="locality" />
		<tag k="ssr:stedsnr" v="442190" />
	</node>
	<node id="-25225" lat="69.232341663" lon="15.8571499957">
		<tag k="name" v="Høyvika" />
		<tag k="natural" v="bay" />
		<tag k="ssr:stedsnr" v="503155" />
	</node>
	<node id="-25025" lat="69.2322111087" lon="16.1142500047">
		<tag k="alt_name" v="Skilneset" />
		<tag k="name" v="Skjellneset" />
		<tag k="natural" v="cape" />
		<tag k="ssr:stedsnr" v="442184" />
	</node>
	<node id="-25208" lat="69.3184027805" lon="16.107697229">
		<tag k="name" v="Prestholmen" />
		<tag k="place" v="islet" />
		<tag k="ssr:stedsnr" v="361808" />
	</node>
	<node id="-24708" lat="69.1552416664" lon="15.8343527738">
		<tag k="name" v="Huslitofta" />
		<tag k="natural" v="beach" />
		<tag k="place" v="locality" />
		<tag k="ssr:stedsnr" v="224300" />
	</node>
	<node id="-25198" lat="69.1349638859" lon="15.5999499983">
		<tag k="name" v="Fiskebåen" />
		<tag k="natural" v="shoal" />
		<tag k="place" v="locality" />
		<tag k="ssr:stedsnr" v="350309" />
	</node>
	<node id="-25197" lat="69.1388249997" lon="15.5832222296">
		<tag k="name" v="Repålen" />
		<tag k="natural" v="shoal" />
		<tag k="place" v="locality" />
		<tag k="ssr:stedsnr" v="350306" />
	</node>
	<node id="-25192" lat="69.1825805587" lon="15.8115222336">
		<tag k="name" v="Lastrandholmen" />
		<tag k="place" v="islet" />
		<tag k="ssr:stedsnr" v="345302" />
	</node>
	<node id="-25191" lat="69.3999999992" lon="15.7666666728">
		<tag k="name" v="Bleikdjupet" />
		<tag k="place" v="locality" />
		<tag k="ssr:stedsnr" v="344705" />
	</node>
	<node id="-25182" lat="69.277494448" lon="15.9559305508">
		<tag k="fixme" v="consider seamark:type=rock or natural=shoal" />
		<tag k="name" v="Småskjeran" />
		<tag k="place" v="islet" />
		<tag k="ssr:stedsnr" v="339554" />
	</node>
	<node id="-25173" lat="69.3174611108" lon="16.111988888">
		<tag k="name" v="Stranda" />
		<tag k="natural" v="beach" />
		<tag k="place" v="locality" />
		<tag k="ssr:stedsnr" v="482793" />
	</node>
	<node id="-25168" lat="69.2964805547" lon="15.8613499937">
		<tag k="name" v="Kjerringberggrunnen" />
		<tag k="natural" v="shoal" />
		<tag k="place" v="locality" />
		<tag k="ssr:stedsnr" v="322129" />
	</node>
	<node id="-25165" lat="69.2425472239" lon="16.1302611117">
		<tag k="alt_name" v="Skardsteinrevet" />
		<tag k="name" v="Skarsteinsrevet" />
		<tag k="natural" v="shoal" />
		<tag k="place" v="locality" />
		<tag k="ssr:stedsnr" v="321161" />
	</node>
	<node id="-25163" lat="69.0666583363" lon="15.5262250063">
		<tag k="name" v="Nøssøyra" />
		<tag k="natural" v="cape" />
		<tag k="ssr:stedsnr" v="320365" />
	</node>
	<node id="-25162" lat="69.334388886" lon="16.100338896">
		<tag k="alt_name" v="Ytter-Sennholmbøen" />
		<tag k="fixme" v="consider seamark:type=rock or natural=shoal" />
		<tag k="name" v="Ytre Senholmbåan" />
		<tag k="place" v="islet" />
		<tag k="ssr:stedsnr" v="471858" />
	</node>
	<node id="-25161" lat="69.2128805568" lon="15.8010611122">
		<tag k="name" v="Hella" />
		<tag k="natural" v="shoal" />
		<tag k="place" v="locality" />
		<tag k="ssr:stedsnr" v="471327" />
	</node>
	<node id="-25153" lat="69.2860805572" lon="16.1780277849">
		<tag k="name" v="Skjåneset" />
		<tag k="natural" v="cape" />
		<tag k="ssr:stedsnr" v="300806" />
	</node>
	<node id="-25013" lat="68.9829833312" lon="15.6271638998">
		<tag k="name" v="Finnesodden" />
		<tag k="natural" v="cape" />
		<tag k="ssr:stedsnr" v="217504" />
	</node>
	<node id="-25144" lat="69.2516138915" lon="15.8740499892">
		<tag k="name" v="Oterviksanden" />
		<tag k="natural" v="beach" />
		<tag k="place" v="locality" />
		<tag k="ssr:stedsnr" v="467294" />
	</node>
	<node id="-25142" lat="69.2377444456" lon="15.8513722246">
		<tag k="name" v="Hulderstøen" />
		<tag k="natural" v="bay" />
		<tag k="ssr:stedsnr" v="467287" />
	</node>
	<node id="-25140" lat="68.92725833" lon="15.5714277881">
		<tag k="name" v="Stranda" />
		<tag k="natural" v="beach" />
		<tag k="place" v="locality" />
		<tag k="ssr:stedsnr" v="465900" />
	</node>
	<node id="-25138" lat="69.2037194484" lon="15.841738895">
		<tag k="fixme" v="consider seamark:type=rock or natural=shoal" />
		<tag k="name" v="Langskjeret" />
		<tag k="place" v="islet" />
		<tag k="ssr:stedsnr" v="290314" />
	</node>
	<node id="-25137" lat="69.1754944423" lon="15.7502583373">
		<tag k="name" v="Nordre Leiskjeret" />
		<tag k="natural" v="shoal" />
		<tag k="place" v="locality" />
		<tag k="ssr:stedsnr" v="289359" />
	</node>
	<node id="-25136" lat="69.1634944468" lon="15.8059999897">
		<tag k="name" v="Kråksteinen" />
		<tag k="place" v="locality" />
		<tag k="seamark:type" v="rock" />
		<tag k="ssr:stedsnr" v="289125" />
	</node>
	<node id="-25135" lat="69.3238194402" lon="16.1315027763">
		<tag k="name" v="Titingen" />
		<tag k="natural" v="shoal" />
		<tag k="place" v="locality" />
		<tag k="ssr:stedsnr" v="463245" />
	</node>
	<node id="-25133" lat="69.0845500032" lon="15.5384277743">
		<tag k="name" v="Stusylla" />
		<tag k="natural" v="shoal" />
		<tag k="place" v="locality" />
		<tag k="ssr:stedsnr" v="462885" />
	</node>
	<node id="-25125" lat="69.1839638893" lon="16.0951389007">
		<tag k="name" v="Kristianholmen" />
		<tag k="place" v="islet" />
		<tag k="ssr:stedsnr" v="461892" />
	</node>
	<node id="-25124" lat="69.2949500022" lon="15.9935027807">
		<tag k="name" v="Hestvika" />
		<tag k="natural" v="bay" />
		<tag k="ssr:stedsnr" v="461860" />
	</node>
	<node id="-25122" lat="69.0117388908" lon="15.7716638932">
		<tag k="name" v="Elvebukta" />
		<tag k="natural" v="bay" />
		<tag k="ssr:stedsnr" v="461815" />
	</node>
	<node id="-25115" lat="69.2055444479" lon="16.1075833289">
		<tag k="name" v="Neset" />
		<tag k="natural" v="cape" />
		<tag k="ssr:stedsnr" v="460943" />
	</node>
	<node id="-25103" lat="69.0476444417" lon="15.8701583304">
		<tag k="name" v="Elvneset" />
		<tag k="natural" v="cape" />
		<tag k="ssr:stedsnr" v="460355" />
	</node>
	<node id="-25099" lat="68.9698249977" lon="15.6228694428">
		<tag k="name" v="Telefonvika" />
		<tag k="natural" v="bay" />
		<tag k="ssr:stedsnr" v="460119" />
	</node>
	<node id="-25097" lat="69.1424249973" lon="15.7191722099">
		<tag k="name" v="Dragan" />
		<tag k="place" v="islet" />
		<tag k="ssr:stedsnr" v="460001" />
	</node>
	<node id="-25093" lat="69.2523916654" lon="15.765983337">
		<tag k="name" v="Staveflua" />
		<tag k="natural" v="shoal" />
		<tag k="place" v="locality" />
		<tag k="ssr:stedsnr" v="261210" />
	</node>
	<node id="-25092" lat="68.9365805553" lon="15.3974916639">
		<tag k="name" v="Dalskallen" />
		<tag k="natural" v="shoal" />
		<tag k="place" v="locality" />
		<tag k="ssr:stedsnr" v="260649" />
	</node>
	<node id="-25090" lat="69.2171416665" lon="15.8533444372">
		<tag k="name" v="Skjåberget" />
		<tag k="natural" v="cape" />
		<tag k="ssr:stedsnr" v="260225" />
	</node>
	<node id="-25087" lat="69.2430527751" lon="15.8054333256">
		<tag k="name" v="Belgsflua" />
		<tag k="natural" v="shoal" />
		<tag k="place" v="locality" />
		<tag k="ssr:stedsnr" v="260209" />
	</node>
	<node id="-25075" lat="69.2868888865" lon="15.9221916612">
		<tag k="name" v="Indre Storbåen" />
		<tag k="natural" v="shoal" />
		<tag k="place" v="locality" />
		<tag k="ssr:stedsnr" v="229017" />
	</node>
	<node id="-27122" lat="69.1194444418" lon="15.4805555446">
		<tag k="name" v="Sandnesgrunnen" />
		<tag k="natural" v="shoal" />
		<tag k="place" v="locality" />
		<tag k="ssr:stedsnr" v="970250" />
	</node>
	<node id="-25073" lat="69.0559527742" lon="16.0519194398">
		<tag k="loc_name:se" v="Ánddavierddas" />
		<tag k="name" v="Andfjorden" />
		<tag k="name:no" v="Andfjorden" />
		<tag k="place" v="sea" />
		<tag k="ssr:stedsnr" v="443411" />
	</node>
	<node id="-25072" lat="69.125849996" lon="15.6079972136">
		<tag k="fixme" v="consider seamark:type=rock or natural=shoal" />
		<tag k="name" v="Klubban" />
		<tag k="place" v="islet" />
		<tag k="ssr:stedsnr" v="443242" />
	</node>
	<node id="-25067" lat="69.3900916671" lon="16.1960749928">
		<tag k="name" v="Nordhavbåan" />
		<tag k="natural" v="shoal" />
		<tag k="place" v="locality" />
		<tag k="ssr:stedsnr" v="443179" />
	</node>
	<node id="-25066" lat="69.3339611082" lon="16.1070222186">
		<tag k="fixme" v="consider seamark:type=rock or natural=shoal" />
		<tag k="name" v="Tårnskjer" />
		<tag k="place" v="islet" />
		<tag k="ssr:stedsnr" v="443171" />
	</node>
	<node id="-25065" lat="69.3277777761" lon="16.1482361217">
		<tag k="name" v="Børingan" />
		<tag k="place" v="islet" />
		<tag k="ssr:stedsnr" v="443167" />
	</node>
	<node id="-25063" lat="69.1662805557" lon="15.7790916761">
		<tag k="alt_name" v="Reinskjer" />
		<tag k="fixme" v="consider seamark:type=rock or natural=shoal" />
		<tag k="name" v="Reinskjeran" />
		<tag k="place" v="islet" />
		<tag k="ssr:stedsnr" v="443154" />
	</node>
	<node id="-25059" lat="68.8731722191" lon="15.5260277785">
		<tag k="name" v="Skjoldegrunnen" />
		<tag k="natural" v="shoal" />
		<tag k="place" v="locality" />
		<tag k="ssr:stedsnr" v="442772" />
	</node>
	<node id="-27105" lat="69.1607194419" lon="16.0984055466">
		<tag k="fixme" v="consider seamark:type=rock or natural=shoal" />
		<tag k="loc_name" v="Skaftan" />
		<tag k="name" v="Skaften" />
		<tag k="place" v="islet" />
		<tag k="ssr:stedsnr" v="957788" />
	</node>
	<node id="-25052" lat="68.9518277749" lon="15.5841555543">
		<tag k="alt_name" v="Holmeneset" />
		<tag k="name" v="Holmneset" />
		<tag k="natural" v="cape" />
		<tag k="ssr:stedsnr" v="442647" />
	</node>
	<node id="-27097" lat="69.3318416636" lon="16.1432972279">
		<tag k="name" v="Storgrunnen" />
		<tag k="natural" v="shoal" />
		<tag k="place" v="locality" />
		<tag k="ssr:stedsnr" v="952350" />
	</node>
	<node id="-27094" lat="69.2388361078" lon="15.8408972204">
		<tag k="name" v="Belgssundet" />
		<tag k="natural" v="strait" />
		<tag k="ssr:stedsnr" v="952310" />
	</node>
	<node id="-27093" lat="69.2379166692" lon="15.8597472277">
		<tag k="fixme" v="consider seamark:type=rock or natural=shoal" />
		<tag k="name" v="Kobbesteinen" />
		<tag k="place" v="islet" />
		<tag k="ssr:stedsnr" v="952309" />
	</node>
	<node id="-25042" lat="69.0273222209" lon="15.5000472154">
		<tag k="name" v="Leirbogen" />
		<tag k="natural" v="bay" />
		<tag k="ssr:stedsnr" v="442372" />
	</node>
	<node id="-25037" lat="68.818033334" lon="15.6686361101">
		<tag k="alt_name" v="Veneset" />
		<tag k="name" v="Finneset" />
		<tag k="natural" v="cape" />
		<tag k="ssr:stedsnr" v="442327" />
	</node>
	<node id="-27084" lat="69.106374999" lon="15.5726083433">
		<tag k="name" v="Sørvågen" />
		<tag k="natural" v="bay" />
		<tag k="ssr:stedsnr" v="868236" />
	</node>
	<node id="-27080" lat="69.3302138932" lon="15.9224583282">
		<tag k="name" v="Hestebåen" />
		<tag k="natural" v="shoal" />
		<tag k="place" v="locality" />
		<tag k="ssr:stedsnr" v="868157" />
	</node>
	<node id="-27079" lat="69.3257611082" lon="15.8958638793">
		<tag k="alt_name" v="Tikkgrunnen" />
		<tag k="name" v="Tikgrunnen" />
		<tag k="natural" v="shoal" />
		<tag k="place" v="locality" />
		<tag k="ssr:stedsnr" v="868155" />
	</node>
	<node id="-27078" lat="69.3259499989" lon="16.1458805485">
		<tag k="alt_name" v="Kutan" />
		<tag k="fixme" v="consider seamark:type=rock or natural=shoal" />
		<tag k="name" v="Kuta" />
		<tag k="place" v="islet" />
		<tag k="ssr:stedsnr" v="868152" />
	</node>
	<node id="-27077" lat="69.3204083343" lon="16.0029694562">
		<tag k="alt_name" v="Hella" />
		<tag k="name" v="Helia" />
		<tag k="natural" v="shoal" />
		<tag k="place" v="locality" />
		<tag k="ssr:stedsnr" v="868151" />
	</node>
	<node id="-27076" lat="69.3115833316" lon="15.9576611041">
		<tag k="name" v="Fiskebåan" />
		<tag k="natural" v="shoal" />
		<tag k="place" v="locality" />
		<tag k="ssr:stedsnr" v="868147" />
	</node>
	<node id="-27075" lat="69.3140555537" lon="15.8265500023">
		<tag k="name" v="Fjellbakken" />
		<tag k="natural" v="shoal" />
		<tag k="place" v="locality" />
		<tag k="ssr:stedsnr" v="868144" />
	</node>
	<node id="-27074" lat="69.2958472208" lon="16.0273833315">
		<tag k="name" v="Oksebåsen" />
		<tag k="natural" v="cape" />
		<tag k="ssr:stedsnr" v="868133" />
	</node>
	<node id="-27073" lat="69.2828000007" lon="16.1751388876">
		<tag k="name" v="Bautaneset" />
		<tag k="natural" v="cape" />
		<tag k="ssr:stedsnr" v="868128" />
	</node>
	<node id="-25024" lat="69.1677527807" lon="15.8845472133">
		<tag k="alt_name:no" v="Andøy" />
		<tag k="loc_name:se" v="Ánda;Ánddasuolu" />
		<tag k="name" v="Andøya" />
		<tag k="name:no" v="Andøya" />
		<tag k="place" v="island" />
		<tag k="ssr:stedsnr" v="442162" />
	</node>
	<node id="-25023" lat="69.1825222214" lon="15.7511666743">
		<tag k="name" v="Bardan" />
		<tag k="place" v="islet" />
		<tag k="ssr:stedsnr" v="442153" />
	</node>
	<node id="-27069" lat="68.883319447" lon="15.5670110991">
		<tag k="alt_name" v="Villingskjeret" />
		<tag k="fixme" v="consider seamark:type=rock or natural=shoal" />
		<tag k="name" v="Villingsskjeret" />
		<tag k="place" v="islet" />
		<tag k="ssr:stedsnr" v="867724" />
	</node>
	<node id="-25020" lat="69.1809749955" lon="15.7448555663">
		<tag k="alt_name" v="Klakken, l;Litle Klakken" />
		<tag k="name" v="Littje Klakken" />
		<tag k="natural" v="shoal" />
		<tag k="place" v="locality" />
		<tag k="ssr:stedsnr" v="442141" />
	</node>
	<node id="-27066" lat="68.9190166624" lon="15.6106000047">
		<tag k="name" v="Laneset" />
		<tag k="natural" v="cape" />
		<tag k="ssr:stedsnr" v="867698" />
	</node>
	<node id="-27062" lat="68.9968888886" lon="15.572258342">
		<tag k="name" v="Kobbøya" />
		<tag k="place" v="islet" />
		<tag k="ssr:stedsnr" v="867597" />
	</node>
	<node id="-27061" lat="68.874052779" lon="15.5807444388">
		<tag k="alt_name:no" v="Hinnøy" />
		<tag k="name" v="Hinnøya - Iinnasuolu" />
		<tag k="name:no" v="Hinnøya" />
		<tag k="name:se" v="Iinnasuolu" />
		<tag k="place" v="island" />
		<tag k="ssr:stedsnr" v="867568" />
	</node>
	<node id="-25011" lat="68.8860666654" lon="15.4351388891">
		<tag k="fixme" v="consider seamark:type=rock or natural=shoal" />
		<tag k="name" v="Dyna" />
		<tag k="place" v="islet" />
		<tag k="ssr:stedsnr" v="217043" />
	</node>
	<node id="-27052" lat="69.2488055593" lon="15.7892694495">
		<tag k="name" v="Skallen" />
		<tag k="natural" v="shoal" />
		<tag k="place" v="locality" />
		<tag k="ssr:stedsnr" v="867344" />
	</node>
	<node id="-24999" lat="69.1419861129" lon="16.059358336">
		<tag k="alt_name" v="Haugnes" />
		<tag k="name" v="Haugneset" />
		<tag k="natural" v="cape" />
		<tag k="ssr:stedsnr" v="200224" />
	</node>
	<node id="-27042" lat="69.1585944442" lon="15.6713305587">
		<tag k="name" v="Skarveklakken" />
		<tag k="place" v="islet" />
		<tag k="ssr:stedsnr" v="867182" />
	</node>
	<node id="-27041" lat="69.0037833322" lon="15.7607527739">
		<tag k="alt_name" v="Fillokneset" />
		<tag k="fixme" v="multiple name tags, choose one and add the other to alt_name" />
		<tag k="name" v="Finnklokneset;Fyllokneset" />
		<tag k="natural" v="cape" />
		<tag k="ssr:stedsnr" v="867062" />
	</node>
	<node id="-27040" lat="69.0097861109" lon="15.7788777722">
		<tag k="name" v="Lilandsholmen" />
		<tag k="natural" v="cape" />
		<tag k="ssr:stedsnr" v="867061" />
	</node>
	<node id="-27033" lat="69.176405559" lon="15.7854027691">
		<tag k="name" v="Kvitholmen" />
		<tag k="place" v="islet" />
		<tag k="ssr:stedsnr" v="867162" />
	</node>
	<node id="-27032" lat="69.1674138891" lon="15.6633527808">
		<tag k="name" v="Klakkrevet" />
		<tag k="natural" v="shoal" />
		<tag k="place" v="locality" />
		<tag k="ssr:stedsnr" v="867160" />
	</node>
	<node id="-24980" lat="69.2810472193" lon="15.9056555423">
		<tag k="name" v="Steingrunnan" />
		<tag k="natural" v="shoal" />
		<tag k="place" v="locality" />
		<tag k="ssr:stedsnr" v="290072" />
	</node>
	<node id="-24976" lat="69.2854361091" lon="16.1828583335">
		<tag k="name" v="Kulbåen" />
		<tag k="natural" v="shoal" />
		<tag k="place" v="locality" />
		<tag k="ssr:stedsnr" v="285351" />
	</node>
	<node id="-24975" lat="69.3261722214" lon="16.1447250012">
		<tag k="name" v="Leisundet" />
		<tag k="natural" v="strait" />
		<tag k="ssr:stedsnr" v="285334" />
	</node>
	<node id="-24974" lat="69.1801861075" lon="15.8170305538">
		<tag k="name" v="Lastranda" />
		<tag k="natural" v="beach" />
		<tag k="place" v="locality" />
		<tag k="ssr:stedsnr" v="285313" />
	</node>
	<node id="-24972" lat="69.1740055577" lon="15.8080777854">
		<tag k="name" v="Finnkontholmen" />
		<tag k="place" v="islet" />
		<tag k="ssr:stedsnr" v="285305" />
	</node>
	<node id="-24971" lat="69.1753861138" lon="15.8137499947">
		<tag k="name" v="Neset" />
		<tag k="natural" v="cape" />
		<tag k="ssr:stedsnr" v="285304" />
	</node>
	<node id="-27018" lat="69.1097750022" lon="15.5992583301">
		<tag k="name" v="Hamnneset" />
		<tag k="natural" v="cape" />
		<tag k="ssr:stedsnr" v="848007" />
	</node>
	<node id="-24969" lat="69.2483833354" lon="15.8601610999">
		<tag k="name" v="Inste-Rekvika" />
		<tag k="natural" v="bay" />
		<tag k="ssr:stedsnr" v="285288" />
	</node>
	<node id="-24967" lat="69.2417805514" lon="15.8513777724">
		<tag k="name" v="Littje-Rekvika" />
		<tag k="natural" v="bay" />
		<tag k="ssr:stedsnr" v="285274" />
	</node>
	<node id="-27013" lat="69.3207805543" lon="16.0978972117">
		<tag k="fixme" v="consider seamark:type=rock or natural=shoal" />
		<tag k="name" v="Oterholmen" />
		<tag k="place" v="islet" />
		<tag k="ssr:stedsnr" v="847802" />
	</node>
	<node id="-24956" lat="69.2697861107" lon="15.485555546">
		<tag k="name" v="Langenesgrunnen" />
		<tag k="natural" v="shoal" />
		<tag k="place" v="locality" />
		<tag k="ssr:stedsnr" v="284714" />
	</node>
	<node id="-24952" lat="68.931024997" lon="15.5746638957">
		<tag k="name" v="Langnes" />
		<tag k="natural" v="cape" />
		<tag k="ssr:stedsnr" v="283897" />
	</node>
	<node id="-26993" lat="69.1784888859" lon="15.7212194436">
		<tag k="name" v="Hella" />
		<tag k="natural" v="shoal" />
		<tag k="place" v="locality" />
		<tag k="ssr:stedsnr" v="836284" />
	</node>
	<node id="-26992" lat="69.1706027795" lon="15.7515250109">
		<tag k="name" v="Klubben" />
		<tag k="natural" v="shoal" />
		<tag k="place" v="locality" />
		<tag k="ssr:stedsnr" v="835377" />
	</node>
	<node id="-24943" lat="69.3364777754" lon="16.1198749923">
		<tag k="name" v="Tårnfallan" />
		<tag k="natural" v="shoal" />
		<tag k="place" v="locality" />
		<tag k="ssr:stedsnr" v="281575" />
	</node>
	<node id="-24942" lat="69.3355277808" lon="16.0859750085">
		<tag k="name" v="Torsbåan" />
		<tag k="natural" v="shoal" />
		<tag k="place" v="locality" />
		<tag k="ssr:stedsnr" v="281572" />
	</node>
	<node id="-24940" lat="69.0854305522" lon="15.5437194353">
		<tag k="name" v="Koppen" />
		<tag k="natural" v="shoal" />
		<tag k="place" v="locality" />
		<tag k="ssr:stedsnr" v="280879" />
	</node>
	<node id="-24939" lat="69.0853916697" lon="15.5532333242">
		<tag k="name" v="Dyna" />
		<tag k="natural" v="shoal" />
		<tag k="place" v="locality" />
		<tag k="ssr:stedsnr" v="280878" />
	</node>
	<node id="-24938" lat="69.1023472268" lon="15.539644436">
		<tag k="name" v="Noreflua" />
		<tag k="natural" v="shoal" />
		<tag k="place" v="locality" />
		<tag k="ssr:stedsnr" v="280866" />
	</node>
	<node id="-24937" lat="69.2865138861" lon="15.9333222269">
		<tag k="name" v="Skanken" />
		<tag k="natural" v="shoal" />
		<tag k="place" v="locality" />
		<tag k="ssr:stedsnr" v="168017" />
	</node>
	<node id="-26984" lat="69.0570277741" lon="15.5286277803">
		<tag k="name" v="Bøstranda" />
		<tag k="natural" v="beach" />
		<tag k="place" v="locality" />
		<tag k="ssr:stedsnr" v="831725" />
	</node>
	<node id="-24935" lat="69.2563611122" lon="16.1612361002">
		<tag k="name" v="Fagervika" />
		<tag k="natural" v="bay" />
		<tag k="ssr:stedsnr" v="279918" />
	</node>
	<node id="-26981" lat="69.3224416655" lon="16.1377000021">
		<tag k="name" v="Revet" />
		<tag k="natural" v="shoal" />
		<tag k="place" v="locality" />
		<tag k="ssr:stedsnr" v="831327" />
	</node>
	<node id="-24931" lat="69.1735944458" lon="16.1007194349">
		<tag k="name" v="Vardvika" />
		<tag k="natural" v="bay" />
		<tag k="ssr:stedsnr" v="279872" />
	</node>
	<node id="-24929" lat="69.0109833291" lon="15.7992083435">
		<tag k="name" v="Sørholmen" />
		<tag k="place" v="islet" />
		<tag k="ssr:stedsnr" v="279812" />
	</node>
	<node id="-24925" lat="68.9962333363" lon="15.6188416654">
		<tag k="name" v="Kjosen" />
		<tag k="natural" v="bay" />
		<tag k="ssr:stedsnr" v="279528" />
	</node>
	<node id="-24924" lat="69.110375" lon="15.5483861149">
		<tag k="name" v="Børvågbåen" />
		<tag k="place" v="locality" />
		<tag k="seamark:type" v="rock" />
		<tag k="ssr:stedsnr" v="158871" />
	</node>
	<node id="-24923" lat="68.9604611135" lon="15.5899583372">
		<tag k="name" v="Dyna" />
		<tag k="place" v="locality" />
		<tag k="seamark:type" v="rock" />
		<tag k="ssr:stedsnr" v="158857" />
	</node>
	<node id="-26968" lat="69.3006250041" lon="16.031108337">
		<tag k="fixme" v="consider seamark:type=rock or natural=shoal" />
		<tag k="name" v="Svartoksen" />
		<tag k="place" v="islet" />
		<tag k="ssr:stedsnr" v="827174" />
	</node>
	<node id="-26967" lat="69.0651416705" lon="15.5057750009">
		<tag k="name" v="Kråka" />
		<tag k="natural" v="shoal" />
		<tag k="place" v="locality" />
		<tag k="ssr:stedsnr" v="826870" />
	</node>
	<node id="-26966" lat="68.9869888876" lon="15.5933166587">
		<tag k="name" v="Høystakkneset" />
		<tag k="natural" v="cape" />
		<tag k="ssr:stedsnr" v="826846" />
	</node>
	<node id="-26961" lat="68.9919749988" lon="15.7237055564">
		<tag k="name" v="Flatholmen" />
		<tag k="place" v="islet" />
		<tag k="ssr:stedsnr" v="825493" />
	</node>
	<node id="-24912" lat="68.886475003" lon="15.5913444403">
		<tag k="name" v="Littjeneset" />
		<tag k="natural" v="cape" />
		<tag k="ssr:stedsnr" v="278567" />
	</node>
	<node id="-24906" lat="69.1495472248" lon="16.0737749996">
		<tag k="name" v="Steinneset" />
		<tag k="natural" v="cape" />
		<tag k="ssr:stedsnr" v="278371" />
	</node>
	<node id="-24901" lat="68.8782888868" lon="15.4943694342">
		<tag k="name" v="Skjoldehamnvågen" />
		<tag k="natural" v="bay" />
		<tag k="ssr:stedsnr" v="278079" />
	</node>
	<node id="-24900" lat="68.9607555537" lon="15.7358833423">
		<tag k="name" v="Juldagsneset" />
		<tag k="natural" v="cape" />
		<tag k="ssr:stedsnr" v="278078" />
	</node>
	<node id="-26945" lat="69.0492000031" lon="15.903902776">
		<tag k="name" v="Gjyita" />
		<tag k="natural" v="shoal" />
		<tag k="place" v="locality" />
		<tag k="ssr:stedsnr" v="823145" />
	</node>
	<node id="-26944" lat="69.1086666647" lon="16.0293972136">
		<tag k="name" v="Mebåen" />
		<tag k="natural" v="shoal" />
		<tag k="place" v="locality" />
		<tag k="ssr:stedsnr" v="823158" />
	</node>
	<node id="-24895" lat="69.1069138856" lon="15.5781249933">
		<tag k="name" v="Børvågen" />
		<tag k="natural" v="bay" />
		<tag k="ssr:stedsnr" v="139262" />
	</node>
	<node id="-24891" lat="69.2227194445" lon="15.8463388788">
		<tag k="name" v="Hestvika" />
		<tag k="natural" v="bay" />
		<tag k="ssr:stedsnr" v="138179" />
	</node>
	<node id="-26938" lat="68.9547777782" lon="15.5843916748">
		<tag k="fixme" v="consider seamark:type=rock or natural=shoal" />
		<tag k="name" v="Tranesholman" />
		<tag k="place" v="islet" />
		<tag k="ssr:stedsnr" v="807632" />
	</node>
	<node id="-26936" lat="69.115905553" lon="15.6098333341">
		<tag k="alt_name" v="Littjelandsvika" />
		<tag k="name" v="Litlelandsvika" />
		<tag k="natural" v="bay" />
		<tag k="ssr:stedsnr" v="807232" />
	</node>
	<node id="-26934" lat="69.2563416666" lon="15.8502277825">
		<tag k="alt_name" v="Stavskjeret, in" />
		<tag k="fixme" v="multiple name tags, choose one and add the other to alt_name; consider seamark:type=rock or natural=shoal" />
		<tag k="name" v="Stavskjeret;Indre Stavskjeret" />
		<tag k="place" v="islet" />
		<tag k="ssr:stedsnr" v="807221" />
	</node>
	<node id="-24885" lat="69.0941611146" lon="15.952519447">
		<tag k="name" v="Rognan" />
		<tag k="natural" v="cape" />
		<tag k="ssr:stedsnr" v="138204" />
	</node>
	<node id="-26932" lat="69.307772224" lon="15.8397555457">
		<tag k="alt_name" v="Stilkgrunnan" />
		<tag k="name" v="Stilkgrunnen" />
		<tag k="natural" v="shoal" />
		<tag k="place" v="locality" />
		<tag k="ssr:stedsnr" v="807162" />
	</node>
	<node id="-26931" lat="69.3044666646" lon="16.1366555458">
		<tag k="name" v="Haugnessanden" />
		<tag k="natural" v="beach" />
		<tag k="place" v="locality" />
		<tag k="ssr:stedsnr" v="807158" />
	</node>
	<node id="-26930" lat="69.2975694407" lon="16.1540638879">
		<tag k="name" v="Storneset" />
		<tag k="natural" v="cape" />
		<tag k="ssr:stedsnr" v="807153" />
	</node>
	<node id="-26928" lat="69.1518388857" lon="16.0816916734">
		<tag k="name" v="Holmen" />
		<tag k="natural" v="cape" />
		<tag k="ssr:stedsnr" v="807150" />
	</node>
	<node id="-26927" lat="69.2926583342" lon="16.1816222328">
		<tag k="name" v="Ålskaftet" />
		<tag k="natural" v="shoal" />
		<tag k="place" v="locality" />
		<tag k="ssr:stedsnr" v="807145" />
	</node>
	<node id="-24876" lat="68.9771388853" lon="15.6920111161">
		<tag k="name" v="Slåtterøya" />
		<tag k="natural" v="cape" />
		<tag k="ssr:stedsnr" v="261393" />
	</node>
	<node id="-24875" lat="68.97633333" lon="15.7170194518">
		<tag k="alt_name" v="Sandøyra" />
		<tag k="name" v="Sandøra" />
		<tag k="place" v="islet" />
		<tag k="ssr:stedsnr" v="261389" />
	</node>
	<node id="-26922" lat="68.9009555574" lon="15.4192083325">
		<tag k="name" v="Sandnesneset" />
		<tag k="natural" v="cape" />
		<tag k="ssr:stedsnr" v="806734" />
	</node>
	<node id="-26919" lat="68.9052527736" lon="15.6156638909">
		<tag k="name" v="Buksnes" />
		<tag k="natural" v="cape" />
		<tag k="ssr:stedsnr" v="806674" />
	</node>
	<node id="-24870" lat="69.1023444444" lon="15.5634083428">
		<tag k="alt_name" v="Børskjeret" />
		<tag k="name" v="Børvågsholmen" />
		<tag k="place" v="islet" />
		<tag k="ssr:stedsnr" v="261254" />
	</node>
	<node id="-26917" lat="68.9595638891" lon="15.5822472207">
		<tag k="name" v="Tranes" />
		<tag k="natural" v="cape" />
		<tag k="ssr:stedsnr" v="806581" />
	</node>
	<node id="-24868" lat="69.1207444416" lon="15.5934305498">
		<tag k="fixme" v="consider seamark:type=rock or natural=shoal" />
		<tag k="name" v="Rådstua" />
		<tag k="place" v="islet" />
		<tag k="ssr:stedsnr" v="261240" />
	</node>
	<node id="-24866" lat="69.2703277812" lon="16.178674994">
		<tag k="name" v="Glimmen" />
		<tag k="natural" v="shoal" />
		<tag k="place" v="locality" />
		<tag k="ssr:stedsnr" v="261232" />
	</node>
	<node id="-24865" lat="69.2605555515" lon="15.7930555465">
		<tag k="name" v="Skredingan" />
		<tag k="natural" v="shoal" />
		<tag k="place" v="locality" />
		<tag k="ssr:stedsnr" v="261227" />
	</node>
	<node id="-24864" lat="69.3366555514" lon="16.0375999923">
		<tag k="name" v="Svebåan" />
		<tag k="natural" v="shoal" />
		<tag k="place" v="locality" />
		<tag k="ssr:stedsnr" v="261161" />
	</node>
	<node id="-26911" lat="69.0179916699" lon="15.4592444366">
		<tag k="alt_name" v="Refsneset" />
		<tag k="fixme" v="multiple name tags, choose one and add the other to alt_name" />
		<tag k="name" v="Stor-Refsneset;Revsneset" />
		<tag k="natural" v="cape" />
		<tag k="ssr:stedsnr" v="806336" />
	</node>
	<node id="-24862" lat="69.3216944479" lon="15.9483999978">
		<tag k="alt_name" v="Hestfallan" />
		<tag k="name" v="Hestefallan" />
		<tag k="natural" v="shoal" />
		<tag k="place" v="locality" />
		<tag k="ssr:stedsnr" v="261156" />
	</node>
	<node id="-24965" lat="69.2722361119" lon="15.8626750033">
		<tag k="fixme" v="consider seamark:type=rock or natural=shoal" />
		<tag k="name" v="Øyskjeret" />
		<tag k="place" v="islet" />
		<tag k="ssr:stedsnr" v="285268" />
	</node>
	<node id="-24860" lat="69.3029499993" lon="16.0486749953">
		<tag k="name" v="Toftesholman" />
		<tag k="place" v="islet" />
		<tag k="ssr:stedsnr" v="261144" />
	</node>
	<node id="-26905" lat="68.9624500005" lon="15.7766555528">
		<tag k="fixme" v="consider seamark:type=rock or natural=shoal" />
		<tag k="name" v="Høystakkskjeret" />
		<tag k="place" v="islet" />
		<tag k="ssr:stedsnr" v="806392" />
	</node>
	<node id="-26904" lat="68.9660944408" lon="15.8260444339">
		<tag k="name" v="Låtran" />
		<tag k="natural" v="shoal" />
		<tag k="place" v="locality" />
		<tag k="ssr:stedsnr" v="806380" />
	</node>
	<node id="-26903" lat="69.1914305515" lon="15.748386101">
		<tag k="name" v="Storbåen" />
		<tag k="natural" v="shoal" />
		<tag k="place" v="locality" />
		<tag k="ssr:stedsnr" v="806133" />
	</node>
	<node id="-26902" lat="69.1900055521" lon="15.8077111124">
		<tag k="alt_name" v="Staveøyan" />
		<tag k="name" v="Stavaøyan" />
		<tag k="place" v="island" />
		<tag k="ssr:stedsnr" v="806131" />
	</node>
	<node id="-26900" lat="69.093158331" lon="15.9769944306">
		<tag k="name" v="Rognerevet" />
		<tag k="natural" v="shoal" />
		<tag k="place" v="locality" />
		<tag k="ssr:stedsnr" v="806181" />
	</node>
	<node id="-24848" lat="68.8378361067" lon="15.60248889">
		<tag k="alt_name" v="Breidneset" />
		<tag k="name" v="Breineset" />
		<tag k="natural" v="cape" />
		<tag k="ssr:stedsnr" v="260357" />
	</node>
	<node id="-24847" lat="68.8337249975" lon="15.5711027684">
		<tag k="bay" v="fjord" />
		<tag k="name" v="Forfjorden" />
		<tag k="natural" v="bay" />
		<tag k="ssr:stedsnr" v="260356" />
	</node>
	<node id="-24844" lat="69.1392888918" lon="15.6677333464">
		<tag k="name" v="Tenndraget" />
		<tag k="natural" v="strait" />
		<tag k="ssr:stedsnr" v="260280" />
	</node>
	<node id="-24843" lat="69.1336305582" lon="16.0660472248">
		<tag k="name" v="Sauragrunnen" />
		<tag k="natural" v="shoal" />
		<tag k="place" v="locality" />
		<tag k="ssr:stedsnr" v="260278" />
	</node>
	<node id="-24841" lat="69.0698555588" lon="15.9175750028">
		<tag k="name" v="Galten" />
		<tag k="natural" v="shoal" />
		<tag k="place" v="locality" />
		<tag k="ssr:stedsnr" v="260256" />
	</node>
	<node id="-24840" lat="69.2245166672" lon="15.8075055563">
		<tag k="name" v="Løynporten" />
		<tag k="place" v="islet" />
		<tag k="ssr:stedsnr" v="260195" />
	</node>
	<node id="-24839" lat="69.1504111116" lon="15.6641138768">
		<tag k="name" v="Rundholmen" />
		<tag k="place" v="islet" />
		<tag k="ssr:stedsnr" v="260186" />
	</node>
	<node id="-24837" lat="69.1842416636" lon="15.8167777875">
		<tag k="name" v="Skiftholman" />
		<tag k="place" v="islet" />
		<tag k="ssr:stedsnr" v="107118" />
	</node>
	<node id="-24836" lat="69.1718166627" lon="15.7670166774">
		<tag k="alt_name" v="Tverrbåan" />
		<tag k="name" v="Tverrboan" />
		<tag k="natural" v="shoal" />
		<tag k="place" v="locality" />
		<tag k="ssr:stedsnr" v="107106" />
	</node>
	<node id="-26877" lat="68.8249222211" lon="15.652419439">
		<tag k="name" v="Langnesbukta" />
		<tag k="natural" v="bay" />
		<tag k="ssr:stedsnr" v="783582" />
	</node>
	<node id="-26873" lat="69.2085708032" lon="15.8351513942">
		<tag k="fixme" v="consider seamark:type=rock or natural=shoal" />
		<tag k="name" v="Leiskjeret" />
		<tag k="place" v="islet" />
		<tag k="ssr:stedsnr" v="775296" />
	</node>
	<node id="-26872" lat="69.21088611" lon="15.8001055534">
		<tag k="name" v="Oksen" />
		<tag k="natural" v="shoal" />
		<tag k="place" v="locality" />
		<tag k="ssr:stedsnr" v="775295" />
	</node>
	<node id="-26871" lat="69.2419027772" lon="15.8407138855">
		<tag k="alt_name" v="Olsbåan" />
		<tag k="name" v="Olsbøan" />
		<tag k="natural" v="shoal" />
		<tag k="place" v="locality" />
		<tag k="ssr:stedsnr" v="774403" />
	</node>
	<node id="-26870" lat="69.2255361116" lon="15.6448138913">
		<tag k="name" v="Landbakken" />
		<tag k="place" v="locality" />
		<tag k="ssr:stedsnr" v="774401" />
	</node>
	<node id="-26869" lat="69.1610694474" lon="15.8010499942">
		<tag k="fixme" v="consider seamark:type=rock or natural=shoal" />
		<tag k="name" v="Fastskjeret" />
		<tag k="place" v="islet" />
		<tag k="ssr:stedsnr" v="774156" />
	</node>
	<node id="-26868" lat="69.175541671" lon="15.7702472266">
		<tag k="fixme" v="consider seamark:type=rock or natural=shoal" />
		<tag k="name" v="Langskjeret" />
		<tag k="place" v="islet" />
		<tag k="ssr:stedsnr" v="774153" />
	</node>
	<node id="-26867" lat="69.0647055548" lon="15.5231944469">
		<tag k="name" v="Langøyra" />
		<tag k="natural" v="cape" />
		<tag k="ssr:stedsnr" v="770797" />
	</node>
	<node id="-24811" lat="69.2146027745" lon="15.851577778">
		<tag k="name" v="Buholmen" />
		<tag k="place" v="islet" />
		<tag k="ssr:stedsnr" v="96957" />
	</node>
	<node id="-26856" lat="69.1203583364" lon="16.1205444434">
		<tag k="name" v="Sula" />
		<tag k="natural" v="shoal" />
		<tag k="place" v="locality" />
		<tag k="ssr:stedsnr" v="766749" />
	</node>
	<node id="-26855" lat="69.3393194474" lon="16.077555558">
		<tag k="name" v="Damskolten" />
		<tag k="natural" v="shoal" />
		<tag k="place" v="locality" />
		<tag k="ssr:stedsnr" v="766566" />
	</node>
	<node id="-26854" lat="69.2758694471" lon="16.1759555539">
		<tag k="name" v="Svartbergan" />
		<tag k="natural" v="cape" />
		<tag k="ssr:stedsnr" v="766265" />
	</node>
	<node id="-24802" lat="69.2653333334" lon="16.1716388871">
		<tag k="alt_name" v="Buane" />
		<tag k="name" v="Buan" />
		<tag k="natural" v="bay" />
		<tag k="ssr:stedsnr" v="79227" />
	</node>
	<node id="-26849" lat="69.0128138863" lon="15.8128611105">
		<tag k="name" v="Skjåneset" />
		<tag k="natural" v="cape" />
		<tag k="ssr:stedsnr" v="764772" />
	</node>
	<node id="-24799" lat="69.1441527806" lon="15.6635111173">
		<tag k="alt_name" v="Anne-Marieskjeret" />
		<tag k="fixme" v="consider seamark:type=rock or natural=shoal" />
		<tag k="name" v="Anna-Mariaskjeret" />
		<tag k="place" v="islet" />
		<tag k="ssr:stedsnr" v="79218" />
	</node>
	<node id="-24797" lat="69.2518388877" lon="15.7884916643">
		<tag k="name" v="Nordflua" />
		<tag k="natural" v="shoal" />
		<tag k="place" v="locality" />
		<tag k="ssr:stedsnr" v="79207" />
	</node>
	<node id="-24796" lat="69.3673083368" lon="16.1842472147">
		<tag k="name" v="Ofsen" />
		<tag k="natural" v="shoal" />
		<tag k="place" v="locality" />
		<tag k="ssr:stedsnr" v="79177" />
	</node>
	<node id="-24795" lat="69.3537111115" lon="16.1775805646">
		<tag k="alt_name" v="Seiskoltan" />
		<tag k="name" v="Seiskolten" />
		<tag k="natural" v="shoal" />
		<tag k="place" v="locality" />
		<tag k="ssr:stedsnr" v="79174" />
	</node>
	<node id="-24794" lat="69.301538885" lon="15.9834555528">
		<tag k="alt_name" v="Forøya, store" />
		<tag k="fixme" v="multiple name tags, choose one and add the other to alt_name" />
		<tag k="name" v="Forøya;Store Forøya" />
		<tag k="place" v="islet" />
		<tag k="ssr:stedsnr" v="79161" />
	</node>
	<node id="-24793" lat="69.1658472221" lon="15.7877944339">
		<tag k="alt_name" v="Eskjer" />
		<tag k="fixme" v="consider seamark:type=rock or natural=shoal" />
		<tag k="name" v="Eskjeret" />
		<tag k="place" v="islet" />
		<tag k="ssr:stedsnr" v="79160" />
	</node>
	<node id="-26840" lat="69.0470555544" lon="15.8715888763">
		<tag k="name" v="Eholmen" />
		<tag k="place" v="islet" />
		<tag k="ssr:stedsnr" v="764274" />
	</node>
	<node id="-26839" lat="69.1406694438" lon="15.6815666706">
		<tag k="name" v="Vardholmen" />
		<tag k="place" v="islet" />
		<tag k="ssr:stedsnr" v="764031" />
	</node>
	<node id="-26838" lat="69.1488250016" lon="15.7205666625">
		<tag k="name" v="Øyan" />
		<tag k="place" v="islet" />
		<tag k="ssr:stedsnr" v="764030" />
	</node>
	<node id="-24789" lat="69.3006666636" lon="16.0312638769">
		<tag k="fixme" v="consider seamark:type=rock or natural=shoal" />
		<tag k="name" v="Kirkeskjeret" />
		<tag k="place" v="islet" />
		<tag k="ssr:stedsnr" v="79156" />
	</node>
	<node id="-24785" lat="69.1180027813" lon="15.9937805547">
		<tag k="name" v="Stutneset" />
		<tag k="natural" v="cape" />
		<tag k="ssr:stedsnr" v="78261" />
	</node>
	<node id="-26829" lat="69.1495611122" lon="15.6621055655">
		<tag k="name" v="Langsloget" />
		<tag k="natural" v="shoal" />
		<tag k="place" v="locality" />
		<tag k="ssr:stedsnr" v="763425" />
	</node>
	<node id="-24779" lat="69.0946472213" lon="16.0621222135">
		<tag k="fixme" v="consider seamark:type=rock or natural=shoal" />
		<tag k="name" v="Myrflesan" />
		<tag k="place" v="islet" />
		<tag k="ssr:stedsnr" v="78204" />
	</node>
	<node id="-24770" lat="69.3270972244" lon="16.1415750105">
		<tag k="name" v="Auster-Steingrunnen" />
		<tag k="natural" v="shoal" />
		<tag k="place" v="locality" />
		<tag k="ssr:stedsnr" v="240816" />
	</node>
	<node id="-24769" lat="69.2865249965" lon="16.1772916715">
		<tag k="name" v="Haugneskjeila" />
		<tag k="natural" v="bay" />
		<tag k="ssr:stedsnr" v="240814" />
	</node>
	<node id="-24768" lat="69.3221277738" lon="16.1307305654">
		<tag k="name" v="Nakken" />
		<tag k="place" v="locality" />
		<tag k="ssr:stedsnr" v="240808" />
	</node>
	<node id="-26815" lat="68.873444448" lon="15.4782694438">
		<tag k="alt_name" v="Slåttevika" />
		<tag k="name" v="Slåttvika" />
		<tag k="natural" v="bay" />
		<tag k="ssr:stedsnr" v="746689" />
	</node>
	<node id="-26812" lat="68.98328333" lon="15.6711499913">
		<tag k="alt_name" v="Risøya, store" />
		<tag k="fixme" v="multiple name tags, choose one and add the other to alt_name" />
		<tag k="name" v="Risøya;Store Risøya" />
		<tag k="natural" v="cape" />
		<tag k="ssr:stedsnr" v="746374" />
	</node>
	<node id="-26809" lat="69.1574777808" lon="15.6833166593">
		<tag k="name" v="Kvitholman" />
		<tag k="place" v="islet" />
		<tag k="ssr:stedsnr" v="746146" />
	</node>
	<node id="-26808" lat="69.1492722246" lon="15.7184194515">
		<tag k="name" v="Storøyklubben" />
		<tag k="place" v="islet" />
		<tag k="ssr:stedsnr" v="746145" />
	</node>
	<node id="-26806" lat="69.274180558" lon="15.8750833344">
		<tag k="name" v="Bleiksøya" />
		<tag k="place" v="island" />
		<tag k="ssr:stedsnr" v="746135" />
	</node>
	<node id="-24754" lat="69.0241194409" lon="15.8501527849">
		<tag k="name" v="Leirbukta" />
		<tag k="natural" v="bay" />
		<tag k="ssr:stedsnr" v="237509" />
	</node>
	<node id="-24752" lat="69.0728888923" lon="15.910650012">
		<tag k="name" v="Valneset" />
		<tag k="natural" v="cape" />
		<tag k="ssr:stedsnr" v="237390" />
	</node>
	<node id="-24750" lat="69.3377944474" lon="16.1379250117">
		<tag k="name" v="Steingrunnan" />
		<tag k="natural" v="shoal" />
		<tag k="place" v="locality" />
		<tag k="ssr:stedsnr" v="38564" />
	</node>
	<node id="-26797" lat="69.2106972249" lon="15.7958777831">
		<tag k="name" v="Måholmen" />
		<tag k="place" v="islet" />
		<tag k="ssr:stedsnr" v="746181" />
	</node>
	<node id="-26796" lat="69.3551722234" lon="16.1678416675">
		<tag k="name" v="Grindhalsan" />
		<tag k="natural" v="shoal" />
		<tag k="place" v="locality" />
		<tag k="ssr:stedsnr" v="746180" />
	</node>
	<node id="-24747" lat="69.2143888878" lon="15.8404333202">
		<tag k="name" v="Elholmen" />
		<tag k="place" v="islet" />
		<tag k="ssr:stedsnr" v="36959" />
	</node>
	<node id="-26794" lat="69.3528861118" lon="16.1496722168">
		<tag k="name" v="Hella" />
		<tag k="natural" v="shoal" />
		<tag k="place" v="locality" />
		<tag k="ssr:stedsnr" v="746177" />
	</node>
	<node id="-24743" lat="69.1748555531" lon="16.1012111076">
		<tag k="name" v="Neset" />
		<tag k="natural" v="cape" />
		<tag k="ssr:stedsnr" v="36858" />
	</node>
	<node id="-26789" lat="68.9464194405" lon="15.6347222148">
		<tag k="alt_name" v="Øygardsbukta" />
		<tag k="name" v="Øygårdsbukta" />
		<tag k="natural" v="bay" />
		<tag k="ssr:stedsnr" v="745471" />
	</node>
	<node id="-26787" lat="69.106519444" lon="16.0452499878">
		<tag k="name" v="Bakken" />
		<tag k="natural" v="shoal" />
		<tag k="place" v="locality" />
		<tag k="ssr:stedsnr" v="745238" />
	</node>
	<node id="-26786" lat="69.0866222252" lon="16.0005000087">
		<tag k="name" v="Tugrunnen" />
		<tag k="natural" v="shoal" />
		<tag k="place" v="locality" />
		<tag k="ssr:stedsnr" v="745232" />
	</node>
	<node id="-24737" lat="69.2128916694" lon="15.8289888902">
		<tag k="name" v="Tverrbåan" />
		<tag k="natural" v="shoal" />
		<tag k="place" v="locality" />
		<tag k="ssr:stedsnr" v="229327" />
	</node>
	<node id="-24736" lat="69.1867194443" lon="15.8145000049">
		<tag k="name" v="Kinnvollbukta" />
		<tag k="natural" v="bay" />
		<tag k="ssr:stedsnr" v="228151" />
	</node>
	<node id="-24944" lat="69.1116666644" lon="16.1465388922">
		<tag k="name" v="Haue" />
		<tag k="natural" v="shoal" />
		<tag k="place" v="locality" />
		<tag k="ssr:stedsnr" v="281755" />
	</node>
	<node id="-24733" lat="69.1019888886" lon="15.5623444562">
		<tag k="name" v="Børvågsholman" />
		<tag k="place" v="islet" />
		<tag k="ssr:stedsnr" v="224785" />
	</node>
	<node id="-24732" lat="69.0971999994" lon="15.5620694325">
		<tag k="fixme" v="consider seamark:type=rock or natural=shoal" />
		<tag k="name" v="Kvalvikholtran" />
		<tag k="place" v="islet" />
		<tag k="ssr:stedsnr" v="224784" />
	</node>
	<node id="-26776" lat="69.1357527797" lon="15.5630111211">
		<tag k="name" v="Melaflua" />
		<tag k="natural" v="shoal" />
		<tag k="place" v="locality" />
		<tag k="ssr:stedsnr" v="654354" />
	</node>
	<node id="-26774" lat="69.1513333301" lon="15.6439055654">
		<tag k="fixme" v="consider seamark:type=rock or natural=shoal" />
		<tag k="name" v="Ytre Skavdalsbåen" />
		<tag k="place" v="islet" />
		<tag k="ssr:stedsnr" v="653835" />
	</node>
	<node id="-26773" lat="69.199283333" lon="15.643102776">
		<tag k="name" v="Åa" />
		<tag k="natural" v="shoal" />
		<tag k="place" v="locality" />
		<tag k="ssr:stedsnr" v="653349" />
	</node>
	<node id="-26772" lat="69.2052472186" lon="15.816986122">
		<tag k="name" v="Oluf Antonsagrunnen" />
		<tag k="natural" v="shoal" />
		<tag k="place" v="locality" />
		<tag k="ssr:stedsnr" v="653317" />
	</node>
	<node id="-24723" lat="69.1493416668" lon="15.7656861139">
		<tag k="name" v="Skogvollrevet" />
		<tag k="natural" v="shoal" />
		<tag k="place" v="locality" />
		<tag k="ssr:stedsnr" v="19105" />
	</node>
	<node id="-26770" lat="69.0662305552" lon="15.5202194555">
		<tag k="name" v="Mellaholmen" />
		<tag k="place" v="islet" />
		<tag k="ssr:stedsnr" v="648793" />
	</node>
	<node id="-24719" lat="69.1177083309" lon="15.6047555446">
		<tag k="name" v="Litlelandsøya" />
		<tag k="place" v="island" />
		<tag k="ssr:stedsnr" v="18226" />
	</node>
	<node id="-24716" lat="69.2543361126" lon="15.851238897">
		<tag k="fixme" v="multiple name tags, choose one and add the other to alt_name" />
		<tag k="name" v="Hårbandet;Ytter-Hårbandet" />
		<tag k="place" v="islet" />
		<tag k="ssr:stedsnr" v="18205" />
	</node>
	<node id="-26763" lat="69.2774583346" lon="15.8744583433">
		<tag k="fixme" v="consider seamark:type=rock or natural=shoal" />
		<tag k="name" v="Nordsteinen" />
		<tag k="place" v="islet" />
		<tag k="ssr:stedsnr" v="648302" />
	</node>
	<node id="-24713" lat="69.2795416664" lon="16.1754444341">
		<tag k="name" v="Langneset" />
		<tag k="natural" v="cape" />
		<tag k="ssr:stedsnr" v="18128" />
	</node>
	<node id="-26756" lat="69.2868083375" lon="15.9774972225">
		<tag k="name" v="Leibåen" />
		<tag k="natural" v="shoal" />
		<tag k="place" v="locality" />
		<tag k="ssr:stedsnr" v="644556" />
	</node>
	<node id="-24707" lat="69.2528333308" lon="15.8506999868">
		<tag k="name" v="Inste-Hårbandet" />
		<tag k="place" v="islet" />
		<tag k="ssr:stedsnr" v="224284" />
	</node>
	<node id="-26754" lat="69.0072694429" lon="15.7604777847">
		<tag k="name" v="Sandbanken" />
		<tag k="natural" v="beach" />
		<tag k="place" v="locality" />
		<tag k="ssr:stedsnr" v="643933" />
	</node>
	<node id="-26753" lat="69.068213889" lon="15.5366972249">
		<tag k="name" v="Laneset" />
		<tag k="natural" v="cape" />
		<tag k="ssr:stedsnr" v="643862" />
	</node>
	<node id="-24699" lat="68.9722999981" lon="15.4376666709">
		<tag k="name" v="Nordkeila" />
		<tag k="natural" v="bay" />
		<tag k="ssr:stedsnr" v="222572" />
	</node>
	<node id="-26740" lat="69.2768361088" lon="15.9598527832">
		<tag k="fixme" v="consider seamark:type=rock or natural=shoal" />
		<tag k="name" v="Elveskjeret" />
		<tag k="place" v="islet" />
		<tag k="ssr:stedsnr" v="642577" />
	</node>
	<node id="-24691" lat="69.1530277768" lon="16.085124988">
		<tag k="name" v="Kvalnesberget" />
		<tag k="natural" v="cape" />
		<tag k="ssr:stedsnr" v="221673" />
	</node>
	<node id="-24690" lat="69.140122218" lon="16.0663888926">
		<tag k="fixme" v="consider seamark:type=rock or natural=shoal" />
		<tag k="name" v="Galten" />
		<tag k="place" v="islet" />
		<tag k="ssr:stedsnr" v="221670" />
	</node>
	<node id="-24689" lat="69.3305083304" lon="16.1318777755">
		<tag k="name" v="Ertnan" />
		<tag k="natural" v="shoal" />
		<tag k="place" v="locality" />
		<tag k="ssr:stedsnr" v="221221" />
	</node>
	<node id="-26736" lat="68.9538083321" lon="15.6248388884">
		<tag k="name" v="Lakshammaren" />
		<tag k="natural" v="cape" />
		<tag k="ssr:stedsnr" v="642415" />
	</node>
	<node id="-24686" lat="69.0997472208" lon="15.5398805456">
		<tag k="name" v="Skrinflua" />
		<tag k="natural" v="shoal" />
		<tag k="place" v="locality" />
		<tag k="ssr:stedsnr" v="219883" />
	</node>
	<node id="-26724" lat="68.9820805602" lon="15.6737611012">
		<tag k="name" v="Krøkebærholmen" />
		<tag k="place" v="islet" />
		<tag k="ssr:stedsnr" v="641479" />
	</node>
	<node id="-26719" lat="68.9731611149" lon="15.4347361099">
		<tag k="name" v="Jonsneset" />
		<tag k="natural" v="cape" />
		<tag k="ssr:stedsnr" v="628089" />
	</node>
	<node id="-26714" lat="69.3343055582" lon="16.133905564">
		<tag k="alt_name" v="Ertnskjeran" />
		<tag k="fixme" v="consider seamark:type=rock or natural=shoal" />
		<tag k="name" v="Ertenskjeran" />
		<tag k="place" v="islet" />
		<tag k="ssr:stedsnr" v="625168" />
	</node>
	<node id="-26712" lat="69.2885916648" lon="15.888875005">
		<tag k="name" v="Trua" />
		<tag k="natural" v="shoal" />
		<tag k="place" v="locality" />
		<tag k="ssr:stedsnr" v="625145" />
	</node>
	<node id="-26711" lat="69.3014611153" lon="16.1812416606">
		<tag k="name" v="Trollflua" />
		<tag k="natural" v="shoal" />
		<tag k="place" v="locality" />
		<tag k="ssr:stedsnr" v="625142" />
	</node>
	<node id="-26707" lat="68.873999996" lon="15.4921972179">
		<tag k="fixme" v="consider seamark:type=rock or natural=shoal" />
		<tag k="name" v="Skjoldrevet" />
		<tag k="place" v="islet" />
		<tag k="ssr:stedsnr" v="624726" />
	</node>
	<node id="-26706" lat="68.9199083318" lon="15.5912166648">
		<tag k="bay" v="fjord" />
		<tag k="name" v="Risøysundet" />
		<tag k="natural" v="bay" />
		<tag k="ssr:stedsnr" v="624664" />
	</node>
	<node id="-26703" lat="68.9751638915" lon="15.4114472322">
		<tag k="fixme" v="consider seamark:type=rock or natural=shoal" />
		<tag k="name" v="Kråka" />
		<tag k="place" v="islet" />
		<tag k="ssr:stedsnr" v="624601" />
	</node>
	<node id="-26692" lat="69.1068250021" lon="15.5487444374">
		<tag k="name" v="Vausskjeran" />
		<tag k="natural" v="shoal" />
		<tag k="place" v="locality" />
		<tag k="ssr:stedsnr" v="624270" />
	</node>
	<node id="-26689" lat="69.1361361089" lon="16.0939888814">
		<tag k="alt_name" v="Høgga" />
		<tag k="name" v="Hogga" />
		<tag k="natural" v="shoal" />
		<tag k="place" v="locality" />
		<tag k="ssr:stedsnr" v="624242" />
	</node>
	<node id="-26688" lat="69.1277083333" lon="16.0117055643">
		<tag k="name" v="Saurabogen" />
		<tag k="natural" v="bay" />
		<tag k="ssr:stedsnr" v="624230" />
	</node>
	<node id="-26686" lat="69.2305333312" lon="15.8299222131">
		<tag k="name" v="Kvittjuven" />
		<tag k="natural" v="shoal" />
		<tag k="place" v="locality" />
		<tag k="ssr:stedsnr" v="624188" />
	</node>
	<node id="-26684" lat="69.1628861089" lon="15.7780638977">
		<tag k="name" v="Skogvollbukta" />
		<tag k="natural" v="bay" />
		<tag k="ssr:stedsnr" v="624174" />
	</node>
	<node id="-26681" lat="69.175011115" lon="15.8014750092">
		<tag k="fixme" v="multiple name tags, choose one and add the other to alt_name" />
		<tag k="name" v="Nesholman;Skogvolløyan" />
		<tag k="place" v="islet" />
		<tag k="ssr:stedsnr" v="624160" />
	</node>
	<node id="-26680" lat="69.2741944428" lon="15.8796222259">
		<tag k="name" v="Kilakongshamn" />
		<tag k="natural" v="cape" />
		<tag k="ssr:stedsnr" v="624157" />
	</node>
	<node id="-26679" lat="69.1764249983" lon="15.7457472336">
		<tag k="fixme" v="multiple name tags, choose one and add the other to alt_name" />
		<tag k="name" v="Skogvollklakken;Store Klakken" />
		<tag k="place" v="islet" />
		<tag k="ssr:stedsnr" v="624155" />
	</node>
	<node id="-26673" lat="69.0461222227" lon="15.8750361094">
		<tag k="name" v="Åholmbukta" />
		<tag k="natural" v="bay" />
		<tag k="ssr:stedsnr" v="624047" />
	</node>
	<node id="-26653" lat="69.0272527768" lon="15.8747833274">
		<tag k="fixme" v="consider seamark:type=rock or natural=shoal" />
		<tag k="name" v="Gammelosten" />
		<tag k="place" v="islet" />
		<tag k="ssr:stedsnr" v="600461" />
	</node>
	<node id="-26651" lat="69.1388666638" lon="15.6269055484">
		<tag k="name" v="Melabåen" />
		<tag k="natural" v="shoal" />
		<tag k="place" v="locality" />
		<tag k="ssr:stedsnr" v="593314" />
	</node>
	<node id="-26650" lat="69.1397805594" lon="15.591802768">
		<tag k="name" v="Rognfjellskallen" />
		<tag k="natural" v="shoal" />
		<tag k="place" v="locality" />
		<tag k="ssr:stedsnr" v="593312" />
	</node>
	<node id="-26649" lat="69.2837500002" lon="15.9301638906">
		<tag k="name" v="Hella" />
		<tag k="natural" v="shoal" />
		<tag k="place" v="locality" />
		<tag k="ssr:stedsnr" v="593016" />
	</node>
	<node id="-26648" lat="69.1968638917" lon="15.6251166768">
		<tag k="name" v="Tomåsen" />
		<tag k="natural" v="shoal" />
		<tag k="place" v="locality" />
		<tag k="ssr:stedsnr" v="592375" />
	</node>
	<node id="-26647" lat="69.1806555522" lon="15.7914555524">
		<tag k="fixme" v="consider seamark:type=rock or natural=shoal" />
		<tag k="name" v="Faulskjeret" />
		<tag k="place" v="islet" />
		<tag k="ssr:stedsnr" v="592155" />
	</node>
	<node id="-26645" lat="69.0682000023" lon="15.5269138867">
		<tag k="name" v="Gabrieløyra" />
		<tag k="natural" v="cape" />
		<tag k="ssr:stedsnr" v="588828" />
	</node>
	<node id="-26644" lat="69.0848694443" lon="15.5534194448">
		<tag k="name" v="Skankevågen" />
		<tag k="natural" v="bay" />
		<tag k="ssr:stedsnr" v="588804" />
	</node>
	<node id="-26630" lat="69.2086583303" lon="15.8368805475">
		<tag k="name" v="Moholmen" />
		<tag k="place" v="islet" />
		<tag k="ssr:stedsnr" v="588248" />
	</node>
</osm>
