<?xml version="1.0" encoding="UTF-8"?>
<osm generator="osmapis" version="0.6">
	<node id="-206336" lat="69.1382472233" lon="16.0039638777">
		<tag k="name" v="Stokkelvmyra" />
		<tag k="natural" v="wetland" />
		<tag k="ssr:stedsnr" v="157309" />
	</node>
	<node id="-207359" lat="69.188158333" lon="15.9664388821">
		<tag k="name" v="Kvalnesmarka" />
		<tag k="place" v="locality" />
		<tag k="ssr:stedsnr" v="57315" />
	</node>
	<node id="-206845" lat="68.8795499964" lon="15.6481333416">
		<tag k="name" v="Gropa" />
		<tag k="natural" v="wetland" />
		<tag k="ssr:stedsnr" v="703835" />
	</node>
	<node id="-206844" lat="68.8371333365" lon="15.6368444546">
		<tag k="name" v="Nyskrea" />
		<tag k="place" v="locality" />
		<tag k="ssr:stedsnr" v="703804" />
	</node>
	<node id="-206843" lat="69.1333027772" lon="15.7129111055">
		<tag k="name" v="Hektholmyra" />
		<tag k="natural" v="wetland" />
		<tag k="ssr:stedsnr" v="703480" />
	</node>
	<node id="-208378" lat="69.0015083338" lon="15.6569499919">
		<tag k="name" v="Nordliura" />
		<tag k="natural" v="scree" />
		<tag k="ssr:stedsnr" v="825308" />
	</node>
	<node id="-208377" lat="69.1490694441" lon="15.9998555554">
		<tag k="name" v="Krampan" />
		<tag k="natural" v="wetland" />
		<tag k="ssr:stedsnr" v="825303" />
	</node>
	<node id="-207349" lat="69.021005552" lon="15.5777166762">
		<tag k="name" v="Kuforet" />
		<tag k="natural" v="wetland" />
		<tag k="ssr:stedsnr" v="42763" />
	</node>
	<node id="-207849" lat="69.1816611076" lon="16.0804250046">
		<tag k="name" v="Storraet" />
		<tag k="place" v="locality" />
		<tag k="ssr:stedsnr" v="400904" />
	</node>
	<node id="-206332" lat="68.955466664" lon="15.7162444309">
		<tag k="name" v="Korset" />
		<tag k="natural" v="stone" />
		<tag k="ssr:stedsnr" v="278455" />
	</node>
	<node id="-206822" lat="69.0018916676" lon="15.6938722174">
		<tag k="name" v="Vasslåtta" />
		<tag k="place" v="locality" />
		<tag k="ssr:stedsnr" v="702334" />
	</node>
	<node id="-207185" lat="68.8945833288" lon="15.6330222255">
		<tag k="name" v="Heimemyran" />
		<tag k="natural" v="wetland" />
		<tag k="ssr:stedsnr" v="950192" />
	</node>
	<node id="-206820" lat="68.9582972186" lon="15.7320083329">
		<tag k="name" v="Gregusmyra" />
		<tag k="natural" v="wetland" />
		<tag k="ssr:stedsnr" v="702078" />
	</node>
	<node id="-207331" lat="69.2166250024" lon="15.9018888856">
		<tag k="name" v="Fellemyra" />
		<tag k="natural" v="wetland" />
		<tag k="ssr:stedsnr" v="36944" />
	</node>
	<node id="-207842" lat="68.8330805594" lon="15.669063892">
		<tag k="name" v="Bjørnlimyra" />
		<tag k="natural" v="wetland" />
		<tag k="ssr:stedsnr" v="399993" />
	</node>
	<node id="-207841" lat="69.2733166697" lon="15.9842083435">
		<tag k="name" v="Refsevollen" />
		<tag k="place" v="locality" />
		<tag k="ssr:stedsnr" v="399595" />
	</node>
	<node id="-206816" lat="68.9718166622" lon="15.589938895">
		<tag k="name" v="Eidemyran" />
		<tag k="natural" v="wetland" />
		<tag k="ssr:stedsnr" v="542958" />
	</node>
	<node id="-206814" lat="68.9274250002" lon="15.6243166615">
		<tag k="name" v="Vednesmyra" />
		<tag k="natural" v="wetland" />
		<tag k="ssr:stedsnr" v="689520" />
	</node>
	<node id="-206810" lat="69.0549111085" lon="15.6586500046">
		<tag k="name" v="Dalmyra" />
		<tag k="natural" v="wetland" />
		<tag k="ssr:stedsnr" v="525191" />
	</node>
	<node id="-207321" lat="68.8770250016" lon="15.6617000001">
		<tag k="name" v="Hermannlasteinen" />
		<tag k="natural" v="stone" />
		<tag k="ssr:stedsnr" v="35870" />
	</node>
	<node id="-206808" lat="69.095988889" lon="15.6944666727">
		<tag k="name" v="Galdersteinen" />
		<tag k="natural" v="stone" />
		<tag k="ssr:stedsnr" v="525188" />
	</node>
	<node id="-207318" lat="69.2351944458" lon="15.8697750005">
		<tag k="name" v="Karveneset" />
		<tag k="place" v="locality" />
		<tag k="ssr:stedsnr" v="35699" />
	</node>
	<node id="-206329" lat="69.1317666644" lon="16.0213027737">
		<tag k="name" v="Stokkelvsteinen" />
		<tag k="natural" v="stone" />
		<tag k="ssr:stedsnr" v="278376" />
	</node>
	<node id="-207315" lat="69.0211166687" lon="15.7524222182">
		<tag k="name" v="Sør-Banmyra" />
		<tag k="natural" v="wetland" />
		<tag k="ssr:stedsnr" v="35583" />
	</node>
	<node id="-207824" lat="68.8614944452" lon="15.6553083344">
		<tag k="name" v="Nerlemmen" />
		<tag k="natural" v="wetland" />
		<tag k="ssr:stedsnr" v="399109" />
	</node>
	<node id="-208334" lat="68.9414361142" lon="15.6685333295">
		<tag k="alt_name" v="Trollurda" />
		<tag k="name" v="Trollura" />
		<tag k="natural" v="scree" />
		<tag k="ssr:stedsnr" v="806468" />
	</node>
	<node id="-207309" lat="69.1867611081" lon="15.9335638823">
		<tag k="name" v="Slåtta" />
		<tag k="place" v="locality" />
		<tag k="ssr:stedsnr" v="35459" />
	</node>
	<node id="-206222" lat="69.2651444484" lon="16.1229000116">
		<tag k="name" v="Myrkolla" />
		<tag k="natural" v="wetland" />
		<tag k="ssr:stedsnr" v="79223" />
	</node>
	<node id="-207814" lat="68.9933138915" lon="15.7101888849">
		<tag k="name" v="Lanesskogen" />
		<tag k="place" v="locality" />
		<tag k="ssr:stedsnr" v="382365" />
	</node>
	<node id="-207296" lat="68.9027722241" lon="15.4287972274">
		<tag k="name" v="Vollan" />
		<tag k="place" v="locality" />
		<tag k="ssr:stedsnr" v="35027" />
	</node>
	<node id="-206358" lat="69.255072218" lon="15.8834222296">
		<tag k="name" v="Oterviksteinan" />
		<tag k="natural" v="scree" />
		<tag k="ssr:stedsnr" v="163277" />
	</node>
	<node id="-206921" lat="69.0224222249" lon="15.755394453">
		<tag k="name" v="Banmyra" />
		<tag k="natural" v="wetland" />
		<tag k="ssr:stedsnr" v="726270" />
	</node>
	<node id="-208302" lat="69.1665888856" lon="15.9660888921">
		<tag k="name" v="Olaslåtta" />
		<tag k="place" v="locality" />
		<tag k="ssr:stedsnr" v="785857" />
	</node>
	<node id="-208296" lat="69.0271694443" lon="15.8284388803">
		<tag k="name" v="Bjørnsteinmyra" />
		<tag k="natural" v="wetland" />
		<tag k="ssr:stedsnr" v="783463" />
	</node>
	<node id="-207270" lat="69.1511749974" lon="15.8508944493">
		<tag k="name" v="Skogvollmyran" />
		<tag k="natural" v="wetland" />
		<tag k="ssr:stedsnr" v="18144" />
	</node>
	<node id="-206245" lat="68.9163194471" lon="15.6532472164">
		<tag k="name" v="Littjejorda" />
		<tag k="place" v="locality" />
		<tag k="ssr:stedsnr" v="101878" />
	</node>
	<node id="-206240" lat="69.1932361153" lon="16.0810722265">
		<tag k="name" v="Hektoraet" />
		<tag k="place" v="locality" />
		<tag k="ssr:stedsnr" v="97907" />
	</node>
	<node id="-206239" lat="69.2118361081" lon="16.0056916666">
		<tag k="name" v="Trollkjerka" />
		<tag k="natural" v="stone" />
		<tag k="ssr:stedsnr" v="97564" />
	</node>
	<node id="-207766" lat="69.0323861099" lon="15.7132666764">
		<tag k="name" v="Sommarlunden" />
		<tag k="place" v="locality" />
		<tag k="ssr:stedsnr" v="362284" />
	</node>
	<node id="-206229" lat="69.0154055523" lon="15.7476472279">
		<tag k="name" v="Rundmyra" />
		<tag k="natural" v="wetland" />
		<tag k="ssr:stedsnr" v="96371" />
	</node>
	<node id="-206738" lat="68.9358250001" lon="15.5410833351">
		<tag k="name" v="Mellaskogen" />
		<tag k="place" v="locality" />
		<tag k="ssr:stedsnr" v="482952" />
	</node>
	<node id="-208273" lat="69.0200861102" lon="15.7841972336">
		<tag k="name" v="Rognebuskmyra" />
		<tag k="natural" v="wetland" />
		<tag k="ssr:stedsnr" v="764843" />
	</node>
	<node id="-208271" lat="68.993541671" lon="15.7091583381">
		<tag k="name" v="Sletten" />
		<tag k="place" v="locality" />
		<tag k="ssr:stedsnr" v="764778" />
	</node>
	<node id="-206734" lat="69.0315694473" lon="15.8367666676">
		<tag k="name" v="Skjellkjerran" />
		<tag k="place" v="locality" />
		<tag k="ssr:stedsnr" v="479465" />
	</node>
	<node id="-207756" lat="69.122933337" lon="15.6382416758">
		<tag k="name" v="Leirvikmyra" />
		<tag k="natural" v="wetland" />
		<tag k="ssr:stedsnr" v="362023" />
	</node>
	<node id="-208267" lat="68.9551361152" lon="15.7029083234">
		<tag k="name" v="Steinhola" />
		<tag k="natural" v="stone" />
		<tag k="ssr:stedsnr" v="764426" />
	</node>
	<node id="-208266" lat="68.9565527751" lon="15.7475250036">
		<tag k="name" v="Skavsteinen" />
		<tag k="natural" v="stone" />
		<tag k="ssr:stedsnr" v="764419" />
	</node>
	<node id="-207233" lat="69.004252776" lon="15.5416888822">
		<tag k="name" v="Dranglan" />
		<tag k="place" v="locality" />
		<tag k="ssr:stedsnr" v="967967" />
	</node>
	<node id="-206719" lat="69.1464638926" lon="15.9662555544">
		<tag k="name" v="Sauramyran" />
		<tag k="natural" v="wetland" />
		<tag k="ssr:stedsnr" v="665386" />
	</node>
	<node id="-207230" lat="69.1618138862" lon="15.9746416612">
		<tag k="name" v="Momyra" />
		<tag k="natural" v="wetland" />
		<tag k="ssr:stedsnr" v="967829" />
	</node>
	<node id="-207741" lat="69.1365416643" lon="15.793052771">
		<tag k="name" v="Langmyra" />
		<tag k="natural" v="wetland" />
		<tag k="ssr:stedsnr" v="345298" />
	</node>
	<node id="-208252" lat="68.8740972258" lon="15.6735833278">
		<tag k="name" v="Høgtindskogen" />
		<tag k="place" v="locality" />
		<tag k="ssr:stedsnr" v="763850" />
	</node>
	<node id="-208247" lat="69.1543861118" lon="16.0217305654">
		<tag k="name" v="Mikkjelmyra" />
		<tag k="natural" v="wetland" />
		<tag k="ssr:stedsnr" v="763383" />
	</node>
	<node id="-208246" lat="69.008561112" lon="15.7400611176">
		<tag k="name" v="Jursteinmyra" />
		<tag k="natural" v="wetland" />
		<tag k="ssr:stedsnr" v="763382" />
	</node>
	<node id="-208245" lat="68.867163886" lon="15.6549555549">
		<tag k="name" v="Vester-Krengelvassmyra" />
		<tag k="natural" v="wetland" />
		<tag k="ssr:stedsnr" v="763100" />
	</node>
	<node id="-207219" lat="69.1967861092" lon="15.8897638929">
		<tag k="name" v="Torvmyra" />
		<tag k="natural" v="wetland" />
		<tag k="ssr:stedsnr" v="946957" />
	</node>
	<node id="-207217" lat="69.3004999998" lon="16.0559499867">
		<tag k="name" v="Søylen" />
		<tag k="place" v="locality" />
		<tag k="ssr:stedsnr" v="946854" />
	</node>
	<node id="-207216" lat="69.0093194475" lon="15.6208861053">
		<tag k="name" v="Taraldslåtta" />
		<tag k="place" v="locality" />
		<tag k="ssr:stedsnr" v="945348" />
	</node>
	<node id="-206188" lat="69.0057222231" lon="15.5506277771">
		<tag k="name" v="Fjærmyran" />
		<tag k="natural" v="wetland" />
		<tag k="ssr:stedsnr" v="239983" />
	</node>
	<node id="-206187" lat="69.0060611091" lon="15.5049916572">
		<tag k="name" v="Bjørnskinnmyra" />
		<tag k="natural" v="wetland" />
		<tag k="ssr:stedsnr" v="239979" />
	</node>
	<node id="-207717" lat="68.879138889" lon="15.6384472298">
		<tag k="name" v="Aksla" />
		<tag k="natural" v="scree" />
		<tag k="ssr:stedsnr" v="339804" />
	</node>
	<node id="-207714" lat="69.2039361126" lon="16.0624222317">
		<tag k="name" v="Grønnskogsteinen" />
		<tag k="natural" v="stone" />
		<tag k="ssr:stedsnr" v="339536" />
	</node>
	<node id="-207198" lat="68.9586277733" lon="15.8082166681">
		<tag k="name" v="Steinhuset" />
		<tag k="natural" v="stone" />
		<tag k="ssr:stedsnr" v="905005" />
	</node>
	<node id="-206173" lat="69.1296277743" lon="15.8155166577">
		<tag k="name" v="Teppsteinen" />
		<tag k="natural" v="stone" />
		<tag k="ssr:stedsnr" v="42307" />
	</node>
	<node id="-207196" lat="69.026716665" lon="15.8239138855">
		<tag k="name" v="Bjørnsteinan" />
		<tag k="natural" v="stone" />
		<tag k="ssr:stedsnr" v="904463" />
	</node>
	<node id="-207705" lat="69.1032638927" lon="15.9045027844">
		<tag k="name" v="Stormyra" />
		<tag k="natural" v="wetland" />
		<tag k="ssr:stedsnr" v="339296" />
	</node>
	<node id="-206308" lat="69.0915861083" lon="15.8973166586">
		<tag k="name" v="Sellevollmyra" />
		<tag k="natural" v="wetland" />
		<tag k="ssr:stedsnr" v="138206" />
	</node>
	<node id="-207758" lat="69.1042333343" lon="15.7434694546">
		<tag k="name" v="Høgdemyra" />
		<tag k="natural" v="wetland" />
		<tag k="ssr:stedsnr" v="362230" />
	</node>
	<node id="-207697" lat="69.0098944485" lon="15.74240556">
		<tag k="name" v="Jursteinan" />
		<tag k="natural" v="stone" />
		<tag k="ssr:stedsnr" v="338300" />
	</node>
	<node id="-208354" lat="69.2596083327" lon="16.1197083327">
		<tag k="name" v="Stormyra" />
		<tag k="natural" v="wetland" />
		<tag k="ssr:stedsnr" v="807214" />
	</node>
	<node id="-206354" lat="69.167427782" lon="16.0917388905">
		<tag k="name" v="Tennholmyra" />
		<tag k="natural" v="wetland" />
		<tag k="ssr:stedsnr" v="279873" />
	</node>
	<node id="-207170" lat="68.9994388904" lon="15.6302833423">
		<tag k="name" v="Raet" />
		<tag k="place" v="locality" />
		<tag k="ssr:stedsnr" v="946285" />
	</node>
	<node id="-207243" lat="69.0511055554" lon="15.6084083312">
		<tag k="name" v="Holtran" />
		<tag k="place" v="locality" />
		<tag k="ssr:stedsnr" v="969166" />
	</node>
	<node id="-207165" lat="68.8799416695" lon="15.4814249981">
		<tag k="name" v="Gropura" />
		<tag k="natural" v="scree" />
		<tag k="ssr:stedsnr" v="946060" />
	</node>
	<node id="-208188" lat="69.0520638865" lon="15.5243722315">
		<tag k="landuse" v="meadow" />
		<tag k="name" v="Kongsvollen" />
		<tag k="ssr:stedsnr" v="648752" />
	</node>
	<node id="-207302" lat="68.8828666707" lon="15.6149027891">
		<tag k="name" v="Høystakkmyra" />
		<tag k="natural" v="wetland" />
		<tag k="ssr:stedsnr" v="35294" />
	</node>
	<node id="-207671" lat="68.8141583358" lon="15.7181222337">
		<tag k="name" v="Laskogen" />
		<tag k="place" v="locality" />
		<tag k="ssr:stedsnr" v="321089" />
	</node>
	<node id="-207158" lat="69.2122666626" lon="15.9582666752">
		<tag k="name" v="Sortebekkheia" />
		<tag k="natural" v="wetland" />
		<tag k="ssr:stedsnr" v="945455" />
	</node>
	<node id="-208178" lat="68.9089305589" lon="15.7198166772">
		<tag k="name" v="Skjellmyra" />
		<tag k="natural" v="wetland" />
		<tag k="ssr:stedsnr" v="646170" />
	</node>
	<node id="-206128" lat="69.2454277802" lon="15.8610055678">
		<tag k="name" v="Storura" />
		<tag k="natural" v="scree" />
		<tag k="ssr:stedsnr" v="224281" />
	</node>
	<node id="-207149" lat="68.8795499964" lon="15.6481333416">
		<tag k="name" v="Sæterraet" />
		<tag k="natural" v="wetland" />
		<tag k="ssr:stedsnr" v="825814" />
	</node>
	<node id="-206625" lat="69.1801888872" lon="15.9847166748">
		<tag k="name" v="Svartskogen" />
		<tag k="place" v="locality" />
		<tag k="ssr:stedsnr" v="360310" />
	</node>
	<node id="-206623" lat="68.957788892" lon="15.8146750068">
		<tag k="name" v="Steinhusmyra" />
		<tag k="natural" v="wetland" />
		<tag k="ssr:stedsnr" v="359008" />
	</node>
	<node id="-206106" lat="69.1033555526" lon="15.9224694372">
		<tag k="name" v="Stormyran" />
		<tag k="natural" v="wetland" />
		<tag k="ssr:stedsnr" v="218878" />
	</node>
	<node id="-206199" lat="69.1135333303" lon="15.6334694504">
		<tag k="name" v="Verselsteinen" />
		<tag k="natural" v="stone" />
		<tag k="ssr:stedsnr" v="241226" />
	</node>
	<node id="-208150" lat="68.8690888917" lon="15.6563555505">
		<tag k="name" v="Fjellvassmyra" />
		<tag k="natural" v="wetland" />
		<tag k="ssr:stedsnr" v="642088" />
	</node>
	<node id="-206101" lat="69.2177222234" lon="15.8664750114">
		<tag k="name" v="Storura" />
		<tag k="natural" v="scree" />
		<tag k="ssr:stedsnr" v="218635" />
	</node>
	<node id="-208146" lat="68.9895194409" lon="15.6377472203">
		<tag k="name" v="Gråsteinmyra" />
		<tag k="natural" v="wetland" />
		<tag k="ssr:stedsnr" v="641481" />
	</node>
	<node id="-206608" lat="69.071713888" lon="15.6288749936">
		<tag k="name" v="Sørmyra" />
		<tag k="natural" v="wetland" />
		<tag k="ssr:stedsnr" v="484185" />
	</node>
	<node id="-206095" lat="68.8843194473" lon="15.6222055678">
		<tag k="name" v="Piksteinmyra" />
		<tag k="natural" v="wetland" />
		<tag k="ssr:stedsnr" v="218238" />
	</node>
	<node id="-206094" lat="68.8820305533" lon="15.6297277743">
		<tag k="name" v="Storsteinmyra" />
		<tag k="natural" v="wetland" />
		<tag k="ssr:stedsnr" v="218235" />
	</node>
	<node id="-206605" lat="69.258688893" lon="15.9273444529">
		<tag k="name" v="Stormyra" />
		<tag k="natural" v="wetland" />
		<tag k="ssr:stedsnr" v="339591" />
	</node>
	<node id="-206600" lat="69.0117638884" lon="15.5997138773">
		<tag k="name" v="Bjørnlisteinan" />
		<tag k="natural" v="stone" />
		<tag k="ssr:stedsnr" v="482982" />
	</node>
	<node id="-206721" lat="69.0560333293" lon="15.6583305504">
		<tag k="name" v="Brekkmyra" />
		<tag k="natural" v="wetland" />
		<tag k="ssr:stedsnr" v="462927" />
	</node>
	<node id="-206806" lat="68.9110500034" lon="15.6931889002">
		<tag k="name" v="Storjordmyran" />
		<tag k="natural" v="wetland" />
		<tag k="ssr:stedsnr" v="525185" />
	</node>
	<node id="-206592" lat="69.0220444482" lon="15.7676722346">
		<tag k="name" v="Dungsmoget" />
		<tag k="natural" v="wetland" />
		<tag k="ssr:stedsnr" v="480486" />
	</node>
	<node id="-207061" lat="68.8648361099" lon="15.6374638804">
		<tag k="name" v="Øverlemmen" />
		<tag k="natural" v="wetland" />
		<tag k="ssr:stedsnr" v="763103" />
	</node>
	<node id="-207604" lat="69.0882805521" lon="15.6452666656">
		<tag k="name" v="Seljordmyra" />
		<tag k="natural" v="wetland" />
		<tag k="ssr:stedsnr" v="180214" />
	</node>
	<node id="-206718" lat="69.1456888878" lon="16.0025194438">
		<tag k="name" v="Sivmyra" />
		<tag k="natural" v="wetland" />
		<tag k="ssr:stedsnr" v="665381" />
	</node>
	<node id="-207081" lat="69.0874111098" lon="15.7366722247">
		<tag k="name" v="Hallarsteinan" />
		<tag k="natural" v="stone" />
		<tag k="ssr:stedsnr" v="787236" />
	</node>
	<node id="-207078" lat="69.0731305517" lon="15.6191805513">
		<tag k="name" v="Nordmyra" />
		<tag k="natural" v="wetland" />
		<tag k="ssr:stedsnr" v="787203" />
	</node>
	<node id="-207075" lat="69.255591666" lon="16.0093638888">
		<tag k="name" v="Haugnesenga" />
		<tag k="place" v="locality" />
		<tag k="ssr:stedsnr" v="786818" />
	</node>
	<node id="-207584" lat="69.0720416681" lon="15.5683999965">
		<tag k="name" v="Holan" />
		<tag k="natural" v="wetland" />
		<tag k="ssr:stedsnr" v="163807" />
	</node>
	<node id="-207583" lat="69.0731166669" lon="15.5897777867">
		<tag k="name" v="Jakobbekkmyra" />
		<tag k="natural" v="wetland" />
		<tag k="ssr:stedsnr" v="163805" />
	</node>
	<node id="-207582" lat="69.0206555594" lon="15.5828889006">
		<tag k="name" v="Storskogen" />
		<tag k="place" v="locality" />
		<tag k="ssr:stedsnr" v="163791" />
	</node>
	<node id="-207577" lat="69.1535416709" lon="15.8318472231">
		<tag k="name" v="Gamtofta" />
		<tag k="natural" v="wetland" />
		<tag k="ssr:stedsnr" v="163283" />
	</node>
	<node id="-207062" lat="68.9579027816" lon="15.7023222124">
		<tag k="name" v="Småskogen" />
		<tag k="place" v="locality" />
		<tag k="ssr:stedsnr" v="764055" />
	</node>
	<node id="-207573" lat="68.8675055515" lon="15.6712194531">
		<tag k="name" v="Auster-Krengelvassmyra" />
		<tag k="natural" v="wetland" />
		<tag k="ssr:stedsnr" v="161822" />
	</node>
	<node id="-207056" lat="69.0279861091" lon="15.6131527816">
		<tag k="name" v="Labakkmyra" />
		<tag k="natural" v="wetland" />
		<tag k="ssr:stedsnr" v="909156" />
	</node>
	<node id="-206540" lat="68.8990361109" lon="15.4719583348">
		<tag k="name" v="Trollvassflægern" />
		<tag k="natural" v="scree" />
		<tag k="ssr:stedsnr" v="460981" />
	</node>
	<node id="-208075" lat="69.0255472215" lon="15.8463277886">
		<tag k="landuse" v="meadow" />
		<tag k="name" v="Småholman" />
		<tag k="ssr:stedsnr" v="600467" />
	</node>
	<node id="-207223" lat="69.0179833337" lon="15.7966111149">
		<tag k="name" v="Littjeramyra" />
		<tag k="natural" v="wetland" />
		<tag k="ssr:stedsnr" v="947805" />
	</node>
	<node id="-207557" lat="69.099188891" lon="15.936461114">
		<tag k="name" v="Baråmyran" />
		<tag k="natural" v="wetland" />
		<tag k="ssr:stedsnr" v="157862" />
	</node>
	<node id="-207556" lat="69.0157805598" lon="15.7666027777">
		<tag k="name" v="Holraet" />
		<tag k="place" v="locality" />
		<tag k="ssr:stedsnr" v="157810" />
	</node>
	<node id="-207734" lat="68.9130916656" lon="15.5379111206">
		<tag k="name" v="Sæterskogen" />
		<tag k="place" v="locality" />
		<tag k="ssr:stedsnr" v="343918" />
	</node>
	<node id="-207051" lat="69.0162000006" lon="15.5553944501">
		<tag k="name" v="Bjønnholmyran" />
		<tag k="natural" v="wetland" />
		<tag k="ssr:stedsnr" v="907968" />
	</node>
	<node id="-206526" lat="69.0101361103" lon="15.6801222325">
		<tag k="name" v="Tynnemyra" />
		<tag k="natural" v="wetland" />
		<tag k="ssr:stedsnr" v="460359" />
	</node>
	<node id="-207733" lat="68.9335222242" lon="15.7246805526">
		<tag k="name" v="Grønnjorda" />
		<tag k="place" v="locality" />
		<tag k="ssr:stedsnr" v="343902" />
	</node>
	<node id="-206523" lat="68.8618916639" lon="15.6800222326">
		<tag k="name" v="Høystakkslåtten" />
		<tag k="place" v="locality" />
		<tag k="ssr:stedsnr" v="460170" />
	</node>
	<node id="-206520" lat="69.1409416706" lon="15.7351555509">
		<tag k="name" v="Roksmyra" />
		<tag k="natural" v="wetland" />
		<tag k="ssr:stedsnr" v="460005" />
	</node>
	<node id="-207539" lat="69.0563944454" lon="15.8724611188">
		<tag k="name" v="Gråsteinmyra" />
		<tag k="natural" v="wetland" />
		<tag k="ssr:stedsnr" v="157247" />
	</node>
	<node id="-207537" lat="68.8628750009" lon="15.669241674">
		<tag k="name" v="Inner-Krengelvassmyra" />
		<tag k="natural" v="wetland" />
		<tag k="ssr:stedsnr" v="157118" />
	</node>
	<node id="-206510" lat="69.2060388908" lon="16.1100333442">
		<tag k="alt_name" v="Breidvikøyra" />
		<tag k="name" v="Breivikøyra" />
		<tag k="place" v="locality" />
		<tag k="ssr:stedsnr" v="260212" />
	</node>
	<node id="-206400" lat="69.0205277785" lon="15.4829750105">
		<tag k="name" v="Breiteigan" />
		<tag k="place" v="locality" />
		<tag k="ssr:stedsnr" v="285781" />
	</node>
	<node id="-207019" lat="69.128833331" lon="15.6784555458">
		<tag k="name" v="Kviltuvmyra" />
		<tag k="natural" v="wetland" />
		<tag k="ssr:stedsnr" v="726015" />
	</node>
	<node id="-207527" lat="69.1882694413" lon="16.057497218">
		<tag k="name" v="Nordelvmyra" />
		<tag k="natural" v="wetland" />
		<tag k="ssr:stedsnr" v="156351" />
	</node>
	<node id="-207526" lat="69.1186944447" lon="15.9372472108">
		<tag k="name" v="Myran" />
		<tag k="natural" v="wetland" />
		<tag k="ssr:stedsnr" v="156344" />
	</node>
	<node id="-207525" lat="69.0004222203" lon="15.7178305656">
		<tag k="name" v="Ellingraet" />
		<tag k="place" v="locality" />
		<tag k="ssr:stedsnr" v="156343" />
	</node>
	<node id="-206499" lat="68.9224333294" lon="15.7936638992">
		<tag k="name" v="Nålmyra" />
		<tag k="natural" v="wetland" />
		<tag k="ssr:stedsnr" v="238002" />
	</node>
	<node id="-208031" lat="69.2796555598" lon="15.9861916677">
		<tag k="name" v="Stormyra" />
		<tag k="natural" v="wetland" />
		<tag k="ssr:stedsnr" v="582577" />
	</node>
	<node id="-207005" lat="69.2397388862" lon="15.8543083284">
		<tag k="name" v="Huldersteinen" />
		<tag k="natural" v="stone" />
		<tag k="ssr:stedsnr" v="709308" />
	</node>
	<node id="-208023" lat="68.8739944459" lon="15.6608000008">
		<tag k="name" v="Høgtindmyra" />
		<tag k="natural" v="wetland" />
		<tag k="ssr:stedsnr" v="581864" />
	</node>
	<node id="-206486" lat="69.159805552" lon="15.9410277756">
		<tag k="name" v="Andmyran" />
		<tag k="natural" v="wetland" />
		<tag k="ssr:stedsnr" v="443156" />
	</node>
	<node id="-208533" lat="68.9954916627" lon="15.5357972269">
		<tag k="name" v="Melamyran" />
		<tag k="natural" v="wetland" />
		<tag k="ssr:stedsnr" v="967981" />
	</node>
	<node id="-208019" lat="69.0180833342" lon="15.7589249965">
		<tag k="name" v="Mølneraet" />
		<tag k="place" v="locality" />
		<tag k="ssr:stedsnr" v="581396" />
	</node>
	<node id="-208067" lat="69.069744445" lon="15.5316916541">
		<tag k="name" v="Nordøyra" />
		<tag k="place" v="locality" />
		<tag k="ssr:stedsnr" v="588831" />
	</node>
	<node id="-208528" lat="69.0320444486" lon="15.8254916639">
		<tag k="name" v="Peholmyra" />
		<tag k="natural" v="wetland" />
		<tag k="ssr:stedsnr" v="965487" />
	</node>
	<node id="-208014" lat="68.8574388923" lon="15.6649027793">
		<tag k="name" v="Trolldalsmyra" />
		<tag k="natural" v="wetland" />
		<tag k="ssr:stedsnr" v="581161" />
	</node>
	<node id="-208522" lat="69.0314083289" lon="15.5421583408">
		<tag k="name" v="Brørn" />
		<tag k="natural" v="scree" />
		<tag k="ssr:stedsnr" v="952757" />
	</node>
	<node id="-208009" lat="68.9073638927" lon="15.4354583375">
		<tag k="name" v="Dalura" />
		<tag k="natural" v="scree" />
		<tag k="ssr:stedsnr" v="581020" />
	</node>
	<node id="-208519" lat="69.0220416653" lon="15.5813972186">
		<tag k="name" v="Bærra-Rijda" />
		<tag k="natural" v="wetland" />
		<tag k="ssr:stedsnr" v="952779" />
	</node>
	<node id="-207126" lat="68.9426888887" lon="15.7692500118">
		<tag k="name" v="Lovikmyra" />
		<tag k="natural" v="wetland" />
		<tag k="ssr:stedsnr" v="928447" />
	</node>
	<node id="-206699" lat="69.1475472267" lon="15.7688083327">
		<tag k="landuse" v="quarry" />
		<tag k="name" v="Storgrustaket" />
		<tag k="ssr:stedsnr" v="527298" />
	</node>
	<node id="-206569" lat="69.1844472256" lon="15.9581027665">
		<tag k="name" v="Kvannskogen" />
		<tag k="place" v="locality" />
		<tag k="ssr:stedsnr" v="300366" />
	</node>
	<node id="-208511" lat="68.8865527757" lon="15.7344888782">
		<tag k="name" v="Rundskogen" />
		<tag k="place" v="locality" />
		<tag k="ssr:stedsnr" v="950841" />
	</node>
	<node id="-207485" lat="69.0189388849" lon="15.4985805572">
		<tag k="name" v="Bømyra" />
		<tag k="natural" v="wetland" />
		<tag k="ssr:stedsnr" v="138363" />
	</node>
	<node id="-206966" lat="69.1055027734" lon="15.944697224">
		<tag k="name" v="Vitje" />
		<tag k="natural" v="wetland" />
		<tag k="ssr:stedsnr" v="885836" />
	</node>
	<node id="-206959" lat="68.9922388929" lon="15.6649722287">
		<tag k="name" v="Riarraet" />
		<tag k="place" v="locality" />
		<tag k="ssr:stedsnr" v="885523" />
	</node>
	<node id="-207549" lat="68.8855000011" lon="15.5797277737">
		<tag k="name" v="Ørnsteinen" />
		<tag k="natural" v="stone" />
		<tag k="ssr:stedsnr" v="157483" />
	</node>
	<node id="-206610" lat="69.0965805597" lon="15.6580444475">
		<tag k="name" v="Vesterjorda" />
		<tag k="place" v="locality" />
		<tag k="ssr:stedsnr" v="484233" />
	</node>
	<node id="-206125" lat="68.905969443" lon="15.6271472212">
		<tag k="name" v="Skrevura" />
		<tag k="natural" v="scree" />
		<tag k="ssr:stedsnr" v="222862" />
	</node>
	<node id="-207976" lat="69.1277138927" lon="15.9221722178">
		<tag k="name" v="Prestmyran" />
		<tag k="natural" v="wetland" />
		<tag k="ssr:stedsnr" v="563227" />
	</node>
	<node id="-206432" lat="68.8026583321" lon="15.7177638904">
		<tag k="name" v="Finnjonsajordet" />
		<tag k="place" v="locality" />
		<tag k="ssr:stedsnr" v="298492" />
	</node>
	<node id="-206977" lat="69.1774861137" lon="16.0897722222">
		<tag k="name" v="Bonteigraet" />
		<tag k="place" v="locality" />
		<tag k="ssr:stedsnr" v="886895" />
	</node>
	<node id="-206938" lat="69.2536944446" lon="16.0701416633">
		<tag k="name" v="Luggesteinmyra" />
		<tag k="natural" v="wetland" />
		<tag k="ssr:stedsnr" v="664853" />
	</node>
	<node id="-207444" lat="69.1707083348" lon="15.8630194517">
		<tag k="name" v="Snarset" />
		<tag k="natural" v="wetland" />
		<tag k="ssr:stedsnr" v="103266" />
	</node>
	<node id="-207953" lat="69.0236027816" lon="15.7597916604">
		<tag k="landuse" v="meadow" />
		<tag k="name" v="Latofta" />
		<tag k="ssr:stedsnr" v="544235" />
	</node>
	<node id="-206927" lat="69.0868194475" lon="15.6999000046">
		<tag k="name" v="Seljorda" />
		<tag k="place" v="locality" />
		<tag k="ssr:stedsnr" v="727240" />
	</node>
	<node id="-207435" lat="69.2004722263" lon="16.0997305474">
		<tag k="name" v="Tørrtjønnmyra" />
		<tag k="natural" v="wetland" />
		<tag k="ssr:stedsnr" v="96931" />
	</node>
	<node id="-207434" lat="68.871111107" lon="15.6503722231">
		<tag k="name" v="Sætermyra" />
		<tag k="natural" v="wetland" />
		<tag k="ssr:stedsnr" v="96839" />
	</node>
	<node id="-207433" lat="68.8752055536" lon="15.6582749918">
		<tag k="name" v="Høgtindraet" />
		<tag k="natural" v="scree" />
		<tag k="ssr:stedsnr" v="96835" />
	</node>
	<node id="-207431" lat="69.2125638845" lon="15.9236361134">
		<tag k="name" v="Seljesett" />
		<tag k="natural" v="wetland" />
		<tag k="ssr:stedsnr" v="96530" />
	</node>
	<node id="-206917" lat="69.0128499997" lon="15.5568361223">
		<tag k="name" v="Langmyra" />
		<tag k="natural" v="wetland" />
		<tag k="ssr:stedsnr" v="725983" />
	</node>
	<node id="-206916" lat="69.0156222183" lon="15.5199750025">
		<tag k="name" v="Reinstimyra" />
		<tag k="natural" v="wetland" />
		<tag k="ssr:stedsnr" v="725980" />
	</node>
	<node id="-207427" lat="69.0778722205" lon="15.8646333341">
		<tag k="name" v="Galnskogen" />
		<tag k="place" v="locality" />
		<tag k="ssr:stedsnr" v="96349" />
	</node>
	<node id="-206914" lat="69.2503750032" lon="16.039422212">
		<tag k="name" v="Einlettslåtta" />
		<tag k="place" v="locality" />
		<tag k="ssr:stedsnr" v="725823" />
	</node>
	<node id="-208448" lat="69.0784888868" lon="15.6126055532">
		<tag k="name" v="Dalmyra" />
		<tag k="natural" v="wetland" />
		<tag k="ssr:stedsnr" v="848250" />
	</node>
	<node id="-206399" lat="69.0447194422" lon="15.5719777765">
		<tag k="name" v="Munkvatnan" />
		<tag k="natural" v="wetland" />
		<tag k="ssr:stedsnr" v="285777" />
	</node>
	<node id="-208446" lat="69.0848027744" lon="15.7379888752">
		<tag k="name" v="Våtskogen" />
		<tag k="place" v="locality" />
		<tag k="ssr:stedsnr" v="848233" />
	</node>
	<node id="-207421" lat="69.2742194426" lon="15.9783999953">
		<tag k="name" v="Myran" />
		<tag k="natural" v="wetland" />
		<tag k="ssr:stedsnr" v="96589" />
	</node>
	<node id="-208442" lat="69.0456694447" lon="15.6661888859">
		<tag k="name" v="Lappmarka" />
		<tag k="place" v="locality" />
		<tag k="ssr:stedsnr" v="848170" />
	</node>
	<node id="-207417" lat="68.9632166646" lon="15.720763881">
		<tag k="name" v="Grindtaet" />
		<tag k="place" v="locality" />
		<tag k="ssr:stedsnr" v="95053" />
	</node>
	<node id="-206901" lat="69.1395444468" lon="15.7696083279">
		<tag k="landuse" v="quarry" />
		<tag k="name" v="Høgdegrustaket" />
		<tag k="ssr:stedsnr" v="588275" />
	</node>
	<node id="-206385" lat="69.0623777791" lon="15.6780805437">
		<tag k="name" v="Bendikmyra" />
		<tag k="natural" v="wetland" />
		<tag k="ssr:stedsnr" v="180155" />
	</node>
	<node id="-208432" lat="69.0148805564" lon="15.5984499877">
		<tag k="name" v="Mikkeljordskogen" />
		<tag k="place" v="locality" />
		<tag k="ssr:stedsnr" v="846983" />
	</node>
	<node id="-207919" lat="68.9913472187" lon="15.6885666733">
		<tag k="name" v="Sørskogen" />
		<tag k="place" v="locality" />
		<tag k="ssr:stedsnr" v="522760" />
	</node>
	<node id="-208428" lat="68.9386722201" lon="15.5426722247">
		<tag k="name" v="Grinddalsskogen" />
		<tag k="place" v="locality" />
		<tag k="ssr:stedsnr" v="846955" />
	</node>
	<node id="-206376" lat="68.9007750014" lon="15.5358194546">
		<tag k="name" v="Myran" />
		<tag k="natural" v="wetland" />
		<tag k="ssr:stedsnr" v="283917" />
	</node>
	<node id="-207906" lat="69.1499583299" lon="16.0331805549">
		<tag k="name" v="Høgmyra" />
		<tag k="natural" v="wetland" />
		<tag k="ssr:stedsnr" v="521345" />
	</node>
	<node id="-208415" lat="69.0227194455" lon="15.7827638821">
		<tag k="name" v="Bønnholmyra" />
		<tag k="natural" v="wetland" />
		<tag k="ssr:stedsnr" v="844462" />
	</node>
	<node id="-207902" lat="69.0473416652" lon="15.8785916759">
		<tag k="name" v="Bakken" />
		<tag k="place" v="locality" />
		<tag k="ssr:stedsnr" v="521296" />
	</node>
	<node id="-208411" lat="69.0256305548" lon="15.5940361091">
		<tag k="name" v="Gamhågmyra" />
		<tag k="natural" v="wetland" />
		<tag k="ssr:stedsnr" v="831748" />
	</node>
	<node id="-206226" lat="68.9592361085" lon="15.7222555548">
		<tag k="name" v="Nebbesteinen" />
		<tag k="natural" v="stone" />
		<tag k="ssr:stedsnr" v="96102" />
	</node>
	<node id="-207895" lat="68.8735444412" lon="15.4850138766">
		<tag k="name" v="Gavlmyra" />
		<tag k="natural" v="wetland" />
		<tag k="ssr:stedsnr" v="521068" />
	</node>
	<node id="-207894" lat="68.9022416665" lon="15.4293583253">
		<tag k="name" v="Geitsteinen" />
		<tag k="natural" v="stone" />
		<tag k="ssr:stedsnr" v="521028" />
	</node>
	<node id="-206356" lat="69.1934333347" lon="16.0911499954">
		<tag k="name" v="Tenngarden" />
		<tag k="place" v="locality" />
		<tag k="ssr:stedsnr" v="279898" />
	</node>
	<node id="-207890" lat="68.994422226" lon="15.6690638928">
		<tag k="name" v="Myrland" />
		<tag k="place" v="locality" />
		<tag k="ssr:stedsnr" v="520498" />
	</node>
	<node id="-206851" lat="69.204302776" lon="15.886208343">
		<tag k="name" v="Måvassmyra" />
		<tag k="natural" v="wetland" />
		<tag k="ssr:stedsnr" v="703959" />
	</node>
	<node id="-206349" lat="68.9918666691" lon="15.6953805534">
		<tag k="name" v="Mellaskogen" />
		<tag k="place" v="locality" />
		<tag k="ssr:stedsnr" v="279772" />
	</node>
	<node id="-206348" lat="69.0184388922" lon="15.8068861055">
		<tag k="name" v="Aspelimyra" />
		<tag k="natural" v="wetland" />
		<tag k="ssr:stedsnr" v="279762" />
	</node>
	<node id="-208394" lat="68.8320500035" lon="15.7546472295">
		<tag k="name" v="Jofinnura" />
		<tag k="natural" v="scree" />
		<tag k="ssr:stedsnr" v="829867" />
	</node>
	<node id="-207247" lat="69.0096888867" lon="15.6109666761">
		<tag k="name" v="Vedhøggan" />
		<tag k="place" v="locality" />
		<tag k="ssr:stedsnr" v="217376" />
	</node>
	<node id="-207367" lat="68.9830250039" lon="15.4814027697">
		<tag k="name" v="Ramnskogen" />
		<tag k="place" v="locality" />
		<tag k="ssr:stedsnr" v="57969" />
	</node>
	<node id="-207366" lat="69.0090499989" lon="15.5907111159">
		<tag k="name" v="Einebærholmyran" />
		<tag k="natural" v="wetland" />
		<tag k="ssr:stedsnr" v="57962" />
	</node>
	<node id="-207877" lat="69.0283361102" lon="15.690902788">
		<tag k="landuse" v="meadow" />
		<tag k="name" v="Stoltenbergslåtta" />
		<tag k="ssr:stedsnr" v="423279" />
	</node>
	<node id="-207363" lat="68.959647218" lon="15.5547694479">
		<tag k="name" v="Tranesmyran" />
		<tag k="natural" v="wetland" />
		<tag k="ssr:stedsnr" v="57942" />
	</node>
	<node id="-208386" lat="69.1933722179" lon="16.0878416678">
		<tag k="name" v="Kuformyra" />
		<tag k="natural" v="wetland" />
		<tag k="ssr:stedsnr" v="825911" />
	</node>
</osm>
