<?xml version="1.0" encoding="UTF-8"?>
<osm version="0.6" generator="osmapis">
	<node lat="61.44434722421506" lon="10.160202783377303" id="-36713">
		<tag k="alt_name" v="Myrsveen" />
		<tag k="name" v="Myrsvea" />
		<tag k="place" v="farm" />
		<tag k="ssr:stedsnr" v="8601" />
	</node>
	<node lat="61.44745277498991" lon="10.178980557958772" id="-36714">
		<tag k="name" v="Moheim" />
		<tag k="place" v="isolated_dwelling" />
		<tag k="ssr:stedsnr" v="8603" />
	</node>
	<node lat="61.44694722350245" lon="10.221716670726561" id="-36715">
		<tag k="alt_name" v="Lundestugua" />
		<tag k="name" v="Lundstugua" />
		<tag k="place" v="farm" />
		<tag k="ssr:stedsnr" v="8604" />
	</node>
	<node lat="61.44689444538101" lon="10.268502777888695" id="-36716">
		<tag k="alt_name" v="Reset" />
		<tag k="historic" v="shieling" />
		<tag k="name" v="Riset" />
		<tag k="place" v="isolated_dwelling" />
		<tag k="ssr:stedsnr" v="8606" />
	</node>
	<node lat="61.408208333185335" lon="10.229856317716253" id="-36719">
		<tag k="fixme" v="consider place=hamlet" />
		<tag k="name" v="Smidesang" />
		<tag k="place" v="farm" />
		<tag k="ssr:stedsnr" v="8906" />
	</node>
	<node lat="61.39132222321485" lon="10.194444452530963" id="-36720">
		<tag k="historic" v="shieling" />
		<tag k="name" v="Kolsvea" />
		<tag k="place" v="isolated_dwelling" />
		<tag k="ssr:stedsnr" v="8894" />
	</node>
	<node lat="61.44658889162857" lon="10.531705558118894" id="-36725">
		<tag k="historic" v="shieling" />
		<tag k="name" v="Presttangen" />
		<tag k="place" v="isolated_dwelling" />
		<tag k="ssr:stedsnr" v="9324" />
	</node>
	<node lat="61.46995022356683" lon="10.222506041224038" id="-36726">
		<tag k="fixme" v="consider place=hamlet" />
		<tag k="name" v="Hilstad" />
		<tag k="place" v="farm" />
		<tag k="ssr:stedsnr" v="9607" />
	</node>
	<node lat="61.598096671134556" lon="10.618841053443532" id="-36728">
		<tag k="fixme" v="consider place=hamlet" />
		<tag k="name" v="Imsdalsgarden" />
		<tag k="place" v="farm" />
		<tag k="ssr:stedsnr" v="10136" />
	</node>
	<node lat="61.54831229154346" lon="10.090901100459254" id="-36731">
		<tag k="fixme" v="consider place=hamlet" />
		<tag k="name" v="Kaurstad" />
		<tag k="place" v="farm" />
		<tag k="ssr:stedsnr" v="10837" />
	</node>
	<node lat="61.51211106304403" lon="10.171385609337223" id="-36732">
		<tag k="alt_name" v="Ringebu prestegard" />
		<tag k="fixme" v="consider place=hamlet" />
		<tag k="name" v="Prestgarden" />
		<tag k="place" v="farm" />
		<tag k="ssr:stedsnr" v="10884" />
	</node>
	<node lat="61.655623561075" lon="9.97793891956954" id="-36733">
		<tag k="alt_name" v="Venåsgardene" />
		<tag k="name" v="Venåsen" />
		<tag k="place" v="hamlet" />
		<tag k="ssr:stedsnr" v="10985" />
	</node>
	<node lat="61.646030551457216" lon="10.098516667645356" id="-36734">
		<tag k="historic" v="shieling" />
		<tag k="name" v="Lundesætra" />
		<tag k="place" v="isolated_dwelling" />
		<tag k="ssr:stedsnr" v="10994" />
	</node>
	<node lat="61.63780833435001" lon="9.98639166368054" id="-36737">
		<tag k="historic" v="shieling" />
		<tag k="name" v="Bråtåsæter" />
		<tag k="place" v="isolated_dwelling" />
		<tag k="ssr:stedsnr" v="234415" />
	</node>
	<node lat="61.580843668412676" lon="10.16710786399955" id="-36739">
		<tag k="name" v="Torsbua" />
		<tag k="place" v="locality" />
		<tag k="ssr:stedsnr" v="39001" />
	</node>
	<node lat="61.4670472215702" lon="10.376936104583313" id="-36745">
		<tag k="historic" v="shieling" />
		<tag k="name" v="Ødegården" />
		<tag k="place" v="isolated_dwelling" />
		<tag k="ssr:stedsnr" v="39538" />
	</node>
	<node lat="61.61995555703377" lon="10.079958342028613" id="-36747">
		<tag k="historic" v="shieling" />
		<tag k="name" v="Slåbakkene" />
		<tag k="place" v="isolated_dwelling" />
		<tag k="ssr:stedsnr" v="39613" />
	</node>
	<node lat="61.562449996095516" lon="10.301197223461113" id="-36749">
		<tag k="historic" v="shieling" />
		<tag k="name" v="Gilleberg" />
		<tag k="place" v="isolated_dwelling" />
		<tag k="ssr:stedsnr" v="39665" />
	</node>
	<node lat="61.53216666709258" lon="10.067522222716466" id="-36750">
		<tag k="name" v="Osveen" />
		<tag k="place" v="farm" />
		<tag k="ssr:stedsnr" v="39669" />
	</node>
	<node lat="61.44247778004805" lon="10.167938896154773" id="-36751">
		<tag k="name" v="Midtløkken" />
		<tag k="place" v="isolated_dwelling" />
		<tag k="ssr:stedsnr" v="39760" />
	</node>
	<node lat="61.430547223345336" lon="10.176094444999597" id="-36752">
		<tag k="name" v="Lindvikssveen" />
		<tag k="place" v="farm" />
		<tag k="ssr:stedsnr" v="39764" />
	</node>
	<node lat="61.47056389258008" lon="10.13824444649928" id="-36760">
		<tag k="name" v="Kvitfjell Hotell" />
		<tag k="ssr:stedsnr" v="44482" />
		<tag k="tourism" v="hotel" />
	</node>
	<node lat="61.418775003472824" lon="10.238183340821415" id="-36763">
		<tag k="name" v="Stenset" />
		<tag k="place" v="farm" />
		<tag k="ssr:stedsnr" v="58816" />
	</node>
	<node lat="61.416272223589" lon="10.185652776563836" id="-36764">
		<tag k="name" v="Storbakken" />
		<tag k="place" v="locality" />
		<tag k="ssr:stedsnr" v="58822" />
	</node>
	<node lat="61.406261112454246" lon="10.14729444556245" id="-36768">
		<tag k="historic" v="shieling" />
		<tag k="name" v="Hammeren" />
		<tag k="place" v="isolated_dwelling" />
		<tag k="ssr:stedsnr" v="58776" />
	</node>
	<node lat="61.3859166628877" lon="10.189052776036528" id="-36772">
		<tag k="name" v="Gorostugua" />
		<tag k="place" v="locality" />
		<tag k="ssr:stedsnr" v="240783" />
	</node>
	<node lat="61.3898828892376" lon="10.253506270468137" id="-36781">
		<tag k="fixme" v="consider place=hamlet" />
		<tag k="name" v="Stenumgard" />
		<tag k="place" v="farm" />
		<tag k="ssr:stedsnr" v="68884" />
	</node>
	<node lat="61.40425735279931" lon="10.054286251745319" id="-36782">
		<tag k="alt_name" v="Skarbua" />
		<tag k="name" v="Skardbua" />
		<tag k="place" v="locality" />
		<tag k="ssr:stedsnr" v="68900" />
	</node>
	<node lat="61.6665916697652" lon="10.124858325766136" id="-36789">
		<tag k="historic" v="shieling" />
		<tag k="name" v="Forrestadsætra" />
		<tag k="place" v="isolated_dwelling" />
		<tag k="ssr:stedsnr" v="70985" />
	</node>
	<node lat="61.64312425665383" lon="9.981332974890233" id="-36792">
		<tag k="fixme" v="consider place=hamlet" />
		<tag k="name" v="Vollen" />
		<tag k="place" v="farm" />
		<tag k="ssr:stedsnr" v="242739" />
	</node>
	<node lat="61.52211469778392" lon="10.166258310723704" id="-36793">
		<tag k="fixme" v="consider place=hamlet" />
		<tag k="name" v="Berg" />
		<tag k="place" v="farm" />
		<tag k="ssr:stedsnr" v="71870" />
	</node>
	<node lat="61.528729253443814" lon="10.159077689505292" id="-36794">
		<tag k="name" v="Hauge" />
		<tag k="place" v="hamlet" />
		<tag k="ssr:stedsnr" v="71880" />
	</node>
	<node lat="61.49452499806707" lon="10.199663891035929" id="-36806">
		<tag k="name" v="Bergli" />
		<tag k="place" v="farm" />
		<tag k="ssr:stedsnr" v="99914" />
	</node>
	<node lat="61.502291667560925" lon="10.142969437330509" id="-36807">
		<tag k="name" v="Hole" />
		<tag k="place" v="farm" />
		<tag k="ssr:stedsnr" v="99978" />
	</node>
	<node lat="61.61734166633948" lon="10.190619441467877" id="-36810">
		<tag k="historic" v="shieling" />
		<tag k="name" v="Høystadhagen" />
		<tag k="place" v="isolated_dwelling" />
		<tag k="ssr:stedsnr" v="100061" />
	</node>
	<node lat="61.45736666423547" lon="10.060036112165461" id="-36819">
		<tag k="historic" v="shieling" />
		<tag k="name" v="Ånstad" />
		<tag k="place" v="isolated_dwelling" />
		<tag k="ssr:stedsnr" v="100680" />
	</node>
	<node lat="61.70719444746896" lon="10.566163880085215" id="-36822">
		<tag k="historic" v="shieling" />
		<tag k="name" v="Skjæringfjellsætra" />
		<tag k="place" v="isolated_dwelling" />
		<tag k="ssr:stedsnr" v="100765" />
	</node>
	<node lat="61.5331979079595" lon="10.592108495872992" id="-36824">
		<tag k="name" v="Ner Romsåsbua" />
		<tag k="place" v="locality" />
		<tag k="ssr:stedsnr" v="100966" />
	</node>
	<node lat="61.66526148614531" lon="9.975858640636455" id="-36828">
		<tag k="alt_name" v="Klevshovde" />
		<tag k="fixme" v="consider place=hamlet" />
		<tag k="name" v="Hovde" />
		<tag k="place" v="farm" />
		<tag k="ssr:stedsnr" v="113642" />
	</node>
	<node lat="61.593991662540105" lon="10.042599998513541" id="-36829">
		<tag k="name" v="Sagbakken" />
		<tag k="place" v="locality" />
		<tag k="ssr:stedsnr" v="113935" />
	</node>
	<node lat="61.405649534356904" lon="10.203386228728624" id="-36831">
		<tag k="fixme" v="consider place=hamlet" />
		<tag k="name" v="Årneslia" />
		<tag k="place" v="farm" />
		<tag k="ssr:stedsnr" v="250889" />
	</node>
	<node lat="61.389600001719316" lon="10.277444445136865" id="-36834">
		<tag k="name" v="Kleiva" />
		<tag k="place" v="farm" />
		<tag k="ssr:stedsnr" v="250878" />
	</node>
	<node lat="61.55514999992384" lon="10.080977771006678" id="-36835">
		<tag k="name" v="Stormorka" />
		<tag k="place" v="farm" />
		<tag k="ssr:stedsnr" v="118624" />
	</node>
	<node lat="61.55471666893929" lon="10.06505277783875" id="-36836">
		<tag k="name" v="Kvernflaten" />
		<tag k="place" v="farm" />
		<tag k="ssr:stedsnr" v="118633" />
	</node>
	<node lat="61.41576793208804" lon="10.2301585043907" id="-36837">
		<tag k="alt_name" v="Bråstad, nordre;Bråstad" />
		<tag k="name" v="Nordre Bråstad" />
		<tag k="place" v="farm" />
		<tag k="ssr:stedsnr" v="250895" />
	</node>
	<node lat="61.47277222517593" lon="10.213761106250525" id="-36839">
		<tag k="name" v="Dokka" />
		<tag k="place" v="farm" />
		<tag k="ssr:stedsnr" v="251637" />
	</node>
	<node lat="61.424516669707685" lon="10.451775001277461" id="-36841">
		<tag k="alt_name" v="Kristianstua" />
		<tag k="historic" v="shieling" />
		<tag k="name" v="Kristiansstugua" />
		<tag k="place" v="isolated_dwelling" />
		<tag k="ssr:stedsnr" v="251377" />
	</node>
	<node lat="61.460075002313495" lon="10.330105562176" id="-36844">
		<tag k="name" v="Søre Brekkom" />
		<tag k="place" v="hamlet" />
		<tag k="ssr:stedsnr" v="251582" />
	</node>
	<node lat="61.45565555447732" lon="10.158122226392434" id="-36846">
		<tag k="name" v="Myrhågån" />
		<tag k="place" v="farm" />
		<tag k="ssr:stedsnr" v="251592" />
	</node>
	<node lat="61.45702283116317" lon="10.20457175243211" id="-36847">
		<tag k="alt_name" v="Brenn" />
		<tag k="fixme" v="consider place=hamlet" />
		<tag k="name" v="Brenna" />
		<tag k="place" v="farm" />
		<tag k="ssr:stedsnr" v="251597" />
	</node>
	<node lat="61.45415700886272" lon="10.223253569238548" id="-36848">
		<tag k="fixme" v="consider place=hamlet" />
		<tag k="name" v="Svebakken" />
		<tag k="place" v="farm" />
		<tag k="ssr:stedsnr" v="251598" />
	</node>
	<node lat="61.48297873589491" lon="10.14861675398042" id="-36849">
		<tag k="alt_name" v="Ånstad" />
		<tag k="fixme" v="consider place=hamlet" />
		<tag k="name" v="Ånnstad" />
		<tag k="place" v="farm" />
		<tag k="ssr:stedsnr" v="251618" />
	</node>
	<node lat="61.48840833358433" lon="10.188783328308048" id="-36850">
		<tag k="name" v="Brandstadmoen" />
		<tag k="place" v="farm" />
		<tag k="ssr:stedsnr" v="251623" />
	</node>
	<node lat="61.48363332973718" lon="10.205080563550476" id="-36851">
		<tag k="name" v="Grønlund" />
		<tag k="place" v="farm" />
		<tag k="ssr:stedsnr" v="251626" />
	</node>
	<node lat="61.4047820507272" lon="10.239377843644265" id="-36854">
		<tag k="fixme" v="consider place=hamlet" />
		<tag k="name" v="Øvre Sylte" />
		<tag k="place" v="farm" />
		<tag k="ssr:stedsnr" v="129902" />
	</node>
	<node lat="61.42900670836786" lon="10.143918744416935" id="-36856">
		<tag k="fixme" v="consider place=hamlet" />
		<tag k="name" v="Knappen" />
		<tag k="place" v="farm" />
		<tag k="ssr:stedsnr" v="129934" />
	</node>
	<node lat="61.38728855595262" lon="10.2830917060145" id="-36857">
		<tag k="alt_name" v="Rudrud" />
		<tag k="fixme" v="consider place=hamlet" />
		<tag k="name" v="Rudderud" />
		<tag k="place" v="farm" />
		<tag k="ssr:stedsnr" v="129873" />
	</node>
	<node lat="61.38904722007329" lon="10.278608326176967" id="-36858">
		<tag k="name" v="Rudderudjordet" />
		<tag k="place" v="farm" />
		<tag k="ssr:stedsnr" v="129878" />
	</node>
	<node lat="61.45558055373169" lon="10.350400006864025" id="-36859">
		<tag k="name" v="Dalen" />
		<tag k="place" v="farm" />
		<tag k="ssr:stedsnr" v="130330" />
	</node>
	<node lat="61.459049996186515" lon="10.388455557198334" id="-36860">
		<tag k="alt_name" v="Persletta" />
		<tag k="historic" v="shieling" />
		<tag k="name" v="Perssletta" />
		<tag k="place" v="isolated_dwelling" />
		<tag k="ssr:stedsnr" v="130331" />
	</node>
	<node lat="61.48984444580842" lon="10.207624996838048" id="-36861">
		<tag k="name" v="Odlolia" />
		<tag k="place" v="farm" />
		<tag k="ssr:stedsnr" v="130502" />
	</node>
	<node lat="61.496927780439215" lon="10.310533333202992" id="-36862">
		<tag k="historic" v="shieling" />
		<tag k="name" v="Skotten" />
		<tag k="place" v="isolated_dwelling" />
		<tag k="ssr:stedsnr" v="130492" />
	</node>
	<node lat="61.46301827663819" lon="10.27942202223708" id="-36864">
		<tag k="name" v="Espedalen" />
		<tag k="place" v="locality" />
		<tag k="ssr:stedsnr" v="130604" />
	</node>
	<node lat="61.467371511866745" lon="10.251952654537858" id="-36865">
		<tag k="fixme" v="consider place=hamlet" />
		<tag k="name" v="Norddølom" />
		<tag k="place" v="farm" />
		<tag k="ssr:stedsnr" v="130605" />
	</node>
	<node lat="61.46684472845635" lon="10.21175309897971" id="-36866">
		<tag k="fixme" v="consider place=hamlet" />
		<tag k="name" v="Mytting" />
		<tag k="place" v="farm" />
		<tag k="ssr:stedsnr" v="130598" />
	</node>
	<node lat="61.55881389288266" lon="10.646950003914636" id="-36867">
		<tag k="name" v="Skakken" />
		<tag k="place" v="isolated_dwelling" />
		<tag k="ssr:stedsnr" v="131220" />
	</node>
	<node lat="61.42978055595895" lon="10.211438886018783" id="-36868">
		<tag k="alt_name" v="Søre Løsnes" />
		<tag k="name" v="Løysnes" />
		<tag k="place" v="farm" />
		<tag k="ssr:stedsnr" v="131806" />
	</node>
	<node lat="61.569466669828685" lon="10.064836103128714" id="-36870">
		<tag k="name" v="Langset" />
		<tag k="place" v="farm" />
		<tag k="ssr:stedsnr" v="131813" />
	</node>
	<node lat="61.54429721901477" lon="10.149466671131682" id="-36871">
		<tag k="name" v="Kolstadroa" />
		<tag k="place" v="hamlet" />
		<tag k="ssr:stedsnr" v="131867" />
	</node>
	<node lat="61.53462474470756" lon="10.151803842197262" id="-36873">
		<tag k="alt_name" v="Kolstadgardene" />
		<tag k="name" v="Kolstad" />
		<tag k="place" v="hamlet" />
		<tag k="ssr:stedsnr" v="131886" />
	</node>
	<node lat="61.62856389156837" lon="9.98582499089759" id="-36876">
		<tag k="name" v="Jonhaugen" />
		<tag k="place" v="farm" />
		<tag k="ssr:stedsnr" v="131776" />
	</node>
	<node lat="61.53181230814509" lon="10.156476432793793" id="-36877">
		<tag k="name" v="Bø" />
		<tag k="place" v="hamlet" />
		<tag k="ssr:stedsnr" v="131905" />
	</node>
	<node lat="61.699741667957895" lon="10.159063888332952" id="-36880">
		<tag k="historic" v="shieling" />
		<tag k="name" v="Bølisætrin" />
		<tag k="place" v="isolated_dwelling" />
		<tag k="ssr:stedsnr" v="131976" />
	</node>
	<node lat="61.67755277357162" lon="10.107536102634436" id="-36885">
		<tag k="historic" v="shieling" />
		<tag k="name" v="Øygardssætrin" />
		<tag k="place" v="isolated_dwelling" />
		<tag k="ssr:stedsnr" v="131986" />
	</node>
	<node lat="61.55894880475108" lon="10.166253443173995" id="-36886">
		<tag k="fixme" v="consider place=hamlet" />
		<tag k="name" v="Stulen" />
		<tag k="place" v="farm" />
		<tag k="ssr:stedsnr" v="252778" />
	</node>
	<node lat="61.549563886792185" lon="10.155716658973912" id="-36887">
		<tag k="name" v="Bølia" />
		<tag k="place" v="farm" />
		<tag k="ssr:stedsnr" v="252793" />
	</node>
	<node lat="61.54220000397813" lon="10.128630557257107" id="-36890">
		<tag k="name" v="Sperre" />
		<tag k="place" v="farm" />
		<tag k="ssr:stedsnr" v="252810" />
	</node>
	<node lat="61.52863658628706" lon="10.090944809555301" id="-36891">
		<tag k="alt_name" v="Onshus" />
		<tag k="fixme" v="consider place=hamlet" />
		<tag k="name" v="Ånshus" />
		<tag k="place" v="farm" />
		<tag k="ssr:stedsnr" v="252829" />
	</node>
	<node lat="61.610963890185594" lon="10.591805547764098" id="-36893">
		<tag k="name" v="Finnset" />
		<tag k="place" v="farm" />
		<tag k="ssr:stedsnr" v="253150" />
	</node>
	<node lat="61.580777775130045" lon="10.628311103396342" id="-36898">
		<tag k="name" v="Butangen" />
		<tag k="place" v="isolated_dwelling" />
		<tag k="ssr:stedsnr" v="253168" />
	</node>
	<node lat="61.64098611145906" lon="10.055950003712654" id="-36900">
		<tag k="historic" v="shieling" />
		<tag k="name" v="Nysæter" />
		<tag k="place" v="isolated_dwelling" />
		<tag k="ssr:stedsnr" v="140320" />
	</node>
	<node lat="61.66875833698475" lon="10.462858324672679" id="-36908">
		<tag k="fixme" v="consider tourism=alpine_hut or tourism=chalet" />
		<tag k="name" v="Nye Brettingsdalsbua" />
		<tag k="ssr:stedsnr" v="170273" />
		<tag k="tourism" v="wilderness_hut" />
	</node>
	<node lat="61.66440833701958" lon="9.97494167499083" id="-36909">
		<tag k="name" v="Eivindhovde" />
		<tag k="place" v="farm" />
		<tag k="ssr:stedsnr" v="173625" />
	</node>
	<node lat="61.54236666793059" lon="10.048411104243025" id="-36910">
		<tag k="name" v="Rudivollen" />
		<tag k="place" v="farm" />
		<tag k="ssr:stedsnr" v="179662" />
	</node>
	<node lat="61.40673333766011" lon="10.15471944421083" id="-36912">
		<tag k="historic" v="shieling" />
		<tag k="name" v="Nedre Årneslia" />
		<tag k="place" v="isolated_dwelling" />
		<tag k="ssr:stedsnr" v="179759" />
	</node>
	<node lat="61.47831388505843" lon="10.164619448799796" id="-36916">
		<tag k="alt_name" v="Nygård" />
		<tag k="name" v="Nygard" />
		<tag k="place" v="farm" />
		<tag k="ssr:stedsnr" v="190606" />
	</node>
	<node lat="61.447422225440874" lon="10.54172500369492" id="-36917">
		<tag k="historic" v="shieling" />
		<tag k="name" v="Bjørge" />
		<tag k="place" v="isolated_dwelling" />
		<tag k="ssr:stedsnr" v="190357" />
	</node>
	<node lat="61.44672500415561" lon="10.127469444991211" id="-36918">
		<tag k="name" v="Rønningen" />
		<tag k="place" v="farm" />
		<tag k="ssr:stedsnr" v="190572" />
	</node>
	<node lat="61.40695555846209" lon="10.29602500495606" id="-36919">
		<tag k="alt_name" v="Mykkelsæter" />
		<tag k="historic" v="shieling" />
		<tag k="name" v="Mykkelsætra" />
		<tag k="place" v="isolated_dwelling" />
		<tag k="ssr:stedsnr" v="190906" />
	</node>
	<node lat="61.39879274702815" lon="10.243052920759819" id="-36920">
		<tag k="fixme" v="consider place=hamlet" />
		<tag k="name" v="Huse" />
		<tag k="place" v="farm" />
		<tag k="ssr:stedsnr" v="190910" />
	</node>
	<node lat="61.424280558393626" lon="10.18713888749438" id="-36921">
		<tag k="name" v="Toftmarka" />
		<tag k="place" v="farm" />
		<tag k="ssr:stedsnr" v="190924" />
	</node>
	<node lat="61.43688333719158" lon="10.507491673297167" id="-36923">
		<tag k="historic" v="shieling" />
		<tag k="name" v="Trosvik" />
		<tag k="place" v="isolated_dwelling" />
		<tag k="ssr:stedsnr" v="191312" />
	</node>
	<node lat="61.4408027734007" lon="10.060349997448231" id="-36931">
		<tag k="historic" v="shieling" />
		<tag k="name" v="Bergehuset" />
		<tag k="place" v="isolated_dwelling" />
		<tag k="ssr:stedsnr" v="211794" />
	</node>
	<node lat="61.619019445868155" lon="10.194661113087266" id="-36938">
		<tag k="historic" v="shieling" />
		<tag k="name" v="Flatmoen" />
		<tag k="place" v="isolated_dwelling" />
		<tag k="ssr:stedsnr" v="221377" />
	</node>
	<node lat="61.43228611107005" lon="10.450452771456716" id="-36942">
		<tag k="historic" v="shieling" />
		<tag k="name" v="Nedre Løsnes" />
		<tag k="place" v="isolated_dwelling" />
		<tag k="ssr:stedsnr" v="221578" />
	</node>
	<node lat="61.54419721822458" lon="10.082011108564982" id="-36943">
		<tag k="name" v="Bekkedal" />
		<tag k="place" v="isolated_dwelling" />
		<tag k="ssr:stedsnr" v="221583" />
	</node>
	<node lat="61.559080559137314" lon="10.266791666610482" id="-36952">
		<tag k="alt_name" v="Måssåplassen" />
		<tag k="fixme" v="consider tourism=alpine_hut or tourism=chalet" />
		<tag k="name" v="Måsåplassen fjellstue" />
		<tag k="ssr:stedsnr" v="450796" />
		<tag k="tourism" v="wilderness_hut" />
	</node>
	<node lat="61.517902779806825" lon="10.181288880708923" id="-36953">
		<tag k="name" v="Tølløfsrud" />
		<tag k="place" v="farm" />
		<tag k="ssr:stedsnr" v="240912" />
	</node>
	<node lat="61.6310333303799" lon="9.998752782543782" id="-36958">
		<tag k="historic" v="shieling" />
		<tag k="name" v="Myrsætrin" />
		<tag k="place" v="isolated_dwelling" />
		<tag k="ssr:stedsnr" v="451996" />
	</node>
	<node lat="61.63153333761307" lon="10.03521945347927" id="-36960">
		<tag k="name" v="Bergstulen" />
		<tag k="place" v="hamlet" />
		<tag k="ssr:stedsnr" v="253781" />
	</node>
	<node lat="61.59602222360728" lon="10.177666664109891" id="-36961">
		<tag k="name" v="Kollbua" />
		<tag k="place" v="isolated_dwelling" />
		<tag k="ssr:stedsnr" v="253788" />
	</node>
	<node lat="61.60083888440323" lon="10.037100008464257" id="-36962">
		<tag k="alt_name" v="Hagen" />
		<tag k="name" v="Hågån" />
		<tag k="place" v="farm" />
		<tag k="ssr:stedsnr" v="253792" />
	</node>
	<node lat="61.57572222593312" lon="10.057436110645813" id="-36963">
		<tag k="alt_name" v="Nordre Haugstad" />
		<tag k="name" v="Haugstad" />
		<tag k="place" v="farm" />
		<tag k="ssr:stedsnr" v="253804" />
	</node>
	<node lat="61.511505555505195" lon="10.130041667324827" id="-36965">
		<tag k="alt_name" v="Lille Randklev" />
		<tag k="name" v="Rankleiv" />
		<tag k="place" v="farm" />
		<tag k="ssr:stedsnr" v="253885" />
	</node>
	<node lat="61.64953055988456" lon="9.980394444461622" id="-36966">
		<tag k="name" v="Roli" />
		<tag k="place" v="farm" />
		<tag k="ssr:stedsnr" v="253993" />
	</node>
	<node lat="61.57990278067009" lon="10.246272217047757" id="-36978">
		<tag k="historic" v="shieling" />
		<tag k="name" v="Svendsrud" />
		<tag k="place" v="isolated_dwelling" />
		<tag k="ssr:stedsnr" v="282475" />
	</node>
	<node lat="61.585641668563234" lon="10.24795278500122" id="-36979">
		<tag k="historic" v="shieling" />
		<tag k="name" v="Halvfarelia" />
		<tag k="place" v="isolated_dwelling" />
		<tag k="ssr:stedsnr" v="282477" />
	</node>
	<node lat="61.4736472243665" lon="10.378852769585942" id="-36983">
		<tag k="historic" v="shieling" />
		<tag k="name" v="Roligheta" />
		<tag k="place" v="isolated_dwelling" />
		<tag k="ssr:stedsnr" v="282575" />
	</node>
	<node lat="61.439319441802326" lon="10.166027783232973" id="-36985">
		<tag k="name" v="Finstad" />
		<tag k="place" v="farm" />
		<tag k="ssr:stedsnr" v="282772" />
	</node>
	<node lat="61.53156388637535" lon="10.146972225188495" id="-36987">
		<tag k="name" v="Skalykkja" />
		<tag k="place" v="isolated_dwelling" />
		<tag k="ssr:stedsnr" v="282919" />
	</node>
	<node lat="61.48776944088457" lon="10.209386111643468" id="-36990">
		<tag k="name" v="Midtlia" />
		<tag k="place" v="farm" />
		<tag k="ssr:stedsnr" v="282973" />
	</node>
	<node lat="61.46386388842753" lon="10.191933342157306" id="-36992">
		<tag k="name" v="Tromsnesskogen" />
		<tag k="place" v="quarter" />
		<tag k="ssr:stedsnr" v="284830" />
	</node>
	<node lat="61.6287027739329" lon="9.986986112585662" id="-36994">
		<tag k="name" v="Jonhaugen" />
		<tag k="place" v="farm" />
		<tag k="ssr:stedsnr" v="295430" />
	</node>
	<node lat="61.61483611480928" lon="9.993288897891295" id="-36995">
		<tag k="historic" v="shieling" />
		<tag k="name" v="Sæterbakken" />
		<tag k="place" v="isolated_dwelling" />
		<tag k="ssr:stedsnr" v="295329" />
	</node>
	<node lat="61.4994166652117" lon="10.037397224897665" id="-36996">
		<tag k="historic" v="shieling" />
		<tag k="name" v="Onshus" />
		<tag k="place" v="isolated_dwelling" />
		<tag k="ssr:stedsnr" v="295330" />
	</node>
	<node lat="61.46342777518593" lon="10.27458889307315" id="-36997">
		<tag k="name" v="Kroken" />
		<tag k="place" v="farm" />
		<tag k="ssr:stedsnr" v="464308" />
	</node>
	<node lat="61.44975833210569" lon="10.454894437738393" id="-36998">
		<tag k="name" v="Storfurubua" />
		<tag k="place" v="isolated_dwelling" />
		<tag k="ssr:stedsnr" v="463584" />
	</node>
	<node lat="61.46791944833048" lon="10.371505547371349" id="-37000">
		<tag k="historic" v="shieling" />
		<tag k="name" v="Espedalen" />
		<tag k="place" v="isolated_dwelling" />
		<tag k="ssr:stedsnr" v="463589" />
	</node>
	<node lat="61.46577499698248" lon="10.378694443777482" id="-37001">
		<tag k="historic" v="shieling" />
		<tag k="name" v="Romsås" />
		<tag k="place" v="isolated_dwelling" />
		<tag k="ssr:stedsnr" v="463590" />
	</node>
	<node lat="61.42628055150068" lon="10.186566660612517" id="-37004">
		<tag k="name" v="Toftstugua" />
		<tag k="place" v="farm" />
		<tag k="ssr:stedsnr" v="300803" />
	</node>
	<node lat="61.647722224946136" lon="10.094305561883953" id="-37007">
		<tag k="historic" v="shieling" />
		<tag k="name" v="Ospesætra" />
		<tag k="place" v="isolated_dwelling" />
		<tag k="ssr:stedsnr" v="300879" />
	</node>
	<node lat="61.477230557092554" lon="10.1165249990712" id="-37008">
		<tag k="historic" v="shieling" />
		<tag k="name" v="Gammelsæter" />
		<tag k="place" v="isolated_dwelling" />
		<tag k="ssr:stedsnr" v="463716" />
	</node>
	<node lat="61.489836112007936" lon="10.114311119462513" id="-37009">
		<tag k="name" v="Nordre Øygarden" />
		<tag k="place" v="isolated_dwelling" />
		<tag k="ssr:stedsnr" v="463739" />
	</node>
	<node lat="61.504622528257954" lon="10.433563658613368" id="-37011">
		<tag k="name" v="Tromsnesbua" />
		<tag k="place" v="locality" />
		<tag k="ssr:stedsnr" v="463918" />
	</node>
	<node lat="61.43531111298982" lon="10.50008333788742" id="-37013">
		<tag k="historic" v="shieling" />
		<tag k="name" v="Bråstadløkken" />
		<tag k="place" v="isolated_dwelling" />
		<tag k="ssr:stedsnr" v="463925" />
	</node>
	<node lat="61.49971388774051" lon="10.216588882168937" id="-37014">
		<tag k="name" v="Hemsæterlykkja" />
		<tag k="place" v="locality" />
		<tag k="ssr:stedsnr" v="463899" />
	</node>
	<node lat="61.501466666885534" lon="10.178005548964792" id="-37017">
		<tag k="name" v="Godtnok" />
		<tag k="place" v="farm" />
		<tag k="ssr:stedsnr" v="463987" />
	</node>
	<node lat="61.582752774100896" lon="10.220394436902358" id="-37019">
		<tag k="historic" v="shieling" />
		<tag k="name" v="Ljåbakken" />
		<tag k="place" v="isolated_dwelling" />
		<tag k="ssr:stedsnr" v="464083" />
	</node>
	<node lat="61.543519444475926" lon="10.65748889070323" id="-37020">
		<tag k="alt_name" v="Thujordsbua" />
		<tag k="name" v="Tujordsbua" />
		<tag k="place" v="isolated_dwelling" />
		<tag k="ssr:stedsnr" v="464208" />
	</node>
	<node lat="61.41493611088412" lon="10.356499990912075" id="-37024">
		<tag k="name" v="Bakkenfeltet" />
		<tag k="place" v="isolated_dwelling" />
		<tag k="ssr:stedsnr" v="464294" />
	</node>
	<node lat="61.540025002630216" lon="10.310133332870837" id="-37029">
		<tag k="historic" v="shieling" />
		<tag k="name" v="Nykvea" />
		<tag k="place" v="isolated_dwelling" />
		<tag k="ssr:stedsnr" v="464690" />
	</node>
	<node lat="61.55908055278154" lon="10.300302778891954" id="-37031">
		<tag k="historic" v="shieling" />
		<tag k="name" v="Nordre Bjørge" />
		<tag k="place" v="isolated_dwelling" />
		<tag k="ssr:stedsnr" v="464699" />
	</node>
	<node lat="61.40431944117809" lon="10.345122222765593" id="-37034">
		<tag k="alt_name" v="Rollstølen, yt;Rollstølen;Rollstulen, yt;Yttre Rollstulen" />
		<tag k="name" v="Ytre Rollstulen" />
		<tag k="place" v="hamlet" />
		<tag k="ssr:stedsnr" v="311377" />
	</node>
	<node lat="61.45087767972217" lon="10.163345722789268" id="-37036">
		<tag k="alt_name" v="Myra" />
		<tag k="name" v="Øvre Myre" />
		<tag k="place" v="farm" />
		<tag k="ssr:stedsnr" v="311607" />
	</node>
	<node lat="61.451238885975776" lon="10.219886110799548" id="-37037">
		<tag k="alt_name" v="Svea" />
		<tag k="name" v="Lundesvea" />
		<tag k="place" v="farm" />
		<tag k="ssr:stedsnr" v="311612" />
	</node>
	<node lat="61.442175081196744" lon="10.145657535127944" id="-37038">
		<tag k="fixme" v="consider place=hamlet" />
		<tag k="name" v="Tullia" />
		<tag k="place" v="farm" />
		<tag k="ssr:stedsnr" v="311617" />
	</node>
	<node lat="61.440698948780344" lon="10.183296507960613" id="-37039">
		<tag k="fixme" v="consider place=hamlet" />
		<tag k="name" v="Bystad" />
		<tag k="place" v="farm" />
		<tag k="ssr:stedsnr" v="311620" />
	</node>
	<node lat="61.439024932334014" lon="10.171917251326853" id="-37040">
		<tag k="alt_name" v="Segelstad;Seggelstad;Segalstadgardene" />
		<tag k="name" v="Segalstad" />
		<tag k="place" v="hamlet" />
		<tag k="ssr:stedsnr" v="311622" />
	</node>
	<node lat="61.436172220027885" lon="10.151711108646998" id="-37041">
		<tag k="name" v="Pallsvea" />
		<tag k="place" v="farm" />
		<tag k="ssr:stedsnr" v="311624" />
	</node>
	<node lat="61.39160555935683" lon="10.27883610843984" id="-37042">
		<tag k="alt_name" v="Ivabakken" />
		<tag k="name" v="Ivarbakken" />
		<tag k="place" v="farm" />
		<tag k="ssr:stedsnr" v="311908" />
	</node>
	<node lat="61.39333836447871" lon="9.974793847061553" id="-37044">
		<tag k="alt_name" v="Dørdalsætrene" />
		<tag k="historic" v="shieling" />
		<tag k="name" v="Dørdalssætra" />
		<tag k="place" v="isolated_dwelling" />
		<tag k="ssr:stedsnr" v="311916" />
	</node>
	<node lat="61.47010000400182" lon="10.224925005034079" id="-37045">
		<tag k="fixme" v="consider place=hamlet" />
		<tag k="name" v="Brekkom" />
		<tag k="place" v="village" />
		<tag k="ssr:stedsnr" v="312603" />
	</node>
	<node lat="61.58432760780434" lon="10.056694626604703" id="-37047">
		<tag k="alt_name" v="Aspen" />
		<tag k="fixme" v="consider place=hamlet" />
		<tag k="name" v="Ospa" />
		<tag k="place" v="farm" />
		<tag k="ssr:stedsnr" v="313815" />
	</node>
	<node lat="61.61722500259783" lon="10.059100002888215" id="-37050">
		<tag k="alt_name" v="Pynten sæter" />
		<tag k="historic" v="shieling" />
		<tag k="name" v="Pyntasætra" />
		<tag k="place" v="isolated_dwelling" />
		<tag k="ssr:stedsnr" v="313770" />
	</node>
	<node lat="61.4772638883033" lon="10.105261115760202" id="-37052">
		<tag k="name" v="Hestknappen" />
		<tag k="place" v="quarter" />
		<tag k="ssr:stedsnr" v="466949" />
	</node>
	<node lat="61.588619440366976" lon="10.224725004638175" id="-37058">
		<tag k="historic" v="shieling" />
		<tag k="name" v="Arnemoen" />
		<tag k="place" v="isolated_dwelling" />
		<tag k="ssr:stedsnr" v="342048" />
	</node>
	<node lat="61.538561109745174" lon="10.131424993960529" id="-37060">
		<tag k="name" v="Midtmoen" />
		<tag k="place" v="farm" />
		<tag k="ssr:stedsnr" v="342202" />
	</node>
	<node lat="61.3891083356983" lon="10.269588891389192" id="-37062">
		<tag k="name" v="Kleiva" />
		<tag k="place" v="farm" />
		<tag k="ssr:stedsnr" v="342413" />
	</node>
	<node lat="61.47024722556091" lon="10.263702775050225" id="-37063">
		<tag k="alt_name" v="Bjøinstad" />
		<tag k="name" v="Bjørnstad" />
		<tag k="place" v="farm" />
		<tag k="ssr:stedsnr" v="342308" />
	</node>
	<node lat="61.44262777735287" lon="10.213913890838208" id="-37065">
		<tag k="name" v="Fjellset" />
		<tag k="place" v="farm" />
		<tag k="ssr:stedsnr" v="342755" />
	</node>
	<node lat="61.488180559845546" lon="10.146272222349047" id="-37066">
		<tag k="name" v="Øvre Rotås" />
		<tag k="place" v="farm" />
		<tag k="ssr:stedsnr" v="342954" />
	</node>
	<node lat="61.46211452062596" lon="10.199863169671298" id="-37074">
		<tag k="alt_name" v="Flyen" />
		<tag k="fixme" v="consider place=hamlet" />
		<tag k="name" v="Flye" />
		<tag k="place" v="farm" />
		<tag k="ssr:stedsnr" v="372633" />
	</node>
	<node lat="61.57145610931997" lon="10.067029941740635" id="-37083">
		<tag k="fixme" v="consider place=hamlet" />
		<tag k="name" v="Furusæter" />
		<tag k="place" v="farm" />
		<tag k="ssr:stedsnr" v="374804" />
	</node>
	<node lat="61.58520277591616" lon="10.217349997104645" id="-37084">
		<tag k="historic" v="shieling" />
		<tag k="name" v="Sørstulen" />
		<tag k="place" v="isolated_dwelling" />
		<tag k="ssr:stedsnr" v="374809" />
	</node>
	<node lat="61.581466663108294" lon="10.24920277062335" id="-37085">
		<tag k="historic" v="shieling" />
		<tag k="name" v="Pulla" />
		<tag k="place" v="isolated_dwelling" />
		<tag k="ssr:stedsnr" v="374810" />
	</node>
	<node lat="61.552838885111385" lon="10.116205553622036" id="-37086">
		<tag k="name" v="Kleiva" />
		<tag k="place" v="farm" />
		<tag k="ssr:stedsnr" v="374815" />
	</node>
	<node lat="61.59304999996887" lon="10.052305554112284" id="-37092">
		<tag k="fixme" v="consider place=hamlet" />
		<tag k="name" v="Venabygd" />
		<tag k="place" v="village" />
		<tag k="ssr:stedsnr" v="389345" />
	</node>
	<node lat="61.54516944702474" lon="10.146983327296397" id="-37094">
		<tag k="name" v="Kolstadmoen" />
		<tag k="place" v="farm" />
		<tag k="ssr:stedsnr" v="403203" />
	</node>
	<node lat="61.535422220259385" lon="10.132086110154269" id="-37095">
		<tag k="name" v="Salmakermoen" />
		<tag k="place" v="farm" />
		<tag k="ssr:stedsnr" v="403214" />
	</node>
	<node lat="61.55879166376539" lon="10.285330563350055" id="-37101">
		<tag k="name" v="Steinbakken" />
		<tag k="place" v="isolated_dwelling" />
		<tag k="ssr:stedsnr" v="403489" />
	</node>
	<node lat="61.43995277735893" lon="10.169352768934065" id="-37104">
		<tag k="name" v="Smestad" />
		<tag k="place" v="farm" />
		<tag k="ssr:stedsnr" v="403781" />
	</node>
	<node lat="61.44632777490505" lon="10.204388893870536" id="-37105">
		<tag k="name" v="Asplund" />
		<tag k="place" v="isolated_dwelling" />
		<tag k="ssr:stedsnr" v="403788" />
	</node>
	<node lat="61.431566670311305" lon="10.22441944734848" id="-37107">
		<tag k="name" v="Nordre Oppsal" />
		<tag k="place" v="farm" />
		<tag k="ssr:stedsnr" v="403798" />
	</node>
	<node lat="61.49797777677939" lon="10.038686114885639" id="-37111">
		<tag k="historic" v="shieling" />
		<tag k="name" v="Ormsætra" />
		<tag k="place" v="isolated_dwelling" />
		<tag k="ssr:stedsnr" v="416306" />
	</node>
	<node lat="61.39134166359147" lon="9.974172221470866" id="-37114">
		<tag k="historic" v="shieling" />
		<tag k="name" v="Søre Berge" />
		<tag k="place" v="isolated_dwelling" />
		<tag k="ssr:stedsnr" v="416343" />
	</node>
	<node lat="61.396917040088454" lon="10.24874144265813" id="-37116">
		<tag k="name" v="Olderlykkja" />
		<tag k="place" v="farm" />
		<tag k="ssr:stedsnr" v="432895" />
	</node>
	<node lat="61.48638978880054" lon="10.145021808954848" id="-37117">
		<tag k="fixme" v="consider place=hamlet" />
		<tag k="name" v="Elvestad" />
		<tag k="place" v="farm" />
		<tag k="ssr:stedsnr" v="433574" />
	</node>
	<node lat="61.4803361156023" lon="10.20635555652426" id="-37119">
		<tag k="alt_name" v="Skrukkerudkleiva" />
		<tag k="name" v="Kleiva" />
		<tag k="place" v="farm" />
		<tag k="ssr:stedsnr" v="433581" />
	</node>
	<node lat="61.399611001417355" lon="10.234304218753756" id="-37121">
		<tag k="alt_name" v="Sylte" />
		<tag k="fixme" v="consider place=hamlet" />
		<tag k="name" v="Nedre Sylte" />
		<tag k="place" v="farm" />
		<tag k="ssr:stedsnr" v="433902" />
	</node>
	<node lat="61.41364327279308" lon="10.241274773477933" id="-37122">
		<tag k="alt_name" v="Hagen" />
		<tag k="fixme" v="consider place=hamlet" />
		<tag k="name" v="Hågån" />
		<tag k="place" v="farm" />
		<tag k="ssr:stedsnr" v="433909" />
	</node>
	<node lat="61.42044417074352" lon="10.196948624020916" id="-37123">
		<tag k="name" v="Årnes" />
		<tag k="place" v="hamlet" />
		<tag k="ssr:stedsnr" v="433917" />
	</node>
	<node lat="61.47112279112554" lon="10.266735948022502" id="-37124">
		<tag k="alt_name" v="Ødegård" />
		<tag k="fixme" v="consider place=hamlet" />
		<tag k="name" v="Myttingsøygarden" />
		<tag k="place" v="farm" />
		<tag k="ssr:stedsnr" v="434605" />
	</node>
	<node lat="61.63303333383477" lon="9.994405556210625" id="-37127">
		<tag k="name" v="Ljoshaugen" />
		<tag k="place" v="farm" />
		<tag k="ssr:stedsnr" v="435780" />
	</node>
	<node lat="61.55600555811113" lon="10.100863890023547" id="-37129">
		<tag k="name" v="Stigen" />
		<tag k="place" v="farm" />
		<tag k="ssr:stedsnr" v="435819" />
	</node>
	<node lat="61.39655654297976" lon="10.237808286143727" id="-37133">
		<tag k="fixme" v="consider place=hamlet" />
		<tag k="name" v="Rudi" />
		<tag k="place" v="farm" />
		<tag k="ssr:stedsnr" v="493900" />
	</node>
	<node lat="61.3973032454768" lon="10.210280020371487" id="-37134">
		<tag k="alt_name" v="Nordre Madssvea" />
		<tag k="name" v="Madssvea" />
		<tag k="place" v="farm" />
		<tag k="ssr:stedsnr" v="493901" />
	</node>
	<node lat="61.36648333345056" lon="10.197316661013947" id="-37135">
		<tag k="historic" v="shieling" />
		<tag k="name" v="Veslesætra" />
		<tag k="place" v="isolated_dwelling" />
		<tag k="ssr:stedsnr" v="493991" />
	</node>
	<node lat="61.619905559333745" lon="10.069477778576141" id="-37143">
		<tag k="historic" v="shieling" />
		<tag k="name" v="Holtesæter" />
		<tag k="place" v="isolated_dwelling" />
		<tag k="ssr:stedsnr" v="463661" />
	</node>
	<node lat="61.5054416707647" lon="10.177711119370874" id="-37149">
		<tag k="name" v="Halstad" />
		<tag k="place" v="farm" />
		<tag k="ssr:stedsnr" v="463902" />
	</node>
	<node lat="61.459073491260455" lon="10.326940258729309" id="-37162">
		<tag k="fixme" v="consider place=hamlet" />
		<tag k="name" v="Borgedalen" />
		<tag k="place" v="farm" />
		<tag k="ssr:stedsnr" v="675585" />
	</node>
	<node lat="61.452597220081095" lon="10.340655557780247" id="-37163">
		<tag k="name" v="Syverud" />
		<tag k="old_name" v="Botn" />
		<tag k="place" v="farm" />
		<tag k="ssr:stedsnr" v="675589" />
	</node>
	<node lat="61.41706944517834" lon="10.480905557679586" id="-37166">
		<tag k="alt_name" v="Slærne" />
		<tag k="historic" v="shieling" />
		<tag k="name" v="Slæen" />
		<tag k="place" v="isolated_dwelling" />
		<tag k="ssr:stedsnr" v="676332" />
	</node>
	<node lat="61.43249999589303" lon="10.44719166536878" id="-37167">
		<tag k="historic" v="shieling" />
		<tag k="name" v="Åmotsætra" />
		<tag k="place" v="isolated_dwelling" />
		<tag k="ssr:stedsnr" v="676349" />
	</node>
	<node lat="61.427458337668696" lon="10.367724993249423" id="-37168">
		<tag k="historic" v="shieling" />
		<tag k="name" v="Oppsalsætra" />
		<tag k="place" v="isolated_dwelling" />
		<tag k="ssr:stedsnr" v="676353" />
	</node>
	<node lat="61.51619444519705" lon="10.189024996798802" id="-37172">
		<tag k="name" v="Røen" />
		<tag k="place" v="farm" />
		<tag k="ssr:stedsnr" v="677888" />
	</node>
	<node lat="61.50096944526224" lon="10.306874993218594" id="-37177">
		<tag k="name" v="Skotten seter og storhytte" />
		<tag k="old_name" v="Skotten sæterpensjonat" />
		<tag k="ssr:stedsnr" v="677168" />
		<tag k="tourism" v="hotel" />
	</node>
	<node lat="61.530895818572965" lon="10.151841946755345" id="-37187">
		<tag k="fixme" v="consider place=hamlet" />
		<tag k="name" v="Våle" />
		<tag k="place" v="farm" />
		<tag k="ssr:stedsnr" v="677858" />
	</node>
	<node lat="61.67433055470608" lon="10.53907499943454" id="-37192">
		<tag k="historic" v="shieling" />
		<tag k="name" v="Storfjellsætra" />
		<tag k="place" v="isolated_dwelling" />
		<tag k="ssr:stedsnr" v="678172" />
	</node>
	<node lat="61.528088890317456" lon="10.140288884216327" id="-37195">
		<tag k="building" v="industrial" />
		<tag k="industrial" v="factory" />
		<tag k="name" v="Ringebu Sag" />
		<tag k="ssr:stedsnr" v="482222" />
	</node>
	<node lat="61.45656110721543" lon="10.339211109292817" id="-37203">
		<tag k="name" v="Gunnershaugen" />
		<tag k="place" v="farm" />
		<tag k="ssr:stedsnr" v="493571" />
	</node>
	<node lat="61.42718068210404" lon="10.225428558336096" id="-37206">
		<tag k="name" v="Trosvik" />
		<tag k="place" v="hamlet" />
		<tag k="ssr:stedsnr" v="493937" />
	</node>
	<node lat="61.38720250408313" lon="10.26084933908846" id="-37207">
		<tag k="fixme" v="consider place=hamlet" />
		<tag k="name" v="Krekke" />
		<tag k="place" v="farm" />
		<tag k="ssr:stedsnr" v="493886" />
	</node>
	<node lat="61.41813611471311" lon="10.457102770150083" id="-37208">
		<tag k="alt_name" v="Bjorhusvollen" />
		<tag k="historic" v="shieling" />
		<tag k="name" v="Byrusvollen" />
		<tag k="place" v="isolated_dwelling" />
		<tag k="ssr:stedsnr" v="494305" />
	</node>
	<node lat="61.42366388513977" lon="10.526838892484289" id="-37211">
		<tag k="alt_name" v="Hjelle" />
		<tag k="historic" v="shieling" />
		<tag k="name" v="Hjellsætra" />
		<tag k="place" v="isolated_dwelling" />
		<tag k="ssr:stedsnr" v="494325" />
	</node>
	<node lat="61.41968145973275" lon="10.235142908309925" id="-37214">
		<tag k="alt_name" v="Presttangen" />
		<tag k="fixme" v="consider place=hamlet" />
		<tag k="name" v="Prestangen" />
		<tag k="place" v="farm" />
		<tag k="ssr:stedsnr" v="494909" />
	</node>
	<node lat="61.52724722662598" lon="10.080425009014881" id="-37223">
		<tag k="alt_name" v="Rønningen" />
		<tag k="name" v="Rydningen" />
		<tag k="place" v="farm" />
		<tag k="ssr:stedsnr" v="495868" />
	</node>
	<node lat="61.56060277412845" lon="10.64077500731529" id="-37227">
		<tag k="name" v="Ormvollen" />
		<tag k="place" v="isolated_dwelling" />
		<tag k="ssr:stedsnr" v="510421" />
	</node>
	<node lat="61.56953333383197" lon="10.127919449229319" id="-37230">
		<tag k="historic" v="shieling" />
		<tag k="name" v="Myrsæter" />
		<tag k="place" v="isolated_dwelling" />
		<tag k="ssr:stedsnr" v="524006" />
	</node>
	<node lat="61.43548055810431" lon="10.459250001437814" id="-37233">
		<tag k="historic" v="shieling" />
		<tag k="name" v="Kampen" />
		<tag k="place" v="isolated_dwelling" />
		<tag k="ssr:stedsnr" v="524166" />
	</node>
	<node lat="61.43106944035203" lon="10.456852784139059" id="-37234">
		<tag k="historic" v="shieling" />
		<tag k="name" v="Søre Løsnes" />
		<tag k="place" v="isolated_dwelling" />
		<tag k="ssr:stedsnr" v="524567" />
	</node>
	<node lat="61.51220833202717" lon="10.65306666311123" id="-37242">
		<tag k="name" v="Prestangsbua" />
		<tag k="place" v="isolated_dwelling" />
		<tag k="ssr:stedsnr" v="524963" />
	</node>
	<node lat="61.49925000033302" lon="10.177613888062726" id="-37244">
		<tag k="name" v="Prestbakken" />
		<tag k="place" v="farm" />
		<tag k="ssr:stedsnr" v="524972" />
	</node>
	<node lat="61.527205555062" lon="10.60238332596083" id="-37245">
		<tag k="name" v="Myttingsbua" />
		<tag k="place" v="isolated_dwelling" />
		<tag k="ssr:stedsnr" v="524975" />
	</node>
	<node lat="61.44605555404997" lon="10.526377776214858" id="-37246">
		<tag k="name" v="Nord-Goppollen" />
		<tag k="place" v="hamlet" />
		<tag k="ssr:stedsnr" v="536819" />
	</node>
	<node lat="61.499963886086384" lon="10.041252779089795" id="-37248">
		<tag k="historic" v="shieling" />
		<tag k="name" v="Randklev" />
		<tag k="place" v="isolated_dwelling" />
		<tag k="ssr:stedsnr" v="537323" />
	</node>
	<node lat="61.62670277961453" lon="9.986975004704423" id="-37249">
		<tag k="name" v="Snippen" />
		<tag k="place" v="farm" />
		<tag k="ssr:stedsnr" v="537421" />
	</node>
	<node lat="61.65058888951787" lon="9.981538888800534" id="-37250">
		<tag k="amenity" v="school" />
		<tag k="name" v="Venåsen skole" />
		<tag k="ssr:stedsnr" v="537615" />
	</node>
	<node lat="61.384825000361595" lon="10.191916665695711" id="-37253">
		<tag k="historic" v="shieling" />
		<tag k="name" v="Veslestulen" />
		<tag k="place" v="isolated_dwelling" />
		<tag k="ssr:stedsnr" v="543767" />
	</node>
	<node lat="61.4535555519379" lon="10.164425007046473" id="-37254">
		<tag k="name" v="Nedre Myre" />
		<tag k="place" v="farm" />
		<tag k="ssr:stedsnr" v="543984" />
	</node>
	<node lat="61.3962444424346" lon="10.28442223020305" id="-37257">
		<tag k="alt_name" v="Hemsvea" />
		<tag k="name" v="Heimsvea" />
		<tag k="place" v="farm" />
		<tag k="ssr:stedsnr" v="553895" />
	</node>
	<node lat="61.43527778192108" lon="10.51291943808903" id="-37258">
		<tag k="alt_name" v="Rudrud" />
		<tag k="historic" v="shieling" />
		<tag k="name" v="Rudderud" />
		<tag k="place" v="isolated_dwelling" />
		<tag k="ssr:stedsnr" v="554373" />
	</node>
	<node lat="61.44100833077144" lon="10.136758327672926" id="-37259">
		<tag k="name" v="Godlisvea" />
		<tag k="place" v="farm" />
		<tag k="ssr:stedsnr" v="554623" />
	</node>
	<node lat="61.67056666527688" lon="10.056075003309992" id="-37261">
		<tag k="alt_name" v="Øiddvoll" />
		<tag k="name" v="Oddvoll" />
		<tag k="place" v="isolated_dwelling" />
		<tag k="ssr:stedsnr" v="688329" />
	</node>
	<node lat="61.54880014029465" lon="10.075817785428681" id="-37262">
		<tag k="fixme" v="consider place=hamlet" />
		<tag k="name" v="Forkalsrud" />
		<tag k="place" v="farm" />
		<tag k="ssr:stedsnr" v="555803" />
	</node>
	<node lat="61.64693611467094" lon="9.979044450862867" id="-37264">
		<tag k="name" v="Nordheim" />
		<tag k="place" v="farm" />
		<tag k="ssr:stedsnr" v="555989" />
	</node>
	<node lat="61.571102773771976" lon="10.598161102744841" id="-37265">
		<tag k="historic" v="shieling" />
		<tag k="name" v="Ormsætra" />
		<tag k="place" v="isolated_dwelling" />
		<tag k="ssr:stedsnr" v="556166" />
	</node>
	<node lat="61.502263225773554" lon="10.191943501149723" id="-37268">
		<tag k="fixme" v="consider place=hamlet" />
		<tag k="name" v="Kaus" />
		<tag k="place" v="farm" />
		<tag k="ssr:stedsnr" v="556868" />
	</node>
	<node lat="61.70107778108574" lon="10.002941666139417" id="-37271">
		<tag k="historic" v="shieling" />
		<tag k="name" v="Venåssætra" />
		<tag k="place" v="isolated_dwelling" />
		<tag k="ssr:stedsnr" v="556971" />
	</node>
	<node lat="61.70833888471531" lon="10.569211101667495" id="-37272">
		<tag k="name" v="Skjerdingen høyfjellshotell" />
		<tag k="old_name" v="Skjerdingen hotell" />
		<tag k="ssr:stedsnr" v="570405" />
		<tag k="tourism" v="hotel" />
	</node>
	<node lat="61.47258610953987" lon="10.378583335887939" id="-37279">
		<tag k="historic" v="shieling" />
		<tag k="name" v="Hillstad" />
		<tag k="place" v="isolated_dwelling" />
		<tag k="ssr:stedsnr" v="584612" />
	</node>
	<node lat="61.550955559715604" lon="10.08418610195751" id="-37282">
		<tag k="name" v="Nystuen" />
		<tag k="place" v="farm" />
		<tag k="ssr:stedsnr" v="584645" />
	</node>
	<node lat="61.54427777444285" lon="10.097505560722823" id="-37283">
		<tag k="name" v="Sletten" />
		<tag k="place" v="isolated_dwelling" />
		<tag k="ssr:stedsnr" v="584648" />
	</node>
	<node lat="61.43763888540997" lon="10.211502775640461" id="-37286">
		<tag k="name" v="Kilgarden" />
		<tag k="place" v="isolated_dwelling" />
		<tag k="ssr:stedsnr" v="584804" />
	</node>
	<node lat="61.559750004469905" lon="10.307913883451274" id="-37288">
		<tag k="historic" v="shieling" />
		<tag k="name" v="Berg" />
		<tag k="place" v="isolated_dwelling" />
		<tag k="ssr:stedsnr" v="584712" />
	</node>
	<node lat="61.492341665739545" lon="10.090755549236993" id="-37290">
		<tag k="historic" v="shieling" />
		<tag k="name" v="Åsen" />
		<tag k="place" v="isolated_dwelling" />
		<tag k="ssr:stedsnr" v="584754" />
	</node>
	<node lat="61.40311944140417" lon="10.341402776071439" id="-37295">
		<tag k="historic" v="shieling" />
		<tag k="name" v="Borgemoen" />
		<tag k="place" v="isolated_dwelling" />
		<tag k="ssr:stedsnr" v="585244" />
	</node>
	<node lat="61.66277500229817" lon="10.143816660355121" id="-37296">
		<tag k="historic" v="shieling" />
		<tag k="name" v="Jonstølen" />
		<tag k="place" v="isolated_dwelling" />
		<tag k="ssr:stedsnr" v="585417" />
	</node>
	<node lat="61.38658888658596" lon="10.265061102983182" id="-37297">
		<tag k="leisure" v="pitch" />
		<tag k="name" v="Krekkebakkene" />
		<tag k="ssr:stedsnr" v="585421" />
	</node>
	<node lat="61.65965555802972" lon="10.626291659984133" id="-37301">
		<tag k="name" v="Lokkarhaugen" />
		<tag k="place" v="isolated_dwelling" />
		<tag k="ssr:stedsnr" v="586797" />
	</node>
	<node lat="61.41640277731748" lon="10.20329166406741" id="-37306">
		<tag k="name" v="Årnesbakken" />
		<tag k="place" v="locality" />
		<tag k="ssr:stedsnr" v="603787" />
	</node>
	<node lat="61.45397777885985" lon="10.128863889511335" id="-37308">
		<tag k="historic" v="shieling" />
		<tag k="name" v="Segalstad" />
		<tag k="place" v="isolated_dwelling" />
		<tag k="ssr:stedsnr" v="603957" />
	</node>
	<node lat="61.419686111635436" lon="10.49701666107042" id="-37309">
		<tag k="historic" v="shieling" />
		<tag k="name" v="Øfstegårdshagen" />
		<tag k="place" v="isolated_dwelling" />
		<tag k="ssr:stedsnr" v="603961" />
	</node>
	<node lat="61.42928611395377" lon="10.525325005970302" id="-37313">
		<tag k="alt_name" v="Hjellstuen" />
		<tag k="historic" v="shieling" />
		<tag k="name" v="Hjellstugua" />
		<tag k="place" v="isolated_dwelling" />
		<tag k="ssr:stedsnr" v="615328" />
	</node>
	<node lat="61.46443889169349" lon="10.344933340324712" id="-37314">
		<tag k="alt_name" v="Fugleslåen" />
		<tag k="name" v="Fugleslåa" />
		<tag k="place" v="farm" />
		<tag k="ssr:stedsnr" v="615330" />
	</node>
	<node lat="61.543990315446" lon="10.11639667195568" id="-37319">
		<tag k="name" v="Gunstad" />
		<tag k="place" v="hamlet" />
		<tag k="ssr:stedsnr" v="616843" />
	</node>
	<node lat="61.51541388790778" lon="10.20357777925426" id="-37320">
		<tag k="name" v="Sikle" />
		<tag k="place" v="farm" />
		<tag k="ssr:stedsnr" v="616890" />
	</node>
	<node lat="61.543097221020595" lon="10.126319436818184" id="-37330">
		<tag k="name" v="Solbakken" />
		<tag k="place" v="farm" />
		<tag k="ssr:stedsnr" v="706199" />
	</node>
	<node lat="61.408944440653045" lon="10.34767777243138" id="-37331">
		<tag k="historic" v="shieling" />
		<tag k="name" v="Nysted" />
		<tag k="place" v="isolated_dwelling" />
		<tag k="ssr:stedsnr" v="706289" />
	</node>
	<node lat="61.44183332929381" lon="10.316863889853" id="-37334">
		<tag k="name" v="Bakkejordsbua" />
		<tag k="place" v="isolated_dwelling" />
		<tag k="ssr:stedsnr" v="706246" />
	</node>
	<node lat="61.53795555338385" lon="10.130891671590899" id="-37336">
		<tag k="name" v="Arnemoen" />
		<tag k="place" v="farm" />
		<tag k="ssr:stedsnr" v="645207" />
	</node>
	<node lat="61.41284999786401" lon="10.329561118329291" id="-37339">
		<tag k="historic" v="shieling" />
		<tag k="name" v="Stenumgardsæter" />
		<tag k="place" v="isolated_dwelling" />
		<tag k="ssr:stedsnr" v="645277" />
	</node>
	<node lat="61.40661389207914" lon="10.3112916660086" id="-37340">
		<tag k="historic" v="shieling" />
		<tag k="name" v="Smidesang" />
		<tag k="place" v="isolated_dwelling" />
		<tag k="ssr:stedsnr" v="645281" />
	</node>
	<node lat="61.38506388541918" lon="10.25991945297009" id="-37344">
		<tag k="name" v="Krekke camping" />
		<tag k="ssr:stedsnr" v="645431" />
		<tag k="tourism" v="camp_site" />
	</node>
	<node lat="61.36510832903608" lon="10.196569447158575" id="-37348">
		<tag k="historic" v="shieling" />
		<tag k="name" v="Madssveen" />
		<tag k="place" v="isolated_dwelling" />
		<tag k="ssr:stedsnr" v="645399" />
	</node>
	<node lat="61.58258333520268" lon="10.245891670206962" id="-37349">
		<tag k="historic" v="shieling" />
		<tag k="name" v="Høye" />
		<tag k="place" v="isolated_dwelling" />
		<tag k="ssr:stedsnr" v="645474" />
	</node>
	<node lat="61.45470833638069" lon="10.063352779525198" id="-37354">
		<tag k="historic" v="shieling" />
		<tag k="name" v="Kroksvea" />
		<tag k="place" v="isolated_dwelling" />
		<tag k="ssr:stedsnr" v="645702" />
	</node>
	<node lat="61.55321111461947" lon="10.084666674108767" id="-37356">
		<tag k="name" v="Nordheim" />
		<tag k="place" v="farm" />
		<tag k="ssr:stedsnr" v="645598" />
	</node>
	<node lat="61.49093055840456" lon="10.205430551707371" id="-37362">
		<tag k="name" v="Odlosvea" />
		<tag k="place" v="farm" />
		<tag k="ssr:stedsnr" v="645896" />
	</node>
	<node lat="61.49765278063709" lon="10.31671943736513" id="-37368">
		<tag k="historic" v="shieling" />
		<tag k="name" v="Mork" />
		<tag k="place" v="isolated_dwelling" />
		<tag k="ssr:stedsnr" v="706695" />
	</node>
	<node lat="61.52400277571735" lon="10.171769442638798" id="-37374">
		<tag k="name" v="Træet" />
		<tag k="place" v="farm" />
		<tag k="ssr:stedsnr" v="706932" />
	</node>
	<node lat="61.618844441202775" lon="9.989349994164677" id="-37381">
		<tag k="name" v="Sæterstuen" />
		<tag k="place" v="farm" />
		<tag k="ssr:stedsnr" v="659441" />
	</node>
	<node lat="61.448413887501026" lon="10.208205558986318" id="-37386">
		<tag k="alt_name" v="Vangenfeltet" />
		<tag k="name" v="Lundjordet" />
		<tag k="place" v="quarter" />
		<tag k="ssr:stedsnr" v="664992" />
	</node>
	<node lat="61.449278516219316" lon="10.214456587987051" id="-37387">
		<tag k="fixme" v="consider place=hamlet" />
		<tag k="name" v="Lunde" />
		<tag k="place" v="farm" />
		<tag k="ssr:stedsnr" v="664993" />
	</node>
	<node lat="61.44032500162784" lon="10.138438897874895" id="-37390">
		<tag k="name" v="Tullibakken" />
		<tag k="place" v="farm" />
		<tag k="ssr:stedsnr" v="675608" />
	</node>
	<node lat="61.43938333155448" lon="10.204874998130862" id="-37391">
		<tag k="alt_name" v="Øvre Løsnes" />
		<tag k="name" v="Løysnes" />
		<tag k="place" v="farm" />
		<tag k="ssr:stedsnr" v="675610" />
	</node>
	<node lat="61.40149721929287" lon="10.201311113375871" id="-37393">
		<tag k="name" v="Øverli" />
		<tag k="place" v="farm" />
		<tag k="ssr:stedsnr" v="675911" />
	</node>
	<node lat="61.40051336540912" lon="10.279215844565313" id="-37395">
		<tag k="fixme" v="consider place=hamlet" />
		<tag k="name" v="Bakken" />
		<tag k="place" v="farm" />
		<tag k="ssr:stedsnr" v="675900" />
	</node>
	<node lat="61.60008611310646" lon="10.61210278282892" id="-37397">
		<tag k="name" v="Krokbakken" />
		<tag k="place" v="farm" />
		<tag k="ssr:stedsnr" v="677134" />
	</node>
	<node lat="61.58917554603735" lon="10.046363765385019" id="-37400">
		<tag k="name" v="Øygarden" />
		<tag k="place" v="farm" />
		<tag k="ssr:stedsnr" v="677810" />
	</node>
	<node lat="61.55196944000479" lon="10.059380555354728" id="-37404">
		<tag k="alt_name" v="Forråbrua" />
		<tag k="name" v="Foråbrua" />
		<tag k="place" v="farm" />
		<tag k="ssr:stedsnr" v="678794" />
	</node>
	<node lat="61.67793611533214" lon="10.548811102717831" id="-37406">
		<tag k="name" v="Storfjellstua" />
		<tag k="place" v="isolated_dwelling" />
		<tag k="ssr:stedsnr" v="692440" />
	</node>
	<node lat="61.47259722027033" lon="10.166691665530488" id="-37407">
		<tag k="landuse" v="winter_sports" />
		<tag k="name" v="Kvitfjell alpinanlegg" />
		<tag k="piste:type" v="downhill" />
		<tag k="ssr:stedsnr" v="693607" />
	</node>
	<node lat="61.54543889174084" lon="10.159861110388315" id="-37413">
		<tag k="name" v="Løpet" />
		<tag k="place" v="farm" />
		<tag k="ssr:stedsnr" v="706176" />
	</node>
	<node lat="61.46851102858311" lon="10.278010249628418" id="-37414">
		<tag k="fixme" v="consider place=hamlet" />
		<tag k="name" v="Sparingen" />
		<tag k="place" v="farm" />
		<tag k="ssr:stedsnr" v="706317" />
	</node>
	<node lat="61.636447221798186" lon="10.12531666887275" id="-37416">
		<tag k="historic" v="shieling" />
		<tag k="name" v="Haugstad" />
		<tag k="place" v="isolated_dwelling" />
		<tag k="ssr:stedsnr" v="706422" />
	</node>
	<node lat="61.552638885135316" lon="10.10443054946992" id="-37419">
		<tag k="name" v="Svea" />
		<tag k="place" v="farm" />
		<tag k="ssr:stedsnr" v="706604" />
	</node>
	<node lat="61.60433611082557" lon="10.152180560532123" id="-37421">
		<tag k="historic" v="shieling" />
		<tag k="name" v="Grishaugen" />
		<tag k="place" v="isolated_dwelling" />
		<tag k="ssr:stedsnr" v="706371" />
	</node>
	<node lat="61.421886111650636" lon="10.389816658899251" id="-37422">
		<tag k="historic" v="shieling" />
		<tag k="name" v="Lunde" />
		<tag k="place" v="isolated_dwelling" />
		<tag k="ssr:stedsnr" v="706526" />
	</node>
	<node lat="61.48574444889431" lon="10.079122225984216" id="-37425">
		<tag k="historic" v="shieling" />
		<tag k="name" v="Nysæter" />
		<tag k="place" v="isolated_dwelling" />
		<tag k="ssr:stedsnr" v="706707" />
	</node>
	<node lat="61.543608335464924" lon="10.320463881213719" id="-37427">
		<tag k="historic" v="shieling" />
		<tag k="name" v="Træet" />
		<tag k="place" v="isolated_dwelling" />
		<tag k="ssr:stedsnr" v="706680" />
	</node>
	<node lat="61.53228333639567" lon="10.14742500247254" id="-37431">
		<tag k="name" v="Bøfeltet" />
		<tag k="place" v="quarter" />
		<tag k="ssr:stedsnr" v="706928" />
	</node>
	<node lat="61.50557222250807" lon="10.661305552347567" id="-37433">
		<tag k="name" v="Olabua" />
		<tag k="place" v="isolated_dwelling" />
		<tag k="ssr:stedsnr" v="706978" />
	</node>
	<node lat="61.50912777712145" lon="10.134124995243797" id="-37436">
		<tag k="name" v="Øvre Rankleiv" />
		<tag k="place" v="farm" />
		<tag k="ssr:stedsnr" v="706982" />
	</node>
	<node lat="61.45891666454727" lon="10.482288887714157" id="-37438">
		<tag k="historic" v="shieling" />
		<tag k="name" v="Haugtun" />
		<tag k="place" v="isolated_dwelling" />
		<tag k="ssr:stedsnr" v="708217" />
	</node>
	<node lat="61.429158336406694" lon="10.512655555357963" id="-37441">
		<tag k="name" v="Midt-Goppollen" />
		<tag k="place" v="hamlet" />
		<tag k="ssr:stedsnr" v="719814" />
	</node>
	<node lat="61.602822225533984" lon="10.03200554626133" id="-37442">
		<tag k="name" v="Hageødegården" />
		<tag k="place" v="isolated_dwelling" />
		<tag k="ssr:stedsnr" v="719905" />
	</node>
	<node lat="61.51923610705399" lon="10.139177785499443" id="-37445">
		<tag k="name" v="Strømnesset" />
		<tag k="place" v="isolated_dwelling" />
		<tag k="ssr:stedsnr" v="725125" />
	</node>
	<node lat="61.67208888510119" lon="10.096888895050064" id="-37449">
		<tag k="historic" v="shieling" />
		<tag k="name" v="Reire" />
		<tag k="place" v="isolated_dwelling" />
		<tag k="ssr:stedsnr" v="725878" />
	</node>
	<node lat="61.492630554197184" lon="10.21324999203102" id="-37455">
		<tag k="name" v="Granlia" />
		<tag k="place" v="farm" />
		<tag k="ssr:stedsnr" v="737513" />
	</node>
	<node lat="61.45368076322111" lon="10.213273003960657" id="-37456">
		<tag k="fixme" v="consider place=hamlet" />
		<tag k="name" v="Nordrum" />
		<tag k="place" v="farm" />
		<tag k="ssr:stedsnr" v="737567" />
	</node>
	<node lat="61.46854878736065" lon="10.227143131638007" id="-37458">
		<tag k="alt_name" v="Romsåsgardene" />
		<tag k="name" v="Romsås" />
		<tag k="place" v="hamlet" />
		<tag k="ssr:stedsnr" v="737610" />
	</node>
	<node lat="61.58122222005719" lon="10.095591665472117" id="-37462">
		<tag k="historic" v="shieling" />
		<tag k="name" v="Langsetsætra" />
		<tag k="old_name" v="Langsætra" />
		<tag k="place" v="isolated_dwelling" />
		<tag k="ssr:stedsnr" v="738814" />
	</node>
	<node lat="61.544861109441435" lon="10.119252770769338" id="-37468">
		<tag k="fixme" v="consider place=hamlet" />
		<tag k="name" v="Øvre Gunstad" />
		<tag k="place" v="farm" />
		<tag k="ssr:stedsnr" v="767199" />
	</node>
	<node lat="61.53725278170892" lon="10.155627772694002" id="-37471">
		<tag k="name" v="Bøkleiva" />
		<tag k="place" v="isolated_dwelling" />
		<tag k="ssr:stedsnr" v="767217" />
	</node>
	<node lat="61.54680277629004" lon="10.056008328529904" id="-37474">
		<tag k="name" v="Frya industriområde" />
		<tag k="place" v="quarter" />
		<tag k="ssr:stedsnr" v="767604" />
	</node>
	<node lat="61.5455638850533" lon="10.094244435885173" id="-37475">
		<tag k="amenity" v="school" />
		<tag k="name" v="Kjønås skole" />
		<tag k="ssr:stedsnr" v="767610" />
	</node>
	<node lat="61.54865555551109" lon="10.059125006999883" id="-37477">
		<tag k="landuse" v="military" />
		<tag k="name" v="Frya leir" />
		<tag k="ssr:stedsnr" v="767602" />
	</node>
	<node lat="61.52722500284592" lon="10.163102784777546" id="-37478">
		<tag k="name" v="Skarven" />
		<tag k="place" v="locality" />
		<tag k="ssr:stedsnr" v="767917" />
	</node>
	<node lat="61.52788332996184" lon="10.16198333453949" id="-37479">
		<tag k="name" v="Høye" />
		<tag k="place" v="farm" />
		<tag k="ssr:stedsnr" v="767930" />
	</node>
	<node lat="61.493119444570105" lon="10.48981667392773" id="-37480">
		<tag k="name" v="Myttingsbua" />
		<tag k="place" v="isolated_dwelling" />
		<tag k="ssr:stedsnr" v="767954" />
	</node>
	<node lat="61.51371388527787" lon="10.134227784361023" id="-37481">
		<tag k="name" v="Randklev" />
		<tag k="place" v="farm" />
		<tag k="ssr:stedsnr" v="907134" />
	</node>
	<node lat="61.55122778225542" lon="10.119424994150954" id="-37483">
		<tag k="name" v="Høystadlykkja" />
		<tag k="place" v="farm" />
		<tag k="ssr:stedsnr" v="770630" />
	</node>
	<node lat="61.56990555262377" lon="10.070322225772284" id="-37484">
		<tag k="name" v="Erlandsrud" />
		<tag k="place" v="isolated_dwelling" />
		<tag k="ssr:stedsnr" v="907630" />
	</node>
	<node lat="61.571083331025456" lon="10.059097219590399" id="-37485">
		<tag k="name" v="Holte" />
		<tag k="place" v="farm" />
		<tag k="ssr:stedsnr" v="907633" />
	</node>
	<node lat="61.46523888846889" lon="10.207580550623714" id="-37487">
		<tag k="name" v="Flyhågån" />
		<tag k="place" v="isolated_dwelling" />
		<tag k="ssr:stedsnr" v="907991" />
	</node>
	<node lat="61.49088611036681" lon="10.136686109146634" id="-37493">
		<tag k="name" v="Åsen" />
		<tag k="place" v="farm" />
		<tag k="ssr:stedsnr" v="797521" />
	</node>
	<node lat="61.49809444387927" lon="10.203827768508296" id="-37494">
		<tag k="name" v="Åsheim" />
		<tag k="place" v="farm" />
		<tag k="ssr:stedsnr" v="797530" />
	</node>
	<node lat="61.42595790229033" lon="10.22793579216627" id="-37497">
		<tag k="alt_name" v="Tujord" />
		<tag k="fixme" v="consider place=hamlet" />
		<tag k="name" v="Tvåjord" />
		<tag k="old_name" v="Tvaajord;Tujordet;Tuejordet" />
		<tag k="place" v="farm" />
		<tag k="ssr:stedsnr" v="797911" />
	</node>
	<node lat="61.40788094792591" lon="10.149935396350957" id="-37500">
		<tag k="historic" v="shieling" />
		<tag k="name" v="Bånsætra" />
		<tag k="place" v="isolated_dwelling" />
		<tag k="ssr:stedsnr" v="797894" />
	</node>
	<node lat="61.66419722351032" lon="10.132291667327689" id="-37514">
		<tag k="historic" v="shieling" />
		<tag k="name" v="Kjørkjegardssætra" />
		<tag k="place" v="isolated_dwelling" />
		<tag k="ssr:stedsnr" v="799990" />
	</node>
	<node lat="61.53277286435632" lon="10.165813825053622" id="-37516">
		<tag k="fixme" v="consider place=hamlet" />
		<tag k="name" v="Gilleberg" />
		<tag k="place" v="farm" />
		<tag k="ssr:stedsnr" v="799885" />
	</node>
	<node lat="61.50044721987573" lon="10.150025002944815" id="-37517">
		<tag k="alt_name" v="Rotåslia" />
		<tag k="name" v="Lia" />
		<tag k="place" v="farm" />
		<tag k="ssr:stedsnr" v="799892" />
	</node>
	<node lat="61.51951147022799" lon="10.171631139314911" id="-37518">
		<tag k="name" v="Vestad" />
		<tag k="place" v="hamlet" />
		<tag k="ssr:stedsnr" v="799898" />
	</node>
	<node lat="61.39108055821525" lon="9.961894450356148" id="-37524">
		<tag k="historic" v="shieling" />
		<tag k="name" v="Veumsætra" />
		<tag k="place" v="isolated_dwelling" />
		<tag k="ssr:stedsnr" v="918396" />
	</node>
	<node lat="61.450761107056785" lon="10.170172221405128" id="-37529">
		<tag k="name" v="Myrvoll" />
		<tag k="place" v="farm" />
		<tag k="ssr:stedsnr" v="918639" />
	</node>
	<node lat="61.44760277894671" lon="10.21608610840868" id="-37530">
		<tag k="name" v="Lunde" />
		<tag k="place" v="farm" />
		<tag k="ssr:stedsnr" v="918642" />
	</node>
	<node lat="61.43828611112218" lon="10.513772219544606" id="-37534">
		<tag k="alt_name" v="Øvre Løsnes" />
		<tag k="historic" v="shieling" />
		<tag k="name" v="Løysnes" />
		<tag k="place" v="isolated_dwelling" />
		<tag k="ssr:stedsnr" v="919337" />
	</node>
	<node lat="61.48679732473233" lon="10.152501932656428" id="-37536">
		<tag k="alt_name" v="Rottås" />
		<tag k="name" v="Nedre Rotås" />
		<tag k="place" v="farm" />
		<tag k="ssr:stedsnr" v="919573" />
	</node>
	<node lat="61.4866388887529" lon="10.20480555203268" id="-37537">
		<tag k="name" v="Bråten" />
		<tag k="place" v="farm" />
		<tag k="ssr:stedsnr" v="919579" />
	</node>
	<node lat="61.49630044571574" lon="10.194230878183538" id="-37538">
		<tag k="alt_name" v="Odlogardene" />
		<tag k="name" v="Odlo" />
		<tag k="place" v="hamlet" />
		<tag k="ssr:stedsnr" v="919533" />
	</node>
	<node lat="61.47181666291604" lon="10.153797213459411" id="-37539">
		<tag k="alt_name" v="Krogsvea" />
		<tag k="name" v="Kroksvea" />
		<tag k="place" v="farm" />
		<tag k="ssr:stedsnr" v="919588" />
	</node>
	<node lat="61.431017057635565" lon="10.227434397021392" id="-37541">
		<tag k="name" v="Oppsal" />
		<tag k="place" v="hamlet" />
		<tag k="ssr:stedsnr" v="919923" />
	</node>
	<node lat="61.429322222162746" lon="10.165794452900073" id="-37542">
		<tag k="name" v="Berglund" />
		<tag k="place" v="farm" />
		<tag k="ssr:stedsnr" v="919928" />
	</node>
	<node lat="61.596233336908604" lon="10.129977787300279" id="-37550">
		<tag k="historic" v="shieling" />
		<tag k="name" v="Lauvåsen" />
		<tag k="place" v="isolated_dwelling" />
		<tag k="ssr:stedsnr" v="920764" />
	</node>
	<node lat="61.6138583360781" lon="9.999363891584522" id="-37551">
		<tag k="name" v="Risbakken" />
		<tag k="place" v="farm" />
		<tag k="ssr:stedsnr" v="920777" />
	</node>
	<node lat="61.52559050691283" lon="10.16395202568865" id="-37553">
		<tag k="fixme" v="consider place=hamlet" />
		<tag k="name" v="Guttu" />
		<tag k="place" v="farm" />
		<tag k="ssr:stedsnr" v="920875" />
	</node>
	<node lat="61.732186113264255" lon="10.138800007196318" id="-37555">
		<tag k="name" v="Ramshytta" />
		<tag k="place" v="isolated_dwelling" />
		<tag k="ssr:stedsnr" v="920952" />
	</node>
	<node lat="61.58076111220454" lon="10.243019438849972" id="-37558">
		<tag k="historic" v="shieling" />
		<tag k="name" v="Voldsrud" />
		<tag k="place" v="isolated_dwelling" />
		<tag k="ssr:stedsnr" v="828176" />
	</node>
	<node lat="61.44529999711195" lon="10.302402777167327" id="-37561">
		<tag k="name" v="Nordrumsbua" />
		<tag k="place" v="isolated_dwelling" />
		<tag k="ssr:stedsnr" v="828225" />
	</node>
	<node lat="61.59985000288329" lon="10.14774165939027" id="-37563">
		<tag k="historic" v="shieling" />
		<tag k="name" v="Forkalsrud sæter" />
		<tag k="place" v="isolated_dwelling" />
		<tag k="ssr:stedsnr" v="828384" />
	</node>
	<node lat="61.566113887279236" lon="10.268838896463995" id="-37564">
		<tag k="historic" v="shieling" />
		<tag k="name" v="Kolstad-nysætra" />
		<tag k="place" v="isolated_dwelling" />
		<tag k="ssr:stedsnr" v="828462" />
	</node>
	<node lat="61.58132222135089" lon="10.24419721723977" id="-37566">
		<tag k="historic" v="shieling" />
		<tag k="name" v="Kvisslehaugen" />
		<tag k="place" v="isolated_dwelling" />
		<tag k="ssr:stedsnr" v="828467" />
	</node>
	<node lat="61.408772226174165" lon="10.151180547497898" id="-37576">
		<tag k="historic" v="shieling" />
		<tag k="name" v="Tofte" />
		<tag k="place" v="isolated_dwelling" />
		<tag k="ssr:stedsnr" v="847774" />
	</node>
	<node lat="61.41416944162557" lon="10.225108324965147" id="-37577">
		<tag k="name" v="Spekhus" />
		<tag k="place" v="farm" />
		<tag k="ssr:stedsnr" v="857907" />
	</node>
	<node lat="61.381502780885356" lon="10.226641658748134" id="-37579">
		<tag k="alt_name" v="Nyfløt" />
		<tag k="name" v="Veslnyflot" />
		<tag k="place" v="farm" />
		<tag k="ssr:stedsnr" v="857881" />
	</node>
	<node lat="61.48245555857278" lon="10.105591663250474" id="-37582">
		<tag k="alt_name" v="Strandesæter" />
		<tag k="historic" v="shieling" />
		<tag k="name" v="Strandesætra" />
		<tag k="place" v="isolated_dwelling" />
		<tag k="ssr:stedsnr" v="858607" />
	</node>
	<node lat="61.47491211376789" lon="10.203297675376154" id="-37583">
		<tag k="fixme" v="consider place=hamlet" />
		<tag k="name" v="Skrukkerud" />
		<tag k="place" v="farm" />
		<tag k="ssr:stedsnr" v="858620" />
	</node>
	<node lat="61.44511944293035" lon="10.162511105280727" id="-37584">
		<tag k="name" v="Myrmoen" />
		<tag k="place" v="farm" />
		<tag k="ssr:stedsnr" v="858588" />
	</node>
	<node lat="61.573750001243155" lon="10.402430552197915" id="-37593">
		<tag k="name" v="Saubu" />
		<tag k="place" v="isolated_dwelling" />
		<tag k="ssr:stedsnr" v="860161" />
	</node>
	<node lat="61.73067221787088" lon="10.601158337090048" id="-37597">
		<tag k="historic" v="shieling" />
		<tag k="name" v="Skardsætra" />
		<tag k="place" v="isolated_dwelling" />
		<tag k="ssr:stedsnr" v="860219" />
	</node>
	<node lat="61.5620750012147" lon="10.078483331552407" id="-37599">
		<tag k="alt_name" v="Bergom" />
		<tag k="name" v="Bergum" />
		<tag k="place" v="farm" />
		<tag k="ssr:stedsnr" v="860805" />
	</node>
	<node lat="61.40291110965375" lon="10.206772226080433" id="-37607">
		<tag k="name" v="Sørjordet" />
		<tag k="place" v="farm" />
		<tag k="ssr:stedsnr" v="888758" />
	</node>
	<node lat="61.58488333562449" lon="10.060894441458451" id="-37611">
		<tag k="loc_name" v="Ospelykkja" />
		<tag k="name" v="Aspeløkken" />
		<tag k="place" v="farm" />
		<tag k="ssr:stedsnr" v="888653" />
	</node>
	<node lat="61.541902774859444" lon="10.148980563482626" id="-37616">
		<tag k="name" v="Karlstad" />
		<tag k="place" v="isolated_dwelling" />
		<tag k="ssr:stedsnr" v="889214" />
	</node>
	<node lat="61.54035278065388" lon="10.123886105156613" id="-37617">
		<tag k="name" v="Gunstadskogen" />
		<tag k="place" v="quarter" />
		<tag k="ssr:stedsnr" v="889223" />
	</node>
	<node lat="61.444491663508316" lon="10.304852774448761" id="-37619">
		<tag k="name" v="Bråstadbua" />
		<tag k="place" v="locality" />
		<tag k="ssr:stedsnr" v="889263" />
	</node>
	<node lat="61.556680554962355" lon="10.076280555616638" id="-37628">
		<tag k="name" v="Nordrumsløkken" />
		<tag k="place" v="farm" />
		<tag k="ssr:stedsnr" v="907622" />
	</node>
	<node lat="61.503588889496164" lon="10.1813888839623" id="-37629">
		<tag k="name" v="Nordre Brandstad" />
		<tag k="place" v="farm" />
		<tag k="ssr:stedsnr" v="910011" />
	</node>
	<node lat="61.39105040132546" lon="10.214825898943898" id="-37631">
		<tag k="fixme" v="consider place=hamlet" />
		<tag k="name" v="Einarsvea" />
		<tag k="place" v="farm" />
		<tag k="ssr:stedsnr" v="918912" />
	</node>
	<node lat="61.404788890349515" lon="10.246877785551325" id="-37632">
		<tag k="name" v="Stubberud" />
		<tag k="place" v="farm" />
		<tag k="ssr:stedsnr" v="918923" />
	</node>
	<node lat="61.41183888464783" lon="10.328305562868477" id="-37633">
		<tag k="fixme" v="consider place=hamlet" />
		<tag k="name" v="Rollstulen" />
		<tag k="place" v="village" />
		<tag k="ssr:stedsnr" v="918925" />
	</node>
	<node lat="61.422450000081945" lon="10.365975002513862" id="-37635">
		<tag k="historic" v="shieling" />
		<tag k="name" v="Flausætra" />
		<tag k="place" v="isolated_dwelling" />
		<tag k="ssr:stedsnr" v="919318" />
	</node>
	<node lat="61.417694441890596" lon="10.501905559972556" id="-37637">
		<tag k="historic" v="shieling" />
		<tag k="name" v="Bråstad" />
		<tag k="place" v="isolated_dwelling" />
		<tag k="ssr:stedsnr" v="919322" />
	</node>
	<node lat="61.42102222151946" lon="10.531938886965946" id="-37638">
		<tag k="historic" v="shieling" />
		<tag k="name" v="Trosvik" />
		<tag k="old_name" v="Torsvik" />
		<tag k="place" v="isolated_dwelling" />
		<tag k="ssr:stedsnr" v="919325" />
	</node>
	<node lat="61.45410277631773" lon="10.063816663367358" id="-37639">
		<tag k="historic" v="shieling" />
		<tag k="name" v="Svinslåa" />
		<tag k="place" v="isolated_dwelling" />
		<tag k="ssr:stedsnr" v="919553" />
	</node>
	<node lat="61.46160057770507" lon="10.318218967713184" id="-37640">
		<tag k="alt_name" v="Borgen" />
		<tag k="fixme" v="consider place=hamlet" />
		<tag k="name" v="Borga" />
		<tag k="place" v="farm" />
		<tag k="ssr:stedsnr" v="919604" />
	</node>
	<node lat="61.46322742164739" lon="10.287662834773585" id="-37641">
		<tag k="name" v="Mork" />
		<tag k="place" v="hamlet" />
		<tag k="ssr:stedsnr" v="919606" />
	</node>
	<node lat="61.46960771104978" lon="10.243370608995916" id="-37642">
		<tag k="fixme" v="consider place=hamlet" />
		<tag k="name" v="Ånna" />
		<tag k="place" v="farm" />
		<tag k="ssr:stedsnr" v="919608" />
	</node>
	<node lat="61.48306110830358" lon="10.364416665243919" id="-37643">
		<tag k="alt_name" v="Annolsæter" />
		<tag k="historic" v="shieling" />
		<tag k="name" v="Annolsætra" />
		<tag k="place" v="isolated_dwelling" />
		<tag k="ssr:stedsnr" v="919807" />
	</node>
	<node lat="61.61567222192719" lon="10.451133340220418" id="-37645">
		<tag k="historic" v="shieling" />
		<tag k="name" v="Geitsæter" />
		<tag k="place" v="isolated_dwelling" />
		<tag k="ssr:stedsnr" v="920154" />
	</node>
	<node lat="61.681177237465256" lon="10.369928016999136" id="-37646">
		<tag k="name" v="Stulsbua" />
		<tag k="place" v="locality" />
		<tag k="ssr:stedsnr" v="920158" />
	</node>
	<node lat="61.6718307326602" lon="10.10097497565497" id="-37648">
		<tag k="alt_name" v="Spidsbergseter" />
		<tag k="historic" v="shieling" />
		<tag k="name" v="Spidsbergsæter" />
		<tag k="place" v="isolated_dwelling" />
		<tag k="ssr:stedsnr" v="920983" />
	</node>
	<node lat="61.650027178218004" lon="10.108321374504902" id="-37651">
		<tag k="alt_name" v="Venabu;Venabu Høyfjellshotell" />
		<tag k="name" v="Venabu Fjellhotell" />
		<tag k="ssr:stedsnr" v="920996" />
		<tag k="tourism" v="hotel" />
	</node>
	<node lat="61.541388890608964" lon="10.136280547665201" id="-37655">
		<tag k="name" v="Røldalshaugen" />
		<tag k="place" v="farm" />
		<tag k="ssr:stedsnr" v="949201" />
	</node>
	<node lat="61.540911109286306" lon="10.13104165926524" id="-37656">
		<tag k="name" v="Garverhaugen" />
		<tag k="place" v="farm" />
		<tag k="ssr:stedsnr" v="949204" />
	</node>
	<node lat="61.53800000268994" lon="10.128616668498335" id="-37657">
		<tag k="name" v="Roen" />
		<tag k="place" v="farm" />
		<tag k="ssr:stedsnr" v="949221" />
	</node>
	<node lat="61.464780557642264" lon="10.260352770256548" id="-37658">
		<tag k="name" v="Øvre Løkkum" />
		<tag k="place" v="farm" />
		<tag k="ssr:stedsnr" v="949290" />
	</node>
	<node lat="61.58506110922447" lon="10.24867778697584" id="-37660">
		<tag k="historic" v="shieling" />
		<tag k="name" v="Bølia" />
		<tag k="place" v="isolated_dwelling" />
		<tag k="ssr:stedsnr" v="949429" />
	</node>
	<node lat="61.49865833467761" lon="10.311241658996227" id="-37663">
		<tag k="historic" v="shieling" />
		<tag k="name" v="Kaus" />
		<tag k="place" v="isolated_dwelling" />
		<tag k="ssr:stedsnr" v="949682" />
	</node>
	<node lat="61.631141664080346" lon="10.292155564055578" id="-37668">
		<tag k="name" v="Midtmohytta" />
		<tag k="place" v="isolated_dwelling" />
		<tag k="ssr:stedsnr" v="949512" />
	</node>
	<node lat="61.52736944696183" lon="10.16560000141952" id="-37676">
		<tag k="name" v="Vang" />
		<tag k="place" v="farm" />
		<tag k="ssr:stedsnr" v="949909" />
	</node>
	<node lat="61.470936111921866" lon="10.136663887916136" id="-37679">
		<tag k="name" v="Gudbrandsgard Hotell" />
		<tag k="ssr:stedsnr" v="955493" />
		<tag k="tourism" v="hotel" />
	</node>
	<node lat="61.5684444469448" lon="10.107069447042285" id="-37680">
		<tag k="historic" v="shieling" />
		<tag k="name" v="Bekkedalskvea" />
		<tag k="place" v="isolated_dwelling" />
		<tag k="ssr:stedsnr" v="968710" />
	</node>
	<node lat="61.38294444617444" lon="10.168558327923527" id="-37689">
		<tag k="historic" v="shieling" />
		<tag k="name" v="Linviksætra" />
		<tag k="place" v="isolated_dwelling" />
		<tag k="ssr:stedsnr" v="8884" />
	</node>
	<node lat="61.42381388494505" lon="10.226761102095574" id="-37691">
		<tag k="name" v="Nybakken" />
		<tag k="place" v="farm" />
		<tag k="ssr:stedsnr" v="8923" />
	</node>
	<node lat="61.42429722492921" lon="10.188905559594179" id="-37693">
		<tag k="name" v="Midtstrand" />
		<tag k="place" v="hamlet" />
		<tag k="ssr:stedsnr" v="8928" />
	</node>
	<node lat="61.43404999746599" lon="10.213811101779228" id="-37694">
		<tag k="name" v="Øvre Bakke" />
		<tag k="place" v="farm" />
		<tag k="ssr:stedsnr" v="8929" />
	</node>
	<node lat="61.431295575398934" lon="10.186790495586928" id="-37695">
		<tag k="alt_name" v="Linvik" />
		<tag k="fixme" v="consider place=hamlet" />
		<tag k="name" v="Linnvik" />
		<tag k="place" v="farm" />
		<tag k="ssr:stedsnr" v="8930" />
	</node>
	<node lat="61.428690377110996" lon="10.182942976133692" id="-37696">
		<tag k="fixme" v="consider place=hamlet" />
		<tag k="name" v="Tofte" />
		<tag k="place" v="farm" />
		<tag k="ssr:stedsnr" v="8935" />
	</node>
	<node lat="61.6620499993767" lon="10.618230555305733" id="-37704">
		<tag k="alt_name" v="Hellaksætra" />
		<tag k="historic" v="shieling" />
		<tag k="name" v="Helaksætra" />
		<tag k="place" v="isolated_dwelling" />
		<tag k="ssr:stedsnr" v="10154" />
	</node>
	<node lat="61.55782763942844" lon="10.071262675507294" id="-37706">
		<tag k="fixme" v="consider place=hamlet" />
		<tag k="name" v="Slovarp" />
		<tag k="place" v="farm" />
		<tag k="ssr:stedsnr" v="10815" />
	</node>
	<node lat="61.545486115448426" lon="10.158336115955088" id="-37707">
		<tag k="name" v="Vollsrud" />
		<tag k="place" v="farm" />
		<tag k="ssr:stedsnr" v="10825" />
	</node>
	<node lat="61.6295305366403" lon="9.98524964644144" id="-37709">
		<tag k="fixme" v="consider place=hamlet" />
		<tag k="name" v="Myre" />
		<tag k="place" v="farm" />
		<tag k="ssr:stedsnr" v="10765" />
	</node>
	<node lat="61.63733888666783" lon="10.122149993514677" id="-37710">
		<tag k="historic" v="shieling" />
		<tag k="name" v="Freskesætrin" />
		<tag k="place" v="isolated_dwelling" />
		<tag k="ssr:stedsnr" v="10773" />
	</node>
	<node lat="61.52438055185581" lon="10.116763895692724" id="-37712">
		<tag k="name" v="Vika" />
		<tag k="place" v="farm" />
		<tag k="ssr:stedsnr" v="10856" />
	</node>
	<node lat="61.52252777842759" lon="10.157738892627297" id="-37713">
		<tag k="name" v="Skjeggestad" />
		<tag k="place" v="farm" />
		<tag k="ssr:stedsnr" v="10858" />
	</node>
	<node lat="61.675955553095726" lon="9.9772999996357" id="-37717">
		<tag k="alt_name" v="Slavolden" />
		<tag k="historic" v="shieling" />
		<tag k="name" v="Slavollen" />
		<tag k="place" v="isolated_dwelling" />
		<tag k="ssr:stedsnr" v="10976" />
	</node>
	<node lat="61.53559444846738" lon="10.147047222315873" id="-37722">
		<tag k="building" v="commercial" />
		<tag k="name" v="Kløverhagen" />
		<tag k="ssr:stedsnr" v="39189" />
	</node>
	<node lat="61.3950027803113" lon="10.256272219873038" id="-37724">
		<tag k="name" v="Morkestykket" />
		<tag k="place" v="farm" />
		<tag k="ssr:stedsnr" v="39362" />
	</node>
	<node lat="61.447661113201306" lon="10.311783326225427" id="-37725">
		<tag k="name" v="Hemrumsbua" />
		<tag k="place" v="isolated_dwelling" />
		<tag k="ssr:stedsnr" v="39276" />
	</node>
	<node lat="61.43736944408838" lon="10.457191671178249" id="-37734">
		<tag k="historic" v="shieling" />
		<tag k="name" v="Nordrum" />
		<tag k="place" v="isolated_dwelling" />
		<tag k="ssr:stedsnr" v="39546" />
	</node>
	<node lat="61.543802781557964" lon="10.065058327277935" id="-37735">
		<tag k="name" v="Nermoen" />
		<tag k="place" v="farm" />
		<tag k="ssr:stedsnr" v="39548" />
	</node>
	<node lat="61.49292778041054" lon="10.315372229290402" id="-37736">
		<tag k="historic" v="shieling" />
		<tag k="name" v="Odlo" />
		<tag k="place" v="isolated_dwelling" />
		<tag k="ssr:stedsnr" v="39641" />
	</node>
	<node lat="61.45459444501988" lon="10.063730562414129" id="-37737">
		<tag k="historic" v="shieling" />
		<tag k="name" v="Tullirønningen" />
		<tag k="place" v="isolated_dwelling" />
		<tag k="ssr:stedsnr" v="39647" />
	</node>
	<node lat="61.50606666791432" lon="10.419663880452108" id="-37740">
		<tag k="name" v="Sygardsbu" />
		<tag k="place" v="isolated_dwelling" />
		<tag k="ssr:stedsnr" v="39896" />
	</node>
	<node lat="61.43863333279002" lon="10.145516665636789" id="-37742">
		<tag k="name" v="Tullia" />
		<tag k="place" v="farm" />
		<tag k="ssr:stedsnr" v="39756" />
	</node>
	<node lat="61.46295179602304" lon="10.60424876254055" id="-37746">
		<tag k="name" v="Steinslåbua" />
		<tag k="place" v="locality" />
		<tag k="ssr:stedsnr" v="39953" />
	</node>
	<node lat="61.52767402707735" lon="10.594282814863767" id="-37747">
		<tag k="name" v="Statsbua" />
		<tag k="place" v="locality" />
		<tag k="ssr:stedsnr" v="39956" />
	</node>
	<node lat="61.4974055585091" lon="10.179186119123363" id="-37758">
		<tag k="alt_name" v="Elstadkleivene" />
		<tag k="name" v="Elstadkleiva" />
		<tag k="place" v="farm" />
		<tag k="ssr:stedsnr" v="69554" />
	</node>
	<node lat="61.43576111010042" lon="10.230366674117118" id="-37759">
		<tag k="name" v="Mjogdalen" />
		<tag k="place" v="farm" />
		<tag k="ssr:stedsnr" v="69633" />
	</node>
	<node lat="61.44561110781137" lon="10.522202774694884" id="-37762">
		<tag k="historic" v="shieling" />
		<tag k="name" v="Krekke" />
		<tag k="place" v="isolated_dwelling" />
		<tag k="ssr:stedsnr" v="69356" />
	</node>
	<node lat="61.446588892186774" lon="10.516544441073977" id="-37763">
		<tag k="alt_name" v="Spekhus" />
		<tag k="historic" v="shieling" />
		<tag k="name" v="Spikhus" />
		<tag k="place" v="isolated_dwelling" />
		<tag k="ssr:stedsnr" v="69357" />
	</node>
	<node lat="61.432383335650464" lon="10.506091674760684" id="-37764">
		<tag k="historic" v="shieling" />
		<tag k="name" v="Torsgard" />
		<tag k="place" v="isolated_dwelling" />
		<tag k="ssr:stedsnr" v="69361" />
	</node>
	<node lat="61.45356110943246" lon="10.343880564329831" id="-37768">
		<tag k="name" v="Skogstad" />
		<tag k="place" v="farm" />
		<tag k="ssr:stedsnr" v="69377" />
	</node>
	<node lat="61.434733329888275" lon="10.160438896889127" id="-37769">
		<tag k="name" v="Segelstadsvea" />
		<tag k="old_name" v="Segalstadsvea" />
		<tag k="place" v="farm" />
		<tag k="ssr:stedsnr" v="69942" />
	</node>
	<node lat="61.46702499686551" lon="10.1573861203267" id="-37770">
		<tag k="alt_name" v="Bergesvea" />
		<tag k="name" v="Bergsvea" />
		<tag k="place" v="farm" />
		<tag k="ssr:stedsnr" v="69655" />
	</node>
	<node lat="61.42494754872784" lon="10.188822121228773" id="-37773">
		<tag k="fixme" v="consider place=hamlet" />
		<tag k="name" v="Dalsegg" />
		<tag k="place" v="farm" />
		<tag k="ssr:stedsnr" v="69922" />
	</node>
	<node lat="61.50324366616217" lon="10.183231755476596" id="-37777">
		<tag k="fixme" v="consider place=hamlet" />
		<tag k="name" v="Brandstad" />
		<tag k="place" v="farm" />
		<tag k="ssr:stedsnr" v="71889" />
	</node>
	<node lat="61.502833829310404" lon="10.142481336595935" id="-37778">
		<tag k="fixme" v="consider place=hamlet" />
		<tag k="name" v="Jordet" />
		<tag k="place" v="farm" />
		<tag k="ssr:stedsnr" v="71891" />
	</node>
	<node lat="61.568846669627256" lon="10.491470510258843" id="-37779">
		<tag k="alt_name" v="Gråbua" />
		<tag k="fixme" v="consider tourism=alpine_hut or tourism=chalet" />
		<tag k="name" v="Borkebua" />
		<tag k="ssr:stedsnr" v="71157" />
		<tag k="tourism" v="wilderness_hut" />
	</node>
	<node lat="61.612986898698395" lon="10.001566118475072" id="-37787">
		<tag k="fixme" v="consider place=hamlet" />
		<tag k="name" v="Nordbu" />
		<tag k="place" v="farm" />
		<tag k="ssr:stedsnr" v="71803" />
	</node>
	<node lat="61.610117856309074" lon="10.00853317568917" id="-37788">
		<tag k="fixme" v="consider place=hamlet" />
		<tag k="name" v="Kvitrud" />
		<tag k="place" v="farm" />
		<tag k="ssr:stedsnr" v="71804" />
	</node>
	<node lat="61.448422224109464" lon="10.530716663627322" id="-37792">
		<tag k="name" v="Goppollsætrene" />
		<tag k="place" v="hamlet" />
		<tag k="ssr:stedsnr" v="86780" />
	</node>
	<node lat="61.44448333259395" lon="10.110244450459179" id="-37793">
		<tag k="name" v="Nerli Rønningene" />
		<tag k="place" v="locality" />
		<tag k="ssr:stedsnr" v="89815" />
	</node>
	<node lat="61.420094447543185" lon="10.513827773493768" id="-37794">
		<tag k="historic" v="shieling" />
		<tag k="name" v="Øfstgard" />
		<tag k="old_name" v="Øfstegard" />
		<tag k="place" v="isolated_dwelling" />
		<tag k="ssr:stedsnr" v="130299" />
	</node>
	<node lat="61.49406667060222" lon="10.222086102242587" id="-37795">
		<tag k="historic" v="shieling" />
		<tag k="name" v="Slåa" />
		<tag k="place" v="isolated_dwelling" />
		<tag k="ssr:stedsnr" v="130500" />
	</node>
	<node lat="61.54816944031143" lon="10.102805549452594" id="-37797">
		<tag k="alt_name" v="Nordrum Megarden" />
		<tag k="name" v="Megarden Nordrum" />
		<tag k="place" v="farm" />
		<tag k="ssr:stedsnr" v="99666" />
	</node>
	<node lat="61.602175002498846" lon="10.60932776850647" id="-37801">
		<tag k="name" v="Imsdalsskula" />
		<tag k="place" v="farm" />
		<tag k="ssr:stedsnr" v="100730" />
	</node>
	<node lat="61.40238888529352" lon="10.251033327253246" id="-37805">
		<tag k="name" v="Heggedalen" />
		<tag k="place" v="farm" />
		<tag k="ssr:stedsnr" v="100399" />
	</node>
	<node lat="61.63722222393567" lon="10.127772221860758" id="-37806">
		<tag k="historic" v="shieling" />
		<tag k="name" v="Freska" />
		<tag k="place" v="isolated_dwelling" />
		<tag k="ssr:stedsnr" v="100436" />
	</node>
	<node lat="61.62174444863328" lon="10.194427777721266" id="-37807">
		<tag k="historic" v="shieling" />
		<tag k="name" v="Gunstad" />
		<tag k="place" v="isolated_dwelling" />
		<tag k="ssr:stedsnr" v="100445" />
	</node>
	<node lat="61.46627222650465" lon="10.380097220558413" id="-37811">
		<tag k="historic" v="shieling" />
		<tag k="name" v="Rundhaugen" />
		<tag k="place" v="isolated_dwelling" />
		<tag k="ssr:stedsnr" v="100585" />
	</node>
	<node lat="61.50538888706422" lon="10.421286111247442" id="-37814">
		<tag k="name" v="Flybua" />
		<tag k="place" v="isolated_dwelling" />
		<tag k="ssr:stedsnr" v="100890" />
	</node>
	<node lat="61.44504722540307" lon="10.518291663985343" id="-37815">
		<tag k="historic" v="shieling" />
		<tag k="name" v="Presttangen" />
		<tag k="place" v="isolated_dwelling" />
		<tag k="ssr:stedsnr" v="100900" />
	</node>
	<node lat="61.44018055556629" lon="10.515566666704123" id="-37816">
		<tag k="historic" v="shieling" />
		<tag k="name" v="Hagen" />
		<tag k="place" v="isolated_dwelling" />
		<tag k="ssr:stedsnr" v="100901" />
	</node>
	<node lat="61.41051944665293" lon="10.14618610690766" id="-37824">
		<tag k="historic" v="shieling" />
		<tag k="name" v="Bens" />
		<tag k="place" v="isolated_dwelling" />
		<tag k="ssr:stedsnr" v="118759" />
	</node>
	<node lat="61.459455552015115" lon="10.211708324896273" id="-37834">
		<tag k="alt_name" v="Øvre Kampen" />
		<tag k="name" v="Kampen" />
		<tag k="place" v="farm" />
		<tag k="ssr:stedsnr" v="129562" />
	</node>
	<node lat="61.45887021796829" lon="10.330382299427328" id="-37836">
		<tag k="fixme" v="consider place=hamlet" />
		<tag k="name" v="Pålsøygarden" />
		<tag k="place" v="farm" />
		<tag k="ssr:stedsnr" v="129564" />
	</node>
	<node lat="61.43915000036373" lon="10.12918334235254" id="-37837">
		<tag k="alt_name" v="Liahagen" />
		<tag k="name" v="Liahågån" />
		<tag k="place" v="farm" />
		<tag k="ssr:stedsnr" v="129576" />
	</node>
	<node lat="61.44223309696732" lon="10.210677143701337" id="-37838">
		<tag k="alt_name" v="Hage" />
		<tag k="fixme" v="consider place=hamlet" />
		<tag k="name" v="Hågå" />
		<tag k="place" v="farm" />
		<tag k="ssr:stedsnr" v="129584" />
	</node>
	<node lat="61.39642500099687" lon="10.234747229778195" id="-37839">
		<tag k="name" v="Odden" />
		<tag k="place" v="farm" />
		<tag k="ssr:stedsnr" v="129886" />
	</node>
	<node lat="61.390950001799865" lon="10.239233341768283" id="-37840">
		<tag k="name" v="Borgeneset" />
		<tag k="place" v="farm" />
		<tag k="ssr:stedsnr" v="129889" />
	</node>
	<node lat="61.39711375416232" lon="10.209668171940084" id="-37841">
		<tag k="name" v="Sørstrand" />
		<tag k="place" v="hamlet" />
		<tag k="ssr:stedsnr" v="129893" />
	</node>
	<node lat="61.390155558022705" lon="10.160944450924832" id="-37842">
		<tag k="historic" v="shieling" />
		<tag k="name" v="Slåsætra" />
		<tag k="place" v="isolated_dwelling" />
		<tag k="ssr:stedsnr" v="129895" />
	</node>
	<node lat="61.411489245491985" lon="10.241075411173993" id="-37843">
		<tag k="alt_name" v="Hjelle, nordre;Hjelle" />
		<tag k="name" v="Nordre Hjelle" />
		<tag k="place" v="farm" />
		<tag k="ssr:stedsnr" v="129906" />
	</node>
	<node lat="61.43959166381111" lon="10.329416667046695" id="-37844">
		<tag k="alt_name" v="Bakkestølen" />
		<tag k="historic" v="shieling" />
		<tag k="name" v="Bakkestulen" />
		<tag k="place" v="isolated_dwelling" />
		<tag k="ssr:stedsnr" v="129937" />
	</node>
	<node lat="61.597077777528504" lon="10.619591675462578" id="-37845">
		<tag k="name" v="Huset" />
		<tag k="place" v="farm" />
		<tag k="ssr:stedsnr" v="131134" />
	</node>
	<node lat="61.62209722571045" lon="10.409711118928161" id="-37848">
		<tag k="name" v="Remdalsbua" />
		<tag k="place" v="isolated_dwelling" />
		<tag k="ssr:stedsnr" v="131149" />
	</node>
	<node lat="61.4574929636776" lon="10.189653043852406" id="-37852">
		<tag k="name" v="Tromsnes" />
		<tag k="place" v="hamlet" />
		<tag k="ssr:stedsnr" v="130551" />
	</node>
	<node lat="61.48221666378622" lon="10.15799999109368" id="-37853">
		<tag k="alt_name" v="Rotåsbakken" />
		<tag k="name" v="Rottåsbakken" />
		<tag k="place" v="farm" />
		<tag k="ssr:stedsnr" v="130574" />
	</node>
	<node lat="61.47106944650561" lon="10.162363879962971" id="-37855">
		<tag k="name" v="Nordstrand" />
		<tag k="place" v="hamlet" />
		<tag k="ssr:stedsnr" v="130590" />
	</node>
	<node lat="61.471063891108116" lon="10.147169452714678" id="-37856">
		<tag k="alt_name" v="Skafløtten" />
		<tag k="name" v="Skaflottan" />
		<tag k="place" v="farm" />
		<tag k="ssr:stedsnr" v="130594" />
	</node>
	<node lat="61.6423530687557" lon="9.981847038806755" id="-37858">
		<tag k="alt_name" v="Lillevolden" />
		<tag k="name" v="Veslevollen" />
		<tag k="place" v="farm" />
		<tag k="ssr:stedsnr" v="131999" />
	</node>
	<node lat="61.619874996565" lon="10.15815277235471" id="-37867">
		<tag k="name" v="Rudibua" />
		<tag k="place" v="isolated_dwelling" />
		<tag k="ssr:stedsnr" v="147994" />
	</node>
	<node lat="61.54064722657711" lon="10.153441657600995" id="-37872">
		<tag k="name" v="Sjurstugu" />
		<tag k="place" v="farm" />
		<tag k="ssr:stedsnr" v="160171" />
	</node>
	<node lat="61.58967222441859" lon="10.220397231261815" id="-37874">
		<tag k="historic" v="shieling" />
		<tag k="name" v="Øverstøa" />
		<tag k="place" v="isolated_dwelling" />
		<tag k="ssr:stedsnr" v="160047" />
	</node>
	<node lat="61.40783611438501" lon="10.327377786471946" id="-37875">
		<tag k="historic" v="shieling" />
		<tag k="name" v="Borgen" />
		<tag k="place" v="isolated_dwelling" />
		<tag k="ssr:stedsnr" v="160267" />
	</node>
	<node lat="61.63734166393363" lon="10.122602774622855" id="-37879">
		<tag k="historic" v="shieling" />
		<tag k="name" v="Øver Rudi" />
		<tag k="place" v="isolated_dwelling" />
		<tag k="ssr:stedsnr" v="160398" />
	</node>
	<node lat="61.46918611344788" lon="10.375094451383656" id="-37882">
		<tag k="historic" v="shieling" />
		<tag k="name" v="Borgedal" />
		<tag k="place" v="isolated_dwelling" />
		<tag k="ssr:stedsnr" v="160535" />
	</node>
	<node lat="61.47897499975671" lon="10.364175005066501" id="-37883">
		<tag k="historic" v="shieling" />
		<tag k="name" v="Mork" />
		<tag k="place" v="isolated_dwelling" />
		<tag k="ssr:stedsnr" v="160536" />
	</node>
	<node lat="61.60520000407288" lon="10.13972778334428" id="-37884">
		<tag k="historic" v="shieling" />
		<tag k="name" v="Rauhaugen" />
		<tag k="place" v="isolated_dwelling" />
		<tag k="ssr:stedsnr" v="160351" />
	</node>
	<node lat="61.58012221863102" lon="10.302786112796834" id="-37886">
		<tag k="name" v="Odlohytta" />
		<tag k="place" v="isolated_dwelling" />
		<tag k="ssr:stedsnr" v="160485" />
	</node>
	<node lat="61.4326333352305" lon="10.449211118647069" id="-37892">
		<tag k="historic" v="shieling" />
		<tag k="name" v="Opsal" />
		<tag k="place" v="isolated_dwelling" />
		<tag k="ssr:stedsnr" v="160561" />
	</node>
	<node lat="61.55281944258556" lon="10.083377783961403" id="-37894">
		<tag k="name" v="Engen" />
		<tag k="place" v="farm" />
		<tag k="ssr:stedsnr" v="160575" />
	</node>
	<node lat="61.45361111051393" lon="10.068063894030287" id="-37898">
		<tag k="historic" v="shieling" />
		<tag k="name" v="Tullibakken" />
		<tag k="place" v="isolated_dwelling" />
		<tag k="ssr:stedsnr" v="160681" />
	</node>
	<node lat="61.50157777977273" lon="10.183358332298912" id="-37911">
		<tag k="alt_name" v="Søndre Brandstad" />
		<tag k="name" v="Søre Brandstad" />
		<tag k="place" v="farm" />
		<tag k="ssr:stedsnr" v="160981" />
	</node>
	<node lat="61.62395833533134" lon="9.987644451985737" id="-37912">
		<tag k="name" v="Midtskog" />
		<tag k="place" v="isolated_dwelling" />
		<tag k="ssr:stedsnr" v="173391" />
	</node>
	<node lat="61.62803611107667" lon="9.981663884502696" id="-37913">
		<tag k="name" v="Bjørnlien" />
		<tag k="place" v="farm" />
		<tag k="ssr:stedsnr" v="173396" />
	</node>
	<node lat="61.61133019621795" lon="9.994260627878733" id="-37914">
		<tag k="fixme" v="consider place=hamlet" />
		<tag k="name" v="Sæter" />
		<tag k="place" v="farm" />
		<tag k="ssr:stedsnr" v="173311" />
	</node>
	<node lat="61.51746389188821" lon="10.131525008473554" id="-37916">
		<tag k="amenity" v="school" />
		<tag k="name" v="Randklev skole" />
		<tag k="ssr:stedsnr" v="179147" />
	</node>
	<node lat="61.56766944808502" lon="10.064083330136196" id="-37917">
		<tag k="name" v="Rudihagen" />
		<tag k="place" v="farm" />
		<tag k="ssr:stedsnr" v="179671" />
	</node>
	<node lat="61.412497224171155" lon="10.521141669052842" id="-37919">
		<tag k="alt_name" v="Tujord" />
		<tag k="historic" v="shieling" />
		<tag k="name" v="Tvåjord" />
		<tag k="place" v="isolated_dwelling" />
		<tag k="ssr:stedsnr" v="190346" />
	</node>
	<node lat="61.444275421304674" lon="10.137897835717489" id="-37920">
		<tag k="fixme" v="consider place=hamlet" />
		<tag k="name" v="Godlia" />
		<tag k="place" v="farm" />
		<tag k="ssr:stedsnr" v="190586" />
	</node>
	<node lat="61.48970555453703" lon="10.141983336491219" id="-37921">
		<tag k="name" v="Ålykkja" />
		<tag k="place" v="farm" />
		<tag k="ssr:stedsnr" v="190595" />
	</node>
	<node lat="61.38940007712606" lon="10.213017378626757" id="-37925">
		<tag k="fixme" v="consider place=hamlet" />
		<tag k="name" v="Haukåa" />
		<tag k="place" v="farm" />
		<tag k="ssr:stedsnr" v="190890" />
	</node>
	<node lat="61.38015555851095" lon="10.229599994011162" id="-37926">
		<tag k="name" v="Hanstad" />
		<tag k="place" v="farm" />
		<tag k="ssr:stedsnr" v="190990" />
	</node>
	<node lat="61.37811845994042" lon="10.237050651809282" id="-37927">
		<tag k="fixme" v="consider place=hamlet" />
		<tag k="name" v="Granskogen" />
		<tag k="place" v="farm" />
		<tag k="ssr:stedsnr" v="190992" />
	</node>
	<node lat="61.38002778115674" lon="10.271477780339694" id="-37929">
		<tag k="name" v="Vangen" />
		<tag k="place" v="farm" />
		<tag k="ssr:stedsnr" v="190997" />
	</node>
	<node lat="61.453316847693166" lon="10.205033414710451" id="-37930">
		<tag k="fixme" v="consider place=hamlet" />
		<tag k="name" v="Rørvik" />
		<tag k="place" v="farm" />
		<tag k="ssr:stedsnr" v="191534" />
	</node>
	<node lat="61.61037500116666" lon="10.494838893064502" id="-37932">
		<tag k="historic" v="shieling" />
		<tag k="name" v="Åsdalsætra" />
		<tag k="place" v="isolated_dwelling" />
		<tag k="ssr:stedsnr" v="192143" />
	</node>
	<node lat="61.55976388941168" lon="10.296261105881051" id="-37933">
		<tag k="name" v="Øksendalen" />
		<tag k="place" v="hamlet" />
		<tag k="ssr:stedsnr" v="192852" />
	</node>
	<node lat="61.54772500206562" lon="10.133791658554465" id="-37934">
		<tag k="alt_name" v="Høystadhågån" />
		<tag k="name" v="Hågån" />
		<tag k="place" v="farm" />
		<tag k="ssr:stedsnr" v="192855" />
	</node>
	<node lat="61.54923611512979" lon="10.088041669415347" id="-37935">
		<tag k="fixme" v="consider place=hamlet" />
		<tag k="name" v="Kjønnås" />
		<tag k="place" v="village" />
		<tag k="ssr:stedsnr" v="192856" />
	</node>
	<node lat="61.63214166965889" lon="9.986463891270555" id="-37936">
		<tag k="name" v="Haugsjordet" />
		<tag k="place" v="farm" />
		<tag k="ssr:stedsnr" v="192785" />
	</node>
	<node lat="61.605516144979084" lon="10.02556748117474" id="-37937">
		<tag k="fixme" v="consider place=hamlet" />
		<tag k="name" v="Haugen" />
		<tag k="place" v="farm" />
		<tag k="ssr:stedsnr" v="192794" />
	</node>
	<node lat="61.558705556921936" lon="10.177533330569851" id="-37940">
		<tag k="name" v="Øverjordet" />
		<tag k="place" v="farm" />
		<tag k="ssr:stedsnr" v="192827" />
	</node>
	<node lat="61.55202500334758" lon="10.102494450305413" id="-37941">
		<tag k="alt_name" v="Mæhlumshagen" />
		<tag k="name" v="Mælumsvea" />
		<tag k="place" v="farm" />
		<tag k="ssr:stedsnr" v="192833" />
	</node>
	<node lat="61.67329999936721" lon="10.08930277382148" id="-37945">
		<tag k="historic" v="shieling" />
		<tag k="name" v="Lundesætra" />
		<tag k="place" v="isolated_dwelling" />
		<tag k="ssr:stedsnr" v="192980" />
	</node>
	<node lat="61.67567777994269" lon="10.325541665287679" id="-37946">
		<tag k="name" v="Hirisjøbuin" />
		<tag k="place" v="isolated_dwelling" />
		<tag k="ssr:stedsnr" v="192984" />
	</node>
	<node lat="61.645644447834655" lon="10.14795832838578" id="-37950">
		<tag k="historic" v="shieling" />
		<tag k="name" v="Mysætrin" />
		<tag k="place" v="isolated_dwelling" />
		<tag k="ssr:stedsnr" v="192995" />
	</node>
	<node lat="61.48807777872438" lon="10.35872221954982" id="-37957">
		<tag k="historic" v="shieling" />
		<tag k="name" v="Mytting" />
		<tag k="place" v="isolated_dwelling" />
		<tag k="ssr:stedsnr" v="221859" />
	</node>
	<node lat="61.53857500107365" lon="10.135749996429826" id="-37958">
		<tag k="name" v="Kolflata" />
		<tag k="place" v="quarter" />
		<tag k="ssr:stedsnr" v="221178" />
	</node>
	<node lat="61.5384527742068" lon="10.121369437494222" id="-37959">
		<tag k="name" v="Flatmoen" />
		<tag k="place" v="isolated_dwelling" />
		<tag k="ssr:stedsnr" v="221184" />
	</node>
	<node lat="61.543591670076516" lon="10.124711113274122" id="-37960">
		<tag k="name" v="Skogstad" />
		<tag k="place" v="farm" />
		<tag k="ssr:stedsnr" v="221187" />
	</node>
	<node lat="61.590391671095134" lon="10.218558341834484" id="-37961">
		<tag k="historic" v="shieling" />
		<tag k="name" v="Midtmoen" />
		<tag k="place" v="isolated_dwelling" />
		<tag k="ssr:stedsnr" v="221056" />
	</node>
	<node lat="61.58269444435788" lon="10.218908335456469" id="-37963">
		<tag k="historic" v="shieling" />
		<tag k="name" v="Stulen" />
		<tag k="place" v="isolated_dwelling" />
		<tag k="ssr:stedsnr" v="221065" />
	</node>
	<node lat="61.412730554705924" lon="10.341377778241304" id="-37964">
		<tag k="historic" v="shieling" />
		<tag k="name" v="Morkestykket" />
		<tag k="place" v="isolated_dwelling" />
		<tag k="ssr:stedsnr" v="221277" />
	</node>
	<node lat="61.40709444077316" lon="10.29608334110599" id="-37965">
		<tag k="historic" v="shieling" />
		<tag k="name" v="Bråstad" />
		<tag k="place" v="isolated_dwelling" />
		<tag k="ssr:stedsnr" v="221295" />
	</node>
	<node lat="61.47145555225735" lon="10.254719438328456" id="-37966">
		<tag k="name" v="Hallum" />
		<tag k="place" v="farm" />
		<tag k="ssr:stedsnr" v="221314" />
	</node>
	<node lat="61.53323611555875" lon="10.05494166017675" id="-37969">
		<tag k="name" v="Solfritt" />
		<tag k="place" v="locality" />
		<tag k="ssr:stedsnr" v="221592" />
	</node>
	<node lat="61.46997222065446" lon="10.38097500334917" id="-37974">
		<tag k="historic" v="shieling" />
		<tag k="name" v="Spangerudlia" />
		<tag k="place" v="isolated_dwelling" />
		<tag k="ssr:stedsnr" v="221559" />
	</node>
	<node lat="61.474872219515646" lon="10.376869452175923" id="-37975">
		<tag k="name" v="Heia" />
		<tag k="place" v="neighbourhood" />
		<tag k="ssr:stedsnr" v="221560" />
	</node>
	<node lat="61.40211111016469" lon="10.206316672859554" id="-37979">
		<tag k="name" v="Nordre Liasvea" />
		<tag k="place" v="farm" />
		<tag k="ssr:stedsnr" v="221730" />
	</node>
	<node lat="61.36360555219421" lon="10.200313890467301" id="-37981">
		<tag k="historic" v="shieling" />
		<tag k="name" v="Granskogen" />
		<tag k="place" v="isolated_dwelling" />
		<tag k="ssr:stedsnr" v="221743" />
	</node>
	<node lat="61.55304722615448" lon="10.652844451296158" id="-37983">
		<tag k="name" v="Allemannsbua" />
		<tag k="place" v="isolated_dwelling" />
		<tag k="ssr:stedsnr" v="221746" />
	</node>
	<node lat="61.50784444603776" lon="10.556233335896911" id="-37989">
		<tag k="name" v="Stulen" />
		<tag k="place" v="isolated_dwelling" />
		<tag k="ssr:stedsnr" v="221932" />
	</node>
	<node lat="61.43864166800909" lon="10.170533326807295" id="-37990">
		<tag k="alt_name" v="Segelstad nedre" />
		<tag k="name" v="Nedre Segelstad" />
		<tag k="place" v="farm" />
		<tag k="ssr:stedsnr" v="222442" />
	</node>
	<node lat="61.428155553505334" lon="10.360974993936223" id="-37991">
		<tag k="historic" v="shieling" />
		<tag k="name" v="Opsalsæter" />
		<tag k="place" v="isolated_dwelling" />
		<tag k="ssr:stedsnr" v="223655" />
	</node>
	<node lat="61.477683336108086" lon="10.509594442643307" id="-37995">
		<tag k="name" v="Måsåbua" />
		<tag k="place" v="isolated_dwelling" />
		<tag k="ssr:stedsnr" v="282183" />
	</node>
	<node lat="61.40870000119825" lon="10.270372216511547" id="-37996">
		<tag k="name" v="Torsgardødegården" />
		<tag k="place" v="farm" />
		<tag k="ssr:stedsnr" v="282252" />
	</node>
	<node lat="61.550883329076875" lon="10.080333332651225" id="-37999">
		<tag k="name" v="Hagestugua" />
		<tag k="place" v="farm" />
		<tag k="ssr:stedsnr" v="282604" />
	</node>
	<node lat="61.62090000201961" lon="10.191519450062623" id="-38000">
		<tag k="historic" v="shieling" />
		<tag k="name" v="Mæhlum" />
		<tag k="place" v="isolated_dwelling" />
		<tag k="ssr:stedsnr" v="282441" />
	</node>
	<node lat="61.62202777711227" lon="10.186655559949243" id="-38001">
		<tag k="historic" v="shieling" />
		<tag k="name" v="Høystad" />
		<tag k="place" v="isolated_dwelling" />
		<tag k="ssr:stedsnr" v="282442" />
	</node>
	<node lat="61.38805555621751" lon="10.274563889277854" id="-38002">
		<tag k="name" v="Bakkum" />
		<tag k="place" v="farm" />
		<tag k="ssr:stedsnr" v="282446" />
	</node>
	<node lat="61.39286681497547" lon="10.243375230928335" id="-38003">
		<tag k="amenity" v="school" />
		<tag k="name" v="Sør-Fåvang skole" />
		<tag k="ssr:stedsnr" v="282449" />
	</node>
	<node lat="61.652863890195846" lon="9.980786110766736" id="-38020">
		<tag k="name" v="Venåsbakken" />
		<tag k="place" v="farm" />
		<tag k="ssr:stedsnr" v="295657" />
	</node>
	<node lat="61.59372222306802" lon="10.049894439977983" id="-38021">
		<tag k="amenity" v="school" />
		<tag k="name" v="Venabygd skole" />
		<tag k="ssr:stedsnr" v="295952" />
	</node>
	<node lat="61.40958611347469" lon="10.240274995899625" id="-38026">
		<tag k="alt_name" v="Hjelle, s" />
		<tag k="name" v="Søre Hjelle" />
		<tag k="place" v="farm" />
		<tag k="ssr:stedsnr" v="311927" />
	</node>
	<node lat="61.4911249985993" lon="10.086308338429191" id="-38028">
		<tag k="alt_name" v="Nysæter" />
		<tag k="historic" v="shieling" />
		<tag k="name" v="Nysætra" />
		<tag k="place" v="isolated_dwelling" />
		<tag k="ssr:stedsnr" v="312522" />
	</node>
	<node lat="61.43381666695683" lon="10.20385276975159" id="-38030">
		<tag k="alt_name" v="Nedre Løsnes" />
		<tag k="name" v="Løysnes" />
		<tag k="place" v="farm" />
		<tag k="ssr:stedsnr" v="312923" />
	</node>
	<node lat="61.519601247428795" lon="10.498799581981192" id="-38038">
		<tag k="name" v="Saubu" />
		<tag k="place" v="locality" />
		<tag k="ssr:stedsnr" v="313219" />
	</node>
	<node lat="61.536967028476646" lon="10.13170478924626" id="-38040">
		<tag k="alt_name" v="Randsted" />
		<tag k="fixme" v="consider place=hamlet" />
		<tag k="name" v="Ransted" />
		<tag k="place" v="farm" />
		<tag k="ssr:stedsnr" v="313860" />
	</node>
	<node lat="61.51782499719515" lon="10.12776111629224" id="-38041">
		<tag k="alt_name" v="Rønningen" />
		<tag k="name" v="Rydningen" />
		<tag k="place" v="farm" />
		<tag k="ssr:stedsnr" v="313873" />
	</node>
	<node lat="61.5983240679799" lon="10.049472746501412" id="-38042">
		<tag k="fixme" v="consider place=hamlet" />
		<tag k="name" v="Pynten" />
		<tag k="place" v="farm" />
		<tag k="ssr:stedsnr" v="313793" />
	</node>
	<node lat="61.500761111012665" lon="10.141750007382203" id="-38045">
		<tag k="name" v="Marstein" />
		<tag k="place" v="farm" />
		<tag k="ssr:stedsnr" v="313888" />
	</node>
	<node lat="61.50152221918596" lon="10.040525007043332" id="-38046">
		<tag k="alt_name" v="Ormsæteren" />
		<tag k="historic" v="shieling" />
		<tag k="name" v="Ormsætra" />
		<tag k="place" v="isolated_dwelling" />
		<tag k="ssr:stedsnr" v="313890" />
	</node>
	<node lat="61.504152169315056" lon="10.170859260151653" id="-38047">
		<tag k="fixme" v="consider place=hamlet" />
		<tag k="name" v="Elstad" />
		<tag k="place" v="farm" />
		<tag k="ssr:stedsnr" v="313892" />
	</node>
	<node lat="61.637529384868614" lon="9.987628993209201" id="-38052">
		<tag k="fixme" v="consider place=hamlet" />
		<tag k="name" v="Bråtåsæter" />
		<tag k="place" v="farm" />
		<tag k="ssr:stedsnr" v="313999" />
	</node>
	<node lat="61.43388611039287" lon="10.513322215875176" id="-38061">
		<tag k="historic" v="shieling" />
		<tag k="name" v="Rudrudjordet" />
		<tag k="place" v="isolated_dwelling" />
		<tag k="ssr:stedsnr" v="341016" />
	</node>
	<node lat="61.4457833362158" lon="10.442386105006142" id="-38062">
		<tag k="historic" v="shieling" />
		<tag k="name" v="Rørvik" />
		<tag k="place" v="isolated_dwelling" />
		<tag k="ssr:stedsnr" v="342541" />
	</node>
	<node lat="61.436108335947274" lon="10.420191670999232" id="-38063">
		<tag k="name" v="Lynnhusa" />
		<tag k="place" v="locality" />
		<tag k="ssr:stedsnr" v="342545" />
	</node>
	<node lat="61.431963887040276" lon="10.455550002759349" id="-38065">
		<tag k="historic" v="shieling" />
		<tag k="name" v="Hemrom" />
		<tag k="place" v="isolated_dwelling" />
		<tag k="ssr:stedsnr" v="342552" />
	</node>
	<node lat="61.53385555520965" lon="10.16975278239045" id="-38066">
		<tag k="name" v="Gillbergstugu" />
		<tag k="place" v="farm" />
		<tag k="ssr:stedsnr" v="342189" />
	</node>
	<node lat="61.40185555717255" lon="10.30178889314402" id="-38067">
		<tag k="historic" v="shieling" />
		<tag k="name" v="Svoen" />
		<tag k="place" v="isolated_dwelling" />
		<tag k="ssr:stedsnr" v="342265" />
	</node>
	<node lat="61.40451944331848" lon="10.318327782161221" id="-38068">
		<tag k="name" v="Lynnstad" />
		<tag k="place" v="hamlet" />
		<tag k="ssr:stedsnr" v="342266" />
	</node>
	<node lat="61.53439722266428" lon="10.146130557389101" id="-38072">
		<tag k="amenity" v="school" />
		<tag k="name" v="Ringebu Folkehøgskole" />
		<tag k="ssr:stedsnr" v="342218" />
	</node>
	<node lat="61.53505555746026" lon="10.116077770573638" id="-38080">
		<tag k="name" v="Brenn" />
		<tag k="place" v="farm" />
		<tag k="ssr:stedsnr" v="342686" />
	</node>
	<node lat="61.467175290734126" lon="10.371936010749915" id="-38082">
		<tag k="historic" v="shieling" />
		<tag k="name" v="Korssletten" />
		<tag k="place" v="isolated_dwelling" />
		<tag k="ssr:stedsnr" v="342538" />
	</node>
	<node lat="61.50737499899355" lon="10.539219449235752" id="-38090">
		<tag k="name" v="Dalabua" />
		<tag k="place" v="isolated_dwelling" />
		<tag k="ssr:stedsnr" v="342931" />
	</node>
	<node lat="61.44319444168863" lon="10.515286104441207" id="-38093">
		<tag k="historic" v="shieling" />
		<tag k="name" v="Slettjordet" />
		<tag k="place" v="isolated_dwelling" />
		<tag k="ssr:stedsnr" v="342882" />
	</node>
	<node lat="61.478233333040144" lon="10.117894438437379" id="-38094">
		<tag k="historic" v="shieling" />
		<tag k="name" v="Bergehagen" />
		<tag k="place" v="isolated_dwelling" />
		<tag k="ssr:stedsnr" v="342946" />
	</node>
	<node lat="61.426627781295416" lon="10.221105564308964" id="-38101">
		<tag k="loc_name" v="Kyrkjestugua" />
		<tag k="name" v="Kirkestuen" />
		<tag k="place" v="farm" />
		<tag k="ssr:stedsnr" v="361817" />
	</node>
	<node lat="61.410299996561236" lon="10.19859999120066" id="-38103">
		<tag k="name" v="Bakkalykkja" />
		<tag k="place" v="locality" />
		<tag k="ssr:stedsnr" v="361821" />
	</node>
	<node lat="61.644541663052934" lon="10.091050007656152" id="-38106">
		<tag k="name" v="Trollheimen camping" />
		<tag k="ssr:stedsnr" v="361893" />
		<tag k="tourism" v="camp_site" />
	</node>
	<node lat="61.52033055592859" lon="10.18502499613116" id="-38107">
		<tag k="name" v="Breivegen" />
		<tag k="place" v="farm" />
		<tag k="ssr:stedsnr" v="361904" />
	</node>
	<node lat="61.5179916652026" lon="10.188127774826473" id="-38108">
		<tag k="name" v="Dalberg" />
		<tag k="place" v="farm" />
		<tag k="ssr:stedsnr" v="361906" />
	</node>
	<node lat="61.38897288420062" lon="10.257280196383663" id="-38111">
		<tag k="alt_name" v="Øvstgard" />
		<tag k="fixme" v="consider place=hamlet" />
		<tag k="name" v="Øfstgard" />
		<tag k="place" v="farm" />
		<tag k="ssr:stedsnr" v="371881" />
	</node>
	<node lat="61.38460127162438" lon="10.268609505852757" id="-38112">
		<tag k="name" v="Bjørge" />
		<tag k="place" v="hamlet" />
		<tag k="ssr:stedsnr" v="371883" />
	</node>
	<node lat="61.389936316806946" lon="10.247693417448886" id="-38113">
		<tag k="alt_name" v="Nedre Borgen" />
		<tag k="fixme" v="consider place=hamlet" />
		<tag k="name" v="Borga" />
		<tag k="place" v="farm" />
		<tag k="ssr:stedsnr" v="371896" />
	</node>
	<node lat="61.44494999705313" lon="10.4338777740213" id="-38115">
		<tag k="alt_name" v="Vesle Tannsætra;Vesletann" />
		<tag k="name" v="Vesltann" />
		<tag k="place" v="hamlet" />
		<tag k="ssr:stedsnr" v="372388" />
	</node>
	<node lat="61.452777773609476" lon="10.159150001434295" id="-38121">
		<tag k="alt_name" v="Myrehaugen" />
		<tag k="name" v="Myrhaugen" />
		<tag k="place" v="farm" />
		<tag k="ssr:stedsnr" v="372582" />
	</node>
	<node lat="61.44828055981678" lon="10.22074445355064" id="-38122">
		<tag k="name" v="Hovde" />
		<tag k="place" v="farm" />
		<tag k="ssr:stedsnr" v="372586" />
	</node>
	<node lat="61.4411027821512" lon="10.083827780259801" id="-38123">
		<tag k="alt_name" v="Veslesæter" />
		<tag k="historic" v="shieling" />
		<tag k="name" v="Veslesætra" />
		<tag k="place" v="isolated_dwelling" />
		<tag k="ssr:stedsnr" v="372591" />
	</node>
	<node lat="61.4328416649192" lon="10.234066664807507" id="-38124">
		<tag k="alt_name" v="Revlingen" />
		<tag k="name" v="Røvlingen" />
		<tag k="place" v="farm" />
		<tag k="ssr:stedsnr" v="372938" />
	</node>
	<node lat="61.4357609172136" lon="10.14000519318576" id="-38125">
		<tag k="fixme" v="consider place=hamlet" />
		<tag k="name" v="Nerlia" />
		<tag k="place" v="farm" />
		<tag k="ssr:stedsnr" v="372942" />
	</node>
	<node lat="61.43143889321715" lon="10.165699998523234" id="-38126">
		<tag k="alt_name" v="Lindberg" />
		<tag k="name" v="Linberg" />
		<tag k="place" v="farm" />
		<tag k="ssr:stedsnr" v="372943" />
	</node>
	<node lat="61.5410654563388" lon="10.101283870422996" id="-38131">
		<tag k="alt_name" v="Smestadmoen" />
		<tag k="name" v="Smedstadmoen" />
		<tag k="place" v="farm" />
		<tag k="ssr:stedsnr" v="373834" />
	</node>
	<node lat="61.62612778195471" lon="10.562361109309354" id="-38136">
		<tag k="alt_name" v="Rundheillsætra" />
		<tag k="historic" v="shieling" />
		<tag k="name" v="Rundhalla" />
		<tag k="place" v="isolated_dwelling" />
		<tag k="ssr:stedsnr" v="374178" />
	</node>
	<node lat="61.7069805550496" lon="10.566805553789639" id="-38137">
		<tag k="alt_name" v="Skjæringfjellet" />
		<tag k="historic" v="shieling" />
		<tag k="name" v="Skjerdingfjellet" />
		<tag k="place" v="isolated_dwelling" />
		<tag k="ssr:stedsnr" v="374181" />
	</node>
	<node lat="61.54776545385058" lon="10.636376683985304" id="-38139">
		<tag k="historic" v="shieling" />
		<tag k="name" v="Mikkelslåa" />
		<tag k="place" v="isolated_dwelling" />
		<tag k="ssr:stedsnr" v="374259" />
	</node>
	<node lat="61.617875000601394" lon="9.993063886690397" id="-38140">
		<tag k="name" v="Rønningen" />
		<tag k="place" v="farm" />
		<tag k="ssr:stedsnr" v="374761" />
	</node>
	<node lat="61.53532987529761" lon="10.060580813660014" id="-38144">
		<tag k="fixme" v="consider place=hamlet" />
		<tag k="name" v="Nordlia" />
		<tag k="place" v="farm" />
		<tag k="ssr:stedsnr" v="374874" />
	</node>
	<node lat="61.56886133875139" lon="10.058895009406385" id="-38148">
		<tag k="alt_name" v="Rudi" />
		<tag k="fixme" v="consider place=hamlet" />
		<tag k="name" v="Øvre Rudi" />
		<tag k="place" v="farm" />
		<tag k="ssr:stedsnr" v="374796" />
	</node>
	<node lat="61.50794999995318" lon="10.101574995718542" id="-38149">
		<tag k="alt_name" v="Haustsætra" />
		<tag k="historic" v="shieling" />
		<tag k="name" v="Haustsæter" />
		<tag k="place" v="isolated_dwelling" />
		<tag k="ssr:stedsnr" v="374888" />
	</node>
	<node lat="61.583799997198895" lon="10.216894451050324" id="-38167">
		<tag k="historic" v="shieling" />
		<tag k="name" v="Nerstøa" />
		<tag k="place" v="isolated_dwelling" />
		<tag k="ssr:stedsnr" v="403073" />
	</node>
	<node lat="61.549107923010475" lon="10.149401930536396" id="-38168">
		<tag k="loc_name" v="Sveinsrud" />
		<tag k="name" v="Svensrud" />
		<tag k="place" v="farm" />
		<tag k="ssr:stedsnr" v="403173" />
	</node>
	<node lat="61.41253888732596" lon="10.240916668285463" id="-38171">
		<tag k="name" v="Sletring" />
		<tag k="place" v="hamlet" />
		<tag k="ssr:stedsnr" v="403287" />
	</node>
	<node lat="61.54603055119214" lon="10.07670833866054" id="-38172">
		<tag k="name" v="Brattråket" />
		<tag k="place" v="farm" />
		<tag k="ssr:stedsnr" v="403594" />
	</node>
	<node lat="61.57935833776886" lon="10.097930562110074" id="-38177">
		<tag k="historic" v="shieling" />
		<tag k="name" v="Rudihagen sæter" />
		<tag k="place" v="isolated_dwelling" />
		<tag k="ssr:stedsnr" v="403635" />
	</node>
	<node lat="61.505658332516965" lon="10.305102785134068" id="-38186">
		<tag k="historic" v="shieling" />
		<tag k="name" v="Røen" />
		<tag k="place" v="isolated_dwelling" />
		<tag k="ssr:stedsnr" v="403693" />
	</node>
	<node lat="61.50191252840142" lon="10.13882662703523" id="-38189">
		<tag k="fixme" v="consider place=hamlet" />
		<tag k="name" v="Raubakken" />
		<tag k="place" v="farm" />
		<tag k="ssr:stedsnr" v="403972" />
	</node>
	<node lat="61.387891670212746" lon="10.118858325797362" id="-38190">
		<tag k="name" v="Stamstadbua" />
		<tag k="place" v="isolated_dwelling" />
		<tag k="ssr:stedsnr" v="404932" />
	</node>
	<node lat="61.45463333777238" lon="10.056641674802725" id="-38192">
		<tag k="historic" v="shieling" />
		<tag k="name" v="Strande" />
		<tag k="place" v="isolated_dwelling" />
		<tag k="ssr:stedsnr" v="416328" />
	</node>
	<node lat="61.61639444672857" lon="9.997605559193463" id="-38193">
		<tag k="name" v="Nordbuløkken" />
		<tag k="place" v="farm" />
		<tag k="ssr:stedsnr" v="416913" />
	</node>
	<node lat="61.459819443404996" lon="10.164516667327756" id="-38198">
		<tag k="name" v="Søre Berge" />
		<tag k="place" v="farm" />
		<tag k="ssr:stedsnr" v="422994" />
	</node>
	<node lat="61.445486112843035" lon="10.130244436280414" id="-38199">
		<tag k="alt_name" v="Pinløkken" />
		<tag k="name" v="Pinlykkja" />
		<tag k="place" v="farm" />
		<tag k="ssr:stedsnr" v="433552" />
	</node>
	<node lat="61.436976687315166" lon="10.135481787950345" id="-38200">
		<tag k="fixme" v="consider place=hamlet" />
		<tag k="name" v="Øverlia" />
		<tag k="place" v="farm" />
		<tag k="ssr:stedsnr" v="433569" />
	</node>
	<node lat="61.557255555203874" lon="10.119424996078834" id="-38203">
		<tag k="name" v="Bakkom" />
		<tag k="place" v="farm" />
		<tag k="ssr:stedsnr" v="434756" />
	</node>
	<node lat="61.478687336755414" lon="10.194842947153528" id="-38205">
		<tag k="fixme" v="consider place=hamlet" />
		<tag k="name" v="Trøståker" />
		<tag k="place" v="farm" />
		<tag k="ssr:stedsnr" v="433588" />
	</node>
	<node lat="61.417158513004" lon="10.228942157655363" id="-38207">
		<tag k="alt_name" v="Ødegarden" />
		<tag k="fixme" v="consider place=hamlet" />
		<tag k="name" v="Øygarden" />
		<tag k="place" v="farm" />
		<tag k="ssr:stedsnr" v="433920" />
	</node>
	<node lat="61.42703889034467" lon="10.108713880401796" id="-38209">
		<tag k="historic" v="shieling" />
		<tag k="name" v="Myrsætra" />
		<tag k="place" v="isolated_dwelling" />
		<tag k="ssr:stedsnr" v="433925" />
	</node>
	<node lat="61.45466111346162" lon="10.158816663386059" id="-38215">
		<tag k="name" v="Bergehågån" />
		<tag k="place" v="farm" />
		<tag k="ssr:stedsnr" v="434540" />
	</node>
	<node lat="61.46220078564683" lon="10.16513738481814" id="-38216">
		<tag k="alt_name" v="Nordre Berge" />
		<tag k="name" v="Berge" />
		<tag k="place" v="farm" />
		<tag k="ssr:stedsnr" v="434543" />
	</node>
	<node lat="61.551158634462354" lon="10.09421048856075" id="-38217">
		<tag k="alt_name" v="Nordrumsgardene" />
		<tag k="name" v="Nordrum" />
		<tag k="place" v="hamlet" />
		<tag k="ssr:stedsnr" v="434784" />
	</node>
	<node lat="61.6370722239981" lon="10.438774991388307" id="-38218">
		<tag k="name" v="Friisbua" />
		<tag k="place" v="isolated_dwelling" />
		<tag k="ssr:stedsnr" v="435180" />
	</node>
	<node lat="61.67634444315889" lon="10.070686110621917" id="-38223">
		<tag k="alt_name" v="Flaksjølisætrene" />
		<tag k="historic" v="shieling" />
		<tag k="name" v="Flaksjølia" />
		<tag k="place" v="isolated_dwelling" />
		<tag k="ssr:stedsnr" v="435992" />
	</node>
	<node lat="61.64878333377776" lon="10.016274995672639" id="-38225">
		<tag k="alt_name" v="Dynjesæter" />
		<tag k="historic" v="shieling" />
		<tag k="name" v="Dynje" />
		<tag k="old_name" v="Dynjesætra" />
		<tag k="place" v="isolated_dwelling" />
		<tag k="ssr:stedsnr" v="435998" />
	</node>
	<node lat="61.50593888608509" lon="10.240536113808927" id="-38226">
		<tag k="alt_name" v="Loesæter" />
		<tag k="historic" v="shieling" />
		<tag k="name" v="Losætra" />
		<tag k="place" v="isolated_dwelling" />
		<tag k="ssr:stedsnr" v="435885" />
	</node>
	<node lat="61.607033613538626" lon="10.018005308254246" id="-38228">
		<tag k="fixme" v="consider place=hamlet" />
		<tag k="name" v="Svenstad" />
		<tag k="place" v="farm" />
		<tag k="ssr:stedsnr" v="495787" />
	</node>
	<node lat="61.528746412059895" lon="10.152991612393016" id="-38229">
		<tag k="name" v="Bjørge" />
		<tag k="place" v="hamlet" />
		<tag k="ssr:stedsnr" v="495873" />
	</node>
	<node lat="61.506163891498915" lon="10.144174991353216" id="-38230">
		<tag k="name" v="Dalen" />
		<tag k="place" v="farm" />
		<tag k="ssr:stedsnr" v="495887" />
	</node>
	<node lat="61.64290833112044" lon="10.117433333277834" id="-38231">
		<tag k="historic" v="shieling" />
		<tag k="name" v="Freskedalsætra" />
		<tag k="place" v="isolated_dwelling" />
		<tag k="ssr:stedsnr" v="495995" />
	</node>
	<node lat="61.6595833360499" lon="9.977336112266805" id="-38235">
		<tag k="name" v="Venåshagen" />
		<tag k="place" v="farm" />
		<tag k="ssr:stedsnr" v="511995" />
	</node>
	<node lat="61.54836944623672" lon="10.079763889616157" id="-38236">
		<tag k="name" v="Rønningen" />
		<tag k="place" v="farm" />
		<tag k="ssr:stedsnr" v="524582" />
	</node>
	<node lat="61.60930277475458" lon="10.068816657766522" id="-38237">
		<tag k="name" v="Trabelia camping" />
		<tag k="ssr:stedsnr" v="524632" />
		<tag k="tourism" v="camp_site" />
	</node>
	<node lat="61.5841999980567" lon="10.220691671843317" id="-38241">
		<tag k="historic" v="shieling" />
		<tag k="name" v="Wålen" />
		<tag k="place" v="isolated_dwelling" />
		<tag k="ssr:stedsnr" v="524058" />
	</node>
	<node lat="61.4633000008336" lon="10.316922224536112" id="-38246">
		<tag k="name" v="Skrukkerudødegården" />
		<tag k="place" v="farm" />
		<tag k="ssr:stedsnr" v="524297" />
	</node>
	<node lat="61.46446111419341" lon="10.376872217777274" id="-38250">
		<tag k="historic" v="shieling" />
		<tag k="name" v="Gundershaugen" />
		<tag k="place" v="isolated_dwelling" />
		<tag k="ssr:stedsnr" v="524551" />
	</node>
	<node lat="61.67079722408091" lon="10.128788887054558" id="-38254">
		<tag k="name" v="Hågåbua" />
		<tag k="place" v="isolated_dwelling" />
		<tag k="ssr:stedsnr" v="524397" />
	</node>
	<node lat="61.62752222635381" lon="10.285719453572764" id="-38255">
		<tag k="name" v="Dalshytta" />
		<tag k="place" v="isolated_dwelling" />
		<tag k="ssr:stedsnr" v="524496" />
	</node>
	<node lat="61.39582499992254" lon="10.210258340272429" id="-38256">
		<tag k="name" v="Søre Madssvea" />
		<tag k="place" v="farm" />
		<tag k="ssr:stedsnr" v="524740" />
	</node>
	<node lat="61.549030557603125" lon="10.65811943891388" id="-38257">
		<tag k="name" v="Gardsgiveren" />
		<tag k="place" v="isolated_dwelling" />
		<tag k="ssr:stedsnr" v="524746" />
	</node>
	<node lat="61.44510277336736" lon="10.181463893518163" id="-38258">
		<tag k="name" v="Moheimsflata" />
		<tag k="place" v="quarter" />
		<tag k="ssr:stedsnr" v="524774" />
	</node>
	<node lat="61.512502778087445" lon="10.179297214652703" id="-38259">
		<tag k="name" v="Spidsberg" />
		<tag k="place" v="farm" />
		<tag k="ssr:stedsnr" v="524885" />
	</node>
	<node lat="61.49073888531042" lon="10.197155564244758" id="-38260">
		<tag k="name" v="Bårdslykkja" />
		<tag k="place" v="farm" />
		<tag k="ssr:stedsnr" v="524887" />
	</node>
	<node lat="61.50140278010381" lon="10.198138881711284" id="-38261">
		<tag k="name" v="Lille-Kaus" />
		<tag k="place" v="farm" />
		<tag k="ssr:stedsnr" v="524890" />
	</node>
	<node lat="61.52251110713445" lon="10.175627770500432" id="-38262">
		<tag k="name" v="Vestadrønningen" />
		<tag k="place" v="farm" />
		<tag k="ssr:stedsnr" v="524900" />
	</node>
	<node lat="61.487691666269754" lon="10.193658340031499" id="-38264">
		<tag k="name" v="Odlomoen" />
		<tag k="place" v="farm" />
		<tag k="ssr:stedsnr" v="524953" />
	</node>
	<node lat="61.679736111299825" lon="10.55855834157188" id="-38266">
		<tag k="name" v="Kletten hytteområde" />
		<tag k="place" v="neighbourhood" />
		<tag k="ssr:stedsnr" v="526837" />
	</node>
	<node lat="61.5333694482748" lon="10.142916663343204" id="-38272">
		<tag k="amenity" v="school" />
		<tag k="name" v="Nord-Vekkom skole" />
		<tag k="ssr:stedsnr" v="543261" />
	</node>
	<node lat="61.42059722516675" lon="10.38905834120099" id="-38277">
		<tag k="alt_name" v="Gullhaugen" />
		<tag k="name" v="Gullhaugsætra" />
		<tag k="place" v="hamlet" />
		<tag k="ssr:stedsnr" v="554352" />
	</node>
	<node lat="61.40024186428185" lon="10.247679924664533" id="-38280">
		<tag k="fixme" v="consider place=hamlet" />
		<tag k="name" v="Belsrud" />
		<tag k="place" v="farm" />
		<tag k="ssr:stedsnr" v="554914" />
	</node>
	<node lat="61.4931000021578" lon="10.145019452830754" id="-38282">
		<tag k="historic" v="shieling" />
		<tag k="name" v="Susæter" />
		<tag k="place" v="isolated_dwelling" />
		<tag k="ssr:stedsnr" v="554556" />
	</node>
	<node lat="61.49248611350394" lon="10.189541663399265" id="-38283">
		<tag k="name" v="Vardsvea" />
		<tag k="place" v="farm" />
		<tag k="ssr:stedsnr" v="554565" />
	</node>
	<node lat="61.47731389327708" lon="10.194194441909215" id="-38285">
		<tag k="alt_name" v="Søre Vekkom" />
		<tag k="name" v="Sørevekkum" />
		<tag k="place" v="hamlet" />
		<tag k="ssr:stedsnr" v="554638" />
	</node>
	<node lat="61.476468929079104" lon="10.162485038140735" id="-38287">
		<tag k="name" v="Strande" />
		<tag k="place" v="hamlet" />
		<tag k="ssr:stedsnr" v="554647" />
	</node>
	<node lat="61.464308330331285" lon="10.296858328430423" id="-38289">
		<tag k="name" v="Fjellstad" />
		<tag k="place" v="farm" />
		<tag k="ssr:stedsnr" v="554665" />
	</node>
	<node lat="61.552819167798305" lon="10.217552509661122" id="-38294">
		<tag k="alt_name" v="Halvfarlia" />
		<tag k="fixme" v="consider place=hamlet" />
		<tag k="name" v="Halvfarelia" />
		<tag k="place" v="farm" />
		<tag k="ssr:stedsnr" v="555781" />
	</node>
	<node lat="61.647595341997985" lon="10.066937751444625" id="-38299">
		<tag k="historic" v="shieling" />
		<tag k="name" v="Holtesætra" />
		<tag k="place" v="isolated_dwelling" />
		<tag k="ssr:stedsnr" v="555995" />
	</node>
	<node lat="61.671707145955295" lon="10.102526835833281" id="-38308">
		<tag k="name" v="Gudbrandsdal hotell Spidsbergseter" />
		<tag k="old_name" v="Spidsbergseter" />
		<tag k="ssr:stedsnr" v="571303" />
		<tag k="tourism" v="hotel" />
	</node>
	<node lat="61.53874722069211" lon="10.094797219677396" id="-38314">
		<tag k="name" v="Gunstadmoen" />
		<tag k="place" v="farm" />
		<tag k="ssr:stedsnr" v="584774" />
	</node>
	<node lat="61.46978888878701" lon="10.15617777178691" id="-38319">
		<tag k="name" v="Mælumsvea" />
		<tag k="place" v="farm" />
		<tag k="ssr:stedsnr" v="584982" />
	</node>
	<node lat="61.58931111033505" lon="10.222475002209949" id="-38321">
		<tag k="historic" v="shieling" />
		<tag k="name" v="Randsted" />
		<tag k="place" v="isolated_dwelling" />
		<tag k="ssr:stedsnr" v="585076" />
	</node>
	<node lat="61.605241664867116" lon="10.156233328397377" id="-38324">
		<tag k="historic" v="shieling" />
		<tag k="name" v="Nigardssætra" />
		<tag k="place" v="isolated_dwelling" />
		<tag k="ssr:stedsnr" v="585357" />
	</node>
	<node lat="61.5096694468936" lon="10.65588888047256" id="-38329">
		<tag k="name" v="Jegerly" />
		<tag k="place" v="isolated_dwelling" />
		<tag k="ssr:stedsnr" v="585973" />
	</node>
	<node lat="61.692836114171094" lon="10.581861105885883" id="-38332">
		<tag k="name" v="Barthbua" />
		<tag k="place" v="isolated_dwelling" />
		<tag k="ssr:stedsnr" v="587538" />
	</node>
	<node lat="61.60812227371604" lon="10.01002364069564" id="-38333">
		<tag k="alt_name" v="Bøgardene" />
		<tag k="name" v="Bø" />
		<tag k="place" v="hamlet" />
		<tag k="ssr:stedsnr" v="597940" />
	</node>
	<node lat="61.49116389306304" lon="10.050555550327044" id="-38334">
		<tag k="name" v="Gullhaugen hytteområde" />
		<tag k="place" v="neighbourhood" />
		<tag k="ssr:stedsnr" v="598320" />
	</node>
	<node lat="61.465833332548456" lon="10.03555277613319" id="-38335">
		<tag k="name" v="Småtjønnfeltet" />
		<tag k="place" v="neighbourhood" />
		<tag k="ssr:stedsnr" v="598327" />
	</node>
	<node lat="61.65025278220868" lon="9.98426667567964" id="-38337">
		<tag k="name" v="Granlien" />
		<tag k="place" v="farm" />
		<tag k="ssr:stedsnr" v="598376" />
	</node>
	<node lat="61.52509166895416" lon="10.152899992914517" id="-38338">
		<tag k="name" v="Kvisla" />
		<tag k="place" v="farm" />
		<tag k="ssr:stedsnr" v="603136" />
	</node>
	<node lat="61.57268611094068" lon="10.060269445255006" id="-38339">
		<tag k="name" v="Søre Haugstad" />
		<tag k="place" v="farm" />
		<tag k="ssr:stedsnr" v="603647" />
	</node>
	<node lat="61.458944092196674" lon="10.334555036520012" id="-38341">
		<tag k="fixme" v="consider place=hamlet" />
		<tag k="name" v="Korssletta" />
		<tag k="place" v="farm" />
		<tag k="ssr:stedsnr" v="614590" />
	</node>
	<node lat="61.38635483345645" lon="10.220771483746242" id="-38342">
		<tag k="alt_name" v="Nyfløt" />
		<tag k="name" v="Nyflot" />
		<tag k="place" v="hamlet" />
		<tag k="ssr:stedsnr" v="614875" />
	</node>
	<node lat="61.38919723525814" lon="10.251143417980016" id="-38343">
		<tag k="fixme" v="consider place=hamlet" />
		<tag k="name" v="Torsgard" />
		<tag k="place" v="farm" />
		<tag k="ssr:stedsnr" v="614877" />
	</node>
	<node lat="61.388116666809374" lon="10.196305551542531" id="-38344">
		<tag k="name" v="Storsvea" />
		<tag k="place" v="isolated_dwelling" />
		<tag k="ssr:stedsnr" v="614879" />
	</node>
	<node lat="61.46639166391535" lon="10.379247216610604" id="-38345">
		<tag k="alt_name" v="Stortannsæter" />
		<tag k="historic" v="shieling" />
		<tag k="name" v="Stortann" />
		<tag k="place" v="isolated_dwelling" />
		<tag k="ssr:stedsnr" v="615334" />
	</node>
	<node lat="61.45302777701492" lon="10.348227776793925" id="-38346">
		<tag k="name" v="Kverndalen" />
		<tag k="place" v="farm" />
		<tag k="ssr:stedsnr" v="615340" />
	</node>
	<node lat="61.491776641840936" lon="10.200658943261569" id="-38347">
		<tag k="fixme" v="consider place=hamlet" />
		<tag k="name" v="Sletta" />
		<tag k="place" v="farm" />
		<tag k="ssr:stedsnr" v="615519" />
	</node>
	<node lat="61.45535555650015" lon="10.194647230809002" id="-38348">
		<tag k="name" v="Fåvang" />
		<tag k="place" v="village" />
		<tag k="ssr:stedsnr" v="615561" />
	</node>
	<node lat="61.422748004949526" lon="10.195200512533567" id="-38350">
		<tag k="alt_name" v="Hammeren" />
		<tag k="fixme" v="consider place=hamlet" />
		<tag k="name" v="Håmåren" />
		<tag k="place" v="farm" />
		<tag k="ssr:stedsnr" v="615911" />
	</node>
	<node lat="61.41726944764996" lon="10.518149998287262" id="-38353">
		<tag k="historic" v="shieling" />
		<tag k="name" v="Ødegården" />
		<tag k="place" v="isolated_dwelling" />
		<tag k="ssr:stedsnr" v="615954" />
	</node>
	<node lat="61.62461944536563" lon="10.189600008328533" id="-38354">
		<tag k="historic" v="shieling" />
		<tag k="name" v="Sveahaugen" />
		<tag k="place" v="isolated_dwelling" />
		<tag k="ssr:stedsnr" v="616762" />
	</node>
	<node lat="61.63126389075518" lon="10.088125001057106" id="-38355">
		<tag k="name" v="Langbakken" />
		<tag k="place" v="isolated_dwelling" />
		<tag k="ssr:stedsnr" v="616766" />
	</node>
	<node lat="61.603036113004364" lon="10.168602768721316" id="-38356">
		<tag k="name" v="Stigabua" />
		<tag k="place" v="isolated_dwelling" />
		<tag k="ssr:stedsnr" v="616773" />
	</node>
	<node lat="61.54395277934768" lon="10.31934166784827" id="-38357">
		<tag k="historic" v="shieling" />
		<tag k="name" v="Nysætra" />
		<tag k="place" v="isolated_dwelling" />
		<tag k="ssr:stedsnr" v="616833" />
	</node>
	<node lat="61.560842017119334" lon="10.064518107396498" id="-38365">
		<tag k="alt_name" v="Rudi" />
		<tag k="fixme" v="consider place=hamlet" />
		<tag k="name" v="Nedre Rudi" />
		<tag k="place" v="farm" />
		<tag k="ssr:stedsnr" v="617819" />
	</node>
	<node lat="61.58568888663859" lon="10.35288610460342" id="-38368">
		<tag k="fixme" v="consider tourism=alpine_hut or tourism=chalet" />
		<tag k="name" v="Jammerdalsbu" />
		<tag k="ssr:stedsnr" v="630479" />
		<tag k="tourism" v="wilderness_hut" />
	</node>
	<node lat="61.48174722628357" lon="10.360822228340382" id="-38375">
		<tag k="historic" v="shieling" />
		<tag k="name" v="Nyløkken" />
		<tag k="place" v="isolated_dwelling" />
		<tag k="ssr:stedsnr" v="645556" />
	</node>
	<node lat="61.48124444320942" lon="10.356811116535729" id="-38377">
		<tag k="historic" v="shieling" />
		<tag k="name" v="Annolsæter" />
		<tag k="place" v="isolated_dwelling" />
		<tag k="ssr:stedsnr" v="645302" />
	</node>
	<node lat="61.376650001453584" lon="10.27732500057959" id="-38379">
		<tag k="name" v="Skjellestad" />
		<tag k="place" v="locality" />
		<tag k="ssr:stedsnr" v="645267" />
	</node>
	<node lat="61.709419447651506" lon="10.564536118102689" id="-38387">
		<tag k="name" v="Trollhaug" />
		<tag k="place" v="isolated_dwelling" />
		<tag k="ssr:stedsnr" v="646852" />
	</node>
	<node lat="61.59735833407237" lon="10.04284444425928" id="-38389">
		<tag k="name" v="Lunde" />
		<tag k="place" v="farm" />
		<tag k="ssr:stedsnr" v="658897" />
	</node>
	<node lat="61.631266663314044" lon="9.983152769966583" id="-38391">
		<tag k="name" v="Myre" />
		<tag k="place" v="farm" />
		<tag k="ssr:stedsnr" v="659444" />
	</node>
	<node lat="61.55802777424623" lon="10.078247225480952" id="-38393">
		<tag k="name" v="Kampestuen" />
		<tag k="place" v="farm" />
		<tag k="ssr:stedsnr" v="664653" />
	</node>
	<node lat="61.50241388486833" lon="10.312808327424282" id="-38398">
		<tag k="historic" v="shieling" />
		<tag k="name" v="Prestgarden" />
		<tag k="place" v="isolated_dwelling" />
		<tag k="ssr:stedsnr" v="889704" />
	</node>
	<node lat="61.45712500035846" lon="10.052463882227876" id="-38400">
		<tag k="historic" v="shieling" />
		<tag k="name" v="Øvre Randklev" />
		<tag k="place" v="isolated_dwelling" />
		<tag k="ssr:stedsnr" v="720342" />
	</node>
	<node lat="61.567586108844644" lon="10.065666675813738" id="-38402">
		<tag k="name" v="Djupdalen" />
		<tag k="place" v="isolated_dwelling" />
		<tag k="ssr:stedsnr" v="725634" />
	</node>
	<node lat="61.51871666692062" lon="10.18550277514217" id="-38404">
		<tag k="name" v="Dalbak" />
		<tag k="place" v="farm" />
		<tag k="ssr:stedsnr" v="725897" />
	</node>
	<node lat="61.452672225340045" lon="10.179119450600183" id="-38405">
		<tag k="name" v="Sagstugua" />
		<tag k="place" v="isolated_dwelling" />
		<tag k="ssr:stedsnr" v="725997" />
	</node>
	<node lat="61.463230558545305" lon="10.205924999137915" id="-38406">
		<tag k="name" v="Fagerli" />
		<tag k="place" v="farm" />
		<tag k="ssr:stedsnr" v="725998" />
	</node>
	<node lat="61.46216388553908" lon="10.561480554993063" id="-38407">
		<tag k="name" v="Tromsbua" />
		<tag k="place" v="isolated_dwelling" />
		<tag k="ssr:stedsnr" v="736347" />
	</node>
	<node lat="61.4446617307239" lon="10.208451090864832" id="-38409">
		<tag k="fixme" v="consider place=hamlet" />
		<tag k="name" v="Teige" />
		<tag k="place" v="farm" />
		<tag k="ssr:stedsnr" v="736563" />
	</node>
	<node lat="61.437823091784395" lon="10.215529321338652" id="-38410">
		<tag k="fixme" v="consider place=hamlet" />
		<tag k="name" v="Myra" />
		<tag k="place" v="farm" />
		<tag k="ssr:stedsnr" v="736572" />
	</node>
	<node lat="61.471740234316215" lon="10.164642054322924" id="-38411">
		<tag k="fixme" v="consider place=hamlet" />
		<tag k="name" v="Mælum" />
		<tag k="place" v="farm" />
		<tag k="ssr:stedsnr" v="737603" />
	</node>
	<node lat="61.61778611469848" lon="10.186897214227647" id="-38414">
		<tag k="historic" v="shieling" />
		<tag k="name" v="Nordstulen" />
		<tag k="place" v="isolated_dwelling" />
		<tag k="ssr:stedsnr" v="738755" />
	</node>
	<node lat="61.61533611203442" lon="10.07645277953084" id="-38415">
		<tag k="historic" v="shieling" />
		<tag k="name" v="Trabelia" />
		<tag k="old_name" v="Trabella" />
		<tag k="place" v="isolated_dwelling" />
		<tag k="ssr:stedsnr" v="738758" />
	</node>
	<node lat="61.60520277725558" lon="10.051113883563294" id="-38420">
		<tag k="alt_name" v="Veslesæter" />
		<tag k="historic" v="shieling" />
		<tag k="name" v="Veslesætra" />
		<tag k="place" v="isolated_dwelling" />
		<tag k="ssr:stedsnr" v="738787" />
	</node>
	<node lat="61.60312778181783" lon="10.02859165940914" id="-38421">
		<tag k="name" v="Dokken" />
		<tag k="place" v="farm" />
		<tag k="ssr:stedsnr" v="738789" />
	</node>
	<node lat="61.555863889511166" lon="10.226547229405597" id="-38422">
		<tag k="historic" v="shieling" />
		<tag k="name" v="Halvfaret" />
		<tag k="place" v="isolated_dwelling" />
		<tag k="ssr:stedsnr" v="738842" />
	</node>
	<node lat="61.546648001027364" lon="10.121199184762887" id="-38423">
		<tag k="fixme" v="consider place=hamlet" />
		<tag k="name" v="Høystad" />
		<tag k="place" v="farm" />
		<tag k="ssr:stedsnr" v="738843" />
	</node>
	<node lat="61.54749434125239" lon="10.10884690766757" id="-38424">
		<tag k="fixme" v="consider place=hamlet" />
		<tag k="name" v="Mælum" />
		<tag k="place" v="farm" />
		<tag k="ssr:stedsnr" v="738845" />
	</node>
	<node lat="61.52657778173018" lon="10.166900003112497" id="-38425">
		<tag k="name" v="Vekkom" />
		<tag k="place" v="hamlet" />
		<tag k="ssr:stedsnr" v="738882" />
	</node>
	<node lat="61.503919444153816" lon="10.20600278426485" id="-38426">
		<tag k="name" v="Huslykkja" />
		<tag k="place" v="farm" />
		<tag k="ssr:stedsnr" v="738891" />
	</node>
	<node lat="61.46868333762381" lon="10.503341658232136" id="-38431">
		<tag k="fixme" v="consider tourism=alpine_hut or tourism=chalet" />
		<tag k="name" v="Vetåbua" />
		<tag k="ssr:stedsnr" v="753987" />
		<tag k="tourism" v="wilderness_hut" />
	</node>
	<node lat="61.41052500066873" lon="10.247427782048831" id="-38436">
		<tag k="name" v="Hjellstuen" />
		<tag k="place" v="farm" />
		<tag k="ssr:stedsnr" v="767294" />
	</node>
	<node lat="61.46248889297102" lon="10.262055557771747" id="-38437">
		<tag k="name" v="Nedre Løkkum" />
		<tag k="place" v="locality" />
		<tag k="ssr:stedsnr" v="767302" />
	</node>
	<node lat="61.46510833665674" lon="10.283961103942124" id="-38438">
		<tag k="name" v="Mork" />
		<tag k="place" v="farm" />
		<tag k="ssr:stedsnr" v="767320" />
	</node>
	<node lat="61.460022221947824" lon="10.34124999962879" id="-38439">
		<tag k="name" v="Lillesæter" />
		<tag k="place" v="farm" />
		<tag k="ssr:stedsnr" v="767323" />
	</node>
	<node lat="61.462093458069475" lon="10.31091930914465" id="-38441">
		<tag k="fixme" v="consider place=hamlet" />
		<tag k="name" v="Strandborgen" />
		<tag k="place" v="farm" />
		<tag k="ssr:stedsnr" v="767327" />
	</node>
	<node lat="61.41524722367455" lon="10.34954999207024" id="-38447">
		<tag k="historic" v="shieling" />
		<tag k="name" v="Heggedal" />
		<tag k="place" v="isolated_dwelling" />
		<tag k="ssr:stedsnr" v="767287" />
	</node>
	<node lat="61.42032222390541" lon="10.388486105469584" id="-38449">
		<tag k="historic" v="shieling" />
		<tag k="name" v="Løsnesløkken" />
		<tag k="place" v="isolated_dwelling" />
		<tag k="ssr:stedsnr" v="767558" />
	</node>
	<node lat="61.484925003227666" lon="10.364763880246967" id="-38451">
		<tag k="historic" v="shieling" />
		<tag k="name" v="Øvre Tromsnes" />
		<tag k="place" v="isolated_dwelling" />
		<tag k="ssr:stedsnr" v="767570" />
	</node>
	<node lat="61.437725003338905" lon="10.187083333975714" id="-38459">
		<tag k="name" v="Valstad" />
		<tag k="place" v="farm" />
		<tag k="ssr:stedsnr" v="767795" />
	</node>
	<node lat="61.54432500101777" lon="10.314119438759336" id="-38463">
		<tag k="historic" v="shieling" />
		<tag k="name" v="Vestad" />
		<tag k="place" v="isolated_dwelling" />
		<tag k="ssr:stedsnr" v="767674" />
	</node>
	<node lat="61.55097499628706" lon="10.65574445163254" id="-38467">
		<tag k="name" v="Torsgardsbua" />
		<tag k="place" v="isolated_dwelling" />
		<tag k="ssr:stedsnr" v="767762" />
	</node>
	<node lat="61.482605554794574" lon="10.153844446089098" id="-38471">
		<tag k="name" v="Bruvang" />
		<tag k="place" v="isolated_dwelling" />
		<tag k="ssr:stedsnr" v="767970" />
	</node>
	<node lat="61.50127222220297" lon="10.643738882387302" id="-38472">
		<tag k="name" v="Øfstegardsbua" />
		<tag k="place" v="locality" />
		<tag k="ssr:stedsnr" v="767983" />
	</node>
	<node lat="61.50297777648159" lon="10.040547230471201" id="-38477">
		<tag k="historic" v="shieling" />
		<tag k="name" v="Nordlien" />
		<tag k="place" v="isolated_dwelling" />
		<tag k="ssr:stedsnr" v="780316" />
	</node>
	<node lat="61.394452779705645" lon="9.975502786051528" id="-38478">
		<tag k="historic" v="shieling" />
		<tag k="name" v="Nordre Berge" />
		<tag k="place" v="isolated_dwelling" />
		<tag k="ssr:stedsnr" v="780336" />
	</node>
	<node lat="61.5296472262739" lon="10.138886102454384" id="-38481">
		<tag k="name" v="Ringebu" />
		<tag k="place" v="village" />
		<tag k="ssr:stedsnr" v="780643" />
	</node>
	<node lat="61.5296472262739" lon="10.138886102454384" id="-38482">
		<tag k="alt_name" v="Vålebru" />
		<tag k="name" v="Vålebrua" />
		<tag k="place" v="quarter" />
		<tag k="ssr:stedsnr" v="780836" />
	</node>
	<node lat="61.408772221091766" lon="10.262208331784013" id="-38484">
		<tag k="alt_name" v="Hageødegården" />
		<tag k="name" v="Hågåøygarden" />
		<tag k="place" v="farm" />
		<tag k="ssr:stedsnr" v="797891" />
	</node>
	<node lat="61.45312222160485" lon="10.123575003665133" id="-38490">
		<tag k="historic" v="shieling" />
		<tag k="name" v="Neristuen" />
		<tag k="place" v="isolated_dwelling" />
		<tag k="ssr:stedsnr" v="786974" />
	</node>
	<node lat="61.46448333122286" lon="10.15516943580197" id="-38491">
		<tag k="name" v="Storhaugen" />
		<tag k="place" v="farm" />
		<tag k="ssr:stedsnr" v="786996" />
	</node>
	<node lat="61.49109166821715" lon="10.671986105469475" id="-38493">
		<tag k="alt_name" v="Jensvollene" />
		<tag k="historic" v="shieling" />
		<tag k="name" v="Jensvollan" />
		<tag k="place" v="isolated_dwelling" />
		<tag k="ssr:stedsnr" v="797830" />
	</node>
	<node lat="61.45130833142661" lon="10.127736106168857" id="-38497">
		<tag k="historic" v="shieling" />
		<tag k="name" v="Segelstadsætra" />
		<tag k="old_name" v="Segalstadsætra" />
		<tag k="place" v="isolated_dwelling" />
		<tag k="ssr:stedsnr" v="797589" />
	</node>
	<node lat="61.537975003375166" lon="10.356938897889956" id="-38499">
		<tag k="alt_name" v="Breidstølen" />
		<tag k="historic" v="shieling" />
		<tag k="name" v="Breistulen" />
		<tag k="place" v="isolated_dwelling" />
		<tag k="ssr:stedsnr" v="798231" />
	</node>
	<node lat="61.470620274647935" lon="10.246503323214837" id="-38501">
		<tag k="alt_name" v="Ånsløkken" />
		<tag k="fixme" v="consider place=hamlet" />
		<tag k="name" v="Ånnslykkja" />
		<tag k="place" v="farm" />
		<tag k="ssr:stedsnr" v="798576" />
	</node>
	<node lat="61.4679061073972" lon="10.215395492459566" id="-38503">
		<tag k="fixme" v="consider place=hamlet" />
		<tag k="name" v="Hjelle" />
		<tag k="place" v="farm" />
		<tag k="ssr:stedsnr" v="798584" />
	</node>
	<node lat="61.46204747672306" lon="10.299948907190801" id="-38504">
		<tag k="fixme" v="consider place=hamlet" />
		<tag k="name" v="Spangerud" />
		<tag k="place" v="farm" />
		<tag k="ssr:stedsnr" v="798586" />
	</node>
	<node lat="61.50406304972917" lon="10.63987868523951" id="-38506">
		<tag k="name" v="Samtjønnsbua" />
		<tag k="old_name" v="Saubu" />
		<tag k="place" v="locality" />
		<tag k="ssr:stedsnr" v="799228" />
	</node>
	<node lat="61.606016933035164" lon="10.0214471447933" id="-38507">
		<tag k="fixme" v="consider place=hamlet" />
		<tag k="name" v="Bringsrud" />
		<tag k="place" v="farm" />
		<tag k="ssr:stedsnr" v="799795" />
	</node>
	<node lat="61.58709307608967" lon="10.054897127973964" id="-38510">
		<tag k="alt_name" v="Forrestad" />
		<tag k="fixme" v="consider place=hamlet" />
		<tag k="name" v="Fåråstad" />
		<tag k="place" v="farm" />
		<tag k="ssr:stedsnr" v="799807" />
	</node>
	<node lat="61.55748055302988" lon="10.097691671388423" id="-38511">
		<tag k="name" v="Risstubben" />
		<tag k="place" v="farm" />
		<tag k="ssr:stedsnr" v="799821" />
	</node>
	<node lat="61.557766668813166" lon="10.059702782294716" id="-38512">
		<tag k="alt_name" v="Rudidalen" />
		<tag k="name" v="Dalen" />
		<tag k="place" v="farm" />
		<tag k="ssr:stedsnr" v="799825" />
	</node>
	<node lat="61.53115555380746" lon="10.062336103278762" id="-38514">
		<tag k="name" v="Nordlibakken" />
		<tag k="place" v="farm" />
		<tag k="ssr:stedsnr" v="799880" />
	</node>
	<node lat="61.47110833699787" lon="10.23988332944105" id="-38522">
		<tag k="name" v="Løkkebakken" />
		<tag k="place" v="farm" />
		<tag k="ssr:stedsnr" v="828321" />
	</node>
	<node lat="61.45672222415068" lon="10.30172499394248" id="-38524">
		<tag k="name" v="Buvoldbua" />
		<tag k="place" v="locality" />
		<tag k="ssr:stedsnr" v="828329" />
	</node>
	<node lat="61.534791662717296" lon="10.11704165801113" id="-38525">
		<tag k="alt_name" v="Brænd;Brenna" />
		<tag k="name" v="Brenn" />
		<tag k="place" v="farm" />
		<tag k="ssr:stedsnr" v="828195" />
	</node>
	<node lat="61.42305832998703" lon="10.354027784471697" id="-38527">
		<tag k="name" v="Svangenfeltet" />
		<tag k="place" v="isolated_dwelling" />
		<tag k="ssr:stedsnr" v="828280" />
	</node>
	<node lat="61.43792777878309" lon="10.419819453579636" id="-38530">
		<tag k="name" v="Furuhaugen" />
		<tag k="place" v="locality" />
		<tag k="ssr:stedsnr" v="828569" />
	</node>
	<node lat="61.55047499806661" lon="10.280572230362877" id="-38534">
		<tag k="name" v="Åsfeltet" />
		<tag k="place" v="neighbourhood" />
		<tag k="ssr:stedsnr" v="828647" />
	</node>
	<node lat="61.50100555793691" lon="10.316433326574893" id="-38538">
		<tag k="historic" v="shieling" />
		<tag k="name" v="Odlo" />
		<tag k="place" v="isolated_dwelling" />
		<tag k="ssr:stedsnr" v="828689" />
	</node>
	<node lat="61.475744445993655" lon="10.113241671988414" id="-38539">
		<tag k="name" v="Gammelsæterfeltet" />
		<tag k="place" v="neighbourhood" />
		<tag k="ssr:stedsnr" v="828690" />
	</node>
	<node lat="61.49670277950971" lon="10.06209167187833" id="-38540">
		<tag k="historic" v="shieling" />
		<tag k="name" v="Breistulen" />
		<tag k="place" v="isolated_dwelling" />
		<tag k="ssr:stedsnr" v="828698" />
	</node>
	<node lat="61.47616666770215" lon="10.123847219392276" id="-38546">
		<tag k="historic" v="shieling" />
		<tag k="name" v="Mælumsvea" />
		<tag k="place" v="isolated_dwelling" />
		<tag k="ssr:stedsnr" v="828958" />
	</node>
	<node lat="61.50981944877529" lon="10.650872214428984" id="-38548">
		<tag k="name" v="Smidesangsbua" />
		<tag k="place" v="isolated_dwelling" />
		<tag k="ssr:stedsnr" v="889987" />
	</node>
	<node lat="61.596283550658534" lon="10.04198492281318" id="-38551">
		<tag k="alt_name" v="Lundegardene" />
		<tag k="name" v="Lunde" />
		<tag k="place" v="hamlet" />
		<tag k="ssr:stedsnr" v="841939" />
	</node>
	<node lat="61.56363055939691" lon="10.106675006063726" id="-38553">
		<tag k="historic" v="shieling" />
		<tag k="name" v="Bøle" />
		<tag k="place" v="isolated_dwelling" />
		<tag k="ssr:stedsnr" v="847680" />
	</node>
	<node lat="61.45477777739222" lon="10.22039165813506" id="-38555">
		<tag k="name" v="Kristianstugua" />
		<tag k="place" v="farm" />
		<tag k="ssr:stedsnr" v="847996" />
	</node>
	<node lat="61.41388888766861" lon="10.487669452571248" id="-38556">
		<tag k="historic" v="shieling" />
		<tag k="name" v="Oleslærne" />
		<tag k="place" v="isolated_dwelling" />
		<tag k="ssr:stedsnr" v="847960" />
	</node>
	<node lat="61.413420601441324" lon="10.232956121784975" id="-38557">
		<tag k="alt_name" v="Bråstad, s" />
		<tag k="name" v="Søre Bråstad" />
		<tag k="place" v="farm" />
		<tag k="ssr:stedsnr" v="857901" />
	</node>
	<node lat="61.44361737314009" lon="10.214777590308662" id="-38558">
		<tag k="alt_name" v="Hemrom" />
		<tag k="fixme" v="consider place=hamlet" />
		<tag k="name" v="Hemrum" />
		<tag k="place" v="farm" />
		<tag k="ssr:stedsnr" v="858602" />
	</node>
	<node lat="61.48397777734141" lon="10.21083889049588" id="-38559">
		<tag k="alt_name" v="Odlorønningen" />
		<tag k="name" v="Rønningen" />
		<tag k="place" v="farm" />
		<tag k="ssr:stedsnr" v="858609" />
	</node>
	<node lat="61.39313055287753" lon="10.21238055769454" id="-38560">
		<tag k="name" v="Svebakken" />
		<tag k="place" v="farm" />
		<tag k="ssr:stedsnr" v="858897" />
	</node>
	<node lat="61.40478888741818" lon="10.226736120269148" id="-38561">
		<tag k="name" v="Moen" />
		<tag k="place" v="farm" />
		<tag k="ssr:stedsnr" v="858900" />
	</node>
	<node lat="61.40113087409504" lon="10.209776639941195" id="-38562">
		<tag k="name" v="Liasvea" />
		<tag k="place" v="hamlet" />
		<tag k="ssr:stedsnr" v="858902" />
	</node>
	<node lat="61.46481666272955" lon="10.193577776678307" id="-38564">
		<tag k="alt_name" v="Øvre Lindalen" />
		<tag k="name" v="Lindalen" />
		<tag k="place" v="farm" />
		<tag k="ssr:stedsnr" v="858636" />
	</node>
	<node lat="61.46747222259883" lon="10.164286115954583" id="-38565">
		<tag k="name" v="Nyheim" />
		<tag k="place" v="farm" />
		<tag k="ssr:stedsnr" v="858637" />
	</node>
	<node lat="61.46743514733441" lon="10.280194201481283" id="-38566">
		<tag k="alt_name" v="Øvre Flyødegården" />
		<tag k="name" v="Flyøygarden" />
		<tag k="old_name" v="Fløygarden;Flyødegård(en);Øvre Fly-Ødegaarden" />
		<tag k="place" v="farm" />
		<tag k="ssr:stedsnr" v="858643" />
	</node>
	<node lat="61.52515555431213" lon="10.238886117204299" id="-38568">
		<tag k="alt_name" v="Geilsætra" />
		<tag k="historic" v="shieling" />
		<tag k="name" v="Hjelsætra" />
		<tag k="place" v="isolated_dwelling" />
		<tag k="ssr:stedsnr" v="859841" />
	</node>
	<node lat="61.66357499693397" lon="10.045880554814678" id="-38569">
		<tag k="historic" v="shieling" />
		<tag k="name" v="Svartfjellsætra" />
		<tag k="place" v="isolated_dwelling" />
		<tag k="ssr:stedsnr" v="859977" />
	</node>
	<node lat="61.70755869742309" lon="10.62711764305323" id="-38572">
		<tag k="historic" v="shieling" />
		<tag k="name" v="Hirkjølen" />
		<tag k="place" v="isolated_dwelling" />
		<tag k="ssr:stedsnr" v="860187" />
	</node>
	<node lat="61.563063888280986" lon="10.108533328294362" id="-38575">
		<tag k="alt_name" v="Bølstulen" />
		<tag k="historic" v="shieling" />
		<tag k="name" v="Bølsætrin" />
		<tag k="place" v="isolated_dwelling" />
		<tag k="ssr:stedsnr" v="860832" />
	</node>
	<node lat="61.59978333266507" lon="10.147177780114488" id="-38576">
		<tag k="historic" v="shieling" />
		<tag k="name" v="Jønnhalt" />
		<tag k="place" v="isolated_dwelling" />
		<tag k="ssr:stedsnr" v="860797" />
	</node>
	<node lat="61.43005277567865" lon="10.09272777776793" id="-38580">
		<tag k="name" v="Storslettbakken" />
		<tag k="place" v="isolated_dwelling" />
		<tag k="ssr:stedsnr" v="878071" />
	</node>
	<node lat="61.521218796134484" lon="10.584831215249487" id="-38581">
		<tag k="fixme" v="multiple name tags, choose one and add the other to alt_name" />
		<tag k="name" v="Flylykkjeliua;Statsbua" />
		<tag k="place" v="locality" />
		<tag k="ssr:stedsnr" v="874527" />
	</node>
	<node lat="61.6617966257239" lon="9.970954057874797" id="-38584">
		<tag k="name" v="Plassen" />
		<tag k="place" v="farm" />
		<tag k="ssr:stedsnr" v="876980" />
	</node>
	<node lat="61.59208333666442" lon="10.05992499340448" id="-38585">
		<tag k="name" v="Forrestadhågån" />
		<tag k="place" v="farm" />
		<tag k="ssr:stedsnr" v="876999" />
	</node>
	<node lat="61.57593530918851" lon="10.062758358044503" id="-38586">
		<tag k="name" v="Haugstad" />
		<tag k="place" v="hamlet" />
		<tag k="ssr:stedsnr" v="888644" />
	</node>
	<node lat="61.44955555355983" lon="10.439502777607572" id="-38588">
		<tag k="historic" v="shieling" />
		<tag k="name" v="Øvre Brenn" />
		<tag k="place" v="isolated_dwelling" />
		<tag k="ssr:stedsnr" v="888574" />
	</node>
	<node lat="61.55640833100769" lon="10.300508327628862" id="-38589">
		<tag k="amenity" v="cafe" />
		<tag k="name" v="Øksendalen kafe" />
		<tag k="ssr:stedsnr" v="888727" />
	</node>
	<node lat="61.43859166740941" lon="10.13625555810278" id="-38590">
		<tag k="name" v="Liagrenda" />
		<tag k="place" v="hamlet" />
		<tag k="ssr:stedsnr" v="888773" />
	</node>
	<node lat="61.43335278125909" lon="10.181666673481898" id="-38591">
		<tag k="name" v="Linvikshaugen" />
		<tag k="place" v="farm" />
		<tag k="ssr:stedsnr" v="888786" />
	</node>
	<node lat="61.444299996518275" lon="10.181441657598722" id="-38592">
		<tag k="amenity" v="school" />
		<tag k="name" v="Strand skule" />
		<tag k="ssr:stedsnr" v="888789" />
	</node>
	<node lat="61.518722222501275" lon="10.16665833493837" id="-38595">
		<tag k="name" v="Bergshaugen" />
		<tag k="place" v="isolated_dwelling" />
		<tag k="ssr:stedsnr" v="888912" />
	</node>
	<node lat="61.47736666812293" lon="10.123261107534407" id="-38597">
		<tag k="historic" v="shieling" />
		<tag k="name" v="Gammelsætra" />
		<tag k="place" v="isolated_dwelling" />
		<tag k="ssr:stedsnr" v="888976" />
	</node>
	<node lat="61.50154722500365" lon="10.169197229631548" id="-38599">
		<tag k="name" v="Elstad camping" />
		<tag k="ssr:stedsnr" v="888979" />
		<tag k="tourism" v="camp_site" />
	</node>
	<node lat="61.507212277813856" lon="10.137137906740103" id="-38601">
		<tag k="alt_name" v="Djupdalen" />
		<tag k="fixme" v="consider place=hamlet" />
		<tag k="name" v="Dypdalen" />
		<tag k="place" v="farm" />
		<tag k="ssr:stedsnr" v="888983" />
	</node>
	<node lat="61.533733335530954" lon="10.13196111767624" id="-38602">
		<tag k="name" v="Ulberg" />
		<tag k="place" v="quarter" />
		<tag k="ssr:stedsnr" v="889240" />
	</node>
	<node lat="61.404908332766226" lon="10.258372214516731" id="-38603">
		<tag k="name" v="Brenna" />
		<tag k="place" v="farm" />
		<tag k="ssr:stedsnr" v="889283" />
	</node>
	<node lat="61.59327499609257" lon="10.24148888962984" id="-38607">
		<tag k="name" v="Andreashytta" />
		<tag k="place" v="isolated_dwelling" />
		<tag k="ssr:stedsnr" v="889491" />
	</node>
	<node lat="61.421925001721114" lon="10.37717221874142" id="-38608">
		<tag k="historic" v="shieling" />
		<tag k="name" v="Bjørge" />
		<tag k="place" v="isolated_dwelling" />
		<tag k="ssr:stedsnr" v="889550" />
	</node>
	<node lat="61.580116665688756" lon="10.064252779680478" id="-38616">
		<tag k="name" v="Nyhagen" />
		<tag k="place" v="farm" />
		<tag k="ssr:stedsnr" v="936990" />
	</node>
	<node lat="61.673502778941874" lon="10.536169449280706" id="-38620">
		<tag k="name" v="Storfjellseter gjestegård" />
		<tag k="ssr:stedsnr" v="938702" />
		<tag k="tourism" v="hotel" />
	</node>
	<node lat="61.483536111797086" lon="10.30848611427387" id="-38621">
		<tag k="name" v="Morktjønnfeltet" />
		<tag k="place" v="neighbourhood" />
		<tag k="ssr:stedsnr" v="949298" />
	</node>
	<node lat="61.40472499582464" lon="10.262605554468372" id="-38623">
		<tag k="name" v="Korshaugen" />
		<tag k="place" v="farm" />
		<tag k="ssr:stedsnr" v="949264" />
	</node>
	<node lat="61.44534166812492" lon="10.436972214985502" id="-38625">
		<tag k="historic" v="shieling" />
		<tag k="name" v="Nesset" />
		<tag k="place" v="isolated_dwelling" />
		<tag k="ssr:stedsnr" v="949553" />
	</node>
	<node lat="61.444527777963735" lon="10.433549996377272" id="-38626">
		<tag k="historic" v="shieling" />
		<tag k="name" v="Brenna" />
		<tag k="place" v="isolated_dwelling" />
		<tag k="ssr:stedsnr" v="949555" />
	</node>
	<node lat="61.552305554305434" lon="10.086961106884607" id="-38627">
		<tag k="name" v="Lille Nordrum" />
		<tag k="place" v="farm" />
		<tag k="ssr:stedsnr" v="949561" />
	</node>
	<node lat="61.54341388563266" lon="10.066233338080997" id="-38629">
		<tag k="name" v="Nyvold" />
		<tag k="place" v="farm" />
		<tag k="ssr:stedsnr" v="949568" />
	</node>
	<node lat="61.56108888755587" lon="10.30814165850219" id="-38632">
		<tag k="historic" v="shieling" />
		<tag k="name" v="Søre Bjørge" />
		<tag k="place" v="isolated_dwelling" />
		<tag k="ssr:stedsnr" v="949652" />
	</node>
	<node lat="61.61782500095672" lon="10.083338886135625" id="-38634">
		<tag k="name" v="Venastul" />
		<tag k="ssr:stedsnr" v="949624" />
		<tag k="tourism" v="guest_house" />
	</node>
	<node lat="61.4966694464829" lon="10.312602786636694" id="-38635">
		<tag k="historic" v="shieling" />
		<tag k="name" v="Odlosveen" />
		<tag k="place" v="isolated_dwelling" />
		<tag k="ssr:stedsnr" v="949684" />
	</node>
	<node lat="61.528972226777555" lon="10.175797213390412" id="-38640">
		<tag k="name" v="Høyesvea" />
		<tag k="place" v="farm" />
		<tag k="ssr:stedsnr" v="949920" />
	</node>
	<node lat="61.51296388632867" lon="10.65466110519157" id="-38641">
		<tag k="name" v="Bjørgebua" />
		<tag k="place" v="isolated_dwelling" />
		<tag k="ssr:stedsnr" v="949983" />
	</node>
	<node lat="61.50158333242947" lon="10.189197223485131" id="-38650">
		<tag k="name" v="Brandstadflata" />
		<tag k="place" v="farm" />
		<tag k="ssr:stedsnr" v="949972" />
	</node>
	<node lat="61.64423333411231" lon="9.979805556459892" id="-38657">
		<tag k="alt_name" v="Storvolden" />
		<tag k="name" v="Storvollen" />
		<tag k="place" v="locality" />
		<tag k="ssr:stedsnr" v="962381" />
	</node>
	<node lat="61.63221388478467" lon="9.987580555925506" id="-38658">
		<tag k="name" v="Haugsjordet" />
		<tag k="place" v="farm" />
		<tag k="ssr:stedsnr" v="962419" />
	</node>
	<node lat="61.637099999384475" lon="9.98805000491352" id="-38659">
		<tag k="name" v="Bråten" />
		<tag k="place" v="farm" />
		<tag k="ssr:stedsnr" v="962421" />
	</node>
	<node lat="61.66700833767246" lon="9.976483326602533" id="-38660">
		<tag k="name" v="Hovdhaugen" />
		<tag k="place" v="farm" />
		<tag k="ssr:stedsnr" v="962647" />
	</node>
	<node lat="61.58899337508367" lon="10.048388347475074" id="-38661">
		<tag k="alt_name" v="Ødegårdene" />
		<tag k="fixme" v="consider place=hamlet" />
		<tag k="name" v="Øygarden" />
		<tag k="place" v="farm" />
		<tag k="ssr:stedsnr" v="962951" />
	</node>
	<node lat="61.526952775011075" lon="10.14504722148005" id="-38662">
		<tag k="amenity" v="school" />
		<tag k="name" v="Ringebu ungdomsskole" />
		<tag k="ssr:stedsnr" v="968157" />
	</node>
	<node lat="61.42303055783085" lon="10.17712499255893" id="-38664">
		<tag k="historic" v="shieling" />
		<tag k="name" v="Toftemorken" />
		<tag k="place" v="isolated_dwelling" />
		<tag k="ssr:stedsnr" v="968781" />
	</node>
	<node lat="61.4115416686407" lon="10.151116675107433" id="-38665">
		<tag k="historic" v="shieling" />
		<tag k="name" v="Bystad" />
		<tag k="place" v="isolated_dwelling" />
		<tag k="ssr:stedsnr" v="968782" />
	</node>
	<node lat="61.54311126900785" lon="10.115031960589587" id="-38689">
		<tag k="fixme" v="consider place=hamlet" />
		<tag k="name" v="Sygard Gunstad" />
		<tag k="place" v="farm" />
		<tag k="ssr:stedsnr" v="982828" />
	</node>
	<node lat="61.54398889238859" lon="10.11143375522001" id="-38690">
		<tag k="fixme" v="consider place=hamlet" />
		<tag k="name" v="Nistugun Gunstad" />
		<tag k="place" v="farm" />
		<tag k="ssr:stedsnr" v="982829" />
	</node>
	<node lat="61.47974842801989" lon="10.161013498903253" id="-38691">
		<tag k="name" v="Stamstad" />
		<tag k="place" v="farm" />
		<tag k="ssr:stedsnr" v="982830" />
	</node>
	<node lat="61.39287170418492" lon="10.241325275623481" id="-38692">
		<tag k="name" v="Borgemoen" />
		<tag k="place" v="farm" />
		<tag k="ssr:stedsnr" v="982831" />
	</node>
	<node lat="61.535106037504555" lon="10.159612630257977" id="-38694">
		<tag k="name" v="Brettingen" />
		<tag k="place" v="locality" />
		<tag k="ssr:stedsnr" v="985558" />
	</node>
	<node lat="61.514838646745154" lon="10.162865138795244" id="-38695">
		<tag k="name" v="Grov" />
		<tag k="place" v="locality" />
		<tag k="ssr:stedsnr" v="985559" />
	</node>
	<node lat="61.45188658460958" lon="10.164437425234588" id="-38697">
		<tag k="alt_name" v="Myra" />
		<tag k="fixme" v="consider place=hamlet" />
		<tag k="name" v="Myre" />
		<tag k="place" v="farm" />
		<tag k="ssr:stedsnr" v="985567" />
	</node>
	<node lat="61.46112400892864" lon="10.16473512925473" id="-38698">
		<tag k="name" v="Berge" />
		<tag k="place" v="hamlet" />
		<tag k="ssr:stedsnr" v="985568" />
	</node>
	<node lat="61.48741703223307" lon="10.149723512509883" id="-38699">
		<tag k="fixme" v="consider place=hamlet" />
		<tag k="name" v="Rottås" />
		<tag k="place" v="farm" />
		<tag k="ssr:stedsnr" v="985569" />
	</node>
	<node lat="61.5125086918103" lon="10.13108997866705" id="-38701">
		<tag k="name" v="Rankleiv" />
		<tag k="place" v="hamlet" />
		<tag k="ssr:stedsnr" v="985571" />
	</node>
	<node lat="61.43729001787022" lon="10.203226512592101" id="-38702">
		<tag k="name" v="Løysnes" />
		<tag k="place" v="hamlet" />
		<tag k="ssr:stedsnr" v="985581" />
	</node>
	<node lat="61.43601885927496" lon="10.214713238912307" id="-38703">
		<tag k="fixme" v="consider place=hamlet" />
		<tag k="name" v="Bakke" />
		<tag k="place" v="farm" />
		<tag k="ssr:stedsnr" v="985584" />
	</node>
	<node lat="61.413770983460616" lon="10.230784464216683" id="-38704">
		<tag k="fixme" v="consider place=hamlet" />
		<tag k="name" v="Bråstad" />
		<tag k="place" v="farm" />
		<tag k="ssr:stedsnr" v="985586" />
	</node>
	<node lat="61.41096282470452" lon="10.242114223875955" id="-38705">
		<tag k="fixme" v="consider place=hamlet" />
		<tag k="name" v="Hjelle" />
		<tag k="place" v="farm" />
		<tag k="ssr:stedsnr" v="985587" />
	</node>
	<node lat="61.39650700490248" lon="10.21148725597131" id="-38706">
		<tag k="fixme" v="consider place=hamlet" />
		<tag k="name" v="Madssvea" />
		<tag k="place" v="farm" />
		<tag k="ssr:stedsnr" v="985589" />
	</node>
	<node lat="61.66850696164679" lon="10.142074338062262" id="-39085">
		<tag k="fixme" v="consider tourism=alpine_hut or tourism=chalet" />
		<tag k="name" v="Veslefjellbua" />
		<tag k="ssr:stedsnr" v="1077622" />
		<tag k="tourism" v="wilderness_hut" />
	</node>
	<node lat="61.40218224695736" lon="10.235390698945954" id="-39087">
		<tag k="name" v="Sylte" />
		<tag k="place" v="hamlet" />
		<tag k="ssr:stedsnr" v="1080336" />
	</node>
</osm>
