<?xml version="1.0" encoding="UTF-8"?>
<<<<<<< HEAD
<osm version="0.6" generator="osmapis">
	<node lat="61.40093333640153" lon="10.297363895866946" id="-21995">
		<tag k="name" v="Bommen" />
		<tag k="place" v="locality" />
		<tag k="ssr:stedsnr" v="100407" />
	</node>
	<node lat="61.42711666283063" lon="10.220352770293486" id="-22035">
		<tag k="amenity" v="place_of_worship" />
		<tag k="denomination" v="lutheran" />
		<tag k="name" v="Fåvang kirke" />
		<tag k="religion" v="christian" />
		<tag k="ssr:stedsnr" v="129928" />
	</node>
	<node lat="61.509341664446666" lon="10.173019438102068" id="-22058">
		<tag k="alt_name" v="Ringebu" />
=======
<osm generator="osmapis" version="0.6">
	<node id="-376352" lat="61.4271166628" lon="10.2203527703">
>>>>>>> e1d4bc35ff8a6074a6f2e91616a996b547c36f15
		<tag k="amenity" v="place_of_worship" />
		<tag k="denomination" v="lutheran" />
		<tag k="name" v="Ringebu stavkyrkje" />
		<tag k="religion" v="christian" />
		<tag k="ssr:stedsnr" v="131915" />
	</node>
<<<<<<< HEAD
	<node lat="61.594383333627846" lon="10.049219449601443" id="-22361">
=======
	<node id="-376537" lat="61.5943833336" lon="10.0492194496">
>>>>>>> e1d4bc35ff8a6074a6f2e91616a996b547c36f15
		<tag k="amenity" v="community_centre" />
		<tag k="name" v="Venaheim" />
		<tag k="ssr:stedsnr" v="477970" />
	</node>
<<<<<<< HEAD
	<node lat="61.47240277364751" lon="10.220613894912415" id="-22546">
		<tag k="amenity" v="community_centre" />
		<tag k="name" v="Fjelltun" />
		<tag k="ssr:stedsnr" v="645997" />
	</node>
	<node lat="61.508794441853084" lon="10.170027776950768" id="-22555">
		<tag k="amenity" v="community_centre" />
		<tag k="name" v="Gildersvollen" />
		<tag k="ssr:stedsnr" v="706983" />
	</node>
	<node lat="61.64702222217084" lon="10.098555551007596" id="-23287">
=======
	<node id="-377559" lat="61.6470222222" lon="10.098555551">
>>>>>>> e1d4bc35ff8a6074a6f2e91616a996b547c36f15
		<tag k="amenity" v="place_of_worship" />
		<tag k="denomination" v="lutheran" />
		<tag k="name" v="Venabygd fjellkapell" />
		<tag k="religion" v="christian" />
		<tag k="ssr:stedsnr" v="362398" />
	</node>
<<<<<<< HEAD
	<node lat="61.569616666090596" lon="10.608430548920799" id="-23372">
		<tag k="loc_name" v="Konowsteinen" />
		<tag k="name" v="Konnovsteinen" />
		<tag k="place" v="locality" />
		<tag k="ssr:stedsnr" v="418869" />
	</node>
	<node lat="61.420908335362874" lon="10.392838891580476" id="-23573">
=======
	<node id="-376662" lat="61.4209083354" lon="10.3928388916">
		<tag k="amenity" v="place_of_worship" />
		<tag k="denomination" v="lutheran" />
		<tag k="name" v="Fåvangfjellet sportskapell" />
		<tag k="religion" v="christian" />
		<tag k="ssr:stedsnr" v="666384" />
	</node>
	<node id="-376371" lat="61.5093416644" lon="10.1730194381">
		<tag k="alt_name" v="Ringebu" />
>>>>>>> e1d4bc35ff8a6074a6f2e91616a996b547c36f15
		<tag k="amenity" v="place_of_worship" />
		<tag k="denomination" v="lutheran" />
		<tag k="name" v="Fåvangfjellet sportskapell" />
		<tag k="religion" v="christian" />
		<tag k="ssr:stedsnr" v="666384" />
	</node>
<<<<<<< HEAD
	<node lat="61.59276110954847" lon="10.052522212942991" id="-23594">
=======
	<node id="-376812" lat="61.5087944419" lon="10.170027777">
		<tag k="amenity" v="community_centre" />
		<tag k="name" v="Gildersvollen" />
		<tag k="ssr:stedsnr" v="706983" />
	</node>
	<node id="-376329" lat="61.4009333364" lon="10.2973638959">
		<tag k="name" v="Bommen" />
		<tag k="place" v="locality" />
		<tag k="ssr:stedsnr" v="100407" />
	</node>
	<node id="-377900" lat="61.5927611095" lon="10.0525222129">
>>>>>>> e1d4bc35ff8a6074a6f2e91616a996b547c36f15
		<tag k="amenity" v="place_of_worship" />
		<tag k="denomination" v="lutheran" />
		<tag k="name" v="Venabygd kyrkje" />
		<tag k="religion" v="christian" />
		<tag k="ssr:stedsnr" v="738779" />
	</node>
<<<<<<< HEAD
=======
	<node id="-377878" lat="61.4724027736" lon="10.2206138949">
		<tag k="amenity" v="community_centre" />
		<tag k="name" v="Fjelltun" />
		<tag k="ssr:stedsnr" v="645997" />
	</node>
	<node id="-377633" lat="61.5696166661" lon="10.6084305489">
		<tag k="loc_name" v="Konowsteinen" />
		<tag k="name" v="Konnovsteinen" />
		<tag k="place" v="locality" />
		<tag k="ssr:stedsnr" v="418869" />
	</node>
>>>>>>> e1d4bc35ff8a6074a6f2e91616a996b547c36f15
</osm>
