<?xml version="1.0" encoding="UTF-8"?>
<<<<<<< HEAD
<osm version="0.6" generator="osmapis">
	<node lat="61.60871666986537" lon="10.058933340180559" id="-21928">
		<tag k="highway" v="path" />
		<tag k="name" v="Hågåvegen" />
		<tag k="ssr:stedsnr" v="39615" />
	</node>
	<node lat="61.65718610711304" lon="10.600952785179457" id="-21938">
		<tag k="highway" v="path" />
		<tag k="name" v="Børtneveien" />
		<tag k="ssr:stedsnr" v="40824" />
	</node>
	<node lat="61.60023055243252" lon="10.042688888485216" id="-21942">
		<tag k="highway" v="path" />
		<tag k="name" v="Hågåvegen" />
		<tag k="ssr:stedsnr" v="52918" />
	</node>
	<node lat="61.527749999677795" lon="10.18910555496595" id="-21954">
		<tag k="highway" v="path" />
		<tag k="name" v="Prestvegen" />
		<tag k="ssr:stedsnr" v="240919" />
	</node>
	<node lat="61.619838885076355" lon="10.033983336255485" id="-21985">
		<tag k="highway" v="path" />
		<tag k="name" v="Svenstadvegen" />
		<tag k="ssr:stedsnr" v="99867" />
	</node>
	<node lat="61.494455557772255" lon="10.188605555885466" id="-21988">
		<tag k="fixme" v="consider highway=path" />
		<tag k="highway" v="track" />
		<tag k="name" v="Vammen" />
		<tag k="ssr:stedsnr" v="99983" />
	</node>
	<node lat="61.384686106844896" lon="10.26384722965485" id="-22007">
		<tag k="bridge" v="yes" />
		<tag k="layer" v="1" />
		<tag k="name" v="Stulsåa" />
		<tag k="ssr:stedsnr" v="107046" />
	</node>
	<node lat="61.4323638865088" lon="10.078272231031075" id="-22083">
		<tag k="fixme" v="consider highway=path" />
		<tag k="highway" v="track" />
		<tag k="name" v="Dørdalsråket" />
		<tag k="ssr:stedsnr" v="149060" />
	</node>
	<node lat="61.51856944326187" lon="10.141544445024788" id="-22084">
		<tag k="bridge" v="yes" />
		<tag k="layer" v="1" />
		<tag k="name" v="Randklev" />
		<tag k="ssr:stedsnr" v="168057" />
	</node>
	<node lat="61.518927778201565" lon="10.137983338854578" id="-22085">
		<tag k="bridge" v="yes" />
		<tag k="layer" v="1" />
		<tag k="name" v="Storbekken" />
		<tag k="ssr:stedsnr" v="168058" />
	</node>
	<node lat="61.472105559893826" lon="10.16132499715434" id="-22086">
		<tag k="bridge" v="yes" />
		<tag k="layer" v="1" />
		<tag k="name" v="Mæhlum" />
		<tag k="ssr:stedsnr" v="168061" />
	</node>
	<node lat="61.451902781108934" lon="10.1871444502513" id="-22087">
		<tag k="bridge" v="yes" />
		<tag k="layer" v="1" />
		<tag k="name" v="Nesset" />
		<tag k="ssr:stedsnr" v="168062" />
	</node>
	<node lat="61.61264166439697" lon="10.150916675230098" id="-22117">
		<tag k="highway" v="path" />
		<tag k="name" v="Freskeliråket" />
		<tag k="ssr:stedsnr" v="221373" />
	</node>
	<node lat="61.556263888131085" lon="10.133291673121292" id="-22121">
		<tag k="highway" v="path" />
		<tag k="name" v="Volevegen" />
		<tag k="ssr:stedsnr" v="221395" />
	</node>
	<node lat="61.499955552557594" lon="10.076011106937639" id="-22127">
		<tag k="highway" v="path" />
		<tag k="name" v="Randklevsvegen" />
		<tag k="ssr:stedsnr" v="221671" />
	</node>
	<node lat="61.501841667677645" lon="10.20231943980691" id="-22128">
		<tag k="highway" v="path" />
		<tag k="name" v="Kausvegen" />
		<tag k="ssr:stedsnr" v="221875" />
	</node>
	<node lat="61.572311111949304" lon="10.087569439766854" id="-22183">
		<tag k="highway" v="path" />
		<tag k="name" v="Haugstadlivegen" />
		<tag k="ssr:stedsnr" v="300676" />
	</node>
	<node lat="61.483711113106345" lon="10.596655559751152" id="-22202">
		<tag k="man_made" v="cairn" />
		<tag k="name" v="Storvarden" />
		<tag k="place" v="locality" />
		<tag k="ssr:stedsnr" v="464211" />
	</node>
	<node lat="61.712963886556885" lon="10.166122213694592" id="-22233">
		<tag k="bridge" v="yes" />
		<tag k="layer" v="1" />
		<tag k="name" v="Mya" />
		<tag k="ssr:stedsnr" v="471040" />
	</node>
	<node lat="61.501455552180545" lon="10.186400005761591" id="-22234">
		<tag k="bridge" v="yes" />
		<tag k="layer" v="1" />
		<tag k="name" v="Brandstad" />
		<tag k="ssr:stedsnr" v="471050" />
	</node>
	<node lat="61.450775000640554" lon="10.184988883562099" id="-22235">
		<tag k="bridge" v="yes" />
		<tag k="layer" v="1" />
		<tag k="name" v="Fåvang" />
		<tag k="ssr:stedsnr" v="471054" />
	</node>
	<node lat="61.501344445843465" lon="10.170080548619495" id="-22236">
		<tag k="bridge" v="yes" />
		<tag k="layer" v="1" />
		<tag k="name" v="Elstadstue" />
		<tag k="ssr:stedsnr" v="471056" />
	</node>
	<node lat="61.46342500390403" lon="10.581544445737094" id="-22247">
		<tag k="highway" v="path" />
		<tag k="name" v="Torsgardsvavegen" />
		<tag k="ssr:stedsnr" v="344219" />
	</node>
	<node lat="61.482836114490134" lon="10.154236102438675" id="-22248">
		<tag k="bridge" v="yes" />
		<tag k="layer" v="1" />
		<tag k="name" v="Kloa" />
		<tag k="ssr:stedsnr" v="349072" />
	</node>
	<node lat="61.61321944440132" lon="10.002941672842015" id="-22290">
		<tag k="bridge" v="yes" />
		<tag k="layer" v="1" />
		<tag k="name" v="Kvernbekken" />
		<tag k="ssr:stedsnr" v="410040" />
	</node>
	<node lat="61.61780555764442" lon="10.049258332736489" id="-22295">
		<tag k="highway" v="path" />
		<tag k="name" v="Lundvegen" />
		<tag k="ssr:stedsnr" v="416905" />
	</node>
	<node lat="61.45491666545672" lon="10.57070833561681" id="-22318">
		<tag k="ford" v="yes" />
		<tag k="name" v="Torsgardsvadet" />
		<tag k="place" v="locality" />
		<tag k="ssr:stedsnr" v="494339" />
	</node>
	<node lat="61.44848055393954" lon="10.601488895776283" id="-22344">
		<tag k="ford" v="yes" />
		<tag k="name" v="Nybuvadet" />
		<tag k="place" v="locality" />
		<tag k="ssr:stedsnr" v="676347" />
	</node>
	<node lat="61.58385833212725" lon="10.147452778655516" id="-22409">
		<tag k="highway" v="path" />
		<tag k="name" v="Gluggdalsråket" />
		<tag k="ssr:stedsnr" v="524002" />
	</node>
	<node lat="61.55545000288854" lon="10.334588888637223" id="-22415">
		<tag k="highway" v="path" />
		<tag k="name" v="Åstdalsvegen" />
		<tag k="ssr:stedsnr" v="524703" />
	</node>
	<node lat="61.6001083353704" lon="10.067302776738128" id="-22455">
		<tag k="junction" v="yes" />
		<tag k="name" v="Djupdokka" />
		<tag k="place" v="locality" />
		<tag k="ssr:stedsnr" v="572997" />
	</node>
	<node lat="61.55678055717259" lon="10.302427776387743" id="-22482">
		<tag k="bridge" v="yes" />
		<tag k="layer" v="1" />
		<tag k="name" v="Øksendalseter" />
		<tag k="ssr:stedsnr" v="592009" />
	</node>
	<node lat="61.450191662900224" lon="10.584313885104143" id="-22492">
		<tag k="alt_name" v="Ståkkåvegen" />
		<tag k="highway" v="path" />
		<tag k="name" v="Ståkåvegen" />
		<tag k="ssr:stedsnr" v="615318" />
	</node>
	<node lat="61.59229166245154" lon="10.227511104601998" id="-22509">
		<tag k="highway" v="path" />
		<tag k="name" v="Prestvegen" />
		<tag k="ssr:stedsnr" v="706059" />
	</node>
	<node lat="61.443622219639266" lon="10.451591664419642" id="-22535">
		<tag k="fixme" v="consider highway=path" />
		<tag k="highway" v="track" />
		<tag k="name" v="Langhaugråket" />
		<tag k="ssr:stedsnr" v="645576" />
	</node>
	<node lat="61.49206666901977" lon="10.18359722768824" id="-22543">
		<tag k="fixme" v="consider highway=path" />
		<tag k="highway" v="track" />
		<tag k="name" v="Gamle kongevegen" />
		<tag k="ssr:stedsnr" v="645898" />
	</node>
	<node lat="61.681972224497216" lon="10.613944435687342" id="-22550">
		<tag k="highway" v="path" />
		<tag k="name" v="Kløppen" />
		<tag k="ssr:stedsnr" v="706794" />
	</node>
	<node lat="61.45525277408173" lon="10.551094435014555" id="-22551">
		<tag k="man_made" v="cairn" />
		<tag k="name" v="Djupdamvarden" />
		<tag k="place" v="locality" />
		<tag k="ssr:stedsnr" v="647232" />
	</node>
	<node lat="61.651936106976436" lon="9.98301944938012" id="-22558">
		<tag k="bridge" v="yes" />
		<tag k="layer" v="1" />
		<tag k="name" v="Ådalsbekken" />
		<tag k="ssr:stedsnr" v="653009" />
	</node>
	<node lat="61.424786115380755" lon="10.230719450781999" id="-22562">
		<tag k="junction" v="yes" />
		<tag k="name" v="Tujordsvingen" />
		<tag k="old_name" v="Thujordsvingen" />
		<tag k="place" v="locality" />
		<tag k="ssr:stedsnr" v="664808" />
	</node>
	<node lat="61.43912222093944" lon="10.396905553892038" id="-22568">
		<tag k="bridge" v="yes" />
		<tag k="layer" v="1" />
		<tag k="name" v="Øfstegardsbrua" />
		<tag k="ssr:stedsnr" v="890648" />
	</node>
	<node lat="61.629241665680865" lon="9.987536118314821" id="-22588">
		<tag k="bridge" v="yes" />
		<tag k="layer" v="1" />
		<tag k="name" v="Myrelven" />
		<tag k="ssr:stedsnr" v="896035" />
	</node>
	<node lat="61.677344443678" lon="10.151647229614214" id="-22597">
		<tag k="highway" v="path" />
		<tag k="name" v="Steingardsråket" />
		<tag k="ssr:stedsnr" v="706440" />
	</node>
	<node lat="61.45643611305195" lon="10.193266669844459" id="-22619">
		<tag k="bridge" v="yes" />
		<tag k="layer" v="1" />
		<tag k="name" v="Tromsa" />
		<tag k="ssr:stedsnr" v="714009" />
	</node>
	<node lat="61.54543888811036" lon="10.06277499344868" id="-22655">
		<tag k="aeroway" v="airstrip" />
		<tag k="alt_name" v="Frya flyplass" />
		<tag k="name" v="Ringebu flyplass, Frya" />
		<tag k="ssr:stedsnr" v="767600" />
	</node>
	<node lat="61.60221944032183" lon="10.04965278300101" id="-22753">
		<tag k="highway" v="path" />
		<tag k="name" v="Bakkomsråket" />
		<tag k="ssr:stedsnr" v="841915" />
	</node>
	<node lat="61.3992777784174" lon="10.18613054952777" id="-22787">
		<tag k="alt_name" v="Kveinndalsvegen" />
		<tag k="fixme" v="consider highway=path" />
		<tag k="highway" v="track" />
		<tag k="name" v="Kvanndalsvegen" />
		<tag k="ssr:stedsnr" v="888759" />
	</node>
	<node lat="61.506166664013776" lon="10.221630562513793" id="-22794">
		<tag k="highway" v="path" />
		<tag k="name" v="Hjelsætervegen" />
		<tag k="ssr:stedsnr" v="888896" />
	</node>
	<node lat="61.42291944611994" lon="10.223027772869695" id="-22803">
=======
<osm generator="osmapis" version="0.6">
	<node id="-376825" lat="61.5567805572" lon="10.3024277764">
>>>>>>> e1d4bc35ff8a6074a6f2e91616a996b547c36f15
		<tag k="bridge" v="yes" />
		<tag k="layer" v="1" />
		<tag k="name" v="Trosvik" />
		<tag k="ssr:stedsnr" v="896005" />
	</node>
<<<<<<< HEAD
	<node lat="61.503719448110104" lon="10.048927786170477" id="-22804">
=======
	<node id="-376824" lat="61.5936388869" lon="10.2258138908">
>>>>>>> e1d4bc35ff8a6074a6f2e91616a996b547c36f15
		<tag k="highway" v="path" />
		<tag k="name" v="Onshusvegen" />
		<tag k="ssr:stedsnr" v="902363" />
	</node>
<<<<<<< HEAD
	<node lat="61.42471111105257" lon="10.511116663317026" id="-22853">
		<tag k="junction" v="yes" />
		<tag k="name" v="Teigsvingen" />
		<tag k="place" v="locality" />
		<tag k="ssr:stedsnr" v="949904" />
	</node>
	<node lat="61.47213587565851" lon="10.165822172846827" id="-22863">
		<tag k="name" v="Kvitfjell holdeplass" />
		<tag k="railway" v="halt" />
		<tag k="ssr:stedsnr" v="989637" />
		<tag k="train" v="yes" />
	</node>
	<node lat="61.529244448939366" lon="10.139338884572451" id="-22892">
		<tag k="name" v="Ringebu stasjon" />
		<tag k="railway" v="station" />
		<tag k="ssr:stedsnr" v="10863" />
		<tag k="train" v="yes" />
	</node>
	<node lat="61.47881388675345" lon="10.588269445859861" id="-22907">
=======
	<node id="-377326" lat="61.381794448" lon="10.2252138832">
		<tag k="bridge" v="yes" />
		<tag k="layer" v="1" />
		<tag k="name" v="Bergdøla" />
		<tag k="ssr:stedsnr" v="107048" />
	</node>
	<node id="-377325" lat="61.3846861068" lon="10.2638472297">
		<tag k="bridge" v="yes" />
		<tag k="layer" v="1" />
		<tag k="name" v="Stulsåa" />
		<tag k="ssr:stedsnr" v="107046" />
	</node>
	<node id="-376914" lat="61.3992777784" lon="10.1861305495">
		<tag k="alt_name" v="Kveinndalsvegen" />
		<tag k="fixme" v="consider highway=path" />
		<tag k="highway" v="track" />
		<tag k="name" v="Kvanndalsvegen" />
		<tag k="ssr:stedsnr" v="888759" />
	</node>
	<node id="-377317" lat="61.498866663" lon="10.3771277846">
		<tag k="fixme" v="consider highway=path" />
		<tag k="highway" v="track" />
		<tag k="name" v="Øyomsvegen" />
		<tag k="ssr:stedsnr" v="100882" />
	</node>
	<node id="-376801" lat="61.6819722245" lon="10.6139444357">
>>>>>>> e1d4bc35ff8a6074a6f2e91616a996b547c36f15
		<tag k="highway" v="path" />
		<tag k="name" v="Samtjønnvegen" />
		<tag k="ssr:stedsnr" v="39154" />
	</node>
<<<<<<< HEAD
	<node lat="61.71818055703839" lon="10.039166674668392" id="-22916">
=======
	<node id="-377311" lat="61.4723333371" lon="10.4077416646">
>>>>>>> e1d4bc35ff8a6074a6f2e91616a996b547c36f15
		<tag k="highway" v="path" />
		<tag k="name" v="Svaburåket" />
		<tag k="ssr:stedsnr" v="39737" />
	</node>
<<<<<<< HEAD
	<node lat="61.506997222177645" lon="10.443697212918705" id="-22919">
		<tag k="highway" v="path" />
		<tag k="name" v="Midtkveråket" />
		<tag k="ssr:stedsnr" v="39898" />
	</node>
	<node lat="61.64670833199921" lon="10.092902769762294" id="-22926">
		<tag k="bridge" v="yes" />
		<tag k="layer" v="1" />
		<tag k="name" v="Friska" />
		<tag k="ssr:stedsnr" v="46050" />
	</node>
	<node lat="61.61515555613454" lon="10.021741666405916" id="-22931">
=======
	<node id="-377815" lat="61.4501916629" lon="10.5843138851">
		<tag k="alt_name" v="Ståkkåvegen" />
>>>>>>> e1d4bc35ff8a6074a6f2e91616a996b547c36f15
		<tag k="highway" v="path" />
		<tag k="name" v="Bøvegen" />
		<tag k="ssr:stedsnr" v="52930" />
	</node>
<<<<<<< HEAD
	<node lat="61.47233333710196" lon="10.407741664591125" id="-22987">
		<tag k="highway" v="path" />
		<tag k="name" v="Urskarsråket" />
		<tag k="ssr:stedsnr" v="100580" />
	</node>
	<node lat="61.49886666299385" lon="10.377127784603308" id="-22990">
=======
	<node id="-377300" lat="61.4944555578" lon="10.1886055559">
>>>>>>> e1d4bc35ff8a6074a6f2e91616a996b547c36f15
		<tag k="fixme" v="consider highway=path" />
		<tag k="highway" v="track" />
		<tag k="name" v="Øyomsvegen" />
		<tag k="ssr:stedsnr" v="100882" />
	</node>
	<node lat="61.53975555944778" lon="10.33510556419261" id="-22997">
		<tag k="highway" v="path" />
		<tag k="name" v="Breistulråket" />
		<tag k="ssr:stedsnr" v="100653" />
	</node>
	<node lat="61.38179444804878" lon="10.22521388318599" id="-22999">
		<tag k="bridge" v="yes" />
		<tag k="layer" v="1" />
		<tag k="name" v="Bergdøla" />
		<tag k="ssr:stedsnr" v="107048" />
	</node>
<<<<<<< HEAD
	<node lat="61.4189000034379" lon="10.45579444876433" id="-23059">
		<tag k="junction" v="yes" />
		<tag k="name" v="Åmotkrysset" />
		<tag k="place" v="locality" />
		<tag k="ssr:stedsnr" v="160510" />
	</node>
	<node lat="61.6086999970855" lon="10.161013895198131" id="-23063">
=======
	<node id="-376786" lat="61.6773444437" lon="10.1516472296">
		<tag k="highway" v="path" />
		<tag k="name" v="Steingardsråket" />
		<tag k="ssr:stedsnr" v="706440" />
	</node>
	<node id="-376774" lat="61.5922916625" lon="10.2275111046">
>>>>>>> e1d4bc35ff8a6074a6f2e91616a996b547c36f15
		<tag k="highway" v="path" />
		<tag k="name" v="Ådalsvegen" />
		<tag k="ssr:stedsnr" v="160352" />
	</node>
<<<<<<< HEAD
	<node lat="61.54339721797443" lon="10.33767221810152" id="-23067">
=======
	<node id="-376258" lat="61.6002305524" lon="10.0426888885">
>>>>>>> e1d4bc35ff8a6074a6f2e91616a996b547c36f15
		<tag k="highway" v="path" />
		<tag k="name" v="Bakliråket" />
		<tag k="ssr:stedsnr" v="160643" />
	</node>
<<<<<<< HEAD
	<node lat="61.49379722065262" lon="10.51510000576662" id="-23080">
		<tag k="highway" v="path" />
		<tag k="name" v="Vintervegen" />
		<tag k="ssr:stedsnr" v="160951" />
	</node>
	<node lat="61.584261107021305" lon="10.591380546310928" id="-23131">
=======
	<node id="-376253" lat="61.6571861071" lon="10.6009527852">
		<tag k="highway" v="path" />
		<tag k="name" v="Børtneveien" />
		<tag k="ssr:stedsnr" v="40824" />
	</node>
	<node id="-376898" lat="61.4794138929" lon="10.4032416709">
		<tag k="highway" v="path" />
		<tag k="name" v="Samdalsråket" />
		<tag k="ssr:stedsnr" v="888565" />
	</node>
	<node id="-376755" lat="61.4490416693" lon="10.1853055562">
		<tag k="alt_name" v="Fåvang" />
		<tag k="name" v="Fåvang stasjon" />
		<tag k="railway" v="station" />
		<tag k="ssr:stedsnr" v="554615" />
		<tag k="train" v="yes" />
	</node>
	<node id="-376240" lat="61.6087166699" lon="10.0589333402">
>>>>>>> e1d4bc35ff8a6074a6f2e91616a996b547c36f15
		<tag k="highway" v="path" />
		<tag k="name" v="Beinstigen" />
		<tag k="ssr:stedsnr" v="206487" />
	</node>
<<<<<<< HEAD
	<node lat="61.619697222932615" lon="10.250033342593238" id="-23146">
		<tag k="man_made" v="cairn" />
		<tag k="name" v="Vatningsvarden" />
		<tag k="place" v="locality" />
		<tag k="ssr:stedsnr" v="221519" />
	</node>
	<node lat="61.459869447461955" lon="10.458424992443" id="-23154">
=======
	<node id="-377774" lat="61.4421750036" lon="10.4950499938">
		<tag k="highway" v="path" />
		<tag k="name" v="Vintervegen" />
		<tag k="ssr:stedsnr" v="584949" />
	</node>
	<node id="-376236" lat="61.4788138868" lon="10.5882694459">
>>>>>>> e1d4bc35ff8a6074a6f2e91616a996b547c36f15
		<tag k="highway" v="path" />
		<tag k="name" v="Stenhusråket" />
		<tag k="ssr:stedsnr" v="221564" />
	</node>
<<<<<<< HEAD
	<node lat="61.44702499927052" lon="10.185569441579812" id="-23170">
=======
	<node id="-376746" lat="61.4530583314" lon="10.1849555468">
>>>>>>> e1d4bc35ff8a6074a6f2e91616a996b547c36f15
		<tag k="bridge" v="yes" />
		<tag k="layer" v="1" />
		<tag k="name" v="Myrbakken" />
		<tag k="ssr:stedsnr" v="228053" />
	</node>
<<<<<<< HEAD
	<node lat="61.384847225897296" lon="10.263316665274877" id="-23192">
		<tag k="bridge" v="yes" />
		<tag k="layer" v="1" />
		<tag k="name" v="Krekke" />
		<tag k="ssr:stedsnr" v="289043" />
	</node>
	<node lat="61.69242499659959" lon="10.584455563399294" id="-23193">
		<tag k="bridge" v="yes" />
		<tag k="layer" v="1" />
		<tag k="name" v="Helakkbekken" />
		<tag k="ssr:stedsnr" v="289047" />
	</node>
	<node lat="61.70776666679604" lon="10.624802783412195" id="-23194">
=======
	<node id="-376745" lat="61.5293444444" lon="10.1437944485">
		<tag k="bridge" v="yes" />
		<tag k="layer" v="1" />
		<tag k="name" v="Våla" />
		<tag k="ssr:stedsnr" v="532007" />
	</node>
	<node id="-377753" lat="61.6001083354" lon="10.0673027767">
		<tag k="junction" v="yes" />
		<tag k="name" v="Djupdokka" />
		<tag k="place" v="locality" />
		<tag k="ssr:stedsnr" v="572997" />
	</node>
	<node id="-377232" lat="61.6151555561" lon="10.0217416664">
		<tag k="highway" v="path" />
		<tag k="name" v="Bøvegen" />
		<tag k="ssr:stedsnr" v="52930" />
	</node>
	<node id="-377227" lat="61.646708332" lon="10.0929027698">
>>>>>>> e1d4bc35ff8a6074a6f2e91616a996b547c36f15
		<tag k="bridge" v="yes" />
		<tag k="layer" v="1" />
		<tag k="name" v="Hira" />
		<tag k="ssr:stedsnr" v="289049" />
	</node>
<<<<<<< HEAD
	<node lat="61.61009166929261" lon="10.038986118313343" id="-23195">
=======
	<node id="-377222" lat="61.5069972222" lon="10.4436972129">
>>>>>>> e1d4bc35ff8a6074a6f2e91616a996b547c36f15
		<tag k="highway" v="path" />
		<tag k="name" v="Rastaddokkvegen" />
		<tag k="ssr:stedsnr" v="294932" />
	</node>
<<<<<<< HEAD
	<node lat="61.49735000009204" lon="10.53065554750361" id="-23212">
		<tag k="alt_name" v="Tjernevegen" />
		<tag k="fixme" v="multiple name tags, choose one and add the other to alt_name" />
=======
	<node id="-377219" lat="61.718180557" lon="10.0391666747">
>>>>>>> e1d4bc35ff8a6074a6f2e91616a996b547c36f15
		<tag k="highway" v="path" />
		<tag k="name" v="Dølvegen;Kjernevegen" />
		<tag k="ssr:stedsnr" v="312787" />
	</node>
<<<<<<< HEAD
	<node lat="61.455919443073505" lon="10.471361108379414" id="-23259">
		<tag k="highway" v="path" />
		<tag k="name" v="Springarbakken" />
		<tag k="ssr:stedsnr" v="342533" />
	</node>
	<node lat="61.49240277578708" lon="10.574394442127776" id="-23266">
		<tag k="highway" v="path" />
		<tag k="name" v="Østerdalsvegen" />
		<tag k="ssr:stedsnr" v="342924" />
	</node>
	<node lat="61.39260068946615" lon="10.236691592637232" id="-23274">
=======
	<node id="-376190" lat="61.5018416677" lon="10.2023194398">
		<tag k="highway" v="path" />
		<tag k="name" v="Kausvegen" />
		<tag k="ssr:stedsnr" v="221875" />
	</node>
	<node id="-376701" lat="61.4484805539" lon="10.6014888958">
		<tag k="ford" v="yes" />
		<tag k="name" v="Nybuvadet" />
		<tag k="place" v="locality" />
		<tag k="ssr:stedsnr" v="676347" />
	</node>
	<node id="-376179" lat="61.4999555526" lon="10.0760111069">
		<tag k="highway" v="path" />
		<tag k="name" v="Randklevsvegen" />
		<tag k="ssr:stedsnr" v="221671" />
	</node>
	<node id="-377200" lat="61.5292444489" lon="10.1393388846">
		<tag k="name" v="Ringebu stasjon" />
		<tag k="railway" v="station" />
		<tag k="ssr:stedsnr" v="10863" />
		<tag k="train" v="yes" />
	</node>
	<node id="-376687" lat="61.7129638866" lon="10.1661222137">
>>>>>>> e1d4bc35ff8a6074a6f2e91616a996b547c36f15
		<tag k="bridge" v="yes" />
		<tag k="layer" v="1" />
		<tag k="name" v="Borgeneset" />
		<tag k="ssr:stedsnr" v="350051" />
	</node>
<<<<<<< HEAD
	<node lat="61.59641388854195" lon="10.060461115729574" id="-23356">
=======
	<node id="-376173" lat="61.4598694475" lon="10.4584249924">
>>>>>>> e1d4bc35ff8a6074a6f2e91616a996b547c36f15
		<tag k="highway" v="path" />
		<tag k="name" v="Lågvegen" />
		<tag k="ssr:stedsnr" v="403651" />
	</node>
<<<<<<< HEAD
	<node lat="61.58480555324273" lon="10.072758342157186" id="-23357">
		<tag k="highway" v="path" />
		<tag k="name" v="Høgåsråket" />
		<tag k="ssr:stedsnr" v="403653" />
	</node>
	<node lat="61.54204166689899" lon="10.300891664551278" id="-23361">
		<tag k="highway" v="path" />
		<tag k="name" v="Geitråket" />
		<tag k="ssr:stedsnr" v="403661" />
	</node>
	<node lat="61.58685555304999" lon="10.223266671102222" id="-23418">
		<tag k="highway" v="path" />
		<tag k="name" v="Bakkeråket" />
		<tag k="ssr:stedsnr" v="524055" />
	</node>
	<node lat="61.446269444343415" lon="10.24028611521722" id="-23421">
=======
	<node id="-377708" lat="61.6885027789" lon="10.1345444402">
		<tag k="bridge" v="yes" />
		<tag k="layer" v="1" />
		<tag k="name" v="Bølbekken" />
		<tag k="ssr:stedsnr" v="532049" />
	</node>
	<node id="-376170" lat="61.6196972229" lon="10.2500333426">
		<tag k="man_made" v="cairn" />
		<tag k="name" v="Vatningsvarden" />
		<tag k="place" v="locality" />
		<tag k="ssr:stedsnr" v="221519" />
	</node>
	<node id="-376680" lat="61.4837111131" lon="10.5966555598">
>>>>>>> e1d4bc35ff8a6074a6f2e91616a996b547c36f15
		<tag k="man_made" v="cairn" />
		<tag k="name" v="Hemrumsvarden" />
		<tag k="place" v="locality" />
<<<<<<< HEAD
		<tag k="ssr:stedsnr" v="524230" />
	</node>
	<node lat="61.68850277893453" lon="10.134544440180784" id="-23446">
		<tag k="bridge" v="yes" />
		<tag k="layer" v="1" />
		<tag k="name" v="Bølbekken" />
		<tag k="ssr:stedsnr" v="532049" />
	</node>
	<node lat="61.52934444438217" lon="10.143794448503705" id="-23447">
		<tag k="bridge" v="yes" />
		<tag k="layer" v="1" />
		<tag k="name" v="Våla" />
		<tag k="ssr:stedsnr" v="532007" />
	</node>
	<node lat="61.45305833136703" lon="10.184955546849693" id="-23448">
		<tag k="bridge" v="yes" />
		<tag k="layer" v="1" />
		<tag k="name" v="Tromsa" />
		<tag k="ssr:stedsnr" v="532009" />
	</node>
	<node lat="61.44904166934939" lon="10.185305556174644" id="-23456">
		<tag k="alt_name" v="Fåvang" />
		<tag k="name" v="Fåvang stasjon" />
		<tag k="railway" v="station" />
		<tag k="ssr:stedsnr" v="554615" />
		<tag k="train" v="yes" />
	</node>
	<node lat="61.44217500360819" lon="10.495049993849394" id="-23493">
		<tag k="highway" v="path" />
		<tag k="name" v="Vintervegen" />
		<tag k="ssr:stedsnr" v="584949" />
	</node>
	<node lat="61.59363888689913" lon="10.22581389077148" id="-23500">
=======
		<tag k="ssr:stedsnr" v="464211" />
	</node>
	<node id="-376164" lat="61.6126416644" lon="10.1509166752">
		<tag k="highway" v="path" />
		<tag k="name" v="Freskeliråket" />
		<tag k="ssr:stedsnr" v="221373" />
	</node>
	<node id="-377697" lat="61.5554500029" lon="10.3345888886">
		<tag k="highway" v="path" />
		<tag k="name" v="Åstdalsvegen" />
		<tag k="ssr:stedsnr" v="524703" />
	</node>
	<node id="-376378" lat="61.4323638865" lon="10.078272231">
		<tag k="fixme" v="consider highway=path" />
		<tag k="highway" v="track" />
		<tag k="name" v="Dørdalsråket" />
		<tag k="ssr:stedsnr" v="149060" />
	</node>
	<node id="-376657" lat="61.4247861154" lon="10.2307194508">
		<tag k="junction" v="yes" />
		<tag k="name" v="Tujordsvingen" />
		<tag k="old_name" v="Thujordsvingen" />
		<tag k="place" v="locality" />
		<tag k="ssr:stedsnr" v="664808" />
	</node>
	<node id="-377677" lat="61.4462694443" lon="10.2402861152">
		<tag k="man_made" v="cairn" />
		<tag k="name" v="Hemrumsvarden" />
		<tag k="place" v="locality" />
		<tag k="ssr:stedsnr" v="524230" />
	</node>
	<node id="-377673" lat="61.586855553" lon="10.2232666711">
>>>>>>> e1d4bc35ff8a6074a6f2e91616a996b547c36f15
		<tag k="highway" v="path" />
		<tag k="name" v="Turrtjønnråket" />
		<tag k="ssr:stedsnr" v="585083" />
	</node>
<<<<<<< HEAD
	<node lat="61.63171111233515" lon="10.105230553445526" id="-23560">
=======
	<node id="-377669" lat="61.5838583321" lon="10.1474527787">
>>>>>>> e1d4bc35ff8a6074a6f2e91616a996b547c36f15
		<tag k="highway" v="path" />
		<tag k="name" v="Gamle Friskevegen" />
		<tag k="ssr:stedsnr" v="645827" />
	</node>
<<<<<<< HEAD
	<node lat="61.55132499924297" lon="10.055624995493716" id="-23565">
		<tag k="bridge" v="yes" />
		<tag k="layer" v="1" />
		<tag k="name" v="Frya" />
		<tag k="ssr:stedsnr" v="652616" />
	</node>
	<node lat="61.691608334770976" lon="10.313391672003743" id="-23604">
=======
	<node id="-377153" lat="61.4247111111" lon="10.5111166633">
		<tag k="junction" v="yes" />
		<tag k="name" v="Teigsvingen" />
		<tag k="place" v="locality" />
		<tag k="ssr:stedsnr" v="949904" />
	</node>
	<node id="-376626" lat="61.5420416669" lon="10.3008916646">
>>>>>>> e1d4bc35ff8a6074a6f2e91616a996b547c36f15
		<tag k="highway" v="path" />
		<tag k="name" v="Prestvegen" />
		<tag k="ssr:stedsnr" v="738980" />
	</node>
<<<<<<< HEAD
	<node lat="61.67249722533944" lon="10.44809722034994" id="-23639">
=======
	<node id="-376622" lat="61.5848055532" lon="10.0727583422">
>>>>>>> e1d4bc35ff8a6074a6f2e91616a996b547c36f15
		<tag k="highway" v="path" />
		<tag k="name" v="Brettingsdalsvegen" />
		<tag k="ssr:stedsnr" v="767826" />
	</node>
<<<<<<< HEAD
	<node lat="61.572991666440245" lon="10.618675009359887" id="-23643">
=======
	<node id="-378146" lat="61.61622611" lon="10.0330082162">
>>>>>>> e1d4bc35ff8a6074a6f2e91616a996b547c36f15
		<tag k="highway" v="path" />
		<tag k="name" v="Sætervegen" />
		<tag k="ssr:stedsnr" v="767752" />
	</node>
<<<<<<< HEAD
	<node lat="61.65195000100828" lon="10.633372221595785" id="-23651">
=======
	<node id="-377631" lat="61.6178055576" lon="10.0492583327">
>>>>>>> e1d4bc35ff8a6074a6f2e91616a996b547c36f15
		<tag k="highway" v="path" />
		<tag k="name" v="Gamle Kløvveien" />
		<tag k="ssr:stedsnr" v="769793" />
	</node>
<<<<<<< HEAD
	<node lat="61.431849996794114" lon="10.185002781396932" id="-23652">
=======
	<node id="-377629" lat="61.6132194444" lon="10.0029416728">
>>>>>>> e1d4bc35ff8a6074a6f2e91616a996b547c36f15
		<tag k="bridge" v="yes" />
		<tag k="layer" v="1" />
		<tag k="name" v="Linvik" />
		<tag k="ssr:stedsnr" v="774045" />
	</node>
	<node lat="61.42581110860374" lon="10.219019438017066" id="-23653">
		<tag k="bridge" v="yes" />
		<tag k="layer" v="1" />
		<tag k="name" v="Nera" />
		<tag k="ssr:stedsnr" v="774051" />
	</node>
<<<<<<< HEAD
	<node lat="61.48669722441232" lon="10.625833335321774" id="-23671">
=======
	<node id="-377115" lat="61.5037194481" lon="10.0489277862">
>>>>>>> e1d4bc35ff8a6074a6f2e91616a996b547c36f15
		<tag k="highway" v="path" />
		<tag k="name" v="Gålvegen" />
		<tag k="ssr:stedsnr" v="797831" />
	</node>
<<<<<<< HEAD
	<node lat="61.45589722291837" lon="10.523674996175643" id="-23722">
		<tag k="highway" v="path" />
		<tag k="name" v="Trolldalsvegen" />
		<tag k="ssr:stedsnr" v="828902" />
	</node>
	<node lat="61.53209444471598" lon="10.141952779302386" id="-23726">
		<tag k="bridge" v="yes" />
		<tag k="layer" v="1" />
		<tag k="name" v="Våla" />
		<tag k="ssr:stedsnr" v="835008" />
	</node>
	<node lat="61.48681388674891" lon="10.181161119679198" id="-23727">
		<tag k="bridge" v="yes" />
		<tag k="layer" v="1" />
		<tag k="name" v="Stensetmo" />
		<tag k="ssr:stedsnr" v="835044" />
	</node>
	<node lat="61.43320277691415" lon="10.48525833214389" id="-23759">
=======
	<node id="-378136" lat="61.4721358757" lon="10.1658221728">
		<tag k="name" v="Kvitfjell holdeplass" />
		<tag k="railway" v="halt" />
		<tag k="ssr:stedsnr" v="989637" />
		<tag k="train" v="yes" />
	</node>
	<node id="-377615" lat="61.5964138885" lon="10.0604611157">
		<tag k="highway" v="path" />
		<tag k="name" v="Lågvegen" />
		<tag k="ssr:stedsnr" v="403651" />
	</node>
	<node id="-377101" lat="61.4916583362" lon="10.6765027865">
>>>>>>> e1d4bc35ff8a6074a6f2e91616a996b547c36f15
		<tag k="highway" v="path" />
		<tag k="name" v="Midt-Goppollvegen" />
		<tag k="ssr:stedsnr" v="875767" />
	</node>
<<<<<<< HEAD
	<node lat="61.479413892907075" lon="10.403241670887185" id="-23764">
=======
	<node id="-378117" lat="61.6535333345" lon="10.0777333256">
>>>>>>> e1d4bc35ff8a6074a6f2e91616a996b547c36f15
		<tag k="highway" v="path" />
		<tag k="name" v="Samdalsråket" />
		<tag k="ssr:stedsnr" v="888565" />
	</node>
<<<<<<< HEAD
	<node lat="61.491658336199954" lon="10.676502786506033" id="-23828">
=======
	<node id="-378109" lat="61.3948499987" lon="9.9905972179">
>>>>>>> e1d4bc35ff8a6074a6f2e91616a996b547c36f15
		<tag k="highway" v="path" />
		<tag k="name" v="Gålråket" />
		<tag k="ssr:stedsnr" v="949973" />
	</node>
<<<<<<< HEAD
	<node lat="61.43659166941576" lon="10.183763883265755" id="-23829">
=======
	<node id="-378107" lat="61.4308416699" lon="10.2298888953">
>>>>>>> e1d4bc35ff8a6074a6f2e91616a996b547c36f15
		<tag k="bridge" v="yes" />
		<tag k="layer" v="1" />
		<tag k="name" v="Mo" />
		<tag k="ssr:stedsnr" v="957045" />
	</node>
<<<<<<< HEAD
	<node lat="61.428891670424974" lon="10.210752782965537" id="-23830">
=======
	<node id="-378106" lat="61.4288916704" lon="10.210752783">
>>>>>>> e1d4bc35ff8a6074a6f2e91616a996b547c36f15
		<tag k="bridge" v="yes" />
		<tag k="layer" v="1" />
		<tag k="name" v="Løsnes" />
		<tag k="ssr:stedsnr" v="957048" />
	</node>
<<<<<<< HEAD
	<node lat="61.430841669868876" lon="10.229888895255312" id="-23831">
=======
	<node id="-378105" lat="61.4365916694" lon="10.1837638833">
>>>>>>> e1d4bc35ff8a6074a6f2e91616a996b547c36f15
		<tag k="bridge" v="yes" />
		<tag k="layer" v="1" />
		<tag k="name" v="Opsal" />
		<tag k="ssr:stedsnr" v="957056" />
	</node>
<<<<<<< HEAD
	<node lat="61.394849998698454" lon="9.990597217902538" id="-23833">
=======
	<node id="-376563" lat="61.4549166655" lon="10.5707083356">
		<tag k="ford" v="yes" />
		<tag k="name" v="Torsgardsvadet" />
		<tag k="place" v="locality" />
		<tag k="ssr:stedsnr" v="494339" />
	</node>
	<node id="-377298" lat="61.6198388851" lon="10.0339833363">
		<tag k="highway" v="path" />
		<tag k="name" v="Svenstadvegen" />
		<tag k="ssr:stedsnr" v="99867" />
	</node>
	<node id="-376542" lat="61.4828361145" lon="10.1542361024">
		<tag k="bridge" v="yes" />
		<tag k="layer" v="1" />
		<tag k="name" v="Kloa" />
		<tag k="ssr:stedsnr" v="349072" />
	</node>
	<node id="-376541" lat="61.4634250039" lon="10.5815444457">
		<tag k="highway" v="path" />
		<tag k="name" v="Torsgardsvavegen" />
		<tag k="ssr:stedsnr" v="344219" />
	</node>
	<node id="-377049" lat="61.5320944447" lon="10.1419527793">
		<tag k="bridge" v="yes" />
		<tag k="layer" v="1" />
		<tag k="name" v="Våla" />
		<tag k="ssr:stedsnr" v="835008" />
	</node>
	<node id="-376525" lat="61.5013444458" lon="10.1700805486">
		<tag k="bridge" v="yes" />
		<tag k="layer" v="1" />
		<tag k="name" v="Elstadstue" />
		<tag k="ssr:stedsnr" v="471056" />
	</node>
	<node id="-376524" lat="61.4507750006" lon="10.1849888836">
		<tag k="bridge" v="yes" />
		<tag k="layer" v="1" />
		<tag k="name" v="Fåvang" />
		<tag k="ssr:stedsnr" v="471054" />
	</node>
	<node id="-376523" lat="61.5014555522" lon="10.1864000058">
		<tag k="bridge" v="yes" />
		<tag k="layer" v="1" />
		<tag k="name" v="Brandstad" />
		<tag k="ssr:stedsnr" v="471050" />
	</node>
	<node id="-377542" lat="61.4924027758" lon="10.5743944421">
		<tag k="highway" v="path" />
		<tag k="name" v="Østerdalsvegen" />
		<tag k="ssr:stedsnr" v="342924" />
	</node>
	<node id="-378051" lat="61.4558972229" lon="10.5236749962">
		<tag k="highway" v="path" />
		<tag k="name" v="Trolldalsvegen" />
		<tag k="ssr:stedsnr" v="828902" />
	</node>
	<node id="-378059" lat="61.4868138867" lon="10.1811611197">
		<tag k="bridge" v="yes" />
		<tag k="layer" v="1" />
		<tag k="name" v="Stensetmo" />
		<tag k="ssr:stedsnr" v="835044" />
	</node>
	<node id="-377523" lat="61.4559194431" lon="10.4713611084">
		<tag k="highway" v="path" />
		<tag k="name" v="Springarbakken" />
		<tag k="ssr:stedsnr" v="342533" />
	</node>
	<node id="-376473" lat="61.5277499997" lon="10.189105555">
		<tag k="highway" v="path" />
		<tag k="name" v="Prestvegen" />
		<tag k="ssr:stedsnr" v="240919" />
	</node>
	<node id="-376982" lat="61.5729916664" lon="10.6186750094">
		<tag k="highway" v="path" />
		<tag k="name" v="Sætervegen" />
		<tag k="ssr:stedsnr" v="767752" />
	</node>
	<node id="-376469" lat="61.4470249993" lon="10.1855694416">
		<tag k="bridge" v="yes" />
		<tag k="layer" v="1" />
		<tag k="name" v="Myrbakken" />
		<tag k="ssr:stedsnr" v="228053" />
	</node>
	<node id="-376460" lat="61.6100916693" lon="10.0389861183">
		<tag k="highway" v="path" />
		<tag k="name" v="Rastaddokkvegen" />
		<tag k="ssr:stedsnr" v="294932" />
	</node>
	<node id="-377480" lat="61.4973500001" lon="10.5306555475">
		<tag k="alt_name" v="Tjernevegen" />
		<tag k="fixme" v="multiple name tags, choose one and add the other to alt_name" />
		<tag k="highway" v="path" />
		<tag k="name" v="Dølvegen;Kjernevegen" />
		<tag k="ssr:stedsnr" v="312787" />
	</node>
	<node id="-376453" lat="61.7077666668" lon="10.6248027834">
		<tag k="bridge" v="yes" />
		<tag k="layer" v="1" />
		<tag k="name" v="Hira" />
		<tag k="ssr:stedsnr" v="289049" />
	</node>
	<node id="-376452" lat="61.6924249966" lon="10.5844555634">
		<tag k="bridge" v="yes" />
		<tag k="layer" v="1" />
		<tag k="name" v="Helakkbekken" />
		<tag k="ssr:stedsnr" v="289047" />
	</node>
	<node id="-376451" lat="61.3848472259" lon="10.2633166653">
		<tag k="bridge" v="yes" />
		<tag k="layer" v="1" />
		<tag k="name" v="Krekke" />
		<tag k="ssr:stedsnr" v="289043" />
	</node>
	<node id="-377974" lat="61.4866972244" lon="10.6258333353">
		<tag k="highway" v="path" />
		<tag k="name" v="Gålvegen" />
		<tag k="ssr:stedsnr" v="797831" />
	</node>
	<node id="-377460" lat="61.5723111119" lon="10.0875694398">
		<tag k="highway" v="path" />
		<tag k="name" v="Haugstadlivegen" />
		<tag k="ssr:stedsnr" v="300676" />
	</node>
	<node id="-376947" lat="61.6292416657" lon="9.98753611831">
		<tag k="bridge" v="yes" />
		<tag k="layer" v="1" />
		<tag k="name" v="Myrelven" />
		<tag k="ssr:stedsnr" v="896035" />
	</node>
	<node id="-376946" lat="61.4229194461" lon="10.2230277729">
		<tag k="bridge" v="yes" />
		<tag k="layer" v="1" />
		<tag k="name" v="Trosvik" />
		<tag k="ssr:stedsnr" v="896005" />
	</node>
	<node id="-376945" lat="61.4564361131" lon="10.1932666698">
		<tag k="bridge" v="yes" />
		<tag k="layer" v="1" />
		<tag k="name" v="Tromsa" />
		<tag k="ssr:stedsnr" v="714009" />
	</node>
	<node id="-376943" lat="61.4391222209" lon="10.3969055539">
		<tag k="bridge" v="yes" />
		<tag k="layer" v="1" />
		<tag k="name" v="Øfstegardsbrua" />
		<tag k="ssr:stedsnr" v="890648" />
	</node>
	<node id="-377453" lat="61.584261107" lon="10.5913805463">
		<tag k="highway" v="path" />
		<tag k="name" v="Beinstigen" />
		<tag k="ssr:stedsnr" v="206487" />
	</node>
	<node id="-377955" lat="61.4332027769" lon="10.4852583321">
		<tag k="highway" v="path" />
		<tag k="name" v="Midt-Goppollvegen" />
		<tag k="ssr:stedsnr" v="875767" />
	</node>
	<node id="-377954" lat="61.4258111086" lon="10.219019438">
		<tag k="bridge" v="yes" />
		<tag k="layer" v="1" />
		<tag k="name" v="Nera" />
		<tag k="ssr:stedsnr" v="774051" />
	</node>
	<node id="-377953" lat="61.4318499968" lon="10.1850027814">
		<tag k="bridge" v="yes" />
		<tag k="layer" v="1" />
		<tag k="name" v="Linvik" />
		<tag k="ssr:stedsnr" v="774045" />
	</node>
	<node id="-377951" lat="61.651950001" lon="10.6333722216">
		<tag k="highway" v="path" />
		<tag k="name" v="Gamle Kløvveien" />
		<tag k="ssr:stedsnr" v="769793" />
	</node>
	<node id="-376920" lat="61.506166664" lon="10.2216305625">
		<tag k="highway" v="path" />
		<tag k="name" v="Hjelsætervegen" />
		<tag k="ssr:stedsnr" v="888896" />
	</node>
	<node id="-377942" lat="61.6724972253" lon="10.4480972203">
		<tag k="highway" v="path" />
		<tag k="name" v="Brettingsdalsvegen" />
		<tag k="ssr:stedsnr" v="767826" />
	</node>
	<node id="-376404" lat="61.4519027811" lon="10.1871444503">
		<tag k="bridge" v="yes" />
		<tag k="layer" v="1" />
		<tag k="name" v="Nesset" />
		<tag k="ssr:stedsnr" v="168062" />
	</node>
	<node id="-376403" lat="61.4721055599" lon="10.1613249972">
		<tag k="bridge" v="yes" />
		<tag k="layer" v="1" />
		<tag k="name" v="Mæhlum" />
		<tag k="ssr:stedsnr" v="168061" />
	</node>
	<node id="-376402" lat="61.5189277782" lon="10.1379833389">
		<tag k="bridge" v="yes" />
		<tag k="layer" v="1" />
		<tag k="name" v="Storbekken" />
		<tag k="ssr:stedsnr" v="168058" />
	</node>
	<node id="-376401" lat="61.5185694433" lon="10.141544445">
		<tag k="bridge" v="yes" />
		<tag k="layer" v="1" />
		<tag k="name" v="Randklev" />
		<tag k="ssr:stedsnr" v="168057" />
	</node>
	<node id="-377934" lat="61.5454388881" lon="10.0627749934">
		<tag k="aeroway" v="airstrip" />
		<tag k="alt_name" v="Frya flyplass" />
		<tag k="name" v="Ringebu flyplass, Frya" />
		<tag k="ssr:stedsnr" v="767600" />
	</node>
	<node id="-376387" lat="61.4189000034" lon="10.4557944488">
		<tag k="junction" v="yes" />
		<tag k="name" v="Åmotkrysset" />
		<tag k="place" v="locality" />
		<tag k="ssr:stedsnr" v="160510" />
	</node>
	<node id="-376386" lat="61.6086999971" lon="10.1610138952">
>>>>>>> e1d4bc35ff8a6074a6f2e91616a996b547c36f15
		<tag k="highway" v="path" />
		<tag k="name" v="Dørdalsråket" />
		<tag k="ssr:stedsnr" v="962346" />
	</node>
<<<<<<< HEAD
	<node lat="61.65353333454827" lon="10.077733325649913" id="-23843">
		<tag k="highway" v="path" />
		<tag k="name" v="Gamle Flaksjølivegen" />
		<tag k="ssr:stedsnr" v="968831" />
	</node>
	<node lat="61.61622611000009" lon="10.033008216157937" id="-23874">
		<tag k="highway" v="path" />
		<tag k="name" v="Svenstadvegen" />
		<tag k="ssr:stedsnr" v="1073588" />
=======
	<node id="-377405" lat="61.4937972207" lon="10.5151000058">
		<tag k="highway" v="path" />
		<tag k="name" v="Vintervegen" />
		<tag k="ssr:stedsnr" v="160951" />
	</node>
	<node id="-377914" lat="61.6916083348" lon="10.313391672">
		<tag k="highway" v="path" />
		<tag k="name" v="Prestvegen" />
		<tag k="ssr:stedsnr" v="738980" />
	</node>
	<node id="-377397" lat="61.543397218" lon="10.3376722181">
		<tag k="highway" v="path" />
		<tag k="name" v="Bakliråket" />
		<tag k="ssr:stedsnr" v="160643" />
	</node>
	<node id="-378061" lat="61.6022194403" lon="10.049652783">
		<tag k="highway" v="path" />
		<tag k="name" v="Bakkomsråket" />
		<tag k="ssr:stedsnr" v="841915" />
	</node>
	<node id="-377883" lat="61.651936107" lon="9.98301944938">
		<tag k="bridge" v="yes" />
		<tag k="layer" v="1" />
		<tag k="name" v="Ådalsbekken" />
		<tag k="ssr:stedsnr" v="653009" />
	</node>
	<node id="-377882" lat="61.5513249992" lon="10.0556249955">
		<tag k="bridge" v="yes" />
		<tag k="layer" v="1" />
		<tag k="name" v="Frya" />
		<tag k="ssr:stedsnr" v="652616" />
	</node>
	<node id="-377880" lat="61.4552527741" lon="10.551094435">
		<tag k="man_made" v="cairn" />
		<tag k="name" v="Djupdamvarden" />
		<tag k="place" v="locality" />
		<tag k="ssr:stedsnr" v="647232" />
	</node>
	<node id="-377549" lat="61.3926006895" lon="10.2366915926">
		<tag k="bridge" v="yes" />
		<tag k="layer" v="1" />
		<tag k="name" v="Borgeneset" />
		<tag k="ssr:stedsnr" v="350051" />
	</node>
	<node id="-376168" lat="61.5562638881" lon="10.1332916731">
		<tag k="highway" v="path" />
		<tag k="name" v="Volevegen" />
		<tag k="ssr:stedsnr" v="221395" />
	</node>
	<node id="-377876" lat="61.6317111123" lon="10.1052305534">
		<tag k="highway" v="path" />
		<tag k="name" v="Gamle Friskevegen" />
		<tag k="ssr:stedsnr" v="645827" />
	</node>
	<node id="-377871" lat="61.492066669" lon="10.1835972277">
		<tag k="fixme" v="consider highway=path" />
		<tag k="highway" v="track" />
		<tag k="name" v="Gamle kongevegen" />
		<tag k="ssr:stedsnr" v="645898" />
	</node>
	<node id="-376333" lat="61.5397555594" lon="10.3351055642">
		<tag k="highway" v="path" />
		<tag k="name" v="Breistulråket" />
		<tag k="ssr:stedsnr" v="100653" />
	</node>
	<node id="-377868" lat="61.4436222196" lon="10.4515916644">
		<tag k="fixme" v="consider highway=path" />
		<tag k="highway" v="track" />
		<tag k="name" v="Langhaugråket" />
		<tag k="ssr:stedsnr" v="645576" />
>>>>>>> e1d4bc35ff8a6074a6f2e91616a996b547c36f15
	</node>
</osm>
