<?xml version="1.0" encoding="UTF-8"?>
<<<<<<< HEAD
<osm version="0.6" generator="osmapis">
	<node lat="61.66377499800159" lon="10.642722225676959" id="-21933">
		<tag k="name" v="Malimyra" />
		<tag k="natural" v="wetland" />
		<tag k="ssr:stedsnr" v="39770" />
	</node>
	<node lat="61.500897222444266" lon="10.15674166055597" id="-21936">
		<tag k="name" v="Storvollen" />
		<tag k="place" v="locality" />
		<tag k="ssr:stedsnr" v="39976" />
	</node>
	<node lat="61.498874998414614" lon="10.641041662871904" id="-21937">
		<tag k="name" v="Vassdokka" />
		<tag k="place" v="locality" />
		<tag k="ssr:stedsnr" v="39983" />
	</node>
	<node lat="61.5641361148444" lon="10.083727786314082" id="-21951">
		<tag k="historic" v="shieling" />
		<tag k="name" v="Bergomseter" />
		<tag k="place" v="locality" />
		<tag k="ssr:stedsnr" v="240709" />
	</node>
	<node lat="61.67217778065553" lon="10.231083327751724" id="-21968">
		<tag k="name" v="Dørmyrin" />
		<tag k="natural" v="wetland" />
		<tag k="ssr:stedsnr" v="70978" />
	</node>
	<node lat="61.660475000131896" lon="10.569988897490953" id="-21970">
		<tag k="name" v="Botnmyrene" />
		<tag k="natural" v="wetland" />
		<tag k="ssr:stedsnr" v="71203" />
	</node>
	<node lat="61.451455553804834" lon="10.084908333122453" id="-21994">
		<tag k="landuse" v="meadow" />
		<tag k="name" v="Svangvollane" />
		<tag k="ssr:stedsnr" v="100404" />
	</node>
	<node lat="61.516691669392195" lon="10.6622611140454" id="-22005">
		<tag k="landuse" v="meadow" />
		<tag k="name" v="Ruislåtta" />
		<tag k="ssr:stedsnr" v="100976" />
	</node>
	<node lat="61.468433334592845" lon="10.43944166936299" id="-22023">
		<tag k="name" v="Storrtjønnmyra" />
		<tag k="natural" v="wetland" />
		<tag k="ssr:stedsnr" v="251385" />
	</node>
	<node lat="61.67171666643058" lon="10.479124996539655" id="-22107">
		<tag k="alt_name" v="Stormyrene" />
		<tag k="name" v="Storroa" />
		<tag k="natural" v="wetland" />
		<tag k="ssr:stedsnr" v="267452" />
	</node>
	<node lat="61.43784166631392" lon="10.263636102470224" id="-22115">
		<tag k="name" v="Gammelhusa" />
		<tag k="place" v="locality" />
		<tag k="ssr:stedsnr" v="221213" />
	</node>
	<node lat="61.51729444763493" lon="10.580063881706769" id="-22125">
		<tag k="name" v="Knarvollen" />
		<tag k="place" v="locality" />
		<tag k="ssr:stedsnr" v="221928" />
	</node>
	<node lat="61.525774999657784" lon="10.652602771555822" id="-22126">
		<tag k="landuse" v="meadow" />
		<tag k="name" v="Øygardsliua" />
		<tag k="ssr:stedsnr" v="221971" />
	</node>
	<node lat="61.402572225486395" lon="10.101872223999601" id="-22147">
		<tag k="name" v="Båtstein" />
		<tag k="natural" v="stone" />
		<tag k="ssr:stedsnr" v="256480" />
	</node>
	<node lat="61.4466472213021" lon="10.285347217650527" id="-22153">
		<tag k="historic" v="shieling" />
		<tag k="name" v="Byttingsstulen" />
		<tag k="place" v="locality" />
		<tag k="ssr:stedsnr" v="282231" />
	</node>
	<node lat="61.51706111020481" lon="10.25495555168634" id="-22161">
		<tag k="historic" v="shieling" />
		<tag k="name" v="Byttingstulen" />
		<tag k="place" v="locality" />
		<tag k="ssr:stedsnr" v="282683" />
	</node>
	<node lat="61.505750001195146" lon="10.08131943868199" id="-22162">
		<tag k="historic" v="shieling" />
		<tag k="name" v="Veslestulen" />
		<tag k="place" v="locality" />
		<tag k="ssr:stedsnr" v="282698" />
	</node>
	<node lat="61.46385555784616" lon="10.428608333140586" id="-22164">
		<tag k="name" v="Ulvemyra" />
		<tag k="natural" v="wetland" />
		<tag k="ssr:stedsnr" v="282581" />
	</node>
	<node lat="61.44907777587036" lon="10.61141943745019" id="-22169">
		<tag k="name" v="Bakkeslærne" />
		<tag k="place" v="locality" />
		<tag k="ssr:stedsnr" v="282967" />
	</node>
	<node lat="61.5322583323422" lon="10.615708326564816" id="-22171">
		<tag k="name" v="Rønningsmyra" />
		<tag k="natural" v="wetland" />
		<tag k="ssr:stedsnr" v="282986" />
	</node>
	<node lat="61.45484444153025" lon="10.435705549092573" id="-22179">
		<tag k="name" v="Varpet" />
=======
<osm generator="osmapis" version="0.6">
	<node id="-376318" lat="61.5426305517" lon="10.082891664">
		<tag k="name" v="Knarrvollen" />
		<tag k="place" v="locality" />
		<tag k="ssr:stedsnr" v="99658" />
	</node>
	<node id="-377845" lat="61.3801777813" lon="10.1878222182">
		<tag k="name" v="Slåttan" />
		<tag k="place" v="locality" />
		<tag k="ssr:stedsnr" v="645749" />
	</node>
	<node id="-377844" lat="61.569550004" lon="10.3198083352">
		<tag k="name" v="Kolstadmyra" />
		<tag k="natural" v="wetland" />
		<tag k="ssr:stedsnr" v="645720" />
	</node>
	<node id="-376815" lat="61.7094250004" lon="10.619538897">
		<tag k="name" v="Løvollen" />
		<tag k="place" v="locality" />
		<tag k="ssr:stedsnr" v="707805" />
	</node>
	<node id="-376813" lat="61.5204166658" lon="10.6663500046">
		<tag k="landuse" v="meadow" />
		<tag k="name" v="Tujordsliua" />
		<tag k="ssr:stedsnr" v="706994" />
	</node>
	<node id="-377322" lat="61.5166916694" lon="10.662261114">
		<tag k="landuse" v="meadow" />
		<tag k="name" v="Ruislåtta" />
		<tag k="ssr:stedsnr" v="100976" />
	</node>
	<node id="-377318" lat="61.5112083361" lon="10.3815944449">
		<tag k="name" v="Øyom" />
		<tag k="place" v="locality" />
		<tag k="ssr:stedsnr" v="100885" />
	</node>
	<node id="-376805" lat="61.4671833311" lon="10.5222361038">
		<tag k="alt_name" v="Kongsvangmyra" />
		<tag k="name" v="Kongsvangmyrene" />
		<tag k="natural" v="wetland" />
		<tag k="ssr:stedsnr" v="706930" />
	</node>
	<node id="-377314" lat="61.5355944474" lon="10.3054166693">
		<tag k="name" v="Jenstjønnmyra" />
		<tag k="natural" v="wetland" />
		<tag k="ssr:stedsnr" v="100646" />
	</node>
	<node id="-377312" lat="61.4812277768" lon="10.4451638828">
		<tag k="name" v="Urskarsmyra" />
		<tag k="natural" v="wetland" />
		<tag k="ssr:stedsnr" v="100582" />
	</node>
	<node id="-377680" lat="61.4884972193" lon="10.3447138905">
		<tag k="name" v="Åsmyra" />
		<tag k="natural" v="wetland" />
		<tag k="ssr:stedsnr" v="524293" />
	</node>
	<node id="-376798" lat="61.3887000031" lon="10.1915500053">
		<tag k="name" v="Storslåa" />
		<tag k="place" v="locality" />
		<tag k="ssr:stedsnr" v="706760" />
	</node>
	<node id="-376741" lat="61.6382805544" lon="10.0447972179">
		<tag k="name" v="Svarttippslåa" />
		<tag k="place" v="locality" />
		<tag k="ssr:stedsnr" v="524827" />
	</node>
	<node id="-376283" lat="61.4684333346" lon="10.4394416694">
		<tag k="name" v="Storrtjønnmyra" />
		<tag k="natural" v="wetland" />
		<tag k="ssr:stedsnr" v="251385" />
	</node>
	<node id="-376790" lat="61.458191664" lon="10.4488388887">
		<tag k="name" v="Rikjemyra" />
		<tag k="natural" v="wetland" />
		<tag k="ssr:stedsnr" v="706564" />
	</node>
	<node id="-377297" lat="61.5343888878" lon="10.1051666694">
		<tag k="name" v="Skarvvollene" />
		<tag k="place" v="locality" />
		<tag k="ssr:stedsnr" v="99798" />
	</node>
	<node id="-376269" lat="61.6604750001" lon="10.5699888975">
		<tag k="name" v="Botnmyrene" />
		<tag k="natural" v="wetland" />
		<tag k="ssr:stedsnr" v="71203" />
	</node>
	<node id="-376773" lat="61.5657416657" lon="10.2020027798">
		<tag k="name" v="Rotbekkmyra" />
		<tag k="natural" v="wetland" />
		<tag k="ssr:stedsnr" v="706009" />
	</node>
	<node id="-376769" lat="61.5568472237" lon="10.1523166689">
		<tag k="name" v="Krokan" />
		<tag k="place" v="locality" />
		<tag k="ssr:stedsnr" v="706002" />
	</node>
	<node id="-377790" lat="61.7109694422" lon="10.5716083367">
		<tag k="landuse" v="meadow" />
		<tag k="name" v="Slåa" />
		<tag k="ssr:stedsnr" v="585766" />
	</node>
	<node id="-377789" lat="61.5891722213" lon="10.6208805534">
		<tag k="name" v="Sjømyra" />
		<tag k="natural" v="wetland" />
		<tag k="ssr:stedsnr" v="585748" />
	</node>
	<node id="-377788" lat="61.432277781" lon="10.4642249948">
		<tag k="name" v="Hemromsmyra" />
		<tag k="natural" v="wetland" />
		<tag k="ssr:stedsnr" v="585579" />
	</node>
	<node id="-377273" lat="61.633622225" lon="10.3674583403">
		<tag k="name" v="Remdalsmyrene" />
		<tag k="natural" v="wetland" />
		<tag k="ssr:stedsnr" v="71167" />
	</node>
	<node id="-376248" lat="61.663774998" lon="10.6427222257">
		<tag k="name" v="Malimyra" />
		<tag k="natural" v="wetland" />
		<tag k="ssr:stedsnr" v="39770" />
	</node>
	<node id="-377268" lat="61.6721777807" lon="10.2310833278">
		<tag k="name" v="Dørmyrin" />
		<tag k="natural" v="wetland" />
		<tag k="ssr:stedsnr" v="70978" />
	</node>
	<node id="-376243" lat="61.6294388885" lon="10.0760277771">
		<tag k="name" v="Liaslåa" />
		<tag k="place" v="locality" />
		<tag k="ssr:stedsnr" v="39818" />
	</node>
	<node id="-377778" lat="61.4918916633" lon="10.1665527791">
		<tag k="name" v="Storvollen" />
		<tag k="place" v="locality" />
		<tag k="ssr:stedsnr" v="584987" />
	</node>
	<node id="-376983" lat="61.6298777822" lon="10.016052785">
		<tag k="name" v="Dokkstulen" />
		<tag k="place" v="locality" />
		<tag k="ssr:stedsnr" v="767857" />
	</node>
	<node id="-377776" lat="61.5067777743" lon="10.5734611196">
		<tag k="name" v="Løsneslykkjeslåtten" />
>>>>>>> e1d4bc35ff8a6074a6f2e91616a996b547c36f15
		<tag k="place" v="locality" />
		<tag k="ssr:stedsnr" v="584974" />
	</node>
<<<<<<< HEAD
	<node lat="61.64267778067376" lon="10.10574723167367" id="-22186">
		<tag k="historic" v="shieling" />
		<tag k="name" v="Moasætra" />
		<tag k="place" v="locality" />
		<tag k="ssr:stedsnr" v="300877" />
	</node>
	<node lat="61.53941388905602" lon="10.150605550603883" id="-22203">
		<tag k="name" v="Kolstadmorka" />
		<tag k="place" v="locality" />
		<tag k="ssr:stedsnr" v="464228" />
	</node>
	<node lat="61.59546944335266" lon="10.616677780523279" id="-22208">
		<tag k="name" v="Sauøya" />
		<tag k="place" v="locality" />
		<tag k="ssr:stedsnr" v="464786" />
	</node>
	<node lat="61.59270277858622" lon="10.309127781693528" id="-22228">
		<tag k="alt_name" v="Kveinnslåmyrene" />
		<tag k="name" v="Kvannslåmyrin" />
=======
	<node id="-377775" lat="61.5173500039" lon="10.5823555588">
		<tag k="landuse" v="meadow" />
		<tag k="name" v="Ivarslåa" />
		<tag k="ssr:stedsnr" v="584969" />
	</node>
	<node id="-377773" lat="61.4324083375" lon="10.4920472143">
		<tag k="name" v="Torsgardsmyra" />
		<tag k="natural" v="wetland" />
		<tag k="ssr:stedsnr" v="584943" />
	</node>
	<node id="-377765" lat="61.4959249965" lon="10.1027944436">
		<tag k="name" v="Myrene" />
		<tag k="natural" v="wetland" />
		<tag k="ssr:stedsnr" v="584758" />
	</node>
	<node id="-376739" lat="61.6589222206" lon="10.5629333417">
		<tag k="name" v="Botnan" />
		<tag k="place" v="locality" />
		<tag k="ssr:stedsnr" v="524803" />
	</node>
	<node id="-377762" lat="61.542827776" lon="10.0770750081">
		<tag k="name" v="Vesleøya" />
		<tag k="place" v="locality" />
		<tag k="ssr:stedsnr" v="584651" />
	</node>
	<node id="-376225" lat="61.7132916625" lon="10.5359749913">
		<tag k="alt_name" v="Langmyrin" />
		<tag k="name" v="Langmyrene" />
>>>>>>> e1d4bc35ff8a6074a6f2e91616a996b547c36f15
		<tag k="natural" v="wetland" />
		<tag k="ssr:stedsnr" v="24513" />
	</node>
<<<<<<< HEAD
	<node lat="61.6666583301679" lon="10.15811112015849" id="-22241">
		<tag k="name" v="Veslefjellmyra" />
		<tag k="natural" v="wetland" />
		<tag k="ssr:stedsnr" v="342412" />
	</node>
	<node lat="61.51570124619716" lon="10.053441343024975" id="-22249">
		<tag k="name" v="Lynningsmyra" />
		<tag k="natural" v="wetland" />
		<tag k="ssr:stedsnr" v="355322" />
	</node>
	<node lat="61.39523055841321" lon="10.276163897800418" id="-22278">
		<tag k="name" v="Stenumsgardsrønningen" />
		<tag k="place" v="locality" />
		<tag k="ssr:stedsnr" v="403403" />
	</node>
	<node lat="61.565436112328676" lon="10.292238890206974" id="-22279">
		<tag k="landuse" v="meadow" />
		<tag k="name" v="Slåa" />
		<tag k="ssr:stedsnr" v="403478" />
	</node>
	<node lat="61.52760000305342" lon="10.603113898077591" id="-22289">
		<tag k="landuse" v="meadow" />
		<tag k="name" v="Hardvollen" />
		<tag k="ssr:stedsnr" v="403984" />
	</node>
	<node lat="61.495983329189635" lon="10.05057777765329" id="-22293">
		<tag k="name" v="Randklevsmyra" />
		<tag k="natural" v="wetland" />
		<tag k="ssr:stedsnr" v="416314" />
	</node>
	<node lat="61.48375555577391" lon="10.261924996795681" id="-22298">
		<tag k="name" v="Gravetermyra" />
		<tag k="natural" v="wetland" />
		<tag k="ssr:stedsnr" v="433579" />
	</node>
	<node lat="61.591811113738565" lon="10.20513055659422" id="-22308">
		<tag k="alt_name" v="Kollmyrene" />
		<tag k="name" v="Kollmyrin" />
		<tag k="natural" v="wetland" />
		<tag k="ssr:stedsnr" v="435810" />
	</node>
	<node lat="61.48942500258166" lon="10.254752782233172" id="-22319">
		<tag k="name" v="Kvernslåmyra" />
		<tag k="natural" v="wetland" />
		<tag k="ssr:stedsnr" v="494499" />
	</node>
	<node lat="61.426111109911254" lon="10.148822225669702" id="-22325">
		<tag k="name" v="Fåvangkomplekset" />
		<tag k="place" v="locality" />
		<tag k="ssr:stedsnr" v="463807" />
	</node>
	<node lat="61.51078610774099" lon="10.521186110135044" id="-22331">
		<tag k="name" v="Roghelmslåmyra" />
		<tag k="natural" v="wetland" />
		<tag k="ssr:stedsnr" v="463956" />
	</node>
	<node lat="61.49167777974847" lon="10.490447227235475" id="-22332">
=======
	<node id="-377754" lat="61.564847222" lon="10.1706694444">
		<tag k="landuse" v="meadow" />
		<tag k="name" v="Slepvollen" />
		<tag k="ssr:stedsnr" v="584010" />
	</node>
	<node id="-377235" lat="61.5677222178" lon="10.1004972253">
		<tag k="name" v="Bølmorka" />
		<tag k="place" v="locality" />
		<tag k="ssr:stedsnr" v="58693" />
	</node>
	<node id="-378039" lat="61.5412638859" lon="10.3140638835">
		<tag k="name" v="Veslemyra" />
		<tag k="natural" v="wetland" />
		<tag k="ssr:stedsnr" v="828651" />
	</node>
	<node id="-377233" lat="61.5296083296" lon="10.1242472293">
		<tag k="name" v="Skarvvollene" />
		<tag k="place" v="locality" />
		<tag k="ssr:stedsnr" v="58275" />
	</node>
	<node id="-376205" lat="61.5277777806" lon="10.6747000081">
		<tag k="landuse" v="meadow" />
		<tag k="name" v="Prestangslåtta" />
		<tag k="ssr:stedsnr" v="221977" />
	</node>
	<node id="-376204" lat="61.5247583358" lon="10.6650472247">
		<tag k="landuse" v="meadow" />
		<tag k="name" v="Skoslå" />
		<tag k="ssr:stedsnr" v="221975" />
	</node>
	<node id="-376203" lat="61.5257749997" lon="10.6526027716">
		<tag k="landuse" v="meadow" />
		<tag k="name" v="Øygardsliua" />
		<tag k="ssr:stedsnr" v="221971" />
	</node>
	<node id="-376201" lat="61.5247916656" lon="10.5934277806">
		<tag k="name" v="Morkesletteinga" />
		<tag k="place" v="locality" />
		<tag k="ssr:stedsnr" v="221930" />
	</node>
	<node id="-376200" lat="61.5172944476" lon="10.5800638817">
		<tag k="name" v="Knarvollen" />
		<tag k="place" v="locality" />
		<tag k="ssr:stedsnr" v="221928" />
	</node>
	<node id="-377223" lat="61.4988749984" lon="10.6410416629">
		<tag k="name" v="Vassdokka" />
		<tag k="place" v="locality" />
		<tag k="ssr:stedsnr" v="39983" />
	</node>
	<node id="-377220" lat="61.4972055565" lon="10.2253416756">
		<tag k="name" v="Storslåmorka" />
		<tag k="place" v="locality" />
		<tag k="ssr:stedsnr" v="39892" />
	</node>
	<node id="-376521" lat="61.6426777807" lon="10.1057472317">
		<tag k="historic" v="shieling" />
		<tag k="name" v="Moasætra" />
		<tag k="place" v="locality" />
		<tag k="ssr:stedsnr" v="300877" />
	</node>
	<node id="-377212" lat="61.5665305549" lon="10.2514444535">
		<tag k="historic" v="shieling" />
		<tag k="name" v="Bustulen" />
		<tag k="place" v="locality" />
		<tag k="ssr:stedsnr" v="39441" />
	</node>
	<node id="-376681" lat="61.5394138891" lon="10.1506055506">
		<tag k="name" v="Kolstadmorka" />
		<tag k="place" v="locality" />
		<tag k="ssr:stedsnr" v="464228" />
	</node>
	<node id="-376676" lat="61.4916777797" lon="10.4904472272">
>>>>>>> e1d4bc35ff8a6074a6f2e91616a996b547c36f15
		<tag k="name" v="Vetåmyra" />
		<tag k="natural" v="wetland" />
		<tag k="ssr:stedsnr" v="463957" />
	</node>
<<<<<<< HEAD
	<node lat="61.507319443205766" lon="10.592936115417855" id="-22333">
		<tag k="name" v="Morkemyrene" />
		<tag k="natural" v="wetland" />
		<tag k="ssr:stedsnr" v="463966" />
	</node>
	<node lat="61.417605559879256" lon="10.13483611731649" id="-22376">
		<tag k="name" v="Korsmyra" />
		<tag k="natural" v="wetland" />
		<tag k="ssr:stedsnr" v="482761" />
	</node>
	<node lat="61.65892222058332" lon="10.56293334174453" id="-22419">
		<tag k="name" v="Botnan" />
		<tag k="place" v="locality" />
		<tag k="ssr:stedsnr" v="524803" />
	</node>
	<node lat="61.63828055438754" lon="10.044797217873223" id="-22421">
		<tag k="name" v="Svarttippslåa" />
		<tag k="place" v="locality" />
		<tag k="ssr:stedsnr" v="524827" />
	</node>
	<node lat="61.564847221976976" lon="10.170669444363579" id="-22457">
		<tag k="landuse" v="meadow" />
		<tag k="name" v="Slepvollen" />
		<tag k="ssr:stedsnr" v="584010" />
	</node>
	<node lat="61.54282777601296" lon="10.077075008109114" id="-22464">
		<tag k="name" v="Vesleøya" />
		<tag k="place" v="locality" />
		<tag k="ssr:stedsnr" v="584651" />
	</node>
	<node lat="61.43240833749814" lon="10.492047214332963" id="-22473">
		<tag k="name" v="Torsgardsmyra" />
		<tag k="natural" v="wetland" />
		<tag k="ssr:stedsnr" v="584943" />
	</node>
	<node lat="61.58917222129542" lon="10.620880553397617" id="-22479">
		<tag k="name" v="Sjømyra" />
		<tag k="natural" v="wetland" />
		<tag k="ssr:stedsnr" v="585748" />
	</node>
	<node lat="61.556847223653314" lon="10.15231666888138" id="-22508">
		<tag k="name" v="Krokan" />
		<tag k="place" v="locality" />
		<tag k="ssr:stedsnr" v="706002" />
	</node>
	<node lat="61.45909722523114" lon="10.19975000351065" id="-22523">
		<tag k="name" v="Flyaosa" />
		<tag k="place" v="locality" />
		<tag k="ssr:stedsnr" v="645404" />
	</node>
	<node lat="61.47242221931278" lon="10.259430553741597" id="-22525">
		<tag k="name" v="Gardbogen" />
		<tag k="place" v="locality" />
		<tag k="ssr:stedsnr" v="645306" />
	</node>
	<node lat="61.60969444816507" lon="10.143338890126266" id="-22526">
		<tag k="name" v="Megardsmyra" />
		<tag k="natural" v="wetland" />
		<tag k="ssr:stedsnr" v="645376" />
	</node>
	<node lat="61.49434722576678" lon="10.347891670028265" id="-22532">
		<tag k="name" v="Åsmyra" />
		<tag k="natural" v="wetland" />
		<tag k="ssr:stedsnr" v="645696" />
	</node>
	<node lat="61.52823611160929" lon="10.637316661189512" id="-22544">
		<tag k="landuse" v="meadow" />
		<tag k="name" v="Torsgardsslåtta" />
		<tag k="ssr:stedsnr" v="645974" />
	</node>
	<node lat="61.46718333113478" lon="10.522236103802866" id="-22553">
		<tag k="alt_name" v="Kongsvangmyra" />
		<tag k="name" v="Kongsvangmyrene" />
		<tag k="natural" v="wetland" />
		<tag k="ssr:stedsnr" v="706930" />
	</node>
	<node lat="61.52041666576624" lon="10.666350004618543" id="-22557">
		<tag k="landuse" v="meadow" />
		<tag k="name" v="Tujordsliua" />
		<tag k="ssr:stedsnr" v="706994" />
	</node>
	<node lat="61.38335277390116" lon="10.187655548540297" id="-22565">
		<tag k="name" v="Slåttan" />
		<tag k="place" v="locality" />
		<tag k="ssr:stedsnr" v="664783" />
	</node>
	<node lat="61.56574166570123" lon="10.202002779770773" id="-22592">
		<tag k="name" v="Rotbekkmyra" />
		<tag k="natural" v="wetland" />
		<tag k="ssr:stedsnr" v="706009" />
	</node>
	<node lat="61.4581916640456" lon="10.448838888692663" id="-22604">
		<tag k="name" v="Rikjemyra" />
		<tag k="natural" v="wetland" />
		<tag k="ssr:stedsnr" v="706564" />
	</node>
	<node lat="61.38870000306793" lon="10.19155000525563" id="-22608">
		<tag k="name" v="Storslåa" />
		<tag k="place" v="locality" />
		<tag k="ssr:stedsnr" v="706760" />
	</node>
	<node lat="61.70942500041197" lon="10.619538896985599" id="-22617">
		<tag k="name" v="Løvollen" />
		<tag k="place" v="locality" />
		<tag k="ssr:stedsnr" v="707805" />
	</node>
	<node lat="61.590041669749915" lon="10.03844721390515" id="-22622">
		<tag k="loc_name" v="Kyrkjegardsvollen" />
		<tag k="name" v="Kirkegårdsvollen" />
		<tag k="place" v="locality" />
		<tag k="ssr:stedsnr" v="720968" />
	</node>
	<node lat="61.52341666623605" lon="10.189330546253741" id="-22627">
		<tag k="historic" v="shieling" />
		<tag k="name" v="Nyberg" />
		<tag k="place" v="locality" />
		<tag k="ssr:stedsnr" v="725907" />
	</node>
	<node lat="61.42596111342361" lon="10.4183833365318" id="-22636">
		<tag k="name" v="Gumpemyra" />
		<tag k="natural" v="wetland" />
		<tag k="ssr:stedsnr" v="902386" />
	</node>
	<node lat="61.47143333076785" lon="10.258997213116556" id="-22648">
		<tag k="name" v="Myrstigen" />
		<tag k="place" v="locality" />
		<tag k="ssr:stedsnr" v="767310" />
	</node>
	<node lat="61.470580551978266" lon="10.567105564753541" id="-22661">
		<tag k="name" v="Stakkstengene" />
		<tag k="place" v="locality" />
		<tag k="ssr:stedsnr" v="769209" />
	</node>
	<node lat="61.42253889260367" lon="10.202441672757457" id="-22671">
		<tag k="name" v="Tuvvollen" />
		<tag k="place" v="locality" />
		<tag k="ssr:stedsnr" v="786806" />
	</node>
	<node lat="61.413199998435275" lon="9.990788896534154" id="-22678">
		<tag k="alt_name" v="Røgnmyrin" />
		<tag k="name" v="Røgnmyra" />
		<tag k="natural" v="wetland" />
		<tag k="ssr:stedsnr" v="797917" />
	</node>
	<node lat="61.66341111504499" lon="10.110805552952096" id="-22692">
		<tag k="name" v="Stormyra" />
		<tag k="natural" v="wetland" />
		<tag k="ssr:stedsnr" v="799989" />
	</node>
	<node lat="61.434625002943264" lon="10.43990277764284" id="-22714">
		<tag k="name" v="Furuhaugmyra" />
		<tag k="natural" v="wetland" />
		<tag k="ssr:stedsnr" v="919339" />
	</node>
	<node lat="61.51599722419509" lon="10.576780549509522" id="-22748">
		<tag k="name" v="Sulubergsvollen" />
		<tag k="place" v="locality" />
		<tag k="ssr:stedsnr" v="828935" />
	</node>
	<node lat="61.597163886729284" lon="10.028797220018749" id="-22752">
		<tag k="name" v="Skarvenget" />
		<tag k="place" v="locality" />
		<tag k="ssr:stedsnr" v="841912" />
	</node>
	<node lat="61.38306388622514" lon="10.152352779776663" id="-22760">
		<tag k="name" v="Stormyra" />
		<tag k="natural" v="wetland" />
		<tag k="ssr:stedsnr" v="857889" />
	</node>
	<node lat="61.409858330429" lon="10.300641671414411" id="-22764">
		<tag k="name" v="Hjellmyra" />
		<tag k="natural" v="wetland" />
		<tag k="ssr:stedsnr" v="858904" />
	</node>
	<node lat="61.53971666718734" lon="10.28238333148217" id="-22770">
		<tag k="alt_name" v="Røsmyra" />
		<tag k="name" v="Røsmyrin" />
		<tag k="natural" v="wetland" />
		<tag k="ssr:stedsnr" v="859821" />
	</node>
	<node lat="61.70733889220243" lon="10.592363898375154" id="-22802">
		<tag k="landuse" v="meadow" />
		<tag k="name" v="Emortslåa" />
		<tag k="ssr:stedsnr" v="889809" />
	</node>
	<node lat="61.43689444705116" lon="10.376933330627262" id="-22855">
		<tag k="name" v="Hortan" />
		<tag k="place" v="locality" />
		<tag k="ssr:stedsnr" v="951639" />
	</node>
	<node lat="61.69622222396297" lon="10.567541668262397" id="-22856">
=======
	<node id="-376675" lat="61.5107861077" lon="10.5211861101">
		<tag k="name" v="Roghelmslåmyra" />
		<tag k="natural" v="wetland" />
		<tag k="ssr:stedsnr" v="463956" />
	</node>
	<node id="-376674" lat="61.4261111099" lon="10.1488222257">
		<tag k="name" v="Fåvangkomplekset" />
		<tag k="place" v="locality" />
		<tag k="ssr:stedsnr" v="463807" />
	</node>
	<node id="-377403" lat="61.5660111082" lon="10.6475638878">
		<tag k="name" v="Gråura" />
		<tag k="natural" v="scree" />
		<tag k="ssr:stedsnr" v="160748" />
	</node>
	<node id="-376159" lat="61.3805388851" lon="10.2864361187">
		<tag k="name" v="Bjørgeskogen" />
		<tag k="place" v="locality" />
		<tag k="ssr:stedsnr" v="221264" />
	</node>
	<node id="-376158" lat="61.4378416663" lon="10.2636361025">
		<tag k="name" v="Gammelhusa" />
		<tag k="place" v="locality" />
		<tag k="ssr:stedsnr" v="221213" />
	</node>
	<node id="-376656" lat="61.3833527739" lon="10.1876555485">
		<tag k="name" v="Slåttan" />
		<tag k="place" v="locality" />
		<tag k="ssr:stedsnr" v="664783" />
	</node>
	<node id="-377679" lat="61.3985111074" lon="10.3334833283">
		<tag k="name" v="Holsbekkmyra" />
		<tag k="natural" v="wetland" />
		<tag k="ssr:stedsnr" v="524255" />
	</node>
	<node id="-377678" lat="61.3909444402" lon="10.2997833279">
		<tag k="name" v="Nygrindteigen" />
		<tag k="place" v="locality" />
		<tag k="ssr:stedsnr" v="524253" />
	</node>
	<node id="-376648" lat="61.5918111137" lon="10.2051305566">
		<tag k="alt_name" v="Kollmyrene" />
		<tag k="name" v="Kollmyrin" />
		<tag k="natural" v="wetland" />
		<tag k="ssr:stedsnr" v="435810" />
	</node>
	<node id="-377228" lat="61.6365305525" lon="9.97917778043">
		<tag k="name" v="Øyen" />
		<tag k="place" v="locality" />
		<tag k="ssr:stedsnr" v="52389" />
	</node>
	<node id="-377151" lat="61.5447249982" lon="10.1029888896">
		<tag k="name" v="Langjordet" />
		<tag k="place" v="locality" />
		<tag k="ssr:stedsnr" v="949711" />
	</node>
	<node id="-376229" lat="61.6047027798" lon="10.2329666619">
		<tag k="name" v="Stormyra" />
		<tag k="natural" v="wetland" />
		<tag k="ssr:stedsnr" v="39051" />
	</node>
	<node id="-376635" lat="61.4959833292" lon="10.0505777777">
		<tag k="name" v="Randklevsmyra" />
		<tag k="natural" v="wetland" />
		<tag k="ssr:stedsnr" v="416314" />
	</node>
	<node id="-377138" lat="61.5480083354" lon="10.6200111037">
		<tag k="alt_name" v="Bjørnhusmyra" />
		<tag k="name" v="Bjorhusmyrene" />
		<tag k="natural" v="wetland" />
		<tag k="ssr:stedsnr" v="935527" />
	</node>
	<node id="-377644" lat="61.4837555558" lon="10.2619249968">
		<tag k="name" v="Gravetermyra" />
		<tag k="natural" v="wetland" />
		<tag k="ssr:stedsnr" v="433579" />
	</node>
	<node id="-376617" lat="61.3952305584" lon="10.2761638978">
		<tag k="name" v="Stenumsgardsrønningen" />
		<tag k="place" v="locality" />
		<tag k="ssr:stedsnr" v="403403" />
	</node>
	<node id="-376611" lat="61.5472111081" lon="10.2334750064">
		<tag k="name" v="Nyhamn" />
		<tag k="place" v="locality" />
		<tag k="ssr:stedsnr" v="403023" />
	</node>
	<node id="-377114" lat="61.7073388922" lon="10.5923638984">
		<tag k="landuse" v="meadow" />
		<tag k="name" v="Emortslåa" />
		<tag k="ssr:stedsnr" v="889809" />
	</node>
	<node id="-377625" lat="61.5096611145" lon="10.6386638944">
		<tag k="landuse" v="meadow" />
		<tag k="name" v="Stenumgardsliua" />
		<tag k="ssr:stedsnr" v="403992" />
	</node>
	<node id="-377624" lat="61.5276000031" lon="10.6031138981">
		<tag k="landuse" v="meadow" />
		<tag k="name" v="Hardvollen" />
		<tag k="ssr:stedsnr" v="403984" />
	</node>
	<node id="-377110" lat="61.5175694473" lon="10.4307138938">
		<tag k="landuse" v="meadow" />
		<tag k="name" v="Kringleslåa" />
		<tag k="ssr:stedsnr" v="888911" />
	</node>
	<node id="-377106" lat="61.4753555541" lon="10.1854805594">
		<tag k="name" v="Trøstakervollene" />
		<tag k="place" v="locality" />
		<tag k="ssr:stedsnr" v="950000" />
	</node>
	<node id="-377104" lat="61.5162166633" lon="10.6676166701">
		<tag k="landuse" v="meadow" />
		<tag k="name" v="Nordrumsliua" />
		<tag k="ssr:stedsnr" v="949987" />
	</node>
	<node id="-377607" lat="61.5654361123" lon="10.2922388902">
		<tag k="landuse" v="meadow" />
		<tag k="name" v="Slåa" />
		<tag k="ssr:stedsnr" v="403478" />
	</node>
	<node id="-378114" lat="61.675991669" lon="10.0137166663">
		<tag k="name" v="Stormyra" />
		<tag k="natural" v="wetland" />
		<tag k="ssr:stedsnr" v="968883" />
	</node>
	<node id="-377080" lat="61.542294441" lon="10.1055000009">
		<tag k="name" v="Klopplykkja" />
		<tag k="place" v="locality" />
		<tag k="ssr:stedsnr" v="949562" />
	</node>
	<node id="-378103" lat="61.696222224" lon="10.5675416683">
>>>>>>> e1d4bc35ff8a6074a6f2e91616a996b547c36f15
		<tag k="name" v="Elgsmyra" />
		<tag k="natural" v="wetland" />
		<tag k="ssr:stedsnr" v="951840" />
	</node>
<<<<<<< HEAD
	<node lat="61.67599166898749" lon="10.013716666337602" id="-22860">
		<tag k="name" v="Stormyra" />
		<tag k="natural" v="wetland" />
		<tag k="ssr:stedsnr" v="968883" />
	</node>
	<node lat="61.71329166247323" lon="10.535974991266311" id="-22896">
		<tag k="alt_name" v="Langmyrin" />
		<tag k="name" v="Langmyrene" />
		<tag k="natural" v="wetland" />
		<tag k="ssr:stedsnr" v="24513" />
	</node>
	<node lat="61.60470277983531" lon="10.232966661864545" id="-22904">
		<tag k="name" v="Stormyra" />
		<tag k="natural" v="wetland" />
		<tag k="ssr:stedsnr" v="39051" />
	</node>
	<node lat="61.56653055490256" lon="10.251444453549164" id="-22911">
		<tag k="historic" v="shieling" />
		<tag k="name" v="Bustulen" />
		<tag k="place" v="locality" />
		<tag k="ssr:stedsnr" v="39441" />
	</node>
	<node lat="61.497205556466035" lon="10.225341675579514" id="-22917">
		<tag k="name" v="Storslåmorka" />
		<tag k="place" v="locality" />
		<tag k="ssr:stedsnr" v="39892" />
	</node>
	<node lat="61.629438888450444" lon="10.07602777705446" id="-22921">
		<tag k="name" v="Liaslåa" />
		<tag k="place" v="locality" />
		<tag k="ssr:stedsnr" v="39818" />
	</node>
	<node lat="61.63653055247385" lon="9.979177780431701" id="-22927">
		<tag k="name" v="Øyen" />
		<tag k="place" v="locality" />
		<tag k="ssr:stedsnr" v="52389" />
	</node>
	<node lat="61.52960832963284" lon="10.124247229284153" id="-22932">
		<tag k="name" v="Skarvvollene" />
		<tag k="place" v="locality" />
		<tag k="ssr:stedsnr" v="58275" />
	</node>
	<node lat="61.567722217825555" lon="10.100497225326748" id="-22934">
		<tag k="name" v="Bølmorka" />
		<tag k="place" v="locality" />
		<tag k="ssr:stedsnr" v="58693" />
	</node>
	<node lat="61.63362222503632" lon="10.367458340302498" id="-22959">
		<tag k="name" v="Remdalsmyrene" />
		<tag k="natural" v="wetland" />
		<tag k="ssr:stedsnr" v="71167" />
	</node>
	<node lat="61.636624999421045" lon="10.250616670904979" id="-22963">
		<tag k="alt_name" v="Flågåmyrene" />
		<tag k="name" v="Flågåmyrin" />
		<tag k="natural" v="wetland" />
		<tag k="ssr:stedsnr" v="71784" />
	</node>
	<node lat="61.54263055171291" lon="10.082891664021707" id="-22974">
		<tag k="name" v="Knarrvollen" />
		<tag k="place" v="locality" />
		<tag k="ssr:stedsnr" v="99658" />
	</node>
	<node lat="61.53438888776007" lon="10.105166669409137" id="-22977">
		<tag k="name" v="Skarvvollene" />
		<tag k="place" v="locality" />
		<tag k="ssr:stedsnr" v="99798" />
	</node>
	<node lat="61.48122777677678" lon="10.445163882778592" id="-22988">
		<tag k="name" v="Urskarsmyra" />
		<tag k="natural" v="wetland" />
		<tag k="ssr:stedsnr" v="100582" />
	</node>
	<node lat="61.511208336052555" lon="10.381594444908892" id="-22991">
		<tag k="name" v="Øyom" />
		<tag k="place" v="locality" />
		<tag k="ssr:stedsnr" v="100885" />
	</node>
	<node lat="61.53559444736537" lon="10.305416669341973" id="-22996">
		<tag k="name" v="Jenstjønnmyra" />
		<tag k="natural" v="wetland" />
		<tag k="ssr:stedsnr" v="100646" />
	</node>
	<node lat="61.45478611329032" lon="10.527780552577575" id="-23008">
		<tag k="name" v="Goppollmyrene" />
		<tag k="natural" v="wetland" />
		<tag k="ssr:stedsnr" v="130333" />
	</node>
	<node lat="61.68424722554053" lon="10.583838891883268" id="-23027">
		<tag k="alt_name" v="Hellakmyrene" />
		<tag k="name" v="Helakmyrene" />
		<tag k="natural" v="wetland" />
		<tag k="ssr:stedsnr" v="131157" />
	</node>
	<node lat="61.57636389126298" lon="10.083963898256501" id="-23046">
		<tag k="name" v="Skardmyra" />
		<tag k="natural" v="wetland" />
		<tag k="ssr:stedsnr" v="147996" />
	</node>
	<node lat="61.577297220247175" lon="10.12029722280694" id="-23048">
		<tag k="name" v="Hellmyra" />
		<tag k="natural" v="wetland" />
		<tag k="ssr:stedsnr" v="160003" />
	</node>
	<node lat="61.422133333653846" lon="10.318466666130067" id="-23054">
		<tag k="name" v="Sylthaugmyra" />
		<tag k="natural" v="wetland" />
		<tag k="ssr:stedsnr" v="160272" />
	</node>
	<node lat="61.48934999659438" lon="10.319830553585216" id="-23056">
		<tag k="name" v="Skotten sæterrast" />
		<tag k="place" v="locality" />
		<tag k="ssr:stedsnr" v="160290" />
	</node>
	<node lat="61.50505555244212" lon="10.279269450861932" id="-23073">
		<tag k="name" v="Fagerlimyrene" />
		<tag k="natural" v="wetland" />
		<tag k="ssr:stedsnr" v="160656" />
	</node>
	<node lat="61.56601110824078" lon="10.64756388777599" id="-23077">
		<tag k="name" v="Gråura" />
		<tag k="natural" v="scree" />
		<tag k="ssr:stedsnr" v="160748" />
	</node>
	<node lat="61.38053888505663" lon="10.28643611866839" id="-23151">
		<tag k="name" v="Bjørgeskogen" />
		<tag k="place" v="locality" />
		<tag k="ssr:stedsnr" v="221264" />
	</node>
	<node lat="61.52475833581507" lon="10.665047224724352" id="-23163">
		<tag k="landuse" v="meadow" />
		<tag k="name" v="Skoslå" />
		<tag k="ssr:stedsnr" v="221975" />
	</node>
	<node lat="61.52777778058186" lon="10.674700008113156" id="-23164">
		<tag k="landuse" v="meadow" />
		<tag k="name" v="Prestangslåtta" />
		<tag k="ssr:stedsnr" v="221977" />
	</node>
	<node lat="61.52479166559444" lon="10.593427780628895" id="-23166">
		<tag k="name" v="Morkesletteinga" />
=======
	<node id="-378101" lat="61.4368944471" lon="10.3769333306">
		<tag k="name" v="Hortan" />
		<tag k="place" v="locality" />
		<tag k="ssr:stedsnr" v="951639" />
	</node>
	<node id="-376564" lat="61.4894250026" lon="10.2547527822">
		<tag k="name" v="Kvernslåmyra" />
		<tag k="natural" v="wetland" />
		<tag k="ssr:stedsnr" v="494499" />
	</node>
	<node id="-377074" lat="61.464277779" lon="10.2902388911">
		<tag k="name" v="Høyvang" />
		<tag k="place" v="locality" />
		<tag k="ssr:stedsnr" v="949301" />
	</node>
	<node id="-377583" lat="61.5408111078" lon="10.3762250046">
		<tag k="alt_name" v="Grossmyra" />
		<tag k="name" v="Grosmyra" />
		<tag k="natural" v="wetland" />
		<tag k="ssr:stedsnr" v="373241" />
	</node>
	<node id="-378093" lat="61.6139500001" lon="10.1221000055">
		<tag k="alt_name" v="Jernholtmyra" />
		<tag k="name" v="Jønnhaltmyra" />
		<tag k="natural" v="wetland" />
		<tag k="ssr:stedsnr" v="860781" />
	</node>
	<node id="-378085" lat="61.5397166672" lon="10.2823833315">
		<tag k="alt_name" v="Røsmyra" />
		<tag k="name" v="Røsmyrin" />
		<tag k="natural" v="wetland" />
		<tag k="ssr:stedsnr" v="859821" />
	</node>
	<node id="-377570" lat="61.4910527767" lon="10.2288416588">
		<tag k="name" v="Langmyra" />
		<tag k="natural" v="wetland" />
		<tag k="ssr:stedsnr" v="372548" />
	</node>
	<node id="-377569" lat="61.4875027755" lon="10.2742444463">
		<tag k="alt_name" v="Gardbugmyra" />
		<tag k="name" v="Gardbogmyra" />
		<tag k="natural" v="wetland" />
		<tag k="ssr:stedsnr" v="372546" />
	</node>
	<node id="-376544" lat="61.4174166678" lon="10.2058416599">
		<tag k="name" v="Utlandet" />
		<tag k="place" v="locality" />
		<tag k="ssr:stedsnr" v="361819" />
	</node>
	<node id="-376539" lat="61.4176055599" lon="10.1348361173">
		<tag k="name" v="Korsmyra" />
		<tag k="natural" v="wetland" />
		<tag k="ssr:stedsnr" v="482761" />
	</node>
	<node id="-378072" lat="61.3830638862" lon="10.1523527798">
		<tag k="name" v="Stormyra" />
		<tag k="natural" v="wetland" />
		<tag k="ssr:stedsnr" v="857889" />
	</node>
	<node id="-376528" lat="61.5157222184" lon="10.3549666754">
		<tag k="name" v="Stormyra" />
		<tag k="natural" v="wetland" />
		<tag k="ssr:stedsnr" v="313218" />
	</node>
	<node id="-377550" lat="61.5157012462" lon="10.053441343">
		<tag k="name" v="Lynningsmyra" />
		<tag k="natural" v="wetland" />
		<tag k="ssr:stedsnr" v="355322" />
	</node>
	<node id="-378060" lat="61.5971638867" lon="10.02879722">
		<tag k="name" v="Skarvenget" />
		<tag k="place" v="locality" />
		<tag k="ssr:stedsnr" v="841912" />
	</node>
	<node id="-377545" lat="61.5282916653" lon="10.5933000036">
		<tag k="name" v="Buvollen" />
		<tag k="place" v="locality" />
		<tag k="ssr:stedsnr" v="342937" />
	</node>
	<node id="-378053" lat="61.5159972242" lon="10.5767805495">
		<tag k="name" v="Sulubergsvollen" />
		<tag k="place" v="locality" />
		<tag k="ssr:stedsnr" v="828935" />
	</node>
	<node id="-376515" lat="61.5954694434" lon="10.6166777805">
		<tag k="name" v="Sauøya" />
		<tag k="place" v="locality" />
		<tag k="ssr:stedsnr" v="464786" />
	</node>
	<node id="-378050" lat="61.5099194438" lon="10.2196722269">
		<tag k="name" v="Svartmorka" />
		<tag k="place" v="locality" />
		<tag k="ssr:stedsnr" v="828884" />
	</node>
	<node id="-377534" lat="61.5389305593" lon="10.1093833362">
		<tag k="name" v="Innleggen" />
		<tag k="place" v="locality" />
		<tag k="ssr:stedsnr" v="342683" />
	</node>
	<node id="-378040" lat="61.525238887" lon="10.2375416726">
		<tag k="historic" v="shieling" />
		<tag k="name" v="Godtnoksætra" />
		<tag k="place" v="locality" />
		<tag k="ssr:stedsnr" v="828657" />
	</node>
	<node id="-377527" lat="61.4328194439" lon="10.4441527792">
		<tag k="name" v="Furuhaugmyra" />
		<tag k="place" v="locality" />
		<tag k="ssr:stedsnr" v="342551" />
	</node>
	<node id="-377033" lat="61.5702194444" lon="10.2009027843">
		<tag k="name" v="Fålåmyra" />
		<tag k="natural" v="wetland" />
		<tag k="ssr:stedsnr" v="799805" />
	</node>
	<node id="-376497" lat="61.5073194432" lon="10.5929361154">
		<tag k="name" v="Morkemyrene" />
		<tag k="natural" v="wetland" />
		<tag k="ssr:stedsnr" v="463966" />
	</node>
	<node id="-377520" lat="61.5677666705" lon="10.2800499978">
		<tag k="name" v="Stormyra" />
		<tag k="natural" v="wetland" />
		<tag k="ssr:stedsnr" v="342426" />
	</node>
	<node id="-377518" lat="61.6666583302" lon="10.1581111202">
		<tag k="name" v="Veslefjellmyra" />
		<tag k="natural" v="wetland" />
		<tag k="ssr:stedsnr" v="342412" />
	</node>
	<node id="-376490" lat="61.4548444415" lon="10.4357055491">
		<tag k="name" v="Varpet" />
		<tag k="place" v="locality" />
		<tag k="ssr:stedsnr" v="463586" />
	</node>
	<node id="-376483" lat="61.6717166664" lon="10.4791249965">
		<tag k="alt_name" v="Stormyrene" />
		<tag k="name" v="Storroa" />
		<tag k="natural" v="wetland" />
		<tag k="ssr:stedsnr" v="267452" />
	</node>
	<node id="-376994" lat="61.4346250029" lon="10.4399027776">
		<tag k="name" v="Furuhaugmyra" />
		<tag k="natural" v="wetland" />
		<tag k="ssr:stedsnr" v="919339" />
	</node>
	<node id="-376471" lat="61.5641361148" lon="10.0837277863">
		<tag k="historic" v="shieling" />
		<tag k="name" v="Bergomseter" />
		<tag k="place" v="locality" />
		<tag k="ssr:stedsnr" v="240709" />
	</node>
	<node id="-378001" lat="61.663411115" lon="10.110805553">
		<tag k="name" v="Stormyra" />
		<tag k="natural" v="wetland" />
		<tag k="ssr:stedsnr" v="799989" />
	</node>
	<node id="-377486" lat="61.5927027786" lon="10.3091277817">
		<tag k="alt_name" v="Kveinnslåmyrene" />
		<tag k="name" v="Kvannslåmyrin" />
		<tag k="natural" v="wetland" />
		<tag k="ssr:stedsnr" v="313821" />
	</node>
	<node id="-376969" lat="61.4714333308" lon="10.2589972131">
		<tag k="name" v="Myrstigen" />
		<tag k="place" v="locality" />
		<tag k="ssr:stedsnr" v="767310" />
	</node>
	<node id="-377793" lat="61.5150583358" lon="10.6634305556">
		<tag k="landuse" v="meadow" />
		<tag k="name" v="Syltslåtta" />
		<tag k="ssr:stedsnr" v="585984" />
	</node>
	<node id="-377984" lat="61.4131999984" lon="9.99078889653">
		<tag k="alt_name" v="Røgnmyrin" />
		<tag k="name" v="Røgnmyra" />
		<tag k="natural" v="wetland" />
		<tag k="ssr:stedsnr" v="797917" />
	</node>
	<node id="-376443" lat="61.5322583323" lon="10.6157083266">
		<tag k="name" v="Rønningsmyra" />
		<tag k="natural" v="wetland" />
		<tag k="ssr:stedsnr" v="282986" />
	</node>
	<node id="-376441" lat="61.4490777759" lon="10.6114194375">
		<tag k="name" v="Bakkeslærne" />
		<tag k="place" v="locality" />
		<tag k="ssr:stedsnr" v="282967" />
	</node>
	<node id="-376952" lat="61.4259611134" lon="10.4183833365">
		<tag k="name" v="Gumpemyra" />
		<tag k="natural" v="wetland" />
		<tag k="ssr:stedsnr" v="902386" />
	</node>
	<node id="-376949" lat="61.5900416697" lon="10.0384472139">
		<tag k="name" v="Kirkegårdsvollan" />
>>>>>>> e1d4bc35ff8a6074a6f2e91616a996b547c36f15
		<tag k="place" v="locality" />
		<tag k="ssr:stedsnr" v="720968" />
	</node>
<<<<<<< HEAD
	<node lat="61.55122778130719" lon="10.138972218786916" id="-23172">
		<tag k="name" v="Kolflata" />
		<tag k="place" v="locality" />
		<tag k="ssr:stedsnr" v="282182" />
	</node>
	<node lat="61.464091663719614" lon="10.409794451717302" id="-23175">
		<tag k="name" v="Følmyra" />
		<tag k="natural" v="wetland" />
		<tag k="ssr:stedsnr" v="282589" />
	</node>
	<node lat="61.53996666792598" lon="10.054686112021324" id="-23201">
		<tag k="name" v="Nilsvollen" />
		<tag k="place" v="locality" />
		<tag k="ssr:stedsnr" v="300669" />
	</node>
	<node lat="61.51572221840982" lon="10.354966675397822" id="-23215">
		<tag k="name" v="Stormyra" />
		<tag k="natural" v="wetland" />
		<tag k="ssr:stedsnr" v="313218" />
	</node>
	<node lat="61.43281944394392" lon="10.444152779211993" id="-23242">
		<tag k="name" v="Furuhaugmyra" />
		<tag k="place" v="locality" />
		<tag k="ssr:stedsnr" v="342551" />
	</node>
	<node lat="61.56776667046404" lon="10.280049997837757" id="-23251">
		<tag k="name" v="Stormyra" />
		<tag k="natural" v="wetland" />
		<tag k="ssr:stedsnr" v="342426" />
	</node>
	<node lat="61.53893055932045" lon="10.10938333619436" id="-23257">
		<tag k="name" v="Innleggen" />
		<tag k="place" v="locality" />
		<tag k="ssr:stedsnr" v="342683" />
	</node>
	<node lat="61.528291665296926" lon="10.593300003632297" id="-23269">
		<tag k="name" v="Buvollen" />
		<tag k="place" v="locality" />
		<tag k="ssr:stedsnr" v="342937" />
	</node>
	<node lat="61.41741666781307" lon="10.205841659860758" id="-23280">
		<tag k="name" v="Utlandet" />
		<tag k="place" v="locality" />
		<tag k="ssr:stedsnr" v="361819" />
	</node>
	<node lat="61.48750277554649" lon="10.274244446296398" id="-23296">
		<tag k="alt_name" v="Gardbugmyra" />
		<tag k="name" v="Gardbogmyra" />
		<tag k="natural" v="wetland" />
		<tag k="ssr:stedsnr" v="372546" />
	</node>
	<node lat="61.491052776681194" lon="10.228841658801487" id="-23297">
		<tag k="name" v="Langmyra" />
		<tag k="natural" v="wetland" />
		<tag k="ssr:stedsnr" v="372548" />
	</node>
	<node lat="61.54081110778288" lon="10.376225004608713" id="-23307">
		<tag k="alt_name" v="Grossmyra" />
		<tag k="name" v="Grosmyra" />
		<tag k="natural" v="wetland" />
		<tag k="ssr:stedsnr" v="373241" />
	</node>
	<node lat="61.54721110806172" lon="10.23347500643185" id="-23342">
		<tag k="name" v="Nyhamn" />
		<tag k="place" v="locality" />
		<tag k="ssr:stedsnr" v="403023" />
	</node>
	<node lat="61.50966111447564" lon="10.638663894415476" id="-23365">
		<tag k="landuse" v="meadow" />
		<tag k="name" v="Stenumgardsliua" />
		<tag k="ssr:stedsnr" v="403992" />
	</node>
	<node lat="61.4884972192809" lon="10.344713890487789" id="-23422">
		<tag k="name" v="Åsmyra" />
=======
	<node id="-377459" lat="61.5399666679" lon="10.054686112">
		<tag k="name" v="Nilsvollen" />
		<tag k="place" v="locality" />
		<tag k="ssr:stedsnr" v="300669" />
	</node>
	<node id="-377970" lat="61.4732499971" lon="10.5600666594">
		<tag k="name" v="Raudmyra" />
		<tag k="natural" v="wetland" />
		<tag k="ssr:stedsnr" v="797345" />
	</node>
	<node id="-376431" lat="61.5057500012" lon="10.0813194387">
		<tag k="historic" v="shieling" />
		<tag k="name" v="Veslestulen" />
		<tag k="place" v="locality" />
		<tag k="ssr:stedsnr" v="282698" />
	</node>
	<node id="-376430" lat="61.5170611102" lon="10.2549555517">
		<tag k="historic" v="shieling" />
		<tag k="name" v="Byttingstulen" />
		<tag k="place" v="locality" />
		<tag k="ssr:stedsnr" v="282683" />
	</node>
	<node id="-377277" lat="61.6366249994" lon="10.2506166709">
		<tag k="alt_name" v="Flågåmyrene" />
		<tag k="name" v="Flågåmyrin" />
		<tag k="natural" v="wetland" />
		<tag k="ssr:stedsnr" v="71784" />
	</node>
	<node id="-376940" lat="61.6078222247" lon="10.6007527739">
		<tag k="name" v="Veslehessa" />
		<tag k="place" v="locality" />
		<tag k="ssr:stedsnr" v="889785" />
	</node>
	<node id="-376425" lat="61.4640916637" lon="10.4097944517">
		<tag k="name" v="Følmyra" />
		<tag k="natural" v="wetland" />
		<tag k="ssr:stedsnr" v="282589" />
	</node>
	<node id="-376424" lat="61.4638555578" lon="10.4286083331">
		<tag k="name" v="Ulvemyra" />
		<tag k="natural" v="wetland" />
		<tag k="ssr:stedsnr" v="282581" />
	</node>
	<node id="-376252" lat="61.5008972224" lon="10.1567416606">
		<tag k="name" v="Storvollen" />
		<tag k="place" v="locality" />
		<tag k="ssr:stedsnr" v="39976" />
	</node>
	<node id="-376337" lat="61.4025722255" lon="10.101872224">
		<tag k="name" v="Båtstein" />
		<tag k="natural" v="stone" />
		<tag k="ssr:stedsnr" v="256480" />
	</node>
	<node id="-377949" lat="61.470580552" lon="10.5671055648">
		<tag k="name" v="Stakkstengene" />
		<tag k="place" v="locality" />
		<tag k="ssr:stedsnr" v="769209" />
	</node>
	<node id="-376408" lat="61.4466472213" lon="10.2853472177">
		<tag k="historic" v="shieling" />
		<tag k="name" v="Byttingsstulen" />
		<tag k="place" v="locality" />
		<tag k="ssr:stedsnr" v="282231" />
	</node>
	<node id="-376406" lat="61.5512277813" lon="10.1389722188">
		<tag k="name" v="Kolflata" />
		<tag k="place" v="locality" />
		<tag k="ssr:stedsnr" v="282182" />
	</node>
	<node id="-377929" lat="61.5318222263" lon="10.3377027762">
		<tag k="landuse" v="meadow" />
		<tag k="name" v="Breivollene" />
		<tag k="ssr:stedsnr" v="767690" />
	</node>
	<node id="-376392" lat="61.5050555524" lon="10.2792694509">
		<tag k="name" v="Fagerlimyrene" />
>>>>>>> e1d4bc35ff8a6074a6f2e91616a996b547c36f15
		<tag k="natural" v="wetland" />
		<tag k="ssr:stedsnr" v="160656" />
	</node>
<<<<<<< HEAD
	<node lat="61.39094444015542" lon="10.299783327913229" id="-23429">
		<tag k="name" v="Nygrindteigen" />
		<tag k="place" v="locality" />
		<tag k="ssr:stedsnr" v="524253" />
	</node>
	<node lat="61.39851110742939" lon="10.333483328262808" id="-23430">
		<tag k="name" v="Holsbekkmyra" />
		<tag k="natural" v="wetland" />
		<tag k="ssr:stedsnr" v="524255" />
	</node>
	<node lat="61.4959249965364" lon="10.102794443633533" id="-23489">
		<tag k="name" v="Myrene" />
		<tag k="natural" v="wetland" />
		<tag k="ssr:stedsnr" v="584758" />
	</node>
	<node lat="61.51735000386176" lon="10.582355558755234" id="-23494">
		<tag k="landuse" v="meadow" />
		<tag k="name" v="Ivarslåa" />
		<tag k="ssr:stedsnr" v="584969" />
	</node>
	<node lat="61.50677777432574" lon="10.573461119595144" id="-23495">
		<tag k="name" v="Løsneslykkjeslåtten" />
		<tag k="place" v="locality" />
		<tag k="ssr:stedsnr" v="584974" />
	</node>
	<node lat="61.49189166332912" lon="10.166552779093946" id="-23497">
		<tag k="name" v="Storvollen" />
		<tag k="place" v="locality" />
		<tag k="ssr:stedsnr" v="584987" />
	</node>
	<node lat="61.71096944222149" lon="10.571608336741862" id="-23504">
		<tag k="landuse" v="meadow" />
		<tag k="name" v="Slåa" />
		<tag k="ssr:stedsnr" v="585766" />
	</node>
	<node lat="61.43227778099323" lon="10.464224994838133" id="-23505">
		<tag k="name" v="Hemromsmyra" />
		<tag k="natural" v="wetland" />
		<tag k="ssr:stedsnr" v="585579" />
	</node>
	<node lat="61.51505833578256" lon="10.663430555636436" id="-23507">
		<tag k="landuse" v="meadow" />
		<tag k="name" v="Syltslåtta" />
		<tag k="ssr:stedsnr" v="585984" />
	</node>
	<node lat="61.38017778126743" lon="10.187822218180907" id="-23555">
		<tag k="name" v="Slåttan" />
		<tag k="place" v="locality" />
		<tag k="ssr:stedsnr" v="645749" />
	</node>
	<node lat="61.56955000398536" lon="10.319808335206343" id="-23557">
		<tag k="name" v="Kolstadmyra" />
		<tag k="natural" v="wetland" />
		<tag k="ssr:stedsnr" v="645720" />
	</node>
	<node lat="61.46089722005836" lon="10.474424997811331" id="-23585">
		<tag k="alt_name" v="Måsemyra" />
		<tag k="name" v="Måsåmyra" />
		<tag k="natural" v="wetland" />
		<tag k="ssr:stedsnr" v="736353" />
	</node>
	<node lat="61.55721388554605" lon="10.600725007149611" id="-23607">
		<tag k="name" v="Endsætermyra" />
		<tag k="natural" v="wetland" />
		<tag k="ssr:stedsnr" v="752484" />
	</node>
	<node lat="61.44448055204465" lon="10.104097215853788" id="-23610">
		<tag k="historic" v="shieling" />
		<tag k="name" v="Gammelsætra" />
		<tag k="place" v="locality" />
		<tag k="ssr:stedsnr" v="756828" />
	</node>
	<node lat="61.607822224686885" lon="10.600752773868278" id="-23620">
		<tag k="name" v="Veslehessa" />
		<tag k="place" v="locality" />
		<tag k="ssr:stedsnr" v="889785" />
	</node>
	<node lat="61.53182222634736" lon="10.337702776194357" id="-23631">
		<tag k="landuse" v="meadow" />
		<tag k="name" v="Breivollene" />
		<tag k="ssr:stedsnr" v="767690" />
	</node>
	<node lat="61.62987778224187" lon="10.016052785005142" id="-23645">
		<tag k="name" v="Dokkstulen" />
		<tag k="place" v="locality" />
		<tag k="ssr:stedsnr" v="767857" />
	</node>
	<node lat="61.47324999714742" lon="10.560066659387475" id="-23673">
		<tag k="name" v="Raudmyra" />
		<tag k="natural" v="wetland" />
		<tag k="ssr:stedsnr" v="797345" />
	</node>
	<node lat="61.57021944444173" lon="10.200902784346903" id="-23686">
		<tag k="name" v="Fålåmyra" />
		<tag k="natural" v="wetland" />
		<tag k="ssr:stedsnr" v="799805" />
	</node>
	<node lat="61.54126388587512" lon="10.31406388346005" id="-23712">
		<tag k="name" v="Veslemyra" />
		<tag k="natural" v="wetland" />
		<tag k="ssr:stedsnr" v="828651" />
	</node>
	<node lat="61.52523888701308" lon="10.237541672641004" id="-23713">
		<tag k="historic" v="shieling" />
		<tag k="name" v="Godtnoksætra" />
		<tag k="place" v="locality" />
		<tag k="ssr:stedsnr" v="828657" />
	</node>
	<node lat="61.50991944375184" lon="10.219672226887317" id="-23721">
		<tag k="name" v="Svartmorka" />
		<tag k="place" v="locality" />
		<tag k="ssr:stedsnr" v="828884" />
	</node>
	<node lat="61.61395000011878" lon="10.12210000553758" id="-23750">
		<tag k="alt_name" v="Jernholtmyra" />
		<tag k="name" v="Jønnhaltmyra" />
		<tag k="natural" v="wetland" />
		<tag k="ssr:stedsnr" v="860781" />
	</node>
	<node lat="61.51756944730225" lon="10.43071389384864" id="-23771">
		<tag k="landuse" v="meadow" />
		<tag k="name" v="Kringleslåa" />
		<tag k="ssr:stedsnr" v="888911" />
	</node>
	<node lat="61.48545277997734" lon="10.17233611063409" id="-23775">
		<tag k="name" v="Elstadvollen" />
		<tag k="place" v="locality" />
		<tag k="ssr:stedsnr" v="888978" />
	</node>
	<node lat="61.54800833540547" lon="10.620011103716124" id="-23790">
		<tag k="alt_name" v="Bjørnhusmyra" />
		<tag k="name" v="Bjorhusmyrene" />
		<tag k="natural" v="wetland" />
		<tag k="ssr:stedsnr" v="935527" />
	</node>
	<node lat="61.46427777896849" lon="10.290238891127007" id="-23799">
		<tag k="name" v="Høyvang" />
		<tag k="place" v="locality" />
		<tag k="ssr:stedsnr" v="949301" />
	</node>
	<node lat="61.542294441038436" lon="10.10550000092622" id="-23805">
		<tag k="name" v="Klopplykkja" />
		<tag k="place" v="locality" />
		<tag k="ssr:stedsnr" v="949562" />
	</node>
	<node lat="61.54472499823078" lon="10.102988889631701" id="-23816">
		<tag k="name" v="Langjordet" />
		<tag k="place" v="locality" />
		<tag k="ssr:stedsnr" v="949711" />
	</node>
	<node lat="61.516216663260316" lon="10.66761667009149" id="-23819">
		<tag k="landuse" v="meadow" />
		<tag k="name" v="Nordrumsliua" />
		<tag k="ssr:stedsnr" v="949987" />
	</node>
	<node lat="61.47535555406084" lon="10.18548055937539" id="-23821">
		<tag k="name" v="Trøstakervollene" />
		<tag k="place" v="locality" />
		<tag k="ssr:stedsnr" v="950000" />
=======
	<node id="-376903" lat="61.48545278" lon="10.1723361106">
		<tag k="name" v="Elstadvollen" />
		<tag k="place" v="locality" />
		<tag k="ssr:stedsnr" v="888978" />
	</node>
	<node id="-377022" lat="61.4225388926" lon="10.2024416728">
		<tag k="name" v="Tuvvollen" />
		<tag k="place" v="locality" />
		<tag k="ssr:stedsnr" v="786806" />
	</node>
	<node id="-377056" lat="61.4098583304" lon="10.3006416714">
		<tag k="name" v="Hjellmyra" />
		<tag k="natural" v="wetland" />
		<tag k="ssr:stedsnr" v="858904" />
	</node>
	<node id="-377920" lat="61.444480552" lon="10.1040972159">
		<tag k="historic" v="shieling" />
		<tag k="name" v="Gammelsætra" />
		<tag k="place" v="locality" />
		<tag k="ssr:stedsnr" v="756828" />
	</node>
	<node id="-376382" lat="61.4221333337" lon="10.3184666661">
		<tag k="name" v="Sylthaugmyra" />
		<tag k="natural" v="wetland" />
		<tag k="ssr:stedsnr" v="160272" />
	</node>
	<node id="-377917" lat="61.5572138855" lon="10.6007250071">
		<tag k="name" v="Endsætermyra" />
		<tag k="natural" v="wetland" />
		<tag k="ssr:stedsnr" v="752484" />
	</node>
	<node id="-376379" lat="61.5772972202" lon="10.1202972228">
		<tag k="name" v="Hellmyra" />
		<tag k="natural" v="wetland" />
		<tag k="ssr:stedsnr" v="160003" />
	</node>
	<node id="-377386" lat="61.4893499966" lon="10.3198305536">
		<tag k="name" v="Skotten sæterrast" />
		<tag k="place" v="locality" />
		<tag k="ssr:stedsnr" v="160290" />
	</node>
	<node id="-377383" lat="61.5763638913" lon="10.0839638983">
		<tag k="name" v="Skardmyra" />
		<tag k="natural" v="wetland" />
		<tag k="ssr:stedsnr" v="147996" />
	</node>
	<node id="-376870" lat="61.4608972201" lon="10.4744249978">
		<tag k="alt_name" v="Måsemyra" />
		<tag k="name" v="Måsåmyra" />
		<tag k="natural" v="wetland" />
		<tag k="ssr:stedsnr" v="736353" />
	</node>
	<node id="-376357" lat="61.4547861133" lon="10.5277805526">
		<tag k="name" v="Goppollmyrene" />
		<tag k="natural" v="wetland" />
		<tag k="ssr:stedsnr" v="130333" />
	</node>
	<node id="-376863" lat="61.4943472258" lon="10.34789167">
		<tag k="name" v="Åsmyra" />
		<tag k="natural" v="wetland" />
		<tag k="ssr:stedsnr" v="645696" />
	</node>
	<node id="-376852" lat="61.5234166662" lon="10.1893305463">
		<tag k="historic" v="shieling" />
		<tag k="name" v="Nyberg" />
		<tag k="place" v="locality" />
		<tag k="ssr:stedsnr" v="725907" />
	</node>
	<node id="-377873" lat="61.5282361116" lon="10.6373166612">
		<tag k="landuse" v="meadow" />
		<tag k="name" v="Torsgardsslåtta" />
		<tag k="ssr:stedsnr" v="645974" />
	</node>
	<node id="-377356" lat="61.6842472255" lon="10.5838388919">
		<tag k="alt_name" v="Hellakmyrene" />
		<tag k="name" v="Helakmyrene" />
		<tag k="natural" v="wetland" />
		<tag k="ssr:stedsnr" v="131157" />
	</node>
	<node id="-377865" lat="61.4590972252" lon="10.1997500035">
		<tag k="name" v="Flyaosa" />
		<tag k="place" v="locality" />
		<tag k="ssr:stedsnr" v="645404" />
	</node>
	<node id="-376328" lat="61.4514555538" lon="10.0849083331">
		<tag k="landuse" v="meadow" />
		<tag k="name" v="Svangvollane" />
		<tag k="ssr:stedsnr" v="100404" />
	</node>
	<node id="-377862" lat="61.6096944482" lon="10.1433388901">
		<tag k="name" v="Megardsmyra" />
		<tag k="natural" v="wetland" />
		<tag k="ssr:stedsnr" v="645376" />
	</node>
	<node id="-377861" lat="61.4724222193" lon="10.2594305537">
		<tag k="name" v="Gardbogen" />
		<tag k="place" v="locality" />
		<tag k="ssr:stedsnr" v="645306" />
>>>>>>> e1d4bc35ff8a6074a6f2e91616a996b547c36f15
	</node>
</osm>
