<?xml version="1.0" encoding="UTF-8"?>
<<<<<<< HEAD
<osm version="0.6" generator="osmapis">
	<node lat="61.4604166708904" lon="10.471605548048922" id="-21890">
		<tag k="name" v="Veslskarva" />
		<tag k="ssr:stedsnr" v="8393" />
		<tag k="waterway" v="stream" />
	</node>
	<node lat="61.46459722461469" lon="10.602841660314853" id="-21891">
		<tag k="name" v="Steinslåtjønnet" />
		<tag k="natural" v="water" />
		<tag k="ssr:stedsnr" v="8396" />
	</node>
	<node lat="61.3993634674122" lon="10.074122356144375" id="-21901">
		<tag k="name" v="Svartvatnet" />
		<tag k="natural" v="water" />
		<tag k="ssr:stedsnr" v="8897" />
		<tag k="water" v="lake" />
	</node>
	<node lat="61.42110833654308" lon="10.429747214628552" id="-21902">
		<tag k="name" v="Turrhaugtjønnet" />
		<tag k="natural" v="water" />
		<tag k="ssr:stedsnr" v="9303" />
	</node>
	<node lat="61.41650555816722" lon="10.465244435602942" id="-21903">
		<tag k="name" v="Vesltromsa" />
		<tag k="ssr:stedsnr" v="9305" />
		<tag k="waterway" v="stream" />
	</node>
	<node lat="61.41080833326311" lon="10.39212222075774" id="-21904">
		<tag k="name" v="Blomtjønnet" />
		<tag k="natural" v="water" />
		<tag k="ssr:stedsnr" v="9313" />
	</node>
	<node lat="61.573125002153354" lon="10.141866672046799" id="-21910">
		<tag k="alt_name" v="Kveinnholsbekken" />
		<tag k="name" v="Kvannholsbekken" />
		<tag k="ssr:stedsnr" v="10803" />
		<tag k="waterway" v="stream" />
	</node>
	<node lat="61.563775000184066" lon="10.201302783309645" id="-21921">
		<tag k="name" v="Rotbekken" />
		<tag k="ssr:stedsnr" v="39007" />
		<tag k="waterway" v="stream" />
	</node>
	<node lat="61.44846389238251" lon="10.428133328081914" id="-21924">
		<tag k="name" v="Veslestulsbekken" />
		<tag k="ssr:stedsnr" v="39537" />
		<tag k="waterway" v="stream" />
	</node>
	<node lat="61.57938611198181" lon="10.10397222013759" id="-21926">
		<tag k="name" v="Kaldvassbekken" />
		<tag k="ssr:stedsnr" v="39607" />
		<tag k="waterway" v="stream" />
	</node>
	<node lat="61.49205000196557" lon="10.05383610698554" id="-21941">
		<tag k="name" v="Gullhaugtjønnet" />
		<tag k="natural" v="water" />
		<tag k="ssr:stedsnr" v="52301" />
	</node>
	<node lat="61.67754166434121" lon="10.103900004011921" id="-21945">
		<tag k="name" v="Øygardsbekken" />
		<tag k="ssr:stedsnr" v="58877" />
		<tag k="waterway" v="stream" />
	</node>
	<node lat="61.67631389329544" lon="10.059902785871522" id="-21946">
		<tag k="alt_name" v="Kveinndalsvika" />
		<tag k="name" v="Kvanndalsvika" />
		<tag k="natural" v="bay" />
		<tag k="ssr:stedsnr" v="58893" />
	</node>
	<node lat="61.41611110960866" lon="10.161083338295837" id="-21947">
		<tag k="name" v="Bystadbekken" />
		<tag k="ssr:stedsnr" v="58773" />
		<tag k="waterway" v="stream" />
	</node>
	<node lat="61.67738610766039" lon="10.09551665880395" id="-21955">
		<tag k="name" v="Storrtjønn" />
		<tag k="natural" v="water" />
		<tag k="ssr:stedsnr" v="240872" />
	</node>
	<node lat="61.400366668829" lon="9.99381110909185" id="-21960">
		<tag k="alt_name" v="Skjellbreida" />
		<tag k="name" v="Skjellbreia" />
		<tag k="natural" v="water" />
		<tag k="ssr:stedsnr" v="68911" />
	</node>
	<node lat="61.443455553068326" lon="10.48191944328524" id="-21964">
		<tag k="name" v="Spranget" />
		<tag k="natural" v="waterfall" />
		<tag k="ssr:stedsnr" v="69383" />
	</node>
	<node lat="61.41663333031048" lon="10.010499991767139" id="-21965">
		<tag k="name" v="Lorttjønnet" />
		<tag k="natural" v="water" />
		<tag k="ssr:stedsnr" v="69928" />
	</node>
	<node lat="61.692413890498486" lon="10.155141666194478" id="-21967">
		<tag k="name" v="Mykjørrtjønnet" />
		<tag k="natural" v="water" />
		<tag k="ssr:stedsnr" v="70971" />
	</node>
	<node lat="61.72515277465444" lon="10.606099993404207" id="-21971">
		<tag k="name" v="Skardbekken" />
		<tag k="ssr:stedsnr" v="71214" />
		<tag k="waterway" v="stream" />
	</node>
	<node lat="61.728691668645766" lon="10.138311116086214" id="-21975">
		<tag k="name" v="Ramstjønnet" />
		<tag k="natural" v="water" />
		<tag k="ssr:stedsnr" v="71970" />
	</node>
	<node lat="61.655650003983666" lon="10.132183339710544" id="-21979">
		<tag k="name" v="Mya" />
		<tag k="ssr:stedsnr" v="71991" />
		<tag k="waterway" v="river" />
	</node>
	<node lat="61.70111389132525" lon="10.580377779709433" id="-21982">
		<tag k="alt_name" v="Hølbekken" />
		<tag k="name" v="Holbekken" />
		<tag k="ssr:stedsnr" v="85427" />
		<tag k="waterway" v="stream" />
	</node>
	<node lat="61.59501944870761" lon="10.17344723008558" id="-21989">
		<tag k="name" v="Fremre Kollbekken" />
		<tag k="ssr:stedsnr" v="100121" />
		<tag k="waterway" v="stream" />
	</node>
	<node lat="61.598599997350696" lon="10.18931945136156" id="-21991">
		<tag k="name" v="Storheggslåbekken" />
		<tag k="ssr:stedsnr" v="100063" />
		<tag k="waterway" v="stream" />
	</node>
	<node lat="61.420863887199815" lon="10.282202786468208" id="-21993">
		<tag k="name" v="Storrputten" />
		<tag k="natural" v="water" />
		<tag k="ssr:stedsnr" v="100282" />
	</node>
	<node lat="61.506272222693234" lon="10.246569452389231" id="-21997">
		<tag k="name" v="Loesæterbekken" />
		<tag k="ssr:stedsnr" v="100661" />
		<tag k="waterway" v="stream" />
	</node>
	<node lat="61.518472221033605" lon="10.242344449055574" id="-21998">
		<tag k="name" v="Ølløvtjønnbekken" />
		<tag k="ssr:stedsnr" v="100672" />
		<tag k="waterway" v="stream" />
	</node>
	<node lat="61.393236113091916" lon="9.948355561370223" id="-22010">
		<tag k="name" v="Øvre Gardtjønnet" />
		<tag k="natural" v="water" />
		<tag k="ssr:stedsnr" v="250375" />
	</node>
	<node lat="61.38768888921738" lon="10.117052777036255" id="-22012">
		<tag k="name" v="Bårdstjønnet" />
		<tag k="natural" v="water" />
		<tag k="ssr:stedsnr" v="250870" />
	</node>
	<node lat="61.38274722661556" lon="10.130538888933346" id="-22013">
		<tag k="name" v="Kroktjønnet" />
		<tag k="natural" v="water" />
		<tag k="ssr:stedsnr" v="250872" />
	</node>
	<node lat="61.462244448779636" lon="10.103958342209934" id="-22020">
		<tag k="name" v="Bjørnlitjønnet" />
		<tag k="natural" v="water" />
		<tag k="ssr:stedsnr" v="251638" />
	</node>
	<node lat="61.460158329373606" lon="10.089530559815177" id="-22025">
		<tag k="name" v="Raudskuttjønnet" />
		<tag k="natural" v="water" />
		<tag k="ssr:stedsnr" v="251587" />
	</node>
	<node lat="61.48985277573075" lon="10.316338896464055" id="-22043">
		<tag k="name" v="Kroktjønn" />
		<tag k="natural" v="water" />
		<tag k="ssr:stedsnr" v="130496" />
	</node>
	<node lat="61.535344446947896" lon="10.084580553386644" id="-22052">
		<tag k="name" v="Risøya" />
		<tag k="place" v="islet" />
		<tag k="ssr:stedsnr" v="131881" />
	</node>
	<node lat="61.528591669839386" lon="10.244958341156792" id="-22054">
		<tag k="name" v="Ølløvtjønnet" />
		<tag k="natural" v="water" />
		<tag k="ssr:stedsnr" v="131887" />
	</node>
	<node lat="61.628274996441384" lon="10.31691388803676" id="-22055">
		<tag k="name" v="Remma" />
		<tag k="ssr:stedsnr" v="131765" />
		<tag k="waterway" v="river" />
	</node>
	<node lat="61.702036112039096" lon="9.987333328855277" id="-22059">
		<tag k="name" v="Koiebekken" />
		<tag k="ssr:stedsnr" v="131974" />
		<tag k="waterway" v="stream" />
	</node>
	<node lat="61.69924381847187" lon="10.12786042496054" id="-22062">
		<tag k="name" v="Bølvatnet" />
		<tag k="natural" v="water" />
		<tag k="ssr:stedsnr" v="131980" />
		<tag k="water" v="lake" />
	</node>
	<node lat="61.676550000516805" lon="10.292363896961232" id="-22064">
		<tag k="name" v="Stulsbekken" />
		<tag k="ssr:stedsnr" v="131985" />
		<tag k="waterway" v="stream" />
	</node>
	<node lat="61.54592500074456" lon="10.207416671859905" id="-22068">
		<tag k="name" v="Ulveslåbekken" />
		<tag k="ssr:stedsnr" v="252794" />
		<tag k="waterway" v="stream" />
	</node>
	<node lat="61.53801389147839" lon="10.307766665326128" id="-22069">
		<tag k="name" v="Jenstjønnet" />
		<tag k="natural" v="water" />
		<tag k="ssr:stedsnr" v="252806" />
	</node>
	<node lat="61.590416670602" lon="10.458155554885492" id="-22077">
		<tag k="name" v="Indre Breitjønnet" />
		<tag k="natural" v="water" />
		<tag k="ssr:stedsnr" v="253165" />
	</node>
	<node lat="61.72373611199675" lon="10.03045556236591" id="-22079">
		<tag k="name" v="Svartåa" />
		<tag k="ssr:stedsnr" v="253954" />
		<tag k="waterway" v="river" />
	</node>
	<node lat="61.6750194469559" lon="10.0688444448454" id="-22091">
		<tag k="name" v="Haugalandet" />
		<tag k="natural" v="beach" />
		<tag k="ssr:stedsnr" v="179872" />
	</node>
	<node lat="61.41228055722133" lon="10.406580558361" id="-22102">
		<tag k="name" v="Langtjønnet" />
		<tag k="natural" v="water" />
		<tag k="ssr:stedsnr" v="191302" />
	</node>
	<node lat="61.63216944376409" lon="10.482891669184859" id="-22106">
		<tag k="name" v="Grønfjelltjønnet" />
		<tag k="natural" v="water" />
		<tag k="ssr:stedsnr" v="267450" />
	</node>
	<node lat="61.653683334761986" lon="10.108516666392036" id="-22109">
		<tag k="name" v="Søre Fiskeløysa" />
		<tag k="natural" v="water" />
		<tag k="ssr:stedsnr" v="204098" />
	</node>
	<node lat="61.73703055312932" lon="10.066944435450823" id="-22110">
		<tag k="name" v="Storlon" />
		<tag k="natural" v="water" />
		<tag k="ssr:stedsnr" v="208976" />
		<tag k="water" v="lake" />
	</node>
	<node lat="61.400766667819106" lon="10.272622214586454" id="-22119">
		<tag k="name" v="Spjøtsbekken" />
		<tag k="ssr:stedsnr" v="221386" />
		<tag k="waterway" v="stream" />
	</node>
	<node lat="61.515536114950294" lon="10.378316667437876" id="-22129">
		<tag k="name" v="Langbekken" />
		<tag k="ssr:stedsnr" v="221883" />
		<tag k="waterway" v="stream" />
	</node>
	<node lat="61.454236114182905" lon="10.50628610905013" id="-22131">
		<tag k="name" v="Gomphølen" />
		<tag k="place" v="locality" />
		<tag k="ssr:stedsnr" v="221885" />
	</node>
	<node lat="61.68595555596269" lon="10.005422221353022" id="-22136">
		<tag k="name" v="Hellbekken" />
		<tag k="ssr:stedsnr" v="451980" />
		<tag k="waterway" v="stream" />
	</node>
	<node lat="61.50868888838628" lon="10.155419449439481" id="-22144">
		<tag k="name" v="Olstadøya" />
		<tag k="place" v="islet" />
		<tag k="ssr:stedsnr" v="253883" />
	</node>
	<node lat="61.57276619672543" lon="10.66487149514707" id="-22148">
		<tag k="alt_name" v="Famptjørnet" />
		<tag k="name" v="Famptjønna" />
		<tag k="natural" v="water" />
		<tag k="ssr:stedsnr" v="267419" />
	</node>
	<node lat="61.65915833130332" lon="10.075425000471752" id="-22150">
		<tag k="name" v="Friskegreina" />
		<tag k="ssr:stedsnr" v="277816" />
		<tag k="waterway" v="stream" />
	</node>
	<node lat="61.49041111053192" lon="10.027644445864604" id="-22173">
		<tag k="name" v="Veslegompen" />
		<tag k="natural" v="bay" />
		<tag k="ssr:stedsnr" v="288202" />
	</node>
	<node lat="61.58331111199322" lon="10.09858333339971" id="-22182">
		<tag k="name" v="Åborsjøbekken" />
		<tag k="ssr:stedsnr" v="463649" />
		<tag k="waterway" v="stream" />
	</node>
	<node lat="61.41697777733895" lon="10.21523055438416" id="-22185">
		<tag k="name" v="Kringeløya" />
		<tag k="place" v="islet" />
		<tag k="ssr:stedsnr" v="300809" />
	</node>
	<node lat="61.463322219437856" lon="10.507950003339712" id="-22198">
		<tag k="name" v="Vetåkroken" />
		<tag k="natural" v="water" />
		<tag k="ssr:stedsnr" v="463929" />
		<tag k="water" v="lake" />
	</node>
	<node lat="61.48638888982265" lon="10.550302775529714" id="-22201">
		<tag k="name" v="Fremre Trolldalsbekken" />
		<tag k="ssr:stedsnr" v="464210" />
		<tag k="waterway" v="stream" />
	</node>
	<node lat="61.41800000256194" lon="10.37523055094534" id="-22207">
		<tag k="name" v="Bakkatjønn" />
		<tag k="natural" v="water" />
		<tag k="ssr:stedsnr" v="464580" />
	</node>
	<node lat="61.52205833453991" lon="10.254166671698467" id="-22210">
		<tag k="name" v="Mårråbettjønnet" />
		<tag k="natural" v="water" />
		<tag k="ssr:stedsnr" v="464691" />
	</node>
	<node lat="61.504624223074686" lon="10.665627723940881" id="-22213">
		<tag k="name" v="Øvre Samtjønnet" />
		<tag k="natural" v="water" />
		<tag k="ssr:stedsnr" v="464967" />
	</node>
	<node lat="61.468486108573" lon="10.940038892091405" id="-22215">
		<tag k="name" v="Imsa" />
		<tag k="ssr:stedsnr" v="311491" />
		<tag k="waterway" v="river" />
	</node>
	<node lat="61.62585556002884" lon="10.015936112216952" id="-22229">
=======
<osm generator="osmapis" version="0.6">
	<node id="-376821" lat="61.5488638933" lon="10.3019277751">
		<tag k="name" v="Flybekken" />
		<tag k="ssr:stedsnr" v="584714" />
		<tag k="waterway" v="stream" />
	</node>
	<node id="-376807" lat="61.5091888847" lon="10.5554555512">
		<tag k="name" v="Stulsbekken" />
		<tag k="ssr:stedsnr" v="706957" />
		<tag k="waterway" v="stream" />
	</node>
	<node id="-376789" lat="61.4680027741" lon="10.441419449">
		<tag k="name" v="Storrtjønna" />
		<tag k="natural" v="water" />
		<tag k="ssr:stedsnr" v="706563" />
		<tag k="water" v="pond" />
	</node>
	<node id="-376787" lat="61.5699944439" lon="10.2482666757">
		<tag k="name" v="Sagbekken" />
		<tag k="ssr:stedsnr" v="706462" />
		<tag k="waterway" v="stream" />
	</node>
	<node id="-376780" lat="61.4135805554" lon="10.2895333395">
		<tag k="name" v="Stulsåtjønn" />
		<tag k="natural" v="water" />
		<tag k="ssr:stedsnr" v="706300" />
	</node>
	<node id="-376766" lat="61.7407777812" lon="10.2862527802">
		<tag k="name" v="Grøtørbekken" />
		<tag k="ssr:stedsnr" v="556952" />
		<tag k="waterway" v="stream" />
	</node>
	<node id="-376764" lat="61.5993138912" lon="10.5506444434">
		<tag k="name" v="Åsta" />
		<tag k="ssr:stedsnr" v="556819" />
		<tag k="waterway" v="river" />
	</node>
	<node id="-376763" lat="61.5526000038" lon="10.2586611151">
		<tag k="name" v="Måsåtjønnet" />
		<tag k="natural" v="water" />
		<tag k="ssr:stedsnr" v="556816" />
	</node>
	<node id="-376728" lat="61.5422055569" lon="10.1394333411">
		<tag k="name" v="Våla" />
		<tag k="ssr:stedsnr" v="495854" />
		<tag k="waterway" v="river" />
	</node>
	<node id="-376727" lat="61.5340000014" lon="10.6701444499">
		<tag k="name" v="Samtjønnsbekken" />
		<tag k="ssr:stedsnr" v="495254" />
		<tag k="waterway" v="stream" />
	</node>
	<node id="-376726" lat="61.5327250016" lon="10.5705000078">
		<tag k="name" v="Bubekken" />
		<tag k="ssr:stedsnr" v="495252" />
		<tag k="waterway" v="stream" />
	</node>
	<node id="-376723" lat="61.7186318602" lon="10.1611163086">
		<tag k="name" v="Muvatnet" />
		<tag k="natural" v="water" />
		<tag k="ssr:stedsnr" v="678935" />
		<tag k="water" v="lake" />
	</node>
	<node id="-376721" lat="61.5621833328" lon="10.3039055483">
		<tag k="name" v="Brumsdalsbekken" />
		<tag k="ssr:stedsnr" v="678799" />
		<tag k="waterway" v="stream" />
	</node>
	<node id="-376720" lat="61.5612888902" lon="10.2268944398">
		<tag k="alt_name" v="Hallsteinslibekken" />
		<tag k="name" v="Halsteinslibekken" />
		<tag k="ssr:stedsnr" v="678798" />
		<tag k="waterway" v="stream" />
	</node>
	<node id="-376716" lat="61.6343444419" lon="10.0430055512">
		<tag k="name" v="Svarttippa" />
		<tag k="natural" v="water" />
		<tag k="ssr:stedsnr" v="678000" />
	</node>
	<node id="-376712" lat="61.5278305567" lon="10.2900777723">
		<tag k="name" v="Kvisthustjønnet" />
		<tag k="natural" v="water" />
		<tag k="ssr:stedsnr" v="677850" />
	</node>
	<node id="-376709" lat="61.6310333323" lon="10.4358361151">
		<tag k="name" v="Åsdalstjønna" />
		<tag k="natural" v="water" />
		<tag k="ssr:stedsnr" v="677149" />
	</node>
	<node id="-376706" lat="61.639627776" lon="10.5462083406">
		<tag k="alt_name" v="Botnebekken, vestre;Vestre Bottenbekken" />
		<tag k="name" v="Vestre Botnebekken" />
		<tag k="ssr:stedsnr" v="677140" />
		<tag k="waterway" v="stream" />
	</node>
	<node id="-376699" lat="61.4384249998" lon="10.2434583285">
		<tag k="alt_name" v="Fåa" />
		<tag k="name" v="Nera" />
		<tag k="ssr:stedsnr" v="675948" />
		<tag k="waterway" v="stream" />
	</node>
	<node id="-376686" lat="61.5046242231" lon="10.6656277239">
		<tag k="name" v="Øvre Samtjønnet" />
		<tag k="natural" v="water" />
		<tag k="ssr:stedsnr" v="464967" />
	</node>
	<node id="-376685" lat="61.550094449" lon="10.6513638865">
		<tag k="name" v="Fiskelausvika" />
		<tag k="natural" v="bay" />
		<tag k="ssr:stedsnr" v="464768" />
	</node>
	<node id="-376682" lat="61.4412611123" lon="10.291155564">
		<tag k="name" v="Djupdalsbekken" />
		<tag k="ssr:stedsnr" v="464260" />
		<tag k="waterway" v="stream" />
	</node>
	<node id="-376679" lat="61.4863888898" lon="10.5503027755">
		<tag k="name" v="Fremre Trolldalsbekken" />
		<tag k="ssr:stedsnr" v="464210" />
		<tag k="waterway" v="stream" />
	</node>
	<node id="-376668" lat="61.5309277787" lon="10.1140527705">
		<tag k="name" v="Store Evja" />
		<tag k="natural" v="bay" />
		<tag k="ssr:stedsnr" v="463759" />
	</node>
	<node id="-376659" lat="61.4085527784" lon="10.1993388888">
		<tag k="name" v="Olabakkan" />
		<tag k="ssr:stedsnr" v="664815" />
		<tag k="waterway" v="stream" />
	</node>
	<node id="-376658" lat="61.4187472244" lon="10.218497214">
		<tag k="name" v="Tretterøya" />
		<tag k="place" v="islet" />
		<tag k="ssr:stedsnr" v="664809" />
	</node>
	<node id="-376655" lat="61.4169805556" lon="10.1479222233">
		<tag k="name" v="Svarttjønnbekken" />
		<tag k="ssr:stedsnr" v="664770" />
		<tag k="waterway" v="stream" />
	</node>
	<node id="-376652" lat="61.6420750203" lon="9.97416573673">
		<tag k="name" v="Vollahølen" />
		<tag k="place" v="locality" />
		<tag k="ssr:stedsnr" v="659402" />
	</node>
	<node id="-376651" lat="61.3892805527" lon="9.9699750066">
		<tag k="name" v="Stulstjønn" />
		<tag k="natural" v="water" />
		<tag k="ssr:stedsnr" v="659371" />
	</node>
	<node id="-376643" lat="61.4332138928" lon="10.2892055535">
		<tag k="name" v="Djupdalstjønnet" />
		<tag k="natural" v="water" />
		<tag k="ssr:stedsnr" v="433926" />
	</node>
	<node id="-376641" lat="61.4365611136" lon="10.0266694503">
		<tag k="name" v="Lebbelva" />
		<tag k="ssr:stedsnr" v="433923" />
		<tag k="waterway" v="stream" />
	</node>
	<node id="-376630" lat="61.434708337" lon="10.49426111">
		<tag k="name" v="Goppollbekken" />
		<tag k="ssr:stedsnr" v="511759" />
		<tag k="waterway" v="stream" />
	</node>
	<node id="-376627" lat="61.5218916655" lon="10.2772055647">
		<tag k="name" v="Vesletjønnet" />
		<tag k="natural" v="water" />
		<tag k="ssr:stedsnr" v="403664" />
	</node>
	<node id="-376625" lat="61.5411361118" lon="10.3064888963">
		<tag k="name" v="Geitbekken" />
		<tag k="ssr:stedsnr" v="403660" />
		<tag k="waterway" v="stream" />
	</node>
	<node id="-376624" lat="61.5375833351" lon="10.3162750058">
		<tag k="name" v="Turrtjønnet" />
		<tag k="natural" v="water" />
		<tag k="ssr:stedsnr" v="403659" />
	</node>
	<node id="-376621" lat="61.5211055531" lon="10.4353583366">
		<tag k="name" v="Kringleslåtjønnet" />
		<tag k="natural" v="water" />
		<tag k="ssr:stedsnr" v="403918" />
	</node>
	<node id="-376619" lat="61.4146027764" lon="10.40641111">
		<tag k="name" v="Løken" />
		<tag k="natural" v="bay" />
		<tag k="ssr:stedsnr" v="403553" />
	</node>
	<node id="-376618" lat="61.5473833364" lon="10.0955444488">
		<tag k="name" v="Bølbekken" />
		<tag k="ssr:stedsnr" v="403608" />
		<tag k="waterway" v="stream" />
	</node>
	<node id="-376614" lat="61.5462638891" lon="10.1384083386">
		<tag k="name" v="Vinkelfossen" />
		<tag k="natural" v="waterfall" />
		<tag k="ssr:stedsnr" v="403202" />
	</node>
	<node id="-376605" lat="61.7401083291" lon="10.0716138924">
		<tag k="name" v="Svabubekken" />
		<tag k="ssr:stedsnr" v="374956" />
		<tag k="waterway" v="stream" />
	</node>
	<node id="-376603" lat="61.5280555517" lon="10.3189888917">
		<tag k="alt_name" v="Breida" />
		<tag k="name" v="Breia" />
		<tag k="ssr:stedsnr" v="374866" />
		<tag k="waterway" v="river" />
	</node>
	<node id="-376595" lat="61.5386055588" lon="10.5395694485">
		<tag k="name" v="Gluptjønnet" />
		<tag k="natural" v="water" />
		<tag k="ssr:stedsnr" v="374268" />
	</node>
	<node id="-376593" lat="61.6972799235" lon="10.1520639201">
		<tag k="name" v="Langrumpa" />
		<tag k="natural" v="water" />
		<tag k="ssr:stedsnr" v="373972" />
	</node>
	<node id="-376592" lat="61.5475805544" lon="10.227727777">
		<tag k="name" v="Nyhamnbekken" />
		<tag k="ssr:stedsnr" v="373806" />
		<tag k="waterway" v="stream" />
	</node>
	<node id="-376589" lat="61.408949997" lon="10.2887638839">
		<tag k="name" v="Stulsåa" />
		<tag k="ssr:stedsnr" v="372921" />
		<tag k="waterway" v="stream" />
	</node>
	<node id="-376587" lat="61.4785111138" lon="10.0738000001">
		<tag k="name" v="Skardtjønnet" />
		<tag k="natural" v="water" />
		<tag k="ssr:stedsnr" v="372611" />
	</node>
	<node id="-376583" lat="61.7184111099" lon="10.1351305469">
		<tag k="name" v="Flåtjønnet" />
		<tag k="natural" v="water" />
		<tag k="ssr:stedsnr" v="495958" />
	</node>
	<node id="-376582" lat="61.5656111128" lon="10.2531416677">
		<tag k="name" v="Bustulsbekken" />
		<tag k="ssr:stedsnr" v="495835" />
		<tag k="waterway" v="stream" />
	</node>
	<node id="-376580" lat="61.5788194446" lon="10.1462611031">
		<tag k="name" v="Gluggdalstjønnet" />
		<tag k="natural" v="water" />
		<tag k="ssr:stedsnr" v="495805" />
	</node>
	<node id="-376578" lat="61.744722225" lon="9.85564445191">
		<tag k="name" v="Frya" />
		<tag k="ssr:stedsnr" v="495633" />
		<tag k="waterway" v="river" />
	</node>
	<node id="-376574" lat="61.5150401521" lon="10.49024894">
		<tag k="name" v="Saubutjønna" />
		<tag k="natural" v="water" />
		<tag k="ssr:stedsnr" v="495233" />
		<tag k="water" v="lake" />
	</node>
	<node id="-376572" lat="61.6778444461" lon="10.6366388883">
		<tag k="name" v="Helaktjønna" />
		<tag k="natural" v="water" />
		<tag k="ssr:stedsnr" v="495185" />
	</node>
	<node id="-376571" lat="61.6437416678" lon="10.6064638934">
		<tag k="name" v="Reintjønnet" />
		<tag k="natural" v="water" />
		<tag k="ssr:stedsnr" v="495171" />
	</node>
	<node id="-376570" lat="61.6579916631" lon="10.6081416623">
		<tag k="alt_name" v="Nordre bekken" />
		<tag k="name" v="Nørstbekken" />
		<tag k="ssr:stedsnr" v="495168" />
		<tag k="waterway" v="stream" />
	</node>
	<node id="-376567" lat="61.5897777736" lon="10.4199861174">
		<tag k="name" v="Nørdre Breitjønnet" />
		<tag k="natural" v="water" />
		<tag k="ssr:stedsnr" v="495157" />
	</node>
	<node id="-376566" lat="61.4847083302" lon="10.4218277833">
		<tag k="name" v="Urskardtjønnet" />
		<tag k="natural" v="water" />
		<tag k="ssr:stedsnr" v="494810" />
	</node>
	<node id="-376565" lat="61.4770249971" lon="10.6080611045">
		<tag k="name" v="Steintjønnet" />
		<tag k="natural" v="water" />
		<tag k="ssr:stedsnr" v="494805" />
	</node>
	<node id="-376562" lat="61.4620055582" lon="10.5179416625">
		<tag k="loc_name" v="Tritjønna" />
		<tag k="name" v="Tretjønna" />
		<tag k="natural" v="water" />
		<tag k="ssr:stedsnr" v="494333" />
	</node>
	<node id="-376560" lat="61.4057749963" lon="10.4575166692">
		<tag k="name" v="Vålsdalsbekken" />
		<tag k="ssr:stedsnr" v="494313" />
		<tag k="waterway" v="stream" />
	</node>
	<node id="-376559" lat="61.4154583336" lon="10.3536194428">
		<tag k="name" v="Fennatjønnet" />
		<tag k="natural" v="water" />
		<tag k="ssr:stedsnr" v="494308" />
	</node>
	<node id="-376551" lat="61.3883833318" lon="10.1626416669">
		<tag k="name" v="Slåsætertjønnet" />
		<tag k="natural" v="water" />
		<tag k="ssr:stedsnr" v="493893" />
	</node>
	<node id="-376546" lat="61.5644694426" lon="10.0556083373">
		<tag k="name" v="Svilhølen" />
		<tag k="place" v="locality" />
		<tag k="ssr:stedsnr" v="361707" />
	</node>
	<node id="-376534" lat="61.5346138879" lon="10.3092027861">
		<tag k="name" v="Nysæterbekken" />
		<tag k="ssr:stedsnr" v="313852" />
		<tag k="waterway" v="stream" />
	</node>
	<node id="-376530" lat="61.62585556" lon="10.0159361122">
>>>>>>> e1d4bc35ff8a6074a6f2e91616a996b547c36f15
		<tag k="alt_name" v="Kveinnbekken" />
		<tag k="name" v="Kvernbekken" />
		<tag k="ssr:stedsnr" v="313765" />
		<tag k="waterway" v="stream" />
	</node>
<<<<<<< HEAD
	<node lat="61.59643889317702" lon="10.171538893981678" id="-22239">
		<tag k="name" v="Indre Kollbekken" />
		<tag k="ssr:stedsnr" v="342104" />
		<tag k="waterway" v="stream" />
	</node>
	<node lat="61.478511113805205" lon="10.073800000074279" id="-22252">
		<tag k="name" v="Skardtjønnet" />
		<tag k="natural" v="water" />
		<tag k="ssr:stedsnr" v="372611" />
	</node>
	<node lat="61.46610277429021" lon="10.027322216792582" id="-22253">
		<tag k="name" v="Småtjønna" />
		<tag k="natural" v="water" />
		<tag k="ssr:stedsnr" v="372629" />
	</node>
	<node lat="61.40894999704493" lon="10.28876388388313" id="-22256">
		<tag k="name" v="Stulsåa" />
		<tag k="ssr:stedsnr" v="372921" />
		<tag k="waterway" v="stream" />
	</node>
	<node lat="61.54758055439621" lon="10.2277277770058" id="-22260">
		<tag k="name" v="Nyhamnbekken" />
		<tag k="ssr:stedsnr" v="373806" />
		<tag k="waterway" v="stream" />
	</node>
	<node lat="61.65510555864322" lon="9.992955563584708" id="-22261">
		<tag k="name" v="Ådalsbekken" />
		<tag k="ssr:stedsnr" v="373992" />
		<tag k="waterway" v="stream" />
	</node>
	<node lat="61.54626388910529" lon="10.138408338603744" id="-22273">
		<tag k="name" v="Vinkelfossen" />
		<tag k="natural" v="waterfall" />
		<tag k="ssr:stedsnr" v="403202" />
	</node>
	<node lat="61.4454750035608" lon="10.462877774220388" id="-22282">
		<tag k="name" v="Vesle Skarven" />
		<tag k="ssr:stedsnr" v="403577" />
		<tag k="waterway" v="stream" />
	</node>
	<node lat="61.539552774341466" lon="10.088575006505575" id="-22283">
		<tag k="name" v="Storhåmmåren" />
		<tag k="natural" v="cape" />
		<tag k="ssr:stedsnr" v="403728" />
	</node>
	<node lat="61.38838333181014" lon="10.162641666917656" id="-22312">
		<tag k="name" v="Slåsætertjønnet" />
		<tag k="natural" v="water" />
		<tag k="ssr:stedsnr" v="493893" />
	</node>
	<node lat="61.462005558200545" lon="10.517941662498462" id="-22317">
		<tag k="loc_name" v="Tritjønna" />
		<tag k="name" v="Tretjønna" />
		<tag k="natural" v="water" />
		<tag k="ssr:stedsnr" v="494333" />
	</node>
	<node lat="61.546213889348344" lon="10.634975005516973" id="-22320">
		<tag k="alt_name" v="Bjørnhusbekken" />
		<tag k="name" v="Bjorhusbekken" />
		<tag k="ssr:stedsnr" v="449477" />
		<tag k="waterway" v="stream" />
	</node>
	<node lat="61.53092777866492" lon="10.114052770503955" id="-22328">
		<tag k="name" v="Store Evja" />
		<tag k="natural" v="bay" />
		<tag k="ssr:stedsnr" v="463759" />
	</node>
	<node lat="61.60354722486897" lon="10.192080564221303" id="-22330">
		<tag k="name" v="Storheggslåmyrene" />
		<tag k="ssr:stedsnr" v="464072" />
		<tag k="waterway" v="stream" />
	</node>
	<node lat="61.44126111226548" lon="10.291155563971683" id="-22335">
		<tag k="name" v="Djupdalsbekken" />
		<tag k="ssr:stedsnr" v="464260" />
		<tag k="waterway" v="stream" />
	</node>
	<node lat="61.55009444896662" lon="10.65136388652333" id="-22341">
		<tag k="name" v="Fiskelausvika" />
		<tag k="natural" v="bay" />
		<tag k="ssr:stedsnr" v="464768" />
	</node>
	<node lat="61.438424999760024" lon="10.243458328452112" id="-22345">
		<tag k="alt_name" v="Fåa" />
		<tag k="name" v="Nera" />
		<tag k="ssr:stedsnr" v="675948" />
		<tag k="waterway" v="stream" />
	</node>
	<node lat="61.4638638893325" lon="10.0741416599045" id="-22351">
		<tag k="alt_name" v="Høgåstjørnet" />
		<tag k="name" v="Høgåstjønnet" />
		<tag k="natural" v="water" />
		<tag k="ssr:stedsnr" v="676613" />
	</node>
	<node lat="61.631033332312896" lon="10.435836115051861" id="-22354">
		<tag k="name" v="Åsdalstjønna" />
		<tag k="natural" v="water" />
		<tag k="ssr:stedsnr" v="677149" />
	</node>
	<node lat="61.533913885920015" lon="10.463949992708663" id="-22360">
		<tag k="name" v="Svæltjønnet" />
		<tag k="natural" v="water" />
		<tag k="ssr:stedsnr" v="677227" />
	</node>
	<node lat="61.63812500341081" lon="10.172663895931018" id="-22363">
		<tag k="name" v="Døra" />
		<tag k="ssr:stedsnr" v="677767" />
		<tag k="waterway" v="river" />
	</node>
	<node lat="61.64248610999913" lon="10.068874999910348" id="-22364">
		<tag k="name" v="Øvre Lundtjønnet" />
		<tag k="natural" v="water" />
		<tag k="ssr:stedsnr" v="677773" />
	</node>
	<node lat="61.641552780362105" lon="10.150580551767288" id="-22365">
		<tag k="alt_name" v="Myafallet" />
		<tag k="name" v="Myfallet" />
		<tag k="natural" v="waterfall" />
		<tag k="ssr:stedsnr" v="677775" />
	</node>
	<node lat="61.527830556738756" lon="10.29007777230558" id="-22366">
		<tag k="name" v="Kvisthustjønnet" />
		<tag k="natural" v="water" />
		<tag k="ssr:stedsnr" v="677850" />
	</node>
	<node lat="61.634344441881304" lon="10.043005551240784" id="-22370">
		<tag k="name" v="Svarttippa" />
		<tag k="natural" v="water" />
		<tag k="ssr:stedsnr" v="678000" />
	</node>
	<node lat="61.578644445074374" lon="10.447375006323032" id="-22371">
		<tag k="name" v="Søre Breitjønnet" />
		<tag k="natural" v="water" />
		<tag k="ssr:stedsnr" v="678136" />
	</node>
	<node lat="61.553094442754265" lon="10.650333336649899" id="-22373">
		<tag k="alt_name" v="Imssjøen, s" />
		<tag k="name" v="Søre Imssjøen" />
		<tag k="natural" v="water" />
		<tag k="ssr:stedsnr" v="678260" />
		<tag k="water" v="lake" />
	</node>
	<node lat="61.56128889018984" lon="10.226894439769705" id="-22378">
		<tag k="alt_name" v="Hallsteinslibekken" />
		<tag k="name" v="Halsteinslibekken" />
		<tag k="ssr:stedsnr" v="678798" />
		<tag k="waterway" v="stream" />
	</node>
	<node lat="61.56218333281098" lon="10.303905548292905" id="-22379">
		<tag k="name" v="Brumsdalsbekken" />
		<tag k="ssr:stedsnr" v="678799" />
		<tag k="waterway" v="stream" />
	</node>
	<node lat="61.718631860238894" lon="10.161116308563605" id="-22381">
		<tag k="name" v="Muvatnet" />
		<tag k="natural" v="water" />
		<tag k="ssr:stedsnr" v="678935" />
		<tag k="water" v="lake" />
	</node>
	<node lat="61.41545833357893" lon="10.353619442767544" id="-22389">
		<tag k="name" v="Fennatjønnet" />
		<tag k="natural" v="water" />
		<tag k="ssr:stedsnr" v="494308" />
	</node>
	<node lat="61.405774996302604" lon="10.457516669174513" id="-22390">
		<tag k="name" v="Vålsdalsbekken" />
		<tag k="ssr:stedsnr" v="494313" />
		<tag k="waterway" v="stream" />
	</node>
	<node lat="61.47702499710856" lon="10.608061104489272" id="-22392">
		<tag k="name" v="Steintjønnet" />
		<tag k="natural" v="water" />
		<tag k="ssr:stedsnr" v="494805" />
	</node>
	<node lat="61.48470833016119" lon="10.421827783273775" id="-22393">
		<tag k="name" v="Urskardtjønnet" />
		<tag k="natural" v="water" />
		<tag k="ssr:stedsnr" v="494810" />
	</node>
	<node lat="61.65799166313411" lon="10.60814166225612" id="-22397">
		<tag k="alt_name" v="Nordre bekken" />
		<tag k="name" v="Nørstbekken" />
		<tag k="ssr:stedsnr" v="495168" />
		<tag k="waterway" v="stream" />
	</node>
	<node lat="61.643741667834085" lon="10.6064638934087" id="-22398">
		<tag k="name" v="Reintjønnet" />
		<tag k="natural" v="water" />
		<tag k="ssr:stedsnr" v="495171" />
	</node>
	<node lat="61.67784444608028" lon="10.636638888251563" id="-22399">
		<tag k="name" v="Helaktjønna" />
		<tag k="natural" v="water" />
		<tag k="ssr:stedsnr" v="495185" />
	</node>
	<node lat="61.57881944456929" lon="10.14626110314317" id="-22400">
		<tag k="name" v="Gluggdalstjønnet" />
		<tag k="natural" v="water" />
		<tag k="ssr:stedsnr" v="495805" />
	</node>
	<node lat="61.54220555689532" lon="10.139433341107688" id="-22402">
		<tag k="name" v="Våla" />
		<tag k="ssr:stedsnr" v="495854" />
		<tag k="waterway" v="river" />
	</node>
	<node lat="61.71841110993701" lon="10.135130546907718" id="-22404">
		<tag k="name" v="Flåtjønnet" />
		<tag k="natural" v="water" />
		<tag k="ssr:stedsnr" v="495958" />
	</node>
	<node lat="61.38887500217813" lon="9.962594441263478" id="-22435">
		<tag k="name" v="Fiskeløysa" />
		<tag k="natural" v="water" />
		<tag k="ssr:stedsnr" v="553332" />
	</node>
	<node lat="61.38393055687439" lon="10.309594442486613" id="-22436">
		<tag k="name" v="Rolla" />
		<tag k="ssr:stedsnr" v="553886" />
		<tag k="waterway" v="river" />
	</node>
	<node lat="61.53796111312634" lon="10.066972214039158" id="-22443">
		<tag k="alt_name" v="Bjørkøya" />
		<tag k="name" v="Børkøya" />
		<tag k="place" v="islet" />
		<tag k="ssr:stedsnr" v="555815" />
	</node>
	<node lat="61.552600003782445" lon="10.258661115122521" id="-22446">
		<tag k="name" v="Måsåtjønnet" />
		<tag k="natural" v="water" />
		<tag k="ssr:stedsnr" v="556816" />
	</node>
	<node lat="61.59931389119351" lon="10.550644443427922" id="-22447">
		<tag k="name" v="Åsta" />
		<tag k="ssr:stedsnr" v="556819" />
		<tag k="waterway" v="river" />
	</node>
	<node lat="61.74077778123038" lon="10.286252780212509" id="-22449">
		<tag k="name" v="Grøtørbekken" />
		<tag k="ssr:stedsnr" v="556952" />
		<tag k="waterway" v="stream" />
	</node>
	<node lat="61.50660277498314" lon="10.096966658670754" id="-22469">
		<tag k="name" v="Haustsætertjønnet" />
		<tag k="natural" v="water" />
		<tag k="ssr:stedsnr" v="584752" />
	</node>
	<node lat="61.564947218551694" lon="10.63932500049334" id="-22471">
		<tag k="name" v="Storvika" />
		<tag k="natural" v="bay" />
		<tag k="ssr:stedsnr" v="584792" />
	</node>
	<node lat="61.6706583358365" lon="10.605811104969767" id="-22472">
		<tag k="name" v="Rundfløtbekken" />
		<tag k="ssr:stedsnr" v="584796" />
		<tag k="waterway" v="stream" />
	</node>
	<node lat="61.42316111143992" lon="10.201138888593851" id="-22484">
		<tag k="name" v="Hammersåla" />
		<tag k="natural" v="bay" />
		<tag k="ssr:stedsnr" v="603784" />
	</node>
	<node lat="61.41238889155287" lon="10.212047214046603" id="-22485">
		<tag k="name" v="Storsand" />
		<tag k="place" v="islet" />
		<tag k="ssr:stedsnr" v="603785" />
	</node>
	<node lat="61.410699999677455" lon="10.204508325081378" id="-22487">
		<tag k="name" v="Leira" />
		<tag k="natural" v="cape" />
		<tag k="ssr:stedsnr" v="603791" />
	</node>
	<node lat="61.41396389158424" lon="10.143472219564986" id="-22490">
		<tag k="name" v="Svarttjønnet" />
		<tag k="natural" v="water" />
		<tag k="ssr:stedsnr" v="614906" />
	</node>
	<node lat="61.376869442598185" lon="10.221741660459102" id="-22491">
		<tag k="name" v="Bergdøla" />
		<tag k="ssr:stedsnr" v="614995" />
		<tag k="waterway" v="stream" />
	</node>
	<node lat="61.489724999381316" lon="10.117025001149832" id="-22496">
		<tag k="alt_name" v="Strandeelva" />
		<tag k="name" v="Strandelva" />
		<tag k="ssr:stedsnr" v="615507" />
		<tag k="waterway" v="stream" />
	</node>
	<node lat="61.50236944723134" lon="10.261063890201793" id="-22498">
		<tag k="name" v="Fagerlitjønnet" />
		<tag k="natural" v="water" />
		<tag k="ssr:stedsnr" v="616156" />
	</node>
	<node lat="61.64605277801681" lon="10.083588889381907" id="-22502">
		<tag k="name" v="Nedre Lundtjønnet" />
		<tag k="natural" v="water" />
		<tag k="ssr:stedsnr" v="616998" />
	</node>
	<node lat="61.64310833377577" lon="10.178663883158988" id="-22503">
		<tag k="alt_name" v="Kveinndalsbekken" />
		<tag k="loc_name" v="Kvanndalsbekken" />
		<tag k="name" v="Kverndalsbekken" />
		<tag k="ssr:stedsnr" v="617000" />
		<tag k="waterway" v="stream" />
	</node>
	<node lat="61.706008332758884" lon="10.636577772951298" id="-22504">
		<tag k="alt_name" v="Hirsjøen, l;Litle Hirsjøen;Hirsjøen" />
		<tag k="name" v="Vesle-Hirsjøen" />
		<tag k="natural" v="water" />
		<tag k="ssr:stedsnr" v="617191" />
	</node>
	<node lat="61.413580555435374" lon="10.289533339507912" id="-22513">
		<tag k="name" v="Stulsåtjønn" />
		<tag k="natural" v="water" />
		<tag k="ssr:stedsnr" v="706300" />
	</node>
	<node lat="61.439544448034255" lon="10.2524222297907" id="-22517">
		<tag k="name" v="Nerslettbekken" />
		<tag k="ssr:stedsnr" v="645232" />
		<tag k="waterway" v="stream" />
	</node>
	<node lat="61.547316663536755" lon="10.311916664361569" id="-22531">
		<tag k="name" v="Moabekken" />
		<tag k="ssr:stedsnr" v="645676" />
		<tag k="waterway" v="stream" />
	</node>
	<node lat="61.44976944084267" lon="10.104386112729856" id="-22537">
		<tag k="name" v="Fossen" />
		<tag k="natural" v="waterfall" />
		<tag k="ssr:stedsnr" v="645707" />
	</node>
	<node lat="61.60568889204325" lon="10.64158888307285" id="-22538">
		<tag k="name" v="Nordre Skådalsbekken" />
		<tag k="ssr:stedsnr" v="645772" />
		<tag k="waterway" v="stream" />
	</node>
	<node lat="61.54723610949881" lon="10.662955556183949" id="-22545">
		<tag k="name" v="Dammen" />
		<tag k="ssr:stedsnr" v="645996" />
		<tag k="waterway" v="dam" />
	</node>
	<node lat="61.418747224365276" lon="10.218497214006794" id="-22563">
		<tag k="name" v="Tretterøya" />
		<tag k="place" v="islet" />
		<tag k="ssr:stedsnr" v="664809" />
	</node>
	<node lat="61.40855277837664" lon="10.199338888782773" id="-22564">
		<tag k="name" v="Olabakkan" />
		<tag k="ssr:stedsnr" v="664815" />
		<tag k="waterway" v="stream" />
	</node>
	<node lat="61.418608332494856" lon="10.27188611596414" id="-22574">
		<tag k="name" v="Holmtjønnet" />
		<tag k="natural" v="water" />
		<tag k="ssr:stedsnr" v="675921" />
	</node>
	<node lat="61.47763055139148" lon="10.233588884038909" id="-22576">
		<tag k="alt_name" v="Austeråa" />
		<tag k="name" v="Østeråa" />
		<tag k="ssr:stedsnr" v="676611" />
		<tag k="waterway" v="stream" />
	</node>
	<node lat="61.639627775951894" lon="10.546208340623679" id="-22578">
		<tag k="alt_name" v="Botnebekken, vestre;Vestre Bottenbekken" />
		<tag k="name" v="Vestre Botnebekken" />
		<tag k="ssr:stedsnr" v="677140" />
		<tag k="waterway" v="stream" />
	</node>
	<node lat="61.569994443861916" lon="10.248266675710049" id="-22598">
		<tag k="name" v="Sagbekken" />
		<tag k="ssr:stedsnr" v="706462" />
		<tag k="waterway" v="stream" />
	</node>
	<node lat="61.46800277410324" lon="10.441419448975672" id="-22603">
		<tag k="name" v="Storrtjønna" />
		<tag k="natural" v="water" />
		<tag k="ssr:stedsnr" v="706563" />
		<tag k="water" v="pond" />
	</node>
	<node lat="61.509188884744155" lon="10.555455551161582" id="-22612">
		<tag k="name" v="Stulsbekken" />
		<tag k="ssr:stedsnr" v="706957" />
		<tag k="waterway" v="stream" />
	</node>
	<node lat="61.41753888694975" lon="10.127477771682294" id="-22625">
		<tag k="name" v="Langhaugbekken" />
		<tag k="ssr:stedsnr" v="725729" />
		<tag k="waterway" v="stream" />
	</node>
	<node lat="61.41426944593177" lon="10.208269450585487" id="-22626">
		<tag k="name" v="Veslesand" />
		<tag k="place" v="islet" />
		<tag k="ssr:stedsnr" v="725779" />
	</node>
	<node lat="61.425902780687174" lon="9.983638895465887" id="-22631">
		<tag k="name" v="Tverråa" />
		<tag k="ssr:stedsnr" v="736914" />
		<tag k="waterway" v="stream" />
	</node>
	<node lat="61.417677781013076" lon="10.117541666452434" id="-22633">
		<tag k="alt_name" v="Tverråa" />
		<tag k="name" v="Tverrelva" />
		<tag k="ssr:stedsnr" v="736918" />
		<tag k="waterway" v="stream" />
	</node>
	<node lat="61.62128332954872" lon="10.593244450824425" id="-22638">
		<tag k="alt_name" v="Finnsetbekken" />
		<tag k="name" v="Finnskjeggbekken" />
		<tag k="ssr:stedsnr" v="738157" />
		<tag k="waterway" v="stream" />
	</node>
	<node lat="61.68077500317571" lon="10.590333342433546" id="-22639">
		<tag k="alt_name" v="Hellaksæterbekken" />
		<tag k="name" v="Helakbekken" />
		<tag k="ssr:stedsnr" v="738170" />
		<tag k="waterway" v="stream" />
	</node>
	<node lat="61.561880559852725" lon="10.267563888906663" id="-22642">
		<tag k="name" v="Måsåtjønnet" />
		<tag k="natural" v="water" />
		<tag k="ssr:stedsnr" v="738831" />
	</node>
	<node lat="61.516750000237586" lon="10.149238895914536" id="-22649">
		<tag k="name" v="Børkøya" />
		<tag k="place" v="islet" />
		<tag k="ssr:stedsnr" v="907122" />
	</node>
	<node lat="61.43153888808147" lon="10.273172218020271" id="-22651">
		<tag k="name" v="Blanke kilde" />
		<tag k="natural" v="spring" />
		<tag k="ssr:stedsnr" v="767240" />
	</node>
	<node lat="61.67561666338755" lon="10.062163885616418" id="-22667">
		<tag k="alt_name" v="Sygardsødden" />
		<tag k="name" v="Sygardsodden" />
		<tag k="natural" v="cape" />
		<tag k="ssr:stedsnr" v="908909" />
	</node>
	<node lat="61.67217499611946" lon="10.076533339053546" id="-22668">
		<tag k="name" v="Sandvika" />
		<tag k="natural" v="bay" />
		<tag k="ssr:stedsnr" v="908911" />
	</node>
	<node lat="61.518247224836834" lon="10.147161103051614" id="-22669">
		<tag k="name" v="Vesleøyan" />
		<tag k="place" v="islet" />
		<tag k="ssr:stedsnr" v="786121" />
	</node>
	<node lat="61.43164444333774" lon="10.26315833191825" id="-22675">
		<tag k="name" v="Tverråtjønnet" />
		<tag k="natural" v="water" />
		<tag k="ssr:stedsnr" v="797909" />
	</node>
	<node lat="61.40601775220194" lon="9.997039064563257" id="-22677">
		<tag k="alt_name" v="Store Røgninn" />
		<tag k="name" v="Storrøgna" />
		<tag k="natural" v="water" />
		<tag k="ssr:stedsnr" v="797913" />
		<tag k="water" v="lake" />
	</node>
	<node lat="61.66554721901841" lon="10.550774997181334" id="-22681">
		<tag k="name" v="Hemtjønnet" />
		<tag k="natural" v="water" />
		<tag k="ssr:stedsnr" v="798159" />
	</node>
	<node lat="61.56529999984839" lon="10.60720000385281" id="-22684">
		<tag k="name" v="Orma" />
		<tag k="ssr:stedsnr" v="799246" />
		<tag k="waterway" v="river" />
	</node>
	<node lat="61.51436666829205" lon="10.146383325635226" id="-22686">
		<tag k="name" v="Gåsøya" />
		<tag k="place" v="islet" />
		<tag k="ssr:stedsnr" v="799905" />
	</node>
	<node lat="61.697399997887516" lon="10.092324993584786" id="-22687">
		<tag k="alt_name" v="Uksbekken, fremre" />
		<tag k="name" v="Fremre Uksbekken" />
		<tag k="ssr:stedsnr" v="799981" />
		<tag k="waterway" v="stream" />
	</node>
	<node lat="61.68768888898446" lon="10.17306944006754" id="-22688">
		<tag k="alt_name" v="Gråbekken, nordre" />
		<tag k="name" v="Nordre Gråbekken" />
		<tag k="ssr:stedsnr" v="799982" />
		<tag k="waterway" v="stream" />
	</node>
	<node lat="61.68827777542769" lon="9.994533335020627" id="-22689">
		<tag k="name" v="Heillbekken" />
		<tag k="ssr:stedsnr" v="799983" />
		<tag k="waterway" v="stream" />
	</node>
	<node lat="61.67929444210411" lon="9.969980563414994" id="-22690">
		<tag k="name" v="Brennbekken" />
		<tag k="ssr:stedsnr" v="799984" />
		<tag k="waterway" v="stream" />
	</node>
	<node lat="61.67283888755248" lon="9.987686107701009" id="-22691">
		<tag k="name" v="Slavollbekken" />
		<tag k="ssr:stedsnr" v="799986" />
		<tag k="waterway" v="stream" />
	</node>
	<node lat="61.657933337414754" lon="10.099150003665677" id="-22694">
=======
	<node id="-376527" lat="61.4605027799" lon="10.0221833361">
		<tag k="name" v="Jervåstjønnet" />
		<tag k="natural" v="water" />
		<tag k="ssr:stedsnr" v="312568" />
	</node>
	<node id="-376520" lat="61.4169777773" lon="10.2152305544">
		<tag k="name" v="Kringeløya" />
		<tag k="place" v="islet" />
		<tag k="ssr:stedsnr" v="300809" />
	</node>
	<node id="-376518" lat="61.4313694437" lon="10.56094167">
		<tag k="name" v="Bjørgetjønn" />
		<tag k="natural" v="water" />
		<tag k="ssr:stedsnr" v="300964" />
	</node>
	<node id="-376513" lat="61.5220583345" lon="10.2541666717">
		<tag k="name" v="Mårråbettjønnet" />
		<tag k="natural" v="water" />
		<tag k="ssr:stedsnr" v="464691" />
	</node>
	<node id="-376511" lat="61.4180000026" lon="10.3752305509">
		<tag k="name" v="Bakkatjønn" />
		<tag k="natural" v="water" />
		<tag k="ssr:stedsnr" v="464580" />
	</node>
	<node id="-376503" lat="61.6035472249" lon="10.1920805642">
		<tag k="name" v="Storheggslåmyrene" />
		<tag k="ssr:stedsnr" v="464072" />
		<tag k="waterway" v="stream" />
	</node>
	<node id="-376500" lat="61.4633222194" lon="10.5079500033">
		<tag k="name" v="Vetåkroken" />
		<tag k="natural" v="water" />
		<tag k="ssr:stedsnr" v="463929" />
		<tag k="water" v="lake" />
	</node>
	<node id="-376494" lat="61.583311112" lon="10.0985833334">
		<tag k="name" v="Åborsjøbekken" />
		<tag k="ssr:stedsnr" v="463649" />
		<tag k="waterway" v="stream" />
	</node>
	<node id="-376488" lat="61.4904111105" lon="10.0276444459">
		<tag k="name" v="Veslegompen" />
		<tag k="natural" v="bay" />
		<tag k="ssr:stedsnr" v="288202" />
	</node>
	<node id="-376485" lat="61.6591583313" lon="10.0754250005">
		<tag k="name" v="Friskegreina" />
		<tag k="ssr:stedsnr" v="277816" />
		<tag k="waterway" v="stream" />
	</node>
	<node id="-376482" lat="61.5730611141" lon="10.6646361037">
		<tag k="alt_name" v="Famptjønna" />
		<tag k="name" v="Famptjørnet" />
		<tag k="natural" v="water" />
		<tag k="ssr:stedsnr" v="267419" />
	</node>
	<node id="-376479" lat="61.685955556" lon="10.0054222214">
		<tag k="name" v="Hellbekken" />
		<tag k="ssr:stedsnr" v="451980" />
		<tag k="waterway" v="stream" />
	</node>
	<node id="-376476" lat="61.5462138893" lon="10.6349750055">
		<tag k="alt_name" v="Bjørnhusbekken" />
		<tag k="name" v="Bjorhusbekken" />
		<tag k="ssr:stedsnr" v="449477" />
		<tag k="waterway" v="stream" />
	</node>
	<node id="-376474" lat="61.6773861077" lon="10.0955166588">
		<tag k="name" v="Storrtjønn" />
		<tag k="natural" v="water" />
		<tag k="ssr:stedsnr" v="240872" />
	</node>
	<node id="-376464" lat="61.4980333322" lon="10.0553583289">
		<tag k="name" v="Goløybekken" />
		<tag k="ssr:stedsnr" v="295334" />
		<tag k="waterway" v="stream" />
	</node>
	<node id="-376455" lat="61.4122805572" lon="10.4065805584">
		<tag k="name" v="Langtjønnet" />
		<tag k="natural" v="water" />
		<tag k="ssr:stedsnr" v="191302" />
	</node>
	<node id="-376450" lat="61.675019447" lon="10.0688444448">
		<tag k="name" v="Haugalandet" />
		<tag k="natural" v="beach" />
		<tag k="ssr:stedsnr" v="179872" />
	</node>
	<node id="-376440" lat="61.448422218" lon="10.4843361102">
		<tag k="name" v="Vetåfallet" />
		<tag k="natural" v="waterfall" />
		<tag k="ssr:stedsnr" v="282924" />
	</node>
	<node id="-376438" lat="61.4409694476" lon="10.5462416584">
		<tag k="name" v="Gompa" />
		<tag k="ssr:stedsnr" v="282914" />
		<tag k="waterway" v="stream" />
	</node>
	<node id="-376436" lat="61.6225388916" lon="10.0816388803">
		<tag k="name" v="Grønnskarstjønnet" />
		<tag k="natural" v="water" />
		<tag k="ssr:stedsnr" v="282831" />
	</node>
	<node id="-376432" lat="61.562544447" lon="10.6045222304">
		<tag k="name" v="Endsæterbekken" />
		<tag k="ssr:stedsnr" v="282743" />
		<tag k="waterway" v="stream" />
	</node>
	<node id="-376429" lat="61.5489000018" lon="10.298766663">
		<tag k="name" v="Stortjønna" />
		<tag k="natural" v="water" />
		<tag k="ssr:stedsnr" v="282664" />
	</node>
	<node id="-376428" lat="61.543663885" lon="10.3530527704">
		<tag k="name" v="Styggebekken" />
		<tag k="ssr:stedsnr" v="282659" />
		<tag k="waterway" v="stream" />
	</node>
	<node id="-376421" lat="61.6122277761" lon="10.2496388802">
		<tag k="name" v="Høstadbekken" />
		<tag k="ssr:stedsnr" v="282548" />
		<tag k="waterway" v="stream" />
	</node>
	<node id="-376405" lat="61.5869861118" lon="10.2270500087">
		<tag k="name" v="Randstedbekken" />
		<tag k="ssr:stedsnr" v="282081" />
		<tag k="waterway" v="stream" />
	</node>
	<node id="-376399" lat="61.5120138877" lon="10.6857138846">
		<tag k="name" v="Bjønnbekken" />
		<tag k="ssr:stedsnr" v="160971" />
		<tag k="waterway" v="stream" />
	</node>
	<node id="-376397" lat="61.518819444" lon="10.4158583303">
		<tag k="name" v="Langtjønnet" />
		<tag k="natural" v="water" />
		<tag k="ssr:stedsnr" v="160915" />
	</node>
	<node id="-376396" lat="61.499519448" lon="10.4702583366">
		<tag k="name" v="Kappriartjønnet" />
		<tag k="natural" v="water" />
		<tag k="ssr:stedsnr" v="160912" />
	</node>
	<node id="-376395" lat="61.551691665" lon="10.6497055635">
		<tag k="name" v="Svartvika" />
		<tag k="natural" v="bay" />
		<tag k="ssr:stedsnr" v="160755" />
	</node>
	<node id="-376394" lat="61.5133694469" lon="10.2483027822">
		<tag k="name" v="Byttingstulbekken" />
		<tag k="ssr:stedsnr" v="160673" />
		<tag k="waterway" v="stream" />
	</node>
	<node id="-376393" lat="61.5290694426" lon="10.3230583336">
		<tag k="name" v="Breifallet" />
		<tag k="natural" v="waterfall" />
		<tag k="ssr:stedsnr" v="160668" />
	</node>
	<node id="-376380" lat="61.5579666707" lon="10.1581861057">
		<tag k="name" v="Tunga" />
		<tag k="natural" v="cape" />
		<tag k="ssr:stedsnr" v="160005" />
	</node>
	<node id="-376372" lat="61.6321694438" lon="10.4828916692">
		<tag k="name" v="Grønfjelltjønnet" />
		<tag k="natural" v="water" />
		<tag k="ssr:stedsnr" v="267450" />
	</node>
	<node id="-376364" lat="61.6417222206" lon="10.560319439">
		<tag k="alt_name" v="Botnebekken, østre;Østre Bottenbekken" />
		<tag k="name" v="Østre Botnebekken" />
		<tag k="ssr:stedsnr" v="131146" />
		<tag k="waterway" v="stream" />
	</node>
	<node id="-376347" lat="61.4064388848" lon="10.138397222">
		<tag k="name" v="Morkabekken" />
		<tag k="ssr:stedsnr" v="118761" />
		<tag k="waterway" v="stream" />
	</node>
	<node id="-376343" lat="61.6633861128" lon="10.0549499939">
		<tag k="name" v="Venåsbekken" />
		<tag k="ssr:stedsnr" v="118867" />
		<tag k="waterway" v="stream" />
	</node>
	<node id="-376338" lat="61.4941388875" lon="10.0193583388">
		<tag k="name" v="Raubekken" />
		<tag k="ssr:stedsnr" v="113340" />
		<tag k="waterway" v="stream" />
	</node>
	<node id="-376334" lat="61.5062722227" lon="10.2465694524">
		<tag k="name" v="Loesæterbekken" />
		<tag k="ssr:stedsnr" v="100661" />
		<tag k="waterway" v="stream" />
	</node>
	<node id="-376325" lat="61.5878361139" lon="10.2114249939">
		<tag k="name" v="Sveintjønnet" />
		<tag k="natural" v="water" />
		<tag k="ssr:stedsnr" v="100069" />
	</node>
	<node id="-376324" lat="61.5985999974" lon="10.1893194514">
		<tag k="name" v="Storheggslåbekken" />
		<tag k="ssr:stedsnr" v="100063" />
		<tag k="waterway" v="stream" />
	</node>
	<node id="-376322" lat="61.5950194487" lon="10.1734472301">
		<tag k="name" v="Fremre Kollbekken" />
		<tag k="ssr:stedsnr" v="100121" />
		<tag k="waterway" v="stream" />
	</node>
	<node id="-376316" lat="61.723736112" lon="10.0304555624">
		<tag k="name" v="Svartåa" />
		<tag k="ssr:stedsnr" v="253954" />
		<tag k="waterway" v="river" />
	</node>
	<node id="-376314" lat="61.5086888884" lon="10.1554194494">
		<tag k="name" v="Olstadøya" />
		<tag k="place" v="islet" />
		<tag k="ssr:stedsnr" v="253883" />
	</node>
	<node id="-376305" lat="61.5904166706" lon="10.4581555549">
		<tag k="name" v="Indre Breitjønnet" />
		<tag k="natural" v="water" />
		<tag k="ssr:stedsnr" v="253165" />
	</node>
	<node id="-376299" lat="61.5380138915" lon="10.3077666653">
		<tag k="name" v="Jenstjønnet" />
		<tag k="natural" v="water" />
		<tag k="ssr:stedsnr" v="252806" />
	</node>
	<node id="-376298" lat="61.5459250007" lon="10.2074166719">
		<tag k="name" v="Ulveslåbekken" />
		<tag k="ssr:stedsnr" v="252794" />
		<tag k="waterway" v="stream" />
	</node>
	<node id="-376293" lat="61.4622444488" lon="10.1039583422">
		<tag k="name" v="Bjørnlitjønnet" />
		<tag k="natural" v="water" />
		<tag k="ssr:stedsnr" v="251638" />
	</node>
	<node id="-376285" lat="61.4601583294" lon="10.0895305598">
		<tag k="name" v="Raudskuttjønnet" />
		<tag k="natural" v="water" />
		<tag k="ssr:stedsnr" v="251587" />
	</node>
	<node id="-376277" lat="61.3827472266" lon="10.1305388889">
		<tag k="name" v="Kroktjønnet" />
		<tag k="natural" v="water" />
		<tag k="ssr:stedsnr" v="250872" />
	</node>
	<node id="-376276" lat="61.3876888892" lon="10.117052777">
		<tag k="name" v="Bårdstjønnet" />
		<tag k="natural" v="water" />
		<tag k="ssr:stedsnr" v="250870" />
	</node>
	<node id="-376274" lat="61.6642499975" lon="10.514619452">
		<tag k="fixme" v="multiple name tags, choose one and add the other to alt_name" />
		<tag k="name" v="Skarvbekken;Vollbekken" />
		<tag k="ssr:stedsnr" v="85421" />
		<tag k="waterway" v="stream" />
	</node>
	<node id="-376273" lat="61.3932361131" lon="9.94835556137">
		<tag k="name" v="Øvre Gardtjønnet" />
		<tag k="natural" v="water" />
		<tag k="ssr:stedsnr" v="250375" />
	</node>
	<node id="-376270" lat="61.7251527747" lon="10.6060999934">
		<tag k="name" v="Skardbekken" />
		<tag k="ssr:stedsnr" v="71214" />
		<tag k="waterway" v="stream" />
	</node>
	<node id="-376267" lat="61.4876862882" lon="10.0457911082">
		<tag k="name" v="Steinvåga" />
		<tag k="natural" v="water" />
		<tag k="ssr:stedsnr" v="69636" />
		<tag k="water" v="lake" />
	</node>
	<node id="-376259" lat="61.6775416643" lon="10.103900004">
		<tag k="name" v="Øygardsbekken" />
		<tag k="ssr:stedsnr" v="58877" />
		<tag k="waterway" v="stream" />
	</node>
	<node id="-376257" lat="61.492050002" lon="10.053836107">
		<tag k="name" v="Gullhaugtjønnet" />
		<tag k="natural" v="water" />
		<tag k="ssr:stedsnr" v="52301" />
	</node>
	<node id="-376238" lat="61.579386112" lon="10.1039722201">
		<tag k="name" v="Kaldvassbekken" />
		<tag k="ssr:stedsnr" v="39607" />
		<tag k="waterway" v="stream" />
	</node>
	<node id="-376233" lat="61.6678956177" lon="10.1445513367">
		<tag k="loc_name" v="Fremre Måsåtjønn" />
		<tag k="name" v="Veslefjelltjønnet" />
		<tag k="natural" v="water" />
		<tag k="ssr:stedsnr" v="39413" />
	</node>
	<node id="-376228" lat="61.5637750002" lon="10.2013027833">
		<tag k="name" v="Rotbekken" />
		<tag k="ssr:stedsnr" v="39007" />
		<tag k="waterway" v="stream" />
	</node>
	<node id="-376218" lat="61.5731250022" lon="10.141866672">
		<tag k="alt_name" v="Kveinnholsbekken" />
		<tag k="name" v="Kvannholsbekken" />
		<tag k="ssr:stedsnr" v="10803" />
		<tag k="waterway" v="stream" />
	</node>
	<node id="-376212" lat="61.4108083333" lon="10.3921222208">
		<tag k="name" v="Blomtjønnet" />
		<tag k="natural" v="water" />
		<tag k="ssr:stedsnr" v="9313" />
	</node>
	<node id="-376211" lat="61.4165055582" lon="10.4652444356">
		<tag k="name" v="Vesltromsa" />
		<tag k="ssr:stedsnr" v="9305" />
		<tag k="waterway" v="stream" />
	</node>
	<node id="-376210" lat="61.4211083365" lon="10.4297472146">
		<tag k="name" v="Turrhaugtjønnet" />
		<tag k="natural" v="water" />
		<tag k="ssr:stedsnr" v="9303" />
	</node>
	<node id="-376209" lat="61.422874996" lon="10.2906333352">
		<tag k="name" v="Svarttjønnet" />
		<tag k="natural" v="water" />
		<tag k="ssr:stedsnr" v="8916" />
	</node>
	<node id="-376199" lat="61.4542361142" lon="10.5062861091">
		<tag k="name" v="Gomphølen" />
		<tag k="place" v="locality" />
		<tag k="ssr:stedsnr" v="221885" />
	</node>
	<node id="-376197" lat="61.515536115" lon="10.3783166674">
		<tag k="name" v="Langbekken" />
		<tag k="ssr:stedsnr" v="221883" />
		<tag k="waterway" v="stream" />
	</node>
	<node id="-376187" lat="61.5581694466" lon="10.647299998">
		<tag k="name" v="Bugrunna" />
		<tag k="natural" v="shoal" />
		<tag k="place" v="locality" />
		<tag k="ssr:stedsnr" v="221747" />
	</node>
	<node id="-376181" lat="61.5312333357" lon="10.0768666619">
		<tag k="name" v="Hortkroken" />
		<tag k="natural" v="bay" />
		<tag k="ssr:stedsnr" v="221689" />
	</node>
	<node id="-376178" lat="61.4549027794" lon="10.1006472154">
		<tag k="name" v="Bjørnlibekken" />
		<tag k="ssr:stedsnr" v="221667" />
		<tag k="waterway" v="stream" />
	</node>
	<node id="-376166" lat="61.4007666678" lon="10.2726222146">
		<tag k="name" v="Spjøtsbekken" />
		<tag k="ssr:stedsnr" v="221386" />
		<tag k="waterway" v="stream" />
	</node>
	<node id="-376163" lat="61.467200004" lon="10.2954305616">
		<tag k="name" v="Morkebekken" />
		<tag k="ssr:stedsnr" v="221316" />
		<tag k="waterway" v="stream" />
	</node>
	<node id="-378118" lat="61.6421032834" lon="9.9733984295">
		<tag k="name" v="Vollahølen" />
		<tag k="place" v="locality" />
		<tag k="ssr:stedsnr" v="976745" />
	</node>
	<node id="-378115" lat="61.6645638866" lon="10.0538499996">
		<tag k="name" v="Svartfjellandet" />
		<tag k="natural" v="beach" />
		<tag k="ssr:stedsnr" v="968889" />
	</node>
	<node id="-378102" lat="61.6409027772" lon="10.629822214">
		<tag k="name" v="Søre Reintjønnet" />
		<tag k="natural" v="water" />
		<tag k="ssr:stedsnr" v="951824" />
	</node>
	<node id="-378099" lat="61.5076722264" lon="10.0862138869">
		<tag k="name" v="Veslestulstjønnet" />
		<tag k="natural" v="water" />
		<tag k="ssr:stedsnr" v="860891" />
	</node>
	<node id="-378097" lat="61.4361399761" lon="10.0519192243">
		<tag k="name" v="Tverråa" />
		<tag k="ssr:stedsnr" v="860800" />
		<tag k="waterway" v="river" />
	</node>
	<node id="-378090" lat="61.6253777782" lon="10.5349888889">
		<tag k="alt_name" v="Nordre bekken" />
		<tag k="name" v="Nørdrebekken" />
		<tag k="ssr:stedsnr" v="860186" />
		<tag k="waterway" v="stream" />
	</node>
	<node id="-378089" lat="61.6318499967" lon="10.5098416648">
		<tag k="name" v="Turrtjønnet" />
		<tag k="natural" v="water" />
		<tag k="ssr:stedsnr" v="860181" />
	</node>
	<node id="-378086" lat="61.5298250022" lon="10.2813388827">
		<tag k="name" v="Langtjønnet" />
		<tag k="natural" v="water" />
		<tag k="ssr:stedsnr" v="859825" />
	</node>
	<node id="-378084" lat="61.5384888916" lon="10.2937916637">
		<tag k="name" v="Svarttjønnet" />
		<tag k="natural" v="water" />
		<tag k="ssr:stedsnr" v="859820" />
	</node>
	<node id="-378083" lat="61.4371888857" lon="10.2722500081">
		<tag k="name" v="Gamlehustjønnet" />
		<tag k="natural" v="water" />
		<tag k="ssr:stedsnr" v="858930" />
	</node>
	<node id="-378074" lat="61.4127027757" lon="10.4366138853">
		<tag k="name" v="Løtjønnet" />
		<tag k="natural" v="water" />
		<tag k="ssr:stedsnr" v="858342" />
	</node>
	<node id="-378067" lat="61.6654194407" lon="10.069047228">
		<tag k="alt_name" v="Langødden" />
		<tag k="name" v="Langodden" />
		<tag k="natural" v="cape" />
		<tag k="ssr:stedsnr" v="847885" />
	</node>
	<node id="-378065" lat="61.573909692" lon="10.1075543425">
		<tag k="name" v="Kvernflatodden" />
		<tag k="natural" v="cape" />
		<tag k="ssr:stedsnr" v="847693" />
	</node>
	<node id="-378063" lat="61.5166027816" lon="10.1528666603">
		<tag k="name" v="Børkevjua" />
		<tag k="natural" v="bay" />
		<tag k="ssr:stedsnr" v="847149" />
	</node>
	<node id="-378057" lat="61.511674511" lon="10.6568205376">
		<tag k="name" v="Nedre Samtjønnet" />
		<tag k="natural" v="water" />
		<tag k="ssr:stedsnr" v="828964" />
	</node>
	<node id="-378052" lat="61.4509749973" lon="10.4932027699">
		<tag k="name" v="Åmillom" />
		<tag k="natural" v="cape" />
		<tag k="ssr:stedsnr" v="828904" />
	</node>
	<node id="-378046" lat="61.526836111" lon="10.1023472186">
		<tag k="name" v="Evjemillom" />
		<tag k="natural" v="beach" />
		<tag k="ssr:stedsnr" v="828712" />
	</node>
	<node id="-378032" lat="61.3995472225" lon="10.2925916625">
		<tag k="name" v="Blåbytta" />
		<tag k="ssr:stedsnr" v="828400" />
		<tag k="waterway" v="stream" />
	</node>
	<node id="-378029" lat="61.4618527785" lon="10.28665278">
		<tag k="name" v="Harabekken" />
		<tag k="ssr:stedsnr" v="828326" />
		<tag k="waterway" v="stream" />
	</node>
	<node id="-378027" lat="61.4665027807" lon="10.2470638896">
		<tag k="name" v="Turrbekken" />
		<tag k="ssr:stedsnr" v="828311" />
		<tag k="waterway" v="stream" />
	</node>
	<node id="-378023" lat="61.4011527792" lon="10.3541361049">
		<tag k="name" v="Oksbekken" />
		<tag k="ssr:stedsnr" v="828261" />
		<tag k="waterway" v="stream" />
	</node>
	<node id="-378017" lat="61.4665083354" lon="10.3665888965">
		<tag k="name" v="Sagbekken" />
		<tag k="ssr:stedsnr" v="828174" />
		<tag k="waterway" v="stream" />
	</node>
	<node id="-378012" lat="61.6760083338" lon="10.0507444388">
		<tag k="name" v="Svartvika" />
		<tag k="natural" v="bay" />
		<tag k="ssr:stedsnr" v="815989" />
	</node>
	<node id="-378011" lat="61.6691611081" lon="10.0691388883">
		<tag k="name" v="Storodden" />
		<tag k="natural" v="cape" />
		<tag k="ssr:stedsnr" v="815978" />
	</node>
	<node id="-378008" lat="61.6217104193" lon="10.121254614">
		<tag k="name" v="Gulltjønnet" />
		<tag k="natural" v="water" />
		<tag k="ssr:stedsnr" v="810196" />
	</node>
	<node id="-378005" lat="61.6362500028" lon="10.0888111165">
		<tag k="name" v="Raudbekken" />
		<tag k="ssr:stedsnr" v="808296" />
		<tag k="waterway" v="stream" />
	</node>
	<node id="-378004" lat="61.5143666683" lon="10.1463833256">
		<tag k="name" v="Gåsøya" />
		<tag k="place" v="islet" />
		<tag k="ssr:stedsnr" v="799905" />
	</node>
	<node id="-378003" lat="61.6579333374" lon="10.0991500037">
>>>>>>> e1d4bc35ff8a6074a6f2e91616a996b547c36f15
		<tag k="name" v="Nørdre Fiskeløysa" />
		<tag k="natural" v="water" />
		<tag k="ssr:stedsnr" v="799993" />
	</node>
<<<<<<< HEAD
	<node lat="61.63625000280301" lon="10.08881111652713" id="-22698">
		<tag k="name" v="Raudbekken" />
		<tag k="ssr:stedsnr" v="808296" />
		<tag k="waterway" v="stream" />
	</node>
	<node lat="61.6217104193364" lon="10.121254614006622" id="-22701">
		<tag k="name" v="Gulltjønnet" />
		<tag k="natural" v="water" />
		<tag k="ssr:stedsnr" v="810196" />
	</node>
	<node lat="61.66916110811256" lon="10.069138888325776" id="-22711">
		<tag k="name" v="Storodden" />
		<tag k="natural" v="cape" />
		<tag k="ssr:stedsnr" v="815978" />
	</node>
	<node lat="61.67600833377373" lon="10.05074443884137" id="-22712">
		<tag k="name" v="Svartvika" />
		<tag k="natural" v="bay" />
		<tag k="ssr:stedsnr" v="815989" />
	</node>
	<node lat="61.4752916632833" lon="10.259552786131584" id="-22719">
		<tag k="name" v="Myrstigbekken" />
		<tag k="ssr:stedsnr" v="919589" />
		<tag k="waterway" v="stream" />
	</node>
	<node lat="61.71823888636152" lon="10.641502770353629" id="-22722">
		<tag k="alt_name" v="Hira" />
		<tag k="name" v="Stor-Hira" />
		<tag k="ssr:stedsnr" v="920176" />
		<tag k="waterway" v="river" />
	</node>
	<node lat="61.51312500041577" lon="10.179905557532676" id="-22723">
		<tag k="name" v="Prestbekken" />
		<tag k="ssr:stedsnr" v="920893" />
		<tag k="waterway" v="stream" />
	</node>
	<node lat="61.62811388548425" lon="9.993447215746848" id="-22727">
		<tag k="alt_name" v="Myrelva" />
		<tag k="name" v="Myreelva" />
		<tag k="ssr:stedsnr" v="920754" />
		<tag k="waterway" v="stream" />
	</node>
	<node lat="61.540166662240985" lon="10.068438888156903" id="-22728">
		<tag k="name" v="Langøya" />
		<tag k="place" v="islet" />
		<tag k="ssr:stedsnr" v="920853" />
	</node>
	<node lat="61.4327527805469" lon="10.158366659781942" id="-22731">
		<tag k="alt_name" v="Moselva" />
		<tag k="name" v="Moelva" />
		<tag k="ssr:stedsnr" v="920782" />
		<tag k="waterway" v="river" />
	</node>
	<node lat="61.466508335362" lon="10.366588896549466" id="-22736">
		<tag k="name" v="Sagbekken" />
		<tag k="ssr:stedsnr" v="828174" />
		<tag k="waterway" v="stream" />
	</node>
	<node lat="61.46650278072499" lon="10.247063889567467" id="-22741">
		<tag k="name" v="Turrbekken" />
		<tag k="ssr:stedsnr" v="828311" />
		<tag k="waterway" v="stream" />
	</node>
	<node lat="61.45097499725021" lon="10.49320276990617" id="-22747">
		<tag k="name" v="Åmillom" />
		<tag k="natural" v="cape" />
		<tag k="ssr:stedsnr" v="828904" />
	</node>
	<node lat="61.51167451096543" lon="10.656820537619021" id="-22751">
		<tag k="name" v="Nedre Samtjønnet" />
		<tag k="natural" v="water" />
		<tag k="ssr:stedsnr" v="828964" />
	</node>
	<node lat="61.66541944069165" lon="10.069047228019535" id="-22754">
		<tag k="alt_name" v="Langødden" />
		<tag k="name" v="Langodden" />
		<tag k="natural" v="cape" />
		<tag k="ssr:stedsnr" v="847885" />
	</node>
	<node lat="61.418752781475945" lon="10.167102770915983" id="-22765">
		<tag k="name" v="Linvikselva" />
		<tag k="ssr:stedsnr" v="858919" />
		<tag k="waterway" v="stream" />
	</node>
	<node lat="61.535782071585025" lon="10.069065415033275" id="-22768">
		<tag k="alt_name" v="Hæringen" />
		<tag k="name" v="Heringen" />
		<tag k="place" v="islet" />
		<tag k="ssr:stedsnr" v="859818" />
	</node>
	<node lat="61.53848889159623" lon="10.293791663711717" id="-22769">
		<tag k="name" v="Svarttjønnet" />
		<tag k="natural" v="water" />
		<tag k="ssr:stedsnr" v="859820" />
	</node>
	<node lat="61.529825002157" lon="10.281338882692703" id="-22771">
		<tag k="name" v="Langtjønnet" />
		<tag k="natural" v="water" />
		<tag k="ssr:stedsnr" v="859825" />
	</node>
	<node lat="61.643202781005265" lon="10.380680556600092" id="-22773">
		<tag k="name" v="Kvitbekken" />
		<tag k="ssr:stedsnr" v="860171" />
		<tag k="waterway" v="stream" />
	</node>
	<node lat="61.6318499966776" lon="10.509841664828672" id="-22774">
		<tag k="name" v="Turrtjønnet" />
		<tag k="natural" v="water" />
		<tag k="ssr:stedsnr" v="860181" />
	</node>
	<node lat="61.658672222640874" lon="10.46669444265678" id="-22775">
		<tag k="name" v="Åsdalsbekken" />
		<tag k="ssr:stedsnr" v="860207" />
		<tag k="waterway" v="stream" />
	</node>
	<node lat="61.731699998651465" lon="10.053394444802015" id="-22779">
		<tag k="name" v="Svartåkluftin" />
		<tag k="place" v="locality" />
		<tag k="ssr:stedsnr" v="860968" />
	</node>
	<node lat="61.54536667020929" lon="10.656358333731303" id="-22785">
		<tag k="name" v="Auge" />
		<tag k="natural" v="bay" />
		<tag k="ssr:stedsnr" v="888748" />
	</node>
	<node lat="61.543480554951344" lon="10.251905550691697" id="-22791">
		<tag k="name" v="Nyhamnbekken" />
		<tag k="ssr:stedsnr" v="888660" />
		<tag k="waterway" v="stream" />
	</node>
	<node lat="61.40360833555819" lon="10.060666657659926" id="-22792">
		<tag k="name" v="Svarttjønnbekken" />
		<tag k="ssr:stedsnr" v="888661" />
		<tag k="waterway" v="stream" />
	</node>
	<node lat="61.520141665615505" lon="10.591736104093583" id="-22793">
		<tag k="name" v="Flylykkjebekken" />
		<tag k="ssr:stedsnr" v="888954" />
		<tag k="waterway" v="stream" />
	</node>
	<node lat="61.43507499910211" lon="10.24666110994795" id="-22797">
		<tag k="name" v="Tverråa" />
		<tag k="ssr:stedsnr" v="889259" />
		<tag k="waterway" v="stream" />
	</node>
	<node lat="61.719500000107466" lon="10.545222215157047" id="-22801">
		<tag k="name" v="Midtklettbekken" />
		<tag k="ssr:stedsnr" v="889805" />
		<tag k="waterway" v="stream" />
	</node>
	<node lat="61.38616666413221" lon="10.19819722649483" id="-22805">
		<tag k="alt_name" v="Haukåa" />
		<tag k="name" v="Haukåbekken" />
		<tag k="ssr:stedsnr" v="907728" />
		<tag k="waterway" v="stream" />
	</node>
	<node lat="61.555719444639784" lon="10.06294443825351" id="-22806">
		<tag k="name" v="Bergsveinhølen" />
		<tag k="place" v="locality" />
		<tag k="ssr:stedsnr" v="907620" />
	</node>
	<node lat="61.41738333769892" lon="10.400324999674691" id="-22815">
		<tag k="name" v="Gullhaugtjønnet" />
		<tag k="natural" v="water" />
		<tag k="ssr:stedsnr" v="919320" />
	</node>
	<node lat="61.670162822868754" lon="10.062325657857148" id="-22825">
		<tag k="name" v="Flaksjøen" />
		<tag k="natural" v="water" />
		<tag k="ssr:stedsnr" v="920982" />
		<tag k="water" v="lake" />
	</node>
	<node lat="61.65741389267204" lon="10.308455558595751" id="-22828">
		<tag k="alt_name" v="Hiriåa" />
		<tag k="loc_name" v="Hirisjøåa" />
		<tag k="name" v="Hira" />
		<tag k="ssr:stedsnr" v="920988" />
		<tag k="waterway" v="river" />
	</node>
	<node lat="61.59487499895362" lon="10.151130552949331" id="-22830">
		<tag k="name" v="Lykkjebekken" />
		<tag k="ssr:stedsnr" v="949113" />
		<tag k="waterway" v="stream" />
	</node>
	<node lat="61.549970023059196" lon="10.140326881472436" id="-22831">
		<tag k="name" v="Johushølen" />
		<tag k="natural" v="water" />
		<tag k="ssr:stedsnr" v="949183" />
		<tag k="water" v="lake" />
	</node>
	<node lat="61.48866944100557" lon="10.558624996622658" id="-22832">
		<tag k="name" v="Indre Trolldalsbekken" />
		<tag k="ssr:stedsnr" v="949185" />
		<tag k="waterway" v="stream" />
	</node>
	<node lat="61.680702775009536" lon="10.165072222075512" id="-22837">
		<tag k="name" v="Søre Gråbekken" />
		<tag k="ssr:stedsnr" v="949405" />
		<tag k="waterway" v="stream" />
	</node>
	<node lat="61.42171944547719" lon="10.110913884975743" id="-22840">
		<tag k="name" v="Myrsæterbekken" />
		<tag k="ssr:stedsnr" v="949641" />
		<tag k="waterway" v="stream" />
	</node>
	<node lat="61.623402778359186" lon="10.18255832417789" id="-22842">
		<tag k="name" v="Høystadbekken" />
		<tag k="ssr:stedsnr" v="949393" />
		<tag k="waterway" v="stream" />
	</node>
	<node lat="61.67189457936755" lon="10.147687062912668" id="-22843">
		<tag k="name" v="Måsåtjønna" />
		<tag k="natural" v="water" />
		<tag k="ssr:stedsnr" v="949399" />
		<tag k="water" v="lake" />
	</node>
	<node lat="61.411677780583396" lon="10.391911120370901" id="-22847">
		<tag k="name" v="Fremre Langtjønn" />
		<tag k="natural" v="water" />
		<tag k="ssr:stedsnr" v="949519" />
	</node>
	<node lat="61.54609722235936" lon="10.66066388373583" id="-22850">
		<tag k="name" v="Tjønnet" />
		<tag k="natural" v="bay" />
		<tag k="ssr:stedsnr" v="949732" />
	</node>
	<node lat="61.58700277911861" lon="10.621583328769573" id="-22851">
		<tag k="name" v="Storvika" />
		<tag k="natural" v="bay" />
		<tag k="ssr:stedsnr" v="949738" />
	</node>
	<node lat="61.583813888258845" lon="10.629955547426178" id="-22852">
		<tag k="name" v="Gamlebutangen" />
		<tag k="natural" v="cape" />
		<tag k="ssr:stedsnr" v="949739" />
	</node>
	<node lat="61.422936110502945" lon="10.212847217446091" id="-22859">
		<tag k="name" v="Storøya" />
		<tag k="place" v="islet" />
		<tag k="ssr:stedsnr" v="968819" />
	</node>
	<node lat="61.66456388661941" lon="10.05384999961821" id="-22861">
		<tag k="name" v="Svartfjellandet" />
		<tag k="natural" v="beach" />
		<tag k="ssr:stedsnr" v="968889" />
	</node>
	<node lat="61.508160579636645" lon="10.660653159428406" id="-22864">
		<tag k="name" v="Samtjønna" />
		<tag k="natural" v="water" />
		<tag k="ssr:stedsnr" v="10226" />
		<tag k="water" v="lake" />
	</node>
	<node lat="61.42287499604339" lon="10.290633335172105" id="-22868">
		<tag k="name" v="Svarttjønnet" />
		<tag k="natural" v="water" />
		<tag k="ssr:stedsnr" v="8916" />
	</node>
	<node lat="61.41129999900677" lon="9.994344452341998" id="-22870">
		<tag k="alt_name" v="Vesle Røgninn" />
		<tag k="name" v="Veslrøgna" />
		<tag k="natural" v="water" />
		<tag k="ssr:stedsnr" v="8927" />
	</node>
	<node lat="61.45242499632425" lon="10.473086109396409" id="-22875">
		<tag k="alt_name" v="Storskarven;Store Skarven" />
		<tag k="name" v="Storskarva" />
		<tag k="ssr:stedsnr" v="9356" />
		<tag k="waterway" v="stream" />
	</node>
	<node lat="61.44581388738917" lon="10.351441673964647" id="-22876">
		<tag k="name" v="Storfallet" />
		<tag k="place" v="locality" />
		<tag k="ssr:stedsnr" v="9358" />
	</node>
	<node lat="61.721152774284874" lon="9.996744437579096" id="-22877">
		<tag k="name" v="Storfallet" />
		<tag k="place" v="locality" />
		<tag k="ssr:stedsnr" v="10957" />
	</node>
	<node lat="61.71073320673617" lon="10.051294985540387" id="-22878">
		<tag k="name" v="Klopptjønna" />
		<tag k="natural" v="water" />
		<tag k="ssr:stedsnr" v="10964" />
	</node>
	<node lat="61.62620000276426" lon="10.292469450805047" id="-22886">
		<tag k="alt_name" v="Remma, vesle" />
		<tag k="name" v="Vesle Remma" />
		<tag k="ssr:stedsnr" v="10760" />
		<tag k="waterway" v="stream" />
	</node>
	<node lat="61.52019444443309" lon="10.292391667954329" id="-22894">
		<tag k="name" v="Langtjønnsbekken" />
		<tag k="ssr:stedsnr" v="10876" />
		<tag k="waterway" v="stream" />
	</node>
	<node lat="61.66123333295963" lon="10.079630551649773" id="-22898">
		<tag k="name" v="Midtbekken" />
		<tag k="ssr:stedsnr" v="34779" />
		<tag k="waterway" v="stream" />
	</node>
	<node lat="61.43886389325063" lon="10.313341669504931" id="-22908">
		<tag k="name" v="Indre Nyhusbekken" />
		<tag k="ssr:stedsnr" v="39243" />
		<tag k="waterway" v="stream" />
	</node>
	<node lat="61.66789561771653" lon="10.144551336662863" id="-22910">
		<tag k="loc_name" v="Fremre Måsåtjønn" />
		<tag k="name" v="Veslefjelltjønnet" />
		<tag k="natural" v="water" />
		<tag k="ssr:stedsnr" v="39413" />
	</node>
	<node lat="61.3841777812336" lon="9.972602774726356" id="-22928">
		<tag k="name" v="Dørja" />
		<tag k="natural" v="water" />
		<tag k="ssr:stedsnr" v="52337" />
	</node>
	<node lat="61.487686288188776" lon="10.045791108222085" id="-22938">
		<tag k="name" v="Steinvåga" />
		<tag k="natural" v="water" />
		<tag k="ssr:stedsnr" v="69636" />
		<tag k="water" v="lake" />
	</node>
	<node lat="61.613299997831106" lon="10.611858333925989" id="-22953">
		<tag k="alt_name" v="Kveinnbekken" />
		<tag k="name" v="Kvernbekken" />
		<tag k="ssr:stedsnr" v="71142" />
		<tag k="waterway" v="stream" />
	</node>
	<node lat="61.55936666933004" lon="10.644338895461555" id="-22954">
		<tag k="name" v="Stuva" />
		<tag k="ssr:stedsnr" v="71257" />
		<tag k="waterway" v="stream" />
	</node>
	<node lat="61.57485555467975" lon="10.635027783356579" id="-22958">
		<tag k="alt_name" v="Imssjøen, nordre" />
		<tag k="name" v="Nordre Imssjøen" />
		<tag k="natural" v="water" />
		<tag k="ssr:stedsnr" v="71161" />
		<tag k="water" v="lake" />
	</node>
	<node lat="61.62180474995784" lon="10.121295314423925" id="-22960">
		<tag k="name" v="Gulltjønnet" />
		<tag k="natural" v="water" />
		<tag k="ssr:stedsnr" v="71770" />
	</node>
	<node lat="61.63200000308557" lon="10.25808888088477" id="-22961">
		<tag k="alt_name" v="Slibekken" />
		<tag k="name" v="Sliebekken" />
		<tag k="ssr:stedsnr" v="71774" />
		<tag k="waterway" v="stream" />
	</node>
	<node lat="61.64298888518099" lon="10.100733328117968" id="-22964">
		<tag k="name" v="Freska" />
		<tag k="ssr:stedsnr" v="71786" />
		<tag k="waterway" v="river" />
	</node>
	<node lat="61.53302777478615" lon="10.275002786790823" id="-22967">
		<tag k="name" v="Høgåstjønnet" />
		<tag k="natural" v="water" />
		<tag k="ssr:stedsnr" v="71856" />
	</node>
	<node lat="61.53501944684417" lon="10.206938896235972" id="-22968">
		<tag k="name" v="Klopptjønnet" />
		<tag k="natural" v="water" />
		<tag k="ssr:stedsnr" v="71858" />
	</node>
	<node lat="61.664249997508996" lon="10.51461945197088" id="-22969">
		<tag k="fixme" v="multiple name tags, choose one and add the other to alt_name" />
		<tag k="name" v="Vollbekken;Skarvbekken" />
		<tag k="ssr:stedsnr" v="85421" />
		<tag k="waterway" v="stream" />
	</node>
	<node lat="61.587836113856454" lon="10.211424993878195" id="-22980">
		<tag k="name" v="Sveintjønnet" />
		<tag k="natural" v="water" />
		<tag k="ssr:stedsnr" v="100069" />
	</node>
	<node lat="61.5523972230703" lon="10.174613895086964" id="-22981">
		<tag k="name" v="Trolldalsbekken" />
		<tag k="ssr:stedsnr" v="100182" />
		<tag k="waterway" v="stream" />
	</node>
	<node lat="61.658163892166144" lon="10.613916662346261" id="-22998">
		<tag k="name" v="Søbekken" />
		<tag k="ssr:stedsnr" v="101809" />
		<tag k="waterway" v="stream" />
	</node>
	<node lat="61.4941388875416" lon="10.01935833877115" id="-23000">
		<tag k="name" v="Raubekken" />
		<tag k="ssr:stedsnr" v="113340" />
		<tag k="waterway" v="stream" />
	</node>
	<node lat="61.40643888483028" lon="10.138397221984702" id="-23003">
		<tag k="name" v="Morkabekken" />
		<tag k="ssr:stedsnr" v="118761" />
		<tag k="waterway" v="stream" />
	</node>
	<node lat="61.42586389241648" lon="10.196802783118184" id="-23005">
		<tag k="name" v="Linvikstjørnet" />
		<tag k="natural" v="water" />
		<tag k="ssr:stedsnr" v="118799" />
	</node>
	<node lat="61.663386112837145" lon="10.054949993929089" id="-23006">
		<tag k="name" v="Venåsbekken" />
		<tag k="ssr:stedsnr" v="118867" />
		<tag k="waterway" v="stream" />
	</node>
	<node lat="61.232741671063216" lon="10.4370611119802" id="-23010">
		<tag k="loc_name" v="Gudbrandsdalslågen" />
		<tag k="name" v="Lågen" />
		<tag k="ssr:stedsnr" v="129173" />
		<tag k="waterway" v="river" />
	</node>
	<node lat="61.461999999056395" lon="10.263391664782212" id="-23013">
		<tag k="name" v="Tromsa" />
		<tag k="ssr:stedsnr" v="129563" />
		<tag k="waterway" v="river" />
	</node>
	<node lat="61.641722220583944" lon="10.560319439037293" id="-23025">
		<tag k="alt_name" v="Botnebekken, østre;Østre Bottenbekken" />
		<tag k="name" v="Østre Botnebekken" />
		<tag k="ssr:stedsnr" v="131146" />
		<tag k="waterway" v="stream" />
	</node>
	<node lat="61.457511112123875" lon="10.037299998498511" id="-23029">
		<tag k="name" v="Vangsbekken" />
		<tag k="ssr:stedsnr" v="130547" />
		<tag k="waterway" v="stream" />
	</node>
	<node lat="61.56608610772722" lon="10.230416666627121" id="-23038">
		<tag k="name" v="Sagbekken" />
		<tag k="ssr:stedsnr" v="131852" />
		<tag k="waterway" v="stream" />
	</node>
	<node lat="61.56530832999748" lon="10.13708055682492" id="-23039">
		<tag k="name" v="Myrsæterbekken" />
		<tag k="ssr:stedsnr" v="131855" />
		<tag k="waterway" v="stream" />
	</node>
	<node lat="61.67349328449041" lon="10.156001295255079" id="-23041">
		<tag k="loc_name" v="Indre Måsåtjønn" />
		<tag k="name" v="Måsåtjønna" />
		<tag k="natural" v="water" />
		<tag k="ssr:stedsnr" v="141324" />
	</node>
	<node lat="61.55796667069333" lon="10.158186105681109" id="-23051">
		<tag k="name" v="Tunga" />
		<tag k="natural" v="cape" />
		<tag k="ssr:stedsnr" v="160005" />
	</node>
	<node lat="61.60004444024474" lon="10.240291657390388" id="-23065">
		<tag k="name" v="Stormyrbekken" />
		<tag k="ssr:stedsnr" v="160487" />
		<tag k="waterway" v="stream" />
	</node>
	<node lat="61.529069442641294" lon="10.323058333568028" id="-23074">
		<tag k="name" v="Breifallet" />
		<tag k="natural" v="waterfall" />
		<tag k="ssr:stedsnr" v="160668" />
	</node>
	<node lat="61.5133694469497" lon="10.248302782196449" id="-23075">
		<tag k="name" v="Byttingstulbekken" />
		<tag k="ssr:stedsnr" v="160673" />
		<tag k="waterway" v="stream" />
	</node>
	<node lat="61.55169166502469" lon="10.64970556354577" id="-23078">
		<tag k="name" v="Svartvika" />
		<tag k="natural" v="bay" />
		<tag k="ssr:stedsnr" v="160755" />
	</node>
	<node lat="61.51201388770786" lon="10.685713884629015" id="-23082">
		<tag k="name" v="Bjønnbekken" />
		<tag k="ssr:stedsnr" v="160971" />
		<tag k="waterway" v="stream" />
	</node>
	<node lat="61.681713892114324" lon="10.44778889278746" id="-23083">
		<tag k="name" v="Midtbekken" />
		<tag k="ssr:stedsnr" v="160805" />
		<tag k="waterway" v="stream" />
	</node>
	<node lat="61.49951944802417" lon="10.470258336626607" id="-23086">
		<tag k="name" v="Kappriartjønnet" />
		<tag k="natural" v="water" />
		<tag k="ssr:stedsnr" v="160912" />
	</node>
	<node lat="61.518819444022434" lon="10.415858330296683" id="-23087">
		<tag k="name" v="Langtjønnet" />
		<tag k="natural" v="water" />
		<tag k="ssr:stedsnr" v="160915" />
	</node>
	<node lat="61.648147219773946" lon="10.086844441149447" id="-23096">
		<tag k="name" v="Lundtjønnbekken" />
		<tag k="ssr:stedsnr" v="179884" />
		<tag k="waterway" v="stream" />
	</node>
	<node lat="61.4931194441827" lon="10.633594443864768" id="-23100">
		<tag k="name" v="Rudderudtjønnet" />
		<tag k="natural" v="water" />
		<tag k="ssr:stedsnr" v="190846" />
	</node>
	<node lat="61.497555556971655" lon="10.356925000527617" id="-23101">
		<tag k="name" v="Røya" />
		<tag k="ssr:stedsnr" v="190847" />
		<tag k="waterway" v="stream" />
	</node>
	<node lat="61.37694166293438" lon="10.255708329711386" id="-23106">
		<tag k="name" v="Losna" />
		<tag k="natural" v="water" />
		<tag k="ssr:stedsnr" v="190995" />
		<tag k="water" v="lake" />
	</node>
	<node lat="61.59248055150759" lon="10.256280550460522" id="-23117">
		<tag k="alt_name" v="Kveinnåa" />
		<tag k="name" v="Kvernbekken" />
		<tag k="ssr:stedsnr" v="192823" />
		<tag k="waterway" v="stream" />
	</node>
	<node lat="61.575255555021705" lon="10.170949996184413" id="-23120">
		<tag k="name" v="Nordåa" />
		<tag k="ssr:stedsnr" v="192834" />
		<tag k="waterway" v="river" />
	</node>
	<node lat="61.70315833299504" lon="10.094725006168776" id="-23122">
		<tag k="alt_name" v="Uksbekken, indre" />
		<tag k="name" v="Indre Uksbekken" />
		<tag k="ssr:stedsnr" v="192971" />
		<tag k="waterway" v="stream" />
	</node>
	<node lat="61.66139999599195" lon="10.085144440295947" id="-23125">
		<tag k="name" v="Buvatnet" />
		<tag k="natural" v="water" />
		<tag k="ssr:stedsnr" v="192986" />
	</node>
	<node lat="61.52198888670637" lon="10.051724991357142" id="-23126">
		<tag k="name" v="Solfrittbekken" />
		<tag k="ssr:stedsnr" v="192875" />
		<tag k="waterway" v="stream" />
	</node>
	<node lat="61.64165278120713" lon="10.182988891771847" id="-23129">
		<tag k="name" v="Storbekken" />
		<tag k="ssr:stedsnr" v="192998" />
		<tag k="waterway" v="stream" />
	</node>
	<node lat="61.62033889227778" lon="10.040858324315323" id="-23130">
		<tag k="name" v="Nørdre Steintjønnet" />
		<tag k="natural" v="water" />
		<tag k="ssr:stedsnr" v="202287" />
	</node>
	<node lat="61.4672000039725" lon="10.295430561601465" id="-23145">
		<tag k="name" v="Morkebekken" />
		<tag k="ssr:stedsnr" v="221316" />
		<tag k="waterway" v="stream" />
	</node>
	<node lat="61.53123333570268" lon="10.076866661900674" id="-23149">
		<tag k="name" v="Hortkroken" />
		<tag k="natural" v="bay" />
		<tag k="ssr:stedsnr" v="221689" />
	</node>
	<node lat="61.45490277944709" lon="10.10064721537958" id="-23156">
		<tag k="name" v="Bjørnlibekken" />
		<tag k="ssr:stedsnr" v="221667" />
		<tag k="waterway" v="stream" />
	</node>
	<node lat="61.55816944658201" lon="10.647299998044133" id="-23162">
		<tag k="name" v="Bugrunna" />
		<tag k="natural" v="shoal" />
		<tag k="place" v="locality" />
		<tag k="ssr:stedsnr" v="221747" />
	</node>
	<node lat="61.58698611179922" lon="10.227050008734428" id="-23171">
		<tag k="name" v="Randstedbekken" />
		<tag k="ssr:stedsnr" v="282081" />
		<tag k="waterway" v="stream" />
	</node>
	<node lat="61.56254444700898" lon="10.604522230416624" id="-23182">
		<tag k="name" v="Endsæterbekken" />
		<tag k="ssr:stedsnr" v="282743" />
		<tag k="waterway" v="stream" />
	</node>
	<node lat="61.61222777606939" lon="10.24963888024068" id="-23183">
		<tag k="name" v="Høstadbekken" />
		<tag k="ssr:stedsnr" v="282548" />
		<tag k="waterway" v="stream" />
	</node>
	<node lat="61.543663884975146" lon="10.353052770416326" id="-23185">
		<tag k="name" v="Styggebekken" />
		<tag k="ssr:stedsnr" v="282659" />
		<tag k="waterway" v="stream" />
	</node>
	<node lat="61.548900001818794" lon="10.29876666299956" id="-23186">
		<tag k="name" v="Stortjønna" />
		<tag k="natural" v="water" />
		<tag k="ssr:stedsnr" v="282664" />
	</node>
	<node lat="61.62253889161018" lon="10.081638880265068" id="-23187">
		<tag k="name" v="Grønnskarstjønnet" />
		<tag k="natural" v="water" />
		<tag k="ssr:stedsnr" v="282831" />
	</node>
	<node lat="61.440969447619224" lon="10.546241658423442" id="-23188">
		<tag k="name" v="Gompa" />
		<tag k="ssr:stedsnr" v="282914" />
		<tag k="waterway" v="stream" />
	</node>
	<node lat="61.44842221803847" lon="10.484336110224723" id="-23189">
		<tag k="name" v="Vetåfallet" />
		<tag k="natural" v="waterfall" />
		<tag k="ssr:stedsnr" v="282924" />
	</node>
	<node lat="61.49803333218648" lon="10.055358328877894" id="-23197">
		<tag k="name" v="Goløybekken" />
		<tag k="ssr:stedsnr" v="295334" />
		<tag k="waterway" v="stream" />
	</node>
	<node lat="61.4313694437385" lon="10.560941669982851" id="-23202">
		<tag k="name" v="Bjørgetjønn" />
		<tag k="natural" v="water" />
		<tag k="ssr:stedsnr" v="300964" />
	</node>
	<node lat="61.37699444429938" lon="9.984838897566638" id="-23203">
		<tag k="fixme" v="multiple name tags, choose one and add the other to alt_name" />
		<tag k="name" v="Fjellåa;Grasdalselva" />
		<tag k="ssr:stedsnr" v="311897" />
		<tag k="waterway" v="stream" />
	</node>
	<node lat="61.424308330398446" lon="10.498005548881586" id="-23205">
		<tag k="name" v="Koltjønnet" />
		<tag k="natural" v="water" />
		<tag k="ssr:stedsnr" v="312343" />
	</node>
	<node lat="61.43722500142517" lon="10.259819450708072" id="-23209">
		<tag k="name" v="Nerslettjønnet" />
		<tag k="natural" v="water" />
		<tag k="ssr:stedsnr" v="312930" />
	</node>
	<node lat="61.46050277994813" lon="10.022183336102001" id="-23210">
		<tag k="name" v="Jervåstjønnet" />
		<tag k="natural" v="water" />
		<tag k="ssr:stedsnr" v="312568" />
	</node>
	<node lat="61.478408330521646" lon="10.278961103506" id="-23211">
		<tag k="name" v="Tossa" />
		<tag k="ssr:stedsnr" v="312594" />
		<tag k="waterway" v="stream" />
	</node>
	<node lat="61.53461388786965" lon="10.309202786125937" id="-23221">
		<tag k="name" v="Nysæterbekken" />
		<tag k="ssr:stedsnr" v="313852" />
		<tag k="waterway" v="stream" />
	</node>
	<node lat="61.50939166368948" lon="10.203105549439789" id="-23222">
		<tag k="name" v="Svartåa" />
		<tag k="ssr:stedsnr" v="313885" />
		<tag k="waterway" v="stream" />
	</node>
	<node lat="61.519500002514214" lon="10.282399996179736" id="-23226">
		<tag k="name" v="Rundtjønnet" />
		<tag k="natural" v="water" />
		<tag k="ssr:stedsnr" v="313894" />
	</node>
	<node lat="61.656763885495934" lon="10.07548611373218" id="-23228">
		<tag k="name" v="Fresketjønnet" />
		<tag k="natural" v="water" />
		<tag k="ssr:stedsnr" v="313989" />
	</node>
	<node lat="61.57257473568232" lon="10.106176709853017" id="-23232">
		<tag k="name" v="Søre Åborsjøen" />
		<tag k="natural" v="water" />
		<tag k="ssr:stedsnr" v="314781" />
		<tag k="water" v="lake" />
	</node>
	<node lat="61.706905556548094" lon="9.970450003524366" id="-23233">
		<tag k="name" v="Kloppbekken" />
		<tag k="ssr:stedsnr" v="314941" />
		<tag k="waterway" v="stream" />
	</node>
	<node lat="61.696730559530955" lon="10.027508339256347" id="-23234">
		<tag k="name" v="Koietjønna" />
		<tag k="natural" v="water" />
		<tag k="ssr:stedsnr" v="314948" />
	</node>
	<node lat="61.61711110804646" lon="10.043844450708386" id="-23235">
		<tag k="name" v="Søre Steintjønnet" />
		<tag k="natural" v="water" />
		<tag k="ssr:stedsnr" v="323289" />
	</node>
	<node lat="61.59290833526734" lon="10.042905546620062" id="-23236">
		<tag k="alt_name" v="Lundeelva" />
		<tag k="name" v="Lundelva" />
		<tag k="ssr:stedsnr" v="323294" />
		<tag k="waterway" v="stream" />
	</node>
	<node lat="61.577966667850276" lon="10.307708325420366" id="-23252">
		<tag k="name" v="Sokkebandtjønnet" />
		<tag k="natural" v="water" />
		<tag k="ssr:stedsnr" v="342433" />
	</node>
	<node lat="61.496186110738705" lon="10.113511116217257" id="-23255">
		<tag k="name" v="Haustsæterbekken" />
		<tag k="ssr:stedsnr" v="342676" />
		<tag k="waterway" v="stream" />
	</node>
	<node lat="61.51966666698699" lon="10.25271666856702" id="-23261">
		<tag k="name" v="Lyntjønnet" />
		<tag k="natural" v="water" />
		<tag k="ssr:stedsnr" v="342628" />
	</node>
	<node lat="61.60509999589594" lon="10.606980558810847" id="-23263">
		<tag k="name" v="Dammen" />
		<tag k="ssr:stedsnr" v="342721" />
		<tag k="waterway" v="dam" />
	</node>
	<node lat="61.59598055478919" lon="10.561544437298117" id="-23265">
		<tag k="name" v="Styggbekken" />
		<tag k="ssr:stedsnr" v="342785" />
		<tag k="waterway" v="stream" />
	</node>
	<node lat="61.50098889112822" lon="10.463766664534553" id="-23270">
		<tag k="name" v="Høgåstjønna" />
		<tag k="natural" v="water" />
		<tag k="ssr:stedsnr" v="342876" />
	</node>
	<node lat="61.46360833543944" lon="10.158880564239249" id="-23276">
		<tag k="name" v="Bergebekken" />
		<tag k="ssr:stedsnr" v="361998" />
		<tag k="waterway" v="stream" />
	</node>
	<node lat="61.564469442568" lon="10.055608337267138" id="-23278">
		<tag k="name" v="Svilhølen" />
		<tag k="place" v="locality" />
		<tag k="ssr:stedsnr" v="361707" />
	</node>
	<node lat="61.68055000344525" lon="10.096152782523523" id="-23283">
		<tag k="name" v="Slåggåan" />
		<tag k="ssr:stedsnr" v="361883" />
		<tag k="waterway" v="stream" />
	</node>
	<node lat="61.477038886220505" lon="10.390649990675312" id="-23292">
		<tag k="name" v="Svarttjønnet" />
		<tag k="natural" v="water" />
		<tag k="ssr:stedsnr" v="372382" />
	</node>
	<node lat="61.50748611006883" lon="10.498652772684972" id="-23294">
		<tag k="name" v="Vetåa" />
		<tag k="old_name" v="Velåa" />
		<tag k="ssr:stedsnr" v="372389" />
		<tag k="waterway" v="river" />
	</node>
	<node lat="61.49615833104847" lon="10.060488879718248" id="-23295">
		<tag k="name" v="Breistultjønnet" />
		<tag k="natural" v="water" />
		<tag k="ssr:stedsnr" v="372540" />
	</node>
	<node lat="61.44810833382799" lon="10.073633329926315" id="-23298">
		<tag k="name" v="Svinåa" />
		<tag k="ssr:stedsnr" v="372580" />
		<tag k="waterway" v="river" />
	</node>
	<node lat="61.53439722460583" lon="10.374155553226815" id="-23305">
		<tag k="name" v="Svæla" />
		<tag k="ssr:stedsnr" v="373232" />
		<tag k="waterway" v="river" />
	</node>
	<node lat="61.53504722562824" lon="10.6253499984005" id="-23306">
		<tag k="name" v="Samdøla" />
		<tag k="ssr:stedsnr" v="373237" />
		<tag k="waterway" v="river" />
	</node>
	<node lat="61.69727992353083" lon="10.152063920090244" id="-23310">
		<tag k="name" v="Langrumpa" />
=======
	<node id="-378000" lat="61.6728388876" lon="9.9876861077">
		<tag k="name" v="Slavollbekken" />
		<tag k="ssr:stedsnr" v="799986" />
		<tag k="waterway" v="stream" />
	</node>
	<node id="-377999" lat="61.6792944421" lon="9.96998056341">
		<tag k="name" v="Brennbekken" />
		<tag k="ssr:stedsnr" v="799984" />
		<tag k="waterway" v="stream" />
	</node>
	<node id="-377998" lat="61.6882777754" lon="9.99453333502">
		<tag k="name" v="Heillbekken" />
		<tag k="ssr:stedsnr" v="799983" />
		<tag k="waterway" v="stream" />
	</node>
	<node id="-377988" lat="61.5652999998" lon="10.6072000039">
		<tag k="name" v="Orma" />
		<tag k="ssr:stedsnr" v="799246" />
		<tag k="waterway" v="river" />
	</node>
	<node id="-377983" lat="61.4060177522" lon="9.99703906456">
		<tag k="alt_name" v="Store Røgninn" />
		<tag k="name" v="Storrøgna" />
		<tag k="natural" v="water" />
		<tag k="ssr:stedsnr" v="797913" />
		<tag k="water" v="lake" />
	</node>
	<node id="-377981" lat="61.4316444433" lon="10.2631583319">
		<tag k="name" v="Tverråtjønnet" />
		<tag k="natural" v="water" />
		<tag k="ssr:stedsnr" v="797909" />
	</node>
	<node id="-377976" lat="61.3984111135" lon="9.9996083341">
		<tag k="name" v="Fjellvatnet" />
		<tag k="natural" v="water" />
		<tag k="ssr:stedsnr" v="797883" />
	</node>
	<node id="-377965" lat="61.6671333345" lon="10.0963305614">
		<tag k="name" v="Bulonene" />
		<tag k="natural" v="water" />
		<tag k="ssr:stedsnr" v="786893" />
		<tag k="water" v="lake" />
	</node>
	<node id="-377962" lat="61.5291194404" lon="10.1172833302">
		<tag k="name" v="Vesle Evjua" />
		<tag k="natural" v="bay" />
		<tag k="ssr:stedsnr" v="786241" />
	</node>
	<node id="-377961" lat="61.5182472248" lon="10.1471611031">
		<tag k="name" v="Vesleøyan" />
		<tag k="place" v="islet" />
		<tag k="ssr:stedsnr" v="786121" />
	</node>
	<node id="-377958" lat="61.3877805594" lon="9.97639166359">
		<tag k="name" v="Hyttjønn" />
		<tag k="natural" v="water" />
		<tag k="ssr:stedsnr" v="780337" />
	</node>
	<node id="-377950" lat="61.4441749996" lon="10.4775277837">
		<tag k="name" v="Fallet" />
		<tag k="natural" v="waterfall" />
		<tag k="ssr:stedsnr" v="769624" />
	</node>
	<node id="-377932" lat="61.4891083297" lon="10.4744527782">
		<tag k="name" v="Høgåsbekken" />
		<tag k="ssr:stedsnr" v="767572" />
		<tag k="waterway" v="stream" />
	</node>
	<node id="-377926" lat="61.4315388881" lon="10.273172218">
		<tag k="name" v="Blanke kilde" />
		<tag k="natural" v="spring" />
		<tag k="ssr:stedsnr" v="767240" />
	</node>
	<node id="-377923" lat="61.4781916648" lon="10.5090305551">
		<tag k="name" v="Buduppen" />
		<tag k="natural" v="water" />
		<tag k="ssr:stedsnr" v="767172" />
	</node>
	<node id="-377916" lat="61.661283334" lon="10.1857583324">
		<tag k="name" v="Dørfallet" />
		<tag k="natural" v="waterfall" />
		<tag k="ssr:stedsnr" v="738987" />
	</node>
	<node id="-377907" lat="61.5618805599" lon="10.2675638889">
		<tag k="name" v="Måsåtjønnet" />
		<tag k="natural" v="water" />
		<tag k="ssr:stedsnr" v="738831" />
	</node>
	<node id="-377902" lat="61.604091667" lon="10.1294722197">
		<tag k="name" v="Lauvåsåa" />
		<tag k="ssr:stedsnr" v="738785" />
		<tag k="waterway" v="stream" />
	</node>
	<node id="-377899" lat="61.6363916629" lon="10.279161118">
		<tag k="name" v="Storrtjønnet" />
		<tag k="natural" v="water" />
		<tag k="ssr:stedsnr" v="738772" />
	</node>
	<node id="-377896" lat="61.6807750032" lon="10.5903333424">
		<tag k="alt_name" v="Hellaksæterbekken" />
		<tag k="name" v="Helakbekken" />
		<tag k="ssr:stedsnr" v="738170" />
		<tag k="waterway" v="stream" />
	</node>
	<node id="-377895" lat="61.6212833295" lon="10.5932444508">
		<tag k="alt_name" v="Finnsetbekken" />
		<tag k="name" v="Finnskjeggbekken" />
		<tag k="ssr:stedsnr" v="738157" />
		<tag k="waterway" v="stream" />
	</node>
	<node id="-377892" lat="61.4751861155" lon="10.1215333392">
		<tag k="name" v="Mælumselva" />
		<tag k="ssr:stedsnr" v="737605" />
		<tag k="waterway" v="stream" />
	</node>
	<node id="-377888" lat="61.417677781" lon="10.1175416665">
		<tag k="alt_name" v="Tverråa" />
		<tag k="name" v="Tverrelva" />
		<tag k="ssr:stedsnr" v="736918" />
		<tag k="waterway" v="stream" />
	</node>
	<node id="-377886" lat="61.4259027807" lon="9.98363889547">
		<tag k="name" v="Tverråa" />
		<tag k="ssr:stedsnr" v="736914" />
		<tag k="waterway" v="stream" />
	</node>
	<node id="-377877" lat="61.5472361095" lon="10.6629555562">
		<tag k="name" v="Dammen" />
		<tag k="ssr:stedsnr" v="645996" />
		<tag k="waterway" v="dam" />
	</node>
	<node id="-377853" lat="61.439544448" lon="10.2524222298">
		<tag k="name" v="Nerslettbekken" />
		<tag k="ssr:stedsnr" v="645232" />
		<tag k="waterway" v="stream" />
	</node>
	<node id="-377847" lat="61.605688892" lon="10.6415888831">
		<tag k="name" v="Nordre Skådalsbekken" />
		<tag k="ssr:stedsnr" v="645772" />
		<tag k="waterway" v="stream" />
	</node>
	<node id="-377846" lat="61.5525083319" lon="10.6535777845">
		<tag k="name" v="Storvika" />
		<tag k="natural" v="bay" />
		<tag k="ssr:stedsnr" v="645752" />
	</node>
	<node id="-377832" lat="61.7060083328" lon="10.636577773">
		<tag k="alt_name" v="Hirsjøen, l;Litle Hirsjøen;Hirsjøen" />
		<tag k="name" v="Vesle-Hirsjøen" />
		<tag k="natural" v="water" />
		<tag k="ssr:stedsnr" v="617191" />
	</node>
	<node id="-377830" lat="61.5061194445" lon="10.2155305573">
		<tag k="name" v="Brandstadelva" />
		<tag k="ssr:stedsnr" v="616880" />
		<tag k="waterway" v="stream" />
	</node>
	<node id="-377821" lat="61.4897249994" lon="10.1170250011">
		<tag k="alt_name" v="Strandeelva" />
		<tag k="name" v="Strandelva" />
		<tag k="ssr:stedsnr" v="615507" />
		<tag k="waterway" v="stream" />
	</node>
	<node id="-377814" lat="61.4139638916" lon="10.1434722196">
		<tag k="name" v="Svarttjønnet" />
		<tag k="natural" v="water" />
		<tag k="ssr:stedsnr" v="614906" />
	</node>
	<node id="-377811" lat="61.3768694426" lon="10.2217416605">
		<tag k="name" v="Bergdøla" />
		<tag k="ssr:stedsnr" v="614995" />
		<tag k="waterway" v="stream" />
	</node>
	<node id="-377808" lat="61.3981166678" lon="10.1457416638">
		<tag k="name" v="Demmingan" />
		<tag k="natural" v="water" />
		<tag k="ssr:stedsnr" v="603744" />
	</node>
	<node id="-377807" lat="61.4106999997" lon="10.2045083251">
		<tag k="name" v="Leira" />
		<tag k="natural" v="cape" />
		<tag k="ssr:stedsnr" v="603791" />
	</node>
	<node id="-377805" lat="61.4123888916" lon="10.212047214">
		<tag k="name" v="Storsand" />
		<tag k="place" v="islet" />
		<tag k="ssr:stedsnr" v="603785" />
	</node>
	<node id="-377804" lat="61.4231611114" lon="10.2011388886">
		<tag k="name" v="Hammersåla" />
		<tag k="natural" v="bay" />
		<tag k="ssr:stedsnr" v="603784" />
	</node>
	<node id="-377802" lat="61.5915111102" lon="10.0435194452">
		<tag k="name" v="Hummelåa" />
		<tag k="ssr:stedsnr" v="598940" />
		<tag k="waterway" v="stream" />
	</node>
	<node id="-377782" lat="61.4283388892" lon="10.2855444462">
		<tag k="name" v="Tritjønna" />
		<tag k="natural" v="water" />
		<tag k="ssr:stedsnr" v="585226" />
	</node>
	<node id="-377770" lat="61.6706583358" lon="10.605811105">
		<tag k="name" v="Rundfløtbekken" />
		<tag k="ssr:stedsnr" v="584796" />
		<tag k="waterway" v="stream" />
	</node>
	<node id="-377768" lat="61.5649472186" lon="10.6393250005">
		<tag k="name" v="Storvika" />
		<tag k="natural" v="bay" />
		<tag k="ssr:stedsnr" v="584792" />
	</node>
	<node id="-377763" lat="61.506602775" lon="10.0969666587">
		<tag k="name" v="Haustsætertjønnet" />
		<tag k="natural" v="water" />
		<tag k="ssr:stedsnr" v="584752" />
	</node>
	<node id="-377750" lat="61.6619777762" lon="9.99355277886">
		<tag k="name" v="Hovdbekken" />
		<tag k="ssr:stedsnr" v="566329" />
		<tag k="waterway" v="stream" />
	</node>
	<node id="-377749" lat="61.6770555548" lon="10.0225499915">
		<tag k="name" v="Haugaslettjønnet" />
		<tag k="natural" v="water" />
		<tag k="ssr:stedsnr" v="566325" />
	</node>
	<node id="-377748" lat="61.5851431722" lon="10.0926885898">
		<tag k="name" v="Nørdre Åborsjøen" />
		<tag k="natural" v="water" />
		<tag k="ssr:stedsnr" v="556800" />
	</node>
	<node id="-377747" lat="61.6127250032" lon="10.1391388942">
		<tag k="name" v="Nigardsbekken" />
		<tag k="ssr:stedsnr" v="556781" />
		<tag k="waterway" v="stream" />
	</node>
	<node id="-377746" lat="61.703433333" lon="10.6131388817">
		<tag k="alt_name" v="Hira, l;Hira" />
		<tag k="name" v="Vesle-Hira" />
		<tag k="ssr:stedsnr" v="556192" />
		<tag k="waterway" v="stream" />
	</node>
	<node id="-377744" lat="61.6199166651" lon="10.5731777859">
		<tag k="alt_name" v="Rundheillåa;Rundheillbekken" />
		<tag k="name" v="Rundhallåa" />
		<tag k="ssr:stedsnr" v="556186" />
		<tag k="waterway" v="river" />
	</node>
	<node id="-377741" lat="61.6693472247" lon="10.0907138951">
		<tag k="name" v="Urdtjønnet" />
		<tag k="natural" v="water" />
		<tag k="ssr:stedsnr" v="555976" />
	</node>
	<node id="-377740" lat="61.6772163667" lon="10.3469014488">
		<tag k="name" v="Hirisjøen" />
		<tag k="natural" v="water" />
		<tag k="old_name" v="Store Hiresjøen" />
		<tag k="ssr:stedsnr" v="555967" />
		<tag k="water" v="lake" />
	</node>
	<node id="-377736" lat="61.5379611131" lon="10.066972214">
		<tag k="alt_name" v="Bjørkøya" />
		<tag k="name" v="Børkøya" />
		<tag k="place" v="islet" />
		<tag k="ssr:stedsnr" v="555815" />
	</node>
	<node id="-377732" lat="61.4275250012" lon="10.1385500079">
		<tag k="alt_name" v="Knappelven" />
		<tag k="name" v="Knappelva" />
		<tag k="ssr:stedsnr" v="554946" />
		<tag k="waterway" v="stream" />
	</node>
	<node id="-377731" lat="61.4175111076" lon="10.4865305516">
		<tag k="name" v="Vesle Tromsa" />
		<tag k="ssr:stedsnr" v="554967" />
		<tag k="waterway" v="stream" />
	</node>
	<node id="-377728" lat="61.4730416668" lon="10.0749833323">
		<tag k="name" v="Svarttjønnet" />
		<tag k="natural" v="water" />
		<tag k="ssr:stedsnr" v="554645" />
	</node>
	<node id="-377726" lat="61.4794055547" lon="10.2242194414">
		<tag k="name" v="Åbbortjønnet" />
		<tag k="natural" v="water" />
		<tag k="ssr:stedsnr" v="554634" />
	</node>
	<node id="-377724" lat="61.4897277744" lon="10.0134499971">
		<tag k="name" v="Gumpen" />
		<tag k="natural" v="water" />
		<tag k="ssr:stedsnr" v="554554" />
		<tag k="water" v="lake" />
	</node>
	<node id="-377719" lat="61.3839305569" lon="10.3095944425">
		<tag k="name" v="Rolla" />
		<tag k="ssr:stedsnr" v="553886" />
		<tag k="waterway" v="river" />
	</node>
	<node id="-377718" lat="61.3888750022" lon="9.96259444126">
		<tag k="name" v="Fiskeløysa" />
		<tag k="natural" v="water" />
		<tag k="ssr:stedsnr" v="553332" />
	</node>
	<node id="-377715" lat="61.6711638909" lon="10.0755138804">
		<tag k="alt_name" v="Vetlødden" />
		<tag k="name" v="Vetlodden" />
		<tag k="natural" v="cape" />
		<tag k="ssr:stedsnr" v="543854" />
	</node>
	<node id="-377713" lat="61.4246499962" lon="10.2009999984">
		<tag k="name" v="Djupåla" />
		<tag k="natural" v="bay" />
		<tag k="ssr:stedsnr" v="543792" />
	</node>
	<node id="-377707" lat="61.4870527792" lon="10.0309472148">
		<tag k="name" v="Storgompen" />
		<tag k="natural" v="bay" />
		<tag k="ssr:stedsnr" v="530256" />
	</node>
	<node id="-377667" lat="61.6594916708" lon="10.1116111101">
		<tag k="name" v="Stormyrtjønnet" />
		<tag k="natural" v="water" />
		<tag k="ssr:stedsnr" v="435996" />
	</node>
	<node id="-377655" lat="61.5063833345" lon="10.4243388945">
		<tag k="name" v="Røytjønnet" />
		<tag k="natural" v="water" />
		<tag k="ssr:stedsnr" v="435259" />
	</node>
	<node id="-377653" lat="61.5548527811" lon="10.1880194492">
		<tag k="name" v="Søråa" />
		<tag k="ssr:stedsnr" v="434759" />
		<tag k="waterway" v="river" />
	</node>
	<node id="-377648" lat="61.4108833372" lon="10.3764472309">
		<tag k="name" v="Kroktjønnet" />
		<tag k="natural" v="water" />
		<tag k="ssr:stedsnr" v="434296" />
	</node>
	<node id="-377636" lat="61.6779972248" lon="10.0589611123">
		<tag k="alt_name" v="Kveinnbekken" />
		<tag k="name" v="Kvannbekken" />
		<tag k="ssr:stedsnr" v="422884" />
		<tag k="waterway" v="stream" />
	</node>
	<node id="-377635" lat="61.3975333354" lon="10.1765777696">
		<tag k="name" v="Øvre Bekken" />
		<tag k="ssr:stedsnr" v="422783" />
		<tag k="waterway" v="stream" />
	</node>
	<node id="-377628" lat="61.5639388855" lon="10.6627361151">
		<tag k="alt_name" v="Skarbekken" />
		<tag k="name" v="Skakkbekken" />
		<tag k="ssr:stedsnr" v="407883" />
		<tag k="waterway" v="stream" />
	</node>
	<node id="-377616" lat="61.5395527743" lon="10.0885750065">
		<tag k="name" v="Storhåmmåren" />
		<tag k="natural" v="cape" />
		<tag k="ssr:stedsnr" v="403728" />
	</node>
	<node id="-377610" lat="61.4454750036" lon="10.4628777742">
		<tag k="name" v="Vesle Skarven" />
		<tag k="ssr:stedsnr" v="403577" />
		<tag k="waterway" v="stream" />
	</node>
	<node id="-377604" lat="61.4221972193" lon="10.2701777808">
		<tag k="name" v="Storholmen" />
		<tag k="place" v="islet" />
		<tag k="ssr:stedsnr" v="403286" />
	</node>
	<node id="-377603" lat="61.5438277781" lon="10.1396555587">
		<tag k="name" v="Gangtrefossen" />
		<tag k="natural" v="waterfall" />
		<tag k="ssr:stedsnr" v="403201" />
	</node>
	<node id="-377600" lat="61.5965166635" lon="10.1886777823">
		<tag k="name" v="Kollbekken" />
		<tag k="ssr:stedsnr" v="403059" />
		<tag k="waterway" v="stream" />
	</node>
	<node id="-377593" lat="61.6048833309" lon="10.2548972183">
		<tag k="name" v="Tverrturen" />
		<tag k="ssr:stedsnr" v="374790" />
		<tag k="waterway" v="stream" />
	</node>
	<node id="-377588" lat="61.6551055586" lon="9.99295556358">
		<tag k="name" v="Ådalsbekken" />
		<tag k="ssr:stedsnr" v="373992" />
		<tag k="waterway" v="stream" />
	</node>
	<node id="-377586" lat="61.6723138897" lon="10.1683861197">
		<tag k="name" v="Gråbekken" />
		<tag k="ssr:stedsnr" v="373979" />
		<tag k="waterway" v="stream" />
	</node>
	<node id="-377582" lat="61.5350472256" lon="10.6253499984">
		<tag k="name" v="Samdøla" />
		<tag k="ssr:stedsnr" v="373237" />
		<tag k="waterway" v="river" />
	</node>
	<node id="-377581" lat="61.5343972246" lon="10.3741555532">
		<tag k="name" v="Svæla" />
		<tag k="ssr:stedsnr" v="373232" />
		<tag k="waterway" v="river" />
	</node>
	<node id="-377573" lat="61.4481083338" lon="10.0736333299">
		<tag k="name" v="Svinåa" />
		<tag k="ssr:stedsnr" v="372580" />
		<tag k="waterway" v="river" />
	</node>
	<node id="-377571" lat="61.4661027743" lon="10.0273222168">
		<tag k="name" v="Småtjønna" />
		<tag k="natural" v="water" />
		<tag k="ssr:stedsnr" v="372629" />
	</node>
	<node id="-377568" lat="61.496158331" lon="10.0604888797">
		<tag k="name" v="Breistultjønnet" />
		<tag k="natural" v="water" />
		<tag k="ssr:stedsnr" v="372540" />
	</node>
	<node id="-377567" lat="61.5074861101" lon="10.4986527727">
		<tag k="name" v="Vetåa" />
		<tag k="old_name" v="Velåa" />
		<tag k="ssr:stedsnr" v="372389" />
		<tag k="waterway" v="river" />
	</node>
	<node id="-377565" lat="61.4770388862" lon="10.3906499907">
		<tag k="name" v="Svarttjønnet" />
		<tag k="natural" v="water" />
		<tag k="ssr:stedsnr" v="372382" />
	</node>
	<node id="-377558" lat="61.4636083354" lon="10.1588805642">
		<tag k="name" v="Bergebekken" />
		<tag k="ssr:stedsnr" v="361998" />
		<tag k="waterway" v="stream" />
	</node>
	<node id="-377556" lat="61.6805500034" lon="10.0961527825">
		<tag k="name" v="Slåggåan" />
		<tag k="ssr:stedsnr" v="361883" />
		<tag k="waterway" v="stream" />
	</node>
	<node id="-377540" lat="61.5009888911" lon="10.4637666645">
		<tag k="name" v="Høgåstjønna" />
		<tag k="natural" v="water" />
		<tag k="ssr:stedsnr" v="342876" />
	</node>
	<node id="-377539" lat="61.5959805548" lon="10.5615444373">
		<tag k="name" v="Styggbekken" />
		<tag k="ssr:stedsnr" v="342785" />
		<tag k="waterway" v="stream" />
	</node>
	<node id="-377536" lat="61.6050999959" lon="10.6069805588">
		<tag k="name" v="Dammen" />
		<tag k="ssr:stedsnr" v="342721" />
		<tag k="waterway" v="dam" />
	</node>
	<node id="-377532" lat="61.4961861107" lon="10.1135111162">
		<tag k="name" v="Haustsæterbekken" />
		<tag k="ssr:stedsnr" v="342676" />
		<tag k="waterway" v="stream" />
	</node>
	<node id="-377529" lat="61.519666667" lon="10.2527166686">
		<tag k="name" v="Lyntjønnet" />
		<tag k="natural" v="water" />
		<tag k="ssr:stedsnr" v="342628" />
	</node>
	<node id="-377521" lat="61.5779666679" lon="10.3077083254">
		<tag k="name" v="Sokkebandtjønnet" />
		<tag k="natural" v="water" />
		<tag k="ssr:stedsnr" v="342433" />
	</node>
	<node id="-377507" lat="61.5964388932" lon="10.171538894">
		<tag k="name" v="Indre Kollbekken" />
		<tag k="ssr:stedsnr" v="342104" />
		<tag k="waterway" v="stream" />
	</node>
	<node id="-377501" lat="61.5929083353" lon="10.0429055466">
		<tag k="alt_name" v="Lundeelva" />
		<tag k="name" v="Lundelva" />
		<tag k="ssr:stedsnr" v="323294" />
		<tag k="waterway" v="stream" />
	</node>
	<node id="-377500" lat="61.617111108" lon="10.0438444507">
		<tag k="name" v="Søre Steintjønnet" />
		<tag k="natural" v="water" />
		<tag k="ssr:stedsnr" v="323289" />
	</node>
	<node id="-377499" lat="61.6967305595" lon="10.0275083393">
		<tag k="name" v="Koietjønna" />
		<tag k="natural" v="water" />
		<tag k="ssr:stedsnr" v="314948" />
	</node>
	<node id="-377498" lat="61.7069055565" lon="9.97045000352">
		<tag k="name" v="Kloppbekken" />
		<tag k="ssr:stedsnr" v="314941" />
		<tag k="waterway" v="stream" />
	</node>
	<node id="-377497" lat="61.5725747357" lon="10.1061767099">
		<tag k="name" v="Søre Åborsjøen" />
		<tag k="natural" v="water" />
		<tag k="ssr:stedsnr" v="314781" />
		<tag k="water" v="lake" />
	</node>
	<node id="-377493" lat="61.6567638855" lon="10.0754861137">
		<tag k="name" v="Fresketjønnet" />
		<tag k="natural" v="water" />
		<tag k="ssr:stedsnr" v="313989" />
	</node>
	<node id="-377491" lat="61.5195000025" lon="10.2823999962">
		<tag k="name" v="Rundtjønnet" />
		<tag k="natural" v="water" />
		<tag k="ssr:stedsnr" v="313894" />
	</node>
	<node id="-377487" lat="61.5093916637" lon="10.2031055494">
		<tag k="name" v="Svartåa" />
		<tag k="ssr:stedsnr" v="313885" />
		<tag k="waterway" v="stream" />
	</node>
	<node id="-377479" lat="61.4372250014" lon="10.2598194507">
		<tag k="name" v="Nerslettjønnet" />
		<tag k="natural" v="water" />
		<tag k="ssr:stedsnr" v="312930" />
	</node>
	<node id="-377476" lat="61.4784083305" lon="10.2789611035">
		<tag k="name" v="Tossa" />
		<tag k="ssr:stedsnr" v="312594" />
		<tag k="waterway" v="stream" />
	</node>
	<node id="-377475" lat="61.4243083304" lon="10.4980055489">
		<tag k="name" v="Koltjønnet" />
		<tag k="natural" v="water" />
		<tag k="ssr:stedsnr" v="312343" />
	</node>
	<node id="-377470" lat="61.3769944443" lon="9.98483889757">
		<tag k="fixme" v="multiple name tags, choose one and add the other to alt_name" />
		<tag k="name" v="Fjellåa;Grasdalselva" />
		<tag k="ssr:stedsnr" v="311897" />
		<tag k="waterway" v="stream" />
	</node>
	<node id="-377463" lat="61.4684861086" lon="10.9400388921">
		<tag k="name" v="Imsa" />
		<tag k="ssr:stedsnr" v="311491" />
		<tag k="waterway" v="river" />
	</node>
	<node id="-377456" lat="61.7370305531" lon="10.0669444355">
		<tag k="name" v="Storlon" />
		<tag k="natural" v="water" />
		<tag k="ssr:stedsnr" v="208976" />
		<tag k="water" v="lake" />
	</node>
	<node id="-377452" lat="61.6536833348" lon="10.1085166664">
		<tag k="name" v="Søre Fiskeløysa" />
		<tag k="natural" v="water" />
		<tag k="ssr:stedsnr" v="204098" />
	</node>
	<node id="-377451" lat="61.6203388923" lon="10.0408583243">
		<tag k="name" v="Nørdre Steintjønnet" />
		<tag k="natural" v="water" />
		<tag k="ssr:stedsnr" v="202287" />
	</node>
	<node id="-377450" lat="61.6416527812" lon="10.1829888918">
		<tag k="name" v="Storbekken" />
		<tag k="ssr:stedsnr" v="192998" />
		<tag k="waterway" v="stream" />
	</node>
	<node id="-377447" lat="61.5219888867" lon="10.0517249914">
		<tag k="name" v="Solfrittbekken" />
		<tag k="ssr:stedsnr" v="192875" />
		<tag k="waterway" v="stream" />
	</node>
	<node id="-377443" lat="61.661399996" lon="10.0851444403">
		<tag k="name" v="Buvatnet" />
		<tag k="natural" v="water" />
		<tag k="ssr:stedsnr" v="192986" />
	</node>
	<node id="-377440" lat="61.703158333" lon="10.0947250062">
		<tag k="alt_name" v="Uksbekken, indre" />
		<tag k="name" v="Indre Uksbekken" />
		<tag k="ssr:stedsnr" v="192971" />
		<tag k="waterway" v="stream" />
	</node>
	<node id="-377436" lat="61.575255555" lon="10.1709499962">
		<tag k="name" v="Nordåa" />
		<tag k="ssr:stedsnr" v="192834" />
		<tag k="waterway" v="river" />
	</node>
	<node id="-377433" lat="61.5924805515" lon="10.2562805505">
		<tag k="alt_name" v="Kveinnåa" />
		<tag k="name" v="Kvernbekken" />
		<tag k="ssr:stedsnr" v="192823" />
		<tag k="waterway" v="stream" />
	</node>
	<node id="-377429" lat="61.3769416629" lon="10.2557083297">
		<tag k="name" v="Losna" />
		<tag k="natural" v="water" />
		<tag k="ssr:stedsnr" v="190995" />
		<tag k="water" v="lake" />
	</node>
	<node id="-377421" lat="61.497555557" lon="10.3569250005">
		<tag k="name" v="Røya" />
		<tag k="ssr:stedsnr" v="190847" />
		<tag k="waterway" v="stream" />
	</node>
	<node id="-377420" lat="61.4931194442" lon="10.6335944439">
		<tag k="name" v="Rudderudtjønnet" />
		<tag k="natural" v="water" />
		<tag k="ssr:stedsnr" v="190846" />
	</node>
	<node id="-377413" lat="61.6481472198" lon="10.0868444411">
		<tag k="name" v="Lundtjønnbekken" />
		<tag k="ssr:stedsnr" v="179884" />
		<tag k="waterway" v="stream" />
	</node>
	<node id="-377398" lat="61.6817138921" lon="10.4477888928">
		<tag k="name" v="Midtbekken" />
		<tag k="ssr:stedsnr" v="160805" />
		<tag k="waterway" v="stream" />
	</node>
	<node id="-377390" lat="61.6000444402" lon="10.2402916574">
		<tag k="name" v="Stormyrbekken" />
		<tag k="ssr:stedsnr" v="160487" />
		<tag k="waterway" v="stream" />
	</node>
	<node id="-377379" lat="61.6734932845" lon="10.1560012953">
		<tag k="loc_name" v="Indre Måsåtjønn" />
		<tag k="name" v="Måsåtjønna" />
		<tag k="natural" v="water" />
		<tag k="ssr:stedsnr" v="141324" />
	</node>
	<node id="-377372" lat="61.6765500005" lon="10.292363897">
		<tag k="name" v="Stulsbekken" />
		<tag k="ssr:stedsnr" v="131985" />
		<tag k="waterway" v="stream" />
	</node>
	<node id="-377370" lat="61.6992438185" lon="10.127860425">
		<tag k="name" v="Bølvatnet" />
		<tag k="natural" v="water" />
		<tag k="ssr:stedsnr" v="131980" />
		<tag k="water" v="lake" />
	</node>
	<node id="-377367" lat="61.702036112" lon="9.98733332886">
		<tag k="name" v="Koiebekken" />
		<tag k="ssr:stedsnr" v="131974" />
		<tag k="waterway" v="stream" />
	</node>
	<node id="-377366" lat="61.5285916698" lon="10.2449583412">
		<tag k="name" v="Ølløvtjønnet" />
		<tag k="natural" v="water" />
		<tag k="ssr:stedsnr" v="131887" />
	</node>
	<node id="-377364" lat="61.5353444469" lon="10.0845805534">
		<tag k="name" v="Risøya" />
		<tag k="place" v="islet" />
		<tag k="ssr:stedsnr" v="131881" />
	</node>
	<node id="-377362" lat="61.56530833" lon="10.1370805568">
		<tag k="name" v="Myrsæterbekken" />
		<tag k="ssr:stedsnr" v="131855" />
		<tag k="waterway" v="stream" />
	</node>
	<node id="-377361" lat="61.5660861077" lon="10.2304166666">
		<tag k="name" v="Sagbekken" />
		<tag k="ssr:stedsnr" v="131852" />
		<tag k="waterway" v="stream" />
	</node>
	<node id="-377358" lat="61.6282749964" lon="10.316913888">
		<tag k="name" v="Remma" />
		<tag k="ssr:stedsnr" v="131765" />
		<tag k="waterway" v="river" />
	</node>
	<node id="-377348" lat="61.4575111121" lon="10.0372999985">
		<tag k="name" v="Vangsbekken" />
		<tag k="ssr:stedsnr" v="130547" />
		<tag k="waterway" v="stream" />
	</node>
	<node id="-377347" lat="61.4898527757" lon="10.3163388965">
		<tag k="name" v="Kroktjønn" />
		<tag k="natural" v="water" />
		<tag k="ssr:stedsnr" v="130496" />
	</node>
	<node id="-377335" lat="61.4619999991" lon="10.2633916648">
		<tag k="name" v="Tromsa" />
		<tag k="ssr:stedsnr" v="129563" />
		<tag k="waterway" v="river" />
	</node>
	<node id="-377332" lat="61.2327416711" lon="10.437061112">
		<tag k="loc_name" v="Gudbrandsdalslågen" />
		<tag k="name" v="Lågen" />
		<tag k="ssr:stedsnr" v="129173" />
		<tag k="waterway" v="river" />
	</node>
	<node id="-377331" lat="61.4258638924" lon="10.1968027831">
		<tag k="name" v="Linvikstjørnet" />
>>>>>>> e1d4bc35ff8a6074a6f2e91616a996b547c36f15
		<tag k="natural" v="water" />
		<tag k="ssr:stedsnr" v="118799" />
	</node>
<<<<<<< HEAD
	<node lat="61.67231388968406" lon="10.16838611971793" id="-23311">
		<tag k="name" v="Gråbekken" />
		<tag k="ssr:stedsnr" v="373979" />
		<tag k="waterway" v="stream" />
	</node>
	<node lat="61.53860555883563" lon="10.539569448510115" id="-23319">
		<tag k="name" v="Gluptjønnet" />
		<tag k="natural" v="water" />
		<tag k="ssr:stedsnr" v="374268" />
	</node>
	<node lat="61.52805555169272" lon="10.318988891726969" id="-23321">
		<tag k="alt_name" v="Breida" />
		<tag k="name" v="Breia" />
		<tag k="ssr:stedsnr" v="374866" />
		<tag k="waterway" v="river" />
	</node>
	<node lat="61.740108329115465" lon="10.071613892411634" id="-23323">
		<tag k="name" v="Svabubekken" />
		<tag k="ssr:stedsnr" v="374956" />
		<tag k="waterway" v="stream" />
	</node>
	<node lat="61.6048833309458" lon="10.254897218274477" id="-23325">
		<tag k="name" v="Tverrturen" />
		<tag k="ssr:stedsnr" v="374790" />
		<tag k="waterway" v="stream" />
	</node>
	<node lat="61.51504015210649" lon="10.490248940028762" id="-23328">
		<tag k="name" v="Saubutjønna" />
=======
	<node id="-377324" lat="61.6581638922" lon="10.6139166623">
		<tag k="name" v="Søbekken" />
		<tag k="ssr:stedsnr" v="101809" />
		<tag k="waterway" v="stream" />
	</node>
	<node id="-377309" lat="61.518472221" lon="10.2423444491">
		<tag k="name" v="Ølløvtjønnbekken" />
		<tag k="ssr:stedsnr" v="100672" />
		<tag k="waterway" v="stream" />
	</node>
	<node id="-377303" lat="61.4208638872" lon="10.2822027865">
		<tag k="name" v="Storrputten" />
		<tag k="natural" v="water" />
		<tag k="ssr:stedsnr" v="100282" />
	</node>
	<node id="-377301" lat="61.5523972231" lon="10.1746138951">
		<tag k="name" v="Trolldalsbekken" />
		<tag k="ssr:stedsnr" v="100182" />
		<tag k="waterway" v="stream" />
	</node>
	<node id="-377292" lat="61.7011138913" lon="10.5803777797">
		<tag k="alt_name" v="Hølbekken" />
		<tag k="name" v="Holbekken" />
		<tag k="ssr:stedsnr" v="85427" />
		<tag k="waterway" v="stream" />
	</node>
	<node id="-377289" lat="61.655650004" lon="10.1321833397">
		<tag k="name" v="Mya" />
		<tag k="ssr:stedsnr" v="71991" />
		<tag k="waterway" v="river" />
	</node>
	<node id="-377285" lat="61.7286916686" lon="10.1383111161">
		<tag k="name" v="Ramstjønnet" />
		<tag k="natural" v="water" />
		<tag k="ssr:stedsnr" v="71970" />
	</node>
	<node id="-377280" lat="61.5350194468" lon="10.2069388962">
		<tag k="name" v="Klopptjønnet" />
		<tag k="natural" v="water" />
		<tag k="ssr:stedsnr" v="71858" />
	</node>
	<node id="-377279" lat="61.5330277748" lon="10.2750027868">
		<tag k="name" v="Høgåstjønnet" />
>>>>>>> e1d4bc35ff8a6074a6f2e91616a996b547c36f15
		<tag k="natural" v="water" />
		<tag k="ssr:stedsnr" v="71856" />
	</node>
<<<<<<< HEAD
	<node lat="61.53272500156411" lon="10.570500007809049" id="-23335">
		<tag k="name" v="Bubekken" />
		<tag k="ssr:stedsnr" v="495252" />
		<tag k="waterway" v="stream" />
	</node>
	<node lat="61.534000001432794" lon="10.670144449859407" id="-23336">
		<tag k="name" v="Samtjønnsbekken" />
		<tag k="ssr:stedsnr" v="495254" />
		<tag k="waterway" v="stream" />
	</node>
	<node lat="61.589777773583464" lon="10.41998611742302" id="-23338">
		<tag k="name" v="Nørdre Breitjønnet" />
=======
	<node id="-377278" lat="61.6429888852" lon="10.1007333281">
		<tag k="name" v="Freska" />
		<tag k="ssr:stedsnr" v="71786" />
		<tag k="waterway" v="river" />
	</node>
	<node id="-377275" lat="61.6320000031" lon="10.2580888809">
		<tag k="alt_name" v="Slibekken" />
		<tag k="name" v="Sliebekken" />
		<tag k="ssr:stedsnr" v="71774" />
		<tag k="waterway" v="stream" />
	</node>
	<node id="-377274" lat="61.62180475" lon="10.1212953144">
		<tag k="name" v="Gulltjønnet" />
		<tag k="natural" v="water" />
		<tag k="ssr:stedsnr" v="71770" />
	</node>
	<node id="-377272" lat="61.5748555547" lon="10.6350277834">
		<tag k="alt_name" v="Imssjøen, nordre" />
		<tag k="name" v="Nordre Imssjøen" />
		<tag k="natural" v="water" />
		<tag k="ssr:stedsnr" v="71161" />
		<tag k="water" v="lake" />
	</node>
	<node id="-377270" lat="61.6132999978" lon="10.6118583339">
		<tag k="alt_name" v="Kveinnbekken" />
		<tag k="name" v="Kvernbekken" />
		<tag k="ssr:stedsnr" v="71142" />
		<tag k="waterway" v="stream" />
	</node>
	<node id="-377267" lat="61.5593666693" lon="10.6443388955">
		<tag k="name" v="Stuva" />
		<tag k="ssr:stedsnr" v="71257" />
		<tag k="waterway" v="stream" />
	</node>
	<node id="-377266" lat="61.6924138905" lon="10.1551416662">
		<tag k="name" v="Mykjørrtjønnet" />
>>>>>>> e1d4bc35ff8a6074a6f2e91616a996b547c36f15
		<tag k="natural" v="water" />
		<tag k="ssr:stedsnr" v="70971" />
	</node>
<<<<<<< HEAD
	<node lat="61.52110555312824" lon="10.435358336606178" id="-23340">
		<tag k="name" v="Kringleslåtjønnet" />
		<tag k="natural" v="water" />
		<tag k="ssr:stedsnr" v="403918" />
	</node>
	<node lat="61.596516663538424" lon="10.188677782281014" id="-23343">
		<tag k="name" v="Kollbekken" />
		<tag k="ssr:stedsnr" v="403059" />
		<tag k="waterway" v="stream" />
	</node>
	<node lat="61.54382777812869" lon="10.13965555870378" id="-23347">
		<tag k="name" v="Gangtrefossen" />
		<tag k="natural" v="waterfall" />
		<tag k="ssr:stedsnr" v="403201" />
	</node>
	<node lat="61.42219721927219" lon="10.270177780808735" id="-23348">
		<tag k="name" v="Storholmen" />
		<tag k="place" v="islet" />
		<tag k="ssr:stedsnr" v="403286" />
	</node>
	<node lat="61.54738333635471" lon="10.095544448784029" id="-23351">
		<tag k="name" v="Bølbekken" />
		<tag k="ssr:stedsnr" v="403608" />
		<tag k="waterway" v="stream" />
	</node>
	<node lat="61.41460277641763" lon="10.406411109959278" id="-23354">
		<tag k="name" v="Løken" />
		<tag k="natural" v="bay" />
		<tag k="ssr:stedsnr" v="403553" />
	</node>
	<node lat="61.53758333508408" lon="10.316275005826775" id="-23359">
		<tag k="name" v="Turrtjønnet" />
		<tag k="natural" v="water" />
		<tag k="ssr:stedsnr" v="403659" />
	</node>
	<node lat="61.54113611181399" lon="10.306488896313153" id="-23360">
		<tag k="name" v="Geitbekken" />
		<tag k="ssr:stedsnr" v="403660" />
		<tag k="waterway" v="stream" />
	</node>
	<node lat="61.52189166549976" lon="10.277205564670039" id="-23362">
		<tag k="name" v="Vesletjønnet" />
		<tag k="natural" v="water" />
		<tag k="ssr:stedsnr" v="403664" />
	</node>
	<node lat="61.56393888546169" lon="10.662736115074969" id="-23369">
		<tag k="alt_name" v="Skarbekken" />
		<tag k="name" v="Skakkbekken" />
		<tag k="ssr:stedsnr" v="407883" />
		<tag k="waterway" v="stream" />
	</node>
	<node lat="61.3975333353676" lon="10.176577769614765" id="-23374">
		<tag k="name" v="Øvre Bekken" />
		<tag k="ssr:stedsnr" v="422783" />
		<tag k="waterway" v="stream" />
	</node>
	<node lat="61.677997224847736" lon="10.058961112319619" id="-23375">
		<tag k="alt_name" v="Kveinnbekken" />
		<tag k="name" v="Kvannbekken" />
		<tag k="ssr:stedsnr" v="422884" />
		<tag k="waterway" v="stream" />
	</node>
	<node lat="61.55485278112533" lon="10.188019449243479" id="-23382">
		<tag k="name" v="Søråa" />
		<tag k="ssr:stedsnr" v="434759" />
		<tag k="waterway" v="river" />
	</node>
	<node lat="61.41088333722463" lon="10.376447230926841" id="-23384">
		<tag k="name" v="Kroktjønnet" />
		<tag k="natural" v="water" />
		<tag k="ssr:stedsnr" v="434296" />
	</node>
	<node lat="61.43656111363388" lon="10.026669450279567" id="-23386">
		<tag k="name" v="Lebbelva" />
		<tag k="ssr:stedsnr" v="433923" />
		<tag k="waterway" v="stream" />
	</node>
	<node lat="61.43321389284287" lon="10.289205553496009" id="-23388">
		<tag k="name" v="Djupdalstjønnet" />
		<tag k="natural" v="water" />
		<tag k="ssr:stedsnr" v="433926" />
	</node>
	<node lat="61.50638333449518" lon="10.424338894499849" id="-23392">
		<tag k="name" v="Røytjønnet" />
		<tag k="natural" v="water" />
		<tag k="ssr:stedsnr" v="435259" />
	</node>
	<node lat="61.659491670815285" lon="10.111611110115996" id="-23402">
		<tag k="name" v="Stormyrtjønnet" />
		<tag k="natural" v="water" />
		<tag k="ssr:stedsnr" v="435996" />
	</node>
	<node lat="61.744722225046196" lon="9.855644451913385" id="-23405">
		<tag k="name" v="Frya" />
		<tag k="ssr:stedsnr" v="495633" />
		<tag k="waterway" v="river" />
	</node>
	<node lat="61.565611112846604" lon="10.253141667668736" id="-23410">
		<tag k="name" v="Bustulsbekken" />
		<tag k="ssr:stedsnr" v="495835" />
		<tag k="waterway" v="stream" />
	</node>
	<node lat="61.43470833703236" lon="10.494261110042366" id="-23412">
		<tag k="name" v="Goppollbekken" />
		<tag k="ssr:stedsnr" v="511759" />
		<tag k="waterway" v="stream" />
	</node>
	<node lat="61.48705277920212" lon="10.030947214834677" id="-23445">
		<tag k="name" v="Storgompen" />
		<tag k="natural" v="bay" />
		<tag k="ssr:stedsnr" v="530256" />
	</node>
	<node lat="61.42464999624529" lon="10.200999998364994" id="-23451">
		<tag k="name" v="Djupåla" />
		<tag k="natural" v="bay" />
		<tag k="ssr:stedsnr" v="543792" />
	</node>
	<node lat="61.671163890894405" lon="10.075513880350991" id="-23453">
		<tag k="alt_name" v="Vetlødden" />
		<tag k="name" v="Vetlodden" />
		<tag k="natural" v="cape" />
		<tag k="ssr:stedsnr" v="543854" />
	</node>
	<node lat="61.48972777439259" lon="10.01344999705408" id="-23458">
		<tag k="name" v="Gumpen" />
		<tag k="natural" v="water" />
		<tag k="ssr:stedsnr" v="554554" />
		<tag k="water" v="lake" />
	</node>
	<node lat="61.47940555471751" lon="10.224219441354826" id="-23461">
		<tag k="name" v="Åbbortjønnet" />
		<tag k="natural" v="water" />
		<tag k="ssr:stedsnr" v="554634" />
	</node>
	<node lat="61.47304166683006" lon="10.074983332326886" id="-23463">
		<tag k="name" v="Svarttjønnet" />
		<tag k="natural" v="water" />
		<tag k="ssr:stedsnr" v="554645" />
	</node>
	<node lat="61.427525001206426" lon="10.138550007880012" id="-23467">
		<tag k="alt_name" v="Knappelven" />
		<tag k="name" v="Knappelva" />
		<tag k="ssr:stedsnr" v="554946" />
		<tag k="waterway" v="stream" />
	</node>
	<node lat="61.417511107555534" lon="10.48653055156729" id="-23469">
		<tag k="name" v="Vesle Tromsa" />
		<tag k="ssr:stedsnr" v="554967" />
		<tag k="waterway" v="stream" />
	</node>
	<node lat="61.67721636669866" lon="10.346901448849124" id="-23474">
		<tag k="name" v="Hirisjøen" />
		<tag k="natural" v="water" />
		<tag k="old_name" v="Store Hiresjøen" />
		<tag k="ssr:stedsnr" v="555967" />
		<tag k="water" v="lake" />
	</node>
	<node lat="61.66934722469824" lon="10.090713895124486" id="-23475">
		<tag k="name" v="Urdtjønnet" />
		<tag k="natural" v="water" />
		<tag k="ssr:stedsnr" v="555976" />
	</node>
	<node lat="61.61991666506806" lon="10.573177785947186" id="-23478">
		<tag k="alt_name" v="Rundheillåa;Rundheillbekken" />
		<tag k="name" v="Rundhallåa" />
		<tag k="ssr:stedsnr" v="556186" />
		<tag k="waterway" v="river" />
	</node>
	<node lat="61.7034333329996" lon="10.613138881744261" id="-23479">
		<tag k="alt_name" v="Hira, l;Hira" />
		<tag k="name" v="Vesle-Hira" />
		<tag k="ssr:stedsnr" v="556192" />
		<tag k="waterway" v="stream" />
	</node>
	<node lat="61.612725003182675" lon="10.139138894165042" id="-23481">
		<tag k="name" v="Nigardsbekken" />
		<tag k="ssr:stedsnr" v="556781" />
		<tag k="waterway" v="stream" />
	</node>
	<node lat="61.58514317220689" lon="10.092688589820934" id="-23482">
		<tag k="name" v="Nørdre Åborsjøen" />
		<tag k="natural" v="water" />
		<tag k="ssr:stedsnr" v="556800" />
	</node>
	<node lat="61.67705555477718" lon="10.022549991486358" id="-23483">
		<tag k="name" v="Haugaslettjønnet" />
		<tag k="natural" v="water" />
		<tag k="ssr:stedsnr" v="566325" />
	</node>
	<node lat="61.661977776161855" lon="9.993552778857728" id="-23484">
		<tag k="name" v="Hovdbekken" />
		<tag k="ssr:stedsnr" v="566329" />
		<tag k="waterway" v="stream" />
	</node>
	<node lat="61.54886389331566" lon="10.30192777508351" id="-23487">
		<tag k="name" v="Flybekken" />
		<tag k="ssr:stedsnr" v="584714" />
		<tag k="waterway" v="stream" />
	</node>
	<node lat="61.428338889168664" lon="10.285544446184653" id="-23503">
		<tag k="name" v="Tritjønna" />
		<tag k="natural" v="water" />
		<tag k="ssr:stedsnr" v="585226" />
	</node>
	<node lat="61.591511110233085" lon="10.043519445196157" id="-23513">
		<tag k="name" v="Hummelåa" />
		<tag k="ssr:stedsnr" v="598940" />
		<tag k="waterway" v="stream" />
	</node>
	<node lat="61.39811666775222" lon="10.145741663764625" id="-23517">
		<tag k="name" v="Demmingan" />
		<tag k="natural" v="water" />
		<tag k="ssr:stedsnr" v="603744" />
	</node>
	<node lat="61.506119444535415" lon="10.215530557323806" id="-23536">
		<tag k="name" v="Brandstadelva" />
		<tag k="ssr:stedsnr" v="616880" />
		<tag k="waterway" v="stream" />
	</node>
	<node lat="61.69354166537136" lon="10.13381666173936" id="-23537">
		<tag k="name" v="Bølbekken" />
		<tag k="ssr:stedsnr" v="616978" />
		<tag k="waterway" v="stream" />
	</node>
	<node lat="61.570391665545564" lon="10.356394438025324" id="-23539">
		<tag k="name" v="Langtjønnet" />
		<tag k="natural" v="water" />
		<tag k="ssr:stedsnr" v="617169" />
	</node>
	<node lat="61.74533888888183" lon="10.052444453449334" id="-23546">
		<tag k="name" v="Rundhøbekken" />
		<tag k="ssr:stedsnr" v="632967" />
		<tag k="waterway" v="stream" />
	</node>
	<node lat="61.41750833091088" lon="10.36959999501685" id="-23551">
		<tag k="name" v="Botnlaustjønn" />
		<tag k="natural" v="water" />
		<tag k="ssr:stedsnr" v="645539" />
	</node>
	<node lat="61.552508331937084" lon="10.653577784477894" id="-23558">
		<tag k="name" v="Storvika" />
		<tag k="natural" v="bay" />
		<tag k="ssr:stedsnr" v="645752" />
	</node>
	<node lat="61.38928055271252" lon="9.969975006598325" id="-23567">
		<tag k="name" v="Stulstjønn" />
		<tag k="natural" v="water" />
		<tag k="ssr:stedsnr" v="659371" />
	</node>
	<node lat="61.64207502027151" lon="9.974165736725363" id="-23569">
		<tag k="name" v="Vollahølen" />
		<tag k="place" v="locality" />
		<tag k="ssr:stedsnr" v="659402" />
	</node>
	<node lat="61.416980555647214" lon="10.147922223321915" id="-23572">
		<tag k="name" v="Svarttjønnbekken" />
		<tag k="ssr:stedsnr" v="664770" />
		<tag k="waterway" v="stream" />
	</node>
	<node lat="61.4061083340897" lon="10.17068055621925" id="-23580">
		<tag k="name" v="Nedre Bekken" />
		<tag k="ssr:stedsnr" v="725734" />
		<tag k="waterway" v="stream" />
	</node>
	<node lat="61.47518611550177" lon="10.121533339175137" id="-23589">
		<tag k="name" v="Mælumselva" />
		<tag k="ssr:stedsnr" v="737605" />
		<tag k="waterway" v="stream" />
	</node>
	<node lat="61.63639166293075" lon="10.279161117951904" id="-23593">
		<tag k="name" v="Storrtjønnet" />
		<tag k="natural" v="water" />
		<tag k="ssr:stedsnr" v="738772" />
	</node>
	<node lat="61.604091666971556" lon="10.129472219673646" id="-23596">
		<tag k="name" v="Lauvåsåa" />
		<tag k="ssr:stedsnr" v="738785" />
		<tag k="waterway" v="stream" />
	</node>
	<node lat="61.661283333954024" lon="10.185758332375126" id="-23606">
		<tag k="name" v="Dørfallet" />
		<tag k="natural" v="waterfall" />
		<tag k="ssr:stedsnr" v="738987" />
	</node>
	<node lat="61.59679166518765" lon="10.632363888088157" id="-23611">
		<tag k="name" v="Søre Skådalsbekken" />
		<tag k="ssr:stedsnr" v="889766" />
		<tag k="waterway" v="stream" />
	</node>
	<node lat="61.45914444259166" lon="10.322622230426981" id="-23617">
		<tag k="name" v="Borgedalsbekken" />
		<tag k="ssr:stedsnr" v="767325" />
		<tag k="waterway" v="stream" />
	</node>
	<node lat="61.47819166479286" lon="10.509030555071524" id="-23622">
		<tag k="name" v="Buduppen" />
		<tag k="natural" v="water" />
		<tag k="ssr:stedsnr" v="767172" />
	</node>
	<node lat="61.42979999818288" lon="10.313852774936459" id="-23623">
		<tag k="name" v="Stulstretjern" />
		<tag k="natural" v="water" />
		<tag k="ssr:stedsnr" v="767284" />
	</node>
	<node lat="61.489108329664965" lon="10.474452778212266" id="-23629">
		<tag k="name" v="Høgåsbekken" />
		<tag k="ssr:stedsnr" v="767572" />
		<tag k="waterway" v="stream" />
	</node>
	<node lat="61.50070833318513" lon="10.072052781684025" id="-23632">
		<tag k="name" v="Breistulbekken" />
		<tag k="ssr:stedsnr" v="767706" />
		<tag k="waterway" v="stream" />
	</node>
	<node lat="61.50490833585764" lon="10.25143611801581" id="-23642">
		<tag k="name" v="Halvfaretjønnet" />
		<tag k="natural" v="water" />
		<tag k="ssr:stedsnr" v="767680" />
	</node>
	<node lat="61.44417499959981" lon="10.47752778365001" id="-23650">
		<tag k="name" v="Fallet" />
		<tag k="natural" v="waterfall" />
		<tag k="ssr:stedsnr" v="769624" />
	</node>
	<node lat="61.38778055939476" lon="9.976391663594978" id="-23656">
		<tag k="name" v="Hyttjønn" />
		<tag k="natural" v="water" />
		<tag k="ssr:stedsnr" v="780337" />
	</node>
	<node lat="61.39841111353925" lon="9.999608334097989" id="-23660">
		<tag k="name" v="Fjellvatnet" />
		<tag k="natural" v="water" />
		<tag k="ssr:stedsnr" v="797883" />
	</node>
	<node lat="61.52911944036375" lon="10.117283330242861" id="-23662">
		<tag k="name" v="Vesle Evjua" />
		<tag k="natural" v="bay" />
		<tag k="ssr:stedsnr" v="786241" />
	</node>
	<node lat="61.667133334505415" lon="10.096330561387068" id="-23666">
		<tag k="name" v="Bulonene" />
		<tag k="natural" v="water" />
		<tag k="ssr:stedsnr" v="786893" />
		<tag k="water" v="lake" />
	</node>
	<node lat="61.47481944114875" lon="10.305247218272143" id="-23677">
		<tag k="name" v="Morketjønnet" />
		<tag k="natural" v="water" />
		<tag k="ssr:stedsnr" v="798575" />
	</node>
	<node lat="61.62124444291522" lon="10.166350001176617" id="-23690">
		<tag k="name" v="Døråmot" />
		<tag k="place" v="locality" />
		<tag k="ssr:stedsnr" v="799774" />
	</node>
	<node lat="61.73710555193106" lon="10.079761104220005" id="-23692">
		<tag k="name" v="Ramsbekken" />
		<tag k="ssr:stedsnr" v="799953" />
		<tag k="waterway" v="stream" />
	</node>
	<node lat="61.46185277853819" lon="10.286652780044829" id="-23700">
		<tag k="name" v="Harabekken" />
		<tag k="ssr:stedsnr" v="828326" />
		<tag k="waterway" v="stream" />
	</node>
	<node lat="61.39954722247342" lon="10.292591662503874" id="-23706">
		<tag k="name" v="Blåbytta" />
		<tag k="ssr:stedsnr" v="828400" />
		<tag k="waterway" v="stream" />
	</node>
	<node lat="61.401152779156874" lon="10.354136104872566" id="-23710">
		<tag k="name" v="Oksbekken" />
		<tag k="ssr:stedsnr" v="828261" />
		<tag k="waterway" v="stream" />
	</node>
	<node lat="61.52683611101496" lon="10.102347218632898" id="-23719">
		<tag k="name" v="Evjemillom" />
		<tag k="natural" v="beach" />
		<tag k="ssr:stedsnr" v="828712" />
	</node>
	<node lat="61.516602781556266" lon="10.152866660253661" id="-23729">
		<tag k="name" v="Børkevjua" />
		<tag k="natural" v="bay" />
		<tag k="ssr:stedsnr" v="847149" />
	</node>
	<node lat="61.573909691967515" lon="10.10755434248549" id="-23731">
		<tag k="name" v="Kvernflatodden" />
		<tag k="natural" v="cape" />
		<tag k="ssr:stedsnr" v="847693" />
	</node>
	<node lat="61.4127027756768" lon="10.436613885294587" id="-23740">
		<tag k="name" v="Løtjønnet" />
		<tag k="natural" v="water" />
		<tag k="ssr:stedsnr" v="858342" />
	</node>
	<node lat="61.437188885695114" lon="10.272250008096654" id="-23744">
		<tag k="name" v="Gamlehustjønnet" />
		<tag k="natural" v="water" />
		<tag k="ssr:stedsnr" v="858930" />
	</node>
	<node lat="61.625377778210826" lon="10.534988888860438" id="-23748">
		<tag k="alt_name" v="Nordre bekken" />
		<tag k="name" v="Nørdrebekken" />
		<tag k="ssr:stedsnr" v="860186" />
		<tag k="waterway" v="stream" />
	</node>
	<node lat="61.43613997610794" lon="10.051919224322365" id="-23755">
		<tag k="name" v="Tverråa" />
		<tag k="ssr:stedsnr" v="860800" />
		<tag k="waterway" v="river" />
	</node>
	<node lat="61.50767222644287" lon="10.086213886927698" id="-23756">
		<tag k="name" v="Veslestulstjønnet" />
		<tag k="natural" v="water" />
		<tag k="ssr:stedsnr" v="860891" />
	</node>
	<node lat="61.52813333696785" lon="10.556499996227865" id="-23770">
		<tag k="name" v="Sulubergstjønnet" />
		<tag k="natural" v="water" />
		<tag k="ssr:stedsnr" v="888973" />
	</node>
	<node lat="61.412875001754195" lon="10.367872215291564" id="-23787">
		<tag k="alt_name" v="Veslerøilla" />
		<tag k="name" v="Veslerolla" />
		<tag k="ssr:stedsnr" v="889561" />
		<tag k="waterway" v="stream" />
	</node>
	<node lat="61.65328055177368" lon="10.052522221445539" id="-23795">
		<tag k="name" v="Holtesæterbekken" />
		<tag k="ssr:stedsnr" v="936995" />
		<tag k="waterway" v="stream" />
	</node>
	<node lat="61.640902777188955" lon="10.629822214013567" id="-23801">
		<tag k="name" v="Søre Reintjønnet" />
=======
	<node id="-377264" lat="61.4166333303" lon="10.0104999918">
		<tag k="name" v="Lorttjønnet" />
		<tag k="natural" v="water" />
		<tag k="ssr:stedsnr" v="69928" />
	</node>
	<node id="-377258" lat="61.4434555531" lon="10.4819194433">
		<tag k="name" v="Spranget" />
		<tag k="natural" v="waterfall" />
		<tag k="ssr:stedsnr" v="69383" />
	</node>
	<node id="-377248" lat="61.4003666688" lon="9.99381110909">
		<tag k="alt_name" v="Skjellbreida" />
		<tag k="name" v="Skjellbreia" />
		<tag k="natural" v="water" />
		<tag k="ssr:stedsnr" v="68911" />
	</node>
	<node id="-377241" lat="61.6763138933" lon="10.0599027859">
		<tag k="alt_name" v="Kveinndalsvika" />
		<tag k="name" v="Kvanndalsvika" />
		<tag k="natural" v="bay" />
		<tag k="ssr:stedsnr" v="58893" />
	</node>
	<node id="-377236" lat="61.4161111096" lon="10.1610833383">
		<tag k="name" v="Bystadbekken" />
		<tag k="ssr:stedsnr" v="58773" />
		<tag k="waterway" v="stream" />
	</node>
	<node id="-377229" lat="61.3841777812" lon="9.97260277473">
		<tag k="name" v="Dørja" />
		<tag k="natural" v="water" />
		<tag k="ssr:stedsnr" v="52337" />
	</node>
	<node id="-377213" lat="61.4484638924" lon="10.4281333281">
		<tag k="name" v="Veslestulsbekken" />
		<tag k="ssr:stedsnr" v="39537" />
		<tag k="waterway" v="stream" />
	</node>
	<node id="-377208" lat="61.4388638933" lon="10.3133416695">
		<tag k="name" v="Indre Nyhusbekken" />
		<tag k="ssr:stedsnr" v="39243" />
		<tag k="waterway" v="stream" />
	</node>
	<node id="-377206" lat="61.661233333" lon="10.0796305516">
		<tag k="name" v="Midtbekken" />
		<tag k="ssr:stedsnr" v="34779" />
		<tag k="waterway" v="stream" />
	</node>
	<node id="-377202" lat="61.5201944444" lon="10.292391668">
		<tag k="name" v="Langtjønnsbekken" />
		<tag k="ssr:stedsnr" v="10876" />
		<tag k="waterway" v="stream" />
	</node>
	<node id="-377195" lat="61.6262000028" lon="10.2924694508">
		<tag k="alt_name" v="Remma, vesle" />
		<tag k="name" v="Vesle Remma" />
		<tag k="ssr:stedsnr" v="10760" />
		<tag k="waterway" v="stream" />
	</node>
	<node id="-377189" lat="61.7107332067" lon="10.0512949855">
		<tag k="name" v="Klopptjønna" />
		<tag k="natural" v="water" />
		<tag k="ssr:stedsnr" v="10964" />
	</node>
	<node id="-377188" lat="61.7211527743" lon="9.99674443758">
		<tag k="name" v="Storfallet" />
		<tag k="place" v="locality" />
		<tag k="ssr:stedsnr" v="10957" />
	</node>
	<node id="-377187" lat="61.5081605796" lon="10.6606531594">
		<tag k="name" v="Samtjønna" />
		<tag k="natural" v="water" />
		<tag k="ssr:stedsnr" v="10226" />
		<tag k="water" v="lake" />
	</node>
	<node id="-377182" lat="61.4458138874" lon="10.351441674">
		<tag k="name" v="Storfallet" />
		<tag k="place" v="locality" />
		<tag k="ssr:stedsnr" v="9358" />
	</node>
	<node id="-377181" lat="61.4524249963" lon="10.4730861094">
		<tag k="alt_name" v="Storskarven;Store Skarven" />
		<tag k="name" v="Storskarva" />
		<tag k="ssr:stedsnr" v="9356" />
		<tag k="waterway" v="stream" />
	</node>
	<node id="-377180" lat="61.3993634674" lon="10.0741223561">
		<tag k="name" v="Svartvatnet" />
		<tag k="natural" v="water" />
		<tag k="ssr:stedsnr" v="8897" />
		<tag k="water" v="lake" />
	</node>
	<node id="-377171" lat="61.411299999" lon="9.99434445234">
		<tag k="alt_name" v="Vesle Røgninn" />
		<tag k="name" v="Veslrøgna" />
		<tag k="natural" v="water" />
		<tag k="ssr:stedsnr" v="8927" />
	</node>
	<node id="-377168" lat="61.4645972246" lon="10.6028416603">
		<tag k="name" v="Steinslåtjønnet" />
		<tag k="natural" v="water" />
		<tag k="ssr:stedsnr" v="8396" />
	</node>
	<node id="-377167" lat="61.4604166709" lon="10.471605548">
		<tag k="name" v="Veslskarva" />
		<tag k="ssr:stedsnr" v="8393" />
		<tag k="waterway" v="stream" />
	</node>
	<node id="-377161" lat="61.4229361105" lon="10.2128472174">
		<tag k="name" v="Storøya" />
		<tag k="place" v="islet" />
		<tag k="ssr:stedsnr" v="968819" />
	</node>
	<node id="-377150" lat="61.507430554" lon="10.2488055595">
		<tag k="name" v="Sjøsæterbekken" />
		<tag k="ssr:stedsnr" v="949665" />
		<tag k="waterway" v="stream" />
	</node>
	<node id="-377147" lat="61.4116777806" lon="10.3919111204">
		<tag k="name" v="Fremre Langtjønn" />
		<tag k="natural" v="water" />
		<tag k="ssr:stedsnr" v="949519" />
	</node>
	<node id="-377143" lat="61.680702775" lon="10.1650722221">
		<tag k="name" v="Søre Gråbekken" />
		<tag k="ssr:stedsnr" v="949405" />
		<tag k="waterway" v="stream" />
	</node>
	<node id="-377139" lat="61.594874999" lon="10.1511305529">
		<tag k="name" v="Lykkjebekken" />
		<tag k="ssr:stedsnr" v="949113" />
		<tag k="waterway" v="stream" />
	</node>
	<node id="-377124" lat="61.4173833377" lon="10.4003249997">
		<tag k="name" v="Gullhaugtjønnet" />
		<tag k="natural" v="water" />
		<tag k="ssr:stedsnr" v="919320" />
	</node>
	<node id="-377119" lat="61.6721749961" lon="10.0765333391">
		<tag k="name" v="Sandvika" />
		<tag k="natural" v="bay" />
		<tag k="ssr:stedsnr" v="908911" />
	</node>
	<node id="-377118" lat="61.6756166634" lon="10.0621638856">
		<tag k="alt_name" v="Sygardsødden" />
		<tag k="name" v="Sygardsodden" />
		<tag k="natural" v="cape" />
		<tag k="ssr:stedsnr" v="908909" />
	</node>
	<node id="-377117" lat="61.3861666641" lon="10.1981972265">
		<tag k="alt_name" v="Haukåa" />
		<tag k="name" v="Haukåbekken" />
		<tag k="ssr:stedsnr" v="907728" />
		<tag k="waterway" v="stream" />
	</node>
	<node id="-377116" lat="61.5167500002" lon="10.1492388959">
		<tag k="name" v="Børkøya" />
		<tag k="place" v="islet" />
		<tag k="ssr:stedsnr" v="907122" />
	</node>
	<node id="-377113" lat="61.7195000001" lon="10.5452222152">
		<tag k="name" v="Midtklettbekken" />
		<tag k="ssr:stedsnr" v="889805" />
		<tag k="waterway" v="stream" />
	</node>
	<node id="-377099" lat="61.5863694464" lon="10.627386112">
		<tag k="name" v="Tatervika" />
		<tag k="natural" v="bay" />
		<tag k="ssr:stedsnr" v="949749" />
	</node>
	<node id="-377096" lat="61.5838138883" lon="10.6299555474">
		<tag k="name" v="Gamlebutangen" />
		<tag k="natural" v="cape" />
		<tag k="ssr:stedsnr" v="949739" />
	</node>
	<node id="-377095" lat="61.5870027791" lon="10.6215833288">
		<tag k="name" v="Storvika" />
		<tag k="natural" v="bay" />
		<tag k="ssr:stedsnr" v="949738" />
	</node>
	<node id="-377092" lat="61.4565805548" lon="10.0888361156">
		<tag k="name" v="Svartbekken" />
		<tag k="ssr:stedsnr" v="949687" />
		<tag k="waterway" v="stream" />
	</node>
	<node id="-377089" lat="61.5460972224" lon="10.6606638837">
		<tag k="name" v="Tjønnet" />
		<tag k="natural" v="bay" />
		<tag k="ssr:stedsnr" v="949732" />
	</node>
	<node id="-377087" lat="61.5351888893" lon="10.3357055529">
		<tag k="name" v="Kutjønnet" />
		<tag k="natural" v="water" />
		<tag k="ssr:stedsnr" v="949649" />
	</node>
	<node id="-377085" lat="61.4217194455" lon="10.110913885">
		<tag k="name" v="Myrsæterbekken" />
		<tag k="ssr:stedsnr" v="949641" />
		<tag k="waterway" v="stream" />
	</node>
	<node id="-377077" lat="61.6718945794" lon="10.1476870629">
		<tag k="name" v="Måsåtjønna" />
		<tag k="natural" v="water" />
		<tag k="ssr:stedsnr" v="949399" />
		<tag k="water" v="lake" />
	</node>
	<node id="-377076" lat="61.6234027784" lon="10.1825583242">
		<tag k="name" v="Høystadbekken" />
		<tag k="ssr:stedsnr" v="949393" />
		<tag k="waterway" v="stream" />
	</node>
	<node id="-377070" lat="61.488669441" lon="10.5586249966">
		<tag k="name" v="Indre Trolldalsbekken" />
		<tag k="ssr:stedsnr" v="949185" />
		<tag k="waterway" v="stream" />
	</node>
	<node id="-377069" lat="61.5499700231" lon="10.1403268815">
		<tag k="name" v="Johushølen" />
		<tag k="natural" v="water" />
		<tag k="ssr:stedsnr" v="949183" />
		<tag k="water" v="lake" />
	</node>
	<node id="-377067" lat="61.7316999987" lon="10.0533944448">
		<tag k="name" v="Svartåkluftin" />
		<tag k="place" v="locality" />
		<tag k="ssr:stedsnr" v="860968" />
	</node>
	<node id="-377063" lat="61.6586722226" lon="10.4666944427">
		<tag k="name" v="Åsdalsbekken" />
		<tag k="ssr:stedsnr" v="860207" />
		<tag k="waterway" v="stream" />
	</node>
	<node id="-377062" lat="61.643202781" lon="10.3806805566">
		<tag k="name" v="Kvitbekken" />
		<tag k="ssr:stedsnr" v="860171" />
		<tag k="waterway" v="stream" />
	</node>
	<node id="-377060" lat="61.5357820716" lon="10.069065415">
		<tag k="alt_name" v="Hæringen" />
		<tag k="name" v="Heringen" />
		<tag k="place" v="islet" />
		<tag k="ssr:stedsnr" v="859818" />
	</node>
	<node id="-377057" lat="61.4187527815" lon="10.1671027709">
		<tag k="name" v="Linvikselva" />
		<tag k="ssr:stedsnr" v="858919" />
		<tag k="waterway" v="stream" />
	</node>
	<node id="-377047" lat="61.6532805518" lon="10.0525222214">
		<tag k="name" v="Holtesæterbekken" />
		<tag k="ssr:stedsnr" v="936995" />
		<tag k="waterway" v="stream" />
	</node>
	<node id="-377042" lat="61.687688889" lon="10.1730694401">
		<tag k="alt_name" v="Gråbekken, nordre" />
		<tag k="name" v="Nordre Gråbekken" />
		<tag k="ssr:stedsnr" v="799982" />
		<tag k="waterway" v="stream" />
	</node>
	<node id="-377041" lat="61.6973999979" lon="10.0923249936">
		<tag k="alt_name" v="Uksbekken, fremre" />
		<tag k="name" v="Fremre Uksbekken" />
		<tag k="ssr:stedsnr" v="799981" />
		<tag k="waterway" v="stream" />
	</node>
	<node id="-377037" lat="61.7371055519" lon="10.0797611042">
		<tag k="name" v="Ramsbekken" />
		<tag k="ssr:stedsnr" v="799953" />
		<tag k="waterway" v="stream" />
	</node>
	<node id="-377034" lat="61.6212444429" lon="10.1663500012">
		<tag k="name" v="Døråmot" />
		<tag k="place" v="locality" />
		<tag k="ssr:stedsnr" v="799774" />
	</node>
	<node id="-377027" lat="61.4748194411" lon="10.3052472183">
		<tag k="name" v="Morketjønnet" />
		<tag k="natural" v="water" />
		<tag k="ssr:stedsnr" v="798575" />
	</node>
	<node id="-377026" lat="61.665547219" lon="10.5507749972">
		<tag k="name" v="Hemtjønnet" />
		<tag k="natural" v="water" />
		<tag k="ssr:stedsnr" v="798159" />
	</node>
	<node id="-377020" lat="61.6574138927" lon="10.3084555586">
		<tag k="alt_name" v="Hiriåa" />
		<tag k="loc_name" v="Hirisjøåa" />
		<tag k="name" v="Hira" />
		<tag k="ssr:stedsnr" v="920988" />
		<tag k="waterway" v="river" />
	</node>
	<node id="-377017" lat="61.6701628229" lon="10.0623256579">
		<tag k="name" v="Flaksjøen" />
		<tag k="natural" v="water" />
		<tag k="ssr:stedsnr" v="920982" />
		<tag k="water" v="lake" />
	</node>
	<node id="-377013" lat="61.5131250004" lon="10.1799055575">
		<tag k="name" v="Prestbekken" />
		<tag k="ssr:stedsnr" v="920893" />
		<tag k="waterway" v="stream" />
	</node>
	<node id="-377011" lat="61.5401666622" lon="10.0684388882">
		<tag k="name" v="Langøya" />
		<tag k="place" v="islet" />
		<tag k="ssr:stedsnr" v="920853" />
	</node>
	<node id="-377010" lat="61.4327527805" lon="10.1583666598">
		<tag k="alt_name" v="Moselva" />
		<tag k="name" v="Moelva" />
		<tag k="ssr:stedsnr" v="920782" />
		<tag k="waterway" v="river" />
	</node>
	<node id="-377007" lat="61.6281138855" lon="9.99344721575">
		<tag k="alt_name" v="Myrelva" />
		<tag k="name" v="Myreelva" />
		<tag k="ssr:stedsnr" v="920754" />
		<tag k="waterway" v="stream" />
	</node>
	<node id="-377002" lat="61.7182388864" lon="10.6415027704">
		<tag k="alt_name" v="Hira" />
		<tag k="name" v="Stor-Hira" />
		<tag k="ssr:stedsnr" v="920176" />
		<tag k="waterway" v="river" />
	</node>
	<node id="-376998" lat="61.4752916633" lon="10.2595527861">
		<tag k="name" v="Myrstigbekken" />
		<tag k="ssr:stedsnr" v="919589" />
		<tag k="waterway" v="stream" />
	</node>
	<node id="-376978" lat="61.5007083332" lon="10.0720527817">
		<tag k="name" v="Breistulbekken" />
		<tag k="ssr:stedsnr" v="767706" />
		<tag k="waterway" v="stream" />
	</node>
	<node id="-376977" lat="61.5049083359" lon="10.251436118">
		<tag k="name" v="Halvfaretjønnet" />
		<tag k="natural" v="water" />
		<tag k="ssr:stedsnr" v="767680" />
	</node>
	<node id="-376972" lat="61.4591444426" lon="10.3226222304">
		<tag k="name" v="Borgedalsbekken" />
		<tag k="ssr:stedsnr" v="767325" />
		<tag k="waterway" v="stream" />
	</node>
	<node id="-376965" lat="61.4297999982" lon="10.3138527749">
		<tag k="name" v="Stulstretjern" />
		<tag k="natural" v="water" />
		<tag k="ssr:stedsnr" v="767284" />
	</node>
	<node id="-376956" lat="61.5557194446" lon="10.0629444383">
		<tag k="name" v="Bergsveinhølen" />
		<tag k="place" v="locality" />
		<tag k="ssr:stedsnr" v="907620" />
	</node>
	<node id="-376951" lat="61.4142694459" lon="10.2082694506">
		<tag k="name" v="Veslesand" />
		<tag k="place" v="islet" />
		<tag k="ssr:stedsnr" v="725779" />
	</node>
	<node id="-376939" lat="61.5967916652" lon="10.6323638881">
		<tag k="name" v="Søre Skådalsbekken" />
		<tag k="ssr:stedsnr" v="889766" />
		<tag k="waterway" v="stream" />
	</node>
	<node id="-376937" lat="61.4128750018" lon="10.3678722153">
		<tag k="alt_name" v="Veslerøilla" />
		<tag k="name" v="Veslerolla" />
		<tag k="ssr:stedsnr" v="889561" />
		<tag k="waterway" v="stream" />
	</node>
	<node id="-376926" lat="61.4350749991" lon="10.2466611099">
		<tag k="name" v="Tverråa" />
		<tag k="ssr:stedsnr" v="889259" />
		<tag k="waterway" v="stream" />
	</node>
	<node id="-376912" lat="61.5453666702" lon="10.6563583337">
		<tag k="name" v="Auge" />
		<tag k="natural" v="bay" />
		<tag k="ssr:stedsnr" v="888748" />
	</node>
	<node id="-376910" lat="61.4036083356" lon="10.0606666577">
		<tag k="name" v="Svarttjønnbekken" />
		<tag k="ssr:stedsnr" v="888661" />
		<tag k="waterway" v="stream" />
	</node>
	<node id="-376909" lat="61.543480555" lon="10.2519055507">
		<tag k="name" v="Nyhamnbekken" />
		<tag k="ssr:stedsnr" v="888660" />
		<tag k="waterway" v="stream" />
	</node>
	<node id="-376901" lat="61.528133337" lon="10.5564999962">
		<tag k="name" v="Sulubergstjønnet" />
		<tag k="natural" v="water" />
		<tag k="ssr:stedsnr" v="888973" />
	</node>
	<node id="-376900" lat="61.5201416656" lon="10.5917361041">
		<tag k="name" v="Flylykkjebekken" />
		<tag k="ssr:stedsnr" v="888954" />
		<tag k="waterway" v="stream" />
	</node>
	<node id="-376895" lat="61.5530944428" lon="10.6503333366">
		<tag k="alt_name" v="Imssjøen, s" />
		<tag k="name" v="Søre Imssjøen" />
		<tag k="natural" v="water" />
		<tag k="ssr:stedsnr" v="678260" />
		<tag k="water" v="lake" />
	</node>
	<node id="-376893" lat="61.5786444451" lon="10.4473750063">
		<tag k="name" v="Søre Breitjønnet" />
		<tag k="natural" v="water" />
		<tag k="ssr:stedsnr" v="678136" />
	</node>
	<node id="-376891" lat="61.6415527804" lon="10.1505805518">
		<tag k="alt_name" v="Myafallet" />
		<tag k="name" v="Myfallet" />
		<tag k="natural" v="waterfall" />
		<tag k="ssr:stedsnr" v="677775" />
	</node>
	<node id="-376890" lat="61.64248611" lon="10.0688749999">
		<tag k="name" v="Øvre Lundtjønnet" />
		<tag k="natural" v="water" />
		<tag k="ssr:stedsnr" v="677773" />
	</node>
	<node id="-376889" lat="61.6381250034" lon="10.1726638959">
		<tag k="name" v="Døra" />
		<tag k="ssr:stedsnr" v="677767" />
		<tag k="waterway" v="river" />
	</node>
	<node id="-376887" lat="61.5339138859" lon="10.4639499927">
		<tag k="name" v="Svæltjønnet" />
		<tag k="natural" v="water" />
		<tag k="ssr:stedsnr" v="677227" />
	</node>
	<node id="-376884" lat="61.4638638893" lon="10.0741416599">
		<tag k="alt_name" v="Høgåstjørnet" />
		<tag k="name" v="Høgåstjønnet" />
		<tag k="natural" v="water" />
		<tag k="ssr:stedsnr" v="676613" />
	</node>
	<node id="-376883" lat="61.4776305514" lon="10.233588884">
		<tag k="alt_name" v="Austeråa" />
		<tag k="name" v="Østeråa" />
		<tag k="ssr:stedsnr" v="676611" />
		<tag k="waterway" v="stream" />
	</node>
	<node id="-376880" lat="61.4186083325" lon="10.271886116">
		<tag k="name" v="Holmtjønnet" />
		<tag k="natural" v="water" />
		<tag k="ssr:stedsnr" v="675921" />
	</node>
	<node id="-376866" lat="61.4497694408" lon="10.1043861127">
		<tag k="name" v="Fossen" />
		<tag k="natural" v="waterfall" />
		<tag k="ssr:stedsnr" v="645707" />
	</node>
	<node id="-376862" lat="61.5473166635" lon="10.3119166644">
		<tag k="name" v="Moabekken" />
		<tag k="ssr:stedsnr" v="645676" />
		<tag k="waterway" v="stream" />
	</node>
	<node id="-376859" lat="61.4175083309" lon="10.369599995">
		<tag k="name" v="Botnlaustjønn" />
		<tag k="natural" v="water" />
		<tag k="ssr:stedsnr" v="645539" />
	</node>
	<node id="-376855" lat="61.7453388889" lon="10.0524444534">
		<tag k="name" v="Rundhøbekken" />
		<tag k="ssr:stedsnr" v="632967" />
		<tag k="waterway" v="stream" />
	</node>
	<node id="-376849" lat="61.4061083341" lon="10.1706805562">
		<tag k="name" v="Nedre Bekken" />
		<tag k="ssr:stedsnr" v="725734" />
		<tag k="waterway" v="stream" />
	</node>
	<node id="-376848" lat="61.4175388869" lon="10.1274777717">
		<tag k="name" v="Langhaugbekken" />
		<tag k="ssr:stedsnr" v="725729" />
		<tag k="waterway" v="stream" />
	</node>
	<node id="-376845" lat="61.5703916655" lon="10.356394438">
		<tag k="name" v="Langtjønnet" />
>>>>>>> e1d4bc35ff8a6074a6f2e91616a996b547c36f15
		<tag k="natural" v="water" />
		<tag k="ssr:stedsnr" v="617169" />
	</node>
<<<<<<< HEAD
	<node lat="61.535188889318476" lon="10.335705552946553" id="-23808">
		<tag k="name" v="Kutjønnet" />
		<tag k="natural" v="water" />
		<tag k="ssr:stedsnr" v="949649" />
	</node>
	<node lat="61.50743055399534" lon="10.248805559477372" id="-23810">
		<tag k="name" v="Sjøsæterbekken" />
		<tag k="ssr:stedsnr" v="949665" />
		<tag k="waterway" v="stream" />
	</node>
	<node lat="61.45658055476124" lon="10.088836115589647" id="-23813">
		<tag k="name" v="Svartbekken" />
		<tag k="ssr:stedsnr" v="949687" />
		<tag k="waterway" v="stream" />
	</node>
	<node lat="61.58636944637" lon="10.627386112000291" id="-23824">
		<tag k="name" v="Tatervika" />
		<tag k="natural" v="bay" />
		<tag k="ssr:stedsnr" v="949749" />
	</node>
	<node lat="61.64210328344264" lon="9.973398429495422" id="-23844">
		<tag k="name" v="Vollahølen" />
		<tag k="place" v="locality" />
		<tag k="ssr:stedsnr" v="976745" />
=======
	<node id="-376843" lat="61.6431083338" lon="10.1786638832">
		<tag k="alt_name" v="Kveinndalsbekken" />
		<tag k="loc_name" v="Kvanndalsbekken" />
		<tag k="name" v="Kverndalsbekken" />
		<tag k="ssr:stedsnr" v="617000" />
		<tag k="waterway" v="stream" />
	</node>
	<node id="-376842" lat="61.646052778" lon="10.0835888894">
		<tag k="name" v="Nedre Lundtjønnet" />
		<tag k="natural" v="water" />
		<tag k="ssr:stedsnr" v="616998" />
	</node>
	<node id="-376840" lat="61.6935416654" lon="10.1338166617">
		<tag k="name" v="Bølbekken" />
		<tag k="ssr:stedsnr" v="616978" />
		<tag k="waterway" v="stream" />
	</node>
	<node id="-376836" lat="61.5023694472" lon="10.2610638902">
		<tag k="name" v="Fagerlitjønnet" />
		<tag k="natural" v="water" />
		<tag k="ssr:stedsnr" v="616156" />
>>>>>>> e1d4bc35ff8a6074a6f2e91616a996b547c36f15
	</node>
</osm>
