<?xml version="1.0" encoding="UTF-8"?>
<osm version="0.6" generator="osmapis">
	<node lat="69.62202777742864" lon="20.533005544981705" id="-38683">
		<tag k="name" v="Uhcavákkáš - Lilledalen - Pikkuvankka" />
		<tag k="name:fkv" v="Pikkuvankka" />
		<tag k="name:no" v="Lilledalen" />
		<tag k="name:se" v="Uhcavákkáš" />
		<tag k="natural" v="valley" />
		<tag k="old_name:se" v="Vákkáš, unna" />
		<tag k="place" v="locality" />
		<tag k="ssr:stedsnr" v="19415" />
	</node>
	<node lat="69.51715277525385" lon="20.848138859117906" id="-38684">
		<tag k="name" v="Litledalen" />
		<tag k="name:no" v="Litledalen" />
		<tag k="natural" v="valley" />
		<tag k="place" v="locality" />
		<tag k="ssr:stedsnr" v="19417" />
	</node>
	<node lat="69.42745833780003" lon="20.946099975148304" id="-38686">
		<tag k="fixme" v="consider natural=peak for the most distinct mountains in the district" />
		<tag k="name" v="Suonjerčohkat" />
		<tag k="name:se" v="Suonjerčohkat" />
		<tag k="natural" v="hill" />
		<tag k="place" v="locality" />
		<tag k="ssr:stedsnr" v="19502" />
	</node>
	<node lat="69.42772500372888" lon="20.508486082042424" id="-38687">
		<tag k="fixme" v="consider natural=peak for the most distinct mountains in the district" />
		<tag k="name" v="Vállasvárri" />
		<tag k="name:se" v="Vállasvárri" />
		<tag k="natural" v="hill" />
		<tag k="place" v="locality" />
		<tag k="ssr:stedsnr" v="19505" />
	</node>
	<node lat="69.44486389032596" lon="20.632483300655455" id="-38688">
		<tag k="fixme" v="consider natural=peak for the most distinct mountains in the district" />
		<tag k="name" v="Rastteváddjačohkka" />
		<tag k="name:se" v="Rastteváddjačohkka" />
		<tag k="natural" v="hill" />
		<tag k="place" v="locality" />
		<tag k="ssr:stedsnr" v="19514" />
	</node>
	<node lat="69.49849444235186" lon="20.932999974596687" id="-38689">
		<tag k="fixme" v="consider natural=peak for the most distinct mountains in the district" />
		<tag k="name" v="Ruovddášvárri" />
		<tag k="name:se" v="Ruovddášvárri" />
		<tag k="natural" v="hill" />
		<tag k="place" v="locality" />
		<tag k="ssr:stedsnr" v="19543" />
	</node>
	<node lat="69.65987500459795" lon="20.66132498784293" id="-38691">
		<tag k="name" v="Sánnjáriehppi" />
		<tag k="name:se" v="Sánnjáriehppi" />
		<tag k="natural" v="valley" />
		<tag k="place" v="locality" />
		<tag k="ssr:stedsnr" v="19548" />
	</node>
	<node lat="69.62334721979472" lon="20.75884163990888" id="-38694">
		<tag k="fixme" v="consider natural=peak for the most distinct mountains in the district" />
		<tag k="name" v="Kistefjellet" />
		<tag k="name:no" v="Kistefjellet" />
		<tag k="natural" v="hill" />
		<tag k="place" v="locality" />
		<tag k="ssr:stedsnr" v="19648" />
	</node>
	<node lat="69.53953055834039" lon="20.528194415265766" id="-38698">
		<tag k="name" v="Grønnsletta" />
		<tag k="name:no" v="Grønnsletta" />
		<tag k="place" v="locality" />
		<tag k="ssr:stedsnr" v="235147" />
	</node>
	<node lat="69.532547222139" lon="20.539649979234905" id="-38699">
		<tag k="name" v="Suhpiroggi" />
		<tag k="name:se" v="Suhpiroggi" />
		<tag k="natural" v="valley" />
		<tag k="place" v="locality" />
		<tag k="ssr:stedsnr" v="235165" />
	</node>
	<node lat="69.52510000373353" lon="20.505277748802484" id="-38700">
		<tag k="name" v="Sávzačohkka" />
		<tag k="name:se" v="Sávzačohkka" />
		<tag k="natural" v="hill" />
		<tag k="place" v="locality" />
		<tag k="ssr:stedsnr" v="235114" />
	</node>
	<node lat="69.52973611535023" lon="20.508297206324926" id="-38701">
		<tag k="name" v="Guohcahovkkaidlátnja" />
		<tag k="name:se" v="Guohcahovkkaidlátnja" />
		<tag k="natural" v="slope" />
		<tag k="place" v="locality" />
		<tag k="ssr:stedsnr" v="235116" />
	</node>
	<node lat="69.52269722253848" lon="20.782777761353106" id="-38702">
		<tag k="loc_name:no" v="Nedre Storberget" />
		<tag k="loc_name:se" v="Vuolit Stuorabákti" />
		<tag k="name" v="Stuorabákti" />
		<tag k="name:se" v="Stuorabákti" />
		<tag k="natural" v="hill" />
		<tag k="place" v="locality" />
		<tag k="ssr:stedsnr" v="235441" />
	</node>
	<node lat="69.52542499917578" lon="20.745066640313667" id="-38703">
		<tag k="name" v="Bajitgieddi" />
		<tag k="name:se" v="Bajitgieddi" />
		<tag k="natural" v="slope" />
		<tag k="place" v="locality" />
		<tag k="ssr:stedsnr" v="235444" />
	</node>
	<node lat="69.52324999662814" lon="20.74763053752147" id="-38704">
		<tag k="name" v="Huvvaš" />
		<tag k="name:se" v="Huvvaš" />
		<tag k="natural" v="hill" />
		<tag k="place" v="locality" />
		<tag k="ssr:stedsnr" v="235448" />
	</node>
	<node lat="69.52948333811851" lon="20.754088874070604" id="-38705">
		<tag k="name" v="Gálberiidi" />
		<tag k="name:se" v="Gálberiidi" />
		<tag k="natural" v="slope" />
		<tag k="place" v="locality" />
		<tag k="ssr:stedsnr" v="235450" />
	</node>
	<node lat="69.45275277877255" lon="20.955630526841027" id="-38707">
		<tag k="name" v="Vuovdenjungila" />
		<tag k="name:se" v="Vuovdenjungila" />
		<tag k="natural" v="slope" />
		<tag k="place" v="locality" />
		<tag k="ssr:stedsnr" v="235463" />
	</node>
	<node lat="69.49199999773703" lon="20.850122197091917" id="-38709">
		<tag k="name" v="Riepmitčohkka" />
		<tag k="name:se" v="Riepmitčohkka" />
		<tag k="natural" v="hill" />
		<tag k="place" v="locality" />
		<tag k="ssr:stedsnr" v="235533" />
	</node>
	<node lat="69.53642777579012" lon="20.776255531916004" id="-38710">
		<tag k="name" v="Nieiddavággi" />
		<tag k="name:se" v="Nieiddavággi" />
		<tag k="natural" v="valley" />
		<tag k="place" v="locality" />
		<tag k="ssr:stedsnr" v="235585" />
	</node>
	<node lat="69.74549722714504" lon="20.53998886492009" id="-38713">
		<tag k="name" v="Hammarsletta" />
		<tag k="name:no" v="Hammarsletta" />
		<tag k="place" v="locality" />
		<tag k="ssr:stedsnr" v="235896" />
	</node>
	<node lat="69.51020833717448" lon="20.60947497264966" id="-38714">
		<tag k="name" v="Nihkolasariidi" />
		<tag k="name:se" v="Nihkolasariidi" />
		<tag k="natural" v="slope" />
		<tag k="place" v="locality" />
		<tag k="ssr:stedsnr" v="236852" />
	</node>
	<node lat="69.67504722011505" lon="20.526347211817402" id="-38715">
		<tag k="name" v="Lille oldergropa" />
		<tag k="name:no" v="Lille oldergropa" />
		<tag k="natural" v="valley" />
		<tag k="place" v="locality" />
		<tag k="ssr:stedsnr" v="235982" />
	</node>
	<node lat="69.61805277838504" lon="20.499724991884793" id="-38717">
		<tag k="name" v="Sobel" />
		<tag k="name:no" v="Sobel" />
		<tag k="natural" v="slope" />
		<tag k="place" v="locality" />
		<tag k="ssr:stedsnr" v="236017" />
	</node>
	<node lat="69.62480000384888" lon="20.50391665655645" id="-38718">
		<tag k="fixme" v="consider natural=peak for the most distinct mountains in the district" />
		<tag k="name" v="Buollánvárri" />
		<tag k="name:se" v="Buollánvárri" />
		<tag k="natural" v="hill" />
		<tag k="place" v="locality" />
		<tag k="ssr:stedsnr" v="236023" />
	</node>
	<node lat="69.51731944584144" lon="20.510452758537973" id="-38720">
		<tag k="name" v="Ribet" />
		<tag k="name:se" v="Ribet" />
		<tag k="place" v="locality" />
		<tag k="ssr:stedsnr" v="236115" />
	</node>
	<node lat="69.49830833573282" lon="20.50689442766616" id="-38721">
		<tag k="name" v="Márjjutdearbmi" />
		<tag k="name:se" v="Márjjutdearbmi" />
		<tag k="natural" v="slope" />
		<tag k="place" v="locality" />
		<tag k="ssr:stedsnr" v="236062" />
	</node>
	<node lat="69.47798055590515" lon="20.91565275418007" id="-38723">
		<tag k="name" v="Guolejohluohkká" />
		<tag k="name:se" v="Guolejohluohkká" />
		<tag k="natural" v="slope" />
		<tag k="place" v="locality" />
		<tag k="ssr:stedsnr" v="236283" />
	</node>
	<node lat="69.47009444855178" lon="20.92582776150051" id="-38725">
		<tag k="name" v="Uhcamielli" />
		<tag k="name:se" v="Uhcamielli" />
		<tag k="natural" v="slope" />
		<tag k="place" v="locality" />
		<tag k="ssr:stedsnr" v="236261" />
	</node>
	<node lat="69.47570278038401" lon="20.93713053782017" id="-38726">
		<tag k="name" v="Gierdobákti" />
		<tag k="name:se" v="Gierdobákti" />
		<tag k="natural" v="hill" />
		<tag k="place" v="locality" />
		<tag k="ssr:stedsnr" v="236268" />
	</node>
	<node lat="69.47782777957774" lon="20.89865830767064" id="-38727">
		<tag k="name" v="Ruffebákti" />
		<tag k="name:se" v="Ruffebákti" />
		<tag k="natural" v="hill" />
		<tag k="place" v="locality" />
		<tag k="ssr:stedsnr" v="236276" />
	</node>
	<node lat="69.4656722214406" lon="20.95138886062168" id="-38728">
		<tag k="name" v="Soahkegurra" />
		<tag k="name:se" v="Soahkegurra" />
		<tag k="natural" v="valley" />
		<tag k="place" v="locality" />
		<tag k="ssr:stedsnr" v="236341" />
	</node>
	<node lat="69.4641166725043" lon="20.936577745047025" id="-38729">
		<tag k="name" v="Ráigegállu" />
		<tag k="name:se" v="Ráigegállu" />
		<tag k="natural" v="hill" />
		<tag k="place" v="locality" />
		<tag k="ssr:stedsnr" v="236343" />
	</node>
	<node lat="69.46090277604239" lon="20.90581108383742" id="-38730">
		<tag k="name" v="Riđugurra" />
		<tag k="name:se" v="Riđugurra" />
		<tag k="natural" v="valley" />
		<tag k="place" v="locality" />
		<tag k="ssr:stedsnr" v="236344" />
	</node>
	<node lat="69.52406388851811" lon="20.61426942480352" id="-38731">
		<tag k="loc_name:se" v="Gaskamuš Stuorageađggit;Davimuš Stuorageađggit;Siskkimuš Stuorageađggit" />
		<tag k="name" v="Stuorageađggit" />
		<tag k="name:se" v="Stuorageađggit" />
		<tag k="natural" v="hill" />
		<tag k="place" v="locality" />
		<tag k="ssr:stedsnr" v="36204" />
	</node>
	<node lat="69.51938889327397" lon="20.77645831736579" id="-38732">
		<tag k="name" v="Čorru" />
		<tag k="name:se" v="Čorru" />
		<tag k="natural" v="hill" />
		<tag k="place" v="locality" />
		<tag k="ssr:stedsnr" v="236355" />
	</node>
	<node lat="69.51828888508432" lon="20.794397207018008" id="-38733">
		<tag k="name" v="Buollán" />
		<tag k="name:se" v="Buollán" />
		<tag k="place" v="locality" />
		<tag k="ssr:stedsnr" v="236458" />
	</node>
	<node lat="69.59735277603201" lon="20.56948054775797" id="-38734">
		<tag k="fixme" v="consider natural=peak for the most distinct mountains in the district" />
		<tag k="name" v="Coaffi" />
		<tag k="name:se" v="Coaffi" />
		<tag k="natural" v="hill" />
		<tag k="place" v="locality" />
		<tag k="ssr:stedsnr" v="236669" />
	</node>
	<node lat="69.61425833090834" lon="20.642088880114486" id="-38736">
		<tag k="name" v="Muozehat" />
		<tag k="name:se" v="Muozehat" />
		<tag k="natural" v="slope" />
		<tag k="place" v="locality" />
		<tag k="ssr:stedsnr" v="236756" />
	</node>
	<node lat="69.52752499760584" lon="20.568041644809657" id="-38737">
		<tag k="alt_name:se" v="Gussalátnja" />
		<tag k="loc_name:se" v="Gurralatnja" />
		<tag k="name" v="Gurralátnja" />
		<tag k="name:se" v="Gurralátnja" />
		<tag k="place" v="locality" />
		<tag k="ssr:stedsnr" v="236818" />
	</node>
	<node lat="69.44063888818317" lon="20.562769414684404" id="-38739">
		<tag k="name" v="Banul" />
		<tag k="name:se" v="Banul" />
		<tag k="natural" v="slope" />
		<tag k="place" v="locality" />
		<tag k="ssr:stedsnr" v="236913" />
	</node>
	<node lat="69.51658611293621" lon="20.63524721262435" id="-38741">
		<tag k="name" v="Jogagieddi" />
		<tag k="name:se" v="Jogagieddi" />
		<tag k="place" v="locality" />
		<tag k="ssr:stedsnr" v="236859" />
	</node>
	<node lat="69.51217500457905" lon="20.61532774916865" id="-38742">
		<tag k="name" v="Luoktagieddi" />
		<tag k="name:se" v="Luoktagieddi" />
		<tag k="place" v="locality" />
		<tag k="ssr:stedsnr" v="236860" />
	</node>
	<node lat="69.43155278060742" lon="20.57540275416937" id="-38744">
		<tag k="name" v="Banulamoski" />
		<tag k="name:se" v="Banulamoski" />
		<tag k="place" v="locality" />
		<tag k="ssr:stedsnr" v="41367" />
	</node>
	<node lat="69.5044694444423" lon="20.81725274244235" id="-38751">
		<tag k="name" v="Uksadearbmi" />
		<tag k="name:se" v="Uksadearbmi" />
		<tag k="natural" v="slope" />
		<tag k="place" v="locality" />
		<tag k="ssr:stedsnr" v="53486" />
	</node>
	<node lat="69.74592222633164" lon="20.524241642031264" id="-38752">
		<tag k="fixme" v="consider natural=peak for the most distinct mountains in the district" />
		<tag k="loc_name:se" v="Veažir" />
		<tag k="name" v="Storhammaren" />
		<tag k="name:no" v="Storhammaren" />
		<tag k="natural" v="hill" />
		<tag k="place" v="locality" />
		<tag k="ssr:stedsnr" v="53907" />
	</node>
	<node lat="69.61997222037043" lon="20.506086086254484" id="-38753">
		<tag k="name" v="Smådalan" />
		<tag k="name:no" v="Smådalan" />
		<tag k="natural" v="valley" />
		<tag k="place" v="locality" />
		<tag k="ssr:stedsnr" v="54001" />
	</node>
	<node lat="69.51220833431131" lon="20.359486093515667" id="-38755">
		<tag k="name" v="Naustbuktbergan" />
		<tag k="name:no" v="Naustbuktbergan" />
		<tag k="natural" v="hill" />
		<tag k="place" v="locality" />
		<tag k="ssr:stedsnr" v="54205" />
	</node>
	<node lat="69.47683055538708" lon="20.90689164453623" id="-38756">
		<tag k="name" v="Várevuolbákti" />
		<tag k="name:se" v="Várevuolbákti" />
		<tag k="natural" v="hill" />
		<tag k="place" v="locality" />
		<tag k="ssr:stedsnr" v="54268" />
	</node>
	<node lat="69.47691944765486" lon="20.892680538107772" id="-38757">
		<tag k="fixme" v="consider natural=peak for the most distinct mountains in the district" />
		<tag k="name" v="Aláš" />
		<tag k="name:se" v="Aláš" />
		<tag k="natural" v="hill" />
		<tag k="place" v="locality" />
		<tag k="ssr:stedsnr" v="54277" />
	</node>
	<node lat="69.48251111347956" lon="20.88385832168615" id="-38759">
		<tag k="name" v="Melen" />
		<tag k="name:no" v="Melen" />
		<tag k="natural" v="slope" />
		<tag k="place" v="locality" />
		<tag k="ssr:stedsnr" v="54280" />
	</node>
	<node lat="69.51739166581869" lon="20.77883609082568" id="-38760">
		<tag k="name" v="Eartalátnja" />
		<tag k="name:se" v="Eartalátnja" />
		<tag k="natural" v="slope" />
		<tag k="place" v="locality" />
		<tag k="ssr:stedsnr" v="54379" />
	</node>
	<node lat="69.67045278181745" lon="20.499341661593935" id="-38763">
		<tag k="name" v="Vikemelen" />
		<tag k="name:no" v="Vikemelen" />
		<tag k="natural" v="slope" />
		<tag k="place" v="locality" />
		<tag k="ssr:stedsnr" v="54970" />
	</node>
	<node lat="69.53482500391374" lon="20.666213876597396" id="-38777">
		<tag k="name" v="Skoalpi" />
		<tag k="name:se" v="Skoalpi" />
		<tag k="place" v="locality" />
		<tag k="ssr:stedsnr" v="241100" />
	</node>
	<node lat="69.54033055339109" lon="20.65257497593945" id="-38781">
		<tag k="name" v="Ovlládearbmi" />
		<tag k="name:se" v="Ovlládearbmi" />
		<tag k="natural" v="slope" />
		<tag k="place" v="locality" />
		<tag k="ssr:stedsnr" v="242138" />
	</node>
	<node lat="69.4071833341619" lon="20.813624970644376" id="-38799">
		<tag k="fixme" v="consider natural=peak for the most distinct mountains in the district" />
		<tag k="name" v="Ruostavárri" />
		<tag k="name:se" v="Ruostavárri" />
		<tag k="natural" v="hill" />
		<tag k="place" v="locality" />
		<tag k="ssr:stedsnr" v="79502" />
	</node>
	<node lat="69.37745277838107" lon="21.15726386313808" id="-38801">
		<tag k="fixme" v="consider natural=peak for the most distinct mountains in the district" />
		<tag k="name" v="Áhkkečohkka" />
		<tag k="name:se" v="Áhkkečohkka" />
		<tag k="natural" v="hill" />
		<tag k="place" v="locality" />
		<tag k="ssr:stedsnr" v="79600" />
	</node>
	<node lat="69.53677778035816" lon="20.594374989051847" id="-38802">
		<tag k="name" v="Čealugáddi" />
		<tag k="name:se" v="Čealugáddi" />
		<tag k="natural" v="slope" />
		<tag k="place" v="locality" />
		<tag k="ssr:stedsnr" v="79601" />
	</node>
	<node lat="69.4947444431982" lon="20.842966640693884" id="-38811">
		<tag k="name" v="Alladearbmi" />
		<tag k="name:se" v="Alladearbmi" />
		<tag k="natural" v="slope" />
		<tag k="place" v="locality" />
		<tag k="ssr:stedsnr" v="113586" />
	</node>
	<node lat="69.52055555403703" lon="20.499544432061025" id="-38812">
		<tag k="name" v="Allagohpi" />
		<tag k="name:se" v="Allagohpi" />
		<tag k="natural" v="valley" />
		<tag k="place" v="locality" />
		<tag k="ssr:stedsnr" v="114077" />
	</node>
	<node lat="69.50791944374949" lon="20.757127746964986" id="-38813">
		<tag k="name" v="Bajilánjjat" />
		<tag k="name:se" v="Bajilánjjat" />
		<tag k="place" v="locality" />
		<tag k="ssr:stedsnr" v="114527" />
	</node>
	<node lat="69.75460833423269" lon="20.5167722020944" id="-38814">
		<tag k="name" v="Dalen" />
		<tag k="name:no" v="Dalen" />
		<tag k="natural" v="valley" />
		<tag k="place" v="locality" />
		<tag k="ssr:stedsnr" v="114903" />
	</node>
	<node lat="69.67799722427655" lon="20.51286387842118" id="-38815">
		<tag k="name" v="Langbakken" />
		<tag k="name:no" v="Langbakken" />
		<tag k="natural" v="slope" />
		<tag k="place" v="locality" />
		<tag k="ssr:stedsnr" v="114914" />
	</node>
	<node lat="69.61796111480332" lon="20.508344423929323" id="-38817">
		<tag k="name" v="Katteberget" />
		<tag k="name:no" v="Katteberget" />
		<tag k="natural" v="hill" />
		<tag k="place" v="locality" />
		<tag k="ssr:stedsnr" v="115015" />
	</node>
	<node lat="69.55107499694672" lon="20.63058054446168" id="-38818">
		<tag k="name" v="Langbergan" />
		<tag k="name:no" v="Langbergan" />
		<tag k="natural" v="hill" />
		<tag k="place" v="locality" />
		<tag k="ssr:stedsnr" v="115729" />
	</node>
	<node lat="69.53415000204923" lon="20.654886100551497" id="-38819">
		<tag k="fixme" v="multiple name tags, choose one and add the other to alt_name" />
		<tag k="name" v="Earkobákti;Earkonjárga - Erkoberget" />
		<tag k="name:no" v="Erkoberget" />
		<tag k="name:se" v="Earkobákti;Earkonjárga" />
		<tag k="natural" v="hill" />
		<tag k="place" v="locality" />
		<tag k="ssr:stedsnr" v="115789" />
	</node>
	<node lat="69.4948416716854" lon="20.775588870203165" id="-38820">
		<tag k="name" v="Jullalokta" />
		<tag k="name:se" v="Jullalokta" />
		<tag k="place" v="locality" />
		<tag k="ssr:stedsnr" v="115678" />
	</node>
	<node lat="69.53298611542108" lon="20.58971387564087" id="-38822">
		<tag k="name" v="Skáhpelátnja" />
		<tag k="name:se" v="Skáhpelátnja" />
		<tag k="place" v="locality" />
		<tag k="ssr:stedsnr" v="115814" />
	</node>
	<node lat="69.53615277784034" lon="20.557077752195042" id="-38823">
		<tag k="name" v="Vuolit Čáhppesbákti" />
		<tag k="name:se" v="Vuolit Čáhppesbákti" />
		<tag k="natural" v="hill" />
		<tag k="place" v="locality" />
		<tag k="ssr:stedsnr" v="115817" />
	</node>
	<node lat="69.68924166853822" lon="20.51332774870987" id="-38824">
		<tag k="name" v="Bonisvollen" />
		<tag k="name:no" v="Bonisvollen" />
		<tag k="place" v="locality" />
		<tag k="ssr:stedsnr" v="115970" />
	</node>
	<node lat="69.52734722550451" lon="20.729594427643985" id="-38827">
		<tag k="name" v="Stoppelokta" />
		<tag k="name:se" v="Stoppelokta" />
		<tag k="place" v="locality" />
		<tag k="ssr:stedsnr" v="120081" />
	</node>
	<node lat="69.41023055177875" lon="20.56776943139825" id="-38835">
		<tag k="name" v="Ruovddáš" />
		<tag k="name:se" v="Ruovddáš" />
		<tag k="natural" v="valley" />
		<tag k="place" v="locality" />
		<tag k="ssr:stedsnr" v="120971" />
	</node>
	<node lat="69.46228888581413" lon="21.033508301800026" id="-38838">
		<tag k="fixme" v="consider natural=peak for the most distinct mountains in the district" />
		<tag k="name" v="Hánskkevárri" />
		<tag k="name:se" v="Hánskkevárri" />
		<tag k="natural" v="hill" />
		<tag k="place" v="locality" />
		<tag k="ssr:stedsnr" v="139697" />
	</node>
	<node lat="69.71670555781654" lon="20.56191941647288" id="-38841">
		<tag k="name" v="Engnesdalen" />
		<tag k="name:no" v="Engnesdalen" />
		<tag k="natural" v="valley" />
		<tag k="place" v="locality" />
		<tag k="ssr:stedsnr" v="140602" />
	</node>
	<node lat="69.47510277469631" lon="20.686180524119646" id="-38845">
		<tag k="name" v="Bievlačahca" />
		<tag k="name:se" v="Bievlačahca" />
		<tag k="natural" v="valley" />
		<tag k="place" v="locality" />
		<tag k="ssr:stedsnr" v="140589" />
	</node>
	<node lat="69.52615555859431" lon="20.610977753288974" id="-38848">
		<tag k="name" v="Deappogeađgi" />
		<tag k="name:se" v="Deappogeađgi" />
		<tag k="natural" v="hill" />
		<tag k="place" v="locality" />
		<tag k="ssr:stedsnr" v="157202" />
	</node>
	<node lat="69.52683611189306" lon="20.501138864408308" id="-38849">
		<tag k="name" v="Stuoralatnja" />
		<tag k="name:se" v="Stuoralatnja" />
		<tag k="natural" v="slope" />
		<tag k="place" v="locality" />
		<tag k="ssr:stedsnr" v="174118" />
	</node>
	<node lat="69.52950556045447" lon="20.552883305791823" id="-38850">
		<tag k="name" v="Grinta" />
		<tag k="name:no" v="Grinta" />
		<tag k="natural" v="hill" />
		<tag k="place" v="locality" />
		<tag k="ssr:stedsnr" v="174129" />
	</node>
	<node lat="69.53216389214474" lon="20.54444998261804" id="-38851">
		<tag k="name" v="Aspegropa" />
		<tag k="name:no" v="Aspegropa" />
		<tag k="natural" v="valley" />
		<tag k="place" v="locality" />
		<tag k="ssr:stedsnr" v="174149" />
	</node>
	<node lat="69.470947224033" lon="20.52676386547134" id="-38854">
		<tag k="name" v="Njirrangieddi" />
		<tag k="name:se" v="Njirrangieddi" />
		<tag k="place" v="locality" />
		<tag k="ssr:stedsnr" v="174219" />
	</node>
	<node lat="69.52107777540884" lon="20.792908314597902" id="-38855">
		<tag k="name" v="Návrrašbákti" />
		<tag k="name:se" v="Návrrašbákti" />
		<tag k="natural" v="hill" />
		<tag k="place" v="locality" />
		<tag k="ssr:stedsnr" v="174459" />
	</node>
	<node lat="69.61570833526692" lon="20.526894416334624" id="-38856">
		<tag k="name" v="Ravnaberget" />
		<tag k="name:no" v="Ravnaberget" />
		<tag k="natural" v="hill" />
		<tag k="place" v="locality" />
		<tag k="ssr:stedsnr" v="175011" />
	</node>
	<node lat="69.51883611193136" lon="20.53656387047625" id="-38858">
		<tag k="name" v="Riebančorru" />
		<tag k="name:se" v="Riebančorru" />
		<tag k="natural" v="hill" />
		<tag k="place" v="locality" />
		<tag k="ssr:stedsnr" v="175102" />
	</node>
	<node lat="69.44804999892126" lon="20.94757498467311" id="-38860">
		<tag k="name" v="Ealhuogudat" />
		<tag k="name:se" v="Ealhuogudat" />
		<tag k="natural" v="slope" />
		<tag k="place" v="locality" />
		<tag k="ssr:stedsnr" v="175441" />
	</node>
	<node lat="69.39991944494508" lon="21.010466640933384" id="-38861">
		<tag k="name" v="Miesevárluohkát" />
		<tag k="name:se" v="Miesevárluohkát" />
		<tag k="natural" v="slope" />
		<tag k="place" v="locality" />
		<tag k="ssr:stedsnr" v="175455" />
	</node>
	<node lat="69.3918555548521" lon="21.023013849196772" id="-38862">
		<tag k="name" v="Rovejalga" />
		<tag k="name:se" v="Rovejalga" />
		<tag k="place" v="locality" />
		<tag k="ssr:stedsnr" v="175460" />
	</node>
	<node lat="69.39758611261287" lon="20.973161076331518" id="-38863">
		<tag k="name" v="Magergorsa" />
		<tag k="name:se" v="Magergorsa" />
		<tag k="natural" v="valley" />
		<tag k="place" v="locality" />
		<tag k="ssr:stedsnr" v="175464" />
	</node>
	<node lat="69.5170250004296" lon="20.801988853857736" id="-38864">
		<tag k="name" v="Gievdnečorru" />
		<tag k="name:se" v="Gievdnečorru" />
		<tag k="natural" v="hill" />
		<tag k="place" v="locality" />
		<tag k="ssr:stedsnr" v="175471" />
	</node>
	<node lat="69.51936110731927" lon="20.83290275797062" id="-38865">
		<tag k="name" v="Liigevággi" />
		<tag k="name:se" v="Liigevággi" />
		<tag k="natural" v="valley" />
		<tag k="place" v="locality" />
		<tag k="ssr:stedsnr" v="175473" />
	</node>
	<node lat="69.49971667185528" lon="20.6106638607196" id="-38866">
		<tag k="name" v="Badjegiettvuolit" />
		<tag k="name:se" v="Badjegiettvuolit" />
		<tag k="natural" v="slope" />
		<tag k="place" v="locality" />
		<tag k="ssr:stedsnr" v="175868" />
	</node>
	<node lat="69.72960555941056" lon="20.536169415472745" id="-38867">
		<tag k="name" v="Lauvgropa" />
		<tag k="name:no" v="Lauvgropa" />
		<tag k="natural" v="valley" />
		<tag k="place" v="locality" />
		<tag k="ssr:stedsnr" v="175875" />
	</node>
	<node lat="69.37780833743285" lon="20.553191653685186" id="-38871">
		<tag k="fixme" v="consider natural=peak for the most distinct mountains in the district" />
		<tag k="name" v="Heaidnanjunni" />
		<tag k="name:se" v="Heaidnanjunni" />
		<tag k="natural" v="hill" />
		<tag k="place" v="locality" />
		<tag k="ssr:stedsnr" v="261519" />
	</node>
	<node lat="69.39181944220063" lon="20.876861084949205" id="-38872">
		<tag k="name" v="Moskkuvággi" />
		<tag k="name:se" v="Moskkuvággi" />
		<tag k="natural" v="valley" />
		<tag k="place" v="locality" />
		<tag k="ssr:stedsnr" v="261523" />
	</node>
	<node lat="69.40026944852269" lon="20.661474989213314" id="-38875">
		<tag k="fixme" v="consider natural=peak for the most distinct mountains in the district" />
		<tag k="name" v="Čiččenvárri" />
		<tag k="name:se" v="Čiččenvárri" />
		<tag k="natural" v="hill" />
		<tag k="place" v="locality" />
		<tag k="ssr:stedsnr" v="261528" />
	</node>
	<node lat="69.40444444127473" lon="20.601016637270007" id="-38876">
		<tag k="fixme" v="consider natural=peak for the most distinct mountains in the district" />
		<tag k="name" v="Čiččenčohkka" />
		<tag k="name:se" v="Čiččenčohkka" />
		<tag k="natural" v="hill" />
		<tag k="place" v="locality" />
		<tag k="ssr:stedsnr" v="261530" />
	</node>
	<node lat="69.44037499642805" lon="20.774808318195934" id="-38878">
		<tag k="fixme" v="consider natural=peak for the most distinct mountains in the district" />
		<tag k="name" v="Bievlavárri" />
		<tag k="name:se" v="Bievlavárri" />
		<tag k="natural" v="hill" />
		<tag k="place" v="locality" />
		<tag k="ssr:stedsnr" v="261540" />
	</node>
	<node lat="69.47589166935617" lon="20.644338863043497" id="-38879">
		<tag k="name" v="Kopperlia" />
		<tag k="name:no" v="Kopperlia" />
		<tag k="natural" v="slope" />
		<tag k="place" v="locality" />
		<tag k="ssr:stedsnr" v="261617" />
	</node>
	<node lat="69.59780000135692" lon="20.878849982124073" id="-38880">
		<tag k="name" v="Gievačahca" />
		<tag k="name:se" v="Gievačahca" />
		<tag k="natural" v="valley" />
		<tag k="place" v="locality" />
		<tag k="ssr:stedsnr" v="261649" />
	</node>
	<node lat="69.5315611086717" lon="20.465922202574067" id="-38881">
		<tag k="fixme" v="consider natural=peak for the most distinct mountains in the district" />
		<tag k="name" v="Geađgevárri" />
		<tag k="name:se" v="Geađgevárri" />
		<tag k="natural" v="hill" />
		<tag k="place" v="locality" />
		<tag k="ssr:stedsnr" v="261619" />
	</node>
	<node lat="69.55817500425668" lon="20.650888877731983" id="-38883">
		<tag k="alt_name:no" v="Raudfjellet" />
		<tag k="fixme" v="consider natural=peak for the most distinct mountains in the district" />
		<tag k="name" v="Rødfjellet" />
		<tag k="name:no" v="Rødfjellet" />
		<tag k="natural" v="hill" />
		<tag k="place" v="locality" />
		<tag k="ssr:stedsnr" v="261656" />
	</node>
	<node lat="69.53996944816414" lon="20.652041646809575" id="-38891">
		<tag k="name" v="Kálladearbmi - Kallabakken" />
		<tag k="name:no" v="Kallabakken" />
		<tag k="name:se" v="Kálladearbmi" />
		<tag k="natural" v="slope" />
		<tag k="place" v="locality" />
		<tag k="ssr:stedsnr" v="181161" />
	</node>
	<node lat="69.53940556074183" lon="20.651433307118488" id="-38892">
		<tag k="name" v="Skáhpeleahskohpi" />
		<tag k="name:se" v="Skáhpeleahskohpi" />
		<tag k="place" v="locality" />
		<tag k="ssr:stedsnr" v="181163" />
	</node>
	<node lat="69.60795278129295" lon="20.593194436863456" id="-38905">
		<tag k="name" v="Dálvvesvággi - Olderdalen - Talosvankka" />
		<tag k="name:fkv" v="Talosvankka" />
		<tag k="name:no" v="Olderdalen" />
		<tag k="name:se" v="Dálvvesvággi" />
		<tag k="natural" v="valley" />
		<tag k="place" v="locality" />
		<tag k="ssr:stedsnr" v="262678" />
	</node>
	<node lat="69.64580833721786" lon="20.500949973515183" id="-38907">
		<tag k="name" v="Rypbergan" />
		<tag k="name:no" v="Rypbergan" />
		<tag k="natural" v="hill" />
		<tag k="place" v="locality" />
		<tag k="ssr:stedsnr" v="201543" />
	</node>
	<node lat="69.52392778147554" lon="20.499797216312345" id="-38914">
		<tag k="name" v="Stuorabákti" />
		<tag k="name:se" v="Stuorabákti" />
		<tag k="natural" v="hill" />
		<tag k="place" v="locality" />
		<tag k="ssr:stedsnr" v="235108" />
	</node>
	<node lat="69.52042778123636" lon="20.78269720861975" id="-38916">
		<tag k="name" v="Márjjahoallu" />
		<tag k="name:se" v="Márjjahoallu" />
		<tag k="natural" v="hill" />
		<tag k="place" v="locality" />
		<tag k="ssr:stedsnr" v="235436" />
	</node>
	<node lat="69.52050277979184" lon="20.7774221992523" id="-38917">
		<tag k="name" v="Bánnahanbákti" />
		<tag k="name:se" v="Bánnahanbákti" />
		<tag k="natural" v="hill" />
		<tag k="place" v="locality" />
		<tag k="ssr:stedsnr" v="235437" />
	</node>
	<node lat="69.47830278225646" lon="20.846486077433934" id="-38918">
		<tag k="name" v="Čolpičohkka" />
		<tag k="name:se" v="Čolpičohkka" />
		<tag k="natural" v="hill" />
		<tag k="place" v="locality" />
		<tag k="ssr:stedsnr" v="235551" />
	</node>
	<node lat="69.53379722319964" lon="20.768288877739536" id="-38919">
		<tag k="loc_name:se" v="Davit Vággečorru;Vuolit Vággečorru" />
		<tag k="name" v="Vággečorru" />
		<tag k="name:se" v="Vággečorru" />
		<tag k="natural" v="hill" />
		<tag k="place" v="locality" />
		<tag k="ssr:stedsnr" v="235579" />
	</node>
	<node lat="69.74359444375645" lon="20.509619436240087" id="-38920">
		<tag k="name" v="Vedhøgga" />
		<tag k="name:no" v="Vedhøgga" />
		<tag k="natural" v="slope" />
		<tag k="place" v="locality" />
		<tag k="ssr:stedsnr" v="235903" />
	</node>
	<node lat="69.55823055679838" lon="20.51908331759137" id="-38921">
		<tag k="name" v="Čohkápmir" />
		<tag k="name:se" v="Čohkápmir" />
		<tag k="natural" v="hill" />
		<tag k="place" v="locality" />
		<tag k="ssr:stedsnr" v="236005" />
	</node>
	<node lat="69.51098889118401" lon="20.355672216838816" id="-38922">
		<tag k="name" v="Buollán" />
		<tag k="name:se" v="Buollán" />
		<tag k="place" v="locality" />
		<tag k="ssr:stedsnr" v="236205" />
	</node>
	<node lat="69.59331895167077" lon="20.614544979156612" id="-38923">
		<tag k="fixme" v="consider natural=peak for the most distinct mountains in the district" />
		<tag k="name" v="Askevárri" />
		<tag k="name:se" v="Askevárri" />
		<tag k="natural" v="hill" />
		<tag k="place" v="locality" />
		<tag k="ssr:stedsnr" v="236654" />
	</node>
	<node lat="69.40127500532168" lon="20.563949975704514" id="-38929">
		<tag k="name" v="Njiccenčorru" />
		<tag k="name:se" v="Njiccenčorru" />
		<tag k="natural" v="hill" />
		<tag k="place" v="locality" />
		<tag k="ssr:stedsnr" v="236928" />
	</node>
	<node lat="69.54141666389391" lon="20.64218608365042" id="-38931">
		<tag k="name" v="Gieddejohorrit" />
		<tag k="name:se" v="Gieddejohorrit" />
		<tag k="place" v="locality" />
		<tag k="ssr:stedsnr" v="242135" />
	</node>
	<node lat="69.47293056046318" lon="20.331036090885142" id="-38940">
		<tag k="name" v="Penteberget - Penttopahta" />
		<tag k="name:fkv" v="Penttopahta" />
		<tag k="name:no" v="Penteberget" />
		<tag k="natural" v="hill" />
		<tag k="place" v="locality" />
		<tag k="ssr:stedsnr" v="261304" />
	</node>
	<node lat="69.46006111529002" lon="20.48553331033915" id="-38942">
		<tag k="fixme" v="consider natural=peak for the most distinct mountains in the district" />
		<tag k="name" v="Áhkávátgáisi" />
		<tag k="name:se" v="Áhkávátgáisi" />
		<tag k="natural" v="hill" />
		<tag k="old_name:se" v="Áhkavátgáisi" />
		<tag k="place" v="locality" />
		<tag k="ssr:stedsnr" v="261610" />
	</node>
	<node lat="69.53726388638863" lon="20.597961082108057" id="-38947">
		<tag k="name" v="Sieđgasoahki" />
		<tag k="name:se" v="Sieđgasoahki" />
		<tag k="natural" v="hill" />
		<tag k="place" v="locality" />
		<tag k="ssr:stedsnr" v="461190" />
	</node>
	<node lat="69.5240694461183" lon="20.790472198510084" id="-38948">
		<tag k="name" v="Suolu" />
		<tag k="name:se" v="Suolu" />
		<tag k="natural" v="valley" />
		<tag k="place" v="locality" />
		<tag k="ssr:stedsnr" v="295412" />
	</node>
	<node lat="69.5220944439921" lon="20.78275830537568" id="-38949">
		<tag k="name" v="Riebanmoski" />
		<tag k="name:se" v="Riebanmoski" />
		<tag k="natural" v="valley" />
		<tag k="place" v="locality" />
		<tag k="ssr:stedsnr" v="295423" />
	</node>
	<node lat="69.5224361086713" lon="20.512177753386442" id="-38952">
		<tag k="name" v="Goahtebákti" />
		<tag k="name:se" v="Goahtebákti" />
		<tag k="natural" v="hill" />
		<tag k="place" v="locality" />
		<tag k="ssr:stedsnr" v="296081" />
	</node>
	<node lat="69.52223611582781" lon="20.491744427944393" id="-38954">
		<tag k="name" v="Miellegorsa" />
		<tag k="name:se" v="Miellegorsa" />
		<tag k="natural" v="valley" />
		<tag k="place" v="locality" />
		<tag k="ssr:stedsnr" v="296083" />
	</node>
	<node lat="69.40883333728598" lon="20.9787527537861" id="-38955">
		<tag k="name" v="Gorsa" />
		<tag k="name:se" v="Gorsa" />
		<tag k="natural" v="valley" />
		<tag k="place" v="locality" />
		<tag k="ssr:stedsnr" v="296432" />
	</node>
	<node lat="69.50064722087815" lon="20.76493607538463" id="-38957">
		<tag k="name" v="Jullalokta" />
		<tag k="name:se" v="Jullalokta" />
		<tag k="place" v="locality" />
		<tag k="ssr:stedsnr" v="296462" />
	</node>
	<node lat="69.6913916651867" lon="20.51836665172651" id="-38958">
		<tag k="name" v="Hamnvikbakken" />
		<tag k="name:no" v="Hamnvikbakken" />
		<tag k="natural" v="slope" />
		<tag k="place" v="locality" />
		<tag k="ssr:stedsnr" v="296972" />
	</node>
	<node lat="69.71075278113912" lon="20.53172499190152" id="-38959">
		<tag k="name" v="Gaddonberget" />
		<tag k="name:no" v="Gaddonberget" />
		<tag k="natural" v="hill" />
		<tag k="place" v="locality" />
		<tag k="ssr:stedsnr" v="296986" />
	</node>
	<node lat="69.57161142579037" lon="20.507630217172984" id="-38962">
		<tag k="name" v="Sámmolborri" />
		<tag k="name:se" v="Sámmolborri" />
		<tag k="natural" v="slope" />
		<tag k="place" v="locality" />
		<tag k="ssr:stedsnr" v="297110" />
	</node>
	<node lat="69.50338332939562" lon="20.546647212508574" id="-38964">
		<tag k="fixme" v="consider natural=peak for the most distinct mountains in the district" />
		<tag k="name" v="Bovdnagieddvárri" />
		<tag k="name:se" v="Bovdnagieddvárri" />
		<tag k="natural" v="hill" />
		<tag k="place" v="locality" />
		<tag k="ssr:stedsnr" v="297092" />
	</node>
	<node lat="69.50603610855661" lon="20.50945553296921" id="-38965">
		<tag k="name" v="Vuolimus darfehávdi" />
		<tag k="name:se" v="Vuolimus darfehávdi" />
		<tag k="place" v="locality" />
		<tag k="ssr:stedsnr" v="297093" />
	</node>
	<node lat="69.50342777979044" lon="20.5395833071832" id="-38966">
		<tag k="name" v="Vákkit" />
		<tag k="name:se" v="Vákkit" />
		<tag k="natural" v="valley" />
		<tag k="place" v="locality" />
		<tag k="ssr:stedsnr" v="297096" />
	</node>
	<node lat="69.45912500174704" lon="20.946372193388058" id="-38967">
		<tag k="name" v="Guhkesbákti" />
		<tag k="name:se" v="Guhkesbákti" />
		<tag k="natural" v="hill" />
		<tag k="place" v="locality" />
		<tag k="ssr:stedsnr" v="297355" />
	</node>
	<node lat="69.4949638855431" lon="20.893127752607167" id="-38968">
		<tag k="name" v="Áhkkarat" />
		<tag k="name:se" v="Áhkkarat" />
		<tag k="natural" v="slope" />
		<tag k="place" v="locality" />
		<tag k="ssr:stedsnr" v="297277" />
	</node>
	<node lat="69.60380278231362" lon="20.589508316274713" id="-38969">
		<tag k="fixme" v="consider natural=peak for the most distinct mountains in the district" />
		<tag k="name" v="Čohkápmir" />
		<tag k="name:se" v="Čohkápmir" />
		<tag k="natural" v="hill" />
		<tag k="place" v="locality" />
		<tag k="ssr:stedsnr" v="297787" />
	</node>
	<node lat="69.60763610852025" lon="20.56865553779666" id="-38970">
		<tag k="name" v="Aspelia" />
		<tag k="name:no" v="Aspelia" />
		<tag k="natural" v="slope" />
		<tag k="place" v="locality" />
		<tag k="ssr:stedsnr" v="297795" />
	</node>
	<node lat="69.65656666988296" lon="20.480055551427434" id="-38980">
		<tag k="name" v="Sieidičohkka - Seidigentsokken" />
		<tag k="name:no" v="Seidigentsokken" />
		<tag k="name:se" v="Sieidičohkka" />
		<tag k="natural" v="hill" />
		<tag k="place" v="locality" />
		<tag k="ssr:stedsnr" v="322581" />
	</node>
	<node lat="69.62170555550298" lon="20.625730542920437" id="-38981">
		<tag k="fixme" v="consider natural=peak for the most distinct mountains in the district" />
		<tag k="name" v="Skávlevárri - Skavlekila" />
		<tag k="name:no" v="Skavlekila" />
		<tag k="name:se" v="Skávlevárri" />
		<tag k="natural" v="hill" />
		<tag k="place" v="locality" />
		<tag k="ssr:stedsnr" v="322582" />
	</node>
	<node lat="69.4942305541668" lon="20.534511092155725" id="-38988">
		<tag k="name" v="Fierran" />
		<tag k="name:se" v="Fierran" />
		<tag k="natural" v="slope" />
		<tag k="place" v="locality" />
		<tag k="ssr:stedsnr" v="356188" />
	</node>
	<node lat="69.47206944246453" lon="20.537113881224666" id="-38989">
		<tag k="name" v="Njirran" />
		<tag k="name:se" v="Njirran" />
		<tag k="natural" v="slope" />
		<tag k="place" v="locality" />
		<tag k="ssr:stedsnr" v="356202" />
	</node>
	<node lat="69.52862499882235" lon="20.790249975504477" id="-38991">
		<tag k="loc_name:se" v="Vuolit Fierahat" />
		<tag k="name" v="Fierahat" />
		<tag k="name:se" v="Fierahat" />
		<tag k="natural" v="slope" />
		<tag k="place" v="locality" />
		<tag k="ssr:stedsnr" v="356426" />
	</node>
	<node lat="69.52366666623361" lon="20.74344999071727" id="-38992">
		<tag k="name" v="Uhcagiettáš" />
		<tag k="name:se" v="Uhcagiettáš" />
		<tag k="place" v="locality" />
		<tag k="ssr:stedsnr" v="356430" />
	</node>
	<node lat="69.74627499717023" lon="20.503191648685437" id="-38994">
		<tag k="name" v="Kvitbakken" />
		<tag k="name:no" v="Kvitbakken" />
		<tag k="natural" v="slope" />
		<tag k="place" v="locality" />
		<tag k="ssr:stedsnr" v="356900" />
	</node>
	<node lat="69.60912499798415" lon="20.50417776154002" id="-38997">
		<tag k="name" v="Bánccugieddi" />
		<tag k="name:se" v="Bánccugieddi" />
		<tag k="place" v="locality" />
		<tag k="ssr:stedsnr" v="357023" />
	</node>
	<node lat="69.46817500437527" lon="20.95217498904442" id="-38998">
		<tag k="name" v="Ovllároggi" />
		<tag k="name:se" v="Ovllároggi" />
		<tag k="natural" v="valley" />
		<tag k="place" v="locality" />
		<tag k="ssr:stedsnr" v="357253" />
	</node>
	<node lat="69.47393888651692" lon="20.92221108881369" id="-38999">
		<tag k="name" v="Stealli" />
		<tag k="name:se" v="Stealli" />
		<tag k="place" v="locality" />
		<tag k="ssr:stedsnr" v="357255" />
	</node>
	<node lat="69.47366111151406" lon="20.91812497117594" id="-39000">
		<tag k="name" v="Ládjoroggi" />
		<tag k="name:se" v="Ládjoroggi" />
		<tag k="natural" v="valley" />
		<tag k="place" v="locality" />
		<tag k="ssr:stedsnr" v="357256" />
	</node>
	<node lat="69.51423055115417" lon="20.612219434329276" id="-39001">
		<tag k="name" v="Gáiskeleahki" />
		<tag k="name:se" v="Gáiskeleahki" />
		<tag k="natural" v="valley" />
		<tag k="place" v="locality" />
		<tag k="ssr:stedsnr" v="357860" />
	</node>
	<node lat="69.51267222014344" lon="20.70489718792536" id="-39002">
		<tag k="loc_name:se" v="Luopmanorrit" />
		<tag k="name" v="Luomeorrit" />
		<tag k="name:se" v="Luomeorrit" />
		<tag k="natural" v="hill" />
		<tag k="place" v="locality" />
		<tag k="ssr:stedsnr" v="357752" />
	</node>
	<node lat="69.52004166376123" lon="20.561994433975936" id="-39003">
		<tag k="fixme" v="consider natural=peak for the most distinct mountains in the district" />
		<tag k="name" v="Martápmir" />
		<tag k="name:se" v="Martápmir" />
		<tag k="natural" v="hill" />
		<tag k="place" v="locality" />
		<tag k="ssr:stedsnr" v="357799" />
	</node>
	<node lat="69.71677222001256" lon="20.539836080934624" id="-39005">
		<tag k="name" v="Stakbakken" />
		<tag k="name:no" v="Stakbakken" />
		<tag k="natural" v="slope" />
		<tag k="place" v="locality" />
		<tag k="ssr:stedsnr" v="357908" />
	</node>
	<node lat="69.48469722001022" lon="20.836930537634235" id="-39009">
		<tag k="name" v="Állisavvongieddi" />
		<tag k="name:se" v="Állisavvongieddi" />
		<tag k="place" v="locality" />
		<tag k="ssr:stedsnr" v="477544" />
	</node>
	<node lat="69.48251944263117" lon="20.531211094437705" id="-39013">
		<tag k="name" v="Rávrračorru" />
		<tag k="name:se" v="Rávrračorru" />
		<tag k="natural" v="hill" />
		<tag k="place" v="locality" />
		<tag k="ssr:stedsnr" v="478141" />
	</node>
	<node lat="69.52452500033715" lon="20.51195275070978" id="-39016">
		<tag k="name" v="Njurgobákti" />
		<tag k="name:se" v="Njurgobákti" />
		<tag k="natural" v="hill" />
		<tag k="place" v="locality" />
		<tag k="ssr:stedsnr" v="478087" />
	</node>
	<node lat="69.48834721852776" lon="20.531111096191136" id="-39018">
		<tag k="name" v="Leaibečorru" />
		<tag k="name:se" v="Leaibečorru" />
		<tag k="natural" v="hill" />
		<tag k="place" v="locality" />
		<tag k="ssr:stedsnr" v="478197" />
	</node>
	<node lat="69.50640555843083" lon="20.82476108222263" id="-39021">
		<tag k="name" v="Vilgesbákti" />
		<tag k="name:se" v="Vilgesbákti" />
		<tag k="natural" v="hill" />
		<tag k="place" v="locality" />
		<tag k="ssr:stedsnr" v="478475" />
	</node>
	<node lat="69.37266389334569" lon="21.034541643952174" id="-39023">
		<tag k="name" v="Uhca Goddeluohkká" />
		<tag k="name:se" v="Uhca Goddeluohkká" />
		<tag k="natural" v="slope" />
		<tag k="place" v="locality" />
		<tag k="ssr:stedsnr" v="478433" />
	</node>
	<node lat="69.44881388577504" lon="20.948261093743383" id="-39024">
		<tag k="name" v="Vuovdenjunni" />
		<tag k="name:se" v="Vuovdenjunni" />
		<tag k="natural" v="hill" />
		<tag k="place" v="locality" />
		<tag k="ssr:stedsnr" v="478446" />
	</node>
	<node lat="69.61586944302397" lon="20.57926664019848" id="-39026">
		<tag k="name" v="Juopmugorzi" />
		<tag k="name:se" v="Juopmugorzi" />
		<tag k="natural" v="valley" />
		<tag k="place" v="locality" />
		<tag k="ssr:stedsnr" v="478797" />
	</node>
	<node lat="69.54018889096552" lon="20.56855552755056" id="-39027">
		<tag k="name" v="Guigobákti" />
		<tag k="name:se" v="Guigobákti" />
		<tag k="natural" v="hill" />
		<tag k="place" v="locality" />
		<tag k="ssr:stedsnr" v="478825" />
	</node>
	<node lat="69.44594444163779" lon="20.55760832482414" id="-39030">
		<tag k="name" v="Áitegállu" />
		<tag k="name:se" v="Áitegállu" />
		<tag k="natural" v="hill" />
		<tag k="place" v="locality" />
		<tag k="ssr:stedsnr" v="478925" />
	</node>
	<node lat="69.72648333061899" lon="20.528791635505737" id="-39031">
		<tag k="name" v="Bergan" />
		<tag k="name:no" v="Bergan" />
		<tag k="natural" v="hill" />
		<tag k="place" v="locality" />
		<tag k="ssr:stedsnr" v="478928" />
	</node>
	<node lat="69.48995833398492" lon="20.596797192036153" id="-39033">
		<tag k="name" v="Skárfvággi - Skardalen - Skaarfvankka" />
		<tag k="name:fkv" v="Skaarfvankka" />
		<tag k="name:no" v="Skardalen" />
		<tag k="name:se" v="Skárfvággi" />
		<tag k="natural" v="valley" />
		<tag k="place" v="locality" />
		<tag k="ssr:stedsnr" v="382603" />
	</node>
	<node lat="69.63843333691561" lon="20.464533316552902" id="-39037">
		<tag k="name" v="Russebakken" />
		<tag k="name:no" v="Russebakken" />
		<tag k="natural" v="slope" />
		<tag k="place" v="locality" />
		<tag k="ssr:stedsnr" v="383609" />
	</node>
	<node lat="69.49671388901754" lon="20.828916653335465" id="-39056">
		<tag k="name" v="Jeaggeduohki" />
		<tag k="name:se" v="Jeaggeduohki" />
		<tag k="place" v="locality" />
		<tag k="ssr:stedsnr" v="404303" />
	</node>
	<node lat="69.47799166575108" lon="20.493877752162096" id="-39057">
		<tag k="fixme" v="consider natural=peak for the most distinct mountains in the district" />
		<tag k="name" v="Gáisa" />
		<tag k="name:se" v="Gáisa" />
		<tag k="natural" v="hill" />
		<tag k="place" v="locality" />
		<tag k="ssr:stedsnr" v="408568" />
	</node>
	<node lat="69.52926666614174" lon="20.54082219344939" id="-39058">
		<tag k="name" v="Ravalden" />
		<tag k="name:no" v="Ravalden" />
		<tag k="natural" v="hill" />
		<tag k="place" v="locality" />
		<tag k="ssr:stedsnr" v="417105" />
	</node>
	<node lat="69.51055555602544" lon="20.87489996483451" id="-39060">
		<tag k="name" v="Almmilátnja" />
		<tag k="name:se" v="Almmilátnja" />
		<tag k="place" v="locality" />
		<tag k="ssr:stedsnr" v="417506" />
	</node>
	<node lat="69.47614166666126" lon="20.530713866662047" id="-39061">
		<tag k="name" v="Skuole" />
		<tag k="name:se" v="Skuole" />
		<tag k="place" v="locality" />
		<tag k="ssr:stedsnr" v="417191" />
	</node>
	<node lat="69.41074167258867" lon="20.983999965636805" id="-39063">
		<tag k="name" v="Duovddat" />
		<tag k="name:se" v="Duovddat" />
		<tag k="natural" v="slope" />
		<tag k="place" v="locality" />
		<tag k="ssr:stedsnr" v="417498" />
	</node>
	<node lat="69.50271111489397" lon="20.759258324431144" id="-39064">
		<tag k="name" v="Hánolátnja" />
		<tag k="name:se" v="Hánolátnja" />
		<tag k="place" v="locality" />
		<tag k="ssr:stedsnr" v="417535" />
	</node>
	<node lat="69.48778333162308" lon="20.86166108216453" id="-39065">
		<tag k="name" v="Ribatdearbmi" />
		<tag k="name:se" v="Ribatdearbmi" />
		<tag k="natural" v="slope" />
		<tag k="place" v="locality" />
		<tag k="ssr:stedsnr" v="417537" />
	</node>
	<node lat="69.53886389371856" lon="20.773538865855333" id="-39067">
		<tag k="name" v="Čolperoggi" />
		<tag k="name:se" v="Čolperoggi" />
		<tag k="natural" v="valley" />
		<tag k="place" v="locality" />
		<tag k="ssr:stedsnr" v="417587" />
	</node>
	<node lat="69.51630000334174" lon="20.514674978996887" id="-39068">
		<tag k="name" v="Gáiskevállas" />
		<tag k="name:se" v="Gáiskevállas" />
		<tag k="place" v="locality" />
		<tag k="ssr:stedsnr" v="418111" />
	</node>
	<node lat="69.61897222550897" lon="20.507266662156532" id="-39070">
		<tag k="name" v="Eiragárdi" />
		<tag k="name:se" v="Eiragárdi" />
		<tag k="natural" v="slope" />
		<tag k="place" v="locality" />
		<tag k="ssr:stedsnr" v="418007" />
	</node>
	<node lat="69.47511389444436" lon="20.941936077315066" id="-39072">
		<tag k="name" v="Riddjeduohkin" />
		<tag k="name:se" v="Riddjeduohkin" />
		<tag k="natural" v="hill" />
		<tag k="place" v="locality" />
		<tag k="ssr:stedsnr" v="418236" />
	</node>
	<node lat="69.47685555805243" lon="20.952180541760775" id="-39073">
		<tag k="name" v="Hoaŋgabákti" />
		<tag k="name:se" v="Hoaŋgabákti" />
		<tag k="natural" v="hill" />
		<tag k="place" v="locality" />
		<tag k="ssr:stedsnr" v="418238" />
	</node>
	<node lat="69.46418611397152" lon="20.89519719542828" id="-39074">
		<tag k="name" v="Arvegurra" />
		<tag k="name:se" v="Arvegurra" />
		<tag k="natural" v="valley" />
		<tag k="place" v="locality" />
		<tag k="ssr:stedsnr" v="418339" />
	</node>
	<node lat="69.49553333353093" lon="20.798119410390566" id="-39075">
		<tag k="loc_name:no" v="Kvesmesteinen" />
		<tag k="name" v="Vieksageađgi" />
		<tag k="name:se" v="Vieksageađgi" />
		<tag k="natural" v="hill" />
		<tag k="place" v="locality" />
		<tag k="ssr:stedsnr" v="418692" />
	</node>
	<node lat="69.70646944935147" lon="20.53013887035406" id="-39082">
		<tag k="name" v="Kråa" />
		<tag k="name:no" v="Kråa" />
		<tag k="natural" v="slope" />
		<tag k="place" v="locality" />
		<tag k="ssr:stedsnr" v="418991" />
	</node>
	<node lat="69.5303500026635" lon="20.712208313556616" id="-39083">
		<tag k="name" v="Skáhpebákti" />
		<tag k="name:se" v="Skáhpebákti" />
		<tag k="natural" v="hill" />
		<tag k="place" v="locality" />
		<tag k="ssr:stedsnr" v="424109" />
	</node>
	<node lat="69.52675277742301" lon="20.70908887114912" id="-39084">
		<tag k="name" v="Svarffubákti - Svarfobergan" />
		<tag k="name:no" v="Svarfobergan" />
		<tag k="name:se" v="Svarffubákti" />
		<tag k="natural" v="hill" />
		<tag k="place" v="locality" />
		<tag k="ssr:stedsnr" v="424111" />
	</node>
	<node lat="69.49051388891864" lon="20.340424970747524" id="-39093">
		<tag k="name" v="Klakkeberget" />
		<tag k="name:no" v="Klakkeberget" />
		<tag k="natural" v="hill" />
		<tag k="place" v="locality" />
		<tag k="ssr:stedsnr" v="443287" />
	</node>
	<node lat="69.3665277775061" lon="21.157694423889268" id="-39095">
		<tag k="fixme" v="consider natural=peak for the most distinct mountains in the district" />
		<tag k="name" v="Ruvdnaruvža" />
		<tag k="name:se" v="Ruvdnaruvža" />
		<tag k="natural" v="hill" />
		<tag k="place" v="locality" />
		<tag k="ssr:stedsnr" v="443605" />
	</node>
	<node lat="69.45621945007494" lon="20.677133304851235" id="-39097">
		<tag k="fixme" v="consider natural=peak for the most distinct mountains in the district" />
		<tag k="name" v="Skáiddevárri - Tverrfjellet" />
		<tag k="name:no" v="Tverrfjellet" />
		<tag k="name:se" v="Skáiddevárri" />
		<tag k="natural" v="hill" />
		<tag k="old_name:se" v="Skáidivárri" />
		<tag k="place" v="locality" />
		<tag k="ssr:stedsnr" v="444579" />
	</node>
	<node lat="69.68706389207964" lon="20.554436100901302" id="-39099">
		<tag k="fixme" v="consider natural=peak for the most distinct mountains in the district" />
		<tag k="name" v="Stálunjunni" />
		<tag k="name:se" v="Stálunjunni" />
		<tag k="natural" v="hill" />
		<tag k="place" v="locality" />
		<tag k="ssr:stedsnr" v="444602" />
	</node>
	<node lat="69.51355832990765" lon="20.731511094812365" id="-39103">
		<tag k="name" v="Muorjeorrit" />
		<tag k="name:se" v="Muorjeorrit" />
		<tag k="natural" v="hill" />
		<tag k="place" v="locality" />
		<tag k="ssr:stedsnr" v="477402" />
	</node>
	<node lat="69.53296111305603" lon="20.510811086351566" id="-39104">
		<tag k="name" v="Hánssabákti" />
		<tag k="name:se" v="Hánssabákti" />
		<tag k="natural" v="hill" />
		<tag k="place" v="locality" />
		<tag k="ssr:stedsnr" v="478119" />
	</node>
	<node lat="69.49940555740945" lon="20.511911105835015" id="-39106">
		<tag k="name" v="Vuovdegieddi" />
		<tag k="name:se" v="Vuovdegieddi" />
		<tag k="place" v="locality" />
		<tag k="ssr:stedsnr" v="478057" />
	</node>
	<node lat="69.45625277919841" lon="20.93726385787604" id="-39110">
		<tag k="name" v="Ealuoadat" />
		<tag k="name:se" v="Ealuoadat" />
		<tag k="natural" v="slope" />
		<tag k="place" v="locality" />
		<tag k="ssr:stedsnr" v="478356" />
	</node>
	<node lat="69.47112500165882" lon="20.94945829880769" id="-39112">
		<tag k="name" v="Nuorejohgorsa" />
		<tag k="name:se" v="Nuorejohgorsa" />
		<tag k="natural" v="valley" />
		<tag k="place" v="locality" />
		<tag k="ssr:stedsnr" v="478370" />
	</node>
	<node lat="69.47426666626491" lon="20.883008303340354" id="-39113">
		<tag k="name" v="Čunomielli" />
		<tag k="name:se" v="Čunomielli" />
		<tag k="natural" v="slope" />
		<tag k="place" v="locality" />
		<tag k="ssr:stedsnr" v="478257" />
	</node>
	<node lat="69.39355277547193" lon="20.988391647582674" id="-39114">
		<tag k="name" v="Unna Goddegorsa" />
		<tag k="name:se" v="Unna Goddegorsa" />
		<tag k="natural" v="valley" />
		<tag k="place" v="locality" />
		<tag k="ssr:stedsnr" v="478468" />
	</node>
	<node lat="69.53944444842364" lon="20.691583311771236" id="-39117">
		<tag k="name" v="Juopmoriidi" />
		<tag k="name:se" v="Juopmoriidi" />
		<tag k="natural" v="slope" />
		<tag k="place" v="locality" />
		<tag k="ssr:stedsnr" v="478820" />
	</node>
	<node lat="69.53886111101721" lon="20.59462497903852" id="-39118">
		<tag k="name" v="Lovttesgeađggigohpi" />
		<tag k="name:se" v="Lovttesgeađggigohpi" />
		<tag k="natural" v="valley" />
		<tag k="place" v="locality" />
		<tag k="ssr:stedsnr" v="478822" />
	</node>
	<node lat="69.50408333097892" lon="20.59845553945799" id="-39119">
		<tag k="name" v="Gálogiettriiddit" />
		<tag k="name:se" v="Gálogiettriiddit" />
		<tag k="natural" v="slope" />
		<tag k="place" v="locality" />
		<tag k="ssr:stedsnr" v="478868" />
	</node>
	<node lat="69.58505278146731" lon="20.586424989782625" id="-39120">
		<tag k="name" v="Oaffir" />
		<tag k="name:se" v="Oaffir" />
		<tag k="natural" v="hill" />
		<tag k="place" v="locality" />
		<tag k="ssr:stedsnr" v="478708" />
	</node>
	<node lat="69.53280555787265" lon="20.738008303943392" id="-39129">
		<tag k="name" v="Rihkošlatnjabákti" />
		<tag k="name:se" v="Rihkošlatnjabákti" />
		<tag k="natural" v="hill" />
		<tag k="place" v="locality" />
		<tag k="ssr:stedsnr" v="484958" />
	</node>
	<node lat="69.4584000026546" lon="20.389002750170853" id="-39132">
		<tag k="fixme" v="consider natural=peak for the most distinct mountains in the district" />
		<tag k="name" v="Tverrfjellet" />
		<tag k="name:no" v="Tverrfjellet" />
		<tag k="natural" v="hill" />
		<tag k="place" v="locality" />
		<tag k="ssr:stedsnr" v="504220" />
	</node>
	<node lat="69.47447499725976" lon="20.41705830628476" id="-39133">
		<tag k="fixme" v="consider natural=peak for the most distinct mountains in the district" />
		<tag k="name" v="Revdalsfjellet - Revtsanvaarat" />
		<tag k="name:fkv" v="Revtsanvaarat" />
		<tag k="name:no" v="Revdalsfjellet" />
		<tag k="natural" v="hill" />
		<tag k="place" v="locality" />
		<tag k="ssr:stedsnr" v="504268" />
	</node>
	<node lat="69.3805194430167" lon="20.825294418930618" id="-39135">
		<tag k="fixme" v="consider natural=peak for the most distinct mountains in the district" />
		<tag k="name" v="Viessogielas" />
		<tag k="name:se" v="Viessogielas" />
		<tag k="natural" v="hill" />
		<tag k="place" v="locality" />
		<tag k="ssr:stedsnr" v="504508" />
	</node>
	<node lat="69.47577778019978" lon="20.891894418550578" id="-39138">
		<tag k="name" v="Máhtečorru" />
		<tag k="name:se" v="Máhtečorru" />
		<tag k="natural" v="hill" />
		<tag k="place" v="locality" />
		<tag k="ssr:stedsnr" v="507160" />
	</node>
	<node lat="69.53269999757255" lon="20.59745832088624" id="-39141">
		<tag k="name" v="Jierjelátnja" />
		<tag k="name:se" v="Jierjelátnja" />
		<tag k="place" v="locality" />
		<tag k="ssr:stedsnr" v="521183" />
	</node>
	<node lat="69.51338055905758" lon="20.58509443243382" id="-39145">
		<tag k="fixme" v="consider natural=peak for the most distinct mountains in the district" />
		<tag k="name" v="Stuoračohkka - Skarfjellet" />
		<tag k="name:no" v="Skarfjellet" />
		<tag k="name:se" v="Stuoračohkka" />
		<tag k="natural" v="hill" />
		<tag k="place" v="locality" />
		<tag k="ssr:stedsnr" v="686573" />
	</node>
	<node lat="69.72790000189508" lon="20.577249976952" id="-39148">
		<tag k="fixme" v="consider natural=peak for the most distinct mountains in the district" />
		<tag k="name" v="Hammarvikfjellet" />
		<tag k="name:no" v="Hammarvikfjellet" />
		<tag k="natural" v="hill" />
		<tag k="place" v="locality" />
		<tag k="ssr:stedsnr" v="686618" />
	</node>
	<node lat="69.48469444541202" lon="20.82598609739048" id="-39155">
		<tag k="name" v="Ruovvdagasbákti" />
		<tag k="name:se" v="Ruovvdagasbákti" />
		<tag k="natural" v="hill" />
		<tag k="place" v="locality" />
		<tag k="ssr:stedsnr" v="538526" />
	</node>
	<node lat="69.6243111097429" lon="20.511622215574825" id="-39156">
		<tag k="name" v="Čuohpahat" />
		<tag k="name:se" v="Čuohpahat" />
		<tag k="natural" v="hill" />
		<tag k="place" v="locality" />
		<tag k="ssr:stedsnr" v="539008" />
	</node>
	<node lat="69.47145833414417" lon="20.925363865512935" id="-39157">
		<tag k="name" v="Kálkabákti" />
		<tag k="name:se" v="Kálkabákti" />
		<tag k="natural" v="hill" />
		<tag k="place" v="locality" />
		<tag k="ssr:stedsnr" v="539215" />
	</node>
	<node lat="69.47660000332951" lon="20.91703885586199" id="-39158">
		<tag k="name" v="Gilačorru" />
		<tag k="name:se" v="Gilačorru" />
		<tag k="natural" v="hill" />
		<tag k="place" v="locality" />
		<tag k="ssr:stedsnr" v="539219" />
	</node>
	<node lat="69.48909166434369" lon="20.897452744771254" id="-39159">
		<tag k="name" v="Idnečorru" />
		<tag k="name:se" v="Idnečorru" />
		<tag k="natural" v="hill" />
		<tag k="place" v="locality" />
		<tag k="ssr:stedsnr" v="539236" />
	</node>
	<node lat="69.51086388697162" lon="20.53358608917032" id="-39160">
		<tag k="name" v="Lojesduolban" />
		<tag k="name:se" v="Lojesduolban" />
		<tag k="place" v="locality" />
		<tag k="ssr:stedsnr" v="539104" />
	</node>
	<node lat="69.45073611237697" lon="20.95974440902411" id="-39161">
		<tag k="fixme" v="consider natural=peak for the most distinct mountains in the district" />
		<tag k="name" v="Vuovdenjunjiehtanas" />
		<tag k="name:se" v="Vuovdenjunjiehtanas" />
		<tag k="natural" v="hill" />
		<tag k="place" v="locality" />
		<tag k="ssr:stedsnr" v="539404" />
	</node>
	<node lat="69.73019722548847" lon="20.54329719578644" id="-39163">
		<tag k="name" v="Snebakken" />
		<tag k="name:no" v="Snebakken" />
		<tag k="natural" v="slope" />
		<tag k="place" v="locality" />
		<tag k="ssr:stedsnr" v="539916" />
	</node>
	<node lat="69.7498055566842" lon="20.508183326562733" id="-39165">
		<tag k="name" v="Mosletta" />
		<tag k="name:no" v="Mosletta" />
		<tag k="place" v="locality" />
		<tag k="ssr:stedsnr" v="539871" />
	</node>
	<node lat="69.60647499978764" lon="20.782724970892673" id="-39184">
		<tag k="name" v="Báhkkavággi" />
		<tag k="name:se" v="Báhkkavággi" />
		<tag k="natural" v="valley" />
		<tag k="place" v="locality" />
		<tag k="ssr:stedsnr" v="687665" />
	</node>
	<node lat="69.38330833177406" lon="20.59970275983734" id="-39187">
		<tag k="fixme" v="consider natural=peak for the most distinct mountains in the district" />
		<tag k="name" v="Uhcanjárggaš" />
		<tag k="name:se" v="Uhcanjárggaš" />
		<tag k="natural" v="hill" />
		<tag k="place" v="locality" />
		<tag k="ssr:stedsnr" v="564518" />
	</node>
	<node lat="69.51427222052455" lon="20.356238877895485" id="-39196">
		<tag k="name" v="Buvollan" />
		<tag k="name:no" v="Buvollan" />
		<tag k="natural" v="slope" />
		<tag k="place" v="locality" />
		<tag k="ssr:stedsnr" v="572064" />
	</node>
	<node lat="69.52746111554316" lon="20.60887774997166" id="-39198">
		<tag k="name" v="Seahtolovttvuolli" />
		<tag k="name:se" v="Seahtolovttvuolli" />
		<tag k="natural" v="hill" />
		<tag k="place" v="locality" />
		<tag k="ssr:stedsnr" v="582204" />
	</node>
	<node lat="69.52655000336011" lon="20.753072208790073" id="-39199">
		<tag k="name" v="Gáiccabákti" />
		<tag k="name:se" v="Gáiccabákti" />
		<tag k="natural" v="hill" />
		<tag k="place" v="locality" />
		<tag k="ssr:stedsnr" v="598411" />
	</node>
	<node lat="69.5350388891233" lon="20.75076942341769" id="-39201">
		<tag k="name" v="Soahkečohkka" />
		<tag k="name:se" v="Soahkečohkka" />
		<tag k="natural" v="hill" />
		<tag k="place" v="locality" />
		<tag k="ssr:stedsnr" v="598516" />
	</node>
	<node lat="69.53946666252074" lon="20.76868887234405" id="-39202">
		<tag k="loc_name:se" v="Uhcačolppaš" />
		<tag k="name" v="Čolpi" />
		<tag k="name:se" v="Čolpi" />
		<tag k="natural" v="hill" />
		<tag k="place" v="locality" />
		<tag k="ssr:stedsnr" v="598519" />
	</node>
	<node lat="69.61992500290435" lon="20.510949992568836" id="-39205">
		<tag k="name" v="Evačorru" />
		<tag k="name:se" v="Evačorru" />
		<tag k="natural" v="hill" />
		<tag k="place" v="locality" />
		<tag k="ssr:stedsnr" v="599005" />
	</node>
	<node lat="69.6164944452373" lon="20.545786080514013" id="-39206">
		<tag k="name" v="Gullberget" />
		<tag k="name:no" v="Gullberget" />
		<tag k="natural" v="hill" />
		<tag k="place" v="locality" />
		<tag k="ssr:stedsnr" v="599010" />
	</node>
	<node lat="69.4960555544766" lon="20.367491641328403" id="-39210">
		<tag k="name" v="Snoitilia" />
		<tag k="name:no" v="Snoitilia" />
		<tag k="natural" v="slope" />
		<tag k="place" v="locality" />
		<tag k="ssr:stedsnr" v="599221" />
	</node>
	<node lat="69.45573888633893" lon="20.530927752195215" id="-39213">
		<tag k="name" v="Biltariidi" />
		<tag k="name:se" v="Biltariidi" />
		<tag k="natural" v="slope" />
		<tag k="place" v="locality" />
		<tag k="ssr:stedsnr" v="599162" />
	</node>
	<node lat="69.56012500002262" lon="20.513705537745256" id="-39214">
		<tag k="name" v="Jávvagieddi" />
		<tag k="name:se" v="Jávvagieddi" />
		<tag k="place" v="locality" />
		<tag k="ssr:stedsnr" v="599200" />
	</node>
	<node lat="69.45938889144384" lon="20.542666644085283" id="-39215">
		<tag k="name" v="Cuoppogieddi" />
		<tag k="name:se" v="Cuoppogieddi" />
		<tag k="place" v="locality" />
		<tag k="ssr:stedsnr" v="599201" />
	</node>
	<node lat="69.5045749978384" lon="20.764277758554776" id="-39216">
		<tag k="name" v="Bahábákti" />
		<tag k="name:se" v="Bahábákti" />
		<tag k="natural" v="hill" />
		<tag k="place" v="locality" />
		<tag k="ssr:stedsnr" v="599501" />
	</node>
	<node lat="69.67676944790591" lon="20.520322200236325" id="-39218">
		<tag k="name" v="Moen" />
		<tag k="name:no" v="Moen" />
		<tag k="place" v="locality" />
		<tag k="ssr:stedsnr" v="599900" />
	</node>
	<node lat="69.46858055521145" lon="20.959583295705702" id="-39219">
		<tag k="fixme" v="consider natural=peak for the most distinct mountains in the district" />
		<tag k="name" v="Orda" />
		<tag k="name:se" v="Orda" />
		<tag k="natural" v="hill" />
		<tag k="place" v="locality" />
		<tag k="ssr:stedsnr" v="600267" />
	</node>
	<node lat="69.50969444406229" lon="20.624997207677" id="-39220">
		<tag k="name" v="Laktán" />
		<tag k="name:se" v="Laktán" />
		<tag k="natural" v="slope" />
		<tag k="place" v="locality" />
		<tag k="ssr:stedsnr" v="600849" />
	</node>
	<node lat="69.508897221778" lon="20.63417497172467" id="-39221">
		<tag k="name" v="Fjellvåkberget" />
		<tag k="name:no" v="Fjellvåkberget" />
		<tag k="natural" v="hill" />
		<tag k="place" v="locality" />
		<tag k="ssr:stedsnr" v="600850" />
	</node>
	<node lat="69.27341944434758" lon="20.922808316346117" id="-39235">
		<tag k="name" v="Smuolkovággi" />
		<tag k="name:se" v="Smuolkovággi" />
		<tag k="natural" v="valley" />
		<tag k="place" v="locality" />
		<tag k="ssr:stedsnr" v="624705" />
	</node>
	<node lat="69.52505555929316" lon="20.595783314781993" id="-39239">
		<tag k="name" v="Sáttofierran" />
		<tag k="name:se" v="Sáttofierran" />
		<tag k="natural" v="slope" />
		<tag k="place" v="locality" />
		<tag k="ssr:stedsnr" v="703284" />
	</node>
	<node lat="69.49340833604217" lon="20.35949443195035" id="-39241">
		<tag k="name" v="Stormyrberget" />
		<tag k="name:no" v="Stormyrberget" />
		<tag k="natural" v="hill" />
		<tag k="place" v="locality" />
		<tag k="ssr:stedsnr" v="703287" />
	</node>
	<node lat="69.49433611460805" lon="20.574952770261163" id="-39248">
		<tag k="fixme" v="consider natural=peak for the most distinct mountains in the district" />
		<tag k="name" v="Stuoračohkka - Storhaugen" />
		<tag k="name:no" v="Storhaugen" />
		<tag k="name:se" v="Stuoračohkka" />
		<tag k="natural" v="hill" />
		<tag k="place" v="locality" />
		<tag k="ssr:stedsnr" v="652809" />
	</node>
</osm>
