<?xml version="1.0" encoding="UTF-8"?>
<osm version="0.6" generator="osmapis">
	<node lat="69.52000555869051" lon="20.54506664214687" id="-42544">
		<tag k="name" v="Hánnosiida" />
		<tag k="name:se" v="Hánnosiida" />
		<tag k="place" v="locality" />
		<tag k="ssr:stedsnr" v="236113" />
	</node>
	<node lat="69.6705392002228" lon="20.49537446606321" id="-42608">
		<tag k="name" v="Siskkit Dážavággi - Indre Nordmannvik" />
		<tag k="name:no" v="Indre Nordmannvik" />
		<tag k="name:se" v="Siskkit Dážavággi" />
		<tag k="place" v="hamlet" />
		<tag k="ssr:stedsnr" v="242315" />
	</node>
	<node lat="69.61207499558112" lon="20.525308324452794" id="-42612">
		<tag k="name" v="Ytsteby" />
		<tag k="name:no" v="Ytsteby" />
		<tag k="place" v="farm" />
		<tag k="ssr:stedsnr" v="242635" />
	</node>
	<node lat="69.60547221912053" lon="20.529758324729773" id="-42614">
		<tag k="name" v="Olderdalen" />
		<tag k="name:no" v="Olderdalen" />
		<tag k="place" v="farm" />
		<tag k="ssr:stedsnr" v="242644" />
	</node>
	<node lat="69.54775555581654" lon="20.528338873610533" id="-42622">
		<tag k="name" v="Øvergård" />
		<tag k="name:no" v="Øvergård" />
		<tag k="place" v="farm" />
		<tag k="ssr:stedsnr" v="79607" />
	</node>
	<node lat="69.53677500431833" lon="20.548213879272346" id="-42625">
		<tag k="name" v="Moen" />
		<tag k="name:no" v="Moen" />
		<tag k="place" v="farm" />
		<tag k="ssr:stedsnr" v="79598" />
	</node>
	<node lat="69.74380833755828" lon="20.498411090680662" id="-42628">
		<tag k="name" v="Lyngslett" />
		<tag k="name:no" v="Lyngslett" />
		<tag k="place" v="farm" />
		<tag k="ssr:stedsnr" v="80604" />
	</node>
	<node lat="69.74657499899067" lon="20.495124986626998" id="-42629">
		<tag k="name" v="Lund" />
		<tag k="name:no" v="Lund" />
		<tag k="place" v="farm" />
		<tag k="ssr:stedsnr" v="80606" />
	</node>
	<node lat="69.73836300608785" lon="20.517917317111348" id="-42631">
		<tag k="name" v="Ytre Hammarvik" />
		<tag k="name:no" v="Ytre Hammarvik" />
		<tag k="place" v="farm" />
		<tag k="ssr:stedsnr" v="86295" />
	</node>
	<node lat="69.48314444270008" lon="20.518674992749773" id="-42635">
		<tag k="name" v="Rávra" />
		<tag k="name:se" v="Rávra" />
		<tag k="old_name:no" v="Sommerlien" />
		<tag k="place" v="farm" />
		<tag k="ssr:stedsnr" v="100963" />
	</node>
	<node lat="69.52900474355862" lon="20.673728869417783" id="-42661">
		<tag k="fixme" v="consider place=hamlet" />
		<tag k="name" v="Áibanášši - Langnes" />
		<tag k="name:no" v="Langnes" />
		<tag k="name:se" v="Áibanášši" />
		<tag k="place" v="farm" />
		<tag k="ssr:stedsnr" v="139640" />
	</node>
	<node lat="69.5250055545601" lon="20.75416107951387" id="-42662">
		<tag k="name" v="Berg" />
		<tag k="name:no" v="Berg" />
		<tag k="place" v="farm" />
		<tag k="ssr:stedsnr" v="139643" />
	</node>
	<node lat="69.5241635574986" lon="20.692972923160486" id="-42667">
		<tag k="name" v="Langnesbukt" />
		<tag k="name:no" v="Langnesbukt" />
		<tag k="place" v="farm" />
		<tag k="ssr:stedsnr" v="140636" />
	</node>
	<node lat="69.38743610782694" lon="20.567361089746903" id="-42694">
		<tag k="name" v="Rissegoahti" />
		<tag k="name:se" v="Rissegoahti" />
		<tag k="place" v="locality" />
		<tag k="ssr:stedsnr" v="175913" />
	</node>
	<node lat="69.74395833369343" lon="20.51460831246459" id="-42699">
		<tag k="name" v="Bjørkli" />
		<tag k="name:no" v="Bjørkli" />
		<tag k="place" v="farm" />
		<tag k="ssr:stedsnr" v="261593" />
	</node>
	<node lat="69.54193055843358" lon="20.55304999341038" id="-42707">
		<tag k="name" v="Leirvollen" />
		<tag k="name:no" v="Leirvollen" />
		<tag k="place" v="farm" />
		<tag k="ssr:stedsnr" v="261626" />
	</node>
	<node lat="69.59170806517372" lon="20.56322926766561" id="-42709">
		<tag k="name" v="Åsli" />
		<tag k="name:no" v="Åsli" />
		<tag k="place" v="farm" />
		<tag k="ssr:stedsnr" v="261658" />
	</node>
	<node lat="69.51725000286147" lon="20.634688883139614" id="-42711">
		<tag k="name" v="Nymoen" />
		<tag k="name:no" v="Nymoen" />
		<tag k="place" v="farm" />
		<tag k="ssr:stedsnr" v="261632" />
	</node>
	<node lat="69.5258861150681" lon="20.546999986945682" id="-42712">
		<tag k="name" v="Lia" />
		<tag k="name:no" v="Lia" />
		<tag k="place" v="farm" />
		<tag k="ssr:stedsnr" v="261638" />
	</node>
	<node lat="69.6316888917729" lon="20.469883307060112" id="-42719">
		<tag k="name" v="Ytsteby" />
		<tag k="name:no" v="Ytsteby" />
		<tag k="place" v="farm" />
		<tag k="ssr:stedsnr" v="181665" />
	</node>
	<node lat="69.67048056000303" lon="20.494394418900267" id="-42723">
		<tag k="name" v="Nordmannvik" />
		<tag k="name:no" v="Nordmannvik" />
		<tag k="place" v="farm" />
		<tag k="ssr:stedsnr" v="181754" />
	</node>
	<node lat="69.57768888594545" lon="20.40219164585371" id="-42727">
		<tag k="name" v="Bukta" />
		<tag k="name:no" v="Bukta" />
		<tag k="place" v="farm" />
		<tag k="ssr:stedsnr" v="261963" />
	</node>
	<node lat="69.518361107597" lon="20.630441649442353" id="-42731">
		<tag k="fixme" v="consider place=hamlet" />
		<tag k="name" v="Skárfvággi - Skardalen - Skaarfvankka" />
		<tag k="name:fkv" v="Skaarfvankka" />
		<tag k="name:no" v="Skardalen" />
		<tag k="name:se" v="Skárfvággi" />
		<tag k="place" v="village" />
		<tag k="ssr:stedsnr" v="265701" />
	</node>
	<node lat="69.71886662019261" lon="20.525304580797094" id="-42734">
		<tag k="loc_name:se" v="Lađđonjárga" />
		<tag k="name" v="Engenes" />
		<tag k="name:no" v="Engenes" />
		<tag k="place" v="hamlet" />
		<tag k="ssr:stedsnr" v="269021" />
	</node>
	<node lat="69.52602703263082" lon="20.527526760047806" id="-42736">
		<tag k="alt_name:no" v="Goržži mánáidgárdi" />
		<tag k="amenity" v="kindergarten" />
		<tag k="name" v="Fossen barnehage" />
		<tag k="name:no" v="Fossen barnehage" />
		<tag k="ssr:stedsnr" v="222307" />
	</node>
	<node lat="69.52902315609781" lon="20.37620305505198" id="-42762">
		<tag k="name" v="Nordnes" />
		<tag k="name:no" v="Nordnes" />
		<tag k="old_name:no" v="Indre Nordnes" />
		<tag k="place" v="farm" />
		<tag k="ssr:stedsnr" v="451835" />
	</node>
	<node lat="69.597352775081" lon="20.55104997346338" id="-42763">
		<tag k="name" v="Soleng" />
		<tag k="name:no" v="Soleng" />
		<tag k="place" v="hamlet" />
		<tag k="ssr:stedsnr" v="454797" />
	</node>
	<node lat="69.46844999943953" lon="20.924397189027996" id="-42766">
		<tag k="name" v="Lauvli" />
		<tag k="name:no" v="Lauvli" />
		<tag k="place" v="farm" />
		<tag k="ssr:stedsnr" v="261603" />
	</node>
	<node lat="69.50355000353196" lon="20.5364305457688" id="-42768">
		<tag k="name" v="Haglund" />
		<tag k="name:no" v="Haglund" />
		<tag k="place" v="farm" />
		<tag k="ssr:stedsnr" v="261687" />
	</node>
	<node lat="69.4612657890753" lon="20.93613600293157" id="-42769">
		<tag k="fixme" v="consider place=hamlet" />
		<tag k="name" v="Vállas - Kåfjorddalen" />
		<tag k="name:no" v="Kåfjorddalen" />
		<tag k="name:se" v="Vállas" />
		<tag k="place" v="village" />
		<tag k="ssr:stedsnr" v="264181" />
	</node>
	<node lat="69.61349166878551" lon="20.509491640685415" id="-42800">
		<tag k="name" v="Ytsteby" />
		<tag k="name:no" v="Ytsteby" />
		<tag k="place" v="farm" />
		<tag k="ssr:stedsnr" v="303668" />
	</node>
	<node lat="69.53606388914736" lon="20.652188880500255" id="-42807">
		<tag k="loc_name:se" v="Sámmolsiida" />
		<tag k="name" v="Brattland" />
		<tag k="name:no" v="Brattland" />
		<tag k="place" v="farm" />
		<tag k="ssr:stedsnr" v="322637" />
	</node>
	<node lat="69.52449520240094" lon="20.74979920249743" id="-42810">
		<tag k="fixme" v="consider place=hamlet" />
		<tag k="name" v="Oksnes" />
		<tag k="name:no" v="Oksnes" />
		<tag k="place" v="farm" />
		<tag k="ssr:stedsnr" v="330820" />
	</node>
	<node lat="69.40315278111082" lon="20.562536102491272" id="-42829">
		<tag k="name" v="Háldegoahti" />
		<tag k="name:se" v="Háldegoahti" />
		<tag k="place" v="locality" />
		<tag k="ssr:stedsnr" v="357902" />
	</node>
	<node lat="69.62595277605517" lon="20.485555547144955" id="-42835">
		<tag k="name" v="Ytsteby" />
		<tag k="name:no" v="Ytsteby" />
		<tag k="place" v="farm" />
		<tag k="ssr:stedsnr" v="363623" />
	</node>
	<node lat="69.60321944875285" lon="20.539261102469275" id="-42836">
		<tag k="name" v="Olderdalen" />
		<tag k="name:no" v="Olderdalen" />
		<tag k="place" v="farm" />
		<tag k="ssr:stedsnr" v="363637" />
	</node>
	<node lat="69.60433333239158" lon="20.544452764911668" id="-42837">
		<tag k="name" v="Olderdalen" />
		<tag k="name:no" v="Olderdalen" />
		<tag k="place" v="farm" />
		<tag k="ssr:stedsnr" v="363638" />
	</node>
	<node lat="69.48107499660837" lon="20.85802220396054" id="-42859">
		<tag k="name" v="Holmeslett" />
		<tag k="name:no" v="Holmeslett" />
		<tag k="place" v="farm" />
		<tag k="ssr:stedsnr" v="382605" />
	</node>
	<node lat="69.65120277769766" lon="20.62723887907522" id="-42861">
		<tag k="name" v="Gaukneset" />
		<tag k="name:no" v="Gaukneset" />
		<tag k="place" v="isolated_dwelling" />
		<tag k="ssr:stedsnr" v="383603" />
	</node>
	<node lat="69.49487562727633" lon="20.50137226551158" id="-42864">
		<tag k="fixme" v="consider place=hamlet" />
		<tag k="name" v="Áhkkavággi - Kjerringdalen" />
		<tag k="name:no" v="Kjerringdalen" />
		<tag k="name:se" v="Áhkkavággi" />
		<tag k="place" v="farm" />
		<tag k="ssr:stedsnr" v="386205" />
	</node>
	<node lat="69.52456111471852" lon="20.76344164270409" id="-42875">
		<tag k="amenity" v="school" />
		<tag k="name" v="Ruollaluovtta skovla - Trollvik skole" />
		<tag k="name:no" v="Trollvik skole" />
		<tag k="name:se" v="Ruollaluovtta skovla" />
		<tag k="ssr:stedsnr" v="484880" />
	</node>
	<node lat="69.49508333008207" lon="20.835866641523733" id="-42879">
		<tag k="amenity" v="kindergarten" />
		<tag k="name" v="Biertavári mánáidgárdi - Birtavarre barnehage - Pirttavaaran lastentaras" />
		<tag k="name:fkv" v="Pirttavaaran lastentaras" />
		<tag k="name:no" v="Birtavarre barnehage" />
		<tag k="name:se" v="Biertavári mánáidgárdi" />
		<tag k="ssr:stedsnr" v="485251" />
	</node>
	<node lat="69.51795833118322" lon="20.630724974707643" id="-42880">
		<tag k="name" v="Skardalen" />
		<tag k="name:no" v="Skardalen" />
		<tag k="place" v="farm" />
		<tag k="ssr:stedsnr" v="485579" />
	</node>
	<node lat="69.48886667055949" lon="20.846691648340425" id="-42891">
		<tag k="name" v="Stornes" />
		<tag k="name:no" v="Stornes" />
		<tag k="place" v="hamlet" />
		<tag k="ssr:stedsnr" v="417538" />
	</node>
	<node lat="69.6047722239089" lon="20.535974969276726" id="-42911">
		<tag k="amenity" v="school" />
		<tag k="name" v="Dálusvákki skovla - Olderdalen skole - Talusvankan koulu" />
		<tag k="name:fkv" v="Talusvankan koulu" />
		<tag k="name:no" v="Olderdalen skole" />
		<tag k="name:se" v="Dálusvákki skovla" />
		<tag k="ssr:stedsnr" v="424317" />
	</node>
	<node lat="69.75364166410354" lon="20.493166646370447" id="-42913">
		<tag k="name" v="Djupvik" />
		<tag k="name:no" v="Djupvik" />
		<tag k="old_name:no" v="Øvergård" />
		<tag k="place" v="farm" />
		<tag k="ssr:stedsnr" v="424648" />
	</node>
	<node lat="69.46095943310772" lon="20.935377315571078" id="-42923">
		<tag k="name" v="Seljeli" />
		<tag k="name:no" v="Seljeli" />
		<tag k="place" v="farm" />
		<tag k="ssr:stedsnr" v="444580" />
	</node>
	<node lat="69.74876389306847" lon="20.498649980663576" id="-42925">
		<tag k="fixme" v="consider place=hamlet" />
		<tag k="name" v="Čietnjalluokta - Djupvik - Siennalahti" />
		<tag k="name:fkv" v="Siennalahti" />
		<tag k="name:no" v="Djupvik" />
		<tag k="name:se" v="Čietnjalluokta" />
		<tag k="place" v="village" />
		<tag k="ssr:stedsnr" v="444930" />
	</node>
	<node lat="69.49388611032651" lon="20.840958321754844" id="-42926">
		<tag k="loc_name:se" v="Reatkáčorru" />
		<tag k="name" v="Einebakken" />
		<tag k="name:no" v="Einebakken" />
		<tag k="place" v="farm" />
		<tag k="ssr:stedsnr" v="447171" />
	</node>
	<node lat="69.52539999750542" lon="20.686124989731425" id="-42941">
		<tag k="name" v="Langnes" />
		<tag k="name:no" v="Langnes" />
		<tag k="place" v="farm" />
		<tag k="ssr:stedsnr" v="478819" />
	</node>
	<node lat="69.59086782896662" lon="20.565884150246536" id="-42946">
		<tag k="alt_name:no" v="Storslett" />
		<tag k="fixme" v="consider place=hamlet" />
		<tag k="name" v="Storsletta" />
		<tag k="name:no" v="Storsletta" />
		<tag k="place" v="farm" />
		<tag k="ssr:stedsnr" v="478710" />
	</node>
	<node lat="69.48954444493599" lon="20.526180527084687" id="-42961">
		<tag k="name" v="Dallund" />
		<tag k="name:no" v="Dallund" />
		<tag k="place" v="farm" />
		<tag k="ssr:stedsnr" v="504570" />
	</node>
	<node lat="69.49526944584035" lon="20.528416651656677" id="-42971">
		<tag k="name" v="Solberg" />
		<tag k="name:no" v="Solberg" />
		<tag k="place" v="farm" />
		<tag k="ssr:stedsnr" v="686574" />
	</node>
	<node lat="69.66647500257423" lon="20.478661096007603" id="-42972">
		<tag k="name" v="Olderen" />
		<tag k="name:no" v="Olderen" />
		<tag k="place" v="farm" />
		<tag k="ssr:stedsnr" v="686584" />
	</node>
	<node lat="69.56110833384842" lon="20.59899998625564" id="-42975">
		<tag k="name" v="Strand" />
		<tag k="name:no" v="Strand" />
		<tag k="place" v="farm" />
		<tag k="ssr:stedsnr" v="686673" />
	</node>
	<node lat="69.55035000500133" lon="20.531349978671763" id="-42976">
		<tag k="name" v="Joramo" />
		<tag k="name:no" v="Joramo" />
		<tag k="place" v="farm" />
		<tag k="ssr:stedsnr" v="686676" />
	</node>
	<node lat="69.75067777509844" lon="20.499358308077692" id="-42993">
		<tag k="loc_name:no" v="Bakken" />
		<tag k="name" v="Haugatun" />
		<tag k="name:no" v="Haugatun" />
		<tag k="place" v="farm" />
		<tag k="ssr:stedsnr" v="686911" />
	</node>
	<node lat="69.4973984373361" lon="20.8338510698643" id="-43013">
		<tag k="fixme" v="consider place=hamlet" />
		<tag k="name" v="Gáivuonbahta - Kåfjordbotn" />
		<tag k="name:no" v="Kåfjordbotn" />
		<tag k="name:se" v="Gáivuonbahta" />
		<tag k="place" v="farm" />
		<tag k="ssr:stedsnr" v="564571" />
	</node>
	<node lat="69.49026975633868" lon="20.836643020320345" id="-43015">
		<tag k="name" v="Haugli" />
		<tag k="name:no" v="Haugli" />
		<tag k="place" v="farm" />
		<tag k="ssr:stedsnr" v="564574" />
	</node>
	<node lat="69.47334444713557" lon="20.900449980628903" id="-43017">
		<tag k="name" v="Nordheim" />
		<tag k="name:no" v="Nordheim" />
		<tag k="place" v="farm" />
		<tag k="ssr:stedsnr" v="564609" />
	</node>
	<node lat="69.58410278118005" lon="20.580047200886135" id="-43019">
		<tag k="alt_name:no" v="Storslett" />
		<tag k="name" v="Storsletta" />
		<tag k="name:no" v="Storsletta" />
		<tag k="place" v="farm" />
		<tag k="ssr:stedsnr" v="564669" />
	</node>
	<node lat="69.50838888917554" lon="20.5042055479261" id="-43033">
		<tag k="name" v="Vannbakken" />
		<tag k="name:no" v="Vannbakken" />
		<tag k="place" v="farm" />
		<tag k="ssr:stedsnr" v="599060" />
	</node>
	<node lat="69.49552500027937" lon="20.834291651789528" id="-43048">
		<tag k="name" v="Myrberg" />
		<tag k="name:no" v="Myrberg" />
		<tag k="old_name:no" v="Jeaggeduohki" />
		<tag k="place" v="farm" />
		<tag k="ssr:stedsnr" v="605272" />
	</node>
	<node lat="69.75256389157286" lon="20.494002749098293" id="-43058">
		<tag k="name" v="Djupvik" />
		<tag k="name:no" v="Djupvik" />
		<tag k="place" v="farm" />
		<tag k="ssr:stedsnr" v="606323" />
	</node>
</osm>
