<?xml version="1.0" encoding="UTF-8"?>
<<<<<<< HEAD
<osm version="0.6" generator="osmapis">
	<node lat="69.52727222272664" lon="20.770305538289573" id="-34477">
=======
<osm generator="osmapis" version="0.6">
	<node id="-887293" lat="69.4137555581" lon="20.9378471973">
		<tag k="highway" v="path" />
		<tag k="name" v="Moskogáisabálggis" />
		<tag k="name:se" v="Moskogáisabálggis" />
		<tag k="ssr:stedsnr" v="478305" />
	</node>
	<node id="-887130" lat="69.5136638905" lon="20.7967694105">
		<tag k="highway" v="path" />
		<tag k="name" v="Boares-Issáhabálggis" />
		<tag k="name:se" v="Boares-Issáhabálggis" />
		<tag k="ssr:stedsnr" v="478501" />
	</node>
	<node id="-887447" lat="69.5276333293" lon="20.7336916555">
		<tag k="highway" v="path" />
		<tag k="name" v="Čunobálggis" />
		<tag k="name:se" v="Čunobálggis" />
		<tag k="ssr:stedsnr" v="659440" />
	</node>
	<node id="-886902" lat="69.5272722227" lon="20.7703055383">
>>>>>>> e1d4bc35ff8a6074a6f2e91616a996b547c36f15
		<tag k="highway" v="path" />
		<tag k="name" v="Bajit Čunobálggis" />
		<tag k="name:se" v="Bajit Čunobálggis" />
		<tag k="ssr:stedsnr" v="53422" />
	</node>
<<<<<<< HEAD
	<node lat="69.41677221979987" lon="20.956136088931896" id="-34587">
		<tag k="highway" v="path" />
		<tag k="name" v="Guhkessviŋga" />
		<tag k="name:se" v="Guhkessviŋga" />
		<tag k="ssr:stedsnr" v="175305" />
	</node>
	<node lat="69.41375555808703" lon="20.937847197341778" id="-34748">
=======
	<node id="-887145" lat="69.5305277758" lon="20.6770166535">
		<tag k="highway" v="path" />
		<tag k="name" v="Jeanssabálggis - Jensvegen" />
		<tag k="name:no" v="Jensvegen" />
		<tag k="name:se" v="Jeanssabálggis" />
		<tag k="ssr:stedsnr" v="484084" />
	</node>
	<node id="-887983" lat="69.5473194425" lon="20.6449805284">
		<tag k="highway" v="path" />
		<tag k="name" v="Ordaveien" />
		<tag k="name:no" v="Ordaveien" />
		<tag k="ssr:stedsnr" v="175793" />
	</node>
	<node id="-887502" lat="69.4006805567" lon="20.9861444309">
		<tag k="highway" v="path" />
		<tag k="name" v="Fossevegen" />
		<tag k="name:no" v="Fossevegen" />
		<tag k="ssr:stedsnr" v="903447" />
	</node>
	<node id="-887885" lat="69.5388638901" lon="20.6486972033">
>>>>>>> e1d4bc35ff8a6074a6f2e91616a996b547c36f15
		<tag k="highway" v="path" />
		<tag k="name" v="Moskogáisabálggis" />
		<tag k="name:se" v="Moskogáisabálggis" />
		<tag k="ssr:stedsnr" v="478305" />
	</node>
<<<<<<< HEAD
	<node lat="69.51366389048066" lon="20.796769410524774" id="-34750">
=======
	<node id="-888386" lat="69.49950278" lon="20.8294999861">
		<tag k="highway" v="path" />
		<tag k="name" v="Speidnabálggis" />
		<tag k="name:se" v="Speidnabálggis" />
		<tag k="ssr:stedsnr" v="599478" />
	</node>
	<node id="-888361" lat="69.5274777784" lon="20.7759138764">
>>>>>>> e1d4bc35ff8a6074a6f2e91616a996b547c36f15
		<tag k="highway" v="path" />
		<tag k="name" v="Boares-Issáhabálggis" />
		<tag k="name:se" v="Boares-Issáhabálggis" />
		<tag k="ssr:stedsnr" v="478501" />
	</node>
<<<<<<< HEAD
	<node lat="69.53052777579067" lon="20.677016653525122" id="-34769">
=======
	<node id="-887624" lat="69.5260277793" lon="20.740755526">
>>>>>>> e1d4bc35ff8a6074a6f2e91616a996b547c36f15
		<tag k="highway" v="path" />
		<tag k="name" v="Jeanssabálggis - Jensvegen" />
		<tag k="name:no" v="Jensvegen" />
		<tag k="name:se" v="Jeanssabálggis" />
		<tag k="ssr:stedsnr" v="484084" />
	</node>
<<<<<<< HEAD
	<node lat="69.53962777483558" lon="20.655386084512006" id="-34808">
=======
	<node id="-888227" lat="69.5396277748" lon="20.6553860845">
>>>>>>> e1d4bc35ff8a6074a6f2e91616a996b547c36f15
		<tag k="fixme" v="multiple name tags, choose one and add the other to alt_name" />
		<tag k="highway" v="path" />
		<tag k="name" v="Ordabálggis;Ordavegen" />
		<tag k="name:se" v="Ordabálggis;Ordavegen" />
		<tag k="ssr:stedsnr" v="418793" />
	</node>
<<<<<<< HEAD
	<node lat="69.52747777836247" lon="20.775913876363393" id="-34928">
		<tag k="highway" v="path" />
		<tag k="name" v="Ceakkobálggis" />
		<tag k="name:se" v="Ceakkobálggis" />
		<tag k="ssr:stedsnr" v="598417" />
=======
	<node id="-887970" lat="69.4167722198" lon="20.9561360889">
		<tag k="highway" v="path" />
		<tag k="name" v="Guhkessviŋga" />
		<tag k="name:se" v="Guhkessviŋga" />
		<tag k="ssr:stedsnr" v="175305" />
>>>>>>> e1d4bc35ff8a6074a6f2e91616a996b547c36f15
	</node>
</osm>
