<?xml version="1.0" encoding="UTF-8"?>
<osm version="0.6" generator="osmapis">
	<node lat="69.50678055923571" lon="20.798397195614093" id="-99622">
		<tag k="name" v="Billosnjárga" />
		<tag k="name:se" v="Billosnjárga" />
		<tag k="natural" v="cape" />
		<tag k="ssr:stedsnr" v="53510" />
	</node>
	<node lat="69.7502361113527" lon="20.486424982039328" id="-99688">
		<tag k="name" v="Gambukta" />
		<tag k="natural" v="bay" />
		<tag k="ssr:stedsnr" v="114915" />
	</node>
	<node lat="69.53641666924133" lon="20.59999997176936" id="-99689">
		<tag k="loc_name:se" v="Ándaras;Áŋŋaras" />
		<tag k="name" v="Andersnes" />
		<tag k="name:no" v="Andersnes" />
		<tag k="natural" v="cape" />
		<tag k="ssr:stedsnr" v="236824" />
	</node>
	<node lat="69.53689166924408" lon="20.611244419289623" id="-99696">
		<tag k="loc_name:se" v="Hávgamađđi" />
		<tag k="name" v="Haugameđđi" />
		<tag k="name:no" v="Haugameđđi" />
		<tag k="natural" v="shoal" />
		<tag k="place" v="locality" />
		<tag k="ssr:stedsnr" v="115806" />
	</node>
	<node lat="69.5241750021842" lon="20.76029720332257" id="-99747">
		<tag k="name" v="Jiellegáddi" />
		<tag k="name:se" v="Jiellegáddi" />
		<tag k="natural" v="beach" />
		<tag k="ssr:stedsnr" v="174453" />
	</node>
	<node lat="69.54807777679534" lon="20.574599992030098" id="-99756">
		<tag k="name" v="Oterholla" />
		<tag k="natural" v="bay" />
		<tag k="ssr:stedsnr" v="175762" />
	</node>
	<node lat="69.51167777936514" lon="20.68924443703317" id="-99778">
		<tag k="alt_name:no" v="Båelvneset" />
		<tag k="name" v="Boađđonjárga - Båneset" />
		<tag k="name:no" v="Båneset" />
		<tag k="name:se" v="Boađđonjárga" />
		<tag k="natural" v="cape" />
		<tag k="ssr:stedsnr" v="201706" />
	</node>
	<node lat="69.54677222348795" lon="20.383436096684417" id="-99781">
		<tag k="alt_name" v="Garneskjæret" />
		<tag k="fixme" v="consider seamark:type=rock or natural=shoal" />
		<tag k="name" v="Garnskjæran" />
		<tag k="place" v="islet" />
		<tag k="ssr:stedsnr" v="208205" />
	</node>
	<node lat="69.55953333445645" lon="20.37775831178795" id="-99782">
		<tag k="name" v="Skipsklakken" />
		<tag k="natural" v="shoal" />
		<tag k="place" v="locality" />
		<tag k="ssr:stedsnr" v="208206" />
	</node>
	<node lat="69.52949166346708" lon="20.60638331714594" id="-99784">
		<tag k="name" v="Fierrannjárga" />
		<tag k="name:se" v="Fierrannjárga" />
		<tag k="natural" v="cape" />
		<tag k="ssr:stedsnr" v="218190" />
	</node>
	<node lat="69.51251388922479" lon="20.698724989435984" id="-99802">
		<tag k="loc_name:se" v="Iisavárboađđu;Dobbelboađđu" />
		<tag k="name" v="Isfjellgrunnen" />
		<tag k="name:no" v="Isfjellgrunnen" />
		<tag k="natural" v="shoal" />
		<tag k="place" v="locality" />
		<tag k="ssr:stedsnr" v="443685" />
	</node>
	<node lat="69.53207777959861" lon="20.371888875666233" id="-99818">
		<tag k="fixme" v="consider seamark:type=rock or natural=shoal" />
		<tag k="name" v="Skjæret" />
		<tag k="place" v="islet" />
		<tag k="ssr:stedsnr" v="236211" />
	</node>
	<node lat="69.49191666844897" lon="20.31667220631525" id="-99852">
		<tag k="name" v="Gorgin" />
		<tag k="name:se" v="Gorgin" />
		<tag k="natural" v="shoal" />
		<tag k="place" v="locality" />
		<tag k="ssr:stedsnr" v="449548" />
	</node>
	<node lat="69.54589444439107" lon="20.53405553121568" id="-99858">
		<tag k="name" v="Johkanjárga - Elvenes" />
		<tag k="name:no" v="Elvenes" />
		<tag k="name:se" v="Johkanjárga" />
		<tag k="natural" v="cape" />
		<tag k="ssr:stedsnr" v="296004" />
	</node>
	<node lat="69.70870277750028" lon="20.526680538018752" id="-99864">
		<tag k="name" v="Kråbukta" />
		<tag k="natural" v="bay" />
		<tag k="ssr:stedsnr" v="296988" />
	</node>
	<node lat="69.51163888673005" lon="20.754599969449355" id="-99902">
		<tag k="fixme" v="consider seamark:type=rock or natural=shoal" />
		<tag k="name" v="Nuorjalássa" />
		<tag k="name:se" v="Nuorjalássa" />
		<tag k="place" v="islet" />
		<tag k="ssr:stedsnr" v="356405" />
	</node>
	<node lat="69.54353888684832" lon="20.548463861710694" id="-99907">
		<tag k="loc_name:se" v="Reašši" />
		<tag k="name" v="Riešši - Leira" />
		<tag k="name:no" v="Leira" />
		<tag k="name:se" v="Riešši" />
		<tag k="natural" v="bay" />
		<tag k="ssr:stedsnr" v="357002" />
	</node>
	<node lat="69.71986389122436" lon="20.525524972512173" id="-99912">
		<tag k="name" v="Holmen" />
		<tag k="natural" v="cape" />
		<tag k="ssr:stedsnr" v="357909" />
	</node>
	<node lat="69.61477221864516" lon="20.48398053679595" id="-99956">
		<tag k="name" v="Ytstebyneset" />
		<tag k="natural" v="cape" />
		<tag k="ssr:stedsnr" v="418016" />
	</node>
	<node lat="69.57924166558571" lon="20.581580531860038" id="-99961">
		<tag k="name" v="Bukta" />
		<tag k="natural" v="bay" />
		<tag k="ssr:stedsnr" v="418751" />
	</node>
	<node lat="69.60059470471155" lon="20.537023409820222" id="-99964">
		<tag k="name" v="Reašši" />
		<tag k="name:se" v="Reašši" />
		<tag k="natural" v="beach" />
		<tag k="ssr:stedsnr" v="418955" />
	</node>
	<node lat="69.5127583360392" lon="20.736888875557018" id="-100006">
		<tag k="name" v="Áhkášorrit - Håkjerringberget" />
		<tag k="name:no" v="Håkjerringberget" />
		<tag k="name:se" v="Áhkášorrit" />
		<tag k="natural" v="cape" />
		<tag k="ssr:stedsnr" v="443690" />
	</node>
	<node lat="69.54675555892615" lon="20.383744434997805" id="-100014">
		<tag k="alt_name:se" v="Skihpageargi" />
		<tag k="fixme" v="multiple name tags, choose one and add the other to alt_name" />
		<tag k="name" v="Jiehtanasskihppa;Láivi - Skipet - Laiva" />
		<tag k="name:fkv" v="Laiva" />
		<tag k="name:no" v="Skipet" />
		<tag k="name:se" v="Jiehtanasskihppa;Láivi" />
		<tag k="natural" v="cape" />
		<tag k="ssr:stedsnr" v="451230" />
	</node>
	<node lat="69.49923888637659" lon="20.345527772495867" id="-100016">
		<tag k="name" v="Innerneset" />
		<tag k="natural" v="cape" />
		<tag k="ssr:stedsnr" v="461203" />
	</node>
	<node lat="69.48536388598293" lon="20.33686387629674" id="-100055">
		<tag k="name" v="Stølandet - Staffuranta" />
		<tag k="name:fkv" v="Staffuranta" />
		<tag k="name:no" v="Stølandet" />
		<tag k="natural" v="beach" />
		<tag k="ssr:stedsnr" v="504278" />
	</node>
	<node lat="69.64268333823928" lon="20.46192497753942" id="-100059">
		<tag k="name" v="Gáivuonorrit - Kåfjordbergan" />
		<tag k="name:no" v="Kåfjordbergan" />
		<tag k="name:se" v="Gáivuonorrit" />
		<tag k="natural" v="cape" />
		<tag k="ssr:stedsnr" v="504587" />
	</node>
	<node lat="69.67078055247053" lon="20.48911943243053" id="-100128">
		<tag k="name" v="Vikebukta" />
		<tag k="natural" v="bay" />
		<tag k="ssr:stedsnr" v="599971" />
	</node>
	<node lat="69.55211666987289" lon="20.614636102948438" id="-100129">
		<tag k="alt_name:no" v="Steinnes" />
		<tag k="name" v="Geađgenjárga - Steinneset - Kiviniemi" />
		<tag k="name:fkv" v="Kiviniemi" />
		<tag k="name:no" v="Steinneset" />
		<tag k="name:se" v="Geađgenjárga" />
		<tag k="natural" v="cape" />
		<tag k="old_name:no" v="Storsteinnes" />
		<tag k="ssr:stedsnr" v="686680" />
	</node>
	<node lat="69.75249166502343" lon="20.484713868604047" id="-100136">
		<tag k="name" v="Čietnjalluokta - Djupvik - Siennalahti" />
		<tag k="name:fkv" v="Siennalahti" />
		<tag k="name:no" v="Djupvik" />
		<tag k="name:se" v="Čietnjalluokta" />
		<tag k="natural" v="bay" />
		<tag k="ssr:stedsnr" v="686915" />
	</node>
	<node lat="69.55702499889928" lon="20.3898749935755" id="-100154">
		<tag k="name" v="Ankran" />
		<tag k="natural" v="cape" />
		<tag k="ssr:stedsnr" v="625911" />
	</node>
	<node lat="69.59249722174617" lon="20.432483316385373" id="-100158">
		<tag k="name" v="Nessebåen" />
		<tag k="natural" v="shoal" />
		<tag k="place" v="locality" />
		<tag k="ssr:stedsnr" v="693240" />
	</node>
	<node lat="69.52360278164322" lon="20.76340276169723" id="-100162">
		<tag k="name" v="Nieidanjárga" />
		<tag k="name:se" v="Nieidanjárga" />
		<tag k="natural" v="cape" />
		<tag k="ssr:stedsnr" v="659415" />
	</node>
	<node lat="69.51964444350051" lon="20.358791659313503" id="-100172">
		<tag k="name" v="Nordlihamna" />
		<tag k="natural" v="bay" />
		<tag k="ssr:stedsnr" v="660196" />
	</node>
	<node lat="69.52411111016552" lon="20.68573330230116" id="-100188">
		<tag k="name" v="Áibanašboađđu" />
		<tag k="name:se" v="Áibanašboađđu" />
		<tag k="place" v="locality" />
		<tag k="seamark:type" v="rock" />
		<tag k="ssr:stedsnr" v="666104" />
	</node>
	<node lat="69.56521388500563" lon="20.58532220917391" id="-100196">
		<tag k="name" v="Kroken" />
		<tag k="natural" v="shoal" />
		<tag k="place" v="locality" />
		<tag k="ssr:stedsnr" v="692313" />
	</node>
	<node lat="69.55938611180726" lon="20.53188608980935" id="-100204">
		<tag k="loc_name:se" v="Askones" />
		<tag k="name" v="Aškonjárga" />
		<tag k="name:se" v="Aškonjárga" />
		<tag k="natural" v="cape" />
		<tag k="ssr:stedsnr" v="721009" />
	</node>
	<node lat="69.55547222625732" lon="20.388263866356098" id="-100209">
		<tag k="fixme" v="consider seamark:type=rock or natural=shoal" />
		<tag k="name" v="Stordreggen" />
		<tag k="place" v="islet" />
		<tag k="ssr:stedsnr" v="721176" />
	</node>
	<node lat="69.54652777798027" lon="20.582888880999505" id="-100214">
		<tag k="name" v="Šleađđuorrit" />
		<tag k="name:se" v="Šleađđuorrit" />
		<tag k="natural" v="bay" />
		<tag k="ssr:stedsnr" v="721729" />
	</node>
	<node lat="69.55897222531578" lon="20.38944720268955" id="-100239">
		<tag k="fixme" v="consider seamark:type=rock or natural=shoal" />
		<tag k="name" v="Skipet" />
		<tag k="place" v="islet" />
		<tag k="ssr:stedsnr" v="781203" />
	</node>
	<node lat="69.50847499897316" lon="20.355888862155762" id="-100256">
		<tag k="fixme" v="consider seamark:type=rock or natural=shoal" />
		<tag k="name" v="Sommarskjæran" />
		<tag k="place" v="islet" />
		<tag k="ssr:stedsnr" v="782171" />
	</node>
	<node lat="69.72718055755216" lon="20.525130534563957" id="-100258">
		<tag k="name" v="Bergeneset" />
		<tag k="natural" v="cape" />
		<tag k="ssr:stedsnr" v="782905" />
	</node>
	<node lat="69.54841111262877" lon="20.568055533489165" id="-100327">
		<tag k="loc_name:se" v="Čealujunni" />
		<tag k="name" v="Čeallonjunni" />
		<tag k="name:se" v="Čeallonjunni" />
		<tag k="natural" v="cape" />
		<tag k="ssr:stedsnr" v="904796" />
	</node>
	<node lat="69.54805277818156" lon="20.59816943590634" id="-100364">
		<tag k="name" v="Coagis" />
		<tag k="name:se" v="Coagis" />
		<tag k="natural" v="shoal" />
		<tag k="place" v="locality" />
		<tag k="ssr:stedsnr" v="843777" />
	</node>
	<node lat="69.70002778148702" lon="20.52160554546406" id="-100369">
		<tag k="name" v="Gaveranta" />
		<tag k="natural" v="bay" />
		<tag k="ssr:stedsnr" v="843987" />
	</node>
	<node lat="69.6025481365092" lon="20.533189714246454" id="-100370">
		<tag k="name" v="Talosvankanniemi" />
		<tag k="name:fkv" v="Talosvankanniemi" />
		<tag k="natural" v="cape" />
		<tag k="ssr:stedsnr" v="846429" />
	</node>
	<node lat="69.53702222697923" lon="20.376969425440667" id="-100381">
		<tag k="alt_name:no" v="Gatteln" />
		<tag k="name" v="Gáhttil - Gattel - Kattila" />
		<tag k="name:fkv" v="Kattila" />
		<tag k="name:no" v="Gattel" />
		<tag k="name:se" v="Gáhttil" />
		<tag k="natural" v="cape" />
		<tag k="ssr:stedsnr" v="875203" />
	</node>
	<node lat="69.51337500154183" lon="20.746208318888232" id="-100384">
		<tag k="name" v="Bađiluokta" />
		<tag k="name:se" v="Bađiluokta" />
		<tag k="natural" v="bay" />
		<tag k="ssr:stedsnr" v="902424" />
	</node>
	<node lat="69.52325555413582" lon="20.758283319886523" id="-100387">
		<tag k="name" v="Ruollaluokta" />
		<tag k="name:se" v="Ruollaluokta" />
		<tag k="natural" v="bay" />
		<tag k="ssr:stedsnr" v="902473" />
	</node>
	<node lat="69.52037499851812" lon="20.35995275318837" id="-100395">
		<tag k="name" v="Sandnesodden" />
		<tag k="natural" v="cape" />
		<tag k="ssr:stedsnr" v="904206" />
	</node>
	<node lat="69.51217499683756" lon="20.682016640581235" id="-100398">
		<tag k="fixme" v="consider seamark:type=rock or natural=shoal" />
		<tag k="name" v="Slippageađgi" />
		<tag k="name:se" v="Slippageađgi" />
		<tag k="place" v="islet" />
		<tag k="ssr:stedsnr" v="904761" />
	</node>
	<node lat="69.51183055855668" lon="20.69471942640755" id="-100399">
		<tag k="name" v="Huitoluokta" />
		<tag k="name:se" v="Huitoluokta" />
		<tag k="natural" v="bay" />
		<tag k="ssr:stedsnr" v="904769" />
	</node>
	<node lat="69.49726944475498" lon="20.802758299746966" id="-100400">
		<tag k="name" v="Kåfjordbotn" />
		<tag k="natural" v="bay" />
		<tag k="ssr:stedsnr" v="904667" />
	</node>
	<node lat="69.58566685944444" lon="20.3985943347103" id="-100415">
		<tag k="name" v="Nuortanjárgeahči - Ytre Nordneset - Ulko-Nuoras" />
		<tag k="name:fkv" v="Ulko-Nuoras" />
		<tag k="name:no" v="Ytre Nordneset" />
		<tag k="name:se" v="Nuortanjárgeahči" />
		<tag k="natural" v="cape" />
		<tag k="old_name:no" v="Nordnesodden" />
		<tag k="ssr:stedsnr" v="928969" />
	</node>
	<node lat="69.46747500125242" lon="20.53248609205857" id="-100425">
		<tag k="name" v="Biltanjárga" />
		<tag k="name:se" v="Biltanjárga" />
		<tag k="natural" v="cape" />
		<tag k="ssr:stedsnr" v="963193" />
	</node>
	<node lat="69.507652776994" lon="20.76442498639712" id="-100433">
		<tag k="name" v="Háldestáffu" />
		<tag k="name:se" v="Háldestáffu" />
		<tag k="natural" v="bay" />
		<tag k="ssr:stedsnr" v="963550" />
	</node>
	<node lat="69.51397222735443" lon="20.69834997330731" id="-100442">
		<tag k="name" v="Boađđu - Båen" />
		<tag k="name:no" v="Båen" />
		<tag k="name:se" v="Boađđu" />
		<tag k="place" v="locality" />
		<tag k="seamark:type" v="rock" />
		<tag k="ssr:stedsnr" v="964746" />
	</node>
	<node lat="69.5235222269295" lon="20.697466639467244" id="-100453">
		<tag k="name" v="Káijaboađđu" />
		<tag k="name:se" v="Káijaboađđu" />
		<tag k="place" v="locality" />
		<tag k="seamark:type" v="rock" />
		<tag k="ssr:stedsnr" v="969095" />
	</node>
	<node lat="69.590408307643" lon="20.42286375564836" id="-100476">
		<tag k="alt_name:no" v="Odden" />
		<tag k="fixme" v="multiple name tags, choose one and add the other to alt_name" />
		<tag k="name" v="Nuorttaš;Nuortanjárga - Nordnesodden;Nordneset - Norttoniemi" />
		<tag k="name:fkv" v="Norttoniemi" />
		<tag k="name:no" v="Nordnesodden;Nordneset" />
		<tag k="name:se" v="Nuorttaš;Nuortanjárga" />
		<tag k="natural" v="cape" />
		<tag k="ssr:stedsnr" v="18921" />
	</node>
	<node lat="69.58518611373344" lon="20.39676388082792" id="-100501">
		<tag k="name" v="Lillebukta" />
		<tag k="natural" v="bay" />
		<tag k="ssr:stedsnr" v="26230" />
	</node>
	<node lat="69.58864722045257" lon="20.399749988147118" id="-100502">
		<tag k="name" v="Odden" />
		<tag k="natural" v="shoal" />
		<tag k="place" v="locality" />
		<tag k="ssr:stedsnr" v="26231" />
	</node>
	<node lat="69.51572777448519" lon="20.640766653732836" id="-100535">
		<tag k="name" v="Sáttu" />
		<tag k="name:se" v="Sáttu" />
		<tag k="natural" v="beach" />
		<tag k="ssr:stedsnr" v="54769" />
	</node>
	<node lat="69.52346111612258" lon="20.762630537758103" id="-100548">
		<tag k="name" v="Nieidaluokta" />
		<tag k="name:se" v="Nieidaluokta" />
		<tag k="natural" v="bay" />
		<tag k="ssr:stedsnr" v="60496" />
	</node>
	<node lat="69.5231416654356" lon="20.69163885703437" id="-100558">
		<tag k="name" v="Áibanášši - Langnesneset" />
		<tag k="name:no" v="Langnesneset" />
		<tag k="name:se" v="Áibanášši" />
		<tag k="natural" v="cape" />
		<tag k="ssr:stedsnr" v="79616" />
	</node>
	<node lat="69.52276111070086" lon="20.61667498765652" id="-100579">
		<tag k="name" v="Stáffonjárga" />
		<tag k="name:se" v="Stáffonjárga" />
		<tag k="natural" v="cape" />
		<tag k="ssr:stedsnr" v="97246" />
	</node>
	<node lat="69.64785833197337" lon="20.464577757560125" id="-100600">
		<tag k="name" v="Sandneset" />
		<tag k="natural" v="cape" />
		<tag k="ssr:stedsnr" v="115942" />
	</node>
	<node lat="69.51475555277793" lon="20.656349972629304" id="-100604">
		<tag k="fixme" v="consider seamark:type=rock or natural=shoal" />
		<tag k="name" v="Ruššogeađgi" />
		<tag k="name:se" v="Ruššogeađgi" />
		<tag k="place" v="islet" />
		<tag k="ssr:stedsnr" v="115746" />
	</node>
	<node lat="69.71838875971443" lon="20.52386257421058" id="-100638">
		<tag k="alt_name" v="Engneset" />
		<tag k="name" v="Engeneset" />
		<tag k="natural" v="cape" />
		<tag k="ssr:stedsnr" v="140599" />
	</node>
	<node lat="69.49475555885512" lon="20.813627756773048" id="-100644">
		<tag k="name" v="Reašši - Leira" />
		<tag k="name:no" v="Leira" />
		<tag k="name:se" v="Reašši" />
		<tag k="natural" v="beach" />
		<tag k="ssr:stedsnr" v="143166" />
	</node>
	<node lat="69.47346110994714" lon="20.327063882160825" id="-100662">
		<tag k="name" v="Pentebergbukta" />
		<tag k="natural" v="bay" />
		<tag k="ssr:stedsnr" v="175234" />
	</node>
	<node lat="69.51025833130136" lon="20.35471387636347" id="-100670">
		<tag k="name" v="Naustbukta" />
		<tag k="natural" v="bay" />
		<tag k="ssr:stedsnr" v="175182" />
	</node>
	<node lat="69.51566111387923" lon="20.355038885169606" id="-100672">
		<tag k="name" v="Irvi" />
		<tag k="name:se" v="Irvi" />
		<tag k="natural" v="beach" />
		<tag k="ssr:stedsnr" v="175190" />
	</node>
	<node lat="69.68788333615267" lon="20.51186386393691" id="-100689">
		<tag k="name" v="Sandneset" />
		<tag k="natural" v="cape" />
		<tag k="ssr:stedsnr" v="175979" />
	</node>
	<node lat="69.63467778077249" lon="20.46583609144336" id="-100690">
		<tag k="name" v="Storklubben" />
		<tag k="natural" v="cape" />
		<tag k="ssr:stedsnr" v="179460" />
	</node>
	<node lat="69.7796777794706" lon="20.382683316093747" id="-100713">
		<tag k="alt_name:no" v="Lyngenfjorden" />
		<tag k="bay" v="fjord" />
		<tag k="name" v="Lyngen - Ivguvuotna - Yykeänvuono" />
		<tag k="name:fkv" v="Yykeänvuono" />
		<tag k="name:no" v="Lyngen" />
		<tag k="name:se" v="Ivguvuotna" />
		<tag k="natural" v="bay" />
		<tag k="ssr:stedsnr" v="200243" />
	</node>
	<node lat="69.57516111372223" lon="20.584677763690216" id="-100753">
		<tag k="name" v="Noammervákkinjárga - Nommedalsneset - Numerovankanniemi" />
		<tag k="name:fkv" v="Numerovankanniemi" />
		<tag k="name:no" v="Nommedalsneset" />
		<tag k="name:se" v="Noammervákkinjárga" />
		<tag k="natural" v="cape" />
		<tag k="ssr:stedsnr" v="261663" />
	</node>
	<node lat="69.74728055689894" lon="20.472572217446057" id="-100758">
		<tag k="name" v="Djupvikgrunnen" />
		<tag k="natural" v="shoal" />
		<tag k="place" v="locality" />
		<tag k="ssr:stedsnr" v="267232" />
	</node>
	<node lat="69.73565833264725" lon="20.519247202069444" id="-100769">
		<tag k="name" v="Hammarvikneset" />
		<tag k="natural" v="cape" />
		<tag k="ssr:stedsnr" v="296874" />
	</node>
	<node lat="69.55710277599597" lon="20.387730529112375" id="-100776">
		<tag k="fixme" v="consider seamark:type=rock or natural=shoal" />
		<tag k="name" v="Dreggen" />
		<tag k="place" v="islet" />
		<tag k="ssr:stedsnr" v="296166" />
	</node>
	<node lat="69.50455277921839" lon="20.77392774539402" id="-100784">
		<tag k="fixme" v="consider seamark:type=rock or natural=shoal" />
		<tag k="name" v="Feaŋgageađgi" />
		<tag k="name:se" v="Feaŋgageađgi" />
		<tag k="place" v="islet" />
		<tag k="ssr:stedsnr" v="296464" />
	</node>
	<node lat="69.5472388855049" lon="20.580027766625047" id="-100794">
		<tag k="name" v="Muorjeorrit" />
		<tag k="name:se" v="Muorjeorrit" />
		<tag k="natural" v="bay" />
		<tag k="ssr:stedsnr" v="297754" />
	</node>
	<node lat="69.56888611437181" lon="20.520308307376084" id="-100809">
		<tag k="name" v="Sandneset" />
		<tag k="natural" v="cape" />
		<tag k="ssr:stedsnr" v="322425" />
	</node>
	<node lat="69.49709722646757" lon="20.34240832398322" id="-100846">
		<tag k="name" v="Gommeloktbukta" />
		<tag k="natural" v="bay" />
		<tag k="ssr:stedsnr" v="357234" />
	</node>
	<node lat="69.58927499794954" lon="20.566522213084404" id="-100887">
		<tag k="name" v="Sommarnes" />
		<tag k="natural" v="cape" />
		<tag k="ssr:stedsnr" v="382637" />
	</node>
	<node lat="69.56046667047865" lon="20.390483320614365" id="-100896">
		<tag k="alt_name:no" v="Skipsvika" />
		<tag k="fixme" v="multiple name tags, choose one and add the other to alt_name" />
		<tag k="name" v="Láiveluokta;Skihpamohkki - Skipsbukta - Laivalahti" />
		<tag k="name:fkv" v="Laivalahti" />
		<tag k="name:no" v="Skipsbukta" />
		<tag k="name:se" v="Láiveluokta;Skihpamohkki" />
		<tag k="natural" v="bay" />
		<tag k="ssr:stedsnr" v="382924" />
	</node>
	<node lat="69.55043611485743" lon="20.388949995391826" id="-100897">
		<tag k="name" v="Kveita" />
		<tag k="natural" v="beach" />
		<tag k="ssr:stedsnr" v="382943" />
	</node>
	<node lat="69.5465333369393" lon="20.544291659584452" id="-100900">
		<tag k="name" v="Luokta - Manndalsbukta" />
		<tag k="name:no" v="Manndalsbukta" />
		<tag k="name:se" v="Luokta" />
		<tag k="natural" v="bay" />
		<tag k="ssr:stedsnr" v="384949" />
	</node>
	<node lat="69.57476944920545" lon="20.395363868059523" id="-100914">
		<tag k="name" v="Jadon" />
		<tag k="natural" v="cape" />
		<tag k="ssr:stedsnr" v="418071" />
	</node>
	<node lat="69.51894722201631" lon="20.624272207418983" id="-100919">
		<tag k="name" v="Rássejoganjárga" />
		<tag k="name:se" v="Rássejoganjárga" />
		<tag k="natural" v="cape" />
		<tag k="ssr:stedsnr" v="418808" />
	</node>
	<node lat="69.52598333723894" lon="20.68114719830999" id="-100921">
		<tag k="name" v="Buollánmohkki - Brennbukta" />
		<tag k="name:no" v="Brennbukta" />
		<tag k="name:se" v="Buollánmohkki" />
		<tag k="natural" v="bay" />
		<tag k="ssr:stedsnr" v="418818" />
	</node>
	<node lat="69.54857778025459" lon="20.57033330643026" id="-100933">
		<tag k="name" v="Nortihamna" />
		<tag k="natural" v="bay" />
		<tag k="ssr:stedsnr" v="418738" />
	</node>
	<node lat="69.54229167085724" lon="20.5921499914531" id="-100934">
		<tag k="name" v="Bossobuoidi" />
		<tag k="name:se" v="Bossobuoidi" />
		<tag k="natural" v="cape" />
		<tag k="ssr:stedsnr" v="418739" />
	</node>
	<node lat="69.51464166995054" lon="20.6497721983209" id="-100935">
		<tag k="name" v="Ruovddášgaska" />
		<tag k="name:se" v="Ruovddášgaska" />
		<tag k="natural" v="cape" />
		<tag k="ssr:stedsnr" v="418744" />
	</node>
	<node lat="69.51779444171916" lon="20.63420276296308" id="-100938">
		<tag k="name" v="Sisnjárga" />
		<tag k="name:se" v="Sisnjárga" />
		<tag k="natural" v="cape" />
		<tag k="ssr:stedsnr" v="418848" />
	</node>
	<node lat="69.73244166659616" lon="20.523769436804514" id="-100939">
		<tag k="name" v="Kløftra" />
		<tag k="natural" v="bay" />
		<tag k="ssr:stedsnr" v="418860" />
	</node>
	<node lat="69.51639722411551" lon="20.63891110014466" id="-100966">
		<tag k="name" v="Jonaluokta" />
		<tag k="name:se" v="Jonaluokta" />
		<tag k="natural" v="bay" />
		<tag k="ssr:stedsnr" v="660742" />
	</node>
	<node lat="69.5314388863805" lon="20.37404443759443" id="-101007">
		<tag k="alt_name:se" v="Njuoraš" />
		<tag k="fixme" v="multiple name tags, choose one and add the other to alt_name" />
		<tag k="name" v="Siskkit Nuorttaš;Nuoraš - Indre Nordneset - Sisä-Nuoras" />
		<tag k="name:fkv" v="Sisä-Nuoras" />
		<tag k="name:no" v="Indre Nordneset" />
		<tag k="name:se" v="Siskkit Nuorttaš;Nuoraš" />
		<tag k="natural" v="cape" />
		<tag k="ssr:stedsnr" v="504935" />
	</node>
	<node lat="69.48390833073152" lon="20.323188879003162" id="-101011">
		<tag k="name" v="Brenngrunnen" />
		<tag k="natural" v="shoal" />
		<tag k="place" v="locality" />
		<tag k="ssr:stedsnr" v="510571" />
	</node>
	<node lat="69.51439722314355" lon="20.734394414194192" id="-101015">
		<tag k="loc_name:se" v="Nuorttihápman" />
		<tag k="name" v="Nuorttihávna" />
		<tag k="name:se" v="Nuorttihávna" />
		<tag k="natural" v="bay" />
		<tag k="ssr:stedsnr" v="538420" />
	</node>
	<node lat="69.56875555705608" lon="20.524366640422368" id="-101019">
		<tag k="fixme" v="consider seamark:type=rock or natural=shoal" />
		<tag k="name" v="Mavn-Eriksteinen" />
		<tag k="place" v="islet" />
		<tag k="ssr:stedsnr" v="539068" />
	</node>
	<node lat="69.5119222217631" lon="20.685247206837566" id="-101040">
		<tag k="loc_name:se" v="Gárka" />
		<tag k="name" v="Gárkkamohkki" />
		<tag k="name:se" v="Gárkkamohkki" />
		<tag k="natural" v="bay" />
		<tag k="ssr:stedsnr" v="539751" />
	</node>
	<node lat="69.67322222296357" lon="20.49298331499409" id="-101045">
		<tag k="name" v="Josvaneset" />
		<tag k="natural" v="cape" />
		<tag k="ssr:stedsnr" v="539967" />
	</node>
	<node lat="69.57779722063893" lon="20.397280526806874" id="-101082">
		<tag k="name" v="Rottenvikgrunnen" />
		<tag k="natural" v="shoal" />
		<tag k="place" v="locality" />
		<tag k="ssr:stedsnr" v="572248" />
	</node>
	<node lat="69.59284444615118" lon="20.555822197658117" id="-101083">
		<tag k="alt_name:no" v="Sommerneset;Baslettneset" />
		<tag k="name" v="Basluohnjárga - Sommarnes" />
		<tag k="name:no" v="Sommarnes" />
		<tag k="name:se" v="Basluohnjárga" />
		<tag k="natural" v="cape" />
		<tag k="ssr:stedsnr" v="572993" />
	</node>
	<node lat="69.54920277478136" lon="20.385724974068385" id="-101093">
		<tag k="name" v="Speinanesbukta" />
		<tag k="natural" v="bay" />
		<tag k="ssr:stedsnr" v="599180" />
	</node>
	<node lat="69.57701666401546" lon="20.396994427549952" id="-101100">
		<tag k="name" v="Libukta" />
		<tag k="natural" v="bay" />
		<tag k="ssr:stedsnr" v="599066" />
	</node>
	<node lat="69.56416110934582" lon="20.453497212086265" id="-101145">
		<tag k="name" v="Nuortanjárga" />
		<tag k="name:se" v="Nuortanjárga" />
		<tag k="natural" v="cape" />
		<tag k="ssr:stedsnr" v="625672" />
	</node>
	<node lat="69.52109722203274" lon="20.697224978321916" id="-101150">
		<tag k="alt_name" v="Langnestørrbåen" />
		<tag k="name" v="Langnesgrunnen" />
		<tag k="natural" v="shoal" />
		<tag k="place" v="locality" />
		<tag k="ssr:stedsnr" v="625742" />
	</node>
	<node lat="69.49011944991078" lon="20.32491108824586" id="-101157">
		<tag k="name" v="Svarthaug" />
		<tag k="natural" v="shoal" />
		<tag k="place" v="locality" />
		<tag k="ssr:stedsnr" v="631553" />
	</node>
	<node lat="69.52060278239058" lon="20.771580529298394" id="-101161">
		<tag k="name" v="Láiromohkki" />
		<tag k="name:se" v="Láiromohkki" />
		<tag k="natural" v="bay" />
		<tag k="ssr:stedsnr" v="659423" />
	</node>
	<node lat="69.5419305590814" lon="20.37862775655908" id="-101165">
		<tag k="name" v="Kubuktneset" />
		<tag k="natural" v="cape" />
		<tag k="ssr:stedsnr" v="660185" />
	</node>
	<node lat="69.49160278220377" lon="20.33854164571218" id="-101198">
		<tag k="name" v="Klakkebergbukta" />
		<tag k="natural" v="bay" />
		<tag k="ssr:stedsnr" v="721217" />
	</node>
	<node lat="69.51326389387961" lon="20.71569442504707" id="-101202">
		<tag k="name" v="Siskkit Ruššoluokta" />
		<tag k="name:se" v="Siskkit Ruššoluokta" />
		<tag k="natural" v="bay" />
		<tag k="ssr:stedsnr" v="721742" />
	</node>
	<node lat="69.51903333185938" lon="20.626855543794942" id="-101207">
		<tag k="name" v="Luokta" />
		<tag k="name:se" v="Luokta" />
		<tag k="natural" v="bay" />
		<tag k="ssr:stedsnr" v="721788" />
	</node>
	<node lat="69.5134111151641" lon="20.66691943450513" id="-101211">
		<tag k="name" v="Sállanjárga" />
		<tag k="name:se" v="Sállanjárga" />
		<tag k="natural" v="cape" />
		<tag k="ssr:stedsnr" v="721747" />
	</node>
	<node lat="69.54325277459424" lon="20.379205530634152" id="-101259">
		<tag k="name" v="Kubukta" />
		<tag k="natural" v="bay" />
		<tag k="ssr:stedsnr" v="781198" />
	</node>
	<node lat="69.59164722551873" lon="20.419424973312694" id="-101264">
		<tag k="name" v="Skivahollet" />
		<tag k="natural" v="bay" />
		<tag k="ssr:stedsnr" v="782019" />
	</node>
	<node lat="69.52308888974963" lon="20.702013863126105" id="-101280">
		<tag k="name" v="Áibanášmohkki - Langnesbukta" />
		<tag k="name:no" v="Langnesbukta" />
		<tag k="name:se" v="Áibanášmohkki" />
		<tag k="natural" v="bay" />
		<tag k="ssr:stedsnr" v="782798" />
	</node>
	<node lat="69.72784999913611" lon="20.46726108729513" id="-101311">
		<tag k="alt_name" v="Mellombåen" />
		<tag k="name" v="Mellombåan" />
		<tag k="natural" v="shoal" />
		<tag k="place" v="locality" />
		<tag k="ssr:stedsnr" v="808598" />
	</node>
	<node lat="69.66072499907469" lon="20.47244996881071" id="-101318">
		<tag k="name" v="Sandneset" />
		<tag k="natural" v="cape" />
		<tag k="ssr:stedsnr" v="808565" />
	</node>
	<node lat="69.54758055684384" lon="20.3708221954828" id="-101324">
		<tag k="name" v="Speinabitklakken" />
		<tag k="natural" v="shoal" />
		<tag k="place" v="locality" />
		<tag k="ssr:stedsnr" v="815202" />
	</node>
	<node lat="69.75266389253868" lon="20.488774986942108" id="-101343">
		<tag k="name" v="Bukta" />
		<tag k="natural" v="bay" />
		<tag k="ssr:stedsnr" v="842924" />
	</node>
	<node lat="69.587755558172" lon="20.40391109431534" id="-101348">
		<tag k="name" v="Gambukta" />
		<tag k="natural" v="bay" />
		<tag k="ssr:stedsnr" v="843011" />
	</node>
	<node lat="69.54769166634415" lon="20.563249980819513" id="-101357">
		<tag k="loc_name:se" v="Sturkebákti" />
		<tag k="name" v="Storkebergsfjæra" />
		<tag k="name:no" v="Storkebergsfjæra" />
		<tag k="natural" v="beach" />
		<tag k="ssr:stedsnr" v="843775" />
	</node>
	<node lat="69.68481389224542" lon="20.507674974032337" id="-101362">
		<tag k="name" v="Bukta" />
		<tag k="natural" v="bay" />
		<tag k="ssr:stedsnr" v="843963" />
	</node>
	<node lat="69.51746388510453" lon="20.729138876692492" id="-101390">
		<tag k="bay" v="fjord" />
		<tag k="name" v="Gáivuotna - Kåfjorden - Kaivuono" />
		<tag k="name:fkv" v="Kaivuono" />
		<tag k="name:no" v="Kåfjorden" />
		<tag k="name:se" v="Gáivuotna" />
		<tag k="natural" v="bay" />
		<tag k="ssr:stedsnr" v="868547" />
	</node>
	<node lat="69.51945277563624" lon="20.36190552911608" id="-101406">
		<tag k="alt_name" v="Sandnes" />
		<tag k="name" v="Indre Sandnes" />
		<tag k="natural" v="cape" />
		<tag k="ssr:stedsnr" v="868854" />
	</node>
	<node lat="69.7467444462712" lon="20.488038868965358" id="-101407">
		<tag k="name" v="Hammarneset" />
		<tag k="natural" v="cape" />
		<tag k="ssr:stedsnr" v="869645" />
	</node>
	<node lat="69.66976944902008" lon="20.483780536105343" id="-101408">
		<tag k="name" v="Niseneset" />
		<tag k="natural" v="cape" />
		<tag k="ssr:stedsnr" v="869604" />
	</node>
	<node lat="69.52322777872857" lon="20.751369426390298" id="-101425">
		<tag k="alt_name:no" v="Oksenes" />
		<tag k="name" v="Vuoksánjárga - Oksnes" />
		<tag k="name:no" v="Oksnes" />
		<tag k="name:se" v="Vuoksánjárga" />
		<tag k="natural" v="cape" />
		<tag k="ssr:stedsnr" v="929722" />
	</node>
	<node lat="69.50720555649295" lon="20.354311099573618" id="-101439">
		<tag k="fixme" v="multiple name tags, choose one and add the other to alt_name" />
		<tag k="name" v="Heggebukta;Eggebukta" />
		<tag k="natural" v="bay" />
		<tag k="ssr:stedsnr" v="929889" />
	</node>
	<node lat="69.53744444256758" lon="20.362816638834122" id="-101443">
		<tag k="name" v="Gattelklakken" />
		<tag k="natural" v="shoal" />
		<tag k="place" v="locality" />
		<tag k="ssr:stedsnr" v="936176" />
	</node>
	<node lat="69.53187222415744" lon="20.604774979371562" id="-101446">
		<tag k="name" v="Ruovdeluokta" />
		<tag k="name:se" v="Ruovdeluokta" />
		<tag k="natural" v="bay" />
		<tag k="ssr:stedsnr" v="946165" />
	</node>
	<node lat="69.53064444098001" lon="20.605386088316035" id="-101447">
		<tag k="name" v="Njirrannjárga" />
		<tag k="name:se" v="Njirrannjárga" />
		<tag k="natural" v="cape" />
		<tag k="ssr:stedsnr" v="946166" />
	</node>
	<node lat="69.50976944724947" lon="20.759461096155007" id="-101460">
		<tag k="name" v="Garjielle" />
		<tag k="name:se" v="Garjielle" />
		<tag k="natural" v="bay" />
		<tag k="ssr:stedsnr" v="963429" />
	</node>
	<node lat="69.52241666259773" lon="20.76725831841639" id="-101464">
		<tag k="name" v="Milloluokta - Møllbukta" />
		<tag k="name:no" v="Møllbukta" />
		<tag k="name:se" v="Milloluokta" />
		<tag k="natural" v="bay" />
		<tag k="ssr:stedsnr" v="963473" />
	</node>
	<node lat="69.53204444361066" lon="20.37380553557382" id="-101470">
		<tag k="name" v="Bossoneset" />
		<tag k="natural" v="cape" />
		<tag k="ssr:stedsnr" v="964231" />
	</node>
	<node lat="69.4629999981521" lon="20.324191659750845" id="-101471">
		<tag k="fixme" v="consider seamark:type=rock or natural=shoal" />
		<tag k="name" v="Flosteinan" />
		<tag k="place" v="islet" />
		<tag k="ssr:stedsnr" v="964272" />
	</node>
	<node lat="69.52062499946686" lon="20.620527761865635" id="-101476">
		<tag k="name" v="Davvegeažinjárga" />
		<tag k="name:se" v="Davvegeažinjárga" />
		<tag k="natural" v="cape" />
		<tag k="ssr:stedsnr" v="964799" />
	</node>
	<node lat="69.52421534352476" lon="20.710076280181326" id="-101551">
		<tag k="name" v="Coagesnjárga - Sågesnes" />
		<tag k="name:no" v="Sågesnes" />
		<tag k="name:se" v="Coagesnjárga" />
		<tag k="natural" v="cape" />
		<tag k="ssr:stedsnr" v="1071918" />
	</node>
	<node lat="69.59358689348325" lon="20.55418741843565" id="-101558">
		<tag k="name" v="Basluokta - Baslettbukta" />
		<tag k="name:no" v="Baslettbukta" />
		<tag k="name:se" v="Basluokta" />
		<tag k="natural" v="bay" />
		<tag k="ssr:stedsnr" v="1072948" />
	</node>
	<node lat="69.64657542170352" lon="20.46184796975838" id="-101626">
		<tag k="name" v="Skárfaluokta" />
		<tag k="name:se" v="Skárfaluokta" />
		<tag k="natural" v="bay" />
		<tag k="ssr:stedsnr" v="1082920" />
	</node>
</osm>
