<?xml version="1.0" encoding="UTF-8"?>
<osm version="0.6" generator="osmapis">
	<node lat="69.52698889012017" lon="20.773972196746083" id="-38706">
		<tag k="name" v="Moskijuovva" />
		<tag k="name:se" v="Moskijuovva" />
		<tag k="natural" v="scree" />
		<tag k="ssr:stedsnr" v="235454" />
	</node>
	<node lat="69.50295833018147" lon="20.77471109631995" id="-38708">
		<tag k="name" v="Guošuir" />
		<tag k="name:se" v="Guošuir" />
		<tag k="natural" v="scree" />
		<tag k="ssr:stedsnr" v="235529" />
	</node>
	<node lat="69.53038611575329" lon="20.723127765592213" id="-38711">
		<tag k="loc_name:se" v="Siemoljeaggi" />
		<tag k="name" v="Simmunjeaggi" />
		<tag k="name:se" v="Simmunjeaggi" />
		<tag k="natural" v="wetland" />
		<tag k="ssr:stedsnr" v="235599" />
	</node>
	<node lat="69.58371111206151" lon="20.587172211721526" id="-38735">
		<tag k="name" v="Oaffirjeaggi" />
		<tag k="name:se" v="Oaffirjeaggi" />
		<tag k="natural" v="wetland" />
		<tag k="ssr:stedsnr" v="236754" />
	</node>
	<node lat="69.52831666467715" lon="20.51132775306725" id="-38745">
		<tag k="name" v="Gáiccaidjuovva" />
		<tag k="name:se" v="Gáiccaidjuovva" />
		<tag k="natural" v="scree" />
		<tag k="ssr:stedsnr" v="53105" />
	</node>
	<node lat="69.46957222413234" lon="20.917936079433957" id="-38758">
		<tag k="name" v="Nuorejohrohtu" />
		<tag k="name:se" v="Nuorejohrohtu" />
		<tag k="place" v="locality" />
		<tag k="ssr:stedsnr" v="54279" />
	</node>
	<node lat="69.51930833227114" lon="20.52917775561385" id="-38816">
		<tag k="name" v="Langmyra" />
		<tag k="name:no" v="Langmyra" />
		<tag k="natural" v="wetland" />
		<tag k="ssr:stedsnr" v="115143" />
	</node>
	<node lat="69.61106389131832" lon="20.521080543375902" id="-38857">
		<tag k="name" v="Tjeldmyra" />
		<tag k="name:no" v="Tjeldmyra" />
		<tag k="natural" v="wetland" />
		<tag k="ssr:stedsnr" v="175014" />
	</node>
	<node lat="69.60998611351167" lon="20.64488887908799" id="-38904">
		<tag k="name" v="Stuorajeaggi - Stormyra - Isojänkkä" />
		<tag k="name:fkv" v="Isojänkkä" />
		<tag k="name:no" v="Stormyra" />
		<tag k="name:se" v="Stuorajeaggi" />
		<tag k="natural" v="wetland" />
		<tag k="ssr:stedsnr" v="262658" />
	</node>
	<node lat="69.56394166961688" lon="20.609161085529017" id="-38925">
		<tag k="name" v="Sieđgasoahki" />
		<tag k="name:se" v="Sieđgasoahki" />
		<tag k="place" v="locality" />
		<tag k="ssr:stedsnr" v="236726" />
	</node>
	<node lat="69.60930277826333" lon="20.622191647409977" id="-38926">
		<tag k="name" v="Skávhlegeađgi - Måsesteinen" />
		<tag k="name:no" v="Måsesteinen" />
		<tag k="name:se" v="Skávhlegeađgi" />
		<tag k="natural" v="stone" />
		<tag k="ssr:stedsnr" v="236784" />
	</node>
	<node lat="69.53614444963156" lon="20.691580526286838" id="-38928">
		<tag k="alt_name:se" v="Wassmodarfejeaggi" />
		<tag k="name" v="Wasmuthdarfejeaggi" />
		<tag k="name:se" v="Wasmuthdarfejeaggi" />
		<tag k="natural" v="wetland" />
		<tag k="ssr:stedsnr" v="236790" />
	</node>
	<node lat="69.58183610896992" lon="20.40600275301201" id="-38961">
		<tag k="landuse" v="meadow" />
		<tag k="name" v="Duhkkagieddi - Tuhkakenttä" />
		<tag k="name:fkv" v="Tuhkakenttä" />
		<tag k="name:se" v="Duhkkagieddi" />
		<tag k="ssr:stedsnr" v="297105" />
	</node>
	<node lat="69.47287222376497" lon="20.535280532618728" id="-38993">
		<tag k="name" v="Golccageađgi" />
		<tag k="name:se" v="Golccageađgi" />
		<tag k="natural" v="stone" />
		<tag k="ssr:stedsnr" v="356199" />
	</node>
	<node lat="69.49328888780914" lon="20.871319424510844" id="-39008">
		<tag k="name" v="Gáldojohjeaggi" />
		<tag k="name:se" v="Gáldojohjeaggi" />
		<tag k="natural" v="wetland" />
		<tag k="ssr:stedsnr" v="477642" />
	</node>
	<node lat="69.52703888591502" lon="20.545633313661376" id="-39017">
		<tag k="name" v="Gilvatvuovdi" />
		<tag k="name:se" v="Gilvatvuovdi" />
		<tag k="place" v="locality" />
		<tag k="ssr:stedsnr" v="478099" />
	</node>
	<node lat="69.47475278025178" lon="20.961744433427903" id="-39019">
		<tag k="name" v="Seahtogeađgi" />
		<tag k="name:se" v="Seahtogeađgi" />
		<tag k="natural" v="stone" />
		<tag k="ssr:stedsnr" v="478247" />
	</node>
	<node lat="69.51103055320335" lon="20.69885275604553" id="-39025">
		<tag k="historic" v="shieling" />
		<tag k="name" v="Setra" />
		<tag k="name:no" v="Setra" />
		<tag k="place" v="locality" />
		<tag k="ssr:stedsnr" v="478776" />
	</node>
	<node lat="69.54440278040775" lon="20.527786083043345" id="-39069">
		<tag k="name" v="Miellegieddi" />
		<tag k="name:se" v="Miellegieddi" />
		<tag k="place" v="locality" />
		<tag k="ssr:stedsnr" v="418005" />
	</node>
	<node lat="69.60173055707585" lon="20.54466110247747" id="-39076">
		<tag k="name" v="Melen" />
		<tag k="name:no" v="Melen" />
		<tag k="place" v="locality" />
		<tag k="ssr:stedsnr" v="418945" />
	</node>
	<node lat="69.60759999718263" lon="20.54016385713915" id="-39105">
		<tag k="name" v="Kirkesteinen" />
		<tag k="name:no" v="Kirkesteinen" />
		<tag k="natural" v="stone" />
		<tag k="ssr:stedsnr" v="478009" />
	</node>
	<node lat="69.508544441157" lon="20.54451665384197" id="-39107">
		<tag k="name" v="Čáhcevuovdi" />
		<tag k="name:se" v="Čáhcevuovdi" />
		<tag k="place" v="locality" />
		<tag k="ssr:stedsnr" v="478061" />
	</node>
	<node lat="69.46083333773996" lon="20.914263855098426" id="-39111">
		<tag k="name" v="Jorbajuovva" />
		<tag k="name:se" v="Jorbajuovva" />
		<tag k="natural" v="scree" />
		<tag k="ssr:stedsnr" v="478360" />
	</node>
	<node lat="69.6100388928998" lon="20.657180543381667" id="-39115">
		<tag k="name" v="Bártnajeaggi - Bartnamyra" />
		<tag k="name:no" v="Bartnamyra" />
		<tag k="name:se" v="Bártnajeaggi" />
		<tag k="natural" v="wetland" />
		<tag k="ssr:stedsnr" v="478804" />
	</node>
	<node lat="69.61005555812268" lon="20.67024443155711" id="-39122">
		<tag k="name" v="Bártnajuovva - Bartnaura" />
		<tag k="name:no" v="Bartnaura" />
		<tag k="name:se" v="Bártnajuovva" />
		<tag k="natural" v="scree" />
		<tag k="ssr:stedsnr" v="478780" />
	</node>
	<node lat="69.53335555886642" lon="20.602697204442467" id="-39140">
		<tag k="historic" v="shieling" />
		<tag k="name" v="Geassesadji" />
		<tag k="name:se" v="Geassesadji" />
		<tag k="place" v="locality" />
		<tag k="ssr:stedsnr" v="521179" />
	</node>
	<node lat="69.60737499636434" lon="20.610549987727786" id="-39185">
		<tag k="name" v="Darfejeaggi - Torvmyra - Turvetjänkkä" />
		<tag k="name:fkv" v="Turvetjänkkä" />
		<tag k="name:no" v="Torvmyra" />
		<tag k="name:se" v="Darfejeaggi" />
		<tag k="natural" v="wetland" />
		<tag k="ssr:stedsnr" v="687675" />
	</node>
	<node lat="69.48625000159605" lon="20.83026942008454" id="-39204">
		<tag k="name" v="Girkogeađgi" />
		<tag k="name:se" v="Girkogeađgi" />
		<tag k="natural" v="stone" />
		<tag k="ssr:stedsnr" v="598499" />
	</node>
	<node lat="69.74922222670105" lon="20.52807775274106" id="-39217">
		<tag k="name" v="Lakselvmyra" />
		<tag k="name:no" v="Lakselvmyra" />
		<tag k="natural" v="wetland" />
		<tag k="ssr:stedsnr" v="599899" />
	</node>
	<node lat="69.52153610839781" lon="20.610627746709945" id="-39240">
		<tag k="name" v="Duvnnirohtu" />
		<tag k="name:se" v="Duvnnirohtu" />
		<tag k="place" v="locality" />
		<tag k="ssr:stedsnr" v="703285" />
	</node>
	<node lat="69.53475000279055" lon="20.546938883995598" id="-39244">
		<tag k="name" v="Badjeljeaggi - Øvermyra" />
		<tag k="name:no" v="Øvermyra" />
		<tag k="name:se" v="Badjeljeaggi" />
		<tag k="natural" v="wetland" />
		<tag k="ssr:stedsnr" v="707144" />
	</node>
</osm>
