<?xml version="1.0" encoding="UTF-8"?>
<osm version="0.6" generator="osmapis">
	<node lat="69.29806111425613" lon="20.9635166317725" id="-98852">
		<tag k="name" v="Gaskkamus Smuolkojávri" />
		<tag k="name:se" v="Gaskkamus Smuolkojávri" />
		<tag k="natural" v="water" />
		<tag k="old_name:se" v="Smuolkojávri, gaskkamus" />
		<tag k="ssr:stedsnr" v="18498" />
		<tag k="water" v="lake" />
	</node>
	<node lat="69.4128416671319" lon="20.899324963299396" id="-98855">
		<tag k="name" v="Moskkujávri" />
		<tag k="name:se" v="Moskkujávri" />
		<tag k="natural" v="water" />
		<tag k="ssr:stedsnr" v="19501" />
	</node>
	<node lat="69.38311111631322" lon="20.91586941646733" id="-98862">
		<tag k="name" v="Magervatnet" />
		<tag k="natural" v="water" />
		<tag k="ssr:stedsnr" v="19491" />
		<tag k="water" v="lake" />
	</node>
	<node lat="69.45496111080472" lon="21.02459996146677" id="-98865">
		<tag k="name" v="Hánskejávrrit" />
		<tag k="name:se" v="Hánskejávrrit" />
		<tag k="natural" v="water" />
		<tag k="ssr:stedsnr" v="19745" />
		<tag k="water" v="lake" />
	</node>
	<node lat="69.67397222726152" lon="20.51406663861414" id="-98886">
		<tag k="name" v="Hersemokka" />
		<tag k="natural" v="bay" />
		<tag k="ssr:stedsnr" v="235984" />
	</node>
	<node lat="69.48805833478623" lon="20.892958317358275" id="-98894">
		<tag k="name" v="Gihtel-Ellejohka - Ellenelva" />
		<tag k="name:no" v="Ellenelva" />
		<tag k="name:se" v="Gihtel-Ellejohka" />
		<tag k="ssr:stedsnr" v="236285" />
		<tag k="waterway" v="stream" />
	</node>
	<node lat="69.64354444905328" lon="20.476072210886162" id="-98913">
		<tag k="name" v="Skarvelva" />
		<tag k="ssr:stedsnr" v="236953" />
		<tag k="waterway" v="stream" />
	</node>
	<node lat="69.5255861132856" lon="20.509161095652384" id="-98916">
		<tag k="name" v="Leaibejohka" />
		<tag k="name:se" v="Leaibejohka" />
		<tag k="ssr:stedsnr" v="53109" />
		<tag k="waterway" v="stream" />
	</node>
	<node lat="69.4869305581971" lon="20.828322200213695" id="-98918">
		<tag k="name" v="Geađgeláddu" />
		<tag k="name:se" v="Geađgeláddu" />
		<tag k="natural" v="water" />
		<tag k="ssr:stedsnr" v="53519" />
		<tag k="water" v="lake" />
	</node>
	<node lat="69.40003611010403" lon="20.982197189909524" id="-98920">
		<tag k="name" v="Gorži" />
		<tag k="name:se" v="Gorži" />
		<tag k="natural" v="waterfall" />
		<tag k="ssr:stedsnr" v="53480" />
	</node>
	<node lat="69.51838333240157" lon="20.521644423839394" id="-98924">
		<tag k="name" v="Hánssasavu" />
		<tag k="name:se" v="Hánssasavu" />
		<tag k="natural" v="water" />
		<tag k="ssr:stedsnr" v="54116" />
		<tag k="water" v="lake" />
	</node>
	<node lat="69.51473333373882" lon="20.79084721037163" id="-98931">
		<tag k="name" v="Hánnošjohka" />
		<tag k="name:se" v="Hánnošjohka" />
		<tag k="ssr:stedsnr" v="54380" />
		<tag k="waterway" v="stream" />
	</node>
	<node lat="69.55577499943266" lon="20.888130522139306" id="-98968">
		<tag k="name" v="Holmevatnet" />
		<tag k="natural" v="water" />
		<tag k="ssr:stedsnr" v="79608" />
	</node>
	<node lat="69.65617500385304" lon="20.74595831488448" id="-98975">
		<tag k="name" v="Rundvatnet" />
		<tag k="natural" v="water" />
		<tag k="ssr:stedsnr" v="80591" />
	</node>
	<node lat="69.45020833741422" lon="20.58928609526695" id="-99010">
		<tag k="alt_name:se" v="Rastteváddjafielbmá" />
		<tag k="name" v="Rastteváddjajohka" />
		<tag k="name:se" v="Rastteváddjajohka" />
		<tag k="ssr:stedsnr" v="140503" />
		<tag k="waterway" v="stream" />
	</node>
	<node lat="69.44801768277722" lon="20.921667995596486" id="-99011">
		<tag k="alt_name:no" v="Båršo, litle" />
		<tag k="name" v="Uhca Boršu - Litle Båršo" />
		<tag k="name:no" v="Litle Båršo" />
		<tag k="name:se" v="Uhca Boršu" />
		<tag k="ssr:stedsnr" v="140505" />
		<tag k="waterway" v="stream" />
	</node>
	<node lat="69.40177499874112" lon="21.052277748415" id="-99014">
		<tag k="name" v="Sabetjávri" />
		<tag k="name:se" v="Sabetjávri" />
		<tag k="natural" v="water" />
		<tag k="ssr:stedsnr" v="140640" />
	</node>
	<node lat="69.6373527762363" lon="20.469605547149836" id="-99015">
		<tag k="loc_name:se" v="Ruoššajohka" />
		<tag k="name" v="Russelva" />
		<tag k="name:no" v="Russelva" />
		<tag k="ssr:stedsnr" v="140575" />
		<tag k="waterway" v="stream" />
	</node>
	<node lat="69.47388333293782" lon="20.93358330886566" id="-99017">
		<tag k="name" v="Skáidejohka" />
		<tag k="name:se" v="Skáidejohka" />
		<tag k="old_name:se" v="Skáidijohka" />
		<tag k="ssr:stedsnr" v="140595" />
		<tag k="waterway" v="stream" />
	</node>
	<node lat="69.46633055499309" lon="20.540455545516" id="-99024">
		<tag k="name" v="Gálasavvon" />
		<tag k="name:se" v="Gálasavvon" />
		<tag k="natural" v="water" />
		<tag k="ssr:stedsnr" v="174213" />
		<tag k="water" v="lake" />
	</node>
	<node lat="69.38198055607076" lon="20.573527765713543" id="-99041">
		<tag k="name" v="Skáidenjunni" />
		<tag k="name:se" v="Skáidenjunni" />
		<tag k="natural" v="cape" />
		<tag k="ssr:stedsnr" v="175915" />
	</node>
	<node lat="69.35588055329592" lon="20.910811073412205" id="-99044">
		<tag k="name" v="Unna Njárggajávri" />
		<tag k="name:se" v="Unna Njárggajávri" />
		<tag k="natural" v="water" />
		<tag k="old_name:se" v="Njárggajávri, unna" />
		<tag k="ssr:stedsnr" v="261574" />
	</node>
	<node lat="69.4192638917361" lon="20.943286080848385" id="-99048">
		<tag k="name" v="Sorbmejohka - Ørnedalselva" />
		<tag k="name:no" v="Ørnedalselva" />
		<tag k="name:se" v="Sorbmejohka" />
		<tag k="ssr:stedsnr" v="261533" />
		<tag k="waterway" v="stream" />
	</node>
	<node lat="69.53048055706087" lon="20.698861100931033" id="-99059">
		<tag k="name" v="Lássejohka - Lassielva" />
		<tag k="name:no" v="Lassielva" />
		<tag k="name:se" v="Lássejohka" />
		<tag k="ssr:stedsnr" v="261642" />
		<tag k="waterway" v="stream" />
	</node>
	<node lat="69.49243333731445" lon="21.113608302236077" id="-99060">
		<tag k="name" v="Stuora Njuorjojávri" />
		<tag k="name:se" v="Stuora Njuorjojávri" />
		<tag k="natural" v="water" />
		<tag k="old_name:se" v="Njuorjojávri, stuora;Njuorjojávri" />
		<tag k="ssr:stedsnr" v="261677" />
		<tag k="water" v="lake" />
	</node>
	<node lat="69.4441611096816" lon="20.544169433894236" id="-99086">
		<tag k="name" v="Vállasfielbmá" />
		<tag k="name:se" v="Vállasfielbmá" />
		<tag k="ssr:stedsnr" v="235227" />
		<tag k="waterway" v="stream" />
	</node>
	<node lat="69.56344722018987" lon="20.600624989992003" id="-99095">
		<tag k="name" v="Kielva" />
		<tag k="ssr:stedsnr" v="236724" />
		<tag k="waterway" v="stream" />
	</node>
	<node lat="69.46587499798332" lon="20.33615552928208" id="-99110">
		<tag k="name" v="Revdalselva" />
		<tag k="name:no" v="Revdalselva" />
		<tag k="name:se" v="Reavčájohka" />
		<tag k="ssr:stedsnr" v="261247" />
		<tag k="waterway" v="stream" />
	</node>
	<node lat="69.44579999944682" lon="20.55304441268098" id="-99122">
		<tag k="name" v="Áitegállusuolu" />
		<tag k="name:se" v="Áitegállusuolu" />
		<tag k="place" v="islet" />
		<tag k="ssr:stedsnr" v="296182" />
	</node>
	<node lat="69.52674444795583" lon="20.536419421685345" id="-99124">
		<tag k="name" v="Goržžinjárga" />
		<tag k="name:se" v="Goržžinjárga" />
		<tag k="natural" v="cape" />
		<tag k="ssr:stedsnr" v="296082" />
	</node>
	<node lat="69.50621666564388" lon="20.808563874693135" id="-99127">
		<tag k="fixme" v="multiple name tags, choose one and add the other to alt_name" />
		<tag k="name" v="Siskkitájajohka;Náhkkejohka" />
		<tag k="name:se" v="Siskkitájajohka;Náhkkejohka" />
		<tag k="ssr:stedsnr" v="296450" />
		<tag k="waterway" v="stream" />
	</node>
	<node lat="69.38755833498072" lon="20.605691644451127" id="-99149">
		<tag k="name" v="Uhcanjárggašjohka" />
		<tag k="name:se" v="Uhcanjárggašjohka" />
		<tag k="ssr:stedsnr" v="322504" />
		<tag k="waterway" v="stream" />
	</node>
	<node lat="69.40766944214143" lon="20.75416663356" id="-99150">
		<tag k="name" v="Čiččenjávri" />
		<tag k="name:se" v="Čiččenjávri" />
		<tag k="natural" v="water" />
		<tag k="ssr:stedsnr" v="322516" />
		<tag k="water" v="lake" />
	</node>
	<node lat="69.49957500111499" lon="21.17338053901362" id="-99154">
		<tag k="name" v="Vuođđojávrrit" />
		<tag k="name:se" v="Vuođđojávrrit" />
		<tag k="natural" v="water" />
		<tag k="ssr:stedsnr" v="322689" />
		<tag k="water" v="lake" />
	</node>
	<node lat="69.55131388906415" lon="20.392952752863835" id="-99155">
		<tag k="name" v="Speinabitelva" />
		<tag k="ssr:stedsnr" v="330064" />
		<tag k="waterway" v="river" />
	</node>
	<node lat="69.52070833051161" lon="20.52563887604266" id="-99158">
		<tag k="name" v="Millonjárga" />
		<tag k="name:se" v="Millonjárga" />
		<tag k="natural" v="cape" />
		<tag k="ssr:stedsnr" v="356111" />
	</node>
	<node lat="69.61318055669551" lon="20.50436666107395" id="-99167">
		<tag k="name" v="Lallasjohka" />
		<tag k="name:se" v="Lallasjohka" />
		<tag k="ssr:stedsnr" v="357019" />
		<tag k="waterway" v="stream" />
	</node>
	<node lat="69.524857875304" lon="20.771412000768272" id="-99178">
		<tag k="name" v="Millojohka - Møllelva" />
		<tag k="name:no" v="Møllelva" />
		<tag k="name:se" v="Millojohka" />
		<tag k="ssr:stedsnr" v="477441" />
		<tag k="waterway" v="stream" />
	</node>
	<node lat="69.58021111529962" lon="20.47248886869866" id="-99186">
		<tag k="name" v="Galbmaádja" />
		<tag k="name:se" v="Galbmaádja" />
		<tag k="natural" v="spring" />
		<tag k="ssr:stedsnr" v="478079" />
	</node>
	<node lat="69.41312499819185" lon="20.572552757479244" id="-99199">
		<tag k="name" v="Antasnjárga" />
		<tag k="name:se" v="Antasnjárga" />
		<tag k="natural" v="cape" />
		<tag k="ssr:stedsnr" v="478916" />
	</node>
	<node lat="69.38144166320794" lon="20.56641109540923" id="-99200">
		<tag k="name" v="Grønnhøydenelva" />
		<tag k="ssr:stedsnr" v="478924" />
		<tag k="waterway" v="stream" />
	</node>
	<node lat="69.65322777862104" lon="20.47848609653006" id="-99203">
		<tag k="name" v="Mølnelva" />
		<tag k="ssr:stedsnr" v="478946" />
		<tag k="waterway" v="stream" />
	</node>
	<node lat="69.53429999722296" lon="20.774408308372536" id="-99206">
		<tag k="name" v="Nieidajohka - Trollvikelva" />
		<tag k="name:no" v="Trollvikelva" />
		<tag k="name:se" v="Nieidajohka" />
		<tag k="ssr:stedsnr" v="382613" />
		<tag k="waterway" v="river" />
	</node>
	<node lat="69.49570000042308" lon="20.51731387067383" id="-99230">
		<tag k="name" v="Gáhkkorjávri" />
		<tag k="name:se" v="Gáhkkorjávri" />
		<tag k="natural" v="water" />
		<tag k="ssr:stedsnr" v="417208" />
	</node>
	<node lat="69.46747500125241" lon="20.53248609205857" id="-99233">
		<tag k="name" v="Váddjafielbmá" />
		<tag k="name:se" v="Váddjafielbmá" />
		<tag k="ssr:stedsnr" v="417192" />
		<tag k="waterway" v="stream" />
	</node>
	<node lat="69.53725000286254" lon="20.480302765349027" id="-99265">
		<tag k="name" v="Steinvatnet" />
		<tag k="natural" v="water" />
		<tag k="ssr:stedsnr" v="443602" />
	</node>
	<node lat="69.46927500181965" lon="21.050349980526132" id="-99267">
		<tag k="name" v="Boatkajávrrit" />
		<tag k="name:se" v="Boatkajávrrit" />
		<tag k="natural" v="water" />
		<tag k="ssr:stedsnr" v="443699" />
		<tag k="water" v="lake" />
	</node>
	<node lat="69.50850278132509" lon="20.52544720911029" id="-99279">
		<tag k="name" v="Sáttosavu" />
		<tag k="name:se" v="Sáttosavu" />
		<tag k="natural" v="water" />
		<tag k="ssr:stedsnr" v="478063" />
		<tag k="water" v="lake" />
	</node>
	<node lat="69.49836667114495" lon="20.51809998564297" id="-99280">
		<tag k="name" v="Báhppasavu" />
		<tag k="name:se" v="Báhppasavu" />
		<tag k="natural" v="water" />
		<tag k="ssr:stedsnr" v="478068" />
		<tag k="water" v="lake" />
	</node>
	<node lat="69.60244722476561" lon="20.54477219394045" id="-99294">
		<tag k="name" v="Elveholmen" />
		<tag k="place" v="islet" />
		<tag k="ssr:stedsnr" v="478960" />
	</node>
	<node lat="69.45800833052165" lon="20.506674987777856" id="-99305">
		<tag k="name" v="Váddásjohka" />
		<tag k="name:se" v="Váddásjohka" />
		<tag k="ssr:stedsnr" v="504608" />
		<tag k="waterway" v="stream" />
	</node>
	<node lat="69.66571111068875" lon="20.48766942727822" id="-99308">
		<tag k="name" v="Olderelva" />
		<tag k="ssr:stedsnr" v="504579" />
		<tag k="waterway" v="stream" />
	</node>
	<node lat="69.39358333127207" lon="20.861130521667864" id="-99314">
		<tag k="name" v="Moskkuráššajohka" />
		<tag k="name:se" v="Moskkuráššajohka" />
		<tag k="ssr:stedsnr" v="686520" />
		<tag k="waterway" v="stream" />
	</node>
	<node lat="69.3601249993829" lon="20.576855534308326" id="-99315">
		<tag k="name" v="Fávrrosvárjohka" />
		<tag k="name:se" v="Fávrrosvárjohka" />
		<tag k="ssr:stedsnr" v="686571" />
		<tag k="waterway" v="stream" />
	</node>
	<node lat="69.33534999827718" lon="21.15670831007098" id="-99320">
		<tag k="name" v="Lágosjohka" />
		<tag k="name:se" v="Lágosjohka" />
		<tag k="ssr:stedsnr" v="686672" />
		<tag k="waterway" v="stream" />
	</node>
	<node lat="69.49478055852148" lon="20.86338053079618" id="-99325">
		<tag k="name" v="Gáldojohka" />
		<tag k="name:se" v="Gáldojohka" />
		<tag k="ssr:stedsnr" v="538520" />
		<tag k="waterway" v="stream" />
	</node>
	<node lat="69.41270277743527" lon="20.56947775770075" id="-99333">
		<tag k="name" v="Uhcanjárga" />
		<tag k="name:se" v="Uhcanjárga" />
		<tag k="natural" v="cape" />
		<tag k="ssr:stedsnr" v="539905" />
	</node>
	<node lat="69.48287778101948" lon="20.444874995840372" id="-99360">
		<tag k="name" v="Doaresjohka - Tverrelva" />
		<tag k="name:no" v="Tverrelva" />
		<tag k="name:se" v="Doaresjohka" />
		<tag k="ssr:stedsnr" v="564573" />
		<tag k="waterway" v="stream" />
	</node>
	<node lat="69.50692778104448" lon="20.688947193943363" id="-99362">
		<tag k="name" v="Boađđojohka" />
		<tag k="name:no" v="Båelva" />
		<tag k="name:se" v="Boađđojohka" />
		<tag k="ssr:stedsnr" v="564703" />
		<tag k="waterway" v="stream" />
	</node>
	<node lat="69.48445277638908" lon="20.90564720752212" id="-99364">
		<tag k="name" v="Ruovddášjohka" />
		<tag k="name:se" v="Ruovddášjohka" />
		<tag k="ssr:stedsnr" v="564616" />
		<tag k="waterway" v="stream" />
	</node>
	<node lat="69.51870277560127" lon="20.520611087220054" id="-99378">
		<tag k="loc_name:se" v="Gárjjusnjárga" />
		<tag k="name" v="Gárjelnjárga" />
		<tag k="name:se" v="Gárjelnjárga" />
		<tag k="natural" v="cape" />
		<tag k="ssr:stedsnr" v="599056" />
	</node>
	<node lat="69.49041389210775" lon="20.516052770628168" id="-99382">
		<tag k="name" v="Gihcenjárga" />
		<tag k="name:se" v="Gihcenjárga" />
		<tag k="natural" v="cape" />
		<tag k="ssr:stedsnr" v="599148" />
	</node>
	<node lat="69.4916638877947" lon="20.533366638350515" id="-99383">
		<tag k="name" v="Golgi" />
		<tag k="name:se" v="Golgi" />
		<tag k="natural" v="spring" />
		<tag k="ssr:stedsnr" v="599149" />
	</node>
	<node lat="69.36832500184647" lon="21.132308315168046" id="-99405">
		<tag k="name" v="Vuolimus Áhkkejávri" />
		<tag k="name:se" v="Vuolimus Áhkkejávri" />
		<tag k="natural" v="water" />
		<tag k="old_name:se" v="Áhkkejávri, vuolimus" />
		<tag k="ssr:stedsnr" v="624617" />
		<tag k="water" v="lake" />
	</node>
	<node lat="69.43165833451373" lon="20.907547206140965" id="-99407">
		<tag k="name" v="Siskkit Boršojávri" />
		<tag k="name:se" v="Siskkit Boršojávri" />
		<tag k="natural" v="water" />
		<tag k="old_name:se" v="Boršojávri, siskkit" />
		<tag k="ssr:stedsnr" v="625514" />
	</node>
	<node lat="69.29318055900876" lon="21.091638861269654" id="-99408">
		<tag k="name" v="Márfejávri" />
		<tag k="name:se" v="Márfejávri" />
		<tag k="natural" v="water" />
		<tag k="ssr:stedsnr" v="625653" />
		<tag k="water" v="lake" />
	</node>
	<node lat="69.52321389016502" lon="20.47613885858299" id="-99413">
		<tag k="name" v="Doaresjohka - Tverrelva" />
		<tag k="name:no" v="Tverrelva" />
		<tag k="name:se" v="Doaresjohka" />
		<tag k="ssr:stedsnr" v="626462" />
		<tag k="waterway" v="stream" />
	</node>
	<node lat="69.52912222169519" lon="20.517047195944144" id="-99425">
		<tag k="name" v="Fielejohka" />
		<tag k="name:se" v="Fielejohka" />
		<tag k="ssr:stedsnr" v="660106" />
		<tag k="waterway" v="stream" />
	</node>
	<node lat="69.60417221844205" lon="20.5567444253619" id="-99437">
		<tag k="name" v="Savvon" />
		<tag k="name:se" v="Savvon" />
		<tag k="natural" v="water" />
		<tag k="ssr:stedsnr" v="660700" />
		<tag k="water" v="lake" />
	</node>
	<node lat="69.44538055575055" lon="20.530083307557206" id="-99449">
		<tag k="name" v="Dimbbarjohka - Tømmerelva" />
		<tag k="name:no" v="Tømmerelva" />
		<tag k="name:se" v="Dimbbarjohka" />
		<tag k="ssr:stedsnr" v="686603" />
		<tag k="waterway" v="stream" />
	</node>
	<node lat="69.60273055148423" lon="20.543841653815225" id="-99455">
		<tag k="name" v="Mølleholmen" />
		<tag k="place" v="islet" />
		<tag k="ssr:stedsnr" v="903957" />
	</node>
	<node lat="69.58728333426184" lon="20.577391649040916" id="-99464">
		<tag k="name" v="Lássejohka" />
		<tag k="name:se" v="Lássejohka" />
		<tag k="ssr:stedsnr" v="721670" />
		<tag k="waterway" v="stream" />
	</node>
	<node lat="69.49239166695934" lon="20.520458321393264" id="-99486">
		<tag k="name" v="Guhkesnjárga" />
		<tag k="name:se" v="Guhkesnjárga" />
		<tag k="natural" v="cape" />
		<tag k="ssr:stedsnr" v="903191" />
	</node>
	<node lat="69.4391388940369" lon="20.959127751511527" id="-99490">
		<tag k="name" v="Rušenjárga" />
		<tag k="name:se" v="Rušenjárga" />
		<tag k="natural" v="cape" />
		<tag k="ssr:stedsnr" v="903431" />
	</node>
	<node lat="69.44008055249407" lon="20.95305275380171" id="-99491">
		<tag k="name" v="Hánskkesuolu" />
		<tag k="name:se" v="Hánskkesuolu" />
		<tag k="place" v="islet" />
		<tag k="ssr:stedsnr" v="903432" />
	</node>
	<node lat="69.5248972195736" lon="20.543144423971853" id="-99505">
		<tag k="name" v="Sommerelva" />
		<tag k="ssr:stedsnr" v="904123" />
		<tag k="waterway" v="stream" />
	</node>
	<node lat="69.50925833597263" lon="20.526352756234466" id="-99507">
		<tag k="name" v="Gieddenjárga" />
		<tag k="name:se" v="Gieddenjárga" />
		<tag k="natural" v="cape" />
		<tag k="ssr:stedsnr" v="904134" />
	</node>
	<node lat="69.46070555571465" lon="20.924941648185534" id="-99515">
		<tag k="name" v="Uvresuolu" />
		<tag k="name:se" v="Uvresuolu" />
		<tag k="place" v="islet" />
		<tag k="ssr:stedsnr" v="904349" />
	</node>
	<node lat="69.54457778277946" lon="20.646127747957205" id="-99527">
		<tag k="name" v="Bjerkelielva" />
		<tag k="ssr:stedsnr" v="904794" />
		<tag k="waterway" v="stream" />
	</node>
	<node lat="69.40483055468539" lon="20.562044429690765" id="-99529">
		<tag k="name" v="Njiccennjárga" />
		<tag k="name:se" v="Njiccennjárga" />
		<tag k="natural" v="cape" />
		<tag k="ssr:stedsnr" v="904929" />
	</node>
	<node lat="69.38052500402065" lon="20.576455531324573" id="-99538">
		<tag k="name" v="Skáidi" />
		<tag k="name:se" v="Skáidi" />
		<tag k="natural" v="cape" />
		<tag k="ssr:stedsnr" v="904937" />
	</node>
	<node lat="69.75386944041641" lon="20.53198609589291" id="-99563">
		<tag k="name" v="Lille leirvågelva" />
		<tag k="ssr:stedsnr" v="781918" />
		<tag k="waterway" v="stream" />
	</node>
	<node lat="69.75320277888966" lon="20.527419434671014" id="-99564">
		<tag k="name" v="Leirvågelva" />
		<tag k="ssr:stedsnr" v="781922" />
		<tag k="waterway" v="stream" />
	</node>
	<node lat="69.71906389308633" lon="20.53784997848027" id="-99620">
		<tag k="name" v="Engeneselva" />
		<tag k="ssr:stedsnr" v="843923" />
		<tag k="waterway" v="stream" />
	</node>
	<node lat="69.30060278047485" lon="20.8623749888482" id="-99630">
		<tag k="name" v="Ráššanibbajávri" />
		<tag k="name:se" v="Ráššanibbajávri" />
		<tag k="natural" v="water" />
		<tag k="ssr:stedsnr" v="928496" />
	</node>
	<node lat="69.28866944344938" lon="20.940252741610475" id="-99632">
		<tag k="name" v="Bajimus Smuolkojávri" />
		<tag k="name:se" v="Bajimus Smuolkojávri" />
		<tag k="natural" v="water" />
		<tag k="old_name:se" v="Smuolkojávrrit, bajimus" />
		<tag k="ssr:stedsnr" v="928669" />
		<tag k="water" v="lake" />
	</node>
	<node lat="69.2523499996897" lon="21.064199961269548" id="-99644">
		<tag k="name" v="Guovddesjohka" />
		<tag k="name:se" v="Guovddesjohka" />
		<tag k="ssr:stedsnr" v="929628" />
		<tag k="waterway" v="stream" />
	</node>
	<node lat="69.33158611340366" lon="20.89171665403998" id="-99648">
		<tag k="name" v="Duolbajohka" />
		<tag k="name:se" v="Duolbajohka" />
		<tag k="ssr:stedsnr" v="929526" />
		<tag k="waterway" v="river" />
	</node>
	<node lat="69.32317777921442" lon="20.741958305081248" id="-99649">
		<tag k="name" v="Olmmáijávri" />
		<tag k="name:se" v="Olmmáijávri" />
		<tag k="natural" v="water" />
		<tag k="ssr:stedsnr" v="929527" />
		<tag k="water" v="lake" />
	</node>
	<node lat="69.45139999890047" lon="20.97880553068018" id="-99655">
		<tag k="name" v="Hánskejohka" />
		<tag k="name:se" v="Hánskejohka" />
		<tag k="ssr:stedsnr" v="868522" />
		<tag k="waterway" v="stream" />
	</node>
	<node lat="69.49245413211949" lon="20.813611383432285" id="-99668">
		<tag k="loc_name:se" v="Langåasajorbmi" />
		<tag k="name" v="Langåsajorpmit" />
		<tag k="name:se" v="Langåsajorpmit" />
		<tag k="place" v="locality" />
		<tag k="ssr:stedsnr" v="902621" />
	</node>
	<node lat="69.55953888611283" lon="20.52251942736824" id="-99670">
		<tag k="loc_name" v="Davvegietjohka" />
		<tag k="name" v="Yttergårdselva" />
		<tag k="ssr:stedsnr" v="903009" />
		<tag k="waterway" v="stream" />
	</node>
	<node lat="69.54921666553473" lon="20.522108302350468" id="-99672">
		<tag k="name" v="Duvdnejohka" />
		<tag k="name:se" v="Duvdnejohka" />
		<tag k="ssr:stedsnr" v="904001" />
		<tag k="waterway" v="stream" />
	</node>
	<node lat="69.4288888940891" lon="20.767033310339514" id="-99687">
		<tag k="name" v="Čáhppesjávri" />
		<tag k="name:se" v="Čáhppesjávri" />
		<tag k="natural" v="water" />
		<tag k="ssr:stedsnr" v="929506" />
		<tag k="water" v="lake" />
	</node>
	<node lat="69.5629611116616" lon="20.44325831697739" id="-99694">
		<tag k="name" v="Latnjejohka - Bjørkelva" />
		<tag k="name:no" v="Bjørkelva" />
		<tag k="name:se" v="Latnjejohka" />
		<tag k="ssr:stedsnr" v="929649" />
		<tag k="waterway" v="stream" />
	</node>
	<node lat="69.73510833523282" lon="20.525002750758727" id="-99708">
		<tag k="name" v="Mølnelva" />
		<tag k="ssr:stedsnr" v="963909" />
		<tag k="waterway" v="stream" />
	</node>
	<node lat="69.52184999719903" lon="20.523077765613287" id="-99714">
		<tag k="name" v="Millosavu" />
		<tag k="name:se" v="Millosavu" />
		<tag k="natural" v="water" />
		<tag k="ssr:stedsnr" v="964133" />
		<tag k="water" v="lake" />
	</node>
	<node lat="69.51112222345759" lon="20.67499441632232" id="-99721">
		<tag k="name" v="Uhcanjirranjohka" />
		<tag k="name:se" v="Uhcanjirranjohka" />
		<tag k="ssr:stedsnr" v="964742" />
		<tag k="waterway" v="stream" />
	</node>
	<node lat="69.31090000081447" lon="21.079469406127966" id="-99748">
		<tag k="name" v="Márfejohka" />
		<tag k="name:se" v="Márfejohka" />
		<tag k="ssr:stedsnr" v="18622" />
		<tag k="waterway" v="river" />
	</node>
	<node lat="69.48195000130424" lon="20.39902777044368" id="-99755">
		<tag k="name" v="Hengelva" />
		<tag k="ssr:stedsnr" v="19287" />
		<tag k="waterway" v="stream" />
	</node>
	<node lat="69.65539166728406" lon="20.48278886223282" id="-99760">
		<tag k="name" v="Šleađđojohka - Slædjokkelva" />
		<tag k="name:no" v="Slædjokkelva" />
		<tag k="name:se" v="Šleađđojohka" />
		<tag k="ssr:stedsnr" v="19560" />
		<tag k="waterway" v="stream" />
	</node>
	<node lat="69.53884444771252" lon="20.52987497831739" id="-99783">
		<tag k="name" v="Guordas" />
		<tag k="name:se" v="Guordas" />
		<tag k="natural" v="bay" />
		<tag k="ssr:stedsnr" v="53164" />
	</node>
	<node lat="69.47523333834798" lon="20.526030532106663" id="-99784">
		<tag k="name" v="Niibefielbmá" />
		<tag k="name:se" v="Niibefielbmá" />
		<tag k="ssr:stedsnr" v="53196" />
		<tag k="waterway" v="stream" />
	</node>
	<node lat="69.31728333202322" lon="20.973058306959587" id="-99823">
		<tag k="name" v="Smuolkojohka" />
		<tag k="name:se" v="Smuolkojohka" />
		<tag k="ssr:stedsnr" v="79524" />
		<tag k="waterway" v="river" />
	</node>
	<node lat="69.33403610986113" lon="20.98497496868933" id="-99824">
		<tag k="name" v="Goddejohka" />
		<tag k="name:se" v="Goddejohka" />
		<tag k="ssr:stedsnr" v="79530" />
		<tag k="waterway" v="river" />
	</node>
	<node lat="69.32571110908172" lon="20.79358885704505" id="-99825">
		<tag k="name" v="Duolbajávrrit" />
		<tag k="name:se" v="Duolbajávrrit" />
		<tag k="natural" v="water" />
		<tag k="ssr:stedsnr" v="79535" />
	</node>
	<node lat="69.46575000250601" lon="20.64535274623099" id="-99831">
		<tag k="name" v="Muohtavátjohka" />
		<tag k="name:se" v="Muohtavátjohka" />
		<tag k="ssr:stedsnr" v="79572" />
		<tag k="waterway" v="river" />
	</node>
	<node lat="69.47120833898487" lon="20.956408299240923" id="-99833">
		<tag k="alt_name:se" v="Nuorejohka" />
		<tag k="name" v="Njuorjojohka - Kobbelva" />
		<tag k="name:no" v="Kobbelva" />
		<tag k="name:se" v="Njuorjojohka" />
		<tag k="ssr:stedsnr" v="79584" />
		<tag k="waterway" v="stream" />
	</node>
	<node lat="69.47618889273063" lon="20.46983330887446" id="-99834">
		<tag k="name" v="Áhkávátjohka" />
		<tag k="name:se" v="Áhkávátjohka" />
		<tag k="ssr:stedsnr" v="79589" />
		<tag k="waterway" v="river" />
	</node>
	<node lat="69.27432499787153" lon="21.05881664268668" id="-99835">
		<tag k="name" v="Jeavasjávri" />
		<tag k="name:se" v="Jeavasjávri" />
		<tag k="natural" v="water" />
		<tag k="ssr:stedsnr" v="79623" />
		<tag k="water" v="lake" />
	</node>
	<node lat="69.72295833600408" lon="20.535152758922735" id="-99843">
		<tag k="fixme" v="multiple name tags, choose one and add the other to alt_name" />
		<tag k="name" v="Sandforelva;Samferelva" />
		<tag k="ssr:stedsnr" v="80621" />
		<tag k="waterway" v="stream" />
	</node>
	<node lat="69.48556111407846" lon="20.535647207430284" id="-99851">
		<tag k="name" v="Geađgejohka" />
		<tag k="name:se" v="Geađgejohka" />
		<tag k="ssr:stedsnr" v="114151" />
		<tag k="waterway" v="stream" />
	</node>
	<node lat="69.42103611420269" lon="20.971730526718876" id="-99865">
		<tag k="name" v="Stálljasavvon" />
		<tag k="name:se" v="Stálljasavvon" />
		<tag k="natural" v="water" />
		<tag k="ssr:stedsnr" v="115296" />
		<tag k="water" v="lake" />
	</node>
	<node lat="69.51169722084009" lon="20.67063331611043" id="-99867">
		<tag k="name" v="Stuoranjirranjohka" />
		<tag k="name:se" v="Stuoranjirranjohka" />
		<tag k="ssr:stedsnr" v="115742" />
		<tag k="waterway" v="stream" />
	</node>
	<node lat="69.37467500122975" lon="20.96625275175596" id="-99895">
		<tag k="name" v="Unna-Goddejohka" />
		<tag k="name:se" v="Unna-Goddejohka" />
		<tag k="ssr:stedsnr" v="140478" />
		<tag k="waterway" v="stream" />
	</node>
	<node lat="69.36026666521673" lon="20.96412496229098" id="-99896">
		<tag k="name" v="Roannajávri" />
		<tag k="name:se" v="Roannajávri" />
		<tag k="natural" v="water" />
		<tag k="ssr:stedsnr" v="140541" />
	</node>
	<node lat="69.49549444351908" lon="20.787069427918894" id="-99899">
		<tag k="loc_name:se" v="Siskkit Iisajohka" />
		<tag k="name" v="Jiekŋajohka" />
		<tag k="name:no" v="Indre Iselva" />
		<tag k="name:se" v="Jiekŋajohka" />
		<tag k="ssr:stedsnr" v="140555" />
		<tag k="waterway" v="stream" />
	</node>
	<node lat="69.48250833429859" lon="20.51699721337687" id="-99919">
		<tag k="name" v="Liigesuolu" />
		<tag k="name:se" v="Liigesuolu" />
		<tag k="place" v="islet" />
		<tag k="ssr:stedsnr" v="174185" />
	</node>
	<node lat="69.52010277837738" lon="20.527724974258597" id="-99925">
		<tag k="name" v="Láiresavu" />
		<tag k="name:se" v="Láiresavu" />
		<tag k="natural" v="water" />
		<tag k="ssr:stedsnr" v="175092" />
		<tag k="water" v="lake" />
	</node>
	<node lat="69.51715555582884" lon="20.525666647782316" id="-99926">
		<tag k="name" v="Bieragieddnjárga" />
		<tag k="name:se" v="Bieragieddnjárga" />
		<tag k="natural" v="cape" />
		<tag k="ssr:stedsnr" v="175098" />
	</node>
	<node lat="69.4621583293228" lon="20.95484442689889" id="-99940">
		<tag k="name" v="Golgibáktijohka" />
		<tag k="name:se" v="Golgibáktijohka" />
		<tag k="ssr:stedsnr" v="175350" />
		<tag k="waterway" v="stream" />
	</node>
	<node lat="69.4164499995125" lon="20.623911097348195" id="-99977">
		<tag k="name" v="Ápmelašjohka" />
		<tag k="name:se" v="Ápmelašjohka" />
		<tag k="ssr:stedsnr" v="200541" />
		<tag k="waterway" v="stream" />
	</node>
	<node lat="69.35079444811394" lon="21.12243886073581" id="-99981">
		<tag k="name" v="Stuoranjárga" />
		<tag k="name:se" v="Stuoranjárga" />
		<tag k="natural" v="cape" />
		<tag k="ssr:stedsnr" v="200665" />
	</node>
	<node lat="69.34172778007718" lon="21.073780529764715" id="-99982">
		<tag k="name" v="Sinaidmohkki" />
		<tag k="name:se" v="Sinaidmohkki" />
		<tag k="natural" v="bay" />
		<tag k="ssr:stedsnr" v="200669" />
	</node>
	<node lat="69.3786249983077" lon="20.588052762092758" id="-99985">
		<tag k="name" v="Olmmáivátskáidi" />
		<tag k="name:se" v="Olmmáivátskáidi" />
		<tag k="natural" v="cape" />
		<tag k="ssr:stedsnr" v="201473" />
	</node>
	<node lat="69.46661944769521" lon="20.695844417798767" id="-99989">
		<tag k="name" v="Bievlajávri" />
		<tag k="name:se" v="Bievlajávri" />
		<tag k="natural" v="water" />
		<tag k="ssr:stedsnr" v="201566" />
		<tag k="water" v="lake" />
	</node>
	<node lat="69.481119441401" lon="20.83734164497626" id="-99990">
		<tag k="alt_name:no" v="Okselva" />
		<tag k="name" v="Vuoksájohka - Okseelva" />
		<tag k="name:no" v="Okseelva" />
		<tag k="name:se" v="Vuoksájohka" />
		<tag k="ssr:stedsnr" v="201570" />
		<tag k="waterway" v="stream" />
	</node>
	<node lat="69.51535000112118" lon="20.917219422941653" id="-99998">
		<tag k="name" v="Badjánanjohka - Røyselva" />
		<tag k="name:no" v="Røyselva" />
		<tag k="name:se" v="Badjánanjohka" />
		<tag k="ssr:stedsnr" v="201722" />
		<tag k="waterway" v="stream" />
	</node>
	<node lat="69.47285277867637" lon="20.937061088665928" id="-100011">
		<tag k="name" v="Skáidi" />
		<tag k="name:se" v="Skáidi" />
		<tag k="natural" v="cape" />
		<tag k="ssr:stedsnr" v="297260" />
	</node>
	<node lat="69.52505278187755" lon="20.75987776150231" id="-100013">
		<tag k="name" v="Alvejohka" />
		<tag k="name:se" v="Alvejohka" />
		<tag k="ssr:stedsnr" v="295431" />
		<tag k="waterway" v="stream" />
	</node>
	<node lat="69.52969999982909" lon="20.75495831955758" id="-100016">
		<tag k="name" v="Geađgejohka" />
		<tag k="name:se" v="Geađgejohka" />
		<tag k="ssr:stedsnr" v="295571" />
		<tag k="waterway" v="stream" />
	</node>
	<node lat="69.57001666777596" lon="20.504419416174308" id="-100021">
		<tag k="name" v="Guorttesjohka" />
		<tag k="name:se" v="Guorttesjohka" />
		<tag k="ssr:stedsnr" v="296064" />
		<tag k="waterway" v="stream" />
	</node>
	<node lat="69.48577222556173" lon="20.513727773154358" id="-100023">
		<tag k="name" v="Mohkijávri" />
		<tag k="name:se" v="Mohkijávri" />
		<tag k="natural" v="water" />
		<tag k="ssr:stedsnr" v="296129" />
	</node>
	<node lat="69.48835833597055" lon="20.88554164391658" id="-100029">
		<tag k="name" v="Heaikajohka" />
		<tag k="name:se" v="Heaikajohka" />
		<tag k="ssr:stedsnr" v="297284" />
		<tag k="waterway" v="stream" />
	</node>
	<node lat="69.35938611634033" lon="21.10355553097729" id="-100057">
		<tag k="name" v="Julaidanjávri" />
		<tag k="name:se" v="Julaidanjávri" />
		<tag k="natural" v="water" />
		<tag k="ssr:stedsnr" v="321598" />
	</node>
	<node lat="69.53411388998549" lon="20.52763610536005" id="-100059">
		<tag k="alt_name:se" v="Olmmáivátjohka" />
		<tag k="name" v="Olmmáiváteatnu" />
		<tag k="name:no" v="Manndalselva" />
		<tag k="name:se" v="Olmmáiváteatnu" />
		<tag k="ssr:stedsnr" v="322592" />
		<tag k="waterway" v="river" />
	</node>
	<node lat="69.4220861142097" lon="20.97812776550004" id="-100061">
		<tag k="name" v="Goikegorsa - Tørrfossen" />
		<tag k="name:no" v="Tørrfossen" />
		<tag k="name:se" v="Goikegorsa" />
		<tag k="natural" v="waterfall" />
		<tag k="ssr:stedsnr" v="322518" />
	</node>
	<node lat="69.3603083377511" lon="20.915361083427666" id="-100062">
		<tag k="name" v="Lávvojávri" />
		<tag k="name:se" v="Lávvojávri" />
		<tag k="natural" v="water" />
		<tag k="ssr:stedsnr" v="322550" />
	</node>
	<node lat="69.39024444378174" lon="21.12656107161257" id="-100069">
		<tag k="name" v="Áhkkejohka" />
		<tag k="name:se" v="Áhkkejohka" />
		<tag k="ssr:stedsnr" v="322650" />
		<tag k="waterway" v="stream" />
	</node>
	<node lat="69.5361972266471" lon="20.533086098046745" id="-100080">
		<tag k="name" v="Duolbanjohka" />
		<tag k="name:se" v="Duolbanjohka" />
		<tag k="ssr:stedsnr" v="356153" />
		<tag k="waterway" v="stream" />
	</node>
	<node lat="69.44967222539344" lon="20.919133314323172" id="-100135">
		<tag k="fixme" v="multiple name tags, choose one and add the other to alt_name" />
		<tag k="name" v="Boršojohka;Boršu" />
		<tag k="name:se" v="Boršojohka;Boršu" />
		<tag k="ssr:stedsnr" v="382523" />
		<tag k="waterway" v="stream" />
	</node>
	<node lat="69.45764999844909" lon="20.72521941702808" id="-100143">
		<tag k="name" v="Moldojohka" />
		<tag k="name:se" v="Moldojohka" />
		<tag k="ssr:stedsnr" v="382583" />
		<tag k="waterway" v="stream" />
	</node>
	<node lat="69.33447500540107" lon="21.090636076022584" id="-100144">
		<tag k="name" v="Márfeluokta" />
		<tag k="name:se" v="Márfeluokta" />
		<tag k="natural" v="bay" />
		<tag k="ssr:stedsnr" v="382646" />
	</node>
	<node lat="69.5042833313158" lon="20.75949720992744" id="-100146">
		<tag k="alt_name:no" v="Melkeelva" />
		<tag k="name" v="Mielkejohka - Melkelva" />
		<tag k="name:no" v="Melkelva" />
		<tag k="name:se" v="Mielkejohka" />
		<tag k="ssr:stedsnr" v="382683" />
		<tag k="waterway" v="stream" />
	</node>
	<node lat="69.52459707586128" lon="20.524400713840464" id="-100160">
		<tag k="name" v="Fossen" />
		<tag k="name:no" v="Fossen" />
		<tag k="name:se" v="Gorži" />
		<tag k="natural" v="waterfall" />
		<tag k="ssr:stedsnr" v="403994" />
	</node>
	<node lat="69.50123611145418" lon="20.812699972957656" id="-100163">
		<tag k="name" v="Ruovdeája" />
		<tag k="name:se" v="Ruovdeája" />
		<tag k="ssr:stedsnr" v="417516" />
		<tag k="waterway" v="stream" />
	</node>
	<node lat="69.50719722054812" lon="20.52680830154654" id="-100177">
		<tag k="name" v="Čáhcenjárga" />
		<tag k="name:se" v="Čáhcenjárga" />
		<tag k="natural" v="cape" />
		<tag k="ssr:stedsnr" v="418064" />
	</node>
	<node lat="69.45923333512282" lon="20.921983317556027" id="-100186">
		<tag k="name" v="Stuora-eatnu" />
		<tag k="name:se" v="Stuora-eatnu" />
		<tag k="ssr:stedsnr" v="418333" />
		<tag k="waterway" v="river" />
	</node>
	<node lat="69.44108333840234" lon="20.877380527757914" id="-100226">
		<tag k="name" v="Boršojávri" />
		<tag k="name:se" v="Boršojávri" />
		<tag k="natural" v="water" />
		<tag k="ssr:stedsnr" v="443527" />
	</node>
	<node lat="69.3414194470543" lon="20.637511095323564" id="-100247">
		<tag k="name" v="Čazajávri" />
		<tag k="name:se" v="Čazajávri" />
		<tag k="natural" v="water" />
		<tag k="ssr:stedsnr" v="444539" />
	</node>
	<node lat="69.39417499904728" lon="20.53506110000146" id="-100253">
		<tag k="name" v="Čearpmatjohka" />
		<tag k="name:se" v="Čearpmatjohka" />
		<tag k="ssr:stedsnr" v="504520" />
		<tag k="waterway" v="stream" />
	</node>
	<node lat="69.34297778214157" lon="20.94145276429736" id="-100256">
		<tag k="name" v="Goddejávri" />
		<tag k="name:se" v="Goddejávri" />
		<tag k="natural" v="water" />
		<tag k="ssr:stedsnr" v="504562" />
		<tag k="water" v="lake" />
	</node>
	<node lat="69.35460555835768" lon="20.949341648045035" id="-100257">
		<tag k="name" v="Unna Goddejávri" />
		<tag k="name:se" v="Unna Goddejávri" />
		<tag k="natural" v="water" />
		<tag k="old_name:se" v="Goddejávri, unna" />
		<tag k="ssr:stedsnr" v="504563" />
	</node>
	<node lat="69.39349444334229" lon="20.966927753286686" id="-100259">
		<tag k="name" v="Magerjohka - Magerelva" />
		<tag k="name:no" v="Magerelva" />
		<tag k="name:se" v="Magerjohka" />
		<tag k="ssr:stedsnr" v="504513" />
		<tag k="waterway" v="river" />
	</node>
	<node lat="69.51960555900946" lon="20.942694429917523" id="-100273">
		<tag k="name" v="Hearrávátskáidi" />
		<tag k="name:se" v="Hearrávátskáidi" />
		<tag k="natural" v="cape" />
		<tag k="ssr:stedsnr" v="504726" />
	</node>
	<node lat="69.50891944485458" lon="20.47134164547488" id="-100274">
		<tag k="name" v="Storelva" />
		<tag k="name:no" v="Storelva" />
		<tag k="name:se" v="Stuorrajohka" />
		<tag k="ssr:stedsnr" v="504729" />
		<tag k="waterway" v="stream" />
	</node>
	<node lat="69.53368333395922" lon="20.531499991391662" id="-100280">
		<tag k="name" v="Čáhcesuolu" />
		<tag k="name:se" v="Čáhcesuolu" />
		<tag k="natural" v="cape" />
		<tag k="ssr:stedsnr" v="538141" />
	</node>
	<node lat="69.52636388829116" lon="20.3796916382829" id="-100281">
		<tag k="name" v="Huppaselva" />
		<tag k="ssr:stedsnr" v="539162" />
		<tag k="waterway" v="stream" />
	</node>
	<node lat="69.49636666783185" lon="20.829883297972557" id="-100285">
		<tag k="name" v="Jeaggejohka" />
		<tag k="name:se" v="Jeaggejohka" />
		<tag k="ssr:stedsnr" v="538621" />
		<tag k="waterway" v="stream" />
	</node>
	<node lat="69.52514167180121" lon="20.527411092140206" id="-100290">
		<tag k="name" v="Nuohttesavu" />
		<tag k="name:se" v="Nuohttesavu" />
		<tag k="natural" v="water" />
		<tag k="ssr:stedsnr" v="539089" />
		<tag k="water" v="lake" />
	</node>
	<node lat="69.50592500042276" lon="20.847697189150956" id="-100296">
		<tag k="name" v="Juopmitája" />
		<tag k="name:se" v="Juopmitája" />
		<tag k="natural" v="spring" />
		<tag k="ssr:stedsnr" v="539409" />
	</node>
	<node lat="69.50819722158607" lon="20.815788862988185" id="-100301">
		<tag k="name" v="Davitájajohka" />
		<tag k="name:se" v="Davitájajohka" />
		<tag k="ssr:stedsnr" v="539445" />
		<tag k="waterway" v="stream" />
	</node>
	<node lat="69.74050555403993" lon="20.545502760800748" id="-100326">
		<tag k="name" v="Storelva" />
		<tag k="ssr:stedsnr" v="564590" />
		<tag k="waterway" v="stream" />
	</node>
	<node lat="69.33707778329406" lon="20.664602748241535" id="-100333">
		<tag k="name" v="Guhkolašjávri - Langvatnet" />
		<tag k="name:no" v="Langvatnet" />
		<tag k="name:se" v="Guhkolašjávri" />
		<tag k="natural" v="water" />
		<tag k="ssr:stedsnr" v="564565" />
	</node>
	<node lat="69.54668333546287" lon="20.812188854907284" id="-100334">
		<tag k="loc_name:se" v="Doaresjohka" />
		<tag k="name" v="Tverrelva" />
		<tag k="name:no" v="Tverrelva" />
		<tag k="ssr:stedsnr" v="564622" />
		<tag k="waterway" v="stream" />
	</node>
	<node lat="69.5427250007708" lon="20.4665499797023" id="-100335">
		<tag k="name" v="Gorsajohka" />
		<tag k="name:se" v="Gorsajohka" />
		<tag k="ssr:stedsnr" v="564627" />
		<tag k="waterway" v="stream" />
	</node>
	<node lat="69.35602500200547" lon="21.151152762148566" id="-100336">
		<tag k="name" v="Julaidanluokta" />
		<tag k="name:se" v="Julaidanluokta" />
		<tag k="natural" v="bay" />
		<tag k="ssr:stedsnr" v="564629" />
	</node>
	<node lat="69.3558194437338" lon="21.114024977762018" id="-100337">
		<tag k="name" v="Stuoraluokta" />
		<tag k="name:se" v="Stuoraluokta" />
		<tag k="natural" v="bay" />
		<tag k="ssr:stedsnr" v="564631" />
	</node>
	<node lat="69.28945000519307" lon="21.12918608564701" id="-100341">
		<tag k="name" v="Bižusjohka" />
		<tag k="name:se" v="Bižusjohka" />
		<tag k="ssr:stedsnr" v="564651" />
		<tag k="waterway" v="river" />
	</node>
	<node lat="69.51529721840892" lon="20.394941647738374" id="-100344">
		<tag k="fixme" v="multiple name tags, choose one and add the other to alt_name" />
		<tag k="name" v="Krokelva;Sandneselva" />
		<tag k="ssr:stedsnr" v="564873" />
		<tag k="waterway" v="stream" />
	</node>
	<node lat="69.53381110856758" lon="20.51299720964035" id="-100366">
		<tag k="name" v="Jorranjohka" />
		<tag k="name:se" v="Jorranjohka" />
		<tag k="ssr:stedsnr" v="599123" />
		<tag k="waterway" v="stream" />
	</node>
	<node lat="69.50891297849658" lon="20.799634291776925" id="-100370">
		<tag k="name" v="Skožžajohka" />
		<tag k="name:se" v="Skožžajohka" />
		<tag k="ssr:stedsnr" v="599497" />
		<tag k="waterway" v="stream" />
	</node>
	<node lat="69.55635278195305" lon="20.62474443025486" id="-100381">
		<tag k="name" v="Guortesjohka" />
		<tag k="name:se" v="Guortesjohka" />
		<tag k="ssr:stedsnr" v="600737" />
		<tag k="waterway" v="stream" />
	</node>
	<node lat="69.37749993726585" lon="21.130161272273757" id="-100391">
		<tag k="name" v="Gaskkamus Áhkkejávri" />
		<tag k="name:se" v="Gaskkamus Áhkkejávri" />
		<tag k="natural" v="water" />
		<tag k="old_name:se" v="Áhkkejávri, gaskkamus" />
		<tag k="ssr:stedsnr" v="625624" />
		<tag k="water" v="lake" />
	</node>
	<node lat="69.4971967612204" lon="20.77901531264476" id="-100395">
		<tag k="loc_name:se" v="Davit Iisajohka;Olggut Iisajohka" />
		<tag k="name" v="Davit Jiekŋajohka" />
		<tag k="name:no" v="Ytre Iselva" />
		<tag k="name:se" v="Davit Jiekŋajohka" />
		<tag k="ssr:stedsnr" v="625564" />
		<tag k="waterway" v="stream" />
	</node>
	<node lat="69.36891388913604" lon="20.789536084926628" id="-100398">
		<tag k="name" v="Viessogielasjávri" />
		<tag k="name:se" v="Viessogielasjávri" />
		<tag k="natural" v="water" />
		<tag k="ssr:stedsnr" v="625543" />
	</node>
	<node lat="69.40702499865272" lon="21.022724963059183" id="-100408">
		<tag k="name" v="Sabasjohka" />
		<tag k="name:se" v="Sabasjohka" />
		<tag k="ssr:stedsnr" v="625745" />
		<tag k="waterway" v="river" />
	</node>
	<node lat="69.55168339223863" lon="20.645929993132228" id="-100412">
		<tag k="name" v="Doaresjohka - Tverrelva" />
		<tag k="name:no" v="Tverrelva" />
		<tag k="name:se" v="Doaresjohka" />
		<tag k="ssr:stedsnr" v="626690" />
		<tag k="waterway" v="stream" />
	</node>
	<node lat="69.60266944070383" lon="20.568883323697793" id="-100425">
		<tag k="name" v="Luopmejohka" />
		<tag k="name:se" v="Luopmejohka" />
		<tag k="ssr:stedsnr" v="660701" />
		<tag k="waterway" v="stream" />
	</node>
	<node lat="69.5139833367161" lon="20.52622220336299" id="-100428">
		<tag k="name" v="Goahtegieddnjárga" />
		<tag k="name:se" v="Goahtegieddnjárga" />
		<tag k="natural" v="cape" />
		<tag k="ssr:stedsnr" v="660116" />
	</node>
	<node lat="69.48992778247411" lon="20.50903054014588" id="-100432">
		<tag k="name" v="Jakobneset" />
		<tag k="natural" v="cape" />
		<tag k="ssr:stedsnr" v="660202" />
	</node>
	<node lat="69.47346666613797" lon="20.889913872112263" id="-100434">
		<tag k="name" v="Rihtaidsuolu" />
		<tag k="name:se" v="Rihtaidsuolu" />
		<tag k="place" v="islet" />
		<tag k="ssr:stedsnr" v="660271" />
	</node>
	<node lat="69.53233055176806" lon="20.529480544457517" id="-100464">
		<tag k="name" v="Buvrisavu" />
		<tag k="name:se" v="Buvrisavu" />
		<tag k="natural" v="water" />
		<tag k="ssr:stedsnr" v="721125" />
		<tag k="water" v="lake" />
	</node>
	<node lat="69.47934444361239" lon="20.52752497125046" id="-100466">
		<tag k="name" v="Guvtesjohka" />
		<tag k="name:se" v="Guvtesjohka" />
		<tag k="ssr:stedsnr" v="721137" />
		<tag k="waterway" v="stream" />
	</node>
	<node lat="69.52231944026963" lon="20.525013876844575" id="-100475">
		<tag k="name" v="Biedenjárga" />
		<tag k="name:se" v="Biedenjárga" />
		<tag k="natural" v="cape" />
		<tag k="ssr:stedsnr" v="721088" />
	</node>
	<node lat="69.49305277584843" lon="20.512949970270448" id="-100479">
		<tag k="name" v="Geassenjárga" />
		<tag k="name:se" v="Geassenjárga" />
		<tag k="natural" v="cape" />
		<tag k="ssr:stedsnr" v="721185" />
	</node>
	<node lat="69.47333333198898" lon="20.89617496682699" id="-100483">
		<tag k="name" v="Guolejohsuolu" />
		<tag k="name:se" v="Guolejohsuolu" />
		<tag k="place" v="islet" />
		<tag k="ssr:stedsnr" v="721243" />
	</node>
	<node lat="69.38132500066614" lon="21.043280528566235" id="-100486">
		<tag k="name" v="Gussagurragorži" />
		<tag k="name:se" v="Gussagurragorži" />
		<tag k="natural" v="waterfall" />
		<tag k="ssr:stedsnr" v="721421" />
	</node>
	<node lat="69.61087222549327" lon="20.643149979038185" id="-100488">
		<tag k="name" v="Hundeneset" />
		<tag k="natural" v="cape" />
		<tag k="ssr:stedsnr" v="721753" />
	</node>
	<node lat="69.51548333444697" lon="20.606997205175986" id="-100494">
		<tag k="name" v="Rássejohka" />
		<tag k="name:se" v="Rássejohka" />
		<tag k="ssr:stedsnr" v="721793" />
		<tag k="waterway" v="stream" />
	</node>
	<node lat="69.4400694447218" lon="20.931005538099605" id="-100517">
		<tag k="alt_name:no" v="Boršo, indre" />
		<tag k="name" v="Siskkit Boršu - Indre Boršo" />
		<tag k="name:no" v="Indre Boršo" />
		<tag k="name:se" v="Siskkit Boršu" />
		<tag k="ssr:stedsnr" v="746528" />
		<tag k="waterway" v="stream" />
	</node>
	<node lat="69.44276111054553" lon="20.95075275233699" id="-100518">
		<tag k="name" v="Oterholmen" />
		<tag k="place" v="islet" />
		<tag k="ssr:stedsnr" v="746529" />
	</node>
	<node lat="69.3925111156843" lon="20.781847199082627" id="-100519">
		<tag k="name" v="Moskkuráššajávri" />
		<tag k="name:se" v="Moskkuráššajávri" />
		<tag k="natural" v="water" />
		<tag k="ssr:stedsnr" v="746514" />
		<tag k="water" v="lake" />
	</node>
	<node lat="69.37853056127173" lon="20.607461082097416" id="-100523">
		<tag k="name" v="Vuopmegeašjohka" />
		<tag k="name:se" v="Vuopmegeašjohka" />
		<tag k="ssr:stedsnr" v="747484" />
		<tag k="waterway" v="stream" />
	</node>
	<node lat="69.73483055297626" lon="20.551561096495025" id="-100527">
		<tag k="name" v="Joelva" />
		<tag k="ssr:stedsnr" v="747597" />
		<tag k="waterway" v="stream" />
	</node>
	<node lat="69.360080555235" lon="20.86119443236722" id="-100528">
		<tag k="name" v="Viessogielasjohka" />
		<tag k="name:se" v="Viessogielasjohka" />
		<tag k="ssr:stedsnr" v="747553" />
		<tag k="waterway" v="stream" />
	</node>
	<node lat="69.55065000381245" lon="20.727199991608632" id="-100532">
		<tag k="name" v="Uhcavákkášjávri - Litledalsvatnet" />
		<tag k="name:no" v="Litledalsvatnet" />
		<tag k="name:se" v="Uhcavákkášjávri" />
		<tag k="natural" v="water" />
		<tag k="ssr:stedsnr" v="747631" />
	</node>
	<node lat="69.39876666650127" lon="21.05305275660673" id="-100534">
		<tag k="name" v="Sabetjohka" />
		<tag k="name:se" v="Sabetjohka" />
		<tag k="ssr:stedsnr" v="747641" />
		<tag k="waterway" v="stream" />
	</node>
	<node lat="69.51250277776757" lon="20.46974998629504" id="-100536">
		<tag k="name" v="Goikejohka - Tørrelva" />
		<tag k="name:no" v="Tørrelva" />
		<tag k="name:se" v="Goikejohka" />
		<tag k="ssr:stedsnr" v="747725" />
		<tag k="waterway" v="stream" />
	</node>
	<node lat="69.52527500307318" lon="20.533477750309423" id="-100550">
		<tag k="name" v="Šnjierral" />
		<tag k="name:se" v="Šnjierral" />
		<tag k="natural" v="water" />
		<tag k="ssr:stedsnr" v="782097" />
		<tag k="water" v="lake" />
	</node>
	<node lat="69.42133055890817" lon="20.56930552632672" id="-100559">
		<tag k="name" v="Buvrresavu" />
		<tag k="name:se" v="Buvrresavu" />
		<tag k="natural" v="water" />
		<tag k="ssr:stedsnr" v="782877" />
		<tag k="water" v="lake" />
	</node>
	<node lat="69.44397777689483" lon="20.556780531323362" id="-100560">
		<tag k="name" v="Áitegállunjárga" />
		<tag k="name:se" v="Áitegállunjárga" />
		<tag k="natural" v="cape" />
		<tag k="ssr:stedsnr" v="782887" />
	</node>
	<node lat="69.5155305545919" lon="20.623613874070045" id="-100563">
		<tag k="name" v="Fossen" />
		<tag k="natural" v="waterfall" />
		<tag k="ssr:stedsnr" v="782846" />
	</node>
	<node lat="69.54448611381464" lon="20.884199979718115" id="-100591">
		<tag k="name" v="Nieidajávri" />
		<tag k="name:se" v="Nieidajávri" />
		<tag k="natural" v="water" />
		<tag k="ssr:stedsnr" v="807612" />
	</node>
	<node lat="69.41746389222689" lon="20.55824442275643" id="-100596">
		<tag k="name" v="Ruovddášjohka" />
		<tag k="name:se" v="Ruovddášjohka" />
		<tag k="ssr:stedsnr" v="807511" />
		<tag k="waterway" v="stream" />
	</node>
	<node lat="69.35231389405341" lon="20.554205535658415" id="-100599">
		<tag k="name" v="Fávrrosvárjávrrit" />
		<tag k="name:se" v="Fávrrosvárjávrrit" />
		<tag k="natural" v="water" />
		<tag k="ssr:stedsnr" v="807549" />
		<tag k="water" v="lake" />
	</node>
	<node lat="69.31645555820782" lon="21.021297196941383" id="-100602">
		<tag k="name" v="Vuolimus Smuolkojávri" />
		<tag k="name:se" v="Vuolimus Smuolkojávri" />
		<tag k="natural" v="water" />
		<tag k="old_name:se" v="Smuolkojávri, vuolimus" />
		<tag k="ssr:stedsnr" v="807661" />
		<tag k="water" v="lake" />
	</node>
	<node lat="69.34713333449298" lon="20.647499971031394" id="-100609">
		<tag k="name" v="Čazajohka" />
		<tag k="name:se" v="Čazajohka" />
		<tag k="ssr:stedsnr" v="808546" />
		<tag k="waterway" v="stream" />
	</node>
	<node lat="69.53219166527761" lon="20.53368608469728" id="-100622">
		<tag k="name" v="Rehkuvdnu" />
		<tag k="name:se" v="Rehkuvdnu" />
		<tag k="natural" v="bay" />
		<tag k="ssr:stedsnr" v="842147" />
	</node>
	<node lat="69.53170000140668" lon="20.537874991288916" id="-100627">
		<tag k="name" v="Guhkesnjárga" />
		<tag k="name:se" v="Guhkesnjárga" />
		<tag k="natural" v="cape" />
		<tag k="ssr:stedsnr" v="842154" />
	</node>
	<node lat="69.37824444207226" lon="21.01808886159047" id="-100628">
		<tag k="name" v="Unna Ruonasjohka" />
		<tag k="name:se" v="Unna Ruonasjohka" />
		<tag k="ssr:stedsnr" v="842444" />
		<tag k="waterway" v="stream" />
	</node>
	<node lat="69.42314722110564" lon="20.56796941684562" id="-100655">
		<tag k="name" v="Ápmelašsavu" />
		<tag k="name:se" v="Ápmelašsavu" />
		<tag k="natural" v="water" />
		<tag k="ssr:stedsnr" v="843906" />
		<tag k="water" v="lake" />
	</node>
	<node lat="69.41905555639391" lon="20.570472212213097" id="-100656">
		<tag k="name" v="Ruovddášnjárga" />
		<tag k="name:se" v="Ruovddášnjárga" />
		<tag k="natural" v="cape" />
		<tag k="ssr:stedsnr" v="843908" />
	</node>
	<node lat="69.49771389154726" lon="20.646088873831975" id="-100680">
		<tag k="alt_name:no" v="Tverrelva, nedre" />
		<tag k="name" v="Doaresjohka - Nedre Tverrelva" />
		<tag k="name:no" v="Nedre Tverrelva" />
		<tag k="name:se" v="Doaresjohka" />
		<tag k="ssr:stedsnr" v="868550" />
		<tag k="waterway" v="stream" />
	</node>
	<node lat="69.4655249988937" lon="20.91228052118787" id="-100684">
		<tag k="name" v="Gáivuoneatnu - Kåfjordelva" />
		<tag k="name:no" v="Kåfjordelva" />
		<tag k="name:se" v="Gáivuoneatnu" />
		<tag k="ssr:stedsnr" v="868566" />
		<tag k="waterway" v="river" />
	</node>
	<node lat="69.47185555536278" lon="20.646919428907502" id="-100685">
		<tag k="alt_name:no" v="Tverrelva, øvre" />
		<tag k="name" v="Bievlačazajohka - Øvre Tverrelva" />
		<tag k="name:no" v="Øvre Tverrelva" />
		<tag k="name:se" v="Bievlačazajohka" />
		<tag k="ssr:stedsnr" v="868568" />
		<tag k="waterway" v="stream" />
	</node>
	<node lat="69.53533055879905" lon="20.49840552706826" id="-100688">
		<tag k="name" v="Geađgejohka - Steinelva" />
		<tag k="name:no" v="Steinelva" />
		<tag k="name:se" v="Geađgejohka" />
		<tag k="ssr:stedsnr" v="868590" />
		<tag k="waterway" v="stream" />
	</node>
	<node lat="69.4770833375499" lon="21.04455553018166" id="-100690">
		<tag k="name" v="Njuorjojohka" />
		<tag k="name:se" v="Njuorjojohka" />
		<tag k="ssr:stedsnr" v="868686" />
		<tag k="waterway" v="river" />
	</node>
	<node lat="69.55203333267545" lon="20.64792776877854" id="-100691">
		<tag k="alt_name:no" v="Ordavatnet" />
		<tag k="name" v="Ordajávri - Årdavatnet" />
		<tag k="name:no" v="Årdavatnet" />
		<tag k="name:se" v="Ordajávri" />
		<tag k="natural" v="water" />
		<tag k="ssr:stedsnr" v="868635" />
	</node>
	<node lat="69.26960833278841" lon="20.971124982956738" id="-100695">
		<tag k="name" v="Njárgajávri" />
		<tag k="name:se" v="Njárgajávri" />
		<tag k="natural" v="water" />
		<tag k="ssr:stedsnr" v="868647" />
	</node>
	<node lat="69.48950278245563" lon="21.149283309094685" id="-100696">
		<tag k="name" v="Bajit Njuorjojávri" />
		<tag k="name:se" v="Bajit Njuorjojávri" />
		<tag k="natural" v="water" />
		<tag k="old_name:se" v="Njuorjojávri, bajit" />
		<tag k="ssr:stedsnr" v="868655" />
		<tag k="water" v="lake" />
	</node>
	<node lat="69.48108055739308" lon="20.513808318803996" id="-100714">
		<tag k="name" v="Suonjonjárga" />
		<tag k="name:se" v="Suonjonjárga" />
		<tag k="natural" v="cape" />
		<tag k="ssr:stedsnr" v="963164" />
	</node>
	<node lat="69.43008333338167" lon="20.96903886743411" id="-100718">
		<tag k="name" v="Leaibenjárga" />
		<tag k="name:se" v="Leaibenjárga" />
		<tag k="natural" v="cape" />
		<tag k="ssr:stedsnr" v="963316" />
	</node>
	<node lat="69.61418888489432" lon="20.496780546582475" id="-100737">
		<tag k="name" v="Møllelva" />
		<tag k="ssr:stedsnr" v="964936" />
		<tag k="waterway" v="stream" />
	</node>
	<node lat="69.60518888685499" lon="20.575699985616552" id="-100738">
		<tag k="name" v="Miellenjárga" />
		<tag k="name:se" v="Miellenjárga" />
		<tag k="natural" v="cape" />
		<tag k="ssr:stedsnr" v="964674" />
	</node>
</osm>
