<?xml version="1.0" encoding="UTF-8"?>
<osm generator="osmapis" version="0.6">
	<node id="-30720" lat="59.8452194445" lon="11.0562472192">
		<tag k="name" v="Paraplymyra" />
		<tag k="natural" v="wetland" />
		<tag k="ssr:date" v="2019-12-27" />
		<tag k="ssr:gruppe" v="våtmark" />
		<tag k="ssr:hovedgruppe" v="markslag" />
		<tag k="ssr:stedsnr" v="691500" />
		<tag k="ssr:type" v="myr" />
	</node>
	<node id="-30719" lat="59.8907666711" lon="11.0423527806">
		<tag k="name" v="Nordre Skurvåstjern" />
		<tag k="natural" v="water" />
		<tag k="ssr:date" v="2019-12-27" />
		<tag k="ssr:gruppe" v="stilleståendeVann" />
		<tag k="ssr:hovedgruppe" v="ferskvann" />
		<tag k="ssr:stedsnr" v="691481" />
		<tag k="ssr:type" v="tjern" />
	</node>
	<node id="-30718" lat="59.8978583303" lon="11.0510305625">
		<tag k="historic" v="shieling" />
		<tag k="name" v="Skovholtseter" />
		<tag k="place" v="locality" />
		<tag k="ssr:date" v="2019-12-27" />
		<tag k="ssr:gruppe" v="dyrkamark" />
		<tag k="ssr:hovedgruppe" v="markslag" />
		<tag k="ssr:stedsnr" v="691395" />
		<tag k="ssr:type" v="setervoll" />
	</node>
	<node id="-30717" lat="59.9013305544" lon="11.0924416581">
		<tag k="name" v="Oppsal" />
		<tag k="place" v="hamlet" />
		<tag k="ssr:date" v="2019-12-27" />
		<tag k="ssr:gruppe" v="bebyggelsesområder" />
		<tag k="ssr:hovedgruppe" v="bebyggelse" />
		<tag k="ssr:stedsnr" v="509711" />
		<tag k="ssr:type" v="grend" />
	</node>
	<node id="-30716" lat="59.9128361097" lon="11.0807444409">
		<tag k="fixme" v="consider natural=peak for the most distinct mountains in the district" />
		<tag k="name" v="Sørliåsen" />
		<tag k="natural" v="hill" />
		<tag k="place" v="locality" />
		<tag k="ssr:date" v="2019-12-27" />
		<tag k="ssr:gruppe" v="høyder" />
		<tag k="ssr:hovedgruppe" v="terreng" />
		<tag k="ssr:stedsnr" v="509708" />
		<tag k="ssr:type" v="ås" />
	</node>
	<node id="-30715" lat="59.8576138853" lon="11.0185638798">
		<tag k="fixme" v="consider natural=peak for the most distinct mountains in the district" />
		<tag k="name" v="Haraåsen" />
		<tag k="natural" v="hill" />
		<tag k="place" v="locality" />
		<tag k="ssr:date" v="2019-12-27" />
		<tag k="ssr:gruppe" v="høyder" />
		<tag k="ssr:hovedgruppe" v="terreng" />
		<tag k="ssr:stedsnr" v="509471" />
		<tag k="ssr:type" v="ås" />
	</node>
	<node id="-30714" lat="59.8587444448" lon="11.0486388873">
		<tag k="name" v="Vivangen" />
		<tag k="place" v="locality" />
		<tag k="ssr:date" v="2019-12-27" />
		<tag k="ssr:gruppe" v="dyrkamark" />
		<tag k="ssr:hovedgruppe" v="markslag" />
		<tag k="ssr:stedsnr" v="509459" />
		<tag k="ssr:type" v="utmark" />
	</node>
	<node id="-30713" lat="59.9212499967" lon="11.0365583296">
		<tag k="fixme" v="consider natural=peak for the most distinct mountains in the district" />
		<tag k="name" v="Buåsen" />
		<tag k="natural" v="hill" />
		<tag k="place" v="locality" />
		<tag k="ssr:date" v="2019-12-27" />
		<tag k="ssr:gruppe" v="høyder" />
		<tag k="ssr:hovedgruppe" v="terreng" />
		<tag k="ssr:stedsnr" v="509516" />
		<tag k="ssr:type" v="ås" />
	</node>
	<node id="-30712" lat="59.8644083304" lon="11.0419138923">
		<tag k="name" v="Byttingsdalen" />
		<tag k="natural" v="valley" />
		<tag k="place" v="locality" />
		<tag k="ssr:date" v="2019-12-27" />
		<tag k="ssr:gruppe" v="senkninger" />
		<tag k="ssr:hovedgruppe" v="terreng" />
		<tag k="ssr:stedsnr" v="509504" />
		<tag k="ssr:type" v="dal" />
	</node>
	<node id="-30711" lat="59.9300749965" lon="11.0302527862">
		<tag k="name" v="Sandbekken" />
		<tag k="place" v="isolated_dwelling" />
		<tag k="ssr:date" v="2019-12-27" />
		<tag k="ssr:gruppe" v="bolighus" />
		<tag k="ssr:hovedgruppe" v="bebyggelse" />
		<tag k="ssr:stedsnr" v="490003" />
		<tag k="ssr:type" v="fritidsbolig" />
	</node>
	<node id="-30710" lat="59.8446166636" lon="11.0852222146">
		<tag k="alt_name" v="Bikkjetjern" />
		<tag k="name" v="Bikkjetjerna" />
		<tag k="natural" v="water" />
		<tag k="ssr:date" v="2019-12-27" />
		<tag k="ssr:gruppe" v="stilleståendeVann" />
		<tag k="ssr:hovedgruppe" v="ferskvann" />
		<tag k="ssr:stedsnr" v="489221" />
		<tag k="ssr:type" v="tjern" />
	</node>
	<node id="-30709" lat="59.8495861128" lon="11.0970611165">
		<tag k="name" v="Vesledammen" />
		<tag k="natural" v="water" />
		<tag k="ssr:date" v="2019-12-27" />
		<tag k="ssr:gruppe" v="stilleståendeVann" />
		<tag k="ssr:hovedgruppe" v="ferskvann" />
		<tag k="ssr:stedsnr" v="672730" />
		<tag k="ssr:type" v="tjern" />
	</node>
	<node id="-30708" lat="59.8713277785" lon="11.1002000035">
		<tag k="name" v="Gjellebekkvika" />
		<tag k="natural" v="bay" />
		<tag k="ssr:date" v="2019-12-27" />
		<tag k="ssr:gruppe" v="ferskvannskontur" />
		<tag k="ssr:hovedgruppe" v="ferskvann" />
		<tag k="ssr:stedsnr" v="672666" />
		<tag k="ssr:type" v="vik" />
	</node>
	<node id="-30707" lat="59.8861333326" lon="11.1123388872">
		<tag k="alt_name" v="Tveiterhagan" />
		<tag k="building" v="industrial" />
		<tag k="industrial" v="factory" />
		<tag k="name" v="Tveiterhagen" />
		<tag k="ssr:date" v="2019-12-27" />
		<tag k="ssr:gruppe" v="næring" />
		<tag k="ssr:hovedgruppe" v="bebyggelse" />
		<tag k="ssr:stedsnr" v="672640" />
		<tag k="ssr:type" v="fabrikk" />
	</node>
	<node id="-30706" lat="59.8314944419" lon="11.0785833375">
		<tag k="name" v="Åborvannet" />
		<tag k="natural" v="water" />
		<tag k="ssr:date" v="2019-12-27" />
		<tag k="ssr:gruppe" v="stilleståendeVann" />
		<tag k="ssr:hovedgruppe" v="ferskvann" />
		<tag k="ssr:stedsnr" v="672272" />
		<tag k="ssr:type" v="tjern" />
	</node>
	<node id="-30705" lat="59.8472722245" lon="11.0789000067">
		<tag k="alt_name" v="Brasmetjern" />
		<tag k="name" v="Brasmetjernet" />
		<tag k="natural" v="water" />
		<tag k="ssr:date" v="2019-12-27" />
		<tag k="ssr:gruppe" v="stilleståendeVann" />
		<tag k="ssr:hovedgruppe" v="ferskvann" />
		<tag k="ssr:stedsnr" v="672227" />
		<tag k="ssr:type" v="tjern" />
	</node>
	<node id="-30704" lat="59.8520388867" lon="11.0237388947">
		<tag k="alt_name" v="Krokvannskalven" />
		<tag k="name" v="Kalven" />
		<tag k="natural" v="bay" />
		<tag k="ssr:date" v="2019-12-27" />
		<tag k="ssr:gruppe" v="ferskvannskontur" />
		<tag k="ssr:hovedgruppe" v="ferskvann" />
		<tag k="ssr:stedsnr" v="672221" />
		<tag k="ssr:type" v="vik" />
	</node>
	<node id="-30703" lat="59.857486109" lon="11.0409111073">
		<tag k="alt_name" v="Østre Bjørntjern" />
		<tag k="name" v="Morttjernet" />
		<tag k="natural" v="water" />
		<tag k="ssr:date" v="2019-12-27" />
		<tag k="ssr:gruppe" v="stilleståendeVann" />
		<tag k="ssr:hovedgruppe" v="ferskvann" />
		<tag k="ssr:stedsnr" v="672207" />
		<tag k="ssr:type" v="tjern" />
	</node>
	<node id="-30702" lat="59.8624111104" lon="11.0786638802">
		<tag k="name" v="Myrdammen" />
		<tag k="natural" v="water" />
		<tag k="ssr:date" v="2019-12-27" />
		<tag k="ssr:gruppe" v="stilleståendeVann" />
		<tag k="ssr:hovedgruppe" v="ferskvann" />
		<tag k="ssr:stedsnr" v="672132" />
		<tag k="ssr:type" v="tjern" />
	</node>
	<node id="-30701" lat="59.9031277813" lon="11.0517027826">
		<tag k="name" v="Brudalen" />
		<tag k="natural" v="valley" />
		<tag k="place" v="locality" />
		<tag k="ssr:date" v="2019-12-27" />
		<tag k="ssr:gruppe" v="senkninger" />
		<tag k="ssr:hovedgruppe" v="terreng" />
		<tag k="ssr:stedsnr" v="672068" />
		<tag k="ssr:type" v="dal" />
	</node>
	<node id="-30700" lat="59.9254361098" lon="11.0588249933">
		<tag k="name" v="Korsvegen" />
		<tag k="place" v="farm" />
		<tag k="ssr:date" v="2019-12-27" />
		<tag k="ssr:gruppe" v="gardsbebyggelse" />
		<tag k="ssr:hovedgruppe" v="bebyggelse" />
		<tag k="ssr:stedsnr" v="672001" />
		<tag k="ssr:type" v="bruk" />
	</node>
	<node id="-30699" lat="59.90104167" lon="11.1219944388">
		<tag k="name" v="Fautøya" />
		<tag k="place" v="islet" />
		<tag k="ssr:date" v="2019-12-27" />
		<tag k="ssr:gruppe" v="ferskvannskontur" />
		<tag k="ssr:hovedgruppe" v="ferskvann" />
		<tag k="ssr:stedsnr" v="671637" />
		<tag k="ssr:type" v="holme" />
	</node>
	<node id="-30698" lat="59.8655583322" lon="11.0941805475">
		<tag k="amenity" v="school" />
		<tag k="name" v="Nordby skole" />
		<tag k="ssr:date" v="2019-12-27" />
		<tag k="ssr:gruppe" v="institusjoner" />
		<tag k="ssr:hovedgruppe" v="bebyggelse" />
		<tag k="ssr:stedsnr" v="449613" />
		<tag k="ssr:type" v="skole" />
	</node>
	<node id="-30697" lat="59.9381305542" lon="11.0409722174">
		<tag k="leisure" v="pitch" />
		<tag k="name" v="Stormyrbakken" />
		<tag k="ssr:date" v="2019-12-27" />
		<tag k="ssr:gruppe" v="fritidsanlegg" />
		<tag k="ssr:hovedgruppe" v="bebyggelse" />
		<tag k="ssr:stedsnr" v="448602" />
		<tag k="ssr:type" v="idrettsanlegg" />
	</node>
	<node id="-30696" lat="59.8391888902" lon="11.0285333412">
		<tag k="name" v="Borkedammen" />
		<tag k="natural" v="wetland" />
		<tag k="ssr:date" v="2019-12-27" />
		<tag k="ssr:gruppe" v="våtmark" />
		<tag k="ssr:hovedgruppe" v="markslag" />
		<tag k="ssr:stedsnr" v="448552" />
		<tag k="ssr:type" v="myr" />
	</node>
	<node id="-30695" lat="59.8809972221" lon="11.0355083354">
		<tag k="name" v="Nedre Setertjern" />
		<tag k="natural" v="water" />
		<tag k="ssr:date" v="2019-12-27" />
		<tag k="ssr:gruppe" v="stilleståendeVann" />
		<tag k="ssr:hovedgruppe" v="ferskvann" />
		<tag k="ssr:stedsnr" v="448537" />
		<tag k="ssr:type" v="tjern" />
	</node>
	<node id="-30694" lat="59.8512194402" lon="11.1105750063">
		<tag k="name" v="Narvestad" />
		<tag k="place" v="farm" />
		<tag k="ssr:date" v="2019-12-27" />
		<tag k="ssr:gruppe" v="gardsbebyggelse" />
		<tag k="ssr:hovedgruppe" v="bebyggelse" />
		<tag k="ssr:stedsnr" v="429719" />
		<tag k="ssr:type" v="bruk" />
	</node>
	<node id="-30693" lat="59.8837166672" lon="11.1314361135">
		<tag k="name" v="Rælingsøya" />
		<tag k="natural" v="cape" />
		<tag k="ssr:date" v="2019-12-27" />
		<tag k="ssr:gruppe" v="ferskvannskontur" />
		<tag k="ssr:hovedgruppe" v="ferskvann" />
		<tag k="ssr:stedsnr" v="429627" />
		<tag k="ssr:type" v="halvøy" />
	</node>
	<node id="-30692" lat="59.9190555555" lon="11.0509694448">
		<tag k="name" v="Marikollen" />
		<tag k="natural" v="hill" />
		<tag k="place" v="locality" />
		<tag k="ssr:date" v="2019-12-27" />
		<tag k="ssr:gruppe" v="høyder" />
		<tag k="ssr:hovedgruppe" v="terreng" />
		<tag k="ssr:stedsnr" v="429104" />
		<tag k="ssr:type" v="haug" />
	</node>
	<node id="-30691" lat="59.9307055527" lon="11.0785777799">
		<tag k="name" v="Ensrud" />
		<tag k="place" v="isolated_dwelling" />
		<tag k="ssr:date" v="2019-12-27" />
		<tag k="ssr:gruppe" v="bolighus" />
		<tag k="ssr:hovedgruppe" v="bebyggelse" />
		<tag k="ssr:stedsnr" v="429007" />
		<tag k="ssr:type" v="eneboligMindreBoligbygg" />
	</node>
	<node id="-30690" lat="59.8357305583" lon="11.0829583406">
		<tag k="name" v="Breimåsan" />
		<tag k="natural" v="wetland" />
		<tag k="ssr:date" v="2019-12-27" />
		<tag k="ssr:gruppe" v="våtmark" />
		<tag k="ssr:hovedgruppe" v="markslag" />
		<tag k="ssr:stedsnr" v="509650" />
		<tag k="ssr:type" v="myr" />
	</node>
	<node id="-30689" lat="59.8475333326" lon="11.0642805643">
		<tag k="name" v="Struten" />
		<tag k="natural" v="bay" />
		<tag k="ssr:date" v="2019-12-27" />
		<tag k="ssr:gruppe" v="ferskvannskontur" />
		<tag k="ssr:hovedgruppe" v="ferskvann" />
		<tag k="ssr:stedsnr" v="509648" />
		<tag k="ssr:type" v="vik" />
	</node>
	<node id="-30688" lat="59.8499111146" lon="11.0753833325">
		<tag k="name" v="Tyrigrava" />
		<tag k="place" v="locality" />
		<tag k="ssr:date" v="2019-12-27" />
		<tag k="ssr:gruppe" v="gardsbebyggelse" />
		<tag k="ssr:hovedgruppe" v="bebyggelse" />
		<tag k="ssr:stedsnr" v="509646" />
		<tag k="ssr:type" v="eiendom" />
	</node>
	<node id="-30687" lat="59.8558777813" lon="11.0687416662">
		<tag k="name" v="Bakhonkastet" />
		<tag k="natural" v="slope" />
		<tag k="place" v="locality" />
		<tag k="ssr:date" v="2019-12-27" />
		<tag k="ssr:gruppe" v="skråninger" />
		<tag k="ssr:hovedgruppe" v="terreng" />
		<tag k="ssr:stedsnr" v="509629" />
		<tag k="ssr:type" v="li" />
	</node>
	<node id="-30686" lat="59.8938194425" lon="11.101011113">
		<tag k="name" v="Nordre Hektner" />
		<tag k="place" v="farm" />
		<tag k="ssr:date" v="2019-12-27" />
		<tag k="ssr:gruppe" v="gardsbebyggelse" />
		<tag k="ssr:hovedgruppe" v="bebyggelse" />
		<tag k="ssr:stedsnr" v="509613" />
		<tag k="ssr:type" v="bruk" />
	</node>
	<node id="-30685" lat="59.8959138878" lon="11.092141659">
		<tag k="name" v="Solli" />
		<tag k="place" v="farm" />
		<tag k="ssr:date" v="2019-12-27" />
		<tag k="ssr:gruppe" v="gardsbebyggelse" />
		<tag k="ssr:hovedgruppe" v="bebyggelse" />
		<tag k="ssr:stedsnr" v="509610" />
		<tag k="ssr:type" v="bruk" />
	</node>
	<node id="-30684" lat="59.8956249992" lon="11.1128027728">
		<tag k="name" v="Trollykkja" />
		<tag k="place" v="hamlet" />
		<tag k="ssr:date" v="2019-12-27" />
		<tag k="ssr:gruppe" v="bebyggelsesområder" />
		<tag k="ssr:hovedgruppe" v="bebyggelse" />
		<tag k="ssr:stedsnr" v="509607" />
		<tag k="ssr:type" v="grend" />
	</node>
	<node id="-30683" lat="59.8713972246" lon="11.0949194385">
		<tag k="name" v="Nerhaugen" />
		<tag k="place" v="farm" />
		<tag k="ssr:date" v="2019-12-27" />
		<tag k="ssr:gruppe" v="gardsbebyggelse" />
		<tag k="ssr:hovedgruppe" v="bebyggelse" />
		<tag k="ssr:stedsnr" v="509587" />
		<tag k="ssr:type" v="bruk" />
	</node>
	<node id="-30682" lat="59.8698250044" lon="11.0642194453">
		<tag k="historic" v="shieling" />
		<tag k="name" v="Grinisetervangen" />
		<tag k="place" v="locality" />
		<tag k="ssr:date" v="2019-12-27" />
		<tag k="ssr:gruppe" v="dyrkamark" />
		<tag k="ssr:hovedgruppe" v="markslag" />
		<tag k="ssr:stedsnr" v="509584" />
		<tag k="ssr:type" v="setervoll" />
	</node>
	<node id="-30681" lat="59.8688499979" lon="11.1089222201">
		<tag k="name" v="Nordbyleira" />
		<tag k="natural" v="shoal" />
		<tag k="place" v="locality" />
		<tag k="ssr:date" v="2019-12-27" />
		<tag k="ssr:gruppe" v="grunnerIFerskvann" />
		<tag k="ssr:hovedgruppe" v="ferskvann" />
		<tag k="ssr:stedsnr" v="509580" />
		<tag k="ssr:type" v="banke" />
	</node>
	<node id="-30680" lat="59.863299998" lon="11.0823000063">
		<tag k="name" v="Sveltetangen" />
		<tag k="natural" v="cape" />
		<tag k="ssr:date" v="2019-12-27" />
		<tag k="ssr:gruppe" v="ferskvannskontur" />
		<tag k="ssr:hovedgruppe" v="ferskvann" />
		<tag k="ssr:stedsnr" v="509579" />
		<tag k="ssr:type" v="nes" />
	</node>
	<node id="-30679" lat="59.9392555512" lon="11.0637916643">
		<tag k="name" v="Nyland" />
		<tag k="place" v="hamlet" />
		<tag k="ssr:date" v="2019-12-27" />
		<tag k="ssr:gruppe" v="bebyggelsesområder" />
		<tag k="ssr:hovedgruppe" v="bebyggelse" />
		<tag k="ssr:stedsnr" v="509556" />
		<tag k="ssr:type" v="grend" />
	</node>
	<node id="-30678" lat="59.932219445" lon="11.0689555618">
		<tag k="amenity" v="community_centre" />
		<tag k="loc_name" v="Åmot grendehus" />
		<tag k="name" v="Aamodt grendehus" />
		<tag k="ssr:date" v="2019-12-27" />
		<tag k="ssr:gruppe" v="kulturinstitusjoner" />
		<tag k="ssr:hovedgruppe" v="kultur" />
		<tag k="ssr:stedsnr" v="509543" />
		<tag k="ssr:type" v="forsamlingshusKulturhus" />
	</node>
	<node id="-30677" lat="59.8892416706" lon="11.0474750027">
		<tag k="fixme" v="consider natural=peak for the most distinct mountains in the district" />
		<tag k="name" v="Skurvåsen" />
		<tag k="natural" v="hill" />
		<tag k="place" v="locality" />
		<tag k="ssr:date" v="2019-12-27" />
		<tag k="ssr:gruppe" v="høyder" />
		<tag k="ssr:hovedgruppe" v="terreng" />
		<tag k="ssr:stedsnr" v="509493" />
		<tag k="ssr:type" v="ås" />
	</node>
	<node id="-30676" lat="59.838655552" lon="11.0380416685">
		<tag k="name" v="Midtre Høgkolltjern" />
		<tag k="natural" v="water" />
		<tag k="ssr:date" v="2019-12-27" />
		<tag k="ssr:gruppe" v="stilleståendeVann" />
		<tag k="ssr:hovedgruppe" v="ferskvann" />
		<tag k="ssr:stedsnr" v="509489" />
		<tag k="ssr:type" v="tjern" />
	</node>
	<node id="-30675" lat="59.9040361086" lon="11.0940249969">
		<tag k="name" v="Løvlia" />
		<tag k="place" v="hamlet" />
		<tag k="ssr:date" v="2019-12-27" />
		<tag k="ssr:gruppe" v="bebyggelsesområder" />
		<tag k="ssr:hovedgruppe" v="bebyggelse" />
		<tag k="ssr:stedsnr" v="509699" />
		<tag k="ssr:type" v="grend" />
	</node>
	<node id="-30674" lat="59.8584250029" lon="11.0572416735">
		<tag k="name" v="Drøpla" />
		<tag k="natural" v="water" />
		<tag k="ssr:date" v="2019-12-27" />
		<tag k="ssr:gruppe" v="stilleståendeVann" />
		<tag k="ssr:hovedgruppe" v="ferskvann" />
		<tag k="ssr:stedsnr" v="509447" />
		<tag k="ssr:type" v="tjern" />
	</node>
	<node id="-30673" lat="59.8772333318" lon="11.0552083298">
		<tag k="historic" v="shieling" />
		<tag k="name" v="Jaersetervangen" />
		<tag k="place" v="locality" />
		<tag k="ssr:date" v="2019-12-27" />
		<tag k="ssr:gruppe" v="dyrkamark" />
		<tag k="ssr:hovedgruppe" v="markslag" />
		<tag k="ssr:stedsnr" v="509346" />
		<tag k="ssr:type" v="setervoll" />
	</node>
	<node id="-30672" lat="59.9063277809" lon="11.0701333248">
		<tag k="fixme" v="consider natural=peak for the most distinct mountains in the district" />
		<tag k="name" v="Høgåsen" />
		<tag k="natural" v="hill" />
		<tag k="place" v="locality" />
		<tag k="ssr:date" v="2019-12-27" />
		<tag k="ssr:gruppe" v="høyder" />
		<tag k="ssr:hovedgruppe" v="terreng" />
		<tag k="ssr:stedsnr" v="387760" />
		<tag k="ssr:type" v="ås" />
	</node>
	<node id="-30671" lat="59.870138893" lon="11.0530805637">
		<tag k="fixme" v="consider natural=peak for the most distinct mountains in the district" />
		<tag k="name" v="Baråsen" />
		<tag k="natural" v="hill" />
		<tag k="place" v="locality" />
		<tag k="ssr:date" v="2019-12-27" />
		<tag k="ssr:gruppe" v="høyder" />
		<tag k="ssr:hovedgruppe" v="terreng" />
		<tag k="ssr:stedsnr" v="387564" />
		<tag k="ssr:type" v="ås" />
	</node>
	<node id="-30670" lat="59.8796749993" lon="11.0519444436">
		<tag k="name" v="Fiskelausmåsan" />
		<tag k="natural" v="wetland" />
		<tag k="ssr:date" v="2019-12-27" />
		<tag k="ssr:gruppe" v="våtmark" />
		<tag k="ssr:hovedgruppe" v="markslag" />
		<tag k="ssr:stedsnr" v="387555" />
		<tag k="ssr:type" v="myr" />
	</node>
	<node id="-30669" lat="59.8393361115" lon="11.0302749985">
		<tag k="alt_name" v="Midtre Krokvann" />
		<tag k="name" v="Midtre Krokvannet" />
		<tag k="natural" v="water" />
		<tag k="old_name" v="Krokvatnet, m" />
		<tag k="ssr:date" v="2019-12-27" />
		<tag k="ssr:gruppe" v="stilleståendeVann" />
		<tag k="ssr:hovedgruppe" v="ferskvann" />
		<tag k="ssr:stedsnr" v="368221" />
		<tag k="ssr:type" v="tjern" />
	</node>
	<node id="-30668" lat="59.8727361134" lon="11.0241749934">
		<tag k="name" v="Jonsokhøgda" />
		<tag k="natural" v="hill" />
		<tag k="place" v="locality" />
		<tag k="ssr:date" v="2019-12-27" />
		<tag k="ssr:gruppe" v="høyder" />
		<tag k="ssr:hovedgruppe" v="terreng" />
		<tag k="ssr:stedsnr" v="368207" />
		<tag k="ssr:type" v="haug" />
	</node>
	<node id="-30667" lat="59.8526888931" lon="11.0467583419">
		<tag k="alt_name" v="Auretjern" />
		<tag k="name" v="Aurtjernet" />
		<tag k="natural" v="water" />
		<tag k="ssr:date" v="2019-12-27" />
		<tag k="ssr:gruppe" v="stilleståendeVann" />
		<tag k="ssr:hovedgruppe" v="ferskvann" />
		<tag k="ssr:stedsnr" v="490232" />
		<tag k="ssr:type" v="tjern" />
	</node>
	<node id="-30666" lat="59.8847749971" lon="11.0346833381">
		<tag k="alt_name" v="Snelleåsen" />
		<tag k="fixme" v="consider natural=peak for the most distinct mountains in the district" />
		<tag k="name" v="Snellås" />
		<tag k="natural" v="hill" />
		<tag k="place" v="locality" />
		<tag k="ssr:date" v="2019-12-27" />
		<tag k="ssr:gruppe" v="høyder" />
		<tag k="ssr:hovedgruppe" v="terreng" />
		<tag k="ssr:stedsnr" v="490166" />
		<tag k="ssr:type" v="ås" />
	</node>
	<node id="-30665" lat="59.9302472257" lon="11.0631388968">
		<tag k="alt_name" v="Sundhagan" />
		<tag k="name" v="Hagan" />
		<tag k="old_name" v="Hagen" />
		<tag k="place" v="isolated_dwelling" />
		<tag k="ssr:date" v="2019-12-27" />
		<tag k="ssr:gruppe" v="bolighus" />
		<tag k="ssr:hovedgruppe" v="bebyggelse" />
		<tag k="ssr:stedsnr" v="490001" />
		<tag k="ssr:type" v="eneboligMindreBoligbygg" />
	</node>
	<node id="-30664" lat="59.9028833361" lon="11.0731638812">
		<tag k="fixme" v="consider natural=peak for the most distinct mountains in the district" />
		<tag k="name" v="Trestilåsen" />
		<tag k="natural" v="hill" />
		<tag k="place" v="locality" />
		<tag k="ssr:date" v="2019-12-27" />
		<tag k="ssr:gruppe" v="høyder" />
		<tag k="ssr:hovedgruppe" v="terreng" />
		<tag k="ssr:stedsnr" v="490074" />
		<tag k="ssr:type" v="ås" />
	</node>
	<node id="-30663" lat="59.94675556" lon="11.0400999989">
		<tag k="name" v="Rud" />
		<tag k="place" v="farm" />
		<tag k="ssr:date" v="2019-12-27" />
		<tag k="ssr:gruppe" v="gardsbebyggelse" />
		<tag k="ssr:hovedgruppe" v="bebyggelse" />
		<tag k="ssr:stedsnr" v="490051" />
		<tag k="ssr:type" v="bruk" />
	</node>
	<node id="-30662" lat="59.9082916642" lon="11.0765138951">
		<tag k="name" v="Brenndammen" />
		<tag k="natural" v="wetland" />
		<tag k="ssr:date" v="2019-12-27" />
		<tag k="ssr:gruppe" v="våtmark" />
		<tag k="ssr:hovedgruppe" v="markslag" />
		<tag k="ssr:stedsnr" v="327719" />
		<tag k="ssr:type" v="myr" />
	</node>
	<node id="-30661" lat="59.9059472206" lon="11.0918194523">
		<tag k="name" v="Myrvoll" />
		<tag k="place" v="hamlet" />
		<tag k="ssr:date" v="2019-12-27" />
		<tag k="ssr:gruppe" v="bebyggelsesområder" />
		<tag k="ssr:hovedgruppe" v="bebyggelse" />
		<tag k="ssr:stedsnr" v="327711" />
		<tag k="ssr:type" v="grend" />
	</node>
	<node id="-30660" lat="59.9143083374" lon="11.0333555577">
		<tag k="fixme" v="consider natural=peak for the most distinct mountains in the district" />
		<tag k="name" v="Maråsen" />
		<tag k="natural" v="hill" />
		<tag k="place" v="locality" />
		<tag k="ssr:date" v="2019-12-27" />
		<tag k="ssr:gruppe" v="høyder" />
		<tag k="ssr:hovedgruppe" v="terreng" />
		<tag k="ssr:stedsnr" v="327523" />
		<tag k="ssr:type" v="ås" />
	</node>
	<node id="-30659" lat="59.9255444448" lon="11.0609888876">
		<tag k="bridge" v="yes" />
		<tag k="layer" v="1" />
		<tag k="name" v="Marikollen" />
		<tag k="ssr:date" v="2019-12-27" />
		<tag k="ssr:gruppe" v="samferdselsanlegg" />
		<tag k="ssr:hovedgruppe" v="infrastruktur" />
		<tag k="ssr:stedsnr" v="289024" />
		<tag k="ssr:type" v="bru" />
	</node>
	<node id="-30658" lat="59.8679527812" lon="11.0839333371">
		<tag k="name" v="Sjudråga" />
		<tag k="natural" v="valley" />
		<tag k="place" v="locality" />
		<tag k="ssr:date" v="2019-12-27" />
		<tag k="ssr:gruppe" v="senkninger" />
		<tag k="ssr:hovedgruppe" v="terreng" />
		<tag k="ssr:stedsnr" v="267577" />
		<tag k="ssr:type" v="dal" />
	</node>
	<node id="-30657" lat="59.9241111072" lon="11.0628194371">
		<tag k="amenity" v="school" />
		<tag k="name" v="Marikollen ungdomsskole" />
		<tag k="ssr:date" v="2019-12-27" />
		<tag k="ssr:gruppe" v="institusjoner" />
		<tag k="ssr:hovedgruppe" v="bebyggelse" />
		<tag k="ssr:stedsnr" v="449565" />
		<tag k="ssr:type" v="skole" />
	</node>
	<node id="-30656" lat="59.9002222263" lon="11.080083339">
		<tag k="fixme" v="consider natural=peak for the most distinct mountains in the district" />
		<tag k="name" v="Nautåsen" />
		<tag k="natural" v="hill" />
		<tag k="place" v="locality" />
		<tag k="ssr:date" v="2019-12-27" />
		<tag k="ssr:gruppe" v="høyder" />
		<tag k="ssr:hovedgruppe" v="terreng" />
		<tag k="ssr:stedsnr" v="448795" />
		<tag k="ssr:type" v="ås" />
	</node>
	<node id="-30655" lat="59.899566664" lon="11.1037527818">
		<tag k="fixme" v="consider natural=peak for the most distinct mountains in the district" />
		<tag k="name" v="Trollåsen" />
		<tag k="natural" v="hill" />
		<tag k="place" v="locality" />
		<tag k="ssr:date" v="2019-12-27" />
		<tag k="ssr:gruppe" v="høyder" />
		<tag k="ssr:hovedgruppe" v="terreng" />
		<tag k="ssr:stedsnr" v="448779" />
		<tag k="ssr:type" v="ås" />
	</node>
	<node id="-30653" lat="59.8910722182" lon="11.0958611023">
		<tag k="name" v="Vestegarden" />
		<tag k="place" v="farm" />
		<tag k="ssr:date" v="2019-12-27" />
		<tag k="ssr:gruppe" v="gardsbebyggelse" />
		<tag k="ssr:hovedgruppe" v="bebyggelse" />
		<tag k="ssr:stedsnr" v="448699" />
		<tag k="ssr:type" v="bruk" />
	</node>
	<node id="-30652" lat="59.8851694414" lon="11.0677333359">
		<tag k="historic" v="shieling" />
		<tag k="name" v="Trollsetra" />
		<tag k="place" v="locality" />
		<tag k="ssr:date" v="2019-12-27" />
		<tag k="ssr:gruppe" v="dyrkamark" />
		<tag k="ssr:hovedgruppe" v="markslag" />
		<tag k="ssr:stedsnr" v="448690" />
		<tag k="ssr:type" v="setervoll" />
	</node>
	<node id="-30651" lat="59.9099222205" lon="11.0926083385">
		<tag k="amenity" v="school" />
		<tag k="name" v="Holt skole" />
		<tag k="ssr:date" v="2019-12-27" />
		<tag k="ssr:gruppe" v="institusjoner" />
		<tag k="ssr:hovedgruppe" v="bebyggelse" />
		<tag k="ssr:stedsnr" v="448763" />
		<tag k="ssr:type" v="skole" />
	</node>
	<node id="-30650" lat="59.9428444434" lon="11.0484111124">
		<tag k="name" v="Herredshus" />
		<tag k="place" v="locality" />
		<tag k="ssr:date" v="2019-12-27" />
		<tag k="ssr:gruppe" v="kulturminner" />
		<tag k="ssr:hovedgruppe" v="kultur" />
		<tag k="ssr:stedsnr" v="448753" />
		<tag k="ssr:type" v="annenKulturdetalj" />
	</node>
	<node id="-30649" lat="59.9483472185" lon="11.0370499981">
		<tag k="name" v="Strømsborg" />
		<tag k="place" v="quarter" />
		<tag k="ssr:date" v="2019-12-27" />
		<tag k="ssr:gruppe" v="bebyggelsesområder" />
		<tag k="ssr:hovedgruppe" v="bebyggelse" />
		<tag k="ssr:stedsnr" v="448738" />
		<tag k="ssr:type" v="boligfelt" />
	</node>
	<node id="-30648" lat="59.8874083327" lon="11.071280561">
		<tag k="fixme" v="consider natural=peak for the most distinct mountains in the district" />
		<tag k="name" v="Korpåsen" />
		<tag k="natural" v="hill" />
		<tag k="place" v="locality" />
		<tag k="ssr:date" v="2019-12-27" />
		<tag k="ssr:gruppe" v="høyder" />
		<tag k="ssr:hovedgruppe" v="terreng" />
		<tag k="ssr:stedsnr" v="448733" />
		<tag k="ssr:type" v="ås" />
	</node>
	<node id="-30647" lat="59.8442250011" lon="11.0863888826">
		<tag k="name" v="Byseter" />
		<tag k="place" v="locality" />
		<tag k="ssr:date" v="2019-12-27" />
		<tag k="ssr:gruppe" v="gardsbebyggelse" />
		<tag k="ssr:hovedgruppe" v="bebyggelse" />
		<tag k="ssr:stedsnr" v="448727" />
		<tag k="ssr:type" v="eiendom" />
	</node>
	<node id="-30646" lat="59.9223972182" lon="11.0538027712">
		<tag k="alt_name" v="Marikollen" />
		<tag k="leisure" v="pitch" />
		<tag k="name" v="Marikollen skisenter" />
		<tag k="ssr:date" v="2019-12-27" />
		<tag k="ssr:gruppe" v="fritidsanlegg" />
		<tag k="ssr:hovedgruppe" v="bebyggelse" />
		<tag k="ssr:stedsnr" v="448601" />
		<tag k="ssr:type" v="idrettsanlegg" />
	</node>
	<node id="-30645" lat="59.9378194426" lon="11.0522083327">
		<tag k="name" v="Øgardshøgda" />
		<tag k="place" v="quarter" />
		<tag k="ssr:date" v="2019-12-27" />
		<tag k="ssr:gruppe" v="bebyggelsesområder" />
		<tag k="ssr:hovedgruppe" v="bebyggelse" />
		<tag k="ssr:stedsnr" v="448572" />
		<tag k="ssr:type" v="boligfelt" />
	</node>
	<node id="-30644" lat="59.8723222204" lon="11.0464083421">
		<tag k="fixme" v="consider natural=peak for the most distinct mountains in the district" />
		<tag k="name" v="Regnåsen" />
		<tag k="natural" v="hill" />
		<tag k="place" v="locality" />
		<tag k="ssr:date" v="2019-12-27" />
		<tag k="ssr:gruppe" v="høyder" />
		<tag k="ssr:hovedgruppe" v="terreng" />
		<tag k="ssr:stedsnr" v="448562" />
		<tag k="ssr:type" v="ås" />
	</node>
	<node id="-30643" lat="59.8454750016" lon="11.0277750015">
		<tag k="name" v="Bokhytta" />
		<tag k="place" v="isolated_dwelling" />
		<tag k="ssr:date" v="2019-12-27" />
		<tag k="ssr:gruppe" v="bolighus" />
		<tag k="ssr:hovedgruppe" v="bebyggelse" />
		<tag k="ssr:stedsnr" v="448427" />
		<tag k="ssr:type" v="fritidsbolig" />
	</node>
	<node id="-30642" lat="59.9170222266" lon="11.0574999979">
		<tag k="alt_name" v="Fjerdingbydammen" />
		<tag k="name" v="Fjerdingbyputten" />
		<tag k="natural" v="water" />
		<tag k="ssr:date" v="2019-12-27" />
		<tag k="ssr:gruppe" v="stilleståendeVann" />
		<tag k="ssr:hovedgruppe" v="ferskvann" />
		<tag k="ssr:stedsnr" v="186107" />
		<tag k="ssr:type" v="pytt" />
		<tag k="water" v="pond" />
	</node>
	<node id="-30641" lat="59.8710694484" lon="11.0645027759">
		<tag k="fixme" v="consider natural=peak for the most distinct mountains in the district" />
		<tag k="name" v="Seteråsen" />
		<tag k="natural" v="hill" />
		<tag k="place" v="locality" />
		<tag k="ssr:date" v="2019-12-27" />
		<tag k="ssr:gruppe" v="høyder" />
		<tag k="ssr:hovedgruppe" v="terreng" />
		<tag k="ssr:stedsnr" v="145664" />
		<tag k="ssr:type" v="ås" />
	</node>
	<node id="-30640" lat="59.8731944474" lon="11.0736111139">
		<tag k="fixme" v="consider natural=peak for the most distinct mountains in the district" />
		<tag k="name" v="Gryteåsen" />
		<tag k="natural" v="hill" />
		<tag k="place" v="locality" />
		<tag k="ssr:date" v="2019-12-27" />
		<tag k="ssr:gruppe" v="høyder" />
		<tag k="ssr:hovedgruppe" v="terreng" />
		<tag k="ssr:stedsnr" v="145661" />
		<tag k="ssr:type" v="ås" />
	</node>
	<node id="-30639" lat="59.8598916667" lon="11.0747111051">
		<tag k="name" v="Sjødalen" />
		<tag k="natural" v="valley" />
		<tag k="place" v="locality" />
		<tag k="ssr:date" v="2019-12-27" />
		<tag k="ssr:gruppe" v="senkninger" />
		<tag k="ssr:hovedgruppe" v="terreng" />
		<tag k="ssr:stedsnr" v="145657" />
		<tag k="ssr:type" v="dal" />
	</node>
	<node id="-30638" lat="59.8709055526" lon="11.0918500016">
		<tag k="name" v="Opphaugen" />
		<tag k="place" v="farm" />
		<tag k="ssr:date" v="2019-12-27" />
		<tag k="ssr:gruppe" v="gardsbebyggelse" />
		<tag k="ssr:hovedgruppe" v="bebyggelse" />
		<tag k="ssr:stedsnr" v="145614" />
		<tag k="ssr:type" v="bruk" />
	</node>
	<node id="-30637" lat="59.8609944479" lon="11.0933555543">
		<tag k="name" v="Fjellstad" />
		<tag k="place" v="hamlet" />
		<tag k="ssr:date" v="2019-12-27" />
		<tag k="ssr:gruppe" v="bebyggelsesområder" />
		<tag k="ssr:hovedgruppe" v="bebyggelse" />
		<tag k="ssr:stedsnr" v="145609" />
		<tag k="ssr:type" v="grend" />
	</node>
	<node id="-30636" lat="59.8562944457" lon="11.0830888977">
		<tag k="name" v="Fellemyra" />
		<tag k="natural" v="wetland" />
		<tag k="ssr:date" v="2019-12-27" />
		<tag k="ssr:gruppe" v="våtmark" />
		<tag k="ssr:hovedgruppe" v="markslag" />
		<tag k="ssr:stedsnr" v="145606" />
		<tag k="ssr:type" v="myr" />
	</node>
	<node id="-30635" lat="59.9356799125" lon="11.0634233439">
		<tag k="name" v="Øvre Åmot" />
		<tag k="place" v="farm" />
		<tag k="ssr:date" v="2019-12-27" />
		<tag k="ssr:gruppe" v="gardsbebyggelse" />
		<tag k="ssr:hovedgruppe" v="bebyggelse" />
		<tag k="ssr:stedsnr" v="267537" />
		<tag k="ssr:type" v="bruk" />
	</node>
	<node id="-30634" lat="59.933011107" lon="11.0748777817">
		<tag k="name" v="Bålsrud" />
		<tag k="place" v="farm" />
		<tag k="ssr:date" v="2019-12-27" />
		<tag k="ssr:gruppe" v="gardsbebyggelse" />
		<tag k="ssr:hovedgruppe" v="bebyggelse" />
		<tag k="ssr:stedsnr" v="267533" />
		<tag k="ssr:type" v="bruk" />
	</node>
	<node id="-30633" lat="59.857974997" lon="11.1043166719">
		<tag k="name" v="Sør-Uller" />
		<tag k="place" v="farm" />
		<tag k="ssr:date" v="2019-12-27" />
		<tag k="ssr:gruppe" v="gardsbebyggelse" />
		<tag k="ssr:hovedgruppe" v="bebyggelse" />
		<tag k="ssr:stedsnr" v="267599" />
		<tag k="ssr:type" v="bruk" />
	</node>
	<node id="-30632" lat="59.874008332" lon="11.1099666586">
		<tag k="name" v="Grøtnesnabben" />
		<tag k="natural" v="cape" />
		<tag k="ssr:date" v="2019-12-27" />
		<tag k="ssr:gruppe" v="ferskvannskontur" />
		<tag k="ssr:hovedgruppe" v="ferskvann" />
		<tag k="ssr:stedsnr" v="267583" />
		<tag k="ssr:type" v="nes" />
	</node>
	<node id="-30631" lat="59.9521277747" lon="11.0372500021">
		<tag k="bridge" v="yes" />
		<tag k="layer" v="1" />
		<tag k="name" v="Lillestrøm bru" />
		<tag k="ssr:date" v="2019-12-27" />
		<tag k="ssr:gruppe" v="samferdselsanlegg" />
		<tag k="ssr:hovedgruppe" v="infrastruktur" />
		<tag k="ssr:stedsnr" v="266718" />
		<tag k="ssr:type" v="bru" />
	</node>
	<node id="-30630" lat="59.8881694452" lon="11.0872916711">
		<tag k="name" v="Veslekleiva" />
		<tag k="natural" v="valley" />
		<tag k="place" v="locality" />
		<tag k="ssr:date" v="2019-12-27" />
		<tag k="ssr:gruppe" v="senkninger" />
		<tag k="ssr:hovedgruppe" v="terreng" />
		<tag k="ssr:stedsnr" v="266687" />
		<tag k="ssr:type" v="dal" />
	</node>
	<node id="-30629" lat="59.8467416662" lon="11.1024944391">
		<tag k="name" v="Bjørnmyra" />
		<tag k="natural" v="wetland" />
		<tag k="ssr:date" v="2019-12-27" />
		<tag k="ssr:gruppe" v="våtmark" />
		<tag k="ssr:hovedgruppe" v="markslag" />
		<tag k="ssr:stedsnr" v="266669" />
		<tag k="ssr:type" v="myr" />
	</node>
	<node id="-30628" lat="59.8402638873" lon="11.0970944355">
		<tag k="fixme" v="consider natural=peak for the most distinct mountains in the district" />
		<tag k="name" v="Elggrasåsen" />
		<tag k="natural" v="hill" />
		<tag k="place" v="locality" />
		<tag k="ssr:date" v="2019-12-27" />
		<tag k="ssr:gruppe" v="høyder" />
		<tag k="ssr:hovedgruppe" v="terreng" />
		<tag k="ssr:stedsnr" v="266667" />
		<tag k="ssr:type" v="ås" />
	</node>
	<node id="-30627" lat="59.9221222203" lon="11.0325972233">
		<tag k="historic" v="shieling" />
		<tag k="name" v="Åmotsetra" />
		<tag k="place" v="locality" />
		<tag k="ssr:date" v="2019-12-27" />
		<tag k="ssr:gruppe" v="dyrkamark" />
		<tag k="ssr:hovedgruppe" v="markslag" />
		<tag k="ssr:stedsnr" v="266550" />
		<tag k="ssr:type" v="setervoll" />
	</node>
	<node id="-30626" lat="59.9335003072" lon="11.0317685214">
		<tag k="amenity" v="sports_centre" />
		<tag k="name" v="Sandbekkhallen" />
		<tag k="ssr:date" v="2020-02-05" />
		<tag k="ssr:gruppe" v="fritidsanlegg" />
		<tag k="ssr:hovedgruppe" v="bebyggelse" />
		<tag k="ssr:stedsnr" v="266546" />
		<tag k="ssr:type" v="idrettshall" />
	</node>
	<node id="-30625" lat="59.8770222187" lon="11.030972229">
		<tag k="historic" v="shieling" />
		<tag k="name" v="Tvetersetra" />
		<tag k="place" v="locality" />
		<tag k="ssr:date" v="2019-12-27" />
		<tag k="ssr:gruppe" v="dyrkamark" />
		<tag k="ssr:hovedgruppe" v="markslag" />
		<tag k="ssr:stedsnr" v="266507" />
		<tag k="ssr:type" v="setervoll" />
	</node>
	<node id="-30624" lat="59.9037749986" lon="11.0607833276">
		<tag k="name" v="Langmyra" />
		<tag k="natural" v="wetland" />
		<tag k="ssr:date" v="2019-12-27" />
		<tag k="ssr:gruppe" v="våtmark" />
		<tag k="ssr:hovedgruppe" v="markslag" />
		<tag k="ssr:stedsnr" v="266501" />
		<tag k="ssr:type" v="myr" />
	</node>
	<node id="-30623" lat="59.8647361093" lon="11.0537055493">
		<tag k="name" v="Søndre Mørkåstjern" />
		<tag k="natural" v="water" />
		<tag k="ssr:date" v="2019-12-27" />
		<tag k="ssr:gruppe" v="stilleståendeVann" />
		<tag k="ssr:hovedgruppe" v="ferskvann" />
		<tag k="ssr:stedsnr" v="266498" />
		<tag k="ssr:type" v="tjern" />
	</node>
	<node id="-30622" lat="59.9145277744" lon="11.0932611035">
		<tag k="name" v="Nedre Holt" />
		<tag k="place" v="farm" />
		<tag k="ssr:date" v="2019-12-27" />
		<tag k="ssr:gruppe" v="gardsbebyggelse" />
		<tag k="ssr:hovedgruppe" v="bebyggelse" />
		<tag k="ssr:stedsnr" v="84761" />
		<tag k="ssr:type" v="bruk" />
	</node>
	<node id="-30621" lat="59.9151083359" lon="11.0821583306">
		<tag k="name" v="Nybakk" />
		<tag k="place" v="farm" />
		<tag k="ssr:date" v="2019-12-27" />
		<tag k="ssr:gruppe" v="gardsbebyggelse" />
		<tag k="ssr:hovedgruppe" v="bebyggelse" />
		<tag k="ssr:stedsnr" v="84760" />
		<tag k="ssr:type" v="bruk" />
	</node>
	<node id="-30620" lat="59.9019027776" lon="11.094452769">
		<tag k="name" v="Norum" />
		<tag k="place" v="farm" />
		<tag k="ssr:date" v="2019-12-27" />
		<tag k="ssr:gruppe" v="gardsbebyggelse" />
		<tag k="ssr:hovedgruppe" v="bebyggelse" />
		<tag k="ssr:stedsnr" v="84757" />
		<tag k="ssr:type" v="bruk" />
	</node>
	<node id="-30619" lat="59.8782083315" lon="11.0897277803">
		<tag k="name" v="Øvergarden" />
		<tag k="place" v="farm" />
		<tag k="ssr:date" v="2019-12-27" />
		<tag k="ssr:gruppe" v="gardsbebyggelse" />
		<tag k="ssr:hovedgruppe" v="bebyggelse" />
		<tag k="ssr:stedsnr" v="84678" />
		<tag k="ssr:type" v="bruk" />
	</node>
	<node id="-30618" lat="59.9312527734" lon="11.0413222237">
		<tag k="amenity" v="school" />
		<tag k="name" v="Blystadlia skole" />
		<tag k="ssr:date" v="2019-12-27" />
		<tag k="ssr:gruppe" v="institusjoner" />
		<tag k="ssr:hovedgruppe" v="bebyggelse" />
		<tag k="ssr:stedsnr" v="84572" />
		<tag k="ssr:type" v="skole" />
	</node>
	<node id="-30617" lat="59.8553611078" lon="11.0472472234">
		<tag k="name" v="Auretjerndalen" />
		<tag k="natural" v="valley" />
		<tag k="place" v="locality" />
		<tag k="ssr:date" v="2019-12-27" />
		<tag k="ssr:gruppe" v="senkninger" />
		<tag k="ssr:hovedgruppe" v="terreng" />
		<tag k="ssr:stedsnr" v="84571" />
		<tag k="ssr:type" v="dal" />
	</node>
	<node id="-30616" lat="59.8834305578" lon="11.049791675">
		<tag k="fixme" v="consider natural=peak for the most distinct mountains in the district" />
		<tag k="name" v="Petteråsen" />
		<tag k="natural" v="hill" />
		<tag k="place" v="locality" />
		<tag k="ssr:date" v="2019-12-27" />
		<tag k="ssr:gruppe" v="høyder" />
		<tag k="ssr:hovedgruppe" v="terreng" />
		<tag k="ssr:stedsnr" v="84569" />
		<tag k="ssr:type" v="ås" />
	</node>
	<node id="-30615" lat="59.8368750022" lon="11.0375194366">
		<tag k="name" v="Søndre Høgkolltjern" />
		<tag k="natural" v="water" />
		<tag k="ssr:date" v="2019-12-27" />
		<tag k="ssr:gruppe" v="stilleståendeVann" />
		<tag k="ssr:hovedgruppe" v="ferskvann" />
		<tag k="ssr:stedsnr" v="84566" />
		<tag k="ssr:type" v="tjern" />
	</node>
	<node id="-30614" lat="59.936602779" lon="11.016294448">
		<tag k="name" v="Kurlandsbekken" />
		<tag k="ssr:date" v="2019-12-27" />
		<tag k="ssr:gruppe" v="rennendeVann" />
		<tag k="ssr:hovedgruppe" v="ferskvann" />
		<tag k="ssr:stedsnr" v="84554" />
		<tag k="ssr:type" v="bekk" />
		<tag k="waterway" v="stream" />
	</node>
	<node id="-30613" lat="59.8398055521" lon="11.0591555571">
		<tag k="fixme" v="consider natural=peak for the most distinct mountains in the district" />
		<tag k="name" v="Morttjernåsen" />
		<tag k="natural" v="hill" />
		<tag k="place" v="locality" />
		<tag k="ssr:date" v="2019-12-27" />
		<tag k="ssr:gruppe" v="høyder" />
		<tag k="ssr:hovedgruppe" v="terreng" />
		<tag k="ssr:stedsnr" v="84552" />
		<tag k="ssr:type" v="ås" />
	</node>
	<node id="-30612" lat="59.8768638899" lon="11.1363611099">
		<tag k="name" v="Løkkadjupet" />
		<tag k="place" v="locality" />
		<tag k="ssr:date" v="2019-12-27" />
		<tag k="ssr:gruppe" v="rennendeVann" />
		<tag k="ssr:hovedgruppe" v="ferskvann" />
		<tag k="ssr:stedsnr" v="84526" />
		<tag k="ssr:type" v="høl" />
	</node>
	<node id="-30611" lat="59.8839444432" lon="11.0281055603">
		<tag k="name" v="Vestre Huktjern" />
		<tag k="natural" v="water" />
		<tag k="ssr:date" v="2019-12-27" />
		<tag k="ssr:gruppe" v="stilleståendeVann" />
		<tag k="ssr:hovedgruppe" v="ferskvann" />
		<tag k="ssr:stedsnr" v="84523" />
		<tag k="ssr:type" v="tjern" />
	</node>
	<node id="-30610" lat="59.8287666628" lon="11.1946388818">
		<tag k="fixme" v="consider boundary=protected_area and relevant protect_class if not nature reserve" />
		<tag k="leisure" v="nature_reserve" />
		<tag k="name" v="Nordre Øyeren naturreservat" />
		<tag k="ssr:date" v="2019-12-27" />
		<tag k="ssr:gruppe" v="verne-OgBruksområder" />
		<tag k="ssr:hovedgruppe" v="offentligAdministrasjon" />
		<tag k="ssr:stedsnr" v="83359" />
		<tag k="ssr:type" v="verneområde" />
	</node>
	<node id="-30609" lat="59.8542583368" lon="11.0177749914">
		<tag k="alt_name" v="Biritjern" />
		<tag k="name" v="Biritjernet" />
		<tag k="natural" v="water" />
		<tag k="ssr:date" v="2019-12-27" />
		<tag k="ssr:gruppe" v="stilleståendeVann" />
		<tag k="ssr:hovedgruppe" v="ferskvann" />
		<tag k="ssr:stedsnr" v="247214" />
		<tag k="ssr:type" v="tjern" />
	</node>
	<node id="-30608" lat="59.865486113" lon="11.0647472247">
		<tag k="alt_name" v="Tjuvestuåsen" />
		<tag k="fixme" v="consider natural=peak for the most distinct mountains in the district" />
		<tag k="name" v="Tjuvstuåsen" />
		<tag k="natural" v="hill" />
		<tag k="place" v="locality" />
		<tag k="ssr:date" v="2019-12-27" />
		<tag k="ssr:gruppe" v="høyder" />
		<tag k="ssr:hovedgruppe" v="terreng" />
		<tag k="ssr:stedsnr" v="247150" />
		<tag k="ssr:type" v="ås" />
	</node>
	<node id="-30607" lat="59.8675222201" lon="11.0425333408">
		<tag k="alt_name" v="Bjørtjerna, øvre" />
		<tag k="name" v="Søndre Bjørtjern" />
		<tag k="natural" v="water" />
		<tag k="ssr:date" v="2019-12-27" />
		<tag k="ssr:gruppe" v="stilleståendeVann" />
		<tag k="ssr:hovedgruppe" v="ferskvann" />
		<tag k="ssr:stedsnr" v="247138" />
		<tag k="ssr:type" v="tjern" />
	</node>
	<node id="-30606" lat="59.86308611" lon="11.0498694522">
		<tag k="alt_name" v="Langvann" />
		<tag k="name" v="Langvannet" />
		<tag k="natural" v="water" />
		<tag k="old_name" v="Langvatn" />
		<tag k="ssr:date" v="2019-12-27" />
		<tag k="ssr:gruppe" v="stilleståendeVann" />
		<tag k="ssr:hovedgruppe" v="ferskvann" />
		<tag k="ssr:stedsnr" v="247136" />
		<tag k="ssr:type" v="tjern" />
	</node>
	<node id="-30605" lat="59.8773222265" lon="11.089725002">
		<tag k="name" v="Grini" />
		<tag k="place" v="farm" />
		<tag k="ssr:date" v="2019-12-27" />
		<tag k="ssr:gruppe" v="gardsbebyggelse" />
		<tag k="ssr:hovedgruppe" v="bebyggelse" />
		<tag k="ssr:stedsnr" v="247120" />
		<tag k="ssr:type" v="bruk" />
	</node>
	<node id="-30604" lat="59.8710305513" lon="11.0890166632">
		<tag k="alt_name" v="Hestløkka" />
		<tag k="name" v="Hesteløkka" />
		<tag k="place" v="isolated_dwelling" />
		<tag k="ssr:date" v="2019-12-27" />
		<tag k="ssr:gruppe" v="bolighus" />
		<tag k="ssr:hovedgruppe" v="bebyggelse" />
		<tag k="ssr:stedsnr" v="247118" />
		<tag k="ssr:type" v="eneboligMindreBoligbygg" />
	</node>
	<node id="-30603" lat="59.8776472253" lon="11.0932916583">
		<tag k="alt_name" v="Grini Øststua" />
		<tag k="name" v="Grini" />
		<tag k="place" v="farm" />
		<tag k="ssr:date" v="2019-12-27" />
		<tag k="ssr:gruppe" v="gardsbebyggelse" />
		<tag k="ssr:hovedgruppe" v="bebyggelse" />
		<tag k="ssr:stedsnr" v="66501" />
		<tag k="ssr:type" v="bruk" />
	</node>
	<node id="-30602" lat="59.9018750024" lon="11.0919777801">
		<tag k="alt_name" v="Flateby" />
		<tag k="name" v="Flatby" />
		<tag k="place" v="farm" />
		<tag k="ssr:date" v="2019-12-27" />
		<tag k="ssr:gruppe" v="gardsbebyggelse" />
		<tag k="ssr:hovedgruppe" v="bebyggelse" />
		<tag k="ssr:stedsnr" v="65632" />
		<tag k="ssr:type" v="bruk" />
	</node>
	<node id="-30601" lat="59.848988888" lon="11.1220166609">
		<tag k="name" v="Bråten" />
		<tag k="place" v="farm" />
		<tag k="ssr:date" v="2019-12-27" />
		<tag k="ssr:gruppe" v="gardsbebyggelse" />
		<tag k="ssr:hovedgruppe" v="bebyggelse" />
		<tag k="ssr:stedsnr" v="65739" />
		<tag k="ssr:type" v="bruk" />
	</node>
	<node id="-30600" lat="59.8440138851" lon="11.0989055619">
		<tag k="name" v="Slortjern" />
		<tag k="natural" v="water" />
		<tag k="ssr:date" v="2019-12-27" />
		<tag k="ssr:gruppe" v="stilleståendeVann" />
		<tag k="ssr:hovedgruppe" v="ferskvann" />
		<tag k="ssr:stedsnr" v="65737" />
		<tag k="ssr:type" v="tjern" />
	</node>
	<node id="-30599" lat="59.9124830648" lon="11.0911153518">
		<tag k="name" v="Holt" />
		<tag k="place" v="farm" />
		<tag k="ssr:date" v="2019-12-27" />
		<tag k="ssr:gruppe" v="gardsbebyggelse" />
		<tag k="ssr:hovedgruppe" v="bebyggelse" />
		<tag k="ssr:stedsnr" v="65102" />
		<tag k="ssr:type" v="bruk" />
	</node>
	<node id="-30598" lat="59.9236916676" lon="11.0663500059">
		<tag k="bridge" v="yes" />
		<tag k="layer" v="1" />
		<tag k="name" v="Fjerdingby" />
		<tag k="ssr:date" v="2019-12-27" />
		<tag k="ssr:gruppe" v="samferdselsanlegg" />
		<tag k="ssr:hovedgruppe" v="infrastruktur" />
		<tag k="ssr:stedsnr" v="228036" />
		<tag k="ssr:type" v="bru" />
	</node>
	<node id="-30597" lat="59.9458888867" lon="11.0384833262">
		<tag k="bridge" v="yes" />
		<tag k="layer" v="1" />
		<tag k="name" v="Stormyrvegen" />
		<tag k="ssr:date" v="2019-12-27" />
		<tag k="ssr:gruppe" v="samferdselsanlegg" />
		<tag k="ssr:hovedgruppe" v="infrastruktur" />
		<tag k="ssr:stedsnr" v="228033" />
		<tag k="ssr:type" v="bru" />
	</node>
	<node id="-30596" lat="59.8666277763" lon="11.0819749947">
		<tag k="name" v="Hurtigdråga" />
		<tag k="natural" v="valley" />
		<tag k="place" v="locality" />
		<tag k="ssr:date" v="2019-12-27" />
		<tag k="ssr:gruppe" v="senkninger" />
		<tag k="ssr:hovedgruppe" v="terreng" />
		<tag k="ssr:stedsnr" v="24603" />
		<tag k="ssr:type" v="dal" />
	</node>
	<node id="-30595" lat="59.8359222257" lon="11.0907222218">
		<tag k="name" v="Hakkemåsan" />
		<tag k="natural" v="wetland" />
		<tag k="ssr:date" v="2019-12-27" />
		<tag k="ssr:gruppe" v="våtmark" />
		<tag k="ssr:hovedgruppe" v="markslag" />
		<tag k="ssr:stedsnr" v="23712" />
		<tag k="ssr:type" v="myr" />
	</node>
	<node id="-30594" lat="59.845863885" lon="11.067827785">
		<tag k="fixme" v="consider natural=peak for the most distinct mountains in the district" />
		<tag k="name" v="Svarttjernåsen" />
		<tag k="natural" v="hill" />
		<tag k="place" v="locality" />
		<tag k="ssr:date" v="2019-12-27" />
		<tag k="ssr:gruppe" v="høyder" />
		<tag k="ssr:hovedgruppe" v="terreng" />
		<tag k="ssr:stedsnr" v="23710" />
		<tag k="ssr:type" v="ås" />
	</node>
	<node id="-31010" lat="59.8785638891" lon="11.0834777716">
		<tag k="name" v="Grinibråtan" />
		<tag k="place" v="locality" />
		<tag k="ssr:date" v="2019-12-27" />
		<tag k="ssr:gruppe" v="bolighus" />
		<tag k="ssr:hovedgruppe" v="bebyggelse" />
		<tag k="ssr:stedsnr" v="874685" />
		<tag k="ssr:type" v="gammelBosettingsplass" />
	</node>
	<node id="-31009" lat="59.8625916685" lon="11.0660083406">
		<tag k="name" v="Indre Isdalshøgda" />
		<tag k="natural" v="hill" />
		<tag k="place" v="locality" />
		<tag k="ssr:date" v="2019-12-27" />
		<tag k="ssr:gruppe" v="høyder" />
		<tag k="ssr:hovedgruppe" v="terreng" />
		<tag k="ssr:stedsnr" v="874684" />
		<tag k="ssr:type" v="høyde" />
	</node>
	<node id="-31008" lat="59.8623166628" lon="11.1035333251">
		<tag k="name" v="Østby" />
		<tag k="place" v="isolated_dwelling" />
		<tag k="ssr:date" v="2019-12-27" />
		<tag k="ssr:gruppe" v="bolighus" />
		<tag k="ssr:hovedgruppe" v="bebyggelse" />
		<tag k="ssr:stedsnr" v="874636" />
		<tag k="ssr:type" v="eneboligMindreBoligbygg" />
	</node>
	<node id="-31007" lat="59.8591111093" lon="11.0931472233">
		<tag k="name" v="Løkka" />
		<tag k="place" v="hamlet" />
		<tag k="ssr:date" v="2019-12-27" />
		<tag k="ssr:gruppe" v="bebyggelsesområder" />
		<tag k="ssr:hovedgruppe" v="bebyggelse" />
		<tag k="ssr:stedsnr" v="874629" />
		<tag k="ssr:type" v="grend" />
	</node>
	<node id="-31006" lat="59.9259916631" lon="11.0637777715">
		<tag k="name" v="Bjørnholthagan" />
		<tag k="natural" v="hill" />
		<tag k="place" v="locality" />
		<tag k="ssr:date" v="2019-12-27" />
		<tag k="ssr:gruppe" v="høyder" />
		<tag k="ssr:hovedgruppe" v="terreng" />
		<tag k="ssr:stedsnr" v="874589" />
		<tag k="ssr:type" v="høyde" />
	</node>
	<node id="-31005" lat="59.8918388924" lon="11.1266555602">
		<tag k="name" v="Storfloa" />
		<tag k="place" v="locality" />
		<tag k="ssr:date" v="2019-12-27" />
		<tag k="ssr:gruppe" v="dyrkamark" />
		<tag k="ssr:hovedgruppe" v="markslag" />
		<tag k="ssr:stedsnr" v="873497" />
		<tag k="ssr:type" v="jorde" />
	</node>
	<node id="-31004" lat="59.8700000022" lon="11.0463472151">
		<tag k="name" v="Holoa" />
		<tag k="place" v="locality" />
		<tag k="ssr:date" v="2019-12-27" />
		<tag k="ssr:gruppe" v="dyrkamark" />
		<tag k="ssr:hovedgruppe" v="markslag" />
		<tag k="ssr:stedsnr" v="873495" />
		<tag k="ssr:type" v="utmark" />
	</node>
	<node id="-31003" lat="59.8414333366" lon="11.0692138848">
		<tag k="name" v="Festningsdalen" />
		<tag k="natural" v="valley" />
		<tag k="place" v="locality" />
		<tag k="ssr:date" v="2019-12-27" />
		<tag k="ssr:gruppe" v="senkninger" />
		<tag k="ssr:hovedgruppe" v="terreng" />
		<tag k="ssr:stedsnr" v="873652" />
		<tag k="ssr:type" v="dal" />
	</node>
	<node id="-31002" lat="59.8946944404" lon="11.1198861071">
		<tag k="name" v="Skogholtsåa" />
		<tag k="ssr:date" v="2019-12-27" />
		<tag k="ssr:gruppe" v="rennendeVann" />
		<tag k="ssr:hovedgruppe" v="ferskvann" />
		<tag k="ssr:stedsnr" v="873482" />
		<tag k="ssr:type" v="elv" />
		<tag k="waterway" v="river" />
	</node>
	<node id="-31001" lat="59.884480554" lon="11.0434583289">
		<tag k="name" v="Øvre Setertjern" />
		<tag k="natural" v="water" />
		<tag k="ssr:date" v="2019-12-27" />
		<tag k="ssr:gruppe" v="stilleståendeVann" />
		<tag k="ssr:hovedgruppe" v="ferskvann" />
		<tag k="ssr:stedsnr" v="873479" />
		<tag k="ssr:type" v="tjern" />
	</node>
	<node id="-31000" lat="59.8778916696" lon="11.0423916651">
		<tag k="name" v="Romperud" />
		<tag k="place" v="locality" />
		<tag k="ssr:date" v="2019-12-27" />
		<tag k="ssr:gruppe" v="bolighus" />
		<tag k="ssr:hovedgruppe" v="bebyggelse" />
		<tag k="ssr:stedsnr" v="873390" />
		<tag k="ssr:type" v="gammelBosettingsplass" />
	</node>
	<node id="-30999" lat="59.8588222224" lon="11.1033666664">
		<tag k="name" v="Stuetomta" />
		<tag k="place" v="isolated_dwelling" />
		<tag k="ssr:date" v="2019-12-27" />
		<tag k="ssr:gruppe" v="bolighus" />
		<tag k="ssr:hovedgruppe" v="bebyggelse" />
		<tag k="ssr:stedsnr" v="813608" />
		<tag k="ssr:type" v="eneboligMindreBoligbygg" />
	</node>
	<node id="-30998" lat="59.8704638863" lon="11.083588893">
		<tag k="name" v="Oppvestby" />
		<tag k="place" v="hamlet" />
		<tag k="ssr:date" v="2019-12-27" />
		<tag k="ssr:gruppe" v="bebyggelsesområder" />
		<tag k="ssr:hovedgruppe" v="bebyggelse" />
		<tag k="ssr:stedsnr" v="813596" />
		<tag k="ssr:type" v="grend" />
	</node>
	<node id="-30996" lat="59.904869446" lon="11.0700277712">
		<tag k="name" v="Høgåsdammen" />
		<tag k="natural" v="wetland" />
		<tag k="ssr:date" v="2019-12-27" />
		<tag k="ssr:gruppe" v="våtmark" />
		<tag k="ssr:hovedgruppe" v="markslag" />
		<tag k="ssr:stedsnr" v="812776" />
		<tag k="ssr:type" v="myr" />
	</node>
	<node id="-30995" lat="59.8990194449" lon="11.1064000024">
		<tag k="name" v="Skogholthagan" />
		<tag k="place" v="locality" />
		<tag k="ssr:date" v="2019-12-27" />
		<tag k="ssr:gruppe" v="dyrkamark" />
		<tag k="ssr:hovedgruppe" v="markslag" />
		<tag k="ssr:stedsnr" v="812774" />
		<tag k="ssr:type" v="utmark" />
	</node>
	<node id="-30994" lat="59.912438889" lon="11.0902444445">
		<tag k="name" v="Vestby" />
		<tag k="place" v="hamlet" />
		<tag k="ssr:date" v="2019-12-27" />
		<tag k="ssr:gruppe" v="bebyggelsesområder" />
		<tag k="ssr:hovedgruppe" v="bebyggelse" />
		<tag k="ssr:stedsnr" v="812766" />
		<tag k="ssr:type" v="grend" />
	</node>
	<node id="-30993" lat="59.9142444471" lon="11.0863388938">
		<tag k="name" v="Holthagan" />
		<tag k="place" v="locality" />
		<tag k="ssr:date" v="2019-12-27" />
		<tag k="ssr:gruppe" v="gardsbebyggelse" />
		<tag k="ssr:hovedgruppe" v="bebyggelse" />
		<tag k="ssr:stedsnr" v="812758" />
		<tag k="ssr:type" v="byggForJordbrukFiskeOgFangst" />
	</node>
	<node id="-30992" lat="59.904308333" lon="11.0904694401">
		<tag k="name" v="Skoglund" />
		<tag k="place" v="farm" />
		<tag k="ssr:date" v="2019-12-27" />
		<tag k="ssr:gruppe" v="gardsbebyggelse" />
		<tag k="ssr:hovedgruppe" v="bebyggelse" />
		<tag k="ssr:stedsnr" v="812756" />
		<tag k="ssr:type" v="bruk" />
	</node>
	<node id="-30991" lat="59.8843027749" lon="11.0905305616">
		<tag k="fixme" v="consider natural=peak for the most distinct mountains in the district" />
		<tag k="name" v="Tveiteråsen" />
		<tag k="natural" v="hill" />
		<tag k="place" v="locality" />
		<tag k="ssr:date" v="2019-12-27" />
		<tag k="ssr:gruppe" v="høyder" />
		<tag k="ssr:hovedgruppe" v="terreng" />
		<tag k="ssr:stedsnr" v="812724" />
		<tag k="ssr:type" v="ås" />
	</node>
	<node id="-30990" lat="59.8777027817" lon="11.1082472254">
		<tag k="name" v="Fettavika" />
		<tag k="natural" v="bay" />
		<tag k="ssr:date" v="2019-12-27" />
		<tag k="ssr:gruppe" v="ferskvannskontur" />
		<tag k="ssr:hovedgruppe" v="ferskvann" />
		<tag k="ssr:stedsnr" v="812722" />
		<tag k="ssr:type" v="vik" />
	</node>
	<node id="-30989" lat="59.8400666674" lon="11.0769444462">
		<tag k="fixme" v="consider natural=peak for the most distinct mountains in the district" />
		<tag k="name" v="Oskaråsen" />
		<tag k="natural" v="hill" />
		<tag k="place" v="locality" />
		<tag k="ssr:date" v="2019-12-27" />
		<tag k="ssr:gruppe" v="høyder" />
		<tag k="ssr:hovedgruppe" v="terreng" />
		<tag k="ssr:stedsnr" v="812710" />
		<tag k="ssr:type" v="ås" />
	</node>
	<node id="-30988" lat="59.8457027801" lon="11.0895611114">
		<tag k="fixme" v="consider natural=peak for the most distinct mountains in the district" />
		<tag k="name" v="Gutubråtaåsen" />
		<tag k="natural" v="hill" />
		<tag k="place" v="locality" />
		<tag k="ssr:date" v="2019-12-27" />
		<tag k="ssr:gruppe" v="høyder" />
		<tag k="ssr:hovedgruppe" v="terreng" />
		<tag k="ssr:stedsnr" v="812704" />
		<tag k="ssr:type" v="ås" />
	</node>
	<node id="-30987" lat="59.8837555576" lon="11.0966666756">
		<tag k="name" v="Nordstua Jaer" />
		<tag k="place" v="farm" />
		<tag k="ssr:date" v="2019-12-27" />
		<tag k="ssr:gruppe" v="gardsbebyggelse" />
		<tag k="ssr:hovedgruppe" v="bebyggelse" />
		<tag k="ssr:stedsnr" v="812685" />
		<tag k="ssr:type" v="bruk" />
	</node>
	<node id="-30986" lat="59.8960250024" lon="11.1025527691">
		<tag k="name" v="Solbu" />
		<tag k="place" v="farm" />
		<tag k="ssr:date" v="2019-12-27" />
		<tag k="ssr:gruppe" v="gardsbebyggelse" />
		<tag k="ssr:hovedgruppe" v="bebyggelse" />
		<tag k="ssr:stedsnr" v="812678" />
		<tag k="ssr:type" v="bruk" />
	</node>
	<node id="-30985" lat="59.9238805552" lon="11.0588916721">
		<tag k="leisure" v="pitch" />
		<tag k="name" v="Rælingen stadion" />
		<tag k="ssr:date" v="2019-12-27" />
		<tag k="ssr:gruppe" v="fritidsanlegg" />
		<tag k="ssr:hovedgruppe" v="bebyggelse" />
		<tag k="ssr:stedsnr" v="812598" />
		<tag k="ssr:type" v="idrettsanlegg" />
	</node>
	<node id="-30984" lat="59.9288027789" lon="11.0446277732">
		<tag k="name" v="Åshøgda" />
		<tag k="natural" v="hill" />
		<tag k="place" v="locality" />
		<tag k="ssr:date" v="2019-12-27" />
		<tag k="ssr:gruppe" v="høyder" />
		<tag k="ssr:hovedgruppe" v="terreng" />
		<tag k="ssr:stedsnr" v="812593" />
		<tag k="ssr:type" v="høyde" />
	</node>
	<node id="-30983" lat="59.9335754669" lon="11.0298294798">
		<tag k="alt_name" v="Sandbekken ungd. skole" />
		<tag k="amenity" v="school" />
		<tag k="name" v="Sandbekken ungdomsskole" />
		<tag k="ssr:date" v="2020-02-05" />
		<tag k="ssr:gruppe" v="institusjoner" />
		<tag k="ssr:hovedgruppe" v="bebyggelse" />
		<tag k="ssr:stedsnr" v="812585" />
		<tag k="ssr:type" v="skole" />
	</node>
	<node id="-30982" lat="59.8431388904" lon="11.0335305573">
		<tag k="name" v="Tappenberg" />
		<tag k="natural" v="hill" />
		<tag k="place" v="locality" />
		<tag k="ssr:date" v="2019-12-27" />
		<tag k="ssr:gruppe" v="høyder" />
		<tag k="ssr:hovedgruppe" v="terreng" />
		<tag k="ssr:stedsnr" v="812569" />
		<tag k="ssr:type" v="berg" />
	</node>
	<node id="-30981" lat="59.8518805528" lon="11.0422999975">
		<tag k="name" v="Tørrbiten" />
		<tag k="natural" v="hill" />
		<tag k="place" v="locality" />
		<tag k="ssr:date" v="2019-12-27" />
		<tag k="ssr:gruppe" v="høyder" />
		<tag k="ssr:hovedgruppe" v="terreng" />
		<tag k="ssr:stedsnr" v="812567" />
		<tag k="ssr:type" v="høyde" />
	</node>
	<node id="-30980" lat="59.8648777811" lon="11.0468472166">
		<tag k="name" v="Langtjernhøgda" />
		<tag k="natural" v="hill" />
		<tag k="place" v="locality" />
		<tag k="ssr:date" v="2019-12-27" />
		<tag k="ssr:gruppe" v="høyder" />
		<tag k="ssr:hovedgruppe" v="terreng" />
		<tag k="ssr:stedsnr" v="812561" />
		<tag k="ssr:type" v="høyde" />
	</node>
	<node id="-30979" lat="59.8794222211" lon="11.0198444417">
		<tag k="name" v="Hvitvannsmyra" />
		<tag k="natural" v="wetland" />
		<tag k="ssr:date" v="2019-12-27" />
		<tag k="ssr:gruppe" v="våtmark" />
		<tag k="ssr:hovedgruppe" v="markslag" />
		<tag k="ssr:stedsnr" v="812556" />
		<tag k="ssr:type" v="myr" />
	</node>
	<node id="-30978" lat="59.906255559" lon="11.030369438">
		<tag k="name" v="Blåtjerntangen" />
		<tag k="natural" v="cape" />
		<tag k="ssr:date" v="2019-12-27" />
		<tag k="ssr:gruppe" v="ferskvannskontur" />
		<tag k="ssr:hovedgruppe" v="ferskvann" />
		<tag k="ssr:stedsnr" v="812552" />
		<tag k="ssr:type" v="nes" />
	</node>
	<node id="-30977" lat="59.8912583345" lon="11.0238138941">
		<tag k="historic" v="shieling" />
		<tag k="name" v="Vestegårdsetra" />
		<tag k="place" v="locality" />
		<tag k="ssr:date" v="2019-12-27" />
		<tag k="ssr:gruppe" v="dyrkamark" />
		<tag k="ssr:hovedgruppe" v="markslag" />
		<tag k="ssr:stedsnr" v="812548" />
		<tag k="ssr:type" v="setervoll" />
	</node>
	<node id="-30976" lat="59.8901833351" lon="11.0226055575">
		<tag k="historic" v="shieling" />
		<tag k="name" v="Østegårdsetra" />
		<tag k="place" v="locality" />
		<tag k="ssr:date" v="2019-12-27" />
		<tag k="ssr:gruppe" v="dyrkamark" />
		<tag k="ssr:hovedgruppe" v="markslag" />
		<tag k="ssr:stedsnr" v="812547" />
		<tag k="ssr:type" v="setervoll" />
	</node>
	<node id="-30975" lat="59.8951444476" lon="11.0480277744">
		<tag k="name" v="Kommunehytta" />
		<tag k="place" v="isolated_dwelling" />
		<tag k="ssr:date" v="2019-12-27" />
		<tag k="ssr:gruppe" v="bolighus" />
		<tag k="ssr:hovedgruppe" v="bebyggelse" />
		<tag k="ssr:stedsnr" v="812403" />
		<tag k="ssr:type" v="fritidsbolig" />
	</node>
	<node id="-30974" lat="59.8418166641" lon="11.1396972153">
		<tag k="name" v="Sofiedal" />
		<tag k="place" v="isolated_dwelling" />
		<tag k="ssr:date" v="2019-12-27" />
		<tag k="ssr:gruppe" v="bolighus" />
		<tag k="ssr:hovedgruppe" v="bebyggelse" />
		<tag k="ssr:stedsnr" v="794747" />
		<tag k="ssr:type" v="eneboligMindreBoligbygg" />
	</node>
	<node id="-30973" lat="59.8558944474" lon="11.1069055591">
		<tag k="name" v="By" />
		<tag k="place" v="farm" />
		<tag k="ssr:date" v="2019-12-27" />
		<tag k="ssr:gruppe" v="gardsbebyggelse" />
		<tag k="ssr:hovedgruppe" v="bebyggelse" />
		<tag k="ssr:stedsnr" v="793741" />
		<tag k="ssr:type" v="bruk" />
	</node>
	<node id="-30972" lat="59.8601472187" lon="11.0983888913">
		<tag k="name" v="Karlstad" />
		<tag k="place" v="farm" />
		<tag k="ssr:date" v="2019-12-27" />
		<tag k="ssr:gruppe" v="gardsbebyggelse" />
		<tag k="ssr:hovedgruppe" v="bebyggelse" />
		<tag k="ssr:stedsnr" v="793719" />
		<tag k="ssr:type" v="bruk" />
	</node>
	<node id="-30971" lat="59.8955305543" lon="11.1029277719">
		<tag k="name" v="Skogholt" />
		<tag k="place" v="farm" />
		<tag k="ssr:date" v="2019-12-27" />
		<tag k="ssr:gruppe" v="gardsbebyggelse" />
		<tag k="ssr:hovedgruppe" v="bebyggelse" />
		<tag k="ssr:stedsnr" v="793674" />
		<tag k="ssr:type" v="bruk" />
	</node>
	<node id="-30970" lat="59.8709777759" lon="11.0764749911">
		<tag k="name" v="Gryta" />
		<tag k="natural" v="water" />
		<tag k="ssr:date" v="2019-12-27" />
		<tag k="ssr:gruppe" v="stilleståendeVann" />
		<tag k="ssr:hovedgruppe" v="ferskvann" />
		<tag k="ssr:stedsnr" v="793152" />
		<tag k="ssr:type" v="tjern" />
	</node>
	<node id="-30969" lat="59.8646027745" lon="11.0854638903">
		<tag k="fixme" v="consider natural=peak for the most distinct mountains in the district" />
		<tag k="name" v="Tjanåsen" />
		<tag k="natural" v="hill" />
		<tag k="place" v="locality" />
		<tag k="ssr:date" v="2019-12-27" />
		<tag k="ssr:gruppe" v="høyder" />
		<tag k="ssr:hovedgruppe" v="terreng" />
		<tag k="ssr:stedsnr" v="793151" />
		<tag k="ssr:type" v="ås" />
	</node>
	<node id="-30968" lat="59.9190305591" lon="11.0271555612">
		<tag k="name" v="Åmotdammen" />
		<tag k="natural" v="water" />
		<tag k="ssr:date" v="2019-12-27" />
		<tag k="ssr:gruppe" v="stilleståendeVann" />
		<tag k="ssr:hovedgruppe" v="ferskvann" />
		<tag k="ssr:stedsnr" v="793100" />
		<tag k="ssr:type" v="vann" />
		<tag k="water" v="lake" />
	</node>
	<node id="-30967" lat="59.9446027753" lon="11.0224722198">
		<tag k="name" v="Stalsberghagen" />
		<tag k="place" v="locality" />
		<tag k="ssr:date" v="2019-12-27" />
		<tag k="ssr:gruppe" v="kulturminner" />
		<tag k="ssr:hovedgruppe" v="kultur" />
		<tag k="ssr:stedsnr" v="793034" />
		<tag k="ssr:type" v="annenKulturdetalj" />
	</node>
	<node id="-30966" lat="59.92566111" lon="11.070274999">
		<tag k="name" v="Bjørnholt" />
		<tag k="place" v="farm" />
		<tag k="ssr:date" v="2019-12-27" />
		<tag k="ssr:gruppe" v="gardsbebyggelse" />
		<tag k="ssr:hovedgruppe" v="bebyggelse" />
		<tag k="ssr:stedsnr" v="793002" />
		<tag k="ssr:type" v="bruk" />
	</node>
	<node id="-30965" lat="59.8761833316" lon="11.0271555564">
		<tag k="alt_name" v="Opptjern" />
		<tag k="name" v="Opptjernet" />
		<tag k="natural" v="water" />
		<tag k="ssr:date" v="2019-12-27" />
		<tag k="ssr:gruppe" v="stilleståendeVann" />
		<tag k="ssr:hovedgruppe" v="ferskvann" />
		<tag k="ssr:stedsnr" v="793193" />
		<tag k="ssr:type" v="tjern" />
	</node>
	<node id="-30964" lat="59.8643527802" lon="11.0719944497">
		<tag k="name" v="Fremste Isdalshøgda" />
		<tag k="natural" v="hill" />
		<tag k="place" v="locality" />
		<tag k="ssr:date" v="2019-12-27" />
		<tag k="ssr:gruppe" v="høyder" />
		<tag k="ssr:hovedgruppe" v="terreng" />
		<tag k="ssr:stedsnr" v="752634" />
		<tag k="ssr:type" v="høyde" />
	</node>
	<node id="-30963" lat="59.8734555595" lon="11.0937916588">
		<tag k="name" v="Neshagan" />
		<tag k="place" v="locality" />
		<tag k="ssr:date" v="2019-12-27" />
		<tag k="ssr:gruppe" v="gardsbebyggelse" />
		<tag k="ssr:hovedgruppe" v="bebyggelse" />
		<tag k="ssr:stedsnr" v="752594" />
		<tag k="ssr:type" v="byggForJordbrukFiskeOgFangst" />
	</node>
	<node id="-30962" lat="59.9370388932" lon="11.0648916674">
		<tag k="name" v="Nedre Åmot" />
		<tag k="place" v="farm" />
		<tag k="ssr:date" v="2019-12-27" />
		<tag k="ssr:gruppe" v="gardsbebyggelse" />
		<tag k="ssr:hovedgruppe" v="bebyggelse" />
		<tag k="ssr:stedsnr" v="752550" />
		<tag k="ssr:type" v="bruk" />
	</node>
	<node id="-30961" lat="59.9436444459" lon="11.0298555527">
		<tag k="name" v="Furukollen" />
		<tag k="natural" v="hill" />
		<tag k="place" v="locality" />
		<tag k="ssr:date" v="2019-12-27" />
		<tag k="ssr:gruppe" v="høyder" />
		<tag k="ssr:hovedgruppe" v="terreng" />
		<tag k="ssr:stedsnr" v="751772" />
		<tag k="ssr:type" v="høyde" />
	</node>
	<node id="-30960" lat="59.9433138922" lon="11.0564166662">
		<tag k="name" v="Borgen" />
		<tag k="place" v="hamlet" />
		<tag k="ssr:date" v="2019-12-27" />
		<tag k="ssr:gruppe" v="bebyggelsesområder" />
		<tag k="ssr:hovedgruppe" v="bebyggelse" />
		<tag k="ssr:stedsnr" v="751729" />
		<tag k="ssr:type" v="grend" />
	</node>
	<node id="-30959" lat="59.949924996" lon="11.0422444388">
		<tag k="name" v="Rudsberget" />
		<tag k="place" v="isolated_dwelling" />
		<tag k="ssr:date" v="2019-12-27" />
		<tag k="ssr:gruppe" v="bolighus" />
		<tag k="ssr:hovedgruppe" v="bebyggelse" />
		<tag k="ssr:stedsnr" v="751727" />
		<tag k="ssr:type" v="eneboligMindreBoligbygg" />
	</node>
	<node id="-30958" lat="59.8899833307" lon="11.0775444381">
		<tag k="name" v="Storkleiva" />
		<tag k="natural" v="valley" />
		<tag k="place" v="locality" />
		<tag k="ssr:date" v="2019-12-27" />
		<tag k="ssr:gruppe" v="senkninger" />
		<tag k="ssr:hovedgruppe" v="terreng" />
		<tag k="ssr:stedsnr" v="751722" />
		<tag k="ssr:type" v="dal" />
	</node>
	<node id="-30957" lat="59.881530552" lon="11.087238892">
		<tag k="fixme" v="consider natural=peak for the most distinct mountains in the district" />
		<tag k="name" v="Jaeråsen" />
		<tag k="natural" v="hill" />
		<tag k="place" v="locality" />
		<tag k="ssr:date" v="2019-12-27" />
		<tag k="ssr:gruppe" v="høyder" />
		<tag k="ssr:hovedgruppe" v="terreng" />
		<tag k="ssr:stedsnr" v="751721" />
		<tag k="ssr:type" v="ås" />
	</node>
	<node id="-30956" lat="59.8761805518" lon="11.0922638972">
		<tag k="alt_name" v="Grini Søgarden" />
		<tag k="name" v="Søgarden Grini" />
		<tag k="place" v="farm" />
		<tag k="ssr:date" v="2019-12-27" />
		<tag k="ssr:gruppe" v="gardsbebyggelse" />
		<tag k="ssr:hovedgruppe" v="bebyggelse" />
		<tag k="ssr:stedsnr" v="751685" />
		<tag k="ssr:type" v="bruk" />
	</node>
	<node id="-30955" lat="59.9016166656" lon="11.0560000063">
		<tag k="historic" v="shieling" />
		<tag k="name" v="Årnesseter" />
		<tag k="place" v="locality" />
		<tag k="ssr:date" v="2019-12-27" />
		<tag k="ssr:gruppe" v="dyrkamark" />
		<tag k="ssr:hovedgruppe" v="markslag" />
		<tag k="ssr:stedsnr" v="751418" />
		<tag k="ssr:type" v="setervoll" />
	</node>
	<node id="-30954" lat="59.8853416648" lon="11.1006166724">
		<tag k="name" v="Søstufossen" />
		<tag k="natural" v="waterfall" />
		<tag k="ssr:date" v="2019-12-27" />
		<tag k="ssr:gruppe" v="rennendeVann" />
		<tag k="ssr:hovedgruppe" v="ferskvann" />
		<tag k="ssr:stedsnr" v="751674" />
		<tag k="ssr:type" v="foss" />
	</node>
	<node id="-30953" lat="59.8455888927" lon="11.0934277699">
		<tag k="name" v="Tømmermannsmyra" />
		<tag k="natural" v="wetland" />
		<tag k="ssr:date" v="2019-12-27" />
		<tag k="ssr:gruppe" v="våtmark" />
		<tag k="ssr:hovedgruppe" v="markslag" />
		<tag k="ssr:stedsnr" v="630643" />
		<tag k="ssr:type" v="myr" />
	</node>
	<node id="-30952" lat="59.8350027773" lon="11.0678000005">
		<tag k="name" v="Otertjernmyra" />
		<tag k="natural" v="wetland" />
		<tag k="ssr:date" v="2019-12-27" />
		<tag k="ssr:gruppe" v="våtmark" />
		<tag k="ssr:hovedgruppe" v="markslag" />
		<tag k="ssr:stedsnr" v="630631" />
		<tag k="ssr:type" v="myr" />
	</node>
	<node id="-30951" lat="59.9350805525" lon="11.0603138922">
		<tag k="name" v="Lognsdalen" />
		<tag k="natural" v="valley" />
		<tag k="place" v="locality" />
		<tag k="ssr:date" v="2019-12-27" />
		<tag k="ssr:gruppe" v="senkninger" />
		<tag k="ssr:hovedgruppe" v="terreng" />
		<tag k="ssr:stedsnr" v="630500" />
		<tag k="ssr:type" v="dal" />
	</node>
	<node id="-30950" lat="59.9302277794" lon="11.0301194382">
		<tag k="name" v="Blystadhytta" />
		<tag k="place" v="isolated_dwelling" />
		<tag k="ssr:date" v="2019-12-27" />
		<tag k="ssr:gruppe" v="bolighus" />
		<tag k="ssr:hovedgruppe" v="bebyggelse" />
		<tag k="ssr:stedsnr" v="630494" />
		<tag k="ssr:type" v="fritidsbolig" />
	</node>
	<node id="-30949" lat="59.8846333377" lon="11.0599000083">
		<tag k="name" v="Den hvite måsan" />
		<tag k="natural" v="wetland" />
		<tag k="ssr:date" v="2019-12-27" />
		<tag k="ssr:gruppe" v="våtmark" />
		<tag k="ssr:hovedgruppe" v="markslag" />
		<tag k="ssr:stedsnr" v="630470" />
		<tag k="ssr:type" v="myr" />
	</node>
	<node id="-30948" lat="59.8928722224" lon="11.0977916614">
		<tag k="amenity" v="community_centre" />
		<tag k="name" v="Filadelfia" />
		<tag k="ssr:date" v="2019-12-27" />
		<tag k="ssr:gruppe" v="kulturinstitusjoner" />
		<tag k="ssr:hovedgruppe" v="kultur" />
		<tag k="ssr:stedsnr" v="630602" />
		<tag k="ssr:type" v="forsamlingshusKulturhus" />
	</node>
	<node id="-30947" lat="59.8832222225" lon="11.1054055493">
		<tag k="name" v="Kvennhusfossen" />
		<tag k="natural" v="waterfall" />
		<tag k="ssr:date" v="2019-12-27" />
		<tag k="ssr:gruppe" v="rennendeVann" />
		<tag k="ssr:hovedgruppe" v="ferskvann" />
		<tag k="ssr:stedsnr" v="630588" />
		<tag k="ssr:type" v="foss" />
	</node>
	<node id="-30946" lat="59.8481222211" lon="11.125069441">
		<tag k="name" v="Teigen" />
		<tag k="place" v="farm" />
		<tag k="ssr:date" v="2019-12-27" />
		<tag k="ssr:gruppe" v="gardsbebyggelse" />
		<tag k="ssr:hovedgruppe" v="bebyggelse" />
		<tag k="ssr:stedsnr" v="611748" />
		<tag k="ssr:type" v="bruk" />
	</node>
	<node id="-30945" lat="59.8587877561" lon="11.104862923">
		<tag k="name" v="Uller" />
		<tag k="place" v="farm" />
		<tag k="ssr:date" v="2019-12-27" />
		<tag k="ssr:gruppe" v="gardsbebyggelse" />
		<tag k="ssr:hovedgruppe" v="bebyggelse" />
		<tag k="ssr:stedsnr" v="611722" />
		<tag k="ssr:type" v="bruk" />
	</node>
	<node id="-30944" lat="59.8686166662" lon="11.1023694389">
		<tag k="building" v="industrial" />
		<tag k="industrial" v="factory" />
		<tag k="name" v="Nordby bruk" />
		<tag k="ssr:date" v="2019-12-27" />
		<tag k="ssr:gruppe" v="næring" />
		<tag k="ssr:hovedgruppe" v="bebyggelse" />
		<tag k="ssr:stedsnr" v="611700" />
		<tag k="ssr:type" v="fabrikk" />
	</node>
	<node id="-30943" lat="59.8901583326" lon="11.0988305622">
		<tag k="name" v="Østegarden" />
		<tag k="place" v="farm" />
		<tag k="ssr:date" v="2019-12-27" />
		<tag k="ssr:gruppe" v="gardsbebyggelse" />
		<tag k="ssr:hovedgruppe" v="bebyggelse" />
		<tag k="ssr:stedsnr" v="611671" />
		<tag k="ssr:type" v="bruk" />
	</node>
	<node id="-30942" lat="59.828886108" lon="11.091330552">
		<tag k="alt_name" v="Vestre Morttjern" />
		<tag k="name" v="Morttjernet" />
		<tag k="natural" v="water" />
		<tag k="ssr:date" v="2019-12-27" />
		<tag k="ssr:gruppe" v="stilleståendeVann" />
		<tag k="ssr:hovedgruppe" v="ferskvann" />
		<tag k="ssr:stedsnr" v="611300" />
		<tag k="ssr:type" v="tjern" />
	</node>
	<node id="-30941" lat="59.8879249985" lon="11.0905750016">
		<tag k="name" v="Ramstad" />
		<tag k="place" v="farm" />
		<tag k="ssr:date" v="2019-12-27" />
		<tag k="ssr:gruppe" v="gardsbebyggelse" />
		<tag k="ssr:hovedgruppe" v="bebyggelse" />
		<tag k="ssr:stedsnr" v="611081" />
		<tag k="ssr:type" v="bruk" />
	</node>
	<node id="-30940" lat="59.8417527811" lon="11.0574916719">
		<tag k="name" v="Svarttjernet" />
		<tag k="natural" v="water" />
		<tag k="ssr:date" v="2019-12-27" />
		<tag k="ssr:gruppe" v="stilleståendeVann" />
		<tag k="ssr:hovedgruppe" v="ferskvann" />
		<tag k="ssr:stedsnr" v="611194" />
		<tag k="ssr:type" v="tjern" />
	</node>
	<node id="-30939" lat="59.8408027769" lon="11.0405305574">
		<tag k="fixme" v="consider natural=peak for the most distinct mountains in the district" />
		<tag k="name" v="Høgkollen" />
		<tag k="natural" v="hill" />
		<tag k="place" v="locality" />
		<tag k="ssr:date" v="2019-12-27" />
		<tag k="ssr:gruppe" v="høyder" />
		<tag k="ssr:hovedgruppe" v="terreng" />
		<tag k="ssr:stedsnr" v="611193" />
		<tag k="ssr:type" v="ås" />
	</node>
	<node id="-30938" lat="59.9483166699" lon="11.024494453">
		<tag k="alt_name" v="Strøm, vestre" />
		<tag k="name" v="Vestre Strøm" />
		<tag k="place" v="farm" />
		<tag k="ssr:date" v="2019-12-27" />
		<tag k="ssr:gruppe" v="gardsbebyggelse" />
		<tag k="ssr:hovedgruppe" v="bebyggelse" />
		<tag k="ssr:stedsnr" v="611046" />
		<tag k="ssr:type" v="bruk" />
	</node>
	<node id="-30937" lat="59.9376222259" lon="11.0592249961">
		<tag k="name" v="Øgården" />
		<tag k="place" v="isolated_dwelling" />
		<tag k="ssr:date" v="2019-12-27" />
		<tag k="ssr:gruppe" v="bolighus" />
		<tag k="ssr:hovedgruppe" v="bebyggelse" />
		<tag k="ssr:stedsnr" v="611063" />
		<tag k="ssr:type" v="eneboligMindreBoligbygg" />
	</node>
	<node id="-30936" lat="59.8606833328" lon="11.0863777723">
		<tag k="fixme" v="consider natural=peak for the most distinct mountains in the district" />
		<tag k="name" v="Splinteråsen" />
		<tag k="natural" v="hill" />
		<tag k="place" v="locality" />
		<tag k="ssr:date" v="2019-12-27" />
		<tag k="ssr:gruppe" v="høyder" />
		<tag k="ssr:hovedgruppe" v="terreng" />
		<tag k="ssr:stedsnr" v="570636" />
		<tag k="ssr:type" v="ås" />
	</node>
	<node id="-30935" lat="59.8579388925" lon="11.0950555608">
		<tag k="name" v="Tomter" />
		<tag k="place" v="hamlet" />
		<tag k="ssr:date" v="2019-12-27" />
		<tag k="ssr:gruppe" v="bebyggelsesområder" />
		<tag k="ssr:hovedgruppe" v="bebyggelse" />
		<tag k="ssr:stedsnr" v="570574" />
		<tag k="ssr:type" v="grend" />
	</node>
	<node id="-30934" lat="59.8597305543" lon="11.0774361156">
		<tag k="name" v="Fjelldalen" />
		<tag k="natural" v="valley" />
		<tag k="place" v="locality" />
		<tag k="ssr:date" v="2019-12-27" />
		<tag k="ssr:gruppe" v="senkninger" />
		<tag k="ssr:hovedgruppe" v="terreng" />
		<tag k="ssr:stedsnr" v="570563" />
		<tag k="ssr:type" v="dal" />
	</node>
	<node id="-30933" lat="59.8515777802" lon="11.0803416587">
		<tag k="name" v="Korsveihøgdene" />
		<tag k="natural" v="ridge" />
		<tag k="place" v="locality" />
		<tag k="ssr:date" v="2019-12-27" />
		<tag k="ssr:gruppe" v="høyder" />
		<tag k="ssr:hovedgruppe" v="terreng" />
		<tag k="ssr:stedsnr" v="569684" />
		<tag k="ssr:type" v="rygg" />
	</node>
	<node id="-30932" lat="59.8526055582" lon="11.0682444418">
		<tag k="name" v="Bjørnholmen" />
		<tag k="place" v="island" />
		<tag k="ssr:date" v="2019-12-27" />
		<tag k="ssr:gruppe" v="ferskvannskontur" />
		<tag k="ssr:hovedgruppe" v="ferskvann" />
		<tag k="ssr:stedsnr" v="569682" />
		<tag k="ssr:type" v="øy" />
	</node>
	<node id="-30931" lat="59.9407638923" lon="11.0178416653">
		<tag k="fixme" v="consider natural=peak for the most distinct mountains in the district" />
		<tag k="name" v="Bassengåsen" />
		<tag k="natural" v="hill" />
		<tag k="place" v="locality" />
		<tag k="ssr:date" v="2019-12-27" />
		<tag k="ssr:gruppe" v="høyder" />
		<tag k="ssr:hovedgruppe" v="terreng" />
		<tag k="ssr:stedsnr" v="569675" />
		<tag k="ssr:type" v="ås" />
	</node>
	<node id="-30930" lat="59.8859749969" lon="11.1024499985">
		<tag k="name" v="Søstua Tveiter" />
		<tag k="place" v="farm" />
		<tag k="ssr:date" v="2019-12-27" />
		<tag k="ssr:gruppe" v="gardsbebyggelse" />
		<tag k="ssr:hovedgruppe" v="bebyggelse" />
		<tag k="ssr:stedsnr" v="569655" />
		<tag k="ssr:type" v="bruk" />
	</node>
	<node id="-30929" lat="59.9188782526" lon="11.0466773313">
		<tag k="alt_name" v="Marikollenslottet" />
		<tag k="name" v="Marikollslottet" />
		<tag k="natural" v="hill" />
		<tag k="place" v="locality" />
		<tag k="ssr:date" v="2019-12-27" />
		<tag k="ssr:gruppe" v="høyder" />
		<tag k="ssr:hovedgruppe" v="terreng" />
		<tag k="ssr:stedsnr" v="569559" />
		<tag k="ssr:type" v="høyde" />
	</node>
	<node id="-30928" lat="59.9341000034" lon="11.0603916646">
		<tag k="fixme" v="consider place=suburb, village or hamlet" />
		<tag k="name" v="Norum" />
		<tag k="place" v="quarter" />
		<tag k="ssr:date" v="2019-12-27" />
		<tag k="ssr:gruppe" v="bebyggelsesområder" />
		<tag k="ssr:hovedgruppe" v="bebyggelse" />
		<tag k="ssr:stedsnr" v="569557" />
		<tag k="ssr:type" v="tettbebyggelse" />
	</node>
	<node id="-30927" lat="59.9366305584" lon="11.0278999998">
		<tag k="amenity" v="school" />
		<tag k="name" v="Løvenstad skole" />
		<tag k="ssr:date" v="2019-12-27" />
		<tag k="ssr:gruppe" v="institusjoner" />
		<tag k="ssr:hovedgruppe" v="bebyggelse" />
		<tag k="ssr:stedsnr" v="569551" />
		<tag k="ssr:type" v="skole" />
	</node>
	<node id="-30926" lat="59.854644441" lon="11.0504416605">
		<tag k="historic" v="shieling" />
		<tag k="name" v="Nesseter" />
		<tag k="place" v="locality" />
		<tag k="ssr:date" v="2019-12-27" />
		<tag k="ssr:gruppe" v="dyrkamark" />
		<tag k="ssr:hovedgruppe" v="markslag" />
		<tag k="ssr:stedsnr" v="569522" />
		<tag k="ssr:type" v="setervoll" />
	</node>
	<node id="-30925" lat="59.9093000001" lon="11.0372305622">
		<tag k="historic" v="shieling" />
		<tag k="name" v="Fjerdingbyseter" />
		<tag k="place" v="locality" />
		<tag k="ssr:date" v="2019-12-27" />
		<tag k="ssr:gruppe" v="dyrkamark" />
		<tag k="ssr:hovedgruppe" v="markslag" />
		<tag k="ssr:stedsnr" v="569378" />
		<tag k="ssr:type" v="setervoll" />
	</node>
	<node id="-30924" lat="59.8405722223" lon="11.0637555602">
		<tag k="alt_name" v="Morttjern" />
		<tag k="name" v="Morttjernet" />
		<tag k="natural" v="water" />
		<tag k="ssr:date" v="2019-12-27" />
		<tag k="ssr:gruppe" v="stilleståendeVann" />
		<tag k="ssr:hovedgruppe" v="ferskvann" />
		<tag k="ssr:stedsnr" v="551510" />
		<tag k="ssr:type" v="tjern" />
	</node>
	<node id="-30923" lat="59.8534972232" lon="11.0837861115">
		<tag k="alt_name" v="Svarttjern" />
		<tag k="name" v="Svarttjernet" />
		<tag k="natural" v="water" />
		<tag k="ssr:date" v="2019-12-27" />
		<tag k="ssr:gruppe" v="stilleståendeVann" />
		<tag k="ssr:hovedgruppe" v="ferskvann" />
		<tag k="ssr:stedsnr" v="551241" />
		<tag k="ssr:type" v="tjern" />
	</node>
	<node id="-30922" lat="59.8904750046" lon="11.0207499919">
		<tag k="name" v="Djupdalshytta" />
		<tag k="place" v="isolated_dwelling" />
		<tag k="ssr:date" v="2019-12-27" />
		<tag k="ssr:gruppe" v="bolighus" />
		<tag k="ssr:hovedgruppe" v="bebyggelse" />
		<tag k="ssr:stedsnr" v="551087" />
		<tag k="ssr:type" v="fritidsbolig" />
	</node>
	<node id="-30921" lat="59.8679249982" lon="11.0939638946">
		<tag k="name" v="Nordby" />
		<tag k="place" v="farm" />
		<tag k="ssr:date" v="2019-12-27" />
		<tag k="ssr:gruppe" v="gardsbebyggelse" />
		<tag k="ssr:hovedgruppe" v="bebyggelse" />
		<tag k="ssr:stedsnr" v="550689" />
		<tag k="ssr:type" v="bruk" />
	</node>
	<node id="-30920" lat="59.8653833347" lon="11.1000638871">
		<tag k="alt_name" v="Tomta" />
		<tag k="name" v="Tomter" />
		<tag k="place" v="farm" />
		<tag k="ssr:date" v="2019-12-27" />
		<tag k="ssr:gruppe" v="gardsbebyggelse" />
		<tag k="ssr:hovedgruppe" v="bebyggelse" />
		<tag k="ssr:stedsnr" v="550687" />
		<tag k="ssr:type" v="bruk" />
	</node>
	<node id="-30919" lat="59.8986694436" lon="11.110536116">
		<tag k="name" v="Nordhagan" />
		<tag k="place" v="farm" />
		<tag k="ssr:date" v="2019-12-27" />
		<tag k="ssr:gruppe" v="gardsbebyggelse" />
		<tag k="ssr:hovedgruppe" v="bebyggelse" />
		<tag k="ssr:stedsnr" v="550619" />
		<tag k="ssr:type" v="bruk" />
	</node>
	<node id="-30918" lat="59.887880934" lon="11.0584138537">
		<tag k="name" v="Ramstadsjøen" />
		<tag k="natural" v="water" />
		<tag k="ssr:date" v="2019-12-27" />
		<tag k="ssr:gruppe" v="stilleståendeVann" />
		<tag k="ssr:hovedgruppe" v="ferskvann" />
		<tag k="ssr:stedsnr" v="550181" />
		<tag k="ssr:type" v="vann" />
		<tag k="water" v="lake" />
	</node>
	<node id="-30917" lat="59.8873416684" lon="11.047499995">
		<tag k="name" v="Hektnersetra" />
		<tag k="place" v="locality" />
		<tag k="ssr:date" v="2020-03-05" />
		<tag k="ssr:gruppe" v="bolighus" />
		<tag k="ssr:hovedgruppe" v="bebyggelse" />
		<tag k="ssr:stedsnr" v="550179" />
		<tag k="ssr:type" v="gammelBosettingsplass" />
	</node>
	<node id="-30916" lat="59.9091319576" lon="11.0520663816">
		<tag k="name" v="Olaputten" />
		<tag k="natural" v="water" />
		<tag k="ssr:date" v="2019-12-27" />
		<tag k="ssr:gruppe" v="stilleståendeVann" />
		<tag k="ssr:hovedgruppe" v="ferskvann" />
		<tag k="ssr:stedsnr" v="550126" />
		<tag k="ssr:type" v="pytt" />
		<tag k="water" v="pond" />
	</node>
	<node id="-30915" lat="59.9478750035" lon="11.0309500054">
		<tag k="alt_name" v="Strøm, østre" />
		<tag k="name" v="Østre Strøm" />
		<tag k="place" v="farm" />
		<tag k="ssr:date" v="2019-12-27" />
		<tag k="ssr:gruppe" v="gardsbebyggelse" />
		<tag k="ssr:hovedgruppe" v="bebyggelse" />
		<tag k="ssr:stedsnr" v="550047" />
		<tag k="ssr:type" v="bruk" />
	</node>
	<node id="-30914" lat="59.9313083317" lon="11.0774000043">
		<tag k="name" v="Sundet" />
		<tag k="place" v="isolated_dwelling" />
		<tag k="ssr:date" v="2019-12-27" />
		<tag k="ssr:gruppe" v="bolighus" />
		<tag k="ssr:hovedgruppe" v="bebyggelse" />
		<tag k="ssr:stedsnr" v="550008" />
		<tag k="ssr:type" v="eneboligMindreBoligbygg" />
	</node>
	<node id="-30913" lat="59.9270833366" lon="11.0598055533">
		<tag k="alt_name" v="Nygard" />
		<tag k="name" v="Nygård" />
		<tag k="place" v="isolated_dwelling" />
		<tag k="ssr:date" v="2019-12-27" />
		<tag k="ssr:gruppe" v="bolighus" />
		<tag k="ssr:hovedgruppe" v="bebyggelse" />
		<tag k="ssr:stedsnr" v="550004" />
		<tag k="ssr:type" v="eneboligMindreBoligbygg" />
	</node>
	<node id="-30912" lat="59.8487249966" lon="11.0356777749">
		<tag k="name" v="Falkehøgda" />
		<tag k="natural" v="hill" />
		<tag k="place" v="locality" />
		<tag k="ssr:date" v="2019-12-27" />
		<tag k="ssr:gruppe" v="høyder" />
		<tag k="ssr:hovedgruppe" v="terreng" />
		<tag k="ssr:stedsnr" v="430233" />
		<tag k="ssr:type" v="haug" />
	</node>
	<node id="-30911" lat="59.9055361132" lon="11.029105564">
		<tag k="alt_name" v="Blåtjern" />
		<tag k="name" v="Blåtjernet" />
		<tag k="natural" v="water" />
		<tag k="ssr:date" v="2019-12-27" />
		<tag k="ssr:gruppe" v="stilleståendeVann" />
		<tag k="ssr:hovedgruppe" v="ferskvann" />
		<tag k="ssr:stedsnr" v="430062" />
		<tag k="ssr:type" v="tjern" />
	</node>
	<node id="-30910" lat="59.8625305565" lon="11.1071111025">
		<tag k="name" v="Ullervika" />
		<tag k="natural" v="bay" />
		<tag k="ssr:date" v="2019-12-27" />
		<tag k="ssr:gruppe" v="ferskvannskontur" />
		<tag k="ssr:hovedgruppe" v="ferskvann" />
		<tag k="ssr:stedsnr" v="429693" />
		<tag k="ssr:type" v="vik" />
	</node>
	<node id="-30909" lat="59.8790694412" lon="11.0879694417">
		<tag k="name" v="Grinitajet" />
		<tag k="place" v="quarter" />
		<tag k="ssr:date" v="2019-12-27" />
		<tag k="ssr:gruppe" v="bebyggelsesområder" />
		<tag k="ssr:hovedgruppe" v="bebyggelse" />
		<tag k="ssr:stedsnr" v="429167" />
		<tag k="ssr:type" v="boligfelt" />
	</node>
	<node id="-30908" lat="59.9208333354" lon="11.0832222154">
		<tag k="alt_name" v="Rælingen" />
		<tag k="amenity" v="place_of_worship" />
		<tag k="denomination" v="lutheran" />
		<tag k="name" v="Rælingen kirke" />
		<tag k="religion" v="christian" />
		<tag k="ssr:date" v="2019-12-27" />
		<tag k="ssr:gruppe" v="kulturinstitusjoner" />
		<tag k="ssr:hovedgruppe" v="kultur" />
		<tag k="ssr:stedsnr" v="429094" />
		<tag k="ssr:type" v="kirke" />
	</node>
	<node id="-30907" lat="59.8955027812" lon="11.0589222265">
		<tag k="fixme" v="consider natural=peak for the most distinct mountains in the district" />
		<tag k="name" v="Hektnerhøgåsen" />
		<tag k="natural" v="hill" />
		<tag k="place" v="locality" />
		<tag k="ssr:date" v="2019-12-27" />
		<tag k="ssr:gruppe" v="høyder" />
		<tag k="ssr:hovedgruppe" v="terreng" />
		<tag k="ssr:stedsnr" v="429072" />
		<tag k="ssr:type" v="ås" />
	</node>
	<node id="-30906" lat="59.9375583331" lon="11.0273666701">
		<tag k="name" v="Løvenstad" />
		<tag k="place" v="quarter" />
		<tag k="ssr:date" v="2019-12-27" />
		<tag k="ssr:gruppe" v="bebyggelsesområder" />
		<tag k="ssr:hovedgruppe" v="bebyggelse" />
		<tag k="ssr:stedsnr" v="429051" />
		<tag k="ssr:type" v="boligfelt" />
	</node>
	<node id="-30905" lat="59.6971333353" lon="11.2302333413">
		<tag k="name" v="Øyeren" />
		<tag k="natural" v="water" />
		<tag k="ssr:date" v="2019-12-27" />
		<tag k="ssr:gruppe" v="stilleståendeVann" />
		<tag k="ssr:hovedgruppe" v="ferskvann" />
		<tag k="ssr:stedsnr" v="428839" />
		<tag k="ssr:type" v="innsjø" />
		<tag k="water" v="lake" />
	</node>
	<node id="-30904" lat="59.9468916689" lon="11.0470555536">
		<tag k="bridge" v="yes" />
		<tag k="layer" v="1" />
		<tag k="name" v="Rudveien" />
		<tag k="ssr:date" v="2019-12-27" />
		<tag k="ssr:gruppe" v="samferdselsanlegg" />
		<tag k="ssr:hovedgruppe" v="infrastruktur" />
		<tag k="ssr:stedsnr" v="410025" />
		<tag k="ssr:type" v="bru" />
	</node>
	<node id="-30903" lat="59.8845222196" lon="11.0955277794">
		<tag k="highway" v="path" />
		<tag k="name" v="Kongevegen" />
		<tag k="ssr:date" v="2019-12-27" />
		<tag k="ssr:gruppe" v="veg" />
		<tag k="ssr:hovedgruppe" v="infrastruktur" />
		<tag k="ssr:stedsnr" v="388639" />
		<tag k="ssr:type" v="sti" />
	</node>
	<node id="-30902" lat="59.868591668" lon="11.095700009">
		<tag k="name" v="Kikut" />
		<tag k="place" v="isolated_dwelling" />
		<tag k="ssr:date" v="2019-12-27" />
		<tag k="ssr:gruppe" v="bolighus" />
		<tag k="ssr:hovedgruppe" v="bebyggelse" />
		<tag k="ssr:stedsnr" v="388603" />
		<tag k="ssr:type" v="eneboligMindreBoligbygg" />
	</node>
	<node id="-30901" lat="59.8706749986" lon="11.0960611143">
		<tag k="name" v="Svingen" />
		<tag k="place" v="farm" />
		<tag k="ssr:date" v="2019-12-27" />
		<tag k="ssr:gruppe" v="gardsbebyggelse" />
		<tag k="ssr:hovedgruppe" v="bebyggelse" />
		<tag k="ssr:stedsnr" v="388596" />
		<tag k="ssr:type" v="bruk" />
	</node>
	<node id="-30900" lat="59.9119916648" lon="11.0859638878">
		<tag k="fixme" v="consider natural=peak for the most distinct mountains in the district" />
		<tag k="name" v="Hagaåsen" />
		<tag k="natural" v="hill" />
		<tag k="place" v="locality" />
		<tag k="ssr:date" v="2019-12-27" />
		<tag k="ssr:gruppe" v="høyder" />
		<tag k="ssr:hovedgruppe" v="terreng" />
		<tag k="ssr:stedsnr" v="387744" />
		<tag k="ssr:type" v="ås" />
	</node>
	<node id="-30899" lat="59.9148805528" lon="11.0819166643">
		<tag k="name" v="Haug" />
		<tag k="place" v="hamlet" />
		<tag k="ssr:date" v="2019-12-27" />
		<tag k="ssr:gruppe" v="bebyggelsesområder" />
		<tag k="ssr:hovedgruppe" v="bebyggelse" />
		<tag k="ssr:stedsnr" v="387735" />
		<tag k="ssr:type" v="grend" />
	</node>
	<node id="-30898" lat="59.9032527814" lon="11.0917944445">
		<tag k="name" v="Fjell" />
		<tag k="place" v="hamlet" />
		<tag k="ssr:date" v="2019-12-27" />
		<tag k="ssr:gruppe" v="bebyggelsesområder" />
		<tag k="ssr:hovedgruppe" v="bebyggelse" />
		<tag k="ssr:stedsnr" v="387733" />
		<tag k="ssr:type" v="grend" />
	</node>
	<node id="-30897" lat="59.8884000007" lon="11.0995638864">
		<tag k="junction" v="yes" />
		<tag k="name" v="Tveitertørje" />
		<tag k="place" v="locality" />
		<tag k="ssr:date" v="2019-12-27" />
		<tag k="ssr:gruppe" v="veg" />
		<tag k="ssr:hovedgruppe" v="infrastruktur" />
		<tag k="ssr:stedsnr" v="387650" />
		<tag k="ssr:type" v="vegkryss" />
	</node>
	<node id="-30896" lat="59.8762916671" lon="11.0882638814">
		<tag k="name" v="Gjellebekken" />
		<tag k="ssr:date" v="2019-12-27" />
		<tag k="ssr:gruppe" v="rennendeVann" />
		<tag k="ssr:hovedgruppe" v="ferskvann" />
		<tag k="ssr:stedsnr" v="387647" />
		<tag k="ssr:type" v="bekk" />
		<tag k="waterway" v="stream" />
	</node>
	<node id="-30895" lat="59.8931888891" lon="11.0735472233">
		<tag k="name" v="Tyrihuken" />
		<tag k="place" v="locality" />
		<tag k="ssr:date" v="2019-12-27" />
		<tag k="ssr:gruppe" v="dyrkamark" />
		<tag k="ssr:hovedgruppe" v="markslag" />
		<tag k="ssr:stedsnr" v="387646" />
		<tag k="ssr:type" v="utmark" />
	</node>
	<node id="-30894" lat="59.8825527774" lon="11.0820083401">
		<tag k="name" v="Store Breimåsan" />
		<tag k="natural" v="wetland" />
		<tag k="ssr:date" v="2019-12-27" />
		<tag k="ssr:gruppe" v="våtmark" />
		<tag k="ssr:hovedgruppe" v="markslag" />
		<tag k="ssr:stedsnr" v="387644" />
		<tag k="ssr:type" v="myr" />
	</node>
	<node id="-30893" lat="59.9258472248" lon="11.0467166648">
		<tag k="fixme" v="consider natural=peak for the most distinct mountains in the district" />
		<tag k="name" v="Brentås" />
		<tag k="natural" v="hill" />
		<tag k="place" v="locality" />
		<tag k="ssr:date" v="2019-12-27" />
		<tag k="ssr:gruppe" v="høyder" />
		<tag k="ssr:hovedgruppe" v="terreng" />
		<tag k="ssr:stedsnr" v="387585" />
		<tag k="ssr:type" v="ås" />
	</node>
	<node id="-30892" lat="59.9481722254" lon="11.0469055498">
		<tag k="name" v="Sørlivika" />
		<tag k="natural" v="bay" />
		<tag k="ssr:date" v="2019-12-27" />
		<tag k="ssr:gruppe" v="ferskvannskontur" />
		<tag k="ssr:hovedgruppe" v="ferskvann" />
		<tag k="ssr:stedsnr" v="387697" />
		<tag k="ssr:type" v="vik" />
	</node>
	<node id="-30891" lat="59.9454472239" lon="11.0426861095">
		<tag k="amenity" v="school" />
		<tag k="name" v="Rud skole" />
		<tag k="ssr:date" v="2019-12-27" />
		<tag k="ssr:gruppe" v="institusjoner" />
		<tag k="ssr:hovedgruppe" v="bebyggelse" />
		<tag k="ssr:stedsnr" v="387696" />
		<tag k="ssr:type" v="skole" />
	</node>
	<node id="-30890" lat="59.9039833304" lon="11.0417611166">
		<tag k="name" v="Slottsmåsan" />
		<tag k="natural" v="wetland" />
		<tag k="ssr:date" v="2019-12-27" />
		<tag k="ssr:gruppe" v="våtmark" />
		<tag k="ssr:hovedgruppe" v="markslag" />
		<tag k="ssr:stedsnr" v="387540" />
		<tag k="ssr:type" v="myr" />
	</node>
	<node id="-30889" lat="59.8843249987" lon="11.0307999966">
		<tag k="name" v="Østre Huktjern" />
		<tag k="natural" v="water" />
		<tag k="ssr:date" v="2019-12-27" />
		<tag k="ssr:gruppe" v="stilleståendeVann" />
		<tag k="ssr:hovedgruppe" v="ferskvann" />
		<tag k="ssr:stedsnr" v="387538" />
		<tag k="ssr:type" v="tjern" />
	</node>
	<node id="-30888" lat="59.9066499967" lon="11.0968000065">
		<tag k="alt_name" v="Smedstad" />
		<tag k="name" v="Smestad" />
		<tag k="place" v="farm" />
		<tag k="ssr:date" v="2019-12-27" />
		<tag k="ssr:gruppe" v="gardsbebyggelse" />
		<tag k="ssr:hovedgruppe" v="bebyggelse" />
		<tag k="ssr:stedsnr" v="369561" />
		<tag k="ssr:type" v="bruk" />
	</node>
	<node id="-30887" lat="59.8668369441" lon="11.0553999581">
		<tag k="name" v="Mørkåstjerna" />
		<tag k="natural" v="water" />
		<tag k="ssr:date" v="2019-12-27" />
		<tag k="ssr:gruppe" v="stilleståendeVann" />
		<tag k="ssr:hovedgruppe" v="ferskvann" />
		<tag k="ssr:stedsnr" v="369137" />
		<tag k="ssr:type" v="tjern" />
	</node>
	<node id="-30886" lat="59.8854472197" lon="11.0993222147">
		<tag k="alt_name" v="Mogna" />
		<tag k="name" v="Ramstadbekken" />
		<tag k="ssr:date" v="2019-12-27" />
		<tag k="ssr:gruppe" v="rennendeVann" />
		<tag k="ssr:hovedgruppe" v="ferskvann" />
		<tag k="ssr:stedsnr" v="368702" />
		<tag k="ssr:type" v="bekk" />
		<tag k="waterway" v="stream" />
	</node>
	<node id="-30885" lat="59.8328972227" lon="11.0389138864">
		<tag k="alt_name" v="Søndre Krokvann" />
		<tag k="name" v="Søndre Krokvannet" />
		<tag k="natural" v="water" />
		<tag k="ssr:date" v="2019-12-27" />
		<tag k="ssr:gruppe" v="stilleståendeVann" />
		<tag k="ssr:hovedgruppe" v="ferskvann" />
		<tag k="ssr:stedsnr" v="368328" />
		<tag k="ssr:type" v="tjern" />
	</node>
	<node id="-30884" lat="59.9224921418" lon="11.0725216955">
		<tag k="name" v="Hauger" />
		<tag k="place" v="farm" />
		<tag k="ssr:date" v="2019-12-27" />
		<tag k="ssr:gruppe" v="gardsbebyggelse" />
		<tag k="ssr:hovedgruppe" v="bebyggelse" />
		<tag k="ssr:stedsnr" v="368123" />
		<tag k="ssr:type" v="bruk" />
	</node>
	<node id="-30883" lat="59.9465694437" lon="11.0525888811">
		<tag k="name" v="Torva" />
		<tag k="natural" v="cape" />
		<tag k="ssr:date" v="2019-12-27" />
		<tag k="ssr:gruppe" v="ferskvannskontur" />
		<tag k="ssr:hovedgruppe" v="ferskvann" />
		<tag k="ssr:stedsnr" v="327675" />
		<tag k="ssr:type" v="halvøy" />
	</node>
	<node id="-30882" lat="59.8642277768" lon="11.1043777732">
		<tag k="name" v="Fiskebygda" />
		<tag k="place" v="hamlet" />
		<tag k="ssr:date" v="2019-12-27" />
		<tag k="ssr:gruppe" v="bebyggelsesområder" />
		<tag k="ssr:hovedgruppe" v="bebyggelse" />
		<tag k="ssr:stedsnr" v="327590" />
		<tag k="ssr:type" v="grend" />
	</node>
	<node id="-30881" lat="59.8555166648" lon="11.0906361128">
		<tag k="name" v="Stumyra" />
		<tag k="natural" v="wetland" />
		<tag k="ssr:date" v="2019-12-27" />
		<tag k="ssr:gruppe" v="våtmark" />
		<tag k="ssr:hovedgruppe" v="markslag" />
		<tag k="ssr:stedsnr" v="327589" />
		<tag k="ssr:type" v="myr" />
	</node>
	<node id="-30880" lat="59.8516000032" lon="11.1018222196">
		<tag k="name" v="Bjørnmyrdalen" />
		<tag k="natural" v="valley" />
		<tag k="place" v="locality" />
		<tag k="ssr:date" v="2019-12-27" />
		<tag k="ssr:gruppe" v="senkninger" />
		<tag k="ssr:hovedgruppe" v="terreng" />
		<tag k="ssr:stedsnr" v="327660" />
		<tag k="ssr:type" v="dal" />
	</node>
	<node id="-30879" lat="59.8705388908" lon="11.0297694392">
		<tag k="fixme" v="consider natural=peak for the most distinct mountains in the district" />
		<tag k="name" v="Ottedageråsen" />
		<tag k="natural" v="hill" />
		<tag k="place" v="locality" />
		<tag k="ssr:date" v="2019-12-27" />
		<tag k="ssr:gruppe" v="høyder" />
		<tag k="ssr:hovedgruppe" v="terreng" />
		<tag k="ssr:stedsnr" v="327490" />
		<tag k="ssr:type" v="ås" />
	</node>
	<node id="-30878" lat="59.8908611121" lon="11.0479388957">
		<tag k="name" v="Skurvåsmåsan" />
		<tag k="natural" v="wetland" />
		<tag k="ssr:date" v="2019-12-27" />
		<tag k="ssr:gruppe" v="våtmark" />
		<tag k="ssr:hovedgruppe" v="markslag" />
		<tag k="ssr:stedsnr" v="327489" />
		<tag k="ssr:type" v="myr" />
	</node>
	<node id="-30877" lat="59.8833611115" lon="11.0190944428">
		<tag k="name" v="Slåssmyra" />
		<tag k="natural" v="wetland" />
		<tag k="ssr:date" v="2019-12-27" />
		<tag k="ssr:gruppe" v="våtmark" />
		<tag k="ssr:hovedgruppe" v="markslag" />
		<tag k="ssr:stedsnr" v="327486" />
		<tag k="ssr:type" v="myr" />
	</node>
	<node id="-30876" lat="59.8588916708" lon="11.0376944494">
		<tag k="name" v="Bjørntjernmåsan" />
		<tag k="natural" v="wetland" />
		<tag k="ssr:date" v="2019-12-27" />
		<tag k="ssr:gruppe" v="våtmark" />
		<tag k="ssr:hovedgruppe" v="markslag" />
		<tag k="ssr:stedsnr" v="327483" />
		<tag k="ssr:type" v="myr" />
	</node>
	<node id="-30875" lat="59.8736305527" lon="11.0590444451">
		<tag k="name" v="Nordre Merratjern" />
		<tag k="natural" v="water" />
		<tag k="ssr:date" v="2019-12-27" />
		<tag k="ssr:gruppe" v="stilleståendeVann" />
		<tag k="ssr:hovedgruppe" v="ferskvann" />
		<tag k="ssr:stedsnr" v="327465" />
		<tag k="ssr:type" v="tjern" />
	</node>
	<node id="-30874" lat="59.8939583297" lon="11.120024991">
		<tag k="name" v="Årnestangen" />
		<tag k="natural" v="cape" />
		<tag k="ssr:date" v="2019-12-27" />
		<tag k="ssr:gruppe" v="ferskvannskontur" />
		<tag k="ssr:hovedgruppe" v="ferskvann" />
		<tag k="ssr:stedsnr" v="308634" />
		<tag k="ssr:type" v="nes" />
	</node>
	<node id="-30873" lat="59.8841499974" lon="11.0284499966">
		<tag k="name" v="Huketjerna" />
		<tag k="natural" v="water" />
		<tag k="ssr:date" v="2019-12-27" />
		<tag k="ssr:gruppe" v="stilleståendeVann" />
		<tag k="ssr:hovedgruppe" v="ferskvann" />
		<tag k="ssr:stedsnr" v="308148" />
		<tag k="ssr:type" v="tjern" />
	</node>
	<node id="-30872" lat="59.9208555572" lon="11.0409611109">
		<tag k="alt_name" v="Knollsmåsan" />
		<tag k="name" v="Knølsmåsan" />
		<tag k="natural" v="wetland" />
		<tag k="old_name" v="Knølsmosan" />
		<tag k="ssr:date" v="2019-12-27" />
		<tag k="ssr:gruppe" v="våtmark" />
		<tag k="ssr:hovedgruppe" v="markslag" />
		<tag k="ssr:stedsnr" v="308090" />
		<tag k="ssr:type" v="myr" />
	</node>
	<node id="-30871" lat="59.8791333362" lon="11.0652611178">
		<tag k="bridge" v="yes" />
		<tag k="layer" v="1" />
		<tag k="name" v="Annekloppa" />
		<tag k="ssr:date" v="2019-12-27" />
		<tag k="ssr:gruppe" v="samferdselsanlegg" />
		<tag k="ssr:hovedgruppe" v="infrastruktur" />
		<tag k="ssr:stedsnr" v="206635" />
		<tag k="ssr:type" v="klopp" />
	</node>
	<node id="-30870" lat="59.870091669" lon="11.0962666663">
		<tag k="name" v="Dølahaugen" />
		<tag k="place" v="hamlet" />
		<tag k="ssr:date" v="2019-12-27" />
		<tag k="ssr:gruppe" v="bebyggelsesområder" />
		<tag k="ssr:hovedgruppe" v="bebyggelse" />
		<tag k="ssr:stedsnr" v="206590" />
		<tag k="ssr:type" v="grend" />
	</node>
	<node id="-30869" lat="59.8549277805" lon="11.0667611033">
		<tag k="name" v="Sauemyra" />
		<tag k="natural" v="wetland" />
		<tag k="ssr:date" v="2019-12-27" />
		<tag k="ssr:gruppe" v="våtmark" />
		<tag k="ssr:hovedgruppe" v="markslag" />
		<tag k="ssr:stedsnr" v="206583" />
		<tag k="ssr:type" v="myr" />
	</node>
	<node id="-30868" lat="59.9237583324" lon="11.0848500045">
		<tag k="name" v="Enga" />
		<tag k="place" v="isolated_dwelling" />
		<tag k="ssr:date" v="2019-12-27" />
		<tag k="ssr:gruppe" v="bolighus" />
		<tag k="ssr:hovedgruppe" v="bebyggelse" />
		<tag k="ssr:stedsnr" v="206548" />
		<tag k="ssr:type" v="eneboligMindreBoligbygg" />
	</node>
	<node id="-30867" lat="59.9467749961" lon="11.0354833308">
		<tag k="alt_name" v="Øvre Rælingen" />
		<tag k="amenity" v="place_of_worship" />
		<tag k="denomination" v="lutheran" />
		<tag k="name" v="Øvre Rælingen kirke" />
		<tag k="religion" v="christian" />
		<tag k="ssr:date" v="2019-12-27" />
		<tag k="ssr:gruppe" v="kulturinstitusjoner" />
		<tag k="ssr:hovedgruppe" v="kultur" />
		<tag k="ssr:stedsnr" v="205736" />
		<tag k="ssr:type" v="kirke" />
	</node>
	<node id="-30866" lat="59.8845194436" lon="11.0722777793">
		<tag k="fixme" v="consider natural=peak for the most distinct mountains in the district" />
		<tag k="name" v="Kulfjellåsen" />
		<tag k="natural" v="hill" />
		<tag k="place" v="locality" />
		<tag k="ssr:date" v="2019-12-27" />
		<tag k="ssr:gruppe" v="høyder" />
		<tag k="ssr:hovedgruppe" v="terreng" />
		<tag k="ssr:stedsnr" v="205730" />
		<tag k="ssr:type" v="ås" />
	</node>
	<node id="-30865" lat="59.8532944467" lon="11.1023666749">
		<tag k="name" v="Smedbakken" />
		<tag k="place" v="locality" />
		<tag k="ssr:date" v="2019-12-27" />
		<tag k="ssr:gruppe" v="gardsbebyggelse" />
		<tag k="ssr:hovedgruppe" v="bebyggelse" />
		<tag k="ssr:stedsnr" v="205726" />
		<tag k="ssr:type" v="eiendom" />
	</node>
	<node id="-30864" lat="59.8753888917" lon="11.1018833272">
		<tag k="name" v="Søstua Nes" />
		<tag k="place" v="farm" />
		<tag k="ssr:date" v="2019-12-27" />
		<tag k="ssr:gruppe" v="gardsbebyggelse" />
		<tag k="ssr:hovedgruppe" v="bebyggelse" />
		<tag k="ssr:stedsnr" v="205699" />
		<tag k="ssr:type" v="bruk" />
	</node>
	<node id="-30863" lat="59.9260817816" lon="11.0585125829">
		<tag k="amenity" v="place_of_worship" />
		<tag k="fixme" v="specify religion=*, denomination=*, building=* etc" />
		<tag k="name" v="Fjellet bedehus" />
		<tag k="ssr:date" v="2019-12-27" />
		<tag k="ssr:gruppe" v="kulturinstitusjoner" />
		<tag k="ssr:hovedgruppe" v="kultur" />
		<tag k="ssr:stedsnr" v="205601" />
		<tag k="ssr:type" v="annenBygningForReligionsutøvelse" />
	</node>
	<node id="-30862" lat="59.8791111146" lon="11.0326500043">
		<tag k="name" v="Badstudalen" />
		<tag k="natural" v="valley" />
		<tag k="place" v="locality" />
		<tag k="ssr:date" v="2019-12-27" />
		<tag k="ssr:gruppe" v="senkninger" />
		<tag k="ssr:hovedgruppe" v="terreng" />
		<tag k="ssr:stedsnr" v="205595" />
		<tag k="ssr:type" v="dal" />
	</node>
	<node id="-30861" lat="59.8493527784" lon="11.0560416607">
		<tag k="name" v="Neslangmyra" />
		<tag k="natural" v="wetland" />
		<tag k="ssr:date" v="2019-12-27" />
		<tag k="ssr:gruppe" v="våtmark" />
		<tag k="ssr:hovedgruppe" v="markslag" />
		<tag k="ssr:stedsnr" v="205568" />
		<tag k="ssr:type" v="myr" />
	</node>
	<node id="-30860" lat="59.8580777739" lon="11.0525972172">
		<tag k="name" v="Nordre Nessetertjern" />
		<tag k="natural" v="water" />
		<tag k="ssr:date" v="2019-12-27" />
		<tag k="ssr:gruppe" v="stilleståendeVann" />
		<tag k="ssr:hovedgruppe" v="ferskvann" />
		<tag k="ssr:stedsnr" v="205559" />
		<tag k="ssr:type" v="tjern" />
	</node>
	<node id="-30859" lat="59.8839722244" lon="11.0969249914">
		<tag k="name" v="Jar" />
		<tag k="place" v="farm" />
		<tag k="ssr:date" v="2019-12-27" />
		<tag k="ssr:gruppe" v="gardsbebyggelse" />
		<tag k="ssr:hovedgruppe" v="bebyggelse" />
		<tag k="ssr:stedsnr" v="187628" />
		<tag k="ssr:type" v="bruk" />
	</node>
	<node id="-30858" lat="59.8802388932" lon="11.1096083356">
		<tag k="alt_name" v="Mognavika" />
		<tag k="name" v="Mognevika" />
		<tag k="natural" v="bay" />
		<tag k="ssr:date" v="2019-12-27" />
		<tag k="ssr:gruppe" v="ferskvannskontur" />
		<tag k="ssr:hovedgruppe" v="ferskvann" />
		<tag k="ssr:stedsnr" v="187625" />
		<tag k="ssr:type" v="vik" />
	</node>
	<node id="-30857" lat="59.8710944479" lon="11.0397499979">
		<tag k="alt_name" v="Bjørtjerna, nedre" />
		<tag k="name" v="Nordre Bjørtjern" />
		<tag k="natural" v="water" />
		<tag k="ssr:date" v="2019-12-27" />
		<tag k="ssr:gruppe" v="stilleståendeVann" />
		<tag k="ssr:hovedgruppe" v="ferskvann" />
		<tag k="ssr:stedsnr" v="187148" />
		<tag k="ssr:type" v="tjern" />
	</node>
	<node id="-30856" lat="59.8648611124" lon="11.1051138936">
		<tag k="name" v="Berget" />
		<tag k="place" v="isolated_dwelling" />
		<tag k="ssr:date" v="2019-12-27" />
		<tag k="ssr:gruppe" v="bolighus" />
		<tag k="ssr:hovedgruppe" v="bebyggelse" />
		<tag k="ssr:stedsnr" v="186726" />
		<tag k="ssr:type" v="eneboligMindreBoligbygg" />
	</node>
	<node id="-30855" lat="59.9022027813" lon="11.1011305548">
		<tag k="name" v="Støtterud" />
		<tag k="place" v="farm" />
		<tag k="ssr:date" v="2019-12-27" />
		<tag k="ssr:gruppe" v="gardsbebyggelse" />
		<tag k="ssr:hovedgruppe" v="bebyggelse" />
		<tag k="ssr:stedsnr" v="186677" />
		<tag k="ssr:type" v="bruk" />
	</node>
	<node id="-30854" lat="59.8920833311" lon="11.0835027724">
		<tag k="fixme" v="consider natural=peak for the most distinct mountains in the district" />
		<tag k="name" v="Sisselrudåsen" />
		<tag k="natural" v="hill" />
		<tag k="place" v="locality" />
		<tag k="ssr:date" v="2019-12-27" />
		<tag k="ssr:gruppe" v="høyder" />
		<tag k="ssr:hovedgruppe" v="terreng" />
		<tag k="ssr:stedsnr" v="186075" />
		<tag k="ssr:type" v="ås" />
	</node>
	<node id="-30853" lat="59.9285833302" lon="11.0699611157">
		<tag k="bridge" v="yes" />
		<tag k="layer" v="1" />
		<tag k="name" v="Sundhagen" />
		<tag k="ssr:date" v="2019-12-27" />
		<tag k="ssr:gruppe" v="samferdselsanlegg" />
		<tag k="ssr:hovedgruppe" v="infrastruktur" />
		<tag k="ssr:stedsnr" v="167029" />
		<tag k="ssr:type" v="bru" />
	</node>
	<node id="-30852" lat="59.9220638885" lon="11.0712583348">
		<tag k="name" v="Fjerdingby" />
		<tag k="place" v="quarter" />
		<tag k="ssr:date" v="2019-12-27" />
		<tag k="ssr:gruppe" v="bebyggelsesområder" />
		<tag k="ssr:hovedgruppe" v="bebyggelse" />
		<tag k="ssr:stedsnr" v="146589" />
		<tag k="ssr:type" v="tettsteddel" />
	</node>
	<node id="-30851" lat="59.8694166686" lon="11.0981583313">
		<tag k="name" v="Lindemark" />
		<tag k="place" v="isolated_dwelling" />
		<tag k="ssr:date" v="2019-12-27" />
		<tag k="ssr:gruppe" v="bolighus" />
		<tag k="ssr:hovedgruppe" v="bebyggelse" />
		<tag k="ssr:stedsnr" v="145619" />
		<tag k="ssr:type" v="eneboligMindreBoligbygg" />
	</node>
	<node id="-30850" lat="59.9058388867" lon="11.1037444517">
		<tag k="name" v="Støa" />
		<tag k="place" v="farm" />
		<tag k="ssr:date" v="2019-12-27" />
		<tag k="ssr:gruppe" v="gardsbebyggelse" />
		<tag k="ssr:hovedgruppe" v="bebyggelse" />
		<tag k="ssr:stedsnr" v="144748" />
		<tag k="ssr:type" v="bruk" />
	</node>
	<node id="-30849" lat="59.8528944426" lon="11.1078361112">
		<tag k="name" v="Byåa" />
		<tag k="ssr:date" v="2019-12-27" />
		<tag k="ssr:gruppe" v="rennendeVann" />
		<tag k="ssr:hovedgruppe" v="ferskvann" />
		<tag k="ssr:stedsnr" v="144706" />
		<tag k="ssr:type" v="bekk" />
		<tag k="waterway" v="stream" />
	</node>
	<node id="-30848" lat="59.8402805568" lon="11.0814777762">
		<tag k="fixme" v="consider natural=peak for the most distinct mountains in the district" />
		<tag k="name" v="Brasmetjernåsen" />
		<tag k="natural" v="hill" />
		<tag k="place" v="locality" />
		<tag k="ssr:date" v="2019-12-27" />
		<tag k="ssr:gruppe" v="høyder" />
		<tag k="ssr:hovedgruppe" v="terreng" />
		<tag k="ssr:stedsnr" v="144705" />
		<tag k="ssr:type" v="ås" />
	</node>
	<node id="-30847" lat="59.8784583331" lon="11.1096333349">
		<tag k="name" v="Fetta" />
		<tag k="place" v="isolated_dwelling" />
		<tag k="ssr:date" v="2019-12-27" />
		<tag k="ssr:gruppe" v="bolighus" />
		<tag k="ssr:hovedgruppe" v="bebyggelse" />
		<tag k="ssr:stedsnr" v="144686" />
		<tag k="ssr:type" v="eneboligMindreBoligbygg" />
	</node>
	<node id="-30846" lat="59.8789388856" lon="11.0920111159">
		<tag k="alt_name" v="Grini Nordgarden" />
		<tag k="name" v="Nordgarden Grini" />
		<tag k="place" v="farm" />
		<tag k="ssr:date" v="2019-12-27" />
		<tag k="ssr:gruppe" v="gardsbebyggelse" />
		<tag k="ssr:hovedgruppe" v="bebyggelse" />
		<tag k="ssr:stedsnr" v="144681" />
		<tag k="ssr:type" v="bruk" />
	</node>
	<node id="-30845" lat="59.8831416648" lon="11.0955805605">
		<tag k="name" v="Søstua Jaer" />
		<tag k="place" v="farm" />
		<tag k="ssr:date" v="2019-12-27" />
		<tag k="ssr:gruppe" v="gardsbebyggelse" />
		<tag k="ssr:hovedgruppe" v="bebyggelse" />
		<tag k="ssr:stedsnr" v="144674" />
		<tag k="ssr:type" v="bruk" />
	</node>
	<node id="-30844" lat="59.8869388906" lon="11.1029666592">
		<tag k="alt_name" v="Tveiter Nordgarden" />
		<tag k="name" v="Nordgarden Tveiter" />
		<tag k="place" v="farm" />
		<tag k="ssr:date" v="2019-12-27" />
		<tag k="ssr:gruppe" v="gardsbebyggelse" />
		<tag k="ssr:hovedgruppe" v="bebyggelse" />
		<tag k="ssr:stedsnr" v="144671" />
		<tag k="ssr:type" v="bruk" />
	</node>
	<node id="-30843" lat="59.8847250037" lon="11.0843472171">
		<tag k="name" v="Hansemyra" />
		<tag k="natural" v="wetland" />
		<tag k="ssr:date" v="2019-12-27" />
		<tag k="ssr:gruppe" v="våtmark" />
		<tag k="ssr:hovedgruppe" v="markslag" />
		<tag k="ssr:stedsnr" v="144662" />
		<tag k="ssr:type" v="myr" />
	</node>
	<node id="-30842" lat="59.9067583311" lon="11.0487555611">
		<tag k="name" v="Purkeryggen" />
		<tag k="natural" v="ridge" />
		<tag k="place" v="locality" />
		<tag k="ssr:date" v="2019-12-27" />
		<tag k="ssr:gruppe" v="høyder" />
		<tag k="ssr:hovedgruppe" v="terreng" />
		<tag k="ssr:stedsnr" v="144578" />
		<tag k="ssr:type" v="rygg" />
	</node>
	<node id="-30841" lat="59.9011750018" lon="11.0336694515">
		<tag k="alt_name" v="Barlinderåsen" />
		<tag k="fixme" v="consider natural=peak for the most distinct mountains in the district" />
		<tag k="name" v="Barlindåsen" />
		<tag k="natural" v="hill" />
		<tag k="place" v="locality" />
		<tag k="ssr:date" v="2019-12-27" />
		<tag k="ssr:gruppe" v="høyder" />
		<tag k="ssr:hovedgruppe" v="terreng" />
		<tag k="ssr:stedsnr" v="144570" />
		<tag k="ssr:type" v="ås" />
	</node>
	<node id="-30840" lat="59.839697221" lon="11.0356944365">
		<tag k="name" v="Nordre Høgkolltjern" />
		<tag k="natural" v="water" />
		<tag k="ssr:date" v="2019-12-27" />
		<tag k="ssr:gruppe" v="stilleståendeVann" />
		<tag k="ssr:hovedgruppe" v="ferskvann" />
		<tag k="ssr:stedsnr" v="144567" />
		<tag k="ssr:type" v="tjern" />
	</node>
	<node id="-30839" lat="59.8942583366" lon="11.0257027823">
		<tag k="fixme" v="consider natural=peak for the most distinct mountains in the district" />
		<tag k="name" v="Skolemesteråsen" />
		<tag k="natural" v="hill" />
		<tag k="place" v="locality" />
		<tag k="ssr:date" v="2019-12-27" />
		<tag k="ssr:gruppe" v="høyder" />
		<tag k="ssr:hovedgruppe" v="terreng" />
		<tag k="ssr:stedsnr" v="144557" />
		<tag k="ssr:type" v="ås" />
	</node>
	<node id="-30838" lat="59.8684527769" lon="11.0504166669">
		<tag k="name" v="Mørkåshøgda" />
		<tag k="natural" v="hill" />
		<tag k="place" v="locality" />
		<tag k="ssr:date" v="2019-12-27" />
		<tag k="ssr:gruppe" v="høyder" />
		<tag k="ssr:hovedgruppe" v="terreng" />
		<tag k="ssr:stedsnr" v="144556" />
		<tag k="ssr:type" v="høyde" />
	</node>
	<node id="-30837" lat="59.8339833333" lon="11.1055749927">
		<tag k="name" v="Gjeddevann" />
		<tag k="natural" v="water" />
		<tag k="ssr:date" v="2019-12-27" />
		<tag k="ssr:gruppe" v="stilleståendeVann" />
		<tag k="ssr:hovedgruppe" v="ferskvann" />
		<tag k="ssr:stedsnr" v="126712" />
		<tag k="ssr:type" v="tjern" />
	</node>
	<node id="-30836" lat="59.8709915413" lon="11.146698271">
		<tag k="fixme" v="multiple name tags, choose one and add the other to alt_name" />
		<tag k="name" v="Møkkøya;Rundsand" />
		<tag k="place" v="islet" />
		<tag k="ssr:date" v="2020-03-27" />
		<tag k="ssr:gruppe" v="ferskvannskontur" />
		<tag k="ssr:hovedgruppe" v="ferskvann" />
		<tag k="ssr:stedsnr" v="126670" />
		<tag k="ssr:type" v="holme" />
	</node>
	<node id="-30835" lat="59.8847694438" lon="11.1049611136">
		<tag k="name" v="Tveiter" />
		<tag k="place" v="farm" />
		<tag k="ssr:date" v="2019-12-27" />
		<tag k="ssr:gruppe" v="gardsbebyggelse" />
		<tag k="ssr:hovedgruppe" v="bebyggelse" />
		<tag k="ssr:stedsnr" v="126648" />
		<tag k="ssr:type" v="bruk" />
	</node>
	<node id="-30834" lat="59.9163027795" lon="11.0868500089">
		<tag k="name" v="Haugen" />
		<tag k="place" v="farm" />
		<tag k="ssr:date" v="2019-12-27" />
		<tag k="ssr:gruppe" v="gardsbebyggelse" />
		<tag k="ssr:hovedgruppe" v="bebyggelse" />
		<tag k="ssr:stedsnr" v="126101" />
		<tag k="ssr:type" v="bruk" />
	</node>
	<node id="-30833" lat="59.9360445496" lon="11.0654680276">
		<tag k="fixme" v="consider place=hamlet" />
		<tag k="name" v="Åmot" />
		<tag k="place" v="farm" />
		<tag k="ssr:date" v="2019-12-27" />
		<tag k="ssr:gruppe" v="gardsbebyggelse" />
		<tag k="ssr:hovedgruppe" v="bebyggelse" />
		<tag k="ssr:stedsnr" v="126060" />
		<tag k="ssr:type" v="gard" />
	</node>
	<node id="-30832" lat="59.8928499981" lon="11.1353444425">
		<tag k="name" v="Storråka" />
		<tag k="natural" v="strait" />
		<tag k="ssr:date" v="2019-12-27" />
		<tag k="ssr:gruppe" v="ferskvannskontur" />
		<tag k="ssr:hovedgruppe" v="ferskvann" />
		<tag k="ssr:stedsnr" v="125663" />
		<tag k="ssr:type" v="sund" />
	</node>
	<node id="-30831" lat="59.8925000017" lon="11.115480564">
		<tag k="name" v="Årnes" />
		<tag k="place" v="farm" />
		<tag k="ssr:date" v="2019-12-27" />
		<tag k="ssr:gruppe" v="gardsbebyggelse" />
		<tag k="ssr:hovedgruppe" v="bebyggelse" />
		<tag k="ssr:stedsnr" v="125659" />
		<tag k="ssr:type" v="bruk" />
	</node>
	<node id="-30830" lat="59.8997527763" lon="11.0931111051">
		<tag k="name" v="Slette" />
		<tag k="old_name" v="Stette" />
		<tag k="place" v="isolated_dwelling" />
		<tag k="ssr:date" v="2019-12-27" />
		<tag k="ssr:gruppe" v="bolighus" />
		<tag k="ssr:hovedgruppe" v="bebyggelse" />
		<tag k="ssr:stedsnr" v="125656" />
		<tag k="ssr:type" v="eneboligMindreBoligbygg" />
	</node>
	<node id="-30829" lat="59.8890666682" lon="11.0450166664">
		<tag k="alt_name" v="Skurvåstjernet" />
		<tag k="name" v="Søndre Skurvåstjern" />
		<tag k="natural" v="water" />
		<tag k="ssr:date" v="2019-12-27" />
		<tag k="ssr:gruppe" v="stilleståendeVann" />
		<tag k="ssr:hovedgruppe" v="ferskvann" />
		<tag k="ssr:stedsnr" v="125092" />
		<tag k="ssr:type" v="tjern" />
	</node>
	<node id="-30828" lat="59.9270833352" lon="11.0770249921">
		<tag k="name" v="Lund" />
		<tag k="place" v="farm" />
		<tag k="ssr:date" v="2019-12-27" />
		<tag k="ssr:gruppe" v="gardsbebyggelse" />
		<tag k="ssr:hovedgruppe" v="bebyggelse" />
		<tag k="ssr:stedsnr" v="125005" />
		<tag k="ssr:type" v="bruk" />
	</node>
	<node id="-30827" lat="59.8856472249" lon="11.0788638883">
		<tag k="alt_name" v="Lintjernet" />
		<tag k="name" v="Lintjenn" />
		<tag k="natural" v="water" />
		<tag k="ssr:date" v="2019-12-27" />
		<tag k="ssr:gruppe" v="stilleståendeVann" />
		<tag k="ssr:hovedgruppe" v="ferskvann" />
		<tag k="ssr:stedsnr" v="102210" />
		<tag k="ssr:type" v="tjern" />
	</node>
	<node id="-30826" lat="59.9362444406" lon="11.0708527713">
		<tag k="name" v="Tangen" />
		<tag k="place" v="hamlet" />
		<tag k="ssr:date" v="2019-12-27" />
		<tag k="ssr:gruppe" v="bebyggelsesområder" />
		<tag k="ssr:hovedgruppe" v="bebyggelse" />
		<tag k="ssr:stedsnr" v="85501" />
		<tag k="ssr:type" v="grend" />
	</node>
	<node id="-30825" lat="59.9198527766" lon="11.0818555587">
		<tag k="name" v="Søgarden" />
		<tag k="place" v="farm" />
		<tag k="ssr:date" v="2019-12-27" />
		<tag k="ssr:gruppe" v="gardsbebyggelse" />
		<tag k="ssr:hovedgruppe" v="bebyggelse" />
		<tag k="ssr:stedsnr" v="85492" />
		<tag k="ssr:type" v="bruk" />
	</node>
	<node id="-30824" lat="59.9237138895" lon="11.0689444522">
		<tag k="amenity" v="school" />
		<tag k="name" v="Fjerdingby skole" />
		<tag k="ssr:date" v="2019-12-27" />
		<tag k="ssr:gruppe" v="institusjoner" />
		<tag k="ssr:hovedgruppe" v="bebyggelse" />
		<tag k="ssr:stedsnr" v="85491" />
		<tag k="ssr:type" v="skole" />
	</node>
	<node id="-30823" lat="59.8604666628" lon="11.1044333346">
		<tag k="name" v="Ner-Uller" />
		<tag k="place" v="farm" />
		<tag k="ssr:date" v="2019-12-27" />
		<tag k="ssr:gruppe" v="gardsbebyggelse" />
		<tag k="ssr:hovedgruppe" v="bebyggelse" />
		<tag k="ssr:stedsnr" v="85545" />
		<tag k="ssr:type" v="bruk" />
	</node>
	<node id="-30822" lat="59.8642194415" lon="11.1029333316">
		<tag k="name" v="Flaen" />
		<tag k="place" v="hamlet" />
		<tag k="ssr:date" v="2019-12-27" />
		<tag k="ssr:gruppe" v="bebyggelsesområder" />
		<tag k="ssr:hovedgruppe" v="bebyggelse" />
		<tag k="ssr:stedsnr" v="85539" />
		<tag k="ssr:type" v="grend" />
	</node>
	<node id="-30821" lat="59.857399996" lon="11.06555556">
		<tag k="name" v="Gamlesetermyra" />
		<tag k="natural" v="wetland" />
		<tag k="ssr:date" v="2019-12-27" />
		<tag k="ssr:gruppe" v="våtmark" />
		<tag k="ssr:hovedgruppe" v="markslag" />
		<tag k="ssr:stedsnr" v="85533" />
		<tag k="ssr:type" v="myr" />
	</node>
	<node id="-30820" lat="59.9319138875" lon="11.0793611033">
		<tag k="name" v="Sundet" />
		<tag k="natural" v="strait" />
		<tag k="ssr:date" v="2019-12-27" />
		<tag k="ssr:gruppe" v="ferskvannskontur" />
		<tag k="ssr:hovedgruppe" v="ferskvann" />
		<tag k="ssr:stedsnr" v="85503" />
		<tag k="ssr:type" v="sund" />
	</node>
	<node id="-30819" lat="59.8918916638" lon="11.0983666753">
		<tag k="name" v="Søndre Hektner" />
		<tag k="place" v="farm" />
		<tag k="ssr:date" v="2019-12-27" />
		<tag k="ssr:gruppe" v="gardsbebyggelse" />
		<tag k="ssr:hovedgruppe" v="bebyggelse" />
		<tag k="ssr:stedsnr" v="84682" />
		<tag k="ssr:type" v="bruk" />
	</node>
	<node id="-30818" lat="59.9171138891" lon="11.0634527745">
		<tag k="name" v="Fjerdingbyhøgda" />
		<tag k="natural" v="hill" />
		<tag k="place" v="locality" />
		<tag k="ssr:date" v="2019-12-27" />
		<tag k="ssr:gruppe" v="høyder" />
		<tag k="ssr:hovedgruppe" v="terreng" />
		<tag k="ssr:stedsnr" v="84779" />
		<tag k="ssr:type" v="høyde" />
	</node>
	<node id="-30817" lat="59.9122027746" lon="11.0919194415">
		<tag k="name" v="Øvre Holt" />
		<tag k="place" v="farm" />
		<tag k="ssr:date" v="2019-12-27" />
		<tag k="ssr:gruppe" v="gardsbebyggelse" />
		<tag k="ssr:hovedgruppe" v="bebyggelse" />
		<tag k="ssr:stedsnr" v="84763" />
		<tag k="ssr:type" v="bruk" />
	</node>
	<node id="-30816" lat="59.9037166656" lon="11.0408333301">
		<tag k="fixme" v="consider natural=peak for the most distinct mountains in the district" />
		<tag k="name" v="Ramstadslottet" />
		<tag k="natural" v="hill" />
		<tag k="place" v="locality" />
		<tag k="ssr:date" v="2019-12-27" />
		<tag k="ssr:gruppe" v="høyder" />
		<tag k="ssr:hovedgruppe" v="terreng" />
		<tag k="ssr:stedsnr" v="66071" />
		<tag k="ssr:type" v="ås" />
	</node>
	<node id="-30815" lat="59.899786109" lon="11.0683750034">
		<tag k="name" v="Trestilen" />
		<tag k="natural" v="water" />
		<tag k="ssr:date" v="2019-12-27" />
		<tag k="ssr:gruppe" v="stilleståendeVann" />
		<tag k="ssr:hovedgruppe" v="ferskvann" />
		<tag k="ssr:stedsnr" v="66068" />
		<tag k="ssr:type" v="tjern" />
	</node>
	<node id="-30814" lat="59.8754694433" lon="11.1039638858">
		<tag k="name" v="Nes" />
		<tag k="place" v="farm" />
		<tag k="ssr:date" v="2019-12-27" />
		<tag k="ssr:gruppe" v="gardsbebyggelse" />
		<tag k="ssr:hovedgruppe" v="bebyggelse" />
		<tag k="ssr:stedsnr" v="65683" />
		<tag k="ssr:type" v="bruk" />
	</node>
	<node id="-30813" lat="59.8807027791" lon="11.0502583292">
		<tag k="name" v="Fiskelausen" />
		<tag k="natural" v="water" />
		<tag k="old_name" v="Fiskeløysa" />
		<tag k="ssr:date" v="2019-12-27" />
		<tag k="ssr:gruppe" v="stilleståendeVann" />
		<tag k="ssr:hovedgruppe" v="ferskvann" />
		<tag k="ssr:stedsnr" v="65186" />
		<tag k="ssr:type" v="tjern" />
	</node>
	<node id="-30812" lat="59.8695111079" lon="11.066516669">
		<tag k="fixme" v="consider natural=peak for the most distinct mountains in the district" />
		<tag k="name" v="Velbråtaåsen" />
		<tag k="natural" v="hill" />
		<tag k="place" v="locality" />
		<tag k="ssr:date" v="2019-12-27" />
		<tag k="ssr:gruppe" v="høyder" />
		<tag k="ssr:hovedgruppe" v="terreng" />
		<tag k="ssr:stedsnr" v="24670" />
		<tag k="ssr:type" v="ås" />
	</node>
	<node id="-30811" lat="59.9208861073" lon="11.0699805529">
		<tag k="name" v="Oladalen" />
		<tag k="natural" v="valley" />
		<tag k="place" v="locality" />
		<tag k="ssr:date" v="2019-12-27" />
		<tag k="ssr:gruppe" v="senkninger" />
		<tag k="ssr:hovedgruppe" v="terreng" />
		<tag k="ssr:stedsnr" v="24586" />
		<tag k="ssr:type" v="dal" />
	</node>
	<node id="-30810" lat="59.9246166651" lon="11.0853583294">
		<tag k="name" v="Engavika" />
		<tag k="natural" v="bay" />
		<tag k="ssr:date" v="2019-12-27" />
		<tag k="ssr:gruppe" v="ferskvannskontur" />
		<tag k="ssr:hovedgruppe" v="ferskvann" />
		<tag k="ssr:stedsnr" v="24584" />
		<tag k="ssr:type" v="vik" />
	</node>
	<node id="-30809" lat="59.9299055583" lon="11.0822805645">
		<tag k="name" v="Gressnebben" />
		<tag k="natural" v="cape" />
		<tag k="ssr:date" v="2019-12-27" />
		<tag k="ssr:gruppe" v="ferskvannskontur" />
		<tag k="ssr:hovedgruppe" v="ferskvann" />
		<tag k="ssr:stedsnr" v="24582" />
		<tag k="ssr:type" v="nes" />
	</node>
	<node id="-30808" lat="59.9224305522" lon="11.0778694409">
		<tag k="name" v="Nordgarden" />
		<tag k="place" v="farm" />
		<tag k="ssr:date" v="2019-12-27" />
		<tag k="ssr:gruppe" v="gardsbebyggelse" />
		<tag k="ssr:hovedgruppe" v="bebyggelse" />
		<tag k="ssr:stedsnr" v="24579" />
		<tag k="ssr:type" v="bruk" />
	</node>
	<node id="-30807" lat="59.8946694473" lon="11.1140666606">
		<tag k="name" v="Buret" />
		<tag k="place" v="hamlet" />
		<tag k="ssr:date" v="2019-12-27" />
		<tag k="ssr:gruppe" v="bebyggelsesområder" />
		<tag k="ssr:hovedgruppe" v="bebyggelse" />
		<tag k="ssr:stedsnr" v="23680" />
		<tag k="ssr:type" v="grend" />
	</node>
	<node id="-30806" lat="59.9481944459" lon="11.0422194466">
		<tag k="name" v="Haugen" />
		<tag k="natural" v="hill" />
		<tag k="place" v="locality" />
		<tag k="ssr:date" v="2019-12-27" />
		<tag k="ssr:gruppe" v="høyder" />
		<tag k="ssr:hovedgruppe" v="terreng" />
		<tag k="ssr:stedsnr" v="23769" />
		<tag k="ssr:type" v="høyde" />
	</node>
	<node id="-30805" lat="59.9091000014" lon="11.099016675">
		<tag k="name" v="Oleberg" />
		<tag k="place" v="isolated_dwelling" />
		<tag k="ssr:date" v="2019-12-27" />
		<tag k="ssr:gruppe" v="bolighus" />
		<tag k="ssr:hovedgruppe" v="bebyggelse" />
		<tag k="ssr:stedsnr" v="23765" />
		<tag k="ssr:type" v="eneboligMindreBoligbygg" />
	</node>
	<node id="-30804" lat="59.9085527751" lon="11.0507222212">
		<tag k="loc_name" v="Røde Kors-hytta" />
		<tag k="name" v="Røde Kors hytta" />
		<tag k="place" v="isolated_dwelling" />
		<tag k="ssr:date" v="2019-12-27" />
		<tag k="ssr:gruppe" v="bolighus" />
		<tag k="ssr:hovedgruppe" v="bebyggelse" />
		<tag k="ssr:stedsnr" v="23458" />
		<tag k="ssr:type" v="fritidsbolig" />
	</node>
	<node id="-30803" lat="59.887544444" lon="11.0198166654">
		<tag k="name" v="Slåssmyrdalen" />
		<tag k="natural" v="valley" />
		<tag k="place" v="locality" />
		<tag k="ssr:date" v="2019-12-27" />
		<tag k="ssr:gruppe" v="senkninger" />
		<tag k="ssr:hovedgruppe" v="terreng" />
		<tag k="ssr:stedsnr" v="23595" />
		<tag k="ssr:type" v="dal" />
	</node>
	<node id="-30802" lat="59.9192805529" lon="11.0930666619">
		<tag k="alt_name" v="Hammeren" />
		<tag k="name" v="Hammaren" />
		<tag k="natural" v="cape" />
		<tag k="ssr:date" v="2019-12-27" />
		<tag k="ssr:gruppe" v="ferskvannskontur" />
		<tag k="ssr:hovedgruppe" v="ferskvann" />
		<tag k="ssr:stedsnr" v="5584" />
		<tag k="ssr:type" v="nes" />
	</node>
	<node id="-30801" lat="59.8354416671" lon="11.0973138928">
		<tag k="fixme" v="consider natural=peak for the most distinct mountains in the district" />
		<tag k="name" v="Sæteråsen" />
		<tag k="natural" v="hill" />
		<tag k="place" v="locality" />
		<tag k="ssr:date" v="2019-12-27" />
		<tag k="ssr:gruppe" v="høyder" />
		<tag k="ssr:hovedgruppe" v="terreng" />
		<tag k="ssr:stedsnr" v="5511" />
		<tag k="ssr:type" v="ås" />
	</node>
	<node id="-30800" lat="59.8493972229" lon="11.0731750032">
		<tag k="name" v="Nordbysjøen" />
		<tag k="natural" v="water" />
		<tag k="ssr:date" v="2019-12-27" />
		<tag k="ssr:gruppe" v="stilleståendeVann" />
		<tag k="ssr:hovedgruppe" v="ferskvann" />
		<tag k="ssr:stedsnr" v="5250" />
		<tag k="ssr:type" v="vann" />
		<tag k="water" v="lake" />
	</node>
	<node id="-30799" lat="59.9331999975" lon="11.0419277843">
		<tag k="alt_name" v="Rælingåsen" />
		<tag k="fixme" v="consider natural=peak for the most distinct mountains in the district" />
		<tag k="name" v="Rælingsåsen" />
		<tag k="natural" v="hill" />
		<tag k="place" v="locality" />
		<tag k="ssr:date" v="2019-12-27" />
		<tag k="ssr:gruppe" v="høyder" />
		<tag k="ssr:hovedgruppe" v="terreng" />
		<tag k="ssr:stedsnr" v="4001" />
		<tag k="ssr:type" v="ås" />
	</node>
	<node id="-30798" lat="59.9027831835" lon="11.0418645935">
		<tag k="fixme" v="consider boundary=protected_area and relevant protect_class if not nature reserve" />
		<tag k="leisure" v="nature_reserve" />
		<tag k="name" v="Ramstadslottet naturreservat" />
		<tag k="ssr:date" v="2019-12-27" />
		<tag k="ssr:gruppe" v="verne-OgBruksområder" />
		<tag k="ssr:hovedgruppe" v="offentligAdministrasjon" />
		<tag k="ssr:stedsnr" v="972730" />
		<tag k="ssr:type" v="verneområde" />
	</node>
	<node id="-30797" lat="59.838205628" lon="11.0462353134">
		<tag k="fixme" v="consider boundary=protected_area and relevant protect_class if not nature reserve" />
		<tag k="leisure" v="nature_reserve" />
		<tag k="name" v="Østmarka naturreservat" />
		<tag k="ssr:date" v="2019-12-27" />
		<tag k="ssr:gruppe" v="verne-OgBruksområder" />
		<tag k="ssr:hovedgruppe" v="offentligAdministrasjon" />
		<tag k="ssr:stedsnr" v="972728" />
		<tag k="ssr:type" v="verneområde" />
	</node>
	<node id="-30796" lat="59.9068305527" lon="11.0969083256">
		<tag k="name" v="Nordre Smestad" />
		<tag k="place" v="farm" />
		<tag k="ssr:date" v="2019-12-27" />
		<tag k="ssr:gruppe" v="gardsbebyggelse" />
		<tag k="ssr:hovedgruppe" v="bebyggelse" />
		<tag k="ssr:stedsnr" v="934720" />
		<tag k="ssr:type" v="bruk" />
	</node>
	<node id="-30795" lat="59.9437083366" lon="11.0247611144">
		<tag k="name" v="Setersletta" />
		<tag k="place" v="locality" />
		<tag k="ssr:date" v="2019-12-27" />
		<tag k="ssr:gruppe" v="flater" />
		<tag k="ssr:hovedgruppe" v="terreng" />
		<tag k="ssr:stedsnr" v="934709" />
		<tag k="ssr:type" v="slette" />
	</node>
	<node id="-30794" lat="59.9312416656" lon="11.0378611136">
		<tag k="name" v="Blystadlia" />
		<tag k="place" v="quarter" />
		<tag k="ssr:date" v="2019-12-27" />
		<tag k="ssr:gruppe" v="bebyggelsesområder" />
		<tag k="ssr:hovedgruppe" v="bebyggelse" />
		<tag k="ssr:stedsnr" v="934516" />
		<tag k="ssr:type" v="boligfelt" />
	</node>
	<node id="-30793" lat="59.8822249965" lon="11.0556166664">
		<tag k="name" v="Stabburdalen" />
		<tag k="natural" v="valley" />
		<tag k="place" v="locality" />
		<tag k="ssr:date" v="2019-12-27" />
		<tag k="ssr:gruppe" v="senkninger" />
		<tag k="ssr:hovedgruppe" v="terreng" />
		<tag k="ssr:stedsnr" v="934503" />
		<tag k="ssr:type" v="dal" />
	</node>
	<node id="-30792" lat="59.8900388877" lon="11.070261111">
		<tag k="name" v="Hesteberga" />
		<tag k="place" v="locality" />
		<tag k="ssr:date" v="2019-12-27" />
		<tag k="ssr:gruppe" v="gardsbebyggelse" />
		<tag k="ssr:hovedgruppe" v="bebyggelse" />
		<tag k="ssr:stedsnr" v="934619" />
		<tag k="ssr:type" v="byggForJordbrukFiskeOgFangst" />
	</node>
	<node id="-30791" lat="59.8752472211" lon="11.1045916618">
		<tag k="name" v="Nordstua Nes" />
		<tag k="place" v="farm" />
		<tag k="ssr:date" v="2019-12-27" />
		<tag k="ssr:gruppe" v="gardsbebyggelse" />
		<tag k="ssr:hovedgruppe" v="bebyggelse" />
		<tag k="ssr:stedsnr" v="934614" />
		<tag k="ssr:type" v="bruk" />
	</node>
	<node id="-30790" lat="59.8964250009" lon="11.0418999974">
		<tag k="name" v="Minketjern" />
		<tag k="natural" v="water" />
		<tag k="ssr:date" v="2019-12-27" />
		<tag k="ssr:gruppe" v="stilleståendeVann" />
		<tag k="ssr:hovedgruppe" v="ferskvann" />
		<tag k="ssr:stedsnr" v="934429" />
		<tag k="ssr:type" v="tjern" />
	</node>
	<node id="-30789" lat="59.8803027803" lon="11.0592249915">
		<tag k="name" v="Stutauet" />
		<tag k="natural" v="water" />
		<tag k="ssr:date" v="2019-12-27" />
		<tag k="ssr:gruppe" v="stilleståendeVann" />
		<tag k="ssr:hovedgruppe" v="ferskvann" />
		<tag k="ssr:stedsnr" v="934427" />
		<tag k="ssr:type" v="tjern" />
	</node>
	<node id="-30788" lat="59.8935805513" lon="11.101033333">
		<tag k="name" v="Hektner" />
		<tag k="place" v="farm" />
		<tag k="ssr:date" v="2019-12-27" />
		<tag k="ssr:gruppe" v="gardsbebyggelse" />
		<tag k="ssr:hovedgruppe" v="bebyggelse" />
		<tag k="ssr:stedsnr" v="915628" />
		<tag k="ssr:type" v="bruk" />
	</node>
	<node id="-30787" lat="59.8505972247" lon="11.0385499983">
		<tag k="alt_name" v="Bjørntjernet" />
		<tag k="name" v="Småtjern" />
		<tag k="natural" v="water" />
		<tag k="ssr:date" v="2019-12-27" />
		<tag k="ssr:gruppe" v="stilleståendeVann" />
		<tag k="ssr:hovedgruppe" v="ferskvann" />
		<tag k="ssr:stedsnr" v="915223" />
		<tag k="ssr:type" v="tjern" />
	</node>
	<node id="-30786" lat="59.9152111132" lon="11.0975194498">
		<tag k="name" v="Holtnebbet" />
		<tag k="natural" v="cape" />
		<tag k="ssr:date" v="2019-12-27" />
		<tag k="ssr:gruppe" v="ferskvannskontur" />
		<tag k="ssr:hovedgruppe" v="ferskvann" />
		<tag k="ssr:stedsnr" v="873720" />
		<tag k="ssr:type" v="nes" />
	</node>
	<node id="-30785" lat="59.9147666709" lon="11.0712527712">
		<tag k="fixme" v="consider natural=peak for the most distinct mountains in the district" />
		<tag k="name" v="Hansefellåsen" />
		<tag k="natural" v="hill" />
		<tag k="place" v="locality" />
		<tag k="ssr:date" v="2019-12-27" />
		<tag k="ssr:gruppe" v="høyder" />
		<tag k="ssr:hovedgruppe" v="terreng" />
		<tag k="ssr:stedsnr" v="873718" />
		<tag k="ssr:type" v="ås" />
	</node>
	<node id="-30784" lat="59.8941388919" lon="11.0880861163">
		<tag k="name" v="Vestegardssletta" />
		<tag k="place" v="locality" />
		<tag k="ssr:date" v="2019-12-27" />
		<tag k="ssr:gruppe" v="flater" />
		<tag k="ssr:hovedgruppe" v="terreng" />
		<tag k="ssr:stedsnr" v="873664" />
		<tag k="ssr:type" v="slette" />
	</node>
	<node id="-30783" lat="59.8945138906" lon="11.1092472295">
		<tag k="name" v="Steinhølet" />
		<tag k="natural" v="valley" />
		<tag k="place" v="locality" />
		<tag k="ssr:date" v="2019-12-27" />
		<tag k="ssr:gruppe" v="senkninger" />
		<tag k="ssr:hovedgruppe" v="terreng" />
		<tag k="ssr:stedsnr" v="873662" />
		<tag k="ssr:type" v="dal" />
	</node>
	<node id="-30782" lat="59.8487055575" lon="11.0909749916">
		<tag k="name" v="Kattuldalen" />
		<tag k="natural" v="valley" />
		<tag k="place" v="locality" />
		<tag k="ssr:date" v="2019-12-27" />
		<tag k="ssr:gruppe" v="senkninger" />
		<tag k="ssr:hovedgruppe" v="terreng" />
		<tag k="ssr:stedsnr" v="873659" />
		<tag k="ssr:type" v="dal" />
	</node>
	<node id="-30781" lat="59.8833388893" lon="11.1008527848">
		<tag k="name" v="Jaersjordet" />
		<tag k="place" v="farm" />
		<tag k="ssr:date" v="2019-12-27" />
		<tag k="ssr:gruppe" v="gardsbebyggelse" />
		<tag k="ssr:hovedgruppe" v="bebyggelse" />
		<tag k="ssr:stedsnr" v="873621" />
		<tag k="ssr:type" v="bruk" />
	</node>
	<node id="-30780" lat="59.8849833354" lon="11.105402776">
		<tag k="name" v="Nesøgarden" />
		<tag k="place" v="farm" />
		<tag k="ssr:date" v="2019-12-27" />
		<tag k="ssr:gruppe" v="gardsbebyggelse" />
		<tag k="ssr:hovedgruppe" v="bebyggelse" />
		<tag k="ssr:stedsnr" v="873617" />
		<tag k="ssr:type" v="bruk" />
	</node>
	<node id="-30779" lat="59.8889722231" lon="11.0940722258">
		<tag k="name" v="Svarttjennbekken" />
		<tag k="ssr:date" v="2019-12-27" />
		<tag k="ssr:gruppe" v="rennendeVann" />
		<tag k="ssr:hovedgruppe" v="ferskvann" />
		<tag k="ssr:stedsnr" v="873612" />
		<tag k="ssr:type" v="bekk" />
		<tag k="waterway" v="stream" />
	</node>
	<node id="-30778" lat="59.8821083301" lon="11.0706888942">
		<tag k="name" v="Fellemyra" />
		<tag k="natural" v="wetland" />
		<tag k="ssr:date" v="2019-12-27" />
		<tag k="ssr:gruppe" v="våtmark" />
		<tag k="ssr:hovedgruppe" v="markslag" />
		<tag k="ssr:stedsnr" v="873610" />
		<tag k="ssr:type" v="myr" />
	</node>
	<node id="-30777" lat="59.8445777753" lon="11.0487666578">
		<tag k="name" v="Vesle Grinderen" />
		<tag k="natural" v="water" />
		<tag k="ssr:date" v="2019-12-27" />
		<tag k="ssr:gruppe" v="stilleståendeVann" />
		<tag k="ssr:hovedgruppe" v="ferskvann" />
		<tag k="ssr:stedsnr" v="873521" />
		<tag k="ssr:type" v="tjern" />
	</node>
	<node id="-30776" lat="59.8458361067" lon="11.0380194447">
		<tag k="name" v="Tappenbergvann" />
		<tag k="natural" v="water" />
		<tag k="ssr:date" v="2019-12-27" />
		<tag k="ssr:gruppe" v="stilleståendeVann" />
		<tag k="ssr:hovedgruppe" v="ferskvann" />
		<tag k="ssr:stedsnr" v="855257" />
		<tag k="ssr:type" v="tjern" />
	</node>
	<node id="-30775" lat="59.9184555559" lon="11.0390027764">
		<tag k="alt_name" v="Bjørnåsen" />
		<tag k="fixme" v="consider natural=peak for the most distinct mountains in the district" />
		<tag k="name" v="Bjønnåsen" />
		<tag k="natural" v="hill" />
		<tag k="place" v="locality" />
		<tag k="ssr:date" v="2019-12-27" />
		<tag k="ssr:gruppe" v="høyder" />
		<tag k="ssr:hovedgruppe" v="terreng" />
		<tag k="ssr:stedsnr" v="854085" />
		<tag k="ssr:type" v="ås" />
	</node>
	<node id="-30774" lat="59.8742805519" lon="11.0526055598">
		<tag k="fixme" v="consider natural=peak for the most distinct mountains in the district" />
		<tag k="name" v="Langmyråsen" />
		<tag k="natural" v="hill" />
		<tag k="place" v="locality" />
		<tag k="ssr:date" v="2019-12-27" />
		<tag k="ssr:gruppe" v="høyder" />
		<tag k="ssr:hovedgruppe" v="terreng" />
		<tag k="ssr:stedsnr" v="854175" />
		<tag k="ssr:type" v="ås" />
	</node>
	<node id="-30773" lat="59.8730016241" lon="11.0586120914">
		<tag k="name" v="Merratjerna" />
		<tag k="natural" v="water" />
		<tag k="ssr:date" v="2019-12-27" />
		<tag k="ssr:gruppe" v="stilleståendeVann" />
		<tag k="ssr:hovedgruppe" v="ferskvann" />
		<tag k="ssr:stedsnr" v="854113" />
		<tag k="ssr:type" v="tjern" />
	</node>
	<node id="-30772" lat="59.945013889" lon="11.0543777711">
		<tag k="name" v="Tangerudvika" />
		<tag k="natural" v="bay" />
		<tag k="ssr:date" v="2019-12-27" />
		<tag k="ssr:gruppe" v="ferskvannskontur" />
		<tag k="ssr:hovedgruppe" v="ferskvann" />
		<tag k="ssr:stedsnr" v="934685" />
		<tag k="ssr:type" v="vik" />
	</node>
	<node id="-30771" lat="59.878477777" lon="11.0708694446">
		<tag k="fixme" v="consider natural=peak for the most distinct mountains in the district" />
		<tag k="name" v="Høgåsen" />
		<tag k="natural" v="hill" />
		<tag k="place" v="locality" />
		<tag k="ssr:date" v="2019-12-27" />
		<tag k="ssr:gruppe" v="høyder" />
		<tag k="ssr:hovedgruppe" v="terreng" />
		<tag k="ssr:stedsnr" v="934665" />
		<tag k="ssr:type" v="ås" />
	</node>
	<node id="-30770" lat="59.86310278" lon="11.069283329">
		<tag k="name" v="Isdalen" />
		<tag k="natural" v="valley" />
		<tag k="place" v="locality" />
		<tag k="ssr:date" v="2019-12-27" />
		<tag k="ssr:gruppe" v="senkninger" />
		<tag k="ssr:hovedgruppe" v="terreng" />
		<tag k="ssr:stedsnr" v="934635" />
		<tag k="ssr:type" v="dal" />
	</node>
	<node id="-30769" lat="59.8730083317" lon="11.1040361146">
		<tag k="name" v="Nesvika" />
		<tag k="natural" v="bay" />
		<tag k="ssr:date" v="2019-12-27" />
		<tag k="ssr:gruppe" v="ferskvannskontur" />
		<tag k="ssr:hovedgruppe" v="ferskvann" />
		<tag k="ssr:stedsnr" v="934568" />
		<tag k="ssr:type" v="vik" />
	</node>
	<node id="-30768" lat="59.8585388866" lon="11.0702388824">
		<tag k="name" v="Isdalsvika" />
		<tag k="natural" v="bay" />
		<tag k="ssr:date" v="2019-12-27" />
		<tag k="ssr:gruppe" v="ferskvannskontur" />
		<tag k="ssr:hovedgruppe" v="ferskvann" />
		<tag k="ssr:stedsnr" v="934565" />
		<tag k="ssr:type" v="vik" />
	</node>
	<node id="-30767" lat="59.8853527794" lon="11.0252250059">
		<tag k="fixme" v="consider natural=peak for the most distinct mountains in the district" />
		<tag k="name" v="Hukåsen" />
		<tag k="natural" v="hill" />
		<tag k="place" v="locality" />
		<tag k="ssr:date" v="2019-12-27" />
		<tag k="ssr:gruppe" v="høyder" />
		<tag k="ssr:hovedgruppe" v="terreng" />
		<tag k="ssr:stedsnr" v="934479" />
		<tag k="ssr:type" v="ås" />
	</node>
	<node id="-30766" lat="59.8654416701" lon="11.0349333341">
		<tag k="name" v="Jaertangene" />
		<tag k="natural" v="hill" />
		<tag k="place" v="locality" />
		<tag k="ssr:date" v="2019-12-27" />
		<tag k="ssr:gruppe" v="høyder" />
		<tag k="ssr:hovedgruppe" v="terreng" />
		<tag k="ssr:stedsnr" v="934476" />
		<tag k="ssr:type" v="høyde" />
	</node>
	<node id="-30765" lat="59.8390749973" lon="11.0334499962">
		<tag k="fixme" v="consider natural=peak for the most distinct mountains in the district" />
		<tag k="name" v="Ørnåsen" />
		<tag k="natural" v="hill" />
		<tag k="place" v="locality" />
		<tag k="ssr:date" v="2019-12-27" />
		<tag k="ssr:gruppe" v="høyder" />
		<tag k="ssr:hovedgruppe" v="terreng" />
		<tag k="ssr:stedsnr" v="934473" />
		<tag k="ssr:type" v="ås" />
	</node>
	<node id="-30764" lat="59.8954055537" lon="11.0465472281">
		<tag k="name" v="Skauholtmyra" />
		<tag k="natural" v="wetland" />
		<tag k="ssr:date" v="2019-12-27" />
		<tag k="ssr:gruppe" v="våtmark" />
		<tag k="ssr:hovedgruppe" v="markslag" />
		<tag k="ssr:stedsnr" v="934469" />
		<tag k="ssr:type" v="myr" />
	</node>
	<node id="-30763" lat="59.8388861077" lon="11.0593416674">
		<tag k="historic" v="shieling" />
		<tag k="name" v="Tomtersetra" />
		<tag k="place" v="locality" />
		<tag k="ssr:date" v="2019-12-27" />
		<tag k="ssr:gruppe" v="dyrkamark" />
		<tag k="ssr:hovedgruppe" v="markslag" />
		<tag k="ssr:stedsnr" v="934455" />
		<tag k="ssr:type" v="setervoll" />
	</node>
	<node id="-30762" lat="59.916897224" lon="11.0445333324">
		<tag k="name" v="Merramyra" />
		<tag k="natural" v="wetland" />
		<tag k="ssr:date" v="2019-12-27" />
		<tag k="ssr:gruppe" v="våtmark" />
		<tag k="ssr:hovedgruppe" v="markslag" />
		<tag k="ssr:stedsnr" v="934451" />
		<tag k="ssr:type" v="myr" />
	</node>
	<node id="-30761" lat="59.9166666652" lon="11.0317472141">
		<tag k="name" v="Mortensmyra" />
		<tag k="natural" v="wetland" />
		<tag k="ssr:date" v="2019-12-27" />
		<tag k="ssr:gruppe" v="våtmark" />
		<tag k="ssr:hovedgruppe" v="markslag" />
		<tag k="ssr:stedsnr" v="934449" />
		<tag k="ssr:type" v="myr" />
	</node>
	<node id="-30760" lat="59.8726222263" lon="11.0572361115">
		<tag k="name" v="Søndre Merratjern" />
		<tag k="natural" v="water" />
		<tag k="ssr:date" v="2019-12-27" />
		<tag k="ssr:gruppe" v="stilleståendeVann" />
		<tag k="ssr:hovedgruppe" v="ferskvann" />
		<tag k="ssr:stedsnr" v="934445" />
		<tag k="ssr:type" v="tjern" />
	</node>
	<node id="-30759" lat="59.8976555538" lon="11.0788638884">
		<tag k="alt_name" v="Svarttjern" />
		<tag k="name" v="Svarttjernet" />
		<tag k="natural" v="water" />
		<tag k="ssr:date" v="2019-12-27" />
		<tag k="ssr:gruppe" v="stilleståendeVann" />
		<tag k="ssr:hovedgruppe" v="ferskvann" />
		<tag k="ssr:stedsnr" v="794056" />
		<tag k="ssr:type" v="tjern" />
	</node>
	<node id="-30758" lat="59.882537136" lon="11.0401249739">
		<tag k="name" v="Sætertjerna" />
		<tag k="natural" v="water" />
		<tag k="ssr:date" v="2019-12-27" />
		<tag k="ssr:gruppe" v="stilleståendeVann" />
		<tag k="ssr:hovedgruppe" v="ferskvann" />
		<tag k="ssr:stedsnr" v="793178" />
		<tag k="ssr:type" v="tjern" />
	</node>
	<node id="-30757" lat="59.8860520523" lon="11.1216463657">
		<tag k="name" v="Snekkervika" />
		<tag k="natural" v="bay" />
		<tag k="ssr:date" v="2020-03-27" />
		<tag k="ssr:gruppe" v="ferskvannskontur" />
		<tag k="ssr:hovedgruppe" v="ferskvann" />
		<tag k="ssr:stedsnr" v="915631" />
		<tag k="ssr:type" v="vik" />
	</node>
	<node id="-30756" lat="59.8587944445" lon="11.0248361126">
		<tag k="alt_name" v="Murterudvannet" />
		<tag k="name" v="Morterudvann" />
		<tag k="natural" v="water" />
		<tag k="old_name" v="Morterudvatn" />
		<tag k="ssr:date" v="2019-12-27" />
		<tag k="ssr:gruppe" v="stilleståendeVann" />
		<tag k="ssr:hovedgruppe" v="ferskvann" />
		<tag k="ssr:stedsnr" v="915200" />
		<tag k="ssr:type" v="tjern" />
	</node>
	<node id="-30755" lat="59.8606472241" lon="11.0185305585">
		<tag k="name" v="Morterudkoia" />
		<tag k="place" v="isolated_dwelling" />
		<tag k="ssr:date" v="2019-12-27" />
		<tag k="ssr:gruppe" v="bolighus" />
		<tag k="ssr:hovedgruppe" v="bebyggelse" />
		<tag k="ssr:stedsnr" v="915198" />
		<tag k="ssr:type" v="fritidsbolig" />
	</node>
	<node id="-30754" lat="59.8616361133" lon="11.0346083301">
		<tag k="alt_name" v="Vestre Bjørntjern" />
		<tag k="name" v="Bjørnholttjernet" />
		<tag k="natural" v="water" />
		<tag k="ssr:date" v="2019-12-27" />
		<tag k="ssr:gruppe" v="stilleståendeVann" />
		<tag k="ssr:hovedgruppe" v="ferskvann" />
		<tag k="ssr:stedsnr" v="915143" />
		<tag k="ssr:type" v="tjern" />
	</node>
	<node id="-30753" lat="59.8757944472" lon="11.0512055602">
		<tag k="name" v="Jaerlangmyra" />
		<tag k="natural" v="wetland" />
		<tag k="ssr:date" v="2019-12-27" />
		<tag k="ssr:gruppe" v="våtmark" />
		<tag k="ssr:hovedgruppe" v="markslag" />
		<tag k="ssr:stedsnr" v="751534" />
		<tag k="ssr:type" v="myr" />
	</node>
	<node id="-30752" lat="59.8667638897" lon="11.054855562">
		<tag k="name" v="Nordre Mørkåstjern" />
		<tag k="natural" v="water" />
		<tag k="ssr:date" v="2019-12-27" />
		<tag k="ssr:gruppe" v="stilleståendeVann" />
		<tag k="ssr:hovedgruppe" v="ferskvann" />
		<tag k="ssr:stedsnr" v="751526" />
		<tag k="ssr:type" v="tjern" />
	</node>
	<node id="-30751" lat="59.8362222214" lon="11.0469944375">
		<tag k="name" v="Stingsildtjern" />
		<tag k="natural" v="water" />
		<tag k="ssr:date" v="2019-12-27" />
		<tag k="ssr:gruppe" v="stilleståendeVann" />
		<tag k="ssr:hovedgruppe" v="ferskvann" />
		<tag k="ssr:stedsnr" v="751523" />
		<tag k="ssr:type" v="tjern" />
	</node>
	<node id="-30750" lat="59.8598527776" lon="11.0848805484">
		<tag k="alt_name" v="Lintjern" />
		<tag k="name" v="Lintjernet" />
		<tag k="natural" v="water" />
		<tag k="ssr:date" v="2019-12-27" />
		<tag k="ssr:gruppe" v="stilleståendeVann" />
		<tag k="ssr:hovedgruppe" v="ferskvann" />
		<tag k="ssr:stedsnr" v="733212" />
		<tag k="ssr:type" v="tjern" />
	</node>
	<node id="-30749" lat="59.8558527821" lon="11.0519000084">
		<tag k="fixme" v="multiple name tags, choose one and add the other to alt_name" />
		<tag k="name" v="Setertjernet;Søndre Nessetertjern" />
		<tag k="natural" v="water" />
		<tag k="ssr:date" v="2019-12-27" />
		<tag k="ssr:gruppe" v="stilleståendeVann" />
		<tag k="ssr:hovedgruppe" v="ferskvann" />
		<tag k="ssr:stedsnr" v="733211" />
		<tag k="ssr:type" v="tjern" />
	</node>
	<node id="-30748" lat="59.8573138873" lon="11.0323638836">
		<tag k="fixme" v="consider natural=peak for the most distinct mountains in the district" />
		<tag k="name" v="Bjørntjernåsen" />
		<tag k="natural" v="hill" />
		<tag k="place" v="locality" />
		<tag k="ssr:date" v="2019-12-27" />
		<tag k="ssr:gruppe" v="høyder" />
		<tag k="ssr:hovedgruppe" v="terreng" />
		<tag k="ssr:stedsnr" v="733209" />
		<tag k="ssr:type" v="ås" />
	</node>
	<node id="-30747" lat="59.9094194449" lon="11.065050006">
		<tag k="fixme" v="multiple name tags, choose one and add the other to alt_name" />
		<tag k="name" v="Holtbreimåsan;Breidmåsan" />
		<tag k="natural" v="wetland" />
		<tag k="old_name" v="Breidmosan" />
		<tag k="ssr:date" v="2019-12-27" />
		<tag k="ssr:gruppe" v="våtmark" />
		<tag k="ssr:hovedgruppe" v="markslag" />
		<tag k="ssr:stedsnr" v="733135" />
		<tag k="ssr:type" v="myr" />
	</node>
	<node id="-30746" lat="59.9219388857" lon="11.0775999949">
		<tag k="name" v="Fjerdingby" />
		<tag k="place" v="farm" />
		<tag k="ssr:date" v="2019-12-27" />
		<tag k="ssr:gruppe" v="gardsbebyggelse" />
		<tag k="ssr:hovedgruppe" v="bebyggelse" />
		<tag k="ssr:stedsnr" v="733122" />
		<tag k="ssr:type" v="bruk" />
	</node>
	<node id="-30745" lat="59.862086111" lon="11.0945138945">
		<tag k="bridge" v="yes" />
		<tag k="layer" v="1" />
		<tag k="name" v="Fjellstad" />
		<tag k="ssr:date" v="2019-12-27" />
		<tag k="ssr:gruppe" v="samferdselsanlegg" />
		<tag k="ssr:hovedgruppe" v="infrastruktur" />
		<tag k="ssr:stedsnr" v="896024" />
		<tag k="ssr:type" v="bru" />
	</node>
	<node id="-30744" lat="59.8533805549" lon="11.1010555623">
		<tag k="bridge" v="yes" />
		<tag k="layer" v="1" />
		<tag k="name" v="By" />
		<tag k="ssr:date" v="2019-12-27" />
		<tag k="ssr:gruppe" v="samferdselsanlegg" />
		<tag k="ssr:hovedgruppe" v="infrastruktur" />
		<tag k="ssr:stedsnr" v="713026" />
		<tag k="ssr:type" v="bru" />
	</node>
	<node id="-30743" lat="59.921302774" lon="11.0798861065">
		<tag k="name" v="Tajet" />
		<tag k="place" v="farm" />
		<tag k="ssr:date" v="2019-12-27" />
		<tag k="ssr:gruppe" v="gardsbebyggelse" />
		<tag k="ssr:hovedgruppe" v="bebyggelse" />
		<tag k="ssr:stedsnr" v="692560" />
		<tag k="ssr:type" v="bruk" />
	</node>
	<node id="-30742" lat="59.8747833347" lon="11.0853777775">
		<tag k="amenity" v="community_centre" />
		<tag k="name" v="Åsvang samfunnshus" />
		<tag k="ssr:date" v="2019-12-27" />
		<tag k="ssr:gruppe" v="kulturinstitusjoner" />
		<tag k="ssr:hovedgruppe" v="kultur" />
		<tag k="ssr:stedsnr" v="692607" />
		<tag k="ssr:type" v="forsamlingshusKulturhus" />
	</node>
	<node id="-30741" lat="59.9046388872" lon="11.1230694388">
		<tag k="alt_name" v="Rusholet" />
		<tag k="name" v="Rudsholet" />
		<tag k="natural" v="strait" />
		<tag k="ssr:date" v="2019-12-27" />
		<tag k="ssr:gruppe" v="ferskvannskontur" />
		<tag k="ssr:hovedgruppe" v="ferskvann" />
		<tag k="ssr:stedsnr" v="733580" />
		<tag k="ssr:type" v="sund" />
	</node>
	<node id="-30740" lat="59.9395472267" lon="11.0380999963">
		<tag k="name" v="Stormyra" />
		<tag k="natural" v="wetland" />
		<tag k="ssr:date" v="2019-12-27" />
		<tag k="ssr:gruppe" v="våtmark" />
		<tag k="ssr:hovedgruppe" v="markslag" />
		<tag k="ssr:stedsnr" v="733068" />
		<tag k="ssr:type" v="myr" />
	</node>
	<node id="-30739" lat="59.8988250038" lon="11.1000222256">
		<tag k="name" v="Hagan" />
		<tag k="place" v="farm" />
		<tag k="ssr:date" v="2019-12-27" />
		<tag k="ssr:gruppe" v="gardsbebyggelse" />
		<tag k="ssr:hovedgruppe" v="bebyggelse" />
		<tag k="ssr:stedsnr" v="732663" />
		<tag k="ssr:type" v="bruk" />
	</node>
	<node id="-30738" lat="59.8937000015" lon="11.0358222217">
		<tag k="name" v="Djupdalsmyra" />
		<tag k="natural" v="wetland" />
		<tag k="ssr:date" v="2019-12-27" />
		<tag k="ssr:gruppe" v="våtmark" />
		<tag k="ssr:hovedgruppe" v="markslag" />
		<tag k="ssr:stedsnr" v="732095" />
		<tag k="ssr:type" v="myr" />
	</node>
	<node id="-30737" lat="59.8392361141" lon="11.053269451">
		<tag k="historic" v="shieling" />
		<tag k="name" v="Nordbysetra" />
		<tag k="place" v="locality" />
		<tag k="ssr:date" v="2019-12-27" />
		<tag k="ssr:gruppe" v="dyrkamark" />
		<tag k="ssr:hovedgruppe" v="markslag" />
		<tag k="ssr:stedsnr" v="630462" />
		<tag k="ssr:type" v="setervoll" />
	</node>
	<node id="-30736" lat="59.8832499959" lon="11.0398249984">
		<tag k="name" v="Midtre Setertjern" />
		<tag k="natural" v="water" />
		<tag k="ssr:date" v="2019-12-27" />
		<tag k="ssr:gruppe" v="stilleståendeVann" />
		<tag k="ssr:hovedgruppe" v="ferskvann" />
		<tag k="ssr:stedsnr" v="630455" />
		<tag k="ssr:type" v="tjern" />
	</node>
	<node id="-30735" lat="59.8663861079" lon="11.0691444356">
		<tag k="name" v="Vangmyra" />
		<tag k="natural" v="wetland" />
		<tag k="ssr:date" v="2019-12-27" />
		<tag k="ssr:gruppe" v="våtmark" />
		<tag k="ssr:hovedgruppe" v="markslag" />
		<tag k="ssr:stedsnr" v="630565" />
		<tag k="ssr:type" v="myr" />
	</node>
	<node id="-30734" lat="59.9322472265" lon="11.0680388975">
		<tag k="bridge" v="yes" />
		<tag k="layer" v="1" />
		<tag k="name" v="Åmot" />
		<tag k="ssr:date" v="2019-12-27" />
		<tag k="ssr:gruppe" v="samferdselsanlegg" />
		<tag k="ssr:hovedgruppe" v="infrastruktur" />
		<tag k="ssr:stedsnr" v="592028" />
		<tag k="ssr:type" v="bru" />
	</node>
	<node id="-30733" lat="59.9139666622" lon="11.0840527824">
		<tag k="name" v="Sørlibekken" />
		<tag k="ssr:date" v="2019-12-27" />
		<tag k="ssr:gruppe" v="rennendeVann" />
		<tag k="ssr:hovedgruppe" v="ferskvann" />
		<tag k="ssr:stedsnr" v="751788" />
		<tag k="ssr:type" v="bekk" />
		<tag k="waterway" v="stream" />
	</node>
	<node id="-30732" lat="59.9197111147" lon="11.0759166691">
		<tag k="name" v="Kirkeby" />
		<tag k="place" v="isolated_dwelling" />
		<tag k="ssr:date" v="2019-12-27" />
		<tag k="ssr:gruppe" v="bolighus" />
		<tag k="ssr:hovedgruppe" v="bebyggelse" />
		<tag k="ssr:stedsnr" v="570521" />
		<tag k="ssr:type" v="eneboligMindreBoligbygg" />
	</node>
	<node id="-30731" lat="59.8734611077" lon="11.0840750043">
		<tag k="building" v="commercial" />
		<tag k="name" v="Skjønberg landhandleri" />
		<tag k="ssr:date" v="2019-12-27" />
		<tag k="ssr:gruppe" v="næring" />
		<tag k="ssr:hovedgruppe" v="bebyggelse" />
		<tag k="ssr:stedsnr" v="692608" />
		<tag k="ssr:type" v="forretningsbygg" />
	</node>
	<node id="-30730" lat="59.9069527759" lon="11.061650001">
		<tag k="fixme" v="consider natural=peak for the most distinct mountains in the district" />
		<tag k="name" v="Langmyråsen" />
		<tag k="natural" v="hill" />
		<tag k="place" v="locality" />
		<tag k="ssr:date" v="2019-12-27" />
		<tag k="ssr:gruppe" v="høyder" />
		<tag k="ssr:hovedgruppe" v="terreng" />
		<tag k="ssr:stedsnr" v="691735" />
		<tag k="ssr:type" v="ås" />
	</node>
	<node id="-30729" lat="59.9052055527" lon="11.0978055589">
		<tag k="name" v="Søndre Smestad" />
		<tag k="place" v="farm" />
		<tag k="ssr:date" v="2019-12-27" />
		<tag k="ssr:gruppe" v="gardsbebyggelse" />
		<tag k="ssr:hovedgruppe" v="bebyggelse" />
		<tag k="ssr:stedsnr" v="691730" />
		<tag k="ssr:type" v="bruk" />
	</node>
	<node id="-30728" lat="59.912283333" lon="11.0812777806">
		<tag k="name" v="Sørli" />
		<tag k="place" v="farm" />
		<tag k="ssr:date" v="2019-12-27" />
		<tag k="ssr:gruppe" v="gardsbebyggelse" />
		<tag k="ssr:hovedgruppe" v="bebyggelse" />
		<tag k="ssr:stedsnr" v="691724" />
		<tag k="ssr:type" v="bruk" />
	</node>
	<node id="-30727" lat="59.9419500034" lon="11.059197228">
		<tag k="name" v="Berg" />
		<tag k="place" v="hamlet" />
		<tag k="ssr:date" v="2019-12-27" />
		<tag k="ssr:gruppe" v="bebyggelsesområder" />
		<tag k="ssr:hovedgruppe" v="bebyggelse" />
		<tag k="ssr:stedsnr" v="691697" />
		<tag k="ssr:type" v="grend" />
	</node>
	<node id="-30726" lat="59.8527749997" lon="11.0715694439">
		<tag k="name" v="Geitungholmen" />
		<tag k="place" v="island" />
		<tag k="ssr:date" v="2019-12-27" />
		<tag k="ssr:gruppe" v="kystkontur" />
		<tag k="ssr:hovedgruppe" v="sjø" />
		<tag k="ssr:stedsnr" v="691681" />
		<tag k="ssr:type" v="øyISjø" />
	</node>
	<node id="-30725" lat="59.8769750027" lon="11.0906249919">
		<tag k="name" v="Oppistua" />
		<tag k="place" v="farm" />
		<tag k="ssr:date" v="2019-12-27" />
		<tag k="ssr:gruppe" v="gardsbebyggelse" />
		<tag k="ssr:hovedgruppe" v="bebyggelse" />
		<tag k="ssr:stedsnr" v="691644" />
		<tag k="ssr:type" v="bruk" />
	</node>
	<node id="-30724" lat="59.9218000004" lon="11.0738166606">
		<tag k="junction" v="yes" />
		<tag k="name" v="Fjerdingby" />
		<tag k="place" v="locality" />
		<tag k="ssr:date" v="2019-12-27" />
		<tag k="ssr:gruppe" v="veg" />
		<tag k="ssr:hovedgruppe" v="infrastruktur" />
		<tag k="ssr:stedsnr" v="691587" />
		<tag k="ssr:type" v="vegkryss" />
	</node>
	<node id="-30723" lat="59.8938388874" lon="11.0211194491">
		<tag k="name" v="Isdalen" />
		<tag k="natural" v="valley" />
		<tag k="place" v="locality" />
		<tag k="ssr:date" v="2019-12-27" />
		<tag k="ssr:gruppe" v="senkninger" />
		<tag k="ssr:hovedgruppe" v="terreng" />
		<tag k="ssr:stedsnr" v="691538" />
		<tag k="ssr:type" v="dal" />
	</node>
	<node id="-30722" lat="59.9019611078" lon="11.0253694472">
		<tag k="fixme" v="consider natural=peak for the most distinct mountains in the district" />
		<tag k="name" v="Skolemesteren" />
		<tag k="natural" v="hill" />
		<tag k="place" v="locality" />
		<tag k="ssr:date" v="2019-12-27" />
		<tag k="ssr:gruppe" v="høyder" />
		<tag k="ssr:hovedgruppe" v="terreng" />
		<tag k="ssr:stedsnr" v="691531" />
		<tag k="ssr:type" v="ås" />
	</node>
	<node id="-30721" lat="59.8671277766" lon="11.0593638904">
		<tag k="name" v="Lauvbråtemyra" />
		<tag k="natural" v="wetland" />
		<tag k="ssr:date" v="2019-12-27" />
		<tag k="ssr:gruppe" v="våtmark" />
		<tag k="ssr:hovedgruppe" v="markslag" />
		<tag k="ssr:stedsnr" v="691503" />
		<tag k="ssr:type" v="myr" />
	</node>
</osm>
