<?xml version="1.0" encoding="UTF-8"?>
<osm generator="osmapis" version="0.6">
	<node id="-592511" lat="62.9093444476" lon="7.33547221772">
		<tag k="bridge" v="yes" />
		<tag k="layer" v="1" />
		<tag k="name" v="Sandnesbrua" />
		<tag k="ssr:stedsnr" v="695280" />
	</node>
	<node id="-592510" lat="62.946030556" lon="7.34104721731">
		<tag k="bridge" v="yes" />
		<tag k="layer" v="1" />
		<tag k="name" v="Bollielvbrua" />
		<tag k="ssr:stedsnr" v="695278" />
	</node>
	<node id="-591738" lat="63.008880556" lon="7.30627777628">
		<tag k="bridge" v="yes" />
		<tag k="layer" v="1" />
		<tag k="name" v="Klipabrua" />
		<tag k="ssr:stedsnr" v="270601" />
	</node>
	<node id="-591737" lat="63.0164916647" lon="7.34471943576">
		<tag k="bridge" v="yes" />
		<tag k="layer" v="1" />
		<tag k="name" v="Myrbærholmbrua" />
		<tag k="ssr:stedsnr" v="270592" />
	</node>
	<node id="-591987" lat="62.9584333351" lon="7.36109722614">
		<tag k="bridge" v="yes" />
		<tag k="layer" v="1" />
		<tag k="name" v="Trøabrua" />
		<tag k="ssr:stedsnr" v="27609" />
	</node>
	<node id="-591986" lat="63.0153249989" lon="7.34089165835">
		<tag k="bridge" v="yes" />
		<tag k="layer" v="1" />
		<tag k="name" v="Hulvågbrua" />
		<tag k="ssr:stedsnr" v="27605" />
	</node>
	<node id="-592109" lat="62.8861111125" lon="7.34953611318">
		<tag k="bridge" v="yes" />
		<tag k="layer" v="1" />
		<tag k="name" v="Brandseterbrua" />
		<tag k="ssr:stedsnr" v="148613" />
	</node>
	<node id="-592739" lat="62.8828888865" lon="7.45886667032">
		<tag k="bridge" v="yes" />
		<tag k="layer" v="1" />
		<tag k="name" v="Langhaugbrua" />
		<tag k="ssr:stedsnr" v="937294" />
	</node>
	<node id="-592315" lat="62.8868138899" lon="7.46491389425">
		<tag k="bridge" v="yes" />
		<tag k="layer" v="1" />
		<tag k="name" v="Øybrua" />
		<tag k="ssr:stedsnr" v="512257" />
	</node>
	<node id="-592350" lat="62.8994666692" lon="7.45669722386">
		<tag k="junction" v="yes" />
		<tag k="name" v="Breia" />
		<tag k="place" v="locality" />
		<tag k="ssr:stedsnr" v="520447" />
	</node>
	<node id="-592476" lat="62.9151611091" lon="7.4556472274">
		<tag k="man_made" v="quay" />
		<tag k="name" v="Eidskaia" />
		<tag k="place" v="locality" />
		<tag k="ssr:stedsnr" v="641410" />
	</node>
	<node id="-592081" lat="62.8977138909" lon="7.47958610464">
		<tag k="highway" v="path" />
		<tag k="name" v="Geilen" />
		<tag k="ssr:stedsnr" v="96496" />
	</node>
	<node id="-591813" lat="62.9155805588" lon="7.30704723099">
		<tag k="bridge" v="yes" />
		<tag k="layer" v="1" />
		<tag k="name" v="Oselvbrua" />
		<tag k="ssr:stedsnr" v="330277" />
	</node>
	<node id="-591812" lat="62.9096416665" lon="7.53861111618">
		<tag k="bridge" v="yes" />
		<tag k="layer" v="1" />
		<tag k="name" v="Strandabrua" />
		<tag k="ssr:stedsnr" v="330272" />
	</node>
	<node id="-591939" lat="62.8785083366" lon="7.4487361163">
		<tag k="fixme" v="consider highway=path" />
		<tag k="highway" v="track" />
		<tag k="name" v="Fjellstivegen" />
		<tag k="ssr:stedsnr" v="884272" />
	</node>
	<node id="-592577" lat="62.9044750035" lon="7.44873888038">
		<tag k="bridge" v="yes" />
		<tag k="layer" v="1" />
		<tag k="name" v="Holmsundbrua" />
		<tag k="ssr:stedsnr" v="755273" />
	</node>
	<node id="-592443" lat="62.9961833329" lon="7.28985555725">
		<tag k="bridge" v="yes" />
		<tag k="layer" v="1" />
		<tag k="name" v="Straumshaugbrua" />
		<tag k="ssr:stedsnr" v="633599" />
	</node>
	<node id="-592442" lat="62.9188999975" lon="7.44969444288">
		<tag k="bridge" v="yes" />
		<tag k="layer" v="1" />
		<tag k="name" v="Eidsbrua" />
		<tag k="ssr:stedsnr" v="633597" />
	</node>
	<node id="-592441" lat="62.8984444453" lon="7.46657499879">
		<tag k="bridge" v="yes" />
		<tag k="layer" v="1" />
		<tag k="name" v="Sorsetbrua" />
		<tag k="ssr:stedsnr" v="633282" />
	</node>
	<node id="-592181" lat="62.8802083334" lon="7.36211666101">
		<tag k="ford" v="yes" />
		<tag k="name" v="Romsdalsvaet" />
		<tag k="place" v="locality" />
		<tag k="ssr:stedsnr" v="217243" />
	</node>
	<node id="-592707" lat="62.8828472193" lon="7.44407500772">
		<tag k="bridge" v="yes" />
		<tag k="layer" v="1" />
		<tag k="name" v="Vasskorbrua" />
		<tag k="ssr:stedsnr" v="877296" />
	</node>
	<node id="-592273" lat="62.8781166624" lon="7.39167222594">
		<tag k="highway" v="path" />
		<tag k="name" v="Seterstien" />
		<tag k="ssr:stedsnr" v="460380" />
	</node>
	<node id="-592266" lat="62.938861107" lon="7.39405555783">
		<tag k="highway" v="path" />
		<tag k="name" v="Hestvegan" />
		<tag k="ssr:stedsnr" v="459336" />
	</node>
	<node id="-592649" lat="62.8811583322" lon="7.42033611963">
		<tag k="bridge" v="yes" />
		<tag k="layer" v="1" />
		<tag k="name" v="Sørdalsbrua" />
		<tag k="ssr:stedsnr" v="816285" />
	</node>
	<node id="-592648" lat="63.016624999" lon="7.35298888989">
		<tag k="bridge" v="yes" />
		<tag k="layer" v="1" />
		<tag k="name" v="Storseisundbrua" />
		<tag k="ssr:stedsnr" v="816283" />
	</node>
</osm>
