<?xml version="1.0" encoding="UTF-8"?>
<osm generator="osmapis" version="0.6">
	<node id="-592894" lat="62.9162972259" lon="7.54596110376">
		<tag k="alt_name" v="Jovika" />
		<tag k="name" v="Jovikbukta" />
		<tag k="natural" v="bay" />
		<tag k="ssr:stedsnr" v="35482" />
	</node>
	<node id="-593405" lat="63.0134888845" lon="7.32891665737">
		<tag k="name" v="Skarvøyvågen" />
		<tag k="natural" v="bay" />
		<tag k="ssr:stedsnr" v="702264" />
	</node>
	<node id="-593404" lat="63.0026805599" lon="7.30005832995">
		<tag k="alt_name" v="Vevangsvågen" />
		<tag k="name" v="Vevangvågen" />
		<tag k="natural" v="bay" />
		<tag k="ssr:stedsnr" v="702262" />
	</node>
	<node id="-593402" lat="63.0083111122" lon="7.28910832525">
		<tag k="name" v="Hummarvika" />
		<tag k="natural" v="bay" />
		<tag k="ssr:stedsnr" v="702256" />
	</node>
	<node id="-593401" lat="62.9728972254" lon="7.33289444631">
		<tag k="name" v="Nørd Sandvikbukta" />
		<tag k="natural" v="bay" />
		<tag k="ssr:stedsnr" v="702253" />
	</node>
	<node id="-592882" lat="63.0013638886" lon="7.30604722171">
		<tag k="name" v="Nerstølneset" />
		<tag k="natural" v="cape" />
		<tag k="ssr:stedsnr" v="35370" />
	</node>
	<node id="-592880" lat="63.011166667" lon="7.27565276868">
		<tag k="name" v="Hummarholå" />
		<tag k="natural" v="bay" />
		<tag k="ssr:stedsnr" v="35362" />
	</node>
	<node id="-592879" lat="62.9781888929" lon="7.31605833253">
		<tag k="name" v="Kaldvikneset" />
		<tag k="natural" v="cape" />
		<tag k="ssr:stedsnr" v="35354" />
	</node>
	<node id="-593390" lat="62.9575250039" lon="7.41271389342">
		<tag k="name" v="Visnestangen" />
		<tag k="natural" v="cape" />
		<tag k="ssr:stedsnr" v="688644" />
	</node>
	<node id="-593388" lat="63.1127305542" lon="7.24432499065">
		<tag k="fixme" v="consider seamark:type=rock or natural=shoal" />
		<tag k="name" v="Litlvassholmen" />
		<tag k="place" v="islet" />
		<tag k="ssr:stedsnr" v="680753" />
	</node>
	<node id="-593387" lat="63.0144999973" lon="7.29004445277">
		<tag k="fixme" v="consider seamark:type=rock or natural=shoal" />
		<tag k="name" v="Storhauet" />
		<tag k="place" v="islet" />
		<tag k="ssr:stedsnr" v="680651" />
	</node>
	<node id="-593384" lat="63.1068722214" lon="7.20270000573">
		<tag k="fixme" v="consider seamark:type=rock or natural=shoal" />
		<tag k="name" v="Leiskjæret" />
		<tag k="place" v="islet" />
		<tag k="ssr:stedsnr" v="679608" />
	</node>
	<node id="-593383" lat="63.1006083295" lon="7.18661665898">
		<tag k="name" v="Hørpen" />
		<tag k="natural" v="shoal" />
		<tag k="place" v="locality" />
		<tag k="ssr:stedsnr" v="679607" />
	</node>
	<node id="-593382" lat="63.1166472235" lon="7.18499722586">
		<tag k="fixme" v="consider seamark:type=rock or natural=shoal" />
		<tag k="name" v="Kalven" />
		<tag k="place" v="islet" />
		<tag k="ssr:stedsnr" v="679598" />
	</node>
	<node id="-592865" lat="62.976422225" lon="7.31529722559">
		<tag k="name" v="Storvikbukta" />
		<tag k="natural" v="bay" />
		<tag k="ssr:stedsnr" v="12925" />
	</node>
	<node id="-592976" lat="62.8872611089" lon="7.43242221282">
		<tag k="name" v="Bjerkneset" />
		<tag k="natural" v="cape" />
		<tag k="ssr:stedsnr" v="132616" />
	</node>
	<node id="-593371" lat="63.0078944457" lon="7.24983889211">
		<tag k="name" v="Torvholmen" />
		<tag k="place" v="islet" />
		<tag k="ssr:stedsnr" v="679377" />
	</node>
	<node id="-592633" lat="62.9636833315" lon="7.37846665712">
		<tag k="name" v="Lyngstadskjæra" />
		<tag k="place" v="islet" />
		<tag k="ssr:stedsnr" v="277310" />
	</node>
	<node id="-593362" lat="63.1015666629" lon="7.21735554598">
		<tag k="name" v="Hyttfluan" />
		<tag k="natural" v="shoal" />
		<tag k="place" v="locality" />
		<tag k="ssr:stedsnr" v="655176" />
	</node>
	<node id="-593059" lat="63.0102777816" lon="7.31225832745">
		<tag k="name" v="Straumsholmen" />
		<tag k="place" v="islet" />
		<tag k="ssr:stedsnr" v="195603" />
	</node>
	<node id="-592846" lat="62.9293414382" lon="7.59508094198">
		<tag k="alt_name" v="Krekvikhammaren" />
		<tag k="name" v="Hammarneset" />
		<tag k="natural" v="cape" />
		<tag k="ssr:stedsnr" v="278775" />
	</node>
	<node id="-592842" lat="63.2000000036" lon="7.04999999437">
		<tag k="name" v="Hansgrunna" />
		<tag k="natural" v="shoal" />
		<tag k="place" v="locality" />
		<tag k="ssr:stedsnr" v="466766" />
	</node>
	<node id="-593349" lat="62.9199361156" lon="7.55294166901">
		<tag k="name" v="Laksneset" />
		<tag k="natural" v="cape" />
		<tag k="ssr:stedsnr" v="641336" />
	</node>
	<node id="-593348" lat="62.9086722221" lon="7.51808333447">
		<tag k="alt_name" v="Kjølbogen" />
		<tag k="name" v="Kjølbukta" />
		<tag k="natural" v="bay" />
		<tag k="ssr:stedsnr" v="641335" />
	</node>
	<node id="-593346" lat="62.9291499975" lon="7.45148056167">
		<tag k="name" v="Skoganestangen" />
		<tag k="natural" v="cape" />
		<tag k="ssr:stedsnr" v="641325" />
	</node>
	<node id="-593342" lat="62.9048749976" lon="7.45353610276">
		<tag k="name" v="Breineset" />
		<tag k="natural" v="cape" />
		<tag k="ssr:stedsnr" v="641276" />
	</node>
	<node id="-592825" lat="62.9097138865" lon="7.51555555674">
		<tag k="name" v="Kjølneset" />
		<tag k="natural" v="cape" />
		<tag k="ssr:stedsnr" v="885404" />
	</node>
	<node id="-593336" lat="63.0067888923" lon="7.28138611068">
		<tag k="name" v="Gjengstøa" />
		<tag k="natural" v="bay" />
		<tag k="ssr:stedsnr" v="641245" />
	</node>
	<node id="-592969" lat="63.0335861142" lon="7.30482222173">
		<tag k="name" v="Dromflua" />
		<tag k="natural" v="shoal" />
		<tag k="place" v="locality" />
		<tag k="ssr:stedsnr" v="111652" />
	</node>
	<node id="-592820" lat="62.9259888876" lon="7.57682499599">
		<tag k="name" v="Buskeneset" />
		<tag k="natural" v="cape" />
		<tag k="ssr:stedsnr" v="885161" />
	</node>
	<node id="-593326" lat="62.9589333322" lon="7.38288610253">
		<tag k="name" v="Finnbukta" />
		<tag k="natural" v="bay" />
		<tag k="ssr:stedsnr" v="640369" />
	</node>
	<node id="-592812" lat="63.0007777811" lon="7.29999167511">
		<tag k="fixme" v="consider seamark:type=rock or natural=shoal" />
		<tag k="name" v="Myraskjæret" />
		<tag k="place" v="islet" />
		<tag k="ssr:stedsnr" v="884271" />
	</node>
	<node id="-592811" lat="63.0087333295" lon="7.28439166491">
		<tag k="alt_name" v="Smørholmsundet" />
		<tag k="name" v="Smørholmvågen" />
		<tag k="natural" v="strait" />
		<tag k="ssr:stedsnr" v="884262" />
	</node>
	<node id="-593321" lat="62.9794527767" lon="7.31417500769">
		<tag k="name" v="Litlvikbukta" />
		<tag k="natural" v="bay" />
		<tag k="ssr:stedsnr" v="619935" />
	</node>
	<node id="-593320" lat="62.9984805565" lon="7.31309722546">
		<tag k="alt_name" v="Frantsneset" />
		<tag k="name" v="Tangen" />
		<tag k="natural" v="cape" />
		<tag k="ssr:stedsnr" v="619871" />
	</node>
	<node id="-593319" lat="63.0816805593" lon="7.22445554949">
		<tag k="fixme" v="consider seamark:type=rock or natural=shoal" />
		<tag k="name" v="Følingen" />
		<tag k="place" v="islet" />
		<tag k="ssr:stedsnr" v="619772" />
	</node>
	<node id="-592800" lat="62.9472055526" lon="7.42513332878">
		<tag k="alt_name" v="Langnesberget" />
		<tag k="name" v="Langneset" />
		<tag k="natural" v="cape" />
		<tag k="ssr:stedsnr" v="883473" />
	</node>
	<node id="-592798" lat="63.0809972267" lon="7.20930833122">
		<tag k="name" v="Jørin" />
		<tag k="natural" v="shoal" />
		<tag k="place" v="locality" />
		<tag k="ssr:stedsnr" v="473178" />
	</node>
	<node id="-593308" lat="63.0542722218" lon="7.3490444495">
		<tag k="name" v="Bararman" />
		<tag k="natural" v="shoal" />
		<tag k="place" v="locality" />
		<tag k="ssr:stedsnr" v="596639" />
	</node>
	<node id="-592790" lat="62.9028944464" lon="7.47020000851">
		<tag k="name" v="Kastet" />
		<tag k="place" v="locality" />
		<tag k="ssr:stedsnr" v="399510" />
	</node>
	<node id="-593297" lat="63.0115388918" lon="7.29214444849">
		<tag k="name" v="Kuneset" />
		<tag k="natural" v="cape" />
		<tag k="ssr:stedsnr" v="581477" />
	</node>
	<node id="-593048" lat="63.0261527794" lon="7.33369444322">
		<tag k="fixme" v="consider seamark:type=rock or natural=shoal" />
		<tag k="name" v="Tennskjæra" />
		<tag k="place" v="islet" />
		<tag k="ssr:stedsnr" v="194524" />
	</node>
	<node id="-592773" lat="62.9008527803" lon="7.46977222988">
		<tag k="name" v="Sorsetleira" />
		<tag k="natural" v="bay" />
		<tag k="ssr:stedsnr" v="399374" />
	</node>
	<node id="-592768" lat="63.0092222213" lon="7.3061305568">
		<tag k="name" v="Vevangstraumen" />
		<tag k="natural" v="strait" />
		<tag k="ssr:stedsnr" v="399341" />
	</node>
	<node id="-593278" lat="62.9651277782" lon="7.37589165906">
		<tag k="name" v="Naustvikbukta" />
		<tag k="natural" v="bay" />
		<tag k="ssr:stedsnr" v="580280" />
	</node>
	<node id="-593270" lat="63.0050416631" lon="7.32602778149">
		<tag k="fixme" v="consider seamark:type=rock or natural=shoal" />
		<tag k="name" v="Mannsholmskjæret" />
		<tag k="place" v="islet" />
		<tag k="ssr:stedsnr" v="580247" />
	</node>
	<node id="-592755" lat="62.9590527754" lon="7.39224444324">
		<tag k="fixme" v="consider seamark:type=rock or natural=shoal" />
		<tag k="name" v="Vikaskjæret" />
		<tag k="place" v="islet" />
		<tag k="ssr:stedsnr" v="398334" />
	</node>
	<node id="-592753" lat="62.9611055559" lon="7.38539445272">
		<tag k="name" v="Hattholmen" />
		<tag k="place" v="islet" />
		<tag k="ssr:stedsnr" v="398320" />
	</node>
	<node id="-593258" lat="63.1088638858" lon="7.15060278142">
		<tag k="name" v="Snapan" />
		<tag k="natural" v="shoal" />
		<tag k="place" v="locality" />
		<tag k="ssr:stedsnr" v="558656" />
	</node>
	<node id="-593257" lat="63.0104888918" lon="7.25278610887">
		<tag k="name" v="Kjeøya" />
		<tag k="place" v="islet" />
		<tag k="ssr:stedsnr" v="558647" />
	</node>
	<node id="-593256" lat="63.0084444475" lon="7.30612221964">
		<tag k="name" v="Klipa" />
		<tag k="natural" v="cape" />
		<tag k="ssr:stedsnr" v="558433" />
	</node>
	<node id="-593255" lat="62.9553972242" lon="7.42498889746">
		<tag k="name" v="Galten" />
		<tag k="natural" v="shoal" />
		<tag k="place" v="locality" />
		<tag k="ssr:stedsnr" v="557977" />
	</node>
	<node id="-592742" lat="63.012733664" lon="7.27198257008">
		<tag k="fixme" v="consider seamark:type=rock or natural=shoal" />
		<tag k="name" v="Svartskjeret" />
		<tag k="place" v="islet" />
		<tag k="ssr:stedsnr" v="376624" />
	</node>
	<node id="-592741" lat="63.0276750037" lon="7.34115834034">
		<tag k="fixme" v="consider seamark:type=rock or natural=shoal" />
		<tag k="name" v="Trollbåten" />
		<tag k="place" v="islet" />
		<tag k="ssr:stedsnr" v="376601" />
	</node>
	<node id="-592740" lat="63.0064499981" lon="7.32024166622">
		<tag k="name" v="Mannsholmen" />
		<tag k="place" v="islet" />
		<tag k="ssr:stedsnr" v="376424" />
	</node>
	<node id="-592732" lat="62.8886555562" lon="7.44001945034">
		<tag k="name" v="Langneset" />
		<tag k="natural" v="cape" />
		<tag k="ssr:stedsnr" v="375567" />
	</node>
	<node id="-593243" lat="62.9267722262" lon="7.59180555384">
		<tag k="name" v="Krekvikbogen" />
		<tag k="natural" v="bay" />
		<tag k="ssr:stedsnr" v="557529" />
	</node>
	<node id="-593241" lat="62.9661250003" lon="7.375616657">
		<tag k="name" v="Fransosneset" />
		<tag k="natural" v="cape" />
		<tag k="ssr:stedsnr" v="535698" />
	</node>
	<node id="-592727" lat="62.9381638905" lon="7.44627222205">
		<tag k="name" v="Silneset" />
		<tag k="natural" v="cape" />
		<tag k="ssr:stedsnr" v="375453" />
	</node>
	<node id="-592723" lat="63.0224749988" lon="7.33319445077">
		<tag k="name" v="Tennskjærflua" />
		<tag k="natural" v="shoal" />
		<tag k="place" v="locality" />
		<tag k="ssr:stedsnr" v="353819" />
	</node>
	<node id="-592722" lat="62.9639222197" lon="7.39343055057">
		<tag k="name" v="Vikagrunnen" />
		<tag k="natural" v="shoal" />
		<tag k="place" v="locality" />
		<tag k="ssr:stedsnr" v="353709" />
	</node>
	<node id="-592721" lat="63.0498972204" lon="7.31918611727">
		<tag k="name" v="Marstrandstaran" />
		<tag k="natural" v="shoal" />
		<tag k="place" v="locality" />
		<tag k="ssr:stedsnr" v="353678" />
	</node>
	<node id="-592720" lat="63.0960333372" lon="7.2307722257">
		<tag k="name" v="Skarvskjærtaran" />
		<tag k="natural" v="shoal" />
		<tag k="place" v="locality" />
		<tag k="ssr:stedsnr" v="352143" />
	</node>
	<node id="-592719" lat="62.9041166668" lon="7.45648055636">
		<tag k="name" v="Einsetodden" />
		<tag k="natural" v="cape" />
		<tag k="ssr:stedsnr" v="352022" />
	</node>
	<node id="-592716" lat="62.9116444476" lon="7.53493610975">
		<tag k="name" v="Sjåsette" />
		<tag k="natural" v="cape" />
		<tag k="ssr:stedsnr" v="338701" />
	</node>
	<node id="-592701" lat="63.0168749997" lon="7.35395277966">
		<tag k="name" v="Storseisundet" />
		<tag k="natural" v="strait" />
		<tag k="ssr:stedsnr" v="338250" />
	</node>
	<node id="-593201" lat="62.9574638889" lon="7.39700833292">
		<tag k="name" v="Vikabukta" />
		<tag k="natural" v="bay" />
		<tag k="ssr:stedsnr" v="519402" />
	</node>
	<node id="-593198" lat="62.9607055573" lon="7.38219444843">
		<tag k="name" v="Boganeset" />
		<tag k="natural" v="cape" />
		<tag k="ssr:stedsnr" v="519379" />
	</node>
	<node id="-592684" lat="63.0086722247" lon="7.27217776886">
		<tag k="name" v="Kilsundet" />
		<tag k="natural" v="strait" />
		<tag k="ssr:stedsnr" v="324577" />
	</node>
	<node id="-592683" lat="63.0210027777" lon="7.33104443799">
		<tag k="bay" v="fjord" />
		<tag k="name" v="Olbakken" />
		<tag k="natural" v="bay" />
		<tag k="ssr:stedsnr" v="316644" />
	</node>
	<node id="-593194" lat="63.1069805587" lon="7.24919166879">
		<tag k="fixme" v="consider seamark:type=rock or natural=shoal" />
		<tag k="name" v="Fonnskaftet" />
		<tag k="place" v="islet" />
		<tag k="ssr:stedsnr" v="498727" />
	</node>
	<node id="-593193" lat="63.0115715593" lon="7.28198435741">
		<tag k="alt_name" v="Steinøya" />
		<tag k="name" v="Smørholmen" />
		<tag k="place" v="islet" />
		<tag k="ssr:stedsnr" v="498654" />
	</node>
	<node id="-593191" lat="63.0750361139" lon="7.29290834292">
		<tag k="bay" v="fjord" />
		<tag k="name" v="Midtfjordsleia" />
		<tag k="natural" v="bay" />
		<tag k="ssr:stedsnr" v="498583" />
	</node>
	<node id="-592689" lat="62.9598222256" lon="7.39580554771">
		<tag k="name" v="Storholmen" />
		<tag k="place" v="islet" />
		<tag k="ssr:stedsnr" v="337374" />
	</node>
	<node id="-592675" lat="62.9241583319" lon="7.56142222846">
		<tag k="name" v="Stakkvikneset" />
		<tag k="natural" v="cape" />
		<tag k="ssr:stedsnr" v="315541" />
	</node>
	<node id="-592671" lat="63.006811115" lon="7.23931666368">
		<tag k="name" v="Langholmen" />
		<tag k="place" v="islet" />
		<tag k="ssr:stedsnr" v="315391" />
	</node>
	<node id="-592667" lat="62.9049500035" lon="7.46694444651">
		<tag k="name" v="Isingvågen" />
		<tag k="natural" v="bay" />
		<tag k="ssr:stedsnr" v="314601" />
	</node>
	<node id="-592766" lat="62.9686055523" lon="7.36157777164">
		<tag k="name" v="Ørjavikneset" />
		<tag k="natural" v="cape" />
		<tag k="ssr:stedsnr" v="399312" />
	</node>
	<node id="-592665" lat="63.133905553" lon="7.18490000113">
		<tag k="alt_name" v="Hylla" />
		<tag k="name" v="Austklakken" />
		<tag k="natural" v="shoal" />
		<tag k="place" v="locality" />
		<tag k="ssr:stedsnr" v="315630" />
	</node>
	<node id="-592662" lat="63.1131111079" lon="7.14930277055">
		<tag k="name" v="Fognflua" />
		<tag k="natural" v="shoal" />
		<tag k="place" v="locality" />
		<tag k="ssr:stedsnr" v="315611" />
	</node>
	<node id="-592660" lat="63.0640361142" lon="7.335886119">
		<tag k="name" v="Myrgrunnan" />
		<tag k="natural" v="shoal" />
		<tag k="place" v="locality" />
		<tag k="ssr:stedsnr" v="293675" />
	</node>
	<node id="-592659" lat="63.0574694428" lon="7.35782778202">
		<tag k="name" v="Bararmskåkan" />
		<tag k="natural" v="shoal" />
		<tag k="place" v="locality" />
		<tag k="ssr:stedsnr" v="293674" />
	</node>
	<node id="-592658" lat="63.1088000011" lon="7.20438610779">
		<tag k="name" v="Leiskjærtaren" />
		<tag k="natural" v="shoal" />
		<tag k="place" v="locality" />
		<tag k="ssr:stedsnr" v="292789" />
	</node>
	<node id="-592655" lat="62.9217638876" lon="7.55582222303">
		<tag k="name" v="Taren" />
		<tag k="place" v="locality" />
		<tag k="ssr:stedsnr" v="278754" />
	</node>
	<node id="-593160" lat="62.913669442" lon="7.53722221284">
		<tag k="name" v="Strandaneset" />
		<tag k="natural" v="cape" />
		<tag k="ssr:stedsnr" v="460452" />
	</node>
	<node id="-592731" lat="62.9057722217" lon="7.46263056268">
		<tag k="fixme" v="consider seamark:type=rock or natural=shoal" />
		<tag k="name" v="Langskjæret" />
		<tag k="place" v="islet" />
		<tag k="ssr:stedsnr" v="375538" />
	</node>
	<node id="-593123" lat="62.9094111095" lon="7.45381944605">
		<tag k="fixme" v="consider seamark:type=rock or natural=shoal" />
		<tag k="name" v="Gråskjeret" />
		<tag k="place" v="islet" />
		<tag k="ssr:stedsnr" v="436557" />
	</node>
	<node id="-592682" lat="63.0126223135" lon="7.32922914383">
		<tag k="alt_name" v="Nord Skarvøya" />
		<tag k="name" v="Skarvøya" />
		<tag k="place" v="islet" />
		<tag k="ssr:stedsnr" v="316639" />
	</node>
	<node id="-593146" lat="62.906175001" lon="7.44800556521">
		<tag k="name" v="Storholmen" />
		<tag k="place" v="islet" />
		<tag k="ssr:stedsnr" v="459315" />
	</node>
	<node id="-593145" lat="62.9037722184" lon="7.44180834209">
		<tag k="name" v="Einsetvågen" />
		<tag k="natural" v="bay" />
		<tag k="ssr:stedsnr" v="459316" />
	</node>
	<node id="-593144" lat="63.010808334" lon="7.30443333705">
		<tag k="fixme" v="consider seamark:type=rock or natural=shoal" />
		<tag k="name" v="Kalvskjæret" />
		<tag k="place" v="islet" />
		<tag k="ssr:stedsnr" v="459284" />
	</node>
	<node id="-593142" lat="62.9697361109" lon="7.35288055937">
		<tag k="name" v="Bekkabukta" />
		<tag k="natural" v="bay" />
		<tag k="ssr:stedsnr" v="459262" />
	</node>
	<node id="-593653" lat="63.0014638882" lon="7.31024167067">
		<tag k="fixme" v="consider seamark:type=rock or natural=shoal" />
		<tag k="name" v="Hjellskjæret" />
		<tag k="place" v="islet" />
		<tag k="ssr:stedsnr" v="965523" />
	</node>
	<node id="-593652" lat="63.0337027734" lon="7.32533889035">
		<tag k="fixme" v="consider seamark:type=rock or natural=shoal" />
		<tag k="name" v="Gaustadflæa" />
		<tag k="place" v="islet" />
		<tag k="ssr:stedsnr" v="960802" />
	</node>
	<node id="-593651" lat="63.0672305554" lon="7.19639722517">
		<tag k="name" v="Søre Ufsegrunnen" />
		<tag k="natural" v="shoal" />
		<tag k="place" v="locality" />
		<tag k="ssr:stedsnr" v="959149" />
	</node>
	<node id="-592626" lat="62.9758111136" lon="7.31813889697">
		<tag k="name" v="Vorpneset" />
		<tag k="natural" v="cape" />
		<tag k="ssr:stedsnr" v="277256" />
	</node>
	<node id="-593136" lat="62.9476305594" lon="7.43242778134">
		<tag k="name" v="Litlholmen" />
		<tag k="place" v="islet" />
		<tag k="ssr:stedsnr" v="458424" />
	</node>
	<node id="-593134" lat="63.0068456229" lon="7.25233932131">
		<tag k="name" v="Orøya" />
		<tag k="place" v="island" />
		<tag k="ssr:stedsnr" v="445613" />
	</node>
	<node id="-593132" lat="63.0471166645" lon="7.28807222261">
		<tag k="name" v="Bjugna" />
		<tag k="natural" v="shoal" />
		<tag k="place" v="locality" />
		<tag k="ssr:stedsnr" v="437529" />
	</node>
	<node id="-593106" lat="63.1336972224" lon="7.14325000501">
		<tag k="name" v="Kleivklakken" />
		<tag k="natural" v="shoal" />
		<tag k="place" v="locality" />
		<tag k="ssr:stedsnr" v="254620" />
	</node>
	<node id="-592679" lat="62.9662583369" lon="7.37639722041">
		<tag k="name" v="Fransosen" />
		<tag k="natural" v="cape" />
		<tag k="ssr:stedsnr" v="315934" />
	</node>
	<node id="-593128" lat="62.9599083294" lon="7.3958388891">
		<tag k="name" v="Vikaholman" />
		<tag k="place" v="islet" />
		<tag k="ssr:stedsnr" v="436953" />
	</node>
	<node id="-593639" lat="62.9034388898" lon="7.47665554955">
		<tag k="name" v="Katthammarneset" />
		<tag k="natural" v="cape" />
		<tag k="ssr:stedsnr" v="945307" />
	</node>
	<node id="-592613" lat="62.9476472238" lon="7.42831111125">
		<tag k="name" v="Storholmen" />
		<tag k="place" v="islet" />
		<tag k="ssr:stedsnr" v="276447" />
	</node>
	<node id="-593636" lat="63.0076527764" lon="7.30620833535">
		<tag k="fixme" v="consider seamark:type=rock or natural=shoal" />
		<tag k="name" v="Klipaskjæret" />
		<tag k="place" v="islet" />
		<tag k="ssr:stedsnr" v="945287" />
	</node>
	<node id="-593635" lat="63.0078166667" lon="7.25716388099">
		<tag k="name" v="Grindholmen" />
		<tag k="place" v="islet" />
		<tag k="ssr:stedsnr" v="945284" />
	</node>
	<node id="-593634" lat="62.9731611154" lon="7.31671667158">
		<tag k="name" v="Vorpbogen" />
		<tag k="natural" v="bay" />
		<tag k="ssr:stedsnr" v="945271" />
	</node>
	<node id="-593112" lat="63.1161555536" lon="7.22330000363">
		<tag k="fixme" v="consider seamark:type=rock or natural=shoal" />
		<tag k="name" v="Gråskjæret" />
		<tag k="place" v="islet" />
		<tag k="ssr:stedsnr" v="255728" />
	</node>
	<node id="-593620" lat="63.109825001" lon="7.23734999904">
		<tag k="fixme" v="consider seamark:type=rock or natural=shoal" />
		<tag k="name" v="Storvassholmen" />
		<tag k="place" v="islet" />
		<tag k="ssr:stedsnr" v="931595" />
	</node>
	<node id="-593107" lat="62.9727027795" lon="7.34301388983">
		<tag k="name" v="Ramsvikneset" />
		<tag k="natural" v="cape" />
		<tag k="ssr:stedsnr" v="254919" />
	</node>
	<node id="-593618" lat="62.9971555586" lon="7.31398333729">
		<tag k="name" v="Frantsneset" />
		<tag k="natural" v="cape" />
		<tag k="ssr:stedsnr" v="923899" />
	</node>
	<node id="-593616" lat="63.1086888905" lon="7.25449999538">
		<tag k="fixme" v="consider seamark:type=rock or natural=shoal" />
		<tag k="name" v="Tennskjæret" />
		<tag k="place" v="islet" />
		<tag k="ssr:stedsnr" v="923730" />
	</node>
	<node id="-593615" lat="62.9706888887" lon="7.35293334053">
		<tag k="name" v="Mevikholman" />
		<tag k="place" v="islet" />
		<tag k="ssr:stedsnr" v="922934" />
	</node>
	<node id="-593614" lat="62.9537361073" lon="7.44513055959">
		<tag k="bay" v="fjord" />
		<tag k="name" v="Kornstadfjorden" />
		<tag k="natural" v="bay" />
		<tag k="ssr:stedsnr" v="922929" />
	</node>
	<node id="-593100" lat="62.9381944405" lon="7.45381944138">
		<tag k="name" v="Aspataren" />
		<tag k="natural" v="shoal" />
		<tag k="place" v="locality" />
		<tag k="ssr:stedsnr" v="232427" />
	</node>
	<node id="-593099" lat="63.1207416643" lon="7.17975277695">
		<tag k="name" v="Kalvstaran" />
		<tag k="natural" v="shoal" />
		<tag k="place" v="locality" />
		<tag k="ssr:stedsnr" v="231806" />
	</node>
	<node id="-593610" lat="63.1366250034" lon="7.16956944337">
		<tag k="name" v="Kleppen" />
		<tag k="natural" v="shoal" />
		<tag k="place" v="locality" />
		<tag k="ssr:stedsnr" v="922618" />
	</node>
	<node id="-593097" lat="63.0846166684" lon="7.24170555238">
		<tag k="fixme" v="consider seamark:type=rock or natural=shoal" />
		<tag k="name" v="Stabbeskjæret" />
		<tag k="place" v="islet" />
		<tag k="ssr:stedsnr" v="231168" />
	</node>
	<node id="-593095" lat="62.9112972228" lon="7.53083611217">
		<tag k="name" v="Sperre" />
		<tag k="natural" v="cape" />
		<tag k="ssr:stedsnr" v="217707" />
	</node>
	<node id="-593601" lat="63.0075626872" lon="7.27003511041">
		<tag k="name" v="Langøya" />
		<tag k="place" v="islet" />
		<tag k="ssr:stedsnr" v="922384" />
	</node>
	<node id="-593597" lat="62.9058972262" lon="7.48252500022">
		<tag k="name" v="Lianeset" />
		<tag k="natural" v="cape" />
		<tag k="ssr:stedsnr" v="921610" />
	</node>
	<node id="-593098" lat="63.1185583361" lon="7.18792221686">
		<tag k="name" v="Kalvsfallet" />
		<tag k="natural" v="shoal" />
		<tag k="place" v="locality" />
		<tag k="ssr:stedsnr" v="231805" />
	</node>
	<node id="-593593" lat="63.0317027777" lon="7.33000000337">
		<tag k="fixme" v="consider seamark:type=rock or natural=shoal" />
		<tag k="name" v="Bjørnen" />
		<tag k="place" v="islet" />
		<tag k="ssr:stedsnr" v="900834" />
	</node>
	<node id="-593592" lat="63.0153111113" lon="7.3400055501">
		<tag k="name" v="Myrbærholmen" />
		<tag k="place" v="islet" />
		<tag k="ssr:stedsnr" v="900819" />
	</node>
	<node id="-593079" lat="62.9179555533" lon="7.54876667342">
		<tag k="name" v="Oterneset" />
		<tag k="natural" v="cape" />
		<tag k="ssr:stedsnr" v="217390" />
	</node>
	<node id="-593584" lat="62.9932444476" lon="7.32335000625">
		<tag k="name" v="Karsholmen" />
		<tag k="place" v="islet" />
		<tag k="ssr:stedsnr" v="862891" />
	</node>
	<node id="-593583" lat="63.0991277752" lon="7.25596666238">
		<tag k="fixme" v="consider seamark:type=rock or natural=shoal" />
		<tag k="name" v="Skarvskjæret" />
		<tag k="place" v="islet" />
		<tag k="ssr:stedsnr" v="862689" />
	</node>
	<node id="-593070" lat="63.0064416667" lon="7.26367222944">
		<tag k="name" v="Litllangøya" />
		<tag k="place" v="islet" />
		<tag k="ssr:stedsnr" v="217308" />
	</node>
	<node id="-593581" lat="63.0059388932" lon="7.24632221862">
		<tag k="name" v="Vengholman" />
		<tag k="place" v="islet" />
		<tag k="ssr:stedsnr" v="862413" />
	</node>
	<node id="-593579" lat="63.0142527778" lon="7.3425722297">
		<tag k="name" v="Hulvågen" />
		<tag k="place" v="islet" />
		<tag k="ssr:stedsnr" v="862584" />
	</node>
	<node id="-593066" lat="62.9708083308" lon="7.3535916689">
		<tag k="name" v="Stor-Mekvikholmen" />
		<tag k="place" v="islet" />
		<tag k="ssr:stedsnr" v="217275" />
	</node>
	<node id="-593571" lat="62.9091388863" lon="7.51367499787">
		<tag k="name" v="Kjølahammaren" />
		<tag k="natural" v="cape" />
		<tag k="ssr:stedsnr" v="861549" />
	</node>
	<node id="-593570" lat="62.9112361136" lon="7.5271333257">
		<tag k="name" v="Vorpholmen" />
		<tag k="natural" v="cape" />
		<tag k="ssr:stedsnr" v="861550" />
	</node>
	<node id="-592837" lat="63.1237222261" lon="7.2496722316">
		<tag k="name" v="Stabbetaren" />
		<tag k="natural" v="shoal" />
		<tag k="place" v="locality" />
		<tag k="ssr:stedsnr" v="899152" />
	</node>
	<node id="-593564" lat="63.0243277813" lon="7.34939444205">
		<tag k="name" v="Langtaren" />
		<tag k="natural" v="shoal" />
		<tag k="place" v="locality" />
		<tag k="ssr:stedsnr" v="839826" />
	</node>
	<node id="-593563" lat="62.9464972253" lon="7.43906943819">
		<tag k="name" v="Kronborggrunnan" />
		<tag k="natural" v="shoal" />
		<tag k="place" v="locality" />
		<tag k="ssr:stedsnr" v="839708" />
	</node>
	<node id="-593562" lat="63.0773111121" lon="7.19834722547">
		<tag k="name" v="Følingsflua" />
		<tag k="natural" v="shoal" />
		<tag k="place" v="locality" />
		<tag k="ssr:stedsnr" v="838200" />
	</node>
	<node id="-593560" lat="62.9075083294" lon="7.50411110747">
		<tag k="name" v="Sørvika" />
		<tag k="natural" v="bay" />
		<tag k="ssr:stedsnr" v="824715" />
	</node>
	<node id="-592836" lat="63.0776222193" lon="7.226644447">
		<tag k="name" v="Følingstaren" />
		<tag k="natural" v="shoal" />
		<tag k="place" v="locality" />
		<tag k="ssr:stedsnr" v="899150" />
	</node>
	<node id="-593550" lat="62.9095388851" lon="7.51487221493">
		<tag k="name" v="Kjølneset" />
		<tag k="natural" v="cape" />
		<tag k="ssr:stedsnr" v="824415" />
	</node>
	<node id="-593034" lat="62.908291666" lon="7.44744166838">
		<tag k="name" v="Eggeleira" />
		<tag k="natural" v="beach" />
		<tag k="place" v="locality" />
		<tag k="ssr:stedsnr" v="170026" />
	</node>
	<node id="-593032" lat="62.9205694456" lon="7.55373055593">
		<tag k="name" v="Småneset" />
		<tag k="natural" v="cape" />
		<tag k="ssr:stedsnr" v="156708" />
	</node>
	<node id="-593028" lat="62.9573500023" lon="7.40408610638">
		<tag k="name" v="Ramsvika" />
		<tag k="natural" v="bay" />
		<tag k="ssr:stedsnr" v="156470" />
	</node>
	<node id="-593025" lat="63.0144027746" lon="7.3360333338">
		<tag k="name" v="Hulvågen" />
		<tag k="natural" v="bay" />
		<tag k="ssr:stedsnr" v="156450" />
	</node>
	<node id="-593529" lat="62.9714222253" lon="7.32055834276">
		<tag k="name" v="Gautvikbogen" />
		<tag k="natural" v="bay" />
		<tag k="ssr:stedsnr" v="801932" />
	</node>
	<node id="-593527" lat="63.0131111092" lon="7.25001944483">
		<tag k="name" v="Sandøya" />
		<tag k="place" v="islet" />
		<tag k="ssr:stedsnr" v="801605" />
	</node>
	<node id="-593526" lat="63.017363891" lon="7.23966944174">
		<tag k="name" v="Stoplan" />
		<tag k="natural" v="strait" />
		<tag k="ssr:stedsnr" v="801564" />
	</node>
	<node id="-592745" lat="63.0857777765" lon="7.2545472151">
		<tag k="fixme" v="consider seamark:type=rock or natural=shoal" />
		<tag k="name" v="Flatskjæret" />
		<tag k="place" v="islet" />
		<tag k="ssr:stedsnr" v="376763" />
	</node>
	<node id="-593010" lat="63.0113555537" lon="7.31987222983">
		<tag k="name" v="Sør Skarvøya" />
		<tag k="place" v="islet" />
		<tag k="ssr:stedsnr" v="156286" />
	</node>
	<node id="-593009" lat="62.9997416634" lon="7.2971472175">
		<tag k="name" v="Purkholmen" />
		<tag k="place" v="islet" />
		<tag k="ssr:stedsnr" v="156284" />
	</node>
	<node id="-592744" lat="63.1043666664" lon="7.18680278118">
		<tag k="fixme" v="consider seamark:type=rock or natural=shoal" />
		<tag k="name" v="Austre Skjærbogskjæret" />
		<tag k="place" v="islet" />
		<tag k="ssr:stedsnr" v="376647" />
	</node>
	<node id="-592743" lat="63.1086527737" lon="7.17674167283">
		<tag k="fixme" v="consider seamark:type=rock or natural=shoal" />
		<tag k="name" v="Vestre Skjærbogskjæret" />
		<tag k="place" v="islet" />
		<tag k="ssr:stedsnr" v="376636" />
	</node>
	<node id="-593508" lat="63.1121972233" lon="7.20169722763">
		<tag k="name" v="Leiskjærtaran" />
		<tag k="natural" v="shoal" />
		<tag k="place" v="locality" />
		<tag k="ssr:stedsnr" v="778769" />
	</node>
	<node id="-593507" lat="62.9637277802" lon="7.37949722054">
		<tag k="fixme" v="consider seamark:type=rock or natural=shoal" />
		<tag k="name" v="Kråkskjæret" />
		<tag k="place" v="islet" />
		<tag k="ssr:stedsnr" v="778684" />
	</node>
	<node id="-593506" lat="63.1235083336" lon="7.23465278697">
		<tag k="name" v="Flantran" />
		<tag k="natural" v="shoal" />
		<tag k="place" v="locality" />
		<tag k="ssr:stedsnr" v="777154" />
	</node>
	<node id="-593505" lat="63.0721750005" lon="7.25700833246">
		<tag k="name" v="Merraflua" />
		<tag k="natural" v="shoal" />
		<tag k="place" v="locality" />
		<tag k="ssr:stedsnr" v="777143" />
	</node>
	<node id="-592992" lat="62.9460444429" lon="7.42611667519">
		<tag k="name" v="Myrabukta" />
		<tag k="natural" v="bay" />
		<tag k="ssr:stedsnr" v="155353" />
	</node>
	<node id="-592990" lat="62.9907861104" lon="7.32347222927">
		<tag k="name" v="Gaustadneset" />
		<tag k="natural" v="cape" />
		<tag k="ssr:stedsnr" v="133909" />
	</node>
	<node id="-592988" lat="63.1173055556" lon="7.24995833432">
		<tag k="fixme" v="consider seamark:type=rock or natural=shoal" />
		<tag k="name" v="Ulåten" />
		<tag k="place" v="islet" />
		<tag k="ssr:stedsnr" v="133696" />
	</node>
	<node id="-592986" lat="63.117438889" lon="7.15703889252">
		<tag k="fixme" v="consider seamark:type=rock or natural=shoal" />
		<tag k="name" v="Fogna" />
		<tag k="place" v="islet" />
		<tag k="ssr:stedsnr" v="133599" />
	</node>
	<node id="-592634" lat="62.9530194444" lon="7.41599721806">
		<tag k="name" v="Visnesbukta" />
		<tag k="natural" v="bay" />
		<tag k="ssr:stedsnr" v="277330" />
	</node>
	<node id="-593488" lat="62.9124916685" lon="7.53713611623">
		<tag k="alt_name" v="Strandabogen" />
		<tag k="name" v="Strandabukta" />
		<tag k="natural" v="bay" />
		<tag k="ssr:stedsnr" v="763416" />
	</node>
	<node id="-592970" lat="63.0313944483" lon="7.31752222395">
		<tag k="name" v="Bjørnan" />
		<tag k="natural" v="shoal" />
		<tag k="place" v="locality" />
		<tag k="ssr:stedsnr" v="111809" />
	</node>
	<node id="-593591" lat="63.0181999989" lon="7.34673888548">
		<tag k="name" v="Skipsholmen" />
		<tag k="place" v="islet" />
		<tag k="ssr:stedsnr" v="900817" />
	</node>
	<node id="-592968" lat="63.0215227057" lon="7.23667727425">
		<tag k="name" v="Kvitholmen" />
		<tag k="place" v="islet" />
		<tag k="ssr:stedsnr" v="106901" />
	</node>
	<node id="-592967" lat="63.0558833303" lon="7.26098888442">
		<tag k="name" v="Merragrunnen" />
		<tag k="natural" v="shoal" />
		<tag k="place" v="locality" />
		<tag k="ssr:stedsnr" v="102790" />
	</node>
	<node id="-593476" lat="62.9069805528" lon="7.44760555911">
		<tag k="name" v="Storholmbukta" />
		<tag k="natural" v="bay" />
		<tag k="ssr:stedsnr" v="763342" />
	</node>
	<node id="-593472" lat="63.0105416642" lon="7.31660556423">
		<tag k="name" v="Hallsteinsundet" />
		<tag k="natural" v="strait" />
		<tag k="ssr:stedsnr" v="763322" />
	</node>
	<node id="-592959" lat="63.0100611088" lon="7.27192221755">
		<tag k="name" v="Seiholå" />
		<tag k="natural" v="bay" />
		<tag k="ssr:stedsnr" v="96456" />
	</node>
	<node id="-592957" lat="62.923033334" lon="7.55950833535">
		<tag k="name" v="Stakkvikbukta" />
		<tag k="natural" v="bay" />
		<tag k="ssr:stedsnr" v="96406" />
	</node>
	<node id="-592954" lat="62.919316669" lon="7.45691387893">
		<tag k="name" v="Håganeset" />
		<tag k="natural" v="cape" />
		<tag k="ssr:stedsnr" v="96389" />
	</node>
	<node id="-592950" lat="62.9476444435" lon="7.43051667003">
		<tag k="name" v="Silnesholman" />
		<tag k="place" v="islet" />
		<tag k="ssr:stedsnr" v="95302" />
	</node>
	<node id="-593461" lat="62.9561111094" lon="7.41540000652">
		<tag k="name" v="Hansbukta" />
		<tag k="natural" v="bay" />
		<tag k="ssr:stedsnr" v="762348" />
	</node>
	<node id="-593460" lat="62.9597861101" lon="7.39958888695">
		<tag k="name" v="Gardsholmen" />
		<tag k="place" v="islet" />
		<tag k="ssr:stedsnr" v="762339" />
	</node>
	<node id="-593458" lat="63.0144888928" lon="7.28987222647">
		<tag k="fixme" v="consider seamark:type=rock or natural=shoal" />
		<tag k="name" v="Litlhauet" />
		<tag k="place" v="islet" />
		<tag k="ssr:stedsnr" v="749597" />
	</node>
	<node id="-593456" lat="63.0827361153" lon="7.23498611614">
		<tag k="fixme" v="consider seamark:type=rock or natural=shoal" />
		<tag k="name" v="Stabben" />
		<tag k="place" v="islet" />
		<tag k="ssr:stedsnr" v="740740" />
	</node>
	<node id="-593449" lat="63.03710278" lon="7.31675832916">
		<tag k="fixme" v="consider seamark:type=rock or natural=shoal" />
		<tag k="name" v="Dromskjæra" />
		<tag k="place" v="islet" />
		<tag k="ssr:stedsnr" v="740558" />
	</node>
	<node id="-593447" lat="62.9138000031" lon="7.5379305572">
		<tag k="name" v="Strandahammaren" />
		<tag k="natural" v="cape" />
		<tag k="ssr:stedsnr" v="740519" />
	</node>
	<node id="-593441" lat="62.9061388896" lon="7.43216111525">
		<tag k="name" v="Skjelvikbukta" />
		<tag k="natural" v="bay" />
		<tag k="ssr:stedsnr" v="739587" />
	</node>
	<node id="-592924" lat="62.9703527809" lon="7.3453277746">
		<tag k="name" v="Mekvikbukta" />
		<tag k="natural" v="bay" />
		<tag k="ssr:stedsnr" v="95229" />
	</node>
	<node id="-593433" lat="63.0720638859" lon="7.18471667428">
		<tag k="name" v="Nordre Ufsegrunnen" />
		<tag k="natural" v="shoal" />
		<tag k="place" v="locality" />
		<tag k="ssr:stedsnr" v="716190" />
	</node>
	<node id="-593432" lat="63.1227361111" lon="7.21586110913">
		<tag k="name" v="Lønningtaran" />
		<tag k="natural" v="shoal" />
		<tag k="place" v="locality" />
		<tag k="ssr:stedsnr" v="716184" />
	</node>
	<node id="-592916" lat="63.0138416642" lon="7.25458055935">
		<tag k="fixme" v="consider seamark:type=rock or natural=shoal" />
		<tag k="name" v="Sveinskjæret" />
		<tag k="place" v="islet" />
		<tag k="ssr:stedsnr" v="73633" />
	</node>
	<node id="-593427" lat="62.9021861146" lon="7.45930555701">
		<tag k="name" v="Svanvika" />
		<tag k="natural" v="bay" />
		<tag k="ssr:stedsnr" v="702436" />
	</node>
	<node id="-593424" lat="62.9723222192" lon="7.34358334029">
		<tag k="name" v="Ramsvika" />
		<tag k="natural" v="bay" />
		<tag k="ssr:stedsnr" v="702409" />
	</node>
	<node id="-592984" lat="63.019488891" lon="7.22566944252">
		<tag k="fixme" v="consider seamark:type=rock or natural=shoal" />
		<tag k="name" v="Breisundskjæra" />
		<tag k="place" v="islet" />
		<tag k="ssr:stedsnr" v="133539" />
	</node>
	<node id="-592904" lat="62.9223999988" lon="7.5562527752">
		<tag k="name" v="Stakkviktaren" />
		<tag k="natural" v="shoal" />
		<tag k="place" v="locality" />
		<tag k="ssr:stedsnr" v="49262" />
	</node>
	<node id="-592903" lat="63.1150027811" lon="7.2155416605">
		<tag k="name" v="Vestre Gråskjærtaren" />
		<tag k="natural" v="shoal" />
		<tag k="place" v="locality" />
		<tag k="ssr:stedsnr" v="49202" />
	</node>
	<node id="-593414" lat="62.9344277776" lon="7.44786666619">
		<tag k="name" v="Aspatangen" />
		<tag k="natural" v="cape" />
		<tag k="ssr:stedsnr" v="702348" />
	</node>
</osm>
