<?xml version="1.0" encoding="UTF-8"?>
<osm generator="osmapis" version="0.6">
	<node id="-592630" lat="62.8956166666" lon="7.48964165942">
		<tag k="name" v="Sorsetsetra" />
		<tag k="place" v="locality" />
		<tag k="ssr:stedsnr" v="277303" />
	</node>
	<node id="-593389" lat="62.9922500017" lon="7.27646111827">
		<tag k="name" v="Risestølen" />
		<tag k="place" v="farm" />
		<tag k="ssr:stedsnr" v="680913" />
	</node>
	<node id="-592875" lat="62.9579222249" lon="7.2988472303">
		<tag k="name" v="Gautviksetra" />
		<tag k="place" v="locality" />
		<tag k="ssr:stedsnr" v="35317" />
	</node>
	<node id="-593386" lat="62.9579305593" lon="7.37372500823">
		<tag k="name" v="Øverbogen" />
		<tag k="place" v="farm" />
		<tag k="ssr:stedsnr" v="679951" />
	</node>
	<node id="-593385" lat="62.9577972806" lon="7.39283026213">
		<tag k="fixme" v="consider place=hamlet" />
		<tag k="name" v="Jørgenvågen" />
		<tag k="place" v="farm" />
		<tag k="ssr:stedsnr" v="679945" />
	</node>
	<node id="-593380" lat="62.9238666642" lon="7.32198055792">
		<tag k="name" v="Furuli" />
		<tag k="place" v="farm" />
		<tag k="ssr:stedsnr" v="679521" />
	</node>
	<node id="-592867" lat="62.9531594276" lon="7.41320590119">
		<tag k="fixme" v="consider place=hamlet" />
		<tag k="name" v="Visnes" />
		<tag k="place" v="farm" />
		<tag k="ssr:stedsnr" v="25670" />
	</node>
	<node id="-593378" lat="62.9204970967" lon="7.36870145843">
		<tag k="fixme" v="consider place=hamlet" />
		<tag k="name" v="Dyrhaugen" />
		<tag k="place" v="farm" />
		<tag k="ssr:stedsnr" v="679509" />
	</node>
	<node id="-593377" lat="62.9240527789" lon="7.59110833977">
		<tag k="name" v="Einhaugen" />
		<tag k="place" v="farm" />
		<tag k="ssr:stedsnr" v="679510" />
	</node>
	<node id="-593373" lat="62.9303111123" lon="7.32779722056">
		<tag k="name" v="Furuli" />
		<tag k="place" v="farm" />
		<tag k="ssr:stedsnr" v="679465" />
	</node>
	<node id="-592860" lat="62.9540686411" lon="7.40185011245">
		<tag k="name" v="Visnes" />
		<tag k="place" v="hamlet" />
		<tag k="ssr:stedsnr" v="11961" />
	</node>
	<node id="-593370" lat="62.9998638915" lon="7.30419165831">
		<tag k="name" v="Årsbogen" />
		<tag k="place" v="hamlet" />
		<tag k="ssr:stedsnr" v="679375" />
	</node>
	<node id="-592857" lat="62.8817638879" lon="7.4540749938">
		<tag k="name" v="Reitan" />
		<tag k="place" v="farm" />
		<tag k="ssr:stedsnr" v="11642" />
	</node>
	<node id="-592856" lat="62.8762083342" lon="7.38688056325">
		<tag k="historic" v="shieling" />
		<tag k="name" v="Halåssetra" />
		<tag k="place" v="locality" />
		<tag k="ssr:stedsnr" v="11637" />
	</node>
	<node id="-593367" lat="62.954555557" lon="7.36983056101">
		<tag k="name" v="Helgåsen" />
		<tag k="place" v="farm" />
		<tag k="ssr:stedsnr" v="678967" />
	</node>
	<node id="-592854" lat="62.8878722224" lon="7.4140750041">
		<tag k="name" v="Hagen" />
		<tag k="place" v="farm" />
		<tag k="ssr:stedsnr" v="11607" />
	</node>
	<node id="-593365" lat="62.9070385443" lon="7.5148174101">
		<tag k="fixme" v="consider place=hamlet" />
		<tag k="name" v="Kjøl" />
		<tag k="place" v="farm" />
		<tag k="ssr:stedsnr" v="678572" />
	</node>
	<node id="-592852" lat="62.8865833344" lon="7.52087499354">
		<tag k="name" v="Ugelstadsetra" />
		<tag k="place" v="isolated_dwelling" />
		<tag k="ssr:stedsnr" v="11598" />
	</node>
	<node id="-592851" lat="62.9104861143" lon="7.58004722781">
		<tag k="name" v="Strandasetra" />
		<tag k="place" v="locality" />
		<tag k="ssr:stedsnr" v="11575" />
	</node>
	<node id="-593361" lat="62.9833388897" lon="7.31318333529">
		<tag k="name" v="Gaustad" />
		<tag k="place" v="farm" />
		<tag k="ssr:stedsnr" v="648381" />
	</node>
	<node id="-592848" lat="62.8933611153" lon="7.3671277861">
		<tag k="name" v="Trøa" />
		<tag k="place" v="farm" />
		<tag k="ssr:stedsnr" v="11561" />
	</node>
	<node id="-592845" lat="62.9267597762" lon="7.44787057048">
		<tag k="name" v="Bjerkelund" />
		<tag k="place" v="farm" />
		<tag k="ssr:stedsnr" v="1073420" />
	</node>
	<node id="-593057" lat="62.9653722237" lon="7.35958333543">
		<tag k="name" v="Vik" />
		<tag k="place" v="farm" />
		<tag k="ssr:stedsnr" v="194933" />
	</node>
	<node id="-592835" lat="62.8810416682" lon="7.43661111724">
		<tag k="name" v="Vasskor" />
		<tag k="place" v="farm" />
		<tag k="ssr:stedsnr" v="889226" />
	</node>
	<node id="-593345" lat="62.9076083372" lon="7.42787222785">
		<tag k="name" v="Skjelvika" />
		<tag k="place" v="farm" />
		<tag k="ssr:stedsnr" v="641303" />
	</node>
	<node id="-592799" lat="62.9235860932" lon="7.29752651712">
		<tag k="name" v="Bakken" />
		<tag k="place" v="farm" />
		<tag k="ssr:stedsnr" v="479028" />
	</node>
	<node id="-592821" lat="62.9293388864" lon="7.43698332522">
		<tag k="historic" v="shieling" />
		<tag k="name" v="Silsetsetra" />
		<tag k="place" v="locality" />
		<tag k="ssr:stedsnr" v="885378" />
	</node>
	<node id="-593331" lat="62.8814277785" lon="7.33290278433">
		<tag k="name" v="Sjurhaugen" />
		<tag k="place" v="isolated_dwelling" />
		<tag k="ssr:stedsnr" v="641195" />
	</node>
	<node id="-592797" lat="62.901963885" lon="7.42963054982">
		<tag k="name" v="Vågsbøen" />
		<tag k="place" v="farm" />
		<tag k="ssr:stedsnr" v="413022" />
	</node>
	<node id="-592807" lat="62.9375000035" lon="7.32203887929">
		<tag k="name" v="Børråplassen" />
		<tag k="place" v="farm" />
		<tag k="ssr:stedsnr" v="884217" />
	</node>
	<node id="-593318" lat="62.9478571007" lon="7.27371824603">
		<tag k="fixme" v="consider place=hamlet" />
		<tag k="name" v="Gådalen" />
		<tag k="place" v="farm" />
		<tag k="ssr:stedsnr" v="618971" />
	</node>
	<node id="-593317" lat="62.9539527733" lon="7.35180277298">
		<tag k="name" v="Solbakken" />
		<tag k="place" v="farm" />
		<tag k="ssr:stedsnr" v="618967" />
	</node>
	<node id="-593316" lat="62.9673598798" lon="7.35747723173">
		<tag k="alt_name" v="Ørjavik" />
		<tag k="fixme" v="consider place=hamlet" />
		<tag k="name" v="Ørjavika" />
		<tag k="place" v="farm" />
		<tag k="ssr:stedsnr" v="618933" />
	</node>
	<node id="-593315" lat="62.9719416665" lon="7.33027222768">
		<tag k="name" v="Sandvika" />
		<tag k="place" v="farm" />
		<tag k="ssr:stedsnr" v="618922" />
	</node>
	<node id="-593313" lat="62.8871361083" lon="7.38409723143">
		<tag k="name" v="Flatmo" />
		<tag k="place" v="farm" />
		<tag k="ssr:stedsnr" v="618592" />
	</node>
	<node id="-593311" lat="62.9078901685" lon="7.55193790835">
		<tag k="fixme" v="consider place=hamlet" />
		<tag k="name" v="Herskedalen" />
		<tag k="place" v="farm" />
		<tag k="ssr:stedsnr" v="618565" />
	</node>
	<node id="-593310" lat="62.9206250014" lon="7.34928611343">
		<tag k="name" v="Slættet" />
		<tag k="place" v="farm" />
		<tag k="ssr:stedsnr" v="618555" />
	</node>
	<node id="-593309" lat="62.9229972182" lon="7.2927055645">
		<tag k="alt_name" v="Bakken, Søre" />
		<tag k="fixme" v="multiple name tags, choose one and add the other to alt_name" />
		<tag k="name" v="Bakken;Søre Bakken" />
		<tag k="place" v="farm" />
		<tag k="ssr:stedsnr" v="618549" />
	</node>
	<node id="-592793" lat="62.882008332" lon="7.44768888813">
		<tag k="name" v="Vasskor" />
		<tag k="place" v="farm" />
		<tag k="ssr:stedsnr" v="404232" />
	</node>
	<node id="-592785" lat="62.913225003" lon="7.30871666631">
		<tag k="name" v="Osteigen" />
		<tag k="place" v="locality" />
		<tag k="ssr:stedsnr" v="399465" />
	</node>
	<node id="-593296" lat="63.0063416655" lon="7.29909167535">
		<tag k="name" v="Hamna" />
		<tag k="place" v="farm" />
		<tag k="ssr:stedsnr" v="581476" />
	</node>
	<node id="-593293" lat="62.8803722239" lon="7.32832222397">
		<tag k="name" v="Johaugen" />
		<tag k="place" v="isolated_dwelling" />
		<tag k="ssr:stedsnr" v="581459" />
	</node>
	<node id="-593286" lat="62.9098944424" lon="7.56497500895">
		<tag k="historic" v="shieling" />
		<tag k="name" v="Strandsetra" />
		<tag k="place" v="locality" />
		<tag k="ssr:stedsnr" v="581424" />
	</node>
	<node id="-593130" lat="62.9511111139" lon="7.3445916737">
		<tag k="name" v="Auinghjellen" />
		<tag k="place" v="isolated_dwelling" />
		<tag k="ssr:stedsnr" v="436965" />
	</node>
	<node id="-592758" lat="62.9053611137" lon="7.3474277681">
		<tag k="name" v="Storslettet" />
		<tag k="place" v="farm" />
		<tag k="ssr:stedsnr" v="399267" />
	</node>
	<node id="-593261" lat="62.9836254974" lon="7.31120284393">
		<tag k="fixme" v="consider place=hamlet" />
		<tag k="name" v="Gaustad" />
		<tag k="place" v="farm" />
		<tag k="ssr:stedsnr" v="558918" />
	</node>
	<node id="-593260" lat="62.9902166653" lon="7.25346389408">
		<tag k="name" v="Litl-Vevang" />
		<tag k="place" v="farm" />
		<tag k="ssr:stedsnr" v="558904" />
	</node>
	<node id="-592746" lat="62.9998444424" lon="7.28606667307">
		<tag k="name" v="Groravika" />
		<tag k="place" v="hamlet" />
		<tag k="ssr:stedsnr" v="384582" />
	</node>
	<node id="-592739" lat="62.9521861149" lon="7.40840556267">
		<tag k="name" v="Rughaugen" />
		<tag k="place" v="farm" />
		<tag k="ssr:stedsnr" v="375984" />
	</node>
	<node id="-592738" lat="62.9543527771" lon="7.41501110441">
		<tag k="name" v="Brisshaugen" />
		<tag k="place" v="farm" />
		<tag k="ssr:stedsnr" v="375969" />
	</node>
	<node id="-593249" lat="62.8866925445" lon="7.34859967758">
		<tag k="fixme" v="consider place=hamlet" />
		<tag k="name" v="Brandsetra" />
		<tag k="place" v="farm" />
		<tag k="ssr:stedsnr" v="557570" />
	</node>
	<node id="-593248" lat="62.9093552735" lon="7.43417871073">
		<tag k="fixme" v="consider place=hamlet" />
		<tag k="name" v="Skjelvika" />
		<tag k="place" v="farm" />
		<tag k="ssr:stedsnr" v="557551" />
	</node>
	<node id="-593247" lat="62.9076888894" lon="7.54774443982">
		<tag k="name" v="Haugen" />
		<tag k="place" v="farm" />
		<tag k="ssr:stedsnr" v="557544" />
	</node>
	<node id="-593246" lat="62.911258336" lon="7.54388610702">
		<tag k="name" v="Rotåkeren" />
		<tag k="old_name" v="Øvergarden;Flaten" />
		<tag k="place" v="farm" />
		<tag k="ssr:stedsnr" v="557542" />
	</node>
	<node id="-592733" lat="62.8911833301" lon="7.41143611629">
		<tag k="name" v="Ekkerhaugen" />
		<tag k="place" v="farm" />
		<tag k="ssr:stedsnr" v="375568" />
	</node>
	<node id="-593244" lat="62.9267194448" lon="7.3232944516">
		<tag k="name" v="Skogli" />
		<tag k="place" v="farm" />
		<tag k="ssr:stedsnr" v="557535" />
	</node>
	<node id="-593242" lat="62.8877222244" lon="7.40934445405">
		<tag k="loc_name" v="Derinngarden" />
		<tag k="name" v="Halåsen" />
		<tag k="place" v="farm" />
		<tag k="ssr:stedsnr" v="544316" />
	</node>
	<node id="-592729" lat="62.9430861087" lon="7.34622500929">
		<tag k="name" v="Nyvoll" />
		<tag k="place" v="farm" />
		<tag k="ssr:stedsnr" v="375485" />
	</node>
	<node id="-593240" lat="62.9346805534" lon="7.603522214">
		<tag k="name" v="Sevikneset" />
		<tag k="place" v="farm" />
		<tag k="ssr:stedsnr" v="534228" />
	</node>
	<node id="-593238" lat="62.8833527819" lon="7.4456916606">
		<tag k="name" v="Vasskor" />
		<tag k="place" v="farm" />
		<tag k="ssr:stedsnr" v="525260" />
	</node>
	<node id="-593379" lat="62.9212250038" lon="7.43681111401">
		<tag k="name" v="Lysgård" />
		<tag k="place" v="farm" />
		<tag k="ssr:stedsnr" v="679508" />
	</node>
	<node id="-592952" lat="62.8991255446" lon="7.44293056653">
		<tag k="fixme" v="consider place=hamlet" />
		<tag k="name" v="Einset" />
		<tag k="place" v="farm" />
		<tag k="ssr:stedsnr" v="96165" />
	</node>
	<node id="-592866" lat="62.9687231882" lon="7.31771575459">
		<tag k="fixme" v="consider place=hamlet" />
		<tag k="name" v="Gautvika" />
		<tag k="place" v="farm" />
		<tag k="ssr:stedsnr" v="12934" />
	</node>
	<node id="-593347" lat="62.8956305597" lon="7.55003611381">
		<tag k="name" v="Strandastølen" />
		<tag k="place" v="locality" />
		<tag k="ssr:stedsnr" v="641328" />
	</node>
	<node id="-593364" lat="62.9729722264" lon="7.30963888305">
		<tag k="name" v="Rå" />
		<tag k="place" v="isolated_dwelling" />
		<tag k="ssr:stedsnr" v="656736" />
	</node>
	<node id="-592691" lat="62.8761833373" lon="7.32259721581">
		<tag k="name" v="Gammelseterstølen" />
		<tag k="place" v="isolated_dwelling" />
		<tag k="ssr:stedsnr" v="338190" />
	</node>
	<node id="-593200" lat="62.9478138877" lon="7.39542499997">
		<tag k="historic" v="shieling" />
		<tag k="name" v="Lindsetsetra" />
		<tag k="place" v="locality" />
		<tag k="ssr:stedsnr" v="519390" />
	</node>
	<node id="-593196" lat="62.9521499991" lon="7.4117750048">
		<tag k="name" v="Øygarden" />
		<tag k="place" v="hamlet" />
		<tag k="ssr:stedsnr" v="506972" />
	</node>
	<node id="-593195" lat="62.9606277816" lon="7.37933611166">
		<tag k="name" v="Bogen" />
		<tag k="place" v="farm" />
		<tag k="ssr:stedsnr" v="506622" />
	</node>
	<node id="-593190" lat="62.985913893" lon="7.30575000931">
		<tag k="name" v="Remma" />
		<tag k="place" v="farm" />
		<tag k="ssr:stedsnr" v="497900" />
	</node>
	<node id="-592677" lat="62.8996888914" lon="7.44083055904">
		<tag k="name" v="Svanvika" />
		<tag k="place" v="farm" />
		<tag k="ssr:stedsnr" v="315595" />
	</node>
	<node id="-592676" lat="62.9000440478" lon="7.48124861891">
		<tag k="fixme" v="consider place=hamlet" />
		<tag k="name" v="Sorset" />
		<tag k="place" v="farm" />
		<tag k="ssr:stedsnr" v="315590" />
	</node>
	<node id="-592774" lat="62.8987444444" lon="7.41374723075">
		<tag k="leisure" v="pitch" />
		<tag k="name" v="Frodestad" />
		<tag k="ssr:stedsnr" v="399387" />
	</node>
	<node id="-593186" lat="62.8933027795" lon="7.50182777164">
		<tag k="name" v="Liasetra" />
		<tag k="place" v="locality" />
		<tag k="ssr:stedsnr" v="497577" />
	</node>
	<node id="-592673" lat="62.938113892" lon="7.4402833391">
		<tag k="name" v="Djupåbukta" />
		<tag k="place" v="farm" />
		<tag k="ssr:stedsnr" v="315518" />
	</node>
	<node id="-593183" lat="62.9374250004" lon="7.34274166047">
		<tag k="name" v="Nygard" />
		<tag k="place" v="farm" />
		<tag k="ssr:stedsnr" v="497494" />
	</node>
	<node id="-593182" lat="63.0055416629" lon="7.27698056441">
		<tag k="name" v="Steinen" />
		<tag k="place" v="farm" />
		<tag k="ssr:stedsnr" v="497399" />
	</node>
	<node id="-593181" lat="62.9435444399" lon="7.29797221419">
		<tag k="name" v="Skardsholt" />
		<tag k="place" v="farm" />
		<tag k="ssr:stedsnr" v="496997" />
	</node>
	<node id="-592668" lat="62.9026522559" lon="7.36338217351">
		<tag k="fixme" v="consider place=hamlet" />
		<tag k="name" v="Langneset" />
		<tag k="place" v="farm" />
		<tag k="ssr:stedsnr" v="314603" />
	</node>
	<node id="-593179" lat="62.9016934002" lon="7.42889401249">
		<tag k="fixme" v="consider place=hamlet" />
		<tag k="name" v="Vågsbøen" />
		<tag k="place" v="farm" />
		<tag k="ssr:stedsnr" v="496635" />
	</node>
	<node id="-593178" lat="62.9099277738" lon="7.54373610963">
		<tag k="name" v="Myran" />
		<tag k="place" v="farm" />
		<tag k="ssr:stedsnr" v="496596" />
	</node>
	<node id="-593175" lat="62.9446777749" lon="7.42418612042">
		<tag k="name" v="Silnesmyran" />
		<tag k="place" v="farm" />
		<tag k="ssr:stedsnr" v="496549" />
	</node>
	<node id="-592661" lat="62.9084298869" lon="7.52496093538">
		<tag k="alt_name" v="Lillemyren" />
		<tag k="name" v="Litlmyra" />
		<tag k="place" v="farm" />
		<tag k="ssr:stedsnr" v="302705" />
	</node>
	<node id="-593168" lat="62.9372111103" lon="7.44125833642">
		<tag k="name" v="Silnes" />
		<tag k="place" v="farm" />
		<tag k="ssr:stedsnr" v="460528" />
	</node>
	<node id="-592941" lat="62.8842916655" lon="7.49360555554">
		<tag k="name" v="Liaursetra" />
		<tag k="place" v="locality" />
		<tag k="ssr:stedsnr" v="95268" />
	</node>
	<node id="-593159" lat="62.9241222185" lon="7.40490833604">
		<tag k="name" v="Vikasetra" />
		<tag k="place" v="locality" />
		<tag k="ssr:stedsnr" v="460435" />
	</node>
	<node id="-593158" lat="62.8842888885" lon="7.40176388367">
		<tag k="name" v="Markus-setra" />
		<tag k="place" v="locality" />
		<tag k="ssr:stedsnr" v="460387" />
	</node>
	<node id="-593668" lat="62.9953740682" lon="7.29039432038">
		<tag k="fixme" v="consider place=hamlet" />
		<tag k="name" v="Bjørnevika" />
		<tag k="place" v="farm" />
		<tag k="ssr:stedsnr" v="959906" />
	</node>
	<node id="-593666" lat="62.9612029431" lon="7.37196834008">
		<tag k="fixme" v="consider place=hamlet" />
		<tag k="name" v="Lyngstad" />
		<tag k="place" v="farm" />
		<tag k="ssr:stedsnr" v="980998" />
	</node>
	<node id="-593665" lat="62.9330904388" lon="7.44494470411">
		<tag k="fixme" v="consider place=hamlet" />
		<tag k="name" v="Silset" />
		<tag k="place" v="farm" />
		<tag k="ssr:stedsnr" v="980997" />
	</node>
	<node id="-593664" lat="62.9218823998" lon="7.35075893218">
		<tag k="fixme" v="consider place=hamlet" />
		<tag k="name" v="Lyngstadås" />
		<tag k="place" v="farm" />
		<tag k="ssr:stedsnr" v="980995" />
	</node>
	<node id="-593662" lat="62.8882700492" lon="7.46484081111">
		<tag k="name" v="Øyen" />
		<tag k="place" v="locality" />
		<tag k="ssr:stedsnr" v="980992" />
	</node>
	<node id="-593661" lat="63.0067236327" lon="7.25303830385">
		<tag k="fixme" v="consider place=hamlet" />
		<tag k="name" v="Orøya" />
		<tag k="place" v="farm" />
		<tag k="ssr:stedsnr" v="980926" />
	</node>
	<node id="-593660" lat="63.0079627944" lon="7.27275576255">
		<tag k="fixme" v="consider place=hamlet" />
		<tag k="name" v="Langøya" />
		<tag k="place" v="farm" />
		<tag k="ssr:stedsnr" v="980925" />
	</node>
	<node id="-593659" lat="63.0118776692" lon="7.28258827914">
		<tag k="fixme" v="consider place=hamlet" />
		<tag k="name" v="Smørholmen" />
		<tag k="place" v="farm" />
		<tag k="ssr:stedsnr" v="980916" />
	</node>
	<node id="-593658" lat="63.012322572" lon="7.32832413618">
		<tag k="fixme" v="consider place=hamlet" />
		<tag k="name" v="Skarvøya" />
		<tag k="place" v="farm" />
		<tag k="ssr:stedsnr" v="980913" />
	</node>
	<node id="-593657" lat="63.0142167364" lon="7.34241620066">
		<tag k="fixme" v="consider place=hamlet" />
		<tag k="name" v="Hulvågen" />
		<tag k="place" v="farm" />
		<tag k="ssr:stedsnr" v="980911" />
	</node>
	<node id="-593655" lat="62.9025645871" lon="7.48563708835">
		<tag k="alt_name" v="Reialia" />
		<tag k="name" v="Lia" />
		<tag k="place" v="farm" />
		<tag k="ssr:stedsnr" v="970248" />
	</node>
	<node id="-593654" lat="62.9027722256" lon="7.36485556106">
		<tag k="name" v="Langneset" />
		<tag k="place" v="farm" />
		<tag k="ssr:stedsnr" v="969708" />
	</node>
	<node id="-593650" lat="62.8960166681" lon="7.38398333905">
		<tag k="loc_name" v="Sørreiten" />
		<tag k="name" v="Nås" />
		<tag k="place" v="farm" />
		<tag k="ssr:stedsnr" v="952145" />
	</node>
	<node id="-593647" lat="62.9556111129" lon="7.41082499265">
		<tag k="name" v="Visnes" />
		<tag k="place" v="farm" />
		<tag k="ssr:stedsnr" v="945407" />
	</node>
	<node id="-592621" lat="62.9442222251" lon="7.36489445249">
		<tag k="name" v="Vikasetra" />
		<tag k="place" v="locality" />
		<tag k="ssr:stedsnr" v="277227" />
	</node>
	<node id="-593642" lat="62.9285805571" lon="7.34597222331">
		<tag k="name" v="Myrstad" />
		<tag k="place" v="farm" />
		<tag k="ssr:stedsnr" v="945372" />
	</node>
	<node id="-593129" lat="62.963400002" lon="7.35281110888">
		<tag k="name" v="Øverland" />
		<tag k="place" v="farm" />
		<tag k="ssr:stedsnr" v="436956" />
	</node>
	<node id="-593127" lat="62.9617116232" lon="7.37025690635">
		<tag k="fixme" v="consider place=hamlet" />
		<tag k="name" v="Lyngstad" />
		<tag k="place" v="village" />
		<tag k="ssr:stedsnr" v="436951" />
	</node>
	<node id="-592849" lat="62.8959809763" lon="7.38189141947">
		<tag k="fixme" v="consider place=hamlet" />
		<tag k="name" v="Nås" />
		<tag k="place" v="farm" />
		<tag k="ssr:stedsnr" v="11564" />
	</node>
	<node id="-593122" lat="62.91249722" lon="7.54055556412">
		<tag k="name" v="Tuftin" />
		<tag k="place" v="farm" />
		<tag k="ssr:stedsnr" v="436553" />
	</node>
	<node id="-593121" lat="62.8954694419" lon="7.40789999638">
		<tag k="name" v="Hjellen" />
		<tag k="place" v="farm" />
		<tag k="ssr:stedsnr" v="436537" />
	</node>
	<node id="-593120" lat="62.9158055557" lon="7.40573333475">
		<tag k="name" v="Eidssetra" />
		<tag k="place" v="isolated_dwelling" />
		<tag k="ssr:stedsnr" v="436510" />
	</node>
	<node id="-593119" lat="62.9292861151" lon="7.34747778296">
		<tag k="name" v="Myrebø" />
		<tag k="place" v="farm" />
		<tag k="ssr:stedsnr" v="436494" />
	</node>
	<node id="-593118" lat="62.9308805526" lon="7.31698888801">
		<tag k="name" v="Eriklia" />
		<tag k="place" v="farm" />
		<tag k="ssr:stedsnr" v="436490" />
	</node>
	<node id="-593117" lat="63.005136113" lon="7.29683333714">
		<tag k="name" v="Berget" />
		<tag k="place" v="farm" />
		<tag k="ssr:stedsnr" v="437436" />
	</node>
	<node id="-593113" lat="62.9557000009" lon="7.39118334026">
		<tag k="name" v="Vikan" />
		<tag k="place" v="farm" />
		<tag k="ssr:stedsnr" v="263642" />
	</node>
	<node id="-593110" lat="62.9446166694" lon="7.31156943606">
		<tag k="name" v="Barkongla" />
		<tag k="place" v="isolated_dwelling" />
		<tag k="ssr:stedsnr" v="254998" />
	</node>
	<node id="-593109" lat="62.9569583316" lon="7.41039445142">
		<tag k="name" v="Neset" />
		<tag k="place" v="farm" />
		<tag k="ssr:stedsnr" v="254970" />
	</node>
	<node id="-593108" lat="62.9493138862" lon="7.34143888764">
		<tag k="name" v="Iverhjellen" />
		<tag k="place" v="locality" />
		<tag k="ssr:stedsnr" v="254955" />
	</node>
	<node id="-593619" lat="62.9794749985" lon="7.3117083403">
		<tag k="name" v="Lillevik" />
		<tag k="place" v="farm" />
		<tag k="ssr:stedsnr" v="923928" />
	</node>
	<node id="-593102" lat="62.9220328528" lon="7.34597276823">
		<tag k="name" v="Trøin" />
		<tag k="place" v="farm" />
		<tag k="ssr:stedsnr" v="254534" />
	</node>
	<node id="-593613" lat="62.9692484701" lon="7.34018762168">
		<tag k="fixme" v="consider place=hamlet" />
		<tag k="name" v="Mekvika" />
		<tag k="place" v="farm" />
		<tag k="ssr:stedsnr" v="922926" />
	</node>
	<node id="-592674" lat="62.9186083347" lon="7.36974167635">
		<tag k="name" v="Innlegget" />
		<tag k="place" v="farm" />
		<tag k="ssr:stedsnr" v="315521" />
	</node>
	<node id="-593609" lat="62.8941805512" lon="7.53932222508">
		<tag k="name" v="Kjølasetra" />
		<tag k="place" v="isolated_dwelling" />
		<tag k="ssr:stedsnr" v="922570" />
	</node>
	<node id="-593607" lat="62.8942638876" lon="7.56847500767">
		<tag k="name" v="Herskedalssetra" />
		<tag k="place" v="locality" />
		<tag k="ssr:stedsnr" v="922567" />
	</node>
	<node id="-593606" lat="62.9280666673" lon="7.32489166383">
		<tag k="name" v="Solli" />
		<tag k="place" v="farm" />
		<tag k="ssr:stedsnr" v="922528" />
	</node>
	<node id="-593605" lat="62.9239111115" lon="7.29714167096">
		<tag k="alt_name" v="Bakken, nordre" />
		<tag k="name" v="Nordre Bakken" />
		<tag k="place" v="farm" />
		<tag k="ssr:stedsnr" v="922523" />
	</node>
	<node id="-593604" lat="62.9171826401" lon="7.45235761941">
		<tag k="fixme" v="consider place=hamlet" />
		<tag k="name" v="Eide" />
		<tag k="place" v="farm" />
		<tag k="ssr:stedsnr" v="922519" />
	</node>
	<node id="-593603" lat="62.9187527805" lon="7.29019444284">
		<tag k="name" v="Lia" />
		<tag k="place" v="farm" />
		<tag k="ssr:stedsnr" v="922510" />
	</node>
	<node id="-593602" lat="62.9172388928" lon="7.29995277352">
		<tag k="name" v="Myrland" />
		<tag k="place" v="farm" />
		<tag k="ssr:stedsnr" v="922508" />
	</node>
	<node id="-593600" lat="63.004819447" lon="7.29657777364">
		<tag k="fixme" v="consider place=hamlet" />
		<tag k="name" v="Vevang" />
		<tag k="place" v="village" />
		<tag k="ssr:stedsnr" v="922381" />
	</node>
	<node id="-593599" lat="62.9533944401" lon="7.41131665925">
		<tag k="name" v="Myran" />
		<tag k="place" v="farm" />
		<tag k="ssr:stedsnr" v="921971" />
	</node>
	<node id="-593598" lat="62.8859305525" lon="7.37588333083">
		<tag k="name" v="Fredlund" />
		<tag k="place" v="farm" />
		<tag k="ssr:stedsnr" v="921629" />
	</node>
	<node id="-593085" lat="62.9040527823" lon="7.36004445376">
		<tag k="name" v="Slettet" />
		<tag k="place" v="farm" />
		<tag k="ssr:stedsnr" v="217420" />
	</node>
	<node id="-593245" lat="62.9001750029" lon="7.38361666719">
		<tag k="name" v="Sommarhaugen" />
		<tag k="place" v="farm" />
		<tag k="ssr:stedsnr" v="557536" />
	</node>
	<node id="-593590" lat="62.9652944439" lon="7.35903610213">
		<tag k="name" v="Myra" />
		<tag k="place" v="isolated_dwelling" />
		<tag k="ssr:stedsnr" v="899712" />
	</node>
	<node id="-593588" lat="62.9653497154" lon="7.31693887551">
		<tag k="fixme" v="consider place=hamlet" />
		<tag k="name" v="Brandshaug" />
		<tag k="place" v="farm" />
		<tag k="ssr:stedsnr" v="862945" />
	</node>
	<node id="-593587" lat="62.9707111142" lon="7.31278610579">
		<tag k="name" v="Skardet" />
		<tag k="place" v="farm" />
		<tag k="ssr:stedsnr" v="862943" />
	</node>
	<node id="-593586" lat="62.9852722227" lon="7.30404722726">
		<tag k="name" v="Nylund" />
		<tag k="place" v="farm" />
		<tag k="ssr:stedsnr" v="862908" />
	</node>
	<node id="-593585" lat="62.9978361104" lon="7.29820833519">
		<tag k="name" v="Hammaren" />
		<tag k="place" v="farm" />
		<tag k="ssr:stedsnr" v="862893" />
	</node>
	<node id="-593582" lat="63.0061999991" lon="7.27948889">
		<tag k="name" v="Gjengstøa" />
		<tag k="place" v="farm" />
		<tag k="ssr:stedsnr" v="862416" />
	</node>
	<node id="-592669" lat="62.955330559" lon="7.38023611941">
		<tag k="name" v="Nylund" />
		<tag k="place" v="farm" />
		<tag k="ssr:stedsnr" v="314973" />
	</node>
	<node id="-593580" lat="62.9507822598" lon="7.41561705166">
		<tag k="alt_name" v="Lindset" />
		<tag k="fixme" v="consider place=hamlet" />
		<tag k="name" v="Øygarden" />
		<tag k="place" v="farm" />
		<tag k="ssr:stedsnr" v="861987" />
	</node>
	<node id="-593575" lat="62.8874775851" lon="7.41214869934">
		<tag k="fixme" v="consider place=hamlet" />
		<tag k="name" v="Halåsen" />
		<tag k="place" v="farm" />
		<tag k="ssr:stedsnr" v="861578" />
	</node>
	<node id="-593060" lat="62.8802833335" lon="7.45218889281">
		<tag k="name" v="Øvergarden" />
		<tag k="place" v="farm" />
		<tag k="ssr:stedsnr" v="202876" />
	</node>
	<node id="-593569" lat="62.9271" lon="7.30926945261">
		<tag k="name" v="Torelia" />
		<tag k="place" v="farm" />
		<tag k="ssr:stedsnr" v="861528" />
	</node>
	<node id="-593568" lat="62.92421959" lon="7.59573683319">
		<tag k="fixme" v="consider place=hamlet" />
		<tag k="name" v="Krekvika" />
		<tag k="place" v="farm" />
		<tag k="ssr:stedsnr" v="861524" />
	</node>
	<node id="-593055" lat="62.9979999996" lon="7.28260000147">
		<tag k="fixme" v="multiple name tags, choose one and add the other to alt_name" />
		<tag k="name" v="Mjølkstølen;Stølen" />
		<tag k="place" v="farm" />
		<tag k="ssr:stedsnr" v="194876" />
	</node>
	<node id="-593054" lat="62.9976166703" lon="7.30760000159">
		<tag k="name" v="Vika" />
		<tag k="place" v="farm" />
		<tag k="ssr:stedsnr" v="194874" />
	</node>
	<node id="-593565" lat="62.9434305564" lon="7.33270556068">
		<tag k="name" v="Bollimyran" />
		<tag k="place" v="farm" />
		<tag k="ssr:stedsnr" v="861494" />
	</node>
	<node id="-593047" lat="62.9278674874" lon="7.44769271551">
		<tag k="name" v="Toremyran" />
		<tag k="place" v="farm" />
		<tag k="ssr:stedsnr" v="194497" />
	</node>
	<node id="-593046" lat="62.9253916683" lon="7.57595834171">
		<tag k="name" v="Buskneset" />
		<tag k="place" v="farm" />
		<tag k="ssr:stedsnr" v="194493" />
	</node>
	<node id="-593045" lat="62.9126361083" lon="7.32435555667">
		<tag k="name" v="Sandneshaugen" />
		<tag k="place" v="farm" />
		<tag k="ssr:stedsnr" v="194475" />
	</node>
	<node id="-593044" lat="62.9376722261" lon="7.4199527734">
		<tag k="name" v="Silnessetra" />
		<tag k="place" v="isolated_dwelling" />
		<tag k="ssr:stedsnr" v="194441" />
	</node>
	<node id="-593042" lat="62.9616500032" lon="7.27905277856">
		<tag k="name" v="Årøyan" />
		<tag k="place" v="locality" />
		<tag k="ssr:stedsnr" v="193939" />
	</node>
	<node id="-593041" lat="62.8911166695" lon="7.38810834267">
		<tag k="name" v="Sørbøen" />
		<tag k="place" v="farm" />
		<tag k="ssr:stedsnr" v="193615" />
	</node>
	<node id="-593040" lat="62.8871000044" lon="7.38008611483">
		<tag k="name" v="Furumo" />
		<tag k="place" v="farm" />
		<tag k="ssr:stedsnr" v="193612" />
	</node>
	<node id="-593039" lat="62.9128982751" lon="7.54069907829">
		<tag k="fixme" v="consider place=hamlet" />
		<tag k="name" v="Strand" />
		<tag k="place" v="farm" />
		<tag k="ssr:stedsnr" v="193597" />
	</node>
	<node id="-593038" lat="62.9129416688" lon="7.54181388903">
		<tag k="name" v="Nergarden" />
		<tag k="place" v="farm" />
		<tag k="ssr:stedsnr" v="193588" />
	</node>
	<node id="-593037" lat="62.938269443" lon="7.43460278536">
		<tag k="name" v="Silnes" />
		<tag k="place" v="hamlet" />
		<tag k="ssr:stedsnr" v="193541" />
	</node>
	<node id="-593546" lat="62.9343027813" lon="7.42508611867">
		<tag k="name" v="Gl. Silnessetra" />
		<tag k="place" v="locality" />
		<tag k="ssr:stedsnr" v="824382" />
	</node>
	<node id="-593538" lat="62.9476861081" lon="7.37109721624">
		<tag k="name" v="Visnessetra" />
		<tag k="place" v="locality" />
		<tag k="ssr:stedsnr" v="824306" />
	</node>
	<node id="-593525" lat="62.9225272532" lon="7.56264477733">
		<tag k="fixme" v="consider place=hamlet" />
		<tag k="name" v="Stakkvika" />
		<tag k="place" v="farm" />
		<tag k="ssr:stedsnr" v="801546" />
	</node>
	<node id="-593524" lat="62.9169833985" lon="7.4225281487">
		<tag k="fixme" v="consider place=hamlet" />
		<tag k="name" v="Krakalia" />
		<tag k="place" v="farm" />
		<tag k="ssr:stedsnr" v="801527" />
	</node>
	<node id="-593520" lat="62.9612416668" lon="7.35882777894">
		<tag k="name" v="Nerland" />
		<tag k="place" v="farm" />
		<tag k="ssr:stedsnr" v="800961" />
	</node>
	<node id="-593517" lat="62.90425833" lon="7.55822500751">
		<tag k="name" v="Haltvika" />
		<tag k="place" v="farm" />
		<tag k="ssr:stedsnr" v="800622" />
	</node>
	<node id="-593514" lat="62.9206222253" lon="7.30211944625">
		<tag k="name" v="Høybubakken" />
		<tag k="place" v="farm" />
		<tag k="ssr:stedsnr" v="800556" />
	</node>
	<node id="-593513" lat="62.9217999977" lon="7.35317777247">
		<tag k="name" v="Åsen" />
		<tag k="place" v="farm" />
		<tag k="ssr:stedsnr" v="800547" />
	</node>
	<node id="-593512" lat="62.9350833374" lon="7.34123888477">
		<tag k="name" v="Hjellset" />
		<tag k="place" v="farm" />
		<tag k="ssr:stedsnr" v="800497" />
	</node>
	<node id="-593511" lat="62.9341917745" lon="7.4428792029">
		<tag k="name" v="Silset" />
		<tag k="place" v="hamlet" />
		<tag k="ssr:stedsnr" v="800489" />
	</node>
	<node id="-593510" lat="62.9371250005" lon="7.43890532118">
		<tag k="fixme" v="consider place=hamlet" />
		<tag k="name" v="Silneset" />
		<tag k="place" v="farm" />
		<tag k="ssr:stedsnr" v="800485" />
	</node>
	<node id="-592989" lat="62.9894666664" lon="7.31835555817">
		<tag k="name" v="Løkan" />
		<tag k="place" v="farm" />
		<tag k="ssr:stedsnr" v="133906" />
	</node>
	<node id="-592983" lat="62.9180138853" lon="7.45253611359">
		<tag k="name" v="Søreide" />
		<tag k="place" v="farm" />
		<tag k="ssr:stedsnr" v="133490" />
	</node>
	<node id="-592982" lat="62.9173472184" lon="7.44670000399">
		<tag k="name" v="Eide" />
		<tag k="place" v="village" />
		<tag k="ssr:stedsnr" v="133487" />
	</node>
	<node id="-592980" lat="62.9646083374" lon="7.37354999701">
		<tag k="name" v="Naustvika" />
		<tag k="place" v="farm" />
		<tag k="ssr:stedsnr" v="132953" />
	</node>
	<node id="-592977" lat="62.895724999" lon="7.47398056474">
		<tag k="name" v="Vegen" />
		<tag k="place" v="farm" />
		<tag k="ssr:stedsnr" v="132632" />
	</node>
	<node id="-592973" lat="62.9393333369" lon="7.34387499287">
		<tag k="name" v="Midtbø" />
		<tag k="place" v="farm" />
		<tag k="ssr:stedsnr" v="132512" />
	</node>
	<node id="-592971" lat="62.950990742" lon="7.41511545394">
		<tag k="name" v="Lindset" />
		<tag k="place" v="locality" />
		<tag k="ssr:stedsnr" v="118648" />
	</node>
	<node id="-593101" lat="62.9349027805" lon="7.33425555813">
		<tag k="name" v="Hjellmyra" />
		<tag k="place" v="farm" />
		<tag k="ssr:stedsnr" v="254482" />
	</node>
	<node id="-593464" lat="62.9243083314" lon="7.3043694352">
		<tag k="name" v="Peplassen" />
		<tag k="place" v="locality" />
		<tag k="ssr:stedsnr" v="763242" />
	</node>
	<node id="-592734" lat="62.9026953878" lon="7.48613995669">
		<tag k="alt_name" v="Reialia" />
		<tag k="fixme" v="consider place=hamlet" />
		<tag k="name" v="Lia" />
		<tag k="old_name" v="Lien" />
		<tag k="place" v="farm" />
		<tag k="ssr:stedsnr" v="375589" />
	</node>
	<node id="-593457" lat="62.9747444441" lon="7.31073888052">
		<tag k="name" v="Storvika" />
		<tag k="place" v="farm" />
		<tag k="ssr:stedsnr" v="740913" />
	</node>
	<node id="-592943" lat="62.8733972232" lon="7.42918889739">
		<tag k="name" v="Vasskorsetra" />
		<tag k="place" v="locality" />
		<tag k="ssr:stedsnr" v="95272" />
	</node>
	<node id="-593454" lat="62.8818665235" lon="7.44623556482">
		<tag k="fixme" v="consider place=hamlet" />
		<tag k="name" v="Vasskor" />
		<tag k="place" v="farm" />
		<tag k="ssr:stedsnr" v="740634" />
	</node>
	<node id="-593453" lat="62.8840583318" lon="7.45369723055">
		<tag k="name" v="Bythaugen" />
		<tag k="place" v="farm" />
		<tag k="ssr:stedsnr" v="740633" />
	</node>
	<node id="-593451" lat="62.8742194442" lon="7.41502778636">
		<tag k="name" v="Finnsetra" />
		<tag k="place" v="farm" />
		<tag k="ssr:stedsnr" v="740606" />
	</node>
	<node id="-593448" lat="62.91221944" lon="7.32928332552">
		<tag k="name" v="Dalen" />
		<tag k="place" v="farm" />
		<tag k="ssr:stedsnr" v="740518" />
	</node>
	<node id="-593445" lat="62.9199194424" lon="7.35279167254">
		<tag k="name" v="Myran" />
		<tag k="place" v="farm" />
		<tag k="ssr:stedsnr" v="740514" />
	</node>
	<node id="-593438" lat="62.9218194439" lon="7.44002777366">
		<tag k="name" v="Vollan" />
		<tag k="place" v="farm" />
		<tag k="ssr:stedsnr" v="739552" />
	</node>
	<node id="-593437" lat="62.944644448" lon="7.42678888365">
		<tag k="name" v="Kronborga" />
		<tag k="place" v="farm" />
		<tag k="ssr:stedsnr" v="739535" />
	</node>
	<node id="-593436" lat="62.9401135684" lon="7.32744280446">
		<tag k="fixme" v="consider place=hamlet" />
		<tag k="name" v="Bollia" />
		<tag k="place" v="farm" />
		<tag k="ssr:stedsnr" v="739528" />
	</node>
	<node id="-592730" lat="62.9130472262" lon="7.43506112069">
		<tag k="name" v="Rabben" />
		<tag k="place" v="farm" />
		<tag k="ssr:stedsnr" v="375498" />
	</node>
	<node id="-593434" lat="63.0053357795" lon="7.29545962472">
		<tag k="fixme" v="consider place=hamlet" />
		<tag k="name" v="Vevang" />
		<tag k="place" v="farm" />
		<tag k="ssr:stedsnr" v="723518" />
	</node>
	<node id="-593431" lat="63.0220775749" lon="7.23562795718">
		<tag k="fixme" v="consider place=hamlet" />
		<tag k="name" v="Kvitholmen" />
		<tag k="place" v="farm" />
		<tag k="ssr:stedsnr" v="713912" />
	</node>
	<node id="-593430" lat="62.8943500019" lon="7.37847778051">
		<tag k="name" v="Nås" />
		<tag k="place" v="farm" />
		<tag k="ssr:stedsnr" v="709131" />
	</node>
	<node id="-592853" lat="62.8935584285" lon="7.47440021379">
		<tag k="fixme" v="consider place=hamlet" />
		<tag k="name" v="Ugelstad" />
		<tag k="place" v="farm" />
		<tag k="ssr:stedsnr" v="11602" />
	</node>
	<node id="-592914" lat="62.952574998" lon="7.34766111005">
		<tag k="name" v="Lyngstadgjerdet" />
		<tag k="place" v="farm" />
		<tag k="ssr:stedsnr" v="72962" />
	</node>
	<node id="-592910" lat="62.8917000013" lon="7.47373610816">
		<tag k="name" v="Bortate" />
		<tag k="place" v="farm" />
		<tag k="ssr:stedsnr" v="72581" />
	</node>
	<node id="-592909" lat="62.9221722223" lon="7.31843611061">
		<tag k="name" v="Furuset" />
		<tag k="place" v="farm" />
		<tag k="ssr:stedsnr" v="72544" />
	</node>
	<node id="-592907" lat="62.9331972196" lon="7.33129722359">
		<tag k="name" v="Furumo" />
		<tag k="place" v="farm" />
		<tag k="ssr:stedsnr" v="72484" />
	</node>
	<node id="-592906" lat="62.9347916688" lon="7.4391999906">
		<tag k="name" v="Steinbakken" />
		<tag k="place" v="farm" />
		<tag k="ssr:stedsnr" v="72473" />
	</node>
	<node id="-592905" lat="62.9002593793" lon="7.47827190637">
		<tag k="name" v="Sorset" />
		<tag k="place" v="farm" />
		<tag k="ssr:stedsnr" v="60687" />
	</node>
	<node id="-592902" lat="62.9831722231" lon="7.31050833669">
		<tag k="name" v="Gaustad" />
		<tag k="place" v="farm" />
		<tag k="ssr:stedsnr" v="42344" />
	</node>
</osm>
