<?xml version="1.0" encoding="UTF-8"?>
<osm generator="osmapis" version="0.6">
	<node id="-592381" lat="62.9052583314" lon="7.35189721311">
		<tag k="name" v="Storneset" />
		<tag k="natural" v="cape" />
		<tag k="ssr:stedsnr" v="580196" />
	</node>
	<node id="-592380" lat="62.9046944465" lon="7.31245278207">
		<tag k="name" v="Vasstjønna" />
		<tag k="natural" v="water" />
		<tag k="ssr:stedsnr" v="580192" />
	</node>
	<node id="-591862" lat="62.8829944487" lon="7.54182499">
		<tag k="name" v="Kjølavatnet" />
		<tag k="natural" v="water" />
		<tag k="ssr:stedsnr" v="375618" />
	</node>
	<node id="-591861" lat="62.9009083342" lon="7.41807499655">
		<tag k="alt_name" v="Vågsbøelva" />
		<tag k="name" v="Sagelva" />
		<tag k="ssr:stedsnr" v="375593" />
		<tag k="waterway" v="stream" />
	</node>
	<node id="-592368" lat="62.9006166672" lon="7.54002500785">
		<tag k="name" v="Kjølabekken" />
		<tag k="ssr:stedsnr" v="557578" />
		<tag k="waterway" v="stream" />
	</node>
	<node id="-591854" lat="62.934452774" lon="7.38767499711">
		<tag k="name" v="Storvisnesvatnet" />
		<tag k="natural" v="water" />
		<tag k="ssr:stedsnr" v="375462" />
	</node>
	<node id="-591840" lat="62.9220055527" lon="7.44314722567">
		<tag k="name" v="Eidselva" />
		<tag k="ssr:stedsnr" v="338696" />
		<tag k="waterway" v="stream" />
	</node>
	<node id="-592349" lat="62.8740361076" lon="7.40753333824">
		<tag k="alt_name" v="Surendalselva" />
		<tag k="name" v="Dalaelva" />
		<tag k="ssr:stedsnr" v="520445" />
		<tag k="waterway" v="river" />
	</node>
	<node id="-591835" lat="62.9180416692" lon="7.32723610575">
		<tag k="name" v="Åsaneset" />
		<tag k="natural" v="cape" />
		<tag k="ssr:stedsnr" v="338354" />
	</node>
	<node id="-591834" lat="62.8803944488" lon="7.51312499252">
		<tag k="name" v="Botnlaustjønna" />
		<tag k="natural" v="water" />
		<tag k="ssr:stedsnr" v="338338" />
	</node>
	<node id="-592342" lat="62.9194055599" lon="7.32633888864">
		<tag k="name" v="Løken" />
		<tag k="ssr:stedsnr" v="520409" />
		<tag k="waterway" v="stream" />
	</node>
	<node id="-591950" lat="62.8910999996" lon="7.54719721759">
		<tag k="name" v="Litlbuelva" />
		<tag k="ssr:stedsnr" v="885399" />
		<tag k="waterway" v="stream" />
	</node>
	<node id="-592337" lat="62.903686112" lon="7.52588333721">
		<tag k="name" v="Skarlibekken" />
		<tag k="ssr:stedsnr" v="520376" />
		<tag k="waterway" v="stream" />
	</node>
	<node id="-591824" lat="62.9753833354" lon="7.30673610528">
		<tag k="name" v="Storvikløken" />
		<tag k="ssr:stedsnr" v="338237" />
		<tag k="waterway" v="stream" />
	</node>
	<node id="-592335" lat="62.8904027754" lon="7.55065833479">
		<tag k="name" v="Skålmyrbekken" />
		<tag k="ssr:stedsnr" v="520372" />
		<tag k="waterway" v="stream" />
	</node>
	<node id="-591822" lat="62.9595888884" lon="7.33491110595">
		<tag k="name" v="Skiftingdalsbekken" />
		<tag k="ssr:stedsnr" v="338221" />
		<tag k="waterway" v="stream" />
	</node>
	<node id="-591821" lat="62.9573194445" lon="7.29955832613">
		<tag k="name" v="Seterbekken" />
		<tag k="ssr:stedsnr" v="338214" />
		<tag k="waterway" v="stream" />
	</node>
	<node id="-591820" lat="62.9567194423" lon="7.27676110836">
		<tag k="name" v="Sandsbekken" />
		<tag k="ssr:stedsnr" v="338212" />
		<tag k="waterway" v="stream" />
	</node>
	<node id="-591819" lat="62.913230557" lon="7.3284527767">
		<tag k="name" v="Heimstadløken" />
		<tag k="ssr:stedsnr" v="338206" />
		<tag k="waterway" v="stream" />
	</node>
	<node id="-591818" lat="62.8755666694" lon="7.35428055581">
		<tag k="name" v="Nonslibekken" />
		<tag k="ssr:stedsnr" v="338191" />
		<tag k="waterway" v="stream" />
	</node>
	<node id="-592329" lat="62.9599611103" lon="7.36599999083">
		<tag k="name" v="Lyngstadelva" />
		<tag k="ssr:stedsnr" v="520281" />
		<tag k="waterway" v="river" />
	</node>
	<node id="-591814" lat="62.8914499971" lon="7.42647499795">
		<tag k="name" v="Mjølkstøl-løken" />
		<tag k="ssr:stedsnr" v="337362" />
		<tag k="waterway" v="stream" />
	</node>
	<node id="-592325" lat="62.9110666709" lon="7.33073610548">
		<tag k="name" v="Daleløken" />
		<tag k="ssr:stedsnr" v="520237" />
		<tag k="waterway" v="stream" />
	</node>
	<node id="-592324" lat="62.9121833306" lon="7.33706945142">
		<tag k="name" v="Dalaholman" />
		<tag k="place" v="islet" />
		<tag k="ssr:stedsnr" v="520236" />
	</node>
	<node id="-592323" lat="62.90978056" lon="7.33965555859">
		<tag k="name" v="Småholman" />
		<tag k="place" v="islet" />
		<tag k="ssr:stedsnr" v="520235" />
	</node>
	<node id="-591804" lat="62.874066669" lon="7.47093610899">
		<tag k="name" v="Tussfossen" />
		<tag k="natural" v="waterfall" />
		<tag k="ssr:stedsnr" v="315601" />
	</node>
	<node id="-592201" lat="62.8961388925" lon="7.56957778584">
		<tag k="name" v="Ljøslibekken" />
		<tag k="ssr:stedsnr" v="217402" />
		<tag k="waterway" v="stream" />
	</node>
	<node id="-591796" lat="62.9446250029" lon="7.27520278325">
		<tag k="name" v="Gådalstjørna" />
		<tag k="natural" v="water" />
		<tag k="ssr:stedsnr" v="314985" />
	</node>
	<node id="-591792" lat="62.8859444413" lon="7.56941110526">
		<tag k="alt_name" v="Skreelva" />
		<tag k="name" v="Skredbekken" />
		<tag k="ssr:stedsnr" v="315642" />
		<tag k="waterway" v="stream" />
	</node>
	<node id="-591789" lat="62.8623027818" lon="7.32243055077">
		<tag k="name" v="Bjørndalsvatnet" />
		<tag k="natural" v="water" />
		<tag k="ssr:stedsnr" v="315618" />
	</node>
	<node id="-592298" lat="62.9500749988" lon="7.27900277929">
		<tag k="name" v="Gådalsvatnet" />
		<tag k="natural" v="water" />
		<tag k="ssr:stedsnr" v="496969" />
	</node>
	<node id="-591772" lat="62.9377555537" lon="7.36250276969">
		<tag k="name" v="Orneset" />
		<tag k="natural" v="cape" />
		<tag k="ssr:stedsnr" v="278501" />
	</node>
	<node id="-592283" lat="62.9457944471" lon="7.35761111088">
		<tag k="name" v="Teppå" />
		<tag k="ssr:stedsnr" v="460501" />
		<tag k="waterway" v="dam" />
	</node>
	<node id="-592282" lat="62.9566222265" lon="7.29302222244">
		<tag k="name" v="Årøyelva" />
		<tag k="ssr:stedsnr" v="460499" />
		<tag k="waterway" v="river" />
	</node>
	<node id="-591767" lat="62.8871361144" lon="7.53892778199">
		<tag k="name" v="Litlbuelva" />
		<tag k="ssr:stedsnr" v="278456" />
		<tag k="waterway" v="stream" />
	</node>
	<node id="-591766" lat="62.897391668" lon="7.55991666663">
		<tag k="name" v="Ljøslibekken" />
		<tag k="ssr:stedsnr" v="278438" />
		<tag k="waterway" v="stream" />
	</node>
	<node id="-591764" lat="62.9106722242" lon="7.38843889749">
		<tag k="name" v="Storløken" />
		<tag k="ssr:stedsnr" v="278426" />
		<tag k="waterway" v="stream" />
	</node>
	<node id="-592272" lat="62.8767444472" lon="7.50036110878">
		<tag k="name" v="Klokkhuselva" />
		<tag k="ssr:stedsnr" v="460376" />
		<tag k="waterway" v="stream" />
	</node>
	<node id="-592269" lat="62.9038444489" lon="7.36711388798">
		<tag k="name" v="Langneset" />
		<tag k="natural" v="cape" />
		<tag k="ssr:stedsnr" v="460281" />
	</node>
	<node id="-592279" lat="62.908549997" lon="7.34204165938">
		<tag k="name" v="Skjeppet" />
		<tag k="place" v="islet" />
		<tag k="ssr:stedsnr" v="460472" />
	</node>
	<node id="-591748" lat="62.9565055581" lon="7.31533611035">
		<tag k="name" v="Botnlaustjønna" />
		<tag k="natural" v="water" />
		<tag k="ssr:stedsnr" v="277229" />
	</node>
	<node id="-591745" lat="62.9241499966" lon="7.37203334299">
		<tag k="name" v="Dyrhaugbekken" />
		<tag k="ssr:stedsnr" v="277220" />
		<tag k="waterway" v="stream" />
	</node>
	<node id="-592255" lat="62.8883833349" lon="7.34626111903">
		<tag k="name" v="Storbekken" />
		<tag k="ssr:stedsnr" v="459214" />
		<tag k="waterway" v="stream" />
	</node>
	<node id="-591742" lat="62.8806055592" lon="7.35494999914">
		<tag k="name" v="Lomtjønna" />
		<tag k="natural" v="water" />
		<tag k="ssr:stedsnr" v="277208" />
	</node>
	<node id="-591896" lat="62.8718277816" lon="7.39306388584">
		<tag k="name" v="Dalaløken" />
		<tag k="ssr:stedsnr" v="399357" />
		<tag k="waterway" v="stream" />
	</node>
	<node id="-592244" lat="62.8583611084" lon="7.35903055254">
		<tag k="name" v="Trolldalsvatnet" />
		<tag k="natural" v="water" />
		<tag k="ssr:stedsnr" v="436666" />
	</node>
	<node id="-591934" lat="62.9683111147" lon="7.31728888119">
		<tag k="name" v="Reitaelva" />
		<tag k="ssr:stedsnr" v="884225" />
		<tag k="waterway" v="stream" />
	</node>
	<node id="-592751" lat="62.9828027822" lon="7.27785832496">
		<tag k="name" v="Krokneset" />
		<tag k="natural" v="cape" />
		<tag k="ssr:stedsnr" v="945268" />
	</node>
	<node id="-592750" lat="62.9870194471" lon="7.28359722875">
		<tag k="name" v="Rømmløken" />
		<tag k="ssr:stedsnr" v="945266" />
		<tag k="waterway" v="stream" />
	</node>
	<node id="-592749" lat="62.9356250004" lon="7.37212778298">
		<tag k="name" v="Sisselielva" />
		<tag k="ssr:stedsnr" v="945257" />
		<tag k="waterway" v="stream" />
	</node>
	<node id="-592748" lat="62.9150833346" lon="7.32761945204">
		<tag k="name" v="Kolmyrneset" />
		<tag k="natural" v="cape" />
		<tag k="ssr:stedsnr" v="945248" />
	</node>
	<node id="-592747" lat="62.8688472232" lon="7.3595277754">
		<tag k="name" v="Litlvasselva" />
		<tag k="ssr:stedsnr" v="945226" />
		<tag k="waterway" v="stream" />
	</node>
	<node id="-592745" lat="62.9248972216" lon="7.32145555545">
		<tag k="name" v="Torelielva" />
		<tag k="ssr:stedsnr" v="945211" />
		<tag k="waterway" v="stream" />
	</node>
	<node id="-592743" lat="62.9358249963" lon="7.37972222212">
		<tag k="name" v="Sisselielva" />
		<tag k="ssr:stedsnr" v="944427" />
		<tag k="waterway" v="stream" />
	</node>
	<node id="-592740" lat="62.8923833326" lon="7.43346389033">
		<tag k="name" v="Langnesløken" />
		<tag k="ssr:stedsnr" v="944399" />
		<tag k="waterway" v="stream" />
	</node>
	<node id="-592729" lat="62.8852916631" lon="7.48624444385">
		<tag k="alt_name" v="Sorsetelva;Øyelva" />
		<tag k="name" v="Ådalselva" />
		<tag k="ssr:stedsnr" v="922621" />
		<tag k="waterway" v="river" />
	</node>
	<node id="-592208" lat="62.9100583292" lon="7.55461945449">
		<tag k="name" v="Galtelva" />
		<tag k="ssr:stedsnr" v="217694" />
		<tag k="waterway" v="river" />
	</node>
	<node id="-592205" lat="62.8802444476" lon="7.46422777319">
		<tag k="name" v="Tusselva" />
		<tag k="ssr:stedsnr" v="217454" />
		<tag k="waterway" v="river" />
	</node>
	<node id="-592204" lat="62.8767499961" lon="7.40687221873">
		<tag k="name" v="Olløken" />
		<tag k="ssr:stedsnr" v="217443" />
		<tag k="waterway" v="stream" />
	</node>
	<node id="-592714" lat="62.9071612544" lon="7.59345511865">
		<tag k="name" v="Galtvatnet" />
		<tag k="natural" v="water" />
		<tag k="ssr:stedsnr" v="921603" />
	</node>
	<node id="-592713" lat="62.9456666668" lon="7.40664999104">
		<tag k="name" v="Djupdalsbekken" />
		<tag k="ssr:stedsnr" v="921547" />
		<tag k="waterway" v="stream" />
	</node>
	<node id="-592194" lat="62.9101999974" lon="7.41198887967">
		<tag k="name" v="Hyll-løken" />
		<tag k="ssr:stedsnr" v="217371" />
		<tag k="waterway" v="stream" />
	</node>
	<node id="-592193" lat="62.9019611086" lon="7.3860805481">
		<tag k="name" v="Fiskarneset" />
		<tag k="natural" v="cape" />
		<tag k="ssr:stedsnr" v="217345" />
	</node>
	<node id="-592191" lat="62.897766664" lon="7.445380549">
		<tag k="alt_name" v="Svanvikelva" />
		<tag k="name" v="Einsetelva" />
		<tag k="ssr:stedsnr" v="217334" />
		<tag k="waterway" v="river" />
	</node>
	<node id="-592190" lat="62.8784166666" lon="7.39867778672">
		<tag k="name" v="Skålibekken" />
		<tag k="ssr:stedsnr" v="217329" />
		<tag k="waterway" v="stream" />
	</node>
	<node id="-592183" lat="62.965075001" lon="7.26565834296">
		<tag k="name" v="Sloppelva" />
		<tag k="ssr:stedsnr" v="217273" />
		<tag k="waterway" v="stream" />
	</node>
	<node id="-592182" lat="62.9422638857" lon="7.26090000686">
		<tag k="name" v="Gådalsbekken" />
		<tag k="ssr:stedsnr" v="217259" />
		<tag k="waterway" v="stream" />
	</node>
	<node id="-592692" lat="62.8916555571" lon="7.44578054956">
		<tag k="name" v="Litlvatnet" />
		<tag k="natural" v="water" />
		<tag k="ssr:stedsnr" v="861575" />
	</node>
	<node id="-592690" lat="62.9107777792" lon="7.33641388257">
		<tag k="name" v="Sandneset" />
		<tag k="natural" v="cape" />
		<tag k="ssr:stedsnr" v="861552" />
	</node>
	<node id="-592174" lat="62.9803972203" lon="7.29111111401">
		<tag k="name" v="Gaustadvågen" />
		<tag k="natural" v="water" />
		<tag k="ssr:stedsnr" v="194911" />
	</node>
	<node id="-592684" lat="62.9401777804" lon="7.35941667559">
		<tag k="name" v="Lyngstadvatnet" />
		<tag k="natural" v="water" />
		<tag k="ssr:stedsnr" v="861497" />
		<tag k="water" v="lake" />
	</node>
	<node id="-592171" lat="62.8789083302" lon="7.50897222397">
		<tag k="name" v="Trolldalselva" />
		<tag k="ssr:stedsnr" v="194610" />
		<tag k="waterway" v="stream" />
	</node>
	<node id="-592679" lat="62.9090388849" lon="7.57443610534">
		<tag k="name" v="Galtelva" />
		<tag k="ssr:stedsnr" v="824750" />
		<tag k="waterway" v="river" />
	</node>
	<node id="-592674" lat="62.906158333" lon="7.4427138857">
		<tag k="name" v="Bytneset" />
		<tag k="natural" v="cape" />
		<tag k="ssr:stedsnr" v="824460" />
	</node>
	<node id="-592347" lat="62.9352111088" lon="7.35213610367">
		<tag k="name" v="Åsaløken" />
		<tag k="ssr:stedsnr" v="520434" />
		<tag k="waterway" v="stream" />
	</node>
	<node id="-592669" lat="62.8925083304" lon="7.57036944631">
		<tag k="name" v="Nybelibekken" />
		<tag k="ssr:stedsnr" v="824425" />
		<tag k="waterway" v="stream" />
	</node>
	<node id="-592665" lat="62.9198000019" lon="7.44320000858">
		<tag k="name" v="Lysgårdbekken" />
		<tag k="ssr:stedsnr" v="824400" />
		<tag k="waterway" v="stream" />
	</node>
	<node id="-592663" lat="62.9044138923" lon="7.44888888108">
		<tag k="name" v="Holmsundet" />
		<tag k="natural" v="strait" />
		<tag k="ssr:stedsnr" v="824357" />
	</node>
	<node id="-592659" lat="62.9747999989" lon="7.27573611393">
		<tag k="name" v="Svelløken" />
		<tag k="ssr:stedsnr" v="824328" />
		<tag k="waterway" v="stream" />
	</node>
	<node id="-592655" lat="62.9345416678" lon="7.30851944665">
		<tag k="name" v="Skottenbekken" />
		<tag k="ssr:stedsnr" v="824297" />
		<tag k="waterway" v="stream" />
	</node>
	<node id="-592652" lat="62.8710138879" lon="7.32253055756">
		<tag k="name" v="Setertunga" />
		<tag k="natural" v="cape" />
		<tag k="ssr:stedsnr" v="824274" />
	</node>
	<node id="-592651" lat="62.9164250005" lon="7.32703888585">
		<tag k="name" v="Stakkholmen" />
		<tag k="place" v="islet" />
		<tag k="ssr:stedsnr" v="824264" />
	</node>
	<node id="-591913" lat="62.9891999956" lon="7.26309443756">
		<tag k="name" v="Sjåneset" />
		<tag k="natural" v="cape" />
		<tag k="ssr:stedsnr" v="399469" />
	</node>
	<node id="-592257" lat="62.941313888" lon="7.30817223082">
		<tag k="name" v="Bollielva" />
		<tag k="ssr:stedsnr" v="459241" />
		<tag k="waterway" v="stream" />
	</node>
	<node id="-592131" lat="62.8905972203" lon="7.48059444105">
		<tag k="name" v="Undgrobekken" />
		<tag k="ssr:stedsnr" v="156311" />
		<tag k="waterway" v="stream" />
	</node>
	<node id="-592117" lat="62.9674749996" lon="7.3507555509">
		<tag k="name" v="Bekkaelva" />
		<tag k="ssr:stedsnr" v="156248" />
		<tag k="waterway" v="stream" />
	</node>
	<node id="-592116" lat="62.9491138872" lon="7.35515000956">
		<tag k="name" v="Seterløken" />
		<tag k="ssr:stedsnr" v="156238" />
		<tag k="waterway" v="stream" />
	</node>
	<node id="-592113" lat="62.9073777761" lon="7.319574999">
		<tag k="alt_name" v="Sandneselva" />
		<tag k="name" v="Hældalselva" />
		<tag k="ssr:stedsnr" v="156199" />
		<tag k="waterway" v="river" />
	</node>
	<node id="-592621" lat="62.9104249986" lon="7.39421389784">
		<tag k="name" v="Sagløken" />
		<tag k="ssr:stedsnr" v="763725" />
		<tag k="waterway" v="stream" />
	</node>
	<node id="-592105" lat="62.8693277746" lon="7.32120554974">
		<tag k="name" v="Bjørndalsbekken" />
		<tag k="ssr:stedsnr" v="133617" />
		<tag k="waterway" v="stream" />
	</node>
	<node id="-592614" lat="62.9018611091" lon="7.44822221998">
		<tag k="name" v="Smibukta" />
		<tag k="natural" v="bay" />
		<tag k="ssr:stedsnr" v="763472" />
	</node>
	<node id="-592099" lat="62.9476138887" lon="7.35649721317">
		<tag k="name" v="Djupelvan" />
		<tag k="ssr:stedsnr" v="132966" />
		<tag k="waterway" v="stream" />
	</node>
	<node id="-592608" lat="62.8514861134" lon="7.4201638962">
		<tag k="name" v="Brungrova" />
		<tag k="ssr:stedsnr" v="763421" />
		<tag k="waterway" v="stream" />
	</node>
	<node id="-592336" lat="62.8933250015" lon="7.56251111875">
		<tag k="name" v="Nybelibekken" />
		<tag k="ssr:stedsnr" v="520373" />
		<tag k="waterway" v="stream" />
	</node>
	<node id="-592092" lat="62.9044472187" lon="7.37625555837">
		<tag k="name" v="Nåsavatnet" />
		<tag k="natural" v="water" />
		<tag k="ssr:stedsnr" v="132592" />
		<tag k="water" v="lake" />
	</node>
	<node id="-592133" lat="62.9067222254" lon="7.41131665795">
		<tag k="name" v="Tømmerbukta" />
		<tag k="natural" v="bay" />
		<tag k="ssr:stedsnr" v="156321" />
	</node>
	<node id="-592598" lat="62.9095750036" lon="7.42029166522">
		<tag k="name" v="Grønløken" />
		<tag k="ssr:stedsnr" v="763389" />
		<tag k="waterway" v="stream" />
	</node>
	<node id="-592597" lat="62.904438889" lon="7.43558887947">
		<tag k="name" v="Einsetvågen" />
		<tag k="natural" v="water" />
		<tag k="ssr:stedsnr" v="763362" />
		<tag k="water" v="lake" />
	</node>
	<node id="-592596" lat="62.9008972206" lon="7.41755000018">
		<tag k="name" v="Hollenderdammen" />
		<tag k="natural" v="water" />
		<tag k="ssr:stedsnr" v="763355" />
		<tag k="water" v="lake" />
	</node>
	<node id="-592083" lat="62.9043527809" lon="7.57820555716">
		<tag k="name" v="Midtdalslielva" />
		<tag k="ssr:stedsnr" v="96422" />
		<tag k="waterway" v="stream" />
	</node>
	<node id="-592080" lat="62.9171666629" lon="7.45627222047">
		<tag k="name" v="Osen" />
		<tag k="natural" v="bay" />
		<tag k="ssr:stedsnr" v="96486" />
	</node>
	<node id="-592332" lat="62.8885027796" lon="7.40005000567">
		<tag k="name" v="Halåsløken" />
		<tag k="ssr:stedsnr" v="520330" />
		<tag k="waterway" v="stream" />
	</node>
	<node id="-592161" lat="62.9409055566" lon="7.30381944627">
		<tag k="name" v="Vargtjørna" />
		<tag k="natural" v="water" />
		<tag k="ssr:stedsnr" v="193992" />
	</node>
	<node id="-592580" lat="62.8850250005" lon="7.42821667538">
		<tag k="alt_name" v="Frantsbuelva" />
		<tag k="name" v="Bjerkneselva" />
		<tag k="ssr:stedsnr" v="763145" />
		<tag k="waterway" v="stream" />
	</node>
	<node id="-592067" lat="62.9775333365" lon="7.28436944397">
		<tag k="name" v="Svortløken" />
		<tag k="ssr:stedsnr" v="95249" />
		<tag k="waterway" v="stream" />
	</node>
	<node id="-592066" lat="62.9582777776" lon="7.38020832883">
		<tag k="name" v="Finnbekken" />
		<tag k="ssr:stedsnr" v="95297" />
		<tag k="waterway" v="stream" />
	</node>
	<node id="-592573" lat="62.8614944483" lon="7.48485555757">
		<tag k="name" v="Tussvatnet" />
		<tag k="natural" v="water" />
		<tag k="ssr:stedsnr" v="740663" />
	</node>
	<node id="-592058" lat="62.8813638919" lon="7.47498333492">
		<tag k="name" v="Bjønndalsbekken" />
		<tag k="ssr:stedsnr" v="95266" />
		<tag k="waterway" v="stream" />
	</node>
	<node id="-592055" lat="62.8718472222" lon="7.35730000731">
		<tag k="name" v="Trolldalselva" />
		<tag k="ssr:stedsnr" v="95200" />
		<tag k="waterway" v="river" />
	</node>
	<node id="-592054" lat="62.9017916681" lon="7.37377499266">
		<tag k="name" v="Reitabuneset" />
		<tag k="natural" v="cape" />
		<tag k="ssr:stedsnr" v="95190" />
	</node>
	<node id="-592564" lat="62.9137416653" lon="7.36491110247">
		<tag k="name" v="Mjølkstølbekken" />
		<tag k="ssr:stedsnr" v="740516" />
		<tag k="waterway" v="stream" />
	</node>
	<node id="-592561" lat="62.8565222263" lon="7.42989444671">
		<tag k="name" v="Tudalstjørna" />
		<tag k="natural" v="water" />
		<tag k="ssr:stedsnr" v="739675" />
	</node>
	<node id="-592560" lat="62.8875111068" lon="7.4363611069">
		<tag k="name" v="Vasskorvatnet" />
		<tag k="natural" v="water" />
		<tag k="ssr:stedsnr" v="739606" />
		<tag k="water" v="lake" />
	</node>
	<node id="-591901" lat="62.9008944477" lon="7.40271944269">
		<tag k="name" v="Kallaneset" />
		<tag k="natural" v="cape" />
		<tag k="ssr:stedsnr" v="399390" />
	</node>
	<node id="-592040" lat="62.9300111156" lon="7.33560278569">
		<tag k="name" v="Elvakroken" />
		<tag k="ssr:stedsnr" v="95218" />
		<tag k="waterway" v="stream" />
	</node>
	<node id="-592039" lat="62.918761115" lon="7.33370554559">
		<tag k="name" v="Tømmerbukta" />
		<tag k="natural" v="bay" />
		<tag k="ssr:stedsnr" v="95210" />
	</node>
	<node id="-592035" lat="62.9147250019" lon="7.29107777281">
		<tag k="name" v="Oselva" />
		<tag k="ssr:stedsnr" v="73837" />
		<tag k="waterway" v="river" />
	</node>
	<node id="-592031" lat="62.8634527782" lon="7.37305555743">
		<tag k="alt_name" v="Litlvatnet" />
		<tag k="name" v="Litlevatnet" />
		<tag k="natural" v="water" />
		<tag k="ssr:stedsnr" v="72616" />
	</node>
	<node id="-592540" lat="62.9405027751" lon="7.35553332584">
		<tag k="name" v="Røyråa" />
		<tag k="natural" v="bay" />
		<tag k="ssr:stedsnr" v="702399" />
	</node>
	<node id="-592536" lat="62.9203749966" lon="7.33087222074">
		<tag k="name" v="Åsaelva" />
		<tag k="ssr:stedsnr" v="702375" />
		<tag k="waterway" v="stream" />
	</node>
	<node id="-592533" lat="62.8784555514" lon="7.51348333361">
		<tag k="name" v="Lomdammen" />
		<tag k="natural" v="water" />
		<tag k="ssr:stedsnr" v="702357" />
	</node>
	<node id="-592019" lat="62.9392888893" lon="7.31650833299">
		<tag k="name" v="Maskindammen" />
		<tag k="natural" v="water" />
		<tag k="ssr:stedsnr" v="38870" />
	</node>
	<node id="-592017" lat="62.9074333342" lon="7.56138333659">
		<tag k="name" v="Golielva" />
		<tag k="ssr:stedsnr" v="35740" />
		<tag k="waterway" v="stream" />
	</node>
	<node id="-592528" lat="62.8808861084" lon="7.43824166919">
		<tag k="name" v="Djupdalsbekken" />
		<tag k="ssr:stedsnr" v="702286" />
		<tag k="waterway" v="stream" />
	</node>
	<node id="-592015" lat="62.9155500001" lon="7.59460832379">
		<tag k="name" v="Fossan" />
		<tag k="natural" v="waterfall" />
		<tag k="ssr:stedsnr" v="35737" />
	</node>
	<node id="-592526" lat="62.871324997" lon="7.50213611255">
		<tag k="name" v="Klokkhusvatnet" />
		<tag k="natural" v="water" />
		<tag k="ssr:stedsnr" v="702267" />
	</node>
	<node id="-592525" lat="62.868319441" lon="7.48312777423">
		<tag k="fixme" v="multiple name tags, choose one and add the other to alt_name" />
		<tag k="name" v="Litlvatnet;Tusstjønna" />
		<tag k="natural" v="water" />
		<tag k="ssr:stedsnr" v="702266" />
	</node>
	<node id="-592010" lat="62.9086083358" lon="7.54026110509">
		<tag k="name" v="Strandaelva" />
		<tag k="ssr:stedsnr" v="35472" />
		<tag k="waterway" v="river" />
	</node>
	<node id="-592007" lat="62.9033666647" lon="7.43222221727">
		<tag k="name" v="Einaneset" />
		<tag k="natural" v="cape" />
		<tag k="ssr:stedsnr" v="35434" />
	</node>
	<node id="-592005" lat="62.9019222243" lon="7.37919722929">
		<tag k="name" v="Bukkneset" />
		<tag k="natural" v="cape" />
		<tag k="ssr:stedsnr" v="35429" />
	</node>
	<node id="-592514" lat="62.8929777774" lon="7.34027500464">
		<tag k="name" v="Gunnadalsbekken" />
		<tag k="ssr:stedsnr" v="702206" />
		<tag k="waterway" v="stream" />
	</node>
	<node id="-592512" lat="62.8973527739" lon="7.33716944603">
		<tag k="name" v="Snipvatnet" />
		<tag k="natural" v="water" />
		<tag k="ssr:stedsnr" v="702199" />
	</node>
	<node id="-591994" lat="62.9693944404" lon="7.32757777942">
		<tag k="name" v="Sandvikbekken" />
		<tag k="ssr:stedsnr" v="35325" />
		<tag k="waterway" v="stream" />
	</node>
	<node id="-591992" lat="62.9345416649" lon="7.36486110487">
		<tag k="name" v="Grønneselva" />
		<tag k="ssr:stedsnr" v="35314" />
		<tag k="waterway" v="stream" />
	</node>
	<node id="-591874" lat="62.8883805554" lon="7.37419722097">
		<tag k="name" v="Nåsaelva" />
		<tag k="ssr:stedsnr" v="384849" />
		<tag k="waterway" v="river" />
	</node>
	<node id="-591990" lat="62.937469446" lon="7.40692222933">
		<tag k="name" v="Djupåbekken" />
		<tag k="ssr:stedsnr" v="34322" />
		<tag k="waterway" v="stream" />
	</node>
	<node id="-591989" lat="62.9323638931" lon="7.40033888873">
		<tag k="name" v="Litlvisnesvatnet" />
		<tag k="natural" v="water" />
		<tag k="ssr:stedsnr" v="34319" />
	</node>
	<node id="-591988" lat="62.8888888895" lon="7.4380611121">
		<tag k="name" v="Langneset" />
		<tag k="natural" v="cape" />
		<tag k="ssr:stedsnr" v="34313" />
	</node>
	<node id="-592486" lat="62.9467527791" lon="7.39785833501">
		<tag k="name" v="Seterbekken" />
		<tag k="ssr:stedsnr" v="678969" />
		<tag k="waterway" v="stream" />
	</node>
	<node id="-592484" lat="62.9009333348" lon="7.31862778735">
		<tag k="name" v="Hældalsvatnet" />
		<tag k="natural" v="water" />
		<tag k="ssr:stedsnr" v="678575" />
	</node>
	<node id="-592478" lat="62.8785361086" lon="7.33371665879">
		<tag k="name" v="Brandseterelva" />
		<tag k="ssr:stedsnr" v="646771" />
		<tag k="waterway" v="stream" />
	</node>
	<node id="-592477" lat="62.9040972226" lon="7.5199111175">
		<tag k="name" v="Kjølelva" />
		<tag k="ssr:stedsnr" v="641677" />
		<tag k="waterway" v="stream" />
	</node>
	<node id="-592462" lat="62.8981249996" lon="7.41073888136">
		<tag k="name" v="Sandbukta" />
		<tag k="natural" v="bay" />
		<tag k="ssr:stedsnr" v="641298" />
	</node>
	<node id="-592458" lat="62.8708222198" lon="7.41891944762">
		<tag k="name" v="Kamskarbekken" />
		<tag k="ssr:stedsnr" v="641267" />
		<tag k="waterway" v="stream" />
	</node>
	<node id="-591945" lat="62.9520888926" lon="7.39068888082">
		<tag k="name" v="Visneselva" />
		<tag k="ssr:stedsnr" v="884321" />
		<tag k="waterway" v="stream" />
	</node>
	<node id="-591944" lat="62.9081083307" lon="7.40898888731">
		<tag k="name" v="Hyllberget" />
		<tag k="natural" v="cape" />
		<tag k="ssr:stedsnr" v="884298" />
	</node>
	<node id="-592453" lat="62.9624333311" lon="7.36437500043">
		<tag k="name" v="Breiløken" />
		<tag k="ssr:stedsnr" v="641240" />
		<tag k="waterway" v="stream" />
	</node>
	<node id="-592450" lat="62.9083694419" lon="7.34562777048">
		<tag k="name" v="Steinskjæret" />
		<tag k="place" v="islet" />
		<tag k="ssr:stedsnr" v="641211" />
	</node>
	<node id="-592446" lat="62.9285194462" lon="7.33315555147">
		<tag k="name" v="Skottenbekken" />
		<tag k="ssr:stedsnr" v="641178" />
		<tag k="waterway" v="stream" />
	</node>
	<node id="-591932" lat="62.9535999959" lon="7.27936110438">
		<tag k="name" v="Sandbukta" />
		<tag k="natural" v="bay" />
		<tag k="ssr:stedsnr" v="884215" />
	</node>
	<node id="-591931" lat="62.9500972234" lon="7.27001666482">
		<tag k="name" v="Støbekken" />
		<tag k="ssr:stedsnr" v="884213" />
		<tag k="waterway" v="stream" />
	</node>
	<node id="-591930" lat="62.9424972267" lon="7.27675000019">
		<tag k="name" v="Fosslibekken" />
		<tag k="ssr:stedsnr" v="884214" />
		<tag k="waterway" v="stream" />
	</node>
	<node id="-591929" lat="62.9318750028" lon="7.30211944969">
		<tag k="name" v="Torelielva" />
		<tag k="ssr:stedsnr" v="884212" />
		<tag k="waterway" v="stream" />
	</node>
	<node id="-592432" lat="62.875899999" lon="7.3757083388">
		<tag k="alt_name" v="Lomtjønna" />
		<tag k="name" v="Lomtjørna" />
		<tag k="natural" v="water" />
		<tag k="ssr:stedsnr" v="618635" />
	</node>
	<node id="-592425" lat="62.9054000024" lon="7.56743332519">
		<tag k="name" v="Golielva" />
		<tag k="ssr:stedsnr" v="581760" />
		<tag k="waterway" v="stream" />
	</node>
	<node id="-591903" lat="62.9071166712" lon="7.5427027869">
		<tag k="name" v="Herskedalselva" />
		<tag k="ssr:stedsnr" v="399428" />
		<tag k="waterway" v="river" />
	</node>
	<node id="-592413" lat="62.9969777808" lon="7.29024444381">
		<tag k="name" v="Straumen" />
		<tag k="natural" v="bay" />
		<tag k="ssr:stedsnr" v="581475" />
	</node>
	<node id="-592412" lat="62.9953361152" lon="7.28221666042">
		<tag k="name" v="Vågan" />
		<tag k="natural" v="bay" />
		<tag k="ssr:stedsnr" v="581473" />
	</node>
	<node id="-591898" lat="62.9054166687" lon="7.44456667177">
		<tag k="name" v="Geitskjæret" />
		<tag k="place" v="islet" />
		<tag k="ssr:stedsnr" v="399372" />
	</node>
	<node id="-591897" lat="62.8854444476" lon="7.42228888519">
		<tag k="name" v="Bjerknesløken" />
		<tag k="ssr:stedsnr" v="399366" />
		<tag k="waterway" v="stream" />
	</node>
	<node id="-592408" lat="62.9142972255" lon="7.35251943648">
		<tag k="name" v="Lamløken" />
		<tag k="ssr:stedsnr" v="581447" />
		<tag k="waterway" v="stream" />
	</node>
	<node id="-592407" lat="62.9146111123" lon="7.34011112076">
		<tag k="name" v="Åsahylla" />
		<tag k="place" v="islet" />
		<tag k="ssr:stedsnr" v="581443" />
	</node>
	<node id="-592405" lat="62.862613889" lon="7.40667778659">
		<tag k="name" v="Surndalselva" />
		<tag k="ssr:stedsnr" v="581430" />
		<tag k="waterway" v="stream" />
	</node>
	<node id="-592402" lat="62.9338138899" lon="7.42967222345">
		<tag k="name" v="Silneselva" />
		<tag k="ssr:stedsnr" v="581413" />
		<tag k="waterway" v="stream" />
	</node>
	<node id="-592399" lat="62.9187138854" lon="7.42996943984">
		<tag k="name" v="Maskindammen" />
		<tag k="ssr:stedsnr" v="581400" />
		<tag k="waterway" v="dam" />
	</node>
	<node id="-591885" lat="62.8774472235" lon="7.34179443609">
		<tag k="name" v="Krokbekken" />
		<tag k="ssr:stedsnr" v="399270" />
		<tag k="waterway" v="stream" />
	</node>
	<node id="-592395" lat="62.8906666623" lon="7.43159445294">
		<tag k="name" v="Fiskarneset" />
		<tag k="natural" v="cape" />
		<tag k="ssr:stedsnr" v="580279" />
	</node>
	<node id="-591882" lat="62.9041638899" lon="7.31609166785">
		<tag k="name" v="Midttjønna" />
		<tag k="natural" v="water" />
		<tag k="ssr:stedsnr" v="399251" />
	</node>
	<node id="-592393" lat="62.8998388878" lon="7.40586112013">
		<tag k="name" v="Røstberget" />
		<tag k="natural" v="cape" />
		<tag k="ssr:stedsnr" v="580272" />
	</node>
	<node id="-592392" lat="62.870733337" lon="7.4162305533">
		<tag k="name" v="Finnseterelva" />
		<tag k="ssr:stedsnr" v="580260" />
		<tag k="waterway" v="stream" />
	</node>
	<node id="-591876" lat="62.8890666696" lon="7.42325000574">
		<tag k="name" v="Gammelkallbekken" />
		<tag k="ssr:stedsnr" v="398310" />
		<tag k="waterway" v="stream" />
	</node>
	<node id="-592387" lat="62.9660027812" lon="7.36149167227">
		<tag k="name" v="Ørjavikløken" />
		<tag k="ssr:stedsnr" v="580227" />
		<tag k="waterway" v="stream" />
	</node>
	<node id="-592386" lat="62.963266669" lon="7.28563887948">
		<tag k="name" v="Gåstjønna" />
		<tag k="natural" v="water" />
		<tag k="ssr:stedsnr" v="580226" />
	</node>
	<node id="-592385" lat="62.9662583349" lon="7.27586388531">
		<tag k="name" v="Gådalsfossen" />
		<tag k="natural" v="waterfall" />
		<tag k="ssr:stedsnr" v="580224" />
	</node>
</osm>
