<?xml version="1.0" encoding="UTF-8"?>
<osm generator="osmapis" version="0.6">
	<node id="-593536" lat="62.9104749992" lon="7.33677777726">
		<tag k="name" v="Sandnesøya" />
		<tag k="natural" v="wetland" />
		<tag k="ssr:stedsnr" v="824292" />
	</node>
	<node id="-593152" lat="62.9499388879" lon="7.35610555131">
		<tag k="name" v="Gjerdamyra" />
		<tag k="natural" v="wetland" />
		<tag k="ssr:stedsnr" v="460330" />
	</node>
	<node id="-593406" lat="62.8734055587" lon="7.44791666956">
		<tag k="name" v="Rundsteinen" />
		<tag k="natural" v="stone" />
		<tag k="ssr:stedsnr" v="702265" />
	</node>
	<node id="-593149" lat="62.9123611153" lon="7.28515277778">
		<tag k="name" v="Stakkslættet" />
		<tag k="natural" v="wetland" />
		<tag k="ssr:stedsnr" v="460267" />
	</node>
	<node id="-593147" lat="62.9627194406" lon="7.38037222516">
		<tag k="name" v="Prekstolen" />
		<tag k="natural" v="stone" />
		<tag k="ssr:stedsnr" v="459327" />
	</node>
	<node id="-592890" lat="62.9226499989" lon="7.43344167143">
		<tag k="name" v="Triangelsteinen" />
		<tag k="natural" v="stone" />
		<tag k="ssr:stedsnr" v="35458" />
	</node>
	<node id="-593471" lat="62.9588472203" lon="7.36353611369">
		<tag k="name" v="Kolbotnteigen" />
		<tag k="place" v="locality" />
		<tag k="ssr:stedsnr" v="763304" />
	</node>
	<node id="-592632" lat="62.8974722222" lon="7.39343333131">
		<tag k="name" v="Vassbuslættet" />
		<tag k="place" v="locality" />
		<tag k="ssr:stedsnr" v="277306" />
	</node>
	<node id="-592631" lat="62.8927444408" lon="7.455063893">
		<tag k="name" v="Svanvikmyran" />
		<tag k="natural" v="wetland" />
		<tag k="ssr:stedsnr" v="277307" />
	</node>
	<node id="-592873" lat="62.8510027765" lon="7.35459444467">
		<tag k="name" v="Skarsteinane" />
		<tag k="natural" v="stone" />
		<tag k="ssr:stedsnr" v="35295" />
	</node>
	<node id="-593140" lat="62.9422222263" lon="7.26819166644">
		<tag k="name" v="Storslættet" />
		<tag k="place" v="locality" />
		<tag k="ssr:stedsnr" v="459245" />
	</node>
	<node id="-593022" lat="62.9175222238" lon="7.57749721252">
		<tag k="name" v="Høystakkmyra" />
		<tag k="natural" v="wetland" />
		<tag k="ssr:stedsnr" v="156397" />
	</node>
	<node id="-593264" lat="62.9190777779" lon="7.31963888295">
		<tag k="name" v="Vargholsteinan" />
		<tag k="natural" v="stone" />
		<tag k="ssr:stedsnr" v="580209" />
	</node>
	<node id="-593518" lat="62.8936833373" lon="7.43117499757">
		<tag k="name" v="Svanvikmyran" />
		<tag k="natural" v="wetland" />
		<tag k="ssr:stedsnr" v="800628" />
	</node>
	<node id="-592877" lat="62.9721583315" lon="7.33834444557">
		<tag k="name" v="Hesthyllmyran" />
		<tag k="natural" v="wetland" />
		<tag k="ssr:stedsnr" v="35335" />
	</node>
	<node id="-593298" lat="62.9451611098" lon="7.27893334324">
		<tag k="name" v="Jøssmyra" />
		<tag k="natural" v="wetland" />
		<tag k="ssr:stedsnr" v="581480" />
	</node>
	<node id="-593002" lat="62.9899805526" lon="7.2495277698">
		<tag k="name" v="Kvitsteinen" />
		<tag k="natural" v="stone" />
		<tag k="ssr:stedsnr" v="156257" />
	</node>
	<node id="-593001" lat="62.991297226" lon="7.3085722206">
		<tag k="name" v="Trollsteinan" />
		<tag k="natural" v="stone" />
		<tag k="ssr:stedsnr" v="156254" />
	</node>
	<node id="-593003" lat="62.957711109" lon="7.3530138917">
		<tag k="name" v="Brennvinsmyra" />
		<tag k="natural" v="wetland" />
		<tag k="ssr:stedsnr" v="156258" />
	</node>
	<node id="-593084" lat="62.9154916636" lon="7.28857776893">
		<tag k="name" v="Sirimyra" />
		<tag k="natural" v="wetland" />
		<tag k="ssr:stedsnr" v="217407" />
	</node>
	<node id="-593638" lat="62.8834249975" lon="7.42111666843">
		<tag k="name" v="Kvennhusmyran" />
		<tag k="natural" v="wetland" />
		<tag k="ssr:stedsnr" v="945301" />
	</node>
	<node id="-592614" lat="62.9247083339" lon="7.26482500404">
		<tag k="name" v="Bollsteinen" />
		<tag k="natural" v="stone" />
		<tag k="ssr:stedsnr" v="277190" />
	</node>
	<node id="-592993" lat="62.9426388867" lon="7.37903333369">
		<tag k="name" v="Steinbakken" />
		<tag k="natural" v="stone" />
		<tag k="ssr:stedsnr" v="155362" />
	</node>
	<node id="-593502" lat="62.9232166678" lon="7.57273333538">
		<tag k="name" v="Stormyra" />
		<tag k="natural" v="wetland" />
		<tag k="ssr:stedsnr" v="763711" />
	</node>
	<node id="-593628" lat="62.8983055526" lon="7.37186944098">
		<tag k="name" v="Vallesteinen" />
		<tag k="natural" v="stone" />
		<tag k="ssr:stedsnr" v="945224" />
	</node>
	<node id="-592975" lat="62.884908335" lon="7.50752500078">
		<tag k="name" v="Ugelstadmyra" />
		<tag k="natural" v="wetland" />
		<tag k="ssr:stedsnr" v="132611" />
	</node>
	<node id="-593624" lat="62.9445722231" lon="7.37855276791">
		<tag k="name" v="Øverlimyra" />
		<tag k="natural" v="wetland" />
		<tag k="ssr:stedsnr" v="944423" />
	</node>
	<node id="-593111" lat="63.0041194477" lon="7.26853334275">
		<tag k="historic" v="shieling" />
		<tag k="name" v="Mjølkstølen" />
		<tag k="place" v="locality" />
		<tag k="ssr:stedsnr" v="255411" />
	</node>
	<node id="-592697" lat="62.9661944408" lon="7.33055278674">
		<tag k="name" v="Jordfallmyra" />
		<tag k="natural" v="wetland" />
		<tag k="ssr:stedsnr" v="338229" />
	</node>
	<node id="-593363" lat="62.9532472223" lon="7.38163610516">
		<tag k="name" v="Helgeåsmyra" />
		<tag k="natural" v="wetland" />
		<tag k="ssr:stedsnr" v="656725" />
	</node>
	<node id="-593233" lat="62.8857833333" lon="7.48424166404">
		<tag k="name" v="Sagmyra" />
		<tag k="natural" v="wetland" />
		<tag k="ssr:stedsnr" v="520453" />
	</node>
	<node id="-593103" lat="62.9096888921" lon="7.37311110385">
		<tag k="name" v="Storløken" />
		<tag k="natural" v="wetland" />
		<tag k="ssr:stedsnr" v="254554" />
	</node>
	<node id="-593486" lat="62.9167916712" lon="7.55106389704">
		<tag k="name" v="Martinsteinen" />
		<tag k="natural" v="stone" />
		<tag k="ssr:stedsnr" v="763415" />
	</node>
	<node id="-593485" lat="62.8971361081" lon="7.55294167474">
		<tag k="name" v="Nybelimyran" />
		<tag k="natural" v="wetland" />
		<tag k="ssr:stedsnr" v="763406" />
	</node>
	<node id="-593484" lat="62.9027694432" lon="7.54515000628">
		<tag k="name" v="Sandnesmyra" />
		<tag k="natural" v="wetland" />
		<tag k="ssr:stedsnr" v="763402" />
	</node>
	<node id="-593225" lat="62.8711055576" lon="7.35762221362">
		<tag k="name" v="Porkheia" />
		<tag k="natural" v="wetland" />
		<tag k="ssr:stedsnr" v="520416" />
	</node>
	<node id="-593215" lat="62.8910944401" lon="7.37974722645">
		<tag k="name" v="Skonsbømyran" />
		<tag k="natural" v="wetland" />
		<tag k="ssr:stedsnr" v="520331" />
	</node>
	<node id="-593092" lat="62.9223027756" lon="7.40249166525">
		<tag k="name" v="Langura" />
		<tag k="natural" v="scree" />
		<tag k="ssr:stedsnr" v="217699" />
	</node>
	<node id="-593474" lat="62.8855583328" lon="7.43227221616">
		<tag k="name" v="Bjerknesmyra" />
		<tag k="natural" v="wetland" />
		<tag k="ssr:stedsnr" v="763334" />
	</node>
	<node id="-593216" lat="62.9102944466" lon="7.41526944519">
		<tag k="name" v="Øver Hyll-løkmyra" />
		<tag k="natural" v="wetland" />
		<tag k="ssr:stedsnr" v="520358" />
	</node>
	<node id="-592703" lat="62.8786361122" lon="7.47211944631">
		<tag k="name" v="Martinura" />
		<tag k="natural" v="scree" />
		<tag k="ssr:stedsnr" v="338257" />
	</node>
	<node id="-592618" lat="62.9133583292" lon="7.37130833867">
		<tag k="name" v="Ljøsmyrane" />
		<tag k="natural" v="wetland" />
		<tag k="ssr:stedsnr" v="277216" />
	</node>
	<node id="-593212" lat="62.8847222219" lon="7.46567777279">
		<tag k="name" v="Kalvhågan" />
		<tag k="place" v="locality" />
		<tag k="ssr:stedsnr" v="520308" />
	</node>
	<node id="-593465" lat="62.89154444" lon="7.35373888026">
		<tag k="name" v="Smongslætta" />
		<tag k="place" v="locality" />
		<tag k="ssr:stedsnr" v="763248" />
	</node>
	<node id="-592884" lat="62.8792111109" lon="7.41364999371">
		<tag k="name" v="Frantsmyran" />
		<tag k="natural" v="wetland" />
		<tag k="ssr:stedsnr" v="35406" />
	</node>
	<node id="-592822" lat="62.910005559" lon="7.40853055522">
		<tag k="name" v="Ner Hyll-løkmyra" />
		<tag k="natural" v="wetland" />
		<tag k="ssr:stedsnr" v="885384" />
	</node>
	<node id="-592639" lat="62.9136416693" lon="7.45486945112">
		<tag k="name" v="Kobbsteinan" />
		<tag k="natural" v="stone" />
		<tag k="ssr:stedsnr" v="278435" />
	</node>
	<node id="-593011" lat="62.886280556" lon="7.44632500447">
		<tag k="name" v="Alesplassen" />
		<tag k="place" v="locality" />
		<tag k="ssr:stedsnr" v="156288" />
	</node>
	<node id="-592944" lat="62.9072555559" lon="7.49136944167">
		<tag k="name" v="Ingebrigtsteinen" />
		<tag k="natural" v="stone" />
		<tag k="ssr:stedsnr" v="95278" />
	</node>
	<node id="-592939" lat="62.8845416654" lon="7.46161388393">
		<tag k="name" v="Djupmyran" />
		<tag k="natural" v="wetland" />
		<tag k="ssr:stedsnr" v="95264" />
	</node>
	<node id="-593577" lat="62.8840000007" lon="7.49641945247">
		<tag k="alt_name" v="Liaura" />
		<tag k="name" v="Liaurda" />
		<tag k="natural" v="scree" />
		<tag k="ssr:stedsnr" v="861613" />
	</node>
	<node id="-593500" lat="62.8940444412" lon="7.3996444395">
		<tag k="name" v="Øymyra" />
		<tag k="natural" v="wetland" />
		<tag k="ssr:stedsnr" v="763504" />
	</node>
	<node id="-592809" lat="62.988861107" lon="7.30473610973">
		<tag k="name" v="Femershågmyra" />
		<tag k="natural" v="wetland" />
		<tag k="ssr:stedsnr" v="884241" />
	</node>
	<node id="-592933" lat="62.9128861067" lon="7.29725554909">
		<tag k="name" v="Nubuslættet" />
		<tag k="place" v="locality" />
		<tag k="ssr:stedsnr" v="95177" />
	</node>
	<node id="-593184" lat="62.920833335" lon="7.39139721367">
		<tag k="name" v="Skredhola" />
		<tag k="place" v="locality" />
		<tag k="ssr:stedsnr" v="497511" />
	</node>
	<node id="-592645" lat="62.8671027741" lon="7.34913611065">
		<tag k="name" v="Gråura" />
		<tag k="natural" v="scree" />
		<tag k="ssr:stedsnr" v="278489" />
	</node>
	<node id="-593024" lat="62.9301638862" lon="7.34197777001">
		<tag k="name" v="Stormyra" />
		<tag k="natural" v="wetland" />
		<tag k="ssr:stedsnr" v="156430" />
	</node>
	<node id="-593302" lat="62.8725194415" lon="7.416583337">
		<tag k="historic" v="shieling" />
		<tag k="name" v="Stølen" />
		<tag k="place" v="locality" />
		<tag k="ssr:stedsnr" v="581493" />
	</node>
	<node id="-593557" lat="62.8811499988" lon="7.42531944667">
		<tag k="name" v="Postmyra" />
		<tag k="natural" v="wetland" />
		<tag k="ssr:stedsnr" v="824461" />
	</node>
	<node id="-593555" lat="62.9646972243" lon="7.35004443585">
		<tag k="name" v="Tjørmyra" />
		<tag k="natural" v="wetland" />
		<tag k="ssr:stedsnr" v="824454" />
	</node>
	<node id="-593426" lat="62.8827583367" lon="7.48270278406">
		<tag k="name" v="Kammyra" />
		<tag k="natural" v="wetland" />
		<tag k="ssr:stedsnr" v="702424" />
	</node>
	<node id="-592643" lat="62.9268250015" lon="7.32953610353">
		<tag k="name" v="Stormyra" />
		<tag k="natural" v="wetland" />
		<tag k="ssr:stedsnr" v="278472" />
	</node>
	<node id="-592784" lat="62.9232111153" lon="7.57462499819">
		<tag k="name" v="Otersteinan" />
		<tag k="natural" v="stone" />
		<tag k="ssr:stedsnr" v="399451" />
	</node>
	<node id="-593167" lat="62.8780111122" lon="7.44159722602">
		<tag k="name" v="Vollmyra" />
		<tag k="natural" v="wetland" />
		<tag k="ssr:stedsnr" v="460517" />
	</node>
	<node id="-593166" lat="62.8765694404" lon="7.4157222229">
		<tag k="name" v="Seterøya" />
		<tag k="natural" v="wetland" />
		<tag k="ssr:stedsnr" v="460514" />
	</node>
	<node id="-592898" lat="62.8864055514" lon="7.5374250084">
		<tag k="name" v="Vassmyra" />
		<tag k="natural" v="wetland" />
		<tag k="ssr:stedsnr" v="35739" />
	</node>
	<node id="-592778" lat="62.8951916696" lon="7.50890833801">
		<tag k="name" v="Raudmelan" />
		<tag k="natural" v="wetland" />
		<tag k="ssr:stedsnr" v="399434" />
	</node>
	<node id="-592649" lat="62.8829194485" lon="7.44949722817">
		<tag k="name" v="Tumyra" />
		<tag k="natural" v="wetland" />
		<tag k="ssr:stedsnr" v="278510" />
	</node>
	<node id="-592958" lat="62.9904944409" lon="7.27588888849">
		<tag k="name" v="Stormyra" />
		<tag k="natural" v="wetland" />
		<tag k="ssr:stedsnr" v="96452" />
	</node>
	<node id="-593411" lat="62.8959611134" lon="7.46131389638">
		<tag k="name" v="Sorsetmyran" />
		<tag k="natural" v="wetland" />
		<tag k="ssr:stedsnr" v="702299" />
	</node>
	<node id="-593282" lat="62.9123750034" lon="7.38173054688">
		<tag k="name" v="Storløkmyra" />
		<tag k="natural" v="wetland" />
		<tag k="ssr:stedsnr" v="581405" />
	</node>
	<node id="-593329" lat="62.8945916702" lon="7.36932221856">
		<tag k="name" v="Bjønnasteinen" />
		<tag k="natural" v="stone" />
		<tag k="ssr:stedsnr" v="641182" />
	</node>
</osm>
