<?xml version="1.0" encoding="UTF-8"?>
<osm generator="osmapis" version="0.6">
	<node id="-591863" lat="62.9505972268" lon="7.25789722799">
		<tag k="name" v="Grorsbotnen" />
		<tag k="natural" v="valley" />
		<tag k="place" v="locality" />
		<tag k="ssr:stedsnr" v="375965" />
	</node>
	<node id="-591844" lat="62.9369055558" lon="7.30267499469">
		<tag k="name" v="Søre Storhaugen" />
		<tag k="natural" v="hill" />
		<tag k="place" v="locality" />
		<tag k="ssr:stedsnr" v="341872" />
	</node>
	<node id="-591843" lat="62.8771388877" lon="7.52513611135">
		<tag k="name" v="Tverrlia" />
		<tag k="natural" v="slope" />
		<tag k="place" v="locality" />
		<tag k="ssr:stedsnr" v="338712" />
	</node>
	<node id="-591841" lat="62.9183027822" lon="7.56379444309">
		<tag k="name" v="Sørdalen" />
		<tag k="natural" v="valley" />
		<tag k="place" v="locality" />
		<tag k="ssr:stedsnr" v="338697" />
	</node>
	<node id="-591839" lat="62.916824999" lon="7.58542499367">
		<tag k="name" v="Sørlia" />
		<tag k="natural" v="slope" />
		<tag k="place" v="locality" />
		<tag k="ssr:stedsnr" v="338692" />
	</node>
	<node id="-591838" lat="62.9362249993" lon="7.41263610433">
		<tag k="name" v="Dødalen" />
		<tag k="natural" v="valley" />
		<tag k="place" v="locality" />
		<tag k="ssr:stedsnr" v="338397" />
	</node>
	<node id="-591837" lat="62.9366111136" lon="7.38834166543">
		<tag k="name" v="Litllia" />
		<tag k="natural" v="slope" />
		<tag k="place" v="locality" />
		<tag k="ssr:stedsnr" v="338393" />
	</node>
	<node id="-591836" lat="62.9583166686" lon="7.25744444635">
		<tag k="name" v="Skarvan" />
		<tag k="natural" v="ridge" />
		<tag k="place" v="locality" />
		<tag k="ssr:stedsnr" v="338372" />
	</node>
	<node id="-591833" lat="62.8792416644" lon="7.51352222014">
		<tag k="name" v="Trolldalshaugen" />
		<tag k="natural" v="hill" />
		<tag k="place" v="locality" />
		<tag k="ssr:stedsnr" v="338336" />
	</node>
	<node id="-591832" lat="62.9186138876" lon="7.37972499271">
		<tag k="name" v="Skredhola" />
		<tag k="natural" v="valley" />
		<tag k="place" v="locality" />
		<tag k="ssr:stedsnr" v="338307" />
	</node>
	<node id="-591831" lat="62.8832861132" lon="7.39334444446">
		<tag k="name" v="Skredskarhamran" />
		<tag k="natural" v="cliff" />
		<tag k="ssr:stedsnr" v="338260" />
	</node>
	<node id="-591830" lat="62.8873194486" lon="7.4831527736">
		<tag k="name" v="Trøbakken" />
		<tag k="natural" v="slope" />
		<tag k="place" v="locality" />
		<tag k="ssr:stedsnr" v="338258" />
	</node>
	<node id="-591828" lat="62.8737277803" lon="7.44391666142">
		<tag k="name" v="Seterberget" />
		<tag k="natural" v="cliff" />
		<tag k="ssr:stedsnr" v="338251" />
	</node>
	<node id="-591826" lat="62.9938694471" lon="7.25436944543">
		<tag k="name" v="Kvilarberget" />
		<tag k="natural" v="hill" />
		<tag k="place" v="locality" />
		<tag k="ssr:stedsnr" v="338243" />
	</node>
	<node id="-591825" lat="63.0092638849" lon="7.30105555167">
		<tag k="name" v="Rullarsteinhågen" />
		<tag k="natural" v="hill" />
		<tag k="place" v="locality" />
		<tag k="ssr:stedsnr" v="338241" />
	</node>
	<node id="-591816" lat="62.8968083294" lon="7.31974443813">
		<tag k="name" v="Hældalshammaren" />
		<tag k="place" v="locality" />
		<tag k="ssr:stedsnr" v="338182" />
	</node>
	<node id="-591811" lat="62.8716888921" lon="7.49337778293">
		<tag k="fixme" v="consider natural=peak for the most distinct mountains in the district" />
		<tag k="name" v="Nordtussen" />
		<tag k="natural" v="hill" />
		<tag k="place" v="locality" />
		<tag k="ssr:stedsnr" v="324857" />
	</node>
	<node id="-591807" lat="62.9382055529" lon="7.27303888963">
		<tag k="name" v="Bakdalen" />
		<tag k="natural" v="valley" />
		<tag k="place" v="locality" />
		<tag k="ssr:stedsnr" v="315989" />
	</node>
	<node id="-591806" lat="62.9583916701" lon="7.33621110829">
		<tag k="name" v="Skiftingsdalen" />
		<tag k="natural" v="valley" />
		<tag k="place" v="locality" />
		<tag k="ssr:stedsnr" v="315952" />
	</node>
	<node id="-591798" lat="62.9285805559" lon="7.40328611071">
		<tag k="alt_name" v="Vardhågan" />
		<tag k="fixme" v="consider natural=peak for the most distinct mountains in the district" />
		<tag k="loc_name" v="Silsetfjellan" />
		<tag k="name" v="Silsetfjellet" />
		<tag k="natural" v="hill" />
		<tag k="place" v="locality" />
		<tag k="ssr:stedsnr" v="315483" />
	</node>
	<node id="-591790" lat="62.8613916646" lon="7.34182222763">
		<tag k="name" v="Nonshaugen" />
		<tag k="natural" v="hill" />
		<tag k="place" v="locality" />
		<tag k="ssr:stedsnr" v="315621" />
	</node>
	<node id="-591782" lat="62.8538472241" lon="7.41723333963">
		<tag k="name" v="Brungrøa" />
		<tag k="natural" v="slope" />
		<tag k="place" v="locality" />
		<tag k="ssr:stedsnr" v="278767" />
	</node>
	<node id="-591780" lat="62.8983805521" lon="7.51543888735">
		<tag k="name" v="Tudalen" />
		<tag k="natural" v="valley" />
		<tag k="place" v="locality" />
		<tag k="ssr:stedsnr" v="278739" />
	</node>
	<node id="-591779" lat="62.9028833335" lon="7.52980278177">
		<tag k="name" v="Kammen" />
		<tag k="natural" v="ridge" />
		<tag k="place" v="locality" />
		<tag k="ssr:stedsnr" v="278736" />
	</node>
	<node id="-591778" lat="62.9502361133" lon="7.38363888635">
		<tag k="name" v="Blåberga" />
		<tag k="natural" v="slope" />
		<tag k="place" v="locality" />
		<tag k="ssr:stedsnr" v="278532" />
	</node>
	<node id="-591777" lat="62.8921166659" lon="7.38319445284">
		<tag k="name" v="Ådalan" />
		<tag k="natural" v="valley" />
		<tag k="place" v="locality" />
		<tag k="ssr:stedsnr" v="278526" />
	</node>
	<node id="-591776" lat="62.8773833312" lon="7.44814166016">
		<tag k="name" v="Lauvhola" />
		<tag k="natural" v="valley" />
		<tag k="place" v="locality" />
		<tag k="ssr:stedsnr" v="278512" />
	</node>
	<node id="-591774" lat="62.877044443" lon="7.38868333506">
		<tag k="fixme" v="consider natural=peak for the most distinct mountains in the district" />
		<tag k="name" v="Reset" />
		<tag k="natural" v="hill" />
		<tag k="place" v="locality" />
		<tag k="ssr:stedsnr" v="278507" />
	</node>
	<node id="-591773" lat="62.878780558" lon="7.49039444921">
		<tag k="name" v="Hesthola" />
		<tag k="natural" v="valley" />
		<tag k="place" v="locality" />
		<tag k="ssr:stedsnr" v="278506" />
	</node>
	<node id="-591770" lat="62.9236527755" lon="7.36801667319">
		<tag k="name" v="Haugan" />
		<tag k="natural" v="hill" />
		<tag k="place" v="locality" />
		<tag k="ssr:stedsnr" v="278481" />
	</node>
	<node id="-591768" lat="62.9119583342" lon="7.6032888882">
		<tag k="name" v="Nebbdalen" />
		<tag k="natural" v="valley" />
		<tag k="place" v="locality" />
		<tag k="ssr:stedsnr" v="278463" />
	</node>
	<node id="-591763" lat="62.9388083323" lon="7.42822778243">
		<tag k="name" v="Djupådalen" />
		<tag k="natural" v="valley" />
		<tag k="place" v="locality" />
		<tag k="ssr:stedsnr" v="278405" />
	</node>
	<node id="-591762" lat="62.9551499972" lon="7.41409167289">
		<tag k="name" v="Brisshågen" />
		<tag k="natural" v="hill" />
		<tag k="place" v="locality" />
		<tag k="ssr:stedsnr" v="277333" />
	</node>
	<node id="-591761" lat="62.9310472181" lon="7.3779388986">
		<tag k="name" v="Stordalen" />
		<tag k="natural" v="valley" />
		<tag k="place" v="locality" />
		<tag k="ssr:stedsnr" v="277329" />
	</node>
	<node id="-591755" lat="62.8932250018" lon="7.48460277328">
		<tag k="name" v="Brannhamran" />
		<tag k="natural" v="cliff" />
		<tag k="ssr:stedsnr" v="277300" />
	</node>
	<node id="-591754" lat="62.8697972214" lon="7.39272222886">
		<tag k="name" v="Einsetdalen" />
		<tag k="natural" v="valley" />
		<tag k="place" v="locality" />
		<tag k="ssr:stedsnr" v="277284" />
	</node>
	<node id="-591753" lat="62.8749333289" lon="7.45374443503">
		<tag k="name" v="Øyhjellen" />
		<tag k="place" v="locality" />
		<tag k="ssr:stedsnr" v="277275" />
	</node>
	<node id="-591751" lat="62.987922219" lon="7.27624166111">
		<tag k="name" v="Harahågen" />
		<tag k="natural" v="hill" />
		<tag k="place" v="locality" />
		<tag k="ssr:stedsnr" v="277252" />
	</node>
	<node id="-591750" lat="62.9575611089" lon="7.34105556109">
		<tag k="name" v="Ørntollhammaren" />
		<tag k="natural" v="cliff" />
		<tag k="ssr:stedsnr" v="277248" />
	</node>
	<node id="-591749" lat="62.9690916706" lon="7.28099999455">
		<tag k="name" v="Slettbakkan" />
		<tag k="natural" v="slope" />
		<tag k="place" v="locality" />
		<tag k="ssr:stedsnr" v="277241" />
	</node>
	<node id="-591746" lat="62.9595750044" lon="7.308324994">
		<tag k="name" v="Gammelseterhågen" />
		<tag k="natural" v="hill" />
		<tag k="place" v="locality" />
		<tag k="ssr:stedsnr" v="277225" />
	</node>
	<node id="-591743" lat="62.8507305562" lon="7.34938056262">
		<tag k="name" v="Nyfonnskaret" />
		<tag k="natural" v="valley" />
		<tag k="place" v="locality" />
		<tag k="ssr:stedsnr" v="277214" />
	</node>
	<node id="-591741" lat="62.8811555577" lon="7.37491945191">
		<tag k="name" v="Tjørehjellen" />
		<tag k="place" v="locality" />
		<tag k="ssr:stedsnr" v="277209" />
	</node>
	<node id="-592767" lat="62.9184583332" lon="7.55359444042">
		<tag k="name" v="Kleivan" />
		<tag k="natural" v="slope" />
		<tag k="place" v="locality" />
		<tag k="ssr:stedsnr" v="945692" />
	</node>
	<node id="-592766" lat="62.9023361145" lon="7.5613499942">
		<tag k="name" v="Furuhola" />
		<tag k="natural" v="slope" />
		<tag k="place" v="locality" />
		<tag k="ssr:stedsnr" v="945686" />
	</node>
	<node id="-592764" lat="62.933394447" lon="7.41452221919">
		<tag k="name" v="Meaaksla" />
		<tag k="natural" v="ridge" />
		<tag k="place" v="locality" />
		<tag k="ssr:stedsnr" v="945405" />
	</node>
	<node id="-592763" lat="62.8789499962" lon="7.50147499598">
		<tag k="name" v="Grønlia" />
		<tag k="natural" v="slope" />
		<tag k="place" v="locality" />
		<tag k="ssr:stedsnr" v="945396" />
	</node>
	<node id="-592762" lat="62.956816666" lon="7.33045834248">
		<tag k="name" v="Varden" />
		<tag k="natural" v="hill" />
		<tag k="place" v="locality" />
		<tag k="ssr:stedsnr" v="945394" />
	</node>
	<node id="-592761" lat="62.9698694429" lon="7.3003138793">
		<tag k="name" v="Åsatua" />
		<tag k="natural" v="hill" />
		<tag k="place" v="locality" />
		<tag k="ssr:stedsnr" v="945393" />
	</node>
	<node id="-592759" lat="62.9342777783" lon="7.43205833275">
		<tag k="name" v="Tømmerhaugen" />
		<tag k="natural" v="hill" />
		<tag k="place" v="locality" />
		<tag k="ssr:stedsnr" v="945339" />
	</node>
	<node id="-592758" lat="62.9196166698" lon="7.38067499053">
		<tag k="name" v="Skreddalen" />
		<tag k="natural" v="valley" />
		<tag k="place" v="locality" />
		<tag k="ssr:stedsnr" v="945335" />
	</node>
	<node id="-592755" lat="62.883022222" lon="7.39274444295">
		<tag k="name" v="Skredskaret" />
		<tag k="natural" v="valley" />
		<tag k="place" v="locality" />
		<tag k="ssr:stedsnr" v="945292" />
	</node>
	<node id="-592744" lat="62.9555388891" lon="7.40168611499">
		<tag k="name" v="Ramsvikhågen" />
		<tag k="natural" v="hill" />
		<tag k="place" v="locality" />
		<tag k="ssr:stedsnr" v="944431" />
	</node>
	<node id="-592741" lat="62.9441444429" lon="7.4289972291">
		<tag k="name" v="Kronborghammaren" />
		<tag k="natural" v="cliff" />
		<tag k="ssr:stedsnr" v="944415" />
	</node>
	<node id="-592735" lat="62.8693305513" lon="7.35265833186">
		<tag k="name" v="Trolldalen" />
		<tag k="natural" v="valley" />
		<tag k="place" v="locality" />
		<tag k="ssr:stedsnr" v="923872" />
	</node>
	<node id="-592730" lat="62.8790527786" lon="7.53488332542">
		<tag k="fixme" v="consider natural=peak for the most distinct mountains in the district" />
		<tag k="name" v="Tverrliknausen" />
		<tag k="natural" v="hill" />
		<tag k="place" v="locality" />
		<tag k="ssr:stedsnr" v="922625" />
	</node>
	<node id="-592726" lat="62.8868722266" lon="7.57875000154">
		<tag k="fixme" v="consider natural=peak for the most distinct mountains in the district" />
		<tag k="name" v="Nebbhaugan" />
		<tag k="natural" v="hill" />
		<tag k="place" v="locality" />
		<tag k="ssr:stedsnr" v="922566" />
	</node>
	<node id="-592696" lat="62.8583027812" lon="7.44165000535">
		<tag k="name" v="Småheian" />
		<tag k="natural" v="ridge" />
		<tag k="place" v="locality" />
		<tag k="ssr:stedsnr" v="861650" />
	</node>
	<node id="-592694" lat="62.8913694445" lon="7.34408333553">
		<tag k="name" v="Gunnadalen" />
		<tag k="natural" v="valley" />
		<tag k="place" v="locality" />
		<tag k="ssr:stedsnr" v="861581" />
	</node>
	<node id="-592691" lat="62.9164361133" lon="7.58979999042">
		<tag k="name" v="Krekvikdalen" />
		<tag k="natural" v="valley" />
		<tag k="place" v="locality" />
		<tag k="ssr:stedsnr" v="861562" />
	</node>
	<node id="-592685" lat="62.9395777794" lon="7.39777777238">
		<tag k="fixme" v="consider natural=peak for the most distinct mountains in the district" />
		<tag k="name" v="Nonstua" />
		<tag k="natural" v="hill" />
		<tag k="place" v="locality" />
		<tag k="ssr:stedsnr" v="861499" />
	</node>
	<node id="-592677" lat="62.8705166636" lon="7.44248888237">
		<tag k="name" v="Storslåa" />
		<tag k="place" v="locality" />
		<tag k="ssr:stedsnr" v="824476" />
	</node>
	<node id="-592676" lat="62.8841027773" lon="7.45480833061">
		<tag k="name" v="Bythågen" />
		<tag k="natural" v="hill" />
		<tag k="place" v="locality" />
		<tag k="ssr:stedsnr" v="824473" />
	</node>
	<node id="-592672" lat="63.007036112" lon="7.28899721812">
		<tag k="name" v="Kvilaren" />
		<tag k="natural" v="hill" />
		<tag k="place" v="locality" />
		<tag k="ssr:stedsnr" v="824449" />
	</node>
	<node id="-592671" lat="62.8984499986" lon="7.3498944454">
		<tag k="name" v="Klaven" />
		<tag k="natural" v="valley" />
		<tag k="place" v="locality" />
		<tag k="ssr:stedsnr" v="824435" />
	</node>
	<node id="-592670" lat="62.94442222" lon="7.266038898">
		<tag k="name" v="Remman" />
		<tag k="natural" v="ridge" />
		<tag k="place" v="locality" />
		<tag k="ssr:stedsnr" v="824431" />
	</node>
	<node id="-592667" lat="62.9040416631" lon="7.5328777864">
		<tag k="name" v="Skulpelia" />
		<tag k="natural" v="slope" />
		<tag k="place" v="locality" />
		<tag k="ssr:stedsnr" v="824413" />
	</node>
	<node id="-592666" lat="62.9268194474" lon="7.38023056022">
		<tag k="name" v="Tverråsdalen" />
		<tag k="natural" v="valley" />
		<tag k="place" v="locality" />
		<tag k="ssr:stedsnr" v="824402" />
	</node>
	<node id="-592662" lat="62.8708833367" lon="7.42931110798">
		<tag k="name" v="Storhammaren" />
		<tag k="natural" v="cliff" />
		<tag k="ssr:stedsnr" v="824351" />
	</node>
	<node id="-592661" lat="63.0004416628" lon="7.29015278129">
		<tag k="name" v="Sveinhågen" />
		<tag k="natural" v="hill" />
		<tag k="place" v="locality" />
		<tag k="ssr:stedsnr" v="824336" />
	</node>
	<node id="-592660" lat="62.9990333325" lon="7.28781944077">
		<tag k="name" v="Grovavikkleiva" />
		<tag k="natural" v="slope" />
		<tag k="place" v="locality" />
		<tag k="ssr:stedsnr" v="824330" />
	</node>
	<node id="-592658" lat="62.9583277744" lon="7.35151388242">
		<tag k="name" v="Rismanndalen" />
		<tag k="natural" v="valley" />
		<tag k="place" v="locality" />
		<tag k="ssr:stedsnr" v="824319" />
	</node>
	<node id="-592657" lat="62.9707972258" lon="7.27991110248">
		<tag k="fixme" v="consider natural=peak for the most distinct mountains in the district" />
		<tag k="name" v="Sandblåståsan" />
		<tag k="natural" v="hill" />
		<tag k="place" v="locality" />
		<tag k="ssr:stedsnr" v="824307" />
	</node>
	<node id="-592653" lat="62.8516888854" lon="7.34932778614">
		<tag k="name" v="Svarthammaren" />
		<tag k="natural" v="cliff" />
		<tag k="ssr:stedsnr" v="824290" />
	</node>
	<node id="-592650" lat="62.8987666628" lon="7.43659999689">
		<tag k="name" v="Einsethågen" />
		<tag k="natural" v="hill" />
		<tag k="place" v="locality" />
		<tag k="ssr:stedsnr" v="823325" />
	</node>
	<node id="-592646" lat="62.9021583312" lon="7.53028611513">
		<tag k="fixme" v="consider natural=peak for the most distinct mountains in the district" />
		<tag k="name" v="Stortua" />
		<tag k="natural" v="hill" />
		<tag k="place" v="locality" />
		<tag k="ssr:stedsnr" v="801839" />
	</node>
	<node id="-592641" lat="62.9169055557" lon="7.56065556433">
		<tag k="name" v="Sørlia" />
		<tag k="natural" v="slope" />
		<tag k="place" v="locality" />
		<tag k="ssr:stedsnr" v="801521" />
	</node>
	<node id="-592639" lat="62.941077779" lon="7.32121389243">
		<tag k="alt_name" v="Bollihågen" />
		<tag k="name" v="Bollihaugen" />
		<tag k="natural" v="hill" />
		<tag k="place" v="locality" />
		<tag k="ssr:stedsnr" v="800997" />
	</node>
	<node id="-592637" lat="62.9561472245" lon="7.31784443853">
		<tag k="fixme" v="consider natural=peak for the most distinct mountains in the district" />
		<tag k="name" v="Lyngstadfjellet" />
		<tag k="natural" v="hill" />
		<tag k="place" v="locality" />
		<tag k="ssr:stedsnr" v="800958" />
	</node>
	<node id="-592634" lat="62.9075249973" lon="7.57733610628">
		<tag k="name" v="Durmålshaugen" />
		<tag k="natural" v="hill" />
		<tag k="place" v="locality" />
		<tag k="ssr:stedsnr" v="800572" />
	</node>
	<node id="-592633" lat="62.897588893" lon="7.33182777366">
		<tag k="alt_name" v="Snipen" />
		<tag k="fixme" v="consider natural=peak for the most distinct mountains in the district" />
		<tag k="name" v="Snipa" />
		<tag k="natural" v="hill" />
		<tag k="place" v="locality" />
		<tag k="ssr:stedsnr" v="800561" />
	</node>
	<node id="-592622" lat="62.8994916645" lon="7.57266666825">
		<tag k="name" v="Storheia" />
		<tag k="natural" v="hill" />
		<tag k="place" v="locality" />
		<tag k="ssr:stedsnr" v="763742" />
	</node>
	<node id="-592619" lat="62.888919441" lon="7.51477777329">
		<tag k="name" v="Seterlia" />
		<tag k="natural" v="slope" />
		<tag k="place" v="locality" />
		<tag k="ssr:stedsnr" v="763706" />
	</node>
	<node id="-592617" lat="62.938850004" lon="7.40431666134">
		<tag k="name" v="Gruva" />
		<tag k="natural" v="valley" />
		<tag k="place" v="locality" />
		<tag k="ssr:stedsnr" v="763492" />
	</node>
	<node id="-592616" lat="62.9411722185" lon="7.39232221769">
		<tag k="name" v="Steintua" />
		<tag k="natural" v="hill" />
		<tag k="place" v="locality" />
		<tag k="ssr:stedsnr" v="763493" />
	</node>
	<node id="-592615" lat="62.8778250021" lon="7.46369443993">
		<tag k="name" v="Øydalen" />
		<tag k="natural" v="valley" />
		<tag k="place" v="locality" />
		<tag k="ssr:stedsnr" v="763487" />
	</node>
	<node id="-592613" lat="62.9820944489" lon="7.31266111277">
		<tag k="name" v="Ørnhågen" />
		<tag k="natural" v="hill" />
		<tag k="place" v="locality" />
		<tag k="ssr:stedsnr" v="763454" />
	</node>
	<node id="-592612" lat="62.8653305556" lon="7.35696111639">
		<tag k="name" v="Kuhaugen" />
		<tag k="natural" v="hill" />
		<tag k="place" v="locality" />
		<tag k="ssr:stedsnr" v="763448" />
	</node>
	<node id="-592611" lat="62.8749722251" lon="7.33456945234">
		<tag k="name" v="Nonslia" />
		<tag k="natural" v="slope" />
		<tag k="place" v="locality" />
		<tag k="ssr:stedsnr" v="763447" />
	</node>
	<node id="-592610" lat="62.9273722235" lon="7.36493333518">
		<tag k="name" v="Kamman" />
		<tag k="natural" v="ridge" />
		<tag k="place" v="locality" />
		<tag k="ssr:stedsnr" v="763440" />
	</node>
	<node id="-592609" lat="62.9010277801" lon="7.60161944962">
		<tag k="name" v="Storsletta" />
		<tag k="place" v="locality" />
		<tag k="ssr:stedsnr" v="763427" />
	</node>
	<node id="-592607" lat="62.8601222223" lon="7.46125000236">
		<tag k="fixme" v="consider natural=peak for the most distinct mountains in the district" />
		<tag k="name" v="Småkutinden" />
		<tag k="natural" v="hill" />
		<tag k="place" v="locality" />
		<tag k="ssr:stedsnr" v="763419" />
	</node>
	<node id="-592605" lat="62.9012333374" lon="7.5111638795">
		<tag k="name" v="Middagsdalen" />
		<tag k="natural" v="valley" />
		<tag k="place" v="locality" />
		<tag k="ssr:stedsnr" v="763413" />
	</node>
	<node id="-592601" lat="62.9280305553" lon="7.4465555571">
		<tag k="name" v="Stortolla" />
		<tag k="place" v="locality" />
		<tag k="ssr:stedsnr" v="763401" />
	</node>
	<node id="-592600" lat="62.9243472255" lon="7.37948888363">
		<tag k="name" v="Svarthammaren" />
		<tag k="natural" v="slope" />
		<tag k="place" v="locality" />
		<tag k="ssr:stedsnr" v="763398" />
	</node>
	<node id="-592599" lat="62.9280861099" lon="7.43609999127">
		<tag k="name" v="Brannhågan" />
		<tag k="natural" v="hill" />
		<tag k="place" v="locality" />
		<tag k="ssr:stedsnr" v="763392" />
	</node>
	<node id="-592595" lat="62.8896305517" lon="7.48400556148">
		<tag k="name" v="Stomnbakkan" />
		<tag k="natural" v="slope" />
		<tag k="place" v="locality" />
		<tag k="ssr:stedsnr" v="763346" />
	</node>
	<node id="-592593" lat="62.8750888875" lon="7.43947222288">
		<tag k="name" v="Valborgdalen" />
		<tag k="natural" v="valley" />
		<tag k="place" v="locality" />
		<tag k="ssr:stedsnr" v="763336" />
	</node>
	<node id="-592591" lat="62.8770722188" lon="7.48168055706">
		<tag k="name" v="Salknappen" />
		<tag k="natural" v="hill" />
		<tag k="place" v="locality" />
		<tag k="ssr:stedsnr" v="763328" />
	</node>
	<node id="-592588" lat="62.9595138878" lon="7.34918333922">
		<tag k="name" v="Åbitslætta" />
		<tag k="natural" v="slope" />
		<tag k="place" v="locality" />
		<tag k="ssr:stedsnr" v="763300" />
	</node>
	<node id="-592587" lat="62.9611527745" lon="7.32594722754">
		<tag k="name" v="Øygardshågen" />
		<tag k="natural" v="hill" />
		<tag k="place" v="locality" />
		<tag k="ssr:stedsnr" v="763291" />
	</node>
	<node id="-592586" lat="62.94604722" lon="7.29574444146">
		<tag k="name" v="Skarhaugane" />
		<tag k="natural" v="ridge" />
		<tag k="place" v="locality" />
		<tag k="ssr:stedsnr" v="763282" />
	</node>
	<node id="-592585" lat="62.938474997" lon="7.29362222175">
		<tag k="name" v="Storgrøfsen" />
		<tag k="natural" v="valley" />
		<tag k="place" v="locality" />
		<tag k="ssr:stedsnr" v="763279" />
	</node>
	<node id="-592584" lat="62.8967944405" lon="7.32877222713">
		<tag k="name" v="Sørhældalsskaret" />
		<tag k="natural" v="valley" />
		<tag k="place" v="locality" />
		<tag k="ssr:stedsnr" v="763252" />
	</node>
	<node id="-592581" lat="62.9006944435" lon="7.34389443826">
		<tag k="name" v="Ramsgrøhammaren" />
		<tag k="place" v="locality" />
		<tag k="ssr:stedsnr" v="763240" />
	</node>
	<node id="-592570" lat="62.8690333366" lon="7.44102222061">
		<tag k="name" v="Vasskordalen" />
		<tag k="natural" v="valley" />
		<tag k="place" v="locality" />
		<tag k="ssr:stedsnr" v="740611" />
	</node>
	<node id="-592568" lat="62.9146309294" lon="7.57581371209">
		<tag k="fixme" v="consider natural=peak for the most distinct mountains in the district" />
		<tag k="name" v="Galten" />
		<tag k="natural" v="hill" />
		<tag k="place" v="locality" />
		<tag k="ssr:stedsnr" v="740572" />
	</node>
	<node id="-592562" lat="62.9519583354" lon="7.32419722094">
		<tag k="name" v="Aksllia" />
		<tag k="natural" v="slope" />
		<tag k="place" v="locality" />
		<tag k="ssr:stedsnr" v="739962" />
	</node>
	<node id="-592558" lat="62.9001444489" lon="7.3058222263">
		<tag k="fixme" v="consider natural=peak for the most distinct mountains in the district" />
		<tag k="name" v="Hælen" />
		<tag k="natural" v="hill" />
		<tag k="place" v="locality" />
		<tag k="ssr:stedsnr" v="739572" />
	</node>
	<node id="-592557" lat="62.9269638898" lon="7.38440277868">
		<tag k="fixme" v="consider natural=peak for the most distinct mountains in the district" />
		<tag k="name" v="Kropptua" />
		<tag k="natural" v="hill" />
		<tag k="place" v="locality" />
		<tag k="ssr:stedsnr" v="739553" />
	</node>
	<node id="-592546" lat="62.9624972264" lon="7.37925555221">
		<tag k="name" v="Sjåhågen" />
		<tag k="natural" v="hill" />
		<tag k="place" v="locality" />
		<tag k="ssr:stedsnr" v="702440" />
	</node>
	<node id="-592543" lat="62.8790083345" lon="7.4743083418">
		<tag k="name" v="Øylia" />
		<tag k="natural" v="slope" />
		<tag k="place" v="locality" />
		<tag k="ssr:stedsnr" v="702412" />
	</node>
	<node id="-592541" lat="62.9648083333" lon="7.3040305493">
		<tag k="name" v="Tverrlia" />
		<tag k="natural" v="slope" />
		<tag k="place" v="locality" />
		<tag k="ssr:stedsnr" v="702407" />
	</node>
	<node id="-592539" lat="62.8825555525" lon="7.32625832677">
		<tag k="name" v="Slettan" />
		<tag k="natural" v="slope" />
		<tag k="place" v="locality" />
		<tag k="ssr:stedsnr" v="702388" />
	</node>
	<node id="-592538" lat="62.9514611088" lon="7.24738332723">
		<tag k="name" v="Svaberga" />
		<tag k="place" v="locality" />
		<tag k="ssr:stedsnr" v="702385" />
	</node>
	<node id="-592537" lat="62.8570166669" lon="7.44616943822">
		<tag k="name" v="Trolldalsnakken" />
		<tag k="natural" v="ridge" />
		<tag k="place" v="locality" />
		<tag k="ssr:stedsnr" v="702383" />
	</node>
	<node id="-592535" lat="62.9069666682" lon="7.57301666809">
		<tag k="name" v="Lessarplass" />
		<tag k="place" v="locality" />
		<tag k="ssr:stedsnr" v="702366" />
	</node>
	<node id="-592534" lat="62.8841916704" lon="7.5469777872">
		<tag k="name" v="Mossahaugen" />
		<tag k="natural" v="hill" />
		<tag k="place" v="locality" />
		<tag k="ssr:stedsnr" v="702359" />
	</node>
	<node id="-592531" lat="62.9185416677" lon="7.44727499574">
		<tag k="name" v="Lauvhågen" />
		<tag k="natural" v="hill" />
		<tag k="place" v="locality" />
		<tag k="ssr:stedsnr" v="702343" />
	</node>
	<node id="-592530" lat="62.9304472224" lon="7.40473610594">
		<tag k="name" v="Storvardhågen" />
		<tag k="natural" v="hill" />
		<tag k="place" v="locality" />
		<tag k="ssr:stedsnr" v="702328" />
	</node>
	<node id="-592527" lat="62.8727888857" lon="7.39973333192">
		<tag k="name" v="Nybuslættet" />
		<tag k="natural" v="slope" />
		<tag k="place" v="locality" />
		<tag k="ssr:stedsnr" v="702276" />
	</node>
	<node id="-592521" lat="63.0011944432" lon="7.26509722177">
		<tag k="name" v="Myrbærhågen" />
		<tag k="natural" v="hill" />
		<tag k="place" v="locality" />
		<tag k="ssr:stedsnr" v="702261" />
	</node>
	<node id="-592518" lat="62.9677527791" lon="7.33836389176">
		<tag k="name" v="Hjellhågen" />
		<tag k="natural" v="hill" />
		<tag k="place" v="locality" />
		<tag k="ssr:stedsnr" v="702246" />
	</node>
	<node id="-592517" lat="62.9681249996" lon="7.28614443485">
		<tag k="name" v="Seterhågen" />
		<tag k="natural" v="hill" />
		<tag k="place" v="locality" />
		<tag k="ssr:stedsnr" v="702244" />
	</node>
	<node id="-592516" lat="62.962758332" lon="7.29860833759">
		<tag k="name" v="Ytter Tverrlihågen" />
		<tag k="natural" v="hill" />
		<tag k="place" v="locality" />
		<tag k="ssr:stedsnr" v="702240" />
	</node>
	<node id="-592515" lat="62.9430361081" lon="7.25419443501">
		<tag k="name" v="Kjerkhamran" />
		<tag k="natural" v="cliff" />
		<tag k="ssr:stedsnr" v="702230" />
	</node>
	<node id="-592513" lat="62.928783334" lon="7.26947221971">
		<tag k="name" v="Grønfjellet" />
		<tag k="natural" v="slope" />
		<tag k="place" v="locality" />
		<tag k="ssr:stedsnr" v="702201" />
	</node>
	<node id="-592509" lat="62.8739277778" lon="7.54430277688">
		<tag k="fixme" v="consider natural=peak for the most distinct mountains in the district" />
		<tag k="name" v="Vassfjellet" />
		<tag k="natural" v="hill" />
		<tag k="place" v="locality" />
		<tag k="ssr:stedsnr" v="688865" />
	</node>
	<node id="-592499" lat="62.887650003" lon="7.541416662">
		<tag k="name" v="Storvasshaugen" />
		<tag k="natural" v="hill" />
		<tag k="place" v="locality" />
		<tag k="ssr:stedsnr" v="679555" />
	</node>
	<node id="-592494" lat="62.9294805591" lon="7.42760277071">
		<tag k="fixme" v="consider natural=peak for the most distinct mountains in the district" />
		<tag k="name" v="Litltua" />
		<tag k="natural" v="hill" />
		<tag k="place" v="locality" />
		<tag k="ssr:stedsnr" v="679506" />
	</node>
	<node id="-592492" lat="62.9394111081" lon="7.41568054968">
		<tag k="name" v="Knoken" />
		<tag k="natural" v="hill" />
		<tag k="place" v="locality" />
		<tag k="ssr:stedsnr" v="679486" />
	</node>
	<node id="-592490" lat="62.9329111101" lon="7.30794721728">
		<tag k="name" v="Torelidalen" />
		<tag k="natural" v="valley" />
		<tag k="place" v="locality" />
		<tag k="ssr:stedsnr" v="679463" />
	</node>
	<node id="-592487" lat="62.94102222" lon="7.27434999781">
		<tag k="name" v="Fosslia" />
		<tag k="natural" v="slope" />
		<tag k="place" v="locality" />
		<tag k="ssr:stedsnr" v="678990" />
	</node>
	<node id="-592475" lat="62.9420777793" lon="7.41921667608">
		<tag k="name" v="Aksla" />
		<tag k="natural" v="ridge" />
		<tag k="place" v="locality" />
		<tag k="ssr:stedsnr" v="641404" />
	</node>
	<node id="-592474" lat="63.0008749999" lon="7.28005278102">
		<tag k="name" v="Råhågen" />
		<tag k="natural" v="hill" />
		<tag k="place" v="locality" />
		<tag k="ssr:stedsnr" v="641401" />
	</node>
	<node id="-592473" lat="62.8730388871" lon="7.44950000723">
		<tag k="name" v="Råa" />
		<tag k="natural" v="valley" />
		<tag k="place" v="locality" />
		<tag k="ssr:stedsnr" v="641399" />
	</node>
	<node id="-592472" lat="62.9726333344" lon="7.3360611131">
		<tag k="name" v="Ørnhågen" />
		<tag k="natural" v="hill" />
		<tag k="place" v="locality" />
		<tag k="ssr:stedsnr" v="641386" />
	</node>
	<node id="-592471" lat="62.9706777782" lon="7.33612778496">
		<tag k="name" v="Kleiva" />
		<tag k="natural" v="slope" />
		<tag k="place" v="locality" />
		<tag k="ssr:stedsnr" v="641385" />
	</node>
	<node id="-592470" lat="62.9903972216" lon="7.2885000052">
		<tag k="name" v="Småhågan" />
		<tag k="natural" v="hill" />
		<tag k="place" v="locality" />
		<tag k="ssr:stedsnr" v="641373" />
	</node>
	<node id="-592469" lat="62.8630611074" lon="7.46235834232">
		<tag k="fixme" v="consider natural=peak for the most distinct mountains in the district" />
		<tag k="name" v="Midtpiken" />
		<tag k="natural" v="hill" />
		<tag k="place" v="locality" />
		<tag k="ssr:stedsnr" v="641364" />
	</node>
	<node id="-592468" lat="62.8626888921" lon="7.43007777857">
		<tag k="name" v="Setermannen" />
		<tag k="natural" v="hill" />
		<tag k="place" v="locality" />
		<tag k="ssr:stedsnr" v="641341" />
	</node>
	<node id="-592461" lat="62.8964833326" lon="7.48088333019">
		<tag k="name" v="Sorsetlia" />
		<tag k="natural" v="slope" />
		<tag k="place" v="locality" />
		<tag k="ssr:stedsnr" v="641282" />
	</node>
	<node id="-592459" lat="62.9015027787" lon="7.46603610531">
		<tag k="name" v="Nausthågen" />
		<tag k="natural" v="hill" />
		<tag k="place" v="locality" />
		<tag k="ssr:stedsnr" v="641274" />
	</node>
	<node id="-592457" lat="62.8671416686" lon="7.4068583254">
		<tag k="name" v="Surendalsnakken" />
		<tag k="natural" v="ridge" />
		<tag k="place" v="locality" />
		<tag k="ssr:stedsnr" v="641265" />
	</node>
	<node id="-592456" lat="62.8733388908" lon="7.39488055936">
		<tag k="name" v="Revurhågen" />
		<tag k="natural" v="hill" />
		<tag k="place" v="locality" />
		<tag k="ssr:stedsnr" v="641261" />
	</node>
	<node id="-592455" lat="62.8750527795" lon="7.46091389194">
		<tag k="name" v="Ørnhammaren" />
		<tag k="natural" v="cliff" />
		<tag k="ssr:stedsnr" v="641252" />
	</node>
	<node id="-592452" lat="62.9246166685" lon="7.36859167053">
		<tag k="name" v="Sør-Seterdalen" />
		<tag k="natural" v="valley" />
		<tag k="place" v="locality" />
		<tag k="ssr:stedsnr" v="641212" />
	</node>
	<node id="-592451" lat="62.9298083327" lon="7.37551943605">
		<tag k="name" v="Stordalshamrane" />
		<tag k="natural" v="cliff" />
		<tag k="ssr:stedsnr" v="641213" />
	</node>
	<node id="-592448" lat="62.9009499972" lon="7.36261111365">
		<tag k="name" v="Langneslia" />
		<tag k="natural" v="slope" />
		<tag k="place" v="locality" />
		<tag k="ssr:stedsnr" v="641185" />
	</node>
	<node id="-592445" lat="62.9279055533" lon="7.29835000164">
		<tag k="name" v="Brendtbakken" />
		<tag k="natural" v="slope" />
		<tag k="place" v="locality" />
		<tag k="ssr:stedsnr" v="641176" />
	</node>
	<node id="-592440" lat="62.9520999966" lon="7.26676111583">
		<tag k="name" v="Grønlia" />
		<tag k="natural" v="slope" />
		<tag k="place" v="locality" />
		<tag k="ssr:stedsnr" v="627641" />
	</node>
	<node id="-592430" lat="62.9028361095" lon="7.54355555776">
		<tag k="name" v="Herkedalen" />
		<tag k="natural" v="valley" />
		<tag k="place" v="locality" />
		<tag k="ssr:stedsnr" v="618585" />
	</node>
	<node id="-592424" lat="62.8960861134" lon="7.53348332783">
		<tag k="name" v="Småliene" />
		<tag k="natural" v="slope" />
		<tag k="place" v="locality" />
		<tag k="ssr:stedsnr" v="581729" />
	</node>
	<node id="-592423" lat="62.9411305569" lon="7.37784443461">
		<tag k="name" v="Sneret" />
		<tag k="natural" v="slope" />
		<tag k="place" v="locality" />
		<tag k="ssr:stedsnr" v="581513" />
	</node>
	<node id="-592422" lat="62.9214083377" lon="7.44903332575">
		<tag k="name" v="Buhågen" />
		<tag k="natural" v="hill" />
		<tag k="place" v="locality" />
		<tag k="ssr:stedsnr" v="581504" />
	</node>
	<node id="-592421" lat="62.8833500005" lon="7.4769250078">
		<tag k="name" v="Kammen" />
		<tag k="natural" v="ridge" />
		<tag k="place" v="locality" />
		<tag k="ssr:stedsnr" v="581495" />
	</node>
	<node id="-592419" lat="62.8676361155" lon="7.49605832806">
		<tag k="name" v="Tussdøra" />
		<tag k="place" v="locality" />
		<tag k="ssr:stedsnr" v="581487" />
	</node>
	<node id="-592418" lat="62.8813694443" lon="7.48296388841">
		<tag k="name" v="Sneret" />
		<tag k="natural" v="slope" />
		<tag k="place" v="locality" />
		<tag k="ssr:stedsnr" v="581486" />
	</node>
	<node id="-592417" lat="62.969794447" lon="7.29641389264">
		<tag k="name" v="Dyrstien" />
		<tag k="natural" v="slope" />
		<tag k="place" v="locality" />
		<tag k="ssr:stedsnr" v="581484" />
	</node>
	<node id="-592410" lat="62.8583611069" lon="7.44488889192">
		<tag k="name" v="Hansdalen" />
		<tag k="natural" v="valley" />
		<tag k="place" v="locality" />
		<tag k="ssr:stedsnr" v="581454" />
	</node>
	<node id="-592409" lat="62.8642250026" lon="7.36411111117">
		<tag k="name" v="Knubban" />
		<tag k="natural" v="hill" />
		<tag k="place" v="locality" />
		<tag k="ssr:stedsnr" v="581455" />
	</node>
	<node id="-592406" lat="62.9261138924" lon="7.28599443853">
		<tag k="name" v="Bakkelia" />
		<tag k="natural" v="slope" />
		<tag k="place" v="locality" />
		<tag k="ssr:stedsnr" v="581441" />
	</node>
	<node id="-592403" lat="62.8994555554" lon="7.54445833353">
		<tag k="name" v="Brandhauglia" />
		<tag k="natural" v="slope" />
		<tag k="place" v="locality" />
		<tag k="ssr:stedsnr" v="581418" />
	</node>
	<node id="-592401" lat="62.9167111122" lon="7.39205278275">
		<tag k="name" v="Bjønnahågen" />
		<tag k="natural" v="hill" />
		<tag k="place" v="locality" />
		<tag k="ssr:stedsnr" v="581408" />
	</node>
	<node id="-592398" lat="62.9479527741" lon="7.37828054677">
		<tag k="name" v="Skildrihamran" />
		<tag k="natural" v="cliff" />
		<tag k="ssr:stedsnr" v="580291" />
	</node>
	<node id="-592397" lat="62.9460666665" lon="7.39412499956">
		<tag k="name" v="Almlidalen" />
		<tag k="natural" v="valley" />
		<tag k="place" v="locality" />
		<tag k="ssr:stedsnr" v="580287" />
	</node>
	<node id="-592394" lat="62.9646083316" lon="7.37595000615">
		<tag k="name" v="Nausthågen" />
		<tag k="natural" v="hill" />
		<tag k="place" v="locality" />
		<tag k="ssr:stedsnr" v="580276" />
	</node>
	<node id="-592391" lat="62.8762638855" lon="7.39377778508">
		<tag k="name" v="Mosahågen" />
		<tag k="natural" v="hill" />
		<tag k="place" v="locality" />
		<tag k="ssr:stedsnr" v="580257" />
	</node>
	<node id="-592390" lat="62.8860861113" lon="7.38589721987">
		<tag k="name" v="Bollhågan" />
		<tag k="natural" v="hill" />
		<tag k="place" v="locality" />
		<tag k="ssr:stedsnr" v="580255" />
	</node>
	<node id="-592389" lat="62.8812777797" lon="7.45517221353">
		<tag k="name" v="Langhågen" />
		<tag k="natural" v="hill" />
		<tag k="place" v="locality" />
		<tag k="ssr:stedsnr" v="580251" />
	</node>
	<node id="-592384" lat="62.9488166699" lon="7.32257222223">
		<tag k="name" v="Storteigen" />
		<tag k="natural" v="slope" />
		<tag k="place" v="locality" />
		<tag k="ssr:stedsnr" v="580214" />
	</node>
	<node id="-592383" lat="62.938313885" lon="7.28581110959">
		<tag k="name" v="Torvhammaren" />
		<tag k="natural" v="cliff" />
		<tag k="ssr:stedsnr" v="580211" />
	</node>
	<node id="-592377" lat="62.964816667" lon="7.29306665905">
		<tag k="fixme" v="consider natural=peak for the most distinct mountains in the district" />
		<tag k="name" v="Haukåsen" />
		<tag k="natural" v="hill" />
		<tag k="place" v="locality" />
		<tag k="ssr:stedsnr" v="558870" />
	</node>
	<node id="-592372" lat="62.9556694441" lon="7.36684999917">
		<tag k="fixme" v="consider natural=peak for the most distinct mountains in the district" />
		<tag k="name" v="Helgåsen" />
		<tag k="natural" v="hill" />
		<tag k="place" v="locality" />
		<tag k="ssr:stedsnr" v="557947" />
	</node>
	<node id="-592371" lat="62.8648694411" lon="7.51160833976">
		<tag k="fixme" v="consider natural=peak for the most distinct mountains in the district" />
		<tag k="name" v="Snøtinden" />
		<tag k="natural" v="hill" />
		<tag k="place" v="locality" />
		<tag k="ssr:stedsnr" v="557637" />
	</node>
	<node id="-592370" lat="62.8778472181" lon="7.40783334107">
		<tag k="name" v="Einsetdalen" />
		<tag k="natural" v="valley" />
		<tag k="place" v="locality" />
		<tag k="ssr:stedsnr" v="557604" />
	</node>
	<node id="-592369" lat="62.8696027824" lon="7.41307500571">
		<tag k="name" v="Finnseterdalen" />
		<tag k="natural" v="valley" />
		<tag k="place" v="locality" />
		<tag k="ssr:stedsnr" v="557580" />
	</node>
	<node id="-592355" lat="62.9363888901" lon="7.30063611709">
		<tag k="name" v="Høgskardet" />
		<tag k="natural" v="valley" />
		<tag k="place" v="locality" />
		<tag k="ssr:stedsnr" v="524818" />
	</node>
	<node id="-592354" lat="62.8586027752" lon="7.43699722715">
		<tag k="name" v="Steintua" />
		<tag k="natural" v="hill" />
		<tag k="place" v="locality" />
		<tag k="ssr:stedsnr" v="520752" />
	</node>
	<node id="-592353" lat="62.8574972235" lon="7.42987778138">
		<tag k="name" v="Tudalen" />
		<tag k="natural" v="valley" />
		<tag k="place" v="locality" />
		<tag k="ssr:stedsnr" v="520751" />
	</node>
	<node id="-592352" lat="62.9260222258" lon="7.412286119">
		<tag k="name" v="Guriheia" />
		<tag k="natural" v="slope" />
		<tag k="place" v="locality" />
		<tag k="ssr:stedsnr" v="520738" />
	</node>
	<node id="-592348" lat="62.8840027805" lon="7.39041110591">
		<tag k="name" v="Åsen" />
		<tag k="natural" v="hill" />
		<tag k="place" v="locality" />
		<tag k="ssr:stedsnr" v="520444" />
	</node>
	<node id="-592346" lat="63.0098138849" lon="7.28140834065">
		<tag k="name" v="Klakken" />
		<tag k="natural" v="hill" />
		<tag k="place" v="locality" />
		<tag k="ssr:stedsnr" v="520432" />
	</node>
	<node id="-592345" lat="62.9862277802" lon="7.29824443837">
		<tag k="name" v="Remman" />
		<tag k="natural" v="ridge" />
		<tag k="place" v="locality" />
		<tag k="ssr:stedsnr" v="520427" />
	</node>
	<node id="-592344" lat="62.9649138898" lon="7.36495832513">
		<tag k="name" v="Bythågen" />
		<tag k="natural" v="hill" />
		<tag k="place" v="locality" />
		<tag k="ssr:stedsnr" v="520423" />
	</node>
	<node id="-592341" lat="62.9198611147" lon="7.29792222802">
		<tag k="name" v="Reina" />
		<tag k="natural" v="slope" />
		<tag k="place" v="locality" />
		<tag k="ssr:stedsnr" v="520407" />
	</node>
	<node id="-592340" lat="62.9163861128" lon="7.60864166311">
		<tag k="name" v="Nebbhaugen" />
		<tag k="natural" v="ridge" />
		<tag k="place" v="locality" />
		<tag k="ssr:stedsnr" v="520404" />
	</node>
	<node id="-592339" lat="62.8985611126" lon="7.56713889568">
		<tag k="name" v="Ørnhaugen" />
		<tag k="natural" v="hill" />
		<tag k="place" v="locality" />
		<tag k="ssr:stedsnr" v="520402" />
	</node>
	<node id="-592338" lat="62.9063083313" lon="7.58918889445">
		<tag k="name" v="Galtvassryggen" />
		<tag k="natural" v="ridge" />
		<tag k="place" v="locality" />
		<tag k="ssr:stedsnr" v="520398" />
	</node>
	<node id="-592331" lat="62.878377778" lon="7.41507222578">
		<tag k="name" v="Frantsbuvollen" />
		<tag k="place" v="locality" />
		<tag k="ssr:stedsnr" v="520320" />
	</node>
	<node id="-592328" lat="62.9692555532" lon="7.34400555033">
		<tag k="name" v="Kvennhushågen" />
		<tag k="natural" v="hill" />
		<tag k="place" v="locality" />
		<tag k="ssr:stedsnr" v="520272" />
	</node>
	<node id="-592327" lat="62.9679027778" lon="7.33218610257">
		<tag k="name" v="Blomhågen" />
		<tag k="natural" v="hill" />
		<tag k="place" v="locality" />
		<tag k="ssr:stedsnr" v="520270" />
	</node>
	<node id="-592326" lat="62.9464444413" lon="7.30780555567">
		<tag k="name" v="Tjørepallen" />
		<tag k="place" v="locality" />
		<tag k="ssr:stedsnr" v="520244" />
	</node>
	<node id="-592322" lat="62.9475722198" lon="7.24692500001">
		<tag k="name" v="Litlmelen" />
		<tag k="natural" v="ridge" />
		<tag k="place" v="locality" />
		<tag k="ssr:stedsnr" v="520229" />
	</node>
	<node id="-592321" lat="62.8604972247" lon="7.36979999939">
		<tag k="name" v="Gullberga" />
		<tag k="natural" v="hill" />
		<tag k="place" v="locality" />
		<tag k="ssr:stedsnr" v="520215" />
	</node>
	<node id="-592320" lat="62.9275555543" lon="7.30545000093">
		<tag k="name" v="Torelihaugen" />
		<tag k="natural" v="hill" />
		<tag k="place" v="locality" />
		<tag k="ssr:stedsnr" v="520204" />
	</node>
	<node id="-592317" lat="62.9531916652" lon="7.38536944505">
		<tag k="name" v="Skotthågen" />
		<tag k="natural" v="hill" />
		<tag k="place" v="locality" />
		<tag k="ssr:stedsnr" v="519383" />
	</node>
	<node id="-592307" lat="62.8573611128" lon="7.41827499332">
		<tag k="fixme" v="consider natural=peak for the most distinct mountains in the district" />
		<tag k="name" v="Surndalsheia" />
		<tag k="natural" v="hill" />
		<tag k="place" v="locality" />
		<tag k="ssr:stedsnr" v="497647" />
	</node>
	<node id="-592306" lat="62.8563388877" lon="7.39537778157">
		<tag k="fixme" v="consider natural=peak for the most distinct mountains in the district" />
		<tag k="name" v="Heklatindan" />
		<tag k="natural" v="hill" />
		<tag k="place" v="locality" />
		<tag k="ssr:stedsnr" v="497616" />
	</node>
	<node id="-592305" lat="62.8700111111" lon="7.51317778398">
		<tag k="name" v="Klokkhuset" />
		<tag k="natural" v="hill" />
		<tag k="place" v="locality" />
		<tag k="ssr:stedsnr" v="497605" />
	</node>
	<node id="-592303" lat="62.9262722253" lon="7.42480278428">
		<tag k="fixme" v="consider natural=peak for the most distinct mountains in the district" />
		<tag k="name" v="Stortua" />
		<tag k="natural" v="hill" />
		<tag k="place" v="locality" />
		<tag k="ssr:stedsnr" v="497523" />
	</node>
	<node id="-592295" lat="62.8957305579" lon="7.30017499333">
		<tag k="fixme" v="consider natural=peak for the most distinct mountains in the district" />
		<tag k="name" v="Sandnestindan" />
		<tag k="natural" v="hill" />
		<tag k="place" v="locality" />
		<tag k="ssr:stedsnr" v="496591" />
	</node>
	<node id="-592294" lat="62.8929250021" lon="7.32390833648">
		<tag k="fixme" v="consider natural=peak for the most distinct mountains in the district" />
		<tag k="name" v="Hældalstinden" />
		<tag k="natural" v="hill" />
		<tag k="place" v="locality" />
		<tag k="ssr:stedsnr" v="496584" />
	</node>
	<node id="-592291" lat="62.940119444" lon="7.31681388171">
		<tag k="name" v="Litlhaugen" />
		<tag k="natural" v="hill" />
		<tag k="place" v="locality" />
		<tag k="ssr:stedsnr" v="483815" />
	</node>
	<node id="-592290" lat="62.8620666694" lon="7.43679443553">
		<tag k="name" v="Ryggen" />
		<tag k="natural" v="ridge" />
		<tag k="place" v="locality" />
		<tag k="ssr:stedsnr" v="460773" />
	</node>
	<node id="-592289" lat="62.8952500008" lon="7.48151111584">
		<tag k="name" v="Ryggen" />
		<tag k="natural" v="ridge" />
		<tag k="place" v="locality" />
		<tag k="ssr:stedsnr" v="460536" />
	</node>
	<node id="-592288" lat="62.8906805562" lon="7.50068610845">
		<tag k="name" v="Døftlia" />
		<tag k="natural" v="slope" />
		<tag k="place" v="locality" />
		<tag k="ssr:stedsnr" v="460534" />
	</node>
	<node id="-592287" lat="62.9308361071" lon="7.42880278559">
		<tag k="name" v="Litltua" />
		<tag k="natural" v="hill" />
		<tag k="place" v="locality" />
		<tag k="ssr:stedsnr" v="460529" />
	</node>
	<node id="-592281" lat="62.9968361136" lon="7.26185278159">
		<tag k="name" v="Rishågen" />
		<tag k="natural" v="hill" />
		<tag k="place" v="locality" />
		<tag k="ssr:stedsnr" v="460492" />
	</node>
	<node id="-592280" lat="62.9096749996" lon="7.30697776956">
		<tag k="name" v="Seterlia" />
		<tag k="natural" v="slope" />
		<tag k="place" v="locality" />
		<tag k="ssr:stedsnr" v="460484" />
	</node>
	<node id="-592275" lat="62.8718861139" lon="7.38891667612">
		<tag k="name" v="Slåskaret" />
		<tag k="natural" v="valley" />
		<tag k="place" v="locality" />
		<tag k="ssr:stedsnr" v="460383" />
	</node>
	<node id="-592274" lat="62.8798250043" lon="7.3896694406">
		<tag k="name" v="Øver Gauphågen" />
		<tag k="natural" v="hill" />
		<tag k="place" v="locality" />
		<tag k="ssr:stedsnr" v="460381" />
	</node>
	<node id="-592271" lat="62.871005558" lon="7.46064721868">
		<tag k="name" v="Tussbakken" />
		<tag k="natural" v="slope" />
		<tag k="place" v="locality" />
		<tag k="ssr:stedsnr" v="460368" />
	</node>
	<node id="-592268" lat="62.909455558" lon="7.30167221563">
		<tag k="name" v="Steghaugen" />
		<tag k="natural" v="hill" />
		<tag k="place" v="locality" />
		<tag k="ssr:stedsnr" v="460271" />
	</node>
	<node id="-592261" lat="62.9651388926" lon="7.35278889319">
		<tag k="name" v="Hjellhågen" />
		<tag k="natural" v="hill" />
		<tag k="place" v="locality" />
		<tag k="ssr:stedsnr" v="459273" />
	</node>
	<node id="-592259" lat="62.9616833295" lon="7.2940361181">
		<tag k="name" v="Brenthågen" />
		<tag k="natural" v="hill" />
		<tag k="place" v="locality" />
		<tag k="ssr:stedsnr" v="459258" />
	</node>
	<node id="-592256" lat="62.8764361098" lon="7.37398333868">
		<tag k="name" v="Raudlihammaren" />
		<tag k="place" v="locality" />
		<tag k="ssr:stedsnr" v="459224" />
	</node>
	<node id="-592253" lat="62.9226916676" lon="7.41585832916">
		<tag k="name" v="Brannen" />
		<tag k="natural" v="ridge" />
		<tag k="place" v="locality" />
		<tag k="ssr:stedsnr" v="445655" />
	</node>
	<node id="-592251" lat="62.8822944407" lon="7.57690556331">
		<tag k="fixme" v="consider natural=peak for the most distinct mountains in the district" />
		<tag k="name" v="Storfjellet" />
		<tag k="natural" v="hill" />
		<tag k="place" v="locality" />
		<tag k="ssr:stedsnr" v="437835" />
	</node>
	<node id="-592249" lat="62.9486749995" lon="7.40203055938">
		<tag k="name" v="Bjerga" />
		<tag k="natural" v="hill" />
		<tag k="place" v="locality" />
		<tag k="ssr:stedsnr" v="436982" />
	</node>
	<node id="-592243" lat="62.8703333326" lon="7.5319944405">
		<tag k="fixme" v="consider natural=peak for the most distinct mountains in the district" />
		<tag k="name" v="Gongrøra" />
		<tag k="natural" v="hill" />
		<tag k="place" v="locality" />
		<tag k="ssr:stedsnr" v="436605" />
	</node>
	<node id="-592242" lat="62.9034166698" lon="7.29968888949">
		<tag k="name" v="Tjørndalen" />
		<tag k="natural" v="valley" />
		<tag k="place" v="locality" />
		<tag k="ssr:stedsnr" v="436572" />
	</node>
	<node id="-592223" lat="62.8542861151" lon="7.38002778114">
		<tag k="fixme" v="consider natural=peak for the most distinct mountains in the district" />
		<tag k="name" v="Trolldalsheia" />
		<tag k="natural" v="hill" />
		<tag k="place" v="locality" />
		<tag k="ssr:stedsnr" v="254615" />
	</node>
	<node id="-592222" lat="62.896669441" lon="7.50425277293">
		<tag k="fixme" v="consider natural=peak for the most distinct mountains in the district" />
		<tag k="name" v="Skarvan" />
		<tag k="natural" v="hill" />
		<tag k="place" v="locality" />
		<tag k="ssr:stedsnr" v="254599" />
	</node>
	<node id="-592214" lat="62.8628916657" lon="7.4510888802">
		<tag k="name" v="Småheian" />
		<tag k="natural" v="slope" />
		<tag k="place" v="locality" />
		<tag k="ssr:stedsnr" v="217729" />
	</node>
	<node id="-592212" lat="62.9204833335" lon="7.42498888324">
		<tag k="name" v="Øverslåa" />
		<tag k="place" v="locality" />
		<tag k="ssr:stedsnr" v="217700" />
	</node>
	<node id="-592211" lat="62.919033331" lon="7.42686945164">
		<tag k="name" v="Teigan" />
		<tag k="natural" v="slope" />
		<tag k="place" v="locality" />
		<tag k="ssr:stedsnr" v="217701" />
	</node>
	<node id="-592209" lat="62.8892555587" lon="7.56022499355">
		<tag k="name" v="Langslåa" />
		<tag k="place" v="locality" />
		<tag k="ssr:stedsnr" v="217698" />
	</node>
	<node id="-592207" lat="62.8935249996" lon="7.45633610289">
		<tag k="name" v="Ørntua" />
		<tag k="natural" v="hill" />
		<tag k="place" v="locality" />
		<tag k="ssr:stedsnr" v="217465" />
	</node>
	<node id="-592206" lat="62.939766663" lon="7.38161665766">
		<tag k="name" v="Heia" />
		<tag k="place" v="locality" />
		<tag k="ssr:stedsnr" v="217456" />
	</node>
	<node id="-592200" lat="62.8954861138" lon="7.5878666623">
		<tag k="name" v="Skredfjellet" />
		<tag k="natural" v="hill" />
		<tag k="place" v="locality" />
		<tag k="ssr:stedsnr" v="217401" />
	</node>
	<node id="-592199" lat="62.883188893" lon="7.57901388006">
		<tag k="name" v="Vardalsfjella" />
		<tag k="natural" v="hill" />
		<tag k="place" v="locality" />
		<tag k="ssr:stedsnr" v="217397" />
	</node>
	<node id="-592198" lat="62.914463892" lon="7.54113333576">
		<tag k="name" v="Sjåhaugen" />
		<tag k="natural" v="hill" />
		<tag k="place" v="locality" />
		<tag k="ssr:stedsnr" v="217393" />
	</node>
	<node id="-592196" lat="62.9049972265" lon="7.54846943691">
		<tag k="name" v="Skjorahaugen" />
		<tag k="natural" v="hill" />
		<tag k="place" v="locality" />
		<tag k="ssr:stedsnr" v="217379" />
	</node>
	<node id="-592195" lat="62.9260611134" lon="7.38200832515">
		<tag k="name" v="Tverråsen" />
		<tag k="natural" v="ridge" />
		<tag k="place" v="locality" />
		<tag k="ssr:stedsnr" v="217375" />
	</node>
	<node id="-592192" lat="62.8965138897" lon="7.4965166672">
		<tag k="name" v="Storhågen" />
		<tag k="natural" v="hill" />
		<tag k="place" v="locality" />
		<tag k="ssr:stedsnr" v="217341" />
	</node>
	<node id="-592189" lat="62.884069442" lon="7.45001110473">
		<tag k="name" v="Myrbakken" />
		<tag k="natural" v="slope" />
		<tag k="place" v="locality" />
		<tag k="ssr:stedsnr" v="217314" />
	</node>
	<node id="-592187" lat="62.9799111087" lon="7.28080832681">
		<tag k="name" v="Knarrashågen" />
		<tag k="natural" v="hill" />
		<tag k="place" v="locality" />
		<tag k="ssr:stedsnr" v="217300" />
	</node>
	<node id="-592186" lat="62.9914305584" lon="7.27283334284">
		<tag k="name" v="Mjølkstølhammaren" />
		<tag k="natural" v="hill" />
		<tag k="place" v="locality" />
		<tag k="ssr:stedsnr" v="217286" />
	</node>
	<node id="-592185" lat="62.9630361095" lon="7.33151665725">
		<tag k="name" v="Svarthammaren" />
		<tag k="natural" v="cliff" />
		<tag k="ssr:stedsnr" v="217282" />
	</node>
	<node id="-592180" lat="62.9001472205" lon="7.29316666987">
		<tag k="name" v="Gångrørhaue" />
		<tag k="natural" v="hill" />
		<tag k="place" v="locality" />
		<tag k="ssr:stedsnr" v="217244" />
	</node>
	<node id="-592179" lat="62.8649305582" lon="7.49959999786">
		<tag k="fixme" v="consider natural=peak for the most distinct mountains in the district" />
		<tag k="name" v="Stortussen" />
		<tag k="natural" v="hill" />
		<tag k="place" v="locality" />
		<tag k="ssr:stedsnr" v="203870" />
	</node>
	<node id="-592170" lat="62.8693527772" lon="7.52480833726">
		<tag k="alt_name" v="Kakhaugen" />
		<tag k="name" v="Kaka" />
		<tag k="natural" v="hill" />
		<tag k="place" v="locality" />
		<tag k="ssr:stedsnr" v="194580" />
	</node>
	<node id="-592169" lat="62.8714611126" lon="7.49423055085">
		<tag k="fixme" v="consider natural=peak for the most distinct mountains in the district" />
		<tag k="name" v="Salknappen" />
		<tag k="natural" v="hill" />
		<tag k="place" v="locality" />
		<tag k="ssr:stedsnr" v="194578" />
	</node>
	<node id="-592168" lat="62.879475001" lon="7.44672221869">
		<tag k="fixme" v="consider natural=peak for the most distinct mountains in the district" />
		<tag k="name" v="Øyfjellet" />
		<tag k="natural" v="hill" />
		<tag k="place" v="locality" />
		<tag k="ssr:stedsnr" v="194577" />
	</node>
	<node id="-592167" lat="62.8920416671" lon="7.51936111219">
		<tag k="fixme" v="consider natural=peak for the most distinct mountains in the district" />
		<tag k="name" v="Seterfjellet" />
		<tag k="natural" v="hill" />
		<tag k="place" v="locality" />
		<tag k="ssr:stedsnr" v="194556" />
	</node>
	<node id="-592154" lat="62.9359388928" lon="7.27998888532">
		<tag k="fixme" v="consider natural=peak for the most distinct mountains in the district" />
		<tag k="name" v="Bolliklumpen" />
		<tag k="natural" v="hill" />
		<tag k="place" v="locality" />
		<tag k="ssr:stedsnr" v="193521" />
	</node>
	<node id="-592153" lat="62.9291999992" lon="7.29957222966">
		<tag k="name" v="Mjølkberget" />
		<tag k="natural" v="hill" />
		<tag k="place" v="locality" />
		<tag k="ssr:stedsnr" v="193519" />
	</node>
	<node id="-592151" lat="62.8778388867" lon="7.55375555891">
		<tag k="name" v="Gråura" />
		<tag k="natural" v="slope" />
		<tag k="place" v="locality" />
		<tag k="ssr:stedsnr" v="156717" />
	</node>
	<node id="-592149" lat="62.9195472238" lon="7.42571110321">
		<tag k="name" v="Nerslåa" />
		<tag k="place" v="locality" />
		<tag k="ssr:stedsnr" v="156706" />
	</node>
	<node id="-592148" lat="62.8917583328" lon="7.50673056281">
		<tag k="name" v="Døftlia" />
		<tag k="natural" v="slope" />
		<tag k="place" v="locality" />
		<tag k="ssr:stedsnr" v="156699" />
	</node>
	<node id="-592147" lat="62.9066333301" lon="7.42040833442">
		<tag k="name" v="Ørnhågen" />
		<tag k="natural" v="hill" />
		<tag k="place" v="locality" />
		<tag k="ssr:stedsnr" v="156471" />
	</node>
	<node id="-592145" lat="62.9495305532" lon="7.38307222153">
		<tag k="name" v="Nakken" />
		<tag k="natural" v="ridge" />
		<tag k="place" v="locality" />
		<tag k="ssr:stedsnr" v="156466" />
	</node>
	<node id="-592144" lat="62.9403194467" lon="7.41411389536">
		<tag k="name" v="Skytten" />
		<tag k="natural" v="valley" />
		<tag k="place" v="locality" />
		<tag k="ssr:stedsnr" v="156462" />
	</node>
	<node id="-592141" lat="62.9187500003" lon="7.56745278131">
		<tag k="name" v="Storglenna" />
		<tag k="natural" v="slope" />
		<tag k="place" v="locality" />
		<tag k="ssr:stedsnr" v="156400" />
	</node>
	<node id="-592139" lat="62.853919448" lon="7.41135555215">
		<tag k="name" v="Surndalsskaret" />
		<tag k="natural" v="valley" />
		<tag k="place" v="locality" />
		<tag k="ssr:stedsnr" v="156386" />
	</node>
	<node id="-592138" lat="62.9148194454" lon="7.55554721832">
		<tag k="name" v="Ramnhamran" />
		<tag k="natural" v="cliff" />
		<tag k="ssr:stedsnr" v="156375" />
	</node>
	<node id="-592137" lat="62.9273583328" lon="7.44114445181">
		<tag k="name" v="Rønningslia" />
		<tag k="natural" v="slope" />
		<tag k="place" v="locality" />
		<tag k="ssr:stedsnr" v="156356" />
	</node>
	<node id="-592136" lat="62.916158334" lon="7.44237221424">
		<tag k="name" v="Eidsberget" />
		<tag k="natural" v="slope" />
		<tag k="place" v="locality" />
		<tag k="ssr:stedsnr" v="156350" />
	</node>
	<node id="-592135" lat="62.9328194453" lon="7.42761665816">
		<tag k="name" v="Silnesdalen" />
		<tag k="natural" v="valley" />
		<tag k="place" v="locality" />
		<tag k="ssr:stedsnr" v="156335" />
	</node>
	<node id="-592134" lat="62.9019194465" lon="7.42756667199">
		<tag k="name" v="Vågsbøhågen" />
		<tag k="natural" v="hill" />
		<tag k="place" v="locality" />
		<tag k="ssr:stedsnr" v="156325" />
	</node>
	<node id="-592132" lat="62.8993638861" lon="7.38302222954">
		<tag k="name" v="Storgadden" />
		<tag k="place" v="locality" />
		<tag k="ssr:stedsnr" v="156318" />
	</node>
	<node id="-592130" lat="62.8692694455" lon="7.38316944851">
		<tag k="name" v="Litlvassheia" />
		<tag k="place" v="locality" />
		<tag k="ssr:stedsnr" v="156298" />
	</node>
	<node id="-592126" lat="63.0032111136" lon="7.28967499519">
		<tag k="name" v="Haukarhågen" />
		<tag k="natural" v="hill" />
		<tag k="place" v="locality" />
		<tag k="ssr:stedsnr" v="156281" />
	</node>
	<node id="-592125" lat="62.995255559" lon="7.26719999559">
		<tag k="name" v="Hatlbrekkhågen" />
		<tag k="natural" v="hill" />
		<tag k="place" v="locality" />
		<tag k="ssr:stedsnr" v="156279" />
	</node>
	<node id="-592124" lat="62.9995055511" lon="7.26589444033">
		<tag k="name" v="Djupdalskaret" />
		<tag k="natural" v="valley" />
		<tag k="place" v="locality" />
		<tag k="ssr:stedsnr" v="156277" />
	</node>
	<node id="-592123" lat="62.980161109" lon="7.30521666801">
		<tag k="name" v="Buskhågen" />
		<tag k="natural" v="hill" />
		<tag k="place" v="locality" />
		<tag k="ssr:stedsnr" v="156273" />
	</node>
	<node id="-592122" lat="62.9786999977" lon="7.30174167551">
		<tag k="name" v="Storhammaren" />
		<tag k="natural" v="hill" />
		<tag k="place" v="locality" />
		<tag k="ssr:stedsnr" v="156270" />
	</node>
	<node id="-592118" lat="62.9595305557" lon="7.34545834227">
		<tag k="name" v="Storholten" />
		<tag k="natural" v="hill" />
		<tag k="place" v="locality" />
		<tag k="ssr:stedsnr" v="156253" />
	</node>
	<node id="-592115" lat="62.8545666688" lon="7.32485554599">
		<tag k="name" v="Storvarden" />
		<tag k="natural" v="hill" />
		<tag k="place" v="locality" />
		<tag k="ssr:stedsnr" v="156217" />
	</node>
	<node id="-592114" lat="62.8622277798" lon="7.35469167606">
		<tag k="name" v="Bjønnhaugen" />
		<tag k="natural" v="hill" />
		<tag k="place" v="locality" />
		<tag k="ssr:stedsnr" v="156204" />
	</node>
	<node id="-592112" lat="62.9317555527" lon="7.38419444158">
		<tag k="name" v="Tverråsen" />
		<tag k="natural" v="ridge" />
		<tag k="place" v="locality" />
		<tag k="ssr:stedsnr" v="155363" />
	</node>
	<node id="-592097" lat="62.9638944404" lon="7.27250832564">
		<tag k="fixme" v="consider natural=peak for the most distinct mountains in the district" />
		<tag k="name" v="Sloppen" />
		<tag k="natural" v="hill" />
		<tag k="place" v="locality" />
		<tag k="ssr:stedsnr" v="132942" />
	</node>
	<node id="-592096" lat="62.8831638866" lon="7.53398888009">
		<tag k="name" v="Kjølaskardet" />
		<tag k="natural" v="valley" />
		<tag k="old_name" v="Gaustadskaret" />
		<tag k="place" v="locality" />
		<tag k="ssr:stedsnr" v="132659" />
	</node>
	<node id="-592090" lat="62.9415527775" lon="7.30691945408">
		<tag k="name" v="Halsen" />
		<tag k="natural" v="valley" />
		<tag k="place" v="locality" />
		<tag k="ssr:stedsnr" v="119795" />
	</node>
	<node id="-592084" lat="62.9247083316" lon="7.60231110604">
		<tag k="name" v="Rundhaugen" />
		<tag k="natural" v="hill" />
		<tag k="place" v="locality" />
		<tag k="ssr:stedsnr" v="96429" />
	</node>
	<node id="-592082" lat="62.9020305565" lon="7.57550555936">
		<tag k="name" v="Øverdalen" />
		<tag k="natural" v="valley" />
		<tag k="place" v="locality" />
		<tag k="ssr:stedsnr" v="96420" />
	</node>
	<node id="-592079" lat="62.9317222201" lon="7.39713333143">
		<tag k="name" v="Steintua" />
		<tag k="natural" v="hill" />
		<tag k="place" v="locality" />
		<tag k="ssr:stedsnr" v="96482" />
	</node>
	<node id="-592078" lat="62.9954749965" lon="7.28627499453">
		<tag k="name" v="Ørnhågen" />
		<tag k="natural" v="hill" />
		<tag k="place" v="locality" />
		<tag k="ssr:stedsnr" v="96457" />
	</node>
	<node id="-592074" lat="62.891158334" lon="7.54048889611">
		<tag k="name" v="Litlvasshaugen" />
		<tag k="natural" v="hill" />
		<tag k="place" v="locality" />
		<tag k="ssr:stedsnr" v="96398" />
	</node>
	<node id="-592073" lat="62.9248333292" lon="7.44053611228">
		<tag k="name" v="Slettbakken" />
		<tag k="natural" v="slope" />
		<tag k="place" v="locality" />
		<tag k="ssr:stedsnr" v="96395" />
	</node>
	<node id="-592071" lat="62.923883331" lon="7.43665000322">
		<tag k="name" v="Blombakkan" />
		<tag k="natural" v="slope" />
		<tag k="place" v="locality" />
		<tag k="ssr:stedsnr" v="96382" />
	</node>
	<node id="-592069" lat="62.945555555" lon="7.38679444703">
		<tag k="name" v="Heilhaugen" />
		<tag k="natural" v="hill" />
		<tag k="place" v="locality" />
		<tag k="ssr:stedsnr" v="95305" />
	</node>
	<node id="-592065" lat="62.955422226" lon="7.37874999327">
		<tag k="name" v="Nylundhågen" />
		<tag k="natural" v="hill" />
		<tag k="place" v="locality" />
		<tag k="ssr:stedsnr" v="95296" />
	</node>
	<node id="-592064" lat="62.8887583335" lon="7.40705833888">
		<tag k="name" v="Halåshågen" />
		<tag k="natural" v="hill" />
		<tag k="place" v="locality" />
		<tag k="ssr:stedsnr" v="95286" />
	</node>
	<node id="-592063" lat="62.8927361131" lon="7.47838334072">
		<tag k="name" v="Haltbakken" />
		<tag k="natural" v="slope" />
		<tag k="place" v="locality" />
		<tag k="ssr:stedsnr" v="95280" />
	</node>
	<node id="-592060" lat="62.8708444407" lon="7.386044443">
		<tag k="name" v="Geitaberga" />
		<tag k="natural" v="slope" />
		<tag k="place" v="locality" />
		<tag k="ssr:stedsnr" v="95269" />
	</node>
	<node id="-592056" lat="63.0038638885" lon="7.2575138833">
		<tag k="name" v="Orøy-Roparhågen" />
		<tag k="natural" v="hill" />
		<tag k="place" v="locality" />
		<tag k="ssr:stedsnr" v="95256" />
	</node>
	<node id="-592053" lat="62.9257305531" lon="7.28971111067">
		<tag k="name" v="Stortolla" />
		<tag k="place" v="locality" />
		<tag k="ssr:stedsnr" v="95184" />
	</node>
	<node id="-592052" lat="62.890113891" lon="7.33630833801">
		<tag k="name" v="Gunnadalsrøra" />
		<tag k="natural" v="ridge" />
		<tag k="place" v="locality" />
		<tag k="ssr:stedsnr" v="95185" />
	</node>
	<node id="-592050" lat="62.9027527788" lon="7.32887222649">
		<tag k="name" v="Valfjellhammaren" />
		<tag k="place" v="locality" />
		<tag k="ssr:stedsnr" v="95174" />
	</node>
	<node id="-592049" lat="62.9871527747" lon="7.30748333711">
		<tag k="name" v="Femershågen" />
		<tag k="natural" v="hill" />
		<tag k="place" v="locality" />
		<tag k="ssr:stedsnr" v="95247" />
	</node>
	<node id="-592048" lat="62.9924805528" lon="7.31322499242">
		<tag k="name" v="Klomphågen" />
		<tag k="natural" v="hill" />
		<tag k="place" v="locality" />
		<tag k="ssr:stedsnr" v="95244" />
	</node>
	<node id="-592047" lat="62.9761694448" lon="7.29347221386">
		<tag k="name" v="Langhågen" />
		<tag k="natural" v="hill" />
		<tag k="place" v="locality" />
		<tag k="ssr:stedsnr" v="95243" />
	</node>
	<node id="-592046" lat="62.9903111081" lon="7.31841388618">
		<tag k="name" v="Breihågen" />
		<tag k="natural" v="hill" />
		<tag k="place" v="locality" />
		<tag k="ssr:stedsnr" v="95241" />
	</node>
	<node id="-592045" lat="62.9854750023" lon="7.31837499131">
		<tag k="name" v="Skrubbhågen" />
		<tag k="natural" v="hill" />
		<tag k="place" v="locality" />
		<tag k="ssr:stedsnr" v="95238" />
	</node>
	<node id="-592044" lat="62.9927166692" lon="7.30885555019">
		<tag k="name" v="Flathågen" />
		<tag k="natural" v="hill" />
		<tag k="place" v="locality" />
		<tag k="ssr:stedsnr" v="95234" />
	</node>
	<node id="-592043" lat="62.9604472233" lon="7.34546666468">
		<tag k="name" v="Litlholten" />
		<tag k="natural" v="hill" />
		<tag k="place" v="locality" />
		<tag k="ssr:stedsnr" v="95233" />
	</node>
	<node id="-592041" lat="62.9538611074" lon="7.32382778544">
		<tag k="name" v="Godmatholå" />
		<tag k="natural" v="slope" />
		<tag k="place" v="locality" />
		<tag k="ssr:stedsnr" v="95223" />
	</node>
	<node id="-592038" lat="62.9253944428" lon="7.34360278654">
		<tag k="name" v="Liahjellen" />
		<tag k="place" v="locality" />
		<tag k="ssr:stedsnr" v="95205" />
	</node>
	<node id="-592036" lat="62.9499749992" lon="7.30341388023">
		<tag k="name" v="Klumpen" />
		<tag k="natural" v="hill" />
		<tag k="place" v="locality" />
		<tag k="ssr:stedsnr" v="81652" />
	</node>
	<node id="-592033" lat="62.9441249971" lon="7.26815556263">
		<tag k="name" v="Gådalsdalen" />
		<tag k="natural" v="valley" />
		<tag k="place" v="locality" />
		<tag k="ssr:stedsnr" v="72991" />
	</node>
	<node id="-592030" lat="62.873944441" lon="7.54431945006">
		<tag k="fixme" v="consider natural=peak for the most distinct mountains in the district" />
		<tag k="name" v="Hjulnebba" />
		<tag k="natural" v="hill" />
		<tag k="place" v="locality" />
		<tag k="ssr:stedsnr" v="72605" />
	</node>
	<node id="-592029" lat="62.8674777786" lon="7.39046666663">
		<tag k="name" v="Surndalen" />
		<tag k="natural" v="valley" />
		<tag k="place" v="locality" />
		<tag k="ssr:stedsnr" v="72600" />
	</node>
	<node id="-592026" lat="62.9263638874" lon="7.40324722197">
		<tag k="fixme" v="consider natural=peak for the most distinct mountains in the district" />
		<tag k="name" v="Vardhaugan" />
		<tag k="natural" v="hill" />
		<tag k="place" v="locality" />
		<tag k="ssr:stedsnr" v="72532" />
	</node>
	<node id="-592018" lat="62.9239805554" lon="7.41166667109">
		<tag k="name" v="Sneret" />
		<tag k="natural" v="slope" />
		<tag k="place" v="locality" />
		<tag k="ssr:stedsnr" v="35744" />
	</node>
	<node id="-592014" lat="62.8729916688" lon="7.42660834126">
		<tag k="name" v="Mosatua" />
		<tag k="natural" v="hill" />
		<tag k="place" v="locality" />
		<tag k="ssr:stedsnr" v="35530" />
	</node>
	<node id="-592013" lat="62.9242000013" lon="7.34575277054">
		<tag k="name" v="Slåa" />
		<tag k="place" v="locality" />
		<tag k="ssr:stedsnr" v="35504" />
	</node>
	<node id="-592011" lat="62.8902027768" lon="7.53225833988">
		<tag k="name" v="Vassliryggen" />
		<tag k="natural" v="ridge" />
		<tag k="place" v="locality" />
		<tag k="ssr:stedsnr" v="35478" />
	</node>
	<node id="-592009" lat="62.9145166682" lon="7.4330583372">
		<tag k="name" v="Slettjarberget" />
		<tag k="natural" v="hill" />
		<tag k="place" v="locality" />
		<tag k="ssr:stedsnr" v="35460" />
	</node>
	<node id="-592006" lat="62.9000083368" lon="7.38015000295">
		<tag k="name" v="Kleivhammaren" />
		<tag k="natural" v="cliff" />
		<tag k="ssr:stedsnr" v="35428" />
	</node>
	<node id="-592004" lat="62.9063944481" lon="7.49676667131">
		<tag k="name" v="Kjølabrekka" />
		<tag k="natural" v="slope" />
		<tag k="place" v="locality" />
		<tag k="ssr:stedsnr" v="35419" />
	</node>
	<node id="-592003" lat="62.8961694468" lon="7.48758056003">
		<tag k="name" v="Seterhamran" />
		<tag k="natural" v="cliff" />
		<tag k="ssr:stedsnr" v="35416" />
	</node>
	<node id="-592001" lat="62.8827388877" lon="7.42542499279">
		<tag k="name" v="Aspahågen" />
		<tag k="natural" v="hill" />
		<tag k="place" v="locality" />
		<tag k="ssr:stedsnr" v="35403" />
	</node>
	<node id="-591999" lat="62.9995222267" lon="7.27262222914">
		<tag k="name" v="Vardhågen" />
		<tag k="natural" v="hill" />
		<tag k="place" v="locality" />
		<tag k="ssr:stedsnr" v="35364" />
	</node>
	<node id="-591996" lat="62.9735888846" lon="7.34028333568">
		<tag k="name" v="Hesthylla" />
		<tag k="place" v="locality" />
		<tag k="ssr:stedsnr" v="35351" />
	</node>
	<node id="-591982" lat="62.8599083327" lon="7.46101945137">
		<tag k="fixme" v="consider natural=peak for the most distinct mountains in the district" />
		<tag k="name" v="Sørtussen" />
		<tag k="natural" v="hill" />
		<tag k="place" v="locality" />
		<tag k="ssr:stedsnr" v="12678" />
	</node>
	<node id="-591981" lat="62.8701222207" lon="7.43317777219">
		<tag k="fixme" v="consider natural=peak for the most distinct mountains in the district" />
		<tag k="name" v="Vasskorheia" />
		<tag k="natural" v="hill" />
		<tag k="place" v="locality" />
		<tag k="ssr:stedsnr" v="12622" />
	</node>
	<node id="-591980" lat="62.9527527812" lon="7.30435555">
		<tag k="name" v="Gautviklia" />
		<tag k="natural" v="slope" />
		<tag k="place" v="locality" />
		<tag k="ssr:stedsnr" v="11973" />
	</node>
	<node id="-591979" lat="62.952202776" lon="7.28788611926">
		<tag k="alt_name" v="Storvasshågen" />
		<tag k="name" v="Storvasshaugen" />
		<tag k="natural" v="hill" />
		<tag k="place" v="locality" />
		<tag k="ssr:stedsnr" v="11972" />
	</node>
	<node id="-591977" lat="62.961461107" lon="7.31400832994">
		<tag k="alt_name" v="Hågalia" />
		<tag k="name" v="Haugalia" />
		<tag k="natural" v="slope" />
		<tag k="place" v="locality" />
		<tag k="ssr:stedsnr" v="11947" />
	</node>
	<node id="-591976" lat="62.8779694428" lon="7.56643888708">
		<tag k="fixme" v="consider natural=peak for the most distinct mountains in the district" />
		<tag k="name" v="Skardrøra" />
		<tag k="natural" v="hill" />
		<tag k="place" v="locality" />
		<tag k="ssr:stedsnr" v="11645" />
	</node>
	<node id="-591973" lat="62.8828333304" lon="7.39320555131">
		<tag k="fixme" v="consider natural=peak for the most distinct mountains in the district" />
		<tag k="name" v="Halåsåsen" />
		<tag k="natural" v="hill" />
		<tag k="place" v="locality" />
		<tag k="ssr:stedsnr" v="11638" />
	</node>
	<node id="-591968" lat="62.9157218473" lon="7.56727925509">
		<tag k="fixme" v="consider natural=peak for the most distinct mountains in the district" />
		<tag k="name" v="Nosa" />
		<tag k="natural" v="hill" />
		<tag k="place" v="locality" />
		<tag k="ssr:stedsnr" v="11574" />
	</node>
	<node id="-591965" lat="62.8989027763" lon="7.36430278071">
		<tag k="fixme" v="consider natural=peak for the most distinct mountains in the district" />
		<tag k="name" v="Stortua" />
		<tag k="natural" v="hill" />
		<tag k="place" v="locality" />
		<tag k="ssr:stedsnr" v="11562" />
	</node>
	<node id="-591960" lat="62.8820805597" lon="7.56854444722">
		<tag k="name" v="Gangrøra" />
		<tag k="natural" v="ridge" />
		<tag k="place" v="locality" />
		<tag k="ssr:stedsnr" v="885723" />
	</node>
	<node id="-591959" lat="62.925352777" lon="7.43392499493">
		<tag k="name" v="Bærhågan" />
		<tag k="natural" v="hill" />
		<tag k="place" v="locality" />
		<tag k="ssr:stedsnr" v="885710" />
	</node>
	<node id="-591958" lat="62.9285388868" lon="7.39611944661">
		<tag k="name" v="Raudtua" />
		<tag k="natural" v="hill" />
		<tag k="place" v="locality" />
		<tag k="ssr:stedsnr" v="885707" />
	</node>
	<node id="-591957" lat="62.9451444485" lon="7.40095277853">
		<tag k="name" v="Kammen" />
		<tag k="natural" v="ridge" />
		<tag k="place" v="locality" />
		<tag k="ssr:stedsnr" v="885479" />
	</node>
	<node id="-591956" lat="62.9435972202" lon="7.41597500962">
		<tag k="name" v="Dumpa" />
		<tag k="natural" v="valley" />
		<tag k="place" v="locality" />
		<tag k="ssr:stedsnr" v="885478" />
	</node>
	<node id="-591955" lat="62.8799027817" lon="7.44786667059">
		<tag k="name" v="Litllia" />
		<tag k="natural" v="slope" />
		<tag k="place" v="locality" />
		<tag k="ssr:stedsnr" v="885471" />
	</node>
	<node id="-591954" lat="62.995974996" lon="7.29726944756">
		<tag k="name" v="Loshågen" />
		<tag k="natural" v="hill" />
		<tag k="place" v="locality" />
		<tag k="ssr:stedsnr" v="885466" />
	</node>
	<node id="-591953" lat="62.8541694488" lon="7.42809443516">
		<tag k="name" v="Kongshaugen" />
		<tag k="natural" v="hill" />
		<tag k="place" v="locality" />
		<tag k="ssr:stedsnr" v="885414" />
	</node>
	<node id="-591952" lat="62.9120722202" lon="7.54496111333">
		<tag k="name" v="Tipphaugen" />
		<tag k="natural" v="hill" />
		<tag k="place" v="locality" />
		<tag k="ssr:stedsnr" v="885411" />
	</node>
	<node id="-591949" lat="62.9229361116" lon="7.44685832793">
		<tag k="name" v="Harphågen" />
		<tag k="natural" v="hill" />
		<tag k="place" v="locality" />
		<tag k="ssr:stedsnr" v="885392" />
	</node>
	<node id="-591943" lat="62.9016916674" lon="7.49677222981">
		<tag k="name" v="Langberget" />
		<tag k="natural" v="slope" />
		<tag k="place" v="locality" />
		<tag k="ssr:stedsnr" v="884290" />
	</node>
	<node id="-591942" lat="62.8976416674" lon="7.48661111947">
		<tag k="name" v="Slettbakken" />
		<tag k="natural" v="slope" />
		<tag k="place" v="locality" />
		<tag k="ssr:stedsnr" v="884288" />
	</node>
	<node id="-591941" lat="62.8810111147" lon="7.39658610423">
		<tag k="name" v="Ner Gauphågen" />
		<tag k="natural" v="hill" />
		<tag k="place" v="locality" />
		<tag k="ssr:stedsnr" v="884277" />
	</node>
	<node id="-591940" lat="62.8689666655" lon="7.4548555581">
		<tag k="name" v="Torthjellan" />
		<tag k="place" v="locality" />
		<tag k="ssr:stedsnr" v="884274" />
	</node>
	<node id="-591936" lat="62.9664999956" lon="7.36709166056">
		<tag k="name" v="Hammarhågen" />
		<tag k="natural" v="hill" />
		<tag k="place" v="locality" />
		<tag k="ssr:stedsnr" v="884247" />
	</node>
	<node id="-591928" lat="62.9222305549" lon="7.33446665793">
		<tag k="name" v="Kvennhushaugen" />
		<tag k="natural" v="hill" />
		<tag k="place" v="locality" />
		<tag k="ssr:stedsnr" v="884203" />
	</node>
	<node id="-591927" lat="62.9278805521" lon="7.35843889715">
		<tag k="name" v="Vorphaugen" />
		<tag k="natural" v="hill" />
		<tag k="place" v="locality" />
		<tag k="ssr:stedsnr" v="884202" />
	</node>
	<node id="-591918" lat="62.8739055547" lon="7.5118500002">
		<tag k="name" v="Grønlia" />
		<tag k="natural" v="slope" />
		<tag k="place" v="locality" />
		<tag k="ssr:stedsnr" v="399733" />
	</node>
	<node id="-591917" lat="62.8884166687" lon="7.53238889261">
		<tag k="name" v="Vasslia" />
		<tag k="natural" v="slope" />
		<tag k="place" v="locality" />
		<tag k="ssr:stedsnr" v="399715" />
	</node>
	<node id="-591915" lat="62.8713194481" lon="7.47716111776">
		<tag k="name" v="Tusshola" />
		<tag k="natural" v="valley" />
		<tag k="place" v="locality" />
		<tag k="ssr:stedsnr" v="399498" />
	</node>
	<node id="-591914" lat="62.9970777787" lon="7.27326943642">
		<tag k="name" v="Revhågen" />
		<tag k="natural" v="hill" />
		<tag k="place" v="locality" />
		<tag k="ssr:stedsnr" v="399470" />
	</node>
	<node id="-591912" lat="62.9157222254" lon="7.31039443676">
		<tag k="name" v="Oshaugen" />
		<tag k="natural" v="hill" />
		<tag k="place" v="locality" />
		<tag k="ssr:stedsnr" v="399466" />
	</node>
	<node id="-591909" lat="62.9222250036" lon="7.58210278172">
		<tag k="name" v="Lauvskoghaugen" />
		<tag k="natural" v="hill" />
		<tag k="place" v="locality" />
		<tag k="ssr:stedsnr" v="399449" />
	</node>
	<node id="-591908" lat="62.9170694481" lon="7.60010833821">
		<tag k="name" v="Furuhaugen" />
		<tag k="natural" v="hill" />
		<tag k="place" v="locality" />
		<tag k="ssr:stedsnr" v="399447" />
	</node>
	<node id="-591907" lat="62.8946138931" lon="7.57708888678">
		<tag k="name" v="Nebbhaugen" />
		<tag k="natural" v="hill" />
		<tag k="place" v="locality" />
		<tag k="ssr:stedsnr" v="399442" />
	</node>
	<node id="-591906" lat="62.8610888929" lon="7.4072305575">
		<tag k="name" v="Surndalen" />
		<tag k="natural" v="valley" />
		<tag k="place" v="locality" />
		<tag k="ssr:stedsnr" v="399437" />
	</node>
	<node id="-591905" lat="62.8942277754" lon="7.53154999787">
		<tag k="name" v="Seterhaugen" />
		<tag k="natural" v="hill" />
		<tag k="place" v="locality" />
		<tag k="ssr:stedsnr" v="399433" />
	</node>
	<node id="-591902" lat="62.938347218" lon="7.41837499935">
		<tag k="name" v="Stordalen" />
		<tag k="natural" v="valley" />
		<tag k="place" v="locality" />
		<tag k="ssr:stedsnr" v="399401" />
	</node>
	<node id="-591895" lat="62.878169444" lon="7.44377499159">
		<tag k="name" v="Trongdalen" />
		<tag k="natural" v="valley" />
		<tag k="place" v="locality" />
		<tag k="ssr:stedsnr" v="399350" />
	</node>
	<node id="-591893" lat="62.9855166681" lon="7.28621666121">
		<tag k="name" v="Rokstrandhågen" />
		<tag k="natural" v="hill" />
		<tag k="place" v="locality" />
		<tag k="ssr:stedsnr" v="399317" />
	</node>
	<node id="-591891" lat="62.9547638908" lon="7.31281945032">
		<tag k="name" v="Gautviklihøgda" />
		<tag k="natural" v="hill" />
		<tag k="place" v="locality" />
		<tag k="ssr:stedsnr" v="399305" />
	</node>
	<node id="-591890" lat="62.9369055569" lon="7.3326555516">
		<tag k="name" v="Hjellreina" />
		<tag k="natural" v="slope" />
		<tag k="place" v="locality" />
		<tag k="ssr:stedsnr" v="399301" />
	</node>
	<node id="-591889" lat="62.9387305548" lon="7.30962222057">
		<tag k="alt_name" v="Storhågen" />
		<tag k="name" v="Storhaugen" />
		<tag k="natural" v="hill" />
		<tag k="place" v="locality" />
		<tag k="ssr:stedsnr" v="399300" />
	</node>
	<node id="-591888" lat="62.9612722218" lon="7.30041667568">
		<tag k="name" v="Inner Tverrlihågen" />
		<tag k="natural" v="hill" />
		<tag k="place" v="locality" />
		<tag k="ssr:stedsnr" v="399298" />
	</node>
	<node id="-591887" lat="62.9242916669" lon="7.35112500367">
		<tag k="name" v="Rundhaugen" />
		<tag k="natural" v="hill" />
		<tag k="place" v="locality" />
		<tag k="ssr:stedsnr" v="399286" />
	</node>
	<node id="-591886" lat="62.8679694458" lon="7.34364445232">
		<tag k="name" v="Kjerringa" />
		<tag k="natural" v="hill" />
		<tag k="place" v="locality" />
		<tag k="ssr:stedsnr" v="399272" />
	</node>
	<node id="-591883" lat="62.8975249966" lon="7.35706666881">
		<tag k="name" v="Kvamsdalen" />
		<tag k="natural" v="valley" />
		<tag k="place" v="locality" />
		<tag k="ssr:stedsnr" v="399260" />
	</node>
	<node id="-591880" lat="62.9443027793" lon="7.39999444928">
		<tag k="name" v="Langdalen" />
		<tag k="natural" v="valley" />
		<tag k="place" v="locality" />
		<tag k="ssr:stedsnr" v="398328" />
	</node>
	<node id="-591878" lat="62.9567972225" lon="7.38670556134">
		<tag k="name" v="Vikahågen" />
		<tag k="natural" v="hill" />
		<tag k="place" v="locality" />
		<tag k="ssr:stedsnr" v="398316" />
	</node>
	<node id="-591877" lat="62.8933583325" lon="7.43549721569">
		<tag k="name" v="Langneshågan" />
		<tag k="natural" v="hill" />
		<tag k="place" v="locality" />
		<tag k="ssr:stedsnr" v="398311" />
	</node>
	<node id="-591873" lat="62.9380888893" lon="7.37262221381">
		<tag k="name" v="Visneslia" />
		<tag k="natural" v="slope" />
		<tag k="place" v="locality" />
		<tag k="ssr:stedsnr" v="384627" />
	</node>
</osm>
