<?xml version="1.0" encoding="UTF-8"?>
<osm generator="osmapis" version="0.6">
	<node id="-735227" lat="68.6575527808" lon="16.7433666766">
		<tag k="name" v="Bjørnåsmyran" />
		<tag k="natural" v="wetland" />
		<tag k="ssr:stedsnr" v="903983" />
	</node>
	<node id="-735225" lat="68.6519666636" lon="16.779299989">
		<tag k="name" v="Kvannelvmyran" />
		<tag k="natural" v="wetland" />
		<tag k="ssr:stedsnr" v="903974" />
	</node>
	<node id="-734712" lat="68.6517722263" lon="16.7697305481">
		<tag k="name" v="Tverrlandsmyra" />
		<tag k="natural" v="wetland" />
		<tag k="ssr:stedsnr" v="418969" />
	</node>
	<node id="-734708" lat="68.6779972231" lon="16.9774138806">
		<tag k="name" v="Stimyra" />
		<tag k="natural" v="wetland" />
		<tag k="ssr:stedsnr" v="418896" />
	</node>
	<node id="-735219" lat="68.6427166692" lon="16.7124083276">
		<tag k="name" v="Forremarka" />
		<tag k="place" v="locality" />
		<tag k="ssr:stedsnr" v="903852" />
	</node>
	<node id="-735215" lat="68.5685861082" lon="16.7349749899">
		<tag k="name" v="Torvmyra" />
		<tag k="natural" v="wetland" />
		<tag k="ssr:stedsnr" v="903762" />
	</node>
	<node id="-734702" lat="68.639374999" lon="17.1487583268">
		<tag k="name" v="Storhaugmyra" />
		<tag k="natural" v="wetland" />
		<tag k="ssr:stedsnr" v="418713" />
	</node>
	<node id="-734701" lat="68.6430833323" lon="17.158516659">
		<tag k="name" v="Gammemyra" />
		<tag k="natural" v="wetland" />
		<tag k="ssr:stedsnr" v="418712" />
	</node>
	<node id="-734695" lat="68.6332999972" lon="17.1599638776">
		<tag k="name" v="Labergsholtan" />
		<tag k="place" v="locality" />
		<tag k="ssr:stedsnr" v="418588" />
	</node>
	<node id="-734182" lat="68.6686666695" lon="17.0317694462">
		<tag k="name" v="Langemyra" />
		<tag k="natural" v="wetland" />
		<tag k="ssr:stedsnr" v="296926" />
	</node>
	<node id="-734179" lat="68.6713638913" lon="16.916097229">
		<tag k="name" v="Jubbasmyra" />
		<tag k="natural" v="wetland" />
		<tag k="ssr:stedsnr" v="296906" />
	</node>
	<node id="-735200" lat="68.659424998" lon="17.2281138834">
		<tag k="name" v="Saltmyra" />
		<tag k="natural" v="wetland" />
		<tag k="ssr:stedsnr" v="903279" />
	</node>
	<node id="-735196" lat="68.5681166633" lon="16.6932361162">
		<tag k="name" v="Rævholmyra" />
		<tag k="natural" v="wetland" />
		<tag k="ssr:stedsnr" v="903165" />
	</node>
	<node id="-734676" lat="68.6681916648" lon="16.9111555551">
		<tag k="name" v="Djupvassmyra" />
		<tag k="natural" v="wetland" />
		<tag k="ssr:stedsnr" v="263991" />
	</node>
	<node id="-735224" lat="68.6601777757" lon="16.8103499896">
		<tag k="name" v="Ytre Hestmyra" />
		<tag k="natural" v="wetland" />
		<tag k="ssr:stedsnr" v="903966" />
	</node>
	<node id="-734669" lat="68.5483111073" lon="16.6588805419">
		<tag k="name" v="Stormyra" />
		<tag k="natural" v="wetland" />
		<tag k="ssr:stedsnr" v="263852" />
	</node>
	<node id="-734155" lat="68.5649749984" lon="16.7092611083">
		<tag k="name" v="Langmyra" />
		<tag k="natural" v="wetland" />
		<tag k="ssr:stedsnr" v="296141" />
	</node>
	<node id="-734663" lat="68.5762277818" lon="16.6768916627">
		<tag k="alt_name" v="Forrmyra" />
		<tag k="name" v="Furemyra" />
		<tag k="natural" v="wetland" />
		<tag k="ssr:stedsnr" v="263177" />
	</node>
	<node id="-735171" lat="68.5790000024" lon="16.6275694339">
		<tag k="name" v="Stormyra" />
		<tag k="natural" v="wetland" />
		<tag k="ssr:stedsnr" v="870179" />
	</node>
	<node id="-735305" lat="68.6494222243" lon="16.7289472325">
		<tag k="name" v="Vatnholtet" />
		<tag k="place" v="locality" />
		<tag k="ssr:stedsnr" v="964973" />
	</node>
	<node id="-735156" lat="68.6586388863" lon="16.816702766">
		<tag k="name" v="Nordlislettmyra" />
		<tag k="natural" v="wetland" />
		<tag k="ssr:stedsnr" v="844000" />
	</node>
	<node id="-734638" lat="68.6687333294" lon="16.7743500023">
		<tag k="name" v="Bergmyra" />
		<tag k="natural" v="wetland" />
		<tag k="ssr:stedsnr" v="235971" />
	</node>
	<node id="-735146" lat="68.638522222" lon="17.2180611202">
		<tag k="name" v="Kåvhøgmyren" />
		<tag k="natural" v="wetland" />
		<tag k="ssr:stedsnr" v="843287" />
	</node>
	<node id="-734631" lat="68.6832277766" lon="16.9813527883">
		<tag k="name" v="Mellafuruholtet" />
		<tag k="place" v="locality" />
		<tag k="ssr:stedsnr" v="235667" />
	</node>
	<node id="-735142" lat="68.5742277794" lon="16.6513444366">
		<tag k="name" v="Vollmyra" />
		<tag k="natural" v="wetland" />
		<tag k="ssr:stedsnr" v="843218" />
	</node>
	<node id="-734626" lat="68.5857555595" lon="16.7169555531">
		<tag k="name" v="Stormyra" />
		<tag k="natural" v="wetland" />
		<tag k="ssr:stedsnr" v="235225" />
	</node>
	<node id="-734616" lat="68.6954861133" lon="17.1122777869">
		<tag k="name" v="Nilsjordet" />
		<tag k="place" v="locality" />
		<tag k="ssr:stedsnr" v="212475" />
	</node>
	<node id="-735125" lat="68.6506277816" lon="17.1934500022">
		<tag k="name" v="Updáljuovva" />
		<tag k="name:se" v="Updáljuovva" />
		<tag k="natural" v="scree" />
		<tag k="ssr:stedsnr" v="815323" />
	</node>
	<node id="-735115" lat="68.548416662" lon="16.7418194515">
		<tag k="name" v="Stormyra" />
		<tag k="natural" v="wetland" />
		<tag k="ssr:stedsnr" v="809860" />
	</node>
	<node id="-734593" lat="68.5542249973" lon="16.7984305434">
		<tag k="name" v="Flatlandsmyran" />
		<tag k="natural" v="wetland" />
		<tag k="ssr:stedsnr" v="202844" />
	</node>
	<node id="-734588" lat="68.5929944439" lon="16.6081527711">
		<tag k="name" v="Jomfrumyra" />
		<tag k="natural" v="wetland" />
		<tag k="ssr:stedsnr" v="202192" />
	</node>
	<node id="-735091" lat="68.6464527794" lon="16.784747226">
		<tag k="name" v="Stimyran" />
		<tag k="natural" v="wetland" />
		<tag k="ssr:stedsnr" v="782988" />
	</node>
	<node id="-735090" lat="68.6422083295" lon="16.7729388815">
		<tag k="name" v="Skarmyran" />
		<tag k="natural" v="wetland" />
		<tag k="ssr:stedsnr" v="782986" />
	</node>
	<node id="-734565" lat="68.6881722262" lon="16.9675833343">
		<tag k="name" v="Furuholtmyra" />
		<tag k="natural" v="wetland" />
		<tag k="ssr:stedsnr" v="175625" />
	</node>
	<node id="-734563" lat="68.7032055534" lon="16.9709555641">
		<tag k="name" v="Durmålsmyra" />
		<tag k="natural" v="wetland" />
		<tag k="ssr:stedsnr" v="175582" />
	</node>
	<node id="-735072" lat="68.6968027758" lon="16.9418916614">
		<tag k="name" v="Øvre-Kaldbekkmyr" />
		<tag k="natural" v="wetland" />
		<tag k="ssr:stedsnr" v="782540" />
	</node>
	<node id="-735071" lat="68.5722194426" lon="16.6630972141">
		<tag k="name" v="Larsemyra" />
		<tag k="natural" v="wetland" />
		<tag k="ssr:stedsnr" v="782185" />
	</node>
	<node id="-734553" lat="68.5811916683" lon="16.6254222337">
		<tag k="name" v="Åsmyra" />
		<tag k="natural" v="wetland" />
		<tag k="ssr:stedsnr" v="175206" />
	</node>
	<node id="-734546" lat="68.5246555518" lon="16.5848916698">
		<tag k="name" v="Klubbmyra" />
		<tag k="natural" v="wetland" />
		<tag k="ssr:stedsnr" v="175015" />
	</node>
	<node id="-735056" lat="68.6199444423" lon="17.2272166584">
		<tag k="name" v="Boarrejuovva" />
		<tag k="name:se" v="Boarrejuovva" />
		<tag k="natural" v="scree" />
		<tag k="ssr:stedsnr" v="749005" />
	</node>
	<node id="-735282" lat="68.6861222213" lon="16.9374388909">
		<tag k="name" v="Lamyra" />
		<tag k="natural" v="wetland" />
		<tag k="ssr:stedsnr" v="964550" />
	</node>
	<node id="-734504" lat="68.6554138895" lon="16.8260972162">
		<tag k="name" v="Kvithammarmyra" />
		<tag k="natural" v="wetland" />
		<tag k="ssr:stedsnr" v="114996" />
	</node>
	<node id="-735015" lat="68.6560583362" lon="16.9566833257">
		<tag k="name" v="Fjellmyra" />
		<tag k="natural" v="wetland" />
		<tag k="ssr:stedsnr" v="721925" />
	</node>
	<node id="-735281" lat="68.6951833323" lon="16.9486611197">
		<tag k="name" v="Myrhaugmyra" />
		<tag k="natural" v="wetland" />
		<tag k="ssr:stedsnr" v="964548" />
	</node>
	<node id="-734491" lat="68.6939166642" lon="16.9204249896">
		<tag k="name" v="Elveøra" />
		<tag k="place" v="locality" />
		<tag k="ssr:stedsnr" v="114591" />
	</node>
	<node id="-734489" lat="68.6429805516" lon="17.2073249959">
		<tag k="name" v="Sandveimyren" />
		<tag k="natural" v="wetland" />
		<tag k="ssr:stedsnr" v="114291" />
	</node>
	<node id="-734488" lat="68.5847583342" lon="16.6716583228">
		<tag k="name" v="Lille Kistemyra" />
		<tag k="natural" v="wetland" />
		<tag k="ssr:stedsnr" v="114200" />
	</node>
	<node id="-734487" lat="68.5909027793" lon="16.6689000111">
		<tag k="name" v="Vakmamyr" />
		<tag k="natural" v="wetland" />
		<tag k="ssr:stedsnr" v="114192" />
	</node>
	<node id="-734993" lat="68.5831666646" lon="16.6675888887">
		<tag k="name" v="Kistemyren" />
		<tag k="natural" v="wetland" />
		<tag k="ssr:stedsnr" v="721190" />
	</node>
	<node id="-734985" lat="68.5161861104" lon="16.6792055569">
		<tag k="name" v="Tomasmyra" />
		<tag k="natural" v="wetland" />
		<tag k="ssr:stedsnr" v="721004" />
	</node>
	<node id="-734945" lat="68.6340361149" lon="16.6807666704">
		<tag k="name" v="Furumarka" />
		<tag k="place" v="locality" />
		<tag k="ssr:stedsnr" v="687009" />
	</node>
	<node id="-734941" lat="68.6650611089" lon="16.7729249927">
		<tag k="name" v="Vassmyran" />
		<tag k="natural" v="wetland" />
		<tag k="ssr:stedsnr" v="660962" />
	</node>
	<node id="-734935" lat="68.6715888886" lon="17.0162333289">
		<tag k="name" v="Blautmyra" />
		<tag k="natural" v="wetland" />
		<tag k="ssr:stedsnr" v="660889" />
	</node>
	<node id="-734420" lat="68.6201666631" lon="16.7856083339">
		<tag k="name" v="Skoppijeaggi" />
		<tag k="name:se" v="Skoppijeaggi" />
		<tag k="natural" v="wetland" />
		<tag k="ssr:stedsnr" v="54766" />
	</node>
	<node id="-734419" lat="68.688580559" lon="16.9756611002">
		<tag k="name" v="Furuholtet" />
		<tag k="place" v="locality" />
		<tag k="ssr:stedsnr" v="54616" />
	</node>
	<node id="-734415" lat="68.5529833353" lon="16.6579500103">
		<tag k="name" v="Høgbergmyra" />
		<tag k="natural" v="wetland" />
		<tag k="ssr:stedsnr" v="54202" />
	</node>
	<node id="-734926" lat="68.6413833321" lon="17.0642222237">
		<tag k="name" v="Stordalsmyra" />
		<tag k="natural" v="wetland" />
		<tag k="ssr:stedsnr" v="660696" />
	</node>
	<node id="-734925" lat="68.6432611091" lon="17.070599995">
		<tag k="name" v="Lappegammyra" />
		<tag k="natural" v="wetland" />
		<tag k="ssr:stedsnr" v="660695" />
	</node>
	<node id="-734919" lat="68.6412083357" lon="17.2075444475">
		<tag k="name" v="Barkebergmyren" />
		<tag k="natural" v="wetland" />
		<tag k="ssr:stedsnr" v="660298" />
	</node>
	<node id="-734406" lat="68.6039055524" lon="16.5659361076">
		<tag k="name" v="Hamnholtet" />
		<tag k="place" v="locality" />
		<tag k="ssr:stedsnr" v="54094" />
	</node>
	<node id="-734915" lat="68.5725249969" lon="16.6254333305">
		<tag k="name" v="Breimyra" />
		<tag k="natural" v="wetland" />
		<tag k="ssr:stedsnr" v="660188" />
	</node>
	<node id="-734894" lat="68.5639861126" lon="16.6864749904">
		<tag k="alt_name" v="Brokkmyren" />
		<tag k="name" v="Brokkmyra" />
		<tag k="natural" v="wetland" />
		<tag k="ssr:stedsnr" v="626842" />
	</node>
	<node id="-734884" lat="68.5868000009" lon="16.6175888867">
		<tag k="name" v="Skånlandsmarka" />
		<tag k="place" v="locality" />
		<tag k="ssr:stedsnr" v="626202" />
	</node>
	<node id="-734869" lat="68.6781333361" lon="16.9212638802">
		<tag k="name" v="Fjellmyra" />
		<tag k="natural" v="wetland" />
		<tag k="ssr:stedsnr" v="599902" />
	</node>
	<node id="-734351" lat="68.5361195597" lon="16.7675853532">
		<tag k="name" v="Duolbárohtu" />
		<tag k="name:se" v="Duolbárohtu" />
		<tag k="place" v="locality" />
		<tag k="ssr:stedsnr" v="986269" />
	</node>
	<node id="-734350" lat="68.5274972817" lon="16.7508947704">
		<tag k="name" v="Lássegieddi" />
		<tag k="name:se" v="Lássegieddi" />
		<tag k="place" v="locality" />
		<tag k="ssr:stedsnr" v="986249" />
	</node>
	<node id="-735256" lat="68.5078555541" lon="16.6151166738">
		<tag k="name" v="Langmyra" />
		<tag k="natural" v="wetland" />
		<tag k="ssr:stedsnr" v="930946" />
	</node>
	<node id="-734342" lat="68.6496027762" lon="16.8225444388">
		<tag k="name" v="Lamyra" />
		<tag k="natural" v="wetland" />
		<tag k="ssr:stedsnr" v="478996" />
	</node>
	<node id="-734340" lat="68.6639944475" lon="16.8283972186">
		<tag k="name" v="Bakåsmyran" />
		<tag k="natural" v="wetland" />
		<tag k="ssr:stedsnr" v="478970" />
	</node>
	<node id="-734329" lat="68.5980444411" lon="16.5872416608">
		<tag k="name" v="Øverlandsmyra" />
		<tag k="natural" v="wetland" />
		<tag k="ssr:stedsnr" v="478821" />
	</node>
	<node id="-734321" lat="68.6167194418" lon="17.1918083319">
		<tag k="name" v="Novasteinen" />
		<tag k="natural" v="stone" />
		<tag k="ssr:stedsnr" v="478634" />
	</node>
	<node id="-734314" lat="68.5776444403" lon="16.6387111063">
		<tag k="name" v="Møllemyrene" />
		<tag k="natural" v="wetland" />
		<tag k="ssr:stedsnr" v="478205" />
	</node>
	<node id="-734822" lat="68.6579805563" lon="16.8053194462">
		<tag k="name" v="Trolldalsmyra" />
		<tag k="natural" v="wetland" />
		<tag k="ssr:stedsnr" v="539999" />
	</node>
	<node id="-734481" lat="68.5245083337" lon="16.6257416751">
		<tag k="name" v="Gammeskarmyra" />
		<tag k="natural" v="wetland" />
		<tag k="ssr:stedsnr" v="114017" />
	</node>
	<node id="-734820" lat="68.6704222249" lon="16.7324916662">
		<tag k="name" v="Krabbesteinen" />
		<tag k="natural" v="stone" />
		<tag k="ssr:stedsnr" v="539954" />
	</node>
	<node id="-734306" lat="68.5425638904" lon="16.6896499893">
		<tag k="name" v="Moltebærmyra" />
		<tag k="natural" v="wetland" />
		<tag k="ssr:stedsnr" v="478015" />
	</node>
	<node id="-734302" lat="68.5109805536" lon="16.6235944374">
		<tag k="name" v="Høgåsmyra" />
		<tag k="natural" v="wetland" />
		<tag k="ssr:stedsnr" v="478007" />
	</node>
	<node id="-734821" lat="68.6615749957" lon="16.8172138979">
		<tag k="name" v="Østre Hestmyra" />
		<tag k="natural" v="wetland" />
		<tag k="ssr:stedsnr" v="539960" />
	</node>
	<node id="-734803" lat="68.5893527799" lon="16.6395888886">
		<tag k="name" v="Purkemyra" />
		<tag k="natural" v="wetland" />
		<tag k="ssr:stedsnr" v="539212" />
	</node>
	<node id="-734290" lat="68.6349694444" lon="17.2288833311">
		<tag k="name" v="Kåvbergmyren" />
		<tag k="natural" v="wetland" />
		<tag k="ssr:stedsnr" v="385015" />
	</node>
	<node id="-734798" lat="68.567252774" lon="16.6600333289">
		<tag k="name" v="Steinsmyra" />
		<tag k="natural" v="wetland" />
		<tag k="ssr:stedsnr" v="539161" />
	</node>
	<node id="-734793" lat="68.5301666696" lon="16.6296527901">
		<tag k="name" v="Bjørnsteinen" />
		<tag k="natural" v="stone" />
		<tag k="ssr:stedsnr" v="539059" />
	</node>
	<node id="-735304" lat="68.654452781" lon="16.778438885">
		<tag k="name" v="Keisermyra" />
		<tag k="natural" v="wetland" />
		<tag k="ssr:stedsnr" v="964969" />
	</node>
	<node id="-734791" lat="68.51448333" lon="16.6233555463">
		<tag k="name" v="Tømmermyra" />
		<tag k="natural" v="wetland" />
		<tag k="ssr:stedsnr" v="539009" />
	</node>
	<node id="-734277" lat="68.5177416697" lon="16.590272225">
		<tag k="name" v="Fjellmyra" />
		<tag k="natural" v="wetland" />
		<tag k="ssr:stedsnr" v="384791" />
	</node>
	<node id="-734258" lat="68.6189361095" lon="17.2057194349">
		<tag k="historic" v="shieling" />
		<tag k="name" v="Nova - Várevuolli" />
		<tag k="name:no" v="Nova" />
		<tag k="name:se" v="Várevuolli" />
		<tag k="place" v="locality" />
		<tag k="ssr:stedsnr" v="383906" />
	</node>
	<node id="-734257" lat="68.5623666695" lon="16.7121638777">
		<tag k="fixme" v="multiple name tags, choose one and add the other to alt_name" />
		<tag k="name" v="Ginnmyra;Grindmyra" />
		<tag k="natural" v="wetland" />
		<tag k="ssr:stedsnr" v="383841" />
	</node>
	<node id="-735273" lat="68.6340638851" lon="16.7191777675">
		<tag k="name" v="Lamarkmyran" />
		<tag k="natural" v="wetland" />
		<tag k="ssr:stedsnr" v="963150" />
	</node>
	<node id="-734245" lat="68.6582444423" lon="16.76499722">
		<tag k="name" v="Selborgmyran" />
		<tag k="natural" v="wetland" />
		<tag k="ssr:stedsnr" v="357972" />
	</node>
	<node id="-734244" lat="68.6613027784" lon="16.7990110989">
		<tag k="name" v="Hestmyra" />
		<tag k="natural" v="wetland" />
		<tag k="ssr:stedsnr" v="357968" />
	</node>
	<node id="-734753" lat="68.5996333334" lon="17.4198916528">
		<tag k="name" v="Šleađđujoavva" />
		<tag k="name:se" v="Šleađđujoavva" />
		<tag k="natural" v="scree" />
		<tag k="ssr:stedsnr" v="492219" />
	</node>
	<node id="-734239" lat="68.5965055557" lon="16.6604722194">
		<tag k="name" v="Lennemyra" />
		<tag k="natural" v="wetland" />
		<tag k="ssr:stedsnr" v="357831" />
	</node>
	<node id="-734235" lat="68.6398555522" lon="17.1797694374">
		<tag k="name" v="Rasmusmyra" />
		<tag k="natural" v="wetland" />
		<tag k="ssr:stedsnr" v="357718" />
	</node>
	<node id="-734232" lat="68.6307500024" lon="17.2555027752">
		<tag k="name" v="Stormyra" />
		<tag k="natural" v="wetland" />
		<tag k="ssr:stedsnr" v="357659" />
	</node>
	<node id="-734228" lat="68.6895472185" lon="16.9314944464">
		<tag k="name" v="Leverjomyra" />
		<tag k="natural" v="wetland" />
		<tag k="ssr:stedsnr" v="357544" />
	</node>
	<node id="-734736" lat="68.5546500011" lon="16.6961833373">
		<tag k="name" v="Heimyra" />
		<tag k="natural" v="wetland" />
		<tag k="ssr:stedsnr" v="445853" />
	</node>
	<node id="-734723" lat="68.6057527762" lon="16.8025499866">
		<tag k="name" v="Stormyra" />
		<tag k="natural" v="wetland" />
		<tag k="ssr:stedsnr" v="444186" />
	</node>
</osm>
