<?xml version="1.0" encoding="UTF-8"?>
<osm generator="osmapis" version="0.6">
	<node id="-736599" lat="68.679080558" lon="16.8468138966">
		<tag k="fixme" v="consider natural=peak for the most distinct mountains in the district" />
		<tag k="name" v="Tyskåsen" />
		<tag k="natural" v="hill" />
		<tag k="place" v="locality" />
		<tag k="ssr:stedsnr" v="964966" />
	</node>
	<node id="-736598" lat="68.6789611118" lon="17.0157638845">
		<tag k="name" v="Ørnberget" />
		<tag k="natural" v="hill" />
		<tag k="place" v="locality" />
		<tag k="ssr:stedsnr" v="964883" />
	</node>
	<node id="-736597" lat="68.6775027782" lon="17.0018999906">
		<tag k="name" v="Reingjerdan" />
		<tag k="natural" v="slope" />
		<tag k="place" v="locality" />
		<tag k="ssr:stedsnr" v="964880" />
	</node>
	<node id="-736595" lat="68.6798416711" lon="16.911672223">
		<tag k="name" v="Bjørndalen" />
		<tag k="natural" v="valley" />
		<tag k="place" v="locality" />
		<tag k="ssr:stedsnr" v="964864" />
	</node>
	<node id="-736593" lat="68.6411166686" lon="17.1296027797">
		<tag k="name" v="Kvitberget" />
		<tag k="natural" v="hill" />
		<tag k="place" v="locality" />
		<tag k="ssr:stedsnr" v="964675" />
	</node>
	<node id="-736591" lat="68.653633337" lon="17.2742111215">
		<tag k="name" v="Enighetsskaret" />
		<tag k="natural" v="valley" />
		<tag k="place" v="locality" />
		<tag k="ssr:stedsnr" v="964306" />
	</node>
	<node id="-736588" lat="68.5947638888" lon="16.6785694507">
		<tag k="name" v="Jarelvbakken" />
		<tag k="natural" v="slope" />
		<tag k="place" v="locality" />
		<tag k="ssr:stedsnr" v="963868" />
	</node>
	<node id="-736586" lat="68.6016861127" lon="16.5903722144">
		<tag k="fixme" v="consider natural=peak for the most distinct mountains in the district" />
		<tag k="name" v="Brattåsen" />
		<tag k="natural" v="hill" />
		<tag k="place" v="locality" />
		<tag k="ssr:stedsnr" v="963853" />
	</node>
	<node id="-736585" lat="68.6276333312" lon="16.8337722205">
		<tag k="fixme" v="consider natural=peak for the most distinct mountains in the district" />
		<tag k="name" v="Girkooaivi" />
		<tag k="name:se" v="Girkooaivi" />
		<tag k="natural" v="hill" />
		<tag k="place" v="locality" />
		<tag k="ssr:stedsnr" v="963825" />
	</node>
	<node id="-736584" lat="68.6370527775" lon="16.7728527706">
		<tag k="name" v="Daumannen" />
		<tag k="natural" v="hill" />
		<tag k="place" v="locality" />
		<tag k="ssr:stedsnr" v="963814" />
	</node>
	<node id="-736582" lat="68.5816111121" lon="17.3055472115">
		<tag k="name" v="Øvste Hesjebakken" />
		<tag k="natural" v="slope" />
		<tag k="place" v="locality" />
		<tag k="ssr:stedsnr" v="963709" />
	</node>
	<node id="-736581" lat="68.6181777775" lon="17.2780444373">
		<tag k="name" v="Asphaugen" />
		<tag k="natural" v="hill" />
		<tag k="place" v="locality" />
		<tag k="ssr:stedsnr" v="963705" />
	</node>
	<node id="-736580" lat="68.681850004" lon="17.1546611185">
		<tag k="fixme" v="consider natural=peak for the most distinct mountains in the district" />
		<tag k="name" v="Bjerkåsen" />
		<tag k="natural" v="hill" />
		<tag k="place" v="locality" />
		<tag k="ssr:stedsnr" v="963692" />
	</node>
	<node id="-736579" lat="68.6937250028" lon="17.1431000011">
		<tag k="fixme" v="consider natural=peak for the most distinct mountains in the district" />
		<tag k="name" v="Tverrfjellet" />
		<tag k="natural" v="hill" />
		<tag k="place" v="locality" />
		<tag k="ssr:stedsnr" v="963691" />
	</node>
	<node id="-736576" lat="68.6902416647" lon="16.9569111074">
		<tag k="name" v="Steikhågen" />
		<tag k="natural" v="hill" />
		<tag k="place" v="locality" />
		<tag k="ssr:stedsnr" v="964547" />
	</node>
	<node id="-736572" lat="68.5723277765" lon="16.6891138923">
		<tag k="name" v="Forrheia" />
		<tag k="natural" v="hill" />
		<tag k="place" v="locality" />
		<tag k="ssr:stedsnr" v="963191" />
	</node>
	<node id="-736571" lat="68.5656583294" lon="16.6752694405">
		<tag k="name" v="Brokkmyrhågen" />
		<tag k="natural" v="hill" />
		<tag k="place" v="locality" />
		<tag k="ssr:stedsnr" v="963188" />
	</node>
	<node id="-736568" lat="68.4991916636" lon="16.6237749876">
		<tag k="name" v="Kjella" />
		<tag k="natural" v="valley" />
		<tag k="place" v="locality" />
		<tag k="ssr:stedsnr" v="963089" />
	</node>
	<node id="-736566" lat="68.5363305594" lon="16.644233327">
		<tag k="name" v="Rundsletta" />
		<tag k="place" v="locality" />
		<tag k="ssr:stedsnr" v="963075" />
	</node>
	<node id="-736564" lat="68.5667527784" lon="16.8492194349">
		<tag k="name" v="Resmålsheia" />
		<tag k="natural" v="hill" />
		<tag k="place" v="locality" />
		<tag k="ssr:stedsnr" v="949672" />
	</node>
	<node id="-736559" lat="68.5727722256" lon="16.8669416764">
		<tag k="alt_name:no" v="Resmåltind" />
		<tag k="fixme" v="consider natural=peak for the most distinct mountains in the district" />
		<tag k="name" v="Rismålstinden - Geassegasčohkka" />
		<tag k="name:no" v="Rismålstinden" />
		<tag k="name:se" v="Geassegasčohkka" />
		<tag k="natural" v="hill" />
		<tag k="place" v="locality" />
		<tag k="ssr:stedsnr" v="931951" />
	</node>
	<node id="-736557" lat="68.5697583368" lon="17.3377027679">
		<tag k="name" v="Rohči" />
		<tag k="name:se" v="Rohči" />
		<tag k="natural" v="valley" />
		<tag k="place" v="locality" />
		<tag k="ssr:stedsnr" v="932018" />
	</node>
	<node id="-736550" lat="68.606055559" lon="17.1727749928">
		<tag k="alt_name" v="Novatinden" />
		<tag k="fixme" v="consider natural=peak for the most distinct mountains in the district" />
		<tag k="name" v="Novatind" />
		<tag k="natural" v="hill" />
		<tag k="place" v="locality" />
		<tag k="ssr:stedsnr" v="930915" />
	</node>
	<node id="-736546" lat="68.6473555586" lon="16.8850194448">
		<tag k="fixme" v="consider natural=peak for the most distinct mountains in the district" />
		<tag k="name" v="Tovikfjellet" />
		<tag k="natural" v="hill" />
		<tag k="place" v="locality" />
		<tag k="ssr:stedsnr" v="930889" />
	</node>
	<node id="-736543" lat="68.5534944458" lon="16.6697805629">
		<tag k="fixme" v="consider natural=peak for the most distinct mountains in the district" />
		<tag k="name" v="Durmålstuva" />
		<tag k="natural" v="hill" />
		<tag k="place" v="locality" />
		<tag k="ssr:stedsnr" v="930855" />
	</node>
	<node id="-736539" lat="68.6141249972" lon="16.8176249972">
		<tag k="fixme" v="consider natural=peak for the most distinct mountains in the district" />
		<tag k="name" v="Karifjellet" />
		<tag k="natural" v="hill" />
		<tag k="place" v="locality" />
		<tag k="ssr:stedsnr" v="930232" />
	</node>
	<node id="-736538" lat="68.5958305554" lon="16.6313444467">
		<tag k="name" v="Skaskarhøgda" />
		<tag k="natural" v="hill" />
		<tag k="place" v="locality" />
		<tag k="ssr:stedsnr" v="930199" />
	</node>
	<node id="-736536" lat="68.591605551" lon="16.7587305646">
		<tag k="fixme" v="consider natural=peak for the most distinct mountains in the district" />
		<tag k="name" v="Bufjellet" />
		<tag k="natural" v="hill" />
		<tag k="place" v="locality" />
		<tag k="ssr:stedsnr" v="930185" />
	</node>
	<node id="-736529" lat="68.6771250049" lon="16.7645638792">
		<tag k="alt_name" v="Langeberget" />
		<tag k="name" v="Langberget" />
		<tag k="natural" v="hill" />
		<tag k="place" v="locality" />
		<tag k="ssr:stedsnr" v="930108" />
	</node>
	<node id="-736527" lat="68.6535222249" lon="16.7497277763">
		<tag k="alt_name" v="Kisletten" />
		<tag k="name" v="Kisletta" />
		<tag k="place" v="locality" />
		<tag k="ssr:stedsnr" v="930042" />
	</node>
	<node id="-736524" lat="68.6380666649" lon="17.098719433">
		<tag k="fixme" v="consider natural=peak for the most distinct mountains in the district" />
		<tag k="name" v="Ramnfløya" />
		<tag k="natural" v="hill" />
		<tag k="place" v="locality" />
		<tag k="ssr:stedsnr" v="904672" />
	</node>
	<node id="-736519" lat="68.6624805582" lon="16.9831888801">
		<tag k="name" v="Kalvholla" />
		<tag k="natural" v="valley" />
		<tag k="place" v="locality" />
		<tag k="ssr:stedsnr" v="903915" />
	</node>
	<node id="-736517" lat="68.6753361141" lon="16.9036444414">
		<tag k="name" v="Lemman" />
		<tag k="natural" v="hill" />
		<tag k="place" v="locality" />
		<tag k="ssr:stedsnr" v="903899" />
	</node>
	<node id="-736514" lat="68.6003666644" lon="16.6635833216">
		<tag k="name" v="Lahaugen" />
		<tag k="natural" v="hill" />
		<tag k="place" v="locality" />
		<tag k="ssr:stedsnr" v="903835" />
	</node>
	<node id="-736513" lat="68.5949166651" lon="16.6614861158">
		<tag k="name" v="Henrik-Mikkelhaugen" />
		<tag k="natural" v="hill" />
		<tag k="place" v="locality" />
		<tag k="ssr:stedsnr" v="903832" />
	</node>
	<node id="-736512" lat="68.6053444477" lon="16.6307083427">
		<tag k="fixme" v="consider natural=peak for the most distinct mountains in the district" />
		<tag k="name" v="Småkollen" />
		<tag k="natural" v="hill" />
		<tag k="place" v="locality" />
		<tag k="ssr:stedsnr" v="903816" />
	</node>
	<node id="-736509" lat="68.6246500039" lon="16.7859138793">
		<tag k="name" v="Mølleberget" />
		<tag k="natural" v="hill" />
		<tag k="place" v="locality" />
		<tag k="ssr:stedsnr" v="903756" />
	</node>
	<node id="-736506" lat="68.668313893" lon="17.0944333372">
		<tag k="name" v="Vassdalen" />
		<tag k="natural" v="valley" />
		<tag k="place" v="locality" />
		<tag k="ssr:stedsnr" v="903707" />
	</node>
	<node id="-736504" lat="68.6723083307" lon="17.0503888912">
		<tag k="name" v="Vasskollskaret" />
		<tag k="natural" v="valley" />
		<tag k="place" v="locality" />
		<tag k="ssr:stedsnr" v="903685" />
	</node>
	<node id="-736503" lat="68.6982666685" lon="17.1309250034">
		<tag k="name" v="Ørnberget" />
		<tag k="natural" v="hill" />
		<tag k="place" v="locality" />
		<tag k="ssr:stedsnr" v="903645" />
	</node>
	<node id="-736501" lat="68.6810694458" lon="16.9710027809">
		<tag k="name" v="Moa" />
		<tag k="place" v="locality" />
		<tag k="ssr:stedsnr" v="903615" />
	</node>
	<node id="-736499" lat="68.5968222185" lon="17.3543305629">
		<tag k="name" v="Ruolladievvá" />
		<tag k="name:se" v="Ruolladievvá" />
		<tag k="natural" v="hill" />
		<tag k="place" v="locality" />
		<tag k="ssr:stedsnr" v="903290" />
	</node>
	<node id="-736497" lat="68.6646277761" lon="17.2390555652">
		<tag k="name" v="Geiteskaret" />
		<tag k="natural" v="valley" />
		<tag k="place" v="locality" />
		<tag k="ssr:stedsnr" v="903278" />
	</node>
	<node id="-736494" lat="68.5629861115" lon="16.6293055624">
		<tag k="name" v="Båtberget" />
		<tag k="natural" v="hill" />
		<tag k="place" v="locality" />
		<tag k="ssr:stedsnr" v="903183" />
	</node>
	<node id="-736493" lat="68.5580416664" lon="16.6714666624">
		<tag k="name" v="Luradalen" />
		<tag k="natural" v="valley" />
		<tag k="place" v="locality" />
		<tag k="ssr:stedsnr" v="903168" />
	</node>
	<node id="-736491" lat="68.6127138847" lon="16.5967833403">
		<tag k="name" v="Jessegroplæppen" />
		<tag k="natural" v="slope" />
		<tag k="place" v="locality" />
		<tag k="ssr:stedsnr" v="903131" />
	</node>
	<node id="-736487" lat="68.5193611124" lon="16.6309777728">
		<tag k="name" v="Bjørnåsbakken" />
		<tag k="natural" v="slope" />
		<tag k="place" v="locality" />
		<tag k="ssr:stedsnr" v="903021" />
	</node>
	<node id="-736486" lat="68.5269055527" lon="16.5926388828">
		<tag k="fixme" v="consider natural=peak for the most distinct mountains in the district" />
		<tag k="name" v="Høgda" />
		<tag k="natural" v="hill" />
		<tag k="place" v="locality" />
		<tag k="ssr:stedsnr" v="903022" />
	</node>
	<node id="-736485" lat="68.5121333363" lon="16.5762555456">
		<tag k="fixme" v="consider natural=peak for the most distinct mountains in the district" />
		<tag k="name" v="Tverråsen" />
		<tag k="natural" v="hill" />
		<tag k="place" v="locality" />
		<tag k="ssr:stedsnr" v="903017" />
	</node>
	<node id="-736484" lat="68.5130888882" lon="16.7123055617">
		<tag k="name" v="Pålhågen" />
		<tag k="natural" v="hill" />
		<tag k="place" v="locality" />
		<tag k="ssr:stedsnr" v="903001" />
	</node>
	<node id="-736481" lat="68.7007944432" lon="16.9989027804">
		<tag k="fixme" v="multiple name tags, choose one and add the other to alt_name; consider natural=peak for the most distinct mountains in the district" />
		<tag k="name" v="Svellen - Spáddal;Gielas" />
		<tag k="name:no" v="Svellen" />
		<tag k="name:se" v="Spáddal;Gielas" />
		<tag k="natural" v="hill" />
		<tag k="place" v="locality" />
		<tag k="ssr:stedsnr" v="871951" />
	</node>
	<node id="-736480" lat="68.6315111139" lon="17.0818916576">
		<tag k="fixme" v="consider natural=peak for the most distinct mountains in the district" />
		<tag k="name" v="Kjerringa - Čoarra" />
		<tag k="name:no" v="Kjerringa" />
		<tag k="name:se" v="Čoarra" />
		<tag k="natural" v="hill" />
		<tag k="place" v="locality" />
		<tag k="ssr:stedsnr" v="871865" />
	</node>
	<node id="-736475" lat="68.6421249963" lon="16.9383500072">
		<tag k="name" v="Sáttiidvággi" />
		<tag k="name:se" v="Sáttiidvággi" />
		<tag k="natural" v="valley" />
		<tag k="place" v="locality" />
		<tag k="ssr:stedsnr" v="870878" />
	</node>
	<node id="-736474" lat="68.6454027758" lon="17.2933611197">
		<tag k="name" v="Leaibevággi" />
		<tag k="name:se" v="Leaibevággi" />
		<tag k="natural" v="valley" />
		<tag k="place" v="locality" />
		<tag k="ssr:stedsnr" v="870875" />
	</node>
	<node id="-736473" lat="68.5397055525" lon="16.6623138889">
		<tag k="fixme" v="consider natural=peak for the most distinct mountains in the district" />
		<tag k="name" v="Gårdslettåsen" />
		<tag k="natural" v="hill" />
		<tag k="place" v="locality" />
		<tag k="ssr:stedsnr" v="870864" />
	</node>
	<node id="-736469" lat="68.6248333345" lon="17.2475055485">
		<tag k="name" v="Lanjavárri" />
		<tag k="name:se" v="Lanjavárri" />
		<tag k="natural" v="hill" />
		<tag k="place" v="locality" />
		<tag k="ssr:stedsnr" v="870262" />
	</node>
	<node id="-736465" lat="68.5774694441" lon="16.6647361139">
		<tag k="fixme" v="consider natural=peak for the most distinct mountains in the district" />
		<tag k="name" v="Høgåsen" />
		<tag k="natural" v="hill" />
		<tag k="place" v="locality" />
		<tag k="ssr:stedsnr" v="870171" />
	</node>
	<node id="-736464" lat="68.5766638915" lon="16.6833583251">
		<tag k="name" v="Villdalen" />
		<tag k="natural" v="valley" />
		<tag k="place" v="locality" />
		<tag k="ssr:stedsnr" v="870172" />
	</node>
	<node id="-736462" lat="68.6408777744" lon="16.6822805444">
		<tag k="fixme" v="consider natural=peak for the most distinct mountains in the district" />
		<tag k="name" v="Tennevikheia" />
		<tag k="natural" v="hill" />
		<tag k="place" v="locality" />
		<tag k="ssr:stedsnr" v="870020" />
	</node>
	<node id="-736460" lat="68.6008277819" lon="17.3240888868">
		<tag k="name" v="Revhøgda - Riebeborri" />
		<tag k="name:no" v="Revhøgda" />
		<tag k="name:se" v="Riebeborri" />
		<tag k="natural" v="hill" />
		<tag k="place" v="locality" />
		<tag k="ssr:stedsnr" v="869917" />
	</node>
	<node id="-736459" lat="68.6066638894" lon="17.269430543">
		<tag k="name" v="Krokelvhøgda" />
		<tag k="natural" v="hill" />
		<tag k="place" v="locality" />
		<tag k="ssr:stedsnr" v="869912" />
	</node>
	<node id="-736451" lat="68.66215" lon="16.743011105">
		<tag k="fixme" v="consider natural=peak for the most distinct mountains in the district" />
		<tag k="name" v="Skavakselkollen" />
		<tag k="natural" v="hill" />
		<tag k="place" v="locality" />
		<tag k="ssr:stedsnr" v="843951" />
	</node>
	<node id="-736450" lat="68.6732527803" lon="16.9881111069">
		<tag k="name" v="Nivedhøgget" />
		<tag k="natural" v="slope" />
		<tag k="place" v="locality" />
		<tag k="ssr:stedsnr" v="843902" />
	</node>
	<node id="-736449" lat="68.6621750033" lon="16.9508138793">
		<tag k="name" v="Karidalen" />
		<tag k="natural" v="valley" />
		<tag k="place" v="locality" />
		<tag k="ssr:stedsnr" v="843899" />
	</node>
	<node id="-736448" lat="68.6695194448" lon="16.9504416647">
		<tag k="name" v="Øvre Lamarka" />
		<tag k="place" v="locality" />
		<tag k="ssr:stedsnr" v="843896" />
	</node>
	<node id="-736447" lat="68.6762722225" lon="16.9255666675">
		<tag k="name" v="Punkthågen" />
		<tag k="natural" v="hill" />
		<tag k="place" v="locality" />
		<tag k="ssr:stedsnr" v="843894" />
	</node>
	<node id="-736446" lat="68.6617083309" lon="17.1140166653">
		<tag k="name" v="Slåttebakkan" />
		<tag k="natural" v="slope" />
		<tag k="place" v="locality" />
		<tag k="ssr:stedsnr" v="843743" />
	</node>
	<node id="-736445" lat="68.6283305514" lon="17.2356527795">
		<tag k="name" v="Staggadalen" />
		<tag k="natural" v="valley" />
		<tag k="place" v="locality" />
		<tag k="ssr:stedsnr" v="843686" />
	</node>
	<node id="-736443" lat="68.6901166622" lon="16.9528805642">
		<tag k="name" v="Pålen" />
		<tag k="natural" v="hill" />
		<tag k="place" v="locality" />
		<tag k="ssr:stedsnr" v="843572" />
	</node>
	<node id="-736441" lat="68.6569972248" lon="17.2595527667">
		<tag k="name" v="Nessletta" />
		<tag k="place" v="locality" />
		<tag k="ssr:stedsnr" v="843285" />
	</node>
	<node id="-736440" lat="68.5855027817" lon="16.6277472216">
		<tag k="name" v="Setselstusletta" />
		<tag k="place" v="locality" />
		<tag k="ssr:stedsnr" v="843249" />
	</node>
	<node id="-736439" lat="68.5855194406" lon="16.5910944412">
		<tag k="name" v="Mølnhaugen" />
		<tag k="natural" v="hill" />
		<tag k="place" v="locality" />
		<tag k="ssr:stedsnr" v="843248" />
	</node>
	<node id="-736437" lat="68.5842055577" lon="16.710577787">
		<tag k="fixme" v="consider natural=peak for the most distinct mountains in the district" />
		<tag k="name" v="Tverråsen" />
		<tag k="natural" v="hill" />
		<tag k="place" v="locality" />
		<tag k="ssr:stedsnr" v="843212" />
	</node>
	<node id="-736435" lat="68.557786109" lon="16.6639444312">
		<tag k="name" v="Titingbakken" />
		<tag k="natural" v="slope" />
		<tag k="place" v="locality" />
		<tag k="ssr:stedsnr" v="843182" />
	</node>
	<node id="-736434" lat="68.5629666621" lon="16.7231138935">
		<tag k="name" v="Kudalen" />
		<tag k="natural" v="valley" />
		<tag k="place" v="locality" />
		<tag k="ssr:stedsnr" v="843178" />
	</node>
	<node id="-736431" lat="68.5498972244" lon="16.6723305449">
		<tag k="name" v="Kleppsteinsletta" />
		<tag k="place" v="locality" />
		<tag k="ssr:stedsnr" v="843019" />
	</node>
	<node id="-736430" lat="68.5416694451" lon="16.6488611021">
		<tag k="name" v="Antonsletta" />
		<tag k="place" v="locality" />
		<tag k="ssr:stedsnr" v="843018" />
	</node>
	<node id="-736429" lat="68.5348749991" lon="16.6655583325">
		<tag k="name" v="Permoa" />
		<tag k="place" v="locality" />
		<tag k="ssr:stedsnr" v="843016" />
	</node>
	<node id="-736428" lat="68.5293583357" lon="16.6752166556">
		<tag k="fixme" v="consider natural=peak for the most distinct mountains in the district" />
		<tag k="name" v="Ternåsen" />
		<tag k="natural" v="hill" />
		<tag k="place" v="locality" />
		<tag k="ssr:stedsnr" v="843003" />
	</node>
	<node id="-736419" lat="68.6742194406" lon="16.8293083205">
		<tag k="fixme" v="multiple name tags, choose one and add the other to alt_name; consider natural=peak for the most distinct mountains in the district" />
		<tag k="name" v="Høgåsen;Tovikåsen" />
		<tag k="natural" v="hill" />
		<tag k="place" v="locality" />
		<tag k="ssr:stedsnr" v="810000" />
	</node>
	<node id="-736418" lat="68.6632472257" lon="17.0466499978">
		<tag k="alt_name" v="Bjørnskardet" />
		<tag k="name" v="Bjørnskaret" />
		<tag k="natural" v="valley" />
		<tag k="place" v="locality" />
		<tag k="ssr:stedsnr" v="809995" />
	</node>
	<node id="-736416" lat="68.7168277766" lon="17.1780111043">
		<tag k="name" v="Skavlia - Skáhperámak" />
		<tag k="name:no" v="Skavlia" />
		<tag k="name:se" v="Skáhperámak" />
		<tag k="natural" v="slope" />
		<tag k="place" v="locality" />
		<tag k="ssr:stedsnr" v="809963" />
	</node>
	<node id="-736412" lat="68.5371833369" lon="16.7062250032">
		<tag k="alt_name" v="Boltåstuva" />
		<tag k="name" v="Boltåstua" />
		<tag k="natural" v="hill" />
		<tag k="place" v="locality" />
		<tag k="ssr:stedsnr" v="809884" />
	</node>
	<node id="-736409" lat="68.6251916699" lon="16.6851472312">
		<tag k="name" v="Svartdalen" />
		<tag k="natural" v="valley" />
		<tag k="place" v="locality" />
		<tag k="ssr:stedsnr" v="809254" />
	</node>
	<node id="-736408" lat="68.6035388927" lon="16.7704777728">
		<tag k="alt_name" v="Snaukollen, nedre" />
		<tag k="name" v="Nedre Snaukollen" />
		<tag k="natural" v="hill" />
		<tag k="place" v="locality" />
		<tag k="ssr:stedsnr" v="809212" />
	</node>
	<node id="-736406" lat="68.5907611094" lon="16.7415749881">
		<tag k="alt_name:no" v="Øyvannsskaret" />
		<tag k="name" v="Øyvasskaret - Guorttesgurra" />
		<tag k="name:no" v="Øyvasskaret" />
		<tag k="name:se" v="Guorttesgurra" />
		<tag k="natural" v="valley" />
		<tag k="old_name:se" v="Guortesgurra" />
		<tag k="place" v="locality" />
		<tag k="ssr:stedsnr" v="809189" />
	</node>
	<node id="-736404" lat="68.6655611161" lon="16.7460138773">
		<tag k="fixme" v="multiple name tags, choose one and add the other to alt_name; consider natural=peak for the most distinct mountains in the district" />
		<tag k="name" v="Sandberget;Sandfjellet" />
		<tag k="natural" v="hill" />
		<tag k="place" v="locality" />
		<tag k="ssr:stedsnr" v="809101" />
	</node>
	<node id="-736400" lat="68.6325305568" lon="16.7879444407">
		<tag k="fixme" v="consider natural=peak for the most distinct mountains in the district" />
		<tag k="name" v="Storkollen" />
		<tag k="natural" v="hill" />
		<tag k="place" v="locality" />
		<tag k="ssr:stedsnr" v="809008" />
	</node>
	<node id="-736399" lat="68.597374997" lon="17.036872209">
		<tag k="fixme" v="consider natural=peak for the most distinct mountains in the district" />
		<tag k="name" v="Grindalstind - Gojičohkka" />
		<tag k="name:no" v="Grindalstind" />
		<tag k="name:se" v="Gojičohkka" />
		<tag k="natural" v="hill" />
		<tag k="place" v="locality" />
		<tag k="ssr:stedsnr" v="808923" />
	</node>
	<node id="-736398" lat="68.6071833356" lon="17.0059861178">
		<tag k="name" v="Grindalen" />
		<tag k="natural" v="valley" />
		<tag k="place" v="locality" />
		<tag k="ssr:stedsnr" v="808918" />
	</node>
	<node id="-736397" lat="68.524947226" lon="16.5948277828">
		<tag k="fixme" v="consider natural=peak for the most distinct mountains in the district" />
		<tag k="name" v="Heståsen" />
		<tag k="natural" v="hill" />
		<tag k="place" v="locality" />
		<tag k="ssr:stedsnr" v="808596" />
	</node>
	<node id="-736393" lat="68.6053555599" lon="16.6209277753">
		<tag k="fixme" v="consider natural=peak for the most distinct mountains in the district" />
		<tag k="name" v="Nålslettåsen" />
		<tag k="natural" v="hill" />
		<tag k="place" v="locality" />
		<tag k="ssr:stedsnr" v="808196" />
	</node>
	<node id="-736391" lat="68.5697333365" lon="16.6919860996">
		<tag k="name" v="Trøsehøgda" />
		<tag k="natural" v="hill" />
		<tag k="old_name" v="Trøssehøgda" />
		<tag k="place" v="locality" />
		<tag k="ssr:stedsnr" v="808118" />
	</node>
	<node id="-736388" lat="68.5969638922" lon="17.5474249964">
		<tag k="fixme" v="consider natural=peak for the most distinct mountains in the district" />
		<tag k="name" v="Lofttinden - Návstaoaivi" />
		<tag k="name:no" v="Lofttinden" />
		<tag k="name:se" v="Návstaoaivi" />
		<tag k="natural" v="hill" />
		<tag k="place" v="locality" />
		<tag k="ssr:stedsnr" v="784158" />
	</node>
	<node id="-736384" lat="68.6628416633" lon="16.7611472318">
		<tag k="name" v="Sebogen" />
		<tag k="natural" v="slope" />
		<tag k="place" v="locality" />
		<tag k="ssr:stedsnr" v="782949" />
	</node>
	<node id="-736382" lat="68.6771749964" lon="16.9908527759">
		<tag k="name" v="Slettebakkan" />
		<tag k="natural" v="slope" />
		<tag k="place" v="locality" />
		<tag k="ssr:stedsnr" v="782883" />
	</node>
	<node id="-736380" lat="68.6604472221" lon="16.9000638981">
		<tag k="name" v="Daniel Johanhaugen" />
		<tag k="natural" v="hill" />
		<tag k="place" v="locality" />
		<tag k="ssr:stedsnr" v="782871" />
	</node>
	<node id="-736379" lat="68.6727083373" lon="16.946949998">
		<tag k="fixme" v="consider natural=peak for the most distinct mountains in the district" />
		<tag k="name" v="Lamarkhøgda" />
		<tag k="natural" v="hill" />
		<tag k="place" v="locality" />
		<tag k="ssr:stedsnr" v="782869" />
	</node>
	<node id="-736377" lat="68.5968444436" lon="16.6201194364">
		<tag k="fixme" v="consider natural=peak for the most distinct mountains in the district" />
		<tag k="name" v="Svartdalshøgda" />
		<tag k="natural" v="hill" />
		<tag k="place" v="locality" />
		<tag k="ssr:stedsnr" v="782796" />
	</node>
	<node id="-736375" lat="68.5619555548" lon="16.7306888886">
		<tag k="name" v="Berghaugen" />
		<tag k="natural" v="hill" />
		<tag k="place" v="locality" />
		<tag k="ssr:stedsnr" v="782737" />
	</node>
	<node id="-736373" lat="68.6290166668" lon="16.8598611099">
		<tag k="name" v="Mikkelskaret" />
		<tag k="natural" v="valley" />
		<tag k="place" v="locality" />
		<tag k="ssr:stedsnr" v="782732" />
	</node>
	<node id="-736371" lat="68.5979472266" lon="17.2007611137">
		<tag k="fixme" v="consider natural=peak for the most distinct mountains in the district" />
		<tag k="name" v="Novatinden" />
		<tag k="natural" v="hill" />
		<tag k="place" v="locality" />
		<tag k="ssr:stedsnr" v="782634" />
	</node>
	<node id="-736366" lat="68.5580361151" lon="16.6384611056">
		<tag k="name" v="Varberg" />
		<tag k="natural" v="hill" />
		<tag k="place" v="locality" />
		<tag k="ssr:stedsnr" v="782180" />
	</node>
	<node id="-736365" lat="68.6100638923" lon="16.6121999918">
		<tag k="name" v="Skipdalen" />
		<tag k="natural" v="valley" />
		<tag k="place" v="locality" />
		<tag k="ssr:stedsnr" v="782115" />
	</node>
	<node id="-736363" lat="68.518916667" lon="16.5818944398">
		<tag k="fixme" v="consider natural=peak for the most distinct mountains in the district" />
		<tag k="name" v="Finngammhøgda" />
		<tag k="natural" v="hill" />
		<tag k="place" v="locality" />
		<tag k="ssr:stedsnr" v="782022" />
	</node>
	<node id="-736362" lat="68.518816666" lon="16.6223944344">
		<tag k="name" v="Gabriel-Laberget" />
		<tag k="natural" v="hill" />
		<tag k="place" v="locality" />
		<tag k="ssr:stedsnr" v="782017" />
	</node>
	<node id="-736353" lat="68.5946277793" lon="17.4522944535">
		<tag k="fixme" v="consider natural=peak for the most distinct mountains in the district" />
		<tag k="name" v="Maridalshøgda - Váibmooaivi" />
		<tag k="name:no" v="Maridalshøgda" />
		<tag k="name:se" v="Váibmooaivi" />
		<tag k="natural" v="hill" />
		<tag k="old_name:se" v="Vaibmoaivi" />
		<tag k="place" v="locality" />
		<tag k="ssr:stedsnr" v="749558" />
	</node>
	<node id="-736349" lat="68.6636111134" lon="17.2708388969">
		<tag k="name" v="Segeldalen - Borjjasvággi" />
		<tag k="name:no" v="Segeldalen" />
		<tag k="name:se" v="Borjjasvággi" />
		<tag k="natural" v="valley" />
		<tag k="place" v="locality" />
		<tag k="ssr:stedsnr" v="748994" />
	</node>
	<node id="-736346" lat="68.6870305567" lon="17.1369583199">
		<tag k="fixme" v="consider natural=peak for the most distinct mountains in the district" />
		<tag k="name" v="Branden" />
		<tag k="natural" v="hill" />
		<tag k="place" v="locality" />
		<tag k="ssr:stedsnr" v="748977" />
	</node>
	<node id="-736342" lat="68.5734944458" lon="16.8324194435">
		<tag k="name" v="Gálbeluohkká" />
		<tag k="name:se" v="Gálbeluohkká" />
		<tag k="natural" v="hill" />
		<tag k="place" v="locality" />
		<tag k="ssr:stedsnr" v="748944" />
	</node>
	<node id="-736340" lat="68.6360416697" lon="17.1771583325">
		<tag k="name" v="Labergskaret - Áidegurra" />
		<tag k="name:no" v="Labergskaret" />
		<tag k="name:se" v="Áidegurra" />
		<tag k="natural" v="valley" />
		<tag k="place" v="locality" />
		<tag k="ssr:stedsnr" v="748914" />
	</node>
	<node id="-736338" lat="68.6384888877" lon="16.9656500038">
		<tag k="fixme" v="consider natural=peak for the most distinct mountains in the district" />
		<tag k="name" v="Tverrfjellet - Doaresvárri" />
		<tag k="name:no" v="Tverrfjellet" />
		<tag k="name:se" v="Doaresvárri" />
		<tag k="natural" v="hill" />
		<tag k="place" v="locality" />
		<tag k="ssr:stedsnr" v="748893" />
	</node>
	<node id="-736329" lat="68.5203944401" lon="16.6008944506">
		<tag k="alt_name" v="Kjerringholla" />
		<tag k="name" v="Kjerringhola" />
		<tag k="natural" v="valley" />
		<tag k="place" v="locality" />
		<tag k="ssr:stedsnr" v="748815" />
	</node>
	<node id="-736325" lat="68.5880833289" lon="16.6325500094">
		<tag k="name" v="Lahøgda" />
		<tag k="natural" v="hill" />
		<tag k="place" v="locality" />
		<tag k="ssr:stedsnr" v="748180" />
	</node>
	<node id="-736317" lat="68.6318861092" lon="16.7355416625">
		<tag k="fixme" v="consider natural=peak for the most distinct mountains in the district" />
		<tag k="name" v="Glefjellet" />
		<tag k="natural" v="hill" />
		<tag k="place" v="locality" />
		<tag k="ssr:stedsnr" v="748007" />
	</node>
	<node id="-736312" lat="68.6567361142" lon="16.8175583265">
		<tag k="name" v="Nordlihaugen" />
		<tag k="natural" v="hill" />
		<tag k="place" v="locality" />
		<tag k="ssr:stedsnr" v="721992" />
	</node>
	<node id="-736310" lat="68.5484222232" lon="16.7467555543">
		<tag k="name" v="Fossmo" />
		<tag k="place" v="locality" />
		<tag k="ssr:stedsnr" v="721861" />
	</node>
	<node id="-736309" lat="68.6057305591" lon="16.6979888833">
		<tag k="fixme" v="consider natural=peak for the most distinct mountains in the district" />
		<tag k="name" v="Langåsen" />
		<tag k="natural" v="hill" />
		<tag k="place" v="locality" />
		<tag k="ssr:stedsnr" v="721816" />
	</node>
	<node id="-736308" lat="68.6413999983" lon="17.0420222251">
		<tag k="name" v="Nonsan" />
		<tag k="natural" v="hill" />
		<tag k="place" v="locality" />
		<tag k="ssr:stedsnr" v="721692" />
	</node>
	<node id="-736306" lat="68.6411388851" lon="17.1220722286">
		<tag k="name" v="Hellaren" />
		<tag k="natural" v="hill" />
		<tag k="place" v="locality" />
		<tag k="ssr:stedsnr" v="721674" />
	</node>
	<node id="-736305" lat="68.6035666643" lon="17.2081944488">
		<tag k="name" v="Djupbergan" />
		<tag k="natural" v="hill" />
		<tag k="place" v="locality" />
		<tag k="ssr:stedsnr" v="721652" />
	</node>
	<node id="-736303" lat="68.6810916678" lon="17.1669444554">
		<tag k="name" v="Ramnflågdalen" />
		<tag k="natural" v="valley" />
		<tag k="place" v="locality" />
		<tag k="ssr:stedsnr" v="721641" />
	</node>
	<node id="-736302" lat="68.5837638897" lon="17.3121499988">
		<tag k="name" v="Søndre Rundhaugen" />
		<tag k="natural" v="hill" />
		<tag k="place" v="locality" />
		<tag k="ssr:stedsnr" v="721627" />
	</node>
	<node id="-736301" lat="68.6531083374" lon="17.0191277782">
		<tag k="fixme" v="consider natural=peak for the most distinct mountains in the district" />
		<tag k="name" v="Kollenden" />
		<tag k="natural" v="hill" />
		<tag k="place" v="locality" />
		<tag k="ssr:stedsnr" v="721573" />
	</node>
	<node id="-736298" lat="68.5703916698" lon="16.7839138803">
		<tag k="name" v="Ravnberget - Ruŋkabákti" />
		<tag k="name:no" v="Ravnberget" />
		<tag k="name:se" v="Ruŋkabákti" />
		<tag k="natural" v="hill" />
		<tag k="place" v="locality" />
		<tag k="ssr:stedsnr" v="721744" />
	</node>
	<node id="-736297" lat="68.6416333348" lon="17.1547333424">
		<tag k="name" v="Oldra" />
		<tag k="natural" v="slope" />
		<tag k="place" v="locality" />
		<tag k="ssr:stedsnr" v="721712" />
	</node>
	<node id="-736295" lat="68.6449222185" lon="17.2586527678">
		<tag k="name" v="Olderdalsberget" />
		<tag k="natural" v="hill" />
		<tag k="place" v="locality" />
		<tag k="ssr:stedsnr" v="721269" />
	</node>
	<node id="-736294" lat="68.650147219" lon="17.2663472101">
		<tag k="name" v="Trættehaugen" />
		<tag k="natural" v="hill" />
		<tag k="place" v="locality" />
		<tag k="ssr:stedsnr" v="721258" />
	</node>
	<node id="-736293" lat="68.5915138892" lon="16.6305138841">
		<tag k="fixme" v="consider natural=peak for the most distinct mountains in the district" />
		<tag k="name" v="Jenselahøgda" />
		<tag k="natural" v="hill" />
		<tag k="place" v="locality" />
		<tag k="ssr:stedsnr" v="721226" />
	</node>
	<node id="-736292" lat="68.5805444489" lon="16.5852222147">
		<tag k="name" v="Geitberget" />
		<tag k="natural" v="hill" />
		<tag k="place" v="locality" />
		<tag k="ssr:stedsnr" v="721199" />
	</node>
	<node id="-736291" lat="68.582902774" lon="16.6432666684">
		<tag k="name" v="Hattemyrbakken" />
		<tag k="natural" v="slope" />
		<tag k="place" v="locality" />
		<tag k="ssr:stedsnr" v="721200" />
	</node>
	<node id="-736290" lat="68.5840722209" lon="16.7209250035">
		<tag k="fixme" v="consider natural=peak for the most distinct mountains in the district" />
		<tag k="name" v="Čohkkadievvá" />
		<tag k="name:se" v="Čohkkadievvá" />
		<tag k="natural" v="hill" />
		<tag k="place" v="locality" />
		<tag k="ssr:stedsnr" v="721198" />
	</node>
	<node id="-736285" lat="68.6308916679" lon="16.708036122">
		<tag k="fixme" v="consider natural=peak for the most distinct mountains in the district" />
		<tag k="name" v="Vesteråsen" />
		<tag k="natural" v="hill" />
		<tag k="place" v="locality" />
		<tag k="ssr:stedsnr" v="721130" />
	</node>
	<node id="-736284" lat="68.637016671" lon="16.710963891">
		<tag k="name" v="Tennevikdalen" />
		<tag k="natural" v="valley" />
		<tag k="place" v="locality" />
		<tag k="ssr:stedsnr" v="721131" />
	</node>
	<node id="-736283" lat="68.6123305551" lon="16.6114527861">
		<tag k="name" v="Glahammaren" />
		<tag k="natural" v="hill" />
		<tag k="place" v="locality" />
		<tag k="ssr:stedsnr" v="721119" />
	</node>
	<node id="-736282" lat="68.5395083318" lon="16.6432888892">
		<tag k="name" v="Storursletta" />
		<tag k="place" v="locality" />
		<tag k="ssr:stedsnr" v="721054" />
	</node>
	<node id="-736280" lat="68.6833861144" lon="17.0433138838">
		<tag k="fixme" v="consider natural=peak for the most distinct mountains in the district" />
		<tag k="name" v="Storåsen" />
		<tag k="natural" v="hill" />
		<tag k="place" v="locality" />
		<tag k="ssr:stedsnr" v="714416" />
	</node>
	<node id="-736277" lat="68.662966666" lon="17.17950555">
		<tag k="name" v="Doaresbákti" />
		<tag k="name:se" v="Doaresbákti" />
		<tag k="natural" v="hill" />
		<tag k="place" v="locality" />
		<tag k="ssr:stedsnr" v="692237" />
	</node>
	<node id="-736276" lat="68.6379055544" lon="17.4410444373">
		<tag k="fixme" v="consider natural=peak for the most distinct mountains in the district" />
		<tag k="name" v="Dudalstinden - Guhtočohkka" />
		<tag k="name:no" v="Dudalstinden" />
		<tag k="name:se" v="Guhtočohkka" />
		<tag k="natural" v="hill" />
		<tag k="old_name:se" v="Guttučåkka" />
		<tag k="place" v="locality" />
		<tag k="ssr:stedsnr" v="689488" />
	</node>
	<node id="-736272" lat="68.6182305585" lon="16.7032583346">
		<tag k="fixme" v="consider natural=peak for the most distinct mountains in the district" />
		<tag k="name" v="Nipfjellet - Hoanttasvárri" />
		<tag k="name:no" v="Nipfjellet" />
		<tag k="name:se" v="Hoanttasvárri" />
		<tag k="natural" v="hill" />
		<tag k="place" v="locality" />
		<tag k="ssr:stedsnr" v="688273" />
	</node>
	<node id="-736270" lat="68.5785888852" lon="16.7888222117">
		<tag k="name" v="Kiskaret - Gáicagurra" />
		<tag k="name:no" v="Kiskaret" />
		<tag k="name:se" v="Gáicagurra" />
		<tag k="natural" v="valley" />
		<tag k="old_name:se" v="Gaicagurra" />
		<tag k="place" v="locality" />
		<tag k="ssr:stedsnr" v="688174" />
	</node>
	<node id="-736266" lat="68.5674750043" lon="17.3042777653">
		<tag k="fixme" v="consider natural=peak for the most distinct mountains in the district" />
		<tag k="name" v="Hornet" />
		<tag k="natural" v="hill" />
		<tag k="place" v="locality" />
		<tag k="ssr:stedsnr" v="687930" />
	</node>
	<node id="-736265" lat="68.5823611109" lon="17.2709138825">
		<tag k="name" v="Vaggenusheia" />
		<tag k="natural" v="slope" />
		<tag k="place" v="locality" />
		<tag k="ssr:stedsnr" v="687927" />
	</node>
	<node id="-736262" lat="68.5926083357" lon="17.1801388913">
		<tag k="name" v="Novadalen" />
		<tag k="natural" v="valley" />
		<tag k="place" v="locality" />
		<tag k="ssr:stedsnr" v="687909" />
	</node>
	<node id="-736257" lat="68.5624222203" lon="16.6956055427">
		<tag k="alt_name" v="Skjelhaugen" />
		<tag k="name" v="Skjellhågen" />
		<tag k="natural" v="hill" />
		<tag k="place" v="locality" />
		<tag k="ssr:stedsnr" v="687834" />
	</node>
	<node id="-736251" lat="68.6158305554" lon="16.6705416576">
		<tag k="fixme" v="consider natural=peak for the most distinct mountains in the district" />
		<tag k="name" v="Bergåsen" />
		<tag k="natural" v="hill" />
		<tag k="place" v="locality" />
		<tag k="ssr:stedsnr" v="687229" />
	</node>
	<node id="-736250" lat="68.6145194453" lon="16.7911305564">
		<tag k="name" v="Solberget" />
		<tag k="natural" v="hill" />
		<tag k="place" v="locality" />
		<tag k="ssr:stedsnr" v="687230" />
	</node>
	<node id="-736249" lat="68.6154499973" lon="16.6278138948">
		<tag k="fixme" v="multiple name tags, choose one and add the other to alt_name; consider natural=peak for the most distinct mountains in the district" />
		<tag k="name" v="Hermangropa;Hermannsgropåsen" />
		<tag k="natural" v="hill" />
		<tag k="place" v="locality" />
		<tag k="ssr:stedsnr" v="687227" />
	</node>
	<node id="-736248" lat="68.6071194423" lon="16.5849583389">
		<tag k="fixme" v="consider natural=peak for the most distinct mountains in the district" />
		<tag k="name" v="Søkkuåsen" />
		<tag k="natural" v="hill" />
		<tag k="place" v="locality" />
		<tag k="ssr:stedsnr" v="687208" />
	</node>
	<node id="-736243" lat="68.6497888912" lon="16.8051277719">
		<tag k="alt_name" v="Lamsoshaugen" />
		<tag k="name" v="Lamsåshaugen" />
		<tag k="natural" v="hill" />
		<tag k="place" v="locality" />
		<tag k="ssr:stedsnr" v="687022" />
	</node>
	<node id="-736242" lat="68.6355583339" lon="16.7070611116">
		<tag k="name" v="Ørnhaugen" />
		<tag k="natural" v="hill" />
		<tag k="place" v="locality" />
		<tag k="ssr:stedsnr" v="687016" />
	</node>
	<node id="-736239" lat="68.6523083347" lon="16.8362833307">
		<tag k="name" v="Kvithammaran" />
		<tag k="natural" v="hill" />
		<tag k="place" v="locality" />
		<tag k="ssr:stedsnr" v="660999" />
	</node>
	<node id="-736238" lat="68.6663472225" lon="16.8071527697">
		<tag k="name" v="Storvatnshaugen" />
		<tag k="natural" v="hill" />
		<tag k="place" v="locality" />
		<tag k="ssr:stedsnr" v="660964" />
	</node>
	<node id="-736236" lat="68.6685833323" lon="16.7920305532">
		<tag k="fixme" v="consider natural=peak for the most distinct mountains in the district" />
		<tag k="name" v="Åsen" />
		<tag k="natural" v="hill" />
		<tag k="place" v="locality" />
		<tag k="ssr:stedsnr" v="660960" />
	</node>
	<node id="-736232" lat="68.6657000012" lon="16.964080554">
		<tag k="name" v="Bjørnhaugen" />
		<tag k="natural" v="hill" />
		<tag k="place" v="locality" />
		<tag k="ssr:stedsnr" v="660894" />
	</node>
	<node id="-736230" lat="68.647461112" lon="16.8248583286">
		<tag k="name" v="Vadshaugene" />
		<tag k="natural" v="hill" />
		<tag k="place" v="locality" />
		<tag k="ssr:stedsnr" v="660855" />
	</node>
	<node id="-736228" lat="68.5999249976" lon="16.6800333331">
		<tag k="name" v="Storlegda" />
		<tag k="natural" v="slope" />
		<tag k="place" v="locality" />
		<tag k="ssr:stedsnr" v="660818" />
	</node>
	<node id="-736227" lat="68.5659333336" lon="16.7287388877">
		<tag k="name" v="Kudalhaugen" />
		<tag k="natural" v="hill" />
		<tag k="place" v="locality" />
		<tag k="ssr:stedsnr" v="660750" />
	</node>
	<node id="-736226" lat="68.5678722239" lon="16.7398527723">
		<tag k="name" v="Torvhaugen" />
		<tag k="natural" v="hill" />
		<tag k="place" v="locality" />
		<tag k="ssr:stedsnr" v="660749" />
	</node>
	<node id="-736224" lat="68.703894444" lon="17.1152444347">
		<tag k="name" v="Strupelia" />
		<tag k="natural" v="slope" />
		<tag k="place" v="locality" />
		<tag k="ssr:stedsnr" v="660722" />
	</node>
	<node id="-736223" lat="68.6741833311" lon="17.0586694477">
		<tag k="fixme" v="consider natural=peak for the most distinct mountains in the district" />
		<tag k="name" v="Seljeåsen" />
		<tag k="natural" v="hill" />
		<tag k="place" v="locality" />
		<tag k="ssr:stedsnr" v="660703" />
	</node>
	<node id="-736220" lat="68.5639472261" lon="17.2420611117">
		<tag k="name" v="Petterdalen" />
		<tag k="natural" v="valley" />
		<tag k="place" v="locality" />
		<tag k="ssr:stedsnr" v="660640" />
	</node>
	<node id="-736219" lat="68.6763111144" lon="17.1194166708">
		<tag k="name" v="Moa" />
		<tag k="place" v="locality" />
		<tag k="ssr:stedsnr" v="660615" />
	</node>
	<node id="-736216" lat="68.6836000023" lon="16.9313999911">
		<tag k="name" v="Gropa" />
		<tag k="natural" v="valley" />
		<tag k="place" v="locality" />
		<tag k="ssr:stedsnr" v="660575" />
	</node>
	<node id="-736213" lat="68.5740611079" lon="16.6682638875">
		<tag k="name" v="Kvitberghågen" />
		<tag k="natural" v="hill" />
		<tag k="place" v="locality" />
		<tag k="ssr:stedsnr" v="660215" />
	</node>
	<node id="-736210" lat="68.5439944401" lon="16.6723111079">
		<tag k="fixme" v="consider natural=peak for the most distinct mountains in the district" />
		<tag k="name" v="Stordalsåsen" />
		<tag k="natural" v="hill" />
		<tag k="place" v="locality" />
		<tag k="ssr:stedsnr" v="660023" />
	</node>
	<node id="-736209" lat="68.5430361114" lon="16.677386115">
		<tag k="name" v="Jonasdalen" />
		<tag k="natural" v="valley" />
		<tag k="place" v="locality" />
		<tag k="ssr:stedsnr" v="660021" />
	</node>
	<node id="-736208" lat="68.5231027749" lon="16.6391055646">
		<tag k="fixme" v="consider natural=peak for the most distinct mountains in the district" />
		<tag k="name" v="Blåbæråsen" />
		<tag k="natural" v="hill" />
		<tag k="place" v="locality" />
		<tag k="ssr:stedsnr" v="660014" />
	</node>
	<node id="-736207" lat="68.5278555579" lon="16.6648194453">
		<tag k="name" v="Lundlia" />
		<tag k="natural" v="slope" />
		<tag k="place" v="locality" />
		<tag k="ssr:stedsnr" v="660005" />
	</node>
	<node id="-736197" lat="68.6835444454" lon="17.1841916771">
		<tag k="name" v="Stefangorsa" />
		<tag k="name:se" v="Stefangorsa" />
		<tag k="natural" v="valley" />
		<tag k="place" v="locality" />
		<tag k="ssr:stedsnr" v="626976" />
	</node>
	<node id="-736195" lat="68.5713638914" lon="17.1892777745">
		<tag k="name" v="Runddalen - Jorbavággi" />
		<tag k="name:no" v="Runddalen" />
		<tag k="name:se" v="Jorbavággi" />
		<tag k="natural" v="valley" />
		<tag k="place" v="locality" />
		<tag k="ssr:stedsnr" v="626947" />
	</node>
	<node id="-736193" lat="68.6161672752" lon="16.838150251">
		<tag k="fixme" v="consider natural=peak for the most distinct mountains in the district" />
		<tag k="name" v="Kvitfjellet" />
		<tag k="natural" v="hill" />
		<tag k="place" v="locality" />
		<tag k="ssr:stedsnr" v="626905" />
	</node>
	<node id="-736187" lat="68.5221333338" lon="16.6078722187">
		<tag k="fixme" v="consider natural=peak for the most distinct mountains in the district" />
		<tag k="name" v="Gardsåsen" />
		<tag k="natural" v="hill" />
		<tag k="place" v="locality" />
		<tag k="ssr:stedsnr" v="626799" />
	</node>
	<node id="-736181" lat="68.6021249961" lon="16.5970361085">
		<tag k="alt_name" v="Tømmeråsen, l" />
		<tag k="fixme" v="consider natural=peak for the most distinct mountains in the district" />
		<tag k="name" v="Lille-tømmeråsen" />
		<tag k="natural" v="hill" />
		<tag k="place" v="locality" />
		<tag k="ssr:stedsnr" v="626226" />
	</node>
	<node id="-736175" lat="68.641555552" lon="16.776736115">
		<tag k="name" v="Lysvassdalen" />
		<tag k="natural" v="valley" />
		<tag k="place" v="locality" />
		<tag k="ssr:stedsnr" v="626018" />
	</node>
	<node id="-736173" lat="68.5304722195" lon="16.5835361199">
		<tag k="name" v="Småklubban" />
		<tag k="natural" v="hill" />
		<tag k="place" v="locality" />
		<tag k="ssr:stedsnr" v="607079" />
	</node>
	<node id="-736171" lat="68.6420388927" lon="16.7813444568">
		<tag k="fixme" v="consider natural=peak for the most distinct mountains in the district" />
		<tag k="name" v="Svartvatnhøgda" />
		<tag k="natural" v="hill" />
		<tag k="place" v="locality" />
		<tag k="ssr:stedsnr" v="599993" />
	</node>
	<node id="-736170" lat="68.663838893" lon="16.7909861083">
		<tag k="fixme" v="consider natural=peak for the most distinct mountains in the district" />
		<tag k="name" v="Glefjellet" />
		<tag k="natural" v="hill" />
		<tag k="place" v="locality" />
		<tag k="ssr:stedsnr" v="599975" />
	</node>
	<node id="-736169" lat="68.6724611085" lon="16.7652805542">
		<tag k="fixme" v="consider natural=peak for the most distinct mountains in the district" />
		<tag k="name" v="Buskslettkollen" />
		<tag k="natural" v="hill" />
		<tag k="place" v="locality" />
		<tag k="ssr:stedsnr" v="599968" />
	</node>
	<node id="-736168" lat="68.6456333318" lon="16.947402777">
		<tag k="fixme" v="consider natural=peak for the most distinct mountains in the district" />
		<tag k="name" v="Tverrfjellet" />
		<tag k="natural" v="hill" />
		<tag k="place" v="locality" />
		<tag k="ssr:stedsnr" v="599934" />
	</node>
	<node id="-736167" lat="68.6596750018" lon="17.008755556">
		<tag k="name" v="Forrhaugen" />
		<tag k="natural" v="hill" />
		<tag k="place" v="locality" />
		<tag k="ssr:stedsnr" v="599929" />
	</node>
	<node id="-736166" lat="68.6637444422" lon="16.9243638759">
		<tag k="name" v="Tortenbakkan" />
		<tag k="natural" v="slope" />
		<tag k="place" v="locality" />
		<tag k="ssr:stedsnr" v="599910" />
	</node>
	<node id="-736164" lat="68.6783277776" lon="16.8994861209">
		<tag k="name" v="Vedhøggan" />
		<tag k="natural" v="slope" />
		<tag k="place" v="locality" />
		<tag k="ssr:stedsnr" v="599901" />
	</node>
	<node id="-736161" lat="68.6256444425" lon="16.8094083272">
		<tag k="name" v="Marbakken" />
		<tag k="natural" v="slope" />
		<tag k="place" v="locality" />
		<tag k="ssr:stedsnr" v="599776" />
	</node>
	<node id="-736158" lat="68.6708944459" lon="17.0925305504">
		<tag k="name" v="Skaret" />
		<tag k="natural" v="valley" />
		<tag k="place" v="locality" />
		<tag k="ssr:stedsnr" v="599720" />
	</node>
	<node id="-736157" lat="68.6719277751" lon="17.092405564">
		<tag k="name" v="Småvikhaugan" />
		<tag k="natural" v="hill" />
		<tag k="place" v="locality" />
		<tag k="ssr:stedsnr" v="599718" />
	</node>
	<node id="-736155" lat="68.6778972232" lon="17.1543805618">
		<tag k="name" v="Ramnflåget" />
		<tag k="natural" v="hill" />
		<tag k="place" v="locality" />
		<tag k="ssr:stedsnr" v="599617" />
	</node>
	<node id="-736153" lat="68.6576972215" lon="17.0330388781">
		<tag k="name" v="Slåttet" />
		<tag k="place" v="locality" />
		<tag k="ssr:stedsnr" v="599607" />
	</node>
	<node id="-736152" lat="68.6878638858" lon="16.9226166587">
		<tag k="fixme" v="consider natural=peak for the most distinct mountains in the district" />
		<tag k="name" v="Rensåhøgda" />
		<tag k="natural" v="hill" />
		<tag k="place" v="locality" />
		<tag k="ssr:stedsnr" v="599574" />
	</node>
	<node id="-736149" lat="68.5824472185" lon="16.7159166523">
		<tag k="fixme" v="consider natural=peak for the most distinct mountains in the district" />
		<tag k="name" v="Reinåsen - Roasurápma" />
		<tag k="name:no" v="Reinåsen" />
		<tag k="name:se" v="Roasurápma" />
		<tag k="natural" v="hill" />
		<tag k="place" v="locality" />
		<tag k="ssr:stedsnr" v="587213" />
	</node>
	<node id="-736147" lat="68.606075001" lon="17.433474992">
		<tag k="name" v="Revdalen - Riebevággi" />
		<tag k="name:no" v="Revdalen" />
		<tag k="name:se" v="Riebevággi" />
		<tag k="natural" v="valley" />
		<tag k="old_name:se" v="Riebevaggi" />
		<tag k="place" v="locality" />
		<tag k="ssr:stedsnr" v="567545" />
	</node>
	<node id="-736144" lat="68.6682638857" lon="16.9188499873">
		<tag k="name" v="Djupvasshaugen" />
		<tag k="natural" v="hill" />
		<tag k="place" v="locality" />
		<tag k="ssr:stedsnr" v="566985" />
	</node>
	<node id="-736143" lat="68.6614666657" lon="17.0775777874">
		<tag k="fixme" v="consider natural=peak for the most distinct mountains in the district" />
		<tag k="name" v="Kattebergkollen" />
		<tag k="natural" v="hill" />
		<tag k="place" v="locality" />
		<tag k="ssr:stedsnr" v="566979" />
	</node>
	<node id="-736139" lat="68.6427888927" lon="17.0214722209">
		<tag k="name" v="Storjorddalen - Jalgesláhku" />
		<tag k="name:no" v="Storjorddalen" />
		<tag k="name:se" v="Jalgesláhku" />
		<tag k="natural" v="valley" />
		<tag k="place" v="locality" />
		<tag k="ssr:stedsnr" v="566902" />
	</node>
	<node id="-736135" lat="68.6255138936" lon="16.6036111071">
		<tag k="name" v="Middagshaugen" />
		<tag k="natural" v="hill" />
		<tag k="place" v="locality" />
		<tag k="ssr:stedsnr" v="566261" />
	</node>
	<node id="-736134" lat="68.5824972234" lon="16.6800250027">
		<tag k="fixme" v="consider natural=peak for the most distinct mountains in the district" />
		<tag k="name" v="Kistemyråsen" />
		<tag k="natural" v="hill" />
		<tag k="place" v="locality" />
		<tag k="ssr:stedsnr" v="566191" />
	</node>
	<node id="-736129" lat="68.6321472176" lon="16.7181388972">
		<tag k="name" v="Regnmoan" />
		<tag k="place" v="locality" />
		<tag k="ssr:stedsnr" v="566006" />
	</node>
	<node id="-736127" lat="68.5860249979" lon="17.3415833352">
		<tag k="name" v="Stabburshaugen - Njallavárri" />
		<tag k="name:no" v="Stabburshaugen" />
		<tag k="name:se" v="Njallavárri" />
		<tag k="natural" v="hill" />
		<tag k="place" v="locality" />
		<tag k="ssr:stedsnr" v="565919" />
	</node>
	<node id="-736126" lat="68.595591666" lon="17.0543861117">
		<tag k="fixme" v="consider natural=peak for the most distinct mountains in the district" />
		<tag k="name" v="Villdalsfjellet" />
		<tag k="natural" v="hill" />
		<tag k="place" v="locality" />
		<tag k="ssr:stedsnr" v="565917" />
	</node>
	<node id="-736124" lat="68.6303750026" lon="17.3622888845">
		<tag k="name" v="Stuoračahca" />
		<tag k="name:se" v="Stuoračahca" />
		<tag k="natural" v="valley" />
		<tag k="place" v="locality" />
		<tag k="ssr:stedsnr" v="565903" />
	</node>
	<node id="-736122" lat="68.6235944485" lon="16.6626999943">
		<tag k="name" v="Ørnhaugen" />
		<tag k="natural" v="hill" />
		<tag k="place" v="locality" />
		<tag k="ssr:stedsnr" v="565618" />
	</node>
	<node id="-736114" lat="68.6599055532" lon="16.9862111049">
		<tag k="fixme" v="consider natural=peak for the most distinct mountains in the district" />
		<tag k="name" v="Langvassåsen" />
		<tag k="natural" v="hill" />
		<tag k="place" v="locality" />
		<tag k="ssr:stedsnr" v="539908" />
	</node>
	<node id="-736113" lat="68.6679555591" lon="16.9814805633">
		<tag k="name" v="Tømmeråsbergan" />
		<tag k="natural" v="hill" />
		<tag k="place" v="locality" />
		<tag k="ssr:stedsnr" v="539903" />
	</node>
	<node id="-736111" lat="68.6224805569" lon="16.7906861206">
		<tag k="name" v="Skoppi" />
		<tag k="name:se" v="Skoppi" />
		<tag k="natural" v="valley" />
		<tag k="place" v="locality" />
		<tag k="ssr:stedsnr" v="539740" />
	</node>
	<node id="-736110" lat="68.6393361132" lon="17.1278333429">
		<tag k="name" v="Storberget" />
		<tag k="natural" v="hill" />
		<tag k="place" v="locality" />
		<tag k="ssr:stedsnr" v="539717" />
	</node>
	<node id="-736107" lat="68.5818611141" lon="17.3239611104">
		<tag k="name" v="Nordre Rundhaugen" />
		<tag k="natural" v="hill" />
		<tag k="place" v="locality" />
		<tag k="ssr:stedsnr" v="539666" />
	</node>
	<node id="-736106" lat="68.6206277743" lon="17.2695388837">
		<tag k="name" v="Ørngruben" />
		<tag k="natural" v="hill" />
		<tag k="place" v="locality" />
		<tag k="ssr:stedsnr" v="539664" />
	</node>
	<node id="-736105" lat="68.622438887" lon="17.2549138969">
		<tag k="fixme" v="consider natural=peak for the most distinct mountains in the district" />
		<tag k="name" v="Nødsfjellet" />
		<tag k="natural" v="hill" />
		<tag k="place" v="locality" />
		<tag k="ssr:stedsnr" v="539659" />
	</node>
	<node id="-736104" lat="68.5928861077" lon="17.218444436">
		<tag k="name" v="Hagen" />
		<tag k="natural" v="slope" />
		<tag k="place" v="locality" />
		<tag k="ssr:stedsnr" v="539653" />
	</node>
	<node id="-736103" lat="68.5902694435" lon="17.3343861125">
		<tag k="name" v="Finnvollen" />
		<tag k="place" v="locality" />
		<tag k="ssr:stedsnr" v="539646" />
	</node>
	<node id="-736101" lat="68.6347000004" lon="17.1641583352">
		<tag k="name" v="Labergsdalen" />
		<tag k="natural" v="valley" />
		<tag k="place" v="locality" />
		<tag k="ssr:stedsnr" v="539619" />
	</node>
	<node id="-736098" lat="68.5887749966" lon="16.578066671">
		<tag k="name" v="Rundhaugen" />
		<tag k="natural" v="hill" />
		<tag k="place" v="locality" />
		<tag k="ssr:stedsnr" v="539211" />
	</node>
	<node id="-736096" lat="68.5896138868" lon="16.7009694494">
		<tag k="name" v="Grønlia" />
		<tag k="natural" v="slope" />
		<tag k="place" v="locality" />
		<tag k="ssr:stedsnr" v="539178" />
	</node>
	<node id="-736095" lat="68.5888444412" lon="16.719424997">
		<tag k="name" v="Per Iversaplassen" />
		<tag k="place" v="locality" />
		<tag k="ssr:stedsnr" v="539177" />
	</node>
	<node id="-736093" lat="68.5691416686" lon="16.6321305516">
		<tag k="name" v="Skursandhaugen" />
		<tag k="natural" v="hill" />
		<tag k="place" v="locality" />
		<tag k="ssr:stedsnr" v="539158" />
	</node>
	<node id="-736091" lat="68.6101555542" lon="16.6080277842">
		<tag k="fixme" v="consider natural=peak for the most distinct mountains in the district" />
		<tag k="name" v="Slettåsen" />
		<tag k="natural" v="hill" />
		<tag k="place" v="locality" />
		<tag k="ssr:stedsnr" v="539114" />
	</node>
	<node id="-736079" lat="68.6689444402" lon="17.3430527752">
		<tag k="fixme" v="consider natural=peak for the most distinct mountains in the district" />
		<tag k="name" v="Nonsfjellet" />
		<tag k="natural" v="hill" />
		<tag k="place" v="locality" />
		<tag k="ssr:stedsnr" v="505992" />
	</node>
	<node id="-736077" lat="68.6686333351" lon="17.0633833269">
		<tag k="fixme" v="multiple name tags, choose one and add the other to alt_name; consider natural=peak for the most distinct mountains in the district" />
		<tag k="name" v="Miklevollkollen;Myklevollen" />
		<tag k="natural" v="hill" />
		<tag k="place" v="locality" />
		<tag k="ssr:stedsnr" v="505977" />
	</node>
	<node id="-736071" lat="68.5833638928" lon="16.8723527833">
		<tag k="fixme" v="consider natural=peak for the most distinct mountains in the district" />
		<tag k="name" v="Bratteberget - Ráhpesvárdu" />
		<tag k="name:no" v="Bratteberget" />
		<tag k="name:se" v="Ráhpesvárdu" />
		<tag k="natural" v="hill" />
		<tag k="place" v="locality" />
		<tag k="ssr:stedsnr" v="505905" />
	</node>
	<node id="-736070" lat="68.5830722259" lon="17.1057888845">
		<tag k="fixme" v="consider natural=peak for the most distinct mountains in the district" />
		<tag k="name" v="Slettfjellet - Meahccevárri" />
		<tag k="name:no" v="Slettfjellet" />
		<tag k="name:se" v="Meahccevárri" />
		<tag k="natural" v="hill" />
		<tag k="place" v="locality" />
		<tag k="ssr:stedsnr" v="505904" />
	</node>
	<node id="-736065" lat="68.5268638935" lon="16.6283972198">
		<tag k="name" v="Lauvsletta" />
		<tag k="place" v="locality" />
		<tag k="ssr:stedsnr" v="505790" />
	</node>
	<node id="-736057" lat="68.582858334" lon="16.7697333206">
		<tag k="name" v="Butoppen" />
		<tag k="natural" v="hill" />
		<tag k="place" v="locality" />
		<tag k="ssr:stedsnr" v="505191" />
	</node>
	<node id="-736055" lat="68.5776083378" lon="16.7036944337">
		<tag k="alt_name" v="Kjårra" />
		<tag k="name" v="Kjerra" />
		<tag k="natural" v="hill" />
		<tag k="place" v="locality" />
		<tag k="ssr:stedsnr" v="505163" />
	</node>
	<node id="-736052" lat="68.63559167" lon="16.7619999929">
		<tag k="name" v="Kringlehaugen" />
		<tag k="natural" v="hill" />
		<tag k="place" v="locality" />
		<tag k="ssr:stedsnr" v="505022" />
	</node>
	<node id="-736051" lat="68.6283583337" lon="16.6834138829">
		<tag k="name" v="Furuhaugen" />
		<tag k="natural" v="hill" />
		<tag k="place" v="locality" />
		<tag k="ssr:stedsnr" v="505008" />
	</node>
	<node id="-736048" lat="68.6043805518" lon="17.3897777803">
		<tag k="name" v="Gaskkaoalgi" />
		<tag k="name:se" v="Gaskkaoalgi" />
		<tag k="natural" v="ridge" />
		<tag k="place" v="locality" />
		<tag k="ssr:stedsnr" v="492214" />
	</node>
	<node id="-736047" lat="68.5400916686" lon="16.7411138924">
		<tag k="name" v="Gievži" />
		<tag k="name:se" v="Gievži" />
		<tag k="natural" v="valley" />
		<tag k="place" v="locality" />
		<tag k="ssr:stedsnr" v="482410" />
	</node>
	<node id="-736040" lat="68.6159388878" lon="17.1373666586">
		<tag k="fixme" v="consider natural=peak for the most distinct mountains in the district" />
		<tag k="name" v="Novafjellet - Orus" />
		<tag k="name:no" v="Novafjellet" />
		<tag k="name:se" v="Orus" />
		<tag k="natural" v="hill" />
		<tag k="place" v="locality" />
		<tag k="ssr:stedsnr" v="446897" />
	</node>
	<node id="-736039" lat="68.6063500016" lon="17.2873166763">
		<tag k="name" v="Buollánborri" />
		<tag k="name:se" v="Buollánborri" />
		<tag k="natural" v="ridge" />
		<tag k="place" v="locality" />
		<tag k="ssr:stedsnr" v="446281" />
	</node>
	<node id="-736037" lat="68.6725611145" lon="17.3129749936">
		<tag k="fixme" v="consider natural=peak for the most distinct mountains in the district" />
		<tag k="name" v="Tretinden" />
		<tag k="natural" v="hill" />
		<tag k="place" v="locality" />
		<tag k="ssr:stedsnr" v="445998" />
	</node>
	<node id="-736036" lat="68.6804138863" lon="17.1840583241">
		<tag k="name" v="Ramnfløy" />
		<tag k="natural" v="hill" />
		<tag k="place" v="locality" />
		<tag k="ssr:stedsnr" v="445978" />
	</node>
	<node id="-736026" lat="68.64664167" lon="16.6879666721">
		<tag k="name" v="Bjørnvikdalen" />
		<tag k="natural" v="valley" />
		<tag k="place" v="locality" />
		<tag k="ssr:stedsnr" v="445034" />
	</node>
	<node id="-736022" lat="68.5075083326" lon="16.6377000051">
		<tag k="fixme" v="consider natural=peak for the most distinct mountains in the district" />
		<tag k="name" v="Bjørnåsen" />
		<tag k="natural" v="hill" />
		<tag k="place" v="locality" />
		<tag k="ssr:stedsnr" v="444583" />
	</node>
	<node id="-736021" lat="68.6188555583" lon="16.615475003">
		<tag k="fixme" v="consider natural=peak for the most distinct mountains in the district" />
		<tag k="name" v="Nemmeråsen" />
		<tag k="natural" v="hill" />
		<tag k="place" v="locality" />
		<tag k="ssr:stedsnr" v="444201" />
	</node>
	<node id="-736017" lat="68.6084333328" lon="16.7863694311">
		<tag k="alt_name" v="Snaukollen, øvre" />
		<tag k="name" v="Øvre Snaukollen" />
		<tag k="natural" v="hill" />
		<tag k="place" v="locality" />
		<tag k="ssr:stedsnr" v="444180" />
	</node>
	<node id="-736014" lat="68.6272638927" lon="17.4525305471">
		<tag k="name" v="Gieđbmeriehppi" />
		<tag k="name:se" v="Gieđbmeriehppi" />
		<tag k="natural" v="valley" />
		<tag k="old_name:se" v="Gieđbmerieppi" />
		<tag k="place" v="locality" />
		<tag k="ssr:stedsnr" v="443511" />
	</node>
	<node id="-736013" lat="68.611252773" lon="16.7135222296">
		<tag k="name" v="Nipskaret - Hoanttasgurra" />
		<tag k="name:no" v="Nipskaret" />
		<tag k="name:se" v="Hoanttasgurra" />
		<tag k="natural" v="valley" />
		<tag k="place" v="locality" />
		<tag k="ssr:stedsnr" v="444210" />
	</node>
	<node id="-736009" lat="68.6413805565" lon="16.7587472175">
		<tag k="name" v="Kråhæsbakken" />
		<tag k="natural" v="slope" />
		<tag k="place" v="locality" />
		<tag k="ssr:stedsnr" v="418992" />
	</node>
	<node id="-736006" lat="68.6694416693" lon="16.7563444339">
		<tag k="fixme" v="consider natural=peak for the most distinct mountains in the district" />
		<tag k="name" v="Nontua" />
		<tag k="natural" v="hill" />
		<tag k="place" v="locality" />
		<tag k="ssr:stedsnr" v="418946" />
	</node>
	<node id="-736003" lat="68.5511222182" lon="16.7476527831">
		<tag k="name" v="Brannhaugen" />
		<tag k="natural" v="hill" />
		<tag k="place" v="locality" />
		<tag k="ssr:stedsnr" v="418858" />
	</node>
	<node id="-736001" lat="68.601705556" lon="16.6296333397">
		<tag k="fixme" v="consider natural=peak for the most distinct mountains in the district" />
		<tag k="name" v="Gluntemyrkollen" />
		<tag k="natural" v="hill" />
		<tag k="place" v="locality" />
		<tag k="ssr:stedsnr" v="418812" />
	</node>
	<node id="-735999" lat="68.5681722265" lon="16.749147216">
		<tag k="name" v="Seljehaugen" />
		<tag k="natural" v="hill" />
		<tag k="place" v="locality" />
		<tag k="ssr:stedsnr" v="418748" />
	</node>
	<node id="-735995" lat="68.7043944485" lon="17.1282749968">
		<tag k="fixme" v="consider natural=peak for the most distinct mountains in the district" />
		<tag k="name" v="Mellomkollen" />
		<tag k="natural" v="hill" />
		<tag k="place" v="locality" />
		<tag k="ssr:stedsnr" v="418699" />
	</node>
	<node id="-735994" lat="68.6554527743" lon="17.0618250063">
		<tag k="name" v="Reingjerdet" />
		<tag k="natural" v="slope" />
		<tag k="place" v="locality" />
		<tag k="ssr:stedsnr" v="418686" />
	</node>
	<node id="-735993" lat="68.6930250008" lon="17.031219455">
		<tag k="name" v="Steinmedalen" />
		<tag k="natural" v="valley" />
		<tag k="place" v="locality" />
		<tag k="ssr:stedsnr" v="418604" />
	</node>
	<node id="-735989" lat="68.6970583355" lon="16.9469472295">
		<tag k="name" v="Myrhaugen" />
		<tag k="natural" v="hill" />
		<tag k="place" v="locality" />
		<tag k="ssr:stedsnr" v="418541" />
	</node>
	<node id="-735988" lat="68.6925138858" lon="16.9652777865">
		<tag k="name" v="Lamoa" />
		<tag k="place" v="locality" />
		<tag k="ssr:stedsnr" v="418539" />
	</node>
	<node id="-735987" lat="68.6893500046" lon="16.9502249946">
		<tag k="name" v="Vasshauet" />
		<tag k="natural" v="hill" />
		<tag k="place" v="locality" />
		<tag k="ssr:stedsnr" v="418536" />
	</node>
	<node id="-735986" lat="68.6461555513" lon="17.2528444471">
		<tag k="name" v="Sollia" />
		<tag k="natural" v="slope" />
		<tag k="place" v="locality" />
		<tag k="ssr:stedsnr" v="418279" />
	</node>
	<node id="-735985" lat="68.6462388854" lon="17.2493083305">
		<tag k="name" v="Korsnesberget" />
		<tag k="natural" v="hill" />
		<tag k="place" v="locality" />
		<tag k="ssr:stedsnr" v="418271" />
	</node>
	<node id="-735983" lat="68.5925194418" lon="16.6921027739">
		<tag k="name" v="Hustrusletten" />
		<tag k="place" v="locality" />
		<tag k="ssr:stedsnr" v="418210" />
	</node>
	<node id="-735979" lat="68.6125250041" lon="16.575827777">
		<tag k="name" v="Okshaugen" />
		<tag k="natural" v="hill" />
		<tag k="place" v="locality" />
		<tag k="ssr:stedsnr" v="418082" />
	</node>
	<node id="-735977" lat="68.53035833" lon="16.6039777879">
		<tag k="name" v="Kalljeberget" />
		<tag k="natural" v="hill" />
		<tag k="place" v="locality" />
		<tag k="ssr:stedsnr" v="418076" />
	</node>
	<node id="-735976" lat="68.5353888901" lon="16.6868111014">
		<tag k="name" v="Grindhågen" />
		<tag k="natural" v="hill" />
		<tag k="place" v="locality" />
		<tag k="ssr:stedsnr" v="418021" />
	</node>
	<node id="-735974" lat="68.6161592604" lon="16.8504800126">
		<tag k="fixme" v="consider natural=peak for the most distinct mountains in the district" />
		<tag k="name" v="Blåfjellet - Vilgesvárri" />
		<tag k="name:no" v="Blåfjellet" />
		<tag k="name:se" v="Vilgesvárri" />
		<tag k="natural" v="hill" />
		<tag k="place" v="locality" />
		<tag k="ssr:stedsnr" v="264517" />
	</node>
	<node id="-735970" lat="68.6805249966" lon="17.1984749966">
		<tag k="name" v="Roabanjunni" />
		<tag k="name:se" v="Roabanjunni" />
		<tag k="natural" v="ridge" />
		<tag k="place" v="locality" />
		<tag k="ssr:stedsnr" v="263973" />
	</node>
	<node id="-735969" lat="68.5965555541" lon="17.0017305604">
		<tag k="fixme" v="consider natural=peak for the most distinct mountains in the district" />
		<tag k="name" v="Pungdalstind" />
		<tag k="natural" v="hill" />
		<tag k="place" v="locality" />
		<tag k="ssr:stedsnr" v="263918" />
	</node>
	<node id="-735967" lat="68.6513972209" lon="17.0007500031">
		<tag k="fixme" v="consider natural=peak for the most distinct mountains in the district" />
		<tag k="name" v="Storlemmen" />
		<tag k="natural" v="hill" />
		<tag k="place" v="locality" />
		<tag k="ssr:stedsnr" v="263895" />
	</node>
	<node id="-735966" lat="68.5390000048" lon="16.6492777703">
		<tag k="name" v="Gårdsletta" />
		<tag k="place" v="locality" />
		<tag k="ssr:stedsnr" v="263872" />
	</node>
	<node id="-735964" lat="68.5493055559" lon="16.6496166653">
		<tag k="alt_name" v="Løhågan" />
		<tag k="name" v="Løhaugen" />
		<tag k="natural" v="hill" />
		<tag k="place" v="locality" />
		<tag k="ssr:stedsnr" v="263850" />
	</node>
	<node id="-735960" lat="68.585972226" lon="16.7332527696">
		<tag k="loc_name:se" v="Gurra" />
		<tag k="name" v="Reinåsdalen" />
		<tag k="name:no" v="Reinåsdalen" />
		<tag k="natural" v="valley" />
		<tag k="place" v="locality" />
		<tag k="ssr:stedsnr" v="263197" />
	</node>
	<node id="-735957" lat="68.6359388892" lon="16.6323166707">
		<tag k="fixme" v="consider natural=peak for the most distinct mountains in the district" />
		<tag k="name" v="Kvitnesveten - Beahcevárri" />
		<tag k="name:no" v="Kvitnesveten" />
		<tag k="name:se" v="Beahcevárri" />
		<tag k="natural" v="hill" />
		<tag k="old_name:se" v="Bæccevarri" />
		<tag k="place" v="locality" />
		<tag k="ssr:stedsnr" v="263030" />
	</node>
	<node id="-735954" lat="68.6196888874" lon="17.4114999863">
		<tag k="fixme" v="consider natural=peak for the most distinct mountains in the district" />
		<tag k="name" v="Hábak" />
		<tag k="name:se" v="Hábak" />
		<tag k="natural" v="hill" />
		<tag k="place" v="locality" />
		<tag k="ssr:stedsnr" v="262912" />
	</node>
	<node id="-735950" lat="68.504080553" lon="16.6229499881">
		<tag k="fixme" v="consider natural=peak for the most distinct mountains in the district" />
		<tag k="name" v="Høgåsen" />
		<tag k="natural" v="hill" />
		<tag k="place" v="locality" />
		<tag k="ssr:stedsnr" v="262536" />
	</node>
	<node id="-735947" lat="68.5682083363" lon="16.7132361162">
		<tag k="name" v="Brattbakken" />
		<tag k="natural" v="slope" />
		<tag k="place" v="locality" />
		<tag k="ssr:stedsnr" v="262139" />
	</node>
	<node id="-735945" lat="68.5868472179" lon="17.4255472263">
		<tag k="fixme" v="consider natural=peak for the most distinct mountains in the district" />
		<tag k="name" v="Váibmoborri" />
		<tag k="name:se" v="Váibmoborri" />
		<tag k="natural" v="hill" />
		<tag k="old_name:se" v="Vaibmubårri" />
		<tag k="place" v="locality" />
		<tag k="ssr:stedsnr" v="260552" />
	</node>
	<node id="-735942" lat="68.6512916681" lon="16.7820805516">
		<tag k="name" v="Kvannelvberget" />
		<tag k="natural" v="hill" />
		<tag k="place" v="locality" />
		<tag k="ssr:stedsnr" v="236980" />
	</node>
	<node id="-735941" lat="68.6706611092" lon="16.7486277742">
		<tag k="fixme" v="consider natural=peak for the most distinct mountains in the district" />
		<tag k="name" v="Sandfjellet" />
		<tag k="natural" v="hill" />
		<tag k="place" v="locality" />
		<tag k="ssr:stedsnr" v="236968" />
	</node>
	<node id="-735939" lat="68.6751444404" lon="17.0362527798">
		<tag k="name" v="Olderskaret" />
		<tag k="natural" v="valley" />
		<tag k="place" v="locality" />
		<tag k="ssr:stedsnr" v="236919" />
	</node>
	<node id="-735936" lat="68.6401222238" lon="17.1110222166">
		<tag k="name" v="Seljashola" />
		<tag k="natural" v="valley" />
		<tag k="place" v="locality" />
		<tag k="ssr:stedsnr" v="236659" />
	</node>
	<node id="-735935" lat="68.6532361112" lon="16.7627055495">
		<tag k="name" v="Store Lappekjelhaugen" />
		<tag k="natural" v="hill" />
		<tag k="place" v="locality" />
		<tag k="ssr:stedsnr" v="235989" />
	</node>
	<node id="-735932" lat="68.6416555594" lon="16.6163916767">
		<tag k="name" v="Geithågen" />
		<tag k="natural" v="hill" />
		<tag k="place" v="locality" />
		<tag k="ssr:stedsnr" v="235851" />
	</node>
	<node id="-735930" lat="68.6265888892" lon="16.7401249987">
		<tag k="name" v="Strutsen" />
		<tag k="natural" v="hill" />
		<tag k="place" v="locality" />
		<tag k="ssr:stedsnr" v="235790" />
	</node>
	<node id="-735929" lat="68.5647027775" lon="16.7305305561">
		<tag k="name" v="Hegghaugen" />
		<tag k="natural" v="hill" />
		<tag k="place" v="locality" />
		<tag k="ssr:stedsnr" v="235786" />
	</node>
	<node id="-735926" lat="68.6688611136" lon="17.1537805632">
		<tag k="name" v="Løvmoen" />
		<tag k="place" v="locality" />
		<tag k="ssr:stedsnr" v="235647" />
	</node>
	<node id="-735924" lat="68.6609111095" lon="16.8860361176">
		<tag k="fixme" v="consider natural=peak for the most distinct mountains in the district" />
		<tag k="name" v="Reingjerdshøgda" />
		<tag k="natural" v="hill" />
		<tag k="place" v="locality" />
		<tag k="ssr:stedsnr" v="235912" />
	</node>
	<node id="-735923" lat="68.5908249985" lon="16.5936083291">
		<tag k="name" v="Myrmoen" />
		<tag k="place" v="locality" />
		<tag k="ssr:stedsnr" v="235254" />
	</node>
	<node id="-735920" lat="68.5027138877" lon="16.6426416725">
		<tag k="name" v="Skavlia" />
		<tag k="natural" v="slope" />
		<tag k="place" v="locality" />
		<tag k="ssr:stedsnr" v="235101" />
	</node>
	<node id="-735918" lat="68.5335750018" lon="16.5790777894">
		<tag k="name" v="Litleneset" />
		<tag k="natural" v="slope" />
		<tag k="place" v="locality" />
		<tag k="ssr:stedsnr" v="235088" />
	</node>
	<node id="-735917" lat="68.5321138891" lon="16.6267333338">
		<tag k="name" v="Kallbakketua" />
		<tag k="natural" v="hill" />
		<tag k="place" v="locality" />
		<tag k="ssr:stedsnr" v="235081" />
	</node>
	<node id="-735916" lat="68.5346638886" lon="16.6247111018">
		<tag k="name" v="Kallbakkan" />
		<tag k="natural" v="slope" />
		<tag k="place" v="locality" />
		<tag k="ssr:stedsnr" v="235082" />
	</node>
	<node id="-735915" lat="68.5349027783" lon="16.6516722184">
		<tag k="name" v="Melladalen" />
		<tag k="natural" v="valley" />
		<tag k="place" v="locality" />
		<tag k="ssr:stedsnr" v="235041" />
	</node>
	<node id="-735914" lat="68.5290138879" lon="16.6512666607">
		<tag k="name" v="Laslettlia" />
		<tag k="natural" v="slope" />
		<tag k="place" v="locality" />
		<tag k="ssr:stedsnr" v="235013" />
	</node>
	<node id="-735913" lat="68.5209888929" lon="16.6662722284">
		<tag k="name" v="Bakkelia" />
		<tag k="natural" v="slope" />
		<tag k="place" v="locality" />
		<tag k="ssr:stedsnr" v="235011" />
	</node>
	<node id="-735907" lat="68.6281611089" lon="16.9364249971">
		<tag k="fixme" v="consider natural=peak for the most distinct mountains in the district" />
		<tag k="name" v="Lafjelltind - Bálggesoaivi" />
		<tag k="name:no" v="Lafjelltind" />
		<tag k="name:se" v="Bálggesoaivi" />
		<tag k="natural" v="hill" />
		<tag k="place" v="locality" />
		<tag k="ssr:stedsnr" v="203916" />
	</node>
	<node id="-735906" lat="68.616936108" lon="17.3960805606">
		<tag k="alt_name:no" v="Revdalen, øvre" />
		<tag k="name" v="Øvre Revdalen - Badje-Riebevággi" />
		<tag k="name:no" v="Øvre Revdalen" />
		<tag k="name:se" v="Badje-Riebevággi" />
		<tag k="natural" v="valley" />
		<tag k="place" v="locality" />
		<tag k="ssr:stedsnr" v="203174" />
	</node>
	<node id="-735903" lat="68.5608944435" lon="16.8236138836">
		<tag k="name" v="Mersskaret - Meresgurra" />
		<tag k="name:no" v="Mersskaret" />
		<tag k="name:se" v="Meresgurra" />
		<tag k="natural" v="valley" />
		<tag k="place" v="locality" />
		<tag k="ssr:stedsnr" v="202940" />
	</node>
	<node id="-735900" lat="68.6062194416" lon="17.124466661">
		<tag k="name" v="Trangdalen - Ruššovággi" />
		<tag k="name:no" v="Trangdalen" />
		<tag k="name:se" v="Ruššovággi" />
		<tag k="natural" v="valley" />
		<tag k="place" v="locality" />
		<tag k="ssr:stedsnr" v="202934" />
	</node>
	<node id="-735899" lat="68.5853555571" lon="17.1518166692">
		<tag k="fixme" v="consider natural=peak for the most distinct mountains in the district" />
		<tag k="name" v="Trangdalsfjellet - Ruššovárri" />
		<tag k="name:no" v="Trangdalsfjellet" />
		<tag k="name:se" v="Ruššovárri" />
		<tag k="natural" v="hill" />
		<tag k="place" v="locality" />
		<tag k="ssr:stedsnr" v="202926" />
	</node>
	<node id="-735898" lat="68.6339277773" lon="17.3806805634">
		<tag k="fixme" v="consider natural=peak for the most distinct mountains in the district" />
		<tag k="name" v="Sandfjellet" />
		<tag k="natural" v="hill" />
		<tag k="place" v="locality" />
		<tag k="ssr:stedsnr" v="202916" />
	</node>
	<node id="-735881" lat="68.571219445" lon="16.7641055627">
		<tag k="name" v="Eliasbakken - Eljasrápma" />
		<tag k="name:no" v="Eliasbakken" />
		<tag k="name:se" v="Eljasrápma" />
		<tag k="natural" v="hill" />
		<tag k="place" v="locality" />
		<tag k="ssr:stedsnr" v="202134" />
	</node>
	<node id="-735878" lat="68.6229722207" lon="16.7859000095">
		<tag k="fixme" v="multiple name tags, choose one and add the other to alt_name" />
		<tag k="name" v="Møllehaugen;Mølnhaugen" />
		<tag k="natural" v="hill" />
		<tag k="place" v="locality" />
		<tag k="ssr:stedsnr" v="202246" />
	</node>
	<node id="-735876" lat="68.6019777771" lon="17.3965249949">
		<tag k="name" v="Unna oalgi" />
		<tag k="name:se" v="Unna oalgi" />
		<tag k="natural" v="ridge" />
		<tag k="place" v="locality" />
		<tag k="ssr:stedsnr" v="189225" />
	</node>
	<node id="-735873" lat="68.543200754" lon="16.7937707406">
		<tag k="name" v="Skáiddigorsa" />
		<tag k="name:se" v="Skáiddigorsa" />
		<tag k="natural" v="gorge" />
		<tag k="ssr:stedsnr" v="176381" />
	</node>
	<node id="-735872" lat="68.6556361119" lon="16.8413111062">
		<tag k="name" v="Bjørndalshaugen" />
		<tag k="natural" v="hill" />
		<tag k="place" v="locality" />
		<tag k="ssr:stedsnr" v="175997" />
	</node>
	<node id="-735871" lat="68.6490333287" lon="16.8444861145">
		<tag k="name" v="Svarthammaren" />
		<tag k="natural" v="hill" />
		<tag k="place" v="locality" />
		<tag k="ssr:stedsnr" v="175995" />
	</node>
	<node id="-735870" lat="68.6790055599" lon="16.8347777708">
		<tag k="name" v="Kvitberget" />
		<tag k="natural" v="hill" />
		<tag k="place" v="locality" />
		<tag k="ssr:stedsnr" v="175970" />
	</node>
	<node id="-735869" lat="68.6640250033" lon="16.7379083304">
		<tag k="fixme" v="consider natural=peak for the most distinct mountains in the district" />
		<tag k="name" v="Kvitfjellet" />
		<tag k="natural" v="hill" />
		<tag k="place" v="locality" />
		<tag k="ssr:stedsnr" v="175956" />
	</node>
	<node id="-735867" lat="68.5768166678" lon="17.3044416636">
		<tag k="name" v="Sætehaugen" />
		<tag k="natural" v="hill" />
		<tag k="place" v="locality" />
		<tag k="ssr:stedsnr" v="175679" />
	</node>
	<node id="-735866" lat="68.6314333361" lon="17.2161305583">
		<tag k="name" v="Kåvandalen" />
		<tag k="natural" v="valley" />
		<tag k="place" v="locality" />
		<tag k="ssr:stedsnr" v="175676" />
	</node>
	<node id="-735865" lat="68.561547222" lon="17.1990166608">
		<tag k="fixme" v="consider natural=peak for the most distinct mountains in the district" />
		<tag k="name" v="Runddalsfjellet" />
		<tag k="natural" v="hill" />
		<tag k="place" v="locality" />
		<tag k="ssr:stedsnr" v="175669" />
	</node>
	<node id="-735864" lat="68.5930361122" lon="17.3504194332">
		<tag k="name" v="Tyrihaugen" />
		<tag k="natural" v="hill" />
		<tag k="place" v="locality" />
		<tag k="ssr:stedsnr" v="175648" />
	</node>
	<node id="-735863" lat="68.584041671" lon="17.3284833266">
		<tag k="name" v="Sletthaugen" />
		<tag k="natural" v="hill" />
		<tag k="place" v="locality" />
		<tag k="ssr:stedsnr" v="175646" />
	</node>
	<node id="-735860" lat="68.6360805576" lon="17.1332583248">
		<tag k="name" v="Karilidalen" />
		<tag k="natural" v="valley" />
		<tag k="place" v="locality" />
		<tag k="ssr:stedsnr" v="175619" />
	</node>
	<node id="-735858" lat="68.7077833328" lon="17.0059222114">
		<tag k="fixme" v="consider natural=peak for the most distinct mountains in the district" />
		<tag k="name" v="Nord-Svellen" />
		<tag k="natural" v="hill" />
		<tag k="place" v="locality" />
		<tag k="ssr:stedsnr" v="175571" />
	</node>
	<node id="-735857" lat="68.6980500042" lon="16.9395833267">
		<tag k="fixme" v="consider natural=peak for the most distinct mountains in the district" />
		<tag k="name" v="Åsen" />
		<tag k="natural" v="hill" />
		<tag k="place" v="locality" />
		<tag k="ssr:stedsnr" v="175564" />
	</node>
	<node id="-735856" lat="68.6821972256" lon="16.9527305452">
		<tag k="name" v="Lamarkberget" />
		<tag k="natural" v="hill" />
		<tag k="place" v="locality" />
		<tag k="ssr:stedsnr" v="175553" />
	</node>
	<node id="-735855" lat="68.6262722179" lon="16.7602694505">
		<tag k="name" v="Ole Johannesen høgda" />
		<tag k="natural" v="hill" />
		<tag k="place" v="locality" />
		<tag k="ssr:stedsnr" v="175780" />
	</node>
	<node id="-735853" lat="68.7088138891" lon="17.1279805582">
		<tag k="fixme" v="consider natural=peak for the most distinct mountains in the district" />
		<tag k="name" v="Nærkollen" />
		<tag k="natural" v="hill" />
		<tag k="place" v="locality" />
		<tag k="ssr:stedsnr" v="175731" />
	</node>
	<node id="-735852" lat="68.5880388891" lon="17.4242916606">
		<tag k="name" v="Váibmovuopmi" />
		<tag k="name:se" v="Váibmovuopmi" />
		<tag k="natural" v="valley" />
		<tag k="place" v="locality" />
		<tag k="ssr:stedsnr" v="175292" />
	</node>
	<node id="-735850" lat="68.571347218" lon="17.3604250022">
		<tag k="fixme" v="consider natural=peak for the most distinct mountains in the district" />
		<tag k="name" v="Aksoåsen" />
		<tag k="natural" v="hill" />
		<tag k="place" v="locality" />
		<tag k="ssr:stedsnr" v="175286" />
	</node>
	<node id="-735848" lat="68.5781472178" lon="16.6617194507">
		<tag k="name" v="Høgåssletten" />
		<tag k="place" v="locality" />
		<tag k="ssr:stedsnr" v="175204" />
	</node>
	<node id="-735847" lat="68.5650722222" lon="16.668308337">
		<tag k="name" v="Kvitberget" />
		<tag k="natural" v="hill" />
		<tag k="place" v="locality" />
		<tag k="ssr:stedsnr" v="175167" />
	</node>
	<node id="-735845" lat="68.5367555576" lon="16.5793722257">
		<tag k="name" v="Storsletta" />
		<tag k="place" v="locality" />
		<tag k="ssr:stedsnr" v="175073" />
	</node>
	<node id="-735844" lat="68.5317972199" lon="16.5847083345">
		<tag k="name" v="Blombakkan" />
		<tag k="natural" v="slope" />
		<tag k="place" v="locality" />
		<tag k="ssr:stedsnr" v="175070" />
	</node>
	<node id="-735839" lat="68.6116222257" lon="16.7164749908">
		<tag k="name" v="Hoanttasroggi" />
		<tag k="name:se" v="Hoanttasroggi" />
		<tag k="natural" v="valley" />
		<tag k="place" v="locality" />
		<tag k="ssr:stedsnr" v="157832" />
	</node>
	<node id="-735827" lat="68.6779055592" lon="17.231505545">
		<tag k="fixme" v="consider natural=peak for the most distinct mountains in the district" />
		<tag k="name" v="Skorvetind" />
		<tag k="natural" v="hill" />
		<tag k="place" v="locality" />
		<tag k="ssr:stedsnr" v="141966" />
	</node>
	<node id="-735824" lat="68.6355333327" lon="17.1943333347">
		<tag k="fixme" v="consider natural=peak for the most distinct mountains in the district" />
		<tag k="name" v="Holtan" />
		<tag k="natural" v="hill" />
		<tag k="place" v="locality" />
		<tag k="ssr:stedsnr" v="141888" />
	</node>
	<node id="-735823" lat="68.6545638915" lon="17.3104944357">
		<tag k="fixme" v="consider natural=peak for the most distinct mountains in the district" />
		<tag k="name" v="Oldertinden - Leaibečohkka" />
		<tag k="name:no" v="Oldertinden" />
		<tag k="name:se" v="Leaibečohkka" />
		<tag k="natural" v="hill" />
		<tag k="place" v="locality" />
		<tag k="ssr:stedsnr" v="141880" />
	</node>
	<node id="-735822" lat="68.5465055533" lon="16.6696777827">
		<tag k="alt_name" v="Storemyråsen" />
		<tag k="fixme" v="consider natural=peak for the most distinct mountains in the district" />
		<tag k="name" v="Stormyråsen" />
		<tag k="natural" v="hill" />
		<tag k="place" v="locality" />
		<tag k="ssr:stedsnr" v="141869" />
	</node>
	<node id="-735819" lat="68.5271027735" lon="16.5721555634">
		<tag k="name" v="Småklubban" />
		<tag k="natural" v="hill" />
		<tag k="place" v="locality" />
		<tag k="ssr:stedsnr" v="141762" />
	</node>
	<node id="-735816" lat="68.6027472227" lon="16.6769777828">
		<tag k="name" v="Lysvasshaugen" />
		<tag k="natural" v="hill" />
		<tag k="place" v="locality" />
		<tag k="ssr:stedsnr" v="141206" />
	</node>
	<node id="-735815" lat="68.6001722217" lon="16.6587305448">
		<tag k="name" v="Langdalshøgda" />
		<tag k="natural" v="hill" />
		<tag k="place" v="locality" />
		<tag k="ssr:stedsnr" v="141199" />
	</node>
	<node id="-735812" lat="68.6685027786" lon="16.8054777863">
		<tag k="fixme" v="consider natural=peak for the most distinct mountains in the district" />
		<tag k="name" v="Bakåsen" />
		<tag k="natural" v="hill" />
		<tag k="place" v="locality" />
		<tag k="ssr:stedsnr" v="141105" />
	</node>
	<node id="-735808" lat="68.6485944437" lon="16.6556416737">
		<tag k="name" v="Brattbergan" />
		<tag k="natural" v="hill" />
		<tag k="place" v="locality" />
		<tag k="ssr:stedsnr" v="141058" />
	</node>
	<node id="-735807" lat="68.6162333364" lon="17.3623111043">
		<tag k="fixme" v="consider natural=peak for the most distinct mountains in the district" />
		<tag k="name" v="Revfjellet - Oalgi" />
		<tag k="name:no" v="Revfjellet" />
		<tag k="name:se" v="Oalgi" />
		<tag k="natural" v="hill" />
		<tag k="place" v="locality" />
		<tag k="ssr:stedsnr" v="140924" />
	</node>
	<node id="-735806" lat="68.5859027821" lon="17.2870027715">
		<tag k="name" v="Snaukollen" />
		<tag k="natural" v="hill" />
		<tag k="place" v="locality" />
		<tag k="ssr:stedsnr" v="140920" />
	</node>
	<node id="-735805" lat="68.5959527799" lon="16.9123944384">
		<tag k="name" v="Skittendalen - Baikaláhku" />
		<tag k="name:no" v="Skittendalen" />
		<tag k="name:se" v="Baikaláhku" />
		<tag k="natural" v="valley" />
		<tag k="place" v="locality" />
		<tag k="ssr:stedsnr" v="140915" />
	</node>
	<node id="-735804" lat="68.6317638871" lon="17.3041444375">
		<tag k="fixme" v="consider natural=peak for the most distinct mountains in the district" />
		<tag k="name" v="Evatind" />
		<tag k="natural" v="hill" />
		<tag k="place" v="locality" />
		<tag k="ssr:stedsnr" v="140909" />
	</node>
	<node id="-735799" lat="68.6515194425" lon="16.7343527719">
		<tag k="name" v="Finkongshaugen" />
		<tag k="natural" v="hill" />
		<tag k="place" v="locality" />
		<tag k="ssr:stedsnr" v="114980" />
	</node>
	<node id="-735797" lat="68.6706694421" lon="17.0263555437">
		<tag k="name" v="Namforbakka" />
		<tag k="natural" v="slope" />
		<tag k="place" v="locality" />
		<tag k="ssr:stedsnr" v="114931" />
	</node>
	<node id="-735796" lat="68.6712833303" lon="16.9637583411">
		<tag k="name" v="Kriken" />
		<tag k="natural" v="slope" />
		<tag k="place" v="locality" />
		<tag k="ssr:stedsnr" v="114925" />
	</node>
	<node id="-735794" lat="68.5576305525" lon="16.7438166756">
		<tag k="name" v="Rosenhaugen" />
		<tag k="natural" v="hill" />
		<tag k="place" v="locality" />
		<tag k="ssr:stedsnr" v="114787" />
	</node>
	<node id="-735792" lat="68.6276972261" lon="17.2528833246">
		<tag k="name" v="Stagga" />
		<tag k="natural" v="slope" />
		<tag k="place" v="locality" />
		<tag k="ssr:stedsnr" v="114690" />
	</node>
	<node id="-735791" lat="68.579594449" lon="17.2577138841">
		<tag k="name" v="Stordalen" />
		<tag k="natural" v="valley" />
		<tag k="place" v="locality" />
		<tag k="ssr:stedsnr" v="114676" />
	</node>
	<node id="-735788" lat="68.7052277738" lon="16.9575583232">
		<tag k="name" v="Nabbeberget" />
		<tag k="natural" v="hill" />
		<tag k="place" v="locality" />
		<tag k="ssr:stedsnr" v="114608" />
	</node>
	<node id="-735786" lat="68.6541666651" lon="17.25776388">
		<tag k="name" v="Ravnsletta" />
		<tag k="place" v="locality" />
		<tag k="ssr:stedsnr" v="114293" />
	</node>
	<node id="-735782" lat="68.5661277782" lon="16.6338749997">
		<tag k="name" v="Bratthammaren" />
		<tag k="natural" v="hill" />
		<tag k="place" v="locality" />
		<tag k="ssr:stedsnr" v="114184" />
	</node>
	<node id="-735780" lat="68.5726055576" lon="16.6318916736">
		<tag k="name" v="Skjeppholbakken" />
		<tag k="natural" v="slope" />
		<tag k="place" v="locality" />
		<tag k="ssr:stedsnr" v="114181" />
	</node>
	<node id="-735778" lat="68.5364916663" lon="16.668838891">
		<tag k="name" v="Hestholla" />
		<tag k="natural" v="valley" />
		<tag k="place" v="locality" />
		<tag k="ssr:stedsnr" v="114024" />
	</node>
	<node id="-735769" lat="68.6616972197" lon="17.2080860984">
		<tag k="name" v="Riidoluohkká" />
		<tag k="name:se" v="Riidoluohkká" />
		<tag k="natural" v="slope" />
		<tag k="place" v="locality" />
		<tag k="ssr:stedsnr" v="85208" />
	</node>
	<node id="-735760" lat="68.5789111092" lon="16.9542249972">
		<tag k="fixme" v="multiple name tags, choose one and add the other to alt_name; consider natural=peak for the most distinct mountains in the district" />
		<tag k="name" v="Skittendalstinden - Baikalágčohkka;Nástečohkka" />
		<tag k="name:no" v="Skittendalstinden" />
		<tag k="name:se" v="Baikalágčohkka;Nástečohkka" />
		<tag k="natural" v="hill" />
		<tag k="place" v="locality" />
		<tag k="ssr:stedsnr" v="81925" />
	</node>
	<node id="-735751" lat="68.5918277793" lon="16.6533305562">
		<tag k="name" v="Steinbakkan" />
		<tag k="natural" v="slope" />
		<tag k="place" v="locality" />
		<tag k="ssr:stedsnr" v="81195" />
	</node>
	<node id="-735743" lat="68.6699166627" lon="16.7779444505">
		<tag k="fixme" v="consider natural=peak for the most distinct mountains in the district" />
		<tag k="name" v="Kjellåsen" />
		<tag k="natural" v="hill" />
		<tag k="place" v="locality" />
		<tag k="ssr:stedsnr" v="81103" />
	</node>
	<node id="-735737" lat="68.5585805585" lon="16.6904361185">
		<tag k="alt_name" v="Mærafteshågen" />
		<tag k="name" v="Merafteshaugen" />
		<tag k="natural" v="hill" />
		<tag k="place" v="locality" />
		<tag k="ssr:stedsnr" v="80832" />
	</node>
	<node id="-735733" lat="68.6164749998" lon="16.7207861187">
		<tag k="fixme" v="multiple name tags, choose one and add the other to alt_name" />
		<tag k="name" v="Stornipen;Søndre Nipen - Hoanttasčohkka" />
		<tag k="name:no" v="Stornipen;Søndre Nipen" />
		<tag k="name:se" v="Hoanttasčohkka" />
		<tag k="natural" v="hill" />
		<tag k="place" v="locality" />
		<tag k="ssr:stedsnr" v="80246" />
	</node>
	<node id="-735729" lat="68.6162000005" lon="17.4580444437">
		<tag k="alt_name" v="Revdalen, l" />
		<tag k="name" v="Litle Revdalen" />
		<tag k="natural" v="valley" />
		<tag k="place" v="locality" />
		<tag k="ssr:stedsnr" v="78534" />
	</node>
	<node id="-735727" lat="68.5651555599" lon="16.7910055539">
		<tag k="fixme" v="consider natural=peak for the most distinct mountains in the district" />
		<tag k="name" v="Flatfjellet - Doardna" />
		<tag k="name:no" v="Flatfjellet" />
		<tag k="name:se" v="Doardna" />
		<tag k="natural" v="hill" />
		<tag k="place" v="locality" />
		<tag k="ssr:stedsnr" v="80136" />
	</node>
	<node id="-735725" lat="68.641011112" lon="16.9160638881">
		<tag k="name" v="Tverrelvdalen" />
		<tag k="natural" v="valley" />
		<tag k="place" v="locality" />
		<tag k="ssr:stedsnr" v="54937" />
	</node>
	<node id="-735724" lat="68.6676222183" lon="17.0111944475">
		<tag k="name" v="Skillhågen" />
		<tag k="natural" v="hill" />
		<tag k="place" v="locality" />
		<tag k="ssr:stedsnr" v="54928" />
	</node>
	<node id="-735722" lat="68.6031527825" lon="16.6022194367">
		<tag k="name" v="Finnsletta" />
		<tag k="place" v="locality" />
		<tag k="ssr:stedsnr" v="54830" />
	</node>
	<node id="-735719" lat="68.6223916668" lon="16.8595333386">
		<tag k="name" v="Isskaret" />
		<tag k="natural" v="valley" />
		<tag k="place" v="locality" />
		<tag k="ssr:stedsnr" v="54797" />
	</node>
	<node id="-735714" lat="68.7041666706" lon="16.9539361185">
		<tag k="name" v="Skagan" />
		<tag k="natural" v="slope" />
		<tag k="place" v="locality" />
		<tag k="ssr:stedsnr" v="54589" />
	</node>
	<node id="-735713" lat="68.6932972255" lon="16.9572527811">
		<tag k="name" v="Olderbakken" />
		<tag k="natural" v="slope" />
		<tag k="place" v="locality" />
		<tag k="ssr:stedsnr" v="54574" />
	</node>
	<node id="-735712" lat="68.6270055525" lon="17.2115833396">
		<tag k="fixme" v="consider natural=peak for the most distinct mountains in the district" />
		<tag k="loc_name:no" v="Kovannakken" />
		<tag k="name" v="Kåvannakken - Gurraoaivi" />
		<tag k="name:no" v="Kåvannakken" />
		<tag k="name:se" v="Gurraoaivi" />
		<tag k="natural" v="hill" />
		<tag k="place" v="locality" />
		<tag k="ssr:stedsnr" v="54663" />
	</node>
	<node id="-735710" lat="68.6096111095" lon="16.6163222241">
		<tag k="fixme" v="consider natural=peak for the most distinct mountains in the district" />
		<tag k="name" v="Skipdalsåsen" />
		<tag k="natural" v="hill" />
		<tag k="place" v="locality" />
		<tag k="ssr:stedsnr" v="54130" />
	</node>
	<node id="-735709" lat="68.5642861146" lon="16.71784444">
		<tag k="name" v="Grønnlia" />
		<tag k="natural" v="slope" />
		<tag k="place" v="locality" />
		<tag k="ssr:stedsnr" v="54174" />
	</node>
	<node id="-735708" lat="68.5509416657" lon="16.6781694543">
		<tag k="name" v="Halvgårskarryggen" />
		<tag k="natural" v="ridge" />
		<tag k="place" v="locality" />
		<tag k="ssr:stedsnr" v="54034" />
	</node>
	<node id="-735706" lat="68.5190805538" lon="16.722038899">
		<tag k="name" v="Svartvasshaugen" />
		<tag k="natural" v="hill" />
		<tag k="place" v="locality" />
		<tag k="ssr:stedsnr" v="54002" />
	</node>
	<node id="-735705" lat="68.5830111081" lon="16.7809138769">
		<tag k="name" v="Staburskaret" />
		<tag k="natural" v="valley" />
		<tag k="place" v="locality" />
		<tag k="ssr:stedsnr" v="53891" />
	</node>
	<node id="-735703" lat="68.6026527749" lon="16.5655055509">
		<tag k="name" v="Bjørnholla" />
		<tag k="natural" v="valley" />
		<tag k="place" v="locality" />
		<tag k="ssr:stedsnr" v="54096" />
	</node>
	<node id="-735701" lat="68.6099472201" lon="16.5809555629">
		<tag k="name" v="Brekkebakkan" />
		<tag k="natural" v="slope" />
		<tag k="place" v="locality" />
		<tag k="ssr:stedsnr" v="53154" />
	</node>
	<node id="-735699" lat="68.5645083324" lon="17.3399083384">
		<tag k="fixme" v="consider natural=peak for the most distinct mountains in the district" />
		<tag k="name" v="Kjølen - Báltavárdu" />
		<tag k="name:no" v="Kjølen" />
		<tag k="name:se" v="Báltavárdu" />
		<tag k="natural" v="hill" />
		<tag k="place" v="locality" />
		<tag k="ssr:stedsnr" v="21917" />
	</node>
	<node id="-735693" lat="68.6332722188" lon="16.8595749886">
		<tag k="fixme" v="consider natural=peak for the most distinct mountains in the district" />
		<tag k="name" v="Mikkelfjellet - Mihkkalvárri" />
		<tag k="name:no" v="Mikkelfjellet" />
		<tag k="name:se" v="Mihkkalvárri" />
		<tag k="natural" v="hill" />
		<tag k="place" v="locality" />
		<tag k="ssr:stedsnr" v="20919" />
	</node>
	<node id="-735692" lat="68.6307972252" lon="17.2214861161">
		<tag k="fixme" v="consider natural=peak for the most distinct mountains in the district" />
		<tag k="name" v="Kovanfjellet - Gurravárri" />
		<tag k="name:no" v="Kovanfjellet" />
		<tag k="name:se" v="Gurravárri" />
		<tag k="natural" v="hill" />
		<tag k="place" v="locality" />
		<tag k="ssr:stedsnr" v="20918" />
	</node>
	<node id="-735689" lat="68.6253944465" lon="17.329744436">
		<tag k="fixme" v="consider natural=peak for the most distinct mountains in the district" />
		<tag k="name" v="Revtind - Riebečohkka" />
		<tag k="name:no" v="Revtind" />
		<tag k="name:se" v="Riebečohkka" />
		<tag k="natural" v="hill" />
		<tag k="place" v="locality" />
		<tag k="ssr:stedsnr" v="20907" />
	</node>
	<node id="-735688" lat="68.6219111155" lon="17.2647499914">
		<tag k="alt_name:no" v="Ørnberget" />
		<tag k="name" v="Ørneberget - Luspevárri" />
		<tag k="name:no" v="Ørneberget" />
		<tag k="name:se" v="Luspevárri" />
		<tag k="natural" v="hill" />
		<tag k="place" v="locality" />
		<tag k="ssr:stedsnr" v="20905" />
	</node>
	<node id="-735680" lat="68.5438138869" lon="16.7344888852">
		<tag k="alt_name" v="Mollforåsen" />
		<tag k="fixme" v="consider natural=peak for the most distinct mountains in the district" />
		<tag k="name" v="Moldforåsen" />
		<tag k="natural" v="hill" />
		<tag k="place" v="locality" />
		<tag k="ssr:stedsnr" v="20778" />
	</node>
	<node id="-735678" lat="68.6283916706" lon="16.6299361123">
		<tag k="fixme" v="consider natural=peak for the most distinct mountains in the district" />
		<tag k="name" v="Heia" />
		<tag k="natural" v="hill" />
		<tag k="place" v="locality" />
		<tag k="ssr:stedsnr" v="20245" />
	</node>
	<node id="-735677" lat="68.6223277738" lon="16.6908111022">
		<tag k="alt_name" v="Niptuven" />
		<tag k="name" v="Niptuva" />
		<tag k="natural" v="hill" />
		<tag k="place" v="locality" />
		<tag k="ssr:stedsnr" v="20242" />
	</node>
	<node id="-735676" lat="68.6004305546" lon="16.6089555439">
		<tag k="alt_name" v="Tømmeråsen, store" />
		<tag k="fixme" v="consider natural=peak for the most distinct mountains in the district" />
		<tag k="name" v="Stor-tømmeråsen" />
		<tag k="natural" v="hill" />
		<tag k="place" v="locality" />
		<tag k="ssr:stedsnr" v="20213" />
	</node>
	<node id="-735675" lat="68.6021666663" lon="16.7305027672">
		<tag k="fixme" v="consider natural=peak for the most distinct mountains in the district" />
		<tag k="name" v="Várdu" />
		<tag k="name:se" v="Várdu" />
		<tag k="natural" v="hill" />
		<tag k="old_name:se" v="Vardo" />
		<tag k="place" v="locality" />
		<tag k="ssr:stedsnr" v="20197" />
	</node>
	<node id="-735673" lat="68.5710749955" lon="16.7837861199">
		<tag k="name" v="Stabbursdalen" />
		<tag k="natural" v="valley" />
		<tag k="place" v="locality" />
		<tag k="ssr:stedsnr" v="20132" />
	</node>
	<node id="-735667" lat="68.6389611096" lon="16.7424500031">
		<tag k="name" v="Killidalen" />
		<tag k="natural" v="valley" />
		<tag k="place" v="locality" />
		<tag k="ssr:stedsnr" v="20018" />
	</node>
	<node id="-735644" lat="68.5412392944" lon="16.786079013">
		<tag k="fixme" v="consider natural=peak for the most distinct mountains in the district" />
		<tag k="name" v="Skáiddinjunni" />
		<tag k="name:se" v="Skáiddinjunni" />
		<tag k="natural" v="hill" />
		<tag k="place" v="locality" />
		<tag k="ssr:stedsnr" v="986202" />
	</node>
	<node id="-735643" lat="68.5900731297" lon="16.6988046367">
		<tag k="name" v="Rámavuolgurra" />
		<tag k="name:se" v="Rámavuolgurra" />
		<tag k="natural" v="valley" />
		<tag k="place" v="locality" />
		<tag k="ssr:stedsnr" v="986200" />
	</node>
	<node id="-735642" lat="68.5679612972" lon="16.7431450971">
		<tag k="name" v="Sálljadieváidgaska" />
		<tag k="name:se" v="Sálljadieváidgaska" />
		<tag k="natural" v="valley" />
		<tag k="place" v="locality" />
		<tag k="ssr:stedsnr" v="986189" />
	</node>
	<node id="-735641" lat="68.5834726834" lon="16.7891476177">
		<tag k="fixme" v="consider natural=peak for the most distinct mountains in the district" />
		<tag k="name" v="Gáicavárdu" />
		<tag k="name:se" v="Gáicavárdu" />
		<tag k="natural" v="hill" />
		<tag k="place" v="locality" />
		<tag k="ssr:stedsnr" v="986168" />
	</node>
	<node id="-735633" lat="68.6693722181" lon="16.8387694444">
		<tag k="fixme" v="consider natural=peak for the most distinct mountains in the district" />
		<tag k="name" v="Høgda" />
		<tag k="natural" v="hill" />
		<tag k="place" v="locality" />
		<tag k="ssr:stedsnr" v="478973" />
	</node>
	<node id="-735630" lat="68.661608332" lon="16.7556555659">
		<tag k="name" v="Sebogberget" />
		<tag k="natural" v="hill" />
		<tag k="place" v="locality" />
		<tag k="ssr:stedsnr" v="478964" />
	</node>
	<node id="-735628" lat="68.6554222182" lon="16.9912083422">
		<tag k="name" v="Hesjestrandhaugen" />
		<tag k="natural" v="hill" />
		<tag k="place" v="locality" />
		<tag k="ssr:stedsnr" v="478934" />
	</node>
	<node id="-735627" lat="68.6554861086" lon="16.8985583291">
		<tag k="fixme" v="consider natural=peak for the most distinct mountains in the district" />
		<tag k="name" v="Tinden" />
		<tag k="natural" v="hill" />
		<tag k="ssr:stedsnr" v="478930" />
	</node>
	<node id="-735626" lat="68.662247223" lon="16.9669083416">
		<tag k="name" v="Rasmusheimdalen" />
		<tag k="natural" v="valley" />
		<tag k="place" v="locality" />
		<tag k="ssr:stedsnr" v="478917" />
	</node>
	<node id="-735625" lat="68.6695527766" lon="16.9239777726">
		<tag k="name" v="Jubbasmyrhaugen" />
		<tag k="natural" v="hill" />
		<tag k="place" v="locality" />
		<tag k="ssr:stedsnr" v="478902" />
	</node>
	<node id="-735624" lat="68.6686666687" lon="16.9191444316">
		<tag k="fixme" v="consider natural=peak for the most distinct mountains in the district" />
		<tag k="name" v="Rensååsen" />
		<tag k="natural" v="hill" />
		<tag k="place" v="locality" />
		<tag k="ssr:stedsnr" v="478901" />
	</node>
	<node id="-735623" lat="68.6671500019" lon="16.8889027766">
		<tag k="name" v="Storbakkan" />
		<tag k="natural" v="slope" />
		<tag k="place" v="locality" />
		<tag k="ssr:stedsnr" v="478895" />
	</node>
	<node id="-735622" lat="68.6481055532" lon="16.6797055567">
		<tag k="name" v="Jovikdalen" />
		<tag k="natural" v="valley" />
		<tag k="place" v="locality" />
		<tag k="ssr:stedsnr" v="478857" />
	</node>
	<node id="-735620" lat="68.6026222206" lon="16.7414861066">
		<tag k="name" v="Gadas-skorra" />
		<tag k="name:se" v="Gadas-skorra" />
		<tag k="natural" v="valley" />
		<tag k="place" v="locality" />
		<tag k="ssr:stedsnr" v="478778" />
	</node>
	<node id="-735619" lat="68.7150166709" lon="17.1868083223">
		<tag k="name" v="Storelvdalen" />
		<tag k="natural" v="valley" />
		<tag k="place" v="locality" />
		<tag k="ssr:stedsnr" v="478737" />
	</node>
	<node id="-735617" lat="68.6141861068" lon="17.2064611188">
		<tag k="name" v="Nova" />
		<tag k="place" v="locality" />
		<tag k="ssr:stedsnr" v="478684" />
	</node>
	<node id="-735616" lat="68.5671027777" lon="17.2248333404">
		<tag k="name" v="Vassbotn" />
		<tag k="natural" v="valley" />
		<tag k="place" v="locality" />
		<tag k="ssr:stedsnr" v="478668" />
	</node>
	<node id="-735615" lat="68.6998500036" lon="17.0204361179">
		<tag k="name" v="Grønnlia" />
		<tag k="natural" v="slope" />
		<tag k="place" v="locality" />
		<tag k="ssr:stedsnr" v="478648" />
	</node>
	<node id="-735612" lat="68.6927305578" lon="16.9426250016">
		<tag k="name" v="Mørkedalen" />
		<tag k="natural" v="valley" />
		<tag k="place" v="locality" />
		<tag k="ssr:stedsnr" v="478586" />
	</node>
	<node id="-735611" lat="68.6855222218" lon="16.9468305509">
		<tag k="name" v="Vassbakkan" />
		<tag k="natural" v="slope" />
		<tag k="place" v="locality" />
		<tag k="ssr:stedsnr" v="478576" />
	</node>
	<node id="-735608" lat="68.6050055574" lon="17.3317138801">
		<tag k="fixme" v="consider natural=peak for the most distinct mountains in the district" />
		<tag k="name" v="Revasshøgda" />
		<tag k="natural" v="hill" />
		<tag k="place" v="locality" />
		<tag k="ssr:stedsnr" v="478278" />
	</node>
	<node id="-735607" lat="68.5912694456" lon="16.5741416565">
		<tag k="name" v="Topphaugen" />
		<tag k="natural" v="hill" />
		<tag k="place" v="locality" />
		<tag k="ssr:stedsnr" v="478234" />
	</node>
	<node id="-735605" lat="68.5717250035" lon="16.7054083436">
		<tag k="fixme" v="consider natural=peak for the most distinct mountains in the district" />
		<tag k="name" v="Hattelakollen" />
		<tag k="natural" v="hill" />
		<tag k="place" v="locality" />
		<tag k="ssr:stedsnr" v="478200" />
	</node>
	<node id="-735604" lat="68.5699388897" lon="16.6505138888">
		<tag k="name" v="Blåberget" />
		<tag k="natural" v="hill" />
		<tag k="place" v="locality" />
		<tag k="ssr:stedsnr" v="478185" />
	</node>
	<node id="-735602" lat="68.5627305536" lon="16.7119611004">
		<tag k="name" v="Høgberget" />
		<tag k="natural" v="hill" />
		<tag k="place" v="locality" />
		<tag k="ssr:stedsnr" v="478172" />
	</node>
	<node id="-735600" lat="68.5666888846" lon="16.6555027861">
		<tag k="name" v="Bjørnsletten" />
		<tag k="place" v="locality" />
		<tag k="ssr:stedsnr" v="478163" />
	</node>
	<node id="-735599" lat="68.5699250023" lon="16.7181999975">
		<tag k="fixme" v="consider natural=peak for the most distinct mountains in the district" />
		<tag k="name" v="Lahøgda" />
		<tag k="natural" v="hill" />
		<tag k="place" v="locality" />
		<tag k="ssr:stedsnr" v="478160" />
	</node>
	<node id="-735596" lat="68.5133999962" lon="16.6146166588">
		<tag k="name" v="Gammholla" />
		<tag k="natural" v="valley" />
		<tag k="place" v="locality" />
		<tag k="ssr:stedsnr" v="478010" />
	</node>
	<node id="-735585" lat="68.703444448" lon="17.1789361004">
		<tag k="fixme" v="consider natural=peak for the most distinct mountains in the district" />
		<tag k="name" v="Skavlikollen - Skávhlevárri" />
		<tag k="name:no" v="Skavlikollen" />
		<tag k="name:se" v="Skávhlevárri" />
		<tag k="natural" v="hill" />
		<tag k="place" v="locality" />
		<tag k="ssr:stedsnr" v="385961" />
	</node>
	<node id="-735584" lat="68.6033749965" lon="17.3885138951">
		<tag k="name" v="Čoaffi" />
		<tag k="name:se" v="Čoaffi" />
		<tag k="natural" v="hill" />
		<tag k="place" v="locality" />
		<tag k="ssr:stedsnr" v="385253" />
	</node>
	<node id="-735583" lat="68.6557666678" lon="17.2882472314">
		<tag k="name" v="Muogirnjunni" />
		<tag k="name:se" v="Muogirnjunni" />
		<tag k="place" v="locality" />
		<tag k="ssr:stedsnr" v="385251" />
	</node>
	<node id="-735580" lat="68.686486113" lon="17.2286472173">
		<tag k="fixme" v="consider natural=peak for the most distinct mountains in the district" />
		<tag k="name" v="Keipen" />
		<tag k="natural" v="hill" />
		<tag k="place" v="locality" />
		<tag k="ssr:stedsnr" v="384966" />
	</node>
	<node id="-735576" lat="68.7105611069" lon="17.1291527813">
		<tag k="fixme" v="consider natural=peak for the most distinct mountains in the district" />
		<tag k="name" v="Stretekollen" />
		<tag k="natural" v="hill" />
		<tag k="place" v="locality" />
		<tag k="ssr:stedsnr" v="384944" />
	</node>
	<node id="-735575" lat="68.6527166632" lon="16.8699638966">
		<tag k="fixme" v="consider natural=peak for the most distinct mountains in the district" />
		<tag k="name" v="Kvithammaren" />
		<tag k="natural" v="hill" />
		<tag k="place" v="locality" />
		<tag k="ssr:stedsnr" v="384885" />
	</node>
	<node id="-735573" lat="68.6403805522" lon="17.0700805599">
		<tag k="name" v="Stordalen - Čoaraduohki" />
		<tag k="name:no" v="Stordalen" />
		<tag k="name:se" v="Čoaraduohki" />
		<tag k="natural" v="valley" />
		<tag k="place" v="locality" />
		<tag k="ssr:stedsnr" v="384869" />
	</node>
	<node id="-735567" lat="68.6086111069" lon="16.9304111129">
		<tag k="fixme" v="consider natural=peak for the most distinct mountains in the district" />
		<tag k="name" v="Mikkelfjellet - Ruŋggučohkka" />
		<tag k="name:no" v="Mikkelfjellet" />
		<tag k="name:se" v="Ruŋggučohkka" />
		<tag k="natural" v="hill" />
		<tag k="place" v="locality" />
		<tag k="ssr:stedsnr" v="384906" />
	</node>
	<node id="-735564" lat="68.6477583379" lon="17.343377772">
		<tag k="name" v="Rivttákáidi" />
		<tag k="name:se" v="Rivttákáidi" />
		<tag k="natural" v="valley" />
		<tag k="place" v="locality" />
		<tag k="ssr:stedsnr" v="384242" />
	</node>
	<node id="-735562" lat="68.5854805558" lon="16.6002000108">
		<tag k="name" v="Brennhaugen" />
		<tag k="natural" v="hill" />
		<tag k="place" v="locality" />
		<tag k="ssr:stedsnr" v="384196" />
	</node>
	<node id="-735561" lat="68.5904500042" lon="16.6131750051">
		<tag k="fixme" v="consider natural=peak for the most distinct mountains in the district" />
		<tag k="name" v="Pyttåsen" />
		<tag k="natural" v="hill" />
		<tag k="place" v="locality" />
		<tag k="ssr:stedsnr" v="384195" />
	</node>
	<node id="-735552" lat="68.5983888856" lon="16.9662777742">
		<tag k="name" v="Pungdalen - Bursa" />
		<tag k="name:no" v="Pungdalen" />
		<tag k="name:se" v="Bursa" />
		<tag k="natural" v="valley" />
		<tag k="place" v="locality" />
		<tag k="ssr:stedsnr" v="383931" />
	</node>
	<node id="-735551" lat="68.5908000007" lon="16.8335638871">
		<tag k="fixme" v="consider natural=peak for the most distinct mountains in the district" />
		<tag k="name" v="Nordfjellkjølen" />
		<tag k="natural" v="hill" />
		<tag k="place" v="locality" />
		<tag k="ssr:stedsnr" v="383926" />
	</node>
	<node id="-735545" lat="68.6033166685" lon="16.6346638783">
		<tag k="fixme" v="consider natural=peak for the most distinct mountains in the district" />
		<tag k="name" v="Kollan" />
		<tag k="natural" v="hill" />
		<tag k="place" v="locality" />
		<tag k="ssr:stedsnr" v="383231" />
	</node>
	<node id="-735541" lat="68.6092499992" lon="17.3728666703">
		<tag k="name" v="Revryggen - Oalgi" />
		<tag k="name:no" v="Revryggen" />
		<tag k="name:se" v="Oalgi" />
		<tag k="natural" v="ridge" />
		<tag k="place" v="locality" />
		<tag k="ssr:stedsnr" v="371246" />
	</node>
	<node id="-735540" lat="68.6415777775" lon="16.7412888919">
		<tag k="name" v="Isberget" />
		<tag k="natural" v="hill" />
		<tag k="place" v="locality" />
		<tag k="ssr:stedsnr" v="357988" />
	</node>
	<node id="-735539" lat="68.6452083313" lon="16.7572000094">
		<tag k="name" v="Sørskaret" />
		<tag k="natural" v="valley" />
		<tag k="place" v="locality" />
		<tag k="ssr:stedsnr" v="357986" />
	</node>
	<node id="-735538" lat="68.6410138892" lon="16.7282000004">
		<tag k="name" v="Tennevikdalen" />
		<tag k="natural" v="valley" />
		<tag k="place" v="locality" />
		<tag k="ssr:stedsnr" v="357985" />
	</node>
	<node id="-735535" lat="68.6602666659" lon="16.7420999876">
		<tag k="name" v="Gjelryggen" />
		<tag k="natural" v="ridge" />
		<tag k="place" v="locality" />
		<tag k="ssr:stedsnr" v="357955" />
	</node>
	<node id="-735534" lat="68.677947222" lon="16.9854972169">
		<tag k="name" v="Skittenlegda" />
		<tag k="natural" v="slope" />
		<tag k="place" v="locality" />
		<tag k="ssr:stedsnr" v="357895" />
	</node>
	<node id="-735533" lat="68.6763972249" lon="16.9186249904">
		<tag k="name" v="Svartebergan" />
		<tag k="natural" v="hill" />
		<tag k="place" v="locality" />
		<tag k="ssr:stedsnr" v="357888" />
	</node>
	<node id="-735529" lat="68.6132916625" lon="16.8153194377">
		<tag k="fixme" v="consider natural=peak for the most distinct mountains in the district" />
		<tag k="name" v="Karifjellet" />
		<tag k="natural" v="hill" />
		<tag k="place" v="locality" />
		<tag k="ssr:stedsnr" v="357760" />
	</node>
	<node id="-735525" lat="68.6633416703" lon="17.0981555544">
		<tag k="fixme" v="consider natural=peak for the most distinct mountains in the district" />
		<tag k="name" v="Kollåsen" />
		<tag k="natural" v="hill" />
		<tag k="place" v="locality" />
		<tag k="ssr:stedsnr" v="357699" />
	</node>
	<node id="-735523" lat="68.6976083373" lon="16.9853916566">
		<tag k="name" v="Skarlia" />
		<tag k="natural" v="slope" />
		<tag k="place" v="locality" />
		<tag k="ssr:stedsnr" v="357604" />
	</node>
	<node id="-735522" lat="68.684802775" lon="16.966450007">
		<tag k="name" v="Lamarka" />
		<tag k="place" v="locality" />
		<tag k="ssr:stedsnr" v="357602" />
	</node>
	<node id="-735521" lat="68.6580000009" lon="17.0219833356">
		<tag k="name" v="Søndagstøa" />
		<tag k="natural" v="hill" />
		<tag k="place" v="locality" />
		<tag k="ssr:stedsnr" v="357573" />
	</node>
	<node id="-735517" lat="68.5867083356" lon="16.7078444537">
		<tag k="name" v="Stordalen" />
		<tag k="natural" v="valley" />
		<tag k="place" v="locality" />
		<tag k="ssr:stedsnr" v="357214" />
	</node>
	<node id="-735516" lat="68.5854888891" lon="16.6748305541">
		<tag k="name" v="Kistemyrhågen" />
		<tag k="natural" v="hill" />
		<tag k="place" v="locality" />
		<tag k="ssr:stedsnr" v="357209" />
	</node>
	<node id="-735515" lat="68.5898416646" lon="16.6529583272">
		<tag k="name" v="Steinbakken" />
		<tag k="natural" v="slope" />
		<tag k="place" v="locality" />
		<tag k="ssr:stedsnr" v="357197" />
	</node>
	<node id="-735514" lat="68.6091499991" lon="16.5855944406">
		<tag k="name" v="Åsesletta" />
		<tag k="place" v="locality" />
		<tag k="ssr:stedsnr" v="357128" />
	</node>
	<node id="-735512" lat="68.5212722196" lon="16.625313876">
		<tag k="fixme" v="consider natural=peak for the most distinct mountains in the district" />
		<tag k="name" v="Gabrielhøgda" />
		<tag k="natural" v="hill" />
		<tag k="place" v="locality" />
		<tag k="ssr:stedsnr" v="357018" />
	</node>
	<node id="-735511" lat="68.5218583307" lon="16.6697638819">
		<tag k="fixme" v="consider natural=peak for the most distinct mountains in the district" />
		<tag k="name" v="Vitbæråsen" />
		<tag k="natural" v="hill" />
		<tag k="place" v="locality" />
		<tag k="ssr:stedsnr" v="357004" />
	</node>
	<node id="-735502" lat="68.6261277805" lon="17.3958388813">
		<tag k="name" v="Tverrdalen - Geađgevággi" />
		<tag k="name:no" v="Tverrdalen" />
		<tag k="name:se" v="Geađgevággi" />
		<tag k="natural" v="valley" />
		<tag k="place" v="locality" />
		<tag k="ssr:stedsnr" v="323898" />
	</node>
	<node id="-735499" lat="68.6378666695" lon="17.2913250081">
		<tag k="fixme" v="consider natural=peak for the most distinct mountains in the district" />
		<tag k="name" v="Huva - Gahpir" />
		<tag k="name:no" v="Huva" />
		<tag k="name:se" v="Gahpir" />
		<tag k="natural" v="hill" />
		<tag k="place" v="locality" />
		<tag k="ssr:stedsnr" v="323883" />
	</node>
	<node id="-735496" lat="68.5474222259" lon="16.6963138891">
		<tag k="fixme" v="consider natural=peak for the most distinct mountains in the district" />
		<tag k="name" v="Langdalsåsen - Juopmovárri" />
		<tag k="name:no" v="Langdalsåsen" />
		<tag k="name:se" v="Juopmovárri" />
		<tag k="natural" v="hill" />
		<tag k="place" v="locality" />
		<tag k="ssr:stedsnr" v="323847" />
	</node>
	<node id="-735493" lat="68.5954388888" lon="16.6224499999">
		<tag k="name" v="Svartdalen" />
		<tag k="natural" v="valley" />
		<tag k="place" v="locality" />
		<tag k="ssr:stedsnr" v="323620" />
	</node>
	<node id="-735489" lat="68.5863888887" lon="16.787116671">
		<tag k="fixme" v="consider natural=peak for the most distinct mountains in the district" />
		<tag k="name" v="Brattfjellet - Ráhpesvárdu" />
		<tag k="name:no" v="Brattfjellet" />
		<tag k="name:se" v="Ráhpesvárdu" />
		<tag k="natural" v="hill" />
		<tag k="old_name:se" v="Rappesvardo" />
		<tag k="place" v="locality" />
		<tag k="ssr:stedsnr" v="323180" />
	</node>
	<node id="-735487" lat="68.5773416626" lon="16.7456555501">
		<tag k="name" v="Bukkehøgda" />
		<tag k="natural" v="hill" />
		<tag k="place" v="locality" />
		<tag k="ssr:stedsnr" v="323167" />
	</node>
	<node id="-735484" lat="68.6731888856" lon="16.7446083265">
		<tag k="alt_name" v="Skammarberget" />
		<tag k="name" v="Skammaberget" />
		<tag k="natural" v="hill" />
		<tag k="place" v="locality" />
		<tag k="ssr:stedsnr" v="323114" />
	</node>
	<node id="-735480" lat="68.6419138901" lon="16.7584555596">
		<tag k="name" v="Killihanen" />
		<tag k="natural" v="hill" />
		<tag k="place" v="locality" />
		<tag k="ssr:stedsnr" v="323018" />
	</node>
	<node id="-735479" lat="68.555794447" lon="17.3960722184">
		<tag k="name" v="Maridalen" />
		<tag k="natural" v="valley" />
		<tag k="place" v="locality" />
		<tag k="ssr:stedsnr" v="321509" />
	</node>
	<node id="-735478" lat="68.6558361098" lon="17.0853833401">
		<tag k="name" v="Kattebergløen" />
		<tag k="natural" v="slope" />
		<tag k="place" v="locality" />
		<tag k="ssr:stedsnr" v="297702" />
	</node>
	<node id="-735476" lat="68.6667027811" lon="16.7763583214">
		<tag k="name" v="Vassmohaugen" />
		<tag k="natural" v="hill" />
		<tag k="place" v="locality" />
		<tag k="ssr:stedsnr" v="296956" />
	</node>
	<node id="-735475" lat="68.6534499969" lon="16.9111916586">
		<tag k="name" v="Gumpedalen" />
		<tag k="natural" v="valley" />
		<tag k="place" v="locality" />
		<tag k="ssr:stedsnr" v="296935" />
	</node>
	<node id="-735473" lat="68.6761083293" lon="17.0083333268">
		<tag k="name" v="Sør Svellen" />
		<tag k="place" v="locality" />
		<tag k="ssr:stedsnr" v="296915" />
	</node>
	<node id="-735472" lat="68.6757611134" lon="16.9723833301">
		<tag k="name" v="Stibergan" />
		<tag k="natural" v="hill" />
		<tag k="place" v="locality" />
		<tag k="ssr:stedsnr" v="296912" />
	</node>
	<node id="-735470" lat="68.6852111077" lon="16.8466055416">
		<tag k="name" v="Skjærmarka" />
		<tag k="place" v="locality" />
		<tag k="ssr:stedsnr" v="296875" />
	</node>
	<node id="-735469" lat="68.6448888872" lon="16.6902972176">
		<tag k="name" v="Heia" />
		<tag k="natural" v="hill" />
		<tag k="place" v="locality" />
		<tag k="ssr:stedsnr" v="296854" />
	</node>
	<node id="-735468" lat="68.64998333" lon="16.7002333225">
		<tag k="name" v="Kjellbergan" />
		<tag k="natural" v="hill" />
		<tag k="place" v="locality" />
		<tag k="ssr:stedsnr" v="296850" />
	</node>
	<node id="-735466" lat="68.6343083306" lon="16.8239110971">
		<tag k="name" v="Holla" />
		<tag k="natural" v="valley" />
		<tag k="place" v="locality" />
		<tag k="ssr:stedsnr" v="296782" />
	</node>
	<node id="-735464" lat="68.5596611134" lon="16.7803416688">
		<tag k="name" v="Tårnbakkan" />
		<tag k="natural" v="slope" />
		<tag k="place" v="locality" />
		<tag k="ssr:stedsnr" v="296767" />
	</node>
	<node id="-735461" lat="68.6789638912" lon="17.0683083417">
		<tag k="name" v="Skarven" />
		<tag k="natural" v="hill" />
		<tag k="place" v="locality" />
		<tag k="ssr:stedsnr" v="296704" />
	</node>
	<node id="-735460" lat="68.678158331" lon="17.0607611178">
		<tag k="name" v="Geitstiberget" />
		<tag k="natural" v="hill" />
		<tag k="place" v="locality" />
		<tag k="ssr:stedsnr" v="296687" />
	</node>
	<node id="-735457" lat="68.6353444486" lon="17.1340972292">
		<tag k="name" v="Kariliberget" />
		<tag k="natural" v="hill" />
		<tag k="place" v="locality" />
		<tag k="ssr:stedsnr" v="296604" />
	</node>
	<node id="-735454" lat="68.6927583327" lon="16.9322888855">
		<tag k="name" v="Stordalen" />
		<tag k="natural" v="valley" />
		<tag k="place" v="locality" />
		<tag k="ssr:stedsnr" v="296543" />
	</node>
	<node id="-735451" lat="68.5923722218" lon="16.6417249943">
		<tag k="name" v="Steinbakken" />
		<tag k="natural" v="slope" />
		<tag k="place" v="locality" />
		<tag k="ssr:stedsnr" v="296212" />
	</node>
	<node id="-735448" lat="68.5595194451" lon="16.6800111202">
		<tag k="name" v="Brattbakken" />
		<tag k="natural" v="slope" />
		<tag k="place" v="locality" />
		<tag k="ssr:stedsnr" v="296151" />
	</node>
	<node id="-735446" lat="68.6078694469" lon="16.612533339">
		<tag k="fixme" v="consider natural=peak for the most distinct mountains in the district" />
		<tag k="name" v="Borgedalsåsen" />
		<tag k="natural" v="hill" />
		<tag k="place" v="locality" />
		<tag k="ssr:stedsnr" v="296106" />
	</node>
	<node id="-735444" lat="68.5281277769" lon="16.6306805535">
		<tag k="name" v="Lauvslettbergan" />
		<tag k="natural" v="hill" />
		<tag k="place" v="locality" />
		<tag k="ssr:stedsnr" v="296012" />
	</node>
	<node id="-735443" lat="68.5178916636" lon="16.5770972253">
		<tag k="name" v="Lyngmo" />
		<tag k="place" v="locality" />
		<tag k="ssr:stedsnr" v="296010" />
	</node>
	<node id="-735442" lat="68.5133055555" lon="16.649211102">
		<tag k="name" v="Storlia" />
		<tag k="natural" v="slope" />
		<tag k="place" v="locality" />
		<tag k="ssr:stedsnr" v="296003" />
	</node>
</osm>
