<?xml version="1.0" encoding="UTF-8"?>
<osm generator="osmapis" version="0.6">
	<node id="-734208" lat="68.6451583294" lon="17.2374777839">
		<tag k="name" v="Saltvatnet - Sáltejávri" />
		<tag k="name:no" v="Saltvatnet" />
		<tag k="name:se" v="Sáltejávri" />
		<tag k="natural" v="water" />
		<tag k="ssr:stedsnr" v="323885" />
		<tag k="water" v="lake" />
	</node>
	<node id="-735229" lat="68.5297666639" lon="16.757336097">
		<tag k="name" v="Njallagorži" />
		<tag k="name:se" v="Njallagorži" />
		<tag k="ssr:stedsnr" v="907373" />
		<tag k="waterway" v="rapids" />
	</node>
	<node id="-734716" lat="68.6097694436" lon="16.6933555516">
		<tag k="name" v="Nipvatnet - Hoanttasjávri" />
		<tag k="name:no" v="Nipvatnet" />
		<tag k="name:se" v="Hoanttasjávri" />
		<tag k="natural" v="water" />
		<tag k="ssr:stedsnr" v="444208" />
	</node>
	<node id="-735226" lat="68.6490722228" lon="16.7704055481">
		<tag k="name" v="Skavelva" />
		<tag k="ssr:stedsnr" v="903979" />
		<tag k="waterway" v="stream" />
	</node>
	<node id="-735222" lat="68.6595777812" lon="16.9160249972">
		<tag k="name" v="Fjellkråa" />
		<tag k="ssr:stedsnr" v="903906" />
		<tag k="waterway" v="stream" />
	</node>
	<node id="-734709" lat="68.6603444443" lon="17.0006860989">
		<tag k="name" v="Hesjestranda" />
		<tag k="natural" v="beach" />
		<tag k="ssr:stedsnr" v="418910" />
	</node>
	<node id="-735220" lat="68.5183416649" lon="16.7320166676">
		<tag k="name" v="Sennavatnet" />
		<tag k="natural" v="water" />
		<tag k="ssr:stedsnr" v="903873" />
	</node>
	<node id="-734706" lat="68.6452777776" lon="16.71833888">
		<tag k="name" v="Tennevikelva" />
		<tag k="ssr:stedsnr" v="418839" />
		<tag k="waterway" v="river" />
	</node>
	<node id="-734704" lat="68.6078722179" lon="16.7428999963">
		<tag k="name" v="Várddojávri" />
		<tag k="name:se" v="Várddojávri" />
		<tag k="natural" v="water" />
		<tag k="ssr:stedsnr" v="418766" />
	</node>
	<node id="-734191" lat="68.6668638909" lon="16.7949722267">
		<tag k="name" v="Nikkorvatnet" />
		<tag k="natural" v="water" />
		<tag k="ssr:stedsnr" v="323104" />
	</node>
	<node id="-734190" lat="68.6437972188" lon="16.7349861118">
		<tag k="name" v="Tennevikvatnet" />
		<tag k="natural" v="water" />
		<tag k="ssr:stedsnr" v="323043" />
		<tag k="water" v="lake" />
	</node>
	<node id="-734189" lat="68.6387500036" lon="16.6644583227">
		<tag k="name" v="Svartvikvatnan" />
		<tag k="natural" v="water" />
		<tag k="ssr:stedsnr" v="323020" />
	</node>
	<node id="-735212" lat="68.7078388877" lon="17.1169750092">
		<tag k="name" v="Hesje-elva" />
		<tag k="ssr:stedsnr" v="903723" />
		<tag k="waterway" v="stream" />
	</node>
	<node id="-734185" lat="68.657463888" lon="16.8413138869">
		<tag k="name" v="Bjørndalselva" />
		<tag k="ssr:stedsnr" v="296994" />
		<tag k="waterway" v="stream" />
	</node>
	<node id="-734696" lat="68.6365944463" lon="17.1655222266">
		<tag k="name" v="Labergselva" />
		<tag k="ssr:stedsnr" v="418592" />
		<tag k="waterway" v="stream" />
	</node>
	<node id="-735206" lat="68.5925027821" lon="17.3090944441">
		<tag k="name" v="Stillevatnet nedre" />
		<tag k="natural" v="water" />
		<tag k="ssr:stedsnr" v="903626" />
		<tag k="water" v="lake" />
	</node>
	<node id="-735204" lat="68.6624944411" lon="17.1812833322">
		<tag k="name" v="Årsandvikelva" />
		<tag k="ssr:stedsnr" v="903596" />
		<tag k="waterway" v="stream" />
	</node>
	<node id="-735202" lat="68.6430416655" lon="17.2609749861">
		<tag k="name" v="Olderelva" />
		<tag k="ssr:stedsnr" v="903283" />
		<tag k="waterway" v="stream" />
	</node>
	<node id="-734459" lat="68.5148222185" lon="16.5897805611">
		<tag k="name" v="Sennvatnet" />
		<tag k="natural" v="water" />
		<tag k="ssr:stedsnr" v="81818" />
	</node>
	<node id="-735199" lat="68.6539638925" lon="17.20796388">
		<tag k="name" v="Hellerelva" />
		<tag k="ssr:stedsnr" v="903277" />
		<tag k="waterway" v="stream" />
	</node>
	<node id="-734685" lat="68.6138277744" lon="16.5831944497">
		<tag k="name" v="Norelva" />
		<tag k="ssr:stedsnr" v="418129" />
		<tag k="waterway" v="stream" />
	</node>
	<node id="-734171" lat="68.6305249966" lon="16.7475638758">
		<tag k="name" v="Lysvatnet" />
		<tag k="natural" v="water" />
		<tag k="ssr:stedsnr" v="296766" />
	</node>
	<node id="-734679" lat="68.5289583354" lon="16.7273472313">
		<tag k="name" v="Mølnelva" />
		<tag k="ssr:stedsnr" v="418017" />
		<tag k="waterway" v="stream" />
	</node>
	<node id="-734677" lat="68.6597388873" lon="16.992602781">
		<tag k="name" v="Langvatnet" />
		<tag k="natural" v="water" />
		<tag k="ssr:stedsnr" v="263996" />
	</node>
	<node id="-734164" lat="68.6308361068" lon="17.1667861147">
		<tag k="name" v="Kåvanelva" />
		<tag k="ssr:stedsnr" v="296600" />
		<tag k="waterway" v="stream" />
	</node>
	<node id="-734653" lat="68.6032000038" lon="16.7599833245">
		<tag k="name" v="Vuollejohka" />
		<tag k="name:se" v="Vuollejohka" />
		<tag k="old_name:se" v="Vuollejåkka" />
		<tag k="ssr:stedsnr" v="262205" />
		<tag k="waterway" v="stream" />
	</node>
	<node id="-735186" lat="68.5584888869" lon="16.6452138982">
		<tag k="name" v="Hansosen" />
		<tag k="natural" v="bay" />
		<tag k="ssr:stedsnr" v="879009" />
	</node>
	<node id="-734672" lat="68.6511944424" lon="17.0681555486">
		<tag k="name" v="Ostevatnet - Vuostájávri" />
		<tag k="name:no" v="Ostevatnet" />
		<tag k="name:se" v="Vuostájávri" />
		<tag k="natural" v="water" />
		<tag k="ssr:stedsnr" v="263897" />
	</node>
	<node id="-735183" lat="68.6009194425" lon="17.4173249902">
		<tag k="name" v="Skáidi" />
		<tag k="name:se" v="Skáidi" />
		<tag k="natural" v="cape" />
		<tag k="ssr:stedsnr" v="871006" />
	</node>
	<node id="-734158" lat="68.5820333301" lon="16.6496611166">
		<tag k="name" v="Skavåsbekken" />
		<tag k="ssr:stedsnr" v="296183" />
		<tag k="waterway" v="stream" />
	</node>
	<node id="-735181" lat="68.6615305542" lon="17.0163638771">
		<tag k="name" v="Lamarkvatnet" />
		<tag k="natural" v="water" />
		<tag k="ssr:stedsnr" v="870993" />
	</node>
	<node id="-735180" lat="68.6620888932" lon="17.3152416661">
		<tag k="name" v="Segeldalsvatnet - Unnajávrráš" />
		<tag k="name:no" v="Segeldalsvatnet" />
		<tag k="name:se" v="Unnajávrráš" />
		<tag k="natural" v="water" />
		<tag k="ssr:stedsnr" v="870986" />
	</node>
	<node id="-734666" lat="68.5849305527" lon="16.6912861082">
		<tag k="alt_name:no" v="Trøsevatnet, store" />
		<tag k="name" v="Store Trøsevatnet - Roasujávri" />
		<tag k="name:no" v="Store Trøsevatnet" />
		<tag k="name:se" v="Roasujávri" />
		<tag k="natural" v="water" />
		<tag k="ssr:stedsnr" v="263205" />
		<tag k="water" v="lake" />
	</node>
	<node id="-735175" lat="68.514669446" lon="16.6736361004">
		<tag k="name" v="Røstelva" />
		<tag k="ssr:stedsnr" v="870803" />
		<tag k="waterway" v="stream" />
	</node>
	<node id="-735165" lat="68.5728361097" lon="17.38973889">
		<tag k="name" v="Ruotnajávri" />
		<tag k="name:se" v="Ruotnajávri" />
		<tag k="natural" v="water" />
		<tag k="ssr:stedsnr" v="869929" />
	</node>
	<node id="-735162" lat="68.6114611146" lon="16.7985555499">
		<tag k="alt_name" v="Reinvatn" />
		<tag k="name" v="Reinvatnet" />
		<tag k="natural" v="water" />
		<tag k="ssr:stedsnr" v="869260" />
	</node>
	<node id="-734644" lat="68.6646250035" lon="16.9870250108">
		<tag k="name" v="Lomtjønna" />
		<tag k="natural" v="water" />
		<tag k="ssr:stedsnr" v="236925" />
	</node>
	<node id="-734642" lat="68.6436888893" lon="17.1248972235">
		<tag k="name" v="Hestedalelva" />
		<tag k="ssr:stedsnr" v="236665" />
		<tag k="waterway" v="stream" />
	</node>
	<node id="-734641" lat="68.6505499977" lon="17.2470055623">
		<tag k="name" v="Storvika" />
		<tag k="natural" v="bay" />
		<tag k="ssr:stedsnr" v="236287" />
	</node>
	<node id="-734637" lat="68.658527774" lon="16.9940722283">
		<tag k="name" v="Hesjestrandfossen" />
		<tag k="natural" v="waterfall" />
		<tag k="ssr:stedsnr" v="235941" />
	</node>
	<node id="-735148" lat="68.6380805594" lon="17.1199861031">
		<tag k="name" v="Ytre Skredelva" />
		<tag k="ssr:stedsnr" v="843680" />
		<tag k="waterway" v="stream" />
	</node>
	<node id="-734635" lat="68.5915555532" lon="16.6746194476">
		<tag k="name" v="Jarelva" />
		<tag k="ssr:stedsnr" v="235831" />
		<tag k="waterway" v="river" />
	</node>
	<node id="-734632" lat="68.6270694435" lon="16.8112444474">
		<tag k="name" v="Lassekjosen" />
		<tag k="natural" v="bay" />
		<tag k="ssr:stedsnr" v="235782" />
	</node>
	<node id="-734629" lat="68.6798388897" lon="16.9749888999">
		<tag k="name" v="Mobekken" />
		<tag k="ssr:stedsnr" v="235918" />
		<tag k="waterway" v="stream" />
	</node>
	<node id="-735140" lat="68.5842138919" lon="16.695527766">
		<tag k="name" v="Sennholmen" />
		<tag k="place" v="islet" />
		<tag k="ssr:stedsnr" v="843209" />
	</node>
	<node id="-734623" lat="68.5370111095" lon="16.5779944457">
		<tag k="name" v="Grønnslettelva" />
		<tag k="ssr:stedsnr" v="235090" />
		<tag k="waterway" v="stream" />
	</node>
	<node id="-735300" lat="68.6565388851" lon="16.9196583243">
		<tag k="name" v="Elvekrokelva" />
		<tag k="ssr:stedsnr" v="964870" />
		<tag k="waterway" v="stream" />
	</node>
	<node id="-735214" lat="68.6208833377" lon="16.7762944457">
		<tag k="name" v="Øynes" />
		<tag k="natural" v="cape" />
		<tag k="ssr:stedsnr" v="903758" />
	</node>
	<node id="-734608" lat="68.5798583304" lon="17.415258331">
		<tag k="name" v="Hundvatnet - Beanajávri" />
		<tag k="name:no" v="Hundvatnet" />
		<tag k="name:se" v="Beanajávri" />
		<tag k="natural" v="water" />
		<tag k="ssr:stedsnr" v="202945" />
	</node>
	<node id="-735119" lat="68.5811166684" lon="17.3892944327">
		<tag k="name" v="Auksjonselva - Ákšojohka" />
		<tag k="name:no" v="Auksjonselva" />
		<tag k="name:se" v="Ákšojohka" />
		<tag k="ssr:stedsnr" v="809936" />
		<tag k="waterway" v="stream" />
	</node>
	<node id="-734606" lat="68.5612944424" lon="17.2351000027">
		<tag k="alt_name:no" v="Kirstenvatnet" />
		<tag k="name" v="Kirstivatnet - Gihtejávri" />
		<tag k="name:no" v="Kirstivatnet" />
		<tag k="name:se" v="Gihtejávri" />
		<tag k="natural" v="water" />
		<tag k="ssr:stedsnr" v="202937" />
	</node>
	<node id="-735117" lat="68.6445722197" lon="17.2652166584">
		<tag k="name" v="Rørelva" />
		<tag k="ssr:stedsnr" v="809891" />
		<tag k="waterway" v="stream" />
	</node>
	<node id="-735114" lat="68.5195805521" lon="16.7144388775">
		<tag k="name" v="Svartvatnet" />
		<tag k="natural" v="water" />
		<tag k="ssr:stedsnr" v="809795" />
		<tag k="water" v="lake" />
	</node>
	<node id="-734599" lat="68.643969449" lon="17.1010194365">
		<tag k="name" v="Marskarelva" />
		<tag k="ssr:stedsnr" v="202907" />
		<tag k="waterway" v="stream" />
	</node>
	<node id="-734446" lat="68.5782166665" lon="17.3428083376">
		<tag k="alt_name:no" v="Råkjielva" />
		<tag k="name" v="Rakjielva - Rohčijohka" />
		<tag k="name:no" v="Rakjielva" />
		<tag k="name:se" v="Rohčijohka" />
		<tag k="ssr:stedsnr" v="80939" />
		<tag k="waterway" v="stream" />
	</node>
	<node id="-734597" lat="68.543766666" lon="16.7004249899">
		<tag k="name" v="Beritvatnet" />
		<tag k="natural" v="water" />
		<tag k="ssr:stedsnr" v="202883" />
	</node>
	<node id="-735107" lat="68.6478222249" lon="16.7562000033">
		<tag k="name" v="Bruelva" />
		<tag k="ssr:stedsnr" v="809042" />
		<tag k="waterway" v="stream" />
	</node>
	<node id="-735296" lat="68.6119694461" lon="17.2612888764">
		<tag k="name" v="Kuvågen" />
		<tag k="natural" v="bay" />
		<tag k="ssr:stedsnr" v="964643" />
	</node>
	<node id="-735100" lat="68.6735583374" lon="16.8871749977">
		<tag k="fixme" v="multiple name tags, choose one and add the other to alt_name" />
		<tag k="name" v="Moelva;Mølnelva" />
		<tag k="ssr:stedsnr" v="808497" />
		<tag k="waterway" v="stream" />
	</node>
	<node id="-735098" lat="68.615947222" lon="16.810519441">
		<tag k="fixme" v="multiple name tags, choose one and add the other to alt_name" />
		<tag k="name" v="Karivatnet;Lysvatnet" />
		<tag k="natural" v="water" />
		<tag k="ssr:stedsnr" v="808210" />
	</node>
	<node id="-735093" lat="68.5941861131" lon="17.3565833356">
		<tag k="name" v="Ola holmen - Vullesuolu" />
		<tag k="name:no" v="Ola holmen" />
		<tag k="name:se" v="Vullesuolu" />
		<tag k="place" v="islet" />
		<tag k="ssr:stedsnr" v="796255" />
	</node>
	<node id="-735089" lat="68.6716805573" lon="16.8508138853">
		<tag k="name" v="Breiteigelva" />
		<tag k="ssr:stedsnr" v="782959" />
		<tag k="waterway" v="stream" />
	</node>
	<node id="-735087" lat="68.6441611133" lon="16.9388805592">
		<tag k="name" v="Tverrelvvatnet" />
		<tag k="natural" v="water" />
		<tag k="ssr:stedsnr" v="782910" />
		<tag k="water" v="lake" />
	</node>
	<node id="-735085" lat="68.6635694471" lon="16.9489138791">
		<tag k="name" v="Elvekrokan" />
		<tag k="natural" v="bay" />
		<tag k="ssr:stedsnr" v="782879" />
	</node>
	<node id="-734572" lat="68.643430551" lon="16.8142416754">
		<tag k="name" v="Lamsoselva" />
		<tag k="ssr:stedsnr" v="175871" />
		<tag k="waterway" v="stream" />
	</node>
	<node id="-735082" lat="68.6398611121" lon="16.7241249871">
		<tag k="name" v="Tverrelva" />
		<tag k="ssr:stedsnr" v="782822" />
		<tag k="waterway" v="stream" />
	</node>
	<node id="-735080" lat="68.6059055583" lon="16.7927305594">
		<tag k="name" v="Roggerápmajohka" />
		<tag k="name:se" v="Roggerápmajohka" />
		<tag k="ssr:stedsnr" v="782763" />
		<tag k="waterway" v="stream" />
	</node>
	<node id="-734566" lat="68.5878499961" lon="17.329591662">
		<tag k="name" v="Stillevatnet øvre" />
		<tag k="natural" v="water" />
		<tag k="ssr:stedsnr" v="175644" />
		<tag k="water" v="lake" />
	</node>
	<node id="-735076" lat="68.6470222232" lon="17.1030777868">
		<tag k="name" v="Åse-elva" />
		<tag k="ssr:stedsnr" v="782656" />
		<tag k="waterway" v="stream" />
	</node>
	<node id="-734694" lat="68.7110361127" lon="16.9827833391">
		<tag k="name" v="Mølnelva" />
		<tag k="ssr:stedsnr" v="418560" />
		<tag k="waterway" v="stream" />
	</node>
	<node id="-735074" lat="68.5760638884" lon="17.2432944451">
		<tag k="name" v="Vaggenusvika" />
		<tag k="natural" v="bay" />
		<tag k="ssr:stedsnr" v="782621" />
	</node>
	<node id="-735073" lat="68.6537194451" lon="17.0137638898">
		<tag k="name" v="Storlemvatnet" />
		<tag k="natural" v="water" />
		<tag k="ssr:stedsnr" v="782560" />
	</node>
	<node id="-734352" lat="68.5352107399" lon="16.7657938723">
		<tag k="name" v="Jonnejorbmi" />
		<tag k="name:se" v="Jonnejorbmi" />
		<tag k="natural" v="water" />
		<tag k="ssr:stedsnr" v="986273" />
		<tag k="water" v="lake" />
	</node>
	<node id="-734555" lat="68.5891999978" lon="17.3569944494">
		<tag k="name" v="Rohčiluokta" />
		<tag k="name:se" v="Rohčiluokta" />
		<tag k="natural" v="bay" />
		<tag k="ssr:stedsnr" v="175287" />
	</node>
	<node id="-734264" lat="68.6452666631" lon="16.8093444303">
		<tag k="alt_name" v="Lamsosvatnet" />
		<tag k="name" v="Lamsåsvatnet" />
		<tag k="natural" v="water" />
		<tag k="ssr:stedsnr" v="384042" />
	</node>
	<node id="-735054" lat="68.6749861095" lon="16.9600527637">
		<tag k="alt_name" v="Reinsåelva" />
		<tag k="name" v="Rensåelva" />
		<tag k="ssr:stedsnr" v="748998" />
		<tag k="waterway" v="river" />
	</node>
	<node id="-734605" lat="68.5943111077" lon="17.3060944532">
		<tag k="fixme" v="multiple name tags, choose one and add the other to alt_name" />
		<tag k="name" v="Revelva;Revelva, nedre;Nedre Revelva - Riebejohka" />
		<tag k="name:no" v="Revelva;Revelva, nedre;Nedre Revelva" />
		<tag k="name:se" v="Riebejohka" />
		<tag k="ssr:stedsnr" v="202936" />
		<tag k="waterway" v="river" />
	</node>
	<node id="-735052" lat="68.6606083288" lon="17.2591777865">
		<tag k="name" v="Segelelva - Borjjasjohka" />
		<tag k="name:no" v="Segelelva" />
		<tag k="name:se" v="Borjjasjohka" />
		<tag k="ssr:stedsnr" v="748988" />
		<tag k="waterway" v="stream" />
	</node>
	<node id="-735287" lat="68.5851749971" lon="17.3204972073">
		<tag k="name" v="Storbekken" />
		<tag k="ssr:stedsnr" v="963712" />
		<tag k="waterway" v="stream" />
	</node>
	<node id="-734819" lat="68.6651916694" lon="17.0381055453">
		<tag k="name" v="Kollvatnet" />
		<tag k="natural" v="water" />
		<tag k="ssr:stedsnr" v="539912" />
	</node>
	<node id="-735045" lat="68.5678638937" lon="16.8393277662">
		<tag k="name" v="Tindvatnet - Čohkkajávri" />
		<tag k="name:no" v="Tindvatnet" />
		<tag k="name:se" v="Čohkkajávri" />
		<tag k="natural" v="water" />
		<tag k="ssr:stedsnr" v="748936" />
	</node>
	<node id="-735043" lat="68.6420138911" lon="16.871672233">
		<tag k="name" v="Småvatnan" />
		<tag k="natural" v="water" />
		<tag k="ssr:stedsnr" v="748897" />
		<tag k="water" v="lake" />
	</node>
	<node id="-735041" lat="68.5458750003" lon="16.678919447">
		<tag k="alt_name" v="Nøkktjørna" />
		<tag k="name" v="Nøkktjønna" />
		<tag k="natural" v="water" />
		<tag k="ssr:stedsnr" v="748881" />
	</node>
	<node id="-734261" lat="68.6305555529" lon="16.7033610994">
		<tag k="name" v="Svartdalsvatnet" />
		<tag k="natural" v="water" />
		<tag k="ssr:stedsnr" v="384006" />
	</node>
	<node id="-734522" lat="68.6093972209" lon="16.6393583393">
		<tag k="alt_name" v="Lillevatnet" />
		<tag k="name" v="Litlevatnet" />
		<tag k="natural" v="water" />
		<tag k="ssr:stedsnr" v="141218" />
	</node>
	<node id="-734175" lat="68.6098861145" lon="16.6481916791">
		<tag k="loc_name" v="Råttjønna" />
		<tag k="name" v="Råttkjønna" />
		<tag k="natural" v="water" />
		<tag k="ssr:stedsnr" v="296836" />
		<tag k="water" v="pond" />
	</node>
	<node id="-735030" lat="68.5978472262" lon="16.785969455">
		<tag k="fixme" v="multiple name tags, choose one and add the other to alt_name" />
		<tag k="name" v="Holvatnet, nedre;Hulvatnet;Nedre Holvatnet - Roggejávri" />
		<tag k="name:no" v="Holvatnet, nedre;Hulvatnet;Nedre Holvatnet" />
		<tag k="name:se" v="Roggejávri" />
		<tag k="natural" v="water" />
		<tag k="old_name:se" v="Råggejavri" />
		<tag k="ssr:stedsnr" v="748185" />
		<tag k="water" v="lake" />
	</node>
	<node id="-734514" lat="68.6334305521" lon="16.7699833413">
		<tag k="name" v="Lysvatnet" />
		<tag k="natural" v="water" />
		<tag k="ssr:stedsnr" v="141004" />
	</node>
	<node id="-735022" lat="68.6419888867" lon="16.7886999964">
		<tag k="name" v="Svartvatnet" />
		<tag k="natural" v="water" />
		<tag k="ssr:stedsnr" v="748024" />
	</node>
	<node id="-734173" lat="68.5963444413" lon="16.8017444342">
		<tag k="name" v="Badjejohka" />
		<tag k="name:se" v="Badjejohka" />
		<tag k="ssr:stedsnr" v="296770" />
		<tag k="waterway" v="stream" />
	</node>
	<node id="-735020" lat="68.593333336" lon="17.3308972261">
		<tag k="name" v="Hesteskovatnet - Suolojávri" />
		<tag k="name:no" v="Hesteskovatnet" />
		<tag k="name:se" v="Suolojávri" />
		<tag k="natural" v="water" />
		<tag k="ssr:stedsnr" v="747916" />
	</node>
	<node id="-734507" lat="68.620127778" lon="17.1919444441">
		<tag k="name" v="Novaelva - Várevuolijohka" />
		<tag k="name:no" v="Novaelva" />
		<tag k="name:se" v="Várevuolijohka" />
		<tag k="ssr:stedsnr" v="140906" />
		<tag k="waterway" v="stream" />
	</node>
	<node id="-734506" lat="68.6128805556" lon="16.6574805628">
		<tag k="fixme" v="multiple name tags, choose one and add the other to alt_name" />
		<tag k="name" v="Gjørmevatnet;Lysvatnet" />
		<tag k="natural" v="water" />
		<tag k="ssr:stedsnr" v="140223" />
	</node>
	<node id="-734505" lat="68.601488886" lon="17.4924777813">
		<tag k="name" v="Beađvajávri" />
		<tag k="name:se" v="Beađvajávri" />
		<tag k="natural" v="water" />
		<tag k="old_name:se" v="Bæđvajavri" />
		<tag k="ssr:stedsnr" v="138562" />
	</node>
	<node id="-734502" lat="68.660458334" lon="16.9794611031">
		<tag k="name" v="Kistefossen" />
		<tag k="natural" v="waterfall" />
		<tag k="ssr:stedsnr" v="114932" />
	</node>
	<node id="-734499" lat="68.6790222248" lon="16.9627861082">
		<tag k="name" v="Blomdalfossen" />
		<tag k="natural" v="waterfall" />
		<tag k="ssr:stedsnr" v="114923" />
	</node>
	<node id="-734497" lat="68.6243777745" lon="16.7817611166">
		<tag k="name" v="Storelva" />
		<tag k="ssr:stedsnr" v="114774" />
		<tag k="waterway" v="river" />
	</node>
	<node id="-735008" lat="68.6355138852" lon="17.2668111158">
		<tag k="name" v="Jonsåelva" />
		<tag k="ssr:stedsnr" v="721649" />
		<tag k="waterway" v="stream" />
	</node>
	<node id="-734529" lat="68.5584138864" lon="16.6684027694">
		<tag k="name" v="Luraelva" />
		<tag k="ssr:stedsnr" v="141807" />
		<tag k="waterway" v="stream" />
	</node>
	<node id="-735003" lat="68.7064999989" lon="16.9921555472">
		<tag k="name" v="Skreelva" />
		<tag k="ssr:stedsnr" v="721560" />
		<tag k="waterway" v="stream" />
	</node>
	<node id="-734212" lat="68.6297027773" lon="16.9834583411">
		<tag k="name" v="Buelva" />
		<tag k="ssr:stedsnr" v="323909" />
		<tag k="waterway" v="stream" />
	</node>
	<node id="-735000" lat="68.5775250027" lon="17.3951222311">
		<tag k="name" v="Ákšojávri" />
		<tag k="name:se" v="Ákšojávri" />
		<tag k="natural" v="water" />
		<tag k="ssr:stedsnr" v="721271" />
	</node>
	<node id="-735278" lat="68.5844611136" lon="16.6987638976">
		<tag k="name" v="Vassneset" />
		<tag k="natural" v="cape" />
		<tag k="ssr:stedsnr" v="963222" />
	</node>
	<node id="-734991" lat="68.5797833313" lon="16.6585999876">
		<tag k="name" v="Høgåselva" />
		<tag k="ssr:stedsnr" v="721169" />
		<tag k="waterway" v="stream" />
	</node>
	<node id="-734990" lat="68.5564694486" lon="16.651">
		<tag k="name" v="Hansheimelva" />
		<tag k="ssr:stedsnr" v="721164" />
		<tag k="waterway" v="stream" />
	</node>
	<node id="-734167" lat="68.6225833352" lon="17.2312666756">
		<tag k="name" v="Steinvatnet" />
		<tag k="natural" v="water" />
		<tag k="ssr:stedsnr" v="296659" />
	</node>
	<node id="-734472" lat="68.6168277782" lon="17.3829388807">
		<tag k="name" v="Gorži" />
		<tag k="name:se" v="Gorži" />
		<tag k="natural" v="waterfall" />
		<tag k="ssr:stedsnr" v="82242" />
	</node>
	<node id="-734471" lat="68.5974111076" lon="17.2177361043">
		<tag k="name" v="Klubbeneset - Šlubbonjárga" />
		<tag k="name:no" v="Klubbeneset" />
		<tag k="name:se" v="Šlubbonjárga" />
		<tag k="natural" v="cape" />
		<tag k="ssr:stedsnr" v="82233" />
	</node>
	<node id="-734979" lat="68.5874916699" lon="17.2220111138">
		<tag k="name" v="Furuneset - Beahcenjárga" />
		<tag k="name:no" v="Furuneset" />
		<tag k="name:se" v="Beahcenjárga" />
		<tag k="natural" v="cape" />
		<tag k="ssr:stedsnr" v="689262" />
	</node>
	<node id="-734978" lat="68.6573444442" lon="16.9652249932">
		<tag k="name" v="Tverrelva" />
		<tag k="ssr:stedsnr" v="688888" />
		<tag k="waterway" v="stream" />
	</node>
	<node id="-734421" lat="68.6286944417" lon="16.7448638823">
		<tag k="name" v="Rundvatnet" />
		<tag k="natural" v="water" />
		<tag k="ssr:stedsnr" v="54779" />
	</node>
	<node id="-735018" lat="68.5616611093" lon="16.7670111092">
		<tag k="alt_name:se" v="Luohkkávuoljohka" />
		<tag k="name" v="Øverelva - Luohkkájohka" />
		<tag k="name:no" v="Øverelva" />
		<tag k="name:se" v="Luohkkájohka" />
		<tag k="old_name:se" v="Luokkajåkka" />
		<tag k="ssr:stedsnr" v="747593" />
		<tag k="waterway" v="stream" />
	</node>
	<node id="-734458" lat="68.5140833304" lon="16.6089388819">
		<tag k="alt_name" v="Litlevatnet" />
		<tag k="name" v="Litlvatnet" />
		<tag k="natural" v="water" />
		<tag k="ssr:stedsnr" v="81816" />
	</node>
	<node id="-734456" lat="68.5953055547" lon="16.6893500058">
		<tag k="name" v="Lomstjønna" />
		<tag k="natural" v="water" />
		<tag k="ssr:stedsnr" v="81207" />
	</node>
	<node id="-734967" lat="68.6035277754" lon="17.2355666607">
		<tag k="name" v="Skoddebergvatnet - Skoaberjávri" />
		<tag k="name:no" v="Skoddebergvatnet" />
		<tag k="name:se" v="Skoaberjávri" />
		<tag k="natural" v="water" />
		<tag k="ssr:stedsnr" v="687912" />
		<tag k="water" v="lake" />
	</node>
	<node id="-734964" lat="68.6229638865" lon="16.851369444">
		<tag k="name" v="Isskarvatnet" />
		<tag k="natural" v="water" />
		<tag k="ssr:stedsnr" v="687895" />
	</node>
	<node id="-734958" lat="68.5187250029" lon="16.6555805525">
		<tag k="name" v="Laelva" />
		<tag k="ssr:stedsnr" v="687789" />
		<tag k="waterway" v="stream" />
	</node>
	<node id="-734445" lat="68.5817083343" lon="17.2073000078">
		<tag k="name" v="Dalelva" />
		<tag k="ssr:stedsnr" v="80935" />
		<tag k="waterway" v="stream" />
	</node>
	<node id="-734444" lat="68.5994166706" lon="16.8412972175">
		<tag k="name" v="Skittendalselva - Baikalágjohka" />
		<tag k="name:no" v="Skittendalselva" />
		<tag k="name:se" v="Baikalágjohka" />
		<tag k="ssr:stedsnr" v="80927" />
		<tag k="waterway" v="river" />
	</node>
	<node id="-734443" lat="68.6274499963" lon="17.2592305615">
		<tag k="name" v="Tømmerelva" />
		<tag k="ssr:stedsnr" v="80901" />
		<tag k="waterway" v="stream" />
	</node>
	<node id="-734438" lat="68.6101833353" lon="16.8094166728">
		<tag k="fixme" v="multiple name tags, choose one and add the other to alt_name" />
		<tag k="name" v="Langvatnet;Stakkvatnet" />
		<tag k="natural" v="water" />
		<tag k="ssr:stedsnr" v="80249" />
	</node>
	<node id="-734434" lat="68.6581361112" lon="16.7728694357">
		<tag k="name" v="Sandvatnet - Sáttiidjávri" />
		<tag k="name:no" v="Sandvatnet" />
		<tag k="name:se" v="Sáttiidjávri" />
		<tag k="natural" v="water" />
		<tag k="ssr:stedsnr" v="80053" />
		<tag k="water" v="lake" />
	</node>
	<node id="-734160" lat="68.6063249994" lon="17.2613083352">
		<tag k="name" v="Skjellodden" />
		<tag k="natural" v="cape" />
		<tag k="ssr:stedsnr" v="296243" />
	</node>
	<node id="-734938" lat="68.6619777801" lon="17.0224138899">
		<tag k="name" v="Holmen" />
		<tag k="natural" v="cape" />
		<tag k="ssr:stedsnr" v="660906" />
	</node>
	<node id="-734937" lat="68.6607888899" lon="16.9995694541">
		<tag k="name" v="Lillevatnet" />
		<tag k="natural" v="water" />
		<tag k="ssr:stedsnr" v="660899" />
	</node>
	<node id="-734424" lat="68.6644638918" lon="17.0900805671">
		<tag k="name" v="Vassdalvatnet" />
		<tag k="natural" v="water" />
		<tag k="ssr:stedsnr" v="54721" />
	</node>
	<node id="-734422" lat="68.5982749995" lon="16.8625999913">
		<tag k="name" v="Nedre Skittendalvatnet" />
		<tag k="natural" v="water" />
		<tag k="ssr:stedsnr" v="54780" />
		<tag k="water" v="lake" />
	</node>
	<node id="-734933" lat="68.6456527755" lon="16.8194416593">
		<tag k="name" v="Bottenkjosen" />
		<tag k="natural" v="bay" />
		<tag k="ssr:stedsnr" v="660854" />
	</node>
	<node id="-734411" lat="68.5153999997" lon="16.586394454">
		<tag k="name" v="Tverråselva" />
		<tag k="ssr:stedsnr" v="54021" />
		<tag k="waterway" v="stream" />
	</node>
	<node id="-734922" lat="68.6525444443" lon="17.0017138861">
		<tag k="name" v="Bjørnstielva" />
		<tag k="ssr:stedsnr" v="660596" />
		<tag k="waterway" v="stream" />
	</node>
	<node id="-734408" lat="68.5862222191" lon="16.7379083243">
		<tag k="name" v="Reinåselva - Gurajohka" />
		<tag k="name:no" v="Reinåselva" />
		<tag k="name:se" v="Gurajohka" />
		<tag k="ssr:stedsnr" v="53886" />
		<tag k="waterway" v="stream" />
	</node>
	<node id="-734402" lat="68.6616916709" lon="17.0565861078">
		<tag k="name" v="Bjørnskarvatnet" />
		<tag k="natural" v="water" />
		<tag k="ssr:stedsnr" v="20998" />
	</node>
	<node id="-734399" lat="68.6876999968" lon="17.1265388945">
		<tag k="name" v="Mølnelva" />
		<tag k="ssr:stedsnr" v="20985" />
		<tag k="waterway" v="stream" />
	</node>
	<node id="-734398" lat="68.5961027826" lon="17.3696583261">
		<tag k="name" v="Revvatnet - Riebejávri" />
		<tag k="name:no" v="Revvatnet" />
		<tag k="name:se" v="Riebejávri" />
		<tag k="natural" v="water" />
		<tag k="ssr:stedsnr" v="20935" />
		<tag k="water" v="lake" />
	</node>
	<node id="-734909" lat="68.6169611116" lon="16.7430666608">
		<tag k="name" v="Øvre Nipvatnan - Badje-Hoanttasjávri" />
		<tag k="name:no" v="Øvre Nipvatnan" />
		<tag k="name:se" v="Badje-Hoanttasjávri" />
		<tag k="natural" v="water" />
		<tag k="ssr:stedsnr" v="642797" />
	</node>
	<node id="-734395" lat="68.6312916668" lon="17.0217027641">
		<tag k="alt_name:no" v="Storjordåa" />
		<tag k="name" v="Storjordelva - Jalgeslágojohka" />
		<tag k="name:no" v="Storjordelva" />
		<tag k="name:se" v="Jalgeslágojohka" />
		<tag k="ssr:stedsnr" v="20917" />
		<tag k="waterway" v="river" />
	</node>
	<node id="-734394" lat="68.6212805556" lon="17.0139999967">
		<tag k="name" v="Okselva" />
		<tag k="ssr:stedsnr" v="20911" />
		<tag k="waterway" v="stream" />
	</node>
	<node id="-734904" lat="68.6153638924" lon="17.2342638873">
		<tag k="fixme" v="multiple name tags, choose one and add the other to alt_name" />
		<tag k="name" v="Boarrenjárga;Dáktenjárga" />
		<tag k="name:se" v="Boarrenjárga;Dáktenjárga" />
		<tag k="natural" v="cape" />
		<tag k="ssr:stedsnr" v="628234" />
	</node>
	<node id="-734898" lat="68.6286194464" lon="16.842119443">
		<tag k="alt_name" v="Hollavatnet" />
		<tag k="name" v="Holavatnet" />
		<tag k="natural" v="water" />
		<tag k="ssr:stedsnr" v="626917" />
	</node>
	<node id="-734896" lat="68.6407333317" lon="17.326655543">
		<tag k="name" v="Oldervatnet - Leaibejávri" />
		<tag k="name:no" v="Oldervatnet" />
		<tag k="name:se" v="Leaibejávri" />
		<tag k="natural" v="water" />
		<tag k="ssr:stedsnr" v="626887" />
	</node>
	<node id="-734892" lat="68.5241166644" lon="16.6844722086">
		<tag k="name" v="Tennvatnet" />
		<tag k="natural" v="water" />
		<tag k="ssr:stedsnr" v="626805" />
		<tag k="water" v="lake" />
	</node>
	<node id="-734887" lat="68.6174333307" lon="16.6899250082">
		<tag k="name" v="Gulvatnet" />
		<tag k="natural" v="water" />
		<tag k="ssr:stedsnr" v="626242" />
	</node>
	<node id="-735291" lat="68.59975278" lon="16.5983666609">
		<tag k="name" v="Tømmeråselva" />
		<tag k="ssr:stedsnr" v="963855" />
		<tag k="waterway" v="stream" />
	</node>
	<node id="-734373" lat="68.6485333317" lon="16.7866361012">
		<tag k="name" v="Kvannelva" />
		<tag k="ssr:stedsnr" v="20037" />
		<tag k="waterway" v="stream" />
	</node>
	<node id="-734372" lat="68.6310388854" lon="16.6294555558">
		<tag k="name" v="Durmålsskarvatnet" />
		<tag k="natural" v="water" />
		<tag k="ssr:stedsnr" v="20024" />
	</node>
	<node id="-734883" lat="68.5757444476" lon="16.6330527774">
		<tag k="alt_name" v="Jelsåa" />
		<tag k="name" v="Gjelsåa" />
		<tag k="ssr:stedsnr" v="626187" />
		<tag k="waterway" v="stream" />
	</node>
	<node id="-734370" lat="68.6241194473" lon="17.4614250036">
		<tag k="name" v="Isvatnet - Riehpejávri" />
		<tag k="name:no" v="Isvatnet" />
		<tag k="name:se" v="Riehpejávri" />
		<tag k="natural" v="water" />
		<tag k="old_name:se" v="Rieppejavri" />
		<tag k="ssr:stedsnr" v="18472" />
	</node>
	<node id="-734880" lat="68.66000278" lon="16.8173555606">
		<tag k="name" v="Mølnelva" />
		<tag k="ssr:stedsnr" v="626072" />
		<tag k="waterway" v="stream" />
	</node>
	<node id="-734878" lat="68.5885555597" lon="17.475433331">
		<tag k="name" v="Stillehølan" />
		<tag k="place" v="locality" />
		<tag k="ssr:stedsnr" v="624535" />
	</node>
	<node id="-734194" lat="68.5720138904" lon="16.7298916544">
		<tag k="alt_name:no" v="Lille-Trøssevatnet;Trøsevatnet l." />
		<tag k="name" v="Litle Trøsevatnet - Unna Roasujávrráš" />
		<tag k="name:no" v="Litle Trøsevatnet" />
		<tag k="name:se" v="Unna Roasujávrráš" />
		<tag k="natural" v="water" />
		<tag k="ssr:stedsnr" v="323157" />
	</node>
	<node id="-734866" lat="68.6256944425" lon="16.7347916585">
		<tag k="name" v="Glefjellvatnet" />
		<tag k="natural" v="water" />
		<tag k="ssr:stedsnr" v="599784" />
	</node>
	<node id="-734864" lat="68.6330833356" lon="16.831044435">
		<tag k="name" v="Hollaelva" />
		<tag k="ssr:stedsnr" v="599777" />
		<tag k="waterway" v="stream" />
	</node>
	<node id="-734863" lat="68.6248250026" lon="16.7947583395">
		<tag k="name" v="Brunesset" />
		<tag k="natural" v="cape" />
		<tag k="ssr:stedsnr" v="599771" />
	</node>
	<node id="-734860" lat="68.6381166669" lon="17.1220305571">
		<tag k="name" v="Indre Skredelva" />
		<tag k="ssr:stedsnr" v="599671" />
		<tag k="waterway" v="stream" />
	</node>
	<node id="-734858" lat="68.6544694439" lon="17.0320805485">
		<tag k="name" v="Gimsholmen" />
		<tag k="natural" v="cape" />
		<tag k="ssr:stedsnr" v="599609" />
	</node>
	<node id="-734344" lat="68.6002684879" lon="16.842551313">
		<tag k="loc_name:no" v="Skittendalsfossen" />
		<tag k="name" v="Baikalággorži" />
		<tag k="name:se" v="Baikalággorži" />
		<tag k="natural" v="waterfall" />
		<tag k="ssr:stedsnr" v="986163" />
	</node>
	<node id="-734855" lat="68.5882055579" lon="17.3766361002">
		<tag k="name" v="Bjørnholmen - Váibmosuolu" />
		<tag k="name:no" v="Bjørnholmen" />
		<tag k="name:se" v="Váibmosuolu" />
		<tag k="place" v="islet" />
		<tag k="ssr:stedsnr" v="599272" />
	</node>
	<node id="-734854" lat="68.5872611068" lon="16.6870666759">
		<tag k="name" v="Langnes" />
		<tag k="natural" v="cape" />
		<tag k="ssr:stedsnr" v="599193" />
	</node>
	<node id="-734339" lat="68.6602361105" lon="16.7666555579">
		<tag k="name" v="Sebogneset" />
		<tag k="natural" v="cape" />
		<tag k="ssr:stedsnr" v="478965" />
	</node>
	<node id="-734850" lat="68.6012861102" lon="17.2130805517">
		<tag k="name" v="Dulvvesnjárga" />
		<tag k="name:se" v="Dulvvesnjárga" />
		<tag k="natural" v="cape" />
		<tag k="ssr:stedsnr" v="567234" />
	</node>
	<node id="-734846" lat="68.6319138855" lon="17.1658583244">
		<tag k="fixme" v="multiple name tags, choose one and add the other to alt_name" />
		<tag k="name" v="Lomtjørna;Lomvatnet" />
		<tag k="natural" v="water" />
		<tag k="ssr:stedsnr" v="566918" />
	</node>
	<node id="-734841" lat="68.571516666" lon="16.8202166547">
		<tag k="loc_name:no" v="Langvatnet" />
		<tag k="loc_name:se" v="Guhkesjávri" />
		<tag k="name" v="Store Langvatnet" />
		<tag k="name:no" v="Store Langvatnet" />
		<tag k="natural" v="water" />
		<tag k="old_name:no" v="Langvatnet, store" />
		<tag k="ssr:stedsnr" v="566852" />
		<tag k="water" v="lake" />
	</node>
	<node id="-734837" lat="68.586627777" lon="16.6038916553">
		<tag k="name" v="Øverelva" />
		<tag k="ssr:stedsnr" v="566190" />
		<tag k="waterway" v="stream" />
	</node>
	<node id="-734322" lat="68.685016669" lon="16.9757166679">
		<tag k="name" v="Stillelva" />
		<tag k="ssr:stedsnr" v="478645" />
		<tag k="waterway" v="stream" />
	</node>
	<node id="-735251" lat="68.6238944471" lon="16.8873444435">
		<tag k="name" v="Isvatnet - Čazajávri" />
		<tag k="name:no" v="Isvatnet" />
		<tag k="name:se" v="Čazajávri" />
		<tag k="natural" v="water" />
		<tag k="ssr:stedsnr" v="930892" />
		<tag k="water" v="lake" />
	</node>
	<node id="-734318" lat="68.6399583339" lon="17.2316666562">
		<tag k="name" v="Yttervika" />
		<tag k="natural" v="bay" />
		<tag k="ssr:stedsnr" v="478288" />
	</node>
	<node id="-734829" lat="68.5952527789" lon="16.8893722206">
		<tag k="name" v="Skittendalsvatnan - Baikalágjávrrik" />
		<tag k="name:no" v="Skittendalsvatnan" />
		<tag k="name:se" v="Baikalágjávrrik" />
		<tag k="natural" v="water" />
		<tag k="old_name:se" v="Baikalagujavrit" />
		<tag k="ssr:stedsnr" v="565914" />
		<tag k="water" v="lake" />
	</node>
	<node id="-734226" lat="68.5731694459" lon="16.6515361004">
		<tag k="name" v="Tverrelva" />
		<tag k="ssr:stedsnr" v="357217" />
		<tag k="waterway" v="stream" />
	</node>
	<node id="-734824" lat="68.6072361124" lon="16.6772583261">
		<tag k="fixme" v="multiple name tags, choose one and add the other to alt_name" />
		<tag k="name" v="Lomkjønnvatnet;Melkevatnet" />
		<tag k="natural" v="water" />
		<tag k="ssr:stedsnr" v="565195" />
	</node>
	<node id="-734823" lat="68.5982305511" lon="17.4012861114">
		<tag k="alt_name:no" v="Revelva, øvre" />
		<tag k="name" v="Øvre Revelva - Badje-Riebejohka" />
		<tag k="name:no" v="Øvre Revelva" />
		<tag k="name:se" v="Badje-Riebejohka" />
		<tag k="ssr:stedsnr" v="563523" />
		<tag k="waterway" v="river" />
	</node>
	<node id="-735078" lat="68.633069448" lon="16.8098361114">
		<tag k="name" v="Kjosen" />
		<tag k="natural" v="bay" />
		<tag k="ssr:stedsnr" v="782735" />
	</node>
	<node id="-734816" lat="68.6474000004" lon="16.8550111073">
		<tag k="name" v="Steindalselva" />
		<tag k="ssr:stedsnr" v="539856" />
		<tag k="waterway" v="stream" />
	</node>
	<node id="-734301" lat="68.5161527752" lon="16.6717888784">
		<tag k="name" v="Sennvatnet" />
		<tag k="natural" v="water" />
		<tag k="ssr:stedsnr" v="478002" />
		<tag k="water" v="pond" />
	</node>
	<node id="-734812" lat="68.6416250006" lon="17.1327027821">
		<tag k="name" v="Stakkebakkelva" />
		<tag k="ssr:stedsnr" v="539681" />
		<tag k="waterway" v="stream" />
	</node>
	<node id="-734806" lat="68.6968055553" lon="17.003258342">
		<tag k="name" v="Skarlivatnet" />
		<tag k="natural" v="water" />
		<tag k="ssr:stedsnr" v="539631" />
	</node>
	<node id="-734804" lat="68.6411666645" lon="16.9741638927">
		<tag k="name" v="Middagsvatnet" />
		<tag k="natural" v="water" />
		<tag k="ssr:stedsnr" v="539579" />
	</node>
	<node id="-734801" lat="68.5820777773" lon="16.7028777837">
		<tag k="name" v="Holmen" />
		<tag k="place" v="islet" />
		<tag k="ssr:stedsnr" v="539181" />
	</node>
	<node id="-734285" lat="68.6795027773" lon="17.1502944323">
		<tag k="name" v="Moelva" />
		<tag k="ssr:stedsnr" v="384953" />
		<tag k="waterway" v="stream" />
	</node>
	<node id="-734796" lat="68.5530249973" lon="16.652608342">
		<tag k="name" v="Kolmoelva" />
		<tag k="ssr:stedsnr" v="539150" />
		<tag k="waterway" v="stream" />
	</node>
	<node id="-734792" lat="68.5287249972" lon="16.6152972233">
		<tag k="name" v="Gårdselva" />
		<tag k="ssr:stedsnr" v="539015" />
		<tag k="waterway" v="stream" />
	</node>
	<node id="-734788" lat="68.6037388926" lon="16.6871500042">
		<tag k="name" v="Hoanttasjohka" />
		<tag k="name:se" v="Hoanttasjohka" />
		<tag k="ssr:stedsnr" v="521818" />
		<tag k="waterway" v="river" />
	</node>
	<node id="-735298" lat="68.6434500014" lon="17.1663083338">
		<tag k="name" v="Hellelva" />
		<tag k="ssr:stedsnr" v="964710" />
		<tag k="waterway" v="stream" />
	</node>
	<node id="-734273" lat="68.6179000031" lon="16.7515416686">
		<tag k="name" v="Nipvatnan" />
		<tag k="natural" v="water" />
		<tag k="ssr:stedsnr" v="384257" />
	</node>
	<node id="-734784" lat="68.6119416661" lon="17.2044194338">
		<tag k="name" v="Várevuoligáddi" />
		<tag k="name:se" v="Várevuoligáddi" />
		<tag k="natural" v="beach" />
		<tag k="ssr:stedsnr" v="507226" />
	</node>
	<node id="-735293" lat="68.5806138887" lon="16.7834472189">
		<tag k="name" v="Fallfossen" />
		<tag k="natural" v="waterfall" />
		<tag k="ssr:stedsnr" v="963887" />
	</node>
	<node id="-734267" lat="68.5789666625" lon="16.654213889">
		<tag k="alt_name:no" v="Trøsenelva" />
		<tag k="name" v="Trøseelva - Roasujohka" />
		<tag k="name:no" v="Trøseelva" />
		<tag k="name:se" v="Roasujohka" />
		<tag k="ssr:stedsnr" v="384170" />
		<tag k="waterway" v="river" />
	</node>
	<node id="-734778" lat="68.6840000026" lon="17.1501833404">
		<tag k="name" v="Gårdselva" />
		<tag k="ssr:stedsnr" v="505958" />
		<tag k="waterway" v="stream" />
	</node>
	<node id="-734777" lat="68.5768388897" lon="17.13054166">
		<tag k="name" v="Svartvatnet" />
		<tag k="natural" v="water" />
		<tag k="ssr:stedsnr" v="505918" />
	</node>
	<node id="-734776" lat="68.5782055568" lon="17.2722277829">
		<tag k="name" v="Vaggenusbekken" />
		<tag k="ssr:stedsnr" v="505915" />
		<tag k="waterway" v="stream" />
	</node>
	<node id="-734263" lat="68.6343638862" lon="16.8072083365">
		<tag k="name" v="Blåfjellvatnet - Sáttiidvuomjávri" />
		<tag k="name:no" v="Blåfjellvatnet" />
		<tag k="name:se" v="Sáttiidvuomjávri" />
		<tag k="natural" v="water" />
		<tag k="ssr:stedsnr" v="384018" />
		<tag k="water" v="lake" />
	</node>
	<node id="-734773" lat="68.5903583334" lon="17.0655055632">
		<tag k="name" v="Villdalsvatnet" />
		<tag k="natural" v="water" />
		<tag k="ssr:stedsnr" v="505901" />
		<tag k="water" v="lake" />
	</node>
	<node id="-734772" lat="68.5391222228" lon="16.7140889003">
		<tag k="alt_name" v="Mølnevatn" />
		<tag k="name" v="Mølnevatnet" />
		<tag k="natural" v="water" />
		<tag k="ssr:stedsnr" v="505863" />
	</node>
	<node id="-734770" lat="68.52136389" lon="16.6592000042">
		<tag k="name" v="Moelva" />
		<tag k="ssr:stedsnr" v="505795" />
		<tag k="waterway" v="stream" />
	</node>
	<node id="-734256" lat="68.5276833365" lon="16.7332972234">
		<tag k="name" v="Myrvatnet - Garvajávri" />
		<tag k="name:no" v="Myrvatnet" />
		<tag k="name:se" v="Garvajávri" />
		<tag k="natural" v="water" />
		<tag k="ssr:stedsnr" v="383803" />
	</node>
	<node id="-735279" lat="68.5855555598" lon="16.695066672">
		<tag k="name" v="Skogholmen" />
		<tag k="place" v="islet" />
		<tag k="ssr:stedsnr" v="963223" />
	</node>
	<node id="-734254" lat="68.6137833297" lon="16.6441499887">
		<tag k="name" v="Svartvatnet" />
		<tag k="natural" v="water" />
		<tag k="ssr:stedsnr" v="383248" />
	</node>
	<node id="-734765" lat="68.6159250044" lon="16.7678027676">
		<tag k="name" v="Øyvatnet - Suolojávri" />
		<tag k="name:no" v="Øyvatnet" />
		<tag k="name:se" v="Suolojávri" />
		<tag k="natural" v="water" />
		<tag k="old_name:no" v="Øyavatnet" />
		<tag k="old_name:se" v="Suolujavri" />
		<tag k="ssr:stedsnr" v="505244" />
		<tag k="water" v="lake" />
	</node>
	<node id="-734252" lat="68.6057305597" lon="16.6602222151">
		<tag k="name" v="Langvatnet" />
		<tag k="natural" v="water" />
		<tag k="ssr:stedsnr" v="383230" />
	</node>
	<node id="-734763" lat="68.5980027757" lon="16.819463885">
		<tag k="alt_name:no" v="Holvatnet, øvre;Øvre Hulvatnet" />
		<tag k="name" v="Øvre Holvatnet - Moskijávri" />
		<tag k="name:no" v="Øvre Holvatnet" />
		<tag k="name:se" v="Moskijávri" />
		<tag k="natural" v="water" />
		<tag k="ssr:stedsnr" v="505201" />
	</node>
	<node id="-734250" lat="68.571097227" lon="16.8062638824">
		<tag k="alt_name" v="Langvatnet, l" />
		<tag k="name" v="Litle Langvatnet" />
		<tag k="natural" v="water" />
		<tag k="ssr:stedsnr" v="383130" />
	</node>
	<node id="-734760" lat="68.5813972201" lon="16.5963861182">
		<tag k="name" v="Nerelva" />
		<tag k="ssr:stedsnr" v="505165" />
		<tag k="waterway" v="stream" />
	</node>
	<node id="-735271" lat="68.534605554" lon="16.5753777781">
		<tag k="name" v="Ytterelva" />
		<tag k="ssr:stedsnr" v="963081" />
		<tag k="waterway" v="stream" />
	</node>
	<node id="-735267" lat="68.617936109" lon="16.7526805441">
		<tag k="name" v="Nedre Nipvatnan - Vuolle-Hoanttasjávri" />
		<tag k="name:no" v="Nedre Nipvatnan" />
		<tag k="name:se" v="Vuolle-Hoanttasjávri" />
		<tag k="natural" v="water" />
		<tag k="ssr:stedsnr" v="946814" />
	</node>
	<node id="-734754" lat="68.6353416642" lon="16.7213166554">
		<tag k="alt_name" v="Lillevatnet" />
		<tag k="name" v="Litlevatnet" />
		<tag k="natural" v="water" />
		<tag k="ssr:stedsnr" v="505007" />
	</node>
	<node id="-735265" lat="68.5041027752" lon="16.6591055482">
		<tag k="name" v="Skomakerneset" />
		<tag k="natural" v="cape" />
		<tag k="ssr:stedsnr" v="934003" />
	</node>
	<node id="-735264" lat="68.6155277817" lon="17.2218611031">
		<tag k="name" v="Beananjárga" />
		<tag k="name:se" v="Beananjárga" />
		<tag k="natural" v="cape" />
		<tag k="ssr:stedsnr" v="932244" />
	</node>
	<node id="-734238" lat="68.6365777756" lon="16.863294445">
		<tag k="name" v="Småvatnan" />
		<tag k="natural" v="water" />
		<tag k="ssr:stedsnr" v="357772" />
	</node>
	<node id="-734236" lat="68.6330472255" lon="16.8076694474">
		<tag k="name" v="Geitholmen" />
		<tag k="place" v="islet" />
		<tag k="ssr:stedsnr" v="357750" />
	</node>
	<node id="-735259" lat="68.6642249988" lon="16.9996888751">
		<tag k="name" v="Balteskarvatnet" />
		<tag k="natural" v="water" />
		<tag k="ssr:stedsnr" v="930988" />
	</node>
	<node id="-735258" lat="68.6875277775" lon="16.9558361104">
		<tag k="name" v="Rensåvatnet" />
		<tag k="natural" v="water" />
		<tag k="ssr:stedsnr" v="930970" />
		<tag k="water" v="lake" />
	</node>
	<node id="-734745" lat="68.5875944472" lon="16.8409416568">
		<tag k="name" v="Stuornjárga" />
		<tag k="name:se" v="Stuornjárga" />
		<tag k="natural" v="cape" />
		<tag k="ssr:stedsnr" v="451348" />
	</node>
	<node id="-735255" lat="68.601030557" lon="17.0103111197">
		<tag k="name" v="Grindalsvatnet - Gojijávri" />
		<tag k="name:no" v="Grindalsvatnet" />
		<tag k="name:se" v="Gojijávri" />
		<tag k="natural" v="water" />
		<tag k="ssr:stedsnr" v="930917" />
	</node>
	<node id="-734742" lat="68.6200972214" lon="17.2494888747">
		<tag k="name" v="Luspi" />
		<tag k="name:se" v="Luspi" />
		<tag k="natural" v="bay" />
		<tag k="ssr:stedsnr" v="446010" />
	</node>
	<node id="-735253" lat="68.6149250036" lon="16.9248361114">
		<tag k="name" v="Støvelvatnet" />
		<tag k="natural" v="water" />
		<tag k="ssr:stedsnr" v="930913" />
		<tag k="water" v="lake" />
	</node>
	<node id="-735252" lat="68.614577782" lon="17.281600002">
		<tag k="name" v="Krokelva - Ájajohka" />
		<tag k="name:no" v="Krokelva" />
		<tag k="name:se" v="Ájajohka" />
		<tag k="ssr:stedsnr" v="930897" />
		<tag k="waterway" v="stream" />
	</node>
	<node id="-734227" lat="68.5799083373" lon="17.4035999912">
		<tag k="name" v="Jovnnajávri" />
		<tag k="name:se" v="Jovnnajávri" />
		<tag k="natural" v="water" />
		<tag k="ssr:stedsnr" v="357280" />
	</node>
	<node id="-734738" lat="68.6542750012" lon="17.0488361077">
		<tag k="name" v="Huldrevatnet" />
		<tag k="natural" v="water" />
		<tag k="ssr:stedsnr" v="445906" />
	</node>
	<node id="-734731" lat="68.6676361095" lon="16.8258111184">
		<tag k="name" v="Bakåsvatnet" />
		<tag k="natural" v="water" />
		<tag k="ssr:stedsnr" v="445093" />
	</node>
	<node id="-734729" lat="68.5728749994" lon="17.057169451">
		<tag k="name" v="Niingsvatnet - Meahccejávri" />
		<tag k="name:no" v="Niingsvatnet" />
		<tag k="name:se" v="Meahccejávri" />
		<tag k="natural" v="water" />
		<tag k="ssr:stedsnr" v="444936" />
		<tag k="water" v="lake" />
	</node>
	<node id="-734728" lat="68.6326250036" lon="16.9463111079">
		<tag k="name" v="Lafjellvatnet" />
		<tag k="natural" v="water" />
		<tag k="ssr:stedsnr" v="444916" />
	</node>
	<node id="-735239" lat="68.5867944399" lon="16.8046111136">
		<tag k="name" v="Geitvatnet - Gáicajávri" />
		<tag k="name:no" v="Geitvatnet" />
		<tag k="name:se" v="Gáicajávri" />
		<tag k="natural" v="water" />
		<tag k="ssr:stedsnr" v="930168" />
	</node>
	<node id="-734213" lat="68.5757222225" lon="17.208674987">
		<tag k="name" v="Runddalselva - Jorbaváhjohka" />
		<tag k="name:no" v="Runddalselva" />
		<tag k="name:se" v="Jorbaváhjohka" />
		<tag k="ssr:stedsnr" v="323936" />
		<tag k="waterway" v="stream" />
	</node>
	<node id="-734724" lat="68.6058472182" lon="16.6733472227">
		<tag k="fixme" v="multiple name tags, choose one and add the other to alt_name" />
		<tag k="name" v="Lysvatnet;Sekkevatnet" />
		<tag k="natural" v="water" />
		<tag k="ssr:stedsnr" v="444190" />
	</node>
	<node id="-734211" lat="68.6157555591" lon="17.0663666581">
		<tag k="name" v="Trangdalsvatnet - Ruššojávri" />
		<tag k="name:no" v="Trangdalsvatnet" />
		<tag k="name:se" v="Ruššojávri" />
		<tag k="natural" v="water" />
		<tag k="ssr:stedsnr" v="323902" />
		<tag k="water" v="lake" />
	</node>
	<node id="-734209" lat="68.640169445" lon="16.9177138982">
		<tag k="name" v="Tverrelvvatnan" />
		<tag k="natural" v="water" />
		<tag k="ssr:stedsnr" v="323891" />
		<tag k="water" v="lake" />
	</node>
</osm>
