<?xml version="1.0" encoding="UTF-8"?>
<osm generator="osmapis" version="0.6">
	<node id="-734303" lat="68.5166000022" lon="16.6215027824">
		<tag k="ford" v="yes" />
		<tag k="name" v="Elvens vad" />
		<tag k="place" v="locality" />
		<tag k="ssr:stedsnr" v="478006" />
	</node>
	<node id="-734910" lat="68.678344442" lon="17.0646000019">
		<tag k="layer" v="-1" />
		<tag k="name" v="Skarvberg" />
		<tag k="ssr:stedsnr" v="650732" />
		<tag k="tunnel" v="yes" />
	</node>
	<node id="-735192" lat="68.5312333372" lon="16.6636249886">
		<tag k="junction" v="yes" />
		<tag k="name" v="Slettavkjøringa" />
		<tag k="place" v="locality" />
		<tag k="ssr:stedsnr" v="903028" />
	</node>
	<node id="-734711" lat="68.6630361113" lon="16.8535972284">
		<tag k="highway" v="path" />
		<tag k="name" v="Lamarkvegen" />
		<tag k="ssr:stedsnr" v="418962" />
	</node>
	<node id="-734326" lat="68.6392083338" lon="17.0934861125">
		<tag k="highway" v="path" />
		<tag k="name" v="Fjellveien" />
		<tag k="ssr:stedsnr" v="478707" />
	</node>
	<node id="-735277" lat="68.5781027737" lon="16.6842444541">
		<tag k="ford" v="yes" />
		<tag k="name" v="Vadet" />
		<tag k="place" v="locality" />
		<tag k="ssr:stedsnr" v="963208" />
	</node>
	<node id="-734337" lat="68.6521194443" lon="16.9927138782">
		<tag k="highway" v="path" />
		<tag k="name" v="Bjørnstien" />
		<tag k="ssr:stedsnr" v="478933" />
	</node>
	<node id="-734305" lat="68.52007778" lon="16.631102788">
		<tag k="highway" v="path" />
		<tag k="name" v="Mellaåsvegen" />
		<tag k="ssr:stedsnr" v="478012" />
	</node>
</osm>
