<?xml version="1.0" encoding="UTF-8"?>
<osm generator="osmapis" version="0.6">
	<node id="-736256" lat="68.5295166672" lon="16.7026361041">
		<tag k="name" v="Myrvang" />
		<tag k="place" v="farm" />
		<tag k="ssr:stedsnr" v="687793" />
	</node>
	<node id="-736255" lat="68.5233388889" lon="16.6697750009">
		<tag k="name" v="Sletta" />
		<tag k="place" v="farm" />
		<tag k="ssr:stedsnr" v="687791" />
	</node>
	<node id="-736253" lat="68.531297218" lon="16.6179749977">
		<tag k="name" v="Lavangen - Loabák" />
		<tag k="name:no" v="Lavangen" />
		<tag k="name:se" v="Loabák" />
		<tag k="place" v="hamlet" />
		<tag k="ssr:stedsnr" v="687772" />
	</node>
	<node id="-736252" lat="68.5313611089" lon="16.6546250086">
		<tag k="name" v="Skogvoll" />
		<tag k="place" v="farm" />
		<tag k="ssr:stedsnr" v="687770" />
	</node>
	<node id="-735736" lat="68.5248666632" lon="16.7186611137">
		<tag k="name" v="Solstad" />
		<tag k="place" v="farm" />
		<tag k="ssr:stedsnr" v="80802" />
	</node>
	<node id="-736247" lat="68.6010194486" lon="16.5656138871">
		<tag k="name" v="Fredheim" />
		<tag k="place" v="farm" />
		<tag k="ssr:stedsnr" v="687198" />
	</node>
	<node id="-736246" lat="68.5981999962" lon="16.6905666577">
		<tag k="name" v="Holtåsen" />
		<tag k="place" v="farm" />
		<tag k="ssr:stedsnr" v="687184" />
	</node>
	<node id="-736245" lat="68.6764166664" lon="16.7709583293">
		<tag k="name" v="Dallan" />
		<tag k="place" v="farm" />
		<tag k="ssr:stedsnr" v="687103" />
	</node>
	<node id="-735732" lat="68.6156250007" lon="16.580086105">
		<tag k="alt_name" v="Steinsland, s" />
		<tag k="fixme" v="consider place=hamlet" />
		<tag k="name" v="Søre Steinsland" />
		<tag k="place" v="village" />
		<tag k="ssr:stedsnr" v="80245" />
	</node>
	<node id="-736240" lat="68.6273361118" lon="16.7912861046">
		<tag k="name" v="Øymoen" />
		<tag k="place" v="isolated_dwelling" />
		<tag k="ssr:stedsnr" v="687004" />
	</node>
	<node id="-735726" lat="68.5672444423" lon="16.623286114">
		<tag k="name" v="Bø" />
		<tag k="place" v="farm" />
		<tag k="ssr:stedsnr" v="57777" />
	</node>
	<node id="-736235" lat="68.6605250032" lon="16.8346916584">
		<tag k="historic" v="shieling" />
		<tag k="name" v="Toviksetra" />
		<tag k="place" v="locality" />
		<tag k="ssr:stedsnr" v="660953" />
	</node>
	<node id="-735908" lat="68.5711055587" lon="17.0124527787">
		<tag k="fixme" v="consider tourism=alpine_hut or tourism=chalet" />
		<tag k="name" v="Blåvatnhytta" />
		<tag k="ssr:stedsnr" v="208337" />
		<tag k="tourism" v="wilderness_hut" />
	</node>
	<node id="-736214" lat="68.6566138932" lon="17.2229055447">
		<tag k="name" v="Helleren" />
		<tag k="place" v="farm" />
		<tag k="ssr:stedsnr" v="660291" />
	</node>
	<node id="-736212" lat="68.566861114" lon="16.6587277677">
		<tag k="name" v="Gamman" />
		<tag k="place" v="locality" />
		<tag k="ssr:stedsnr" v="660197" />
	</node>
	<node id="-735566" lat="68.5447701636" lon="16.7659393293">
		<tag k="fixme" v="consider place=hamlet" />
		<tag k="name" v="Kvitfors - Snoalta" />
		<tag k="name:no" v="Kvitfors" />
		<tag k="name:se" v="Snoalta" />
		<tag k="place" v="farm" />
		<tag k="ssr:stedsnr" v="384750" />
	</node>
	<node id="-735651" lat="68.6146313835" lon="17.2959372891">
		<tag k="name" v="Nordre Krokelva - Borri" />
		<tag k="name:no" v="Nordre Krokelva" />
		<tag k="name:se" v="Borri" />
		<tag k="place" v="farm" />
		<tag k="ssr:stedsnr" v="986315" />
	</node>
	<node id="-735821" lat="68.5171861124" lon="16.7238972202">
		<tag k="alt_name" v="Svartvatnet, s" />
		<tag k="name" v="Søre Svartvatnet" />
		<tag k="place" v="farm" />
		<tag k="ssr:stedsnr" v="141796" />
	</node>
	<node id="-735735" lat="68.5348809233" lon="16.6259075816">
		<tag k="name" v="Bekkelund" />
		<tag k="place" v="farm" />
		<tag k="ssr:stedsnr" v="80773" />
	</node>
	<node id="-736199" lat="68.6229833362" lon="16.8087499945">
		<tag k="name" v="Blåfjellvatnet" />
		<tag k="place" v="isolated_dwelling" />
		<tag k="ssr:stedsnr" v="627278" />
	</node>
	<node id="-736198" lat="68.6204138874" lon="16.5864860991">
		<tag k="name" v="Fagerlia" />
		<tag k="place" v="farm" />
		<tag k="ssr:stedsnr" v="627274" />
	</node>
	<node id="-735685" lat="68.6480388925" lon="17.1909055476">
		<tag k="alt_name" v="Opdal" />
		<tag k="name" v="Oppdal" />
		<tag k="place" v="isolated_dwelling" />
		<tag k="ssr:stedsnr" v="20888" />
	</node>
	<node id="-736196" lat="68.6764388898" lon="17.1207916755">
		<tag k="name" v="Grov - Roabadállu" />
		<tag k="name:no" v="Grov" />
		<tag k="name:se" v="Roabadállu" />
		<tag k="old_name:no" v="Grovfjord" />
		<tag k="place" v="village" />
		<tag k="ssr:stedsnr" v="626974" />
	</node>
	<node id="-735683" lat="68.5630916686" lon="16.7443277731">
		<tag k="name" v="Fløystad" />
		<tag k="place" v="farm" />
		<tag k="ssr:stedsnr" v="20833" />
	</node>
	<node id="-735682" lat="68.5182138919" lon="16.583291656">
		<tag k="name" v="Solvang" />
		<tag k="place" v="locality" />
		<tag k="ssr:stedsnr" v="20819" />
	</node>
	<node id="-735681" lat="68.5326111124" lon="16.6649777683">
		<tag k="name" v="Nyheim" />
		<tag k="place" v="farm" />
		<tag k="ssr:stedsnr" v="20789" />
	</node>
	<node id="-736191" lat="68.5501277818" lon="16.7673305478">
		<tag k="fixme" v="multiple name tags, choose one and add the other to alt_name" />
		<tag k="loc_name:no" v="Erikjorda" />
		<tag k="name" v="Eriksjorda;Erikjord;Erikjord - Roggi" />
		<tag k="name:no" v="Eriksjorda;Erikjord;Erikjord" />
		<tag k="name:se" v="Roggi" />
		<tag k="old_name:no" v="Eriksjord;Eriksjord" />
		<tag k="old_name:se" v="Råggi" />
		<tag k="place" v="farm" />
		<tag k="ssr:stedsnr" v="626865" />
	</node>
	<node id="-736189" lat="68.5568749966" lon="16.7310722197">
		<tag k="alt_name:no" v="Husjord, nordre" />
		<tag k="name" v="Nordre Husjord - Husmmaroggi" />
		<tag k="name:no" v="Nordre Husjord" />
		<tag k="name:se" v="Husmmaroggi" />
		<tag k="old_name:no" v="Husjord" />
		<tag k="old_name:se" v="Husmaråggi" />
		<tag k="place" v="farm" />
		<tag k="ssr:stedsnr" v="626840" />
	</node>
	<node id="-735674" lat="68.5689194463" lon="16.6528694401">
		<tag k="fixme" v="consider place=hamlet" />
		<tag k="name" v="Trøsen - Roassu" />
		<tag k="name:no" v="Trøsen" />
		<tag k="name:se" v="Roassu" />
		<tag k="place" v="farm" />
		<tag k="ssr:stedsnr" v="20135" />
	</node>
	<node id="-736185" lat="68.5343000038" lon="16.6926250068">
		<tag k="name" v="Boltåsen" />
		<tag k="place" v="farm" />
		<tag k="ssr:stedsnr" v="626784" />
	</node>
	<node id="-735672" lat="68.6769777741" lon="16.7958638953">
		<tag k="name" v="Limberg" />
		<tag k="place" v="farm" />
		<tag k="ssr:stedsnr" v="20097" />
	</node>
	<node id="-735671" lat="68.6768499975" lon="16.7836611198">
		<tag k="name" v="Skjåland" />
		<tag k="place" v="farm" />
		<tag k="ssr:stedsnr" v="20092" />
	</node>
	<node id="-736182" lat="68.5995361149" lon="16.7956305599">
		<tag k="name" v="Blåfjell" />
		<tag k="place" v="isolated_dwelling" />
		<tag k="ssr:stedsnr" v="626225" />
	</node>
	<node id="-736178" lat="68.5729777753" lon="16.6368833276">
		<tag k="name" v="Løsletta" />
		<tag k="place" v="farm" />
		<tag k="ssr:stedsnr" v="626170" />
	</node>
	<node id="-736177" lat="68.675575004" lon="16.775102774">
		<tag k="name" v="Skogvoll" />
		<tag k="place" v="farm" />
		<tag k="ssr:stedsnr" v="626131" />
	</node>
	<node id="-735654" lat="68.5933422967" lon="16.6883084862">
		<tag k="loc_name" v="Søndre Tjønna" />
		<tag k="name" v="Kjønna søndre" />
		<tag k="place" v="farm" />
		<tag k="ssr:stedsnr" v="986445" />
	</node>
	<node id="-735653" lat="68.6012786921" lon="16.6890229164">
		<tag k="name" v="Tjønna" />
		<tag k="place" v="farm" />
		<tag k="ssr:stedsnr" v="986436" />
	</node>
	<node id="-735652" lat="68.5706635464" lon="16.7394590107">
		<tag k="name" v="Vannlia" />
		<tag k="place" v="farm" />
		<tag k="ssr:stedsnr" v="986317" />
	</node>
	<node id="-736163" lat="68.6830722237" lon="16.8641583386">
		<tag k="name" v="Tovik Ytre" />
		<tag k="place" v="hamlet" />
		<tag k="ssr:stedsnr" v="599880" />
	</node>
	<node id="-735650" lat="68.6133794526" lon="17.3023319483">
		<tag k="name" v="Søndre Krokelv - Borri" />
		<tag k="name:no" v="Søndre Krokelv" />
		<tag k="name:se" v="Borri" />
		<tag k="place" v="farm" />
		<tag k="ssr:stedsnr" v="986313" />
	</node>
	<node id="-735649" lat="68.6378937534" lon="17.2335686658">
		<tag k="name" v="Kovan" />
		<tag k="place" v="farm" />
		<tag k="ssr:stedsnr" v="986312" />
	</node>
	<node id="-735728" lat="68.5692305522" lon="16.750402767">
		<tag k="name" v="Lundlia" />
		<tag k="place" v="farm" />
		<tag k="ssr:stedsnr" v="80145" />
	</node>
	<node id="-735645" lat="68.581209041" lon="16.5804303709">
		<tag k="fixme" v="consider place=hamlet" />
		<tag k="name" v="Store Skånland - Stuora Skánik" />
		<tag k="name:no" v="Store Skånland" />
		<tag k="name:se" v="Stuora Skánik" />
		<tag k="place" v="farm" />
		<tag k="ssr:stedsnr" v="986232" />
	</node>
	<node id="-735639" lat="68.6317074197" lon="16.6083516618">
		<tag k="name" v="Kvitnes - Guhtanášši" />
		<tag k="name:no" v="Kvitnes" />
		<tag k="name:se" v="Guhtanášši" />
		<tag k="place" v="hamlet" />
		<tag k="ssr:stedsnr" v="986152" />
	</node>
	<node id="-736145" lat="68.6701527818" lon="16.9806388896">
		<tag k="name" v="Krokmyrdal" />
		<tag k="place" v="farm" />
		<tag k="ssr:stedsnr" v="567000" />
	</node>
	<node id="-736141" lat="68.6527500021" lon="16.8234416607">
		<tag k="alt_name" v="Lamark" />
		<tag k="name" v="Lamarka" />
		<tag k="place" v="farm" />
		<tag k="ssr:stedsnr" v="566910" />
	</node>
	<node id="-736140" lat="68.6468138853" lon="17.1261361017">
		<tag k="name" v="Åsen" />
		<tag k="place" v="farm" />
		<tag k="ssr:stedsnr" v="566907" />
	</node>
	<node id="-736136" lat="68.6197333362" lon="16.6574944441">
		<tag k="name" v="Reinjorda" />
		<tag k="place" v="locality" />
		<tag k="ssr:stedsnr" v="566262" />
	</node>
	<node id="-735747" lat="68.5783972206" lon="16.7300888864">
		<tag k="name" v="Åslia" />
		<tag k="place" v="isolated_dwelling" />
		<tag k="ssr:stedsnr" v="81153" />
	</node>
	<node id="-736132" lat="68.6318751786" lon="16.6091367131">
		<tag k="fixme" v="consider place=hamlet" />
		<tag k="name" v="Kvitnes - Guhtanášši" />
		<tag k="name:no" v="Kvitnes" />
		<tag k="name:se" v="Guhtanášši" />
		<tag k="place" v="farm" />
		<tag k="ssr:stedsnr" v="566031" />
	</node>
	<node id="-736128" lat="68.5945361122" lon="17.2644472316">
		<tag k="alt_name" v="Annamo" />
		<tag k="name" v="Annamoen" />
		<tag k="place" v="farm" />
		<tag k="ssr:stedsnr" v="565921" />
	</node>
	<node id="-736123" lat="68.5313888854" lon="16.6748638832">
		<tag k="name" v="Nordås" />
		<tag k="place" v="farm" />
		<tag k="ssr:stedsnr" v="565790" />
	</node>
	<node id="-735609" lat="68.6381999973" lon="17.2625555478">
		<tag k="name" v="Mellomvatn" />
		<tag k="place" v="farm" />
		<tag k="ssr:stedsnr" v="478286" />
	</node>
	<node id="-735890" lat="68.5616500023" lon="16.7467666769">
		<tag k="name" v="Bjerkeli" />
		<tag k="place" v="farm" />
		<tag k="ssr:stedsnr" v="202849" />
	</node>
	<node id="-735592" lat="68.6818499976" lon="16.7979638923">
		<tag k="amenity" v="school" />
		<tag k="name" v="Sandstrand skole - Sáhtiid skovlá" />
		<tag k="name:no" v="Sandstrand skole" />
		<tag k="name:se" v="Sáhtiid skovlá" />
		<tag k="ssr:stedsnr" v="477008" />
	</node>
	<node id="-735591" lat="68.5855194447" lon="16.5798083263">
		<tag k="fixme" v="consider place=hamlet" />
		<tag k="name" v="Skånland - Skánik" />
		<tag k="name:no" v="Skånland" />
		<tag k="name:se" v="Skánik" />
		<tag k="place" v="village" />
		<tag k="ssr:stedsnr" v="477004" />
	</node>
	<node id="-735590" lat="68.5984361069" lon="16.6854500036">
		<tag k="loc_name:no" v="Tjønna" />
		<tag k="name" v="Vuopmi" />
		<tag k="name:se" v="Vuopmi" />
		<tag k="place" v="hamlet" />
		<tag k="ssr:stedsnr" v="404167" />
	</node>
	<node id="-735586" lat="68.5634750043" lon="17.2330611137">
		<tag k="fixme" v="consider tourism=alpine_hut or tourism=chalet" />
		<tag k="name" v="Skoddeberghytta" />
		<tag k="ssr:stedsnr" v="390328" />
		<tag k="tourism" v="wilderness_hut" />
	</node>
	<node id="-735581" lat="68.6611499994" lon="17.1790833434">
		<tag k="alt_name" v="Årsandvik" />
		<tag k="name" v="Årsandvika" />
		<tag k="place" v="isolated_dwelling" />
		<tag k="ssr:stedsnr" v="384986" />
	</node>
	<node id="-735579" lat="68.6806166695" lon="17.0587638839">
		<tag k="alt_name" v="Balteskardet;Balteskar" />
		<tag k="name" v="Balteskaret" />
		<tag k="place" v="hamlet" />
		<tag k="ssr:stedsnr" v="384959" />
	</node>
	<node id="-736602" lat="68.6765918409" lon="16.7742618489">
		<tag k="name" v="Ystebø" />
		<tag k="place" v="farm" />
		<tag k="ssr:stedsnr" v="974121" />
	</node>
	<node id="-736086" lat="68.5324083305" lon="16.7050888792">
		<tag k="name" v="Boltås - Vatnjavárri" />
		<tag k="name:no" v="Boltås" />
		<tag k="name:se" v="Vatnjavárri" />
		<tag k="place" v="hamlet" />
		<tag k="ssr:stedsnr" v="538001" />
	</node>
	<node id="-736085" lat="68.5809000015" lon="16.7117666653">
		<tag k="name" v="Rámavuolli" />
		<tag k="name:se" v="Rámavuolli" />
		<tag k="place" v="hamlet" />
		<tag k="ssr:stedsnr" v="527507" />
	</node>
	<node id="-735572" lat="68.5540583319" lon="16.76311389">
		<tag k="name" v="Slettbakk" />
		<tag k="place" v="farm" />
		<tag k="ssr:stedsnr" v="384829" />
	</node>
	<node id="-735571" lat="68.5603222243" lon="16.760799999">
		<tag k="name" v="Dalhaug" />
		<tag k="place" v="farm" />
		<tag k="ssr:stedsnr" v="384816" />
	</node>
	<node id="-735570" lat="68.511511109" lon="16.6979583368">
		<tag k="name" v="Haugli" />
		<tag k="place" v="farm" />
		<tag k="ssr:stedsnr" v="384793" />
	</node>
	<node id="-736081" lat="68.5529194443" lon="16.7172527816">
		<tag k="loc_name:no" v="Husjorda" />
		<tag k="name" v="Husjord - Husmmorroggi" />
		<tag k="name:no" v="Husjord" />
		<tag k="name:se" v="Husmmorroggi" />
		<tag k="place" v="hamlet" />
		<tag k="ssr:stedsnr" v="512977" />
	</node>
	<node id="-735568" lat="68.5173666645" lon="16.5729499982">
		<tag k="name" v="Fjellheim" />
		<tag k="place" v="locality" />
		<tag k="ssr:stedsnr" v="384787" />
	</node>
	<node id="-736590" lat="68.5262777754" lon="16.6549111033">
		<tag k="name" v="Erik-heimen" />
		<tag k="place" v="locality" />
		<tag k="ssr:stedsnr" v="964005" />
	</node>
	<node id="-736076" lat="68.6862194441" lon="16.9130055651">
		<tag k="name" v="Renså" />
		<tag k="place" v="hamlet" />
		<tag k="ssr:stedsnr" v="505966" />
	</node>
	<node id="-735563" lat="68.5954222188" lon="16.5814111102">
		<tag k="name" v="Litlebo" />
		<tag k="place" v="farm" />
		<tag k="ssr:stedsnr" v="384213" />
	</node>
	<node id="-735560" lat="68.5833499966" lon="16.7078388865">
		<tag k="name" v="Holtåsen" />
		<tag k="place" v="farm" />
		<tag k="ssr:stedsnr" v="384190" />
	</node>
	<node id="-735558" lat="68.6831972234" lon="16.8058388978">
		<tag k="name" v="Myreng" />
		<tag k="place" v="farm" />
		<tag k="ssr:stedsnr" v="384134" />
	</node>
	<node id="-736184" lat="68.5348805585" lon="16.7492972227">
		<tag k="name" v="Litlegård" />
		<tag k="place" v="farm" />
		<tag k="ssr:stedsnr" v="626782" />
	</node>
	<node id="-736067" lat="68.5218972234" lon="16.7186722286">
		<tag k="alt_name" v="Svartvatnet, nordre" />
		<tag k="name" v="Nordre Svartvatnet" />
		<tag k="place" v="farm" />
		<tag k="ssr:stedsnr" v="505798" />
	</node>
	<node id="-735554" lat="68.6375027741" lon="16.805488895">
		<tag k="name" v="Marithaugen" />
		<tag k="place" v="isolated_dwelling" />
		<tag k="ssr:stedsnr" v="384016" />
	</node>
	<node id="-736064" lat="68.5408722245" lon="16.7384750095">
		<tag k="name" v="Nordheim" />
		<tag k="place" v="farm" />
		<tag k="ssr:stedsnr" v="505766" />
	</node>
	<node id="-736062" lat="68.6214333323" lon="16.7649249909">
		<tag k="name" v="Øyvatn" />
		<tag k="place" v="farm" />
		<tag k="ssr:stedsnr" v="505256" />
	</node>
	<node id="-736060" lat="68.5926953907" lon="16.6792488127">
		<tag k="loc_name:se" v="Oladievvá" />
		<tag k="name" v="Lomåsen" />
		<tag k="name:no" v="Lomåsen" />
		<tag k="place" v="farm" />
		<tag k="ssr:stedsnr" v="505203" />
	</node>
	<node id="-735547" lat="68.5222972237" lon="16.6468250003">
		<tag k="name" v="Landsbakk" />
		<tag k="place" v="farm" />
		<tag k="ssr:stedsnr" v="383797" />
	</node>
	<node id="-736565" lat="68.5797138879" lon="16.7227944373">
		<tag k="name" v="Roasurápma" />
		<tag k="name:se" v="Roasurápma" />
		<tag k="place" v="hamlet" />
		<tag k="ssr:stedsnr" v="952505" />
	</node>
	<node id="-735756" lat="68.5372333371" lon="16.7741249888">
		<tag k="name" v="Broderstad - Skáidi" />
		<tag k="name:no" v="Broderstad" />
		<tag k="name:se" v="Skáidi" />
		<tag k="place" v="farm" />
		<tag k="ssr:stedsnr" v="81756" />
	</node>
	<node id="-735449" lat="68.5558611089" lon="16.6825333233">
		<tag k="name" v="Låveheimen" />
		<tag k="place" v="locality" />
		<tag k="ssr:stedsnr" v="296150" />
	</node>
	<node id="-736558" lat="68.5393583351" lon="16.738936107">
		<tag k="name" v="Åsheim" />
		<tag k="place" v="farm" />
		<tag k="ssr:stedsnr" v="931788" />
	</node>
	<node id="-736553" lat="68.714474996" lon="16.9915083364">
		<tag k="alt_name" v="Svellshamn" />
		<tag k="name" v="Svelshamn" />
		<tag k="place" v="hamlet" />
		<tag k="ssr:stedsnr" v="930966" />
	</node>
	<node id="-736035" lat="68.7049749975" lon="16.9546000026">
		<tag k="name" v="Vestrheim" />
		<tag k="place" v="farm" />
		<tag k="ssr:stedsnr" v="445958" />
	</node>
	<node id="-736033" lat="68.6544555535" lon="17.2336000034">
		<tag k="alt_name:no" v="Bakkejord" />
		<tag k="name" v="Bakkejorda - Vuollegeahči" />
		<tag k="name:no" v="Bakkejorda" />
		<tag k="name:se" v="Vuollegeahči" />
		<tag k="place" v="hamlet" />
		<tag k="ssr:stedsnr" v="445905" />
	</node>
	<node id="-736544" lat="68.5507916681" lon="16.632252782">
		<tag k="name" v="Nyheim" />
		<tag k="place" v="farm" />
		<tag k="ssr:stedsnr" v="930862" />
	</node>
	<node id="-736031" lat="68.5193305562" lon="16.6973888984">
		<tag k="name" v="Myrlund" />
		<tag k="place" v="farm" />
		<tag k="ssr:stedsnr" v="445815" />
	</node>
	<node id="-736542" lat="68.5166833308" lon="16.6368527713">
		<tag k="name" v="Dalan" />
		<tag k="place" v="locality" />
		<tag k="ssr:stedsnr" v="930823" />
	</node>
	<node id="-736541" lat="68.5304416659" lon="16.681955553">
		<tag k="name" v="Åslia" />
		<tag k="place" v="farm" />
		<tag k="ssr:stedsnr" v="930798" />
	</node>
	<node id="-736540" lat="68.6122333312" lon="16.5729722261">
		<tag k="name" v="Stauran" />
		<tag k="place" v="isolated_dwelling" />
		<tag k="ssr:stedsnr" v="930245" />
	</node>
	<node id="-735513" lat="68.5362333361" lon="16.6293805501">
		<tag k="name" v="Hamn" />
		<tag k="place" v="farm" />
		<tag k="ssr:stedsnr" v="357075" />
	</node>
	<node id="-736023" lat="68.5604888903" lon="16.7084055625">
		<tag k="alt_name" v="Rødbergsmark" />
		<tag k="name" v="Rødbergsmarka" />
		<tag k="place" v="farm" />
		<tag k="ssr:stedsnr" v="444817" />
	</node>
	<node id="-735510" lat="68.6781361147" lon="17.120925008">
		<tag k="amenity" v="school" />
		<tag k="name" v="Grov skole - Roaba skovlá" />
		<tag k="name:no" v="Grov skole" />
		<tag k="name:se" v="Roaba skovlá" />
		<tag k="ssr:stedsnr" v="356006" />
	</node>
	<node id="-736533" lat="68.5768138925" lon="16.5924861205">
		<tag k="name" v="Grøneng" />
		<tag k="place" v="farm" />
		<tag k="ssr:stedsnr" v="930157" />
	</node>
	<node id="-736531" lat="68.570572225" lon="16.615944449">
		<tag k="alt_name" v="Lermo" />
		<tag k="name" v="Leirmoen" />
		<tag k="place" v="farm" />
		<tag k="ssr:stedsnr" v="930142" />
	</node>
	<node id="-736018" lat="68.6085805563" lon="16.69278611">
		<tag k="name" v="Nipen - Hoanttas" />
		<tag k="name:no" v="Nipen" />
		<tag k="name:se" v="Hoanttas" />
		<tag k="place" v="hamlet" />
		<tag k="ssr:stedsnr" v="444184" />
	</node>
	<node id="-736016" lat="68.5730999957" lon="16.6101611109">
		<tag k="name" v="Østerråd" />
		<tag k="place" v="farm" />
		<tag k="ssr:stedsnr" v="444134" />
	</node>
	<node id="-736015" lat="68.6537805533" lon="16.7220444454">
		<tag k="alt_name" v="Tennevik" />
		<tag k="name" v="Tennevika" />
		<tag k="place" v="farm" />
		<tag k="ssr:stedsnr" v="444044" />
	</node>
	<node id="-736526" lat="68.6466027798" lon="16.8101638867">
		<tag k="name" v="Elvelund" />
		<tag k="place" v="farm" />
		<tag k="ssr:stedsnr" v="930033" />
	</node>
	<node id="-736011" lat="68.5102611111" lon="16.7487749966">
		<tag k="fixme" v="consider place=hamlet" />
		<tag k="loc_name:no" v="Lavangseidet" />
		<tag k="name" v="Loabákáidi" />
		<tag k="name:se" v="Loabákáidi" />
		<tag k="place" v="village" />
		<tag k="ssr:stedsnr" v="422414" />
	</node>
	<node id="-736010" lat="68.5687888882" lon="16.6239611088">
		<tag k="name" v="Bø" />
		<tag k="place" v="farm" />
		<tag k="ssr:stedsnr" v="421803" />
	</node>
	<node id="-735497" lat="68.5505527742" lon="16.7446305557">
		<tag k="name" v="Brannhaugen" />
		<tag k="place" v="farm" />
		<tag k="ssr:stedsnr" v="323850" />
	</node>
	<node id="-735495" lat="68.5216583365" lon="16.7017361017">
		<tag k="name" v="Nordlund" />
		<tag k="place" v="farm" />
		<tag k="ssr:stedsnr" v="323790" />
	</node>
	<node id="-735494" lat="68.5358277816" lon="16.5893999949">
		<tag k="alt_name" v="Otteråa" />
		<tag k="name" v="Otterå" />
		<tag k="place" v="farm" />
		<tag k="ssr:stedsnr" v="323773" />
	</node>
	<node id="-735492" lat="68.6079569045" lon="16.683767362">
		<tag k="alt_name:no" v="Skånland, l;Litle Skånland" />
		<tag k="fixme" v="consider place=hamlet" />
		<tag k="name" v="Lille Skånland - Unna Skánik" />
		<tag k="name:no" v="Lille Skånland" />
		<tag k="name:se" v="Unna Skánik" />
		<tag k="place" v="farm" />
		<tag k="ssr:stedsnr" v="323224" />
	</node>
	<node id="-735491" lat="68.6049305597" lon="16.567602769">
		<tag k="name" v="Djuphamn" />
		<tag k="place" v="farm" />
		<tag k="ssr:stedsnr" v="323221" />
	</node>
	<node id="-735488" lat="68.5755555593" lon="16.6034666706">
		<tag k="name" v="Kvellro" />
		<tag k="place" v="farm" />
		<tag k="ssr:stedsnr" v="323169" />
	</node>
	<node id="-736351" lat="68.670883334" lon="17.1066361205">
		<tag k="alt_name" v="Miklevoll;Miklevollen" />
		<tag k="name" v="Myklevoll" />
		<tag k="place" v="hamlet" />
		<tag k="ssr:stedsnr" v="749000" />
	</node>
	<node id="-735485" lat="68.6816777809" lon="16.8058750091">
		<tag k="name" v="Stormyr" />
		<tag k="place" v="farm" />
		<tag k="ssr:stedsnr" v="323128" />
	</node>
	<node id="-735996" lat="68.6435694459" lon="17.1772500049">
		<tag k="name" v="Laberg Søndre" />
		<tag k="place" v="farm" />
		<tag k="ssr:stedsnr" v="418709" />
	</node>
	<node id="-736505" lat="68.6731222185" lon="17.0974472163">
		<tag k="name" v="Myklevold" />
		<tag k="place" v="farm" />
		<tag k="ssr:stedsnr" v="903687" />
	</node>
	<node id="-735956" lat="68.7068777805" lon="16.9568138996">
		<tag k="name" v="Djupvika" />
		<tag k="place" v="hamlet" />
		<tag k="ssr:stedsnr" v="262966" />
	</node>
	<node id="-735984" lat="68.6563694429" lon="17.2284500017">
		<tag k="name" v="Elvebakken" />
		<tag k="place" v="farm" />
		<tag k="ssr:stedsnr" v="418267" />
	</node>
	<node id="-735982" lat="68.56201667" lon="16.6734027711">
		<tag k="name" v="Litlheimen" />
		<tag k="place" v="locality" />
		<tag k="ssr:stedsnr" v="418185" />
	</node>
	<node id="-735971" lat="68.6837694404" lon="16.8364500066">
		<tag k="name" v="Stangvik" />
		<tag k="place" v="farm" />
		<tag k="ssr:stedsnr" v="263984" />
	</node>
	<node id="-735759" lat="68.6334305549" lon="17.2642416617">
		<tag k="name" v="Saltvatnet" />
		<tag k="place" v="farm" />
		<tag k="ssr:stedsnr" v="81913" />
	</node>
	<node id="-736478" lat="68.6732194471" lon="17.1204222156">
		<tag k="name" v="Jensvoll" />
		<tag k="place" v="farm" />
		<tag k="ssr:stedsnr" v="870995" />
	</node>
	<node id="-735453" lat="68.5977500044" lon="17.2663666577">
		<tag k="name" v="Furruheimen" />
		<tag k="place" v="farm" />
		<tag k="ssr:stedsnr" v="296246" />
	</node>
	<node id="-735963" lat="68.5828083289" lon="16.572125007">
		<tag k="fixme" v="multiple name tags, choose one and add the other to alt_name" />
		<tag k="loc_name:se" v="Viervá" />
		<tag k="name" v="Evenskjer - Skánik;Skearri" />
		<tag k="name:no" v="Evenskjer" />
		<tag k="name:se" v="Skánik;Skearri" />
		<tag k="place" v="village" />
		<tag k="ssr:stedsnr" v="263212" />
	</node>
	<node id="-735961" lat="68.590981708" lon="16.709270311">
		<tag k="name" v="Einejord - Čoardá" />
		<tag k="name:no" v="Einejord" />
		<tag k="name:se" v="Čoardá" />
		<tag k="place" v="farm" />
		<tag k="ssr:stedsnr" v="263199" />
	</node>
	<node id="-736472" lat="68.5484138868" lon="16.723538894">
		<tag k="alt_name" v="Husjord, s" />
		<tag k="name" v="Søre Husjord" />
		<tag k="place" v="farm" />
		<tag k="ssr:stedsnr" v="870845" />
	</node>
	<node id="-735958" lat="68.5748916654" lon="16.7303111219">
		<tag k="name" v="Sollia" />
		<tag k="place" v="isolated_dwelling" />
		<tag k="ssr:stedsnr" v="263175" />
	</node>
	<node id="-736468" lat="68.5755083342" lon="16.6443638971">
		<tag k="name" v="Elvemo" />
		<tag k="place" v="isolated_dwelling" />
		<tag k="ssr:stedsnr" v="870181" />
	</node>
	<node id="-735955" lat="68.7124999991" lon="16.9779749983">
		<tag k="name" v="Mollvika" />
		<tag k="place" v="isolated_dwelling" />
		<tag k="ssr:stedsnr" v="262967" />
	</node>
	<node id="-736466" lat="68.5803750034" lon="16.7131111146">
		<tag k="name" v="Reinåsen - Boazorápma" />
		<tag k="name:no" v="Reinåsen" />
		<tag k="name:se" v="Boazorápma" />
		<tag k="old_name:se" v="Boazurabma" />
		<tag k="place" v="farm" />
		<tag k="ssr:stedsnr" v="870173" />
	</node>
	<node id="-735953" lat="68.5655888923" lon="16.6237249895">
		<tag k="name" v="Nøysomheten" />
		<tag k="place" v="farm" />
		<tag k="ssr:stedsnr" v="262860" />
	</node>
	<node id="-735952" lat="68.5350583304" lon="16.7116638863">
		<tag k="name" v="Brattland" />
		<tag k="place" v="farm" />
		<tag k="ssr:stedsnr" v="262802" />
	</node>
	<node id="-735951" lat="68.5337749971" lon="16.6271250069">
		<tag k="name" v="Hamnevoll" />
		<tag k="place" v="farm" />
		<tag k="ssr:stedsnr" v="262800" />
	</node>
	<node id="-735948" lat="68.5987611096" lon="16.5682583424">
		<tag k="name" v="Nordheim" />
		<tag k="place" v="farm" />
		<tag k="ssr:stedsnr" v="262203" />
	</node>
	<node id="-735946" lat="68.5664805509" lon="16.760016673">
		<tag k="fixme" v="consider place=hamlet" />
		<tag k="name" v="Trøsemarka - Vuopmegeahči" />
		<tag k="name:no" v="Trøsemarka" />
		<tag k="name:se" v="Vuopmegeahči" />
		<tag k="old_name:no" v="Trøssemarka" />
		<tag k="place" v="village" />
		<tag k="ssr:stedsnr" v="262134" />
	</node>
	<node id="-736457" lat="68.5985444402" lon="16.5672472227">
		<tag k="alt_name:no" v="Litle Skånland;Skånland, l" />
		<tag k="fixme" v="consider place=hamlet" />
		<tag k="loc_name:se" v="Uhca Skánik" />
		<tag k="name" v="Lille Skånland" />
		<tag k="name:no" v="Lille Skånland" />
		<tag k="place" v="village" />
		<tag k="ssr:stedsnr" v="869223" />
	</node>
	<node id="-735944" lat="68.5692250029" lon="16.6318916582">
		<tag k="name" v="Bø" />
		<tag k="place" v="farm" />
		<tag k="ssr:stedsnr" v="239812" />
	</node>
	<node id="-735943" lat="68.5751583327" lon="16.6895694524">
		<tag k="name" v="Bø" />
		<tag k="place" v="farm" />
		<tag k="ssr:stedsnr" v="239809" />
	</node>
	<node id="-736454" lat="68.5656333341" lon="16.6330777855">
		<tag k="name" v="Sjøbu-Hamartun" />
		<tag k="place" v="farm" />
		<tag k="ssr:stedsnr" v="846960" />
	</node>
	<node id="-736453" lat="68.562963892" lon="16.6280777727">
		<tag k="name" v="Neset" />
		<tag k="place" v="farm" />
		<tag k="ssr:stedsnr" v="846956" />
	</node>
	<node id="-735684" lat="68.5586222189" lon="16.758800002">
		<tag k="alt_name" v="Erikjorda, nordre" />
		<tag k="name" v="Nordre Erikjorda" />
		<tag k="place" v="farm" />
		<tag k="ssr:stedsnr" v="20845" />
	</node>
	<node id="-735820" lat="68.5280111118" lon="16.6745472222">
		<tag k="name" v="Tennås" />
		<tag k="place" v="farm" />
		<tag k="ssr:stedsnr" v="141767" />
	</node>
	<node id="-736030" lat="68.591525" lon="16.5757638935">
		<tag k="name" v="Damsgård" />
		<tag k="place" v="farm" />
		<tag k="ssr:stedsnr" v="445188" />
	</node>
	<node id="-735921" lat="68.5662194476" lon="16.7192666568">
		<tag k="name" v="Skipperlaheimen" />
		<tag k="place" v="locality" />
		<tag k="ssr:stedsnr" v="235191" />
	</node>
	<node id="-736432" lat="68.5428611123" lon="16.6287833404">
		<tag k="name" v="Seljevoll" />
		<tag k="place" v="farm" />
		<tag k="ssr:stedsnr" v="843072" />
	</node>
	<node id="-736029" lat="68.5897722196" lon="16.5668749907">
		<tag k="name" v="Dyrvika" />
		<tag k="place" v="farm" />
		<tag k="ssr:stedsnr" v="445186" />
	</node>
	<node id="-736028" lat="68.5800527779" lon="16.6421138939">
		<tag k="alt_name" v="Elvehøy" />
		<tag k="name" v="Elverhøy" />
		<tag k="place" v="isolated_dwelling" />
		<tag k="ssr:stedsnr" v="445166" />
	</node>
	<node id="-736422" lat="68.5400805593" lon="16.6313999955">
		<tag k="name" v="Breistrand" />
		<tag k="place" v="farm" />
		<tag k="ssr:stedsnr" v="816188" />
	</node>
	<node id="-736420" lat="68.5333000006" lon="16.6226777746">
		<tag k="fixme" v="consider place=hamlet" />
		<tag k="name" v="Lavangen" />
		<tag k="place" v="village" />
		<tag k="ssr:stedsnr" v="814014" />
	</node>
	<node id="-735686" lat="68.6409666687" lon="17.1701583227">
		<tag k="name" v="Laberget" />
		<tag k="old_name" v="Laberg" />
		<tag k="place" v="hamlet" />
		<tag k="ssr:stedsnr" v="20889" />
	</node>
	<node id="-736414" lat="68.6368072981" lon="17.2257711122">
		<tag k="alt_name:no" v="Kåvan" />
		<tag k="name" v="Kovan - Gurra" />
		<tag k="name:no" v="Kovan" />
		<tag k="name:se" v="Gurra" />
		<tag k="place" v="hamlet" />
		<tag k="ssr:stedsnr" v="809915" />
	</node>
	<node id="-735897" lat="68.6144611136" lon="17.2980999912">
		<tag k="alt_name:no" v="Krokelv" />
		<tag k="name" v="Krokelva - Borri" />
		<tag k="name:no" v="Krokelva" />
		<tag k="name:se" v="Borri" />
		<tag k="place" v="hamlet" />
		<tag k="ssr:stedsnr" v="202913" />
	</node>
	<node id="-735896" lat="68.6170305573" lon="17.2700361105">
		<tag k="alt_name" v="Minde" />
		<tag k="name" v="Minne" />
		<tag k="place" v="farm" />
		<tag k="ssr:stedsnr" v="202912" />
	</node>
	<node id="-736407" lat="68.5978611123" lon="16.681649992">
		<tag k="name" v="Fjellstad" />
		<tag k="place" v="farm" />
		<tag k="ssr:stedsnr" v="809197" />
	</node>
	<node id="-735894" lat="68.5460111111" lon="16.6294027794">
		<tag k="name" v="Borgestad" />
		<tag k="place" v="farm" />
		<tag k="ssr:stedsnr" v="202890" />
	</node>
	<node id="-736405" lat="68.6663972256" lon="16.7707305531">
		<tag k="name" v="Solheim" />
		<tag k="place" v="farm" />
		<tag k="ssr:stedsnr" v="809105" />
	</node>
	<node id="-735892" lat="68.5485027786" lon="16.6298027855">
		<tag k="name" v="Vårtun" />
		<tag k="place" v="farm" />
		<tag k="ssr:stedsnr" v="202862" />
	</node>
	<node id="-735891" lat="68.5551555576" lon="16.6337666655">
		<tag k="name" v="Rødberg" />
		<tag k="place" v="farm" />
		<tag k="ssr:stedsnr" v="202861" />
	</node>
	<node id="-736402" lat="68.6506055519" lon="16.7283999865">
		<tag k="name" v="Nyland" />
		<tag k="place" v="locality" />
		<tag k="ssr:stedsnr" v="809040" />
	</node>
	<node id="-736401" lat="68.633386114" lon="16.8122472314">
		<tag k="name" v="Sandemarka" />
		<tag k="place" v="isolated_dwelling" />
		<tag k="ssr:stedsnr" v="809007" />
	</node>
	<node id="-735887" lat="68.5254972199" lon="16.7024388885">
		<tag k="name" v="Molund" />
		<tag k="place" v="farm" />
		<tag k="ssr:stedsnr" v="202811" />
	</node>
	<node id="-735886" lat="68.5291583368" lon="16.716461113">
		<tag k="name" v="Myrstad" />
		<tag k="place" v="farm" />
		<tag k="ssr:stedsnr" v="202792" />
	</node>
	<node id="-735885" lat="68.5365611156" lon="16.5859749965">
		<tag k="name" v="Bakkland" />
		<tag k="place" v="farm" />
		<tag k="ssr:stedsnr" v="202788" />
	</node>
	<node id="-736395" lat="68.6177583307" lon="16.5821694352">
		<tag k="alt_name" v="Steinsland, nordre;Stensland nordre" />
		<tag k="fixme" v="multiple name tags, choose one and add the other to alt_name; consider place=hamlet" />
		<tag k="name" v="Steinsland;Nordre Steinsland" />
		<tag k="place" v="village" />
		<tag k="ssr:stedsnr" v="808219" />
	</node>
	<node id="-735882" lat="68.5670111133" lon="16.7517083241">
		<tag k="name" v="Fredly" />
		<tag k="place" v="farm" />
		<tag k="ssr:stedsnr" v="202135" />
	</node>
	<node id="-736392" lat="68.5661555595" lon="16.6254888827">
		<tag k="fixme" v="consider place=hamlet" />
		<tag k="name" v="Bø" />
		<tag k="place" v="farm" />
		<tag k="ssr:stedsnr" v="808122" />
	</node>
	<node id="-736390" lat="68.5714238215" lon="16.7358008173">
		<tag k="name" v="Vatnlia - Sálljadievvá" />
		<tag k="name:no" v="Vatnlia" />
		<tag k="name:se" v="Sálljadievvá" />
		<tag k="place" v="hamlet" />
		<tag k="ssr:stedsnr" v="808113" />
	</node>
	<node id="-735877" lat="68.6056222261" lon="16.6941111008">
		<tag k="name" v="Midttun" />
		<tag k="place" v="farm" />
		<tag k="ssr:stedsnr" v="202202" />
	</node>
	<node id="-735875" lat="68.5954999989" lon="16.716888898">
		<tag k="name" v="Bø" />
		<tag k="place" v="farm" />
		<tag k="ssr:stedsnr" v="178762" />
	</node>
	<node id="-735874" lat="68.562963892" lon="16.6280777727">
		<tag k="building" v="commercial" />
		<tag k="name" v="Neset Gaard" />
		<tag k="ssr:stedsnr" v="176784" />
	</node>
	<node id="-735679" lat="68.7128250036" lon="17.0429333391">
		<tag k="alt_name" v="Fornes" />
		<tag k="name" v="Forneset" />
		<tag k="place" v="hamlet" />
		<tag k="ssr:stedsnr" v="20532" />
	</node>
	<node id="-735854" lat="68.6975555526" lon="17.0425138947">
		<tag k="name" v="Fornes" />
		<tag k="place" v="farm" />
		<tag k="ssr:stedsnr" v="175732" />
	</node>
	<node id="-735506" lat="68.5006388931" lon="16.6189222194">
		<tag k="name" v="Litleåsen" />
		<tag k="place" v="locality" />
		<tag k="ssr:stedsnr" v="323970" />
	</node>
	<node id="-736361" lat="68.5325999971" lon="16.7089444482">
		<tag k="amenity" v="school" />
		<tag k="loc_name:se" v="Vaknjavári skuvla" />
		<tag k="name" v="Boltås skole" />
		<tag k="name:no" v="Boltås skole" />
		<tag k="ssr:stedsnr" v="781002" />
	</node>
	<node id="-736360" lat="68.5595249974" lon="16.7558027832">
		<tag k="name" v="Dalbakk" />
		<tag k="place" v="farm" />
		<tag k="ssr:stedsnr" v="869857" />
	</node>
	<node id="-736358" lat="68.5639611065" lon="16.6573111208">
		<tag k="fixme" v="multiple name tags, choose one and add the other to alt_name" />
		<tag k="name" v="Heimet;Trøsheim" />
		<tag k="place" v="farm" />
		<tag k="ssr:stedsnr" v="869846" />
	</node>
	<node id="-735761" lat="68.6841333325" lon="17.1110805473">
		<tag k="alt_name" v="Madsvik" />
		<tag k="name" v="Matsvik" />
		<tag k="place" v="farm" />
		<tag k="ssr:stedsnr" v="81973" />
	</node>
	<node id="-736356" lat="68.5347916622" lon="16.6078444514">
		<tag k="name" v="Nygård" />
		<tag k="place" v="farm" />
		<tag k="ssr:stedsnr" v="758486" />
	</node>
	<node id="-735843" lat="68.5349777791" lon="16.6248555559">
		<tag k="name" v="Lavangen nedre" />
		<tag k="place" v="farm" />
		<tag k="ssr:stedsnr" v="175063" />
	</node>
	<node id="-735841" lat="68.5804555557" lon="16.5833638966">
		<tag k="amenity" v="school" />
		<tag k="name" v="Skånland skole - Skániid skovlá" />
		<tag k="name:no" v="Skånland skole" />
		<tag k="name:se" v="Skániid skovlá" />
		<tag k="ssr:stedsnr" v="174009" />
	</node>
	<node id="-735840" lat="68.6782388926" lon="16.7866166658">
		<tag k="fixme" v="consider place=hamlet" />
		<tag k="name" v="Sandstrand - Sáhtik" />
		<tag k="name:no" v="Sandstrand" />
		<tag k="name:se" v="Sáhtik" />
		<tag k="place" v="village" />
		<tag k="ssr:stedsnr" v="174007" />
	</node>
	<node id="-736528" lat="68.667194445" lon="16.7307861135">
		<tag k="alt_name" v="Fornesvik" />
		<tag k="name" v="Fornesvika" />
		<tag k="place" v="farm" />
		<tag k="ssr:stedsnr" v="930091" />
	</node>
	<node id="-735837" lat="68.6415388915" lon="16.6144638939">
		<tag k="name" v="Geithagan" />
		<tag k="place" v="locality" />
		<tag k="ssr:stedsnr" v="151208" />
	</node>
	<node id="-736186" lat="68.5369361082" lon="16.6810722246">
		<tag k="name" v="Vestbakk" />
		<tag k="place" v="farm" />
		<tag k="ssr:stedsnr" v="626785" />
	</node>
	<node id="-735833" lat="68.6813413472" lon="17.1205484828">
		<tag k="fixme" v="consider place=hamlet" />
		<tag k="name" v="Grov - Roabadállu" />
		<tag k="name:no" v="Grov" />
		<tag k="name:se" v="Roabadállu" />
		<tag k="place" v="farm" />
		<tag k="ssr:stedsnr" v="150468" />
	</node>
	<node id="-735831" lat="68.6827555544" lon="16.8191555565">
		<tag k="name" v="Tovikstranda" />
		<tag k="place" v="farm" />
		<tag k="ssr:stedsnr" v="141976" />
	</node>
	<node id="-735829" lat="68.6968222249" lon="16.9284472334">
		<tag k="name" v="Elvebakken" />
		<tag k="place" v="hamlet" />
		<tag k="ssr:stedsnr" v="141942" />
	</node>
	<node id="-735828" lat="68.5032777801" lon="16.6447250106">
		<tag k="name" v="Skavlia" />
		<tag k="place" v="farm" />
		<tag k="ssr:stedsnr" v="141937" />
	</node>
	<node id="-735826" lat="68.556938893" lon="16.7644583289">
		<tag k="name" v="Fjelli" />
		<tag k="place" v="farm" />
		<tag k="ssr:stedsnr" v="141821" />
	</node>
	<node id="-736336" lat="68.5439222237" lon="16.6302555447">
		<tag k="alt_name" v="Breidstrand" />
		<tag k="name" v="Breistrand" />
		<tag k="place" v="farm" />
		<tag k="ssr:stedsnr" v="748877" />
	</node>
	<node id="-736335" lat="68.556499999" lon="16.6468555508">
		<tag k="name" v="Buvika" />
		<tag k="place" v="farm" />
		<tag k="ssr:stedsnr" v="748860" />
	</node>
	<node id="-736334" lat="68.562855558" lon="16.7684305527">
		<tag k="name" v="Fjelldal" />
		<tag k="place" v="farm" />
		<tag k="ssr:stedsnr" v="748840" />
	</node>
	<node id="-736333" lat="68.5614388845" lon="16.6545527875">
		<tag k="name" v="Sørheim" />
		<tag k="place" v="farm" />
		<tag k="ssr:stedsnr" v="748835" />
	</node>
	<node id="-736332" lat="68.5643749991" lon="16.625752778">
		<tag k="name" v="Nes" />
		<tag k="place" v="farm" />
		<tag k="ssr:stedsnr" v="748836" />
	</node>
	<node id="-736331" lat="68.5176638899" lon="16.7006361094">
		<tag k="alt_name" v="Steinjord" />
		<tag k="name" v="Steinjorda" />
		<tag k="place" v="locality" />
		<tag k="ssr:stedsnr" v="748821" />
	</node>
	<node id="-736330" lat="68.5124361149" lon="16.6531138994">
		<tag k="name" v="Storlia" />
		<tag k="place" v="farm" />
		<tag k="ssr:stedsnr" v="748818" />
	</node>
	<node id="-735817" lat="68.6026472252" lon="16.6898722124">
		<tag k="name" v="Kjønna" />
		<tag k="place" v="farm" />
		<tag k="ssr:stedsnr" v="141205" />
	</node>
	<node id="-736328" lat="68.520880559" lon="16.6739277865">
		<tag k="name" v="Tennåsen" />
		<tag k="place" v="farm" />
		<tag k="ssr:stedsnr" v="748802" />
	</node>
	<node id="-736327" lat="68.5401027774" lon="16.769027772">
		<tag k="name" v="Nord-Kvitfors" />
		<tag k="place" v="farm" />
		<tag k="ssr:stedsnr" v="748763" />
	</node>
	<node id="-735814" lat="68.6775527786" lon="16.7748444508">
		<tag k="alt_name" v="Sandstrand, øvre" />
		<tag k="fixme" v="consider place=hamlet" />
		<tag k="name" v="Øvre Sandstrand" />
		<tag k="place" v="village" />
		<tag k="ssr:stedsnr" v="141120" />
	</node>
	<node id="-735813" lat="68.6638361145" lon="16.7815166671">
		<tag k="name" v="Nylund" />
		<tag k="place" v="farm" />
		<tag k="ssr:stedsnr" v="141107" />
	</node>
	<node id="-736324" lat="68.591522226" lon="16.6913305612">
		<tag k="name" v="Bakke" />
		<tag k="place" v="farm" />
		<tag k="ssr:stedsnr" v="748174" />
	</node>
	<node id="-736323" lat="68.5894027817" lon="16.6958444513">
		<tag k="name" v="Grønlia" />
		<tag k="place" v="farm" />
		<tag k="ssr:stedsnr" v="748173" />
	</node>
	<node id="-736322" lat="68.6815436661" lon="16.7987325784">
		<tag k="alt_name" v="Sandstrand, nedre" />
		<tag k="fixme" v="consider place=hamlet" />
		<tag k="name" v="Nedre Sandstrand" />
		<tag k="place" v="village" />
		<tag k="ssr:stedsnr" v="748115" />
	</node>
	<node id="-736321" lat="68.664316663" lon="16.7202666593">
		<tag k="name" v="Lavika" />
		<tag k="place" v="isolated_dwelling" />
		<tag k="ssr:stedsnr" v="748092" />
	</node>
	<node id="-736313" lat="68.5660999968" lon="16.6209222161">
		<tag k="name" v="Bø" />
		<tag k="place" v="farm" />
		<tag k="ssr:stedsnr" v="724780" />
	</node>
	<node id="-736259" lat="68.5529111127" lon="16.7543749875">
		<tag k="name" v="Utnes" />
		<tag k="place" v="farm" />
		<tag k="ssr:stedsnr" v="687859" />
	</node>
	<node id="-736264" lat="68.5652194419" lon="17.2261666666">
		<tag k="name" v="Vassbotn" />
		<tag k="place" v="isolated_dwelling" />
		<tag k="ssr:stedsnr" v="687922" />
	</node>
	<node id="-736433" lat="68.5348777817" lon="16.6099805632">
		<tag k="name" v="Lavangen øvre" />
		<tag k="place" v="farm" />
		<tag k="ssr:stedsnr" v="843083" />
	</node>
	<node id="-735779" lat="68.5707694416" lon="16.6139222291">
		<tag k="name" v="Haugen" />
		<tag k="place" v="farm" />
		<tag k="ssr:stedsnr" v="114177" />
	</node>
	<node id="-735781" lat="68.5681305599" lon="16.6225166564">
		<tag k="name" v="Flåten" />
		<tag k="place" v="farm" />
		<tag k="ssr:stedsnr" v="114183" />
	</node>
	<node id="-736347" lat="68.659869441" lon="17.2120194517">
		<tag k="alt_name" v="Helleren" />
		<tag k="name" v="Hellaren" />
		<tag k="place" v="isolated_dwelling" />
		<tag k="ssr:stedsnr" v="748986" />
	</node>
	<node id="-735578" lat="68.6802083338" lon="16.8688972233">
		<tag k="fixme" v="consider place=hamlet" />
		<tag k="name" v="Tovik" />
		<tag k="place" v="village" />
		<tag k="ssr:stedsnr" v="384958" />
	</node>
	<node id="-735770" lat="68.5395361082" lon="16.6328527867">
		<tag k="fixme" v="consider place=hamlet" />
		<tag k="name" v="Breistrand" />
		<tag k="place" v="village" />
		<tag k="ssr:stedsnr" v="86025" />
	</node>
	<node id="-735764" lat="68.6690555553" lon="17.1508138819">
		<tag k="name" v="Løvmoen" />
		<tag k="place" v="farm" />
		<tag k="ssr:stedsnr" v="81996" />
	</node>
	<node id="-736273" lat="68.5355194418" lon="16.7479694459">
		<tag k="alt_name:no" v="Planterhaugen" />
		<tag k="name" v="Plantarhaugen - Lánttedievvá" />
		<tag k="name:no" v="Plantarhaugen" />
		<tag k="name:se" v="Lánttedievvá" />
		<tag k="place" v="hamlet" />
		<tag k="ssr:stedsnr" v="688761" />
	</node>
	<node id="-736271" lat="68.5779750005" lon="16.5844416748">
		<tag k="alt_name:no" v="Skånland, store" />
		<tag k="fixme" v="consider place=hamlet" />
		<tag k="loc_name:se" v="Stuora Skánik" />
		<tag k="name" v="Store Skånland" />
		<tag k="name:no" v="Store Skånland" />
		<tag k="place" v="village" />
		<tag k="ssr:stedsnr" v="688187" />
	</node>
	<node id="-735758" lat="68.6478361147" lon="16.8363972101">
		<tag k="name" v="Sandemarka - Sáttiidvuopmi" />
		<tag k="name:no" v="Sandemarka" />
		<tag k="name:se" v="Sáttiidvuopmi" />
		<tag k="place" v="hamlet" />
		<tag k="ssr:stedsnr" v="81903" />
	</node>
	<node id="-736268" lat="68.6837694404" lon="16.8364500066">
		<tag k="name" v="Haugen" />
		<tag k="place" v="farm" />
		<tag k="ssr:stedsnr" v="687979" />
	</node>
	<node id="-736267" lat="68.7052222228" lon="17.1143805487">
		<tag k="alt_name" v="Stræte" />
		<tag k="name" v="Strete" />
		<tag k="place" v="farm" />
		<tag k="ssr:stedsnr" v="687963" />
	</node>
	<node id="-735753" lat="68.5939972251" lon="16.5865611168">
		<tag k="name" v="Birkeland" />
		<tag k="place" v="farm" />
		<tag k="ssr:stedsnr" v="81218" />
	</node>
	<node id="-736530" lat="68.5688361095" lon="16.7583388761">
		<tag k="name" v="Solheim" />
		<tag k="place" v="farm" />
		<tag k="ssr:stedsnr" v="930136" />
	</node>
	<node id="-735750" lat="68.584891669" lon="16.7051083243">
		<tag k="name" v="Solbakken" />
		<tag k="place" v="farm" />
		<tag k="ssr:stedsnr" v="81179" />
	</node>
	<node id="-736261" lat="68.6279444455" lon="17.2658249872">
		<tag k="name" v="Sletta" />
		<tag k="place" v="farm" />
		<tag k="ssr:stedsnr" v="687907" />
	</node>
	<node id="-735574" lat="68.6444138859" lon="17.1328722185">
		<tag k="alt_name" v="Marskar;Marrskardet" />
		<tag k="name" v="Marskaret" />
		<tag k="place" v="hamlet" />
		<tag k="ssr:stedsnr" v="384880" />
	</node>
	<node id="-736258" lat="68.5579722231" lon="16.6509611046">
		<tag k="name" v="Strålberg" />
		<tag k="place" v="farm" />
		<tag k="ssr:stedsnr" v="687837" />
	</node>
	<node id="-735745" lat="68.6278361141" lon="16.8108222212">
		<tag k="alt_name" v="Kvitfors, nordre" />
		<tag k="name" v="Nordre Kvitfors" />
		<tag k="place" v="isolated_dwelling" />
		<tag k="ssr:stedsnr" v="81001" />
	</node>
</osm>
