<?xml version="1.0" encoding="UTF-8"?>
<osm generator="osmapis" version="0.6">
	<node id="-734206" lat="68.537716665" lon="16.6133444378">
		<tag k="name" v="Sør-Lavangen" />
		<tag k="natural" v="bay" />
		<tag k="ssr:stedsnr" v="323881" />
	</node>
	<node id="-734461" lat="68.5425694445" lon="16.6250166693">
		<tag k="alt_name" v="Breidstrandskjeret" />
		<tag k="fixme" v="consider seamark:type=rock or natural=shoal" />
		<tag k="name" v="Breistrandholmen" />
		<tag k="place" v="islet" />
		<tag k="ssr:stedsnr" v="81883" />
	</node>
	<node id="-735211" lat="68.6497194436" lon="17.1901361154">
		<tag k="name" v="Opdalkjosen" />
		<tag k="natural" v="bay" />
		<tag k="ssr:stedsnr" v="903721" />
	</node>
	<node id="-734684" lat="68.5969972201" lon="16.562238877">
		<tag k="name" v="Vika" />
		<tag k="natural" v="bay" />
		<tag k="ssr:stedsnr" v="418081" />
	</node>
	<node id="-735194" lat="68.537797223" lon="16.5860111219">
		<tag k="fixme" v="consider seamark:type=rock or natural=shoal" />
		<tag k="name" v="Lavatofta" />
		<tag k="place" v="islet" />
		<tag k="ssr:stedsnr" v="903072" />
	</node>
	<node id="-735193" lat="68.5370638926" lon="16.5904194472">
		<tag k="name" v="Sjøtomta" />
		<tag k="natural" v="cape" />
		<tag k="ssr:stedsnr" v="903070" />
	</node>
	<node id="-735187" lat="68.5567305594" lon="16.6070305497">
		<tag k="name" v="Tøgrunnen" />
		<tag k="natural" v="shoal" />
		<tag k="place" v="locality" />
		<tag k="ssr:stedsnr" v="879012" />
	</node>
	<node id="-734153" lat="68.5965611079" lon="16.5627722269">
		<tag k="name" v="Dyrevikneset" />
		<tag k="natural" v="cape" />
		<tag k="ssr:stedsnr" v="296072" />
	</node>
	<node id="-735174" lat="68.623816662" lon="16.5788111206">
		<tag k="name" v="Steinslandsstraumen" />
		<tag k="natural" v="strait" />
		<tag k="ssr:stedsnr" v="870274" />
	</node>
	<node id="-735167" lat="68.6431638899" lon="16.6201055601">
		<tag k="name" v="Breidvika" />
		<tag k="natural" v="bay" />
		<tag k="ssr:stedsnr" v="870023" />
	</node>
	<node id="-735159" lat="68.6513277815" lon="16.7125972181">
		<tag k="name" v="Tennevika" />
		<tag k="natural" v="bay" />
		<tag k="ssr:stedsnr" v="869054" />
	</node>
	<node id="-734536" lat="68.6773750024" lon="17.0874638952">
		<tag k="name" v="Einarvikgrunnen" />
		<tag k="natural" v="shoal" />
		<tag k="place" v="locality" />
		<tag k="ssr:stedsnr" v="150038" />
	</node>
	<node id="-735131" lat="68.563480559" lon="16.5990500038">
		<tag k="fixme" v="consider seamark:type=rock or natural=shoal" />
		<tag k="name" v="Mefjordskjeret" />
		<tag k="place" v="islet" />
		<tag k="ssr:stedsnr" v="819018" />
	</node>
	<node id="-735130" lat="68.5867666699" lon="16.567222232">
		<tag k="name" v="Evenskjerbukta" />
		<tag k="natural" v="bay" />
		<tag k="ssr:stedsnr" v="819016" />
	</node>
	<node id="-735129" lat="68.6856249982" lon="17.0914916548">
		<tag k="name" v="Jørenskjerflua" />
		<tag k="natural" v="shoal" />
		<tag k="place" v="locality" />
		<tag k="ssr:stedsnr" v="818502" />
	</node>
	<node id="-735128" lat="68.701252774" lon="16.9198944314">
		<tag k="name" v="Litlegrunnen" />
		<tag k="natural" v="shoal" />
		<tag k="place" v="locality" />
		<tag k="ssr:stedsnr" v="818099" />
	</node>
	<node id="-734615" lat="68.644194444" lon="16.6274277776">
		<tag k="name" v="Gråsandvika" />
		<tag k="natural" v="bay" />
		<tag k="ssr:stedsnr" v="212201" />
	</node>
	<node id="-734614" lat="68.6477000004" lon="16.6425027836">
		<tag k="name" v="Storvikneset" />
		<tag k="natural" v="cape" />
		<tag k="ssr:stedsnr" v="212199" />
	</node>
	<node id="-734613" lat="68.6605527754" lon="17.1224083371">
		<tag k="name" v="Furøyvalen" />
		<tag k="natural" v="strait" />
		<tag k="ssr:stedsnr" v="212042" />
	</node>
	<node id="-734609" lat="68.6844999995" lon="17.1032777811">
		<tag k="name" v="Matsvika" />
		<tag k="natural" v="bay" />
		<tag k="ssr:stedsnr" v="202984" />
	</node>
	<node id="-735127" lat="68.7152555529" lon="16.9923944426">
		<tag k="name" v="Svelshamna" />
		<tag k="natural" v="bay" />
		<tag k="ssr:stedsnr" v="818003" />
	</node>
	<node id="-734592" lat="68.5580416618" lon="16.6332638979">
		<tag k="alt_name" v="Røneset" />
		<tag k="name" v="Rødneset" />
		<tag k="natural" v="cape" />
		<tag k="ssr:stedsnr" v="202839" />
	</node>
	<node id="-734587" lat="68.5706861111" lon="16.5830555601">
		<tag k="fixme" v="consider seamark:type=rock or natural=shoal" />
		<tag k="name" v="Storskjæret" />
		<tag k="place" v="islet" />
		<tag k="ssr:stedsnr" v="202144" />
	</node>
	<node id="-734584" lat="68.6533916649" lon="16.6487055446">
		<tag k="fixme" v="consider seamark:type=rock or natural=shoal" />
		<tag k="name" v="Svartvikskjeran" />
		<tag k="place" v="islet" />
		<tag k="ssr:stedsnr" v="202073" />
	</node>
	<node id="-734583" lat="68.6518638875" lon="16.6834361137">
		<tag k="name" v="Jovika" />
		<tag k="natural" v="bay" />
		<tag k="ssr:stedsnr" v="202031" />
	</node>
	<node id="-735121" lat="68.7020638907" lon="17.1087999912">
		<tag k="alt_name" v="Strupebukta" />
		<tag k="name" v="Stripebukta" />
		<tag k="natural" v="bay" />
		<tag k="ssr:stedsnr" v="809989" />
	</node>
	<node id="-735068" lat="68.6072416662" lon="16.5661694426">
		<tag k="name" v="Tendringsvika" />
		<tag k="natural" v="bay" />
		<tag k="ssr:stedsnr" v="782083" />
	</node>
	<node id="-735063" lat="68.5609749978" lon="16.6193527878">
		<tag k="alt_name" v="Bøskjeret" />
		<tag k="fixme" v="consider seamark:type=rock or natural=shoal" />
		<tag k="name" v="Bøskjæret" />
		<tag k="place" v="islet" />
		<tag k="ssr:stedsnr" v="869848" />
	</node>
	<node id="-734550" lat="68.5353111069" lon="16.6087888934">
		<tag k="name" v="Kisneset" />
		<tag k="natural" v="cape" />
		<tag k="ssr:stedsnr" v="175077" />
	</node>
	<node id="-735061" lat="68.56401667" lon="16.6405638792">
		<tag k="name" v="Trøsen" />
		<tag k="natural" v="bay" />
		<tag k="old_name" v="Trøssen" />
		<tag k="ssr:stedsnr" v="869845" />
	</node>
	<node id="-735059" lat="68.686894446" lon="16.8527861009">
		<tag k="alt_name" v="Raudhuva" />
		<tag k="name" v="Rauhua" />
		<tag k="natural" v="cape" />
		<tag k="ssr:stedsnr" v="758141" />
	</node>
	<node id="-735058" lat="68.6444416685" lon="17.1432861012">
		<tag k="name" v="Kvitskjerhola" />
		<tag k="natural" v="bay" />
		<tag k="ssr:stedsnr" v="757452" />
	</node>
	<node id="-734542" lat="68.6143611126" lon="16.5712861041">
		<tag k="name" v="Ruggevika" />
		<tag k="natural" v="bay" />
		<tag k="ssr:stedsnr" v="151273" />
	</node>
	<node id="-734540" lat="68.6898861081" lon="16.8456583368">
		<tag k="name" v="Skjergalten" />
		<tag k="place" v="locality" />
		<tag k="seamark:type" v="rock" />
		<tag k="ssr:stedsnr" v="151140" />
	</node>
	<node id="-734539" lat="68.6645527772" lon="16.7170083377">
		<tag k="name" v="Lavikneset" />
		<tag k="natural" v="cape" />
		<tag k="ssr:stedsnr" v="151083" />
	</node>
	<node id="-734538" lat="68.5473777785" lon="16.6227610996">
		<tag k="name" v="Salttønna" />
		<tag k="place" v="locality" />
		<tag k="seamark:type" v="rock" />
		<tag k="ssr:stedsnr" v="151012" />
	</node>
	<node id="-735049" lat="68.6853305529" lon="17.0560944377">
		<tag k="alt_name" v="Hemstervika;Heimstvika" />
		<tag k="name" v="Hemstvika" />
		<tag k="natural" v="bay" />
		<tag k="ssr:stedsnr" v="748976" />
	</node>
	<node id="-735048" lat="68.6827027747" lon="16.8948277779">
		<tag k="name" v="Saltbuneset" />
		<tag k="natural" v="cape" />
		<tag k="ssr:stedsnr" v="748974" />
	</node>
	<node id="-735047" lat="68.7145555576" lon="17.0242611003">
		<tag k="name" v="Trollvika" />
		<tag k="natural" v="bay" />
		<tag k="ssr:stedsnr" v="748963" />
	</node>
	<node id="-734534" lat="68.7102861097" lon="16.9576055433">
		<tag k="fixme" v="multiple name tags, choose one and add the other to alt_name" />
		<tag k="name" v="Djupvikklubben;Klubben" />
		<tag k="natural" v="cape" />
		<tag k="ssr:stedsnr" v="141949" />
	</node>
	<node id="-734515" lat="68.6663583374" lon="16.7075833243">
		<tag k="name" v="Fornesbåen" />
		<tag k="natural" v="shoal" />
		<tag k="place" v="locality" />
		<tag k="ssr:stedsnr" v="141103" />
	</node>
	<node id="-734513" lat="68.6686277788" lon="16.7220777875">
		<tag k="name" v="Forneset" />
		<tag k="natural" v="cape" />
		<tag k="ssr:stedsnr" v="141097" />
	</node>
	<node id="-735024" lat="68.6619388902" lon="16.7174249923">
		<tag k="alt_name" v="Lavikbukta" />
		<tag k="name" v="Lavika" />
		<tag k="natural" v="bay" />
		<tag k="ssr:stedsnr" v="748049" />
	</node>
	<node id="-735019" lat="68.614930552" lon="16.5717694343">
		<tag k="name" v="Ruggevikneset" />
		<tag k="natural" v="cape" />
		<tag k="ssr:stedsnr" v="747596" />
	</node>
	<node id="-734170" lat="68.6684555555" lon="17.1126833374">
		<tag k="name" v="Sandneset" />
		<tag k="natural" v="cape" />
		<tag k="ssr:stedsnr" v="296707" />
	</node>
	<node id="-735011" lat="68.6753888875" lon="17.0804499918">
		<tag k="name" v="Løvika" />
		<tag k="natural" v="bay" />
		<tag k="ssr:stedsnr" v="721686" />
	</node>
	<node id="-734494" lat="68.6829611142" lon="17.1071972266">
		<tag k="name" v="Jupvika" />
		<tag k="natural" v="bay" />
		<tag k="ssr:stedsnr" v="114666" />
	</node>
	<node id="-734493" lat="68.6654000029" lon="17.1555194362">
		<tag k="name" v="Storvika" />
		<tag k="natural" v="bay" />
		<tag k="ssr:stedsnr" v="114624" />
	</node>
	<node id="-735004" lat="68.7135388906" lon="16.9626583349">
		<tag k="name" v="Djupvik" />
		<tag k="natural" v="bay" />
		<tag k="ssr:stedsnr" v="721566" />
	</node>
	<node id="-734682" lat="68.5362416703" lon="16.6061611125">
		<tag k="name" v="Stortoa" />
		<tag k="natural" v="shoal" />
		<tag k="place" v="locality" />
		<tag k="ssr:stedsnr" v="418078" />
	</node>
	<node id="-734480" lat="68.5835500033" lon="16.5581611151">
		<tag k="fixme" v="consider seamark:type=rock or natural=shoal" />
		<tag k="loc_name:no" v="Skjeran" />
		<tag k="name" v="Evenskjeret - Skearri" />
		<tag k="name:no" v="Evenskjeret" />
		<tag k="name:se" v="Skearri" />
		<tag k="place" v="islet" />
		<tag k="ssr:stedsnr" v="91016" />
	</node>
	<node id="-734479" lat="68.6692666693" lon="17.144380567">
		<tag k="name" v="Løene" />
		<tag k="natural" v="bay" />
		<tag k="ssr:stedsnr" v="90457" />
	</node>
	<node id="-734478" lat="68.6504388918" lon="16.6652805462">
		<tag k="name" v="Kalkovnen" />
		<tag k="natural" v="cape" />
		<tag k="ssr:stedsnr" v="90080" />
	</node>
	<node id="-734477" lat="68.7157472181" lon="17.041461108">
		<tag k="name" v="Forneset" />
		<tag k="natural" v="cape" />
		<tag k="ssr:stedsnr" v="90052" />
	</node>
	<node id="-734476" lat="68.5555388933" lon="16.6284972178">
		<tag k="name" v="Okseberget" />
		<tag k="natural" v="cape" />
		<tag k="ssr:stedsnr" v="90006" />
	</node>
	<node id="-734475" lat="68.5387222235" lon="16.6253472259">
		<tag k="name" v="Lavangsholman" />
		<tag k="place" v="islet" />
		<tag k="ssr:stedsnr" v="90007" />
	</node>
	<node id="-734983" lat="68.6868000044" lon="16.8083861121">
		<tag k="name" v="Breifjærsteinen" />
		<tag k="place" v="locality" />
		<tag k="seamark:type" v="rock" />
		<tag k="ssr:stedsnr" v="697140" />
	</node>
	<node id="-734470" lat="68.7181749985" lon="17.1778527791">
		<tag k="name" v="Skávhlegáddi" />
		<tag k="name:se" v="Skávhlegáddi" />
		<tag k="natural" v="beach" />
		<tag k="place" v="locality" />
		<tag k="ssr:stedsnr" v="82232" />
	</node>
	<node id="-734466" lat="68.6871833319" lon="17.0938805655">
		<tag k="alt_name" v="Jørenskjeret" />
		<tag k="fixme" v="consider seamark:type=rock or natural=shoal" />
		<tag k="name" v="Jørenskjæret" />
		<tag k="place" v="islet" />
		<tag k="ssr:stedsnr" v="81983" />
	</node>
	<node id="-734973" lat="68.7048916704" lon="17.0723111184">
		<tag k="bay" v="fjord" />
		<tag k="name" v="Grovfjorden - Roabavuotna" />
		<tag k="name:no" v="Grovfjorden" />
		<tag k="name:se" v="Roabavuotna" />
		<tag k="natural" v="bay" />
		<tag k="ssr:stedsnr" v="687983" />
	</node>
	<node id="-735274" lat="68.6245222208" lon="16.5743360983">
		<tag k="name" v="Melkerogrunnen" />
		<tag k="natural" v="shoal" />
		<tag k="place" v="locality" />
		<tag k="ssr:stedsnr" v="963155" />
	</node>
	<node id="-734453" lat="68.5773583329" lon="16.576077784">
		<tag k="name" v="Sjøbakken" />
		<tag k="natural" v="cape" />
		<tag k="ssr:stedsnr" v="81166" />
	</node>
	<node id="-734163" lat="68.7152472187" lon="16.9815527825">
		<tag k="name" v="Grønnvika" />
		<tag k="natural" v="bay" />
		<tag k="ssr:stedsnr" v="296562" />
	</node>
	<node id="-734448" lat="68.6857777739" lon="16.8008805439">
		<tag k="name" v="Sandneset" />
		<tag k="natural" v="cape" />
		<tag k="ssr:stedsnr" v="81119" />
	</node>
	<node id="-734442" lat="68.6998361126" lon="17.0437833375">
		<tag k="alt_name" v="Brenningsvika" />
		<tag k="fixme" v="multiple name tags, choose one and add the other to alt_name" />
		<tag k="name" v="Brantingsvika;Brennesvika" />
		<tag k="natural" v="bay" />
		<tag k="ssr:stedsnr" v="80986" />
	</node>
	<node id="-734948" lat="68.6521833308" lon="16.6901333194">
		<tag k="name" v="Helleodden" />
		<tag k="natural" v="cape" />
		<tag k="ssr:stedsnr" v="687030" />
	</node>
	<node id="-734435" lat="68.6057861112" lon="16.5662888786">
		<tag k="name" v="Djuphamna" />
		<tag k="natural" v="bay" />
		<tag k="ssr:stedsnr" v="80233" />
	</node>
	<node id="-734427" lat="68.6492888872" lon="16.7048833254">
		<tag k="name" v="Lillevika" />
		<tag k="natural" v="bay" />
		<tag k="ssr:stedsnr" v="54870" />
	</node>
	<node id="-734425" lat="68.6853638901" lon="17.099408331">
		<tag k="name" v="Madsvikneset" />
		<tag k="natural" v="cape" />
		<tag k="ssr:stedsnr" v="54729" />
	</node>
	<node id="-734929" lat="68.6487361081" lon="17.1835888853">
		<tag k="name" v="Flatholmen" />
		<tag k="place" v="islet" />
		<tag k="ssr:stedsnr" v="660724" />
	</node>
	<node id="-734921" lat="68.714033335" lon="16.9741083379">
		<tag k="name" v="Moldvika" />
		<tag k="natural" v="bay" />
		<tag k="ssr:stedsnr" v="660589" />
	</node>
	<node id="-734404" lat="68.6511444481" lon="17.1270833245">
		<tag k="alt_name" v="Turtnvika" />
		<tag k="name" v="Tortenvik" />
		<tag k="natural" v="bay" />
		<tag k="ssr:stedsnr" v="29048" />
	</node>
	<node id="-734401" lat="68.6600916698" lon="17.1242111051">
		<tag k="alt_name" v="Furøya;Forrøya" />
		<tag k="name" v="Forøya" />
		<tag k="place" v="islet" />
		<tag k="ssr:stedsnr" v="20992" />
	</node>
	<node id="-734400" lat="68.6891500026" lon="16.8424666583">
		<tag k="alt_name" v="Tovikskjær" />
		<tag k="name" v="Tovikskjeret" />
		<tag k="natural" v="cape" />
		<tag k="ssr:stedsnr" v="20991" />
	</node>
	<node id="-734908" lat="68.631566665" lon="16.5915805447">
		<tag k="name" v="Langkvitneset" />
		<tag k="natural" v="cape" />
		<tag k="ssr:stedsnr" v="636255" />
	</node>
	<node id="-734907" lat="68.6543999992" lon="16.6336111161">
		<tag k="alt_name" v="Svartskjeret" />
		<tag k="fixme" v="consider seamark:type=rock or natural=shoal" />
		<tag k="name" v="Svartskjæret" />
		<tag k="place" v="islet" />
		<tag k="ssr:stedsnr" v="636138" />
	</node>
	<node id="-734906" lat="68.6664472231" lon="17.1197388849">
		<tag k="name" v="Kollåsneset" />
		<tag k="natural" v="cape" />
		<tag k="ssr:stedsnr" v="636047" />
	</node>
	<node id="-734391" lat="68.6556777739" lon="17.1227333385">
		<tag k="fixme" v="multiple name tags, choose one and add the other to alt_name" />
		<tag k="name" v="Storvika;Tortenstorvika" />
		<tag k="natural" v="bay" />
		<tag k="ssr:stedsnr" v="20898" />
	</node>
	<node id="-734374" lat="68.6514916636" lon="16.6282305488">
		<tag k="alt_name" v="Transkjeret" />
		<tag k="fixme" v="consider seamark:type=rock or natural=shoal" />
		<tag k="name" v="Transkjæret" />
		<tag k="place" v="islet" />
		<tag k="ssr:stedsnr" v="20053" />
	</node>
	<node id="-734876" lat="68.645141666" lon="17.1694000051">
		<tag k="fixme" v="consider seamark:type=rock or natural=shoal" />
		<tag k="name" v="Kvitskjæret" />
		<tag k="place" v="islet" />
		<tag k="ssr:stedsnr" v="600720" />
	</node>
	<node id="-734234" lat="68.6785333349" lon="17.1089499982">
		<tag k="fixme" v="consider seamark:type=rock or natural=shoal" />
		<tag k="name" v="Kalveskinnskjæret" />
		<tag k="place" v="islet" />
		<tag k="ssr:stedsnr" v="357704" />
	</node>
	<node id="-734852" lat="68.674047223" lon="17.0822499945">
		<tag k="name" v="Einarvika" />
		<tag k="natural" v="bay" />
		<tag k="ssr:stedsnr" v="575039" />
	</node>
	<node id="-734842" lat="68.6455944428" lon="17.1440111057">
		<tag k="alt_name" v="Kvitskjeret" />
		<tag k="fixme" v="consider seamark:type=rock or natural=shoal" />
		<tag k="name" v="Kvitskjer" />
		<tag k="place" v="islet" />
		<tag k="ssr:stedsnr" v="566897" />
	</node>
	<node id="-734835" lat="68.6387583338" lon="16.6079138966">
		<tag k="name" v="Kvitnes - Guhtanášši" />
		<tag k="name:no" v="Kvitnes" />
		<tag k="name:se" v="Guhtanášši" />
		<tag k="natural" v="cape" />
		<tag k="ssr:stedsnr" v="566024" />
	</node>
	<node id="-734834" lat="68.6417888911" lon="16.6131972258">
		<tag k="name" v="Geitvika" />
		<tag k="natural" v="bay" />
		<tag k="ssr:stedsnr" v="566023" />
	</node>
	<node id="-734825" lat="68.6836444439" lon="17.0597638777">
		<tag k="name" v="Holtet" />
		<tag k="natural" v="cape" />
		<tag k="ssr:stedsnr" v="565508" />
	</node>
	<node id="-734311" lat="68.5703305595" lon="16.6390388955">
		<tag k="name" v="Tyttebærneset" />
		<tag k="natural" v="cape" />
		<tag k="ssr:stedsnr" v="478182" />
	</node>
	<node id="-734309" lat="68.5676444486" lon="16.6503472263">
		<tag k="name" v="Kanelesverset" />
		<tag k="natural" v="bay" />
		<tag k="ssr:stedsnr" v="478164" />
	</node>
	<node id="-734992" lat="68.5673694462" lon="16.6131638808">
		<tag k="name" v="Osen" />
		<tag k="natural" v="bay" />
		<tag k="ssr:stedsnr" v="721173" />
	</node>
	<node id="-734813" lat="68.6735722209" lon="17.0900444445">
		<tag k="name" v="Sildevika" />
		<tag k="natural" v="bay" />
		<tag k="ssr:stedsnr" v="539688" />
	</node>
	<node id="-734297" lat="68.6211805562" lon="16.5788694519">
		<tag k="name" v="Steinslandsfluan" />
		<tag k="natural" v="shoal" />
		<tag k="place" v="locality" />
		<tag k="ssr:stedsnr" v="394244" />
	</node>
	<node id="-734296" lat="68.6449555589" lon="17.1594861021">
		<tag k="alt_name" v="Svarteberget" />
		<tag k="name" v="Svartberget" />
		<tag k="natural" v="cape" />
		<tag k="ssr:stedsnr" v="393443" />
	</node>
	<node id="-734295" lat="68.6787722196" lon="17.0722833425">
		<tag k="name" v="Langeneset" />
		<tag k="natural" v="cape" />
		<tag k="ssr:stedsnr" v="393048" />
	</node>
	<node id="-734794" lat="68.5416277758" lon="16.5839777791">
		<tag k="name" v="Landsholmen" />
		<tag k="place" v="islet" />
		<tag k="ssr:stedsnr" v="539065" />
	</node>
	<node id="-734787" lat="68.580441667" lon="16.5564249885">
		<tag k="fixme" v="consider seamark:type=rock or natural=shoal" />
		<tag k="name" v="Skarvskjeret" />
		<tag k="place" v="islet" />
		<tag k="ssr:stedsnr" v="515235" />
	</node>
	<node id="-734786" lat="68.70414722" lon="16.9092333266">
		<tag k="name" v="Storgrunnen" />
		<tag k="natural" v="shoal" />
		<tag k="place" v="locality" />
		<tag k="ssr:stedsnr" v="515130" />
	</node>
	<node id="-734782" lat="68.6675388859" lon="17.1418749855">
		<tag k="alt_name" v="Sommerholmen" />
		<tag k="name" v="Sommarholmen" />
		<tag k="place" v="islet" />
		<tag k="ssr:stedsnr" v="505988" />
	</node>
	<node id="-734779" lat="68.6776916637" lon="17.1120694368">
		<tag k="fixme" v="multiple name tags, choose one and add the other to alt_name" />
		<tag k="name" v="Kalveskinnet;Kalvskinnsodden" />
		<tag k="natural" v="cape" />
		<tag k="ssr:stedsnr" v="505962" />
	</node>
	<node id="-734265" lat="68.6706555595" lon="16.7300944545">
		<tag k="name" v="Fornesvika" />
		<tag k="natural" v="bay" />
		<tag k="ssr:stedsnr" v="384107" />
	</node>
	<node id="-735241" lat="68.5987722204" lon="16.5612055659">
		<tag k="name" v="Pilneset" />
		<tag k="natural" v="cape" />
		<tag k="ssr:stedsnr" v="930195" />
	</node>
	<node id="-734767" lat="68.6887277818" lon="17.0504638972">
		<tag k="alt_name" v="Storevika" />
		<tag k="name" v="Storvika" />
		<tag k="natural" v="bay" />
		<tag k="ssr:stedsnr" v="505525" />
	</node>
	<node id="-734251" lat="68.6090666625" lon="16.565199995">
		<tag k="name" v="Staurneset" />
		<tag k="natural" v="cape" />
		<tag k="ssr:stedsnr" v="383227" />
	</node>
	<node id="-734762" lat="68.5895166651" lon="16.5647333417">
		<tag k="name" v="Dyrvikneset" />
		<tag k="natural" v="cape" />
		<tag k="ssr:stedsnr" v="505197" />
	</node>
	<node id="-734758" lat="68.5682249988" lon="16.6097916658">
		<tag k="alt_name" v="Sjånesklubben" />
		<tag k="name" v="Skjånesklubben" />
		<tag k="natural" v="cape" />
		<tag k="ssr:stedsnr" v="505145" />
	</node>
	<node id="-734757" lat="68.6455583366" lon="16.6385805591">
		<tag k="name" v="Svartvika" />
		<tag k="natural" v="bay" />
		<tag k="ssr:stedsnr" v="505059" />
	</node>
	<node id="-734982" lat="68.6846916674" lon="16.8629361187">
		<tag k="alt_name" v="Laksberget" />
		<tag k="name" v="Lakseberget" />
		<tag k="natural" v="cape" />
		<tag k="ssr:stedsnr" v="697138" />
	</node>
	<node id="-735266" lat="68.5626444464" lon="16.6275416636">
		<tag k="name" v="Bøneset" />
		<tag k="natural" v="cape" />
		<tag k="ssr:stedsnr" v="940021" />
	</node>
	<node id="-734240" lat="68.6511638886" lon="16.69613611">
		<tag k="name" v="Bjørnvika" />
		<tag k="natural" v="bay" />
		<tag k="ssr:stedsnr" v="357851" />
	</node>
	<node id="-734750" lat="68.6346861067" lon="16.607794453">
		<tag k="name" v="Kvitnesbukta" />
		<tag k="natural" v="bay" />
		<tag k="ssr:stedsnr" v="455231" />
	</node>
	<node id="-734749" lat="68.6054250022" lon="16.5644694392">
		<tag k="name" v="Djuphamnklubben" />
		<tag k="natural" v="cape" />
		<tag k="ssr:stedsnr" v="455021" />
	</node>
	<node id="-734748" lat="68.6960027742" lon="16.9247972161">
		<tag k="name" v="Elveneset" />
		<tag k="natural" v="cape" />
		<tag k="ssr:stedsnr" v="454117" />
	</node>
	<node id="-734747" lat="68.6484638857" lon="16.7128694305">
		<tag k="alt_name" v="Finnevika" />
		<tag k="name" v="Finnvika" />
		<tag k="natural" v="bay" />
		<tag k="ssr:stedsnr" v="454072" />
	</node>
	<node id="-734746" lat="68.6813749975" lon="17.0941499905">
		<tag k="name" v="Valskjerflua" />
		<tag k="natural" v="shoal" />
		<tag k="place" v="locality" />
		<tag k="ssr:stedsnr" v="454040" />
	</node>
	<node id="-735249" lat="68.5402694471" lon="16.583563898">
		<tag k="name" v="Liabukta" />
		<tag k="natural" v="bay" />
		<tag k="ssr:stedsnr" v="930879" />
	</node>
	<node id="-734217" lat="68.6528694444" lon="17.1844333381">
		<tag k="fixme" v="consider seamark:type=rock or natural=shoal" />
		<tag k="name" v="Heststeinen" />
		<tag k="place" v="islet" />
		<tag k="ssr:stedsnr" v="333481" />
	</node>
	<node id="-734216" lat="68.693469441" lon="16.8988722222">
		<tag k="name" v="Rensågrunnen" />
		<tag k="natural" v="shoal" />
		<tag k="place" v="locality" />
		<tag k="ssr:stedsnr" v="333126" />
	</node>
	<node id="-734215" lat="68.6909055597" lon="17.0469861142">
		<tag k="alt_name" v="Ystevika" />
		<tag k="name" v="Ytstevika" />
		<tag k="natural" v="bay" />
		<tag k="ssr:stedsnr" v="323983" />
	</node>
	<node id="-735238" lat="68.5802361105" lon="16.5681388818">
		<tag k="name" v="Finneset" />
		<tag k="natural" v="cape" />
		<tag k="ssr:stedsnr" v="930161" />
	</node>
	<node id="-735236" lat="68.5729833361" lon="16.5905499935">
		<tag k="alt_name" v="Tjeldsanden" />
		<tag k="name" v="Tjeldsand" />
		<tag k="natural" v="cape" />
		<tag k="ssr:stedsnr" v="930143" />
	</node>
</osm>
