<?xml version="1.0" encoding="UTF-8"?>
<osm generator="osmapis" version="0.6">
	<node id="-832114" lat="63.3861222189" lon="8.34383888399">
		<tag k="name" v="Ramsøygalten" />
		<tag k="ssr:date" v="2018-01-09" />
		<tag k="ssr:gruppe" v="navigasjon" />
		<tag k="ssr:hovedgruppe" v="infrastruktur" />
		<tag k="ssr:stedsnr" v="660320" />
		<tag k="ssr:type" v="lanterne" />
	</node>
	<node id="-833393" lat="63.4939027775" lon="9.03940277434">
		<tag k="name" v="Terningen fyr" />
		<tag k="old_name" v="Terningen" />
		<tag k="ssr:date" v="2018-01-09" />
		<tag k="ssr:gruppe" v="navigasjon" />
		<tag k="ssr:hovedgruppe" v="infrastruktur" />
		<tag k="ssr:stedsnr" v="12460" />
		<tag k="ssr:type" v="fyrstasjon" />
	</node>
	<node id="-833896" lat="63.5788444456" lon="8.34047499868">
		<tag k="name" v="Bussøy" />
		<tag k="ssr:date" v="2018-01-09" />
		<tag k="ssr:gruppe" v="navigasjon" />
		<tag k="ssr:hovedgruppe" v="infrastruktur" />
		<tag k="ssr:stedsnr" v="802655" />
		<tag k="ssr:type" v="fyrlykt" />
	</node>
	<node id="-833892" lat="63.6490388886" lon="9.00297778524">
		<tag k="name" v="Krabsundet" />
		<tag k="old_name" v="Krabbsund lykt" />
		<tag k="ssr:date" v="2018-01-09" />
		<tag k="ssr:gruppe" v="navigasjon" />
		<tag k="ssr:hovedgruppe" v="infrastruktur" />
		<tag k="ssr:stedsnr" v="698742" />
		<tag k="ssr:type" v="fyrlykt" />
	</node>
	<node id="-835622" lat="63.517086112" lon="9.11638888878">
		<tag k="name" v="Aunøy" />
		<tag k="ssr:date" v="2018-01-09" />
		<tag k="ssr:gruppe" v="navigasjon" />
		<tag k="ssr:hovedgruppe" v="infrastruktur" />
		<tag k="ssr:stedsnr" v="741556" />
		<tag k="ssr:type" v="fyrlykt" />
	</node>
	<node id="-833634" lat="63.4861888882" lon="8.29018889191">
		<tag k="name" v="Hernesstraumen" />
		<tag k="ssr:date" v="2018-01-09" />
		<tag k="ssr:gruppe" v="navigasjon" />
		<tag k="ssr:hovedgruppe" v="infrastruktur" />
		<tag k="ssr:stedsnr" v="558103" />
		<tag k="ssr:type" v="fyrlykt" />
	</node>
	<node id="-834053" lat="63.6483944473" lon="9.07221666255">
		<tag k="name" v="Mastadvegen" />
		<tag k="ssr:date" v="2018-01-09" />
		<tag k="ssr:gruppe" v="veg" />
		<tag k="ssr:hovedgruppe" v="infrastruktur" />
		<tag k="ssr:stedsnr" v="455084" />
		<tag k="ssr:type" v="vegstrekning" />
	</node>
	<node id="-836445" lat="63.6767888873" lon="8.81530556355">
		<tag k="name" v="Flesa" />
		<tag k="ssr:date" v="2018-01-09" />
		<tag k="ssr:gruppe" v="navigasjon" />
		<tag k="ssr:hovedgruppe" v="infrastruktur" />
		<tag k="ssr:stedsnr" v="774003" />
		<tag k="ssr:type" v="fyrlykt" />
	</node>
	<node id="-836700" lat="63.5169210211" lon="10.4860505232">
		<tag k="name" v="Trøndelag fylke - Trööndelagen fylhke" />
		<tag k="name:no" v="Trøndelag fylke" />
		<tag k="name:sma" v="Trööndelagen fylhke" />
		<tag k="ssr:date" v="2018-06-27" />
		<tag k="ssr:gruppe" v="administrativeIndelinger" />
		<tag k="ssr:hovedgruppe" v="offentligAdministrasjon" />
		<tag k="ssr:stedsnr" v="980645" />
		<tag k="ssr:type" v="fylke" />
	</node>
	<node id="-834261" lat="63.4899555563" lon="8.2379000045">
		<tag k="name" v="Sæbuodden" />
		<tag k="ssr:date" v="2018-01-09" />
		<tag k="ssr:gruppe" v="navigasjon" />
		<tag k="ssr:hovedgruppe" v="infrastruktur" />
		<tag k="ssr:stedsnr" v="376088" />
		<tag k="ssr:type" v="fyrlykt" />
	</node>
	<node id="-834260" lat="63.6795361078" lon="9.15297499409">
		<tag k="name" v="Grønnholmen" />
		<tag k="ssr:date" v="2018-01-09" />
		<tag k="ssr:gruppe" v="navigasjon" />
		<tag k="ssr:hovedgruppe" v="infrastruktur" />
		<tag k="ssr:stedsnr" v="134691" />
		<tag k="ssr:type" v="fyrlykt" />
	</node>
	<node id="-833872" lat="63.5725333366" lon="8.47917221812">
		<tag k="name" v="Jektvikskjæra" />
		<tag k="ssr:date" v="2018-01-09" />
		<tag k="ssr:gruppe" v="navigasjon" />
		<tag k="ssr:hovedgruppe" v="infrastruktur" />
		<tag k="ssr:stedsnr" v="721268" />
		<tag k="ssr:type" v="fyrlykt" />
	</node>
	<node id="-833741" lat="63.6083944466" lon="8.38961666272">
		<tag k="name" v="Værsøydraget" />
		<tag k="ssr:date" v="2018-01-09" />
		<tag k="ssr:gruppe" v="navigasjon" />
		<tag k="ssr:hovedgruppe" v="infrastruktur" />
		<tag k="ssr:stedsnr" v="941297" />
		<tag k="ssr:type" v="fyrlykt" />
	</node>
	<node id="-834507" lat="63.5290194426" lon="9.14103054652">
		<tag k="name" v="Grønholmflua" />
		<tag k="ssr:date" v="2018-01-09" />
		<tag k="ssr:gruppe" v="navigasjon" />
		<tag k="ssr:hovedgruppe" v="infrastruktur" />
		<tag k="ssr:stedsnr" v="167928" />
		<tag k="ssr:type" v="lanterne" />
	</node>
	<node id="-834250" lat="63.6583888867" lon="8.67615555242">
		<tag k="name" v="Edøya" />
		<tag k="old_name" v="Edøy;Edøy lykt" />
		<tag k="ssr:date" v="2018-01-09" />
		<tag k="ssr:gruppe" v="navigasjon" />
		<tag k="ssr:hovedgruppe" v="infrastruktur" />
		<tag k="ssr:stedsnr" v="498990" />
		<tag k="ssr:type" v="fyrlykt" />
	</node>
	<node id="-836424" lat="63.5307472263" lon="8.33836666184">
		<tag k="name" v="Hundholmen" />
		<tag k="ssr:date" v="2018-01-09" />
		<tag k="ssr:gruppe" v="navigasjon" />
		<tag k="ssr:hovedgruppe" v="infrastruktur" />
		<tag k="ssr:stedsnr" v="316604" />
		<tag k="ssr:type" v="fyrlykt" />
	</node>
	<node id="-834118" lat="63.6460805512" lon="8.87564999803">
		<tag k="name" v="Dolmsund" />
		<tag k="old_name" v="Flesa;Flesa lykt S" />
		<tag k="ssr:date" v="2018-01-09" />
		<tag k="ssr:gruppe" v="navigasjon" />
		<tag k="ssr:hovedgruppe" v="infrastruktur" />
		<tag k="ssr:stedsnr" v="619312" />
		<tag k="ssr:type" v="fyrlykt" />
	</node>
	<node id="-833985" lat="63.4114666678" lon="8.45456110211">
		<tag k="name" v="Værøyan" />
		<tag k="ssr:date" v="2018-01-09" />
		<tag k="ssr:gruppe" v="navigasjon" />
		<tag k="ssr:hovedgruppe" v="infrastruktur" />
		<tag k="ssr:stedsnr" v="13051" />
		<tag k="ssr:type" v="fyrlykt" />
	</node>
	<node id="-835641" lat="63.6575722222" lon="9.14873610523">
		<tag k="name" v="Austre Knarrlagsund" />
		<tag k="ssr:date" v="2018-01-09" />
		<tag k="ssr:gruppe" v="navigasjon" />
		<tag k="ssr:hovedgruppe" v="infrastruktur" />
		<tag k="ssr:stedsnr" v="74648" />
		<tag k="ssr:type" v="fyrlykt" />
	</node>
	<node id="-836545" lat="63.6065944453" lon="8.98911388376">
		<tag k="name" v="Fillholmen" />
		<tag k="old_name" v="Filholmen" />
		<tag k="ssr:date" v="2018-01-09" />
		<tag k="ssr:gruppe" v="navigasjon" />
		<tag k="ssr:hovedgruppe" v="infrastruktur" />
		<tag k="ssr:stedsnr" v="13352" />
		<tag k="ssr:type" v="fyrlykt" />
	</node>
	<node id="-834227" lat="63.6490388901" lon="9.0029055587">
		<tag k="name" v="Krabbesundet bru" />
		<tag k="old_name" v="Krabbsundet bru" />
		<tag k="ssr:date" v="2018-01-09" />
		<tag k="ssr:gruppe" v="navigasjon" />
		<tag k="ssr:hovedgruppe" v="infrastruktur" />
		<tag k="ssr:stedsnr" v="802710" />
		<tag k="ssr:type" v="lanterne" />
	</node>
	<node id="-833714" lat="63.4263416645" lon="8.39286944712">
		<tag k="name" v="Forsnes" />
		<tag k="ssr:date" v="2018-01-09" />
		<tag k="ssr:gruppe" v="navigasjon" />
		<tag k="ssr:hovedgruppe" v="infrastruktur" />
		<tag k="ssr:stedsnr" v="680060" />
		<tag k="ssr:type" v="fyrlykt" />
	</node>
	<node id="-836637" lat="63.6132361139" lon="8.48024444896">
		<tag k="name" v="Tosøya" />
		<tag k="old_name" v="Torsøy lykt;Torsøy, store;Store Torsøy" />
		<tag k="ssr:date" v="2018-01-09" />
		<tag k="ssr:gruppe" v="navigasjon" />
		<tag k="ssr:hovedgruppe" v="infrastruktur" />
		<tag k="ssr:stedsnr" v="134944" />
		<tag k="ssr:type" v="fyrlykt" />
	</node>
	<node id="-835627" lat="63.4671361078" lon="8.29561388573">
		<tag k="name" v="Kjeøysund" />
		<tag k="old_name" v="Kjeøysundet" />
		<tag k="ssr:date" v="2018-01-09" />
		<tag k="ssr:gruppe" v="navigasjon" />
		<tag k="ssr:hovedgruppe" v="infrastruktur" />
		<tag k="ssr:stedsnr" v="497065" />
		<tag k="ssr:type" v="fyrlykt" />
	</node>
	<node id="-833064" lat="63.6015555585" lon="8.97415834092">
		<tag k="name" v="Hitra kommune" />
		<tag k="ssr:date" v="2018-01-09" />
		<tag k="ssr:gruppe" v="administrativeIndelinger" />
		<tag k="ssr:hovedgruppe" v="offentligAdministrasjon" />
		<tag k="ssr:stedsnr" v="328979" />
		<tag k="ssr:type" v="kommune" />
	</node>
	<node id="-836134" lat="63.6652638885" lon="9.01997777669">
		<tag k="name" v="Knarlagsund,  Vestre" />
		<tag k="old_name" v="Knarlagsund, vestre" />
		<tag k="ssr:date" v="2018-01-09" />
		<tag k="ssr:gruppe" v="navigasjon" />
		<tag k="ssr:hovedgruppe" v="infrastruktur" />
		<tag k="ssr:stedsnr" v="437632" />
		<tag k="ssr:type" v="fyrlykt" />
	</node>
	<node id="-835953" lat="63.6578916628" lon="8.77894999886">
		<tag k="name" v="Husneset" />
		<tag k="ssr:date" v="2018-01-09" />
		<tag k="ssr:gruppe" v="navigasjon" />
		<tag k="ssr:hovedgruppe" v="infrastruktur" />
		<tag k="ssr:stedsnr" v="195693" />
		<tag k="ssr:type" v="fyrlykt" />
	</node>
	<node id="-833181" lat="63.6439916626" lon="9.22647221903">
		<tag k="name" v="Flesa" />
		<tag k="ssr:date" v="2018-01-09" />
		<tag k="ssr:gruppe" v="navigasjon" />
		<tag k="ssr:hovedgruppe" v="infrastruktur" />
		<tag k="ssr:stedsnr" v="558057" />
		<tag k="ssr:type" v="fyrlykt" />
	</node>
	<node id="-833559" lat="63.6015138869" lon="8.97589722772">
		<tag k="name" v="Hitra" />
		<tag k="ssr:date" v="2018-01-09" />
		<tag k="ssr:gruppe" v="administrativeIndelinger" />
		<tag k="ssr:hovedgruppe" v="offentligAdministrasjon" />
		<tag k="ssr:stedsnr" v="386533" />
		<tag k="ssr:type" v="poststed" />
	</node>
	<node id="-834454" lat="63.6594138872" lon="8.89455834159">
		<tag k="name" v="Ilsøyklubben" />
		<tag k="old_name" v="Ilsøyknubben" />
		<tag k="ssr:date" v="2018-01-09" />
		<tag k="ssr:gruppe" v="navigasjon" />
		<tag k="ssr:hovedgruppe" v="infrastruktur" />
		<tag k="ssr:stedsnr" v="13643" />
		<tag k="ssr:type" v="fyrlykt" />
	</node>
	<node id="-835349" lat="63.4298666699" lon="8.3366638915">
		<tag k="name" v="Ramsøysund" />
		<tag k="ssr:date" v="2018-01-09" />
		<tag k="ssr:gruppe" v="navigasjon" />
		<tag k="ssr:hovedgruppe" v="infrastruktur" />
		<tag k="ssr:stedsnr" v="862064" />
		<tag k="ssr:type" v="fyrlykt" />
	</node>
	<node id="-834063" lat="63.5720500017" lon="9.22264999951">
		<tag k="name" v="Børøyholmen" />
		<tag k="ssr:date" v="2018-01-09" />
		<tag k="ssr:gruppe" v="navigasjon" />
		<tag k="ssr:hovedgruppe" v="infrastruktur" />
		<tag k="ssr:stedsnr" v="802134" />
		<tag k="ssr:type" v="fyrlykt" />
	</node>
	<node id="-833285" lat="63.572955555" lon="8.4798083348">
		<tag k="name" v="Jektvikskjæra" />
		<tag k="ssr:date" v="2018-01-09" />
		<tag k="ssr:gruppe" v="navigasjon" />
		<tag k="ssr:hovedgruppe" v="infrastruktur" />
		<tag k="ssr:stedsnr" v="60886" />
		<tag k="ssr:type" v="fyrlykt" />
	</node>
</osm>
