<?xml version="1.0" encoding="UTF-8"?>
<<<<<<< HEAD
<osm version="0.6" generator="osmapis">
	<node lat="60.42491110889457" lon="9.774827774303207" id="-11628">
		<tag k="name" v="Stillingdalsvegen" />
		<tag k="ssr:date" v="2019-12-27" />
		<tag k="ssr:gruppe" v="veg" />
		<tag k="ssr:hovedgruppe" v="infrastruktur" />
		<tag k="ssr:stedsnr" v="239248" />
		<tag k="ssr:type" v="vegstrekning" />
	</node>
	<node lat="60.429102774299366" lon="9.466111116789897" id="-11958">
		<tag k="name" v="Flå kommune" />
		<tag k="ssr:date" v="2019-12-27" />
		<tag k="ssr:gruppe" v="administrativeIndelinger" />
		<tag k="ssr:hovedgruppe" v="offentligAdministrasjon" />
		<tag k="ssr:stedsnr" v="449019" />
		<tag k="ssr:type" v="kommune" />
	</node>
	<node lat="60.4544555592158" lon="9.820755547190249" id="-12017">
		<tag k="name" v="Harlemsvegen" />
		<tag k="ssr:date" v="2019-12-27" />
		<tag k="ssr:gruppe" v="veg" />
		<tag k="ssr:hovedgruppe" v="infrastruktur" />
		<tag k="ssr:stedsnr" v="524802" />
		<tag k="ssr:type" v="vegstrekning" />
	</node>
	<node lat="60.15999166844793" lon="10.340894439966458" id="-12060">
		<tag k="name" v="Holsledningen" />
		<tag k="ssr:date" v="2019-12-27" />
		<tag k="ssr:gruppe" v="energi" />
		<tag k="ssr:hovedgruppe" v="infrastruktur" />
		<tag k="ssr:stedsnr" v="570854" />
		<tag k="ssr:type" v="kraftledning" />
	</node>
	<node lat="60.465180553476415" lon="9.375977771544644" id="-12127">
		<tag k="name" v="Grønlivegen" />
		<tag k="ssr:date" v="2019-12-27" />
		<tag k="ssr:gruppe" v="veg" />
		<tag k="ssr:hovedgruppe" v="infrastruktur" />
		<tag k="ssr:stedsnr" v="648543" />
		<tag k="ssr:type" v="vegstrekning" />
	</node>
	<node lat="60.46751110823452" lon="9.558863893647164" id="-12750">
		<tag k="name" v="Damtjernveien" />
=======
<osm generator="osmapis" version="0.6">
	<node id="-271264" lat="60.4147166626" lon="9.76592499715">
		<tag k="name" v="Veslevadvegen" />
>>>>>>> e1d4bc35ff8a6074a6f2e91616a996b547c36f15
		<tag k="ssr:date" v="2019-12-27" />
		<tag k="ssr:gruppe" v="veg" />
		<tag k="ssr:hovedgruppe" v="infrastruktur" />
		<tag k="ssr:stedsnr" v="846493" />
		<tag k="ssr:type" v="vegstrekning" />
	</node>
<<<<<<< HEAD
	<node lat="60.42357777755401" lon="9.607708339256448" id="-12759">
		<tag k="name" v="Stillingdalvegen" />
=======
	<node id="-271120" lat="60.4065972226" lon="9.37423055538">
		<tag k="name" v="Slåttemyrvegen" />
>>>>>>> e1d4bc35ff8a6074a6f2e91616a996b547c36f15
		<tag k="ssr:date" v="2019-12-27" />
		<tag k="ssr:gruppe" v="veg" />
		<tag k="ssr:hovedgruppe" v="infrastruktur" />
		<tag k="ssr:stedsnr" v="605184" />
		<tag k="ssr:type" v="vegstrekning" />
	</node>
<<<<<<< HEAD
	<node lat="60.4065972225937" lon="9.374230555384358" id="-12888">
		<tag k="name" v="Slåttemyrvegen" />
		<tag k="ssr:date" v="2019-12-27" />
		<tag k="ssr:gruppe" v="veg" />
		<tag k="ssr:hovedgruppe" v="infrastruktur" />
		<tag k="ssr:stedsnr" v="605184" />
		<tag k="ssr:type" v="vegstrekning" />
	</node>
	<node lat="60.395113886940344" lon="9.707922226131004" id="-12927">
		<tag k="name" v="Fellebekkvegen" />
		<tag k="ssr:date" v="2019-12-27" />
		<tag k="ssr:gruppe" v="veg" />
		<tag k="ssr:hovedgruppe" v="infrastruktur" />
		<tag k="ssr:stedsnr" v="663464" />
		<tag k="ssr:type" v="vegstrekning" />
	</node>
	<node lat="60.4151972204889" lon="9.728205564078529" id="-12949">
=======
	<node id="-270394" lat="60.4151972205" lon="9.72820556408">
>>>>>>> e1d4bc35ff8a6074a6f2e91616a996b547c36f15
		<tag k="name" v="Erikbuvegen" />
		<tag k="ssr:date" v="2019-12-27" />
		<tag k="ssr:gruppe" v="veg" />
		<tag k="ssr:hovedgruppe" v="infrastruktur" />
		<tag k="ssr:stedsnr" v="724230" />
		<tag k="ssr:type" v="vegstrekning" />
	</node>
<<<<<<< HEAD
	<node lat="60.3851555542969" lon="9.816330551519131" id="-12969">
		<tag k="name" v="Frisvatnvegen" />
		<tag k="ssr:date" v="2019-12-27" />
		<tag k="ssr:gruppe" v="veg" />
		<tag k="ssr:hovedgruppe" v="infrastruktur" />
		<tag k="ssr:stedsnr" v="728142" />
		<tag k="ssr:type" v="adressenavn" />
	</node>
	<node lat="60.44723333499859" lon="9.82112499193256" id="-13084">
		<tag k="name" v="Skytefeltvegen" />
=======
	<node id="-271162" lat="60.4651805535" lon="9.37597777154">
		<tag k="name" v="Grønlivegen" />
>>>>>>> e1d4bc35ff8a6074a6f2e91616a996b547c36f15
		<tag k="ssr:date" v="2019-12-27" />
		<tag k="ssr:gruppe" v="veg" />
		<tag k="ssr:hovedgruppe" v="infrastruktur" />
		<tag k="ssr:stedsnr" v="846244" />
		<tag k="ssr:type" v="vegstrekning" />
	</node>
<<<<<<< HEAD
	<node lat="60.41471666261767" lon="9.765924997148103" id="-13089">
		<tag k="name" v="Veslevadvegen" />
=======
	<node id="-271256" lat="60.447233335" lon="9.82112499193">
		<tag k="name" v="Skytefeltvegen" />
>>>>>>> e1d4bc35ff8a6074a6f2e91616a996b547c36f15
		<tag k="ssr:date" v="2019-12-27" />
		<tag k="ssr:gruppe" v="veg" />
		<tag k="ssr:hovedgruppe" v="infrastruktur" />
		<tag k="ssr:stedsnr" v="846493" />
		<tag k="ssr:type" v="vegstrekning" />
	</node>
<<<<<<< HEAD
	<node lat="59.91168968762522" lon="10.758188226721538" id="-13153">
		<tag k="name" v="Viken fylke" />
		<tag k="ssr:date" v="2021-06-08" />
		<tag k="ssr:gruppe" v="administrativeIndelinger" />
		<tag k="ssr:hovedgruppe" v="offentligAdministrasjon" />
		<tag k="ssr:stedsnr" v="1074403" />
		<tag k="ssr:type" v="fylke" />
	</node>
	<node lat="60.472198617569646" lon="9.504451180523276" id="-13154">
		<tag k="name" v="Vesleseterkroken" />
=======
	<node id="-271351" lat="69.6388889725" lon="30.5666644427">
		<tag k="fixme" v="multiple name tags, choose one and add the other to alt_name" />
		<tag k="loc_name:se" v="Norgga gonagasriika" />
		<tag k="loc_name:sma" v="Nöörjen gånkarïjhke" />
		<tag k="loc_name:smj" v="Vuona gånågisrijkka" />
		<tag k="name" v="Noreg;Norge" />
		<tag k="name:en" v="Norway" />
		<tag k="name:no" v="Noreg;Norge" />
		<tag k="ssr:date" v="2020-06-04" />
		<tag k="ssr:gruppe" v="administrativeIndelinger" />
		<tag k="ssr:hovedgruppe" v="offentligAdministrasjon" />
		<tag k="ssr:stedsnr" v="26330" />
		<tag k="ssr:type" v="nasjon" />
	</node>
	<node id="-271347" lat="60.4738805782" lon="9.50367694932">
		<tag k="name" v="Øvre Vesleseterlie" />
>>>>>>> e1d4bc35ff8a6074a6f2e91616a996b547c36f15
		<tag k="ssr:date" v="2020-03-05" />
		<tag k="ssr:gruppe" v="veg" />
		<tag k="ssr:hovedgruppe" v="infrastruktur" />
		<tag k="ssr:stedsnr" v="1075824" />
		<tag k="ssr:type" v="adressenavn" />
	</node>
	<node lat="60.47086810776847" lon="9.50012003744615" id="-13155">
		<tag k="name" v="Veslesetre" />
		<tag k="ssr:date" v="2020-03-05" />
		<tag k="ssr:gruppe" v="veg" />
		<tag k="ssr:hovedgruppe" v="infrastruktur" />
		<tag k="ssr:stedsnr" v="1075823" />
		<tag k="ssr:type" v="adressenavn" />
	</node>
<<<<<<< HEAD
	<node lat="60.47350040963996" lon="9.50210678528849" id="-13156">
=======
	<node id="-271346" lat="60.4735004096" lon="9.50210678529">
>>>>>>> e1d4bc35ff8a6074a6f2e91616a996b547c36f15
		<tag k="name" v="Nedre Vesleseterlie" />
		<tag k="ssr:date" v="2020-03-05" />
		<tag k="ssr:gruppe" v="veg" />
		<tag k="ssr:hovedgruppe" v="infrastruktur" />
		<tag k="ssr:stedsnr" v="1075825" />
		<tag k="ssr:type" v="adressenavn" />
	</node>
<<<<<<< HEAD
	<node lat="60.473880578183916" lon="9.503676949323465" id="-13157">
		<tag k="name" v="Øvre Vesleseterlie" />
=======
	<node id="-271345" lat="60.4721986176" lon="9.50445118052">
		<tag k="name" v="Vesleseterkroken" />
>>>>>>> e1d4bc35ff8a6074a6f2e91616a996b547c36f15
		<tag k="ssr:date" v="2020-03-05" />
		<tag k="ssr:gruppe" v="veg" />
		<tag k="ssr:hovedgruppe" v="infrastruktur" />
		<tag k="ssr:stedsnr" v="1075826" />
		<tag k="ssr:type" v="adressenavn" />
	</node>
<<<<<<< HEAD
	<node lat="60.348148143981554" lon="9.482186498273451" id="-13158">
		<tag k="name" v="Langeli" />
		<tag k="ssr:date" v="2020-08-24" />
=======
	<node id="-271344" lat="60.4708681078" lon="9.50012003745">
		<tag k="name" v="Veslesetre" />
		<tag k="ssr:date" v="2020-03-05" />
>>>>>>> e1d4bc35ff8a6074a6f2e91616a996b547c36f15
		<tag k="ssr:gruppe" v="veg" />
		<tag k="ssr:hovedgruppe" v="infrastruktur" />
		<tag k="ssr:stedsnr" v="1077978" />
		<tag k="ssr:type" v="adressenavn" />
	</node>
<<<<<<< HEAD
	<node lat="60.35033259668698" lon="9.484211225029824" id="-13164">
		<tag k="name" v="Bekkeli" />
		<tag k="ssr:date" v="2020-12-22" />
		<tag k="ssr:gruppe" v="veg" />
		<tag k="ssr:hovedgruppe" v="infrastruktur" />
		<tag k="ssr:stedsnr" v="1079464" />
		<tag k="ssr:type" v="adressenavn" />
	</node>
	<node lat="60.46505593363917" lon="9.493666065662232" id="-13165">
		<tag k="name" v="Istjernryggen" />
		<tag k="ssr:date" v="2020-11-26" />
=======
	<node id="-271343" lat="59.9116896876" lon="10.7581882267">
		<tag k="name" v="Viken fylke" />
		<tag k="ssr:date" v="2020-01-13" />
		<tag k="ssr:gruppe" v="administrativeIndelinger" />
		<tag k="ssr:hovedgruppe" v="offentligAdministrasjon" />
		<tag k="ssr:stedsnr" v="1074403" />
		<tag k="ssr:type" v="fylke" />
	</node>
	<node id="-270156" lat="60.4544555592" lon="9.82075554719">
		<tag k="name" v="Harlemsvegen" />
		<tag k="ssr:date" v="2019-12-27" />
>>>>>>> e1d4bc35ff8a6074a6f2e91616a996b547c36f15
		<tag k="ssr:gruppe" v="veg" />
		<tag k="ssr:hovedgruppe" v="infrastruktur" />
		<tag k="ssr:stedsnr" v="1079078" />
		<tag k="ssr:type" v="adressenavn" />
	</node>
	<node lat="60.39176507151695" lon="9.28733536213313" id="-13166">
		<tag k="name" v="Finntoppskardvegen" />
		<tag k="ssr:date" v="2020-11-26" />
		<tag k="ssr:gruppe" v="veg" />
		<tag k="ssr:hovedgruppe" v="infrastruktur" />
		<tag k="ssr:stedsnr" v="1079079" />
		<tag k="ssr:type" v="adressenavn" />
	</node>
	<node id="-270184" lat="60.1599916684" lon="10.34089444">
		<tag k="name" v="Holsledningen" />
		<tag k="ssr:date" v="2019-12-27" />
		<tag k="ssr:gruppe" v="energi" />
		<tag k="ssr:hovedgruppe" v="infrastruktur" />
		<tag k="ssr:stedsnr" v="570854" />
		<tag k="ssr:type" v="kraftledning" />
	</node>
	<node id="-270951" lat="60.4675111082" lon="9.55886389365">
		<tag k="name" v="Damtjernveien" />
		<tag k="ssr:date" v="2019-12-27" />
		<tag k="ssr:gruppe" v="veg" />
		<tag k="ssr:hovedgruppe" v="infrastruktur" />
		<tag k="ssr:stedsnr" v="421254" />
		<tag k="ssr:type" v="vegstrekning" />
	</node>
	<node id="-270086" lat="60.4291027743" lon="9.46611111679">
		<tag k="name" v="Flå kommune" />
		<tag k="ssr:date" v="2019-12-27" />
		<tag k="ssr:gruppe" v="administrativeIndelinger" />
		<tag k="ssr:hovedgruppe" v="offentligAdministrasjon" />
		<tag k="ssr:stedsnr" v="449019" />
		<tag k="ssr:type" v="kommune" />
	</node>
	<node id="-270949" lat="60.4235777776" lon="9.60770833926">
		<tag k="name" v="Stillingdalvegen" />
		<tag k="ssr:date" v="2019-12-27" />
		<tag k="ssr:gruppe" v="veg" />
		<tag k="ssr:hovedgruppe" v="infrastruktur" />
		<tag k="ssr:stedsnr" v="421486" />
		<tag k="ssr:type" v="vegstrekning" />
	</node>
	<node id="-270276" lat="60.3851555543" lon="9.81633055152">
		<tag k="name" v="Frisvatnvegen" />
		<tag k="ssr:date" v="2019-12-27" />
		<tag k="ssr:gruppe" v="veg" />
		<tag k="ssr:hovedgruppe" v="infrastruktur" />
		<tag k="ssr:stedsnr" v="728142" />
		<tag k="ssr:type" v="adressenavn" />
	</node>
	<node id="-269954" lat="60.4249111089" lon="9.7748277743">
		<tag k="name" v="Stillingdalsvegen" />
		<tag k="ssr:date" v="2019-12-27" />
		<tag k="ssr:gruppe" v="veg" />
		<tag k="ssr:hovedgruppe" v="infrastruktur" />
		<tag k="ssr:stedsnr" v="239248" />
		<tag k="ssr:type" v="vegstrekning" />
	</node>
	<node id="-270337" lat="60.3951138869" lon="9.70792222613">
		<tag k="name" v="Fellebekkvegen" />
		<tag k="ssr:date" v="2019-12-27" />
		<tag k="ssr:gruppe" v="veg" />
		<tag k="ssr:hovedgruppe" v="infrastruktur" />
		<tag k="ssr:stedsnr" v="663464" />
		<tag k="ssr:type" v="vegstrekning" />
	</node>
</osm>
