<?xml version="1.0" encoding="UTF-8"?>
<osm version="0.6" generator="osmapis">
	<node lat="62.12211315404107" lon="5.6931037186673645" id="-3255">
		<tag k="name" v="Syvdefjorden" />
		<tag k="ssr:date" v="2021-06-08" />
		<tag k="ssr:gruppe" v="navigasjon" />
		<tag k="ssr:hovedgruppe" v="infrastruktur" />
		<tag k="ssr:stedsnr" v="253441" />
		<tag k="ssr:type" v="fyrlykt" />
	</node>
	<node lat="62.73392710705581" lon="7.14918030614603" id="-3277">
		<tag k="alt_name" v="Møre og Romsdal" />
		<tag k="name" v="Møre og Romsdal fylke" />
		<tag k="ssr:date" v="2021-09-21" />
		<tag k="ssr:gruppe" v="administrativeIndelinger" />
		<tag k="ssr:hovedgruppe" v="offentligAdministrasjon" />
		<tag k="ssr:stedsnr" v="145583" />
		<tag k="ssr:type" v="fylke" />
	</node>
	<node lat="62.2029444421801" lon="5.49082222936842" id="-3363">
		<tag k="name" v="Åramsund lysbøye" />
		<tag k="ssr:date" v="2016-05-10" />
		<tag k="ssr:gruppe" v="navigasjon" />
		<tag k="ssr:hovedgruppe" v="infrastruktur" />
		<tag k="ssr:stedsnr" v="223827" />
		<tag k="ssr:type" v="lysbøye" />
	</node>
	<node lat="62.13056111058615" lon="5.399219450234547" id="-3534">
		<tag k="name" v="Leiskjæret varde" />
		<tag k="ssr:date" v="2016-05-10" />
		<tag k="ssr:gruppe" v="navigasjon" />
		<tag k="ssr:hovedgruppe" v="infrastruktur" />
		<tag k="ssr:stedsnr" v="344257" />
		<tag k="ssr:type" v="lanterne" />
	</node>
	<node lat="62.09970000258985" lon="5.557050008607427" id="-3552">
		<tag k="alt_name" v="Vanylven" />
		<tag k="name" v="Vanylven kommune" />
		<tag k="ssr:date" v="2016-05-10" />
		<tag k="ssr:gruppe" v="administrativeIndelinger" />
		<tag k="ssr:hovedgruppe" v="offentligAdministrasjon" />
		<tag k="ssr:stedsnr" v="388548" />
		<tag k="ssr:type" v="kommune" />
	</node>
	<node lat="62.13056944060668" lon="5.399216675180502" id="-3587">
		<tag k="name" v="Leiskjæret varde" />
		<tag k="ssr:date" v="2016-05-10" />
		<tag k="ssr:gruppe" v="navigasjon" />
		<tag k="ssr:hovedgruppe" v="infrastruktur" />
		<tag k="ssr:stedsnr" v="405013" />
		<tag k="ssr:type" v="lanterne" />
	</node>
	<node lat="62.203844445406794" lon="5.496219446715636" id="-3652">
		<tag k="name" v="Stabbane" />
		<tag k="ssr:date" v="2016-05-11" />
		<tag k="ssr:gruppe" v="navigasjon" />
		<tag k="ssr:hovedgruppe" v="infrastruktur" />
		<tag k="ssr:stedsnr" v="678533" />
		<tag k="ssr:type" v="fyrlykt" />
	</node>
	<node lat="62.18252777409316" lon="5.741555560439627" id="-3891">
		<tag k="name" v="Rovdeskjær" />
		<tag k="ssr:date" v="2016-05-11" />
		<tag k="ssr:gruppe" v="navigasjon" />
		<tag k="ssr:hovedgruppe" v="infrastruktur" />
		<tag k="ssr:stedsnr" v="708451" />
		<tag k="ssr:type" v="lanterne" />
	</node>
	<node lat="62.20281861353869" lon="5.48412580784687" id="-4174">
		<tag k="name" v="Åramsund" />
		<tag k="ssr:date" v="2020-05-27" />
		<tag k="ssr:gruppe" v="navigasjon" />
		<tag k="ssr:hovedgruppe" v="infrastruktur" />
		<tag k="ssr:stedsnr" v="11547" />
		<tag k="ssr:type" v="fyrlykt" />
	</node>
	<node lat="62.047377780834765" lon="5.518069452870363" id="-4408">
		<tag k="name" v="Åheim" />
		<tag k="ssr:date" v="2016-05-10" />
		<tag k="ssr:gruppe" v="navigasjon" />
		<tag k="ssr:hovedgruppe" v="infrastruktur" />
		<tag k="ssr:stedsnr" v="192304" />
		<tag k="ssr:type" v="fyrlykt" />
	</node>
	<node lat="62.09503722620868" lon="5.546518753024793" id="-4636">
		<tag k="name" v="Fiskåholmen" />
		<tag k="ssr:date" v="2020-09-08" />
		<tag k="ssr:gruppe" v="navigasjon" />
		<tag k="ssr:hovedgruppe" v="infrastruktur" />
		<tag k="ssr:stedsnr" v="375375" />
		<tag k="ssr:type" v="fyrlykt" />
	</node>
	<node lat="62.04880833062499" lon="5.5195694394301205" id="-4972">
		<tag k="name" v="Torvholmen Lysbøye" />
		<tag k="ssr:date" v="2016-05-11" />
		<tag k="ssr:gruppe" v="navigasjon" />
		<tag k="ssr:hovedgruppe" v="infrastruktur" />
		<tag k="ssr:stedsnr" v="723755" />
		<tag k="ssr:type" v="lysbøye" />
	</node>
	<node lat="62.081708332673045" lon="5.6030500048165885" id="-5063">
		<tag k="name" v="Strand" />
		<tag k="ssr:date" v="2016-05-11" />
		<tag k="ssr:gruppe" v="navigasjon" />
		<tag k="ssr:hovedgruppe" v="infrastruktur" />
		<tag k="ssr:stedsnr" v="784244" />
		<tag k="ssr:type" v="fyrlykt" />
	</node>
	<node lat="62.05065833598378" lon="5.524872230510015" id="-5069">
		<tag k="name" v="Gildrevikneset" />
		<tag k="ssr:date" v="2016-05-11" />
		<tag k="ssr:gruppe" v="navigasjon" />
		<tag k="ssr:hovedgruppe" v="infrastruktur" />
		<tag k="ssr:stedsnr" v="784794" />
		<tag k="ssr:type" v="lanterne" />
	</node>
	<node lat="62.10094565120707" lon="5.516111576842408" id="-5319">
		<tag k="name" v="Nordstranda" />
		<tag k="ssr:date" v="2019-11-15" />
		<tag k="ssr:gruppe" v="veg" />
		<tag k="ssr:hovedgruppe" v="infrastruktur" />
		<tag k="ssr:stedsnr" v="1073309" />
		<tag k="ssr:type" v="adressenavn" />
	</node>
	<node lat="62.03498379021118" lon="5.522459847366166" id="-5320">
		<tag k="name" v="Skorgevegen" />
		<tag k="ssr:date" v="2019-11-15" />
		<tag k="ssr:gruppe" v="veg" />
		<tag k="ssr:hovedgruppe" v="infrastruktur" />
		<tag k="ssr:stedsnr" v="1073311" />
		<tag k="ssr:type" v="adressenavn" />
	</node>
	<node lat="62.10910748489108" lon="5.668892993016509" id="-5321">
		<tag k="name" v="Leitebakkane" />
		<tag k="ssr:date" v="2019-11-15" />
		<tag k="ssr:gruppe" v="veg" />
		<tag k="ssr:hovedgruppe" v="infrastruktur" />
		<tag k="ssr:stedsnr" v="1073312" />
		<tag k="ssr:type" v="adressenavn" />
	</node>
	<node lat="62.122523054969314" lon="5.672292722248036" id="-5322">
		<tag k="name" v="Eidsåvegen" />
		<tag k="ssr:date" v="2019-11-15" />
		<tag k="ssr:gruppe" v="veg" />
		<tag k="ssr:hovedgruppe" v="infrastruktur" />
		<tag k="ssr:stedsnr" v="1073313" />
		<tag k="ssr:type" v="adressenavn" />
	</node>
	<node lat="62.16685511311442" lon="5.558626546872767" id="-5323">
		<tag k="name" v="Brandalsvegen" />
		<tag k="ssr:date" v="2019-12-12" />
		<tag k="ssr:gruppe" v="veg" />
		<tag k="ssr:hovedgruppe" v="infrastruktur" />
		<tag k="ssr:stedsnr" v="1073620" />
		<tag k="ssr:type" v="adressenavn" />
	</node>
	<node lat="62.16889080321477" lon="5.555364299883424" id="-5324">
		<tag k="name" v="Lidavegen" />
		<tag k="ssr:date" v="2019-12-12" />
		<tag k="ssr:gruppe" v="veg" />
		<tag k="ssr:hovedgruppe" v="infrastruktur" />
		<tag k="ssr:stedsnr" v="1074081" />
		<tag k="ssr:type" v="adressenavn" />
	</node>
	<node lat="62.17801026375123" lon="5.442728159531987" id="-5325">
		<tag k="name" v="Klovningen" />
		<tag k="ssr:date" v="2019-12-12" />
		<tag k="ssr:gruppe" v="veg" />
		<tag k="ssr:hovedgruppe" v="infrastruktur" />
		<tag k="ssr:stedsnr" v="1074083" />
		<tag k="ssr:type" v="adressenavn" />
	</node>
	<node lat="62.182987648342134" lon="5.452500758009165" id="-5326">
		<tag k="name" v="Klovningstranda" />
		<tag k="ssr:date" v="2019-12-12" />
		<tag k="ssr:gruppe" v="veg" />
		<tag k="ssr:hovedgruppe" v="infrastruktur" />
		<tag k="ssr:stedsnr" v="1074082" />
		<tag k="ssr:type" v="adressenavn" />
	</node>
	<node lat="62.164376486849605" lon="5.44030207925147" id="-5327">
		<tag k="name" v="Sandvikdalen" />
		<tag k="ssr:date" v="2020-01-17" />
		<tag k="ssr:gruppe" v="veg" />
		<tag k="ssr:hovedgruppe" v="infrastruktur" />
		<tag k="ssr:stedsnr" v="1074621" />
		<tag k="ssr:type" v="adressenavn" />
	</node>
	<node lat="62.154696199430724" lon="5.44213034593171" id="-5333">
		<tag k="name" v="Hammaren" />
		<tag k="ssr:date" v="2020-02-13" />
		<tag k="ssr:gruppe" v="veg" />
		<tag k="ssr:hovedgruppe" v="infrastruktur" />
		<tag k="ssr:stedsnr" v="1075097" />
		<tag k="ssr:type" v="adressenavn" />
	</node>
	<node lat="62.15921165468741" lon="5.443056408586862" id="-5334">
		<tag k="name" v="Sandvika" />
		<tag k="ssr:date" v="2020-02-13" />
		<tag k="ssr:gruppe" v="veg" />
		<tag k="ssr:hovedgruppe" v="infrastruktur" />
		<tag k="ssr:stedsnr" v="1075096" />
		<tag k="ssr:type" v="adressenavn" />
	</node>
	<node lat="62.108147637185255" lon="5.436597523113416" id="-5335">
		<tag k="name" v="Brudevika" />
		<tag k="ssr:date" v="2020-05-15" />
		<tag k="ssr:gruppe" v="veg" />
		<tag k="ssr:hovedgruppe" v="infrastruktur" />
		<tag k="ssr:stedsnr" v="1076940" />
		<tag k="ssr:type" v="adressenavn" />
	</node>
	<node lat="62.10371320998073" lon="5.444042618025015" id="-5336">
		<tag k="name" v="Sighaug" />
		<tag k="ssr:date" v="2020-05-15" />
		<tag k="ssr:gruppe" v="veg" />
		<tag k="ssr:hovedgruppe" v="infrastruktur" />
		<tag k="ssr:stedsnr" v="1076941" />
		<tag k="ssr:type" v="adressenavn" />
	</node>
	<node lat="62.100567131157966" lon="5.565925483448527" id="-5337">
		<tag k="name" v="Gamlevegen" />
		<tag k="ssr:date" v="2020-05-15" />
		<tag k="ssr:gruppe" v="veg" />
		<tag k="ssr:hovedgruppe" v="infrastruktur" />
		<tag k="ssr:stedsnr" v="1076942" />
		<tag k="ssr:type" v="adressenavn" />
	</node>
	<node lat="62.10083467328205" lon="5.553084234217095" id="-5338">
		<tag k="name" v="Djuvika" />
		<tag k="ssr:date" v="2020-05-15" />
		<tag k="ssr:gruppe" v="veg" />
		<tag k="ssr:hovedgruppe" v="infrastruktur" />
		<tag k="ssr:stedsnr" v="1076943" />
		<tag k="ssr:type" v="adressenavn" />
	</node>
	<node lat="62.10162366494648" lon="5.56514376208942" id="-5339">
		<tag k="name" v="Skulevegen" />
		<tag k="ssr:date" v="2020-09-01" />
		<tag k="ssr:gruppe" v="veg" />
		<tag k="ssr:hovedgruppe" v="infrastruktur" />
		<tag k="ssr:stedsnr" v="1076947" />
		<tag k="ssr:type" v="adressenavn" />
	</node>
	<node lat="62.10152226100378" lon="5.471244204637858" id="-5340">
		<tag k="name" v="Jonsokhaugen" />
		<tag k="ssr:date" v="2020-05-15" />
		<tag k="ssr:gruppe" v="veg" />
		<tag k="ssr:hovedgruppe" v="infrastruktur" />
		<tag k="ssr:stedsnr" v="1076946" />
		<tag k="ssr:type" v="adressenavn" />
	</node>
	<node lat="62.10247122894346" lon="5.573131072744368" id="-5341">
		<tag k="name" v="Skansen" />
		<tag k="ssr:date" v="2020-05-15" />
		<tag k="ssr:gruppe" v="veg" />
		<tag k="ssr:hovedgruppe" v="infrastruktur" />
		<tag k="ssr:stedsnr" v="1076948" />
		<tag k="ssr:type" v="adressenavn" />
	</node>
	<node lat="62.09546961919283" lon="5.570559515227402" id="-5342">
		<tag k="name" v="Myrane" />
		<tag k="ssr:date" v="2020-05-15" />
		<tag k="ssr:gruppe" v="veg" />
		<tag k="ssr:hovedgruppe" v="infrastruktur" />
		<tag k="ssr:stedsnr" v="1076949" />
		<tag k="ssr:type" v="adressenavn" />
	</node>
	<node lat="62.089548946467794" lon="5.5748965132136865" id="-5343">
		<tag k="name" v="Bautevegen" />
		<tag k="ssr:date" v="2020-05-15" />
		<tag k="ssr:gruppe" v="veg" />
		<tag k="ssr:hovedgruppe" v="infrastruktur" />
		<tag k="ssr:stedsnr" v="1076950" />
		<tag k="ssr:type" v="adressenavn" />
	</node>
	<node lat="62.100452139098465" lon="5.557929296059204" id="-5344">
		<tag k="name" v="Reitebakkvegen" />
		<tag k="ssr:date" v="2020-05-15" />
		<tag k="ssr:gruppe" v="veg" />
		<tag k="ssr:hovedgruppe" v="infrastruktur" />
		<tag k="ssr:stedsnr" v="1076951" />
		<tag k="ssr:type" v="adressenavn" />
	</node>
	<node lat="62.10302352104859" lon="5.650014658075325" id="-5345">
		<tag k="name" v="Lisjeeide næringspark" />
		<tag k="ssr:date" v="2020-05-15" />
		<tag k="ssr:gruppe" v="veg" />
		<tag k="ssr:hovedgruppe" v="infrastruktur" />
		<tag k="ssr:stedsnr" v="1076952" />
		<tag k="ssr:type" v="adressenavn" />
	</node>
	<node lat="62.102005175069785" lon="5.555429125914778" id="-5346">
		<tag k="name" v="Fredsvoll" />
		<tag k="ssr:date" v="2020-09-01" />
		<tag k="ssr:gruppe" v="veg" />
		<tag k="ssr:hovedgruppe" v="infrastruktur" />
		<tag k="ssr:stedsnr" v="1077417" />
		<tag k="ssr:type" v="adressenavn" />
	</node>
	<node lat="62.10024433862525" lon="5.557979788841895" id="-5347">
		<tag k="name" v="Kvernalunden" />
		<tag k="ssr:date" v="2020-06-22" />
		<tag k="ssr:gruppe" v="veg" />
		<tag k="ssr:hovedgruppe" v="infrastruktur" />
		<tag k="ssr:stedsnr" v="1077418" />
		<tag k="ssr:type" v="adressenavn" />
	</node>
	<node lat="62.101572939721684" lon="5.553270877268156" id="-5348">
		<tag k="name" v="Hopeigna" />
		<tag k="ssr:date" v="2020-08-21" />
		<tag k="ssr:gruppe" v="veg" />
		<tag k="ssr:hovedgruppe" v="infrastruktur" />
		<tag k="ssr:stedsnr" v="1077969" />
		<tag k="ssr:type" v="adressenavn" />
	</node>
	<node lat="62.101638174060874" lon="5.559602527429072" id="-5349">
		<tag k="name" v="Grøthaugen" />
		<tag k="ssr:date" v="2020-06-22" />
		<tag k="ssr:gruppe" v="veg" />
		<tag k="ssr:hovedgruppe" v="infrastruktur" />
		<tag k="ssr:stedsnr" v="1077419" />
		<tag k="ssr:type" v="adressenavn" />
	</node>
	<node lat="62.098339209540704" lon="5.555944928237694" id="-5350">
		<tag k="name" v="Eidebakken" />
		<tag k="ssr:date" v="2020-06-22" />
		<tag k="ssr:gruppe" v="veg" />
		<tag k="ssr:hovedgruppe" v="infrastruktur" />
		<tag k="ssr:stedsnr" v="1077416" />
		<tag k="ssr:type" v="adressenavn" />
	</node>
	<node lat="62.100710124611474" lon="5.5591318308365825" id="-5351">
		<tag k="name" v="Nedre Grøthaugen" />
		<tag k="ssr:date" v="2020-07-08" />
		<tag k="ssr:gruppe" v="veg" />
		<tag k="ssr:hovedgruppe" v="infrastruktur" />
		<tag k="ssr:stedsnr" v="1077600" />
		<tag k="ssr:type" v="adressenavn" />
	</node>
	<node lat="62.10125248110427" lon="5.554112643962402" id="-5352">
		<tag k="name" v="Vassverkvegen" />
		<tag k="ssr:date" v="2020-07-08" />
		<tag k="ssr:gruppe" v="veg" />
		<tag k="ssr:hovedgruppe" v="infrastruktur" />
		<tag k="ssr:stedsnr" v="1077599" />
		<tag k="ssr:type" v="adressenavn" />
	</node>
	<node lat="62.05631035651879" lon="5.621580627824582" id="-5353">
		<tag k="name" v="Sylteskogen" />
		<tag k="ssr:date" v="2020-09-01" />
		<tag k="ssr:gruppe" v="veg" />
		<tag k="ssr:hovedgruppe" v="infrastruktur" />
		<tag k="ssr:stedsnr" v="1078086" />
		<tag k="ssr:type" v="adressenavn" />
	</node>
	<node lat="62.09991883246827" lon="5.557801439375049" id="-5354">
		<tag k="name" v="Rådhusvegen" />
		<tag k="ssr:date" v="2020-09-01" />
		<tag k="ssr:gruppe" v="veg" />
		<tag k="ssr:hovedgruppe" v="infrastruktur" />
		<tag k="ssr:stedsnr" v="1078085" />
		<tag k="ssr:type" v="adressenavn" />
	</node>
	<node lat="62.051218706807255" lon="5.621013134667108" id="-5355">
		<tag k="name" v="Syltedalsvegen" />
		<tag k="ssr:date" v="2020-08-31" />
		<tag k="ssr:gruppe" v="veg" />
		<tag k="ssr:hovedgruppe" v="infrastruktur" />
		<tag k="ssr:stedsnr" v="1078087" />
		<tag k="ssr:type" v="adressenavn" />
	</node>
	<node lat="62.100868297169036" lon="5.548954287543368" id="-5356">
		<tag k="name" v="Ragnhildberget" />
		<tag k="ssr:date" v="2020-09-01" />
		<tag k="ssr:gruppe" v="veg" />
		<tag k="ssr:hovedgruppe" v="infrastruktur" />
		<tag k="ssr:stedsnr" v="1078088" />
		<tag k="ssr:type" v="adressenavn" />
	</node>
	<node lat="62.1438048167467" lon="5.421975186491171" id="-5362">
		<tag k="name" v="Rønnestad" />
		<tag k="ssr:date" v="2020-11-03" />
		<tag k="ssr:gruppe" v="veg" />
		<tag k="ssr:hovedgruppe" v="infrastruktur" />
		<tag k="ssr:stedsnr" v="1078799" />
		<tag k="ssr:type" v="adressenavn" />
	</node>
	<node lat="62.09644916494144" lon="5.752370741890234" id="-5363">
		<tag k="name" v="Nordvika" />
		<tag k="ssr:date" v="2020-11-03" />
		<tag k="ssr:gruppe" v="veg" />
		<tag k="ssr:hovedgruppe" v="infrastruktur" />
		<tag k="ssr:stedsnr" v="1078800" />
		<tag k="ssr:type" v="adressenavn" />
	</node>
	<node lat="62.09386169528821" lon="5.750845719704065" id="-5364">
		<tag k="name" v="Eikremstranda" />
		<tag k="ssr:date" v="2020-11-03" />
		<tag k="ssr:gruppe" v="veg" />
		<tag k="ssr:hovedgruppe" v="infrastruktur" />
		<tag k="ssr:stedsnr" v="1078801" />
		<tag k="ssr:type" v="adressenavn" />
	</node>
	<node lat="62.01753408813931" lon="5.5743369792693205" id="-5365">
		<tag k="name" v="Almklovdalen" />
		<tag k="ssr:date" v="2020-11-03" />
		<tag k="ssr:gruppe" v="veg" />
		<tag k="ssr:hovedgruppe" v="infrastruktur" />
		<tag k="ssr:stedsnr" v="1078803" />
		<tag k="ssr:type" v="adressenavn" />
	</node>
	<node lat="62.105662933064025" lon="5.732361918046252" id="-5366">
		<tag k="name" v="Oppsalvegen" />
		<tag k="ssr:date" v="2020-11-03" />
		<tag k="ssr:gruppe" v="veg" />
		<tag k="ssr:hovedgruppe" v="infrastruktur" />
		<tag k="ssr:stedsnr" v="1078804" />
		<tag k="ssr:type" v="adressenavn" />
	</node>
	<node lat="62.01753361446472" lon="5.574317910190083" id="-5367">
		<tag k="name" v="Peridotvegen" />
		<tag k="ssr:date" v="2020-11-03" />
		<tag k="ssr:gruppe" v="veg" />
		<tag k="ssr:hovedgruppe" v="infrastruktur" />
		<tag k="ssr:stedsnr" v="1078805" />
		<tag k="ssr:type" v="adressenavn" />
	</node>
	<node lat="62.03497175010545" lon="5.522129077765555" id="-5368">
		<tag k="name" v="Tue" />
		<tag k="ssr:date" v="2020-11-03" />
		<tag k="ssr:gruppe" v="veg" />
		<tag k="ssr:hovedgruppe" v="infrastruktur" />
		<tag k="ssr:stedsnr" v="1078809" />
		<tag k="ssr:type" v="adressenavn" />
	</node>
	<node lat="62.007964208810975" lon="5.630849685517453" id="-5369">
		<tag k="name" v="Krokevegen" />
		<tag k="ssr:date" v="2020-11-03" />
		<tag k="ssr:gruppe" v="veg" />
		<tag k="ssr:hovedgruppe" v="infrastruktur" />
		<tag k="ssr:stedsnr" v="1078806" />
		<tag k="ssr:type" v="adressenavn" />
	</node>
	<node lat="62.00386637067229" lon="5.575032768255359" id="-5370">
		<tag k="name" v="Sunndalsvegen" />
		<tag k="ssr:date" v="2020-11-03" />
		<tag k="ssr:gruppe" v="veg" />
		<tag k="ssr:hovedgruppe" v="infrastruktur" />
		<tag k="ssr:stedsnr" v="1078807" />
		<tag k="ssr:type" v="adressenavn" />
	</node>
	<node lat="62.03478260023336" lon="5.532463783652155" id="-5371">
		<tag k="name" v="Årøyane" />
		<tag k="ssr:date" v="2020-11-03" />
		<tag k="ssr:gruppe" v="veg" />
		<tag k="ssr:hovedgruppe" v="infrastruktur" />
		<tag k="ssr:stedsnr" v="1078808" />
		<tag k="ssr:type" v="adressenavn" />
	</node>
	<node lat="62.06772042344658" lon="5.585306083766212" id="-5372">
		<tag k="name" v="Krokeneset" />
		<tag k="ssr:date" v="2020-10-15" />
		<tag k="ssr:gruppe" v="veg" />
		<tag k="ssr:hovedgruppe" v="infrastruktur" />
		<tag k="ssr:stedsnr" v="1078547" />
		<tag k="ssr:type" v="adressenavn" />
	</node>
	<node lat="62.06858158412559" lon="5.558105652478523" id="-5373">
		<tag k="name" v="Vik" />
		<tag k="ssr:date" v="2020-10-15" />
		<tag k="ssr:gruppe" v="veg" />
		<tag k="ssr:hovedgruppe" v="infrastruktur" />
		<tag k="ssr:stedsnr" v="1078548" />
		<tag k="ssr:type" v="adressenavn" />
	</node>
	<node lat="62.07493047679625" lon="5.543857301237381" id="-5374">
		<tag k="name" v="Korsneset" />
		<tag k="ssr:date" v="2020-10-15" />
		<tag k="ssr:gruppe" v="veg" />
		<tag k="ssr:hovedgruppe" v="infrastruktur" />
		<tag k="ssr:stedsnr" v="1078549" />
		<tag k="ssr:type" v="adressenavn" />
	</node>
	<node lat="62.059038833634226" lon="5.524392769237962" id="-5375">
		<tag k="name" v="Småstranda" />
		<tag k="ssr:date" v="2020-10-15" />
		<tag k="ssr:gruppe" v="veg" />
		<tag k="ssr:hovedgruppe" v="infrastruktur" />
		<tag k="ssr:stedsnr" v="1078551" />
		<tag k="ssr:type" v="adressenavn" />
	</node>
	<node lat="62.07294779764963" lon="5.547021657862203" id="-5376">
		<tag k="name" v="Slagnesvegen" />
		<tag k="ssr:date" v="2020-10-15" />
		<tag k="ssr:gruppe" v="veg" />
		<tag k="ssr:hovedgruppe" v="infrastruktur" />
		<tag k="ssr:stedsnr" v="1078550" />
		<tag k="ssr:type" v="adressenavn" />
	</node>
	<node lat="62.04324803774471" lon="5.528440843865927" id="-5377">
		<tag k="name" v="Prestegarden" />
		<tag k="ssr:date" v="2020-10-15" />
		<tag k="ssr:gruppe" v="veg" />
		<tag k="ssr:hovedgruppe" v="infrastruktur" />
		<tag k="ssr:stedsnr" v="1078552" />
		<tag k="ssr:type" v="adressenavn" />
	</node>
	<node lat="62.04265866949435" lon="5.531929603732181" id="-5378">
		<tag k="name" v="Øvre Torvika" />
		<tag k="ssr:date" v="2020-10-15" />
		<tag k="ssr:gruppe" v="veg" />
		<tag k="ssr:hovedgruppe" v="infrastruktur" />
		<tag k="ssr:stedsnr" v="1078556" />
		<tag k="ssr:type" v="adressenavn" />
	</node>
	<node lat="62.03593659662868" lon="5.530541919523637" id="-5379">
		<tag k="name" v="St. Jetmund-vegen" />
		<tag k="ssr:date" v="2020-10-15" />
		<tag k="ssr:gruppe" v="veg" />
		<tag k="ssr:hovedgruppe" v="infrastruktur" />
		<tag k="ssr:stedsnr" v="1078553" />
		<tag k="ssr:type" v="adressenavn" />
	</node>
	<node lat="62.04534078947574" lon="5.529958562412743" id="-5380">
		<tag k="name" v="Torvikvegen" />
		<tag k="ssr:date" v="2020-10-15" />
		<tag k="ssr:gruppe" v="veg" />
		<tag k="ssr:hovedgruppe" v="infrastruktur" />
		<tag k="ssr:stedsnr" v="1078554" />
		<tag k="ssr:type" v="adressenavn" />
	</node>
	<node lat="62.04313627812572" lon="5.531626342162625" id="-5381">
		<tag k="name" v="Nedre Torvika" />
		<tag k="ssr:date" v="2020-10-15" />
		<tag k="ssr:gruppe" v="veg" />
		<tag k="ssr:hovedgruppe" v="infrastruktur" />
		<tag k="ssr:stedsnr" v="1078555" />
		<tag k="ssr:type" v="adressenavn" />
	</node>
	<node lat="62.0408333842059" lon="5.531525298464075" id="-5382">
		<tag k="name" v="Åheimslida" />
		<tag k="ssr:date" v="2020-10-15" />
		<tag k="ssr:gruppe" v="veg" />
		<tag k="ssr:hovedgruppe" v="infrastruktur" />
		<tag k="ssr:stedsnr" v="1078557" />
		<tag k="ssr:type" v="adressenavn" />
	</node>
	<node lat="62.035034049883315" lon="5.5328442481759925" id="-5383">
		<tag k="name" v="Ospelida" />
		<tag k="ssr:date" v="2020-10-15" />
		<tag k="ssr:gruppe" v="veg" />
		<tag k="ssr:hovedgruppe" v="infrastruktur" />
		<tag k="ssr:stedsnr" v="1078558" />
		<tag k="ssr:type" v="adressenavn" />
	</node>
	<node lat="62.039259900927284" lon="5.523169637714423" id="-5384">
		<tag k="name" v="Prestebakken" />
		<tag k="ssr:date" v="2020-10-15" />
		<tag k="ssr:gruppe" v="veg" />
		<tag k="ssr:hovedgruppe" v="infrastruktur" />
		<tag k="ssr:stedsnr" v="1078560" />
		<tag k="ssr:type" v="adressenavn" />
	</node>
	<node lat="62.03580693887767" lon="5.531318748410169" id="-5385">
		<tag k="name" v="Dalavegen" />
		<tag k="ssr:date" v="2020-10-15" />
		<tag k="ssr:gruppe" v="veg" />
		<tag k="ssr:hovedgruppe" v="infrastruktur" />
		<tag k="ssr:stedsnr" v="1078561" />
		<tag k="ssr:type" v="adressenavn" />
	</node>
	<node lat="62.03038484763967" lon="5.528029081905543" id="-5402">
		<tag k="name" v="Nedrevegen" />
		<tag k="ssr:date" v="2020-11-03" />
		<tag k="ssr:gruppe" v="veg" />
		<tag k="ssr:hovedgruppe" v="infrastruktur" />
		<tag k="ssr:stedsnr" v="1078811" />
		<tag k="ssr:type" v="adressenavn" />
	</node>
	<node lat="62.04003305903752" lon="5.53150172600401" id="-5403">
		<tag k="name" v="Øvre Åheimslida" />
		<tag k="ssr:date" v="2020-11-03" />
		<tag k="ssr:gruppe" v="veg" />
		<tag k="ssr:hovedgruppe" v="infrastruktur" />
		<tag k="ssr:stedsnr" v="1078810" />
		<tag k="ssr:type" v="adressenavn" />
	</node>
	<node lat="62.093195493285045" lon="5.747351754309492" id="-5404">
		<tag k="name" v="Norddalsvegen" />
		<tag k="ssr:date" v="2020-11-03" />
		<tag k="ssr:gruppe" v="veg" />
		<tag k="ssr:hovedgruppe" v="infrastruktur" />
		<tag k="ssr:stedsnr" v="1078813" />
		<tag k="ssr:type" v="adressenavn" />
	</node>
	<node lat="62.03008164595836" lon="5.528121064246704" id="-5405">
		<tag k="name" v="Sjurledet" />
		<tag k="ssr:date" v="2020-11-03" />
		<tag k="ssr:gruppe" v="veg" />
		<tag k="ssr:hovedgruppe" v="infrastruktur" />
		<tag k="ssr:stedsnr" v="1078812" />
		<tag k="ssr:type" v="adressenavn" />
	</node>
	<node lat="62.129850209063605" lon="5.695708590224916" id="-5406">
		<tag k="name" v="Skår" />
		<tag k="ssr:date" v="2020-12-03" />
		<tag k="ssr:gruppe" v="veg" />
		<tag k="ssr:hovedgruppe" v="infrastruktur" />
		<tag k="ssr:stedsnr" v="1079159" />
		<tag k="ssr:type" v="adressenavn" />
	</node>
	<node lat="62.086283170253644" lon="5.575820722881811" id="-5407">
		<tag k="name" v="Tunheimsfjøra" />
		<tag k="ssr:date" v="2021-04-12" />
		<tag k="ssr:gruppe" v="veg" />
		<tag k="ssr:hovedgruppe" v="infrastruktur" />
		<tag k="ssr:stedsnr" v="1080773" />
		<tag k="ssr:type" v="adressenavn" />
	</node>
	<node lat="62.0931529983173" lon="5.747645745809132" id="-5415">
		<tag k="name" v="Øvstegardsvegen" />
		<tag k="ssr:date" v="2021-03-10" />
		<tag k="ssr:gruppe" v="veg" />
		<tag k="ssr:hovedgruppe" v="infrastruktur" />
		<tag k="ssr:stedsnr" v="1080350" />
		<tag k="ssr:type" v="adressenavn" />
	</node>
	<node lat="62.14405853730804" lon="5.667008502358703" id="-5416">
		<tag k="name" v="Sandnesdalen" />
		<tag k="ssr:date" v="2021-03-10" />
		<tag k="ssr:gruppe" v="veg" />
		<tag k="ssr:hovedgruppe" v="infrastruktur" />
		<tag k="ssr:stedsnr" v="1080352" />
		<tag k="ssr:type" v="adressenavn" />
	</node>
	<node lat="62.04441685689895" lon="5.6958637812360395" id="-5417">
		<tag k="name" v="Kilebrekkvegen" />
		<tag k="ssr:date" v="2021-03-10" />
		<tag k="ssr:gruppe" v="veg" />
		<tag k="ssr:hovedgruppe" v="infrastruktur" />
		<tag k="ssr:stedsnr" v="1080351" />
		<tag k="ssr:type" v="adressenavn" />
	</node>
	<node lat="62.10374347658324" lon="5.559601975815412" id="-5418">
		<tag k="name" v="Fredsvollskogen" />
		<tag k="ssr:date" v="2021-03-10" />
		<tag k="ssr:gruppe" v="veg" />
		<tag k="ssr:hovedgruppe" v="infrastruktur" />
		<tag k="ssr:stedsnr" v="1080353" />
		<tag k="ssr:type" v="adressenavn" />
	</node>
	<node lat="61.982818734106594" lon="5.507239082928233" id="-5419">
		<tag k="name" v="Beksle" />
		<tag k="ssr:date" v="2021-03-10" />
		<tag k="ssr:gruppe" v="veg" />
		<tag k="ssr:hovedgruppe" v="infrastruktur" />
		<tag k="ssr:stedsnr" v="1080357" />
		<tag k="ssr:type" v="adressenavn" />
	</node>
	<node lat="62.16002878576309" lon="5.446880002278588" id="-5420">
		<tag k="name" v="Hakallegrenda" />
		<tag k="ssr:date" v="2021-03-10" />
		<tag k="ssr:gruppe" v="veg" />
		<tag k="ssr:hovedgruppe" v="infrastruktur" />
		<tag k="ssr:stedsnr" v="1080354" />
		<tag k="ssr:type" v="adressenavn" />
	</node>
	<node lat="62.158959205742825" lon="5.443093761799517" id="-5421">
		<tag k="name" v="Andersbakken" />
		<tag k="ssr:date" v="2021-03-10" />
		<tag k="ssr:gruppe" v="veg" />
		<tag k="ssr:hovedgruppe" v="infrastruktur" />
		<tag k="ssr:stedsnr" v="1080355" />
		<tag k="ssr:type" v="adressenavn" />
	</node>
	<node lat="62.158900750879866" lon="5.444245735525802" id="-5422">
		<tag k="name" v="Johannesbakken" />
		<tag k="ssr:date" v="2021-03-10" />
		<tag k="ssr:gruppe" v="veg" />
		<tag k="ssr:hovedgruppe" v="infrastruktur" />
		<tag k="ssr:stedsnr" v="1080356" />
		<tag k="ssr:type" v="adressenavn" />
	</node>
	<node lat="61.99739752909288" lon="5.655942231233694" id="-5423">
		<tag k="name" v="Rotavegen" />
		<tag k="ssr:date" v="2021-03-10" />
		<tag k="ssr:gruppe" v="veg" />
		<tag k="ssr:hovedgruppe" v="infrastruktur" />
		<tag k="ssr:stedsnr" v="1080359" />
		<tag k="ssr:type" v="adressenavn" />
	</node>
	<node lat="62.14882546173611" lon="5.427086396994195" id="-5428">
		<tag k="name" v="Molvika" />
		<tag k="old_name" v="Molvik" />
		<tag k="ssr:date" v="2021-07-01" />
		<tag k="ssr:gruppe" v="veg" />
		<tag k="ssr:hovedgruppe" v="infrastruktur" />
		<tag k="ssr:stedsnr" v="1081730" />
		<tag k="ssr:type" v="adressenavn" />
	</node>
	<node lat="62.002263969937594" lon="5.5720210473645855" id="-5429">
		<tag k="name" v="Gamlesætervegen" />
		<tag k="ssr:date" v="2021-07-01" />
		<tag k="ssr:gruppe" v="veg" />
		<tag k="ssr:hovedgruppe" v="infrastruktur" />
		<tag k="ssr:stedsnr" v="1081731" />
		<tag k="ssr:type" v="adressenavn" />
	</node>
	<node lat="62.07899550117242" lon="5.740308241075586" id="-5430">
		<tag k="name" v="Røfsdalsvegen" />
		<tag k="ssr:date" v="2021-08-04" />
		<tag k="ssr:gruppe" v="veg" />
		<tag k="ssr:hovedgruppe" v="infrastruktur" />
		<tag k="ssr:stedsnr" v="1081842" />
		<tag k="ssr:type" v="adressenavn" />
	</node>
</osm>
