<?xml version="1.0" encoding="UTF-8"?>
<osm version="0.6" generator="osmapis">
	<node lat="59.304550002463785" lon="4.8597305637322075" id="-3943">
		<tag k="alt_name" v="Helganesvik" />
		<tag k="name" v="Helganesvika" />
		<tag k="natural" v="bay" />
		<tag k="ssr:date" v="2016-05-10" />
		<tag k="ssr:gruppe" v="kystkontur" />
		<tag k="ssr:hovedgruppe" v="sjø" />
		<tag k="ssr:stedsnr" v="2713" />
		<tag k="ssr:type" v="vikISjø" />
	</node>
	<node lat="59.291036113091316" lon="4.897163891297084" id="-3944">
		<tag k="alt_name" v="stora Seiskjer" />
		<tag k="fixme" v="consider seamark:type=rock or natural=shoal" />
		<tag k="name" v="Storaskjeret" />
		<tag k="place" v="islet" />
		<tag k="ssr:date" v="2016-05-10" />
		<tag k="ssr:gruppe" v="grunnerISjø" />
		<tag k="ssr:hovedgruppe" v="sjø" />
		<tag k="ssr:stedsnr" v="2726" />
		<tag k="ssr:type" v="skjærISjø" />
	</node>
	<node lat="59.27088610956858" lon="4.848569450785563" id="-3945">
		<tag k="fixme" v="consider seamark:type=rock or natural=shoal" />
		<tag k="name" v="Lausingssnajet" />
		<tag k="place" v="islet" />
		<tag k="ssr:date" v="2016-05-10" />
		<tag k="ssr:gruppe" v="grunnerISjø" />
		<tag k="ssr:hovedgruppe" v="sjø" />
		<tag k="ssr:stedsnr" v="27621" />
		<tag k="ssr:type" v="skjærISjø" />
	</node>
	<node lat="59.316227780169804" lon="4.896088884915825" id="-3946">
		<tag k="name" v="Breimyr" />
		<tag k="natural" v="wetland" />
		<tag k="ssr:date" v="2016-05-10" />
		<tag k="ssr:gruppe" v="våtmark" />
		<tag k="ssr:hovedgruppe" v="markslag" />
		<tag k="ssr:stedsnr" v="27623" />
		<tag k="ssr:type" v="myr" />
	</node>
	<node lat="59.26618055099577" lon="4.87220555159492" id="-3947">
		<tag k="name" v="Skallen" />
		<tag k="natural" v="shoal" />
		<tag k="place" v="locality" />
		<tag k="ssr:date" v="2016-05-10" />
		<tag k="ssr:gruppe" v="grunnerISjø" />
		<tag k="ssr:hovedgruppe" v="sjø" />
		<tag k="ssr:stedsnr" v="63728" />
		<tag k="ssr:type" v="grunneISjø" />
	</node>
	<node lat="59.31346667101839" lon="4.862066673441139" id="-3948">
		<tag k="alt_name" v="Krossbergsvika vestra" />
		<tag k="name" v="Vestra Krossbergsvika" />
		<tag k="natural" v="bay" />
		<tag k="ssr:date" v="2016-05-10" />
		<tag k="ssr:gruppe" v="kystkontur" />
		<tag k="ssr:hovedgruppe" v="sjø" />
		<tag k="ssr:stedsnr" v="87578" />
		<tag k="ssr:type" v="vikISjø" />
	</node>
	<node lat="59.30341944070012" lon="4.9208222241288135" id="-3949">
		<tag k="name" v="Skardholmflua" />
		<tag k="natural" v="shoal" />
		<tag k="place" v="locality" />
		<tag k="ssr:date" v="2016-05-10" />
		<tag k="ssr:gruppe" v="grunnerISjø" />
		<tag k="ssr:hovedgruppe" v="sjø" />
		<tag k="ssr:stedsnr" v="87912" />
		<tag k="ssr:type" v="grunneISjø" />
	</node>
	<node lat="59.30095277787402" lon="4.8733527700372115" id="-3950">
		<tag k="name" v="Grønhelletuå" />
		<tag k="natural" v="hill" />
		<tag k="place" v="locality" />
		<tag k="ssr:date" v="2016-05-10" />
		<tag k="ssr:gruppe" v="høyder" />
		<tag k="ssr:hovedgruppe" v="terreng" />
		<tag k="ssr:stedsnr" v="87916" />
		<tag k="ssr:type" v="haug" />
	</node>
	<node lat="59.29681944758611" lon="4.91503889312228" id="-3951">
		<tag k="name" v="Grunneflua" />
		<tag k="natural" v="shoal" />
		<tag k="place" v="locality" />
		<tag k="ssr:date" v="2016-05-10" />
		<tag k="ssr:gruppe" v="grunnerISjø" />
		<tag k="ssr:hovedgruppe" v="sjø" />
		<tag k="ssr:stedsnr" v="87917" />
		<tag k="ssr:type" v="grunneISjø" />
	</node>
	<node lat="59.28939999536253" lon="4.846894436426804" id="-3952">
		<tag k="name" v="Holmegrunka" />
		<tag k="natural" v="shoal" />
		<tag k="place" v="locality" />
		<tag k="ssr:date" v="2016-05-10" />
		<tag k="ssr:gruppe" v="grunnerISjø" />
		<tag k="ssr:hovedgruppe" v="sjø" />
		<tag k="ssr:stedsnr" v="87918" />
		<tag k="ssr:type" v="grunneISjø" />
	</node>
	<node lat="59.30481666375698" lon="4.891486107385672" id="-3953">
		<tag k="name" v="Håbjørg" />
		<tag k="natural" v="hill" />
		<tag k="place" v="locality" />
		<tag k="ssr:date" v="2016-05-10" />
		<tag k="ssr:gruppe" v="høyder" />
		<tag k="ssr:hovedgruppe" v="terreng" />
		<tag k="ssr:stedsnr" v="87921" />
		<tag k="ssr:type" v="haug" />
	</node>
	<node lat="59.31497222530485" lon="4.874261108530562" id="-3954">
		<tag k="alt_name" v="Skjevik" />
		<tag k="name" v="Skjevika" />
		<tag k="natural" v="bay" />
		<tag k="ssr:date" v="2016-05-10" />
		<tag k="ssr:gruppe" v="kystkontur" />
		<tag k="ssr:hovedgruppe" v="sjø" />
		<tag k="ssr:stedsnr" v="245694" />
		<tag k="ssr:type" v="vikISjø" />
	</node>
	<node lat="59.30511110733757" lon="4.857594440148341" id="-3955">
		<tag k="alt_name" v="Helganes" />
		<tag k="name" v="Helganeset" />
		<tag k="natural" v="cape" />
		<tag k="ssr:date" v="2016-05-10" />
		<tag k="ssr:gruppe" v="kystkontur" />
		<tag k="ssr:hovedgruppe" v="sjø" />
		<tag k="ssr:stedsnr" v="245698" />
		<tag k="ssr:type" v="nesISjø" />
	</node>
	<node lat="59.30687778030735" lon="4.9143777800948465" id="-3956">
		<tag k="name" v="Himmeriksboen" />
		<tag k="natural" v="shoal" />
		<tag k="place" v="locality" />
		<tag k="ssr:date" v="2016-05-10" />
		<tag k="ssr:gruppe" v="grunnerISjø" />
		<tag k="ssr:hovedgruppe" v="sjø" />
		<tag k="ssr:stedsnr" v="147916" />
		<tag k="ssr:type" v="grunneISjø" />
	</node>
	<node lat="59.288955559569324" lon="4.902294451062083" id="-3957">
		<tag k="name" v="Skjærflua" />
		<tag k="natural" v="shoal" />
		<tag k="place" v="locality" />
		<tag k="ssr:date" v="2016-05-10" />
		<tag k="ssr:gruppe" v="grunnerISjø" />
		<tag k="ssr:hovedgruppe" v="sjø" />
		<tag k="ssr:stedsnr" v="147923" />
		<tag k="ssr:type" v="grunneISjø" />
	</node>
	<node lat="59.308258332149734" lon="4.856302782891888" id="-3958">
		<tag k="fixme" v="consider seamark:type=rock or natural=shoal" />
		<tag k="name" v="Helganeskrono" />
		<tag k="place" v="islet" />
		<tag k="ssr:date" v="2016-05-10" />
		<tag k="ssr:gruppe" v="grunnerISjø" />
		<tag k="ssr:hovedgruppe" v="sjø" />
		<tag k="ssr:stedsnr" v="148615" />
		<tag k="ssr:type" v="skjærISjø" />
	</node>
	<node lat="59.303947221715966" lon="4.91388888273544" id="-3959">
		<tag k="alt_name" v="Terneklubben" />
		<tag k="name" v="Tedneklubben" />
		<tag k="natural" v="cape" />
		<tag k="ssr:date" v="2016-05-10" />
		<tag k="ssr:gruppe" v="kystkontur" />
		<tag k="ssr:hovedgruppe" v="sjø" />
		<tag k="ssr:stedsnr" v="148618" />
		<tag k="ssr:type" v="nesISjø" />
	</node>
	<node lat="59.27563333369953" lon="4.847977775926424" id="-3960">
		<tag k="name" v="Lausingboen" />
		<tag k="natural" v="shoal" />
		<tag k="place" v="locality" />
		<tag k="ssr:date" v="2016-05-10" />
		<tag k="ssr:gruppe" v="grunnerISjø" />
		<tag k="ssr:hovedgruppe" v="sjø" />
		<tag k="ssr:stedsnr" v="269092" />
		<tag k="ssr:type" v="grunneISjø" />
	</node>
	<node lat="59.29477777545156" lon="4.89761945122179" id="-3961">
		<tag k="name" v="Beiningssundet" />
		<tag k="natural" v="strait" />
		<tag k="ssr:date" v="2016-05-10" />
		<tag k="ssr:gruppe" v="kystkontur" />
		<tag k="ssr:hovedgruppe" v="sjø" />
		<tag k="ssr:stedsnr" v="209635" />
		<tag k="ssr:type" v="sundISjø" />
	</node>
	<node lat="59.31295833154114" lon="4.877941664066316" id="-3962">
		<tag k="name" v="Gullberg" />
		<tag k="natural" v="hill" />
		<tag k="place" v="locality" />
		<tag k="ssr:date" v="2016-05-10" />
		<tag k="ssr:gruppe" v="høyder" />
		<tag k="ssr:hovedgruppe" v="terreng" />
		<tag k="ssr:stedsnr" v="209588" />
		<tag k="ssr:type" v="berg" />
	</node>
	<node lat="59.29385833755965" lon="4.899927768827841" id="-3963">
		<tag k="name" v="Kalven" />
		<tag k="place" v="islet" />
		<tag k="ssr:date" v="2016-05-10" />
		<tag k="ssr:gruppe" v="kystkontur" />
		<tag k="ssr:hovedgruppe" v="sjø" />
		<tag k="ssr:stedsnr" v="209590" />
		<tag k="ssr:type" v="holmeISjø" />
	</node>
	<node lat="59.306852779121186" lon="4.863291661290507" id="-3964">
		<tag k="name" v="Breimyr" />
		<tag k="natural" v="wetland" />
		<tag k="ssr:date" v="2016-05-10" />
		<tag k="ssr:gruppe" v="våtmark" />
		<tag k="ssr:hovedgruppe" v="markslag" />
		<tag k="ssr:stedsnr" v="209593" />
		<tag k="ssr:type" v="myr" />
	</node>
	<node lat="59.31445277871213" lon="4.864105557698755" id="-3965">
		<tag k="alt_name" v="Krossbergsvika austra" />
		<tag k="name" v="Austra Krossbergsvika" />
		<tag k="natural" v="bay" />
		<tag k="ssr:date" v="2016-05-10" />
		<tag k="ssr:gruppe" v="kystkontur" />
		<tag k="ssr:hovedgruppe" v="sjø" />
		<tag k="ssr:stedsnr" v="209597" />
		<tag k="ssr:type" v="vikISjø" />
	</node>
	<node lat="59.29712499921404" lon="4.874013882070636" id="-3966">
		<tag k="name" v="Grensvika" />
		<tag k="natural" v="bay" />
		<tag k="ssr:date" v="2016-05-10" />
		<tag k="ssr:gruppe" v="kystkontur" />
		<tag k="ssr:hovedgruppe" v="sjø" />
		<tag k="ssr:stedsnr" v="269634" />
		<tag k="ssr:type" v="vikISjø" />
	</node>
	<node lat="59.282897221356755" lon="4.845608338966174" id="-3967">
		<tag k="name" v="Portugiserkloven" />
		<tag k="natural" v="bay" />
		<tag k="ssr:date" v="2016-05-10" />
		<tag k="ssr:gruppe" v="kystkontur" />
		<tag k="ssr:hovedgruppe" v="sjø" />
		<tag k="ssr:stedsnr" v="269597" />
		<tag k="ssr:type" v="vikISjø" />
	</node>
	<node lat="59.31978611285718" lon="4.897683324845288" id="-3968">
		<tag k="name" v="Humrakloven" />
		<tag k="natural" v="cape" />
		<tag k="ssr:date" v="2016-05-10" />
		<tag k="ssr:gruppe" v="kystkontur" />
		<tag k="ssr:hovedgruppe" v="sjø" />
		<tag k="ssr:stedsnr" v="269600" />
		<tag k="ssr:type" v="nesISjø" />
	</node>
	<node lat="59.29001666470967" lon="4.8917249925945185" id="-3969">
		<tag k="name" v="Vindballflua" />
		<tag k="natural" v="shoal" />
		<tag k="place" v="locality" />
		<tag k="ssr:date" v="2016-05-10" />
		<tag k="ssr:gruppe" v="grunnerISjø" />
		<tag k="ssr:hovedgruppe" v="sjø" />
		<tag k="ssr:stedsnr" v="269933" />
		<tag k="ssr:type" v="grunneISjø" />
	</node>
	<node lat="59.29412500188102" lon="4.893249998507812" id="-3970">
		<tag k="fixme" v="consider seamark:type=rock or natural=shoal" />
		<tag k="name" v="Litle Tresskjeret" />
		<tag k="place" v="islet" />
		<tag k="ssr:date" v="2016-05-10" />
		<tag k="ssr:gruppe" v="grunnerISjø" />
		<tag k="ssr:hovedgruppe" v="sjø" />
		<tag k="ssr:stedsnr" v="330666" />
		<tag k="ssr:type" v="skjærISjø" />
	</node>
	<node lat="59.31224721844456" lon="4.893891672420149" id="-3972">
		<tag k="name" v="Langemyr" />
		<tag k="natural" v="wetland" />
		<tag k="ssr:date" v="2016-05-10" />
		<tag k="ssr:gruppe" v="våtmark" />
		<tag k="ssr:hovedgruppe" v="markslag" />
		<tag k="ssr:stedsnr" v="451597" />
		<tag k="ssr:type" v="myr" />
	</node>
	<node lat="59.314702773274625" lon="4.892447219261069" id="-3973">
		<tag k="alt_name" v="Vågefjell" />
		<tag k="fixme" v="consider natural=peak for the most distinct mountains in the district" />
		<tag k="name" v="Vågafjell" />
		<tag k="natural" v="hill" />
		<tag k="place" v="locality" />
		<tag k="ssr:date" v="2016-05-10" />
		<tag k="ssr:gruppe" v="høyder" />
		<tag k="ssr:hovedgruppe" v="terreng" />
		<tag k="ssr:stedsnr" v="451598" />
		<tag k="ssr:type" v="ås" />
	</node>
	<node lat="59.295902778006564" lon="4.883422215122823" id="-3974">
		<tag k="name" v="Åkerfall" />
		<tag k="natural" v="hill" />
		<tag k="place" v="locality" />
		<tag k="ssr:date" v="2016-05-10" />
		<tag k="ssr:gruppe" v="høyder" />
		<tag k="ssr:hovedgruppe" v="terreng" />
		<tag k="ssr:stedsnr" v="451632" />
		<tag k="ssr:type" v="berg" />
	</node>
	<node lat="59.29501666419348" lon="4.885088890557043" id="-3975">
		<tag k="name" v="Turravika" />
		<tag k="natural" v="bay" />
		<tag k="ssr:date" v="2016-05-10" />
		<tag k="ssr:gruppe" v="kystkontur" />
		<tag k="ssr:hovedgruppe" v="sjø" />
		<tag k="ssr:stedsnr" v="451633" />
		<tag k="ssr:type" v="vikISjø" />
	</node>
	<node lat="59.271858330564996" lon="4.847774992893024" id="-3976">
		<tag k="name" v="Lausingen" />
		<tag k="place" v="islet" />
		<tag k="ssr:date" v="2016-05-10" />
		<tag k="ssr:gruppe" v="kystkontur" />
		<tag k="ssr:hovedgruppe" v="sjø" />
		<tag k="ssr:stedsnr" v="245705" />
		<tag k="ssr:type" v="holmeISjø" />
	</node>
	<node lat="59.30231388979487" lon="4.902555554952666" id="-3977">
		<tag k="name" v="Lynghidler" />
		<tag k="place" v="locality" />
		<tag k="ssr:date" v="2016-05-10" />
		<tag k="ssr:gruppe" v="dyrkamark" />
		<tag k="ssr:hovedgruppe" v="markslag" />
		<tag k="ssr:stedsnr" v="452628" />
		<tag k="ssr:type" v="utmark" />
	</node>
	<node lat="59.30557777423654" lon="4.886408340203653" id="-3978">
		<tag k="amenity" v="community_centre" />
		<tag k="name" v="Siratun" />
		<tag k="ssr:date" v="2016-05-10" />
		<tag k="ssr:gruppe" v="kulturinstitusjoner" />
		<tag k="ssr:hovedgruppe" v="kultur" />
		<tag k="ssr:stedsnr" v="452629" />
		<tag k="ssr:type" v="forsamlingshusKulturhus" />
	</node>
	<node lat="59.298472220427456" lon="4.905324994324944" id="-3979">
		<tag k="name" v="Spekkvika" />
		<tag k="natural" v="bay" />
		<tag k="ssr:date" v="2016-05-10" />
		<tag k="ssr:gruppe" v="kystkontur" />
		<tag k="ssr:hovedgruppe" v="sjø" />
		<tag k="ssr:stedsnr" v="452647" />
		<tag k="ssr:type" v="vikISjø" />
	</node>
	<node lat="59.31861111116722" lon="4.890063881677179" id="-3981">
		<tag k="alt_name" v="Endrevik" />
		<tag k="name" v="Indrevik" />
		<tag k="natural" v="bay" />
		<tag k="ssr:date" v="2016-05-10" />
		<tag k="ssr:gruppe" v="kystkontur" />
		<tag k="ssr:hovedgruppe" v="sjø" />
		<tag k="ssr:stedsnr" v="269603" />
		<tag k="ssr:type" v="vikISjø" />
	</node>
	<node lat="59.31582221982333" lon="4.908966665163762" id="-3982">
		<tag k="name" v="Barmesholmen" />
		<tag k="natural" v="cape" />
		<tag k="ssr:date" v="2016-05-10" />
		<tag k="ssr:gruppe" v="kystkontur" />
		<tag k="ssr:hovedgruppe" v="sjø" />
		<tag k="ssr:stedsnr" v="269606" />
		<tag k="ssr:type" v="halvøyISjø" />
	</node>
	<node lat="59.30505278153907" lon="4.896058330985585" id="-3983">
		<tag k="fixme" v="consider natural=peak for the most distinct mountains in the district" />
		<tag k="name" v="Tormofjell" />
		<tag k="natural" v="hill" />
		<tag k="place" v="locality" />
		<tag k="ssr:date" v="2016-05-10" />
		<tag k="ssr:gruppe" v="høyder" />
		<tag k="ssr:hovedgruppe" v="terreng" />
		<tag k="ssr:stedsnr" v="269610" />
		<tag k="ssr:type" v="ås" />
	</node>
	<node lat="59.301461112395245" lon="4.895808335373245" id="-3984">
		<tag k="name" v="Træhojen" />
		<tag k="natural" v="hill" />
		<tag k="place" v="locality" />
		<tag k="ssr:date" v="2016-05-10" />
		<tag k="ssr:gruppe" v="høyder" />
		<tag k="ssr:hovedgruppe" v="terreng" />
		<tag k="ssr:stedsnr" v="269612" />
		<tag k="ssr:type" v="haug" />
	</node>
	<node lat="59.315494440586754" lon="4.909050004741438" id="-3985">
		<tag k="name" v="Bermesholmen" />
		<tag k="natural" v="cape" />
		<tag k="ssr:date" v="2016-05-10" />
		<tag k="ssr:gruppe" v="kystkontur" />
		<tag k="ssr:hovedgruppe" v="sjø" />
		<tag k="ssr:stedsnr" v="329925" />
		<tag k="ssr:type" v="nesISjø" />
	</node>
	<node lat="59.318794444602325" lon="4.873305557402403" id="-3986">
		<tag k="fixme" v="consider seamark:type=rock or natural=shoal" />
		<tag k="name" v="Seiavågskjeret" />
		<tag k="place" v="islet" />
		<tag k="ssr:date" v="2016-05-10" />
		<tag k="ssr:gruppe" v="grunnerISjø" />
		<tag k="ssr:hovedgruppe" v="sjø" />
		<tag k="ssr:stedsnr" v="330606" />
		<tag k="ssr:type" v="skjærISjø" />
	</node>
	<node lat="59.301203328731255" lon="4.889554422572851" id="-3987">
		<tag k="alt_name" v="Skarde" />
		<tag k="fixme" v="consider place=hamlet" />
		<tag k="name" v="Skare" />
		<tag k="place" v="farm" />
		<tag k="ssr:date" v="2019-03-27" />
		<tag k="ssr:gruppe" v="gardsbebyggelse" />
		<tag k="ssr:hovedgruppe" v="bebyggelse" />
		<tag k="ssr:stedsnr" v="330614" />
		<tag k="ssr:type" v="gard" />
	</node>
	<node lat="59.30325981773763" lon="4.889382126574579" id="-3988">
		<tag k="fixme" v="consider place=hamlet" />
		<tag k="name" v="Hovland" />
		<tag k="place" v="farm" />
		<tag k="ssr:date" v="2019-06-26" />
		<tag k="ssr:gruppe" v="gardsbebyggelse" />
		<tag k="ssr:hovedgruppe" v="bebyggelse" />
		<tag k="ssr:stedsnr" v="330652" />
		<tag k="ssr:type" v="gard" />
	</node>
	<node lat="59.23082500029598" lon="5.122125008187732" id="-3990">
		<tag k="bay" v="fjord" />
		<tag k="name" v="Sirafjorden" />
		<tag k="natural" v="bay" />
		<tag k="ssr:date" v="2019-12-27" />
		<tag k="ssr:gruppe" v="farvann" />
		<tag k="ssr:hovedgruppe" v="sjø" />
		<tag k="ssr:stedsnr" v="365043" />
		<tag k="ssr:type" v="fjord" />
	</node>
	<node lat="59.318755557322135" lon="4.877333329922876" id="-3991">
		<tag k="alt_name" v="Pedleneset" />
		<tag k="name" v="Perleneset" />
		<tag k="natural" v="cape" />
		<tag k="ssr:date" v="2016-05-10" />
		<tag k="ssr:gruppe" v="kystkontur" />
		<tag k="ssr:hovedgruppe" v="sjø" />
		<tag k="ssr:stedsnr" v="366713" />
		<tag k="ssr:type" v="nesISjø" />
	</node>
	<node lat="59.294211109097766" lon="4.888919451825357" id="-3992">
		<tag k="name" v="Klovningssundet" />
		<tag k="natural" v="strait" />
		<tag k="ssr:date" v="2016-05-10" />
		<tag k="ssr:gruppe" v="kystkontur" />
		<tag k="ssr:hovedgruppe" v="sjø" />
		<tag k="ssr:stedsnr" v="390602" />
		<tag k="ssr:type" v="sundISjø" />
	</node>
	<node lat="59.304930552774834" lon="4.911099997084778" id="-3993">
		<tag k="name" v="Høga Berget" />
		<tag k="natural" v="hill" />
		<tag k="place" v="locality" />
		<tag k="ssr:date" v="2016-05-10" />
		<tag k="ssr:gruppe" v="høyder" />
		<tag k="ssr:hovedgruppe" v="terreng" />
		<tag k="ssr:stedsnr" v="390538" />
		<tag k="ssr:type" v="berg" />
	</node>
	<node lat="59.31138055278419" lon="4.871294447102436" id="-3994">
		<tag k="name" v="Tipphojen" />
		<tag k="natural" v="hill" />
		<tag k="place" v="locality" />
		<tag k="ssr:date" v="2016-05-10" />
		<tag k="ssr:gruppe" v="høyder" />
		<tag k="ssr:hovedgruppe" v="terreng" />
		<tag k="ssr:stedsnr" v="390549" />
		<tag k="ssr:type" v="haug" />
	</node>
	<node lat="59.31352500365987" lon="4.8672777834467915" id="-3995">
		<tag k="name" v="Krossbarmen" />
		<tag k="place" v="locality" />
		<tag k="ssr:date" v="2016-05-10" />
		<tag k="ssr:gruppe" v="dyrkamark" />
		<tag k="ssr:hovedgruppe" v="markslag" />
		<tag k="ssr:stedsnr" v="390551" />
		<tag k="ssr:type" v="utmark" />
	</node>
	<node lat="59.269875000779315" lon="4.844727780311102" id="-3996">
		<tag k="name" v="Vestreflua" />
		<tag k="natural" v="shoal" />
		<tag k="place" v="locality" />
		<tag k="ssr:date" v="2016-05-10" />
		<tag k="ssr:gruppe" v="grunnerISjø" />
		<tag k="ssr:hovedgruppe" v="sjø" />
		<tag k="ssr:stedsnr" v="390934" />
		<tag k="ssr:type" v="grunneISjø" />
	</node>
	<node lat="59.29153333001735" lon="4.891688895975247" id="-3999">
		<tag k="alt_name" v="Vindballen" />
		<tag k="fixme" v="consider seamark:type=rock or natural=shoal" />
		<tag k="name" v="Store Vindball" />
		<tag k="place" v="islet" />
		<tag k="ssr:date" v="2016-05-10" />
		<tag k="ssr:gruppe" v="grunnerISjø" />
		<tag k="ssr:hovedgruppe" v="sjø" />
		<tag k="ssr:stedsnr" v="451616" />
		<tag k="ssr:type" v="skjærISjø" />
	</node>
	<node lat="59.299425003464954" lon="4.894513896612922" id="-4000">
		<tag k="alt_name" v="Tuvevågen" />
		<tag k="name" v="Tuevågen" />
		<tag k="natural" v="bay" />
		<tag k="ssr:date" v="2016-05-10" />
		<tag k="ssr:gruppe" v="kystkontur" />
		<tag k="ssr:hovedgruppe" v="sjø" />
		<tag k="ssr:stedsnr" v="451618" />
		<tag k="ssr:type" v="vikISjø" />
	</node>
	<node lat="59.303811109399994" lon="4.852733341954854" id="-4001">
		<tag k="name" v="Helganesboen" />
		<tag k="natural" v="shoal" />
		<tag k="place" v="locality" />
		<tag k="ssr:date" v="2016-05-10" />
		<tag k="ssr:gruppe" v="grunnerISjø" />
		<tag k="ssr:hovedgruppe" v="sjø" />
		<tag k="ssr:stedsnr" v="451934" />
		<tag k="ssr:type" v="grunneISjø" />
	</node>
	<node lat="59.31311944847573" lon="4.907808328198332" id="-4002">
		<tag k="name" v="Laksaklubben" />
		<tag k="natural" v="cape" />
		<tag k="ssr:date" v="2016-05-10" />
		<tag k="ssr:gruppe" v="kystkontur" />
		<tag k="ssr:hovedgruppe" v="sjø" />
		<tag k="ssr:stedsnr" v="512626" />
		<tag k="ssr:type" v="nesISjø" />
	</node>
	<node lat="59.29855833670003" lon="4.873019450045375" id="-4003">
		<tag k="name" v="Øygarden" />
		<tag k="place" v="locality" />
		<tag k="ssr:date" v="2016-05-10" />
		<tag k="ssr:gruppe" v="dyrkamark" />
		<tag k="ssr:hovedgruppe" v="markslag" />
		<tag k="ssr:stedsnr" v="512667" />
		<tag k="ssr:type" v="utmark" />
	</node>
	<node lat="59.297899999584295" lon="4.882769441020801" id="-4004">
		<tag k="name" v="Djupatrævika" />
		<tag k="natural" v="bay" />
		<tag k="ssr:date" v="2016-05-10" />
		<tag k="ssr:gruppe" v="kystkontur" />
		<tag k="ssr:hovedgruppe" v="sjø" />
		<tag k="ssr:stedsnr" v="512670" />
		<tag k="ssr:type" v="vikISjø" />
	</node>
	<node lat="59.310273887661666" lon="4.8589289203395785" id="-4005">
		<tag k="name" v="Ålavika" />
		<tag k="natural" v="bay" />
		<tag k="ssr:date" v="2018-05-04" />
		<tag k="ssr:gruppe" v="kystkontur" />
		<tag k="ssr:hovedgruppe" v="sjø" />
		<tag k="ssr:stedsnr" v="548708" />
		<tag k="ssr:type" v="vikISjø" />
	</node>
	<node lat="59.30961110758944" lon="4.8935444421935195" id="-4007">
		<tag k="name" v="Sjoardalen" />
		<tag k="natural" v="valley" />
		<tag k="place" v="locality" />
		<tag k="ssr:date" v="2016-05-10" />
		<tag k="ssr:gruppe" v="senkninger" />
		<tag k="ssr:hovedgruppe" v="terreng" />
		<tag k="ssr:stedsnr" v="572610" />
		<tag k="ssr:type" v="dal" />
	</node>
	<node lat="59.293097222036145" lon="4.887983341344692" id="-4008">
		<tag k="name" v="Ytre Klovningsholmen" />
		<tag k="place" v="islet" />
		<tag k="ssr:date" v="2016-05-11" />
		<tag k="ssr:gruppe" v="kystkontur" />
		<tag k="ssr:hovedgruppe" v="sjø" />
		<tag k="ssr:stedsnr" v="694500" />
		<tag k="ssr:type" v="holmeISjø" />
	</node>
	<node lat="59.30488888792891" lon="4.889249996008128" id="-4009">
		<tag k="fixme" v="consider natural=peak for the most distinct mountains in the district" />
		<tag k="name" v="Yrefjellet" />
		<tag k="natural" v="hill" />
		<tag k="place" v="locality" />
		<tag k="ssr:date" v="2016-05-11" />
		<tag k="ssr:gruppe" v="høyder" />
		<tag k="ssr:hovedgruppe" v="terreng" />
		<tag k="ssr:stedsnr" v="694592" />
		<tag k="ssr:type" v="ås" />
	</node>
	<node lat="59.31670555175623" lon="4.88248611098386" id="-4010">
		<tag k="name" v="Mikkelett" />
		<tag k="natural" v="cape" />
		<tag k="ssr:date" v="2016-05-11" />
		<tag k="ssr:gruppe" v="kystkontur" />
		<tag k="ssr:hovedgruppe" v="sjø" />
		<tag k="ssr:stedsnr" v="694554" />
		<tag k="ssr:type" v="nesISjø" />
	</node>
	<node lat="59.30826944423482" lon="4.867238882282765" id="-4011">
		<tag k="alt_name" v="Kvilhaug" />
		<tag k="name" v="Kvithaug" />
		<tag k="natural" v="hill" />
		<tag k="place" v="locality" />
		<tag k="ssr:date" v="2016-05-11" />
		<tag k="ssr:gruppe" v="høyder" />
		<tag k="ssr:hovedgruppe" v="terreng" />
		<tag k="ssr:stedsnr" v="694564" />
		<tag k="ssr:type" v="haug" />
	</node>
	<node lat="59.3011666675537" lon="4.86176666442752" id="-4012">
		<tag k="fixme" v="consider seamark:type=rock or natural=shoal" />
		<tag k="name" v="Søra Vågadalsskjeret" />
		<tag k="place" v="islet" />
		<tag k="ssr:date" v="2016-05-10" />
		<tag k="ssr:gruppe" v="grunnerISjø" />
		<tag k="ssr:hovedgruppe" v="sjø" />
		<tag k="ssr:stedsnr" v="633604" />
		<tag k="ssr:type" v="skjærISjø" />
	</node>
	<node lat="59.28118333124461" lon="4.850663892775812" id="-4013">
		<tag k="fixme" v="consider seamark:type=rock or natural=shoal" />
		<tag k="name" v="Suleskjer" />
		<tag k="place" v="islet" />
		<tag k="ssr:date" v="2016-05-10" />
		<tag k="ssr:gruppe" v="grunnerISjø" />
		<tag k="ssr:hovedgruppe" v="sjø" />
		<tag k="ssr:stedsnr" v="633615" />
		<tag k="ssr:type" v="skjærISjø" />
	</node>
	<node lat="59.31825000388151" lon="4.875436115962837" id="-4014">
		<tag k="name" v="Seiavågen" />
		<tag k="natural" v="bay" />
		<tag k="ssr:date" v="2016-05-10" />
		<tag k="ssr:gruppe" v="kystkontur" />
		<tag k="ssr:hovedgruppe" v="sjø" />
		<tag k="ssr:stedsnr" v="633589" />
		<tag k="ssr:type" v="vikISjø" />
	</node>
	<node lat="59.298491670645554" lon="4.864124995829093" id="-4015">
		<tag k="alt_name" v="Ravelet" />
		<tag k="name" v="Ravele" />
		<tag k="place" v="islet" />
		<tag k="ssr:date" v="2016-05-10" />
		<tag k="ssr:gruppe" v="kystkontur" />
		<tag k="ssr:hovedgruppe" v="sjø" />
		<tag k="ssr:stedsnr" v="633591" />
		<tag k="ssr:type" v="holmeISjø" />
	</node>
	<node lat="59.30532777539088" lon="4.873666672725032" id="-4016">
		<tag k="alt_name" v="Araseto" />
		<tag k="name" v="Arasetet" />
		<tag k="natural" v="hill" />
		<tag k="place" v="locality" />
		<tag k="ssr:date" v="2016-05-10" />
		<tag k="ssr:gruppe" v="høyder" />
		<tag k="ssr:hovedgruppe" v="terreng" />
		<tag k="ssr:stedsnr" v="669712" />
		<tag k="ssr:type" v="haug" />
	</node>
	<node lat="59.31653888577425" lon="4.868927782040234" id="-4017">
		<tag k="name" v="Skaboen" />
		<tag k="natural" v="shoal" />
		<tag k="place" v="locality" />
		<tag k="ssr:date" v="2016-05-11" />
		<tag k="ssr:gruppe" v="grunnerISjø" />
		<tag k="ssr:hovedgruppe" v="sjø" />
		<tag k="ssr:stedsnr" v="693924" />
		<tag k="ssr:type" v="grunneISjø" />
	</node>
	<node lat="59.2968027769967" lon="4.903052782609041" id="-4018">
		<tag k="name" v="Håbergfluene" />
		<tag k="natural" v="shoal" />
		<tag k="place" v="locality" />
		<tag k="ssr:date" v="2016-05-11" />
		<tag k="ssr:gruppe" v="grunnerISjø" />
		<tag k="ssr:hovedgruppe" v="sjø" />
		<tag k="ssr:stedsnr" v="693927" />
		<tag k="ssr:type" v="grunneISjø" />
	</node>
	<node lat="59.28239721886935" lon="4.848875005857039" id="-4019">
		<tag k="name" v="Holmakøylo" />
		<tag k="place" v="islet" />
		<tag k="ssr:date" v="2016-05-11" />
		<tag k="ssr:gruppe" v="kystkontur" />
		<tag k="ssr:hovedgruppe" v="sjø" />
		<tag k="ssr:stedsnr" v="694569" />
		<tag k="ssr:type" v="holmeISjø" />
	</node>
	<node lat="59.310833333040215" lon="4.908349996067263" id="-4020">
		<tag k="alt_name" v="Molskjerne" />
		<tag k="fixme" v="consider seamark:type=rock or natural=shoal" />
		<tag k="name" v="Moldskjerne" />
		<tag k="place" v="islet" />
		<tag k="ssr:date" v="2016-05-11" />
		<tag k="ssr:gruppe" v="grunnerISjø" />
		<tag k="ssr:hovedgruppe" v="sjø" />
		<tag k="ssr:stedsnr" v="694578" />
		<tag k="ssr:type" v="skjærISjø" />
	</node>
	<node lat="59.31453055382005" lon="4.9083111071819765" id="-4021">
		<tag k="name" v="Søra Barmeskøyla" />
		<tag k="natural" v="cape" />
		<tag k="ssr:date" v="2016-05-11" />
		<tag k="ssr:gruppe" v="kystkontur" />
		<tag k="ssr:hovedgruppe" v="sjø" />
		<tag k="ssr:stedsnr" v="694582" />
		<tag k="ssr:type" v="nesISjø" />
	</node>
	<node lat="59.303852776098324" lon="4.90086667540572" id="-4025">
		<tag k="name" v="Duberg" />
		<tag k="natural" v="hill" />
		<tag k="place" v="locality" />
		<tag k="ssr:date" v="2016-05-11" />
		<tag k="ssr:gruppe" v="høyder" />
		<tag k="ssr:hovedgruppe" v="terreng" />
		<tag k="ssr:stedsnr" v="755616" />
		<tag k="ssr:type" v="berg" />
	</node>
	<node lat="59.30119444456542" lon="4.864994447498023" id="-4026">
		<tag k="alt_name" v="Jensavik" />
		<tag k="name" v="Jensavika" />
		<tag k="natural" v="bay" />
		<tag k="ssr:date" v="2016-05-11" />
		<tag k="ssr:gruppe" v="kystkontur" />
		<tag k="ssr:hovedgruppe" v="sjø" />
		<tag k="ssr:stedsnr" v="755598" />
		<tag k="ssr:type" v="vikISjø" />
	</node>
	<node lat="59.314713885067526" lon="4.8702222292652975" id="-4027">
		<tag k="name" v="Grøvedn" />
		<tag k="natural" v="cape" />
		<tag k="ssr:date" v="2016-05-11" />
		<tag k="ssr:gruppe" v="kystkontur" />
		<tag k="ssr:hovedgruppe" v="sjø" />
		<tag k="ssr:stedsnr" v="755600" />
		<tag k="ssr:type" v="nesISjø" />
	</node>
	<node lat="59.31353610794685" lon="4.885624997401299" id="-4029">
		<tag k="name" v="Nordvikvågen" />
		<tag k="natural" v="bay" />
		<tag k="ssr:date" v="2016-05-11" />
		<tag k="ssr:gruppe" v="kystkontur" />
		<tag k="ssr:hovedgruppe" v="sjø" />
		<tag k="ssr:stedsnr" v="791707" />
		<tag k="ssr:type" v="vikISjø" />
	</node>
	<node lat="59.310480559108136" lon="4.89808054712703" id="-4030">
		<tag k="name" v="Austmarka" />
		<tag k="place" v="locality" />
		<tag k="ssr:date" v="2016-05-11" />
		<tag k="ssr:gruppe" v="dyrkamark" />
		<tag k="ssr:hovedgruppe" v="markslag" />
		<tag k="ssr:stedsnr" v="791712" />
		<tag k="ssr:type" v="utmark" />
	</node>
	<node lat="59.30333333560513" lon="4.916363882672492" id="-4031">
		<tag k="alt_name" v="Skarholmen" />
		<tag k="name" v="Skardholmen" />
		<tag k="place" v="islet" />
		<tag k="ssr:date" v="2016-05-11" />
		<tag k="ssr:gruppe" v="kystkontur" />
		<tag k="ssr:hovedgruppe" v="sjø" />
		<tag k="ssr:stedsnr" v="791740" />
		<tag k="ssr:type" v="holmeISjø" />
	</node>
	<node lat="59.30006388489185" lon="4.909761113629072" id="-4032">
		<tag k="name" v="Skarvaneset" />
		<tag k="natural" v="cape" />
		<tag k="ssr:date" v="2016-05-11" />
		<tag k="ssr:gruppe" v="kystkontur" />
		<tag k="ssr:hovedgruppe" v="sjø" />
		<tag k="ssr:stedsnr" v="791742" />
		<tag k="ssr:type" v="nesISjø" />
	</node>
	<node lat="59.29793055641176" lon="4.90106944488803" id="-4033">
		<tag k="name" v="Skjevika" />
		<tag k="natural" v="bay" />
		<tag k="ssr:date" v="2016-05-11" />
		<tag k="ssr:gruppe" v="kystkontur" />
		<tag k="ssr:hovedgruppe" v="sjø" />
		<tag k="ssr:stedsnr" v="913594" />
		<tag k="ssr:type" v="vikISjø" />
	</node>
	<node lat="59.293591362349595" lon="4.888796246667835" id="-4034">
		<tag k="alt_name" v="Klovningsholmen" />
		<tag k="name" v="Klovningsholmane" />
		<tag k="place" v="islet" />
		<tag k="ssr:date" v="2017-11-30" />
		<tag k="ssr:gruppe" v="kystkontur" />
		<tag k="ssr:hovedgruppe" v="sjø" />
		<tag k="ssr:stedsnr" v="852710" />
		<tag k="ssr:type" v="holmeISjø" />
	</node>
	<node lat="59.307577774960414" lon="4.880802780515275" id="-4036">
		<tag k="name" v="Herberg" />
		<tag k="place" v="farm" />
		<tag k="ssr:date" v="2016-05-11" />
		<tag k="ssr:gruppe" v="gardsbebyggelse" />
		<tag k="ssr:hovedgruppe" v="bebyggelse" />
		<tag k="ssr:stedsnr" v="912727" />
		<tag k="ssr:type" v="bruk" />
	</node>
	<node lat="59.29729999974085" lon="4.868005551777213" id="-4037">
		<tag k="alt_name" v="Spannanes" />
		<tag k="name" v="Spannaneset" />
		<tag k="natural" v="cape" />
		<tag k="ssr:date" v="2016-05-11" />
		<tag k="ssr:gruppe" v="kystkontur" />
		<tag k="ssr:hovedgruppe" v="sjø" />
		<tag k="ssr:stedsnr" v="912749" />
		<tag k="ssr:type" v="nesISjø" />
	</node>
	<node lat="59.308124995672564" lon="4.88839444709944" id="-4038">
		<tag k="name" v="Utsira" />
		<tag k="place" v="island" />
		<tag k="ssr:date" v="2016-05-11" />
		<tag k="ssr:gruppe" v="kystkontur" />
		<tag k="ssr:hovedgruppe" v="sjø" />
		<tag k="ssr:stedsnr" v="912750" />
		<tag k="ssr:type" v="øyISjø" />
	</node>
	<node lat="59.31155277939161" lon="4.881633335025942" id="-4039">
		<tag k="name" v="Vestre Nordvik" />
		<tag k="place" v="farm" />
		<tag k="ssr:date" v="2016-05-11" />
		<tag k="ssr:gruppe" v="gardsbebyggelse" />
		<tag k="ssr:hovedgruppe" v="bebyggelse" />
		<tag k="ssr:stedsnr" v="937541" />
		<tag k="ssr:type" v="bruk" />
	</node>
	<node lat="59.295691667053774" lon="4.869050004757748" id="-4040">
		<tag k="alt_name" v="Spannanesholmane" />
		<tag k="name" v="Spannanesholmen" />
		<tag k="place" v="islet" />
		<tag k="ssr:date" v="2016-05-11" />
		<tag k="ssr:gruppe" v="kystkontur" />
		<tag k="ssr:hovedgruppe" v="sjø" />
		<tag k="ssr:stedsnr" v="937606" />
		<tag k="ssr:type" v="holmeISjø" />
	</node>
	<node lat="59.30338888636353" lon="4.912316665352571" id="-4041">
		<tag k="alt_name" v="norda Tressvika" />
		<tag k="name" v="Nordra Tressvika" />
		<tag k="natural" v="bay" />
		<tag k="ssr:date" v="2016-05-11" />
		<tag k="ssr:gruppe" v="kystkontur" />
		<tag k="ssr:hovedgruppe" v="sjø" />
		<tag k="ssr:stedsnr" v="937618" />
		<tag k="ssr:type" v="vikISjø" />
	</node>
	<node lat="59.302114611064134" lon="4.860609554677923" id="-4042">
		<tag k="alt_name" v="norda Vågadalsskjeret" />
		<tag k="fixme" v="consider seamark:type=rock or natural=shoal" />
		<tag k="name" v="Nordra Vågadalsskjeret" />
		<tag k="place" v="islet" />
		<tag k="ssr:date" v="2018-06-20" />
		<tag k="ssr:gruppe" v="grunnerISjø" />
		<tag k="ssr:hovedgruppe" v="sjø" />
		<tag k="ssr:stedsnr" v="937621" />
		<tag k="ssr:type" v="skjærISjø" />
	</node>
	<node lat="59.30169722484655" lon="4.9009361141362895" id="-4043">
		<tag k="name" v="Leito" />
		<tag k="place" v="farm" />
		<tag k="ssr:date" v="2016-05-11" />
		<tag k="ssr:gruppe" v="gardsbebyggelse" />
		<tag k="ssr:hovedgruppe" v="bebyggelse" />
		<tag k="ssr:stedsnr" v="937643" />
		<tag k="ssr:type" v="bruk" />
	</node>
	<node lat="59.29956944142318" lon="4.879902784223148" id="-4044">
		<tag k="name" v="Kvalvikvågen" />
		<tag k="natural" v="bay" />
		<tag k="ssr:date" v="2016-05-10" />
		<tag k="ssr:gruppe" v="kystkontur" />
		<tag k="ssr:hovedgruppe" v="sjø" />
		<tag k="ssr:stedsnr" v="2741" />
		<tag k="ssr:type" v="vikISjø" />
	</node>
	<node lat="59.30301110882549" lon="4.895013890981551" id="-4046">
		<tag k="name" v="Klopp" />
		<tag k="natural" v="hill" />
		<tag k="place" v="locality" />
		<tag k="ssr:date" v="2016-05-10" />
		<tag k="ssr:gruppe" v="høyder" />
		<tag k="ssr:hovedgruppe" v="terreng" />
		<tag k="ssr:stedsnr" v="27635" />
		<tag k="ssr:type" v="haug" />
	</node>
	<node lat="59.297447225102324" lon="4.896544442698023" id="-4047">
		<tag k="name" v="Golo" />
		<tag k="natural" v="slope" />
		<tag k="place" v="locality" />
		<tag k="ssr:date" v="2016-05-10" />
		<tag k="ssr:gruppe" v="skråninger" />
		<tag k="ssr:hovedgruppe" v="terreng" />
		<tag k="ssr:stedsnr" v="27645" />
		<tag k="ssr:type" v="li" />
	</node>
	<node lat="59.29793333008342" lon="4.9046333280462315" id="-4048">
		<tag k="fixme" v="consider seamark:type=rock or natural=shoal" />
		<tag k="name" v="Vakskjer" />
		<tag k="place" v="islet" />
		<tag k="ssr:date" v="2016-05-10" />
		<tag k="ssr:gruppe" v="grunnerISjø" />
		<tag k="ssr:hovedgruppe" v="sjø" />
		<tag k="ssr:stedsnr" v="27646" />
		<tag k="ssr:type" v="skjærISjø" />
	</node>
	<node lat="59.30894166382083" lon="4.906986103420003" id="-4049">
		<tag k="name" v="Tedneholmen" />
		<tag k="place" v="islet" />
		<tag k="ssr:date" v="2016-05-10" />
		<tag k="ssr:gruppe" v="kystkontur" />
		<tag k="ssr:hovedgruppe" v="sjø" />
		<tag k="ssr:stedsnr" v="27649" />
		<tag k="ssr:type" v="holmeISjø" />
	</node>
	<node lat="59.308152778908756" lon="4.907358331965052" id="-4050">
		<tag k="name" v="Tednevik" />
		<tag k="natural" v="bay" />
		<tag k="ssr:date" v="2016-05-10" />
		<tag k="ssr:gruppe" v="kystkontur" />
		<tag k="ssr:hovedgruppe" v="sjø" />
		<tag k="ssr:stedsnr" v="27651" />
		<tag k="ssr:type" v="vikISjø" />
	</node>
	<node lat="59.30051389028437" lon="4.89678611425698" id="-4051">
		<tag k="name" v="Sørvik" />
		<tag k="place" v="farm" />
		<tag k="ssr:date" v="2016-05-10" />
		<tag k="ssr:gruppe" v="gardsbebyggelse" />
		<tag k="ssr:hovedgruppe" v="bebyggelse" />
		<tag k="ssr:stedsnr" v="63735" />
		<tag k="ssr:type" v="bruk" />
	</node>
	<node lat="59.31055277853622" lon="4.901680556524411" id="-4052">
		<tag k="name" v="Tranheim" />
		<tag k="place" v="locality" />
		<tag k="ssr:date" v="2016-05-10" />
		<tag k="ssr:gruppe" v="dyrkamark" />
		<tag k="ssr:hovedgruppe" v="markslag" />
		<tag k="ssr:stedsnr" v="87590" />
		<tag k="ssr:type" v="utmark" />
	</node>
	<node lat="59.299947222785775" lon="4.865908338605221" id="-4053">
		<tag k="name" v="Spylakyrkja" />
		<tag k="natural" v="hill" />
		<tag k="place" v="locality" />
		<tag k="ssr:date" v="2016-05-10" />
		<tag k="ssr:gruppe" v="høyder" />
		<tag k="ssr:hovedgruppe" v="terreng" />
		<tag k="ssr:stedsnr" v="87568" />
		<tag k="ssr:type" v="berg" />
	</node>
	<node lat="59.287682076780534" lon="4.901037315022808" id="-4054">
		<tag k="fixme" v="multiple name tags, choose one and add the other to alt_name; consider seamark:type=rock or natural=shoal" />
		<tag k="name" v="Litlaskjeret;Litla Seiskjeret" />
		<tag k="place" v="islet" />
		<tag k="ssr:date" v="2018-05-04" />
		<tag k="ssr:gruppe" v="grunnerISjø" />
		<tag k="ssr:hovedgruppe" v="sjø" />
		<tag k="ssr:stedsnr" v="123757" />
		<tag k="ssr:type" v="skjærISjø" />
	</node>
	<node lat="59.3131944426724" lon="4.860338885703579" id="-4055">
		<tag k="name" v="Engelsbukta" />
		<tag k="natural" v="bay" />
		<tag k="ssr:date" v="2016-05-10" />
		<tag k="ssr:gruppe" v="kystkontur" />
		<tag k="ssr:hovedgruppe" v="sjø" />
		<tag k="ssr:stedsnr" v="148626" />
		<tag k="ssr:type" v="vikISjø" />
	</node>
	<node lat="59.31867499785284" lon="4.90153889637449" id="-4056">
		<tag k="name" v="Fattigmannshavn" />
		<tag k="natural" v="bay" />
		<tag k="ssr:date" v="2016-05-10" />
		<tag k="ssr:gruppe" v="kystkontur" />
		<tag k="ssr:hovedgruppe" v="sjø" />
		<tag k="ssr:stedsnr" v="148632" />
		<tag k="ssr:type" v="vikISjø" />
	</node>
	<node lat="59.30921944597761" lon="4.856469452707186" id="-4058">
		<tag k="name" v="Steffoskjer" />
		<tag k="natural" v="shoal" />
		<tag k="place" v="locality" />
		<tag k="ssr:date" v="2016-05-10" />
		<tag k="ssr:gruppe" v="grunnerISjø" />
		<tag k="ssr:hovedgruppe" v="sjø" />
		<tag k="ssr:stedsnr" v="208933" />
		<tag k="ssr:type" v="grunneISjø" />
	</node>
	<node lat="59.30203889101777" lon="4.889286103348435" id="-4059">
		<tag k="name" v="Skarshojen" />
		<tag k="natural" v="hill" />
		<tag k="place" v="locality" />
		<tag k="ssr:date" v="2016-05-10" />
		<tag k="ssr:gruppe" v="høyder" />
		<tag k="ssr:hovedgruppe" v="terreng" />
		<tag k="ssr:stedsnr" v="209619" />
		<tag k="ssr:type" v="haug" />
	</node>
	<node lat="59.301897137311286" lon="4.882313964742873" id="-4060">
		<tag k="fixme" v="consider place=hamlet" />
		<tag k="name" v="Kvalvik" />
		<tag k="place" v="farm" />
		<tag k="ssr:date" v="2019-03-27" />
		<tag k="ssr:gruppe" v="gardsbebyggelse" />
		<tag k="ssr:hovedgruppe" v="bebyggelse" />
		<tag k="ssr:stedsnr" v="305743" />
		<tag k="ssr:type" v="gard" />
	</node>
	<node lat="59.29386666615147" lon="4.897308334165871" id="-4061">
		<tag k="name" v="Beiningen" />
		<tag k="place" v="islet" />
		<tag k="ssr:date" v="2016-05-10" />
		<tag k="ssr:gruppe" v="kystkontur" />
		<tag k="ssr:hovedgruppe" v="sjø" />
		<tag k="ssr:stedsnr" v="305749" />
		<tag k="ssr:type" v="holmeISjø" />
	</node>
	<node lat="59.29766388675331" lon="4.897541663369843" id="-4062">
		<tag k="name" v="Haganeset" />
		<tag k="natural" v="cape" />
		<tag k="ssr:date" v="2016-05-10" />
		<tag k="ssr:gruppe" v="kystkontur" />
		<tag k="ssr:hovedgruppe" v="sjø" />
		<tag k="ssr:stedsnr" v="330670" />
		<tag k="ssr:type" v="nesISjø" />
	</node>
	<node lat="59.30935277716792" lon="4.902677781684519" id="-4063">
		<tag k="name" v="Stemmen" />
		<tag k="natural" v="wetland" />
		<tag k="ssr:date" v="2016-05-10" />
		<tag k="ssr:gruppe" v="våtmark" />
		<tag k="ssr:hovedgruppe" v="markslag" />
		<tag k="ssr:stedsnr" v="330672" />
		<tag k="ssr:type" v="myr" />
	</node>
	<node lat="59.309144446386576" lon="4.879127772191092" id="-4064">
		<tag k="fixme" v="consider natural=peak for the most distinct mountains in the district" />
		<tag k="name" v="Varen" />
		<tag k="natural" v="hill" />
		<tag k="place" v="locality" />
		<tag k="ssr:date" v="2016-05-10" />
		<tag k="ssr:gruppe" v="høyder" />
		<tag k="ssr:hovedgruppe" v="terreng" />
		<tag k="ssr:stedsnr" v="330674" />
		<tag k="ssr:type" v="ås" />
	</node>
	<node lat="59.30364999823891" lon="4.878327770948584" id="-4065">
		<tag k="name" v="Laugarvatnet" />
		<tag k="natural" v="water" />
		<tag k="ssr:date" v="2019-11-13" />
		<tag k="ssr:gruppe" v="stilleståendeVann" />
		<tag k="ssr:hovedgruppe" v="ferskvann" />
		<tag k="ssr:stedsnr" v="366718" />
		<tag k="ssr:type" v="vann" />
		<tag k="water" v="lake" />
	</node>
	<node lat="59.30605555289676" lon="4.8933333302071125" id="-4066">
		<tag k="alt_name" v="Børge" />
		<tag k="name" v="Børgje" />
		<tag k="natural" v="hill" />
		<tag k="place" v="locality" />
		<tag k="ssr:date" v="2016-05-10" />
		<tag k="ssr:gruppe" v="høyder" />
		<tag k="ssr:hovedgruppe" v="terreng" />
		<tag k="ssr:stedsnr" v="366733" />
		<tag k="ssr:type" v="haug" />
	</node>
	<node lat="59.309422222299595" lon="4.882805558681304" id="-4067">
		<tag k="alt_name" v="Utsira kyrkje;Utsira" />
		<tag k="amenity" v="place_of_worship" />
		<tag k="denomination" v="lutheran" />
		<tag k="name" v="Utsira kirke" />
		<tag k="religion" v="christian" />
		<tag k="ssr:date" v="2016-05-10" />
		<tag k="ssr:gruppe" v="kulturinstitusjoner" />
		<tag k="ssr:hovedgruppe" v="kultur" />
		<tag k="ssr:stedsnr" v="390593" />
		<tag k="ssr:type" v="kirke" />
	</node>
	<node lat="59.30221388600143" lon="4.878394439638173" id="-4068">
		<tag k="name" v="Slåttedalen" />
		<tag k="natural" v="valley" />
		<tag k="place" v="locality" />
		<tag k="ssr:date" v="2016-05-10" />
		<tag k="ssr:gruppe" v="senkninger" />
		<tag k="ssr:hovedgruppe" v="terreng" />
		<tag k="ssr:stedsnr" v="390598" />
		<tag k="ssr:type" v="dal" />
	</node>
	<node lat="59.3118416639335" lon="4.902116669093965" id="-4069">
		<tag k="name" v="Koltemyr" />
		<tag k="natural" v="wetland" />
		<tag k="ssr:date" v="2016-05-10" />
		<tag k="ssr:gruppe" v="våtmark" />
		<tag k="ssr:hovedgruppe" v="markslag" />
		<tag k="ssr:stedsnr" v="390560" />
		<tag k="ssr:type" v="myr" />
	</node>
	<node lat="59.31208332939008" lon="4.906788893058374" id="-4070">
		<tag k="name" v="Tjørekloven" />
		<tag k="natural" v="cape" />
		<tag k="ssr:date" v="2016-05-10" />
		<tag k="ssr:gruppe" v="kystkontur" />
		<tag k="ssr:hovedgruppe" v="sjø" />
		<tag k="ssr:stedsnr" v="390563" />
		<tag k="ssr:type" v="nesISjø" />
	</node>
	<node lat="59.303025000598254" lon="4.899238883607503" id="-4071">
		<tag k="name" v="Svehojen" />
		<tag k="natural" v="hill" />
		<tag k="place" v="locality" />
		<tag k="ssr:date" v="2016-05-10" />
		<tag k="ssr:gruppe" v="høyder" />
		<tag k="ssr:hovedgruppe" v="terreng" />
		<tag k="ssr:stedsnr" v="390566" />
		<tag k="ssr:type" v="haug" />
	</node>
	<node lat="59.29434461842367" lon="4.890891229524237" id="-4072">
		<tag k="fixme" v="consider seamark:type=rock or natural=shoal" />
		<tag k="name" v="Tresskjeret" />
		<tag k="old_name" v="indre Tresskjeret;Indre Tresskjeret" />
		<tag k="place" v="islet" />
		<tag k="ssr:date" v="2017-12-04" />
		<tag k="ssr:gruppe" v="grunnerISjø" />
		<tag k="ssr:hovedgruppe" v="sjø" />
		<tag k="ssr:stedsnr" v="390582" />
		<tag k="ssr:type" v="skjærISjø" />
	</node>
	<node lat="59.29829444608458" lon="4.902477769522749" id="-4073">
		<tag k="name" v="Hoberg" />
		<tag k="natural" v="hill" />
		<tag k="place" v="locality" />
		<tag k="ssr:date" v="2016-05-10" />
		<tag k="ssr:gruppe" v="høyder" />
		<tag k="ssr:hovedgruppe" v="terreng" />
		<tag k="ssr:stedsnr" v="390585" />
		<tag k="ssr:type" v="berg" />
	</node>
	<node lat="59.31812777649413" lon="4.886197219469983" id="-4075">
		<tag k="fixme" v="consider seamark:type=rock or natural=shoal" />
		<tag k="name" v="Bondestein" />
		<tag k="place" v="islet" />
		<tag k="ssr:date" v="2016-05-10" />
		<tag k="ssr:gruppe" v="grunnerISjø" />
		<tag k="ssr:hovedgruppe" v="sjø" />
		<tag k="ssr:stedsnr" v="512599" />
		<tag k="ssr:type" v="skjærISjø" />
	</node>
	<node lat="59.30322777491565" lon="4.879738895526739" id="-4076">
		<tag k="name" v="Smørdusk" />
		<tag k="natural" v="hill" />
		<tag k="place" v="locality" />
		<tag k="ssr:date" v="2016-05-10" />
		<tag k="ssr:gruppe" v="høyder" />
		<tag k="ssr:hovedgruppe" v="terreng" />
		<tag k="ssr:stedsnr" v="512665" />
		<tag k="ssr:type" v="haug" />
	</node>
	<node lat="59.29976666608486" lon="4.863908340667811" id="-4077">
		<tag k="name" v="Hengholmen" />
		<tag k="place" v="islet" />
		<tag k="ssr:date" v="2016-05-10" />
		<tag k="ssr:gruppe" v="kystkontur" />
		<tag k="ssr:hovedgruppe" v="sjø" />
		<tag k="ssr:stedsnr" v="548731" />
		<tag k="ssr:type" v="holmeISjø" />
	</node>
	<node lat="59.29781944655432" lon="4.8861055501123625" id="-4079">
		<tag k="name" v="Klovningshojen" />
		<tag k="place" v="locality" />
		<tag k="ssr:date" v="2016-05-10" />
		<tag k="ssr:gruppe" v="dyrkamark" />
		<tag k="ssr:hovedgruppe" v="markslag" />
		<tag k="ssr:stedsnr" v="572644" />
		<tag k="ssr:type" v="utmark" />
	</node>
	<node lat="59.320047223503515" lon="4.8784944498123135" id="-4080">
		<tag k="alt_name" v="Møkkaflua" />
		<tag k="name" v="Mokkefluene" />
		<tag k="natural" v="shoal" />
		<tag k="place" v="locality" />
		<tag k="ssr:date" v="2016-05-10" />
		<tag k="ssr:gruppe" v="grunnerISjø" />
		<tag k="ssr:hovedgruppe" v="sjø" />
		<tag k="ssr:stedsnr" v="572560" />
		<tag k="ssr:type" v="grunneISjø" />
	</node>
	<node lat="59.29726388561033" lon="4.866111117081945" id="-4081">
		<tag k="name" v="Svarteholmen" />
		<tag k="place" v="islet" />
		<tag k="ssr:date" v="2016-05-10" />
		<tag k="ssr:gruppe" v="kystkontur" />
		<tag k="ssr:hovedgruppe" v="sjø" />
		<tag k="ssr:stedsnr" v="572564" />
		<tag k="ssr:type" v="holmeISjø" />
	</node>
	<node lat="59.314147219490984" lon="4.88623055333115" id="-4082">
		<tag k="name" v="Vabeinsklubben" />
		<tag k="natural" v="cape" />
		<tag k="ssr:date" v="2016-05-10" />
		<tag k="ssr:gruppe" v="kystkontur" />
		<tag k="ssr:hovedgruppe" v="sjø" />
		<tag k="ssr:stedsnr" v="572566" />
		<tag k="ssr:type" v="nesISjø" />
	</node>
	<node lat="59.318230554753235" lon="4.8808805639456" id="-4083">
		<tag k="name" v="Teistodden" />
		<tag k="natural" v="cape" />
		<tag k="ssr:date" v="2016-05-10" />
		<tag k="ssr:gruppe" v="kystkontur" />
		<tag k="ssr:hovedgruppe" v="sjø" />
		<tag k="ssr:stedsnr" v="572570" />
		<tag k="ssr:type" v="nesISjø" />
	</node>
	<node lat="59.3027833349156" lon="4.8612916663930354" id="-4084">
		<tag k="name" v="Videklovane" />
		<tag k="natural" v="cape" />
		<tag k="ssr:date" v="2016-05-10" />
		<tag k="ssr:gruppe" v="kystkontur" />
		<tag k="ssr:hovedgruppe" v="sjø" />
		<tag k="ssr:stedsnr" v="572575" />
		<tag k="ssr:type" v="nesISjø" />
	</node>
	<node lat="59.311083329545" lon="4.859788880985557" id="-4085">
		<tag k="name" v="Kvitagro" />
		<tag k="place" v="locality" />
		<tag k="ssr:date" v="2016-05-10" />
		<tag k="ssr:gruppe" v="dyrkamark" />
		<tag k="ssr:hovedgruppe" v="markslag" />
		<tag k="ssr:stedsnr" v="572584" />
		<tag k="ssr:type" v="utmark" />
	</node>
	<node lat="59.31098055634529" lon="4.889672229913244" id="-4086">
		<tag k="name" v="Ysphojen" />
		<tag k="natural" v="hill" />
		<tag k="place" v="locality" />
		<tag k="ssr:date" v="2016-05-10" />
		<tag k="ssr:gruppe" v="høyder" />
		<tag k="ssr:hovedgruppe" v="terreng" />
		<tag k="ssr:stedsnr" v="572594" />
		<tag k="ssr:type" v="haug" />
	</node>
	<node lat="59.315238890453266" lon="4.864511117151716" id="-4087">
		<tag k="name" v="Krossbarmflua" />
		<tag k="natural" v="shoal" />
		<tag k="place" v="locality" />
		<tag k="ssr:date" v="2016-05-10" />
		<tag k="ssr:gruppe" v="grunnerISjø" />
		<tag k="ssr:hovedgruppe" v="sjø" />
		<tag k="ssr:stedsnr" v="572932" />
		<tag k="ssr:type" v="grunneISjø" />
	</node>
	<node lat="59.30141944297346" lon="4.908191658597169" id="-4088">
		<tag k="name" v="Skarvanesvågen" />
		<tag k="natural" v="bay" />
		<tag k="ssr:date" v="2016-05-10" />
		<tag k="ssr:gruppe" v="kystkontur" />
		<tag k="ssr:hovedgruppe" v="sjø" />
		<tag k="ssr:stedsnr" v="609705" />
		<tag k="ssr:type" v="vikISjø" />
	</node>
	<node lat="59.29531666733456" lon="4.896347214080346" id="-4089">
		<tag k="fixme" v="consider seamark:type=rock or natural=shoal" />
		<tag k="name" v="Skarvaskjeret" />
		<tag k="place" v="islet" />
		<tag k="ssr:date" v="2016-05-10" />
		<tag k="ssr:gruppe" v="grunnerISjø" />
		<tag k="ssr:hovedgruppe" v="sjø" />
		<tag k="ssr:stedsnr" v="633640" />
		<tag k="ssr:type" v="skjærISjø" />
	</node>
	<node lat="59.297027781453494" lon="4.875650008270463" id="-4090">
		<tag k="name" v="Stolen" />
		<tag k="natural" v="cape" />
		<tag k="ssr:date" v="2016-05-10" />
		<tag k="ssr:gruppe" v="kystkontur" />
		<tag k="ssr:hovedgruppe" v="sjø" />
		<tag k="ssr:stedsnr" v="633651" />
		<tag k="ssr:type" v="nesISjø" />
	</node>
	<node lat="59.29823333524144" lon="4.878241667150422" id="-4091">
		<tag k="name" v="Øygardsholmen" />
		<tag k="place" v="islet" />
		<tag k="ssr:date" v="2016-05-10" />
		<tag k="ssr:gruppe" v="kystkontur" />
		<tag k="ssr:hovedgruppe" v="sjø" />
		<tag k="ssr:stedsnr" v="633652" />
		<tag k="ssr:type" v="holmeISjø" />
	</node>
	<node lat="59.29630277431341" lon="4.8823777853936265" id="-4092">
		<tag k="name" v="Åkerfallvika" />
		<tag k="natural" v="bay" />
		<tag k="ssr:date" v="2016-05-10" />
		<tag k="ssr:gruppe" v="kystkontur" />
		<tag k="ssr:hovedgruppe" v="sjø" />
		<tag k="ssr:stedsnr" v="633659" />
		<tag k="ssr:type" v="vikISjø" />
	</node>
	<node lat="59.29765277976091" lon="4.895177784695172" id="-4093">
		<tag k="alt_name" v="Sørvikvågen" />
		<tag k="name" v="Sørevågen" />
		<tag k="natural" v="bay" />
		<tag k="ssr:date" v="2016-05-10" />
		<tag k="ssr:gruppe" v="kystkontur" />
		<tag k="ssr:hovedgruppe" v="sjø" />
		<tag k="ssr:stedsnr" v="669743" />
		<tag k="ssr:type" v="vikISjø" />
	</node>
	<node lat="59.319449997323055" lon="4.893719446762708" id="-4094">
		<tag k="alt_name" v="Breivik" />
		<tag k="name" v="Breidvika" />
		<tag k="natural" v="bay" />
		<tag k="ssr:date" v="2016-05-11" />
		<tag k="ssr:gruppe" v="kystkontur" />
		<tag k="ssr:hovedgruppe" v="sjø" />
		<tag k="ssr:stedsnr" v="730760" />
		<tag k="ssr:type" v="vikISjø" />
	</node>
	<node lat="59.31504722342011" lon="4.899988884525494" id="-4095">
		<tag k="alt_name" v="Møbjør" />
		<tag k="name" v="Måbjør" />
		<tag k="natural" v="hill" />
		<tag k="place" v="locality" />
		<tag k="ssr:date" v="2016-05-11" />
		<tag k="ssr:gruppe" v="høyder" />
		<tag k="ssr:hovedgruppe" v="terreng" />
		<tag k="ssr:stedsnr" v="730763" />
		<tag k="ssr:type" v="haug" />
	</node>
	<node lat="59.311171851965135" lon="4.882617871846174" id="-4096">
		<tag k="fixme" v="consider place=hamlet" />
		<tag k="name" v="Nordvik" />
		<tag k="place" v="farm" />
		<tag k="ssr:date" v="2019-06-26" />
		<tag k="ssr:gruppe" v="gardsbebyggelse" />
		<tag k="ssr:hovedgruppe" v="bebyggelse" />
		<tag k="ssr:stedsnr" v="730764" />
		<tag k="ssr:type" v="gard" />
	</node>
	<node lat="59.28314722584827" lon="4.846858330122532" id="-4097">
		<tag k="alt_name" v="Spannholmen" />
		<tag k="name" v="Spannholmane" />
		<tag k="place" v="islet" />
		<tag k="ssr:date" v="2016-05-11" />
		<tag k="ssr:gruppe" v="kystkontur" />
		<tag k="ssr:hovedgruppe" v="sjø" />
		<tag k="ssr:stedsnr" v="730775" />
		<tag k="ssr:type" v="holmeISjø" />
	</node>
	<node lat="59.314772221266665" lon="4.873102781048218" id="-4098">
		<tag k="name" v="Biljeskarkloven" />
		<tag k="natural" v="cape" />
		<tag k="ssr:date" v="2016-05-11" />
		<tag k="ssr:gruppe" v="kystkontur" />
		<tag k="ssr:hovedgruppe" v="sjø" />
		<tag k="ssr:stedsnr" v="755586" />
		<tag k="ssr:type" v="nesISjø" />
	</node>
	<node lat="59.31124444645437" lon="4.88732499960061" id="-4099">
		<tag k="name" v="Austre Nordvik" />
		<tag k="place" v="farm" />
		<tag k="ssr:date" v="2016-05-11" />
		<tag k="ssr:gruppe" v="gardsbebyggelse" />
		<tag k="ssr:hovedgruppe" v="bebyggelse" />
		<tag k="ssr:stedsnr" v="755590" />
		<tag k="ssr:type" v="bruk" />
	</node>
	<node lat="59.31615833433306" lon="4.886305556776924" id="-4100">
		<tag k="name" v="Fiskholmen" />
		<tag k="place" v="islet" />
		<tag k="ssr:date" v="2016-05-11" />
		<tag k="ssr:gruppe" v="kystkontur" />
		<tag k="ssr:hovedgruppe" v="sjø" />
		<tag k="ssr:stedsnr" v="755591" />
		<tag k="ssr:type" v="holmeISjø" />
	</node>
	<node lat="59.299783416232955" lon="4.8873312236728745" id="-4101">
		<tag k="fixme" v="consider place=hamlet" />
		<tag k="name" v="Klovning" />
		<tag k="place" v="farm" />
		<tag k="ssr:date" v="2019-03-27" />
		<tag k="ssr:gruppe" v="gardsbebyggelse" />
		<tag k="ssr:hovedgruppe" v="bebyggelse" />
		<tag k="ssr:stedsnr" v="755594" />
		<tag k="ssr:type" v="gard" />
	</node>
	<node lat="59.30210278171495" lon="4.910697219991796" id="-4102">
		<tag k="name" v="Søra Tressvika" />
		<tag k="natural" v="bay" />
		<tag k="ssr:date" v="2016-05-11" />
		<tag k="ssr:gruppe" v="kystkontur" />
		<tag k="ssr:hovedgruppe" v="sjø" />
		<tag k="ssr:stedsnr" v="755596" />
		<tag k="ssr:type" v="vikISjø" />
	</node>
	<node lat="59.29947499627628" lon="4.8985416615943045" id="-4103">
		<tag k="name" v="Smogjet" />
		<tag k="place" v="farm" />
		<tag k="ssr:date" v="2016-05-11" />
		<tag k="ssr:gruppe" v="gardsbebyggelse" />
		<tag k="ssr:hovedgruppe" v="bebyggelse" />
		<tag k="ssr:stedsnr" v="755629" />
		<tag k="ssr:type" v="bruk" />
	</node>
	<node lat="59.30585277386386" lon="4.8816055586959095" id="-4104">
		<tag k="name" v="Herbergshojen" />
		<tag k="natural" v="hill" />
		<tag k="place" v="locality" />
		<tag k="ssr:date" v="2016-05-11" />
		<tag k="ssr:gruppe" v="høyder" />
		<tag k="ssr:hovedgruppe" v="terreng" />
		<tag k="ssr:stedsnr" v="755632" />
		<tag k="ssr:type" v="haug" />
	</node>
	<node lat="59.30026324480148" lon="4.903837756575092" id="-4105">
		<tag k="alt_name" v="Austerheim" />
		<tag k="fixme" v="consider place=hamlet" />
		<tag k="name" v="Austrheim" />
		<tag k="place" v="farm" />
		<tag k="ssr:date" v="2019-06-26" />
		<tag k="ssr:gruppe" v="gardsbebyggelse" />
		<tag k="ssr:hovedgruppe" v="bebyggelse" />
		<tag k="ssr:stedsnr" v="791732" />
		<tag k="ssr:type" v="gard" />
	</node>
	<node lat="59.31024444188264" lon="4.907061119615695" id="-4106">
		<tag k="name" v="Bekkjarvik" />
		<tag k="natural" v="bay" />
		<tag k="ssr:date" v="2016-05-11" />
		<tag k="ssr:gruppe" v="kystkontur" />
		<tag k="ssr:hovedgruppe" v="sjø" />
		<tag k="ssr:stedsnr" v="815935" />
		<tag k="ssr:type" v="vikISjø" />
	</node>
	<node lat="59.319400000586604" lon="4.873258327054162" id="-4107">
		<tag k="name" v="Perlefluene" />
		<tag k="natural" v="shoal" />
		<tag k="place" v="locality" />
		<tag k="ssr:date" v="2016-05-11" />
		<tag k="ssr:gruppe" v="grunnerISjø" />
		<tag k="ssr:hovedgruppe" v="sjø" />
		<tag k="ssr:stedsnr" v="815937" />
		<tag k="ssr:type" v="grunneISjø" />
	</node>
	<node lat="59.31522222271671" lon="4.863808335961096" id="-4108">
		<tag k="fixme" v="consider seamark:type=rock or natural=shoal" />
		<tag k="name" v="Krossbergsskjeret" />
		<tag k="place" v="islet" />
		<tag k="ssr:date" v="2016-05-11" />
		<tag k="ssr:gruppe" v="grunnerISjø" />
		<tag k="ssr:hovedgruppe" v="sjø" />
		<tag k="ssr:stedsnr" v="816641" />
		<tag k="ssr:type" v="skjærISjø" />
	</node>
	<node lat="59.31617778137137" lon="4.9076027860099" id="-4109">
		<tag k="alt_name" v="norda Barmeskøyla" />
		<tag k="name" v="Nordra Barmeskøyla" />
		<tag k="natural" v="cape" />
		<tag k="ssr:date" v="2016-05-11" />
		<tag k="ssr:gruppe" v="kystkontur" />
		<tag k="ssr:hovedgruppe" v="sjø" />
		<tag k="ssr:stedsnr" v="816659" />
		<tag k="ssr:type" v="nesISjø" />
	</node>
	<node lat="59.31003333151229" lon="4.888358327065879" id="-4110">
		<tag k="fixme" v="consider tourism=alpine_hut or tourism=chalet" />
		<tag k="name" v="Nordvikgården" />
		<tag k="ssr:date" v="2016-05-11" />
		<tag k="ssr:gruppe" v="næring" />
		<tag k="ssr:hovedgruppe" v="bebyggelse" />
		<tag k="ssr:stedsnr" v="844216" />
		<tag k="ssr:type" v="turisthytte" />
		<tag k="tourism" v="wilderness_hut" />
	</node>
	<node lat="59.2344138866471" lon="4.878138890632087" id="-4113">
		<tag k="fixme" v="multiple name tags, choose one and add the other to alt_name" />
		<tag k="name" v="Rogalandsfeltet;Utsira sør" />
		<tag k="place" v="sea" />
		<tag k="ssr:date" v="2021-06-08" />
		<tag k="ssr:gruppe" v="farvann" />
		<tag k="ssr:hovedgruppe" v="sjø" />
		<tag k="ssr:stedsnr" v="873526" />
		<tag k="ssr:type" v="havområde" />
	</node>
	<node lat="59.31700000171785" lon="4.906077785558005" id="-4114">
		<tag k="name" v="Sandvika" />
		<tag k="natural" v="bay" />
		<tag k="ssr:date" v="2016-05-11" />
		<tag k="ssr:gruppe" v="kystkontur" />
		<tag k="ssr:hovedgruppe" v="sjø" />
		<tag k="ssr:stedsnr" v="876611" />
		<tag k="ssr:type" v="vikISjø" />
	</node>
	<node lat="59.29577500377776" lon="4.8916138941988985" id="-4115">
		<tag k="name" v="Klovningsneset" />
		<tag k="natural" v="cape" />
		<tag k="ssr:date" v="2016-05-11" />
		<tag k="ssr:gruppe" v="kystkontur" />
		<tag k="ssr:hovedgruppe" v="sjø" />
		<tag k="ssr:stedsnr" v="876637" />
		<tag k="ssr:type" v="nesISjø" />
	</node>
	<node lat="59.29915833257819" lon="4.8820833264741745" id="-4116">
		<tag k="name" v="Djupatræ" />
		<tag k="place" v="locality" />
		<tag k="ssr:date" v="2016-05-11" />
		<tag k="ssr:gruppe" v="dyrkamark" />
		<tag k="ssr:hovedgruppe" v="markslag" />
		<tag k="ssr:stedsnr" v="876647" />
		<tag k="ssr:type" v="utmark" />
	</node>
	<node lat="59.31640000037223" lon="4.874758342009712" id="-4117">
		<tag k="name" v="Skotavågen" />
		<tag k="natural" v="bay" />
		<tag k="ssr:date" v="2016-05-11" />
		<tag k="ssr:gruppe" v="kystkontur" />
		<tag k="ssr:hovedgruppe" v="sjø" />
		<tag k="ssr:stedsnr" v="876579" />
		<tag k="ssr:type" v="vikISjø" />
	</node>
	<node lat="59.3130634877204" lon="4.890774148168282" id="-4118">
		<tag k="name" v="Måkskitmyra" />
		<tag k="natural" v="water" />
		<tag k="ssr:date" v="2021-12-08" />
		<tag k="ssr:gruppe" v="stilleståendeVann" />
		<tag k="ssr:hovedgruppe" v="ferskvann" />
		<tag k="ssr:stedsnr" v="876587" />
		<tag k="ssr:type" v="tjern" />
	</node>
	<node lat="59.30171389099466" lon="4.867458337037782" id="-4119">
		<tag k="name" v="Vågadal" />
		<tag k="natural" v="valley" />
		<tag k="place" v="locality" />
		<tag k="ssr:date" v="2016-05-11" />
		<tag k="ssr:gruppe" v="senkninger" />
		<tag k="ssr:hovedgruppe" v="terreng" />
		<tag k="ssr:stedsnr" v="876600" />
		<tag k="ssr:type" v="dal" />
	</node>
	<node lat="59.310527779027915" lon="4.857488891782306" id="-4120">
		<tag k="name" v="Treboane" />
		<tag k="natural" v="shoal" />
		<tag k="place" v="locality" />
		<tag k="ssr:date" v="2016-05-11" />
		<tag k="ssr:gruppe" v="grunnerISjø" />
		<tag k="ssr:hovedgruppe" v="sjø" />
		<tag k="ssr:stedsnr" v="936911" />
		<tag k="ssr:type" v="grunneISjø" />
	</node>
	<node lat="59.29394059705116" lon="4.889579412830879" id="-4121">
		<tag k="name" v="Indre Klovningsholmen" />
		<tag k="place" v="islet" />
		<tag k="ssr:date" v="2017-12-04" />
		<tag k="ssr:gruppe" v="kystkontur" />
		<tag k="ssr:hovedgruppe" v="sjø" />
		<tag k="ssr:stedsnr" v="980659" />
		<tag k="ssr:type" v="holmeISjø" />
	</node>
</osm>
