<?xml version="1.0" encoding="UTF-8"?>
<osm generator="osmapis" version="0.6">
	<node id="-90105" lat="69.2386416672" lon="17.6628305451">
		<tag k="name" v="Hyttemyran" />
		<tag k="natural" v="wetland" />
		<tag k="ssr:stedsnr" v="113652" />
	</node>
	<node id="-90095" lat="69.2738833339" lon="17.62618611">
		<tag k="name" v="Trollhollmyra" />
		<tag k="natural" v="wetland" />
		<tag k="ssr:stedsnr" v="113585" />
	</node>
	<node id="-90092" lat="69.3115638873" lon="17.169952766">
		<tag k="name" v="Stormyra" />
		<tag k="natural" v="wetland" />
		<tag k="ssr:stedsnr" v="113573" />
	</node>
	<node id="-90089" lat="69.2056694485" lon="17.580694447">
		<tag k="name" v="Aurmyra" />
		<tag k="natural" v="wetland" />
		<tag k="ssr:stedsnr" v="113556" />
	</node>
	<node id="-90081" lat="69.1030555541" lon="17.0885250084">
		<tag k="name" v="Finngammsanden" />
		<tag k="natural" v="beach" />
		<tag k="ssr:stedsnr" v="113294" />
		<tag k="surface" v="sand" />
	</node>
	<node id="-90075" lat="69.0286027767" lon="17.2085444532">
		<tag k="name" v="Perjonsamyra" />
		<tag k="natural" v="wetland" />
		<tag k="ssr:stedsnr" v="113387" />
	</node>
	<node id="-90071" lat="69.5250694465" lon="17.3261583317">
		<tag k="name" v="Stavura" />
		<tag k="natural" v="scree" />
		<tag k="ssr:stedsnr" v="113101" />
	</node>
	<node id="-92117" lat="69.2972194417" lon="18.0242166575">
		<tag k="name" v="Kvitmyra" />
		<tag k="natural" v="wetland" />
		<tag k="ssr:stedsnr" v="595621" />
	</node>
	<node id="-90063" lat="69.1880749992" lon="17.6778999889">
		<tag k="name" v="Stengselmyran" />
		<tag k="natural" v="wetland" />
		<tag k="ssr:stedsnr" v="112985" />
	</node>
	<node id="-88014" lat="69.0710138889" lon="16.9125638764">
		<tag k="name" v="Lysmyra" />
		<tag k="natural" v="wetland" />
		<tag k="ssr:stedsnr" v="685011" />
	</node>
	<node id="-90059" lat="69.1505305542" lon="17.6342888816">
		<tag k="name" v="Uran" />
		<tag k="natural" v="scree" />
		<tag k="ssr:stedsnr" v="112942" />
	</node>
	<node id="-92098" lat="69.1874333316" lon="17.9264694328">
		<tag k="name" v="Botnlausmyra" />
		<tag k="natural" v="wetland" />
		<tag k="ssr:stedsnr" v="594711" />
	</node>
	<node id="-90047" lat="69.3382194446" lon="17.0639305481">
		<tag k="name" v="Smørsteinen" />
		<tag k="natural" v="stone" />
		<tag k="ssr:stedsnr" v="112634" />
	</node>
	<node id="-92090" lat="69.2637972222" lon="17.9254972291">
		<tag k="name" v="Skogan" />
		<tag k="place" v="locality" />
		<tag k="ssr:stedsnr" v="594615" />
	</node>
	<node id="-90041" lat="69.203966664" lon="17.0821500078">
		<tag k="name" v="Forrholtet" />
		<tag k="place" v="locality" />
		<tag k="ssr:stedsnr" v="112499" />
	</node>
	<node id="-90039" lat="69.1982722206" lon="17.1829833252">
		<tag k="name" v="Simonteigen" />
		<tag k="place" v="locality" />
		<tag k="ssr:stedsnr" v="112493" />
	</node>
	<node id="-90034" lat="69.1920083367" lon="17.1557583359">
		<tag k="name" v="Listeinan" />
		<tag k="natural" v="stone" />
		<tag k="ssr:stedsnr" v="112481" />
	</node>
	<node id="-90028" lat="69.2222111072" lon="17.6067972103">
		<tag k="name" v="Tennemyra" />
		<tag k="natural" v="wetland" />
		<tag k="ssr:stedsnr" v="112548" />
	</node>
	<node id="-92074" lat="69.5285722247" lon="17.6272333291">
		<tag k="name" v="Åberura" />
		<tag k="natural" v="scree" />
		<tag k="ssr:stedsnr" v="594251" />
	</node>
	<node id="-92069" lat="69.5619750027" lon="17.5850583216">
		<tag k="name" v="Kjerka" />
		<tag k="natural" v="stone" />
		<tag k="ssr:stedsnr" v="594170" />
	</node>
	<node id="-87966" lat="69.0579972212" lon="17.140091672">
		<tag k="name" v="Bakfjellmyra" />
		<tag k="natural" v="wetland" />
		<tag k="ssr:stedsnr" v="476703" />
	</node>
	<node id="-91461" lat="69.149508334" lon="17.4840388804">
		<tag k="name" v="Torslåtta" />
		<tag k="place" v="locality" />
		<tag k="ssr:stedsnr" v="415488" />
	</node>
	<node id="-87954" lat="69.1085166675" lon="17.038061102">
		<tag k="name" v="Øyra" />
		<tag k="place" v="locality" />
		<tag k="ssr:stedsnr" v="476552" />
	</node>
	<node id="-92049" lat="69.2659805586" lon="17.8255777838">
		<tag k="name" v="Almenningsmyra" />
		<tag k="natural" v="wetland" />
		<tag k="ssr:stedsnr" v="593668" />
	</node>
	<node id="-92047" lat="69.3469638888" lon="17.889741668">
		<tag k="name" v="Berrskallmyra" />
		<tag k="natural" v="wetland" />
		<tag k="ssr:stedsnr" v="593560" />
	</node>
	<node id="-89998" lat="69.2454333337" lon="17.8809583209">
		<tag k="name" v="Hesjevedskogen" />
		<tag k="place" v="locality" />
		<tag k="ssr:stedsnr" v="109952" />
	</node>
	<node id="-92045" lat="69.3327583363" lon="17.825255561">
		<tag k="name" v="Godmatmomyra" />
		<tag k="natural" v="wetland" />
		<tag k="ssr:stedsnr" v="593553" />
	</node>
	<node id="-89987" lat="69.2780777744" lon="17.9931805495">
		<tag k="name" v="Finnemyra" />
		<tag k="natural" v="wetland" />
		<tag k="ssr:stedsnr" v="109595" />
	</node>
	<node id="-89983" lat="69.273427779" lon="17.9222861162">
		<tag k="name" v="Klubbemyra" />
		<tag k="natural" v="wetland" />
		<tag k="ssr:stedsnr" v="109576" />
	</node>
	<node id="-89982" lat="69.2695750013" lon="17.9255694515">
		<tag k="name" v="Rødmyra" />
		<tag k="natural" v="wetland" />
		<tag k="ssr:stedsnr" v="109575" />
	</node>
	<node id="-92024" lat="69.2998416674" lon="18.0152805556">
		<tag k="name" v="Dårligbakkslåtta" />
		<tag k="place" v="locality" />
		<tag k="ssr:stedsnr" v="655044" />
	</node>
	<node id="-87917" lat="69.4877055559" lon="17.349936097">
		<tag k="name" v="Kvitsteinan" />
		<tag k="natural" v="stone" />
		<tag k="ssr:stedsnr" v="659745" />
	</node>
	<node id="-87915" lat="69.4435500033" lon="17.4353638789">
		<tag k="name" v="Heggekjerran" />
		<tag k="place" v="locality" />
		<tag k="ssr:stedsnr" v="659739" />
	</node>
	<node id="-87911" lat="69.2393833372" lon="17.6279583327">
		<tag k="name" v="Langemyra" />
		<tag k="natural" v="wetland" />
		<tag k="ssr:stedsnr" v="659683" />
	</node>
	<node id="-89958" lat="69.2952611132" lon="17.669522217">
		<tag k="name" v="Storvassmyran" />
		<tag k="natural" v="wetland" />
		<tag k="ssr:stedsnr" v="109024" />
	</node>
	<node id="-89955" lat="69.3667222212" lon="17.9244333229">
		<tag k="name" v="Kvannlimyra" />
		<tag k="natural" v="wetland" />
		<tag k="ssr:stedsnr" v="108885" />
	</node>
	<node id="-87905" lat="69.2648638857" lon="17.6740277743">
		<tag k="name" v="Almenningsmyran" />
		<tag k="natural" v="wetland" />
		<tag k="ssr:stedsnr" v="659637" />
	</node>
	<node id="-89945" lat="69.4431194492" lon="17.9760722144">
		<tag k="name" v="Holtan" />
		<tag k="place" v="locality" />
		<tag k="ssr:stedsnr" v="108412" />
	</node>
	<node id="-89941" lat="69.3778388878" lon="17.8415749955">
		<tag k="name" v="Fjellmyrene" />
		<tag k="natural" v="wetland" />
		<tag k="ssr:stedsnr" v="108238" />
	</node>
	<node id="-87889" lat="69.4671222206" lon="17.3474000043">
		<tag k="name" v="Blåura" />
		<tag k="natural" v="scree" />
		<tag k="ssr:stedsnr" v="659092" />
	</node>
	<node id="-86328" lat="69.0611249992" lon="16.8512222193">
		<tag k="name" v="Tømmervikmyran" />
		<tag k="natural" v="wetland" />
		<tag k="ssr:stedsnr" v="233990" />
	</node>
	<node id="-89924" lat="69.2554583318" lon="17.7459694303">
		<tag k="name" v="Storholtet" />
		<tag k="place" v="locality" />
		<tag k="ssr:stedsnr" v="108743" />
	</node>
	<node id="-91956" lat="69.4157361132" lon="17.8161388883">
		<tag k="name" v="Nåttemyra" />
		<tag k="natural" v="wetland" />
		<tag k="ssr:stedsnr" v="564534" />
	</node>
	<node id="-86323" lat="69.0162027734" lon="17.0624722288">
		<tag k="name" v="Tjønnmyra" />
		<tag k="natural" v="wetland" />
		<tag k="ssr:stedsnr" v="234522" />
	</node>
	<node id="-86316" lat="69.3890833328" lon="17.1284277858">
		<tag k="name" v="Kvitskredmyra" />
		<tag k="natural" v="wetland" />
		<tag k="ssr:stedsnr" v="233741" />
	</node>
	<node id="-87813" lat="69.3449527796" lon="18.1437583401">
		<tag k="name" v="Langmyra" />
		<tag k="natural" v="wetland" />
		<tag k="ssr:stedsnr" v="656685" />
	</node>
	<node id="-87811" lat="69.2550555545" lon="18.1595694315">
		<tag k="name" v="Gammeljorda" />
		<tag k="place" v="locality" />
		<tag k="ssr:stedsnr" v="656632" />
	</node>
	<node id="-91878" lat="69.1320305525" lon="17.2690999875">
		<tag k="name" v="Lahaugmyra" />
		<tag k="natural" v="wetland" />
		<tag k="ssr:stedsnr" v="563205" />
	</node>
	<node id="-89826" lat="69.2241833353" lon="17.6535527662">
		<tag k="alt_name" v="Sætermyra" />
		<tag k="name" v="Sætermyran" />
		<tag k="natural" v="wetland" />
		<tag k="ssr:stedsnr" v="79392" />
	</node>
	<node id="-88357" lat="69.2231027792" lon="18.1337083333">
		<tag k="name" v="Bjørnhollholtet" />
		<tag k="place" v="locality" />
		<tag k="ssr:stedsnr" v="717548" />
	</node>
	<node id="-87766" lat="69.499952777" lon="17.2327277667">
		<tag k="name" v="Trelsjorda" />
		<tag k="place" v="locality" />
		<tag k="ssr:stedsnr" v="416128" />
	</node>
	<node id="-87762" lat="69.2412944451" lon="18.1120250035">
		<tag k="name" v="Sandbanken" />
		<tag k="natural" v="beach" />
		<tag k="ssr:stedsnr" v="414624" />
		<tag k="surface" v="sand" />
	</node>
	<node id="-91849" lat="69.4777472184" lon="17.4324444367">
		<tag k="name" v="Jursteinan" />
		<tag k="natural" v="stone" />
		<tag k="ssr:stedsnr" v="540132" />
	</node>
	<node id="-87749" lat="69.4486305593" lon="17.969291676">
		<tag k="name" v="Stormyra" />
		<tag k="natural" v="wetland" />
		<tag k="ssr:stedsnr" v="411377" />
	</node>
	<node id="-91844" lat="69.5023666645" lon="17.4731861007">
		<tag k="name" v="Dalsteinen" />
		<tag k="natural" v="stone" />
		<tag k="ssr:stedsnr" v="540237" />
	</node>
	<node id="-91083" lat="69.0777472242" lon="16.9048388824">
		<tag k="name" v="Blåuran" />
		<tag k="natural" v="scree" />
		<tag k="ssr:stedsnr" v="355557" />
	</node>
	<node id="-91834" lat="69.3557003175" lon="17.4349995272">
		<tag k="alt_name" v="Storjorda Øvre" />
		<tag k="name" v="Øvre Storjorda" />
		<tag k="place" v="locality" />
		<tag k="ssr:stedsnr" v="538857" />
	</node>
	<node id="-91833" lat="69.4483416639" lon="17.3196222131">
		<tag k="name" v="Blåura" />
		<tag k="natural" v="scree" />
		<tag k="ssr:stedsnr" v="538806" />
	</node>
	<node id="-89783" lat="69.0928055537" lon="17.062583322">
		<tag k="name" v="Hillesåsmyran" />
		<tag k="natural" v="wetland" />
		<tag k="ssr:stedsnr" v="78035" />
	</node>
	<node id="-91824" lat="69.4024416634" lon="17.3051833396">
		<tag k="name" v="Indre Storsteinen" />
		<tag k="natural" v="stone" />
		<tag k="ssr:stedsnr" v="538414" />
	</node>
	<node id="-89770" lat="69.4861777792" lon="17.4858110975">
		<tag k="name" v="Botnsteinen" />
		<tag k="natural" v="stone" />
		<tag k="ssr:stedsnr" v="54090" />
	</node>
	<node id="-86333" lat="69.4593666632" lon="17.32326388">
		<tag k="name" v="Brusura" />
		<tag k="natural" v="scree" />
		<tag k="ssr:stedsnr" v="234061" />
	</node>
	<node id="-91812" lat="69.3935999978" lon="17.1248111101">
		<tag k="name" v="Huldersteinen" />
		<tag k="natural" v="stone" />
		<tag k="ssr:stedsnr" v="537704" />
	</node>
	<node id="-91811" lat="69.3866027767" lon="17.0851749961">
		<tag k="name" v="Skarvesteinen" />
		<tag k="natural" v="stone" />
		<tag k="ssr:stedsnr" v="537693" />
	</node>
	<node id="-91809" lat="69.2266166643" lon="17.6591583205">
		<tag k="name" v="Lomtjønnmyra" />
		<tag k="natural" v="wetland" />
		<tag k="ssr:stedsnr" v="537545" />
	</node>
	<node id="-89753" lat="69.4021472262" lon="17.3831138819">
		<tag k="name" v="Stakemyra" />
		<tag k="natural" v="wetland" />
		<tag k="ssr:stedsnr" v="52981" />
	</node>
	<node id="-91800" lat="69.228766665" lon="17.6041694457">
		<tag k="name" v="Stormyra" />
		<tag k="natural" v="wetland" />
		<tag k="ssr:stedsnr" v="537514" />
	</node>
	<node id="-89750" lat="69.0393972212" lon="17.1987027739">
		<tag k="name" v="Storskogen" />
		<tag k="place" v="locality" />
		<tag k="ssr:stedsnr" v="52640" />
	</node>
	<node id="-89749" lat="69.0429750029" lon="17.1693833431">
		<tag k="name" v="Grønnjorda" />
		<tag k="place" v="locality" />
		<tag k="ssr:stedsnr" v="52634" />
	</node>
	<node id="-91795" lat="69.1198361099" lon="17.0247305625">
		<tag k="name" v="Martinslåtta" />
		<tag k="place" v="locality" />
		<tag k="ssr:stedsnr" v="537492" />
	</node>
	<node id="-89746" lat="69.4882277822" lon="17.2544194329">
		<tag k="name" v="Storelvmyra" />
		<tag k="natural" v="wetland" />
		<tag k="ssr:stedsnr" v="52550" />
	</node>
	<node id="-91784" lat="69.0254694444" lon="17.1772472178">
		<tag k="name" v="Mellabreivikmyra" />
		<tag k="natural" v="wetland" />
		<tag k="ssr:stedsnr" v="537660" />
	</node>
	<node id="-89733" lat="69.4058388922" lon="17.3016333452">
		<tag k="name" v="Mårvikøyra" />
		<tag k="place" v="locality" />
		<tag k="ssr:stedsnr" v="52335" />
	</node>
	<node id="-89731" lat="69.0688666649" lon="17.1449166593">
		<tag k="name" v="Deggemyra" />
		<tag k="natural" v="wetland" />
		<tag k="ssr:stedsnr" v="52242" />
	</node>
	<node id="-91070" lat="69.0146166645" lon="17.0705833379">
		<tag k="name" v="Tollesmyrholtan" />
		<tag k="place" v="locality" />
		<tag k="ssr:stedsnr" v="355497" />
	</node>
	<node id="-91750" lat="69.0757444484" lon="17.0385527833">
		<tag k="name" v="Frovågmyra" />
		<tag k="natural" v="wetland" />
		<tag k="ssr:stedsnr" v="536504" />
	</node>
	<node id="-89700" lat="69.3598000008" lon="17.0842333352">
		<tag k="name" v="Kjeløyra" />
		<tag k="place" v="locality" />
		<tag k="ssr:stedsnr" v="51700" />
	</node>
	<node id="-89693" lat="69.1264444409" lon="17.2604749968">
		<tag k="name" v="Vasskogen" />
		<tag k="place" v="locality" />
		<tag k="ssr:stedsnr" v="51545" />
	</node>
	<node id="-91737" lat="69.3073444428" lon="17.0341388837">
		<tag k="name" v="Stormyra" />
		<tag k="natural" v="wetland" />
		<tag k="ssr:stedsnr" v="536382" />
	</node>
	<node id="-91748" lat="69.2659777764" lon="17.0425722208">
		<tag k="name" v="Skarvuran" />
		<tag k="natural" v="scree" />
		<tag k="ssr:stedsnr" v="536301" />
	</node>
	<node id="-89676" lat="69.3896722263" lon="18.2904416697">
		<tag k="name" v="Storsteinen" />
		<tag k="natural" v="stone" />
		<tag k="ssr:stedsnr" v="50916" />
	</node>
	<node id="-89669" lat="69.2717111121" lon="18.0311138884">
		<tag k="name" v="Åsmyrene" />
		<tag k="natural" v="wetland" />
		<tag k="ssr:stedsnr" v="50522" />
	</node>
	<node id="-91713" lat="69.473691669" lon="18.305588896">
		<tag k="name" v="Elveøyra" />
		<tag k="place" v="locality" />
		<tag k="ssr:stedsnr" v="535981" />
	</node>
	<node id="-87611" lat="69.0610416704" lon="16.8339833266">
		<tag k="name" v="Langmyra" />
		<tag k="natural" v="wetland" />
		<tag k="ssr:stedsnr" v="354940" />
	</node>
	<node id="-91701" lat="69.3239972218" lon="18.1659333362">
		<tag k="name" v="Kvitsteinmyra" />
		<tag k="natural" v="wetland" />
		<tag k="ssr:stedsnr" v="535655" />
	</node>
	<node id="-89650" lat="69.2449388923" lon="17.8993166721">
		<tag k="name" v="Langmyra" />
		<tag k="natural" v="wetland" />
		<tag k="ssr:stedsnr" v="48972" />
	</node>
	<node id="-91400" lat="69.5528472204" lon="17.8164416636">
		<tag k="name" v="Sløykkjerran" />
		<tag k="place" v="locality" />
		<tag k="ssr:stedsnr" v="413871" />
	</node>
	<node id="-89645" lat="69.4997499999" lon="17.7889083246">
		<tag k="name" v="Kjeipelvskogen" />
		<tag k="place" v="locality" />
		<tag k="ssr:stedsnr" v="48747" />
	</node>
	<node id="-91692" lat="69.3542500015" lon="18.4898805489">
		<tag k="name" v="Leira" />
		<tag k="place" v="locality" />
		<tag k="ssr:stedsnr" v="535823" />
	</node>
	<node id="-89643" lat="69.1796611153" lon="17.9083444497">
		<tag k="name" v="Langmyra" />
		<tag k="natural" v="wetland" />
		<tag k="ssr:stedsnr" v="48703" />
	</node>
	<node id="-89638" lat="69.3695000039" lon="17.9017972186">
		<tag k="name" v="Reingjerdmyrene" />
		<tag k="natural" v="wetland" />
		<tag k="ssr:stedsnr" v="48638" />
	</node>
	<node id="-91679" lat="69.2539083297" lon="17.9440611065">
		<tag k="name" v="Finnmyra" />
		<tag k="natural" v="wetland" />
		<tag k="ssr:stedsnr" v="534671" />
	</node>
	<node id="-89630" lat="69.2706722263" lon="17.9116777707">
		<tag k="name" v="Finnjordskogen" />
		<tag k="place" v="locality" />
		<tag k="ssr:stedsnr" v="48583" />
	</node>
	<node id="-87581" lat="69.484480556" lon="17.4196722308">
		<tag k="name" v="Femtallsura" />
		<tag k="natural" v="scree" />
		<tag k="ssr:stedsnr" v="479121" />
	</node>
	<node id="-87580" lat="69.4399555541" lon="17.4818500046">
		<tag k="name" v="Tempelsteinen" />
		<tag k="natural" v="stone" />
		<tag k="ssr:stedsnr" v="479106" />
	</node>
	<node id="-87572" lat="69.4886138847" lon="17.267158327">
		<tag k="name" v="Vedsteinen" />
		<tag k="natural" v="stone" />
		<tag k="ssr:stedsnr" v="477698" />
	</node>
	<node id="-91395" lat="69.3050527807" lon="18.0015916652">
		<tag k="name" v="Kjerrenesholtet" />
		<tag k="place" v="locality" />
		<tag k="ssr:stedsnr" v="413076" />
	</node>
	<node id="-89613" lat="69.4797666703" lon="17.8012166548">
		<tag k="name" v="Skarelvjorda" />
		<tag k="place" v="locality" />
		<tag k="ssr:stedsnr" v="48324" />
	</node>
	<node id="-87563" lat="69.2655472197" lon="17.6613222247">
		<tag k="name" v="Holmemyra" />
		<tag k="natural" v="wetland" />
		<tag k="ssr:stedsnr" v="477650" />
	</node>
	<node id="-91657" lat="69.2874500024" lon="17.7839055567">
		<tag k="name" v="Stormyra" />
		<tag k="natural" v="wetland" />
		<tag k="ssr:stedsnr" v="533685" />
	</node>
	<node id="-87980" lat="69.4375944467" lon="17.3601333291">
		<tag k="name" v="Bunkemyra" />
		<tag k="natural" v="wetland" />
		<tag k="ssr:stedsnr" v="477799" />
	</node>
	<node id="-91645" lat="69.3462277742" lon="17.9096055608">
		<tag k="name" v="Karilimyra" />
		<tag k="natural" v="wetland" />
		<tag k="ssr:stedsnr" v="533604" />
	</node>
	<node id="-89596" lat="69.3045027742" lon="17.6868861163">
		<tag k="name" v="Lappgammskogen" />
		<tag k="place" v="locality" />
		<tag k="ssr:stedsnr" v="48029" />
	</node>
	<node id="-89595" lat="69.2096222185" lon="17.7751972108">
		<tag k="name" v="Stormyra" />
		<tag k="natural" v="wetland" />
		<tag k="ssr:stedsnr" v="47955" />
	</node>
	<node id="-89592" lat="69.2700666698" lon="17.7283916684">
		<tag k="name" v="Langmyra" />
		<tag k="natural" v="wetland" />
		<tag k="ssr:stedsnr" v="47717" />
	</node>
	<node id="-87542" lat="69.0584305597" lon="16.8523999916">
		<tag k="name" v="Jobonmyra" />
		<tag k="natural" v="wetland" />
		<tag k="ssr:stedsnr" v="476990" />
	</node>
	<node id="-91633" lat="69.3795222186" lon="17.8545055399">
		<tag k="name" v="Godmyra" />
		<tag k="natural" v="wetland" />
		<tag k="ssr:stedsnr" v="533235" />
	</node>
	<node id="-87527" lat="69.3992916667" lon="17.0651361012">
		<tag k="name" v="Kvitsteinen" />
		<tag k="natural" v="stone" />
		<tag k="ssr:stedsnr" v="476742" />
	</node>
	<node id="-87520" lat="69.1910944416" lon="17.8067138878">
		<tag k="name" v="Kvitemyra" />
		<tag k="natural" v="wetland" />
		<tag k="ssr:stedsnr" v="476711" />
	</node>
	<node id="-87510" lat="69.095227779" lon="17.0130583248">
		<tag k="name" v="Steinskarmyra" />
		<tag k="natural" v="wetland" />
		<tag k="ssr:stedsnr" v="476583" />
	</node>
	<node id="-87503" lat="69.0166916715" lon="17.1554222154">
		<tag k="name" v="Natthågmyra" />
		<tag k="natural" v="wetland" />
		<tag k="ssr:stedsnr" v="476541" />
	</node>
	<node id="-87502" lat="69.2245472231" lon="17.6001000073">
		<tag k="name" v="Haillmyra" />
		<tag k="natural" v="wetland" />
		<tag k="ssr:stedsnr" v="476534" />
	</node>
	<node id="-91596" lat="69.5164833319" lon="17.5662944383">
		<tag k="name" v="Kvitsteinøyra" />
		<tag k="place" v="locality" />
		<tag k="ssr:stedsnr" v="419355" />
	</node>
	<node id="-91594" lat="69.5628250002" lon="17.4794388767">
		<tag k="name" v="Drakura" />
		<tag k="natural" v="scree" />
		<tag k="ssr:stedsnr" v="419185" />
	</node>
	<node id="-91592" lat="69.5166750008" lon="17.4313638797">
		<tag k="name" v="Banmyra" />
		<tag k="natural" v="wetland" />
		<tag k="ssr:stedsnr" v="419156" />
	</node>
	<node id="-91587" lat="69.4212722201" lon="17.5034166653">
		<tag k="name" v="Moltebærhagen" />
		<tag k="natural" v="wetland" />
		<tag k="ssr:stedsnr" v="419113" />
	</node>
	<node id="-91583" lat="69.4402277814" lon="17.354683331">
		<tag k="name" v="Kjerka" />
		<tag k="natural" v="stone" />
		<tag k="ssr:stedsnr" v="417896" />
	</node>
	<node id="-87485" lat="69.1899972229" lon="17.0230166565">
		<tag k="name" v="Uran" />
		<tag k="natural" v="scree" />
		<tag k="ssr:stedsnr" v="476134" />
	</node>
	<node id="-91578" lat="69.263927776" lon="17.6533972102">
		<tag k="name" v="Stakkemyra" />
		<tag k="natural" v="wetland" />
		<tag k="ssr:stedsnr" v="417669" />
	</node>
	<node id="-93087" lat="69.4643527753" lon="18.2365083368">
		<tag k="name" v="Forrholtan" />
		<tag k="place" v="locality" />
		<tag k="ssr:stedsnr" v="839878" />
	</node>
	<node id="-91576" lat="69.2731638927" lon="17.6480416768">
		<tag k="name" v="Nordskogen" />
		<tag k="place" v="locality" />
		<tag k="ssr:stedsnr" v="417659" />
	</node>
	<node id="-89524" lat="69.2126777758" lon="17.4338972279">
		<tag k="name" v="Stormyra" />
		<tag k="natural" v="wetland" />
		<tag k="ssr:stedsnr" v="19370" />
	</node>
	<node id="-86259" lat="69.3681666665" lon="18.3315972086">
		<tag k="name" v="Jarnesmyra" />
		<tag k="natural" v="wetland" />
		<tag k="ssr:stedsnr" v="232933" />
	</node>
	<node id="-87471" lat="69.2785611074" lon="17.0861388874">
		<tag k="name" v="Hampeskogen" />
		<tag k="place" v="locality" />
		<tag k="ssr:stedsnr" v="475481" />
	</node>
	<node id="-91565" lat="69.0569805577" lon="17.0789444409">
		<tag k="landuse" v="meadow" />
		<tag k="name" v="Langåkeren" />
		<tag k="ssr:stedsnr" v="416685" />
	</node>
	<node id="-87468" lat="69.2975388851" lon="16.964455562">
		<tag k="name" v="Naustnesøyra" />
		<tag k="place" v="locality" />
		<tag k="ssr:stedsnr" v="475412" />
	</node>
	<node id="-91560" lat="69.040177778" lon="17.1806110974">
		<tag k="name" v="Kariskogen" />
		<tag k="place" v="locality" />
		<tag k="ssr:stedsnr" v="416645" />
	</node>
	<node id="-87462" lat="69.2072527804" lon="16.9039888802">
		<tag k="name" v="Nakkura" />
		<tag k="natural" v="scree" />
		<tag k="ssr:stedsnr" v="475267" />
	</node>
	<node id="-91552" lat="69.2836805522" lon="17.0766388947">
		<tag k="name" v="Rognkallmyra" />
		<tag k="natural" v="wetland" />
		<tag k="ssr:stedsnr" v="416563" />
	</node>
	<node id="-87455" lat="69.3661777785" lon="18.31835833">
		<tag k="name" v="Straumsnesøra" />
		<tag k="place" v="locality" />
		<tag k="ssr:stedsnr" v="474938" />
	</node>
	<node id="-87441" lat="69.2524111128" lon="18.174572213">
		<tag k="name" v="Storsteinen" />
		<tag k="natural" v="stone" />
		<tag k="ssr:stedsnr" v="474627" />
	</node>
	<node id="-91536" lat="69.1702222216" lon="17.0686611065">
		<tag k="name" v="Lomsjorda" />
		<tag k="place" v="locality" />
		<tag k="ssr:stedsnr" v="416374" />
	</node>
	<node id="-87433" lat="69.2360666695" lon="18.0370750039">
		<tag k="name" v="Holtet" />
		<tag k="place" v="locality" />
		<tag k="ssr:stedsnr" v="474448" />
	</node>
	<node id="-87425" lat="69.5768111086" lon="17.7073305513">
		<tag k="name" v="Renneskogen" />
		<tag k="place" v="locality" />
		<tag k="ssr:stedsnr" v="473802" />
	</node>
	<node id="-91519" lat="69.4606055547" lon="17.3633694306">
		<tag k="name" v="Dalsteinen" />
		<tag k="natural" v="stone" />
		<tag k="ssr:stedsnr" v="416084" />
	</node>
	<node id="-87422" lat="69.2206472255" lon="17.8711138985">
		<tag k="name" v="Flottmyra" />
		<tag k="natural" v="wetland" />
		<tag k="ssr:stedsnr" v="473684" />
	</node>
	<node id="-87421" lat="69.2408305552" lon="17.9524833204">
		<tag k="name" v="Rødmyra" />
		<tag k="natural" v="wetland" />
		<tag k="ssr:stedsnr" v="473673" />
	</node>
	<node id="-87416" lat="69.4202416695" lon="18.0148361093">
		<tag k="name" v="Lanesmyrene" />
		<tag k="natural" v="wetland" />
		<tag k="ssr:stedsnr" v="473409" />
	</node>
	<node id="-87407" lat="69.4534916684" lon="17.995977785">
		<tag k="name" v="Torbergmyra" />
		<tag k="natural" v="wetland" />
		<tag k="ssr:stedsnr" v="473329" />
	</node>
	<node id="-89454" lat="69.0330999968" lon="17.1923111196">
		<tag k="name" v="Stormyra" />
		<tag k="natural" v="wetland" />
		<tag k="ssr:stedsnr" v="18080" />
	</node>
	<node id="-89453" lat="69.0307916633" lon="17.2078888795">
		<tag k="name" v="Ramfløymyra" />
		<tag k="natural" v="wetland" />
		<tag k="ssr:stedsnr" v="18079" />
	</node>
	<node id="-91499" lat="69.2158916647" lon="17.4240749989">
		<tag k="name" v="Skolpemyra" />
		<tag k="natural" v="wetland" />
		<tag k="ssr:stedsnr" v="415893" />
	</node>
	<node id="-87402" lat="69.5701027782" lon="17.5577194412">
		<tag k="name" v="Jordsteinen" />
		<tag k="natural" v="stone" />
		<tag k="ssr:stedsnr" v="473186" />
	</node>
	<node id="-87400" lat="69.3016555582" lon="17.9863527846">
		<tag k="name" v="Finnkornøyra" />
		<tag k="place" v="locality" />
		<tag k="ssr:stedsnr" v="473095" />
	</node>
	<node id="-87399" lat="69.2552416706" lon="17.6682694426">
		<tag k="name" v="Tømmernesmyra" />
		<tag k="natural" v="wetland" />
		<tag k="ssr:stedsnr" v="473067" />
	</node>
	<node id="-91487" lat="69.1929416702" lon="17.8019527886">
		<tag k="name" v="Vintervassmyra" />
		<tag k="natural" v="wetland" />
		<tag k="ssr:stedsnr" v="415729" />
	</node>
	<node id="-88632" lat="69.4020916669" lon="18.0242610982">
		<tag k="name" v="Forrholtet" />
		<tag k="place" v="locality" />
		<tag k="ssr:stedsnr" v="716842" />
	</node>
	<node id="-93531" lat="69.4993138862" lon="17.5089444416">
		<tag k="name" v="Nålkytøyra" />
		<tag k="place" v="locality" />
		<tag k="ssr:stedsnr" v="965251" />
	</node>
	<node id="-87951" lat="69.1467666714" lon="17.0858055502">
		<tag k="name" v="Storsteinen" />
		<tag k="natural" v="stone" />
		<tag k="ssr:stedsnr" v="476361" />
	</node>
	<node id="-91480" lat="69.1077666686" lon="16.8984027824">
		<tag k="name" v="De tre brødre" />
		<tag k="natural" v="stone" />
		<tag k="ssr:stedsnr" v="415627" />
	</node>
	<node id="-91476" lat="69.2330083354" lon="17.6380388875">
		<tag k="name" v="Austerflotmyra" />
		<tag k="natural" v="wetland" />
		<tag k="ssr:stedsnr" v="415594" />
	</node>
	<node id="-93521" lat="69.473866662" lon="17.3862805608">
		<tag k="name" v="Forklesteinen" />
		<tag k="natural" v="stone" />
		<tag k="ssr:stedsnr" v="963897" />
	</node>
	<node id="-93520" lat="69.4694833365" lon="17.4034972186">
		<tag k="name" v="Kvitsteinan" />
		<tag k="natural" v="stone" />
		<tag k="ssr:stedsnr" v="963895" />
	</node>
	<node id="-91471" lat="69.1237194482" lon="17.2554110997">
		<tag k="name" v="Peder-Tingstadkjærran" />
		<tag k="place" v="locality" />
		<tag k="ssr:stedsnr" v="415533" />
	</node>
	<node id="-87266" lat="69.2606944456" lon="17.6564194314">
		<tag k="name" v="Sandmyra" />
		<tag k="natural" v="wetland" />
		<tag k="ssr:stedsnr" v="234615" />
	</node>
	<node id="-93514" lat="69.3577402161" lon="17.4346871688">
		<tag k="name" v="Storjorda" />
		<tag k="place" v="locality" />
		<tag k="ssr:stedsnr" v="962849" />
	</node>
	<node id="-87367" lat="69.3566194426" lon="17.8041833182">
		<tag k="name" v="Almenningen" />
		<tag k="natural" v="wetland" />
		<tag k="ssr:stedsnr" v="472217" />
	</node>
	<node id="-89413" lat="69.4178694423" lon="17.3198027877">
		<tag k="name" v="Stormyra" />
		<tag k="natural" v="wetland" />
		<tag k="ssr:stedsnr" v="962914" />
	</node>
	<node id="-93508" lat="69.4433499979" lon="17.3187805599">
		<tag k="name" v="Kjerran" />
		<tag k="place" v="locality" />
		<tag k="ssr:stedsnr" v="962763" />
	</node>
	<node id="-89410" lat="69.0272055593" lon="17.1555277775">
		<tag k="name" v="Langmyra" />
		<tag k="natural" v="wetland" />
		<tag k="ssr:stedsnr" v="962663" />
	</node>
	<node id="-87605" lat="69.2026416683" lon="17.4925000112">
		<tag k="name" v="Vardnesøyra" />
		<tag k="place" v="locality" />
		<tag k="ssr:stedsnr" v="354911" />
	</node>
	<node id="-87351" lat="69.3892027792" lon="17.0790416637">
		<tag k="alt_name" v="Sildvikøra" />
		<tag k="name" v="Sildevikøyra" />
		<tag k="place" v="locality" />
		<tag k="ssr:stedsnr" v="468154" />
	</node>
	<node id="-93490" lat="69.3168916715" lon="17.1128222128">
		<tag k="name" v="Skorsteinsura" />
		<tag k="natural" v="scree" />
		<tag k="ssr:stedsnr" v="962495" />
	</node>
	<node id="-93480" lat="69.0914833336" lon="17.2303861109">
		<tag k="name" v="Finnsetjorda" />
		<tag k="place" v="locality" />
		<tag k="ssr:stedsnr" v="962382" />
	</node>
	<node id="-93477" lat="69.501066665" lon="17.3682555483">
		<tag k="name" v="Høysteinen" />
		<tag k="natural" v="stone" />
		<tag k="ssr:stedsnr" v="962242" />
	</node>
	<node id="-91428" lat="69.3862472228" lon="18.2593110959">
		<tag k="name" v="Kråene" />
		<tag k="natural" v="wetland" />
		<tag k="ssr:stedsnr" v="414877" />
	</node>
	<node id="-93475" lat="69.400827779" lon="17.3417888906">
		<tag k="name" v="Kjosmyran" />
		<tag k="natural" v="wetland" />
		<tag k="ssr:stedsnr" v="962335" />
	</node>
	<node id="-87328" lat="69.2909138916" lon="17.8035833225">
		<tag k="name" v="Feitmyra" />
		<tag k="natural" v="wetland" />
		<tag k="ssr:stedsnr" v="290616" />
	</node>
	<node id="-89647" lat="69.3859305528" lon="17.9997750079">
		<tag k="name" v="Forrholtet" />
		<tag k="place" v="locality" />
		<tag k="ssr:stedsnr" v="48901" />
	</node>
	<node id="-93463" lat="69.0723166713" lon="16.8139222182">
		<tag k="name" v="Finnjordholtan" />
		<tag k="place" v="locality" />
		<tag k="ssr:stedsnr" v="961944" />
	</node>
	<node id="-87310" lat="69.3738749985" lon="17.1276694314">
		<tag k="name" v="Tolmyran" />
		<tag k="natural" v="wetland" />
		<tag k="ssr:stedsnr" v="261325" />
	</node>
	<node id="-89356" lat="69.3936611089" lon="18.356269444">
		<tag k="name" v="Heggeskogøra" />
		<tag k="place" v="locality" />
		<tag k="ssr:stedsnr" v="958631" />
	</node>
	<node id="-89352" lat="69.2069694435" lon="17.7319972302">
		<tag k="name" v="Vassenglimyra" />
		<tag k="natural" v="wetland" />
		<tag k="ssr:stedsnr" v="958565" />
	</node>
	<node id="-93446" lat="69.2065861093" lon="17.5351333221">
		<tag k="name" v="Kjærrdalsskogen" />
		<tag k="place" v="locality" />
		<tag k="ssr:stedsnr" v="961591" />
	</node>
	<node id="-93444" lat="69.2120055573" lon="17.6050194473">
		<tag k="name" v="Kartmyra" />
		<tag k="natural" v="wetland" />
		<tag k="ssr:stedsnr" v="961579" />
	</node>
	<node id="-93398" lat="69.3043472217" lon="18.0048361018">
		<tag k="name" v="Hestemyrholtet" />
		<tag k="place" v="locality" />
		<tag k="ssr:stedsnr" v="959076" />
	</node>
	<node id="-91387" lat="69.5446611087" lon="17.7491999907">
		<tag k="name" v="Lensmannsura" />
		<tag k="natural" v="scree" />
		<tag k="ssr:stedsnr" v="412796" />
	</node>
	<node id="-91375" lat="69.284555558" lon="17.7658444368">
		<tag k="name" v="Lommyra" />
		<tag k="natural" v="wetland" />
		<tag k="ssr:stedsnr" v="412607" />
	</node>
	<node id="-89324" lat="69.4673583304" lon="17.6644583204">
		<tag k="name" v="Finnkjerka" />
		<tag k="natural" v="stone" />
		<tag k="ssr:stedsnr" v="904266" />
	</node>
	<node id="-87271" lat="69.246175003" lon="17.5690833329">
		<tag k="name" v="Plassfossmyran" />
		<tag k="natural" v="wetland" />
		<tag k="ssr:stedsnr" v="234637" />
	</node>
	<node id="-89318" lat="69.4819861086" lon="17.4205749899">
		<tag k="name" v="Storura" />
		<tag k="natural" v="scree" />
		<tag k="ssr:stedsnr" v="904118" />
	</node>
	<node id="-89314" lat="69.4211888885" lon="17.3083750043">
		<tag k="name" v="Jobonmyra" />
		<tag k="natural" v="wetland" />
		<tag k="ssr:stedsnr" v="902942" />
	</node>
	<node id="-87265" lat="69.0821555552" lon="17.0364638867">
		<tag k="name" v="Mortenholla" />
		<tag k="natural" v="wetland" />
		<tag k="ssr:stedsnr" v="234611" />
	</node>
	<node id="-91355" lat="69.4509583341" lon="17.7449305593">
		<tag k="name" v="Sørenmyra" />
		<tag k="natural" v="wetland" />
		<tag k="ssr:stedsnr" v="412176" />
	</node>
	<node id="-89305" lat="69.481908331" lon="17.332230548">
		<tag k="name" v="Huldersteinan" />
		<tag k="natural" v="stone" />
		<tag k="ssr:stedsnr" v="902268" />
	</node>
	<node id="-87254" lat="69.2794694452" lon="17.0882333207">
		<tag k="name" v="Hampeskogmyra" />
		<tag k="natural" v="wetland" />
		<tag k="ssr:stedsnr" v="233530" />
	</node>
	<node id="-89301" lat="69.4725222251" lon="17.332547229">
		<tag k="name" v="Kroksteinen" />
		<tag k="natural" v="stone" />
		<tag k="ssr:stedsnr" v="902074" />
	</node>
	<node id="-91348" lat="69.2502972236" lon="17.6838166678">
		<tag k="name" v="Langmyra" />
		<tag k="natural" v="wetland" />
		<tag k="ssr:stedsnr" v="412050" />
	</node>
	<node id="-89295" lat="69.0521277792" lon="17.148797213">
		<tag k="name" v="Mormyra" />
		<tag k="natural" v="wetland" />
		<tag k="ssr:stedsnr" v="901662" />
	</node>
	<node id="-89292" lat="69.2193722229" lon="17.4350249994">
		<tag k="name" v="Vardnesmyran" />
		<tag k="natural" v="wetland" />
		<tag k="ssr:stedsnr" v="901913" />
	</node>
	<node id="-93387" lat="69.4023611143" lon="17.9704472214">
		<tag k="name" v="Jørnmyra" />
		<tag k="natural" v="wetland" />
		<tag k="ssr:stedsnr" v="958768" />
	</node>
	<node id="-91337" lat="69.3641972218" lon="17.404647232">
		<tag k="name" v="Håvsjord" />
		<tag k="place" v="locality" />
		<tag k="ssr:stedsnr" v="410866" />
	</node>
	<node id="-87239" lat="69.3554444404" lon="18.4745333392">
		<tag k="name" v="Langmyra" />
		<tag k="natural" v="wetland" />
		<tag k="ssr:stedsnr" v="232814" />
	</node>
	<node id="-89276" lat="69.3183583365" lon="17.1164972259">
		<tag k="name" v="Skorsteinen" />
		<tag k="natural" v="stone" />
		<tag k="ssr:stedsnr" v="901506" />
	</node>
	<node id="-93332" lat="69.3853749989" lon="18.0368611077">
		<tag k="name" v="Steinmyra" />
		<tag k="natural" v="wetland" />
		<tag k="ssr:stedsnr" v="874524" />
	</node>
	<node id="-93364" lat="69.3101194432" lon="17.8032333189">
		<tag k="name" v="Bergerapmyra" />
		<tag k="natural" v="wetland" />
		<tag k="ssr:stedsnr" v="958315" />
	</node>
	<node id="-89266" lat="69.2961333349" lon="16.9459000026">
		<tag k="name" v="Litjeøyra" />
		<tag k="place" v="locality" />
		<tag k="ssr:stedsnr" v="900404" />
	</node>
	<node id="-89259" lat="69.1942388883" lon="17.8174055509">
		<tag k="alt_name" v="Langemyraskogen" />
		<tag k="name" v="Langmyrskogen" />
		<tag k="place" v="locality" />
		<tag k="ssr:stedsnr" v="898956" />
	</node>
	<node id="-89257" lat="69.1747972176" lon="17.9435694498">
		<tag k="name" v="Øyran" />
		<tag k="place" v="locality" />
		<tag k="ssr:stedsnr" v="898756" />
	</node>
	<node id="-87206" lat="69.2439861084" lon="17.8589749972">
		<tag k="name" v="Knutjomyra" />
		<tag k="natural" v="wetland" />
		<tag k="ssr:stedsnr" v="230964" />
	</node>
	<node id="-87204" lat="69.2415999991" lon="17.8643805442">
		<tag k="name" v="Svenskebakkmyra" />
		<tag k="natural" v="wetland" />
		<tag k="ssr:stedsnr" v="230952" />
	</node>
	<node id="-86214" lat="69.576372221" lon="17.656749996">
		<tag k="name" v="Brosmesteinen" />
		<tag k="natural" v="stone" />
		<tag k="ssr:stedsnr" v="230176" />
	</node>
	<node id="-89248" lat="69.4250027773" lon="18.006108342">
		<tag k="name" v="Stiskogen" />
		<tag k="place" v="locality" />
		<tag k="ssr:stedsnr" v="898367" />
	</node>
	<node id="-91292" lat="69.2940666623" lon="18.0254111183">
		<tag k="name" v="Tverrelvmyra" />
		<tag k="natural" v="wetland" />
		<tag k="ssr:stedsnr" v="382787" />
	</node>
	<node id="-89243" lat="69.3038555562" lon="18.0080500017">
		<tag k="name" v="Hestemyra" />
		<tag k="natural" v="wetland" />
		<tag k="ssr:stedsnr" v="898072" />
	</node>
	<node id="-89239" lat="69.3444527776" lon="17.8642611023">
		<tag k="name" v="Hundemyrholtet" />
		<tag k="place" v="locality" />
		<tag k="ssr:stedsnr" v="897571" />
	</node>
	<node id="-89238" lat="69.3647666712" lon="17.8543333246">
		<tag k="name" v="Storholtet" />
		<tag k="place" v="locality" />
		<tag k="ssr:stedsnr" v="897559" />
	</node>
	<node id="-87188" lat="69.2368833359" lon="17.6749833269">
		<tag k="name" v="Bjørnsteinen" />
		<tag k="natural" v="stone" />
		<tag k="ssr:stedsnr" v="230053" />
	</node>
	<node id="-91282" lat="69.3793138869" lon="18.4132999874">
		<tag k="name" v="Andholtet" />
		<tag k="place" v="locality" />
		<tag k="ssr:stedsnr" v="382713" />
	</node>
	<node id="-91279" lat="69.359555553" lon="18.0091861068">
		<tag k="alt_name" v="Landøymyrene" />
		<tag k="name" v="Landøymyran" />
		<tag k="natural" v="wetland" />
		<tag k="ssr:stedsnr" v="382696" />
	</node>
	<node id="-87181" lat="69.4522666701" lon="17.9905027818">
		<tag k="name" v="Kleivmyra" />
		<tag k="natural" v="wetland" />
		<tag k="ssr:stedsnr" v="230304" />
	</node>
	<node id="-91274" lat="69.3949305543" lon="18.3453527688">
		<tag k="name" v="Heggeskogan" />
		<tag k="place" v="locality" />
		<tag k="ssr:stedsnr" v="382658" />
	</node>
	<node id="-89222" lat="69.2456527793" lon="17.7410444316">
		<tag k="name" v="Grønliskogen" />
		<tag k="place" v="locality" />
		<tag k="ssr:stedsnr" v="868423" />
	</node>
	<node id="-93304" lat="69.3684111124" lon="18.1520194355">
		<tag k="name" v="Kvitmyra" />
		<tag k="natural" v="wetland" />
		<tag k="ssr:stedsnr" v="868695" />
	</node>
	<node id="-93298" lat="69.4471611106" lon="18.1803833343">
		<tag k="name" v="Stormyra" />
		<tag k="natural" v="wetland" />
		<tag k="ssr:stedsnr" v="868631" />
	</node>
	<node id="-89198" lat="69.2537250034" lon="17.5882027651">
		<tag k="name" v="Litjenesmyra" />
		<tag k="natural" v="wetland" />
		<tag k="ssr:stedsnr" v="842656" />
	</node>
	<node id="-89195" lat="69.4514194439" lon="17.2802583329">
		<tag k="name" v="Trettemyra" />
		<tag k="natural" v="wetland" />
		<tag k="ssr:stedsnr" v="842268" />
	</node>
	<node id="-89194" lat="69.3174333359" lon="17.5132583291">
		<tag k="name" v="Stormyra" />
		<tag k="natural" v="wetland" />
		<tag k="ssr:stedsnr" v="842217" />
	</node>
	<node id="-87910" lat="69.2593500021" lon="17.6374916742">
		<tag k="name" v="Vassmyra" />
		<tag k="natural" v="wetland" />
		<tag k="ssr:stedsnr" v="659678" />
	</node>
	<node id="-89185" lat="69.2481944445" lon="17.1303277747">
		<tag k="name" v="Gjeskura" />
		<tag k="natural" v="scree" />
		<tag k="ssr:stedsnr" v="841480" />
	</node>
	<node id="-89183" lat="69.4088027782" lon="17.2642527722">
		<tag k="name" v="Huldresteinen" />
		<tag k="natural" v="stone" />
		<tag k="ssr:stedsnr" v="841474" />
	</node>
	<node id="-89179" lat="69.0732916698" lon="17.1560694514">
		<tag k="name" v="Tjønnemyra" />
		<tag k="natural" v="wetland" />
		<tag k="ssr:stedsnr" v="841263" />
	</node>
	<node id="-88590" lat="69.4684083309" lon="17.5688249851">
		<tag k="name" v="Hestura" />
		<tag k="natural" v="scree" />
		<tag k="ssr:stedsnr" v="660295" />
	</node>
	<node id="-89164" lat="69.2153027777" lon="17.4517777827">
		<tag k="name" v="Gallenkjærran" />
		<tag k="place" v="locality" />
		<tag k="ssr:stedsnr" v="840922" />
	</node>
	<node id="-89162" lat="69.2762694413" lon="17.5263027737">
		<tag k="name" v="Steinhøllmyran" />
		<tag k="natural" v="wetland" />
		<tag k="ssr:stedsnr" v="840909" />
	</node>
	<node id="-89160" lat="69.1011638885" lon="17.025591662">
		<tag k="name" v="Bjørnlimyran" />
		<tag k="natural" v="wetland" />
		<tag k="ssr:stedsnr" v="840558" />
	</node>
	<node id="-91207" lat="69.2163472221" lon="17.5831860978">
		<tag k="name" v="Merkesmyra" />
		<tag k="natural" v="wetland" />
		<tag k="ssr:stedsnr" v="382368" />
	</node>
	<node id="-89150" lat="69.3935388873" lon="17.0169611131">
		<tag k="name" v="Hundevikmyran" />
		<tag k="natural" v="wetland" />
		<tag k="ssr:stedsnr" v="840421" />
	</node>
	<node id="-89141" lat="69.3751194439" lon="18.4605444344">
		<tag k="name" v="Forrholtet" />
		<tag k="place" v="locality" />
		<tag k="ssr:stedsnr" v="839853" />
	</node>
	<node id="-89138" lat="69.3096111154" lon="18.3344527771">
		<tag k="name" v="Åsemyra" />
		<tag k="natural" v="wetland" />
		<tag k="ssr:stedsnr" v="839735" />
	</node>
	<node id="-89131" lat="69.2673583304" lon="17.6968694383">
		<tag k="name" v="Almenningsmyra" />
		<tag k="natural" v="wetland" />
		<tag k="ssr:stedsnr" v="837717" />
	</node>
	<node id="-91174" lat="69.0756611124" lon="16.9261027693">
		<tag k="name" v="Hesteskomyra" />
		<tag k="natural" v="wetland" />
		<tag k="old_name" v="Hesteskarsmyra" />
		<tag k="ssr:stedsnr" v="382055" />
	</node>
	<node id="-93211" lat="69.5112611102" lon="17.4437249878">
		<tag k="name" v="Huldersteinen" />
		<tag k="natural" v="stone" />
		<tag k="ssr:stedsnr" v="844212" />
	</node>
	<node id="-89114" lat="69.5689750031" lon="17.5501111203">
		<tag k="name" v="Godmyra" />
		<tag k="natural" v="wetland" />
		<tag k="ssr:stedsnr" v="837153" />
	</node>
	<node id="-89112" lat="69.3563166695" lon="17.8469083335">
		<tag k="name" v="Vassendmyra" />
		<tag k="natural" v="wetland" />
		<tag k="ssr:stedsnr" v="837216" />
	</node>
	<node id="-91158" lat="69.1364083344" lon="17.2601972194">
		<tag k="name" v="Blåfjellkollmyra" />
		<tag k="natural" v="wetland" />
		<tag k="ssr:stedsnr" v="381213" />
	</node>
	<node id="-93205" lat="69.5234444445" lon="17.4085333314">
		<tag k="name" v="Munken" />
		<tag k="natural" v="stone" />
		<tag k="ssr:stedsnr" v="844149" />
	</node>
	<node id="-87059" lat="69.493494448" lon="17.3920888932">
		<tag k="name" v="Gluggen" />
		<tag k="natural" v="stone" />
		<tag k="ssr:stedsnr" v="297147" />
	</node>
	<node id="-93194" lat="69.486624999" lon="17.5083999984">
		<tag k="name" v="Bringskogen" />
		<tag k="place" v="locality" />
		<tag k="ssr:stedsnr" v="843070" />
	</node>
	<node id="-93193" lat="69.4945249954" lon="17.4748361171">
		<tag k="name" v="Teppsteinen" />
		<tag k="natural" v="stone" />
		<tag k="ssr:stedsnr" v="843064" />
	</node>
	<node id="-93192" lat="69.4931527793" lon="17.4695805463">
		<tag k="name" v="Vedskulsteinan" />
		<tag k="natural" v="stone" />
		<tag k="ssr:stedsnr" v="843061" />
	</node>
	<node id="-93189" lat="69.4435666694" lon="17.3466666542">
		<tag k="name" v="Finnhaugura" />
		<tag k="natural" v="scree" />
		<tag k="ssr:stedsnr" v="842877" />
	</node>
	<node id="-93188" lat="69.4427250034" lon="17.355755551">
		<tag k="name" v="Høgdasteinen" />
		<tag k="natural" v="stone" />
		<tag k="ssr:stedsnr" v="842871" />
	</node>
	<node id="-93186" lat="69.2481638889" lon="17.631830557">
		<tag k="name" v="Kjosmyra" />
		<tag k="natural" v="wetland" />
		<tag k="ssr:stedsnr" v="842694" />
	</node>
	<node id="-93355" lat="69.5721944489" lon="17.5512361073">
		<tag k="name" v="Sennemyra" />
		<tag k="natural" v="wetland" />
		<tag k="ssr:stedsnr" v="958166" />
	</node>
	<node id="-91135" lat="69.5061138896" lon="17.4295860971">
		<tag k="name" v="Dalmyra" />
		<tag k="natural" v="wetland" />
		<tag k="ssr:stedsnr" v="358209" />
	</node>
	<node id="-87038" lat="69.4879583326" lon="17.2713388853">
		<tag k="name" v="Melkarsteinen" />
		<tag k="natural" v="stone" />
		<tag k="ssr:stedsnr" v="295678" />
	</node>
	<node id="-87893" lat="69.4041111092" lon="17.3003027735">
		<tag k="name" v="Ytre Storsteinen" />
		<tag k="natural" v="stone" />
		<tag k="ssr:stedsnr" v="659389" />
	</node>
	<node id="-91130" lat="69.4403388906" lon="17.4600444509">
		<tag k="name" v="Hestemyra" />
		<tag k="natural" v="wetland" />
		<tag k="ssr:stedsnr" v="358025" />
	</node>
	<node id="-87030" lat="69.2518499967" lon="17.5458111102">
		<tag k="name" v="Tjønnmyra" />
		<tag k="natural" v="wetland" />
		<tag k="ssr:stedsnr" v="295636" />
	</node>
	<node id="-93171" lat="69.0273472196" lon="17.1081527737">
		<tag k="name" v="Ardalsmyra" />
		<tag k="natural" v="wetland" />
		<tag k="ssr:stedsnr" v="841646" />
	</node>
	<node id="-93167" lat="69.3874722214" lon="17.0846861105">
		<tag k="name" v="Daumannsøyra" />
		<tag k="place" v="locality" />
		<tag k="ssr:stedsnr" v="841701" />
	</node>
	<node id="-91116" lat="69.261777778" lon="17.6500694412">
		<tag k="name" v="Rødmyra" />
		<tag k="natural" v="wetland" />
		<tag k="ssr:stedsnr" v="356638" />
	</node>
	<node id="-91112" lat="69.2082194411" lon="17.6724722172">
		<tag k="name" v="Øverlandsmyra" />
		<tag k="natural" v="wetland" />
		<tag k="ssr:stedsnr" v="356614" />
	</node>
	<node id="-93159" lat="69.255774996" lon="17.1123250043">
		<tag k="name" v="Langslåtta" />
		<tag k="place" v="locality" />
		<tag k="ssr:stedsnr" v="841531" />
	</node>
	<node id="-93157" lat="69.2371944477" lon="17.5580055469">
		<tag k="name" v="Brønnstamyra" />
		<tag k="natural" v="wetland" />
		<tag k="ssr:stedsnr" v="841518" />
	</node>
	<node id="-87010" lat="69.3996805517" lon="17.3161555431">
		<tag k="landuse" v="meadow" />
		<tag k="name" v="Påljorda" />
		<tag k="ssr:stedsnr" v="295368" />
	</node>
	<node id="-91103" lat="69.3940833364" lon="17.3917861003">
		<tag k="name" v="Stormyra" />
		<tag k="natural" v="wetland" />
		<tag k="ssr:stedsnr" v="355963" />
	</node>
	<node id="-93150" lat="69.406888889" lon="17.1367638956">
		<tag k="name" v="Hellandsura" />
		<tag k="natural" v="scree" />
		<tag k="ssr:stedsnr" v="841239" />
	</node>
	<node id="-87003" lat="69.530147225" lon="17.3688555614">
		<tag k="name" v="Høysteinen" />
		<tag k="natural" v="stone" />
		<tag k="ssr:stedsnr" v="295112" />
	</node>
	<node id="-87002" lat="69.4568277793" lon="17.3519527729">
		<tag k="name" v="Buktura" />
		<tag k="natural" v="scree" />
		<tag k="ssr:stedsnr" v="295092" />
	</node>
	<node id="-91094" lat="69.0600250016" lon="17.1052472207">
		<tag k="name" v="Tranmyra" />
		<tag k="natural" v="wetland" />
		<tag k="ssr:stedsnr" v="355683" />
	</node>
	<node id="-91093" lat="69.4475194442" lon="17.4588360975">
		<tag k="name" v="Vassmyra" />
		<tag k="natural" v="wetland" />
		<tag k="ssr:stedsnr" v="355681" />
	</node>
	<node id="-86994" lat="69.1933388906" lon="17.667716656">
		<tag k="name" v="Moskogen" />
		<tag k="place" v="locality" />
		<tag k="ssr:stedsnr" v="294988" />
	</node>
	<node id="-93131" lat="69.1810388904" lon="17.5410666545">
		<tag k="name" v="Russemyra" />
		<tag k="natural" v="wetland" />
		<tag k="ssr:stedsnr" v="840990" />
	</node>
	<node id="-93122" lat="69.2325749973" lon="17.6264527794">
		<tag k="name" v="Rødmyra" />
		<tag k="natural" v="wetland" />
		<tag k="ssr:stedsnr" v="840550" />
	</node>
	<node id="-93121" lat="69.232261114" lon="17.6831166618">
		<tag k="name" v="Djupelvmyra" />
		<tag k="natural" v="wetland" />
		<tag k="ssr:stedsnr" v="840549" />
	</node>
	<node id="-93118" lat="69.282447219" lon="17.1122305568">
		<tag k="name" v="Sifjordura" />
		<tag k="natural" v="scree" />
		<tag k="ssr:stedsnr" v="840502" />
	</node>
	<node id="-91068" lat="69.2510333305" lon="17.1456305608">
		<tag k="name" v="Jorda" />
		<tag k="place" v="locality" />
		<tag k="ssr:stedsnr" v="355486" />
	</node>
	<node id="-91067" lat="69.3128333347" lon="17.0897444466">
		<tag k="name" v="Kongsnesholtan" />
		<tag k="place" v="locality" />
		<tag k="ssr:stedsnr" v="355468" />
	</node>
	<node id="-93113" lat="69.2128861117" lon="17.5805888913">
		<tag k="name" v="Merkesmyra" />
		<tag k="natural" v="wetland" />
		<tag k="ssr:stedsnr" v="840571" />
	</node>
	<node id="-86967" lat="69.3657166694" lon="17.083694448">
		<tag k="name" v="Håmannsura" />
		<tag k="natural" v="scree" />
		<tag k="ssr:stedsnr" v="294686" />
	</node>
	<node id="-93107" lat="69.1825722192" lon="17.0981499973">
		<tag k="name" v="Skogen" />
		<tag k="place" v="locality" />
		<tag k="ssr:stedsnr" v="840473" />
	</node>
	<node id="-86954" lat="69.1040361123" lon="17.0307583335">
		<tag k="name" v="Stilimyran" />
		<tag k="natural" v="wetland" />
		<tag k="ssr:stedsnr" v="294594" />
	</node>
	<node id="-86951" lat="69.0178361089" lon="17.1479250017">
		<tag k="name" v="Åklomyra" />
		<tag k="natural" v="wetland" />
		<tag k="ssr:stedsnr" v="294578" />
	</node>
	<node id="-86949" lat="69.2532055534" lon="17.1158527863">
		<tag k="name" v="Litjevassholtet" />
		<tag k="place" v="locality" />
		<tag k="ssr:stedsnr" v="294571" />
	</node>
	<node id="-86948" lat="69.2512805523" lon="17.1137388866">
		<tag k="name" v="Mølneholtan" />
		<tag k="place" v="locality" />
		<tag k="ssr:stedsnr" v="294570" />
	</node>
	<node id="-86944" lat="69.2559166704" lon="17.1201305535">
		<tag k="name" v="Krokholtet" />
		<tag k="place" v="locality" />
		<tag k="ssr:stedsnr" v="294563" />
	</node>
	<node id="-91039" lat="69.2373944483" lon="17.6294388833">
		<tag k="name" v="Langmyra" />
		<tag k="natural" v="wetland" />
		<tag k="ssr:stedsnr" v="354565" />
	</node>
	<node id="-86942" lat="69.0153861091" lon="17.0810444408">
		<tag k="name" v="Heimervassmyra" />
		<tag k="natural" v="wetland" />
		<tag k="ssr:stedsnr" v="294559" />
	</node>
	<node id="-86941" lat="69.0192000038" lon="17.0972805454">
		<tag k="name" v="Mikkjelmyra" />
		<tag k="natural" v="wetland" />
		<tag k="ssr:stedsnr" v="294555" />
	</node>
	<node id="-91036" lat="69.2321972208" lon="17.5892305441">
		<tag k="name" v="Storsteinen" />
		<tag k="natural" v="stone" />
		<tag k="ssr:stedsnr" v="354556" />
	</node>
	<node id="-86927" lat="69.0718333304" lon="17.148044445">
		<tag k="name" v="Bestefarsmyra" />
		<tag k="natural" v="wetland" />
		<tag k="ssr:stedsnr" v="294249" />
	</node>
	<node id="-88973" lat="69.028130553" lon="17.1718500024">
		<tag k="alt_name" v="Latraumyra" />
		<tag k="name" v="Latrauvmyra" />
		<tag k="natural" v="wetland" />
		<tag k="ssr:stedsnr" v="928067" />
	</node>
	<node id="-86923" lat="69.3154611119" lon="17.765866656">
		<tag k="name" v="Geitmyran" />
		<tag k="natural" v="wetland" />
		<tag k="ssr:stedsnr" v="202230" />
	</node>
	<node id="-91015" lat="69.3526194466" lon="17.029611115">
		<tag k="name" v="Sølvskeiura" />
		<tag k="natural" v="scree" />
		<tag k="ssr:stedsnr" v="354422" />
	</node>
	<node id="-86917" lat="69.0575861079" lon="16.8046277842">
		<tag k="name" v="Senjahestmyran" />
		<tag k="natural" v="wetland" />
		<tag k="ssr:stedsnr" v="293970" />
	</node>
	<node id="-88959" lat="69.1259861135" lon="17.248119446">
		<tag k="name" v="Stormyra" />
		<tag k="natural" v="wetland" />
		<tag k="ssr:stedsnr" v="806207" />
	</node>
	<node id="-91006" lat="69.1940972228" lon="17.0137750083">
		<tag k="name" v="Finnelvmyran" />
		<tag k="natural" v="wetland" />
		<tag k="ssr:stedsnr" v="354145" />
	</node>
	<node id="-93049" lat="69.324161107" lon="17.8953055496">
		<tag k="name" v="Rødmyra" />
		<tag k="natural" v="wetland" />
		<tag k="ssr:stedsnr" v="837936" />
	</node>
	<node id="-93048" lat="69.371741667" lon="17.9499110988">
		<tag k="name" v="Reinhalsmyra" />
		<tag k="natural" v="wetland" />
		<tag k="ssr:stedsnr" v="837926" />
	</node>
	<node id="-88951" lat="69.26907778" lon="17.515563891">
		<tag k="alt_name" v="Svodan, nedre" />
		<tag k="name" v="Nedre Svodan" />
		<tag k="natural" v="wetland" />
		<tag k="ssr:stedsnr" v="928563" />
	</node>
	<node id="-93037" lat="69.3111527739" lon="17.7664416647">
		<tag k="name" v="Fjellmyrene" />
		<tag k="natural" v="wetland" />
		<tag k="ssr:stedsnr" v="837634" />
	</node>
	<node id="-93035" lat="69.2574500008" lon="17.8386805436">
		<tag k="name" v="Hannajorda" />
		<tag k="place" v="locality" />
		<tag k="ssr:stedsnr" v="837630" />
	</node>
	<node id="-86889" lat="69.3256749974" lon="18.3583055607">
		<tag k="name" v="Holmelamyra" />
		<tag k="natural" v="wetland" />
		<tag k="ssr:stedsnr" v="200757" />
	</node>
	<node id="-93030" lat="69.3501722212" lon="17.8937833267">
		<tag k="name" v="Rødmyra" />
		<tag k="natural" v="wetland" />
		<tag k="ssr:stedsnr" v="837585" />
	</node>
	<node id="-90979" lat="69.2458361075" lon="18.107194452">
		<tag k="name" v="Myrene" />
		<tag k="natural" v="wetland" />
		<tag k="ssr:stedsnr" v="353618" />
	</node>
	<node id="-93026" lat="69.2969638924" lon="17.7390472221">
		<tag k="name" v="Tømmermyra" />
		<tag k="natural" v="wetland" />
		<tag k="ssr:stedsnr" v="837657" />
	</node>
	<node id="-90939" lat="69.2943888882" lon="17.8525472197">
		<tag k="name" v="Forrholtet" />
		<tag k="place" v="locality" />
		<tag k="ssr:stedsnr" v="351660" />
	</node>
	<node id="-90976" lat="69.2151027778" lon="18.1546527727">
		<tag k="name" v="Tortenskogen" />
		<tag k="place" v="locality" />
		<tag k="ssr:stedsnr" v="353546" />
	</node>
	<node id="-93023" lat="69.2086694403" lon="17.6921361193">
		<tag k="name" v="Haillmyra" />
		<tag k="natural" v="wetland" />
		<tag k="ssr:stedsnr" v="837539" />
	</node>
	<node id="-88917" lat="69.2141111105" lon="17.7066805529">
		<tag k="name" v="Gammelvetmyra" />
		<tag k="natural" v="wetland" />
		<tag k="ssr:stedsnr" v="776518" />
	</node>
	<node id="-90960" lat="69.2661638916" lon="17.8785444467">
		<tag k="name" v="Holtet" />
		<tag k="place" v="locality" />
		<tag k="ssr:stedsnr" v="352618" />
	</node>
	<node id="-93004" lat="69.2816722262" lon="17.9977527851">
		<tag k="name" v="Hesteholtet" />
		<tag k="natural" v="wetland" />
		<tag k="ssr:stedsnr" v="837031" />
	</node>
	<node id="-90955" lat="69.201813887" lon="17.8432277654">
		<tag k="name" v="Alettamyra" />
		<tag k="natural" v="wetland" />
		<tag k="ssr:stedsnr" v="351957" />
	</node>
	<node id="-86856" lat="69.2947555541" lon="16.952633339">
		<tag k="name" v="Storøyra" />
		<tag k="place" v="locality" />
		<tag k="ssr:stedsnr" v="293438" />
	</node>
	<node id="-86432" lat="69.2709472261" lon="17.5268722304">
		<tag k="name" v="Svåmyran" />
		<tag k="natural" v="wetland" />
		<tag k="ssr:stedsnr" v="51923" />
	</node>
	<node id="-90950" lat="69.5685611092" lon="17.8159472235">
		<tag k="name" v="Skreda" />
		<tag k="natural" v="scree" />
		<tag k="ssr:stedsnr" v="351801" />
	</node>
	<node id="-86847" lat="69.2111777793" lon="16.94493333">
		<tag k="name" v="Bårsteinan" />
		<tag k="natural" v="stone" />
		<tag k="ssr:stedsnr" v="293266" />
	</node>
	<node id="-90940" lat="69.2905388865" lon="17.7747694324">
		<tag k="name" v="Rødmyra" />
		<tag k="natural" v="wetland" />
		<tag k="ssr:stedsnr" v="351664" />
	</node>
	<node id="-86843" lat="69.3559027751" lon="18.3133750056">
		<tag k="name" v="Middagsmyra" />
		<tag k="natural" v="wetland" />
		<tag k="ssr:stedsnr" v="292859" />
	</node>
	<node id="-86841" lat="69.2918694455" lon="18.2143944375">
		<tag k="name" v="Kistelvmyra" />
		<tag k="natural" v="wetland" />
		<tag k="ssr:stedsnr" v="292740" />
	</node>
	<node id="-86837" lat="69.296694444" lon="18.0389777635">
		<tag k="name" v="Husmannsjorda" />
		<tag k="place" v="locality" />
		<tag k="ssr:stedsnr" v="292637" />
	</node>
	<node id="-86833" lat="69.248655557" lon="18.1705555587">
		<tag k="name" v="Rundvassmyra" />
		<tag k="natural" v="wetland" />
		<tag k="ssr:stedsnr" v="292596" />
	</node>
	<node id="-90927" lat="69.5114722255" lon="17.9648250007">
		<tag k="name" v="Slåttingsmyra" />
		<tag k="natural" v="wetland" />
		<tag k="ssr:stedsnr" v="351499" />
	</node>
	<node id="-92972" lat="69.4225083372" lon="18.167330557">
		<tag k="name" v="Storura" />
		<tag k="natural" v="scree" />
		<tag k="ssr:stedsnr" v="814702" />
	</node>
	<node id="-90915" lat="69.3890111099" lon="17.8379027785">
		<tag k="name" v="Nerjorda" />
		<tag k="place" v="locality" />
		<tag k="ssr:stedsnr" v="351241" />
	</node>
	<node id="-90911" lat="69.5684388874" lon="17.570838896">
		<tag k="name" v="Nessesteinan" />
		<tag k="natural" v="stone" />
		<tag k="ssr:stedsnr" v="351176" />
	</node>
	<node id="-90906" lat="69.4147694477" lon="17.8561444324">
		<tag k="name" v="Stormyra" />
		<tag k="natural" v="wetland" />
		<tag k="ssr:stedsnr" v="351126" />
	</node>
	<node id="-86831" lat="69.2113416709" lon="18.1293444325">
		<tag k="name" v="Skettendikmyrene" />
		<tag k="natural" v="wetland" />
		<tag k="ssr:stedsnr" v="292523" />
	</node>
	<node id="-90902" lat="69.5043583311" lon="17.9015666512">
		<tag k="name" v="Lavolløyra" />
		<tag k="place" v="locality" />
		<tag k="ssr:stedsnr" v="351491" />
	</node>
	<node id="-88845" lat="69.4883805556" lon="17.4725444493">
		<tag k="name" v="Skjettenmyra" />
		<tag k="natural" v="wetland" />
		<tag k="ssr:stedsnr" v="904075" />
	</node>
	<node id="-88844" lat="69.3149869688" lon="17.5242979628">
		<tag k="name" v="Rødmyra" />
		<tag k="natural" v="wetland" />
		<tag k="ssr:stedsnr" v="903237" />
	</node>
	<node id="-88842" lat="69.4431333303" lon="17.4453527791">
		<tag k="name" v="Storura" />
		<tag k="natural" v="scree" />
		<tag k="ssr:stedsnr" v="902752" />
	</node>
	<node id="-86828" lat="69.1933500028" lon="17.8131166772">
		<tag k="name" v="Langmyra" />
		<tag k="natural" v="wetland" />
		<tag k="ssr:stedsnr" v="291944" />
	</node>
	<node id="-86790" lat="69.2777444439" lon="17.6747250072">
		<tag k="name" v="Hesjemyra" />
		<tag k="natural" v="wetland" />
		<tag k="ssr:stedsnr" v="291053" />
	</node>
	<node id="-86788" lat="69.2870805595" lon="17.6620277839">
		<tag k="name" v="Lamyra" />
		<tag k="natural" v="wetland" />
		<tag k="ssr:stedsnr" v="291023" />
	</node>
	<node id="-86787" lat="69.396400001" lon="17.9233388837">
		<tag k="name" v="Skjellelvmyra" />
		<tag k="natural" v="wetland" />
		<tag k="ssr:stedsnr" v="290828" />
	</node>
	<node id="-86785" lat="69.5117111133" lon="17.6877166676">
		<tag k="name" v="Kalduran" />
		<tag k="natural" v="scree" />
		<tag k="ssr:stedsnr" v="291171" />
	</node>
	<node id="-90880" lat="69.4762027798" lon="17.429372213">
		<tag k="name" v="Kjerkesteinen" />
		<tag k="natural" v="stone" />
		<tag k="ssr:stedsnr" v="324240" />
	</node>
	<node id="-88828" lat="69.4722194476" lon="17.2322305546">
		<tag k="name" v="Steinkrøssa" />
		<tag k="natural" v="scree" />
		<tag k="ssr:stedsnr" v="902492" />
	</node>
	<node id="-92922" lat="69.3146888917" lon="17.5171083218">
		<tag k="alt_name" v="Svodan, øvre" />
		<tag k="name" v="Øvre Svodan" />
		<tag k="natural" v="wetland" />
		<tag k="ssr:stedsnr" v="807576" />
	</node>
	<node id="-86777" lat="69.3474888878" lon="17.9268638785">
		<tag k="name" v="Oksemyra" />
		<tag k="natural" v="wetland" />
		<tag k="ssr:stedsnr" v="290519" />
	</node>
	<node id="-86772" lat="69.4141083345" lon="17.8355749854">
		<tag k="name" v="Fjellmyra" />
		<tag k="natural" v="wetland" />
		<tag k="ssr:stedsnr" v="290146" />
	</node>
	<node id="-88813" lat="69.0869944484" lon="17.0096638965">
		<tag k="name" v="Reinmyra" />
		<tag k="natural" v="wetland" />
		<tag k="ssr:stedsnr" v="901638" />
	</node>
	<node id="-86758" lat="69.1183000004" lon="17.0218222157">
		<tag k="name" v="Henrikslåtta" />
		<tag k="place" v="locality" />
		<tag k="ssr:stedsnr" v="173506" />
	</node>
	<node id="-88804" lat="69.0879694462" lon="16.9674583275">
		<tag k="name" v="Kvitormyra" />
		<tag k="natural" v="wetland" />
		<tag k="ssr:stedsnr" v="901599" />
	</node>
	<node id="-86753" lat="69.2784666671" lon="17.0895805432">
		<tag k="name" v="Humyra" />
		<tag k="natural" v="wetland" />
		<tag k="ssr:stedsnr" v="172539" />
	</node>
	<node id="-86752" lat="69.1336555595" lon="17.2877499947">
		<tag k="name" v="Stormyra" />
		<tag k="natural" v="wetland" />
		<tag k="ssr:stedsnr" v="172536" />
	</node>
	<node id="-92895" lat="69.22048333" lon="17.8551555582">
		<tag k="name" v="Flottmyran" />
		<tag k="natural" v="wetland" />
		<tag k="ssr:stedsnr" v="807391" />
	</node>
	<node id="-88795" lat="69.2296805542" lon="17.5713555456">
		<tag k="name" v="Deggemyra" />
		<tag k="natural" v="wetland" />
		<tag k="ssr:stedsnr" v="901544" />
	</node>
	<node id="-86745" lat="69.3573305583" lon="17.9846555659">
		<tag k="name" v="Magermyra" />
		<tag k="natural" v="wetland" />
		<tag k="ssr:stedsnr" v="169944" />
	</node>
	<node id="-86744" lat="69.2542805595" lon="17.6849555611">
		<tag k="name" v="Gammsteinmyra" />
		<tag k="natural" v="wetland" />
		<tag k="ssr:stedsnr" v="169040" />
	</node>
	<node id="-88787" lat="69.1425222266" lon="17.3071638879">
		<tag k="name" v="Nattmålsmyra" />
		<tag k="natural" v="wetland" />
		<tag k="ssr:stedsnr" v="901494" />
	</node>
	<node id="-86737" lat="69.4583972199" lon="17.983225002">
		<tag k="name" v="Skarmyra" />
		<tag k="natural" v="wetland" />
		<tag k="ssr:stedsnr" v="169307" />
	</node>
	<node id="-88781" lat="69.3843416663" lon="17.0916277686">
		<tag k="name" v="Vedsteinen" />
		<tag k="natural" v="stone" />
		<tag k="ssr:stedsnr" v="901737" />
	</node>
	<node id="-87928" lat="69.4785305563" lon="17.4250694557">
		<tag k="name" v="Huldersteinan" />
		<tag k="natural" v="stone" />
		<tag k="ssr:stedsnr" v="661112" />
	</node>
	<node id="-86905" lat="69.4658805533" lon="18.3083833344">
		<tag k="name" v="Aspemomyra" />
		<tag k="natural" v="wetland" />
		<tag k="ssr:stedsnr" v="293899" />
	</node>
	<node id="-88771" lat="69.0369916651" lon="17.1896666747">
		<tag k="name" v="Blombakkskogen" />
		<tag k="place" v="locality" />
		<tag k="ssr:stedsnr" v="901679" />
	</node>
	<node id="-88770" lat="69.0348305572" lon="17.0624666734">
		<tag k="name" v="Skittmyra" />
		<tag k="natural" v="wetland" />
		<tag k="ssr:stedsnr" v="901675" />
	</node>
	<node id="-90807" lat="69.3823305515" lon="17.1341527732">
		<tag k="name" v="Ballesvikmyran" />
		<tag k="natural" v="wetland" />
		<tag k="ssr:stedsnr" v="322353" />
	</node>
	<node id="-88752" lat="69.285036116" lon="17.0305860994">
		<tag k="name" v="Skogen" />
		<tag k="natural" v="wetland" />
		<tag k="ssr:stedsnr" v="900394" />
	</node>
	<node id="-92841" lat="69.2048999985" lon="17.0615777635">
		<tag k="name" v="Rundtindmyran" />
		<tag k="natural" v="wetland" />
		<tag k="ssr:stedsnr" v="806126" />
	</node>
	<node id="-88517" lat="69.3703444418" lon="17.9655027738">
		<tag k="name" v="Nattmålskarmyra" />
		<tag k="natural" v="wetland" />
		<tag k="ssr:stedsnr" v="654925" />
	</node>
	<node id="-90780" lat="69.3753777764" lon="18.0365277801">
		<tag k="name" v="Hanesholtan" />
		<tag k="place" v="locality" />
		<tag k="ssr:stedsnr" v="321652" />
	</node>
	<node id="-92824" lat="69.5117611093" lon="17.4344138959">
		<tag k="name" v="Vikmyra" />
		<tag k="natural" v="wetland" />
		<tag k="ssr:stedsnr" v="783131" />
	</node>
	<node id="-87150" lat="69.1858000007" lon="17.5223444485">
		<tag k="name" v="Brannskogen" />
		<tag k="place" v="locality" />
		<tag k="ssr:stedsnr" v="443484" />
	</node>
	<node id="-92818" lat="69.429358333" lon="17.4901750009">
		<tag k="name" v="Kobbøyra" />
		<tag k="place" v="locality" />
		<tag k="ssr:stedsnr" v="783098" />
	</node>
	<node id="-92816" lat="69.4922472264" lon="17.4728277722">
		<tag k="name" v="Stormyra" />
		<tag k="natural" v="wetland" />
		<tag k="ssr:stedsnr" v="782062" />
	</node>
	<node id="-88706" lat="69.4128944448" lon="18.0047333213">
		<tag k="name" v="Slåttemyra" />
		<tag k="natural" v="wetland" />
		<tag k="ssr:stedsnr" v="898379" />
	</node>
	<node id="-87039" lat="69.2444444474" lon="17.6338083289">
		<tag k="name" v="Vargemyra" />
		<tag k="natural" v="wetland" />
		<tag k="ssr:stedsnr" v="295683" />
	</node>
	<node id="-92792" lat="69.3902083298" lon="17.1056583256">
		<tag k="name" v="Øyra" />
		<tag k="place" v="locality" />
		<tag k="ssr:stedsnr" v="780667" />
	</node>
	<node id="-92786" lat="69.0345222225" lon="17.1836583334">
		<tag k="name" v="Skjellmyra" />
		<tag k="natural" v="wetland" />
		<tag k="ssr:stedsnr" v="780633" />
	</node>
	<node id="-88688" lat="69.238330555" lon="17.7495750039">
		<tag k="name" v="Sætermyra" />
		<tag k="natural" v="wetland" />
		<tag k="ssr:stedsnr" v="897718" />
	</node>
	<node id="-92783" lat="69.4866361144" lon="17.2491527657">
		<tag k="name" v="Stormyra" />
		<tag k="natural" v="wetland" />
		<tag k="ssr:stedsnr" v="780596" />
	</node>
	<node id="-92782" lat="69.4790749994" lon="17.2147611009">
		<tag k="name" v="Bardnesmyra" />
		<tag k="natural" v="wetland" />
		<tag k="ssr:stedsnr" v="780594" />
	</node>
	<node id="-88509" lat="69.3724777806" lon="17.8527583314">
		<tag k="name" v="Øverjorda" />
		<tag k="place" v="locality" />
		<tag k="ssr:stedsnr" v="654254" />
	</node>
	<node id="-92780" lat="69.0472944398" lon="17.1276916695">
		<tag k="name" v="Halsekråmyra" />
		<tag k="natural" v="wetland" />
		<tag k="ssr:stedsnr" v="780582" />
	</node>
	<node id="-88683" lat="69.3368833306" lon="17.8849888774">
		<tag k="name" v="Blåbærmyra" />
		<tag k="natural" v="wetland" />
		<tag k="ssr:stedsnr" v="897578" />
	</node>
	<node id="-86625" lat="69.254350004" lon="17.6037972271">
		<tag k="name" v="Sivertmyra" />
		<tag k="natural" v="wetland" />
		<tag k="ssr:stedsnr" v="113603" />
	</node>
	<node id="-92766" lat="69.0740666648" lon="17.0286583381">
		<tag k="name" v="Holtet" />
		<tag k="place" v="locality" />
		<tag k="ssr:stedsnr" v="780456" />
	</node>
	<node id="-92760" lat="69.409413891" lon="17.2872611008">
		<tag k="name" v="Øra" />
		<tag k="place" v="locality" />
		<tag k="ssr:stedsnr" v="780434" />
	</node>
	<node id="-90710" lat="69.2013222251" lon="17.0534027649">
		<tag k="name" v="Flakstadmyran" />
		<tag k="natural" v="wetland" />
		<tag k="ssr:stedsnr" v="203624" />
	</node>
	<node id="-88660" lat="69.0385083312" lon="17.1849055411">
		<tag k="name" v="Gammelingermyra" />
		<tag k="natural" v="wetland" />
		<tag k="ssr:stedsnr" v="719628" />
	</node>
	<node id="-92754" lat="69.1354805577" lon="17.0857583294">
		<tag k="name" v="Myran" />
		<tag k="natural" v="wetland" />
		<tag k="ssr:stedsnr" v="780335" />
	</node>
	<node id="-88646" lat="69.1872027762" lon="17.0580861012">
		<tag k="name" v="Marensteinen" />
		<tag k="natural" v="stone" />
		<tag k="ssr:stedsnr" v="719426" />
	</node>
	<node id="-88644" lat="69.4594472251" lon="17.2572749972">
		<tag k="name" v="Falkebergmyra" />
		<tag k="natural" v="wetland" />
		<tag k="ssr:stedsnr" v="719026" />
	</node>
	<node id="-92739" lat="69.0580194478" lon="16.8439388975">
		<tag k="name" v="Kariura" />
		<tag k="natural" v="scree" />
		<tag k="ssr:stedsnr" v="779994" />
	</node>
	<node id="-88642" lat="69.2126972224" lon="16.9553472212">
		<tag k="name" v="Ytterheimyran" />
		<tag k="natural" v="wetland" />
		<tag k="ssr:stedsnr" v="718234" />
	</node>
	<node id="-88641" lat="69.264200004" lon="16.7941027848">
		<tag k="name" v="Henrikmyra" />
		<tag k="natural" v="wetland" />
		<tag k="ssr:stedsnr" v="718153" />
	</node>
	<node id="-86794" lat="69.5120000008" lon="17.9537777794">
		<tag k="name" v="Jobbonmyra" />
		<tag k="natural" v="wetland" />
		<tag k="ssr:stedsnr" v="291527" />
	</node>
	<node id="-92728" lat="69.0646666666" lon="16.9056333329">
		<tag k="name" v="Bjørnskogholtet" />
		<tag k="place" v="locality" />
		<tag k="ssr:stedsnr" v="779915" />
	</node>
	<node id="-87476" lat="69.2776861137" lon="17.0920055616">
		<tag k="name" v="Nefsemyra" />
		<tag k="natural" v="wetland" />
		<tag k="ssr:stedsnr" v="475506" />
	</node>
	<node id="-88623" lat="69.4210388903" lon="17.9053249967">
		<tag k="name" v="Elvøra" />
		<tag k="place" v="locality" />
		<tag k="ssr:stedsnr" v="715426" />
	</node>
	<node id="-86572" lat="69.080311108" lon="17.0847500067">
		<tag k="name" v="Grønnskogen" />
		<tag k="place" v="locality" />
		<tag k="ssr:stedsnr" v="112324" />
	</node>
	<node id="-92713" lat="69.1974222257" lon="17.5425500048">
		<tag k="name" v="Kolskogen" />
		<tag k="place" v="locality" />
		<tag k="ssr:stedsnr" v="779580" />
	</node>
	<node id="-92711" lat="69.2082861121" lon="17.5319222307">
		<tag k="name" v="Skarmyra" />
		<tag k="natural" v="wetland" />
		<tag k="ssr:stedsnr" v="779555" />
	</node>
	<node id="-91227" lat="69.447455553" lon="17.9622527747">
		<tag k="alt_name" v="Lysnesmyrene" />
		<tag k="name" v="Lysnesmyran" />
		<tag k="natural" v="wetland" />
		<tag k="ssr:stedsnr" v="382436" />
	</node>
	<node id="-92703" lat="69.1419611086" lon="17.4159416667">
		<tag k="name" v="Stormyra" />
		<tag k="natural" v="wetland" />
		<tag k="ssr:stedsnr" v="779469" />
	</node>
	<node id="-90646" lat="69.1985333377" lon="17.5558361003">
		<tag k="alt_name" v="Brannmyra" />
		<tag k="name" v="Brannmyran" />
		<tag k="natural" v="wetland" />
		<tag k="ssr:stedsnr" v="200481" />
	</node>
	<node id="-92686" lat="69.3574083306" lon="18.4633416563">
		<tag k="name" v="Fjellmyra" />
		<tag k="natural" v="wetland" />
		<tag k="ssr:stedsnr" v="778825" />
	</node>
	<node id="-92682" lat="69.3848250003" lon="18.4340361015">
		<tag k="name" v="Oterurene" />
		<tag k="natural" v="scree" />
		<tag k="ssr:stedsnr" v="778799" />
	</node>
	<node id="-86444" lat="69.4428055551" lon="17.4633944443">
		<tag k="name" v="Piksteinen" />
		<tag k="natural" v="stone" />
		<tag k="ssr:stedsnr" v="237109" />
	</node>
	<node id="-88582" lat="69.4428916714" lon="17.3509888802">
		<tag k="name" v="Vedsteinsura" />
		<tag k="natural" v="scree" />
		<tag k="ssr:stedsnr" v="659889" />
	</node>
	<node id="-92677" lat="69.3056138853" lon="18.3336527714">
		<tag k="name" v="Langmyra" />
		<tag k="natural" v="wetland" />
		<tag k="ssr:stedsnr" v="778712" />
	</node>
	<node id="-92667" lat="69.3246555584" lon="18.2979555456">
		<tag k="name" v="Mosemyra" />
		<tag k="natural" v="wetland" />
		<tag k="ssr:stedsnr" v="777852" />
	</node>
	<node id="-88569" lat="69.1458583335" lon="17.0022638804">
		<tag k="name" v="Oterura" />
		<tag k="natural" v="scree" />
		<tag k="ssr:stedsnr" v="658529" />
	</node>
	<node id="-88564" lat="69.1278722264" lon="17.0379055484">
		<tag k="name" v="Torvemyran" />
		<tag k="natural" v="wetland" />
		<tag k="ssr:stedsnr" v="658505" />
	</node>
	<node id="-92658" lat="69.3949666662" lon="17.8676888911">
		<tag k="name" v="Steinen" />
		<tag k="natural" v="stone" />
		<tag k="ssr:stedsnr" v="776851" />
	</node>
	<node id="-92653" lat="69.208944444" lon="17.7942277734">
		<tag k="name" v="Holtan" />
		<tag k="place" v="locality" />
		<tag k="ssr:stedsnr" v="776965" />
	</node>
	<node id="-88553" lat="69.0779138841" lon="17.0738277864">
		<tag k="name" v="Tjonnemyra" />
		<tag k="natural" v="wetland" />
		<tag k="ssr:stedsnr" v="658279" />
	</node>
	<node id="-92647" lat="69.3002638884" lon="17.838927775">
		<tag k="name" v="Steiksildmyra" />
		<tag k="natural" v="wetland" />
		<tag k="ssr:stedsnr" v="776651" />
	</node>
	<node id="-88546" lat="69.2071777741" lon="16.9617611191">
		<tag k="name" v="Langmyran" />
		<tag k="natural" v="wetland" />
		<tag k="ssr:stedsnr" v="657268" />
	</node>
	<node id="-88480" lat="69.4133333334" lon="17.2410499898">
		<tag k="name" v="Svamyra" />
		<tag k="natural" v="wetland" />
		<tag k="ssr:stedsnr" v="720934" />
	</node>
	<node id="-90587" lat="69.509119443" lon="17.4382361109">
		<tag k="name" v="Klemmingssteinen" />
		<tag k="natural" v="stone" />
		<tag k="ssr:stedsnr" v="176225" />
	</node>
	<node id="-92634" lat="69.4236083364" lon="17.8644750075">
		<tag k="name" v="Ramnurene" />
		<tag k="natural" v="scree" />
		<tag k="ssr:stedsnr" v="776372" />
	</node>
	<node id="-92631" lat="69.3025944423" lon="17.8486888922">
		<tag k="name" v="Langmyra" />
		<tag k="natural" v="wetland" />
		<tag k="ssr:stedsnr" v="776283" />
	</node>
	<node id="-90582" lat="69.5089749995" lon="17.4316222171">
		<tag k="name" v="Skiftingsmyran" />
		<tag k="natural" v="wetland" />
		<tag k="ssr:stedsnr" v="176167" />
	</node>
	<node id="-90580" lat="69.519908334" lon="17.4129472301">
		<tag k="name" v="Galimyra" />
		<tag k="natural" v="wetland" />
		<tag k="ssr:stedsnr" v="176152" />
	</node>
	<node id="-90578" lat="69.4890944423" lon="17.399897212">
		<tag k="name" v="Trollsteinan" />
		<tag k="natural" v="stone" />
		<tag k="ssr:stedsnr" v="176139" />
	</node>
	<node id="-90577" lat="69.4413111149" lon="17.4671916621">
		<tag k="name" v="Akselsteinen" />
		<tag k="natural" v="stone" />
		<tag k="ssr:stedsnr" v="176128" />
	</node>
	<node id="-92622" lat="69.4169027809" lon="17.8402166715">
		<tag k="name" v="Stakkemyra" />
		<tag k="natural" v="wetland" />
		<tag k="ssr:stedsnr" v="776181" />
	</node>
	<node id="-90573" lat="69.4383083363" lon="17.4744805555">
		<tag k="name" v="Frauskemyra" />
		<tag k="natural" v="wetland" />
		<tag k="ssr:stedsnr" v="176015" />
	</node>
	<node id="-90571" lat="69.4970944404" lon="17.4779999958">
		<tag k="name" v="Banmyra" />
		<tag k="natural" v="wetland" />
		<tag k="ssr:stedsnr" v="175057" />
	</node>
	<node id="-92618" lat="69.3092083349" lon="17.6855055586">
		<tag k="name" v="Langmyra" />
		<tag k="natural" v="wetland" />
		<tag k="ssr:stedsnr" v="776040" />
	</node>
	<node id="-90565" lat="69.3547305545" lon="17.4468360979">
		<tag k="name" v="Åneheimen" />
		<tag k="place" v="locality" />
		<tag k="ssr:stedsnr" v="174853" />
	</node>
	<node id="-90560" lat="69.4426361093" lon="17.3175444542">
		<tag k="name" v="Svartskogen" />
		<tag k="place" v="locality" />
		<tag k="ssr:stedsnr" v="174806" />
	</node>
	<node id="-90559" lat="69.4429777763" lon="17.3206111059">
		<tag k="name" v="Innerura" />
		<tag k="natural" v="scree" />
		<tag k="ssr:stedsnr" v="174805" />
	</node>
	<node id="-90557" lat="69.2408722236" lon="17.6736055524">
		<tag k="name" v="Stormyra" />
		<tag k="natural" v="wetland" />
		<tag k="ssr:stedsnr" v="174709" />
	</node>
	<node id="-90544" lat="69.4849722184" lon="17.359563896">
		<tag k="name" v="Ytre Storursteinen" />
		<tag k="natural" v="stone" />
		<tag k="ssr:stedsnr" v="174407" />
	</node>
	<node id="-88493" lat="69.5019083334" lon="17.479769454">
		<tag k="name" v="Mosemyra" />
		<tag k="natural" v="wetland" />
		<tag k="ssr:stedsnr" v="722248" />
	</node>
	<node id="-88492" lat="69.5159333346" lon="17.4372805651">
		<tag k="name" v="Kjerrgården" />
		<tag k="place" v="locality" />
		<tag k="ssr:stedsnr" v="722239" />
	</node>
	<node id="-90537" lat="69.4496888866" lon="17.1133749889">
		<tag k="name" v="Finnkjerka" />
		<tag k="natural" v="stone" />
		<tag k="ssr:stedsnr" v="174200" />
	</node>
	<node id="-88486" lat="69.4708388914" lon="17.5504499901">
		<tag k="name" v="Kvalvikjorda" />
		<tag k="place" v="locality" />
		<tag k="ssr:stedsnr" v="721265" />
	</node>
	<node id="-90531" lat="69.162955554" lon="17.5892277773">
		<tag k="name" v="Holtemyra" />
		<tag k="natural" v="wetland" />
		<tag k="ssr:stedsnr" v="173980" />
	</node>
	<node id="-88481" lat="69.4862138891" lon="17.4768944539">
		<tag k="name" v="Roaldsmyra" />
		<tag k="natural" v="wetland" />
		<tag k="ssr:stedsnr" v="721067" />
	</node>
	<node id="-90528" lat="69.3997111109" lon="17.1345000051">
		<tag k="name" v="Blåura" />
		<tag k="natural" v="scree" />
		<tag k="ssr:stedsnr" v="173692" />
	</node>
	<node id="-88471" lat="69.4741527765" lon="17.4288694431">
		<tag k="name" v="Skarmyran" />
		<tag k="natural" v="wetland" />
		<tag k="ssr:stedsnr" v="721000" />
	</node>
	<node id="-88469" lat="69.2577444461" lon="17.5349055585">
		<tag k="name" v="Stormyra" />
		<tag k="natural" v="wetland" />
		<tag k="ssr:stedsnr" v="720634" />
	</node>
	<node id="-86420" lat="69.1444027823" lon="17.4280472111">
		<tag k="name" v="Torvmyra" />
		<tag k="natural" v="wetland" />
		<tag k="ssr:stedsnr" v="51506" />
	</node>
	<node id="-86411" lat="69.381349997" lon="18.4078138841">
		<tag k="name" v="Andholtan" />
		<tag k="place" v="locality" />
		<tag k="ssr:stedsnr" v="50773" />
	</node>
	<node id="-90505" lat="69.289044443" lon="17.1508944334">
		<tag k="name" v="Kariura" />
		<tag k="natural" v="scree" />
		<tag k="ssr:stedsnr" v="173528" />
	</node>
	<node id="-88456" lat="69.1230388861" lon="16.8310833301">
		<tag k="name" v="Skogen" />
		<tag k="place" v="locality" />
		<tag k="ssr:stedsnr" v="719909" />
	</node>
	<node id="-90503" lat="69.0139916708" lon="17.1142555443">
		<tag k="name" v="Mormyra" />
		<tag k="natural" v="wetland" />
		<tag k="ssr:stedsnr" v="173514" />
	</node>
	<node id="-92539" lat="69.243808331" lon="17.9317861052">
		<tag k="name" v="Silsandskogen" />
		<tag k="place" v="locality" />
		<tag k="ssr:stedsnr" v="746425" />
	</node>
	<node id="-90489" lat="69.1900138893" lon="17.0295055486">
		<tag k="name" v="Segelsteinen" />
		<tag k="natural" v="stone" />
		<tag k="ssr:stedsnr" v="173183" />
	</node>
	<node id="-90488" lat="69.4608444453" lon="17.2532638884">
		<tag k="name" v="Skogen" />
		<tag k="place" v="locality" />
		<tag k="ssr:stedsnr" v="173033" />
	</node>
	<node id="-90487" lat="69.0677999996" lon="16.8538416711">
		<tag k="name" v="Hesjeskogen" />
		<tag k="place" v="locality" />
		<tag k="ssr:stedsnr" v="172996" />
	</node>
	<node id="-86390" lat="69.4481055534" lon="17.3514583225">
		<tag k="name" v="Torvemyra" />
		<tag k="natural" v="wetland" />
		<tag k="ssr:stedsnr" v="234803" />
	</node>
	<node id="-88435" lat="69.3794138873" lon="17.1042972226">
		<tag k="name" v="Veihaugmyra" />
		<tag k="natural" v="wetland" />
		<tag k="ssr:stedsnr" v="719685" />
	</node>
	<node id="-88434" lat="69.3826749983" lon="17.1445166659">
		<tag k="name" v="Bubbelverslet" />
		<tag k="natural" v="wetland" />
		<tag k="ssr:stedsnr" v="719680" />
	</node>
	<node id="-86385" lat="69.1769222209" lon="17.7472416722">
		<tag k="name" v="Stølandsmyra" />
		<tag k="natural" v="wetland" />
		<tag k="ssr:stedsnr" v="234695" />
	</node>
	<node id="-88428" lat="69.0793388908" lon="16.9781333437">
		<tag k="name" v="Kjerkesteinmyra" />
		<tag k="natural" v="wetland" />
		<tag k="ssr:stedsnr" v="719548" />
	</node>
	<node id="-88417" lat="69.0138694461" lon="17.0707638833">
		<tag k="name" v="Yttervassmyra" />
		<tag k="natural" v="wetland" />
		<tag k="ssr:stedsnr" v="719497" />
	</node>
	<node id="-90464" lat="69.2900333374" lon="17.1675944424">
		<tag k="name" v="Nebbesteinen" />
		<tag k="natural" v="stone" />
		<tag k="ssr:stedsnr" v="172737" />
	</node>
	<node id="-89488" lat="69.5217972191" lon="17.3333361155">
		<tag k="alt_name" v="Kviturda" />
		<tag k="name" v="Kvitura" />
		<tag k="natural" v="scree" />
		<tag k="ssr:stedsnr" v="18923" />
	</node>
	<node id="-88408" lat="69.160030556" lon="17.0619472124">
		<tag k="name" v="Storsteinen" />
		<tag k="natural" v="stone" />
		<tag k="ssr:stedsnr" v="719391" />
	</node>
	<node id="-88407" lat="69.1516027792" lon="17.0687861124">
		<tag k="name" v="Kubbsteinen" />
		<tag k="natural" v="stone" />
		<tag k="ssr:stedsnr" v="719343" />
	</node>
	<node id="-90451" lat="69.119261114" lon="17.2952000032">
		<tag k="name" v="Preikestolen" />
		<tag k="natural" v="stone" />
		<tag k="ssr:stedsnr" v="172497" />
	</node>
	<node id="-92493" lat="69.2700444421" lon="17.8621833305">
		<tag k="name" v="Lampen" />
		<tag k="natural" v="wetland" />
		<tag k="ssr:stedsnr" v="655629" />
	</node>
	<node id="-86348" lat="69.1133083294" lon="17.0538222124">
		<tag k="name" v="Stormyra" />
		<tag k="natural" v="wetland" />
		<tag k="ssr:stedsnr" v="234312" />
	</node>
	<node id="-86346" lat="69.1010000004" lon="17.0850111017">
		<tag k="name" v="Rypesteinen" />
		<tag k="natural" v="stone" />
		<tag k="ssr:stedsnr" v="234297" />
	</node>
	<node id="-88393" lat="69.2747388881" lon="17.0579916655">
		<tag k="name" v="Vaura" />
		<tag k="natural" v="scree" />
		<tag k="ssr:stedsnr" v="718497" />
	</node>
	<node id="-92487" lat="69.30815" lon="17.8195722236">
		<tag k="name" v="Ol-Olsamyra" />
		<tag k="natural" v="wetland" />
		<tag k="ssr:stedsnr" v="655301" />
	</node>
	<node id="-86341" lat="69.5079555525" lon="17.3604777635">
		<tag k="name" v="Ytterteigen" />
		<tag k="place" v="locality" />
		<tag k="ssr:stedsnr" v="234233" />
	</node>
	<node id="-90436" lat="69.2004277813" lon="16.898094448">
		<tag k="name" v="Stormyra" />
		<tag k="natural" v="wetland" />
		<tag k="ssr:stedsnr" v="172270" />
	</node>
	<node id="-88386" lat="69.2799749979" lon="16.9842194299">
		<tag k="name" v="Kobbøyra" />
		<tag k="place" v="locality" />
		<tag k="ssr:stedsnr" v="718297" />
	</node>
	<node id="-93237" lat="69.0232249993" lon="17.1736694435">
		<tag k="alt_name" v="Vedheggemyra" />
		<tag k="name" v="Vedheggermyra" />
		<tag k="natural" v="wetland" />
		<tag k="ssr:stedsnr" v="867092" />
	</node>
	<node id="-86329" lat="69.0663722252" lon="16.8489055536">
		<tag k="name" v="Langevassmyra" />
		<tag k="natural" v="wetland" />
		<tag k="ssr:stedsnr" v="233993" />
	</node>
	<node id="-88376" lat="69.4686055555" lon="18.2386972097">
		<tag k="name" v="Bestemorholtan" />
		<tag k="place" v="locality" />
		<tag k="ssr:stedsnr" v="717900" />
	</node>
	<node id="-88457" lat="69.0719111086" lon="16.8594361112">
		<tag k="name" v="Trollskogen" />
		<tag k="place" v="locality" />
		<tag k="ssr:stedsnr" v="719911" />
	</node>
	<node id="-88371" lat="69.2086638884" lon="16.9549861175">
		<tag k="name" v="Huldersteinen" />
		<tag k="natural" v="stone" />
		<tag k="ssr:stedsnr" v="718257" />
	</node>
	<node id="-86321" lat="69.0224944475" lon="17.1117416775">
		<tag k="name" v="Storskogen" />
		<tag k="place" v="locality" />
		<tag k="ssr:stedsnr" v="234515" />
	</node>
	<node id="-88368" lat="69.3089583338" lon="18.3228333344">
		<tag k="name" v="Mellamyra" />
		<tag k="natural" v="wetland" />
		<tag k="ssr:stedsnr" v="717724" />
	</node>
	<node id="-90574" lat="69.440294445" lon="17.4684583366">
		<tag k="name" v="Torvemyra" />
		<tag k="natural" v="wetland" />
		<tag k="ssr:stedsnr" v="176017" />
	</node>
	<node id="-92460" lat="69.201047227" lon="17.7072916547">
		<tag k="name" v="Gammeljorda" />
		<tag k="place" v="locality" />
		<tag k="ssr:stedsnr" v="654543" />
	</node>
	<node id="-88362" lat="69.2890972227" lon="18.0289583421">
		<tag k="name" v="Tverrelvholtet" />
		<tag k="place" v="locality" />
		<tag k="ssr:stedsnr" v="717651" />
	</node>
	<node id="-86313" lat="69.358155552" lon="17.0707055458">
		<tag k="name" v="Dalemyra" />
		<tag k="natural" v="wetland" />
		<tag k="ssr:stedsnr" v="233708" />
	</node>
	<node id="-90408" lat="69.0153638878" lon="17.0873499922">
		<tag k="name" v="Klokhollmyra" />
		<tag k="natural" v="wetland" />
		<tag k="ssr:stedsnr" v="173497" />
	</node>
	<node id="-86310" lat="69.3558277741" lon="17.1128583412">
		<tag k="name" v="Torskeskarmyran" />
		<tag k="natural" v="wetland" />
		<tag k="ssr:stedsnr" v="233684" />
	</node>
	<node id="-90405" lat="69.2368138889" lon="17.5660555472">
		<tag k="name" v="Vestfjordmyra" />
		<tag k="natural" v="wetland" />
		<tag k="ssr:stedsnr" v="173490" />
	</node>
	<node id="-88355" lat="69.2323749977" lon="18.0742805398">
		<tag k="name" v="Stormyra" />
		<tag k="natural" v="wetland" />
		<tag k="ssr:stedsnr" v="717501" />
	</node>
	<node id="-86305" lat="69.2017444461" lon="17.5556055612">
		<tag k="name" v="Sætermyra" />
		<tag k="natural" v="wetland" />
		<tag k="ssr:stedsnr" v="233627" />
	</node>
	<node id="-90398" lat="69.1612194443" lon="17.5690833206">
		<tag k="name" v="Stornesmyra" />
		<tag k="natural" v="wetland" />
		<tag k="ssr:stedsnr" v="173454" />
	</node>
	<node id="-90397" lat="69.1592166688" lon="17.5511027716">
		<tag k="name" v="Svartskogen" />
		<tag k="place" v="locality" />
		<tag k="ssr:stedsnr" v="173451" />
	</node>
	<node id="-86300" lat="69.2733416631" lon="17.1352944304">
		<tag k="name" v="Storsteinen" />
		<tag k="natural" v="stone" />
		<tag k="ssr:stedsnr" v="233597" />
	</node>
	<node id="-90394" lat="69.3230222256" lon="18.2365694543">
		<tag k="name" v="Bergemyra" />
		<tag k="natural" v="wetland" />
		<tag k="ssr:stedsnr" v="170914" />
	</node>
	<node id="-86294" lat="69.2518361068" lon="17.1456888962">
		<tag k="name" v="Øverjorda" />
		<tag k="place" v="locality" />
		<tag k="ssr:stedsnr" v="233566" />
	</node>
	<node id="-88326" lat="69.2153805551" lon="17.5865972075">
		<tag k="name" v="Brygghaugmyra" />
		<tag k="natural" v="wetland" />
		<tag k="ssr:stedsnr" v="598569" />
	</node>
	<node id="-90372" lat="69.2310194478" lon="17.9928888922">
		<tag k="name" v="Hansemyra" />
		<tag k="natural" v="wetland" />
		<tag k="ssr:stedsnr" v="170372" />
	</node>
	<node id="-86270" lat="69.0532694431" lon="16.8392249928">
		<tag k="name" v="Oterora" />
		<tag k="natural" v="scree" />
		<tag k="ssr:stedsnr" v="232996" />
	</node>
	<node id="-88312" lat="69.2441805598" lon="17.5728194352">
		<tag k="name" v="Mellamyra" />
		<tag k="natural" v="wetland" />
		<tag k="ssr:stedsnr" v="598628" />
	</node>
	<node id="-88309" lat="69.2707694448" lon="17.6555277638">
		<tag k="name" v="Nordlaen" />
		<tag k="natural" v="wetland" />
		<tag k="ssr:stedsnr" v="598610" />
	</node>
	<node id="-90355" lat="69.175052778" lon="17.9041972219">
		<tag k="name" v="Krattmyra" />
		<tag k="natural" v="wetland" />
		<tag k="ssr:stedsnr" v="169724" />
	</node>
	<node id="-86258" lat="69.4606000039" lon="18.2942472256">
		<tag k="name" v="Middagsmomyra" />
		<tag k="natural" v="wetland" />
		<tag k="ssr:stedsnr" v="232918" />
	</node>
	<node id="-90346" lat="69.289888886" lon="17.7557638926">
		<tag k="name" v="Johanmyra" />
		<tag k="natural" v="wetland" />
		<tag k="ssr:stedsnr" v="169634" />
	</node>
	<node id="-90343" lat="69.238927781" lon="17.8425416615">
		<tag k="name" v="Botnlausmyra" />
		<tag k="natural" v="wetland" />
		<tag k="ssr:stedsnr" v="169616" />
	</node>
	<node id="-90342" lat="69.2431972245" lon="17.8101277825">
		<tag k="name" v="Vargemyra" />
		<tag k="natural" v="wetland" />
		<tag k="ssr:stedsnr" v="169608" />
	</node>
	<node id="-88286" lat="69.2864249965" lon="17.8055638816">
		<tag k="name" v="Hestemyra" />
		<tag k="natural" v="wetland" />
		<tag k="ssr:stedsnr" v="715671" />
	</node>
	<node id="-90332" lat="69.4403277793" lon="17.9601444362">
		<tag k="name" v="Klubbemyrene" />
		<tag k="natural" v="wetland" />
		<tag k="ssr:stedsnr" v="169407" />
	</node>
	<node id="-88283" lat="69.2902527794" lon="17.7632694386">
		<tag k="name" v="Løvåsmyra" />
		<tag k="natural" v="wetland" />
		<tag k="ssr:stedsnr" v="715649" />
	</node>
	<node id="-90330" lat="69.4364583299" lon="17.9694249944">
		<tag k="name" v="Langøra" />
		<tag k="place" v="locality" />
		<tag k="ssr:stedsnr" v="169404" />
	</node>
	<node id="-86233" lat="69.1810666667" lon="17.9234444402">
		<tag k="name" v="Rødmyra" />
		<tag k="natural" v="wetland" />
		<tag k="ssr:stedsnr" v="230697" />
	</node>
	<node id="-86225" lat="69.5092638936" lon="17.9552694402">
		<tag k="name" v="Løholtet" />
		<tag k="place" v="locality" />
		<tag k="ssr:stedsnr" v="230488" />
	</node>
	<node id="-90317" lat="69.5343222248" lon="17.7698611022">
		<tag k="name" v="Myra" />
		<tag k="natural" v="wetland" />
		<tag k="ssr:stedsnr" v="169134" />
	</node>
	<node id="-88266" lat="69.3721000016" lon="17.7651611047">
		<tag k="name" v="Rødskarmyrene" />
		<tag k="natural" v="wetland" />
		<tag k="ssr:stedsnr" v="715240" />
	</node>
	<node id="-88439" lat="69.0574972207" lon="17.1116749997">
		<tag k="name" v="Gjettjordmyra" />
		<tag k="natural" v="wetland" />
		<tag k="ssr:stedsnr" v="719695" />
	</node>
	<node id="-86216" lat="69.316519447" lon="17.7963444481">
		<tag k="name" v="Karlkjerran" />
		<tag k="place" v="locality" />
		<tag k="ssr:stedsnr" v="230299" />
	</node>
	<node id="-90310" lat="69.4904722223" lon="17.6574555583">
		<tag k="name" v="Trollhammarøra" />
		<tag k="place" v="locality" />
		<tag k="ssr:stedsnr" v="169207" />
	</node>
	<node id="-86210" lat="69.2933749972" lon="18.0011777685">
		<tag k="name" v="Steinteigen" />
		<tag k="place" v="locality" />
		<tag k="ssr:stedsnr" v="230046" />
	</node>
	<node id="-86203" lat="69.2895055555" lon="17.811427779">
		<tag k="name" v="Lassemyra" />
		<tag k="natural" v="wetland" />
		<tag k="ssr:stedsnr" v="229682" />
	</node>
	<node id="-93210" lat="69.516430556" lon="17.4241972215">
		<tag k="name" v="Mannhavsteinen" />
		<tag k="natural" v="scree" />
		<tag k="ssr:stedsnr" v="844211" />
	</node>
	<node id="-88218" lat="69.4443861069" lon="17.3586750033">
		<tag k="name" v="Stormyra" />
		<tag k="natural" v="wetland" />
		<tag k="ssr:stedsnr" v="538802" />
	</node>
	<node id="-90820" lat="69.2303777818" lon="17.6186527667">
		<tag k="name" v="Flotmyra" />
		<tag k="natural" v="wetland" />
		<tag k="ssr:stedsnr" v="322408" />
	</node>
	<node id="-88214" lat="69.489355558" lon="17.2513472137">
		<tag k="name" v="Trollvassmarka" />
		<tag k="place" v="locality" />
		<tag k="ssr:stedsnr" v="538607" />
	</node>
	<node id="-86157" lat="69.3863638861" lon="17.0718333196">
		<tag k="name" v="Sildevikmyra" />
		<tag k="natural" v="wetland" />
		<tag k="ssr:stedsnr" v="18309" />
	</node>
	<node id="-88204" lat="69.2094250014" lon="17.6054944504">
		<tag k="name" v="Stormyra" />
		<tag k="natural" v="wetland" />
		<tag k="ssr:stedsnr" v="537557" />
	</node>
	<node id="-88203" lat="69.2914555532" lon="17.1373666631">
		<tag k="name" v="Bjørnesteinen" />
		<tag k="natural" v="stone" />
		<tag k="ssr:stedsnr" v="537552" />
	</node>
	<node id="-88202" lat="69.3579388859" lon="17.0908861183">
		<tag k="name" v="Sildevikmyra" />
		<tag k="natural" v="wetland" />
		<tag k="ssr:stedsnr" v="537638" />
	</node>
	<node id="-86145" lat="69.2092777804" lon="16.9727027789">
		<tag k="name" v="Langmyra" />
		<tag k="natural" v="wetland" />
		<tag k="ssr:stedsnr" v="18125" />
	</node>
	<node id="-88185" lat="69.2950555537" lon="16.948947209">
		<tag k="name" v="Mellomøyra" />
		<tag k="place" v="locality" />
		<tag k="ssr:stedsnr" v="536405" />
	</node>
	<node id="-88183" lat="69.2067666681" lon="18.0819444442">
		<tag k="name" v="Ol-Bertinskogen" />
		<tag k="place" v="locality" />
		<tag k="ssr:stedsnr" v="535559" />
	</node>
	<node id="-88180" lat="69.3100861156" lon="18.0394055519">
		<tag k="name" v="Kalveskarmyra" />
		<tag k="natural" v="wetland" />
		<tag k="ssr:stedsnr" v="535618" />
	</node>
	<node id="-92271" lat="69.4741472225" lon="17.6545750051">
		<tag k="name" v="Kveithella" />
		<tag k="natural" v="stone" />
		<tag k="ssr:stedsnr" v="600281" />
	</node>
	<node id="-92477" lat="69.281958334" lon="17.7565972248">
		<tag k="name" v="Sumpmyra" />
		<tag k="natural" v="wetland" />
		<tag k="ssr:stedsnr" v="654646" />
	</node>
	<node id="-88169" lat="69.4911138878" lon="17.8450222182">
		<tag k="name" v="Blomdalsholtet" />
		<tag k="place" v="locality" />
		<tag k="ssr:stedsnr" v="534357" />
	</node>
	<node id="-92258" lat="69.4387472193" lon="17.4687361085">
		<tag k="name" v="Kjerran" />
		<tag k="place" v="locality" />
		<tag k="ssr:stedsnr" v="600118" />
	</node>
	<node id="-92257" lat="69.4946583379" lon="17.5064499926">
		<tag k="name" v="Slettåkeren" />
		<tag k="place" v="locality" />
		<tag k="ssr:stedsnr" v="600072" />
	</node>
	<node id="-92242" lat="69.2392888865" lon="17.6551444447">
		<tag k="name" v="Rundmomyra" />
		<tag k="natural" v="wetland" />
		<tag k="ssr:stedsnr" v="598673" />
	</node>
	<node id="-88133" lat="69.5096888869" lon="17.9673916652">
		<tag k="name" v="Stormyra" />
		<tag k="natural" v="wetland" />
		<tag k="ssr:stedsnr" v="686815" />
	</node>
	<node id="-92228" lat="69.4928583324" lon="17.2075833378">
		<tag k="name" v="Rødura" />
		<tag k="natural" v="scree" />
		<tag k="ssr:stedsnr" v="598087" />
	</node>
	<node id="-92227" lat="69.4549833357" lon="17.34435833">
		<tag k="landuse" v="meadow" />
		<tag k="name" v="Jorda" />
		<tag k="ssr:stedsnr" v="598083" />
	</node>
	<node id="-87050" lat="69.4441083376" lon="17.465580559">
		<tag k="name" v="Siristeinan" />
		<tag k="natural" v="stone" />
		<tag k="ssr:stedsnr" v="297025" />
	</node>
	<node id="-86367" lat="69.2211194455" lon="17.6143499976">
		<tag k="name" v="Skjellelvmyra" />
		<tag k="natural" v="wetland" />
		<tag k="ssr:stedsnr" v="234542" />
	</node>
	<node id="-92203" lat="69.0261333333" lon="17.1524166526">
		<tag k="name" v="Ura" />
		<tag k="natural" v="scree" />
		<tag k="ssr:stedsnr" v="597695" />
	</node>
	<node id="-92201" lat="69.0313583311" lon="17.2014555601">
		<tag k="name" v="Skjolforra" />
		<tag k="natural" v="wetland" />
		<tag k="ssr:stedsnr" v="597689" />
	</node>
	<node id="-92195" lat="69.3564472258" lon="17.0948222152">
		<tag k="name" v="Kusteinen" />
		<tag k="natural" v="stone" />
		<tag k="ssr:stedsnr" v="597658" />
	</node>
	<node id="-92189" lat="69.2357333374" lon="17.6277444443">
		<tag k="name" v="Stormyra" />
		<tag k="natural" v="wetland" />
		<tag k="ssr:stedsnr" v="597553" />
	</node>
	<node id="-92186" lat="69.01584722" lon="17.0727027735">
		<tag k="name" v="Tollesmyra" />
		<tag k="natural" v="wetland" />
		<tag k="ssr:stedsnr" v="597543" />
	</node>
	<node id="-90133" lat="69.5011833335" lon="17.4720222195">
		<tag k="name" v="Dalmyran" />
		<tag k="natural" v="wetland" />
		<tag k="ssr:stedsnr" v="115248" />
	</node>
	<node id="-90118" lat="69.465327779" lon="17.2491777823">
		<tag k="name" v="Sæmyra" />
		<tag k="natural" v="wetland" />
		<tag k="ssr:stedsnr" v="114372" />
	</node>
	<node id="-90115" lat="69.4438527779" lon="17.3564694395">
		<tag k="name" v="Høgdemyra" />
		<tag k="natural" v="wetland" />
		<tag k="ssr:stedsnr" v="113789" />
	</node>
	<node id="-90114" lat="69.4423944459" lon="17.3281249905">
		<tag k="name" v="Rappura" />
		<tag k="natural" v="scree" />
		<tag k="ssr:stedsnr" v="113769" />
	</node>
	<node id="-92161" lat="69.0932361095" lon="17.0697000069">
		<tag k="name" v="Frovågmyran" />
		<tag k="natural" v="wetland" />
		<tag k="ssr:stedsnr" v="597305" />
	</node>
</osm>
