<?xml version="1.0" encoding="UTF-8"?>
<osm generator="osmapis" version="0.6">
	<node id="-858938" lat="69.1439888889" lon="17.4419638927">
		<tag k="amenity" v="place_of_worship" />
		<tag k="denomination" v="lutheran" />
		<tag k="name" v="Tranøy" />
		<tag k="religion" v="christian" />
		<tag k="ssr:stedsnr" v="261302" />
	</node>
	<node id="-861534" lat="69.1142638905" lon="16.9192333296">
		<tag k="name" v="Sæter" />
		<tag k="place" v="locality" />
		<tag k="ssr:stedsnr" v="90114" />
	</node>
	<node id="-862235" lat="69.0832555591" lon="17.1738277897">
		<tag k="amenity" v="place_of_worship" />
		<tag k="denomination" v="lutheran" />
		<tag k="name" v="Stonglandet" />
		<tag k="religion" v="christian" />
		<tag k="ssr:stedsnr" v="200062" />
	</node>
	<node id="-862394" lat="69.4458277817" lon="17.2994972157">
		<tag k="amenity" v="place_of_worship" />
		<tag k="denomination" v="lutheran" />
		<tag k="name" v="Berg" />
		<tag k="religion" v="christian" />
		<tag k="ssr:stedsnr" v="321296" />
	</node>
	<node id="-860536" lat="69.2140361085" lon="17.8211999934">
		<tag k="amenity" v="place_of_worship" />
		<tag k="denomination" v="lutheran" />
		<tag k="name" v="Rendalen" />
		<tag k="religion" v="christian" />
		<tag k="ssr:stedsnr" v="748254" />
	</node>
	<node id="-859031" lat="69.3663166684" lon="17.8039694311">
		<tag k="name" v="Forgreningen" />
		<tag k="place" v="locality" />
		<tag k="ssr:stedsnr" v="472992" />
	</node>
	<node id="-862601" lat="69.1840333377" lon="17.9384833205">
		<tag k="cemetery" v="grave" />
		<tag k="name" v="Kirkegården" />
		<tag k="place" v="locality" />
		<tag k="ssr:stedsnr" v="352716" />
	</node>
	<node id="-862723" lat="69.0303888854" lon="17.1995305429">
		<tag k="amenity" v="community_centre" />
		<tag k="name" v="Solvang" />
		<tag k="ssr:stedsnr" v="355647" />
	</node>
	<node id="-862721" lat="69.0388583368" lon="17.0519444372">
		<tag k="name" v="Sør-Senja bygdemuseum" />
		<tag k="ssr:stedsnr" v="355615" />
		<tag k="tourism" v="museum" />
	</node>
</osm>
