<?xml version="1.0" encoding="UTF-8"?>
<osm version="0.6" generator="osmapis">
	<node lat="69.24108333284116" lon="17.82159998721874" id="-44716">
		<tag k="name" v="Tverrelvsletta" />
		<tag k="place" v="locality" />
		<tag k="ssr:stedsnr" v="229624" />
	</node>
	<node lat="69.27539999923292" lon="18.000111102648514" id="-44719">
		<tag k="name" v="Einehågen" />
		<tag k="natural" v="hill" />
		<tag k="place" v="locality" />
		<tag k="ssr:stedsnr" v="230623" />
	</node>
	<node lat="69.20077778247564" lon="17.74651943731249" id="-44720">
		<tag k="name" v="Rimklamsen" />
		<tag k="natural" v="slope" />
		<tag k="place" v="locality" />
		<tag k="ssr:stedsnr" v="229946" />
	</node>
	<node lat="69.33044444707514" lon="17.879630550592317" id="-44721">
		<tag k="name" v="Berrskallsletta" />
		<tag k="place" v="locality" />
		<tag k="ssr:stedsnr" v="229949" />
	</node>
	<node lat="69.28256666499203" lon="18.006783317939828" id="-44722">
		<tag k="name" v="Storhågen" />
		<tag k="natural" v="hill" />
		<tag k="place" v="locality" />
		<tag k="ssr:stedsnr" v="230043" />
	</node>
	<node lat="69.29990555502378" lon="17.637688877160254" id="-44724">
		<tag k="loc_name:se" v="Rivgovággi" />
		<tag k="name" v="Bumannskjerringdalen" />
		<tag k="name:no" v="Bumannskjerringdalen" />
		<tag k="natural" v="valley" />
		<tag k="place" v="locality" />
		<tag k="ssr:stedsnr" v="230023" />
	</node>
	<node lat="69.59044166868796" lon="17.67846943999936" id="-44726">
		<tag k="name" v="Merrafødalen" />
		<tag k="natural" v="valley" />
		<tag k="place" v="locality" />
		<tag k="ssr:stedsnr" v="230144" />
	</node>
	<node lat="69.3971944463246" lon="17.817725005775955" id="-44729">
		<tag k="name" v="Ramnberget" />
		<tag k="natural" v="hill" />
		<tag k="place" v="locality" />
		<tag k="ssr:stedsnr" v="230231" />
	</node>
	<node lat="69.3775000020387" lon="17.854694440797783" id="-44730">
		<tag k="name" v="Øverjordhaugen" />
		<tag k="natural" v="hill" />
		<tag k="place" v="locality" />
		<tag k="ssr:stedsnr" v="230232" />
	</node>
	<node lat="69.56861666350999" lon="17.555619443939825" id="-44731">
		<tag k="name" v="Rundhågen" />
		<tag k="natural" v="hill" />
		<tag k="place" v="locality" />
		<tag k="ssr:stedsnr" v="230179" />
	</node>
	<node lat="69.46302499790839" lon="17.952022216902808" id="-44736">
		<tag k="name" v="Reinmoen" />
		<tag k="place" v="locality" />
		<tag k="ssr:stedsnr" v="230301" />
	</node>
	<node lat="69.24709444840738" lon="18.00714167601689" id="-44740">
		<tag k="name" v="Skjellelvdalen" />
		<tag k="natural" v="valley" />
		<tag k="place" v="locality" />
		<tag k="ssr:stedsnr" v="230646" />
	</node>
	<node lat="69.1855222232238" lon="17.966322213220995" id="-44741">
		<tag k="fixme" v="consider natural=peak for the most distinct mountains in the district" />
		<tag k="name" v="Svartkollen" />
		<tag k="natural" v="hill" />
		<tag k="place" v="locality" />
		<tag k="ssr:stedsnr" v="230715" />
	</node>
	<node lat="69.59806944804846" lon="17.83034722295533" id="-44743">
		<tag k="name" v="Knuthaugen" />
		<tag k="natural" v="hill" />
		<tag k="place" v="locality" />
		<tag k="ssr:stedsnr" v="230658" />
	</node>
	<node lat="69.5012222258108" lon="17.846916671861386" id="-44744">
		<tag k="name" v="Svarthammaren" />
		<tag k="place" v="locality" />
		<tag k="ssr:stedsnr" v="230753" />
	</node>
	<node lat="69.37755833705704" lon="17.948363887258417" id="-44745">
		<tag k="name" v="Sløkelia" />
		<tag k="natural" v="slope" />
		<tag k="place" v="locality" />
		<tag k="ssr:stedsnr" v="230923" />
	</node>
	<node lat="69.33504999552667" lon="17.91669167408978" id="-44746">
		<tag k="name" v="Blomsletta" />
		<tag k="place" v="locality" />
		<tag k="ssr:stedsnr" v="230928" />
	</node>
	<node lat="69.3482555549546" lon="18.01368887532774" id="-44748">
		<tag k="name" v="Kattberget" />
		<tag k="natural" v="hill" />
		<tag k="place" v="locality" />
		<tag k="ssr:stedsnr" v="230960" />
	</node>
	<node lat="69.21854722320852" lon="18.09315554615802" id="-44751">
		<tag k="name" v="Steinåssletta" />
		<tag k="place" v="locality" />
		<tag k="ssr:stedsnr" v="232408" />
	</node>
	<node lat="69.22790833467448" lon="18.129558336488106" id="-44752">
		<tag k="name" v="Tverrelvmoen" />
		<tag k="place" v="locality" />
		<tag k="ssr:stedsnr" v="232467" />
	</node>
	<node lat="69.22719722224438" lon="18.105324994763198" id="-44753">
		<tag k="name" v="Preikstolen" />
		<tag k="natural" v="hill" />
		<tag k="place" v="locality" />
		<tag k="ssr:stedsnr" v="232471" />
	</node>
	<node lat="69.2496583354944" lon="18.077191674962467" id="-44754">
		<tag k="name" v="Innerkvanntoa" />
		<tag k="natural" v="hill" />
		<tag k="place" v="locality" />
		<tag k="ssr:stedsnr" v="232540" />
	</node>
	<node lat="69.24693610852033" lon="18.174652784769144" id="-44756">
		<tag k="name" v="Grindgårigen" />
		<tag k="place" v="locality" />
		<tag k="ssr:stedsnr" v="232548" />
	</node>
	<node lat="69.25121388863616" lon="18.10986943492501" id="-44757">
		<tag k="name" v="Kvitberget" />
		<tag k="natural" v="hill" />
		<tag k="place" v="locality" />
		<tag k="ssr:stedsnr" v="232558" />
	</node>
	<node lat="69.30576667104731" lon="18.018955546060283" id="-44758">
		<tag k="name" v="Kroken" />
		<tag k="natural" v="slope" />
		<tag k="place" v="locality" />
		<tag k="ssr:stedsnr" v="232589" />
	</node>
	<node lat="69.31475000489007" lon="18.216069430565067" id="-44761">
		<tag k="name" v="Langneslia" />
		<tag k="natural" v="slope" />
		<tag k="place" v="locality" />
		<tag k="ssr:stedsnr" v="232665" />
	</node>
	<node lat="69.43930555344483" lon="18.36873055431" id="-44763">
		<tag k="name" v="Anelia" />
		<tag k="natural" v="slope" />
		<tag k="place" v="locality" />
		<tag k="ssr:stedsnr" v="232842" />
	</node>
	<node lat="69.35836944323795" lon="18.276997215420987" id="-44764">
		<tag k="name" v="Lysmelia" />
		<tag k="natural" v="slope" />
		<tag k="place" v="locality" />
		<tag k="ssr:stedsnr" v="232853" />
	</node>
	<node lat="69.3819772384832" lon="18.454895143822718" id="-44765">
		<tag k="name" v="Skjærbergan" />
		<tag k="natural" v="hill" />
		<tag k="place" v="locality" />
		<tag k="ssr:stedsnr" v="232856" />
	</node>
	<node lat="69.4299111081397" lon="18.313830559734352" id="-44767">
		<tag k="name" v="Grønjordrapet" />
		<tag k="natural" v="valley" />
		<tag k="place" v="locality" />
		<tag k="ssr:stedsnr" v="232939" />
	</node>
	<node lat="69.42031944425548" lon="18.330847230353616" id="-44771">
		<tag k="name" v="Hatten" />
		<tag k="natural" v="hill" />
		<tag k="place" v="locality" />
		<tag k="ssr:stedsnr" v="232977" />
	</node>
	<node lat="69.09303888793775" lon="16.984255551144923" id="-44776">
		<tag k="name" v="Øverdalen" />
		<tag k="natural" v="valley" />
		<tag k="place" v="locality" />
		<tag k="ssr:stedsnr" v="18048" />
	</node>
	<node lat="69.19478332990961" lon="16.99183888988097" id="-44779">
		<tag k="name" v="Rasmuslia" />
		<tag k="natural" v="slope" />
		<tag k="place" v="locality" />
		<tag k="ssr:stedsnr" v="233143" />
	</node>
	<node lat="69.30641944220827" lon="16.956141660510035" id="-44796">
		<tag k="alt_name" v="Høgtind" />
		<tag k="fixme" v="consider natural=peak for the most distinct mountains in the district" />
		<tag k="name" v="Høgtinden" />
		<tag k="natural" v="hill" />
		<tag k="place" v="locality" />
		<tag k="ssr:stedsnr" v="18360" />
	</node>
	<node lat="69.33217777845184" lon="17.836055558332" id="-44801">
		<tag k="name" v="Godmatmoen" />
		<tag k="place" v="locality" />
		<tag k="ssr:stedsnr" v="18503" />
	</node>
	<node lat="69.33134721876992" lon="17.521077766341026" id="-44802">
		<tag k="fixme" v="consider natural=peak for the most distinct mountains in the district" />
		<tag k="name" v="Langnesen - Guhkesnjunni" />
		<tag k="name:no" v="Langnesen" />
		<tag k="name:se" v="Guhkesnjunni" />
		<tag k="natural" v="hill" />
		<tag k="old_name:se" v="Gukkesnjunni" />
		<tag k="place" v="locality" />
		<tag k="ssr:stedsnr" v="18505" />
	</node>
	<node lat="69.38982499790782" lon="17.624708323724427" id="-44805">
		<tag k="fixme" v="consider natural=peak for the most distinct mountains in the district" />
		<tag k="name" v="Istindan - Jiekŋagáisá" />
		<tag k="name:no" v="Istindan" />
		<tag k="name:se" v="Jiekŋagáisá" />
		<tag k="natural" v="hill" />
		<tag k="old_name:se" v="Jiegŋagaisa;Jiekŋagaisa" />
		<tag k="place" v="locality" />
		<tag k="ssr:stedsnr" v="18468" />
	</node>
	<node lat="69.55038055967874" lon="17.83326666020019" id="-44809">
		<tag k="alt_name:no" v="Astritinden" />
		<tag k="fixme" v="consider natural=peak for the most distinct mountains in the district" />
		<tag k="loc_name:se" v="Ástridja" />
		<tag k="name" v="Astritind" />
		<tag k="name:no" v="Astritind" />
		<tag k="natural" v="hill" />
		<tag k="place" v="locality" />
		<tag k="ssr:stedsnr" v="18811" />
	</node>
	<node lat="69.30245000171826" lon="18.052041653179103" id="-44815">
		<tag k="name" v="Bjørnbåshaugen" />
		<tag k="natural" v="hill" />
		<tag k="place" v="locality" />
		<tag k="ssr:stedsnr" v="18749" />
	</node>
	<node lat="69.21413333306789" lon="16.9407388894629" id="-44819">
		<tag k="name" v="Litjeryggen" />
		<tag k="natural" v="ridge" />
		<tag k="place" v="locality" />
		<tag k="ssr:stedsnr" v="233248" />
	</node>
	<node lat="69.2686972229407" lon="17.036597214576396" id="-44821">
		<tag k="name" v="Buddesula" />
		<tag k="natural" v="valley" />
		<tag k="place" v="locality" />
		<tag k="ssr:stedsnr" v="233335" />
	</node>
	<node lat="69.28469444087322" lon="17.00055000231147" id="-44824">
		<tag k="name" v="Storsteinsletta" />
		<tag k="place" v="locality" />
		<tag k="ssr:stedsnr" v="233434" />
	</node>
	<node lat="69.3720666705621" lon="17.31020279029717" id="-44830">
		<tag k="alt_name" v="Bardstindkne, nordre" />
		<tag k="fixme" v="consider natural=peak for the most distinct mountains in the district" />
		<tag k="name" v="Nordre Bardstindkne" />
		<tag k="natural" v="hill" />
		<tag k="place" v="locality" />
		<tag k="ssr:stedsnr" v="19296" />
	</node>
	<node lat="69.36628611571874" lon="16.9625555481276" id="-44831">
		<tag k="fixme" v="consider natural=peak for the most distinct mountains in the district" />
		<tag k="name" v="Sula" />
		<tag k="natural" v="hill" />
		<tag k="place" v="locality" />
		<tag k="ssr:stedsnr" v="19298" />
	</node>
	<node lat="69.41060555141009" lon="17.902136103529408" id="-44832">
		<tag k="name" v="Nonshøgda" />
		<tag k="natural" v="hill" />
		<tag k="place" v="locality" />
		<tag k="ssr:stedsnr" v="19504" />
	</node>
	<node lat="69.40630277706401" lon="17.54841665847034" id="-44833">
		<tag k="fixme" v="consider natural=peak for the most distinct mountains in the district" />
		<tag k="name" v="Botntinden" />
		<tag k="natural" v="hill" />
		<tag k="place" v="locality" />
		<tag k="ssr:stedsnr" v="19507" />
	</node>
	<node lat="69.2686749979124" lon="17.02894166374462" id="-44840">
		<tag k="name" v="Blåryggen" />
		<tag k="natural" v="ridge" />
		<tag k="place" v="locality" />
		<tag k="ssr:stedsnr" v="233327" />
	</node>
	<node lat="69.31781388597808" lon="16.961661112217527" id="-44841">
		<tag k="name" v="Storhågen" />
		<tag k="natural" v="hill" />
		<tag k="place" v="locality" />
		<tag k="ssr:stedsnr" v="233415" />
	</node>
	<node lat="69.2080888867459" lon="17.187708329512834" id="-44843">
		<tag k="name" v="Norddalen" />
		<tag k="natural" v="valley" />
		<tag k="place" v="locality" />
		<tag k="ssr:stedsnr" v="233513" />
	</node>
	<node lat="69.26508055357911" lon="17.11184722391833" id="-44846">
		<tag k="name" v="Rabban" />
		<tag k="natural" v="hill" />
		<tag k="place" v="locality" />
		<tag k="ssr:stedsnr" v="233520" />
	</node>
	<node lat="69.12188889168324" lon="17.26430554311585" id="-44847">
		<tag k="name" v="Djupholla" />
		<tag k="natural" v="valley" />
		<tag k="place" v="locality" />
		<tag k="ssr:stedsnr" v="233521" />
	</node>
	<node lat="69.12964722277425" lon="17.27061944325901" id="-44848">
		<tag k="fixme" v="consider natural=peak for the most distinct mountains in the district" />
		<tag k="name" v="Åsan" />
		<tag k="natural" v="hill" />
		<tag k="place" v="locality" />
		<tag k="ssr:stedsnr" v="233522" />
	</node>
	<node lat="69.38203610814253" lon="16.970958325467098" id="-44851">
		<tag k="name" v="Trolldalen" />
		<tag k="natural" v="valley" />
		<tag k="place" v="locality" />
		<tag k="ssr:stedsnr" v="233475" />
	</node>
	<node lat="69.2556555530811" lon="17.10502223233681" id="-44853">
		<tag k="name" v="Ramnehaugen" />
		<tag k="natural" v="hill" />
		<tag k="place" v="locality" />
		<tag k="ssr:stedsnr" v="233583" />
	</node>
	<node lat="69.23776111250511" lon="17.648986099482883" id="-44859">
		<tag k="name" v="Runemoen" />
		<tag k="place" v="locality" />
		<tag k="ssr:stedsnr" v="233592" />
	</node>
	<node lat="69.27523333553555" lon="17.16493889992461" id="-44861">
		<tag k="name" v="Innerdalen" />
		<tag k="natural" v="valley" />
		<tag k="place" v="locality" />
		<tag k="ssr:stedsnr" v="233600" />
	</node>
	<node lat="69.36486111382891" lon="17.095541666927343" id="-44863">
		<tag k="name" v="Skoglia" />
		<tag k="natural" v="slope" />
		<tag k="place" v="locality" />
		<tag k="ssr:stedsnr" v="233697" />
	</node>
	<node lat="69.35346944181632" lon="17.128252773378758" id="-44866">
		<tag k="name" v="Vedrabbhaugen" />
		<tag k="natural" v="hill" />
		<tag k="place" v="locality" />
		<tag k="ssr:stedsnr" v="233676" />
	</node>
	<node lat="69.18154722149292" lon="17.782850008879656" id="-44869">
		<tag k="name" v="Skreden" />
		<tag k="natural" v="slope" />
		<tag k="place" v="locality" />
		<tag k="ssr:stedsnr" v="233744" />
	</node>
	<node lat="69.16231388824968" lon="17.697527765023935" id="-44870">
		<tag k="name" v="Hammaren" />
		<tag k="natural" v="hill" />
		<tag k="place" v="locality" />
		<tag k="ssr:stedsnr" v="233752" />
	</node>
	<node lat="69.1651000012658" lon="17.60468333279383" id="-44875">
		<tag k="name" v="Størlandsbakken" />
		<tag k="natural" v="slope" />
		<tag k="place" v="locality" />
		<tag k="ssr:stedsnr" v="233987" />
	</node>
	<node lat="69.1917333375191" lon="17.640888889355313" id="-44879">
		<tag k="name" v="Storlia" />
		<tag k="natural" v="slope" />
		<tag k="place" v="locality" />
		<tag k="ssr:stedsnr" v="233995" />
	</node>
	<node lat="69.46240000156723" lon="17.36290001096035" id="-44883">
		<tag k="name" v="Lutlia" />
		<tag k="natural" v="slope" />
		<tag k="place" v="locality" />
		<tag k="ssr:stedsnr" v="234094" />
	</node>
	<node lat="69.45677778023524" lon="17.360274995952327" id="-44884">
		<tag k="name" v="Rundbakken" />
		<tag k="natural" v="slope" />
		<tag k="place" v="locality" />
		<tag k="ssr:stedsnr" v="234095" />
	</node>
	<node lat="69.02124444623193" lon="17.210686103818926" id="-44889">
		<tag k="name" v="Nausthågen" />
		<tag k="natural" v="hill" />
		<tag k="place" v="locality" />
		<tag k="ssr:stedsnr" v="234397" />
	</node>
	<node lat="69.47127777979007" lon="17.23609999437707" id="-44897">
		<tag k="alt_name" v="Rabbeflågan" />
		<tag k="name" v="Rabbeflogan" />
		<tag k="natural" v="cliff" />
		<tag k="ssr:stedsnr" v="234450" />
	</node>
	<node lat="69.16936389310402" lon="17.81819167033342" id="-44898">
		<tag k="name" v="Bjørnlia" />
		<tag k="natural" v="slope" />
		<tag k="place" v="locality" />
		<tag k="ssr:stedsnr" v="234458" />
	</node>
	<node lat="69.17159444375753" lon="17.79989167139288" id="-44899">
		<tag k="fixme" v="consider natural=peak for the most distinct mountains in the district" />
		<tag k="name" v="Ingeborgfjellet" />
		<tag k="natural" v="hill" />
		<tag k="place" v="locality" />
		<tag k="ssr:stedsnr" v="234461" />
	</node>
	<node lat="69.16726666440375" lon="17.7503888835001" id="-44901">
		<tag k="name" v="Sjøhågen" />
		<tag k="natural" v="hill" />
		<tag k="place" v="locality" />
		<tag k="ssr:stedsnr" v="234466" />
	</node>
	<node lat="69.47266110735366" lon="17.278013895508835" id="-44902">
		<tag k="name" v="Stordalen" />
		<tag k="natural" v="valley" />
		<tag k="place" v="locality" />
		<tag k="ssr:stedsnr" v="234469" />
	</node>
	<node lat="69.01607221867167" lon="17.143244448545563" id="-44903">
		<tag k="name" v="Nylandshågen" />
		<tag k="natural" v="hill" />
		<tag k="place" v="locality" />
		<tag k="ssr:stedsnr" v="234539" />
	</node>
	<node lat="69.01335277391294" lon="17.088911113767416" id="-44905">
		<tag k="name" v="Storklubbholtet" />
		<tag k="natural" v="hill" />
		<tag k="place" v="locality" />
		<tag k="ssr:stedsnr" v="234547" />
	</node>
	<node lat="69.46588333077116" lon="17.265711095869836" id="-44906">
		<tag k="name" v="Storrånna" />
		<tag k="natural" v="valley" />
		<tag k="place" v="locality" />
		<tag k="ssr:stedsnr" v="234482" />
	</node>
	<node lat="69.2351694404104" lon="17.599727783524063" id="-44909">
		<tag k="name" v="Einehågen" />
		<tag k="natural" v="hill" />
		<tag k="place" v="locality" />
		<tag k="ssr:stedsnr" v="234517" />
	</node>
	<node lat="69.06972221827581" lon="16.95001388115687" id="-44913">
		<tag k="name" v="Likholla" />
		<tag k="natural" v="valley" />
		<tag k="place" v="locality" />
		<tag k="ssr:stedsnr" v="234564" />
	</node>
	<node lat="69.48758055625082" lon="17.21074998802022" id="-44914">
		<tag k="name" v="Karsteinhammarlia" />
		<tag k="natural" v="slope" />
		<tag k="place" v="locality" />
		<tag k="ssr:stedsnr" v="234568" />
	</node>
	<node lat="69.45128889374934" lon="17.402897213232468" id="-44916">
		<tag k="name" v="Svarteberget" />
		<tag k="natural" v="hill" />
		<tag k="place" v="locality" />
		<tag k="ssr:stedsnr" v="234617" />
	</node>
	<node lat="69.32505833305139" lon="17.16550277917306" id="-44917">
		<tag k="name" v="Kaldskaret" />
		<tag k="natural" v="valley" />
		<tag k="place" v="locality" />
		<tag k="ssr:stedsnr" v="234619" />
	</node>
	<node lat="69.24606666988976" lon="17.619911121012283" id="-44919">
		<tag k="name" v="Djupedalen" />
		<tag k="natural" v="valley" />
		<tag k="place" v="locality" />
		<tag k="ssr:stedsnr" v="234651" />
	</node>
	<node lat="69.28213333006441" lon="17.6453861107435" id="-44924">
		<tag k="name" v="Steinhaugen" />
		<tag k="natural" v="hill" />
		<tag k="place" v="locality" />
		<tag k="ssr:stedsnr" v="234671" />
	</node>
	<node lat="69.0160027770086" lon="17.1366305616052" id="-44927">
		<tag k="name" v="Elvesletta" />
		<tag k="place" v="locality" />
		<tag k="ssr:stedsnr" v="29324" />
	</node>
	<node lat="69.35225278109378" lon="17.382733329657363" id="-44929">
		<tag k="name" v="Lappedalen" />
		<tag k="natural" v="valley" />
		<tag k="place" v="locality" />
		<tag k="ssr:stedsnr" v="234859" />
	</node>
	<node lat="69.4760222210294" lon="17.23546110022967" id="-44934">
		<tag k="name" v="Vedhammaren" />
		<tag k="natural" v="ridge" />
		<tag k="place" v="locality" />
		<tag k="ssr:stedsnr" v="235446" />
	</node>
	<node lat="69.38778747928843" lon="17.421449965597514" id="-44936">
		<tag k="name" v="Vedfirarhaugen" />
		<tag k="natural" v="hill" />
		<tag k="place" v="locality" />
		<tag k="ssr:stedsnr" v="235917" />
	</node>
	<node lat="69.46644721915278" lon="17.541305541836643" id="-44939">
		<tag k="name" v="Kvalvikheian" />
		<tag k="natural" v="hill" />
		<tag k="place" v="locality" />
		<tag k="ssr:stedsnr" v="236286" />
	</node>
	<node lat="69.44324722312449" lon="17.46084165673251" id="-44940">
		<tag k="name" v="Blombakken" />
		<tag k="natural" v="slope" />
		<tag k="place" v="locality" />
		<tag k="ssr:stedsnr" v="237023" />
	</node>
	<node lat="69.5313361079798" lon="17.622022225252437" id="-44945">
		<tag k="name" v="Vindhammaren" />
		<tag k="natural" v="hill" />
		<tag k="place" v="locality" />
		<tag k="ssr:stedsnr" v="44976" />
	</node>
	<node lat="69.44349167032306" lon="17.851355546786486" id="-44948">
		<tag k="name" v="Storvikaksla" />
		<tag k="place" v="locality" />
		<tag k="ssr:stedsnr" v="47204" />
	</node>
	<node lat="69.41708888784933" lon="17.79201389749943" id="-44949">
		<tag k="name" v="Hestevalen" />
		<tag k="natural" v="valley" />
		<tag k="place" v="locality" />
		<tag k="ssr:stedsnr" v="47188" />
	</node>
	<node lat="69.4339666659711" lon="18.016324995640183" id="-44951">
		<tag k="name" v="Skrivarhøgda" />
		<tag k="natural" v="hill" />
		<tag k="place" v="locality" />
		<tag k="ssr:stedsnr" v="47407" />
	</node>
	<node lat="69.24403333515163" lon="17.816486121295803" id="-44952">
		<tag k="name" v="Storsletta" />
		<tag k="place" v="locality" />
		<tag k="ssr:stedsnr" v="47619" />
	</node>
	<node lat="69.46965555328319" lon="17.773947219713573" id="-44960">
		<tag k="name" v="Prestbenken" />
		<tag k="place" v="locality" />
		<tag k="ssr:stedsnr" v="48325" />
	</node>
	<node lat="69.19439721990892" lon="17.953402773819615" id="-44962">
		<tag k="name" v="Storberget" />
		<tag k="natural" v="hill" />
		<tag k="place" v="locality" />
		<tag k="ssr:stedsnr" v="48333" />
	</node>
	<node lat="69.17823332958653" lon="17.94158611825505" id="-44968">
		<tag k="name" v="Dalen" />
		<tag k="natural" v="valley" />
		<tag k="place" v="locality" />
		<tag k="ssr:stedsnr" v="48713" />
	</node>
	<node lat="69.2759333335013" lon="17.992099984781152" id="-44969">
		<tag k="fixme" v="consider natural=peak for the most distinct mountains in the district" />
		<tag k="name" v="Finngammhøgda" />
		<tag k="natural" v="hill" />
		<tag k="place" v="locality" />
		<tag k="ssr:stedsnr" v="48602" />
	</node>
	<node lat="69.2903694404066" lon="17.705333336475988" id="-44970">
		<tag k="loc_name:se" v="Várddaváráš" />
		<tag k="name" v="Vardhaugen" />
		<tag k="name:no" v="Vardhaugen" />
		<tag k="natural" v="hill" />
		<tag k="place" v="locality" />
		<tag k="ssr:stedsnr" v="48606" />
	</node>
	<node lat="69.25971388899252" lon="17.935408339518624" id="-44971">
		<tag k="name" v="Mølnhaugen" />
		<tag k="natural" v="hill" />
		<tag k="place" v="locality" />
		<tag k="ssr:stedsnr" v="48609" />
	</node>
	<node lat="69.29944722639782" lon="17.752683321823923" id="-44973">
		<tag k="name" v="Gjerdbakken" />
		<tag k="natural" v="slope" />
		<tag k="place" v="locality" />
		<tag k="ssr:stedsnr" v="48623" />
	</node>
	<node lat="69.50787777614916" lon="17.71865278413257" id="-44977">
		<tag k="name" v="Migadalen" />
		<tag k="natural" v="valley" />
		<tag k="place" v="locality" />
		<tag k="ssr:stedsnr" v="49770" />
	</node>
	<node lat="69.34138611394073" lon="18.320622206725034" id="-44979">
		<tag k="fixme" v="consider natural=peak for the most distinct mountains in the district" />
		<tag k="name" v="Hakkosvárri" />
		<tag k="name:se" v="Hakkosvárri" />
		<tag k="natural" v="hill" />
		<tag k="place" v="locality" />
		<tag k="ssr:stedsnr" v="49902" />
	</node>
	<node lat="69.22220555447645" lon="18.117544428157114" id="-44982">
		<tag k="name" v="Vasshågan" />
		<tag k="natural" v="hill" />
		<tag k="place" v="locality" />
		<tag k="ssr:stedsnr" v="50478" />
	</node>
	<node lat="69.22404999790103" lon="18.123747221604866" id="-44984">
		<tag k="name" v="Mekkelhågen" />
		<tag k="natural" v="hill" />
		<tag k="place" v="locality" />
		<tag k="ssr:stedsnr" v="50481" />
	</node>
	<node lat="69.33811111545799" lon="18.08919999761789" id="-44985">
		<tag k="name" v="Øverlandet" />
		<tag k="place" v="locality" />
		<tag k="ssr:stedsnr" v="50614" />
	</node>
	<node lat="69.29728611320134" lon="18.41942499669498" id="-44986">
		<tag k="alt_name" v="Storhompen" />
		<tag k="name" v="Storhumpen" />
		<tag k="natural" v="hill" />
		<tag k="place" v="locality" />
		<tag k="ssr:stedsnr" v="50724" />
	</node>
	<node lat="69.31980555790776" lon="18.330761110734908" id="-44989">
		<tag k="name" v="Lyarberget" />
		<tag k="natural" v="hill" />
		<tag k="place" v="locality" />
		<tag k="ssr:stedsnr" v="50670" />
	</node>
	<node lat="69.45421389235864" lon="18.353438886082092" id="-44991">
		<tag k="fixme" v="consider natural=peak for the most distinct mountains in the district" />
		<tag k="name" v="Storhammaren" />
		<tag k="natural" v="hill" />
		<tag k="place" v="locality" />
		<tag k="ssr:stedsnr" v="50822" />
	</node>
	<node lat="69.40133611271273" lon="18.2524722291275" id="-44993">
		<tag k="name" v="Bjørnhaugen" />
		<tag k="natural" v="hill" />
		<tag k="place" v="locality" />
		<tag k="ssr:stedsnr" v="50870" />
	</node>
	<node lat="69.20060000296088" lon="16.919397225910153" id="-44995">
		<tag k="name" v="Geitebergan" />
		<tag k="natural" v="hill" />
		<tag k="place" v="locality" />
		<tag k="ssr:stedsnr" v="51305" />
	</node>
	<node lat="69.1479166650203" lon="17.432191660509293" id="-44998">
		<tag k="name" v="Kjerringberget" />
		<tag k="natural" v="hill" />
		<tag k="place" v="locality" />
		<tag k="ssr:stedsnr" v="51509" />
	</node>
	<node lat="69.10996666736526" lon="16.88672776812243" id="-44999">
		<tag k="name" v="Rishågen" />
		<tag k="natural" v="hill" />
		<tag k="place" v="locality" />
		<tag k="ssr:stedsnr" v="51612" />
	</node>
	<node lat="69.3501111120523" lon="17.077236102348024" id="-45000">
		<tag k="fixme" v="consider natural=peak for the most distinct mountains in the district" />
		<tag k="name" v="Midtertinden" />
		<tag k="natural" v="hill" />
		<tag k="place" v="locality" />
		<tag k="ssr:stedsnr" v="51693" />
	</node>
	<node lat="69.18524721921422" lon="17.831652764040832" id="-45004">
		<tag k="name" v="Drakebergheia" />
		<tag k="natural" v="hill" />
		<tag k="place" v="locality" />
		<tag k="ssr:stedsnr" v="51719" />
	</node>
	<node lat="69.10682221865223" lon="16.798458325611826" id="-45005">
		<tag k="name" v="Bukkholla" />
		<tag k="natural" v="valley" />
		<tag k="place" v="locality" />
		<tag k="ssr:stedsnr" v="51907" />
	</node>
	<node lat="69.06444999583826" lon="16.89518054920078" id="-45008">
		<tag k="fixme" v="consider natural=peak for the most distinct mountains in the district" />
		<tag k="name" v="Marivassåsen" />
		<tag k="natural" v="hill" />
		<tag k="place" v="locality" />
		<tag k="ssr:stedsnr" v="51922" />
	</node>
	<node lat="69.13052222437119" lon="17.122177767318753" id="-45012">
		<tag k="fixme" v="consider natural=peak for the most distinct mountains in the district" />
		<tag k="name" v="Austerkantfjellet" />
		<tag k="natural" v="hill" />
		<tag k="place" v="locality" />
		<tag k="ssr:stedsnr" v="52277" />
	</node>
	<node lat="69.34033333698996" lon="17.153961118707763" id="-45017">
		<tag k="name" v="Geitlifoten" />
		<tag k="natural" v="slope" />
		<tag k="place" v="locality" />
		<tag k="ssr:stedsnr" v="52714" />
	</node>
	<node lat="69.4718388890656" lon="17.44343054895635" id="-45023">
		<tag k="fixme" v="consider natural=peak for the most distinct mountains in the district" />
		<tag k="name" v="Ramnfløy" />
		<tag k="natural" v="hill" />
		<tag k="place" v="locality" />
		<tag k="ssr:stedsnr" v="52986" />
	</node>
	<node lat="69.48216666287763" lon="17.349713875871103" id="-45025">
		<tag k="name" v="Stordalen" />
		<tag k="natural" v="valley" />
		<tag k="place" v="locality" />
		<tag k="ssr:stedsnr" v="53377" />
	</node>
	<node lat="69.47631389079886" lon="17.224044449215647" id="-45026">
		<tag k="name" v="Kvalvikhompan" />
		<tag k="natural" v="hill" />
		<tag k="place" v="locality" />
		<tag k="ssr:stedsnr" v="53409" />
	</node>
	<node lat="69.17393055788531" lon="17.752463889250556" id="-45027">
		<tag k="name" v="Brattlia" />
		<tag k="natural" v="slope" />
		<tag k="place" v="locality" />
		<tag k="ssr:stedsnr" v="53708" />
	</node>
	<node lat="69.43839444690569" lon="17.36933332069988" id="-45029">
		<tag k="name" v="Monslia" />
		<tag k="natural" v="slope" />
		<tag k="place" v="locality" />
		<tag k="ssr:stedsnr" v="53774" />
	</node>
	<node lat="69.25580277970604" lon="17.55528610989821" id="-45030">
		<tag k="name" v="Plasslia" />
		<tag k="natural" v="slope" />
		<tag k="place" v="locality" />
		<tag k="ssr:stedsnr" v="53669" />
	</node>
	<node lat="69.25441944579829" lon="17.569958336982594" id="-45031">
		<tag k="name" v="Brentemoen" />
		<tag k="place" v="locality" />
		<tag k="ssr:stedsnr" v="53670" />
	</node>
	<node lat="69.2416666665761" lon="17.644808330891347" id="-45032">
		<tag k="name" v="Lamoen" />
		<tag k="place" v="locality" />
		<tag k="ssr:stedsnr" v="53678" />
	</node>
	<node lat="69.2435305571119" lon="17.646655542966315" id="-45034">
		<tag k="name" v="Geitberget" />
		<tag k="natural" v="hill" />
		<tag k="place" v="locality" />
		<tag k="ssr:stedsnr" v="53681" />
	</node>
	<node lat="69.4855888910917" lon="17.21578055286317" id="-45035">
		<tag k="name" v="Slettebergan" />
		<tag k="natural" v="hill" />
		<tag k="place" v="locality" />
		<tag k="ssr:stedsnr" v="53685" />
	</node>
	<node lat="69.49002777865955" lon="17.463897211536025" id="-45038">
		<tag k="name" v="Skoglia" />
		<tag k="natural" v="slope" />
		<tag k="place" v="locality" />
		<tag k="ssr:stedsnr" v="54072" />
	</node>
	<node lat="69.4823499970727" lon="17.461297216230317" id="-45039">
		<tag k="fixme" v="consider natural=peak for the most distinct mountains in the district" />
		<tag k="name" v="Skia" />
		<tag k="natural" v="hill" />
		<tag k="place" v="locality" />
		<tag k="ssr:stedsnr" v="54086" />
	</node>
	<node lat="69.49299166535079" lon="17.401213896845416" id="-45040">
		<tag k="name" v="Kjellslia" />
		<tag k="natural" v="slope" />
		<tag k="place" v="locality" />
		<tag k="ssr:stedsnr" v="55106" />
	</node>
	<node lat="69.56603611281463" lon="17.47834167780636" id="-45041">
		<tag k="name" v="Draklia" />
		<tag k="natural" v="slope" />
		<tag k="place" v="locality" />
		<tag k="ssr:stedsnr" v="55184" />
	</node>
	<node lat="69.52986666381815" lon="17.552830551187267" id="-45043">
		<tag k="name" v="Svarthammaren" />
		<tag k="natural" v="hill" />
		<tag k="place" v="locality" />
		<tag k="ssr:stedsnr" v="55344" />
	</node>
	<node lat="69.5126611116176" lon="17.418674988183685" id="-45044">
		<tag k="name" v="Gravdalen" />
		<tag k="natural" v="valley" />
		<tag k="place" v="locality" />
		<tag k="ssr:stedsnr" v="55217" />
	</node>
	<node lat="69.51208055419296" lon="17.44381944047338" id="-45045">
		<tag k="name" v="Tindfoten" />
		<tag k="natural" v="slope" />
		<tag k="place" v="locality" />
		<tag k="ssr:stedsnr" v="55219" />
	</node>
	<node lat="69.51293055399543" lon="17.439244440594567" id="-45046">
		<tag k="name" v="Malenahaugen" />
		<tag k="natural" v="hill" />
		<tag k="place" v="locality" />
		<tag k="ssr:stedsnr" v="55221" />
	</node>
	<node lat="69.08278332964724" lon="17.02685556035904" id="-45050">
		<tag k="name" v="Åheia" />
		<tag k="natural" v="hill" />
		<tag k="place" v="locality" />
		<tag k="ssr:stedsnr" v="78064" />
	</node>
	<node lat="69.20293889139954" lon="17.346622219462763" id="-45052">
		<tag k="name" v="Ånderdalen - Álddovuopmi" />
		<tag k="name:no" v="Ånderdalen" />
		<tag k="name:se" v="Álddovuopmi" />
		<tag k="natural" v="valley" />
		<tag k="old_name:se" v="Alduvuobmi" />
		<tag k="place" v="locality" />
		<tag k="ssr:stedsnr" v="78148" />
	</node>
	<node lat="69.17858610858917" lon="17.41278611884237" id="-45054">
		<tag k="fixme" v="consider natural=peak for the most distinct mountains in the district" />
		<tag k="name" v="Jordnesfjellet" />
		<tag k="natural" v="hill" />
		<tag k="place" v="locality" />
		<tag k="ssr:stedsnr" v="78247" />
	</node>
	<node lat="69.242125002507" lon="18.05943610311794" id="-45057">
		<tag k="name" v="Bjørnlia" />
		<tag k="natural" v="slope" />
		<tag k="place" v="locality" />
		<tag k="ssr:stedsnr" v="78646" />
	</node>
	<node lat="69.47244166386396" lon="17.35964720819596" id="-45063">
		<tag k="alt_name" v="Manan" />
		<tag k="name" v="Mannan" />
		<tag k="natural" v="valley" />
		<tag k="place" v="locality" />
		<tag k="ssr:stedsnr" v="79194" />
	</node>
	<node lat="69.37694444266131" lon="17.007463897782994" id="-45064">
		<tag k="fixme" v="consider natural=peak for the most distinct mountains in the district" />
		<tag k="name" v="Stauren" />
		<tag k="natural" v="hill" />
		<tag k="place" v="locality" />
		<tag k="ssr:stedsnr" v="79345" />
	</node>
	<node lat="69.384777778083" lon="18.30002222490457" id="-45073">
		<tag k="alt_name" v="Kråknestinden" />
		<tag k="fixme" v="consider natural=peak for the most distinct mountains in the district" />
		<tag k="name" v="Kraknestinden" />
		<tag k="natural" v="hill" />
		<tag k="place" v="locality" />
		<tag k="ssr:stedsnr" v="79712" />
	</node>
	<node lat="69.33515000201325" lon="18.40940832485708" id="-45076">
		<tag k="fixme" v="consider natural=peak for the most distinct mountains in the district" />
		<tag k="name" v="Sultind" />
		<tag k="natural" v="hill" />
		<tag k="place" v="locality" />
		<tag k="ssr:stedsnr" v="79747" />
	</node>
	<node lat="69.55889721986055" lon="17.699788883172506" id="-45078">
		<tag k="fixme" v="consider natural=peak for the most distinct mountains in the district" />
		<tag k="name" v="Rundkollen" />
		<tag k="natural" v="hill" />
		<tag k="place" v="locality" />
		<tag k="ssr:stedsnr" v="79841" />
	</node>
	<node lat="69.27098055908955" lon="17.155447233665914" id="-45082">
		<tag k="fixme" v="consider natural=peak for the most distinct mountains in the district" />
		<tag k="name" v="Småtindan" />
		<tag k="natural" v="hill" />
		<tag k="place" v="locality" />
		<tag k="ssr:stedsnr" v="81384" />
	</node>
	<node lat="69.41666389260863" lon="17.8300722240048" id="-45096">
		<tag k="name" v="Kvannliholla" />
		<tag k="natural" v="valley" />
		<tag k="place" v="locality" />
		<tag k="ssr:stedsnr" v="108129" />
	</node>
	<node lat="69.42826944428981" lon="17.854144447204522" id="-45097">
		<tag k="fixme" v="consider natural=peak for the most distinct mountains in the district" />
		<tag k="name" v="Storsletta" />
		<tag k="natural" v="hill" />
		<tag k="place" v="locality" />
		<tag k="ssr:stedsnr" v="108173" />
	</node>
	<node lat="69.30736666341382" lon="18.016499997466212" id="-45101">
		<tag k="name" v="Finnehaugen" />
		<tag k="natural" v="hill" />
		<tag k="place" v="locality" />
		<tag k="ssr:stedsnr" v="109075" />
	</node>
	<node lat="69.58363889038495" lon="17.522841666930077" id="-45102">
		<tag k="name" v="Miga" />
		<tag k="natural" v="valley" />
		<tag k="place" v="locality" />
		<tag k="ssr:stedsnr" v="109213" />
	</node>
	<node lat="69.5927138931924" lon="17.68122776748601" id="-45104">
		<tag k="name" v="Merraføa" />
		<tag k="natural" v="valley" />
		<tag k="place" v="locality" />
		<tag k="ssr:stedsnr" v="109135" />
	</node>
	<node lat="69.52089444472236" lon="17.716194431350168" id="-45106">
		<tag k="name" v="Slettriven" />
		<tag k="natural" v="slope" />
		<tag k="place" v="locality" />
		<tag k="ssr:stedsnr" v="109145" />
	</node>
	<node lat="69.55858333105485" lon="17.577483320529794" id="-45108">
		<tag k="name" v="Vassbakken" />
		<tag k="natural" v="slope" />
		<tag k="place" v="locality" />
		<tag k="ssr:stedsnr" v="109174" />
	</node>
	<node lat="69.54823055523639" lon="17.581091664372135" id="-45110">
		<tag k="fixme" v="consider natural=peak for the most distinct mountains in the district" />
		<tag k="name" v="Heia" />
		<tag k="natural" v="hill" />
		<tag k="place" v="locality" />
		<tag k="ssr:stedsnr" v="109181" />
	</node>
	<node lat="69.55388610874577" lon="17.601249984693677" id="-45111">
		<tag k="name" v="Hundbergan" />
		<tag k="natural" v="hill" />
		<tag k="place" v="locality" />
		<tag k="ssr:stedsnr" v="109183" />
	</node>
	<node lat="69.16495555485054" lon="17.842811100798645" id="-45112">
		<tag k="fixme" v="consider natural=peak for the most distinct mountains in the district" />
		<tag k="name" v="Åsen" />
		<tag k="natural" v="hill" />
		<tag k="place" v="locality" />
		<tag k="ssr:stedsnr" v="109502" />
	</node>
	<node lat="69.16886944484627" lon="17.843372206922922" id="-45113">
		<tag k="name" v="Kniverilten" />
		<tag k="natural" v="slope" />
		<tag k="place" v="locality" />
		<tag k="ssr:stedsnr" v="109503" />
	</node>
	<node lat="69.28001666610356" lon="17.86603610299083" id="-45114">
		<tag k="fixme" v="consider natural=peak for the most distinct mountains in the district" />
		<tag k="name" v="Neveråsen" />
		<tag k="natural" v="hill" />
		<tag k="place" v="locality" />
		<tag k="ssr:stedsnr" v="109572" />
	</node>
	<node lat="69.24008055434798" lon="17.99565832492128" id="-45120">
		<tag k="name" v="Høgda" />
		<tag k="natural" v="hill" />
		<tag k="place" v="locality" />
		<tag k="ssr:stedsnr" v="109629" />
	</node>
	<node lat="69.24247500286567" lon="17.997605548607762" id="-45121">
		<tag k="name" v="Helvetesbergan" />
		<tag k="natural" v="hill" />
		<tag k="place" v="locality" />
		<tag k="ssr:stedsnr" v="109631" />
	</node>
	<node lat="69.55607222285123" lon="17.80417223179687" id="-45125">
		<tag k="name" v="Bjørnvegen" />
		<tag k="natural" v="slope" />
		<tag k="place" v="locality" />
		<tag k="ssr:stedsnr" v="109805" />
	</node>
	<node lat="69.39909444102673" lon="18.321574988050486" id="-45130">
		<tag k="name" v="Storlia" />
		<tag k="natural" v="slope" />
		<tag k="place" v="locality" />
		<tag k="ssr:stedsnr" v="111907" />
	</node>
	<node lat="69.4212138845347" lon="18.30386945133425" id="-45134">
		<tag k="name" v="Grønjordrapet" />
		<tag k="natural" v="valley" />
		<tag k="place" v="locality" />
		<tag k="ssr:stedsnr" v="111988" />
	</node>
	<node lat="69.42532499859175" lon="18.343519431498553" id="-45135">
		<tag k="name" v="Høgbakken" />
		<tag k="natural" v="slope" />
		<tag k="place" v="locality" />
		<tag k="ssr:stedsnr" v="111990" />
	</node>
	<node lat="69.27094999927064" lon="17.075063879052124" id="-45138">
		<tag k="name" v="Tuvdalen" />
		<tag k="natural" v="valley" />
		<tag k="place" v="locality" />
		<tag k="ssr:stedsnr" v="112503" />
	</node>
	<node lat="69.27191388972076" lon="17.122108333606594" id="-45139">
		<tag k="name" v="Toften" />
		<tag k="natural" v="slope" />
		<tag k="place" v="locality" />
		<tag k="ssr:stedsnr" v="112506" />
	</node>
	<node lat="69.14240278175728" lon="17.28854165788251" id="-45140">
		<tag k="name" v="Blomholthøgda" />
		<tag k="natural" v="hill" />
		<tag k="place" v="locality" />
		<tag k="ssr:stedsnr" v="112507" />
	</node>
	<node lat="69.14075000377774" lon="17.306269449348413" id="-45141">
		<tag k="name" v="Hågen" />
		<tag k="natural" v="hill" />
		<tag k="place" v="locality" />
		<tag k="ssr:stedsnr" v="112509" />
	</node>
	<node lat="69.31587500056179" lon="16.973305559832546" id="-45142">
		<tag k="name" v="Indre Holtan" />
		<tag k="natural" v="slope" />
		<tag k="place" v="locality" />
		<tag k="ssr:stedsnr" v="112402" />
	</node>
	<node lat="69.08014444519476" lon="16.983124987693838" id="-45144">
		<tag k="name" v="Åholla" />
		<tag k="natural" v="valley" />
		<tag k="place" v="locality" />
		<tag k="ssr:stedsnr" v="112614" />
	</node>
	<node lat="69.36671111100208" lon="17.150530559839403" id="-45147">
		<tag k="name" v="Toldalen" />
		<tag k="natural" v="valley" />
		<tag k="place" v="locality" />
		<tag k="ssr:stedsnr" v="112643" />
	</node>
	<node lat="69.10961666427364" lon="17.033941673852734" id="-45148">
		<tag k="name" v="Salamoen" />
		<tag k="place" v="locality" />
		<tag k="ssr:stedsnr" v="112574" />
	</node>
	<node lat="69.38331389170885" lon="17.134436100257485" id="-45149">
		<tag k="name" v="Joanveita" />
		<tag k="place" v="locality" />
		<tag k="ssr:stedsnr" v="112713" />
	</node>
	<node lat="69.37280555874112" lon="17.068572217739117" id="-45150">
		<tag k="name" v="Indre Rognskaret" />
		<tag k="natural" v="valley" />
		<tag k="place" v="locality" />
		<tag k="ssr:stedsnr" v="112719" />
	</node>
	<node lat="69.36016111019212" lon="17.06761667661787" id="-45154">
		<tag k="name" v="Høgryggen" />
		<tag k="natural" v="ridge" />
		<tag k="place" v="locality" />
		<tag k="ssr:stedsnr" v="112673" />
	</node>
	<node lat="69.07344166182557" lon="16.8127333410125" id="-45155">
		<tag k="name" v="Finnjorddalen" />
		<tag k="natural" v="valley" />
		<tag k="place" v="locality" />
		<tag k="ssr:stedsnr" v="112872" />
	</node>
	<node lat="69.4045555579187" lon="17.33134999317399" id="-45159">
		<tag k="name" v="Vedberget" />
		<tag k="natural" v="hill" />
		<tag k="place" v="locality" />
		<tag k="ssr:stedsnr" v="113023" />
	</node>
	<node lat="69.16416389235785" lon="17.584050011816235" id="-45161">
		<tag k="name" v="Elvesletten" />
		<tag k="place" v="locality" />
		<tag k="ssr:stedsnr" v="112981" />
	</node>
	<node lat="69.07693055232843" lon="17.04672220818482" id="-45164">
		<tag k="name" v="Myrvanghaugen" />
		<tag k="natural" v="hill" />
		<tag k="place" v="locality" />
		<tag k="ssr:stedsnr" v="113268" />
	</node>
	<node lat="69.08573888528171" lon="17.08488888758663" id="-45166">
		<tag k="name" v="Tverrheia" />
		<tag k="natural" v="hill" />
		<tag k="place" v="locality" />
		<tag k="ssr:stedsnr" v="113286" />
	</node>
	<node lat="69.08184444020704" lon="17.060338889832874" id="-45167">
		<tag k="fixme" v="consider natural=peak for the most distinct mountains in the district" />
		<tag k="name" v="Åsen" />
		<tag k="natural" v="hill" />
		<tag k="place" v="locality" />
		<tag k="ssr:stedsnr" v="113289" />
	</node>
	<node lat="69.23334721860166" lon="17.580136109081" id="-45169">
		<tag k="name" v="Litjeholtet" />
		<tag k="natural" v="hill" />
		<tag k="place" v="locality" />
		<tag k="ssr:stedsnr" v="113506" />
	</node>
	<node lat="69.20411388528748" lon="17.667522228159505" id="-45175">
		<tag k="name" v="Hammaren" />
		<tag k="natural" v="hill" />
		<tag k="place" v="locality" />
		<tag k="ssr:stedsnr" v="113577" />
	</node>
	<node lat="69.2678222235575" lon="17.62101943180633" id="-45176">
		<tag k="name" v="Torvebakken" />
		<tag k="natural" v="slope" />
		<tag k="place" v="locality" />
		<tag k="ssr:stedsnr" v="113581" />
	</node>
	<node lat="69.25145833193066" lon="17.59990554613338" id="-45179">
		<tag k="name" v="Nervollen" />
		<tag k="place" v="locality" />
		<tag k="ssr:stedsnr" v="113593" />
	</node>
	<node lat="69.23901666399968" lon="17.620199994719655" id="-45182">
		<tag k="name" v="Kvalskolten" />
		<tag k="natural" v="hill" />
		<tag k="place" v="locality" />
		<tag k="ssr:stedsnr" v="113625" />
	</node>
	<node lat="69.17627778277766" lon="17.73964443211222" id="-45185">
		<tag k="name" v="Finnebakken" />
		<tag k="natural" v="slope" />
		<tag k="place" v="locality" />
		<tag k="ssr:stedsnr" v="113672" />
	</node>
	<node lat="69.03170555676598" lon="17.198208327046494" id="-45186">
		<tag k="name" v="Donneveiholtet" />
		<tag k="natural" v="hill" />
		<tag k="place" v="locality" />
		<tag k="ssr:stedsnr" v="113673" />
	</node>
	<node lat="69.17664444617182" lon="17.754472229416912" id="-45187">
		<tag k="name" v="Helvete" />
		<tag k="natural" v="cliff" />
		<tag k="ssr:stedsnr" v="113676" />
	</node>
	<node lat="69.41581944412589" lon="17.211205548582264" id="-45189">
		<tag k="name" v="Fjøshaugen" />
		<tag k="natural" v="hill" />
		<tag k="place" v="locality" />
		<tag k="ssr:stedsnr" v="113907" />
	</node>
	<node lat="69.47971388848826" lon="17.480983321529695" id="-45190">
		<tag k="name" v="Roaldsryggen" />
		<tag k="natural" v="ridge" />
		<tag k="place" v="locality" />
		<tag k="ssr:stedsnr" v="115105" />
	</node>
	<node lat="69.42587222131006" lon="17.503894440958483" id="-45191">
		<tag k="name" v="Loftan" />
		<tag k="place" v="locality" />
		<tag k="ssr:stedsnr" v="115113" />
	</node>
	<node lat="69.41866388568094" lon="17.503711120461794" id="-45192">
		<tag k="name" v="Storhaugen" />
		<tag k="natural" v="hill" />
		<tag k="place" v="locality" />
		<tag k="ssr:stedsnr" v="115116" />
	</node>
	<node lat="69.47820555280937" lon="17.42240832860913" id="-45194">
		<tag k="name" v="Moan" />
		<tag k="place" v="locality" />
		<tag k="ssr:stedsnr" v="115135" />
	</node>
	<node lat="69.49048889216516" lon="17.400022216170214" id="-45195">
		<tag k="name" v="Melkarsletta" />
		<tag k="place" v="locality" />
		<tag k="ssr:stedsnr" v="115142" />
	</node>
	<node lat="69.58298333454611" lon="17.489174999058267" id="-45196">
		<tag k="name" v="Molla" />
		<tag k="natural" v="slope" />
		<tag k="place" v="locality" />
		<tag k="ssr:stedsnr" v="115217" />
	</node>
	<node lat="69.52204166808949" lon="17.40709999691171" id="-45199">
		<tag k="name" v="Hamran" />
		<tag k="natural" v="hill" />
		<tag k="place" v="locality" />
		<tag k="ssr:stedsnr" v="115178" />
	</node>
	<node lat="69.53738333487783" lon="17.540094434934637" id="-45200">
		<tag k="name" v="Sevdalsryggen" />
		<tag k="natural" v="ridge" />
		<tag k="place" v="locality" />
		<tag k="ssr:stedsnr" v="115369" />
	</node>
	<node lat="69.23289722186101" lon="16.966902785619833" id="-45202">
		<tag k="name" v="Innerdalen" />
		<tag k="natural" v="valley" />
		<tag k="place" v="locality" />
		<tag k="ssr:stedsnr" v="138199" />
	</node>
	<node lat="69.07296111123473" lon="16.905200004339296" id="-45204">
		<tag k="alt_name" v="Tortenbakken" />
		<tag k="name" v="Tortenbakkan" />
		<tag k="natural" v="slope" />
		<tag k="place" v="locality" />
		<tag k="ssr:stedsnr" v="139010" />
	</node>
	<node lat="69.13274167046734" lon="17.051597232688838" id="-45208">
		<tag k="fixme" v="consider natural=peak for the most distinct mountains in the district" />
		<tag k="name" v="Fagervikkollen" />
		<tag k="natural" v="hill" />
		<tag k="place" v="locality" />
		<tag k="ssr:stedsnr" v="139195" />
	</node>
	<node lat="69.4986277803429" lon="17.408616676588885" id="-45210">
		<tag k="alt_name" v="Gruvla, store" />
		<tag k="fixme" v="multiple name tags, choose one and add the other to alt_name; consider natural=peak for the most distinct mountains in the district" />
		<tag k="name" v="Grovla;Store Gruvla" />
		<tag k="natural" v="hill" />
		<tag k="place" v="locality" />
		<tag k="ssr:stedsnr" v="139197" />
	</node>
	<node lat="69.39536111234825" lon="17.03627778784655" id="-45214">
		<tag k="name" v="Tortenberget" />
		<tag k="natural" v="hill" />
		<tag k="place" v="locality" />
		<tag k="ssr:stedsnr" v="139351" />
	</node>
	<node lat="69.4952805532841" lon="17.72255556226314" id="-45220">
		<tag k="fixme" v="consider natural=peak for the most distinct mountains in the district" />
		<tag k="name" v="Keipen" />
		<tag k="natural" v="hill" />
		<tag k="place" v="locality" />
		<tag k="ssr:stedsnr" v="139403" />
	</node>
	<node lat="69.49279166861606" lon="17.80756945358102" id="-45221">
		<tag k="name" v="Huselvdalen" />
		<tag k="natural" v="valley" />
		<tag k="place" v="locality" />
		<tag k="ssr:stedsnr" v="139405" />
	</node>
	<node lat="69.18191111263928" lon="17.832533319650263" id="-45223">
		<tag k="name" v="Hanken" />
		<tag k="natural" v="hill" />
		<tag k="place" v="locality" />
		<tag k="ssr:stedsnr" v="139503" />
	</node>
	<node lat="69.40737777462284" lon="17.883622207217627" id="-45224">
		<tag k="name" v="Tørrishaugen" />
		<tag k="natural" v="hill" />
		<tag k="place" v="locality" />
		<tag k="ssr:stedsnr" v="139548" />
	</node>
	<node lat="69.38606388834421" lon="18.415169445424624" id="-45228">
		<tag k="name" v="Kvitfløya" />
		<tag k="natural" v="hill" />
		<tag k="place" v="locality" />
		<tag k="ssr:stedsnr" v="139705" />
	</node>
	<node lat="69.43134166388953" lon="17.655105556680017" id="-45229">
		<tag k="fixme" v="consider natural=peak for the most distinct mountains in the district" />
		<tag k="name" v="Kjørakeisen - Čoragáisá" />
		<tag k="name:no" v="Kjørakeisen" />
		<tag k="name:se" v="Čoragáisá" />
		<tag k="natural" v="hill" />
		<tag k="old_name:se" v="Čåragaisa" />
		<tag k="place" v="locality" />
		<tag k="ssr:stedsnr" v="139488" />
	</node>
	<node lat="69.19305000331876" lon="17.680502786226135" id="-45231">
		<tag k="fixme" v="multiple name tags, choose one and add the other to alt_name; consider natural=peak for the most distinct mountains in the district" />
		<tag k="name" v="Halsehaugen;Moåsen" />
		<tag k="natural" v="hill" />
		<tag k="place" v="locality" />
		<tag k="ssr:stedsnr" v="139494" />
	</node>
	<node lat="69.26901944199469" lon="17.56347776880861" id="-45233">
		<tag k="name" v="Sørlia" />
		<tag k="natural" v="slope" />
		<tag k="place" v="locality" />
		<tag k="ssr:stedsnr" v="139604" />
	</node>
	<node lat="69.26172500380038" lon="17.931658326282342" id="-45234">
		<tag k="name" v="Lian" />
		<tag k="natural" v="slope" />
		<tag k="place" v="locality" />
		<tag k="ssr:stedsnr" v="139607" />
	</node>
	<node lat="69.29985000251084" lon="18.45665276262306" id="-45238">
		<tag k="fixme" v="consider natural=peak for the most distinct mountains in the district" />
		<tag k="name" v="Vassbruntinden" />
		<tag k="natural" v="hill" />
		<tag k="old_name" v="Leirtinden" />
		<tag k="place" v="locality" />
		<tag k="ssr:stedsnr" v="139790" />
	</node>
	<node lat="69.41605277858069" lon="18.244724998474965" id="-45245">
		<tag k="fixme" v="consider natural=peak for the most distinct mountains in the district" />
		<tag k="name" v="Kårvikkjølen" />
		<tag k="natural" v="hill" />
		<tag k="place" v="locality" />
		<tag k="ssr:stedsnr" v="140705" />
	</node>
	<node lat="69.56272777394457" lon="17.803919444600588" id="-45248">
		<tag k="name" v="Perberget" />
		<tag k="natural" v="hill" />
		<tag k="place" v="locality" />
		<tag k="ssr:stedsnr" v="146396" />
	</node>
	<node lat="69.07574999705436" lon="16.84289721475287" id="-45262">
		<tag k="name" v="Skrolsvikdalen" />
		<tag k="natural" v="valley" />
		<tag k="old_name" v="Skredsvikdalen" />
		<tag k="place" v="locality" />
		<tag k="ssr:stedsnr" v="260089" />
	</node>
	<node lat="69.05218610961535" lon="17.064425002235698" id="-45267">
		<tag k="name" v="Halsvarden" />
		<tag k="natural" v="hill" />
		<tag k="place" v="locality" />
		<tag k="ssr:stedsnr" v="260144" />
	</node>
	<node lat="69.22295555152641" lon="17.02399166866056" id="-45268">
		<tag k="alt_name" v="Askillstindan" />
		<tag k="fixme" v="multiple name tags, choose one and add the other to alt_name; consider natural=peak for the most distinct mountains in the district" />
		<tag k="name" v="Askjelstindan;Flestindan" />
		<tag k="natural" v="hill" />
		<tag k="place" v="locality" />
		<tag k="ssr:stedsnr" v="260228" />
	</node>
	<node lat="69.17048333037249" lon="17.149261108473645" id="-45274">
		<tag k="fixme" v="consider natural=peak for the most distinct mountains in the district" />
		<tag k="name" v="Grinda" />
		<tag k="natural" v="hill" />
		<tag k="place" v="locality" />
		<tag k="ssr:stedsnr" v="260283" />
	</node>
	<node lat="69.16172500295664" lon="17.103686122265948" id="-45275">
		<tag k="fixme" v="consider natural=peak for the most distinct mountains in the district" />
		<tag k="name" v="Hatten" />
		<tag k="natural" v="hill" />
		<tag k="place" v="locality" />
		<tag k="ssr:stedsnr" v="260290" />
	</node>
	<node lat="69.33994721782578" lon="17.813841670418867" id="-45285">
		<tag k="fixme" v="consider natural=peak for the most distinct mountains in the district" />
		<tag k="name" v="Håja" />
		<tag k="natural" v="hill" />
		<tag k="place" v="locality" />
		<tag k="ssr:stedsnr" v="169206" />
	</node>
	<node lat="69.49601110879594" lon="17.646141672921264" id="-45287">
		<tag k="name" v="Småhågan" />
		<tag k="natural" v="hill" />
		<tag k="place" v="locality" />
		<tag k="ssr:stedsnr" v="169212" />
	</node>
	<node lat="69.54092499655128" lon="17.662091670430897" id="-45288">
		<tag k="name" v="Seibergan" />
		<tag k="natural" v="hill" />
		<tag k="place" v="locality" />
		<tag k="ssr:stedsnr" v="169107" />
	</node>
	<node lat="69.5574444448818" lon="17.670836098641416" id="-45292">
		<tag k="name" v="Okseskaret" />
		<tag k="natural" v="valley" />
		<tag k="place" v="locality" />
		<tag k="ssr:stedsnr" v="169171" />
	</node>
	<node lat="69.47259167029766" lon="17.994711099828702" id="-45295">
		<tag k="name" v="Sørenlia" />
		<tag k="natural" v="slope" />
		<tag k="place" v="locality" />
		<tag k="ssr:stedsnr" v="169309" />
	</node>
	<node lat="69.43704999590035" lon="17.96007222636643" id="-45299">
		<tag k="name" v="Langørbakken" />
		<tag k="natural" v="slope" />
		<tag k="place" v="locality" />
		<tag k="ssr:stedsnr" v="169406" />
	</node>
	<node lat="69.52992222296795" lon="17.909652779350374" id="-45303">
		<tag k="name" v="Gamberget" />
		<tag k="natural" v="hill" />
		<tag k="place" v="locality" />
		<tag k="ssr:stedsnr" v="169607" />
	</node>
	<node lat="69.18488611348506" lon="17.871863888953353" id="-45307">
		<tag k="fixme" v="consider natural=peak for the most distinct mountains in the district" />
		<tag k="name" v="Bergvassheia" />
		<tag k="natural" v="hill" />
		<tag k="place" v="locality" />
		<tag k="ssr:stedsnr" v="169714" />
	</node>
	<node lat="69.17953055178428" lon="17.91756110648549" id="-45308">
		<tag k="name" v="Harebakken" />
		<tag k="natural" v="slope" />
		<tag k="place" v="locality" />
		<tag k="ssr:stedsnr" v="169721" />
	</node>
	<node lat="69.54539722196095" lon="17.72665000659922" id="-45309">
		<tag k="name" v="Kistebakken" />
		<tag k="natural" v="slope" />
		<tag k="place" v="locality" />
		<tag k="ssr:stedsnr" v="169831" />
	</node>
	<node lat="69.23923333609483" lon="17.89433055764136" id="-45312">
		<tag k="name" v="Helden" />
		<tag k="natural" v="slope" />
		<tag k="place" v="locality" />
		<tag k="ssr:stedsnr" v="169963" />
	</node>
	<node lat="69.19782777342397" lon="17.93264167284224" id="-45315">
		<tag k="name" v="Bratteberget" />
		<tag k="natural" v="hill" />
		<tag k="place" v="locality" />
		<tag k="ssr:stedsnr" v="170375" />
	</node>
	<node lat="69.27168888596803" lon="18.001347219420968" id="-45316">
		<tag k="name" v="Stormobakken" />
		<tag k="natural" v="slope" />
		<tag k="place" v="locality" />
		<tag k="ssr:stedsnr" v="170656" />
	</node>
	<node lat="69.53964722339262" lon="17.76938888011325" id="-45317">
		<tag k="name" v="Okshollan" />
		<tag k="natural" v="valley" />
		<tag k="place" v="locality" />
		<tag k="ssr:stedsnr" v="170856" />
	</node>
	<node lat="69.23323888562882" lon="18.058583329917223" id="-45318">
		<tag k="name" v="Gråberget" />
		<tag k="natural" v="hill" />
		<tag k="place" v="locality" />
		<tag k="ssr:stedsnr" v="171457" />
	</node>
	<node lat="69.39446388935224" lon="17.539836103883687" id="-45319">
		<tag k="fixme" v="consider natural=peak for the most distinct mountains in the district" />
		<tag k="name" v="Tverrfjellet" />
		<tag k="natural" v="hill" />
		<tag k="place" v="locality" />
		<tag k="ssr:stedsnr" v="261049" />
	</node>
	<node lat="69.44876666879475" lon="17.38836944769681" id="-45320">
		<tag k="alt_name" v="Luttind" />
		<tag k="fixme" v="consider natural=peak for the most distinct mountains in the district" />
		<tag k="name" v="Luttinden" />
		<tag k="natural" v="hill" />
		<tag k="place" v="locality" />
		<tag k="ssr:stedsnr" v="261052" />
	</node>
	<node lat="69.24181944097946" lon="18.079208331111236" id="-45321">
		<tag k="name" v="Brattelikollen" />
		<tag k="natural" v="hill" />
		<tag k="place" v="locality" />
		<tag k="ssr:stedsnr" v="171612" />
	</node>
	<node lat="69.42378611160146" lon="18.310588881130492" id="-45323">
		<tag k="fixme" v="consider natural=peak for the most distinct mountains in the district" />
		<tag k="name" v="Blåheia" />
		<tag k="natural" v="hill" />
		<tag k="place" v="locality" />
		<tag k="ssr:stedsnr" v="261042" />
	</node>
	<node lat="69.46201110785547" lon="18.180108330697585" id="-45325">
		<tag k="name" v="Kobbeskjærbakkan" />
		<tag k="natural" v="hill" />
		<tag k="place" v="locality" />
		<tag k="ssr:stedsnr" v="171708" />
	</node>
	<node lat="69.22634167128481" lon="18.22479166317913" id="-45327">
		<tag k="name" v="Syregraslia" />
		<tag k="natural" v="slope" />
		<tag k="place" v="locality" />
		<tag k="ssr:stedsnr" v="171716" />
	</node>
	<node lat="69.46354444101935" lon="18.23206109615755" id="-45328">
		<tag k="name" v="Flaten" />
		<tag k="place" v="locality" />
		<tag k="ssr:stedsnr" v="171906" />
	</node>
	<node lat="69.45769167009695" lon="18.36867498738629" id="-45330">
		<tag k="name" v="Berithallaren" />
		<tag k="natural" v="hill" />
		<tag k="place" v="locality" />
		<tag k="ssr:stedsnr" v="171856" />
	</node>
	<node lat="69.3406194458059" lon="17.012886120655146" id="-45335">
		<tag k="fixme" v="consider natural=peak for the most distinct mountains in the district" />
		<tag k="name" v="Kollen" />
		<tag k="natural" v="hill" />
		<tag k="place" v="locality" />
		<tag k="ssr:stedsnr" v="172424" />
	</node>
	<node lat="69.20438055409366" lon="17.230661109541174" id="-45340">
		<tag k="name" v="Ryphaugen" />
		<tag k="natural" v="hill" />
		<tag k="place" v="locality" />
		<tag k="ssr:stedsnr" v="172507" />
	</node>
	<node lat="69.11988888900902" lon="17.27106665456095" id="-45341">
		<tag k="name" v="Skaret" />
		<tag k="natural" v="valley" />
		<tag k="place" v="locality" />
		<tag k="ssr:stedsnr" v="172509" />
	</node>
	<node lat="69.36336944221425" lon="17.119469450181978" id="-45344">
		<tag k="name" v="Labergshaugen" />
		<tag k="natural" v="hill" />
		<tag k="place" v="locality" />
		<tag k="ssr:stedsnr" v="172710" />
	</node>
	<node lat="69.16876388679042" lon="17.71544721238493" id="-45349">
		<tag k="name" v="Klubbebakkan" />
		<tag k="natural" v="slope" />
		<tag k="place" v="locality" />
		<tag k="ssr:stedsnr" v="172765" />
	</node>
	<node lat="69.05859444402245" lon="16.82715833235959" id="-45351">
		<tag k="name" v="Haukhågen" />
		<tag k="natural" v="hill" />
		<tag k="place" v="locality" />
		<tag k="ssr:stedsnr" v="172973" />
	</node>
	<node lat="69.08738610864145" lon="17.163458329124044" id="-45354">
		<tag k="name" v="Lysbakkan" />
		<tag k="natural" v="slope" />
		<tag k="place" v="locality" />
		<tag k="ssr:stedsnr" v="173265" />
	</node>
	<node lat="69.06926111303835" lon="17.02083610994961" id="-45357">
		<tag k="fixme" v="consider natural=peak for the most distinct mountains in the district" />
		<tag k="name" v="Dragøytuva" />
		<tag k="natural" v="hill" />
		<tag k="place" v="locality" />
		<tag k="ssr:stedsnr" v="173457" />
	</node>
	<node lat="69.13168889004366" lon="17.015611114132014" id="-45360">
		<tag k="name" v="Tønnertholla" />
		<tag k="natural" v="valley" />
		<tag k="place" v="locality" />
		<tag k="ssr:stedsnr" v="173470" />
	</node>
	<node lat="69.04148611144066" lon="17.159511103035445" id="-45363">
		<tag k="name" v="Nonshågen" />
		<tag k="natural" v="hill" />
		<tag k="place" v="locality" />
		<tag k="ssr:stedsnr" v="173622" />
	</node>
	<node lat="69.3696944473333" lon="17.10987498838537" id="-45364">
		<tag k="name" v="Skarkråa" />
		<tag k="natural" v="slope" />
		<tag k="place" v="locality" />
		<tag k="ssr:stedsnr" v="173656" />
	</node>
	<node lat="69.38172221946425" lon="17.159369454435847" id="-45365">
		<tag k="name" v="Vassbotn" />
		<tag k="natural" v="valley" />
		<tag k="place" v="locality" />
		<tag k="ssr:stedsnr" v="173660" />
	</node>
	<node lat="69.3793833322529" lon="17.098899993289457" id="-45367">
		<tag k="name" v="Veihauglia" />
		<tag k="natural" v="slope" />
		<tag k="place" v="locality" />
		<tag k="ssr:stedsnr" v="173667" />
	</node>
	<node lat="69.48553611064347" lon="17.340561105393906" id="-45368">
		<tag k="name" v="Tungebrøstet" />
		<tag k="natural" v="ridge" />
		<tag k="place" v="locality" />
		<tag k="ssr:stedsnr" v="261179" />
	</node>
	<node lat="69.24969444826553" lon="17.109513879390178" id="-45370">
		<tag k="name" v="Sølvskeidalen" />
		<tag k="natural" v="valley" />
		<tag k="place" v="locality" />
		<tag k="ssr:stedsnr" v="173505" />
	</node>
	<node lat="69.08736111260573" lon="17.013691678391055" id="-45373">
		<tag k="name" v="Vassoshågen" />
		<tag k="natural" v="hill" />
		<tag k="place" v="locality" />
		<tag k="ssr:stedsnr" v="173564" />
	</node>
	<node lat="69.35615277441453" lon="17.382900009145892" id="-45375">
		<tag k="name" v="Spekkelvaksla" />
		<tag k="place" v="locality" />
		<tag k="ssr:stedsnr" v="173818" />
	</node>
	<node lat="69.4369222180996" lon="17.388961111145647" id="-45383">
		<tag k="name" v="Storlia" />
		<tag k="natural" v="slope" />
		<tag k="place" v="locality" />
		<tag k="ssr:stedsnr" v="174622" />
	</node>
	<node lat="69.24321111221589" lon="17.54429166907078" id="-45384">
		<tag k="name" v="Fisketjønnelvdalen" />
		<tag k="natural" v="valley" />
		<tag k="place" v="locality" />
		<tag k="ssr:stedsnr" v="174665" />
	</node>
	<node lat="69.44781944687952" lon="17.319816665913194" id="-45387">
		<tag k="name" v="Blåurholla" />
		<tag k="natural" v="valley" />
		<tag k="place" v="locality" />
		<tag k="ssr:stedsnr" v="174821" />
	</node>
	<node lat="69.17717499764892" lon="17.740916664433136" id="-45391">
		<tag k="name" v="Himmelhågen" />
		<tag k="natural" v="hill" />
		<tag k="place" v="locality" />
		<tag k="ssr:stedsnr" v="174722" />
	</node>
	<node lat="69.36379999894079" lon="17.15546110883077" id="-45399">
		<tag k="fixme" v="consider natural=peak for the most distinct mountains in the district" />
		<tag k="name" v="Småtindan" />
		<tag k="natural" v="hill" />
		<tag k="place" v="locality" />
		<tag k="ssr:stedsnr" v="261331" />
	</node>
	<node lat="69.28467222475632" lon="17.270491654915926" id="-45402">
		<tag k="fixme" v="consider natural=peak for the most distinct mountains in the district" />
		<tag k="name" v="Istind - Jieŋas" />
		<tag k="name:no" v="Istind" />
		<tag k="name:se" v="Jieŋas" />
		<tag k="natural" v="hill" />
		<tag k="place" v="locality" />
		<tag k="ssr:stedsnr" v="261384" />
	</node>
	<node lat="69.4946722229318" lon="17.613694447646278" id="-45412">
		<tag k="name" v="Heia" />
		<tag k="natural" v="hill" />
		<tag k="place" v="locality" />
		<tag k="ssr:stedsnr" v="176215" />
	</node>
	<node lat="69.48654722657882" lon="17.762724994029618" id="-45422">
		<tag k="alt_name" v="Skardelvfjellet" />
		<tag k="fixme" v="consider natural=peak for the most distinct mountains in the district" />
		<tag k="name" v="Skarelvfjellet" />
		<tag k="natural" v="hill" />
		<tag k="place" v="locality" />
		<tag k="ssr:stedsnr" v="261493" />
	</node>
	<node lat="69.33643611069489" lon="17.895386110375114" id="-45425">
		<tag k="fixme" v="consider natural=peak for the most distinct mountains in the district" />
		<tag k="name" v="Slettaksla" />
		<tag k="natural" v="hill" />
		<tag k="place" v="locality" />
		<tag k="ssr:stedsnr" v="261556" />
	</node>
	<node lat="69.32968333336832" lon="17.65333889676118" id="-45426">
		<tag k="loc_name:se" v="Gildeváráš" />
		<tag k="name" v="Kjeldehaugen" />
		<tag k="name:no" v="Kjeldehaugen" />
		<tag k="natural" v="hill" />
		<tag k="place" v="locality" />
		<tag k="ssr:stedsnr" v="261559" />
	</node>
	<node lat="69.36756111099639" lon="17.942847211167127" id="-45429">
		<tag k="name" v="Blombakklia" />
		<tag k="natural" v="slope" />
		<tag k="place" v="locality" />
		<tag k="ssr:stedsnr" v="261564" />
	</node>
	<node lat="69.46942500376782" lon="17.292530544043235" id="-45430">
		<tag k="name" v="Stordalen" />
		<tag k="natural" v="valley" />
		<tag k="place" v="locality" />
		<tag k="ssr:stedsnr" v="176963" />
	</node>
	<node lat="69.36117777749566" lon="17.972674997307475" id="-45431">
		<tag k="name" v="Landøylia" />
		<tag k="natural" v="slope" />
		<tag k="place" v="locality" />
		<tag k="ssr:stedsnr" v="261572" />
	</node>
	<node lat="69.39364166972437" lon="17.508186114519685" id="-45434">
		<tag k="fixme" v="consider natural=peak for the most distinct mountains in the district" />
		<tag k="name" v="Krokelvtinden" />
		<tag k="natural" v="hill" />
		<tag k="place" v="locality" />
		<tag k="ssr:stedsnr" v="261527" />
	</node>
	<node lat="69.50561388608756" lon="17.840555556410553" id="-45437">
		<tag k="alt_name" v="Finnkjelholla" />
		<tag k="name" v="Finnkjelhola" />
		<tag k="natural" v="valley" />
		<tag k="place" v="locality" />
		<tag k="ssr:stedsnr" v="261654" />
	</node>
	<node lat="69.36010278064771" lon="18.248638881002005" id="-45442">
		<tag k="alt_name" v="Bringbergan" />
		<tag k="name" v="Bringebergan" />
		<tag k="natural" v="hill" />
		<tag k="place" v="locality" />
		<tag k="ssr:stedsnr" v="261700" />
	</node>
	<node lat="69.39994721893706" lon="18.273513874659052" id="-45444">
		<tag k="alt_name" v="Storskardtinden" />
		<tag k="name" v="Storskartinden" />
		<tag k="natural" v="hill" />
		<tag k="place" v="locality" />
		<tag k="ssr:stedsnr" v="261679" />
	</node>
	<node lat="69.51141944686503" lon="17.98205000724487" id="-45448">
		<tag k="name" v="Skjørholhaugen" />
		<tag k="natural" v="hill" />
		<tag k="place" v="locality" />
		<tag k="ssr:stedsnr" v="261803" />
	</node>
	<node lat="69.36047777944404" lon="18.428655551763953" id="-45452">
		<tag k="fixme" v="consider natural=peak for the most distinct mountains in the district" />
		<tag k="name" v="Slettfjell" />
		<tag k="natural" v="hill" />
		<tag k="place" v="locality" />
		<tag k="ssr:stedsnr" v="261723" />
	</node>
	<node lat="69.58451944433538" lon="17.6872111171769" id="-45453">
		<tag k="fixme" v="consider natural=peak for the most distinct mountains in the district" />
		<tag k="name" v="Renneheia" />
		<tag k="natural" v="hill" />
		<tag k="place" v="locality" />
		<tag k="ssr:stedsnr" v="261725" />
	</node>
	<node lat="69.57342499849547" lon="17.86935278133457" id="-45456">
		<tag k="alt_name" v="Gjeskhaugen" />
		<tag k="name" v="Giskhaugen" />
		<tag k="natural" v="hill" />
		<tag k="place" v="locality" />
		<tag k="ssr:stedsnr" v="261733" />
	</node>
	<node lat="69.57016944031139" lon="17.48609166189186" id="-45457">
		<tag k="alt_name" v="Gilberg" />
		<tag k="name" v="Gilberget" />
		<tag k="natural" v="hill" />
		<tag k="place" v="locality" />
		<tag k="ssr:stedsnr" v="261734" />
	</node>
	<node lat="69.32225833074146" lon="18.146849999024674" id="-45459">
		<tag k="name" v="Sollidalen" />
		<tag k="natural" v="valley" />
		<tag k="place" v="locality" />
		<tag k="ssr:stedsnr" v="261741" />
	</node>
	<node lat="69.32774166503927" lon="18.091738888978814" id="-45460">
		<tag k="fixme" v="consider natural=peak for the most distinct mountains in the district" />
		<tag k="name" v="Rismålstuva" />
		<tag k="natural" v="hill" />
		<tag k="place" v="locality" />
		<tag k="ssr:stedsnr" v="261742" />
	</node>
	<node lat="69.5487388921848" lon="17.723927788687437" id="-45462">
		<tag k="alt_name" v="Blåtind" />
		<tag k="fixme" v="consider natural=peak for the most distinct mountains in the district" />
		<tag k="name" v="Blåtinden" />
		<tag k="natural" v="hill" />
		<tag k="place" v="locality" />
		<tag k="ssr:stedsnr" v="261816" />
	</node>
	<node lat="69.55803055808434" lon="17.509372222097195" id="-45463">
		<tag k="fixme" v="consider natural=peak for the most distinct mountains in the district" />
		<tag k="name" v="Finnan" />
		<tag k="natural" v="hill" />
		<tag k="place" v="locality" />
		<tag k="ssr:stedsnr" v="261822" />
	</node>
	<node lat="69.36587222616342" lon="17.099330556145635" id="-45470">
		<tag k="name" v="Jessellian" />
		<tag k="natural" v="slope" />
		<tag k="place" v="locality" />
		<tag k="ssr:stedsnr" v="263741" />
	</node>
	<node lat="69.03812221998248" lon="17.20453888961359" id="-45473">
		<tag k="name" v="Storholtet" />
		<tag k="natural" v="hill" />
		<tag k="place" v="locality" />
		<tag k="ssr:stedsnr" v="200104" />
	</node>
	<node lat="69.21894166311039" lon="17.52183888473157" id="-45482">
		<tag k="alt_name" v="Likskardet" />
		<tag k="name" v="Likskaret" />
		<tag k="natural" v="valley" />
		<tag k="place" v="locality" />
		<tag k="ssr:stedsnr" v="200405" />
	</node>
	<node lat="69.44784166583578" lon="17.803086119333393" id="-45485">
		<tag k="fixme" v="consider natural=peak for the most distinct mountains in the district" />
		<tag k="name" v="Elvelandstuva" />
		<tag k="natural" v="hill" />
		<tag k="place" v="locality" />
		<tag k="ssr:stedsnr" v="200459" />
	</node>
	<node lat="69.25731111225583" lon="17.14395554883602" id="-45490">
		<tag k="name" v="Gjeskeheia" />
		<tag k="natural" v="hill" />
		<tag k="place" v="locality" />
		<tag k="ssr:stedsnr" v="200398" />
	</node>
	<node lat="69.31334444248114" lon="17.73978889006923" id="-45492">
		<tag k="fixme" v="consider natural=peak for the most distinct mountains in the district" />
		<tag k="name" v="Slettfjellet - Jalgesvárri" />
		<tag k="name:no" v="Slettfjellet" />
		<tag k="name:se" v="Jalgesvárri" />
		<tag k="natural" v="hill" />
		<tag k="old_name:se" v="Jalgesvarri" />
		<tag k="place" v="locality" />
		<tag k="ssr:stedsnr" v="200604" />
	</node>
	<node lat="69.53238611269693" lon="17.58714444864581" id="-45494">
		<tag k="alt_name" v="Svartvasstind" />
		<tag k="fixme" v="consider natural=peak for the most distinct mountains in the district" />
		<tag k="name" v="Svartevasstind" />
		<tag k="natural" v="hill" />
		<tag k="place" v="locality" />
		<tag k="ssr:stedsnr" v="200806" />
	</node>
	<node lat="69.52828055835624" lon="17.7225027760433" id="-45495">
		<tag k="fixme" v="consider natural=peak for the most distinct mountains in the district" />
		<tag k="name" v="Prestan" />
		<tag k="natural" v="hill" />
		<tag k="place" v="locality" />
		<tag k="ssr:stedsnr" v="200807" />
	</node>
	<node lat="69.567119441627" lon="17.5073499990344" id="-45496">
		<tag k="name" v="Finnsalen" />
		<tag k="natural" v="valley" />
		<tag k="place" v="locality" />
		<tag k="ssr:stedsnr" v="200747" />
	</node>
	<node lat="69.5873999969362" lon="17.698466663656657" id="-45504">
		<tag k="name" v="Renneberget" />
		<tag k="natural" v="hill" />
		<tag k="place" v="locality" />
		<tag k="ssr:stedsnr" v="267251" />
	</node>
	<node lat="69.29374166582542" lon="17.175619450763197" id="-45507">
		<tag k="name" v="Sifjorddalen" />
		<tag k="natural" v="valley" />
		<tag k="place" v="locality" />
		<tag k="ssr:stedsnr" v="201367" />
	</node>
	<node lat="69.43681944505997" lon="17.764591666342696" id="-45509">
		<tag k="fixme" v="consider natural=peak for the most distinct mountains in the district" />
		<tag k="name" v="Tuva" />
		<tag k="natural" v="hill" />
		<tag k="place" v="locality" />
		<tag k="ssr:stedsnr" v="201444" />
	</node>
	<node lat="69.44931389008762" lon="17.75468610245117" id="-45523">
		<tag k="name" v="Tverrbakken" />
		<tag k="natural" v="slope" />
		<tag k="place" v="locality" />
		<tag k="ssr:stedsnr" v="229197" />
	</node>
	<node lat="69.43195277881841" lon="17.80532778404926" id="-45524">
		<tag k="fixme" v="consider natural=peak for the most distinct mountains in the district" />
		<tag k="name" v="Håkjerringa" />
		<tag k="natural" v="hill" />
		<tag k="place" v="locality" />
		<tag k="ssr:stedsnr" v="229206" />
	</node>
	<node lat="69.30560000007438" lon="17.86030833017978" id="-45531">
		<tag k="name" v="Kvannåslia" />
		<tag k="natural" v="slope" />
		<tag k="place" v="locality" />
		<tag k="ssr:stedsnr" v="230115" />
	</node>
	<node lat="69.31986944246978" lon="17.89331388648223" id="-45532">
		<tag k="name" v="Øyjordsletta" />
		<tag k="place" v="locality" />
		<tag k="ssr:stedsnr" v="230117" />
	</node>
	<node lat="69.46838889165954" lon="17.98852222111596" id="-45536">
		<tag k="name" v="Slaken" />
		<tag k="natural" v="slope" />
		<tag k="place" v="locality" />
		<tag k="ssr:stedsnr" v="230309" />
	</node>
	<node lat="69.45619721992219" lon="17.948669436583923" id="-45537">
		<tag k="fixme" v="consider natural=peak for the most distinct mountains in the district" />
		<tag k="name" v="Snaufjellet" />
		<tag k="natural" v="hill" />
		<tag k="place" v="locality" />
		<tag k="ssr:stedsnr" v="230312" />
	</node>
	<node lat="69.45913610814729" lon="17.949352765743072" id="-45538">
		<tag k="fixme" v="consider natural=peak for the most distinct mountains in the district" />
		<tag k="name" v="Blåheia" />
		<tag k="natural" v="hill" />
		<tag k="place" v="locality" />
		<tag k="ssr:stedsnr" v="230313" />
	</node>
	<node lat="69.48168333094047" lon="18.01181111759606" id="-45539">
		<tag k="name" v="Vangsliene" />
		<tag k="natural" v="slope" />
		<tag k="place" v="locality" />
		<tag k="ssr:stedsnr" v="230318" />
	</node>
	<node lat="69.4672222273199" lon="17.83408609857444" id="-45541">
		<tag k="name" v="Fjellskarhaugen" />
		<tag k="natural" v="hill" />
		<tag k="place" v="locality" />
		<tag k="ssr:stedsnr" v="230337" />
	</node>
	<node lat="69.33376667039833" lon="17.903836119508494" id="-45544">
		<tag k="name" v="Finnjordslettlia" />
		<tag k="natural" v="slope" />
		<tag k="place" v="locality" />
		<tag k="ssr:stedsnr" v="230526" />
	</node>
	<node lat="69.50773055282072" lon="17.969994438515737" id="-45547">
		<tag k="name" v="Skarliåsbotn" />
		<tag k="natural" v="valley" />
		<tag k="place" v="locality" />
		<tag k="ssr:stedsnr" v="230489" />
	</node>
	<node lat="69.5608861161512" lon="17.858269433605734" id="-45550">
		<tag k="fixme" v="consider natural=peak for the most distinct mountains in the district" />
		<tag k="name" v="Skåla" />
		<tag k="natural" v="hill" />
		<tag k="place" v="locality" />
		<tag k="ssr:stedsnr" v="230804" />
	</node>
	<node lat="69.52262222104991" lon="17.909172209458674" id="-45553">
		<tag k="name" v="Breimatdalen" />
		<tag k="natural" v="valley" />
		<tag k="place" v="locality" />
		<tag k="ssr:stedsnr" v="230588" />
	</node>
	<node lat="69.53451944441002" lon="17.87703333621134" id="-45554">
		<tag k="name" v="Vardheia" />
		<tag k="natural" v="hill" />
		<tag k="place" v="locality" />
		<tag k="ssr:stedsnr" v="230592" />
	</node>
	<node lat="69.32799166574507" lon="18.29954443920245" id="-45556">
		<tag k="name" v="Melia" />
		<tag k="natural" v="slope" />
		<tag k="place" v="locality" />
		<tag k="ssr:stedsnr" v="231888" />
	</node>
	<node lat="69.26884444343331" lon="18.037233339094144" id="-45557">
		<tag k="name" v="Kvannbergan" />
		<tag k="natural" v="hill" />
		<tag k="place" v="locality" />
		<tag k="ssr:stedsnr" v="232502" />
	</node>
	<node lat="69.23464166413702" lon="18.197880549056716" id="-45559">
		<tag k="name" v="Skaret" />
		<tag k="natural" v="valley" />
		<tag k="place" v="locality" />
		<tag k="ssr:stedsnr" v="232636" />
	</node>
	<node lat="69.40318611403524" lon="18.231177786345565" id="-45563">
		<tag k="name" v="Seljebakken" />
		<tag k="natural" v="hill" />
		<tag k="place" v="locality" />
		<tag k="ssr:stedsnr" v="232885" />
	</node>
	<node lat="69.46607499980088" lon="18.247866658610764" id="-45564">
		<tag k="name" v="Lysbakken" />
		<tag k="natural" v="slope" />
		<tag k="place" v="locality" />
		<tag k="ssr:stedsnr" v="232888" />
	</node>
	<node lat="69.38789166327295" lon="18.32383333791275" id="-45565">
		<tag k="name" v="Katteberget" />
		<tag k="natural" v="hill" />
		<tag k="place" v="locality" />
		<tag k="ssr:stedsnr" v="232899" />
	</node>
	<node lat="69.0624611135154" lon="16.846291667849137" id="-45568">
		<tag k="name" v="Austerdalen" />
		<tag k="natural" v="valley" />
		<tag k="place" v="locality" />
		<tag k="ssr:stedsnr" v="232983" />
	</node>
	<node lat="69.48020555718543" lon="18.274300002546536" id="-45571">
		<tag k="name" v="Storakselkulen" />
		<tag k="natural" v="hill" />
		<tag k="place" v="locality" />
		<tag k="ssr:stedsnr" v="232993" />
	</node>
	<node lat="69.20391388548023" lon="17.001280552387247" id="-45575">
		<tag k="name" v="Flakstadskaret" />
		<tag k="natural" v="valley" />
		<tag k="place" v="locality" />
		<tag k="ssr:stedsnr" v="233308" />
	</node>
	<node lat="69.27058611575517" lon="17.03039443517464" id="-45576">
		<tag k="fixme" v="consider natural=peak for the most distinct mountains in the district" />
		<tag k="name" v="Litjebudden" />
		<tag k="natural" v="hill" />
		<tag k="place" v="locality" />
		<tag k="ssr:stedsnr" v="233316" />
	</node>
	<node lat="69.28196110897218" lon="17.034422222535163" id="-45577">
		<tag k="name" v="Mollnesbergan" />
		<tag k="natural" v="hill" />
		<tag k="place" v="locality" />
		<tag k="ssr:stedsnr" v="233318" />
	</node>
	<node lat="69.16715277989712" lon="17.83750000046537" id="-45578">
		<tag k="name" v="Smørlibrekka" />
		<tag k="natural" v="hill" />
		<tag k="place" v="locality" />
		<tag k="ssr:stedsnr" v="233503" />
	</node>
	<node lat="69.2810333329154" lon="17.077497228075565" id="-45579">
		<tag k="name" v="Vollen" />
		<tag k="place" v="locality" />
		<tag k="ssr:stedsnr" v="233508" />
	</node>
	<node lat="69.23657499595352" lon="17.1305750056854" id="-45580">
		<tag k="name" v="Bjørnvikbergan" />
		<tag k="natural" v="hill" />
		<tag k="place" v="locality" />
		<tag k="ssr:stedsnr" v="233512" />
	</node>
	<node lat="69.13959166431907" lon="17.34404165687204" id="-45582">
		<tag k="name" v="Rødberget" />
		<tag k="natural" v="hill" />
		<tag k="place" v="locality" />
		<tag k="ssr:stedsnr" v="233531" />
	</node>
	<node lat="69.14240277481173" lon="17.339333322933744" id="-45583">
		<tag k="name" v="Nilselia" />
		<tag k="natural" v="slope" />
		<tag k="place" v="locality" />
		<tag k="ssr:stedsnr" v="233533" />
	</node>
	<node lat="69.2811972230281" lon="17.097461099387406" id="-45584">
		<tag k="name" v="Lyshammaren" />
		<tag k="natural" v="hill" />
		<tag k="place" v="locality" />
		<tag k="ssr:stedsnr" v="233534" />
	</node>
	<node lat="69.10889444912004" lon="17.026658328268336" id="-45586">
		<tag k="name" v="Stilian" />
		<tag k="natural" v="slope" />
		<tag k="place" v="locality" />
		<tag k="ssr:stedsnr" v="233614" />
	</node>
	<node lat="69.09138333455695" lon="16.991202782969438" id="-45587">
		<tag k="name" v="Tverrelvbakkan" />
		<tag k="natural" v="slope" />
		<tag k="place" v="locality" />
		<tag k="ssr:stedsnr" v="233617" />
	</node>
	<node lat="69.08475555190807" lon="16.966819429398356" id="-45590">
		<tag k="name" v="Finnelvdalen" />
		<tag k="natural" v="valley" />
		<tag k="place" v="locality" />
		<tag k="ssr:stedsnr" v="233628" />
	</node>
	<node lat="69.16808610886395" lon="17.702124990312452" id="-45592">
		<tag k="fixme" v="consider natural=peak for the most distinct mountains in the district" />
		<tag k="name" v="Rønnekollen" />
		<tag k="natural" v="hill" />
		<tag k="place" v="locality" />
		<tag k="ssr:stedsnr" v="233738" />
	</node>
	<node lat="69.0274527794577" lon="16.904736100006545" id="-45595">
		<tag k="name" v="Båthågen" />
		<tag k="natural" v="hill" />
		<tag k="place" v="locality" />
		<tag k="ssr:stedsnr" v="233935" />
	</node>
	<node lat="69.52779166911053" lon="17.330669436260834" id="-45600">
		<tag k="name" v="Stavskaret" />
		<tag k="natural" v="valley" />
		<tag k="place" v="locality" />
		<tag k="ssr:stedsnr" v="234108" />
	</node>
	<node lat="69.11443055434951" lon="17.06946666473481" id="-45602">
		<tag k="name" v="Moen" />
		<tag k="place" v="locality" />
		<tag k="ssr:stedsnr" v="234311" />
	</node>
	<node lat="69.0883055514361" lon="17.051200005926972" id="-45606">
		<tag k="fixme" v="consider natural=peak for the most distinct mountains in the district" />
		<tag k="name" v="Myrhøgda" />
		<tag k="natural" v="hill" />
		<tag k="place" v="locality" />
		<tag k="ssr:stedsnr" v="234293" />
	</node>
	<node lat="69.0280277811656" lon="17.21357222229579" id="-45609">
		<tag k="name" v="Perjonsahågen" />
		<tag k="natural" v="hill" />
		<tag k="place" v="locality" />
		<tag k="ssr:stedsnr" v="234390" />
	</node>
	<node lat="69.39573332891686" lon="17.27924723128722" id="-45610">
		<tag k="fixme" v="consider natural=peak for the most distinct mountains in the district" />
		<tag k="name" v="Kvannto" />
		<tag k="natural" v="hill" />
		<tag k="place" v="locality" />
		<tag k="ssr:stedsnr" v="234393" />
	</node>
	<node lat="69.07163055161591" lon="16.92076943558049" id="-45611">
		<tag k="fixme" v="consider natural=peak for the most distinct mountains in the district" />
		<tag k="name" v="Storfjellklubben" />
		<tag k="natural" v="hill" />
		<tag k="place" v="locality" />
		<tag k="ssr:stedsnr" v="234579" />
	</node>
	<node lat="69.20843888621003" lon="17.68596388428353" id="-45613">
		<tag k="name" v="Haillen" />
		<tag k="natural" v="slope" />
		<tag k="place" v="locality" />
		<tag k="ssr:stedsnr" v="234587" />
	</node>
	<node lat="69.25228610868687" lon="17.590158331146494" id="-45618">
		<tag k="name" v="Stornesbakken" />
		<tag k="natural" v="slope" />
		<tag k="place" v="locality" />
		<tag k="ssr:stedsnr" v="234631" />
	</node>
	<node lat="69.0385138882724" lon="17.160272212696043" id="-45622">
		<tag k="name" v="Tortendalen" />
		<tag k="natural" v="valley" />
		<tag k="place" v="locality" />
		<tag k="ssr:stedsnr" v="234691" />
	</node>
	<node lat="69.44332222443528" lon="17.340158342951383" id="-45625">
		<tag k="name" v="Grønnlia" />
		<tag k="natural" v="slope" />
		<tag k="place" v="locality" />
		<tag k="ssr:stedsnr" v="234780" />
	</node>
	<node lat="69.33232500012244" lon="17.464200007477654" id="-45627">
		<tag k="name" v="Andershaugen" />
		<tag k="natural" v="hill" />
		<tag k="place" v="locality" />
		<tag k="ssr:stedsnr" v="234991" />
	</node>
	<node lat="69.44643611020199" lon="17.106094449356423" id="-45629">
		<tag k="name" v="Eggebakken" />
		<tag k="natural" v="slope" />
		<tag k="place" v="locality" />
		<tag k="ssr:stedsnr" v="235189" />
	</node>
	<node lat="69.48752500420022" lon="17.620558332896547" id="-45637">
		<tag k="name" v="Storlia" />
		<tag k="natural" v="slope" />
		<tag k="place" v="locality" />
		<tag k="ssr:stedsnr" v="237203" />
	</node>
	<node lat="69.51566944418035" lon="17.42919721453503" id="-45638">
		<tag k="name" v="Langbakken" />
		<tag k="natural" v="slope" />
		<tag k="place" v="locality" />
		<tag k="ssr:stedsnr" v="237210" />
	</node>
	<node lat="69.09779722417075" lon="16.845052770571016" id="-45651">
		<tag k="fixme" v="consider natural=peak for the most distinct mountains in the district" />
		<tag k="name" v="Manen" />
		<tag k="natural" v="hill" />
		<tag k="place" v="locality" />
		<tag k="ssr:stedsnr" v="260069" />
	</node>
	<node lat="69.23123611026912" lon="16.927261102148442" id="-45652">
		<tag k="name" v="Oladalen" />
		<tag k="natural" v="valley" />
		<tag k="place" v="locality" />
		<tag k="ssr:stedsnr" v="260215" />
	</node>
	<node lat="69.12605277459497" lon="17.00208610411237" id="-45655">
		<tag k="name" v="Ørnvikskaret" />
		<tag k="natural" v="valley" />
		<tag k="place" v="locality" />
		<tag k="ssr:stedsnr" v="260260" />
	</node>
	<node lat="69.22427777579155" lon="18.097925007054858" id="-45657">
		<tag k="alt_name" v="Remålstuva" />
		<tag k="fixme" v="consider natural=peak for the most distinct mountains in the district" />
		<tag k="name" v="Resmålstuva" />
		<tag k="natural" v="hill" />
		<tag k="place" v="locality" />
		<tag k="ssr:stedsnr" v="260707" />
	</node>
	<node lat="69.49867499866254" lon="17.638488897811353" id="-45664">
		<tag k="fixme" v="consider natural=peak for the most distinct mountains in the district" />
		<tag k="name" v="Arnakken" />
		<tag k="natural" v="hill" />
		<tag k="place" v="locality" />
		<tag k="ssr:stedsnr" v="261406" />
	</node>
	<node lat="69.4426277746091" lon="17.325455541567838" id="-45669">
		<tag k="alt_name" v="Melkarhola" />
		<tag k="name" v="Melkarholla" />
		<tag k="natural" v="valley" />
		<tag k="place" v="locality" />
		<tag k="ssr:stedsnr" v="261314" />
	</node>
	<node lat="69.3361749996044" lon="17.36833889718681" id="-45670">
		<tag k="fixme" v="consider natural=peak for the most distinct mountains in the district" />
		<tag k="name" v="Leirdalsheia" />
		<tag k="natural" v="hill" />
		<tag k="place" v="locality" />
		<tag k="ssr:stedsnr" v="261355" />
	</node>
	<node lat="69.20444166815318" lon="17.776591677297755" id="-45672">
		<tag k="name" v="Slåttkollen" />
		<tag k="natural" v="hill" />
		<tag k="place" v="locality" />
		<tag k="ssr:stedsnr" v="261398" />
	</node>
	<node lat="69.35604722017298" lon="18.14070553845902" id="-45679">
		<tag k="name" v="Knutshaugen" />
		<tag k="natural" v="hill" />
		<tag k="place" v="locality" />
		<tag k="ssr:stedsnr" v="261688" />
	</node>
	<node lat="69.55665555520238" lon="17.794427762856" id="-45688">
		<tag k="alt_name" v="Upplandshaugen;Opplandshaugen" />
		<tag k="name" v="Kvalvikhaugen" />
		<tag k="natural" v="hill" />
		<tag k="place" v="locality" />
		<tag k="ssr:stedsnr" v="268429" />
	</node>
	<node lat="69.48848332909083" lon="17.20774721721904" id="-45698">
		<tag k="name" v="Tjeldberget" />
		<tag k="natural" v="hill" />
		<tag k="place" v="locality" />
		<tag k="ssr:stedsnr" v="288779" />
	</node>
	<node lat="69.42560555727681" lon="17.804016665990734" id="-45701">
		<tag k="name" v="Håkjerringdalen" />
		<tag k="natural" v="valley" />
		<tag k="place" v="locality" />
		<tag k="ssr:stedsnr" v="290185" />
	</node>
	<node lat="69.42623889122311" lon="17.847499998781842" id="-45702">
		<tag k="fixme" v="consider natural=peak for the most distinct mountains in the district" />
		<tag k="name" v="Revhaugen" />
		<tag k="natural" v="hill" />
		<tag k="place" v="locality" />
		<tag k="ssr:stedsnr" v="290188" />
	</node>
	<node lat="69.41830278009141" lon="17.809133328418515" id="-45703">
		<tag k="name" v="Bukkevalen" />
		<tag k="natural" v="valley" />
		<tag k="place" v="locality" />
		<tag k="ssr:stedsnr" v="290189" />
	</node>
	<node lat="69.55137500004282" lon="17.741963890198125" id="-45706">
		<tag k="name" v="Kollen" />
		<tag k="natural" v="hill" />
		<tag k="place" v="locality" />
		<tag k="ssr:stedsnr" v="290812" />
	</node>
	<node lat="69.372386114616" lon="17.96204167086427" id="-45709">
		<tag k="name" v="Nattmålskaret" />
		<tag k="natural" v="valley" />
		<tag k="place" v="locality" />
		<tag k="ssr:stedsnr" v="290895" />
	</node>
	<node lat="69.30761111287214" lon="17.853416664702433" id="-45710">
		<tag k="name" v="Kvannåslia" />
		<tag k="natural" v="slope" />
		<tag k="place" v="locality" />
		<tag k="ssr:stedsnr" v="291328" />
	</node>
	<node lat="69.46133610817282" lon="17.982377761790808" id="-45711">
		<tag k="name" v="Hestholla" />
		<tag k="natural" v="valley" />
		<tag k="place" v="locality" />
		<tag k="ssr:stedsnr" v="291331" />
	</node>
	<node lat="69.45977222262681" lon="17.997936117261656" id="-45712">
		<tag k="fixme" v="consider natural=peak for the most distinct mountains in the district" />
		<tag k="name" v="Verselhammaren" />
		<tag k="natural" v="hill" />
		<tag k="place" v="locality" />
		<tag k="ssr:stedsnr" v="291332" />
	</node>
	<node lat="69.50481388525063" lon="18.015369447611718" id="-45718">
		<tag k="name" v="Skårlia" />
		<tag k="natural" v="slope" />
		<tag k="place" v="locality" />
		<tag k="ssr:stedsnr" v="291530" />
	</node>
	<node lat="69.59528055776995" lon="17.820202771674236" id="-45722">
		<tag k="name" v="Bratthenget" />
		<tag k="natural" v="cliff" />
		<tag k="ssr:stedsnr" v="291687" />
	</node>
	<node lat="69.22612499645508" lon="18.08748889285562" id="-45723">
		<tag k="name" v="Trollbergan" />
		<tag k="natural" v="hill" />
		<tag k="place" v="locality" />
		<tag k="ssr:stedsnr" v="292407" />
	</node>
	<node lat="69.22993888535187" lon="16.917252787724582" id="-45730">
		<tag k="fixme" v="consider natural=peak for the most distinct mountains in the district" />
		<tag k="name" v="Langhalstinden" />
		<tag k="natural" v="hill" />
		<tag k="place" v="locality" />
		<tag k="ssr:stedsnr" v="293286" />
	</node>
	<node lat="69.27502777430048" lon="17.07262498779523" id="-45732">
		<tag k="name" v="Skarhågan" />
		<tag k="natural" v="hill" />
		<tag k="place" v="locality" />
		<tag k="ssr:stedsnr" v="293491" />
	</node>
	<node lat="69.36373610739273" lon="18.476997224567558" id="-45734">
		<tag k="name" v="Langmoen" />
		<tag k="place" v="locality" />
		<tag k="ssr:stedsnr" v="293877" />
	</node>
	<node lat="69.37602777819004" lon="18.469908337539586" id="-45735">
		<tag k="name" v="Bakkan" />
		<tag k="natural" v="slope" />
		<tag k="place" v="locality" />
		<tag k="ssr:stedsnr" v="293878" />
	</node>
	<node lat="69.36354722660872" lon="18.434633323358906" id="-45736">
		<tag k="fixme" v="consider natural=peak for the most distinct mountains in the district" />
		<tag k="name" v="Blåfjellet" />
		<tag k="natural" v="hill" />
		<tag k="place" v="locality" />
		<tag k="ssr:stedsnr" v="293884" />
	</node>
	<node lat="69.13273611293853" lon="17.27469166974651" id="-45740">
		<tag k="name" v="Lahågen" />
		<tag k="natural" v="hill" />
		<tag k="place" v="locality" />
		<tag k="ssr:stedsnr" v="294409" />
	</node>
	<node lat="69.07678611435836" lon="17.0308444499103" id="-45743">
		<tag k="name" v="Botnan" />
		<tag k="natural" v="valley" />
		<tag k="place" v="locality" />
		<tag k="ssr:stedsnr" v="294507" />
	</node>
	<node lat="69.16340277861246" lon="17.59575833957846" id="-45744">
		<tag k="name" v="Finnebuhågen" />
		<tag k="natural" v="hill" />
		<tag k="place" v="locality" />
		<tag k="ssr:stedsnr" v="294510" />
	</node>
	<node lat="69.16204999854564" lon="17.595699996792064" id="-45746">
		<tag k="name" v="Holtet" />
		<tag k="natural" v="hill" />
		<tag k="place" v="locality" />
		<tag k="ssr:stedsnr" v="294520" />
	</node>
	<node lat="69.20892221984573" lon="17.607758328166423" id="-45748">
		<tag k="name" v="Mølnemoen" />
		<tag k="place" v="locality" />
		<tag k="ssr:stedsnr" v="294604" />
	</node>
	<node lat="69.20369444810227" lon="17.593138897500232" id="-45749">
		<tag k="name" v="Litjehammaren" />
		<tag k="natural" v="hill" />
		<tag k="place" v="locality" />
		<tag k="ssr:stedsnr" v="294609" />
	</node>
	<node lat="69.20446944373387" lon="17.586386119920995" id="-45750">
		<tag k="name" v="Storhammaren" />
		<tag k="natural" v="hill" />
		<tag k="place" v="locality" />
		<tag k="ssr:stedsnr" v="294615" />
	</node>
	<node lat="69.35063055551205" lon="17.073147213414344" id="-45752">
		<tag k="name" v="Messetindsula" />
		<tag k="natural" v="valley" />
		<tag k="place" v="locality" />
		<tag k="ssr:stedsnr" v="294682" />
	</node>
	<node lat="69.35057777645928" lon="17.09395000668265" id="-45753">
		<tag k="name" v="Sauholla" />
		<tag k="natural" v="valley" />
		<tag k="place" v="locality" />
		<tag k="ssr:stedsnr" v="294684" />
	</node>
	<node lat="69.04199722181275" lon="17.17299720828711" id="-45754">
		<tag k="fixme" v="consider natural=peak for the most distinct mountains in the district" />
		<tag k="name" v="Middagsholtet" />
		<tag k="natural" v="hill" />
		<tag k="place" v="locality" />
		<tag k="ssr:stedsnr" v="294685" />
	</node>
	<node lat="69.19128332918268" lon="17.8160555495135" id="-45759">
		<tag k="name" v="Langmyrbakken" />
		<tag k="natural" v="slope" />
		<tag k="place" v="locality" />
		<tag k="ssr:stedsnr" v="294715" />
	</node>
	<node lat="69.04813333439256" lon="17.05223333454423" id="-45761">
		<tag k="name" v="Seljesletta" />
		<tag k="place" v="locality" />
		<tag k="ssr:stedsnr" v="294719" />
	</node>
	<node lat="69.38231110983382" lon="17.100050002979614" id="-45762">
		<tag k="name" v="Sandmoen" />
		<tag k="place" v="locality" />
		<tag k="ssr:stedsnr" v="294722" />
	</node>
	<node lat="69.16363888802718" lon="17.69955554301766" id="-45763">
		<tag k="name" v="Halsen" />
		<tag k="natural" v="valley" />
		<tag k="place" v="locality" />
		<tag k="ssr:stedsnr" v="294724" />
	</node>
	<node lat="69.0658888894078" lon="16.932611116133213" id="-45765">
		<tag k="fixme" v="consider natural=peak for the most distinct mountains in the district" />
		<tag k="name" v="Geitkollen" />
		<tag k="natural" v="hill" />
		<tag k="place" v="locality" />
		<tag k="ssr:stedsnr" v="294913" />
	</node>
	<node lat="69.44556111085654" lon="17.116977767959312" id="-45773">
		<tag k="name" v="Ravnerevna" />
		<tag k="natural" v="gorge" />
		<tag k="ssr:stedsnr" v="295176" />
	</node>
	<node lat="69.0999055547203" lon="17.002783329850942" id="-45775">
		<tag k="name" v="Steinskarteigen" />
		<tag k="natural" v="slope" />
		<tag k="place" v="locality" />
		<tag k="ssr:stedsnr" v="295603" />
	</node>
	<node lat="69.206022221024" lon="17.65136109623298" id="-45776">
		<tag k="name" v="Snebakken" />
		<tag k="natural" v="slope" />
		<tag k="place" v="locality" />
		<tag k="ssr:stedsnr" v="295606" />
	</node>
	<node lat="69.46697500256005" lon="17.263252770931473" id="-45779">
		<tag k="name" v="Rånna" />
		<tag k="natural" v="valley" />
		<tag k="place" v="locality" />
		<tag k="ssr:stedsnr" v="295508" />
	</node>
	<node lat="69.22192222067771" lon="17.663411114403914" id="-45780">
		<tag k="name" v="Røstan" />
		<tag k="place" v="locality" />
		<tag k="ssr:stedsnr" v="295580" />
	</node>
	<node lat="69.28670555690665" lon="17.142299989400616" id="-45781">
		<tag k="name" v="Rødhamran" />
		<tag k="natural" v="hill" />
		<tag k="place" v="locality" />
		<tag k="ssr:stedsnr" v="295585" />
	</node>
	<node lat="69.44128055625676" lon="17.325524986176138" id="-45782">
		<tag k="name" v="Kjerringhella" />
		<tag k="natural" v="hill" />
		<tag k="place" v="locality" />
		<tag k="ssr:stedsnr" v="295792" />
	</node>
	<node lat="69.4522333361602" lon="17.27723611492876" id="-45787">
		<tag k="name" v="Første Munkeskuta" />
		<tag k="natural" v="valley" />
		<tag k="place" v="locality" />
		<tag k="ssr:stedsnr" v="296225" />
	</node>
	<node lat="69.47431388532533" lon="17.228969440130474" id="-45788">
		<tag k="alt_name" v="Laukvikhompen" />
		<tag k="name" v="Laukvikhumpen" />
		<tag k="natural" v="hill" />
		<tag k="place" v="locality" />
		<tag k="ssr:stedsnr" v="296376" />
	</node>
	<node lat="69.42313610756419" lon="17.486263883247407" id="-45790">
		<tag k="name" v="Molian" />
		<tag k="natural" v="slope" />
		<tag k="place" v="locality" />
		<tag k="ssr:stedsnr" v="297124" />
	</node>
	<node lat="69.42455278002417" lon="17.477300011717677" id="-45791">
		<tag k="name" v="Brattbakkan" />
		<tag k="natural" v="slope" />
		<tag k="place" v="locality" />
		<tag k="ssr:stedsnr" v="297125" />
	</node>
	<node lat="69.49175833443783" lon="17.52259721470875" id="-45794">
		<tag k="name" v="Bringa" />
		<tag k="natural" v="hill" />
		<tag k="place" v="locality" />
		<tag k="ssr:stedsnr" v="297094" />
	</node>
	<node lat="69.45921666319614" lon="17.64864442955976" id="-45796">
		<tag k="name" v="Breitindaksla" />
		<tag k="place" v="locality" />
		<tag k="ssr:stedsnr" v="297358" />
	</node>
	<node lat="69.18606389048217" lon="17.33246388672099" id="-45807">
		<tag k="name" v="Holmedalen - Gárdevuopmi" />
		<tag k="name:no" v="Holmedalen" />
		<tag k="name:se" v="Gárdevuopmi" />
		<tag k="natural" v="valley" />
		<tag k="old_name:se" v="Gardevuobmi" />
		<tag k="place" v="locality" />
		<tag k="ssr:stedsnr" v="321141" />
	</node>
	<node lat="69.11618889190885" lon="17.266466675910856" id="-45811">
		<tag k="fixme" v="consider natural=peak for the most distinct mountains in the district" />
		<tag k="name" v="Vassåsen" />
		<tag k="natural" v="hill" />
		<tag k="place" v="locality" />
		<tag k="ssr:stedsnr" v="321194" />
	</node>
	<node lat="69.25051944370222" lon="17.801227779129263" id="-45815">
		<tag k="alt_name" v="Nattmålshaugen" />
		<tag k="name" v="Nattmålshøgda" />
		<tag k="natural" v="hill" />
		<tag k="place" v="locality" />
		<tag k="ssr:stedsnr" v="321613" />
	</node>
	<node lat="69.49282499573933" lon="18.024563883723626" id="-45816">
		<tag k="fixme" v="consider natural=peak for the most distinct mountains in the district" />
		<tag k="name" v="Skårlifjellet" />
		<tag k="natural" v="hill" />
		<tag k="place" v="locality" />
		<tag k="ssr:stedsnr" v="321618" />
	</node>
	<node lat="69.35815277424257" lon="17.62283332725888" id="-45819">
		<tag k="name" v="Ávži" />
		<tag k="name:se" v="Ávži" />
		<tag k="natural" v="valley" />
		<tag k="old_name:se" v="Avži" />
		<tag k="place" v="locality" />
		<tag k="ssr:stedsnr" v="321523" />
	</node>
	<node lat="69.34935555729463" lon="18.306738891754236" id="-45820">
		<tag k="alt_name" v="Middagshaugen" />
		<tag k="name" v="Middagshågen" />
		<tag k="natural" v="hill" />
		<tag k="place" v="locality" />
		<tag k="ssr:stedsnr" v="321733" />
	</node>
	<node lat="69.51254444617295" lon="17.35400278121286" id="-45821">
		<tag k="fixme" v="consider natural=peak for the most distinct mountains in the district" />
		<tag k="name" v="Hundslaupen" />
		<tag k="natural" v="hill" />
		<tag k="place" v="locality" />
		<tag k="ssr:stedsnr" v="321932" />
	</node>
	<node lat="69.30803333481526" lon="17.406852769529298" id="-45824">
		<tag k="loc_name:se" v="Bastegohpi" />
		<tag k="name" v="Skeihola" />
		<tag k="name:no" v="Skeihola" />
		<tag k="natural" v="valley" />
		<tag k="place" v="locality" />
		<tag k="ssr:stedsnr" v="322427" />
	</node>
	<node lat="69.30878888758949" lon="17.29523056594601" id="-45825">
		<tag k="loc_name:se" v="Dážavárri" />
		<tag k="name" v="Langdalsryggen - Dáččavárri" />
		<tag k="name:no" v="Langdalsryggen" />
		<tag k="name:se" v="Dáččavárri" />
		<tag k="natural" v="ridge" />
		<tag k="old_name:se" v="Dažžavarri" />
		<tag k="place" v="locality" />
		<tag k="ssr:stedsnr" v="322432" />
	</node>
	<node lat="69.48236111167594" lon="17.27305277200839" id="-45827">
		<tag k="alt_name" v="Strandbytind" />
		<tag k="fixme" v="consider natural=peak for the most distinct mountains in the district" />
		<tag k="name" v="Strandbytinden" />
		<tag k="natural" v="hill" />
		<tag k="place" v="locality" />
		<tag k="ssr:stedsnr" v="322184" />
	</node>
	<node lat="69.35000832952994" lon="17.196449987881493" id="-45828">
		<tag k="name" v="Gryllefjordbotn" />
		<tag k="natural" v="valley" />
		<tag k="place" v="locality" />
		<tag k="ssr:stedsnr" v="322302" />
	</node>
	<node lat="69.34069722608672" lon="17.373280555151435" id="-45829">
		<tag k="fixme" v="multiple name tags, choose one and add the other to alt_name" />
		<tag k="loc_name:se" v="Rumsavággi" />
		<tag k="name" v="Tromdalen;Trondalen" />
		<tag k="name:no" v="Tromdalen;Trondalen" />
		<tag k="natural" v="valley" />
		<tag k="place" v="locality" />
		<tag k="ssr:stedsnr" v="322307" />
	</node>
	<node lat="69.32531944562378" lon="17.716858340378124" id="-45833">
		<tag k="fixme" v="consider natural=peak for the most distinct mountains in the district" />
		<tag k="name" v="Nattmålstinden - Čorrovárri" />
		<tag k="name:no" v="Nattmålstinden" />
		<tag k="name:se" v="Čorrovárri" />
		<tag k="natural" v="hill" />
		<tag k="old_name:se" v="Cårruvarri" />
		<tag k="place" v="locality" />
		<tag k="ssr:stedsnr" v="322578" />
	</node>
	<node lat="69.59594444603846" lon="17.630877781676457" id="-45860">
		<tag k="fixme" v="consider natural=peak for the most distinct mountains in the district" />
		<tag k="name" v="Stedjekollen" />
		<tag k="natural" v="hill" />
		<tag k="place" v="locality" />
		<tag k="ssr:stedsnr" v="472122" />
	</node>
	<node lat="69.43435555607324" lon="17.864005557662146" id="-45862">
		<tag k="name" v="Skjellhaugen" />
		<tag k="natural" v="hill" />
		<tag k="place" v="locality" />
		<tag k="ssr:stedsnr" v="472144" />
	</node>
	<node lat="69.4789527770702" lon="18.042280552215267" id="-45868">
		<tag k="name" v="Vangslia" />
		<tag k="natural" v="slope" />
		<tag k="place" v="locality" />
		<tag k="ssr:stedsnr" v="472629" />
	</node>
	<node lat="69.35120833416131" lon="17.841033319138553" id="-45870">
		<tag k="name" v="Litje-Forskolten" />
		<tag k="natural" v="hill" />
		<tag k="place" v="locality" />
		<tag k="ssr:stedsnr" v="472589" />
	</node>
	<node lat="69.58486944109312" lon="17.70659999818388" id="-45871">
		<tag k="name" v="Russeholla" />
		<tag k="natural" v="valley" />
		<tag k="place" v="locality" />
		<tag k="ssr:stedsnr" v="472594" />
	</node>
	<node lat="69.35285555697962" lon="17.44506112027489" id="-45873">
		<tag k="name" v="Heggelia" />
		<tag k="natural" v="slope" />
		<tag k="place" v="locality" />
		<tag k="ssr:stedsnr" v="472597" />
	</node>
	<node lat="69.59613888871482" lon="17.835441660854453" id="-45875">
		<tag k="fixme" v="consider natural=peak for the most distinct mountains in the district" />
		<tag k="name" v="Hekkingfjellet" />
		<tag k="natural" v="hill" />
		<tag k="place" v="locality" />
		<tag k="ssr:stedsnr" v="472669" />
	</node>
	<node lat="69.38829999740578" lon="17.96489165929036" id="-45879">
		<tag k="fixme" v="consider natural=peak for the most distinct mountains in the district" />
		<tag k="name" v="Svartfjellet" />
		<tag k="natural" v="hill" />
		<tag k="place" v="locality" />
		<tag k="ssr:stedsnr" v="472681" />
	</node>
	<node lat="69.24442222502672" lon="17.797672218487065" id="-45880">
		<tag k="name" v="Larsekollen" />
		<tag k="natural" v="hill" />
		<tag k="place" v="locality" />
		<tag k="ssr:stedsnr" v="472746" />
	</node>
	<node lat="69.57016111040805" lon="17.83284998736481" id="-45881">
		<tag k="name" v="Ressekjerringa" />
		<tag k="natural" v="hill" />
		<tag k="place" v="locality" />
		<tag k="ssr:stedsnr" v="472791" />
	</node>
	<node lat="69.56974167120308" lon="17.81674721165924" id="-45882">
		<tag k="name" v="Bjørnberget" />
		<tag k="natural" v="hill" />
		<tag k="place" v="locality" />
		<tag k="ssr:stedsnr" v="472793" />
	</node>
	<node lat="69.35568889187321" lon="17.990355559755137" id="-45884">
		<tag k="name" v="Sørøya" />
		<tag k="natural" v="hill" />
		<tag k="place" v="locality" />
		<tag k="ssr:stedsnr" v="472940" />
	</node>
	<node lat="69.35719444838092" lon="17.9575388882296" id="-45885">
		<tag k="name" v="Laholtet" />
		<tag k="natural" v="hill" />
		<tag k="place" v="locality" />
		<tag k="ssr:stedsnr" v="472943" />
	</node>
	<node lat="69.33819166441442" lon="17.157188873929986" id="-45889">
		<tag k="name" v="Skipsfjordbotn" />
		<tag k="natural" v="valley" />
		<tag k="place" v="locality" />
		<tag k="ssr:stedsnr" v="345111" />
	</node>
	<node lat="69.50981944670718" lon="17.618141672695483" id="-45892">
		<tag k="name" v="Fjordgardlia" />
		<tag k="natural" v="slope" />
		<tag k="place" v="locality" />
		<tag k="ssr:stedsnr" v="473228" />
	</node>
	<node lat="69.49388889025292" lon="17.686374990600687" id="-45893">
		<tag k="name" v="Gryta" />
		<tag k="natural" v="hill" />
		<tag k="place" v="locality" />
		<tag k="ssr:stedsnr" v="473239" />
	</node>
	<node lat="69.48521667036238" lon="17.64711388773475" id="-45894">
		<tag k="name" v="Kjelen" />
		<tag k="place" v="locality" />
		<tag k="ssr:stedsnr" v="473244" />
	</node>
	<node lat="69.47982499978116" lon="17.847758323118867" id="-45897">
		<tag k="name" v="Hestberget" />
		<tag k="natural" v="hill" />
		<tag k="place" v="locality" />
		<tag k="ssr:stedsnr" v="473385" />
	</node>
	<node lat="69.47044444127731" lon="18.0009194275245" id="-45900">
		<tag k="name" v="Brekka" />
		<tag k="natural" v="hill" />
		<tag k="place" v="locality" />
		<tag k="ssr:stedsnr" v="473338" />
	</node>
	<node lat="69.49465000444995" lon="17.94946943321564" id="-45901">
		<tag k="fixme" v="consider natural=peak for the most distinct mountains in the district" />
		<tag k="name" v="Vasslibruna" />
		<tag k="natural" v="hill" />
		<tag k="place" v="locality" />
		<tag k="ssr:stedsnr" v="473357" />
	</node>
	<node lat="69.48386944557275" lon="17.808080557821206" id="-45902">
		<tag k="fixme" v="consider natural=peak for the most distinct mountains in the district" />
		<tag k="name" v="Henrikdalstuva" />
		<tag k="natural" v="hill" />
		<tag k="place" v="locality" />
		<tag k="ssr:stedsnr" v="473392" />
	</node>
	<node lat="69.5067777747642" lon="17.94829165919726" id="-45904">
		<tag k="name" v="Aksla" />
		<tag k="place" v="locality" />
		<tag k="ssr:stedsnr" v="473521" />
	</node>
	<node lat="69.2659944461721" lon="17.99424999061864" id="-45905">
		<tag k="name" v="Storberget" />
		<tag k="natural" v="hill" />
		<tag k="place" v="locality" />
		<tag k="ssr:stedsnr" v="473648" />
	</node>
	<node lat="69.50678611354891" lon="17.850400000147168" id="-45908">
		<tag k="name" v="Heia" />
		<tag k="place" v="locality" />
		<tag k="ssr:stedsnr" v="473787" />
	</node>
	<node lat="69.17084999733453" lon="17.88613056105447" id="-45909">
		<tag k="fixme" v="consider natural=peak for the most distinct mountains in the district" />
		<tag k="name" v="Ramnfløya" />
		<tag k="natural" v="hill" />
		<tag k="place" v="locality" />
		<tag k="ssr:stedsnr" v="473747" />
	</node>
	<node lat="69.56178610813336" lon="17.852947206599616" id="-45912">
		<tag k="name" v="Sladdøra" />
		<tag k="natural" v="hill" />
		<tag k="place" v="locality" />
		<tag k="ssr:stedsnr" v="473836" />
	</node>
	<node lat="69.55596944516182" lon="17.86397498679722" id="-45913">
		<tag k="name" v="Bergryggen" />
		<tag k="natural" v="ridge" />
		<tag k="place" v="locality" />
		<tag k="ssr:stedsnr" v="473839" />
	</node>
	<node lat="69.56761944468178" lon="17.861211097337097" id="-45914">
		<tag k="name" v="Rabben" />
		<tag k="natural" v="slope" />
		<tag k="place" v="locality" />
		<tag k="ssr:stedsnr" v="473840" />
	</node>
	<node lat="69.44143333645833" lon="17.869613882989775" id="-45919">
		<tag k="name" v="Susannahaugen" />
		<tag k="natural" v="hill" />
		<tag k="place" v="locality" />
		<tag k="ssr:stedsnr" v="351154" />
	</node>
	<node lat="69.31215277683754" lon="17.79658609651824" id="-45921">
		<tag k="name" v="Strupen" />
		<tag k="natural" v="valley" />
		<tag k="place" v="locality" />
		<tag k="ssr:stedsnr" v="351305" />
	</node>
	<node lat="69.46646110662812" lon="17.979791671021133" id="-45923">
		<tag k="name" v="Rishaugen" />
		<tag k="natural" v="hill" />
		<tag k="place" v="locality" />
		<tag k="ssr:stedsnr" v="351317" />
	</node>
	<node lat="69.45199166673268" lon="17.788347219025532" id="-45924">
		<tag k="name" v="Ramnbergan" />
		<tag k="natural" v="hill" />
		<tag k="place" v="locality" />
		<tag k="ssr:stedsnr" v="351216" />
	</node>
	<node lat="69.30146666818978" lon="17.83938610285694" id="-45927">
		<tag k="name" v="Famnvedlia" />
		<tag k="natural" v="slope" />
		<tag k="place" v="locality" />
		<tag k="ssr:stedsnr" v="351657" />
	</node>
	<node lat="69.2636638914474" lon="17.753024997648122" id="-45933">
		<tag k="fixme" v="consider natural=peak for the most distinct mountains in the district" />
		<tag k="name" v="Nállogielas" />
		<tag k="name:se" v="Nállogielas" />
		<tag k="natural" v="hill" />
		<tag k="place" v="locality" />
		<tag k="ssr:stedsnr" v="351705" />
	</node>
	<node lat="69.27019722071125" lon="17.816116672673587" id="-45934">
		<tag k="name" v="Njoaski" />
		<tag k="name:se" v="Njoaski" />
		<tag k="natural" v="valley" />
		<tag k="place" v="locality" />
		<tag k="ssr:stedsnr" v="351713" />
	</node>
	<node lat="69.39319722338725" lon="17.861794436385154" id="-45935">
		<tag k="name" v="Tømmerskaret" />
		<tag k="natural" v="valley" />
		<tag k="place" v="locality" />
		<tag k="ssr:stedsnr" v="351863" />
	</node>
	<node lat="69.35071388615567" lon="17.986716665768647" id="-45937">
		<tag k="name" v="Rishaugen" />
		<tag k="natural" v="hill" />
		<tag k="place" v="locality" />
		<tag k="ssr:stedsnr" v="351962" />
	</node>
	<node lat="69.24483333194259" lon="18.013427771518728" id="-45942">
		<tag k="name" v="Vardbakken" />
		<tag k="natural" v="slope" />
		<tag k="place" v="locality" />
		<tag k="ssr:stedsnr" v="352666" />
	</node>
	<node lat="69.24221943961102" lon="17.984961118098532" id="-45943">
		<tag k="name" v="Bergan" />
		<tag k="natural" v="hill" />
		<tag k="place" v="locality" />
		<tag k="ssr:stedsnr" v="352668" />
	</node>
	<node lat="69.23831944678209" lon="17.988919452921834" id="-45944">
		<tag k="name" v="Nordmarka" />
		<tag k="natural" v="slope" />
		<tag k="place" v="locality" />
		<tag k="ssr:stedsnr" v="352669" />
	</node>
	<node lat="69.35085555742181" lon="18.071561119472708" id="-45947">
		<tag k="name" v="Klippfiskberget" />
		<tag k="natural" v="hill" />
		<tag k="place" v="locality" />
		<tag k="ssr:stedsnr" v="352831" />
	</node>
	<node lat="69.32420555589417" lon="18.29730000883707" id="-45950">
		<tag k="name" v="Storberget" />
		<tag k="natural" v="hill" />
		<tag k="place" v="locality" />
		<tag k="ssr:stedsnr" v="352859" />
	</node>
	<node lat="69.22396389009309" lon="18.116399990514314" id="-45951">
		<tag k="name" v="Søndre Tverrelvhågen" />
		<tag k="natural" v="hill" />
		<tag k="place" v="locality" />
		<tag k="ssr:stedsnr" v="353520" />
	</node>
	<node lat="69.2325527758316" lon="18.06148333099379" id="-45953">
		<tag k="name" v="Kvitberget" />
		<tag k="natural" v="hill" />
		<tag k="place" v="locality" />
		<tag k="ssr:stedsnr" v="353469" />
	</node>
	<node lat="69.28484722174785" lon="18.370077780237736" id="-45958">
		<tag k="name" v="Mattisberget" />
		<tag k="natural" v="hill" />
		<tag k="place" v="locality" />
		<tag k="ssr:stedsnr" v="353770" />
	</node>
	<node lat="69.2929999979385" lon="18.40304722113695" id="-45959">
		<tag k="name" v="Rødsandhaugen" />
		<tag k="natural" v="hill" />
		<tag k="place" v="locality" />
		<tag k="ssr:stedsnr" v="353772" />
	</node>
	<node lat="69.36170277774129" lon="18.12642777813064" id="-45961">
		<tag k="name" v="Litjetuva" />
		<tag k="natural" v="hill" />
		<tag k="place" v="locality" />
		<tag k="ssr:stedsnr" v="353657" />
	</node>
	<node lat="69.38746944161088" lon="18.43626942642323" id="-45963">
		<tag k="name" v="Mellaberget" />
		<tag k="natural" v="hill" />
		<tag k="place" v="locality" />
		<tag k="ssr:stedsnr" v="353803" />
	</node>
	<node lat="69.36688055798548" lon="18.449555543507778" id="-45966">
		<tag k="name" v="Øvre vassbakkan" />
		<tag k="natural" v="slope" />
		<tag k="place" v="locality" />
		<tag k="ssr:stedsnr" v="353851" />
	</node>
	<node lat="69.35275555392478" lon="18.30946944512677" id="-45967">
		<tag k="name" v="Storsletta" />
		<tag k="natural" v="slope" />
		<tag k="place" v="locality" />
		<tag k="ssr:stedsnr" v="353856" />
	</node>
	<node lat="69.3515194456711" lon="18.299147219899922" id="-45969">
		<tag k="name" v="Sjurberget" />
		<tag k="natural" v="hill" />
		<tag k="place" v="locality" />
		<tag k="ssr:stedsnr" v="353860" />
	</node>
	<node lat="69.22171944437912" lon="16.904827768012552" id="-45971">
		<tag k="name" v="Leikviklian" />
		<tag k="natural" v="slope" />
		<tag k="place" v="locality" />
		<tag k="ssr:stedsnr" v="354257" />
	</node>
	<node lat="69.21041111483396" lon="18.0877222283207" id="-45972">
		<tag k="name" v="Skjellsletta" />
		<tag k="place" v="locality" />
		<tag k="ssr:stedsnr" v="474529" />
	</node>
	<node lat="69.21068889182882" lon="18.095669454441367" id="-45974">
		<tag k="name" v="Bakliene" />
		<tag k="natural" v="slope" />
		<tag k="place" v="locality" />
		<tag k="ssr:stedsnr" v="474549" />
	</node>
	<node lat="69.2783027770702" lon="17.065358338207897" id="-45975">
		<tag k="name" v="Veidmannsaksla" />
		<tag k="place" v="locality" />
		<tag k="ssr:stedsnr" v="354302" />
	</node>
	<node lat="69.15246666764631" lon="17.315747230741092" id="-45980">
		<tag k="fixme" v="consider natural=peak for the most distinct mountains in the district" />
		<tag k="name" v="Vardfjellet" />
		<tag k="natural" v="hill" />
		<tag k="place" v="locality" />
		<tag k="ssr:stedsnr" v="354401" />
	</node>
	<node lat="69.1641277819148" lon="17.69810276822231" id="-45984">
		<tag k="name" v="Pryddalen" />
		<tag k="natural" v="valley" />
		<tag k="place" v="locality" />
		<tag k="ssr:stedsnr" v="354723" />
	</node>
	<node lat="69.22439722246197" lon="17.47428888905924" id="-45986">
		<tag k="name" v="Røyrmoen" />
		<tag k="place" v="locality" />
		<tag k="ssr:stedsnr" v="354883" />
	</node>
	<node lat="69.4637222258068" lon="17.231686109848162" id="-45988">
		<tag k="name" v="Kjempetua" />
		<tag k="natural" v="hill" />
		<tag k="place" v="locality" />
		<tag k="ssr:stedsnr" v="355011" />
	</node>
	<node lat="69.06130277853798" lon="16.883594441050963" id="-45990">
		<tag k="name" v="Høyholldalshågen" />
		<tag k="natural" v="hill" />
		<tag k="place" v="locality" />
		<tag k="ssr:stedsnr" v="354912" />
	</node>
	<node lat="69.18327222111206" lon="17.69002777498549" id="-45993">
		<tag k="fixme" v="consider natural=peak for the most distinct mountains in the district" />
		<tag k="name" v="Krokelvåsen" />
		<tag k="natural" v="hill" />
		<tag k="place" v="locality" />
		<tag k="ssr:stedsnr" v="354989" />
	</node>
	<node lat="69.10125277777146" lon="17.09139443924961" id="-45996">
		<tag k="fixme" v="consider natural=peak for the most distinct mountains in the district" />
		<tag k="name" v="Trollvasshøgda" />
		<tag k="natural" v="hill" />
		<tag k="place" v="locality" />
		<tag k="ssr:stedsnr" v="355293" />
	</node>
	<node lat="69.4662222521521" lon="17.23648158762314" id="-45997">
		<tag k="name" v="Holla" />
		<tag k="natural" v="valley" />
		<tag k="place" v="locality" />
		<tag k="ssr:stedsnr" v="355403" />
	</node>
	<node lat="69.09390555603244" lon="17.024091661199364" id="-46001">
		<tag k="name" v="Ryphågen" />
		<tag k="natural" v="hill" />
		<tag k="place" v="locality" />
		<tag k="ssr:stedsnr" v="355556" />
	</node>
	<node lat="69.04062777892294" lon="17.18604443837264" id="-46005">
		<tag k="name" v="Kjosholtet" />
		<tag k="natural" v="hill" />
		<tag k="place" v="locality" />
		<tag k="ssr:stedsnr" v="355619" />
	</node>
	<node lat="69.45996944346683" lon="18.198833330647926" id="-46006">
		<tag k="name" v="Sørvikmoen" />
		<tag k="place" v="locality" />
		<tag k="ssr:stedsnr" v="474891" />
	</node>
	<node lat="69.44178888839133" lon="17.41675000994852" id="-46009">
		<tag k="name" v="Storbakken" />
		<tag k="natural" v="slope" />
		<tag k="place" v="locality" />
		<tag k="ssr:stedsnr" v="355702" />
	</node>
	<node lat="69.47338611080698" lon="18.27393889337809" id="-46012">
		<tag k="name" v="Lastolpbakken" />
		<tag k="natural" v="slope" />
		<tag k="place" v="locality" />
		<tag k="ssr:stedsnr" v="474984" />
	</node>
	<node lat="69.39205555918366" lon="17.379905551116135" id="-46013">
		<tag k="name" v="Brattbakkhaugen" />
		<tag k="natural" v="hill" />
		<tag k="place" v="locality" />
		<tag k="ssr:stedsnr" v="355959" />
	</node>
	<node lat="69.23998055854638" lon="17.63296387939918" id="-46018">
		<tag k="name" v="Skjeftemoholtet" />
		<tag k="natural" v="hill" />
		<tag k="place" v="locality" />
		<tag k="ssr:stedsnr" v="356656" />
	</node>
	<node lat="69.24103333052896" lon="17.623325003148306" id="-46019">
		<tag k="name" v="Fiskemannsbergan" />
		<tag k="natural" v="hill" />
		<tag k="place" v="locality" />
		<tag k="ssr:stedsnr" v="356661" />
	</node>
	<node lat="69.17723333252316" lon="17.761308334080383" id="-46020">
		<tag k="name" v="Dordiholla" />
		<tag k="natural" v="valley" />
		<tag k="place" v="locality" />
		<tag k="ssr:stedsnr" v="356698" />
	</node>
	<node lat="69.45271111105409" lon="17.302763882320505" id="-46021">
		<tag k="name" v="Sommardalshaugen" />
		<tag k="natural" v="hill" />
		<tag k="place" v="locality" />
		<tag k="ssr:stedsnr" v="356818" />
	</node>
	<node lat="69.22626388849281" lon="16.89002500092964" id="-46022">
		<tag k="name" v="Kobbevikhalsen" />
		<tag k="natural" v="cliff" />
		<tag k="ssr:stedsnr" v="475237" />
	</node>
	<node lat="69.22951388928935" lon="16.906824991121788" id="-46023">
		<tag k="fixme" v="consider natural=peak for the most distinct mountains in the district" />
		<tag k="name" v="Soltua" />
		<tag k="natural" v="hill" />
		<tag k="place" v="locality" />
		<tag k="ssr:stedsnr" v="475243" />
	</node>
	<node lat="69.35837221916574" lon="18.46607777845258" id="-46026">
		<tag k="name" v="Stormoen" />
		<tag k="place" v="locality" />
		<tag k="ssr:stedsnr" v="475834" />
	</node>
	<node lat="69.19966389314243" lon="16.9474333378154" id="-46027">
		<tag k="name" v="Olveskaret" />
		<tag k="natural" v="valley" />
		<tag k="place" v="locality" />
		<tag k="ssr:stedsnr" v="475277" />
	</node>
	<node lat="69.28286389187191" lon="17.035755550976614" id="-46028">
		<tag k="name" v="Kulen" />
		<tag k="natural" v="hill" />
		<tag k="place" v="locality" />
		<tag k="ssr:stedsnr" v="475295" />
	</node>
	<node lat="69.2708777815541" lon="17.021211100972174" id="-46029">
		<tag k="name" v="Botnlia" />
		<tag k="natural" v="slope" />
		<tag k="place" v="locality" />
		<tag k="ssr:stedsnr" v="475301" />
	</node>
	<node lat="69.47970000157534" lon="17.639861119282276" id="-46033">
		<tag k="name" v="Steinlia" />
		<tag k="natural" v="slope" />
		<tag k="place" v="locality" />
		<tag k="ssr:stedsnr" v="358197" />
	</node>
	<node lat="69.21114722548445" lon="17.056652783223107" id="-46038">
		<tag k="name" v="Norddalsbakken" />
		<tag k="natural" v="slope" />
		<tag k="place" v="locality" />
		<tag k="ssr:stedsnr" v="475493" />
	</node>
	<node lat="69.37372499630028" lon="18.451825003075335" id="-46042">
		<tag k="name" v="Jordelvdalen" />
		<tag k="natural" v="valley" />
		<tag k="place" v="locality" />
		<tag k="ssr:stedsnr" v="475867" />
	</node>
	<node lat="69.37705555184297" lon="18.44886110818238" id="-46043">
		<tag k="name" v="Orrlia" />
		<tag k="natural" v="slope" />
		<tag k="place" v="locality" />
		<tag k="ssr:stedsnr" v="475874" />
	</node>
	<node lat="69.3818972264631" lon="18.44169444091248" id="-46044">
		<tag k="name" v="Skjærelvdalen" />
		<tag k="natural" v="valley" />
		<tag k="place" v="locality" />
		<tag k="ssr:stedsnr" v="475875" />
	</node>
	<node lat="69.20893888860088" lon="17.637949989068243" id="-46045">
		<tag k="name" v="Langebakken" />
		<tag k="natural" v="slope" />
		<tag k="place" v="locality" />
		<tag k="ssr:stedsnr" v="476581" />
	</node>
	<node lat="69.4585222249863" lon="18.28244443848578" id="-46048">
		<tag k="name" v="Hollsteinsletta" />
		<tag k="place" v="locality" />
		<tag k="ssr:stedsnr" v="475929" />
	</node>
	<node lat="69.45856944074579" lon="17.27301111484303" id="-46050">
		<tag k="name" v="Grønnlia" />
		<tag k="natural" v="slope" />
		<tag k="place" v="locality" />
		<tag k="ssr:stedsnr" v="476045" />
	</node>
	<node lat="69.19332500199344" lon="17.03398054529223" id="-46051">
		<tag k="name" v="Landslettbakken" />
		<tag k="natural" v="slope" />
		<tag k="place" v="locality" />
		<tag k="ssr:stedsnr" v="476185" />
	</node>
	<node lat="69.12266944405174" lon="17.11930277775258" id="-46052">
		<tag k="fixme" v="consider natural=peak for the most distinct mountains in the district" />
		<tag k="name" v="Flatfjellan" />
		<tag k="natural" v="hill" />
		<tag k="place" v="locality" />
		<tag k="ssr:stedsnr" v="476312" />
	</node>
	<node lat="69.12651944812613" lon="17.04834443929494" id="-46053">
		<tag k="name" v="Tverrbotn" />
		<tag k="natural" v="valley" />
		<tag k="place" v="locality" />
		<tag k="ssr:stedsnr" v="476339" />
	</node>
	<node lat="69.26559999846043" lon="16.791119444181078" id="-46056">
		<tag k="name" v="Resshauet" />
		<tag k="natural" v="hill" />
		<tag k="place" v="locality" />
		<tag k="ssr:stedsnr" v="476145" />
	</node>
	<node lat="69.2686722220322" lon="16.78844165363359" id="-46057">
		<tag k="name" v="Ramnelia" />
		<tag k="natural" v="slope" />
		<tag k="place" v="locality" />
		<tag k="ssr:stedsnr" v="476147" />
	</node>
	<node lat="69.0801027819122" lon="17.096780559737745" id="-46058">
		<tag k="name" v="Veltarberget" />
		<tag k="natural" v="hill" />
		<tag k="place" v="locality" />
		<tag k="ssr:stedsnr" v="476291" />
	</node>
	<node lat="69.08420555951035" lon="17.119122221904053" id="-46059">
		<tag k="name" v="Skreddalen" />
		<tag k="natural" v="valley" />
		<tag k="place" v="locality" />
		<tag k="ssr:stedsnr" v="476293" />
	</node>
	<node lat="69.14402499884646" lon="17.32021665203519" id="-46060">
		<tag k="name" v="Lamarka" />
		<tag k="natural" v="slope" />
		<tag k="place" v="locality" />
		<tag k="ssr:stedsnr" v="476381" />
	</node>
	<node lat="69.02971389042074" lon="17.218374998937303" id="-46061">
		<tag k="name" v="Sommarfjøsholtet" />
		<tag k="natural" v="hill" />
		<tag k="place" v="locality" />
		<tag k="ssr:stedsnr" v="476399" />
	</node>
	<node lat="69.1460194439991" lon="17.37407500705812" id="-46062">
		<tag k="name" v="Rødberget" />
		<tag k="natural" v="hill" />
		<tag k="place" v="locality" />
		<tag k="ssr:stedsnr" v="476444" />
	</node>
	<node lat="69.17109444845481" lon="17.82885555409997" id="-46064">
		<tag k="name" v="Nipan" />
		<tag k="natural" v="slope" />
		<tag k="place" v="locality" />
		<tag k="ssr:stedsnr" v="476459" />
	</node>
	<node lat="69.17279167118167" lon="17.819972220892343" id="-46065">
		<tag k="fixme" v="consider natural=peak for the most distinct mountains in the district" />
		<tag k="name" v="Sommarmarkkollen" />
		<tag k="natural" v="hill" />
		<tag k="place" v="locality" />
		<tag k="ssr:stedsnr" v="476465" />
	</node>
	<node lat="69.12871666947635" lon="17.323547218503627" id="-46067">
		<tag k="name" v="Karilia" />
		<tag k="natural" v="slope" />
		<tag k="place" v="locality" />
		<tag k="ssr:stedsnr" v="476474" />
	</node>
	<node lat="69.1678666633885" lon="17.76612498599405" id="-46068">
		<tag k="name" v="Brennlia" />
		<tag k="natural" v="slope" />
		<tag k="place" v="locality" />
		<tag k="ssr:stedsnr" v="476476" />
	</node>
	<node lat="69.46504444795353" lon="17.229691676213676" id="-46069">
		<tag k="name" v="Trollhaugen" />
		<tag k="natural" v="hill" />
		<tag k="place" v="locality" />
		<tag k="ssr:stedsnr" v="476477" />
	</node>
	<node lat="69.16307777808008" lon="17.60547778292805" id="-46071">
		<tag k="name" v="Rishågen" />
		<tag k="natural" v="hill" />
		<tag k="place" v="locality" />
		<tag k="ssr:stedsnr" v="476487" />
	</node>
	<node lat="69.1583527804892" lon="17.59316666697023" id="-46073">
		<tag k="name" v="Naustnesbergan" />
		<tag k="natural" v="hill" />
		<tag k="place" v="locality" />
		<tag k="ssr:stedsnr" v="476496" />
	</node>
	<node lat="69.22825555186434" lon="17.594577771013824" id="-46076">
		<tag k="name" v="Kolmilbakken" />
		<tag k="natural" v="slope" />
		<tag k="place" v="locality" />
		<tag k="ssr:stedsnr" v="476533" />
	</node>
	<node lat="69.08994444393645" lon="16.958644438899253" id="-46080">
		<tag k="name" v="Nordheia" />
		<tag k="natural" v="hill" />
		<tag k="place" v="locality" />
		<tag k="ssr:stedsnr" v="476548" />
	</node>
	<node lat="69.28717777426083" lon="17.14302778118936" id="-46081">
		<tag k="name" v="Skakkelia" />
		<tag k="natural" v="slope" />
		<tag k="place" v="locality" />
		<tag k="ssr:stedsnr" v="476551" />
	</node>
	<node lat="69.2876861105154" lon="17.14042499454561" id="-46083">
		<tag k="name" v="Store Rishågtuva" />
		<tag k="natural" v="hill" />
		<tag k="place" v="locality" />
		<tag k="ssr:stedsnr" v="476554" />
	</node>
	<node lat="69.28513055521704" lon="17.195688896926423" id="-46085">
		<tag k="name" v="Durmålsdalen" />
		<tag k="natural" v="valley" />
		<tag k="place" v="locality" />
		<tag k="ssr:stedsnr" v="476683" />
	</node>
	<node lat="69.03348611423444" lon="17.201494455885953" id="-46086">
		<tag k="name" v="Finnkonholtet" />
		<tag k="natural" v="hill" />
		<tag k="place" v="locality" />
		<tag k="ssr:stedsnr" v="476684" />
	</node>
	<node lat="69.29025277844941" lon="17.19494167610422" id="-46087">
		<tag k="name" v="Høyhellaren" />
		<tag k="natural" v="hill" />
		<tag k="place" v="locality" />
		<tag k="ssr:stedsnr" v="476686" />
	</node>
	<node lat="69.08089721978659" lon="17.019222220643524" id="-46092">
		<tag k="fixme" v="consider natural=peak for the most distinct mountains in the district" />
		<tag k="name" v="Himmelbergan" />
		<tag k="natural" v="hill" />
		<tag k="place" v="locality" />
		<tag k="ssr:stedsnr" v="476601" />
	</node>
	<node lat="69.35576666915507" lon="17.061669442912866" id="-46094">
		<tag k="name" v="Dalen" />
		<tag k="natural" v="valley" />
		<tag k="place" v="locality" />
		<tag k="ssr:stedsnr" v="476648" />
	</node>
	<node lat="69.3556333371655" lon="17.082341667599657" id="-46095">
		<tag k="name" v="Bleiklia" />
		<tag k="natural" v="slope" />
		<tag k="place" v="locality" />
		<tag k="ssr:stedsnr" v="476649" />
	</node>
	<node lat="69.34962777967803" lon="17.122044438964796" id="-46096">
		<tag k="name" v="Festninga" />
		<tag k="natural" v="slope" />
		<tag k="place" v="locality" />
		<tag k="ssr:stedsnr" v="476654" />
	</node>
	<node lat="69.38022777591412" lon="17.100477774484318" id="-46103">
		<tag k="name" v="Veihaugen" />
		<tag k="natural" v="hill" />
		<tag k="place" v="locality" />
		<tag k="ssr:stedsnr" v="476720" />
	</node>
	<node lat="69.37264999818198" lon="17.061338881839262" id="-46104">
		<tag k="fixme" v="consider natural=peak for the most distinct mountains in the district" />
		<tag k="name" v="Rognskartinden" />
		<tag k="natural" v="hill" />
		<tag k="place" v="locality" />
		<tag k="ssr:stedsnr" v="476721" />
	</node>
	<node lat="69.33560833252295" lon="17.14188333669523" id="-46107">
		<tag k="name" v="Galgenesdalen" />
		<tag k="natural" v="valley" />
		<tag k="place" v="locality" />
		<tag k="ssr:stedsnr" v="476747" />
	</node>
	<node lat="69.3318000011472" lon="17.140680545151678" id="-46108">
		<tag k="name" v="Galgenesryggen" />
		<tag k="natural" v="ridge" />
		<tag k="place" v="locality" />
		<tag k="ssr:stedsnr" v="476749" />
	</node>
	<node lat="69.07592499972752" lon="16.808875003523553" id="-46109">
		<tag k="name" v="Ladalen" />
		<tag k="natural" v="valley" />
		<tag k="place" v="locality" />
		<tag k="ssr:stedsnr" v="476884" />
	</node>
	<node lat="69.10950833637746" lon="16.799936110775658" id="-46110">
		<tag k="name" v="Flaberget" />
		<tag k="natural" v="hill" />
		<tag k="place" v="locality" />
		<tag k="ssr:stedsnr" v="476897" />
	</node>
	<node lat="69.16444166613384" lon="17.589427768164253" id="-46111">
		<tag k="name" v="Teinebakken" />
		<tag k="natural" v="slope" />
		<tag k="place" v="locality" />
		<tag k="ssr:stedsnr" v="476984" />
	</node>
	<node lat="69.15506666280423" lon="17.51233889627012" id="-46113">
		<tag k="name" v="Hamnebakken" />
		<tag k="natural" v="slope" />
		<tag k="place" v="locality" />
		<tag k="ssr:stedsnr" v="476847" />
	</node>
	<node lat="69.5011805549706" lon="17.21975277114157" id="-46115">
		<tag k="name" v="Bakdalen" />
		<tag k="natural" v="valley" />
		<tag k="place" v="locality" />
		<tag k="ssr:stedsnr" v="477132" />
	</node>
	<node lat="69.15081111015276" lon="17.645838883537913" id="-46117">
		<tag k="name" v="Renna" />
		<tag k="natural" v="valley" />
		<tag k="place" v="locality" />
		<tag k="ssr:stedsnr" v="476999" />
	</node>
	<node lat="69.50468333145564" lon="17.370230542892607" id="-46123">
		<tag k="name" v="Brannlian" />
		<tag k="natural" v="slope" />
		<tag k="place" v="locality" />
		<tag k="ssr:stedsnr" v="477247" />
	</node>
	<node lat="69.44418055633184" lon="17.337266663054727" id="-46124">
		<tag k="name" v="Lefsneskollen" />
		<tag k="natural" v="hill" />
		<tag k="place" v="locality" />
		<tag k="ssr:stedsnr" v="477830" />
	</node>
	<node lat="69.44393610947328" lon="17.328513889691685" id="-46126">
		<tag k="name" v="Tortenbakken" />
		<tag k="natural" v="slope" />
		<tag k="place" v="locality" />
		<tag k="ssr:stedsnr" v="477840" />
	</node>
	<node lat="69.4053027803847" lon="17.326911100462077" id="-46129">
		<tag k="name" v="Skjåneshaugen" />
		<tag k="natural" v="hill" />
		<tag k="place" v="locality" />
		<tag k="ssr:stedsnr" v="477387" />
	</node>
	<node lat="69.44850833254351" lon="17.394333327615353" id="-46132">
		<tag k="name" v="Nakken" />
		<tag k="place" v="locality" />
		<tag k="ssr:stedsnr" v="477628" />
	</node>
	<node lat="69.26628055215699" lon="17.61376389416833" id="-46133">
		<tag k="name" v="Høgbakken" />
		<tag k="natural" v="slope" />
		<tag k="place" v="locality" />
		<tag k="ssr:stedsnr" v="477629" />
	</node>
	<node lat="69.44970555296871" lon="17.407147224816466" id="-46134">
		<tag k="name" v="Storhammaren" />
		<tag k="place" v="locality" />
		<tag k="ssr:stedsnr" v="477649" />
	</node>
	<node lat="69.27013055947882" lon="17.616788876566105" id="-46136">
		<tag k="name" v="Nordhågen" />
		<tag k="natural" v="hill" />
		<tag k="place" v="locality" />
		<tag k="ssr:stedsnr" v="477652" />
	</node>
	<node lat="69.45375000373635" lon="17.40354167283612" id="-46137">
		<tag k="name" v="Lutdalen" />
		<tag k="natural" v="valley" />
		<tag k="place" v="locality" />
		<tag k="ssr:stedsnr" v="477655" />
	</node>
	<node lat="69.24774444075457" lon="17.60444721833756" id="-46138">
		<tag k="name" v="Frøskeverslet" />
		<tag k="natural" v="slope" />
		<tag k="place" v="locality" />
		<tag k="ssr:stedsnr" v="477686" />
	</node>
	<node lat="69.33994999688505" lon="17.399436115753765" id="-46142">
		<tag k="fixme" v="consider natural=peak for the most distinct mountains in the district" />
		<tag k="name" v="Leirfjellet" />
		<tag k="natural" v="hill" />
		<tag k="place" v="locality" />
		<tag k="ssr:stedsnr" v="477792" />
	</node>
	<node lat="69.47943888891956" lon="17.69336944649996" id="-46146">
		<tag k="name" v="Gunnardalen" />
		<tag k="natural" v="valley" />
		<tag k="place" v="locality" />
		<tag k="ssr:stedsnr" v="478296" />
	</node>
	<node lat="69.47623611097964" lon="17.653583330505423" id="-46147">
		<tag k="name" v="Ytste Klevknausen" />
		<tag k="natural" v="hill" />
		<tag k="place" v="locality" />
		<tag k="ssr:stedsnr" v="478298" />
	</node>
	<node lat="69.57150000007488" lon="17.48075556561045" id="-46150">
		<tag k="name" v="Gilbergsheia" />
		<tag k="natural" v="hill" />
		<tag k="place" v="locality" />
		<tag k="ssr:stedsnr" v="479201" />
	</node>
	<node lat="69.52435000094768" lon="17.401505557103608" id="-46153">
		<tag k="name" v="Galian" />
		<tag k="natural" v="slope" />
		<tag k="place" v="locality" />
		<tag k="ssr:stedsnr" v="479141" />
	</node>
	<node lat="69.53835000425475" lon="17.511574998354636" id="-46154">
		<tag k="name" v="Smålian" />
		<tag k="natural" v="slope" />
		<tag k="place" v="locality" />
		<tag k="ssr:stedsnr" v="479150" />
	</node>
	<node lat="69.20538611173428" lon="16.90373333570192" id="-46159">
		<tag k="fixme" v="consider natural=peak for the most distinct mountains in the district" />
		<tag k="name" v="Årbergnakken" />
		<tag k="natural" v="hill" />
		<tag k="place" v="locality" />
		<tag k="ssr:stedsnr" v="381158" />
	</node>
	<node lat="69.04859166949636" lon="17.138072228026427" id="-46167">
		<tag k="alt_name" v="Flatholtan" />
		<tag k="name" v="Flatholtet" />
		<tag k="natural" v="hill" />
		<tag k="place" v="locality" />
		<tag k="ssr:stedsnr" v="382115" />
	</node>
	<node lat="69.48939184076947" lon="17.223342050038386" id="-46171">
		<tag k="name" v="Skinnarmen" />
		<tag k="natural" v="ridge" />
		<tag k="place" v="locality" />
		<tag k="ssr:stedsnr" v="382207" />
	</node>
	<node lat="69.20800555394955" lon="17.56518610854422" id="-46179">
		<tag k="name" v="Lahaugan" />
		<tag k="natural" v="hill" />
		<tag k="place" v="locality" />
		<tag k="ssr:stedsnr" v="382366" />
	</node>
	<node lat="69.30981388803065" lon="16.97926387732921" id="-46183">
		<tag k="name" v="Kjerringvikskaret" />
		<tag k="natural" v="valley" />
		<tag k="place" v="locality" />
		<tag k="ssr:stedsnr" v="382405" />
	</node>
	<node lat="69.3089527801708" lon="16.907647229494216" id="-46184">
		<tag k="alt_name" v="Kjerringfjellet" />
		<tag k="name" v="Kjerringberget" />
		<tag k="natural" v="hill" />
		<tag k="place" v="locality" />
		<tag k="ssr:stedsnr" v="382408" />
	</node>
	<node lat="69.17783333062214" lon="17.857686118332428" id="-46194">
		<tag k="fixme" v="consider natural=peak for the most distinct mountains in the district" />
		<tag k="name" v="Friåsen" />
		<tag k="natural" v="hill" />
		<tag k="place" v="locality" />
		<tag k="ssr:stedsnr" v="382464" />
	</node>
	<node lat="69.37399166372631" lon="18.289916662601478" id="-46197">
		<tag k="alt_name" v="Nonskardhaugen" />
		<tag k="name" v="Nonsskarhaugen" />
		<tag k="natural" v="hill" />
		<tag k="place" v="locality" />
		<tag k="ssr:stedsnr" v="382707" />
	</node>
	<node lat="69.54257222552681" lon="17.512452783333664" id="-46205">
		<tag k="fixme" v="consider natural=peak for the most distinct mountains in the district" />
		<tag k="name" v="Frua" />
		<tag k="natural" v="hill" />
		<tag k="place" v="locality" />
		<tag k="ssr:stedsnr" v="382856" />
	</node>
	<node lat="69.3582472193568" lon="17.683019447446114" id="-46209">
		<tag k="name" v="Nord-Heggedalen - Ávčavággi" />
		<tag k="name:no" v="Nord-Heggedalen" />
		<tag k="name:se" v="Ávčavággi" />
		<tag k="natural" v="valley" />
		<tag k="old_name:se" v="Avčavaggi" />
		<tag k="place" v="locality" />
		<tag k="ssr:stedsnr" v="384546" />
	</node>
	<node lat="69.53290278132597" lon="17.774616667210434" id="-46227">
		<tag k="name" v="Nattmålshaugen" />
		<tag k="natural" v="hill" />
		<tag k="place" v="locality" />
		<tag k="ssr:stedsnr" v="412137" />
	</node>
	<node lat="69.5622027742223" lon="17.562794430893668" id="-46228">
		<tag k="name" v="Skaret" />
		<tag k="natural" v="valley" />
		<tag k="place" v="locality" />
		<tag k="ssr:stedsnr" v="412149" />
	</node>
	<node lat="69.49229167051584" lon="17.912344449411794" id="-46229">
		<tag k="name" v="Lanesdalen" />
		<tag k="natural" v="valley" />
		<tag k="place" v="locality" />
		<tag k="ssr:stedsnr" v="412306" />
	</node>
	<node lat="69.4787750008173" lon="17.888266670978062" id="-46233">
		<tag k="name" v="Svartberget" />
		<tag k="natural" v="hill" />
		<tag k="place" v="locality" />
		<tag k="ssr:stedsnr" v="412301" />
	</node>
	<node lat="69.34492500166506" lon="17.927227784601264" id="-46234">
		<tag k="name" v="Syrhaugen" />
		<tag k="natural" v="hill" />
		<tag k="place" v="locality" />
		<tag k="ssr:stedsnr" v="412508" />
	</node>
	<node lat="69.27777222266315" lon="17.998869440755232" id="-46235">
		<tag k="name" v="Hesjebakkan" />
		<tag k="natural" v="slope" />
		<tag k="place" v="locality" />
		<tag k="ssr:stedsnr" v="412601" />
	</node>
	<node lat="69.38888889049102" lon="17.941786097022533" id="-46239">
		<tag k="name" v="Rundhaugen" />
		<tag k="natural" v="hill" />
		<tag k="place" v="locality" />
		<tag k="ssr:stedsnr" v="412810" />
	</node>
	<node lat="69.49829721774452" lon="17.83915000297016" id="-46241">
		<tag k="name" v="Blomdalen" />
		<tag k="natural" v="valley" />
		<tag k="place" v="locality" />
		<tag k="ssr:stedsnr" v="412738" />
	</node>
	<node lat="69.40476944761295" lon="18.22962498487662" id="-46245">
		<tag k="name" v="Hesjelia" />
		<tag k="natural" v="slope" />
		<tag k="place" v="locality" />
		<tag k="ssr:stedsnr" v="413886" />
	</node>
	<node lat="69.21505277734771" lon="18.08189445246081" id="-46247">
		<tag k="name" v="Skjellhågen" />
		<tag k="natural" v="hill" />
		<tag k="place" v="locality" />
		<tag k="ssr:stedsnr" v="414511" />
	</node>
	<node lat="69.22247222598467" lon="18.10355277254156" id="-46250">
		<tag k="name" v="Åsbakkan" />
		<tag k="natural" v="slope" />
		<tag k="place" v="locality" />
		<tag k="ssr:stedsnr" v="414500" />
	</node>
	<node lat="69.24983611079038" lon="18.11435554782081" id="-46251">
		<tag k="name" v="Kråksølvberget" />
		<tag k="natural" v="hill" />
		<tag k="place" v="locality" />
		<tag k="ssr:stedsnr" v="414604" />
	</node>
	<node lat="69.30628888921375" lon="18.030000008235184" id="-46253">
		<tag k="name" v="Kovan" />
		<tag k="natural" v="slope" />
		<tag k="place" v="locality" />
		<tag k="ssr:stedsnr" v="414635" />
	</node>
	<node lat="69.26688611313128" lon="18.155183343241983" id="-46255">
		<tag k="name" v="Svartbergan" />
		<tag k="natural" v="hill" />
		<tag k="place" v="locality" />
		<tag k="ssr:stedsnr" v="414588" />
	</node>
	<node lat="69.24384999973918" lon="18.053830549909343" id="-46256">
		<tag k="name" v="Mellalia" />
		<tag k="natural" v="slope" />
		<tag k="place" v="locality" />
		<tag k="ssr:stedsnr" v="414596" />
	</node>
	<node lat="69.30120000043497" lon="18.319252780687723" id="-46257">
		<tag k="fixme" v="consider natural=peak for the most distinct mountains in the district" />
		<tag k="name" v="Fagerfjellet" />
		<tag k="natural" v="hill" />
		<tag k="place" v="locality" />
		<tag k="ssr:stedsnr" v="414708" />
	</node>
	<node lat="69.46020555963494" lon="18.221833335993814" id="-46260">
		<tag k="name" v="Sørflaten" />
		<tag k="place" v="locality" />
		<tag k="ssr:stedsnr" v="414886" />
	</node>
	<node lat="69.26634444490568" lon="16.79252222270682" id="-46262">
		<tag k="name" v="Geitlia" />
		<tag k="natural" v="slope" />
		<tag k="place" v="locality" />
		<tag k="ssr:stedsnr" v="415135" />
	</node>
	<node lat="69.26620277623792" lon="16.798533338926116" id="-46264">
		<tag k="name" v="Reithågen" />
		<tag k="natural" v="hill" />
		<tag k="place" v="locality" />
		<tag k="ssr:stedsnr" v="415140" />
	</node>
	<node lat="69.2083499962678" lon="16.955347210588954" id="-46267">
		<tag k="name" v="Innerheia" />
		<tag k="natural" v="hill" />
		<tag k="place" v="locality" />
		<tag k="ssr:stedsnr" v="415237" />
	</node>
	<node lat="69.23370277625081" lon="16.937661101187924" id="-46268">
		<tag k="name" v="Storbakken" />
		<tag k="natural" v="slope" />
		<tag k="place" v="locality" />
		<tag k="ssr:stedsnr" v="415240" />
	</node>
	<node lat="69.14483889213288" lon="17.327152765769487" id="-46270">
		<tag k="fixme" v="consider natural=peak for the most distinct mountains in the district" />
		<tag k="name" v="Rødlifjellet" />
		<tag k="natural" v="hill" />
		<tag k="place" v="locality" />
		<tag k="ssr:stedsnr" v="415407" />
	</node>
	<node lat="69.14085555353866" lon="17.316380542420983" id="-46271">
		<tag k="name" v="Rybakken" />
		<tag k="natural" v="slope" />
		<tag k="place" v="locality" />
		<tag k="ssr:stedsnr" v="415409" />
	</node>
	<node lat="69.1608305582434" lon="17.65839721807006" id="-46273">
		<tag k="fixme" v="consider natural=peak for the most distinct mountains in the district" />
		<tag k="name" v="Bruna" />
		<tag k="natural" v="hill" />
		<tag k="place" v="locality" />
		<tag k="ssr:stedsnr" v="415576" />
	</node>
	<node lat="69.3676333348404" lon="17.179174988975518" id="-46275">
		<tag k="fixme" v="consider natural=peak for the most distinct mountains in the district" />
		<tag k="name" v="Nordtolen" />
		<tag k="natural" v="hill" />
		<tag k="place" v="locality" />
		<tag k="ssr:stedsnr" v="415689" />
	</node>
	<node lat="69.05791110874782" lon="16.787274996061214" id="-46276">
		<tag k="name" v="Vardhågen" />
		<tag k="natural" v="hill" />
		<tag k="place" v="locality" />
		<tag k="ssr:stedsnr" v="415820" />
	</node>
	<node lat="69.18370555824428" lon="17.840236098799924" id="-46279">
		<tag k="name" v="Bøttekjølpen" />
		<tag k="place" v="locality" />
		<tag k="ssr:stedsnr" v="415749" />
	</node>
	<node lat="69.34195832912681" lon="17.104516673890625" id="-46280">
		<tag k="name" v="Høgranen" />
		<tag k="natural" v="hill" />
		<tag k="place" v="locality" />
		<tag k="ssr:stedsnr" v="415786" />
	</node>
	<node lat="69.46499187345812" lon="17.24629214653872" id="-46282">
		<tag k="name" v="Ramslilegda" />
		<tag k="natural" v="slope" />
		<tag k="place" v="locality" />
		<tag k="ssr:stedsnr" v="416008" />
	</node>
	<node lat="69.46468055858685" lon="17.352352773746308" id="-46285">
		<tag k="name" v="Krøkebærlia" />
		<tag k="natural" v="slope" />
		<tag k="place" v="locality" />
		<tag k="ssr:stedsnr" v="416091" />
	</node>
	<node lat="69.47904721883556" lon="17.332911114852813" id="-46287">
		<tag k="name" v="Keilhaugen" />
		<tag k="natural" v="hill" />
		<tag k="place" v="locality" />
		<tag k="ssr:stedsnr" v="416242" />
	</node>
	<node lat="69.167838885732" lon="17.591394441750843" id="-46288">
		<tag k="name" v="Heggholla" />
		<tag k="natural" v="valley" />
		<tag k="place" v="locality" />
		<tag k="ssr:stedsnr" v="415985" />
	</node>
	<node lat="69.51224166299083" lon="17.36354167634626" id="-46290">
		<tag k="fixme" v="consider natural=peak for the most distinct mountains in the district" />
		<tag k="name" v="Hunden" />
		<tag k="natural" v="hill" />
		<tag k="place" v="locality" />
		<tag k="ssr:stedsnr" v="416185" />
	</node>
	<node lat="69.13476111102455" lon="17.092561112496956" id="-46291">
		<tag k="name" v="Nedre Hesjebakken" />
		<tag k="natural" v="slope" />
		<tag k="place" v="locality" />
		<tag k="ssr:stedsnr" v="416347" />
	</node>
	<node lat="69.04318055333555" lon="17.15807500870576" id="-46295">
		<tag k="name" v="Mellahågen" />
		<tag k="natural" v="hill" />
		<tag k="place" v="locality" />
		<tag k="ssr:stedsnr" v="416611" />
	</node>
	<node lat="69.03382500161865" lon="17.055105547840714" id="-46296">
		<tag k="name" v="Sørstehågen" />
		<tag k="natural" v="hill" />
		<tag k="place" v="locality" />
		<tag k="ssr:stedsnr" v="416618" />
	</node>
	<node lat="69.03490555165341" lon="17.191563891280143" id="-46298">
		<tag k="name" v="Sandbakken" />
		<tag k="natural" v="slope" />
		<tag k="place" v="locality" />
		<tag k="ssr:stedsnr" v="416637" />
	</node>
	<node lat="69.02438055899746" lon="17.217863898773267" id="-46299">
		<tag k="name" v="Vardhågen" />
		<tag k="natural" v="hill" />
		<tag k="place" v="locality" />
		<tag k="ssr:stedsnr" v="416373" />
	</node>
	<node lat="69.02306666370924" lon="17.178486108699662" id="-46301">
		<tag k="name" v="Varghågen" />
		<tag k="natural" v="hill" />
		<tag k="place" v="locality" />
		<tag k="ssr:stedsnr" v="416512" />
	</node>
	<node lat="69.28351666622747" lon="17.119119437977425" id="-46303">
		<tag k="name" v="Halldorlia" />
		<tag k="natural" v="slope" />
		<tag k="place" v="locality" />
		<tag k="ssr:stedsnr" v="416539" />
	</node>
	<node lat="69.07798888683463" lon="16.93701667420245" id="-46304">
		<tag k="name" v="Hesteskaret" />
		<tag k="natural" v="valley" />
		<tag k="place" v="locality" />
		<tag k="ssr:stedsnr" v="416540" />
	</node>
	<node lat="69.4914944445316" lon="17.226788886090308" id="-46305">
		<tag k="fixme" v="consider natural=peak for the most distinct mountains in the district" />
		<tag k="name" v="Skorven" />
		<tag k="natural" v="hill" />
		<tag k="place" v="locality" />
		<tag k="ssr:stedsnr" v="416544" />
	</node>
	<node lat="69.28706389095231" lon="17.11868611624173" id="-46306">
		<tag k="fixme" v="consider natural=peak for the most distinct mountains in the district" />
		<tag k="name" v="Åsfjellet" />
		<tag k="natural" v="hill" />
		<tag k="place" v="locality" />
		<tag k="ssr:stedsnr" v="416546" />
	</node>
	<node lat="69.04746110946124" lon="17.153905562739904" id="-46307">
		<tag k="name" v="Moen" />
		<tag k="place" v="locality" />
		<tag k="ssr:stedsnr" v="416591" />
	</node>
	<node lat="69.05933055765138" lon="17.14112500344871" id="-46308">
		<tag k="fixme" v="consider natural=peak for the most distinct mountains in the district" />
		<tag k="name" v="Bakfjellet" />
		<tag k="natural" v="hill" />
		<tag k="place" v="locality" />
		<tag k="ssr:stedsnr" v="416592" />
	</node>
	<node lat="69.06006388753697" lon="17.16118887581382" id="-46309">
		<tag k="name" v="Åsalia" />
		<tag k="natural" v="slope" />
		<tag k="place" v="locality" />
		<tag k="ssr:stedsnr" v="416594" />
	</node>
	<node lat="69.38180277635755" lon="17.101824999510555" id="-46312">
		<tag k="name" v="Litjemoan" />
		<tag k="place" v="locality" />
		<tag k="ssr:stedsnr" v="416690" />
	</node>
	<node lat="69.44355833173574" lon="17.424063896084096" id="-46316">
		<tag k="name" v="Steinbakken" />
		<tag k="natural" v="slope" />
		<tag k="place" v="locality" />
		<tag k="ssr:stedsnr" v="417615" />
	</node>
	<node lat="69.19689444053779" lon="17.623763896186645" id="-46317">
		<tag k="name" v="Vassbekken" />
		<tag k="natural" v="slope" />
		<tag k="place" v="locality" />
		<tag k="ssr:stedsnr" v="417642" />
	</node>
	<node lat="69.08053055302058" lon="16.909575006423363" id="-46323">
		<tag k="name" v="Kvanntobotn" />
		<tag k="natural" v="valley" />
		<tag k="place" v="locality" />
		<tag k="ssr:stedsnr" v="442040" />
	</node>
	<node lat="69.22981111183324" lon="17.161580558669247" id="-46325">
		<tag k="fixme" v="consider natural=peak for the most distinct mountains in the district" />
		<tag k="name" v="Heia" />
		<tag k="natural" v="hill" />
		<tag k="place" v="locality" />
		<tag k="ssr:stedsnr" v="442212" />
	</node>
	<node lat="69.10513055565755" lon="17.018719436058916" id="-46329">
		<tag k="name" v="Bjørnlia" />
		<tag k="natural" v="slope" />
		<tag k="place" v="locality" />
		<tag k="ssr:stedsnr" v="443104" />
	</node>
	<node lat="69.05301388746537" lon="17.110666657693542" id="-46331">
		<tag k="alt_name" v="Sæterhaugen" />
		<tag k="name" v="Sæterhågen" />
		<tag k="natural" v="hill" />
		<tag k="place" v="locality" />
		<tag k="ssr:stedsnr" v="443092" />
	</node>
	<node lat="69.15440000310852" lon="17.62883054258576" id="-46337">
		<tag k="fixme" v="consider natural=peak for the most distinct mountains in the district" />
		<tag k="name" v="Kvitfloget" />
		<tag k="natural" v="hill" />
		<tag k="place" v="locality" />
		<tag k="ssr:stedsnr" v="443302" />
	</node>
	<node lat="69.28523333759816" lon="16.96770555185604" id="-46342">
		<tag k="name" v="Strya" />
		<tag k="natural" v="hill" />
		<tag k="place" v="locality" />
		<tag k="ssr:stedsnr" v="443388" />
	</node>
	<node lat="69.4611722234281" lon="17.498091672450002" id="-46345">
		<tag k="fixme" v="consider natural=peak for the most distinct mountains in the district" />
		<tag k="name" v="Snaufjellet" />
		<tag k="natural" v="hill" />
		<tag k="place" v="locality" />
		<tag k="ssr:stedsnr" v="443502" />
	</node>
	<node lat="69.33131388799734" lon="17.563819429779066" id="-46346">
		<tag k="name" v="Riehppi" />
		<tag k="name:se" v="Riehppi" />
		<tag k="natural" v="valley" />
		<tag k="old_name:se" v="Rieppi" />
		<tag k="place" v="locality" />
		<tag k="ssr:stedsnr" v="443537" />
	</node>
	<node lat="69.5394611134814" lon="17.550961118038774" id="-46357">
		<tag k="alt_name" v="Kongan, yt;Ytre Kongan;Yste Kongen" />
		<tag k="fixme" v="consider natural=peak for the most distinct mountains in the district" />
		<tag k="name" v="Ytste Kongen" />
		<tag k="natural" v="hill" />
		<tag k="place" v="locality" />
		<tag k="ssr:stedsnr" v="443834" />
	</node>
	<node lat="69.43073215241317" lon="17.858516225733275" id="-46358">
		<tag k="fixme" v="consider natural=peak for the most distinct mountains in the district" />
		<tag k="name" v="Bukken - Buhkká" />
		<tag k="name:no" v="Bukken" />
		<tag k="name:se" v="Buhkká" />
		<tag k="natural" v="hill" />
		<tag k="old_name:se" v="Bukka" />
		<tag k="place" v="locality" />
		<tag k="ssr:stedsnr" v="445478" />
	</node>
	<node lat="69.30741111033893" lon="17.728891667086177" id="-46371">
		<tag k="name" v="Bákterápma" />
		<tag k="name:se" v="Bákterápma" />
		<tag k="place" v="locality" />
		<tag k="ssr:stedsnr" v="472620" />
	</node>
	<node lat="69.3116194447997" lon="17.71731110382863" id="-46372">
		<tag k="name" v="Tjyvdalen" />
		<tag k="natural" v="valley" />
		<tag k="place" v="locality" />
		<tag k="ssr:stedsnr" v="472621" />
	</node>
	<node lat="69.35018888774266" lon="17.92288055451522" id="-46374">
		<tag k="name" v="Asphaugen" />
		<tag k="natural" v="hill" />
		<tag k="place" v="locality" />
		<tag k="ssr:stedsnr" v="472571" />
	</node>
	<node lat="69.17512499674953" lon="17.892955557498716" id="-46376">
		<tag k="name" v="Dalen" />
		<tag k="natural" v="valley" />
		<tag k="place" v="locality" />
		<tag k="ssr:stedsnr" v="472721" />
	</node>
	<node lat="69.25460555426814" lon="17.910586108392323" id="-46378">
		<tag k="fixme" v="consider natural=peak for the most distinct mountains in the district" />
		<tag k="name" v="Åsan" />
		<tag k="natural" v="hill" />
		<tag k="place" v="locality" />
		<tag k="ssr:stedsnr" v="472867" />
	</node>
	<node lat="69.40309166462121" lon="17.884424999195566" id="-46379">
		<tag k="name" v="Reinlia" />
		<tag k="natural" v="slope" />
		<tag k="place" v="locality" />
		<tag k="ssr:stedsnr" v="472872" />
	</node>
	<node lat="69.37223333545776" lon="17.971058328975552" id="-46380">
		<tag k="fixme" v="consider natural=peak for the most distinct mountains in the district" />
		<tag k="name" v="Møllerfjellet" />
		<tag k="natural" v="hill" />
		<tag k="place" v="locality" />
		<tag k="ssr:stedsnr" v="472914" />
	</node>
	<node lat="69.41676944080793" lon="18.007688892328193" id="-46383">
		<tag k="name" v="Tjyvskaret" />
		<tag k="natural" v="valley" />
		<tag k="place" v="locality" />
		<tag k="ssr:stedsnr" v="473408" />
	</node>
	<node lat="69.50978055133427" lon="17.94227499610404" id="-46386">
		<tag k="name" v="Storlia" />
		<tag k="natural" v="slope" />
		<tag k="place" v="locality" />
		<tag k="ssr:stedsnr" v="473511" />
	</node>
	<node lat="69.24797778051723" lon="17.936794444180777" id="-46388">
		<tag k="name" v="Vasshaugbrottan" />
		<tag k="natural" v="hill" />
		<tag k="place" v="locality" />
		<tag k="ssr:stedsnr" v="473663" />
	</node>
	<node lat="69.29850555213707" lon="17.78591665083458" id="-46389">
		<tag k="name" v="Lammhaugen" />
		<tag k="natural" v="hill" />
		<tag k="place" v="locality" />
		<tag k="ssr:stedsnr" v="473672" />
	</node>
	<node lat="69.30015000028142" lon="18.033302772688437" id="-46392">
		<tag k="name" v="Leikneshaugen" />
		<tag k="natural" v="hill" />
		<tag k="place" v="locality" />
		<tag k="ssr:stedsnr" v="474663" />
	</node>
	<node lat="69.33892499957041" lon="18.093286119207146" id="-46393">
		<tag k="fixme" v="consider natural=peak for the most distinct mountains in the district" />
		<tag k="name" v="Ørntuva" />
		<tag k="natural" v="hill" />
		<tag k="place" v="locality" />
		<tag k="ssr:stedsnr" v="474675" />
	</node>
	<node lat="69.24644444771931" lon="18.214555556930655" id="-46394">
		<tag k="fixme" v="consider natural=peak for the most distinct mountains in the district" />
		<tag k="name" v="Fagerfjellet" />
		<tag k="natural" v="hill" />
		<tag k="place" v="locality" />
		<tag k="ssr:stedsnr" v="474711" />
	</node>
	<node lat="69.3878611086619" lon="18.313697212081887" id="-46395">
		<tag k="fixme" v="consider natural=peak for the most distinct mountains in the district" />
		<tag k="name" v="Tindlikollen" />
		<tag k="natural" v="hill" />
		<tag k="place" v="locality" />
		<tag k="ssr:stedsnr" v="474903" />
	</node>
	<node lat="69.40404722379603" lon="18.33722221747651" id="-46398">
		<tag k="name" v="Snelia" />
		<tag k="natural" v="slope" />
		<tag k="place" v="locality" />
		<tag k="ssr:stedsnr" v="474919" />
	</node>
	<node lat="69.2714222184548" lon="17.020322226931505" id="-46400">
		<tag k="name" v="Steggellia" />
		<tag k="natural" v="slope" />
		<tag k="place" v="locality" />
		<tag k="ssr:stedsnr" v="475302" />
	</node>
	<node lat="69.20541388761329" lon="16.897330561278338" id="-46402">
		<tag k="name" v="Hæsa" />
		<tag k="natural" v="slope" />
		<tag k="place" v="locality" />
		<tag k="ssr:stedsnr" v="475258" />
	</node>
	<node lat="69.27127500358884" lon="17.120041664986164" id="-46405">
		<tag k="name" v="Litjepallen" />
		<tag k="natural" v="hill" />
		<tag k="place" v="locality" />
		<tag k="ssr:stedsnr" v="475504" />
	</node>
	<node lat="69.05442221994238" lon="16.81617776679762" id="-46407">
		<tag k="name" v="Orrebakken" />
		<tag k="natural" v="slope" />
		<tag k="place" v="locality" />
		<tag k="ssr:stedsnr" v="475997" />
	</node>
	<node lat="69.07731944781797" lon="16.976066653975977" id="-46408">
		<tag k="name" v="Daumannen" />
		<tag k="natural" v="hill" />
		<tag k="place" v="locality" />
		<tag k="ssr:stedsnr" v="476630" />
	</node>
	<node lat="69.34361944637342" lon="17.079791659090652" id="-46409">
		<tag k="name" v="Dalebakken" />
		<tag k="natural" v="slope" />
		<tag k="place" v="locality" />
		<tag k="ssr:stedsnr" v="476633" />
	</node>
	<node lat="69.2073638896838" lon="17.55975276433725" id="-46412">
		<tag k="name" v="Kråa" />
		<tag k="natural" v="slope" />
		<tag k="place" v="locality" />
		<tag k="ssr:stedsnr" v="476563" />
	</node>
	<node lat="69.09269444137182" lon="17.009483342896534" id="-46414">
		<tag k="name" v="Karelsletta" />
		<tag k="place" v="locality" />
		<tag k="ssr:stedsnr" v="476579" />
	</node>
	<node lat="69.1707805533887" lon="17.76586389619354" id="-46417">
		<tag k="fixme" v="consider natural=peak for the most distinct mountains in the district" />
		<tag k="name" v="Åsen" />
		<tag k="natural" v="hill" />
		<tag k="place" v="locality" />
		<tag k="ssr:stedsnr" v="476758" />
	</node>
	<node lat="69.06620000121973" lon="16.835644450336314" id="-46419">
		<tag k="alt_name" v="Ørnflåget" />
		<tag k="name" v="Ørnfloget" />
		<tag k="natural" v="hill" />
		<tag k="place" v="locality" />
		<tag k="ssr:stedsnr" v="476946" />
	</node>
	<node lat="69.06099166547105" lon="16.82434723307321" id="-46420">
		<tag k="fixme" v="consider natural=peak for the most distinct mountains in the district" />
		<tag k="name" v="Vassfjellet" />
		<tag k="natural" v="hill" />
		<tag k="place" v="locality" />
		<tag k="ssr:stedsnr" v="476966" />
	</node>
	<node lat="69.22928055899409" lon="17.482836115307396" id="-46423">
		<tag k="fixme" v="consider natural=peak for the most distinct mountains in the district" />
		<tag k="name" v="Røyrmofjellet" />
		<tag k="natural" v="hill" />
		<tag k="place" v="locality" />
		<tag k="ssr:stedsnr" v="476877" />
	</node>
	<node lat="69.24396388773465" lon="17.674466653928146" id="-46425">
		<tag k="name" v="Djupholmmoen" />
		<tag k="place" v="locality" />
		<tag k="ssr:stedsnr" v="477702" />
	</node>
	<node lat="69.44540555799007" lon="17.4497249897245" id="-46426">
		<tag k="name" v="Smålikollen" />
		<tag k="natural" v="hill" />
		<tag k="place" v="locality" />
		<tag k="ssr:stedsnr" v="477602" />
	</node>
	<node lat="69.24960277685707" lon="17.561897223599058" id="-46428">
		<tag k="name" v="Plassfosstangen" />
		<tag k="natural" v="valley" />
		<tag k="place" v="locality" />
		<tag k="ssr:stedsnr" v="477673" />
	</node>
	<node lat="69.25933333650391" lon="17.56223611542712" id="-46429">
		<tag k="name" v="Storbergan" />
		<tag k="natural" v="hill" />
		<tag k="place" v="locality" />
		<tag k="ssr:stedsnr" v="477675" />
	</node>
	<node lat="69.45255555715981" lon="17.268436119329788" id="-46433">
		<tag k="name" v="Lyngbakken" />
		<tag k="natural" v="slope" />
		<tag k="place" v="locality" />
		<tag k="ssr:stedsnr" v="478263" />
	</node>
	<node lat="69.52553888995526" lon="17.39904722238984" id="-46434">
		<tag k="fixme" v="consider natural=peak for the most distinct mountains in the district" />
		<tag k="name" v="Galimannen" />
		<tag k="natural" v="hill" />
		<tag k="place" v="locality" />
		<tag k="ssr:stedsnr" v="479155" />
	</node>
	<node lat="69.14026388856817" lon="17.063805545637457" id="-46440">
		<tag k="name" v="Rovanholtan" />
		<tag k="natural" v="slope" />
		<tag k="place" v="locality" />
		<tag k="ssr:stedsnr" v="503171" />
	</node>
	<node lat="69.13650277653366" lon="17.07840555177683" id="-46441">
		<tag k="name" v="Vasskroken" />
		<tag k="natural" v="valley" />
		<tag k="place" v="locality" />
		<tag k="ssr:stedsnr" v="503173" />
	</node>
	<node lat="69.33852500271533" lon="17.079724996313534" id="-46443">
		<tag k="name" v="Måsaksla" />
		<tag k="natural" v="hill" />
		<tag k="place" v="locality" />
		<tag k="ssr:stedsnr" v="503309" />
	</node>
	<node lat="69.32224721822084" lon="17.028963892521542" id="-46445">
		<tag k="name" v="Inner-Spanhelldalen" />
		<tag k="natural" v="valley" />
		<tag k="place" v="locality" />
		<tag k="ssr:stedsnr" v="503404" />
	</node>
	<node lat="69.34606388929829" lon="17.37898054870092" id="-46452">
		<tag k="name" v="Lappedalen" />
		<tag k="natural" v="valley" />
		<tag k="place" v="locality" />
		<tag k="ssr:stedsnr" v="504305" />
	</node>
	<node lat="69.28495277666494" lon="17.098738876253318" id="-46457">
		<tag k="alt_name" v="Rødbergdalen" />
		<tag k="name" v="Rødbergsdalen" />
		<tag k="natural" v="valley" />
		<tag k="place" v="locality" />
		<tag k="ssr:stedsnr" v="504366" />
	</node>
	<node lat="69.52589999787597" lon="17.73786943668395" id="-46461">
		<tag k="fixme" v="consider natural=peak for the most distinct mountains in the district" />
		<tag k="name" v="Kyle" />
		<tag k="natural" v="hill" />
		<tag k="place" v="locality" />
		<tag k="ssr:stedsnr" v="504803" />
	</node>
	<node lat="69.27545000264848" lon="18.110149986525524" id="-46462">
		<tag k="fixme" v="consider natural=peak for the most distinct mountains in the district" />
		<tag k="name" v="Kvittinden" />
		<tag k="natural" v="hill" />
		<tag k="place" v="locality" />
		<tag k="ssr:stedsnr" v="504810" />
	</node>
	<node lat="69.50624444603973" lon="17.466463878273093" id="-46463">
		<tag k="fixme" v="consider natural=peak for the most distinct mountains in the district" />
		<tag k="name" v="Kyle" />
		<tag k="natural" v="hill" />
		<tag k="place" v="locality" />
		<tag k="ssr:stedsnr" v="504879" />
	</node>
	<node lat="69.1263027828426" lon="17.217752766457735" id="-46486">
		<tag k="name" v="Reinlian" />
		<tag k="natural" v="slope" />
		<tag k="place" v="locality" />
		<tag k="ssr:stedsnr" v="685192" />
	</node>
	<node lat="69.27098055908955" lon="17.155447233665914" id="-46489">
		<tag k="fixme" v="consider natural=peak for the most distinct mountains in the district" />
		<tag k="name" v="Småtindnebbet" />
		<tag k="natural" v="hill" />
		<tag k="place" v="locality" />
		<tag k="ssr:stedsnr" v="685376" />
	</node>
	<node lat="69.40013889117428" lon="17.78401388391977" id="-46492">
		<tag k="name" v="Lappegamhaugan" />
		<tag k="natural" v="hill" />
		<tag k="place" v="locality" />
		<tag k="ssr:stedsnr" v="685480" />
	</node>
	<node lat="69.20864722230021" lon="18.103397214799465" id="-46497">
		<tag k="fixme" v="consider natural=peak for the most distinct mountains in the district" />
		<tag k="name" v="Høgholtet" />
		<tag k="natural" v="hill" />
		<tag k="place" v="locality" />
		<tag k="ssr:stedsnr" v="685687" />
	</node>
	<node lat="69.36225833061242" lon="16.98234722576951" id="-46507">
		<tag k="fixme" v="consider natural=peak for the most distinct mountains in the district" />
		<tag k="name" v="Hovda" />
		<tag k="natural" v="hill" />
		<tag k="place" v="locality" />
		<tag k="ssr:stedsnr" v="686292" />
	</node>
	<node lat="69.36324444438222" lon="17.299300008035" id="-46510">
		<tag k="fixme" v="consider natural=peak for the most distinct mountains in the district" />
		<tag k="name" v="Bardstinden" />
		<tag k="natural" v="hill" />
		<tag k="place" v="locality" />
		<tag k="ssr:stedsnr" v="686298" />
	</node>
	<node lat="69.3481611104364" lon="17.042388896296753" id="-46511">
		<tag k="name" v="Torskelian" />
		<tag k="natural" v="slope" />
		<tag k="place" v="locality" />
		<tag k="ssr:stedsnr" v="686301" />
	</node>
	<node lat="69.39759166992201" lon="17.159924991038316" id="-46512">
		<tag k="alt_name" v="Hellandstinden" />
		<tag k="fixme" v="consider natural=peak for the most distinct mountains in the district" />
		<tag k="name" v="Helland" />
		<tag k="natural" v="hill" />
		<tag k="old_name" v="Hellan" />
		<tag k="place" v="locality" />
		<tag k="ssr:stedsnr" v="686330" />
	</node>
	<node lat="69.45441388697382" lon="17.98393887605149" id="-46516">
		<tag k="name" v="Kleiva" />
		<tag k="natural" v="slope" />
		<tag k="place" v="locality" />
		<tag k="ssr:stedsnr" v="533313" />
	</node>
	<node lat="69.40673611269928" lon="17.781058336528023" id="-46520">
		<tag k="name" v="Hestelia" />
		<tag k="natural" v="slope" />
		<tag k="place" v="locality" />
		<tag k="ssr:stedsnr" v="533223" />
	</node>
	<node lat="69.50617222344192" lon="17.892233328624002" id="-46524">
		<tag k="name" v="Grønnlia" />
		<tag k="natural" v="slope" />
		<tag k="place" v="locality" />
		<tag k="ssr:stedsnr" v="533620" />
	</node>
	<node lat="69.29942500363683" lon="17.764538876319293" id="-46525">
		<tag k="name" v="Mølnbakken" />
		<tag k="natural" v="slope" />
		<tag k="place" v="locality" />
		<tag k="ssr:stedsnr" v="533671" />
	</node>
	<node lat="69.29215000218805" lon="17.76920276780314" id="-46526">
		<tag k="name" v="Olderbakken" />
		<tag k="natural" v="slope" />
		<tag k="place" v="locality" />
		<tag k="ssr:stedsnr" v="533672" />
	</node>
	<node lat="69.3001416632361" lon="17.76686665903354" id="-46527">
		<tag k="name" v="Blåbærlia" />
		<tag k="natural" v="slope" />
		<tag k="place" v="locality" />
		<tag k="ssr:stedsnr" v="533673" />
	</node>
	<node lat="69.49532500400026" lon="18.02954722508695" id="-46528">
		<tag k="name" v="Skårliaksla" />
		<tag k="place" v="locality" />
		<tag k="ssr:stedsnr" v="533678" />
	</node>
	<node lat="69.59496666508002" lon="17.82013610358822" id="-46531">
		<tag k="name" v="Skarvberget" />
		<tag k="natural" v="hill" />
		<tag k="place" v="locality" />
		<tag k="ssr:stedsnr" v="533708" />
	</node>
	<node lat="69.4071222209056" lon="18.00731665116724" id="-46532">
		<tag k="name" v="Merkhaugen" />
		<tag k="natural" v="hill" />
		<tag k="place" v="locality" />
		<tag k="ssr:stedsnr" v="533710" />
	</node>
	<node lat="69.3947555521409" lon="17.99203054463205" id="-46533">
		<tag k="name" v="Vasslia" />
		<tag k="natural" v="slope" />
		<tag k="place" v="locality" />
		<tag k="ssr:stedsnr" v="533714" />
	</node>
	<node lat="69.22385833407216" lon="17.79562498965516" id="-46537">
		<tag k="name" v="Stengselhaugen" />
		<tag k="natural" v="hill" />
		<tag k="place" v="locality" />
		<tag k="ssr:stedsnr" v="686406" />
	</node>
	<node lat="69.24632222499416" lon="17.9252944545579" id="-46540">
		<tag k="name" v="Vasshaugbrottan" />
		<tag k="natural" v="hill" />
		<tag k="place" v="locality" />
		<tag k="ssr:stedsnr" v="533968" />
	</node>
	<node lat="69.24562500312672" lon="17.76741945239126" id="-46544">
		<tag k="alt_name" v="Grønnlikollen" />
		<tag k="name" v="Grønlihaugen" />
		<tag k="natural" v="hill" />
		<tag k="place" v="locality" />
		<tag k="ssr:stedsnr" v="686429" />
	</node>
	<node lat="69.28733611013116" lon="17.09282777163646" id="-46545">
		<tag k="fixme" v="consider natural=peak for the most distinct mountains in the district" />
		<tag k="name" v="Høgtinden" />
		<tag k="natural" v="hill" />
		<tag k="place" v="locality" />
		<tag k="ssr:stedsnr" v="686430" />
	</node>
	<node lat="69.47174722475376" lon="17.974980542604424" id="-46547">
		<tag k="name" v="Skarsvåghøgda" />
		<tag k="natural" v="hill" />
		<tag k="place" v="locality" />
		<tag k="ssr:stedsnr" v="534313" />
	</node>
	<node lat="69.44922499949601" lon="17.751838875291103" id="-46552">
		<tag k="name" v="Stordalen" />
		<tag k="natural" v="valley" />
		<tag k="place" v="locality" />
		<tag k="ssr:stedsnr" v="686462" />
	</node>
	<node lat="69.42906944252954" lon="17.898280540728262" id="-46553">
		<tag k="name" v="Litjekollen" />
		<tag k="natural" v="hill" />
		<tag k="place" v="locality" />
		<tag k="ssr:stedsnr" v="686464" />
	</node>
	<node lat="69.42937777440352" lon="17.948880555786957" id="-46554">
		<tag k="name" v="Lysbotn" />
		<tag k="natural" v="valley" />
		<tag k="place" v="locality" />
		<tag k="ssr:stedsnr" v="686466" />
	</node>
	<node lat="69.53753888956832" lon="17.81446111368022" id="-46555">
		<tag k="name" v="Norddalen" />
		<tag k="natural" v="valley" />
		<tag k="place" v="locality" />
		<tag k="ssr:stedsnr" v="534874" />
	</node>
	<node lat="69.43262777807308" lon="17.57307500361753" id="-46557">
		<tag k="fixme" v="consider natural=peak for the most distinct mountains in the district" />
		<tag k="name" v="Hestpiken" />
		<tag k="natural" v="hill" />
		<tag k="place" v="locality" />
		<tag k="ssr:stedsnr" v="686477" />
	</node>
	<node lat="69.38739166372005" lon="18.30547776739847" id="-46560">
		<tag k="name" v="Tindlia" />
		<tag k="natural" v="slope" />
		<tag k="place" v="locality" />
		<tag k="ssr:stedsnr" v="535913" />
	</node>
	<node lat="69.46109166466898" lon="18.301675004675456" id="-46561">
		<tag k="name" v="Reindalen" />
		<tag k="natural" v="valley" />
		<tag k="place" v="locality" />
		<tag k="ssr:stedsnr" v="535924" />
	</node>
	<node lat="69.41961388855522" lon="17.47693889650409" id="-46562">
		<tag k="fixme" v="consider natural=peak for the most distinct mountains in the district" />
		<tag k="name" v="Motind" />
		<tag k="natural" v="hill" />
		<tag k="place" v="locality" />
		<tag k="ssr:stedsnr" v="686527" />
	</node>
	<node lat="69.3122611103051" lon="18.031694447661703" id="-46564">
		<tag k="name" v="Orrebergan" />
		<tag k="natural" v="hill" />
		<tag k="place" v="locality" />
		<tag k="ssr:stedsnr" v="535617" />
	</node>
	<node lat="69.46349444263242" lon="18.155908327948893" id="-46568">
		<tag k="name" v="Rødberget" />
		<tag k="natural" v="hill" />
		<tag k="place" v="locality" />
		<tag k="ssr:stedsnr" v="535677" />
	</node>
	<node lat="69.23365833298617" lon="18.197677773466022" id="-46569">
		<tag k="name" v="Høglibergan" />
		<tag k="natural" v="hill" />
		<tag k="place" v="locality" />
		<tag k="ssr:stedsnr" v="535683" />
	</node>
	<node lat="69.40393055911483" lon="18.356713888415438" id="-46570">
		<tag k="name" v="Vikaberget" />
		<tag k="natural" v="hill" />
		<tag k="place" v="locality" />
		<tag k="ssr:stedsnr" v="535808" />
	</node>
	<node lat="69.32210277497103" lon="18.37250554323366" id="-46571">
		<tag k="name" v="Holmelalia" />
		<tag k="natural" v="slope" />
		<tag k="place" v="locality" />
		<tag k="ssr:stedsnr" v="535817" />
	</node>
	<node lat="69.4221499981946" lon="18.183927775472004" id="-46573">
		<tag k="fixme" v="consider natural=peak for the most distinct mountains in the district" />
		<tag k="name" v="Liskarfjellet" />
		<tag k="natural" v="hill" />
		<tag k="place" v="locality" />
		<tag k="ssr:stedsnr" v="686652" />
	</node>
	<node lat="69.21095833019442" lon="16.952408325502837" id="-46574">
		<tag k="name" v="Ytterheia" />
		<tag k="natural" v="hill" />
		<tag k="place" v="locality" />
		<tag k="ssr:stedsnr" v="536204" />
	</node>
	<node lat="69.20696944305824" lon="16.94023054502117" id="-46575">
		<tag k="name" v="Tobbesletta" />
		<tag k="place" v="locality" />
		<tag k="ssr:stedsnr" v="536269" />
	</node>
	<node lat="69.36922222078972" lon="18.285019429290234" id="-46577">
		<tag k="name" v="Høgda" />
		<tag k="natural" v="hill" />
		<tag k="place" v="locality" />
		<tag k="ssr:stedsnr" v="535971" />
	</node>
	<node lat="69.47160277395045" lon="18.289047223808684" id="-46579">
		<tag k="name" v="Mølnholtet" />
		<tag k="natural" v="slope" />
		<tag k="place" v="locality" />
		<tag k="ssr:stedsnr" v="535978" />
	</node>
	<node lat="69.08068611141431" lon="17.03492221686518" id="-46584">
		<tag k="name" v="Høgda" />
		<tag k="natural" v="hill" />
		<tag k="place" v="locality" />
		<tag k="ssr:stedsnr" v="536612" />
	</node>
	<node lat="69.30600555768324" lon="17.477641655928302" id="-46589">
		<tag k="fixme" v="consider natural=peak for the most distinct mountains in the district" />
		<tag k="name" v="Svannova - Njuollabornjunni" />
		<tag k="name:no" v="Svannova" />
		<tag k="name:se" v="Njuollabornjunni" />
		<tag k="natural" v="hill" />
		<tag k="old_name:se" v="Njuollabårnjunni" />
		<tag k="place" v="locality" />
		<tag k="ssr:stedsnr" v="686578" />
	</node>
	<node lat="69.08662222441792" lon="16.787961115374024" id="-46591">
		<tag k="name" v="Varden" />
		<tag k="natural" v="hill" />
		<tag k="place" v="locality" />
		<tag k="ssr:stedsnr" v="536885" />
	</node>
	<node lat="69.06496110755059" lon="16.913061108627268" id="-46593">
		<tag k="name" v="Leirbakken" />
		<tag k="natural" v="slope" />
		<tag k="place" v="locality" />
		<tag k="ssr:stedsnr" v="536917" />
	</node>
	<node lat="69.2886944455873" lon="17.481911106312825" id="-46597">
		<tag k="name" v="Geađgevággi" />
		<tag k="name:se" v="Geađgevággi" />
		<tag k="natural" v="valley" />
		<tag k="old_name:se" v="Gæđgevaggi" />
		<tag k="place" v="locality" />
		<tag k="ssr:stedsnr" v="686620" />
	</node>
	<node lat="69.08256666423362" lon="17.056966667522524" id="-46598">
		<tag k="name" v="Saudalen" />
		<tag k="natural" v="valley" />
		<tag k="place" v="locality" />
		<tag k="ssr:stedsnr" v="537274" />
	</node>
	<node lat="69.0935249977627" lon="17.080630556574654" id="-46599">
		<tag k="name" v="Trollvassmarka" />
		<tag k="place" v="locality" />
		<tag k="ssr:stedsnr" v="537287" />
	</node>
	<node lat="69.16375833577125" lon="17.07124721467926" id="-46600">
		<tag k="name" v="Skredan" />
		<tag k="natural" v="slope" />
		<tag k="place" v="locality" />
		<tag k="ssr:stedsnr" v="537403" />
	</node>
	<node lat="69.396797219448" lon="16.9416138988632" id="-46602">
		<tag k="name" v="Stølan" />
		<tag k="place" v="locality" />
		<tag k="ssr:stedsnr" v="537424" />
	</node>
	<node lat="69.26623055482978" lon="17.89462499868713" id="-46603">
		<tag k="name" v="Botnlia" />
		<tag k="natural" v="slope" />
		<tag k="place" v="locality" />
		<tag k="ssr:stedsnr" v="686629" />
	</node>
	<node lat="69.22924166515783" lon="17.59881665362576" id="-46609">
		<tag k="name" v="Rabben" />
		<tag k="natural" v="hill" />
		<tag k="place" v="locality" />
		<tag k="ssr:stedsnr" v="537519" />
	</node>
	<node lat="69.01883055307508" lon="17.09869723160784" id="-46610">
		<tag k="fixme" v="consider natural=peak for the most distinct mountains in the district" />
		<tag k="name" v="Eineryholtan" />
		<tag k="natural" v="hill" />
		<tag k="place" v="locality" />
		<tag k="ssr:stedsnr" v="537521" />
	</node>
	<node lat="69.09956666768831" lon="17.038336112240355" id="-46611">
		<tag k="name" v="Kvannhollen" />
		<tag k="natural" v="slope" />
		<tag k="place" v="locality" />
		<tag k="ssr:stedsnr" v="537569" />
	</node>
	<node lat="69.21451111022611" lon="17.645750001322103" id="-46612">
		<tag k="name" v="Gammel-Larsholla" />
		<tag k="natural" v="valley" />
		<tag k="place" v="locality" />
		<tag k="ssr:stedsnr" v="537581" />
	</node>
	<node lat="69.46367222306665" lon="18.315358336582413" id="-46617">
		<tag k="fixme" v="consider natural=peak for the most distinct mountains in the district" />
		<tag k="name" v="Ryggan" />
		<tag k="natural" v="hill" />
		<tag k="place" v="locality" />
		<tag k="ssr:stedsnr" v="686635" />
	</node>
	<node lat="69.06180277746749" lon="17.16143611707265" id="-46624">
		<tag k="name" v="Anfinnjorddalen" />
		<tag k="natural" v="valley" />
		<tag k="place" v="locality" />
		<tag k="ssr:stedsnr" v="537613" />
	</node>
	<node lat="69.34936944203335" lon="17.188033320180303" id="-46625">
		<tag k="name" v="Disken" />
		<tag k="place" v="locality" />
		<tag k="ssr:stedsnr" v="537616" />
	</node>
	<node lat="69.05344999962051" lon="17.077205544023926" id="-46628">
		<tag k="name" v="Lebakken" />
		<tag k="natural" v="slope" />
		<tag k="place" v="locality" />
		<tag k="ssr:stedsnr" v="537674" />
	</node>
	<node lat="69.37293610977942" lon="17.114283338615518" id="-46629">
		<tag k="name" v="Storbakken" />
		<tag k="natural" v="slope" />
		<tag k="place" v="locality" />
		<tag k="ssr:stedsnr" v="537679" />
	</node>
	<node lat="69.16572500395323" lon="17.701605565235358" id="-46630">
		<tag k="name" v="Bjørnskottholla" />
		<tag k="natural" v="valley" />
		<tag k="place" v="locality" />
		<tag k="ssr:stedsnr" v="537681" />
	</node>
	<node lat="69.36957777646319" lon="17.063708321360828" id="-46631">
		<tag k="name" v="Einehaugen" />
		<tag k="natural" v="hill" />
		<tag k="place" v="locality" />
		<tag k="ssr:stedsnr" v="537683" />
	</node>
	<node lat="69.52689722431768" lon="17.33310833506551" id="-46634">
		<tag k="name" v="Stavskaret" />
		<tag k="natural" v="valley" />
		<tag k="place" v="locality" />
		<tag k="ssr:stedsnr" v="538117" />
	</node>
	<node lat="69.50080555330666" lon="17.743322230648445" id="-46635">
		<tag k="fixme" v="consider natural=peak for the most distinct mountains in the district" />
		<tag k="name" v="Tarbergkollen" />
		<tag k="natural" v="hill" />
		<tag k="place" v="locality" />
		<tag k="ssr:stedsnr" v="686668" />
	</node>
	<node lat="69.39372778104838" lon="17.357902789416592" id="-46639">
		<tag k="loc_name:se" v="Liespároaivi" />
		<tag k="name" v="Nedre Lesbervatnhaugen" />
		<tag k="name:no" v="Nedre Lesbervatnhaugen" />
		<tag k="natural" v="hill" />
		<tag k="place" v="locality" />
		<tag k="ssr:stedsnr" v="538383" />
	</node>
	<node lat="69.18344166453484" lon="17.74642499253358" id="-46642">
		<tag k="name" v="Butten" />
		<tag k="natural" v="slope" />
		<tag k="place" v="locality" />
		<tag k="ssr:stedsnr" v="538672" />
	</node>
	<node lat="69.46101388991903" lon="17.580466675616023" id="-46647">
		<tag k="name" v="Hestesletta" />
		<tag k="place" v="locality" />
		<tag k="ssr:stedsnr" v="539238" />
	</node>
	<node lat="69.32554166547855" lon="18.479447224135424" id="-46650">
		<tag k="name" v="Sandnesdalen" />
		<tag k="natural" v="valley" />
		<tag k="place" v="locality" />
		<tag k="ssr:stedsnr" v="686775" />
	</node>
	<node lat="69.42732500397283" lon="17.46170277175163" id="-46661">
		<tag k="name" v="Moseranda" />
		<tag k="natural" v="slope" />
		<tag k="place" v="locality" />
		<tag k="ssr:stedsnr" v="540116" />
	</node>
	<node lat="69.51063889133619" lon="17.476797226468104" id="-46662">
		<tag k="name" v="Tindbudalen" />
		<tag k="natural" v="valley" />
		<tag k="place" v="locality" />
		<tag k="ssr:stedsnr" v="540226" />
	</node>
	<node lat="69.54809444033742" lon="17.897647214049286" id="-46663">
		<tag k="fixme" v="consider natural=peak for the most distinct mountains in the district" />
		<tag k="name" v="Litjefjellet" />
		<tag k="natural" v="hill" />
		<tag k="place" v="locality" />
		<tag k="ssr:stedsnr" v="686856" />
	</node>
	<node lat="69.31179444104725" lon="17.80057500022947" id="-46664">
		<tag k="alt_name" v="Bergerap;Bergrapet" />
		<tag k="name" v="Bergerapet" />
		<tag k="natural" v="cliff" />
		<tag k="ssr:stedsnr" v="688247" />
	</node>
	<node lat="69.26404166859983" lon="17.281988890619214" id="-46667">
		<tag k="name" v="Tverrdalen - Doaresvággi" />
		<tag k="name:no" v="Tverrdalen" />
		<tag k="name:se" v="Doaresvággi" />
		<tag k="natural" v="valley" />
		<tag k="old_name:se" v="Doaresvaggi" />
		<tag k="place" v="locality" />
		<tag k="ssr:stedsnr" v="564411" />
	</node>
	<node lat="69.32058333238959" lon="17.041849994247364" id="-46671">
		<tag k="fixme" v="consider natural=peak for the most distinct mountains in the district" />
		<tag k="name" v="Tetinden" />
		<tag k="natural" v="hill" />
		<tag k="place" v="locality" />
		<tag k="ssr:stedsnr" v="564423" />
	</node>
	<node lat="69.31842777799038" lon="16.91894444483507" id="-46673">
		<tag k="name" v="Bratteberget" />
		<tag k="natural" v="hill" />
		<tag k="place" v="locality" />
		<tag k="ssr:stedsnr" v="564428" />
	</node>
	<node lat="69.2493916707298" lon="17.613705561944503" id="-46675">
		<tag k="name" v="Kuskemoen" />
		<tag k="place" v="locality" />
		<tag k="ssr:stedsnr" v="564435" />
	</node>
	<node lat="69.29134444192583" lon="17.068774991083345" id="-46676">
		<tag k="fixme" v="consider natural=peak for the most distinct mountains in the district" />
		<tag k="name" v="Medbyfjellet" />
		<tag k="natural" v="hill" />
		<tag k="place" v="locality" />
		<tag k="ssr:stedsnr" v="564438" />
	</node>
	<node lat="69.28412777701219" lon="17.102719444246958" id="-46677">
		<tag k="name" v="Rishågen" />
		<tag k="natural" v="hill" />
		<tag k="place" v="locality" />
		<tag k="ssr:stedsnr" v="564439" />
	</node>
	<node lat="69.2967527778647" lon="17.17323332142431" id="-46678">
		<tag k="alt_name" v="Høvret" />
		<tag k="fixme" v="consider natural=peak for the most distinct mountains in the district" />
		<tag k="name" v="Høvre" />
		<tag k="natural" v="hill" />
		<tag k="place" v="locality" />
		<tag k="ssr:stedsnr" v="564440" />
	</node>
	<node lat="69.37531667060361" lon="17.07241943345075" id="-46680">
		<tag k="name" v="Reålskaret" />
		<tag k="natural" v="valley" />
		<tag k="place" v="locality" />
		<tag k="ssr:stedsnr" v="564372" />
	</node>
	<node lat="69.26913333226204" lon="17.853524989710532" id="-46691">
		<tag k="fixme" v="consider natural=peak for the most distinct mountains in the district" />
		<tag k="name" v="Litjkollen" />
		<tag k="natural" v="hill" />
		<tag k="place" v="locality" />
		<tag k="ssr:stedsnr" v="564612" />
	</node>
	<node lat="69.53582777789084" lon="17.853769432515122" id="-46694">
		<tag k="fixme" v="consider natural=peak for the most distinct mountains in the district" />
		<tag k="name" v="Kvannaksla" />
		<tag k="natural" v="hill" />
		<tag k="place" v="locality" />
		<tag k="ssr:stedsnr" v="564823" />
	</node>
	<node lat="69.57939444846838" lon="17.67431943210925" id="-46696">
		<tag k="alt_name" v="Arnbåtidan" />
		<tag k="fixme" v="consider natural=peak for the most distinct mountains in the district" />
		<tag k="name" v="Arnhågtindan" />
		<tag k="natural" v="hill" />
		<tag k="place" v="locality" />
		<tag k="ssr:stedsnr" v="564771" />
	</node>
	<node lat="69.32670277812103" lon="18.328688873923582" id="-46697">
		<tag k="alt_name" v="Bjørnhaugen" />
		<tag k="name" v="Bjørnhågen" />
		<tag k="natural" v="hill" />
		<tag k="place" v="locality" />
		<tag k="ssr:stedsnr" v="564778" />
	</node>
	<node lat="69.48301666296784" lon="17.681819442851786" id="-46708">
		<tag k="name" v="Ørnfjorden" />
		<tag k="natural" v="valley" />
		<tag k="place" v="locality" />
		<tag k="ssr:stedsnr" v="574297" />
	</node>
	<node lat="69.52276388991572" lon="17.61748054870342" id="-46712">
		<tag k="name" v="Bjørnskarkollen" />
		<tag k="natural" v="hill" />
		<tag k="place" v="locality" />
		<tag k="ssr:stedsnr" v="696277" />
	</node>
	<node lat="69.5416333304875" lon="17.7477083418695" id="-46727">
		<tag k="name" v="Brunurlia" />
		<tag k="natural" v="slope" />
		<tag k="place" v="locality" />
		<tag k="ssr:stedsnr" v="593798" />
	</node>
	<node lat="69.20420277350114" lon="17.79267777426826" id="-46728">
		<tag k="name" v="Krøkebærhågen" />
		<tag k="natural" v="hill" />
		<tag k="place" v="locality" />
		<tag k="ssr:stedsnr" v="593952" />
	</node>
	<node lat="69.49823611258556" lon="17.650249989601182" id="-46729">
		<tag k="name" v="Yttersteinen" />
		<tag k="natural" v="hill" />
		<tag k="place" v="locality" />
		<tag k="ssr:stedsnr" v="594167" />
	</node>
	<node lat="69.53351944204564" lon="17.686211119246178" id="-46733">
		<tag k="name" v="Bjørnhaugen" />
		<tag k="natural" v="hill" />
		<tag k="place" v="locality" />
		<tag k="ssr:stedsnr" v="594258" />
	</node>
	<node lat="69.48901388622916" lon="17.78667777192495" id="-46734">
		<tag k="fixme" v="consider natural=peak for the most distinct mountains in the district" />
		<tag k="name" v="Sekstuva" />
		<tag k="natural" v="hill" />
		<tag k="place" v="locality" />
		<tag k="ssr:stedsnr" v="594355" />
	</node>
	<node lat="69.23440555990145" lon="17.88279444270634" id="-46735">
		<tag k="name" v="Forrhaugen" />
		<tag k="natural" v="hill" />
		<tag k="place" v="locality" />
		<tag k="ssr:stedsnr" v="594366" />
	</node>
	<node lat="69.1589249973325" lon="17.83085832629381" id="-46736">
		<tag k="name" v="Johannaberget" />
		<tag k="natural" v="hill" />
		<tag k="place" v="locality" />
		<tag k="ssr:stedsnr" v="594521" />
	</node>
	<node lat="69.59342221937663" lon="17.847891655565427" id="-46743">
		<tag k="name" v="Ragnehaugen" />
		<tag k="natural" v="hill" />
		<tag k="place" v="locality" />
		<tag k="ssr:stedsnr" v="594661" />
	</node>
	<node lat="69.54256389149931" lon="17.755269432115245" id="-46744">
		<tag k="name" v="Saltgrava" />
		<tag k="place" v="locality" />
		<tag k="ssr:stedsnr" v="594815" />
	</node>
	<node lat="69.19358888518981" lon="17.920783323892465" id="-46745">
		<tag k="name" v="Mellahågen" />
		<tag k="natural" v="hill" />
		<tag k="place" v="locality" />
		<tag k="ssr:stedsnr" v="594709" />
	</node>
	<node lat="69.18423611413407" lon="17.92861665918129" id="-46747">
		<tag k="name" v="Ørnhågen" />
		<tag k="natural" v="hill" />
		<tag k="place" v="locality" />
		<tag k="ssr:stedsnr" v="594713" />
	</node>
	<node lat="69.3191722254945" lon="18.33515555597937" id="-46750">
		<tag k="name" v="Tårnvasslia" />
		<tag k="natural" v="slope" />
		<tag k="place" v="locality" />
		<tag k="ssr:stedsnr" v="595707" />
	</node>
	<node lat="69.31714166613575" lon="18.06840556376158" id="-46752">
		<tag k="name" v="Bendjordlia" />
		<tag k="natural" v="slope" />
		<tag k="place" v="locality" />
		<tag k="ssr:stedsnr" v="595602" />
	</node>
	<node lat="69.41797500296724" lon="18.17794721260951" id="-46753">
		<tag k="name" v="Liskaret" />
		<tag k="natural" v="valley" />
		<tag k="place" v="locality" />
		<tag k="ssr:stedsnr" v="595661" />
	</node>
	<node lat="69.4324305528062" lon="18.29342778287109" id="-46754">
		<tag k="name" v="Sløykvasshågen" />
		<tag k="natural" v="hill" />
		<tag k="place" v="locality" />
		<tag k="ssr:stedsnr" v="595950" />
	</node>
	<node lat="69.53073333401224" lon="17.830611098577577" id="-46755">
		<tag k="fixme" v="consider natural=peak for the most distinct mountains in the district" />
		<tag k="name" v="Norddalsgavlen" />
		<tag k="natural" v="hill" />
		<tag k="place" v="locality" />
		<tag k="ssr:stedsnr" v="596000" />
	</node>
	<node lat="69.22546666585464" lon="18.093063889581707" id="-46756">
		<tag k="name" v="Frihaugan" />
		<tag k="natural" v="hill" />
		<tag k="place" v="locality" />
		<tag k="ssr:stedsnr" v="596415" />
	</node>
	<node lat="69.35511944416152" lon="18.352822229529973" id="-46760">
		<tag k="name" v="Straumslia" />
		<tag k="natural" v="slope" />
		<tag k="place" v="locality" />
		<tag k="ssr:stedsnr" v="596760" />
	</node>
	<node lat="69.36108055686488" lon="18.362927785609767" id="-46761">
		<tag k="name" v="Okseberget" />
		<tag k="natural" v="hill" />
		<tag k="place" v="locality" />
		<tag k="ssr:stedsnr" v="596764" />
	</node>
	<node lat="69.3370166655572" lon="18.47485832106179" id="-46762">
		<tag k="name" v="Nordfløya" />
		<tag k="natural" v="hill" />
		<tag k="place" v="locality" />
		<tag k="ssr:stedsnr" v="596814" />
	</node>
	<node lat="69.41624999699125" lon="18.350633340536533" id="-46763">
		<tag k="name" v="Hågen" />
		<tag k="natural" v="hill" />
		<tag k="place" v="locality" />
		<tag k="ssr:stedsnr" v="596863" />
	</node>
	<node lat="69.37339166854845" lon="18.321099994647856" id="-46764">
		<tag k="name" v="Einaren" />
		<tag k="place" v="locality" />
		<tag k="ssr:stedsnr" v="596967" />
	</node>
	<node lat="69.230186112794" lon="16.896952764867155" id="-46766">
		<tag k="name" v="Renna" />
		<tag k="natural" v="valley" />
		<tag k="place" v="locality" />
		<tag k="ssr:stedsnr" v="597256" />
	</node>
	<node lat="69.13169722134229" lon="16.981513876694148" id="-46772">
		<tag k="name" v="Ørnvikbotn" />
		<tag k="natural" v="valley" />
		<tag k="place" v="locality" />
		<tag k="ssr:stedsnr" v="597517" />
	</node>
	<node lat="69.3630361082797" lon="17.191933341338807" id="-46774">
		<tag k="fixme" v="consider natural=peak for the most distinct mountains in the district" />
		<tag k="name" v="Sydtolen" />
		<tag k="natural" v="hill" />
		<tag k="place" v="locality" />
		<tag k="ssr:stedsnr" v="597652" />
	</node>
	<node lat="69.05584166433164" lon="17.149463898775068" id="-46776">
		<tag k="name" v="Vedheggerhøgda" />
		<tag k="natural" v="hill" />
		<tag k="place" v="locality" />
		<tag k="ssr:stedsnr" v="597662" />
	</node>
	<node lat="69.06334444225331" lon="16.912266663548948" id="-46779">
		<tag k="name" v="Storbakken" />
		<tag k="natural" v="slope" />
		<tag k="place" v="locality" />
		<tag k="ssr:stedsnr" v="597922" />
	</node>
	<node lat="69.47397499823789" lon="17.35232221745299" id="-46782">
		<tag k="fixme" v="consider natural=peak for the most distinct mountains in the district" />
		<tag k="name" v="Ytterskåla" />
		<tag k="natural" v="hill" />
		<tag k="place" v="locality" />
		<tag k="ssr:stedsnr" v="598058" />
	</node>
	<node lat="69.4143722232832" lon="17.317463884283043" id="-46786">
		<tag k="name" v="Bjørnholla" />
		<tag k="natural" v="valley" />
		<tag k="place" v="locality" />
		<tag k="ssr:stedsnr" v="598510" />
	</node>
	<node lat="69.41528055226405" lon="17.30800554932209" id="-46787">
		<tag k="name" v="Smibakken" />
		<tag k="natural" v="slope" />
		<tag k="place" v="locality" />
		<tag k="ssr:stedsnr" v="598512" />
	</node>
	<node lat="69.2879444416507" lon="17.14756111121662" id="-46788">
		<tag k="name" v="Mosshamran" />
		<tag k="natural" v="hill" />
		<tag k="place" v="locality" />
		<tag k="ssr:stedsnr" v="598557" />
	</node>
	<node lat="69.29086388792145" lon="17.163641664050786" id="-46791">
		<tag k="fixme" v="consider natural=peak for the most distinct mountains in the district" />
		<tag k="name" v="Røyrkollen" />
		<tag k="natural" v="hill" />
		<tag k="place" v="locality" />
		<tag k="ssr:stedsnr" v="598567" />
	</node>
	<node lat="69.20643888886815" lon="17.668588876174308" id="-46793">
		<tag k="name" v="Øverlandet" />
		<tag k="natural" v="slope" />
		<tag k="place" v="locality" />
		<tag k="ssr:stedsnr" v="598607" />
	</node>
	<node lat="69.20449999898271" lon="17.673202769323694" id="-46794">
		<tag k="name" v="Austerlandet" />
		<tag k="natural" v="slope" />
		<tag k="place" v="locality" />
		<tag k="ssr:stedsnr" v="598608" />
	</node>
	<node lat="69.2672416699045" lon="17.637969435948804" id="-46795">
		<tag k="name" v="Litjelvbakken" />
		<tag k="natural" v="slope" />
		<tag k="place" v="locality" />
		<tag k="ssr:stedsnr" v="598609" />
	</node>
	<node lat="69.24702500305328" lon="17.591455553547203" id="-46797">
		<tag k="name" v="Sløkjedalen" />
		<tag k="natural" v="valley" />
		<tag k="place" v="locality" />
		<tag k="ssr:stedsnr" v="598648" />
	</node>
	<node lat="69.24078055567247" lon="17.58180277769749" id="-46798">
		<tag k="name" v="Vollhøgdslåka" />
		<tag k="natural" v="slope" />
		<tag k="place" v="locality" />
		<tag k="ssr:stedsnr" v="598650" />
	</node>
	<node lat="69.23985833458251" lon="17.586324990823492" id="-46799">
		<tag k="name" v="Steinrabben" />
		<tag k="natural" v="hill" />
		<tag k="place" v="locality" />
		<tag k="ssr:stedsnr" v="598651" />
	</node>
	<node lat="69.24403611519669" lon="17.66566944126194" id="-46800">
		<tag k="name" v="Litjevassbakken" />
		<tag k="natural" v="slope" />
		<tag k="place" v="locality" />
		<tag k="ssr:stedsnr" v="598664" />
	</node>
	<node lat="69.23867777675879" lon="17.648819432441865" id="-46801">
		<tag k="name" v="Rundmoen" />
		<tag k="place" v="locality" />
		<tag k="ssr:stedsnr" v="598667" />
	</node>
	<node lat="69.44565277672346" lon="17.350463895794753" id="-46803">
		<tag k="name" v="Sommerrabben" />
		<tag k="natural" v="hill" />
		<tag k="place" v="locality" />
		<tag k="ssr:stedsnr" v="598761" />
	</node>
	<node lat="69.07376666359727" lon="16.85386943436498" id="-46811">
		<tag k="fixme" v="consider natural=peak for the most distinct mountains in the district" />
		<tag k="name" v="Sørtuva" />
		<tag k="natural" v="hill" />
		<tag k="place" v="locality" />
		<tag k="ssr:stedsnr" v="624006" />
	</node>
	<node lat="69.06701110911435" lon="16.886080561546713" id="-46812">
		<tag k="name" v="Jorddalen" />
		<tag k="natural" v="valley" />
		<tag k="place" v="locality" />
		<tag k="ssr:stedsnr" v="624013" />
	</node>
	<node lat="69.00863055876485" lon="17.0897638780666" id="-46813">
		<tag k="name" v="Storklubben" />
		<tag k="natural" v="hill" />
		<tag k="place" v="locality" />
		<tag k="ssr:stedsnr" v="624107" />
	</node>
	<node lat="69.05021944825967" lon="17.14201667337038" id="-46814">
		<tag k="name" v="Halsekråa" />
		<tag k="natural" v="valley" />
		<tag k="place" v="locality" />
		<tag k="ssr:stedsnr" v="624110" />
	</node>
	<node lat="69.32104166818765" lon="17.016041656398205" id="-46818">
		<tag k="fixme" v="consider natural=peak for the most distinct mountains in the district" />
		<tag k="name" v="Kauren" />
		<tag k="natural" v="hill" />
		<tag k="place" v="locality" />
		<tag k="ssr:stedsnr" v="624421" />
	</node>
	<node lat="69.18852778006608" lon="17.07997778680488" id="-46819">
		<tag k="alt_name" v="Salberget, store" />
		<tag k="name" v="Storsalberget" />
		<tag k="natural" v="hill" />
		<tag k="place" v="locality" />
		<tag k="ssr:stedsnr" v="624181" />
	</node>
</osm>
