<?xml version="1.0" encoding="UTF-8"?>
<osm version="0.6" generator="osmapis">
	<node lat="69.49976667121928" lon="17.66453610048675" id="-37686">
		<tag k="fixme" v="consider seamark:type=rock or natural=shoal" />
		<tag k="name" v="Kobbesteinan" />
		<tag k="place" v="islet" />
		<tag k="ssr:stedsnr" v="230170" />
	</node>
	<node lat="69.51548333669469" lon="17.63009166562098" id="-37691">
		<tag k="name" v="Purkenesvika" />
		<tag k="natural" v="bay" />
		<tag k="ssr:stedsnr" v="230217" />
	</node>
	<node lat="69.53863888986422" lon="17.677847229813235" id="-37694">
		<tag k="name" v="Urneset" />
		<tag k="natural" v="cape" />
		<tag k="ssr:stedsnr" v="230240" />
	</node>
	<node lat="69.50722222403415" lon="17.90961666798879" id="-37698">
		<tag k="fixme" v="consider seamark:type=rock or natural=shoal" />
		<tag k="name" v="Kobbeskjæret" />
		<tag k="place" v="islet" />
		<tag k="ssr:stedsnr" v="230467" />
	</node>
	<node lat="69.18404999593896" lon="17.986438885392207" id="-37701">
		<tag k="name" v="Brurknappen" />
		<tag k="natural" v="cape" />
		<tag k="ssr:stedsnr" v="230719" />
	</node>
	<node lat="69.05389444472651" lon="16.847877774602207" id="-37727">
		<tag k="name" v="Svendvika" />
		<tag k="natural" v="bay" />
		<tag k="ssr:stedsnr" v="232962" />
	</node>
	<node lat="69.0542611082075" lon="16.876044433808936" id="-37728">
		<tag k="name" v="Rotvikneset" />
		<tag k="natural" v="cape" />
		<tag k="ssr:stedsnr" v="232965" />
	</node>
	<node lat="69.02691388822855" lon="16.86319167605866" id="-37729">
		<tag k="name" v="Per-Olaiholmen" />
		<tag k="place" v="islet" />
		<tag k="ssr:stedsnr" v="232970" />
	</node>
	<node lat="69.07704166304174" lon="17.204286100171092" id="-37734">
		<tag k="name" v="Risøyneset" />
		<tag k="natural" v="cape" />
		<tag k="ssr:stedsnr" v="18013" />
	</node>
	<node lat="69.05662499890256" lon="16.905161113523636" id="-37736">
		<tag k="name" v="Finneset" />
		<tag k="natural" v="cape" />
		<tag k="ssr:stedsnr" v="18108" />
	</node>
	<node lat="69.03379166645013" lon="17.03959723234914" id="-37737">
		<tag k="name" v="Stongevika" />
		<tag k="natural" v="bay" />
		<tag k="ssr:stedsnr" v="18113" />
	</node>
	<node lat="69.04558611190278" lon="17.217172231203133" id="-37739">
		<tag k="alt_name" v="Gjerdvika" />
		<tag k="name" v="Gerdvika" />
		<tag k="natural" v="bay" />
		<tag k="ssr:stedsnr" v="18100" />
	</node>
	<node lat="69.17014722387084" lon="17.06580832938968" id="-37740">
		<tag k="name" v="Lomsneset" />
		<tag k="natural" v="cape" />
		<tag k="ssr:stedsnr" v="18206" />
	</node>
	<node lat="69.15297499842507" lon="17.059897228331305" id="-37741">
		<tag k="name" v="Dyrneset" />
		<tag k="natural" v="cape" />
		<tag k="ssr:stedsnr" v="18211" />
	</node>
	<node lat="69.14847222019665" lon="17.03013332140426" id="-37742">
		<tag k="bay" v="fjord" />
		<tag k="name" v="Bunkefjorden" />
		<tag k="natural" v="bay" />
		<tag k="ssr:stedsnr" v="18212" />
	</node>
	<node lat="69.15851944890684" lon="17.602941653725562" id="-37744">
		<tag k="name" v="Skatvika" />
		<tag k="natural" v="bay" />
		<tag k="ssr:stedsnr" v="18279" />
	</node>
	<node lat="69.33677222593269" lon="17.07454722457351" id="-37745">
		<tag k="fixme" v="multiple name tags, choose one and add the other to alt_name" />
		<tag k="name" v="Sundsneset;Sylsneset" />
		<tag k="natural" v="cape" />
		<tag k="ssr:stedsnr" v="18297" />
	</node>
	<node lat="69.16629444458025" lon="17.88171666076108" id="-37746">
		<tag k="name" v="Klubben" />
		<tag k="natural" v="cape" />
		<tag k="ssr:stedsnr" v="18404" />
	</node>
	<node lat="69.2654583371324" lon="16.77978333692389" id="-37750">
		<tag k="fixme" v="consider seamark:type=rock or natural=shoal" />
		<tag k="name" v="Tjuvskjæret" />
		<tag k="place" v="islet" />
		<tag k="ssr:stedsnr" v="233151" />
	</node>
	<node lat="69.23108333713363" lon="17.864172216316287" id="-37751">
		<tag k="name" v="Nilseneset" />
		<tag k="natural" v="cape" />
		<tag k="ssr:stedsnr" v="18347" />
	</node>
	<node lat="69.25755277727889" lon="16.92241667539824" id="-37754">
		<tag k="name" v="Kvengrunnen" />
		<tag k="natural" v="shoal" />
		<tag k="place" v="locality" />
		<tag k="ssr:stedsnr" v="18356" />
	</node>
	<node lat="69.60027777632682" lon="17.561986099456593" id="-37765">
		<tag k="name" v="Øyfjordbåen" />
		<tag k="natural" v="shoal" />
		<tag k="place" v="locality" />
		<tag k="ssr:stedsnr" v="18696" />
	</node>
	<node lat="69.51633333274819" lon="17.477730564640954" id="-37767">
		<tag k="name" v="Mykjeneset" />
		<tag k="natural" v="cape" />
		<tag k="ssr:stedsnr" v="18804" />
	</node>
	<node lat="69.59722777845172" lon="17.842455552908277" id="-37769">
		<tag k="fixme" v="consider seamark:type=rock or natural=shoal" />
		<tag k="name" v="Svinvikskjæret" />
		<tag k="place" v="islet" />
		<tag k="ssr:stedsnr" v="18701" />
	</node>
	<node lat="69.57701944300402" lon="17.886163897403403" id="-37770">
		<tag k="alt_name" v="Matholman, in" />
		<tag k="name" v="Indre Matholman" />
		<tag k="place" v="islet" />
		<tag k="ssr:stedsnr" v="18704" />
	</node>
	<node lat="69.57444722539802" lon="17.46715834361703" id="-37771">
		<tag k="alt_name" v="Gilbergsneset" />
		<tag k="name" v="Gilbergneset" />
		<tag k="natural" v="cape" />
		<tag k="old_name" v="Gilberneset" />
		<tag k="ssr:stedsnr" v="18708" />
	</node>
	<node lat="69.57227222381758" lon="17.76593889328216" id="-37772">
		<tag k="name" v="Pussegrunnen" />
		<tag k="natural" v="shoal" />
		<tag k="place" v="locality" />
		<tag k="ssr:stedsnr" v="18711" />
	</node>
	<node lat="69.2183555532986" lon="16.912244449571546" id="-37777">
		<tag k="name" v="Kvalan" />
		<tag k="natural" v="bay" />
		<tag k="ssr:stedsnr" v="233246" />
	</node>
	<node lat="69.53910277591616" lon="17.30533056263118" id="-37781">
		<tag k="name" v="Stålhausen" />
		<tag k="natural" v="cape" />
		<tag k="ssr:stedsnr" v="18997" />
	</node>
	<node lat="69.3600166679769" lon="17.02501389713259" id="-37784">
		<tag k="name" v="Ausemannen" />
		<tag k="natural" v="cape" />
		<tag k="ssr:stedsnr" v="233446" />
	</node>
	<node lat="69.3637777811218" lon="16.88896111307554" id="-37785">
		<tag k="name" v="Keila" />
		<tag k="natural" v="bay" />
		<tag k="ssr:stedsnr" v="233449" />
	</node>
	<node lat="69.36333610968987" lon="16.947633341545068" id="-37786">
		<tag k="name" v="Måneslandet" />
		<tag k="natural" v="beach" />
		<tag k="ssr:stedsnr" v="233450" />
	</node>
	<node lat="69.37252222532501" lon="17.369494447198516" id="-37788">
		<tag k="name" v="Spekelvbukta" />
		<tag k="natural" v="bay" />
		<tag k="ssr:stedsnr" v="19292" />
	</node>
	<node lat="69.29890833732111" lon="17.99571666508361" id="-37794">
		<tag k="alt_name" v="Storelvnes" />
		<tag k="name" v="Storelvneset" />
		<tag k="natural" v="cape" />
		<tag k="ssr:stedsnr" v="19550" />
	</node>
	<node lat="69.40192499809737" lon="18.155272219741658" id="-37795">
		<tag k="name" v="Hårkallen" />
		<tag k="natural" v="cape" />
		<tag k="ssr:stedsnr" v="19696" />
	</node>
	<node lat="69.1811138854097" lon="17.076666652332325" id="-37801">
		<tag k="name" v="Insteneset" />
		<tag k="natural" v="cape" />
		<tag k="ssr:stedsnr" v="233498" />
	</node>
	<node lat="69.27163611450246" lon="17.118458333499344" id="-37803">
		<tag k="name" v="Skogneset" />
		<tag k="natural" v="cape" />
		<tag k="ssr:stedsnr" v="233516" />
	</node>
	<node lat="69.3295277773729" lon="16.994030559519356" id="-37808">
		<tag k="name" v="Sennholmleia" />
		<tag k="natural" v="strait" />
		<tag k="ssr:stedsnr" v="233470" />
	</node>
	<node lat="69.18731110959331" lon="17.441258322535614" id="-37809">
		<tag k="fixme" v="consider seamark:type=rock or natural=shoal" />
		<tag k="name" v="Grunnvågskjæran" />
		<tag k="place" v="islet" />
		<tag k="ssr:stedsnr" v="233472" />
	</node>
	<node lat="69.25771111180701" lon="17.103691670148738" id="-37811">
		<tag k="name" v="Kråksølvneset" />
		<tag k="natural" v="cape" />
		<tag k="ssr:stedsnr" v="233579" />
	</node>
	<node lat="69.1586638898873" lon="17.588088891883594" id="-37814">
		<tag k="fixme" v="consider seamark:type=rock or natural=shoal" />
		<tag k="name" v="Farkskjæret" />
		<tag k="place" v="islet" />
		<tag k="ssr:stedsnr" v="233551" />
	</node>
	<node lat="69.2501250013406" lon="17.104344456090693" id="-37815">
		<tag k="name" v="Måshuset" />
		<tag k="natural" v="cape" />
		<tag k="ssr:stedsnr" v="233558" />
	</node>
	<node lat="69.2517194456043" lon="17.099699995056792" id="-37817">
		<tag k="fixme" v="consider seamark:type=rock or natural=shoal" />
		<tag k="name" v="Bøan" />
		<tag k="place" v="islet" />
		<tag k="ssr:stedsnr" v="233591" />
	</node>
	<node lat="69.36247222343475" lon="17.094724997923247" id="-37821">
		<tag k="fixme" v="consider seamark:type=rock or natural=shoal" />
		<tag k="name" v="Indre Pålsteinan" />
		<tag k="place" v="islet" />
		<tag k="ssr:stedsnr" v="233695" />
	</node>
	<node lat="69.3581583319381" lon="17.13711111123706" id="-37823">
		<tag k="fixme" v="consider seamark:type=rock or natural=shoal" />
		<tag k="name" v="Hysesteinen" />
		<tag k="place" v="islet" />
		<tag k="ssr:stedsnr" v="233674" />
	</node>
	<node lat="69.35471944584812" lon="17.135155555048684" id="-37824">
		<tag k="fixme" v="consider seamark:type=rock or natural=shoal" />
		<tag k="name" v="Hysesteinen" />
		<tag k="place" v="islet" />
		<tag k="ssr:stedsnr" v="233675" />
	</node>
	<node lat="69.0559111080084" lon="16.788141676910026" id="-37830">
		<tag k="name" v="Sandvika" />
		<tag k="natural" v="bay" />
		<tag k="ssr:stedsnr" v="233816" />
	</node>
	<node lat="69.15405278120517" lon="17.520286098415035" id="-37832">
		<tag k="name" v="Hamnespira" />
		<tag k="natural" v="cape" />
		<tag k="ssr:stedsnr" v="233869" />
	</node>
	<node lat="69.15777500220999" lon="17.46206944542722" id="-37833">
		<tag k="fixme" v="consider seamark:type=rock or natural=shoal" />
		<tag k="name" v="Forrøyskjæret" />
		<tag k="place" v="islet" />
		<tag k="ssr:stedsnr" v="233874" />
	</node>
	<node lat="69.45889527754697" lon="17.241222924995295" id="-37839">
		<tag k="fixme" v="consider seamark:type=rock or natural=shoal" />
		<tag k="name" v="Katteberglorten" />
		<tag k="place" v="islet" />
		<tag k="ssr:stedsnr" v="234045" />
	</node>
	<node lat="69.53637777744717" lon="17.34824167183432" id="-37841">
		<tag k="name" v="Bremneskeila" />
		<tag k="natural" v="bay" />
		<tag k="ssr:stedsnr" v="234077" />
	</node>
	<node lat="69.41242500469802" lon="17.184663878805093" id="-37844">
		<tag k="name" v="Kjosneset" />
		<tag k="place" v="islet" />
		<tag k="ssr:stedsnr" v="234096" />
	</node>
	<node lat="69.44381110973826" lon="17.16764722117239" id="-37845">
		<tag k="name" v="Lille Thomasøya" />
		<tag k="place" v="islet" />
		<tag k="ssr:stedsnr" v="234124" />
	</node>
	<node lat="69.59435832948154" lon="17.848886102557824" id="-37846">
		<tag k="name" v="Skjørvika" />
		<tag k="natural" v="bay" />
		<tag k="ssr:stedsnr" v="25313" />
	</node>
	<node lat="69.43164722147888" lon="18.09025556063119" id="-37849">
		<tag k="name" v="Molnesgrunnen" />
		<tag k="natural" v="shoal" />
		<tag k="place" v="locality" />
		<tag k="ssr:stedsnr" v="25714" />
	</node>
	<node lat="69.07119721876695" lon="17.045811105177037" id="-37852">
		<tag k="name" v="Pernilsaholmen" />
		<tag k="place" v="islet" />
		<tag k="ssr:stedsnr" v="234272" />
	</node>
	<node lat="69.39303055243022" lon="17.33396389279521" id="-37853">
		<tag k="fixme" v="consider seamark:type=rock or natural=shoal" />
		<tag k="name" v="Breivikskjæret" />
		<tag k="place" v="islet" />
		<tag k="ssr:stedsnr" v="234348" />
	</node>
	<node lat="69.40123056038635" lon="17.305238877903662" id="-37854">
		<tag k="name" v="Trongstraumstranda" />
		<tag k="natural" v="beach" />
		<tag k="ssr:stedsnr" v="234362" />
	</node>
	<node lat="69.48269166404155" lon="17.371013896163497" id="-37855">
		<tag k="name" v="Klipelvbukta" />
		<tag k="natural" v="bay" />
		<tag k="ssr:stedsnr" v="234365" />
	</node>
	<node lat="69.15861666830648" lon="17.543144450300186" id="-37866">
		<tag k="name" v="Steinravika" />
		<tag k="natural" v="bay" />
		<tag k="ssr:stedsnr" v="234490" />
	</node>
	<node lat="69.04746110946124" lon="17.153905562739904" id="-37877">
		<tag k="fixme" v="consider seamark:type=rock or natural=shoal" />
		<tag k="name" v="Sandskjæret" />
		<tag k="place" v="islet" />
		<tag k="ssr:stedsnr" v="234647" />
	</node>
	<node lat="69.04216666447493" lon="17.05227777755245" id="-37879">
		<tag k="name" v="Straumen" />
		<tag k="natural" v="strait" />
		<tag k="ssr:stedsnr" v="234654" />
	</node>
	<node lat="69.04253888743456" lon="17.10880833356348" id="-37880">
		<tag k="name" v="Sørbotn" />
		<tag k="natural" v="bay" />
		<tag k="ssr:stedsnr" v="234662" />
	</node>
	<node lat="69.03932777430585" lon="17.083013882408686" id="-37881">
		<tag k="name" v="Mølnekjosen" />
		<tag k="natural" v="bay" />
		<tag k="ssr:stedsnr" v="234667" />
	</node>
	<node lat="69.05035555137194" lon="17.07413055821854" id="-37884">
		<tag k="name" v="Halshamna" />
		<tag k="natural" v="cape" />
		<tag k="ssr:stedsnr" v="234726" />
	</node>
	<node lat="69.02750555632905" lon="16.87701666811618" id="-37885">
		<tag k="alt_name" v="Heim-Laukøya" />
		<tag k="name" v="Heimlaukøya" />
		<tag k="place" v="island" />
		<tag k="ssr:stedsnr" v="29303" />
	</node>
	<node lat="69.15392777946589" lon="17.60937220838153" id="-37889">
		<tag k="name" v="Litjevikneset" />
		<tag k="natural" v="cape" />
		<tag k="ssr:stedsnr" v="29476" />
	</node>
	<node lat="69.15368611000079" lon="17.464355560740206" id="-37890">
		<tag k="name" v="Ålandsflua" />
		<tag k="natural" v="shoal" />
		<tag k="place" v="locality" />
		<tag k="ssr:stedsnr" v="29489" />
	</node>
	<node lat="69.38065277612397" lon="17.407088887073847" id="-37891">
		<tag k="name" v="Forranesbukta" />
		<tag k="natural" v="bay" />
		<tag k="ssr:stedsnr" v="235945" />
	</node>
	<node lat="69.39013888761485" lon="17.391874997324056" id="-37892">
		<tag k="name" v="Bukta" />
		<tag k="natural" v="bay" />
		<tag k="ssr:stedsnr" v="235946" />
	</node>
	<node lat="69.45956111402498" lon="17.59381665721741" id="-37897">
		<tag k="name" v="Vardneset" />
		<tag k="natural" v="cape" />
		<tag k="ssr:stedsnr" v="236284" />
	</node>
	<node lat="69.42633610781628" lon="17.4962333349604" id="-37900">
		<tag k="fixme" v="consider seamark:type=rock or natural=shoal" />
		<tag k="name" v="Kobbesteinen" />
		<tag k="place" v="islet" />
		<tag k="ssr:stedsnr" v="237098" />
	</node>
	<node lat="69.53204444620663" lon="17.381733330771297" id="-37901">
		<tag k="fixme" v="consider seamark:type=rock or natural=shoal" />
		<tag k="name" v="Skarvesteinen" />
		<tag k="place" v="islet" />
		<tag k="ssr:stedsnr" v="237138" />
	</node>
	<node lat="69.35945833478092" lon="17.085391674141388" id="-37902">
		<tag k="alt_name" v="Ytre Sildvika" />
		<tag k="name" v="Sildevika" />
		<tag k="natural" v="bay" />
		<tag k="ssr:stedsnr" v="42075" />
	</node>
	<node lat="69.20071388766762" lon="16.861469437752675" id="-37903">
		<tag k="name" v="Båen" />
		<tag k="natural" v="shoal" />
		<tag k="place" v="locality" />
		<tag k="ssr:stedsnr" v="42877" />
	</node>
	<node lat="69.47291667076347" lon="17.228716658308343" id="-37906">
		<tag k="name" v="Sandvika" />
		<tag k="natural" v="bay" />
		<tag k="ssr:stedsnr" v="46809" />
	</node>
	<node lat="69.47029444781035" lon="17.856347217996387" id="-37909">
		<tag k="name" v="Litjekrakneset" />
		<tag k="natural" v="cape" />
		<tag k="ssr:stedsnr" v="47501" />
	</node>
	<node lat="69.55793889299528" lon="17.641669436354693" id="-37912">
		<tag k="fixme" v="consider seamark:type=rock or natural=shoal" />
		<tag k="name" v="Øyfjordgrunnen" />
		<tag k="place" v="islet" />
		<tag k="ssr:stedsnr" v="47890" />
	</node>
	<node lat="69.54913888709588" lon="17.652050009624585" id="-37913">
		<tag k="name" v="Kjerringbåen" />
		<tag k="place" v="locality" />
		<tag k="seamark:type" v="rock" />
		<tag k="ssr:stedsnr" v="48112" />
	</node>
	<node lat="69.54610833341387" lon="17.653322219528704" id="-37914">
		<tag k="fixme" v="consider seamark:type=rock or natural=shoal" />
		<tag k="name" v="Skarvesteinen" />
		<tag k="place" v="islet" />
		<tag k="ssr:stedsnr" v="48113" />
	</node>
	<node lat="69.46682500010105" lon="17.89588332921679" id="-37915">
		<tag k="name" v="Steinneset" />
		<tag k="natural" v="cape" />
		<tag k="ssr:stedsnr" v="48301" />
	</node>
	<node lat="69.46090555331517" lon="17.82057223051312" id="-37916">
		<tag k="name" v="Elveneset" />
		<tag k="natural" v="cape" />
		<tag k="ssr:stedsnr" v="48314" />
	</node>
	<node lat="69.48828055425123" lon="17.657924990063936" id="-37922">
		<tag k="name" v="Kvannholla" />
		<tag k="natural" v="bay" />
		<tag k="ssr:stedsnr" v="48203" />
	</node>
	<node lat="69.5254166654313" lon="17.676541665303798" id="-37925">
		<tag k="fixme" v="consider seamark:type=rock or natural=shoal" />
		<tag k="name" v="Kobbesteinen" />
		<tag k="place" v="islet" />
		<tag k="ssr:stedsnr" v="48222" />
	</node>
	<node lat="69.48666944253216" lon="18.063305545046266" id="-37933">
		<tag k="name" v="Indre Skårlines" />
		<tag k="natural" v="cape" />
		<tag k="ssr:stedsnr" v="48626" />
	</node>
	<node lat="69.54584167062957" lon="17.75476944643905" id="-37937">
		<tag k="name" v="Innerneset" />
		<tag k="natural" v="cape" />
		<tag k="ssr:stedsnr" v="49827" />
	</node>
	<node lat="69.32953611549787" lon="18.489447207682773" id="-37947">
		<tag k="name" v="Sandneshamna" />
		<tag k="natural" v="bay" />
		<tag k="ssr:stedsnr" v="50780" />
	</node>
	<node lat="69.48239444673182" lon="18.274302776711274" id="-37953">
		<tag k="name" v="Ol-Hågsavika" />
		<tag k="natural" v="bay" />
		<tag k="ssr:stedsnr" v="50979" />
	</node>
	<node lat="69.06482778241399" lon="16.78633332171013" id="-37960">
		<tag k="fixme" v="consider seamark:type=rock or natural=shoal" />
		<tag k="name" v="Steinkjerringa" />
		<tag k="place" v="islet" />
		<tag k="ssr:stedsnr" v="51818" />
	</node>
	<node lat="69.08424999858705" lon="16.78387499862523" id="-37961">
		<tag k="name" v="Steinvika" />
		<tag k="natural" v="bay" />
		<tag k="ssr:stedsnr" v="51887" />
	</node>
	<node lat="69.4637500006658" lon="17.22647777844617" id="-37962">
		<tag k="fixme" v="consider seamark:type=rock or natural=shoal" />
		<tag k="name" v="Handkleskjæret" />
		<tag k="place" v="islet" />
		<tag k="ssr:stedsnr" v="52004" />
	</node>
	<node lat="69.05974444204688" lon="16.92125833023342" id="-37966">
		<tag k="name" v="Halsen" />
		<tag k="place" v="locality" />
		<tag k="ssr:stedsnr" v="51920" />
	</node>
	<node lat="69.44438889193282" lon="17.174822232669126" id="-37969">
		<tag k="name" v="Store Thomasøya" />
		<tag k="place" v="islet" />
		<tag k="ssr:stedsnr" v="52123" />
	</node>
	<node lat="69.02718055344063" lon="17.226986114675782" id="-37970">
		<tag k="name" v="Brennestranda" />
		<tag k="natural" v="beach" />
		<tag k="ssr:stedsnr" v="52369" />
	</node>
	<node lat="69.00733610679777" lon="17.08859166524648" id="-37973">
		<tag k="name" v="Storklubbneset" />
		<tag k="natural" v="cape" />
		<tag k="ssr:stedsnr" v="52519" />
	</node>
	<node lat="69.04172500058941" lon="17.053966658167205" id="-37978">
		<tag k="name" v="Neset" />
		<tag k="natural" v="cape" />
		<tag k="ssr:stedsnr" v="52624" />
	</node>
	<node lat="69.04837222161501" lon="17.075697218678215" id="-37979">
		<tag k="fixme" v="consider seamark:type=rock or natural=shoal" />
		<tag k="name" v="Skreddaren" />
		<tag k="place" v="islet" />
		<tag k="ssr:stedsnr" v="52675" />
	</node>
	<node lat="69.37421111418317" lon="17.384813886560373" id="-37980">
		<tag k="name" v="Sandholmen" />
		<tag k="place" v="islet" />
		<tag k="ssr:stedsnr" v="52902" />
	</node>
	<node lat="69.49437777492722" lon="17.484055562657232" id="-37996">
		<tag k="name" v="Hamneneset" />
		<tag k="natural" v="cape" />
		<tag k="ssr:stedsnr" v="54070" />
	</node>
	<node lat="69.54056388986984" lon="17.49917499055229" id="-38001">
		<tag k="name" v="Holmekeila" />
		<tag k="natural" v="bay" />
		<tag k="ssr:stedsnr" v="55194" />
	</node>
	<node lat="69.05752778113082" lon="16.78714444772383" id="-38010">
		<tag k="alt_name" v="Senjehesten;Senjahesten" />
		<tag k="name" v="Senjehestneset" />
		<tag k="natural" v="cape" />
		<tag k="ssr:stedsnr" v="78117" />
	</node>
	<node lat="69.17346110842412" lon="16.90687500817356" id="-38014">
		<tag k="name" v="Øygrunnen" />
		<tag k="natural" v="shoal" />
		<tag k="place" v="locality" />
		<tag k="ssr:stedsnr" v="78253" />
	</node>
	<node lat="69.1707083311871" lon="16.791313898223954" id="-38018">
		<tag k="name" v="Styrmannsgrunnen" />
		<tag k="natural" v="shoal" />
		<tag k="place" v="locality" />
		<tag k="ssr:stedsnr" v="79051" />
	</node>
	<node lat="69.0067194418058" lon="17.05572777898211" id="-38019">
		<tag k="name" v="Skålvika" />
		<tag k="natural" v="bay" />
		<tag k="ssr:stedsnr" v="79097" />
	</node>
	<node lat="69.28721111334576" lon="16.792219440314827" id="-38020">
		<tag k="name" v="Kjerringholman" />
		<tag k="place" v="islet" />
		<tag k="ssr:stedsnr" v="79203" />
	</node>
	<node lat="69.40635278128124" lon="16.953466677828978" id="-38021">
		<tag k="fixme" v="consider seamark:type=rock or natural=shoal" />
		<tag k="name" v="Nord-Teisteskjæret" />
		<tag k="place" v="islet" />
		<tag k="ssr:stedsnr" v="79244" />
	</node>
	<node lat="69.4436444455048" lon="17.122519433427673" id="-38025">
		<tag k="name" v="Bergsøyan" />
		<tag k="place" v="island" />
		<tag k="ssr:stedsnr" v="79296" />
	</node>
	<node lat="69.00663333064422" lon="17.06670278691555" id="-38026">
		<tag k="name" v="Avløysingsholmen" />
		<tag k="natural" v="cape" />
		<tag k="ssr:stedsnr" v="79405" />
	</node>
	<node lat="69.57040833668646" lon="17.815597228716094" id="-38033">
		<tag k="name" v="Bjørnebergbukta" />
		<tag k="natural" v="bay" />
		<tag k="ssr:stedsnr" v="79742" />
	</node>
	<node lat="69.54406388562501" lon="17.79469999657289" id="-38038">
		<tag k="name" v="Gamvika" />
		<tag k="natural" v="bay" />
		<tag k="ssr:stedsnr" v="79849" />
	</node>
	<node lat="69.53096666613946" lon="17.924163876682666" id="-38040">
		<tag k="name" v="Kristenskjæret" />
		<tag k="natural" v="shoal" />
		<tag k="place" v="locality" />
		<tag k="ssr:stedsnr" v="79792" />
	</node>
	<node lat="69.24566110782386" lon="17.10950277980371" id="-38044">
		<tag k="name" v="Mølnevika" />
		<tag k="natural" v="bay" />
		<tag k="ssr:stedsnr" v="82606" />
	</node>
	<node lat="69.59709166898205" lon="17.813677774816703" id="-38045">
		<tag k="alt_name" v="Skardbergsvika" />
		<tag k="name" v="Skarvbergsvika" />
		<tag k="natural" v="bay" />
		<tag k="ssr:stedsnr" v="86325" />
	</node>
	<node lat="69.07439999926726" lon="16.97010554793259" id="-38048">
		<tag k="alt_name" v="Finnelvskjeran" />
		<tag k="fixme" v="consider seamark:type=rock or natural=shoal" />
		<tag k="name" v="Finnelvskjæran" />
		<tag k="place" v="islet" />
		<tag k="ssr:stedsnr" v="90122" />
	</node>
	<node lat="69.14767778197024" lon="17.613086109772393" id="-38050">
		<tag k="name" v="Humpen" />
		<tag k="natural" v="cape" />
		<tag k="ssr:stedsnr" v="90452" />
	</node>
	<node lat="69.29318889176132" lon="17.956938890570566" id="-38051">
		<tag k="name" v="Grasmyrgrunnan" />
		<tag k="natural" v="shoal" />
		<tag k="place" v="locality" />
		<tag k="ssr:stedsnr" v="90678" />
	</node>
	<node lat="69.2847833364044" lon="17.127691673858784" id="-38052">
		<tag k="name" v="Leirhøla" />
		<tag k="natural" v="beach" />
		<tag k="ssr:stedsnr" v="103015" />
	</node>
	<node lat="69.19584166887275" lon="16.766005567318444" id="-38053">
		<tag k="name" v="Steinan" />
		<tag k="natural" v="shoal" />
		<tag k="place" v="locality" />
		<tag k="ssr:stedsnr" v="103884" />
	</node>
	<node lat="69.59257499929697" lon="17.647594446975475" id="-38064">
		<tag k="name" v="Vårkrakkholla" />
		<tag k="natural" v="bay" />
		<tag k="ssr:stedsnr" v="109141" />
	</node>
	<node lat="69.57174166696576" lon="17.55750554986922" id="-38066">
		<tag k="fixme" v="consider seamark:type=rock or natural=shoal" />
		<tag k="name" v="Storsteinen" />
		<tag k="place" v="islet" />
		<tag k="ssr:stedsnr" v="109170" />
	</node>
	<node lat="69.51204722349125" lon="18.00362777407206" id="-38075">
		<tag k="name" v="Kvassteinneset" />
		<tag k="natural" v="cape" />
		<tag k="ssr:stedsnr" v="109470" />
	</node>
	<node lat="69.5731083329519" lon="17.891847231225842" id="-38076">
		<tag k="name" v="Vedvika" />
		<tag k="natural" v="bay" />
		<tag k="ssr:stedsnr" v="109476" />
	</node>
	<node lat="69.57962222358664" lon="17.86848887838944" id="-38077">
		<tag k="name" v="Hysholla" />
		<tag k="natural" v="bay" />
		<tag k="ssr:stedsnr" v="109478" />
	</node>
	<node lat="69.43290833496899" lon="18.073944431455274" id="-38078">
		<tag k="name" v="Hermannsvika" />
		<tag k="natural" v="bay" />
		<tag k="ssr:stedsnr" v="109624" />
	</node>
	<node lat="69.57947778122941" lon="17.839180542453335" id="-38082">
		<tag k="name" v="Brurbenkan" />
		<tag k="natural" v="shoal" />
		<tag k="place" v="locality" />
		<tag k="ssr:stedsnr" v="109788" />
	</node>
	<node lat="69.55745277622654" lon="17.793819431673526" id="-38083">
		<tag k="name" v="Opplandshaugneset" />
		<tag k="natural" v="cape" />
		<tag k="ssr:stedsnr" v="109804" />
	</node>
	<node lat="69.05342222370162" lon="16.808122215268135" id="-38090">
		<tag k="name" v="Stortjønnvika" />
		<tag k="natural" v="bay" />
		<tag k="ssr:stedsnr" v="111971" />
	</node>
	<node lat="69.02762777747476" lon="16.86928612014742" id="-38091">
		<tag k="name" v="Lyngholmen" />
		<tag k="place" v="islet" />
		<tag k="ssr:stedsnr" v="111979" />
	</node>
	<node lat="69.47757778162607" lon="18.301466662892988" id="-38092">
		<tag k="name" v="Neset" />
		<tag k="natural" v="cape" />
		<tag k="ssr:stedsnr" v="111984" />
	</node>
	<node lat="69.28136388764106" lon="17.033391669367308" id="-38096">
		<tag k="name" v="Mollneset" />
		<tag k="natural" v="cape" />
		<tag k="ssr:stedsnr" v="112327" />
	</node>
	<node lat="69.32547777504645" lon="16.977491663194495" id="-38102">
		<tag k="name" v="Stiholla" />
		<tag k="natural" v="bay" />
		<tag k="ssr:stedsnr" v="112404" />
	</node>
	<node lat="69.34252222554392" lon="17.123219437954894" id="-38105">
		<tag k="name" v="Ferånabukta" />
		<tag k="natural" v="bay" />
		<tag k="ssr:stedsnr" v="112639" />
	</node>
	<node lat="69.06001666318564" lon="16.92579721838355" id="-38110">
		<tag k="name" v="Åkervika" />
		<tag k="natural" v="bay" />
		<tag k="ssr:stedsnr" v="112905" />
	</node>
	<node lat="69.20639722576206" lon="17.492122225833977" id="-38112">
		<tag k="name" v="Notsettet" />
		<tag k="natural" v="bay" />
		<tag k="ssr:stedsnr" v="112921" />
	</node>
	<node lat="69.46426388833963" lon="17.22536389537478" id="-38115">
		<tag k="name" v="Handkleneset" />
		<tag k="natural" v="cape" />
		<tag k="ssr:stedsnr" v="113006" />
	</node>
	<node lat="69.50289999907102" lon="17.20599166091452" id="-38116">
		<tag k="name" v="Brødrene" />
		<tag k="place" v="locality" />
		<tag k="seamark:type" v="rock" />
		<tag k="ssr:stedsnr" v="113009" />
	</node>
	<node lat="69.50063610981802" lon="17.200541676736513" id="-38117">
		<tag k="name" v="Matneset" />
		<tag k="natural" v="cape" />
		<tag k="ssr:stedsnr" v="113012" />
	</node>
	<node lat="69.42717500067977" lon="17.19220832414805" id="-38121">
		<tag k="name" v="Ytre Risøya" />
		<tag k="place" v="island" />
		<tag k="ssr:stedsnr" v="113111" />
	</node>
	<node lat="69.3784444423696" lon="17.358283332245048" id="-38122">
		<tag k="name" v="Rørneset" />
		<tag k="natural" v="cape" />
		<tag k="ssr:stedsnr" v="113313" />
	</node>
	<node lat="69.08198610821292" lon="17.18467222543736" id="-38124">
		<tag k="name" v="Laksegamneset" />
		<tag k="natural" v="cape" />
		<tag k="ssr:stedsnr" v="113274" />
	</node>
	<node lat="69.01498889072941" lon="17.13665556549484" id="-38129">
		<tag k="name" v="Kjosen" />
		<tag k="natural" v="bay" />
		<tag k="ssr:stedsnr" v="113523" />
	</node>
	<node lat="69.00851111050352" lon="17.09218054767918" id="-38130">
		<tag k="name" v="Litjeklubbvika" />
		<tag k="natural" v="bay" />
		<tag k="ssr:stedsnr" v="113530" />
	</node>
	<node lat="69.00540000336767" lon="17.08768055323543" id="-38131">
		<tag k="name" v="Langskjærsundet" />
		<tag k="natural" v="strait" />
		<tag k="ssr:stedsnr" v="113532" />
	</node>
	<node lat="69.00661389011967" lon="17.052538876261536" id="-38132">
		<tag k="name" v="Ytre Skålviknes" />
		<tag k="natural" v="cape" />
		<tag k="ssr:stedsnr" v="113536" />
	</node>
	<node lat="69.42806110731291" lon="17.439047228288338" id="-38152">
		<tag k="name" v="Finnkonlandet" />
		<tag k="natural" v="beach" />
		<tag k="ssr:stedsnr" v="115128" />
	</node>
	<node lat="69.01981666347795" lon="16.89142499723685" id="-38160">
		<tag k="name" v="Flatholmen" />
		<tag k="place" v="islet" />
		<tag k="ssr:stedsnr" v="138098" />
	</node>
	<node lat="69.0695777752087" lon="17.01813055315919" id="-38162">
		<tag k="name" v="Dragøya" />
		<tag k="natural" v="cape" />
		<tag k="ssr:stedsnr" v="139005" />
	</node>
	<node lat="69.08117499868357" lon="17.18981387693366" id="-38166">
		<tag k="name" v="Buholmen" />
		<tag k="place" v="islet" />
		<tag k="ssr:stedsnr" v="139047" />
	</node>
	<node lat="69.48897499743826" lon="17.354769451319488" id="-38168">
		<tag k="bay" v="fjord" />
		<tag k="name" v="Ersfjorden" />
		<tag k="natural" v="bay" />
		<tag k="ssr:stedsnr" v="139196" />
	</node>
	<node lat="69.48364999876333" lon="17.212616670128693" id="-38170">
		<tag k="alt_name" v="Bardneset, yt" />
		<tag k="name" v="Ytre Bardneset" />
		<tag k="natural" v="cape" />
		<tag k="ssr:stedsnr" v="139199" />
	</node>
	<node lat="69.12348333693511" lon="16.822316673295532" id="-38171">
		<tag k="name" v="Dovneset" />
		<tag k="natural" v="cape" />
		<tag k="ssr:stedsnr" v="139201" />
	</node>
	<node lat="69.40152777502392" lon="17.03289998580865" id="-38172">
		<tag k="name" v="Storsteinneset" />
		<tag k="natural" v="cape" />
		<tag k="ssr:stedsnr" v="139350" />
	</node>
	<node lat="69.14238055243229" lon="17.40591388504018" id="-38175">
		<tag k="alt_name" v="Hestvika" />
		<tag k="name" v="Hestevika" />
		<tag k="natural" v="bay" />
		<tag k="ssr:stedsnr" v="139243" />
	</node>
	<node lat="69.14239444321068" lon="16.97978888384885" id="-38177">
		<tag k="name" v="Ørnvikneset" />
		<tag k="natural" v="cape" />
		<tag k="ssr:stedsnr" v="139246" />
	</node>
	<node lat="69.49875833381002" lon="17.913280562965152" id="-38178">
		<tag k="name" v="Nøkkelneset" />
		<tag k="natural" v="cape" />
		<tag k="ssr:stedsnr" v="139402" />
	</node>
	<node lat="69.48618889244386" lon="17.89606943737825" id="-38181">
		<tag k="name" v="Lanesvika" />
		<tag k="natural" v="bay" />
		<tag k="ssr:stedsnr" v="139502" />
	</node>
	<node lat="69.48328333740591" lon="18.26958333461775" id="-38195">
		<tag k="alt_name" v="Olhaugsavikneset" />
		<tag k="name" v="Ol-Haugsavikneset" />
		<tag k="natural" v="cape" />
		<tag k="ssr:stedsnr" v="139639" />
	</node>
	<node lat="69.50920833172371" lon="17.043524995059755" id="-38198">
		<tag k="name" v="Hellaskoltan" />
		<tag k="natural" v="shoal" />
		<tag k="place" v="locality" />
		<tag k="ssr:stedsnr" v="139940" />
	</node>
	<node lat="69.53877778196006" lon="17.342502776172868" id="-38199">
		<tag k="name" v="Bremneset" />
		<tag k="natural" v="cape" />
		<tag k="ssr:stedsnr" v="139997" />
	</node>
	<node lat="69.54599166723348" lon="17.155447229459835" id="-38200">
		<tag k="alt_name" v="Frøgrunnen, nordre" />
		<tag k="name" v="Nordre Frøgrunnen" />
		<tag k="natural" v="shoal" />
		<tag k="place" v="locality" />
		<tag k="ssr:stedsnr" v="139998" />
	</node>
	<node lat="69.50221667066191" lon="17.89288056028054" id="-38210">
		<tag k="name" v="Mølnneset" />
		<tag k="natural" v="cape" />
		<tag k="ssr:stedsnr" v="146513" />
	</node>
	<node lat="69.13793636466268" lon="17.39552959036747" id="-38211">
		<tag k="fixme" v="consider seamark:type=rock or natural=shoal" />
		<tag k="name" v="Hyseskjæret" />
		<tag k="place" v="islet" />
		<tag k="ssr:stedsnr" v="150312" />
	</node>
	<node lat="69.19640555204137" lon="17.935630552324294" id="-38212">
		<tag k="name" v="Vestervågen" />
		<tag k="natural" v="bay" />
		<tag k="ssr:stedsnr" v="150956" />
	</node>
	<node lat="69.47034444626155" lon="17.30305278947579" id="-38214">
		<tag k="name" v="Gluggen" />
		<tag k="natural" v="bay" />
		<tag k="ssr:stedsnr" v="259042" />
	</node>
	<node lat="69.25175833285377" lon="17.098138898837863" id="-38215">
		<tag k="name" v="Vikanbåan" />
		<tag k="natural" v="shoal" />
		<tag k="place" v="locality" />
		<tag k="ssr:stedsnr" v="163014" />
	</node>
	<node lat="69.3811250029827" lon="16.90747500957293" id="-38216">
		<tag k="name" v="Andenesbåen" />
		<tag k="natural" v="shoal" />
		<tag k="place" v="locality" />
		<tag k="ssr:stedsnr" v="163163" />
	</node>
	<node lat="69.06780000004113" lon="16.97705276693471" id="-38217">
		<tag k="name" v="Lonkesteinen" />
		<tag k="natural" v="shoal" />
		<tag k="place" v="locality" />
		<tag k="ssr:stedsnr" v="260007" />
	</node>
	<node lat="69.07666944817717" lon="17.089950012216562" id="-38219">
		<tag k="name" v="Tøsneset" />
		<tag k="natural" v="cape" />
		<tag k="ssr:stedsnr" v="260028" />
	</node>
	<node lat="69.05282222596932" lon="16.811533335739323" id="-38224">
		<tag k="name" v="Bjørnskinnvika" />
		<tag k="natural" v="bay" />
		<tag k="ssr:stedsnr" v="260139" />
	</node>
	<node lat="69.05167222037063" lon="17.21141667543544" id="-38225">
		<tag k="alt_name" v="Litje Valvågen;Valvågen, l" />
		<tag k="name" v="Litjevalvågen" />
		<tag k="natural" v="bay" />
		<tag k="ssr:stedsnr" v="260142" />
	</node>
	<node lat="69.14213055815175" lon="17.065647230001623" id="-38235">
		<tag k="alt_name" v="Urdneset" />
		<tag k="name" v="Orneset" />
		<tag k="natural" v="cape" />
		<tag k="ssr:stedsnr" v="260293" />
	</node>
	<node lat="69.1435638882725" lon="17.36925000599829" id="-38237">
		<tag k="alt_name" v="Buksneset" />
		<tag k="name" v="Bukseneset" />
		<tag k="natural" v="cape" />
		<tag k="ssr:stedsnr" v="260299" />
	</node>
	<node lat="69.42402499919723" lon="16.86697223266553" id="-38239">
		<tag k="name" v="Litlebåen" />
		<tag k="natural" v="shoal" />
		<tag k="place" v="locality" />
		<tag k="ssr:stedsnr" v="167408" />
	</node>
	<node lat="69.44305833347677" lon="17.294402779717355" id="-38240">
		<tag k="name" v="Piltsteinan" />
		<tag k="place" v="locality" />
		<tag k="seamark:type" v="rock" />
		<tag k="ssr:stedsnr" v="167903" />
	</node>
	<node lat="69.49930555974696" lon="17.26191944660494" id="-38242">
		<tag k="name" v="Indre Lutbåen" />
		<tag k="natural" v="shoal" />
		<tag k="place" v="locality" />
		<tag k="ssr:stedsnr" v="167964" />
	</node>
	<node lat="69.43019166704839" lon="17.121069446845897" id="-38243">
		<tag k="name" v="Rosmolen" />
		<tag k="natural" v="shoal" />
		<tag k="place" v="locality" />
		<tag k="ssr:stedsnr" v="168821" />
	</node>
	<node lat="69.58978055704591" lon="17.637152788479657" id="-38248">
		<tag k="name" v="Slumpekeila" />
		<tag k="natural" v="bay" />
		<tag k="ssr:stedsnr" v="169119" />
	</node>
	<node lat="69.5401472240029" lon="17.674941671925755" id="-38249">
		<tag k="name" v="Skredvika" />
		<tag k="natural" v="bay" />
		<tag k="ssr:stedsnr" v="169168" />
	</node>
	<node lat="69.54781944617793" lon="17.667227778337775" id="-38250">
		<tag k="fixme" v="consider seamark:type=rock or natural=shoal" />
		<tag k="name" v="Svartsteinan" />
		<tag k="place" v="islet" />
		<tag k="ssr:stedsnr" v="169170" />
	</node>
	<node lat="69.45325555424287" lon="17.884963877091742" id="-38255">
		<tag k="name" v="Innergårdneset" />
		<tag k="natural" v="cape" />
		<tag k="ssr:stedsnr" v="169319" />
	</node>
	<node lat="69.43151944419938" lon="18.007219432146414" id="-38260">
		<tag k="name" v="Sirigamneset" />
		<tag k="natural" v="cape" />
		<tag k="ssr:stedsnr" v="169409" />
	</node>
	<node lat="69.43978611356351" lon="17.9733499948637" id="-38261">
		<tag k="name" v="Skjåneset" />
		<tag k="natural" v="cape" />
		<tag k="ssr:stedsnr" v="169411" />
	</node>
	<node lat="69.22616110691402" lon="17.975402777398592" id="-38272">
		<tag k="name" v="Finnsnesodden" />
		<tag k="natural" v="cape" />
		<tag k="ssr:stedsnr" v="170367" />
	</node>
	<node lat="69.29630555695451" lon="16.964811102714577" id="-38293">
		<tag k="fixme" v="consider seamark:type=rock or natural=shoal" />
		<tag k="name" v="Kobbhella" />
		<tag k="place" v="islet" />
		<tag k="ssr:stedsnr" v="172416" />
	</node>
	<node lat="69.3441444471118" lon="17.000149996811857" id="-38295">
		<tag k="fixme" v="consider seamark:type=rock or natural=shoal" />
		<tag k="name" v="Skarveskjæret" />
		<tag k="place" v="islet" />
		<tag k="ssr:stedsnr" v="172427" />
	</node>
	<node lat="69.355583329326" lon="17.020152778677677" id="-38296">
		<tag k="fixme" v="consider seamark:type=rock or natural=shoal" />
		<tag k="name" v="Juldagssteinen" />
		<tag k="place" v="islet" />
		<tag k="ssr:stedsnr" v="172428" />
	</node>
	<node lat="69.39255277385622" lon="16.939124998040324" id="-38297">
		<tag k="name" v="Mollvika" />
		<tag k="natural" v="bay" />
		<tag k="ssr:stedsnr" v="172459" />
	</node>
	<node lat="69.36352221834522" lon="17.088244451515013" id="-38302">
		<tag k="fixme" v="consider seamark:type=rock or natural=shoal" />
		<tag k="name" v="Ytre Pålsteinan" />
		<tag k="place" v="islet" />
		<tag k="ssr:stedsnr" v="172707" />
	</node>
	<node lat="69.05676667081954" lon="16.78011110940735" id="-38306">
		<tag k="fixme" v="consider seamark:type=rock or natural=shoal" />
		<tag k="name" v="Vardhågskjæran" />
		<tag k="place" v="islet" />
		<tag k="ssr:stedsnr" v="172819" />
	</node>
	<node lat="69.07373610737675" lon="17.06231110767588" id="-38312">
		<tag k="name" v="Sommarsetholmen" />
		<tag k="place" v="islet" />
		<tag k="ssr:stedsnr" v="173261" />
	</node>
	<node lat="69.03956944805161" lon="17.22513611256765" id="-38315">
		<tag k="name" v="Nord-Klemmesvika" />
		<tag k="natural" v="bay" />
		<tag k="ssr:stedsnr" v="173370" />
	</node>
	<node lat="69.07443055527739" lon="17.017597215130728" id="-38317">
		<tag k="name" v="Åhamna" />
		<tag k="natural" v="bay" />
		<tag k="ssr:stedsnr" v="173459" />
	</node>
	<node lat="69.31286388880369" lon="17.12025277012634" id="-38318">
		<tag k="name" v="Toftebukta" />
		<tag k="natural" v="bay" />
		<tag k="ssr:stedsnr" v="173465" />
	</node>
	<node lat="69.03458055150367" lon="17.054025007352905" id="-38321">
		<tag k="name" v="Eidet" />
		<tag k="place" v="locality" />
		<tag k="ssr:stedsnr" v="173608" />
	</node>
	<node lat="69.47751944070912" lon="17.217777771341623" id="-38328">
		<tag k="name" v="Bardnesvika" />
		<tag k="natural" v="bay" />
		<tag k="ssr:stedsnr" v="261184" />
	</node>
	<node lat="69.01761944264048" lon="17.195397232454823" id="-38331">
		<tag k="fixme" v="consider seamark:type=rock or natural=shoal" />
		<tag k="name" v="Storflua" />
		<tag k="place" v="islet" />
		<tag k="ssr:stedsnr" v="173508" />
	</node>
	<node lat="69.47396111239986" lon="17.31399998631577" id="-38333">
		<tag k="bay" v="fjord" />
		<tag k="name" v="Steinfjorden" />
		<tag k="natural" v="bay" />
		<tag k="ssr:stedsnr" v="261190" />
	</node>
	<node lat="69.39594721995567" lon="17.31429999548952" id="-38338">
		<tag k="name" v="Trovika" />
		<tag k="natural" v="bay" />
		<tag k="ssr:stedsnr" v="174406" />
	</node>
	<node lat="69.1412305551094" lon="17.43086666349968" id="-38340">
		<tag k="name" v="Strandkjosen" />
		<tag k="natural" v="bay" />
		<tag k="ssr:stedsnr" v="261295" />
	</node>
	<node lat="69.30972499652373" lon="16.717119429855355" id="-38341">
		<tag k="name" v="Angvardan" />
		<tag k="natural" v="shoal" />
		<tag k="place" v="locality" />
		<tag k="ssr:stedsnr" v="261213" />
	</node>
	<node lat="69.44392221913989" lon="17.297466668259318" id="-38347">
		<tag k="name" v="Pila" />
		<tag k="natural" v="cape" />
		<tag k="ssr:stedsnr" v="174824" />
	</node>
	<node lat="69.41670277876935" lon="17.21325834362227" id="-38352">
		<tag k="name" v="Bøneset" />
		<tag k="natural" v="cape" />
		<tag k="ssr:stedsnr" v="261246" />
	</node>
	<node lat="69.39307222148706" lon="17.250058323922214" id="-38353">
		<tag k="name" v="Borkneset" />
		<tag k="natural" v="cape" />
		<tag k="ssr:stedsnr" v="261361" />
	</node>
	<node lat="69.1584611088761" lon="17.67460278559285" id="-38355">
		<tag k="name" v="Storvika" />
		<tag k="natural" v="bay" />
		<tag k="ssr:stedsnr" v="261322" />
	</node>
	<node lat="69.20381667097782" lon="17.493897220698315" id="-38362">
		<tag k="name" v="Vardneset" />
		<tag k="natural" v="cape" />
		<tag k="ssr:stedsnr" v="261390" />
	</node>
	<node lat="69.44849722146212" lon="17.85112499500085" id="-38372">
		<tag k="name" v="Storvika" />
		<tag k="natural" v="bay" />
		<tag k="ssr:stedsnr" v="261464" />
	</node>
	<node lat="69.33927499784264" lon="17.956152768369623" id="-38383">
		<tag k="name" v="Lanesodden" />
		<tag k="natural" v="cape" />
		<tag k="ssr:stedsnr" v="261551" />
	</node>
	<node lat="69.3159833308359" lon="17.919122211539705" id="-38392">
		<tag k="name" v="Skognesholmen" />
		<tag k="natural" v="cape" />
		<tag k="ssr:stedsnr" v="261589" />
	</node>
	<node lat="69.41664166866254" lon="17.950644432540603" id="-38395">
		<tag k="alt_name" v="Lysnes, in" />
		<tag k="name" v="Indre Lysnes" />
		<tag k="natural" v="cape" />
		<tag k="ssr:stedsnr" v="261536" />
	</node>
	<node lat="69.45309444513373" lon="18.004188885842794" id="-38397">
		<tag k="name" v="Torbergneset" />
		<tag k="natural" v="cape" />
		<tag k="ssr:stedsnr" v="261622" />
	</node>
	<node lat="69.48938055669512" lon="18.067408323993703" id="-38400">
		<tag k="alt_name" v="Skårliodden;Ytre Skårlineset" />
		<tag k="name" v="Skårlineset" />
		<tag k="natural" v="cape" />
		<tag k="ssr:stedsnr" v="261640" />
	</node>
	<node lat="69.38505833071194" lon="18.140508337306205" id="-38402">
		<tag k="name" v="Kobbesteinneset" />
		<tag k="natural" v="cape" />
		<tag k="ssr:stedsnr" v="261673" />
	</node>
	<node lat="69.51537499791088" lon="17.950066661027915" id="-38408">
		<tag k="name" v="Gavlen" />
		<tag k="natural" v="cape" />
		<tag k="ssr:stedsnr" v="261804" />
	</node>
	<node lat="69.5911083362931" lon="17.579569441332954" id="-38410">
		<tag k="fixme" v="consider seamark:type=rock or natural=shoal" />
		<tag k="name" v="Øyfjordskjæret" />
		<tag k="place" v="islet" />
		<tag k="ssr:stedsnr" v="261721" />
	</node>
	<node lat="69.59855000148627" lon="17.78253054277954" id="-38413">
		<tag k="name" v="Leiven" />
		<tag k="natural" v="shoal" />
		<tag k="place" v="locality" />
		<tag k="ssr:stedsnr" v="261730" />
	</node>
	<node lat="69.57218888841611" lon="17.89709165632703" id="-38414">
		<tag k="name" v="Persaflua" />
		<tag k="natural" v="shoal" />
		<tag k="place" v="locality" />
		<tag k="ssr:stedsnr" v="261732" />
	</node>
	<node lat="69.51802221950155" lon="17.22170277357916" id="-38423">
		<tag k="name" v="Hellandsgrunnen" />
		<tag k="natural" v="shoal" />
		<tag k="place" v="locality" />
		<tag k="ssr:stedsnr" v="261918" />
	</node>
	<node lat="69.50259166551564" lon="17.231463879972484" id="-38424">
		<tag k="alt_name" v="Makjelneset" />
		<tag k="name" v="Matkjelneset" />
		<tag k="natural" v="cape" />
		<tag k="ssr:stedsnr" v="261928" />
	</node>
	<node lat="69.61555555716483" lon="17.37083333824042" id="-38425">
		<tag k="name" v="Arnebåen" />
		<tag k="natural" v="shoal" />
		<tag k="place" v="locality" />
		<tag k="ssr:stedsnr" v="261992" />
	</node>
	<node lat="69.25948333381787" lon="17.944241674670305" id="-38427">
		<tag k="name" v="Vika" />
		<tag k="natural" v="bay" />
		<tag k="ssr:stedsnr" v="263266" />
	</node>
	<node lat="69.15336111024472" lon="16.791702764562068" id="-38431">
		<tag k="fixme" v="consider seamark:type=rock or natural=shoal" />
		<tag k="name" v="Terningen" />
		<tag k="place" v="islet" />
		<tag k="ssr:stedsnr" v="199005" />
	</node>
	<node lat="69.06033611382664" lon="16.803249997330113" id="-38433">
		<tag k="alt_name" v="Heimstevika" />
		<tag k="name" v="Hemstervika" />
		<tag k="natural" v="bay" />
		<tag k="ssr:stedsnr" v="200107" />
	</node>
	<node lat="69.03537777485339" lon="16.976502781531785" id="-38434">
		<tag k="name" v="Iverskallen" />
		<tag k="natural" v="shoal" />
		<tag k="place" v="locality" />
		<tag k="ssr:stedsnr" v="200109" />
	</node>
	<node lat="69.03839722630356" lon="17.044833322317086" id="-38435">
		<tag k="name" v="Hofsøya" />
		<tag k="natural" v="cape" />
		<tag k="ssr:stedsnr" v="200110" />
	</node>
	<node lat="69.0763472255659" lon="17.219908338212036" id="-38437">
		<tag k="alt_name" v="Risøya, store" />
		<tag k="name" v="Store Risøya" />
		<tag k="place" v="island" />
		<tag k="ssr:stedsnr" v="200007" />
	</node>
	<node lat="69.41015277378888" lon="17.1427027785219" id="-38440">
		<tag k="alt_name" v="Skinnstakkskjeret" />
		<tag k="fixme" v="consider seamark:type=rock or natural=shoal" />
		<tag k="name" v="Skinnstakkskjæret" />
		<tag k="place" v="islet" />
		<tag k="ssr:stedsnr" v="200260" />
	</node>
	<node lat="69.31935833630286" lon="16.9260111185839" id="-38442">
		<tag k="name" v="Kveitsporden" />
		<tag k="natural" v="cape" />
		<tag k="ssr:stedsnr" v="200411" />
	</node>
	<node lat="69.31998888984724" lon="16.959063890990706" id="-38443">
		<tag k="name" v="Kjerringvika" />
		<tag k="natural" v="bay" />
		<tag k="ssr:stedsnr" v="200412" />
	</node>
	<node lat="69.38236389040067" lon="17.37686112067312" id="-38447">
		<tag k="alt_name" v="Hompen" />
		<tag k="fixme" v="consider seamark:type=rock or natural=shoal" />
		<tag k="name" v="Humpen" />
		<tag k="place" v="islet" />
		<tag k="ssr:stedsnr" v="200360" />
	</node>
	<node lat="69.2956972239133" lon="18.496388879988256" id="-38452">
		<tag k="name" v="Steinøra" />
		<tag k="natural" v="cape" />
		<tag k="ssr:stedsnr" v="200805" />
	</node>
	<node lat="69.57285555296515" lon="17.832058333379265" id="-38456">
		<tag k="alt_name" v="Reselvikneset" />
		<tag k="name" v="Resselvikneset" />
		<tag k="natural" v="cape" />
		<tag k="ssr:stedsnr" v="200751" />
	</node>
	<node lat="69.57602777950505" lon="17.7124694495492" id="-38457">
		<tag k="alt_name" v="Rennenesbukta" />
		<tag k="name" v="Rennebukta" />
		<tag k="natural" v="bay" />
		<tag k="ssr:stedsnr" v="200752" />
	</node>
	<node lat="69.52016666387512" lon="17.963308319369784" id="-38461">
		<tag k="name" v="Storvikneset" />
		<tag k="natural" v="cape" />
		<tag k="ssr:stedsnr" v="200795" />
	</node>
	<node lat="69.52360277733914" lon="17.630872232136657" id="-38462">
		<tag k="name" v="Kråksølvneset" />
		<tag k="natural" v="cape" />
		<tag k="ssr:stedsnr" v="200800" />
	</node>
	<node lat="69.34536388929789" lon="17.978372218756128" id="-38472">
		<tag k="name" v="Guribogen" />
		<tag k="natural" v="bay" />
		<tag k="ssr:stedsnr" v="268541" />
	</node>
	<node lat="69.51373888688235" lon="17.99626387493513" id="-38473">
		<tag k="name" v="Kvassteinvika" />
		<tag k="natural" v="bay" />
		<tag k="ssr:stedsnr" v="268556" />
	</node>
	<node lat="69.58105833766054" lon="17.86573888486829" id="-38474">
		<tag k="alt_name" v="Vindkjosan" />
		<tag k="name" v="Vindkjosen" />
		<tag k="natural" v="bay" />
		<tag k="ssr:stedsnr" v="207383" />
	</node>
	<node lat="69.4640583303892" lon="18.195741663389583" id="-38475">
		<tag k="name" v="Sørvikbåan" />
		<tag k="place" v="locality" />
		<tag k="seamark:type" v="rock" />
		<tag k="ssr:stedsnr" v="207693" />
	</node>
	<node lat="69.39217778192182" lon="18.411666652871258" id="-38476">
		<tag k="name" v="Håkjerringvika" />
		<tag k="natural" v="bay" />
		<tag k="ssr:stedsnr" v="208796" />
	</node>
	<node lat="69.24596667011883" lon="17.99110834352181" id="-38477">
		<tag k="name" v="Skjellvikneset" />
		<tag k="natural" v="cape" />
		<tag k="ssr:stedsnr" v="211340" />
	</node>
	<node lat="69.25397777613819" lon="17.996641658039387" id="-38478">
		<tag k="fixme" v="consider seamark:type=rock or natural=shoal" />
		<tag k="name" v="Kobbesteinan" />
		<tag k="place" v="islet" />
		<tag k="ssr:stedsnr" v="211888" />
	</node>
	<node lat="69.20983610883117" lon="16.7642138870083" id="-38479">
		<tag k="name" v="Nordskolten" />
		<tag k="natural" v="shoal" />
		<tag k="place" v="locality" />
		<tag k="ssr:stedsnr" v="224901" />
	</node>
	<node lat="69.54126388892928" lon="17.29952501018576" id="-38480">
		<tag k="name" v="Oksebåen" />
		<tag k="natural" v="shoal" />
		<tag k="place" v="locality" />
		<tag k="ssr:stedsnr" v="226969" />
	</node>
	<node lat="69.42472777965638" lon="17.154025009474896" id="-38481">
		<tag k="alt_name" v="Nordre Flatholmen" />
		<tag k="name" v="Nordre Flatholman" />
		<tag k="place" v="islet" />
		<tag k="ssr:stedsnr" v="228440" />
	</node>
	<node lat="69.45582222518345" lon="17.821888888087532" id="-38484">
		<tag k="name" v="Litjelangneset" />
		<tag k="natural" v="cape" />
		<tag k="ssr:stedsnr" v="229507" />
	</node>
	<node lat="69.46144444331222" lon="17.823050005336096" id="-38499">
		<tag k="name" v="Kobbekjosen" />
		<tag k="natural" v="bay" />
		<tag k="ssr:stedsnr" v="230335" />
	</node>
	<node lat="69.22728055460897" lon="17.970569451237935" id="-38501">
		<tag k="name" v="Katrinabukta" />
		<tag k="natural" v="bay" />
		<tag k="ssr:stedsnr" v="230339" />
	</node>
	<node lat="69.60116111071295" lon="17.83407777228957" id="-38502">
		<tag k="name" v="Fyrkeila" />
		<tag k="natural" v="bay" />
		<tag k="ssr:stedsnr" v="230514" />
	</node>
	<node lat="69.54862500098982" lon="17.920669447573633" id="-38504">
		<tag k="name" v="Kobbeneset" />
		<tag k="natural" v="cape" />
		<tag k="ssr:stedsnr" v="230485" />
	</node>
	<node lat="69.56836944922595" lon="17.893902771348333" id="-38507">
		<tag k="name" v="Litje Laukvika" />
		<tag k="natural" v="bay" />
		<tag k="ssr:stedsnr" v="230494" />
	</node>
	<node lat="69.54155555492281" lon="17.76471389350935" id="-38510">
		<tag k="name" v="Verselneset" />
		<tag k="natural" v="cape" />
		<tag k="ssr:stedsnr" v="230811" />
	</node>
	<node lat="69.57415278188171" lon="17.852127773497205" id="-38514">
		<tag k="name" v="Småsandan" />
		<tag k="natural" v="bay" />
		<tag k="ssr:stedsnr" v="230788" />
	</node>
	<node lat="69.46585833463111" lon="18.168327783761793" id="-38517">
		<tag k="name" v="Rødbergsholmen" />
		<tag k="place" v="islet" />
		<tag k="ssr:stedsnr" v="232630" />
	</node>
	<node lat="69.20737222011391" lon="16.89961387558696" id="-38533">
		<tag k="name" v="Ressenesen" />
		<tag k="natural" v="cape" />
		<tag k="ssr:stedsnr" v="233279" />
	</node>
	<node lat="69.13978333134472" lon="17.33190278364988" id="-38544">
		<tag k="name" v="Kjosen" />
		<tag k="natural" v="bay" />
		<tag k="ssr:stedsnr" v="233535" />
	</node>
	<node lat="69.09701388976723" lon="16.781724987797954" id="-38552">
		<tag k="name" v="Sylholla" />
		<tag k="natural" v="bay" />
		<tag k="ssr:stedsnr" v="233903" />
	</node>
	<node lat="69.01206110965062" lon="17.03815555438041" id="-38555">
		<tag k="name" v="Litelarsvika" />
		<tag k="natural" v="bay" />
		<tag k="ssr:stedsnr" v="233947" />
	</node>
	<node lat="69.06882499719441" lon="16.797999997982952" id="-38556">
		<tag k="name" v="Storgropa" />
		<tag k="natural" v="bay" />
		<tag k="ssr:stedsnr" v="233883" />
	</node>
	<node lat="69.10032222532865" lon="16.750483333824516" id="-38557">
		<tag k="bay" v="fjord" />
		<tag k="name" v="Steinafjorden" />
		<tag k="natural" v="bay" />
		<tag k="ssr:stedsnr" v="233900" />
	</node>
	<node lat="69.44150555549756" lon="17.14461111836135" id="-38560">
		<tag k="name" v="Valen" />
		<tag k="natural" v="bay" />
		<tag k="ssr:stedsnr" v="234134" />
	</node>
	<node lat="69.4013361144207" lon="17.29918056469213" id="-38567">
		<tag k="name" v="Trongstraumen" />
		<tag k="natural" v="strait" />
		<tag k="ssr:stedsnr" v="234413" />
	</node>
	<node lat="69.01220832974916" lon="17.1322055559957" id="-38574">
		<tag k="name" v="Naustholmen" />
		<tag k="place" v="islet" />
		<tag k="ssr:stedsnr" v="234702" />
	</node>
	<node lat="69.3106472223011" lon="17.119483328497278" id="-38575">
		<tag k="fixme" v="consider seamark:type=rock or natural=shoal" />
		<tag k="name" v="Osterrevet" />
		<tag k="place" v="islet" />
		<tag k="ssr:stedsnr" v="234610" />
	</node>
	<node lat="69.0455999992032" lon="17.18952221920169" id="-38580">
		<tag k="name" v="Langstranda" />
		<tag k="natural" v="beach" />
		<tag k="ssr:stedsnr" v="234680" />
	</node>
	<node lat="69.44640833485458" lon="17.276083326686457" id="-38589">
		<tag k="fixme" v="consider seamark:type=rock or natural=shoal" />
		<tag k="name" v="Kjerkegårdsskjæret" />
		<tag k="place" v="islet" />
		<tag k="ssr:stedsnr" v="235308" />
	</node>
	<node lat="69.43676944254764" lon="17.239724989309817" id="-38590">
		<tag k="name" v="Færøysteinen" />
		<tag k="place" v="locality" />
		<tag k="seamark:type" v="rock" />
		<tag k="ssr:stedsnr" v="235267" />
	</node>
	<node lat="69.43519722160296" lon="17.393358337981084" id="-38591">
		<tag k="name" v="Dungeneset" />
		<tag k="natural" v="cape" />
		<tag k="ssr:stedsnr" v="235550" />
	</node>
	<node lat="69.59325555264371" lon="17.829913893342916" id="-38593">
		<tag k="name" v="Sylvika" />
		<tag k="natural" v="bay" />
		<tag k="ssr:stedsnr" v="450291" />
	</node>
	<node lat="69.59761944732035" lon="17.837569434045772" id="-38594">
		<tag k="name" v="Svinvika" />
		<tag k="natural" v="bay" />
		<tag k="ssr:stedsnr" v="450293" />
	</node>
	<node lat="69.58402221995246" lon="17.483680553109807" id="-38598">
		<tag k="name" v="Brygga" />
		<tag k="place" v="islet" />
		<tag k="ssr:stedsnr" v="237191" />
	</node>
	<node lat="69.01448055745361" lon="17.196611120611067" id="-38601">
		<tag k="name" v="Gårdskjærgrunnen" />
		<tag k="natural" v="shoal" />
		<tag k="place" v="locality" />
		<tag k="ssr:stedsnr" v="454324" />
	</node>
	<node lat="69.07438611614273" lon="17.020555544096787" id="-38603">
		<tag k="fixme" v="multiple name tags, choose one and add the other to alt_name" />
		<tag k="name" v="Grønnvika;Storhamna" />
		<tag k="natural" v="bay" />
		<tag k="ssr:stedsnr" v="454154" />
	</node>
	<node lat="69.23365505930757" lon="17.95996390855162" id="-38604">
		<tag k="fixme" v="consider seamark:type=rock or natural=shoal" />
		<tag k="name" v="Finnsnesskjæret" />
		<tag k="place" v="islet" />
		<tag k="ssr:stedsnr" v="454386" />
	</node>
	<node lat="69.08167221844938" lon="17.218763896465333" id="-38605">
		<tag k="fixme" v="consider seamark:type=rock or natural=shoal" />
		<tag k="name" v="Småskjæran" />
		<tag k="place" v="islet" />
		<tag k="ssr:stedsnr" v="454387" />
	</node>
	<node lat="69.14651111288045" lon="17.41863612227461" id="-38606">
		<tag k="fixme" v="consider seamark:type=rock or natural=shoal" />
		<tag k="name" v="Sandskjæran" />
		<tag k="place" v="islet" />
		<tag k="ssr:stedsnr" v="454477" />
	</node>
	<node lat="69.14935555316536" lon="17.440161115993416" id="-38607">
		<tag k="name" v="Hamnholmen" />
		<tag k="place" v="islet" />
		<tag k="ssr:stedsnr" v="454479" />
	</node>
	<node lat="69.23398889292409" lon="17.97195276772249" id="-38609">
		<tag k="name" v="Bjørnhineset" />
		<tag k="natural" v="cape" />
		<tag k="ssr:stedsnr" v="454997" />
	</node>
	<node lat="69.23077222222832" lon="16.88876665363375" id="-38612">
		<tag k="alt_name" v="Persvika" />
		<tag k="name" v="Olpersavika" />
		<tag k="natural" v="bay" />
		<tag k="ssr:stedsnr" v="260216" />
	</node>
	<node lat="69.1246861158901" lon="17.32367221424207" id="-38613">
		<tag k="fixme" v="multiple name tags, choose one and add the other to alt_name" />
		<tag k="name" v="Sørklubben;Klubben" />
		<tag k="natural" v="cape" />
		<tag k="ssr:stedsnr" v="260255" />
	</node>
	<node lat="69.13813889216712" lon="17.03309722198162" id="-38615">
		<tag k="alt_name" v="Litje Fagervik;Fagervika, l" />
		<tag k="name" v="Litje Fagervika" />
		<tag k="natural" v="bay" />
		<tag k="ssr:stedsnr" v="260304" />
	</node>
	<node lat="69.04702777881704" lon="17.101341666135973" id="-38617">
		<tag k="name" v="Storneset" />
		<tag k="natural" v="cape" />
		<tag k="ssr:stedsnr" v="261104" />
	</node>
	<node lat="69.14009444419409" lon="17.659849997745248" id="-38620">
		<tag k="bay" v="fjord" />
		<tag k="name" v="Solbergfjorden" />
		<tag k="natural" v="bay" />
		<tag k="ssr:stedsnr" v="261296" />
	</node>
	<node lat="69.4593277796039" lon="16.85880554825124" id="-38625">
		<tag k="name" v="Grunnhaugbåen" />
		<tag k="natural" v="shoal" />
		<tag k="place" v="locality" />
		<tag k="ssr:stedsnr" v="261306" />
	</node>
	<node lat="69.15641388767766" lon="17.88986387896553" id="-38626">
		<tag k="name" v="Solberggrunnen" />
		<tag k="natural" v="shoal" />
		<tag k="place" v="locality" />
		<tag k="ssr:stedsnr" v="261312" />
	</node>
	<node lat="69.57058611112033" lon="17.84794999541746" id="-38642">
		<tag k="name" v="Giska" />
		<tag k="natural" v="bay" />
		<tag k="ssr:stedsnr" v="261748" />
	</node>
	<node lat="69.50782500297126" lon="17.490022234330265" id="-38644">
		<tag k="name" v="Dyngeneset" />
		<tag k="natural" v="cape" />
		<tag k="ssr:stedsnr" v="261795" />
	</node>
	<node lat="69.40436389327346" lon="18.04928609939623" id="-38647">
		<tag k="name" v="Grunnvågbukta" />
		<tag k="natural" v="bay" />
		<tag k="ssr:stedsnr" v="268527" />
	</node>
	<node lat="69.47206111294267" lon="18.31314444846935" id="-38648">
		<tag k="name" v="Øyra" />
		<tag k="natural" v="cape" />
		<tag k="ssr:stedsnr" v="269777" />
	</node>
	<node lat="69.48079444051655" lon="18.286427774498566" id="-38649">
		<tag k="name" v="Sennvika" />
		<tag k="natural" v="bay" />
		<tag k="ssr:stedsnr" v="269778" />
	</node>
	<node lat="69.06172500092576" lon="16.761952775912043" id="-38650">
		<tag k="alt_name" v="Kråkongen" />
		<tag k="name" v="Kråkungen" />
		<tag k="natural" v="shoal" />
		<tag k="place" v="locality" />
		<tag k="ssr:stedsnr" v="272106" />
	</node>
	<node lat="69.00385833414383" lon="17.04077220873197" id="-38651">
		<tag k="name" v="Stongegrunnen" />
		<tag k="natural" v="shoal" />
		<tag k="place" v="locality" />
		<tag k="ssr:stedsnr" v="272287" />
	</node>
	<node lat="69.06633333084528" lon="17.228805549088957" id="-38652">
		<tag k="name" v="Bjørgagrunnen" />
		<tag k="natural" v="shoal" />
		<tag k="place" v="locality" />
		<tag k="ssr:stedsnr" v="272374" />
	</node>
	<node lat="69.07215555943236" lon="17.11697777025424" id="-38653">
		<tag k="name" v="Leirpollgrunnen" />
		<tag k="natural" v="shoal" />
		<tag k="place" v="locality" />
		<tag k="ssr:stedsnr" v="272791" />
	</node>
	<node lat="69.24703333567568" lon="17.958905557316523" id="-38654">
		<tag k="name" v="Galtevikklubben" />
		<tag k="natural" v="cape" />
		<tag k="ssr:stedsnr" v="272973" />
	</node>
	<node lat="69.46636111179413" lon="17.21187777151955" id="-38655">
		<tag k="name" v="Hunden" />
		<tag k="natural" v="shoal" />
		<tag k="place" v="locality" />
		<tag k="ssr:stedsnr" v="288731" />
	</node>
	<node lat="69.49686389170071" lon="17.19669723078048" id="-38657">
		<tag k="fixme" v="multiple name tags, choose one and add the other to alt_name" />
		<tag k="name" v="Roren;Røra" />
		<tag k="natural" v="cape" />
		<tag k="ssr:stedsnr" v="288783" />
	</node>
	<node lat="69.43829721831277" lon="17.119466676153408" id="-38658">
		<tag k="fixme" v="consider seamark:type=rock or natural=shoal" />
		<tag k="name" v="Leiskjæret" />
		<tag k="place" v="islet" />
		<tag k="ssr:stedsnr" v="289891" />
	</node>
	<node lat="69.30373888724426" lon="17.99261110123378" id="-38665">
		<tag k="name" v="Frislettholmen" />
		<tag k="place" v="islet" />
		<tag k="ssr:stedsnr" v="291107" />
	</node>
	<node lat="69.54033333309476" lon="17.66454442969996" id="-38666">
		<tag k="name" v="Øyenden" />
		<tag k="natural" v="cape" />
		<tag k="ssr:stedsnr" v="291133" />
	</node>
	<node lat="69.1985055582042" lon="17.948533337440846" id="-38671">
		<tag k="name" v="Holmen" />
		<tag k="natural" v="cape" />
		<tag k="ssr:stedsnr" v="291379" />
	</node>
	<node lat="69.19738610754591" lon="17.949752772941835" id="-38672">
		<tag k="name" v="Naustneset" />
		<tag k="natural" v="cape" />
		<tag k="ssr:stedsnr" v="291381" />
	</node>
	<node lat="69.1981777755342" lon="17.94580278404377" id="-38673">
		<tag k="name" v="Vågan" />
		<tag k="natural" v="bay" />
		<tag k="ssr:stedsnr" v="291384" />
	</node>
	<node lat="69.22971666225905" lon="17.973263893060103" id="-38674">
		<tag k="name" v="Søndre Harrevika" />
		<tag k="natural" v="bay" />
		<tag k="ssr:stedsnr" v="291392" />
	</node>
	<node lat="69.41149166667779" lon="17.993169434254096" id="-38677">
		<tag k="name" v="Landfastholmen" />
		<tag k="natural" v="cape" />
		<tag k="ssr:stedsnr" v="291411" />
	</node>
	<node lat="69.16816944762313" lon="17.890897215828975" id="-38678">
		<tag k="fixme" v="consider seamark:type=rock or natural=shoal" />
		<tag k="name" v="Krestiansteinen" />
		<tag k="place" v="islet" />
		<tag k="ssr:stedsnr" v="291630" />
	</node>
	<node lat="69.22491110866655" lon="18.0857555604676" id="-38682">
		<tag k="name" v="Kalvegjerdneset" />
		<tag k="natural" v="cape" />
		<tag k="ssr:stedsnr" v="292429" />
	</node>
	<node lat="69.21596667099034" lon="18.071180551163344" id="-38684">
		<tag k="fixme" v="consider seamark:type=rock or natural=shoal" />
		<tag k="name" v="Tennskjæret" />
		<tag k="place" v="islet" />
		<tag k="ssr:stedsnr" v="292502" />
	</node>
	<node lat="69.37129444908143" lon="18.49375276766382" id="-38691">
		<tag k="name" v="Litjevika" />
		<tag k="natural" v="bay" />
		<tag k="ssr:stedsnr" v="293873" />
	</node>
	<node lat="69.30069999838604" lon="16.758377775960895" id="-38696">
		<tag k="name" v="Skjolddraget" />
		<tag k="place" v="islet" />
		<tag k="ssr:stedsnr" v="294124" />
	</node>
	<node lat="69.25792777692911" lon="16.809313880577214" id="-38697">
		<tag k="name" v="Per-Jonsaholmen" />
		<tag k="place" v="islet" />
		<tag k="ssr:stedsnr" v="294127" />
	</node>
	<node lat="69.07216944504552" lon="17.01829445470274" id="-38703">
		<tag k="name" v="Gammstranda" />
		<tag k="natural" v="beach" />
		<tag k="ssr:stedsnr" v="294517" />
	</node>
	<node lat="69.3582805542018" lon="17.096527763732492" id="-38709">
		<tag k="name" v="Sildevikklubben" />
		<tag k="natural" v="cape" />
		<tag k="ssr:stedsnr" v="294680" />
	</node>
	<node lat="69.17975278017875" lon="17.4914722293878" id="-38714">
		<tag k="name" v="Flatbergneset" />
		<tag k="natural" v="cape" />
		<tag k="ssr:stedsnr" v="294827" />
	</node>
	<node lat="69.28509166946984" lon="17.174383320976602" id="-38715">
		<tag k="name" v="Røyrnesbukta" />
		<tag k="natural" v="bay" />
		<tag k="ssr:stedsnr" v="294708" />
	</node>
	<node lat="69.01228055369573" lon="17.1485583429739" id="-38716">
		<tag k="name" v="Bertusholmen" />
		<tag k="place" v="islet" />
		<tag k="ssr:stedsnr" v="294709" />
	</node>
	<node lat="69.04898888474534" lon="17.046022217984603" id="-38718">
		<tag k="name" v="Storslettsanden" />
		<tag k="natural" v="beach" />
		<tag k="ssr:stedsnr" v="294718" />
	</node>
	<node lat="69.4261638856629" lon="17.20233888638652" id="-38724">
		<tag k="name" v="Midtre Risøya" />
		<tag k="place" v="island" />
		<tag k="ssr:stedsnr" v="295073" />
	</node>
	<node lat="69.4790111150151" lon="17.18445833696607" id="-38725">
		<tag k="fixme" v="consider seamark:type=rock or natural=shoal" />
		<tag k="name" v="Litje Botnlausskjæret" />
		<tag k="place" v="islet" />
		<tag k="ssr:stedsnr" v="295087" />
	</node>
	<node lat="69.4156027752917" lon="17.207305540837737" id="-38726">
		<tag k="name" v="Sennevika" />
		<tag k="natural" v="bay" />
		<tag k="ssr:stedsnr" v="295090" />
	</node>
	<node lat="69.28458055180322" lon="17.129280552343598" id="-38732">
		<tag k="name" v="Holla" />
		<tag k="natural" v="bay" />
		<tag k="ssr:stedsnr" v="295602" />
	</node>
	<node lat="69.40608333122047" lon="17.297463886649634" id="-38735">
		<tag k="name" v="Kleiva" />
		<tag k="natural" v="beach" />
		<tag k="ssr:stedsnr" v="295373" />
	</node>
	<node lat="69.40152778077972" lon="17.31216945293234" id="-38736">
		<tag k="name" v="Krokhalsen" />
		<tag k="place" v="locality" />
		<tag k="ssr:stedsnr" v="295379" />
	</node>
	<node lat="69.42407434001456" lon="17.240617194913263" id="-38741">
		<tag k="name" v="Store Kvannholmen" />
		<tag k="place" v="islet" />
		<tag k="ssr:stedsnr" v="295930" />
	</node>
	<node lat="69.49115555357773" lon="17.48012778487172" id="-38751">
		<tag k="name" v="Hanslarsaneset" />
		<tag k="natural" v="cape" />
		<tag k="ssr:stedsnr" v="297091" />
	</node>
	<node lat="69.49706666508439" lon="17.495322210552796" id="-38753">
		<tag k="name" v="Hopsrenna" />
		<tag k="natural" v="strait" />
		<tag k="ssr:stedsnr" v="297097" />
	</node>
	<node lat="69.46685555650231" lon="17.671058329227694" id="-38755">
		<tag k="name" v="Finnvika" />
		<tag k="natural" v="bay" />
		<tag k="ssr:stedsnr" v="297274" />
	</node>
	<node lat="69.1747111078655" lon="17.049744445340785" id="-38757">
		<tag k="name" v="Storskjærgrunnen" />
		<tag k="natural" v="shoal" />
		<tag k="place" v="locality" />
		<tag k="ssr:stedsnr" v="467188" />
	</node>
	<node lat="69.02261666824438" lon="17.247886104897596" id="-38758">
		<tag k="name" v="Lekangsøya" />
		<tag k="place" v="island" />
		<tag k="ssr:stedsnr" v="320089" />
	</node>
	<node lat="69.39509166493701" lon="17.12698889599648" id="-38762">
		<tag k="name" v="Håmannsvika" />
		<tag k="natural" v="bay" />
		<tag k="ssr:stedsnr" v="468160" />
	</node>
	<node lat="69.129324999173" lon="17.329025004391394" id="-38768">
		<tag k="name" v="Håkjerringneset" />
		<tag k="natural" v="cape" />
		<tag k="ssr:stedsnr" v="321189" />
	</node>
	<node lat="69.30467777444886" lon="16.78631943881744" id="-38770">
		<tag k="fixme" v="consider seamark:type=rock or natural=shoal" />
		<tag k="name" v="Stabban" />
		<tag k="place" v="islet" />
		<tag k="ssr:stedsnr" v="321196" />
	</node>
	<node lat="69.30554999698944" lon="16.75394443722257" id="-38771">
		<tag k="name" v="Esfallet" />
		<tag k="natural" v="shoal" />
		<tag k="place" v="locality" />
		<tag k="ssr:stedsnr" v="321198" />
	</node>
	<node lat="69.49435833017664" lon="17.255188874179822" id="-38784">
		<tag k="name" v="Storvika" />
		<tag k="natural" v="bay" />
		<tag k="ssr:stedsnr" v="322179" />
	</node>
	<node lat="69.27553888885878" lon="17.901822224318373" id="-38793">
		<tag k="name" v="Grasmyrbotnen" />
		<tag k="natural" v="bay" />
		<tag k="ssr:stedsnr" v="322627" />
	</node>
	<node lat="69.60401944083303" lon="17.683922207512655" id="-38799">
		<tag k="name" v="Sundskolten" />
		<tag k="natural" v="shoal" />
		<tag k="place" v="locality" />
		<tag k="ssr:stedsnr" v="322783" />
	</node>
	<node lat="69.47505278165409" lon="17.294661109760312" id="-38800">
		<tag k="name" v="Heslevika" />
		<tag k="natural" v="bay" />
		<tag k="ssr:stedsnr" v="329065" />
	</node>
	<node lat="69.4983472181297" lon="17.16114166968526" id="-38801">
		<tag k="name" v="Prestan" />
		<tag k="natural" v="shoal" />
		<tag k="place" v="locality" />
		<tag k="ssr:stedsnr" v="470797" />
	</node>
	<node lat="69.22971944119574" lon="17.1265333425072" id="-38803">
		<tag k="name" v="Kvænbukta" />
		<tag k="natural" v="bay" />
		<tag k="ssr:stedsnr" v="332311" />
	</node>
	<node lat="69.0569777810809" lon="17.05629721744641" id="-38804">
		<tag k="name" v="Klubben" />
		<tag k="natural" v="cape" />
		<tag k="ssr:stedsnr" v="332805" />
	</node>
	<node lat="69.06678611307004" lon="16.753049996048382" id="-38805">
		<tag k="name" v="Kjerringfallet" />
		<tag k="natural" v="shoal" />
		<tag k="place" v="locality" />
		<tag k="ssr:stedsnr" v="333097" />
	</node>
	<node lat="69.05309444240609" lon="16.77171389626509" id="-38806">
		<tag k="fixme" v="consider seamark:type=rock or natural=shoal" />
		<tag k="name" v="Tægen" />
		<tag k="place" v="islet" />
		<tag k="ssr:stedsnr" v="333100" />
	</node>
	<node lat="69.06650555175584" lon="16.790661099935527" id="-38807">
		<tag k="name" v="Steingrunnen" />
		<tag k="natural" v="shoal" />
		<tag k="place" v="locality" />
		<tag k="ssr:stedsnr" v="333208" />
	</node>
	<node lat="69.07526388625885" lon="17.228633338526848" id="-38808">
		<tag k="fixme" v="consider seamark:type=rock or natural=shoal" />
		<tag k="name" v="Henrikkaskjæret" />
		<tag k="place" v="islet" />
		<tag k="ssr:stedsnr" v="333408" />
	</node>
	<node lat="69.57198888714812" lon="17.72105276730072" id="-38810">
		<tag k="alt_name" v="Korsbåan" />
		<tag k="name" v="Korsbåen" />
		<tag k="place" v="locality" />
		<tag k="seamark:type" v="rock" />
		<tag k="ssr:stedsnr" v="471285" />
	</node>
	<node lat="69.5624916652915" lon="17.729400005043114" id="-38811">
		<tag k="name" v="Gammelsjyen" />
		<tag k="natural" v="cape" />
		<tag k="ssr:stedsnr" v="471288" />
	</node>
	<node lat="69.4558805601872" lon="16.956386108678547" id="-38813">
		<tag k="name" v="Nordre Kjerringkneskolten" />
		<tag k="natural" v="shoal" />
		<tag k="place" v="locality" />
		<tag k="ssr:stedsnr" v="471383" />
	</node>
	<node lat="69.40946389046633" lon="17.31494722442276" id="-38815">
		<tag k="alt_name" v="Skjånesskjæret" />
		<tag k="fixme" v="consider seamark:type=rock or natural=shoal" />
		<tag k="name" v="Skjånesholmen" />
		<tag k="place" v="islet" />
		<tag k="ssr:stedsnr" v="471876" />
	</node>
	<node lat="69.41621944390965" lon="17.25813332718479" id="-38816">
		<tag k="name" v="Homannsflua" />
		<tag k="place" v="locality" />
		<tag k="seamark:type" v="rock" />
		<tag k="ssr:stedsnr" v="471855" />
	</node>
	<node lat="69.5910472225209" lon="17.69759167732048" id="-38819">
		<tag k="name" v="Kubukta" />
		<tag k="natural" v="bay" />
		<tag k="ssr:stedsnr" v="472127" />
	</node>
	<node lat="69.50181111134339" lon="18.028852771582738" id="-38827">
		<tag k="name" v="Rævneset" />
		<tag k="natural" v="cape" />
		<tag k="ssr:stedsnr" v="472632" />
	</node>
	<node lat="69.59805555849303" lon="17.810536107001344" id="-38834">
		<tag k="name" v="Leivklubben" />
		<tag k="natural" v="cape" />
		<tag k="ssr:stedsnr" v="472671" />
	</node>
	<node lat="69.40618333357737" lon="18.00083610604657" id="-38836">
		<tag k="name" v="Kjosen" />
		<tag k="natural" v="bay" />
		<tag k="ssr:stedsnr" v="472678" />
	</node>
	<node lat="69.25718055649361" lon="17.101674997579444" id="-38846">
		<tag k="name" v="Kolsan" />
		<tag k="natural" v="shoal" />
		<tag k="place" v="locality" />
		<tag k="ssr:stedsnr" v="345012" />
	</node>
	<node lat="69.40068888638244" lon="16.83165000909416" id="-38848">
		<tag k="name" v="Hellandsfoten" />
		<tag k="natural" v="shoal" />
		<tag k="place" v="locality" />
		<tag k="ssr:stedsnr" v="345203" />
	</node>
	<node lat="69.24967499816417" lon="17.006163896115943" id="-38854">
		<tag k="name" v="Flesgrunnen" />
		<tag k="natural" v="shoal" />
		<tag k="place" v="locality" />
		<tag k="ssr:stedsnr" v="345961" />
	</node>
	<node lat="69.19663611258699" lon="17.99690833787215" id="-38861">
		<tag k="name" v="Daumannsvika" />
		<tag k="natural" v="bay" />
		<tag k="ssr:stedsnr" v="473395" />
	</node>
	<node lat="69.26460833683385" lon="17.996438889620094" id="-38864">
		<tag k="name" v="Trollvika" />
		<tag k="natural" v="bay" />
		<tag k="ssr:stedsnr" v="473649" />
	</node>
	<node lat="69.55958611444933" lon="17.733055560719585" id="-38869">
		<tag k="name" v="Yttersandvika" />
		<tag k="natural" v="bay" />
		<tag k="ssr:stedsnr" v="473828" />
	</node>
	<node lat="69.48149166913291" lon="17.211961108343594" id="-38873">
		<tag k="name" v="Seljevika" />
		<tag k="natural" v="bay" />
		<tag k="ssr:stedsnr" v="349819" />
	</node>
	<node lat="69.54250000374186" lon="17.763388878369145" id="-38875">
		<tag k="name" v="Verselholmen" />
		<tag k="place" v="islet" />
		<tag k="ssr:stedsnr" v="473846" />
	</node>
	<node lat="69.40006666424958" lon="18.063033320931787" id="-38883">
		<tag k="name" v="Tennholmen" />
		<tag k="place" v="islet" />
		<tag k="ssr:stedsnr" v="351623" />
	</node>
	<node lat="69.50764722508431" lon="18.01359167775808" id="-38888">
		<tag k="name" v="Trettevikneset" />
		<tag k="natural" v="cape" />
		<tag k="ssr:stedsnr" v="351503" />
	</node>
	<node lat="69.23360555759666" lon="17.97138332452934" id="-38897">
		<tag k="name" v="Bjørnklubben" />
		<tag k="natural" v="cape" />
		<tag k="ssr:stedsnr" v="352110" />
	</node>
	<node lat="69.55934166802963" lon="17.800855564753732" id="-38903">
		<tag k="name" v="Skrotvika" />
		<tag k="natural" v="bay" />
		<tag k="ssr:stedsnr" v="352821" />
	</node>
	<node lat="69.3514888850462" lon="18.08129167069855" id="-38906">
		<tag k="name" v="Gibostadneset" />
		<tag k="natural" v="cape" />
		<tag k="ssr:stedsnr" v="352833" />
	</node>
	<node lat="69.2147222262368" lon="18.072411115653757" id="-38914">
		<tag k="name" v="Kattholmen" />
		<tag k="place" v="islet" />
		<tag k="ssr:stedsnr" v="474528" />
	</node>
	<node lat="69.45931944259925" lon="18.35569722062626" id="-38918">
		<tag k="name" v="Jøvika" />
		<tag k="natural" v="bay" />
		<tag k="ssr:stedsnr" v="353923" />
	</node>
	<node lat="69.32903055537696" lon="18.490397213295193" id="-38922">
		<tag k="name" v="Pelverken" />
		<tag k="natural" v="cape" />
		<tag k="ssr:stedsnr" v="353811" />
	</node>
	<node lat="69.20116111577744" lon="17.531749990652028" id="-38937">
		<tag k="name" v="Råttenkjosen" />
		<tag k="natural" v="bay" />
		<tag k="ssr:stedsnr" v="354608" />
	</node>
	<node lat="69.06964444617992" lon="16.786550005895318" id="-38943">
		<tag k="name" v="Skjellnesvika" />
		<tag k="natural" v="bay" />
		<tag k="ssr:stedsnr" v="354873" />
	</node>
	<node lat="69.06214166447498" lon="16.937999985845586" id="-38949">
		<tag k="name" v="Mollvika" />
		<tag k="natural" v="bay" />
		<tag k="ssr:stedsnr" v="354916" />
	</node>
	<node lat="69.46683333360383" lon="17.340830561407316" id="-38953">
		<tag k="name" v="Ytterneset" />
		<tag k="natural" v="cape" />
		<tag k="ssr:stedsnr" v="355078" />
	</node>
	<node lat="69.03944999821633" lon="17.075983331514006" id="-38961">
		<tag k="name" v="Forrholmen" />
		<tag k="place" v="islet" />
		<tag k="ssr:stedsnr" v="355613" />
	</node>
	<node lat="69.4017666646469" lon="17.12402777024771" id="-38968">
		<tag k="name" v="Storsteinbukta" />
		<tag k="natural" v="bay" />
		<tag k="ssr:stedsnr" v="355700" />
	</node>
	<node lat="69.47917500103588" lon="18.291672216076368" id="-38969">
		<tag k="name" v="Litjevika" />
		<tag k="natural" v="bay" />
		<tag k="ssr:stedsnr" v="474980" />
	</node>
	<node lat="69.20769999835498" lon="16.89712499510133" id="-38983">
		<tag k="fixme" v="consider seamark:type=rock or natural=shoal" />
		<tag k="name" v="Skarvesteinen" />
		<tag k="place" v="islet" />
		<tag k="ssr:stedsnr" v="475269" />
	</node>
	<node lat="69.50047222553042" lon="17.499044444177308" id="-38990">
		<tag k="name" v="Skrallet" />
		<tag k="natural" v="shoal" />
		<tag k="place" v="locality" />
		<tag k="ssr:stedsnr" v="358223" />
	</node>
	<node lat="69.47688333266693" lon="17.644680546561407" id="-38992">
		<tag k="name" v="Renneshollet" />
		<tag k="natural" v="bay" />
		<tag k="ssr:stedsnr" v="358198" />
	</node>
	<node lat="69.51650555202073" lon="17.444572228881608" id="-38993">
		<tag k="name" v="Bjorvika" />
		<tag k="natural" v="bay" />
		<tag k="ssr:stedsnr" v="358200" />
	</node>
	<node lat="69.23920277712975" lon="17.129574987995984" id="-38995">
		<tag k="name" v="Bjørnvika" />
		<tag k="natural" v="bay" />
		<tag k="ssr:stedsnr" v="475490" />
	</node>
	<node lat="69.28282777520432" lon="17.16265555608611" id="-38997">
		<tag k="name" v="Hamneklubben" />
		<tag k="natural" v="cape" />
		<tag k="ssr:stedsnr" v="475498" />
	</node>
	<node lat="69.44268055993776" lon="18.37048887725322" id="-38998">
		<tag k="name" v="Kravikneset" />
		<tag k="natural" v="cape" />
		<tag k="ssr:stedsnr" v="360051" />
	</node>
	<node lat="69.46234444216576" lon="17.238533318268303" id="-39007">
		<tag k="name" v="Knarrvikneset" />
		<tag k="natural" v="cape" />
		<tag k="ssr:stedsnr" v="476039" />
	</node>
	<node lat="69.29328333737355" lon="16.78804444232582" id="-39012">
		<tag k="name" v="Moloholmen" />
		<tag k="place" v="islet" />
		<tag k="ssr:stedsnr" v="476139" />
	</node>
	<node lat="69.26824166998118" lon="16.79552499660196" id="-39013">
		<tag k="name" v="Vika" />
		<tag k="natural" v="bay" />
		<tag k="ssr:stedsnr" v="476144" />
	</node>
	<node lat="69.19240832962402" lon="17.19967776496706" id="-39021">
		<tag k="name" v="Eidisgammen" />
		<tag k="natural" v="bay" />
		<tag k="ssr:stedsnr" v="476450" />
	</node>
	<node lat="69.06962222035271" lon="17.019088887910893" id="-39028">
		<tag k="name" v="Øya" />
		<tag k="natural" v="cape" />
		<tag k="ssr:stedsnr" v="476486" />
	</node>
	<node lat="69.13911389160657" lon="16.9529083442164" id="-39030">
		<tag k="fixme" v="consider seamark:type=rock or natural=shoal" />
		<tag k="name" v="Hårkallhatten" />
		<tag k="place" v="islet" />
		<tag k="ssr:stedsnr" v="476489" />
	</node>
	<node lat="69.12169443995592" lon="16.90700555546149" id="-39032">
		<tag k="fixme" v="consider seamark:type=rock or natural=shoal" />
		<tag k="name" v="Innskipersteinen" />
		<tag k="place" v="islet" />
		<tag k="ssr:stedsnr" v="476512" />
	</node>
	<node lat="69.13705000023509" lon="16.977266677109505" id="-39033">
		<tag k="name" v="Ørnviksanden" />
		<tag k="natural" v="beach" />
		<tag k="ssr:stedsnr" v="476516" />
	</node>
	<node lat="69.28533888642204" lon="17.180733326466477" id="-39042">
		<tag k="name" v="Skredhodet" />
		<tag k="natural" v="cape" />
		<tag k="ssr:stedsnr" v="476678" />
	</node>
	<node lat="69.16318888798334" lon="17.70191943140884" id="-39046">
		<tag k="name" v="Geitvika" />
		<tag k="natural" v="bay" />
		<tag k="ssr:stedsnr" v="476694" />
	</node>
	<node lat="69.16156944862104" lon="17.695719450133648" id="-39058">
		<tag k="name" v="Husvika" />
		<tag k="natural" v="bay" />
		<tag k="ssr:stedsnr" v="476715" />
	</node>
	<node lat="69.05762500088883" lon="17.075519440594686" id="-39059">
		<tag k="fixme" v="consider seamark:type=rock or natural=shoal" />
		<tag k="name" v="Kverna" />
		<tag k="place" v="islet" />
		<tag k="ssr:stedsnr" v="476716" />
	</node>
	<node lat="69.16568888974024" lon="17.521050010362273" id="-39072">
		<tag k="fixme" v="consider seamark:type=rock or natural=shoal" />
		<tag k="name" v="Revet" />
		<tag k="place" v="islet" />
		<tag k="ssr:stedsnr" v="476849" />
	</node>
	<node lat="69.4249305531275" lon="17.194088881800912" id="-39076">
		<tag k="name" v="Langholmen" />
		<tag k="place" v="islet" />
		<tag k="ssr:stedsnr" v="477081" />
	</node>
	<node lat="69.41468610965279" lon="17.178299985255528" id="-39078">
		<tag k="name" v="Fleinskallen" />
		<tag k="natural" v="cape" />
		<tag k="ssr:stedsnr" v="477097" />
	</node>
	<node lat="69.41213889132275" lon="17.19966388822179" id="-39079">
		<tag k="name" v="Breivikneset" />
		<tag k="natural" v="cape" />
		<tag k="ssr:stedsnr" v="477098" />
	</node>
	<node lat="69.4292166669215" lon="17.1624361169678" id="-39080">
		<tag k="name" v="Søndre Værholmen" />
		<tag k="place" v="islet" />
		<tag k="ssr:stedsnr" v="477100" />
	</node>
	<node lat="69.3787916702257" lon="17.377772234547734" id="-39085">
		<tag k="fixme" v="consider seamark:type=rock or natural=shoal" />
		<tag k="name" v="Skarveskjæret" />
		<tag k="place" v="islet" />
		<tag k="ssr:stedsnr" v="477940" />
	</node>
	<node lat="69.40326110727977" lon="17.336772215014197" id="-39086">
		<tag k="name" v="Lavollskjosen" />
		<tag k="natural" v="bay" />
		<tag k="ssr:stedsnr" v="477377" />
	</node>
	<node lat="69.47368333370952" lon="17.22638054224294" id="-39088">
		<tag k="name" v="Laukvikneset" />
		<tag k="natural" v="cape" />
		<tag k="ssr:stedsnr" v="477482" />
	</node>
	<node lat="69.48133889018892" lon="17.293197230525706" id="-39099">
		<tag k="name" v="Steinkrøssa" />
		<tag k="natural" v="beach" />
		<tag k="ssr:stedsnr" v="477787" />
	</node>
	<node lat="69.4387750014031" lon="17.408386109479974" id="-39106">
		<tag k="name" v="Toften" />
		<tag k="natural" v="cape" />
		<tag k="ssr:stedsnr" v="478522" />
	</node>
	<node lat="69.50418333440643" lon="17.491544439934437" id="-39113">
		<tag k="name" v="Stranda" />
		<tag k="natural" v="beach" />
		<tag k="ssr:stedsnr" v="479239" />
	</node>
	<node lat="69.20003888476624" lon="16.930577785433506" id="-39118">
		<tag k="name" v="Blåneset" />
		<tag k="natural" v="cape" />
		<tag k="ssr:stedsnr" v="381160" />
	</node>
	<node lat="69.15737500091532" lon="16.85033888631413" id="-39119">
		<tag k="alt_name" v="Langskjeret" />
		<tag k="fixme" v="consider seamark:type=rock or natural=shoal" />
		<tag k="name" v="Langskjæret" />
		<tag k="place" v="islet" />
		<tag k="ssr:stedsnr" v="381265" />
	</node>
	<node lat="69.19483611537608" lon="16.814958338932925" id="-39127">
		<tag k="fixme" v="multiple name tags, choose one and add the other to alt_name; consider seamark:type=rock or natural=shoal" />
		<tag k="name" v="Flatskjæret;Svartskjæret" />
		<tag k="place" v="islet" />
		<tag k="ssr:stedsnr" v="382063" />
	</node>
	<node lat="69.26673825445006" lon="16.793109285976815" id="-39128">
		<tag k="name" v="Ørja" />
		<tag k="place" v="island" />
		<tag k="ssr:stedsnr" v="382204" />
	</node>
	<node lat="69.15606944177817" lon="17.519208340744754" id="-39130">
		<tag k="alt_name" v="Refshamna" />
		<tag k="name" v="Revshamna" />
		<tag k="natural" v="bay" />
		<tag k="ssr:stedsnr" v="382302" />
	</node>
	<node lat="69.16035833124332" lon="17.845616670648475" id="-39131">
		<tag k="name" v="Geitneset" />
		<tag k="natural" v="cape" />
		<tag k="ssr:stedsnr" v="382303" />
	</node>
	<node lat="69.44481944372754" lon="16.924077767781718" id="-39132">
		<tag k="name" v="Ramnskolten" />
		<tag k="natural" v="shoal" />
		<tag k="place" v="locality" />
		<tag k="ssr:stedsnr" v="382308" />
	</node>
	<node lat="69.44829166462739" lon="16.986841657770306" id="-39133">
		<tag k="name" v="Stabben" />
		<tag k="natural" v="shoal" />
		<tag k="place" v="locality" />
		<tag k="ssr:stedsnr" v="382310" />
	</node>
	<node lat="69.2726361143099" lon="17.12613610910051" id="-39136">
		<tag k="name" v="Finnes" />
		<tag k="natural" v="cape" />
		<tag k="ssr:stedsnr" v="382363" />
	</node>
	<node lat="69.18441944146461" lon="17.469016675141003" id="-39148">
		<tag k="bay" v="fjord" />
		<tag k="name" v="Tranøybotn" />
		<tag k="natural" v="bay" />
		<tag k="ssr:stedsnr" v="382454" />
	</node>
	<node lat="69.48146666865122" lon="17.604594443149626" id="-39153">
		<tag k="alt_name" v="Skjeret" />
		<tag k="fixme" v="consider seamark:type=rock or natural=shoal" />
		<tag k="name" v="Skjæret" />
		<tag k="place" v="islet" />
		<tag k="ssr:stedsnr" v="382469" />
	</node>
	<node lat="69.34099999836334" lon="18.51178055742975" id="-39159">
		<tag k="bay" v="fjord" />
		<tag k="name" v="Målselvfjorden" />
		<tag k="natural" v="bay" />
		<tag k="ssr:stedsnr" v="382757" />
	</node>
	<node lat="69.53988888962346" lon="17.49641111355749" id="-39162">
		<tag k="name" v="Holmen" />
		<tag k="place" v="islet" />
		<tag k="ssr:stedsnr" v="382854" />
	</node>
	<node lat="69.54568610809102" lon="17.665966653885718" id="-39164">
		<tag k="name" v="Husøysundet" />
		<tag k="natural" v="strait" />
		<tag k="ssr:stedsnr" v="382863" />
	</node>
	<node lat="69.55113888484887" lon="17.918011117079015" id="-39166">
		<tag k="alt_name" v="Skorven" />
		<tag k="name" v="Skurveneset" />
		<tag k="natural" v="cape" />
		<tag k="ssr:stedsnr" v="382868" />
	</node>
	<node lat="69.15913610661872" lon="17.8749000077074" id="-39170">
		<tag k="name" v="Madsklakken" />
		<tag k="natural" v="shoal" />
		<tag k="place" v="locality" />
		<tag k="ssr:stedsnr" v="393507" />
	</node>
	<node lat="69.02948610938418" lon="16.890458343455485" id="-39171">
		<tag k="fixme" v="multiple name tags, choose one and add the other to alt_name" />
		<tag k="name" v="Vesterkjosen;Esterkjosen" />
		<tag k="natural" v="bay" />
		<tag k="ssr:stedsnr" v="393284" />
	</node>
	<node lat="69.31990277796703" lon="18.046594433849645" id="-39172">
		<tag k="name" v="Bondjordbukta" />
		<tag k="natural" v="bay" />
		<tag k="ssr:stedsnr" v="393703" />
	</node>
	<node lat="69.26598055352237" lon="17.9949333228547" id="-39173">
		<tag k="name" v="Øyra" />
		<tag k="natural" v="cape" />
		<tag k="ssr:stedsnr" v="393735" />
	</node>
	<node lat="69.39764166864626" lon="16.90238888695067" id="-39178">
		<tag k="name" v="Hella" />
		<tag k="natural" v="shoal" />
		<tag k="place" v="locality" />
		<tag k="ssr:stedsnr" v="406190" />
	</node>
	<node lat="69.19100833034716" lon="16.81667499790269" id="-39179">
		<tag k="fixme" v="consider seamark:type=rock or natural=shoal" />
		<tag k="name" v="Leiskjæret" />
		<tag k="place" v="islet" />
		<tag k="ssr:stedsnr" v="406907" />
	</node>
	<node lat="69.4883027744722" lon="17.178805556337892" id="-39180">
		<tag k="name" v="Sydøstre Leikampen" />
		<tag k="natural" v="shoal" />
		<tag k="place" v="locality" />
		<tag k="ssr:stedsnr" v="409793" />
	</node>
	<node lat="69.59160277914312" lon="17.698788887221106" id="-39181">
		<tag k="fixme" v="consider seamark:type=rock or natural=shoal" />
		<tag k="name" v="Spansklikuskjæret" />
		<tag k="place" v="islet" />
		<tag k="ssr:stedsnr" v="411915" />
	</node>
	<node lat="69.4568194483848" lon="17.819002788098118" id="-39188">
		<tag k="name" v="Skreddarkjosen" />
		<tag k="natural" v="bay" />
		<tag k="ssr:stedsnr" v="412310" />
	</node>
	<node lat="69.50518055559768" lon="17.904908338229458" id="-39194">
		<tag k="alt_name" v="Botteneset" />
		<tag k="name" v="Botnneset" />
		<tag k="natural" v="cape" />
		<tag k="ssr:stedsnr" v="412453" />
	</node>
	<node lat="69.59361944543957" lon="17.8302972092168" id="-39195">
		<tag k="fixme" v="consider seamark:type=rock or natural=shoal" />
		<tag k="name" v="Sylvikskjæret" />
		<tag k="place" v="islet" />
		<tag k="ssr:stedsnr" v="412642" />
	</node>
	<node lat="69.54919722588876" lon="17.753669441327094" id="-39196">
		<tag k="name" v="Gammelosten" />
		<tag k="natural" v="cape" />
		<tag k="ssr:stedsnr" v="412803" />
	</node>
	<node lat="69.56486111427152" lon="17.854191669108328" id="-39202">
		<tag k="name" v="Sandvika" />
		<tag k="natural" v="bay" />
		<tag k="ssr:stedsnr" v="413836" />
	</node>
	<node lat="69.21361944715156" lon="18.076300003330697" id="-39206">
		<tag k="name" v="Halsen" />
		<tag k="place" v="locality" />
		<tag k="ssr:stedsnr" v="414522" />
	</node>
	<node lat="69.21361110797406" lon="18.056838888681746" id="-39207">
		<tag k="name" v="Litjemola" />
		<tag k="natural" v="bay" />
		<tag k="ssr:stedsnr" v="414527" />
	</node>
	<node lat="69.26961110859536" lon="16.781638876413794" id="-39221">
		<tag k="fixme" v="consider seamark:type=rock or natural=shoal" />
		<tag k="name" v="Fugleskjæret" />
		<tag k="place" v="islet" />
		<tag k="ssr:stedsnr" v="415136" />
	</node>
	<node lat="69.26516111345727" lon="16.800080565656813" id="-39223">
		<tag k="name" v="Kjerkekeila" />
		<tag k="natural" v="bay" />
		<tag k="ssr:stedsnr" v="415145" />
	</node>
	<node lat="69.2034416634584" lon="16.837597214170867" id="-39224">
		<tag k="name" v="Seingsholmen" />
		<tag k="place" v="islet" />
		<tag k="ssr:stedsnr" v="415146" />
	</node>
	<node lat="69.33751388499174" lon="17.01926110613057" id="-39230">
		<tag k="name" v="Husvika" />
		<tag k="natural" v="bay" />
		<tag k="ssr:stedsnr" v="415442" />
	</node>
	<node lat="69.33774444755004" lon="17.103624993883404" id="-39232">
		<tag k="name" v="Bukta" />
		<tag k="natural" v="bay" />
		<tag k="ssr:stedsnr" v="415686" />
	</node>
	<node lat="69.05921666613038" lon="16.791144431187536" id="-39235">
		<tag k="name" v="Krabbevågen" />
		<tag k="natural" v="bay" />
		<tag k="ssr:stedsnr" v="415828" />
	</node>
	<node lat="69.17582500139342" lon="17.502497226367584" id="-39236">
		<tag k="fixme" v="consider seamark:type=rock or natural=shoal" />
		<tag k="name" v="Kjellarskjæret" />
		<tag k="place" v="islet" />
		<tag k="ssr:stedsnr" v="415847" />
	</node>
	<node lat="69.33288333245692" lon="17.11917501049496" id="-39239">
		<tag k="name" v="Keipbukta" />
		<tag k="natural" v="bay" />
		<tag k="ssr:stedsnr" v="415787" />
	</node>
	<node lat="69.41694721960347" lon="17.170891652906683" id="-39242">
		<tag k="name" v="Skjåholmen" />
		<tag k="place" v="islet" />
		<tag k="ssr:stedsnr" v="416087" />
	</node>
	<node lat="69.4300555540459" lon="17.158241670616302" id="-39244">
		<tag k="name" v="Nordre Værholmen" />
		<tag k="place" v="islet" />
		<tag k="ssr:stedsnr" v="416093" />
	</node>
	<node lat="69.15920555321505" lon="17.814886112085144" id="-39251">
		<tag k="name" v="Kattevika" />
		<tag k="natural" v="bay" />
		<tag k="ssr:stedsnr" v="416441" />
	</node>
	<node lat="69.1583194469352" lon="17.59066945441052" id="-39252">
		<tag k="name" v="Nauståkervika" />
		<tag k="natural" v="bay" />
		<tag k="ssr:stedsnr" v="416449" />
	</node>
	<node lat="69.04529722328297" lon="17.18094444866061" id="-39255">
		<tag k="name" v="Høgholmen" />
		<tag k="place" v="islet" />
		<tag k="ssr:stedsnr" v="416626" />
	</node>
	<node lat="69.05679166750033" lon="17.067991663193048" id="-39269">
		<tag k="name" v="Vassvika" />
		<tag k="natural" v="bay" />
		<tag k="ssr:stedsnr" v="416689" />
	</node>
	<node lat="69.01148611228716" lon="17.040505557163648" id="-39280">
		<tag k="name" v="Larsvika" />
		<tag k="natural" v="bay" />
		<tag k="ssr:stedsnr" v="442110" />
	</node>
	<node lat="69.4388000045452" lon="18.062516657745338" id="-39286">
		<tag k="name" v="Finneset" />
		<tag k="natural" v="cape" />
		<tag k="ssr:stedsnr" v="443038" />
	</node>
	<node lat="69.15797500172407" lon="16.86587223311592" id="-39290">
		<tag k="name" v="Svinøya" />
		<tag k="place" v="island" />
		<tag k="ssr:stedsnr" v="443093" />
	</node>
	<node lat="69.29199444426109" lon="16.793780555869617" id="-39291">
		<tag k="alt_name" v="Holmevær" />
		<tag k="name" v="Holmenvær" />
		<tag k="place" v="island" />
		<tag k="ssr:stedsnr" v="443207" />
	</node>
	<node lat="69.13907221808364" lon="17.43951667154167" id="-39292">
		<tag k="alt_name" v="Tenneset" />
		<tag k="name" v="Teinneset" />
		<tag k="natural" v="cape" />
		<tag k="ssr:stedsnr" v="443292" />
	</node>
	<node lat="69.15116944176188" lon="17.473494443556824" id="-39297">
		<tag k="alt_name" v="Risøya, l;Litje Risøy" />
		<tag k="name" v="Litje Risøya" />
		<tag k="place" v="islet" />
		<tag k="ssr:stedsnr" v="443306" />
	</node>
	<node lat="69.14821389096842" lon="17.60898610456033" id="-39298">
		<tag k="name" v="Vassulvika" />
		<tag k="natural" v="bay" />
		<tag k="old_name" v="Vassutvika" />
		<tag k="ssr:stedsnr" v="443309" />
	</node>
	<node lat="69.28425555376393" lon="17.168694438247034" id="-39302">
		<tag k="name" v="Røyrneset" />
		<tag k="natural" v="cape" />
		<tag k="ssr:stedsnr" v="443393" />
	</node>
	<node lat="69.32866111078107" lon="17.104858340186176" id="-39305">
		<tag k="name" v="Purkøyra" />
		<tag k="natural" v="cape" />
		<tag k="ssr:stedsnr" v="443432" />
	</node>
	<node lat="69.1890972197143" lon="17.526486106941707" id="-39306">
		<tag k="name" v="Oksbåsen" />
		<tag k="natural" v="bay" />
		<tag k="ssr:stedsnr" v="443482" />
	</node>
	<node lat="69.48768611069337" lon="17.554130551932314" id="-39307">
		<tag k="alt_name" v="Bringneset, in" />
		<tag k="name" v="Indre Bringneset" />
		<tag k="natural" v="cape" />
		<tag k="ssr:stedsnr" v="443483" />
	</node>
	<node lat="69.46741944861293" lon="17.65784999390266" id="-39311">
		<tag k="name" v="Pumpeneset" />
		<tag k="natural" v="cape" />
		<tag k="ssr:stedsnr" v="443491" />
	</node>
	<node lat="69.48704722173662" lon="17.874091675808142" id="-39317">
		<tag k="bay" v="fjord" />
		<tag k="name" v="Stønesbotn - Stohpovuotna" />
		<tag k="name:no" v="Stønesbotn" />
		<tag k="name:se" v="Stohpovuotna" />
		<tag k="natural" v="bay" />
		<tag k="old_name:se" v="Ståppuvuodna" />
		<tag k="ssr:stedsnr" v="446478" />
	</node>
	<node lat="69.4481638880971" lon="18.13908331779591" id="-39318">
		<tag k="name" v="Litjehamna" />
		<tag k="natural" v="bay" />
		<tag k="ssr:stedsnr" v="450708" />
	</node>
	<node lat="69.1044638893094" lon="17.266222219923925" id="-39319">
		<tag k="name" v="Mollvika" />
		<tag k="natural" v="bay" />
		<tag k="ssr:stedsnr" v="454267" />
	</node>
	<node lat="69.03969722166362" lon="16.98856944909758" id="-39320">
		<tag k="name" v="Nordgrunnen" />
		<tag k="natural" v="shoal" />
		<tag k="place" v="locality" />
		<tag k="ssr:stedsnr" v="454284" />
	</node>
	<node lat="69.07896388422175" lon="17.188738895733362" id="-39321">
		<tag k="name" v="Oldervika" />
		<tag k="natural" v="bay" />
		<tag k="ssr:stedsnr" v="454379" />
	</node>
	<node lat="69.27947500009364" lon="17.100288891823826" id="-39322">
		<tag k="name" v="Rødberget" />
		<tag k="natural" v="cape" />
		<tag k="ssr:stedsnr" v="467008" />
	</node>
	<node lat="69.26182777406832" lon="16.777980562241385" id="-39323">
		<tag k="alt_name" v="Rosmålen" />
		<tag k="fixme" v="consider seamark:type=rock or natural=shoal" />
		<tag k="name" v="Rossmolen" />
		<tag k="place" v="islet" />
		<tag k="ssr:stedsnr" v="467210" />
	</node>
	<node lat="69.20235277529335" lon="16.83320834269747" id="-39324">
		<tag k="name" v="Teistholmen" />
		<tag k="place" v="islet" />
		<tag k="ssr:stedsnr" v="467917" />
	</node>
	<node lat="69.5414777821004" lon="17.67458055645831" id="-39328">
		<tag k="name" v="Skredneset" />
		<tag k="natural" v="cape" />
		<tag k="ssr:stedsnr" v="472178" />
	</node>
	<node lat="69.56555277538" lon="17.85172499902874" id="-39335">
		<tag k="name" v="Vikan" />
		<tag k="natural" v="bay" />
		<tag k="ssr:stedsnr" v="472819" />
	</node>
	<node lat="69.50623611290625" lon="17.906202763053575" id="-39345">
		<tag k="name" v="Botn" />
		<tag k="natural" v="bay" />
		<tag k="ssr:stedsnr" v="473514" />
	</node>
	<node lat="69.236805555202" lon="16.921811100358745" id="-39359">
		<tag k="fixme" v="consider seamark:type=rock or natural=shoal" />
		<tag k="name" v="Olhansasteinen" />
		<tag k="place" v="islet" />
		<tag k="ssr:stedsnr" v="475226" />
	</node>
	<node lat="69.03552499818844" lon="17.03361666654233" id="-39369">
		<tag k="name" v="Skagvika" />
		<tag k="natural" v="bay" />
		<tag k="ssr:stedsnr" v="476560" />
	</node>
	<node lat="69.15577499822044" lon="16.869652775878812" id="-39376">
		<tag k="name" v="Hamna" />
		<tag k="natural" v="bay" />
		<tag k="ssr:stedsnr" v="476940" />
	</node>
	<node lat="69.07366666284906" lon="16.78544722266741" id="-39379">
		<tag k="name" v="Nordvika" />
		<tag k="natural" v="bay" />
		<tag k="ssr:stedsnr" v="476866" />
	</node>
	<node lat="69.07068333314356" lon="16.785883325672764" id="-39380">
		<tag k="name" v="Sandvika" />
		<tag k="natural" v="bay" />
		<tag k="ssr:stedsnr" v="476869" />
	</node>
	<node lat="69.43593888591455" lon="17.36578331872866" id="-39389">
		<tag k="name" v="Geitsteinen" />
		<tag k="natural" v="shoal" />
		<tag k="place" v="locality" />
		<tag k="ssr:stedsnr" v="477911" />
	</node>
	<node lat="69.63333333129329" lon="16.6500000078172" id="-39395">
		<tag k="name" v="Kjerringsøyla" />
		<tag k="natural" v="shoal" />
		<tag k="place" v="locality" />
		<tag k="ssr:stedsnr" v="484019" />
	</node>
	<node lat="69.02905833344965" lon="17.237825007122" id="-39397">
		<tag k="fixme" v="multiple name tags, choose one and add the other to alt_name" />
		<tag k="name" v="Øysundet;Lekangøyssundet" />
		<tag k="natural" v="strait" />
		<tag k="ssr:stedsnr" v="272826" />
	</node>
	<node lat="69.35363611028534" lon="18.490283323173692" id="-39407">
		<tag k="alt_name" v="Mellemvika" />
		<tag k="name" v="Mellomvika" />
		<tag k="natural" v="bay" />
		<tag k="ssr:stedsnr" v="503704" />
	</node>
	<node lat="69.52193889203424" lon="17.266125005300715" id="-39408">
		<tag k="name" v="Teistbåen" />
		<tag k="natural" v="shoal" />
		<tag k="place" v="locality" />
		<tag k="ssr:stedsnr" v="503909" />
	</node>
	<node lat="69.23213055564693" lon="17.97252777503056" id="-39412">
		<tag k="alt_name" v="Nordre Harrevika" />
		<tag k="name" v="Harevika" />
		<tag k="natural" v="bay" />
		<tag k="ssr:stedsnr" v="504410" />
	</node>
	<node lat="69.0760083290929" lon="17.0540666671981" id="-39424">
		<tag k="name" v="Frovågen" />
		<tag k="natural" v="bay" />
		<tag k="ssr:stedsnr" v="512305" />
	</node>
	<node lat="69.07022500209328" lon="16.76680000283749" id="-39427">
		<tag k="name" v="Sørbøen" />
		<tag k="natural" v="shoal" />
		<tag k="place" v="locality" />
		<tag k="ssr:stedsnr" v="515108" />
	</node>
	<node lat="69.06524444478245" lon="16.946077775709902" id="-39429">
		<tag k="name" v="Hamnneset" />
		<tag k="natural" v="cape" />
		<tag k="ssr:stedsnr" v="685001" />
	</node>
	<node lat="69.02244166388806" lon="17.047330565546815" id="-39435">
		<tag k="name" v="Vedvika" />
		<tag k="natural" v="bay" />
		<tag k="ssr:stedsnr" v="685067" />
	</node>
	<node lat="69.06889444131632" lon="16.787141668171515" id="-39436">
		<tag k="alt_name" v="Blåskjelneset;Skjelneset" />
		<tag k="name" v="Skjellneset" />
		<tag k="natural" v="cape" />
		<tag k="ssr:stedsnr" v="685093" />
	</node>
	<node lat="69.15578889371098" lon="17.398119437469017" id="-39437">
		<tag k="name" v="Mollvika" />
		<tag k="natural" v="bay" />
		<tag k="ssr:stedsnr" v="685226" />
	</node>
	<node lat="69.15466944325115" lon="16.96439721636918" id="-39438">
		<tag k="alt_name" v="Manngrunnen" />
		<tag k="name" v="Mangrunnen" />
		<tag k="natural" v="shoal" />
		<tag k="place" v="locality" />
		<tag k="ssr:stedsnr" v="685228" />
	</node>
	<node lat="69.19099722618479" lon="16.985991660061973" id="-39441">
		<tag k="name" v="Bjørgeneset" />
		<tag k="natural" v="cape" />
		<tag k="ssr:stedsnr" v="685143" />
	</node>
	<node lat="69.22200277815396" lon="16.88956388231813" id="-39443">
		<tag k="name" v="Korsvika" />
		<tag k="natural" v="bay" />
		<tag k="ssr:stedsnr" v="685177" />
	</node>
	<node lat="69.42197222414501" lon="17.302988892608" id="-39446">
		<tag k="fixme" v="multiple name tags, choose one and add the other to alt_name" />
		<tag k="name" v="Flatneset;Søre Flatneset" />
		<tag k="natural" v="cape" />
		<tag k="ssr:stedsnr" v="685263" />
	</node>
	<node lat="69.151694440625" lon="16.986299987559704" id="-39448">
		<tag k="fixme" v="consider seamark:type=rock or natural=shoal" />
		<tag k="name" v="Fiskenesskjæran" />
		<tag k="place" v="islet" />
		<tag k="ssr:stedsnr" v="523871" />
	</node>
	<node lat="69.3578972214883" lon="17.098150010073727" id="-39456">
		<tag k="name" v="Indre Sildvika" />
		<tag k="natural" v="bay" />
		<tag k="ssr:stedsnr" v="527073" />
	</node>
	<node lat="69.17507777569666" lon="17.065513892301283" id="-39457">
		<tag k="name" v="Storflua" />
		<tag k="natural" v="shoal" />
		<tag k="place" v="locality" />
		<tag k="ssr:stedsnr" v="528204" />
	</node>
	<node lat="69.36169444777097" lon="18.093222214525486" id="-39458">
		<tag k="name" v="Vardneset" />
		<tag k="natural" v="cape" />
		<tag k="ssr:stedsnr" v="686032" />
	</node>
	<node lat="69.01214444907815" lon="17.1199111056009" id="-39461">
		<tag k="name" v="Orrevika" />
		<tag k="natural" v="bay" />
		<tag k="ssr:stedsnr" v="686075" />
	</node>
	<node lat="69.06632778114742" lon="17.107858332078237" id="-39462">
		<tag k="alt_name" v="Forneset" />
		<tag k="name" v="Forrneset" />
		<tag k="natural" v="cape" />
		<tag k="ssr:stedsnr" v="686088" />
	</node>
	<node lat="69.2759916684912" lon="16.69788333384708" id="-39463">
		<tag k="name" v="Skolpan" />
		<tag k="natural" v="shoal" />
		<tag k="place" v="locality" />
		<tag k="ssr:stedsnr" v="686208" />
	</node>
	<node lat="69.34100000324248" lon="16.737019455462605" id="-39464">
		<tag k="name" v="Norddjupskallen" />
		<tag k="natural" v="shoal" />
		<tag k="place" v="locality" />
		<tag k="ssr:stedsnr" v="686215" />
	</node>
	<node lat="69.49087500219653" lon="17.20870278181617" id="-39466">
		<tag k="alt_name" v="Grythola" />
		<tag k="name" v="Grythollet" />
		<tag k="natural" v="bay" />
		<tag k="ssr:stedsnr" v="531822" />
	</node>
	<node lat="69.39424167012004" lon="16.938155548989076" id="-39471">
		<tag k="name" v="Nonsvika" />
		<tag k="natural" v="bay" />
		<tag k="ssr:stedsnr" v="686339" />
	</node>
	<node lat="69.54631388905678" lon="17.66022221592884" id="-39473">
		<tag k="name" v="Øyneset" />
		<tag k="natural" v="cape" />
		<tag k="ssr:stedsnr" v="533118" />
	</node>
	<node lat="69.20508332969871" lon="17.93278055335291" id="-39475">
		<tag k="name" v="Vassjordholmen" />
		<tag k="place" v="islet" />
		<tag k="ssr:stedsnr" v="686389" />
	</node>
	<node lat="69.514430551226" lon="17.62861666878856" id="-39477">
		<tag k="name" v="Tørrtofta" />
		<tag k="natural" v="cape" />
		<tag k="ssr:stedsnr" v="533219" />
	</node>
	<node lat="69.39839722295748" lon="16.994400006896047" id="-39479">
		<tag k="name" v="Teistevika" />
		<tag k="natural" v="bay" />
		<tag k="ssr:stedsnr" v="686256" />
	</node>
	<node lat="69.55800833274257" lon="17.911269436001586" id="-39487">
		<tag k="fixme" v="consider seamark:type=rock or natural=shoal" />
		<tag k="name" v="Benkestokkan" />
		<tag k="place" v="islet" />
		<tag k="ssr:stedsnr" v="533515" />
	</node>
	<node lat="69.50286944127659" lon="18.022549984267673" id="-39488">
		<tag k="name" v="Revvneset" />
		<tag k="natural" v="cape" />
		<tag k="ssr:stedsnr" v="533522" />
	</node>
	<node lat="69.58290555819714" lon="17.859341653097335" id="-39492">
		<tag k="fixme" v="consider seamark:type=rock or natural=shoal" />
		<tag k="name" v="Vindkjosskjæret" />
		<tag k="place" v="islet" />
		<tag k="ssr:stedsnr" v="533717" />
	</node>
	<node lat="69.21599999626821" lon="17.894008333857034" id="-39496">
		<tag k="alt_name" v="Lavika" />
		<tag k="name" v="Krokelvbukta" />
		<tag k="natural" v="bay" />
		<tag k="ssr:stedsnr" v="686410" />
	</node>
	<node lat="69.00412499578364" lon="17.087786114630724" id="-39504">
		<tag k="alt_name" v="Langskjeret" />
		<tag k="fixme" v="consider seamark:type=rock or natural=shoal" />
		<tag k="name" v="Langskjæret" />
		<tag k="place" v="islet" />
		<tag k="ssr:stedsnr" v="686431" />
	</node>
	<node lat="69.2034805566602" lon="17.930000003023167" id="-39506">
		<tag k="name" v="Hestebukta" />
		<tag k="natural" v="bay" />
		<tag k="ssr:stedsnr" v="534369" />
	</node>
	<node lat="69.29055555820712" lon="16.857499993915827" id="-39507">
		<tag k="name" v="Nordgrunnen" />
		<tag k="natural" v="shoal" />
		<tag k="place" v="locality" />
		<tag k="ssr:stedsnr" v="686434" />
	</node>
	<node lat="69.45005277937236" lon="17.843155566056446" id="-39508">
		<tag k="name" v="Bukkeneset" />
		<tag k="natural" v="cape" />
		<tag k="ssr:stedsnr" v="686458" />
	</node>
	<node lat="69.46418888871791" lon="18.168855545393473" id="-39524">
		<tag k="name" v="Rødbergvika" />
		<tag k="natural" v="bay" />
		<tag k="ssr:stedsnr" v="535669" />
	</node>
	<node lat="69.4124777754744" lon="18.162269431701056" id="-39525">
		<tag k="name" v="Presthella" />
		<tag k="natural" v="beach" />
		<tag k="ssr:stedsnr" v="535675" />
	</node>
	<node lat="69.48026944621701" lon="18.2905111095851" id="-39536">
		<tag k="fixme" v="consider seamark:type=rock or natural=shoal" />
		<tag k="name" v="Litjevikskjæret" />
		<tag k="place" v="islet" />
		<tag k="ssr:stedsnr" v="535976" />
	</node>
	<node lat="69.36331944356822" lon="16.94195555224737" id="-39538">
		<tag k="fixme" v="consider seamark:type=rock or natural=shoal" />
		<tag k="name" v="Bonesteinen" />
		<tag k="place" v="islet" />
		<tag k="ssr:stedsnr" v="536419" />
	</node>
	<node lat="69.27669999622358" lon="17.06755276497923" id="-39539">
		<tag k="name" v="Sørvika" />
		<tag k="natural" v="bay" />
		<tag k="ssr:stedsnr" v="536466" />
	</node>
	<node lat="69.11330833257165" lon="17.282755560174362" id="-39541">
		<tag k="fixme" v="consider seamark:type=rock or natural=shoal" />
		<tag k="name" v="Storsteinen" />
		<tag k="place" v="islet" />
		<tag k="ssr:stedsnr" v="536477" />
	</node>
	<node lat="69.03596944652595" lon="17.03694166455244" id="-39546">
		<tag k="name" v="Tjønevika" />
		<tag k="natural" v="bay" />
		<tag k="ssr:stedsnr" v="536568" />
	</node>
	<node lat="69.07633610743444" lon="16.783155562259505" id="-39548">
		<tag k="name" v="Breivika" />
		<tag k="natural" v="bay" />
		<tag k="ssr:stedsnr" v="536879" />
	</node>
	<node lat="69.28674166805715" lon="17.917911110793213" id="-39554">
		<tag k="name" v="Neset" />
		<tag k="natural" v="cape" />
		<tag k="ssr:stedsnr" v="686619" />
	</node>
	<node lat="69.39543611137502" lon="17.01388332933352" id="-39559">
		<tag k="name" v="Hundevika" />
		<tag k="natural" v="bay" />
		<tag k="ssr:stedsnr" v="537422" />
	</node>
	<node lat="69.27975277932254" lon="17.989777772677165" id="-39562">
		<tag k="name" v="Kleiva" />
		<tag k="natural" v="cape" />
		<tag k="ssr:stedsnr" v="686631" />
	</node>
	<node lat="69.00697499809485" lon="17.068763877102544" id="-39564">
		<tag k="name" v="Finnhellarvika" />
		<tag k="natural" v="bay" />
		<tag k="ssr:stedsnr" v="537511" />
	</node>
	<node lat="69.00683611203601" lon="17.080186110325833" id="-39566">
		<tag k="name" v="Jobbonvika" />
		<tag k="natural" v="bay" />
		<tag k="ssr:stedsnr" v="537513" />
	</node>
	<node lat="69.3911916646163" lon="17.112647210991796" id="-39572">
		<tag k="name" v="Vinfatneset" />
		<tag k="natural" v="cape" />
		<tag k="ssr:stedsnr" v="537705" />
	</node>
	<node lat="69.33891666688903" lon="17.150805548294908" id="-39573">
		<tag k="name" v="Skipsfjordbotn" />
		<tag k="natural" v="bay" />
		<tag k="ssr:stedsnr" v="537720" />
	</node>
	<node lat="69.3378277788475" lon="17.149905566425026" id="-39574">
		<tag k="name" v="Jektevika" />
		<tag k="natural" v="bay" />
		<tag k="ssr:stedsnr" v="537722" />
	</node>
	<node lat="69.07400833323169" lon="17.016077776208512" id="-39578">
		<tag k="name" v="Holmholmen" />
		<tag k="place" v="islet" />
		<tag k="ssr:stedsnr" v="537477" />
	</node>
	<node lat="69.07129722191874" lon="17.042005558743032" id="-39579">
		<tag k="name" v="Bommevika" />
		<tag k="natural" v="bay" />
		<tag k="ssr:stedsnr" v="537481" />
	</node>
	<node lat="69.06976944129227" lon="17.014058334925505" id="-39580">
		<tag k="name" v="Steinvika" />
		<tag k="natural" v="bay" />
		<tag k="ssr:stedsnr" v="537483" />
	</node>
	<node lat="69.0780444396325" lon="16.984619451367287" id="-39581">
		<tag k="name" v="Rypstranda" />
		<tag k="natural" v="beach" />
		<tag k="ssr:stedsnr" v="537606" />
	</node>
	<node lat="69.35160833623533" lon="17.18160556112065" id="-39584">
		<tag k="name" v="Gryllefjordbotn" />
		<tag k="natural" v="bay" />
		<tag k="ssr:stedsnr" v="537617" />
	</node>
	<node lat="69.03645000377652" lon="17.059186112145618" id="-39585">
		<tag k="name" v="Hamnekjosen" />
		<tag k="natural" v="bay" />
		<tag k="ssr:stedsnr" v="537620" />
	</node>
	<node lat="69.40350555698396" lon="17.29160833572743" id="-39595">
		<tag k="name" v="Klubben" />
		<tag k="natural" v="cape" />
		<tag k="ssr:stedsnr" v="538403" />
	</node>
	<node lat="69.62208055406842" lon="17.64002500595536" id="-39607">
		<tag k="fixme" v="consider seamark:type=rock or natural=shoal" />
		<tag k="name" v="Hærskjæret" />
		<tag k="place" v="islet" />
		<tag k="ssr:stedsnr" v="686770" />
	</node>
	<node lat="69.63337499526433" lon="17.73435556347521" id="-39609">
		<tag k="name" v="Aglapsbåan" />
		<tag k="natural" v="shoal" />
		<tag k="place" v="locality" />
		<tag k="ssr:stedsnr" v="686778" />
	</node>
	<node lat="69.54060555937257" lon="17.791674986932808" id="-39611">
		<tag k="name" v="Stuvholmen" />
		<tag k="place" v="islet" />
		<tag k="ssr:stedsnr" v="686850" />
	</node>
	<node lat="69.51631666269179" lon="17.696644438768242" id="-39614">
		<tag k="name" v="Trælvika" />
		<tag k="natural" v="bay" />
		<tag k="ssr:stedsnr" v="686819" />
	</node>
	<node lat="69.51883889122554" lon="17.97740554359722" id="-39618">
		<tag k="fixme" v="consider seamark:type=rock or natural=shoal" />
		<tag k="name" v="Gamman" />
		<tag k="place" v="islet" />
		<tag k="ssr:stedsnr" v="686825" />
	</node>
	<node lat="69.45922777977276" lon="17.839149995651244" id="-39639">
		<tag k="name" v="Hundbergneset" />
		<tag k="natural" v="cape" />
		<tag k="ssr:stedsnr" v="564506" />
	</node>
	<node lat="69.19101667027228" lon="18.002950000055396" id="-39646">
		<tag k="alt_name" v="Klauva" />
		<tag k="name" v="Klauvfjorden" />
		<tag k="natural" v="bay" />
		<tag k="ssr:stedsnr" v="564706" />
	</node>
	<node lat="69.28986944561763" lon="17.92148611207476" id="-39648">
		<tag k="alt_name" v="Nordodden" />
		<tag k="name" v="Gjerdodden" />
		<tag k="natural" v="cape" />
		<tag k="ssr:stedsnr" v="564610" />
	</node>
	<node lat="69.44358055603817" lon="18.04635833632829" id="-39650">
		<tag k="alt_name" v="Årnes, ytre" />
		<tag k="name" v="Ytre Årnes" />
		<tag k="natural" v="cape" />
		<tag k="ssr:stedsnr" v="564671" />
	</node>
	<node lat="69.28939166450137" lon="18.22995555199772" id="-39651">
		<tag k="name" v="Litjeholmen" />
		<tag k="place" v="islet" />
		<tag k="ssr:stedsnr" v="564816" />
	</node>
	<node lat="69.64309722566098" lon="17.54015834118736" id="-39656">
		<tag k="name" v="Surfallet" />
		<tag k="natural" v="shoal" />
		<tag k="place" v="locality" />
		<tag k="ssr:stedsnr" v="564971" />
	</node>
	<node lat="69.302213891481" lon="17.896302785767663" id="-39658">
		<tag k="name" v="Lakselvbukta" />
		<tag k="natural" v="bay" />
		<tag k="ssr:stedsnr" v="566241" />
	</node>
	<node lat="69.19608333123581" lon="17.470441665766348" id="-39660">
		<tag k="name" v="Lauparan" />
		<tag k="place" v="islet" />
		<tag k="ssr:stedsnr" v="566265" />
	</node>
	<node lat="69.33045832888297" lon="17.02737778203168" id="-39661">
		<tag k="name" v="Merraføa" />
		<tag k="natural" v="bay" />
		<tag k="ssr:stedsnr" v="566362" />
	</node>
	<node lat="69.14609722572999" lon="17.420527779973757" id="-39667">
		<tag k="name" v="Sandskjærvika" />
		<tag k="natural" v="bay" />
		<tag k="ssr:stedsnr" v="575450" />
	</node>
	<node lat="69.32393611024362" lon="17.911913888388444" id="-39668">
		<tag k="name" v="Kjosen" />
		<tag k="natural" v="bay" />
		<tag k="ssr:stedsnr" v="575695" />
	</node>
	<node lat="69.05013610943988" lon="17.0392833389858" id="-39669">
		<tag k="name" v="Storneset" />
		<tag k="natural" v="cape" />
		<tag k="ssr:stedsnr" v="575809" />
	</node>
	<node lat="69.27055000320499" lon="17.016349999426193" id="-39672">
		<tag k="alt_name" v="Laukliberget" />
		<tag k="name" v="Løkliberget" />
		<tag k="natural" v="cape" />
		<tag k="ssr:stedsnr" v="588054" />
	</node>
	<node lat="69.27416944640494" lon="16.891666653617385" id="-39673">
		<tag k="name" v="Sørgrunnen" />
		<tag k="natural" v="shoal" />
		<tag k="place" v="locality" />
		<tag k="ssr:stedsnr" v="588974" />
	</node>
	<node lat="69.54030555258619" lon="17.354697221440876" id="-39675">
		<tag k="name" v="Bremnesbåen" />
		<tag k="natural" v="shoal" />
		<tag k="place" v="locality" />
		<tag k="ssr:stedsnr" v="590958" />
	</node>
	<node lat="69.02350000175066" lon="16.7782416716289" id="-39677">
		<tag k="name" v="Fjordgrunnen" />
		<tag k="natural" v="shoal" />
		<tag k="place" v="locality" />
		<tag k="ssr:stedsnr" v="697295" />
	</node>
	<node lat="69.13144722414775" lon="17.326708335221188" id="-39678">
		<tag k="name" v="Kobbeneset" />
		<tag k="natural" v="cape" />
		<tag k="ssr:stedsnr" v="697296" />
	</node>
	<node lat="69.24340556021552" lon="17.974558325410413" id="-39679">
		<tag k="fixme" v="consider seamark:type=rock or natural=shoal" />
		<tag k="name" v="Storskjæret" />
		<tag k="place" v="islet" />
		<tag k="ssr:stedsnr" v="697344" />
	</node>
	<node lat="69.168047225322" lon="17.72948055782144" id="-39680">
		<tag k="name" v="Vangsvika" />
		<tag k="natural" v="bay" />
		<tag k="ssr:stedsnr" v="697461" />
	</node>
	<node lat="69.52149166595402" lon="17.687819448731958" id="-39690">
		<tag k="fixme" v="consider seamark:type=rock or natural=shoal" />
		<tag k="name" v="Gamsteinen" />
		<tag k="place" v="islet" />
		<tag k="ssr:stedsnr" v="594256" />
	</node>
	<node lat="69.27590833642192" lon="17.893877781203454" id="-39695">
		<tag k="name" v="Finnesspira" />
		<tag k="natural" v="cape" />
		<tag k="ssr:stedsnr" v="594608" />
	</node>
	<node lat="69.22800555253723" lon="17.123369446087956" id="-39715">
		<tag k="name" v="Mellaneset" />
		<tag k="natural" v="cape" />
		<tag k="ssr:stedsnr" v="596455" />
	</node>
	<node lat="69.27990555816356" lon="17.152466667933226" id="-39717">
		<tag k="name" v="Nøkkelsvika" />
		<tag k="natural" v="bay" />
		<tag k="ssr:stedsnr" v="596464" />
	</node>
	<node lat="69.2275222264925" lon="16.884013889695602" id="-39725">
		<tag k="name" v="Trollvika" />
		<tag k="natural" v="bay" />
		<tag k="ssr:stedsnr" v="597258" />
	</node>
	<node lat="69.07702499679891" lon="17.006013875892936" id="-39727">
		<tag k="name" v="Mollvika" />
		<tag k="natural" v="bay" />
		<tag k="ssr:stedsnr" v="597507" />
	</node>
	<node lat="69.32469444121877" lon="17.097816659170842" id="-39731">
		<tag k="name" v="Purkevika" />
		<tag k="natural" v="bay" />
		<tag k="ssr:stedsnr" v="597501" />
	</node>
	<node lat="69.33048888782882" lon="17.110552787518866" id="-39735">
		<tag k="name" v="Sommarlandet" />
		<tag k="natural" v="beach" />
		<tag k="ssr:stedsnr" v="597762" />
	</node>
	<node lat="69.08180555563797" lon="16.782722211293656" id="-39736">
		<tag k="name" v="Holmen" />
		<tag k="place" v="islet" />
		<tag k="ssr:stedsnr" v="597906" />
	</node>
	<node lat="69.02513888924423" lon="16.89890000125534" id="-39738">
		<tag k="name" v="Brørholman" />
		<tag k="place" v="islet" />
		<tag k="ssr:stedsnr" v="597931" />
	</node>
	<node lat="69.10038333022328" lon="16.783630553004667" id="-39739">
		<tag k="name" v="Sundskjærholla" />
		<tag k="natural" v="bay" />
		<tag k="ssr:stedsnr" v="597901" />
	</node>
	<node lat="69.42623888769869" lon="17.184141653647316" id="-39741">
		<tag k="fixme" v="consider seamark:type=rock or natural=shoal" />
		<tag k="name" v="Tjuvjoskjæret" />
		<tag k="place" v="islet" />
		<tag k="ssr:stedsnr" v="598072" />
	</node>
	<node lat="69.42510277599722" lon="17.198499992398315" id="-39742">
		<tag k="name" v="Rørholmen" />
		<tag k="place" v="islet" />
		<tag k="ssr:stedsnr" v="598074" />
	</node>
	<node lat="69.44193055970037" lon="17.17144999872028" id="-39743">
		<tag k="name" v="Lille Kvaløya" />
		<tag k="place" v="islet" />
		<tag k="ssr:stedsnr" v="598160" />
	</node>
	<node lat="69.284536112058" lon="17.13895554800538" id="-39750">
		<tag k="name" v="Kvitsteinneset" />
		<tag k="natural" v="cape" />
		<tag k="ssr:stedsnr" v="598568" />
	</node>
	<node lat="69.05246666756601" lon="17.0850611223628" id="-39760">
		<tag k="name" v="Murneset" />
		<tag k="natural" v="cape" />
		<tag k="ssr:stedsnr" v="598698" />
	</node>
	<node lat="69.4246777778924" lon="17.234530541540362" id="-39763">
		<tag k="name" v="Lille Kvannholmen" />
		<tag k="place" v="islet" />
		<tag k="ssr:stedsnr" v="598911" />
	</node>
	<node lat="69.3729638854665" lon="17.382013894203578" id="-39764">
		<tag k="name" v="Småskjæran" />
		<tag k="place" v="islet" />
		<tag k="ssr:stedsnr" v="598899" />
	</node>
	<node lat="69.49983333320668" lon="17.52456389216224" id="-39766">
		<tag k="fixme" v="consider seamark:type=rock or natural=shoal" />
		<tag k="name" v="Bringsteinen" />
		<tag k="place" v="islet" />
		<tag k="ssr:stedsnr" v="600249" />
	</node>
	<node lat="69.49898333288353" lon="17.503130561263962" id="-39767">
		<tag k="name" v="Nålkytbukta" />
		<tag k="natural" v="bay" />
		<tag k="ssr:stedsnr" v="600251" />
	</node>
	<node lat="69.15898888700353" lon="17.408777783839966" id="-39768">
		<tag k="fixme" v="consider seamark:type=rock or natural=shoal" />
		<tag k="name" v="Finnsetskjæran" />
		<tag k="place" v="islet" />
		<tag k="ssr:stedsnr" v="272461" />
	</node>
	<node lat="69.43866667034594" lon="17.004705554933306" id="-39774">
		<tag k="name" v="Månesfallet" />
		<tag k="natural" v="shoal" />
		<tag k="place" v="locality" />
		<tag k="ssr:stedsnr" v="624260" />
	</node>
	<node lat="69.26073332987568" lon="17.104499987236537" id="-39775">
		<tag k="name" v="Kolsaren" />
		<tag k="natural" v="cape" />
		<tag k="ssr:stedsnr" v="624411" />
	</node>
	<node lat="69.2435999987634" lon="17.1348138989255" id="-39778">
		<tag k="alt_name" v="Forrneset" />
		<tag k="name" v="Forneset" />
		<tag k="natural" v="cape" />
		<tag k="ssr:stedsnr" v="624189" />
	</node>
	<node lat="69.24111667010331" lon="17.00503888397881" id="-39779">
		<tag k="alt_name" v="Flesen, in" />
		<tag k="name" v="Innerflesa" />
		<tag k="natural" v="cape" />
		<tag k="ssr:stedsnr" v="624192" />
	</node>
	<node lat="69.5805194440072" lon="16.86197778407396" id="-39789">
		<tag k="name" v="Sveinsgrunnen" />
		<tag k="natural" v="shoal" />
		<tag k="place" v="locality" />
		<tag k="ssr:stedsnr" v="624986" />
	</node>
	<node lat="69.60435555877181" lon="17.295388876144802" id="-39790">
		<tag k="alt_name" v="Vesterbåen, in" />
		<tag k="name" v="Indre Vesterbåen" />
		<tag k="natural" v="shoal" />
		<tag k="place" v="locality" />
		<tag k="ssr:stedsnr" v="624987" />
	</node>
	<node lat="69.53324444273225" lon="17.121452764604875" id="-39791">
		<tag k="name" v="Fugleryggen" />
		<tag k="natural" v="shoal" />
		<tag k="place" v="locality" />
		<tag k="ssr:stedsnr" v="624993" />
	</node>
	<node lat="69.54049721896376" lon="17.312369451127168" id="-39792">
		<tag k="alt_name" v="Okseneset" />
		<tag k="name" v="Oksneset" />
		<tag k="natural" v="cape" />
		<tag k="ssr:stedsnr" v="624994" />
	</node>
	<node lat="69.25936110669497" lon="16.79676389118828" id="-39793">
		<tag k="fixme" v="consider seamark:type=rock or natural=shoal" />
		<tag k="name" v="Skarvskjæran" />
		<tag k="place" v="islet" />
		<tag k="ssr:stedsnr" v="625204" />
	</node>
	<node lat="69.40388055796362" lon="17.311408325672712" id="-39794">
		<tag k="fixme" v="multiple name tags, choose one and add the other to alt_name" />
		<tag k="name" v="Morrvika;Mårvika" />
		<tag k="natural" v="bay" />
		<tag k="ssr:stedsnr" v="625283" />
	</node>
	<node lat="69.17659200436432" lon="17.95743139479398" id="-39795">
		<tag k="name" v="Reipneset" />
		<tag k="natural" v="cape" />
		<tag k="ssr:stedsnr" v="625454" />
	</node>
	<node lat="69.37555277588575" lon="16.882738877619126" id="-39797">
		<tag k="name" v="Purkevika" />
		<tag k="natural" v="bay" />
		<tag k="ssr:stedsnr" v="625374" />
	</node>
	<node lat="69.63244444799358" lon="17.553013876994566" id="-39809">
		<tag k="name" v="Stavbåen" />
		<tag k="natural" v="shoal" />
		<tag k="place" v="locality" />
		<tag k="ssr:stedsnr" v="625806" />
	</node>
	<node lat="69.55301944804603" lon="17.91188054764523" id="-39812">
		<tag k="name" v="Leirkjosen" />
		<tag k="natural" v="bay" />
		<tag k="ssr:stedsnr" v="625854" />
	</node>
	<node lat="69.50109722038277" lon="17.01145833581948" id="-39816">
		<tag k="name" v="Vettersbåen" />
		<tag k="natural" v="shoal" />
		<tag k="place" v="locality" />
		<tag k="ssr:stedsnr" v="625953" />
	</node>
	<node lat="69.3660027808384" lon="18.07648333687161" id="-39817">
		<tag k="name" v="Lappneset" />
		<tag k="natural" v="cape" />
		<tag k="ssr:stedsnr" v="631494" />
	</node>
	<node lat="69.39336388812575" lon="18.061013895160578" id="-39818">
		<tag k="name" v="Nordnesbukta" />
		<tag k="natural" v="bay" />
		<tag k="ssr:stedsnr" v="631499" />
	</node>
	<node lat="69.35560555924346" lon="17.02111110656889" id="-39823">
		<tag k="name" v="Juldagen" />
		<tag k="natural" v="shoal" />
		<tag k="place" v="locality" />
		<tag k="ssr:stedsnr" v="649089" />
	</node>
	<node lat="69.37909722468649" lon="16.918061098922312" id="-39824">
		<tag k="name" v="Kværna" />
		<tag k="natural" v="shoal" />
		<tag k="place" v="locality" />
		<tag k="ssr:stedsnr" v="649187" />
	</node>
	<node lat="69.4467083356116" lon="17.080361118984655" id="-39825">
		<tag k="name" v="Sølvskeia" />
		<tag k="natural" v="shoal" />
		<tag k="place" v="locality" />
		<tag k="ssr:stedsnr" v="653387" />
	</node>
	<node lat="69.42213055071822" lon="17.12076111874221" id="-39828">
		<tag k="fixme" v="consider seamark:type=rock or natural=shoal" />
		<tag k="name" v="Småskjæran" />
		<tag k="place" v="islet" />
		<tag k="ssr:stedsnr" v="653845" />
	</node>
	<node lat="69.53182499649175" lon="17.910219430913735" id="-39834">
		<tag k="name" v="Fjellviksanda" />
		<tag k="natural" v="beach" />
		<tag k="ssr:stedsnr" v="654607" />
	</node>
	<node lat="69.59220833174713" lon="17.838161119801914" id="-39839">
		<tag k="name" v="Tørnholmen" />
		<tag k="place" v="islet" />
		<tag k="ssr:stedsnr" v="654686" />
	</node>
	<node lat="69.59103333532572" lon="17.84690278197567" id="-39840">
		<tag k="name" v="Kiddholmen" />
		<tag k="place" v="islet" />
		<tag k="ssr:stedsnr" v="654688" />
	</node>
	<node lat="69.5898361146438" lon="17.838283339252868" id="-39841">
		<tag k="fixme" v="consider seamark:type=rock or natural=shoal" />
		<tag k="name" v="Tørnskjæret" />
		<tag k="place" v="islet" />
		<tag k="ssr:stedsnr" v="654690" />
	</node>
	<node lat="69.59099166638994" lon="17.852169439320832" id="-39847">
		<tag k="name" v="Kvalholmen" />
		<tag k="place" v="islet" />
		<tag k="ssr:stedsnr" v="654704" />
	</node>
	<node lat="69.30643055194375" lon="17.98530832140413" id="-39855">
		<tag k="name" v="Litjeholmen" />
		<tag k="natural" v="cape" />
		<tag k="ssr:stedsnr" v="655131" />
	</node>
	<node lat="69.36431666251292" lon="18.31405833718519" id="-39870">
		<tag k="name" v="Gammelgårdneset" />
		<tag k="natural" v="cape" />
		<tag k="ssr:stedsnr" v="656940" />
	</node>
	<node lat="69.28056666994677" lon="16.954830553955947" id="-39872">
		<tag k="name" v="Stryholla" />
		<tag k="natural" v="bay" />
		<tag k="ssr:stedsnr" v="657289" />
	</node>
	<node lat="69.45980833561939" lon="18.365477785690235" id="-39877">
		<tag k="name" v="Indre Jøviknes" />
		<tag k="natural" v="cape" />
		<tag k="ssr:stedsnr" v="657832" />
	</node>
	<node lat="69.08176666517511" lon="17.15730276412599" id="-39878">
		<tag k="fixme" v="consider seamark:type=rock or natural=shoal" />
		<tag k="name" v="Skjæret" />
		<tag k="place" v="islet" />
		<tag k="ssr:stedsnr" v="658285" />
	</node>
	<node lat="69.06871111214" lon="17.014838890653042" id="-39882">
		<tag k="name" v="Øyneset" />
		<tag k="natural" v="cape" />
		<tag k="ssr:stedsnr" v="658490" />
	</node>
	<node lat="69.3255500046814" lon="17.0717055491251" id="-39883">
		<tag k="name" v="Kongsnesbukta" />
		<tag k="natural" v="bay" />
		<tag k="ssr:stedsnr" v="658495" />
	</node>
	<node lat="69.28413055846136" lon="17.145727768553243" id="-39884">
		<tag k="name" v="Grindevika" />
		<tag k="natural" v="bay" />
		<tag k="ssr:stedsnr" v="658603" />
	</node>
	<node lat="69.28328611158722" lon="17.164222218204397" id="-39895">
		<tag k="name" v="Grunnhamn" />
		<tag k="natural" v="bay" />
		<tag k="ssr:stedsnr" v="658590" />
	</node>
	<node lat="69.28420555278083" lon="17.1346000039225" id="-39897">
		<tag k="name" v="Mølnevika" />
		<tag k="natural" v="bay" />
		<tag k="ssr:stedsnr" v="658592" />
	</node>
	<node lat="69.39182222087582" lon="17.072061111626827" id="-39900">
		<tag k="name" v="Ytterhollet" />
		<tag k="natural" v="bay" />
		<tag k="ssr:stedsnr" v="658731" />
	</node>
	<node lat="69.44074325123158" lon="17.421693495437555" id="-39917">
		<tag k="alt_name" v="Lutnes" />
		<tag k="name" v="Lutneset" />
		<tag k="natural" v="cape" />
		<tag k="ssr:stedsnr" v="659740" />
	</node>
	<node lat="69.43088611308318" lon="17.207505557163017" id="-39925">
		<tag k="name" v="Takholman" />
		<tag k="place" v="islet" />
		<tag k="ssr:stedsnr" v="659992" />
	</node>
	<node lat="69.43128333242778" lon="17.48901666224216" id="-39932">
		<tag k="name" v="Nordbotn" />
		<tag k="natural" v="bay" />
		<tag k="ssr:stedsnr" v="661106" />
	</node>
	<node lat="69.17688888655285" lon="17.098219440763014" id="-39936">
		<tag k="name" v="Lysgrunnen" />
		<tag k="natural" v="shoal" />
		<tag k="place" v="locality" />
		<tag k="ssr:stedsnr" v="892183" />
	</node>
	<node lat="69.07391944544739" lon="17.05693332772948" id="-39940">
		<tag k="name" v="Frovågneset" />
		<tag k="natural" v="cape" />
		<tag k="ssr:stedsnr" v="685014" />
	</node>
	<node lat="69.04125000224835" lon="17.136680548099243" id="-39942">
		<tag k="loc_name:se" v="Stággu;Staggogáddi" />
		<tag k="name" v="Stonglandet" />
		<tag k="name:no" v="Stonglandet" />
		<tag k="natural" v="cape" />
		<tag k="ssr:stedsnr" v="685110" />
	</node>
	<node lat="69.04392222614786" lon="17.07645555965947" id="-39943">
		<tag k="name" v="Hofsøybotn" />
		<tag k="natural" v="bay" />
		<tag k="ssr:stedsnr" v="685111" />
	</node>
	<node lat="68.99168055646024" lon="17.221475004351948" id="-39944">
		<tag k="name" v="Faksegrunnen" />
		<tag k="natural" v="shoal" />
		<tag k="place" v="locality" />
		<tag k="ssr:stedsnr" v="685123" />
	</node>
	<node lat="69.42734167129197" lon="17.39179721426453" id="-39947">
		<tag k="bay" v="fjord" />
		<tag k="name" v="Nordfjorden" />
		<tag k="natural" v="bay" />
		<tag k="ssr:stedsnr" v="685245" />
	</node>
	<node lat="69.26116944204382" lon="16.713105542536457" id="-39954">
		<tag k="name" v="Skjerdingen" />
		<tag k="natural" v="shoal" />
		<tag k="place" v="locality" />
		<tag k="ssr:stedsnr" v="686198" />
	</node>
	<node lat="69.25548333268145" lon="16.775949995852052" id="-39955">
		<tag k="fixme" v="consider seamark:type=rock or natural=shoal" />
		<tag k="name" v="Leiskjæret" />
		<tag k="place" v="islet" />
		<tag k="ssr:stedsnr" v="686201" />
	</node>
	<node lat="69.17183055923833" lon="17.525113885778314" id="-39959">
		<tag k="alt_name" v="Litlebotn" />
		<tag k="name" v="Litjebotn" />
		<tag k="natural" v="bay" />
		<tag k="ssr:stedsnr" v="686445" />
	</node>
	<node lat="69.16470277694204" lon="17.43310556579357" id="-39960">
		<tag k="alt_name" v="Forøygrunnen" />
		<tag k="name" v="Forrøygrunnen" />
		<tag k="natural" v="shoal" />
		<tag k="place" v="locality" />
		<tag k="ssr:stedsnr" v="686446" />
	</node>
	<node lat="69.46877222400548" lon="17.8545805452867" id="-39969">
		<tag k="name" v="Krakneset" />
		<tag k="natural" v="cape" />
		<tag k="ssr:stedsnr" v="686508" />
	</node>
	<node lat="69.39460000148169" lon="18.05909723102658" id="-39975">
		<tag k="alt_name" v="Nordnes" />
		<tag k="name" v="Nordneset" />
		<tag k="natural" v="cape" />
		<tag k="ssr:stedsnr" v="686704" />
	</node>
	<node lat="69.57892500086068" lon="17.084783339347698" id="-39978">
		<tag k="name" v="Skreigrunnen" />
		<tag k="natural" v="shoal" />
		<tag k="place" v="locality" />
		<tag k="ssr:stedsnr" v="686988" />
	</node>
	<node lat="69.62453610871854" lon="17.284105544834272" id="-39979">
		<tag k="alt_name" v="Vesterbåen, yt" />
		<tag k="name" v="Ytre Vesterbåen" />
		<tag k="natural" v="shoal" />
		<tag k="place" v="locality" />
		<tag k="ssr:stedsnr" v="686989" />
	</node>
	<node lat="69.53929166763717" lon="17.324219451955283" id="-39980">
		<tag k="name" v="Oksvika" />
		<tag k="natural" v="bay" />
		<tag k="ssr:stedsnr" v="686998" />
	</node>
	<node lat="69.52979721898977" lon="17.915372214845636" id="-39981">
		<tag k="name" v="Gamvika" />
		<tag k="natural" v="bay" />
		<tag k="ssr:stedsnr" v="687894" />
	</node>
	<node lat="69.46460278065112" lon="18.20347222912181" id="-39985">
		<tag k="name" v="Kvitberget" />
		<tag k="natural" v="cape" />
		<tag k="ssr:stedsnr" v="692691" />
	</node>
	<node lat="69.01258889135639" lon="17.15835001074117" id="-39986">
		<tag k="fixme" v="consider seamark:type=rock or natural=shoal" />
		<tag k="name" v="Kattskjæret" />
		<tag k="place" v="islet" />
		<tag k="ssr:stedsnr" v="697313" />
	</node>
	<node lat="69.14713333076276" lon="17.470166663011835" id="-39987">
		<tag k="fixme" v="consider seamark:type=rock or natural=shoal" />
		<tag k="name" v="Rotskjæret" />
		<tag k="place" v="islet" />
		<tag k="ssr:stedsnr" v="697468" />
	</node>
	<node lat="69.53165555903725" lon="17.67793054738884" id="-39988">
		<tag k="name" v="Brygga" />
		<tag k="natural" v="cape" />
		<tag k="ssr:stedsnr" v="898241" />
	</node>
	<node lat="69.41235833776267" lon="17.18188609991895" id="-39989">
		<tag k="alt_name" v="Mølnekjosen" />
		<tag k="name" v="Mølnkjosen" />
		<tag k="natural" v="bay" />
		<tag k="ssr:stedsnr" v="896888" />
	</node>
	<node lat="69.56521944635637" lon="17.407161098554564" id="-39990">
		<tag k="name" v="Steinen" />
		<tag k="natural" v="shoal" />
		<tag k="place" v="locality" />
		<tag k="ssr:stedsnr" v="896995" />
	</node>
	<node lat="69.51759999981894" lon="17.91753889857306" id="-39996">
		<tag k="name" v="Litjeneset" />
		<tag k="natural" v="cape" />
		<tag k="ssr:stedsnr" v="897576" />
	</node>
	<node lat="69.57065277829538" lon="17.83976666167825" id="-39999">
		<tag k="fixme" v="consider seamark:type=rock or natural=shoal" />
		<tag k="name" v="Nyheimskjæret" />
		<tag k="place" v="islet" />
		<tag k="ssr:stedsnr" v="897793" />
	</node>
	<node lat="69.28515555309441" lon="17.989458321134915" id="-40005">
		<tag k="name" v="Rørvika" />
		<tag k="natural" v="bay" />
		<tag k="ssr:stedsnr" v="898029" />
	</node>
	<node lat="69.1936972238229" lon="16.81173611389794" id="-40007">
		<tag k="name" v="Kjøllegrunnen" />
		<tag k="natural" v="shoal" />
		<tag k="place" v="locality" />
		<tag k="ssr:stedsnr" v="709927" />
	</node>
	<node lat="69.38141944763075" lon="16.915647232774546" id="-40011">
		<tag k="name" v="Flua" />
		<tag k="natural" v="shoal" />
		<tag k="place" v="locality" />
		<tag k="ssr:stedsnr" v="710211" />
	</node>
	<node lat="69.17879722486205" lon="17.118352775507976" id="-40012">
		<tag k="alt_name" v="Klubbskjæran" />
		<tag k="name" v="Klubbholman" />
		<tag k="place" v="islet" />
		<tag k="ssr:stedsnr" v="710190" />
	</node>
	<node lat="69.18525832966702" lon="17.16807778705294" id="-40013">
		<tag k="alt_name" v="Lutskjæran" />
		<tag k="fixme" v="consider seamark:type=rock or natural=shoal" />
		<tag k="name" v="Lutskjæret" />
		<tag k="place" v="islet" />
		<tag k="ssr:stedsnr" v="710193" />
	</node>
	<node lat="69.51107222584989" lon="17.703758344300166" id="-40016">
		<tag k="name" v="Sørvika" />
		<tag k="natural" v="bay" />
		<tag k="ssr:stedsnr" v="898158" />
	</node>
	<node lat="69.5716722184741" lon="17.55571667586511" id="-40017">
		<tag k="name" v="Støa" />
		<tag k="natural" v="bay" />
		<tag k="ssr:stedsnr" v="898165" />
	</node>
	<node lat="69.22736944687064" lon="17.98686944684485" id="-40022">
		<tag k="name" v="Karoliusbukta" />
		<tag k="natural" v="bay" />
		<tag k="ssr:stedsnr" v="898339" />
	</node>
	<node lat="69.54005555828434" lon="17.915727775877706" id="-40026">
		<tag k="fixme" v="consider seamark:type=rock or natural=shoal" />
		<tag k="name" v="Elveskjæran" />
		<tag k="place" v="islet" />
		<tag k="ssr:stedsnr" v="898494" />
	</node>
	<node lat="69.3951500007904" lon="18.06373054200018" id="-40033">
		<tag k="fixme" v="consider seamark:type=rock or natural=shoal" />
		<tag k="name" v="Skarvesteinen" />
		<tag k="place" v="islet" />
		<tag k="ssr:stedsnr" v="898634" />
	</node>
	<node lat="69.40981944690488" lon="17.270052784184923" id="-40038">
		<tag k="name" v="Storvika" />
		<tag k="natural" v="bay" />
		<tag k="ssr:stedsnr" v="714877" />
	</node>
	<node lat="69.35177777649746" lon="18.060677771421958" id="-40046">
		<tag k="name" v="Elinatjønna" />
		<tag k="natural" v="bay" />
		<tag k="ssr:stedsnr" v="898842" />
	</node>
	<node lat="69.22736666517655" lon="17.11649999425178" id="-40077">
		<tag k="name" v="Reinsteinneset" />
		<tag k="natural" v="cape" />
		<tag k="ssr:stedsnr" v="718504" />
	</node>
	<node lat="69.07641389085798" lon="17.086638885247464" id="-40082">
		<tag k="name" v="Dannemannsvika" />
		<tag k="natural" v="bay" />
		<tag k="ssr:stedsnr" v="719267" />
	</node>
	<node lat="69.08408888708337" lon="17.15808611519804" id="-40083">
		<tag k="name" v="Geitneset" />
		<tag k="natural" v="cape" />
		<tag k="ssr:stedsnr" v="719281" />
	</node>
	<node lat="69.08296389116936" lon="17.139041666343452" id="-40084">
		<tag k="name" v="Storvika" />
		<tag k="natural" v="bay" />
		<tag k="ssr:stedsnr" v="719285" />
	</node>
	<node lat="69.16059167149496" lon="17.598297210698608" id="-40089">
		<tag k="name" v="Kjosen" />
		<tag k="natural" v="bay" />
		<tag k="ssr:stedsnr" v="719469" />
	</node>
	<node lat="69.04330000323378" lon="17.109658331374373" id="-40097">
		<tag k="name" v="Svartevika" />
		<tag k="natural" v="bay" />
		<tag k="ssr:stedsnr" v="719622" />
	</node>
	<node lat="69.05868610769657" lon="17.07905554439532" id="-40099">
		<tag k="name" v="Langåkerneset" />
		<tag k="natural" v="cape" />
		<tag k="ssr:stedsnr" v="719677" />
	</node>
	<node lat="69.20894721937567" lon="18.066972223298063" id="-40105">
		<tag k="name" v="Mellavika" />
		<tag k="natural" v="bay" />
		<tag k="ssr:stedsnr" v="899556" />
	</node>
	<node lat="69.46067499914552" lon="17.130491656176382" id="-40117">
		<tag k="name" v="Løssøyholmen" />
		<tag k="place" v="islet" />
		<tag k="ssr:stedsnr" v="720008" />
	</node>
	<node lat="69.41542500182089" lon="17.17578889677129" id="-40118">
		<tag k="name" v="Bekkeneset" />
		<tag k="natural" v="cape" />
		<tag k="ssr:stedsnr" v="720103" />
	</node>
	<node lat="69.45070951536762" lon="17.0996929474572" id="-40119">
		<tag k="name" v="Sisarkeila" />
		<tag k="natural" v="bay" />
		<tag k="ssr:stedsnr" v="720181" />
	</node>
	<node lat="69.46182222382598" lon="18.14270833423638" id="-40130">
		<tag k="name" v="Ramnorvika" />
		<tag k="natural" v="bay" />
		<tag k="ssr:stedsnr" v="899693" />
	</node>
	<node lat="69.49667777649067" lon="17.59992776546709" id="-40138">
		<tag k="name" v="Bukkholla" />
		<tag k="natural" v="bay" />
		<tag k="ssr:stedsnr" v="722223" />
	</node>
	<node lat="69.38378333118955" lon="18.34619443663465" id="-40140">
		<tag k="name" v="Årneset" />
		<tag k="natural" v="cape" />
		<tag k="ssr:stedsnr" v="899964" />
	</node>
	<node lat="69.38244444567441" lon="18.34192776340879" id="-40141">
		<tag k="name" v="Seljeneset" />
		<tag k="natural" v="cape" />
		<tag k="ssr:stedsnr" v="899968" />
	</node>
	<node lat="69.4732361116971" lon="18.232397213551096" id="-40144">
		<tag k="name" v="Storpallen" />
		<tag k="natural" v="bay" />
		<tag k="ssr:stedsnr" v="899973" />
	</node>
	<node lat="69.48276111552879" lon="18.238230555408805" id="-40147">
		<tag k="fixme" v="consider seamark:type=rock or natural=shoal" />
		<tag k="name" v="Longlevra" />
		<tag k="place" v="islet" />
		<tag k="ssr:stedsnr" v="899995" />
	</node>
	<node lat="69.33860278156223" lon="17.002980551928253" id="-40150">
		<tag k="name" v="Sommarkeila" />
		<tag k="natural" v="bay" />
		<tag k="ssr:stedsnr" v="900384" />
	</node>
	<node lat="69.40483611352337" lon="16.955383344779566" id="-40154">
		<tag k="name" v="Slumpholla" />
		<tag k="natural" v="bay" />
		<tag k="ssr:stedsnr" v="900444" />
	</node>
	<node lat="69.0290083345857" lon="16.88087499600437" id="-40158">
		<tag k="name" v="Valan" />
		<tag k="natural" v="strait" />
		<tag k="ssr:stedsnr" v="900975" />
	</node>
	<node lat="69.1907277776944" lon="17.011511103553268" id="-40160">
		<tag k="name" v="Finnelvstranda" />
		<tag k="natural" v="beach" />
		<tag k="ssr:stedsnr" v="901111" />
	</node>
	<node lat="69.29232777575997" lon="16.769947219758855" id="-40161">
		<tag k="name" v="Store Gåsholmen" />
		<tag k="place" v="islet" />
		<tag k="ssr:stedsnr" v="901126" />
	</node>
	<node lat="69.0213944473225" lon="17.215658326857405" id="-40165">
		<tag k="name" v="Steinvika" />
		<tag k="natural" v="bay" />
		<tag k="ssr:stedsnr" v="901423" />
	</node>
	<node lat="69.00731111502354" lon="17.055833345283666" id="-40178">
		<tag k="name" v="Skåla" />
		<tag k="natural" v="cape" />
		<tag k="ssr:stedsnr" v="901573" />
	</node>
	<node lat="69.3108083349153" lon="17.14557222423048" id="-40187">
		<tag k="name" v="Leirsteinneset" />
		<tag k="natural" v="cape" />
		<tag k="ssr:stedsnr" v="901613" />
	</node>
	<node lat="69.16878055936672" lon="17.72175555192437" id="-40205">
		<tag k="name" v="Kneppelandet" />
		<tag k="natural" v="beach" />
		<tag k="ssr:stedsnr" v="901736" />
	</node>
	<node lat="69.05986944579197" lon="16.79383054419479" id="-40216">
		<tag k="name" v="Krabbevågneset" />
		<tag k="natural" v="cape" />
		<tag k="ssr:stedsnr" v="901797" />
	</node>
	<node lat="69.15331111372265" lon="17.471697232795332" id="-40219">
		<tag k="fixme" v="consider seamark:type=rock or natural=shoal" />
		<tag k="name" v="Masterskjæret" />
		<tag k="place" v="islet" />
		<tag k="ssr:stedsnr" v="901855" />
	</node>
	<node lat="69.45621944905015" lon="17.1226055487391" id="-40224">
		<tag k="name" v="Tvillingan" />
		<tag k="place" v="islet" />
		<tag k="ssr:stedsnr" v="902052" />
	</node>
	<node lat="69.44435555667802" lon="17.119313888320796" id="-40226">
		<tag k="name" v="Jottinholla" />
		<tag k="natural" v="bay" />
		<tag k="ssr:stedsnr" v="902167" />
	</node>
	<node lat="69.4259944406608" lon="17.150716653011397" id="-40227">
		<tag k="fixme" v="consider seamark:type=rock or natural=shoal" />
		<tag k="name" v="Hans Østensaskjæret" />
		<tag k="place" v="islet" />
		<tag k="ssr:stedsnr" v="902129" />
	</node>
	<node lat="69.5019111083322" lon="17.364591676112763" id="-40229">
		<tag k="fixme" v="consider seamark:type=rock or natural=shoal" />
		<tag k="name" v="Slagsteinen" />
		<tag k="place" v="islet" />
		<tag k="ssr:stedsnr" v="902261" />
	</node>
	<node lat="69.47759444167542" lon="17.329022208148746" id="-40230">
		<tag k="name" v="Teigen" />
		<tag k="natural" v="cape" />
		<tag k="ssr:stedsnr" v="902267" />
	</node>
	<node lat="69.48363611173565" lon="17.307208321237045" id="-40243">
		<tag k="fixme" v="consider seamark:type=rock or natural=shoal" />
		<tag k="name" v="Ytre Skarvsteinen" />
		<tag k="place" v="islet" />
		<tag k="ssr:stedsnr" v="902761" />
	</node>
	<node lat="69.42546944722211" lon="17.22740832026646" id="-40246">
		<tag k="fixme" v="consider seamark:type=rock or natural=shoal" />
		<tag k="name" v="Kvannholmsnagan" />
		<tag k="place" v="islet" />
		<tag k="ssr:stedsnr" v="902946" />
	</node>
	<node lat="69.46820723543736" lon="17.23031940585427" id="-40250">
		<tag k="name" v="Bøstranda" />
		<tag k="natural" v="beach" />
		<tag k="ssr:stedsnr" v="903412" />
	</node>
	<node lat="69.02190832944133" lon="17.197924988881958" id="-40252">
		<tag k="name" v="Lekangsbukta" />
		<tag k="natural" v="bay" />
		<tag k="ssr:stedsnr" v="745089" />
	</node>
	<node lat="69.22952777742456" lon="16.88439443289824" id="-40254">
		<tag k="alt_name" v="Trollflesen" />
		<tag k="name" v="Trollflesa" />
		<tag k="natural" v="cape" />
		<tag k="ssr:stedsnr" v="745212" />
	</node>
	<node lat="69.05307777508222" lon="17.203936098945235" id="-40258">
		<tag k="name" v="Svartnesenden" />
		<tag k="natural" v="cape" />
		<tag k="ssr:stedsnr" v="746108" />
	</node>
	<node lat="69.36245555346022" lon="16.96076388119789" id="-40259">
		<tag k="fixme" v="multiple name tags, choose one and add the other to alt_name" />
		<tag k="name" v="Klemningen;Indre Klemmingen" />
		<tag k="natural" v="cape" />
		<tag k="ssr:stedsnr" v="746303" />
	</node>
	<node lat="69.46185555904916" lon="18.192680555511696" id="-40268">
		<tag k="name" v="Sørvika" />
		<tag k="natural" v="bay" />
		<tag k="ssr:stedsnr" v="746605" />
	</node>
	<node lat="69.39111944530059" lon="18.171883329357957" id="-40269">
		<tag k="name" v="Kårvika" />
		<tag k="natural" v="bay" />
		<tag k="ssr:stedsnr" v="746666" />
	</node>
	<node lat="69.58601389327282" lon="17.850269441725438" id="-40271">
		<tag k="name" v="Hekkingsundet" />
		<tag k="natural" v="strait" />
		<tag k="ssr:stedsnr" v="746704" />
	</node>
	<node lat="69.5993472238512" lon="17.625680564088466" id="-40272">
		<tag k="name" v="Fugleneset" />
		<tag k="natural" v="cape" />
		<tag k="ssr:stedsnr" v="746708" />
	</node>
	<node lat="69.45921388650615" lon="17.123991658367807" id="-40279">
		<tag k="name" v="Netøya" />
		<tag k="place" v="island" />
		<tag k="ssr:stedsnr" v="747276" />
	</node>
	<node lat="69.4863555552954" lon="17.490597208617054" id="-40289">
		<tag k="name" v="Løkteneset" />
		<tag k="natural" v="cape" />
		<tag k="ssr:stedsnr" v="904091" />
	</node>
	<node lat="69.48655833097419" lon="17.401886113526988" id="-40293">
		<tag k="name" v="Sjøstranda" />
		<tag k="natural" v="beach" />
		<tag k="ssr:stedsnr" v="904131" />
	</node>
	<node lat="69.59396111439614" lon="17.486158335057112" id="-40295">
		<tag k="name" v="Tindtavlekeila" />
		<tag k="natural" v="bay" />
		<tag k="ssr:stedsnr" v="904210" />
	</node>
	<node lat="69.49390555441568" lon="17.604158334960253" id="-40296">
		<tag k="name" v="Seiholla" />
		<tag k="natural" v="bay" />
		<tag k="ssr:stedsnr" v="904220" />
	</node>
	<node lat="69.46104166466807" lon="17.603861105241393" id="-40300">
		<tag k="name" v="Svarthollneset" />
		<tag k="natural" v="cape" />
		<tag k="ssr:stedsnr" v="904287" />
	</node>
	<node lat="69.43575555825691" lon="17.15847223350393" id="-40302">
		<tag k="fixme" v="consider seamark:type=rock or natural=shoal" />
		<tag k="name" v="Leiskjæret" />
		<tag k="place" v="islet" />
		<tag k="ssr:stedsnr" v="228869" />
	</node>
	<node lat="69.39792778054563" lon="18.066538880175578" id="-40304">
		<tag k="name" v="Klubben" />
		<tag k="natural" v="cape" />
		<tag k="ssr:stedsnr" v="753469" />
	</node>
	<node lat="69.11786944453915" lon="17.304083342515156" id="-40305">
		<tag k="fixme" v="consider seamark:type=rock or natural=shoal" />
		<tag k="name" v="Brurskjæret" />
		<tag k="place" v="islet" />
		<tag k="ssr:stedsnr" v="757256" />
	</node>
	<node lat="69.24704444233961" lon="16.99469999928486" id="-40306">
		<tag k="fixme" v="consider seamark:type=rock or natural=shoal" />
		<tag k="name" v="Flesa" />
		<tag k="place" v="islet" />
		<tag k="ssr:stedsnr" v="757550" />
	</node>
	<node lat="69.04769722417512" lon="17.244438894876552" id="-40307">
		<tag k="name" v="Hølla" />
		<tag k="natural" v="shoal" />
		<tag k="place" v="locality" />
		<tag k="ssr:stedsnr" v="757900" />
	</node>
	<node lat="69.19472777741692" lon="18.005958330821947" id="-40308">
		<tag k="alt_name" v="Russevika" />
		<tag k="name" v="Hollavika" />
		<tag k="natural" v="bay" />
		<tag k="ssr:stedsnr" v="757950" />
	</node>
	<node lat="69.19404722630344" lon="16.838086107191835" id="-40310">
		<tag k="name" v="Flyndra" />
		<tag k="natural" v="shoal" />
		<tag k="place" v="locality" />
		<tag k="ssr:stedsnr" v="770904" />
	</node>
	<node lat="69.4775027791714" lon="17.610836112674182" id="-40312">
		<tag k="name" v="Indre Skjærbåen" />
		<tag k="natural" v="shoal" />
		<tag k="place" v="locality" />
		<tag k="ssr:stedsnr" v="772975" />
	</node>
	<node lat="69.47348055210892" lon="17.65671387302666" id="-40313">
		<tag k="name" v="Migan" />
		<tag k="natural" v="bay" />
		<tag k="ssr:stedsnr" v="772981" />
	</node>
	<node lat="69.50831110689202" lon="17.909327773465552" id="-40322">
		<tag k="fixme" v="consider seamark:type=rock or natural=shoal" />
		<tag k="name" v="Hamnskjæret" />
		<tag k="place" v="islet" />
		<tag k="ssr:stedsnr" v="776465" />
	</node>
	<node lat="69.40378888802708" lon="18.15512776297625" id="-40345">
		<tag k="name" v="Hårkallvika" />
		<tag k="natural" v="bay" />
		<tag k="ssr:stedsnr" v="778665" />
	</node>
	<node lat="69.3243222266149" lon="18.497494438104454" id="-40347">
		<tag k="name" v="Sandneset" />
		<tag k="natural" v="cape" />
		<tag k="ssr:stedsnr" v="778810" />
	</node>
	<node lat="69.27824166279814" lon="17.091119450214425" id="-40353">
		<tag k="name" v="Eidet" />
		<tag k="place" v="locality" />
		<tag k="ssr:stedsnr" v="779516" />
	</node>
	<node lat="69.14766388633105" lon="17.464986109533772" id="-40358">
		<tag k="name" v="Valan" />
		<tag k="natural" v="strait" />
		<tag k="ssr:stedsnr" v="779458" />
	</node>
	<node lat="69.14390555565939" lon="17.40668611838338" id="-40359">
		<tag k="name" v="Enden" />
		<tag k="natural" v="cape" />
		<tag k="ssr:stedsnr" v="779462" />
	</node>
	<node lat="69.06037221912412" lon="16.911708342926065" id="-40361">
		<tag k="name" v="Buvikstranda" />
		<tag k="natural" v="beach" />
		<tag k="ssr:stedsnr" v="779910" />
	</node>
	<node lat="69.36013055649782" lon="17.08132222491247" id="-40365">
		<tag k="name" v="Grisen" />
		<tag k="natural" v="cape" />
		<tag k="ssr:stedsnr" v="779671" />
	</node>
	<node lat="69.51576111068216" lon="17.340736109539765" id="-40369">
		<tag k="name" v="Hundslaupvika" />
		<tag k="natural" v="bay" />
		<tag k="ssr:stedsnr" v="780201" />
	</node>
	<node lat="69.01746666842068" lon="17.187622233360603" id="-40372">
		<tag k="fixme" v="consider seamark:type=rock or natural=shoal" />
		<tag k="name" v="Breivikfluen" />
		<tag k="place" v="islet" />
		<tag k="ssr:stedsnr" v="780495" />
	</node>
	<node lat="69.16061110961259" lon="17.690561116141573" id="-40375">
		<tag k="name" v="Mølnevika" />
		<tag k="natural" v="bay" />
		<tag k="ssr:stedsnr" v="780657" />
	</node>
	<node lat="69.43850278098509" lon="17.22348056668503" id="-40381">
		<tag k="name" v="Færøysanden" />
		<tag k="natural" v="beach" />
		<tag k="ssr:stedsnr" v="781259" />
	</node>
	<node lat="69.36197777782753" lon="17.395130553527334" id="-40388">
		<tag k="name" v="Sørbotn" />
		<tag k="natural" v="bay" />
		<tag k="ssr:stedsnr" v="781864" />
	</node>
	<node lat="69.47285833308597" lon="17.661455552501142" id="-40391">
		<tag k="name" v="Geitbenkneset" />
		<tag k="natural" v="cape" />
		<tag k="ssr:stedsnr" v="783218" />
	</node>
	<node lat="69.44395555193519" lon="18.027594443112488" id="-40400">
		<tag k="name" v="Storvika" />
		<tag k="natural" v="bay" />
		<tag k="ssr:stedsnr" v="813712" />
	</node>
	<node lat="69.46518333333348" lon="18.029169428828858" id="-40401">
		<tag k="name" v="Skarsvåggrunnen" />
		<tag k="natural" v="shoal" />
		<tag k="place" v="locality" />
		<tag k="ssr:stedsnr" v="814707" />
	</node>
	<node lat="69.43727777476266" lon="18.027241672180633" id="-40402">
		<tag k="name" v="Skrivarneset" />
		<tag k="natural" v="cape" />
		<tag k="ssr:stedsnr" v="814693" />
	</node>
	<node lat="69.40404999873581" lon="18.359405557914034" id="-40405">
		<tag k="name" v="Vika" />
		<tag k="natural" v="bay" />
		<tag k="ssr:stedsnr" v="815606" />
	</node>
	<node lat="69.34790555101783" lon="16.960991673080464" id="-40406">
		<tag k="name" v="Hovderevet" />
		<tag k="natural" v="shoal" />
		<tag k="place" v="locality" />
		<tag k="ssr:stedsnr" v="831107" />
	</node>
	<node lat="69.25353055460991" lon="16.80474167416213" id="-40407">
		<tag k="fixme" v="consider seamark:type=rock or natural=shoal" />
		<tag k="name" v="Kveitskjæret" />
		<tag k="place" v="islet" />
		<tag k="ssr:stedsnr" v="832230" />
	</node>
	<node lat="69.24541666911992" lon="16.816097231139132" id="-40408">
		<tag k="name" v="Tørbåen" />
		<tag k="natural" v="shoal" />
		<tag k="place" v="locality" />
		<tag k="ssr:stedsnr" v="832231" />
	</node>
	<node lat="69.4492999968293" lon="17.208638888768977" id="-40409">
		<tag k="name" v="Storbåen" />
		<tag k="natural" v="shoal" />
		<tag k="place" v="locality" />
		<tag k="ssr:stedsnr" v="835428" />
	</node>
	<node lat="69.45019999582635" lon="17.084658342929334" id="-40410">
		<tag k="name" v="Sisarbåen" />
		<tag k="natural" v="shoal" />
		<tag k="place" v="locality" />
		<tag k="ssr:stedsnr" v="835432" />
	</node>
	<node lat="69.49823888901865" lon="16.952827776450892" id="-40411">
		<tag k="name" v="Grovlafallet" />
		<tag k="natural" v="shoal" />
		<tag k="place" v="locality" />
		<tag k="ssr:stedsnr" v="835880" />
	</node>
	<node lat="69.41838611254252" lon="17.26664999008789" id="-40412">
		<tag k="name" v="Ommundsflua" />
		<tag k="place" v="locality" />
		<tag k="seamark:type" v="rock" />
		<tag k="ssr:stedsnr" v="835894" />
	</node>
	<node lat="69.43736666466476" lon="18.01306943958937" id="-40427">
		<tag k="name" v="Skrivarneset" />
		<tag k="natural" v="cape" />
		<tag k="ssr:stedsnr" v="837409" />
	</node>
	<node lat="69.59917777700745" lon="17.822236102528898" id="-40439">
		<tag k="fixme" v="consider seamark:type=rock or natural=shoal" />
		<tag k="name" v="Skipsvikskjæret" />
		<tag k="place" v="islet" />
		<tag k="ssr:stedsnr" v="837696" />
	</node>
	<node lat="69.22817222716536" lon="17.857333319948747" id="-40443">
		<tag k="name" v="Rørneset" />
		<tag k="natural" v="cape" />
		<tag k="ssr:stedsnr" v="838708" />
	</node>
	<node lat="69.23214166853504" lon="18.063763894911933" id="-40453">
		<tag k="name" v="Stranda" />
		<tag k="natural" v="beach" />
		<tag k="ssr:stedsnr" v="839477" />
	</node>
	<node lat="69.45533020225548" lon="18.136295938673666" id="-40455">
		<tag k="name" v="Litje Rødbergsodden" />
		<tag k="natural" v="cape" />
		<tag k="ssr:stedsnr" v="839686" />
	</node>
	<node lat="69.46092499779654" lon="18.183472222499915" id="-40456">
		<tag k="name" v="Kobbeskjærvika" />
		<tag k="natural" v="bay" />
		<tag k="ssr:stedsnr" v="839687" />
	</node>
	<node lat="69.40001944785865" lon="18.358491656773392" id="-40457">
		<tag k="name" v="Krakneset" />
		<tag k="natural" v="cape" />
		<tag k="ssr:stedsnr" v="839809" />
	</node>
	<node lat="69.368766667776" lon="18.3232527740661" id="-40460">
		<tag k="name" v="Jarneset" />
		<tag k="natural" v="cape" />
		<tag k="ssr:stedsnr" v="839940" />
	</node>
	<node lat="69.27788333683814" lon="16.95152500607485" id="-40463">
		<tag k="fixme" v="consider seamark:type=rock or natural=shoal" />
		<tag k="name" v="Stryskjæran" />
		<tag k="place" v="islet" />
		<tag k="ssr:stedsnr" v="840281" />
	</node>
	<node lat="69.27269166497335" lon="17.011036101385656" id="-40464">
		<tag k="name" v="Hellarbukta" />
		<tag k="natural" v="bay" />
		<tag k="ssr:stedsnr" v="840292" />
	</node>
	<node lat="69.33368889308589" lon="17.01704166656239" id="-40467">
		<tag k="name" v="Sørsundet" />
		<tag k="natural" v="strait" />
		<tag k="ssr:stedsnr" v="840428" />
	</node>
	<node lat="69.0609861099277" lon="16.795249986136103" id="-40469">
		<tag k="fixme" v="consider seamark:type=rock or natural=shoal" />
		<tag k="name" v="Hemstervikstabben" />
		<tag k="place" v="islet" />
		<tag k="ssr:stedsnr" v="840805" />
	</node>
	<node lat="69.44751111292885" lon="17.15751667401976" id="-40475">
		<tag k="name" v="Stongholmen" />
		<tag k="place" v="islet" />
		<tag k="ssr:stedsnr" v="841133" />
	</node>
	<node lat="69.30962500436829" lon="18.5118583276603" id="-40476">
		<tag k="name" v="Lysgrunnen" />
		<tag k="natural" v="shoal" />
		<tag k="place" v="locality" />
		<tag k="ssr:stedsnr" v="841238" />
	</node>
	<node lat="69.14366666248482" lon="17.007122220214484" id="-40481">
		<tag k="name" v="Sarasteinen" />
		<tag k="natural" v="cape" />
		<tag k="ssr:stedsnr" v="841516" />
	</node>
	<node lat="69.24869722183593" lon="17.104322230678857" id="-40488">
		<tag k="fixme" v="consider seamark:type=rock or natural=shoal" />
		<tag k="name" v="Sølvskeia" />
		<tag k="place" v="islet" />
		<tag k="ssr:stedsnr" v="841495" />
	</node>
	<node lat="69.2425555560134" lon="17.114491666003993" id="-40489">
		<tag k="fixme" v="consider seamark:type=rock or natural=shoal" />
		<tag k="name" v="Finnknuta" />
		<tag k="place" v="islet" />
		<tag k="ssr:stedsnr" v="841500" />
	</node>
	<node lat="69.31086666689275" lon="17.151072230316217" id="-40490">
		<tag k="name" v="Leirbogen" />
		<tag k="natural" v="bay" />
		<tag k="ssr:stedsnr" v="841605" />
	</node>
	<node lat="69.41391111472856" lon="17.28816112091465" id="-40494">
		<tag k="name" v="Nordneset" />
		<tag k="natural" v="cape" />
		<tag k="ssr:stedsnr" v="841917" />
	</node>
	<node lat="69.43452222627403" lon="17.381969452235957" id="-40499">
		<tag k="name" v="Nessan" />
		<tag k="natural" v="cape" />
		<tag k="ssr:stedsnr" v="842591" />
	</node>
	<node lat="69.46118889050432" lon="17.586166653451414" id="-40512">
		<tag k="name" v="Hestevalen" />
		<tag k="natural" v="bay" />
		<tag k="ssr:stedsnr" v="843284" />
	</node>
	<node lat="69.02313610754496" lon="16.86812220987294" id="-40521">
		<tag k="name" v="Sandholmen" />
		<tag k="place" v="islet" />
		<tag k="ssr:stedsnr" v="927071" />
	</node>
	<node lat="69.0208138929087" lon="17.21108055982808" id="-40522">
		<tag k="name" v="Naustvågneset" />
		<tag k="natural" v="cape" />
		<tag k="ssr:stedsnr" v="927076" />
	</node>
	<node lat="69.01775833408264" lon="17.20187222519062" id="-40523">
		<tag k="alt_name" v="Gårdskjeret;Gardskjæret" />
		<tag k="fixme" v="consider seamark:type=rock or natural=shoal" />
		<tag k="name" v="Gårdskjæret" />
		<tag k="place" v="islet" />
		<tag k="ssr:stedsnr" v="927079" />
	</node>
	<node lat="69.01846111487899" lon="17.045583334505313" id="-40524">
		<tag k="name" v="Sørstesandan" />
		<tag k="natural" v="beach" />
		<tag k="old_name" v="Sørtesanden" />
		<tag k="ssr:stedsnr" v="927092" />
	</node>
	<node lat="69.01582778013042" lon="16.88824445589624" id="-40525">
		<tag k="name" v="Pertønderflua" />
		<tag k="natural" v="shoal" />
		<tag k="place" v="locality" />
		<tag k="ssr:stedsnr" v="927094" />
	</node>
	<node lat="69.49868611188685" lon="17.521705563917674" id="-40526">
		<tag k="alt_name" v="Bringneset, yt" />
		<tag k="fixme" v="multiple name tags, choose one and add the other to alt_name" />
		<tag k="name" v="Bringneset;Ytre Bringneset" />
		<tag k="natural" v="cape" />
		<tag k="ssr:stedsnr" v="928369" />
	</node>
	<node lat="69.05389444363306" lon="17.04773331955762" id="-40527">
		<tag k="name" v="Vassholmen" />
		<tag k="place" v="islet" />
		<tag k="ssr:stedsnr" v="928019" />
	</node>
	<node lat="69.06612222412251" lon="17.130974993763274" id="-40532">
		<tag k="name" v="Leirpollen" />
		<tag k="natural" v="bay" />
		<tag k="ssr:stedsnr" v="928031" />
	</node>
	<node lat="69.01607500032688" lon="17.24519166251331" id="-40535">
		<tag k="alt_name" v="Skarvskjeret" />
		<tag k="fixme" v="consider seamark:type=rock or natural=shoal" />
		<tag k="name" v="Skarveskjæret" />
		<tag k="place" v="islet" />
		<tag k="ssr:stedsnr" v="928076" />
	</node>
	<node lat="69.0457166643496" lon="17.198211113275665" id="-40536">
		<tag k="name" v="Svartneset" />
		<tag k="natural" v="cape" />
		<tag k="ssr:stedsnr" v="928093" />
	</node>
	<node lat="69.05587500087805" lon="17.20125832663891" id="-40537">
		<tag k="alt_name" v="Gårdskjeret" />
		<tag k="fixme" v="consider seamark:type=rock or natural=shoal" />
		<tag k="name" v="Gårdskjæret" />
		<tag k="place" v="islet" />
		<tag k="ssr:stedsnr" v="928099" />
	</node>
	<node lat="69.21170278166564" lon="16.915575002763216" id="-40538">
		<tag k="name" v="Leikvika" />
		<tag k="natural" v="bay" />
		<tag k="ssr:stedsnr" v="928109" />
	</node>
	<node lat="69.18945555346039" lon="17.139233318606163" id="-40542">
		<tag k="alt_name" v="Leikåsa, yt" />
		<tag k="name" v="Ytre Leirkåsa" />
		<tag k="natural" v="bay" />
		<tag k="ssr:stedsnr" v="928137" />
	</node>
	<node lat="69.2467333309526" lon="17.136261119154135" id="-40544">
		<tag k="bay" v="fjord" />
		<tag k="name" v="Gjeska" />
		<tag k="natural" v="bay" />
		<tag k="ssr:stedsnr" v="928146" />
	</node>
	<node lat="69.18040833376156" lon="16.84639166427088" id="-40549">
		<tag k="name" v="Kinngrunnen" />
		<tag k="natural" v="shoal" />
		<tag k="place" v="locality" />
		<tag k="ssr:stedsnr" v="928195" />
	</node>
	<node lat="69.43670278059238" lon="17.270350004164616" id="-40551">
		<tag k="bay" v="fjord" />
		<tag k="name" v="Bergsfjorden" />
		<tag k="natural" v="bay" />
		<tag k="ssr:stedsnr" v="928268" />
	</node>
	<node lat="69.43750555665102" lon="17.175291671109125" id="-40553">
		<tag k="alt_name" v="Svartskjeret;Svarteskjæret" />
		<tag k="fixme" v="consider seamark:type=rock or natural=shoal" />
		<tag k="name" v="Svartskjæret" />
		<tag k="place" v="islet" />
		<tag k="ssr:stedsnr" v="928223" />
	</node>
	<node lat="69.41301704177268" lon="17.287328752978873" id="-40556">
		<tag k="name" v="Hovsøya" />
		<tag k="place" v="island" />
		<tag k="ssr:stedsnr" v="928242" />
	</node>
	<node lat="69.1777722221155" lon="17.98259166340135" id="-40557">
		<tag k="name" v="Reipnesgrunnen" />
		<tag k="natural" v="shoal" />
		<tag k="place" v="locality" />
		<tag k="ssr:stedsnr" v="928428" />
	</node>
	<node lat="69.40043611473521" lon="17.02469166990124" id="-40575">
		<tag k="name" v="Hunden" />
		<tag k="natural" v="cape" />
		<tag k="ssr:stedsnr" v="929245" />
	</node>
	<node lat="69.40057221758705" lon="16.968305565083465" id="-40576">
		<tag k="name" v="Buttelen" />
		<tag k="natural" v="cape" />
		<tag k="ssr:stedsnr" v="929246" />
	</node>
	<node lat="69.43458055416765" lon="17.389874986368582" id="-40580">
		<tag k="name" v="Storneset" />
		<tag k="natural" v="cape" />
		<tag k="ssr:stedsnr" v="929038" />
	</node>
	<node lat="69.44781111482877" lon="17.278088881063113" id="-40581">
		<tag k="name" v="Kjerkegårdsneset" />
		<tag k="natural" v="cape" />
		<tag k="ssr:stedsnr" v="929263" />
	</node>
	<node lat="69.45179166551605" lon="17.133127772544157" id="-40583">
		<tag k="fixme" v="multiple name tags, choose one and add the other to alt_name" />
		<tag k="name" v="Teistholmen;Store Teistholmen" />
		<tag k="place" v="islet" />
		<tag k="ssr:stedsnr" v="929268" />
	</node>
	<node lat="69.30180555393349" lon="16.75239443349788" id="-40587">
		<tag k="name" v="Dragskolten" />
		<tag k="natural" v="shoal" />
		<tag k="place" v="locality" />
		<tag k="ssr:stedsnr" v="929197" />
	</node>
	<node lat="69.59652237732743" lon="17.83195575652383" id="-40588">
		<tag k="loc_name:se" v="Áhkigat" />
		<tag k="name" v="Hekkinga" />
		<tag k="name:no" v="Hekkinga" />
		<tag k="place" v="island" />
		<tag k="ssr:stedsnr" v="929760" />
	</node>
	<node lat="69.62099999855974" lon="17.626241668340768" id="-40591">
		<tag k="name" v="Hellefallet" />
		<tag k="natural" v="shoal" />
		<tag k="place" v="locality" />
		<tag k="ssr:stedsnr" v="929779" />
	</node>
	<node lat="69.63470000183148" lon="17.70448333148675" id="-40592">
		<tag k="name" v="Andersbåen" />
		<tag k="natural" v="shoal" />
		<tag k="place" v="locality" />
		<tag k="ssr:stedsnr" v="929787" />
	</node>
	<node lat="69.38944166592685" lon="17.09579445393731" id="-40596">
		<tag k="name" v="Ballesvika" />
		<tag k="natural" v="bay" />
		<tag k="ssr:stedsnr" v="929330" />
	</node>
	<node lat="69.35651201883125" lon="17.02313241444688" id="-40600">
		<tag k="name" v="Juldagsneset" />
		<tag k="natural" v="cape" />
		<tag k="ssr:stedsnr" v="929294" />
	</node>
	<node lat="69.23822499897038" lon="17.872022212044083" id="-40605">
		<tag k="name" v="Islandsbotn" />
		<tag k="natural" v="bay" />
		<tag k="ssr:stedsnr" v="929397" />
	</node>
	<node lat="69.508255559074" lon="18.01158612095952" id="-40606">
		<tag k="name" v="Trettevika" />
		<tag k="natural" v="bay" />
		<tag k="ssr:stedsnr" v="929439" />
	</node>
	<node lat="69.3126555547141" lon="17.9062083222462" id="-40614">
		<tag k="alt_name" v="Tennholmen" />
		<tag k="name" v="Eggholmen" />
		<tag k="place" v="islet" />
		<tag k="ssr:stedsnr" v="929564" />
	</node>
	<node lat="69.41708610949948" lon="18.427299988675863" id="-40619">
		<tag k="bay" v="fjord" />
		<tag k="loc_name:se" v="Málatvuotna" />
		<tag k="name" v="Malangen" />
		<tag k="name:no" v="Malangen" />
		<tag k="natural" v="bay" />
		<tag k="ssr:stedsnr" v="929638" />
	</node>
	<node lat="69.43288333195461" lon="18.160672205500052" id="-40622">
		<tag k="name" v="Durmålsvika" />
		<tag k="natural" v="bay" />
		<tag k="ssr:stedsnr" v="929658" />
	</node>
	<node lat="69.27561388916166" lon="17.922883325668973" id="-40639">
		<tag k="name" v="Klubben" />
		<tag k="natural" v="cape" />
		<tag k="ssr:stedsnr" v="868033" />
	</node>
	<node lat="69.42465555731775" lon="17.071333344046458" id="-40643">
		<tag k="name" v="Småseiskolten" />
		<tag k="natural" v="shoal" />
		<tag k="place" v="locality" />
		<tag k="ssr:stedsnr" v="868226" />
	</node>
	<node lat="69.0097861117598" lon="17.099486118180725" id="-40647">
		<tag k="name" v="Tevika" />
		<tag k="natural" v="bay" />
		<tag k="ssr:stedsnr" v="868424" />
	</node>
	<node lat="69.33749999786737" lon="18.00833331674801" id="-40652">
		<tag k="name" v="Eggøya" />
		<tag k="place" v="island" />
		<tag k="ssr:stedsnr" v="868711" />
	</node>
	<node lat="69.01982500277408" lon="17.18342501161206" id="-40659">
		<tag k="alt_name" v="Breidvikneset" />
		<tag k="name" v="Breivikneset" />
		<tag k="natural" v="cape" />
		<tag k="ssr:stedsnr" v="879318" />
	</node>
	<node lat="69.24104722132662" lon="17.949308333409732" id="-40660">
		<tag k="name" v="Silsandbukta" />
		<tag k="natural" v="bay" />
		<tag k="ssr:stedsnr" v="879327" />
	</node>
	<node lat="69.08514166497098" lon="17.214219441405884" id="-40661">
		<tag k="name" v="Eidevågen" />
		<tag k="natural" v="bay" />
		<tag k="ssr:stedsnr" v="879351" />
	</node>
	<node lat="69.27528333441501" lon="17.930519449609605" id="-40662">
		<tag k="name" v="Molvika" />
		<tag k="natural" v="bay" />
		<tag k="ssr:stedsnr" v="879765" />
	</node>
	<node lat="69.04795555936903" lon="17.03333889365331" id="-40663">
		<tag k="name" v="Stornesholmen" />
		<tag k="place" v="islet" />
		<tag k="ssr:stedsnr" v="879811" />
	</node>
	<node lat="69.26286666550358" lon="17.997466667784813" id="-40664">
		<tag k="name" v="Neset" />
		<tag k="natural" v="cape" />
		<tag k="ssr:stedsnr" v="879828" />
	</node>
	<node lat="69.57298611362778" lon="17.82731666782972" id="-40665">
		<tag k="name" v="Resselvika" />
		<tag k="natural" v="bay" />
		<tag k="ssr:stedsnr" v="935421" />
	</node>
	<node lat="69.26474721871395" lon="16.808549993945867" id="-40667">
		<tag k="name" v="Bolholmgrunnan" />
		<tag k="natural" v="shoal" />
		<tag k="place" v="locality" />
		<tag k="ssr:stedsnr" v="892212" />
	</node>
	<node lat="69.54107222436856" lon="17.307402768971357" id="-40668">
		<tag k="name" v="Kjeila" />
		<tag k="natural" v="bay" />
		<tag k="ssr:stedsnr" v="894963" />
	</node>
	<node lat="69.49067778220723" lon="17.175466657103442" id="-40669">
		<tag k="name" v="Nordvestre Leikampen" />
		<tag k="natural" v="shoal" />
		<tag k="place" v="locality" />
		<tag k="ssr:stedsnr" v="895789" />
	</node>
	<node lat="69.40572222488169" lon="17.98697777588902" id="-40674">
		<tag k="fixme" v="consider seamark:type=rock or natural=shoal" />
		<tag k="name" v="Hemmingskjæret" />
		<tag k="place" v="islet" />
		<tag k="ssr:stedsnr" v="897708" />
	</node>
	<node lat="69.31009722715153" lon="17.895580543237735" id="-40678">
		<tag k="name" v="Ivarholmen" />
		<tag k="place" v="islet" />
		<tag k="ssr:stedsnr" v="898107" />
	</node>
	<node lat="69.3102722240114" lon="18.0033305439237" id="-40679">
		<tag k="name" v="Stillebukta" />
		<tag k="natural" v="bay" />
		<tag k="ssr:stedsnr" v="898109" />
	</node>
	<node lat="69.3115083344216" lon="17.98772221977564" id="-40680">
		<tag k="name" v="Naustgrunnen" />
		<tag k="natural" v="shoal" />
		<tag k="place" v="locality" />
		<tag k="ssr:stedsnr" v="898110" />
	</node>
	<node lat="69.60026388676816" lon="17.623991670721438" id="-40681">
		<tag k="fixme" v="consider seamark:type=rock or natural=shoal" />
		<tag k="name" v="Fuglnessteinen" />
		<tag k="place" v="islet" />
		<tag k="ssr:stedsnr" v="898125" />
	</node>
	<node lat="69.48694166873389" lon="17.66064445482853" id="-40682">
		<tag k="name" v="Kvannhollneset" />
		<tag k="natural" v="cape" />
		<tag k="ssr:stedsnr" v="898218" />
	</node>
	<node lat="69.45889721846721" lon="17.82802777720201" id="-40683">
		<tag k="fixme" v="consider seamark:type=rock or natural=shoal" />
		<tag k="name" v="Kobbesteinen" />
		<tag k="place" v="islet" />
		<tag k="ssr:stedsnr" v="898321" />
	</node>
	<node lat="69.58101389243012" lon="17.843322233721615" id="-40689">
		<tag k="fixme" v="consider seamark:type=rock or natural=shoal" />
		<tag k="name" v="Bjørnskjæret" />
		<tag k="place" v="islet" />
		<tag k="ssr:stedsnr" v="898806" />
	</node>
	<node lat="69.35216389032325" lon="18.102261109594956" id="-40694">
		<tag k="name" v="Lyktholmen" />
		<tag k="place" v="islet" />
		<tag k="ssr:stedsnr" v="899657" />
	</node>
	<node lat="69.27495555936675" lon="17.1295027820914" id="-40700">
		<tag k="name" v="Finnesbukta" />
		<tag k="natural" v="bay" />
		<tag k="ssr:stedsnr" v="900510" />
	</node>
	<node lat="69.2626916629468" lon="17.046238883460028" id="-40701">
		<tag k="name" v="Blåskjellnesbukta" />
		<tag k="natural" v="bay" />
		<tag k="ssr:stedsnr" v="900516" />
	</node>
	<node lat="69.05411944249607" lon="16.872822214389245" id="-40703">
		<tag k="name" v="Jamnvika" />
		<tag k="natural" v="bay" />
		<tag k="ssr:stedsnr" v="900965" />
	</node>
	<node lat="69.44590000325066" lon="18.369863894173097" id="-40704">
		<tag k="name" v="Krestenkravika" />
		<tag k="natural" v="bay" />
		<tag k="ssr:stedsnr" v="900858" />
	</node>
	<node lat="69.15957777505322" lon="16.88862222637929" id="-40713">
		<tag k="name" v="Ingebrigtholla" />
		<tag k="natural" v="bay" />
		<tag k="ssr:stedsnr" v="901556" />
	</node>
	<node lat="69.33770278155102" lon="17.10976388037341" id="-40722">
		<tag k="name" v="Kverna" />
		<tag k="natural" v="bay" />
		<tag k="ssr:stedsnr" v="901769" />
	</node>
	<node lat="69.35218888832878" lon="17.162436102264945" id="-40725">
		<tag k="name" v="Revneset" />
		<tag k="natural" v="cape" />
		<tag k="ssr:stedsnr" v="901650" />
	</node>
	<node lat="69.35399444461122" lon="17.182658329078624" id="-40726">
		<tag k="name" v="Klubbeneset" />
		<tag k="natural" v="cape" />
		<tag k="ssr:stedsnr" v="901653" />
	</node>
	<node lat="69.05409167053331" lon="17.206697227708055" id="-40727">
		<tag k="name" v="Svartneset" />
		<tag k="natural" v="cape" />
		<tag k="ssr:stedsnr" v="901654" />
	</node>
	<node lat="69.1608444439265" lon="17.45903889362204" id="-40732">
		<tag k="fixme" v="consider seamark:type=rock or natural=shoal" />
		<tag k="name" v="Skarveskjæret" />
		<tag k="place" v="islet" />
		<tag k="ssr:stedsnr" v="901858" />
	</node>
	<node lat="69.53519722182244" lon="17.354136114934384" id="-40735">
		<tag k="name" v="Salamonkeila" />
		<tag k="natural" v="bay" />
		<tag k="ssr:stedsnr" v="902082" />
	</node>
	<node lat="69.50827222120539" lon="17.491283321653793" id="-40750">
		<tag k="fixme" v="consider seamark:type=rock or natural=shoal" />
		<tag k="name" v="Piggelsteinen" />
		<tag k="place" v="islet" />
		<tag k="ssr:stedsnr" v="904251" />
	</node>
	<node lat="69.05407500290552" lon="16.79380833510118" id="-40755">
		<tag k="alt_name" v="Dyrøyhamn" />
		<tag k="name" v="Dyrøyhamna" />
		<tag k="natural" v="bay" />
		<tag k="ssr:stedsnr" v="928062" />
	</node>
	<node lat="69.19986666786293" lon="17.963600006101462" id="-40759">
		<tag k="fixme" v="consider seamark:type=rock or natural=shoal" />
		<tag k="name" v="Holteskjæret" />
		<tag k="place" v="islet" />
		<tag k="ssr:stedsnr" v="928455" />
	</node>
	<node lat="69.39091944163077" lon="18.36157221751784" id="-40762">
		<tag k="bay" v="fjord" />
		<tag k="name" v="Rossfjorden" />
		<tag k="natural" v="bay" />
		<tag k="ssr:stedsnr" v="928651" />
	</node>
	<node lat="69.34180833096174" lon="17.13743611983954" id="-40765">
		<tag k="name" v="Skipsfjorden" />
		<tag k="natural" v="bay" />
		<tag k="ssr:stedsnr" v="929306" />
	</node>
	<node lat="69.34029444697363" lon="16.907452788790646" id="-40766">
		<tag k="name" v="Benningsgrunnen" />
		<tag k="natural" v="shoal" />
		<tag k="place" v="locality" />
		<tag k="ssr:stedsnr" v="929312" />
	</node>
	<node lat="69.48920277538471" lon="17.667177761713774" id="-40770">
		<tag k="bay" v="fjord" />
		<tag k="name" v="Ørnfjorden" />
		<tag k="natural" v="bay" />
		<tag k="ssr:stedsnr" v="929459" />
	</node>
	<node lat="69.52588611027323" lon="17.97849722912763" id="-40774">
		<tag k="name" v="Skallen" />
		<tag k="natural" v="shoal" />
		<tag k="place" v="locality" />
		<tag k="ssr:stedsnr" v="929810" />
	</node>
	<node lat="69.53233055576867" lon="17.619558325305533" id="-40778">
		<tag k="name" v="Vindhammarneset" />
		<tag k="natural" v="cape" />
		<tag k="ssr:stedsnr" v="929898" />
	</node>
	<node lat="69.22348055838654" lon="16.879869442338173" id="-40782">
		<tag k="name" v="Leikneset" />
		<tag k="natural" v="cape" />
		<tag k="ssr:stedsnr" v="936449" />
	</node>
	<node lat="69.34149999760858" lon="17.996399991854965" id="-40783">
		<tag k="name" v="Eggøysundet" />
		<tag k="natural" v="strait" />
		<tag k="ssr:stedsnr" v="939735" />
	</node>
	<node lat="69.25216388649737" lon="17.995608323103937" id="-40784">
		<tag k="fixme" v="consider seamark:type=rock or natural=shoal" />
		<tag k="name" v="Gammelstøskjæret" />
		<tag k="place" v="islet" />
		<tag k="ssr:stedsnr" v="939906" />
	</node>
	<node lat="69.38664166886328" lon="16.905875009479896" id="-40785">
		<tag k="name" v="Fiskenesbåen" />
		<tag k="natural" v="shoal" />
		<tag k="place" v="locality" />
		<tag k="ssr:stedsnr" v="952209" />
	</node>
	<node lat="69.18905555575382" lon="17.182180547859733" id="-40787">
		<tag k="name" v="Lutstranda" />
		<tag k="natural" v="beach" />
		<tag k="ssr:stedsnr" v="952197" />
	</node>
	<node lat="69.17831110742944" lon="17.103022209528334" id="-40788">
		<tag k="name" v="Alteret" />
		<tag k="natural" v="shoal" />
		<tag k="place" v="locality" />
		<tag k="ssr:stedsnr" v="952202" />
	</node>
	<node lat="69.2736583346292" lon="16.689572211309603" id="-40789">
		<tag k="name" v="Krona" />
		<tag k="natural" v="shoal" />
		<tag k="place" v="locality" />
		<tag k="ssr:stedsnr" v="953213" />
	</node>
	<node lat="69.41739444579426" lon="17.133680551701698" id="-40790">
		<tag k="name" v="Skarvbardflua" />
		<tag k="natural" v="shoal" />
		<tag k="place" v="locality" />
		<tag k="ssr:stedsnr" v="957847" />
	</node>
	<node lat="69.59255277997862" lon="17.51364167436826" id="-40791">
		<tag k="name" v="Muren" />
		<tag k="natural" v="bay" />
		<tag k="ssr:stedsnr" v="958016" />
	</node>
	<node lat="69.49732777380385" lon="17.908655544820245" id="-40797">
		<tag k="name" v="Nøkkelnesvika" />
		<tag k="natural" v="bay" />
		<tag k="ssr:stedsnr" v="958516" />
	</node>
	<node lat="69.56830278253433" lon="17.842349987941198" id="-40807">
		<tag k="fixme" v="consider seamark:type=rock or natural=shoal" />
		<tag k="name" v="Daumannen" />
		<tag k="place" v="islet" />
		<tag k="ssr:stedsnr" v="958839" />
	</node>
	<node lat="69.3144388870316" lon="17.876497218598796" id="-40810">
		<tag k="name" v="Bogelvneset" />
		<tag k="natural" v="cape" />
		<tag k="ssr:stedsnr" v="959110" />
	</node>
	<node lat="69.26229721902537" lon="16.787627781155635" id="-40821">
		<tag k="name" v="Karravikholmen" />
		<tag k="place" v="islet" />
		<tag k="ssr:stedsnr" v="961142" />
	</node>
	<node lat="69.26406111254244" lon="16.784063888570074" id="-40822">
		<tag k="name" v="Per-Jonsakeila" />
		<tag k="natural" v="bay" />
		<tag k="ssr:stedsnr" v="961144" />
	</node>
	<node lat="69.11242777870196" lon="17.284222210727723" id="-40830">
		<tag k="fixme" v="consider seamark:type=rock or natural=shoal" />
		<tag k="name" v="Storskjæret" />
		<tag k="place" v="islet" />
		<tag k="ssr:stedsnr" v="961487" />
	</node>
	<node lat="69.16149166590398" lon="17.49573610959978" id="-40833">
		<tag k="name" v="Veidnesstranda" />
		<tag k="natural" v="beach" />
		<tag k="ssr:stedsnr" v="961886" />
	</node>
	<node lat="69.41422221888423" lon="17.20715831802553" id="-40838">
		<tag k="name" v="Oldfunnvika" />
		<tag k="natural" v="bay" />
		<tag k="ssr:stedsnr" v="962086" />
	</node>
	<node lat="69.03816944679667" lon="17.057894440629155" id="-40843">
		<tag k="name" v="Hamneneset" />
		<tag k="natural" v="cape" />
		<tag k="ssr:stedsnr" v="962636" />
	</node>
	<node lat="69.02821110963194" lon="17.229072218331165" id="-40847">
		<tag k="name" v="Lekangsneset" />
		<tag k="natural" v="cape" />
		<tag k="ssr:stedsnr" v="962393" />
	</node>
	<node lat="69.03510278005824" lon="17.22979443686498" id="-40848">
		<tag k="name" v="Sør-Klemmesvika" />
		<tag k="natural" v="bay" />
		<tag k="ssr:stedsnr" v="962394" />
	</node>
	<node lat="69.15706388667326" lon="16.889766663818584" id="-40854">
		<tag k="fixme" v="consider seamark:type=rock or natural=shoal" />
		<tag k="name" v="Elleskjæret" />
		<tag k="place" v="islet" />
		<tag k="ssr:stedsnr" v="962534" />
	</node>
	<node lat="69.05681110920573" lon="17.06255278347259" id="-40862">
		<tag k="name" v="Krokatvika" />
		<tag k="natural" v="bay" />
		<tag k="ssr:stedsnr" v="962695" />
	</node>
	<node lat="69.36861430637406" lon="17.40099217334678" id="-40863">
		<tag k="name" v="Trettestranda" />
		<tag k="natural" v="beach" />
		<tag k="ssr:stedsnr" v="962902" />
	</node>
	<node lat="69.48006944667708" lon="17.6362722315586" id="-40873">
		<tag k="fixme" v="consider seamark:type=rock or natural=shoal" />
		<tag k="name" v="Skarvesteinen" />
		<tag k="place" v="islet" />
		<tag k="ssr:stedsnr" v="964311" />
	</node>
	<node lat="69.42739444150634" lon="17.427827775693967" id="-40874">
		<tag k="fixme" v="consider seamark:type=rock or natural=shoal" />
		<tag k="name" v="Hysesteinen" />
		<tag k="place" v="islet" />
		<tag k="ssr:stedsnr" v="965113" />
	</node>
	<node lat="69.09118610773439" lon="16.789699990271142" id="-40879">
		<tag k="name" v="Sjursvika" />
		<tag k="natural" v="bay" />
		<tag k="ssr:stedsnr" v="17020" />
	</node>
	<node lat="69.24438888740356" lon="17.057952778875336" id="-40881">
		<tag k="bay" v="fjord" />
		<tag k="loc_name:se" v="Siifierda;Siidavuotna" />
		<tag k="name" v="Sifjorden" />
		<tag k="name:no" v="Sifjorden" />
		<tag k="natural" v="bay" />
		<tag k="ssr:stedsnr" v="17192" />
	</node>
	<node lat="69.06378889321189" lon="16.806475003619017" id="-40882">
		<tag k="name" v="Fuglneset" />
		<tag k="natural" v="cape" />
		<tag k="ssr:stedsnr" v="17131" />
	</node>
	<node lat="69.25459166922849" lon="17.66543611055846" id="-40885">
		<tag k="name" v="Tømmerneset" />
		<tag k="natural" v="cape" />
		<tag k="ssr:stedsnr" v="18563" />
	</node>
	<node lat="69.10569722301295" lon="17.26856111766902" id="-40886">
		<tag k="fixme" v="multiple name tags, choose one and add the other to alt_name" />
		<tag k="name" v="Vassvikklubben;Vassvikneset" />
		<tag k="natural" v="cape" />
		<tag k="ssr:stedsnr" v="18051" />
	</node>
	<node lat="69.42368888855579" lon="17.997833340975156" id="-40888">
		<tag k="name" v="Laneset" />
		<tag k="natural" v="cape" />
		<tag k="ssr:stedsnr" v="18054" />
	</node>
	<node lat="69.08744722628278" lon="17.21539723175718" id="-40890">
		<tag k="name" v="Stokkeneset" />
		<tag k="natural" v="cape" />
		<tag k="ssr:stedsnr" v="18062" />
	</node>
	<node lat="69.04469444824474" lon="17.110819436938556" id="-40897">
		<tag k="name" v="Nordbotn" />
		<tag k="natural" v="bay" />
		<tag k="ssr:stedsnr" v="18123" />
	</node>
	<node lat="69.42683055451153" lon="16.838952766179496" id="-40902">
		<tag k="name" v="Kjerringfallet" />
		<tag k="natural" v="shoal" />
		<tag k="place" v="locality" />
		<tag k="ssr:stedsnr" v="18228" />
	</node>
	<node lat="69.43779999652834" lon="17.12342777048126" id="-40903">
		<tag k="fixme" v="consider seamark:type=rock or natural=shoal" />
		<tag k="name" v="Kjerringa" />
		<tag k="place" v="islet" />
		<tag k="ssr:stedsnr" v="18229" />
	</node>
	<node lat="69.42019722423495" lon="17.412738894892573" id="-40905">
		<tag k="alt_name" v="Jøvika, in" />
		<tag k="name" v="Indre Jøvika" />
		<tag k="natural" v="bay" />
		<tag k="ssr:stedsnr" v="18235" />
	</node>
	<node lat="69.42134722641354" lon="17.00685276954913" id="-40906">
		<tag k="name" v="Torsteinfallet" />
		<tag k="natural" v="shoal" />
		<tag k="place" v="locality" />
		<tag k="ssr:stedsnr" v="18237" />
	</node>
	<node lat="69.48430833487129" lon="17.184683322429063" id="-40911">
		<tag k="alt_name" v="Langskjeran;Langskjæran" />
		<tag k="fixme" v="consider seamark:type=rock or natural=shoal" />
		<tag k="name" v="Langskjæret" />
		<tag k="place" v="islet" />
		<tag k="ssr:stedsnr" v="18177" />
	</node>
	<node lat="69.26922777949194" lon="16.79469999674668" id="-40912">
		<tag k="name" v="Heimkeila" />
		<tag k="natural" v="bay" />
		<tag k="ssr:stedsnr" v="18179" />
	</node>
	<node lat="69.26378333051072" lon="16.77559722227257" id="-40913">
		<tag k="alt_name" v="Atterholman" />
		<tag k="name" v="Atterholmen" />
		<tag k="place" v="islet" />
		<tag k="ssr:stedsnr" v="18182" />
	</node>
	<node lat="69.38987778154458" lon="16.922305566626104" id="-40916">
		<tag k="name" v="Fiskeneset" />
		<tag k="natural" v="cape" />
		<tag k="ssr:stedsnr" v="18308" />
	</node>
	<node lat="69.47453055171393" lon="17.55494723106944" id="-40922">
		<tag k="name" v="Kvalvika" />
		<tag k="natural" v="bay" />
		<tag k="ssr:stedsnr" v="18455" />
	</node>
	<node lat="69.1731288973097" lon="17.92307775529554" id="-40927">
		<tag k="name" v="Nordneset" />
		<tag k="natural" v="cape" />
		<tag k="ssr:stedsnr" v="18429" />
	</node>
	<node lat="69.48946111279179" lon="17.61487499308575" id="-40929">
		<tag k="name" v="Kjellarvika" />
		<tag k="natural" v="bay" />
		<tag k="ssr:stedsnr" v="18441" />
	</node>
	<node lat="69.59040277824657" lon="17.828333328470293" id="-40936">
		<tag k="name" v="Langholmen" />
		<tag k="place" v="islet" />
		<tag k="ssr:stedsnr" v="18686" />
	</node>
	<node lat="69.58257777573012" lon="17.840205544613173" id="-40937">
		<tag k="name" v="Giskholmen" />
		<tag k="place" v="islet" />
		<tag k="ssr:stedsnr" v="18690" />
	</node>
	<node lat="69.43916943974862" lon="17.436141674813697" id="-40947">
		<tag k="alt_name" v="Bergsbotnen" />
		<tag k="name" v="Bergsbotn" />
		<tag k="natural" v="bay" />
		<tag k="ssr:stedsnr" v="19438" />
	</node>
	<node lat="69.60130833582261" lon="17.773430542812264" id="-40948">
		<tag k="alt_name" v="Kuungan;Store Kuungen" />
		<tag k="fixme" v="consider seamark:type=rock or natural=shoal" />
		<tag k="name" v="Kuvungan" />
		<tag k="place" v="islet" />
		<tag k="ssr:stedsnr" v="18752" />
	</node>
	<node lat="69.60100555496636" lon="17.71284721059942" id="-40949">
		<tag k="name" v="Husfallet" />
		<tag k="natural" v="shoal" />
		<tag k="place" v="locality" />
		<tag k="ssr:stedsnr" v="18753" />
	</node>
	<node lat="68.86620833635408" lon="16.90294998757963" id="-40950">
		<tag k="bay" v="fjord" />
		<tag k="loc_name:se" v="Váhkvierddas" />
		<tag k="name" v="Vågsfjorden" />
		<tag k="name:no" v="Vågsfjorden" />
		<tag k="natural" v="bay" />
		<tag k="ssr:stedsnr" v="18763" />
	</node>
	<node lat="69.52397221882178" lon="17.685075000943296" id="-40951">
		<tag k="name" v="Kobbsteinneset" />
		<tag k="natural" v="cape" />
		<tag k="ssr:stedsnr" v="18767" />
	</node>
	<node lat="69.51768055560967" lon="17.95023054580091" id="-40952">
		<tag k="name" v="Austvikneset" />
		<tag k="natural" v="cape" />
		<tag k="ssr:stedsnr" v="18771" />
	</node>
	<node lat="69.52458333574417" lon="17.968897225561303" id="-40953">
		<tag k="fixme" v="multiple name tags, choose one and add the other to alt_name" />
		<tag k="name" v="Storskjæret;Storskjær" />
		<tag k="natural" v="shoal" />
		<tag k="place" v="locality" />
		<tag k="ssr:stedsnr" v="18772" />
	</node>
	<node lat="69.63119722375458" lon="17.576552779892108" id="-40954">
		<tag k="name" v="Oksefallet" />
		<tag k="natural" v="shoal" />
		<tag k="place" v="locality" />
		<tag k="ssr:stedsnr" v="18739" />
	</node>
</osm>
