<?xml version="1.0" encoding="UTF-8"?>
<osm version="0.6" generator="osmapis">
	<node lat="69.23066944233103" lon="17.796838897020354" id="-36161">
		<tag k="name" v="Mandaholmen" />
		<tag k="place" v="islet" />
		<tag k="ssr:stedsnr" v="229618" />
	</node>
	<node lat="69.29802778191332" lon="17.81212498861974" id="-36163">
		<tag k="name" v="Johanelva" />
		<tag k="ssr:stedsnr" v="229672" />
		<tag k="waterway" v="stream" />
	</node>
	<node lat="69.24275277641091" lon="17.824924996787157" id="-36164">
		<tag k="name" v="Tverrelva" />
		<tag k="ssr:stedsnr" v="230604" />
		<tag k="waterway" v="stream" />
	</node>
	<node lat="69.47900278089766" lon="17.74026944641779" id="-36184">
		<tag k="name" v="Keipelva" />
		<tag k="ssr:stedsnr" v="230374" />
		<tag k="waterway" v="stream" />
	</node>
	<node lat="69.24883611080985" lon="17.920544445264817" id="-36196">
		<tag k="name" v="Kuneset" />
		<tag k="natural" v="cape" />
		<tag k="ssr:stedsnr" v="230972" />
	</node>
	<node lat="69.24868333138816" lon="18.163413885804747" id="-36201">
		<tag k="name" v="Elveosen" />
		<tag k="natural" v="bay" />
		<tag k="ssr:stedsnr" v="232545" />
	</node>
	<node lat="69.36091944579528" lon="18.247466670733864" id="-36205">
		<tag k="name" v="Rundvatnet" />
		<tag k="natural" v="water" />
		<tag k="ssr:stedsnr" v="232699" />
		<tag k="water" v="pond" />
	</node>
	<node lat="69.24949166479153" lon="18.243830556985642" id="-36206">
		<tag k="name" v="Pessfossvatnet" />
		<tag k="natural" v="water" />
		<tag k="ssr:stedsnr" v="232656" />
	</node>
	<node lat="69.30576944368401" lon="18.23085278102227" id="-36208">
		<tag k="name" v="Elveneset" />
		<tag k="natural" v="cape" />
		<tag k="ssr:stedsnr" v="232669" />
	</node>
	<node lat="69.45586111136014" lon="17.4880166602022" id="-36235">
		<tag k="name" v="Roaldsvatnet" />
		<tag k="natural" v="water" />
		<tag k="ssr:stedsnr" v="18409" />
		<tag k="water" v="lake" />
	</node>
	<node lat="69.2288722218037" lon="17.841336117247188" id="-36239">
		<tag k="name" v="Sjyvatnet" />
		<tag k="natural" v="water" />
		<tag k="ssr:stedsnr" v="18352" />
	</node>
	<node lat="69.25483332991438" lon="17.157816662404464" id="-36240">
		<tag k="name" v="Gjeskeelva" />
		<tag k="ssr:stedsnr" v="18355" />
		<tag k="waterway" v="river" />
	</node>
	<node lat="69.16547499940242" lon="17.64648331899186" id="-36245">
		<tag k="alt_name" v="Mølndalsvatnet" />
		<tag k="name" v="Mølnedalsvatnet" />
		<tag k="natural" v="water" />
		<tag k="ssr:stedsnr" v="18398" />
	</node>
	<node lat="69.34912222327847" lon="17.794844431000357" id="-36246">
		<tag k="name" v="Tverrelva" />
		<tag k="ssr:stedsnr" v="18501" />
		<tag k="waterway" v="stream" />
	</node>
	<node lat="69.37792777511198" lon="17.893358316961148" id="-36249">
		<tag k="name" v="Salsvatnan" />
		<tag k="natural" v="water" />
		<tag k="ssr:stedsnr" v="18508" />
		<tag k="water" v="lake" />
	</node>
	<node lat="69.53163333644618" lon="17.896830545489514" id="-36262">
		<tag k="name" v="Lomvatnet" />
		<tag k="natural" v="water" />
		<tag k="ssr:stedsnr" v="18783" />
	</node>
	<node lat="69.36465833217294" lon="17.340266665480108" id="-36274">
		<tag k="name" v="Spekelvvatnan" />
		<tag k="natural" v="water" />
		<tag k="ssr:stedsnr" v="19291" />
		<tag k="water" v="lake" />
	</node>
	<node lat="69.39574722538352" lon="18.046063892646593" id="-36283">
		<tag k="name" v="Grunnvågvatnet" />
		<tag k="natural" v="water" />
		<tag k="ssr:stedsnr" v="19698" />
		<tag k="water" v="lake" />
	</node>
	<node lat="69.20611667052628" lon="17.023808336106264" id="-36285">
		<tag k="name" v="Stilla" />
		<tag k="natural" v="water" />
		<tag k="ssr:stedsnr" v="233304" />
		<tag k="water" v="lake" />
	</node>
	<node lat="69.26640832952287" lon="17.130066663536365" id="-36291">
		<tag k="name" v="Krakelva" />
		<tag k="ssr:stedsnr" v="233519" />
		<tag k="waterway" v="stream" />
	</node>
	<node lat="69.17819444179406" lon="17.83199999393725" id="-36313">
		<tag k="name" v="Husvatnet" />
		<tag k="natural" v="water" />
		<tag k="ssr:stedsnr" v="233740" />
	</node>
	<node lat="69.3870388910468" lon="17.331397209377656" id="-36334">
		<tag k="name" v="Indre Rennarholla" />
		<tag k="natural" v="bay" />
		<tag k="ssr:stedsnr" v="234323" />
	</node>
	<node lat="69.41117500377992" lon="17.19687222799467" id="-36337">
		<tag k="name" v="Breivika" />
		<tag k="natural" v="bay" />
		<tag k="ssr:stedsnr" v="234241" />
	</node>
	<node lat="69.07642777676664" lon="17.046675002751048" id="-36338">
		<tag k="name" v="Limoelva" />
		<tag k="ssr:stedsnr" v="234267" />
		<tag k="waterway" v="stream" />
	</node>
	<node lat="69.17059721744216" lon="17.79045556063314" id="-36346">
		<tag k="name" v="Lomtjønna" />
		<tag k="natural" v="water" />
		<tag k="ssr:stedsnr" v="234463" />
	</node>
	<node lat="69.2537805558972" lon="17.532897231708898" id="-36361">
		<tag k="name" v="Storfossen" />
		<tag k="natural" v="waterfall" />
		<tag k="ssr:stedsnr" v="234639" />
	</node>
	<node lat="69.1928194454837" lon="17.714280561131805" id="-36369">
		<tag k="name" v="Kiholmen" />
		<tag k="place" v="islet" />
		<tag k="ssr:stedsnr" v="234668" />
	</node>
	<node lat="69.38633611032306" lon="17.457755563966273" id="-36381">
		<tag k="name" v="Tverrelva" />
		<tag k="ssr:stedsnr" v="235915" />
		<tag k="waterway" v="river" />
	</node>
	<node lat="69.48302499766406" lon="17.490219449192498" id="-36383">
		<tag k="name" v="Kjoselva" />
		<tag k="ssr:stedsnr" v="236068" />
		<tag k="waterway" v="stream" />
	</node>
	<node lat="69.47108333029436" lon="17.748380552638306" id="-36404">
		<tag k="name" v="Vasshalsen" />
		<tag k="place" v="locality" />
		<tag k="ssr:stedsnr" v="48320" />
	</node>
	<node lat="69.48391388513062" lon="17.79883331989342" id="-36407">
		<tag k="name" v="Tuvevatnet" />
		<tag k="natural" v="water" />
		<tag k="ssr:stedsnr" v="48330" />
	</node>
	<node lat="69.40640555335396" lon="17.83415278339888" id="-36410">
		<tag k="name" v="Mølnelva" />
		<tag k="ssr:stedsnr" v="48207" />
		<tag k="waterway" v="stream" />
	</node>
	<node lat="69.3900833311762" lon="17.82290832883229" id="-36411">
		<tag k="name" v="Djupbukta" />
		<tag k="natural" v="bay" />
		<tag k="ssr:stedsnr" v="48209" />
	</node>
	<node lat="69.28898332981267" lon="17.772211108367564" id="-36418">
		<tag k="name" v="Løvåsneset" />
		<tag k="natural" v="cape" />
		<tag k="ssr:stedsnr" v="48615" />
	</node>
	<node lat="69.22099722556636" lon="18.10761667580849" id="-36429">
		<tag k="name" v="Beltet" />
		<tag k="natural" v="strait" />
		<tag k="ssr:stedsnr" v="50480" />
	</node>
	<node lat="69.31190833333302" lon="18.295561112876086" id="-36436">
		<tag k="name" v="Fosshølla" />
		<tag k="natural" v="water" />
		<tag k="ssr:stedsnr" v="50674" />
		<tag k="water" v="lake" />
	</node>
	<node lat="69.27992777500845" lon="17.5196833201706" id="-36452">
		<tag k="name" v="Steinhølla" />
		<tag k="place" v="locality" />
		<tag k="ssr:stedsnr" v="51919" />
	</node>
	<node lat="69.00938333624556" lon="17.095866658982576" id="-36461">
		<tag k="name" v="Vassåkjeften" />
		<tag k="natural" v="bay" />
		<tag k="ssr:stedsnr" v="52523" />
	</node>
	<node lat="69.08691666515645" lon="17.021636114205684" id="-36462">
		<tag k="name" v="Hellarneset" />
		<tag k="natural" v="cape" />
		<tag k="ssr:stedsnr" v="52584" />
	</node>
	<node lat="69.24773332979431" lon="17.641750006528504" id="-36479">
		<tag k="name" v="Hundeneset" />
		<tag k="natural" v="cape" />
		<tag k="ssr:stedsnr" v="53679" />
	</node>
	<node lat="69.4952222260601" lon="17.471136104039758" id="-36482">
		<tag k="name" v="Mildridelva" />
		<tag k="ssr:stedsnr" v="54068" />
		<tag k="waterway" v="stream" />
	</node>
	<node lat="69.20643333628361" lon="17.19090555175624" id="-36499">
		<tag k="name" v="Nordelva" />
		<tag k="ssr:stedsnr" v="78151" />
		<tag k="waterway" v="stream" />
	</node>
	<node lat="69.16418333677807" lon="17.202994452781994" id="-36502">
		<tag k="name" v="Lutvatnet" />
		<tag k="natural" v="water" />
		<tag k="ssr:stedsnr" v="78255" />
		<tag k="water" v="lake" />
	</node>
	<node lat="69.06743055121576" lon="16.879655555896512" id="-36504">
		<tag k="name" v="Marvatnet" />
		<tag k="natural" v="water" />
		<tag k="ssr:stedsnr" v="79004" />
	</node>
	<node lat="69.382688888469" lon="17.260238879881435" id="-36511">
		<tag k="name" v="Sørelva" />
		<tag k="ssr:stedsnr" v="79353" />
		<tag k="waterway" v="river" />
	</node>
	<node lat="69.48393055745885" lon="17.993836112115616" id="-36514">
		<tag k="name" v="Langvatnet" />
		<tag k="natural" v="water" />
		<tag k="ssr:stedsnr" v="79449" />
	</node>
	<node lat="69.48125833218373" lon="17.81701667208392" id="-36515">
		<tag k="alt_name" v="Henrikdalselva" />
		<tag k="name" v="Henrikdalelva" />
		<tag k="ssr:stedsnr" v="79452" />
		<tag k="waterway" v="stream" />
	</node>
	<node lat="69.2364388925145" lon="17.453555563459584" id="-36518">
		<tag k="alt_name" v="Kaperfoss" />
		<tag k="name" v="Kaperfossen" />
		<tag k="natural" v="waterfall" />
		<tag k="ssr:stedsnr" v="79394" />
	</node>
	<node lat="69.29089999926524" lon="18.37735555213984" id="-36526">
		<tag k="name" v="Mellaelva" />
		<tag k="ssr:stedsnr" v="79790" />
		<tag k="waterway" v="stream" />
	</node>
	<node lat="69.31135555906185" lon="17.161377785797765" id="-36530">
		<tag k="name" v="Osterelva" />
		<tag k="ssr:stedsnr" v="81394" />
		<tag k="waterway" v="river" />
	</node>
	<node lat="69.42077777983822" lon="17.883313881713015" id="-36544">
		<tag k="name" v="Sandneset" />
		<tag k="natural" v="cape" />
		<tag k="ssr:stedsnr" v="108388" />
	</node>
	<node lat="69.55886944123696" lon="17.572324993696498" id="-36555">
		<tag k="name" v="Øyfjordvatnet" />
		<tag k="natural" v="water" />
		<tag k="ssr:stedsnr" v="109178" />
		<tag k="water" v="lake" />
	</node>
	<node lat="69.50875000177669" lon="17.762905541545965" id="-36568">
		<tag k="name" v="Vasskråvatnet" />
		<tag k="natural" v="water" />
		<tag k="ssr:stedsnr" v="109725" />
	</node>
	<node lat="69.22995555973829" lon="18.205666663444337" id="-36572">
		<tag k="name" v="Dypdalselva" />
		<tag k="ssr:stedsnr" v="110708" />
		<tag k="waterway" v="stream" />
	</node>
	<node lat="69.24562499967381" lon="18.166294442040442" id="-36573">
		<tag k="name" v="Høgsteneset" />
		<tag k="natural" v="cape" />
		<tag k="ssr:stedsnr" v="110626" />
	</node>
	<node lat="69.3450083317281" lon="18.28112222223329" id="-36574">
		<tag k="name" v="Linbergodden" />
		<tag k="natural" v="cape" />
		<tag k="ssr:stedsnr" v="110869" />
	</node>
	<node lat="69.22425000019702" lon="18.15360832292415" id="-36575">
		<tag k="name" v="Enforneset" />
		<tag k="natural" v="cape" />
		<tag k="ssr:stedsnr" v="111522" />
	</node>
	<node lat="69.2143666648877" lon="17.498997212965353" id="-36598">
		<tag k="name" v="Storhølla" />
		<tag k="place" v="locality" />
		<tag k="ssr:stedsnr" v="112914" />
	</node>
	<node lat="69.2649083321306" lon="17.493472226525466" id="-36606">
		<tag k="name" v="Nedre Stumpevatn" />
		<tag k="natural" v="water" />
		<tag k="ssr:stedsnr" v="112968" />
	</node>
	<node lat="69.01878888626881" lon="17.09113055253375" id="-36614">
		<tag k="name" v="Klokhollelva" />
		<tag k="ssr:stedsnr" v="113505" />
		<tag k="waterway" v="stream" />
	</node>
	<node lat="69.26605833228959" lon="17.66938887552345" id="-36624">
		<tag k="name" v="Tverrelva" />
		<tag k="ssr:stedsnr" v="113589" />
		<tag k="waterway" v="stream" />
	</node>
	<node lat="69.25477222225511" lon="17.584733340238063" id="-36627">
		<tag k="name" v="Krokelva" />
		<tag k="ssr:stedsnr" v="113611" />
		<tag k="waterway" v="stream" />
	</node>
	<node lat="69.24986944656926" lon="17.635455549580254" id="-36629">
		<tag k="name" v="Kjosneset" />
		<tag k="natural" v="cape" />
		<tag k="ssr:stedsnr" v="113628" />
	</node>
	<node lat="69.25477777904426" lon="17.6206583432019" id="-36630">
		<tag k="name" v="Vestre Sandbukt" />
		<tag k="natural" v="bay" />
		<tag k="ssr:stedsnr" v="113630" />
	</node>
	<node lat="69.52421111223666" lon="17.436261099132313" id="-36644">
		<tag k="name" v="Sælebota" />
		<tag k="natural" v="spring" />
		<tag k="ssr:stedsnr" v="115175" />
	</node>
	<node lat="69.4714277793916" lon="17.532866675711965" id="-36652">
		<tag k="name" v="Kvalvikelva" />
		<tag k="ssr:stedsnr" v="139038" />
		<tag k="waterway" v="stream" />
	</node>
	<node lat="69.14774722119562" lon="17.316983322825347" id="-36663">
		<tag k="name" v="Skreddarelvvatnet" />
		<tag k="natural" v="water" />
		<tag k="ssr:stedsnr" v="139244" />
	</node>
	<node lat="69.34969166931133" lon="17.838761116697587" id="-36671">
		<tag k="name" v="Nilselva" />
		<tag k="ssr:stedsnr" v="139554" />
		<tag k="waterway" v="river" />
	</node>
	<node lat="69.17567222331496" lon="17.678933331106897" id="-36676">
		<tag k="name" v="Bergvatnet" />
		<tag k="natural" v="water" />
		<tag k="ssr:stedsnr" v="139489" />
	</node>
	<node lat="69.37315277579025" lon="18.19658053958452" id="-36692">
		<tag k="name" v="Kompusvatnet" />
		<tag k="natural" v="water" />
		<tag k="ssr:stedsnr" v="140736" />
	</node>
	<node lat="69.07353888897467" lon="16.868208330900128" id="-36707">
		<tag k="name" v="Stillevatnet" />
		<tag k="natural" v="water" />
		<tag k="ssr:stedsnr" v="260085" />
	</node>
	<node lat="69.07418055924707" lon="16.80613055541148" id="-36709">
		<tag k="name" v="Olfinnvikelva" />
		<tag k="ssr:stedsnr" v="260133" />
		<tag k="waterway" v="stream" />
	</node>
	<node lat="69.12749444683502" lon="17.09163889267363" id="-36715">
		<tag k="alt_name" v="Holmevatnet" />
		<tag k="name" v="Holmenvatnet" />
		<tag k="natural" v="water" />
		<tag k="ssr:stedsnr" v="260241" />
	</node>
	<node lat="69.12486944142542" lon="17.266124985712988" id="-36716">
		<tag k="name" v="Vassvikvatnet" />
		<tag k="natural" v="water" />
		<tag k="ssr:stedsnr" v="260249" />
	</node>
	<node lat="69.1951583370926" lon="17.055938880541902" id="-36719">
		<tag k="fixme" v="multiple name tags, choose one and add the other to alt_name" />
		<tag k="name" v="Flakkstadbekken;Storelva" />
		<tag k="ssr:stedsnr" v="260193" />
		<tag k="waterway" v="river" />
	</node>
	<node lat="69.14333888621782" lon="17.315258322418458" id="-36723">
		<tag k="name" v="Skreddarelva" />
		<tag k="ssr:stedsnr" v="260298" />
		<tag k="waterway" v="stream" />
	</node>
	<node lat="69.21698055420414" lon="18.104227772314584" id="-36743">
		<tag k="name" v="Abborvatnet - Vuskkonjávri" />
		<tag k="name:no" v="Abborvatnet" />
		<tag k="name:se" v="Vuskkonjávri" />
		<tag k="natural" v="water" />
		<tag k="old_name:se" v="Vuskunjavri" />
		<tag k="ssr:stedsnr" v="260721" />
		<tag k="water" v="lake" />
	</node>
	<node lat="69.43669166248962" lon="18.041380551707192" id="-36752">
		<tag k="name" v="Moelva" />
		<tag k="ssr:stedsnr" v="169617" />
		<tag k="waterway" v="stream" />
	</node>
	<node lat="69.2430749972195" lon="17.867436101111167" id="-36756">
		<tag k="name" v="Gammelbroelva" />
		<tag k="ssr:stedsnr" v="169957" />
		<tag k="waterway" v="stream" />
	</node>
	<node lat="69.20785277473941" lon="17.799744441063833" id="-36757">
		<tag k="name" v="Mølnebekken" />
		<tag k="ssr:stedsnr" v="169962" />
		<tag k="waterway" v="stream" />
	</node>
	<node lat="69.268905552318" lon="18.162238873134463" id="-36768">
		<tag k="name" v="Tverrelva" />
		<tag k="ssr:stedsnr" v="261038" />
		<tag k="waterway" v="stream" />
	</node>
	<node lat="69.22249721964126" lon="18.220024990530472" id="-36772">
		<tag k="name" v="Iverkroken" />
		<tag k="natural" v="cape" />
		<tag k="ssr:stedsnr" v="171715" />
	</node>
	<node lat="69.38903333810094" lon="18.340861099684655" id="-36775">
		<tag k="name" v="Sommarsetelva" />
		<tag k="ssr:stedsnr" v="171918" />
		<tag k="waterway" v="stream" />
	</node>
	<node lat="69.09137499754294" lon="16.95601111798016" id="-36785">
		<tag k="name" v="Hartvikneset" />
		<tag k="natural" v="cape" />
		<tag k="ssr:stedsnr" v="172602" />
	</node>
	<node lat="69.36269444515185" lon="17.104236107771538" id="-36788">
		<tag k="name" v="Skarpråna" />
		<tag k="ssr:stedsnr" v="172706" />
		<tag k="waterway" v="stream" />
	</node>
	<node lat="69.34249444368575" lon="17.114725002071527" id="-36791">
		<tag k="name" v="Storelva" />
		<tag k="ssr:stedsnr" v="172662" />
		<tag k="waterway" v="stream" />
	</node>
	<node lat="69.34189999717299" lon="17.094300007063143" id="-36792">
		<tag k="name" v="Kjerkelva" />
		<tag k="ssr:stedsnr" v="172664" />
		<tag k="waterway" v="stream" />
	</node>
	<node lat="69.16942222050807" lon="17.71641110402495" id="-36794">
		<tag k="name" v="Jonslettelva" />
		<tag k="ssr:stedsnr" v="172764" />
		<tag k="waterway" v="stream" />
	</node>
	<node lat="69.1093444459646" lon="16.808644437345453" id="-36796">
		<tag k="name" v="Melkeråelva" />
		<tag k="ssr:stedsnr" v="172916" />
		<tag k="waterway" v="stream" />
	</node>
	<node lat="69.1034583351367" lon="17.094569439446904" id="-36801">
		<tag k="name" v="Trollvasselva" />
		<tag k="ssr:stedsnr" v="173276" />
		<tag k="waterway" v="stream" />
	</node>
	<node lat="69.04782777426824" lon="17.150333329556585" id="-36807">
		<tag k="name" v="Motjønna" />
		<tag k="natural" v="water" />
		<tag k="ssr:stedsnr" v="173606" />
	</node>
	<node lat="69.40559444157725" lon="17.190172222478935" id="-36823">
		<tag k="name" v="Otervatnet" />
		<tag k="natural" v="water" />
		<tag k="ssr:stedsnr" v="174272" />
		<tag k="water" v="lake" />
	</node>
	<node lat="69.31758055618242" lon="17.455058320746875" id="-36824">
		<tag k="name" v="Skeihollelva" />
		<tag k="ssr:stedsnr" v="174273" />
		<tag k="waterway" v="river" />
	</node>
	<node lat="69.24922500414984" lon="17.67321667097314" id="-36835">
		<tag k="name" v="Eideneset" />
		<tag k="natural" v="cape" />
		<tag k="ssr:stedsnr" v="174707" />
	</node>
	<node lat="69.39210277392655" lon="17.30633333711899" id="-36841">
		<tag k="name" v="Grashopvatnet" />
		<tag k="natural" v="water" />
		<tag k="ssr:stedsnr" v="261366" />
	</node>
	<node lat="69.32811389284623" lon="17.389047214540483" id="-36846">
		<tag k="name" v="Daudmannsvatnet" />
		<tag k="natural" v="water" />
		<tag k="ssr:stedsnr" v="261418" />
		<tag k="water" v="lake" />
	</node>
	<node lat="69.23980277870253" lon="17.547333342372763" id="-36851">
		<tag k="alt_name" v="Fisketjørna" />
		<tag k="name" v="Fisketjønna" />
		<tag k="natural" v="water" />
		<tag k="ssr:stedsnr" v="261434" />
	</node>
	<node lat="69.23933055867178" lon="17.912100009907252" id="-36853">
		<tag k="name" v="Litjevatnet" />
		<tag k="natural" v="water" />
		<tag k="ssr:stedsnr" v="261440" />
	</node>
	<node lat="69.39958333623883" lon="17.66534722539168" id="-36855">
		<tag k="name" v="Martamostevatnet" />
		<tag k="natural" v="water" />
		<tag k="ssr:stedsnr" v="261516" />
	</node>
	<node lat="69.39499721820559" lon="17.490052779362102" id="-36856">
		<tag k="name" v="Krokelvvatnet" />
		<tag k="natural" v="water" />
		<tag k="ssr:stedsnr" v="261525" />
	</node>
	<node lat="69.44213611098844" lon="17.601383341138604" id="-36857">
		<tag k="name" v="Storneset" />
		<tag k="natural" v="cape" />
		<tag k="ssr:stedsnr" v="176211" />
	</node>
	<node lat="69.51720833139949" lon="17.415811113281453" id="-36861">
		<tag k="name" v="Litje Skålbrekkvatnet" />
		<tag k="natural" v="water" />
		<tag k="ssr:stedsnr" v="176165" />
	</node>
	<node lat="69.43212499743196" lon="17.725841671490095" id="-36864">
		<tag k="alt_name" v="Tuvevatnet, øvre" />
		<tag k="name" v="Øvre Tuvevatnet" />
		<tag k="natural" v="water" />
		<tag k="ssr:stedsnr" v="261476" />
	</node>
	<node lat="69.20128610738581" lon="17.628963878553336" id="-36865">
		<tag k="alt_name" v="Litlevatnet" />
		<tag k="name" v="Litjevatnet" />
		<tag k="natural" v="water" />
		<tag k="ssr:stedsnr" v="261481" />
		<tag k="water" v="lake" />
	</node>
	<node lat="69.18931388912442" lon="17.792677774517788" id="-36866">
		<tag k="name" v="Vintervatnet" />
		<tag k="natural" v="water" />
		<tag k="ssr:stedsnr" v="261485" />
		<tag k="water" v="lake" />
	</node>
	<node lat="69.18520277861818" lon="17.616911104471047" id="-36869">
		<tag k="name" v="Mølnekromvatnet" />
		<tag k="natural" v="water" />
		<tag k="ssr:stedsnr" v="261494" />
	</node>
	<node lat="69.38028055383242" lon="17.731788889747648" id="-36873">
		<tag k="alt_name" v="Skeivatnet, øvre" />
		<tag k="name" v="Øvre Skeivatnet" />
		<tag k="natural" v="water" />
		<tag k="ssr:stedsnr" v="261561" />
	</node>
	<node lat="69.36736666554427" lon="17.690716654688092" id="-36874">
		<tag k="name" v="Iselva" />
		<tag k="ssr:stedsnr" v="261563" />
		<tag k="waterway" v="stream" />
	</node>
	<node lat="69.38432222432131" lon="17.944852772624476" id="-36881">
		<tag k="name" v="Svartfjellvatnet" />
		<tag k="natural" v="water" />
		<tag k="ssr:stedsnr" v="261531" />
	</node>
	<node lat="69.31342778248288" lon="18.18573332160847" id="-36891">
		<tag k="fixme" v="multiple name tags, choose one and add the other to alt_name" />
		<tag k="name" v="Øvrevatnet;Øvre Sollivatn" />
		<tag k="natural" v="water" />
		<tag k="ssr:stedsnr" v="261772" />
	</node>
	<node lat="69.30777499634631" lon="18.48892778201302" id="-36893">
		<tag k="name" v="Leirelva" />
		<tag k="ssr:stedsnr" v="261785" />
		<tag k="waterway" v="stream" />
	</node>
	<node lat="69.36246111551854" lon="18.158794430410627" id="-36896">
		<tag k="alt_name" v="Tovatna" />
		<tag k="name" v="Tovatnan" />
		<tag k="natural" v="water" />
		<tag k="ssr:stedsnr" v="261707" />
		<tag k="water" v="lake" />
	</node>
	<node lat="69.18064444189949" lon="17.89483332107375" id="-36932">
		<tag k="fixme" v="multiple name tags, choose one and add the other to alt_name" />
		<tag k="name" v="Fiskevatnet;Litjevatnet" />
		<tag k="natural" v="water" />
		<tag k="ssr:stedsnr" v="200463" />
	</node>
	<node lat="69.38477222127409" lon="17.012363875916453" id="-36935">
		<tag k="name" v="Storvatnet" />
		<tag k="natural" v="water" />
		<tag k="ssr:stedsnr" v="200364" />
	</node>
	<node lat="69.17874444820588" lon="17.855058336186694" id="-36937">
		<tag k="name" v="Solbergvatnet" />
		<tag k="natural" v="water" />
		<tag k="ssr:stedsnr" v="200501" />
	</node>
	<node lat="69.29287221981177" lon="17.206663892947105" id="-36952">
		<tag k="name" v="Botnelva" />
		<tag k="ssr:stedsnr" v="201364" />
		<tag k="waterway" v="river" />
	</node>
	<node lat="69.20281389174957" lon="17.738811104521083" id="-36972">
		<tag k="name" v="Sørkjosen" />
		<tag k="natural" v="bay" />
		<tag k="ssr:stedsnr" v="229537" />
	</node>
	<node lat="69.25895555730955" lon="17.72958610218292" id="-36973">
		<tag k="name" v="Hestevatnet" />
		<tag k="natural" v="water" />
		<tag k="ssr:stedsnr" v="229737" />
	</node>
	<node lat="69.25626111187755" lon="17.72383888353483" id="-36974">
		<tag k="name" v="Litjevatnet" />
		<tag k="natural" v="water" />
		<tag k="ssr:stedsnr" v="229739" />
	</node>
	<node lat="69.35385555774847" lon="17.87535278445908" id="-36975">
		<tag k="name" v="Litjevassholmen" />
		<tag k="place" v="islet" />
		<tag k="ssr:stedsnr" v="229488" />
	</node>
	<node lat="69.45972499990157" lon="17.963583335991228" id="-36980">
		<tag k="name" v="Lomvatnet" />
		<tag k="natural" v="water" />
		<tag k="ssr:stedsnr" v="230302" />
	</node>
	<node lat="69.40741666343763" lon="18.05331109697236" id="-36998">
		<tag k="name" v="Finnjordelva" />
		<tag k="ssr:stedsnr" v="230830" />
		<tag k="waterway" v="stream" />
	</node>
	<node lat="69.32655277978826" lon="18.371711103870275" id="-37006">
		<tag k="name" v="Holmelaelva" />
		<tag k="ssr:stedsnr" v="232807" />
		<tag k="waterway" v="stream" />
	</node>
	<node lat="69.32623610899758" lon="18.485233318611023" id="-37007">
		<tag k="name" v="Sandneselva" />
		<tag k="ssr:stedsnr" v="232811" />
		<tag k="waterway" v="stream" />
	</node>
	<node lat="69.36469444547983" lon="18.325844445009803" id="-37013">
		<tag k="name" v="Gårdselva" />
		<tag k="ssr:stedsnr" v="232936" />
		<tag k="waterway" v="stream" />
	</node>
	<node lat="69.41201944686401" lon="18.32919722269444" id="-37016">
		<tag k="name" v="Litjeelva" />
		<tag k="ssr:stedsnr" v="232989" />
		<tag k="waterway" v="stream" />
	</node>
	<node lat="69.09748333067915" lon="16.93399166924699" id="-37034">
		<tag k="name" v="Sløkjebekkan" />
		<tag k="ssr:stedsnr" v="233621" />
		<tag k="waterway" v="stream" />
	</node>
	<node lat="69.08592221856824" lon="16.78790276943315" id="-37040">
		<tag k="name" v="Oterneselva" />
		<tag k="ssr:stedsnr" v="233910" />
		<tag k="waterway" v="stream" />
	</node>
	<node lat="69.3564722199764" lon="17.23148332914535" id="-37045">
		<tag k="name" v="Bingen" />
		<tag k="natural" v="water" />
		<tag k="ssr:stedsnr" v="234030" />
	</node>
	<node lat="69.36934166328645" lon="17.351500008209086" id="-37050">
		<tag k="name" v="Spekelvvatnet" />
		<tag k="natural" v="water" />
		<tag k="ssr:stedsnr" v="234315" />
		<tag k="water" v="lake" />
	</node>
	<node lat="69.19686667025125" lon="17.636788893710694" id="-37058">
		<tag k="name" v="Stillen" />
		<tag k="natural" v="water" />
		<tag k="ssr:stedsnr" v="234585" />
		<tag k="water" v="lake" />
	</node>
	<node lat="69.29416944396733" lon="17.05239443991595" id="-37060">
		<tag k="name" v="Dalelva" />
		<tag k="ssr:stedsnr" v="234599" />
		<tag k="waterway" v="stream" />
	</node>
	<node lat="69.25124166407127" lon="17.59028611979524" id="-37065">
		<tag k="name" v="Litjeneset" />
		<tag k="natural" v="cape" />
		<tag k="ssr:stedsnr" v="234632" />
	</node>
	<node lat="69.32959861130814" lon="17.462001975761716" id="-37072">
		<tag k="name" v="Andersvatnet" />
		<tag k="natural" v="water" />
		<tag k="ssr:stedsnr" v="234990" />
		<tag k="water" v="lake" />
	</node>
	<node lat="69.32343611352763" lon="17.470458339433453" id="-37074">
		<tag k="name" v="Elveosen" />
		<tag k="natural" v="bay" />
		<tag k="ssr:stedsnr" v="234880" />
	</node>
	<node lat="69.15935277641506" lon="17.242563890644792" id="-37105">
		<tag k="name" v="Langvatnet" />
		<tag k="natural" v="water" />
		<tag k="ssr:stedsnr" v="261097" />
		<tag k="water" v="lake" />
	</node>
	<node lat="69.49243055252403" lon="17.76635555359305" id="-37108">
		<tag k="name" v="Keipvatnet" />
		<tag k="natural" v="water" />
		<tag k="ssr:stedsnr" v="261404" />
		<tag k="water" v="lake" />
	</node>
	<node lat="69.28845833777794" lon="17.11036387955059" id="-37118">
		<tag k="name" v="Rødbergvatnet" />
		<tag k="natural" v="water" />
		<tag k="ssr:stedsnr" v="261399" />
	</node>
	<node lat="69.20255833383594" lon="17.83482221162838" id="-37120">
		<tag k="alt_name" v="Forravatnet" />
		<tag k="name" v="Forevatnet" />
		<tag k="natural" v="water" />
		<tag k="ssr:stedsnr" v="261507" />
	</node>
	<node lat="69.44313611481536" lon="17.884974991006676" id="-37121">
		<tag k="name" v="Geitelva" />
		<tag k="ssr:stedsnr" v="261452" />
		<tag k="waterway" v="stream" />
	</node>
	<node lat="69.3634499956412" lon="18.253274999048827" id="-37126">
		<tag k="name" v="Rundvatnet" />
		<tag k="natural" v="water" />
		<tag k="ssr:stedsnr" v="261699" />
	</node>
	<node lat="69.24447777804926" lon="17.307944433245925" id="-37132">
		<tag k="name" v="Kapervatnet" />
		<tag k="natural" v="water" />
		<tag k="ssr:stedsnr" v="264595" />
		<tag k="water" v="lake" />
	</node>
	<node lat="69.34274999841388" lon="17.867263891082214" id="-37149">
		<tag k="name" v="Reinelva" />
		<tag k="ssr:stedsnr" v="290532" />
		<tag k="waterway" v="stream" />
	</node>
	<node lat="69.25563888774948" lon="17.718511113225585" id="-37150">
		<tag k="name" v="Tverrelva" />
		<tag k="ssr:stedsnr" v="290684" />
		<tag k="waterway" v="stream" />
	</node>
	<node lat="69.25378611116892" lon="18.157252784309033" id="-37170">
		<tag k="name" v="Gammeljordelva" />
		<tag k="ssr:stedsnr" v="292605" />
		<tag k="waterway" v="stream" />
	</node>
	<node lat="69.22604722126398" lon="18.2193416733647" id="-37173">
		<tag k="name" v="Haugenelva" />
		<tag k="ssr:stedsnr" v="292682" />
		<tag k="waterway" v="stream" />
	</node>
	<node lat="69.30495833279176" lon="18.39245276392793" id="-37182">
		<tag k="name" v="Storelva" />
		<tag k="ssr:stedsnr" v="293929" />
		<tag k="waterway" v="river" />
	</node>
	<node lat="69.09363333666901" lon="17.060391668957443" id="-37186">
		<tag k="name" v="Steinbrua" />
		<tag k="place" v="locality" />
		<tag k="ssr:stedsnr" v="294303" />
	</node>
	<node lat="69.12235277865183" lon="17.06878333336824" id="-37187">
		<tag k="name" v="Skjellelva" />
		<tag k="ssr:stedsnr" v="294304" />
		<tag k="waterway" v="stream" />
	</node>
	<node lat="69.12946389338683" lon="17.03533609948353" id="-37192">
		<tag k="name" v="Tjøvatnan" />
		<tag k="natural" v="water" />
		<tag k="ssr:stedsnr" v="294528" />
		<tag k="water" v="lake" />
	</node>
	<node lat="69.38643611319942" lon="17.11251112059833" id="-37209">
		<tag k="name" v="Gunnartjønna" />
		<tag k="natural" v="water" />
		<tag k="ssr:stedsnr" v="294725" />
	</node>
	<node lat="69.18479444808116" lon="17.67244999283685" id="-37217">
		<tag k="name" v="Storhøllen" />
		<tag k="place" v="locality" />
		<tag k="ssr:stedsnr" v="294990" />
	</node>
	<node lat="69.24974722402106" lon="17.628150006937073" id="-37229">
		<tag k="name" v="Litjesundet" />
		<tag k="natural" v="strait" />
		<tag k="ssr:stedsnr" v="295672" />
	</node>
	<node lat="69.49000833460502" lon="17.47319722998404" id="-37234">
		<tag k="name" v="Buktelva" />
		<tag k="ssr:stedsnr" v="297104" />
		<tag k="waterway" v="stream" />
	</node>
	<node lat="69.01131944264974" lon="17.097302787356195" id="-37246">
		<tag k="name" v="Vassåa" />
		<tag k="ssr:stedsnr" v="320094" />
		<tag k="waterway" v="stream" />
	</node>
	<node lat="69.23435277496311" lon="17.74457498604679" id="-37250">
		<tag k="name" v="Lakselva - Luossajohka" />
		<tag k="name:no" v="Lakselva" />
		<tag k="name:se" v="Luossajohka" />
		<tag k="ssr:stedsnr" v="321090" />
		<tag k="waterway" v="river" />
	</node>
	<node lat="69.12842499670612" lon="17.25589722111613" id="-37254">
		<tag k="name" v="Vasskogelva" />
		<tag k="ssr:stedsnr" v="321188" />
		<tag k="waterway" v="stream" />
	</node>
	<node lat="69.11317777699091" lon="17.04367776454567" id="-37259">
		<tag k="fixme" v="multiple name tags, choose one and add the other to alt_name" />
		<tag k="name" v="Rødsandvatnet;Olaheimvatnet" />
		<tag k="natural" v="water" />
		<tag k="ssr:stedsnr" v="321199" />
		<tag k="water" v="lake" />
	</node>
	<node lat="69.24710555430423" lon="18.25132500614316" id="-37262">
		<tag k="name" v="Holmevatnet" />
		<tag k="natural" v="water" />
		<tag k="ssr:stedsnr" v="321623" />
	</node>
	<node lat="69.37437777744272" lon="17.73072777682806" id="-37263">
		<tag k="alt_name" v="Skeivatnet, nedre" />
		<tag k="name" v="Nedre Skeivatnet" />
		<tag k="natural" v="water" />
		<tag k="ssr:stedsnr" v="321519" />
	</node>
	<node lat="69.15785833716092" lon="17.64519723309483" id="-37267">
		<tag k="fixme" v="multiple name tags, choose one and add the other to alt_name" />
		<tag k="name" v="Heimvatnet;Østre heimvatn" />
		<tag k="natural" v="water" />
		<tag k="ssr:stedsnr" v="322283" />
	</node>
	<node lat="69.37162222111142" lon="17.35758889305557" id="-37268">
		<tag k="name" v="Spekelva" />
		<tag k="ssr:stedsnr" v="322285" />
		<tag k="waterway" v="river" />
	</node>
	<node lat="69.35331389101125" lon="17.895399985930293" id="-37277">
		<tag k="name" v="Tømmervatnet" />
		<tag k="natural" v="water" />
		<tag k="ssr:stedsnr" v="322534" />
	</node>
	<node lat="69.31630555347222" lon="17.723875004871914" id="-37279">
		<tag k="name" v="Tjuvvatnet - Suollatjávri" />
		<tag k="name:no" v="Tjuvvatnet" />
		<tag k="name:se" v="Suollatjávri" />
		<tag k="natural" v="water" />
		<tag k="old_name:se" v="Suollatjavri" />
		<tag k="ssr:stedsnr" v="322588" />
	</node>
	<node lat="69.29903610906197" lon="18.041227784033723" id="-37282">
		<tag k="name" v="Djupelva" />
		<tag k="ssr:stedsnr" v="322802" />
		<tag k="waterway" v="stream" />
	</node>
	<node lat="69.28192777784703" lon="18.35451389662702" id="-37284">
		<tag k="alt_name" v="Fjellvatnet, store" />
		<tag k="name" v="Store fjellvatn" />
		<tag k="natural" v="water" />
		<tag k="ssr:stedsnr" v="322809" />
	</node>
	<node lat="69.30515555555172" lon="18.210577765569102" id="-37285">
		<tag k="name" v="Kvernelva" />
		<tag k="ssr:stedsnr" v="322779" />
		<tag k="waterway" v="stream" />
	</node>
	<node lat="69.38147221901748" lon="17.84666388125415" id="-37299">
		<tag k="name" v="Lomvatnet" />
		<tag k="natural" v="water" />
		<tag k="ssr:stedsnr" v="472227" />
	</node>
	<node lat="69.43855833106831" lon="17.83645000739893" id="-37304">
		<tag k="alt_name" v="Bukkedalselva" />
		<tag k="name" v="Bukkeelva" />
		<tag k="ssr:stedsnr" v="472187" />
		<tag k="waterway" v="river" />
	</node>
	<node lat="69.4242249959917" lon="17.90073054870372" id="-37309">
		<tag k="name" v="Labukta" />
		<tag k="natural" v="bay" />
		<tag k="ssr:stedsnr" v="472375" />
	</node>
	<node lat="69.42537500301236" lon="17.905925008895526" id="-37310">
		<tag k="name" v="Leirneset" />
		<tag k="natural" v="cape" />
		<tag k="ssr:stedsnr" v="472377" />
	</node>
	<node lat="69.20605832935863" lon="17.691877769161298" id="-37311">
		<tag k="name" v="Brattlielva" />
		<tag k="ssr:stedsnr" v="472524" />
		<tag k="waterway" v="stream" />
	</node>
	<node lat="69.22982222039714" lon="17.79144998866446" id="-37317">
		<tag k="name" v="Stenghølla" />
		<tag k="natural" v="water" />
		<tag k="ssr:stedsnr" v="472595" />
		<tag k="water" v="lake" />
	</node>
	<node lat="69.36905833528766" lon="17.850447220176193" id="-37328">
		<tag k="name" v="Storelva" />
		<tag k="ssr:stedsnr" v="472989" />
		<tag k="waterway" v="stream" />
	</node>
	<node lat="69.50959167028057" lon="17.621227786666704" id="-37336">
		<tag k="name" v="Storelva" />
		<tag k="ssr:stedsnr" v="473226" />
		<tag k="waterway" v="stream" />
	</node>
	<node lat="69.23026944326678" lon="17.98545554290581" id="-37343">
		<tag k="name" v="Finnsnesvatnet" />
		<tag k="natural" v="water" />
		<tag k="ssr:stedsnr" v="473386" />
	</node>
	<node lat="69.54049444550459" lon="17.755044449421035" id="-37361">
		<tag k="name" v="Småelven" />
		<tag k="ssr:stedsnr" v="473845" />
		<tag k="waterway" v="stream" />
	</node>
	<node lat="69.54411110851369" lon="17.804036118902932" id="-37363">
		<tag k="name" v="Gamvikelva" />
		<tag k="ssr:stedsnr" v="473994" />
		<tag k="waterway" v="stream" />
	</node>
	<node lat="69.51027778024033" lon="17.67948056281034" id="-37365">
		<tag k="name" v="Kaldurelva" />
		<tag k="ssr:stedsnr" v="351171" />
		<tag k="waterway" v="stream" />
	</node>
	<node lat="69.30471944375677" lon="17.82200554190355" id="-37367">
		<tag k="name" v="Småvatnan" />
		<tag k="natural" v="water" />
		<tag k="ssr:stedsnr" v="351306" />
		<tag k="water" v="lake" />
	</node>
	<node lat="69.29682777922979" lon="17.801569452701326" id="-37371">
		<tag k="name" v="Lasseelva" />
		<tag k="ssr:stedsnr" v="351652" />
		<tag k="waterway" v="stream" />
	</node>
	<node lat="69.23610000266281" lon="17.72232500522586" id="-37376">
		<tag k="name" v="Trollvassrompa" />
		<tag k="natural" v="cape" />
		<tag k="ssr:stedsnr" v="351568" />
	</node>
	<node lat="69.21732777793589" lon="17.713930559808816" id="-37377">
		<tag k="name" v="Rundvatnet" />
		<tag k="natural" v="water" />
		<tag k="ssr:stedsnr" v="351570" />
	</node>
	<node lat="69.19860278182989" lon="17.767861106863478" id="-37383">
		<tag k="name" v="Slåttlangevatnet" />
		<tag k="natural" v="water" />
		<tag k="ssr:stedsnr" v="351963" />
	</node>
	<node lat="69.2053472237907" lon="17.887363879098416" id="-37385">
		<tag k="name" v="Dalelva" />
		<tag k="ssr:stedsnr" v="352365" />
		<tag k="waterway" v="stream" />
	</node>
	<node lat="69.55296944602486" lon="17.807819439934644" id="-37391">
		<tag k="name" v="Kvalvikelva" />
		<tag k="ssr:stedsnr" v="352823" />
		<tag k="waterway" v="stream" />
	</node>
	<node lat="69.21698888702997" lon="18.07913333907595" id="-37400">
		<tag k="name" v="Finnfjordelva" />
		<tag k="ssr:stedsnr" v="474457" />
		<tag k="waterway" v="stream" />
	</node>
	<node lat="69.31125555404509" lon="18.24688053858286" id="-37402">
		<tag k="name" v="Langnesodden" />
		<tag k="natural" v="cape" />
		<tag k="ssr:stedsnr" v="353715" />
	</node>
	<node lat="69.35778333609113" lon="18.482908317212782" id="-37410">
		<tag k="name" v="Mellemvikelva" />
		<tag k="ssr:stedsnr" v="353820" />
		<tag k="waterway" v="stream" />
	</node>
	<node lat="69.37539444426548" lon="18.456669432937733" id="-37413">
		<tag k="name" v="Jordelva" />
		<tag k="ssr:stedsnr" v="353858" />
		<tag k="waterway" v="stream" />
	</node>
	<node lat="69.20629722173443" lon="18.09125555768388" id="-37415">
		<tag k="name" v="Langtjønna" />
		<tag k="natural" v="water" />
		<tag k="ssr:stedsnr" v="474568" />
	</node>
	<node lat="69.22210555472041" lon="18.125041674543947" id="-37418">
		<tag k="name" v="Middagstjønna" />
		<tag k="natural" v="water" />
		<tag k="ssr:stedsnr" v="474545" />
	</node>
	<node lat="69.24498889310689" lon="18.168072225419916" id="-37421">
		<tag k="name" v="Innerneset" />
		<tag k="natural" v="cape" />
		<tag k="ssr:stedsnr" v="474618" />
	</node>
	<node lat="69.17633610639417" lon="17.39200556102879" id="-37423">
		<tag k="name" v="Storfossen" />
		<tag k="natural" v="waterfall" />
		<tag k="ssr:stedsnr" v="354453" />
	</node>
	<node lat="69.18757499758598" lon="17.840741660233924" id="-37428">
		<tag k="name" v="Fiskevatnet" />
		<tag k="natural" v="water" />
		<tag k="ssr:stedsnr" v="354720" />
	</node>
	<node lat="69.22114999997964" lon="17.47344166287699" id="-37432">
		<tag k="name" v="Andre elva" />
		<tag k="ssr:stedsnr" v="354891" />
		<tag k="waterway" v="stream" />
	</node>
	<node lat="69.26909444681907" lon="18.183219448777702" id="-37439">
		<tag k="name" v="Amundelva" />
		<tag k="ssr:stedsnr" v="474699" />
		<tag k="waterway" v="stream" />
	</node>
	<node lat="69.31265277526401" lon="18.277191658384773" id="-37443">
		<tag k="name" v="Eineneset" />
		<tag k="natural" v="cape" />
		<tag k="ssr:stedsnr" v="474743" />
	</node>
	<node lat="69.29739166969105" lon="18.287430559255082" id="-37444">
		<tag k="name" v="Storelva" />
		<tag k="ssr:stedsnr" v="474747" />
		<tag k="waterway" v="stream" />
	</node>
	<node lat="69.283577781903" lon="17.166075003673566" id="-37445">
		<tag k="name" v="Lomtjønna" />
		<tag k="natural" v="water" />
		<tag k="ssr:stedsnr" v="355551" />
	</node>
	<node lat="69.3240451322714" lon="18.254448350885117" id="-37452">
		<tag k="name" v="Farkevika" />
		<tag k="natural" v="bay" />
		<tag k="ssr:stedsnr" v="474895" />
	</node>
	<node lat="69.23108610742844" lon="17.58429443430709" id="-37453">
		<tag k="name" v="Steikpannelva" />
		<tag k="ssr:stedsnr" v="355500" />
		<tag k="waterway" v="stream" />
	</node>
	<node lat="69.46893608892947" lon="17.234526075846112" id="-37460">
		<tag k="name" v="Verslet" />
		<tag k="ssr:stedsnr" v="356402" />
		<tag k="waterway" v="stream" />
	</node>
	<node lat="69.2502750002793" lon="17.535222208419622" id="-37462">
		<tag k="name" v="Litjefossen" />
		<tag k="natural" v="waterfall" />
		<tag k="ssr:stedsnr" v="356648" />
	</node>
	<node lat="69.50029722566778" lon="17.47649999783714" id="-37476">
		<tag k="name" v="Kvannhollelva" />
		<tag k="ssr:stedsnr" v="358219" />
		<tag k="waterway" v="stream" />
	</node>
	<node lat="69.38200555388936" lon="17.2004055483193" id="-37534">
		<tag k="name" v="Tjønna" />
		<tag k="natural" v="water" />
		<tag k="ssr:stedsnr" v="476701" />
	</node>
	<node lat="69.06420278101437" lon="17.11430278814353" id="-37535">
		<tag k="name" v="Vasselva" />
		<tag k="ssr:stedsnr" v="476706" />
		<tag k="waterway" v="stream" />
	</node>
	<node lat="69.17679444085043" lon="17.825483330690997" id="-37536">
		<tag k="name" v="Pilevatnet" />
		<tag k="natural" v="water" />
		<tag k="ssr:stedsnr" v="476707" />
	</node>
	<node lat="69.03416388552132" lon="17.058847208126853" id="-37538">
		<tag k="name" v="Torvedamelva" />
		<tag k="ssr:stedsnr" v="476647" />
		<tag k="waterway" v="stream" />
	</node>
	<node lat="69.38095000061527" lon="17.154180559979192" id="-37543">
		<tag k="name" v="Ballesvikvatnet" />
		<tag k="natural" v="water" />
		<tag k="ssr:stedsnr" v="476709" />
		<tag k="water" v="lake" />
	</node>
	<node lat="69.20516666522973" lon="17.68172223011426" id="-37576">
		<tag k="name" v="Skjellelva" />
		<tag k="ssr:stedsnr" v="477625" />
		<tag k="waterway" v="stream" />
	</node>
	<node lat="69.18790833341632" lon="17.712080547885126" id="-37584">
		<tag k="name" v="Storholmen" />
		<tag k="place" v="islet" />
		<tag k="ssr:stedsnr" v="477696" />
	</node>
	<node lat="69.36576944681418" lon="17.377902767951895" id="-37589">
		<tag k="name" v="Brattbakkelva" />
		<tag k="ssr:stedsnr" v="477895" />
		<tag k="waterway" v="stream" />
	</node>
	<node lat="69.31841111055095" lon="17.45548611225649" id="-37590">
		<tag k="name" v="Skeiholla" />
		<tag k="place" v="locality" />
		<tag k="ssr:stedsnr" v="478232" />
	</node>
	<node lat="69.51173611556793" lon="17.433186100552515" id="-37596">
		<tag k="name" v="Stille" />
		<tag k="natural" v="water" />
		<tag k="ssr:stedsnr" v="479226" />
		<tag k="water" v="lake" />
	</node>
	<node lat="69.46664722373845" lon="17.681783330659915" id="-37601">
		<tag k="name" v="Sandelva" />
		<tag k="ssr:stedsnr" v="479253" />
		<tag k="waterway" v="stream" />
	</node>
	<node lat="69.10013611548668" lon="17.152780556778566" id="-37603">
		<tag k="name" v="Mølnevatnet" />
		<tag k="natural" v="water" />
		<tag k="ssr:stedsnr" v="381063" />
	</node>
	<node lat="69.13595833530889" lon="17.301486105611268" id="-37608">
		<tag k="name" v="Storelva" />
		<tag k="ssr:stedsnr" v="382105" />
		<tag k="waterway" v="river" />
	</node>
	<node lat="69.3803833335232" lon="17.2695027872511" id="-37622">
		<tag k="name" v="Spåmannelva" />
		<tag k="ssr:stedsnr" v="382355" />
		<tag k="waterway" v="river" />
	</node>
	<node lat="69.38749999872273" lon="17.658991653183698" id="-37626">
		<tag k="alt_name" v="Isvatnan, øvre" />
		<tag k="name" v="Øvre Isvatnan" />
		<tag k="natural" v="water" />
		<tag k="ssr:stedsnr" v="382509" />
		<tag k="water" v="lake" />
	</node>
	<node lat="69.41545555486869" lon="17.786797213805464" id="-37627">
		<tag k="name" v="Hestevatnet" />
		<tag k="natural" v="water" />
		<tag k="ssr:stedsnr" v="382516" />
	</node>
	<node lat="69.23716110730489" lon="17.71042222378961" id="-37630">
		<tag k="name" v="Trollbuvatnet - Ruollajávri" />
		<tag k="name:no" v="Trollbuvatnet" />
		<tag k="name:se" v="Ruollajávri" />
		<tag k="natural" v="water" />
		<tag k="ssr:stedsnr" v="382410" />
		<tag k="water" v="lake" />
	</node>
	<node lat="69.23129444873834" lon="17.763191664783548" id="-37631">
		<tag k="alt_name:no" v="Hellevatnet" />
		<tag k="name" v="Hellemovatnet - Heallojávri" />
		<tag k="name:no" v="Hellemovatnet" />
		<tag k="name:se" v="Heallojávri" />
		<tag k="natural" v="water" />
		<tag k="ssr:stedsnr" v="382412" />
	</node>
	<node lat="69.2297944426385" lon="17.784116672083954" id="-37632">
		<tag k="name" v="Mevatnet" />
		<tag k="natural" v="water" />
		<tag k="ssr:stedsnr" v="382413" />
		<tag k="water" v="lake" />
	</node>
	<node lat="69.2248305508663" lon="17.67203611483533" id="-37634">
		<tag k="name" v="Djupelva" />
		<tag k="ssr:stedsnr" v="382417" />
		<tag k="waterway" v="stream" />
	</node>
	<node lat="69.43238333007365" lon="17.67111943998803" id="-37636">
		<tag k="name" v="Salingsvatnan" />
		<tag k="natural" v="water" />
		<tag k="ssr:stedsnr" v="382455" />
		<tag k="water" v="lake" />
	</node>
	<node lat="69.43846666684018" lon="17.73638887719049" id="-37638">
		<tag k="name" v="Stordalsvatnet" />
		<tag k="natural" v="water" />
		<tag k="ssr:stedsnr" v="382462" />
	</node>
	<node lat="69.3364837683114" lon="17.43064940044217" id="-37661">
		<tag k="alt_name:no" v="Svanvatnan, store;Store Svanvatnan" />
		<tag k="name" v="Ytre Svanvatnet - Njukčajávri" />
		<tag k="name:no" v="Ytre Svanvatnet" />
		<tag k="name:se" v="Njukčajávri" />
		<tag k="natural" v="water" />
		<tag k="ssr:stedsnr" v="393890" />
		<tag k="water" v="lake" />
	</node>
	<node lat="69.38542500189409" lon="17.824413877801433" id="-37670">
		<tag k="name" v="Revneset" />
		<tag k="natural" v="cape" />
		<tag k="ssr:stedsnr" v="412209" />
	</node>
	<node lat="69.46941666263676" lon="17.724561105861273" id="-37676">
		<tag k="name" v="Sørkråelva" />
		<tag k="ssr:stedsnr" v="412320" />
		<tag k="waterway" v="stream" />
	</node>
	<node lat="69.47074166429293" lon="17.994149987294573" id="-37677">
		<tag k="name" v="Skarsvågelva" />
		<tag k="ssr:stedsnr" v="412294" />
		<tag k="waterway" v="river" />
	</node>
	<node lat="69.4019083318579" lon="18.039938877555375" id="-37685">
		<tag k="name" v="Gårdselva" />
		<tag k="ssr:stedsnr" v="412842" />
		<tag k="waterway" v="stream" />
	</node>
	<node lat="69.35450555400793" lon="18.01201944934603" id="-37688">
		<tag k="name" v="Nordre Landøyelva" />
		<tag k="ssr:stedsnr" v="412942" />
		<tag k="waterway" v="stream" />
	</node>
	<node lat="69.32995277991681" lon="18.29823332419737" id="-37691">
		<tag k="name" v="Nordavindselva" />
		<tag k="ssr:stedsnr" v="413889" />
		<tag k="waterway" v="stream" />
	</node>
	<node lat="69.24320000109495" lon="18.142241669766847" id="-37697">
		<tag k="name" v="Porkelvsanden" />
		<tag k="natural" v="beach" />
		<tag k="ssr:stedsnr" v="414611" />
	</node>
	<node lat="69.31191944176271" lon="18.242836097193422" id="-37699">
		<tag k="name" v="Langnesbukta" />
		<tag k="natural" v="bay" />
		<tag k="ssr:stedsnr" v="414690" />
	</node>
	<node lat="69.39983611125331" lon="18.29020833826561" id="-37703">
		<tag k="name" v="Banvatnet" />
		<tag k="natural" v="water" />
		<tag k="ssr:stedsnr" v="414909" />
		<tag k="water" v="pond" />
	</node>
	<node lat="69.45390277324323" lon="18.204913895053004" id="-37706">
		<tag k="name" v="Hågvatnet" />
		<tag k="natural" v="water" />
		<tag k="ssr:stedsnr" v="414888" />
	</node>
	<node lat="69.2053388858909" lon="16.99416665692032" id="-37714">
		<tag k="name" v="Småvatnan" />
		<tag k="natural" v="water" />
		<tag k="ssr:stedsnr" v="415287" />
		<tag k="water" v="lake" />
	</node>
	<node lat="69.1847333347605" lon="17.658891656341126" id="-37734">
		<tag k="name" v="Rundholla" />
		<tag k="natural" v="water" />
		<tag k="ssr:stedsnr" v="415987" />
	</node>
	<node lat="69.16830000278485" lon="17.82952777278375" id="-37737">
		<tag k="name" v="Trollbuvatnet" />
		<tag k="natural" v="water" />
		<tag k="ssr:stedsnr" v="416422" />
	</node>
	<node lat="69.48790832853412" lon="17.244572230457003" id="-37747">
		<tag k="name" v="Trollvasselva" />
		<tag k="ssr:stedsnr" v="416536" />
		<tag k="waterway" v="stream" />
	</node>
	<node lat="69.34569722006249" lon="17.850872208328525" id="-37758">
		<tag k="name" v="Godmatmoelva" />
		<tag k="ssr:stedsnr" v="416858" />
		<tag k="waterway" v="stream" />
	</node>
	<node lat="69.32463055350155" lon="17.48053610591898" id="-37760">
		<tag k="name" v="Langneselva" />
		<tag k="ssr:stedsnr" v="417250" />
		<tag k="waterway" v="river" />
	</node>
	<node lat="69.19220555817975" lon="17.70138055795082" id="-37763">
		<tag k="name" v="Stormyrholmen" />
		<tag k="place" v="islet" />
		<tag k="ssr:stedsnr" v="417715" />
	</node>
	<node lat="69.01448332982952" lon="17.078455549462166" id="-37766">
		<tag k="name" v="Stangnesvatnet" />
		<tag k="natural" v="water" />
		<tag k="ssr:stedsnr" v="442109" />
	</node>
	<node lat="69.12888055615493" lon="17.08696666159057" id="-37771">
		<tag k="alt_name" v="Mellomvatnet" />
		<tag k="name" v="Mellavatnet" />
		<tag k="natural" v="water" />
		<tag k="ssr:stedsnr" v="442236" />
	</node>
	<node lat="69.20495555204818" lon="17.877566650509525" id="-37781">
		<tag k="name" v="Krokelva" />
		<tag k="ssr:stedsnr" v="443403" />
		<tag k="waterway" v="stream" />
	</node>
	<node lat="69.44306253250542" lon="17.353073964959524" id="-37783">
		<tag k="alt_name" v="Skjelelva" />
		<tag k="name" v="Skjellelva" />
		<tag k="ssr:stedsnr" v="443304" />
		<tag k="waterway" v="stream" />
	</node>
	<node lat="69.37715000197909" lon="17.292938879580344" id="-37786">
		<tag k="name" v="Kvanntovatnan" />
		<tag k="natural" v="water" />
		<tag k="ssr:stedsnr" v="443383" />
	</node>
	<node lat="69.21331666634462" lon="17.498244448435095" id="-37788">
		<tag k="alt_name" v="Vardnesbekken" />
		<tag k="name" v="Vardneselva" />
		<tag k="ssr:stedsnr" v="443391" />
		<tag k="waterway" v="stream" />
	</node>
	<node lat="69.18068888711016" lon="17.750138886856035" id="-37796">
		<tag k="alt_name" v="Litlevatnet" />
		<tag k="name" v="Litjevatnet" />
		<tag k="natural" v="water" />
		<tag k="ssr:stedsnr" v="443487" />
	</node>
	<node lat="69.46260555133196" lon="17.67560556025791" id="-37799">
		<tag k="alt_name" v="Kolbeinelva" />
		<tag k="name" v="Kolbeinselva" />
		<tag k="ssr:stedsnr" v="443492" />
		<tag k="waterway" v="stream" />
	</node>
	<node lat="69.30370833493348" lon="17.719297207904685" id="-37818">
		<tag k="name" v="Skáidi" />
		<tag k="name:se" v="Skáidi" />
		<tag k="natural" v="cape" />
		<tag k="ssr:stedsnr" v="472623" />
	</node>
	<node lat="69.33517778014117" lon="17.920341662022526" id="-37826">
		<tag k="name" v="Finnjordslettelva" />
		<tag k="ssr:stedsnr" v="472915" />
		<tag k="waterway" v="stream" />
	</node>
	<node lat="69.48743888851693" lon="17.98901944163316" id="-37830">
		<tag k="name" v="Fiskevatnet" />
		<tag k="natural" v="water" />
		<tag k="ssr:stedsnr" v="473360" />
	</node>
	<node lat="69.40450277681511" lon="18.33540832420791" id="-37842">
		<tag k="name" v="Storelva" />
		<tag k="ssr:stedsnr" v="474917" />
		<tag k="waterway" v="stream" />
	</node>
	<node lat="69.27417222358689" lon="17.080794432175143" id="-37849">
		<tag k="name" v="Botnvatnan" />
		<tag k="natural" v="water" />
		<tag k="ssr:stedsnr" v="475474" />
		<tag k="water" v="lake" />
	</node>
	<node lat="69.09903888894188" lon="16.954208337417867" id="-37858">
		<tag k="name" v="Finnelvskjæran" />
		<tag k="place" v="islet" />
		<tag k="ssr:stedsnr" v="476567" />
	</node>
	<node lat="69.20042777415237" lon="17.665480546989627" id="-37872">
		<tag k="name" v="Moelva" />
		<tag k="ssr:stedsnr" v="477620" />
		<tag k="waterway" v="stream" />
	</node>
	<node lat="69.44301944335308" lon="17.32925833628922" id="-37875">
		<tag k="name" v="Tortenbakkelva" />
		<tag k="ssr:stedsnr" v="477817" />
		<tag k="waterway" v="river" />
	</node>
	<node lat="69.48058611292373" lon="17.489927774915035" id="-37877">
		<tag k="name" v="Kjosfossen" />
		<tag k="natural" v="waterfall" />
		<tag k="ssr:stedsnr" v="478060" />
	</node>
	<node lat="69.44187222369003" lon="17.61358611227458" id="-37880">
		<tag k="name" v="Kartneset" />
		<tag k="natural" v="cape" />
		<tag k="ssr:stedsnr" v="479211" />
	</node>
	<node lat="69.07435556013571" lon="17.167844440116195" id="-37887">
		<tag k="name" v="Eidevatnet" />
		<tag k="natural" v="water" />
		<tag k="ssr:stedsnr" v="503010" />
	</node>
	<node lat="69.36253889146072" lon="17.76983888964901" id="-37889">
		<tag k="name" v="Heggelva - Ávčajohka" />
		<tag k="name:no" v="Heggelva" />
		<tag k="name:se" v="Ávčajohka" />
		<tag k="old_name:se" v="Avčajåkka" />
		<tag k="ssr:stedsnr" v="503528" />
		<tag k="waterway" v="river" />
	</node>
	<node lat="69.24313333586274" lon="17.597138890609653" id="-37892">
		<tag k="alt_name" v="Trolltjørna" />
		<tag k="name" v="Trolltjønna" />
		<tag k="natural" v="water" />
		<tag k="ssr:stedsnr" v="503418" />
	</node>
	<node lat="69.40012500221206" lon="17.933455560075256" id="-37893">
		<tag k="name" v="Skjellelva" />
		<tag k="ssr:stedsnr" v="503473" />
		<tag k="waterway" v="river" />
	</node>
	<node lat="69.25957499838485" lon="18.186327764885256" id="-37896">
		<tag k="name" v="Lakselva" />
		<tag k="ssr:stedsnr" v="504021" />
		<tag k="waterway" v="river" />
	</node>
	<node lat="69.2874194432998" lon="17.499433327803533" id="-37901">
		<tag k="name" v="Steindalselva" />
		<tag k="ssr:stedsnr" v="504619" />
		<tag k="waterway" v="stream" />
	</node>
	<node lat="69.29363333336552" lon="17.68407776632849" id="-37905">
		<tag k="fixme" v="multiple name tags, choose one and add the other to alt_name" />
		<tag k="name" v="Storvatnet;Storvardhaugvatnet" />
		<tag k="natural" v="water" />
		<tag k="ssr:stedsnr" v="504578" />
	</node>
	<node lat="69.34817500406648" lon="17.43608332824307" id="-37915">
		<tag k="name" v="Hundborelva - Beatnatborjohka" />
		<tag k="name:no" v="Hundborelva" />
		<tag k="name:se" v="Beatnatborjohka" />
		<tag k="ssr:stedsnr" v="516868" />
		<tag k="waterway" v="river" />
	</node>
	<node lat="69.09078611127212" lon="17.148449988510077" id="-37918">
		<tag k="name" v="Mølnelva" />
		<tag k="ssr:stedsnr" v="685045" />
		<tag k="waterway" v="stream" />
	</node>
	<node lat="69.09618889327552" lon="17.089441657672193" id="-37919">
		<tag k="name" v="Trollvatnet" />
		<tag k="natural" v="water" />
		<tag k="ssr:stedsnr" v="685046" />
	</node>
	<node lat="69.08113611417446" lon="16.82810834282569" id="-37921">
		<tag k="name" v="Storvatnet" />
		<tag k="natural" v="water" />
		<tag k="ssr:stedsnr" v="685061" />
	</node>
	<node lat="69.25681111488885" lon="17.393327768259088" id="-37929">
		<tag k="name" v="Kapervatnet - Gahperjávri" />
		<tag k="name:no" v="Kapervatnet" />
		<tag k="name:se" v="Gahperjávri" />
		<tag k="natural" v="water" />
		<tag k="ssr:stedsnr" v="685169" />
		<tag k="water" v="lake" />
	</node>
	<node lat="69.2003388849638" lon="17.916877769280575" id="-37936">
		<tag k="name" v="Hallelva" />
		<tag k="ssr:stedsnr" v="685472" />
		<tag k="waterway" v="stream" />
	</node>
	<node lat="69.39800000020838" lon="17.703238896477703" id="-37938">
		<tag k="name" v="Mikkelvatnan" />
		<tag k="natural" v="water" />
		<tag k="ssr:stedsnr" v="685483" />
	</node>
	<node lat="69.37264722229061" lon="18.377602773176868" id="-37946">
		<tag k="name" v="Storelva" />
		<tag k="ssr:stedsnr" v="686034" />
		<tag k="waterway" v="river" />
	</node>
	<node lat="69.50499444457407" lon="17.63199720887961" id="-37963">
		<tag k="name" v="Arnakkelva" />
		<tag k="ssr:stedsnr" v="533216" />
		<tag k="waterway" v="stream" />
	</node>
	<node lat="69.21752500097631" lon="17.835233336908303" id="-37968">
		<tag k="name" v="Odden" />
		<tag k="natural" v="cape" />
		<tag k="ssr:stedsnr" v="533618" />
	</node>
	<node lat="69.37591944199522" lon="17.887741669886907" id="-37984">
		<tag k="name" v="Øvre Salsvatn" />
		<tag k="natural" v="water" />
		<tag k="ssr:stedsnr" v="533902" />
	</node>
	<node lat="69.231866666514" lon="17.782116652100477" id="-37986">
		<tag k="name" v="Hellefossen" />
		<tag k="natural" v="waterfall" />
		<tag k="ssr:stedsnr" v="686416" />
	</node>
	<node lat="69.2317999996558" lon="17.662497231096268" id="-37988">
		<tag k="alt_name" v="Skjelelva" />
		<tag k="name" v="Skjellelva" />
		<tag k="ssr:stedsnr" v="686424" />
		<tag k="waterway" v="stream" />
	</node>
	<node lat="69.17886388544557" lon="17.722180555873496" id="-38001">
		<tag k="alt_name" v="Nattmålvatnet" />
		<tag k="name" v="Nattmålsvatnet" />
		<tag k="natural" v="water" />
		<tag k="ssr:stedsnr" v="686474" />
	</node>
	<node lat="69.42023888595739" lon="17.879716673640722" id="-38008">
		<tag k="name" v="Lyselva" />
		<tag k="ssr:stedsnr" v="686529" />
		<tag k="waterway" v="river" />
	</node>
	<node lat="69.48894722219863" lon="18.0172722249051" id="-38017">
		<tag k="name" v="Vardvatnet" />
		<tag k="natural" v="water" />
		<tag k="ssr:stedsnr" v="686650" />
	</node>
	<node lat="69.27478055846537" lon="17.078300000447015" id="-38027">
		<tag k="name" v="Yttervatnet" />
		<tag k="natural" v="water" />
		<tag k="ssr:stedsnr" v="536467" />
	</node>
	<node lat="69.16541666825619" lon="17.637449988597783" id="-38032">
		<tag k="name" v="Bukketjønna" />
		<tag k="natural" v="water" />
		<tag k="ssr:stedsnr" v="536519" />
	</node>
	<node lat="69.25332778154959" lon="17.121733339282653" id="-38052">
		<tag k="name" v="Litjevatnet" />
		<tag k="natural" v="water" />
		<tag k="ssr:stedsnr" v="537512" />
	</node>
	<node lat="69.29193611133341" lon="18.352886101596823" id="-38064">
		<tag k="name" v="Fiskebekken" />
		<tag k="ssr:stedsnr" v="686799" />
		<tag k="waterway" v="stream" />
	</node>
	<node lat="69.43155277665277" lon="18.204288875166895" id="-38077">
		<tag k="name" v="Gårdsdalsvatnet" />
		<tag k="natural" v="water" />
		<tag k="ssr:stedsnr" v="686655" />
	</node>
	<node lat="69.17214999877946" lon="17.604391653265456" id="-38078">
		<tag k="name" v="Moelva" />
		<tag k="ssr:stedsnr" v="537975" />
		<tag k="waterway" v="stream" />
	</node>
	<node lat="69.45509166771637" lon="17.336780556742994" id="-38081">
		<tag k="name" v="Kjoselva" />
		<tag k="ssr:stedsnr" v="538078" />
		<tag k="waterway" v="river" />
	</node>
	<node lat="69.4208888930262" lon="18.21545555475232" id="-38085">
		<tag k="name" v="Holmevatnet" />
		<tag k="natural" v="water" />
		<tag k="ssr:stedsnr" v="686714" />
	</node>
	<node lat="69.30863332913894" lon="18.141594451800295" id="-38097">
		<tag k="name" v="Krubbevatnet" />
		<tag k="natural" v="water" />
		<tag k="ssr:stedsnr" v="686783" />
	</node>
	<node lat="69.51254166647702" lon="17.74720833483296" id="-38100">
		<tag k="name" v="Trælvikvatnan" />
		<tag k="natural" v="water" />
		<tag k="ssr:stedsnr" v="686817" />
		<tag k="water" v="lake" />
	</node>
	<node lat="69.51618888746479" lon="17.78654444419767" id="-38102">
		<tag k="name" v="Skinnkollvatnet" />
		<tag k="natural" v="water" />
		<tag k="ssr:stedsnr" v="686821" />
	</node>
	<node lat="69.26035277942637" lon="18.218113882965863" id="-38103">
		<tag k="name" v="Trollelva" />
		<tag k="ssr:stedsnr" v="686823" />
		<tag k="waterway" v="stream" />
	</node>
	<node lat="69.26237499598066" lon="18.165855550746322" id="-38104">
		<tag k="name" v="Kolmilebekken" />
		<tag k="ssr:stedsnr" v="686824" />
		<tag k="waterway" v="stream" />
	</node>
	<node lat="69.27468610814257" lon="17.157275009815173" id="-38114">
		<tag k="name" v="Krokelva" />
		<tag k="ssr:stedsnr" v="564415" />
		<tag k="waterway" v="stream" />
	</node>
	<node lat="69.23238333479888" lon="17.567149986442757" id="-38117">
		<tag k="alt_name" v="Langevatnet" />
		<tag k="name" v="Langvatnet" />
		<tag k="natural" v="water" />
		<tag k="ssr:stedsnr" v="564425" />
		<tag k="water" v="lake" />
	</node>
	<node lat="69.30074722558115" lon="17.29268332036299" id="-38124">
		<tag k="name" v="Bumannsvatnet" />
		<tag k="natural" v="water" />
		<tag k="ssr:stedsnr" v="564441" />
		<tag k="water" v="lake" />
	</node>
	<node lat="69.30971666268668" lon="17.762261118152903" id="-38131">
		<tag k="name" v="Geitelva - Gáicajohka" />
		<tag k="name:no" v="Geitelva" />
		<tag k="name:se" v="Gáicajohka" />
		<tag k="old_name:se" v="Gaicajåkka" />
		<tag k="ssr:stedsnr" v="564575" />
		<tag k="waterway" v="stream" />
	</node>
	<node lat="69.29570833207835" lon="17.88084722983844" id="-38149">
		<tag k="name" v="Lakselva" />
		<tag k="ssr:stedsnr" v="570270" />
		<tag k="waterway" v="river" />
	</node>
	<node lat="69.32367510522221" lon="17.45820654469589" id="-38161">
		<tag k="alt_name:no" v="Svanvatnan, l;Litje Svanvatnan" />
		<tag k="name" v="Indre Svanvatnet - Njukčajávri" />
		<tag k="name:no" v="Indre Svanvatnet" />
		<tag k="name:se" v="Njukčajávri" />
		<tag k="natural" v="water" />
		<tag k="ssr:stedsnr" v="696900" />
		<tag k="water" v="lake" />
	</node>
	<node lat="69.20389722542114" lon="17.763336120645896" id="-38168">
		<tag k="name" v="Fiskevassbekken" />
		<tag k="ssr:stedsnr" v="593513" />
		<tag k="waterway" v="stream" />
	</node>
	<node lat="69.22883055173745" lon="17.85058610397256" id="-38170">
		<tag k="name" v="Vedneset" />
		<tag k="natural" v="cape" />
		<tag k="ssr:stedsnr" v="593555" />
	</node>
	<node lat="69.51215277580728" lon="17.623744442896804" id="-38175">
		<tag k="name" v="Gardtoftelva" />
		<tag k="ssr:stedsnr" v="594207" />
		<tag k="waterway" v="stream" />
	</node>
	<node lat="69.37390555172948" lon="18.044852769688134" id="-38184">
		<tag k="name" v="Skjellelva" />
		<tag k="ssr:stedsnr" v="594618" />
		<tag k="waterway" v="stream" />
	</node>
	<node lat="69.5038388916578" lon="17.849169442659882" id="-38193">
		<tag k="name" v="Steinfinnsetelva" />
		<tag k="ssr:stedsnr" v="594765" />
		<tag k="waterway" v="stream" />
	</node>
	<node lat="69.24868611372487" lon="18.147238898161056" id="-38194">
		<tag k="name" v="Storelva" />
		<tag k="ssr:stedsnr" v="595566" />
		<tag k="waterway" v="stream" />
	</node>
	<node lat="69.30993611162249" lon="18.295097231185608" id="-38196">
		<tag k="name" v="Gammelgårdneset" />
		<tag k="natural" v="cape" />
		<tag k="ssr:stedsnr" v="595712" />
	</node>
	<node lat="69.27420278093035" lon="17.143283341912046" id="-38203">
		<tag k="name" v="Imellaelva" />
		<tag k="ssr:stedsnr" v="596462" />
		<tag k="waterway" v="stream" />
	</node>
	<node lat="69.23284999951768" lon="17.033016672177606" id="-38210">
		<tag k="name" v="Lendepollvatnet" />
		<tag k="natural" v="water" />
		<tag k="ssr:stedsnr" v="597249" />
	</node>
	<node lat="69.12021388834275" lon="17.039127769837105" id="-38215">
		<tag k="name" v="Sanden" />
		<tag k="natural" v="beach" />
		<tag k="ssr:stedsnr" v="597511" />
	</node>
	<node lat="69.16724166666633" lon="17.63842498772176" id="-38216">
		<tag k="name" v="Bjørkkollvatnet" />
		<tag k="natural" v="water" />
		<tag k="ssr:stedsnr" v="597513" />
	</node>
	<node lat="69.21855555838984" lon="17.666866674662963" id="-38234">
		<tag k="name" v="Første gammelvetelv" />
		<tag k="ssr:stedsnr" v="598559" />
		<tag k="waterway" v="stream" />
	</node>
	<node lat="69.44381944261299" lon="17.418636111710537" id="-38235">
		<tag k="name" v="Lutelva" />
		<tag k="ssr:stedsnr" v="598560" />
		<tag k="waterway" v="river" />
	</node>
	<node lat="69.22843333595846" lon="17.30788334491173" id="-38260">
		<tag k="name" v="Kaperelva" />
		<tag k="ssr:stedsnr" v="624205" />
		<tag k="waterway" v="stream" />
	</node>
	<node lat="69.40209444069485" lon="17.583441663296473" id="-38267">
		<tag k="name" v="Nedre Hestvatnet" />
		<tag k="natural" v="water" />
		<tag k="old_name" v="Hestvatnet, nedre" />
		<tag k="ssr:stedsnr" v="624504" />
		<tag k="water" v="lake" />
	</node>
	<node lat="69.23832499655937" lon="18.13030832041189" id="-38268">
		<tag k="alt_name" v="Purkelva" />
		<tag k="name" v="Porkelva" />
		<tag k="ssr:stedsnr" v="624657" />
		<tag k="waterway" v="stream" />
	</node>
	<node lat="69.22445555545025" lon="18.122202768128798" id="-38270">
		<tag k="name" v="Tverrelva" />
		<tag k="ssr:stedsnr" v="624670" />
		<tag k="waterway" v="stream" />
	</node>
	<node lat="69.21918332954263" lon="17.6057777684098" id="-38285">
		<tag k="fixme" v="multiple name tags, choose one and add the other to alt_name" />
		<tag k="name" v="Tenna;Teinelva" />
		<tag k="ssr:stedsnr" v="625378" />
		<tag k="waterway" v="river" />
	</node>
	<node lat="69.29358610799696" lon="17.213361103546234" id="-38290">
		<tag k="alt_name" v="Botnvatnet, l" />
		<tag k="name" v="Litje Botnvatnet" />
		<tag k="natural" v="water" />
		<tag k="ssr:stedsnr" v="625389" />
	</node>
	<node lat="69.4105333313844" lon="17.938769428449177" id="-38292">
		<tag k="name" v="Øyjordelva" />
		<tag k="ssr:stedsnr" v="625510" />
		<tag k="waterway" v="stream" />
	</node>
	<node lat="69.30027500363825" lon="18.088730555401437" id="-38298">
		<tag k="name" v="Steindalselva" />
		<tag k="ssr:stedsnr" v="625814" />
		<tag k="waterway" v="stream" />
	</node>
	<node lat="69.43763055525126" lon="17.912002768295483" id="-38313">
		<tag k="name" v="Fiskeneset" />
		<tag k="natural" v="cape" />
		<tag k="ssr:stedsnr" v="654137" />
	</node>
	<node lat="69.21345832904628" lon="17.75612499516136" id="-38318">
		<tag k="name" v="Kvanntjønna" />
		<tag k="natural" v="water" />
		<tag k="ssr:stedsnr" v="654541" />
	</node>
	<node lat="69.30473888593886" lon="17.719597216202004" id="-38323">
		<tag k="name" v="Tyvelva" />
		<tag k="ssr:stedsnr" v="654638" />
		<tag k="waterway" v="stream" />
	</node>
	<node lat="69.2171527770681" lon="17.708569442749322" id="-38332">
		<tag k="name" v="Langvatnet" />
		<tag k="natural" v="water" />
		<tag k="ssr:stedsnr" v="654586" />
	</node>
	<node lat="69.40399722440885" lon="18.00104166260824" id="-38333">
		<tag k="name" v="Kvantoelva" />
		<tag k="ssr:stedsnr" v="654703" />
		<tag k="waterway" v="stream" />
	</node>
	<node lat="69.39903333542583" lon="18.042297217827542" id="-38337">
		<tag k="name" v="Gåsneset" />
		<tag k="natural" v="cape" />
		<tag k="ssr:stedsnr" v="654882" />
	</node>
	<node lat="69.36953889073202" lon="17.744927764942453" id="-38341">
		<tag k="name" v="Skeivasselva" />
		<tag k="ssr:stedsnr" v="654990" />
		<tag k="waterway" v="stream" />
	</node>
	<node lat="69.31836944546005" lon="17.862441667798606" id="-38343">
		<tag k="name" v="Botnelva" />
		<tag k="ssr:stedsnr" v="655140" />
		<tag k="waterway" v="river" />
	</node>
	<node lat="69.21469166816331" lon="17.054086115646633" id="-38363">
		<tag k="name" v="Norddalselva" />
		<tag k="ssr:stedsnr" v="657502" />
		<tag k="waterway" v="stream" />
	</node>
	<node lat="69.15578333655596" lon="17.63658610778122" id="-38374">
		<tag k="name" v="Vestre heimvatn" />
		<tag k="natural" v="water" />
		<tag k="ssr:stedsnr" v="658532" />
	</node>
	<node lat="69.20083888626341" lon="17.582544440239786" id="-38378">
		<tag k="name" v="Straumhølla" />
		<tag k="place" v="locality" />
		<tag k="ssr:stedsnr" v="658585" />
	</node>
	<node lat="69.09126110827982" lon="17.025252775390577" id="-38383">
		<tag k="name" v="Skogneset" />
		<tag k="natural" v="cape" />
		<tag k="ssr:stedsnr" v="658591" />
	</node>
	<node lat="69.38131388640652" lon="17.157249990766765" id="-38386">
		<tag k="name" v="Langneset" />
		<tag k="natural" v="cape" />
		<tag k="ssr:stedsnr" v="658703" />
	</node>
	<node lat="69.17688333640825" lon="17.658788899366858" id="-38388">
		<tag k="name" v="Kringelvatnet" />
		<tag k="natural" v="water" />
		<tag k="ssr:stedsnr" v="658983" />
	</node>
	<node lat="69.19608333401194" lon="17.65403887532184" id="-38395">
		<tag k="name" v="Maritdammen" />
		<tag k="natural" v="water" />
		<tag k="ssr:stedsnr" v="659606" />
		<tag k="water" v="lake" />
	</node>
	<node lat="69.4743055526085" lon="17.659155555115706" id="-38414">
		<tag k="name" v="Migarelva" />
		<tag k="ssr:stedsnr" v="660283" />
		<tag k="waterway" v="stream" />
	</node>
	<node lat="69.46745833354717" lon="17.686108339089486" id="-38421">
		<tag k="name" v="Damelva" />
		<tag k="ssr:stedsnr" v="661237" />
		<tag k="waterway" v="stream" />
	</node>
	<node lat="69.19901111303474" lon="16.956005545015095" id="-38424">
		<tag k="name" v="Vatnelva" />
		<tag k="ssr:stedsnr" v="892853" />
		<tag k="waterway" v="stream" />
	</node>
	<node lat="69.06568055378672" lon="16.842324999824154" id="-38425">
		<tag k="name" v="Langvatnet" />
		<tag k="natural" v="water" />
		<tag k="ssr:stedsnr" v="685007" />
	</node>
	<node lat="69.20017222563595" lon="17.87168055778375" id="-38428">
		<tag k="name" v="Mølnelva" />
		<tag k="ssr:stedsnr" v="685094" />
		<tag k="waterway" v="stream" />
	</node>
	<node lat="69.10858888640372" lon="17.011936103668475" id="-38433">
		<tag k="fixme" v="multiple name tags, choose one and add the other to alt_name" />
		<tag k="name" v="Bjørnlivatnan;Stilivatnan" />
		<tag k="natural" v="water" />
		<tag k="ssr:stedsnr" v="685197" />
		<tag k="water" v="lake" />
	</node>
	<node lat="69.39304722594744" lon="17.870861118229584" id="-38437">
		<tag k="name" v="Jonkasvatnan" />
		<tag k="natural" v="water" />
		<tag k="ssr:stedsnr" v="685494" />
		<tag k="water" v="lake" />
	</node>
	<node lat="69.32804999611116" lon="17.02817500378423" id="-38438">
		<tag k="name" v="Merraføelva" />
		<tag k="ssr:stedsnr" v="685394" />
		<tag k="waterway" v="stream" />
	</node>
	<node lat="69.4402916629154" lon="17.917263884057906" id="-38448">
		<tag k="name" v="Geitvatnet" />
		<tag k="natural" v="water" />
		<tag k="ssr:stedsnr" v="686450" />
		<tag k="water" v="lake" />
	</node>
	<node lat="69.44404444334673" lon="17.83291109964972" id="-38449">
		<tag k="name" v="Bukkevatnet" />
		<tag k="natural" v="water" />
		<tag k="ssr:stedsnr" v="686452" />
	</node>
	<node lat="69.18411666729227" lon="17.86911388686137" id="-38451">
		<tag k="name" v="Bergevatnet" />
		<tag k="natural" v="water" />
		<tag k="ssr:stedsnr" v="686496" />
	</node>
	<node lat="69.52720555326943" lon="17.84039444412978" id="-38463">
		<tag k="name" v="Fiskevatnet" />
		<tag k="natural" v="water" />
		<tag k="ssr:stedsnr" v="686803" />
	</node>
	<node lat="69.33435555836458" lon="17.433897217803043" id="-38470">
		<tag k="fixme" v="multiple name tags, choose one and add the other to alt_name" />
		<tag k="name" v="Svanvatnan;Njukčajávrrit" />
		<tag k="name:se" v="Svanvatnan;Njukčajávrrit" />
		<tag k="natural" v="water" />
		<tag k="old_name:se" v="Njukoajavrit" />
		<tag k="ssr:stedsnr" v="688547" />
		<tag k="water" v="lake" />
	</node>
	<node lat="69.2894749974906" lon="17.85191666176873" id="-38482">
		<tag k="name" v="Småan" />
		<tag k="natural" v="water" />
		<tag k="ssr:stedsnr" v="897646" />
	</node>
	<node lat="69.25438888997836" lon="17.678430547810706" id="-38501">
		<tag k="name" v="Tverrelva" />
		<tag k="ssr:stedsnr" v="898042" />
		<tag k="waterway" v="stream" />
	</node>
	<node lat="69.53371111492908" lon="17.892288888706577" id="-38516">
		<tag k="name" v="Sørdalsvatnet" />
		<tag k="natural" v="water" />
		<tag k="ssr:stedsnr" v="898607" />
	</node>
	<node lat="69.27118889129837" lon="17.941675000872813" id="-38519">
		<tag k="name" v="Voelva" />
		<tag k="ssr:stedsnr" v="898624" />
		<tag k="waterway" v="stream" />
	</node>
	<node lat="69.42382500416367" lon="17.936522224405408" id="-38530">
		<tag k="name" v="Øverneset" />
		<tag k="natural" v="cape" />
		<tag k="ssr:stedsnr" v="715416" />
	</node>
	<node lat="69.42101666576646" lon="18.065072223033578" id="-38537">
		<tag k="name" v="Øyjordelva" />
		<tag k="ssr:stedsnr" v="715673" />
		<tag k="waterway" v="stream" />
	</node>
	<node lat="69.42524444212717" lon="18.02488610505194" id="-38538">
		<tag k="name" v="Stivatnet" />
		<tag k="natural" v="water" />
		<tag k="ssr:stedsnr" v="715678" />
		<tag k="water" v="pond" />
	</node>
	<node lat="69.35417778120978" lon="17.982691665962136" id="-38541">
		<tag k="name" v="Tobakkelva" />
		<tag k="ssr:stedsnr" v="715939" />
		<tag k="waterway" v="stream" />
	</node>
	<node lat="69.3152499967283" lon="17.86919165811231" id="-38543">
		<tag k="name" v="Bogelva" />
		<tag k="ssr:stedsnr" v="716125" />
		<tag k="waterway" v="stream" />
	</node>
	<node lat="69.25661111077831" lon="17.95695277893112" id="-38549">
		<tag k="name" v="Tetlelva" />
		<tag k="ssr:stedsnr" v="716689" />
		<tag k="waterway" v="stream" />
	</node>
	<node lat="69.1999111121208" lon="17.00613610216724" id="-38560">
		<tag k="name" v="Skarelva" />
		<tag k="ssr:stedsnr" v="718270" />
		<tag k="waterway" v="stream" />
	</node>
	<node lat="69.24726666399582" lon="17.156355540834436" id="-38578">
		<tag k="name" v="Tverrelva" />
		<tag k="ssr:stedsnr" v="719489" />
		<tag k="waterway" v="stream" />
	</node>
	<node lat="69.21046388536628" lon="17.54005833498321" id="-38581">
		<tag k="name" v="Skarbekken" />
		<tag k="ssr:stedsnr" v="719532" />
		<tag k="waterway" v="stream" />
	</node>
	<node lat="69.06529444063753" lon="16.895102765999617" id="-38598">
		<tag k="name" v="Marivatnet" />
		<tag k="natural" v="water" />
		<tag k="ssr:stedsnr" v="719923" />
	</node>
	<node lat="69.2242666625508" lon="18.111530562278798" id="-38600">
		<tag k="name" v="Vargneset" />
		<tag k="natural" v="cape" />
		<tag k="ssr:stedsnr" v="899524" />
	</node>
	<node lat="69.25060833681628" lon="17.631697225245137" id="-38610">
		<tag k="name" v="Sandholmen" />
		<tag k="place" v="islet" />
		<tag k="ssr:stedsnr" v="720668" />
	</node>
	<node lat="69.33446666396551" lon="17.4193083407321" id="-38612">
		<tag k="name" v="Leirelva" />
		<tag k="ssr:stedsnr" v="720994" />
		<tag k="waterway" v="river" />
	</node>
	<node lat="69.40331388797361" lon="18.270983331161805" id="-38623">
		<tag k="name" v="Brillevatnet" />
		<tag k="natural" v="water" />
		<tag k="ssr:stedsnr" v="899931" />
	</node>
	<node lat="69.3791555550054" lon="18.33405833532214" id="-38629">
		<tag k="name" v="Maielva" />
		<tag k="ssr:stedsnr" v="899969" />
		<tag k="waterway" v="stream" />
	</node>
	<node lat="69.40702222194987" lon="18.31592222201062" id="-38633">
		<tag k="name" v="Hestevatnet" />
		<tag k="natural" v="water" />
		<tag k="ssr:stedsnr" v="899990" />
		<tag k="water" v="pond" />
	</node>
	<node lat="69.20470278242853" lon="17.068338880922298" id="-38642">
		<tag k="name" v="Skarelva" />
		<tag k="ssr:stedsnr" v="900494" />
		<tag k="waterway" v="stream" />
	</node>
	<node lat="69.1336111109897" lon="17.084674990599233" id="-38654">
		<tag k="name" v="Middagselva" />
		<tag k="ssr:stedsnr" v="901376" />
		<tag k="waterway" v="stream" />
	</node>
	<node lat="69.1394083353873" lon="17.090313890327295" id="-38655">
		<tag k="name" v="Tenneneset" />
		<tag k="natural" v="cape" />
		<tag k="ssr:stedsnr" v="901377" />
	</node>
	<node lat="69.16375555933837" lon="17.5777500097081" id="-38664">
		<tag k="name" v="Gammelva" />
		<tag k="ssr:stedsnr" v="901499" />
		<tag k="waterway" v="stream" />
	</node>
	<node lat="69.28809444306705" lon="17.081952772205792" id="-38678">
		<tag k="name" v="Innerdalselva" />
		<tag k="ssr:stedsnr" v="901619" />
		<tag k="waterway" v="stream" />
	</node>
	<node lat="69.29743611072625" lon="17.068811097669986" id="-38681">
		<tag k="name" v="Dalevatnan" />
		<tag k="natural" v="water" />
		<tag k="ssr:stedsnr" v="901625" />
		<tag k="water" v="lake" />
	</node>
	<node lat="69.09250000306372" lon="16.94453056765629" id="-38684">
		<tag k="name" v="Iver-Lundneset" />
		<tag k="natural" v="cape" />
		<tag k="ssr:stedsnr" v="901594" />
	</node>
	<node lat="69.18231110784083" lon="17.384386110153137" id="-38704">
		<tag k="name" v="Kvisla" />
		<tag k="natural" v="strait" />
		<tag k="ssr:stedsnr" v="901843" />
	</node>
	<node lat="69.17997222240963" lon="17.642363880673507" id="-38710">
		<tag k="name" v="Bjørndragarvatnet" />
		<tag k="natural" v="water" />
		<tag k="ssr:stedsnr" v="901998" />
	</node>
	<node lat="69.47922777538156" lon="17.36615833567083" id="-38719">
		<tag k="name" v="Klipelva" />
		<tag k="ssr:stedsnr" v="902395" />
		<tag k="waterway" v="stream" />
	</node>
	<node lat="69.25111110978854" lon="17.595436116942807" id="-38722">
		<tag k="name" v="Storneset" />
		<tag k="natural" v="cape" />
		<tag k="ssr:stedsnr" v="902653" />
	</node>
	<node lat="69.2511999990786" lon="17.60924167367976" id="-38723">
		<tag k="name" v="Kuskemotjønna" />
		<tag k="natural" v="water" />
		<tag k="ssr:stedsnr" v="902666" />
	</node>
	<node lat="69.25679444058007" lon="17.6601222238482" id="-38724">
		<tag k="name" v="Østre Sandbukt" />
		<tag k="natural" v="bay" />
		<tag k="ssr:stedsnr" v="902667" />
	</node>
	<node lat="69.32351666896992" lon="17.480938879596557" id="-38734">
		<tag k="name" v="Sennekjosen" />
		<tag k="natural" v="strait" />
		<tag k="ssr:stedsnr" v="903230" />
	</node>
	<node lat="69.08229722591729" lon="16.797108334123823" id="-38743">
		<tag k="name" v="Sæterelva" />
		<tag k="ssr:stedsnr" v="745111" />
		<tag k="waterway" v="stream" />
	</node>
	<node lat="69.17976110933215" lon="17.64227222275559" id="-38750">
		<tag k="name" v="Bjørndragarvatnan" />
		<tag k="natural" v="water" />
		<tag k="ssr:stedsnr" v="746470" />
		<tag k="water" v="lake" />
	</node>
	<node lat="69.1979555564082" lon="17.72124999588617" id="-38752">
		<tag k="name" v="Storvatnet" />
		<tag k="natural" v="water" />
		<tag k="ssr:stedsnr" v="746478" />
		<tag k="water" v="lake" />
	</node>
	<node lat="69.36492499705172" lon="17.405897228238945" id="-38769">
		<tag k="alt_name" v="Elvevollen" />
		<tag k="name" v="Elvevoll" />
		<tag k="natural" v="bay" />
		<tag k="ssr:stedsnr" v="747315" />
	</node>
	<node lat="69.51116110809318" lon="17.457763897338747" id="-38786">
		<tag k="name" v="Litjedalselva" />
		<tag k="ssr:stedsnr" v="904248" />
		<tag k="waterway" v="stream" />
	</node>
	<node lat="69.38130277632828" lon="17.123905561397223" id="-38798">
		<tag k="fixme" v="multiple name tags, choose one and add the other to alt_name" />
		<tag k="name" v="Ballesvikelva;Lakselva" />
		<tag k="ssr:stedsnr" v="771168" />
		<tag k="waterway" v="river" />
	</node>
	<node lat="69.49701944859626" lon="17.941008333861802" id="-38811">
		<tag k="name" v="Mortenheimsvatnan" />
		<tag k="natural" v="water" />
		<tag k="ssr:stedsnr" v="776469" />
		<tag k="water" v="lake" />
	</node>
	<node lat="69.30074722216095" lon="17.73073611423835" id="-38812">
		<tag k="name" v="Gobejávri" />
		<tag k="name:se" v="Gobejávri" />
		<tag k="natural" v="water" />
		<tag k="ssr:stedsnr" v="776611" />
		<tag k="water" v="pond" />
	</node>
	<node lat="69.3097361095246" lon="18.31578332910774" id="-38825">
		<tag k="name" v="Gjerdfossen" />
		<tag k="natural" v="waterfall" />
		<tag k="ssr:stedsnr" v="778709" />
	</node>
	<node lat="69.24100555362439" lon="18.119883341208343" id="-38830">
		<tag k="name" v="Holmen" />
		<tag k="natural" v="cape" />
		<tag k="ssr:stedsnr" v="778615" />
	</node>
	<node lat="69.37043611537628" lon="17.202902773609914" id="-38860">
		<tag k="name" v="Tolvassbotn" />
		<tag k="natural" v="bay" />
		<tag k="ssr:stedsnr" v="780650" />
	</node>
	<node lat="69.03671944812847" lon="17.19344721299925" id="-38863">
		<tag k="name" v="Sandbakkelva" />
		<tag k="ssr:stedsnr" v="780607" />
		<tag k="waterway" v="stream" />
	</node>
	<node lat="69.25118888937524" lon="17.56919721408518" id="-38873">
		<tag k="name" v="Lamoholmen" />
		<tag k="place" v="islet" />
		<tag k="ssr:stedsnr" v="781653" />
	</node>
	<node lat="69.56551111185112" lon="17.535200002826887" id="-38904">
		<tag k="name" v="Tverrfjellvatnet" />
		<tag k="natural" v="water" />
		<tag k="ssr:stedsnr" v="837012" />
	</node>
	<node lat="69.35934722440494" lon="17.83018611945913" id="-38908">
		<tag k="name" v="Kastan" />
		<tag k="natural" v="beach" />
		<tag k="ssr:stedsnr" v="837214" />
	</node>
	<node lat="69.24241111454046" lon="17.848413896144244" id="-38922">
		<tag k="name" v="Kvanntoelva" />
		<tag k="ssr:stedsnr" v="837629" />
		<tag k="waterway" v="stream" />
	</node>
	<node lat="69.23152222679349" lon="18.110616656850276" id="-38933">
		<tag k="name" v="Litje Nøkketjønn" />
		<tag k="natural" v="water" />
		<tag k="ssr:stedsnr" v="839530" />
	</node>
	<node lat="69.27371666929761" lon="18.0376055589982" id="-38936">
		<tag k="name" v="Talggrøtelva" />
		<tag k="ssr:stedsnr" v="839589" />
		<tag k="waterway" v="stream" />
	</node>
	<node lat="69.31352777558553" lon="18.288911099403034" id="-38938">
		<tag k="name" v="Kvernfossen" />
		<tag k="natural" v="waterfall" />
		<tag k="ssr:stedsnr" v="839731" />
	</node>
	<node lat="69.32605555490152" lon="18.16380832459305" id="-38941">
		<tag k="name" v="Tverrelva" />
		<tag k="ssr:stedsnr" v="839626" />
		<tag k="waterway" v="stream" />
	</node>
	<node lat="69.37033610729146" lon="18.313436100396917" id="-38946">
		<tag k="name" v="Konselva" />
		<tag k="ssr:stedsnr" v="839936" />
		<tag k="waterway" v="stream" />
	</node>
	<node lat="69.28526388847013" lon="17.080663886319186" id="-38955">
		<tag k="name" v="Botnelva" />
		<tag k="ssr:stedsnr" v="840477" />
		<tag k="waterway" v="stream" />
	</node>
	<node lat="69.16764722367485" lon="17.634844440854774" id="-38957">
		<tag k="name" v="Gardsvikvatnet" />
		<tag k="natural" v="water" />
		<tag k="ssr:stedsnr" v="840527" />
	</node>
	<node lat="69.06352777817965" lon="16.82041945365677" id="-38961">
		<tag k="name" v="Mellavikvatnet" />
		<tag k="natural" v="water" />
		<tag k="ssr:stedsnr" v="840932" />
	</node>
	<node lat="69.11166666968238" lon="17.113030548549528" id="-38966">
		<tag k="name" v="Finnskarelva" />
		<tag k="ssr:stedsnr" v="841332" />
		<tag k="waterway" v="stream" />
	</node>
	<node lat="69.01916111260664" lon="17.082027786154278" id="-38972">
		<tag k="name" v="Rødbergelva" />
		<tag k="ssr:stedsnr" v="841534" />
		<tag k="waterway" v="stream" />
	</node>
	<node lat="69.0787000024268" lon="16.96743055013227" id="-38978">
		<tag k="name" v="Lillelva" />
		<tag k="ssr:stedsnr" v="841609" />
		<tag k="waterway" v="stream" />
	</node>
	<node lat="69.2957416655808" lon="17.163233332196544" id="-38979">
		<tag k="name" v="Hestelvvatnet" />
		<tag k="natural" v="water" />
		<tag k="ssr:stedsnr" v="841579" />
	</node>
	<node lat="69.38361110845497" lon="17.138844445211685" id="-38982">
		<tag k="name" v="Lomtjønnan" />
		<tag k="natural" v="water" />
		<tag k="ssr:stedsnr" v="841685" />
		<tag k="water" v="lake" />
	</node>
	<node lat="69.33348333361374" lon="17.468291673852846" id="-38984">
		<tag k="name" v="Britatjønna" />
		<tag k="natural" v="water" />
		<tag k="ssr:stedsnr" v="841986" />
		<tag k="water" v="lake" />
	</node>
	<node lat="69.18938055481262" lon="17.710394432074313" id="-38991">
		<tag k="name" v="Verholmen" />
		<tag k="place" v="islet" />
		<tag k="ssr:stedsnr" v="842687" />
	</node>
	<node lat="69.38940277451621" lon="17.409613896244515" id="-38998">
		<tag k="name" v="Holmen" />
		<tag k="place" v="islet" />
		<tag k="ssr:stedsnr" v="842936" />
	</node>
	<node lat="69.05971666299529" lon="16.834600003714886" id="-39018">
		<tag k="name" v="Rakelvatnet" />
		<tag k="natural" v="water" />
		<tag k="ssr:stedsnr" v="928029" />
	</node>
	<node lat="69.17043611204609" lon="17.37983610998667" id="-39037">
		<tag k="alt_name" v="Olemunnselva" />
		<tag k="name" v="Ole-Ommundselva" />
		<tag k="ssr:stedsnr" v="928200" />
		<tag k="waterway" v="river" />
	</node>
	<node lat="69.26273333437577" lon="17.34359722517023" id="-39048">
		<tag k="name" v="Trollvatnet" />
		<tag k="natural" v="water" />
		<tag k="ssr:stedsnr" v="928372" />
		<tag k="water" v="lake" />
	</node>
	<node lat="69.2690333361496" lon="17.209694444763326" id="-39050">
		<tag k="name" v="Langvatnet" />
		<tag k="natural" v="water" />
		<tag k="ssr:stedsnr" v="928379" />
	</node>
	<node lat="69.38328888784001" lon="17.98240833874693" id="-39053">
		<tag k="name" v="Hannesvatnet" />
		<tag k="natural" v="water" />
		<tag k="ssr:stedsnr" v="928472" />
	</node>
	<node lat="69.37616388920767" lon="17.483544455085877" id="-39054">
		<tag k="alt_name" v="Tverrelvvatnan, nedre" />
		<tag k="name" v="Nedre Tverrelvvatnet" />
		<tag k="natural" v="water" />
		<tag k="ssr:stedsnr" v="928515" />
	</node>
	<node lat="69.34062778129712" lon="18.282472223357633" id="-39060">
		<tag k="name" v="Hakkosneset" />
		<tag k="natural" v="cape" />
		<tag k="ssr:stedsnr" v="928749" />
	</node>
	<node lat="69.33247500317832" lon="18.119283333048323" id="-39066">
		<tag k="name" v="Bjorelva" />
		<tag k="ssr:stedsnr" v="929023" />
		<tag k="waterway" v="river" />
	</node>
	<node lat="69.45085278012799" lon="17.416566654974055" id="-39069">
		<tag k="name" v="Lutvatnet" />
		<tag k="natural" v="water" />
		<tag k="ssr:stedsnr" v="929264" />
		<tag k="water" v="lake" />
	</node>
	<node lat="69.36328333285026" lon="17.382563896496762" id="-39071">
		<tag k="name" v="Kvannbergelva" />
		<tag k="ssr:stedsnr" v="929275" />
		<tag k="waterway" v="stream" />
	</node>
	<node lat="69.32522221810784" lon="18.13802776940583" id="-39076">
		<tag k="name" v="Sollivatnet" />
		<tag k="natural" v="water" />
		<tag k="ssr:stedsnr" v="929769" />
		<tag k="water" v="lake" />
	</node>
	<node lat="69.39360277455917" lon="17.373355563811163" id="-39081">
		<tag k="alt_name" v="Leisbergvatnet" />
		<tag k="name" v="Lesbervatnet" />
		<tag k="natural" v="water" />
		<tag k="ssr:stedsnr" v="929325" />
		<tag k="water" v="lake" />
	</node>
	<node lat="69.37758055684395" lon="17.210894432351846" id="-39084">
		<tag k="fixme" v="multiple name tags, choose one and add the other to alt_name" />
		<tag k="name" v="Ytste-Tolevatnet;Stor-Tolevatnet" />
		<tag k="natural" v="water" />
		<tag k="ssr:stedsnr" v="929347" />
		<tag k="water" v="lake" />
	</node>
	<node lat="69.29302777616493" lon="17.168511098109608" id="-39089">
		<tag k="name" v="Hestelva" />
		<tag k="ssr:stedsnr" v="929372" />
		<tag k="waterway" v="stream" />
	</node>
	<node lat="69.2196000020059" lon="17.832080555946813" id="-39090">
		<tag k="name" v="Laukelva" />
		<tag k="ssr:stedsnr" v="929382" />
		<tag k="waterway" v="river" />
	</node>
	<node lat="69.45530833508353" lon="17.900002774503722" id="-39095">
		<tag k="name" v="Skjellelva" />
		<tag k="ssr:stedsnr" v="929470" />
		<tag k="waterway" v="stream" />
	</node>
	<node lat="69.32628055256573" lon="17.647863891538343" id="-39098">
		<tag k="name" v="Kjeldeelva" />
		<tag k="ssr:stedsnr" v="929554" />
		<tag k="waterway" v="stream" />
	</node>
	<node lat="69.31968055828631" lon="17.783888886346144" id="-39102">
		<tag k="name" v="Geitvatnet - Gáicajávri" />
		<tag k="name:no" v="Geitvatnet" />
		<tag k="name:se" v="Gáicajávri" />
		<tag k="natural" v="water" />
		<tag k="old_name:se" v="Gaicajavri" />
		<tag k="ssr:stedsnr" v="929568" />
		<tag k="water" v="lake" />
	</node>
	<node lat="69.50030278094451" lon="17.965316668721073" id="-39107">
		<tag k="name" v="Gavlsvatnet" />
		<tag k="natural" v="water" />
		<tag k="ssr:stedsnr" v="929654" />
	</node>
	<node lat="69.31131389185161" lon="18.326097218314384" id="-39117">
		<tag k="name" v="Tårnelva" />
		<tag k="ssr:stedsnr" v="929801" />
		<tag k="waterway" v="river" />
	</node>
	<node lat="69.53893333038141" lon="17.87123887397497" id="-39122">
		<tag k="name" v="Sørdalselva" />
		<tag k="ssr:stedsnr" v="929868" />
		<tag k="waterway" v="stream" />
	</node>
	<node lat="69.54283610754341" lon="17.573580558161538" id="-39123">
		<tag k="name" v="Toftevatnet" />
		<tag k="natural" v="water" />
		<tag k="ssr:stedsnr" v="929873" />
		<tag k="water" v="lake" />
	</node>
	<node lat="69.4208583336833" lon="18.338599995287613" id="-39125">
		<tag k="name" v="Mølnelva" />
		<tag k="ssr:stedsnr" v="868031" />
		<tag k="waterway" v="stream" />
	</node>
	<node lat="69.49707500398549" lon="17.39144166702302" id="-39127">
		<tag k="alt_name" v="Grylskardelva" />
		<tag k="name" v="Grylskarelva" />
		<tag k="ssr:stedsnr" v="868176" />
		<tag k="waterway" v="stream" />
	</node>
	<node lat="69.25293610945178" lon="17.64326944765852" id="-39132">
		<tag k="fixme" v="multiple name tags, choose one and add the other to alt_name" />
		<tag k="name" v="Sørlivatnet;Almenningsvatnet" />
		<tag k="natural" v="water" />
		<tag k="ssr:stedsnr" v="868421" />
		<tag k="water" v="lake" />
	</node>
	<node lat="69.3114777819596" lon="17.313855543664843" id="-39135">
		<tag k="name" v="Langdalsvatnet" />
		<tag k="natural" v="water" />
		<tag k="ssr:stedsnr" v="868426" />
		<tag k="water" v="lake" />
	</node>
	<node lat="69.34830555901543" lon="18.35441945042326" id="-39140">
		<tag k="name" v="Lodvikelva" />
		<tag k="ssr:stedsnr" v="868722" />
		<tag k="waterway" v="stream" />
	</node>
	<node lat="69.34378333301571" lon="17.259341673433905" id="-39142">
		<tag k="name" v="Svartholvatnet" />
		<tag k="natural" v="water" />
		<tag k="ssr:stedsnr" v="931370" />
		<tag k="water" v="lake" />
	</node>
	<node lat="69.2559694435929" lon="17.165886104866537" id="-39143">
		<tag k="name" v="Gjeskefossen" />
		<tag k="natural" v="waterfall" />
		<tag k="ssr:stedsnr" v="931382" />
	</node>
	<node lat="69.32566388674198" lon="17.315083340844307" id="-39144">
		<tag k="name" v="Leirskarvatnan" />
		<tag k="natural" v="water" />
		<tag k="ssr:stedsnr" v="931388" />
		<tag k="water" v="lake" />
	</node>
	<node lat="69.40214444421883" lon="17.84223332418286" id="-39157">
		<tag k="name" v="Storneset" />
		<tag k="natural" v="cape" />
		<tag k="ssr:stedsnr" v="897218" />
	</node>
	<node lat="69.29639444470504" lon="17.741797223928735" id="-39173">
		<tag k="name" v="Steinmoelva" />
		<tag k="ssr:stedsnr" v="898656" />
		<tag k="waterway" v="stream" />
	</node>
	<node lat="69.35605555646436" lon="18.150352765507087" id="-39180">
		<tag k="name" v="Gårdslivatnet" />
		<tag k="natural" v="water" />
		<tag k="ssr:stedsnr" v="899656" />
	</node>
	<node lat="69.38719166406888" lon="18.312302760936046" id="-39182">
		<tag k="name" v="Tindhollvatnet" />
		<tag k="natural" v="water" />
		<tag k="ssr:stedsnr" v="899916" />
	</node>
	<node lat="69.33288888589794" lon="17.24530832543064" id="-39206">
		<tag k="name" v="Botnvatnelva" />
		<tag k="ssr:stedsnr" v="901715" />
		<tag k="waterway" v="stream" />
	</node>
	<node lat="69.43959166339647" lon="17.402488878972274" id="-39228">
		<tag k="name" v="Vollelva" />
		<tag k="ssr:stedsnr" v="902610" />
		<tag k="waterway" v="stream" />
	</node>
	<node lat="69.20360277591959" lon="17.631772207051984" id="-39229">
		<tag k="name" v="Teltholmen" />
		<tag k="place" v="islet" />
		<tag k="ssr:stedsnr" v="902622" />
	</node>
	<node lat="69.51803888751917" lon="17.40851665459795" id="-39235">
		<tag k="name" v="Rydalselva" />
		<tag k="ssr:stedsnr" v="904159" />
		<tag k="waterway" v="stream" />
	</node>
	<node lat="69.53687499714492" lon="17.527113898113626" id="-39236">
		<tag k="name" v="Sevdalselva" />
		<tag k="ssr:stedsnr" v="904161" />
		<tag k="waterway" v="stream" />
	</node>
	<node lat="69.39146666330775" lon="18.311158322864554" id="-39248">
		<tag k="name" v="Langbakkvatnet" />
		<tag k="natural" v="water" />
		<tag k="ssr:stedsnr" v="928649" />
	</node>
	<node lat="69.34316389284973" lon="17.218411103496255" id="-39251">
		<tag k="name" v="Botnvatnet" />
		<tag k="natural" v="water" />
		<tag k="ssr:stedsnr" v="929304" />
		<tag k="water" v="lake" />
	</node>
	<node lat="69.47287500048516" lon="18.260275006249607" id="-39258">
		<tag k="name" v="Mølnelva" />
		<tag k="ssr:stedsnr" v="929609" />
		<tag k="waterway" v="stream" />
	</node>
	<node lat="69.4032027742822" lon="18.00692222759381" id="-39259">
		<tag k="name" v="Litjvatnet" />
		<tag k="natural" v="water" />
		<tag k="ssr:stedsnr" v="929696" />
	</node>
	<node lat="69.5668888899383" lon="17.547222220402645" id="-39264">
		<tag k="alt_name" v="Storevatnet" />
		<tag k="name" v="Storvatnet" />
		<tag k="natural" v="water" />
		<tag k="ssr:stedsnr" v="929857" />
	</node>
	<node lat="69.29983889110542" lon="17.67930000460957" id="-39279">
		<tag k="name" v="Lappegammvatnet" />
		<tag k="natural" v="water" />
		<tag k="ssr:stedsnr" v="958019" />
	</node>
	<node lat="69.47557777827255" lon="17.894719452133586" id="-39283">
		<tag k="name" v="Oterelva" />
		<tag k="ssr:stedsnr" v="958340" />
		<tag k="waterway" v="stream" />
	</node>
	<node lat="69.42320278131403" lon="17.936863884623534" id="-39288">
		<tag k="name" v="Øverstrømmen" />
		<tag k="natural" v="strait" />
		<tag k="ssr:stedsnr" v="958410" />
	</node>
	<node lat="69.42459722126961" lon="17.939474993711265" id="-39289">
		<tag k="name" v="Bogan" />
		<tag k="natural" v="bay" />
		<tag k="ssr:stedsnr" v="958415" />
	</node>
	<node lat="69.23298055454896" lon="17.805277782372627" id="-39293">
		<tag k="name" v="Konradholmen" />
		<tag k="place" v="islet" />
		<tag k="ssr:stedsnr" v="958636" />
	</node>
	<node lat="69.24888055730733" lon="18.166199992951626" id="-39301">
		<tag k="name" v="Stenget" />
		<tag k="ssr:stedsnr" v="960602" />
		<tag k="waterway" v="stream" />
	</node>
	<node lat="69.25170555821107" lon="18.105955565795153" id="-39303">
		<tag k="name" v="Sennatjønnene" />
		<tag k="natural" v="water" />
		<tag k="ssr:stedsnr" v="960608" />
	</node>
	<node lat="69.25255833216947" lon="18.124830541429272" id="-39304">
		<tag k="name" v="Greina" />
		<tag k="ssr:stedsnr" v="960610" />
		<tag k="waterway" v="stream" />
	</node>
	<node lat="69.14019722402185" lon="17.327186098463613" id="-39311">
		<tag k="name" v="Oselva" />
		<tag k="ssr:stedsnr" v="961504" />
		<tag k="waterway" v="stream" />
	</node>
	<node lat="69.29164166499974" lon="17.033741670356868" id="-39315">
		<tag k="name" v="Elvejordselva" />
		<tag k="ssr:stedsnr" v="961411" />
		<tag k="waterway" v="stream" />
	</node>
	<node lat="69.08361666292627" lon="17.003855544307342" id="-39329">
		<tag k="name" v="Nonsmålselva" />
		<tag k="ssr:stedsnr" v="962603" />
		<tag k="waterway" v="stream" />
	</node>
	<node lat="69.23746944505987" lon="17.54303610062157" id="-39340">
		<tag k="name" v="Fisketjønnelva" />
		<tag k="ssr:stedsnr" v="962520" />
		<tag k="waterway" v="stream" />
	</node>
	<node lat="69.20536276191858" lon="17.635524106258373" id="-39343">
		<tag k="name" v="Kvannbekken" />
		<tag k="ssr:stedsnr" v="962584" />
		<tag k="waterway" v="stream" />
	</node>
	<node lat="69.18603888619475" lon="17.71737498554143" id="-39354">
		<tag k="name" v="Bostadkjosen" />
		<tag k="natural" v="bay" />
		<tag k="ssr:stedsnr" v="963697" />
	</node>
	<node lat="69.09038889303498" lon="17.198949994393516" id="-39381">
		<tag k="name" v="Sandelva" />
		<tag k="ssr:stedsnr" v="18041" />
		<tag k="waterway" v="stream" />
	</node>
	<node lat="69.10011591355027" lon="16.948813286686793" id="-39382">
		<tag k="name" v="Blyfjordvatnet" />
		<tag k="natural" v="water" />
		<tag k="ssr:stedsnr" v="18047" />
		<tag k="water" v="lake" />
	</node>
	<node lat="69.22731944171511" lon="17.18526943125742" id="-39395">
		<tag k="name" v="Kvænvatnet" />
		<tag k="natural" v="water" />
		<tag k="ssr:stedsnr" v="18169" />
		<tag k="water" v="lake" />
	</node>
	<node lat="69.13287500293043" lon="17.126880553898186" id="-39397">
		<tag k="name" v="Durmålsvatnet" />
		<tag k="natural" v="water" />
		<tag k="ssr:stedsnr" v="18174" />
	</node>
	<node lat="69.12185555742221" lon="17.23592500326656" id="-39402">
		<tag k="name" v="Vassvikelva" />
		<tag k="ssr:stedsnr" v="18192" />
		<tag k="waterway" v="river" />
	</node>
	<node lat="69.48906111212816" lon="17.817522232039106" id="-39407">
		<tag k="name" v="Huselva - Goahtejohka" />
		<tag k="name:no" v="Huselva" />
		<tag k="name:se" v="Goahtejohka" />
		<tag k="old_name:se" v="Goattejåkka" />
		<tag k="ssr:stedsnr" v="18346" />
		<tag k="waterway" v="river" />
	</node>
	<node lat="69.45599166727271" lon="17.918766658284323" id="-39408">
		<tag k="name" v="Lomvatnet" />
		<tag k="natural" v="water" />
		<tag k="ssr:stedsnr" v="18452" />
	</node>
	<node lat="69.25878333026074" lon="17.528316674016537" id="-39411">
		<tag k="name" v="Svanelva - Njukčajohka" />
		<tag k="name:no" v="Svanelva" />
		<tag k="name:se" v="Njukčajohka" />
		<tag k="ssr:stedsnr" v="18393" />
		<tag k="waterway" v="river" />
	</node>
	<node lat="69.45814999693152" lon="17.798374989071934" id="-39412">
		<tag k="name" v="Stordalselva" />
		<tag k="ssr:stedsnr" v="18419" />
		<tag k="waterway" v="river" />
	</node>
	<node lat="69.17392222432676" lon="17.64884444421456" id="-39413">
		<tag k="name" v="Bjørkkollvatnan" />
		<tag k="natural" v="water" />
		<tag k="ssr:stedsnr" v="18427" />
		<tag k="water" v="lake" />
	</node>
	<node lat="69.36062499700041" lon="17.737424992244875" id="-39418">
		<tag k="name" v="Heggevatnet" />
		<tag k="natural" v="water" />
		<tag k="ssr:stedsnr" v="18519" />
	</node>
	<node lat="69.32903055792725" lon="17.744972224950942" id="-39421">
		<tag k="name" v="Gunnarvatnet" />
		<tag k="natural" v="water" />
		<tag k="ssr:stedsnr" v="18544" />
	</node>
	<node lat="69.3773444456734" lon="18.18978332126002" id="-39422">
		<tag k="name" v="Kompuselva" />
		<tag k="ssr:stedsnr" v="18678" />
		<tag k="waterway" v="stream" />
	</node>
	<node lat="69.39016666325112" lon="18.03754167253145" id="-39427">
		<tag k="alt_name" v="Haneselva" />
		<tag k="name" v="Hanneselva" />
		<tag k="ssr:stedsnr" v="18636" />
		<tag k="waterway" v="stream" />
	</node>
	<node lat="69.33211666601196" lon="18.32954444200575" id="-39429">
		<tag k="alt_name" v="Bjørnhaugvatnet" />
		<tag k="name" v="Bjørnhågvatnet" />
		<tag k="natural" v="water" />
		<tag k="ssr:stedsnr" v="18724" />
	</node>
	<node lat="69.31514444420233" lon="18.05079999795894" id="-39430">
		<tag k="name" v="Skjellelva" />
		<tag k="ssr:stedsnr" v="18725" />
		<tag k="waterway" v="stream" />
	</node>
	<node lat="69.29659999795182" lon="18.234972229892836" id="-39431">
		<tag k="name" v="Rossfjordvatnet" />
		<tag k="natural" v="water" />
		<tag k="ssr:stedsnr" v="18726" />
		<tag k="water" v="lake" />
	</node>
</osm>
