<?xml version="1.0" encoding="UTF-8"?>
<osm generator="osmapis" version="0.6">
	<node id="-88063" lat="69.36773611" lon="17.0004833259">
		<tag k="name" v="Barbogen" />
		<tag k="place" v="hamlet" />
		<tag k="ssr:stedsnr" v="686295" />
	</node>
	<node id="-88057" lat="69.4831536321" lon="17.2865945185">
		<tag k="fixme" v="consider place=hamlet" />
		<tag k="name" v="Strandby" />
		<tag k="place" v="farm" />
		<tag k="ssr:stedsnr" v="686194" />
	</node>
	<node id="-88056" lat="69.0798972205" lon="16.9988527754">
		<tag k="fixme" v="consider place=hamlet" />
		<tag k="name" v="Å" />
		<tag k="place" v="village" />
		<tag k="ssr:stedsnr" v="686090" />
	</node>
	<node id="-88053" lat="69.3767555517" lon="18.0989305604">
		<tag k="name" v="Slettnes" />
		<tag k="place" v="farm" />
		<tag k="ssr:stedsnr" v="686035" />
	</node>
	<node id="-88049" lat="69.0739555544" lon="16.788583321">
		<tag k="name" v="Olfinnvika" />
		<tag k="place" v="farm" />
		<tag k="ssr:stedsnr" v="515103" />
	</node>
	<node id="-88048" lat="69.2987249985" lon="17.9965055486">
		<tag k="name" v="Storelvneset" />
		<tag k="place" v="farm" />
		<tag k="ssr:stedsnr" v="515102" />
	</node>
	<node id="-88045" lat="69.2188345822" lon="18.0944878717">
		<tag k="alt_name" v="Finnfjord" />
		<tag k="fixme" v="consider place=hamlet" />
		<tag k="name" v="Finnfjorden" />
		<tag k="place" v="farm" />
		<tag k="ssr:stedsnr" v="685661" />
	</node>
	<node id="-88044" lat="69.2646138904" lon="17.632430563">
		<tag k="name" v="Rydningen" />
		<tag k="place" v="farm" />
		<tag k="ssr:stedsnr" v="685588" />
	</node>
	<node id="-88043" lat="69.4065971074" lon="17.8612881352">
		<tag k="alt_name" v="Ellaheimen" />
		<tag k="fixme" v="consider place=hamlet" />
		<tag k="name" v="Ellaheim" />
		<tag k="place" v="farm" />
		<tag k="ssr:stedsnr" v="685519" />
	</node>
	<node id="-88038" lat="69.4968583333" lon="17.4897888827">
		<tag k="alt_name" v="Senjehopen" />
		<tag k="name" v="Senjahopen" />
		<tag k="place" v="village" />
		<tag k="ssr:stedsnr" v="685451" />
	</node>
	<node id="-88024" lat="69.1915944478" lon="17.0349194429">
		<tag k="name" v="Langslett" />
		<tag k="place" v="farm" />
		<tag k="ssr:stedsnr" v="685142" />
	</node>
	<node id="-92119" lat="69.3112289132" lon="18.2207933789">
		<tag k="fixme" v="consider place=hamlet" />
		<tag k="name" v="Langnesbukt" />
		<tag k="place" v="farm" />
		<tag k="ssr:stedsnr" v="595690" />
	</node>
	<node id="-88019" lat="69.0759361105" lon="16.9676500029">
		<tag k="name" v="Finnelv" />
		<tag k="place" v="farm" />
		<tag k="ssr:stedsnr" v="685056" />
	</node>
	<node id="-88016" lat="69.067916665" lon="17.1913750037">
		<tag k="name" v="Stranda" />
		<tag k="place" v="farm" />
		<tag k="ssr:stedsnr" v="685039" />
	</node>
	<node id="-88011" lat="69.2075250006" lon="17.4141750013">
		<tag k="alt_name" v="Skogli" />
		<tag k="name" v="Skoglia" />
		<tag k="place" v="isolated_dwelling" />
		<tag k="ssr:stedsnr" v="685129" />
	</node>
	<node id="-88006" lat="69.5002472219" lon="17.8689722279">
		<tag k="name" v="Heimdal" />
		<tag k="place" v="isolated_dwelling" />
		<tag k="ssr:stedsnr" v="504672" />
	</node>
	<node id="-88005" lat="69.4407559772" lon="17.4687305439">
		<tag k="fixme" v="consider place=hamlet" />
		<tag k="name" v="Bergsbotn" />
		<tag k="place" v="farm" />
		<tag k="ssr:stedsnr" v="504461" />
	</node>
	<node id="-88002" lat="69.1614638902" lon="17.5850916668">
		<tag k="name" v="Stranda" />
		<tag k="place" v="farm" />
		<tag k="ssr:stedsnr" v="504281" />
	</node>
	<node id="-87999" lat="69.1517777761" lon="17.4847750002">
		<tag k="alt_name" v="Refsnes" />
		<tag k="name" v="Revsnes" />
		<tag k="place" v="farm" />
		<tag k="ssr:stedsnr" v="504271" />
	</node>
	<node id="-92094" lat="69.4380083293" lon="18.0464611136">
		<tag k="name" v="Moen" />
		<tag k="place" v="farm" />
		<tag k="ssr:stedsnr" v="594652" />
	</node>
	<node id="-92093" lat="69.2932638882" lon="17.8243972126">
		<tag k="name" v="Lamo" />
		<tag k="place" v="isolated_dwelling" />
		<tag k="ssr:stedsnr" v="594649" />
	</node>
	<node id="-87996" lat="69.3428750011" lon="18.2872305583">
		<tag k="name" v="Lindgård" />
		<tag k="place" v="farm" />
		<tag k="ssr:stedsnr" v="503716" />
	</node>
	<node id="-86687" lat="69.2585000018" lon="18.1784500058">
		<tag k="name" v="Kolstad" />
		<tag k="place" v="farm" />
		<tag k="ssr:stedsnr" v="261809" />
	</node>
	<node id="-87988" lat="69.5183111107" lon="17.4378638851">
		<tag k="loc_name" v="Medfjorden" />
		<tag k="name" v="Mefjord" />
		<tag k="place" v="farm" />
		<tag k="ssr:stedsnr" v="485573" />
	</node>
	<node id="-90019" lat="69.3647555513" lon="18.4954583395">
		<tag k="name" v="Sultindvik ytre" />
		<tag k="place" v="farm" />
		<tag k="ssr:stedsnr" v="111837" />
	</node>
	<node id="-87961" lat="69.1149619185" lon="17.2751021701">
		<tag k="alt_name" v="Vassjord" />
		<tag k="fixme" v="multiple name tags, choose one and add the other to alt_name; consider place=hamlet" />
		<tag k="name" v="Vassvik;Vassjorda" />
		<tag k="place" v="farm" />
		<tag k="ssr:stedsnr" v="476468" />
	</node>
	<node id="-92052" lat="69.2488019438" lon="17.7076796539">
		<tag k="fixme" v="consider place=hamlet" />
		<tag k="name" v="Nerli" />
		<tag k="place" v="farm" />
		<tag k="ssr:stedsnr" v="593682" />
	</node>
	<node id="-92044" lat="69.2377971963" lon="17.7714676659">
		<tag k="alt_name" v="Grepsli" />
		<tag k="fixme" v="consider place=hamlet" />
		<tag k="name" v="Greppslia" />
		<tag k="place" v="farm" />
		<tag k="ssr:stedsnr" v="593545" />
	</node>
	<node id="-88725" lat="69.164594199" lon="17.8638200338">
		<tag k="name" v="Solberg" />
		<tag k="place" v="hamlet" />
		<tag k="ssr:stedsnr" v="898751" />
	</node>
	<node id="-89972" lat="69.464910887" lon="17.8454719644">
		<tag k="alt_name" v="Galnslått" />
		<tag k="fixme" v="consider place=hamlet" />
		<tag k="name" v="Galnslåtta" />
		<tag k="place" v="farm" />
		<tag k="ssr:stedsnr" v="109337" />
	</node>
	<node id="-92017" lat="69.2361111103" lon="18.0488777718">
		<tag k="name" v="Skogen" />
		<tag k="place" v="suburb" />
		<tag k="ssr:stedsnr" v="572979" />
	</node>
	<node id="-92016" lat="69.4108583317" lon="17.9975999908">
		<tag k="name" v="Indre Årnes" />
		<tag k="place" v="hamlet" />
		<tag k="ssr:stedsnr" v="572960" />
	</node>
	<node id="-92012" lat="69.3868668712" lon="17.1082566905">
		<tag k="name" v="Ballesvika" />
		<tag k="place" v="farm" />
		<tag k="ssr:stedsnr" v="566743" />
	</node>
	<node id="-92009" lat="69.2066222258" lon="17.6080361083">
		<tag k="name" v="Minde" />
		<tag k="place" v="farm" />
		<tag k="ssr:stedsnr" v="566263" />
	</node>
	<node id="-92007" lat="69.2430916707" lon="17.9879361067">
		<tag k="name" v="Nygård" />
		<tag k="place" v="quarter" />
		<tag k="ssr:stedsnr" v="566233" />
	</node>
	<node id="-91996" lat="69.301665506" lon="18.273138138">
		<tag k="fixme" v="consider place=hamlet" />
		<tag k="name" v="Seljebakken" />
		<tag k="place" v="farm" />
		<tag k="ssr:stedsnr" v="564801" />
	</node>
	<node id="-87896" lat="69.2429722181" lon="17.6185500024">
		<tag k="name" v="Åsland" />
		<tag k="place" v="farm" />
		<tag k="ssr:stedsnr" v="659671" />
	</node>
	<node id="-87895" lat="69.241358336" lon="17.6220250096">
		<tag k="name" v="Bjørkli" />
		<tag k="place" v="farm" />
		<tag k="ssr:stedsnr" v="659669" />
	</node>
	<node id="-91990" lat="69.3375777743" lon="18.2856833188">
		<tag k="name" v="Solheim" />
		<tag k="place" v="farm" />
		<tag k="ssr:stedsnr" v="564762" />
	</node>
	<node id="-91987" lat="69.3647727566" lon="18.4936143676">
		<tag k="alt_name" v="Sultindvik, ytre" />
		<tag k="fixme" v="consider place=hamlet" />
		<tag k="name" v="Ytre Sultindvik" />
		<tag k="place" v="farm" />
		<tag k="ssr:stedsnr" v="564739" />
	</node>
	<node id="-91984" lat="69.3519416638" lon="18.2924305382">
		<tag k="name" v="Lauknes" />
		<tag k="place" v="farm" />
		<tag k="ssr:stedsnr" v="564736" />
	</node>
	<node id="-91982" lat="69.3735388888" lon="18.3173138726">
		<tag k="name" v="Konsen" />
		<tag k="place" v="farm" />
		<tag k="ssr:stedsnr" v="564716" />
	</node>
	<node id="-91981" lat="69.3462944427" lon="18.2626027799">
		<tag k="name" v="Rokstad" />
		<tag k="place" v="farm" />
		<tag k="ssr:stedsnr" v="564700" />
	</node>
	<node id="-91979" lat="69.3562833361" lon="18.2874083393">
		<tag k="name" v="Finnlanes" />
		<tag k="place" v="farm" />
		<tag k="ssr:stedsnr" v="564697" />
	</node>
	<node id="-91974" lat="69.4327500039" lon="18.0702833306">
		<tag k="name" v="Hermannsvik" />
		<tag k="place" v="isolated_dwelling" />
		<tag k="ssr:stedsnr" v="564664" />
	</node>
	<node id="-91970" lat="69.4205749989" lon="17.9994749995">
		<tag k="name" v="Lanes" />
		<tag k="place" v="isolated_dwelling" />
		<tag k="ssr:stedsnr" v="564648" />
	</node>
	<node id="-91969" lat="69.2533916688" lon="17.9605944464">
		<tag k="name" v="Olsborg" />
		<tag k="place" v="isolated_dwelling" />
		<tag k="ssr:stedsnr" v="564641" />
	</node>
	<node id="-91965" lat="69.2632750022" lon="17.7181472121">
		<tag k="name" v="Haukåsen" />
		<tag k="place" v="farm" />
		<tag k="ssr:stedsnr" v="564589" />
	</node>
	<node id="-91963" lat="69.3004944403" lon="17.9108249989">
		<tag k="name" v="Skogrud" />
		<tag k="place" v="farm" />
		<tag k="ssr:stedsnr" v="564579" />
	</node>
	<node id="-91961" lat="69.3691527734" lon="17.8430222251">
		<tag k="name" v="Austgård" />
		<tag k="place" v="farm" />
		<tag k="ssr:stedsnr" v="564567" />
	</node>
	<node id="-91960" lat="69.3691792926" lon="17.8334247273">
		<tag k="alt_name" v="Prestbakke" />
		<tag k="name" v="Prestbakken" />
		<tag k="place" v="farm" />
		<tag k="ssr:stedsnr" v="564566" />
	</node>
	<node id="-89911" lat="69.3714715114" lon="18.1109129479">
		<tag k="fixme" v="consider place=hamlet" />
		<tag k="name" v="Slettnes" />
		<tag k="place" v="farm" />
		<tag k="ssr:stedsnr" v="90904" />
	</node>
	<node id="-91954" lat="69.2052138909" lon="17.8117416683">
		<tag k="name" v="Fagerli" />
		<tag k="place" v="farm" />
		<tag k="ssr:stedsnr" v="564511" />
	</node>
	<node id="-91953" lat="69.1983527802" lon="17.7880694502">
		<tag k="name" v="Grindmoen" />
		<tag k="place" v="farm" />
		<tag k="ssr:stedsnr" v="564508" />
	</node>
	<node id="-89900" lat="69.2243125027" lon="18.2499806927">
		<tag k="fixme" v="consider place=hamlet" />
		<tag k="name" v="Blomli" />
		<tag k="place" v="farm" />
		<tag k="ssr:stedsnr" v="89969" />
	</node>
	<node id="-91947" lat="69.1697472202" lon="17.7417833239">
		<tag k="alt_name" v="Vangsvik" />
		<tag k="fixme" v="consider place=hamlet" />
		<tag k="name" v="Vangsvika" />
		<tag k="place" v="village" />
		<tag k="ssr:stedsnr" v="564461" />
	</node>
	<node id="-91946" lat="69.1630749966" lon="17.7899722089">
		<tag k="fixme" v="consider place=hamlet" />
		<tag k="name" v="Bårdsletta" />
		<tag k="place" v="farm" />
		<tag k="ssr:stedsnr" v="564458" />
	</node>
	<node id="-89897" lat="69.4437440506" lon="17.9861217486">
		<tag k="alt_name" v="Lysnes ytre" />
		<tag k="fixme" v="consider place=hamlet" />
		<tag k="name" v="Ytre Lysnes" />
		<tag k="place" v="farm" />
		<tag k="ssr:stedsnr" v="86333" />
	</node>
	<node id="-89892" lat="69.4665361086" lon="17.2310027781">
		<tag k="name" v="Bøvær" />
		<tag k="place" v="hamlet" />
		<tag k="ssr:stedsnr" v="81393" />
	</node>
	<node id="-87842" lat="69.0514777737" lon="17.1676166638">
		<tag k="name" v="Nordås" />
		<tag k="place" v="farm" />
		<tag k="ssr:stedsnr" v="443105" />
	</node>
	<node id="-91937" lat="69.2390694439" lon="17.8810500087">
		<tag k="name" v="Molund" />
		<tag k="place" v="farm" />
		<tag k="ssr:stedsnr" v="564430" />
	</node>
	<node id="-87839" lat="69.0558833307" lon="16.8870166727">
		<tag k="alt_name" v="Skjervika" />
		<tag k="name" v="Skjærvik" />
		<tag k="place" v="farm" />
		<tag k="ssr:stedsnr" v="443023" />
	</node>
	<node id="-91933" lat="69.2375333333" lon="17.8603944474">
		<tag k="name" v="Botn" />
		<tag k="place" v="farm" />
		<tag k="ssr:stedsnr" v="564421" />
	</node>
	<node id="-91931" lat="69.2252583324" lon="17.481769433">
		<tag k="name" v="Fosslund" />
		<tag k="place" v="farm" />
		<tag k="ssr:stedsnr" v="564413" />
	</node>
	<node id="-91929" lat="69.4967888929" lon="17.8570527687">
		<tag k="fixme" v="consider place=hamlet" />
		<tag k="name" v="Botnhamn" />
		<tag k="place" v="village" />
		<tag k="ssr:stedsnr" v="564402" />
	</node>
	<node id="-91928" lat="69.2804138914" lon="17.074255563">
		<tag k="name" v="Veidmannsbotn" />
		<tag k="place" v="hamlet" />
		<tag k="ssr:stedsnr" v="564390" />
	</node>
	<node id="-91926" lat="69.2749387367" lon="17.0372288371">
		<tag k="fixme" v="consider place=hamlet" />
		<tag k="name" v="Veidmannen" />
		<tag k="place" v="farm" />
		<tag k="ssr:stedsnr" v="564379" />
	</node>
	<node id="-89877" lat="69.3063423172" lon="18.0021788639">
		<tag k="fixme" v="consider place=hamlet" />
		<tag k="name" v="Leiknes" />
		<tag k="place" v="farm" />
		<tag k="ssr:stedsnr" v="79776" />
	</node>
	<node id="-89876" lat="69.3148500016" lon="18.4977777789">
		<tag k="name" v="Steinheim" />
		<tag k="place" v="farm" />
		<tag k="ssr:stedsnr" v="79772" />
	</node>
	<node id="-89874" lat="69.3022083375" lon="17.9965638814">
		<tag k="fixme" v="consider place=hamlet" />
		<tag k="name" v="Leiknes" />
		<tag k="place" v="village" />
		<tag k="ssr:stedsnr" v="79763" />
	</node>
	<node id="-89871" lat="69.3407083288" lon="18.2854027816">
		<tag k="name" v="Lindås" />
		<tag k="place" v="farm" />
		<tag k="ssr:stedsnr" v="79745" />
	</node>
	<node id="-90289" lat="69.4074749969" lon="17.2878110991">
		<tag k="name" v="Straumsnes" />
		<tag k="place" v="farm" />
		<tag k="ssr:stedsnr" v="149242" />
	</node>
	<node id="-91306" lat="69.1904194421" lon="17.4390333277">
		<tag k="name" v="Grunnvåg" />
		<tag k="place" v="farm" />
		<tag k="ssr:stedsnr" v="384228" />
	</node>
	<node id="-91914" lat="69.1625547301" lon="17.6014382474">
		<tag k="alt_name" v="Skatvik" />
		<tag k="fixme" v="consider place=hamlet" />
		<tag k="name" v="Skatvika" />
		<tag k="place" v="farm" />
		<tag k="ssr:stedsnr" v="564297" />
	</node>
	<node id="-91912" lat="69.1527166713" lon="17.6113055486">
		<tag k="name" v="Mølnevika" />
		<tag k="place" v="farm" />
		<tag k="ssr:stedsnr" v="564287" />
	</node>
	<node id="-91910" lat="69.4478527738" lon="17.2953666652">
		<tag k="name" v="Berg" />
		<tag k="place" v="farm" />
		<tag k="ssr:stedsnr" v="564282" />
	</node>
	<node id="-89860" lat="69.4184027795" lon="18.3591249947">
		<tag k="name" v="Kveldro" />
		<tag k="place" v="farm" />
		<tag k="ssr:stedsnr" v="79668" />
	</node>
	<node id="-91906" lat="69.4670984153" lon="17.234000493">
		<tag k="fixme" v="consider place=hamlet" />
		<tag k="name" v="Bø" />
		<tag k="place" v="farm" />
		<tag k="ssr:stedsnr" v="564266" />
	</node>
	<node id="-91903" lat="69.407092712" lon="17.3332876562">
		<tag k="alt_name" v="Lavoll" />
		<tag k="fixme" v="consider place=hamlet" />
		<tag k="name" v="Lavollen" />
		<tag k="place" v="farm" />
		<tag k="ssr:stedsnr" v="564257" />
	</node>
	<node id="-89850" lat="69.2737555526" lon="17.7890027755">
		<tag k="alt_name" v="Seljemoen, nedre;Seljemoen" />
		<tag k="name" v="Nedre Seljemoen" />
		<tag k="place" v="farm" />
		<tag k="ssr:stedsnr" v="79586" />
	</node>
	<node id="-89849" lat="69.2831361087" lon="17.7255277825">
		<tag k="name" v="Steinsrud" />
		<tag k="place" v="farm" />
		<tag k="ssr:stedsnr" v="79578" />
	</node>
	<node id="-89848" lat="69.2665273863" lon="17.9383099886">
		<tag k="fixme" v="consider place=hamlet" />
		<tag k="name" v="Finnjorda" />
		<tag k="place" v="farm" />
		<tag k="ssr:stedsnr" v="79574" />
	</node>
	<node id="-91891" lat="69.0292805533" lon="17.2283444445">
		<tag k="name" v="Nordheim" />
		<tag k="place" v="farm" />
		<tag k="ssr:stedsnr" v="564057" />
	</node>
	<node id="-91890" lat="69.2099972246" lon="18.0733999934">
		<tag k="name" v="Øyjorda" />
		<tag k="place" v="farm" />
		<tag k="ssr:stedsnr" v="563741" />
	</node>
	<node id="-89840" lat="69.1949888847" lon="17.9324833305">
		<tag k="name" v="Lunde" />
		<tag k="place" v="farm" />
		<tag k="ssr:stedsnr" v="79475" />
	</node>
	<node id="-89839" lat="69.4590769464" lon="17.89342895">
		<tag k="fixme" v="consider place=hamlet" />
		<tag k="name" v="Yttergård" />
		<tag k="place" v="farm" />
		<tag k="ssr:stedsnr" v="79471" />
	</node>
	<node id="-89833" lat="69.4520191176" lon="17.8308917832">
		<tag k="fixme" v="consider place=hamlet" />
		<tag k="name" v="Elverland" />
		<tag k="place" v="farm" />
		<tag k="ssr:stedsnr" v="79430" />
	</node>
	<node id="-86993" lat="69.1641111072" lon="17.6006333371">
		<tag k="name" v="Øverlandet" />
		<tag k="place" v="farm" />
		<tag k="ssr:stedsnr" v="294979" />
	</node>
	<node id="-91876" lat="69.1357027798" lon="17.3171416694">
		<tag k="name" v="Nygård" />
		<tag k="place" v="farm" />
		<tag k="ssr:stedsnr" v="563196" />
	</node>
	<node id="-91871" lat="69.1915666664" lon="17.0445638852">
		<tag k="name" v="Vollen" />
		<tag k="place" v="farm" />
		<tag k="ssr:stedsnr" v="563157" />
	</node>
	<node id="-87765" lat="69.2115807176" lon="18.0797952239">
		<tag k="alt_name" v="Øyjord" />
		<tag k="fixme" v="consider place=hamlet" />
		<tag k="name" v="Øyjorda" />
		<tag k="place" v="farm" />
		<tag k="ssr:stedsnr" v="512849" />
	</node>
	<node id="-91860" lat="69.0550111153" lon="16.8415777818">
		<tag k="name" v="Rydningen" />
		<tag k="place" v="farm" />
		<tag k="ssr:stedsnr" v="563109" />
	</node>
	<node id="-89531" lat="69.2022083345" lon="17.6504083259">
		<tag k="name" v="Fagerbakken" />
		<tag k="place" v="farm" />
		<tag k="ssr:stedsnr" v="19471" />
	</node>
	<node id="-91857" lat="69.0749166647" lon="17.0185277756">
		<tag k="name" v="Åhamn" />
		<tag k="place" v="farm" />
		<tag k="ssr:stedsnr" v="563045" />
	</node>
	<node id="-91856" lat="69.0770444422" lon="17.0157805412">
		<tag k="alt_name" v="Grønvik" />
		<tag k="name" v="Grønvika" />
		<tag k="place" v="isolated_dwelling" />
		<tag k="ssr:stedsnr" v="563044" />
	</node>
	<node id="-89802" lat="69.0834750005" lon="17.1745444389">
		<tag k="fixme" v="consider place=hamlet" />
		<tag k="name" v="Stonglandseidet" />
		<tag k="place" v="village" />
		<tag k="ssr:stedsnr" v="79061" />
	</node>
	<node id="-88694" lat="69.3510266017" lon="18.0076080104">
		<tag k="alt_name" v="Landøy" />
		<tag k="fixme" v="consider place=hamlet" />
		<tag k="name" v="Landøya" />
		<tag k="place" v="farm" />
		<tag k="ssr:stedsnr" v="897946" />
	</node>
	<node id="-87746" lat="69.2721694471" lon="17.937852766">
		<tag k="name" v="Skoghus" />
		<tag k="ssr:stedsnr" v="506245" />
		<tag k="tourism" v="camp_site" />
	</node>
	<node id="-86645" lat="69.2599798454" lon="17.6156716954">
		<tag k="alt_name" v="Sørli, vestre;Vestre Sørli" />
		<tag k="fixme" v="consider place=hamlet" />
		<tag k="name" v="Sørli" />
		<tag k="place" v="farm" />
		<tag k="ssr:stedsnr" v="261600" />
	</node>
	<node id="-87739" lat="69.5581888854" lon="17.5875388749">
		<tag k="alt_name" v="Øyfjord" />
		<tag k="name" v="Øyfjordvær" />
		<tag k="place" v="hamlet" />
		<tag k="ssr:stedsnr" v="504845" />
	</node>
	<node id="-87732" lat="69.3153131856" lon="18.2948551698">
		<tag k="fixme" v="consider place=hamlet" />
		<tag k="name" v="Tårnelvmoen" />
		<tag k="place" v="farm" />
		<tag k="ssr:stedsnr" v="504787" />
	</node>
	<node id="-87731" lat="69.3183333332" lon="18.4968472086">
		<tag k="name" v="Nyborg" />
		<tag k="place" v="farm" />
		<tag k="ssr:stedsnr" v="504785" />
	</node>
	<node id="-87730" lat="69.3281388882" lon="18.4882750036">
		<tag k="name" v="Sandneshamn" />
		<tag k="place" v="farm" />
		<tag k="ssr:stedsnr" v="504780" />
	</node>
	<node id="-87726" lat="69.3509749999" lon="18.1138555599">
		<tag k="name" v="Karlsrud" />
		<tag k="place" v="farm" />
		<tag k="ssr:stedsnr" v="504717" />
	</node>
	<node id="-88234" lat="69.3678777782" lon="18.3091277772">
		<tag k="name" v="Nordmo" />
		<tag k="place" v="farm" />
		<tag k="ssr:stedsnr" v="564708" />
	</node>
	<node id="-87722" lat="69.4565180214" lon="17.9982138921">
		<tag k="alt_name" v="Jernsletta;Jernslett" />
		<tag k="fixme" v="consider place=hamlet" />
		<tag k="name" v="Jarsletta" />
		<tag k="place" v="farm" />
		<tag k="ssr:stedsnr" v="504637" />
	</node>
	<node id="-87721" lat="69.2731944437" lon="17.8844944536">
		<tag k="name" v="Vika" />
		<tag k="place" v="farm" />
		<tag k="ssr:stedsnr" v="504622" />
	</node>
	<node id="-87719" lat="69.2804333343" lon="17.7224916693">
		<tag k="alt_name" v="Leirbekkmoen" />
		<tag k="name" v="Øvre Leirbekkmoen" />
		<tag k="place" v="farm" />
		<tag k="ssr:stedsnr" v="504611" />
	</node>
	<node id="-87717" lat="69.2992333297" lon="17.7486055486">
		<tag k="name" v="Tverråsen" />
		<tag k="place" v="farm" />
		<tag k="ssr:stedsnr" v="504571" />
	</node>
	<node id="-87716" lat="69.346266671" lon="17.9890472236">
		<tag k="name" v="Rydningen" />
		<tag k="place" v="farm" />
		<tag k="ssr:stedsnr" v="504547" />
	</node>
	<node id="-87714" lat="69.4694067463" lon="17.6867171659">
		<tag k="fixme" v="consider place=hamlet" />
		<tag k="name" v="Mefjordbotn" />
		<tag k="place" v="farm" />
		<tag k="ssr:stedsnr" v="504499" />
	</node>
	<node id="-87713" lat="69.2017833354" lon="17.7868416756">
		<tag k="name" v="Øverslått" />
		<tag k="place" v="hamlet" />
		<tag k="ssr:stedsnr" v="504493" />
	</node>
	<node id="-87710" lat="69.165097223" lon="17.8197861205">
		<tag k="name" v="Bakken" />
		<tag k="place" v="farm" />
		<tag k="ssr:stedsnr" v="504446" />
	</node>
	<node id="-87707" lat="69.4494277743" lon="17.8867333291">
		<tag k="name" v="Indergård" />
		<tag k="place" v="farm" />
		<tag k="ssr:stedsnr" v="504433" />
	</node>
	<node id="-87702" lat="69.2370444483" lon="17.813880547">
		<tag k="name" v="Myrhaugen" />
		<tag k="place" v="farm" />
		<tag k="ssr:stedsnr" v="504404" />
	</node>
	<node id="-87700" lat="69.2806841844" lon="17.0530222219">
		<tag k="fixme" v="consider place=hamlet" />
		<tag k="name" v="Medby" />
		<tag k="place" v="farm" />
		<tag k="ssr:stedsnr" v="504369" />
	</node>
	<node id="-89747" lat="69.0389694432" lon="17.0494972319">
		<tag k="name" v="Bakken" />
		<tag k="place" v="farm" />
		<tag k="ssr:stedsnr" v="52623" />
	</node>
	<node id="-87698" lat="69.2853499993" lon="17.1477277668">
		<tag k="fixme" v="consider place=hamlet" />
		<tag k="name" v="Sifjord" />
		<tag k="place" v="village" />
		<tag k="ssr:stedsnr" v="504365" />
	</node>
	<node id="-89742" lat="69.2613222186" lon="17.0609888869">
		<tag k="name" v="Hulderbyen" />
		<tag k="place" v="locality" />
		<tag k="ssr:stedsnr" v="52491" />
	</node>
	<node id="-87690" lat="69.3865805517" lon="17.4089611012">
		<tag k="alt_name" v="Håverjord;Håversjorda" />
		<tag k="name" v="Håverjorda" />
		<tag k="place" v="farm" />
		<tag k="ssr:stedsnr" v="504338" />
	</node>
	<node id="-89732" lat="69.0824861079" lon="17.1692527635">
		<tag k="fixme" v="multiple name tags, choose one and add the other to alt_name; consider place=hamlet" />
		<tag k="name" v="Eidet;Stonglandseidet" />
		<tag k="place" v="farm" />
		<tag k="ssr:stedsnr" v="52243" />
	</node>
	<node id="-92095" lat="69.2939222225" lon="17.776524998">
		<tag k="name" v="Fagerli" />
		<tag k="place" v="farm" />
		<tag k="ssr:stedsnr" v="594660" />
	</node>
	<node id="-87672" lat="69.3356083366" lon="18.2870305469">
		<tag k="name" v="Lauvli" />
		<tag k="place" v="farm" />
		<tag k="ssr:stedsnr" v="503728" />
	</node>
	<node id="-87671" lat="69.3800250004" lon="18.331849995">
		<tag k="name" v="Rotnes" />
		<tag k="place" v="farm" />
		<tag k="ssr:stedsnr" v="503696" />
	</node>
	<node id="-91764" lat="69.0817083312" lon="17.1781388815">
		<tag k="name" v="Sellevoll" />
		<tag k="place" v="farm" />
		<tag k="ssr:stedsnr" v="537257" />
	</node>
	<node id="-87667" lat="69.4657227913" lon="18.0098366212">
		<tag k="alt_name" v="Skardsvåg" />
		<tag k="fixme" v="consider place=hamlet" />
		<tag k="name" v="Skarsvåg" />
		<tag k="place" v="farm" />
		<tag k="ssr:stedsnr" v="503601" />
	</node>
	<node id="-87666" lat="69.266041665" lon="17.7419638748">
		<tag k="name" v="Høgset" />
		<tag k="place" v="farm" />
		<tag k="ssr:stedsnr" v="503572" />
	</node>
	<node id="-90045" lat="69.0911361128" lon="16.9438805671">
		<tag k="name" v="Gammen" />
		<tag k="place" v="locality" />
		<tag k="ssr:stedsnr" v="112587" />
	</node>
	<node id="-87656" lat="69.2470163589" lon="17.7192403878">
		<tag k="alt_name" v="Høgli" />
		<tag k="fixme" v="consider place=hamlet" />
		<tag k="name" v="Høglia" />
		<tag k="place" v="farm" />
		<tag k="ssr:stedsnr" v="503410" />
	</node>
	<node id="-92869" lat="69.0392666624" lon="17.1850111204">
		<tag k="name" v="Skogvang" />
		<tag k="place" v="farm" />
		<tag k="ssr:stedsnr" v="807132" />
	</node>
	<node id="-87630" lat="69.4445472217" lon="17.2983027757">
		<tag k="fixme" v="consider place=hamlet" />
		<tag k="name" v="Skaland" />
		<tag k="place" v="village" />
		<tag k="ssr:stedsnr" v="503288" />
	</node>
	<node id="-87629" lat="69.0819157062" lon="17.0072225413">
		<tag k="alt_name" v="Å, austre" />
		<tag k="name" v="Austre Å" />
		<tag k="place" v="farm" />
		<tag k="ssr:stedsnr" v="503050" />
	</node>
	<node id="-91722" lat="69.4703750039" lon="18.3157472211">
		<tag k="historic" v="shieling" />
		<tag k="name" v="Hulderstua" />
		<tag k="place" v="locality" />
		<tag k="ssr:stedsnr" v="535894" />
	</node>
	<node id="-87624" lat="69.0560388923" lon="17.0849472229">
		<tag k="name" v="Bakken" />
		<tag k="place" v="farm" />
		<tag k="ssr:stedsnr" v="503011" />
	</node>
	<node id="-87621" lat="69.5174305558" lon="17.7124972152">
		<tag k="alt_name" v="Husa, in" />
		<tag k="name" v="Indre Husa" />
		<tag k="place" v="isolated_dwelling" />
		<tag k="ssr:stedsnr" v="382821" />
	</node>
	<node id="-93618" lat="69.3392972074" lon="17.1017548683">
		<tag k="fixme" v="consider place=hamlet" />
		<tag k="name" v="Torsken" />
		<tag k="place" v="farm" />
		<tag k="ssr:stedsnr" v="1077801" />
	</node>
	<node id="-87619" lat="69.5153611076" lon="17.9104527623">
		<tag k="name" v="Haugen" />
		<tag k="place" v="farm" />
		<tag k="ssr:stedsnr" v="382814" />
	</node>
	<node id="-87618" lat="69.2678694447" lon="18.1934361088">
		<tag k="name" v="Vassenden" />
		<tag k="place" v="hamlet" />
		<tag k="ssr:stedsnr" v="382809" />
	</node>
	<node id="-87616" lat="69.3310999975" lon="18.2420555543">
		<tag k="name" v="Solvang" />
		<tag k="place" v="farm" />
		<tag k="ssr:stedsnr" v="382753" />
	</node>
	<node id="-87615" lat="69.01635556" lon="17.1220194417">
		<tag k="name" v="Ryvoll" />
		<tag k="place" v="farm" />
		<tag k="ssr:stedsnr" v="502085" />
	</node>
	<node id="-86646" lat="69.2786111119" lon="17.7355472306">
		<tag k="name" v="Neråsen" />
		<tag k="place" v="farm" />
		<tag k="ssr:stedsnr" v="261607" />
	</node>
	<node id="-91709" lat="69.2847499968" lon="18.2095555404">
		<tag k="name" v="Øvre Vasshaug" />
		<tag k="place" v="farm" />
		<tag k="ssr:stedsnr" v="535730" />
	</node>
	<node id="-87601" lat="69.3591250004" lon="17.0861138916">
		<tag k="name" v="Sildvik" />
		<tag k="place" v="isolated_dwelling" />
		<tag k="ssr:stedsnr" v="349304" />
	</node>
	<node id="-91687" lat="69.2349972205" lon="18.0770388792">
		<tag k="historic" v="shieling" />
		<tag k="name" v="Stølen" />
		<tag k="place" v="locality" />
		<tag k="ssr:stedsnr" v="535479" />
	</node>
	<node id="-91682" lat="69.5407805544" lon="17.7927805564">
		<tag k="name" v="Holmstad" />
		<tag k="place" v="locality" />
		<tag k="ssr:stedsnr" v="534859" />
	</node>
	<node id="-89631" lat="69.2915694461" lon="17.7516055474">
		<tag k="name" v="Påveheimen" />
		<tag k="place" v="locality" />
		<tag k="ssr:stedsnr" v="48600" />
	</node>
	<node id="-91671" lat="69.2017444441" lon="17.7841472166">
		<tag k="name" v="Øverli" />
		<tag k="place" v="isolated_dwelling" />
		<tag k="ssr:stedsnr" v="533947" />
	</node>
	<node id="-87565" lat="69.4451888894" lon="17.3221083341">
		<tag k="name" v="Bjørnebo" />
		<tag k="place" v="farm" />
		<tag k="ssr:stedsnr" v="477838" />
	</node>
	<node id="-87556" lat="69.2757994089" lon="17.0357153992">
		<tag k="name" v="Veidmannen" />
		<tag k="place" v="farm" />
		<tag k="ssr:stedsnr" v="324336" />
	</node>
	<node id="-91648" lat="69.1992527733" lon="17.6947055628">
		<tag k="name" v="Molund" />
		<tag k="place" v="farm" />
		<tag k="ssr:stedsnr" v="533624" />
	</node>
	<node id="-87549" lat="69.4641444404" lon="17.3441944405">
		<tag k="name" v="Gammelgården" />
		<tag k="place" v="farm" />
		<tag k="ssr:stedsnr" v="477091" />
	</node>
	<node id="-87537" lat="69.3526138921" lon="17.4324555633">
		<tag k="fixme" v="consider place=hamlet" />
		<tag k="loc_name" v="Sollia" />
		<tag k="name" v="Solli" />
		<tag k="place" v="farm" />
		<tag k="ssr:stedsnr" v="476831" />
	</node>
	<node id="-89582" lat="69.233994442" lon="18.0831249991">
		<tag k="name" v="Kleiva" />
		<tag k="place" v="quarter" />
		<tag k="ssr:stedsnr" v="50424" />
	</node>
	<node id="-87526" lat="69.1702361087" lon="17.7279888867">
		<tag k="name" v="Hågen" />
		<tag k="place" v="farm" />
		<tag k="ssr:stedsnr" v="476724" />
	</node>
	<node id="-86609" lat="69.19998889" lon="17.7963555572">
		<tag k="fixme" v="consider place=hamlet" />
		<tag k="name" v="Solli" />
		<tag k="place" v="village" />
		<tag k="ssr:stedsnr" v="261506" />
	</node>
	<node id="-87523" lat="69.0547331092" lon="17.0772004929">
		<tag k="fixme" v="consider place=hamlet" />
		<tag k="name" v="Stonglandshals" />
		<tag k="place" v="farm" />
		<tag k="ssr:stedsnr" v="476718" />
	</node>
	<node id="-87291" lat="69.2460444441" lon="17.993372228">
		<tag k="name" v="Elverum" />
		<tag k="place" v="farm" />
		<tag k="ssr:stedsnr" v="454328" />
	</node>
	<node id="-89562" lat="69.0810249954" lon="17.1839222272">
		<tag k="name" v="Lynghaug" />
		<tag k="place" v="farm" />
		<tag k="ssr:stedsnr" v="29382" />
	</node>
	<node id="-87511" lat="69.2203916632" lon="17.6520027853">
		<tag k="name" v="Sætra" />
		<tag k="place" v="locality" />
		<tag k="ssr:stedsnr" v="476544" />
	</node>
	<node id="-91598" lat="69.406633334" lon="17.1587416559">
		<tag k="name" v="Havn" />
		<tag k="place" v="farm" />
		<tag k="ssr:stedsnr" v="425536" />
	</node>
	<node id="-87287" lat="69.3886611752" lon="18.0551078122">
		<tag k="fixme" v="consider place=hamlet" />
		<tag k="name" v="Hannes" />
		<tag k="old_name" v="Hanes" />
		<tag k="place" v="farm" />
		<tag k="ssr:stedsnr" v="451951" />
	</node>
	<node id="-89541" lat="69.2517972196" lon="18.1670611178">
		<tag k="fixme" v="consider place=hamlet" />
		<tag k="name" v="Finnfjordeidet" />
		<tag k="place" v="village" />
		<tag k="ssr:stedsnr" v="19840" />
	</node>
	<node id="-93632" lat="69.5459402179" lon="17.5977291589">
		<tag k="fixme" v="consider place=hamlet" />
		<tag k="name" v="Øyfjord" />
		<tag k="place" v="farm" />
		<tag k="ssr:stedsnr" v="1077891" />
	</node>
	<node id="-93631" lat="69.5086186181" lon="17.6170236419">
		<tag k="fixme" v="consider place=hamlet" />
		<tag k="name" v="Fjordgården" />
		<tag k="place" v="farm" />
		<tag k="ssr:stedsnr" v="1077890" />
	</node>
	<node id="-93630" lat="69.5319337186" lon="17.7811684688">
		<tag k="fixme" v="consider place=hamlet" />
		<tag k="name" v="Baltsfjord" />
		<tag k="place" v="farm" />
		<tag k="ssr:stedsnr" v="1077889" />
	</node>
	<node id="-93629" lat="69.5936343229" lon="17.8378609655">
		<tag k="alt_name" v="Hekkingen" />
		<tag k="fixme" v="consider place=hamlet" />
		<tag k="name" v="Hekkinga" />
		<tag k="place" v="farm" />
		<tag k="ssr:stedsnr" v="1077888" />
	</node>
	<node id="-93628" lat="69.5066210478" lon="17.8990127452">
		<tag k="fixme" v="consider place=hamlet" />
		<tag k="name" v="Botn" />
		<tag k="place" v="farm" />
		<tag k="ssr:stedsnr" v="1077887" />
	</node>
	<node id="-89674" lat="69.413372225" lon="18.3535444344">
		<tag k="name" v="Elvebakken" />
		<tag k="place" v="isolated_dwelling" />
		<tag k="ssr:stedsnr" v="50824" />
	</node>
	<node id="-93626" lat="69.4900782431" lon="17.9116160437">
		<tag k="name" v="Lanes" />
		<tag k="place" v="locality" />
		<tag k="ssr:stedsnr" v="1077885" />
	</node>
	<node id="-91577" lat="69.2634138887" lon="17.5339222139">
		<tag k="name" v="Roseniusgammen" />
		<tag k="place" v="locality" />
		<tag k="ssr:stedsnr" v="417663" />
	</node>
	<node id="-93624" lat="69.1897701916" lon="17.5535390026">
		<tag k="fixme" v="consider place=hamlet" />
		<tag k="name" v="Tranøy" />
		<tag k="place" v="farm" />
		<tag k="ssr:stedsnr" v="1077808" />
	</node>
	<node id="-93623" lat="69.2860320639" lon="17.1455239335">
		<tag k="fixme" v="consider place=hamlet" />
		<tag k="name" v="Sifjord" />
		<tag k="place" v="farm" />
		<tag k="ssr:stedsnr" v="1077806" />
	</node>
	<node id="-93622" lat="69.2798941878" lon="17.0743682169">
		<tag k="fixme" v="consider place=hamlet" />
		<tag k="name" v="Botn" />
		<tag k="place" v="farm" />
		<tag k="ssr:stedsnr" v="1077805" />
	</node>
	<node id="-93621" lat="69.2815480311" lon="16.9836265476">
		<tag k="fixme" v="consider place=hamlet" />
		<tag k="name" v="Kaldfarnes" />
		<tag k="place" v="farm" />
		<tag k="ssr:stedsnr" v="1077804" />
	</node>
	<node id="-93620" lat="69.3015657759" lon="16.9633974166">
		<tag k="fixme" v="consider place=hamlet" />
		<tag k="name" v="Grunnfarnes" />
		<tag k="place" v="farm" />
		<tag k="ssr:stedsnr" v="1077803" />
	</node>
	<node id="-93619" lat="69.267493327" lon="16.7941995108">
		<tag k="name" v="Ørja" />
		<tag k="place" v="locality" />
		<tag k="ssr:stedsnr" v="1077802" />
	</node>
	<node id="-91570" lat="69.1520555533" lon="17.6321055414">
		<tag k="name" v="Sedenesheimen" />
		<tag k="place" v="locality" />
		<tag k="ssr:stedsnr" v="416997" />
	</node>
	<node id="-93617" lat="69.3511755141" lon="17.1897668253">
		<tag k="alt_name" v="Gryllefjordbotten" />
		<tag k="fixme" v="consider place=hamlet" />
		<tag k="name" v="Gryllefjordbotn" />
		<tag k="place" v="farm" />
		<tag k="ssr:stedsnr" v="1077800" />
	</node>
	<node id="-93616" lat="69.3622125031" lon="17.0497956341">
		<tag k="fixme" v="consider place=hamlet" />
		<tag k="name" v="Gryllefjord" />
		<tag k="place" v="farm" />
		<tag k="ssr:stedsnr" v="1077799" />
	</node>
	<node id="-93615" lat="69.2153081556" lon="18.0630562465">
		<tag k="name" v="Finnfjordøya" />
		<tag k="place" v="locality" />
		<tag k="ssr:stedsnr" v="1077795" />
	</node>
	<node id="-93614" lat="69.2354532488" lon="17.9487302754">
		<tag k="name" v="Olaholmen" />
		<tag k="place" v="locality" />
		<tag k="ssr:stedsnr" v="1077794" />
	</node>
	<node id="-93613" lat="69.4099261294" lon="18.0022492846">
		<tag k="fixme" v="consider place=hamlet" />
		<tag k="name" v="Årnes" />
		<tag k="place" v="farm" />
		<tag k="ssr:stedsnr" v="1077792" />
	</node>
	<node id="-93612" lat="69.355832722" lon="18.0713536425">
		<tag k="fixme" v="consider place=hamlet" />
		<tag k="name" v="Gibostad" />
		<tag k="place" v="farm" />
		<tag k="ssr:stedsnr" v="1077791" />
	</node>
	<node id="-93611" lat="69.2934618863" lon="17.8310334188">
		<tag k="fixme" v="consider place=hamlet" />
		<tag k="name" v="Elvebakken" />
		<tag k="place" v="farm" />
		<tag k="ssr:stedsnr" v="1077790" />
	</node>
	<node id="-93610" lat="69.2951491276" lon="17.7943206659">
		<tag k="fixme" v="consider place=hamlet" />
		<tag k="name" v="Langhaugen" />
		<tag k="place" v="farm" />
		<tag k="ssr:stedsnr" v="1077789" />
	</node>
	<node id="-93609" lat="69.2727078984" lon="17.7748564288">
		<tag k="fixme" v="consider place=hamlet" />
		<tag k="name" v="Seljemoen" />
		<tag k="place" v="farm" />
		<tag k="ssr:stedsnr" v="1077788" />
	</node>
	<node id="-93608" lat="69.2704176429" lon="17.9008083702">
		<tag k="fixme" v="consider place=hamlet" />
		<tag k="name" v="Finnbotn" />
		<tag k="place" v="farm" />
		<tag k="ssr:stedsnr" v="1077787" />
	</node>
	<node id="-93607" lat="69.1953974149" lon="17.9432557125">
		<tag k="fixme" v="consider place=hamlet" />
		<tag k="name" v="Nordre Russevåg" />
		<tag k="place" v="farm" />
		<tag k="ssr:stedsnr" v="1077782" />
	</node>
	<node id="-93606" lat="69.2315439146" lon="18.0909779534">
		<tag k="fixme" v="consider place=hamlet" />
		<tag k="name" v="Finnfjordbotn" />
		<tag k="place" v="farm" />
		<tag k="ssr:stedsnr" v="1077781" />
	</node>
	<node id="-93605" lat="69.2371016373" lon="18.0196380938">
		<tag k="fixme" v="consider place=hamlet" />
		<tag k="name" v="Sandvika" />
		<tag k="place" v="farm" />
		<tag k="ssr:stedsnr" v="1077780" />
	</node>
	<node id="-93604" lat="69.2368313482" lon="18.0042084066">
		<tag k="fixme" v="consider place=hamlet" />
		<tag k="name" v="Finnsnes" />
		<tag k="place" v="farm" />
		<tag k="ssr:stedsnr" v="1077779" />
	</node>
	<node id="-93603" lat="69.270241172" lon="17.9976420879">
		<tag k="fixme" v="consider place=hamlet" />
		<tag k="name" v="Trollvika" />
		<tag k="place" v="farm" />
		<tag k="ssr:stedsnr" v="1077778" />
	</node>
	<node id="-93602" lat="69.4564617447" lon="18.350402992">
		<tag k="fixme" v="consider place=hamlet" />
		<tag k="name" v="Jøvik" />
		<tag k="place" v="farm" />
		<tag k="ssr:stedsnr" v="1077758" />
	</node>
	<node id="-93601" lat="69.4359415961" lon="18.3516382088">
		<tag k="fixme" v="consider place=hamlet" />
		<tag k="name" v="Skjæret" />
		<tag k="place" v="farm" />
		<tag k="ssr:stedsnr" v="1077757" />
	</node>
	<node id="-93600" lat="69.333825581" lon="18.2449686726">
		<tag k="fixme" v="consider place=hamlet" />
		<tag k="name" v="Rogstad" />
		<tag k="place" v="farm" />
		<tag k="ssr:stedsnr" v="1077749" />
	</node>
	<node id="-93599" lat="69.2529385253" lon="18.1651710717">
		<tag k="fixme" v="consider place=hamlet" />
		<tag k="name" v="Finnfjordeidet" />
		<tag k="place" v="farm" />
		<tag k="ssr:stedsnr" v="1077747" />
	</node>
	<node id="-93598" lat="69.3936087004" lon="18.3895893169">
		<tag k="fixme" v="consider place=hamlet" />
		<tag k="name" v="Rossfjord" />
		<tag k="place" v="farm" />
		<tag k="ssr:stedsnr" v="1077743" />
	</node>
	<node id="-93597" lat="69.3445270264" lon="17.4529473733">
		<tag k="fixme" v="consider place=hamlet" />
		<tag k="name" v="Heggeli" />
		<tag k="place" v="farm" />
		<tag k="ssr:stedsnr" v="1077729" />
	</node>
	<node id="-93596" lat="69.4452605409" lon="17.3021882756">
		<tag k="fixme" v="consider place=hamlet" />
		<tag k="name" v="Skaland" />
		<tag k="place" v="farm" />
		<tag k="ssr:stedsnr" v="1077728" />
	</node>
	<node id="-93595" lat="69.4451954862" lon="17.1254737558">
		<tag k="name" v="Bergsøyan" />
		<tag k="place" v="locality" />
		<tag k="ssr:stedsnr" v="1077727" />
	</node>
	<node id="-93594" lat="69.4558027888" lon="17.2528975781">
		<tag k="fixme" v="consider place=hamlet" />
		<tag k="name" v="Ytre Berg" />
		<tag k="place" v="farm" />
		<tag k="ssr:stedsnr" v="1077725" />
	</node>
	<node id="-93593" lat="69.496635794" lon="17.5028307264">
		<tag k="fixme" v="consider place=hamlet" />
		<tag k="name" v="Hopen" />
		<tag k="place" v="farm" />
		<tag k="ssr:stedsnr" v="1077724" />
	</node>
	<node id="-87448" lat="69.3311583322" lon="18.2408138886">
		<tag k="name" v="Rokstad" />
		<tag k="place" v="hamlet" />
		<tag k="ssr:stedsnr" v="474773" />
	</node>
	<node id="-93591" lat="69.6807751959" lon="19.0868014399">
		<tag k="fixme" v="consider place=hamlet" />
		<tag k="name" v="Krokelv" />
		<tag k="place" v="farm" />
		<tag k="ssr:stedsnr" v="1076826" />
	</node>
	<node id="-93588" lat="69.6548386171" lon="18.9540555979">
		<tag k="amenity" v="school" />
		<tag k="name" v="Ishavsbyen videregående skole" />
		<tag k="ssr:stedsnr" v="1075695" />
	</node>
	<node id="-93587" lat="69.4648416736" lon="17.2254075521">
		<tag k="name" v="Bøvær" />
		<tag k="place" v="farm" />
		<tag k="ssr:stedsnr" v="1074518" />
	</node>
	<node id="-89487" lat="69.3860436048" lon="17.8312836312">
		<tag k="name" v="Næsvold" />
		<tag k="place" v="farm" />
		<tag k="ssr:stedsnr" v="18477" />
	</node>
	<node id="-89476" lat="69.2482500013" lon="17.9543527827">
		<tag k="name" v="Innvoll" />
		<tag k="place" v="farm" />
		<tag k="ssr:stedsnr" v="18397" />
	</node>
	<node id="-89473" lat="69.264266663" lon="17.6341888952">
		<tag k="name" v="Slettemoen" />
		<tag k="place" v="farm" />
		<tag k="ssr:stedsnr" v="18555" />
	</node>
	<node id="-91520" lat="69.4156393506" lon="17.1698946808">
		<tag k="name" v="Indre Hamn" />
		<tag k="place" v="hamlet" />
		<tag k="ssr:stedsnr" v="416086" />
	</node>
	<node id="-89471" lat="69.356313892" lon="17.9180777769">
		<tag k="name" v="Molund" />
		<tag k="place" v="farm" />
		<tag k="ssr:stedsnr" v="18523" />
	</node>
	<node id="-89468" lat="69.4409388914" lon="17.3398777652">
		<tag k="name" v="Skjelelv" />
		<tag k="place" v="isolated_dwelling" />
		<tag k="ssr:stedsnr" v="18278" />
	</node>
	<node id="-89464" lat="69.2325291346" lon="17.84517514">
		<tag k="fixme" v="consider place=hamlet" />
		<tag k="loc_name" v="Vasshaugen" />
		<tag k="name" v="Vasshaug" />
		<tag k="place" v="farm" />
		<tag k="ssr:stedsnr" v="18361" />
	</node>
	<node id="-87401" lat="69.2330749965" lon="17.9959944525">
		<tag k="amenity" v="school" />
		<tag k="name" v="Heimly videregående skole" />
		<tag k="ssr:stedsnr" v="473118" />
	</node>
	<node id="-93534" lat="69.3820617899" lon="18.4548523488">
		<tag k="name" v="Skjærbergan" />
		<tag k="place" v="farm" />
		<tag k="ssr:stedsnr" v="981168" />
	</node>
	<node id="-91483" lat="69.0825500036" lon="17.0015472293">
		<tag k="fixme" v="consider place=hamlet" />
		<tag k="name" v="Å" />
		<tag k="place" v="farm" />
		<tag k="ssr:stedsnr" v="415666" />
	</node>
	<node id="-89430" lat="69.0224555532" lon="17.2146749904">
		<tag k="name" v="Fjordgløtt" />
		<tag k="place" v="farm" />
		<tag k="ssr:stedsnr" v="17092" />
	</node>
	<node id="-87380" lat="69.4191527738" lon="18.0705083289">
		<tag k="name" v="Øyjorda" />
		<tag k="place" v="locality" />
		<tag k="ssr:stedsnr" v="472658" />
	</node>
	<node id="-89427" lat="69.485977778" lon="17.4051083308">
		<tag k="name" v="Sjøtoften" />
		<tag k="place" v="farm" />
		<tag k="ssr:stedsnr" v="965123" />
	</node>
	<node id="-91470" lat="69.1154638877" lon="17.2561444497">
		<tag k="name" v="Bjørkeng" />
		<tag k="place" v="farm" />
		<tag k="ssr:stedsnr" v="415531" />
	</node>
	<node id="-87358" lat="69.4469750021" lon="17.8709777862">
		<tag k="name" v="Litleng" />
		<tag k="place" v="farm" />
		<tag k="ssr:stedsnr" v="471441" />
	</node>
	<node id="-92859" lat="69.1635499977" lon="17.8571805415">
		<tag k="name" v="Solli" />
		<tag k="place" v="farm" />
		<tag k="ssr:stedsnr" v="807438" />
	</node>
	<node id="-91422" lat="69.284721859" lon="18.2319024301">
		<tag k="fixme" v="consider place=hamlet" />
		<tag k="name" v="Holmemoen" />
		<tag k="place" v="farm" />
		<tag k="ssr:stedsnr" v="414715" />
	</node>
	<node id="-91414" lat="69.3696527734" lon="18.1087472285">
		<tag k="name" v="Voldstad" />
		<tag k="place" v="farm" />
		<tag k="ssr:stedsnr" v="414665" />
	</node>
	<node id="-87316" lat="69.236202775" lon="17.9322805543">
		<tag k="name" v="Solheim" />
		<tag k="place" v="farm" />
		<tag k="ssr:stedsnr" v="272318" />
	</node>
	<node id="-87311" lat="69.3606527763" lon="17.1160888941">
		<tag k="name" v="Laberget" />
		<tag k="place" v="farm" />
		<tag k="ssr:stedsnr" v="261329" />
	</node>
	<node id="-88902" lat="69.3678027782" lon="16.9967638965">
		<tag k="name" v="Barbogen" />
		<tag k="place" v="farm" />
		<tag k="ssr:stedsnr" v="748318" />
	</node>
	<node id="-89346" lat="69.3927667243" lon="18.1809786036">
		<tag k="name" v="Kårvik" />
		<tag k="place" v="farm" />
		<tag k="ssr:stedsnr" v="936547" />
	</node>
	<node id="-93438" lat="69.1350444465" lon="17.3161916667">
		<tag k="name" v="Skoglund" />
		<tag k="place" v="farm" />
		<tag k="ssr:stedsnr" v="961391" />
	</node>
	<node id="-89339" lat="69.2954000026" lon="18.3534277804">
		<tag k="name" v="Fiskbekken" />
		<tag k="place" v="isolated_dwelling" />
		<tag k="ssr:stedsnr" v="929809" />
	</node>
	<node id="-89335" lat="69.3924888866" lon="16.9985277657">
		<tag k="name" v="Dungan" />
		<tag k="place" v="isolated_dwelling" />
		<tag k="ssr:stedsnr" v="929326" />
	</node>
	<node id="-87285" lat="69.361308601" lon="17.8685126093">
		<tag k="fixme" v="consider place=hamlet" />
		<tag k="name" v="Sørli" />
		<tag k="place" v="farm" />
		<tag k="ssr:stedsnr" v="450563" />
	</node>
	<node id="-91379" lat="69.2656597225" lon="17.7914880022">
		<tag k="fixme" v="consider place=hamlet" />
		<tag k="name" v="Kvannlimoen" />
		<tag k="place" v="farm" />
		<tag k="ssr:stedsnr" v="412669" />
	</node>
	<node id="-87282" lat="69.3447222244" lon="17.4375555477">
		<tag k="fixme" v="consider tourism=alpine_hut or tourism=chalet" />
		<tag k="name" v="Senjabu" />
		<tag k="ssr:stedsnr" v="240864" />
		<tag k="tourism" v="wilderness_hut" />
	</node>
	<node id="-89328" lat="69.1987513495" lon="17.667291169">
		<tag k="alt_name" v="Ottemo" />
		<tag k="fixme" v="consider place=hamlet" />
		<tag k="name" v="Ottemoen" />
		<tag k="place" v="farm" />
		<tag k="ssr:stedsnr" v="928433" />
	</node>
	<node id="-89327" lat="69.174693108" lon="17.9175055257">
		<tag k="alt_name" v="Russevåg Søndre" />
		<tag k="fixme" v="consider place=hamlet" />
		<tag k="name" v="Russevåg" />
		<tag k="place" v="farm" />
		<tag k="ssr:stedsnr" v="928431" />
	</node>
	<node id="-90786" lat="69.3308805545" lon="18.1526055476">
		<tag k="alt_name" v="Krubba" />
		<tag k="name" v="Krubben" />
		<tag k="place" v="isolated_dwelling" />
		<tag k="ssr:stedsnr" v="321743" />
	</node>
	<node id="-91361" lat="69.3737750003" lon="17.8228611207">
		<tag k="name" v="Gammelheimen" />
		<tag k="place" v="locality" />
		<tag k="ssr:stedsnr" v="412220" />
	</node>
	<node id="-89311" lat="69.4105305571" lon="17.2640472153">
		<tag k="name" v="Nessan" />
		<tag k="place" v="hamlet" />
		<tag k="ssr:stedsnr" v="902519" />
	</node>
	<node id="-91335" lat="69.4823666682" lon="17.8437277758">
		<tag k="name" v="Reinland" />
		<tag k="place" v="isolated_dwelling" />
		<tag k="ssr:stedsnr" v="410067" />
	</node>
	<node id="-86649" lat="69.4499694455" lon="18.1407916538">
		<tag k="alt_name" v="Rødbergshamn" />
		<tag k="name" v="Rødbergshamna" />
		<tag k="place" v="hamlet" />
		<tag k="ssr:stedsnr" v="261623" />
	</node>
	<node id="-86218" lat="69.4259472255" lon="17.9158500036">
		<tag k="name" v="Midtre Lysnes" />
		<tag k="old_name" v="Lysnes mellem" />
		<tag k="place" v="farm" />
		<tag k="ssr:stedsnr" v="230363" />
	</node>
	<node id="-87225" lat="69.2728805519" lon="18.1954500003">
		<tag k="name" v="Bakkejorda" />
		<tag k="place" v="farm" />
		<tag k="ssr:stedsnr" v="443812" />
	</node>
	<node id="-91320" lat="69.1693777752" lon="17.4069249853">
		<tag k="name" v="Storset" />
		<tag k="place" v="farm" />
		<tag k="ssr:stedsnr" v="393477" />
	</node>
	<node id="-91316" lat="69.2343499991" lon="17.9739249903">
		<tag k="name" v="Lia" />
		<tag k="place" v="farm" />
		<tag k="ssr:stedsnr" v="393191" />
	</node>
	<node id="-91313" lat="69.2814250043" lon="17.0589444375">
		<tag k="fixme" v="consider place=hamlet" />
		<tag k="name" v="Medby" />
		<tag k="place" v="village" />
		<tag k="ssr:stedsnr" v="390342" />
	</node>
	<node id="-87214" lat="69.3213550737" lon="18.1710824712">
		<tag k="fixme" v="consider place=hamlet" />
		<tag k="name" v="Solli" />
		<tag k="place" v="farm" />
		<tag k="ssr:stedsnr" v="443752" />
	</node>
	<node id="-87210" lat="69.3348027739" lon="18.2430750015">
		<tag k="name" v="Storli" />
		<tag k="place" v="farm" />
		<tag k="ssr:stedsnr" v="443739" />
	</node>
	<node id="-87209" lat="69.5703861424" lon="17.5552181878">
		<tag k="alt_name" v="Breidvika;Breivik" />
		<tag k="fixme" v="consider place=hamlet" />
		<tag k="name" v="Breivika" />
		<tag k="place" v="farm" />
		<tag k="ssr:stedsnr" v="443738" />
	</node>
	<node id="-89252" lat="69.3006574752" lon="17.7466604181">
		<tag k="alt_name" v="Tverhaug" />
		<tag k="fixme" v="consider place=hamlet" />
		<tag k="name" v="Tverhaugen" />
		<tag k="place" v="farm" />
		<tag k="ssr:stedsnr" v="898665" />
	</node>
	<node id="-87200" lat="69.3848555519" lon="18.3730222269">
		<tag k="alt_name" v="Storelv" />
		<tag k="name" v="Storelva" />
		<tag k="place" v="farm" />
		<tag k="ssr:stedsnr" v="443703" />
	</node>
	<node id="-91295" lat="69.2786297141" lon="18.2211296389">
		<tag k="fixme" v="consider place=hamlet" />
		<tag k="name" v="Langhaugen" />
		<tag k="place" v="farm" />
		<tag k="ssr:stedsnr" v="382801" />
	</node>
	<node id="-91286" lat="69.3169505282" lon="18.0590758523">
		<tag k="alt_name" v="Bondjord" />
		<tag k="name" v="Bondjorda" />
		<tag k="place" v="hamlet" />
		<tag k="ssr:stedsnr" v="382744" />
	</node>
	<node id="-91283" lat="69.3823833293" lon="18.1670749962">
		<tag k="name" v="Hansvoll" />
		<tag k="place" v="farm" />
		<tag k="ssr:stedsnr" v="382717" />
	</node>
	<node id="-89234" lat="69.4318511029" lon="17.958370948">
		<tag k="alt_name" v="Lysnes" />
		<tag k="fixme" v="consider place=hamlet" />
		<tag k="name" v="Midtre Lysnes" />
		<tag k="place" v="farm" />
		<tag k="ssr:stedsnr" v="875662" />
	</node>
	<node id="-93329" lat="69.3824749981" lon="17.1130833314">
		<tag k="name" v="Ballesvika" />
		<tag k="place" v="farm" />
		<tag k="ssr:stedsnr" v="870732" />
	</node>
	<node id="-91278" lat="69.3495481362" lon="18.0130485924">
		<tag k="name" v="Landøya" />
		<tag k="place" v="farm" />
		<tag k="ssr:stedsnr" v="382690" />
	</node>
	<node id="-91277" lat="69.4115805531" lon="17.9991638886">
		<tag k="alt_name" v="Årnes, indre" />
		<tag k="name" v="Indre Årnes" />
		<tag k="place" v="farm" />
		<tag k="ssr:stedsnr" v="382680" />
	</node>
	<node id="-89228" lat="69.2700972266" lon="17.9015638779">
		<tag k="name" v="Grasmyrbotn" />
		<tag k="place" v="hamlet" />
		<tag k="ssr:stedsnr" v="870258" />
	</node>
	<node id="-87178" lat="69.3217638853" lon="17.9119666564">
		<tag k="name" v="Heimgården" />
		<tag k="place" v="farm" />
		<tag k="ssr:stedsnr" v="230118" />
	</node>
	<node id="-89225" lat="69.302550002" lon="16.9774583351">
		<tag k="fixme" v="consider place=hamlet" />
		<tag k="name" v="Grunnfarnes" />
		<tag k="place" v="village" />
		<tag k="ssr:stedsnr" v="868427" />
	</node>
	<node id="-91271" lat="69.2547722198" lon="17.6936805558">
		<tag k="name" v="Vegstad" />
		<tag k="place" v="farm" />
		<tag k="ssr:stedsnr" v="382629" />
	</node>
	<node id="-93318" lat="69.5157861101" lon="17.4408805438">
		<tag k="fixme" v="consider place=suburb, village or hamlet" />
		<tag k="name" v="Mefjordvær" />
		<tag k="place" v="quarter" />
		<tag k="ssr:stedsnr" v="868800" />
	</node>
	<node id="-93317" lat="69.2667131979" lon="18.2074154419">
		<tag k="fixme" v="consider place=hamlet" />
		<tag k="name" v="Andersdal" />
		<tag k="place" v="farm" />
		<tag k="ssr:stedsnr" v="868797" />
	</node>
	<node id="-87816" lat="69.3149000017" lon="18.2338222226">
		<tag k="name" v="Nedre Langnes" />
		<tag k="place" v="hamlet" />
		<tag k="ssr:stedsnr" v="656733" />
	</node>
	<node id="-91266" lat="69.4583000029" lon="18.3500666756">
		<tag k="fixme" v="consider place=hamlet" />
		<tag k="name" v="Jøvik" />
		<tag k="place" v="village" />
		<tag k="ssr:stedsnr" v="382609" />
	</node>
	<node id="-91265" lat="69.2937500905" lon="17.8367868962">
		<tag k="alt_name" v="Kvannåsen, øvre;Øvre Kvannåsen" />
		<tag k="fixme" v="consider place=hamlet" />
		<tag k="name" v="Kvannåsen" />
		<tag k="place" v="farm" />
		<tag k="ssr:stedsnr" v="382600" />
	</node>
	<node id="-87168" lat="69.2733527783" lon="17.9188277827">
		<tag k="name" v="Slåttvik" />
		<tag k="place" v="isolated_dwelling" />
		<tag k="ssr:stedsnr" v="443597" />
	</node>
	<node id="-87166" lat="69.3191027759" lon="17.8729916653">
		<tag k="name" v="Skognesbotn" />
		<tag k="place" v="farm" />
		<tag k="ssr:stedsnr" v="443580" />
	</node>
	<node id="-91261" lat="69.2664027774" lon="17.7279666563">
		<tag k="name" v="Tunstad" />
		<tag k="place" v="farm" />
		<tag k="ssr:stedsnr" v="382586" />
	</node>
	<node id="-87164" lat="69.3218833352" lon="17.9128916611">
		<tag k="name" v="Voll" />
		<tag k="place" v="isolated_dwelling" />
		<tag k="ssr:stedsnr" v="443568" />
	</node>
	<node id="-93305" lat="69.3642750036" lon="18.4947027734">
		<tag k="name" v="Flatvoll" />
		<tag k="place" v="farm" />
		<tag k="ssr:stedsnr" v="868709" />
	</node>
	<node id="-91255" lat="69.3101388907" lon="17.8827833417">
		<tag k="name" v="Kvannåsen" />
		<tag k="place" v="hamlet" />
		<tag k="ssr:stedsnr" v="382557" />
	</node>
	<node id="-87155" lat="69.2004749977" lon="17.8008222294">
		<tag k="name" v="Dalen" />
		<tag k="place" v="farm" />
		<tag k="ssr:stedsnr" v="443493" />
	</node>
	<node id="-86602" lat="69.1889920028" lon="17.9940360469">
		<tag k="fixme" v="consider place=hamlet" />
		<tag k="name" v="Klauva" />
		<tag k="place" v="farm" />
		<tag k="ssr:stedsnr" v="261487" />
	</node>
	<node id="-89200" lat="69.2394027781" lon="17.6231027869">
		<tag k="name" v="Moholt" />
		<tag k="place" v="farm" />
		<tag k="ssr:stedsnr" v="842669" />
	</node>
	<node id="-93295" lat="69.28197222" lon="17.8964805539">
		<tag k="name" v="Svergegården" />
		<tag k="place" v="farm" />
		<tag k="ssr:stedsnr" v="868582" />
	</node>
	<node id="-86169" lat="69.227180556" lon="18.2048027865">
		<tag k="name" v="Fjelldal" />
		<tag k="place" v="farm" />
		<tag k="ssr:stedsnr" v="18620" />
	</node>
	<node id="-89196" lat="69.2711277795" lon="17.6700888888">
		<tag k="name" v="Nordli" />
		<tag k="place" v="farm" />
		<tag k="ssr:stedsnr" v="842626" />
	</node>
	<node id="-91240" lat="69.2023011233" lon="17.6842179528">
		<tag k="alt_name" v="Halvardslia" />
		<tag k="fixme" v="consider place=hamlet" />
		<tag k="name" v="Halvorslia" />
		<tag k="place" v="farm" />
		<tag k="ssr:stedsnr" v="382490" />
	</node>
	<node id="-91239" lat="69.2072805519" lon="17.5772944326">
		<tag k="name" v="Nystad" />
		<tag k="place" v="farm" />
		<tag k="ssr:stedsnr" v="382483" />
	</node>
	<node id="-93286" lat="69.4653083354" lon="17.8497583207">
		<tag k="name" v="Galnslåtta" />
		<tag k="place" v="farm" />
		<tag k="ssr:stedsnr" v="868487" />
	</node>
	<node id="-88593" lat="69.4874055548" lon="17.6842555606">
		<tag k="name" v="Oppsåta" />
		<tag k="place" v="farm" />
		<tag k="ssr:stedsnr" v="878286" />
	</node>
	<node id="-91234" lat="69.1730444413" lon="17.7367555451">
		<tag k="name" v="Seljesletta" />
		<tag k="place" v="farm" />
		<tag k="ssr:stedsnr" v="382458" />
	</node>
	<node id="-87136" lat="69.2217972201" lon="17.8710360961">
		<tag k="name" v="Gamlenaustet" />
		<tag k="place" v="isolated_dwelling" />
		<tag k="ssr:stedsnr" v="443407" />
	</node>
	<node id="-87134" lat="69.2082083376" lon="17.8978055501">
		<tag k="name" v="Lamoen" />
		<tag k="place" v="farm" />
		<tag k="ssr:stedsnr" v="443402" />
	</node>
	<node id="-91228" lat="69.1636722249" lon="17.7959750076">
		<tag k="name" v="Brandvoll" />
		<tag k="place" v="farm" />
		<tag k="ssr:stedsnr" v="382440" />
	</node>
	<node id="-93275" lat="69.1799666668" lon="17.9265860973">
		<tag k="name" v="Linberget" />
		<tag k="place" v="farm" />
		<tag k="ssr:stedsnr" v="868452" />
	</node>
	<node id="-91225" lat="69.2482472245" lon="17.878577776">
		<tag k="name" v="Tortenlia" />
		<tag k="place" v="farm" />
		<tag k="ssr:stedsnr" v="382433" />
	</node>
	<node id="-91222" lat="69.2367305593" lon="17.7762583415">
		<tag k="alt_name" v="Grepsli" />
		<tag k="name" v="Greppslia" />
		<tag k="place" v="farm" />
		<tag k="ssr:stedsnr" v="382414" />
	</node>
	<node id="-91216" lat="69.2295527558" lon="17.7014805688">
		<tag k="fixme" v="consider place=hamlet" />
		<tag k="name" v="Torsmoen" />
		<tag k="place" v="farm" />
		<tag k="ssr:stedsnr" v="382393" />
	</node>
	<node id="-93262" lat="69.4717194447" lon="17.3016499921">
		<tag k="alt_name" v="Hella" />
		<tag k="name" v="Hellan" />
		<tag k="place" v="isolated_dwelling" />
		<tag k="ssr:stedsnr" v="868264" />
	</node>
	<node id="-91212" lat="69.2043828106" lon="17.9169944891">
		<tag k="alt_name" v="Vassjord" />
		<tag k="fixme" v="consider place=hamlet" />
		<tag k="name" v="Vassjorda" />
		<tag k="place" v="farm" />
		<tag k="ssr:stedsnr" v="382382" />
	</node>
	<node id="-87107" lat="69.0168027742" lon="17.1436416556">
		<tag k="name" v="Nylandet" />
		<tag k="place" v="farm" />
		<tag k="ssr:stedsnr" v="443073" />
	</node>
	<node id="-93249" lat="69.294469447" lon="17.7678888972">
		<tag k="name" v="Lauvåsen" />
		<tag k="place" v="farm" />
		<tag k="ssr:stedsnr" v="868034" />
	</node>
	<node id="-91199" lat="69.3629777756" lon="17.0528638978">
		<tag k="name" v="Gryllefjord" />
		<tag k="place" v="village" />
		<tag k="ssr:stedsnr" v="382319" />
	</node>
	<node id="-93246" lat="69.3699305589" lon="18.3099749982">
		<tag k="name" v="Konsen" />
		<tag k="place" v="farm" />
		<tag k="ssr:stedsnr" v="868029" />
	</node>
	<node id="-87100" lat="69.1506944457" lon="17.0772111056">
		<tag k="name" v="Steinjorda" />
		<tag k="place" v="isolated_dwelling" />
		<tag k="ssr:stedsnr" v="442281" />
	</node>
	<node id="-93243" lat="69.2457304478" lon="18.173104268">
		<tag k="fixme" v="consider place=hamlet" />
		<tag k="name" v="Fagernes" />
		<tag k="place" v="farm" />
		<tag k="ssr:stedsnr" v="867668" />
	</node>
	<node id="-87096" lat="69.1140916708" lon="17.059502771">
		<tag k="name" v="Olaheimen" />
		<tag k="place" v="farm" />
		<tag k="ssr:stedsnr" v="442257" />
	</node>
	<node id="-92330" lat="69.3407749998" lon="18.1056055404">
		<tag k="name" v="Flatvoll" />
		<tag k="place" v="farm" />
		<tag k="ssr:stedsnr" v="624757" />
	</node>
	<node id="-93235" lat="69.0800972255" lon="16.9843388794">
		<tag k="name" v="Fjelly" />
		<tag k="place" v="farm" />
		<tag k="ssr:stedsnr" v="867063" />
	</node>
	<node id="-93234" lat="69.0799138875" lon="16.9946361069">
		<tag k="alt_name" v="Å, vestre" />
		<tag k="name" v="Vestre Å" />
		<tag k="place" v="farm" />
		<tag k="ssr:stedsnr" v="867059" />
	</node>
	<node id="-93229" lat="69.055811111" lon="16.8698833338">
		<tag k="alt_name" v="Gjerdvika" />
		<tag k="name" v="Gjærvik" />
		<tag k="place" v="farm" />
		<tag k="ssr:stedsnr" v="867026" />
	</node>
	<node id="-91180" lat="69.0445484093" lon="17.1744880054">
		<tag k="alt_name" v="Valvågen, s;Valvågen søndre" />
		<tag k="fixme" v="consider place=hamlet" />
		<tag k="name" v="Søre Valvågen" />
		<tag k="place" v="farm" />
		<tag k="ssr:stedsnr" v="382113" />
	</node>
	<node id="-91179" lat="69.054366669" lon="17.0769916692">
		<tag k="name" v="Hals" />
		<tag k="place" v="farm" />
		<tag k="ssr:stedsnr" v="382109" />
	</node>
	<node id="-91178" lat="69.0467666696" lon="17.062308323">
		<tag k="name" v="Knausen" />
		<tag k="place" v="farm" />
		<tag k="ssr:stedsnr" v="382106" />
	</node>
	<node id="-87080" lat="69.0230861084" lon="17.1895833183">
		<tag k="alt_name" v="Bakkemoen" />
		<tag k="name" v="Bakkemo" />
		<tag k="place" v="farm" />
		<tag k="ssr:stedsnr" v="442090" />
	</node>
	<node id="-93223" lat="69.2090722233" lon="16.9441472219">
		<tag k="name" v="Leikvika" />
		<tag k="place" v="hamlet" />
		<tag k="ssr:stedsnr" v="867157" />
	</node>
	<node id="-91173" lat="69.0800305544" lon="16.9719944315">
		<tag k="alt_name" v="Litleeng;Lilleng" />
		<tag k="name" v="Lilleeng" />
		<tag k="place" v="farm" />
		<tag k="ssr:stedsnr" v="382053" />
	</node>
	<node id="-91172" lat="69.0720024341" lon="17.0338889302">
		<tag k="alt_name" v="Dragøya" />
		<tag k="fixme" v="consider place=hamlet" />
		<tag k="name" v="Dragøy" />
		<tag k="place" v="farm" />
		<tag k="ssr:stedsnr" v="382048" />
	</node>
	<node id="-91171" lat="69.0848194453" lon="17.0002027676">
		<tag k="name" v="Skogli" />
		<tag k="place" v="farm" />
		<tag k="ssr:stedsnr" v="382036" />
	</node>
	<node id="-91159" lat="69.1389500003" lon="17.3158749906">
		<tag k="name" v="Jøvik" />
		<tag k="place" v="farm" />
		<tag k="ssr:stedsnr" v="381214" />
	</node>
	<node id="-86166" lat="69.165658335" lon="17.8695833254">
		<tag k="name" v="Romvika" />
		<tag k="place" v="farm" />
		<tag k="ssr:stedsnr" v="18405" />
	</node>
	<node id="-88237" lat="69.515242063" lon="17.9466467361">
		<tag k="fixme" v="consider place=hamlet" />
		<tag k="name" v="Gavlen" />
		<tag k="place" v="farm" />
		<tag k="ssr:stedsnr" v="571492" />
	</node>
	<node id="-91148" lat="69.0216833323" lon="17.1812555565">
		<tag k="alt_name" v="Breidvika" />
		<tag k="name" v="Breivik" />
		<tag k="place" v="farm" />
		<tag k="ssr:stedsnr" v="381088" />
	</node>
	<node id="-90352" lat="69.3650944413" lon="17.8953000072">
		<tag k="barrier" v="fence" />
		<tag k="name" v="Reingjerdan" />
		<tag k="ssr:stedsnr" v="169676" />
	</node>
	<node id="-89089" lat="69.4147598495" lon="17.946525419">
		<tag k="alt_name" v="Lysnes Indre;Lysnes" />
		<tag k="fixme" v="consider place=hamlet" />
		<tag k="name" v="Indre Lysnes" />
		<tag k="place" v="farm" />
		<tag k="ssr:stedsnr" v="815325" />
	</node>
	<node id="-89083" lat="69.2602655402" lon="18.1962442986">
		<tag k="fixme" v="consider place=hamlet" />
		<tag k="name" v="Sætermoen" />
		<tag k="place" v="farm" />
		<tag k="ssr:stedsnr" v="929846" />
	</node>
	<node id="-89082" lat="69.547324997" lon="17.7549055516">
		<tag k="name" v="Selvåg" />
		<tag k="place" v="isolated_dwelling" />
		<tag k="ssr:stedsnr" v="929843" />
	</node>
	<node id="-89081" lat="69.5473305593" lon="17.7951083359">
		<tag k="name" v="Bjørklund" />
		<tag k="place" v="isolated_dwelling" />
		<tag k="ssr:stedsnr" v="929840" />
	</node>
	<node id="-89079" lat="69.3089071169" lon="18.223535715">
		<tag k="name" v="Granbakken" />
		<tag k="place" v="locality" />
		<tag k="ssr:stedsnr" v="929794" />
	</node>
	<node id="-89076" lat="69.3282916675" lon="18.1731750088">
		<tag k="name" v="Solry" />
		<tag k="old_name" v="Solgry" />
		<tag k="place" v="farm" />
		<tag k="ssr:stedsnr" v="929770" />
	</node>
	<node id="-89073" lat="69.3588805561" lon="18.3092999995">
		<tag k="name" v="Djupnes" />
		<tag k="place" v="farm" />
		<tag k="ssr:stedsnr" v="929744" />
	</node>
	<node id="-89072" lat="69.5074305576" lon="17.902994446">
		<tag k="fixme" v="consider place=hamlet" />
		<tag k="name" v="Botnhamn" />
		<tag k="place" v="village" />
		<tag k="ssr:stedsnr" v="929830" />
	</node>
	<node id="-89066" lat="69.2762888902" lon="17.7279888972">
		<tag k="name" v="Åsland" />
		<tag k="place" v="farm" />
		<tag k="ssr:stedsnr" v="929602" />
	</node>
	<node id="-87017" lat="69.2342916697" lon="17.6014694371">
		<tag k="alt_name" v="Brygghaug vestre" />
		<tag k="fixme" v="consider place=hamlet" />
		<tag k="name" v="Vestre Brygghaug" />
		<tag k="place" v="farm" />
		<tag k="ssr:stedsnr" v="295552" />
	</node>
	<node id="-88074" lat="69.2345499957" lon="17.8863555558">
		<tag k="name" v="Yttervoll" />
		<tag k="place" v="farm" />
		<tag k="ssr:stedsnr" v="686417" />
	</node>
	<node id="-89061" lat="69.3199999963" lon="17.879333332">
		<tag k="name" v="Bakkejord" />
		<tag k="place" v="farm" />
		<tag k="ssr:stedsnr" v="929558" />
	</node>
	<node id="-89056" lat="69.2938055531" lon="17.7796083223">
		<tag k="name" v="Skogen" />
		<tag k="place" v="farm" />
		<tag k="ssr:stedsnr" v="929551" />
	</node>
	<node id="-89055" lat="69.2916721031" lon="17.7323394708">
		<tag k="fixme" v="consider place=hamlet" />
		<tag k="name" v="Sandbakken" />
		<tag k="place" v="farm" />
		<tag k="ssr:stedsnr" v="929546" />
	</node>
	<node id="-89054" lat="69.2942138854" lon="17.7764249853">
		<tag k="name" v="Skogstad" />
		<tag k="place" v="farm" />
		<tag k="ssr:stedsnr" v="929538" />
	</node>
	<node id="-89053" lat="69.3567472187" lon="17.9286999973">
		<tag k="name" v="Toften" />
		<tag k="place" v="farm" />
		<tag k="ssr:stedsnr" v="929536" />
	</node>
	<node id="-89050" lat="69.3559333361" lon="17.9391583327">
		<tag k="name" v="Mortenjord" />
		<tag k="place" v="farm" />
		<tag k="ssr:stedsnr" v="929514" />
	</node>
	<node id="-89048" lat="69.2249250022" lon="17.621383333">
		<tag k="name" v="Moan" />
		<tag k="place" v="farm" />
		<tag k="ssr:stedsnr" v="929384" />
	</node>
	<node id="-89044" lat="69.441044496" lon="17.4621955368">
		<tag k="alt_name" v="Indregård" />
		<tag k="name" v="Innergården" />
		<tag k="place" v="farm" />
		<tag k="ssr:stedsnr" v="929441" />
	</node>
	<node id="-89934" lat="69.4402115529" lon="17.4115898714">
		<tag k="fixme" v="consider place=hamlet" />
		<tag k="name" v="Nordfjord" />
		<tag k="place" v="farm" />
		<tag k="ssr:stedsnr" v="107902" />
	</node>
	<node id="-89042" lat="69.4544222205" lon="17.8892527819">
		<tag k="name" v="Fjordbotn" />
		<tag k="place" v="farm" />
		<tag k="ssr:stedsnr" v="929431" />
	</node>
	<node id="-89041" lat="69.1646361144" lon="17.804830557">
		<tag k="name" v="Solvang" />
		<tag k="place" v="farm" />
		<tag k="ssr:stedsnr" v="929419" />
	</node>
	<node id="-89038" lat="69.2091861089" lon="17.9075555644">
		<tag k="name" v="Lasletta" />
		<tag k="place" v="farm" />
		<tag k="ssr:stedsnr" v="929368" />
	</node>
	<node id="-86985" lat="69.0315111119" lon="16.9003527851">
		<tag k="fixme" v="consider place=hamlet" />
		<tag k="name" v="Lemmingvær" />
		<tag k="place" v="farm" />
		<tag k="ssr:stedsnr" v="294930" />
	</node>
	<node id="-89023" lat="69.5046555582" lon="17.3628027745">
		<tag k="name" v="Teigen" />
		<tag k="place" v="locality" />
		<tag k="ssr:stedsnr" v="928952" />
	</node>
	<node id="-89020" lat="69.3418583301" lon="18.0898083181">
		<tag k="fixme" v="consider place=hamlet" />
		<tag k="name" v="Bjorelvnes" />
		<tag k="place" v="village" />
		<tag k="ssr:stedsnr" v="928735" />
	</node>
	<node id="-89017" lat="69.2231499957" lon="18.2256805527">
		<tag k="name" v="Fagervoll" />
		<tag k="place" v="farm" />
		<tag k="ssr:stedsnr" v="928637" />
	</node>
	<node id="-89016" lat="69.2240085189" lon="18.2344290253">
		<tag k="fixme" v="consider place=hamlet" />
		<tag k="name" v="Fagerli" />
		<tag k="place" v="farm" />
		<tag k="ssr:stedsnr" v="928635" />
	</node>
	<node id="-89015" lat="69.2680638915" lon="17.7592805417">
		<tag k="name" v="Seljevoll" />
		<tag k="place" v="farm" />
		<tag k="ssr:stedsnr" v="928573" />
	</node>
	<node id="-89013" lat="69.3977968702" lon="17.8320500894">
		<tag k="fixme" v="consider place=hamlet" />
		<tag k="name" v="Sandnes" />
		<tag k="place" v="farm" />
		<tag k="ssr:stedsnr" v="928465" />
	</node>
	<node id="-89011" lat="69.1963694475" lon="17.9306611133">
		<tag k="name" v="Vika" />
		<tag k="place" v="farm" />
		<tag k="ssr:stedsnr" v="928454" />
	</node>
	<node id="-89010" lat="69.2493722253" lon="17.6094416686">
		<tag k="name" v="Utvoll" />
		<tag k="place" v="farm" />
		<tag k="ssr:stedsnr" v="928390" />
	</node>
	<node id="-89002" lat="69.4146666655" lon="17.3099555451">
		<tag k="name" v="Smedvika" />
		<tag k="place" v="farm" />
		<tag k="ssr:stedsnr" v="928238" />
	</node>
	<node id="-91043" lat="69.3619722191" lon="17.0658361078">
		<tag k="name" v="Hallen" />
		<tag k="place" v="quarter" />
		<tag k="ssr:stedsnr" v="354689" />
	</node>
	<node id="-88993" lat="69.2364808333" lon="17.9143251316">
		<tag k="alt_name" v="Laukhella, midtre" />
		<tag k="fixme" v="consider place=hamlet" />
		<tag k="name" v="Midtre Laukhella" />
		<tag k="place" v="farm" />
		<tag k="ssr:stedsnr" v="807410" />
	</node>
	<node id="-91040" lat="69.2034666683" lon="17.5531055547">
		<tag k="historic" v="shieling" />
		<tag k="name" v="Sætra" />
		<tag k="place" v="locality" />
		<tag k="ssr:stedsnr" v="354590" />
	</node>
	<node id="-90607" lat="69.4374166673" lon="17.3633694445">
		<tag k="name" v="Moan" />
		<tag k="place" v="isolated_dwelling" />
		<tag k="ssr:stedsnr" v="200244" />
	</node>
	<node id="-91032" lat="69.1109277781" lon="17.2659611022">
		<tag k="name" v="Uteng" />
		<tag k="place" v="farm" />
		<tag k="ssr:stedsnr" v="354506" />
	</node>
	<node id="-88982" lat="69.1905357638" lon="17.0443545892">
		<tag k="alt_name" v="Flakkstad" />
		<tag k="fixme" v="consider place=hamlet" />
		<tag k="name" v="Flakstad" />
		<tag k="place" v="farm" />
		<tag k="ssr:stedsnr" v="928136" />
	</node>
	<node id="-93077" lat="69.3426558512" lon="18.0257577929">
		<tag k="fixme" v="consider place=hamlet" />
		<tag k="name" v="Eggøy" />
		<tag k="place" v="farm" />
		<tag k="ssr:stedsnr" v="839665" />
	</node>
	<node id="-88979" lat="69.0538638901" lon="17.059991657">
		<tag k="name" v="Seiltan" />
		<tag k="place" v="farm" />
		<tag k="ssr:stedsnr" v="807109" />
	</node>
	<node id="-86921" lat="69.2728722251" lon="17.7908416529">
		<tag k="name" v="Kvannlia" />
		<tag k="place" v="hamlet" />
		<tag k="ssr:stedsnr" v="202224" />
	</node>
	<node id="-93064" lat="69.2188388853" lon="18.080172211">
		<tag k="name" v="Gammelgården" />
		<tag k="place" v="farm" />
		<tag k="ssr:stedsnr" v="839461" />
	</node>
	<node id="-86919" lat="69.4022188193" lon="18.0442351965">
		<tag k="fixme" v="consider place=hamlet" />
		<tag k="name" v="Grunnvåg" />
		<tag k="place" v="farm" />
		<tag k="ssr:stedsnr" v="201686" />
	</node>
	<node id="-88966" lat="69.0621055528" lon="16.9197610963">
		<tag k="alt_name" v="Buvika" />
		<tag k="name" v="Buvik" />
		<tag k="place" v="farm" />
		<tag k="ssr:stedsnr" v="928023" />
	</node>
	<node id="-86849" lat="69.2098470017" lon="16.9440301198">
		<tag k="alt_name" v="Leikvik" />
		<tag k="fixme" v="consider place=hamlet" />
		<tag k="name" v="Leikvika" />
		<tag k="place" v="farm" />
		<tag k="ssr:stedsnr" v="293309" />
	</node>
	<node id="-86916" lat="69.3735944432" lon="18.4878500065">
		<tag k="alt_name" v="Indre Jordbakken" />
		<tag k="name" v="Indrejordbakken" />
		<tag k="place" v="farm" />
		<tag k="ssr:stedsnr" v="201726" />
	</node>
	<node id="-86915" lat="69.3770916687" lon="18.3451861168">
		<tag k="name" v="Øyjorda" />
		<tag k="place" v="farm" />
		<tag k="ssr:stedsnr" v="201724" />
	</node>
	<node id="-86914" lat="69.3550944409" lon="18.075255561">
		<tag k="name" v="Gibostad" />
		<tag k="place" v="village" />
		<tag k="ssr:stedsnr" v="201712" />
	</node>
	<node id="-86912" lat="69.3546750039" lon="18.2728750075">
		<tag k="name" v="Lyngmo" />
		<tag k="place" v="farm" />
		<tag k="ssr:stedsnr" v="201704" />
	</node>
	<node id="-88952" lat="69.5209972174" lon="17.4395027865">
		<tag k="loc_name" v="Medfjorden" />
		<tag k="name" v="Mefjord" />
		<tag k="place" v="farm" />
		<tag k="ssr:stedsnr" v="788609" />
	</node>
	<node id="-90989" lat="69.3764194457" lon="18.3505388935">
		<tag k="name" v="Øyjorda" />
		<tag k="place" v="farm" />
		<tag k="ssr:stedsnr" v="353797" />
	</node>
	<node id="-86890" lat="69.3192055585" lon="18.2265444338">
		<tag k="name" v="Langnes" />
		<tag k="place" v="hamlet" />
		<tag k="ssr:stedsnr" v="200759" />
	</node>
	<node id="-90984" lat="69.2707361123" lon="18.1985638899">
		<tag k="name" v="Nedre Vasshaug" />
		<tag k="place" v="farm" />
		<tag k="ssr:stedsnr" v="353701" />
	</node>
	<node id="-93028" lat="69.2939224451" lon="17.825243333">
		<tag k="alt_name" v="Skårås" />
		<tag k="fixme" v="consider place=hamlet" />
		<tag k="name" v="Skåråsen" />
		<tag k="place" v="farm" />
		<tag k="ssr:stedsnr" v="837672" />
	</node>
	<node id="-86880" lat="69.2450321112" lon="17.9521734314">
		<tag k="name" v="Silsand" />
		<tag k="place" v="village" />
		<tag k="ssr:stedsnr" v="200419" />
	</node>
	<node id="-93326" lat="69.1971194422" lon="17.8003888885">
		<tag k="name" v="Holmen" />
		<tag k="place" v="farm" />
		<tag k="ssr:stedsnr" v="870276" />
	</node>
	<node id="-90962" lat="69.2463940029" lon="17.9563771471">
		<tag k="fixme" v="consider place=hamlet" />
		<tag k="name" v="Store Laukhella" />
		<tag k="place" v="farm" />
		<tag k="ssr:stedsnr" v="352662" />
	</node>
	<node id="-86865" lat="69.0552444469" lon="17.0846500063">
		<tag k="name" v="Sletten" />
		<tag k="place" v="farm" />
		<tag k="ssr:stedsnr" v="200018" />
	</node>
	<node id="-86864" lat="69.0781138896" lon="17.1939749874">
		<tag k="name" v="Viklund" />
		<tag k="place" v="farm" />
		<tag k="ssr:stedsnr" v="200008" />
	</node>
	<node id="-86862" lat="69.0654277738" lon="16.9398361142">
		<tag k="name" v="Hamn" />
		<tag k="place" v="farm" />
		<tag k="ssr:stedsnr" v="200003" />
	</node>
	<node id="-88909" lat="69.4866027819" lon="17.8460055523">
		<tag k="name" v="Breidablikk" />
		<tag k="place" v="farm" />
		<tag k="ssr:stedsnr" v="775072" />
	</node>
	<node id="-88904" lat="69.5194781312" lon="17.4391581887">
		<tag k="loc_name" v="Medfjorden" />
		<tag k="name" v="Mefjord" />
		<tag k="place" v="farm" />
		<tag k="ssr:stedsnr" v="910620" />
	</node>
	<node id="-86855" lat="69.069882521" lon="16.8070406974">
		<tag k="alt_name" v="Finnjord" />
		<tag k="name" v="Finnjorda" />
		<tag k="place" v="hamlet" />
		<tag k="ssr:stedsnr" v="199129" />
	</node>
	<node id="-92998" lat="69.4549000021" lon="17.2553777782">
		<tag k="name" v="Nyberg" />
		<tag k="place" v="farm" />
		<tag k="ssr:stedsnr" v="835899" />
	</node>
	<node id="-88901" lat="69.2753095837" lon="17.6922093083">
		<tag k="fixme" v="consider place=hamlet" />
		<tag k="name" v="Nordlia" />
		<tag k="place" v="farm" />
		<tag k="ssr:stedsnr" v="747613" />
	</node>
	<node id="-88898" lat="69.5597288849" lon="17.8955664724">
		<tag k="fixme" v="consider place=hamlet" />
		<tag k="name" v="Laukvik" />
		<tag k="place" v="farm" />
		<tag k="ssr:stedsnr" v="746811" />
	</node>
	<node id="-92993" lat="69.4970527738" lon="17.859019435">
		<tag k="name" v="Lauvland" />
		<tag k="place" v="isolated_dwelling" />
		<tag k="ssr:stedsnr" v="835188" />
	</node>
	<node id="-88895" lat="69.5202583301" lon="17.9190277801">
		<tag k="alt_name" v="Makkeskjer" />
		<tag k="name" v="Makkeskjær" />
		<tag k="place" v="farm" />
		<tag k="ssr:stedsnr" v="746765" />
	</node>
	<node id="-88894" lat="69.3041832181" lon="18.3882772646">
		<tag k="alt_name" v="Rognlia" />
		<tag k="fixme" v="consider place=hamlet" />
		<tag k="name" v="Rognli" />
		<tag k="place" v="farm" />
		<tag k="ssr:stedsnr" v="746760" />
	</node>
	<node id="-90930" lat="69.5379514101" lon="17.9092291156">
		<tag k="fixme" v="consider place=hamlet" />
		<tag k="name" v="Sand" />
		<tag k="place" v="farm" />
		<tag k="ssr:stedsnr" v="351575" />
	</node>
	<node id="-92974" lat="69.5441138871" lon="17.6636777763">
		<tag k="loc_name" v="Husøya" />
		<tag k="name" v="Husøy" />
		<tag k="place" v="village" />
		<tag k="ssr:stedsnr" v="815248" />
	</node>
	<node id="-88874" lat="69.0813361077" lon="17.1687111016">
		<tag k="name" v="Øverland" />
		<tag k="place" v="farm" />
		<tag k="ssr:stedsnr" v="746057" />
	</node>
	<node id="-92967" lat="69.4376333318" lon="17.4030305427">
		<tag k="name" v="Gammelgården" />
		<tag k="place" v="farm" />
		<tag k="ssr:stedsnr" v="809388" />
	</node>
	<node id="-86821" lat="69.2940527812" lon="17.799619437">
		<tag k="name" v="Langberget" />
		<tag k="place" v="farm" />
		<tag k="ssr:stedsnr" v="291682" />
	</node>
	<node id="-86499" lat="69.0490305579" lon="17.1589555462">
		<tag k="name" v="Heimtun" />
		<tag k="place" v="farm" />
		<tag k="ssr:stedsnr" v="260138" />
	</node>
	<node id="-92963" lat="69.3665583378" lon="18.3392249942">
		<tag k="name" v="Myrvang" />
		<tag k="place" v="farm" />
		<tag k="ssr:stedsnr" v="808731" />
	</node>
	<node id="-92962" lat="69.2029611105" lon="17.6731166717">
		<tag k="alt_name" v="Vesterfjellet" />
		<tag k="fixme" v="consider place=hamlet" />
		<tag k="name" v="Vesterfjell" />
		<tag k="place" v="village" />
		<tag k="ssr:stedsnr" v="808468" />
	</node>
	<node id="-92961" lat="69.2045999977" lon="17.6526222129">
		<tag k="name" v="Åsvang" />
		<tag k="place" v="farm" />
		<tag k="ssr:stedsnr" v="808466" />
	</node>
	<node id="-92403" lat="69.3056527747" lon="18.2280500044">
		<tag k="name" v="Elveneset" />
		<tag k="place" v="farm" />
		<tag k="ssr:stedsnr" v="625809" />
	</node>
	<node id="-92959" lat="69.2111305592" lon="17.6183555538">
		<tag k="amenity" v="school" />
		<tag k="name" v="Øverbotn skole" />
		<tag k="old_name" v="Øvrebotn" />
		<tag k="ssr:stedsnr" v="809257" />
	</node>
	<node id="-92955" lat="69.5633376112" lon="17.8617881278">
		<tag k="fixme" v="consider place=hamlet" />
		<tag k="name" v="Giska" />
		<tag k="place" v="farm" />
		<tag k="ssr:stedsnr" v="807839" />
	</node>
	<node id="-86148" lat="69.072097223" lon="16.9525083352">
		<tag k="name" v="Lonkan" />
		<tag k="place" v="farm" />
		<tag k="ssr:stedsnr" v="18003" />
	</node>
	<node id="-92947" lat="69.3142972186" lon="18.2868638807">
		<tag k="alt_name" v="Tårnelvmoen" />
		<tag k="name" v="Tårnelv" />
		<tag k="place" v="hamlet" />
		<tag k="ssr:stedsnr" v="807789" />
	</node>
	<node id="-90898" lat="69.3626972182" lon="17.0323138922">
		<tag k="name" v="Spira" />
		<tag k="place" v="isolated_dwelling" />
		<tag k="ssr:stedsnr" v="345094" />
	</node>
	<node id="-90895" lat="69.0394083353" lon="17.2216860988">
		<tag k="name" v="Brenna" />
		<tag k="place" v="farm" />
		<tag k="ssr:stedsnr" v="333864" />
	</node>
	<node id="-92939" lat="69.3420333363" lon="18.2604555559">
		<tag k="name" v="Josefsheimen" />
		<tag k="place" v="farm" />
		<tag k="ssr:stedsnr" v="807735" />
	</node>
	<node id="-90890" lat="69.2573611125" lon="17.9460555441">
		<tag k="name" v="Bjørkhaug" />
		<tag k="place" v="farm" />
		<tag k="ssr:stedsnr" v="332886" />
	</node>
	<node id="-90888" lat="69.4068104934" lon="17.2922184057">
		<tag k="fixme" v="consider place=hamlet" />
		<tag k="name" v="Straumsnes" />
		<tag k="place" v="farm" />
		<tag k="ssr:stedsnr" v="332255" />
	</node>
	<node id="-90887" lat="69.21759722" lon="18.089480552">
		<tag k="fixme" v="consider place=hamlet" />
		<tag k="name" v="Finnfjord" />
		<tag k="old_name" v="Finnfjorden" />
		<tag k="place" v="village" />
		<tag k="ssr:stedsnr" v="330988" />
	</node>
	<node id="-93313" lat="69.5787666655" lon="17.8481027693">
		<tag k="name" v="Lyngvær" />
		<tag k="place" v="isolated_dwelling" />
		<tag k="ssr:stedsnr" v="868735" />
	</node>
	<node id="-90883" lat="69.4752416672" lon="18.0214833362">
		<tag k="fixme" v="consider place=hamlet" />
		<tag k="name" v="Vangshamn" />
		<tag k="place" v="village" />
		<tag k="ssr:stedsnr" v="327495" />
	</node>
	<node id="-90882" lat="69.2528916686" lon="17.1079805637">
		<tag k="fixme" v="consider place=hamlet" />
		<tag k="name" v="Gjeska" />
		<tag k="place" v="farm" />
		<tag k="ssr:stedsnr" v="324383" />
	</node>
	<node id="-90879" lat="69.3517472262" lon="18.4896722163">
		<tag k="fixme" v="consider place=hamlet" />
		<tag k="name" v="Sultindvik" />
		<tag k="place" v="village" />
		<tag k="ssr:stedsnr" v="324236" />
	</node>
	<node id="-86782" lat="69.2804916655" lon="17.7161416696">
		<tag k="fixme" v="consider place=hamlet" />
		<tag k="name" v="Leirbekkmoen" />
		<tag k="place" v="farm" />
		<tag k="ssr:stedsnr" v="290645" />
	</node>
	<node id="-90876" lat="69.5565749983" lon="17.7386027779">
		<tag k="name" v="Sandvika" />
		<tag k="place" v="isolated_dwelling" />
		<tag k="ssr:stedsnr" v="322844" />
	</node>
	<node id="-90870" lat="69.2687249987" lon="18.2002694304">
		<tag k="name" v="Langhaugen" />
		<tag k="place" v="hamlet" />
		<tag k="ssr:stedsnr" v="322816" />
	</node>
	<node id="-87849" lat="69.3731043364" lon="16.9145777759">
		<tag k="fixme" v="consider place=hamlet" />
		<tag k="name" v="Sandsvik" />
		<tag k="place" v="farm" />
		<tag k="ssr:stedsnr" v="658448" />
	</node>
	<node id="-92916" lat="69.3601527752" lon="17.883913894">
		<tag k="fixme" v="consider place=hamlet" />
		<tag k="name" v="Sørlielva" />
		<tag k="place" v="farm" />
		<tag k="ssr:stedsnr" v="807547" />
	</node>
	<node id="-90865" lat="69.3037305568" lon="18.2743000034">
		<tag k="name" v="Steinmo" />
		<tag k="place" v="farm" />
		<tag k="ssr:stedsnr" v="322795" />
	</node>
	<node id="-93228" lat="69.0560833319" lon="17.0892944438">
		<tag k="name" v="Nygård" />
		<tag k="place" v="farm" />
		<tag k="ssr:stedsnr" v="867022" />
	</node>
	<node id="-92910" lat="69.4137111111" lon="17.9978999894">
		<tag k="alt_name" v="Årnes, in" />
		<tag k="name" v="Indre Årnes" />
		<tag k="place" v="isolated_dwelling" />
		<tag k="ssr:stedsnr" v="807519" />
	</node>
	<node id="-92908" lat="69.1964916632" lon="17.9446416581">
		<tag k="alt_name" v="Russevåg Nordre" />
		<tag k="fixme" v="consider place=hamlet" />
		<tag k="name" v="Vågan" />
		<tag k="place" v="village" />
		<tag k="ssr:stedsnr" v="807487" />
	</node>
	<node id="-90859" lat="69.3298861098" lon="18.13100554">
		<tag k="name" v="Bjorelvdal" />
		<tag k="place" v="isolated_dwelling" />
		<tag k="ssr:stedsnr" v="322760" />
	</node>
	<node id="-92904" lat="69.4944333307" lon="17.5037194394">
		<tag k="name" v="Grashopen" />
		<tag k="place" v="isolated_dwelling" />
		<tag k="ssr:stedsnr" v="807473" />
	</node>
	<node id="-92901" lat="69.1925078522" lon="17.9477121123">
		<tag k="name" v="Sørlia" />
		<tag k="place" v="farm" />
		<tag k="ssr:stedsnr" v="807469" />
	</node>
	<node id="-90852" lat="69.39964444" lon="18.1560694485">
		<tag k="name" v="Kårviknes" />
		<tag k="place" v="farm" />
		<tag k="ssr:stedsnr" v="322692" />
	</node>
	<node id="-92894" lat="69.2277454461" lon="17.7557413676">
		<tag k="fixme" v="consider place=hamlet" />
		<tag k="name" v="Hellemoen" />
		<tag k="place" v="farm" />
		<tag k="ssr:stedsnr" v="807390" />
	</node>
	<node id="-87844" lat="69.0499611088" lon="17.0523805481">
		<tag k="name" v="Storslett" />
		<tag k="place" v="farm" />
		<tag k="ssr:stedsnr" v="443112" />
	</node>
	<node id="-92885" lat="69.4792415344" lon="17.384737791">
		<tag k="name" v="Rognan" />
		<tag k="place" v="locality" />
		<tag k="ssr:stedsnr" v="807270" />
	</node>
	<node id="-90835" lat="69.1976888867" lon="17.6940833197">
		<tag k="alt_name" v="Storvassjord" />
		<tag k="name" v="Storvassjorda" />
		<tag k="place" v="farm" />
		<tag k="ssr:stedsnr" v="322482" />
	</node>
	<node id="-90833" lat="69.2037305547" lon="17.5425305484">
		<tag k="name" v="Sætervoll" />
		<tag k="place" v="farm" />
		<tag k="ssr:stedsnr" v="322476" />
	</node>
	<node id="-90828" lat="69.1722222187" lon="17.864866663">
		<tag k="name" v="Solberg" />
		<tag k="place" v="farm" />
		<tag k="ssr:stedsnr" v="322441" />
	</node>
	<node id="-88866" lat="69.0154222353" lon="17.1318725731">
		<tag k="alt_name" v="Stangneset" />
		<tag k="fixme" v="consider place=hamlet" />
		<tag k="name" v="Stangnes" />
		<tag k="place" v="farm" />
		<tag k="ssr:stedsnr" v="745108" />
	</node>
	<node id="-88778" lat="69.040099998" lon="17.0487277862">
		<tag k="fixme" v="consider place=hamlet" />
		<tag k="name" v="Hofsøya" />
		<tag k="place" v="farm" />
		<tag k="ssr:stedsnr" v="901729" />
	</node>
	<node id="-92872" lat="69.4833417867" lon="17.4058024467">
		<tag k="alt_name" v="Ersfjord" />
		<tag k="fixme" v="consider place=hamlet" />
		<tag k="name" v="Ersfjorden" />
		<tag k="place" v="farm" />
		<tag k="ssr:stedsnr" v="807186" />
	</node>
	<node id="-86725" lat="69.3581095175" lon="18.112069738">
		<tag k="fixme" v="consider place=hamlet" />
		<tag k="name" v="Bukkskinn" />
		<tag k="place" v="farm" />
		<tag k="ssr:stedsnr" v="146508" />
	</node>
	<node id="-92868" lat="69.0259527801" lon="17.219925004">
		<tag k="name" v="Tunheim" />
		<tag k="place" v="farm" />
		<tag k="ssr:stedsnr" v="807086" />
	</node>
	<node id="-90817" lat="69.2274972224" lon="17.8551527714">
		<tag k="alt_name" v="Rørnesmoen" />
		<tag k="name" v="Røyrnesmoen" />
		<tag k="place" v="farm" />
		<tag k="ssr:stedsnr" v="322391" />
	</node>
	<node id="-90816" lat="69.2248555521" lon="17.861588879">
		<tag k="alt_name" v="Nermo" />
		<tag k="name" v="Nermoen" />
		<tag k="place" v="farm" />
		<tag k="ssr:stedsnr" v="322384" />
	</node>
	<node id="-86719" lat="69.2810983827" lon="18.1987055289">
		<tag k="alt_name" v="Vasshaug" />
		<tag k="fixme" v="consider place=hamlet" />
		<tag k="name" v="Nedre Vasshaug" />
		<tag k="place" v="farm" />
		<tag k="ssr:stedsnr" v="140815" />
	</node>
	<node id="-90814" lat="69.2810166652" lon="17.1591694381">
		<tag k="name" v="Stølen" />
		<tag k="place" v="locality" />
		<tag k="ssr:stedsnr" v="322372" />
	</node>
	<node id="-92861" lat="69.1762055562" lon="17.4968111113">
		<tag k="fixme" v="multiple name tags, choose one and add the other to alt_name" />
		<tag k="name" v="Miklebostad;Myklenes" />
		<tag k="place" v="isolated_dwelling" />
		<tag k="ssr:stedsnr" v="807448" />
	</node>
	<node id="-90812" lat="69.2101305534" lon="17.4983888845">
		<tag k="name" v="Ås" />
		<tag k="place" v="farm" />
		<tag k="ssr:stedsnr" v="322369" />
	</node>
	<node id="-90811" lat="69.2119333347" lon="17.6098249945">
		<tag k="name" v="Bjørkhaug" />
		<tag k="place" v="farm" />
		<tag k="ssr:stedsnr" v="322366" />
	</node>
	<node id="-90810" lat="69.2142694491" lon="17.6123333294">
		<tag k="name" v="Utheim" />
		<tag k="place" v="farm" />
		<tag k="ssr:stedsnr" v="322364" />
	</node>
	<node id="-92856" lat="69.3110888847" lon="17.1356000065">
		<tag k="name" v="Toften" />
		<tag k="place" v="isolated_dwelling" />
		<tag k="ssr:stedsnr" v="807421" />
	</node>
	<node id="-92851" lat="69.2343517918" lon="18.1828832916">
		<tag k="fixme" v="consider place=hamlet" />
		<tag k="name" v="Aspenes" />
		<tag k="place" v="farm" />
		<tag k="ssr:stedsnr" v="806677" />
	</node>
	<node id="-86704" lat="69.2003032065" lon="16.9048986575">
		<tag k="fixme" v="consider place=hamlet" />
		<tag k="name" v="Årberg" />
		<tag k="place" v="farm" />
		<tag k="ssr:stedsnr" v="138160" />
	</node>
	<node id="-92847" lat="69.0600861152" lon="17.1715777834">
		<tag k="name" v="Myrsnes" />
		<tag k="place" v="farm" />
		<tag k="ssr:stedsnr" v="807020" />
	</node>
	<node id="-90798" lat="69.4610057534" lon="17.352376025">
		<tag k="fixme" v="consider place=hamlet" />
		<tag k="name" v="Steinfjord" />
		<tag k="place" v="farm" />
		<tag k="ssr:stedsnr" v="322265" />
	</node>
	<node id="-86696" lat="69.3873999994" lon="17.1095972331">
		<tag k="name" v="Ballesvika" />
		<tag k="place" v="farm" />
		<tag k="ssr:stedsnr" v="263736" />
	</node>
	<node id="-86695" lat="69.2755499977" lon="17.0345777821">
		<tag k="name" v="Veidmannen" />
		<tag k="place" v="farm" />
		<tag k="ssr:stedsnr" v="263365" />
	</node>
	<node id="-87190" lat="69.3952277777" lon="17.8294194316">
		<tag k="name" v="Løvland" />
		<tag k="place" v="isolated_dwelling" />
		<tag k="ssr:stedsnr" v="230218" />
	</node>
	<node id="-86693" lat="69.2657111103" lon="17.7309027871">
		<tag k="name" v="Nybygda" />
		<tag k="place" v="hamlet" />
		<tag k="ssr:stedsnr" v="263265" />
	</node>
	<node id="-90787" lat="69.3376861147" lon="18.2598888949">
		<tag k="name" v="Gammelgård" />
		<tag k="place" v="farm" />
		<tag k="ssr:stedsnr" v="321745" />
	</node>
	<node id="-92834" lat="69.0786027751" lon="16.7859999888">
		<tag k="name" v="Sæter" />
		<tag k="place" v="isolated_dwelling" />
		<tag k="ssr:stedsnr" v="806083" />
	</node>
	<node id="-90784" lat="69.3790999999" lon="18.3547194392">
		<tag k="name" v="Søros" />
		<tag k="place" v="farm" />
		<tag k="ssr:stedsnr" v="321710" />
	</node>
	<node id="-87152" lat="69.4834111135" lon="17.8422499856">
		<tag k="name" v="Huselv" />
		<tag k="place" v="farm" />
		<tag k="ssr:stedsnr" v="443489" />
	</node>
	<node id="-90782" lat="69.3908583324" lon="18.1988749845">
		<tag k="name" v="Bakken" />
		<tag k="place" v="farm" />
		<tag k="ssr:stedsnr" v="321661" />
	</node>
	<node id="-88731" lat="69.2338388922" lon="18.1133444448">
		<tag k="leisure" v="pitch" />
		<tag k="name" v="Pionerplassen" />
		<tag k="ssr:stedsnr" v="899528" />
	</node>
	<node id="-90774" lat="69.269102775" lon="17.9938388757">
		<tag k="alt_name" v="Trollvik" />
		<tag k="fixme" v="consider place=hamlet" />
		<tag k="name" v="Trollvika" />
		<tag k="place" v="village" />
		<tag k="ssr:stedsnr" v="321566" />
	</node>
	<node id="-90773" lat="69.2678166662" lon="17.7357388826">
		<tag k="name" v="Skogvang" />
		<tag k="place" v="farm" />
		<tag k="ssr:stedsnr" v="321563" />
	</node>
	<node id="-86676" lat="69.2890833323" lon="18.2110555493">
		<tag k="alt_name" v="Kistelva" />
		<tag k="name" v="Kistelv" />
		<tag k="place" v="hamlet" />
		<tag k="ssr:stedsnr" v="261782" />
	</node>
	<node id="-86674" lat="69.3228749958" lon="18.2336249932">
		<tag k="name" v="Nordberg" />
		<tag k="place" v="farm" />
		<tag k="ssr:stedsnr" v="261749" />
	</node>
	<node id="-86672" lat="69.3276722261" lon="18.1640027823">
		<tag k="alt_name" v="Sollia" />
		<tag k="name" v="Solli" />
		<tag k="place" v="farm" />
		<tag k="ssr:stedsnr" v="261745" />
	</node>
	<node id="-90766" lat="69.1756249973" lon="17.9277444509">
		<tag k="name" v="Lysheim" />
		<tag k="place" v="farm" />
		<tag k="ssr:stedsnr" v="321417" />
	</node>
	<node id="-86669" lat="69.5683222263" lon="17.7243166538">
		<tag k="name" v="Baltestadvær" />
		<tag k="place" v="isolated_dwelling" />
		<tag k="ssr:stedsnr" v="261738" />
	</node>
	<node id="-88716" lat="69.443508333" lon="18.0452944463">
		<tag k="name" v="Mosletta" />
		<tag k="place" v="farm" />
		<tag k="ssr:stedsnr" v="898675" />
	</node>
	<node id="-90763" lat="69.3077194473" lon="17.0311527836">
		<tag k="name" v="Grunnfarnesbotn" />
		<tag k="place" v="farm" />
		<tag k="ssr:stedsnr" v="321388" />
	</node>
	<node id="-90756" lat="69.414349802" lon="17.2153207793">
		<tag k="fixme" v="consider place=hamlet" />
		<tag k="name" v="Hamn" />
		<tag k="place" v="farm" />
		<tag k="ssr:stedsnr" v="321252" />
	</node>
	<node id="-86658" lat="69.3682000047" lon="18.4933749889">
		<tag k="name" v="Storvika" />
		<tag k="place" v="farm" />
		<tag k="ssr:stedsnr" v="261694" />
	</node>
	<node id="-86655" lat="69.4135239486" lon="18.3510945127">
		<tag k="alt_name" v="Grønjord" />
		<tag k="fixme" v="consider place=hamlet" />
		<tag k="name" v="Grønjorda" />
		<tag k="place" v="farm" />
		<tag k="ssr:stedsnr" v="261681" />
	</node>
	<node id="-90748" lat="69.0431305549" lon="17.0510888809">
		<tag k="alt_name" v="Straumsneset" />
		<tag k="name" v="Straumsnes" />
		<tag k="place" v="farm" />
		<tag k="ssr:stedsnr" v="321104" />
	</node>
	<node id="-86650" lat="69.2507444485" lon="17.9550055545">
		<tag k="name" v="Laukhella" />
		<tag k="place" v="hamlet" />
		<tag k="ssr:stedsnr" v="261636" />
	</node>
	<node id="-89535" lat="69.2967416654" lon="17.8586277699">
		<tag k="name" v="Myrvoll" />
		<tag k="place" v="farm" />
		<tag k="ssr:stedsnr" v="19552" />
	</node>
	<node id="-90744" lat="69.0274944474" lon="17.1950583432">
		<tag k="name" v="Gullvang" />
		<tag k="place" v="farm" />
		<tag k="ssr:stedsnr" v="321056" />
	</node>
	<node id="-90742" lat="69.092869442" lon="17.0273111064">
		<tag k="alt_name" v="Nymo" />
		<tag k="name" v="Nymoen" />
		<tag k="place" v="farm" />
		<tag k="ssr:stedsnr" v="321026" />
	</node>
	<node id="-90741" lat="69.014416666" lon="17.1284138874">
		<tag k="alt_name" v="Sandmoen" />
		<tag k="name" v="Sandmo" />
		<tag k="place" v="farm" />
		<tag k="ssr:stedsnr" v="320096" />
	</node>
	<node id="-90738" lat="69.0177111089" lon="17.1626833345">
		<tag k="name" v="Silsand" />
		<tag k="place" v="farm" />
		<tag k="ssr:stedsnr" v="320063" />
	</node>
	<node id="-90736" lat="69.1687416693" lon="17.4075860998">
		<tag k="alt_name" v="Gammalsæter" />
		<tag k="name" v="Gammelsæter" />
		<tag k="place" v="farm" />
		<tag k="ssr:stedsnr" v="321211" />
	</node>
	<node id="-89533" lat="69.2985722212" lon="17.7610694349">
		<tag k="name" v="Lauvåsen" />
		<tag k="place" v="farm" />
		<tag k="ssr:stedsnr" v="19540" />
	</node>
	<node id="-86636" lat="69.2992083317" lon="17.8623805425">
		<tag k="name" v="Øverås" />
		<tag k="place" v="farm" />
		<tag k="ssr:stedsnr" v="261580" />
	</node>
	<node id="-93287" lat="69.2005972198" lon="17.8156388763">
		<tag k="name" v="Soleng" />
		<tag k="place" v="farm" />
		<tag k="ssr:stedsnr" v="868490" />
	</node>
	<node id="-89532" lat="69.3556141097" lon="18.3074223424">
		<tag k="alt_name" v="Straumen, indre;Straumen" />
		<tag k="fixme" v="consider place=hamlet" />
		<tag k="name" v="Indre Straumen" />
		<tag k="place" v="farm" />
		<tag k="ssr:stedsnr" v="19727" />
	</node>
	<node id="-91238" lat="69.2027388932" lon="17.5110722096">
		<tag k="name" v="Kampevoll" />
		<tag k="place" v="farm" />
		<tag k="ssr:stedsnr" v="382481" />
	</node>
	<node id="-93627" lat="69.4536178388" lon="17.8913122726">
		<tag k="fixme" v="consider place=hamlet" />
		<tag k="name" v="Fjordbotn" />
		<tag k="place" v="farm" />
		<tag k="ssr:stedsnr" v="1077886" />
	</node>
	<node id="-88671" lat="69.4476583341" lon="17.2972583411">
		<tag k="amenity" v="nursing_home" />
		<tag k="name" v="Bergsheimen" />
		<tag k="ssr:stedsnr" v="720820" />
	</node>
	<node id="-90718" lat="69.2338944401" lon="17.9718138937">
		<tag k="name" v="Bjørnhiet" />
		<tag k="place" v="farm" />
		<tag k="ssr:stedsnr" v="211166" />
	</node>
	<node id="-92762" lat="69.3242277756" lon="17.077208326">
		<tag k="fixme" v="consider place=hamlet" />
		<tag k="name" v="Kongsnes" />
		<tag k="place" v="farm" />
		<tag k="ssr:stedsnr" v="780443" />
	</node>
	<node id="-86614" lat="69.1966638931" lon="17.4531361144">
		<tag k="name" v="Marknes" />
		<tag k="place" v="farm" />
		<tag k="ssr:stedsnr" v="261513" />
	</node>
	<node id="-93625" lat="69.1696348563" lon="17.735814186">
		<tag k="alt_name" v="Vangsvik" />
		<tag k="fixme" v="consider place=hamlet" />
		<tag k="name" v="Vangsvika" />
		<tag k="place" v="farm" />
		<tag k="ssr:stedsnr" v="1077809" />
	</node>
	<node id="-90707" lat="69.3614083294" lon="18.3020305435">
		<tag k="alt_name" v="Rossfjordstraumen" />
		<tag k="amenity" v="school" />
		<tag k="name" v="Rossfjord skole" />
		<tag k="ssr:stedsnr" v="203260" />
	</node>
	<node id="-92753" lat="69.1128777821" lon="17.0613499916">
		<tag k="name" v="Beretgammen" />
		<tag k="place" v="isolated_dwelling" />
		<tag k="ssr:stedsnr" v="780308" />
	</node>
	<node id="-90701" lat="69.2742944416" lon="17.7140250041">
		<tag k="name" v="Skogvoll" />
		<tag k="place" v="farm" />
		<tag k="ssr:stedsnr" v="201589" />
	</node>
	<node id="-90698" lat="69.2940881464" lon="17.7950721082">
		<tag k="fixme" v="consider place=hamlet" />
		<tag k="name" v="Grasmyrskogen" />
		<tag k="place" v="village" />
		<tag k="ssr:stedsnr" v="201533" />
	</node>
	<node id="-90697" lat="69.4166361116" lon="17.9508638931">
		<tag k="name" v="Øyjorda" />
		<tag k="place" v="farm" />
		<tag k="ssr:stedsnr" v="201493" />
	</node>
	<node id="-90695" lat="69.2044583337" lon="17.5322472194">
		<tag k="name" v="Solheim" />
		<tag k="place" v="farm" />
		<tag k="ssr:stedsnr" v="201459" />
	</node>
	<node id="-86597" lat="69.4194027823" lon="17.8636666561">
		<tag k="name" v="Skåråsen" />
		<tag k="place" v="isolated_dwelling" />
		<tag k="ssr:stedsnr" v="261469" />
	</node>
	<node id="-90692" lat="69.4189534709" lon="17.863357285">
		<tag k="fixme" v="consider place=hamlet" />
		<tag k="name" v="Bukkemoen" />
		<tag k="place" v="farm" />
		<tag k="ssr:stedsnr" v="201431" />
	</node>
	<node id="-90686" lat="69.2027444414" lon="17.4652638763">
		<tag k="alt_name" v="Storjord" />
		<tag k="name" v="Storjorda" />
		<tag k="place" v="farm" />
		<tag k="ssr:stedsnr" v="201361" />
	</node>
	<node id="-88636" lat="69.3571000027" lon="18.3042222095">
		<tag k="name" v="Straumen Indre" />
		<tag k="place" v="isolated_dwelling" />
		<tag k="ssr:stedsnr" v="717755" />
	</node>
	<node id="-89866" lat="69.3857499987" lon="18.3375611188">
		<tag k="name" v="Årnes" />
		<tag k="place" v="farm" />
		<tag k="ssr:stedsnr" v="79713" />
	</node>
	<node id="-86584" lat="69.2362483675" lon="17.6121915714">
		<tag k="alt_name" v="Brygghaug" />
		<tag k="name" v="Brygghaugen" />
		<tag k="place" v="hamlet" />
		<tag k="ssr:stedsnr" v="261437" />
	</node>
	<node id="-90675" lat="69.3895880338" lon="18.0558550762">
		<tag k="alt_name" v="Hanes" />
		<tag k="name" v="Hannes" />
		<tag k="place" v="farm" />
		<tag k="ssr:stedsnr" v="201029" />
	</node>
	<node id="-86576" lat="69.2322611085" lon="17.6295277855">
		<tag k="name" v="Fredly" />
		<tag k="place" v="farm" />
		<tag k="ssr:stedsnr" v="261420" />
	</node>
	<node id="-89864" lat="69.3774029639" lon="18.4663728054">
		<tag k="fixme" v="consider place=hamlet" />
		<tag k="name" v="Målsjorda" />
		<tag k="place" v="farm" />
		<tag k="ssr:stedsnr" v="79696" />
	</node>
	<node id="-86574" lat="69.236938888" lon="17.8373749861">
		<tag k="name" v="Skogheim" />
		<tag k="place" v="isolated_dwelling" />
		<tag k="ssr:stedsnr" v="261412" />
	</node>
	<node id="-90667" lat="69.2864840562" lon="18.207633795">
		<tag k="alt_name" v="Vasshaug" />
		<tag k="fixme" v="consider place=hamlet" />
		<tag k="name" v="Øvre Vasshaug" />
		<tag k="place" v="farm" />
		<tag k="ssr:stedsnr" v="200791" />
	</node>
	<node id="-90664" lat="69.3125479977" lon="18.3822506201">
		<tag k="fixme" v="consider place=hamlet" />
		<tag k="name" v="Tårnstad" />
		<tag k="place" v="farm" />
		<tag k="ssr:stedsnr" v="200779" />
	</node>
	<node id="-93276" lat="69.1779138938" lon="17.9312333215">
		<tag k="name" v="Fridheim" />
		<tag k="place" v="farm" />
		<tag k="ssr:stedsnr" v="868453" />
	</node>
	<node id="-86565" lat="69.2111888914" lon="17.8880027673">
		<tag k="name" v="Brannmoen" />
		<tag k="place" v="farm" />
		<tag k="ssr:stedsnr" v="261397" />
	</node>
	<node id="-86564" lat="69.281144443" lon="16.9851249969">
		<tag k="fixme" v="consider place=hamlet" />
		<tag k="name" v="Kaldfarnes" />
		<tag k="place" v="village" />
		<tag k="ssr:stedsnr" v="261392" />
	</node>
	<node id="-89862" lat="69.3492555549" lon="18.0073194451">
		<tag k="alt_name" v="Giøy" />
		<tag k="name" v="Giøya" />
		<tag k="place" v="farm" />
		<tag k="ssr:stedsnr" v="79676" />
	</node>
	<node id="-90653" lat="69.258051236" lon="17.9385411907">
		<tag k="fixme" v="consider place=hamlet" />
		<tag k="name" v="Vika" />
		<tag k="place" v="farm" />
		<tag k="ssr:stedsnr" v="200613" />
	</node>
	<node id="-90651" lat="69.1817444462" lon="17.7412110977">
		<tag k="name" v="Støstad" />
		<tag k="place" v="farm" />
		<tag k="ssr:stedsnr" v="200495" />
	</node>
	<node id="-86551" lat="69.4128329766" lon="17.2597214114">
		<tag k="fixme" v="consider place=hamlet" />
		<tag k="name" v="Finnsæter" />
		<tag k="place" v="farm" />
		<tag k="ssr:stedsnr" v="261267" />
	</node>
	<node id="-86550" lat="69.4133416706" lon="17.1466388988">
		<tag k="building" v="industrial" />
		<tag k="industrial" v="factory" />
		<tag k="name" v="Verket" />
		<tag k="ssr:stedsnr" v="261259" />
	</node>
	<node id="-90643" lat="69.1778694475" lon="17.9208111199">
		<tag k="name" v="Hola" />
		<tag k="place" v="farm" />
		<tag k="ssr:stedsnr" v="200464" />
	</node>
	<node id="-92931" lat="69.2260955703" lon="18.2124709433">
		<tag k="fixme" v="consider place=hamlet" />
		<tag k="name" v="Haugen" />
		<tag k="place" v="farm" />
		<tag k="ssr:stedsnr" v="807655" />
	</node>
	<node id="-90640" lat="69.1643444469" lon="17.8190999911">
		<tag k="fixme" v="consider place=hamlet" />
		<tag k="name" v="Rubbestad" />
		<tag k="place" v="village" />
		<tag k="ssr:stedsnr" v="200456" />
	</node>
	<node id="-88591" lat="69.4376805579" lon="17.4962749926">
		<tag k="name" v="Javikgammen" />
		<tag k="place" v="locality" />
		<tag k="ssr:stedsnr" v="661105" />
	</node>
	<node id="-90636" lat="69.3368222219" lon="17.9230444518">
		<tag k="name" v="Skognes" />
		<tag k="place" v="farm" />
		<tag k="ssr:stedsnr" v="200563" />
	</node>
	<node id="-90635" lat="69.3509472244" lon="17.8765361201">
		<tag k="name" v="Rydningen" />
		<tag k="place" v="farm" />
		<tag k="ssr:stedsnr" v="200553" />
	</node>
	<node id="-90633" lat="69.2305953064" lon="17.8159468265">
		<tag k="fixme" v="consider place=hamlet" />
		<tag k="name" v="Pålsrud" />
		<tag k="place" v="farm" />
		<tag k="ssr:stedsnr" v="200395" />
	</node>
	<node id="-90623" lat="69.2457861106" lon="17.8736610973">
		<tag k="name" v="Steinhagen" />
		<tag k="place" v="farm" />
		<tag k="ssr:stedsnr" v="200434" />
	</node>
	<node id="-89217" lat="69.216513889" lon="17.5024027704">
		<tag k="name" v="Solstad" />
		<tag k="place" v="farm" />
		<tag k="ssr:stedsnr" v="868362" />
	</node>
	<node id="-89855" lat="69.4482027748" lon="18.1415249999">
		<tag k="name" v="Spira" />
		<tag k="place" v="farm" />
		<tag k="ssr:stedsnr" v="79635" />
	</node>
	<node id="-88566" lat="69.1681888884" lon="17.6782305403">
		<tag k="name" v="Sætra" />
		<tag k="place" v="locality" />
		<tag k="ssr:stedsnr" v="658514" />
	</node>
	<node id="-88489" lat="69.4384305535" lon="17.4721861098">
		<tag k="name" v="Nysted" />
		<tag k="place" v="farm" />
		<tag k="ssr:stedsnr" v="722125" />
	</node>
	<node id="-90611" lat="69.1411999992" lon="17.086305565">
		<tag k="name" v="Bunkan" />
		<tag k="place" v="farm" />
		<tag k="ssr:stedsnr" v="200168" />
	</node>
	<node id="-88147" lat="69.2751805516" lon="17.0376388881">
		<tag k="name" v="Veidmannen" />
		<tag k="place" v="farm" />
		<tag k="ssr:stedsnr" v="688345" />
	</node>
	<node id="-92655" lat="69.2650305563" lon="17.7440277878">
		<tag k="name" v="Gunnarheimen" />
		<tag k="place" v="locality" />
		<tag k="ssr:stedsnr" v="776699" />
	</node>
	<node id="-86507" lat="69.1041694422" lon="17.0279305459">
		<tag k="name" v="Dalheim" />
		<tag k="place" v="farm" />
		<tag k="ssr:stedsnr" v="260273" />
	</node>
	<node id="-90600" lat="69.0791722197" lon="17.0319777675">
		<tag k="name" v="Bråten" />
		<tag k="place" v="farm" />
		<tag k="ssr:stedsnr" v="200048" />
	</node>
	<node id="-86503" lat="69.191094441" lon="17.0449999953">
		<tag k="fixme" v="consider place=hamlet" />
		<tag k="name" v="Flakstadvåg" />
		<tag k="place" v="village" />
		<tag k="ssr:stedsnr" v="260191" />
	</node>
	<node id="-90595" lat="69.2345499984" lon="18.0939472305">
		<tag k="name" v="Finnfjordbotn - Vuotnabahta" />
		<tag k="name:no" v="Finnfjordbotn" />
		<tag k="name:se" v="Vuotnabahta" />
		<tag k="old_name:se" v="Vuodnabatta" />
		<tag k="place" v="village" />
		<tag k="ssr:stedsnr" v="199680" />
	</node>
	<node id="-90592" lat="69.5079777814" lon="17.4316416769">
		<tag k="loc_name" v="Medfjorden" />
		<tag k="name" v="Mefjord" />
		<tag k="place" v="farm" />
		<tag k="ssr:stedsnr" v="182622" />
	</node>
	<node id="-86495" lat="69.1028361094" lon="17.0837777645">
		<tag k="name" v="Finngamman" />
		<tag k="place" v="isolated_dwelling" />
		<tag k="ssr:stedsnr" v="260075" />
	</node>
	<node id="-89509" lat="69.5445222242" lon="17.8017249931">
		<tag k="name" v="Gamvikhaugen" />
		<tag k="place" v="isolated_dwelling" />
		<tag k="ssr:stedsnr" v="18835" />
	</node>
	<node id="-89508" lat="69.5369749962" lon="17.9104055451">
		<tag k="name" v="Sand" />
		<tag k="place" v="farm" />
		<tag k="ssr:stedsnr" v="18825" />
	</node>
	<node id="-91214" lat="69.2228509834" lon="17.8208461698">
		<tag k="fixme" v="consider place=hamlet" />
		<tag k="name" v="Jonsgård" />
		<tag k="place" v="farm" />
		<tag k="ssr:stedsnr" v="382389" />
	</node>
	<node id="-89507" lat="69.5350833368" lon="17.6806055531">
		<tag k="alt_name" v="Ytre Husa" />
		<tag k="name" v="Husa" />
		<tag k="place" v="farm" />
		<tag k="ssr:stedsnr" v="18785" />
	</node>
	<node id="-86479" lat="69.4153895674" lon="17.2129773673">
		<tag k="alt_name" v="Havn" />
		<tag k="name" v="Hamn" />
		<tag k="place" v="farm" />
		<tag k="ssr:stedsnr" v="242530" />
	</node>
	<node id="-86478" lat="69.1148824623" lon="17.0571261769">
		<tag k="alt_name" v="Olaheim" />
		<tag k="fixme" v="consider place=hamlet" />
		<tag k="name" v="Olaheimen" />
		<tag k="place" v="farm" />
		<tag k="ssr:stedsnr" v="240272" />
	</node>
	<node id="-86474" lat="69.4813666705" lon="17.5546944393">
		<tag k="name" v="Bottelgården" />
		<tag k="place" v="farm" />
		<tag k="ssr:stedsnr" v="55207" />
	</node>
	<node id="-92926" lat="69.2541611127" lon="17.5637000096">
		<tag k="alt_name" v="Svanelvplass" />
		<tag k="name" v="Svanelvplassen" />
		<tag k="place" v="farm" />
		<tag k="ssr:stedsnr" v="807592" />
	</node>
	<node id="-90567" lat="69.3673250004" lon="17.4035666644">
		<tag k="name" v="Nystad" />
		<tag k="place" v="farm" />
		<tag k="ssr:stedsnr" v="174867" />
	</node>
	<node id="-92918" lat="69.2942194461" lon="17.7711611158">
		<tag k="name" v="Fagerlia" />
		<tag k="place" v="farm" />
		<tag k="ssr:stedsnr" v="807554" />
	</node>
	<node id="-88514" lat="69.2948043743" lon="17.7876850444">
		<tag k="alt_name" v="Tømmerelvbakk" />
		<tag k="fixme" v="consider place=hamlet" />
		<tag k="name" v="Tømmerelvbakken" />
		<tag k="place" v="farm" />
		<tag k="ssr:stedsnr" v="654683" />
	</node>
	<node id="-90868" lat="69.2861699422" lon="18.2305795583">
		<tag k="name" v="Holmemoen" />
		<tag k="place" v="farm" />
		<tag k="ssr:stedsnr" v="322807" />
	</node>
	<node id="-86450" lat="69.1557166663" lon="16.8832249915">
		<tag k="fixme" v="consider place=hamlet" />
		<tag k="name" v="Hallvardsøy" />
		<tag k="place" v="farm" />
		<tag k="ssr:stedsnr" v="52503" />
	</node>
	<node id="-89843" lat="69.3890861145" lon="17.8176388924">
		<tag k="name" v="Dalheim" />
		<tag k="place" v="farm" />
		<tag k="ssr:stedsnr" v="79491" />
	</node>
	<node id="-92587" lat="69.2335805601" lon="18.0803666547">
		<tag k="name" v="Stormyra" />
		<tag k="place" v="farm" />
		<tag k="ssr:stedsnr" v="757954" />
	</node>
	<node id="-92586" lat="69.385175438" lon="17.1110604385">
		<tag k="fixme" v="consider place=hamlet" />
		<tag k="name" v="Ballesvika" />
		<tag k="place" v="farm" />
		<tag k="ssr:stedsnr" v="748743" />
	</node>
	<node id="-92585" lat="69.3744961235" lon="18.3484492394">
		<tag k="alt_name" v="Straumen, ytre" />
		<tag k="fixme" v="consider place=hamlet" />
		<tag k="name" v="Ytre Straumen" />
		<tag k="place" v="farm" />
		<tag k="ssr:stedsnr" v="747739" />
	</node>
	<node id="-88488" lat="69.4370805576" lon="17.4737388828">
		<tag k="name" v="Myrvoll" />
		<tag k="place" v="farm" />
		<tag k="ssr:stedsnr" v="722122" />
	</node>
	<node id="-92583" lat="69.3566944454" lon="18.1091833245">
		<tag k="name" v="Bukkskinn" />
		<tag k="place" v="farm" />
		<tag k="ssr:stedsnr" v="747732" />
	</node>
	<node id="-92582" lat="69.362961111" lon="18.1135111175">
		<tag k="name" v="Bakkeland" />
		<tag k="place" v="farm" />
		<tag k="ssr:stedsnr" v="747729" />
	</node>
	<node id="-92579" lat="69.4273249968" lon="18.36702777">
		<tag k="alt_name" v="Medskjær" />
		<tag k="name" v="Medskjer" />
		<tag k="place" v="farm" />
		<tag k="ssr:stedsnr" v="747660" />
	</node>
	<node id="-92575" lat="69.310397219" lon="17.1581083391">
		<tag k="name" v="Osteren" />
		<tag k="place" v="neighbourhood" />
		<tag k="ssr:stedsnr" v="747420" />
	</node>
	<node id="-92573" lat="69.2985472184" lon="16.9418944317">
		<tag k="name" v="Yttergården" />
		<tag k="place" v="farm" />
		<tag k="ssr:stedsnr" v="747407" />
	</node>
	<node id="-90523" lat="69.0539750038" lon="17.075374988">
		<tag k="name" v="Slottet" />
		<tag k="place" v="farm" />
		<tag k="ssr:stedsnr" v="173665" />
	</node>
	<node id="-92567" lat="69.4602083374" lon="17.2498583431">
		<tag k="alt_name" v="Lillebø" />
		<tag k="name" v="Litlebø" />
		<tag k="place" v="farm" />
		<tag k="ssr:stedsnr" v="747274" />
	</node>
	<node id="-89497" lat="69.3444300219" lon="18.2878268438">
		<tag k="fixme" v="consider place=hamlet" />
		<tag k="name" v="Linberget" />
		<tag k="place" v="farm" />
		<tag k="ssr:stedsnr" v="18697" />
	</node>
	<node id="-86419" lat="69.1438166701" lon="17.4409027745">
		<tag k="name" v="Fjøsvollen" />
		<tag k="place" v="farm" />
		<tag k="ssr:stedsnr" v="51505" />
	</node>
	<node id="-92561" lat="69.5089277747" lon="17.6282472302">
		<tag k="alt_name" v="Fjordgard" />
		<tag k="loc_name" v="Fjordgården" />
		<tag k="name" v="Fjordgård" />
		<tag k="place" v="village" />
		<tag k="ssr:stedsnr" v="746785" />
	</node>
	<node id="-92558" lat="69.3169611107" lon="18.2900277832">
		<tag k="name" v="Bjørnhaugen" />
		<tag k="place" v="farm" />
		<tag k="ssr:stedsnr" v="746745" />
	</node>
	<node id="-92553" lat="69.2300850218" lon="18.1982403298">
		<tag k="fixme" v="consider place=hamlet" />
		<tag k="name" v="Djupdal" />
		<tag k="place" v="farm" />
		<tag k="ssr:stedsnr" v="746646" />
	</node>
	<node id="-92551" lat="69.2563600401" lon="17.5913105883">
		<tag k="alt_name" v="Svanelvmo" />
		<tag k="fixme" v="consider place=hamlet" />
		<tag k="name" v="Svanelvmoen" />
		<tag k="place" v="farm" />
		<tag k="ssr:stedsnr" v="746590" />
	</node>
	<node id="-92550" lat="69.3817749978" lon="18.3346749991">
		<tag k="name" v="Osan" />
		<tag k="place" v="farm" />
		<tag k="ssr:stedsnr" v="746697" />
	</node>
	<node id="-92547" lat="69.3866388886" lon="18.1773722169">
		<tag k="name" v="Kårvik" />
		<tag k="place" v="farm" />
		<tag k="ssr:stedsnr" v="746661" />
	</node>
	<node id="-92543" lat="69.1671416688" lon="17.8797000054">
		<tag k="alt_name" v="Avløysninga" />
		<tag k="name" v="Avløysinga" />
		<tag k="place" v="farm" />
		<tag k="ssr:stedsnr" v="746441" />
	</node>
	<node id="-92542" lat="69.1641083305" lon="17.7019444353">
		<tag k="name" v="Gunnarheim" />
		<tag k="place" v="farm" />
		<tag k="ssr:stedsnr" v="746437" />
	</node>
	<node id="-92541" lat="69.163794446" lon="17.7760000047">
		<tag k="name" v="Aspesletta" />
		<tag k="place" v="farm" />
		<tag k="ssr:stedsnr" v="746435" />
	</node>
	<node id="-90490" lat="69.0754750021" lon="17.0684250097">
		<tag k="name" v="Sommarsætet" />
		<tag k="place" v="locality" />
		<tag k="ssr:stedsnr" v="173258" />
	</node>
	<node id="-92537" lat="69.2453450985" lon="17.5058859512">
		<tag k="name" v="Kaperdal" />
		<tag k="place" v="locality" />
		<tag k="ssr:stedsnr" v="746420" />
	</node>
	<node id="-89492" lat="69.4003423755" lon="18.3520616691">
		<tag k="alt_name" v="Kraknes" />
		<tag k="fixme" v="consider place=hamlet" />
		<tag k="name" v="Kråknes" />
		<tag k="place" v="farm" />
		<tag k="ssr:stedsnr" v="18638" />
	</node>
	<node id="-87102" lat="69.0679888876" lon="17.1914333228">
		<tag k="alt_name" v="Laneset" />
		<tag k="name" v="Lanes" />
		<tag k="place" v="farm" />
		<tag k="ssr:stedsnr" v="443029" />
	</node>
	<node id="-92525" lat="69.205752782" lon="17.5051444489">
		<tag k="name" v="Skogtun" />
		<tag k="place" v="farm" />
		<tag k="ssr:stedsnr" v="746369" />
	</node>
	<node id="-92524" lat="69.3819611077" lon="17.1120416554">
		<tag k="fixme" v="consider place=hamlet" />
		<tag k="name" v="Ballesvika" />
		<tag k="place" v="village" />
		<tag k="ssr:stedsnr" v="746355" />
	</node>
	<node id="-90474" lat="69.0688166685" lon="16.8293888789">
		<tag k="name" v="Elvekroken" />
		<tag k="place" v="farm" />
		<tag k="ssr:stedsnr" v="172898" />
	</node>
	<node id="-88421" lat="69.2398722191" lon="17.6199722274">
		<tag k="alt_name" v="Brygghaug østre" />
		<tag k="fixme" v="consider place=hamlet" />
		<tag k="name" v="Østre Brygghaugen" />
		<tag k="place" v="farm" />
		<tag k="ssr:stedsnr" v="719513" />
	</node>
	<node id="-92513" lat="69.1496305519" lon="17.0827277815">
		<tag k="name" v="Stordalen" />
		<tag k="place" v="isolated_dwelling" />
		<tag k="ssr:stedsnr" v="746224" />
	</node>
	<node id="-86893" lat="69.4444763454" lon="18.1584411217">
		<tag k="fixme" v="consider place=hamlet" />
		<tag k="name" v="Lenvik" />
		<tag k="place" v="farm" />
		<tag k="ssr:stedsnr" v="200664" />
	</node>
	<node id="-92502" lat="69.0761534404" lon="17.0428039444">
		<tag k="fixme" v="consider place=hamlet" />
		<tag k="name" v="Frovåg" />
		<tag k="place" v="farm" />
		<tag k="ssr:stedsnr" v="746016" />
	</node>
	<node id="-92500" lat="69.0735500041" lon="17.1979361088">
		<tag k="name" v="Risøynes" />
		<tag k="place" v="farm" />
		<tag k="ssr:stedsnr" v="746010" />
	</node>
	<node id="-92489" lat="69.2095777771" lon="17.9177805625">
		<tag k="name" v="Vassjord" />
		<tag k="place" v="hamlet" />
		<tag k="ssr:stedsnr" v="655356" />
	</node>
	<node id="-88391" lat="69.1976833326" lon="17.1912249952">
		<tag k="name" v="Husmannsplassen" />
		<tag k="place" v="locality" />
		<tag k="ssr:stedsnr" v="718494" />
	</node>
	<node id="-90424" lat="69.4286916657" lon="18.3643638957">
		<tag k="name" v="Meskjær" />
		<tag k="place" v="farm" />
		<tag k="ssr:stedsnr" v="171858" />
	</node>
	<node id="-90423" lat="69.4113944441" lon="18.3510916589">
		<tag k="name" v="Grønjorda" />
		<tag k="place" v="farm" />
		<tag k="ssr:stedsnr" v="171857" />
	</node>
	<node id="-89139" lat="69.2333638904" lon="17.977533326">
		<tag k="name" v="Luneborg" />
		<tag k="place" v="farm" />
		<tag k="ssr:stedsnr" v="939193" />
	</node>
	<node id="-88366" lat="69.4116361137" lon="18.1623027761">
		<tag k="historic" v="shieling" />
		<tag k="name" v="Peterheimen" />
		<tag k="place" v="locality" />
		<tag k="ssr:stedsnr" v="717682" />
	</node>
	<node id="-86407" lat="69.4244611116" lon="18.0761388858">
		<tag k="name" v="Smedheimen" />
		<tag k="place" v="locality" />
		<tag k="ssr:stedsnr" v="48654" />
	</node>
	<node id="-88350" lat="69.2321750033" lon="18.0965666577">
		<tag k="amenity" v="school" />
		<tag k="name" v="Finnsnes gymnas" />
		<tag k="ssr:stedsnr" v="717467" />
	</node>
	<node id="-86297" lat="69.2347305538" lon="17.5853083249">
		<tag k="name" v="Myrvang" />
		<tag k="place" v="farm" />
		<tag k="ssr:stedsnr" v="233586" />
	</node>
	<node id="-86403" lat="69.3887527756" lon="17.3995750066">
		<tag k="name" v="Sætra" />
		<tag k="place" v="farm" />
		<tag k="ssr:stedsnr" v="235930" />
	</node>
	<node id="-92430" lat="69.0464092884" lon="17.1693851735">
		<tag k="alt_name" v="Valvåg" />
		<tag k="name" v="Valvågen" />
		<tag k="place" v="hamlet" />
		<tag k="ssr:stedsnr" v="635291" />
	</node>
	<node id="-92429" lat="69.3781194408" lon="18.4687027762">
		<tag k="alt_name" v="Målsjord" />
		<tag k="name" v="Målsjorda" />
		<tag k="place" v="hamlet" />
		<tag k="ssr:stedsnr" v="633977" />
	</node>
	<node id="-92427" lat="69.3386805518" lon="17.1054944428">
		<tag k="name" v="Torsken" />
		<tag k="place" v="village" />
		<tag k="ssr:stedsnr" v="632292" />
	</node>
	<node id="-88791" lat="69.1612916714" lon="17.6090694373">
		<tag k="name" v="Lundgård" />
		<tag k="place" v="farm" />
		<tag k="ssr:stedsnr" v="901528" />
	</node>
	<node id="-86481" lat="69.1138555586" lon="17.2754833347">
		<tag k="name" v="Vassvik" />
		<tag k="place" v="hamlet" />
		<tag k="ssr:stedsnr" v="78243" />
	</node>
	<node id="-92422" lat="69.3421361142" lon="18.1023361043">
		<tag k="name" v="Skogdal" />
		<tag k="place" v="farm" />
		<tag k="ssr:stedsnr" v="630476" />
	</node>
	<node id="-92421" lat="69.2036083305" lon="17.6583166681">
		<tag k="fixme" v="consider place=hamlet" />
		<tag k="name" v="Torslia" />
		<tag k="place" v="farm" />
		<tag k="ssr:stedsnr" v="627277" />
	</node>
	<node id="-86276" lat="69.2364777753" lon="16.9433722194">
		<tag k="name" v="Skrivargården" />
		<tag k="place" v="locality" />
		<tag k="ssr:stedsnr" v="233249" />
	</node>
	<node id="-90709" lat="69.3682782121" lon="17.0020684213">
		<tag k="fixme" v="consider place=hamlet" />
		<tag k="name" v="Barbogen" />
		<tag k="place" v="farm" />
		<tag k="ssr:stedsnr" v="203343" />
	</node>
	<node id="-93227" lat="69.0695388864" lon="16.8256111127">
		<tag k="alt_name" v="Skogli" />
		<tag k="name" v="Skoglund" />
		<tag k="place" v="farm" />
		<tag k="ssr:stedsnr" v="867009" />
	</node>
	<node id="-92412" lat="69.5622727149" lon="17.728568117">
		<tag k="name" v="Nymoen" />
		<tag k="place" v="farm" />
		<tag k="ssr:stedsnr" v="625859" />
	</node>
	<node id="-92410" lat="69.5500021765" lon="17.7974123443">
		<tag k="name" v="Astria" />
		<tag k="place" v="farm" />
		<tag k="ssr:stedsnr" v="625847" />
	</node>
	<node id="-92408" lat="69.5125693185" lon="17.7192402164">
		<tag k="name" v="Trælvika" />
		<tag k="place" v="isolated_dwelling" />
		<tag k="ssr:stedsnr" v="625832" />
	</node>
	<node id="-87764" lat="69.4420166693" lon="17.9855000044">
		<tag k="alt_name" v="Lysnes ytre" />
		<tag k="name" v="Ytre Lysnes" />
		<tag k="place" v="farm" />
		<tag k="ssr:stedsnr" v="512864" />
	</node>
	<node id="-92405" lat="69.3000416981" lon="18.2214038446">
		<tag k="alt_name" v="Kistelv" />
		<tag k="fixme" v="consider place=hamlet" />
		<tag k="name" v="Kistelva" />
		<tag k="place" v="farm" />
		<tag k="ssr:stedsnr" v="625818" />
	</node>
	<node id="-91888" lat="69.2482472233" lon="18.1410388852">
		<tag k="name" v="Storelvmoen" />
		<tag k="place" v="isolated_dwelling" />
		<tag k="ssr:stedsnr" v="563675" />
	</node>
	<node id="-92401" lat="69.3006250028" lon="18.0034750043">
		<tag k="name" v="Sørnes" />
		<tag k="place" v="farm" />
		<tag k="ssr:stedsnr" v="625804" />
	</node>
	<node id="-92400" lat="69.3207828697" lon="18.4914614359">
		<tag k="fixme" v="consider place=hamlet" />
		<tag k="name" v="Sandnes" />
		<tag k="place" v="farm" />
		<tag k="ssr:stedsnr" v="625798" />
	</node>
	<node id="-92396" lat="69.3766583317" lon="18.4793555482">
		<tag k="name" v="Nymo" />
		<tag k="place" v="farm" />
		<tag k="ssr:stedsnr" v="625752" />
	</node>
	<node id="-92394" lat="69.4539955949" lon="18.3647966479">
		<tag k="fixme" v="consider place=hamlet" />
		<tag k="name" v="Kravik" />
		<tag k="place" v="farm" />
		<tag k="ssr:stedsnr" v="625688" />
	</node>
	<node id="-92392" lat="69.5054944479" lon="17.9011333278">
		<tag k="name" v="Lavollen" />
		<tag k="place" v="farm" />
		<tag k="ssr:stedsnr" v="625677" />
	</node>
	<node id="-92881" lat="69.4423143978" lon="17.4221074145">
		<tag k="fixme" v="consider place=hamlet" />
		<tag k="name" v="Lutnes" />
		<tag k="place" v="farm" />
		<tag k="ssr:stedsnr" v="807240" />
	</node>
	<node id="-88101" lat="69.3349916666" lon="17.9220527786">
		<tag k="name" v="Heimland" />
		<tag k="place" v="farm" />
		<tag k="ssr:stedsnr" v="686550" />
	</node>
	<node id="-90329" lat="69.4296194482" lon="17.9597194485">
		<tag k="alt_name" v="Lysnes mellem" />
		<tag k="name" v="Midtre Lysnes" />
		<tag k="place" v="farm" />
		<tag k="ssr:stedsnr" v="169396" />
	</node>
	<node id="-90323" lat="69.5478666449" lon="17.6010813197">
		<tag k="alt_name" v="Tofta" />
		<tag k="name" v="Toften" />
		<tag k="place" v="locality" />
		<tag k="ssr:stedsnr" v="169173" />
	</node>
	<node id="-89889" lat="69.368108334" lon="16.9987222119">
		<tag k="name" v="Barbogen" />
		<tag k="place" v="farm" />
		<tag k="ssr:stedsnr" v="81336" />
	</node>
	<node id="-92365" lat="69.2209305547" lon="17.8143833319">
		<tag k="name" v="Slåttebakken" />
		<tag k="place" v="farm" />
		<tag k="ssr:stedsnr" v="625399" />
	</node>
	<node id="-92363" lat="69.2040500045" lon="17.9215361086">
		<tag k="name" v="Holmestad" />
		<tag k="place" v="farm" />
		<tag k="ssr:stedsnr" v="625387" />
	</node>
	<node id="-92362" lat="69.2859722232" lon="17.0220388958">
		<tag k="name" v="Elvejorda" />
		<tag k="place" v="farm" />
		<tag k="ssr:stedsnr" v="625384" />
	</node>
	<node id="-86888" lat="69.328502782" lon="18.166074999">
		<tag k="name" v="Bakkehaug" />
		<tag k="place" v="isolated_dwelling" />
		<tag k="ssr:stedsnr" v="200753" />
	</node>
	<node id="-92357" lat="69.374719445" lon="17.4101250019">
		<tag k="alt_name" v="Lauvdal" />
		<tag k="name" v="Løvdal" />
		<tag k="place" v="isolated_dwelling" />
		<tag k="ssr:stedsnr" v="625371" />
	</node>
	<node id="-90305" lat="69.4823666682" lon="17.8437277758">
		<tag k="name" v="Myre" />
		<tag k="place" v="farm" />
		<tag k="ssr:stedsnr" v="168088" />
	</node>
	<node id="-92351" lat="69.4586916688" lon="17.2503166707">
		<tag k="name" v="Myrlund" />
		<tag k="place" v="farm" />
		<tag k="ssr:stedsnr" v="625291" />
	</node>
	<node id="-88250" lat="69.368666918" lon="17.8360696766">
		<tag k="alt_name" v="Nymo" />
		<tag k="name" v="Nymoen" />
		<tag k="place" v="farm" />
		<tag k="ssr:stedsnr" v="593226" />
	</node>
	<node id="-88249" lat="69.3736611115" lon="17.7600916765">
		<tag k="barrier" v="fence" />
		<tag k="name" v="Reingjerdet" />
		<tag k="ssr:stedsnr" v="593210" />
	</node>
	<node id="-88865" lat="69.0922777793" lon="16.7906999881">
		<tag k="name" v="Sjursvika" />
		<tag k="place" v="hamlet" />
		<tag k="ssr:stedsnr" v="745021" />
	</node>
	<node id="-86387" lat="69.4385388855" lon="17.4064694442">
		<tag k="name" v="Vollan" />
		<tag k="place" v="farm" />
		<tag k="ssr:stedsnr" v="45724" />
	</node>
	<node id="-86191" lat="69.3831916662" lon="18.3620027779">
		<tag k="name" v="Lanes" />
		<tag k="place" v="farm" />
		<tag k="ssr:stedsnr" v="26715" />
	</node>
	<node id="-92333" lat="69.3467500018" lon="18.487674988">
		<tag k="name" v="Elvevoll" />
		<tag k="place" v="farm" />
		<tag k="ssr:stedsnr" v="624770" />
	</node>
	<node id="-86186" lat="69.391516911" lon="17.0043724211">
		<tag k="alt_name" v="Teistvik;Teistevik" />
		<tag k="name" v="Teistevika" />
		<tag k="place" v="locality" />
		<tag k="ssr:stedsnr" v="225180" />
	</node>
	<node id="-92329" lat="69.3869583354" lon="18.3810000054">
		<tag k="name" v="Skoglund" />
		<tag k="place" v="farm" />
		<tag k="ssr:stedsnr" v="624735" />
	</node>
	<node id="-92327" lat="69.3943527738" lon="18.3853777686">
		<tag k="fixme" v="consider place=hamlet" />
		<tag k="name" v="Rossfjord" />
		<tag k="place" v="village" />
		<tag k="ssr:stedsnr" v="624682" />
	</node>
	<node id="-86181" lat="69.3696027763" lon="17.4011027805">
		<tag k="name" v="Nyheim" />
		<tag k="place" v="farm" />
		<tag k="ssr:stedsnr" v="19303" />
	</node>
	<node id="-92323" lat="69.2356555517" lon="18.1760666587">
		<tag k="name" v="Aspelund" />
		<tag k="place" v="farm" />
		<tag k="ssr:stedsnr" v="624660" />
	</node>
	<node id="-88223" lat="69.515173918" lon="17.9440805834">
		<tag k="name" v="Gavlen" />
		<tag k="place" v="farm" />
		<tag k="ssr:stedsnr" v="694240" />
	</node>
	<node id="-86174" lat="69.3407823896" lon="18.481244469">
		<tag k="alt_name" v="Sultindvik indre;Sultindvik, indre" />
		<tag k="fixme" v="consider place=hamlet" />
		<tag k="name" v="Indre Sultindvik" />
		<tag k="place" v="farm" />
		<tag k="ssr:stedsnr" v="18715" />
	</node>
	<node id="-90269" lat="69.2738361152" lon="17.8063083377">
		<tag k="name" v="Austheim" />
		<tag k="place" v="farm" />
		<tag k="ssr:stedsnr" v="140604" />
	</node>
	<node id="-90268" lat="69.2721041591" lon="17.7954327935">
		<tag k="fixme" v="consider place=hamlet" />
		<tag k="name" v="Verselvmoen" />
		<tag k="place" v="farm" />
		<tag k="ssr:stedsnr" v="140603" />
	</node>
	<node id="-90267" lat="69.281652775" lon="17.7461833349">
		<tag k="name" v="Elvestad" />
		<tag k="place" v="farm" />
		<tag k="ssr:stedsnr" v="140591" />
	</node>
	<node id="-92314" lat="69.1951777781" lon="17.4462472096">
		<tag k="name" v="Lauveng" />
		<tag k="place" v="farm" />
		<tag k="ssr:stedsnr" v="624500" />
	</node>
	<node id="-90265" lat="69.4177916651" lon="17.8614944319">
		<tag k="name" v="Fjellheim" />
		<tag k="place" v="isolated_dwelling" />
		<tag k="ssr:stedsnr" v="140492" />
	</node>
	<node id="-86168" lat="69.1655388916" lon="17.8161277742">
		<tag k="name" v="Berget" />
		<tag k="place" v="farm" />
		<tag k="ssr:stedsnr" v="18410" />
	</node>
	<node id="-86724" lat="69.3628972191" lon="18.3150583367">
		<tag k="fixme" v="consider place=hamlet" />
		<tag k="loc_name:se" v="Duvtarávdnji" />
		<tag k="name" v="Rossfjordstraumen" />
		<tag k="name:no" v="Rossfjordstraumen" />
		<tag k="place" v="village" />
		<tag k="ssr:stedsnr" v="145505" />
	</node>
	<node id="-92310" lat="69.1959194446" lon="17.7987888953">
		<tag k="name" v="Nyset" />
		<tag k="place" v="farm" />
		<tag k="ssr:stedsnr" v="624479" />
	</node>
	<node id="-86164" lat="69.3580423525" lon="17.8980782929">
		<tag k="fixme" v="consider place=hamlet" />
		<tag k="name" v="Svartfjell" />
		<tag k="place" v="farm" />
		<tag k="ssr:stedsnr" v="18521" />
	</node>
	<node id="-86162" lat="69.3680846807" lon="17.8329326556">
		<tag k="fixme" v="consider place=hamlet" />
		<tag k="name" v="Nymoen" />
		<tag k="place" v="farm" />
		<tag k="ssr:stedsnr" v="18516" />
	</node>
	<node id="-86155" lat="69.4369833345" lon="17.3975444546">
		<tag k="name" v="Bjørklunden" />
		<tag k="place" v="isolated_dwelling" />
		<tag k="ssr:stedsnr" v="18231" />
	</node>
	<node id="-90250" lat="69.5471666692" lon="17.6011083305">
		<tag k="alt_name" v="Tofta" />
		<tag k="name" v="Toften" />
		<tag k="place" v="hamlet" />
		<tag k="ssr:stedsnr" v="139854" />
	</node>
	<node id="-86152" lat="69.1339944461" lon="17.0273388843">
		<tag k="fixme" v="consider place=hamlet" />
		<tag k="name" v="Rødsand" />
		<tag k="place" v="village" />
		<tag k="ssr:stedsnr" v="18222" />
	</node>
	<node id="-90244" lat="69.5324805546" lon="17.780477772">
		<tag k="name" v="Baltsfjord" />
		<tag k="place" v="farm" />
		<tag k="ssr:stedsnr" v="139806" />
	</node>
	<node id="-90242" lat="69.3100749966" lon="18.2322250051">
		<tag k="name" v="Åsheim" />
		<tag k="place" v="farm" />
		<tag k="ssr:stedsnr" v="139776" />
	</node>
	<node id="-90241" lat="69.32408333" lon="18.2871749936">
		<tag k="name" v="Bjørnstad" />
		<tag k="place" v="farm" />
		<tag k="ssr:stedsnr" v="139769" />
	</node>
	<node id="-86143" lat="69.0446333296" lon="17.0589999994">
		<tag k="name" v="Kroken" />
		<tag k="place" v="farm" />
		<tag k="ssr:stedsnr" v="18117" />
	</node>
	<node id="-92286" lat="69.0390472193" lon="17.0640666554">
		<tag k="name" v="Selnes" />
		<tag k="place" v="farm" />
		<tag k="ssr:stedsnr" v="624138" />
	</node>
	<node id="-92285" lat="69.0322027814" lon="16.8994861061">
		<tag k="name" v="Vestberg" />
		<tag k="place" v="farm" />
		<tag k="ssr:stedsnr" v="624134" />
	</node>
	<node id="-86139" lat="69.2409881632" lon="18.1723257299">
		<tag k="alt_name" v="Fagerbukt" />
		<tag k="fixme" v="consider place=hamlet" />
		<tag k="name" v="Fagerbukta" />
		<tag k="place" v="farm" />
		<tag k="ssr:stedsnr" v="17702" />
	</node>
	<node id="-90232" lat="69.2296499961" lon="18.1922805488">
		<tag k="name" v="Bjørkelund" />
		<tag k="place" v="farm" />
		<tag k="ssr:stedsnr" v="139654" />
	</node>
	<node id="-90230" lat="69.4755158411" lon="18.0294043541">
		<tag k="fixme" v="consider place=hamlet" />
		<tag k="name" v="Vang" />
		<tag k="place" v="farm" />
		<tag k="ssr:stedsnr" v="139636" />
	</node>
	<node id="-90229" lat="69.4683138903" lon="18.3215277816">
		<tag k="name" v="Myrstad" />
		<tag k="place" v="farm" />
		<tag k="ssr:stedsnr" v="139630" />
	</node>
	<node id="-90228" lat="69.4767421381" lon="18.2923741775">
		<tag k="alt_name" v="Tennskjer" />
		<tag k="fixme" v="consider place=hamlet" />
		<tag k="name" v="Tennskjær" />
		<tag k="place" v="farm" />
		<tag k="ssr:stedsnr" v="139628" />
	</node>
	<node id="-90225" lat="69.3167722222" lon="17.8694500022">
		<tag k="name" v="Skognes" />
		<tag k="place" v="farm" />
		<tag k="ssr:stedsnr" v="139595" />
	</node>
	<node id="-90224" lat="69.3287111082" lon="17.8693916657">
		<tag k="alt_name" v="Dalslåttene" />
		<tag k="name" v="Dalslåtta" />
		<tag k="place" v="locality" />
		<tag k="ssr:stedsnr" v="139586" />
	</node>
	<node id="-90220" lat="69.368516671" lon="17.8389888916">
		<tag k="name" v="Heimdal" />
		<tag k="place" v="farm" />
		<tag k="ssr:stedsnr" v="139563" />
	</node>
	<node id="-90215" lat="69.1987999999" lon="17.4583444421">
		<tag k="name" v="Hyttekroa" />
		<tag k="place" v="isolated_dwelling" />
		<tag k="ssr:stedsnr" v="139520" />
	</node>
	<node id="-90214" lat="69.4714311708" lon="17.8925321544">
		<tag k="name" v="Skogen" />
		<tag k="place" v="locality" />
		<tag k="ssr:stedsnr" v="139518" />
	</node>
	<node id="-90211" lat="69.1876055569" lon="17.7258000009">
		<tag k="name" v="Fjellstad" />
		<tag k="place" v="farm" />
		<tag k="ssr:stedsnr" v="139501" />
	</node>
	<node id="-88162" lat="69.4204207027" lon="17.9026665581">
		<tag k="alt_name" v="Lysnes mellem" />
		<tag k="name" v="Midtre Lysnes" />
		<tag k="place" v="farm" />
		<tag k="ssr:stedsnr" v="533368" />
	</node>
	<node id="-86715" lat="69.4172472211" lon="17.1640500002">
		<tag k="name" v="Hamn" />
		<tag k="place" v="hamlet" />
		<tag k="ssr:stedsnr" v="139258" />
	</node>
	<node id="-90205" lat="69.1593222217" lon="17.5464194397">
		<tag k="name" v="Rotvika" />
		<tag k="place" v="isolated_dwelling" />
		<tag k="ssr:stedsnr" v="139471" />
	</node>
	<node id="-92858" lat="69.167970032" lon="17.7526703203">
		<tag k="fixme" v="consider place=hamlet" />
		<tag k="name" v="Vika" />
		<tag k="place" v="farm" />
		<tag k="ssr:stedsnr" v="807434" />
	</node>
	<node id="-90201" lat="69.2359264505" lon="17.893014487">
		<tag k="alt_name" v="Laukhella, yt;Laukhella" />
		<tag k="fixme" v="consider place=hamlet" />
		<tag k="name" v="Ytre Laukhella" />
		<tag k="place" v="farm" />
		<tag k="ssr:stedsnr" v="139438" />
	</node>
	<node id="-90199" lat="69.2392454306" lon="17.7858877199">
		<tag k="alt_name" v="Grønli" />
		<tag k="fixme" v="consider place=hamlet" />
		<tag k="name" v="Grønlia" />
		<tag k="place" v="farm" />
		<tag k="ssr:stedsnr" v="139429" />
	</node>
	<node id="-92245" lat="69.1694638883" lon="17.7380305522">
		<tag k="name" v="Litjenga" />
		<tag k="place" v="farm" />
		<tag k="ssr:stedsnr" v="598694" />
	</node>
	<node id="-88148" lat="69.3889999983" lon="17.3990388831">
		<tag k="name" v="Straumsbotn" />
		<tag k="place" v="hamlet" />
		<tag k="ssr:stedsnr" v="688381" />
	</node>
	<node id="-90195" lat="69.2296111078" lon="17.9810444392">
		<tag k="name" v="Finnsnes" />
		<tag k="place" v="town" />
		<tag k="ssr:stedsnr" v="139419" />
	</node>
	<node id="-90193" lat="69.2237527776" lon="17.4933777803">
		<tag k="name" v="Nylund" />
		<tag k="place" v="farm" />
		<tag k="ssr:stedsnr" v="139417" />
	</node>
	<node id="-89100" lat="69.2729197275" lon="17.1252288392">
		<tag k="fixme" v="consider place=hamlet" />
		<tag k="name" v="Finnes" />
		<tag k="place" v="farm" />
		<tag k="ssr:stedsnr" v="936338" />
	</node>
	<node id="-88130" lat="69.2895583307" lon="18.2457333312">
		<tag k="name" v="Kjosmo" />
		<tag k="place" v="farm" />
		<tag k="ssr:stedsnr" v="686798" />
	</node>
	<node id="-91248" lat="69.4066222232" lon="17.8439722101">
		<tag k="name" v="Lysvang" />
		<tag k="place" v="farm" />
		<tag k="ssr:stedsnr" v="382521" />
	</node>
	<node id="-88124" lat="69.3326699664" lon="18.1389241764">
		<tag k="fixme" v="consider place=hamlet" />
		<tag k="name" v="Flatvoll" />
		<tag k="place" v="farm" />
		<tag k="ssr:stedsnr" v="686752" />
	</node>
	<node id="-88123" lat="69.3765444476" lon="18.3283944295">
		<tag k="name" v="Luneborg" />
		<tag k="place" v="farm" />
		<tag k="ssr:stedsnr" v="686729" />
	</node>
	<node id="-88122" lat="69.3664546291" lon="18.3127001612">
		<tag k="fixme" v="consider place=hamlet" />
		<tag k="name" v="Straumsnes" />
		<tag k="place" v="farm" />
		<tag k="ssr:stedsnr" v="686723" />
	</node>
	<node id="-88119" lat="69.3927916689" lon="18.181427784">
		<tag k="fixme" v="consider place=hamlet" />
		<tag k="name" v="Kårvikhamn" />
		<tag k="place" v="village" />
		<tag k="ssr:stedsnr" v="686703" />
	</node>
	<node id="-88114" lat="69.4623694472" lon="18.2100749972">
		<tag k="fixme" v="consider place=hamlet" />
		<tag k="name" v="Aglapsvik" />
		<tag k="place" v="village" />
		<tag k="ssr:stedsnr" v="686636" />
	</node>
	<node id="-88112" lat="69.2699694462" lon="17.7570083266">
		<tag k="alt_name" v="Seljemoen, øvre;Seljemoen" />
		<tag k="name" v="Øvre Seljemoen" />
		<tag k="place" v="farm" />
		<tag k="ssr:stedsnr" v="686633" />
	</node>
	<node id="-90159" lat="69.0464972238" lon="17.0496250059">
		<tag k="name" v="Halsnes" />
		<tag k="place" v="farm" />
		<tag k="ssr:stedsnr" v="139114" />
	</node>
	<node id="-90158" lat="69.056555557" lon="16.8567499945">
		<tag k="alt_name" v="Tømmervik" />
		<tag k="name" v="Tømmervika" />
		<tag k="place" v="hamlet" />
		<tag k="ssr:stedsnr" v="139111" />
	</node>
	<node id="-90157" lat="69.0486802111" lon="17.1618707232">
		<tag k="alt_name" v="Valvågen, nordre;Valvågen nordre" />
		<tag k="fixme" v="consider place=hamlet" />
		<tag k="name" v="Nordre Valvågen" />
		<tag k="place" v="farm" />
		<tag k="ssr:stedsnr" v="139109" />
	</node>
	<node id="-88107" lat="69.2810916637" lon="17.8913138947">
		<tag k="alt_name" v="Grasmyr" />
		<tag k="fixme" v="consider place=hamlet" />
		<tag k="name" v="Grasmyra" />
		<tag k="place" v="farm" />
		<tag k="ssr:stedsnr" v="686617" />
	</node>
	<node id="-88106" lat="69.2594555524" lon="17.6119638838">
		<tag k="name" v="Vestland" />
		<tag k="place" v="farm" />
		<tag k="ssr:stedsnr" v="686606" />
	</node>
	<node id="-88105" lat="69.3238388859" lon="17.9061999963">
		<tag k="name" v="Sundlia" />
		<tag k="place" v="farm" />
		<tag k="ssr:stedsnr" v="686590" />
	</node>
	<node id="-88104" lat="69.3259802584" lon="17.9109474213">
		<tag k="fixme" v="consider place=hamlet" />
		<tag k="name" v="Skognes" />
		<tag k="place" v="farm" />
		<tag k="ssr:stedsnr" v="686589" />
	</node>
	<node id="-88103" lat="69.3016305508" lon="17.9097111157">
		<tag k="name" v="Skogvoll" />
		<tag k="place" v="farm" />
		<tag k="ssr:stedsnr" v="686583" />
	</node>
	<node id="-90149" lat="69.0796833324" lon="17.0588305637">
		<tag k="name" v="Frovåg" />
		<tag k="place" v="farm" />
		<tag k="ssr:stedsnr" v="139012" />
	</node>
	<node id="-88100" lat="69.3425519442" lon="17.9373474028">
		<tag k="fixme" v="consider place=hamlet" />
		<tag k="name" v="Lanesbogen" />
		<tag k="old_name" v="Laneshagen" />
		<tag k="place" v="farm" />
		<tag k="ssr:stedsnr" v="686541" />
	</node>
	<node id="-90146" lat="69.2358333158" lon="18.0611722685">
		<tag k="fixme" v="consider place=hamlet" />
		<tag k="name" v="Skogen" />
		<tag k="place" v="farm" />
		<tag k="ssr:stedsnr" v="138682" />
	</node>
	<node id="-90145" lat="69.2338722253" lon="18.0171027639">
		<tag k="alt_name" v="Sandvik" />
		<tag k="name" v="Sandvika" />
		<tag k="place" v="quarter" />
		<tag k="ssr:stedsnr" v="138679" />
	</node>
	<node id="-90144" lat="69.0640861142" lon="16.8148944484">
		<tag k="alt_name" v="Skrollsvika" />
		<tag k="fixme" v="consider place=hamlet" />
		<tag k="name" v="Skrolsvik" />
		<tag k="place" v="village" />
		<tag k="ssr:stedsnr" v="138122" />
	</node>
	<node id="-90142" lat="69.0239519706" lon="17.2095846681">
		<tag k="fixme" v="consider place=hamlet" />
		<tag k="name" v="Lekangen" />
		<tag k="place" v="farm" />
		<tag k="ssr:stedsnr" v="138082" />
	</node>
	<node id="-88092" lat="69.1818916663" lon="17.4378999858">
		<tag k="alt_name" v="Lyngmoen" />
		<tag k="name" v="Lyngmo" />
		<tag k="place" v="farm" />
		<tag k="ssr:stedsnr" v="686492" />
	</node>
	<node id="-88751" lat="69.3184361082" lon="16.9537138921">
		<tag k="fixme" v="consider place=hamlet" />
		<tag k="name" v="Kjerringvik" />
		<tag k="place" v="farm" />
		<tag k="ssr:stedsnr" v="900392" />
	</node>
	<node id="-90122" lat="69.5198194408" lon="17.4340944298">
		<tag k="fixme" v="consider place=hamlet" />
		<tag k="loc_name" v="Medfjorden" />
		<tag k="name" v="Mefjord" />
		<tag k="place" v="farm" />
		<tag k="ssr:stedsnr" v="115174" />
	</node>
	<node id="-88070" lat="69.2300472201" lon="17.6985277817">
		<tag k="name" v="Østheim" />
		<tag k="place" v="farm" />
		<tag k="ssr:stedsnr" v="686404" />
	</node>
	<node id="-88069" lat="69.2240910846" lon="17.8428673189">
		<tag k="fixme" v="consider place=hamlet" />
		<tag k="name" v="Stormoen" />
		<tag k="place" v="farm" />
		<tag k="ssr:stedsnr" v="686395" />
	</node>
</osm>
