<?xml version="1.0" encoding="UTF-8"?>
<osm generator="osmapis" version="0.6">
	<node id="-770432" lat="69.2290749991" lon="17.6841388808">
		<tag k="ford" v="yes" />
		<tag k="name" v="Vaet" />
		<tag k="place" v="locality" />
		<tag k="ssr:stedsnr" v="51593" />
	</node>
	<node id="-772349" lat="69.4389388872" lon="16.868319433">
		<tag k="name" v="Stauraleia" />
		<tag k="place" v="locality" />
		<tag k="ssr:stedsnr" v="532371" />
	</node>
	<node id="-768635" lat="69.1993777802" lon="17.6363861088">
		<tag k="fixme" v="verify maritime location" />
		<tag k="mooring" v="yes" />
		<tag k="name" v="Båtstøa" />
		<tag k="place" v="locality" />
		<tag k="ssr:stedsnr" v="659595" />
	</node>
	<node id="-768122" lat="69.1754138852" lon="17.9100472262">
		<tag k="highway" v="path" />
		<tag k="name" v="Fjellveien" />
		<tag k="ssr:stedsnr" v="472735" />
	</node>
	<node id="-768703" lat="69.3811638889" lon="17.1406833255">
		<tag k="ford" v="yes" />
		<tag k="name" v="Spranget" />
		<tag k="place" v="locality" />
		<tag k="ssr:stedsnr" v="476705" />
	</node>
	<node id="-770424" lat="69.2729333352" lon="17.0332861082">
		<tag k="highway" v="path" />
		<tag k="name" v="Karolinavegen" />
		<tag k="ssr:stedsnr" v="51348" />
	</node>
	<node id="-770423" lat="69.1613527746" lon="17.5871472314">
		<tag k="highway" v="path" />
		<tag k="name" v="Holtemyrveien" />
		<tag k="ssr:stedsnr" v="51560" />
	</node>
	<node id="-769270" lat="69.2472722188" lon="18.1787360939">
		<tag k="highway" v="path" />
		<tag k="name" v="Liaveien" />
		<tag k="ssr:stedsnr" v="656720" />
	</node>
	<node id="-769138" lat="69.0829138866" lon="17.0721916607">
		<tag k="highway" v="path" />
		<tag k="name" v="Kråveien" />
		<tag k="ssr:stedsnr" v="719286" />
	</node>
	<node id="-769392" lat="69.3536916705" lon="17.1109277658">
		<tag k="highway" v="path" />
		<tag k="name" v="Snarvegen" />
		<tag k="ssr:stedsnr" v="719614" />
	</node>
	<node id="-768111" lat="69.3540944435" lon="17.8819472221">
		<tag k="bridge" v="yes" />
		<tag k="layer" v="1" />
		<tag k="name" v="Kanalen" />
		<tag k="ssr:stedsnr" v="472576" />
	</node>
	<node id="-767597" lat="69.2762250002" lon="17.087805565">
		<tag k="highway" v="path" />
		<tag k="name" v="Vassveien" />
		<tag k="ssr:stedsnr" v="293526" />
	</node>
	<node id="-771176" lat="69.2784527738" lon="16.9716888815">
		<tag k="highway" v="path" />
		<tag k="name" v="Benkevegen" />
		<tag k="ssr:stedsnr" v="172304" />
	</node>
	<node id="-769383" lat="69.1202611116" lon="17.3078083331">
		<tag k="highway" v="path" />
		<tag k="name" v="Bergestien" />
		<tag k="ssr:stedsnr" v="719433" />
	</node>
	<node id="-768096" lat="69.4620638873" lon="16.9351277712">
		<tag k="name" v="Bardstindleia" />
		<tag k="place" v="locality" />
		<tag k="ssr:stedsnr" v="471865" />
	</node>
	<node id="-769502" lat="69.1430861108" lon="17.2958416773">
		<tag k="highway" v="path" />
		<tag k="name" v="Fjellmyrveien" />
		<tag k="ssr:stedsnr" v="901385" />
	</node>
	<node id="-767482" lat="69.3981333337" lon="18.1566388962">
		<tag k="landuse" v="harbour" />
		<tag k="name" v="Kårvikhamn" />
		<tag k="seamark:type" v="harbour" />
		<tag k="ssr:stedsnr" v="171705" />
	</node>
	<node id="-767575" lat="69.3335888927" lon="18.1716138898">
		<tag k="highway" v="path" />
		<tag k="name" v="Breiveien" />
		<tag k="ssr:stedsnr" v="292653" />
	</node>
	<node id="-770390" lat="69.3663694403" lon="17.8089638957">
		<tag k="fixme" v="verify maritime location" />
		<tag k="mooring" v="yes" />
		<tag k="name" v="Poststøa" />
		<tag k="place" v="locality" />
		<tag k="ssr:stedsnr" v="48996" />
	</node>
	<node id="-770389" lat="69.3643388911" lon="17.8106861117">
		<tag k="fixme" v="verify maritime location" />
		<tag k="mooring" v="yes" />
		<tag k="name" v="Tømmerstøa" />
		<tag k="place" v="locality" />
		<tag k="ssr:stedsnr" v="48995" />
	</node>
	<node id="-767063" lat="69.1631138871" lon="17.5846583325">
		<tag k="highway" v="path" />
		<tag k="name" v="Buveien" />
		<tag k="ssr:stedsnr" v="233988" />
	</node>
	<node id="-768590" lat="69.1671222239" lon="17.7136305495">
		<tag k="landuse" v="harbour" />
		<tag k="name" v="Hamna" />
		<tag k="seamark:type" v="harbour" />
		<tag k="ssr:stedsnr" v="658694" />
	</node>
	<node id="-771789" lat="69.1649777782" lon="17.589063876">
		<tag k="highway" v="path" />
		<tag k="name" v="Tømmerveien" />
		<tag k="ssr:stedsnr" v="354978" />
	</node>
	<node id="-769868" lat="69.3898361098" lon="17.8637694495">
		<tag k="fixme" v="verify maritime location" />
		<tag k="mooring" v="yes" />
		<tag k="name" v="Nymostøa" />
		<tag k="place" v="locality" />
		<tag k="ssr:stedsnr" v="837866" />
	</node>
	<node id="-772171" lat="69.4042249997" lon="18.2981694511">
		<tag k="highway" v="path" />
		<tag k="name" v="Kårvikveien" />
		<tag k="ssr:stedsnr" v="414915" />
	</node>
	<node id="-772426" lat="69.2259944405" lon="18.1069027752">
		<tag k="highway" v="path" />
		<tag k="name" v="Tverrveien" />
		<tag k="ssr:stedsnr" v="535531" />
	</node>
	<node id="-767003" lat="69.4216777815" lon="18.3421083409">
		<tag k="highway" v="path" />
		<tag k="name" v="Rødveien" />
		<tag k="ssr:stedsnr" v="232984" />
	</node>
	<node id="-770757" lat="69.3993222219" lon="18.2078194306">
		<tag k="highway" v="path" />
		<tag k="name" v="Seljebakkveien" />
		<tag k="ssr:stedsnr" v="111875" />
	</node>
	<node id="-768708" lat="69.4488472216" lon="17.2753888946">
		<tag k="fixme" v="verify maritime location" />
		<tag k="mooring" v="yes" />
		<tag k="name" v="Jektestøa" />
		<tag k="place" v="locality" />
		<tag k="ssr:stedsnr" v="477305" />
	</node>
	<node id="-772419" lat="69.1679666673" lon="17.854527767">
		<tag k="highway" v="path" />
		<tag k="name" v="Granvenveien" />
		<tag k="ssr:stedsnr" v="534745" />
	</node>
	<node id="-771650" lat="69.5570638926" lon="17.5897222199">
		<tag k="man_made" v="quay" />
		<tag k="name" v="Sandvikbrygga" />
		<tag k="place" v="locality" />
		<tag k="ssr:stedsnr" v="351183" />
	</node>
	<node id="-772299" lat="69.0128250008" lon="17.1317638965">
		<tag k="fixme" v="verify maritime location" />
		<tag k="mooring" v="yes" />
		<tag k="name" v="Støa" />
		<tag k="place" v="locality" />
		<tag k="ssr:stedsnr" v="416662" />
	</node>
	<node id="-770495" lat="69.1790416655" lon="17.7544222262">
		<tag k="highway" v="path" />
		<tag k="name" v="Gotlib-Persaveien" />
		<tag k="ssr:stedsnr" v="53711" />
	</node>
	<node id="-768190" lat="69.4029888905" lon="18.3139527661">
		<tag k="ford" v="yes" />
		<tag k="name" v="Berrheivaet" />
		<tag k="place" v="locality" />
		<tag k="ssr:stedsnr" v="474920" />
	</node>
	<node id="-771767" lat="69.1984916676" lon="17.0606666625">
		<tag k="ford" v="yes" />
		<tag k="name" v="Øvstevad" />
		<tag k="place" v="locality" />
		<tag k="ssr:stedsnr" v="354495" />
	</node>
	<node id="-769842" lat="69.3627472233" lon="17.7858472164">
		<tag k="highway" v="path" />
		<tag k="name" v="Heggedalsveien" />
		<tag k="ssr:stedsnr" v="836566" />
	</node>
	<node id="-771887" lat="69.0166777746" lon="17.0707527704">
		<tag k="alt_name" v="Skittenstigen" />
		<tag k="highway" v="path" />
		<tag k="name" v="Skittenstien" />
		<tag k="ssr:stedsnr" v="381107" />
	</node>
	<node id="-769068" lat="69.4138166667" lon="17.2861194402">
		<tag k="fixme" v="verify maritime location" />
		<tag k="mooring" v="yes" />
		<tag k="name" v="Storstøa" />
		<tag k="place" v="locality" />
		<tag k="ssr:stedsnr" v="598908" />
	</node>
	<node id="-769202" lat="69.202916668" lon="17.6380527819">
		<tag k="fixme" v="verify maritime location" />
		<tag k="mooring" v="yes" />
		<tag k="name" v="Badestøa" />
		<tag k="place" v="locality" />
		<tag k="ssr:stedsnr" v="720613" />
	</node>
	<node id="-771797" lat="69.0752333359" lon="17.0729694524">
		<tag k="highway" v="path" />
		<tag k="name" v="Stien" />
		<tag k="ssr:stedsnr" v="355273" />
	</node>
	<node id="-769156" lat="69.2238750003" lon="17.5647027835">
		<tag k="highway" v="path" />
		<tag k="name" v="Sjøveien" />
		<tag k="ssr:stedsnr" v="719512" />
	</node>
	<node id="-767009" lat="69.1932138917" lon="17.0194972158">
		<tag k="highway" v="path" />
		<tag k="name" v="Steinvegen" />
		<tag k="ssr:stedsnr" v="233202" />
	</node>
	<node id="-771741" lat="69.3649777746" lon="18.2799527825">
		<tag k="highway" v="path" />
		<tag k="name" v="Akselveien" />
		<tag k="ssr:stedsnr" v="353970" />
	</node>
	<node id="-768540" lat="69.3834555515" lon="18.3248416609">
		<tag k="highway" v="path" />
		<tag k="name" v="Rødmoldveien" />
		<tag k="ssr:stedsnr" v="656959" />
	</node>
	<node id="-771739" lat="69.3921527798" lon="18.3005750063">
		<tag k="highway" v="path" />
		<tag k="name" v="Storskarveien" />
		<tag k="ssr:stedsnr" v="353936" />
	</node>
	<node id="-767256" lat="69.3034555517" lon="17.8917888808">
		<tag k="junction" v="yes" />
		<tag k="name" v="Kvannåskrysset" />
		<tag k="place" v="locality" />
		<tag k="ssr:stedsnr" v="109107" />
	</node>
	<node id="-771223" lat="69.1651611136" lon="17.5910777703">
		<tag k="highway" v="path" />
		<tag k="name" v="Skursandveien" />
		<tag k="ssr:stedsnr" v="172983" />
	</node>
	<node id="-767757" lat="69.0691527801" lon="16.9478555435">
		<tag k="highway" v="path" />
		<tag k="name" v="Steinveien" />
		<tag k="ssr:stedsnr" v="295594" />
	</node>
	<node id="-769033" lat="69.3614972268" lon="17.8226555462">
		<tag k="fixme" v="verify maritime location" />
		<tag k="mooring" v="yes" />
		<tag k="name" v="Finnstøa" />
		<tag k="place" v="locality" />
		<tag k="ssr:stedsnr" v="715997" />
	</node>
	<node id="-768645" lat="69.2534499975" lon="17.6129027737">
		<tag k="fixme" v="verify maritime location" />
		<tag k="mooring" v="yes" />
		<tag k="name" v="Ånestøa" />
		<tag k="place" v="locality" />
		<tag k="ssr:stedsnr" v="659677" />
	</node>
	<node id="-771716" lat="69.2469111093" lon="18.1659499886">
		<tag k="fixme" v="verify maritime location" />
		<tag k="mooring" v="yes" />
		<tag k="name" v="Kjerringstøa" />
		<tag k="place" v="locality" />
		<tag k="ssr:stedsnr" v="353615" />
	</node>
	<node id="-768109" lat="69.160755555" lon="17.8318777648">
		<tag k="highway" v="path" />
		<tag k="name" v="Brattstien" />
		<tag k="ssr:stedsnr" v="472525" />
	</node>
	<node id="-767105" lat="69.215469446" lon="17.5486527866">
		<tag k="highway" v="path" />
		<tag k="name" v="Haillveien" />
		<tag k="ssr:stedsnr" v="234560" />
	</node>
</osm>
