<?xml version="1.0" encoding="UTF-8"?>
<osm version="0.6" generator="osmapis">
	<node lat="58.268716662759914" lon="7.972425007729895" id="-62783">
		<tag k="loc_name" v="Vennesla" />
		<tag k="name" v="Vennesla kommune" />
		<tag k="ssr:date" v="2019-12-27" />
		<tag k="ssr:gruppe" v="administrativeIndelinger" />
		<tag k="ssr:hovedgruppe" v="offentligAdministrasjon" />
		<tag k="ssr:stedsnr" v="267090" />
		<tag k="ssr:type" v="kommune" />
	</node>
	<node lat="58.32017222142597" lon="7.938983337771441" id="-64851">
		<tag k="name" v="Hobbybanen" />
		<tag k="ssr:date" v="2019-12-27" />
		<tag k="ssr:gruppe" v="bane" />
		<tag k="ssr:hovedgruppe" v="infrastruktur" />
		<tag k="ssr:stedsnr" v="277669" />
		<tag k="ssr:type" v="banestrekning" />
	</node>
	<node lat="58.26021524590357" lon="7.955112742805306" id="-66238">
		<tag k="name" v="Askedalsvegen" />
		<tag k="ssr:date" v="2019-12-27" />
		<tag k="ssr:gruppe" v="veg" />
		<tag k="ssr:hovedgruppe" v="infrastruktur" />
		<tag k="ssr:stedsnr" v="1008279" />
		<tag k="ssr:type" v="adressenavn" />
	</node>
	<node lat="58.271804995098286" lon="7.9709404769780585" id="-66239">
		<tag k="name" v="Auravegen" />
		<tag k="ssr:date" v="2019-12-27" />
		<tag k="ssr:gruppe" v="veg" />
		<tag k="ssr:hovedgruppe" v="infrastruktur" />
		<tag k="ssr:stedsnr" v="1008282" />
		<tag k="ssr:type" v="adressenavn" />
	</node>
	<node lat="58.26021524590357" lon="7.955112742805306" id="-66240">
		<tag k="name" v="Askedalslia" />
		<tag k="ssr:date" v="2019-12-27" />
		<tag k="ssr:gruppe" v="veg" />
		<tag k="ssr:hovedgruppe" v="infrastruktur" />
		<tag k="ssr:stedsnr" v="1008285" />
		<tag k="ssr:type" v="adressenavn" />
	</node>
	<node lat="58.25538660513667" lon="7.9684571476477695" id="-66241">
		<tag k="name" v="Drivenesvegen" />
		<tag k="ssr:date" v="2019-12-27" />
		<tag k="ssr:gruppe" v="veg" />
		<tag k="ssr:hovedgruppe" v="infrastruktur" />
		<tag k="ssr:stedsnr" v="1008338" />
		<tag k="ssr:type" v="adressenavn" />
	</node>
	<node lat="58.259704082116926" lon="7.971641678832792" id="-66242">
		<tag k="name" v="Danskehaugen" />
		<tag k="ssr:date" v="2019-12-27" />
		<tag k="ssr:gruppe" v="veg" />
		<tag k="ssr:hovedgruppe" v="infrastruktur" />
		<tag k="ssr:stedsnr" v="1008343" />
		<tag k="ssr:type" v="adressenavn" />
	</node>
	<node lat="58.24943396473898" lon="7.969956654090314" id="-66244">
		<tag k="name" v="Dalevegen" />
		<tag k="ssr:date" v="2019-12-27" />
		<tag k="ssr:gruppe" v="veg" />
		<tag k="ssr:hovedgruppe" v="infrastruktur" />
		<tag k="ssr:stedsnr" v="1008349" />
		<tag k="ssr:type" v="adressenavn" />
	</node>
	<node lat="58.29497986943664" lon="7.855724078907973" id="-66247">
		<tag k="name" v="Einerlia" />
		<tag k="ssr:date" v="2019-12-27" />
		<tag k="ssr:gruppe" v="veg" />
		<tag k="ssr:hovedgruppe" v="infrastruktur" />
		<tag k="ssr:stedsnr" v="1008442" />
		<tag k="ssr:type" v="adressenavn" />
	</node>
	<node lat="58.27221745816511" lon="7.972160262880807" id="-66248">
		<tag k="name" v="Døblebakken" />
		<tag k="ssr:date" v="2019-12-27" />
		<tag k="ssr:gruppe" v="veg" />
		<tag k="ssr:hovedgruppe" v="infrastruktur" />
		<tag k="ssr:stedsnr" v="1008325" />
		<tag k="ssr:type" v="adressenavn" />
	</node>
	<node lat="58.27534288243343" lon="7.968397693078917" id="-66249">
		<tag k="name" v="Digemyr" />
		<tag k="ssr:date" v="2019-12-27" />
		<tag k="ssr:gruppe" v="veg" />
		<tag k="ssr:hovedgruppe" v="infrastruktur" />
		<tag k="ssr:stedsnr" v="1008328" />
		<tag k="ssr:type" v="adressenavn" />
	</node>
	<node lat="58.26093915933507" lon="8.017845870794643" id="-66250">
		<tag k="name" v="Erkleivvegen" />
		<tag k="ssr:date" v="2019-12-27" />
		<tag k="ssr:gruppe" v="veg" />
		<tag k="ssr:hovedgruppe" v="infrastruktur" />
		<tag k="ssr:stedsnr" v="1008392" />
		<tag k="ssr:type" v="adressenavn" />
	</node>
	<node lat="58.28402618237517" lon="7.983783837068256" id="-66251">
		<tag k="name" v="Elgåsen" />
		<tag k="ssr:date" v="2019-12-27" />
		<tag k="ssr:gruppe" v="veg" />
		<tag k="ssr:hovedgruppe" v="infrastruktur" />
		<tag k="ssr:stedsnr" v="1008398" />
		<tag k="ssr:type" v="adressenavn" />
	</node>
	<node lat="58.25313248838428" lon="7.986430525046466" id="-66252">
		<tag k="name" v="Erlevegen" />
		<tag k="ssr:date" v="2019-12-27" />
		<tag k="ssr:gruppe" v="veg" />
		<tag k="ssr:hovedgruppe" v="infrastruktur" />
		<tag k="ssr:stedsnr" v="1008403" />
		<tag k="ssr:type" v="adressenavn" />
	</node>
	<node lat="58.24573427337033" lon="7.965346427775285" id="-66254">
		<tag k="name" v="Eikebakken" />
		<tag k="ssr:date" v="2019-12-27" />
		<tag k="ssr:gruppe" v="veg" />
		<tag k="ssr:hovedgruppe" v="infrastruktur" />
		<tag k="ssr:stedsnr" v="1008428" />
		<tag k="ssr:type" v="adressenavn" />
	</node>
	<node lat="58.27764671599935" lon="7.9747052114676915" id="-66256">
		<tag k="name" v="Brandebakken" />
		<tag k="ssr:date" v="2019-12-27" />
		<tag k="ssr:gruppe" v="veg" />
		<tag k="ssr:hovedgruppe" v="infrastruktur" />
		<tag k="ssr:stedsnr" v="1008489" />
		<tag k="ssr:type" v="adressenavn" />
	</node>
	<node lat="58.275651297264744" lon="7.974082684808642" id="-66257">
		<tag k="name" v="Brandeheivegen" />
		<tag k="ssr:date" v="2019-12-27" />
		<tag k="ssr:gruppe" v="veg" />
		<tag k="ssr:hovedgruppe" v="infrastruktur" />
		<tag k="ssr:stedsnr" v="1008493" />
		<tag k="ssr:type" v="adressenavn" />
	</node>
	<node lat="58.2653091288289" lon="7.959270536501719" id="-66258">
		<tag k="name" v="Bjørnsonsvegen" />
		<tag k="ssr:date" v="2019-12-27" />
		<tag k="ssr:gruppe" v="veg" />
		<tag k="ssr:hovedgruppe" v="infrastruktur" />
		<tag k="ssr:stedsnr" v="1008501" />
		<tag k="ssr:type" v="adressenavn" />
	</node>
	<node lat="58.294646801958606" lon="7.857979237122321" id="-66261">
		<tag k="name" v="Blåbærheia" />
		<tag k="ssr:date" v="2019-12-27" />
		<tag k="ssr:gruppe" v="veg" />
		<tag k="ssr:hovedgruppe" v="infrastruktur" />
		<tag k="ssr:stedsnr" v="1008507" />
		<tag k="ssr:type" v="adressenavn" />
	</node>
	<node lat="58.25083444470621" lon="7.967330772199278" id="-66269">
		<tag k="name" v="Bjørkelivegen" />
		<tag k="ssr:date" v="2019-12-27" />
		<tag k="ssr:gruppe" v="veg" />
		<tag k="ssr:hovedgruppe" v="infrastruktur" />
		<tag k="ssr:stedsnr" v="1008522" />
		<tag k="ssr:type" v="adressenavn" />
	</node>
	<node lat="58.28333914162343" lon="7.983315555252505" id="-66270">
		<tag k="name" v="Ekornstien" />
		<tag k="ssr:date" v="2019-12-27" />
		<tag k="ssr:gruppe" v="veg" />
		<tag k="ssr:hovedgruppe" v="infrastruktur" />
		<tag k="ssr:stedsnr" v="1008473" />
		<tag k="ssr:type" v="adressenavn" />
	</node>
	<node lat="58.26664829996103" lon="7.959253277870668" id="-66271">
		<tag k="name" v="Eidsvollsvegen" />
		<tag k="ssr:date" v="2019-12-27" />
		<tag k="ssr:gruppe" v="veg" />
		<tag k="ssr:hovedgruppe" v="infrastruktur" />
		<tag k="ssr:stedsnr" v="1008479" />
		<tag k="ssr:type" v="adressenavn" />
	</node>
	<node lat="58.273084396242965" lon="7.9763159693219094" id="-66273">
		<tag k="name" v="Døblekollen" />
		<tag k="ssr:date" v="2019-12-27" />
		<tag k="ssr:gruppe" v="veg" />
		<tag k="ssr:hovedgruppe" v="infrastruktur" />
		<tag k="ssr:stedsnr" v="1008483" />
		<tag k="ssr:type" v="adressenavn" />
	</node>
	<node lat="58.268780883953156" lon="7.970555822223078" id="-66274">
		<tag k="name" v="Bruvegen" />
		<tag k="ssr:date" v="2019-12-27" />
		<tag k="ssr:gruppe" v="veg" />
		<tag k="ssr:hovedgruppe" v="infrastruktur" />
		<tag k="ssr:stedsnr" v="1008543" />
		<tag k="ssr:type" v="adressenavn" />
	</node>
	<node lat="58.27970402120292" lon="7.975769735172766" id="-66275">
		<tag k="name" v="Brandetoppen" />
		<tag k="ssr:date" v="2019-12-27" />
		<tag k="ssr:gruppe" v="veg" />
		<tag k="ssr:hovedgruppe" v="infrastruktur" />
		<tag k="ssr:stedsnr" v="1008545" />
		<tag k="ssr:type" v="adressenavn" />
	</node>
	<node lat="58.27979413772714" lon="7.975776102954548" id="-66276">
		<tag k="name" v="Brandeåsen" />
		<tag k="ssr:date" v="2019-12-27" />
		<tag k="ssr:gruppe" v="veg" />
		<tag k="ssr:hovedgruppe" v="infrastruktur" />
		<tag k="ssr:stedsnr" v="1008551" />
		<tag k="ssr:type" v="adressenavn" />
	</node>
	<node lat="58.27801467436115" lon="7.976864591151938" id="-66277">
		<tag k="name" v="Brandeli" />
		<tag k="ssr:date" v="2019-12-27" />
		<tag k="ssr:gruppe" v="veg" />
		<tag k="ssr:hovedgruppe" v="infrastruktur" />
		<tag k="ssr:stedsnr" v="1008554" />
		<tag k="ssr:type" v="adressenavn" />
	</node>
	<node lat="58.279918408482764" lon="7.977007000843838" id="-66278">
		<tag k="name" v="Brandekleiv" />
		<tag k="ssr:date" v="2019-12-27" />
		<tag k="ssr:gruppe" v="veg" />
		<tag k="ssr:hovedgruppe" v="infrastruktur" />
		<tag k="ssr:stedsnr" v="1008560" />
		<tag k="ssr:type" v="adressenavn" />
	</node>
	<node lat="58.237306232853875" lon="7.939411004952432" id="-66279">
		<tag k="name" v="Høylandsvegen" />
		<tag k="ssr:date" v="2019-12-27" />
		<tag k="ssr:gruppe" v="veg" />
		<tag k="ssr:hovedgruppe" v="infrastruktur" />
		<tag k="ssr:stedsnr" v="1008563" />
		<tag k="ssr:type" v="adressenavn" />
	</node>
	<node lat="58.259987959449944" lon="7.9594567200310244" id="-66283">
		<tag k="name" v="Hunsfosvegen" />
		<tag k="ssr:date" v="2019-12-27" />
		<tag k="ssr:gruppe" v="veg" />
		<tag k="ssr:hovedgruppe" v="infrastruktur" />
		<tag k="ssr:stedsnr" v="1008569" />
		<tag k="ssr:type" v="adressenavn" />
	</node>
	<node lat="58.26148035297777" lon="7.973518645298298" id="-66284">
		<tag k="name" v="Hunsfosåsen" />
		<tag k="ssr:date" v="2019-12-27" />
		<tag k="ssr:gruppe" v="veg" />
		<tag k="ssr:hovedgruppe" v="infrastruktur" />
		<tag k="ssr:stedsnr" v="1008571" />
		<tag k="ssr:type" v="adressenavn" />
	</node>
	<node lat="58.285510979046286" lon="7.982201384179578" id="-66285">
		<tag k="name" v="Hjortestien" />
		<tag k="ssr:date" v="2019-12-27" />
		<tag k="ssr:gruppe" v="veg" />
		<tag k="ssr:hovedgruppe" v="infrastruktur" />
		<tag k="ssr:stedsnr" v="1008573" />
		<tag k="ssr:type" v="adressenavn" />
	</node>
	<node lat="58.259632483609586" lon="7.83285675997193" id="-66288">
		<tag k="name" v="Hunemyrvegen" />
		<tag k="ssr:date" v="2019-12-27" />
		<tag k="ssr:gruppe" v="veg" />
		<tag k="ssr:hovedgruppe" v="infrastruktur" />
		<tag k="ssr:stedsnr" v="1008577" />
		<tag k="ssr:type" v="adressenavn" />
	</node>
	<node lat="58.25191882487976" lon="7.947682846659842" id="-66289">
		<tag k="name" v="Lindekleivvegen" />
		<tag k="ssr:date" v="2019-12-27" />
		<tag k="ssr:gruppe" v="veg" />
		<tag k="ssr:hovedgruppe" v="infrastruktur" />
		<tag k="ssr:stedsnr" v="1008580" />
		<tag k="ssr:type" v="adressenavn" />
	</node>
	<node lat="58.24923559099565" lon="7.945056116323275" id="-66290">
		<tag k="name" v="Lindehei" />
		<tag k="ssr:date" v="2019-12-27" />
		<tag k="ssr:gruppe" v="veg" />
		<tag k="ssr:hovedgruppe" v="infrastruktur" />
		<tag k="ssr:stedsnr" v="1008640" />
		<tag k="ssr:type" v="adressenavn" />
	</node>
	<node lat="58.29426092014793" lon="7.85521577546885" id="-66291">
		<tag k="name" v="Kreklingstien" />
		<tag k="ssr:date" v="2019-12-27" />
		<tag k="ssr:gruppe" v="veg" />
		<tag k="ssr:hovedgruppe" v="infrastruktur" />
		<tag k="ssr:stedsnr" v="1008669" />
		<tag k="ssr:type" v="adressenavn" />
	</node>
	<node lat="58.250150219148956" lon="7.965345815787649" id="-66292">
		<tag k="name" v="Bakhei" />
		<tag k="ssr:date" v="2019-12-27" />
		<tag k="ssr:gruppe" v="veg" />
		<tag k="ssr:hovedgruppe" v="infrastruktur" />
		<tag k="ssr:stedsnr" v="1008530" />
		<tag k="ssr:type" v="adressenavn" />
	</node>
	<node lat="58.27089372732632" lon="7.977933594961313" id="-66295">
		<tag k="name" v="Livegen" />
		<tag k="ssr:date" v="2019-12-27" />
		<tag k="ssr:gruppe" v="veg" />
		<tag k="ssr:hovedgruppe" v="infrastruktur" />
		<tag k="ssr:stedsnr" v="1008599" />
		<tag k="ssr:type" v="adressenavn" />
	</node>
	<node lat="58.26265446030798" lon="7.963058036132491" id="-66296">
		<tag k="name" v="Lillevegen" />
		<tag k="ssr:date" v="2019-12-27" />
		<tag k="ssr:gruppe" v="veg" />
		<tag k="ssr:hovedgruppe" v="infrastruktur" />
		<tag k="ssr:stedsnr" v="1008618" />
		<tag k="ssr:type" v="adressenavn" />
	</node>
	<node lat="58.27807793836339" lon="7.969624685131841" id="-66298">
		<tag k="name" v="Kvernvollen" />
		<tag k="ssr:date" v="2019-12-27" />
		<tag k="ssr:gruppe" v="veg" />
		<tag k="ssr:hovedgruppe" v="infrastruktur" />
		<tag k="ssr:stedsnr" v="1008693" />
		<tag k="ssr:type" v="adressenavn" />
	</node>
	<node lat="58.256052449328436" lon="7.9803976269883" id="-66301">
		<tag k="name" v="Lerkevegen" />
		<tag k="ssr:date" v="2019-12-27" />
		<tag k="ssr:gruppe" v="veg" />
		<tag k="ssr:hovedgruppe" v="infrastruktur" />
		<tag k="ssr:stedsnr" v="1008721" />
		<tag k="ssr:type" v="adressenavn" />
	</node>
	<node lat="58.26731465379253" lon="7.960518280452022" id="-66304">
		<tag k="name" v="Haakon 7. veg" />
		<tag k="ssr:date" v="2019-12-27" />
		<tag k="ssr:gruppe" v="veg" />
		<tag k="ssr:hovedgruppe" v="infrastruktur" />
		<tag k="ssr:stedsnr" v="1008732" />
		<tag k="ssr:type" v="adressenavn" />
	</node>
	<node lat="58.30237138821944" lon="7.975657443973417" id="-66307">
		<tag k="name" v="Kvernhusdalen" />
		<tag k="ssr:date" v="2019-12-27" />
		<tag k="ssr:gruppe" v="veg" />
		<tag k="ssr:hovedgruppe" v="infrastruktur" />
		<tag k="ssr:stedsnr" v="1008677" />
		<tag k="ssr:type" v="adressenavn" />
	</node>
	<node lat="58.268879213788296" lon="7.974472831154208" id="-66311">
		<tag k="name" v="Koldalsvegen" />
		<tag k="ssr:date" v="2019-12-27" />
		<tag k="ssr:gruppe" v="veg" />
		<tag k="ssr:hovedgruppe" v="infrastruktur" />
		<tag k="ssr:stedsnr" v="1008739" />
		<tag k="ssr:type" v="adressenavn" />
	</node>
	<node lat="58.25938266884411" lon="7.962211313182182" id="-66314">
		<tag k="name" v="Hallandsvegen" />
		<tag k="ssr:date" v="2019-12-27" />
		<tag k="ssr:gruppe" v="veg" />
		<tag k="ssr:hovedgruppe" v="infrastruktur" />
		<tag k="ssr:stedsnr" v="1008744" />
		<tag k="ssr:type" v="adressenavn" />
	</node>
	<node lat="58.26401782170604" lon="7.978310165646805" id="-66322">
		<tag k="name" v="Graslijordet" />
		<tag k="ssr:date" v="2019-12-27" />
		<tag k="ssr:gruppe" v="veg" />
		<tag k="ssr:hovedgruppe" v="infrastruktur" />
		<tag k="ssr:stedsnr" v="1008758" />
		<tag k="ssr:type" v="adressenavn" />
	</node>
	<node lat="58.24766285557026" lon="7.965103273618989" id="-66324">
		<tag k="name" v="Golivegen" />
		<tag k="ssr:date" v="2019-12-27" />
		<tag k="ssr:gruppe" v="veg" />
		<tag k="ssr:hovedgruppe" v="infrastruktur" />
		<tag k="ssr:stedsnr" v="1008765" />
		<tag k="ssr:type" v="adressenavn" />
	</node>
	<node lat="58.28102563293805" lon="7.980701016591191" id="-66325">
		<tag k="name" v="Granlibakken" />
		<tag k="ssr:date" v="2019-12-27" />
		<tag k="ssr:gruppe" v="veg" />
		<tag k="ssr:hovedgruppe" v="infrastruktur" />
		<tag k="ssr:stedsnr" v="1008768" />
		<tag k="ssr:type" v="adressenavn" />
	</node>
	<node lat="58.27473607367313" lon="7.97854653476032" id="-66326">
		<tag k="name" v="Granlivegen" />
		<tag k="ssr:date" v="2019-12-27" />
		<tag k="ssr:gruppe" v="veg" />
		<tag k="ssr:hovedgruppe" v="infrastruktur" />
		<tag k="ssr:stedsnr" v="1008777" />
		<tag k="ssr:type" v="adressenavn" />
	</node>
	<node lat="58.26329904759061" lon="7.959278878483504" id="-66327">
		<tag k="name" v="Fjellvegen" />
		<tag k="ssr:date" v="2019-12-27" />
		<tag k="ssr:gruppe" v="veg" />
		<tag k="ssr:hovedgruppe" v="infrastruktur" />
		<tag k="ssr:stedsnr" v="1008836" />
		<tag k="ssr:type" v="adressenavn" />
	</node>
	<node lat="58.29342287281182" lon="7.854519185472452" id="-66328">
		<tag k="name" v="Furuvegen" />
		<tag k="ssr:date" v="2019-12-27" />
		<tag k="ssr:gruppe" v="veg" />
		<tag k="ssr:hovedgruppe" v="infrastruktur" />
		<tag k="ssr:stedsnr" v="1008844" />
		<tag k="ssr:type" v="adressenavn" />
	</node>
	<node lat="58.24634999511141" lon="7.945380797706687" id="-66334">
		<tag k="name" v="Heiselflaten" />
		<tag k="ssr:date" v="2019-12-27" />
		<tag k="ssr:gruppe" v="veg" />
		<tag k="ssr:hovedgruppe" v="infrastruktur" />
		<tag k="ssr:stedsnr" v="1008880" />
		<tag k="ssr:type" v="adressenavn" />
	</node>
	<node lat="58.24617160530674" lon="7.948265652361545" id="-66336">
		<tag k="name" v="Heisel" />
		<tag k="ssr:date" v="2019-12-27" />
		<tag k="ssr:gruppe" v="veg" />
		<tag k="ssr:hovedgruppe" v="infrastruktur" />
		<tag k="ssr:stedsnr" v="1008882" />
		<tag k="ssr:type" v="adressenavn" />
	</node>
	<node lat="58.26015250337809" lon="7.9637638093492695" id="-66340">
		<tag k="name" v="Heiseldalsvegen" />
		<tag k="ssr:date" v="2019-12-27" />
		<tag k="ssr:gruppe" v="veg" />
		<tag k="ssr:hovedgruppe" v="infrastruktur" />
		<tag k="ssr:stedsnr" v="1008890" />
		<tag k="ssr:type" v="adressenavn" />
	</node>
	<node lat="58.28405763932253" lon="7.987212075698441" id="-66342">
		<tag k="name" v="Harestien" />
		<tag k="ssr:date" v="2019-12-27" />
		<tag k="ssr:gruppe" v="veg" />
		<tag k="ssr:hovedgruppe" v="infrastruktur" />
		<tag k="ssr:stedsnr" v="1008894" />
		<tag k="ssr:type" v="adressenavn" />
	</node>
	<node lat="58.25448598166439" lon="7.971141533721199" id="-66343">
		<tag k="name" v="Rakkestad" />
		<tag k="ssr:date" v="2019-12-27" />
		<tag k="ssr:gruppe" v="veg" />
		<tag k="ssr:hovedgruppe" v="infrastruktur" />
		<tag k="ssr:stedsnr" v="1008898" />
		<tag k="ssr:type" v="adressenavn" />
	</node>
	<node lat="58.26395856502808" lon="7.959260975058057" id="-66344">
		<tag k="name" v="Parkvegen" />
		<tag k="ssr:date" v="2019-12-27" />
		<tag k="ssr:gruppe" v="veg" />
		<tag k="ssr:hovedgruppe" v="infrastruktur" />
		<tag k="ssr:stedsnr" v="1008903" />
		<tag k="ssr:type" v="adressenavn" />
	</node>
	<node lat="58.26730800930155" lon="7.959253469116264" id="-66345">
		<tag k="name" v="Per Gynts veg" />
		<tag k="ssr:date" v="2019-12-27" />
		<tag k="ssr:gruppe" v="veg" />
		<tag k="ssr:hovedgruppe" v="infrastruktur" />
		<tag k="ssr:stedsnr" v="1008907" />
		<tag k="ssr:type" v="adressenavn" />
	</node>
	<node lat="58.28422213969658" lon="7.986408211238363" id="-66347">
		<tag k="name" v="Pallanevegen" />
		<tag k="ssr:date" v="2019-12-27" />
		<tag k="ssr:gruppe" v="veg" />
		<tag k="ssr:hovedgruppe" v="infrastruktur" />
		<tag k="ssr:stedsnr" v="1008911" />
		<tag k="ssr:type" v="adressenavn" />
	</node>
	<node lat="58.26019397358248" lon="7.976274597430084" id="-66348">
		<tag k="name" v="Nordli" />
		<tag k="ssr:date" v="2019-12-27" />
		<tag k="ssr:gruppe" v="veg" />
		<tag k="ssr:hovedgruppe" v="infrastruktur" />
		<tag k="ssr:stedsnr" v="1008918" />
		<tag k="ssr:type" v="adressenavn" />
	</node>
	<node lat="58.27204287959229" lon="7.981445109167852" id="-66349">
		<tag k="name" v="Rundåsvegen" />
		<tag k="ssr:date" v="2019-12-27" />
		<tag k="ssr:gruppe" v="veg" />
		<tag k="ssr:hovedgruppe" v="infrastruktur" />
		<tag k="ssr:stedsnr" v="1008925" />
		<tag k="ssr:type" v="adressenavn" />
	</node>
	<node lat="58.26831134232254" lon="7.961067385221143" id="-66350">
		<tag k="name" v="Ringvegen" />
		<tag k="ssr:date" v="2019-12-27" />
		<tag k="ssr:gruppe" v="veg" />
		<tag k="ssr:hovedgruppe" v="infrastruktur" />
		<tag k="ssr:stedsnr" v="1008930" />
		<tag k="ssr:type" v="adressenavn" />
	</node>
	<node lat="58.26262479966461" lon="7.959281413095103" id="-66353">
		<tag k="name" v="Montjønnvegen" />
		<tag k="ssr:date" v="2019-12-27" />
		<tag k="ssr:gruppe" v="veg" />
		<tag k="ssr:hovedgruppe" v="infrastruktur" />
		<tag k="ssr:stedsnr" v="1009005" />
		<tag k="ssr:type" v="adressenavn" />
	</node>
	<node lat="58.27096415877688" lon="7.9738165330212585" id="-66355">
		<tag k="name" v="Markvegen" />
		<tag k="ssr:date" v="2019-12-27" />
		<tag k="ssr:gruppe" v="veg" />
		<tag k="ssr:hovedgruppe" v="infrastruktur" />
		<tag k="ssr:stedsnr" v="1009009" />
		<tag k="ssr:type" v="adressenavn" />
	</node>
	<node lat="58.26463596268493" lon="7.9592713185875255" id="-66356">
		<tag k="name" v="Marcus Thranes veg" />
		<tag k="ssr:date" v="2019-12-27" />
		<tag k="ssr:gruppe" v="veg" />
		<tag k="ssr:hovedgruppe" v="infrastruktur" />
		<tag k="ssr:stedsnr" v="1009013" />
		<tag k="ssr:type" v="adressenavn" />
	</node>
	<node lat="58.28261856499803" lon="7.977407588961103" id="-66357">
		<tag k="name" v="Ludeflaten" />
		<tag k="ssr:date" v="2019-12-27" />
		<tag k="ssr:gruppe" v="veg" />
		<tag k="ssr:hovedgruppe" v="infrastruktur" />
		<tag k="ssr:stedsnr" v="1009014" />
		<tag k="ssr:type" v="adressenavn" />
	</node>
	<node lat="58.24605912090719" lon="7.952786093978877" id="-66363">
		<tag k="name" v="Lundevegen" />
		<tag k="ssr:date" v="2019-12-27" />
		<tag k="ssr:gruppe" v="veg" />
		<tag k="ssr:hovedgruppe" v="infrastruktur" />
		<tag k="ssr:stedsnr" v="1009027" />
		<tag k="ssr:type" v="adressenavn" />
	</node>
	<node lat="58.269773551162956" lon="7.961781847684464" id="-66365">
		<tag k="name" v="Lyngvegen" />
		<tag k="ssr:date" v="2019-12-27" />
		<tag k="ssr:gruppe" v="veg" />
		<tag k="ssr:hovedgruppe" v="infrastruktur" />
		<tag k="ssr:stedsnr" v="1009037" />
		<tag k="ssr:type" v="adressenavn" />
	</node>
	<node lat="58.27144820912524" lon="7.968531963775521" id="-66367">
		<tag k="name" v="Nesvegen" />
		<tag k="ssr:date" v="2019-12-27" />
		<tag k="ssr:gruppe" v="veg" />
		<tag k="ssr:hovedgruppe" v="infrastruktur" />
		<tag k="ssr:stedsnr" v="1009041" />
		<tag k="ssr:type" v="adressenavn" />
	</node>
	<node lat="58.26598235805863" lon="7.959254343110082" id="-66368">
		<tag k="name" v="Nordahl Griegs veg" />
		<tag k="ssr:date" v="2019-12-27" />
		<tag k="ssr:gruppe" v="veg" />
		<tag k="ssr:hovedgruppe" v="infrastruktur" />
		<tag k="ssr:stedsnr" v="1009045" />
		<tag k="ssr:type" v="adressenavn" />
	</node>
	<node lat="58.28438443596644" lon="7.988911616561396" id="-66369">
		<tag k="name" v="Mårvegen" />
		<tag k="ssr:date" v="2019-12-27" />
		<tag k="ssr:gruppe" v="veg" />
		<tag k="ssr:hovedgruppe" v="infrastruktur" />
		<tag k="ssr:stedsnr" v="1009046" />
		<tag k="ssr:type" v="adressenavn" />
	</node>
	<node lat="58.265239042875294" lon="7.959274244745455" id="-66373">
		<tag k="name" v="Moseidvegen" />
		<tag k="ssr:date" v="2019-12-27" />
		<tag k="ssr:gruppe" v="veg" />
		<tag k="ssr:hovedgruppe" v="infrastruktur" />
		<tag k="ssr:stedsnr" v="1009055" />
		<tag k="ssr:type" v="adressenavn" />
	</node>
	<node lat="58.256930877104125" lon="7.989398902516575" id="-66374">
		<tag k="name" v="Moskedalen" />
		<tag k="ssr:date" v="2019-12-27" />
		<tag k="ssr:gruppe" v="veg" />
		<tag k="ssr:hovedgruppe" v="infrastruktur" />
		<tag k="ssr:stedsnr" v="1009059" />
		<tag k="ssr:type" v="adressenavn" />
	</node>
	<node lat="58.261645752837474" lon="7.956933385592714" id="-66378">
		<tag k="name" v="Montjønnåsen" />
		<tag k="ssr:date" v="2019-12-27" />
		<tag k="ssr:gruppe" v="veg" />
		<tag k="ssr:hovedgruppe" v="infrastruktur" />
		<tag k="ssr:stedsnr" v="1009066" />
		<tag k="ssr:type" v="adressenavn" />
	</node>
	<node lat="58.255961467881484" lon="7.981678674411676" id="-66379">
		<tag k="name" v="Måltrostvegen" />
		<tag k="ssr:date" v="2019-12-27" />
		<tag k="ssr:gruppe" v="veg" />
		<tag k="ssr:hovedgruppe" v="infrastruktur" />
		<tag k="ssr:stedsnr" v="1009067" />
		<tag k="ssr:type" v="adressenavn" />
	</node>
	<node lat="58.294011808792455" lon="7.855000903422841" id="-66380">
		<tag k="name" v="Tollekleiv" />
		<tag k="ssr:date" v="2019-12-27" />
		<tag k="ssr:gruppe" v="veg" />
		<tag k="ssr:hovedgruppe" v="infrastruktur" />
		<tag k="ssr:stedsnr" v="1009071" />
		<tag k="ssr:type" v="adressenavn" />
	</node>
	<node lat="58.25823463159137" lon="7.964145248653651" id="-66384">
		<tag k="name" v="Tjønnvollvegen" />
		<tag k="ssr:date" v="2019-12-27" />
		<tag k="ssr:gruppe" v="veg" />
		<tag k="ssr:hovedgruppe" v="infrastruktur" />
		<tag k="ssr:stedsnr" v="1009077" />
		<tag k="ssr:type" v="adressenavn" />
	</node>
	<node lat="58.269128394255794" lon="7.9610608730972166" id="-66386">
		<tag k="name" v="Sønningsvegen" />
		<tag k="ssr:date" v="2019-12-27" />
		<tag k="ssr:gruppe" v="veg" />
		<tag k="ssr:hovedgruppe" v="infrastruktur" />
		<tag k="ssr:stedsnr" v="1009080" />
		<tag k="ssr:type" v="adressenavn" />
	</node>
	<node lat="58.26062574786371" lon="7.961701878160909" id="-66387">
		<tag k="name" v="Strøymsvegen" />
		<tag k="ssr:date" v="2019-12-27" />
		<tag k="ssr:gruppe" v="veg" />
		<tag k="ssr:hovedgruppe" v="infrastruktur" />
		<tag k="ssr:stedsnr" v="1009081" />
		<tag k="ssr:type" v="adressenavn" />
	</node>
	<node lat="58.276463695555705" lon="7.9682796992871925" id="-66388">
		<tag k="name" v="Støavegen" />
		<tag k="ssr:date" v="2019-12-27" />
		<tag k="ssr:gruppe" v="veg" />
		<tag k="ssr:hovedgruppe" v="infrastruktur" />
		<tag k="ssr:stedsnr" v="1009083" />
		<tag k="ssr:type" v="adressenavn" />
	</node>
	<node lat="58.27212768424633" lon="7.969077443417263" id="-66389">
		<tag k="name" v="Vardevegen syd" />
		<tag k="ssr:date" v="2019-12-27" />
		<tag k="ssr:gruppe" v="veg" />
		<tag k="ssr:hovedgruppe" v="infrastruktur" />
		<tag k="ssr:stedsnr" v="1009084" />
		<tag k="ssr:type" v="adressenavn" />
	</node>
	<node lat="58.28786399724555" lon="8.01724708461618" id="-66390">
		<tag k="name" v="Veråsvegen" />
		<tag k="ssr:date" v="2019-12-27" />
		<tag k="ssr:gruppe" v="veg" />
		<tag k="ssr:hovedgruppe" v="infrastruktur" />
		<tag k="ssr:stedsnr" v="1009087" />
		<tag k="ssr:type" v="adressenavn" />
	</node>
	<node lat="58.2749103859862" lon="7.970742765487337" id="-66394">
		<tag k="name" v="Vardevegen nord" />
		<tag k="ssr:date" v="2019-12-27" />
		<tag k="ssr:gruppe" v="veg" />
		<tag k="ssr:hovedgruppe" v="infrastruktur" />
		<tag k="ssr:stedsnr" v="1009110" />
		<tag k="ssr:type" v="adressenavn" />
	</node>
	<node lat="58.27038568024319" lon="7.972164063685398" id="-66395">
		<tag k="name" v="Tvidøblane" />
		<tag k="ssr:date" v="2019-12-27" />
		<tag k="ssr:gruppe" v="veg" />
		<tag k="ssr:hovedgruppe" v="infrastruktur" />
		<tag k="ssr:stedsnr" v="1009120" />
		<tag k="ssr:type" v="adressenavn" />
	</node>
	<node lat="58.273165638706836" lon="7.984219873980521" id="-66397">
		<tag k="name" v="Rundåslia" />
		<tag k="ssr:date" v="2019-12-27" />
		<tag k="ssr:gruppe" v="veg" />
		<tag k="ssr:hovedgruppe" v="infrastruktur" />
		<tag k="ssr:stedsnr" v="1008951" />
		<tag k="ssr:type" v="adressenavn" />
	</node>
	<node lat="58.27162072115775" lon="7.969975479715024" id="-66399">
		<tag k="name" v="Revia" />
		<tag k="ssr:date" v="2019-12-27" />
		<tag k="ssr:gruppe" v="veg" />
		<tag k="ssr:hovedgruppe" v="infrastruktur" />
		<tag k="ssr:stedsnr" v="1008962" />
		<tag k="ssr:type" v="adressenavn" />
	</node>
	<node lat="58.232442997267604" lon="7.931131790610116" id="-66400">
		<tag k="name" v="Ravnåsvegen" />
		<tag k="ssr:date" v="2019-12-27" />
		<tag k="ssr:gruppe" v="veg" />
		<tag k="ssr:hovedgruppe" v="infrastruktur" />
		<tag k="ssr:stedsnr" v="1008983" />
		<tag k="ssr:type" v="adressenavn" />
	</node>
	<node lat="58.26831489357352" lon="7.973596858696501" id="-66401">
		<tag k="name" v="Torsbyvegen" />
		<tag k="ssr:date" v="2019-12-27" />
		<tag k="ssr:gruppe" v="veg" />
		<tag k="ssr:hovedgruppe" v="infrastruktur" />
		<tag k="ssr:stedsnr" v="1009137" />
		<tag k="ssr:type" v="adressenavn" />
	</node>
	<node lat="58.261017798277464" lon="7.978785546845455" id="-66403">
		<tag k="name" v="Tvangsdalen" />
		<tag k="ssr:date" v="2019-12-27" />
		<tag k="ssr:gruppe" v="veg" />
		<tag k="ssr:hovedgruppe" v="infrastruktur" />
		<tag k="ssr:stedsnr" v="1009141" />
		<tag k="ssr:type" v="adressenavn" />
	</node>
	<node lat="58.27535215544608" lon="7.96811872181916" id="-66407">
		<tag k="name" v="Skjerehauvegen" />
		<tag k="ssr:date" v="2019-12-27" />
		<tag k="ssr:gruppe" v="veg" />
		<tag k="ssr:hovedgruppe" v="infrastruktur" />
		<tag k="ssr:stedsnr" v="1009147" />
		<tag k="ssr:type" v="adressenavn" />
	</node>
	<node lat="58.22320906443288" lon="7.936894684403168" id="-66409">
		<tag k="name" v="Saga terrasse" />
		<tag k="ssr:date" v="2019-12-27" />
		<tag k="ssr:gruppe" v="veg" />
		<tag k="ssr:hovedgruppe" v="infrastruktur" />
		<tag k="ssr:stedsnr" v="1009152" />
		<tag k="ssr:type" v="adressenavn" />
	</node>
	<node lat="58.26372834810448" lon="7.975998871440087" id="-66410">
		<tag k="name" v="Sentrumsvegen" />
		<tag k="ssr:date" v="2019-12-27" />
		<tag k="ssr:gruppe" v="veg" />
		<tag k="ssr:hovedgruppe" v="infrastruktur" />
		<tag k="ssr:stedsnr" v="1009153" />
		<tag k="ssr:type" v="adressenavn" />
	</node>
	<node lat="58.282928145461966" lon="7.980974940250701" id="-66413">
		<tag k="name" v="Rådyrvegen" />
		<tag k="ssr:date" v="2019-12-27" />
		<tag k="ssr:gruppe" v="veg" />
		<tag k="ssr:hovedgruppe" v="infrastruktur" />
		<tag k="ssr:stedsnr" v="1009157" />
		<tag k="ssr:type" v="adressenavn" />
	</node>
	<node lat="58.222845729043264" lon="7.935998675626892" id="-66414">
		<tag k="name" v="Saga" />
		<tag k="ssr:date" v="2019-12-27" />
		<tag k="ssr:gruppe" v="veg" />
		<tag k="ssr:hovedgruppe" v="infrastruktur" />
		<tag k="ssr:stedsnr" v="1009159" />
		<tag k="ssr:type" v="adressenavn" />
	</node>
	<node lat="58.27266749052201" lon="7.967645479084224" id="-66416">
		<tag k="name" v="Røllend" />
		<tag k="ssr:date" v="2019-12-27" />
		<tag k="ssr:gruppe" v="veg" />
		<tag k="ssr:hovedgruppe" v="infrastruktur" />
		<tag k="ssr:stedsnr" v="1009163" />
		<tag k="ssr:type" v="adressenavn" />
	</node>
	<node lat="58.29073858800529" lon="8.023658896663871" id="-66419">
		<tag k="name" v="Rønningsvegen" />
		<tag k="ssr:date" v="2019-12-27" />
		<tag k="ssr:gruppe" v="veg" />
		<tag k="ssr:hovedgruppe" v="infrastruktur" />
		<tag k="ssr:stedsnr" v="1009169" />
		<tag k="ssr:type" v="adressenavn" />
	</node>
	<node lat="58.26671854873509" lon="7.967647331801311" id="-66425">
		<tag k="name" v="Stemhei" />
		<tag k="ssr:date" v="2019-12-27" />
		<tag k="ssr:gruppe" v="veg" />
		<tag k="ssr:hovedgruppe" v="infrastruktur" />
		<tag k="ssr:stedsnr" v="1009181" />
		<tag k="ssr:type" v="adressenavn" />
	</node>
	<node lat="58.25559868476739" lon="7.990217326983917" id="-66430">
		<tag k="name" v="Snømyr" />
		<tag k="ssr:date" v="2019-12-27" />
		<tag k="ssr:gruppe" v="veg" />
		<tag k="ssr:hovedgruppe" v="infrastruktur" />
		<tag k="ssr:stedsnr" v="1009186" />
		<tag k="ssr:type" v="adressenavn" />
	</node>
	<node lat="58.296245705504354" lon="7.847108997113809" id="-66431">
		<tag k="name" v="Solknipen" />
		<tag k="ssr:date" v="2019-12-27" />
		<tag k="ssr:gruppe" v="veg" />
		<tag k="ssr:hovedgruppe" v="infrastruktur" />
		<tag k="ssr:stedsnr" v="1009188" />
		<tag k="ssr:type" v="adressenavn" />
	</node>
	<node lat="58.383081246572516" lon="7.742955130177491" id="-66435">
		<tag k="name" v="Smiheia" />
		<tag k="ssr:date" v="2019-12-27" />
		<tag k="ssr:gruppe" v="veg" />
		<tag k="ssr:hovedgruppe" v="infrastruktur" />
		<tag k="ssr:stedsnr" v="1009194" />
		<tag k="ssr:type" v="adressenavn" />
	</node>
	<node lat="58.27462300160689" lon="7.977247374726716" id="-66436">
		<tag k="name" v="Skolevegen" />
		<tag k="ssr:date" v="2019-12-27" />
		<tag k="ssr:gruppe" v="veg" />
		<tag k="ssr:hovedgruppe" v="infrastruktur" />
		<tag k="ssr:stedsnr" v="1009195" />
		<tag k="ssr:type" v="adressenavn" />
	</node>
	<node lat="58.24437736112619" lon="7.953438599497643" id="-66439">
		<tag k="name" v="Åsvegen" />
		<tag k="ssr:date" v="2019-12-27" />
		<tag k="ssr:gruppe" v="veg" />
		<tag k="ssr:hovedgruppe" v="infrastruktur" />
		<tag k="ssr:stedsnr" v="1009493" />
		<tag k="ssr:type" v="adressenavn" />
	</node>
	<node lat="58.260778569542374" lon="7.959301395738932" id="-66440">
		<tag k="name" v="Vinjevegen" />
		<tag k="ssr:date" v="2019-12-27" />
		<tag k="ssr:gruppe" v="veg" />
		<tag k="ssr:hovedgruppe" v="infrastruktur" />
		<tag k="ssr:stedsnr" v="1009496" />
		<tag k="ssr:type" v="adressenavn" />
	</node>
	<node lat="58.261928060829675" lon="7.959292890027975" id="-66444">
		<tag k="name" v="Wergelandsvegen" />
		<tag k="ssr:date" v="2019-12-27" />
		<tag k="ssr:gruppe" v="veg" />
		<tag k="ssr:hovedgruppe" v="infrastruktur" />
		<tag k="ssr:stedsnr" v="1009506" />
		<tag k="ssr:type" v="adressenavn" />
	</node>
	<node lat="58.25079123319798" lon="7.988762377840125" id="-66447">
		<tag k="name" v="Ålefjærvegen" />
		<tag k="ssr:date" v="2019-12-27" />
		<tag k="ssr:gruppe" v="veg" />
		<tag k="ssr:hovedgruppe" v="infrastruktur" />
		<tag k="ssr:stedsnr" v="1009514" />
		<tag k="ssr:type" v="adressenavn" />
	</node>
	<node lat="58.292958236001994" lon="7.993300713409645" id="-66449">
		<tag k="name" v="Utsikten" />
		<tag k="ssr:date" v="2019-12-27" />
		<tag k="ssr:gruppe" v="veg" />
		<tag k="ssr:hovedgruppe" v="infrastruktur" />
		<tag k="ssr:stedsnr" v="1009478" />
		<tag k="ssr:type" v="adressenavn" />
	</node>
</osm>
