<?xml version="1.0" encoding="UTF-8"?>
<osm version="0.6" generator="osmapis">
	<node id="1377413508" lat="70.5886731" lon="22.2871516" version="7" timestamp="2022-07-09T05:55:39Z" changeset="123388130" uid="3497659" user="NKA">
		<tag k="name" v="Breivikbotn" />
		<tag k="place" v="village" />
		<tag k="population" v="300" />
		<tag k="population:date" v="2021-01-01" />
		<tag k="ref:ssb_tettsted" v="8562" />
		<tag k="source:population" v="SSB - befolkning i tettstedet" />
		<tag k="ssr:stedsnr" v="202353" />
		<tag k="wikidata" v="Q1774199" />
		<tag k="wikipedia" v="en:Breivikbotn" />
	</node>
	<node id="2353386730" lat="70.633097" lon="21.990689" version="2" timestamp="2018-05-02T17:03:50Z" changeset="58620907" uid="3497659" user="NKA">
		<tag k="name" v="Neset" />
		<tag k="name:no" v="Neset" />
		<tag k="natural" v="cape" />
		<tag k="source" v="Kartverket" />
		<tag k="ssr:stedsnr" v="576425" />
	</node>
	<node id="3376470910" lat="70.632223" lon="21.9854426" version="6" timestamp="2022-07-09T05:55:39Z" changeset="123388130" uid="3497659" user="NKA">
		<tag k="name" v="Sørvær" />
		<tag k="place" v="village" />
		<tag k="population" v="201" />
		<tag k="ssr:stedsnr" v="384697" />
		<tag k="wikidata" v="Q3427756" />
		<tag k="wikipedia" v="en:Sørvær, Finnmark" />
	</node>
	<node id="3384603694" lat="70.5975357" lon="22.1091369" version="4" timestamp="2022-07-09T05:55:39Z" changeset="123388130" uid="3497659" user="NKA">
		<tag k="name" v="Breivik" />
		<tag k="place" v="hamlet" />
		<tag k="ssr:stedsnr" v="687714" />
		<tag k="wikidata" v="Q4960460" />
		<tag k="wikipedia" v="en:Breivik, Finnmark" />
	</node>
	<node id="3384604333" lat="70.6069015" lon="22.3065876" version="2" timestamp="2022-07-09T05:55:39Z" changeset="123388130" uid="3497659" user="NKA">
		<tag k="loc_name" v="Høyvika" />
		<tag k="name" v="Høyvik" />
		<tag k="place" v="farm" />
		<tag k="ssr:stedsnr" v="626413" />
	</node>
	<node id="6203030859" lat="70.4865202" lon="22.1610973" version="6" timestamp="2022-07-09T05:55:39Z" changeset="123388130" uid="3497659" user="NKA">
		<tag k="loc_name:fkv" v="Hasviika" />
		<tag k="name" v="Hasvik" />
		<tag k="name:fkv" v="Hasviik" />
		<tag k="name:no" v="Hasvik" />
		<tag k="name:se" v="Ákŋoluokta" />
		<tag k="place" v="village" />
		<tag k="population" v="359" />
		<tag k="population:date" v="2021-01-01" />
		<tag k="ref:ssb_tettsted" v="8563" />
		<tag k="source:population" v="SSB - befolkning i tettstedet" />
		<tag k="ssr:stedsnr" v="808300" />
	</node>
	<node id="8805748190" lat="70.5410379" lon="22.2240244" version="2" timestamp="2022-07-09T05:55:39Z" changeset="123388130" uid="3497659" user="NKA">
		<tag k="name" v="Bårvik" />
		<tag k="place" v="hamlet" />
		<tag k="ssr:stedsnr" v="202323" />
	</node>
	<node id="9875732158" lat="70.5175389" lon="22.2462612" version="1" timestamp="2022-07-09T05:55:39Z" changeset="123388130" uid="3497659" user="NKA">
		<tag k="name" v="Hofseth" />
		<tag k="place" v="isolated_dwelling" />
		<tag k="ssr:stedsnr" v="760369" />
	</node>
	<node id="9875732159" lat="70.6167638" lon="22.7127054" version="1" timestamp="2022-07-09T05:55:39Z" changeset="123388130" uid="3497659" user="NKA">
		<tag k="name" v="Børfjord" />
		<tag k="place" v="isolated_dwelling" />
		<tag k="ssr:stedsnr" v="337197" />
	</node>
	<node id="9875732160" lat="70.5232056" lon="22.6583889" version="1" timestamp="2022-07-09T05:55:39Z" changeset="123388130" uid="3497659" user="NKA">
		<tag k="name" v="Øyfjordholmen" />
		<tag k="place" v="farm" />
		<tag k="ssr:stedsnr" v="466631" />
	</node>
	<node id="9875732161" lat="70.3217195" lon="22.4956527" version="1" timestamp="2022-07-09T05:55:39Z" changeset="123388130" uid="3497659" user="NKA">
		<tag k="name" v="Botn" />
		<tag k="place" v="isolated_dwelling" />
		<tag k="ssr:stedsnr" v="580770" />
	</node>
	<node id="9875732162" lat="70.6147084" lon="22.0333861" version="1" timestamp="2022-07-09T05:55:39Z" changeset="123388130" uid="3497659" user="NKA">
		<tag k="name" v="Markeila" />
		<tag k="place" v="isolated_dwelling" />
		<tag k="ssr:stedsnr" v="445737" />
	</node>
	<node id="9875732163" lat="70.5202695" lon="22.2528555" version="1" timestamp="2022-07-09T05:55:39Z" changeset="123388130" uid="3497659" user="NKA">
		<tag k="name" v="Hasfjord" />
		<tag k="place" v="hamlet" />
		<tag k="ssr:stedsnr" v="323309" />
	</node>
	<node id="9875732164" lat="70.5582611" lon="22.6519582" version="1" timestamp="2022-07-09T05:55:39Z" changeset="123388130" uid="3497659" user="NKA">
		<tag k="name" v="Midbotn" />
		<tag k="place" v="locality" />
		<tag k="ssr:stedsnr" v="762712" />
	</node>
	<node id="9875732165" lat="70.6324056" lon="22.7046333" version="1" timestamp="2022-07-09T05:55:39Z" changeset="123388130" uid="3497659" user="NKA">
		<tag k="name" v="Tomasnes" />
		<tag k="place" v="farm" />
		<tag k="ssr:stedsnr" v="161879" />
	</node>
	<node id="9875732166" lat="70.34005" lon="22.4798887" version="1" timestamp="2022-07-09T05:55:39Z" changeset="123388130" uid="3497659" user="NKA">
		<tag k="name" v="Fuglelv" />
		<tag k="place" v="locality" />
		<tag k="ssr:stedsnr" v="34753" />
	</node>
	<node id="9875732167" lat="70.5999946" lon="22.1156141" version="1" timestamp="2022-07-09T05:55:39Z" changeset="123388130" uid="3497659" user="NKA">
		<tag k="name" v="Nygardene" />
		<tag k="place" v="neighbourhood" />
		<tag k="ssr:stedsnr" v="155598" />
	</node>
	<node id="9875732168" lat="70.6726478" lon="22.5926254" version="1" timestamp="2022-07-09T05:55:39Z" changeset="123388130" uid="3497659" user="NKA">
		<tag k="name" v="Bergli" />
		<tag k="place" v="farm" />
		<tag k="ssr:stedsnr" v="748665" />
	</node>
	<node id="9875732169" lat="70.3613111" lon="22.5518806" version="1" timestamp="2022-07-09T05:55:39Z" changeset="123388130" uid="3497659" user="NKA">
		<tag k="name" v="Midtbukta" />
		<tag k="place" v="isolated_dwelling" />
		<tag k="ssr:stedsnr" v="81152" />
	</node>
	<node id="9875732170" lat="70.4920797" lon="22.1408743" version="1" timestamp="2022-07-09T05:55:39Z" changeset="123388130" uid="3497659" user="NKA">
		<tag k="name" v="Kobbevåg" />
		<tag k="place" v="farm" />
		<tag k="ssr:stedsnr" v="93918" />
	</node>
	<node id="9875732171" lat="70.6417031" lon="22.5637119" version="1" timestamp="2022-07-09T05:55:39Z" changeset="123388130" uid="3497659" user="NKA">
		<tag k="name" v="Elvestrand" />
		<tag k="place" v="locality" />
		<tag k="ssr:stedsnr" v="930695" />
	</node>
	<node id="9875732172" lat="70.6353917" lon="22.5770195" version="1" timestamp="2022-07-09T05:55:39Z" changeset="123388130" uid="3497659" user="NKA">
		<tag k="name" v="Dønnesfjordbotn" />
		<tag k="place" v="farm" />
		<tag k="ssr:stedsnr" v="202691" />
	</node>
	<node id="9875732173" lat="70.4956723" lon="22.4580721" version="1" timestamp="2022-07-09T05:55:39Z" changeset="123388130" uid="3497659" user="NKA">
		<tag k="name" v="Valan" />
		<tag k="place" v="locality" />
		<tag k="ssr:stedsnr" v="444175" />
	</node>
	<node id="9875732174" lat="70.6301778" lon="22.4038138" version="1" timestamp="2022-07-09T05:55:39Z" changeset="123388130" uid="3497659" user="NKA">
		<tag k="alt_name" v="Åfjord" />
		<tag k="name" v="Ofjord" />
		<tag k="place" v="isolated_dwelling" />
		<tag k="ssr:stedsnr" v="809703" />
	</node>
	<node id="9875732175" lat="70.4842262" lon="22.2428809" version="1" timestamp="2022-07-09T05:55:39Z" changeset="123388130" uid="3497659" user="NKA">
		<tag k="name" v="Laukslett" />
		<tag k="place" v="isolated_dwelling" />
		<tag k="ssr:stedsnr" v="944414" />
	</node>
	<node id="9875732176" lat="70.4865389" lon="22.1320306" version="1" timestamp="2022-07-09T05:55:39Z" changeset="123388130" uid="3497659" user="NKA">
		<tag k="name" v="Seivåg" />
		<tag k="place" v="locality" />
		<tag k="ssr:stedsnr" v="760978" />
	</node>
	<node id="9875732177" lat="70.3281916" lon="22.4808695" version="1" timestamp="2022-07-09T05:55:39Z" changeset="123388130" uid="3497659" user="NKA">
		<tag k="name" v="Stjernvåg" />
		<tag k="place" v="locality" />
		<tag k="ssr:stedsnr" v="388049" />
	</node>
	<node id="9875732178" lat="70.598175" lon="22.3118555" version="1" timestamp="2022-07-09T05:55:39Z" changeset="123388130" uid="3497659" user="NKA">
		<tag k="name" v="Nordre Hansvoll" />
		<tag k="place" v="hamlet" />
		<tag k="ssr:stedsnr" v="31831" />
	</node>
	<node id="9875732179" lat="70.3548834" lon="22.4147137" version="1" timestamp="2022-07-09T05:55:39Z" changeset="123388130" uid="3497659" user="NKA">
		<tag k="name" v="Roren" />
		<tag k="place" v="locality" />
		<tag k="ssr:stedsnr" v="81162" />
	</node>
	<node id="9875732180" lat="70.3461861" lon="22.4749276" version="1" timestamp="2022-07-09T05:55:39Z" changeset="123388130" uid="3497659" user="NKA">
		<tag k="name" v="Inner-Sommarset" />
		<tag k="place" v="locality" />
		<tag k="ssr:stedsnr" v="510056" />
	</node>
	<node id="9875732181" lat="70.6214559" lon="22.7163406" version="1" timestamp="2022-07-09T05:55:39Z" changeset="123388130" uid="3497659" user="NKA">
		<tag k="name" v="Børstrand" />
		<tag k="place" v="hamlet" />
		<tag k="ssr:stedsnr" v="566369" />
	</node>
	<node id="9875732182" lat="70.6030941" lon="22.3168818" version="1" timestamp="2022-07-09T05:55:39Z" changeset="123388130" uid="3497659" user="NKA">
		<tag k="name" v="Storbakken" />
		<tag k="place" v="farm" />
		<tag k="ssr:stedsnr" v="505381" />
	</node>
	<node id="9875732183" lat="70.337925" lon="22.4596222" version="1" timestamp="2022-07-09T05:55:39Z" changeset="123388130" uid="3497659" user="NKA">
		<tag k="name" v="Hammarbukta" />
		<tag k="place" v="farm" />
		<tag k="ssr:stedsnr" v="464899" />
	</node>
	<node id="9875732184" lat="70.5016145" lon="22.1482789" version="1" timestamp="2022-07-09T05:55:39Z" changeset="123388130" uid="3497659" user="NKA">
		<tag k="name" v="Hasvåg" />
		<tag k="place" v="farm" />
		<tag k="ssr:stedsnr" v="20751" />
	</node>
	<node id="9875732185" lat="70.6280611" lon="22.7144223" version="1" timestamp="2022-07-09T05:55:39Z" changeset="123388130" uid="3497659" user="NKA">
		<tag k="name" v="Solvang" />
		<tag k="place" v="locality" />
		<tag k="ssr:stedsnr" v="459020" />
	</node>
	<node id="9875732186" lat="70.6096517" lon="22.1791256" version="1" timestamp="2022-07-09T05:55:39Z" changeset="123388130" uid="3497659" user="NKA">
		<tag k="alt_name" v="Sandvik" />
		<tag k="name" v="Sandvika" />
		<tag k="place" v="locality" />
		<tag k="ssr:stedsnr" v="930735" />
	</node>
	<node id="9875732187" lat="70.6118498" lon="22.2006657" version="1" timestamp="2022-07-09T05:55:39Z" changeset="123388130" uid="3497659" user="NKA">
		<tag k="name" v="Sarset" />
		<tag k="place" v="farm" />
		<tag k="ssr:stedsnr" v="870715" />
	</node>
	<node id="9875732188" lat="70.6072111" lon="22.2865888" version="1" timestamp="2022-07-09T05:55:39Z" changeset="123388130" uid="3497659" user="NKA">
		<tag k="name" v="Gjertrudgammen" />
		<tag k="place" v="locality" />
		<tag k="ssr:stedsnr" v="881816" />
	</node>
	<node id="9875732189" lat="70.6112167" lon="22.2392556" version="1" timestamp="2022-07-09T05:55:39Z" changeset="123388130" uid="3497659" user="NKA">
		<tag k="name" v="Per-Iversheim" />
		<tag k="place" v="locality" />
		<tag k="ssr:stedsnr" v="870391" />
	</node>
	<node id="9875732190" lat="70.528796" lon="22.3002553" version="1" timestamp="2022-07-09T05:55:39Z" changeset="123388130" uid="3497659" user="NKA">
		<tag k="name" v="Lillebotn" />
		<tag k="place" v="locality" />
		<tag k="ssr:stedsnr" v="869334" />
	</node>
	<node id="9875732191" lat="70.5950994" lon="22.3021617" version="1" timestamp="2022-07-09T05:55:39Z" changeset="123388130" uid="3497659" user="NKA">
		<tag k="alt_name" v="Søndre Hansvoll" />
		<tag k="name" v="Hansvoll" />
		<tag k="place" v="hamlet" />
		<tag k="ssr:stedsnr" v="208302" />
	</node>
	<node id="9875732192" lat="70.5046083" lon="22.5367028" version="1" timestamp="2022-07-09T05:55:39Z" changeset="123388130" uid="3497659" user="NKA">
		<tag k="name" v="Grunnfjord" />
		<tag k="place" v="isolated_dwelling" />
		<tag k="ssr:stedsnr" v="277698" />
	</node>
	<node id="9875732193" lat="70.5538889" lon="22.6152582" version="1" timestamp="2022-07-09T05:55:39Z" changeset="123388130" uid="3497659" user="NKA">
		<tag k="name" v="Øyfjord" />
		<tag k="place" v="isolated_dwelling" />
		<tag k="ssr:stedsnr" v="155699" />
	</node>
	<node id="9875732194" lat="70.5158778" lon="22.2439055" version="1" timestamp="2022-07-09T05:55:39Z" changeset="123388130" uid="3497659" user="NKA">
		<tag k="name" v="Sverresborg" />
		<tag k="place" v="farm" />
		<tag k="ssr:stedsnr" v="819383" />
	</node>
	<node id="9875732195" lat="70.6345834" lon="22.037611" version="1" timestamp="2022-07-09T05:55:39Z" changeset="123388130" uid="3497659" user="NKA">
		<tag k="name" v="Nes-Pervik" />
		<tag k="place" v="locality" />
		<tag k="ssr:stedsnr" v="263711" />
	</node>
	<node id="9875732196" lat="70.4996417" lon="22.5691083" version="1" timestamp="2022-07-09T05:55:39Z" changeset="123388130" uid="3497659" user="NKA">
		<tag k="name" v="Klasnes" />
		<tag k="place" v="locality" />
		<tag k="ssr:stedsnr" v="337690" />
	</node>
	<node id="9875732197" lat="70.6735417" lon="22.6022083" version="1" timestamp="2022-07-09T05:55:39Z" changeset="123388130" uid="3497659" user="NKA">
		<tag k="name" v="Gammelheim" />
		<tag k="place" v="farm" />
		<tag k="ssr:stedsnr" v="930660" />
	</node>
	<node id="9875732198" lat="70.5199505" lon="22.2549539" version="1" timestamp="2022-07-09T05:55:39Z" changeset="123388130" uid="3497659" user="NKA">
		<tag k="name" v="Myrenga" />
		<tag k="place" v="isolated_dwelling" />
		<tag k="ssr:stedsnr" v="384335" />
	</node>
	<node id="9875732199" lat="70.6338555" lon="22.0240888" version="1" timestamp="2022-07-09T05:55:39Z" changeset="123388130" uid="3497659" user="NKA">
		<tag k="name" v="Vikran" />
		<tag k="place" v="neighbourhood" />
		<tag k="ssr:stedsnr" v="940401" />
	</node>
	<node id="9875732200" lat="70.6480084" lon="22.5638389" version="1" timestamp="2022-07-09T05:55:39Z" changeset="123388130" uid="3497659" user="NKA">
		<tag k="name" v="Gammelgård" />
		<tag k="place" v="farm" />
		<tag k="ssr:stedsnr" v="262660" />
	</node>
	<node id="9875732201" lat="70.5682613" lon="22.2388402" version="1" timestamp="2022-07-09T05:55:39Z" changeset="123388130" uid="3497659" user="NKA">
		<tag k="name" v="Haraldseng" />
		<tag k="place" v="farm" />
		<tag k="ssr:stedsnr" v="809382" />
	</node>
	<node id="9875732202" lat="70.7222027" lon="22.7183945" version="1" timestamp="2022-07-09T05:55:39Z" changeset="123388130" uid="3497659" user="NKA">
		<tag k="name" v="Galten" />
		<tag k="place" v="farm" />
		<tag k="ssr:stedsnr" v="283587" />
	</node>
	<node id="9875732203" lat="70.6321222" lon="22.0404416" version="1" timestamp="2022-07-09T05:55:39Z" changeset="123388130" uid="3497659" user="NKA">
		<tag k="name" v="Hespervika" />
		<tag k="place" v="neighbourhood" />
		<tag k="ssr:stedsnr" v="151419" />
	</node>
	<node id="9875732204" lat="70.6581555" lon="22.8239915" version="1" timestamp="2022-07-09T05:55:39Z" changeset="123388130" uid="3497659" user="NKA">
		<tag k="name" v="Kalveland" />
		<tag k="place" v="locality" />
		<tag k="ssr:stedsnr" v="323447" />
	</node>
	<node id="9875732205" lat="70.489225" lon="22.3068222" version="1" timestamp="2022-07-09T05:55:39Z" changeset="123388130" uid="3497659" user="NKA">
		<tag k="name" v="Taborshamn" />
		<tag k="place" v="locality" />
		<tag k="ssr:stedsnr" v="869219" />
	</node>
	<node id="9875732206" lat="70.5036972" lon="22.1458999" version="1" timestamp="2022-07-09T05:55:39Z" changeset="123388130" uid="3497659" user="NKA">
		<tag k="name" v="Risvåg" />
		<tag k="place" v="hamlet" />
		<tag k="ssr:stedsnr" v="747717" />
	</node>
	<node id="9875732207" lat="70.4860111" lon="22.2011112" version="1" timestamp="2022-07-09T05:55:39Z" changeset="123388130" uid="3497659" user="NKA">
		<tag k="name" v="Vestre Korsvika" />
		<tag k="place" v="neighbourhood" />
		<tag k="ssr:stedsnr" v="483919" />
	</node>
	<node id="9875732208" lat="70.497825" lon="22.3565167" version="1" timestamp="2022-07-09T05:55:39Z" changeset="123388130" uid="3497659" user="NKA">
		<tag k="alt_name" v="Meltefjorden, nordre" />
		<tag k="name" v="Nordre Meltefjorden" />
		<tag k="place" v="isolated_dwelling" />
		<tag k="ssr:stedsnr" v="505202" />
	</node>
	<node id="9875732209" lat="70.3533278" lon="22.4628276" version="1" timestamp="2022-07-09T05:55:39Z" changeset="123388130" uid="3497659" user="NKA">
		<tag k="alt_name" v="Ytter Sommarset" />
		<tag k="name" v="Sommarset" />
		<tag k="place" v="locality" />
		<tag k="ssr:stedsnr" v="202163" />
	</node>
	<node id="9875732210" lat="70.5190789" lon="22.2500086" version="1" timestamp="2022-07-09T05:55:39Z" changeset="123388130" uid="3497659" user="NKA">
		<tag k="alt_name" v="Elenheimen" />
		<tag k="name" v="Elenheim" />
		<tag k="old_name" v="Elnheim" />
		<tag k="place" v="farm" />
		<tag k="ssr:stedsnr" v="869346" />
	</node>
	<node id="9875732211" lat="70.4998195" lon="22.1432945" version="1" timestamp="2022-07-09T05:55:39Z" changeset="123388130" uid="3497659" user="NKA">
		<tag k="name" v="Toften" />
		<tag k="place" v="locality" />
		<tag k="ssr:stedsnr" v="576384" />
	</node>
	<node id="9875732212" lat="70.5157361" lon="22.2438333" version="1" timestamp="2022-07-09T05:55:39Z" changeset="123388130" uid="3497659" user="NKA">
		<tag k="name" v="Hofset" />
		<tag k="place" v="locality" />
		<tag k="ssr:stedsnr" v="505319" />
	</node>
	<node id="9875732213" lat="70.6792611" lon="22.5176832" version="1" timestamp="2022-07-09T05:55:39Z" changeset="123388130" uid="3497659" user="NKA">
		<tag k="name" v="Langkeila" />
		<tag k="place" v="farm" />
		<tag k="ssr:stedsnr" v="20685" />
	</node>
	<node id="9875732214" lat="70.5993028" lon="22.1214888" version="1" timestamp="2022-07-09T05:55:39Z" changeset="123388130" uid="3497659" user="NKA">
		<tag k="name" v="Nygård" />
		<tag k="place" v="farm" />
		<tag k="ssr:stedsnr" v="636277" />
	</node>
	<node id="9875732215" lat="70.5901793" lon="22.2894684" version="1" timestamp="2022-07-09T05:55:39Z" changeset="123388130" uid="3497659" user="NKA">
		<tag k="name" v="Leirkjosen" />
		<tag k="place" v="neighbourhood" />
		<tag k="ssr:stedsnr" v="398608" />
	</node>
	<node id="9875732216" lat="70.6387111" lon="22.5929137" version="1" timestamp="2022-07-09T05:55:39Z" changeset="123388130" uid="3497659" user="NKA">
		<tag k="name" v="Dønnesfjordbotn" />
		<tag k="place" v="farm" />
		<tag k="ssr:stedsnr" v="161874" />
	</node>
	<node id="9875761117" lat="70.6537384" lon="22.5485823" version="1" timestamp="2022-07-09T05:55:39Z" changeset="123388130" uid="3497659" user="NKA">
		<tag k="name" v="Brattli" />
		<tag k="place" v="farm" />
		<tag k="ssr:stedsnr" v="384684" />
	</node>
	<node id="9875761118" lat="70.4956028" lon="22.3535472" version="1" timestamp="2022-07-09T05:55:39Z" changeset="123388130" uid="3497659" user="NKA">
		<tag k="alt_name" v="Meltefjord;Meltefjorden, s" />
		<tag k="name" v="Søre Meltefjorden" />
		<tag k="place" v="farm" />
		<tag k="ssr:stedsnr" v="869210" />
	</node>
	<node id="9875761119" lat="70.6715752" lon="22.595126" version="1" timestamp="2022-07-09T05:55:39Z" changeset="123388130" uid="3497659" user="NKA">
		<tag k="name" v="Gamnes" />
		<tag k="place" v="farm" />
		<tag k="ssr:stedsnr" v="384652" />
	</node>
	<node id="9875761120" lat="70.6149333" lon="22.033372" version="1" timestamp="2022-07-09T05:55:39Z" changeset="123388130" uid="3497659" user="NKA">
		<tag k="name" v="Pompervika" />
		<tag k="place" v="locality" />
		<tag k="ssr:stedsnr" v="940405" />
	</node>
	<node id="9875761121" lat="70.6541111" lon="21.9931833" version="1" timestamp="2022-07-09T05:55:39Z" changeset="123388130" uid="3497659" user="NKA">
		<tag k="name" v="Darup" />
		<tag k="place" v="isolated_dwelling" />
		<tag k="ssr:stedsnr" v="384539" />
	</node>
	<node id="9875761122" lat="70.6105139" lon="22.2318556" version="1" timestamp="2022-07-09T05:55:39Z" changeset="123388130" uid="3497659" user="NKA">
		<tag k="name" v="Kvitberg" />
		<tag k="place" v="farm" />
		<tag k="ssr:stedsnr" v="239909" />
	</node>
	<node id="9875761123" lat="70.5195473" lon="22.5955359" version="1" timestamp="2022-07-09T05:55:39Z" changeset="123388130" uid="3497659" user="NKA">
		<tag k="name" v="Karkfjord" />
		<tag k="place" v="locality" />
		<tag k="ssr:stedsnr" v="155669" />
	</node>
</osm>
