<?xml version="1.0" encoding="UTF-8"?>
<osm generator="osmapis" version="0.6">
	<node id="-62917" lat="58.6473638924" lon="9.10768611251">
		<tag k="old_name" v="Paddetjennveien" />
		<tag k="ssr:date" v="2019-12-27" />
		<tag k="ssr:gruppe" v="veg" />
		<tag k="ssr:hovedgruppe" v="infrastruktur" />
		<tag k="ssr:stedsnr" v="421572" />
		<tag k="ssr:type" v="adressenavn" />
	</node>
	<node id="-61215" lat="58.6826749991" lon="9.07535278317">
		<tag k="old_name" v="Hopeveien" />
		<tag k="ssr:date" v="2019-12-27" />
		<tag k="ssr:gruppe" v="veg" />
		<tag k="ssr:hovedgruppe" v="infrastruktur" />
		<tag k="ssr:stedsnr" v="360577" />
		<tag k="ssr:type" v="adressenavn" />
	</node>
	<node id="-63405" lat="58.6336861077" lon="8.90351667215">
		<tag k="old_name" v="Arendalsveien" />
		<tag k="ssr:date" v="2019-12-27" />
		<tag k="ssr:gruppe" v="veg" />
		<tag k="ssr:hovedgruppe" v="infrastruktur" />
		<tag k="ssr:stedsnr" v="965275" />
		<tag k="ssr:type" v="adressenavn" />
	</node>
	<node id="-62563" lat="58.5760666654" lon="8.88682221938">
		<tag k="old_name" v="Hagenveien" />
		<tag k="ssr:date" v="2019-12-27" />
		<tag k="ssr:gruppe" v="veg" />
		<tag k="ssr:hovedgruppe" v="infrastruktur" />
		<tag k="ssr:stedsnr" v="176984" />
		<tag k="ssr:type" v="adressenavn" />
	</node>
	<node id="-61849" lat="58.5890972203" lon="8.93647500216">
		<tag k="old_name" v="Skibbuveien" />
		<tag k="ssr:date" v="2019-12-27" />
		<tag k="ssr:gruppe" v="veg" />
		<tag k="ssr:hovedgruppe" v="infrastruktur" />
		<tag k="ssr:stedsnr" v="882793" />
		<tag k="ssr:type" v="adressenavn" />
	</node>
</osm>
