<?xml version="1.0" encoding="UTF-8"?>
<osm version="0.6" generator="osmapis">
	<node lat="58.74805833394966" lon="8.317969440280384" id="-36326">
		<tag k="name" v="Selbergstean" />
		<tag k="natural" v="wetland" />
		<tag k="ssr:stedsnr" v="413" />
	</node>
	<node lat="58.737783335080834" lon="8.328305556686985" id="-36380">
		<tag k="name" v="Steane" />
		<tag k="natural" v="wetland" />
		<tag k="ssr:stedsnr" v="232322" />
	</node>
	<node lat="58.75812778204889" lon="8.07830834051558" id="-36384">
		<tag k="name" v="Høgelisteane" />
		<tag k="natural" v="wetland" />
		<tag k="ssr:stedsnr" v="232957" />
	</node>
	<node lat="58.94083055977859" lon="8.202236117114145" id="-36388">
		<tag k="name" v="Fillemyr" />
		<tag k="natural" v="wetland" />
		<tag k="ssr:stedsnr" v="233150" />
	</node>
	<node lat="58.936383331580885" lon="8.205783334322504" id="-36389">
		<tag k="name" v="Råtholta" />
		<tag k="place" v="locality" />
		<tag k="ssr:stedsnr" v="233152" />
	</node>
	<node lat="58.743027775431074" lon="8.355186114988332" id="-36397">
		<tag k="name" v="Blåmyrane" />
		<tag k="natural" v="wetland" />
		<tag k="ssr:stedsnr" v="233412" />
	</node>
	<node lat="58.78848889274561" lon="8.4285499934048" id="-36402">
		<tag k="name" v="Persmyr" />
		<tag k="natural" v="wetland" />
		<tag k="ssr:stedsnr" v="233426" />
	</node>
	<node lat="58.7141888892926" lon="8.230105550893951" id="-36403">
		<tag k="name" v="Svårtebergmyra" />
		<tag k="natural" v="wetland" />
		<tag k="ssr:stedsnr" v="233548" />
	</node>
	<node lat="58.721063886699426" lon="8.115558339041776" id="-36405">
		<tag k="name" v="Nystølstykket" />
		<tag k="place" v="locality" />
		<tag k="ssr:stedsnr" v="233575" />
	</node>
	<node lat="58.809316664468916" lon="8.247633332632006" id="-36407">
		<tag k="name" v="Lokkelimyrane" />
		<tag k="natural" v="wetland" />
		<tag k="ssr:stedsnr" v="233657" />
	</node>
	<node lat="58.804147219205795" lon="8.232291665911086" id="-36408">
		<tag k="name" v="Fedlemyr" />
		<tag k="natural" v="wetland" />
		<tag k="ssr:stedsnr" v="233662" />
	</node>
	<node lat="58.71030555384113" lon="8.166058335065165" id="-36419">
		<tag k="name" v="Viermyra" />
		<tag k="natural" v="wetland" />
		<tag k="ssr:stedsnr" v="233789" />
	</node>
	<node lat="58.78873055801034" lon="8.130261116134381" id="-36422">
		<tag k="name" v="Tjovsteinane" />
		<tag k="natural" v="stone" />
		<tag k="ssr:stedsnr" v="233709" />
	</node>
	<node lat="58.73402221994997" lon="8.428108334108506" id="-36431">
		<tag k="name" v="Moltemyr" />
		<tag k="natural" v="wetland" />
		<tag k="ssr:stedsnr" v="233966" />
	</node>
	<node lat="58.73509166455111" lon="8.422841667684681" id="-36432">
		<tag k="name" v="Smalkjerr" />
		<tag k="natural" v="wetland" />
		<tag k="ssr:stedsnr" v="233969" />
	</node>
	<node lat="58.90983888669039" lon="8.288891668546063" id="-36437">
		<tag k="name" v="Ratemyr" />
		<tag k="natural" v="wetland" />
		<tag k="ssr:stedsnr" v="234261" />
	</node>
	<node lat="58.767222218270085" lon="8.64683333587915" id="-36447">
		<tag k="name" v="Strandslåtta" />
		<tag k="natural" v="wetland" />
		<tag k="ssr:stedsnr" v="31114" />
	</node>
	<node lat="58.744758334438934" lon="8.612122217440715" id="-36449">
		<tag k="name" v="Bjørnsmyr" />
		<tag k="natural" v="wetland" />
		<tag k="ssr:stedsnr" v="31119" />
	</node>
	<node lat="58.70995833369573" lon="8.434533338357424" id="-36452">
		<tag k="name" v="Tjøregrøvmyra" />
		<tag k="natural" v="wetland" />
		<tag k="ssr:stedsnr" v="31307" />
	</node>
	<node lat="58.69238611061022" lon="8.432650003576349" id="-36456">
		<tag k="name" v="Guvedekksmyra" />
		<tag k="natural" v="wetland" />
		<tag k="ssr:stedsnr" v="31321" />
	</node>
	<node lat="58.772763892972065" lon="8.552005558307853" id="-36461">
		<tag k="name" v="Stavdalskjerret" />
		<tag k="natural" v="wetland" />
		<tag k="ssr:stedsnr" v="31362" />
	</node>
	<node lat="58.74151944586167" lon="8.574991666315476" id="-36462">
		<tag k="name" v="Slåttmyr" />
		<tag k="natural" v="wetland" />
		<tag k="ssr:stedsnr" v="31368" />
	</node>
	<node lat="58.7438138926094" lon="8.468949999433713" id="-36463">
		<tag k="name" v="Sikle" />
		<tag k="place" v="locality" />
		<tag k="ssr:stedsnr" v="31662" />
	</node>
	<node lat="58.70071666686017" lon="8.33433889719676" id="-36470">
		<tag k="name" v="Tretteslåttmyra" />
		<tag k="natural" v="wetland" />
		<tag k="ssr:stedsnr" v="32371" />
	</node>
	<node lat="58.722299996783754" lon="8.633875000337587" id="-36475">
		<tag k="name" v="Mjåvatsmyra" />
		<tag k="natural" v="wetland" />
		<tag k="ssr:stedsnr" v="32499" />
	</node>
	<node lat="58.703216666325716" lon="8.631008324755141" id="-36477">
		<tag k="name" v="Botthollsmyr" />
		<tag k="natural" v="wetland" />
		<tag k="ssr:stedsnr" v="32513" />
	</node>
	<node lat="58.70132222632364" lon="8.709583334691407" id="-36478">
		<tag k="name" v="Østre Diplemyr" />
		<tag k="natural" v="wetland" />
		<tag k="ssr:stedsnr" v="32520" />
	</node>
	<node lat="58.71605000115322" lon="8.442938885690708" id="-36479">
		<tag k="name" v="Rønningsmyr" />
		<tag k="natural" v="wetland" />
		<tag k="ssr:stedsnr" v="32599" />
	</node>
	<node lat="58.83511666716272" lon="8.35345277808985" id="-36486">
		<tag k="name" v="Stestykket" />
		<tag k="place" v="locality" />
		<tag k="ssr:stedsnr" v="38767" />
	</node>
	<node lat="58.84111666747519" lon="8.364166663304843" id="-36488">
		<tag k="name" v="Hillækre" />
		<tag k="place" v="locality" />
		<tag k="ssr:stedsnr" v="39661" />
	</node>
	<node lat="58.82781666381654" lon="8.06968888459881" id="-36505">
		<tag k="name" v="Håvarkjerret" />
		<tag k="natural" v="wetland" />
		<tag k="ssr:stedsnr" v="50892" />
	</node>
	<node lat="58.86336666716174" lon="8.38663054886309" id="-36520">
		<tag k="name" v="Palsmoget" />
		<tag k="place" v="locality" />
		<tag k="ssr:stedsnr" v="51478" />
	</node>
	<node lat="58.78670277340423" lon="8.04558054939857" id="-36522">
		<tag k="name" v="Pråmmyr" />
		<tag k="natural" v="wetland" />
		<tag k="ssr:stedsnr" v="51616" />
	</node>
	<node lat="58.83774166663108" lon="8.333761107353299" id="-36526">
		<tag k="name" v="Baltefossmyrane" />
		<tag k="natural" v="wetland" />
		<tag k="ssr:stedsnr" v="51682" />
	</node>
	<node lat="58.8800638864379" lon="8.253588887077502" id="-36533">
		<tag k="name" v="Surtemyr" />
		<tag k="natural" v="wetland" />
		<tag k="ssr:stedsnr" v="52006" />
	</node>
	<node lat="58.76070833534879" lon="8.395030552327752" id="-36538">
		<tag k="name" v="Storgrøvmyra" />
		<tag k="natural" v="wetland" />
		<tag k="ssr:stedsnr" v="51787" />
	</node>
	<node lat="58.88820000309358" lon="8.273294443051839" id="-36545">
		<tag k="name" v="Selsmyr" />
		<tag k="natural" v="wetland" />
		<tag k="ssr:stedsnr" v="52678" />
	</node>
	<node lat="58.78742499642221" lon="8.428161106185858" id="-36611">
		<tag k="name" v="Oksenutmyra" />
		<tag k="natural" v="wetland" />
		<tag k="ssr:stedsnr" v="243228" />
	</node>
	<node lat="58.67576389251892" lon="8.392861112681647" id="-36616">
		<tag k="name" v="Diplemyrane" />
		<tag k="natural" v="wetland" />
		<tag k="ssr:stedsnr" v="243293" />
	</node>
	<node lat="58.67414166901212" lon="8.607563888205101" id="-36644">
		<tag k="name" v="Stormyr" />
		<tag k="natural" v="wetland" />
		<tag k="ssr:stedsnr" v="243957" />
	</node>
	<node lat="58.93466111313343" lon="8.110627772852292" id="-36664">
		<tag k="alt_name" v="Grautvassmyrane" />
		<tag k="name" v="Grautvassmyra" />
		<tag k="natural" v="wetland" />
		<tag k="ssr:stedsnr" v="244954" />
	</node>
	<node lat="58.77026111035493" lon="8.637033336636495" id="-36669">
		<tag k="name" v="Hellersvasstea" />
		<tag k="natural" v="wetland" />
		<tag k="ssr:stedsnr" v="92103" />
	</node>
	<node lat="58.84305832948602" lon="8.657680547819188" id="-36671">
		<tag k="name" v="Kolåsstea" />
		<tag k="place" v="locality" />
		<tag k="ssr:stedsnr" v="92184" />
	</node>
	<node lat="58.69906388527476" lon="8.401044440465387" id="-36673">
		<tag k="name" v="Storemyr" />
		<tag k="natural" v="wetland" />
		<tag k="ssr:stedsnr" v="92318" />
	</node>
	<node lat="58.67085555987215" lon="8.644049995336797" id="-36678">
		<tag k="name" v="Kollemyra" />
		<tag k="natural" v="wetland" />
		<tag k="ssr:stedsnr" v="92209" />
	</node>
	<node lat="58.76224166823511" lon="8.544811106224566" id="-36681">
		<tag k="name" v="Makkemyr" />
		<tag k="place" v="locality" />
		<tag k="ssr:stedsnr" v="92222" />
	</node>
	<node lat="58.69711111000154" lon="8.7182527753861" id="-36684">
		<tag k="name" v="Bjørkkjerra" />
		<tag k="natural" v="wetland" />
		<tag k="ssr:stedsnr" v="92273" />
	</node>
	<node lat="58.67463888493738" lon="8.380952781664703" id="-36686">
		<tag k="name" v="Langemyr" />
		<tag k="natural" v="wetland" />
		<tag k="ssr:stedsnr" v="92282" />
	</node>
	<node lat="58.74935833457288" lon="8.529913889092601" id="-36688">
		<tag k="name" v="Langemyr" />
		<tag k="natural" v="wetland" />
		<tag k="ssr:stedsnr" v="92602" />
	</node>
	<node lat="58.63875833328633" lon="8.711077774312995" id="-36690">
		<tag k="name" v="Hovemyra" />
		<tag k="natural" v="wetland" />
		<tag k="ssr:stedsnr" v="92619" />
	</node>
	<node lat="58.64964444523909" lon="8.705719452997805" id="-36692">
		<tag k="name" v="Klemmetskjerr" />
		<tag k="natural" v="wetland" />
		<tag k="ssr:stedsnr" v="92517" />
	</node>
	<node lat="58.69592221930143" lon="8.645963892805955" id="-36699">
		<tag k="name" v="Hestehagen" />
		<tag k="place" v="locality" />
		<tag k="ssr:stedsnr" v="92768" />
	</node>
	<node lat="58.73287777475389" lon="8.376272216164905" id="-36701">
		<tag k="name" v="Månemyra" />
		<tag k="natural" v="wetland" />
		<tag k="ssr:stedsnr" v="93328" />
	</node>
	<node lat="58.69445278077626" lon="8.353986111987565" id="-36702">
		<tag k="name" v="Tjørgrovmyra" />
		<tag k="natural" v="wetland" />
		<tag k="ssr:stedsnr" v="93330" />
	</node>
	<node lat="58.779686111701956" lon="8.458675002821712" id="-36704">
		<tag k="name" v="Bjønnåsmyra" />
		<tag k="natural" v="wetland" />
		<tag k="ssr:stedsnr" v="98081" />
	</node>
	<node lat="58.79043611013094" lon="8.348930555184117" id="-36706">
		<tag k="name" v="Klovsteinen" />
		<tag k="natural" v="stone" />
		<tag k="ssr:stedsnr" v="98378" />
	</node>
	<node lat="58.812372224190284" lon="8.40132221548688" id="-36707">
		<tag k="name" v="Lundane" />
		<tag k="place" v="locality" />
		<tag k="ssr:stedsnr" v="99417" />
	</node>
	<node lat="58.73530833209933" lon="8.363738883408821" id="-36715">
		<tag k="name" v="Bjørkhom-myra" />
		<tag k="natural" v="wetland" />
		<tag k="ssr:stedsnr" v="111379" />
	</node>
	<node lat="58.79719166315478" lon="8.457222218038707" id="-36723">
		<tag k="name" v="Steane" />
		<tag k="natural" v="wetland" />
		<tag k="ssr:stedsnr" v="112122" />
	</node>
	<node lat="58.728475004372" lon="8.240347217926056" id="-36730">
		<tag k="name" v="Husebuslåtten" />
		<tag k="natural" v="wetland" />
		<tag k="ssr:stedsnr" v="112531" />
	</node>
	<node lat="58.780399999374495" lon="7.986927783247635" id="-36739">
		<tag k="name" v="Storemyr" />
		<tag k="natural" v="wetland" />
		<tag k="ssr:stedsnr" v="112628" />
	</node>
	<node lat="58.79458611222238" lon="8.02374445213409" id="-36744">
		<tag k="name" v="Langmyr" />
		<tag k="natural" v="wetland" />
		<tag k="ssr:stedsnr" v="112572" />
	</node>
	<node lat="58.74761389047927" lon="8.19774167011936" id="-36753">
		<tag k="name" v="Nedre Tjerandlimyra" />
		<tag k="natural" v="wetland" />
		<tag k="ssr:stedsnr" v="112883" />
	</node>
	<node lat="58.737161114875875" lon="8.116674997011781" id="-36761">
		<tag k="name" v="Nautenesmyra" />
		<tag k="natural" v="wetland" />
		<tag k="ssr:stedsnr" v="113906" />
	</node>
	<node lat="58.766749998049015" lon="8.637174999277011" id="-36762">
		<tag k="alt_name" v="Mørkhusdalsmyra" />
		<tag k="name" v="Gruvemyra" />
		<tag k="natural" v="wetland" />
		<tag k="ssr:stedsnr" v="121506" />
	</node>
	<node lat="58.84818611442214" lon="8.308730563765907" id="-36770">
		<tag k="alt_name" v="Bjørnemyri" />
		<tag k="name" v="Bjønnemyr" />
		<tag k="natural" v="wetland" />
		<tag k="ssr:stedsnr" v="122072" />
	</node>
	<node lat="58.721983333204236" lon="8.144183330033641" id="-36778">
		<tag k="alt_name" v="Vadmyri" />
		<tag k="name" v="Vamyr" />
		<tag k="natural" v="wetland" />
		<tag k="ssr:stedsnr" v="122480" />
	</node>
	<node lat="58.851222224798846" lon="8.554202772845992" id="-36785">
		<tag k="name" v="Lindlikjerret" />
		<tag k="natural" v="wetland" />
		<tag k="ssr:stedsnr" v="152072" />
	</node>
	<node lat="58.8534027810972" lon="8.651152773542835" id="-36787">
		<tag k="name" v="Glerlimyrane" />
		<tag k="natural" v="wetland" />
		<tag k="ssr:stedsnr" v="152203" />
	</node>
	<node lat="58.75754444686759" lon="8.518402776776377" id="-36788">
		<tag k="name" v="Giggemyr" />
		<tag k="natural" v="wetland" />
		<tag k="ssr:stedsnr" v="152252" />
	</node>
	<node lat="58.77630277385949" lon="8.528427771459036" id="-36789">
		<tag k="name" v="Grandalsmyra" />
		<tag k="natural" v="wetland" />
		<tag k="ssr:stedsnr" v="152258" />
	</node>
	<node lat="58.760024997122294" lon="8.559802781443473" id="-36790">
		<tag k="name" v="Lågmyr" />
		<tag k="natural" v="wetland" />
		<tag k="ssr:stedsnr" v="152404" />
	</node>
	<node lat="58.79518333660055" lon="8.545849998970999" id="-36794">
		<tag k="name" v="Klokkarmyra" />
		<tag k="natural" v="wetland" />
		<tag k="ssr:stedsnr" v="152153" />
	</node>
	<node lat="58.690897222592895" lon="8.63012777277724" id="-36801">
		<tag k="name" v="Mjåvassmyra" />
		<tag k="natural" v="wetland" />
		<tag k="ssr:stedsnr" v="153554" />
	</node>
	<node lat="58.70179722566077" lon="8.701444440201152" id="-36802">
		<tag k="name" v="Dalsmyrkilen" />
		<tag k="natural" v="wetland" />
		<tag k="ssr:stedsnr" v="153564" />
	</node>
	<node lat="58.74276666735404" lon="8.513452770311803" id="-36808">
		<tag k="name" v="Øystrefet" />
		<tag k="place" v="locality" />
		<tag k="ssr:stedsnr" v="153614" />
	</node>
	<node lat="58.74439722135728" lon="8.525777772019868" id="-36809">
		<tag k="name" v="Reklimyra" />
		<tag k="natural" v="wetland" />
		<tag k="ssr:stedsnr" v="153615" />
	</node>
	<node lat="58.64486389296609" lon="8.734472220317349" id="-36818">
		<tag k="name" v="Jakobsmyr" />
		<tag k="natural" v="wetland" />
		<tag k="ssr:stedsnr" v="165827" />
	</node>
	<node lat="58.87428611480113" lon="8.121841667879183" id="-36821">
		<tag k="name" v="Vallhøyslåtta" />
		<tag k="natural" v="wetland" />
		<tag k="ssr:stedsnr" v="171008" />
	</node>
	<node lat="58.83105277687839" lon="8.097638889906765" id="-36833">
		<tag k="name" v="Nordgardsfeta" />
		<tag k="place" v="locality" />
		<tag k="ssr:stedsnr" v="171926" />
	</node>
	<node lat="58.79445555376761" lon="8.214069438962095" id="-36847">
		<tag k="name" v="Napeura" />
		<tag k="natural" v="scree" />
		<tag k="ssr:stedsnr" v="172705" />
	</node>
	<node lat="58.74201944886068" lon="7.989269441165731" id="-36851">
		<tag k="name" v="Svålekronbotnen" />
		<tag k="natural" v="wetland" />
		<tag k="ssr:stedsnr" v="172668" />
	</node>
	<node lat="58.855755555123594" lon="8.424488887652961" id="-36852">
		<tag k="name" v="Stigslåttune" />
		<tag k="natural" v="wetland" />
		<tag k="ssr:stedsnr" v="172673" />
	</node>
	<node lat="58.75872499604478" lon="8.319852781030246" id="-36857">
		<tag k="name" v="Orgarsslåtten" />
		<tag k="natural" v="wetland" />
		<tag k="ssr:stedsnr" v="172768" />
	</node>
	<node lat="58.87767499601861" lon="8.251083332330305" id="-36862">
		<tag k="name" v="Under-Liane" />
		<tag k="place" v="locality" />
		<tag k="ssr:stedsnr" v="173005" />
	</node>
	<node lat="58.67894722325504" lon="8.66801110509413" id="-36877">
		<tag k="name" v="Limyra" />
		<tag k="natural" v="wetland" />
		<tag k="ssr:stedsnr" v="182906" />
	</node>
	<node lat="58.76491388890815" lon="8.354888894257696" id="-36888">
		<tag k="name" v="Midtslåtten" />
		<tag k="natural" v="wetland" />
		<tag k="ssr:stedsnr" v="183192" />
	</node>
	<node lat="58.86522777644733" lon="8.548649991866913" id="-36902">
		<tag k="name" v="Småholune" />
		<tag k="natural" v="wetland" />
		<tag k="ssr:stedsnr" v="213033" />
	</node>
	<node lat="58.876869448920395" lon="8.638955550933304" id="-36908">
		<tag k="name" v="Skarvemyrene" />
		<tag k="natural" v="wetland" />
		<tag k="ssr:stedsnr" v="213181" />
	</node>
	<node lat="58.67962500213929" lon="8.387444446562718" id="-36911">
		<tag k="name" v="Enterste" />
		<tag k="natural" v="wetland" />
		<tag k="ssr:stedsnr" v="214226" />
	</node>
	<node lat="58.676233336696754" lon="8.619541658942532" id="-36914">
		<tag k="name" v="Snømyr" />
		<tag k="natural" v="wetland" />
		<tag k="ssr:stedsnr" v="214177" />
	</node>
	<node lat="58.70534722501858" lon="8.414555548125415" id="-36917">
		<tag k="name" v="Saurmyr" />
		<tag k="natural" v="wetland" />
		<tag k="ssr:stedsnr" v="214302" />
	</node>
	<node lat="58.643558329684446" lon="8.464399993387541" id="-36923">
		<tag k="name" v="Salthellermyra" />
		<tag k="natural" v="wetland" />
		<tag k="ssr:stedsnr" v="214274" />
	</node>
	<node lat="58.69540277464749" lon="8.382647222865147" id="-36925">
		<tag k="name" v="Flæremyrane" />
		<tag k="natural" v="wetland" />
		<tag k="ssr:stedsnr" v="214404" />
	</node>
	<node lat="58.71946388489549" lon="8.331883328667319" id="-36927">
		<tag k="name" v="Flærone" />
		<tag k="place" v="locality" />
		<tag k="ssr:stedsnr" v="214476" />
	</node>
	<node lat="58.6724916643432" lon="8.664786113646585" id="-36928">
		<tag k="name" v="Skjellmyr" />
		<tag k="natural" v="wetland" />
		<tag k="ssr:stedsnr" v="214499" />
	</node>
	<node lat="58.73720832903991" lon="8.50520832684309" id="-36929">
		<tag k="name" v="Sarasaur" />
		<tag k="place" v="locality" />
		<tag k="ssr:stedsnr" v="214608" />
	</node>
	<node lat="58.634672219676894" lon="8.690230551627575" id="-36930">
		<tag k="name" v="Kilandskjerret" />
		<tag k="natural" v="wetland" />
		<tag k="ssr:stedsnr" v="214624" />
	</node>
	<node lat="58.6366555513913" lon="8.701808340202346" id="-36931">
		<tag k="name" v="Øygardsmyra" />
		<tag k="natural" v="wetland" />
		<tag k="ssr:stedsnr" v="214627" />
	</node>
	<node lat="58.74988888556103" lon="8.465322217499315" id="-36936">
		<tag k="name" v="Hagevollen" />
		<tag k="place" v="locality" />
		<tag k="ssr:stedsnr" v="214675" />
	</node>
	<node lat="58.74767500308514" lon="8.45808610435345" id="-36937">
		<tag k="name" v="Sundssanden" />
		<tag k="natural" v="beach" />
		<tag k="ssr:stedsnr" v="214677" />
		<tag k="surface" v="sand" />
	</node>
	<node lat="58.74642222626644" lon="8.476180548941286" id="-36938">
		<tag k="name" v="Breifeltkarten" />
		<tag k="natural" v="wetland" />
		<tag k="ssr:stedsnr" v="214678" />
	</node>
	<node lat="58.72370278000814" lon="8.544969436186603" id="-36939">
		<tag k="name" v="Holta" />
		<tag k="place" v="locality" />
		<tag k="ssr:stedsnr" v="214687" />
	</node>
	<node lat="58.68392499919262" lon="8.560919442030023" id="-36940">
		<tag k="name" v="Djupe Røyrmyr" />
		<tag k="natural" v="wetland" />
		<tag k="ssr:stedsnr" v="214692" />
	</node>
	<node lat="58.63451388926319" lon="8.740052778752538" id="-36946">
		<tag k="name" v="Bronmyr" />
		<tag k="natural" v="wetland" />
		<tag k="ssr:stedsnr" v="226839" />
	</node>
	<node lat="58.76006110691266" lon="8.09128610866868" id="-36960">
		<tag k="name" v="Stigmyrane" />
		<tag k="natural" v="wetland" />
		<tag k="ssr:stedsnr" v="232930" />
	</node>
	<node lat="58.74418055461379" lon="8.201766671539703" id="-36970">
		<tag k="name" v="Klovdalsmyra" />
		<tag k="natural" v="wetland" />
		<tag k="ssr:stedsnr" v="233915" />
	</node>
	<node lat="58.868586108780235" lon="8.266580560478927" id="-36973">
		<tag k="name" v="Lauvåsmyrane" />
		<tag k="natural" v="wetland" />
		<tag k="ssr:stedsnr" v="234002" />
	</node>
	<node lat="58.87103333645728" lon="8.20231389612071" id="-36977">
		<tag k="name" v="Hågstøylsteane" />
		<tag k="natural" v="wetland" />
		<tag k="ssr:stedsnr" v="234229" />
	</node>
	<node lat="58.75351111278809" lon="8.197119451027774" id="-36981">
		<tag k="name" v="Øvre Tjerandlimyra" />
		<tag k="natural" v="wetland" />
		<tag k="ssr:stedsnr" v="234903" />
	</node>
	<node lat="58.86844166383588" lon="8.506736115261111" id="-36987">
		<tag k="name" v="Simonsmyr" />
		<tag k="natural" v="wetland" />
		<tag k="ssr:stedsnr" v="243706" />
	</node>
	<node lat="58.685286115233275" lon="8.689355552558439" id="-37009">
		<tag k="name" v="Grimelandsmyrane" />
		<tag k="natural" v="wetland" />
		<tag k="ssr:stedsnr" v="244890" />
	</node>
	<node lat="58.83264166931346" lon="8.7088249987596" id="-37014">
		<tag k="name" v="Timannsslåtten" />
		<tag k="natural" v="wetland" />
		<tag k="ssr:stedsnr" v="456086" />
	</node>
	<node lat="58.85323611045984" lon="8.58488055711386" id="-37016">
		<tag k="name" v="Raudånkjerra" />
		<tag k="natural" v="wetland" />
		<tag k="ssr:stedsnr" v="456047" />
	</node>
	<node lat="58.79155833646076" lon="8.643325004204007" id="-37017">
		<tag k="name" v="Skålsteane" />
		<tag k="natural" v="wetland" />
		<tag k="ssr:stedsnr" v="456126" />
	</node>
	<node lat="58.801202777189424" lon="8.64654166448287" id="-37022">
		<tag k="name" v="Stemknattmyra" />
		<tag k="natural" v="wetland" />
		<tag k="ssr:stedsnr" v="456101" />
	</node>
	<node lat="58.77391110806604" lon="8.592508332804465" id="-37035">
		<tag k="name" v="Knutemyrane" />
		<tag k="natural" v="wetland" />
		<tag k="ssr:stedsnr" v="456385" />
	</node>
	<node lat="58.786961112304404" lon="8.584344439760182" id="-37043">
		<tag k="name" v="Ettevassmyrane" />
		<tag k="natural" v="wetland" />
		<tag k="ssr:stedsnr" v="456490" />
	</node>
	<node lat="58.82261944313588" lon="8.597608331593024" id="-37044">
		<tag k="name" v="Porsmyr" />
		<tag k="natural" v="wetland" />
		<tag k="ssr:stedsnr" v="456447" />
	</node>
	<node lat="58.821386113879" lon="8.563233330512105" id="-37045">
		<tag k="name" v="Vøylemyrane" />
		<tag k="natural" v="wetland" />
		<tag k="ssr:stedsnr" v="456448" />
	</node>
	<node lat="58.75411666940306" lon="8.51316389086167" id="-37048">
		<tag k="name" v="Vallemyra" />
		<tag k="natural" v="wetland" />
		<tag k="ssr:stedsnr" v="456586" />
	</node>
	<node lat="58.69005000243711" lon="8.40506388543155" id="-37058">
		<tag k="name" v="Møssvasste" />
		<tag k="natural" v="wetland" />
		<tag k="ssr:stedsnr" v="457223" />
	</node>
	<node lat="58.680791662873546" lon="8.395097221884022" id="-37059">
		<tag k="name" v="Lislekjerr" />
		<tag k="natural" v="wetland" />
		<tag k="ssr:stedsnr" v="457228" />
	</node>
	<node lat="58.661730554220505" lon="8.393108335755816" id="-37067">
		<tag k="name" v="Grytefjellmyra" />
		<tag k="natural" v="wetland" />
		<tag k="ssr:stedsnr" v="457328" />
	</node>
	<node lat="58.648977782041534" lon="8.428277770535528" id="-37069">
		<tag k="name" v="Dukane" />
		<tag k="place" v="locality" />
		<tag k="ssr:stedsnr" v="457346" />
	</node>
	<node lat="58.83995000094035" lon="8.614272225872721" id="-37079">
		<tag k="name" v="Den store Orreleikmyra" />
		<tag k="natural" v="wetland" />
		<tag k="ssr:stedsnr" v="274083" />
	</node>
	<node lat="58.779622221137686" lon="8.615325004133743" id="-37080">
		<tag k="name" v="Byttingsmyra" />
		<tag k="natural" v="wetland" />
		<tag k="ssr:stedsnr" v="274087" />
	</node>
	<node lat="58.67023333273207" lon="8.655511107755734" id="-37089">
		<tag k="name" v="Lille Bjørkholtmyra" />
		<tag k="natural" v="wetland" />
		<tag k="ssr:stedsnr" v="274190" />
	</node>
	<node lat="58.83546111307463" lon="8.587825003239118" id="-37100">
		<tag k="name" v="Jordsmyr" />
		<tag k="natural" v="wetland" />
		<tag k="ssr:stedsnr" v="274412" />
	</node>
	<node lat="58.66597222130983" lon="8.672002784897533" id="-37103">
		<tag k="name" v="Pinsmyr" />
		<tag k="natural" v="wetland" />
		<tag k="ssr:stedsnr" v="274482" />
	</node>
	<node lat="58.666283332894636" lon="8.666844451803735" id="-37104">
		<tag k="name" v="Hestehagen" />
		<tag k="place" v="locality" />
		<tag k="ssr:stedsnr" v="274483" />
	</node>
	<node lat="58.728274996043844" lon="8.453730559287482" id="-37105">
		<tag k="name" v="Grytemyr" />
		<tag k="natural" v="wetland" />
		<tag k="ssr:stedsnr" v="274610" />
	</node>
	<node lat="58.7411944456867" lon="8.509827780743297" id="-37110">
		<tag k="name" v="Pantteigen" />
		<tag k="place" v="locality" />
		<tag k="ssr:stedsnr" v="274586" />
	</node>
	<node lat="58.663427781984296" lon="8.634222223941014" id="-37115">
		<tag k="name" v="Varemyrane" />
		<tag k="natural" v="wetland" />
		<tag k="ssr:stedsnr" v="275382" />
	</node>
	<node lat="58.65273888668999" lon="8.657741658374496" id="-37117">
		<tag k="name" v="Trytura" />
		<tag k="natural" v="scree" />
		<tag k="ssr:stedsnr" v="275393" />
	</node>
	<node lat="58.80222499923212" lon="8.35544167412861" id="-37121">
		<tag k="name" v="Blomesteane" />
		<tag k="natural" v="wetland" />
		<tag k="ssr:stedsnr" v="280828" />
	</node>
	<node lat="58.8086111113072" lon="8.406616673149173" id="-37122">
		<tag k="name" v="Flatland" />
		<tag k="natural" v="wetland" />
		<tag k="ssr:stedsnr" v="281421" />
	</node>
	<node lat="58.896411112295155" lon="8.01807500684625" id="-37132">
		<tag k="name" v="Halsen" />
		<tag k="natural" v="wetland" />
		<tag k="ssr:stedsnr" v="292184" />
	</node>
	<node lat="58.870552781924864" lon="8.004952775598584" id="-37136">
		<tag k="name" v="Ljågrasslåtta" />
		<tag k="natural" v="wetland" />
		<tag k="ssr:stedsnr" v="293023" />
	</node>
	<node lat="58.80172777835302" lon="8.16765277085709" id="-37140">
		<tag k="name" v="Kinnånbakkane" />
		<tag k="place" v="locality" />
		<tag k="ssr:stedsnr" v="293313" />
	</node>
	<node lat="58.78268055303795" lon="8.424791669812477" id="-37148">
		<tag k="name" v="Den store myra" />
		<tag k="natural" v="wetland" />
		<tag k="ssr:stedsnr" v="294408" />
	</node>
	<node lat="58.76043333497649" lon="8.246188893492851" id="-37149">
		<tag k="name" v="Brustykket" />
		<tag k="place" v="locality" />
		<tag k="ssr:stedsnr" v="294417" />
	</node>
	<node lat="58.737761109447895" lon="8.227494440724426" id="-37152">
		<tag k="name" v="Hushovdslåtten" />
		<tag k="natural" v="wetland" />
		<tag k="ssr:stedsnr" v="294314" />
	</node>
	<node lat="58.70593611467765" lon="8.227347215206084" id="-37161">
		<tag k="name" v="Våmyr" />
		<tag k="natural" v="wetland" />
		<tag k="ssr:stedsnr" v="294675" />
	</node>
	<node lat="58.84588889323948" lon="8.429066670970679" id="-37163">
		<tag k="name" v="Dyplemyrane" />
		<tag k="natural" v="wetland" />
		<tag k="ssr:stedsnr" v="294677" />
	</node>
	<node lat="58.70466111009176" lon="8.260580559252354" id="-37164">
		<tag k="name" v="Storemyr" />
		<tag k="natural" v="wetland" />
		<tag k="ssr:stedsnr" v="294679" />
	</node>
	<node lat="58.85622777982545" lon="8.320147228573996" id="-37167">
		<tag k="name" v="Dukane" />
		<tag k="natural" v="wetland" />
		<tag k="ssr:stedsnr" v="294691" />
	</node>
	<node lat="58.96748333083858" lon="8.12350556379265" id="-37172">
		<tag k="name" v="Storliløynda" />
		<tag k="natural" v="wetland" />
		<tag k="ssr:stedsnr" v="294903" />
	</node>
	<node lat="58.90216389291745" lon="8.301336111137836" id="-37174">
		<tag k="name" v="Langemyr" />
		<tag k="natural" v="wetland" />
		<tag k="ssr:stedsnr" v="462638" />
	</node>
	<node lat="58.897402775883855" lon="8.239869448882025" id="-37179">
		<tag k="name" v="Kåsine" />
		<tag k="natural" v="wetland" />
		<tag k="ssr:stedsnr" v="295707" />
	</node>
	<node lat="58.83612500248816" lon="8.358630557245096" id="-37185">
		<tag k="name" v="Bekkerhus" />
		<tag k="place" v="locality" />
		<tag k="ssr:stedsnr" v="463727" />
	</node>
	<node lat="58.75314999657154" lon="8.399136105985072" id="-37194">
		<tag k="name" v="Fjattjønnmyrane" />
		<tag k="natural" v="wetland" />
		<tag k="ssr:stedsnr" v="304286" />
	</node>
	<node lat="58.73045833460985" lon="8.392824995794308" id="-37212">
		<tag k="name" v="Nordskogen" />
		<tag k="place" v="locality" />
		<tag k="ssr:stedsnr" v="304473" />
	</node>
	<node lat="58.91129721832181" lon="8.112080552507463" id="-37222">
		<tag k="name" v="Palane" />
		<tag k="place" v="locality" />
		<tag k="ssr:stedsnr" v="469329" />
	</node>
	<node lat="58.80349444641938" lon="8.613730548347931" id="-37234">
		<tag k="name" v="Karslåtta" />
		<tag k="natural" v="wetland" />
		<tag k="ssr:stedsnr" v="335094" />
	</node>
	<node lat="58.75410833769418" lon="8.633647229566536" id="-37235">
		<tag k="name" v="Diplemyr" />
		<tag k="natural" v="wetland" />
		<tag k="ssr:stedsnr" v="335095" />
	</node>
	<node lat="58.74760555114454" lon="8.610424998572036" id="-37237">
		<tag k="name" v="Steinsmyr" />
		<tag k="natural" v="wetland" />
		<tag k="ssr:stedsnr" v="335101" />
	</node>
	<node lat="58.75675278171234" lon="8.542377785385737" id="-37238">
		<tag k="name" v="Grandalsmyra" />
		<tag k="natural" v="wetland" />
		<tag k="ssr:stedsnr" v="335206" />
	</node>
	<node lat="58.68195833669348" lon="8.39601389318723" id="-37240">
		<tag k="name" v="Haugmyr" />
		<tag k="place" v="locality" />
		<tag k="ssr:stedsnr" v="335248" />
	</node>
	<node lat="58.725433333904" lon="8.466411111279685" id="-37251">
		<tag k="name" v="Knuts setermyr" />
		<tag k="natural" v="wetland" />
		<tag k="ssr:stedsnr" v="335645" />
	</node>
	<node lat="58.729030554219676" lon="8.46878888819427" id="-37254">
		<tag k="name" v="Forlandsmyr" />
		<tag k="natural" v="wetland" />
		<tag k="ssr:stedsnr" v="335654" />
	</node>
	<node lat="58.749125003499024" lon="8.454277769924968" id="-37256">
		<tag k="name" v="Gåsfet" />
		<tag k="place" v="locality" />
		<tag k="ssr:stedsnr" v="335659" />
	</node>
	<node lat="58.7509944406345" lon="8.494436110295236" id="-37257">
		<tag k="name" v="Imetjønnholta" />
		<tag k="place" v="locality" />
		<tag k="ssr:stedsnr" v="335664" />
	</node>
	<node lat="58.70798889088876" lon="8.378519446802532" id="-37261">
		<tag k="name" v="Moldmyra" />
		<tag k="natural" v="wetland" />
		<tag k="ssr:stedsnr" v="336401" />
	</node>
	<node lat="58.6663944446029" lon="8.64203611713467" id="-37263">
		<tag k="name" v="Røydalsmyra" />
		<tag k="place" v="locality" />
		<tag k="ssr:stedsnr" v="336405" />
	</node>
	<node lat="58.732563884786835" lon="8.338136114204671" id="-37267">
		<tag k="name" v="Kjiggemyrane" />
		<tag k="natural" v="wetland" />
		<tag k="ssr:stedsnr" v="336451" />
	</node>
	<node lat="58.83270555950957" lon="8.371775001732948" id="-37269">
		<tag k="name" v="Fåtjønnmyra" />
		<tag k="natural" v="wetland" />
		<tag k="ssr:stedsnr" v="340743" />
	</node>
	<node lat="58.900066670048304" lon="8.066058337444362" id="-37296">
		<tag k="name" v="Lonetjønnsteane" />
		<tag k="natural" v="wetland" />
		<tag k="ssr:stedsnr" v="353219" />
	</node>
	<node lat="58.84180000152268" lon="8.099022227271917" id="-37298">
		<tag k="name" v="Lundesteinen" />
		<tag k="natural" v="stone" />
		<tag k="ssr:stedsnr" v="353118" />
	</node>
	<node lat="58.82582778051142" lon="8.175999992852223" id="-37305">
		<tag k="name" v="Tobakksteinen" />
		<tag k="natural" v="stone" />
		<tag k="ssr:stedsnr" v="353664" />
	</node>
	<node lat="58.780272218985274" lon="8.434644453092767" id="-37309">
		<tag k="name" v="Svårtufs-slåttene" />
		<tag k="natural" v="wetland" />
		<tag k="ssr:stedsnr" v="354109" />
	</node>
	<node lat="58.796475000840886" lon="8.024416673499127" id="-37322">
		<tag k="name" v="Holmyr" />
		<tag k="natural" v="wetland" />
		<tag k="ssr:stedsnr" v="354575" />
	</node>
	<node lat="58.71433611557597" lon="8.315075007255047" id="-37323">
		<tag k="name" v="Nipekjerret" />
		<tag k="natural" v="wetland" />
		<tag k="ssr:stedsnr" v="354601" />
	</node>
	<node lat="58.80761389032147" lon="8.054061116483053" id="-37325">
		<tag k="name" v="Langemyr" />
		<tag k="natural" v="wetland" />
		<tag k="ssr:stedsnr" v="354714" />
	</node>
	<node lat="58.74101944867581" lon="8.410916658764089" id="-37328">
		<tag k="name" v="Høgemyr" />
		<tag k="natural" v="wetland" />
		<tag k="ssr:stedsnr" v="354811" />
	</node>
	<node lat="58.81707222612128" lon="8.325311109065758" id="-37337">
		<tag k="name" v="Sjormyrane" />
		<tag k="natural" v="wetland" />
		<tag k="ssr:stedsnr" v="355965" />
	</node>
	<node lat="58.75164444393859" lon="8.309675006143637" id="-37343">
		<tag k="name" v="Orgarsmyran" />
		<tag k="natural" v="wetland" />
		<tag k="ssr:stedsnr" v="475343" />
	</node>
	<node lat="58.81653332965909" lon="8.262366663247736" id="-37352">
		<tag k="name" v="Ratemyr" />
		<tag k="natural" v="wetland" />
		<tag k="ssr:stedsnr" v="476594" />
	</node>
	<node lat="58.75938333725467" lon="8.066169438406845" id="-37356">
		<tag k="name" v="Skremyr" />
		<tag k="natural" v="wetland" />
		<tag k="ssr:stedsnr" v="475972" />
	</node>
	<node lat="58.74542499910626" lon="8.097922214024614" id="-37363">
		<tag k="name" v="Kveinkjerret" />
		<tag k="natural" v="wetland" />
		<tag k="ssr:stedsnr" v="475843" />
	</node>
	<node lat="58.75910555429404" lon="8.255974999008659" id="-37380">
		<tag k="landuse" v="meadow" />
		<tag k="name" v="Kolbotnen" />
		<tag k="ssr:stedsnr" v="476403" />
	</node>
	<node lat="58.79978055929968" lon="8.467088895858213" id="-37408">
		<tag k="alt_name" v="Åsmyra" />
		<tag k="name" v="Åsemyr" />
		<tag k="natural" v="wetland" />
		<tag k="ssr:stedsnr" v="364159" />
	</node>
	<node lat="58.91413888481216" lon="8.288794450951501" id="-37428">
		<tag k="name" v="Grønlimyrane" />
		<tag k="natural" v="wetland" />
		<tag k="ssr:stedsnr" v="364996" />
	</node>
	<node lat="58.82219444076711" lon="8.120077781617722" id="-37430">
		<tag k="alt_name" v="Torkjelhommen" />
		<tag k="name" v="Tarkjelshomm" />
		<tag k="place" v="locality" />
		<tag k="ssr:stedsnr" v="365160" />
	</node>
	<node lat="58.75365277527571" lon="8.630155557743812" id="-37437">
		<tag k="name" v="Persmyrane" />
		<tag k="natural" v="wetland" />
		<tag k="ssr:stedsnr" v="365539" />
	</node>
	<node lat="58.68846110694636" lon="8.527908339262934" id="-37448">
		<tag k="name" v="Høgmyr" />
		<tag k="natural" v="wetland" />
		<tag k="ssr:stedsnr" v="365896" />
	</node>
</osm>
