<?xml version="1.0" encoding="UTF-8"?>
<osm version="0.6" generator="osmapis">
	<node lat="58.84788611230212" lon="8.362966667018156" id="-34229">
		<tag k="fixme" v="consider natural=peak for the most distinct mountains in the district" />
		<tag k="name" v="Svarteberg" />
		<tag k="natural" v="hill" />
		<tag k="place" v="locality" />
		<tag k="ssr:stedsnr" v="74" />
	</node>
	<node lat="58.84458333502636" lon="8.393125006900789" id="-34230">
		<tag k="name" v="Grendalen" />
		<tag k="natural" v="valley" />
		<tag k="place" v="locality" />
		<tag k="ssr:stedsnr" v="77" />
	</node>
	<node lat="58.761916662274395" lon="8.528088888801513" id="-34235">
		<tag k="name" v="Riset" />
		<tag k="natural" v="hill" />
		<tag k="place" v="locality" />
		<tag k="ssr:stedsnr" v="545" />
	</node>
	<node lat="58.78545555370392" lon="8.420011116707308" id="-34236">
		<tag k="alt_name" v="Eiklibrotet" />
		<tag k="name" v="Eiklibråtet" />
		<tag k="natural" v="slope" />
		<tag k="place" v="locality" />
		<tag k="ssr:stedsnr" v="248" />
	</node>
	<node lat="58.88814444222781" lon="8.580074999560201" id="-34240">
		<tag k="alt_name" v="Håmmår" />
		<tag k="name" v="Hammar" />
		<tag k="natural" v="hill" />
		<tag k="place" v="locality" />
		<tag k="ssr:stedsnr" v="458" />
	</node>
	<node lat="58.86838888779777" lon="8.541122226156673" id="-34243">
		<tag k="fixme" v="consider natural=peak for the most distinct mountains in the district" />
		<tag k="name" v="Djupmyrknatten" />
		<tag k="natural" v="hill" />
		<tag k="place" v="locality" />
		<tag k="ssr:stedsnr" v="702" />
	</node>
	<node lat="58.893805553734936" lon="8.132602783778138" id="-34248">
		<tag k="fixme" v="consider natural=peak for the most distinct mountains in the district" />
		<tag k="name" v="Rustefjell" />
		<tag k="natural" v="hill" />
		<tag k="place" v="locality" />
		<tag k="ssr:stedsnr" v="1048" />
	</node>
	<node lat="58.75958888466748" lon="8.138755561495175" id="-34250">
		<tag k="fixme" v="consider natural=peak for the most distinct mountains in the district" />
		<tag k="name" v="Flotfjell" />
		<tag k="natural" v="hill" />
		<tag k="place" v="locality" />
		<tag k="ssr:stedsnr" v="1214" />
	</node>
	<node lat="58.773722219729734" lon="8.276177783944927" id="-34251">
		<tag k="name" v="Langemyrdalen" />
		<tag k="natural" v="valley" />
		<tag k="place" v="locality" />
		<tag k="ssr:stedsnr" v="1221" />
	</node>
	<node lat="58.79204444156166" lon="8.466136113035047" id="-34252">
		<tag k="alt_name" v="Oksla" />
		<tag k="name" v="Åksla" />
		<tag k="natural" v="hill" />
		<tag k="place" v="locality" />
		<tag k="ssr:stedsnr" v="1238" />
	</node>
	<node lat="58.91529721892675" lon="8.26867221460464" id="-34254">
		<tag k="alt_name" v="Dunsevallheii" />
		<tag k="fixme" v="consider natural=peak for the most distinct mountains in the district" />
		<tag k="name" v="Dunsvallheia" />
		<tag k="natural" v="hill" />
		<tag k="place" v="locality" />
		<tag k="ssr:stedsnr" v="993" />
	</node>
	<node lat="58.82391944376566" lon="8.2298666650608" id="-34255">
		<tag k="name" v="Listøylheia" />
		<tag k="natural" v="hill" />
		<tag k="place" v="locality" />
		<tag k="ssr:stedsnr" v="1104" />
	</node>
	<node lat="58.83255000345672" lon="8.3093722227316" id="-34256">
		<tag k="fixme" v="consider natural=peak for the most distinct mountains in the district" />
		<tag k="name" v="Storebrot" />
		<tag k="natural" v="hill" />
		<tag k="place" v="locality" />
		<tag k="ssr:stedsnr" v="1105" />
	</node>
	<node lat="58.84510555631616" lon="8.40464443930922" id="-34258">
		<tag k="alt_name" v="Fuglfjellet" />
		<tag k="fixme" v="consider natural=peak for the most distinct mountains in the district" />
		<tag k="name" v="Fuglefjell" />
		<tag k="natural" v="hill" />
		<tag k="place" v="locality" />
		<tag k="ssr:stedsnr" v="1108" />
	</node>
	<node lat="58.811955559745044" lon="8.37109444462186" id="-34260">
		<tag k="name" v="Åndrodalen" />
		<tag k="natural" v="valley" />
		<tag k="place" v="locality" />
		<tag k="ssr:stedsnr" v="1193" />
	</node>
	<node lat="58.755680555892745" lon="8.20650000292319" id="-34265">
		<tag k="alt_name" v="Gjerulvsdalen" />
		<tag k="fixme" v="multiple name tags, choose one and add the other to alt_name" />
		<tag k="name" v="Geirusdalen;Gjeruvsdalen" />
		<tag k="natural" v="valley" />
		<tag k="place" v="locality" />
		<tag k="ssr:stedsnr" v="1316" />
	</node>
	<node lat="58.911936106763186" lon="8.588711108407281" id="-34269">
		<tag k="fixme" v="consider natural=peak for the most distinct mountains in the district" />
		<tag k="name" v="Kåptjønnåsen" />
		<tag k="natural" v="hill" />
		<tag k="place" v="locality" />
		<tag k="ssr:stedsnr" v="1499" />
	</node>
	<node lat="58.95722499621737" lon="8.148786112838396" id="-34276">
		<tag k="fixme" v="consider natural=peak for the most distinct mountains in the district" />
		<tag k="name" v="Barlindkruna" />
		<tag k="natural" v="hill" />
		<tag k="place" v="locality" />
		<tag k="ssr:stedsnr" v="1937" />
	</node>
	<node lat="58.81405277913923" lon="8.502016668269532" id="-34277">
		<tag k="alt_name" v="Olstadfjell" />
		<tag k="fixme" v="consider natural=peak for the most distinct mountains in the district" />
		<tag k="name" v="Olstadfjellet" />
		<tag k="natural" v="hill" />
		<tag k="place" v="locality" />
		<tag k="ssr:stedsnr" v="1665" />
	</node>
	<node lat="58.81985000322089" lon="8.693300002545916" id="-34278">
		<tag k="alt_name" v="Moripfjell" />
		<tag k="fixme" v="consider natural=peak for the most distinct mountains in the district" />
		<tag k="name" v="Moripfjellet" />
		<tag k="natural" v="hill" />
		<tag k="place" v="locality" />
		<tag k="ssr:stedsnr" v="1685" />
	</node>
	<node lat="58.697897226409886" lon="8.67913334186055" id="-34282">
		<tag k="alt_name" v="Stangelden" />
		<tag k="fixme" v="consider natural=peak for the most distinct mountains in the district" />
		<tag k="name" v="Strangelden" />
		<tag k="natural" v="hill" />
		<tag k="place" v="locality" />
		<tag k="ssr:stedsnr" v="1896" />
	</node>
	<node lat="58.69331111310689" lon="8.676413891887348" id="-34283">
		<tag k="fixme" v="consider natural=peak for the most distinct mountains in the district" />
		<tag k="name" v="Svinåsen" />
		<tag k="natural" v="hill" />
		<tag k="place" v="locality" />
		<tag k="ssr:stedsnr" v="1897" />
	</node>
	<node lat="58.90749722138158" lon="8.103313892194404" id="-34286">
		<tag k="name" v="Litjønnstøylen" />
		<tag k="place" v="locality" />
		<tag k="ssr:stedsnr" v="231233" />
	</node>
	<node lat="58.77336666332362" lon="8.143322227886921" id="-34288">
		<tag k="name" v="Nipelia" />
		<tag k="natural" v="slope" />
		<tag k="place" v="locality" />
		<tag k="ssr:stedsnr" v="232039" />
	</node>
	<node lat="58.8564388921374" lon="8.092766663489595" id="-34289">
		<tag k="name" v="Øyåmann" />
		<tag k="natural" v="ridge" />
		<tag k="place" v="locality" />
		<tag k="ssr:stedsnr" v="232119" />
	</node>
	<node lat="58.80319721971268" lon="8.166019452159047" id="-34290">
		<tag k="name" v="Kinnånberget" />
		<tag k="natural" v="cliff" />
		<tag k="ssr:stedsnr" v="232296" />
	</node>
	<node lat="58.75351388462823" lon="8.328536111288352" id="-34291">
		<tag k="name" v="Jørundsholan" />
		<tag k="natural" v="valley" />
		<tag k="place" v="locality" />
		<tag k="ssr:stedsnr" v="232318" />
	</node>
	<node lat="58.946611107725026" lon="8.17171667015947" id="-34292">
		<tag k="name" v="Smelandsmoen" />
		<tag k="place" v="locality" />
		<tag k="ssr:stedsnr" v="232242" />
	</node>
	<node lat="58.832091670010236" lon="8.108902775683891" id="-34294">
		<tag k="name" v="Vassholfjellet" />
		<tag k="natural" v="cliff" />
		<tag k="ssr:stedsnr" v="232591" />
	</node>
	<node lat="58.836319445690116" lon="8.11238333415853" id="-34295">
		<tag k="name" v="Bytingsknatten" />
		<tag k="natural" v="ridge" />
		<tag k="place" v="locality" />
		<tag k="ssr:stedsnr" v="232595" />
	</node>
	<node lat="58.83382778109359" lon="8.188869452593293" id="-34296">
		<tag k="name" v="Storlifjellet" />
		<tag k="natural" v="cliff" />
		<tag k="ssr:stedsnr" v="232601" />
	</node>
	<node lat="58.830663888861494" lon="8.038463885751" id="-34298">
		<tag k="name" v="Vestre Ulvhildgjel" />
		<tag k="natural" v="valley" />
		<tag k="place" v="locality" />
		<tag k="ssr:stedsnr" v="232972" />
	</node>
	<node lat="58.7789416639995" lon="8.409488886061872" id="-34299">
		<tag k="name" v="Kåsa" />
		<tag k="natural" v="ridge" />
		<tag k="place" v="locality" />
		<tag k="ssr:stedsnr" v="233116" />
	</node>
	<node lat="58.880505555180946" lon="8.179533338892075" id="-34304">
		<tag k="name" v="Nedre Dyppelmyrdalen" />
		<tag k="natural" v="valley" />
		<tag k="place" v="locality" />
		<tag k="ssr:stedsnr" v="233250" />
	</node>
	<node lat="58.76035000337278" lon="8.115958334555758" id="-34305">
		<tag k="name" v="Langemoen" />
		<tag k="place" v="locality" />
		<tag k="ssr:stedsnr" v="233224" />
	</node>
	<node lat="58.87386111118353" lon="8.346288897028813" id="-34306">
		<tag k="name" v="Vass-støyllia" />
		<tag k="natural" v="slope" />
		<tag k="place" v="locality" />
		<tag k="ssr:stedsnr" v="233435" />
	</node>
	<node lat="58.7677638933086" lon="8.243411105309976" id="-34307">
		<tag k="name" v="Geiteryggen" />
		<tag k="natural" v="ridge" />
		<tag k="place" v="locality" />
		<tag k="ssr:stedsnr" v="233436" />
	</node>
	<node lat="58.87896388560283" lon="8.490622225235386" id="-34308">
		<tag k="name" v="Malevasslia" />
		<tag k="natural" v="slope" />
		<tag k="place" v="locality" />
		<tag k="ssr:stedsnr" v="233451" />
	</node>
	<node lat="58.73817499862456" lon="8.221208329823531" id="-34309">
		<tag k="name" v="Vatnemellom" />
		<tag k="natural" v="hill" />
		<tag k="place" v="locality" />
		<tag k="ssr:stedsnr" v="233355" />
	</node>
	<node lat="58.79408333622023" lon="8.41875000245535" id="-34312">
		<tag k="name" v="Bjøllebrekkene" />
		<tag k="natural" v="slope" />
		<tag k="place" v="locality" />
		<tag k="ssr:stedsnr" v="233418" />
	</node>
	<node lat="58.768138891209254" lon="8.265291674161318" id="-34314">
		<tag k="name" v="Skotet" />
		<tag k="natural" v="cliff" />
		<tag k="ssr:stedsnr" v="233425" />
	</node>
	<node lat="58.717569443959064" lon="8.136433328726623" id="-34317">
		<tag k="name" v="Verefjell" />
		<tag k="natural" v="hill" />
		<tag k="place" v="locality" />
		<tag k="ssr:stedsnr" v="233573" />
	</node>
	<node lat="58.711966664362286" lon="8.155661117228236" id="-34319">
		<tag k="name" v="Drottmonen" />
		<tag k="place" v="locality" />
		<tag k="ssr:stedsnr" v="233576" />
	</node>
	<node lat="58.78926111102329" lon="8.063886115369717" id="-34322">
		<tag k="name" v="Botnane" />
		<tag k="natural" v="valley" />
		<tag k="place" v="locality" />
		<tag k="ssr:stedsnr" v="233700" />
	</node>
	<node lat="58.72346666608384" lon="8.312138890248677" id="-34323">
		<tag k="name" v="Uførsdalen" />
		<tag k="natural" v="valley" />
		<tag k="place" v="locality" />
		<tag k="ssr:stedsnr" v="233667" />
	</node>
	<node lat="58.72420555690104" lon="8.316211110142971" id="-34324">
		<tag k="name" v="Eikelinuten" />
		<tag k="natural" v="hill" />
		<tag k="place" v="locality" />
		<tag k="ssr:stedsnr" v="233669" />
	</node>
	<node lat="58.80936110733871" lon="7.998050006769425" id="-34326">
		<tag k="name" v="Vårlifjell" />
		<tag k="natural" v="hill" />
		<tag k="place" v="locality" />
		<tag k="ssr:stedsnr" v="233748" />
	</node>
	<node lat="58.815883337142765" lon="8.054275000712297" id="-34327">
		<tag k="name" v="Rustedalen" />
		<tag k="natural" v="valley" />
		<tag k="place" v="locality" />
		<tag k="ssr:stedsnr" v="233754" />
	</node>
	<node lat="58.70725000086172" lon="8.055624994101736" id="-34328">
		<tag k="name" v="Gråndalen" />
		<tag k="natural" v="valley" />
		<tag k="place" v="locality" />
		<tag k="ssr:stedsnr" v="233780" />
	</node>
	<node lat="58.80548888479324" lon="8.143183331345206" id="-34330">
		<tag k="name" v="Drakereiret" />
		<tag k="natural" v="cliff" />
		<tag k="ssr:stedsnr" v="233784" />
	</node>
	<node lat="58.69473332963672" lon="8.319030555216775" id="-34334">
		<tag k="name" v="Hisdalen" />
		<tag k="natural" v="valley" />
		<tag k="place" v="locality" />
		<tag k="ssr:stedsnr" v="233705" />
	</node>
	<node lat="58.82373055422783" lon="8.242850006151237" id="-34336">
		<tag k="name" v="Skarsvasslia" />
		<tag k="natural" v="slope" />
		<tag k="place" v="locality" />
		<tag k="ssr:stedsnr" v="233712" />
	</node>
	<node lat="58.85691666819803" lon="8.355094441832602" id="-34337">
		<tag k="name" v="Juvet" />
		<tag k="natural" v="gorge" />
		<tag k="ssr:stedsnr" v="233720" />
	</node>
	<node lat="58.86112500186771" lon="8.35181388515117" id="-34338">
		<tag k="name" v="Gyltetredalen" />
		<tag k="natural" v="valley" />
		<tag k="place" v="locality" />
		<tag k="ssr:stedsnr" v="233722" />
	</node>
	<node lat="58.860377776633456" lon="8.344225004138243" id="-34342">
		<tag k="name" v="Lisleli" />
		<tag k="natural" v="slope" />
		<tag k="place" v="locality" />
		<tag k="ssr:stedsnr" v="233728" />
	</node>
	<node lat="58.949200003581545" lon="8.191072225942479" id="-34343">
		<tag k="name" v="Gråndalen" />
		<tag k="natural" v="valley" />
		<tag k="place" v="locality" />
		<tag k="ssr:stedsnr" v="233964" />
	</node>
	<node lat="58.96501389067763" lon="8.188183340398673" id="-34347">
		<tag k="name" v="Tjovfjell" />
		<tag k="natural" v="hill" />
		<tag k="place" v="locality" />
		<tag k="ssr:stedsnr" v="233989" />
	</node>
	<node lat="58.86130278057342" lon="8.282063896073915" id="-34348">
		<tag k="name" v="Grånkåsa" />
		<tag k="natural" v="slope" />
		<tag k="place" v="locality" />
		<tag k="ssr:stedsnr" v="234046" />
	</node>
	<node lat="58.90873055814758" lon="8.282802779868998" id="-34349">
		<tag k="name" v="Listøylholet" />
		<tag k="natural" v="valley" />
		<tag k="place" v="locality" />
		<tag k="ssr:stedsnr" v="234260" />
	</node>
	<node lat="58.90074166472013" lon="8.24757500774234" id="-34356">
		<tag k="name" v="Lauvdal" />
		<tag k="natural" v="valley" />
		<tag k="place" v="locality" />
		<tag k="ssr:stedsnr" v="234744" />
	</node>
	<node lat="58.90084444191392" lon="8.259250003815389" id="-34357">
		<tag k="name" v="Lislefjell" />
		<tag k="natural" v="cliff" />
		<tag k="ssr:stedsnr" v="234765" />
	</node>
	<node lat="58.81290000301065" lon="8.298930556048603" id="-34358">
		<tag k="name" v="Eikeliknuten" />
		<tag k="natural" v="hill" />
		<tag k="place" v="locality" />
		<tag k="ssr:stedsnr" v="234963" />
	</node>
	<node lat="58.8572583308163" lon="8.652894442743607" id="-34364">
		<tag k="name" v="Glerli" />
		<tag k="natural" v="slope" />
		<tag k="place" v="locality" />
		<tag k="ssr:stedsnr" v="31178" />
	</node>
	<node lat="58.696833333343605" lon="8.392733333546213" id="-34366">
		<tag k="name" v="Rustli" />
		<tag k="natural" v="slope" />
		<tag k="place" v="locality" />
		<tag k="ssr:stedsnr" v="31311" />
	</node>
	<node lat="58.692774998798214" lon="8.418124995985133" id="-34367">
		<tag k="fixme" v="consider natural=peak for the most distinct mountains in the district" />
		<tag k="name" v="Stemmheia" />
		<tag k="natural" v="hill" />
		<tag k="place" v="locality" />
		<tag k="ssr:stedsnr" v="31314" />
	</node>
	<node lat="58.654374996358165" lon="8.668641663036283" id="-34377">
		<tag k="name" v="Bjørndalen" />
		<tag k="natural" v="valley" />
		<tag k="place" v="locality" />
		<tag k="ssr:stedsnr" v="31772" />
	</node>
	<node lat="58.70264444720086" lon="8.646438886469342" id="-34378">
		<tag k="name" v="Kortmyrliene" />
		<tag k="natural" v="slope" />
		<tag k="place" v="locality" />
		<tag k="ssr:stedsnr" v="31776" />
	</node>
	<node lat="58.681030557523265" lon="8.415583336713222" id="-34379">
		<tag k="name" v="Tjovdalen" />
		<tag k="natural" v="valley" />
		<tag k="place" v="locality" />
		<tag k="ssr:stedsnr" v="32215" />
	</node>
	<node lat="58.651055560023444" lon="8.461541674976557" id="-34381">
		<tag k="fixme" v="consider natural=peak for the most distinct mountains in the district" />
		<tag k="name" v="Tvitjønnfjell" />
		<tag k="natural" v="hill" />
		<tag k="place" v="locality" />
		<tag k="ssr:stedsnr" v="32329" />
	</node>
	<node lat="58.691049999217384" lon="8.331419438768524" id="-34382">
		<tag k="name" v="Skavli" />
		<tag k="natural" v="slope" />
		<tag k="place" v="locality" />
		<tag k="ssr:stedsnr" v="32351" />
	</node>
	<node lat="58.711858333180516" lon="8.62976667012716" id="-34387">
		<tag k="name" v="Kåsa" />
		<tag k="natural" v="slope" />
		<tag k="place" v="locality" />
		<tag k="ssr:stedsnr" v="32497" />
	</node>
	<node lat="58.90811666282149" lon="8.189708328160933" id="-34393">
		<tag k="name" v="Sandvassnuten" />
		<tag k="natural" v="ridge" />
		<tag k="place" v="locality" />
		<tag k="ssr:stedsnr" v="37258" />
	</node>
	<node lat="58.82715833390195" lon="8.364247228806812" id="-34394">
		<tag k="name" v="Hagen" />
		<tag k="place" v="locality" />
		<tag k="ssr:stedsnr" v="37758" />
	</node>
	<node lat="58.78591944521369" lon="8.48132223028412" id="-34395">
		<tag k="name" v="Steinstøyten" />
		<tag k="natural" v="cliff" />
		<tag k="ssr:stedsnr" v="38104" />
	</node>
	<node lat="58.81010555302969" lon="8.464999992799209" id="-34397">
		<tag k="name" v="Juringedekkane" />
		<tag k="natural" v="hill" />
		<tag k="place" v="locality" />
		<tag k="ssr:stedsnr" v="38415" />
	</node>
	<node lat="58.886502778869726" lon="8.217250003653506" id="-34402">
		<tag k="name" v="Haretoheia" />
		<tag k="natural" v="hill" />
		<tag k="place" v="locality" />
		<tag k="ssr:stedsnr" v="44308" />
	</node>
	<node lat="58.635844445104794" lon="8.719283339458785" id="-34403">
		<tag k="name" v="Urdalen" />
		<tag k="natural" v="valley" />
		<tag k="place" v="locality" />
		<tag k="ssr:stedsnr" v="44793" />
	</node>
	<node lat="58.8674277767103" lon="8.113088880313038" id="-34409">
		<tag k="name" v="Toskestøylfjellet" />
		<tag k="natural" v="cliff" />
		<tag k="ssr:stedsnr" v="50012" />
	</node>
	<node lat="58.8463166679909" lon="8.102811115256422" id="-34410">
		<tag k="name" v="Husli" />
		<tag k="natural" v="slope" />
		<tag k="place" v="locality" />
		<tag k="ssr:stedsnr" v="50087" />
	</node>
	<node lat="58.93622777498727" lon="8.116294435964521" id="-34411">
		<tag k="name" v="Knutsli" />
		<tag k="natural" v="slope" />
		<tag k="place" v="locality" />
		<tag k="ssr:stedsnr" v="50206" />
	</node>
	<node lat="58.943061115525346" lon="8.13083056378828" id="-34412">
		<tag k="name" v="Nordjordet" />
		<tag k="natural" v="slope" />
		<tag k="place" v="locality" />
		<tag k="ssr:stedsnr" v="50210" />
	</node>
	<node lat="58.945166670107305" lon="8.196444436456558" id="-34413">
		<tag k="name" v="Hagebakk" />
		<tag k="natural" v="ridge" />
		<tag k="place" v="locality" />
		<tag k="ssr:stedsnr" v="50223" />
	</node>
	<node lat="58.74187778048863" lon="8.297763881685851" id="-34415">
		<tag k="name" v="Gaupebakkan" />
		<tag k="natural" v="ridge" />
		<tag k="place" v="locality" />
		<tag k="ssr:stedsnr" v="50325" />
	</node>
	<node lat="58.82448611128064" lon="8.13022222134313" id="-34416">
		<tag k="name" v="Raudstøylfjellet" />
		<tag k="natural" v="cliff" />
		<tag k="ssr:stedsnr" v="50611" />
	</node>
	<node lat="58.8242972180744" lon="8.031308328921336" id="-34417">
		<tag k="name" v="Hovesvimren" />
		<tag k="natural" v="ridge" />
		<tag k="place" v="locality" />
		<tag k="ssr:stedsnr" v="50926" />
	</node>
	<node lat="58.75393611508388" lon="8.276741664449725" id="-34420">
		<tag k="name" v="Ångårshei" />
		<tag k="natural" v="hill" />
		<tag k="place" v="locality" />
		<tag k="ssr:stedsnr" v="51006" />
	</node>
	<node lat="58.78840000358794" lon="8.49121943774321" id="-34422">
		<tag k="name" v="Kalldalskjeften" />
		<tag k="natural" v="valley" />
		<tag k="place" v="locality" />
		<tag k="ssr:stedsnr" v="51112" />
	</node>
	<node lat="58.78426388696863" lon="8.485380549143683" id="-34423">
		<tag k="name" v="Slåtteheia" />
		<tag k="natural" v="hill" />
		<tag k="place" v="locality" />
		<tag k="ssr:stedsnr" v="51119" />
	</node>
	<node lat="58.8636305581421" lon="8.285022223183761" id="-34424">
		<tag k="name" v="Gunnhildsbumoen" />
		<tag k="place" v="locality" />
		<tag k="ssr:stedsnr" v="51125" />
	</node>
	<node lat="58.761905556583876" lon="8.14881110868646" id="-34425">
		<tag k="name" v="Bruleheia" />
		<tag k="natural" v="hill" />
		<tag k="place" v="locality" />
		<tag k="ssr:stedsnr" v="51201" />
	</node>
	<node lat="58.94114444381709" lon="8.207583332286438" id="-34427">
		<tag k="name" v="Brendebakk" />
		<tag k="natural" v="slope" />
		<tag k="place" v="locality" />
		<tag k="ssr:stedsnr" v="51275" />
	</node>
	<node lat="58.746416662714466" lon="8.23540000264561" id="-34428">
		<tag k="name" v="Tverrfjellkrona" />
		<tag k="natural" v="valley" />
		<tag k="place" v="locality" />
		<tag k="ssr:stedsnr" v="51368" />
	</node>
	<node lat="58.86477500404433" lon="8.402105554007086" id="-34432">
		<tag k="name" v="Austre Holbekkdalen" />
		<tag k="natural" v="valley" />
		<tag k="place" v="locality" />
		<tag k="ssr:stedsnr" v="51476" />
	</node>
	<node lat="58.796616665504665" lon="8.030608341360933" id="-34434">
		<tag k="name" v="Saubrubakkan" />
		<tag k="natural" v="slope" />
		<tag k="place" v="locality" />
		<tag k="ssr:stedsnr" v="51605" />
	</node>
	<node lat="58.836941664447394" lon="8.265341663822497" id="-34436">
		<tag k="name" v="Natten" />
		<tag k="natural" v="hill" />
		<tag k="place" v="locality" />
		<tag k="ssr:stedsnr" v="51674" />
	</node>
	<node lat="58.83517778149292" lon="8.262577772423462" id="-34437">
		<tag k="name" v="Runfokkdalen" />
		<tag k="natural" v="valley" />
		<tag k="place" v="locality" />
		<tag k="ssr:stedsnr" v="51676" />
	</node>
	<node lat="58.85159444370899" lon="8.335766664963245" id="-34438">
		<tag k="name" v="Tuvenes" />
		<tag k="place" v="locality" />
		<tag k="ssr:stedsnr" v="51678" />
	</node>
	<node lat="58.84550555717463" lon="8.416561113152342" id="-34441">
		<tag k="name" v="Hefte" />
		<tag k="place" v="locality" />
		<tag k="ssr:stedsnr" v="51690" />
	</node>
	<node lat="58.70943611544327" lon="8.257941659452035" id="-34442">
		<tag k="name" v="Sjørundskildalen" />
		<tag k="natural" v="valley" />
		<tag k="place" v="locality" />
		<tag k="ssr:stedsnr" v="51691" />
	</node>
	<node lat="58.793399997176195" lon="8.25546389180533" id="-34443">
		<tag k="name" v="Svintoksdalen" />
		<tag k="natural" v="valley" />
		<tag k="place" v="locality" />
		<tag k="ssr:stedsnr" v="51890" />
	</node>
	<node lat="58.88255833663938" lon="8.25205277971696" id="-34445">
		<tag k="fixme" v="consider natural=peak for the most distinct mountains in the district" />
		<tag k="name" v="Lauvfokåsen" />
		<tag k="natural" v="hill" />
		<tag k="place" v="locality" />
		<tag k="ssr:stedsnr" v="52005" />
	</node>
	<node lat="58.883194444061814" lon="8.240919450990864" id="-34447">
		<tag k="name" v="Gråndalen" />
		<tag k="natural" v="valley" />
		<tag k="place" v="locality" />
		<tag k="ssr:stedsnr" v="52008" />
	</node>
	<node lat="58.87671111304491" lon="8.22454445076903" id="-34448">
		<tag k="name" v="Ivars gruve" />
		<tag k="place" v="locality" />
		<tag k="ssr:stedsnr" v="52011" />
	</node>
	<node lat="58.867111114348056" lon="8.23674165856721" id="-34449">
		<tag k="name" v="Nattefjellet" />
		<tag k="natural" v="cliff" />
		<tag k="ssr:stedsnr" v="52015" />
	</node>
	<node lat="58.85847777851523" lon="8.331977781388074" id="-34450">
		<tag k="fixme" v="consider natural=peak for the most distinct mountains in the district" />
		<tag k="name" v="Finnskanten" />
		<tag k="natural" v="hill" />
		<tag k="place" v="locality" />
		<tag k="ssr:stedsnr" v="51720" />
	</node>
	<node lat="58.79398055573746" lon="8.228566669811165" id="-34453">
		<tag k="name" v="Brubak" />
		<tag k="natural" v="slope" />
		<tag k="place" v="locality" />
		<tag k="ssr:stedsnr" v="51908" />
	</node>
	<node lat="58.76228055391846" lon="8.044783336548754" id="-34454">
		<tag k="name" v="Rustedalen" />
		<tag k="natural" v="valley" />
		<tag k="place" v="locality" />
		<tag k="ssr:stedsnr" v="51990" />
	</node>
	<node lat="58.88869999848224" lon="8.292194449490431" id="-34456">
		<tag k="fixme" v="consider natural=peak for the most distinct mountains in the district" />
		<tag k="name" v="Åmtonnapen" />
		<tag k="natural" v="hill" />
		<tag k="place" v="locality" />
		<tag k="ssr:stedsnr" v="52613" />
	</node>
	<node lat="58.89174444873379" lon="8.263758324949746" id="-34457">
		<tag k="name" v="Fånes" />
		<tag k="natural" v="slope" />
		<tag k="place" v="locality" />
		<tag k="ssr:stedsnr" v="52671" />
	</node>
	<node lat="58.88600277356593" lon="8.240438882144513" id="-34459">
		<tag k="name" v="Smaltofjellet" />
		<tag k="natural" v="cliff" />
		<tag k="ssr:stedsnr" v="52685" />
	</node>
	<node lat="58.74306111458983" lon="8.109219440175051" id="-34462">
		<tag k="name" v="Urdalen" />
		<tag k="natural" v="valley" />
		<tag k="place" v="locality" />
		<tag k="ssr:stedsnr" v="52905" />
	</node>
	<node lat="58.955411112300254" lon="8.152527775082834" id="-34464">
		<tag k="name" v="Tona" />
		<tag k="place" v="locality" />
		<tag k="ssr:stedsnr" v="52974" />
	</node>
	<node lat="58.70878888881099" lon="8.513911105540553" id="-34466">
		<tag k="fixme" v="consider natural=peak for the most distinct mountains in the district" />
		<tag k="name" v="Skorvene" />
		<tag k="natural" v="hill" />
		<tag k="place" v="locality" />
		<tag k="ssr:stedsnr" v="61080" />
	</node>
	<node lat="58.85957500333846" lon="8.369213881280016" id="-34469">
		<tag k="fixme" v="consider natural=peak for the most distinct mountains in the district" />
		<tag k="name" v="Ørnenuten" />
		<tag k="natural" v="hill" />
		<tag k="place" v="locality" />
		<tag k="ssr:stedsnr" v="61105" />
	</node>
	<node lat="58.79657777887522" lon="8.167324997744075" id="-34475">
		<tag k="name" v="Tovdal" />
		<tag k="natural" v="valley" />
		<tag k="place" v="locality" />
		<tag k="ssr:stedsnr" v="61114" />
	</node>
	<node lat="58.77413055821811" lon="8.437849998045008" id="-34478">
		<tag k="name" v="Høydalen" />
		<tag k="natural" v="valley" />
		<tag k="place" v="locality" />
		<tag k="ssr:stedsnr" v="61191" />
	</node>
	<node lat="58.82488611155843" lon="8.660730555391378" id="-34479">
		<tag k="name" v="Grashei" />
		<tag k="natural" v="hill" />
		<tag k="place" v="locality" />
		<tag k="ssr:stedsnr" v="61193" />
	</node>
	<node lat="58.729327778309255" lon="8.32230833244669" id="-34481">
		<tag k="fixme" v="consider natural=peak for the most distinct mountains in the district" />
		<tag k="name" v="Histeinsåsen" />
		<tag k="natural" v="hill" />
		<tag k="place" v="locality" />
		<tag k="ssr:stedsnr" v="61470" />
	</node>
	<node lat="58.954399998361254" lon="8.231666673443556" id="-34484">
		<tag k="name" v="Steinvasskvæven" />
		<tag k="natural" v="valley" />
		<tag k="place" v="locality" />
		<tag k="ssr:stedsnr" v="61904" />
	</node>
	<node lat="58.95160833546985" lon="8.18233610522894" id="-34485">
		<tag k="fixme" v="consider natural=peak for the most distinct mountains in the district" />
		<tag k="name" v="Myrfjell" />
		<tag k="natural" v="hill" />
		<tag k="place" v="locality" />
		<tag k="ssr:stedsnr" v="61906" />
	</node>
	<node lat="58.96374166486878" lon="8.221786109992717" id="-34487">
		<tag k="fixme" v="consider natural=peak for the most distinct mountains in the district" />
		<tag k="name" v="Steinsvassnuten" />
		<tag k="natural" v="hill" />
		<tag k="place" v="locality" />
		<tag k="ssr:stedsnr" v="61922" />
	</node>
	<node lat="58.730502777647224" lon="8.029663888149543" id="-34488">
		<tag k="fixme" v="consider natural=peak for the most distinct mountains in the district" />
		<tag k="name" v="Gnaushei" />
		<tag k="natural" v="hill" />
		<tag k="place" v="locality" />
		<tag k="ssr:stedsnr" v="61925" />
	</node>
	<node lat="58.91168611232651" lon="8.299488894750631" id="-34490">
		<tag k="alt_name" v="Grønliknuten" />
		<tag k="fixme" v="consider natural=peak for the most distinct mountains in the district" />
		<tag k="name" v="Grønliknatten" />
		<tag k="natural" v="hill" />
		<tag k="place" v="locality" />
		<tag k="ssr:stedsnr" v="61970" />
	</node>
	<node lat="58.87178888634938" lon="8.24191666760713" id="-34492">
		<tag k="fixme" v="consider natural=peak for the most distinct mountains in the district" />
		<tag k="name" v="Natten" />
		<tag k="natural" v="hill" />
		<tag k="place" v="locality" />
		<tag k="ssr:stedsnr" v="62006" />
	</node>
	<node lat="58.83263611239766" lon="8.168305560979379" id="-34495">
		<tag k="alt_name" v="Sprenlia" />
		<tag k="name" v="Sprenli" />
		<tag k="natural" v="slope" />
		<tag k="place" v="locality" />
		<tag k="ssr:stedsnr" v="62073" />
	</node>
	<node lat="58.78108611191992" lon="8.141469437210752" id="-34496">
		<tag k="fixme" v="consider natural=peak for the most distinct mountains in the district" />
		<tag k="name" v="Nipeheia" />
		<tag k="natural" v="hill" />
		<tag k="place" v="locality" />
		<tag k="ssr:stedsnr" v="62211" />
	</node>
	<node lat="58.715752778289946" lon="8.421066664721861" id="-34497">
		<tag k="alt_name" v="Kleivheia" />
		<tag k="fixme" v="consider natural=peak for the most distinct mountains in the district" />
		<tag k="name" v="Kleiveheia" />
		<tag k="natural" v="hill" />
		<tag k="place" v="locality" />
		<tag k="ssr:stedsnr" v="62490" />
	</node>
	<node lat="58.78322500351092" lon="8.607875004101894" id="-34499">
		<tag k="fixme" v="consider natural=peak for the most distinct mountains in the district" />
		<tag k="name" v="Dobbestøylknuten" />
		<tag k="natural" v="hill" />
		<tag k="place" v="locality" />
		<tag k="ssr:stedsnr" v="62622" />
	</node>
	<node lat="58.945444447048864" lon="8.09893610243543" id="-34504">
		<tag k="name" v="Skardet" />
		<tag k="natural" v="valley" />
		<tag k="place" v="locality" />
		<tag k="ssr:stedsnr" v="62926" />
	</node>
	<node lat="58.932983335662996" lon="8.289294446738227" id="-34506">
		<tag k="alt_name" v="Dalsheii" />
		<tag k="fixme" v="consider natural=peak for the most distinct mountains in the district" />
		<tag k="name" v="Dalsheia" />
		<tag k="natural" v="hill" />
		<tag k="place" v="locality" />
		<tag k="ssr:stedsnr" v="62988" />
	</node>
	<node lat="58.836799997253614" lon="8.321094437892135" id="-34509">
		<tag k="fixme" v="consider natural=peak for the most distinct mountains in the district" />
		<tag k="name" v="Fjellet" />
		<tag k="natural" v="hill" />
		<tag k="place" v="locality" />
		<tag k="ssr:stedsnr" v="243055" />
	</node>
	<node lat="58.79981389269036" lon="8.435794436316378" id="-34513">
		<tag k="fixme" v="consider natural=peak for the most distinct mountains in the district" />
		<tag k="name" v="Trengsleåsen" />
		<tag k="natural" v="hill" />
		<tag k="place" v="locality" />
		<tag k="ssr:stedsnr" v="243138" />
	</node>
	<node lat="58.769255559839394" lon="8.31872778388232" id="-34519">
		<tag k="fixme" v="consider natural=peak for the most distinct mountains in the district" />
		<tag k="name" v="Fosseheia" />
		<tag k="natural" v="hill" />
		<tag k="place" v="locality" />
		<tag k="ssr:stedsnr" v="243196" />
	</node>
	<node lat="58.77417500390069" lon="8.146930562000737" id="-34526">
		<tag k="fixme" v="consider natural=peak for the most distinct mountains in the district" />
		<tag k="name" v="Nipen" />
		<tag k="natural" v="hill" />
		<tag k="place" v="locality" />
		<tag k="ssr:stedsnr" v="243233" />
	</node>
	<node lat="58.77393333742615" lon="8.195661107822986" id="-34528">
		<tag k="alt_name" v="Noheia" />
		<tag k="fixme" v="consider natural=peak for the most distinct mountains in the district" />
		<tag k="name" v="Nonheia" />
		<tag k="natural" v="hill" />
		<tag k="place" v="locality" />
		<tag k="ssr:stedsnr" v="243236" />
	</node>
	<node lat="58.77676666676535" lon="8.304466663733004" id="-34530">
		<tag k="name" v="Taggdalen" />
		<tag k="natural" v="valley" />
		<tag k="place" v="locality" />
		<tag k="ssr:stedsnr" v="243178" />
	</node>
	<node lat="58.781808336948174" lon="8.45395833307964" id="-34531">
		<tag k="alt_name" v="Bjørnåsen" />
		<tag k="fixme" v="consider natural=peak for the most distinct mountains in the district" />
		<tag k="name" v="Bjønnåsen" />
		<tag k="natural" v="hill" />
		<tag k="place" v="locality" />
		<tag k="ssr:stedsnr" v="243184" />
	</node>
	<node lat="58.7466726205456" lon="8.113865955692456" id="-34533">
		<tag k="alt_name" v="Haukfjell" />
		<tag k="fixme" v="consider natural=peak for the most distinct mountains in the district" />
		<tag k="name" v="Haukefjell" />
		<tag k="natural" v="hill" />
		<tag k="place" v="locality" />
		<tag k="ssr:stedsnr" v="243390" />
	</node>
	<node lat="58.74762777731174" lon="8.381833340693502" id="-34534">
		<tag k="alt_name" v="Dyndalen" />
		<tag k="name" v="Døyndalen" />
		<tag k="natural" v="valley" />
		<tag k="place" v="locality" />
		<tag k="ssr:stedsnr" v="243375" />
	</node>
	<node lat="58.918174998550704" lon="8.596725004877205" id="-34535">
		<tag k="name" v="Rolandsknatten" />
		<tag k="natural" v="hill" />
		<tag k="place" v="locality" />
		<tag k="ssr:stedsnr" v="243376" />
	</node>
	<node lat="58.744219444457585" lon="8.355780547312538" id="-34536">
		<tag k="fixme" v="consider natural=peak for the most distinct mountains in the district" />
		<tag k="name" v="Blåmyrknatten" />
		<tag k="natural" v="hill" />
		<tag k="place" v="locality" />
		<tag k="ssr:stedsnr" v="243407" />
	</node>
	<node lat="58.77077222276557" lon="8.62918333608871" id="-34539">
		<tag k="fixme" v="consider natural=peak for the most distinct mountains in the district" />
		<tag k="name" v="Veråsen" />
		<tag k="natural" v="hill" />
		<tag k="place" v="locality" />
		<tag k="ssr:stedsnr" v="243515" />
	</node>
	<node lat="58.82143888558305" lon="8.519230561635036" id="-34542">
		<tag k="alt_name" v="Ravndalsnuten" />
		<tag k="fixme" v="consider natural=peak for the most distinct mountains in the district" />
		<tag k="name" v="Ramndalsnuten" />
		<tag k="natural" v="hill" />
		<tag k="place" v="locality" />
		<tag k="ssr:stedsnr" v="243689" />
	</node>
	<node lat="58.80763055313072" lon="8.531972222369596" id="-34544">
		<tag k="alt_name" v="Seljåsen" />
		<tag k="name" v="Seljås" />
		<tag k="natural" v="hill" />
		<tag k="place" v="locality" />
		<tag k="ssr:stedsnr" v="243670" />
	</node>
	<node lat="58.818813889934944" lon="8.480977773067261" id="-34545">
		<tag k="fixme" v="consider natural=peak for the most distinct mountains in the district" />
		<tag k="name" v="Gangseifjellet" />
		<tag k="natural" v="hill" />
		<tag k="place" v="locality" />
		<tag k="ssr:stedsnr" v="243676" />
	</node>
	<node lat="58.81345555288436" lon="8.607569443827659" id="-34547">
		<tag k="name" v="Sletthei" />
		<tag k="natural" v="hill" />
		<tag k="place" v="locality" />
		<tag k="ssr:stedsnr" v="243682" />
	</node>
	<node lat="58.6644888891742" lon="8.67892223021824" id="-34559">
		<tag k="fixme" v="consider natural=peak for the most distinct mountains in the district" />
		<tag k="name" v="Høgås" />
		<tag k="natural" v="hill" />
		<tag k="place" v="locality" />
		<tag k="ssr:stedsnr" v="243960" />
	</node>
	<node lat="58.862616664275414" lon="8.254166667162997" id="-34567">
		<tag k="fixme" v="consider natural=peak for the most distinct mountains in the district" />
		<tag k="name" v="Vestfjellet" />
		<tag k="natural" v="hill" />
		<tag k="place" v="locality" />
		<tag k="ssr:stedsnr" v="244025" />
	</node>
	<node lat="58.69261666839801" lon="8.319619449764687" id="-34570">
		<tag k="fixme" v="consider natural=peak for the most distinct mountains in the district" />
		<tag k="name" v="Kileheia" />
		<tag k="natural" v="hill" />
		<tag k="place" v="locality" />
		<tag k="ssr:stedsnr" v="244451" />
	</node>
	<node lat="58.77316666970637" lon="8.6263166591743" id="-34572">
		<tag k="alt_name" v="Veråsen" />
		<tag k="fixme" v="consider natural=peak for the most distinct mountains in the district" />
		<tag k="name" v="Store Væråsen" />
		<tag k="natural" v="hill" />
		<tag k="place" v="locality" />
		<tag k="ssr:stedsnr" v="244566" />
	</node>
	<node lat="58.77288611365142" lon="8.552030563049701" id="-34574">
		<tag k="name" v="Stavdalen" />
		<tag k="natural" v="valley" />
		<tag k="place" v="locality" />
		<tag k="ssr:stedsnr" v="244640" />
	</node>
	<node lat="58.87288888912972" lon="8.03082500147427" id="-34575">
		<tag k="alt_name" v="Novi" />
		<tag k="fixme" v="consider natural=peak for the most distinct mountains in the district" />
		<tag k="name" v="Nova" />
		<tag k="natural" v="hill" />
		<tag k="place" v="locality" />
		<tag k="ssr:stedsnr" v="244742" />
	</node>
	<node lat="58.94024999938355" lon="8.282713884784519" id="-34576">
		<tag k="fixme" v="consider natural=peak for the most distinct mountains in the district" />
		<tag k="name" v="Gama" />
		<tag k="natural" v="hill" />
		<tag k="place" v="locality" />
		<tag k="ssr:stedsnr" v="244950" />
	</node>
	<node lat="58.8680083325571" lon="7.992872214318465" id="-34578">
		<tag k="name" v="Skjevlevassknuten" />
		<tag k="natural" v="hill" />
		<tag k="place" v="locality" />
		<tag k="ssr:stedsnr" v="88307" />
	</node>
	<node lat="58.847486110087225" lon="8.085850002955832" id="-34579">
		<tag k="fixme" v="consider natural=peak for the most distinct mountains in the district" />
		<tag k="name" v="Vestenåknuten" />
		<tag k="natural" v="hill" />
		<tag k="place" v="locality" />
		<tag k="ssr:stedsnr" v="88272" />
	</node>
	<node lat="58.79028333022101" lon="8.548219442850948" id="-34583">
		<tag k="name" v="Brandheia" />
		<tag k="natural" v="hill" />
		<tag k="place" v="locality" />
		<tag k="ssr:stedsnr" v="92119" />
	</node>
	<node lat="58.72573333740334" lon="8.52429721553715" id="-34585">
		<tag k="name" v="Fisketjønndalen" />
		<tag k="natural" v="valley" />
		<tag k="place" v="locality" />
		<tag k="ssr:stedsnr" v="92185" />
	</node>
	<node lat="58.80638889264337" lon="8.647349999725515" id="-34587">
		<tag k="name" v="Tjovhellerdalen" />
		<tag k="natural" v="valley" />
		<tag k="place" v="locality" />
		<tag k="ssr:stedsnr" v="92069" />
	</node>
	<node lat="58.80441388888483" lon="8.669119442176944" id="-34588">
		<tag k="name" v="Sandhausen" />
		<tag k="natural" v="hill" />
		<tag k="place" v="locality" />
		<tag k="ssr:stedsnr" v="92079" />
	</node>
	<node lat="58.817483329869766" lon="8.671802777339286" id="-34589">
		<tag k="name" v="Karisdal" />
		<tag k="natural" v="valley" />
		<tag k="place" v="locality" />
		<tag k="ssr:stedsnr" v="92080" />
	</node>
	<node lat="58.72881667029056" lon="8.478844445768509" id="-34590">
		<tag k="fixme" v="consider natural=peak for the most distinct mountains in the district" />
		<tag k="name" v="Fåtjønnåsen" />
		<tag k="natural" v="hill" />
		<tag k="place" v="locality" />
		<tag k="ssr:stedsnr" v="92202" />
	</node>
	<node lat="58.76333333572921" lon="8.480797214351242" id="-34593">
		<tag k="name" v="Bergstoknatten" />
		<tag k="natural" v="hill" />
		<tag k="place" v="locality" />
		<tag k="ssr:stedsnr" v="92216" />
	</node>
	<node lat="58.67644167110966" lon="8.48491944811175" id="-34595">
		<tag k="name" v="Urnipdalen" />
		<tag k="natural" v="valley" />
		<tag k="place" v="locality" />
		<tag k="ssr:stedsnr" v="92269" />
	</node>
	<node lat="58.6834638872154" lon="8.3725166716753" id="-34596">
		<tag k="fixme" v="consider natural=peak for the most distinct mountains in the district" />
		<tag k="name" v="Bjoråfjellet" />
		<tag k="natural" v="hill" />
		<tag k="place" v="locality" />
		<tag k="ssr:stedsnr" v="92270" />
	</node>
	<node lat="58.73636111190752" lon="8.59866944601014" id="-34600">
		<tag k="name" v="Botreidalane" />
		<tag k="natural" v="valley" />
		<tag k="place" v="locality" />
		<tag k="ssr:stedsnr" v="92482" />
	</node>
	<node lat="58.69387222112984" lon="8.690852774194628" id="-34606">
		<tag k="name" v="Skarkhola" />
		<tag k="natural" v="valley" />
		<tag k="place" v="locality" />
		<tag k="ssr:stedsnr" v="92570" />
	</node>
	<node lat="58.69363055453177" lon="8.699405561260798" id="-34607">
		<tag k="fixme" v="consider natural=peak for the most distinct mountains in the district" />
		<tag k="name" v="Nedre Venliheia" />
		<tag k="natural" v="hill" />
		<tag k="place" v="locality" />
		<tag k="ssr:stedsnr" v="92575" />
	</node>
	<node lat="58.71217222648242" lon="8.586488894362235" id="-34608">
		<tag k="name" v="Kalvedokk" />
		<tag k="natural" v="valley" />
		<tag k="place" v="locality" />
		<tag k="ssr:stedsnr" v="92578" />
	</node>
	<node lat="58.69627222546644" lon="8.331469437171206" id="-34613">
		<tag k="name" v="Lauvhjelldalen" />
		<tag k="natural" v="valley" />
		<tag k="place" v="locality" />
		<tag k="ssr:stedsnr" v="93320" />
	</node>
	<node lat="58.77720278207855" lon="8.494161110214387" id="-34616">
		<tag k="name" v="Hegna" />
		<tag k="place" v="locality" />
		<tag k="ssr:stedsnr" v="98079" />
	</node>
	<node lat="58.76492500265764" lon="8.362352778557984" id="-34618">
		<tag k="name" v="Kinbergknatten" />
		<tag k="natural" v="ridge" />
		<tag k="place" v="locality" />
		<tag k="ssr:stedsnr" v="98170" />
	</node>
	<node lat="58.66177222515224" lon="8.719666673042532" id="-34622">
		<tag k="fixme" v="consider natural=peak for the most distinct mountains in the district" />
		<tag k="name" v="Kjerrmyråsen" />
		<tag k="natural" v="hill" />
		<tag k="place" v="locality" />
		<tag k="ssr:stedsnr" v="105933" />
	</node>
	<node lat="58.82188055599003" lon="8.071958328952201" id="-34623">
		<tag k="name" v="Saurkleiv" />
		<tag k="natural" v="slope" />
		<tag k="place" v="locality" />
		<tag k="ssr:stedsnr" v="110921" />
	</node>
	<node lat="58.849622225707066" lon="8.095663896687707" id="-34624">
		<tag k="name" v="Langebakk" />
		<tag k="natural" v="slope" />
		<tag k="place" v="locality" />
		<tag k="ssr:stedsnr" v="111105" />
	</node>
	<node lat="58.84359722649936" lon="8.107163888780343" id="-34625">
		<tag k="name" v="Rotten" />
		<tag k="natural" v="hill" />
		<tag k="place" v="locality" />
		<tag k="ssr:stedsnr" v="111108" />
	</node>
	<node lat="58.73751110873487" lon="8.259769450540833" id="-34626">
		<tag k="name" v="Helvetsdalsrista" />
		<tag k="natural" v="ridge" />
		<tag k="place" v="locality" />
		<tag k="ssr:stedsnr" v="111327" />
	</node>
	<node lat="58.72077777980449" lon="7.997883339269553" id="-34627">
		<tag k="name" v="Heddeknatten" />
		<tag k="natural" v="ridge" />
		<tag k="place" v="locality" />
		<tag k="ssr:stedsnr" v="111377" />
	</node>
	<node lat="58.725902777943894" lon="8.064994443484615" id="-34629">
		<tag k="name" v="Knutane" />
		<tag k="natural" v="hill" />
		<tag k="place" v="locality" />
		<tag k="ssr:stedsnr" v="111409" />
	</node>
	<node lat="58.79827222014435" lon="8.015869448666491" id="-34630">
		<tag k="name" v="Smålian" />
		<tag k="natural" v="slope" />
		<tag k="place" v="locality" />
		<tag k="ssr:stedsnr" v="111669" />
	</node>
	<node lat="58.83511666580017" lon="8.09682500699445" id="-34632">
		<tag k="name" v="Skarsåbrua" />
		<tag k="old_name" v="Skrsåbrua" />
		<tag k="place" v="locality" />
		<tag k="ssr:stedsnr" v="111909" />
	</node>
	<node lat="58.833249995805694" lon="8.04889445049149" id="-34633">
		<tag k="name" v="Austre Ulvhildgjel" />
		<tag k="natural" v="valley" />
		<tag k="place" v="locality" />
		<tag k="ssr:stedsnr" v="111981" />
	</node>
	<node lat="58.8814000007943" lon="8.243352783148625" id="-34637">
		<tag k="name" v="Sandkleiv" />
		<tag k="natural" v="slope" />
		<tag k="place" v="locality" />
		<tag k="ssr:stedsnr" v="112006" />
	</node>
	<node lat="58.87766388666724" lon="8.225719449414166" id="-34638">
		<tag k="name" v="Snåbråtbakkane" />
		<tag k="natural" v="slope" />
		<tag k="place" v="locality" />
		<tag k="ssr:stedsnr" v="112011" />
	</node>
	<node lat="58.74033333062229" lon="8.174949993143793" id="-34640">
		<tag k="name" v="Smøldalsåsen" />
		<tag k="natural" v="hill" />
		<tag k="place" v="locality" />
		<tag k="ssr:stedsnr" v="112029" />
	</node>
	<node lat="58.7538916665942" lon="8.26577221965284" id="-34641">
		<tag k="name" v="Dritardalen" />
		<tag k="natural" v="valley" />
		<tag k="place" v="locality" />
		<tag k="ssr:stedsnr" v="112031" />
	</node>
	<node lat="58.75723611360637" lon="8.12522500376599" id="-34642">
		<tag k="name" v="Flatene" />
		<tag k="place" v="locality" />
		<tag k="ssr:stedsnr" v="112228" />
	</node>
	<node lat="58.8744388885576" lon="8.42504444812616" id="-34644">
		<tag k="name" v="Reismyrlia" />
		<tag k="natural" v="slope" />
		<tag k="place" v="locality" />
		<tag k="ssr:stedsnr" v="112412" />
	</node>
	<node lat="58.88227777519229" lon="8.41527500445712" id="-34645">
		<tag k="name" v="Reismyrfjellet" />
		<tag k="natural" v="cliff" />
		<tag k="ssr:stedsnr" v="112416" />
	</node>
	<node lat="58.813849998669724" lon="8.239569442233476" id="-34648">
		<tag k="name" v="Espestøyl-lia" />
		<tag k="natural" v="slope" />
		<tag k="place" v="locality" />
		<tag k="ssr:stedsnr" v="112609" />
	</node>
	<node lat="58.79923055748652" lon="8.228352783407985" id="-34650">
		<tag k="name" v="Bugranskotet" />
		<tag k="natural" v="valley" />
		<tag k="place" v="locality" />
		<tag k="ssr:stedsnr" v="112623" />
	</node>
	<node lat="58.728013884667895" lon="8.304516661773972" id="-34651">
		<tag k="name" v="Rosevall" />
		<tag k="place" v="locality" />
		<tag k="ssr:stedsnr" v="112625" />
	</node>
	<node lat="58.84425000105767" lon="8.36009444437665" id="-34654">
		<tag k="name" v="Bålkedalen" />
		<tag k="natural" v="valley" />
		<tag k="place" v="locality" />
		<tag k="ssr:stedsnr" v="112637" />
	</node>
	<node lat="58.70235833607682" lon="8.232055556713384" id="-34655">
		<tag k="name" v="Bogetredalen" />
		<tag k="natural" v="valley" />
		<tag k="place" v="locality" />
		<tag k="ssr:stedsnr" v="112640" />
	</node>
	<node lat="58.85799722193107" lon="8.372263896648876" id="-34658">
		<tag k="name" v="Kyrvasshommen" />
		<tag k="natural" v="slope" />
		<tag k="place" v="locality" />
		<tag k="ssr:stedsnr" v="112706" />
	</node>
	<node lat="58.93159722634737" lon="8.09750832614798" id="-34659">
		<tag k="name" v="Fiskeheia" />
		<tag k="natural" v="hill" />
		<tag k="place" v="locality" />
		<tag k="ssr:stedsnr" v="112909" />
	</node>
	<node lat="58.74275278124508" lon="8.407772222999158" id="-34660">
		<tag k="name" v="Røykedalen" />
		<tag k="natural" v="valley" />
		<tag k="place" v="locality" />
		<tag k="ssr:stedsnr" v="112804" />
	</node>
	<node lat="58.98470833730026" lon="8.127425004687362" id="-34661">
		<tag k="name" v="Gråkapp" />
		<tag k="natural" v="hill" />
		<tag k="place" v="locality" />
		<tag k="ssr:stedsnr" v="112871" />
	</node>
	<node lat="58.97813055359747" lon="8.115266660399579" id="-34662">
		<tag k="name" v="Sundslikvæven" />
		<tag k="natural" v="valley" />
		<tag k="place" v="locality" />
		<tag k="ssr:stedsnr" v="112873" />
	</node>
	<node lat="58.97237499660221" lon="8.151230553311462" id="-34665">
		<tag k="name" v="Lega" />
		<tag k="natural" v="valley" />
		<tag k="place" v="locality" />
		<tag k="ssr:stedsnr" v="112878" />
	</node>
	<node lat="58.765663886900924" lon="8.09526388321553" id="-34667">
		<tag k="name" v="Kildalen" />
		<tag k="natural" v="valley" />
		<tag k="place" v="locality" />
		<tag k="ssr:stedsnr" v="112974" />
	</node>
	<node lat="58.964744445893665" lon="8.182622218039853" id="-34669">
		<tag k="name" v="Musenston" />
		<tag k="place" v="locality" />
		<tag k="ssr:stedsnr" v="112982" />
	</node>
	<node lat="58.885924997629594" lon="8.17178333273972" id="-34670">
		<tag k="name" v="Rasmusfjell" />
		<tag k="natural" v="hill" />
		<tag k="place" v="locality" />
		<tag k="ssr:stedsnr" v="113282" />
	</node>
	<node lat="58.895902776598966" lon="8.246397215524917" id="-34671">
		<tag k="name" v="Tinnvamoen" />
		<tag k="place" v="locality" />
		<tag k="ssr:stedsnr" v="113678" />
	</node>
	<node lat="58.90103333055324" lon="8.269972220324103" id="-34672">
		<tag k="name" v="Lempskar" />
		<tag k="natural" v="valley" />
		<tag k="place" v="locality" />
		<tag k="ssr:stedsnr" v="113686" />
	</node>
	<node lat="58.74757777981818" lon="8.169708336571198" id="-34673">
		<tag k="name" v="Rosanlund" />
		<tag k="natural" v="slope" />
		<tag k="place" v="locality" />
		<tag k="ssr:stedsnr" v="113902" />
	</node>
	<node lat="58.889052775887706" lon="8.449236118426592" id="-34681">
		<tag k="alt_name" v="Bugen" />
		<tag k="name" v="Bogen" />
		<tag k="natural" v="slope" />
		<tag k="place" v="locality" />
		<tag k="ssr:stedsnr" v="122015" />
	</node>
	<node lat="58.752047218278946" lon="8.223386111025002" id="-34686">
		<tag k="fixme" v="consider natural=peak for the most distinct mountains in the district" />
		<tag k="name" v="Tverrfjellheia" />
		<tag k="natural" v="hill" />
		<tag k="place" v="locality" />
		<tag k="ssr:stedsnr" v="122317" />
	</node>
	<node lat="58.84769444644676" lon="8.540966666110739" id="-34697">
		<tag k="name" v="Trongedal" />
		<tag k="natural" v="valley" />
		<tag k="place" v="locality" />
		<tag k="ssr:stedsnr" v="152064" />
	</node>
	<node lat="58.741399998107305" lon="8.572869449365475" id="-34706">
		<tag k="fixme" v="consider natural=peak for the most distinct mountains in the district" />
		<tag k="name" v="Slåttmyrheia" />
		<tag k="natural" v="hill" />
		<tag k="place" v="locality" />
		<tag k="ssr:stedsnr" v="152416" />
	</node>
	<node lat="58.79067777889638" lon="8.522269443543108" id="-34708">
		<tag k="fixme" v="consider natural=peak for the most distinct mountains in the district" />
		<tag k="name" v="Svåone" />
		<tag k="natural" v="hill" />
		<tag k="place" v="locality" />
		<tag k="ssr:stedsnr" v="152156" />
	</node>
	<node lat="58.73472222665334" lon="8.552011114327208" id="-34709">
		<tag k="name" v="Persknatt" />
		<tag k="natural" v="hill" />
		<tag k="place" v="locality" />
		<tag k="ssr:stedsnr" v="152511" />
	</node>
	<node lat="58.76072500377659" lon="8.446811112125078" id="-34710">
		<tag k="name" v="Åskolvheia" />
		<tag k="natural" v="hill" />
		<tag k="place" v="locality" />
		<tag k="ssr:stedsnr" v="153205" />
	</node>
	<node lat="58.698413887652364" lon="8.341602779388488" id="-34717">
		<tag k="name" v="Grasdalen" />
		<tag k="natural" v="valley" />
		<tag k="place" v="locality" />
		<tag k="ssr:stedsnr" v="153405" />
	</node>
	<node lat="58.65999444669008" lon="8.634247224754727" id="-34718">
		<tag k="name" v="Folldalen" />
		<tag k="natural" v="valley" />
		<tag k="place" v="locality" />
		<tag k="ssr:stedsnr" v="153417" />
	</node>
	<node lat="58.66786110708305" lon="8.63816667523405" id="-34719">
		<tag k="name" v="Vestre Hushovdkollen" />
		<tag k="natural" v="hill" />
		<tag k="place" v="locality" />
		<tag k="ssr:stedsnr" v="153418" />
	</node>
	<node lat="58.81318610887804" lon="8.12227499549421" id="-34723">
		<tag k="name" v="Svenkjebudalen" />
		<tag k="natural" v="valley" />
		<tag k="place" v="locality" />
		<tag k="ssr:stedsnr" v="256715" />
	</node>
	<node lat="58.785030554414206" lon="8.470530555382688" id="-34726">
		<tag k="name" v="Øygardslia" />
		<tag k="natural" v="slope" />
		<tag k="place" v="locality" />
		<tag k="ssr:stedsnr" v="159108" />
	</node>
	<node lat="58.803016669229564" lon="8.446508326684631" id="-34727">
		<tag k="fixme" v="consider natural=peak for the most distinct mountains in the district" />
		<tag k="name" v="Mogghusåsen" />
		<tag k="natural" v="hill" />
		<tag k="place" v="locality" />
		<tag k="ssr:stedsnr" v="159409" />
	</node>
	<node lat="58.78600277527393" lon="8.350994443555042" id="-34728">
		<tag k="name" v="Krauneli" />
		<tag k="natural" v="slope" />
		<tag k="place" v="locality" />
		<tag k="ssr:stedsnr" v="159416" />
	</node>
	<node lat="58.813083330987844" lon="8.38713332817291" id="-34729">
		<tag k="name" v="Eikfet" />
		<tag k="place" v="locality" />
		<tag k="ssr:stedsnr" v="159455" />
	</node>
	<node lat="58.87484444879618" lon="8.477191670762423" id="-34730">
		<tag k="name" v="Nordre Gaupenapen" />
		<tag k="natural" v="hill" />
		<tag k="place" v="locality" />
		<tag k="ssr:stedsnr" v="159503" />
	</node>
	<node lat="58.89201944436825" lon="8.213719436578168" id="-34732">
		<tag k="name" v="Saudalsheia" />
		<tag k="natural" v="hill" />
		<tag k="place" v="locality" />
		<tag k="ssr:stedsnr" v="166313" />
	</node>
	<node lat="58.867749997218475" lon="8.000788893052613" id="-34735">
		<tag k="name" v="Syrehommen" />
		<tag k="natural" v="valley" />
		<tag k="place" v="locality" />
		<tag k="ssr:stedsnr" v="171014" />
	</node>
	<node lat="58.87093333192481" lon="8.064822214196019" id="-34736">
		<tag k="name" v="Dalsråtten" />
		<tag k="natural" v="slope" />
		<tag k="place" v="locality" />
		<tag k="ssr:stedsnr" v="171024" />
	</node>
	<node lat="58.8834222178534" lon="8.05140555995152" id="-34737">
		<tag k="name" v="Katta" />
		<tag k="natural" v="ridge" />
		<tag k="place" v="locality" />
		<tag k="ssr:stedsnr" v="171056" />
	</node>
	<node lat="58.94996667052874" lon="8.02328888412836" id="-34740">
		<tag k="name" v="Grunntjønndalen" />
		<tag k="natural" v="valley" />
		<tag k="place" v="locality" />
		<tag k="ssr:stedsnr" v="171123" />
	</node>
	<node lat="58.92518055519429" lon="8.053533326170633" id="-34741">
		<tag k="name" v="Den lange dalen" />
		<tag k="natural" v="valley" />
		<tag k="place" v="locality" />
		<tag k="ssr:stedsnr" v="171125" />
	</node>
	<node lat="58.80821944717002" lon="8.184397228289711" id="-34742">
		<tag k="name" v="Juvet" />
		<tag k="natural" v="valley" />
		<tag k="place" v="locality" />
		<tag k="ssr:stedsnr" v="171279" />
	</node>
	<node lat="58.78630277588833" lon="8.207869447264324" id="-34743">
		<tag k="name" v="Hola" />
		<tag k="natural" v="valley" />
		<tag k="place" v="locality" />
		<tag k="ssr:stedsnr" v="171672" />
	</node>
	<node lat="58.754686114619965" lon="8.262313884113249" id="-34747">
		<tag k="name" v="Yste Homskotet" />
		<tag k="natural" v="valley" />
		<tag k="place" v="locality" />
		<tag k="ssr:stedsnr" v="172019" />
	</node>
	<node lat="58.87556944845185" lon="8.275172215705672" id="-34748">
		<tag k="name" v="Prestnesmoen" />
		<tag k="place" v="locality" />
		<tag k="ssr:stedsnr" v="172070" />
	</node>
	<node lat="58.88657499896925" lon="8.481175005301527" id="-34749">
		<tag k="name" v="Lønnhommen" />
		<tag k="natural" v="slope" />
		<tag k="place" v="locality" />
		<tag k="ssr:stedsnr" v="172219" />
	</node>
	<node lat="58.78026110844943" lon="8.410213888258419" id="-34751">
		<tag k="fixme" v="consider natural=peak for the most distinct mountains in the district" />
		<tag k="name" v="Plassåsen" />
		<tag k="natural" v="hill" />
		<tag k="place" v="locality" />
		<tag k="ssr:stedsnr" v="172105" />
	</node>
	<node lat="58.86755833165295" lon="8.291405558222879" id="-34752">
		<tag k="name" v="Revenesbakkane" />
		<tag k="natural" v="ridge" />
		<tag k="place" v="locality" />
		<tag k="ssr:stedsnr" v="172109" />
	</node>
	<node lat="58.788094441290504" lon="8.489802774407057" id="-34753">
		<tag k="name" v="Gråndalen" />
		<tag k="natural" v="valley" />
		<tag k="place" v="locality" />
		<tag k="ssr:stedsnr" v="172112" />
	</node>
	<node lat="58.79400278130714" lon="8.475550008247819" id="-34754">
		<tag k="name" v="Sagedalen" />
		<tag k="natural" v="valley" />
		<tag k="place" v="locality" />
		<tag k="ssr:stedsnr" v="172122" />
	</node>
	<node lat="58.93855000361526" lon="8.184530554698874" id="-34755">
		<tag k="name" v="Bjønnshiknatten" />
		<tag k="natural" v="ridge" />
		<tag k="place" v="locality" />
		<tag k="ssr:stedsnr" v="172124" />
	</node>
	<node lat="58.78802222211481" lon="8.026216674904132" id="-34757">
		<tag k="name" v="Norsvadal" />
		<tag k="natural" v="valley" />
		<tag k="place" v="locality" />
		<tag k="ssr:stedsnr" v="172612" />
	</node>
	<node lat="58.713313885301815" lon="8.257461108613853" id="-34758">
		<tag k="name" v="Vestheia" />
		<tag k="natural" v="hill" />
		<tag k="place" v="locality" />
		<tag k="ssr:stedsnr" v="172555" />
	</node>
	<node lat="58.85679722579871" lon="8.297966659052685" id="-34761">
		<tag k="name" v="Lindestøylbakkane" />
		<tag k="natural" v="slope" />
		<tag k="place" v="locality" />
		<tag k="ssr:stedsnr" v="172711" />
	</node>
	<node lat="58.84237222371537" lon="8.357291667678474" id="-34762">
		<tag k="name" v="Dolhus" />
		<tag k="place" v="locality" />
		<tag k="ssr:stedsnr" v="172659" />
	</node>
	<node lat="58.74038333290457" lon="8.098897227104839" id="-34766">
		<tag k="name" v="Timmermannsdalen" />
		<tag k="natural" v="valley" />
		<tag k="place" v="locality" />
		<tag k="ssr:stedsnr" v="172871" />
	</node>
	<node lat="58.75090555121655" lon="8.009672230925005" id="-34767">
		<tag k="name" v="Den grønne lia" />
		<tag k="natural" v="slope" />
		<tag k="place" v="locality" />
		<tag k="ssr:stedsnr" v="172876" />
	</node>
	<node lat="58.74814722351277" lon="8.014747227342374" id="-34768">
		<tag k="name" v="Sollifjell" />
		<tag k="natural" v="hill" />
		<tag k="place" v="locality" />
		<tag k="ssr:stedsnr" v="172878" />
	</node>
	<node lat="58.80148888720977" lon="8.01085278293053" id="-34769">
		<tag k="name" v="Småliknuten" />
		<tag k="natural" v="hill" />
		<tag k="place" v="locality" />
		<tag k="ssr:stedsnr" v="172759" />
	</node>
	<node lat="58.75351667060103" lon="8.214291675144079" id="-34771">
		<tag k="name" v="Geirusdalsreset" />
		<tag k="natural" v="ridge" />
		<tag k="place" v="locality" />
		<tag k="ssr:stedsnr" v="172909" />
	</node>
	<node lat="58.887672218234336" lon="8.286180551303728" id="-34777">
		<tag k="name" v="Åmtona" />
		<tag k="place" v="locality" />
		<tag k="ssr:stedsnr" v="173603" />
	</node>
	<node lat="58.90239722200446" lon="8.258116672679344" id="-34779">
		<tag k="name" v="Urdalen" />
		<tag k="natural" v="valley" />
		<tag k="place" v="locality" />
		<tag k="ssr:stedsnr" v="173713" />
	</node>
	<node lat="58.71614166733722" lon="8.512963896421047" id="-34780">
		<tag k="name" v="Mondalen" />
		<tag k="natural" v="valley" />
		<tag k="place" v="locality" />
		<tag k="ssr:stedsnr" v="182063" />
	</node>
	<node lat="58.70951666486542" lon="8.531369440269511" id="-34781">
		<tag k="fixme" v="consider natural=peak for the most distinct mountains in the district" />
		<tag k="name" v="Joklusheia" />
		<tag k="natural" v="hill" />
		<tag k="place" v="locality" />
		<tag k="ssr:stedsnr" v="182065" />
	</node>
	<node lat="58.886222217773344" lon="8.582166670717275" id="-34783">
		<tag k="name" v="Øy" />
		<tag k="natural" v="hill" />
		<tag k="place" v="locality" />
		<tag k="ssr:stedsnr" v="182437" />
	</node>
	<node lat="58.75588333120084" lon="8.588924992259283" id="-34786">
		<tag k="fixme" v="consider natural=peak for the most distinct mountains in the district" />
		<tag k="name" v="Vikvassnuten" />
		<tag k="natural" v="hill" />
		<tag k="place" v="locality" />
		<tag k="ssr:stedsnr" v="182540" />
	</node>
	<node lat="58.756563892017965" lon="8.035113897388696" id="-34788">
		<tag k="fixme" v="consider natural=peak for the most distinct mountains in the district" />
		<tag k="name" v="Ramnefjell" />
		<tag k="natural" v="hill" />
		<tag k="place" v="locality" />
		<tag k="ssr:stedsnr" v="182858" />
	</node>
	<node lat="58.74284166623948" lon="8.542708328298271" id="-34793">
		<tag k="alt_name" v="Kløvfjell" />
		<tag k="fixme" v="consider natural=peak for the most distinct mountains in the district" />
		<tag k="name" v="Kløvfjellet" />
		<tag k="natural" v="hill" />
		<tag k="place" v="locality" />
		<tag k="ssr:stedsnr" v="183013" />
	</node>
	<node lat="58.787688885523025" lon="8.196119451347872" id="-34798">
		<tag k="fixme" v="consider natural=peak for the most distinct mountains in the district" />
		<tag k="name" v="Haugknuten" />
		<tag k="natural" v="hill" />
		<tag k="place" v="locality" />
		<tag k="ssr:stedsnr" v="183207" />
	</node>
	<node lat="58.73543888759036" lon="8.262730559073594" id="-34802">
		<tag k="alt_name" v="Helvetesdalen" />
		<tag k="name" v="Helvetsdal" />
		<tag k="natural" v="valley" />
		<tag k="place" v="locality" />
		<tag k="ssr:stedsnr" v="183346" />
	</node>
	<node lat="58.628975004223136" lon="8.701099995459801" id="-34808">
		<tag k="alt_name" v="Høgeknuten" />
		<tag k="name" v="Høgknute" />
		<tag k="natural" v="hill" />
		<tag k="place" v="locality" />
		<tag k="ssr:stedsnr" v="183793" />
	</node>
	<node lat="58.65054444879656" lon="8.49519445237724" id="-34809">
		<tag k="alt_name" v="Solbergfjell" />
		<tag k="fixme" v="consider natural=peak for the most distinct mountains in the district" />
		<tag k="name" v="Solbergfjellet" />
		<tag k="natural" v="hill" />
		<tag k="place" v="locality" />
		<tag k="ssr:stedsnr" v="183986" />
	</node>
	<node lat="58.91782499759296" lon="8.545152782407454" id="-34812">
		<tag k="name" v="Bjønnlifjellet" />
		<tag k="natural" v="hill" />
		<tag k="place" v="locality" />
		<tag k="ssr:stedsnr" v="213007" />
	</node>
	<node lat="58.893144440026916" lon="8.555569445377268" id="-34813">
		<tag k="name" v="Bjørkedalen" />
		<tag k="natural" v="valley" />
		<tag k="place" v="locality" />
		<tag k="ssr:stedsnr" v="213025" />
	</node>
	<node lat="58.84015000194589" lon="8.692686107118304" id="-34816">
		<tag k="name" v="Tjovdalen" />
		<tag k="natural" v="valley" />
		<tag k="place" v="locality" />
		<tag k="ssr:stedsnr" v="213091" />
	</node>
	<node lat="58.84659444103519" lon="8.65454722572536" id="-34818">
		<tag k="name" v="Husdalen" />
		<tag k="natural" v="valley" />
		<tag k="place" v="locality" />
		<tag k="ssr:stedsnr" v="213203" />
	</node>
	<node lat="58.83195555707325" lon="8.728372227611905" id="-34820">
		<tag k="fixme" v="consider natural=peak for the most distinct mountains in the district" />
		<tag k="name" v="Lislehei" />
		<tag k="natural" v="hill" />
		<tag k="place" v="locality" />
		<tag k="ssr:stedsnr" v="213178" />
	</node>
	<node lat="58.757466666877846" lon="8.550530553610956" id="-34828">
		<tag k="fixme" v="consider natural=peak for the most distinct mountains in the district" />
		<tag k="name" v="Haukåsen" />
		<tag k="natural" v="hill" />
		<tag k="place" v="locality" />
		<tag k="ssr:stedsnr" v="214189" />
	</node>
	<node lat="58.660955555995294" lon="8.411683332516963" id="-34831">
		<tag k="fixme" v="consider natural=peak for the most distinct mountains in the district" />
		<tag k="name" v="Megåsen" />
		<tag k="natural" v="hill" />
		<tag k="place" v="locality" />
		<tag k="ssr:stedsnr" v="214331" />
	</node>
	<node lat="58.70145000035517" lon="8.340727785679283" id="-34833">
		<tag k="name" v="Stalldalen" />
		<tag k="natural" v="valley" />
		<tag k="place" v="locality" />
		<tag k="ssr:stedsnr" v="214385" />
	</node>
	<node lat="58.67607499699425" lon="8.713838895674217" id="-34835">
		<tag k="fixme" v="consider natural=peak for the most distinct mountains in the district" />
		<tag k="name" v="Staurheia" />
		<tag k="natural" v="hill" />
		<tag k="place" v="locality" />
		<tag k="ssr:stedsnr" v="214503" />
	</node>
	<node lat="58.70008333530671" lon="8.465838895161365" id="-34837">
		<tag k="name" v="Grostmyrdalen" />
		<tag k="natural" v="valley" />
		<tag k="place" v="locality" />
		<tag k="ssr:stedsnr" v="214403" />
	</node>
	<node lat="58.68959166508786" lon="8.663536109057002" id="-34848">
		<tag k="name" v="Hovdeheia" />
		<tag k="natural" v="hill" />
		<tag k="place" v="locality" />
		<tag k="ssr:stedsnr" v="214786" />
	</node>
	<node lat="58.72487500162043" lon="8.632666666668317" id="-34854">
		<tag k="name" v="Furli" />
		<tag k="natural" v="slope" />
		<tag k="place" v="locality" />
		<tag k="ssr:stedsnr" v="214804" />
	</node>
	<node lat="58.87305277904991" lon="8.209341673476981" id="-34857">
		<tag k="name" v="Storetjønnlia" />
		<tag k="natural" v="slope" />
		<tag k="place" v="locality" />
		<tag k="ssr:stedsnr" v="220277" />
	</node>
	<node lat="58.63194722173043" lon="8.73034999416545" id="-34860">
		<tag k="fixme" v="consider natural=peak for the most distinct mountains in the district" />
		<tag k="name" v="Sagåsen" />
		<tag k="natural" v="hill" />
		<tag k="place" v="locality" />
		<tag k="ssr:stedsnr" v="226840" />
	</node>
	<node lat="58.648808332242595" lon="8.749736112193297" id="-34862">
		<tag k="name" v="Venli" />
		<tag k="natural" v="slope" />
		<tag k="place" v="locality" />
		<tag k="ssr:stedsnr" v="226968" />
	</node>
	<node lat="58.65667222543531" lon="8.752522229099409" id="-34863">
		<tag k="name" v="Lauvkjerrheia" />
		<tag k="natural" v="hill" />
		<tag k="place" v="locality" />
		<tag k="ssr:stedsnr" v="226974" />
	</node>
	<node lat="58.8925222225771" lon="8.083038890695619" id="-34864">
		<tag k="name" v="Skaret" />
		<tag k="natural" v="valley" />
		<tag k="place" v="locality" />
		<tag k="ssr:stedsnr" v="231202" />
	</node>
	<node lat="58.90385833399492" lon="8.056513888216445" id="-34865">
		<tag k="name" v="Ratøygardslia" />
		<tag k="natural" v="slope" />
		<tag k="place" v="locality" />
		<tag k="ssr:stedsnr" v="231204" />
	</node>
	<node lat="58.77178333666011" lon="8.114555557161099" id="-34866">
		<tag k="name" v="Teddebergkleivane" />
		<tag k="natural" v="slope" />
		<tag k="place" v="locality" />
		<tag k="ssr:stedsnr" v="232005" />
	</node>
	<node lat="58.8855750031024" lon="8.390911110663296" id="-34867">
		<tag k="name" v="Barlindkrona" />
		<tag k="natural" v="valley" />
		<tag k="place" v="locality" />
		<tag k="ssr:stedsnr" v="232194" />
	</node>
	<node lat="58.7571722235336" lon="8.294338895269028" id="-34869">
		<tag k="name" v="Tjønnebrekk" />
		<tag k="natural" v="slope" />
		<tag k="place" v="locality" />
		<tag k="ssr:stedsnr" v="232635" />
	</node>
	<node lat="58.75153333368435" lon="8.111986116060152" id="-34870">
		<tag k="name" v="Laugeskar" />
		<tag k="natural" v="valley" />
		<tag k="place" v="locality" />
		<tag k="ssr:stedsnr" v="232736" />
	</node>
	<node lat="58.742669440668884" lon="8.026394449708423" id="-34871">
		<tag k="name" v="Bjørndalsfjell" />
		<tag k="natural" v="hill" />
		<tag k="place" v="locality" />
		<tag k="ssr:stedsnr" v="232839" />
	</node>
	<node lat="58.742000000111275" lon="8.035191670363472" id="-34872">
		<tag k="name" v="Bjørnestigdalen" />
		<tag k="natural" v="valley" />
		<tag k="place" v="locality" />
		<tag k="ssr:stedsnr" v="232840" />
	</node>
	<node lat="58.8505472258718" lon="8.191008331992014" id="-34874">
		<tag k="name" v="Gunnarstøylheia" />
		<tag k="natural" v="hill" />
		<tag k="place" v="locality" />
		<tag k="ssr:stedsnr" v="232987" />
	</node>
	<node lat="58.78633889244026" lon="8.021894436444072" id="-34878">
		<tag k="name" v="Kvilestaddalen" />
		<tag k="natural" v="valley" />
		<tag k="place" v="locality" />
		<tag k="ssr:stedsnr" v="233626" />
	</node>
	<node lat="58.71301944662492" lon="8.278461113446362" id="-34879">
		<tag k="name" v="Klovedalsfjellet" />
		<tag k="natural" v="cliff" />
		<tag k="ssr:stedsnr" v="233641" />
	</node>
	<node lat="58.81848611303148" lon="8.220111103858656" id="-34880">
		<tag k="name" v="Lindeheia" />
		<tag k="natural" v="hill" />
		<tag k="place" v="locality" />
		<tag k="ssr:stedsnr" v="233644" />
	</node>
	<node lat="58.86187500293645" lon="8.469933341919678" id="-34881">
		<tag k="name" v="Leiken" />
		<tag k="natural" v="hill" />
		<tag k="place" v="locality" />
		<tag k="ssr:stedsnr" v="233680" />
	</node>
	<node lat="58.96965277904568" lon="8.175291671050054" id="-34882">
		<tag k="name" v="Øygardsberga" />
		<tag k="natural" v="hill" />
		<tag k="place" v="locality" />
		<tag k="ssr:stedsnr" v="233909" />
	</node>
	<node lat="58.74598055316837" lon="8.180633341094955" id="-34884">
		<tag k="name" v="Klovdalen" />
		<tag k="natural" v="valley" />
		<tag k="place" v="locality" />
		<tag k="ssr:stedsnr" v="233918" />
	</node>
	<node lat="58.96678611327111" lon="8.09236110581855" id="-34885">
		<tag k="name" v="Sirilkrona" />
		<tag k="natural" v="valley" />
		<tag k="place" v="locality" />
		<tag k="ssr:stedsnr" v="233943" />
	</node>
	<node lat="58.881550001400385" lon="8.247861107235934" id="-34887">
		<tag k="fixme" v="consider natural=peak for the most distinct mountains in the district" />
		<tag k="name" v="Gruvaåsen" />
		<tag k="natural" v="hill" />
		<tag k="place" v="locality" />
		<tag k="ssr:stedsnr" v="234007" />
	</node>
	<node lat="58.84538333638167" lon="8.235777784009162" id="-34889">
		<tag k="name" v="Brattekleiv" />
		<tag k="natural" v="slope" />
		<tag k="place" v="locality" />
		<tag k="ssr:stedsnr" v="234337" />
	</node>
	<node lat="58.87146944164232" lon="8.200163881649425" id="-34891">
		<tag k="name" v="Høgli" />
		<tag k="natural" v="slope" />
		<tag k="place" v="locality" />
		<tag k="ssr:stedsnr" v="234230" />
	</node>
	<node lat="58.8747472264454" lon="8.172302782312414" id="-34892">
		<tag k="name" v="Nordlidalen" />
		<tag k="natural" v="valley" />
		<tag k="place" v="locality" />
		<tag k="ssr:stedsnr" v="234238" />
	</node>
	<node lat="58.89818888661728" lon="8.229891661886453" id="-34893">
		<tag k="name" v="Moldskotet" />
		<tag k="natural" v="valley" />
		<tag k="place" v="locality" />
		<tag k="ssr:stedsnr" v="234704" />
	</node>
	<node lat="58.71971389027716" lon="8.271883333265727" id="-34895">
		<tag k="fixme" v="consider natural=peak for the most distinct mountains in the district" />
		<tag k="name" v="Øybrekk" />
		<tag k="natural" v="hill" />
		<tag k="place" v="locality" />
		<tag k="ssr:stedsnr" v="243494" />
	</node>
	<node lat="58.837541664971724" lon="8.699705557299533" id="-34899">
		<tag k="name" v="Tjovheia" />
		<tag k="natural" v="hill" />
		<tag k="place" v="locality" />
		<tag k="ssr:stedsnr" v="243736" />
	</node>
	<node lat="58.82423611457321" lon="8.608799991814845" id="-34902">
		<tag k="name" v="Bjørnhusheia" />
		<tag k="natural" v="hill" />
		<tag k="place" v="locality" />
		<tag k="ssr:stedsnr" v="243684" />
	</node>
	<node lat="58.80422777904588" lon="8.140597222288553" id="-34908">
		<tag k="alt_name" v="Valfjellet" />
		<tag k="fixme" v="consider natural=peak for the most distinct mountains in the district" />
		<tag k="name" v="Valefjellet" />
		<tag k="natural" v="hill" />
		<tag k="place" v="locality" />
		<tag k="ssr:stedsnr" v="244141" />
	</node>
	<node lat="58.73360555885775" lon="8.57611388180071" id="-34910">
		<tag k="fixme" v="consider natural=peak for the most distinct mountains in the district" />
		<tag k="name" v="Sletteknatten" />
		<tag k="natural" v="hill" />
		<tag k="place" v="locality" />
		<tag k="ssr:stedsnr" v="244111" />
	</node>
	<node lat="58.86578611313348" lon="8.360025002807928" id="-34911">
		<tag k="fixme" v="consider natural=peak for the most distinct mountains in the district" />
		<tag k="name" v="Buheia" />
		<tag k="natural" v="hill" />
		<tag k="place" v="locality" />
		<tag k="ssr:stedsnr" v="244113" />
	</node>
	<node lat="58.82391110837113" lon="8.202100008002075" id="-34913">
		<tag k="alt_name" v="Kvæven, lisle" />
		<tag k="name" v="Lisle Kvæven" />
		<tag k="natural" v="slope" />
		<tag k="place" v="locality" />
		<tag k="ssr:stedsnr" v="244092" />
	</node>
	<node lat="58.79845555418801" lon="8.505061110874893" id="-34919">
		<tag k="alt_name" v="Gjavnesmoen" />
		<tag k="name" v="Javnesmoen" />
		<tag k="place" v="locality" />
		<tag k="ssr:stedsnr" v="244629" />
	</node>
	<node lat="58.80999444068764" lon="8.066391669797108" id="-34925">
		<tag k="name" v="Båsdalen" />
		<tag k="natural" v="valley" />
		<tag k="place" v="locality" />
		<tag k="ssr:stedsnr" v="452334" />
	</node>
	<node lat="58.88871667085873" lon="8.521491673054905" id="-34928">
		<tag k="name" v="Storetjønndalen" />
		<tag k="natural" v="valley" />
		<tag k="place" v="locality" />
		<tag k="ssr:stedsnr" v="456044" />
	</node>
	<node lat="58.796297226094914" lon="8.637405553510458" id="-34931">
		<tag k="name" v="Klomra" />
		<tag k="natural" v="valley" />
		<tag k="place" v="locality" />
		<tag k="ssr:stedsnr" v="456127" />
	</node>
	<node lat="58.80529721788643" lon="8.620480553181249" id="-34933">
		<tag k="name" v="Olavslidalen" />
		<tag k="natural" v="valley" />
		<tag k="place" v="locality" />
		<tag k="ssr:stedsnr" v="456133" />
	</node>
	<node lat="58.781583335164605" lon="8.548047215223649" id="-34936">
		<tag k="name" v="Vedalen" />
		<tag k="natural" v="valley" />
		<tag k="place" v="locality" />
		<tag k="ssr:stedsnr" v="456154" />
	</node>
	<node lat="58.79415555928527" lon="8.520775002300423" id="-34937">
		<tag k="fixme" v="consider natural=peak for the most distinct mountains in the district" />
		<tag k="name" v="Floksholbakken" />
		<tag k="natural" v="hill" />
		<tag k="place" v="locality" />
		<tag k="ssr:stedsnr" v="456156" />
	</node>
	<node lat="58.894277773805385" lon="8.62613334115733" id="-34940">
		<tag k="name" v="Akevittknatten" />
		<tag k="natural" v="ridge" />
		<tag k="place" v="locality" />
		<tag k="ssr:stedsnr" v="456188" />
	</node>
	<node lat="58.847891662316094" lon="8.663550007606657" id="-34941">
		<tag k="name" v="Moane" />
		<tag k="place" v="locality" />
		<tag k="ssr:stedsnr" v="456196" />
	</node>
	<node lat="58.755688890875064" lon="8.488261112442997" id="-34943">
		<tag k="fixme" v="consider natural=peak for the most distinct mountains in the district" />
		<tag k="name" v="Vardalsfjella" />
		<tag k="natural" v="hill" />
		<tag k="place" v="locality" />
		<tag k="ssr:stedsnr" v="456234" />
	</node>
	<node lat="58.77363610903034" lon="8.477508330393421" id="-34945">
		<tag k="name" v="Breito" />
		<tag k="natural" v="hill" />
		<tag k="place" v="locality" />
		<tag k="ssr:stedsnr" v="456240" />
	</node>
	<node lat="58.7703361079009" lon="8.505252783794127" id="-34946">
		<tag k="name" v="Svartufs" />
		<tag k="natural" v="ridge" />
		<tag k="place" v="locality" />
		<tag k="ssr:stedsnr" v="456250" />
	</node>
	<node lat="58.76947499826282" lon="8.593650007957176" id="-34950">
		<tag k="name" v="Høykleiva" />
		<tag k="natural" v="slope" />
		<tag k="place" v="locality" />
		<tag k="ssr:stedsnr" v="456389" />
	</node>
	<node lat="58.79173055661804" lon="8.593374999979876" id="-34952">
		<tag k="name" v="Tverrslåttdalen" />
		<tag k="natural" v="valley" />
		<tag k="place" v="locality" />
		<tag k="ssr:stedsnr" v="456428" />
	</node>
	<node lat="58.83359166241357" lon="8.547372225250253" id="-34953">
		<tag k="fixme" v="consider natural=peak for the most distinct mountains in the district" />
		<tag k="name" v="Grasåsen" />
		<tag k="natural" v="hill" />
		<tag k="place" v="locality" />
		<tag k="ssr:stedsnr" v="456431" />
	</node>
	<node lat="58.77851110689709" lon="8.555727783178618" id="-34955">
		<tag k="name" v="Naverdalen" />
		<tag k="natural" v="valley" />
		<tag k="place" v="locality" />
		<tag k="ssr:stedsnr" v="456483" />
	</node>
	<node lat="58.81462499907815" lon="8.56774443834873" id="-34960">
		<tag k="name" v="Ruskedalen" />
		<tag k="natural" v="valley" />
		<tag k="place" v="locality" />
		<tag k="ssr:stedsnr" v="456496" />
	</node>
	<node lat="58.72064999809855" lon="8.60178888345146" id="-34963">
		<tag k="fixme" v="consider natural=peak for the most distinct mountains in the district" />
		<tag k="name" v="Mjonevatsheia" />
		<tag k="natural" v="hill" />
		<tag k="place" v="locality" />
		<tag k="ssr:stedsnr" v="456666" />
	</node>
	<node lat="58.7543305528622" lon="8.47186110641926" id="-34965">
		<tag k="name" v="Tinghaugen" />
		<tag k="natural" v="hill" />
		<tag k="place" v="locality" />
		<tag k="ssr:stedsnr" v="456653" />
	</node>
	<node lat="58.71955277544752" lon="8.614383336830095" id="-34967">
		<tag k="name" v="Høydalen" />
		<tag k="natural" v="valley" />
		<tag k="place" v="locality" />
		<tag k="ssr:stedsnr" v="456777" />
	</node>
	<node lat="58.69234167001226" lon="8.693255551975694" id="-34968">
		<tag k="name" v="Sneåliene" />
		<tag k="natural" v="slope" />
		<tag k="place" v="locality" />
		<tag k="ssr:stedsnr" v="456778" />
	</node>
	<node lat="58.745172222279415" lon="8.53440554742954" id="-34969">
		<tag k="fixme" v="consider natural=peak for the most distinct mountains in the district" />
		<tag k="name" v="Oksebåsfjellet" />
		<tag k="natural" v="hill" />
		<tag k="place" v="locality" />
		<tag k="ssr:stedsnr" v="456746" />
	</node>
	<node lat="58.646036114351986" lon="8.693255552529278" id="-34970">
		<tag k="name" v="Vardåsdalen" />
		<tag k="natural" v="valley" />
		<tag k="place" v="locality" />
		<tag k="ssr:stedsnr" v="456749" />
	</node>
	<node lat="58.67441111028697" lon="8.45779444763645" id="-34976">
		<tag k="name" v="Trolldalssmoget" />
		<tag k="natural" v="valley" />
		<tag k="place" v="locality" />
		<tag k="ssr:stedsnr" v="457246" />
	</node>
	<node lat="58.71525555853695" lon="8.438533335314462" id="-34977">
		<tag k="name" v="Høgemyrbråta" />
		<tag k="natural" v="slope" />
		<tag k="place" v="locality" />
		<tag k="ssr:stedsnr" v="457297" />
	</node>
	<node lat="58.69535832955547" lon="8.372425000166341" id="-34978">
		<tag k="name" v="Haukedalen" />
		<tag k="natural" v="valley" />
		<tag k="place" v="locality" />
		<tag k="ssr:stedsnr" v="457400" />
	</node>
	<node lat="58.69325555443379" lon="8.377144445325287" id="-34979">
		<tag k="name" v="Venøygardsdalen" />
		<tag k="natural" v="valley" />
		<tag k="place" v="locality" />
		<tag k="ssr:stedsnr" v="457401" />
	</node>
	<node lat="58.662133335727" lon="8.398644443135067" id="-34981">
		<tag k="fixme" v="consider natural=peak for the most distinct mountains in the district" />
		<tag k="name" v="Grytefjellheia" />
		<tag k="natural" v="hill" />
		<tag k="place" v="locality" />
		<tag k="ssr:stedsnr" v="457329" />
	</node>
	<node lat="58.726102776162236" lon="8.401319452799143" id="-34983">
		<tag k="name" v="Lambedalsskotet" />
		<tag k="natural" v="slope" />
		<tag k="place" v="locality" />
		<tag k="ssr:stedsnr" v="457350" />
	</node>
	<node lat="58.84757221932122" lon="8.637336118560958" id="-34990">
		<tag k="name" v="Raundalsmoen" />
		<tag k="place" v="locality" />
		<tag k="ssr:stedsnr" v="274072" />
	</node>
	<node lat="58.815477773841444" lon="8.688572228834609" id="-34991">
		<tag k="alt_name" v="Moripdalen" />
		<tag k="name" v="Moripdalane" />
		<tag k="natural" v="valley" />
		<tag k="place" v="locality" />
		<tag k="ssr:stedsnr" v="274080" />
	</node>
	<node lat="58.77357221923912" lon="8.510533340349355" id="-34996">
		<tag k="fixme" v="consider natural=peak for the most distinct mountains in the district" />
		<tag k="name" v="Rjomekleivknatten" />
		<tag k="natural" v="hill" />
		<tag k="place" v="locality" />
		<tag k="ssr:stedsnr" v="274223" />
	</node>
	<node lat="58.769294444059675" lon="8.539563885509935" id="-34997">
		<tag k="fixme" v="consider natural=peak for the most distinct mountains in the district" />
		<tag k="name" v="Lyngåsen" />
		<tag k="natural" v="hill" />
		<tag k="place" v="locality" />
		<tag k="ssr:stedsnr" v="274225" />
	</node>
	<node lat="58.7963166677017" lon="8.611858338734717" id="-34998">
		<tag k="fixme" v="consider natural=peak for the most distinct mountains in the district" />
		<tag k="name" v="Holmvassheia" />
		<tag k="natural" v="hill" />
		<tag k="place" v="locality" />
		<tag k="ssr:stedsnr" v="274107" />
	</node>
	<node lat="58.67278055777479" lon="8.564394451298641" id="-34999">
		<tag k="name" v="Haugane" />
		<tag k="natural" v="hill" />
		<tag k="place" v="locality" />
		<tag k="ssr:stedsnr" v="274172" />
	</node>
	<node lat="58.7183027757849" lon="8.553352770557472" id="-35000">
		<tag k="name" v="Moendalen" />
		<tag k="natural" v="valley" />
		<tag k="place" v="locality" />
		<tag k="ssr:stedsnr" v="274176" />
	</node>
	<node lat="58.744852779545745" lon="8.454261102753238" id="-35001">
		<tag k="fixme" v="consider natural=peak for the most distinct mountains in the district" />
		<tag k="name" v="Sundsåsen" />
		<tag k="natural" v="hill" />
		<tag k="place" v="locality" />
		<tag k="ssr:stedsnr" v="274188" />
	</node>
	<node lat="58.65618889081396" lon="8.438305563599037" id="-35005">
		<tag k="name" v="Birketveitdalen" />
		<tag k="natural" v="valley" />
		<tag k="place" v="locality" />
		<tag k="ssr:stedsnr" v="274312" />
	</node>
	<node lat="58.78260278029099" lon="8.591102773012823" id="-35010">
		<tag k="name" v="Pisertjønnlia" />
		<tag k="natural" v="slope" />
		<tag k="place" v="locality" />
		<tag k="ssr:stedsnr" v="274402" />
	</node>
	<node lat="58.82415833054431" lon="8.52018054968821" id="-35011">
		<tag k="name" v="Klomradalen" />
		<tag k="natural" v="valley" />
		<tag k="place" v="locality" />
		<tag k="ssr:stedsnr" v="274406" />
	</node>
	<node lat="58.83631666861443" lon="8.52456666494154" id="-35012">
		<tag k="name" v="Torsdalen" />
		<tag k="natural" v="valley" />
		<tag k="place" v="locality" />
		<tag k="ssr:stedsnr" v="274410" />
	</node>
	<node lat="58.67814999661206" lon="8.680377773701224" id="-35015">
		<tag k="fixme" v="consider natural=peak for the most distinct mountains in the district" />
		<tag k="name" v="Eikeliknatten" />
		<tag k="natural" v="hill" />
		<tag k="place" v="locality" />
		<tag k="ssr:stedsnr" v="274469" />
	</node>
	<node lat="58.730486109878974" lon="8.459400004776567" id="-35019">
		<tag k="name" v="Gobakk" />
		<tag k="natural" v="slope" />
		<tag k="place" v="locality" />
		<tag k="ssr:stedsnr" v="274612" />
	</node>
	<node lat="58.75228610816619" lon="8.45225000270678" id="-35021">
		<tag k="name" v="Galtedalen" />
		<tag k="natural" v="valley" />
		<tag k="place" v="locality" />
		<tag k="ssr:stedsnr" v="274624" />
	</node>
	<node lat="58.746188886404994" lon="8.526486116281166" id="-35026">
		<tag k="fixme" v="consider natural=peak for the most distinct mountains in the district" />
		<tag k="name" v="Rekliåsen" />
		<tag k="natural" v="hill" />
		<tag k="place" v="locality" />
		<tag k="ssr:stedsnr" v="274728" />
	</node>
	<node lat="58.92573610784619" lon="8.205494445218049" id="-35031">
		<tag k="name" v="Hanganelia" />
		<tag k="natural" v="slope" />
		<tag k="place" v="locality" />
		<tag k="ssr:stedsnr" v="280203" />
	</node>
	<node lat="58.75577500052551" lon="8.35019721947994" id="-35033">
		<tag k="name" v="Trolldalen" />
		<tag k="natural" v="valley" />
		<tag k="place" v="locality" />
		<tag k="ssr:stedsnr" v="280104" />
	</node>
	<node lat="58.809113887731456" lon="8.387738891524446" id="-35036">
		<tag k="name" v="Nøttungsslått" />
		<tag k="place" v="locality" />
		<tag k="ssr:stedsnr" v="281422" />
	</node>
	<node lat="58.87023889235654" lon="8.462533325528753" id="-35037">
		<tag k="name" v="Godtjønnheia" />
		<tag k="natural" v="slope" />
		<tag k="place" v="locality" />
		<tag k="ssr:stedsnr" v="281468" />
	</node>
	<node lat="58.83431388897882" lon="8.40727221577073" id="-35038">
		<tag k="name" v="Årdalen" />
		<tag k="natural" v="valley" />
		<tag k="place" v="locality" />
		<tag k="ssr:stedsnr" v="281576" />
	</node>
	<node lat="58.63144444748846" lon="8.719569442824142" id="-35039">
		<tag k="name" v="Dalen" />
		<tag k="natural" v="valley" />
		<tag k="place" v="locality" />
		<tag k="ssr:stedsnr" v="287815" />
	</node>
	<node lat="58.63025000408602" lon="8.726666670192996" id="-35040">
		<tag k="name" v="Åsheia" />
		<tag k="natural" v="hill" />
		<tag k="place" v="locality" />
		<tag k="ssr:stedsnr" v="287817" />
	</node>
	<node lat="58.86686111051585" lon="8.038775002068673" id="-35043">
		<tag k="name" v="Lokhola" />
		<tag k="natural" v="valley" />
		<tag k="place" v="locality" />
		<tag k="ssr:stedsnr" v="292029" />
	</node>
	<node lat="58.777655552230165" lon="8.16581945090065" id="-35047">
		<tag k="name" v="Måkestøyldalen" />
		<tag k="natural" v="valley" />
		<tag k="place" v="locality" />
		<tag k="ssr:stedsnr" v="292633" />
	</node>
	<node lat="58.87661388762349" lon="8.056705553610763" id="-35050">
		<tag k="name" v="Lia" />
		<tag k="natural" v="slope" />
		<tag k="place" v="locality" />
		<tag k="ssr:stedsnr" v="293028" />
	</node>
	<node lat="58.875244444306226" lon="8.108433325206796" id="-35051">
		<tag k="name" v="Samlogdalen" />
		<tag k="natural" v="valley" />
		<tag k="place" v="locality" />
		<tag k="ssr:stedsnr" v="293013" />
	</node>
	<node lat="58.810494440065185" lon="8.363808325429108" id="-35052">
		<tag k="name" v="Fossdalen" />
		<tag k="natural" v="valley" />
		<tag k="place" v="locality" />
		<tag k="ssr:stedsnr" v="462837" />
	</node>
	<node lat="58.92942222382589" lon="8.112961109801322" id="-35054">
		<tag k="name" v="Lauvhomlia" />
		<tag k="natural" v="slope" />
		<tag k="place" v="locality" />
		<tag k="ssr:stedsnr" v="293294" />
	</node>
	<node lat="58.83023055177291" lon="8.270558324862554" id="-35055">
		<tag k="name" v="Maurli" />
		<tag k="natural" v="slope" />
		<tag k="place" v="locality" />
		<tag k="ssr:stedsnr" v="293690" />
	</node>
	<node lat="58.88174167042429" lon="8.399580559502363" id="-35060">
		<tag k="name" v="Storbrattkleiv" />
		<tag k="natural" v="slope" />
		<tag k="place" v="locality" />
		<tag k="ssr:stedsnr" v="294406" />
	</node>
	<node lat="58.74223888532018" lon="8.240633336687223" id="-35063">
		<tag k="name" v="Rennerå" />
		<tag k="natural" v="slope" />
		<tag k="place" v="locality" />
		<tag k="ssr:stedsnr" v="294306" />
	</node>
	<node lat="58.71694166392245" lon="8.227883326212828" id="-35066">
		<tag k="name" v="Svårtebergheia" />
		<tag k="natural" v="hill" />
		<tag k="place" v="locality" />
		<tag k="ssr:stedsnr" v="294516" />
	</node>
	<node lat="58.79117778047926" lon="8.031388897057655" id="-35068">
		<tag k="name" v="Skjerli" />
		<tag k="natural" v="slope" />
		<tag k="place" v="locality" />
		<tag k="ssr:stedsnr" v="294606" />
	</node>
	<node lat="58.79719444557083" lon="8.04205277271698" id="-35069">
		<tag k="name" v="Gymmyrdalen" />
		<tag k="natural" v="valley" />
		<tag k="place" v="locality" />
		<tag k="ssr:stedsnr" v="294608" />
	</node>
	<node lat="58.78861111001335" lon="8.015505558304813" id="-35070">
		<tag k="name" v="Revlia" />
		<tag k="natural" v="slope" />
		<tag k="place" v="locality" />
		<tag k="ssr:stedsnr" v="294611" />
	</node>
	<node lat="58.71572499596995" lon="8.309222227804398" id="-35071">
		<tag k="name" v="Nipedal" />
		<tag k="natural" v="valley" />
		<tag k="place" v="locality" />
		<tag k="ssr:stedsnr" v="294617" />
	</node>
	<node lat="58.79313611482995" lon="8.076994439022055" id="-35072">
		<tag k="name" v="Skrubbeskræne" />
		<tag k="natural" v="ridge" />
		<tag k="place" v="locality" />
		<tag k="ssr:stedsnr" v="294623" />
	</node>
	<node lat="58.9034861080122" lon="8.307319439620011" id="-35075">
		<tag k="fixme" v="consider natural=peak for the most distinct mountains in the district" />
		<tag k="name" v="Langemyrknatten" />
		<tag k="natural" v="hill" />
		<tag k="place" v="locality" />
		<tag k="ssr:stedsnr" v="294676" />
	</node>
	<node lat="58.84698611296397" lon="8.444711105785762" id="-35078">
		<tag k="name" v="Hudfjosa" />
		<tag k="place" v="locality" />
		<tag k="ssr:stedsnr" v="294681" />
	</node>
	<node lat="58.841697223753634" lon="8.238530557284474" id="-35079">
		<tag k="name" v="Bliket" />
		<tag k="natural" v="ridge" />
		<tag k="place" v="locality" />
		<tag k="ssr:stedsnr" v="294688" />
	</node>
	<node lat="58.745125000334106" lon="8.387652772905822" id="-35081">
		<tag k="name" v="Døynedalen" />
		<tag k="natural" v="valley" />
		<tag k="place" v="locality" />
		<tag k="ssr:stedsnr" v="294806" />
	</node>
	<node lat="58.89084444293171" lon="8.270422220056629" id="-35082">
		<tag k="name" v="Svenkhushaugane" />
		<tag k="natural" v="ridge" />
		<tag k="place" v="locality" />
		<tag k="ssr:stedsnr" v="294714" />
	</node>
	<node lat="58.78626110979956" lon="8.246463885217892" id="-35084">
		<tag k="name" v="Åsliane" />
		<tag k="natural" v="slope" />
		<tag k="place" v="locality" />
		<tag k="ssr:stedsnr" v="294772" />
	</node>
	<node lat="58.74013610936903" lon="8.197936108348292" id="-35086">
		<tag k="name" v="Sommerspranget" />
		<tag k="natural" v="valley" />
		<tag k="place" v="locality" />
		<tag k="ssr:stedsnr" v="294904" />
	</node>
	<node lat="58.954302777243534" lon="8.150833325296352" id="-35089">
		<tag k="name" v="Barlindkroa" />
		<tag k="natural" v="valley" />
		<tag k="place" v="locality" />
		<tag k="ssr:stedsnr" v="294994" />
	</node>
	<node lat="58.829661110075534" lon="8.333183327205505" id="-35091">
		<tag k="name" v="Botterliane" />
		<tag k="natural" v="slope" />
		<tag k="place" v="locality" />
		<tag k="ssr:stedsnr" v="462690" />
	</node>
	<node lat="58.88972222313304" lon="8.242572227391094" id="-35093">
		<tag k="name" v="Floja" />
		<tag k="natural" v="hill" />
		<tag k="place" v="locality" />
		<tag k="ssr:stedsnr" v="295725" />
	</node>
	<node lat="58.75082222045268" lon="8.161897220315879" id="-35095">
		<tag k="name" v="Hestfjellheia" />
		<tag k="natural" v="hill" />
		<tag k="place" v="locality" />
		<tag k="ssr:stedsnr" v="295921" />
	</node>
	<node lat="58.833277782166" lon="8.444222215394102" id="-35096">
		<tag k="name" v="Krofjellet" />
		<tag k="place" v="locality" />
		<tag k="ssr:stedsnr" v="463541" />
	</node>
	<node lat="58.837461111647144" lon="8.297652780858753" id="-35097">
		<tag k="name" v="Barlinddalane" />
		<tag k="natural" v="valley" />
		<tag k="place" v="locality" />
		<tag k="ssr:stedsnr" v="463636" />
	</node>
	<node lat="58.783608329370445" lon="8.188586116213772" id="-35103">
		<tag k="alt_name" v="Leifandalen" />
		<tag k="name" v="Leiffandalen" />
		<tag k="natural" v="valley" />
		<tag k="place" v="locality" />
		<tag k="ssr:stedsnr" v="304208" />
	</node>
	<node lat="58.78582221974242" lon="8.312399996038273" id="-35104">
		<tag k="alt_name" v="Storlikollane" />
		<tag k="fixme" v="consider natural=peak for the most distinct mountains in the district" />
		<tag k="name" v="Storlikollen" />
		<tag k="natural" v="hill" />
		<tag k="place" v="locality" />
		<tag k="ssr:stedsnr" v="304212" />
	</node>
	<node lat="58.67123333403351" lon="8.411630557194162" id="-35106">
		<tag k="alt_name" v="Lauvskogfjellet" />
		<tag k="fixme" v="consider natural=peak for the most distinct mountains in the district" />
		<tag k="name" v="Lauvskardfjellet" />
		<tag k="natural" v="hill" />
		<tag k="place" v="locality" />
		<tag k="ssr:stedsnr" v="304274" />
	</node>
	<node lat="58.68007500409034" lon="8.4361638848654" id="-35109">
		<tag k="name" v="Øvrestig" />
		<tag k="place" v="locality" />
		<tag k="ssr:stedsnr" v="304293" />
	</node>
	<node lat="58.68483333083981" lon="8.382852775771658" id="-35110">
		<tag k="alt_name" v="Lislehei" />
		<tag k="fixme" v="consider natural=peak for the most distinct mountains in the district" />
		<tag k="name" v="Lislhei" />
		<tag k="natural" v="hill" />
		<tag k="place" v="locality" />
		<tag k="ssr:stedsnr" v="304296" />
	</node>
	<node lat="58.774161111565256" lon="8.610086112615054" id="-35120">
		<tag k="name" v="Klemetshei" />
		<tag k="natural" v="hill" />
		<tag k="place" v="locality" />
		<tag k="ssr:stedsnr" v="304529" />
	</node>
	<node lat="58.795330554739486" lon="8.619730552553419" id="-35121">
		<tag k="alt_name" v="Kallarbergknuten" />
		<tag k="fixme" v="consider natural=peak for the most distinct mountains in the district" />
		<tag k="name" v="Kallabergknuten" />
		<tag k="natural" v="hill" />
		<tag k="place" v="locality" />
		<tag k="ssr:stedsnr" v="304572" />
	</node>
	<node lat="58.73280555411382" lon="8.283011110738505" id="-35124">
		<tag k="name" v="Åpål" />
		<tag k="place" v="locality" />
		<tag k="ssr:stedsnr" v="304472" />
	</node>
	<node lat="58.90811111563894" lon="8.566777785208169" id="-35126">
		<tag k="name" v="Årdalen" />
		<tag k="natural" v="valley" />
		<tag k="place" v="locality" />
		<tag k="ssr:stedsnr" v="304474" />
	</node>
	<node lat="58.73367500369853" lon="8.0308722143641" id="-35132">
		<tag k="name" v="Dypledalen" />
		<tag k="natural" v="valley" />
		<tag k="place" v="locality" />
		<tag k="ssr:stedsnr" v="304916" />
	</node>
	<node lat="59.24859999703415" lon="6.806783328633947" id="-35136">
		<tag k="name" v="Heiane" />
		<tag k="natural" v="mountain_range" />
		<tag k="ssr:stedsnr" v="326179" />
	</node>
	<node lat="58.63450277585865" lon="8.71725556259806" id="-35137">
		<tag k="name" v="Dalsfjell" />
		<tag k="natural" v="cliff" />
		<tag k="ssr:stedsnr" v="469799" />
	</node>
	<node lat="58.930224995843766" lon="8.233894439330022" id="-35138">
		<tag k="name" v="Ånebergkrona" />
		<tag k="natural" v="valley" />
		<tag k="place" v="locality" />
		<tag k="ssr:stedsnr" v="470298" />
	</node>
	<node lat="58.76246944331585" lon="8.624694438878684" id="-35141">
		<tag k="name" v="Mørkhusdalen" />
		<tag k="natural" v="valley" />
		<tag k="place" v="locality" />
		<tag k="ssr:stedsnr" v="335011" />
	</node>
	<node lat="58.856655556286334" lon="8.553844449750706" id="-35144">
		<tag k="fixme" v="consider natural=peak for the most distinct mountains in the district" />
		<tag k="name" v="Lislehei" />
		<tag k="natural" v="hill" />
		<tag k="place" v="locality" />
		<tag k="ssr:stedsnr" v="335048" />
	</node>
	<node lat="58.781991663673374" lon="8.499036105704851" id="-35146">
		<tag k="name" v="Hauglandsmoen" />
		<tag k="place" v="locality" />
		<tag k="ssr:stedsnr" v="335109" />
	</node>
	<node lat="58.76453333645342" lon="8.464913887530807" id="-35152">
		<tag k="name" v="Engenesmoen" />
		<tag k="place" v="locality" />
		<tag k="ssr:stedsnr" v="335214" />
	</node>
	<node lat="58.688163886235245" lon="8.493702786389413" id="-35155">
		<tag k="name" v="Eikelidalen" />
		<tag k="natural" v="valley" />
		<tag k="place" v="locality" />
		<tag k="ssr:stedsnr" v="335255" />
	</node>
	<node lat="58.864038885622236" lon="8.609799997456967" id="-35157">
		<tag k="name" v="Trengslet" />
		<tag k="natural" v="valley" />
		<tag k="place" v="locality" />
		<tag k="ssr:stedsnr" v="335145" />
	</node>
	<node lat="58.6995111117187" lon="8.70206667131935" id="-35158">
		<tag k="fixme" v="consider natural=peak for the most distinct mountains in the district" />
		<tag k="name" v="Øvre Venliheia" />
		<tag k="natural" v="hill" />
		<tag k="place" v="locality" />
		<tag k="ssr:stedsnr" v="335549" />
	</node>
	<node lat="58.67150000390119" lon="8.727538896999539" id="-35160">
		<tag k="name" v="Tjørrbruheia" />
		<tag k="natural" v="hill" />
		<tag k="place" v="locality" />
		<tag k="ssr:stedsnr" v="335559" />
	</node>
	<node lat="58.724797225203965" lon="8.447319442496758" id="-35165">
		<tag k="name" v="Klomra" />
		<tag k="natural" v="valley" />
		<tag k="place" v="locality" />
		<tag k="ssr:stedsnr" v="335647" />
	</node>
	<node lat="58.74404167065917" lon="8.489080548944585" id="-35168">
		<tag k="name" v="Tjareberget" />
		<tag k="natural" v="hill" />
		<tag k="place" v="locality" />
		<tag k="ssr:stedsnr" v="335656" />
	</node>
	<node lat="58.67478889270889" lon="8.669311110607342" id="-35171">
		<tag k="name" v="Bjelkedalen" />
		<tag k="natural" v="valley" />
		<tag k="place" v="locality" />
		<tag k="ssr:stedsnr" v="335805" />
	</node>
	<node lat="58.72356944654848" lon="8.612083335485766" id="-35172">
		<tag k="name" v="Kroktjønnheia" />
		<tag k="natural" v="hill" />
		<tag k="place" v="locality" />
		<tag k="ssr:stedsnr" v="335813" />
	</node>
	<node lat="58.69842777364754" lon="8.710433340145244" id="-35173">
		<tag k="name" v="Diplemyrdalen" />
		<tag k="natural" v="valley" />
		<tag k="place" v="locality" />
		<tag k="ssr:stedsnr" v="335817" />
	</node>
	<node lat="58.665769440263844" lon="8.646233333578206" id="-35178">
		<tag k="name" v="Smaltjønnheia" />
		<tag k="natural" v="hill" />
		<tag k="place" v="locality" />
		<tag k="ssr:stedsnr" v="336423" />
	</node>
	<node lat="58.727002775995956" lon="8.33091945110891" id="-35179">
		<tag k="name" v="Stutufs" />
		<tag k="natural" v="cliff" />
		<tag k="ssr:stedsnr" v="336448" />
	</node>
	<node lat="58.89490555720517" lon="8.12537778393127" id="-35181">
		<tag k="name" v="Gruntjønn-hommen" />
		<tag k="natural" v="valley" />
		<tag k="place" v="locality" />
		<tag k="ssr:stedsnr" v="340299" />
	</node>
	<node lat="58.90188333425845" lon="8.276352778624098" id="-35183">
		<tag k="fixme" v="consider natural=peak for the most distinct mountains in the district" />
		<tag k="name" v="Stedjeåsane" />
		<tag k="natural" v="hill" />
		<tag k="place" v="locality" />
		<tag k="ssr:stedsnr" v="340644" />
	</node>
	<node lat="58.87694444334702" lon="8.205091673519837" id="-35184">
		<tag k="name" v="Buskar" />
		<tag k="natural" v="valley" />
		<tag k="place" v="locality" />
		<tag k="ssr:stedsnr" v="341244" />
	</node>
	<node lat="58.8104750007349" lon="8.419405552079754" id="-35185">
		<tag k="name" v="Ørnedalen" />
		<tag k="natural" v="valley" />
		<tag k="place" v="locality" />
		<tag k="ssr:stedsnr" v="341452" />
	</node>
	<node lat="58.77191666868863" lon="8.284480557710937" id="-35187">
		<tag k="fixme" v="consider natural=peak for the most distinct mountains in the district" />
		<tag k="name" v="Lisle Tverrfjell" />
		<tag k="natural" v="hill" />
		<tag k="place" v="locality" />
		<tag k="ssr:stedsnr" v="536741" />
	</node>
	<node lat="58.6450583335105" lon="8.71831945124844" id="-35188">
		<tag k="fixme" v="consider natural=peak for the most distinct mountains in the district" />
		<tag k="name" v="Langmyråsen" />
		<tag k="natural" v="hill" />
		<tag k="place" v="locality" />
		<tag k="ssr:stedsnr" v="347811" />
	</node>
	<node lat="58.63905555502241" lon="8.727577786045343" id="-35189">
		<tag k="fixme" v="consider natural=peak for the most distinct mountains in the district" />
		<tag k="name" v="Tverråsen" />
		<tag k="natural" v="hill" />
		<tag k="place" v="locality" />
		<tag k="ssr:stedsnr" v="347812" />
	</node>
	<node lat="58.63738055570492" lon="8.745900006646409" id="-35191">
		<tag k="fixme" v="consider natural=peak for the most distinct mountains in the district" />
		<tag k="name" v="Skinnarknatten" />
		<tag k="natural" v="hill" />
		<tag k="place" v="locality" />
		<tag k="ssr:stedsnr" v="347823" />
	</node>
	<node lat="58.65728888972275" lon="8.738108340586852" id="-35192">
		<tag k="fixme" v="consider natural=peak for the most distinct mountains in the district" />
		<tag k="name" v="Osplundsheia" />
		<tag k="natural" v="hill" />
		<tag k="place" v="locality" />
		<tag k="ssr:stedsnr" v="347969" />
	</node>
	<node lat="58.921244441207605" lon="8.108008327657384" id="-35193">
		<tag k="name" v="Øygardslia" />
		<tag k="natural" v="slope" />
		<tag k="place" v="locality" />
		<tag k="ssr:stedsnr" v="348309" />
	</node>
	<node lat="58.867477781657" lon="8.044280560059669" id="-35195">
		<tag k="name" v="Øygardslia" />
		<tag k="natural" v="slope" />
		<tag k="place" v="locality" />
		<tag k="ssr:stedsnr" v="474034" />
	</node>
	<node lat="58.928130554932416" lon="8.000669447358462" id="-35197">
		<tag k="name" v="Videstøylheii" />
		<tag k="natural" v="hill" />
		<tag k="place" v="locality" />
		<tag k="ssr:stedsnr" v="474134" />
	</node>
	<node lat="58.9032083299118" lon="8.002908332947952" id="-35198">
		<tag k="name" v="Stuvestøylheia" />
		<tag k="natural" v="hill" />
		<tag k="place" v="locality" />
		<tag k="ssr:stedsnr" v="474212" />
	</node>
	<node lat="58.85748055711322" lon="8.117863881839092" id="-35200">
		<tag k="name" v="Røyrtveitskollen" />
		<tag k="natural" v="ridge" />
		<tag k="place" v="locality" />
		<tag k="ssr:stedsnr" v="352505" />
	</node>
	<node lat="58.864599995851805" lon="8.139663896859743" id="-35201">
		<tag k="name" v="Skorvin" />
		<tag k="natural" v="hill" />
		<tag k="place" v="locality" />
		<tag k="ssr:stedsnr" v="353007" />
	</node>
	<node lat="58.863113884618535" lon="8.04132500115158" id="-35203">
		<tag k="name" v="Gunsteinsdal" />
		<tag k="natural" v="valley" />
		<tag k="place" v="locality" />
		<tag k="ssr:stedsnr" v="353011" />
	</node>
	<node lat="58.86571111409558" lon="8.038749996283563" id="-35204">
		<tag k="name" v="Øyktedagsknuten" />
		<tag k="natural" v="hill" />
		<tag k="place" v="locality" />
		<tag k="ssr:stedsnr" v="353012" />
	</node>
	<node lat="58.864252781849814" lon="8.053513886343884" id="-35205">
		<tag k="alt_name" v="Svåbassfjella" />
		<tag k="name" v="Svåbasfjella" />
		<tag k="natural" v="hill" />
		<tag k="place" v="locality" />
		<tag k="ssr:stedsnr" v="353015" />
	</node>
	<node lat="58.8799611156309" lon="8.050258340133714" id="-35207">
		<tag k="name" v="Bjønntobakken" />
		<tag k="natural" v="slope" />
		<tag k="place" v="locality" />
		<tag k="ssr:stedsnr" v="353065" />
	</node>
	<node lat="58.849313890516235" lon="8.057105562364189" id="-35212">
		<tag k="name" v="Sakseknuten" />
		<tag k="natural" v="hill" />
		<tag k="place" v="locality" />
		<tag k="ssr:stedsnr" v="353120" />
	</node>
	<node lat="58.947700003728066" lon="8.021575004401573" id="-35215">
		<tag k="fixme" v="consider natural=peak for the most distinct mountains in the district" />
		<tag k="name" v="Grunntjønnåsen" />
		<tag k="natural" v="hill" />
		<tag k="place" v="locality" />
		<tag k="ssr:stedsnr" v="353161" />
	</node>
	<node lat="58.94944722347927" lon="8.060872227668195" id="-35216">
		<tag k="name" v="Brudle" />
		<tag k="natural" v="slope" />
		<tag k="place" v="locality" />
		<tag k="ssr:stedsnr" v="353166" />
	</node>
	<node lat="58.84948055272906" lon="8.113352779879046" id="-35217">
		<tag k="name" v="Hjuringlihuset" />
		<tag k="place" v="locality" />
		<tag k="ssr:stedsnr" v="353564" />
	</node>
	<node lat="58.79127777336877" lon="8.45617221628058" id="-35219">
		<tag k="name" v="Åsbaklia" />
		<tag k="natural" v="slope" />
		<tag k="place" v="locality" />
		<tag k="ssr:stedsnr" v="354101" />
	</node>
	<node lat="58.896347218548506" lon="8.441444436270157" id="-35221">
		<tag k="name" v="Telehommen" />
		<tag k="natural" v="valley" />
		<tag k="place" v="locality" />
		<tag k="ssr:stedsnr" v="354210" />
	</node>
	<node lat="58.786830553523245" lon="8.017738893014211" id="-35224">
		<tag k="name" v="Kvilestadheia" />
		<tag k="natural" v="hill" />
		<tag k="place" v="locality" />
		<tag k="ssr:stedsnr" v="354604" />
	</node>
	<node lat="58.790191664781425" lon="8.03191944923752" id="-35226">
		<tag k="name" v="Heddebakkdalen" />
		<tag k="natural" v="valley" />
		<tag k="place" v="locality" />
		<tag k="ssr:stedsnr" v="354609" />
	</node>
	<node lat="58.79676388495975" lon="8.096091659137848" id="-35227">
		<tag k="name" v="Flæone" />
		<tag k="natural" v="ridge" />
		<tag k="place" v="locality" />
		<tag k="ssr:stedsnr" v="354612" />
	</node>
	<node lat="58.78973611528261" lon="8.09641111439263" id="-35228">
		<tag k="name" v="Smøldalen" />
		<tag k="natural" v="valley" />
		<tag k="place" v="locality" />
		<tag k="ssr:stedsnr" v="354614" />
	</node>
	<node lat="58.805888887695836" lon="8.240466670487256" id="-35230">
		<tag k="name" v="Stavekleiv" />
		<tag k="natural" v="slope" />
		<tag k="place" v="locality" />
		<tag k="ssr:stedsnr" v="354636" />
	</node>
	<node lat="58.78739166552501" lon="7.983474998719948" id="-35231">
		<tag k="name" v="Elgston" />
		<tag k="place" v="locality" />
		<tag k="ssr:stedsnr" v="354654" />
	</node>
	<node lat="58.87458055734953" lon="8.429986117810524" id="-35234">
		<tag k="name" v="Reismyrliheia" />
		<tag k="natural" v="hill" />
		<tag k="place" v="locality" />
		<tag k="ssr:stedsnr" v="354400" />
	</node>
	<node lat="58.846677778687386" lon="8.295186108638442" id="-35237">
		<tag k="name" v="Deildedalsbakkane" />
		<tag k="natural" v="slope" />
		<tag k="place" v="locality" />
		<tag k="ssr:stedsnr" v="354703" />
	</node>
	<node lat="58.81001111213322" lon="8.091172221341587" id="-35239">
		<tag k="name" v="Veirstøyl" />
		<tag k="natural" v="slope" />
		<tag k="place" v="locality" />
		<tag k="ssr:stedsnr" v="354718" />
	</node>
	<node lat="58.80779444043502" lon="8.023986112828306" id="-35240">
		<tag k="fixme" v="consider natural=peak for the most distinct mountains in the district" />
		<tag k="name" v="Igletjønnknuten" />
		<tag k="natural" v="hill" />
		<tag k="place" v="locality" />
		<tag k="ssr:stedsnr" v="354724" />
	</node>
	<node lat="58.880080553769304" lon="8.235833336773581" id="-35242">
		<tag k="name" v="Fanteflåta" />
		<tag k="place" v="locality" />
		<tag k="ssr:stedsnr" v="355010" />
	</node>
	<node lat="58.87818888761296" lon="8.22290833269277" id="-35243">
		<tag k="name" v="Tuskeli" />
		<tag k="natural" v="slope" />
		<tag k="place" v="locality" />
		<tag k="ssr:stedsnr" v="355016" />
	</node>
	<node lat="58.880374998791574" lon="8.220244445863347" id="-35244">
		<tag k="name" v="Honsefo" />
		<tag k="natural" v="ridge" />
		<tag k="place" v="locality" />
		<tag k="ssr:stedsnr" v="355018" />
	</node>
	<node lat="58.86676944031931" lon="8.221974994000956" id="-35245">
		<tag k="name" v="Grønli" />
		<tag k="natural" v="slope" />
		<tag k="place" v="locality" />
		<tag k="ssr:stedsnr" v="355020" />
	</node>
	<node lat="58.778486110349526" lon="8.238630555745281" id="-35246">
		<tag k="name" v="Rone" />
		<tag k="natural" v="valley" />
		<tag k="place" v="locality" />
		<tag k="ssr:stedsnr" v="354777" />
	</node>
	<node lat="58.74170277941127" lon="8.195355560488563" id="-35247">
		<tag k="name" v="Vinterspranget" />
		<tag k="natural" v="valley" />
		<tag k="place" v="locality" />
		<tag k="ssr:stedsnr" v="354903" />
	</node>
	<node lat="58.89213611525681" lon="8.171016663977575" id="-35248">
		<tag k="name" v="Grønli" />
		<tag k="natural" v="slope" />
		<tag k="place" v="locality" />
		<tag k="ssr:stedsnr" v="355300" />
	</node>
	<node lat="58.898772225442926" lon="8.251850001910107" id="-35249">
		<tag k="name" v="Åsbakk" />
		<tag k="natural" v="ridge" />
		<tag k="place" v="locality" />
		<tag k="ssr:stedsnr" v="355726" />
	</node>
	<node lat="58.84317500379129" lon="8.172933339354623" id="-35251">
		<tag k="name" v="Kruslarsli" />
		<tag k="natural" v="slope" />
		<tag k="place" v="locality" />
		<tag k="ssr:stedsnr" v="474988" />
	</node>
	<node lat="58.85793611460697" lon="8.173811119223677" id="-35253">
		<tag k="name" v="Kråketjønnlia" />
		<tag k="natural" v="slope" />
		<tag k="place" v="locality" />
		<tag k="ssr:stedsnr" v="474940" />
	</node>
	<node lat="58.74311666970963" lon="8.263566660453352" id="-35254">
		<tag k="name" v="Yste Monen" />
		<tag k="place" v="locality" />
		<tag k="ssr:stedsnr" v="475052" />
	</node>
	<node lat="58.74691944231627" lon="8.318305555815689" id="-35257">
		<tag k="name" v="Grimelidalen" />
		<tag k="natural" v="valley" />
		<tag k="place" v="locality" />
		<tag k="ssr:stedsnr" v="475350" />
	</node>
	<node lat="58.7629611086085" lon="8.184161105039854" id="-35258">
		<tag k="name" v="Lisle Urdvasshei" />
		<tag k="natural" v="hill" />
		<tag k="place" v="locality" />
		<tag k="ssr:stedsnr" v="475363" />
	</node>
	<node lat="58.778888886671446" lon="8.280033340543184" id="-35259">
		<tag k="name" v="Fylgja" />
		<tag k="natural" v="hill" />
		<tag k="place" v="locality" />
		<tag k="ssr:stedsnr" v="475744" />
	</node>
	<node lat="58.83055555503371" lon="8.237333328983908" id="-35261">
		<tag k="name" v="Klova" />
		<tag k="natural" v="valley" />
		<tag k="place" v="locality" />
		<tag k="ssr:stedsnr" v="475671" />
	</node>
	<node lat="58.799341664053784" lon="8.042222214390447" id="-35262">
		<tag k="fixme" v="consider natural=peak for the most distinct mountains in the district" />
		<tag k="name" v="Gymmyråsen" />
		<tag k="natural" v="hill" />
		<tag k="place" v="locality" />
		<tag k="ssr:stedsnr" v="475692" />
	</node>
	<node lat="58.798811108667095" lon="8.028455552436592" id="-35263">
		<tag k="name" v="Bitmyrbrota" />
		<tag k="natural" v="slope" />
		<tag k="place" v="locality" />
		<tag k="ssr:stedsnr" v="475694" />
	</node>
	<node lat="58.709844448668804" lon="8.273002780462052" id="-35264">
		<tag k="name" v="Sagfjellet" />
		<tag k="natural" v="hill" />
		<tag k="place" v="locality" />
		<tag k="ssr:stedsnr" v="476587" />
	</node>
	<node lat="58.7621749983775" lon="8.077219450332354" id="-35266">
		<tag k="name" v="Kvennhusdalen" />
		<tag k="natural" v="valley" />
		<tag k="place" v="locality" />
		<tag k="ssr:stedsnr" v="475967" />
	</node>
	<node lat="58.76267499952082" lon="8.076194452101884" id="-35267">
		<tag k="name" v="Høgemyrfjellet" />
		<tag k="natural" v="cliff" />
		<tag k="ssr:stedsnr" v="475968" />
	</node>
	<node lat="58.75659444626866" lon="8.083263885843037" id="-35268">
		<tag k="name" v="Rughagen" />
		<tag k="natural" v="slope" />
		<tag k="place" v="locality" />
		<tag k="ssr:stedsnr" v="475971" />
	</node>
	<node lat="58.95724166533104" lon="8.178147224940545" id="-35270">
		<tag k="name" v="Fosse" />
		<tag k="place" v="locality" />
		<tag k="ssr:stedsnr" v="475975" />
	</node>
	<node lat="58.74126389245992" lon="8.269891665617575" id="-35271">
		<tag k="name" v="Unnusfit" />
		<tag k="place" v="locality" />
		<tag k="ssr:stedsnr" v="476004" />
	</node>
	<node lat="58.87708055928591" lon="8.234374996973921" id="-35272">
		<tag k="name" v="Juvet" />
		<tag k="natural" v="gorge" />
		<tag k="ssr:stedsnr" v="476007" />
	</node>
	<node lat="58.871327779598396" lon="8.319633332408625" id="-35273">
		<tag k="name" v="Uvitsdalen" />
		<tag k="natural" v="valley" />
		<tag k="place" v="locality" />
		<tag k="ssr:stedsnr" v="476092" />
	</node>
	<node lat="58.79563333220235" lon="8.467527782197173" id="-35275">
		<tag k="name" v="Hismodalen" />
		<tag k="natural" v="valley" />
		<tag k="place" v="locality" />
		<tag k="ssr:stedsnr" v="476132" />
	</node>
	<node lat="58.74586944361341" lon="8.031594441572638" id="-35277">
		<tag k="name" v="Valusdal" />
		<tag k="natural" v="valley" />
		<tag k="place" v="locality" />
		<tag k="ssr:stedsnr" v="475853" />
	</node>
	<node lat="58.74483055667499" lon="8.007200006877344" id="-35278">
		<tag k="fixme" v="consider natural=peak for the most distinct mountains in the district" />
		<tag k="name" v="Sollipallen" />
		<tag k="natural" v="hill" />
		<tag k="place" v="locality" />
		<tag k="ssr:stedsnr" v="475856" />
	</node>
	<node lat="58.9621194461288" lon="8.19873055075596" id="-35279">
		<tag k="name" v="Tjovfjellkvæven" />
		<tag k="natural" v="valley" />
		<tag k="place" v="locality" />
		<tag k="ssr:stedsnr" v="475950" />
	</node>
	<node lat="58.88335833700904" lon="8.222555554473544" id="-35280">
		<tag k="name" v="Osterull" />
		<tag k="natural" v="hill" />
		<tag k="place" v="locality" />
		<tag k="ssr:stedsnr" v="476018" />
	</node>
	<node lat="58.73961388745513" lon="8.185108325384169" id="-35281">
		<tag k="name" v="Lonedalen" />
		<tag k="natural" v="valley" />
		<tag k="place" v="locality" />
		<tag k="ssr:stedsnr" v="476026" />
	</node>
	<node lat="58.76227499707941" lon="8.13574721773113" id="-35282">
		<tag k="name" v="Tyskehola" />
		<tag k="natural" v="valley" />
		<tag k="place" v="locality" />
		<tag k="ssr:stedsnr" v="476191" />
	</node>
	<node lat="58.76657222225097" lon="8.15256388986305" id="-35283">
		<tag k="name" v="Stavtjønnbrotet" />
		<tag k="natural" v="slope" />
		<tag k="place" v="locality" />
		<tag k="ssr:stedsnr" v="476193" />
	</node>
	<node lat="58.8853861084165" lon="8.402877780637725" id="-35285">
		<tag k="name" v="Reismyrhenkane" />
		<tag k="natural" v="slope" />
		<tag k="place" v="locality" />
		<tag k="ssr:stedsnr" v="476200" />
	</node>
	<node lat="58.85272222260655" lon="8.263638888201356" id="-35286">
		<tag k="name" v="Nystøyldalen" />
		<tag k="natural" v="valley" />
		<tag k="place" v="locality" />
		<tag k="ssr:stedsnr" v="476354" />
	</node>
	<node lat="58.7720777745585" lon="8.247647220315534" id="-35289">
		<tag k="name" v="Stigan" />
		<tag k="natural" v="slope" />
		<tag k="place" v="locality" />
		<tag k="ssr:stedsnr" v="476385" />
	</node>
	<node lat="58.761405552313605" lon="8.265677786305451" id="-35291">
		<tag k="name" v="Lyarfjell" />
		<tag k="place" v="locality" />
		<tag k="ssr:stedsnr" v="476393" />
	</node>
	<node lat="58.76556666320515" lon="8.244613896177148" id="-35292">
		<tag k="name" v="Danseplassen" />
		<tag k="place" v="locality" />
		<tag k="ssr:stedsnr" v="476395" />
	</node>
	<node lat="58.71426389057942" lon="8.224616659040827" id="-35295">
		<tag k="name" v="Svårtebergkrona" />
		<tag k="natural" v="valley" />
		<tag k="place" v="locality" />
		<tag k="ssr:stedsnr" v="476491" />
	</node>
	<node lat="58.72860833165678" lon="8.222961109127153" id="-35296">
		<tag k="name" v="Bjorstemmane" />
		<tag k="natural" v="valley" />
		<tag k="place" v="locality" />
		<tag k="ssr:stedsnr" v="476514" />
	</node>
	<node lat="58.719716664555435" lon="8.279441671168074" id="-35297">
		<tag k="name" v="Austheia" />
		<tag k="natural" v="hill" />
		<tag k="place" v="locality" />
		<tag k="ssr:stedsnr" v="476521" />
	</node>
	<node lat="58.832886112231485" lon="8.413002769346054" id="-35298">
		<tag k="name" v="Eikeflatane" />
		<tag k="place" v="locality" />
		<tag k="ssr:stedsnr" v="476535" />
	</node>
	<node lat="58.73118611211644" lon="8.150008326345798" id="-35299">
		<tag k="name" v="Leggedalsfjellet" />
		<tag k="natural" v="cliff" />
		<tag k="ssr:stedsnr" v="476547" />
	</node>
	<node lat="58.79147777958959" lon="7.998577772909258" id="-35300">
		<tag k="name" v="Krokane" />
		<tag k="place" v="locality" />
		<tag k="ssr:stedsnr" v="476553" />
	</node>
	<node lat="58.85871110724123" lon="8.358488883370214" id="-35301">
		<tag k="name" v="Ormetjønnlia" />
		<tag k="natural" v="slope" />
		<tag k="place" v="locality" />
		<tag k="ssr:stedsnr" v="476687" />
	</node>
	<node lat="58.891266667052946" lon="8.243208335158615" id="-35302">
		<tag k="name" v="Deildedalen" />
		<tag k="natural" v="valley" />
		<tag k="place" v="locality" />
		<tag k="ssr:stedsnr" v="476696" />
	</node>
	<node lat="58.885650001243334" lon="8.230624998099257" id="-35303">
		<tag k="name" v="Nestefjelldalen" />
		<tag k="natural" v="valley" />
		<tag k="place" v="locality" />
		<tag k="ssr:stedsnr" v="476700" />
	</node>
	<node lat="58.84696388771984" lon="8.395672219608992" id="-35306">
		<tag k="name" v="Glesberga" />
		<tag k="place" v="locality" />
		<tag k="ssr:stedsnr" v="476643" />
	</node>
	<node lat="58.90323611416882" lon="8.223377776710954" id="-35308">
		<tag k="name" v="Austalia" />
		<tag k="natural" v="slope" />
		<tag k="place" v="locality" />
		<tag k="ssr:stedsnr" v="476733" />
	</node>
	<node lat="58.96693888983545" lon="8.108700006338317" id="-35309">
		<tag k="name" v="Bjønnsteinsli" />
		<tag k="natural" v="slope" />
		<tag k="place" v="locality" />
		<tag k="ssr:stedsnr" v="476889" />
	</node>
	<node lat="58.97224444321957" lon="8.174527779757781" id="-35312">
		<tag k="name" v="Kvæven" />
		<tag k="natural" v="valley" />
		<tag k="place" v="locality" />
		<tag k="ssr:stedsnr" v="476898" />
	</node>
	<node lat="58.95036110919459" lon="8.160086116552716" id="-35313">
		<tag k="name" v="Rukkeågrunnen" />
		<tag k="place" v="locality" />
		<tag k="ssr:stedsnr" v="476992" />
	</node>
	<node lat="58.94907221945867" lon="8.153094440624596" id="-35315">
		<tag k="name" v="Pisilmonen" />
		<tag k="place" v="locality" />
		<tag k="ssr:stedsnr" v="476994" />
	</node>
	<node lat="58.85690000238774" lon="8.290380551062073" id="-35317">
		<tag k="name" v="Løyta" />
		<tag k="natural" v="valley" />
		<tag k="place" v="locality" />
		<tag k="ssr:stedsnr" v="364103" />
	</node>
	<node lat="58.79676111307344" lon="8.212813883812553" id="-35318">
		<tag k="alt_name" v="Øverramsnapen" />
		<tag k="fixme" v="consider natural=peak for the most distinct mountains in the district" />
		<tag k="name" v="Napen" />
		<tag k="natural" v="hill" />
		<tag k="place" v="locality" />
		<tag k="ssr:stedsnr" v="364152" />
	</node>
	<node lat="58.800230551130596" lon="8.19726111117826" id="-35319">
		<tag k="alt_name" v="Ytrehommen" />
		<tag k="name" v="Ytrehom" />
		<tag k="natural" v="slope" />
		<tag k="place" v="locality" />
		<tag k="ssr:stedsnr" v="364155" />
	</node>
	<node lat="58.79909444775996" lon="8.391419440327935" id="-35322">
		<tag k="fixme" v="consider natural=peak for the most distinct mountains in the district" />
		<tag k="name" v="Gaupnasen" />
		<tag k="natural" v="hill" />
		<tag k="place" v="locality" />
		<tag k="ssr:stedsnr" v="364163" />
	</node>
	<node lat="58.79625000129779" lon="8.167488882944587" id="-35323">
		<tag k="name" v="Ørnefjell" />
		<tag k="natural" v="hill" />
		<tag k="place" v="locality" />
		<tag k="ssr:stedsnr" v="364169" />
	</node>
	<node lat="58.863627779852195" lon="8.118952769480842" id="-35340">
		<tag k="name" v="Tippen" />
		<tag k="natural" v="hill" />
		<tag k="place" v="locality" />
		<tag k="ssr:stedsnr" v="365021" />
	</node>
	<node lat="58.76503056006016" lon="8.579119441822286" id="-35344">
		<tag k="name" v="Bjørndalen" />
		<tag k="natural" v="valley" />
		<tag k="place" v="locality" />
		<tag k="ssr:stedsnr" v="365194" />
	</node>
	<node lat="58.7546611108724" lon="8.191758325806083" id="-35347">
		<tag k="alt_name" v="Halvorsdalen" />
		<tag k="name" v="Halvorsdal" />
		<tag k="natural" v="valley" />
		<tag k="place" v="locality" />
		<tag k="ssr:stedsnr" v="365322" />
	</node>
	<node lat="58.83391666916273" lon="8.188280552125349" id="-35348">
		<tag k="fixme" v="consider natural=peak for the most distinct mountains in the district" />
		<tag k="name" v="Storliheia" />
		<tag k="natural" v="hill" />
		<tag k="place" v="locality" />
		<tag k="ssr:stedsnr" v="365090" />
	</node>
	<node lat="58.806055558460265" lon="8.622502770701464" id="-35351">
		<tag k="alt_name" v="Olavsli" />
		<tag k="name" v="Olaslia" />
		<tag k="natural" v="slope" />
		<tag k="place" v="locality" />
		<tag k="ssr:stedsnr" v="365587" />
	</node>
	<node lat="58.70976193440531" lon="8.066276500578423" id="-35352">
		<tag k="fixme" v="consider natural=peak for the most distinct mountains in the district" />
		<tag k="name" v="Kjøvaldslifjellet" />
		<tag k="natural" v="hill" />
		<tag k="place" v="locality" />
		<tag k="ssr:stedsnr" v="365590" />
	</node>
	<node lat="58.902461110311904" lon="8.600591674014979" id="-35354">
		<tag k="alt_name" v="Vågsdalsfjell" />
		<tag k="fixme" v="consider natural=peak for the most distinct mountains in the district" />
		<tag k="name" v="Vågsdalsfjellet" />
		<tag k="natural" v="hill" />
		<tag k="place" v="locality" />
		<tag k="ssr:stedsnr" v="365492" />
	</node>
	<node lat="58.830394446237975" lon="8.54216110356531" id="-35356">
		<tag k="name" v="Flatemo" />
		<tag k="place" v="locality" />
		<tag k="ssr:stedsnr" v="365650" />
	</node>
	<node lat="58.87767222169838" lon="8.043016674534263" id="-35359">
		<tag k="alt_name" v="Lisleheii" />
		<tag k="fixme" v="consider natural=peak for the most distinct mountains in the district" />
		<tag k="name" v="Lislehei" />
		<tag k="natural" v="hill" />
		<tag k="place" v="locality" />
		<tag k="ssr:stedsnr" v="365742" />
	</node>
	<node lat="58.91879722615814" lon="8.542794441078673" id="-35366">
		<tag k="name" v="Nipen" />
		<tag k="natural" v="hill" />
		<tag k="place" v="locality" />
		<tag k="ssr:stedsnr" v="395006" />
	</node>
	<node lat="58.85148333525693" lon="8.62040000510976" id="-35369">
		<tag k="name" v="Berliskotet" />
		<tag k="natural" v="slope" />
		<tag k="place" v="locality" />
		<tag k="ssr:stedsnr" v="395087" />
	</node>
	<node lat="58.67174444847951" lon="8.567536112632226" id="-35370">
		<tag k="name" v="Hasseldalen" />
		<tag k="natural" v="valley" />
		<tag k="place" v="locality" />
		<tag k="ssr:stedsnr" v="395202" />
	</node>
	<node lat="58.73211666732329" lon="8.599641661178273" id="-35371">
		<tag k="name" v="Venli" />
		<tag k="natural" v="slope" />
		<tag k="place" v="locality" />
		<tag k="ssr:stedsnr" v="395205" />
	</node>
	<node lat="58.75583889046222" lon="8.485949991749385" id="-35372">
		<tag k="name" v="Vardalen" />
		<tag k="natural" v="valley" />
		<tag k="place" v="locality" />
		<tag k="ssr:stedsnr" v="395235" />
	</node>
	<node lat="58.775997224374784" lon="8.588074996904513" id="-35375">
		<tag k="fixme" v="consider natural=peak for the most distinct mountains in the district" />
		<tag k="name" v="Knutane" />
		<tag k="natural" v="hill" />
		<tag k="place" v="locality" />
		<tag k="ssr:stedsnr" v="395405" />
	</node>
	<node lat="58.85797222069987" lon="8.682191658177151" id="-35380">
		<tag k="name" v="Breisåslia" />
		<tag k="natural" v="slope" />
		<tag k="place" v="locality" />
		<tag k="ssr:stedsnr" v="395193" />
	</node>
	<node lat="58.69463888700873" lon="8.40720834191818" id="-35382">
		<tag k="name" v="Dalane" />
		<tag k="natural" v="valley" />
		<tag k="place" v="locality" />
		<tag k="ssr:stedsnr" v="395336" />
	</node>
	<node lat="58.76480555244836" lon="8.563238890454956" id="-35383">
		<tag k="name" v="Eikli" />
		<tag k="natural" v="slope" />
		<tag k="place" v="locality" />
		<tag k="ssr:stedsnr" v="395379" />
	</node>
	<node lat="58.81703055902964" lon="8.568241671401552" id="-35385">
		<tag k="name" v="Lambedalen" />
		<tag k="natural" v="valley" />
		<tag k="place" v="locality" />
		<tag k="ssr:stedsnr" v="395503" />
	</node>
	<node lat="58.700594447346106" lon="8.717605550720064" id="-35389">
		<tag k="name" v="Lommansdalen" />
		<tag k="natural" v="valley" />
		<tag k="place" v="locality" />
		<tag k="ssr:stedsnr" v="395804" />
	</node>
	<node lat="58.672030553626634" lon="8.725916669714172" id="-35390">
		<tag k="name" v="Barlinddalen" />
		<tag k="natural" v="valley" />
		<tag k="place" v="locality" />
		<tag k="ssr:stedsnr" v="395807" />
	</node>
	<node lat="58.68077222254779" lon="8.406724996507059" id="-35391">
		<tag k="name" v="Tereli" />
		<tag k="natural" v="slope" />
		<tag k="place" v="locality" />
		<tag k="ssr:stedsnr" v="396210" />
	</node>
	<node lat="58.69318888976843" lon="8.368261105465953" id="-35394">
		<tag k="name" v="Ospelia" />
		<tag k="natural" v="slope" />
		<tag k="place" v="locality" />
		<tag k="ssr:stedsnr" v="396394" />
	</node>
	<node lat="58.666380557523766" lon="8.628055559759193" id="-35395">
		<tag k="name" v="Hushovdliane" />
		<tag k="natural" v="slope" />
		<tag k="place" v="locality" />
		<tag k="ssr:stedsnr" v="396399" />
	</node>
	<node lat="58.660883332094166" lon="8.646649998971842" id="-35401">
		<tag k="name" v="Dikesmyrliene" />
		<tag k="natural" v="slope" />
		<tag k="place" v="locality" />
		<tag k="ssr:stedsnr" v="396410" />
	</node>
	<node lat="58.71972500374534" lon="8.346886112492893" id="-35403">
		<tag k="fixme" v="consider natural=peak for the most distinct mountains in the district" />
		<tag k="name" v="Jøtefjell" />
		<tag k="natural" v="hill" />
		<tag k="place" v="locality" />
		<tag k="ssr:stedsnr" v="396481" />
	</node>
	<node lat="58.65949722002897" lon="8.702205548032007" id="-35404">
		<tag k="name" v="Torsbakkane" />
		<tag k="natural" v="slope" />
		<tag k="place" v="locality" />
		<tag k="ssr:stedsnr" v="396485" />
	</node>
	<node lat="58.64974444844393" lon="8.686702776341686" id="-35405">
		<tag k="fixme" v="consider natural=peak for the most distinct mountains in the district" />
		<tag k="name" v="Åslandsknatten" />
		<tag k="natural" v="hill" />
		<tag k="place" v="locality" />
		<tag k="ssr:stedsnr" v="396491" />
	</node>
	<node lat="58.656166669536184" lon="8.672497226657589" id="-35406">
		<tag k="fixme" v="consider natural=peak for the most distinct mountains in the district" />
		<tag k="name" v="Stutåsen" />
		<tag k="natural" v="hill" />
		<tag k="place" v="locality" />
		<tag k="ssr:stedsnr" v="396496" />
	</node>
	<node lat="58.657686108049106" lon="8.672938895106547" id="-35407">
		<tag k="name" v="Vesterbekkheia" />
		<tag k="natural" v="hill" />
		<tag k="place" v="locality" />
		<tag k="ssr:stedsnr" v="396497" />
	</node>
	<node lat="58.644216666667994" lon="8.701297215168797" id="-35408">
		<tag k="fixme" v="consider natural=peak for the most distinct mountains in the district" />
		<tag k="name" v="Lille Vardåsen" />
		<tag k="natural" v="hill" />
		<tag k="place" v="locality" />
		<tag k="ssr:stedsnr" v="396589" />
	</node>
	<node lat="58.824416665398346" lon="8.052749993204449" id="-35410">
		<tag k="name" v="Listøylheii" />
		<tag k="natural" v="hill" />
		<tag k="place" v="locality" />
		<tag k="ssr:stedsnr" v="546730" />
	</node>
	<node lat="58.78837222230854" lon="8.350024992361849" id="-35411">
		<tag k="name" v="Skåpet" />
		<tag k="place" v="locality" />
		<tag k="ssr:stedsnr" v="401375" />
	</node>
	<node lat="58.81472500290045" lon="8.45765555487985" id="-35413">
		<tag k="name" v="Kråkedalen" />
		<tag k="natural" v="valley" />
		<tag k="place" v="locality" />
		<tag k="ssr:stedsnr" v="402425" />
	</node>
	<node lat="58.806291666304105" lon="8.462569451152492" id="-35414">
		<tag k="name" v="Maurås" />
		<tag k="natural" v="ridge" />
		<tag k="place" v="locality" />
		<tag k="ssr:stedsnr" v="402429" />
	</node>
	<node lat="58.8048611071238" lon="8.451252785152258" id="-35415">
		<tag k="name" v="Olavsli" />
		<tag k="natural" v="slope" />
		<tag k="place" v="locality" />
		<tag k="ssr:stedsnr" v="402430" />
	</node>
	<node lat="58.83764167011042" lon="8.419741666743224" id="-35418">
		<tag k="name" v="Ekornlia" />
		<tag k="natural" v="slope" />
		<tag k="place" v="locality" />
		<tag k="ssr:stedsnr" v="402603" />
	</node>
	<node lat="58.77624999554198" lon="8.155166666473987" id="-35421">
		<tag k="fixme" v="consider natural=peak for the most distinct mountains in the district" />
		<tag k="name" v="Skredheia" />
		<tag k="natural" v="hill" />
		<tag k="place" v="locality" />
		<tag k="ssr:stedsnr" v="486245" />
	</node>
	<node lat="58.89229444823527" lon="8.254963891520937" id="-35426">
		<tag k="alt_name" v="Møyberget" />
		<tag k="fixme" v="consider natural=peak for the most distinct mountains in the district" />
		<tag k="name" v="Meiberga" />
		<tag k="natural" v="hill" />
		<tag k="place" v="locality" />
		<tag k="ssr:stedsnr" v="486029" />
	</node>
	<node lat="58.731838885884066" lon="8.610561113261133" id="-35430">
		<tag k="name" v="Uadalen" />
		<tag k="natural" v="valley" />
		<tag k="place" v="locality" />
		<tag k="ssr:stedsnr" v="486079" />
	</node>
	<node lat="58.859108333077025" lon="8.302552773278041" id="-35431">
		<tag k="fixme" v="consider natural=peak for the most distinct mountains in the district" />
		<tag k="name" v="Bråråsen" />
		<tag k="natural" v="hill" />
		<tag k="place" v="locality" />
		<tag k="ssr:stedsnr" v="486080" />
	</node>
	<node lat="58.85267499689712" lon="8.099744448399157" id="-35434">
		<tag k="fixme" v="consider natural=peak for the most distinct mountains in the district" />
		<tag k="name" v="Toskåfjell" />
		<tag k="natural" v="hill" />
		<tag k="place" v="locality" />
		<tag k="ssr:stedsnr" v="486086" />
	</node>
	<node lat="58.89567222474482" lon="8.26633056235891" id="-35436">
		<tag k="alt_name" v="Årdalsfjellet" />
		<tag k="fixme" v="consider natural=peak for the most distinct mountains in the district" />
		<tag k="name" v="Årdalsfjell" />
		<tag k="natural" v="hill" />
		<tag k="place" v="locality" />
		<tag k="ssr:stedsnr" v="486039" />
	</node>
	<node lat="58.899333331262994" lon="8.41743889153419" id="-35437">
		<tag k="alt_name" v="Uvdal" />
		<tag k="name" v="Uvdalen" />
		<tag k="natural" v="valley" />
		<tag k="place" v="locality" />
		<tag k="ssr:stedsnr" v="486049" />
	</node>
	<node lat="58.89455555575852" lon="8.324494444963191" id="-35438">
		<tag k="fixme" v="consider natural=peak for the most distinct mountains in the district" />
		<tag k="name" v="Sløkeliknatten" />
		<tag k="natural" v="hill" />
		<tag k="place" v="locality" />
		<tag k="ssr:stedsnr" v="486051" />
	</node>
	<node lat="58.849077776465485" lon="8.186355560130334" id="-35441">
		<tag k="name" v="Jøsdalane" />
		<tag k="natural" v="valley" />
		<tag k="place" v="locality" />
		<tag k="ssr:stedsnr" v="486093" />
	</node>
	<node lat="58.81740555479177" lon="8.44641111794663" id="-35442">
		<tag k="name" v="Røysheidalen" />
		<tag k="natural" v="valley" />
		<tag k="place" v="locality" />
		<tag k="ssr:stedsnr" v="486160" />
	</node>
	<node lat="58.80992499915987" lon="8.121366663738128" id="-35443">
		<tag k="name" v="Hesten" />
		<tag k="natural" v="hill" />
		<tag k="place" v="locality" />
		<tag k="ssr:stedsnr" v="486164" />
	</node>
	<node lat="58.815747224213375" lon="8.36674722888951" id="-35444">
		<tag k="alt_name" v="Nofjell" />
		<tag k="fixme" v="consider natural=peak for the most distinct mountains in the district" />
		<tag k="name" v="Nofjellet" />
		<tag k="natural" v="hill" />
		<tag k="place" v="locality" />
		<tag k="ssr:stedsnr" v="486166" />
	</node>
	<node lat="58.77415000277256" lon="8.284438887757958" id="-35446">
		<tag k="alt_name" v="Ålmekrundalen" />
		<tag k="name" v="Ålmekrondalen" />
		<tag k="natural" v="valley" />
		<tag k="place" v="locality" />
		<tag k="ssr:stedsnr" v="486176" />
	</node>
	<node lat="58.77450555894873" lon="8.215255548343029" id="-35450">
		<tag k="fixme" v="consider natural=peak for the most distinct mountains in the district" />
		<tag k="name" v="Knutane" />
		<tag k="natural" v="hill" />
		<tag k="place" v="locality" />
		<tag k="ssr:stedsnr" v="486183" />
	</node>
	<node lat="58.65709444606675" lon="8.406869449397885" id="-35451">
		<tag k="fixme" v="consider natural=peak for the most distinct mountains in the district" />
		<tag k="name" v="Kråkeheia" />
		<tag k="natural" v="hill" />
		<tag k="place" v="locality" />
		<tag k="ssr:stedsnr" v="486292" />
	</node>
	<node lat="58.73973825795137" lon="8.152474492795516" id="-35461">
		<tag k="alt_name" v="Grasåsheii" />
		<tag k="fixme" v="consider natural=peak for the most distinct mountains in the district" />
		<tag k="name" v="Grasåshei" />
		<tag k="natural" v="hill" />
		<tag k="place" v="locality" />
		<tag k="ssr:stedsnr" v="486420" />
	</node>
	<node lat="58.74704444031631" lon="8.212505550622431" id="-35464">
		<tag k="name" v="Bjørneholet" />
		<tag k="natural" v="valley" />
		<tag k="place" v="locality" />
		<tag k="ssr:stedsnr" v="486431" />
	</node>
	<node lat="58.91186389273557" lon="8.046555548728385" id="-35473">
		<tag k="fixme" v="consider natural=peak for the most distinct mountains in the district" />
		<tag k="name" v="Drettheii" />
		<tag k="natural" v="hill" />
		<tag k="place" v="locality" />
		<tag k="ssr:stedsnr" v="486711" />
	</node>
	<node lat="58.848144444839775" lon="8.067269442423756" id="-35477">
		<tag k="alt_name" v="Buheii" />
		<tag k="fixme" v="consider natural=peak for the most distinct mountains in the district" />
		<tag k="name" v="Buheia" />
		<tag k="natural" v="hill" />
		<tag k="place" v="locality" />
		<tag k="ssr:stedsnr" v="486787" />
	</node>
	<node lat="58.91538333158594" lon="8.186333332877517" id="-35479">
		<tag k="name" v="Storheia" />
		<tag k="natural" v="hill" />
		<tag k="place" v="locality" />
		<tag k="ssr:stedsnr" v="409319" />
	</node>
	<node lat="58.849127780086555" lon="8.64860556152696" id="-35480">
		<tag k="name" v="Husdalsheia" />
		<tag k="natural" v="hill" />
		<tag k="place" v="locality" />
		<tag k="ssr:stedsnr" v="486748" />
	</node>
	<node lat="58.903611112050335" lon="8.20113334148643" id="-35481">
		<tag k="name" v="Sandvassdalen" />
		<tag k="natural" v="valley" />
		<tag k="place" v="locality" />
		<tag k="ssr:stedsnr" v="409301" />
	</node>
	<node lat="58.80943610845833" lon="8.011769448519328" id="-35483">
		<tag k="alt_name" v="Tveitliheii" />
		<tag k="fixme" v="consider natural=peak for the most distinct mountains in the district" />
		<tag k="name" v="Tveitliheia" />
		<tag k="natural" v="hill" />
		<tag k="place" v="locality" />
		<tag k="ssr:stedsnr" v="486801" />
	</node>
	<node lat="58.70160555943804" lon="8.511783329645974" id="-35486">
		<tag k="name" v="Juvdalen" />
		<tag k="natural" v="valley" />
		<tag k="place" v="locality" />
		<tag k="ssr:stedsnr" v="486897" />
	</node>
	<node lat="58.66227499624934" lon="8.707833337463352" id="-35490">
		<tag k="alt_name" v="Storøygardsåsen;Storøygardsås" />
		<tag k="fixme" v="consider natural=peak for the most distinct mountains in the district" />
		<tag k="name" v="Øygardsåsen" />
		<tag k="natural" v="hill" />
		<tag k="place" v="locality" />
		<tag k="ssr:stedsnr" v="486948" />
	</node>
	<node lat="58.91152500355877" lon="8.277155547487364" id="-35493">
		<tag k="name" v="Stolen" />
		<tag k="natural" v="hill" />
		<tag k="place" v="locality" />
		<tag k="ssr:stedsnr" v="486989" />
	</node>
	<node lat="58.92343610859373" lon="8.285877773903676" id="-35494">
		<tag k="fixme" v="consider natural=peak for the most distinct mountains in the district" />
		<tag k="name" v="Hælen" />
		<tag k="natural" v="hill" />
		<tag k="place" v="locality" />
		<tag k="ssr:stedsnr" v="486995" />
	</node>
	<node lat="58.88561666562209" lon="8.010994440974946" id="-35495">
		<tag k="name" v="Rjukangrøvane" />
		<tag k="natural" v="slope" />
		<tag k="place" v="locality" />
		<tag k="ssr:stedsnr" v="413207" />
	</node>
	<node lat="58.848461111815226" lon="8.030141667668229" id="-35497">
		<tag k="name" v="Svåbassdalen" />
		<tag k="natural" v="valley" />
		<tag k="place" v="locality" />
		<tag k="ssr:stedsnr" v="414107" />
	</node>
	<node lat="58.84577222494033" lon="8.076591673011416" id="-35500">
		<tag k="name" v="Vestenåfjellet" />
		<tag k="natural" v="cliff" />
		<tag k="ssr:stedsnr" v="414100" />
	</node>
	<node lat="58.80111389193294" lon="8.193883340282941" id="-35501">
		<tag k="name" v="Midtheia" />
		<tag k="natural" v="hill" />
		<tag k="place" v="locality" />
		<tag k="ssr:stedsnr" v="414271" />
	</node>
	<node lat="58.89913889007362" lon="8.4065250017073" id="-35502">
		<tag k="name" v="Espåsen" />
		<tag k="natural" v="hill" />
		<tag k="place" v="locality" />
		<tag k="ssr:stedsnr" v="414193" />
	</node>
	<node lat="58.70722222484409" lon="8.142444448228922" id="-35504">
		<tag k="fixme" v="consider natural=peak for the most distinct mountains in the district" />
		<tag k="name" v="Verefjella" />
		<tag k="natural" v="hill" />
		<tag k="place" v="locality" />
		<tag k="ssr:stedsnr" v="414641" />
	</node>
	<node lat="58.833897223820145" lon="8.113233328025004" id="-35505">
		<tag k="name" v="Hesledalsfjellet" />
		<tag k="natural" v="cliff" />
		<tag k="ssr:stedsnr" v="414642" />
	</node>
	<node lat="58.823027774774346" lon="8.132655559171901" id="-35506">
		<tag k="name" v="Øvre Horn" />
		<tag k="place" v="locality" />
		<tag k="ssr:stedsnr" v="414649" />
	</node>
	<node lat="58.77113889044126" lon="8.124013881246583" id="-35507">
		<tag k="name" v="Durfjell" />
		<tag k="natural" v="cliff" />
		<tag k="ssr:stedsnr" v="415004" />
	</node>
	<node lat="58.74711110839684" lon="8.263550001553062" id="-35508">
		<tag k="name" v="Vrettet" />
		<tag k="natural" v="ridge" />
		<tag k="place" v="locality" />
		<tag k="ssr:stedsnr" v="415009" />
	</node>
	<node lat="58.79237778002246" lon="8.463594445784985" id="-35509">
		<tag k="name" v="Nedre Åksledalen" />
		<tag k="natural" v="valley" />
		<tag k="place" v="locality" />
		<tag k="ssr:stedsnr" v="415085" />
	</node>
	<node lat="58.85323055406886" lon="8.19000554784071" id="-35510">
		<tag k="name" v="Finnekvæven" />
		<tag k="natural" v="valley" />
		<tag k="place" v="locality" />
		<tag k="ssr:stedsnr" v="414992" />
	</node>
	<node lat="58.78923056002857" lon="8.49397222669932" id="-35511">
		<tag k="name" v="Kalldalen" />
		<tag k="natural" v="valley" />
		<tag k="place" v="locality" />
		<tag k="ssr:stedsnr" v="415108" />
	</node>
	<node lat="58.78763055568108" lon="8.487655547616736" id="-35512">
		<tag k="name" v="Støyten" />
		<tag k="natural" v="ridge" />
		<tag k="place" v="locality" />
		<tag k="ssr:stedsnr" v="415111" />
	</node>
	<node lat="58.766719446541636" lon="8.13547222620647" id="-35513">
		<tag k="name" v="Ringtjønnfjellet" />
		<tag k="natural" v="hill" />
		<tag k="place" v="locality" />
		<tag k="ssr:stedsnr" v="415185" />
	</node>
	<node lat="58.75671944311212" lon="8.11505277705795" id="-35514">
		<tag k="name" v="Kvennhushaugane" />
		<tag k="natural" v="hill" />
		<tag k="place" v="locality" />
		<tag k="ssr:stedsnr" v="415195" />
	</node>
	<node lat="58.740652781476186" lon="8.370608330211995" id="-35517">
		<tag k="name" v="Svanetjønnlia" />
		<tag k="natural" v="slope" />
		<tag k="place" v="locality" />
		<tag k="ssr:stedsnr" v="415410" />
	</node>
	<node lat="58.78841389016613" lon="8.25183334107725" id="-35520">
		<tag k="name" v="Skreone" />
		<tag k="place" v="locality" />
		<tag k="ssr:stedsnr" v="415808" />
	</node>
	<node lat="58.842036110795185" lon="8.468466671171461" id="-35521">
		<tag k="name" v="Hisvassdalen" />
		<tag k="natural" v="valley" />
		<tag k="place" v="locality" />
		<tag k="ssr:stedsnr" v="415706" />
	</node>
	<node lat="58.857316662338235" lon="8.3459277833117" id="-35522">
		<tag k="name" v="Stigane" />
		<tag k="natural" v="slope" />
		<tag k="place" v="locality" />
		<tag k="ssr:stedsnr" v="415735" />
	</node>
	<node lat="58.85315277563979" lon="8.35121666286601" id="-35524">
		<tag k="name" v="Skjørsdalen" />
		<tag k="natural" v="valley" />
		<tag k="place" v="locality" />
		<tag k="ssr:stedsnr" v="415739" />
	</node>
	<node lat="58.85807777508321" lon="8.342408328855456" id="-35525">
		<tag k="name" v="Bakkane" />
		<tag k="natural" v="slope" />
		<tag k="place" v="locality" />
		<tag k="ssr:stedsnr" v="415741" />
	</node>
	<node lat="58.87763333051164" lon="8.239519440353117" id="-35531">
		<tag k="name" v="Nedre Nattegrov" />
		<tag k="natural" v="valley" />
		<tag k="place" v="locality" />
		<tag k="ssr:stedsnr" v="416006" />
	</node>
	<node lat="58.91785555982246" lon="8.290813890259349" id="-35532">
		<tag k="name" v="Dalen" />
		<tag k="natural" v="valley" />
		<tag k="place" v="locality" />
		<tag k="ssr:stedsnr" v="416244" />
	</node>
	<node lat="58.83106389270544" lon="8.390319440847477" id="-35534">
		<tag k="name" v="Hålsen" />
		<tag k="natural" v="valley" />
		<tag k="place" v="locality" />
		<tag k="ssr:stedsnr" v="416446" />
	</node>
	<node lat="58.88348889013154" lon="8.274816668196236" id="-35536">
		<tag k="fixme" v="consider natural=peak for the most distinct mountains in the district" />
		<tag k="name" v="Klevåsen" />
		<tag k="natural" v="hill" />
		<tag k="place" v="locality" />
		<tag k="ssr:stedsnr" v="416687" />
	</node>
	<node lat="58.88826666993644" lon="8.24988054798909" id="-35537">
		<tag k="name" v="Myrland" />
		<tag k="natural" v="slope" />
		<tag k="place" v="locality" />
		<tag k="ssr:stedsnr" v="416697" />
	</node>
	<node lat="58.74783055479346" lon="8.181797220214495" id="-35538">
		<tag k="name" v="Naddalen" />
		<tag k="natural" v="valley" />
		<tag k="place" v="locality" />
		<tag k="ssr:stedsnr" v="416857" />
	</node>
	<node lat="58.74399722381109" lon="8.136155562221552" id="-35540">
		<tag k="name" v="Kransåknatten" />
		<tag k="place" v="locality" />
		<tag k="ssr:stedsnr" v="416886" />
	</node>
	<node lat="58.93469444812067" lon="8.093747227946345" id="-35541">
		<tag k="name" v="Årli" />
		<tag k="natural" v="slope" />
		<tag k="place" v="locality" />
		<tag k="ssr:stedsnr" v="416901" />
	</node>
	<node lat="58.722894444585954" lon="8.522333334030565" id="-35543">
		<tag k="fixme" v="consider natural=peak for the most distinct mountains in the district" />
		<tag k="name" v="Knuten" />
		<tag k="natural" v="hill" />
		<tag k="place" v="locality" />
		<tag k="ssr:stedsnr" v="425110" />
	</node>
	<node lat="58.67777777469762" lon="8.416969444504039" id="-35548">
		<tag k="alt_name" v="Geiteryggen" />
		<tag k="fixme" v="consider natural=peak for the most distinct mountains in the district" />
		<tag k="name" v="Geitryggen" />
		<tag k="natural" v="hill" />
		<tag k="place" v="locality" />
		<tag k="ssr:stedsnr" v="425305" />
	</node>
	<node lat="58.77551388524178" lon="8.252108325022931" id="-35549">
		<tag k="alt_name" v="Simenåsen" />
		<tag k="fixme" v="consider natural=peak for the most distinct mountains in the district" />
		<tag k="name" v="Simonåsen" />
		<tag k="natural" v="hill" />
		<tag k="place" v="locality" />
		<tag k="ssr:stedsnr" v="425244" />
	</node>
	<node lat="58.74778888725224" lon="8.136350007923031" id="-35550">
		<tag k="name" v="Ramseholta" />
		<tag k="natural" v="slope" />
		<tag k="place" v="locality" />
		<tag k="ssr:stedsnr" v="425397" />
	</node>
	<node lat="58.93459999673909" lon="8.036147217121636" id="-35551">
		<tag k="fixme" v="consider natural=peak for the most distinct mountains in the district" />
		<tag k="name" v="Badstogåsen" />
		<tag k="natural" v="hill" />
		<tag k="place" v="locality" />
		<tag k="ssr:stedsnr" v="425657" />
	</node>
	<node lat="58.76109166379337" lon="8.440349996496236" id="-35561">
		<tag k="alt_name" v="Breivasshei;Breidvassheia" />
		<tag k="fixme" v="consider natural=peak for the most distinct mountains in the district" />
		<tag k="name" v="Breivassheia" />
		<tag k="natural" v="hill" />
		<tag k="place" v="locality" />
		<tag k="ssr:stedsnr" v="426215" />
	</node>
	<node lat="58.816738886278735" lon="8.685016671231493" id="-35564">
		<tag k="name" v="Bjordalen" />
		<tag k="natural" v="valley" />
		<tag k="place" v="locality" />
		<tag k="ssr:stedsnr" v="426199" />
	</node>
	<node lat="58.62459999722045" lon="8.426775000401344" id="-35565">
		<tag k="fixme" v="consider natural=peak for the most distinct mountains in the district" />
		<tag k="name" v="Orreleikheia" />
		<tag k="natural" v="hill" />
		<tag k="place" v="locality" />
		<tag k="ssr:stedsnr" v="426331" />
	</node>
	<node lat="58.705513889853485" lon="8.407394450038563" id="-35567">
		<tag k="fixme" v="consider natural=peak for the most distinct mountains in the district" />
		<tag k="name" v="Buåsen" />
		<tag k="natural" v="hill" />
		<tag k="place" v="locality" />
		<tag k="ssr:stedsnr" v="426438" />
	</node>
	<node lat="58.78103610966486" lon="8.646177784468" id="-35568">
		<tag k="name" v="Bjørklundheia" />
		<tag k="natural" v="hill" />
		<tag k="place" v="locality" />
		<tag k="ssr:stedsnr" v="426618" />
	</node>
	<node lat="58.8636500024229" lon="8.648405559318979" id="-35570">
		<tag k="name" v="Utmanndalsheia" />
		<tag k="natural" v="hill" />
		<tag k="place" v="locality" />
		<tag k="ssr:stedsnr" v="426702" />
	</node>
	<node lat="58.95499444856448" lon="8.194513893326782" id="-35578">
		<tag k="alt_name" v="Skårefjell" />
		<tag k="fixme" v="consider natural=peak for the most distinct mountains in the district" />
		<tag k="name" v="Skårfjell" />
		<tag k="natural" v="hill" />
		<tag k="place" v="locality" />
		<tag k="ssr:stedsnr" v="426915" />
	</node>
	<node lat="58.87460555143295" lon="8.538966672071801" id="-35589">
		<tag k="name" v="Vestheia" />
		<tag k="natural" v="ridge" />
		<tag k="place" v="locality" />
		<tag k="ssr:stedsnr" v="456029" />
	</node>
	<node lat="58.87335555668824" lon="8.585702775054227" id="-35590">
		<tag k="name" v="Evjemonen" />
		<tag k="place" v="locality" />
		<tag k="ssr:stedsnr" v="456033" />
	</node>
	<node lat="58.81038888682341" lon="8.65875000002669" id="-35591">
		<tag k="fixme" v="consider natural=peak for the most distinct mountains in the district" />
		<tag k="name" v="Amerika" />
		<tag k="natural" v="hill" />
		<tag k="place" v="locality" />
		<tag k="ssr:stedsnr" v="456103" />
	</node>
	<node lat="58.698169448379346" lon="8.50357499278796" id="-35593">
		<tag k="fixme" v="consider natural=peak for the most distinct mountains in the district" />
		<tag k="name" v="Buskeheia" />
		<tag k="natural" v="hill" />
		<tag k="place" v="locality" />
		<tag k="ssr:stedsnr" v="456403" />
	</node>
	<node lat="58.74301666343641" lon="8.60221389468086" id="-35599">
		<tag k="name" v="Steinsvasslia" />
		<tag k="natural" v="slope" />
		<tag k="place" v="locality" />
		<tag k="ssr:stedsnr" v="456473" />
	</node>
	<node lat="58.72933888815356" lon="8.622999991448768" id="-35606">
		<tag k="name" v="Trolldalsheia" />
		<tag k="natural" v="slope" />
		<tag k="place" v="locality" />
		<tag k="ssr:stedsnr" v="456771" />
	</node>
	<node lat="58.68066666948905" lon="8.3767916700693" id="-35607">
		<tag k="name" v="Hesmodalen" />
		<tag k="natural" v="valley" />
		<tag k="place" v="locality" />
		<tag k="ssr:stedsnr" v="457268" />
	</node>
	<node lat="58.63561944424771" lon="8.424858325536965" id="-35608">
		<tag k="name" v="Terehola" />
		<tag k="natural" v="valley" />
		<tag k="place" v="locality" />
		<tag k="ssr:stedsnr" v="457278" />
	</node>
	<node lat="58.70505833478446" lon="8.380566665274312" id="-35609">
		<tag k="name" v="Kjerkemyrlia" />
		<tag k="natural" v="slope" />
		<tag k="place" v="locality" />
		<tag k="ssr:stedsnr" v="457406" />
	</node>
	<node lat="58.6581111145883" lon="8.652666665932452" id="-35610">
		<tag k="fixme" v="consider natural=peak for the most distinct mountains in the district" />
		<tag k="name" v="Engfjell" />
		<tag k="natural" v="hill" />
		<tag k="place" v="locality" />
		<tag k="ssr:stedsnr" v="457423" />
	</node>
	<node lat="58.71853888928956" lon="8.357458325914209" id="-35612">
		<tag k="fixme" v="consider natural=peak for the most distinct mountains in the district" />
		<tag k="name" v="Dukåsen" />
		<tag k="natural" v="hill" />
		<tag k="place" v="locality" />
		<tag k="ssr:stedsnr" v="457472" />
	</node>
	<node lat="58.710816664301596" lon="8.41467778558248" id="-35614">
		<tag k="fixme" v="consider natural=peak for the most distinct mountains in the district" />
		<tag k="name" v="Smørheia" />
		<tag k="natural" v="hill" />
		<tag k="place" v="locality" />
		<tag k="ssr:stedsnr" v="457306" />
	</node>
	<node lat="58.7060916685975" lon="8.366180552961122" id="-35616">
		<tag k="name" v="Rostveitlia" />
		<tag k="natural" v="slope" />
		<tag k="place" v="locality" />
		<tag k="ssr:stedsnr" v="457376" />
	</node>
	<node lat="58.70355277787182" lon="8.34906944470145" id="-35617">
		<tag k="name" v="Homdalsmonen" />
		<tag k="place" v="locality" />
		<tag k="ssr:stedsnr" v="457383" />
	</node>
	<node lat="58.6886333343458" lon="8.667936104748124" id="-35623">
		<tag k="name" v="Hovdebekkdalen" />
		<tag k="natural" v="valley" />
		<tag k="place" v="locality" />
		<tag k="ssr:stedsnr" v="457604" />
	</node>
	<node lat="58.780552774784105" lon="8.465558330005923" id="-35624">
		<tag k="name" v="Kistedalen" />
		<tag k="natural" v="valley" />
		<tag k="place" v="locality" />
		<tag k="ssr:stedsnr" v="462077" />
	</node>
	<node lat="58.88901944270179" lon="8.145922216931634" id="-35625">
		<tag k="name" v="Grasfjellet" />
		<tag k="natural" v="hill" />
		<tag k="place" v="locality" />
		<tag k="ssr:stedsnr" v="462262" />
	</node>
	<node lat="58.901080551914426" lon="8.293758335967208" id="-35628">
		<tag k="name" v="Risland" />
		<tag k="natural" v="slope" />
		<tag k="place" v="locality" />
		<tag k="ssr:stedsnr" v="462636" />
	</node>
	<node lat="58.825916665471226" lon="8.360627778965796" id="-35629">
		<tag k="name" v="Notfjelldalane" />
		<tag k="natural" v="valley" />
		<tag k="place" v="locality" />
		<tag k="ssr:stedsnr" v="462732" />
	</node>
	<node lat="58.81838889298843" lon="8.43329444032323" id="-35632">
		<tag k="name" v="Røysheilia" />
		<tag k="natural" v="slope" />
		<tag k="place" v="locality" />
		<tag k="ssr:stedsnr" v="463383" />
	</node>
	<node lat="58.65189999957673" lon="8.73564444937674" id="-35635">
		<tag k="name" v="Skarkeheia" />
		<tag k="natural" v="hill" />
		<tag k="place" v="locality" />
		<tag k="ssr:stedsnr" v="469965" />
	</node>
	<node lat="58.820316667905445" lon="8.137488893302438" id="-35640">
		<tag k="name" v="Bomsberget" />
		<tag k="natural" v="cliff" />
		<tag k="ssr:stedsnr" v="474666" />
	</node>
	<node lat="58.83717221887951" lon="8.096722228747602" id="-35642">
		<tag k="name" v="Brølarhola" />
		<tag k="natural" v="valley" />
		<tag k="place" v="locality" />
		<tag k="ssr:stedsnr" v="474915" />
	</node>
	<node lat="58.83161111117821" lon="8.102311116503826" id="-35643">
		<tag k="name" v="Yvero" />
		<tag k="place" v="locality" />
		<tag k="ssr:stedsnr" v="474921" />
	</node>
	<node lat="58.83560277565449" lon="8.10551388427881" id="-35644">
		<tag k="name" v="Åsbakklia" />
		<tag k="natural" v="slope" />
		<tag k="place" v="locality" />
		<tag k="ssr:stedsnr" v="474926" />
	</node>
	<node lat="58.85938332942965" lon="8.06354165836862" id="-35647">
		<tag k="name" v="Fossfetfjella" />
		<tag k="natural" v="cliff" />
		<tag k="ssr:stedsnr" v="475117" />
	</node>
	<node lat="58.84464722429499" lon="8.030944445629048" id="-35648">
		<tag k="name" v="Elgdalen" />
		<tag k="natural" v="valley" />
		<tag k="place" v="locality" />
		<tag k="ssr:stedsnr" v="475120" />
	</node>
	<node lat="58.89365555800336" lon="8.37967222637185" id="-35649">
		<tag k="name" v="Bergheia" />
		<tag k="natural" v="hill" />
		<tag k="place" v="locality" />
		<tag k="ssr:stedsnr" v="475158" />
	</node>
	<node lat="58.93923611184649" lon="8.11717222803085" id="-35651">
		<tag k="name" v="Slettåslia" />
		<tag k="natural" v="slope" />
		<tag k="place" v="locality" />
		<tag k="ssr:stedsnr" v="475221" />
	</node>
	<node lat="58.84883055201527" lon="8.115922219394898" id="-35653">
		<tag k="alt_name" v="Øvste Li hefte" />
		<tag k="name" v="Øvsteli hefta" />
		<tag k="natural" v="slope" />
		<tag k="place" v="locality" />
		<tag k="ssr:stedsnr" v="475558" />
	</node>
	<node lat="58.84748889262263" lon="8.122844437884986" id="-35654">
		<tag k="fixme" v="consider natural=peak for the most distinct mountains in the district" />
		<tag k="name" v="Elgåsen" />
		<tag k="natural" v="hill" />
		<tag k="place" v="locality" />
		<tag k="ssr:stedsnr" v="475561" />
	</node>
	<node lat="58.84599166891723" lon="8.115113894360586" id="-35655">
		<tag k="name" v="Eikesetlia" />
		<tag k="natural" v="slope" />
		<tag k="place" v="locality" />
		<tag k="ssr:stedsnr" v="475562" />
	</node>
	<node lat="58.771958334249724" lon="8.28185277816634" id="-35656">
		<tag k="fixme" v="consider natural=peak for the most distinct mountains in the district" />
		<tag k="name" v="Store Tverrfjell" />
		<tag k="natural" v="hill" />
		<tag k="place" v="locality" />
		<tag k="ssr:stedsnr" v="475724" />
	</node>
	<node lat="58.81428888811753" lon="8.149349996720376" id="-35657">
		<tag k="name" v="Torvildsbakkane" />
		<tag k="natural" v="slope" />
		<tag k="place" v="locality" />
		<tag k="ssr:stedsnr" v="475728" />
	</node>
	<node lat="58.775341666810206" lon="8.061683331469448" id="-35660">
		<tag k="name" v="Heddevatsfjellet" />
		<tag k="natural" v="cliff" />
		<tag k="ssr:stedsnr" v="475996" />
	</node>
	<node lat="58.77291110815317" lon="8.08799721579598" id="-35661">
		<tag k="name" v="Refsdalen" />
		<tag k="natural" v="valley" />
		<tag k="place" v="locality" />
		<tag k="ssr:stedsnr" v="476000" />
	</node>
	<node lat="58.78958611168862" lon="8.413038893141882" id="-35662">
		<tag k="name" v="Sauedalen" />
		<tag k="natural" v="valley" />
		<tag k="place" v="locality" />
		<tag k="ssr:stedsnr" v="476118" />
	</node>
	<node lat="58.89087499854239" lon="8.204011111194461" id="-35663">
		<tag k="name" v="Langetjønnheia" />
		<tag k="natural" v="hill" />
		<tag k="place" v="locality" />
		<tag k="ssr:stedsnr" v="476303" />
	</node>
	<node lat="58.75496110965244" lon="8.132344444496221" id="-35665">
		<tag k="name" v="Juvet" />
		<tag k="natural" v="gorge" />
		<tag k="ssr:stedsnr" v="476236" />
	</node>
	<node lat="58.91450833769655" lon="8.220427769201148" id="-35666">
		<tag k="fixme" v="consider natural=peak for the most distinct mountains in the district" />
		<tag k="name" v="Øvre Åsane" />
		<tag k="natural" v="hill" />
		<tag k="place" v="locality" />
		<tag k="ssr:stedsnr" v="476251" />
	</node>
	<node lat="58.92313611001811" lon="8.260069446700191" id="-35668">
		<tag k="name" v="Finnbråt" />
		<tag k="natural" v="slope" />
		<tag k="place" v="locality" />
		<tag k="ssr:stedsnr" v="476277" />
	</node>
	<node lat="58.78447777990205" lon="8.074927772528886" id="-35670">
		<tag k="name" v="Sivætslåttone" />
		<tag k="natural" v="slope" />
		<tag k="place" v="locality" />
		<tag k="ssr:stedsnr" v="476666" />
	</node>
	<node lat="58.78421388591894" lon="8.055444447343497" id="-35671">
		<tag k="name" v="Tjovdalen" />
		<tag k="natural" v="valley" />
		<tag k="place" v="locality" />
		<tag k="ssr:stedsnr" v="476667" />
	</node>
	<node lat="58.85368333453952" lon="8.28735555811387" id="-35672">
		<tag k="name" v="Tjovdalen" />
		<tag k="natural" v="valley" />
		<tag k="place" v="locality" />
		<tag k="ssr:stedsnr" v="476668" />
	</node>
	<node lat="58.82093333736434" lon="8.489394437760568" id="-35674">
		<tag k="name" v="Trytetjønnlia" />
		<tag k="natural" v="slope" />
		<tag k="place" v="locality" />
		<tag k="ssr:stedsnr" v="476620" />
	</node>
	<node lat="58.71096389185822" lon="8.278880563883435" id="-35675">
		<tag k="name" v="Klovdalen" />
		<tag k="natural" v="valley" />
		<tag k="place" v="locality" />
		<tag k="ssr:stedsnr" v="476621" />
	</node>
	<node lat="58.80519721824388" lon="8.226491674929541" id="-35676">
		<tag k="fixme" v="consider natural=peak for the most distinct mountains in the district" />
		<tag k="name" v="Bronefjellet" />
		<tag k="natural" v="hill" />
		<tag k="place" v="locality" />
		<tag k="ssr:stedsnr" v="476622" />
	</node>
	<node lat="58.78400833410239" lon="7.99269722776993" id="-35678">
		<tag k="name" v="Bjorhuslia" />
		<tag k="natural" v="slope" />
		<tag k="place" v="locality" />
		<tag k="ssr:stedsnr" v="476626" />
	</node>
	<node lat="58.8463555525666" lon="8.349613885199373" id="-35679">
		<tag k="name" v="Saurbekkflotskotet" />
		<tag k="place" v="locality" />
		<tag k="ssr:stedsnr" v="476638" />
	</node>
	<node lat="58.86325833502435" lon="8.341433338125992" id="-35680">
		<tag k="name" v="Møyberga" />
		<tag k="natural" v="hill" />
		<tag k="place" v="locality" />
		<tag k="ssr:stedsnr" v="476377" />
	</node>
	<node lat="58.78362778089991" lon="8.044191672027873" id="-35682">
		<tag k="name" v="Lisleheia" />
		<tag k="natural" v="hill" />
		<tag k="place" v="locality" />
		<tag k="ssr:stedsnr" v="476558" />
	</node>
	<node lat="58.70849722633463" lon="8.305252771860289" id="-35683">
		<tag k="name" v="Ytterste" />
		<tag k="place" v="locality" />
		<tag k="ssr:stedsnr" v="476564" />
	</node>
	<node lat="58.89857222648963" lon="8.268280553246267" id="-35684">
		<tag k="fixme" v="consider natural=peak for the most distinct mountains in the district" />
		<tag k="name" v="Rjuven" />
		<tag k="natural" v="hill" />
		<tag k="place" v="locality" />
		<tag k="ssr:stedsnr" v="476702" />
	</node>
	<node lat="58.93006666718184" lon="8.072202774463475" id="-35687">
		<tag k="fixme" v="consider natural=peak for the most distinct mountains in the district" />
		<tag k="name" v="Grunnvassåsen" />
		<tag k="natural" v="hill" />
		<tag k="place" v="locality" />
		<tag k="ssr:stedsnr" v="476913" />
	</node>
	<node lat="58.79586666419837" lon="8.308952780960725" id="-35694">
		<tag k="alt_name" v="Støylsfjellheia" />
		<tag k="fixme" v="consider natural=peak for the most distinct mountains in the district" />
		<tag k="name" v="Støylfjellheia" />
		<tag k="natural" v="hill" />
		<tag k="place" v="locality" />
		<tag k="ssr:stedsnr" v="486217" />
	</node>
	<node lat="58.78688333224335" lon="8.181322222156647" id="-35696">
		<tag k="fixme" v="consider natural=peak for the most distinct mountains in the district" />
		<tag k="name" v="Kvigåsen" />
		<tag k="natural" v="hill" />
		<tag k="place" v="locality" />
		<tag k="ssr:stedsnr" v="486232" />
	</node>
	<node lat="58.648644445995735" lon="8.437133330006176" id="-35697">
		<tag k="alt_name" v="Kallås" />
		<tag k="fixme" v="consider natural=peak for the most distinct mountains in the district" />
		<tag k="name" v="Kalås" />
		<tag k="natural" v="hill" />
		<tag k="place" v="locality" />
		<tag k="ssr:stedsnr" v="486266" />
	</node>
	<node lat="58.773277775281606" lon="8.461874991590935" id="-35701">
		<tag k="alt_name" v="Trogfjell" />
		<tag k="fixme" v="consider natural=peak for the most distinct mountains in the district" />
		<tag k="name" v="Trogfjellet" />
		<tag k="natural" v="hill" />
		<tag k="place" v="locality" />
		<tag k="ssr:stedsnr" v="486189" />
	</node>
	<node lat="58.783874998888955" lon="8.489702775680204" id="-35707">
		<tag k="alt_name" v="Hauglandsfjellet" />
		<tag k="fixme" v="consider natural=peak for the most distinct mountains in the district" />
		<tag k="name" v="Haugelandsfjell" />
		<tag k="natural" v="hill" />
		<tag k="place" v="locality" />
		<tag k="ssr:stedsnr" v="486623" />
	</node>
	<node lat="58.78440555856578" lon="8.56163889269432" id="-35708">
		<tag k="alt_name" v="Ramsefjell" />
		<tag k="fixme" v="consider natural=peak for the most distinct mountains in the district" />
		<tag k="name" v="Ramsefjellet" />
		<tag k="natural" v="hill" />
		<tag k="place" v="locality" />
		<tag k="ssr:stedsnr" v="486626" />
	</node>
</osm>
