<?xml version="1.0" encoding="UTF-8"?>
<osm version="0.6" generator="osmapis">
	<node lat="58.81778888611589" lon="8.468133329057922" id="-36483">
		<tag k="name" v="Espelibu" />
		<tag k="place" v="locality" />
		<tag k="ssr:stedsnr" v="38412" />
	</node>
	<node lat="58.7279638930561" lon="8.241402784564396" id="-36517">
		<tag k="name" v="Husebu" />
		<tag k="place" v="locality" />
		<tag k="ssr:stedsnr" v="51578" />
	</node>
	<node lat="58.876293127914124" lon="8.64094526140309" id="-36570">
		<tag k="name" v="Drangsmonen" />
		<tag k="place" v="locality" />
		<tag k="ssr:stedsnr" v="61705" />
	</node>
	<node lat="58.7774336368189" lon="8.172909487359098" id="-36612">
		<tag k="name" v="Hillestadløa" />
		<tag k="place" v="locality" />
		<tag k="ssr:stedsnr" v="243230" />
	</node>
	<node lat="58.87363538129733" lon="8.516038480181177" id="-36635">
		<tag k="name" v="Gråten" />
		<tag k="place" v="locality" />
		<tag k="ssr:stedsnr" v="243718" />
	</node>
	<node lat="58.915227777897194" lon="8.580891666827624" id="-36668">
		<tag k="name" v="Blekkbua" />
		<tag k="place" v="locality" />
		<tag k="ssr:stedsnr" v="92005" />
	</node>
	<node lat="58.70909166923025" lon="8.597683336190443" id="-36696">
		<tag k="amenity" v="community_centre" />
		<tag k="name" v="Vonheim" />
		<tag k="ssr:stedsnr" v="92581" />
	</node>
	<node lat="58.767527780615254" lon="8.487783333375885" id="-36798">
		<tag k="amenity" v="place_of_worship" />
		<tag k="denomination" v="lutheran" />
		<tag k="name" v="Åmli kirke" />
		<tag k="religion" v="christian" />
		<tag k="ssr:stedsnr" v="153221" />
	</node>
	<node lat="58.73421111476949" lon="8.422305562617986" id="-36861">
		<tag k="name" v="Tverrstøl" />
		<tag k="ssr:stedsnr" v="172972" />
		<tag k="tourism" v="viewpoint" />
	</node>
	<node lat="58.803675000973804" lon="8.15740000654499" id="-36897">
		<tag k="name" v="Hjuringhuset" />
		<tag k="place" v="locality" />
		<tag k="ssr:stedsnr" v="264728" />
	</node>
	<node lat="58.67972777791789" lon="8.431780561412683" id="-36910">
		<tag k="name" v="Stigbua" />
		<tag k="place" v="locality" />
		<tag k="ssr:stedsnr" v="214216" />
	</node>
	<node lat="58.70331944121602" lon="8.461749998257801" id="-37041">
		<tag k="name" v="Lauvlunden" />
		<tag k="place" v="locality" />
		<tag k="ssr:stedsnr" v="456399" />
	</node>
	<node lat="58.6534083353331" lon="8.430294442813526" id="-37091">
		<tag k="name" v="Skotet" />
		<tag k="place" v="locality" />
		<tag k="ssr:stedsnr" v="274310" />
	</node>
	<node lat="58.665255553821595" lon="8.463238881918594" id="-37093">
		<tag k="name" v="Skreleiken" />
		<tag k="place" v="locality" />
		<tag k="ssr:stedsnr" v="274318" />
	</node>
	<node lat="58.726672218920704" lon="8.391925002185666" id="-37094">
		<tag k="name" v="Moldskotet" />
		<tag k="place" v="locality" />
		<tag k="ssr:stedsnr" v="274323" />
	</node>
</osm>
