<?xml version="1.0" encoding="UTF-8"?>
<<<<<<< HEAD
<osm version="0.6" generator="osmapis">
	<node lat="58.76018611496973" lon="8.015188890943692" id="-21705">
		<tag k="historic" v="boundary_stone" />
		<tag k="man_made" v="cairn" />
		<tag k="name" v="Klovsteinen" />
		<tag k="place" v="locality" />
		<tag k="ssr:stedsnr" v="294985" />
	</node>
	<node lat="58.623236109115446" lon="8.436258335353166" id="-21707">
		<tag k="historic" v="boundary_stone" />
		<tag k="man_made" v="cairn" />
		<tag k="name" v="Endestaven" />
		<tag k="place" v="locality" />
		<tag k="ssr:stedsnr" v="295476" />
	</node>
	<node lat="58.654118323415176" lon="8.759713943681284" id="-22254">
		<tag k="historic" v="boundary_stone" />
		<tag k="man_made" v="cairn" />
		<tag k="name" v="Raudhellsteinen" />
		<tag k="place" v="locality" />
		<tag k="ssr:stedsnr" v="469974" />
	</node>
	<node lat="58.778886111866065" lon="8.655916663375177" id="-22508">
		<tag k="historic" v="boundary_stone" />
		<tag k="man_made" v="cairn" />
		<tag k="name" v="Venemyrbikkja" />
		<tag k="place" v="locality" />
		<tag k="ssr:stedsnr" v="577099" />
	</node>
	<node lat="58.80971666465877" lon="8.173141669392141" id="-22557">
		<tag k="fixme" v="specify shooting=range, clay_pigeon etc" />
		<tag k="leisure" v="pitch" />
		<tag k="name" v="100 meteren" />
		<tag k="sport" v="shooting" />
		<tag k="ssr:stedsnr" v="596305" />
	</node>
	<node lat="58.86469999781617" lon="8.634363897245212" id="-22650">
		<tag k="fixme" v="consider boundary=protected_area and relevant protect_class if not nature reserve" />
		<tag k="leisure" v="nature_reserve" />
		<tag k="name" v="Berlifjell naturreservat" />
		<tag k="ssr:stedsnr" v="606868" />
	</node>
	<node lat="58.719988891079936" lon="8.462874996039984" id="-23169">
=======
<osm generator="osmapis" version="0.6">
	<node id="-541952" lat="58.8148972223" lon="8.17309167309">
		<tag k="fixme" v="specify shooting=range, clay_pigeon etc" />
		<tag k="leisure" v="pitch" />
		<tag k="name" v="600 meteren" />
		<tag k="sport" v="shooting" />
		<tag k="ssr:stedsnr" v="111246" />
	</node>
	<node id="-542655" lat="58.8619500031" lon="8.2974694489">
		<tag k="fixme" v="specify shooting=range, clay_pigeon etc" />
		<tag k="leisure" v="pitch" />
		<tag k="name" v="Gjøvdal skytebane" />
		<tag k="sport" v="shooting" />
		<tag k="ssr:stedsnr" v="354135" />
	</node>
	<node id="-542974" lat="58.9113833319" lon="7.99958889354">
		<tag k="fixme" v="consider boundary=protected_area and relevant protect_class if not nature reserve" />
		<tag k="leisure" v="nature_reserve" />
		<tag k="name" v="Årdalen naturreservat" />
		<tag k="ssr:stedsnr" v="414232" />
	</node>
	<node id="-540799" lat="58.7908972234" lon="8.33544167385">
		<tag k="historic" v="boundary_stone" />
		<tag k="man_made" v="cairn" />
		<tag k="name" v="Haldestein" />
		<tag k="place" v="locality" />
		<tag k="ssr:stedsnr" v="887381" />
	</node>
	<node id="-540120" lat="58.6911111067" lon="8.49747778049">
		<tag k="fixme" v="consider boundary=protected_area and relevant protect_class if not nature reserve" />
		<tag k="leisure" v="nature_reserve" />
		<tag k="name" v="Eikelidalen naturreservat" />
		<tag k="ssr:stedsnr" v="667851" />
	</node>
	<node id="-542846" lat="58.742477782" lon="8.62171666151">
		<tag k="historic" v="boundary_stone" />
		<tag k="man_made" v="cairn" />
		<tag k="name" v="Dei tolv steinane" />
		<tag k="place" v="locality" />
		<tag k="ssr:stedsnr" v="395138" />
	</node>
	<node id="-540975" lat="58.7199888911" lon="8.46287499604">
>>>>>>> e1d4bc35ff8a6074a6f2e91616a996b547c36f15
		<tag k="fixme" v="consider boundary=protected_area and relevant protect_class if not nature reserve" />
		<tag k="leisure" v="nature_reserve" />
		<tag k="name" v="Stuvåna naturreservat" />
		<tag k="ssr:stedsnr" v="910887" />
	</node>
<<<<<<< HEAD
	<node lat="58.83725277862158" lon="8.480802772945696" id="-23371">
		<tag k="historic" v="boundary_stone" />
		<tag k="man_made" v="cairn" />
=======
	<node id="-542638" lat="58.8107111119" lon="8.17635277375">
		<tag k="fixme" v="specify shooting=range, clay_pigeon etc" />
		<tag k="leisure" v="pitch" />
		<tag k="name" v="300 meteren" />
		<tag k="sport" v="shooting" />
		<tag k="ssr:stedsnr" v="353319" />
	</node>
	<node id="-540717" lat="58.827530559" lon="8.72635833299">
		<tag k="historic" v="boundary_stone" />
		<tag k="man_made" v="cairn" />
		<tag k="name" v="Vinkelsteinen" />
		<tag k="place" v="locality" />
		<tag k="ssr:stedsnr" v="881149" />
	</node>
	<node id="-539943" lat="58.7825027807" lon="8.65912778309">
		<tag k="historic" v="boundary_stone" />
		<tag k="man_made" v="cairn" />
		<tag k="name" v="Vinkelsteinen" />
		<tag k="place" v="locality" />
		<tag k="ssr:stedsnr" v="517095" />
	</node>
	<node id="-541221" lat="58.8372527786" lon="8.48080277295">
		<tag k="historic" v="boundary_stone" />
		<tag k="man_made" v="cairn" />
>>>>>>> e1d4bc35ff8a6074a6f2e91616a996b547c36f15
		<tag k="name" v="Den lange deilda" />
		<tag k="place" v="locality" />
		<tag k="ssr:stedsnr" v="841608" />
	</node>
<<<<<<< HEAD
	<node lat="58.827530558988514" lon="8.726358332993938" id="-23432">
=======
	<node id="-542340" lat="58.7540388851" lon="8.20141944577">
>>>>>>> e1d4bc35ff8a6074a6f2e91616a996b547c36f15
		<tag k="historic" v="boundary_stone" />
		<tag k="man_made" v="cairn" />
		<tag k="name" v="Høna" />
		<tag k="place" v="locality" />
<<<<<<< HEAD
		<tag k="ssr:stedsnr" v="881149" />
	</node>
	<node lat="58.81489722228597" lon="8.173091673087137" id="-23940">
		<tag k="fixme" v="specify shooting=range, clay_pigeon etc" />
		<tag k="leisure" v="pitch" />
		<tag k="name" v="600 meteren" />
		<tag k="sport" v="shooting" />
		<tag k="ssr:stedsnr" v="111246" />
=======
		<tag k="ssr:stedsnr" v="183180" />
	</node>
	<node id="-539362" lat="58.760186115" lon="8.01518889094">
		<tag k="historic" v="boundary_stone" />
		<tag k="man_made" v="cairn" />
		<tag k="name" v="Klovsteinen" />
		<tag k="place" v="locality" />
		<tag k="ssr:stedsnr" v="294985" />
>>>>>>> e1d4bc35ff8a6074a6f2e91616a996b547c36f15
	</node>
</osm>
