<?xml version="1.0" encoding="UTF-8"?>
<osm version="0.6" generator="osmapis">
	<node lat="58.84765832945598" lon="8.321558326369297" id="-24218">
		<tag k="name" v="Rekrokhylen" />
		<tag k="ssr:stedsnr" v="73" />
		<tag k="waterway" v="stream" />
	</node>
	<node lat="58.744222220056685" lon="8.447775003514066" id="-24222">
		<tag k="name" v="Ljostjønn" />
		<tag k="natural" v="water" />
		<tag k="ssr:stedsnr" v="396" />
	</node>
	<node lat="58.76369999668357" lon="8.568124998023432" id="-24223">
		<tag k="name" v="Øygardstjønn" />
		<tag k="natural" v="water" />
		<tag k="ssr:stedsnr" v="543" />
	</node>
	<node lat="58.925899997170575" lon="8.571488886170533" id="-24227">
		<tag k="name" v="Langvatn" />
		<tag k="natural" v="water" />
		<tag k="ssr:stedsnr" v="405" />
	</node>
	<node lat="58.74002499866462" lon="8.11499167310426" id="-24228">
		<tag k="alt_name" v="Skjeggedalsåni" />
		<tag k="fixme" v="multiple name tags, choose one and add the other to alt_name" />
		<tag k="name" v="Stigåna;Skjeggedalsåna" />
		<tag k="ssr:stedsnr" v="411" />
		<tag k="waterway" v="river" />
	</node>
	<node lat="58.943483332543245" lon="8.031536103142132" id="-24232">
		<tag k="name" v="Badstogåni" />
		<tag k="ssr:stedsnr" v="643" />
		<tag k="waterway" v="river" />
	</node>
	<node lat="58.87212500308218" lon="8.639474997700251" id="-24234">
		<tag k="name" v="Lomstjønn" />
		<tag k="natural" v="water" />
		<tag k="ssr:stedsnr" v="707" />
	</node>
	<node lat="58.859778202071276" lon="8.649877000161894" id="-24235">
		<tag k="name" v="Rakktjønnane" />
		<tag k="natural" v="water" />
		<tag k="ssr:stedsnr" v="752" />
		<tag k="water" v="lake" />
	</node>
	<node lat="58.62870277863804" lon="8.688652784117842" id="-24236">
		<tag k="name" v="Flatenfoss" />
		<tag k="natural" v="waterfall" />
		<tag k="ssr:stedsnr" v="758" />
	</node>
	<node lat="58.83388055556183" lon="8.21475000491251" id="-24239">
		<tag k="name" v="Hellertjønna" />
		<tag k="natural" v="water" />
		<tag k="ssr:stedsnr" v="1093" />
	</node>
	<node lat="58.78331110679689" lon="8.21114999865201" id="-24243">
		<tag k="name" v="Murtetjønn" />
		<tag k="natural" v="water" />
		<tag k="ssr:stedsnr" v="1242" />
	</node>
	<node lat="58.8126833364292" lon="8.181047221348374" id="-24249">
		<tag k="alt_name" v="Skredbekken" />
		<tag k="name" v="Skrebekk" />
		<tag k="ssr:stedsnr" v="1189" />
		<tag k="waterway" v="stream" />
	</node>
	<node lat="58.81099721851667" lon="8.33333888286918" id="-24251">
		<tag k="name" v="Grenhaugtjønn" />
		<tag k="natural" v="water" />
		<tag k="ssr:stedsnr" v="1194" />
	</node>
	<node lat="58.75251944101149" lon="8.369202783549733" id="-24252">
		<tag k="name" v="Lyngvatn" />
		<tag k="natural" v="water" />
		<tag k="ssr:stedsnr" v="1304" />
	</node>
	<node lat="58.75815973357389" lon="8.440476928135215" id="-24253">
		<tag k="name" v="Espedalstjønna" />
		<tag k="natural" v="water" />
		<tag k="ssr:stedsnr" v="1307" />
	</node>
	<node lat="58.75780555295502" lon="8.346127781002679" id="-24254">
		<tag k="name" v="Trolldalstjønn" />
		<tag k="natural" v="water" />
		<tag k="ssr:stedsnr" v="1309" />
	</node>
	<node lat="58.70609444013929" lon="8.256883337841167" id="-24256">
		<tag k="alt_name" v="Skjørungskilen" />
		<tag k="name" v="Sjørungskilen" />
		<tag k="natural" v="bay" />
		<tag k="ssr:stedsnr" v="1489" />
	</node>
	<node lat="58.71876666469824" lon="8.104500001232289" id="-24261">
		<tag k="name" v="Nystøylbekken" />
		<tag k="ssr:stedsnr" v="1507" />
		<tag k="waterway" v="stream" />
	</node>
	<node lat="58.71227222481452" lon="8.00501945133777" id="-24262">
		<tag k="name" v="Skinnaren" />
		<tag k="ssr:stedsnr" v="1590" />
		<tag k="waterway" v="river" />
	</node>
	<node lat="58.87481110870341" lon="8.068077785414065" id="-24263">
		<tag k="name" v="Kolgrovbekken" />
		<tag k="ssr:stedsnr" v="1731" />
		<tag k="waterway" v="stream" />
	</node>
	<node lat="58.80371842290037" lon="8.02352343252847" id="-24264">
		<tag k="name" v="Igletjønn" />
		<tag k="natural" v="water" />
		<tag k="ssr:stedsnr" v="1789" />
	</node>
	<node lat="58.68270000249329" lon="8.557083341882478" id="-24265">
		<tag k="alt_name" v="Bjørnetjønn" />
		<tag k="name" v="Bjørntjern" />
		<tag k="natural" v="water" />
		<tag k="ssr:stedsnr" v="1936" />
	</node>
	<node lat="58.684645026432584" lon="8.580364434847693" id="-24271">
		<tag k="alt_name" v="Trytetjønn" />
		<tag k="name" v="Trytetjern" />
		<tag k="natural" v="water" />
		<tag k="ssr:stedsnr" v="1885" />
	</node>
	<node lat="58.91696666916477" lon="8.005027779912009" id="-24274">
		<tag k="name" v="Holtebekk" />
		<tag k="ssr:stedsnr" v="231151" />
		<tag k="waterway" v="stream" />
	</node>
	<node lat="58.91522499697463" lon="8.082180560394503" id="-24277">
		<tag k="name" v="Slynes" />
		<tag k="natural" v="cape" />
		<tag k="ssr:stedsnr" v="231247" />
	</node>
	<node lat="58.88084444116082" lon="8.30614166120939" id="-24290">
		<tag k="name" v="Stigbekk" />
		<tag k="ssr:stedsnr" v="233077" />
		<tag k="waterway" v="stream" />
	</node>
	<node lat="58.77427222185891" lon="8.166394450674405" id="-24293">
		<tag k="name" v="Skrebekk" />
		<tag k="ssr:stedsnr" v="233199" />
		<tag k="waterway" v="stream" />
	</node>
	<node lat="58.74647499943268" lon="8.353333334182294" id="-24301">
		<tag k="name" v="Blåmyrtjønn" />
		<tag k="natural" v="water" />
		<tag k="ssr:stedsnr" v="233413" />
	</node>
	<node lat="58.74025000272435" lon="8.377725003548708" id="-24303">
		<tag k="name" v="Kransetjønn" />
		<tag k="natural" v="water" />
		<tag k="ssr:stedsnr" v="233419" />
	</node>
	<node lat="58.8140916692551" lon="8.06268610310372" id="-24315">
		<tag k="name" v="Halfartjønn" />
		<tag k="natural" v="water" />
		<tag k="ssr:stedsnr" v="233742" />
	</node>
	<node lat="58.70686388595409" lon="8.059216674822602" id="-24319">
		<tag k="name" v="Elgetjønn" />
		<tag k="natural" v="water" />
		<tag k="ssr:stedsnr" v="233781" />
	</node>
	<node lat="58.75935833372651" lon="8.421794437502099" id="-24323">
		<tag k="name" v="Gullsmedodden" />
		<tag k="natural" v="cape" />
		<tag k="ssr:stedsnr" v="233798" />
	</node>
	<node lat="58.75750277359309" lon="8.374730547909225" id="-24329">
		<tag k="name" v="Blikstjønn" />
		<tag k="natural" v="water" />
		<tag k="ssr:stedsnr" v="233861" />
	</node>
	<node lat="58.946791666696846" lon="8.076566659145684" id="-24330">
		<tag k="name" v="Åvoldstjønn" />
		<tag k="natural" v="water" />
		<tag k="ssr:stedsnr" v="233862" />
	</node>
	<node lat="58.84789444376749" lon="8.240911116992" id="-24342">
		<tag k="name" v="Oslitjønn" />
		<tag k="natural" v="water" />
		<tag k="ssr:stedsnr" v="234349" />
	</node>
	<node lat="58.90071944513464" lon="8.22769444579666" id="-24345">
		<tag k="name" v="Austabekken" />
		<tag k="ssr:stedsnr" v="234741" />
		<tag k="waterway" v="stream" />
	</node>
	<node lat="58.763558333357516" lon="8.640258338589765" id="-24351">
		<tag k="name" v="Mørketjønn" />
		<tag k="natural" v="water" />
		<tag k="ssr:stedsnr" v="31115" />
	</node>
	<node lat="58.85849999952807" lon="8.648463889525734" id="-24353">
		<tag k="name" v="Nedre Rakketjønn" />
		<tag k="natural" v="water" />
		<tag k="ssr:stedsnr" v="31176" />
	</node>
	<node lat="58.69116388745709" lon="8.421858337689484" id="-24360">
		<tag k="name" v="Løytstjønn" />
		<tag k="natural" v="water" />
		<tag k="ssr:stedsnr" v="31322" />
	</node>
	<node lat="58.67004166833653" lon="8.608238882863397" id="-24361">
		<tag k="name" v="Nelaug/Øyneskilen" />
		<tag k="natural" v="water" />
		<tag k="ssr:stedsnr" v="31211" />
		<tag k="water" v="lake" />
	</node>
	<node lat="58.677630558318185" lon="8.526669446351042" id="-24363">
		<tag k="name" v="Nevrevassbekken" />
		<tag k="ssr:stedsnr" v="31413" />
		<tag k="waterway" v="stream" />
	</node>
	<node lat="58.65079179374392" lon="8.455089307203993" id="-24370">
		<tag k="name" v="Tvitjønnene" />
		<tag k="natural" v="water" />
		<tag k="ssr:stedsnr" v="32328" />
		<tag k="water" v="lake" />
	</node>
	<node lat="58.7105472186835" lon="8.35695832855772" id="-24374">
		<tag k="name" v="Rostveittjønn" />
		<tag k="natural" v="water" />
		<tag k="ssr:stedsnr" v="32373" />
	</node>
	<node lat="58.7135194471653" lon="8.61594166149224" id="-24376">
		<tag k="name" v="Tovsnes" />
		<tag k="natural" v="cape" />
		<tag k="ssr:stedsnr" v="32496" />
	</node>
	<node lat="58.81658333585335" lon="8.389088893958448" id="-24388">
		<tag k="name" v="Gullbrosbekk" />
		<tag k="ssr:stedsnr" v="38422" />
		<tag k="waterway" v="stream" />
	</node>
	<node lat="58.88041389250511" lon="8.031580549848515" id="-24396">
		<tag k="name" v="Sandhyl" />
		<tag k="place" v="locality" />
		<tag k="ssr:stedsnr" v="49068" />
	</node>
	<node lat="58.84640000179118" lon="8.042011113798667" id="-24397">
		<tag k="name" v="Rypetjønn" />
		<tag k="natural" v="water" />
		<tag k="ssr:stedsnr" v="50114" />
	</node>
	<node lat="58.88174721918964" lon="8.140891670893856" id="-24398">
		<tag k="name" v="Den djupe Småtjønn" />
		<tag k="natural" v="water" />
		<tag k="ssr:stedsnr" v="50001" />
	</node>
	<node lat="58.747700002911316" lon="8.305522220955982" id="-24404">
		<tag k="name" v="Årlitjønn" />
		<tag k="natural" v="water" />
		<tag k="ssr:stedsnr" v="50311" />
	</node>
	<node lat="58.739263892109925" lon="8.273266659462465" id="-24409">
		<tag k="name" v="Ormetjønn" />
		<tag k="natural" v="water" />
		<tag k="ssr:stedsnr" v="51002" />
	</node>
	<node lat="58.75681111080987" lon="8.086961103642768" id="-24411">
		<tag k="name" v="Høgli-lona" />
		<tag k="natural" v="water" />
		<tag k="ssr:stedsnr" v="50968" />
		<tag k="water" v="lake" />
	</node>
	<node lat="58.76387499992294" lon="8.114547229136928" id="-24416">
		<tag k="name" v="Langehyl" />
		<tag k="place" v="locality" />
		<tag k="ssr:stedsnr" v="51218" />
	</node>
	<node lat="58.71573055545764" lon="8.167869440355382" id="-24419">
		<tag k="name" v="Ekorntjønn" />
		<tag k="natural" v="water" />
		<tag k="ssr:stedsnr" v="51573" />
	</node>
	<node lat="58.84470555997363" lon="8.255424994477785" id="-24421">
		<tag k="name" v="Løkjene" />
		<tag k="natural" v="water" />
		<tag k="ssr:stedsnr" v="51702" />
		<tag k="water" v="lake" />
	</node>
	<node lat="58.7052750023503" lon="8.246188889974485" id="-24430">
		<tag k="name" v="Sandvika" />
		<tag k="natural" v="bay" />
		<tag k="ssr:stedsnr" v="51689" />
	</node>
	<node lat="58.879976357081276" lon="8.276605723789157" id="-24434">
		<tag k="name" v="Digernestjønn" />
		<tag k="natural" v="water" />
		<tag k="ssr:stedsnr" v="52001" />
	</node>
	<node lat="58.83271944491265" lon="8.491438885422477" id="-24445">
		<tag k="name" v="Holmvassbekken" />
		<tag k="ssr:stedsnr" v="52585" />
		<tag k="waterway" v="stream" />
	</node>
	<node lat="58.94511666866166" lon="8.089263893582142" id="-24450">
		<tag k="name" v="Kjellinga" />
		<tag k="natural" v="water" />
		<tag k="ssr:stedsnr" v="52823" />
	</node>
	<node lat="58.97676944706957" lon="8.175263881560127" id="-24451">
		<tag k="name" v="Trongvik" />
		<tag k="natural" v="bay" />
		<tag k="ssr:stedsnr" v="52903" />
	</node>
	<node lat="58.936219446986016" lon="8.05917499739792" id="-24453">
		<tag k="name" v="Seljetjønn" />
		<tag k="natural" v="water" />
		<tag k="ssr:stedsnr" v="52906" />
	</node>
	<node lat="58.90627500161658" lon="8.402719437615076" id="-24455">
		<tag k="fixme" v="multiple name tags, choose one and add the other to alt_name" />
		<tag k="name" v="Øvre Uvdalstjønn;Åmlands Uvdalstjønn" />
		<tag k="natural" v="water" />
		<tag k="ssr:stedsnr" v="61026" />
	</node>
	<node lat="58.767787059012846" lon="8.456562018241764" id="-24457">
		<tag k="alt_name" v="Heggåstjønn" />
		<tag k="name" v="Heggåstjønna" />
		<tag k="natural" v="water" />
		<tag k="ssr:stedsnr" v="61210" />
	</node>
	<node lat="58.85694721874803" lon="8.377463886183987" id="-24460">
		<tag k="alt_name" v="Olandskyrvatn" />
		<tag k="name" v="Olands-Kyrevatn" />
		<tag k="natural" v="water" />
		<tag k="ssr:stedsnr" v="61106" />
	</node>
	<node lat="58.86045555314062" lon="8.412433332578964" id="-24463">
		<tag k="name" v="Spjotstjønn" />
		<tag k="natural" v="water" />
		<tag k="ssr:stedsnr" v="61111" />
	</node>
	<node lat="58.85239890903327" lon="8.410035111276585" id="-24464">
		<tag k="fixme" v="multiple name tags, choose one and add the other to alt_name" />
		<tag k="name" v="Øvre Fugletjønn;Olands Fugletjønn" />
		<tag k="natural" v="water" />
		<tag k="ssr:stedsnr" v="61112" />
	</node>
	<node lat="58.78742777539902" lon="8.14376111560758" id="-24466">
		<tag k="name" v="Mågestøyltjønn" />
		<tag k="natural" v="water" />
		<tag k="ssr:stedsnr" v="61135" />
	</node>
	<node lat="58.76050000279712" lon="8.220408335316026" id="-24470">
		<tag k="name" v="Storevatn" />
		<tag k="natural" v="water" />
		<tag k="ssr:stedsnr" v="61304" />
	</node>
	<node lat="58.73867777818926" lon="8.374336107965854" id="-24472">
		<tag k="name" v="Svanetjønn" />
		<tag k="natural" v="water" />
		<tag k="ssr:stedsnr" v="61378" />
	</node>
	<node lat="58.74595707179016" lon="8.028409778430488" id="-24476">
		<tag k="name" v="Sollitjønnin" />
		<tag k="natural" v="water" />
		<tag k="ssr:stedsnr" v="61913" />
		<tag k="water" v="lake" />
	</node>
	<node lat="58.67702777974331" lon="8.582574998325947" id="-24479">
		<tag k="name" v="Tollnes" />
		<tag k="place" v="islet" />
		<tag k="ssr:stedsnr" v="61928" />
	</node>
	<node lat="58.76984121264999" lon="8.070089622504186" id="-24481">
		<tag k="alt_name" v="Småvatni" />
		<tag k="name" v="Små-vatna" />
		<tag k="natural" v="water" />
		<tag k="ssr:stedsnr" v="61804" />
		<tag k="water" v="lake" />
	</node>
	<node lat="58.87944935911093" lon="8.332010766263531" id="-24483">
		<tag k="name" v="Trytetjønnane" />
		<tag k="natural" v="water" />
		<tag k="ssr:stedsnr" v="62019" />
		<tag k="water" v="lake" />
	</node>
	<node lat="58.807183331973626" lon="8.201375000764196" id="-24484">
		<tag k="alt_name" v="Lindsåstjønn" />
		<tag k="name" v="Lindåstjønn" />
		<tag k="natural" v="water" />
		<tag k="ssr:stedsnr" v="62172" />
	</node>
	<node lat="58.68444166587498" lon="8.657333332304406" id="-24491">
		<tag k="alt_name" v="Revetjønn" />
		<tag k="name" v="Revetjern" />
		<tag k="natural" v="water" />
		<tag k="ssr:stedsnr" v="62886" />
	</node>
	<node lat="58.699561111531764" lon="8.623050002313146" id="-24493">
		<tag k="name" v="Libutjønn" />
		<tag k="natural" v="water" />
		<tag k="ssr:stedsnr" v="62903" />
	</node>
	<node lat="58.653513890270844" lon="8.672488884802464" id="-24497">
		<tag k="alt_name" v="Grytebekken" />
		<tag k="name" v="Grytbekken" />
		<tag k="ssr:stedsnr" v="62989" />
		<tag k="waterway" v="stream" />
	</node>
	<node lat="58.89277984743364" lon="8.312471921602235" id="-24498">
		<tag k="name" v="Igletjønn" />
		<tag k="natural" v="water" />
		<tag k="ssr:stedsnr" v="243047" />
	</node>
	<node lat="58.71255833445661" lon="8.611586114536504" id="-24500">
		<tag k="name" v="Grunntjønn" />
		<tag k="natural" v="water" />
		<tag k="ssr:stedsnr" v="243056" />
	</node>
	<node lat="58.89916944783138" lon="8.285613885491388" id="-24502">
		<tag k="name" v="Sagbekken" />
		<tag k="ssr:stedsnr" v="243031" />
		<tag k="waterway" v="stream" />
	</node>
	<node lat="58.705900004097884" lon="8.61651111600397" id="-24505">
		<tag k="name" v="Foløya" />
		<tag k="place" v="islet" />
		<tag k="ssr:stedsnr" v="243073" />
	</node>
	<node lat="58.85410000094934" lon="8.459363890111991" id="-24508">
		<tag k="alt_name" v="Bjørnevatn" />
		<tag k="name" v="Bjønnvatn" />
		<tag k="natural" v="water" />
		<tag k="ssr:stedsnr" v="243105" />
	</node>
	<node lat="58.75707221858312" lon="8.138375003920615" id="-24510">
		<tag k="alt_name" v="Nordgardsbekken" />
		<tag k="name" v="Nordgardsbekk" />
		<tag k="ssr:stedsnr" v="243204" />
		<tag k="waterway" v="stream" />
	</node>
	<node lat="58.78711944549603" lon="8.44438055992524" id="-24512">
		<tag k="name" v="Øytjønn" />
		<tag k="natural" v="water" />
		<tag k="ssr:stedsnr" v="243223" />
	</node>
	<node lat="58.782291665623234" lon="8.41859721507307" id="-24513">
		<tag k="alt_name" v="Hagebråttjønna" />
		<tag k="name" v="Nordre Hagebrottjønna" />
		<tag k="natural" v="water" />
		<tag k="ssr:stedsnr" v="243227" />
	</node>
	<node lat="58.754461110134294" lon="8.243466669402498" id="-24522">
		<tag k="name" v="Storvassbekken" />
		<tag k="ssr:stedsnr" v="243298" />
		<tag k="waterway" v="stream" />
	</node>
	<node lat="58.82030277729226" lon="8.561499992719197" id="-24533">
		<tag k="name" v="Volløytjønna" />
		<tag k="natural" v="water" />
		<tag k="ssr:stedsnr" v="243690" />
	</node>
	<node lat="58.81795833206376" lon="8.563744446171286" id="-24536">
		<tag k="name" v="Lambetjønn" />
		<tag k="natural" v="water" />
		<tag k="ssr:stedsnr" v="243681" />
	</node>
	<node lat="58.806780558142954" lon="8.058480547096432" id="-24540">
		<tag k="name" v="Lauvbutjønn" />
		<tag k="natural" v="water" />
		<tag k="ssr:stedsnr" v="243794" />
	</node>
	<node lat="58.76279722096144" lon="8.036675002242374" id="-24541">
		<tag k="alt_name" v="Bytingsbekken" />
		<tag k="name" v="Bytingsbekk" />
		<tag k="ssr:stedsnr" v="243810" />
		<tag k="waterway" v="stream" />
	</node>
	<node lat="58.96325277877049" lon="8.165286115901035" id="-24543">
		<tag k="name" v="Gjevden" />
		<tag k="natural" v="water" />
		<tag k="ssr:stedsnr" v="243877" />
		<tag k="water" v="lake" />
	</node>
	<node lat="58.66453333061941" lon="8.743155548871094" id="-24545">
		<tag k="alt_name" v="Krossvatnet" />
		<tag k="name" v="Korsvatn" />
		<tag k="natural" v="water" />
		<tag k="ssr:stedsnr" v="243947" />
	</node>
	<node lat="58.67178333557745" lon="8.620399997810864" id="-24546">
		<tag k="alt_name" v="Igletjønn" />
		<tag k="name" v="Igletjern" />
		<tag k="natural" v="water" />
		<tag k="ssr:stedsnr" v="243954" />
	</node>
	<node lat="58.95574721884286" lon="8.20023333180623" id="-24548">
		<tag k="name" v="Jørundtjønn" />
		<tag k="natural" v="water" />
		<tag k="ssr:stedsnr" v="243903" />
	</node>
	<node lat="58.66796944122685" lon="8.735425001666092" id="-24550">
		<tag k="alt_name" v="Sandvatnet" />
		<tag k="name" v="Sandvatn" />
		<tag k="natural" v="water" />
		<tag k="ssr:stedsnr" v="243963" />
	</node>
	<node lat="58.906528595512846" lon="8.202665600457909" id="-24552">
		<tag k="name" v="Sandvatn" />
		<tag k="natural" v="water" />
		<tag k="ssr:stedsnr" v="243976" />
	</node>
	<node lat="58.906449996228126" lon="8.102763881822211" id="-24553">
		<tag k="name" v="Litjønna" />
		<tag k="natural" v="water" />
		<tag k="ssr:stedsnr" v="243977" />
	</node>
	<node lat="58.72489166865056" lon="8.029272217164515" id="-24554">
		<tag k="name" v="Gnaustjønni" />
		<tag k="natural" v="water" />
		<tag k="ssr:stedsnr" v="243923" />
	</node>
	<node lat="58.88427777559983" lon="8.164858327958537" id="-24555">
		<tag k="name" v="Rasmustjønnane" />
		<tag k="natural" v="water" />
		<tag k="ssr:stedsnr" v="244058" />
	</node>
	<node lat="58.800983335951926" lon="8.617730563255522" id="-24561">
		<tag k="name" v="Holmvatn" />
		<tag k="natural" v="water" />
		<tag k="ssr:stedsnr" v="244618" />
	</node>
	<node lat="58.773050003348715" lon="8.529752783543602" id="-24563">
		<tag k="name" v="Kalvetjønn" />
		<tag k="natural" v="water" />
		<tag k="ssr:stedsnr" v="244638" />
	</node>
	<node lat="58.85127499867686" lon="8.051866665765035" id="-24570">
		<tag k="name" v="Svåbassbekken" />
		<tag k="ssr:stedsnr" v="88273" />
		<tag k="waterway" v="stream" />
	</node>
	<node lat="58.75748055732523" lon="8.462786117257645" id="-24582">
		<tag k="name" v="Engenesbekken" />
		<tag k="ssr:stedsnr" v="92210" />
		<tag k="waterway" v="stream" />
	</node>
	<node lat="58.66743055654706" lon="8.377363885014987" id="-24588">
		<tag k="name" v="Sausand" />
		<tag k="natural" v="beach" />
		<tag k="ssr:stedsnr" v="92276" />
	</node>
	<node lat="58.74350555584035" lon="8.512972221221787" id="-24592">
		<tag k="name" v="Grautnes" />
		<tag k="natural" v="cape" />
		<tag k="ssr:stedsnr" v="92608" />
	</node>
	<node lat="58.661002963366165" lon="8.581472405460808" id="-24594">
		<tag k="name" v="Kubbesund" />
		<tag k="natural" v="strait" />
		<tag k="ssr:stedsnr" v="92669" />
	</node>
	<node lat="58.80197500252848" lon="8.159902772798452" id="-24621">
		<tag k="name" v="Litjønn" />
		<tag k="natural" v="water" />
		<tag k="ssr:stedsnr" v="111690" />
	</node>
	<node lat="58.79592499743473" lon="8.461683330140934" id="-24625">
		<tag k="name" v="Persfoss" />
		<tag k="natural" v="waterfall" />
		<tag k="ssr:stedsnr" v="112118" />
	</node>
	<node lat="58.792247221957794" lon="8.055505558484395" id="-24636">
		<tag k="name" v="Ytre Ruggvik" />
		<tag k="natural" v="bay" />
		<tag k="ssr:stedsnr" v="112603" />
	</node>
	<node lat="58.72376389032452" lon="8.301608339585037" id="-24639">
		<tag k="name" v="Heimre Åstjønn" />
		<tag k="natural" v="water" />
		<tag k="ssr:stedsnr" v="112611" />
	</node>
	<node lat="58.8382083303272" lon="8.458897226072965" id="-24643">
		<tag k="name" v="Hovmyrtjønn" />
		<tag k="natural" v="water" />
		<tag k="ssr:stedsnr" v="112631" />
	</node>
	<node lat="58.79728610706555" lon="8.019150004158236" id="-24646">
		<tag k="name" v="Hasledalbekken" />
		<tag k="ssr:stedsnr" v="112571" />
		<tag k="waterway" v="stream" />
	</node>
	<node lat="58.963808333719626" lon="8.13121389563981" id="-24653">
		<tag k="name" v="Espeliåna" />
		<tag k="ssr:stedsnr" v="112875" />
		<tag k="waterway" v="river" />
	</node>
	<node lat="58.97603610808908" lon="8.101219445538135" id="-24654">
		<tag k="name" v="Sollitjønna" />
		<tag k="natural" v="water" />
		<tag k="ssr:stedsnr" v="112877" />
	</node>
	<node lat="58.76644263812688" lon="8.016730129007177" id="-24658">
		<tag k="name" v="Gruvleknuttjørnene" />
		<tag k="natural" v="water" />
		<tag k="ssr:stedsnr" v="112978" />
		<tag k="water" v="lake" />
	</node>
	<node lat="58.86690833721899" lon="8.415158327332184" id="-24666">
		<tag k="name" v="Strandvatn" />
		<tag k="natural" v="water" />
		<tag k="ssr:stedsnr" v="122104" />
	</node>
	<node lat="58.72672777728839" lon="8.611427776662246" id="-24668">
		<tag k="name" v="Uvetjønn" />
		<tag k="natural" v="water" />
		<tag k="ssr:stedsnr" v="122110" />
	</node>
	<node lat="58.80566666285296" lon="8.321963892110515" id="-24669">
		<tag k="alt_name" v="Ljosdalstjønnane" />
		<tag k="name" v="Ljosdalstjønn" />
		<tag k="natural" v="water" />
		<tag k="ssr:stedsnr" v="122122" />
	</node>
	<node lat="58.87056389008105" lon="8.210972218161261" id="-24670">
		<tag k="name" v="Storetjønn" />
		<tag k="natural" v="water" />
		<tag k="ssr:stedsnr" v="122009" />
	</node>
	<node lat="58.74989444583224" lon="8.118444452871064" id="-24675">
		<tag k="name" v="Laugtjønn" />
		<tag k="natural" v="water" />
		<tag k="ssr:stedsnr" v="122316" />
	</node>
	<node lat="58.75643889319573" lon="8.367569451986629" id="-24677">
		<tag k="name" v="Barlindtjønn" />
		<tag k="natural" v="water" />
		<tag k="ssr:stedsnr" v="122321" />
	</node>
	<node lat="58.91296388844819" lon="8.604450006549778" id="-24678">
		<tag k="alt_name" v="Fåtjønn" />
		<tag k="name" v="Fåtjønna" />
		<tag k="natural" v="water" />
		<tag k="ssr:stedsnr" v="122465" />
	</node>
	<node lat="58.90129682391703" lon="8.0682851941795" id="-24682">
		<tag k="name" v="Lontjønn" />
		<tag k="natural" v="water" />
		<tag k="ssr:stedsnr" v="122704" />
	</node>
	<node lat="58.89151666314605" lon="8.581858339018533" id="-24685">
		<tag k="name" v="Rokketjønn" />
		<tag k="natural" v="water" />
		<tag k="ssr:stedsnr" v="152021" />
	</node>
	<node lat="58.85566666242371" lon="8.532647224924114" id="-24686">
		<tag k="name" v="Tverrbekk" />
		<tag k="ssr:stedsnr" v="152061" />
		<tag k="waterway" v="stream" />
	</node>
	<node lat="58.84774722064623" lon="8.566416674475597" id="-24689">
		<tag k="name" v="Nordlistryken" />
		<tag k="ssr:stedsnr" v="152074" />
		<tag k="waterway" v="rapids" />
	</node>
	<node lat="58.76839722126009" lon="8.558533332357808" id="-24695">
		<tag k="name" v="Storestem" />
		<tag k="ssr:stedsnr" v="152409" />
		<tag k="waterway" v="dam" />
	</node>
	<node lat="58.66903888945727" lon="8.69120556137453" id="-24702">
		<tag k="name" v="Stormyrtjønn" />
		<tag k="natural" v="water" />
		<tag k="ssr:stedsnr" v="153506" />
	</node>
	<node lat="58.67308610852138" lon="8.699897214694511" id="-24703">
		<tag k="name" v="Halvfarmyrtjønn" />
		<tag k="natural" v="water" />
		<tag k="ssr:stedsnr" v="153519" />
	</node>
	<node lat="58.69211666734437" lon="8.336077772144726" id="-24706">
		<tag k="name" v="Ljosvatn" />
		<tag k="natural" v="water" />
		<tag k="ssr:stedsnr" v="153403" />
		<tag k="water" v="lake" />
	</node>
	<node lat="58.72172499903165" lon="8.54026389569148" id="-24714">
		<tag k="name" v="Sommerfjøsevja" />
		<tag k="natural" v="bay" />
		<tag k="ssr:stedsnr" v="153699" />
	</node>
	<node lat="58.90475833720781" lon="8.280491658688998" id="-24715">
		<tag k="name" v="Stutebekken" />
		<tag k="ssr:stedsnr" v="158660" />
		<tag k="waterway" v="stream" />
	</node>
	<node lat="58.886822219491435" lon="8.20810833989346" id="-24723">
		<tag k="name" v="Stemmetjønn" />
		<tag k="natural" v="water" />
		<tag k="ssr:stedsnr" v="166314" />
	</node>
	<node lat="58.920036110244745" lon="8.029452769914617" id="-24728">
		<tag k="name" v="Videstøyltjønn" />
		<tag k="natural" v="water" />
		<tag k="ssr:stedsnr" v="171109" />
	</node>
	<node lat="58.91617777893014" lon="8.026819441301999" id="-24729">
		<tag k="name" v="Videstøyltjønn" />
		<tag k="natural" v="water" />
		<tag k="ssr:stedsnr" v="171110" />
	</node>
	<node lat="58.82471944341711" lon="8.080086106315392" id="-24734">
		<tag k="name" v="Sjerreidstjønn" />
		<tag k="natural" v="water" />
		<tag k="ssr:stedsnr" v="171915" />
	</node>
	<node lat="58.82984722082587" lon="8.096594445572215" id="-24735">
		<tag k="loc_name" v="Bjørnsdalsbekken" />
		<tag k="name" v="Bjørndalsbekken" />
		<tag k="ssr:stedsnr" v="171924" />
		<tag k="waterway" v="stream" />
	</node>
	<node lat="58.79745555667733" lon="8.453833337986483" id="-24740">
		<tag k="name" v="Ljostjørnia" />
		<tag k="natural" v="bay" />
		<tag k="ssr:stedsnr" v="172103" />
	</node>
	<node lat="58.75721666687552" lon="8.270097218796515" id="-24746">
		<tag k="name" v="Skrebekk" />
		<tag k="ssr:stedsnr" v="172433" />
		<tag k="waterway" v="stream" />
	</node>
	<node lat="58.726563887290006" lon="8.241580560378395" id="-24749">
		<tag k="name" v="Navnlaus" />
		<tag k="natural" v="water" />
		<tag k="ssr:stedsnr" v="172567" />
	</node>
	<node lat="58.765352779905" lon="8.085313885915129" id="-24762">
		<tag k="name" v="Fisketjønn" />
		<tag k="natural" v="water" />
		<tag k="ssr:stedsnr" v="172961" />
	</node>
	<node lat="58.866174997885814" lon="8.206883334999398" id="-24766">
		<tag k="name" v="Mørketjønnbekken" />
		<tag k="ssr:stedsnr" v="173220" />
		<tag k="waterway" v="stream" />
	</node>
	<node lat="58.69896551167217" lon="8.306459699663119" id="-24768">
		<tag k="alt_name" v="Austadkilen" />
		<tag k="name" v="Auestadkilen" />
		<tag k="natural" v="bay" />
		<tag k="ssr:stedsnr" v="173710" />
	</node>
	<node lat="58.433416670624396" lon="8.710941663560412" id="-24777">
		<tag k="name" v="Nidelva" />
		<tag k="ssr:stedsnr" v="182644" />
		<tag k="waterway" v="river" />
	</node>
	<node lat="58.74931944337658" lon="8.485644437211565" id="-24781">
		<tag k="name" v="Sagtjønn" />
		<tag k="natural" v="water" />
		<tag k="ssr:stedsnr" v="183002" />
	</node>
	<node lat="58.86665277980617" lon="8.109255561413057" id="-24784">
		<tag k="name" v="Tosketjønn" />
		<tag k="natural" v="water" />
		<tag k="ssr:stedsnr" v="183014" />
	</node>
	<node lat="58.89746110838507" lon="8.177313886533607" id="-24786">
		<tag k="name" v="Heddesvatn" />
		<tag k="natural" v="water" />
		<tag k="ssr:stedsnr" v="183044" />
		<tag k="water" v="lake" />
	</node>
	<node lat="58.9127638855647" lon="8.212572222735345" id="-24789">
		<tag k="alt_name" v="Bråkånbekken" />
		<tag k="name" v="Bråkonbekken" />
		<tag k="ssr:stedsnr" v="182994" />
		<tag k="waterway" v="stream" />
	</node>
	<node lat="58.84050833396086" lon="8.252097229412119" id="-24790">
		<tag k="loc_name" v="Sinavatn" />
		<tag k="name" v="Sinevatn" />
		<tag k="natural" v="water" />
		<tag k="ssr:stedsnr" v="183103" />
		<tag k="water" v="lake" />
	</node>
	<node lat="58.89344166550755" lon="8.493683336303258" id="-24793">
		<tag k="name" v="Malvasstjønna" />
		<tag k="natural" v="water" />
		<tag k="ssr:stedsnr" v="183405" />
	</node>
	<node lat="58.71878888684746" lon="8.125738885587213" id="-24794">
		<tag k="name" v="Troddedalsbekken" />
		<tag k="ssr:stedsnr" v="183455" />
		<tag k="waterway" v="stream" />
	</node>
	<node lat="58.78623610819263" lon="8.63703056170722" id="-24795">
		<tag k="name" v="Mørketjønnane" />
		<tag k="natural" v="water" />
		<tag k="ssr:stedsnr" v="183604" />
		<tag k="water" v="lake" />
	</node>
	<node lat="58.81421666341473" lon="8.035455552631673" id="-24801">
		<tag k="name" v="Steinslandsbekken" />
		<tag k="ssr:stedsnr" v="209340" />
		<tag k="waterway" v="stream" />
	</node>
	<node lat="58.83606944751031" lon="8.711675008546258" id="-24807">
		<tag k="name" v="Stuthølen" />
		<tag k="place" v="locality" />
		<tag k="ssr:stedsnr" v="213093" />
	</node>
	<node lat="58.84667499964894" lon="8.642002783400068" id="-24809">
		<tag k="name" v="Brufoss" />
		<tag k="natural" v="waterfall" />
		<tag k="ssr:stedsnr" v="213204" />
	</node>
	<node lat="58.67852222487585" lon="8.41897222691965" id="-24816">
		<tag k="name" v="Terelitjønn" />
		<tag k="natural" v="water" />
		<tag k="ssr:stedsnr" v="214229" />
	</node>
	<node lat="58.75885277436325" lon="8.543449996191415" id="-24819">
		<tag k="name" v="Åmot" />
		<tag k="natural" v="cape" />
		<tag k="ssr:stedsnr" v="214191" />
	</node>
	<node lat="58.69069721986566" lon="8.523805562511662" id="-24822">
		<tag k="name" v="Tjønnimellom" />
		<tag k="natural" v="cape" />
		<tag k="ssr:stedsnr" v="214378" />
	</node>
	<node lat="58.71243333668269" lon="8.55280833372628" id="-24835">
		<tag k="name" v="Bjørkenes" />
		<tag k="natural" v="cape" />
		<tag k="ssr:stedsnr" v="214703" />
	</node>
	<node lat="58.71950278185286" lon="8.591327783130678" id="-24836">
		<tag k="name" v="Lomsøya" />
		<tag k="place" v="islet" />
		<tag k="ssr:stedsnr" v="214708" />
	</node>
	<node lat="58.91688610754687" lon="8.206947220553502" id="-24845">
		<tag k="name" v="Den øvre Bråkonbekken" />
		<tag k="ssr:stedsnr" v="220320" />
		<tag k="waterway" v="stream" />
	</node>
	<node lat="58.88309722461144" lon="8.188672230148613" id="-24846">
		<tag k="name" v="Merrslåttjønn" />
		<tag k="natural" v="water" />
		<tag k="ssr:stedsnr" v="220275" />
	</node>
	<node lat="58.64723889113123" lon="8.735805548329521" id="-24851">
		<tag k="name" v="Finnstjønn" />
		<tag k="natural" v="water" />
		<tag k="ssr:stedsnr" v="226967" />
	</node>
	<node lat="58.8045972227063" lon="8.206199993557387" id="-24858">
		<tag k="name" v="Lomtjønn" />
		<tag k="natural" v="water" />
		<tag k="ssr:stedsnr" v="232303" />
	</node>
	<node lat="58.916022219186154" lon="8.239388893560406" id="-24865">
		<tag k="name" v="Lislebostadevja" />
		<tag k="place" v="locality" />
		<tag k="ssr:stedsnr" v="233278" />
	</node>
	<node lat="58.723275004063524" lon="8.134405554781136" id="-24866">
		<tag k="name" v="Rakksund" />
		<tag k="natural" v="strait" />
		<tag k="ssr:stedsnr" v="233608" />
	</node>
	<node lat="58.89383888780344" lon="8.187033328883553" id="-24878">
		<tag k="name" v="Heddesvasstjønn" />
		<tag k="natural" v="water" />
		<tag k="ssr:stedsnr" v="234302" />
	</node>
	<node lat="58.821338888862925" lon="8.495700005462218" id="-24886">
		<tag k="name" v="Trytetjønn" />
		<tag k="natural" v="water" />
		<tag k="ssr:stedsnr" v="243634" />
	</node>
	<node lat="58.838458335047115" lon="8.568374994040418" id="-24887">
		<tag k="name" v="Sandåna" />
		<tag k="ssr:stedsnr" v="243647" />
		<tag k="waterway" v="stream" />
	</node>
	<node lat="58.84322499637009" lon="8.497336114991946" id="-24888">
		<tag k="name" v="Grauttjønn" />
		<tag k="natural" v="water" />
		<tag k="ssr:stedsnr" v="243655" />
	</node>
	<node lat="58.88618055391484" lon="8.257497225931516" id="-24894">
		<tag k="name" v="Motjønn" />
		<tag k="natural" v="water" />
		<tag k="ssr:stedsnr" v="244055" />
	</node>
	<node lat="58.87467778211843" lon="8.215816662158053" id="-24895">
		<tag k="name" v="Lisletjønn" />
		<tag k="natural" v="water" />
		<tag k="ssr:stedsnr" v="244013" />
	</node>
	<node lat="58.79753610855602" lon="8.173716664892257" id="-24897">
		<tag k="alt_name" v="Kinna" />
		<tag k="name" v="Kinnåna" />
		<tag k="ssr:stedsnr" v="244134" />
		<tag k="waterway" v="river" />
	</node>
	<node lat="58.72813333522787" lon="8.605697228825838" id="-24899">
		<tag k="name" v="Kloppetjønn" />
		<tag k="natural" v="water" />
		<tag k="ssr:stedsnr" v="244109" />
	</node>
	<node lat="58.83095277995862" lon="8.204405549686712" id="-24902">
		<tag k="name" v="Storlitjønna" />
		<tag k="natural" v="water" />
		<tag k="ssr:stedsnr" v="244086" />
	</node>
	<node lat="58.83304722625852" lon="8.227000001379064" id="-24904">
		<tag k="name" v="Hommetjønn" />
		<tag k="natural" v="water" />
		<tag k="ssr:stedsnr" v="244093" />
	</node>
	<node lat="58.905163892510735" lon="8.501544452546373" id="-24908">
		<tag k="name" v="Maurtjønn" />
		<tag k="natural" v="water" />
		<tag k="ssr:stedsnr" v="244486" />
	</node>
	<node lat="58.799850004028144" lon="8.498050005257063" id="-24910">
		<tag k="name" v="Nestjønn" />
		<tag k="natural" v="water" />
		<tag k="ssr:stedsnr" v="244630" />
	</node>
	<node lat="58.69399831539572" lon="8.493474446361102" id="-24913">
		<tag k="alt_name" v="Vestre Venelitjønn" />
		<tag k="name" v="Venelitjønn" />
		<tag k="natural" v="water" />
		<tag k="ssr:stedsnr" v="244896" />
	</node>
	<node lat="58.65140555937252" lon="8.688138897056106" id="-24914">
		<tag k="alt_name" v="Åslandstjønna" />
		<tag k="name" v="Åslandstjerna" />
		<tag k="natural" v="water" />
		<tag k="ssr:stedsnr" v="244992" />
	</node>
	<node lat="58.83091388727215" lon="8.062511106771812" id="-24916">
		<tag k="fixme" v="multiple name tags, choose one and add the other to alt_name" />
		<tag k="name" v="Kvitfossen;Kvitfoss (øvre)" />
		<tag k="natural" v="waterfall" />
		<tag k="ssr:stedsnr" v="452335" />
	</node>
	<node lat="58.80044999640283" lon="8.6091861032148" id="-24922">
		<tag k="name" v="Holmvassbekken" />
		<tag k="ssr:stedsnr" v="456132" />
		<tag k="waterway" v="stream" />
	</node>
	<node lat="58.770799998918335" lon="8.64084167244475" id="-24924">
		<tag k="name" v="Væråsbekken" />
		<tag k="ssr:stedsnr" v="456136" />
		<tag k="waterway" v="stream" />
	</node>
	<node lat="58.68444444012592" lon="8.637066658408099" id="-24928">
		<tag k="name" v="Smalsund" />
		<tag k="natural" v="strait" />
		<tag k="ssr:stedsnr" v="456224" />
	</node>
	<node lat="58.76554444395552" lon="8.48190833019277" id="-24934">
		<tag k="name" v="Stasjonsevja" />
		<tag k="natural" v="water" />
		<tag k="ssr:stedsnr" v="456237" />
		<tag k="water" v="lake" />
	</node>
	<node lat="58.76423862065027" lon="8.531023579400088" id="-24937">
		<tag k="name" v="Bakketjønn" />
		<tag k="natural" v="water" />
		<tag k="ssr:stedsnr" v="456253" />
	</node>
	<node lat="58.77213610984712" lon="8.59159167507677" id="-24939">
		<tag k="name" v="Knutetjønn, vestre" />
		<tag k="natural" v="water" />
		<tag k="ssr:stedsnr" v="456388" />
	</node>
	<node lat="58.76096110928526" lon="8.598491666957592" id="-24941">
		<tag k="name" v="Nordkilen" />
		<tag k="natural" v="bay" />
		<tag k="ssr:stedsnr" v="456352" />
	</node>
	<node lat="58.8140555578241" lon="8.524461109576885" id="-24949">
		<tag k="name" v="Ljosevja" />
		<tag k="natural" v="bay" />
		<tag k="ssr:stedsnr" v="456453" />
	</node>
	<node lat="58.71510555237844" lon="8.607308329082292" id="-24956">
		<tag k="name" v="Leirbekk" />
		<tag k="ssr:stedsnr" v="456776" />
		<tag k="waterway" v="stream" />
	</node>
	<node lat="58.76503055574449" lon="8.446391664623576" id="-24965">
		<tag k="name" v="Heftetjønn" />
		<tag k="ssr:stedsnr" v="457237" />
		<tag k="waterway" v="stream" />
	</node>
	<node lat="58.65952777957417" lon="8.684025004080617" id="-24975">
		<tag k="name" v="Øygardstjønn" />
		<tag k="natural" v="water" />
		<tag k="ssr:stedsnr" v="457485" />
	</node>
	<node lat="58.66685555123755" lon="8.695236118580794" id="-24976">
		<tag k="name" v="Gaulmyrtjønn" />
		<tag k="natural" v="water" />
		<tag k="ssr:stedsnr" v="457489" />
	</node>
	<node lat="58.7138722179158" lon="8.592344443133786" id="-24978">
		<tag k="alt_name" v="Bjørndalensbukta" />
		<tag k="name" v="Bjønndalsbukta" />
		<tag k="natural" v="bay" />
		<tag k="ssr:stedsnr" v="457541" />
	</node>
	<node lat="58.671016662971034" lon="8.551311107429663" id="-24979">
		<tag k="name" v="Beverlonene" />
		<tag k="natural" v="water" />
		<tag k="ssr:stedsnr" v="457641" />
		<tag k="water" v="lake" />
	</node>
	<node lat="58.77401388590965" lon="8.487144448850547" id="-24985">
		<tag k="name" v="Bjorevja" />
		<tag k="natural" v="bay" />
		<tag k="ssr:stedsnr" v="274214" />
	</node>
	<node lat="58.72697499949125" lon="8.422191664453756" id="-24998">
		<tag k="name" v="Smørlistemmen" />
		<tag k="ssr:stedsnr" v="274324" />
		<tag k="waterway" v="dam" />
	</node>
	<node lat="58.633686107440965" lon="8.431105552801904" id="-24999">
		<tag k="name" v="Markåstjønn" />
		<tag k="natural" v="water" />
		<tag k="ssr:stedsnr" v="274272" />
	</node>
	<node lat="58.83773333233579" lon="8.591316663354212" id="-25004">
		<tag k="name" v="Kovetjønn" />
		<tag k="natural" v="water" />
		<tag k="ssr:stedsnr" v="274414" />
	</node>
	<node lat="58.74986389178204" lon="8.515402779865395" id="-25012">
		<tag k="name" v="Stedammen" />
		<tag k="ssr:stedsnr" v="274579" />
		<tag k="waterway" v="dam" />
	</node>
	<node lat="58.667591669522565" lon="8.620702772246812" id="-25017">
		<tag k="name" v="Kittelsholmen" />
		<tag k="natural" v="shoal" />
		<tag k="ssr:stedsnr" v="275380" />
	</node>
	<node lat="58.66013611295687" lon="8.641236117875097" id="-25019">
		<tag k="name" v="Kvernbekken" />
		<tag k="ssr:stedsnr" v="275385" />
		<tag k="waterway" v="stream" />
	</node>
	<node lat="58.768905557107935" lon="8.375347225896867" id="-25034">
		<tag k="name" v="Holmen" />
		<tag k="place" v="islet" />
		<tag k="ssr:stedsnr" v="462152" />
	</node>
	<node lat="58.8882138899925" lon="8.111330555827914" id="-25038">
		<tag k="name" v="Lisle Grunntjønn" />
		<tag k="natural" v="water" />
		<tag k="ssr:stedsnr" v="462252" />
	</node>
	<node lat="58.85803333077822" lon="8.214808335906117" id="-25048">
		<tag k="name" v="Mørketjønn" />
		<tag k="natural" v="water" />
		<tag k="ssr:stedsnr" v="294000" />
	</node>
	<node lat="58.85537777921667" lon="8.252869450027768" id="-25054">
		<tag k="name" v="Sjavskotdalstjønn" />
		<tag k="natural" v="water" />
		<tag k="ssr:stedsnr" v="294313" />
	</node>
	<node lat="58.78380833035872" lon="8.047650000205113" id="-25057">
		<tag k="name" v="Bjårvassfoss" />
		<tag k="natural" v="waterfall" />
		<tag k="ssr:stedsnr" v="294603" />
	</node>
	<node lat="58.84761666765989" lon="8.441852770573488" id="-25063">
		<tag k="name" v="Primtjønn" />
		<tag k="natural" v="water" />
		<tag k="ssr:stedsnr" v="294673" />
	</node>
	<node lat="58.7104805545655" lon="8.000916670049902" id="-25073">
		<tag k="name" v="Store Skinnarhølen" />
		<tag k="natural" v="water" />
		<tag k="ssr:stedsnr" v="294742" />
	</node>
	<node lat="58.74165555968417" lon="8.13173333117434" id="-25084">
		<tag k="name" v="Kransåbekken" />
		<tag k="ssr:stedsnr" v="295916" />
		<tag k="waterway" v="stream" />
	</node>
	<node lat="58.747211108327136" lon="8.363874992277685" id="-25090">
		<tag k="name" v="Kraketjønn" />
		<tag k="natural" v="water" />
		<tag k="ssr:stedsnr" v="302511" />
	</node>
	<node lat="58.74922063252286" lon="8.496963840774118" id="-25091">
		<tag k="name" v="Imetjønn" />
		<tag k="natural" v="water" />
		<tag k="ssr:stedsnr" v="304031" />
	</node>
	<node lat="58.87630000249031" lon="8.461027777660048" id="-25092">
		<tag k="name" v="Heddestjønn" />
		<tag k="natural" v="water" />
		<tag k="ssr:stedsnr" v="304035" />
	</node>
	<node lat="58.773127781889606" lon="8.173783327010977" id="-25095">
		<tag k="name" v="Beltestøyltjønn" />
		<tag k="natural" v="water" />
		<tag k="ssr:stedsnr" v="304231" />
	</node>
	<node lat="58.75261389178657" lon="8.241227771252966" id="-25098">
		<tag k="name" v="Gåstjønn" />
		<tag k="natural" v="water" />
		<tag k="ssr:stedsnr" v="304290" />
	</node>
	<node lat="58.80583333158503" lon="8.348550004819728" id="-25101">
		<tag k="name" v="Hovatn" />
		<tag k="natural" v="water" />
		<tag k="ssr:stedsnr" v="304124" />
	</node>
	<node lat="58.79749722057121" lon="8.336522226117834" id="-25102">
		<tag k="name" v="Øyvatn" />
		<tag k="natural" v="water" />
		<tag k="ssr:stedsnr" v="304126" />
	</node>
	<node lat="58.765743202889254" lon="8.177896084135268" id="-25104">
		<tag k="name" v="Urdtjønn" />
		<tag k="natural" v="water" />
		<tag k="ssr:stedsnr" v="304186" />
	</node>
	<node lat="58.75882778003328" lon="8.098216665995281" id="-25105">
		<tag k="name" v="Ormetjønn" />
		<tag k="natural" v="water" />
		<tag k="ssr:stedsnr" v="304197" />
	</node>
	<node lat="58.73803889026394" lon="8.23373611425003" id="-25107">
		<tag k="name" v="Birkenestjønn" />
		<tag k="natural" v="water" />
		<tag k="ssr:stedsnr" v="304383" />
	</node>
	<node lat="58.772069447439016" lon="8.514861108909177" id="-25109">
		<tag k="name" v="Bjørnetjønn" />
		<tag k="natural" v="water" />
		<tag k="ssr:stedsnr" v="304508" />
	</node>
	<node lat="58.73095277734127" lon="8.22421111300466" id="-25117">
		<tag k="alt_name" v="Vågsdalsvatnet" />
		<tag k="name" v="Vogsdalsvatnet" />
		<tag k="natural" v="water" />
		<tag k="ssr:stedsnr" v="304478" />
		<tag k="water" v="lake" />
	</node>
	<node lat="58.94418233101664" lon="8.051082064293025" id="-25120">
		<tag k="name" v="Vardetjønnin" />
		<tag k="natural" v="water" />
		<tag k="ssr:stedsnr" v="304669" />
		<tag k="water" v="lake" />
	</node>
	<node lat="58.95051944284281" lon="8.120749995248378" id="-25124">
		<tag k="alt_name" v="Nystøltjønna" />
		<tag k="name" v="Nystøyltjønna" />
		<tag k="natural" v="water" />
		<tag k="ssr:stedsnr" v="304924" />
	</node>
	<node lat="58.887269447985254" lon="8.59299721560819" id="-25132">
		<tag k="name" v="Storbekk" />
		<tag k="ssr:stedsnr" v="335018" />
		<tag k="waterway" v="stream" />
	</node>
	<node lat="58.67458055889513" lon="8.43609166805752" id="-25146">
		<tag k="name" v="Blåbærtjønn" />
		<tag k="natural" v="water" />
		<tag k="ssr:stedsnr" v="335263" />
	</node>
	<node lat="58.7300305594069" lon="8.559483340969011" id="-25151">
		<tag k="name" v="Røyfjelltjønn" />
		<tag k="natural" v="water" />
		<tag k="ssr:stedsnr" v="335702" />
	</node>
	<node lat="58.61847500389498" lon="8.71044166174637" id="-25153">
		<tag k="name" v="Sørenskil" />
		<tag k="natural" v="bay" />
		<tag k="ssr:stedsnr" v="335627" />
	</node>
	<node lat="58.72350277671143" lon="8.443977784111443" id="-25156">
		<tag k="name" v="Åstjønn" />
		<tag k="natural" v="water" />
		<tag k="ssr:stedsnr" v="335650" />
	</node>
	<node lat="58.66106388991426" lon="8.618894436071198" id="-25165">
		<tag k="name" v="Nelaugdammen" />
		<tag k="ssr:stedsnr" v="336403" />
		<tag k="waterway" v="dam" />
	</node>
	<node lat="58.87265000274774" lon="8.047972224560628" id="-25186">
		<tag k="name" v="Sagøyna" />
		<tag k="place" v="islet" />
		<tag k="ssr:stedsnr" v="474037" />
	</node>
	<node lat="58.91446111327238" lon="8.093625006045267" id="-25189">
		<tag k="name" v="Svanetjønn" />
		<tag k="natural" v="water" />
		<tag k="ssr:stedsnr" v="474224" />
	</node>
	<node lat="58.86806944350459" lon="8.157197218693618" id="-25192">
		<tag k="name" v="Torvildstjønn" />
		<tag k="natural" v="water" />
		<tag k="ssr:stedsnr" v="353008" />
	</node>
	<node lat="58.88048055190362" lon="8.013947218041078" id="-25196">
		<tag k="name" v="Predistoltjønnan" />
		<tag k="natural" v="water" />
		<tag k="ssr:stedsnr" v="353055" />
		<tag k="water" v="lake" />
	</node>
	<node lat="58.854344443626466" lon="8.025438889122603" id="-25203">
		<tag k="name" v="Den lange Svåbasstjønn" />
		<tag k="natural" v="water" />
		<tag k="ssr:stedsnr" v="353127" />
	</node>
	<node lat="58.85782778204178" lon="8.018400002894346" id="-25204">
		<tag k="name" v="Den nerste Svåbasstjønn" />
		<tag k="natural" v="water" />
		<tag k="ssr:stedsnr" v="353128" />
	</node>
	<node lat="58.71258073940383" lon="8.317382037616943" id="-25215">
		<tag k="alt_name" v="Nipekjønnene" />
		<tag k="name" v="Nipetjørnene" />
		<tag k="natural" v="water" />
		<tag k="ssr:stedsnr" v="354605" />
		<tag k="water" v="lake" />
	</node>
	<node lat="58.71245555831017" lon="8.292422214024374" id="-25219">
		<tag k="name" v="Øygardstjønn" />
		<tag k="natural" v="water" />
		<tag k="ssr:stedsnr" v="354626" />
	</node>
	<node lat="58.85435277858051" lon="8.38262778015866" id="-25222">
		<tag k="name" v="Rjupetjønn" />
		<tag k="natural" v="water" />
		<tag k="ssr:stedsnr" v="354657" />
	</node>
	<node lat="58.84396666226894" lon="8.168061103051297" id="-25242">
		<tag k="name" v="Halvøya" />
		<tag k="natural" v="cape" />
		<tag k="ssr:stedsnr" v="474990" />
	</node>
	<node lat="58.76374444477732" lon="8.197013891693878" id="-25245">
		<tag k="name" v="Gjeruvsdalsbekken" />
		<tag k="ssr:stedsnr" v="475341" />
		<tag k="waterway" v="stream" />
	</node>
	<node lat="58.75977778092003" lon="7.9949416750595" id="-25250">
		<tag k="name" v="Skjevletjørnin" />
		<tag k="natural" v="water" />
		<tag k="ssr:stedsnr" v="475747" />
		<tag k="water" v="lake" />
	</node>
	<node lat="58.757880559971035" lon="8.119519448865132" id="-25274">
		<tag k="name" v="Krokstebekk" />
		<tag k="ssr:stedsnr" v="476198" />
		<tag k="waterway" v="stream" />
	</node>
	<node lat="58.92108888590142" lon="8.304291671056655" id="-25277">
		<tag k="name" v="Stavetjønn" />
		<tag k="natural" v="water" />
		<tag k="ssr:stedsnr" v="476255" />
	</node>
	<node lat="58.90976111395323" lon="8.39200555360297" id="-25278">
		<tag k="name" v="Stemmen" />
		<tag k="ssr:stedsnr" v="476299" />
		<tag k="waterway" v="dam" />
	</node>
	<node lat="58.78700277808409" lon="8.436727782621993" id="-25280">
		<tag k="name" v="Rundetjønn" />
		<tag k="natural" v="water" />
		<tag k="ssr:stedsnr" v="476390" />
	</node>
	<node lat="58.72024444460341" lon="8.241174995858414" id="-25284">
		<tag k="name" v="Sløvassbekken" />
		<tag k="ssr:stedsnr" v="476488" />
		<tag k="waterway" v="stream" />
	</node>
	<node lat="58.810583335020176" lon="8.256972227903887" id="-25294">
		<tag k="name" v="Åbogtjønn" />
		<tag k="natural" v="water" />
		<tag k="ssr:stedsnr" v="476596" />
	</node>
	<node lat="58.888949997466014" lon="8.319752780643498" id="-25295">
		<tag k="name" v="Igletjønn" />
		<tag k="natural" v="water" />
		<tag k="ssr:stedsnr" v="476597" />
	</node>
	<node lat="58.759013884624416" lon="8.430036118946967" id="-25297">
		<tag k="name" v="Breivasstjønn" />
		<tag k="natural" v="water" />
		<tag k="ssr:stedsnr" v="476771" />
	</node>
	<node lat="58.96361389309779" lon="8.137177784816734" id="-25301">
		<tag k="name" v="Svarthylneset" />
		<tag k="natural" v="cape" />
		<tag k="ssr:stedsnr" v="476893" />
	</node>
	<node lat="58.76848610672635" lon="8.080966663970631" id="-25304">
		<tag k="name" v="Brende-odden" />
		<tag k="natural" v="cape" />
		<tag k="ssr:stedsnr" v="476954" />
	</node>
	<node lat="58.891152781276055" lon="8.135713895791035" id="-25306">
		<tag k="name" v="Rustetjønn" />
		<tag k="natural" v="water" />
		<tag k="ssr:stedsnr" v="364035" />
	</node>
	<node lat="58.79737221846413" lon="8.228222229941553" id="-25310">
		<tag k="name" v="Austeråna" />
		<tag k="ssr:stedsnr" v="364157" />
		<tag k="waterway" v="stream" />
	</node>
	<node lat="58.779125003209046" lon="8.308369435902422" id="-25314">
		<tag k="alt_name" v="Strandvassbekken" />
		<tag k="name" v="Strandevassbekken" />
		<tag k="ssr:stedsnr" v="364207" />
		<tag k="waterway" v="stream" />
	</node>
	<node lat="58.747211108327136" lon="8.363874992277685" id="-25316">
		<tag k="name" v="Kragtjønnene" />
		<tag k="natural" v="water" />
		<tag k="ssr:stedsnr" v="364415" />
		<tag k="water" v="lake" />
	</node>
	<node lat="58.74392090397966" lon="8.36171388223581" id="-25317">
		<tag k="name" v="Homvatn" />
		<tag k="natural" v="water" />
		<tag k="ssr:stedsnr" v="364394" />
	</node>
	<node lat="58.72560278118315" lon="8.099213887638381" id="-25318">
		<tag k="name" v="Nystøltjønn" />
		<tag k="natural" v="water" />
		<tag k="ssr:stedsnr" v="364398" />
	</node>
	<node lat="58.75622500236659" lon="8.599533327858602" id="-25319">
		<tag k="name" v="Stavvatn" />
		<tag k="natural" v="water" />
		<tag k="ssr:stedsnr" v="364557" />
		<tag k="water" v="lake" />
	</node>
	<node lat="58.72843055480354" lon="8.19874722649777" id="-25321">
		<tag k="name" v="Bjørnefjellbekken" />
		<tag k="ssr:stedsnr" v="364491" />
		<tag k="waterway" v="stream" />
	</node>
	<node lat="58.7281027746865" lon="8.135386112961521" id="-25322">
		<tag k="name" v="Grandalsbekken" />
		<tag k="ssr:stedsnr" v="364494" />
		<tag k="waterway" v="stream" />
	</node>
	<node lat="58.871161109320624" lon="8.139077769910706" id="-25327">
		<tag k="alt_name" v="Stavvatn" />
		<tag k="name" v="Stavatn" />
		<tag k="natural" v="water" />
		<tag k="ssr:stedsnr" v="365007" />
		<tag k="water" v="lake" />
	</node>
	<node lat="58.881816378852136" lon="8.380478745055614" id="-25328">
		<tag k="fixme" v="multiple name tags, choose one and add the other to alt_name" />
		<tag k="name" v="Holbekktjønnane;Sjutjønnane" />
		<tag k="natural" v="water" />
		<tag k="ssr:stedsnr" v="365012" />
		<tag k="water" v="lake" />
	</node>
	<node lat="58.79512499597496" lon="8.300047228746552" id="-25332">
		<tag k="name" v="Lauvlibekken" />
		<tag k="ssr:stedsnr" v="365153" />
		<tag k="waterway" v="stream" />
	</node>
	<node lat="58.76177499574185" lon="8.275397222001398" id="-25335">
		<tag k="name" v="Blåtjønn" />
		<tag k="natural" v="water" />
		<tag k="ssr:stedsnr" v="365318" />
	</node>
	<node lat="58.76052710499771" lon="8.327963197262363" id="-25336">
		<tag k="alt_name" v="Trongslitjønnane" />
		<tag k="name" v="Trongslidalstjønnane" />
		<tag k="natural" v="water" />
		<tag k="ssr:stedsnr" v="365320" />
		<tag k="water" v="lake" />
	</node>
	<node lat="58.82842499712363" lon="8.29085555703052" id="-25339">
		<tag k="name" v="Stavstadvatn" />
		<tag k="natural" v="water" />
		<tag k="ssr:stedsnr" v="365094" />
	</node>
	<node lat="58.71416269319421" lon="8.244298525796003" id="-25343">
		<tag k="fixme" v="multiple name tags, choose one and add the other to alt_name" />
		<tag k="name" v="Tjørni;Lomstjønn" />
		<tag k="natural" v="water" />
		<tag k="ssr:stedsnr" v="365491" />
	</node>
	<node lat="58.90884722338717" lon="7.996274996076174" id="-25347">
		<tag k="name" v="Storrnestjønnin" />
		<tag k="natural" v="water" />
		<tag k="ssr:stedsnr" v="365701" />
		<tag k="water" v="lake" />
	</node>
	<node lat="58.79610000115534" lon="8.038066671488524" id="-25348">
		<tag k="alt_name" v="Gymmertjønn" />
		<tag k="name" v="Gymmyrtjønn" />
		<tag k="natural" v="water" />
		<tag k="ssr:stedsnr" v="365818" />
	</node>
	<node lat="58.81797499569672" lon="8.072186105064914" id="-25355">
		<tag k="name" v="Kottjønn" />
		<tag k="natural" v="water" />
		<tag k="ssr:stedsnr" v="391386" />
	</node>
	<node lat="58.902999997861414" lon="8.53195000843725" id="-25358">
		<tag k="name" v="Kvernfossen" />
		<tag k="natural" v="waterfall" />
		<tag k="ssr:stedsnr" v="395038" />
	</node>
	<node lat="58.75022222514182" lon="8.564341660755597" id="-25364">
		<tag k="name" v="Tereleikdalstjønn" />
		<tag k="natural" v="water" />
		<tag k="ssr:stedsnr" v="395403" />
	</node>
	<node lat="58.691330555031094" lon="8.468691662186654" id="-25366">
		<tag k="name" v="Bjørkholttjønn" />
		<tag k="natural" v="water" />
		<tag k="ssr:stedsnr" v="395406" />
	</node>
	<node lat="58.84634166368613" lon="8.64613611515531" id="-25371">
		<tag k="name" v="Djuphøl" />
		<tag k="place" v="locality" />
		<tag k="ssr:stedsnr" v="395197" />
	</node>
	<node lat="58.827002779712075" lon="8.013555557138142" id="-25374">
		<tag k="name" v="Holmevatn" />
		<tag k="natural" v="water" />
		<tag k="ssr:stedsnr" v="546728" />
		<tag k="water" v="lake" />
	</node>
	<node lat="58.71204999687993" lon="8.595413886861063" id="-25376">
		<tag k="name" v="Mjonevatsdammen" />
		<tag k="ssr:stedsnr" v="395583" />
		<tag k="waterway" v="dam" />
	</node>
	<node lat="58.712402775306884" lon="8.506724992712932" id="-25377">
		<tag k="name" v="Gyrosmyrtjønn" />
		<tag k="natural" v="water" />
		<tag k="ssr:stedsnr" v="395711" />
	</node>
	<node lat="58.86991667072483" lon="8.34613332516031" id="-25402">
		<tag k="fixme" v="multiple name tags, choose one and add the other to alt_name" />
		<tag k="name" v="Lisletjønn;Stemtjønn" />
		<tag k="natural" v="water" />
		<tag k="ssr:stedsnr" v="547038" />
	</node>
	<node lat="58.786505558055495" lon="8.270158330447794" id="-25407">
		<tag k="name" v="Sauetjønn" />
		<tag k="natural" v="water" />
		<tag k="ssr:stedsnr" v="485187" />
	</node>
	<node lat="58.76766666249124" lon="8.594544452854164" id="-25409">
		<tag k="name" v="Mjåvatn" />
		<tag k="natural" v="water" />
		<tag k="ssr:stedsnr" v="485455" />
		<tag k="water" v="lake" />
	</node>
	<node lat="58.83744722644225" lon="8.472025008328087" id="-25410">
		<tag k="name" v="Sandtjønnane" />
		<tag k="natural" v="water" />
		<tag k="ssr:stedsnr" v="403222" />
		<tag k="water" v="lake" />
	</node>
	<node lat="58.864088889538166" lon="8.14997776993999" id="-25413">
		<tag k="name" v="Stavassbekken" />
		<tag k="ssr:stedsnr" v="486019" />
		<tag k="waterway" v="stream" />
	</node>
	<node lat="58.87766666280331" lon="8.453688896444538" id="-25414">
		<tag k="name" v="Heddesvatn" />
		<tag k="natural" v="water" />
		<tag k="ssr:stedsnr" v="486021" />
	</node>
	<node lat="58.835627774911615" lon="8.42844999669466" id="-25418">
		<tag k="alt_name" v="Høystøyltjønn" />
		<tag k="name" v="Heistøyltjønn" />
		<tag k="natural" v="water" />
		<tag k="ssr:stedsnr" v="486074" />
	</node>
	<node lat="58.854413886736445" lon="8.161116672738366" id="-25419">
		<tag k="name" v="Deildeodden" />
		<tag k="natural" v="cape" />
		<tag k="ssr:stedsnr" v="486078" />
	</node>
	<node lat="58.73163888698644" lon="8.511969447934737" id="-25422">
		<tag k="alt_name" v="Sigridnesøyna" />
		<tag k="name" v="Sigridnesøya" />
		<tag k="place" v="islet" />
		<tag k="ssr:stedsnr" v="486083" />
	</node>
	<node lat="58.847050002114855" lon="8.165580563544614" id="-25425">
		<tag k="name" v="Nasvatn" />
		<tag k="natural" v="water" />
		<tag k="ssr:stedsnr" v="486089" />
		<tag k="water" v="lake" />
	</node>
	<node lat="58.833219441333284" lon="8.29106667400995" id="-25429">
		<tag k="name" v="Øyvatn" />
		<tag k="natural" v="water" />
		<tag k="ssr:stedsnr" v="486056" />
	</node>
	<node lat="58.788788892043264" lon="8.278966668228936" id="-25430">
		<tag k="alt_name" v="Kvernhusvatnet" />
		<tag k="name" v="Kvernhusvatn" />
		<tag k="natural" v="water" />
		<tag k="ssr:stedsnr" v="486132" />
	</node>
	<node lat="58.81715555289203" lon="8.391174992337595" id="-25437">
		<tag k="fixme" v="multiple name tags, choose one and add the other to alt_name" />
		<tag k="name" v="Nedre Fjellbekktjønn;Fjellveggtjønn" />
		<tag k="natural" v="water" />
		<tag k="ssr:stedsnr" v="486149" />
	</node>
	<node lat="58.81737500283486" lon="8.19076388837804" id="-25438">
		<tag k="alt_name" v="Koltjønn" />
		<tag k="name" v="Kottjønn" />
		<tag k="natural" v="water" />
		<tag k="ssr:stedsnr" v="486153" />
	</node>
	<node lat="58.807797222255225" lon="8.153391658829792" id="-25439">
		<tag k="name" v="Søylfjorden" />
		<tag k="natural" v="water" />
		<tag k="ssr:stedsnr" v="486157" />
		<tag k="water" v="lake" />
	</node>
	<node lat="58.75526389311723" lon="8.21997778384495" id="-25445">
		<tag k="name" v="Fiskådalstjønn" />
		<tag k="natural" v="water" />
		<tag k="ssr:stedsnr" v="486339" />
	</node>
	<node lat="58.69736667051669" lon="8.422563886639246" id="-25446">
		<tag k="alt_name" v="Holebekken" />
		<tag k="name" v="Holbekken" />
		<tag k="ssr:stedsnr" v="486457" />
		<tag k="waterway" v="stream" />
	</node>
	<node lat="58.886036109677164" lon="8.634594451857575" id="-25447">
		<tag k="name" v="Djuphomtjønna" />
		<tag k="natural" v="water" />
		<tag k="ssr:stedsnr" v="486467" />
	</node>
	<node lat="58.696316669377296" lon="8.15750832932925" id="-25449">
		<tag k="alt_name" v="Verevatnet" />
		<tag k="name" v="Vervatn" />
		<tag k="natural" v="water" />
		<tag k="ssr:stedsnr" v="486478" />
		<tag k="water" v="lake" />
	</node>
	<node lat="58.70328889310633" lon="8.425552774410455" id="-25450">
		<tag k="alt_name" v="Bjorvatn" />
		<tag k="name" v="Bjorvatna" />
		<tag k="natural" v="water" />
		<tag k="ssr:stedsnr" v="486483" />
		<tag k="water" v="lake" />
	</node>
	<node lat="58.74468014325369" lon="8.106104301406624" id="-25452">
		<tag k="alt_name" v="Hauktjønn" />
		<tag k="name" v="Haukefjelltjønn" />
		<tag k="natural" v="water" />
		<tag k="ssr:stedsnr" v="486422" />
	</node>
	<node lat="58.74530000343168" lon="8.24380555959627" id="-25453">
		<tag k="name" v="Fjalsåtjønn" />
		<tag k="natural" v="water" />
		<tag k="ssr:stedsnr" v="486428" />
	</node>
	<node lat="58.83111666620454" lon="8.715752770037373" id="-25457">
		<tag k="alt_name" v="Steinstjønn, store" />
		<tag k="name" v="Store Steinstjønn" />
		<tag k="natural" v="water" />
		<tag k="ssr:stedsnr" v="486641" />
	</node>
	<node lat="58.83526944157226" lon="8.73539999347088" id="-25458">
		<tag k="alt_name" v="Steinstjønn, l" />
		<tag k="name" v="Lille Steinstjønn" />
		<tag k="natural" v="water" />
		<tag k="ssr:stedsnr" v="486642" />
	</node>
	<node lat="58.82296543098321" lon="8.480593093555427" id="-25460">
		<tag k="name" v="Grauttjønnane" />
		<tag k="natural" v="water" />
		<tag k="ssr:stedsnr" v="486655" />
		<tag k="water" v="lake" />
	</node>
	<node lat="58.83098333201777" lon="8.567616660520807" id="-25462">
		<tag k="alt_name" v="Lislevatn" />
		<tag k="name" v="Litlevatn" />
		<tag k="natural" v="water" />
		<tag k="ssr:stedsnr" v="486654" />
	</node>
	<node lat="58.635175003534165" lon="8.731294450240341" id="-25464">
		<tag k="name" v="Bjørkelona" />
		<tag k="natural" v="water" />
		<tag k="ssr:stedsnr" v="408817" />
		<tag k="water" v="lake" />
	</node>
	<node lat="58.81311110770778" lon="8.57230555695398" id="-25466">
		<tag k="alt_name" v="Fiskeåna" />
		<tag k="name" v="Fiskåna" />
		<tag k="ssr:stedsnr" v="486689" />
		<tag k="waterway" v="stream" />
	</node>
	<node lat="58.94490555476109" lon="8.251355556416366" id="-25472">
		<tag k="name" v="Overbefolka" />
		<tag k="natural" v="water" />
		<tag k="ssr:stedsnr" v="409403" />
	</node>
	<node lat="58.69191944796308" lon="8.538041668570253" id="-25474">
		<tag k="alt_name" v="Sauetjønn" />
		<tag k="name" v="Sauetjern" />
		<tag k="natural" v="water" />
		<tag k="ssr:stedsnr" v="486883" />
	</node>
	<node lat="58.690838892858736" lon="8.622436110729682" id="-25475">
		<tag k="alt_name" v="Venlitjønn" />
		<tag k="name" v="Venelitjern" />
		<tag k="natural" v="water" />
		<tag k="ssr:stedsnr" v="486893" />
	</node>
	<node lat="58.730597223514884" lon="7.9856361045029685" id="-25477">
		<tag k="name" v="Sandtjønni" />
		<tag k="natural" v="water" />
		<tag k="ssr:stedsnr" v="486930" />
	</node>
	<node lat="58.678111112126615" lon="8.554502776955307" id="-25478">
		<tag k="alt_name" v="Nedre Kroktjønn" />
		<tag k="name" v="Kroktjern" />
		<tag k="natural" v="water" />
		<tag k="ssr:stedsnr" v="486932" />
	</node>
	<node lat="58.664372482971594" lon="8.647978196070495" id="-25479">
		<tag k="name" v="Smaltjønn" />
		<tag k="natural" v="water" />
		<tag k="ssr:stedsnr" v="486945" />
	</node>
	<node lat="58.898005552923046" lon="8.132225005845177" id="-25481">
		<tag k="name" v="Nyvatn" />
		<tag k="natural" v="water" />
		<tag k="ssr:stedsnr" v="486983" />
	</node>
	<node lat="58.84860277350081" lon="8.089386103277866" id="-25488">
		<tag k="name" v="Standarfoss" />
		<tag k="natural" v="waterfall" />
		<tag k="ssr:stedsnr" v="414088" />
	</node>
	<node lat="58.8543666686421" lon="8.105622216997537" id="-25489">
		<tag k="name" v="Skålbekken" />
		<tag k="ssr:stedsnr" v="414094" />
		<tag k="waterway" v="stream" />
	</node>
	<node lat="58.88355832971272" lon="8.169299998805744" id="-25506">
		<tag k="name" v="Rasmusfjelltjønn" />
		<tag k="natural" v="water" />
		<tag k="ssr:stedsnr" v="415235" />
	</node>
	<node lat="58.702794448537006" lon="8.26022499495926" id="-25508">
		<tag k="name" v="Vaastemmen" />
		<tag k="ssr:stedsnr" v="415688" />
		<tag k="waterway" v="dam" />
	</node>
	<node lat="58.70967222188043" lon="8.323244452965614" id="-25513">
		<tag k="name" v="Mellombergtjønn" />
		<tag k="natural" v="water" />
		<tag k="ssr:stedsnr" v="415738" />
	</node>
	<node lat="58.97753333209797" lon="8.104336108180028" id="-25529">
		<tag k="name" v="Sollitjønnbekken" />
		<tag k="ssr:stedsnr" v="416861" />
		<tag k="waterway" v="stream" />
	</node>
	<node lat="58.7918111067447" lon="8.167733340063327" id="-25534">
		<tag k="name" v="Kjellingdalsbekken" />
		<tag k="ssr:stedsnr" v="425150" />
		<tag k="waterway" v="stream" />
	</node>
	<node lat="58.79390555903433" lon="8.193508328894442" id="-25535">
		<tag k="name" v="Tveitvatnet" />
		<tag k="natural" v="water" />
		<tag k="ssr:stedsnr" v="425153" />
		<tag k="water" v="lake" />
	</node>
	<node lat="58.88214999735339" lon="8.246730558463943" id="-25544">
		<tag k="alt_name" v="Stedjelva" />
		<tag k="name" v="Stedjåna" />
		<tag k="ssr:stedsnr" v="426007" />
		<tag k="waterway" v="stream" />
	</node>
	<node lat="58.7059388902739" lon="8.561313889543293" id="-25546">
		<tag k="name" v="Suplandsfoss" />
		<tag k="natural" v="waterfall" />
		<tag k="ssr:stedsnr" v="426093" />
	</node>
	<node lat="58.7655222254382" lon="8.101622226604956" id="-25553">
		<tag k="name" v="Ånaptjønn" />
		<tag k="natural" v="water" />
		<tag k="ssr:stedsnr" v="426197" />
	</node>
	<node lat="58.808294442503595" lon="8.542641661653363" id="-25559">
		<tag k="name" v="Seljåstjønna" />
		<tag k="natural" v="water" />
		<tag k="ssr:stedsnr" v="426586" />
	</node>
	<node lat="58.85584444775353" lon="8.689655549009844" id="-25562">
		<tag k="fixme" v="multiple name tags, choose one and add the other to alt_name" />
		<tag k="name" v="Tovstjønn;Torstjønn" />
		<tag k="natural" v="water" />
		<tag k="ssr:stedsnr" v="426726" />
	</node>
	<node lat="58.82048888881584" lon="8.57682500813641" id="-25563">
		<tag k="alt_name" v="Eidsbuvatn" />
		<tag k="name" v="Esbuvatn" />
		<tag k="natural" v="water" />
		<tag k="ssr:stedsnr" v="426679" />
		<tag k="water" v="lake" />
	</node>
	<node lat="58.618836107591875" lon="8.693611119304743" id="-25564">
		<tag k="alt_name" v="Kilandsfjorden" />
		<tag k="name" v="Kilandsfjord" />
		<tag k="place" v="locality" />
		<tag k="ssr:stedsnr" v="426811" />
	</node>
	<node lat="58.7000583352174" lon="8.611691663721038" id="-25566">
		<tag k="name" v="Kjeøya" />
		<tag k="place" v="islet" />
		<tag k="ssr:stedsnr" v="426902" />
	</node>
	<node lat="58.69123888787676" lon="8.523230554582822" id="-25567">
		<tag k="name" v="Øynetjønnane" />
		<tag k="natural" v="water" />
		<tag k="ssr:stedsnr" v="426904" />
		<tag k="water" v="lake" />
	</node>
	<node lat="58.94612777826737" lon="8.147886115912053" id="-25569">
		<tag k="alt_name" v="Rukkåna" />
		<tag k="name" v="Rukkeåna" />
		<tag k="ssr:stedsnr" v="426924" />
		<tag k="waterway" v="river" />
	</node>
	<node lat="58.639436112325996" lon="8.673827778209052" id="-25570">
		<tag k="name" v="Kjeøya" />
		<tag k="place" v="islet" />
		<tag k="ssr:stedsnr" v="426981" />
	</node>
	<node lat="58.90775000004081" lon="8.536494440980691" id="-25577">
		<tag k="name" v="Skinnhølen" />
		<tag k="place" v="locality" />
		<tag k="ssr:stedsnr" v="456008" />
	</node>
	<node lat="58.77433888711096" lon="8.637683330791916" id="-25578">
		<tag k="name" v="Væråstjønn" />
		<tag k="natural" v="water" />
		<tag k="ssr:stedsnr" v="456013" />
	</node>
	<node lat="58.84167777431005" lon="8.55591666699563" id="-25582">
		<tag k="name" v="Trytenestjønn" />
		<tag k="natural" v="water" />
		<tag k="ssr:stedsnr" v="456070" />
	</node>
	<node lat="58.83957777564379" lon="8.552038896928206" id="-25584">
		<tag k="name" v="Haugenestjønn" />
		<tag k="natural" v="water" />
		<tag k="ssr:stedsnr" v="456417" />
	</node>
	<node lat="58.697433332944776" lon="8.399561105137007" id="-25587">
		<tag k="name" v="Rustlitjønn" />
		<tag k="natural" v="water" />
		<tag k="ssr:stedsnr" v="456321" />
	</node>
	<node lat="58.75067777418928" lon="8.558555552352697" id="-25588">
		<tag k="name" v="Austre Kløvfjelltjønn" />
		<tag k="natural" v="water" />
		<tag k="ssr:stedsnr" v="456380" />
	</node>
	<node lat="58.68181666338935" lon="8.682947223587442" id="-25595">
		<tag k="name" v="Grytebekken" />
		<tag k="ssr:stedsnr" v="456766" />
		<tag k="waterway" v="stream" />
	</node>
	<node lat="58.800088885328144" lon="8.463558337231714" id="-25617">
		<tag k="name" v="Hestebeitetjønn" />
		<tag k="natural" v="water" />
		<tag k="ssr:stedsnr" v="462363" />
	</node>
	<node lat="58.64506388964103" lon="8.740141664100031" id="-25624">
		<tag k="name" v="Sturstjønn" />
		<tag k="natural" v="water" />
		<tag k="ssr:stedsnr" v="469963" />
	</node>
	<node lat="58.80833888710936" lon="8.165605548052682" id="-25636">
		<tag k="name" v="Sorgje" />
		<tag k="ssr:stedsnr" v="475321" />
		<tag k="waterway" v="rapids" />
	</node>
	<node lat="58.888527776103516" lon="8.365088892535931" id="-25640">
		<tag k="name" v="Mjåvassfoten" />
		<tag k="natural" v="cape" />
		<tag k="ssr:stedsnr" v="475165" />
	</node>
	<node lat="58.813516667471326" lon="8.154047216990826" id="-25648">
		<tag k="name" v="Tvørråbekken" />
		<tag k="ssr:stedsnr" v="475732" />
		<tag k="waterway" v="stream" />
	</node>
	<node lat="58.76484721796871" lon="7.999930564260204" id="-25649">
		<tag k="name" v="Skjevlevatn" />
		<tag k="natural" v="water" />
		<tag k="ssr:stedsnr" v="475993" />
		<tag k="water" v="lake" />
	</node>
	<node lat="58.72716389095517" lon="8.298769440576317" id="-25663">
		<tag k="name" v="Sandøy" />
		<tag k="place" v="islet" />
		<tag k="ssr:stedsnr" v="476619" />
	</node>
	<node lat="58.95602222259843" lon="8.125052769749058" id="-25678">
		<tag k="name" v="Nesbekktjønn" />
		<tag k="natural" v="water" />
		<tag k="ssr:stedsnr" v="476972" />
	</node>
	<node lat="58.745819447899365" lon="8.422491667785824" id="-25679">
		<tag k="name" v="Sandane" />
		<tag k="natural" v="beach" />
		<tag k="ssr:stedsnr" v="476808" />
	</node>
	<node lat="58.940511107129566" lon="8.022900008139828" id="-25681">
		<tag k="name" v="Kroktjønnin" />
		<tag k="natural" v="water" />
		<tag k="ssr:stedsnr" v="485607" />
		<tag k="water" v="lake" />
	</node>
	<node lat="58.78879999737108" lon="8.318983331085247" id="-25685">
		<tag k="name" v="Strandevatn" />
		<tag k="natural" v="water" />
		<tag k="ssr:stedsnr" v="486219" />
	</node>
	<node lat="58.79703333438263" lon="8.111330561460875" id="-25688">
		<tag k="name" v="Kjellhomtjønn" />
		<tag k="natural" v="water" />
		<tag k="ssr:stedsnr" v="486107" />
	</node>
	<node lat="58.85204166308765" lon="8.606266659489295" id="-25689">
		<tag k="alt_name" v="Kateråsåna" />
		<tag k="name" v="Katteråsåna" />
		<tag k="ssr:stedsnr" v="486185" />
		<tag k="waterway" v="river" />
	</node>
	<node lat="58.846886115156835" lon="8.723599998040024" id="-25690">
		<tag k="name" v="Spjotvatn" />
		<tag k="natural" v="water" />
		<tag k="ssr:stedsnr" v="486187" />
		<tag k="water" v="lake" />
	</node>
	<node lat="58.76748055860837" lon="8.151802773094126" id="-25692">
		<tag k="name" v="Stavtjønn" />
		<tag k="natural" v="water" />
		<tag k="ssr:stedsnr" v="486193" />
	</node>
	<node lat="58.74022499710207" lon="8.425058329895787" id="-25693">
		<tag k="alt_name" v="Fiskevassåna" />
		<tag k="name" v="Vestre Fiskevassåna" />
		<tag k="ssr:stedsnr" v="486404" />
		<tag k="waterway" v="stream" />
	</node>
	<node lat="58.90943055920383" lon="8.552733328020633" id="-25695">
		<tag k="name" v="Sjodiplen" />
		<tag k="natural" v="water" />
		<tag k="ssr:stedsnr" v="486497" />
	</node>
	<node lat="58.72512500266306" lon="8.23773888907604" id="-25696">
		<tag k="alt_name" v="Sløvatnet" />
		<tag k="name" v="Sløvatn" />
		<tag k="natural" v="water" />
		<tag k="ssr:stedsnr" v="486500" />
	</node>
	<node lat="58.81433801126968" lon="8.088277625119398" id="-25707">
		<tag k="name" v="Hovdestøltjønnin" />
		<tag k="natural" v="water" />
		<tag k="ssr:stedsnr" v="486809" />
		<tag k="water" v="lake" />
	</node>
	<node lat="58.86074166506979" lon="8.65117499240639" id="-25716">
		<tag k="name" v="Øvre Rakketjønn" />
		<tag k="natural" v="water" />
		<tag k="ssr:stedsnr" v="517160" />
	</node>
	<node lat="58.691616669545695" lon="8.388797214510962" id="-25723">
		<tag k="name" v="Stokkebekktjønn" />
		<tag k="natural" v="water" />
		<tag k="ssr:stedsnr" v="517318" />
	</node>
	<node lat="58.67384444072449" lon="8.528833333614001" id="-25728">
		<tag k="name" v="Øvre Kroktjønn" />
		<tag k="natural" v="water" />
		<tag k="ssr:stedsnr" v="517419" />
	</node>
	<node lat="58.679141664226165" lon="8.686916664899586" id="-25735">
		<tag k="name" v="Røssingtjønn" />
		<tag k="natural" v="water" />
		<tag k="ssr:stedsnr" v="517510" />
	</node>
	<node lat="58.653314328533796" lon="8.708767763284646" id="-25738">
		<tag k="name" v="Totjønnene" />
		<tag k="natural" v="water" />
		<tag k="ssr:stedsnr" v="517518" />
		<tag k="water" v="lake" />
	</node>
	<node lat="58.713769448335356" lon="8.606558332485024" id="-25741">
		<tag k="name" v="Tryttjønn" />
		<tag k="natural" v="water" />
		<tag k="ssr:stedsnr" v="517525" />
	</node>
	<node lat="58.87746666408575" lon="8.372913887437594" id="-25753">
		<tag k="name" v="Brynehylane" />
		<tag k="place" v="locality" />
		<tag k="ssr:stedsnr" v="523120" />
	</node>
	<node lat="58.875833334731816" lon="8.141316672195854" id="-25765">
		<tag k="name" v="Sveinstjønn" />
		<tag k="natural" v="water" />
		<tag k="ssr:stedsnr" v="535008" />
	</node>
	<node lat="58.78844722660379" lon="8.20725278130634" id="-25770">
		<tag k="name" v="Måkesteinen" />
		<tag k="place" v="islet" />
		<tag k="ssr:stedsnr" v="535667" />
	</node>
	<node lat="58.875727775370606" lon="8.280408332105557" id="-25771">
		<tag k="name" v="Mjågenes" />
		<tag k="natural" v="cape" />
		<tag k="ssr:stedsnr" v="536080" />
	</node>
	<node lat="58.88086666489301" lon="8.33045000318972" id="-25772">
		<tag k="name" v="Store Trytetjønn" />
		<tag k="natural" v="water" />
		<tag k="ssr:stedsnr" v="536081" />
	</node>
	<node lat="58.86718333616141" lon="8.284005556395654" id="-25775">
		<tag k="name" v="Askelandsfossane" />
		<tag k="natural" v="waterfall" />
		<tag k="ssr:stedsnr" v="536106" />
	</node>
	<node lat="58.72909722550783" lon="8.09500278066755" id="-25776">
		<tag k="name" v="Raumyrtjønn" />
		<tag k="natural" v="water" />
		<tag k="ssr:stedsnr" v="536421" />
	</node>
	<node lat="58.86953055951345" lon="8.404483337307584" id="-25777">
		<tag k="name" v="Fiskebekken" />
		<tag k="ssr:stedsnr" v="536423" />
		<tag k="waterway" v="stream" />
	</node>
	<node lat="58.785266663398914" lon="8.016736106141813" id="-25782">
		<tag k="name" v="Kvilestadtjønn" />
		<tag k="natural" v="water" />
		<tag k="ssr:stedsnr" v="536585" />
	</node>
	<node lat="58.757958333415104" lon="8.089697216945014" id="-25793">
		<tag k="name" v="Sauøyna" />
		<tag k="place" v="islet" />
		<tag k="ssr:stedsnr" v="536974" />
	</node>
	<node lat="58.87442222660331" lon="8.193144440193187" id="-25798">
		<tag k="name" v="Slettheibekken" />
		<tag k="ssr:stedsnr" v="537225" />
		<tag k="waterway" v="stream" />
	</node>
	<node lat="58.90614166324585" lon="8.397350005829136" id="-25799">
		<tag k="name" v="Øytjønnbekken" />
		<tag k="ssr:stedsnr" v="537276" />
		<tag k="waterway" v="stream" />
	</node>
	<node lat="58.722213886024214" lon="8.244394444022149" id="-25802">
		<tag k="name" v="Sjøllaugsfoss" />
		<tag k="natural" v="waterfall" />
		<tag k="ssr:stedsnr" v="537472" />
	</node>
	<node lat="58.92841388753262" lon="8.079822223986405" id="-25809">
		<tag k="name" v="Ljostjønn" />
		<tag k="natural" v="water" />
		<tag k="ssr:stedsnr" v="537902" />
	</node>
	<node lat="58.96671944666271" lon="8.151913889145362" id="-25811">
		<tag k="name" v="Sundet" />
		<tag k="natural" v="strait" />
		<tag k="ssr:stedsnr" v="537979" />
	</node>
	<node lat="58.94718055969096" lon="8.052641665766002" id="-25812">
		<tag k="name" v="Rosenholttjønn" />
		<tag k="natural" v="water" />
		<tag k="ssr:stedsnr" v="537817" />
	</node>
	<node lat="58.85390000178287" lon="8.314263893656912" id="-25819">
		<tag k="name" v="Klovtjønn" />
		<tag k="natural" v="water" />
		<tag k="ssr:stedsnr" v="546103" />
	</node>
	<node lat="58.8650444420322" lon="8.455658328540023" id="-25820">
		<tag k="name" v="Krokvatn" />
		<tag k="natural" v="water" />
		<tag k="ssr:stedsnr" v="546113" />
	</node>
	<node lat="58.782091667998436" lon="8.294172222815055" id="-25822">
		<tag k="alt_name" v="Håkodalsvatnet, nordre;Håkodalsvatnet;Håkedalsvatn nordre" />
		<tag k="name" v="Nordre Håkedalsvatn" />
		<tag k="natural" v="water" />
		<tag k="ssr:stedsnr" v="546187" />
		<tag k="water" v="lake" />
	</node>
	<node lat="58.77607777474785" lon="8.368483325893143" id="-25823">
		<tag k="alt_name" v="Storøya" />
		<tag k="name" v="Storøy" />
		<tag k="place" v="islet" />
		<tag k="ssr:stedsnr" v="546190" />
	</node>
	<node lat="58.85334864875008" lon="8.028525754993652" id="-25825">
		<tag k="name" v="Svåbasstjønnin" />
		<tag k="natural" v="water" />
		<tag k="ssr:stedsnr" v="546702" />
		<tag k="water" v="lake" />
	</node>
	<node lat="58.96548055432409" lon="8.117369441789299" id="-25826">
		<tag k="alt_name" v="Espeliåna" />
		<tag k="name" v="Espeliåi" />
		<tag k="ssr:stedsnr" v="546878" />
		<tag k="waterway" v="river" />
	</node>
	<node lat="58.8669944475422" lon="8.198586112423474" id="-25827">
		<tag k="name" v="Støylstjønn" />
		<tag k="natural" v="water" />
		<tag k="ssr:stedsnr" v="547023" />
	</node>
	<node lat="58.85737654723432" lon="8.221882966436159" id="-25828">
		<tag k="alt_name" v="Voiletjønnane" />
		<tag k="name" v="Volletjønnane" />
		<tag k="natural" v="water" />
		<tag k="ssr:stedsnr" v="547027" />
		<tag k="water" v="lake" />
	</node>
	<node lat="58.74171389251445" lon="8.606563895660399" id="-25829">
		<tag k="name" v="Steinsvatn" />
		<tag k="natural" v="water" />
		<tag k="ssr:stedsnr" v="547030" />
	</node>
	<node lat="58.81597500368707" lon="8.03130000266134" id="-25832">
		<tag k="name" v="Svartufstjønn" />
		<tag k="natural" v="water" />
		<tag k="ssr:stedsnr" v="546776" />
	</node>
	<node lat="58.67344721811746" lon="8.524177778525985" id="-25833">
		<tag k="name" v="Jottjønn" />
		<tag k="natural" v="water" />
		<tag k="ssr:stedsnr" v="546906" />
	</node>
	<node lat="58.67208611330358" lon="8.519524996938621" id="-25834">
		<tag k="name" v="Granetjønn" />
		<tag k="natural" v="water" />
		<tag k="ssr:stedsnr" v="546907" />
	</node>
	<node lat="58.903227776355585" lon="8.093994437543328" id="-25835">
		<tag k="name" v="Endelaustjønn" />
		<tag k="natural" v="water" />
		<tag k="ssr:stedsnr" v="546969" />
	</node>
	<node lat="58.897338892437965" lon="8.108394449373295" id="-25836">
		<tag k="alt_name" v="Svantjønni" />
		<tag k="name" v="Svanetjønn" />
		<tag k="natural" v="water" />
		<tag k="ssr:stedsnr" v="546970" />
	</node>
	<node lat="58.865613886597096" lon="8.425902777453764" id="-25838">
		<tag k="name" v="Vikvatn" />
		<tag k="natural" v="water" />
		<tag k="ssr:stedsnr" v="547119" />
		<tag k="water" v="lake" />
	</node>
	<node lat="58.826694446766" lon="8.426288895951423" id="-25841">
		<tag k="name" v="Davidstjønn" />
		<tag k="natural" v="water" />
		<tag k="ssr:stedsnr" v="547173" />
	</node>
	<node lat="58.880074350964655" lon="8.139850994870848" id="-25844">
		<tag k="name" v="Småtjønnane" />
		<tag k="natural" v="water" />
		<tag k="ssr:stedsnr" v="547068" />
		<tag k="water" v="lake" />
	</node>
	<node lat="58.76364722481043" lon="8.130741664075606" id="-25846">
		<tag k="name" v="Ringtjønnbekken" />
		<tag k="ssr:stedsnr" v="547215" />
		<tag k="waterway" v="stream" />
	</node>
	<node lat="58.79194722007614" lon="8.417052769344672" id="-25851">
		<tag k="name" v="Eiklitjønn" />
		<tag k="natural" v="water" />
		<tag k="ssr:stedsnr" v="547244" />
	</node>
	<node lat="58.82306944518543" lon="8.71895555492483" id="-25858">
		<tag k="fixme" v="multiple name tags, choose one and add the other to alt_name" />
		<tag k="name" v="Langtjenn;Farslåttjenn" />
		<tag k="natural" v="water" />
		<tag k="old_name" v="Farslåttjønn" />
		<tag k="ssr:stedsnr" v="547713" />
	</node>
	<node lat="58.69145000385291" lon="8.439430551387572" id="-25859">
		<tag k="name" v="Håstøylbekken" />
		<tag k="ssr:stedsnr" v="547472" />
		<tag k="waterway" v="stream" />
	</node>
	<node lat="58.79323055842318" lon="8.623199998389438" id="-25860">
		<tag k="name" v="Kallabergtjønn" />
		<tag k="natural" v="water" />
		<tag k="old_name" v="Kallarbergtjønn" />
		<tag k="ssr:stedsnr" v="547616" />
	</node>
	<node lat="58.69375833537278" lon="8.593538885404266" id="-25863">
		<tag k="name" v="Larsnes" />
		<tag k="natural" v="cape" />
		<tag k="ssr:stedsnr" v="547906" />
	</node>
	<node lat="58.69658611340494" lon="8.547038885750755" id="-25865">
		<tag k="alt_name" v="Vehustjønn" />
		<tag k="name" v="Vehustjern" />
		<tag k="natural" v="water" />
		<tag k="ssr:stedsnr" v="547908" />
	</node>
	<node lat="58.69457499732841" lon="8.502036116830752" id="-25882">
		<tag k="name" v="Vestertjønn" />
		<tag k="natural" v="water" />
		<tag k="ssr:stedsnr" v="577418" />
	</node>
	<node lat="58.672016667514214" lon="8.712461107325264" id="-25888">
		<tag k="name" v="Holtjønn" />
		<tag k="natural" v="water" />
		<tag k="ssr:stedsnr" v="577506" />
	</node>
	<node lat="58.74180833414353" lon="8.468336104688259" id="-25893">
		<tag k="name" v="Gjermundnesstraumen" />
		<tag k="ssr:stedsnr" v="577649" />
		<tag k="waterway" v="rapids" />
	</node>
	<node lat="58.728805558290546" lon="8.39960278054777" id="-25901">
		<tag k="name" v="Hestsprangtjønn" />
		<tag k="natural" v="water" />
		<tag k="ssr:stedsnr" v="578343" />
	</node>
	<node lat="58.71104444051604" lon="8.610566658119534" id="-25908">
		<tag k="name" v="Heimre Tovsnes" />
		<tag k="natural" v="cape" />
		<tag k="ssr:stedsnr" v="578494" />
	</node>
	<node lat="58.79615555329253" lon="7.982333328291059" id="-25909">
		<tag k="name" v="Vårlibekken" />
		<tag k="ssr:stedsnr" v="695378" />
		<tag k="waterway" v="stream" />
	</node>
	<node lat="58.90989444268951" lon="8.208597216320625" id="-25912">
		<tag k="name" v="Fossehesten" />
		<tag k="natural" v="waterfall" />
		<tag k="ssr:stedsnr" v="583244" />
	</node>
	<node lat="58.88080833199269" lon="8.371405549760636" id="-25916">
		<tag k="name" v="Kisholttjønn" />
		<tag k="natural" v="water" />
		<tag k="ssr:stedsnr" v="584106" />
	</node>
	<node lat="58.92562499629552" lon="7.9855749931763444" id="-25921">
		<tag k="name" v="Forbubekken" />
		<tag k="ssr:stedsnr" v="595120" />
		<tag k="waterway" v="stream" />
	</node>
	<node lat="58.78902777565004" lon="8.210863890341004" id="-25923">
		<tag k="name" v="Tveitvasstemmen" />
		<tag k="ssr:stedsnr" v="595654" />
		<tag k="waterway" v="dam" />
	</node>
	<node lat="58.88337499961952" lon="8.141886116402464" id="-25925">
		<tag k="name" v="Den runde Småtjønn" />
		<tag k="natural" v="water" />
		<tag k="ssr:stedsnr" v="596002" />
	</node>
	<node lat="58.76762222429689" lon="8.121188887489428" id="-25926">
		<tag k="name" v="Durfjellbekken" />
		<tag k="ssr:stedsnr" v="596006" />
		<tag k="waterway" v="stream" />
	</node>
	<node lat="58.80796944476662" lon="8.16994999305577" id="-25931">
		<tag k="name" v="Hillestadhølen" />
		<tag k="place" v="locality" />
		<tag k="ssr:stedsnr" v="596306" />
	</node>
	<node lat="58.7613972221863" lon="8.188127770774841" id="-25932">
		<tag k="name" v="Urdvassbekken" />
		<tag k="ssr:stedsnr" v="596321" />
		<tag k="waterway" v="stream" />
	</node>
	<node lat="58.87940555967553" lon="8.26702778193611" id="-25937">
		<tag k="name" v="Digernes" />
		<tag k="natural" v="cape" />
		<tag k="ssr:stedsnr" v="597002" />
	</node>
	<node lat="58.794558332603124" lon="8.465122222508764" id="-25944">
		<tag k="name" v="Øygardsfossane" />
		<tag k="natural" v="waterfall" />
		<tag k="ssr:stedsnr" v="597099" />
	</node>
	<node lat="58.87530833165516" lon="8.283374993923921" id="-25945">
		<tag k="name" v="Asgjærdsnes" />
		<tag k="natural" v="cape" />
		<tag k="ssr:stedsnr" v="597100" />
	</node>
	<node lat="58.77901666403791" lon="8.425963896922717" id="-25946">
		<tag k="name" v="Nedre Hagebråttjønn" />
		<tag k="natural" v="water" />
		<tag k="ssr:stedsnr" v="597101" />
	</node>
	<node lat="58.76803888812341" lon="8.248958336105856" id="-25950">
		<tag k="name" v="Ramsetjønn" />
		<tag k="natural" v="water" />
		<tag k="ssr:stedsnr" v="597409" />
	</node>
	<node lat="58.84584444410167" lon="8.231133332023633" id="-25953">
		<tag k="name" v="Øyvassbekken" />
		<tag k="ssr:stedsnr" v="597362" />
		<tag k="waterway" v="stream" />
	</node>
	<node lat="58.705386115113456" lon="8.249552780704349" id="-25959">
		<tag k="name" v="Smalsund" />
		<tag k="natural" v="strait" />
		<tag k="ssr:stedsnr" v="597661" />
	</node>
	<node lat="58.97723055810541" lon="8.182669436589647" id="-25965">
		<tag k="name" v="Mjåvatn" />
		<tag k="natural" v="water" />
		<tag k="ssr:stedsnr" v="597899" />
		<tag k="water" v="lake" />
	</node>
	<node lat="58.688880553245234" lon="8.483363882868499" id="-25983">
		<tag k="name" v="Teinebekken" />
		<tag k="ssr:stedsnr" v="699238" />
		<tag k="waterway" v="stream" />
	</node>
	<node lat="58.68961944501738" lon="8.394191660087888" id="-25989">
		<tag k="name" v="Fåtjønn" />
		<tag k="natural" v="water" />
		<tag k="ssr:stedsnr" v="699286" />
	</node>
	<node lat="58.677350003564044" lon="8.468561104324523" id="-25990">
		<tag k="name" v="Kvietjønn" />
		<tag k="natural" v="water" />
		<tag k="ssr:stedsnr" v="699249" />
	</node>
	<node lat="58.67903055901049" lon="8.539061107594211" id="-25993">
		<tag k="name" v="Bærvasslona" />
		<tag k="natural" v="water" />
		<tag k="ssr:stedsnr" v="699413" />
		<tag k="water" v="lake" />
	</node>
	<node lat="58.65898888973825" lon="8.434422214498044" id="-25997">
		<tag k="name" v="Langstadtjønn" />
		<tag k="natural" v="water" />
		<tag k="ssr:stedsnr" v="699328" />
	</node>
	<node lat="58.66595555152658" lon="8.466336102711841" id="-25998">
		<tag k="name" v="Byttingstjønn" />
		<tag k="natural" v="water" />
		<tag k="ssr:stedsnr" v="699334" />
	</node>
	<node lat="58.84161388910351" lon="8.548108334318513" id="-26010">
		<tag k="name" v="Haugenes" />
		<tag k="natural" v="cape" />
		<tag k="ssr:stedsnr" v="699442" />
	</node>
	<node lat="58.8117888859272" lon="8.503497219193234" id="-26012">
		<tag k="name" v="Kvennhusbekken" />
		<tag k="ssr:stedsnr" v="699452" />
		<tag k="waterway" v="stream" />
	</node>
	<node lat="58.728572220460926" lon="8.450516667061343" id="-26015">
		<tag k="name" v="Den store holmen" />
		<tag k="natural" v="cape" />
		<tag k="ssr:stedsnr" v="699611" />
	</node>
	<node lat="58.752141667275644" lon="8.461658331585696" id="-26016">
		<tag k="name" v="Neset" />
		<tag k="natural" v="cape" />
		<tag k="ssr:stedsnr" v="699629" />
	</node>
	<node lat="58.72698888939516" lon="8.532513889676494" id="-26018">
		<tag k="name" v="Fisketjønn" />
		<tag k="natural" v="water" />
		<tag k="ssr:stedsnr" v="699636" />
	</node>
	<node lat="58.7241083375222" lon="8.570350001442971" id="-26020">
		<tag k="name" v="Stampehølen" />
		<tag k="place" v="locality" />
		<tag k="ssr:stedsnr" v="699646" />
	</node>
	<node lat="58.87500833574618" lon="8.1635722263507" id="-26025">
		<tag k="name" v="Gyridalstjønn" />
		<tag k="natural" v="water" />
		<tag k="ssr:stedsnr" v="607009" />
	</node>
	<node lat="58.795933336372606" lon="8.093777773864158" id="-26031">
		<tag k="name" v="Terekjerrtjønn" />
		<tag k="natural" v="water" />
		<tag k="ssr:stedsnr" v="607147" />
	</node>
	<node lat="58.65333757021177" lon="8.462145778595513" id="-26035">
		<tag k="alt_name" v="Solbergtjønn" />
		<tag k="name" v="Solbergtjønnane" />
		<tag k="natural" v="water" />
		<tag k="ssr:stedsnr" v="607267" />
		<tag k="water" v="lake" />
	</node>
	<node lat="58.775188892481886" lon="8.301894440080892" id="-26036">
		<tag k="name" v="Fossheibekken" />
		<tag k="ssr:stedsnr" v="607195" />
		<tag k="waterway" v="stream" />
	</node>
	<node lat="58.75137499807968" lon="8.345502769748437" id="-26038">
		<tag k="alt_name" v="Stemvatn, store" />
		<tag k="name" v="Store Stemtjønn" />
		<tag k="natural" v="water" />
		<tag k="ssr:stedsnr" v="607307" />
	</node>
	<node lat="58.67373333534721" lon="8.423797217745674" id="-26040">
		<tag k="name" v="Stemvatn" />
		<tag k="natural" v="water" />
		<tag k="ssr:stedsnr" v="607320" />
	</node>
	<node lat="58.74191388614768" lon="8.128441670561957" id="-26041">
		<tag k="name" v="Svimslibekken" />
		<tag k="ssr:stedsnr" v="607395" />
		<tag k="waterway" v="stream" />
	</node>
	<node lat="58.70596120624661" lon="8.394031031934313" id="-26044">
		<tag k="alt_name" v="Landåstjønnane" />
		<tag k="name" v="Landsåstjønnane" />
		<tag k="natural" v="water" />
		<tag k="ssr:stedsnr" v="607455" />
		<tag k="water" v="lake" />
	</node>
	<node lat="58.85618058924144" lon="8.539588406210692" id="-26051">
		<tag k="name" v="Sprangstjønna" />
		<tag k="natural" v="water" />
		<tag k="ssr:stedsnr" v="607749" />
	</node>
	<node lat="58.859165086530545" lon="8.621328579239135" id="-26052">
		<tag k="name" v="Berlitjønnane" />
		<tag k="natural" v="water" />
		<tag k="ssr:stedsnr" v="607755" />
		<tag k="water" v="lake" />
	</node>
	<node lat="58.9457250021225" lon="8.12256945180985" id="-26055">
		<tag k="name" v="Åmlandstjønn" />
		<tag k="natural" v="water" />
		<tag k="ssr:stedsnr" v="607911" />
	</node>
	<node lat="58.95345000309069" lon="8.249133325955068" id="-26058">
		<tag k="name" v="Steinsvasstangen" />
		<tag k="natural" v="cape" />
		<tag k="ssr:stedsnr" v="607897" />
	</node>
	<node lat="58.65327222236503" lon="8.646275004469008" id="-26066">
		<tag k="name" v="Nesa" />
		<tag k="natural" v="cape" />
		<tag k="ssr:stedsnr" v="700447" />
	</node>
	<node lat="58.71701389078539" lon="8.333227769470165" id="-26069">
		<tag k="name" v="Selbergtjønn" />
		<tag k="natural" v="water" />
		<tag k="ssr:stedsnr" v="700502" />
	</node>
	<node lat="58.91109722351853" lon="8.590194437213214" id="-26074">
		<tag k="name" v="Kåptjønn" />
		<tag k="natural" v="water" />
		<tag k="ssr:stedsnr" v="637005" />
	</node>
	<node lat="58.79236388978411" lon="8.664991670120996" id="-26080">
		<tag k="name" v="Vannmellom" />
		<tag k="natural" v="cape" />
		<tag k="ssr:stedsnr" v="638086" />
	</node>
	<node lat="58.817266665009086" lon="8.400080561577889" id="-26106">
		<tag k="name" v="Hefte" />
		<tag k="natural" v="cape" />
		<tag k="ssr:stedsnr" v="705477" />
	</node>
	<node lat="58.727766668696525" lon="8.364491664978093" id="-26110">
		<tag k="name" v="Trytetjønn" />
		<tag k="natural" v="water" />
		<tag k="ssr:stedsnr" v="639409" />
	</node>
	<node lat="58.729530551553225" lon="8.370733328526141" id="-26111">
		<tag k="name" v="Djuptjønn" />
		<tag k="natural" v="water" />
		<tag k="ssr:stedsnr" v="639416" />
	</node>
	<node lat="58.82963888832194" lon="8.292411103161287" id="-26125">
		<tag k="name" v="Vatnmellom" />
		<tag k="natural" v="cape" />
		<tag k="ssr:stedsnr" v="645705" />
	</node>
	<node lat="58.92995832916793" lon="8.20099167495796" id="-26142">
		<tag k="name" v="Håkneneset" />
		<tag k="natural" v="cape" />
		<tag k="ssr:stedsnr" v="657140" />
	</node>
	<node lat="58.94861944490976" lon="8.166177774995376" id="-26144">
		<tag k="name" v="Orøya" />
		<tag k="natural" v="cape" />
		<tag k="ssr:stedsnr" v="657242" />
	</node>
	<node lat="58.79591389287147" lon="8.44889999356986" id="-26159">
		<tag k="name" v="Takbekkia" />
		<tag k="natural" v="bay" />
		<tag k="ssr:stedsnr" v="658105" />
	</node>
	<node lat="58.926319445134595" lon="8.26559722002553" id="-26164">
		<tag k="name" v="Skotjønn" />
		<tag k="natural" v="water" />
		<tag k="ssr:stedsnr" v="658286" />
	</node>
	<node lat="58.71029166716051" lon="8.291202783594779" id="-26168">
		<tag k="name" v="Koppsåhylen" />
		<tag k="place" v="locality" />
		<tag k="ssr:stedsnr" v="658595" />
	</node>
	<node lat="58.78198055780134" lon="8.042202784880656" id="-26169">
		<tag k="name" v="Dritt-tjønn" />
		<tag k="natural" v="water" />
		<tag k="ssr:stedsnr" v="658598" />
	</node>
	<node lat="58.71947222415022" lon="8.314633331189281" id="-26173">
		<tag k="name" v="Surtemyrtjønn" />
		<tag k="natural" v="water" />
		<tag k="ssr:stedsnr" v="658630" />
	</node>
	<node lat="58.87114721926583" lon="8.242877783478626" id="-26179">
		<tag k="fixme" v="multiple name tags, choose one and add the other to alt_name" />
		<tag k="name" v="Den ydste Nattetjønn;Nattetjønni" />
		<tag k="natural" v="water" />
		<tag k="ssr:stedsnr" v="668005" />
	</node>
	<node lat="58.74261944238887" lon="8.494969448970139" id="-26180">
		<tag k="name" v="Vallekilen" />
		<tag k="natural" v="water" />
		<tag k="ssr:stedsnr" v="668013" />
		<tag k="water" v="lake" />
	</node>
	<node lat="58.861016670290006" lon="8.362580555196722" id="-26182">
		<tag k="fixme" v="multiple name tags, choose one and add the other to alt_name" />
		<tag k="name" v="Ørnetjønn;Ormetjønn" />
		<tag k="natural" v="water" />
		<tag k="ssr:stedsnr" v="668090" />
	</node>
	<node lat="58.7352583340967" lon="8.475505559165372" id="-26183">
		<tag k="name" v="Evja" />
		<tag k="place" v="locality" />
		<tag k="ssr:stedsnr" v="668092" />
	</node>
	<node lat="58.76730277894434" lon="8.14131110452759" id="-26184">
		<tag k="name" v="Ringtjønn" />
		<tag k="natural" v="water" />
		<tag k="ssr:stedsnr" v="668214" />
	</node>
	<node lat="58.79203333476762" lon="8.280322217202212" id="-26186">
		<tag k="name" v="Røyrtjønn" />
		<tag k="natural" v="water" />
		<tag k="ssr:stedsnr" v="668148" />
	</node>
	<node lat="58.751850003391816" lon="8.459127773163734" id="-26192">
		<tag k="alt_name" v="Kilen" />
		<tag k="name" v="Engeneskilen" />
		<tag k="natural" v="bay" />
		<tag k="ssr:stedsnr" v="668317" />
	</node>
	<node lat="58.76517222104435" lon="8.435247214633252" id="-26193">
		<tag k="alt_name" v="Breidvassbekken" />
		<tag k="name" v="Breivassbekken" />
		<tag k="ssr:stedsnr" v="668234" />
		<tag k="waterway" v="stream" />
	</node>
	<node lat="58.74376111057946" lon="8.204236110305477" id="-26196">
		<tag k="name" v="Vassbotnbekken" />
		<tag k="ssr:stedsnr" v="668408" />
		<tag k="waterway" v="stream" />
	</node>
	<node lat="58.74360555897748" lon="8.392338886594773" id="-26197">
		<tag k="name" v="Heståna" />
		<tag k="ssr:stedsnr" v="668411" />
		<tag k="waterway" v="stream" />
	</node>
	<node lat="58.71688300213328" lon="8.297834637713382" id="-26203">
		<tag k="name" v="Båskilen" />
		<tag k="natural" v="water" />
		<tag k="ssr:stedsnr" v="668507" />
		<tag k="water" v="lake" />
	</node>
	<node lat="58.77957777456878" lon="8.634586114491272" id="-26206">
		<tag k="alt_name" v="Veråsvatnet" />
		<tag k="name" v="Væråsvatn" />
		<tag k="natural" v="water" />
		<tag k="ssr:stedsnr" v="668539" />
	</node>
	<node lat="58.77498287359755" lon="8.596885396030194" id="-26207">
		<tag k="name" v="Knutetjønnane" />
		<tag k="natural" v="water" />
		<tag k="ssr:stedsnr" v="668540" />
		<tag k="water" v="lake" />
	</node>
	<node lat="58.90180555754909" lon="8.052249997346614" id="-26209">
		<tag k="name" v="Hestskotjønn" />
		<tag k="natural" v="water" />
		<tag k="ssr:stedsnr" v="668730" />
	</node>
	<node lat="58.822619441257366" lon="8.055766671969733" id="-26210">
		<tag k="alt_name" v="Listøltjønn" />
		<tag k="name" v="Listøyltjønn" />
		<tag k="natural" v="water" />
		<tag k="ssr:stedsnr" v="668788" />
	</node>
	<node lat="58.74744444869709" lon="8.059922230027164" id="-26212">
		<tag k="alt_name" v="Bjørnetjønn" />
		<tag k="name" v="Bjønnetjønn" />
		<tag k="natural" v="water" />
		<tag k="ssr:stedsnr" v="668905" />
	</node>
	<node lat="58.74055833511444" lon="8.081624996845349" id="-26213">
		<tag k="name" v="Lonebekken" />
		<tag k="ssr:stedsnr" v="668910" />
		<tag k="waterway" v="stream" />
	</node>
	<node lat="58.73884722629723" lon="8.06523610453119" id="-26214">
		<tag k="alt_name" v="Litjønni" />
		<tag k="name" v="Litjønn" />
		<tag k="natural" v="water" />
		<tag k="ssr:stedsnr" v="668913" />
	</node>
	<node lat="58.87596944775666" lon="8.508558328106387" id="-26224">
		<tag k="name" v="Gråttjønn" />
		<tag k="natural" v="water" />
		<tag k="ssr:stedsnr" v="699031" />
	</node>
	<node lat="58.7401722211895" lon="8.576874994225841" id="-26241">
		<tag k="name" v="Slåttmyrtjønn" />
		<tag k="natural" v="water" />
		<tag k="ssr:stedsnr" v="699374" />
	</node>
	<node lat="58.71003888992192" lon="8.62475555111532" id="-26248">
		<tag k="name" v="Foløytangen" />
		<tag k="natural" v="cape" />
		<tag k="ssr:stedsnr" v="699522" />
	</node>
	<node lat="58.74067777669696" lon="8.496452777867415" id="-26250">
		<tag k="name" v="Holmen" />
		<tag k="place" v="islet" />
		<tag k="ssr:stedsnr" v="699577" />
	</node>
	<node lat="58.70639167089605" lon="8.606491669429534" id="-26254">
		<tag k="name" v="Hagetjønn" />
		<tag k="natural" v="water" />
		<tag k="ssr:stedsnr" v="699714" />
	</node>
	<node lat="58.94441389022589" lon="8.271561106604006" id="-26266">
		<tag k="name" v="Nilsestjønnbekken" />
		<tag k="ssr:stedsnr" v="712396" />
		<tag k="waterway" v="stream" />
	</node>
	<node lat="58.927819446222244" lon="8.26757221898596" id="-26269">
		<tag k="name" v="Dypplane" />
		<tag k="natural" v="water" />
		<tag k="ssr:stedsnr" v="713334" />
		<tag k="water" v="pond" />
	</node>
	<node lat="58.800808337240696" lon="8.170947215226102" id="-26276">
		<tag k="name" v="Surtepytten" />
		<tag k="natural" v="water" />
		<tag k="ssr:stedsnr" v="717254" />
		<tag k="water" v="pond" />
	</node>
	<node lat="58.8781305599577" lon="8.331441669288022" id="-26289">
		<tag k="name" v="Lisle Trytetjønn" />
		<tag k="natural" v="water" />
		<tag k="ssr:stedsnr" v="718130" />
	</node>
	<node lat="58.927491836033305" lon="8.170728303993366" id="-26290">
		<tag k="name" v="Dei lange tjønnane" />
		<tag k="natural" v="water" />
		<tag k="ssr:stedsnr" v="718132" />
		<tag k="water" v="lake" />
	</node>
	<node lat="58.94001944861959" lon="8.193033340601728" id="-26291">
		<tag k="name" v="Yverona" />
		<tag k="place" v="locality" />
		<tag k="ssr:stedsnr" v="718133" />
	</node>
	<node lat="58.74246388842709" lon="8.362991666756384" id="-26296">
		<tag k="name" v="Hefte" />
		<tag k="natural" v="strait" />
		<tag k="ssr:stedsnr" v="718406" />
	</node>
	<node lat="58.739888892289656" lon="8.227052777558532" id="-26298">
		<tag k="name" v="Hushovdbukta" />
		<tag k="natural" v="bay" />
		<tag k="ssr:stedsnr" v="718321" />
	</node>
	<node lat="58.7679888893879" lon="8.291372224894753" id="-26305">
		<tag k="name" v="Bjørnelibukta" />
		<tag k="natural" v="bay" />
		<tag k="ssr:stedsnr" v="718678" />
	</node>
	<node lat="58.79471944797642" lon="8.033066672244878" id="-26310">
		<tag k="name" v="Kvennhusfossen" />
		<tag k="natural" v="waterfall" />
		<tag k="ssr:stedsnr" v="718576" />
	</node>
	<node lat="58.74156944220502" lon="8.253555547821003" id="-26311">
		<tag k="name" v="Livslitjønn" />
		<tag k="natural" v="water" />
		<tag k="ssr:stedsnr" v="719310" />
	</node>
	<node lat="58.767177781461754" lon="8.248236116193745" id="-26319">
		<tag k="name" v="Laugarodden" />
		<tag k="natural" v="cape" />
		<tag k="ssr:stedsnr" v="719383" />
	</node>
	<node lat="58.733069442652436" lon="8.322719442248967" id="-26324">
		<tag k="name" v="Bjortjønnskartjønn" />
		<tag k="natural" v="water" />
		<tag k="ssr:stedsnr" v="719586" />
	</node>
	<node lat="58.8571916641803" lon="8.46862222741923" id="-26326">
		<tag k="name" v="Bjønnvassløken" />
		<tag k="natural" v="water" />
		<tag k="ssr:stedsnr" v="719619" />
		<tag k="water" v="lake" />
	</node>
	<node lat="58.96391388543196" lon="8.134691666858192" id="-26329">
		<tag k="name" v="Svarthyl" />
		<tag k="place" v="locality" />
		<tag k="ssr:stedsnr" v="719869" />
	</node>
	<node lat="58.856100003836374" lon="8.123455562138675" id="-26330">
		<tag k="name" v="Røyrtjønn" />
		<tag k="natural" v="water" />
		<tag k="ssr:stedsnr" v="899525" />
	</node>
	<node lat="58.78889444007358" lon="8.211797227856152" id="-26333">
		<tag k="name" v="Tveitfossen" />
		<tag k="natural" v="waterfall" />
		<tag k="ssr:stedsnr" v="899692" />
	</node>
	<node lat="58.87823055644871" lon="8.136791665938926" id="-26339">
		<tag k="name" v="Lange Småtjønn" />
		<tag k="natural" v="water" />
		<tag k="ssr:stedsnr" v="900044" />
	</node>
	<node lat="58.85543055182199" lon="8.072850006518589" id="-26340">
		<tag k="name" v="Jamvågsbekken" />
		<tag k="ssr:stedsnr" v="900133" />
		<tag k="waterway" v="stream" />
	</node>
	<node lat="58.79890555715075" lon="8.18870555190449" id="-26350">
		<tag k="name" v="Presteråka" />
		<tag k="natural" v="bay" />
		<tag k="ssr:stedsnr" v="900286" />
	</node>
	<node lat="58.81452778016094" lon="8.142063891303765" id="-26352">
		<tag k="name" v="Nesfetodden" />
		<tag k="natural" v="cape" />
		<tag k="ssr:stedsnr" v="900735" />
	</node>
	<node lat="58.83781389236971" lon="8.268836105254485" id="-26353">
		<tag k="name" v="Nattetjønn" />
		<tag k="natural" v="water" />
		<tag k="ssr:stedsnr" v="900644" />
	</node>
	<node lat="58.781155161451885" lon="8.366646531948101" id="-26358">
		<tag k="name" v="Kallingsvatn" />
		<tag k="natural" v="water" />
		<tag k="ssr:stedsnr" v="728208" />
		<tag k="water" v="lake" />
	</node>
	<node lat="58.87167221886327" lon="8.166950006397222" id="-26360">
		<tag k="name" v="Saurdalstjønnane" />
		<tag k="natural" v="water" />
		<tag k="ssr:stedsnr" v="729009" />
		<tag k="water" v="lake" />
	</node>
	<node lat="58.84785851876831" lon="8.46801031091768" id="-26365">
		<tag k="name" v="Hisvatn" />
		<tag k="natural" v="water" />
		<tag k="ssr:stedsnr" v="729077" />
	</node>
	<node lat="58.72669999736079" lon="8.483874997929409" id="-26369">
		<tag k="name" v="Fåtjønn" />
		<tag k="place" v="locality" />
		<tag k="ssr:stedsnr" v="729107" />
	</node>
	<node lat="58.847980553436265" lon="8.28439166053205" id="-26370">
		<tag k="alt_name" v="Grytåni" />
		<tag k="name" v="Gryteåna" />
		<tag k="ssr:stedsnr" v="729119" />
		<tag k="waterway" v="stream" />
	</node>
	<node lat="58.84365555866072" lon="8.180550004207376" id="-26371">
		<tag k="alt_name" v="Takbekken" />
		<tag k="name" v="Takbekk" />
		<tag k="ssr:stedsnr" v="729122" />
		<tag k="waterway" v="stream" />
	</node>
	<node lat="58.813438891450204" lon="8.39905000823885" id="-26372">
		<tag k="name" v="Lomskiltjønn" />
		<tag k="natural" v="water" />
		<tag k="ssr:stedsnr" v="729178" />
	</node>
	<node lat="58.77396666827689" lon="8.539391667204173" id="-26373">
		<tag k="name" v="Stemtjønn" />
		<tag k="natural" v="water" />
		<tag k="ssr:stedsnr" v="729187" />
	</node>
	<node lat="58.6473916704427" lon="8.41008332766116" id="-26377">
		<tag k="alt_name" v="Beråstjørn" />
		<tag k="name" v="Beråstjønn" />
		<tag k="natural" v="water" />
		<tag k="ssr:stedsnr" v="729284" />
	</node>
	<node lat="58.70831388582446" lon="8.243105560288107" id="-26378">
		<tag k="alt_name" v="Våvatnet" />
		<tag k="name" v="Våvatn" />
		<tag k="natural" v="water" />
		<tag k="ssr:stedsnr" v="729475" />
		<tag k="water" v="lake" />
	</node>
	<node lat="58.72253055708491" lon="8.234455563996061" id="-26379">
		<tag k="name" v="Drotta" />
		<tag k="ssr:stedsnr" v="729482" />
		<tag k="waterway" v="river" />
	</node>
	<node lat="58.80269444401911" lon="8.595330562764047" id="-26381">
		<tag k="alt_name" v="Sandvasstjønn" />
		<tag k="name" v="Sandvasstjønna" />
		<tag k="natural" v="water" />
		<tag k="ssr:stedsnr" v="729576" />
	</node>
	<node lat="58.826863892717114" lon="8.485602779427532" id="-26384">
		<tag k="name" v="Krossvatn" />
		<tag k="natural" v="water" />
		<tag k="ssr:stedsnr" v="729668" />
	</node>
	<node lat="58.85385833608548" lon="8.521155548479955" id="-26386">
		<tag k="name" v="Haugedøl" />
		<tag k="ssr:stedsnr" v="729767" />
		<tag k="waterway" v="river" />
	</node>
	<node lat="58.6769138844945" lon="8.724008336505184" id="-26387">
		<tag k="name" v="Skolbergvatn" />
		<tag k="natural" v="water" />
		<tag k="ssr:stedsnr" v="729903" />
	</node>
	<node lat="58.68033611064634" lon="8.663252774161814" id="-26389">
		<tag k="alt_name" v="Holmetjern" />
		<tag k="name" v="Holmetjønn" />
		<tag k="natural" v="water" />
		<tag k="ssr:stedsnr" v="729906" />
	</node>
	<node lat="58.72973963063065" lon="8.019648829515845" id="-26392">
		<tag k="name" v="Danielstjønni" />
		<tag k="natural" v="water" />
		<tag k="ssr:stedsnr" v="729925" />
	</node>
	<node lat="58.6833972196152" lon="8.585552776769802" id="-26393">
		<tag k="name" v="Kråkenes" />
		<tag k="natural" v="cape" />
		<tag k="ssr:stedsnr" v="729930" />
	</node>
	<node lat="58.890522226603416" lon="8.493883334039086" id="-26396">
		<tag k="name" v="Malvassbekken" />
		<tag k="ssr:stedsnr" v="901204" />
		<tag k="waterway" v="stream" />
	</node>
	<node lat="58.88131111076062" lon="8.184297221953148" id="-26397">
		<tag k="name" v="Dyppelmyrdalstjønn" />
		<tag k="natural" v="water" />
		<tag k="ssr:stedsnr" v="901211" />
	</node>
	<node lat="58.86776667053797" lon="8.203319445380075" id="-26398">
		<tag k="name" v="Mathyl" />
		<tag k="place" v="locality" />
		<tag k="ssr:stedsnr" v="901213" />
	</node>
	<node lat="58.91058611388574" lon="8.374011119061556" id="-26402">
		<tag k="name" v="Lomekilen" />
		<tag k="natural" v="bay" />
		<tag k="ssr:stedsnr" v="901287" />
	</node>
	<node lat="58.873347223067825" lon="8.395955557331433" id="-26406">
		<tag k="name" v="Mjaltebeitetjønn" />
		<tag k="natural" v="water" />
		<tag k="ssr:stedsnr" v="901439" />
	</node>
	<node lat="58.81929166897677" lon="8.256247219302448" id="-26412">
		<tag k="name" v="Jorundtjønn" />
		<tag k="natural" v="water" />
		<tag k="ssr:stedsnr" v="901609" />
	</node>
	<node lat="58.78498888508862" lon="8.046288893315216" id="-26415">
		<tag k="name" v="Bjårvass-stem" />
		<tag k="ssr:stedsnr" v="901590" />
		<tag k="waterway" v="dam" />
	</node>
	<node lat="58.840569447092584" lon="8.461274992776739" id="-26417">
		<tag k="name" v="Hovmyrtjønn" />
		<tag k="natural" v="water" />
		<tag k="ssr:stedsnr" v="901639" />
	</node>
	<node lat="58.85204167044325" lon="8.33420555398158" id="-26418">
		<tag k="name" v="Nestjønn" />
		<tag k="natural" v="water" />
		<tag k="ssr:stedsnr" v="901646" />
	</node>
	<node lat="58.701855554997586" lon="8.29652221805569" id="-26422">
		<tag k="name" v="Poddetjønn" />
		<tag k="natural" v="water" />
		<tag k="ssr:stedsnr" v="901696" />
	</node>
	<node lat="58.753149997555845" lon="8.202736104821284" id="-26430">
		<tag k="name" v="Hønetjønn" />
		<tag k="natural" v="water" />
		<tag k="ssr:stedsnr" v="901892" />
	</node>
	<node lat="58.882158330515786" lon="8.091475002868204" id="-26433">
		<tag k="name" v="Hagestøyltjønn" />
		<tag k="natural" v="water" />
		<tag k="ssr:stedsnr" v="755322" />
	</node>
	<node lat="58.884061115247086" lon="8.592241666286666" id="-26437">
		<tag k="name" v="Laugarhølen" />
		<tag k="place" v="locality" />
		<tag k="ssr:stedsnr" v="759147" />
	</node>
	<node lat="58.68053610706832" lon="8.593397221396108" id="-26444">
		<tag k="name" v="Store Nelaug" />
		<tag k="natural" v="water" />
		<tag k="ssr:stedsnr" v="759201" />
		<tag k="water" v="lake" />
	</node>
	<node lat="58.69221666549412" lon="8.530461114733093" id="-26445">
		<tag k="name" v="Kompetjønn" />
		<tag k="natural" v="water" />
		<tag k="ssr:stedsnr" v="759350" />
	</node>
	<node lat="58.74042222353666" lon="8.557974992672923" id="-26446">
		<tag k="name" v="Borvassheitjønn" />
		<tag k="natural" v="water" />
		<tag k="ssr:stedsnr" v="759355" />
	</node>
	<node lat="58.76022297744671" lon="8.605211070659173" id="-26448">
		<tag k="name" v="Hegnarkleivtjønnane" />
		<tag k="natural" v="water" />
		<tag k="ssr:stedsnr" v="759361" />
		<tag k="water" v="lake" />
	</node>
	<node lat="58.705566665869284" lon="8.515255558770287" id="-26449">
		<tag k="name" v="Montjønn" />
		<tag k="natural" v="water" />
		<tag k="ssr:stedsnr" v="759396" />
	</node>
	<node lat="58.8035333299492" lon="8.536313896684389" id="-26454">
		<tag k="name" v="Seljåsbekken" />
		<tag k="ssr:stedsnr" v="759452" />
		<tag k="waterway" v="stream" />
	</node>
	<node lat="58.738980554209014" lon="8.498374999297615" id="-26464">
		<tag k="name" v="Vallebukta" />
		<tag k="natural" v="bay" />
		<tag k="ssr:stedsnr" v="760610" />
	</node>
	<node lat="58.64322222107156" lon="8.695888889560855" id="-26467">
		<tag k="name" v="Vardåstjønn" />
		<tag k="natural" v="water" />
		<tag k="ssr:stedsnr" v="760616" />
	</node>
	<node lat="58.7213000035923" lon="8.466038895119423" id="-26469">
		<tag k="name" v="Åsstemmen" />
		<tag k="ssr:stedsnr" v="760641" />
		<tag k="waterway" v="dam" />
	</node>
	<node lat="58.722741666075194" lon="8.621658341022" id="-26475">
		<tag k="name" v="Høydalstjønn" />
		<tag k="natural" v="water" />
		<tag k="ssr:stedsnr" v="760519" />
	</node>
	<node lat="58.86874999825274" lon="8.365483340280468" id="-26485">
		<tag k="name" v="Nautebukta" />
		<tag k="natural" v="bay" />
		<tag k="ssr:stedsnr" v="766395" />
	</node>
	<node lat="58.819483329179796" lon="8.397622225445524" id="-26488">
		<tag k="name" v="Fantetangen" />
		<tag k="natural" v="cape" />
		<tag k="ssr:stedsnr" v="766405" />
	</node>
	<node lat="58.87848888911863" lon="8.160108333563933" id="-26491">
		<tag k="name" v="Mittingtjønn" />
		<tag k="natural" v="water" />
		<tag k="ssr:stedsnr" v="778003" />
	</node>
	<node lat="58.906775003565194" lon="8.093083332845806" id="-26498">
		<tag k="name" v="Gometjønn" />
		<tag k="natural" v="water" />
		<tag k="ssr:stedsnr" v="778210" />
	</node>
	<node lat="58.76220277980746" lon="8.08162499328595" id="-26500">
		<tag k="name" v="Lyngøyna" />
		<tag k="place" v="islet" />
		<tag k="ssr:stedsnr" v="778956" />
	</node>
	<node lat="58.86555277511022" lon="8.286697219982697" id="-26503">
		<tag k="name" v="Gunnhildsbuevja" />
		<tag k="natural" v="water" />
		<tag k="ssr:stedsnr" v="779105" />
		<tag k="water" v="lake" />
	</node>
	<node lat="58.79550555780005" lon="8.483249999232374" id="-26504">
		<tag k="name" v="Kvennefossen" />
		<tag k="natural" v="waterfall" />
		<tag k="ssr:stedsnr" v="779110" />
	</node>
	<node lat="58.736552775501266" lon="8.282375007368612" id="-26509">
		<tag k="name" v="Ormetjønn" />
		<tag k="natural" v="water" />
		<tag k="ssr:stedsnr" v="779355" />
	</node>
	<node lat="58.77053333037118" lon="8.217750001935432" id="-26510">
		<tag k="name" v="Lindrestjønnbekken" />
		<tag k="ssr:stedsnr" v="779399" />
		<tag k="waterway" v="stream" />
	</node>
	<node lat="58.74982499846009" lon="8.361016663368932" id="-26511">
		<tag k="name" v="Stormyrtjønn" />
		<tag k="natural" v="water" />
		<tag k="ssr:stedsnr" v="779402" />
	</node>
	<node lat="58.72826666458354" lon="7.975497224618909" id="-26518">
		<tag k="name" v="Svarthyl" />
		<tag k="place" v="locality" />
		<tag k="ssr:stedsnr" v="779408" />
	</node>
	<node lat="58.76591110846755" lon="8.328447217493405" id="-26523">
		<tag k="name" v="Den store Sjutjønna" />
		<tag k="natural" v="water" />
		<tag k="ssr:stedsnr" v="779717" />
	</node>
	<node lat="58.774516666672724" lon="8.024750005338664" id="-26524">
		<tag k="name" v="Flæknutetjønn" />
		<tag k="natural" v="water" />
		<tag k="ssr:stedsnr" v="779752" />
	</node>
	<node lat="58.74900426236921" lon="8.213938083459961" id="-26535">
		<tag k="name" v="Geirusdalsbekken" />
		<tag k="ssr:stedsnr" v="779900" />
		<tag k="waterway" v="stream" />
	</node>
	<node lat="58.870772221959065" lon="8.107066660213867" id="-26543">
		<tag k="alt_name" v="Toskåni" />
		<tag k="name" v="Torskåni" />
		<tag k="ssr:stedsnr" v="911102" />
		<tag k="waterway" v="stream" />
	</node>
	<node lat="58.85592500116001" lon="8.346241666363335" id="-26550">
		<tag k="alt_name" v="Skredbekken" />
		<tag k="name" v="Skrebekk" />
		<tag k="ssr:stedsnr" v="911120" />
		<tag k="waterway" v="stream" />
	</node>
	<node lat="58.71154166714216" lon="8.617086107397165" id="-26552">
		<tag k="name" v="Gjerustadkilen" />
		<tag k="natural" v="water" />
		<tag k="ssr:stedsnr" v="911079" />
	</node>
	<node lat="58.82927500117033" lon="8.435649993880505" id="-26559">
		<tag k="alt_name" v="Høystøylbekken" />
		<tag k="name" v="Heistøylbekken" />
		<tag k="ssr:stedsnr" v="911160" />
		<tag k="waterway" v="stream" />
	</node>
	<node lat="58.75581110716253" lon="8.098983339964033" id="-26568">
		<tag k="fixme" v="multiple name tags, choose one and add the other to alt_name" />
		<tag k="name" v="Storstemmen;Stopstemmen" />
		<tag k="ssr:stedsnr" v="911227" />
		<tag k="waterway" v="dam" />
	</node>
	<node lat="58.779930559779" lon="8.230411118979806" id="-26570">
		<tag k="name" v="Raue" />
		<tag k="natural" v="water" />
		<tag k="ssr:stedsnr" v="911242" />
	</node>
	<node lat="58.73252222649939" lon="8.106513880730578" id="-26573">
		<tag k="name" v="Toskåbekken" />
		<tag k="ssr:stedsnr" v="911410" />
		<tag k="waterway" v="stream" />
	</node>
	<node lat="58.85088332962309" lon="8.210658328724739" id="-26575">
		<tag k="name" v="Lisletjønn" />
		<tag k="natural" v="water" />
		<tag k="ssr:stedsnr" v="789109" />
	</node>
	<node lat="58.84935000181998" lon="8.177641670108654" id="-26576">
		<tag k="alt_name" v="Nautbukti" />
		<tag k="name" v="Nautbukta" />
		<tag k="natural" v="bay" />
		<tag k="ssr:stedsnr" v="789110" />
	</node>
	<node lat="58.721377779656606" lon="8.608811118625216" id="-26577">
		<tag k="alt_name" v="Huldtjønn" />
		<tag k="name" v="Huldetjønn" />
		<tag k="natural" v="water" />
		<tag k="ssr:stedsnr" v="789111" />
	</node>
	<node lat="58.80216388809855" lon="8.16843611429799" id="-26582">
		<tag k="name" v="Øyna" />
		<tag k="place" v="island" />
		<tag k="ssr:stedsnr" v="789125" />
	</node>
	<node lat="58.666836109554765" lon="8.415963889964956" id="-26584">
		<tag k="name" v="Stemvassbekken" />
		<tag k="ssr:stedsnr" v="911300" />
		<tag k="waterway" v="stream" />
	</node>
	<node lat="58.83336111103236" lon="8.118519439787189" id="-26585">
		<tag k="alt_name" v="Hasledalsbekken" />
		<tag k="name" v="Hesledalsbekken" />
		<tag k="ssr:stedsnr" v="789055" />
		<tag k="waterway" v="stream" />
	</node>
	<node lat="58.75855833754487" lon="8.190794446174664" id="-26594">
		<tag k="name" v="Lefsetjønn" />
		<tag k="natural" v="water" />
		<tag k="ssr:stedsnr" v="789324" />
	</node>
	<node lat="58.70888055324976" lon="8.339391662115245" id="-26595">
		<tag k="alt_name" v="Tovdalsåni;Tovdalsvassdraget;Topdalselva;Tovdalselva" />
		<tag k="name" v="Tovdalsåna" />
		<tag k="ssr:stedsnr" v="911490" />
		<tag k="waterway" v="river" />
	</node>
	<node lat="58.75337777375218" lon="8.523744448979176" id="-26597">
		<tag k="name" v="Stigvasselva" />
		<tag k="ssr:stedsnr" v="911537" />
		<tag k="waterway" v="river" />
	</node>
	<node lat="58.64916111306344" lon="8.448963887911288" id="-26599">
		<tag k="alt_name" v="Skarstjønn" />
		<tag k="name" v="Skardstjønn" />
		<tag k="natural" v="water" />
		<tag k="ssr:stedsnr" v="789265" />
	</node>
	<node lat="58.73696944493726" lon="8.450586118044445" id="-26600">
		<tag k="name" v="Bakketjønn" />
		<tag k="natural" v="water" />
		<tag k="ssr:stedsnr" v="789409" />
	</node>
	<node lat="58.81940555169673" lon="8.058963887557796" id="-26603">
		<tag k="name" v="Gråndalstjønn" />
		<tag k="natural" v="water" />
		<tag k="ssr:stedsnr" v="789814" />
	</node>
	<node lat="58.86357500442722" lon="8.59802500738274" id="-26605">
		<tag k="fixme" v="multiple name tags, choose one and add the other to alt_name" />
		<tag k="name" v="Koppartjønn;Tovtjønn" />
		<tag k="natural" v="water" />
		<tag k="ssr:stedsnr" v="789710" />
	</node>
	<node lat="58.88728889122593" lon="8.020497221139886" id="-26606">
		<tag k="alt_name" v="Rjukan" />
		<tag k="name" v="Rjukanfossen" />
		<tag k="natural" v="waterfall" />
		<tag k="ssr:stedsnr" v="789725" />
	</node>
	<node lat="58.82153055968175" lon="8.036966658757454" id="-26609">
		<tag k="name" v="Mjåvatn" />
		<tag k="natural" v="water" />
		<tag k="ssr:stedsnr" v="789756" />
		<tag k="water" v="lake" />
	</node>
	<node lat="58.83178611170459" lon="8.070208336790655" id="-26610">
		<tag k="alt_name" v="Skardsåni" />
		<tag k="name" v="Skarsåna" />
		<tag k="ssr:stedsnr" v="789765" />
		<tag k="waterway" v="river" />
	</node>
	<node lat="58.80071666776453" lon="8.053502780105289" id="-26611">
		<tag k="name" v="Lauvbubekken" />
		<tag k="ssr:stedsnr" v="789801" />
		<tag k="waterway" v="stream" />
	</node>
	<node lat="58.711005556646725" lon="8.022869446378232" id="-26612">
		<tag k="name" v="Taklibekken" />
		<tag k="ssr:stedsnr" v="911591" />
		<tag k="waterway" v="stream" />
	</node>
	<node lat="58.87579444159425" lon="8.131569445318073" id="-26614">
		<tag k="name" v="Grønlitjønn" />
		<tag k="natural" v="water" />
		<tag k="ssr:stedsnr" v="790006" />
	</node>
	<node lat="58.74169999786561" lon="8.542013893452422" id="-26615">
		<tag k="alt_name" v="Mørktjønn" />
		<tag k="name" v="Mørketjønn" />
		<tag k="natural" v="water" />
		<tag k="ssr:stedsnr" v="790013" />
	</node>
	<node lat="58.6868472236647" lon="8.400380556227946" id="-26617">
		<tag k="alt_name" v="Bjorvassåni" />
		<tag k="name" v="Bjoråna" />
		<tag k="ssr:stedsnr" v="790102" />
		<tag k="waterway" v="river" />
	</node>
	<node lat="58.91736944423058" lon="8.528563889107758" id="-26618">
		<tag k="alt_name" v="Såget;Såge" />
		<tag k="name" v="Soget" />
		<tag k="natural" v="strait" />
		<tag k="ssr:stedsnr" v="911418" />
	</node>
	<node lat="58.74684999695117" lon="8.34454166835044" id="-26619">
		<tag k="fixme" v="multiple name tags, choose one and add the other to alt_name" />
		<tag k="name" v="Lille Stemtjønn;Stemtjønni" />
		<tag k="natural" v="water" />
		<tag k="ssr:stedsnr" v="911421" />
	</node>
	<node lat="58.72989166587182" lon="8.296430560813278" id="-26620">
		<tag k="alt_name" v="Håkodalsåna" />
		<tag k="name" v="Håkedalsåna" />
		<tag k="ssr:stedsnr" v="911422" />
		<tag k="waterway" v="stream" />
	</node>
	<node lat="58.84073611439793" lon="8.502416659415346" id="-26622">
		<tag k="name" v="Torsdalstjønna" />
		<tag k="natural" v="water" />
		<tag k="ssr:stedsnr" v="911662" />
	</node>
	<node lat="58.81960000337035" lon="8.617833326894976" id="-26624">
		<tag k="alt_name" v="Eikelitjønn;Eiklivatn, l" />
		<tag k="name" v="Lisle Eiklivatn" />
		<tag k="natural" v="water" />
		<tag k="ssr:stedsnr" v="911685" />
	</node>
	<node lat="58.78094266637314" lon="8.602564645113706" id="-26626">
		<tag k="name" v="Ljosvassheitjønnane" />
		<tag k="natural" v="water" />
		<tag k="ssr:stedsnr" v="790556" />
		<tag k="water" v="lake" />
	</node>
	<node lat="58.69037778084758" lon="8.548913890001316" id="-26634">
		<tag k="alt_name" v="Vollanstjønn" />
		<tag k="name" v="Vollanstjern" />
		<tag k="natural" v="water" />
		<tag k="ssr:stedsnr" v="790902" />
	</node>
	<node lat="58.67963610792352" lon="8.598405559165506" id="-26637">
		<tag k="name" v="Vorvikholmane" />
		<tag k="place" v="islet" />
		<tag k="ssr:stedsnr" v="911880" />
	</node>
	<node lat="58.74520560914079" lon="7.9852572583012575" id="-26638">
		<tag k="name" v="Koltjønni" />
		<tag k="natural" v="water" />
		<tag k="ssr:stedsnr" v="911894" />
	</node>
	<node lat="58.91218888976769" lon="8.379330554866675" id="-26640">
		<tag k="alt_name" v="Uvdalsvatn" />
		<tag k="name" v="Uvdalsvatnet" />
		<tag k="natural" v="water" />
		<tag k="ssr:stedsnr" v="911974" />
		<tag k="water" v="lake" />
	</node>
	<node lat="58.92450278106758" lon="8.294472229708932" id="-26641">
		<tag k="name" v="Ormetjønn" />
		<tag k="natural" v="water" />
		<tag k="ssr:stedsnr" v="911991" />
	</node>
	<node lat="58.67460676550938" lon="8.58857962480975" id="-26642">
		<tag k="name" v="Nelaug" />
		<tag k="natural" v="water" />
		<tag k="ssr:stedsnr" v="911921" />
		<tag k="water" v="lake" />
	</node>
	<node lat="58.957974997901005" lon="8.131716667932016" id="-26643">
		<tag k="name" v="Dragtjønn" />
		<tag k="natural" v="water" />
		<tag k="ssr:stedsnr" v="911925" />
	</node>
	<node lat="58.76635278037754" lon="8.611730557276038" id="-26645">
		<tag k="name" v="Austre Hegnarkleivtjønn" />
		<tag k="natural" v="water" />
		<tag k="ssr:stedsnr" v="820010" />
	</node>
	<node lat="58.77202777763146" lon="8.610213887165028" id="-26646">
		<tag k="name" v="Brennevinsbekken" />
		<tag k="ssr:stedsnr" v="820011" />
		<tag k="waterway" v="stream" />
	</node>
	<node lat="58.89042777593341" lon="8.591102782904862" id="-26648">
		<tag k="name" v="Stemtjønn" />
		<tag k="natural" v="water" />
		<tag k="ssr:stedsnr" v="820019" />
	</node>
	<node lat="58.67183889007854" lon="8.57506388376939" id="-26653">
		<tag k="name" v="Mosberglandet" />
		<tag k="natural" v="beach" />
		<tag k="ssr:stedsnr" v="820213" />
	</node>
	<node lat="58.67091666393972" lon="8.621469449991922" id="-26656">
		<tag k="name" v="Hovdeneset" />
		<tag k="natural" v="cape" />
		<tag k="ssr:stedsnr" v="820224" />
	</node>
	<node lat="58.69852777368639" lon="8.465788884441492" id="-26658">
		<tag k="name" v="Ringtjønn" />
		<tag k="natural" v="water" />
		<tag k="ssr:stedsnr" v="820408" />
	</node>
	<node lat="58.69092778100003" lon="8.51818889616199" id="-26660">
		<tag k="name" v="Salttjønn" />
		<tag k="natural" v="water" />
		<tag k="ssr:stedsnr" v="820416" />
	</node>
	<node lat="58.623397220262866" lon="8.706966672535309" id="-26680">
		<tag k="name" v="Kilandskilen" />
		<tag k="natural" v="bay" />
		<tag k="ssr:stedsnr" v="821616" />
	</node>
	<node lat="58.92358888848874" lon="8.070388882301222" id="-26690">
		<tag k="name" v="Sundet" />
		<tag k="natural" v="strait" />
		<tag k="ssr:stedsnr" v="839226" />
	</node>
	<node lat="58.78956388913546" lon="8.216636106191581" id="-26692">
		<tag k="name" v="Øyna" />
		<tag k="place" v="island" />
		<tag k="ssr:stedsnr" v="839684" />
	</node>
	<node lat="58.86058055626032" lon="8.172113885091171" id="-26695">
		<tag k="name" v="Urstøylstjønn" />
		<tag k="natural" v="water" />
		<tag k="ssr:stedsnr" v="839939" />
	</node>
	<node lat="58.721094440185546" lon="7.980827778469466" id="-26709">
		<tag k="name" v="Laksodden" />
		<tag k="natural" v="cape" />
		<tag k="ssr:stedsnr" v="840395" />
	</node>
	<node lat="58.79393888958193" lon="8.204144439448779" id="-26713">
		<tag k="name" v="Kvilestadbukta" />
		<tag k="natural" v="bay" />
		<tag k="ssr:stedsnr" v="840677" />
	</node>
	<node lat="58.74498888778128" lon="8.403922224964443" id="-26723">
		<tag k="name" v="Rakketjønn" />
		<tag k="natural" v="water" />
		<tag k="ssr:stedsnr" v="840813" />
	</node>
	<node lat="58.771038890293106" lon="8.417105559658236" id="-26724">
		<tag k="name" v="Nobbesundet" />
		<tag k="natural" v="strait" />
		<tag k="ssr:stedsnr" v="840830" />
	</node>
	<node lat="58.791894441670486" lon="8.03068888850215" id="-26725">
		<tag k="name" v="Djupehøl" />
		<tag k="place" v="locality" />
		<tag k="ssr:stedsnr" v="840576" />
	</node>
	<node lat="58.70423055932266" lon="8.318252779931182" id="-26731">
		<tag k="name" v="Brufoss" />
		<tag k="natural" v="waterfall" />
		<tag k="ssr:stedsnr" v="840703" />
	</node>
	<node lat="58.89014722386998" lon="8.223388885318418" id="-26746">
		<tag k="name" v="Husfjelltjønn" />
		<tag k="natural" v="water" />
		<tag k="ssr:stedsnr" v="841675" />
	</node>
	<node lat="58.92293888831288" lon="8.083258326305364" id="-26747">
		<tag k="name" v="Lislevatn" />
		<tag k="natural" v="water" />
		<tag k="ssr:stedsnr" v="843880" />
	</node>
	<node lat="58.90257499764044" lon="8.206722226654714" id="-26750">
		<tag k="name" v="Øytjønn" />
		<tag k="natural" v="water" />
		<tag k="ssr:stedsnr" v="850038" />
	</node>
	<node lat="58.85249444510903" lon="8.190791674643531" id="-26752">
		<tag k="name" v="Gunnarstøyltjønn" />
		<tag k="natural" v="water" />
		<tag k="ssr:stedsnr" v="850097" />
	</node>
	<node lat="58.857422218066326" lon="8.404527776336638" id="-26754">
		<tag k="name" v="Strutskleivtjønnane" />
		<tag k="natural" v="water" />
		<tag k="ssr:stedsnr" v="850131" />
		<tag k="water" v="lake" />
	</node>
	<node lat="58.77391389086292" lon="8.387550003773434" id="-26757">
		<tag k="name" v="Øyvatn" />
		<tag k="natural" v="water" />
		<tag k="ssr:stedsnr" v="850196" />
	</node>
	<node lat="58.80297778118313" lon="8.501830558321515" id="-26759">
		<tag k="name" v="Neset" />
		<tag k="natural" v="cape" />
		<tag k="ssr:stedsnr" v="850201" />
	</node>
	<node lat="58.78464444437251" lon="8.397311103755035" id="-26760">
		<tag k="name" v="Håkekleivbekken" />
		<tag k="ssr:stedsnr" v="850235" />
		<tag k="waterway" v="stream" />
	</node>
	<node lat="58.782880557015005" lon="8.358794446102593" id="-26761">
		<tag k="alt_name" v="Digerøya" />
		<tag k="name" v="Digerøyna" />
		<tag k="place" v="islet" />
		<tag k="ssr:stedsnr" v="850238" />
	</node>
	<node lat="58.73929136172768" lon="8.337764481759738" id="-26763">
		<tag k="fixme" v="multiple name tags, choose one and add the other to alt_name" />
		<tag k="name" v="Bergstjønni;Våkenspertjønn" />
		<tag k="natural" v="water" />
		<tag k="ssr:stedsnr" v="850404" />
	</node>
	<node lat="58.75403888657525" lon="8.56879444518177" id="-26764">
		<tag k="name" v="Kroktjønn" />
		<tag k="natural" v="water" />
		<tag k="ssr:stedsnr" v="850536" />
	</node>
	<node lat="58.84567222231948" lon="8.49275834120796" id="-26765">
		<tag k="alt_name" v="Maurtjønn" />
		<tag k="name" v="Svartevatn" />
		<tag k="natural" v="water" />
		<tag k="ssr:stedsnr" v="850708" />
	</node>
	<node lat="58.84194444429533" lon="8.68735277729237" id="-26767">
		<tag k="name" v="Orrevassåna" />
		<tag k="ssr:stedsnr" v="850713" />
		<tag k="waterway" v="river" />
	</node>
	<node lat="58.86433726894511" lon="7.999452463096723" id="-26768">
		<tag k="name" v="Bestefarstjønnin" />
		<tag k="natural" v="water" />
		<tag k="ssr:stedsnr" v="850727" />
		<tag k="water" v="lake" />
	</node>
	<node lat="58.86375555637487" lon="8.491027775885678" id="-26773">
		<tag k="name" v="Langefoss" />
		<tag k="natural" v="waterfall" />
		<tag k="ssr:stedsnr" v="850683" />
	</node>
	<node lat="58.94837500129969" lon="8.098024995662634" id="-26774">
		<tag k="name" v="Storbekklibekken" />
		<tag k="ssr:stedsnr" v="850924" />
		<tag k="waterway" v="stream" />
	</node>
	<node lat="58.66405555814046" lon="8.589988890929385" id="-26775">
		<tag k="name" v="Brattøya" />
		<tag k="place" v="islet" />
		<tag k="ssr:stedsnr" v="850931" />
	</node>
	<node lat="58.91547221861243" lon="8.237172220262527" id="-26776">
		<tag k="alt_name" v="Grenenesodden" />
		<tag k="name" v="Grænnesodden" />
		<tag k="natural" v="cape" />
		<tag k="ssr:stedsnr" v="850996" />
	</node>
	<node lat="58.91731944894329" lon="8.16749166614171" id="-26778">
		<tag k="alt_name" v="Stegjetotjønn" />
		<tag k="name" v="Stedjetontjønn" />
		<tag k="natural" v="water" />
		<tag k="ssr:stedsnr" v="850999" />
	</node>
	<node lat="58.81141110785149" lon="8.461369450384476" id="-26779">
		<tag k="name" v="Gangseitjønn" />
		<tag k="natural" v="water" />
		<tag k="ssr:stedsnr" v="851123" />
	</node>
	<node lat="58.84425640796694" lon="8.444787849772217" id="-26783">
		<tag k="alt_name" v="Nerestjønn" />
		<tag k="name" v="Neristjønn" />
		<tag k="natural" v="water" />
		<tag k="ssr:stedsnr" v="851090" />
	</node>
	<node lat="58.72596666711409" lon="8.496972215092432" id="-26784">
		<tag k="name" v="Sigridneskilen" />
		<tag k="natural" v="water" />
		<tag k="ssr:stedsnr" v="851100" />
		<tag k="water" v="lake" />
	</node>
	<node lat="58.78273055665889" lon="8.539516661762752" id="-26788">
		<tag k="name" v="Urtetjønn" />
		<tag k="natural" v="water" />
		<tag k="ssr:stedsnr" v="851605" />
	</node>
	<node lat="58.800332480302096" lon="8.663610141505268" id="-26789">
		<tag k="name" v="Donafjelltjønnane" />
		<tag k="natural" v="water" />
		<tag k="ssr:stedsnr" v="851570" />
		<tag k="water" v="lake" />
	</node>
	<node lat="58.792555554842" lon="8.016449994138776" id="-26793">
		<tag k="name" v="Leivsvassåni" />
		<tag k="ssr:stedsnr" v="851780" />
		<tag k="waterway" v="river" />
	</node>
	<node lat="58.80153889331196" lon="8.078641671308974" id="-26794">
		<tag k="name" v="Øytjønn" />
		<tag k="natural" v="water" />
		<tag k="ssr:stedsnr" v="851792" />
	</node>
	<node lat="58.94854444477966" lon="8.116986105767037" id="-26795">
		<tag k="name" v="Storbekklitjønna" />
		<tag k="natural" v="water" />
		<tag k="ssr:stedsnr" v="851924" />
	</node>
	<node lat="58.944644442942064" lon="8.231077781017023" id="-26798">
		<tag k="name" v="Stemtjønn" />
		<tag k="natural" v="water" />
		<tag k="ssr:stedsnr" v="851968" />
	</node>
	<node lat="58.64523332908207" lon="8.668811114388069" id="-26799">
		<tag k="name" v="Åslandsøya" />
		<tag k="place" v="islet" />
		<tag k="ssr:stedsnr" v="851977" />
	</node>
	<node lat="58.80038055372543" lon="8.145927774812897" id="-26800">
		<tag k="name" v="Rotabekken" />
		<tag k="ssr:stedsnr" v="876151" />
		<tag k="waterway" v="stream" />
	</node>
	<node lat="58.73577500041392" lon="8.606902781846074" id="-26803">
		<tag k="name" v="Bortredalstjønn" />
		<tag k="natural" v="water" />
		<tag k="ssr:stedsnr" v="881117" />
	</node>
	<node lat="58.732569444316596" lon="8.526708327746539" id="-26823">
		<tag k="name" v="Tangen" />
		<tag k="natural" v="cape" />
		<tag k="ssr:stedsnr" v="881648" />
	</node>
	<node lat="58.71269444373659" lon="8.579224999562898" id="-26824">
		<tag k="name" v="Vormedalstjønn" />
		<tag k="natural" v="water" />
		<tag k="ssr:stedsnr" v="881663" />
	</node>
	<node lat="58.7662444406061" lon="8.558186105807389" id="-26827">
		<tag k="name" v="Stigvasselva" />
		<tag k="ssr:stedsnr" v="881354" />
		<tag k="waterway" v="river" />
	</node>
	<node lat="58.718708333850664" lon="8.619699996945231" id="-26830">
		<tag k="name" v="Brufoss" />
		<tag k="natural" v="waterfall" />
		<tag k="ssr:stedsnr" v="881520" />
	</node>
	<node lat="58.722444440911076" lon="8.340263886545086" id="-26837">
		<tag k="name" v="Hegglandsåna" />
		<tag k="ssr:stedsnr" v="882415" />
		<tag k="waterway" v="stream" />
	</node>
	<node lat="58.83248611308181" lon="8.350841669247501" id="-26842">
		<tag k="name" v="Skanten" />
		<tag k="natural" v="cape" />
		<tag k="ssr:stedsnr" v="887710" />
	</node>
	<node lat="58.84849721812365" lon="8.064302778285699" id="-26855">
		<tag k="name" v="Krontjønn-øvre" />
		<tag k="natural" v="water" />
		<tag k="ssr:stedsnr" v="900112" />
	</node>
	<node lat="58.85629444317332" lon="8.022852771859554" id="-26856">
		<tag k="name" v="Den mellomste Svåbasstjønn" />
		<tag k="natural" v="water" />
		<tag k="ssr:stedsnr" v="900121" />
	</node>
	<node lat="58.8077238881724" lon="8.019726092027732" id="-26863">
		<tag k="name" v="Tveitlitjønnane" />
		<tag k="natural" v="water" />
		<tag k="ssr:stedsnr" v="900707" />
		<tag k="water" v="lake" />
	</node>
	<node lat="58.750911110485944" lon="8.25020278431129" id="-26871">
		<tag k="name" v="Gåstjørnkilen" />
		<tag k="natural" v="bay" />
		<tag k="ssr:stedsnr" v="901023" />
	</node>
	<node lat="58.88781666942435" lon="8.171666673300045" id="-26876">
		<tag k="name" v="Ruvetjønn" />
		<tag k="natural" v="water" />
		<tag k="ssr:stedsnr" v="901271" />
	</node>
	<node lat="58.857958337487254" lon="8.266775006610494" id="-26881">
		<tag k="name" v="Åneskardtjønn" />
		<tag k="natural" v="water" />
		<tag k="ssr:stedsnr" v="901369" />
	</node>
	<node lat="58.8909111134968" lon="8.264422228336256" id="-26886">
		<tag k="name" v="Holmane" />
		<tag k="natural" v="cape" />
		<tag k="ssr:stedsnr" v="901720" />
	</node>
	<node lat="58.857422218066326" lon="8.404527776336638" id="-26898">
		<tag k="name" v="Strusskleivtjønn" />
		<tag k="natural" v="water" />
		<tag k="ssr:stedsnr" v="909517" />
	</node>
	<node lat="58.87869444342477" lon="8.276602772066747" id="-26899">
		<tag k="alt_name" v="Prestenestjønn" />
		<tag k="name" v="Prestnestjønn" />
		<tag k="natural" v="water" />
		<tag k="ssr:stedsnr" v="911004" />
	</node>
	<node lat="58.875583333764396" lon="8.280774997099599" id="-26900">
		<tag k="name" v="Mjågeneset" />
		<tag k="natural" v="cape" />
		<tag k="ssr:stedsnr" v="911005" />
	</node>
	<node lat="58.88503333563837" lon="8.300425006924016" id="-26902">
		<tag k="name" v="Linddalsbekken" />
		<tag k="ssr:stedsnr" v="911020" />
		<tag k="waterway" v="stream" />
	</node>
	<node lat="58.89273322687885" lon="8.344454805577888" id="-26906">
		<tag k="name" v="Måvatn" />
		<tag k="natural" v="water" />
		<tag k="ssr:stedsnr" v="911068" />
		<tag k="water" v="lake" />
	</node>
	<node lat="58.77106944548063" lon="8.338805561269554" id="-26909">
		<tag k="alt_name" v="Meøygardstjønna" />
		<tag k="name" v="Medøygardstjønna" />
		<tag k="natural" v="water" />
		<tag k="ssr:stedsnr" v="911201" />
		<tag k="water" v="lake" />
	</node>
	<node lat="58.78017500173645" lon="8.099602775237262" id="-26913">
		<tag k="name" v="Fjelltjønn" />
		<tag k="natural" v="water" />
		<tag k="ssr:stedsnr" v="911255" />
	</node>
	<node lat="58.77592777871585" lon="8.22965277636147" id="-26916">
		<tag k="alt_name" v="Haslefossen" />
		<tag k="name" v="Haslefoss" />
		<tag k="natural" v="waterfall" />
		<tag k="ssr:stedsnr" v="911265" />
	</node>
	<node lat="58.8698388910168" lon="8.471477769371134" id="-26922">
		<tag k="name" v="Tjovtjønn" />
		<tag k="natural" v="water" />
		<tag k="ssr:stedsnr" v="911712" />
	</node>
	<node lat="58.783702777832424" lon="8.06663610628918" id="-26929">
		<tag k="name" v="Sivætbekken" />
		<tag k="ssr:stedsnr" v="911831" />
		<tag k="waterway" v="stream" />
	</node>
	<node lat="58.75846944251674" lon="8.058241669148988" id="-26930">
		<tag k="name" v="Høgtjønn" />
		<tag k="natural" v="water" />
		<tag k="ssr:stedsnr" v="911856" />
	</node>
	<node lat="58.88923055270998" lon="8.048261103911335" id="-26944">
		<tag k="name" v="Ragnhilds tjønner" />
		<tag k="natural" v="water" />
		<tag k="ssr:stedsnr" v="960185" />
	</node>
	<node lat="58.89170000156738" lon="8.018958328654728" id="-26945">
		<tag k="name" v="Bjørkholtøyna" />
		<tag k="place" v="island" />
		<tag k="ssr:stedsnr" v="960186" />
	</node>
	<node lat="58.8966888857853" lon="8.040588885809246" id="-26946">
		<tag k="name" v="Svårtepytt" />
		<tag k="natural" v="water" />
		<tag k="ssr:stedsnr" v="960190" />
	</node>
	<node lat="58.95018611392475" lon="8.22263333984911" id="-26948">
		<tag k="name" v="Lange Kvisetjønn" />
		<tag k="natural" v="water" />
		<tag k="ssr:stedsnr" v="960210" />
	</node>
	<node lat="58.81024166810995" lon="8.165419441532954" id="-26949">
		<tag k="name" v="Hillestadtjønn" />
		<tag k="natural" v="water" />
		<tag k="ssr:stedsnr" v="960288" />
	</node>
	<node lat="58.821400001871545" lon="8.134694445187732" id="-26950">
		<tag k="name" v="Lisle-Bjørøyna" />
		<tag k="place" v="islet" />
		<tag k="ssr:stedsnr" v="960643" />
	</node>
	<node lat="58.79213611523974" lon="8.475511117563672" id="-26952">
		<tag k="name" v="Kalsøya" />
		<tag k="natural" v="cape" />
		<tag k="ssr:stedsnr" v="961115" />
	</node>
	<node lat="58.86993055251317" lon="8.284308327639117" id="-26957">
		<tag k="name" v="Storøyna" />
		<tag k="place" v="islet" />
		<tag k="ssr:stedsnr" v="961091" />
	</node>
	<node lat="58.78354999981363" lon="8.43291944282864" id="-26964">
		<tag k="name" v="Plittretjønn" />
		<tag k="natural" v="water" />
		<tag k="ssr:stedsnr" v="961400" />
	</node>
	<node lat="58.77195555786647" lon="8.258519442792192" id="-26969">
		<tag k="name" v="Gunnleifjellbekken" />
		<tag k="ssr:stedsnr" v="961404" />
		<tag k="waterway" v="stream" />
	</node>
	<node lat="58.73112222350718" lon="7.97544444707458" id="-26970">
		<tag k="name" v="Arevatn" />
		<tag k="natural" v="water" />
		<tag k="ssr:stedsnr" v="961408" />
		<tag k="water" v="lake" />
	</node>
	<node lat="58.81319166781813" lon="8.015708329022864" id="-26983">
		<tag k="name" v="Svartufskrontjønn" />
		<tag k="natural" v="water" />
		<tag k="ssr:stedsnr" v="961749" />
	</node>
	<node lat="58.81197500068233" lon="8.005166672743641" id="-26984">
		<tag k="name" v="Grasdalstjønn" />
		<tag k="natural" v="water" />
		<tag k="ssr:stedsnr" v="961750" />
	</node>
	<node lat="58.89186666409938" lon="8.26911944812679" id="-26995">
		<tag k="name" v="Sagbekken" />
		<tag k="ssr:stedsnr" v="962686" />
		<tag k="waterway" v="stream" />
	</node>
	<node lat="58.98032468282066" lon="8.166494194210147" id="-26998">
		<tag k="name" v="Dei lange tjønnane" />
		<tag k="natural" v="water" />
		<tag k="ssr:stedsnr" v="962901" />
		<tag k="water" v="lake" />
	</node>
	<node lat="58.89939999700272" lon="8.305644438931754" id="-27004">
		<tag k="alt_name" v="Skaretjønn" />
		<tag k="name" v="Skardtjønn" />
		<tag k="natural" v="water" />
		<tag k="ssr:stedsnr" v="41" />
	</node>
	<node lat="58.90120555789076" lon="8.138813884714184" id="-27005">
		<tag k="name" v="Det lange tjønnet" />
		<tag k="natural" v="water" />
		<tag k="ssr:stedsnr" v="47" />
	</node>
	<node lat="58.74353888739999" lon="8.241924998331825" id="-27007">
		<tag k="alt_name" v="Rennådalstjønn" />
		<tag k="name" v="Rennerådalstjønn" />
		<tag k="natural" v="water" />
		<tag k="ssr:stedsnr" v="383" />
	</node>
	<node lat="58.75139167087383" lon="8.530391672582141" id="-27014">
		<tag k="name" v="Homstøyltjønn" />
		<tag k="natural" v="water" />
		<tag k="ssr:stedsnr" v="526" />
	</node>
	<node lat="58.916086108440304" lon="8.064811119295653" id="-27016">
		<tag k="name" v="Rukkevatn" />
		<tag k="natural" v="water" />
		<tag k="ssr:stedsnr" v="686" />
		<tag k="water" v="lake" />
	</node>
	<node lat="58.71995832951143" lon="7.987858335338142" id="-27017">
		<tag k="alt_name" v="Heddevatn" />
		<tag k="name" v="Heddevatnet" />
		<tag k="natural" v="water" />
		<tag k="ssr:stedsnr" v="1600" />
		<tag k="water" v="lake" />
	</node>
	<node lat="58.878475002816636" lon="8.080175007042973" id="-27018">
		<tag k="name" v="Stemtjønn" />
		<tag k="natural" v="water" />
		<tag k="ssr:stedsnr" v="1721" />
	</node>
	<node lat="58.97000000375753" lon="8.152280549873074" id="-27020">
		<tag k="name" v="Hagebekken" />
		<tag k="ssr:stedsnr" v="879" />
		<tag k="waterway" v="stream" />
	</node>
	<node lat="58.735236638524576" lon="8.561656587437732" id="-27022">
		<tag k="name" v="Borvatn" />
		<tag k="natural" v="water" />
		<tag k="ssr:stedsnr" v="1025" />
	</node>
	<node lat="58.871777775248034" lon="8.457194450470551" id="-27024">
		<tag k="name" v="Godtjønn" />
		<tag k="natural" v="water" />
		<tag k="ssr:stedsnr" v="1037" />
	</node>
	<node lat="58.867216670845835" lon="8.369988884616978" id="-27026">
		<tag k="name" v="Krossvatn" />
		<tag k="natural" v="water" />
		<tag k="ssr:stedsnr" v="1125" />
		<tag k="water" v="lake" />
	</node>
	<node lat="58.894488893075135" lon="8.367444436181257" id="-27030">
		<tag k="name" v="Krokvatn" />
		<tag k="natural" v="water" />
		<tag k="ssr:stedsnr" v="1082" />
	</node>
	<node lat="58.73132777909419" lon="8.571322217159116" id="-27033">
		<tag k="name" v="Borvatn" />
		<tag k="natural" v="water" />
		<tag k="ssr:stedsnr" v="1170" />
	</node>
	<node lat="58.815755558224524" lon="8.136863881564597" id="-27034">
		<tag k="name" v="Breidfjordbukta" />
		<tag k="natural" v="bay" />
		<tag k="ssr:stedsnr" v="1176" />
	</node>
	<node lat="58.89802777922125" lon="8.539099993471206" id="-27037">
		<tag k="alt_name" v="Tjørna, l" />
		<tag k="name" v="Lisletjønn" />
		<tag k="natural" v="water" />
		<tag k="ssr:stedsnr" v="1463" />
	</node>
	<node lat="58.83700000286203" lon="8.471277771831618" id="-27041">
		<tag k="name" v="Sandtjønn" />
		<tag k="natural" v="water" />
		<tag k="ssr:stedsnr" v="1656" />
	</node>
	<node lat="58.81518055193242" lon="8.614058333782907" id="-27044">
		<tag k="alt_name" v="Djuptjønn" />
		<tag k="name" v="Djupetjønn" />
		<tag k="natural" v="water" />
		<tag k="ssr:stedsnr" v="1673" />
	</node>
	<node lat="58.652586110957685" lon="8.67803054966405" id="-27048">
		<tag k="alt_name" v="Svartetjønn" />
		<tag k="name" v="Svartetjerna" />
		<tag k="natural" v="water" />
		<tag k="ssr:stedsnr" v="1989" />
	</node>
	<node lat="58.90613333135726" lon="8.50096943844889" id="-27050">
		<tag k="name" v="Maurtjønn" />
		<tag k="natural" v="water" />
		<tag k="ssr:stedsnr" v="31026" />
	</node>
	<node lat="58.89390833584251" lon="8.49961945047069" id="-27051">
		<tag k="name" v="Malvassbekken" />
		<tag k="ssr:stedsnr" v="31033" />
		<tag k="waterway" v="stream" />
	</node>
	<node lat="58.85999166582002" lon="8.572838885764483" id="-27052">
		<tag k="name" v="Lifossen" />
		<tag k="natural" v="waterfall" />
		<tag k="ssr:stedsnr" v="31044" />
	</node>
	<node lat="58.70667499710909" lon="8.599111111136175" id="-27076">
		<tag k="name" v="Straumen" />
		<tag k="ssr:stedsnr" v="31588" />
		<tag k="waterway" v="rapids" />
	</node>
	<node lat="58.701016662237144" lon="8.563563888042237" id="-27077">
		<tag k="name" v="Timbernesevja" />
		<tag k="natural" v="water" />
		<tag k="ssr:stedsnr" v="31592" />
		<tag k="water" v="lake" />
	</node>
	<node lat="58.70330555505882" lon="8.599605563404626" id="-27079">
		<tag k="name" v="Øykilen" />
		<tag k="natural" v="bay" />
		<tag k="ssr:stedsnr" v="31600" />
	</node>
	<node lat="58.82478333713465" lon="8.564555563218528" id="-27085">
		<tag k="name" v="Kariskil" />
		<tag k="natural" v="bay" />
		<tag k="ssr:stedsnr" v="31456" />
	</node>
	<node lat="58.74001111379965" lon="8.491177770195026" id="-27086">
		<tag k="name" v="Trollnestangen" />
		<tag k="natural" v="cape" />
		<tag k="ssr:stedsnr" v="31654" />
	</node>
	<node lat="58.67106666489148" lon="8.71831111534148" id="-27091">
		<tag k="name" v="Spennstetjønn" />
		<tag k="natural" v="water" />
		<tag k="ssr:stedsnr" v="32245" />
	</node>
	<node lat="58.745027780526044" lon="8.506819451283661" id="-27112">
		<tag k="name" v="Rennarkilen" />
		<tag k="natural" v="water" />
		<tag k="ssr:stedsnr" v="32554" />
	</node>
	<node lat="58.67080278049202" lon="8.571983328419275" id="-27115">
		<tag k="name" v="Hasseldalsbukta" />
		<tag k="natural" v="bay" />
		<tag k="ssr:stedsnr" v="32633" />
	</node>
	<node lat="58.67436389061732" lon="8.597024998791492" id="-27116">
		<tag k="name" v="Prestholmane" />
		<tag k="place" v="islet" />
		<tag k="ssr:stedsnr" v="32635" />
	</node>
	<node lat="58.93783888794471" lon="8.276861110748213" id="-27125">
		<tag k="name" v="Gamatjønn" />
		<tag k="natural" v="water" />
		<tag k="ssr:stedsnr" v="45350" />
	</node>
	<node lat="58.876522224611115" lon="8.01048611163796" id="-27129">
		<tag k="name" v="Skjevlevatsbekken" />
		<tag k="ssr:stedsnr" v="49062" />
		<tag k="waterway" v="stream" />
	</node>
	<node lat="58.890383329718816" lon="8.017100007744336" id="-27131">
		<tag k="name" v="Bjørkholthylen" />
		<tag k="place" v="locality" />
		<tag k="ssr:stedsnr" v="49228" />
	</node>
	<node lat="58.899355553324156" lon="8.008988882225172" id="-27135">
		<tag k="name" v="Stuvestøylfossen" />
		<tag k="natural" v="waterfall" />
		<tag k="ssr:stedsnr" v="49248" />
	</node>
	<node lat="58.90059166219341" lon="8.01062221374483" id="-27136">
		<tag k="name" v="Hestskoøyna" />
		<tag k="place" v="islet" />
		<tag k="ssr:stedsnr" v="49250" />
	</node>
	<node lat="58.84735555344002" lon="8.053780557670999" id="-27141">
		<tag k="name" v="Timstjønn" />
		<tag k="natural" v="water" />
		<tag k="ssr:stedsnr" v="50100" />
	</node>
	<node lat="58.754033336520536" lon="8.22506944693196" id="-27145">
		<tag k="name" v="Fiskårdalsbekken" />
		<tag k="ssr:stedsnr" v="51027" />
		<tag k="waterway" v="stream" />
	</node>
	<node lat="58.756813888314625" lon="8.305274998043217" id="-27152">
		<tag k="name" v="Skulefoss" />
		<tag k="natural" v="waterfall" />
		<tag k="ssr:stedsnr" v="50634" />
	</node>
	<node lat="58.85817499929599" lon="8.182613895412485" id="-27153">
		<tag k="name" v="Øytjønn" />
		<tag k="natural" v="water" />
		<tag k="ssr:stedsnr" v="51000" />
	</node>
	<node lat="58.79295000027305" lon="8.468386115378843" id="-27155">
		<tag k="name" v="Øygardshølen" />
		<tag k="place" v="locality" />
		<tag k="ssr:stedsnr" v="51095" />
	</node>
	<node lat="58.73992777945153" lon="8.223341674911781" id="-27158">
		<tag k="name" v="Nystøyløyna" />
		<tag k="natural" v="cape" />
		<tag k="ssr:stedsnr" v="51366" />
	</node>
	<node lat="58.864305557772745" lon="8.369436110512407" id="-27161">
		<tag k="name" v="Krossvassosen" />
		<tag k="natural" v="bay" />
		<tag k="ssr:stedsnr" v="51438" />
	</node>
	<node lat="58.871936113155485" lon="8.416027783666022" id="-27163">
		<tag k="name" v="Svarttjønn" />
		<tag k="natural" v="water" />
		<tag k="ssr:stedsnr" v="51444" />
	</node>
	<node lat="58.84274722533215" lon="8.448030553803969" id="-27166">
		<tag k="name" v="Svarttjønn" />
		<tag k="natural" v="water" />
		<tag k="ssr:stedsnr" v="51695" />
	</node>
	<node lat="58.8541138899333" lon="8.330824993898773" id="-27168">
		<tag k="name" v="Rjometjønn" />
		<tag k="natural" v="water" />
		<tag k="ssr:stedsnr" v="51717" />
	</node>
	<node lat="58.77110833624931" lon="8.056052770353867" id="-27170">
		<tag k="name" v="Heddekilen" />
		<tag k="natural" v="bay" />
		<tag k="ssr:stedsnr" v="51995" />
	</node>
	<node lat="58.81757222407907" lon="8.06507499190627" id="-27179">
		<tag k="name" v="Listøylbekken" />
		<tag k="ssr:stedsnr" v="51742" />
		<tag k="waterway" v="stream" />
	</node>
	<node lat="58.70845415720799" lon="8.056710106898755" id="-27181">
		<tag k="name" v="Storlitjønn" />
		<tag k="natural" v="water" />
		<tag k="ssr:stedsnr" v="51759" />
	</node>
	<node lat="58.78742777539902" lon="8.14376111560758" id="-27198">
		<tag k="name" v="Mågestøyltjønn, øvre" />
		<tag k="natural" v="water" />
		<tag k="ssr:stedsnr" v="60936" />
	</node>
	<node lat="58.7995267334209" lon="8.450886131929895" id="-27204">
		<tag k="name" v="Ljostjønn" />
		<tag k="natural" v="water" />
		<tag k="ssr:stedsnr" v="61139" />
	</node>
	<node lat="58.79170000002298" lon="8.222975002112616" id="-27205">
		<tag k="alt_name" v="Ramsetjønn, øvre" />
		<tag k="name" v="Øvre-Ramsetjønn" />
		<tag k="natural" v="water" />
		<tag k="ssr:stedsnr" v="61140" />
	</node>
	<node lat="58.6683861131473" lon="8.452005562072568" id="-27206">
		<tag k="name" v="Sauedalsbekken" />
		<tag k="ssr:stedsnr" v="61270" />
		<tag k="waterway" v="stream" />
	</node>
	<node lat="58.93796666443535" lon="8.039236118245896" id="-27209">
		<tag k="name" v="Badstogtjønn" />
		<tag k="natural" v="water" />
		<tag k="ssr:stedsnr" v="61641" />
	</node>
	<node lat="58.822513892992866" lon="8.619222218412116" id="-27211">
		<tag k="alt_name" v="Eikelivatn;Eiklivatn, store" />
		<tag k="name" v="Store Eiklivatn" />
		<tag k="natural" v="water" />
		<tag k="ssr:stedsnr" v="61658" />
	</node>
	<node lat="58.8549166646547" lon="8.609388886751534" id="-27213">
		<tag k="alt_name" v="Ormetjønn" />
		<tag k="name" v="Ormtjønn" />
		<tag k="natural" v="water" />
		<tag k="ssr:stedsnr" v="61744" />
	</node>
	<node lat="58.68748055588465" lon="8.34614721594518" id="-27215">
		<tag k="alt_name" v="Ljosevatnet" />
		<tag k="name" v="Ljosevatn" />
		<tag k="natural" v="water" />
		<tag k="ssr:stedsnr" v="61440" />
		<tag k="water" v="lake" />
	</node>
	<node lat="58.7256249996482" lon="8.405672224668242" id="-27216">
		<tag k="name" v="Tvilandsåna" />
		<tag k="ssr:stedsnr" v="61462" />
		<tag k="waterway" v="river" />
	</node>
	<node lat="58.82631944076677" lon="8.703563886659317" id="-27217">
		<tag k="name" v="Moriptjønna" />
		<tag k="natural" v="water" />
		<tag k="ssr:stedsnr" v="61670" />
	</node>
	<node lat="58.728899999557825" lon="8.512544438448375" id="-27219">
		<tag k="name" v="Bjørnesund" />
		<tag k="natural" v="strait" />
		<tag k="ssr:stedsnr" v="62094" />
	</node>
	<node lat="58.824091663920264" lon="8.386375005148967" id="-27223">
		<tag k="name" v="Homdrombekken" />
		<tag k="ssr:stedsnr" v="62157" />
		<tag k="waterway" v="stream" />
	</node>
	<node lat="58.794666668384835" lon="8.505166662609048" id="-27226">
		<tag k="name" v="Motjønnbekken" />
		<tag k="ssr:stedsnr" v="62565" />
		<tag k="waterway" v="stream" />
	</node>
	<node lat="58.78081944624507" lon="8.082477779041783" id="-27228">
		<tag k="name" v="Den runde Sivættjønn" />
		<tag k="natural" v="water" />
		<tag k="ssr:stedsnr" v="62839" />
	</node>
	<node lat="58.904358332154324" lon="8.53558610586919" id="-27234">
		<tag k="name" v="Kvassånneset" />
		<tag k="natural" v="cape" />
		<tag k="ssr:stedsnr" v="92041" />
	</node>
	<node lat="58.78344721842512" lon="8.632808338630383" id="-27236">
		<tag k="name" v="Væråstjønn" />
		<tag k="natural" v="water" />
		<tag k="ssr:stedsnr" v="92087" />
	</node>
	<node lat="58.76768610903306" lon="8.519830547369413" id="-27237">
		<tag k="name" v="Mørkebekk" />
		<tag k="ssr:stedsnr" v="92739" />
		<tag k="waterway" v="stream" />
	</node>
	<node lat="58.84960000218767" lon="8.56973055059285" id="-27242">
		<tag k="name" v="Raudånfossen" />
		<tag k="natural" v="waterfall" />
		<tag k="ssr:stedsnr" v="92052" />
	</node>
	<node lat="58.833061108793615" lon="8.703822226133688" id="-27245">
		<tag k="name" v="Steinstjønnbekken" />
		<tag k="ssr:stedsnr" v="92060" />
		<tag k="waterway" v="stream" />
	</node>
	<node lat="58.86808888723768" lon="8.635369435953935" id="-27248">
		<tag k="name" v="Sprangstjønn" />
		<tag k="natural" v="water" />
		<tag k="ssr:stedsnr" v="92159" />
	</node>
	<node lat="58.72951388727358" lon="8.394255556226403" id="-27264">
		<tag k="name" v="Heståna" />
		<tag k="ssr:stedsnr" v="92352" />
		<tag k="waterway" v="stream" />
	</node>
	<node lat="58.70310833054975" lon="8.544672226870151" id="-27267">
		<tag k="name" v="Lonene" />
		<tag k="ssr:stedsnr" v="92422" />
		<tag k="waterway" v="stream" />
	</node>
	<node lat="58.83633610925848" lon="8.587897230675768" id="-27272">
		<tag k="name" v="Jordsmyrtjønn" />
		<tag k="natural" v="water" />
		<tag k="ssr:stedsnr" v="92451" />
	</node>
	<node lat="58.61440277580559" lon="8.70466943702448" id="-27277">
		<tag k="name" v="Brenteberget" />
		<tag k="place" v="islet" />
		<tag k="ssr:stedsnr" v="92628" />
	</node>
	<node lat="58.83449444148109" lon="8.341730563330504" id="-27294">
		<tag k="name" v="Skraddarhylen" />
		<tag k="place" v="locality" />
		<tag k="ssr:stedsnr" v="99756" />
	</node>
	<node lat="58.778969445854955" lon="8.21470278063394" id="-27305">
		<tag k="name" v="Bjønnlibekken" />
		<tag k="ssr:stedsnr" v="110649" />
		<tag k="waterway" v="stream" />
	</node>
	<node lat="58.78997222481317" lon="8.206344440221166" id="-27306">
		<tag k="name" v="Neset" />
		<tag k="natural" v="cape" />
		<tag k="ssr:stedsnr" v="110700" />
	</node>
	<node lat="58.90789999906486" lon="8.06824166086934" id="-27307">
		<tag k="name" v="Sundet" />
		<tag k="natural" v="strait" />
		<tag k="ssr:stedsnr" v="111208" />
	</node>
	<node lat="58.80392222369239" lon="8.097433337700664" id="-27317">
		<tag k="name" v="Liberstjønn" />
		<tag k="natural" v="water" />
		<tag k="ssr:stedsnr" v="111662" />
	</node>
	<node lat="58.80096389186819" lon="8.061752776824235" id="-27318">
		<tag k="name" v="Tverrbekken" />
		<tag k="ssr:stedsnr" v="111663" />
		<tag k="waterway" v="stream" />
	</node>
	<node lat="58.757099999114246" lon="8.028266660470006" id="-27322">
		<tag k="name" v="Ravnefjelltjønn" />
		<tag k="natural" v="water" />
		<tag k="ssr:stedsnr" v="112988" />
	</node>
	<node lat="58.87762499796854" lon="8.347533341512593" id="-27325">
		<tag k="name" v="Fugletjønn" />
		<tag k="natural" v="water" />
		<tag k="ssr:stedsnr" v="112157" />
	</node>
	<node lat="58.75796944127665" lon="8.06808333864706" id="-27326">
		<tag k="name" v="Høgtjønnbekken" />
		<tag k="ssr:stedsnr" v="111959" />
		<tag k="waterway" v="stream" />
	</node>
	<node lat="58.75440555565042" lon="8.252175000890675" id="-27327">
		<tag k="name" v="Vestå" />
		<tag k="ssr:stedsnr" v="112036" />
		<tag k="waterway" v="stream" />
	</node>
	<node lat="58.76313055772453" lon="8.250325003431463" id="-27335">
		<tag k="name" v="Fiskårdalsbekken" />
		<tag k="ssr:stedsnr" v="112421" />
		<tag k="waterway" v="stream" />
	</node>
	<node lat="58.78819721950418" lon="8.409805550041922" id="-27362">
		<tag k="name" v="Urdvatn" />
		<tag k="natural" v="water" />
		<tag k="ssr:stedsnr" v="121233" />
	</node>
	<node lat="58.85766110709864" lon="8.478424993552913" id="-27363">
		<tag k="name" v="Bjørnvassbekken" />
		<tag k="ssr:stedsnr" v="122737" />
		<tag k="waterway" v="stream" />
	</node>
	<node lat="58.80465833553608" lon="8.255577784645078" id="-27367">
		<tag k="alt_name" v="Nevretjønn" />
		<tag k="name" v="Heimste Nævertjønn" />
		<tag k="natural" v="water" />
		<tag k="ssr:stedsnr" v="122133" />
	</node>
	<node lat="58.793480558033764" lon="8.145480556995365" id="-27368">
		<tag k="alt_name" v="Mågestøyltjønn, nedre" />
		<tag k="name" v="Nedre Mågestøyltjønn" />
		<tag k="natural" v="water" />
		<tag k="ssr:stedsnr" v="122135" />
	</node>
	<node lat="58.82083888451129" lon="8.161716666631417" id="-27369">
		<tag k="alt_name" v="Tverråbekken" />
		<tag k="name" v="Tvørråbekken" />
		<tag k="ssr:stedsnr" v="122144" />
		<tag k="waterway" v="stream" />
	</node>
	<node lat="58.8267805563695" lon="8.40681666719743" id="-27371">
		<tag k="name" v="Teinebekken" />
		<tag k="ssr:stedsnr" v="122149" />
		<tag k="waterway" v="stream" />
	</node>
	<node lat="58.81839999779141" lon="8.20931667054192" id="-27372">
		<tag k="name" v="Lindetjønn" />
		<tag k="natural" v="water" />
		<tag k="ssr:stedsnr" v="122155" />
	</node>
	<node lat="58.74021110728864" lon="8.10270555946895" id="-27378">
		<tag k="name" v="Igletjønn" />
		<tag k="natural" v="water" />
		<tag k="ssr:stedsnr" v="122381" />
	</node>
	<node lat="58.73786944363526" lon="8.270475001170146" id="-27379">
		<tag k="alt_name" v="Varpfoss" />
		<tag k="name" v="Varpsfoss" />
		<tag k="natural" v="waterfall" />
		<tag k="ssr:stedsnr" v="122383" />
	</node>
	<node lat="58.795694447221614" lon="8.593994447284317" id="-27381">
		<tag k="name" v="Sandvatn" />
		<tag k="natural" v="water" />
		<tag k="ssr:stedsnr" v="122551" />
		<tag k="water" v="lake" />
	</node>
	<node lat="58.79086388892871" lon="8.073286105332599" id="-27386">
		<tag k="name" v="Steggedalsbekken" />
		<tag k="ssr:stedsnr" v="122828" />
		<tag k="waterway" v="stream" />
	</node>
	<node lat="58.921241667048896" lon="8.047808336111864" id="-27388">
		<tag k="name" v="Surteviki" />
		<tag k="natural" v="bay" />
		<tag k="ssr:stedsnr" v="122669" />
	</node>
	<node lat="58.86551388518608" lon="8.478902773815943" id="-27389">
		<tag k="name" v="Kjestjønn" />
		<tag k="natural" v="water" />
		<tag k="ssr:stedsnr" v="122689" />
	</node>
	<node lat="58.844676076061596" lon="8.035966771428049" id="-27391">
		<tag k="name" v="Elgetjønn" />
		<tag k="natural" v="water" />
		<tag k="ssr:stedsnr" v="122777" />
	</node>
	<node lat="58.855305552931725" lon="8.638541668518876" id="-27392">
		<tag k="alt_name" v="Lauvlitjønn" />
		<tag k="name" v="Lauvlitjønna" />
		<tag k="natural" v="water" />
		<tag k="ssr:stedsnr" v="122744" />
	</node>
	<node lat="58.646077782024534" lon="8.713894441578818" id="-27393">
		<tag k="alt_name" v="Ospelundstjønn" />
		<tag k="name" v="Ospelundstjern" />
		<tag k="natural" v="water" />
		<tag k="ssr:stedsnr" v="122980" />
	</node>
	<node lat="58.731027432033684" lon="8.051146348244043" id="-27398">
		<tag k="name" v="Dypledaltjønni" />
		<tag k="natural" v="water" />
		<tag k="ssr:stedsnr" v="122906" />
	</node>
	<node lat="58.680280555103685" lon="8.588316666058295" id="-27399">
		<tag k="alt_name" v="Gurmøyene" />
		<tag k="name" v="Gurmøyane" />
		<tag k="place" v="islet" />
		<tag k="ssr:stedsnr" v="122913" />
	</node>
	<node lat="58.65822499840637" lon="8.712641673785361" id="-27404">
		<tag k="alt_name" v="Stemtjern" />
		<tag k="name" v="Stemtjønn" />
		<tag k="natural" v="water" />
		<tag k="ssr:stedsnr" v="122941" />
	</node>
	<node lat="58.92799721916403" lon="8.097327783939983" id="-27409">
		<tag k="fixme" v="multiple name tags, choose one and add the other to alt_name" />
		<tag k="name" v="Persbekktjønn;Perstjønna" />
		<tag k="natural" v="water" />
		<tag k="ssr:stedsnr" v="122957" />
	</node>
	<node lat="58.87119444024689" lon="8.583869451032557" id="-27420">
		<tag k="name" v="Evja" />
		<tag k="natural" v="water" />
		<tag k="ssr:stedsnr" v="152168" />
		<tag k="water" v="lake" />
	</node>
	<node lat="58.7596972224937" lon="8.582202770687198" id="-27440">
		<tag k="name" v="Øvre Fleketjønn" />
		<tag k="natural" v="water" />
		<tag k="ssr:stedsnr" v="152397" />
	</node>
	<node lat="58.67833611465678" lon="8.430519441415685" id="-27447">
		<tag k="name" v="Blautetjønn" />
		<tag k="natural" v="water" />
		<tag k="ssr:stedsnr" v="153241" />
	</node>
	<node lat="58.654075003571975" lon="8.40869999602828" id="-27448">
		<tag k="name" v="Kråketjønn" />
		<tag k="natural" v="water" />
		<tag k="ssr:stedsnr" v="153350" />
	</node>
	<node lat="58.656130554272366" lon="8.389183329259206" id="-27449">
		<tag k="name" v="Flatelandsfjorden" />
		<tag k="natural" v="water" />
		<tag k="ssr:stedsnr" v="153352" />
		<tag k="water" v="lake" />
	</node>
	<node lat="58.669566665250926" lon="8.740013891196144" id="-27453">
		<tag k="name" v="Kyrauga" />
		<tag k="natural" v="water" />
		<tag k="ssr:stedsnr" v="153272" />
		<tag k="water" v="pond" />
	</node>
	<node lat="58.658691670588944" lon="8.401119439162533" id="-27459">
		<tag k="name" v="Grytestebekken" />
		<tag k="ssr:stedsnr" v="153344" />
		<tag k="waterway" v="stream" />
	</node>
	<node lat="58.64873611097985" lon="8.690563886578621" id="-27461">
		<tag k="name" v="Lille Åslandstjønn" />
		<tag k="natural" v="water" />
		<tag k="ssr:stedsnr" v="153533" />
	</node>
	<node lat="58.71239166568184" lon="8.613127775045658" id="-27468">
		<tag k="name" v="Tovsnesevja" />
		<tag k="place" v="locality" />
		<tag k="ssr:stedsnr" v="153536" />
	</node>
	<node lat="58.637788892098" lon="8.676577774410575" id="-27469">
		<tag k="name" v="Gunvaldøya" />
		<tag k="place" v="island" />
		<tag k="ssr:stedsnr" v="153631" />
	</node>
	<node lat="58.61719722281839" lon="8.709130552723538" id="-27470">
		<tag k="name" v="Sørenskil" />
		<tag k="natural" v="bay" />
		<tag k="ssr:stedsnr" v="155341" />
	</node>
	<node lat="58.76618333411109" lon="8.377524996311768" id="-27473">
		<tag k="name" v="Eiktjønn" />
		<tag k="natural" v="water" />
		<tag k="ssr:stedsnr" v="159189" />
	</node>
	<node lat="58.80753333599478" lon="8.474719442878996" id="-27478">
		<tag k="name" v="Plasstjønn" />
		<tag k="natural" v="water" />
		<tag k="ssr:stedsnr" v="160343" />
	</node>
	<node lat="58.82077499961684" lon="8.461786102483597" id="-27481">
		<tag k="name" v="Pissartjønn" />
		<tag k="natural" v="water" />
		<tag k="ssr:stedsnr" v="160954" />
	</node>
	<node lat="58.64699166948925" lon="8.740986107714486" id="-27482">
		<tag k="name" v="Futjønn" />
		<tag k="natural" v="water" />
		<tag k="ssr:stedsnr" v="165965" />
	</node>
	<node lat="58.65800277655882" lon="8.718733331570453" id="-27484">
		<tag k="name" v="Dyråstjønn" />
		<tag k="natural" v="water" />
		<tag k="ssr:stedsnr" v="165972" />
	</node>
	<node lat="58.859250003757076" lon="8.074444437330198" id="-27488">
		<tag k="name" v="Fossfetfossen" />
		<tag k="natural" v="waterfall" />
		<tag k="ssr:stedsnr" v="171101" />
	</node>
	<node lat="58.91207500354302" lon="8.075594440852857" id="-27493">
		<tag k="name" v="Smalsund" />
		<tag k="natural" v="strait" />
		<tag k="ssr:stedsnr" v="171196" />
	</node>
	<node lat="58.80071944861463" lon="8.182502771172375" id="-27494">
		<tag k="name" v="Fosslaugfoss" />
		<tag k="natural" v="waterfall" />
		<tag k="ssr:stedsnr" v="171238" />
	</node>
	<node lat="58.82605555875153" lon="8.111444440019609" id="-27499">
		<tag k="name" v="Klomrodden" />
		<tag k="natural" v="cape" />
		<tag k="ssr:stedsnr" v="171685" />
	</node>
	<node lat="58.74738611051696" lon="8.243825002976147" id="-27506">
		<tag k="name" v="Fjalsåpytten" />
		<tag k="natural" v="water" />
		<tag k="ssr:stedsnr" v="172331" />
	</node>
	<node lat="58.70823332954399" lon="8.302319437996374" id="-27509">
		<tag k="name" v="Gjennhyl" />
		<tag k="place" v="locality" />
		<tag k="ssr:stedsnr" v="172591" />
	</node>
	<node lat="58.847375002722444" lon="8.3360138972783" id="-27516">
		<tag k="alt_name" v="Kjynnestveitåna" />
		<tag k="fixme" v="multiple name tags, choose one and add the other to alt_name" />
		<tag k="name" v="Lisleåna;Kynnestveitåna" />
		<tag k="ssr:stedsnr" v="172717" />
		<tag k="waterway" v="river" />
	</node>
	<node lat="58.859588885221584" lon="8.481711112104101" id="-27526">
		<tag k="name" v="Fosterholk" />
		<tag k="place" v="locality" />
		<tag k="ssr:stedsnr" v="172685" />
	</node>
	<node lat="58.854883334450236" lon="8.46908332901161" id="-27527">
		<tag k="name" v="Bjønnvassfoten" />
		<tag k="natural" v="bay" />
		<tag k="ssr:stedsnr" v="172689" />
	</node>
	<node lat="58.796905556633654" lon="8.152066674651396" id="-27528">
		<tag k="name" v="Måkestøylbekken" />
		<tag k="ssr:stedsnr" v="172781" />
		<tag k="waterway" v="stream" />
	</node>
	<node lat="58.8629027818874" lon="8.256447214911834" id="-27541">
		<tag k="name" v="Åneskartjønn" />
		<tag k="natural" v="water" />
		<tag k="ssr:stedsnr" v="173041" />
	</node>
	<node lat="58.91205555809655" lon="8.287966659981402" id="-27546">
		<tag k="name" v="Nybutjønn" />
		<tag k="natural" v="water" />
		<tag k="ssr:stedsnr" v="173253" />
	</node>
	<node lat="58.788858330559954" lon="8.274797223507488" id="-27558">
		<tag k="name" v="Litjønn" />
		<tag k="natural" v="water" />
		<tag k="ssr:stedsnr" v="182219" />
	</node>
	<node lat="58.783338887805876" lon="8.44438888370247" id="-27559">
		<tag k="name" v="Trytetjønn" />
		<tag k="natural" v="water" />
		<tag k="ssr:stedsnr" v="182228" />
	</node>
	<node lat="58.85383889155502" lon="8.206755548261507" id="-27562">
		<tag k="alt_name" v="Krokvatn" />
		<tag k="name" v="Krokevatn" />
		<tag k="natural" v="water" />
		<tag k="ssr:stedsnr" v="182091" />
	</node>
</osm>
