<?xml version="1.0" encoding="UTF-8"?>
<osm generator="osmapis" version="0.6">
	<node id="-534524" lat="58.7246805564" lon="8.29490834151">
		<tag k="bridge" v="yes" />
		<tag k="layer" v="1" />
		<tag k="name" v="Bjortjønn" />
		<tag k="ssr:stedsnr" v="350118" />
	</node>
	<node id="-532471" lat="58.7081055546" lon="8.6027805633">
		<tag k="name" v="Simonstad" />
		<tag k="railway" v="station" />
		<tag k="ssr:stedsnr" v="729091" />
		<tag k="train" v="yes" />
	</node>
	<node id="-532968" lat="58.6968888874" lon="8.36743333698">
		<tag k="name" v="Hårnålsvingen" />
		<tag k="place" v="locality" />
		<tag k="ssr:stedsnr" v="760418" />
	</node>
	<node id="-532967" lat="58.6769805561" lon="8.39857222005">
		<tag k="highway" v="path" />
		<tag k="name" v="Beråsveien" />
		<tag k="ssr:stedsnr" v="760256" />
	</node>
	<node id="-530903" lat="58.7638972183" lon="8.25431389671">
		<tag k="fixme" v="consider highway=path" />
		<tag k="highway" v="track" />
		<tag k="name" v="Gamleveg" />
		<tag k="ssr:stedsnr" v="51452" />
	</node>
	<node id="-532557" lat="58.7143111086" lon="8.35307222699">
		<tag k="bridge" v="yes" />
		<tag k="layer" v="1" />
		<tag k="name" v="Kålfet" />
		<tag k="ssr:stedsnr" v="653136" />
	</node>
	<node id="-532556" lat="58.8811166697" lon="8.58384165988">
		<tag k="bridge" v="yes" />
		<tag k="layer" v="1" />
		<tag k="name" v="Karlså" />
		<tag k="ssr:stedsnr" v="653134" />
	</node>
	<node id="-532418" lat="58.8683555588" lon="8.31807778129">
		<tag k="man_made" v="cairn" />
		<tag k="name" v="Varderøysa" />
		<tag k="place" v="locality" />
		<tag k="ssr:stedsnr" v="719066" />
	</node>
	<node id="-532555" lat="58.8113916679" lon="8.15144166263">
		<tag k="bridge" v="yes" />
		<tag k="layer" v="1" />
		<tag k="name" v="Tverrå" />
		<tag k="ssr:stedsnr" v="653122" />
	</node>
	<node id="-534464" lat="58.7527194475" lon="8.59364722977">
		<tag k="highway" v="path" />
		<tag k="name" v="Fjellmannsvegen" />
		<tag k="ssr:stedsnr" v="335475" />
	</node>
	<node id="-532998" lat="58.6865194489" lon="8.64490278399">
		<tag k="bridge" v="yes" />
		<tag k="layer" v="1" />
		<tag k="name" v="Vestermyr" />
		<tag k="ssr:stedsnr" v="775122" />
	</node>
	<node id="-530878" lat="58.8302833353" lon="8.40887778127">
		<tag k="ford" v="yes" />
		<tag k="name" v="Stedjevadet" />
		<tag k="place" v="locality" />
		<tag k="ssr:stedsnr" v="234540" />
	</node>
	<node id="-530873" lat="58.9209194464" lon="8.22162777888">
		<tag k="highway" v="path" />
		<tag k="name" v="Stigen" />
		<tag k="ssr:stedsnr" v="234277" />
	</node>
	<node id="-534449" lat="58.7505555573" lon="8.61812500115">
		<tag k="highway" v="path" />
		<tag k="name" v="Den gamle Fiskevassvegen" />
		<tag k="ssr:stedsnr" v="335100" />
	</node>
	<node id="-530864" lat="58.9596777784" lon="8.16482221732">
		<tag k="highway" v="path" />
		<tag k="name" v="Fjellmannsveien" />
		<tag k="ssr:stedsnr" v="233971" />
	</node>
	<node id="-530863" lat="58.9541638895" lon="8.16402222831">
		<tag k="name" v="Gjevdekleivane" />
		<tag k="place" v="locality" />
		<tag k="ssr:stedsnr" v="233970" />
	</node>
	<node id="-534446" lat="58.7955416681" lon="8.65744166266">
		<tag k="highway" v="path" />
		<tag k="name" v="Døkleiv" />
		<tag k="ssr:stedsnr" v="335090" />
	</node>
	<node id="-531368" lat="58.9089861079" lon="8.56791389006">
		<tag k="highway" v="path" />
		<tag k="name" v="Steinveien" />
		<tag k="ssr:stedsnr" v="456002" />
	</node>
	<node id="-534942" lat="58.7901249988" lon="8.14618055931">
		<tag k="highway" v="path" />
		<tag k="name" v="Hestekleiv-vegen" />
		<tag k="ssr:stedsnr" v="415724" />
	</node>
	<node id="-532375" lat="58.7939805543" lon="8.02186388481">
		<tag k="ford" v="yes" />
		<tag k="name" v="Sagvaet" />
		<tag k="place" v="locality" />
		<tag k="ssr:stedsnr" v="718580" />
	</node>
	<node id="-530832" lat="58.7938694484" lon="8.03393889695">
		<tag k="ford" v="yes" />
		<tag k="name" v="Kvennhus-vaet" />
		<tag k="place" v="locality" />
		<tag k="ssr:stedsnr" v="233620" />
	</node>
	<node id="-532864" lat="58.7570861101" lon="8.24820832507">
		<tag k="bridge" v="yes" />
		<tag k="layer" v="1" />
		<tag k="name" v="Ramse bru" />
		<tag k="ssr:stedsnr" v="901424" />
	</node>
	<node id="-533886" lat="58.7929249958" lon="8.03277222801">
		<tag k="ford" v="yes" />
		<tag k="name" v="Årun-vaet" />
		<tag k="place" v="locality" />
		<tag k="ssr:stedsnr" v="112588" />
	</node>
	<node id="-532344" lat="58.7847444453" lon="8.19196944491">
		<tag k="highway" v="path" />
		<tag k="name" v="Hestemyrvegen" />
		<tag k="ssr:stedsnr" v="717635" />
	</node>
	<node id="-532845" lat="58.8392472201" lon="8.10049722896">
		<tag k="bridge" v="yes" />
		<tag k="layer" v="1" />
		<tag k="name" v="Storebru" />
		<tag k="ssr:stedsnr" v="900918" />
	</node>
	<node id="-531306" lat="58.9515527799" lon="8.16393610847">
		<tag k="alt_name" v="Lille Smeland" />
		<tag k="bridge" v="yes" />
		<tag k="layer" v="1" />
		<tag k="name" v="Smeland bru" />
		<tag k="ssr:stedsnr" v="229155" />
	</node>
	<node id="-532839" lat="58.7473777821" lon="8.0581972145">
		<tag k="highway" v="path" />
		<tag k="name" v="Bjønnestigen" />
		<tag k="ssr:stedsnr" v="900857" />
	</node>
	<node id="-531302" lat="58.7269055555" lon="8.59864166775">
		<tag k="highway" v="path" />
		<tag k="name" v="Kloppekleiva" />
		<tag k="ssr:stedsnr" v="214711" />
	</node>
	<node id="-532836" lat="58.7355444415" lon="8.37587778409">
		<tag k="highway" v="path" />
		<tag k="name" v="Solkleivane" />
		<tag k="ssr:stedsnr" v="900397" />
	</node>
	<node id="-532321" lat="58.7929527814" lon="8.22737499568">
		<tag k="bridge" v="yes" />
		<tag k="layer" v="1" />
		<tag k="name" v="Ramse øvre" />
		<tag k="ssr:stedsnr" v="714115" />
	</node>
	<node id="-532320" lat="58.67856944" lon="8.37237776984">
		<tag k="bridge" v="yes" />
		<tag k="layer" v="1" />
		<tag k="name" v="Mo" />
		<tag k="ssr:stedsnr" v="714113" />
	</node>
	<node id="-532319" lat="58.9592499982" lon="8.17481111429">
		<tag k="bridge" v="yes" />
		<tag k="layer" v="1" />
		<tag k="name" v="Gjevde" />
		<tag k="ssr:stedsnr" v="714106" />
	</node>
	<node id="-533854" lat="58.9007361068" lon="8.00801944447">
		<tag k="highway" v="path" />
		<tag k="name" v="Stuvestøylstigen" />
		<tag k="ssr:stedsnr" v="110183" />
	</node>
	<node id="-531293" lat="58.6793527795" lon="8.3970499995">
		<tag k="highway" v="path" />
		<tag k="name" v="Stykkeveien" />
		<tag k="ssr:stedsnr" v="214227" />
	</node>
	<node id="-534354" lat="58.7111916644" lon="8.48231943766">
		<tag k="highway" v="path" />
		<tag k="name" v="Høykleivane" />
		<tag k="ssr:stedsnr" v="214400" />
	</node>
	<node id="-534864" lat="58.838699997" lon="8.56401944294">
		<tag k="bridge" v="yes" />
		<tag k="layer" v="1" />
		<tag k="name" v="Sandå" />
		<tag k="ssr:stedsnr" v="411147" />
	</node>
	<node id="-534863" lat="58.6889972255" lon="8.6863472271">
		<tag k="bridge" v="yes" />
		<tag k="layer" v="1" />
		<tag k="name" v="Hovdebekk" />
		<tag k="ssr:stedsnr" v="411131" />
	</node>
	<node id="-534862" lat="58.6561361133" lon="8.39222499627">
		<tag k="bridge" v="yes" />
		<tag k="layer" v="1" />
		<tag k="name" v="Gryteste" />
		<tag k="ssr:stedsnr" v="411129" />
	</node>
	<node id="-534861" lat="58.6800027802" lon="8.70781666238">
		<tag k="bridge" v="yes" />
		<tag k="layer" v="1" />
		<tag k="name" v="Grimeland" />
		<tag k="ssr:stedsnr" v="411128" />
	</node>
	<node id="-533314" lat="58.7690944484" lon="8.25310277967">
		<tag k="bridge" v="yes" />
		<tag k="layer" v="1" />
		<tag k="name" v="Kalsåbrua" />
		<tag k="ssr:stedsnr" v="901405" />
	</node>
	<node id="-532021" lat="58.7278472225" lon="8.63128332853">
		<tag k="ford" v="yes" />
		<tag k="name" v="Teinerate" />
		<tag k="place" v="locality" />
		<tag k="ssr:stedsnr" v="457505" />
	</node>
	<node id="-531771" lat="58.8718000046" lon="8.04990556338">
		<tag k="bridge" v="yes" />
		<tag k="layer" v="1" />
		<tag k="name" v="Dale bru" />
		<tag k="ssr:stedsnr" v="353030" />
	</node>
	<node id="-534324" lat="58.777775004" lon="8.57285554836">
		<tag k="fixme" v="verify maritime location" />
		<tag k="mooring" v="yes" />
		<tag k="name" v="Ljosvassheftet" />
		<tag k="place" v="locality" />
		<tag k="ssr:stedsnr" v="213524" />
	</node>
	<node id="-534238" lat="58.7089277754" lon="8.62562500222">
		<tag k="bridge" v="yes" />
		<tag k="layer" v="1" />
		<tag k="name" v="Storbrua" />
		<tag k="ssr:stedsnr" v="183083" />
	</node>
	<node id="-532779" lat="58.7081722261" lon="8.27963333451">
		<tag k="alt_name" v="Kopsåna" />
		<tag k="bridge" v="yes" />
		<tag k="layer" v="1" />
		<tag k="name" v="Koppsåna" />
		<tag k="ssr:stedsnr" v="896141" />
	</node>
	<node id="-532778" lat="58.7324944406" lon="8.43997499867">
		<tag k="bridge" v="yes" />
		<tag k="layer" v="1" />
		<tag k="name" v="Tverrstøyl" />
		<tag k="ssr:stedsnr" v="896136" />
	</node>
	<node id="-533801" lat="58.650327774" lon="8.43908610884">
		<tag k="name" v="Skarskleiv" />
		<tag k="place" v="locality" />
		<tag k="ssr:stedsnr" v="92343" />
	</node>
	<node id="-533798" lat="58.668438887" lon="8.40981389151">
		<tag k="fixme" v="verify maritime location" />
		<tag k="mooring" v="yes" />
		<tag k="name" v="Sorpedalshefte" />
		<tag k="place" v="locality" />
		<tag k="ssr:stedsnr" v="92335" />
	</node>
	<node id="-534817" lat="58.6399611089" lon="8.41272221835">
		<tag k="bridge" v="yes" />
		<tag k="layer" v="1" />
		<tag k="name" v="Saurdalsbru" />
		<tag k="ssr:stedsnr" v="396260" />
	</node>
	<node id="-532765" lat="58.7954972186" lon="8.51485278583">
		<tag k="bridge" v="yes" />
		<tag k="layer" v="1" />
		<tag k="name" v="Epletveit" />
		<tag k="ssr:stedsnr" v="896112" />
	</node>
	<node id="-533779" lat="58.8795944436" lon="8.60894999323">
		<tag k="highway" v="path" />
		<tag k="name" v="Skorveien" />
		<tag k="ssr:stedsnr" v="92162" />
	</node>
	<node id="-531206" lat="58.7441972252" lon="8.26666945">
		<tag k="fixme" v="consider highway=path" />
		<tag k="highway" v="track" />
		<tag k="name" v="Dydens veg" />
		<tag k="old_name" v="Dydenv veg" />
		<tag k="ssr:stedsnr" v="294005" />
	</node>
	<node id="-533252" lat="58.6660027818" lon="8.62254999993">
		<tag k="name" v="Gml. Nelaug stasjon" />
		<tag k="railway" v="station" />
		<tag k="ssr:stedsnr" v="943425" />
		<tag k="train" v="yes" />
	</node>
	<node id="-532224" lat="58.7606916704" lon="8.54966388397">
		<tag k="bridge" v="yes" />
		<tag k="layer" v="1" />
		<tag k="name" v="Grytebru" />
		<tag k="ssr:stedsnr" v="699191" />
	</node>
	<node id="-532732" lat="58.6845777747" lon="8.41902500267">
		<tag k="highway" v="path" />
		<tag k="name" v="Slentekleiv" />
		<tag k="ssr:stedsnr" v="699223" />
	</node>
	<node id="-532777" lat="58.8474527776" lon="8.09903055684">
		<tag k="bridge" v="yes" />
		<tag k="layer" v="1" />
		<tag k="name" v="Torskå" />
		<tag k="ssr:stedsnr" v="896135" />
	</node>
	<node id="-531184" lat="58.9058916654" lon="8.01512778547">
		<tag k="highway" v="path" />
		<tag k="name" v="Ånebjørgstigen" />
		<tag k="ssr:stedsnr" v="292200" />
	</node>
	<node id="-531176" lat="58.942427776" lon="8.19750278363">
		<tag k="bridge" v="yes" />
		<tag k="layer" v="1" />
		<tag k="name" v="Sagbekken" />
		<tag k="ssr:stedsnr" v="289128" />
	</node>
	<node id="-532199" lat="58.7116416672" lon="8.28524721897">
		<tag k="highway" v="path" />
		<tag k="name" v="Øyvegen" />
		<tag k="ssr:stedsnr" v="537563" />
	</node>
	<node id="-531683" lat="58.6829861101" lon="8.68763055578">
		<tag k="ford" v="yes" />
		<tag k="name" v="Holtevad" />
		<tag k="place" v="locality" />
		<tag k="ssr:stedsnr" v="335635" />
	</node>
	<node id="-531681" lat="58.7377777788" lon="8.54411667449">
		<tag k="fixme" v="consider highway=path" />
		<tag k="highway" v="track" />
		<tag k="name" v="Moldkleiv" />
		<tag k="ssr:stedsnr" v="335612" />
	</node>
	<node id="-531678" lat="58.7872027764" lon="8.59331943681">
		<tag k="ford" v="yes" />
		<tag k="name" v="Dobbestøylvaet" />
		<tag k="place" v="locality" />
		<tag k="ssr:stedsnr" v="335506" />
	</node>
	<node id="-531159" lat="58.8376555539" lon="8.34416666471">
		<tag k="ford" v="yes" />
		<tag k="name" v="Bjårvadet" />
		<tag k="place" v="locality" />
		<tag k="ssr:stedsnr" v="281773" />
	</node>
	<node id="-534742" lat="58.8471083372" lon="8.01707776928">
		<tag k="man_made" v="cairn" />
		<tag k="name" v="Svåbassvarden" />
		<tag k="place" v="locality" />
		<tag k="ssr:stedsnr" v="391342" />
	</node>
	<node id="-533198" lat="58.6597916695" lon="8.67773333777">
		<tag k="bridge" v="yes" />
		<tag k="layer" v="1" />
		<tag k="name" v="Majorbrua" />
		<tag k="ssr:stedsnr" v="942503" />
	</node>
	<node id="-531662" lat="58.7773166683" lon="8.54527499591">
		<tag k="highway" v="path" />
		<tag k="name" v="Ramsefjellskotet" />
		<tag k="ssr:stedsnr" v="335106" />
	</node>
	<node id="-533191" lat="58.802363892" lon="8.53033333684">
		<tag k="fixme" v="verify maritime location" />
		<tag k="mooring" v="yes" />
		<tag k="name" v="Hefte" />
		<tag k="place" v="locality" />
		<tag k="ssr:stedsnr" v="942454" />
	</node>
	<node id="-534559" lat="58.759297226" lon="8.08648888299">
		<tag k="ford" v="yes" />
		<tag k="name" v="Stigvaet" />
		<tag k="place" v="locality" />
		<tag k="ssr:stedsnr" v="353967" />
	</node>
	<node id="-533172" lat="58.6444083357" lon="8.43495278104">
		<tag k="highway" v="path" />
		<tag k="name" v="Steinkleivene" />
		<tag k="ssr:stedsnr" v="942268" />
	</node>
	<node id="-533170" lat="58.6916305519" lon="8.72664444565">
		<tag k="name" v="Selåsvatn stasjon" />
		<tag k="railway" v="station" />
		<tag k="ssr:stedsnr" v="942253" />
		<tag k="train" v="yes" />
	</node>
	<node id="-532136" lat="58.7542055546" lon="8.13597778085">
		<tag k="fixme" v="consider highway=path" />
		<tag k="highway" v="track" />
		<tag k="name" v="Kleivane" />
		<tag k="ssr:stedsnr" v="476910" />
	</node>
	<node id="-534181" lat="58.7098194472" lon="8.28726943797">
		<tag k="ford" v="yes" />
		<tag k="name" v="Auestadvadet" />
		<tag k="place" v="locality" />
		<tag k="ssr:stedsnr" v="173541" />
	</node>
	<node id="-532644" lat="58.6706027797" lon="8.38065278552">
		<tag k="highway" v="path" />
		<tag k="name" v="Stykkeveien" />
		<tag k="ssr:stedsnr" v="881267" />
	</node>
	<node id="-534165" lat="58.9525055599" lon="8.19852221967">
		<tag k="highway" v="path" />
		<tag k="name" v="Søylebakken" />
		<tag k="ssr:stedsnr" v="172967" />
	</node>
	<node id="-534369" lat="58.7273388932" lon="8.54902778587">
		<tag k="name" v="Moenkleiva" />
		<tag k="place" v="locality" />
		<tag k="ssr:stedsnr" v="214682" />
	</node>
	<node id="-534162" lat="58.955400003" lon="8.18349443875">
		<tag k="highway" v="path" />
		<tag k="name" v="Den mura vegen" />
		<tag k="ssr:stedsnr" v="172948" />
	</node>
	<node id="-533641" lat="58.7621527786" lon="8.12439444566">
		<tag k="highway" v="path" />
		<tag k="name" v="Ringtjønnkleivane" />
		<tag k="ssr:stedsnr" v="51196" />
	</node>
	<node id="-532100" lat="58.6363722217" lon="8.68129721959">
		<tag k="name" v="Flaten" />
		<tag k="railway" v="halt" />
		<tag k="ssr:stedsnr" v="668794" />
		<tag k="train" v="yes" />
	</node>
	<node id="-533118" lat="58.6959888854" lon="8.32049444604">
		<tag k="highway" v="path" />
		<tag k="name" v="Stigen" />
		<tag k="ssr:stedsnr" v="840688" />
	</node>
	<node id="-533625" lat="58.7985638934" lon="8.20041944506">
		<tag k="highway" v="path" />
		<tag k="name" v="Prestestigen" />
		<tag k="ssr:stedsnr" v="50256" />
	</node>
	<node id="-533607" lat="58.7130416659" lon="8.34718333478">
		<tag k="bridge" v="yes" />
		<tag k="layer" v="1" />
		<tag k="name" v="Fossnes" />
		<tag k="ssr:stedsnr" v="46122" />
	</node>
	<node id="-533608" lat="58.7285722226" lon="8.42145278494">
		<tag k="bridge" v="yes" />
		<tag k="layer" v="1" />
		<tag k="name" v="Sveisbekk" />
		<tag k="ssr:stedsnr" v="46145" />
	</node>
	<node id="-531559" lat="58.8392111077" lon="8.10461943713">
		<tag k="alt_name" v="Kvenåna" />
		<tag k="bridge" v="yes" />
		<tag k="layer" v="1" />
		<tag k="name" v="Kvennåna" />
		<tag k="ssr:stedsnr" v="471147" />
	</node>
	<node id="-531558" lat="58.7141305533" lon="8.29888611745">
		<tag k="bridge" v="yes" />
		<tag k="layer" v="1" />
		<tag k="name" v="Bås" />
		<tag k="ssr:stedsnr" v="471124" />
	</node>
	<node id="-531557" lat="58.8046166709" lon="8.49460277906">
		<tag k="bridge" v="yes" />
		<tag k="layer" v="1" />
		<tag k="name" v="Gangsheibekken" />
		<tag k="ssr:stedsnr" v="471118" />
	</node>
	<node id="-533606" lat="58.8042749991" lon="8.50655833313">
		<tag k="bridge" v="yes" />
		<tag k="layer" v="1" />
		<tag k="name" v="Javenes" />
		<tag k="ssr:stedsnr" v="46121" />
	</node>
	<node id="-534624" lat="58.8757499973" lon="8.22618054755">
		<tag k="ford" v="yes" />
		<tag k="name" v="Fossva" />
		<tag k="place" v="locality" />
		<tag k="ssr:stedsnr" v="355033" />
	</node>
	<node id="-534617" lat="58.7694583309" lon="8.07506388868">
		<tag k="ford" v="yes" />
		<tag k="name" v="Midva" />
		<tag k="place" v="locality" />
		<tag k="ssr:stedsnr" v="354994" />
	</node>
	<node id="-531032" lat="58.7376694435" lon="8.17700555509">
		<tag k="man_made" v="cairn" />
		<tag k="name" v="Lonedalsrøysa" />
		<tag k="place" v="locality" />
		<tag k="ssr:stedsnr" v="112027" />
	</node>
	<node id="-531021" lat="58.877330558" lon="8.65248888437">
		<tag k="bridge" v="yes" />
		<tag k="layer" v="1" />
		<tag k="name" v="Nobbesund" />
		<tag k="ssr:stedsnr" v="107112" />
	</node>
	<node id="-531020" lat="58.9524638904" lon="8.1620333276">
		<tag k="bridge" v="yes" />
		<tag k="layer" v="1" />
		<tag k="name" v="Smeland" />
		<tag k="ssr:stedsnr" v="107108" />
	</node>
	<node id="-531019" lat="58.8092305529" lon="8.17278055024">
		<tag k="bridge" v="yes" />
		<tag k="layer" v="1" />
		<tag k="name" v="Skredbekk" />
		<tag k="ssr:stedsnr" v="107107" />
	</node>
	<node id="-532554" lat="58.9195388876" lon="8.23218333735">
		<tag k="bridge" v="yes" />
		<tag k="layer" v="1" />
		<tag k="name" v="Ånberg" />
		<tag k="ssr:stedsnr" v="653121" />
	</node>
	<node id="-532553" lat="58.805849997" lon="8.17546111089">
		<tag k="bridge" v="yes" />
		<tag k="layer" v="1" />
		<tag k="name" v="Digervoll" />
		<tag k="ssr:stedsnr" v="653113" />
	</node>
	<node id="-533576" lat="58.7180222219" lon="8.61736111747">
		<tag k="ford" v="yes" />
		<tag k="name" v="Kallandsvad" />
		<tag k="place" v="locality" />
		<tag k="ssr:stedsnr" v="32502" />
	</node>
	<node id="-534086" lat="58.6806777775" lon="8.37252778613">
		<tag k="bridge" v="yes" />
		<tag k="layer" v="1" />
		<tag k="name" v="Bjorå" />
		<tag k="ssr:stedsnr" v="168136" />
	</node>
	<node id="-531013" lat="58.6997055577" lon="8.62034999802">
		<tag k="fixme" v="verify maritime location" />
		<tag k="mooring" v="yes" />
		<tag k="name" v="Vedstø" />
		<tag k="place" v="locality" />
		<tag k="ssr:stedsnr" v="92550" />
	</node>
	<node id="-531012" lat="58.7044722237" lon="8.61289444263">
		<tag k="bridge" v="yes" />
		<tag k="layer" v="1" />
		<tag k="name" v="Lillebru" />
		<tag k="ssr:stedsnr" v="92549" />
	</node>
	<node id="-533003" lat="58.8644611119" lon="8.06214443616">
		<tag k="highway" v="path" />
		<tag k="name" v="Stigen" />
		<tag k="ssr:stedsnr" v="778022" />
	</node>
	<node id="-530784" lat="58.7624694467" lon="8.24973889696">
		<tag k="bridge" v="yes" />
		<tag k="layer" v="1" />
		<tag k="name" v="Fiskådal" />
		<tag k="ssr:stedsnr" v="229127" />
	</node>
	<node id="-531512" lat="58.8073194425" lon="8.45220000261">
		<tag k="bridge" v="yes" />
		<tag k="layer" v="1" />
		<tag k="name" v="Svallkleiv" />
		<tag k="ssr:stedsnr" v="289124" />
	</node>
	<node id="-533557" lat="58.7128138889" lon="8.42383056029">
		<tag k="fixme" v="verify maritime location" />
		<tag k="mooring" v="yes" />
		<tag k="name" v="Klaffmyrheftet" />
		<tag k="place" v="locality" />
		<tag k="ssr:stedsnr" v="32288" />
	</node>
	<node id="-534570" lat="58.7641083323" lon="8.11415000085">
		<tag k="bridge" v="yes" />
		<tag k="layer" v="1" />
		<tag k="name" v="Kjellhombrua" />
		<tag k="ssr:stedsnr" v="354207" />
	</node>
	<node id="-532999" lat="58.8242777773" lon="8.40297500282">
		<tag k="bridge" v="yes" />
		<tag k="layer" v="1" />
		<tag k="name" v="Teinebekk" />
		<tag k="ssr:stedsnr" v="775130" />
	</node>
	<node id="-532007" lat="58.9385361149" lon="8.0563722235">
		<tag k="man_made" v="cairn" />
		<tag k="name" v="Tjovvarden" />
		<tag k="place" v="locality" />
		<tag k="ssr:stedsnr" v="658893" />
	</node>
	<node id="-530979" lat="58.6576750044" lon="8.6297416659">
		<tag k="name" v="Nelaug" />
		<tag k="railway" v="station" />
		<tag k="ssr:stedsnr" v="243940" />
		<tag k="train" v="yes" />
	</node>
	<node id="-533538" lat="58.7630249999" lon="8.60399167491">
		<tag k="highway" v="path" />
		<tag k="name" v="Hegnarkleiv" />
		<tag k="ssr:stedsnr" v="31377" />
	</node>
	<node id="-533535" lat="58.6926500044" lon="8.39516945047">
		<tag k="fixme" v="verify maritime location" />
		<tag k="mooring" v="yes" />
		<tag k="name" v="Heftet" />
		<tag k="place" v="locality" />
		<tag k="ssr:stedsnr" v="31317" />
	</node>
	<node id="-532997" lat="58.7421888911" lon="8.46649166708">
		<tag k="bridge" v="yes" />
		<tag k="layer" v="1" />
		<tag k="name" v="Gjermundnes" />
		<tag k="ssr:stedsnr" v="775112" />
	</node>
	<node id="-531469" lat="58.6912527794" lon="8.44834999811">
		<tag k="highway" v="path" />
		<tag k="name" v="Fjellmannveg" />
		<tag k="ssr:stedsnr" v="274369" />
	</node>
	<node id="-531979" lat="58.7751944473" lon="8.16474443684">
		<tag k="highway" v="path" />
		<tag k="name" v="Skjeggedalsvegen" />
		<tag k="ssr:stedsnr" v="658193" />
	</node>
	<node id="-534023" lat="58.7633527783" lon="8.55629443594">
		<tag k="ford" v="yes" />
		<tag k="name" v="Bjørndalsva" />
		<tag k="place" v="locality" />
		<tag k="ssr:stedsnr" v="152408" />
	</node>
	<node id="-531462" lat="58.7908444449" lon="8.62846943829">
		<tag k="highway" v="path" />
		<tag k="name" v="Brendestigen" />
		<tag k="ssr:stedsnr" v="274119" />
	</node>
	<node id="-533509" lat="58.8334333346" lon="8.6626611103">
		<tag k="ford" v="yes" />
		<tag k="name" v="Haukedalsvaet" />
		<tag k="place" v="locality" />
		<tag k="ssr:stedsnr" v="31061" />
	</node>
</osm>
