<?xml version="1.0" encoding="UTF-8"?>
<<<<<<< HEAD
<osm version="0.6" generator="osmapis">
	<node lat="58.73966875222562" lon="8.441856011801804" id="-20848">
		<tag k="name" v="Stangemyr" />
		<tag k="place" v="farm" />
		<tag k="ssr:stedsnr" v="395" />
	</node>
	<node lat="58.75917778170717" lon="8.537788896659466" id="-20851">
		<tag k="name" v="Solvang" />
=======
<osm generator="osmapis" version="0.6">
	<node id="-541694" lat="58.6652027741" lon="8.72921111154">
		<tag k="name" v="Gamle Sandland" />
		<tag k="place" v="locality" />
		<tag k="ssr:stedsnr" v="44938" />
	</node>
	<node id="-542704" lat="58.7462527801" lon="8.10682777882">
		<tag k="historic" v="shieling" />
		<tag k="name" v="Haukefjellhytta" />
		<tag k="place" v="locality" />
		<tag k="ssr:stedsnr" v="354859" />
	</node>
	<node id="-542692" lat="58.860341664" lon="8.32331110986">
		<tag k="name" v="Mo" />
		<tag k="place" v="farm" />
		<tag k="ssr:stedsnr" v="354696" />
	</node>
	<node id="-540640" lat="58.904986109" lon="8.19664999671">
		<tag k="name" v="Sandvasstøyl" />
		<tag k="place" v="isolated_dwelling" />
		<tag k="ssr:stedsnr" v="729972" />
	</node>
	<node id="-540639" lat="58.6704500014" lon="8.61624167147">
		<tag k="fixme" v="consider place=hamlet" />
		<tag k="name" v="Øynes" />
		<tag k="place" v="farm" />
		<tag k="ssr:stedsnr" v="729956" />
	</node>
	<node id="-540635" lat="58.6575298221" lon="8.66827581411">
		<tag k="alt_name" v="Vimme, vestre" />
		<tag k="fixme" v="consider place=hamlet" />
		<tag k="name" v="Vestre Vimme" />
		<tag k="place" v="farm" />
		<tag k="ssr:stedsnr" v="729940" />
	</node>
	<node id="-542675" lat="58.7127722259" lon="8.15917500194">
		<tag k="name" v="Sletneshytta" />
		<tag k="place" v="isolated_dwelling" />
		<tag k="ssr:stedsnr" v="354545" />
	</node>
	<node id="-540626" lat="58.6954555574" lon="8.68690277419">
		<tag k="name" v="Stanglia" />
		<tag k="place" v="farm" />
		<tag k="ssr:stedsnr" v="729897" />
	</node>
	<node id="-540624" lat="58.9670527777" lon="8.1421083315">
		<tag k="name" v="Sundstøyl" />
		<tag k="place" v="isolated_dwelling" />
		<tag k="ssr:stedsnr" v="729878" />
	</node>
	<node id="-541688" lat="58.8127222217" lon="8.41378332944">
		<tag k="name" v="Midtstøyl" />
		<tag k="place" v="isolated_dwelling" />
		<tag k="ssr:stedsnr" v="38430" />
	</node>
	<node id="-542668" lat="58.7445527778" lon="8.34974444617">
		<tag k="historic" v="shieling" />
		<tag k="name" v="Torsbu" />
		<tag k="place" v="locality" />
		<tag k="ssr:stedsnr" v="354398" />
	</node>
	<node id="-540616" lat="58.9239972192" lon="7.98925278457">
		<tag k="historic" v="shieling" />
		<tag k="name" v="Videstøyl" />
		<tag k="place" v="locality" />
		<tag k="ssr:stedsnr" v="729694" />
	</node>
	<node id="-540614" lat="58.8127333342" lon="8.52135833518">
		<tag k="fixme" v="consider place=hamlet" />
		<tag k="name" v="Olstad" />
		<tag k="place" v="farm" />
		<tag k="ssr:stedsnr" v="729682" />
	</node>
	<node id="-542660" lat="58.7564916624" lon="8.12621666788">
		<tag k="name" v="Plassen" />
		<tag k="place" v="locality" />
		<tag k="ssr:stedsnr" v="354201" />
	</node>
	<node id="-540611" lat="58.8383500015" lon="8.58150833702">
		<tag k="name" v="Heimtun" />
		<tag k="place" v="isolated_dwelling" />
		<tag k="ssr:stedsnr" v="729654" />
	</node>
	<node id="-542656" lat="58.877708332" lon="8.33194723006">
		<tag k="name" v="Napestua" />
		<tag k="place" v="isolated_dwelling" />
		<tag k="ssr:stedsnr" v="354141" />
	</node>
	<node id="-540606" lat="58.7671638933" lon="8.53134444274">
		<tag k="name" v="Haugane" />
		<tag k="place" v="farm" />
		<tag k="ssr:stedsnr" v="638729" />
	</node>
	<node id="-540587" lat="58.6760944461" lon="8.41079166517">
		<tag k="name" v="Oppstadbua" />
		<tag k="place" v="locality" />
		<tag k="ssr:stedsnr" v="638230" />
	</node>
	<node id="-542633" lat="58.9004777758" lon="8.07637777509">
		<tag k="name" v="Pråmstoga" />
		<tag k="place" v="locality" />
		<tag k="ssr:stedsnr" v="353218" />
	</node>
	<node id="-540584" lat="58.6842055523" lon="8.41013889301">
		<tag k="name" v="Lunderød" />
		<tag k="place" v="isolated_dwelling" />
		<tag k="ssr:stedsnr" v="638222" />
	</node>
	<node id="-540582" lat="58.7033861071" lon="8.41138333616">
		<tag k="name" v="Vehusheia" />
		<tag k="place" v="farm" />
		<tag k="ssr:stedsnr" v="729453" />
	</node>
	<node id="-540998" lat="58.8485861152" lon="8.24104722605">
		<tag k="name" v="Osli" />
		<tag k="place" v="isolated_dwelling" />
		<tag k="ssr:stedsnr" v="911117" />
	</node>
	<node id="-542621" lat="58.8471638861" lon="8.10001666686">
		<tag k="name" v="Plassen" />
		<tag k="place" v="isolated_dwelling" />
		<tag k="ssr:stedsnr" v="353110" />
	</node>
	<node id="-540563" lat="58.8278999977" lon="8.10149999799">
		<tag k="fixme" v="consider place=hamlet" />
		<tag k="name" v="Vrålstad" />
		<tag k="place" v="farm" />
		<tag k="ssr:stedsnr" v="729094" />
	</node>
	<node id="-542610" lat="58.8072694411" lon="8.4657722282">
		<tag k="name" v="Øygarden" />
		<tag k="place" v="locality" />
		<tag k="ssr:stedsnr" v="342356" />
	</node>
	<node id="-540553" lat="58.8599472226" lon="8.32434443661">
		<tag k="name" v="Mosvald" />
		<tag k="place" v="hamlet" />
		<tag k="ssr:stedsnr" v="632358" />
	</node>
	<node id="-540550" lat="58.8194388928" lon="8.25779444146">
		<tag k="fixme" v="consider tourism=alpine_hut or tourism=chalet" />
		<tag k="name" v="Skarsvassbu" />
		<tag k="ssr:stedsnr" v="631313" />
		<tag k="tourism" v="wilderness_hut" />
	</node>
	<node id="-542593" lat="58.7001701984" lon="8.37651539063">
		<tag k="fixme" v="consider place=hamlet" />
		<tag k="name" v="Landsås" />
		<tag k="place" v="farm" />
		<tag k="ssr:stedsnr" v="336407" />
	</node>
	<node id="-540540" lat="58.8899166636" lon="8.25629166051">
		<tag k="name" v="Finnhola" />
		<tag k="place" v="isolated_dwelling" />
		<tag k="ssr:stedsnr" v="719682" />
	</node>
	<node id="-540538" lat="58.6893055585" lon="8.32738611402">
		<tag k="name" v="Porsdals-slåttebua" />
		<tag k="place" v="locality" />
		<tag k="ssr:stedsnr" v="719632" />
	</node>
	<node id="-542578" lat="58.7349444418" lon="8.46471388528">
		<tag k="name" v="Henkane" />
		<tag k="place" v="locality" />
		<tag k="ssr:stedsnr" v="335685" />
	</node>
	<node id="-540520" lat="58.9243444412" lon="8.25848611078">
		<tag k="historic" v="shieling" />
		<tag k="name" v="Ramsestøyl" />
		<tag k="place" v="locality" />
		<tag k="ssr:stedsnr" v="719280" />
	</node>
	<node id="-542564" lat="58.6904777765" lon="8.70169443607">
		<tag k="name" v="Porsli" />
		<tag k="place" v="farm" />
		<tag k="ssr:stedsnr" v="335558" />
	</node>
	<node id="-540511" lat="58.7794250026" lon="8.41220277969">
		<tag k="name" v="Plassen" />
		<tag k="place" v="locality" />
		<tag k="ssr:stedsnr" v="719097" />
	</node>
	<node id="-542548" lat="58.690775004" lon="8.43893888238">
		<tag k="historic" v="shieling" />
		<tag k="name" v="Håstøyl" />
		<tag k="place" v="locality" />
		<tag k="ssr:stedsnr" v="335420" />
	</node>
	<node id="-540302" lat="58.8682250027" lon="8.33310555807">
		<tag k="fixme" v="consider place=hamlet" />
		<tag k="name" v="Åmland" />
		<tag k="place" v="farm" />
		<tag k="ssr:stedsnr" v="547114" />
	</node>
	<node id="-540496" lat="58.8153055576" lon="8.28136110352">
		<tag k="name" v="Slaktarplassen" />
		<tag k="place" v="locality" />
		<tag k="ssr:stedsnr" v="607189" />
	</node>
	<node id="-542543" lat="58.6755499976" lon="8.41810554905">
		<tag k="name" v="Oppstad" />
		<tag k="place" v="locality" />
		<tag k="ssr:stedsnr" v="335249" />
	</node>
	<node id="-540494" lat="58.8180611082" lon="8.41243888792">
		<tag k="name" v="Vika" />
		<tag k="place" v="isolated_dwelling" />
		<tag k="ssr:stedsnr" v="607171" />
	</node>
	<node id="-540485" lat="58.8693000034" lon="8.30733055804">
		<tag k="alt_name" v="Ekra" />
		<tag k="name" v="Ækra" />
		<tag k="place" v="farm" />
		<tag k="ssr:stedsnr" v="607017" />
	</node>
	<node id="-540482" lat="58.8724499984" lon="8.30697499408">
		<tag k="name" v="Bakkane" />
		<tag k="place" v="farm" />
		<tag k="ssr:stedsnr" v="607003" />
	</node>
	<node id="-540479" lat="58.7764805519" lon="8.31776111832">
		<tag k="name" v="Rønsdalsbua" />
		<tag k="place" v="locality" />
		<tag k="ssr:stedsnr" v="718691" />
	</node>
	<node id="-542515" lat="58.6579638926" lon="8.66686388474">
		<tag k="alt_name" v="Nygårdsholta" />
		<tag k="name" v="Nygardsholta" />
		<tag k="place" v="farm" />
		<tag k="ssr:stedsnr" v="304933" />
	</node>
	<node id="-540464" lat="58.7546555577" lon="8.31528332707">
		<tag k="name" v="Hestbrekkbua" />
		<tag k="place" v="locality" />
		<tag k="ssr:stedsnr" v="718341" />
	</node>
	<node id="-542507" lat="58.8718638925" lon="8.62795000718">
		<tag k="name" v="Berli" />
		<tag k="place" v="isolated_dwelling" />
		<tag k="ssr:stedsnr" v="304734" />
	</node>
	<node id="-542506" lat="58.8660916685" lon="8.58158888304">
		<tag k="fixme" v="consider place=hamlet" />
		<tag k="name" v="Lia" />
		<tag k="place" v="farm" />
		<tag k="ssr:stedsnr" v="304711" />
	</node>
	<node id="-542502" lat="58.7348611103" lon="8.4450722285">
		<tag k="name" v="Solås" />
		<tag k="place" v="locality" />
		<tag k="ssr:stedsnr" v="304481" />
	</node>
	<node id="-542494" lat="58.7934194449" lon="8.4870861083">
		<tag k="fixme" v="consider place=hamlet" />
		<tag k="name" v="Gjøvland" />
		<tag k="place" v="farm" />
		<tag k="ssr:stedsnr" v="304587" />
	</node>
	<node id="-542492" lat="58.7588833296" lon="8.47060832774">
		<tag k="fixme" v="consider place=hamlet" />
		<tag k="name" v="Engenes" />
		<tag k="place" v="farm" />
		<tag k="ssr:stedsnr" v="304559" />
	</node>
	<node id="-542489" lat="58.7524999988" lon="8.5386555502">
		<tag k="name" v="Liane" />
		<tag k="place" v="farm" />
		<tag k="ssr:stedsnr" v="304533" />
	</node>
	<node id="-540440" lat="58.8351055559" lon="8.10389166097">
		<tag k="alt_name" v="Moen øvre" />
		<tag k="name" v="Øvre Moen" />
		<tag k="place" v="farm" />
		<tag k="ssr:stedsnr" v="717929" />
	</node>
	<node id="-542486" lat="58.9197055538" lon="8.54070554801">
		<tag k="name" v="Ekra" />
		<tag k="place" v="isolated_dwelling" />
		<tag k="ssr:stedsnr" v="304382" />
	</node>
	<node id="-542483" lat="58.8635805514" lon="8.32811388479">
		<tag k="name" v="Bakkane" />
		<tag k="place" v="farm" />
		<tag k="ssr:stedsnr" v="304099" />
	</node>
	<node id="-542470" lat="58.8148777773" lon="8.4138833339">
		<tag k="name" v="Støylen" />
		<tag k="place" v="farm" />
		<tag k="ssr:stedsnr" v="304114" />
	</node>
	<node id="-542440" lat="58.6883138921" lon="8.69883610593">
		<tag k="name" v="Lunde" />
		<tag k="place" v="isolated_dwelling" />
		<tag k="ssr:stedsnr" v="214640" />
	</node>
	<node id="-540374" lat="58.8089972213" lon="8.41364166704">
		<tag k="name" v="Tiljone" />
>>>>>>> e1d4bc35ff8a6074a6f2e91616a996b547c36f15
		<tag k="place" v="farm" />
		<tag k="ssr:stedsnr" v="544" />
	</node>
<<<<<<< HEAD
	<node lat="58.88520179388642" lon="8.597250675906658" id="-20858">
		<tag k="name" v="Hagen" />
		<tag k="place" v="farm" />
		<tag k="ssr:stedsnr" v="459" />
	</node>
	<node lat="58.874875002904716" lon="8.305016660130491" id="-20864">
		<tag k="name" v="Langvoll" />
		<tag k="place" v="farm" />
		<tag k="ssr:stedsnr" v="1006" />
	</node>
	<node lat="58.83288611244901" lon="8.280333336532031" id="-20874">
		<tag k="alt_name" v="Skurvestøyl" />
		<tag k="name" v="Skorvestøyl" />
=======
	<node id="-540372" lat="58.8711750031" lon="8.36776944074">
		<tag k="name" v="Krossvasshytta" />
		<tag k="place" v="isolated_dwelling" />
		<tag k="ssr:stedsnr" v="705473" />
	</node>
	<node id="-542416" lat="58.7836194421" lon="8.58651665839">
		<tag k="name" v="Kleivslåttbu" />
		<tag k="place" v="locality" />
		<tag k="ssr:stedsnr" v="213527" />
	</node>
	<node id="-540367" lat="58.6916527817" lon="8.34162500793">
		<tag k="name" v="Langemyrbua" />
>>>>>>> e1d4bc35ff8a6074a6f2e91616a996b547c36f15
		<tag k="place" v="locality" />
		<tag k="ssr:stedsnr" v="1106" />
	</node>
<<<<<<< HEAD
	<node lat="58.716174997789835" lon="8.401599992588615" id="-20884">
		<tag k="name" v="Kleiva" />
=======
	<node id="-542414" lat="58.8289527778" lon="8.59919444706">
		<tag k="name" v="Kleivane" />
>>>>>>> e1d4bc35ff8a6074a6f2e91616a996b547c36f15
		<tag k="place" v="locality" />
		<tag k="ssr:stedsnr" v="1492" />
	</node>
<<<<<<< HEAD
	<node lat="58.73171247295344" lon="8.346832047660124" id="-20885">
		<tag k="alt_name" v="Sløylen" />
		<tag k="historic" v="shieling" />
		<tag k="name" v="Støylen" />
		<tag k="place" v="isolated_dwelling" />
		<tag k="ssr:stedsnr" v="1495" />
	</node>
	<node lat="58.72789721844826" lon="8.206877774102798" id="-20887">
		<tag k="name" v="Vågsdalen" />
		<tag k="place" v="isolated_dwelling" />
		<tag k="ssr:stedsnr" v="1503" />
	</node>
	<node lat="58.68963333242458" lon="8.644205556716154" id="-20896">
=======
	<node id="-540345" lat="58.7368666698" lon="8.52927222032">
		<tag k="name" v="Øvreplass" />
		<tag k="place" v="locality" />
		<tag k="ssr:stedsnr" v="699579" />
	</node>
	<node id="-542384" lat="58.6405611117" lon="8.71458333981">
>>>>>>> e1d4bc35ff8a6074a6f2e91616a996b547c36f15
		<tag k="fixme" v="consider place=hamlet" />
		<tag k="name" v="Kleivane" />
		<tag k="place" v="farm" />
		<tag k="ssr:stedsnr" v="1881" />
	</node>
<<<<<<< HEAD
	<node lat="58.68806388872705" lon="8.638322227680462" id="-20897">
		<tag k="name" v="Myrvang" />
=======
	<node id="-542381" lat="58.9406583328" lon="8.20131666244">
		<tag k="name" v="Vang" />
>>>>>>> e1d4bc35ff8a6074a6f2e91616a996b547c36f15
		<tag k="place" v="farm" />
		<tag k="ssr:stedsnr" v="1882" />
	</node>
<<<<<<< HEAD
	<node lat="58.929902776523306" lon="8.037044438810467" id="-20902">
		<tag k="name" v="Badstoga" />
		<tag k="place" v="isolated_dwelling" />
		<tag k="ssr:stedsnr" v="231163" />
	</node>
	<node lat="58.70591666960604" lon="8.155544446784068" id="-20948">
		<tag k="name" v="Verfjellhytta" />
=======
	<node id="-542380" lat="58.9522222236" lon="8.15743333672">
		<tag k="name" v="Såheim" />
		<tag k="place" v="isolated_dwelling" />
		<tag k="ssr:stedsnr" v="183934" />
	</node>
	<node id="-542370" lat="58.8958166657" lon="8.00552499944">
		<tag k="historic" v="shieling" />
		<tag k="name" v="Stuvestøyl" />
		<tag k="place" v="locality" />
		<tag k="ssr:stedsnr" v="183699" />
	</node>
	<node id="-542369" lat="58.8241055596" lon="8.6444250065">
		<tag k="alt_name" v="Nedre Haukedalen" />
		<tag k="name" v="Haukedalen" />
>>>>>>> e1d4bc35ff8a6074a6f2e91616a996b547c36f15
		<tag k="place" v="isolated_dwelling" />
		<tag k="ssr:stedsnr" v="233787" />
	</node>
<<<<<<< HEAD
	<node lat="58.96759444214421" lon="8.14431111305645" id="-20958">
		<tag k="name" v="Gamle Sundstøyl" />
		<tag k="place" v="locality" />
		<tag k="ssr:stedsnr" v="233986" />
	</node>
	<node lat="58.853916667044096" lon="8.239761113445404" id="-20970">
		<tag k="name" v="Fjellstøyl" />
=======
	<node id="-542366" lat="58.8093833371" lon="8.5362916628">
		<tag k="fixme" v="consider place=hamlet" />
		<tag k="name" v="Seljås" />
		<tag k="place" v="farm" />
		<tag k="ssr:stedsnr" v="183655" />
	</node>
	<node id="-540311" lat="58.7634111092" lon="8.63461666262">
		<tag k="name" v="Dalansplassen" />
>>>>>>> e1d4bc35ff8a6074a6f2e91616a996b547c36f15
		<tag k="place" v="locality" />
		<tag k="ssr:stedsnr" v="234352" />
	</node>
<<<<<<< HEAD
	<node lat="58.88588041957307" lon="8.5750356478851" id="-20976">
		<tag k="name" v="Lyngmo" />
		<tag k="place" v="farm" />
		<tag k="ssr:stedsnr" v="31022" />
	</node>
	<node lat="58.68994444276645" lon="8.636219438586592" id="-20989">
		<tag k="name" v="Øygarden" />
		<tag k="place" v="locality" />
		<tag k="ssr:stedsnr" v="31217" />
	</node>
	<node lat="58.84017222288111" lon="8.34961945001431" id="-21017">
		<tag k="name" v="Fossli" />
		<tag k="place" v="isolated_dwelling" />
		<tag k="ssr:stedsnr" v="38776" />
	</node>
	<node lat="58.79414999654802" lon="8.221647226146262" id="-21069">
		<tag k="name" v="Vettevoll" />
		<tag k="place" v="farm" />
		<tag k="ssr:stedsnr" v="51903" />
	</node>
	<node lat="58.783977776126534" lon="8.235841664698192" id="-21085">
		<tag k="name" v="Liane" />
		<tag k="place" v="farm" />
		<tag k="ssr:stedsnr" v="61227" />
	</node>
	<node lat="58.72426111546602" lon="8.550877779783594" id="-21088">
		<tag k="name" v="Måmoen" />
=======
	<node id="-540984" lat="58.8892916672" lon="8.31843333791">
		<tag k="name" v="Buheim" />
		<tag k="place" v="isolated_dwelling" />
		<tag k="ssr:stedsnr" v="911072" />
	</node>
	<node id="-542352" lat="58.711702774" lon="8.36953610605">
		<tag k="fixme" v="consider place=hamlet" />
		<tag k="name" v="Rostveit" />
		<tag k="place" v="farm" />
		<tag k="ssr:stedsnr" v="183435" />
	</node>
	<node id="-542350" lat="58.7164222235" lon="8.45298056331">
		<tag k="name" v="Flåstøyl" />
		<tag k="place" v="isolated_dwelling" />
		<tag k="ssr:stedsnr" v="183427" />
	</node>
	<node id="-542347" lat="58.9050944443" lon="8.55877499559">
		<tag k="name" v="Bjorevja" />
>>>>>>> e1d4bc35ff8a6074a6f2e91616a996b547c36f15
		<tag k="place" v="farm" />
		<tag k="ssr:stedsnr" v="61109" />
	</node>
<<<<<<< HEAD
	<node lat="58.85408888680564" lon="8.452911119584103" id="-21089">
		<tag k="name" v="Krossen" />
		<tag k="place" v="isolated_dwelling" />
		<tag k="ssr:stedsnr" v="61110" />
	</node>
	<node lat="58.77235278153017" lon="8.377316664609141" id="-21094">
		<tag k="name" v="Vikstøyl" />
=======
	<node id="-542346" lat="58.8995388897" lon="8.5656527726">
		<tag k="name" v="Myrane" />
		<tag k="place" v="isolated_dwelling" />
		<tag k="ssr:stedsnr" v="183418" />
	</node>
	<node id="-540296" lat="58.7575666695" lon="8.48248333834">
		<tag k="name" v="Århuskleiva" />
		<tag k="place" v="quarter" />
		<tag k="ssr:stedsnr" v="695434" />
	</node>
	<node id="-542330" lat="58.7305250034" lon="8.53870554908">
		<tag k="name" v="Kaunberget" />
		<tag k="place" v="farm" />
		<tag k="ssr:stedsnr" v="183095" />
	</node>
	<node id="-540279" lat="58.8712277818" lon="8.21273054778">
		<tag k="name" v="Storetjønnhytta" />
>>>>>>> e1d4bc35ff8a6074a6f2e91616a996b547c36f15
		<tag k="place" v="isolated_dwelling" />
		<tag k="ssr:stedsnr" v="61187" />
	</node>
<<<<<<< HEAD
	<node lat="58.784188889131165" lon="8.510783326058597" id="-21115">
		<tag k="fixme" v="consider place=hamlet" />
		<tag k="name" v="Epletveit" />
=======
	<node id="-542323" lat="58.8330611101" lon="8.10434166938">
		<tag k="alt_name" v="Moen nedre" />
		<tag k="name" v="Nedre Moen" />
>>>>>>> e1d4bc35ff8a6074a6f2e91616a996b547c36f15
		<tag k="place" v="farm" />
		<tag k="ssr:stedsnr" v="62616" />
	</node>
<<<<<<< HEAD
	<node lat="58.68699722352911" lon="8.65176944216192" id="-21117">
		<tag k="fixme" v="consider place=hamlet" />
		<tag k="name" v="Hovde" />
		<tag k="place" v="farm" />
		<tag k="ssr:stedsnr" v="62885" />
	</node>
	<node lat="58.63041224855289" lon="8.694846795869672" id="-21119">
		<tag k="name" v="Slevesund" />
		<tag k="place" v="farm" />
		<tag k="ssr:stedsnr" v="62777" />
	</node>
	<node lat="58.64194999649806" lon="8.755672218540061" id="-21122">
		<tag k="name" v="Kylland" />
		<tag k="place" v="locality" />
		<tag k="ssr:stedsnr" v="62972" />
	</node>
	<node lat="58.89971667039875" lon="8.322872218825701" id="-21128">
		<tag k="name" v="Måvasstøyl" />
		<tag k="place" v="isolated_dwelling" />
		<tag k="ssr:stedsnr" v="243028" />
	</node>
	<node lat="58.79587778143701" lon="8.224944443135346" id="-21131">
		<tag k="name" v="Bujord" />
=======
	<node id="-542322" lat="58.8837277804" lon="8.25353611356">
		<tag k="name" v="Stedjan" />
		<tag k="place" v="farm" />
		<tag k="ssr:stedsnr" v="183045" />
	</node>
	<node id="-542317" lat="58.8647916649" lon="8.20129167403">
		<tag k="name" v="Listøyl" />
		<tag k="place" v="isolated_dwelling" />
		<tag k="ssr:stedsnr" v="183010" />
	</node>
	<node id="-542304" lat="58.769130554" lon="8.49759166772">
		<tag k="name" v="Høgevoll" />
>>>>>>> e1d4bc35ff8a6074a6f2e91616a996b547c36f15
		<tag k="place" v="farm" />
		<tag k="ssr:stedsnr" v="243143" />
	</node>
<<<<<<< HEAD
	<node lat="58.70891111066268" lon="8.588547216206683" id="-21133">
		<tag k="fixme" v="consider place=hamlet" />
		<tag k="name" v="Simonstad" />
=======
	<node id="-542303" lat="58.7643666673" lon="8.53517777801">
		<tag k="name" v="Bakkane" />
>>>>>>> e1d4bc35ff8a6074a6f2e91616a996b547c36f15
		<tag k="place" v="farm" />
		<tag k="ssr:stedsnr" v="243081" />
	</node>
<<<<<<< HEAD
	<node lat="58.702050000200735" lon="8.587922215043452" id="-21134">
		<tag k="name" v="Fjellvik" />
		<tag k="place" v="farm" />
		<tag k="ssr:stedsnr" v="243084" />
	</node>
	<node lat="58.786069444512364" lon="8.235691670102684" id="-21138">
		<tag k="name" v="Lunden" />
=======
	<node id="-542302" lat="58.7662500021" lon="8.53829999904">
		<tag k="name" v="Buvollen" />
>>>>>>> e1d4bc35ff8a6074a6f2e91616a996b547c36f15
		<tag k="place" v="farm" />
		<tag k="ssr:stedsnr" v="243218" />
	</node>
<<<<<<< HEAD
	<node lat="58.780349996172205" lon="8.259713893811652" id="-21144">
=======
	<node id="-540253" lat="58.7320250034" lon="8.43368889345">
>>>>>>> e1d4bc35ff8a6074a6f2e91616a996b547c36f15
		<tag k="fixme" v="consider place=hamlet" />
		<tag k="name" v="Gunleifjell" />
		<tag k="place" v="farm" />
		<tag k="ssr:stedsnr" v="243234" />
	</node>
	<node lat="58.71934784059512" lon="8.353374231909058" id="-21154">
		<tag k="name" v="Skardmyr" />
		<tag k="place" v="farm" />
		<tag k="ssr:stedsnr" v="243468" />
	</node>
<<<<<<< HEAD
	<node lat="58.72166666979611" lon="8.402511105570099" id="-21155">
=======
	<node id="-540250" lat="58.8298444409" lon="8.58914167257">
>>>>>>> e1d4bc35ff8a6074a6f2e91616a996b547c36f15
		<tag k="fixme" v="consider place=hamlet" />
		<tag k="name" v="Tviland" />
		<tag k="place" v="farm" />
		<tag k="ssr:stedsnr" v="243471" />
	</node>
<<<<<<< HEAD
	<node lat="58.765619445398045" lon="8.553919440594106" id="-21157">
		<tag k="name" v="Espeland" />
		<tag k="place" v="farm" />
		<tag k="ssr:stedsnr" v="243516" />
	</node>
	<node lat="58.810433331056764" lon="8.474786117090591" id="-21158">
=======
	<node id="-542293" lat="58.7728611139" lon="8.09681389053">
>>>>>>> e1d4bc35ff8a6074a6f2e91616a996b547c36f15
		<tag k="fixme" v="consider place=hamlet" />
		<tag k="name" v="Gangsei" />
		<tag k="place" v="farm" />
		<tag k="ssr:stedsnr" v="243667" />
	</node>
<<<<<<< HEAD
	<node lat="58.845147220391766" lon="8.659074991855485" id="-21166">
		<tag k="alt_name" v="Katerås" />
		<tag k="fixme" v="consider place=hamlet" />
		<tag k="name" v="Katterås" />
		<tag k="place" v="farm" />
		<tag k="ssr:stedsnr" v="243732" />
	</node>
	<node lat="58.755574997507516" lon="8.076386111012825" id="-21169">
		<tag k="name" v="Høgeli" />
		<tag k="place" v="farm" />
		<tag k="ssr:stedsnr" v="243855" />
	</node>
	<node lat="58.6564888884759" lon="8.63328610683406" id="-21171">
		<tag k="fixme" v="consider place=suburb, village or hamlet" />
		<tag k="name" v="Nelaug" />
		<tag k="place" v="quarter" />
		<tag k="ssr:stedsnr" v="243942" />
	</node>
	<node lat="58.670338890725944" lon="8.707402774074557" id="-21178">
		<tag k="name" v="Myrli" />
		<tag k="place" v="farm" />
		<tag k="ssr:stedsnr" v="243964" />
	</node>
	<node lat="58.742180559077624" lon="8.523952769638871" id="-21183">
		<tag k="name" v="Reklia" />
		<tag k="place" v="isolated_dwelling" />
		<tag k="ssr:stedsnr" v="244024" />
	</node>
	<node lat="58.830724996346184" lon="8.404905552338827" id="-21185">
		<tag k="alt_name" v="Ut-på Øygarden;Ødegaarden" />
		<tag k="name" v="Øygarden" />
=======
	<node id="-540244" lat="58.7495749976" lon="8.18368610597">
		<tag k="alt_name" v="Tjerandslia" />
		<tag k="name" v="Tjerandli" />
		<tag k="place" v="isolated_dwelling" />
		<tag k="ssr:stedsnr" v="486320" />
	</node>
	<node id="-540243" lat="58.7500805543" lon="8.32343054757">
		<tag k="name" v="Nauthom" />
		<tag k="place" v="isolated_dwelling" />
		<tag k="ssr:stedsnr" v="486312" />
	</node>
	<node id="-542288" lat="58.7929611134" lon="8.22745556231">
		<tag k="alt_name" v="Ramse, øvre" />
		<tag k="name" v="Øvre Ramse" />
		<tag k="place" v="hamlet" />
		<tag k="ssr:stedsnr" v="182138" />
	</node>
	<node id="-542287" lat="58.8019000008" lon="8.41965000301">
		<tag k="name" v="Sandnes" />
		<tag k="place" v="farm" />
		<tag k="ssr:stedsnr" v="182134" />
	</node>
	<node id="-542286" lat="58.8543888865" lon="8.3378083328">
		<tag k="name" v="Landbø" />
>>>>>>> e1d4bc35ff8a6074a6f2e91616a996b547c36f15
		<tag k="place" v="farm" />
		<tag k="ssr:stedsnr" v="244168" />
	</node>
<<<<<<< HEAD
	<node lat="58.63289444032083" lon="8.409313897211009" id="-21186">
		<tag k="alt_name" v="Sparåtveit" />
		<tag k="name" v="Sparhaugtveit" />
		<tag k="place" v="locality" />
		<tag k="ssr:stedsnr" v="244368" />
	</node>
	<node lat="58.710599997531666" lon="8.58941944813754" id="-21227">
		<tag k="name" v="Vollane" />
		<tag k="place" v="farm" />
		<tag k="ssr:stedsnr" v="92584" />
	</node>
	<node lat="58.70855833637395" lon="8.566936113180398" id="-21228">
		<tag k="name" v="Solvang" />
		<tag k="place" v="farm" />
		<tag k="ssr:stedsnr" v="92586" />
	</node>
	<node lat="58.83342500242228" lon="8.398525004510335" id="-21238">
		<tag k="name" v="Oppigard" />
		<tag k="place" v="farm" />
		<tag k="ssr:stedsnr" v="99576" />
	</node>
	<node lat="58.87292222447727" lon="8.300577778931112" id="-21251">
		<tag k="name" v="Fiane" />
=======
	<node id="-539915" lat="58.6788750001" lon="8.72599444346">
		<tag k="name" v="Vassenden" />
		<tag k="place" v="farm" />
		<tag k="ssr:stedsnr" v="425908" />
	</node>
	<node id="-540201" lat="58.959861113" lon="8.17751666156">
		<tag k="name" v="Gjevdeli" />
>>>>>>> e1d4bc35ff8a6074a6f2e91616a996b547c36f15
		<tag k="place" v="farm" />
		<tag k="ssr:stedsnr" v="112113" />
	</node>
<<<<<<< HEAD
	<node lat="58.71005000199826" lon="8.280833328131056" id="-21264">
=======
	<node id="-542245" lat="58.7598999992" lon="8.41239722439">
>>>>>>> e1d4bc35ff8a6074a6f2e91616a996b547c36f15
		<tag k="name" v="Saga" />
		<tag k="place" v="locality" />
		<tag k="ssr:stedsnr" v="112606" />
	</node>
<<<<<<< HEAD
	<node lat="58.86820000058422" lon="8.42555834115053" id="-21294">
		<tag k="name" v="Vikstøyl" />
		<tag k="place" v="isolated_dwelling" />
		<tag k="ssr:stedsnr" v="122105" />
	</node>
	<node lat="58.744315882149806" lon="8.51355080234694" id="-21299">
		<tag k="name" v="Vallekilen" />
=======
	<node id="-540189" lat="58.8746361102" lon="8.04771944341">
		<tag k="name" v="Bakken" />
>>>>>>> e1d4bc35ff8a6074a6f2e91616a996b547c36f15
		<tag k="place" v="farm" />
		<tag k="ssr:stedsnr" v="122017" />
	</node>
<<<<<<< HEAD
	<node lat="58.76542777818547" lon="8.25698888989093" id="-21301">
		<tag k="alt_name" v="Sessvoll" />
		<tag k="name" v="Sæsvoll" />
=======
	<node id="-542236" lat="58.8541277767" lon="8.34186111566">
		<tag k="name" v="Landbø" />
>>>>>>> e1d4bc35ff8a6074a6f2e91616a996b547c36f15
		<tag k="place" v="farm" />
		<tag k="ssr:stedsnr" v="122204" />
	</node>
<<<<<<< HEAD
	<node lat="58.721369443373945" lon="8.165666663703547" id="-21306">
		<tag k="name" v="Domtveit" />
=======
	<node id="-542231" lat="58.8496777806" lon="8.29445277537">
		<tag k="name" v="Bjønnåshytta" />
>>>>>>> e1d4bc35ff8a6074a6f2e91616a996b547c36f15
		<tag k="place" v="isolated_dwelling" />
		<tag k="ssr:stedsnr" v="122474" />
	</node>
<<<<<<< HEAD
	<node lat="58.72573611539916" lon="8.262086115424083" id="-21307">
		<tag k="name" v="Øy" />
=======
	<node id="-540177" lat="58.7016388921" lon="8.35734165968">
		<tag k="name" v="Hommedal, l" />
>>>>>>> e1d4bc35ff8a6074a6f2e91616a996b547c36f15
		<tag k="place" v="isolated_dwelling" />
		<tag k="ssr:stedsnr" v="122478" />
	</node>
<<<<<<< HEAD
	<node lat="58.88528332916002" lon="8.093283335633428" id="-21310">
		<tag k="name" v="Hagestøyl" />
		<tag k="place" v="isolated_dwelling" />
		<tag k="ssr:stedsnr" v="122714" />
	</node>
	<node lat="58.87193333628952" lon="8.608244452636848" id="-21311">
		<tag k="name" v="Fjellstad" />
		<tag k="place" v="farm" />
		<tag k="ssr:stedsnr" v="122715" />
	</node>
	<node lat="58.71416666218058" lon="8.35122499529854" id="-21337">
		<tag k="name" v="Frivoll" />
=======
	<node id="-540174" lat="58.6997706517" lon="8.37664259766">
		<tag k="name" v="Landsås" />
>>>>>>> e1d4bc35ff8a6074a6f2e91616a996b547c36f15
		<tag k="place" v="farm" />
		<tag k="ssr:stedsnr" v="153499" />
	</node>
<<<<<<< HEAD
	<node lat="58.8398694402023" lon="8.25852499589692" id="-21380">
=======
	<node id="-542221" lat="58.8398694402" lon="8.2585249959">
>>>>>>> e1d4bc35ff8a6074a6f2e91616a996b547c36f15
		<tag k="name" v="Sinevasshytta" />
		<tag k="place" v="isolated_dwelling" />
		<tag k="ssr:stedsnr" v="172663" />
	</node>
<<<<<<< HEAD
	<node lat="58.85438888654929" lon="8.3378083328029" id="-21399">
		<tag k="name" v="Landbø" />
		<tag k="place" v="farm" />
		<tag k="ssr:stedsnr" v="182108" />
	</node>
	<node lat="58.76436666729693" lon="8.535177778008649" id="-21401">
		<tag k="name" v="Bakkane" />
		<tag k="place" v="farm" />
		<tag k="ssr:stedsnr" v="182504" />
	</node>
	<node lat="58.769130554022084" lon="8.497591667723706" id="-21402">
		<tag k="name" v="Høgevoll" />
		<tag k="place" v="farm" />
		<tag k="ssr:stedsnr" v="182505" />
	</node>
	<node lat="58.67810463669884" lon="8.712451277754584" id="-21406">
		<tag k="name" v="Kleiva" />
		<tag k="place" v="farm" />
		<tag k="ssr:stedsnr" v="182903" />
	</node>
	<node lat="58.86479166491224" lon="8.201291674025452" id="-21409">
		<tag k="name" v="Listøyl" />
		<tag k="place" v="isolated_dwelling" />
		<tag k="ssr:stedsnr" v="183010" />
	</node>
	<node lat="58.730525003408815" lon="8.53870554907593" id="-21412">
		<tag k="name" v="Kaunberget" />
		<tag k="place" v="farm" />
		<tag k="ssr:stedsnr" v="183095" />
	</node>
	<node lat="58.883727780446854" lon="8.25353611356112" id="-21414">
		<tag k="name" v="Stedjan" />
=======
	<node id="-540169" lat="58.7424055551" lon="8.45988055328">
		<tag k="fixme" v="consider place=hamlet" />
		<tag k="name" v="Gjermundnes" />
		<tag k="place" v="farm" />
		<tag k="ssr:stedsnr" v="668418" />
	</node>
	<node id="-542200" lat="58.8251083332" lon="8.0139888902">
		<tag k="name" v="Hudekvina" />
		<tag k="place" v="locality" />
		<tag k="ssr:stedsnr" v="171941" />
	</node>
	<node id="-540146" lat="58.8076277762" lon="8.17619999516">
		<tag k="fixme" v="consider place=hamlet" />
		<tag k="name" v="Hillestad" />
>>>>>>> e1d4bc35ff8a6074a6f2e91616a996b547c36f15
		<tag k="place" v="farm" />
		<tag k="ssr:stedsnr" v="183045" />
	</node>
<<<<<<< HEAD
	<node lat="58.895816665729974" lon="8.005524999438771" id="-21423">
		<tag k="historic" v="shieling" />
		<tag k="name" v="Stuvestøyl" />
		<tag k="place" v="isolated_dwelling" />
		<tag k="ssr:stedsnr" v="183699" />
	</node>
	<node lat="58.7985055525334" lon="7.999463880740907" id="-21424">
		<tag k="name" v="Tveitli" />
		<tag k="place" v="isolated_dwelling" />
		<tag k="ssr:stedsnr" v="183806" />
	</node>
	<node lat="58.884389566846934" lon="8.593688287267343" id="-21431">
		<tag k="name" v="Solmo" />
=======
	<node id="-540142" lat="58.7925194448" lon="8.22950554726">
		<tag k="name" v="Brustad" />
>>>>>>> e1d4bc35ff8a6074a6f2e91616a996b547c36f15
		<tag k="place" v="farm" />
		<tag k="ssr:stedsnr" v="213026" />
	</node>
<<<<<<< HEAD
	<node lat="58.695094447316215" lon="8.503966665084976" id="-21456">
		<tag k="name" v="Fermland" />
		<tag k="place" v="locality" />
		<tag k="ssr:stedsnr" v="214410" />
	</node>
	<node lat="58.81780555684728" lon="8.193761102603998" id="-21475">
		<tag k="name" v="Hillestadheia" />
		<tag k="place" v="neighbourhood" />
		<tag k="ssr:stedsnr" v="224839" />
	</node>
	<node lat="58.858752779659476" lon="8.511969439271834" id="-21518">
		<tag k="alt_name" v="Øvre Helleren" />
		<tag k="name" v="Helleren" />
=======
	<node id="-540141" lat="58.7955499962" lon="8.22913056411">
		<tag k="name" v="Kasin" />
		<tag k="place" v="farm" />
		<tag k="ssr:stedsnr" v="668151" />
	</node>
	<node id="-540139" lat="58.8026194424" lon="8.24029165971">
		<tag k="alt_name" v="Næverborg" />
		<tag k="name" v="Nevreborg" />
>>>>>>> e1d4bc35ff8a6074a6f2e91616a996b547c36f15
		<tag k="place" v="isolated_dwelling" />
		<tag k="ssr:stedsnr" v="243753" />
	</node>
<<<<<<< HEAD
	<node lat="58.867938890939755" lon="8.109238884560893" id="-21520">
		<tag k="name" v="Toskestøyl" />
		<tag k="place" v="isolated_dwelling" />
		<tag k="ssr:stedsnr" v="244032" />
	</node>
	<node lat="58.75583332987513" lon="8.451911112799989" id="-21532">
		<tag k="name" v="Engenes" />
=======
	<node id="-540137" lat="58.8093388862" lon="8.40298334029">
		<tag k="name" v="Solvang" />
>>>>>>> e1d4bc35ff8a6074a6f2e91616a996b547c36f15
		<tag k="place" v="farm" />
		<tag k="ssr:stedsnr" v="244296" />
	</node>
<<<<<<< HEAD
	<node lat="58.8090555517619" lon="8.174441674976665" id="-21533">
		<tag k="name" v="Plassen" />
		<tag k="place" v="isolated_dwelling" />
		<tag k="ssr:stedsnr" v="244183" />
	</node>
	<node lat="58.81095277565368" lon="8.248372219862583" id="-21534">
		<tag k="name" v="Lokkeli" />
		<tag k="place" v="isolated_dwelling" />
		<tag k="ssr:stedsnr" v="244194" />
	</node>
	<node lat="58.690555553428496" lon="8.69154721673063" id="-21538">
		<tag k="name" v="Solvang" />
		<tag k="place" v="farm" />
		<tag k="ssr:stedsnr" v="244889" />
	</node>
	<node lat="58.86882221790345" lon="8.629077776160921" id="-21556">
		<tag k="name" v="Berli" />
		<tag k="place" v="isolated_dwelling" />
		<tag k="ssr:stedsnr" v="456186" />
	</node>
	<node lat="58.76900278142115" lon="8.494030551401005" id="-21559">
		<tag k="fixme" v="consider place=hamlet" />
		<tag k="name" v="Børtinghus" />
=======
	<node id="-540133" lat="58.8535722246" lon="8.16829444058">
		<tag k="name" v="Nasestøyl" />
		<tag k="place" v="isolated_dwelling" />
		<tag k="ssr:stedsnr" v="668086" />
	</node>
	<node id="-540125" lat="58.8820865848" lon="8.28405185247">
		<tag k="alt_name" v="Årli, nedre" />
		<tag k="name" v="Nedre Årli" />
		<tag k="place" v="farm" />
		<tag k="ssr:stedsnr" v="668047" />
	</node>
	<node id="-540116" lat="58.7196777762" lon="8.34394999314">
		<tag k="name" v="Skarli" />
>>>>>>> e1d4bc35ff8a6074a6f2e91616a996b547c36f15
		<tag k="place" v="farm" />
		<tag k="ssr:stedsnr" v="456231" />
	</node>
<<<<<<< HEAD
	<node lat="58.73913055436729" lon="8.449636107237236" id="-21579">
		<tag k="name" v="Tjørnbrekk" />
		<tag k="place" v="farm" />
		<tag k="ssr:stedsnr" v="456663" />
	</node>
	<node lat="58.74940555410111" lon="8.462436105201853" id="-21581">
		<tag k="name" v="Hagebua" />
		<tag k="place" v="isolated_dwelling" />
		<tag k="ssr:stedsnr" v="456649" />
	</node>
	<node lat="58.679911107410646" lon="8.40026110671761" id="-21590">
		<tag k="name" v="Ingersplass" />
		<tag k="place" v="locality" />
		<tag k="ssr:stedsnr" v="457229" />
	</node>
	<node lat="58.681841662660275" lon="8.401516674924983" id="-21591">
		<tag k="name" v="Vestigard" />
		<tag k="place" v="farm" />
		<tag k="ssr:stedsnr" v="457233" />
	</node>
	<node lat="58.73161388752437" lon="8.34695834020115" id="-21601">
		<tag k="name" v="Støylen" />
		<tag k="place" v="farm" />
		<tag k="ssr:stedsnr" v="457450" />
	</node>
	<node lat="58.71505555841306" lon="8.636755554553233" id="-21604">
		<tag k="name" v="Plassbua" />
		<tag k="place" v="locality" />
		<tag k="ssr:stedsnr" v="457499" />
	</node>
	<node lat="58.761116664359356" lon="8.533188891800668" id="-21611">
		<tag k="name" v="Sørgard" />
		<tag k="place" v="farm" />
		<tag k="ssr:stedsnr" v="274213" />
	</node>
	<node lat="58.66517778126195" lon="8.385866666363468" id="-21620">
		<tag k="name" v="Skrede" />
		<tag k="place" v="farm" />
		<tag k="ssr:stedsnr" v="274302" />
	</node>
	<node lat="58.74680833043961" lon="8.444680558240886" id="-21637">
		<tag k="name" v="Båsland" />
		<tag k="place" v="farm" />
		<tag k="ssr:stedsnr" v="274619" />
	</node>
	<node lat="58.7671944480321" lon="8.494644439374746" id="-21641">
		<tag k="name" v="Prestegarden" />
		<tag k="place" v="farm" />
		<tag k="ssr:stedsnr" v="274708" />
	</node>
	<node lat="58.73641111111958" lon="8.531088897140407" id="-21642">
		<tag k="name" v="Plassen" />
		<tag k="place" v="locality" />
		<tag k="ssr:stedsnr" v="274727" />
	</node>
	<node lat="58.91309721967891" lon="8.194816666921367" id="-21649">
		<tag k="name" v="Ørnebu" />
		<tag k="place" v="isolated_dwelling" />
		<tag k="ssr:stedsnr" v="280209" />
	</node>
	<node lat="58.76948611544572" lon="8.36839999737287" id="-21659">
		<tag k="name" v="Kallingsheim" />
		<tag k="place" v="locality" />
		<tag k="ssr:stedsnr" v="462146" />
	</node>
	<node lat="58.88224721883333" lon="8.255002784291225" id="-21673">
		<tag k="name" v="Lauvfok" />
=======
	<node id="-540111" lat="58.7690027814" lon="8.4940305514">
		<tag k="fixme" v="consider place=hamlet" />
		<tag k="name" v="Børtinghus" />
		<tag k="place" v="farm" />
		<tag k="ssr:stedsnr" v="456231" />
	</node>
	<node id="-540109" lat="58.8746555516" lon="8.56564722175">
		<tag k="name" v="Svallbua" />
		<tag k="place" v="locality" />
		<tag k="ssr:stedsnr" v="456174" />
	</node>
	<node id="-540108" lat="58.867775" lon="8.58685833551">
		<tag k="name" v="Librakka" />
		<tag k="place" v="isolated_dwelling" />
		<tag k="ssr:stedsnr" v="456169" />
	</node>
	<node id="-542154" lat="58.7105972204" lon="8.60456110823">
		<tag k="name" v="Hytta" />
		<tag k="place" v="isolated_dwelling" />
		<tag k="ssr:stedsnr" v="153584" />
	</node>
	<node id="-542146" lat="58.7141666622" lon="8.3512249953">
		<tag k="name" v="Frivoll" />
		<tag k="place" v="farm" />
		<tag k="ssr:stedsnr" v="153499" />
	</node>
	<node id="-540090" lat="58.7151111107" lon="8.30268332643">
		<tag k="name" v="Lille Baas" />
		<tag k="place" v="isolated_dwelling" />
		<tag k="ssr:stedsnr" v="658620" />
	</node>
	<node id="-540084" lat="58.8332916627" lon="8.40264721724">
		<tag k="name" v="Kvienga" />
>>>>>>> e1d4bc35ff8a6074a6f2e91616a996b547c36f15
		<tag k="place" v="farm" />
		<tag k="ssr:stedsnr" v="294003" />
	</node>
<<<<<<< HEAD
	<node lat="58.79620833471543" lon="8.49364722356481" id="-21676">
		<tag k="name" v="Grasnes" />
		<tag k="place" v="farm" />
		<tag k="ssr:stedsnr" v="294104" />
	</node>
	<node lat="58.839050001065196" lon="8.357016659797702" id="-21716">
		<tag k="name" v="Lundvoll" />
=======
	<node id="-539890" lat="58.7055750025" lon="8.61923333075">
		<tag k="building" v="commercial" />
		<tag k="name" v="Simonstad bruk" />
		<tag k="ssr:stedsnr" v="396504" />
	</node>
	<node id="-540073" lat="58.8959305561" lon="8.16413889079">
		<tag k="name" v="Steinbua" />
		<tag k="place" v="locality" />
		<tag k="ssr:stedsnr" v="658323" />
	</node>
	<node id="-540064" lat="58.8742694416" lon="8.29954999558">
		<tag k="name" v="Haugå" />
>>>>>>> e1d4bc35ff8a6074a6f2e91616a996b547c36f15
		<tag k="place" v="farm" />
		<tag k="ssr:stedsnr" v="463749" />
	</node>
<<<<<<< HEAD
	<node lat="58.7762416906975" lon="8.317880808695564" id="-21730">
		<tag k="alt_name" v="Røndalsbua" />
		<tag k="name" v="Raundalsbua" />
=======
	<node id="-540063" lat="58.7533000001" lon="8.040433326">
		<tag k="name" v="Bruleheibua" />
>>>>>>> e1d4bc35ff8a6074a6f2e91616a996b547c36f15
		<tag k="place" v="locality" />
		<tag k="ssr:stedsnr" v="304175" />
	</node>
<<<<<<< HEAD
	<node lat="58.91970095370138" lon="8.54067214559229" id="-21733">
		<tag k="name" v="Ekra" />
		<tag k="place" v="farm" />
		<tag k="ssr:stedsnr" v="304382" />
	</node>
	<node lat="58.765663890241704" lon="8.483919446220124" id="-21735">
		<tag k="name" v="Åmli" />
		<tag k="place" v="village" />
		<tag k="ssr:stedsnr" v="304506" />
	</node>
	<node lat="58.79341944487165" lon="8.487086108303147" id="-21739">
=======
	<node id="-542079" lat="58.6568333333" lon="8.72840555892">
>>>>>>> e1d4bc35ff8a6074a6f2e91616a996b547c36f15
		<tag k="fixme" v="consider place=hamlet" />
		<tag k="name" v="Gjøvland" />
		<tag k="place" v="farm" />
		<tag k="ssr:stedsnr" v="304587" />
	</node>
<<<<<<< HEAD
	<node lat="58.86609166852812" lon="8.581588883044633" id="-21740">
		<tag k="fixme" v="consider place=hamlet" />
		<tag k="name" v="Lia" />
=======
	<node id="-542076" lat="58.941098629" lon="8.10628800095">
		<tag k="name" v="Øvre Hegestøyl" />
>>>>>>> e1d4bc35ff8a6074a6f2e91616a996b547c36f15
		<tag k="place" v="farm" />
		<tag k="ssr:stedsnr" v="304711" />
	</node>
<<<<<<< HEAD
	<node lat="58.7348611102905" lon="8.445072228502136" id="-21745">
		<tag k="name" v="Solås" />
		<tag k="place" v="locality" />
		<tag k="ssr:stedsnr" v="304481" />
	</node>
	<node lat="58.77523535018203" lon="8.543488478550891" id="-21746">
		<tag k="alt_name" v="Granli" />
		<tag k="name" v="Plassen" />
		<tag k="place" v="farm" />
		<tag k="ssr:stedsnr" v="304613" />
	</node>
	<node lat="58.743780125775665" lon="8.060738109547755" id="-21748">
		<tag k="name" v="Barlindhommen" />
		<tag k="place" v="locality" />
		<tag k="ssr:stedsnr" v="304907" />
	</node>
	<node lat="58.68987777360036" lon="8.717522228433799" id="-21750">
		<tag k="name" v="Åsen" />
=======
	<node id="-542075" lat="58.6775972252" lon="8.54647499828">
		<tag k="alt_name" v="Vestre Mosberg" />
		<tag k="name" v="Mosberg" />
		<tag k="place" v="isolated_dwelling" />
		<tag k="ssr:stedsnr" v="122917" />
	</node>
	<node id="-542069" lat="58.6887944451" lon="8.51136110923">
		<tag k="name" v="Fjellstøyllia" />
>>>>>>> e1d4bc35ff8a6074a6f2e91616a996b547c36f15
		<tag k="place" v="farm" />
		<tag k="ssr:stedsnr" v="304921" />
	</node>
<<<<<<< HEAD
	<node lat="58.90719593107035" lon="8.555439509840387" id="-21757">
		<tag k="name" v="Haugen" />
		<tag k="place" v="farm" />
		<tag k="ssr:stedsnr" v="335002" />
	</node>
	<node lat="58.88679407295617" lon="8.591827247491937" id="-21760">
		<tag k="name" v="Bjørnestad" />
		<tag k="place" v="farm" />
		<tag k="ssr:stedsnr" v="335019" />
	</node>
	<node lat="58.67554999757238" lon="8.418105549045052" id="-21771">
		<tag k="name" v="Oppstad" />
=======
	<node id="-540019" lat="58.6739499966" lon="8.57440832744">
		<tag k="name" v="Mosli" />
		<tag k="place" v="isolated_dwelling" />
		<tag k="ssr:stedsnr" v="517671" />
	</node>
	<node id="-542066" lat="58.6347027793" lon="8.74668055341">
		<tag k="name" v="Setane" />
		<tag k="place" v="farm" />
		<tag k="ssr:stedsnr" v="122775" />
	</node>
	<node id="-540017" lat="58.7308249991" lon="8.53388888692">
		<tag k="name" v="Gamle Harnes" />
>>>>>>> e1d4bc35ff8a6074a6f2e91616a996b547c36f15
		<tag k="place" v="locality" />
		<tag k="ssr:stedsnr" v="335249" />
	</node>
<<<<<<< HEAD
	<node lat="58.69047777650182" lon="8.701694436072861" id="-21776">
		<tag k="name" v="Porsli" />
=======
	<node id="-542063" lat="58.8719333363" lon="8.60824445264">
		<tag k="name" v="Fjellstad" />
>>>>>>> e1d4bc35ff8a6074a6f2e91616a996b547c36f15
		<tag k="place" v="farm" />
		<tag k="ssr:stedsnr" v="335558" />
	</node>
<<<<<<< HEAD
	<node lat="58.70017019837407" lon="8.376515390629784" id="-21794">
		<tag k="fixme" v="consider place=hamlet" />
		<tag k="name" v="Landsås" />
		<tag k="place" v="farm" />
		<tag k="ssr:stedsnr" v="336407" />
	</node>
	<node lat="58.807269441063035" lon="8.46577222819542" id="-21803">
		<tag k="name" v="Øygarden" />
		<tag k="place" v="locality" />
		<tag k="ssr:stedsnr" v="342356" />
	</node>
	<node lat="58.63743055411263" lon="8.743730557313576" id="-21807">
		<tag k="name" v="Steinsbu" />
=======
	<node id="-542062" lat="58.8852833292" lon="8.09328333563">
		<tag k="name" v="Hagestøyl" />
		<tag k="place" v="isolated_dwelling" />
		<tag k="ssr:stedsnr" v="122714" />
	</node>
	<node id="-540010" lat="58.6950499957" lon="8.57021667463">
		<tag k="name" v="Vehusdalsbua" />
		<tag k="place" v="locality" />
		<tag k="ssr:stedsnr" v="517578" />
	</node>
	<node id="-540009" lat="58.7089194463" lon="8.58851944932">
		<tag k="name" v="Haugen" />
		<tag k="place" v="farm" />
		<tag k="ssr:stedsnr" v="517573" />
	</node>
	<node id="-542055" lat="58.8341916629" lon="8.58469166724">
		<tag k="name" v="Vang" />
>>>>>>> e1d4bc35ff8a6074a6f2e91616a996b547c36f15
		<tag k="place" v="isolated_dwelling" />
		<tag k="ssr:stedsnr" v="347821" />
	</node>
<<<<<<< HEAD
	<node lat="58.9004777757916" lon="8.076377775086067" id="-21825">
		<tag k="name" v="Pråmstoga" />
		<tag k="place" v="locality" />
		<tag k="ssr:stedsnr" v="353218" />
	</node>
	<node lat="58.84716388612366" lon="8.100016666859501" id="-21827">
		<tag k="name" v="Plassen" />
=======
	<node id="-542052" lat="58.7257361154" lon="8.26208611542">
		<tag k="name" v="Øy" />
		<tag k="place" v="isolated_dwelling" />
		<tag k="ssr:stedsnr" v="122478" />
	</node>
	<node id="-542051" lat="58.7213694434" lon="8.1656666637">
		<tag k="name" v="Domtveit" />
>>>>>>> e1d4bc35ff8a6074a6f2e91616a996b547c36f15
		<tag k="place" v="isolated_dwelling" />
		<tag k="ssr:stedsnr" v="353110" />
	</node>
<<<<<<< HEAD
	<node lat="58.75649166241175" lon="8.126216667881824" id="-21840">
		<tag k="name" v="Plassen" />
=======
	<node id="-542049" lat="58.7112000034" lon="8.23771111767">
		<tag k="alt_name" v="Vå" />
		<tag k="name" v="Vaa" />
>>>>>>> e1d4bc35ff8a6074a6f2e91616a996b547c36f15
		<tag k="place" v="locality" />
		<tag k="ssr:stedsnr" v="354201" />
	</node>
<<<<<<< HEAD
	<node lat="58.7445527777538" lon="8.34974444616759" id="-21850">
		<tag k="name" v="Torsbu" />
		<tag k="place" v="locality" />
		<tag k="ssr:stedsnr" v="354398" />
	</node>
	<node lat="58.870205555492475" lon="8.305161106874584" id="-21891">
		<tag k="name" v="Sørgard" />
		<tag k="place" v="farm" />
		<tag k="ssr:stedsnr" v="476100" />
	</node>
	<node lat="58.797158333903106" lon="8.222463888355383" id="-21927">
		<tag k="name" v="Innistog" />
		<tag k="place" v="farm" />
		<tag k="ssr:stedsnr" v="476891" />
	</node>
	<node lat="58.77176666509382" lon="8.250083336080696" id="-21942">
		<tag k="alt_name" v="Kruna" />
		<tag k="name" v="Krona" />
		<tag k="place" v="farm" />
		<tag k="ssr:stedsnr" v="364265" />
	</node>
	<node lat="58.76620555700959" lon="8.529866674837518" id="-21947">
		<tag k="alt_name" v="Haugane, vestre" />
		<tag k="fixme" v="multiple name tags, choose one and add the other to alt_name" />
		<tag k="name" v="Vestre Haugane;Vestigard" />
		<tag k="place" v="farm" />
		<tag k="ssr:stedsnr" v="364521" />
	</node>
	<node lat="58.963961115242775" lon="8.170980556524661" id="-21950">
		<tag k="name" v="Gjevdestøyl" />
		<tag k="place" v="isolated_dwelling" />
		<tag k="ssr:stedsnr" v="364907" />
	</node>
	<node lat="58.68206388838841" lon="8.705202778708182" id="-21951">
		<tag k="fixme" v="consider place=hamlet" />
		<tag k="name" v="Grimeland" />
		<tag k="place" v="farm" />
		<tag k="ssr:stedsnr" v="364924" />
	</node>
	<node lat="58.67580435989668" lon="8.658029157919987" id="-21952">
		<tag k="historic" v="shieling" />
		<tag k="name" v="Hytta" />
=======
	<node id="-539998" lat="58.6741777733" lon="8.71352778087">
		<tag k="name" v="Hestås" />
		<tag k="place" v="farm" />
		<tag k="ssr:stedsnr" v="517507" />
	</node>
	<node id="-539877" lat="58.6241583316" lon="8.69993611822">
		<tag k="fixme" v="consider place=hamlet" />
		<tag k="name" v="Kiland" />
		<tag k="place" v="farm" />
		<tag k="ssr:stedsnr" v="364774" />
	</node>
	<node id="-542041" lat="58.6541083358" lon="8.39811388563">
		<tag k="name" v="Myre" />
		<tag k="place" v="isolated_dwelling" />
		<tag k="ssr:stedsnr" v="122278" />
	</node>
	<node id="-542039" lat="58.7860500015" lon="8.20198611772">
		<tag k="fixme" v="consider place=hamlet" />
		<tag k="name" v="Tveit" />
		<tag k="place" v="farm" />
		<tag k="ssr:stedsnr" v="122231" />
	</node>
	<node id="-542038" lat="58.7938805585" lon="8.30677499374">
		<tag k="name" v="Lauvdal" />
		<tag k="place" v="locality" />
		<tag k="ssr:stedsnr" v="122224" />
	</node>
	<node id="-542037" lat="58.7654277782" lon="8.25698888989">
		<tag k="alt_name" v="Sessvoll" />
		<tag k="name" v="Sæsvoll" />
		<tag k="place" v="farm" />
		<tag k="ssr:stedsnr" v="122204" />
	</node>
	<node id="-542034" lat="58.8338333345" lon="8.3972972267">
		<tag k="fixme" v="consider place=hamlet" />
		<tag k="name" v="Homdrom" />
		<tag k="place" v="village" />
		<tag k="ssr:stedsnr" v="122148" />
	</node>
	<node id="-539981" lat="58.7007861071" lon="8.45314167457">
		<tag k="name" v="Lundebu" />
		<tag k="place" v="locality" />
		<tag k="ssr:stedsnr" v="517392" />
	</node>
	<node id="-542027" lat="58.8682000006" lon="8.42555834115">
		<tag k="name" v="Vikstøyl" />
		<tag k="place" v="isolated_dwelling" />
		<tag k="ssr:stedsnr" v="122105" />
	</node>
	<node id="-542022" lat="58.7454111136" lon="8.51247777872">
		<tag k="name" v="Vallekilen" />
		<tag k="place" v="isolated_dwelling" />
		<tag k="ssr:stedsnr" v="122017" />
	</node>
	<node id="-539950" lat="58.8820722229" lon="8.5813222177">
		<tag k="name" v="Skogbu" />
		<tag k="place" v="isolated_dwelling" />
		<tag k="ssr:stedsnr" v="517139" />
	</node>
	<node id="-541996" lat="58.8227111075" lon="8.24714723084">
		<tag k="name" v="Skarslihytta" />
		<tag k="place" v="locality" />
		<tag k="ssr:stedsnr" v="112693" />
	</node>
	<node id="-539947" lat="58.8830694486" lon="8.58205833392">
		<tag k="name" v="Alfheim" />
		<tag k="place" v="isolated_dwelling" />
		<tag k="ssr:stedsnr" v="517126" />
	</node>
	<node id="-539939" lat="58.8452611155" lon="8.56930555554">
		<tag k="name" v="Nordli" />
		<tag k="place" v="isolated_dwelling" />
		<tag k="ssr:stedsnr" v="517056" />
	</node>
	<node id="-539936" lat="58.8861805527" lon="8.57468055007">
		<tag k="name" v="Solbakken" />
		<tag k="place" v="isolated_dwelling" />
		<tag k="ssr:stedsnr" v="517030" />
	</node>
	<node id="-539935" lat="58.8909305559" lon="8.55846667277">
		<tag k="name" v="Sagmo" />
		<tag k="place" v="isolated_dwelling" />
		<tag k="ssr:stedsnr" v="517025" />
	</node>
	<node id="-539927" lat="58.8645027757" lon="8.62589167336">
		<tag k="name" v="Berli" />
		<tag k="place" v="isolated_dwelling" />
		<tag k="ssr:stedsnr" v="426704" />
	</node>
	<node id="-539921" lat="58.7663361141" lon="8.25853889534">
		<tag k="alt_name" v="Nygard" />
		<tag k="name" v="Nygård" />
		<tag k="place" v="farm" />
		<tag k="ssr:stedsnr" v="426204" />
	</node>
	<node id="-539916" lat="58.7346500028" lon="8.52533332572">
		<tag k="name" v="Kløvfjell" />
		<tag k="place" v="farm" />
		<tag k="ssr:stedsnr" v="426109" />
	</node>
	<node id="-539522" lat="58.6799111074" lon="8.40026110672">
		<tag k="name" v="Ingersplass" />
		<tag k="place" v="locality" />
		<tag k="ssr:stedsnr" v="457229" />
	</node>
	<node id="-539913" lat="58.6743027766" lon="8.37443332626">
		<tag k="name" v="Austadplassen" />
		<tag k="place" v="isolated_dwelling" />
		<tag k="ssr:stedsnr" v="425304" />
	</node>
	<node id="-539910" lat="58.8454250022" lon="8.26737222245">
		<tag k="name" v="Fjellro" />
		<tag k="place" v="isolated_dwelling" />
		<tag k="ssr:stedsnr" v="416324" />
	</node>
	<node id="-541950" lat="58.8697388878" lon="8.02740833416">
		<tag k="name" v="Kleivhytta" />
		<tag k="place" v="locality" />
		<tag k="ssr:stedsnr" v="111039" />
	</node>
	<node id="-539892" lat="58.7073777807" lon="8.60796388168">
		<tag k="name" v="Lien" />
		<tag k="place" v="isolated_dwelling" />
		<tag k="ssr:stedsnr" v="396512" />
	</node>
	<node id="-541938" lat="58.8056138924" lon="8.3961305569">
		<tag k="name" v="Der ute" />
		<tag k="place" v="farm" />
		<tag k="ssr:stedsnr" v="98393" />
	</node>
	<node id="-541929" lat="58.7145972217" lon="8.35260277078">
		<tag k="name" v="Sandhaug" />
		<tag k="place" v="farm" />
		<tag k="ssr:stedsnr" v="93429" />
	</node>
	<node id="-541928" lat="58.7234555596" lon="8.33191110432">
		<tag k="name" v="Selberg" />
		<tag k="place" v="farm" />
		<tag k="ssr:stedsnr" v="93413" />
	</node>
	<node id="-541926" lat="58.6986359667" lon="8.34898954366">
		<tag k="name" v="Innjorda" />
		<tag k="place" v="farm" />
		<tag k="ssr:stedsnr" v="93339" />
	</node>
	<node id="-541925" lat="58.6963694419" lon="8.3626388887">
		<tag k="name" v="Store Homedal" />
		<tag k="place" v="farm" />
		<tag k="ssr:stedsnr" v="93334" />
	</node>
	<node id="-541916" lat="58.7472777822" lon="8.45580832888">
		<tag k="name" v="Sundet" />
		<tag k="place" v="farm" />
		<tag k="ssr:stedsnr" v="92660" />
	</node>
	<node id="-539128" lat="58.8729222245" lon="8.30057777893">
		<tag k="name" v="Fiane" />
		<tag k="place" v="farm" />
		<tag k="ssr:stedsnr" v="112113" />
	</node>
	<node id="-541912" lat="58.7085583364" lon="8.56693611318">
		<tag k="name" v="Solvang" />
		<tag k="place" v="isolated_dwelling" />
		<tag k="ssr:stedsnr" v="92586" />
	</node>
	<node id="-541911" lat="58.7105999975" lon="8.58941944814">
		<tag k="name" v="Vollane" />
		<tag k="place" v="farm" />
		<tag k="ssr:stedsnr" v="92584" />
	</node>
	<node id="-541903" lat="58.8297916695" lon="8.55471111467">
		<tag k="name" v="Øvre Krossbekk" />
		<tag k="place" v="isolated_dwelling" />
		<tag k="ssr:stedsnr" v="92437" />
	</node>
	<node id="-541902" lat="58.8313972184" lon="8.55870000624">
		<tag k="name" v="Surtemyr" />
		<tag k="place" v="locality" />
		<tag k="ssr:stedsnr" v="92435" />
	</node>
	<node id="-539853" lat="58.6374305541" lon="8.74373055731">
		<tag k="name" v="Steinsbu" />
		<tag k="place" v="isolated_dwelling" />
		<tag k="ssr:stedsnr" v="347821" />
	</node>
	<node id="-541559" lat="58.7318527802" lon="8.34708055556">
		<tag k="alt_name" v="Sløylen" />
		<tag k="name" v="Støylen" />
		<tag k="place" v="isolated_dwelling" />
		<tag k="ssr:stedsnr" v="1495" />
	</node>
	<node id="-539847" lat="58.6433916671" lon="8.67899444125">
		<tag k="name" v="Flaten" />
		<tag k="place" v="farm" />
		<tag k="ssr:stedsnr" v="486984" />
	</node>
	<node id="-539845" lat="58.9459111107" lon="8.20073055207">
		<tag k="name" v="Rindebakk" />
		<tag k="place" v="farm" />
		<tag k="ssr:stedsnr" v="486961" />
	</node>
	<node id="-539839" lat="58.6971805574" lon="8.61707222966">
		<tag k="name" v="Fiskådalen" />
		<tag k="place" v="isolated_dwelling" />
		<tag k="ssr:stedsnr" v="486905" />
	</node>
	<node id="-539833" lat="58.7554305568" lon="8.51076943833">
		<tag k="name" v="Valle" />
		<tag k="place" v="farm" />
		<tag k="ssr:stedsnr" v="486556" />
	</node>
	<node id="-539832" lat="58.7598305529" lon="8.63545000285">
		<tag k="name" v="Dalane" />
		<tag k="place" v="isolated_dwelling" />
		<tag k="ssr:stedsnr" v="486555" />
	</node>
	<node id="-539828" lat="58.8123999988" lon="8.08294721524">
		<tag k="name" v="Hovdestøyl" />
		<tag k="place" v="locality" />
		<tag k="ssr:stedsnr" v="486798" />
	</node>
	<node id="-539821" lat="58.889152782" lon="8.58625833242">
		<tag k="alt_name" v="Moen" />
		<tag k="name" v="Monen" />
		<tag k="place" v="isolated_dwelling" />
		<tag k="ssr:stedsnr" v="486476" />
	</node>
	<node id="-539506" lat="58.7097138911" lon="8.60336389553">
		<tag k="name" v="Skogen" />
		<tag k="place" v="isolated_dwelling" />
		<tag k="ssr:stedsnr" v="456569" />
	</node>
	<node id="-539814" lat="58.7390972226" lon="8.45663333761">
		<tag k="name" v="Bakken" />
		<tag k="place" v="isolated_dwelling" />
		<tag k="ssr:stedsnr" v="486407" />
	</node>
	<node id="-539812" lat="58.7775722194" lon="8.15976944733">
		<tag k="name" v="Skredløa" />
		<tag k="place" v="locality" />
		<tag k="ssr:stedsnr" v="486246" />
	</node>
	<node id="-539808" lat="58.7535888933" lon="8.30448332563">
		<tag k="fixme" v="consider place=hamlet" />
		<tag k="name" v="Håkedal" />
		<tag k="place" v="farm" />
		<tag k="ssr:stedsnr" v="486334" />
	</node>
	<node id="-539800" lat="58.8665277791" lon="8.32662499852">
		<tag k="name" v="Kleivane" />
		<tag k="place" v="farm" />
		<tag k="ssr:stedsnr" v="486084" />
	</node>
	<node id="-541845" lat="58.9152277779" lon="8.58089166683">
		<tag k="name" v="Blekkbua" />
		<tag k="place" v="locality" />
		<tag k="ssr:stedsnr" v="92005" />
	</node>
	<node id="-539794" lat="58.7047833364" lon="8.56731665961">
		<tag k="name" v="Fossnes" />
		<tag k="place" v="farm" />
		<tag k="ssr:stedsnr" v="486072" />
	</node>
	<node id="-541838" lat="58.6419499965" lon="8.75567221854">
		<tag k="name" v="Kylland" />
		<tag k="place" v="locality" />
		<tag k="ssr:stedsnr" v="62972" />
	</node>
	<node id="-541835" lat="58.6929444487" lon="8.70750832507">
		<tag k="name" v="Nylund" />
		<tag k="place" v="farm" />
		<tag k="ssr:stedsnr" v="62898" />
	</node>
	<node id="-541832" lat="58.6869972235" lon="8.65176944216">
		<tag k="fixme" v="consider place=hamlet" />
		<tag k="name" v="Hovde" />
		<tag k="place" v="farm" />
		<tag k="ssr:stedsnr" v="62885" />
	</node>
	<node id="-539783" lat="58.8896527799" lon="8.2536222274">
		<tag k="name" v="Fjellsenden" />
		<tag k="place" v="farm" />
		<tag k="ssr:stedsnr" v="486027" />
	</node>
	<node id="-541830" lat="58.6310972236" lon="8.69030000042">
		<tag k="name" v="Slevesund" />
		<tag k="place" v="isolated_dwelling" />
		<tag k="ssr:stedsnr" v="62777" />
	</node>
	<node id="-539780" lat="58.8687805566" lon="8.32551388822">
		<tag k="name" v="Hagen" />
		<tag k="place" v="farm" />
		<tag k="ssr:stedsnr" v="486012" />
	</node>
	<node id="-541827" lat="58.7841888891" lon="8.51078332606">
		<tag k="fixme" v="consider place=hamlet" />
		<tag k="name" v="Epletveit" />
		<tag k="place" v="farm" />
		<tag k="ssr:stedsnr" v="62616" />
	</node>
	<node id="-541823" lat="58.6963027775" lon="8.36277222407">
		<tag k="name" v="Hommedal, store" />
		<tag k="place" v="isolated_dwelling" />
		<tag k="ssr:stedsnr" v="62449" />
	</node>
	<node id="-539764" lat="58.6848166651" lon="8.40124721375">
		<tag k="name" v="Haugen" />
		<tag k="place" v="farm" />
		<tag k="ssr:stedsnr" v="335303" />
	</node>
	<node id="-539763" lat="58.6845444463" lon="8.40489721553">
		<tag k="name" v="Der heime" />
		<tag k="place" v="farm" />
		<tag k="ssr:stedsnr" v="335237" />
	</node>
	<node id="-541807" lat="58.8440250028" lon="8.09068611905">
		<tag k="name" v="Mjåland" />
		<tag k="place" v="farm" />
		<tag k="ssr:stedsnr" v="61767" />
	</node>
	<node id="-541805" lat="58.876291663" lon="8.64094166908">
		<tag k="name" v="Drangsmonen" />
		<tag k="place" v="locality" />
		<tag k="ssr:stedsnr" v="61705" />
	</node>
	<node id="-541804" lat="58.8203027784" lon="8.6369111121">
		<tag k="alt_name" v="Øvre Haukedalen" />
		<tag k="name" v="Haukedalen" />
		<tag k="place" v="isolated_dwelling" />
		<tag k="ssr:stedsnr" v="61672" />
	</node>
	<node id="-539752" lat="58.8866222187" lon="8.59167222966">
		<tag k="name" v="Bjørnestad" />
		<tag k="place" v="isolated_dwelling" />
		<tag k="ssr:stedsnr" v="335019" />
	</node>
	<node id="-539749" lat="58.9072305549" lon="8.55550555133">
		<tag k="name" v="Haugen" />
		<tag k="place" v="isolated_dwelling" />
		<tag k="ssr:stedsnr" v="335002" />
	</node>
	<node id="-539746" lat="58.7971583339" lon="8.22246388836">
		<tag k="name" v="Innistog" />
		<tag k="place" v="farm" />
		<tag k="ssr:stedsnr" v="476891" />
	</node>
	<node id="-541789" lat="58.7839777761" lon="8.2358416647">
		<tag k="name" v="Liane" />
		<tag k="place" v="farm" />
		<tag k="ssr:stedsnr" v="61227" />
	</node>
	<node id="-541785" lat="58.7723527815" lon="8.37731666461">
		<tag k="name" v="Vikstøyl" />
		<tag k="place" v="isolated_dwelling" />
		<tag k="ssr:stedsnr" v="61187" />
	</node>
	<node id="-541778" lat="58.8540888868" lon="8.45291111958">
		<tag k="name" v="Krossen" />
		<tag k="place" v="isolated_dwelling" />
		<tag k="ssr:stedsnr" v="61110" />
	</node>
	<node id="-541777" lat="58.7242611155" lon="8.55087777978">
		<tag k="name" v="Måmoen" />
		<tag k="place" v="farm" />
		<tag k="ssr:stedsnr" v="61109" />
	</node>
	<node id="-539705" lat="58.8702055555" lon="8.30516110687">
		<tag k="name" v="Sørgard" />
		<tag k="place" v="farm" />
		<tag k="ssr:stedsnr" v="476100" />
	</node>
	<node id="-541706" lat="58.9020194447" lon="8.00817777181">
		<tag k="name" v="Ånebjørste-bua" />
		<tag k="place" v="locality" />
		<tag k="ssr:stedsnr" v="49246" />
	</node>
	<node id="-539657" lat="58.8305750001" lon="8.10153889122">
		<tag k="name" v="Haugen" />
		<tag k="place" v="farm" />
		<tag k="ssr:stedsnr" v="474908" />
	</node>
	<node id="-539646" lat="58.6898777736" lon="8.71752222843">
		<tag k="name" v="Åsen" />
		<tag k="place" v="farm" />
		<tag k="ssr:stedsnr" v="304921" />
	</node>
	<node id="-539644" lat="58.7437833334" lon="8.06073334056">
		<tag k="name" v="Barlindhommen" />
		<tag k="place" v="locality" />
		<tag k="ssr:stedsnr" v="304907" />
	</node>
	<node id="-541690" lat="58.8401722229" lon="8.34961945001">
		<tag k="name" v="Fossli" />
		<tag k="place" v="isolated_dwelling" />
		<tag k="ssr:stedsnr" v="38776" />
	</node>
	<node id="-539640" lat="58.7656638902" lon="8.48391944622">
		<tag k="name" v="Åmli" />
		<tag k="place" v="village" />
		<tag k="ssr:stedsnr" v="304506" />
	</node>
	<node id="-539638" lat="58.7753527777" lon="8.54316111134">
		<tag k="alt_name" v="Granli" />
		<tag k="name" v="Plassen" />
		<tag k="place" v="isolated_dwelling" />
		<tag k="ssr:stedsnr" v="304613" />
	</node>
	<node id="-539637" lat="58.7787805514" lon="8.31933055024">
		<tag k="alt_name" v="Røndalsbua" />
		<tag k="name" v="Raundalsbua" />
		<tag k="place" v="locality" />
		<tag k="ssr:stedsnr" v="304175" />
	</node>
	<node id="-541684" lat="58.8177888861" lon="8.46813332906">
		<tag k="name" v="Espelibu" />
		<tag k="place" v="locality" />
		<tag k="ssr:stedsnr" v="38412" />
	</node>
	<node id="-539633" lat="58.8579888849" lon="8.3375305547">
		<tag k="name" v="Austjordet" />
		<tag k="place" v="farm" />
		<tag k="ssr:stedsnr" v="304107" />
	</node>
	<node id="-539627" lat="58.883852776" lon="8.28415833662">
		<tag k="alt_name" v="Årli, øvre" />
		<tag k="name" v="Øvre Årli" />
		<tag k="place" v="farm" />
		<tag k="ssr:stedsnr" v="304053" />
	</node>
	<node id="-541674" lat="58.7471666707" lon="8.5089777774">
		<tag k="name" v="Åmli hotell" />
		<tag k="ssr:stedsnr" v="32555" />
		<tag k="tourism" v="hotel" />
	</node>
	<node id="-541662" lat="58.7248722197" lon="8.34126943794">
		<tag k="name" v="Heggland" />
		<tag k="place" v="farm" />
		<tag k="ssr:stedsnr" v="32466" />
	</node>
	<node id="-541661" lat="58.7217555581" lon="8.36002500372">
		<tag k="name" v="Eppeland" />
		<tag k="place" v="farm" />
		<tag k="ssr:stedsnr" v="32457" />
	</node>
	<node id="-539607" lat="58.8390500011" lon="8.3570166598">
		<tag k="name" v="Lundvoll" />
		<tag k="place" v="farm" />
		<tag k="ssr:stedsnr" v="463749" />
	</node>
	<node id="-541647" lat="58.6857194432" lon="8.40396667153">
		<tag k="name" v="Lundevoll" />
		<tag k="place" v="farm" />
		<tag k="ssr:stedsnr" v="32274" />
	</node>
	<node id="-539595" lat="58.9457111082" lon="8.2262000065">
		<tag k="name" v="Stemtjønnhytta" />
		<tag k="place" v="isolated_dwelling" />
		<tag k="ssr:stedsnr" v="287453" />
	</node>
	<node id="-541640" lat="58.742663886" lon="8.44541110656">
		<tag k="name" v="Havstad" />
		<tag k="place" v="farm" />
		<tag k="ssr:stedsnr" v="31657" />
	</node>
	<node id="-539584" lat="58.7694861154" lon="8.36839999737">
		<tag k="name" v="Kallingsheim" />
		<tag k="place" v="locality" />
		<tag k="ssr:stedsnr" v="462146" />
	</node>
	<node id="-541630" lat="58.7735444464" lon="8.59332499522">
		<tag k="name" v="Knutebua" />
		<tag k="place" v="locality" />
		<tag k="ssr:stedsnr" v="31382" />
	</node>
	<node id="-539575" lat="58.767194448" lon="8.49464443937">
		<tag k="name" v="Prestegarden" />
		<tag k="place" v="farm" />
		<tag k="ssr:stedsnr" v="274708" />
	</node>
	<node id="-539573" lat="58.7468083304" lon="8.44468055824">
		<tag k="name" v="Båsland" />
		<tag k="place" v="farm" />
		<tag k="ssr:stedsnr" v="274619" />
	</node>
	<node id="-541617" lat="58.6899444428" lon="8.63621943859">
		<tag k="name" v="Øygarden" />
		<tag k="place" v="locality" />
		<tag k="ssr:stedsnr" v="31217" />
	</node>
	<node id="-541612" lat="58.8636055563" lon="8.57765833504">
		<tag k="name" v="Plassen" />
		<tag k="place" v="locality" />
		<tag k="ssr:stedsnr" v="31152" />
	</node>
	<node id="-541611" lat="58.7049972193" lon="8.58619722672">
		<tag k="building" v="industrial" />
		<tag k="industrial" v="factory" />
		<tag k="name" v="Nidarå trelast A/S" />
		<tag k="ssr:stedsnr" v="31148" />
	</node>
	<node id="-539554" lat="58.6651777813" lon="8.38586666636">
		<tag k="name" v="Skrede" />
		<tag k="place" v="farm" />
		<tag k="ssr:stedsnr" v="274302" />
	</node>
	<node id="-541599" lat="58.8503416693" lon="8.58172500544">
		<tag k="name" v="Den gamle plassen" />
		<tag k="place" v="locality" />
		<tag k="ssr:stedsnr" v="31048" />
	</node>
	<node id="-541595" lat="58.8859138905" lon="8.57515832569">
		<tag k="name" v="Lyngmo" />
		<tag k="place" v="isolated_dwelling" />
		<tag k="ssr:stedsnr" v="31022" />
	</node>
	<node id="-539543" lat="58.7150555584" lon="8.63675555455">
		<tag k="name" v="Plassbua" />
		<tag k="place" v="locality" />
		<tag k="ssr:stedsnr" v="457499" />
	</node>
	<node id="-539541" lat="58.7316138875" lon="8.3469583402">
		<tag k="name" v="Støylen" />
		<tag k="place" v="farm" />
		<tag k="ssr:stedsnr" v="457450" />
	</node>
	<node id="-541583" lat="58.9425694456" lon="8.11878055469">
		<tag k="name" v="Storbekkli" />
		<tag k="place" v="isolated_dwelling" />
		<tag k="ssr:stedsnr" v="1911" />
	</node>
	<node id="-539534" lat="58.7124361068" lon="8.36867222386">
		<tag k="name" v="Rostveit" />
		<tag k="place" v="farm" />
		<tag k="ssr:stedsnr" v="457367" />
	</node>
	<node id="-541579" lat="58.6880638887" lon="8.63832222768">
		<tag k="name" v="Myrvang" />
		<tag k="place" v="farm" />
		<tag k="ssr:stedsnr" v="1882" />
	</node>
	<node id="-541578" lat="58.6896333324" lon="8.64420555672">
		<tag k="fixme" v="consider place=hamlet" />
		<tag k="name" v="Kleivane" />
		<tag k="place" v="farm" />
		<tag k="ssr:stedsnr" v="1881" />
	</node>
	<node id="-539523" lat="58.6818416627" lon="8.40151667492">
		<tag k="name" v="Vestigard" />
		<tag k="place" v="farm" />
		<tag k="ssr:stedsnr" v="457233" />
	</node>
	<node id="-541570" lat="58.809680555" lon="8.52152500553">
		<tag k="alt_name" v="Stoa" />
		<tag k="name" v="Ståa" />
		<tag k="place" v="isolated_dwelling" />
		<tag k="ssr:stedsnr" v="1666" />
	</node>
	<node id="-541567" lat="58.9486555535" lon="8.04778888398">
		<tag k="name" v="Rosenhol" />
		<tag k="place" v="locality" />
		<tag k="ssr:stedsnr" v="1654" />
	</node>
	<node id="-541561" lat="58.7278972184" lon="8.2068777741">
		<tag k="name" v="Vågsdalen" />
		<tag k="place" v="isolated_dwelling" />
		<tag k="ssr:stedsnr" v="1503" />
	</node>
	<node id="-539511" lat="58.7391305544" lon="8.44963610724">
		<tag k="name" v="Tjørnbrekk" />
		<tag k="place" v="farm" />
		<tag k="ssr:stedsnr" v="456663" />
	</node>
	<node id="-541558" lat="58.7161749978" lon="8.40159999259">
		<tag k="name" v="Kleiva" />
		<tag k="place" v="locality" />
		<tag k="ssr:stedsnr" v="1492" />
	</node>
	<node id="-539509" lat="58.7494055541" lon="8.4624361052">
		<tag k="name" v="Hagebua" />
		<tag k="place" v="isolated_dwelling" />
		<tag k="ssr:stedsnr" v="456649" />
	</node>
	<node id="-541556" lat="58.7243749971" lon="8.42510278424">
		<tag k="name" v="Smørli" />
		<tag k="place" v="locality" />
		<tag k="ssr:stedsnr" v="1480" />
	</node>
	<node id="-539507" lat="58.7087722217" lon="8.56671666697">
		<tag k="name" v="Fredheim" />
		<tag k="place" v="isolated_dwelling" />
		<tag k="ssr:stedsnr" v="456570" />
	</node>
	<node id="-541554" lat="58.6987395399" lon="8.3495248182">
		<tag k="fixme" v="consider place=hamlet" />
		<tag k="name" v="Innjorda" />
		<tag k="place" v="farm" />
		<tag k="ssr:stedsnr" v="1444" />
	</node>
	<node id="-539505" lat="58.7102583355" lon="8.56742222926">
		<tag k="name" v="Sæter" />
		<tag k="place" v="isolated_dwelling" />
		<tag k="ssr:stedsnr" v="456563" />
	</node>
	<node id="-539504" lat="58.7108055552" lon="8.5926416703">
		<tag k="name" v="Austigard" />
		<tag k="place" v="farm" />
		<tag k="ssr:stedsnr" v="456561" />
	</node>
	<node id="-541546" lat="58.7635194428" lon="8.37591944853">
		<tag k="name" v="Badstoga" />
		<tag k="place" v="isolated_dwelling" />
		<tag k="ssr:stedsnr" v="1227" />
	</node>
	<node id="-541535" lat="58.8684222183" lon="8.19653889371">
		<tag k="alt_name" v="Bjørbu" />
		<tag k="name" v="Bjorbu" />
		<tag k="place" v="isolated_dwelling" />
		<tag k="ssr:stedsnr" v="1027" />
	</node>
	<node id="-541532" lat="58.8748750029" lon="8.30501666013">
		<tag k="name" v="Langvoll" />
		<tag k="place" v="farm" />
		<tag k="ssr:stedsnr" v="1006" />
	</node>
	<node id="-541497" lat="58.7674023137" lon="8.49460250248">
		<tag k="fixme" v="consider place=hamlet" />
		<tag k="name" v="Åmli prestegård" />
		<tag k="place" v="farm" />
		<tag k="ssr:stedsnr" v="971344" />
	</node>
	<node id="-539476" lat="58.8688222179" lon="8.62907777616">
		<tag k="name" v="Berli" />
		<tag k="place" v="isolated_dwelling" />
		<tag k="ssr:stedsnr" v="456186" />
	</node>
	<node id="-541522" lat="58.7591777817" lon="8.53778889666">
		<tag k="name" v="Solvang" />
		<tag k="place" v="farm" />
		<tag k="ssr:stedsnr" v="544" />
	</node>
	<node id="-541513" lat="58.7767638899" lon="8.41395000338">
		<tag k="name" v="Mjåvasstøyl" />
		<tag k="place" v="isolated_dwelling" />
		<tag k="ssr:stedsnr" v="204" />
	</node>
	<node id="-541512" lat="58.8851611133" lon="8.5968194386">
		<tag k="name" v="Hagen" />
		<tag k="place" v="isolated_dwelling" />
		<tag k="ssr:stedsnr" v="459" />
	</node>
	<node id="-541509" lat="58.7401194451" lon="8.44391943891">
		<tag k="name" v="Stangemyr" />
		<tag k="place" v="isolated_dwelling" />
		<tag k="ssr:stedsnr" v="395" />
	</node>
	<node id="-541508" lat="58.8448555589" lon="8.09929166468">
		<tag k="name" v="Nordstog" />
		<tag k="place" v="farm" />
		<tag k="ssr:stedsnr" v="115" />
	</node>
	<node id="-539457" lat="58.9043222228" lon="8.04389165969">
		<tag k="historic" v="shieling" />
		<tag k="name" v="Heststoglia" />
		<tag k="place" v="locality" />
		<tag k="ssr:stedsnr" v="452365" />
	</node>
	<node id="-539456" lat="58.8474972191" lon="8.57332778363">
		<tag k="name" v="Raudåna" />
		<tag k="place" v="isolated_dwelling" />
		<tag k="ssr:stedsnr" v="449171" />
	</node>
	<node id="-541503" lat="58.6324107716" lon="8.40887309394">
		<tag k="fixme" v="consider place=hamlet" />
		<tag k="name" v="Sparhauktveit" />
		<tag k="place" v="farm" />
		<tag k="ssr:stedsnr" v="971353" />
	</node>
	<node id="-541502" lat="58.6773654386" lon="8.54686815736">
		<tag k="fixme" v="consider place=hamlet" />
		<tag k="name" v="Vestre Mosberg" />
		<tag k="place" v="farm" />
		<tag k="ssr:stedsnr" v="971352" />
	</node>
	<node id="-541501" lat="58.6643616277" lon="8.59206941522">
		<tag k="fixme" v="consider place=hamlet" />
		<tag k="name" v="Brattøya" />
		<tag k="place" v="farm" />
		<tag k="ssr:stedsnr" v="971351" />
	</node>
	<node id="-541500" lat="58.6578816013" lon="8.66850392766">
		<tag k="name" v="Vimme" />
		<tag k="place" v="hamlet" />
		<tag k="ssr:stedsnr" v="971348" />
	</node>
	<node id="-541499" lat="58.6873815071" lon="8.6764093165">
		<tag k="fixme" v="consider place=hamlet" />
		<tag k="name" v="Svinåsen" />
		<tag k="place" v="farm" />
		<tag k="ssr:stedsnr" v="971346" />
	</node>
	<node id="-541498" lat="58.7662606662" lon="8.53058952633">
		<tag k="fixme" v="consider place=hamlet" />
		<tag k="name" v="Tveit" />
		<tag k="place" v="farm" />
		<tag k="ssr:stedsnr" v="971345" />
	</node>
	<node id="-539449" lat="58.8307249963" lon="8.40490555234">
		<tag k="alt_name" v="Ut-på Øygarden;Ødegaarden" />
		<tag k="name" v="Øygarden" />
		<tag k="place" v="farm" />
		<tag k="ssr:stedsnr" v="244168" />
	</node>
	<node id="-541496" lat="58.8333263576" lon="8.3987649679">
		<tag k="fixme" v="consider place=hamlet" />
		<tag k="name" v="Homdrum" />
		<tag k="place" v="farm" />
		<tag k="ssr:stedsnr" v="971341" />
	</node>
	<node id="-541492" lat="58.7992940339" lon="7.99832674166">
		<tag k="fixme" v="consider place=hamlet" />
		<tag k="name" v="Tveitli" />
		<tag k="place" v="farm" />
		<tag k="ssr:stedsnr" v="971335" />
	</node>
	<node id="-541494" lat="58.8784182673" lon="8.2093962118">
		<tag k="fixme" v="consider place=hamlet" />
		<tag k="name" v="Hågestøl" />
		<tag k="place" v="farm" />
		<tag k="ssr:stedsnr" v="971339" />
	</node>
	<node id="-541493" lat="58.7972618273" lon="8.22312336359">
		<tag k="fixme" v="consider place=hamlet" />
		<tag k="name" v="Øvre Ramse" />
		<tag k="place" v="farm" />
		<tag k="ssr:stedsnr" v="971336" />
	</node>
	<node id="-539444" lat="58.7421805591" lon="8.52395276964">
		<tag k="name" v="Reklia" />
		<tag k="place" v="isolated_dwelling" />
		<tag k="ssr:stedsnr" v="244024" />
	</node>
	<node id="-541491" lat="58.791650934" lon="8.02690234888">
		<tag k="fixme" v="consider place=hamlet" />
		<tag k="name" v="Øvre Skjeggedal" />
		<tag k="place" v="farm" />
		<tag k="ssr:stedsnr" v="971334" />
	</node>
	<node id="-539441" lat="58.7555749975" lon="8.07638611101">
		<tag k="name" v="Høgeli" />
		<tag k="place" v="farm" />
		<tag k="ssr:stedsnr" v="243855" />
	</node>
	<node id="-539438" lat="58.6703388907" lon="8.70740277407">
		<tag k="name" v="Myrli" />
		<tag k="place" v="farm" />
		<tag k="ssr:stedsnr" v="243964" />
	</node>
	<node id="-539431" lat="58.8587527797" lon="8.51196943927">
		<tag k="alt_name" v="Øvre Helleren" />
		<tag k="name" v="Helleren" />
		<tag k="place" v="isolated_dwelling" />
		<tag k="ssr:stedsnr" v="243753" />
	</node>
	<node id="-539430" lat="58.7656194454" lon="8.55391944059">
		<tag k="name" v="Espeland" />
		<tag k="place" v="farm" />
		<tag k="ssr:stedsnr" v="243516" />
	</node>
	<node id="-539428" lat="58.7216666698" lon="8.40251110557">
		<tag k="fixme" v="consider place=hamlet" />
		<tag k="name" v="Tviland" />
		<tag k="place" v="farm" />
		<tag k="ssr:stedsnr" v="243471" />
	</node>
	<node id="-539427" lat="58.7193478406" lon="8.35337423191">
		<tag k="name" v="Skardmyr" />
		<tag k="place" v="farm" />
		<tag k="ssr:stedsnr" v="243468" />
	</node>
	<node id="-541473" lat="58.7957277795" lon="8.22636111661">
		<tag k="name" v="Livoll" />
		<tag k="place" v="farm" />
		<tag k="ssr:stedsnr" v="961917" />
	</node>
	<node id="-539422" lat="58.7860694445" lon="8.2356916701">
		<tag k="name" v="Lunden" />
		<tag k="place" v="farm" />
		<tag k="ssr:stedsnr" v="243218" />
	</node>
	<node id="-539415" lat="58.8997166704" lon="8.32287221883">
		<tag k="name" v="Måvasstøyl" />
		<tag k="place" v="isolated_dwelling" />
		<tag k="ssr:stedsnr" v="243028" />
	</node>
	<node id="-541455" lat="58.7537305583" lon="8.36699166282">
		<tag k="name" v="Kvitterli" />
		<tag k="place" v="locality" />
		<tag k="ssr:stedsnr" v="961403" />
	</node>
	<node id="-539400" lat="58.9299027765" lon="8.03704443881">
		<tag k="name" v="Badstoga" />
		<tag k="place" v="isolated_dwelling" />
		<tag k="ssr:stedsnr" v="231163" />
	</node>
	<node id="-539395" lat="58.9111666635" lon="8.1406138805">
		<tag k="name" v="Trongedalshytta" />
		<tag k="place" v="isolated_dwelling" />
		<tag k="ssr:stedsnr" v="227324" />
	</node>
	<node id="-540459" lat="58.9385972264" lon="8.20275000314">
		<tag k="name" v="Stebua" />
		<tag k="place" v="locality" />
		<tag k="ssr:stedsnr" v="718148" />
	</node>
	<node id="-541434" lat="58.6829972257" lon="8.40498055171">
		<tag k="fixme" v="consider place=hamlet" />
		<tag k="name" v="Vehus" />
		<tag k="place" v="farm" />
		<tag k="ssr:stedsnr" v="911319" />
	</node>
	<node id="-541433" lat="58.7605999981" lon="8.3847861026">
		<tag k="name" v="Napen" />
		<tag k="place" v="isolated_dwelling" />
		<tag k="ssr:stedsnr" v="911313" />
	</node>
	<node id="-541431" lat="58.7756500027" lon="8.23043055469">
		<tag k="name" v="Ramsesaga" />
		<tag k="place" v="locality" />
		<tag k="ssr:stedsnr" v="911268" />
	</node>
	<node id="-539381" lat="58.6797277779" lon="8.43178056141">
		<tag k="name" v="Stigbua" />
		<tag k="place" v="locality" />
		<tag k="ssr:stedsnr" v="214216" />
	</node>
	<node id="-539380" lat="58.6950944473" lon="8.50396666508">
		<tag k="name" v="Fermland" />
		<tag k="place" v="locality" />
		<tag k="ssr:stedsnr" v="214410" />
	</node>
	<node id="-539372" lat="58.8844194433" lon="8.59364444585">
		<tag k="name" v="Solmo" />
		<tag k="place" v="isolated_dwelling" />
		<tag k="ssr:stedsnr" v="213026" />
	</node>
	<node id="-541417" lat="58.858349998" lon="8.46893611464">
		<tag k="name" v="Svanlihytta" />
		<tag k="place" v="isolated_dwelling" />
		<tag k="ssr:stedsnr" v="901661" />
	</node>
	<node id="-539355" lat="58.7626777822" lon="8.42772499409">
		<tag k="name" v="Breivik" />
		<tag k="place" v="locality" />
		<tag k="ssr:stedsnr" v="294858" />
	</node>
	<node id="-542159" lat="58.7366805565" lon="8.4609472266">
		<tag k="name" v="Kringlebakk" />
		<tag k="place" v="farm" />
		<tag k="ssr:stedsnr" v="153687" />
	</node>
	<node id="-541476" lat="58.7740194413" lon="8.41856110725">
		<tag k="name" v="Mjåvasstoga" />
		<tag k="place" v="isolated_dwelling" />
		<tag k="ssr:stedsnr" v="961854" />
	</node>
	<node id="-541398" lat="58.8490694409" lon="8.26722221433">
		<tag k="name" v="Suggebu" />
		<tag k="place" v="isolated_dwelling" />
		<tag k="ssr:stedsnr" v="901357" />
	</node>
	<node id="-539348" lat="58.7691555532" lon="8.04701389604">
		<tag k="name" v="Storebu" />
		<tag k="place" v="locality" />
		<tag k="ssr:stedsnr" v="294758" />
	</node>
	<node id="-539307" lat="58.9144333289" lon="8.28835832752">
		<tag k="name" v="Nybu" />
		<tag k="place" v="locality" />
		<tag k="ssr:stedsnr" v="294256" />
	</node>
	<node id="-539303" lat="58.7962083347" lon="8.49364722356">
		<tag k="name" v="Grasnes" />
		<tag k="place" v="farm" />
		<tag k="ssr:stedsnr" v="294104" />
	</node>
	<node id="-541349" lat="58.6288611103" lon="8.72259444677">
		<tag k="fixme" v="consider place=hamlet" />
		<tag k="name" v="Imeland" />
		<tag k="place" v="farm" />
		<tag k="ssr:stedsnr" v="851767" />
	</node>
	<node id="-539296" lat="58.8822472188" lon="8.25500278429">
		<tag k="name" v="Lauvfok" />
		<tag k="place" v="farm" />
		<tag k="ssr:stedsnr" v="294003" />
	</node>
	<node id="-539292" lat="58.7526666635" lon="8.08105278183">
		<tag k="name" v="Støylsjorde" />
		<tag k="place" v="locality" />
		<tag k="ssr:stedsnr" v="293867" />
	</node>
	<node id="-541495" lat="58.8727458639" lon="8.30533395134">
		<tag k="fixme" v="consider place=hamlet" />
		<tag k="name" v="Askland" />
		<tag k="place" v="farm" />
		<tag k="ssr:stedsnr" v="971340" />
	</node>
	<node id="-539266" lat="58.7985055525" lon="7.99946388074">
		<tag k="name" v="Tveitli" />
		<tag k="place" v="isolated_dwelling" />
		<tag k="ssr:stedsnr" v="183806" />
	</node>
	<node id="-539262" lat="58.6780916665" lon="8.71254721585">
		<tag k="name" v="Kleiva" />
		<tag k="place" v="isolated_dwelling" />
		<tag k="ssr:stedsnr" v="182903" />
	</node>
	<node id="-541308" lat="58.6888916702" lon="8.69667499958">
		<tag k="amenity" v="school" />
		<tag k="name" v="Porskil skule" />
		<tag k="ssr:stedsnr" v="942617" />
	</node>
	<node id="-541305" lat="58.8884499982" lon="8.27114166377">
		<tag k="name" v="Furulund" />
		<tag k="place" v="farm" />
		<tag k="ssr:stedsnr" v="850024" />
	</node>
	<node id="-541302" lat="58.6941083371" lon="8.58854722951">
		<tag k="name" v="Øyna" />
		<tag k="place" v="farm" />
		<tag k="ssr:stedsnr" v="942582" />
	</node>
	<node id="-541301" lat="58.7034249976" lon="8.60204999789">
		<tag k="name" v="Steinsland" />
		<tag k="place" v="farm" />
		<tag k="ssr:stedsnr" v="942578" />
	</node>
	<node id="-541297" lat="58.7075472191" lon="8.5665277828">
		<tag k="name" v="Fossund" />
>>>>>>> e1d4bc35ff8a6074a6f2e91616a996b547c36f15
		<tag k="place" v="isolated_dwelling" />
		<tag k="ssr:stedsnr" v="364926" />
	</node>
<<<<<<< HEAD
	<node lat="58.87506111365677" lon="8.301666663251837" id="-21953">
		<tag k="name" v="Kvernhusbakken" />
		<tag k="place" v="farm" />
		<tag k="ssr:stedsnr" v="365003" />
	</node>
	<node lat="58.88408333516984" lon="8.241436103365622" id="-21956">
		<tag k="name" v="Austigard" />
		<tag k="place" v="farm" />
		<tag k="ssr:stedsnr" v="365052" />
	</node>
	<node lat="58.787987107822595" lon="8.469862178789048" id="-21972">
		<tag k="name" v="Røyvoll" />
=======
	<node id="-539235" lat="58.9130972197" lon="8.19481666692">
		<tag k="name" v="Ørnebu" />
		<tag k="place" v="locality" />
		<tag k="ssr:stedsnr" v="280209" />
	</node>
	<node id="-541279" lat="58.6820611126" lon="8.54062222543">
		<tag k="name" v="Svalehommen" />
>>>>>>> e1d4bc35ff8a6074a6f2e91616a996b547c36f15
		<tag k="place" v="locality" />
		<tag k="ssr:stedsnr" v="365644" />
	</node>
<<<<<<< HEAD
	<node lat="58.85342500164451" lon="8.66293056303214" id="-21977">
		<tag k="name" v="Gjerliplassen" />
=======
	<node id="-541276" lat="58.693722218" lon="8.47001944693">
		<tag k="name" v="Bjørkholtbuene" />
		<tag k="old_name" v="Bjørkholttbuene" />
>>>>>>> e1d4bc35ff8a6074a6f2e91616a996b547c36f15
		<tag k="place" v="locality" />
		<tag k="ssr:stedsnr" v="365745" />
	</node>
<<<<<<< HEAD
	<node lat="58.79210277609338" lon="8.142672229789085" id="-21979">
		<tag k="historic" v="shieling" />
		<tag k="name" v="Mågestøyl" />
		<tag k="place" v="isolated_dwelling" />
		<tag k="ssr:stedsnr" v="546148" />
	</node>
	<node lat="58.757927775466676" lon="8.474922219516406" id="-21990">
		<tag k="name" v="Engenesstoa" />
		<tag k="place" v="quarter" />
		<tag k="ssr:stedsnr" v="395236" />
	</node>
	<node lat="58.70557500248925" lon="8.619233330749612" id="-22013">
		<tag k="building" v="commercial" />
		<tag k="name" v="Simonstad bruk" />
		<tag k="ssr:stedsnr" v="396504" />
	</node>
	<node lat="58.70737778066713" lon="8.60796388168126" id="-22015">
		<tag k="name" v="Lien" />
		<tag k="place" v="farm" />
		<tag k="ssr:stedsnr" v="396512" />
	</node>
	<node lat="58.777591003555436" lon="8.159914878715274" id="-22039">
		<tag k="name" v="Skredløa" />
		<tag k="place" v="locality" />
		<tag k="ssr:stedsnr" v="486246" />
	</node>
	<node lat="58.8896527799476" lon="8.253622227396805" id="-22042">
		<tag k="name" v="Fjellsenden" />
		<tag k="place" v="farm" />
		<tag k="ssr:stedsnr" v="486027" />
	</node>
	<node lat="58.70478333638426" lon="8.567316659607311" id="-22044">
		<tag k="name" v="Fossnes" />
		<tag k="place" v="farm" />
		<tag k="ssr:stedsnr" v="486072" />
	</node>
	<node lat="58.86652777914781" lon="8.326624998518211" id="-22050">
		<tag k="name" v="Kleivane" />
		<tag k="place" v="farm" />
		<tag k="ssr:stedsnr" v="486084" />
	</node>
	<node lat="58.750080554298385" lon="8.323430547567373" id="-22069">
		<tag k="name" v="Nauthom" />
=======
	<node id="-541259" lat="58.6694861078" lon="8.41999443609">
		<tag k="name" v="Stemvassbua" />
		<tag k="place" v="locality" />
		<tag k="ssr:stedsnr" v="942240" />
	</node>
	<node id="-541252" lat="58.6872055538" lon="8.64477500678">
		<tag k="name" v="Bruvoll" />
>>>>>>> e1d4bc35ff8a6074a6f2e91616a996b547c36f15
		<tag k="place" v="isolated_dwelling" />
		<tag k="ssr:stedsnr" v="486312" />
	</node>
<<<<<<< HEAD
	<node lat="58.7495749976267" lon="8.183686105974338" id="-22070">
		<tag k="alt_name" v="Tjerandslia" />
		<tag k="name" v="Tjerandli" />
		<tag k="place" v="isolated_dwelling" />
		<tag k="ssr:stedsnr" v="486320" />
	</node>
	<node lat="58.753588893343434" lon="8.304483325632383" id="-22071">
		<tag k="fixme" v="consider place=hamlet" />
		<tag k="name" v="Håkedal" />
		<tag k="place" v="farm" />
		<tag k="ssr:stedsnr" v="486334" />
	</node>
	<node lat="58.88912335616585" lon="8.586366428666901" id="-22075">
		<tag k="alt_name" v="Moen" />
		<tag k="name" v="Monen" />
		<tag k="place" v="farm" />
		<tag k="ssr:stedsnr" v="486476" />
	</node>
	<node lat="58.872608331165" lon="8.301936103508197" id="-22082">
		<tag k="fixme" v="consider place=hamlet" />
		<tag k="name" v="Askland" />
		<tag k="place" v="village" />
		<tag k="ssr:stedsnr" v="547039" />
	</node>
	<node lat="58.82984444092637" lon="8.58914167256787" id="-22088">
		<tag k="fixme" v="consider place=hamlet" />
		<tag k="name" v="Fiskvatn" />
		<tag k="place" v="farm" />
		<tag k="ssr:stedsnr" v="486650" />
	</node>
	<node lat="58.643391667144435" lon="8.678994441251206" id="-22109">
		<tag k="name" v="Flaten" />
		<tag k="place" v="farm" />
		<tag k="ssr:stedsnr" v="486984" />
	</node>
	<node lat="58.77466111344128" lon="8.433755561590571" id="-22145">
		<tag k="name" v="Høydalsbua" />
		<tag k="place" v="locality" />
		<tag k="ssr:stedsnr" v="415888" />
	</node>
	<node lat="58.84242777823501" lon="8.100099994851922" id="-22159">
		<tag k="name" v="Negard" />
		<tag k="place" v="farm" />
		<tag k="ssr:stedsnr" v="425099" />
	</node>
	<node lat="58.79497222407071" lon="8.231866667470241" id="-22163">
		<tag k="name" v="Berdalen" />
=======
	<node id="-539192" lat="58.7364111111" lon="8.53108889714">
		<tag k="name" v="Plassen" />
		<tag k="place" v="locality" />
		<tag k="ssr:stedsnr" v="274727" />
	</node>
	<node id="-541229" lat="58.8598138897" lon="8.57464444103">
		<tag k="name" v="Sundsli" />
		<tag k="place" v="locality" />
		<tag k="ssr:stedsnr" v="942043" />
	</node>
	<node id="-541228" lat="58.9043555599" lon="8.55986388139">
		<tag k="name" v="Slettheim" />
		<tag k="place" v="isolated_dwelling" />
		<tag k="ssr:stedsnr" v="942038" />
	</node>
	<node id="-541227" lat="58.905488888" lon="8.55751667153">
		<tag k="name" v="Lund" />
		<tag k="place" v="isolated_dwelling" />
		<tag k="ssr:stedsnr" v="942036" />
	</node>
	<node id="-539177" lat="58.7663222257" lon="8.54530278078">
		<tag k="name" v="Svinåsen" />
>>>>>>> e1d4bc35ff8a6074a6f2e91616a996b547c36f15
		<tag k="place" v="farm" />
		<tag k="ssr:stedsnr" v="425156" />
	</node>
<<<<<<< HEAD
	<node lat="58.674357152554265" lon="8.37348989899928" id="-22164">
		<tag k="name" v="Austadplassen" />
=======
	<node id="-539175" lat="58.7611166644" lon="8.5331888918">
		<tag k="name" v="Sørgard" />
>>>>>>> e1d4bc35ff8a6074a6f2e91616a996b547c36f15
		<tag k="place" v="farm" />
		<tag k="ssr:stedsnr" v="425304" />
	</node>
<<<<<<< HEAD
	<node lat="58.678875000108555" lon="8.725994443457433" id="-22169">
		<tag k="name" v="Vassenden" />
		<tag k="place" v="farm" />
		<tag k="ssr:stedsnr" v="425908" />
	</node>
	<node lat="58.83938333027767" lon="8.359752784984758" id="-22172">
		<tag k="name" v="Negard" />
		<tag k="place" v="farm" />
		<tag k="ssr:stedsnr" v="426092" />
	</node>
	<node lat="58.70196388892032" lon="8.601088893361124" id="-22174">
		<tag k="name" v="Elvestad" />
		<tag k="place" v="farm" />
		<tag k="ssr:stedsnr" v="426094" />
	</node>
	<node lat="58.88286666291665" lon="8.236969442576418" id="-22176">
		<tag k="fixme" v="consider place=hamlet" />
		<tag k="name" v="Mjåland" />
		<tag k="place" v="farm" />
		<tag k="ssr:stedsnr" v="426048" />
	</node>
	<node lat="58.766336114072345" lon="8.258538895343289" id="-22177">
		<tag k="alt_name" v="Nygard" />
		<tag k="name" v="Nygård" />
		<tag k="place" v="farm" />
		<tag k="ssr:stedsnr" v="426204" />
	</node>
	<node lat="58.73465000280155" lon="8.525333325720762" id="-22179">
		<tag k="name" v="Kløvfjell" />
		<tag k="place" v="farm" />
		<tag k="ssr:stedsnr" v="426109" />
	</node>
	<node lat="58.758752780947844" lon="8.41072500099174" id="-22183">
		<tag k="name" v="Vestre Fiskvatn" />
		<tag k="place" v="farm" />
		<tag k="ssr:stedsnr" v="426299" />
	</node>
	<node lat="58.86446734149635" lon="8.626076322107961" id="-22188">
		<tag k="name" v="Berli" />
=======
	<node id="-539164" lat="58.8723611127" lon="8.65431389543">
		<tag k="name" v="Birtestoga" />
		<tag k="place" v="isolated_dwelling" />
		<tag k="ssr:stedsnr" v="274148" />
	</node>
	<node id="-539140" lat="58.710050002" lon="8.28083332813">
		<tag k="name" v="Saga" />
		<tag k="place" v="locality" />
		<tag k="ssr:stedsnr" v="112606" />
	</node>
	<node id="-541183" lat="58.679355555" lon="8.37304445282">
		<tag k="alt_name" v="Moen" />
		<tag k="name" v="Monen" />
>>>>>>> e1d4bc35ff8a6074a6f2e91616a996b547c36f15
		<tag k="place" v="farm" />
		<tag k="ssr:stedsnr" v="426704" />
	</node>
<<<<<<< HEAD
	<node lat="58.689897226256086" lon="8.672080561105405" id="-22192">
		<tag k="name" v="Sørdal" />
		<tag k="place" v="farm" />
		<tag k="ssr:stedsnr" v="426897" />
	</node>
	<node lat="58.906941666309464" lon="8.398722223353234" id="-22198">
		<tag k="name" v="Røykstoga" />
		<tag k="place" v="isolated_dwelling" />
		<tag k="ssr:stedsnr" v="426985" />
	</node>
	<node lat="58.847497219117244" lon="8.573327783634248" id="-22200">
		<tag k="name" v="Raudåna" />
		<tag k="place" v="isolated_dwelling" />
		<tag k="ssr:stedsnr" v="449171" />
	</node>
	<node lat="58.90432222283468" lon="8.043891659694637" id="-22201">
		<tag k="historic" v="shieling" />
		<tag k="name" v="Heststoglia" />
=======
	<node id="-541180" lat="58.7323000021" lon="8.53381945262">
		<tag k="name" v="Harnes" />
		<tag k="place" v="locality" />
		<tag k="ssr:stedsnr" v="821671" />
	</node>
	<node id="-539130" lat="58.9062305513" lon="8.27942778518">
		<tag k="name" v="Stedjan" />
		<tag k="place" v="locality" />
		<tag k="ssr:stedsnr" v="112303" />
	</node>
	<node id="-541176" lat="58.6446194422" lon="8.71424999643">
		<tag k="name" v="Ospelundsplass" />
		<tag k="place" v="locality" />
		<tag k="ssr:stedsnr" v="821609" />
	</node>
	<node id="-541173" lat="58.6516472222" lon="8.688805555">
		<tag k="name" v="Skogly" />
>>>>>>> e1d4bc35ff8a6074a6f2e91616a996b547c36f15
		<tag k="place" v="isolated_dwelling" />
		<tag k="ssr:stedsnr" v="452365" />
	</node>
<<<<<<< HEAD
	<node lat="58.86777499999323" lon="8.586858335508666" id="-22212">
		<tag k="name" v="Librakka" />
		<tag k="place" v="isolated_dwelling" />
		<tag k="ssr:stedsnr" v="456169" />
	</node>
	<node lat="58.87465555162777" lon="8.565647221749163" id="-22213">
		<tag k="name" v="Svallbua" />
		<tag k="place" v="locality" />
		<tag k="ssr:stedsnr" v="456174" />
	</node>
	<node lat="58.710805555226365" lon="8.592641670296793" id="-22218">
		<tag k="name" v="Austigard" />
=======
	<node id="-541172" lat="58.6542611072" lon="8.6932277693">
		<tag k="amenity" v="school" />
		<tag k="name" v="Flaten skule" />
		<tag k="ssr:stedsnr" v="821512" />
	</node>
	<node id="-539107" lat="58.8334250024" lon="8.39852500451">
		<tag k="name" v="Oppigard" />
>>>>>>> e1d4bc35ff8a6074a6f2e91616a996b547c36f15
		<tag k="place" v="farm" />
		<tag k="ssr:stedsnr" v="456561" />
	</node>
<<<<<<< HEAD
	<node lat="58.710340259590204" lon="8.567338670230475" id="-22219">
		<tag k="name" v="Sæter" />
		<tag k="place" v="farm" />
		<tag k="ssr:stedsnr" v="456563" />
	</node>
	<node lat="58.709616281547426" lon="8.603401063171493" id="-22220">
		<tag k="name" v="Skogen" />
		<tag k="place" v="farm" />
		<tag k="ssr:stedsnr" v="456569" />
	</node>
	<node lat="58.708772221717986" lon="8.566716666970176" id="-22221">
		<tag k="name" v="Fredheim" />
=======
	<node id="-539106" lat="58.813197222" lon="8.41451111269">
		<tag k="name" v="Haugestøylen" />
		<tag k="place" v="isolated_dwelling" />
		<tag k="ssr:stedsnr" v="99423" />
	</node>
	<node id="-539091" lat="58.6905555534" lon="8.69154721673">
		<tag k="name" v="Solvang" />
>>>>>>> e1d4bc35ff8a6074a6f2e91616a996b547c36f15
		<tag k="place" v="farm" />
		<tag k="ssr:stedsnr" v="456570" />
	</node>
<<<<<<< HEAD
	<node lat="58.71967777616767" lon="8.343949993136409" id="-22230">
		<tag k="name" v="Skarli" />
		<tag k="place" v="farm" />
		<tag k="ssr:stedsnr" v="457473" />
	</node>
	<node lat="58.71243610675659" lon="8.368672223861632" id="-22232">
		<tag k="name" v="Rostveit" />
=======
	<node id="-541138" lat="58.7698277797" lon="8.61740277697">
		<tag k="name" v="Mjåvasstoga" />
		<tag k="place" v="locality" />
		<tag k="ssr:stedsnr" v="820006" />
	</node>
	<node id="-541137" lat="58.8713138883" lon="8.05176943836">
		<tag k="fixme" v="consider place=hamlet" />
		<tag k="name" v="Dale" />
>>>>>>> e1d4bc35ff8a6074a6f2e91616a996b547c36f15
		<tag k="place" v="farm" />
		<tag k="ssr:stedsnr" v="457367" />
	</node>
<<<<<<< HEAD
	<node lat="58.83057500007811" lon="8.101538891220406" id="-22258">
		<tag k="name" v="Haugen" />
=======
	<node id="-541135" lat="58.8701527821" lon="8.30736111905">
		<tag k="name" v="Vollen" />
>>>>>>> e1d4bc35ff8a6074a6f2e91616a996b547c36f15
		<tag k="place" v="farm" />
		<tag k="ssr:stedsnr" v="474908" />
	</node>
<<<<<<< HEAD
	<node lat="58.86878055658126" lon="8.325513888224222" id="-22310">
		<tag k="name" v="Hagen" />
		<tag k="place" v="farm" />
		<tag k="ssr:stedsnr" v="486012" />
	</node>
	<node lat="58.73893780947837" lon="8.456444445305795" id="-22321">
		<tag k="name" v="Bakken" />
=======
	<node id="-539083" lat="58.6328944403" lon="8.40931389721">
		<tag k="alt_name" v="Sparåtveit" />
		<tag k="name" v="Sparhaugtveit" />
		<tag k="place" v="locality" />
		<tag k="ssr:stedsnr" v="244368" />
	</node>
	<node id="-539082" lat="58.7558333299" lon="8.4519111128">
		<tag k="name" v="Engenes" />
>>>>>>> e1d4bc35ff8a6074a6f2e91616a996b547c36f15
		<tag k="place" v="farm" />
		<tag k="ssr:stedsnr" v="486407" />
	</node>
<<<<<<< HEAD
	<node lat="58.73202500343446" lon="8.433688893450515" id="-22326">
		<tag k="fixme" v="consider place=hamlet" />
		<tag k="name" v="Tverrstøyl" />
=======
	<node id="-541129" lat="58.669591664" lon="8.63909721741">
		<tag k="name" v="Hushovd" />
>>>>>>> e1d4bc35ff8a6074a6f2e91616a996b547c36f15
		<tag k="place" v="farm" />
		<tag k="ssr:stedsnr" v="486505" />
	</node>
<<<<<<< HEAD
	<node lat="58.759881999531224" lon="8.635108105992463" id="-22327">
		<tag k="name" v="Dalane" />
=======
	<node id="-539079" lat="58.8109527757" lon="8.24837221986">
		<tag k="name" v="Lokkeli" />
>>>>>>> e1d4bc35ff8a6074a6f2e91616a996b547c36f15
		<tag k="place" v="isolated_dwelling" />
		<tag k="ssr:stedsnr" v="486555" />
	</node>
<<<<<<< HEAD
	<node lat="58.75543055683415" lon="8.51076943832565" id="-22328">
		<tag k="name" v="Valle" />
		<tag k="place" v="farm" />
		<tag k="ssr:stedsnr" v="486556" />
	</node>
	<node lat="58.697180557436944" lon="8.617072229663533" id="-22331">
		<tag k="name" v="Fiskådalen" />
=======
	<node id="-539078" lat="58.8090555518" lon="8.17444167498">
		<tag k="name" v="Plassen" />
>>>>>>> e1d4bc35ff8a6074a6f2e91616a996b547c36f15
		<tag k="place" v="isolated_dwelling" />
		<tag k="ssr:stedsnr" v="486905" />
	</node>
<<<<<<< HEAD
	<node lat="58.94591111074596" lon="8.20073055207447" id="-22333">
		<tag k="name" v="Rindebakk" />
		<tag k="place" v="farm" />
		<tag k="ssr:stedsnr" v="486961" />
	</node>
	<node lat="58.890930555863505" lon="8.55846667277376" id="-22337">
		<tag k="name" v="Sagmo" />
=======
	<node id="-539073" lat="58.8679388909" lon="8.10923888456">
		<tag k="name" v="Toskestøyl" />
>>>>>>> e1d4bc35ff8a6074a6f2e91616a996b547c36f15
		<tag k="place" v="isolated_dwelling" />
		<tag k="ssr:stedsnr" v="517025" />
	</node>
<<<<<<< HEAD
	<node lat="58.88305290350583" lon="8.581971554783825" id="-22342">
		<tag k="name" v="Alfheim" />
		<tag k="place" v="farm" />
		<tag k="ssr:stedsnr" v="517126" />
	</node>
	<node lat="58.67417777333339" lon="8.71352778086973" id="-22361">
		<tag k="name" v="Hestås" />
		<tag k="place" v="farm" />
		<tag k="ssr:stedsnr" v="517507" />
	</node>
	<node lat="58.7089194463244" lon="8.588519449322638" id="-22370">
		<tag k="name" v="Haugen" />
		<tag k="place" v="farm" />
		<tag k="ssr:stedsnr" v="517573" />
	</node>
	<node lat="58.730824999147956" lon="8.533888886921966" id="-22373">
		<tag k="name" v="Gamle Harnes" />
		<tag k="place" v="locality" />
		<tag k="ssr:stedsnr" v="517665" />
	</node>
	<node lat="58.65038888795399" lon="8.722280558186728" id="-22384">
		<tag k="name" v="Vestre Furland" />
		<tag k="place" v="locality" />
		<tag k="ssr:stedsnr" v="529977" />
	</node>
	<node lat="58.76056666723393" lon="8.004072214101866" id="-22421">
		<tag k="historic" v="shieling" />
		<tag k="name" v="Totneset" />
		<tag k="place" v="isolated_dwelling" />
		<tag k="ssr:stedsnr" v="536990" />
	</node>
	<node lat="58.87122778183803" lon="8.212730547776262" id="-22424">
		<tag k="name" v="Storetjønnhytta" />
		<tag k="place" v="isolated_dwelling" />
		<tag k="ssr:stedsnr" v="537220" />
	</node>
	<node lat="58.85373611277633" lon="8.29801110826298" id="-22445">
=======
	<node id="-539071" lat="58.6564888885" lon="8.63328610683">
		<tag k="fixme" v="consider place=suburb, village or hamlet" />
		<tag k="name" v="Nelaug" />
		<tag k="place" v="quarter" />
		<tag k="ssr:stedsnr" v="243942" />
	</node>
	<node id="-541110" lat="58.7908499958" lon="8.23119166427">
		<tag k="name" v="Storemyr" />
		<tag k="place" v="farm" />
		<tag k="ssr:stedsnr" v="789158" />
	</node>
	<node id="-539061" lat="58.8451472204" lon="8.65907499186">
		<tag k="alt_name" v="Katerås" />
>>>>>>> e1d4bc35ff8a6074a6f2e91616a996b547c36f15
		<tag k="fixme" v="consider place=hamlet" />
		<tag k="name" v="Landsverk" />
		<tag k="place" v="farm" />
		<tag k="ssr:stedsnr" v="546102" />
	</node>
<<<<<<< HEAD
	<node lat="58.85676388826026" lon="8.335308340773128" id="-22448">
=======
	<node id="-539055" lat="58.8104333311" lon="8.47478611709">
>>>>>>> e1d4bc35ff8a6074a6f2e91616a996b547c36f15
		<tag k="fixme" v="consider place=hamlet" />
		<tag k="name" v="Harstveit" />
		<tag k="place" v="farm" />
<<<<<<< HEAD
		<tag k="ssr:stedsnr" v="546128" />
	</node>
	<node lat="58.84010555171006" lon="8.30491665909629" id="-22472">
		<tag k="fixme" v="multiple name tags, choose one and add the other to alt_name" />
		<tag k="name" v="Tjørnestveit;Kynnestveit" />
		<tag k="place" v="isolated_dwelling" />
		<tag k="ssr:stedsnr" v="547082" />
	</node>
	<node lat="58.768605551586795" lon="8.256180547039849" id="-22476">
		<tag k="alt_name" v="Ramse ytre;Ramse, yt" />
=======
		<tag k="ssr:stedsnr" v="243667" />
	</node>
	<node id="-539046" lat="58.7803499962" lon="8.25971389381">
>>>>>>> e1d4bc35ff8a6074a6f2e91616a996b547c36f15
		<tag k="fixme" v="consider place=hamlet" />
		<tag k="name" v="Ytre Ramse" />
		<tag k="place" v="farm" />
		<tag k="ssr:stedsnr" v="547227" />
	</node>
<<<<<<< HEAD
	<node lat="58.71484990617003" lon="8.46111717321619" id="-22483">
		<tag k="name" v="Nordli" />
		<tag k="place" v="farm" />
		<tag k="ssr:stedsnr" v="547517" />
	</node>
	<node lat="58.69633611002427" lon="8.585038883666053" id="-22491">
		<tag k="name" v="Odden" />
		<tag k="place" v="farm" />
		<tag k="ssr:stedsnr" v="547907" />
	</node>
	<node lat="58.85330277512972" lon="8.53194721547428" id="-22504">
		<tag k="historic" v="shieling" />
		<tag k="name" v="Nedre Helleren" />
		<tag k="place" v="isolated_dwelling" />
		<tag k="ssr:stedsnr" v="577049" />
	</node>
	<node lat="58.87692777847077" lon="8.218841664843055" id="-22565">
		<tag k="name" v="Lisletjønnhytta" />
		<tag k="place" v="isolated_dwelling" />
		<tag k="ssr:stedsnr" v="597009" />
	</node>
	<node lat="58.86911666625086" lon="8.192947216392804" id="-22575">
		<tag k="name" v="Barlindhaugen" />
		<tag k="place" v="isolated_dwelling" />
		<tag k="ssr:stedsnr" v="597261" />
	</node>
	<node lat="58.87244999835576" lon="8.306974994076722" id="-22651">
		<tag k="name" v="Bakkane" />
=======
	<node id="-539044" lat="58.7776777778" lon="8.17309721682">
		<tag k="name" v="Hillestadløa" />
		<tag k="place" v="locality" />
		<tag k="ssr:stedsnr" v="243230" />
	</node>
	<node id="-539043" lat="58.7958777814" lon="8.22494444314">
		<tag k="name" v="Bujord" />
>>>>>>> e1d4bc35ff8a6074a6f2e91616a996b547c36f15
		<tag k="place" v="farm" />
		<tag k="ssr:stedsnr" v="607003" />
	</node>
<<<<<<< HEAD
	<node lat="58.86930000340409" lon="8.30733055804443" id="-22654">
		<tag k="alt_name" v="Ekra" />
		<tag k="name" v="Ækra" />
		<tag k="place" v="farm" />
		<tag k="ssr:stedsnr" v="607017" />
	</node>
	<node lat="58.801555556551115" lon="8.184252772422468" id="-22657">
		<tag k="name" v="Bygland" />
=======
	<node id="-539038" lat="58.7020500002" lon="8.58792221504">
		<tag k="name" v="Fjellvik" />
>>>>>>> e1d4bc35ff8a6074a6f2e91616a996b547c36f15
		<tag k="place" v="farm" />
		<tag k="ssr:stedsnr" v="607125" />
	</node>
<<<<<<< HEAD
	<node lat="58.75301666787824" lon="8.125552774096693" id="-22661">
		<tag k="alt_name" v="Skjeggedal" />
=======
	<node id="-539037" lat="58.7089111107" lon="8.58854721621">
>>>>>>> e1d4bc35ff8a6074a6f2e91616a996b547c36f15
		<tag k="fixme" v="consider place=hamlet" />
		<tag k="name" v="Nedre Skjeggedal" />
		<tag k="place" v="farm" />
		<tag k="ssr:stedsnr" v="607227" />
	</node>
<<<<<<< HEAD
	<node lat="58.76714166996704" lon="8.533255551240279" id="-22670">
		<tag k="alt_name" v="Haugane, austre" />
		<tag k="fixme" v="multiple name tags, choose one and add the other to alt_name" />
		<tag k="name" v="Austre Haugane;Austigard" />
		<tag k="place" v="farm" />
		<tag k="ssr:stedsnr" v="607506" />
	</node>
	<node lat="58.76497499969521" lon="8.536049994317274" id="-22674">
		<tag k="name" v="Tveit" />
		<tag k="place" v="hamlet" />
		<tag k="ssr:stedsnr" v="607501" />
	</node>
	<node lat="58.671127780340356" lon="8.558472223383518" id="-22680">
		<tag k="name" v="Mosberglia" />
		<tag k="place" v="isolated_dwelling" />
		<tag k="ssr:stedsnr" v="607906" />
	</node>
	<node lat="58.693747226545995" lon="8.712591666958419" id="-22684">
		<tag k="fixme" v="consider place=hamlet" />
		<tag k="name" v="Mosberg" />
		<tag k="place" v="farm" />
		<tag k="ssr:stedsnr" v="607890" />
	</node>
	<node lat="58.691652781660856" lon="8.341625007925082" id="-22691">
		<tag k="name" v="Langemyrbua" />
		<tag k="place" v="locality" />
		<tag k="ssr:stedsnr" v="700429" />
	</node>
	<node lat="58.768939583732845" lon="8.490976765115828" id="-22715">
		<tag k="fixme" v="consider place=hamlet" />
		<tag k="name" v="Nergarden" />
		<tag k="place" v="farm" />
		<tag k="ssr:stedsnr" v="638193" />
	</node>
	<node lat="58.77471111156742" lon="8.49561944092202" id="-22716">
		<tag k="name" v="Lillemo" />
		<tag k="place" v="farm" />
		<tag k="ssr:stedsnr" v="638195" />
	</node>
	<node lat="58.689283735180894" lon="8.69278778922813" id="-22726">
		<tag k="name" v="Berget" />
		<tag k="place" v="farm" />
		<tag k="ssr:stedsnr" v="638610" />
	</node>
	<node lat="58.76716389334814" lon="8.531344442742048" id="-22731">
		<tag k="name" v="Haugane" />
		<tag k="place" v="farm" />
		<tag k="ssr:stedsnr" v="638729" />
	</node>
	<node lat="58.87117500309335" lon="8.367769440735254" id="-22732">
		<tag k="name" v="Krossvasshytta" />
		<tag k="place" v="isolated_dwelling" />
		<tag k="ssr:stedsnr" v="705473" />
	</node>
	<node lat="58.80899722128625" lon="8.413641667043077" id="-22734">
		<tag k="name" v="Tiljone" />
		<tag k="place" v="farm" />
		<tag k="ssr:stedsnr" v="705487" />
	</node>
	<node lat="58.71510000407681" lon="8.366552776298828" id="-22735">
		<tag k="name" v="Rostveitplassen" />
		<tag k="place" v="farm" />
		<tag k="ssr:stedsnr" v="639406" />
	</node>
	<node lat="58.70110555585602" lon="8.33869999163397" id="-22740">
		<tag k="name" v="Tretteslåttbua" />
		<tag k="place" v="locality" />
		<tag k="ssr:stedsnr" v="639428" />
	</node>
	<node lat="58.75330000012283" lon="8.040433326000457" id="-22777">
		<tag k="name" v="Bruleheibua" />
=======
	<node id="-541074" lat="58.7431888934" lon="8.45772778107">
		<tag k="name" v="Helset" />
		<tag k="place" v="farm" />
		<tag k="ssr:stedsnr" v="760656" />
	</node>
	<node id="-541066" lat="58.6758722235" lon="8.68736667152">
		<tag k="name" v="Gryting" />
		<tag k="place" v="locality" />
		<tag k="ssr:stedsnr" v="760506" />
	</node>
	<node id="-539011" lat="58.7941499965" lon="8.22164722615">
		<tag k="name" v="Vettevoll" />
		<tag k="place" v="farm" />
		<tag k="ssr:stedsnr" v="51903" />
	</node>
	<node id="-541057" lat="58.6849527738" lon="8.40700833154">
		<tag k="name" v="Austigard" />
		<tag k="place" v="farm" />
		<tag k="ssr:stedsnr" v="760253" />
	</node>
	<node id="-539007" lat="58.8119500014" lon="8.13721944426">
		<tag k="name" v="Skivestøyl" />
>>>>>>> e1d4bc35ff8a6074a6f2e91616a996b547c36f15
		<tag k="place" v="locality" />
		<tag k="ssr:stedsnr" v="657828" />
	</node>
<<<<<<< HEAD
	<node lat="58.874269441601456" lon="8.299549995583925" id="-22783">
		<tag k="name" v="Haugå" />
=======
	<node id="-539004" lat="58.8588527758" lon="8.32547777384">
		<tag k="name" v="Fjellstad" />
>>>>>>> e1d4bc35ff8a6074a6f2e91616a996b547c36f15
		<tag k="place" v="farm" />
		<tag k="ssr:stedsnr" v="658094" />
	</node>
<<<<<<< HEAD
	<node lat="58.85357222459561" lon="8.168294440577078" id="-22808">
		<tag k="name" v="Nasestøyl" />
		<tag k="place" v="isolated_dwelling" />
		<tag k="ssr:stedsnr" v="668086" />
	</node>
	<node lat="58.802619442399944" lon="8.24029165971258" id="-22812">
		<tag k="alt_name" v="Næverborg" />
		<tag k="name" v="Nevreborg" />
		<tag k="place" v="isolated_dwelling" />
		<tag k="ssr:stedsnr" v="668136" />
	</node>
	<node lat="58.79554999616776" lon="8.229130564113792" id="-22814">
		<tag k="name" v="Kasin" />
		<tag k="place" v="farm" />
		<tag k="ssr:stedsnr" v="668151" />
	</node>
	<node lat="58.79251944482207" lon="8.229505547260203" id="-22815">
		<tag k="name" v="Brustad" />
		<tag k="place" v="farm" />
		<tag k="ssr:stedsnr" v="668152" />
	</node>
	<node lat="58.74240555506294" lon="8.459880553277076" id="-22825">
		<tag k="fixme" v="consider place=hamlet" />
		<tag k="name" v="Gjermundnes" />
		<tag k="place" v="farm" />
		<tag k="ssr:stedsnr" v="668418" />
	</node>
	<node lat="58.95986111295644" lon="8.177516661564235" id="-22842">
		<tag k="name" v="Gjevdeli" />
		<tag k="place" v="farm" />
		<tag k="ssr:stedsnr" v="668918" />
	</node>
	<node lat="58.75756666948541" lon="8.482483338344492" id="-22847">
		<tag k="name" v="Århuskleiva" />
		<tag k="place" v="quarter" />
		<tag k="ssr:stedsnr" v="695434" />
	</node>
	<node lat="58.7634111092284" lon="8.634616662621726" id="-22860">
		<tag k="name" v="Dalansplassen" />
		<tag k="place" v="locality" />
		<tag k="ssr:stedsnr" v="699165" />
	</node>
	<node lat="58.70828333376278" lon="8.619861107977059" id="-22873">
		<tag k="name" v="Follestad" />
		<tag k="place" v="farm" />
		<tag k="ssr:stedsnr" v="699514" />
	</node>
	<node lat="58.710067881465655" lon="8.62722805413201" id="-22874">
		<tag k="name" v="Bomvollen" />
		<tag k="place" v="farm" />
		<tag k="ssr:stedsnr" v="699521" />
	</node>
	<node lat="58.73686666980769" lon="8.529272220317612" id="-22878">
		<tag k="name" v="Øvreplass" />
=======
	<node id="-541044" lat="58.9652222189" lon="8.1034111159">
		<tag k="fixme" v="consider tourism=alpine_hut or tourism=chalet" />
		<tag k="name" v="Vindilhytta" />
		<tag k="ssr:stedsnr" v="911879" />
		<tag k="tourism" v="wilderness_hut" />
	</node>
	<node id="-541040" lat="58.6375305527" lon="8.743663887">
		<tag k="name" v="Eikeland" />
		<tag k="place" v="isolated_dwelling" />
		<tag k="ssr:stedsnr" v="911786" />
	</node>
	<node id="-541034" lat="58.9042805544" lon="8.01246388258">
		<tag k="historic" v="shieling" />
		<tag k="name" v="Ånebjør" />
		<tag k="place" v="locality" />
		<tag k="ssr:stedsnr" v="911701" />
	</node>
	<node id="-541028" lat="58.7863500042" lon="8.60379165951">
		<tag k="name" v="Dobbestøyl" />
		<tag k="place" v="isolated_dwelling" />
		<tag k="ssr:stedsnr" v="911623" />
	</node>
	<node id="-541022" lat="58.9079250006" lon="8.53153889312">
		<tag k="name" v="Blekom" />
>>>>>>> e1d4bc35ff8a6074a6f2e91616a996b547c36f15
		<tag k="place" v="locality" />
		<tag k="ssr:stedsnr" v="699579" />
	</node>
<<<<<<< HEAD
	<node lat="58.86896666307543" lon="8.336866670312606" id="-22921">
		<tag k="name" v="Der oppe" />
=======
	<node id="-541020" lat="58.712933329" lon="8.36964999809">
		<tag k="name" v="Rostveitplassen" />
>>>>>>> e1d4bc35ff8a6074a6f2e91616a996b547c36f15
		<tag k="place" v="farm" />
		<tag k="ssr:stedsnr" v="718403" />
	</node>
<<<<<<< HEAD
	<node lat="58.7764805518894" lon="8.317761118316538" id="-22935">
		<tag k="name" v="Rønsdalsbua" />
=======
	<node id="-538968" lat="58.853916667" lon="8.23976111345">
		<tag k="name" v="Fjellstøyl" />
>>>>>>> e1d4bc35ff8a6074a6f2e91616a996b547c36f15
		<tag k="place" v="locality" />
		<tag k="ssr:stedsnr" v="718691" />
	</node>
<<<<<<< HEAD
	<node lat="58.924344441209584" lon="8.258486110777554" id="-22940">
		<tag k="historic" v="shieling" />
		<tag k="name" v="Ramsestøyl" />
=======
	<node id="-543059" lat="58.8755055556" lon="8.22286944974">
		<tag k="name" v="Nattebu" />
>>>>>>> e1d4bc35ff8a6074a6f2e91616a996b547c36f15
		<tag k="place" v="isolated_dwelling" />
		<tag k="ssr:stedsnr" v="719280" />
	</node>
<<<<<<< HEAD
	<node lat="58.72767778205353" lon="8.301183334485154" id="-22952">
		<tag k="name" v="Bjortjønnvollen" />
		<tag k="place" v="farm" />
		<tag k="ssr:stedsnr" v="719592" />
	</node>
	<node lat="58.88991666358173" lon="8.256291660510637" id="-22955">
		<tag k="name" v="Finnhola" />
		<tag k="place" v="isolated_dwelling" />
		<tag k="ssr:stedsnr" v="719682" />
	</node>
	<node lat="58.8660168444293" lon="8.063183590673463" id="-22963">
		<tag k="name" v="Jilsbua" />
		<tag k="place" v="locality" />
		<tag k="ssr:stedsnr" v="900037" />
	</node>
	<node lat="58.86648888631555" lon="8.06149999430591" id="-22965">
		<tag k="name" v="Saga" />
		<tag k="place" v="locality" />
		<tag k="ssr:stedsnr" v="900041" />
	</node>
	<node lat="58.76755026177325" lon="8.187154543094357" id="-22972">
		<tag k="name" v="Gjeruvsdalsbua" />
=======
	<node id="-541010" lat="58.7483666629" lon="8.44855556283">
		<tag k="name" v="Ljosland" />
		<tag k="place" v="isolated_dwelling" />
		<tag k="ssr:stedsnr" v="911396" />
	</node>
	<node id="-543053" lat="58.7746611134" lon="8.43375556159">
		<tag k="name" v="Høydalsbua" />
		<tag k="place" v="locality" />
		<tag k="ssr:stedsnr" v="415888" />
	</node>
	<node id="-538956" lat="58.9675944421" lon="8.14431111306">
		<tag k="name" v="Gamle Sundstøyl" />
		<tag k="place" v="locality" />
		<tag k="ssr:stedsnr" v="233986" />
	</node>
	<node id="-541001" lat="58.7973888881" lon="8.2202999934">
		<tag k="name" v="Oppistog" />
		<tag k="place" v="farm" />
		<tag k="ssr:stedsnr" v="911133" />
	</node>
	<node id="-543046" lat="58.7673000019" lon="8.05218333361">
		<tag k="name" v="Fossebu" />
		<tag k="place" v="locality" />
		<tag k="ssr:stedsnr" v="415791" />
	</node>
	<node id="-540995" lat="58.8467583375" lon="8.09789166987">
		<tag k="name" v="Oppigard" />
		<tag k="place" v="farm" />
		<tag k="ssr:stedsnr" v="911111" />
	</node>
	<node id="-538945" lat="58.7059166696" lon="8.15554444678">
		<tag k="name" v="Verfjellhytta" />
		<tag k="place" v="isolated_dwelling" />
		<tag k="ssr:stedsnr" v="233787" />
	</node>
	<node id="-540991" lat="58.8397444484" lon="8.36371944977">
		<tag k="name" v="Sesjord" />
		<tag k="place" v="farm" />
		<tag k="ssr:stedsnr" v="911091" />
	</node>
	<node id="-543037" lat="58.6921805585" lon="8.31636388314">
		<tag k="name" v="Åslaugsbu" />
>>>>>>> e1d4bc35ff8a6074a6f2e91616a996b547c36f15
		<tag k="place" v="locality" />
		<tag k="ssr:stedsnr" v="900329" />
	</node>
<<<<<<< HEAD
	<node lat="58.82789999768721" lon="8.101499997986886" id="-22995">
		<tag k="fixme" v="consider place=hamlet" />
		<tag k="name" v="Vrålstad" />
		<tag k="place" v="farm" />
		<tag k="ssr:stedsnr" v="729094" />
	</node>
	<node lat="58.904986109007936" lon="8.19664999670617" id="-23021">
		<tag k="name" v="Sandvasstøyl" />
		<tag k="place" v="isolated_dwelling" />
		<tag k="ssr:stedsnr" v="729972" />
	</node>
	<node lat="58.86212777810815" lon="8.324605555084771" id="-23046">
		<tag k="name" v="Rydland" />
		<tag k="place" v="farm" />
		<tag k="ssr:stedsnr" v="901684" />
	</node>
	<node lat="58.743138888949765" lon="8.609577780569293" id="-23062">
		<tag k="name" v="Steinsbu" />
=======
	<node id="-543036" lat="58.8543333366" lon="8.33955554985">
		<tag k="name" v="Bekkemellom" />
		<tag k="place" v="farm" />
		<tag k="ssr:stedsnr" v="415730" />
	</node>
	<node id="-540987" lat="58.711474999" lon="8.63136389182">
		<tag k="name" v="Skotet" />
		<tag k="place" v="isolated_dwelling" />
		<tag k="ssr:stedsnr" v="911080" />
	</node>
	<node id="-540985" lat="58.8406111096" lon="8.24636388277">
		<tag k="name" v="Tjørnestøyl" />
		<tag k="place" v="isolated_dwelling" />
		<tag k="ssr:stedsnr" v="911078" />
	</node>
	<node id="-543032" lat="58.8573972248" lon="8.29342500081">
		<tag k="name" v="Lindestøyl" />
		<tag k="place" v="locality" />
		<tag k="ssr:stedsnr" v="415721" />
	</node>
	<node id="-540982" lat="58.8950111083" lon="8.17951389424">
		<tag k="name" v="Dalen" />
		<tag k="place" v="isolated_dwelling" />
		<tag k="ssr:stedsnr" v="911043" />
	</node>
	<node id="-540980" lat="58.8845777741" lon="8.39800277544">
		<tag k="name" v="Mostakk" />
>>>>>>> e1d4bc35ff8a6074a6f2e91616a996b547c36f15
		<tag k="place" v="isolated_dwelling" />
		<tag k="ssr:stedsnr" v="759117" />
	</node>
<<<<<<< HEAD
	<node lat="58.77037778018748" lon="8.629691673115316" id="-23066">
		<tag k="name" v="Risdalen" />
=======
	<node id="-543015" lat="58.7096777805" lon="8.31294444945">
		<tag k="name" v="Båsplassen" />
>>>>>>> e1d4bc35ff8a6074a6f2e91616a996b547c36f15
		<tag k="place" v="locality" />
		<tag k="ssr:stedsnr" v="759016" />
	</node>
<<<<<<< HEAD
	<node lat="58.68495277383946" lon="8.407008331541908" id="-23087">
		<tag k="name" v="Austigard" />
		<tag k="place" v="farm" />
		<tag k="ssr:stedsnr" v="760253" />
	</node>
	<node lat="58.64023333059983" lon="8.710388883917194" id="-23095">
		<tag k="name" v="Rundehaug" />
		<tag k="place" v="farm" />
		<tag k="ssr:stedsnr" v="760619" />
	</node>
	<node lat="58.74318889336942" lon="8.457727781069885" id="-23097">
		<tag k="name" v="Helset" />
		<tag k="place" v="farm" />
		<tag k="ssr:stedsnr" v="760656" />
	</node>
	<node lat="58.67587222354768" lon="8.68736667151574" id="-23100">
		<tag k="name" v="Gryting" />
=======
	<node id="-543011" lat="58.770238891" lon="8.24927778161">
		<tag k="name" v="Holte" />
		<tag k="place" v="farm" />
		<tag k="ssr:stedsnr" v="415420" />
	</node>
	<node id="-540950" lat="58.8621277781" lon="8.32460555508">
		<tag k="name" v="Rydland" />
		<tag k="place" v="farm" />
		<tag k="ssr:stedsnr" v="901684" />
	</node>
	<node id="-540946" lat="58.8846611149" lon="8.16367500181">
		<tag k="name" v="Rasmusfjellbua" />
		<tag k="place" v="locality" />
		<tag k="ssr:stedsnr" v="901269" />
	</node>
	<node id="-542977" lat="58.7235583305" lon="7.99390000417">
		<tag k="name" v="Stoga" />
		<tag k="place" v="locality" />
		<tag k="ssr:stedsnr" v="414387" />
	</node>
	<node id="-540714" lat="58.7959499968" lon="8.51472778116">
		<tag k="name" v="Gamle Mobru" />
		<tag k="place" v="farm" />
		<tag k="ssr:stedsnr" v="881137" />
	</node>
	<node id="-540922" lat="58.7675555577" lon="8.18715832699">
		<tag k="name" v="Gjeruvsdalsbua" />
>>>>>>> e1d4bc35ff8a6074a6f2e91616a996b547c36f15
		<tag k="place" v="locality" />
		<tag k="ssr:stedsnr" v="760506" />
	</node>
<<<<<<< HEAD
	<node lat="58.866952776151265" lon="8.06409444972072" id="-23123">
		<tag k="name" v="Homsbua" />
		<tag k="place" v="locality" />
		<tag k="ssr:stedsnr" v="778029" />
	</node>
	<node lat="58.86518889169482" lon="8.321063888083847" id="-23132">
		<tag k="name" v="Hommen" />
		<tag k="place" v="farm" />
		<tag k="ssr:stedsnr" v="779111" />
	</node>
	<node lat="58.92072778067055" lon="8.233744445817281" id="-23165">
		<tag k="name" v="Ånebergstoga" />
=======
	<node id="-542969" lat="58.8915305579" lon="8.42816666214">
		<tag k="name" v="Lundane" />
		<tag k="place" v="locality" />
		<tag k="ssr:stedsnr" v="414203" />
	</node>
	<node id="-540913" lat="58.8664888863" lon="8.06149999431">
		<tag k="name" v="Saga" />
		<tag k="place" v="locality" />
		<tag k="ssr:stedsnr" v="900041" />
	</node>
	<node id="-540911" lat="58.8660277822" lon="8.06308055849">
		<tag k="name" v="Jilsbua" />
>>>>>>> e1d4bc35ff8a6074a6f2e91616a996b547c36f15
		<tag k="place" v="locality" />
		<tag k="ssr:stedsnr" v="780265" />
	</node>
<<<<<<< HEAD
	<node lat="58.84675833752269" lon="8.097891669868808" id="-23172">
		<tag k="name" v="Oppigard" />
		<tag k="place" v="farm" />
		<tag k="ssr:stedsnr" v="911111" />
	</node>
	<node lat="58.84858611516582" lon="8.241047226049666" id="-23175">
		<tag k="name" v="Osli" />
		<tag k="place" v="isolated_dwelling" />
		<tag k="ssr:stedsnr" v="911117" />
	</node>
	<node lat="58.79738888810301" lon="8.220299993399548" id="-23178">
		<tag k="name" v="Oppistog" />
		<tag k="place" v="farm" />
		<tag k="ssr:stedsnr" v="911133" />
	</node>
	<node lat="58.711149606243694" lon="8.63161608673339" id="-23180">
		<tag k="name" v="Skotet" />
=======
	<node id="-538862" lat="58.8178055568" lon="8.1937611026">
		<tag k="name" v="Hillestadheia" />
		<tag k="place" v="neighbourhood" />
		<tag k="ssr:stedsnr" v="224839" />
	</node>
	<node id="-538851" lat="58.7354194404" lon="8.49837777081">
		<tag k="fixme" v="consider place=hamlet" />
		<tag k="name" v="Sigridnes" />
>>>>>>> e1d4bc35ff8a6074a6f2e91616a996b547c36f15
		<tag k="place" v="farm" />
		<tag k="ssr:stedsnr" v="911080" />
	</node>
<<<<<<< HEAD
	<node lat="58.83974444836531" lon="8.36371944977341" id="-23184">
		<tag k="name" v="Sesjord" />
		<tag k="place" v="farm" />
		<tag k="ssr:stedsnr" v="911091" />
	</node>
	<node lat="58.84548810567576" lon="8.099466471654097" id="-23201">
		<tag k="fixme" v="consider place=hamlet" />
		<tag k="name" v="Austenå" />
=======
	<node id="-538849" lat="58.8328861124" lon="8.28033333653">
		<tag k="alt_name" v="Skurvestøyl" />
		<tag k="name" v="Skorvestøyl" />
		<tag k="place" v="locality" />
		<tag k="ssr:stedsnr" v="1106" />
	</node>
	<node id="-540895" lat="58.8867888903" lon="8.27286388537">
		<tag k="name" v="Åsen" />
>>>>>>> e1d4bc35ff8a6074a6f2e91616a996b547c36f15
		<tag k="place" v="farm" />
		<tag k="ssr:stedsnr" v="789107" />
	</node>
<<<<<<< HEAD
	<node lat="58.72131399782291" lon="8.547548876520256" id="-23205">
		<tag k="name" v="Kongsgård" />
		<tag k="place" v="farm" />
		<tag k="ssr:stedsnr" v="789114" />
	</node>
	<node lat="58.85415555459539" lon="8.336113889285908" id="-23206">
		<tag k="name" v="Valle" />
=======
	<node id="-538839" lat="58.7428583289" lon="8.21600555376">
		<tag k="historic" v="shieling" />
		<tag k="name" v="Nystøyl" />
		<tag k="place" v="locality" />
		<tag k="ssr:stedsnr" v="385" />
	</node>
	<node id="-540875" lat="58.7276777821" lon="8.30118333449">
		<tag k="name" v="Bjortjønnvollen" />
>>>>>>> e1d4bc35ff8a6074a6f2e91616a996b547c36f15
		<tag k="place" v="farm" />
		<tag k="ssr:stedsnr" v="789116" />
	</node>
<<<<<<< HEAD
	<node lat="58.79084999581565" lon="8.231191664271375" id="-23210">
		<tag k="name" v="Storemyr" />
		<tag k="place" v="farm" />
		<tag k="ssr:stedsnr" v="789158" />
	</node>
	<node lat="58.7077444445794" lon="8.566519446735779" id="-23214">
		<tag k="name" v="Gangdalen" />
=======
	<node id="-542907" lat="58.6919388902" lon="8.72622499909">
		<tag k="name" v="Vindholmen" />
>>>>>>> e1d4bc35ff8a6074a6f2e91616a996b547c36f15
		<tag k="place" v="farm" />
		<tag k="ssr:stedsnr" v="789079" />
	</node>
<<<<<<< HEAD
	<node lat="58.74793870101003" lon="8.449123056374106" id="-23219">
		<tag k="name" v="Ljosland" />
		<tag k="place" v="farm" />
		<tag k="ssr:stedsnr" v="911396" />
	</node>
	<node lat="58.71293332904158" lon="8.369649998086324" id="-23220">
		<tag k="name" v="Rostveitplassen" />
=======
	<node id="-540858" lat="58.8707888866" lon="8.33840555605">
		<tag k="name" v="Sumarfjøset" />
		<tag k="place" v="locality" />
		<tag k="ssr:stedsnr" v="718405" />
	</node>
	<node id="-540857" lat="58.8689666631" lon="8.33686667031">
		<tag k="name" v="Der oppe" />
>>>>>>> e1d4bc35ff8a6074a6f2e91616a996b547c36f15
		<tag k="place" v="farm" />
		<tag k="ssr:stedsnr" v="911484" />
	</node>
<<<<<<< HEAD
	<node lat="58.90795883058598" lon="8.532196072982837" id="-23223">
		<tag k="name" v="Blekom" />
		<tag k="place" v="locality" />
		<tag k="ssr:stedsnr" v="911492" />
	</node>
	<node lat="58.9042805544276" lon="8.012463882576187" id="-23252">
		<tag k="historic" v="shieling" />
		<tag k="name" v="Ånebjør" />
		<tag k="place" v="isolated_dwelling" />
		<tag k="ssr:stedsnr" v="911701" />
	</node>
	<node lat="58.6375305526707" lon="8.743663887002219" id="-23254">
		<tag k="name" v="Eikeland" />
		<tag k="place" v="isolated_dwelling" />
		<tag k="ssr:stedsnr" v="911786" />
	</node>
	<node lat="58.87131388831052" lon="8.051769438359822" id="-23255">
		<tag k="fixme" v="consider place=hamlet" />
		<tag k="name" v="Dale" />
		<tag k="place" v="farm" />
		<tag k="ssr:stedsnr" v="790762" />
	</node>
	<node lat="58.68566666375243" lon="8.676380550419761" id="-23260">
		<tag k="name" v="Kil" />
=======
	<node id="-540018" lat="58.6745388855" lon="8.57532499198">
		<tag k="name" v="Hytta" />
		<tag k="place" v="isolated_dwelling" />
		<tag k="ssr:stedsnr" v="517670" />
	</node>
	<node id="-540829" lat="58.7101694469" lon="8.62731111659">
		<tag k="name" v="Bomvollen" />
		<tag k="place" v="isolated_dwelling" />
		<tag k="ssr:stedsnr" v="699521" />
	</node>
	<node id="-540828" lat="58.7082833338" lon="8.61986110798">
		<tag k="name" v="Follestad" />
		<tag k="place" v="isolated_dwelling" />
		<tag k="ssr:stedsnr" v="699514" />
	</node>
	<node id="-542873" lat="58.8261111078" lon="8.59739444269">
		<tag k="name" v="Mylbakk" />
		<tag k="place" v="locality" />
		<tag k="ssr:stedsnr" v="395470" />
	</node>
	<node id="-542864" lat="58.7719722238" lon="8.53901110289">
		<tag k="name" v="Skaare" />
		<tag k="place" v="farm" />
		<tag k="ssr:stedsnr" v="395248" />
	</node>
	<node id="-542862" lat="58.7579277755" lon="8.47492221952">
		<tag k="name" v="Engenesstoa" />
		<tag k="place" v="quarter" />
		<tag k="ssr:stedsnr" v="395236" />
	</node>
	<node id="-542058" lat="58.8221444456" lon="8.54606111174">
		<tag k="fixme" v="consider place=hamlet" />
		<tag k="name" v="Krossbekk" />
		<tag k="place" v="farm" />
		<tag k="ssr:stedsnr" v="122663" />
	</node>
	<node id="-540793" lat="58.7132861119" lon="8.35879999298">
		<tag k="name" v="Kolstad" />
>>>>>>> e1d4bc35ff8a6074a6f2e91616a996b547c36f15
		<tag k="place" v="farm" />
		<tag k="ssr:stedsnr" v="790900" />
	</node>
	<node lat="58.78635000418861" lon="8.60379165951052" id="-23262">
		<tag k="name" v="Dobbestøyl" />
		<tag k="place" v="isolated_dwelling" />
		<tag k="ssr:stedsnr" v="911623" />
	</node>
<<<<<<< HEAD
	<node lat="58.965222218932446" lon="8.103411115901324" id="-23263">
=======
	<node id="-542057" lat="58.8170833356" lon="8.5366249938">
		<tag k="name" v="Bytingsbekk" />
		<tag k="place" v="farm" />
		<tag k="ssr:stedsnr" v="122648" />
	</node>
	<node id="-542835" lat="58.8925499999" lon="8.12442500541">
>>>>>>> e1d4bc35ff8a6074a6f2e91616a996b547c36f15
		<tag k="fixme" v="consider tourism=alpine_hut or tourism=chalet" />
		<tag k="name" v="Vindilhytta" />
		<tag k="ssr:stedsnr" v="911879" />
		<tag k="tourism" v="wilderness_hut" />
	</node>
<<<<<<< HEAD
	<node lat="58.76982777972332" lon="8.61740277697003" id="-23271">
		<tag k="name" v="Mjåvasstoga" />
		<tag k="place" v="locality" />
		<tag k="ssr:stedsnr" v="820006" />
	</node>
	<node lat="58.654261107175" lon="8.6932277693024" id="-23302">
		<tag k="amenity" v="school" />
		<tag k="name" v="Flaten skule" />
		<tag k="ssr:stedsnr" v="821512" />
	</node>
	<node lat="58.65164722215877" lon="8.688805555002135" id="-23303">
		<tag k="name" v="Skogly" />
		<tag k="place" v="farm" />
		<tag k="ssr:stedsnr" v="821514" />
	</node>
	<node lat="58.70389166979939" lon="8.572061110033424" id="-23305">
		<tag k="name" v="Fjellsol" />
		<tag k="place" v="isolated_dwelling" />
		<tag k="ssr:stedsnr" v="821567" />
	</node>
	<node lat="58.7567666648005" lon="8.318908337312445" id="-23359">
		<tag k="name" v="Orgarsbua" />
=======
	<node id="-540785" lat="58.7013749969" lon="8.35598611114">
		<tag k="name" v="Lille Homedal" />
		<tag k="place" v="farm" />
		<tag k="ssr:stedsnr" v="882350" />
	</node>
	<node id="-540727" lat="58.7627333314" lon="8.53656944364">
		<tag k="name" v="Bergland" />
		<tag k="place" v="farm" />
		<tag k="ssr:stedsnr" v="881221" />
	</node>
	<node id="-542829" lat="58.9432805551" lon="8.20209999586">
		<tag k="fixme" v="consider place=hamlet" />
		<tag k="name" v="Smedland" />
		<tag k="place" v="farm" />
		<tag k="ssr:stedsnr" v="365967" />
	</node>
	<node id="-542826" lat="58.6863972258" lon="8.70385556187">
		<tag k="name" v="Grimelandshovet" />
		<tag k="place" v="farm" />
		<tag k="ssr:stedsnr" v="365940" />
	</node>
	<node id="-542824" lat="58.7385861078" lon="8.0538749987">
		<tag k="name" v="Solbu" />
		<tag k="place" v="isolated_dwelling" />
		<tag k="ssr:stedsnr" v="365932" />
	</node>
	<node id="-542817" lat="58.8534250016" lon="8.66293056303">
		<tag k="name" v="Gjerliplassen" />
>>>>>>> e1d4bc35ff8a6074a6f2e91616a996b547c36f15
		<tag k="place" v="locality" />
		<tag k="ssr:stedsnr" v="840709" />
	</node>
<<<<<<< HEAD
	<node lat="58.86254444379175" lon="8.4464694364553" id="-23376">
		<tag k="alt_name" v="Haugedalen" />
		<tag k="name" v="Haugedal" />
		<tag k="place" v="isolated_dwelling" />
		<tag k="ssr:stedsnr" v="850112" />
	</node>
	<node lat="58.85651666237647" lon="8.42629999511631" id="-23380">
		<tag k="name" v="Lauvhommen" />
		<tag k="place" v="isolated_dwelling" />
		<tag k="ssr:stedsnr" v="850128" />
	</node>
	<node lat="58.80251388736646" lon="8.182891661797784" id="-23382">
		<tag k="alt_name" v="Lindås" />
		<tag k="name" v="Lindsås" />
=======
	<node id="-540762" lat="58.6917388868" lon="8.62113611974">
		<tag k="name" v="Karisbakke" />
		<tag k="place" v="locality" />
		<tag k="ssr:stedsnr" v="881526" />
	</node>
	<node id="-542807" lat="58.7879871078" lon="8.46986217879">
		<tag k="historic" v="shieling" />
		<tag k="name" v="Røyvoll" />
		<tag k="place" v="locality" />
		<tag k="ssr:stedsnr" v="365644" />
	</node>
	<node id="-542797" lat="58.8873777736" lon="8.59608054845">
		<tag k="fixme" v="consider place=hamlet" />
		<tag k="name" v="Øy" />
>>>>>>> e1d4bc35ff8a6074a6f2e91616a996b547c36f15
		<tag k="place" v="farm" />
		<tag k="ssr:stedsnr" v="850133" />
	</node>
<<<<<<< HEAD
	<node lat="58.68251733126479" lon="8.372162042891286" id="-23389">
		<tag k="name" v="Bjorå" />
=======
	<node id="-542793" lat="58.6509944438" lon="8.43030554697">
		<tag k="fixme" v="consider place=hamlet" />
		<tag k="name" v="Berås" />
>>>>>>> e1d4bc35ff8a6074a6f2e91616a996b547c36f15
		<tag k="place" v="farm" />
		<tag k="ssr:stedsnr" v="850292" />
	</node>
<<<<<<< HEAD
	<node lat="58.866136112027256" lon="8.18258333543536" id="-23408">
		<tag k="name" v="Nosstøyl" />
		<tag k="place" v="isolated_dwelling" />
		<tag k="ssr:stedsnr" v="851025" />
	</node>
	<node lat="58.72493934746243" lon="8.341120383672035" id="-23414">
		<tag k="name" v="Heggland" />
		<tag k="place" v="farm" />
		<tag k="ssr:stedsnr" v="851447" />
	</node>
	<node lat="58.771855557964585" lon="8.491869444835658" id="-23440">
		<tag k="name" v="Granhei" />
=======
	<node id="-540742" lat="58.6657805565" lon="8.40996667207">
		<tag k="name" v="Oppsal" />
		<tag k="place" v="locality" />
		<tag k="ssr:stedsnr" v="881315" />
	</node>
	<node id="-542782" lat="58.8092666683" lon="8.3982249947">
		<tag k="alt_name" v="Flata" />
		<tag k="name" v="Flaten" />
		<tag k="place" v="farm" />
		<tag k="ssr:stedsnr" v="365134" />
	</node>
	<node id="-540728" lat="58.7727194462" lon="8.49646944772">
		<tag k="amenity" v="school" />
		<tag k="name" v="Åmli skule" />
		<tag k="ssr:stedsnr" v="881227" />
	</node>
	<node id="-542775" lat="58.8840833352" lon="8.24143610337">
		<tag k="name" v="Austigard" />
>>>>>>> e1d4bc35ff8a6074a6f2e91616a996b547c36f15
		<tag k="place" v="farm" />
		<tag k="ssr:stedsnr" v="881205" />
	</node>
<<<<<<< HEAD
	<node lat="58.762733331424336" lon="8.53656944363977" id="-23443">
		<tag k="name" v="Bergland" />
=======
	<node id="-542774" lat="58.8896361086" lon="8.26417500447">
		<tag k="fixme" v="multiple name tags, choose one and add the other to alt_name" />
		<tag k="name" v="Mo;Monland" />
>>>>>>> e1d4bc35ff8a6074a6f2e91616a996b547c36f15
		<tag k="place" v="farm" />
		<tag k="ssr:stedsnr" v="881221" />
	</node>
<<<<<<< HEAD
	<node lat="58.7013167139101" lon="8.355940558257396" id="-23462">
		<tag k="alt_name" v="Hommedal, l" />
		<tag k="name" v="Lille Homedal" />
=======
	<node id="-540724" lat="58.771855558" lon="8.49186944484">
		<tag k="name" v="Granhei" />
>>>>>>> e1d4bc35ff8a6074a6f2e91616a996b547c36f15
		<tag k="place" v="farm" />
		<tag k="ssr:stedsnr" v="882350" />
	</node>
<<<<<<< HEAD
	<node lat="58.67935555503057" lon="8.373044452823796" id="-23473">
		<tag k="alt_name" v="Moen" />
		<tag k="name" v="Monen" />
		<tag k="place" v="farm" />
		<tag k="ssr:stedsnr" v="935197" />
	</node>
	<node lat="58.88466111486467" lon="8.163675001806839" id="-23502">
		<tag k="name" v="Rasmusfjellbua" />
		<tag k="place" v="locality" />
		<tag k="ssr:stedsnr" v="901269" />
	</node>
	<node lat="58.849069440931046" lon="8.26722221433151" id="-23507">
		<tag k="name" v="Suggebu" />
		<tag k="place" v="isolated_dwelling" />
		<tag k="ssr:stedsnr" v="901357" />
	</node>
	<node lat="58.858349997973264" lon="8.468936114640503" id="-23517">
		<tag k="name" v="Svanlihytta" />
		<tag k="place" v="isolated_dwelling" />
		<tag k="ssr:stedsnr" v="901661" />
	</node>
	<node lat="58.884577774125844" lon="8.398002775443047" id="-23530">
		<tag k="name" v="Mostakk" />
		<tag k="place" v="isolated_dwelling" />
		<tag k="ssr:stedsnr" v="911022" />
	</node>
	<node lat="58.89501110825994" lon="8.179513894237552" id="-23532">
		<tag k="name" v="Dalen" />
		<tag k="place" v="isolated_dwelling" />
		<tag k="ssr:stedsnr" v="911043" />
	</node>
	<node lat="58.8892916672027" lon="8.318433337910626" id="-23534">
		<tag k="name" v="Buheim" />
		<tag k="place" v="isolated_dwelling" />
		<tag k="ssr:stedsnr" v="911072" />
	</node>
	<node lat="58.8406111096004" lon="8.246363882773412" id="-23535">
		<tag k="name" v="Tjørnestøyl" />
		<tag k="place" v="isolated_dwelling" />
		<tag k="ssr:stedsnr" v="911078" />
	</node>
	<node lat="58.760599998090576" lon="8.38478610260236" id="-23538">
		<tag k="name" v="Napen" />
		<tag k="place" v="isolated_dwelling" />
		<tag k="ssr:stedsnr" v="911313" />
	</node>
	<node lat="58.682997225681746" lon="8.404980551712104" id="-23539">
=======
	<node id="-542767" lat="58.8750611137" lon="8.30166666325">
		<tag k="name" v="Kvernhusbakken" />
		<tag k="place" v="farm" />
		<tag k="ssr:stedsnr" v="365003" />
	</node>
	<node id="-542764" lat="58.6758043599" lon="8.65802915792">
		<tag k="historic" v="shieling" />
		<tag k="name" v="Hytta" />
		<tag k="place" v="locality" />
		<tag k="ssr:stedsnr" v="364926" />
	</node>
	<node id="-542763" lat="58.6820638884" lon="8.70520277871">
>>>>>>> e1d4bc35ff8a6074a6f2e91616a996b547c36f15
		<tag k="fixme" v="consider place=hamlet" />
		<tag k="name" v="Vehus" />
		<tag k="place" v="farm" />
		<tag k="ssr:stedsnr" v="911319" />
	</node>
<<<<<<< HEAD
	<node lat="58.77565000268912" lon="8.230430554687768" id="-23544">
		<tag k="name" v="Ramsesaga" />
		<tag k="place" v="locality" />
		<tag k="ssr:stedsnr" v="911268" />
	</node>
	<node lat="58.66659722158672" lon="8.734636117535624" id="-23570">
		<tag k="name" v="Sandland" />
=======
	<node id="-542762" lat="58.9639611152" lon="8.17098055652">
		<tag k="name" v="Gjevdestøyl" />
		<tag k="place" v="isolated_dwelling" />
		<tag k="ssr:stedsnr" v="364907" />
	</node>
	<node id="-542758" lat="58.766205557" lon="8.52986667484">
		<tag k="alt_name" v="Haugane, vestre" />
		<tag k="fixme" v="multiple name tags, choose one and add the other to alt_name" />
		<tag k="name" v="Vestigard;Vestre Haugane" />
>>>>>>> e1d4bc35ff8a6074a6f2e91616a996b547c36f15
		<tag k="place" v="farm" />
		<tag k="ssr:stedsnr" v="954945" />
	</node>
<<<<<<< HEAD
	<node lat="58.7537305582932" lon="8.366991662819038" id="-23595">
		<tag k="name" v="Kvitterli" />
		<tag k="place" v="isolated_dwelling" />
		<tag k="ssr:stedsnr" v="961403" />
	</node>
	<node lat="58.86155555284585" lon="8.325855550565654" id="-23603">
		<tag k="name" v="Mosdøl" />
		<tag k="place" v="farm" />
		<tag k="ssr:stedsnr" v="961696" />
	</node>
	<node lat="58.70407221991816" lon="8.325016663987554" id="-23609">
		<tag k="name" v="Kjorrmoplassen" />
=======
	<node id="-540698" lat="58.760916664" lon="8.61427499223">
		<tag k="name" v="Stavvassbua" />
>>>>>>> e1d4bc35ff8a6074a6f2e91616a996b547c36f15
		<tag k="place" v="locality" />
		<tag k="ssr:stedsnr" v="961714" />
	</node>
<<<<<<< HEAD
	<node lat="58.83318332931123" lon="8.3948222165493" id="-23614">
		<tag k="name" v="Haugane" />
=======
	<node id="-542744" lat="58.8495388878" lon="8.34675555758">
		<tag k="name" v="Harstveit" />
>>>>>>> e1d4bc35ff8a6074a6f2e91616a996b547c36f15
		<tag k="place" v="farm" />
		<tag k="ssr:stedsnr" v="962486" />
	</node>
<<<<<<< HEAD
	<node lat="58.79165093396953" lon="8.026902348882453" id="-23626">
		<tag k="fixme" v="consider place=hamlet" />
		<tag k="name" v="Øvre Skjeggedal" />
		<tag k="place" v="farm" />
		<tag k="ssr:stedsnr" v="971334" />
	</node>
	<node lat="58.79929403386123" lon="7.998326741655458" id="-23627">
=======
	<node id="-542741" lat="58.8403388847" lon="8.17353888105">
		<tag k="name" v="Skrivarstoga" />
		<tag k="place" v="isolated_dwelling" />
		<tag k="ssr:stedsnr" v="364060" />
	</node>
	<node id="-542740" lat="58.8986305515" lon="8.25686389193">
>>>>>>> e1d4bc35ff8a6074a6f2e91616a996b547c36f15
		<tag k="fixme" v="consider place=hamlet" />
		<tag k="name" v="Tveitli" />
		<tag k="place" v="farm" />
		<tag k="ssr:stedsnr" v="971335" />
	</node>
<<<<<<< HEAD
	<node lat="58.797261827271434" lon="8.22312336358999" id="-23628">
=======
	<node id="-540690" lat="58.7645583289" lon="8.48806389388">
		<tag k="alt_name" v="Riisland" />
>>>>>>> e1d4bc35ff8a6074a6f2e91616a996b547c36f15
		<tag k="fixme" v="consider place=hamlet" />
		<tag k="name" v="Øvre Ramse" />
		<tag k="place" v="farm" />
		<tag k="ssr:stedsnr" v="971336" />
	</node>
<<<<<<< HEAD
	<node lat="58.87841826729552" lon="8.209396211804625" id="-23629">
		<tag k="fixme" v="consider place=hamlet" />
		<tag k="name" v="Hågestøl" />
=======
	<node id="-542736" lat="58.7717666651" lon="8.25008333608">
		<tag k="alt_name" v="Kruna" />
		<tag k="name" v="Krona" />
>>>>>>> e1d4bc35ff8a6074a6f2e91616a996b547c36f15
		<tag k="place" v="farm" />
		<tag k="ssr:stedsnr" v="971339" />
	</node>
<<<<<<< HEAD
	<node lat="58.8448555588937" lon="8.099291664677946" id="-23633">
		<tag k="name" v="Nordstog" />
		<tag k="place" v="farm" />
		<tag k="ssr:stedsnr" v="115" />
	</node>
	<node lat="58.742858328866724" lon="8.216005553756544" id="-23635">
		<tag k="historic" v="shieling" />
		<tag k="name" v="Nystøyl" />
=======
	<node id="-543064" lat="58.8953305527" lon="8.25828334157">
		<tag k="name" v="Solstoga" />
		<tag k="place" v="isolated_dwelling" />
		<tag k="ssr:stedsnr" v="416657" />
	</node>
	<node id="-542731" lat="58.927291663" lon="8.06849722025">
		<tag k="name" v="Krokvasshytta" />
>>>>>>> e1d4bc35ff8a6074a6f2e91616a996b547c36f15
		<tag k="place" v="isolated_dwelling" />
		<tag k="ssr:stedsnr" v="385" />
	</node>
<<<<<<< HEAD
	<node lat="58.776763889895165" lon="8.41395000337756" id="-23636">
		<tag k="name" v="Mjåvasstøyl" />
		<tag k="place" v="isolated_dwelling" />
		<tag k="ssr:stedsnr" v="204" />
	</node>
	<node lat="58.868422218270055" lon="8.196538893712974" id="-23650">
		<tag k="alt_name" v="Bjørbu" />
		<tag k="name" v="Bjorbu" />
		<tag k="place" v="isolated_dwelling" />
		<tag k="ssr:stedsnr" v="1027" />
	</node>
	<node lat="58.735419440400875" lon="8.498377770810347" id="-23652">
		<tag k="fixme" v="consider place=hamlet" />
		<tag k="name" v="Sigridnes" />
		<tag k="place" v="farm" />
		<tag k="ssr:stedsnr" v="1120" />
	</node>
	<node lat="58.76351944280562" lon="8.37591944852845" id="-23654">
		<tag k="name" v="Badstoga" />
		<tag k="place" v="isolated_dwelling" />
		<tag k="ssr:stedsnr" v="1227" />
	</node>
	<node lat="58.698739539897964" lon="8.349524818199692" id="-23663">
		<tag k="fixme" v="consider place=hamlet" />
		<tag k="name" v="Innjorda" />
		<tag k="place" v="farm" />
		<tag k="ssr:stedsnr" v="1444" />
	</node>
	<node lat="58.724371403727176" lon="8.424643678329646" id="-23665">
		<tag k="name" v="Smørli" />
		<tag k="place" v="locality" />
		<tag k="ssr:stedsnr" v="1480" />
	</node>
	<node lat="58.809700644190336" lon="8.52156580697034" id="-23669">
		<tag k="alt_name" v="Stoa" />
		<tag k="name" v="Ståa" />
		<tag k="place" v="farm" />
		<tag k="ssr:stedsnr" v="1666" />
	</node>
	<node lat="58.942569445572495" lon="8.118780554691098" id="-23672">
		<tag k="name" v="Storbekkli" />
		<tag k="place" v="isolated_dwelling" />
		<tag k="ssr:stedsnr" v="1911" />
	</node>
	<node lat="58.8503416693351" lon="8.581725005436622" id="-23680">
		<tag k="name" v="Den gamle plassen" />
		<tag k="place" v="locality" />
		<tag k="ssr:stedsnr" v="31048" />
	</node>
	<node lat="58.70499721925478" lon="8.586197226719209" id="-23689">
		<tag k="building" v="industrial" />
		<tag k="industrial" v="factory" />
		<tag k="name" v="Nidarå trelast A/S" />
		<tag k="ssr:stedsnr" v="31148" />
	</node>
	<node lat="58.86360555631589" lon="8.577658335035238" id="-23690">
		<tag k="name" v="Plassen" />
		<tag k="place" v="locality" />
		<tag k="ssr:stedsnr" v="31152" />
	</node>
	<node lat="58.773544446417965" lon="8.593324995216157" id="-23699">
		<tag k="name" v="Knutebua" />
		<tag k="place" v="locality" />
		<tag k="ssr:stedsnr" v="31382" />
	</node>
	<node lat="58.74266388600213" lon="8.445411106563121" id="-23715">
		<tag k="name" v="Havstad" />
		<tag k="place" v="farm" />
		<tag k="ssr:stedsnr" v="31657" />
	</node>
	<node lat="58.685719443209955" lon="8.403966671527025" id="-23725">
		<tag k="name" v="Lundevoll" />
		<tag k="place" v="farm" />
		<tag k="ssr:stedsnr" v="32274" />
	</node>
	<node lat="58.72175555810586" lon="8.360025003715707" id="-23736">
		<tag k="name" v="Eppeland" />
		<tag k="place" v="farm" />
		<tag k="ssr:stedsnr" v="32457" />
	</node>
	<node lat="58.74716667068362" lon="8.50897777740376" id="-23740">
		<tag k="name" v="Åmli hotell" />
		<tag k="ssr:stedsnr" v="32555" />
		<tag k="tourism" v="hotel" />
	</node>
	<node lat="58.81275888779221" lon="8.413869514485876" id="-23749">
		<tag k="name" v="Midtstøyl" />
		<tag k="place" v="farm" />
		<tag k="ssr:stedsnr" v="38430" />
	</node>
	<node lat="58.66520277413908" lon="8.729211111538648" id="-23751">
		<tag k="name" v="Gamle Sandland" />
		<tag k="place" v="locality" />
		<tag k="ssr:stedsnr" v="44938" />
	</node>
	<node lat="58.90200046415186" lon="8.008219557399302" id="-23761">
		<tag k="name" v="Ånebjørste-bua" />
		<tag k="place" v="locality" />
		<tag k="ssr:stedsnr" v="49246" />
	</node>
	<node lat="58.85885277579051" lon="8.325477773844947" id="-23794">
		<tag k="name" v="Fjellstad" />
		<tag k="place" v="farm" />
		<tag k="ssr:stedsnr" v="51715" />
	</node>
	<node lat="58.811950001393114" lon="8.137219444258138" id="-23807">
		<tag k="name" v="Skivestøyl" />
		<tag k="place" v="locality" />
		<tag k="ssr:stedsnr" v="51757" />
	</node>
	<node lat="58.692944448744676" lon="8.707508325068124" id="-23827">
		<tag k="name" v="Nylund" />
		<tag k="place" v="farm" />
		<tag k="ssr:stedsnr" v="62898" />
	</node>
	<node lat="58.82030277844287" lon="8.6369111120972" id="-23845">
		<tag k="alt_name" v="Øvre Haukedalen" />
		<tag k="name" v="Haukedalen" />
		<tag k="place" v="isolated_dwelling" />
		<tag k="ssr:stedsnr" v="61672" />
	</node>
	<node lat="58.84402500278037" lon="8.090686119050877" id="-23847">
		<tag k="name" v="Mjåland" />
		<tag k="place" v="farm" />
		<tag k="ssr:stedsnr" v="61767" />
	</node>
	<node lat="58.83139721837039" lon="8.55870000623621" id="-23896">
		<tag k="name" v="Surtemyr" />
		<tag k="place" v="locality" />
		<tag k="ssr:stedsnr" v="92435" />
	</node>
	<node lat="58.82979166952815" lon="8.554711114671495" id="-23897">
		<tag k="name" v="Øvre Krossbekk" />
		<tag k="place" v="farm" />
		<tag k="ssr:stedsnr" v="92437" />
	</node>
	<node lat="58.74727778224534" lon="8.45580832887606" id="-23908">
		<tag k="name" v="Sundet" />
		<tag k="place" v="farm" />
		<tag k="ssr:stedsnr" v="92660" />
	</node>
	<node lat="58.696367469681135" lon="8.362547061360056" id="-23910">
		<tag k="alt_name" v="Hommedal, store" />
		<tag k="name" v="Store Homedal" />
		<tag k="place" v="locality" />
		<tag k="ssr:stedsnr" v="93334" />
	</node>
	<node lat="58.698635966738" lon="8.348989543657332" id="-23911">
		<tag k="name" v="Innjorda" />
		<tag k="place" v="farm" />
		<tag k="ssr:stedsnr" v="93339" />
	</node>
	<node lat="58.71459722168597" lon="8.352602770776576" id="-23913">
		<tag k="name" v="Sandhaug" />
		<tag k="place" v="farm" />
		<tag k="ssr:stedsnr" v="93429" />
	</node>
	<node lat="58.80561389239516" lon="8.39613055689832" id="-23917">
		<tag k="name" v="Der ute" />
		<tag k="place" v="farm" />
		<tag k="ssr:stedsnr" v="98393" />
	</node>
	<node lat="58.813197222049716" lon="8.414511112689368" id="-23920">
		<tag k="name" v="Haugestøylen" />
		<tag k="place" v="isolated_dwelling" />
		<tag k="ssr:stedsnr" v="99423" />
	</node>
	<node lat="58.869781289994734" lon="8.027470510175624" id="-23936">
		<tag k="name" v="Kleivhytta" />
		<tag k="place" v="locality" />
		<tag k="ssr:stedsnr" v="111039" />
	</node>
	<node lat="58.82276978432752" lon="8.247101418166572" id="-23974">
		<tag k="name" v="Skarslihytta" />
		<tag k="place" v="locality" />
		<tag k="ssr:stedsnr" v="112693" />
	</node>
	<node lat="58.83383333454218" lon="8.39729722670241" id="-23997">
		<tag k="fixme" v="consider place=hamlet" />
		<tag k="name" v="Homdrom" />
		<tag k="place" v="village" />
		<tag k="ssr:stedsnr" v="122148" />
	</node>
	<node lat="58.79381549671131" lon="8.306823164770872" id="-24000">
		<tag k="name" v="Lauvdal" />
		<tag k="place" v="locality" />
		<tag k="ssr:stedsnr" v="122224" />
	</node>
	<node lat="58.78605000151011" lon="8.201986117722102" id="-24001">
		<tag k="fixme" v="consider place=hamlet" />
		<tag k="name" v="Tveit" />
		<tag k="place" v="farm" />
		<tag k="ssr:stedsnr" v="122231" />
	</node>
	<node lat="58.65408771410095" lon="8.397633766491419" id="-24004">
		<tag k="name" v="Myre" />
		<tag k="place" v="farm" />
		<tag k="ssr:stedsnr" v="122278" />
	</node>
	<node lat="58.83417367532937" lon="8.584518966886485" id="-24009">
		<tag k="name" v="Vang" />
		<tag k="place" v="farm" />
		<tag k="ssr:stedsnr" v="122628" />
	</node>
	<node lat="58.81708333556754" lon="8.536624993799522" id="-24011">
		<tag k="name" v="Bytingsbekk" />
		<tag k="place" v="farm" />
		<tag k="ssr:stedsnr" v="122648" />
	</node>
	<node lat="58.82214444558448" lon="8.54606111173522" id="-24012">
		<tag k="fixme" v="consider place=hamlet" />
		<tag k="name" v="Krossbekk" />
		<tag k="place" v="farm" />
		<tag k="ssr:stedsnr" v="122663" />
	</node>
	<node lat="58.711168290917755" lon="8.23770368023346" id="-24014">
		<tag k="alt_name" v="Vå" />
		<tag k="name" v="Vaa" />
		<tag k="place" v="locality" />
		<tag k="ssr:stedsnr" v="122455" />
	</node>
	<node lat="58.63470277929" lon="8.74668055341378" id="-24017">
		<tag k="name" v="Setane" />
		<tag k="place" v="farm" />
		<tag k="ssr:stedsnr" v="122775" />
	</node>
	<node lat="58.68879444509048" lon="8.511361109229593" id="-24027">
		<tag k="name" v="Fjellstøyllia" />
		<tag k="place" v="farm" />
		<tag k="ssr:stedsnr" v="122862" />
	</node>
	<node lat="58.6775972251869" lon="8.546474998278699" id="-24029">
		<tag k="alt_name" v="Vestre Mosberg" />
		<tag k="name" v="Mosberg" />
		<tag k="place" v="isolated_dwelling" />
		<tag k="ssr:stedsnr" v="122917" />
	</node>
	<node lat="58.941098629005566" lon="8.106288000945002" id="-24030">
		<tag k="name" v="Øvre Hegestøyl" />
		<tag k="place" v="farm" />
		<tag k="ssr:stedsnr" v="122934" />
	</node>
	<node lat="58.656833333285135" lon="8.728405558918144" id="-24033">
		<tag k="fixme" v="consider place=hamlet" />
		<tag k="name" v="Furland" />
		<tag k="place" v="farm" />
		<tag k="ssr:stedsnr" v="122946" />
	</node>
	<node lat="58.71059722037226" lon="8.604561108225255" id="-24091">
		<tag k="name" v="Hytta" />
		<tag k="place" v="farm" />
		<tag k="ssr:stedsnr" v="153584" />
	</node>
	<node lat="58.73668055652462" lon="8.460947226599686" id="-24093">
		<tag k="name" v="Kringlebakk" />
		<tag k="place" v="farm" />
		<tag k="ssr:stedsnr" v="153687" />
	</node>
	<node lat="58.82508071262021" lon="8.014042671179373" id="-24128">
		<tag k="name" v="Hudekvina" />
		<tag k="place" v="isolated_dwelling" />
		<tag k="ssr:stedsnr" v="171941" />
	</node>
	<node lat="58.849677780578965" lon="8.29445277536881" id="-24144">
		<tag k="name" v="Bjønnåshytta" />
		<tag k="place" v="isolated_dwelling" />
		<tag k="ssr:stedsnr" v="172719" />
	</node>
	<node lat="58.85412777670196" lon="8.341861115658881" id="-24149">
		<tag k="name" v="Landbø" />
		<tag k="place" v="farm" />
		<tag k="ssr:stedsnr" v="172733" />
	</node>
	<node lat="58.75989999920973" lon="8.412397224387936" id="-24159">
		<tag k="name" v="Saga" />
		<tag k="place" v="locality" />
		<tag k="ssr:stedsnr" v="172799" />
	</node>
	<node lat="58.77286111391851" lon="8.096813890533216" id="-24187">
		<tag k="fixme" v="consider place=hamlet" />
		<tag k="name" v="Hestkleiv" />
		<tag k="place" v="farm" />
		<tag k="ssr:stedsnr" v="182234" />
	</node>
=======
>>>>>>> e1d4bc35ff8a6074a6f2e91616a996b547c36f15
</osm>
