<?xml version="1.0" encoding="UTF-8"?>
<osm version="0.6" generator="osmapis">
	<node lat="60.19143980493478" lon="6.083410064565713" id="-31725">
		<tag k="alt_name" v="Hamaren" />
		<tag k="name" v="Hammaren" />
		<tag k="ssr:date" v="2020-09-08" />
		<tag k="ssr:gruppe" v="navigasjon" />
		<tag k="ssr:hovedgruppe" v="infrastruktur" />
		<tag k="ssr:stedsnr" v="248570" />
		<tag k="ssr:type" v="fyrlykt" />
	</node>
	<node lat="60.29388611321546" lon="6.2225500072977535" id="-32100">
		<tag k="alt_name" v="Jonanes" />
		<tag k="name" v="Jonanes lykt" />
		<tag k="old_name" v="Joanes" />
		<tag k="ssr:date" v="2019-12-27" />
		<tag k="ssr:gruppe" v="navigasjon" />
		<tag k="ssr:hovedgruppe" v="infrastruktur" />
		<tag k="ssr:stedsnr" v="369024" />
		<tag k="ssr:type" v="fyrlykt" />
	</node>
	<node lat="60.24959166817809" lon="6.201072226016762" id="-32775">
		<tag k="name" v="Kveldslendi" />
		<tag k="ssr:date" v="2019-12-27" />
		<tag k="ssr:gruppe" v="sjøbunn" />
		<tag k="ssr:hovedgruppe" v="sjø" />
		<tag k="ssr:stedsnr" v="584848" />
		<tag k="ssr:type" v="ryggISjø" />
	</node>
	<node lat="60.0880388892576" lon="6.540311103923767" id="-33158">
		<tag k="alt_name" v="Eitrheimsnes;Eitrheimsnes lykt" />
		<tag k="name" v="Eitrheimsneset lykt" />
		<tag k="ssr:date" v="2019-12-27" />
		<tag k="ssr:gruppe" v="navigasjon" />
		<tag k="ssr:hovedgruppe" v="infrastruktur" />
		<tag k="ssr:stedsnr" v="711779" />
		<tag k="ssr:type" v="fyrlykt" />
	</node>
	<node lat="60.17105277690581" lon="6.571372224336128" id="-33303">
		<tag k="fixme" v="multiple name tags, choose one and add the other to alt_name" />
		<tag k="name" v="Tednenes;Tednenes lykt" />
		<tag k="ssr:date" v="2019-12-27" />
		<tag k="ssr:gruppe" v="navigasjon" />
		<tag k="ssr:hovedgruppe" v="infrastruktur" />
		<tag k="ssr:stedsnr" v="771727" />
		<tag k="ssr:type" v="fyrlykt" />
	</node>
	<node lat="60.280831445467314" lon="6.618474550446412" id="-34397">
		<tag k="alt_name" v="Børvenes" />
		<tag k="name" v="Børvenes lykt" />
		<tag k="ssr:date" v="2020-09-08" />
		<tag k="ssr:gruppe" v="navigasjon" />
		<tag k="ssr:hovedgruppe" v="infrastruktur" />
		<tag k="ssr:stedsnr" v="149786" />
		<tag k="ssr:type" v="fyrlykt" />
	</node>
	<node lat="60.20378888806672" lon="6.410669440890442" id="-34658">
		<tag k="name" v="Hardanger" />
		<tag k="ssr:date" v="2019-12-27" />
		<tag k="ssr:gruppe" v="terrengområder" />
		<tag k="ssr:hovedgruppe" v="terreng" />
		<tag k="ssr:stedsnr" v="206291" />
		<tag k="ssr:type" v="landskapsområde" />
	</node>
	<node lat="59.85806666641019" lon="6.705311104411542" id="-34852">
		<tag k="name" v="Seljestadsvingane" />
		<tag k="ssr:date" v="2019-12-27" />
		<tag k="ssr:gruppe" v="veg" />
		<tag k="ssr:hovedgruppe" v="infrastruktur" />
		<tag k="ssr:stedsnr" v="307245" />
		<tag k="ssr:type" v="vegstrekning" />
	</node>
	<node lat="60.20350277701719" lon="6.113197228767622" id="-35873">
		<tag k="name" v="Kysnesstrand" />
		<tag k="ssr:date" v="2019-12-27" />
		<tag k="ssr:gruppe" v="administrativeIndelinger" />
		<tag k="ssr:hovedgruppe" v="offentligAdministrasjon" />
		<tag k="ssr:stedsnr" v="648917" />
		<tag k="ssr:type" v="poststed" />
	</node>
	<node lat="59.865683331859735" lon="6.6859055541676815" id="-35916">
		<tag k="name" v="Gorsvingane" />
		<tag k="ssr:date" v="2019-12-27" />
		<tag k="ssr:gruppe" v="veg" />
		<tag k="ssr:hovedgruppe" v="infrastruktur" />
		<tag k="ssr:stedsnr" v="732232" />
		<tag k="ssr:type" v="vegstrekning" />
	</node>
	<node lat="60.42153975708584" lon="6.539462820680928" id="-36659">
		<tag k="name" v="Ekrene" />
		<tag k="ssr:date" v="2019-12-27" />
		<tag k="ssr:gruppe" v="veg" />
		<tag k="ssr:hovedgruppe" v="infrastruktur" />
		<tag k="ssr:stedsnr" v="987529" />
		<tag k="ssr:type" v="adressenavn" />
	</node>
	<node lat="60.283885953602336" lon="6.5914997303859595" id="-36660">
		<tag k="name" v="Fletene" />
		<tag k="ssr:date" v="2019-12-27" />
		<tag k="ssr:gruppe" v="veg" />
		<tag k="ssr:hovedgruppe" v="infrastruktur" />
		<tag k="ssr:stedsnr" v="987530" />
		<tag k="ssr:type" v="adressenavn" />
	</node>
	<node lat="60.38269025493746" lon="6.493834020335134" id="-36661">
		<tag k="name" v="Gravene" />
		<tag k="ssr:date" v="2019-12-27" />
		<tag k="ssr:gruppe" v="veg" />
		<tag k="ssr:hovedgruppe" v="infrastruktur" />
		<tag k="ssr:stedsnr" v="987531" />
		<tag k="ssr:type" v="adressenavn" />
	</node>
	<node lat="60.375062004229186" lon="6.640629261534407" id="-36662">
		<tag k="name" v="Hausalia" />
		<tag k="ssr:date" v="2019-12-27" />
		<tag k="ssr:gruppe" v="veg" />
		<tag k="ssr:hovedgruppe" v="infrastruktur" />
		<tag k="ssr:stedsnr" v="987532" />
		<tag k="ssr:type" v="adressenavn" />
	</node>
	<node lat="60.43325576715203" lon="6.560586702569852" id="-36663">
		<tag k="name" v="Lerkeholene" />
		<tag k="ssr:date" v="2019-12-27" />
		<tag k="ssr:gruppe" v="veg" />
		<tag k="ssr:hovedgruppe" v="infrastruktur" />
		<tag k="ssr:stedsnr" v="987533" />
		<tag k="ssr:type" v="adressenavn" />
	</node>
	<node lat="60.28957311078376" lon="6.59750486369433" id="-36664">
		<tag k="name" v="Syreflot" />
		<tag k="ssr:date" v="2019-12-27" />
		<tag k="ssr:gruppe" v="veg" />
		<tag k="ssr:hovedgruppe" v="infrastruktur" />
		<tag k="ssr:stedsnr" v="987534" />
		<tag k="ssr:type" v="adressenavn" />
	</node>
	<node lat="60.365371400656066" lon="6.41501380455578" id="-36665">
		<tag k="name" v="Vetlås" />
		<tag k="ssr:date" v="2019-12-27" />
		<tag k="ssr:gruppe" v="veg" />
		<tag k="ssr:hovedgruppe" v="infrastruktur" />
		<tag k="ssr:stedsnr" v="987535" />
		<tag k="ssr:type" v="adressenavn" />
	</node>
	<node lat="60.32565133088106" lon="6.659087118838639" id="-36666">
		<tag k="name" v="Hellelandsvegen" />
		<tag k="ssr:date" v="2019-12-27" />
		<tag k="ssr:gruppe" v="veg" />
		<tag k="ssr:hovedgruppe" v="infrastruktur" />
		<tag k="ssr:stedsnr" v="987536" />
		<tag k="ssr:type" v="adressenavn" />
	</node>
	<node lat="60.279346152550715" lon="6.253093073329464" id="-36677">
		<tag k="name" v="Flåten" />
		<tag k="ssr:date" v="2019-12-27" />
		<tag k="ssr:gruppe" v="veg" />
		<tag k="ssr:hovedgruppe" v="infrastruktur" />
		<tag k="ssr:stedsnr" v="1037754" />
		<tag k="ssr:type" v="adressenavn" />
	</node>
	<node lat="60.3507118593299" lon="6.359785800635904" id="-36678">
		<tag k="name" v="Mulen" />
		<tag k="ssr:date" v="2019-12-27" />
		<tag k="ssr:gruppe" v="veg" />
		<tag k="ssr:hovedgruppe" v="infrastruktur" />
		<tag k="ssr:stedsnr" v="1037794" />
		<tag k="ssr:type" v="adressenavn" />
	</node>
	<node lat="60.35836159969457" lon="6.353223171450748" id="-36679">
		<tag k="name" v="Samlen" />
		<tag k="ssr:date" v="2019-12-27" />
		<tag k="ssr:gruppe" v="veg" />
		<tag k="ssr:hovedgruppe" v="infrastruktur" />
		<tag k="ssr:stedsnr" v="1038084" />
		<tag k="ssr:type" v="adressenavn" />
	</node>
	<node lat="60.30611371455339" lon="6.2936783231880495" id="-36680">
		<tag k="name" v="Tømmervikvegen" />
		<tag k="ssr:date" v="2019-12-27" />
		<tag k="ssr:gruppe" v="veg" />
		<tag k="ssr:hovedgruppe" v="infrastruktur" />
		<tag k="ssr:stedsnr" v="1038020" />
		<tag k="ssr:type" v="adressenavn" />
	</node>
	<node lat="60.33798022732851" lon="6.344345363990863" id="-36681">
		<tag k="name" v="Herandsholmen" />
		<tag k="ssr:date" v="2019-12-27" />
		<tag k="ssr:gruppe" v="veg" />
		<tag k="ssr:hovedgruppe" v="infrastruktur" />
		<tag k="ssr:stedsnr" v="1038088" />
		<tag k="ssr:type" v="adressenavn" />
	</node>
	<node lat="60.141095991946585" lon="6.583975675915275" id="-36682">
		<tag k="name" v="Isberg" />
		<tag k="ssr:date" v="2019-12-27" />
		<tag k="ssr:gruppe" v="veg" />
		<tag k="ssr:hovedgruppe" v="infrastruktur" />
		<tag k="ssr:stedsnr" v="1041152" />
		<tag k="ssr:type" v="adressenavn" />
	</node>
	<node lat="60.00130621102986" lon="6.565354264350646" id="-36683">
		<tag k="name" v="Tjørnadalsvegen" />
		<tag k="ssr:date" v="2019-12-27" />
		<tag k="ssr:gruppe" v="veg" />
		<tag k="ssr:hovedgruppe" v="infrastruktur" />
		<tag k="ssr:stedsnr" v="1041153" />
		<tag k="ssr:type" v="adressenavn" />
	</node>
	<node lat="59.9950680298895" lon="6.566451240623047" id="-36684">
		<tag k="name" v="Hildal" />
		<tag k="ssr:date" v="2019-12-27" />
		<tag k="ssr:gruppe" v="veg" />
		<tag k="ssr:hovedgruppe" v="infrastruktur" />
		<tag k="ssr:stedsnr" v="1041155" />
		<tag k="ssr:type" v="adressenavn" />
	</node>
	<node lat="60.17003661529957" lon="6.53924620473856" id="-36685">
		<tag k="name" v="Åsevegen" />
		<tag k="ssr:date" v="2019-12-27" />
		<tag k="ssr:gruppe" v="veg" />
		<tag k="ssr:hovedgruppe" v="infrastruktur" />
		<tag k="ssr:stedsnr" v="1041165" />
		<tag k="ssr:type" v="adressenavn" />
	</node>
	<node lat="59.8515206090693" lon="6.931429362099881" id="-36688">
		<tag k="name" v="Staven" />
		<tag k="ssr:date" v="2019-12-27" />
		<tag k="ssr:gruppe" v="veg" />
		<tag k="ssr:hovedgruppe" v="infrastruktur" />
		<tag k="ssr:stedsnr" v="1073253" />
		<tag k="ssr:type" v="vegstrekning" />
	</node>
	<node lat="60.136900481929025" lon="6.148720880717255" id="-36689">
		<tag k="name" v="Olderskotet" />
		<tag k="ssr:date" v="2019-12-27" />
		<tag k="ssr:gruppe" v="veg" />
		<tag k="ssr:hovedgruppe" v="infrastruktur" />
		<tag k="ssr:stedsnr" v="1073941" />
		<tag k="ssr:type" v="adressenavn" />
	</node>
	<node lat="60.253039117532296" lon="6.559081380904611" id="-36690">
		<tag k="name" v="Reisetevegen" />
		<tag k="ssr:date" v="2019-12-27" />
		<tag k="ssr:gruppe" v="veg" />
		<tag k="ssr:hovedgruppe" v="infrastruktur" />
		<tag k="ssr:stedsnr" v="1074046" />
		<tag k="ssr:type" v="adressenavn" />
	</node>
	<node lat="60.31946075994398" lon="6.667173185723265" id="-36691">
		<tag k="name" v="Legene" />
		<tag k="ssr:date" v="2019-12-27" />
		<tag k="ssr:gruppe" v="veg" />
		<tag k="ssr:hovedgruppe" v="infrastruktur" />
		<tag k="ssr:stedsnr" v="1074329" />
		<tag k="ssr:type" v="adressenavn" />
	</node>
	<node lat="60.3107260510888" lon="6.30235165845591" id="-36692">
		<tag k="name" v="Svåsandshagen" />
		<tag k="ssr:date" v="2019-12-27" />
		<tag k="ssr:gruppe" v="veg" />
		<tag k="ssr:hovedgruppe" v="infrastruktur" />
		<tag k="ssr:stedsnr" v="1074335" />
		<tag k="ssr:type" v="adressenavn" />
	</node>
	<node lat="60.066953169678335" lon="6.545487213136426" id="-36693">
		<tag k="name" v="Ullensvang kommune" />
		<tag k="ssr:date" v="2021-06-08" />
		<tag k="ssr:gruppe" v="administrativeIndelinger" />
		<tag k="ssr:hovedgruppe" v="offentligAdministrasjon" />
		<tag k="ssr:stedsnr" v="1074396" />
		<tag k="ssr:type" v="kommune" />
	</node>
	<node lat="60.38666587132831" lon="5.332557531214444" id="-36694">
		<tag k="name" v="Vestland fylke" />
		<tag k="ssr:date" v="2021-06-08" />
		<tag k="ssr:gruppe" v="administrativeIndelinger" />
		<tag k="ssr:hovedgruppe" v="offentligAdministrasjon" />
		<tag k="ssr:stedsnr" v="1074408" />
		<tag k="ssr:type" v="fylke" />
	</node>
	<node lat="59.907404489143424" lon="6.5175046670738" id="-36706">
		<tag k="name" v="Vintertun" />
		<tag k="ssr:date" v="2021-01-26" />
		<tag k="ssr:gruppe" v="veg" />
		<tag k="ssr:hovedgruppe" v="infrastruktur" />
		<tag k="ssr:stedsnr" v="1079761" />
		<tag k="ssr:type" v="adressenavn" />
	</node>
	<node lat="59.9356598579372" lon="6.5887714193079505" id="-36707">
		<tag k="name" v="Jøsendal" />
		<tag k="ssr:date" v="2021-01-26" />
		<tag k="ssr:gruppe" v="veg" />
		<tag k="ssr:hovedgruppe" v="infrastruktur" />
		<tag k="ssr:stedsnr" v="1079760" />
		<tag k="ssr:type" v="adressenavn" />
	</node>
	<node lat="60.044112737887254" lon="6.534150021159265" id="-36708">
		<tag k="name" v="Strondsvegen" />
		<tag k="ssr:date" v="2021-01-26" />
		<tag k="ssr:gruppe" v="veg" />
		<tag k="ssr:hovedgruppe" v="infrastruktur" />
		<tag k="ssr:stedsnr" v="1079762" />
		<tag k="ssr:type" v="adressenavn" />
	</node>
	<node lat="59.90289112904823" lon="6.627346817205125" id="-36710">
		<tag k="name" v="Rinden" />
		<tag k="ssr:date" v="2021-02-25" />
		<tag k="ssr:gruppe" v="veg" />
		<tag k="ssr:hovedgruppe" v="infrastruktur" />
		<tag k="ssr:stedsnr" v="1080146" />
		<tag k="ssr:type" v="adressenavn" />
	</node>
	<node lat="60.0441352990726" lon="6.533914850717167" id="-36711">
		<tag k="name" v="Buervegen" />
		<tag k="ssr:date" v="2021-01-19" />
		<tag k="ssr:gruppe" v="veg" />
		<tag k="ssr:hovedgruppe" v="infrastruktur" />
		<tag k="ssr:stedsnr" v="1079656" />
		<tag k="ssr:type" v="adressenavn" />
	</node>
	<node lat="59.9028903294876" lon="6.625467309812995" id="-36712">
		<tag k="name" v="Torekoven" />
		<tag k="ssr:date" v="2021-02-02" />
		<tag k="ssr:gruppe" v="veg" />
		<tag k="ssr:hovedgruppe" v="infrastruktur" />
		<tag k="ssr:stedsnr" v="1079824" />
		<tag k="ssr:type" v="adressenavn" />
	</node>
	<node lat="59.902086244363005" lon="6.6237185382630885" id="-36713">
		<tag k="name" v="Løyningsvegen" />
		<tag k="ssr:date" v="2021-02-02" />
		<tag k="ssr:gruppe" v="veg" />
		<tag k="ssr:hovedgruppe" v="infrastruktur" />
		<tag k="ssr:stedsnr" v="1079825" />
		<tag k="ssr:type" v="adressenavn" />
	</node>
	<node lat="59.890461665548195" lon="6.645214663791833" id="-36714">
		<tag k="name" v="Seljestad" />
		<tag k="ssr:date" v="2021-02-09" />
		<tag k="ssr:gruppe" v="veg" />
		<tag k="ssr:hovedgruppe" v="infrastruktur" />
		<tag k="ssr:stedsnr" v="1079914" />
		<tag k="ssr:type" v="adressenavn" />
	</node>
	<node lat="59.90432932812203" lon="6.633107141340867" id="-36715">
		<tag k="name" v="Felledalen" />
		<tag k="ssr:date" v="2021-04-13" />
		<tag k="ssr:gruppe" v="veg" />
		<tag k="ssr:hovedgruppe" v="infrastruktur" />
		<tag k="ssr:stedsnr" v="1080780" />
		<tag k="ssr:type" v="adressenavn" />
	</node>
	<node lat="59.9001746174485" lon="6.626300842557132" id="-36716">
		<tag k="name" v="Hjallen" />
		<tag k="ssr:date" v="2021-02-23" />
		<tag k="ssr:gruppe" v="veg" />
		<tag k="ssr:hovedgruppe" v="infrastruktur" />
		<tag k="ssr:stedsnr" v="1080116" />
		<tag k="ssr:type" v="adressenavn" />
	</node>
	<node lat="59.90396133980488" lon="6.629164637758495" id="-36717">
		<tag k="name" v="Storkildalen" />
		<tag k="ssr:date" v="2021-03-09" />
		<tag k="ssr:gruppe" v="veg" />
		<tag k="ssr:hovedgruppe" v="infrastruktur" />
		<tag k="ssr:stedsnr" v="1080286" />
		<tag k="ssr:type" v="adressenavn" />
	</node>
	<node lat="59.90532248492225" lon="6.62986369199741" id="-36718">
		<tag k="name" v="Harastien" />
		<tag k="ssr:date" v="2021-03-11" />
		<tag k="ssr:gruppe" v="veg" />
		<tag k="ssr:hovedgruppe" v="infrastruktur" />
		<tag k="ssr:stedsnr" v="1080398" />
		<tag k="ssr:type" v="adressenavn" />
	</node>
	<node lat="59.81715832753201" lon="6.750421188315644" id="-36720">
		<tag k="name" v="Myklastøl" />
		<tag k="ssr:date" v="2021-05-18" />
		<tag k="ssr:gruppe" v="veg" />
		<tag k="ssr:hovedgruppe" v="infrastruktur" />
		<tag k="ssr:stedsnr" v="1081260" />
		<tag k="ssr:type" v="adressenavn" />
	</node>
	<node lat="59.90690838580718" lon="6.632232491871071" id="-36724">
		<tag k="name" v="Kleivadalen" />
		<tag k="ssr:date" v="2021-05-20" />
		<tag k="ssr:gruppe" v="veg" />
		<tag k="ssr:hovedgruppe" v="infrastruktur" />
		<tag k="ssr:stedsnr" v="1081296" />
		<tag k="ssr:type" v="adressenavn" />
	</node>
	<node lat="59.908586197224295" lon="6.636722421988125" id="-36725">
		<tag k="name" v="Storeluren" />
		<tag k="ssr:date" v="2021-05-20" />
		<tag k="ssr:gruppe" v="veg" />
		<tag k="ssr:hovedgruppe" v="infrastruktur" />
		<tag k="ssr:stedsnr" v="1081298" />
		<tag k="ssr:type" v="adressenavn" />
	</node>
	<node lat="59.90065721963218" lon="6.629536449214324" id="-36726">
		<tag k="name" v="Parisdalen" />
		<tag k="ssr:date" v="2021-05-25" />
		<tag k="ssr:gruppe" v="veg" />
		<tag k="ssr:hovedgruppe" v="infrastruktur" />
		<tag k="ssr:stedsnr" v="1081321" />
		<tag k="ssr:type" v="adressenavn" />
	</node>
	<node lat="59.89158644420702" lon="6.650250232597449" id="-36727">
		<tag k="name" v="Ørnabergvegen" />
		<tag k="ssr:date" v="2021-05-25" />
		<tag k="ssr:gruppe" v="veg" />
		<tag k="ssr:hovedgruppe" v="infrastruktur" />
		<tag k="ssr:stedsnr" v="1081322" />
		<tag k="ssr:type" v="adressenavn" />
	</node>
	<node lat="59.854416832575616" lon="6.86959721937793" id="-36729">
		<tag k="name" v="Valldalsvegen" />
		<tag k="ssr:date" v="2021-06-03" />
		<tag k="ssr:gruppe" v="veg" />
		<tag k="ssr:hovedgruppe" v="infrastruktur" />
		<tag k="ssr:stedsnr" v="1081438" />
		<tag k="ssr:type" v="adressenavn" />
	</node>
	<node lat="59.9131658322763" lon="6.5994778835898895" id="-36731">
		<tag k="name" v="Middagsnuten" />
		<tag k="ssr:date" v="2021-06-10" />
		<tag k="ssr:gruppe" v="veg" />
		<tag k="ssr:hovedgruppe" v="infrastruktur" />
		<tag k="ssr:stedsnr" v="1081484" />
		<tag k="ssr:type" v="adressenavn" />
	</node>
	<node lat="59.913773267019735" lon="6.607819927833231" id="-36732">
		<tag k="name" v="Lontjørnane" />
		<tag k="ssr:date" v="2021-06-15" />
		<tag k="ssr:gruppe" v="veg" />
		<tag k="ssr:hovedgruppe" v="infrastruktur" />
		<tag k="ssr:stedsnr" v="1081519" />
		<tag k="ssr:type" v="adressenavn" />
	</node>
	<node lat="59.910791054111606" lon="6.61149827549297" id="-36733">
		<tag k="name" v="Smørtjørnsmoen" />
		<tag k="ssr:date" v="2021-06-29" />
		<tag k="ssr:gruppe" v="veg" />
		<tag k="ssr:hovedgruppe" v="infrastruktur" />
		<tag k="ssr:stedsnr" v="1081672" />
		<tag k="ssr:type" v="adressenavn" />
	</node>
	<node lat="59.90607859170279" lon="6.597177386468085" id="-36740">
		<tag k="name" v="Vardane" />
		<tag k="ssr:date" v="2021-09-07" />
		<tag k="ssr:gruppe" v="veg" />
		<tag k="ssr:hovedgruppe" v="infrastruktur" />
		<tag k="ssr:stedsnr" v="1082113" />
		<tag k="ssr:type" v="adressenavn" />
	</node>
	<node lat="59.90782462169895" lon="6.612183046167987" id="-36741">
		<tag k="name" v="Øvre Lontjørnshaugane" />
		<tag k="ssr:date" v="2021-09-07" />
		<tag k="ssr:gruppe" v="veg" />
		<tag k="ssr:hovedgruppe" v="infrastruktur" />
		<tag k="ssr:stedsnr" v="1082114" />
		<tag k="ssr:type" v="adressenavn" />
	</node>
	<node lat="59.90816794521824" lon="6.611299829986036" id="-36742">
		<tag k="name" v="Nedre Lontjørnshaugane" />
		<tag k="ssr:date" v="2021-09-07" />
		<tag k="ssr:gruppe" v="veg" />
		<tag k="ssr:hovedgruppe" v="infrastruktur" />
		<tag k="ssr:stedsnr" v="1082115" />
		<tag k="ssr:type" v="adressenavn" />
	</node>
	<node lat="59.8194970405085" lon="6.747980210699127" id="-36745">
		<tag k="name" v="Sjurasvingen" />
		<tag k="ssr:date" v="2021-09-28" />
		<tag k="ssr:gruppe" v="veg" />
		<tag k="ssr:hovedgruppe" v="infrastruktur" />
		<tag k="ssr:stedsnr" v="1082430" />
		<tag k="ssr:type" v="adressenavn" />
	</node>
	<node lat="59.81708381389535" lon="6.750581392460384" id="-36746">
		<tag k="name" v="Hagabekk" />
		<tag k="ssr:date" v="2021-09-28" />
		<tag k="ssr:gruppe" v="veg" />
		<tag k="ssr:hovedgruppe" v="infrastruktur" />
		<tag k="ssr:stedsnr" v="1082431" />
		<tag k="ssr:type" v="adressenavn" />
	</node>
	<node lat="59.902646272900235" lon="6.634372804324176" id="-36747">
		<tag k="name" v="Løyningsosen" />
		<tag k="ssr:date" v="2021-10-07" />
		<tag k="ssr:gruppe" v="veg" />
		<tag k="ssr:hovedgruppe" v="infrastruktur" />
		<tag k="ssr:stedsnr" v="1082558" />
		<tag k="ssr:type" v="adressenavn" />
	</node>
	<node lat="59.95404704090969" lon="6.674734059076231" id="-36748">
		<tag k="name" v="Vikås" />
		<tag k="ssr:date" v="2021-10-21" />
		<tag k="ssr:gruppe" v="veg" />
		<tag k="ssr:hovedgruppe" v="infrastruktur" />
		<tag k="ssr:stedsnr" v="1082682" />
		<tag k="ssr:type" v="adressenavn" />
	</node>
	<node lat="59.94871756775771" lon="6.6654371745585275" id="-36749">
		<tag k="name" v="Naustmyrane" />
		<tag k="ssr:date" v="2021-10-21" />
		<tag k="ssr:gruppe" v="veg" />
		<tag k="ssr:hovedgruppe" v="infrastruktur" />
		<tag k="ssr:stedsnr" v="1082686" />
		<tag k="ssr:type" v="adressenavn" />
	</node>
	<node lat="59.946371583874615" lon="6.659782493132451" id="-36750">
		<tag k="name" v="Sanden" />
		<tag k="ssr:date" v="2021-10-21" />
		<tag k="ssr:gruppe" v="veg" />
		<tag k="ssr:hovedgruppe" v="infrastruktur" />
		<tag k="ssr:stedsnr" v="1082687" />
		<tag k="ssr:type" v="adressenavn" />
	</node>
	<node lat="59.95504250537846" lon="6.657379751197373" id="-36751">
		<tag k="name" v="Fisketjørnskleiva" />
		<tag k="ssr:date" v="2021-10-26" />
		<tag k="ssr:gruppe" v="veg" />
		<tag k="ssr:hovedgruppe" v="infrastruktur" />
		<tag k="ssr:stedsnr" v="1082752" />
		<tag k="ssr:type" v="adressenavn" />
	</node>
	<node lat="59.94872073365137" lon="6.665616032150901" id="-36752">
		<tag k="name" v="Skålnes" />
		<tag k="ssr:date" v="2021-10-26" />
		<tag k="ssr:gruppe" v="veg" />
		<tag k="ssr:hovedgruppe" v="infrastruktur" />
		<tag k="ssr:stedsnr" v="1082750" />
		<tag k="ssr:type" v="adressenavn" />
	</node>
	<node lat="59.94871978390873" lon="6.6655623748690065" id="-36753">
		<tag k="name" v="Austdalen" />
		<tag k="ssr:date" v="2021-10-26" />
		<tag k="ssr:gruppe" v="veg" />
		<tag k="ssr:hovedgruppe" v="infrastruktur" />
		<tag k="ssr:stedsnr" v="1082751" />
		<tag k="ssr:type" v="adressenavn" />
	</node>
</osm>
