<?xml version="1.0" encoding="UTF-8"?>
<osm version="0.6" generator="osmapis">
	<node lat="60.21170000390641" lon="6.566936118253708" id="-34325">
		<tag k="bridge" v="yes" />
		<tag k="layer" v="1" />
		<tag k="name" v="Idlegjel" />
		<tag k="ssr:date" v="2019-12-27" />
		<tag k="ssr:gruppe" v="samferdselsanlegg" />
		<tag k="ssr:hovedgruppe" v="infrastruktur" />
		<tag k="ssr:stedsnr" v="229762" />
		<tag k="ssr:type" v="bru" />
	</node>
	<node lat="59.65860000008443" lon="6.784819441705284" id="-34326">
		<tag k="name" v="Brattlandsdalåa" />
		<tag k="ssr:date" v="2021-06-08" />
		<tag k="ssr:gruppe" v="rennendeVann" />
		<tag k="ssr:hovedgruppe" v="ferskvann" />
		<tag k="ssr:stedsnr" v="3049" />
		<tag k="ssr:type" v="elv" />
		<tag k="waterway" v="river" />
	</node>
	<node lat="59.94698333553837" lon="6.597666661604388" id="-34327">
		<tag k="loc_name" v="Låtevatn" />
		<tag k="name" v="Lotevatnet" />
		<tag k="natural" v="water" />
		<tag k="ssr:date" v="2021-06-08" />
		<tag k="ssr:gruppe" v="stilleståendeVann" />
		<tag k="ssr:hovedgruppe" v="ferskvann" />
		<tag k="ssr:stedsnr" v="3122" />
		<tag k="ssr:type" v="vann" />
		<tag k="water" v="lake" />
	</node>
	<node lat="59.94451389297053" lon="6.701344443509443" id="-34328">
		<tag k="name" v="Austdalen" />
		<tag k="natural" v="valley" />
		<tag k="place" v="locality" />
		<tag k="ssr:date" v="2021-06-08" />
		<tag k="ssr:gruppe" v="senkninger" />
		<tag k="ssr:hovedgruppe" v="terreng" />
		<tag k="ssr:stedsnr" v="3125" />
		<tag k="ssr:type" v="dal" />
	</node>
	<node lat="59.9880138858802" lon="6.542538881621965" id="-34329">
		<tag k="name" v="Boldalsbrekkene" />
		<tag k="natural" v="slope" />
		<tag k="place" v="locality" />
		<tag k="ssr:date" v="2019-12-27" />
		<tag k="ssr:gruppe" v="skråninger" />
		<tag k="ssr:hovedgruppe" v="terreng" />
		<tag k="ssr:stedsnr" v="3370" />
		<tag k="ssr:type" v="bakke" />
	</node>
	<node lat="59.97686039723596" lon="6.556214520881841" id="-34330">
		<tag k="name" v="Niptjørn" />
		<tag k="natural" v="water" />
		<tag k="ssr:date" v="2019-12-27" />
		<tag k="ssr:gruppe" v="stilleståendeVann" />
		<tag k="ssr:hovedgruppe" v="ferskvann" />
		<tag k="ssr:stedsnr" v="3371" />
		<tag k="ssr:type" v="tjern" />
	</node>
	<node lat="59.96462702586441" lon="6.584752898287415" id="-34331">
		<tag k="alt_name" v="Søkkjetjørn" />
		<tag k="name" v="Sokkatjørn" />
		<tag k="natural" v="water" />
		<tag k="ssr:date" v="2019-12-27" />
		<tag k="ssr:gruppe" v="stilleståendeVann" />
		<tag k="ssr:hovedgruppe" v="ferskvann" />
		<tag k="ssr:stedsnr" v="3389" />
		<tag k="ssr:type" v="tjern" />
	</node>
	<node lat="60.088049995888674" lon="6.513599997814064" id="-34332">
		<tag k="name" v="Husaskreda" />
		<tag k="natural" v="valley" />
		<tag k="place" v="locality" />
		<tag k="ssr:date" v="2019-12-27" />
		<tag k="ssr:gruppe" v="senkninger" />
		<tag k="ssr:hovedgruppe" v="terreng" />
		<tag k="ssr:stedsnr" v="4101" />
		<tag k="ssr:type" v="skar" />
	</node>
	<node lat="60.10084463298244" lon="6.487488665124606" id="-34333">
		<tag k="alt_name" v="Kvanngrødvatnet, nedre" />
		<tag k="loc_name" v="Nedsta Kvanngrøvatnet" />
		<tag k="name" v="Nedre Kvanngrødvatnet" />
		<tag k="natural" v="water" />
		<tag k="ssr:date" v="2019-12-27" />
		<tag k="ssr:gruppe" v="stilleståendeVann" />
		<tag k="ssr:hovedgruppe" v="ferskvann" />
		<tag k="ssr:stedsnr" v="4117" />
		<tag k="ssr:type" v="tjern" />
	</node>
	<node lat="60.11803058452132" lon="6.504482706672979" id="-34334">
		<tag k="fixme" v="consider natural=peak for the most distinct mountains in the district" />
		<tag k="name" v="Ånuten" />
		<tag k="natural" v="hill" />
		<tag k="place" v="locality" />
		<tag k="ssr:date" v="2019-12-27" />
		<tag k="ssr:gruppe" v="høyder" />
		<tag k="ssr:hovedgruppe" v="terreng" />
		<tag k="ssr:stedsnr" v="4126" />
		<tag k="ssr:type" v="fjell" />
	</node>
	<node lat="59.89755833171355" lon="6.679361119512443" id="-34335">
		<tag k="name" v="Nyastølsvatnet" />
		<tag k="natural" v="water" />
		<tag k="ssr:date" v="2021-06-08" />
		<tag k="ssr:gruppe" v="stilleståendeVann" />
		<tag k="ssr:hovedgruppe" v="ferskvann" />
		<tag k="ssr:stedsnr" v="4175" />
		<tag k="ssr:type" v="vann" />
		<tag k="water" v="lake" />
	</node>
	<node lat="60.14086110849655" lon="6.5795555512294195" id="-34336">
		<tag k="name" v="Furo" />
		<tag k="place" v="farm" />
		<tag k="ssr:date" v="2019-12-27" />
		<tag k="ssr:gruppe" v="gardsbebyggelse" />
		<tag k="ssr:hovedgruppe" v="bebyggelse" />
		<tag k="ssr:stedsnr" v="4178" />
		<tag k="ssr:type" v="bruk" />
	</node>
	<node lat="60.022502777901096" lon="6.456366659080697" id="-34337">
		<tag k="name" v="Røyrgjuv" />
		<tag k="natural" v="valley" />
		<tag k="place" v="locality" />
		<tag k="ssr:date" v="2019-12-27" />
		<tag k="ssr:gruppe" v="senkninger" />
		<tag k="ssr:hovedgruppe" v="terreng" />
		<tag k="ssr:stedsnr" v="4028" />
		<tag k="ssr:type" v="skar" />
	</node>
	<node lat="60.05066666469839" lon="6.431383341048592" id="-34338">
		<tag k="fixme" v="consider natural=peak for the most distinct mountains in the district" />
		<tag k="name" v="Nordbakkenuten" />
		<tag k="natural" v="hill" />
		<tag k="place" v="locality" />
		<tag k="ssr:date" v="2019-12-27" />
		<tag k="ssr:gruppe" v="høyder" />
		<tag k="ssr:hovedgruppe" v="terreng" />
		<tag k="ssr:stedsnr" v="4064" />
		<tag k="ssr:type" v="ås" />
	</node>
	<node lat="59.9892333342645" lon="6.790524995863863" id="-34339">
		<tag k="name" v="Gjerdberg" />
		<tag k="natural" v="hill" />
		<tag k="place" v="locality" />
		<tag k="ssr:date" v="2021-06-08" />
		<tag k="ssr:gruppe" v="høyder" />
		<tag k="ssr:hovedgruppe" v="terreng" />
		<tag k="ssr:stedsnr" v="4095" />
		<tag k="ssr:type" v="berg" />
	</node>
	<node lat="60.174844440814795" lon="6.496452777865057" id="-34340">
		<tag k="fixme" v="consider natural=peak for the most distinct mountains in the district" />
		<tag k="name" v="Ruklenuten" />
		<tag k="natural" v="hill" />
		<tag k="place" v="locality" />
		<tag k="ssr:date" v="2019-12-27" />
		<tag k="ssr:gruppe" v="høyder" />
		<tag k="ssr:hovedgruppe" v="terreng" />
		<tag k="ssr:stedsnr" v="4216" />
		<tag k="ssr:type" v="ås" />
	</node>
	<node lat="60.12606224855741" lon="6.598527961422421" id="-34341">
		<tag k="name" v="Svelget" />
		<tag k="natural" v="valley" />
		<tag k="place" v="locality" />
		<tag k="ssr:date" v="2019-12-27" />
		<tag k="ssr:gruppe" v="senkninger" />
		<tag k="ssr:hovedgruppe" v="terreng" />
		<tag k="ssr:stedsnr" v="4403" />
		<tag k="ssr:type" v="botn" />
	</node>
	<node lat="60.23459444588176" lon="6.9583333306132715" id="-34342">
		<tag k="name" v="Sperredalen" />
		<tag k="natural" v="valley" />
		<tag k="place" v="locality" />
		<tag k="ssr:date" v="2021-06-08" />
		<tag k="ssr:gruppe" v="senkninger" />
		<tag k="ssr:hovedgruppe" v="terreng" />
		<tag k="ssr:stedsnr" v="4464" />
		<tag k="ssr:type" v="dal" />
	</node>
	<node lat="60.23651111221725" lon="6.953824999811673" id="-34343">
		<tag k="name" v="Oalsåkrane" />
		<tag k="place" v="locality" />
		<tag k="ssr:date" v="2019-12-27" />
		<tag k="ssr:gruppe" v="gardsbebyggelse" />
		<tag k="ssr:hovedgruppe" v="bebyggelse" />
		<tag k="ssr:stedsnr" v="4465" />
		<tag k="ssr:type" v="eiendom" />
	</node>
	<node lat="59.91099721967142" lon="6.566677770899256" id="-34344">
		<tag k="loc_name" v="Juvarsdalen" />
		<tag k="name" v="Gjuvarsdalen" />
		<tag k="natural" v="valley" />
		<tag k="place" v="locality" />
		<tag k="ssr:date" v="2019-12-27" />
		<tag k="ssr:gruppe" v="senkninger" />
		<tag k="ssr:hovedgruppe" v="terreng" />
		<tag k="ssr:stedsnr" v="4467" />
		<tag k="ssr:type" v="dal" />
	</node>
	<node lat="59.88051889063764" lon="6.98394185110444" id="-34345">
		<tag k="loc_name" v="Austra Middyrvatnet" />
		<tag k="name" v="Middyrvatnet" />
		<tag k="natural" v="water" />
		<tag k="ssr:date" v="2021-06-08" />
		<tag k="ssr:gruppe" v="stilleståendeVann" />
		<tag k="ssr:hovedgruppe" v="ferskvann" />
		<tag k="ssr:stedsnr" v="4604" />
		<tag k="ssr:type" v="vann" />
		<tag k="water" v="lake" />
	</node>
	<node lat="60.24345833230138" lon="6.248236117796428" id="-34346">
		<tag k="name" v="Mørkelii" />
		<tag k="natural" v="slope" />
		<tag k="place" v="locality" />
		<tag k="ssr:date" v="2019-12-27" />
		<tag k="ssr:gruppe" v="skråninger" />
		<tag k="ssr:hovedgruppe" v="terreng" />
		<tag k="ssr:stedsnr" v="4806" />
		<tag k="ssr:type" v="li" />
	</node>
	<node lat="60.24899444818029" lon="6.3947500061752285" id="-34347">
		<tag k="name" v="Svartavassleitet" />
		<tag k="natural" v="valley" />
		<tag k="place" v="locality" />
		<tag k="ssr:date" v="2019-12-27" />
		<tag k="ssr:gruppe" v="senkninger" />
		<tag k="ssr:hovedgruppe" v="terreng" />
		<tag k="ssr:stedsnr" v="4815" />
		<tag k="ssr:type" v="dal" />
	</node>
	<node lat="60.24603333024383" lon="6.336611119927524" id="-34348">
		<tag k="fixme" v="consider natural=peak for the most distinct mountains in the district" />
		<tag k="name" v="Øykjafjell" />
		<tag k="natural" v="hill" />
		<tag k="place" v="locality" />
		<tag k="ssr:date" v="2019-12-27" />
		<tag k="ssr:gruppe" v="høyder" />
		<tag k="ssr:hovedgruppe" v="terreng" />
		<tag k="ssr:stedsnr" v="4821" />
		<tag k="ssr:type" v="ås" />
	</node>
	<node lat="59.77646944868972" lon="6.7965166650509" id="-34349">
		<tag k="name" v="Risebekk" />
		<tag k="ssr:date" v="2021-06-08" />
		<tag k="ssr:gruppe" v="rennendeVann" />
		<tag k="ssr:hovedgruppe" v="ferskvann" />
		<tag k="ssr:stedsnr" v="4822" />
		<tag k="ssr:type" v="bekk" />
		<tag k="waterway" v="stream" />
	</node>
	<node lat="59.894249998719864" lon="7.140230551028792" id="-34350">
		<tag k="name" v="Nupsfonn" />
		<tag k="natural" v="glacier" />
		<tag k="ssr:date" v="2019-12-27" />
		<tag k="ssr:gruppe" v="isOgPermafrost" />
		<tag k="ssr:hovedgruppe" v="markslag" />
		<tag k="ssr:stedsnr" v="4860" />
		<tag k="ssr:type" v="isbre" />
	</node>
	<node lat="60.31185277393503" lon="6.35752776968193" id="-34351">
		<tag k="name" v="Raudsteindalen" />
		<tag k="natural" v="valley" />
		<tag k="place" v="locality" />
		<tag k="ssr:date" v="2019-12-27" />
		<tag k="ssr:gruppe" v="senkninger" />
		<tag k="ssr:hovedgruppe" v="terreng" />
		<tag k="ssr:stedsnr" v="5005" />
		<tag k="ssr:type" v="dal" />
	</node>
	<node lat="60.310119440832295" lon="6.340338880433135" id="-34352">
		<tag k="name" v="Espedalen" />
		<tag k="natural" v="valley" />
		<tag k="place" v="locality" />
		<tag k="ssr:date" v="2019-12-27" />
		<tag k="ssr:gruppe" v="senkninger" />
		<tag k="ssr:hovedgruppe" v="terreng" />
		<tag k="ssr:stedsnr" v="5007" />
		<tag k="ssr:type" v="dal" />
	</node>
	<node lat="60.3166472248126" lon="6.32989166877782" id="-34353">
		<tag k="alt_name" v="Manavikelvi" />
		<tag k="name" v="Monavikelvi" />
		<tag k="ssr:date" v="2019-12-27" />
		<tag k="ssr:gruppe" v="rennendeVann" />
		<tag k="ssr:hovedgruppe" v="ferskvann" />
		<tag k="ssr:stedsnr" v="5008" />
		<tag k="ssr:type" v="bekk" />
		<tag k="waterway" v="stream" />
	</node>
	<node lat="60.33325555462003" lon="6.567580553448043" id="-34354">
		<tag k="fixme" v="consider natural=peak for the most distinct mountains in the district" />
		<tag k="name" v="Jåstadnuten" />
		<tag k="natural" v="hill" />
		<tag k="place" v="locality" />
		<tag k="ssr:date" v="2019-12-27" />
		<tag k="ssr:gruppe" v="høyder" />
		<tag k="ssr:hovedgruppe" v="terreng" />
		<tag k="ssr:stedsnr" v="5015" />
		<tag k="ssr:type" v="ås" />
	</node>
	<node lat="60.325216664984396" lon="6.39139166060512" id="-34355">
		<tag k="historic" v="shieling" />
		<tag k="name" v="Reishellar" />
		<tag k="place" v="isolated_dwelling" />
		<tag k="ssr:date" v="2019-12-27" />
		<tag k="ssr:gruppe" v="gardsbebyggelse" />
		<tag k="ssr:hovedgruppe" v="bebyggelse" />
		<tag k="ssr:stedsnr" v="5018" />
		<tag k="ssr:type" v="seterStøl" />
	</node>
	<node lat="60.3020916675452" lon="6.356777780286457" id="-34356">
		<tag k="name" v="Langedalen" />
		<tag k="natural" v="valley" />
		<tag k="place" v="locality" />
		<tag k="ssr:date" v="2019-12-27" />
		<tag k="ssr:gruppe" v="senkninger" />
		<tag k="ssr:hovedgruppe" v="terreng" />
		<tag k="ssr:stedsnr" v="5020" />
		<tag k="ssr:type" v="dal" />
	</node>
	<node lat="60.076683334166596" lon="6.515500004007528" id="-34357">
		<tag k="alt_name" v="Breiskredbekken" />
		<tag k="name" v="Breidskredbekken" />
		<tag k="ssr:date" v="2019-12-27" />
		<tag k="ssr:gruppe" v="rennendeVann" />
		<tag k="ssr:hovedgruppe" v="ferskvann" />
		<tag k="ssr:stedsnr" v="5072" />
		<tag k="ssr:type" v="bekk" />
		<tag k="waterway" v="stream" />
	</node>
	<node lat="60.073261111391524" lon="6.469624993886294" id="-34358">
		<tag k="name" v="Blåvatnet" />
		<tag k="natural" v="water" />
		<tag k="ssr:date" v="2019-12-27" />
		<tag k="ssr:gruppe" v="stilleståendeVann" />
		<tag k="ssr:hovedgruppe" v="ferskvann" />
		<tag k="ssr:stedsnr" v="5073" />
		<tag k="ssr:type" v="tjern" />
	</node>
	<node lat="60.35954166927579" lon="6.447280551657455" id="-34359">
		<tag k="name" v="Dammaskolten" />
		<tag k="natural" v="hill" />
		<tag k="place" v="locality" />
		<tag k="ssr:date" v="2019-12-27" />
		<tag k="ssr:gruppe" v="høyder" />
		<tag k="ssr:hovedgruppe" v="terreng" />
		<tag k="ssr:stedsnr" v="5106" />
		<tag k="ssr:type" v="haug" />
	</node>
	<node lat="60.34711944442007" lon="6.421350006721381" id="-34360">
		<tag k="historic" v="shieling" />
		<tag k="name" v="Grimestølen" />
		<tag k="place" v="isolated_dwelling" />
		<tag k="ssr:date" v="2019-12-27" />
		<tag k="ssr:gruppe" v="gardsbebyggelse" />
		<tag k="ssr:hovedgruppe" v="bebyggelse" />
		<tag k="ssr:stedsnr" v="5118" />
		<tag k="ssr:type" v="seterStøl" />
	</node>
	<node lat="60.14023888975123" lon="6.520194441278663" id="-34361">
		<tag k="name" v="Stølslii" />
		<tag k="natural" v="slope" />
		<tag k="place" v="locality" />
		<tag k="ssr:date" v="2019-12-27" />
		<tag k="ssr:gruppe" v="skråninger" />
		<tag k="ssr:hovedgruppe" v="terreng" />
		<tag k="ssr:stedsnr" v="5159" />
		<tag k="ssr:type" v="li" />
	</node>
	<node lat="60.37496775280659" lon="6.460469268202437" id="-34362">
		<tag k="alt_name" v="Kvalvikane, indre;Kvalvikane;Kvalvik indre;Indre Kvalvikane" />
		<tag k="fixme" v="consider place=hamlet" />
		<tag k="name" v="Indre Kvalvik" />
		<tag k="place" v="farm" />
		<tag k="ssr:date" v="2019-12-27" />
		<tag k="ssr:gruppe" v="gardsbebyggelse" />
		<tag k="ssr:hovedgruppe" v="bebyggelse" />
		<tag k="ssr:stedsnr" v="5165" />
		<tag k="ssr:type" v="gard" />
	</node>
	<node lat="60.136683336185534" lon="6.521275005476621" id="-34363">
		<tag k="fixme" v="consider natural=peak for the most distinct mountains in the district" />
		<tag k="name" v="Rylken" />
		<tag k="natural" v="hill" />
		<tag k="place" v="locality" />
		<tag k="ssr:date" v="2019-12-27" />
		<tag k="ssr:gruppe" v="høyder" />
		<tag k="ssr:hovedgruppe" v="terreng" />
		<tag k="ssr:stedsnr" v="5171" />
		<tag k="ssr:type" v="ås" />
	</node>
	<node lat="60.142594446535455" lon="6.531313885320263" id="-34364">
		<tag k="alt_name" v="Aksla" />
		<tag k="fixme" v="consider natural=peak for the most distinct mountains in the district" />
		<tag k="name" v="Oksli" />
		<tag k="natural" v="hill" />
		<tag k="place" v="locality" />
		<tag k="ssr:date" v="2019-12-27" />
		<tag k="ssr:gruppe" v="høyder" />
		<tag k="ssr:hovedgruppe" v="terreng" />
		<tag k="ssr:stedsnr" v="5180" />
		<tag k="ssr:type" v="ås" />
	</node>
	<node lat="60.1492055534357" lon="6.501141670682283" id="-34365">
		<tag k="fixme" v="consider natural=peak for the most distinct mountains in the district" />
		<tag k="name" v="Bjørnstignuten" />
		<tag k="natural" v="hill" />
		<tag k="place" v="locality" />
		<tag k="ssr:date" v="2019-12-27" />
		<tag k="ssr:gruppe" v="høyder" />
		<tag k="ssr:hovedgruppe" v="terreng" />
		<tag k="ssr:stedsnr" v="5181" />
		<tag k="ssr:type" v="ås" />
	</node>
	<node lat="60.212236115001396" lon="7.162038894830934" id="-34366">
		<tag k="name" v="Nasene" />
		<tag k="natural" v="hill" />
		<tag k="place" v="locality" />
		<tag k="ssr:date" v="2021-06-08" />
		<tag k="ssr:gruppe" v="høyder" />
		<tag k="ssr:hovedgruppe" v="terreng" />
		<tag k="ssr:stedsnr" v="5310" />
		<tag k="ssr:type" v="høyde" />
	</node>
	<node lat="60.20423332961582" lon="7.1408305532872625" id="-34367">
		<tag k="fixme" v="consider natural=peak for the most distinct mountains in the district" />
		<tag k="name" v="Langgrø" />
		<tag k="natural" v="hill" />
		<tag k="place" v="locality" />
		<tag k="ssr:date" v="2019-12-27" />
		<tag k="ssr:gruppe" v="høyder" />
		<tag k="ssr:hovedgruppe" v="terreng" />
		<tag k="ssr:stedsnr" v="5304" />
		<tag k="ssr:type" v="topp" />
	</node>
	<node lat="60.375916670320926" lon="6.643136113901354" id="-34368">
		<tag k="fixme" v="consider place=hamlet" />
		<tag k="name" v="Hauso" />
		<tag k="place" v="farm" />
		<tag k="ssr:date" v="2019-12-27" />
		<tag k="ssr:gruppe" v="gardsbebyggelse" />
		<tag k="ssr:hovedgruppe" v="bebyggelse" />
		<tag k="ssr:stedsnr" v="5257" />
		<tag k="ssr:type" v="gard" />
	</node>
	<node lat="60.290327776036" lon="6.296741665413504" id="-34369">
		<tag k="name" v="Toni" />
		<tag k="place" v="locality" />
		<tag k="ssr:date" v="2019-12-27" />
		<tag k="ssr:gruppe" v="terrengdetaljer" />
		<tag k="ssr:hovedgruppe" v="terreng" />
		<tag k="ssr:stedsnr" v="5418" />
		<tag k="ssr:type" v="annenTerrengdetalj" />
	</node>
	<node lat="60.30033055430179" lon="6.563041669346558" id="-34370">
		<tag k="alt_name" v="Storehellerane" />
		<tag k="name" v="Storhellerane" />
		<tag k="place" v="locality" />
		<tag k="ssr:date" v="2019-12-27" />
		<tag k="ssr:gruppe" v="terrengdetaljer" />
		<tag k="ssr:hovedgruppe" v="terreng" />
		<tag k="ssr:stedsnr" v="5421" />
		<tag k="ssr:type" v="hylle" />
	</node>
	<node lat="60.29303333097526" lon="6.323502773829681" id="-34371">
		<tag k="name" v="Ilaskori" />
		<tag k="natural" v="slope" />
		<tag k="place" v="locality" />
		<tag k="ssr:date" v="2019-12-27" />
		<tag k="ssr:gruppe" v="skråninger" />
		<tag k="ssr:hovedgruppe" v="terreng" />
		<tag k="ssr:stedsnr" v="5431" />
		<tag k="ssr:type" v="li" />
	</node>
	<node lat="60.2767361091108" lon="6.264433329413236" id="-34372">
		<tag k="name" v="Rabben" />
		<tag k="place" v="farm" />
		<tag k="ssr:date" v="2019-12-27" />
		<tag k="ssr:gruppe" v="gardsbebyggelse" />
		<tag k="ssr:hovedgruppe" v="bebyggelse" />
		<tag k="ssr:stedsnr" v="5461" />
		<tag k="ssr:type" v="bruk" />
	</node>
	<node lat="60.21592777735775" lon="6.855658329157608" id="-34373">
		<tag k="name" v="Simlehaugane" />
		<tag k="natural" v="hill" />
		<tag k="place" v="locality" />
		<tag k="ssr:date" v="2019-12-27" />
		<tag k="ssr:gruppe" v="høyder" />
		<tag k="ssr:hovedgruppe" v="terreng" />
		<tag k="ssr:stedsnr" v="5464" />
		<tag k="ssr:type" v="haug" />
	</node>
	<node lat="60.21953055269373" lon="6.913250004408417" id="-34374">
		<tag k="fixme" v="consider natural=peak for the most distinct mountains in the district" />
		<tag k="name" v="Vargen" />
		<tag k="natural" v="hill" />
		<tag k="place" v="locality" />
		<tag k="ssr:date" v="2019-12-27" />
		<tag k="ssr:gruppe" v="høyder" />
		<tag k="ssr:hovedgruppe" v="terreng" />
		<tag k="ssr:stedsnr" v="5469" />
		<tag k="ssr:type" v="fjell" />
	</node>
	<node lat="60.18996914692538" lon="6.6122980882388855" id="-34375">
		<tag k="alt_name" v="Fresvikestølen" />
		<tag k="historic" v="shieling" />
		<tag k="name" v="Oppsåta" />
		<tag k="place" v="isolated_dwelling" />
		<tag k="ssr:date" v="2021-06-08" />
		<tag k="ssr:gruppe" v="gardsbebyggelse" />
		<tag k="ssr:hovedgruppe" v="bebyggelse" />
		<tag k="ssr:stedsnr" v="5470" />
		<tag k="ssr:type" v="seterStøl" />
	</node>
	<node lat="60.20627777737523" lon="6.134411112302758" id="-34376">
		<tag k="name" v="Kyrkjeberget" />
		<tag k="natural" v="hill" />
		<tag k="place" v="locality" />
		<tag k="ssr:date" v="2019-12-27" />
		<tag k="ssr:gruppe" v="høyder" />
		<tag k="ssr:hovedgruppe" v="terreng" />
		<tag k="ssr:stedsnr" v="5475" />
		<tag k="ssr:type" v="berg" />
	</node>
	<node lat="60.28415361512466" lon="7.07728416092915" id="-34377">
		<tag k="name" v="Vatnalivatnet" />
		<tag k="natural" v="water" />
		<tag k="ssr:date" v="2021-06-08" />
		<tag k="ssr:gruppe" v="stilleståendeVann" />
		<tag k="ssr:hovedgruppe" v="ferskvann" />
		<tag k="ssr:stedsnr" v="5476" />
		<tag k="ssr:type" v="vann" />
		<tag k="water" v="lake" />
	</node>
	<node lat="60.20895833076024" lon="6.175574991886275" id="-34378">
		<tag k="name" v="Kvanngrød" />
		<tag k="natural" v="slope" />
		<tag k="place" v="locality" />
		<tag k="ssr:date" v="2019-12-27" />
		<tag k="ssr:gruppe" v="skråninger" />
		<tag k="ssr:hovedgruppe" v="terreng" />
		<tag k="ssr:stedsnr" v="5477" />
		<tag k="ssr:type" v="li" />
	</node>
	<node lat="60.253449082220165" lon="6.831730883859926" id="-34379">
		<tag k="name" v="Langeløk" />
		<tag k="natural" v="water" />
		<tag k="ssr:date" v="2021-06-08" />
		<tag k="ssr:gruppe" v="stilleståendeVann" />
		<tag k="ssr:hovedgruppe" v="ferskvann" />
		<tag k="ssr:stedsnr" v="5624" />
		<tag k="ssr:type" v="tjern" />
	</node>
	<node lat="60.2561611132844" lon="6.308219437785159" id="-34380">
		<tag k="name" v="Breidsetenotten" />
		<tag k="natural" v="hill" />
		<tag k="place" v="locality" />
		<tag k="ssr:date" v="2019-12-27" />
		<tag k="ssr:gruppe" v="høyder" />
		<tag k="ssr:hovedgruppe" v="terreng" />
		<tag k="ssr:stedsnr" v="5365" />
		<tag k="ssr:type" v="haug" />
	</node>
	<node lat="60.26084350441429" lon="6.268656895763555" id="-34381">
		<tag k="name" v="Kroktjørni" />
		<tag k="natural" v="water" />
		<tag k="ssr:date" v="2019-12-27" />
		<tag k="ssr:gruppe" v="stilleståendeVann" />
		<tag k="ssr:hovedgruppe" v="ferskvann" />
		<tag k="ssr:stedsnr" v="5366" />
		<tag k="ssr:type" v="tjern" />
	</node>
	<node lat="60.26011388901995" lon="6.3626999970239115" id="-34382">
		<tag k="name" v="Nonskarddalen" />
		<tag k="natural" v="valley" />
		<tag k="place" v="locality" />
		<tag k="ssr:date" v="2019-12-27" />
		<tag k="ssr:gruppe" v="senkninger" />
		<tag k="ssr:hovedgruppe" v="terreng" />
		<tag k="ssr:stedsnr" v="5368" />
		<tag k="ssr:type" v="dal" />
	</node>
	<node lat="60.25579910277308" lon="6.344160043438033" id="-34383">
		<tag k="historic" v="shieling" />
		<tag k="name" v="Flatabøgrytingen" />
		<tag k="place" v="isolated_dwelling" />
		<tag k="ssr:date" v="2019-12-27" />
		<tag k="ssr:gruppe" v="gardsbebyggelse" />
		<tag k="ssr:hovedgruppe" v="bebyggelse" />
		<tag k="ssr:stedsnr" v="5369" />
		<tag k="ssr:type" v="seterStøl" />
	</node>
	<node lat="60.33729444432233" lon="7.081486107031458" id="-34384">
		<tag k="name" v="Kjelabotn" />
		<tag k="natural" v="valley" />
		<tag k="place" v="locality" />
		<tag k="ssr:date" v="2021-06-08" />
		<tag k="ssr:gruppe" v="senkninger" />
		<tag k="ssr:hovedgruppe" v="terreng" />
		<tag k="ssr:stedsnr" v="5520" />
		<tag k="ssr:type" v="botn" />
	</node>
	<node lat="60.191457964243845" lon="6.17739867406635" id="-34385">
		<tag k="name" v="Langavatnet" />
		<tag k="natural" v="water" />
		<tag k="ssr:date" v="2019-12-27" />
		<tag k="ssr:gruppe" v="stilleståendeVann" />
		<tag k="ssr:hovedgruppe" v="ferskvann" />
		<tag k="ssr:stedsnr" v="5521" />
		<tag k="ssr:type" v="tjern" />
	</node>
	<node lat="60.35308332987846" lon="7.115977780325764" id="-34386">
		<tag k="name" v="Flatarehaug" />
		<tag k="natural" v="hill" />
		<tag k="place" v="locality" />
		<tag k="ssr:date" v="2021-06-08" />
		<tag k="ssr:gruppe" v="høyder" />
		<tag k="ssr:hovedgruppe" v="terreng" />
		<tag k="ssr:stedsnr" v="5526" />
		<tag k="ssr:type" v="haug" />
	</node>
	<node lat="60.18533055944927" lon="6.093986107572444" id="-34387">
		<tag k="alt_name" v="Gausvika, vesla;Vesle Gausvika" />
		<tag k="name" v="Vetla Gausvika" />
		<tag k="natural" v="bay" />
		<tag k="ssr:date" v="2019-12-27" />
		<tag k="ssr:gruppe" v="kystkontur" />
		<tag k="ssr:hovedgruppe" v="sjø" />
		<tag k="ssr:stedsnr" v="5535" />
		<tag k="ssr:type" v="vikISjø" />
	</node>
	<node lat="60.23752777711814" lon="6.214927781324743" id="-34388">
		<tag k="fixme" v="consider natural=peak for the most distinct mountains in the district" />
		<tag k="name" v="Øydjordsfjellet" />
		<tag k="natural" v="hill" />
		<tag k="place" v="locality" />
		<tag k="ssr:date" v="2019-12-27" />
		<tag k="ssr:gruppe" v="høyder" />
		<tag k="ssr:hovedgruppe" v="terreng" />
		<tag k="ssr:stedsnr" v="5709" />
		<tag k="ssr:type" v="ås" />
	</node>
	<node lat="60.22263611520774" lon="6.3874166620290875" id="-34389">
		<tag k="name" v="Urdadalen" />
		<tag k="natural" v="valley" />
		<tag k="place" v="locality" />
		<tag k="ssr:date" v="2019-12-27" />
		<tag k="ssr:gruppe" v="senkninger" />
		<tag k="ssr:hovedgruppe" v="terreng" />
		<tag k="ssr:stedsnr" v="5801" />
		<tag k="ssr:type" v="dal" />
	</node>
	<node lat="60.2105777763893" lon="6.527377773033563" id="-34390">
		<tag k="fixme" v="consider natural=peak for the most distinct mountains in the district" />
		<tag k="name" v="Såta" />
		<tag k="natural" v="hill" />
		<tag k="place" v="locality" />
		<tag k="ssr:date" v="2019-12-27" />
		<tag k="ssr:gruppe" v="høyder" />
		<tag k="ssr:hovedgruppe" v="terreng" />
		<tag k="ssr:stedsnr" v="5813" />
		<tag k="ssr:type" v="ås" />
	</node>
	<node lat="60.207171721036865" lon="6.565554493668923" id="-34391">
		<tag k="name" v="Himlesviki" />
		<tag k="natural" v="bay" />
		<tag k="ssr:date" v="2019-12-27" />
		<tag k="ssr:gruppe" v="kystkontur" />
		<tag k="ssr:hovedgruppe" v="sjø" />
		<tag k="ssr:stedsnr" v="5815" />
		<tag k="ssr:type" v="vikISjø" />
	</node>
	<node lat="60.198383331935574" lon="6.230913880274963" id="-34392">
		<tag k="name" v="Demmevatnet" />
		<tag k="natural" v="water" />
		<tag k="ssr:date" v="2019-12-27" />
		<tag k="ssr:gruppe" v="stilleståendeVann" />
		<tag k="ssr:hovedgruppe" v="ferskvann" />
		<tag k="ssr:stedsnr" v="5817" />
		<tag k="ssr:type" v="tjern" />
	</node>
	<node lat="60.239999998670456" lon="6.536650006715336" id="-34393">
		<tag k="alt_name" v="Strutelvi" />
		<tag k="name" v="Strutåna" />
		<tag k="ssr:date" v="2019-12-27" />
		<tag k="ssr:gruppe" v="rennendeVann" />
		<tag k="ssr:hovedgruppe" v="ferskvann" />
		<tag k="ssr:stedsnr" v="5777" />
		<tag k="ssr:type" v="bekk" />
		<tag k="waterway" v="stream" />
	</node>
	<node lat="60.26406666568118" lon="6.777116659587776" id="-34394">
		<tag k="fixme" v="consider natural=peak for the most distinct mountains in the district" />
		<tag k="name" v="Blåsenborg" />
		<tag k="natural" v="hill" />
		<tag k="place" v="locality" />
		<tag k="ssr:date" v="2021-06-08" />
		<tag k="ssr:gruppe" v="høyder" />
		<tag k="ssr:hovedgruppe" v="terreng" />
		<tag k="ssr:stedsnr" v="22188" />
		<tag k="ssr:type" v="topp" />
	</node>
	<node lat="60.27548889129072" lon="6.959905558302076" id="-34395">
		<tag k="name" v="Fossane" />
		<tag k="natural" v="waterfall" />
		<tag k="ssr:date" v="2021-06-08" />
		<tag k="ssr:gruppe" v="rennendeVann" />
		<tag k="ssr:hovedgruppe" v="ferskvann" />
		<tag k="ssr:stedsnr" v="22189" />
		<tag k="ssr:type" v="foss" />
	</node>
	<node lat="60.366096998277804" lon="6.597518743297856" id="-34396">
		<tag k="name" v="Stora Hausanutvatnet" />
		<tag k="natural" v="water" />
		<tag k="ssr:date" v="2021-06-08" />
		<tag k="ssr:gruppe" v="stilleståendeVann" />
		<tag k="ssr:hovedgruppe" v="ferskvann" />
		<tag k="ssr:stedsnr" v="22194" />
		<tag k="ssr:type" v="vann" />
		<tag k="water" v="lake" />
	</node>
	<node lat="60.18387222553508" lon="6.571144447681413" id="-34397">
		<tag k="bay" v="fjord" />
		<tag k="name" v="Sørfjorden" />
		<tag k="natural" v="bay" />
		<tag k="ssr:date" v="2019-12-27" />
		<tag k="ssr:gruppe" v="farvann" />
		<tag k="ssr:hovedgruppe" v="sjø" />
		<tag k="ssr:stedsnr" v="24295" />
		<tag k="ssr:type" v="fjord" />
	</node>
	<node lat="60.374576814030696" lon="6.727523338827746" id="-34398">
		<tag k="fixme" v="consider place=hamlet" />
		<tag k="name" v="Bråvoll" />
		<tag k="place" v="farm" />
		<tag k="ssr:date" v="2021-06-08" />
		<tag k="ssr:gruppe" v="gardsbebyggelse" />
		<tag k="ssr:hovedgruppe" v="bebyggelse" />
		<tag k="ssr:stedsnr" v="24935" />
		<tag k="ssr:type" v="gard" />
	</node>
	<node lat="60.34491110922899" lon="6.6284222185167305" id="-34399">
		<tag k="name" v="Krossen" />
		<tag k="natural" v="cape" />
		<tag k="ssr:date" v="2019-12-27" />
		<tag k="ssr:gruppe" v="kystkontur" />
		<tag k="ssr:hovedgruppe" v="sjø" />
		<tag k="ssr:stedsnr" v="37170" />
		<tag k="ssr:type" v="nesISjø" />
	</node>
	<node lat="60.34783889166317" lon="6.6210805555546886" id="-34400">
		<tag k="name" v="Kleivi" />
		<tag k="natural" v="slope" />
		<tag k="place" v="locality" />
		<tag k="ssr:date" v="2019-12-27" />
		<tag k="ssr:gruppe" v="skråninger" />
		<tag k="ssr:hovedgruppe" v="terreng" />
		<tag k="ssr:stedsnr" v="37171" />
		<tag k="ssr:type" v="bakke" />
	</node>
	<node lat="60.351827781591794" lon="6.752394444840555" id="-34401">
		<tag k="name" v="Tveitane" />
		<tag k="place" v="locality" />
		<tag k="ssr:date" v="2019-12-27" />
		<tag k="ssr:gruppe" v="terrengdetaljer" />
		<tag k="ssr:hovedgruppe" v="terreng" />
		<tag k="ssr:stedsnr" v="37721" />
		<tag k="ssr:type" v="annenTerrengdetalj" />
	</node>
	<node lat="60.35968610791951" lon="6.758469447153168" id="-34402">
		<tag k="name" v="Orreleikane" />
		<tag k="place" v="locality" />
		<tag k="ssr:date" v="2019-12-27" />
		<tag k="ssr:gruppe" v="terrengdetaljer" />
		<tag k="ssr:hovedgruppe" v="terreng" />
		<tag k="ssr:stedsnr" v="37723" />
		<tag k="ssr:type" v="annenTerrengdetalj" />
	</node>
	<node lat="60.41977500009686" lon="6.6162805575146875" id="-34403">
		<tag k="name" v="Vetlebekken" />
		<tag k="ssr:date" v="2019-12-27" />
		<tag k="ssr:gruppe" v="rennendeVann" />
		<tag k="ssr:hovedgruppe" v="ferskvann" />
		<tag k="ssr:stedsnr" v="38107" />
		<tag k="ssr:type" v="bekk" />
		<tag k="waterway" v="stream" />
	</node>
	<node lat="60.424705554600585" lon="6.542266668730103" id="-34404">
		<tag k="name" v="Øyri" />
		<tag k="place" v="farm" />
		<tag k="ssr:date" v="2019-12-27" />
		<tag k="ssr:gruppe" v="gardsbebyggelse" />
		<tag k="ssr:hovedgruppe" v="bebyggelse" />
		<tag k="ssr:stedsnr" v="38114" />
		<tag k="ssr:type" v="bruk" />
	</node>
	<node lat="60.407066667467504" lon="6.5438361176103745" id="-34405">
		<tag k="name" v="Geiren" />
		<tag k="place" v="locality" />
		<tag k="ssr:date" v="2019-12-27" />
		<tag k="ssr:gruppe" v="terrengdetaljer" />
		<tag k="ssr:hovedgruppe" v="terreng" />
		<tag k="ssr:stedsnr" v="38121" />
		<tag k="ssr:type" v="annenTerrengdetalj" />
	</node>
	<node lat="60.40463333331689" lon="6.62021944893775" id="-34406">
		<tag k="name" v="Selskodalen" />
		<tag k="natural" v="valley" />
		<tag k="place" v="locality" />
		<tag k="ssr:date" v="2019-12-27" />
		<tag k="ssr:gruppe" v="senkninger" />
		<tag k="ssr:hovedgruppe" v="terreng" />
		<tag k="ssr:stedsnr" v="38165" />
		<tag k="ssr:type" v="dal" />
	</node>
	<node lat="60.40326666573304" lon="6.61483610985144" id="-34407">
		<tag k="name" v="Skjerurslåtta" />
		<tag k="place" v="locality" />
		<tag k="ssr:date" v="2019-12-27" />
		<tag k="ssr:gruppe" v="dyrkamark" />
		<tag k="ssr:hovedgruppe" v="markslag" />
		<tag k="ssr:stedsnr" v="38167" />
		<tag k="ssr:type" v="jorde" />
	</node>
	<node lat="60.3306444407944" lon="6.3940305592268" id="-34408">
		<tag k="name" v="Ingeleivsleitet" />
		<tag k="natural" v="slope" />
		<tag k="place" v="locality" />
		<tag k="ssr:date" v="2019-12-27" />
		<tag k="ssr:gruppe" v="skråninger" />
		<tag k="ssr:hovedgruppe" v="terreng" />
		<tag k="ssr:stedsnr" v="38059" />
		<tag k="ssr:type" v="bakke" />
	</node>
	<node lat="60.24822800710041" lon="6.416591435427647" id="-34409">
		<tag k="name" v="Ytstetjørn" />
		<tag k="natural" v="water" />
		<tag k="ssr:date" v="2019-12-27" />
		<tag k="ssr:gruppe" v="stilleståendeVann" />
		<tag k="ssr:hovedgruppe" v="ferskvann" />
		<tag k="ssr:stedsnr" v="38064" />
		<tag k="ssr:type" v="tjern" />
	</node>
	<node lat="60.32190555631907" lon="6.464572226780366" id="-34410">
		<tag k="name" v="Ljosåni" />
		<tag k="ssr:date" v="2019-12-27" />
		<tag k="ssr:gruppe" v="rennendeVann" />
		<tag k="ssr:hovedgruppe" v="ferskvann" />
		<tag k="ssr:stedsnr" v="38075" />
		<tag k="ssr:type" v="bekk" />
		<tag k="waterway" v="stream" />
	</node>
	<node lat="60.40046944226226" lon="6.6219416617477975" id="-34411">
		<tag k="name" v="Myrane" />
		<tag k="natural" v="wetland" />
		<tag k="ssr:date" v="2019-12-27" />
		<tag k="ssr:gruppe" v="våtmark" />
		<tag k="ssr:hovedgruppe" v="markslag" />
		<tag k="ssr:stedsnr" v="38077" />
		<tag k="ssr:type" v="myr" />
	</node>
	<node lat="59.76650277890223" lon="6.804555547254672" id="-34412">
		<tag k="name" v="Hattebergmyra" />
		<tag k="natural" v="wetland" />
		<tag k="ssr:date" v="2019-12-27" />
		<tag k="ssr:gruppe" v="våtmark" />
		<tag k="ssr:hovedgruppe" v="markslag" />
		<tag k="ssr:stedsnr" v="38309" />
		<tag k="ssr:type" v="myr" />
	</node>
	<node lat="59.944366667190806" lon="6.5971611045091105" id="-34413">
		<tag k="name" v="Tymbervika" />
		<tag k="natural" v="bay" />
		<tag k="ssr:date" v="2019-12-27" />
		<tag k="ssr:gruppe" v="ferskvannskontur" />
		<tag k="ssr:hovedgruppe" v="ferskvann" />
		<tag k="ssr:stedsnr" v="38396" />
		<tag k="ssr:type" v="vik" />
	</node>
	<node lat="59.87541110834249" lon="6.888813894949905" id="-34414">
		<tag k="name" v="Valldalsdammen" />
		<tag k="ssr:date" v="2019-12-27" />
		<tag k="ssr:gruppe" v="stilleståendeVann" />
		<tag k="ssr:hovedgruppe" v="ferskvann" />
		<tag k="ssr:stedsnr" v="38502" />
		<tag k="ssr:type" v="dam" />
		<tag k="waterway" v="dam" />
	</node>
	<node lat="60.24901944723766" lon="6.621025006109114" id="-34415">
		<tag k="name" v="Sakshaug" />
		<tag k="natural" v="hill" />
		<tag k="place" v="locality" />
		<tag k="ssr:date" v="2019-12-27" />
		<tag k="ssr:gruppe" v="høyder" />
		<tag k="ssr:hovedgruppe" v="terreng" />
		<tag k="ssr:stedsnr" v="38509" />
		<tag k="ssr:type" v="haug" />
	</node>
	<node lat="60.03328001939626" lon="6.575959048264861" id="-34416">
		<tag k="name" v="Lusatjørn" />
		<tag k="natural" v="water" />
		<tag k="ssr:date" v="2019-12-27" />
		<tag k="ssr:gruppe" v="stilleståendeVann" />
		<tag k="ssr:hovedgruppe" v="ferskvann" />
		<tag k="ssr:stedsnr" v="38512" />
		<tag k="ssr:type" v="tjern" />
	</node>
	<node lat="60.04119166690447" lon="6.524861102937955" id="-34417">
		<tag k="name" v="Purkeset" />
		<tag k="place" v="locality" />
		<tag k="ssr:date" v="2019-12-27" />
		<tag k="ssr:gruppe" v="terrengdetaljer" />
		<tag k="ssr:hovedgruppe" v="terreng" />
		<tag k="ssr:stedsnr" v="38521" />
		<tag k="ssr:type" v="annenTerrengdetalj" />
	</node>
	<node lat="60.27278333252333" lon="6.294888888433334" id="-34418">
		<tag k="name" v="Halsgjelet" />
		<tag k="natural" v="gorge" />
		<tag k="ssr:date" v="2019-12-27" />
		<tag k="ssr:gruppe" v="senkninger" />
		<tag k="ssr:hovedgruppe" v="terreng" />
		<tag k="ssr:stedsnr" v="38522" />
		<tag k="ssr:type" v="juv" />
	</node>
	<node lat="60.3166333320519" lon="6.676622223369191" id="-34419">
		<tag k="name" v="Holmane" />
		<tag k="place" v="islet" />
		<tag k="ssr:date" v="2019-12-27" />
		<tag k="ssr:gruppe" v="ferskvannskontur" />
		<tag k="ssr:hovedgruppe" v="ferskvann" />
		<tag k="ssr:stedsnr" v="38524" />
		<tag k="ssr:type" v="holme" />
	</node>
	<node lat="60.023199998949245" lon="6.543402770990501" id="-34420">
		<tag k="name" v="Kvernaneset" />
		<tag k="natural" v="cape" />
		<tag k="ssr:date" v="2019-12-27" />
		<tag k="ssr:gruppe" v="ferskvannskontur" />
		<tag k="ssr:hovedgruppe" v="ferskvann" />
		<tag k="ssr:stedsnr" v="38530" />
		<tag k="ssr:type" v="nes" />
	</node>
	<node lat="60.36222500384002" lon="6.687111102314655" id="-34421">
		<tag k="name" v="Lauhaug" />
		<tag k="natural" v="hill" />
		<tag k="place" v="locality" />
		<tag k="ssr:date" v="2019-12-27" />
		<tag k="ssr:gruppe" v="høyder" />
		<tag k="ssr:hovedgruppe" v="terreng" />
		<tag k="ssr:stedsnr" v="38532" />
		<tag k="ssr:type" v="haug" />
	</node>
	<node lat="60.01672777649288" lon="6.660627775296803" id="-34422">
		<tag k="name" v="Storegjelet" />
		<tag k="place" v="locality" />
		<tag k="ssr:date" v="2019-12-27" />
		<tag k="ssr:gruppe" v="terrengdetaljer" />
		<tag k="ssr:hovedgruppe" v="terreng" />
		<tag k="ssr:stedsnr" v="38535" />
		<tag k="ssr:type" v="annenTerrengdetalj" />
	</node>
	<node lat="60.355200001549086" lon="6.675091672162838" id="-34423">
		<tag k="name" v="Skorane" />
		<tag k="natural" v="slope" />
		<tag k="place" v="locality" />
		<tag k="ssr:date" v="2019-12-27" />
		<tag k="ssr:gruppe" v="skråninger" />
		<tag k="ssr:hovedgruppe" v="terreng" />
		<tag k="ssr:stedsnr" v="38536" />
		<tag k="ssr:type" v="li" />
	</node>
	<node lat="60.28341388796101" lon="6.631397216487254" id="-34424">
		<tag k="name" v="Beitarhaugen" />
		<tag k="natural" v="hill" />
		<tag k="place" v="locality" />
		<tag k="ssr:date" v="2019-12-27" />
		<tag k="ssr:gruppe" v="høyder" />
		<tag k="ssr:hovedgruppe" v="terreng" />
		<tag k="ssr:stedsnr" v="38537" />
		<tag k="ssr:type" v="haug" />
	</node>
	<node lat="60.27824999820147" lon="6.364936106899171" id="-34425">
		<tag k="name" v="Ståhaug" />
		<tag k="natural" v="hill" />
		<tag k="place" v="locality" />
		<tag k="ssr:date" v="2019-12-27" />
		<tag k="ssr:gruppe" v="høyder" />
		<tag k="ssr:hovedgruppe" v="terreng" />
		<tag k="ssr:stedsnr" v="38540" />
		<tag k="ssr:type" v="haug" />
	</node>
	<node lat="60.15048889323685" lon="6.189794447168826" id="-34426">
		<tag k="fixme" v="consider natural=peak for the most distinct mountains in the district" />
		<tag k="name" v="Vetlafjellet" />
		<tag k="natural" v="hill" />
		<tag k="place" v="locality" />
		<tag k="ssr:date" v="2019-12-27" />
		<tag k="ssr:gruppe" v="høyder" />
		<tag k="ssr:hovedgruppe" v="terreng" />
		<tag k="ssr:stedsnr" v="38411" />
		<tag k="ssr:type" v="fjell" />
	</node>
	<node lat="60.14071944851012" lon="6.531622221674622" id="-34427">
		<tag k="name" v="Røyrgjelhaugen" />
		<tag k="natural" v="hill" />
		<tag k="place" v="locality" />
		<tag k="ssr:date" v="2019-12-27" />
		<tag k="ssr:gruppe" v="høyder" />
		<tag k="ssr:hovedgruppe" v="terreng" />
		<tag k="ssr:stedsnr" v="38421" />
		<tag k="ssr:type" v="haug" />
	</node>
	<node lat="59.811358337775275" lon="6.818499997415638" id="-34428">
		<tag k="name" v="Tveitlia" />
		<tag k="natural" v="slope" />
		<tag k="place" v="locality" />
		<tag k="ssr:date" v="2019-12-27" />
		<tag k="ssr:gruppe" v="skråninger" />
		<tag k="ssr:hovedgruppe" v="terreng" />
		<tag k="ssr:stedsnr" v="38458" />
		<tag k="ssr:type" v="li" />
	</node>
	<node lat="60.095263888629546" lon="6.549424998541918" id="-34429">
		<tag k="loc_name" v="Hundaflot" />
		<tag k="name" v="Hundaflott" />
		<tag k="place" v="locality" />
		<tag k="ssr:date" v="2019-12-27" />
		<tag k="ssr:gruppe" v="flater" />
		<tag k="ssr:hovedgruppe" v="terreng" />
		<tag k="ssr:stedsnr" v="38605" />
		<tag k="ssr:type" v="slette" />
	</node>
	<node lat="60.33047222522723" lon="6.6788777827872785" id="-34430">
		<tag k="ford" v="yes" />
		<tag k="name" v="Kaldavad" />
		<tag k="place" v="locality" />
		<tag k="ssr:date" v="2019-12-27" />
		<tag k="ssr:gruppe" v="veg" />
		<tag k="ssr:hovedgruppe" v="infrastruktur" />
		<tag k="ssr:stedsnr" v="38610" />
		<tag k="ssr:type" v="vad" />
	</node>
	<node lat="60.33693611387054" lon="6.661111115074947" id="-34431">
		<tag k="name" v="Håfjell" />
		<tag k="place" v="locality" />
		<tag k="ssr:date" v="2019-12-27" />
		<tag k="ssr:gruppe" v="terrengdetaljer" />
		<tag k="ssr:hovedgruppe" v="terreng" />
		<tag k="ssr:stedsnr" v="38616" />
		<tag k="ssr:type" v="hylle" />
	</node>
	<node lat="60.331419443837206" lon="6.670349994688604" id="-34432">
		<tag k="name" v="Rosshagen" />
		<tag k="place" v="farm" />
		<tag k="ssr:date" v="2019-12-27" />
		<tag k="ssr:gruppe" v="gardsbebyggelse" />
		<tag k="ssr:hovedgruppe" v="bebyggelse" />
		<tag k="ssr:stedsnr" v="38619" />
		<tag k="ssr:type" v="bruk" />
	</node>
	<node lat="60.286055556983825" lon="6.390758326757676" id="-34433">
		<tag k="name" v="Koprebakkane" />
		<tag k="natural" v="slope" />
		<tag k="place" v="locality" />
		<tag k="ssr:date" v="2019-12-27" />
		<tag k="ssr:gruppe" v="skråninger" />
		<tag k="ssr:hovedgruppe" v="terreng" />
		<tag k="ssr:stedsnr" v="38622" />
		<tag k="ssr:type" v="bakke" />
	</node>
	<node lat="60.28624722564795" lon="6.380180556652929" id="-34434">
		<tag k="name" v="Omnskor" />
		<tag k="place" v="locality" />
		<tag k="ssr:date" v="2020-02-17" />
		<tag k="ssr:gruppe" v="terrengdetaljer" />
		<tag k="ssr:hovedgruppe" v="terreng" />
		<tag k="ssr:stedsnr" v="38624" />
		<tag k="ssr:type" v="hylle" />
	</node>
	<node lat="60.3560166701405" lon="6.3960222282055295" id="-34435">
		<tag k="name" v="Hjellestadhamrane" />
		<tag k="natural" v="hill" />
		<tag k="place" v="locality" />
		<tag k="ssr:date" v="2019-12-27" />
		<tag k="ssr:gruppe" v="høyder" />
		<tag k="ssr:hovedgruppe" v="terreng" />
		<tag k="ssr:stedsnr" v="38628" />
		<tag k="ssr:type" v="berg" />
	</node>
	<node lat="60.042911114200415" lon="6.492030552647771" id="-34436">
		<tag k="name" v="Smylveshamar" />
		<tag k="place" v="locality" />
		<tag k="ssr:date" v="2019-12-27" />
		<tag k="ssr:gruppe" v="terrengdetaljer" />
		<tag k="ssr:hovedgruppe" v="terreng" />
		<tag k="ssr:stedsnr" v="38632" />
		<tag k="ssr:type" v="annenTerrengdetalj" />
	</node>
	<node lat="60.23128888731937" lon="6.232508341280147" id="-34437">
		<tag k="name" v="Stokke" />
		<tag k="place" v="farm" />
		<tag k="ssr:date" v="2019-12-27" />
		<tag k="ssr:gruppe" v="gardsbebyggelse" />
		<tag k="ssr:hovedgruppe" v="bebyggelse" />
		<tag k="ssr:stedsnr" v="38702" />
		<tag k="ssr:type" v="bruk" />
	</node>
	<node lat="60.276499997932135" lon="6.254833328970974" id="-34438">
		<tag k="fixme" v="consider place=hamlet" />
		<tag k="name" v="Underhaug" />
		<tag k="place" v="farm" />
		<tag k="ssr:date" v="2019-12-27" />
		<tag k="ssr:gruppe" v="gardsbebyggelse" />
		<tag k="ssr:hovedgruppe" v="bebyggelse" />
		<tag k="ssr:stedsnr" v="38713" />
		<tag k="ssr:type" v="gard" />
	</node>
	<node lat="60.27441388851639" lon="6.256999999342753" id="-34439">
		<tag k="name" v="Kinn" />
		<tag k="place" v="farm" />
		<tag k="ssr:date" v="2019-12-27" />
		<tag k="ssr:gruppe" v="gardsbebyggelse" />
		<tag k="ssr:hovedgruppe" v="bebyggelse" />
		<tag k="ssr:stedsnr" v="38718" />
		<tag k="ssr:type" v="bruk" />
	</node>
	<node lat="60.27295555647447" lon="6.263694451555391" id="-34440">
		<tag k="name" v="Urane" />
		<tag k="natural" v="scree" />
		<tag k="ssr:date" v="2019-12-27" />
		<tag k="ssr:gruppe" v="løsmasseavsetninger" />
		<tag k="ssr:hovedgruppe" v="markslag" />
		<tag k="ssr:stedsnr" v="38721" />
		<tag k="ssr:type" v="ur" />
	</node>
	<node lat="60.421844448400584" lon="6.7563805502618255" id="-34441">
		<tag k="name" v="Håvardsrinden" />
		<tag k="natural" v="ridge" />
		<tag k="place" v="locality" />
		<tag k="ssr:date" v="2019-12-27" />
		<tag k="ssr:gruppe" v="høyder" />
		<tag k="ssr:hovedgruppe" v="terreng" />
		<tag k="ssr:stedsnr" v="38772" />
		<tag k="ssr:type" v="rygg" />
	</node>
	<node lat="60.426991666746005" lon="6.75879721908426" id="-34442">
		<tag k="name" v="Endresvodalen" />
		<tag k="natural" v="valley" />
		<tag k="place" v="locality" />
		<tag k="ssr:date" v="2019-12-27" />
		<tag k="ssr:gruppe" v="senkninger" />
		<tag k="ssr:hovedgruppe" v="terreng" />
		<tag k="ssr:stedsnr" v="38774" />
		<tag k="ssr:type" v="dal" />
	</node>
	<node lat="60.25619721892924" lon="6.235163887572524" id="-34443">
		<tag k="name" v="Lynghaugen" />
		<tag k="natural" v="hill" />
		<tag k="place" v="locality" />
		<tag k="ssr:date" v="2019-12-27" />
		<tag k="ssr:gruppe" v="høyder" />
		<tag k="ssr:hovedgruppe" v="terreng" />
		<tag k="ssr:stedsnr" v="38778" />
		<tag k="ssr:type" v="haug" />
	</node>
	<node lat="60.38105832981858" lon="6.485022226214913" id="-34444">
		<tag k="name" v="Nybbevik" />
		<tag k="place" v="locality" />
		<tag k="ssr:date" v="2019-12-27" />
		<tag k="ssr:gruppe" v="terrengdetaljer" />
		<tag k="ssr:hovedgruppe" v="terreng" />
		<tag k="ssr:stedsnr" v="38910" />
		<tag k="ssr:type" v="annenTerrengdetalj" />
	</node>
	<node lat="60.33340833364123" lon="6.6650833423009175" id="-34445">
		<tag k="name" v="Spannskor" />
		<tag k="natural" v="slope" />
		<tag k="place" v="locality" />
		<tag k="ssr:date" v="2019-12-27" />
		<tag k="ssr:gruppe" v="skråninger" />
		<tag k="ssr:hovedgruppe" v="terreng" />
		<tag k="ssr:stedsnr" v="38822" />
		<tag k="ssr:type" v="li" />
	</node>
	<node lat="60.29675555906685" lon="6.5927250014488825" id="-34446">
		<tag k="name" v="Nyeslåtten" />
		<tag k="place" v="farm" />
		<tag k="ssr:date" v="2019-12-27" />
		<tag k="ssr:gruppe" v="gardsbebyggelse" />
		<tag k="ssr:hovedgruppe" v="bebyggelse" />
		<tag k="ssr:stedsnr" v="38858" />
		<tag k="ssr:type" v="bruk" />
	</node>
	<node lat="60.346077776139964" lon="6.409544447242813" id="-34447">
		<tag k="name" v="Rodna" />
		<tag k="place" v="locality" />
		<tag k="ssr:date" v="2019-12-27" />
		<tag k="ssr:gruppe" v="terrengdetaljer" />
		<tag k="ssr:hovedgruppe" v="terreng" />
		<tag k="ssr:stedsnr" v="38860" />
		<tag k="ssr:type" v="annenTerrengdetalj" />
	</node>
	<node lat="60.26663055836406" lon="6.29674722098448" id="-34448">
		<tag k="name" v="Tveddalsrindane" />
		<tag k="natural" v="hill" />
		<tag k="place" v="locality" />
		<tag k="ssr:date" v="2019-12-27" />
		<tag k="ssr:gruppe" v="høyder" />
		<tag k="ssr:hovedgruppe" v="terreng" />
		<tag k="ssr:stedsnr" v="38866" />
		<tag k="ssr:type" v="berg" />
	</node>
	<node lat="60.37169722500452" lon="6.634530564030731" id="-34449">
		<tag k="name" v="Skarvhagen" />
		<tag k="natural" v="slope" />
		<tag k="place" v="locality" />
		<tag k="ssr:date" v="2019-12-27" />
		<tag k="ssr:gruppe" v="skråninger" />
		<tag k="ssr:hovedgruppe" v="terreng" />
		<tag k="ssr:stedsnr" v="38867" />
		<tag k="ssr:type" v="li" />
	</node>
	<node lat="60.419738912838326" lon="6.634841561670603" id="-34450">
		<tag k="name" v="Veng" />
		<tag k="natural" v="stone" />
		<tag k="ssr:date" v="2020-02-19" />
		<tag k="ssr:gruppe" v="løsmasseavsetninger" />
		<tag k="ssr:hovedgruppe" v="markslag" />
		<tag k="ssr:stedsnr" v="38873" />
		<tag k="ssr:type" v="stein" />
	</node>
	<node lat="60.417284025012165" lon="6.644330778017245" id="-34451">
		<tag k="name" v="Hagastykket" />
		<tag k="place" v="locality" />
		<tag k="ssr:date" v="2020-02-19" />
		<tag k="ssr:gruppe" v="dyrkamark" />
		<tag k="ssr:hovedgruppe" v="markslag" />
		<tag k="ssr:stedsnr" v="38877" />
		<tag k="ssr:type" v="jorde" />
	</node>
	<node lat="60.33202500124658" lon="6.494613897744678" id="-34452">
		<tag k="name" v="Lonena" />
		<tag k="natural" v="water" />
		<tag k="ssr:date" v="2019-12-27" />
		<tag k="ssr:gruppe" v="rennendeVann" />
		<tag k="ssr:hovedgruppe" v="ferskvann" />
		<tag k="ssr:stedsnr" v="38879" />
		<tag k="ssr:type" v="lon" />
		<tag k="water" v="lake" />
	</node>
	<node lat="60.37484444532122" lon="6.787019446989256" id="-34453">
		<tag k="historic" v="shieling" />
		<tag k="name" v="Smørstein" />
		<tag k="place" v="isolated_dwelling" />
		<tag k="ssr:date" v="2019-12-27" />
		<tag k="ssr:gruppe" v="gardsbebyggelse" />
		<tag k="ssr:hovedgruppe" v="bebyggelse" />
		<tag k="ssr:stedsnr" v="39710" />
		<tag k="ssr:type" v="seterStøl" />
	</node>
	<node lat="60.173908337389186" lon="6.584224992444389" id="-34454">
		<tag k="name" v="Sjonaskallen" />
		<tag k="natural" v="hill" />
		<tag k="place" v="locality" />
		<tag k="ssr:date" v="2019-12-27" />
		<tag k="ssr:gruppe" v="høyder" />
		<tag k="ssr:hovedgruppe" v="terreng" />
		<tag k="ssr:stedsnr" v="39759" />
		<tag k="ssr:type" v="haug" />
	</node>
	<node lat="60.40379167055648" lon="6.580966657668895" id="-34455">
		<tag k="alt_name" v="Demmane" />
		<tag k="name" v="Demmena" />
		<tag k="natural" v="water" />
		<tag k="ssr:date" v="2019-12-27" />
		<tag k="ssr:gruppe" v="stilleståendeVann" />
		<tag k="ssr:hovedgruppe" v="ferskvann" />
		<tag k="ssr:stedsnr" v="237169" />
		<tag k="ssr:type" v="tjern" />
	</node>
	<node lat="60.11199444119175" lon="6.537263888412846" id="-34456">
		<tag k="name" v="Mulaneset" />
		<tag k="natural" v="cape" />
		<tag k="ssr:date" v="2019-12-27" />
		<tag k="ssr:gruppe" v="kystkontur" />
		<tag k="ssr:hovedgruppe" v="sjø" />
		<tag k="ssr:stedsnr" v="43691" />
		<tag k="ssr:type" v="nesISjø" />
	</node>
	<node lat="60.36474769415618" lon="6.3495792381399605" id="-34457">
		<tag k="name" v="Langneset" />
		<tag k="natural" v="cape" />
		<tag k="ssr:date" v="2019-12-27" />
		<tag k="ssr:gruppe" v="kystkontur" />
		<tag k="ssr:hovedgruppe" v="sjø" />
		<tag k="ssr:stedsnr" v="44096" />
		<tag k="ssr:type" v="nesISjø" />
	</node>
	<node lat="60.09638888452759" lon="6.546033329490344" id="-34458">
		<tag k="alt_name" v="Lindeneset, vla" />
		<tag k="name" v="Indra Lindeneset" />
		<tag k="natural" v="cape" />
		<tag k="ssr:date" v="2019-12-27" />
		<tag k="ssr:gruppe" v="kystkontur" />
		<tag k="ssr:hovedgruppe" v="sjø" />
		<tag k="ssr:stedsnr" v="238097" />
		<tag k="ssr:type" v="nesISjø" />
	</node>
	<node lat="60.434441665883114" lon="6.562605546853496" id="-34459">
		<tag k="name" v="Hesthamar" />
		<tag k="place" v="farm" />
		<tag k="ssr:date" v="2021-06-08" />
		<tag k="ssr:gruppe" v="gardsbebyggelse" />
		<tag k="ssr:hovedgruppe" v="bebyggelse" />
		<tag k="ssr:stedsnr" v="238098" />
		<tag k="ssr:type" v="bruk" />
	</node>
	<node lat="60.313072224049456" lon="6.305313886334332" id="-34460">
		<tag k="name" v="Doktorflui" />
		<tag k="old_name" v="Doktorflesa" />
		<tag k="place" v="locality" />
		<tag k="seamark:type" v="rock" />
		<tag k="ssr:date" v="2019-12-27" />
		<tag k="ssr:gruppe" v="grunnerISjø" />
		<tag k="ssr:hovedgruppe" v="sjø" />
		<tag k="ssr:stedsnr" v="44909" />
		<tag k="ssr:type" v="båeISjø" />
	</node>
	<node lat="60.245793986912226" lon="6.56724383950279" id="-34461">
		<tag k="bridge" v="yes" />
		<tag k="layer" v="1" />
		<tag k="name" v="Bleie" />
		<tag k="ssr:date" v="2019-12-27" />
		<tag k="ssr:gruppe" v="samferdselsanlegg" />
		<tag k="ssr:hovedgruppe" v="infrastruktur" />
		<tag k="ssr:stedsnr" v="46786" />
		<tag k="ssr:type" v="bru" />
	</node>
	<node lat="60.24039999949419" lon="6.6198138966296645" id="-34462">
		<tag k="bridge" v="yes" />
		<tag k="layer" v="1" />
		<tag k="name" v="Glåmo" />
		<tag k="ssr:date" v="2019-12-27" />
		<tag k="ssr:gruppe" v="samferdselsanlegg" />
		<tag k="ssr:hovedgruppe" v="infrastruktur" />
		<tag k="ssr:stedsnr" v="46787" />
		<tag k="ssr:type" v="bru" />
	</node>
	<node lat="60.20561944707217" lon="6.563483330834149" id="-34463">
		<tag k="bridge" v="yes" />
		<tag k="layer" v="1" />
		<tag k="name" v="Måge" />
		<tag k="ssr:date" v="2019-12-27" />
		<tag k="ssr:gruppe" v="samferdselsanlegg" />
		<tag k="ssr:hovedgruppe" v="infrastruktur" />
		<tag k="ssr:stedsnr" v="46789" />
		<tag k="ssr:type" v="bru" />
	</node>
	<node lat="60.31540833085283" lon="6.322627773749846" id="-34464">
		<tag k="bridge" v="yes" />
		<tag k="layer" v="1" />
		<tag k="name" v="Månevik" />
		<tag k="ssr:date" v="2019-12-27" />
		<tag k="ssr:gruppe" v="samferdselsanlegg" />
		<tag k="ssr:hovedgruppe" v="infrastruktur" />
		<tag k="ssr:stedsnr" v="46872" />
		<tag k="ssr:type" v="bru" />
	</node>
	<node lat="60.347936114041225" lon="6.401388891012614" id="-34465">
		<tag k="bridge" v="yes" />
		<tag k="layer" v="1" />
		<tag k="name" v="Samland" />
		<tag k="ssr:date" v="2019-12-27" />
		<tag k="ssr:gruppe" v="samferdselsanlegg" />
		<tag k="ssr:hovedgruppe" v="infrastruktur" />
		<tag k="ssr:stedsnr" v="46874" />
		<tag k="ssr:type" v="bru" />
	</node>
	<node lat="59.78921944633776" lon="6.769186114074029" id="-34466">
		<tag k="bridge" v="yes" />
		<tag k="layer" v="1" />
		<tag k="name" v="Ekkje" />
		<tag k="ssr:date" v="2019-12-27" />
		<tag k="ssr:gruppe" v="samferdselsanlegg" />
		<tag k="ssr:hovedgruppe" v="infrastruktur" />
		<tag k="ssr:stedsnr" v="46880" />
		<tag k="ssr:type" v="bru" />
	</node>
	<node lat="60.424050002349375" lon="6.621780551209828" id="-34469">
		<tag k="amenity" v="ferry_terminal" />
		<tag k="name" v="Utne ferjekai" />
		<tag k="ssr:date" v="2019-12-27" />
		<tag k="ssr:gruppe" v="sjøfart" />
		<tag k="ssr:hovedgruppe" v="infrastruktur" />
		<tag k="ssr:stedsnr" v="60122" />
		<tag k="ssr:type" v="ferjekai" />
	</node>
	<node lat="59.95037500101089" lon="6.653819452829393" id="-34470">
		<tag k="name" v="Bjørnavadet" />
		<tag k="place" v="locality" />
		<tag k="ssr:date" v="2021-06-08" />
		<tag k="ssr:gruppe" v="rennendeVann" />
		<tag k="ssr:hovedgruppe" v="ferskvann" />
		<tag k="ssr:stedsnr" v="64122" />
		<tag k="ssr:type" v="høl" />
	</node>
	<node lat="59.957800004268904" lon="6.8302694439729885" id="-34471">
		<tag k="fixme" v="consider natural=peak for the most distinct mountains in the district" />
		<tag k="name" v="Loftsnuten" />
		<tag k="natural" v="hill" />
		<tag k="place" v="locality" />
		<tag k="ssr:date" v="2021-06-08" />
		<tag k="ssr:gruppe" v="høyder" />
		<tag k="ssr:hovedgruppe" v="terreng" />
		<tag k="ssr:stedsnr" v="64131" />
		<tag k="ssr:type" v="ås" />
	</node>
	<node lat="59.74266666688314" lon="6.781911105878238" id="-34472">
		<tag k="fixme" v="consider natural=peak for the most distinct mountains in the district" />
		<tag k="name" v="Straumberghalsen" />
		<tag k="natural" v="hill" />
		<tag k="place" v="locality" />
		<tag k="ssr:date" v="2021-06-08" />
		<tag k="ssr:gruppe" v="høyder" />
		<tag k="ssr:hovedgruppe" v="terreng" />
		<tag k="ssr:stedsnr" v="64134" />
		<tag k="ssr:type" v="ås" />
	</node>
	<node lat="59.904200001674646" lon="6.644075004805044" id="-34473">
		<tag k="name" v="Løyningsvatnet" />
		<tag k="natural" v="water" />
		<tag k="ssr:date" v="2021-06-08" />
		<tag k="ssr:gruppe" v="stilleståendeVann" />
		<tag k="ssr:hovedgruppe" v="ferskvann" />
		<tag k="ssr:stedsnr" v="64145" />
		<tag k="ssr:type" v="vann" />
		<tag k="water" v="lake" />
	</node>
	<node lat="59.92324166394474" lon="6.620519447868506" id="-34474">
		<tag k="fixme" v="consider natural=peak for the most distinct mountains in the district" />
		<tag k="name" v="Nos" />
		<tag k="natural" v="hill" />
		<tag k="place" v="locality" />
		<tag k="ssr:date" v="2021-06-08" />
		<tag k="ssr:gruppe" v="høyder" />
		<tag k="ssr:hovedgruppe" v="terreng" />
		<tag k="ssr:stedsnr" v="64165" />
		<tag k="ssr:type" v="ås" />
	</node>
	<node lat="59.92379999640411" lon="6.891788880884655" id="-34475">
		<tag k="name" v="Holdøla" />
		<tag k="ssr:date" v="2021-06-08" />
		<tag k="ssr:gruppe" v="rennendeVann" />
		<tag k="ssr:hovedgruppe" v="ferskvann" />
		<tag k="ssr:stedsnr" v="64171" />
		<tag k="ssr:type" v="bekk" />
		<tag k="waterway" v="stream" />
	</node>
	<node lat="59.88570277753554" lon="6.9080361172044435" id="-34476">
		<tag k="name" v="Tangavadet" />
		<tag k="natural" v="shoal" />
		<tag k="place" v="locality" />
		<tag k="ssr:date" v="2021-06-08" />
		<tag k="ssr:gruppe" v="grunnerIFerskvann" />
		<tag k="ssr:hovedgruppe" v="ferskvann" />
		<tag k="ssr:stedsnr" v="64203" />
		<tag k="ssr:type" v="grunne" />
	</node>
	<node lat="59.72918333155382" lon="6.787908331834033" id="-34477">
		<tag k="fixme" v="consider natural=peak for the most distinct mountains in the district" />
		<tag k="name" v="Svartenutskora" />
		<tag k="natural" v="hill" />
		<tag k="place" v="locality" />
		<tag k="ssr:date" v="2021-06-08" />
		<tag k="ssr:gruppe" v="høyder" />
		<tag k="ssr:hovedgruppe" v="terreng" />
		<tag k="ssr:stedsnr" v="64216" />
		<tag k="ssr:type" v="ås" />
	</node>
	<node lat="59.81181666882745" lon="6.734030549253601" id="-34478">
		<tag k="fixme" v="consider natural=peak for the most distinct mountains in the district" />
		<tag k="name" v="Gausnibb" />
		<tag k="natural" v="hill" />
		<tag k="place" v="locality" />
		<tag k="ssr:date" v="2021-06-08" />
		<tag k="ssr:gruppe" v="høyder" />
		<tag k="ssr:hovedgruppe" v="terreng" />
		<tag k="ssr:stedsnr" v="64220" />
		<tag k="ssr:type" v="ås" />
	</node>
	<node lat="59.724288885675264" lon="6.692499995078087" id="-34479">
		<tag k="fixme" v="consider natural=peak for the most distinct mountains in the district" />
		<tag k="name" v="Sauabakknuten" />
		<tag k="natural" v="hill" />
		<tag k="place" v="locality" />
		<tag k="ssr:date" v="2021-06-08" />
		<tag k="ssr:gruppe" v="høyder" />
		<tag k="ssr:hovedgruppe" v="terreng" />
		<tag k="ssr:stedsnr" v="64221" />
		<tag k="ssr:type" v="ås" />
	</node>
	<node lat="59.959083336245186" lon="7.213425008312828" id="-34480">
		<tag k="name" v="Borda" />
		<tag k="ssr:date" v="2021-06-08" />
		<tag k="ssr:gruppe" v="rennendeVann" />
		<tag k="ssr:hovedgruppe" v="ferskvann" />
		<tag k="ssr:stedsnr" v="64368" />
		<tag k="ssr:type" v="elv" />
		<tag k="waterway" v="river" />
	</node>
	<node lat="59.98433139311442" lon="6.564823619674132" id="-34481">
		<tag k="alt_name" v="Massøyni" />
		<tag k="name" v="Massøyna" />
		<tag k="place" v="island" />
		<tag k="ssr:date" v="2019-12-27" />
		<tag k="ssr:gruppe" v="ferskvannskontur" />
		<tag k="ssr:hovedgruppe" v="ferskvann" />
		<tag k="ssr:stedsnr" v="64405" />
		<tag k="ssr:type" v="øy" />
	</node>
	<node lat="59.78702500009386" lon="7.048486114146148" id="-34482">
		<tag k="fixme" v="consider natural=peak for the most distinct mountains in the district" />
		<tag k="name" v="Høghellernuten" />
		<tag k="natural" v="hill" />
		<tag k="place" v="locality" />
		<tag k="ssr:date" v="2021-06-08" />
		<tag k="ssr:gruppe" v="høyder" />
		<tag k="ssr:hovedgruppe" v="terreng" />
		<tag k="ssr:stedsnr" v="64924" />
		<tag k="ssr:type" v="ås" />
	</node>
	<node lat="59.80235555742884" lon="6.85603611908257" id="-34483">
		<tag k="historic" v="shieling" />
		<tag k="name" v="Nyastølen" />
		<tag k="place" v="isolated_dwelling" />
		<tag k="ssr:date" v="2019-12-27" />
		<tag k="ssr:gruppe" v="gardsbebyggelse" />
		<tag k="ssr:hovedgruppe" v="bebyggelse" />
		<tag k="ssr:stedsnr" v="64801" />
		<tag k="ssr:type" v="seterStøl" />
	</node>
	<node lat="60.232563884977665" lon="6.8520583413492195" id="-34484">
		<tag k="name" v="Reppo" />
		<tag k="ssr:date" v="2019-12-27" />
		<tag k="ssr:gruppe" v="rennendeVann" />
		<tag k="ssr:hovedgruppe" v="ferskvann" />
		<tag k="ssr:stedsnr" v="65008" />
		<tag k="ssr:type" v="elv" />
		<tag k="waterway" v="river" />
	</node>
	<node lat="60.06511666563131" lon="6.5504249944729" id="-34485">
		<tag k="name" v="Opo" />
		<tag k="ssr:date" v="2019-12-27" />
		<tag k="ssr:gruppe" v="rennendeVann" />
		<tag k="ssr:hovedgruppe" v="ferskvann" />
		<tag k="ssr:stedsnr" v="65063" />
		<tag k="ssr:type" v="elv" />
		<tag k="waterway" v="river" />
	</node>
	<node lat="60.080091662442854" lon="6.515133332469417" id="-34486">
		<tag k="name" v="Røynhammarskreda" />
		<tag k="natural" v="valley" />
		<tag k="place" v="locality" />
		<tag k="ssr:date" v="2019-12-27" />
		<tag k="ssr:gruppe" v="senkninger" />
		<tag k="ssr:hovedgruppe" v="terreng" />
		<tag k="ssr:stedsnr" v="65071" />
		<tag k="ssr:type" v="skar" />
	</node>
	<node lat="59.84210833148331" lon="6.725794442742586" id="-34487">
		<tag k="name" v="Ullshaug" />
		<tag k="place" v="locality" />
		<tag k="ssr:date" v="2021-06-08" />
		<tag k="ssr:gruppe" v="gardsbebyggelse" />
		<tag k="ssr:hovedgruppe" v="bebyggelse" />
		<tag k="ssr:stedsnr" v="65201" />
		<tag k="ssr:type" v="byggForJordbrukFiskeOgFangst" />
	</node>
	<node lat="59.86293587255179" lon="6.6922768104983765" id="-34488">
		<tag k="name" v="Seljestadjuvet" />
		<tag k="natural" v="valley" />
		<tag k="place" v="locality" />
		<tag k="ssr:date" v="2021-06-08" />
		<tag k="ssr:gruppe" v="senkninger" />
		<tag k="ssr:hovedgruppe" v="terreng" />
		<tag k="ssr:stedsnr" v="65213" />
		<tag k="ssr:type" v="dal" />
	</node>
	<node lat="59.8159790582552" lon="6.714101555059534" id="-34489">
		<tag k="name" v="Reinsvatnet" />
		<tag k="natural" v="water" />
		<tag k="ssr:date" v="2021-06-08" />
		<tag k="ssr:gruppe" v="stilleståendeVann" />
		<tag k="ssr:hovedgruppe" v="ferskvann" />
		<tag k="ssr:stedsnr" v="65217" />
		<tag k="ssr:type" v="vann" />
		<tag k="water" v="lake" />
	</node>
	<node lat="59.8160027816994" lon="6.749569440567216" id="-34490">
		<tag k="name" v="Håraelva" />
		<tag k="ssr:date" v="2021-06-08" />
		<tag k="ssr:gruppe" v="rennendeVann" />
		<tag k="ssr:hovedgruppe" v="ferskvann" />
		<tag k="ssr:stedsnr" v="65218" />
		<tag k="ssr:type" v="elv" />
		<tag k="waterway" v="river" />
	</node>
	<node lat="60.104950002636684" lon="6.51320555091975" id="-34491">
		<tag k="fixme" v="consider natural=peak for the most distinct mountains in the district" />
		<tag k="name" v="Husatinden" />
		<tag k="natural" v="hill" />
		<tag k="place" v="locality" />
		<tag k="ssr:date" v="2019-12-27" />
		<tag k="ssr:gruppe" v="høyder" />
		<tag k="ssr:hovedgruppe" v="terreng" />
		<tag k="ssr:stedsnr" v="65114" />
		<tag k="ssr:type" v="ås" />
	</node>
	<node lat="60.118741665861094" lon="6.535911108879434" id="-34492">
		<tag k="name" v="Smylvehaugen" />
		<tag k="natural" v="hill" />
		<tag k="place" v="locality" />
		<tag k="ssr:date" v="2019-12-27" />
		<tag k="ssr:gruppe" v="høyder" />
		<tag k="ssr:hovedgruppe" v="terreng" />
		<tag k="ssr:stedsnr" v="65121" />
		<tag k="ssr:type" v="haug" />
	</node>
	<node lat="60.13788333643864" lon="6.529288889915984" id="-34493">
		<tag k="name" v="Fivelsmyr" />
		<tag k="natural" v="wetland" />
		<tag k="ssr:date" v="2019-12-27" />
		<tag k="ssr:gruppe" v="våtmark" />
		<tag k="ssr:hovedgruppe" v="markslag" />
		<tag k="ssr:stedsnr" v="65172" />
		<tag k="ssr:type" v="myr" />
	</node>
	<node lat="60.13914722121433" lon="6.533302779283873" id="-34494">
		<tag k="name" v="Gjerdfoss" />
		<tag k="natural" v="waterfall" />
		<tag k="ssr:date" v="2019-12-27" />
		<tag k="ssr:gruppe" v="rennendeVann" />
		<tag k="ssr:hovedgruppe" v="ferskvann" />
		<tag k="ssr:stedsnr" v="65174" />
		<tag k="ssr:type" v="foss" />
	</node>
	<node lat="59.8552750022923" lon="6.867683332743192" id="-34495">
		<tag k="historic" v="shieling" />
		<tag k="name" v="Nyastøl" />
		<tag k="place" v="isolated_dwelling" />
		<tag k="ssr:date" v="2021-06-08" />
		<tag k="ssr:gruppe" v="gardsbebyggelse" />
		<tag k="ssr:hovedgruppe" v="bebyggelse" />
		<tag k="ssr:stedsnr" v="65189" />
		<tag k="ssr:type" v="seterStøl" />
	</node>
	<node lat="60.1541583341347" lon="6.509399995943735" id="-34496">
		<tag k="fixme" v="consider natural=peak for the most distinct mountains in the district" />
		<tag k="name" v="Storenuten" />
		<tag k="natural" v="hill" />
		<tag k="place" v="locality" />
		<tag k="ssr:date" v="2019-12-27" />
		<tag k="ssr:gruppe" v="høyder" />
		<tag k="ssr:hovedgruppe" v="terreng" />
		<tag k="ssr:stedsnr" v="65191" />
		<tag k="ssr:type" v="ås" />
	</node>
	<node lat="60.15282499904432" lon="6.583938884510945" id="-34497">
		<tag k="name" v="Skuggaberg" />
		<tag k="natural" v="hill" />
		<tag k="place" v="locality" />
		<tag k="ssr:date" v="2019-12-27" />
		<tag k="ssr:gruppe" v="høyder" />
		<tag k="ssr:hovedgruppe" v="terreng" />
		<tag k="ssr:stedsnr" v="65197" />
		<tag k="ssr:type" v="berg" />
	</node>
	<node lat="60.154194446590566" lon="7.068311119181435" id="-34498">
		<tag k="name" v="Grøndalshæ" />
		<tag k="natural" v="hill" />
		<tag k="place" v="locality" />
		<tag k="ssr:date" v="2021-06-08" />
		<tag k="ssr:gruppe" v="høyder" />
		<tag k="ssr:hovedgruppe" v="terreng" />
		<tag k="ssr:stedsnr" v="65311" />
		<tag k="ssr:type" v="høyde" />
	</node>
	<node lat="60.12100555898642" lon="6.851863893520712" id="-34499">
		<tag k="name" v="Bukkaskaret" />
		<tag k="natural" v="valley" />
		<tag k="place" v="locality" />
		<tag k="ssr:date" v="2021-06-08" />
		<tag k="ssr:gruppe" v="senkninger" />
		<tag k="ssr:hovedgruppe" v="terreng" />
		<tag k="ssr:stedsnr" v="65411" />
		<tag k="ssr:type" v="skar" />
	</node>
	<node lat="60.05630555870827" lon="7.386933327194101" id="-34500">
		<tag k="name" v="Jakobsbudalen" />
		<tag k="natural" v="valley" />
		<tag k="place" v="locality" />
		<tag k="ssr:date" v="2019-12-27" />
		<tag k="ssr:gruppe" v="senkninger" />
		<tag k="ssr:hovedgruppe" v="terreng" />
		<tag k="ssr:stedsnr" v="65633" />
		<tag k="ssr:type" v="dal" />
	</node>
	<node lat="60.231371826975646" lon="6.31784607692442" id="-34501">
		<tag k="name" v="Freddalsvatnet" />
		<tag k="natural" v="water" />
		<tag k="ssr:date" v="2019-12-27" />
		<tag k="ssr:gruppe" v="stilleståendeVann" />
		<tag k="ssr:hovedgruppe" v="ferskvann" />
		<tag k="ssr:stedsnr" v="65808" />
		<tag k="ssr:type" v="tjern" />
	</node>
	<node lat="60.22802499799416" lon="6.383663895909554" id="-34502">
		<tag k="fixme" v="consider natural=peak for the most distinct mountains in the district" />
		<tag k="name" v="Steinafjell" />
		<tag k="natural" v="hill" />
		<tag k="place" v="locality" />
		<tag k="ssr:date" v="2019-12-27" />
		<tag k="ssr:gruppe" v="høyder" />
		<tag k="ssr:hovedgruppe" v="terreng" />
		<tag k="ssr:stedsnr" v="65812" />
		<tag k="ssr:type" v="fjell" />
	</node>
	<node lat="60.19585833341259" lon="6.506508326629908" id="-34503">
		<tag k="fixme" v="multiple name tags, choose one and add the other to alt_name" />
		<tag k="name" v="Luravatnet;Vetlavatnet" />
		<tag k="natural" v="water" />
		<tag k="ssr:date" v="2019-12-27" />
		<tag k="ssr:gruppe" v="stilleståendeVann" />
		<tag k="ssr:hovedgruppe" v="ferskvann" />
		<tag k="ssr:stedsnr" v="65860" />
		<tag k="ssr:type" v="tjern" />
	</node>
	<node lat="59.90703055202539" lon="7.006808338456047" id="-34504">
		<tag k="name" v="Slettedalen" />
		<tag k="natural" v="valley" />
		<tag k="place" v="locality" />
		<tag k="ssr:date" v="2021-06-08" />
		<tag k="ssr:gruppe" v="senkninger" />
		<tag k="ssr:hovedgruppe" v="terreng" />
		<tag k="ssr:stedsnr" v="65868" />
		<tag k="ssr:type" v="dal" />
	</node>
	<node lat="59.856358335299575" lon="7.106816674684831" id="-34505">
		<tag k="historic" v="shieling" />
		<tag k="name" v="Nupshallene" />
		<tag k="place" v="isolated_dwelling" />
		<tag k="ssr:date" v="2021-06-08" />
		<tag k="ssr:gruppe" v="gardsbebyggelse" />
		<tag k="ssr:hovedgruppe" v="bebyggelse" />
		<tag k="ssr:stedsnr" v="65870" />
		<tag k="ssr:type" v="seterStøl" />
	</node>
	<node lat="59.855980554652824" lon="7.048463885541715" id="-34506">
		<tag k="name" v="Middyrelva" />
		<tag k="ssr:date" v="2021-06-08" />
		<tag k="ssr:gruppe" v="rennendeVann" />
		<tag k="ssr:hovedgruppe" v="ferskvann" />
		<tag k="ssr:stedsnr" v="65871" />
		<tag k="ssr:type" v="bekk" />
		<tag k="waterway" v="stream" />
	</node>
	<node lat="59.849516664401754" lon="7.131699998072892" id="-34507">
		<tag k="name" v="Midtfjellsvollen" />
		<tag k="place" v="isolated_dwelling" />
		<tag k="ssr:date" v="2021-06-08" />
		<tag k="ssr:gruppe" v="bolighus" />
		<tag k="ssr:hovedgruppe" v="bebyggelse" />
		<tag k="ssr:stedsnr" v="65881" />
		<tag k="ssr:type" v="fritidsbolig" />
	</node>
	<node lat="60.31994166593299" lon="6.414691659301803" id="-34508">
		<tag k="historic" v="shieling" />
		<tag k="name" v="Vatnasete" />
		<tag k="place" v="isolated_dwelling" />
		<tag k="ssr:date" v="2019-12-27" />
		<tag k="ssr:gruppe" v="gardsbebyggelse" />
		<tag k="ssr:hovedgruppe" v="bebyggelse" />
		<tag k="ssr:stedsnr" v="66002" />
		<tag k="ssr:type" v="seterStøl" />
	</node>
	<node lat="60.32436995168642" lon="6.526557380884311" id="-34509">
		<tag k="alt_name" v="Samladalsvatnet, in" />
		<tag k="name" v="Samladalsvatnet" />
		<tag k="natural" v="water" />
		<tag k="ssr:date" v="2019-12-27" />
		<tag k="ssr:gruppe" v="stilleståendeVann" />
		<tag k="ssr:hovedgruppe" v="ferskvann" />
		<tag k="ssr:stedsnr" v="66008" />
		<tag k="ssr:type" v="vann" />
		<tag k="water" v="lake" />
	</node>
	<node lat="60.32245833481844" lon="6.484030552615383" id="-34510">
		<tag k="name" v="Djupadalen" />
		<tag k="natural" v="valley" />
		<tag k="place" v="locality" />
		<tag k="ssr:date" v="2019-12-27" />
		<tag k="ssr:gruppe" v="senkninger" />
		<tag k="ssr:hovedgruppe" v="terreng" />
		<tag k="ssr:stedsnr" v="66010" />
		<tag k="ssr:type" v="dal" />
	</node>
	<node lat="60.307744444798686" lon="6.307233330929553" id="-34511">
		<tag k="name" v="Lyingahaugen" />
		<tag k="natural" v="hill" />
		<tag k="place" v="locality" />
		<tag k="ssr:date" v="2019-12-27" />
		<tag k="ssr:gruppe" v="høyder" />
		<tag k="ssr:hovedgruppe" v="terreng" />
		<tag k="ssr:stedsnr" v="66016" />
		<tag k="ssr:type" v="haug" />
	</node>
	<node lat="60.30312499752533" lon="6.3508499987529765" id="-34512">
		<tag k="fixme" v="consider natural=peak for the most distinct mountains in the district" />
		<tag k="name" v="Gaddane" />
		<tag k="natural" v="hill" />
		<tag k="place" v="locality" />
		<tag k="ssr:date" v="2019-12-27" />
		<tag k="ssr:gruppe" v="høyder" />
		<tag k="ssr:hovedgruppe" v="terreng" />
		<tag k="ssr:stedsnr" v="66024" />
		<tag k="ssr:type" v="ås" />
	</node>
	<node lat="60.24811111167115" lon="6.204666659046083" id="-34513">
		<tag k="name" v="Saltkjelsfjøra" />
		<tag k="natural" v="bay" />
		<tag k="old_name" v="Saltkjelen" />
		<tag k="ssr:date" v="2019-12-27" />
		<tag k="ssr:gruppe" v="kystkontur" />
		<tag k="ssr:hovedgruppe" v="sjø" />
		<tag k="ssr:stedsnr" v="65754" />
		<tag k="ssr:type" v="vikISjø" />
	</node>
	<node lat="59.98520000049716" lon="7.015461111652743" id="-34514">
		<tag k="fixme" v="consider natural=peak for the most distinct mountains in the district" />
		<tag k="name" v="Middalsrusta" />
		<tag k="natural" v="hill" />
		<tag k="place" v="locality" />
		<tag k="ssr:date" v="2021-06-08" />
		<tag k="ssr:gruppe" v="høyder" />
		<tag k="ssr:hovedgruppe" v="terreng" />
		<tag k="ssr:stedsnr" v="65763" />
		<tag k="ssr:type" v="fjell" />
	</node>
	<node lat="60.13671944195151" lon="6.147425002268343" id="-34515">
		<tag k="name" v="Tømmervika" />
		<tag k="natural" v="bay" />
		<tag k="ssr:date" v="2019-12-27" />
		<tag k="ssr:gruppe" v="kystkontur" />
		<tag k="ssr:hovedgruppe" v="sjø" />
		<tag k="ssr:stedsnr" v="65902" />
		<tag k="ssr:type" v="vikISjø" />
	</node>
	<node lat="60.3038055592447" lon="6.692724990748203" id="-34516">
		<tag k="name" v="Skrikjo" />
		<tag k="ssr:date" v="2019-12-27" />
		<tag k="ssr:gruppe" v="rennendeVann" />
		<tag k="ssr:hovedgruppe" v="ferskvann" />
		<tag k="ssr:stedsnr" v="66306" />
		<tag k="ssr:type" v="bekk" />
		<tag k="waterway" v="stream" />
	</node>
	<node lat="60.40924722501804" lon="6.624366659644655" id="-34517">
		<tag k="name" v="Utnesdalen" />
		<tag k="natural" v="valley" />
		<tag k="place" v="locality" />
		<tag k="ssr:date" v="2021-06-08" />
		<tag k="ssr:gruppe" v="senkninger" />
		<tag k="ssr:hovedgruppe" v="terreng" />
		<tag k="ssr:stedsnr" v="66346" />
		<tag k="ssr:type" v="dal" />
	</node>
	<node lat="60.38066110951031" lon="6.686180547083742" id="-34518">
		<tag k="fixme" v="consider place=hamlet" />
		<tag k="name" v="Ystanes" />
		<tag k="place" v="farm" />
		<tag k="ssr:date" v="2019-12-27" />
		<tag k="ssr:gruppe" v="gardsbebyggelse" />
		<tag k="ssr:hovedgruppe" v="bebyggelse" />
		<tag k="ssr:stedsnr" v="66356" />
		<tag k="ssr:type" v="gard" />
	</node>
	<node lat="60.27046666913344" lon="6.48290832991675" id="-34519">
		<tag k="loc_name" v="Klokkaren" />
		<tag k="man_made" v="cairn" />
		<tag k="name" v="Klokkarane" />
		<tag k="place" v="locality" />
		<tag k="ssr:date" v="2019-12-27" />
		<tag k="ssr:gruppe" v="navigasjon" />
		<tag k="ssr:hovedgruppe" v="infrastruktur" />
		<tag k="ssr:stedsnr" v="66368" />
		<tag k="ssr:type" v="varde" />
	</node>
	<node lat="60.31508610822453" lon="6.392508337924787" id="-34520">
		<tag k="name" v="Orrebekken" />
		<tag k="ssr:date" v="2019-12-27" />
		<tag k="ssr:gruppe" v="rennendeVann" />
		<tag k="ssr:hovedgruppe" v="ferskvann" />
		<tag k="ssr:stedsnr" v="66047" />
		<tag k="ssr:type" v="bekk" />
		<tag k="waterway" v="stream" />
	</node>
	<node lat="60.31208055386325" lon="6.437477778557312" id="-34521">
		<tag k="name" v="Torsteinskorfjellet" />
		<tag k="natural" v="hill" />
		<tag k="place" v="locality" />
		<tag k="ssr:date" v="2019-12-27" />
		<tag k="ssr:gruppe" v="høyder" />
		<tag k="ssr:hovedgruppe" v="terreng" />
		<tag k="ssr:stedsnr" v="66051" />
		<tag k="ssr:type" v="berg" />
	</node>
	<node lat="60.340421390672134" lon="6.377954552929504" id="-34522">
		<tag k="fixme" v="consider place=hamlet" />
		<tag k="name" v="Vik" />
		<tag k="place" v="farm" />
		<tag k="ssr:date" v="2019-12-27" />
		<tag k="ssr:gruppe" v="gardsbebyggelse" />
		<tag k="ssr:hovedgruppe" v="bebyggelse" />
		<tag k="ssr:stedsnr" v="66099" />
		<tag k="ssr:type" v="gard" />
	</node>
	<node lat="60.37248610946876" lon="6.957505559052251" id="-34523">
		<tag k="name" v="Dyrafonn" />
		<tag k="natural" v="glacier" />
		<tag k="ssr:date" v="2019-12-27" />
		<tag k="ssr:gruppe" v="isOgPermafrost" />
		<tag k="ssr:hovedgruppe" v="markslag" />
		<tag k="ssr:stedsnr" v="66251" />
		<tag k="ssr:type" v="isbre" />
	</node>
	<node lat="60.36239767670912" lon="6.709215139430665" id="-34524">
		<tag k="historic" v="shieling" />
		<tag k="name" v="Heng" />
		<tag k="place" v="isolated_dwelling" />
		<tag k="ssr:date" v="2019-12-27" />
		<tag k="ssr:gruppe" v="gardsbebyggelse" />
		<tag k="ssr:hovedgruppe" v="bebyggelse" />
		<tag k="ssr:stedsnr" v="66256" />
		<tag k="ssr:type" v="seterStøl" />
	</node>
	<node lat="60.31030111340467" lon="6.599789455915852" id="-34525">
		<tag k="fixme" v="multiple name tags, choose one and add the other to alt_name" />
		<tag k="historic" v="shieling" />
		<tag k="name" v="Hudnasete;Stølen" />
		<tag k="place" v="isolated_dwelling" />
		<tag k="ssr:date" v="2019-12-27" />
		<tag k="ssr:gruppe" v="gardsbebyggelse" />
		<tag k="ssr:hovedgruppe" v="bebyggelse" />
		<tag k="ssr:stedsnr" v="66296" />
		<tag k="ssr:type" v="seterStøl" />
	</node>
	<node lat="60.323494605103534" lon="6.812745680416588" id="-34526">
		<tag k="name" v="Rjuvavatnet" />
		<tag k="natural" v="water" />
		<tag k="ssr:date" v="2021-06-08" />
		<tag k="ssr:gruppe" v="stilleståendeVann" />
		<tag k="ssr:hovedgruppe" v="ferskvann" />
		<tag k="ssr:stedsnr" v="66297" />
		<tag k="ssr:type" v="vann" />
		<tag k="water" v="lake" />
	</node>
	<node lat="60.299530557636146" lon="6.6024888955322165" id="-34527">
		<tag k="fixme" v="consider place=hamlet" />
		<tag k="name" v="Aga" />
		<tag k="place" v="village" />
		<tag k="ssr:date" v="2019-12-27" />
		<tag k="ssr:gruppe" v="bebyggelsesområder" />
		<tag k="ssr:hovedgruppe" v="bebyggelse" />
		<tag k="ssr:stedsnr" v="66299" />
		<tag k="ssr:type" v="bygdelagBygd" />
	</node>
	<node lat="60.29590000283307" lon="6.332444443245577" id="-34528">
		<tag k="fixme" v="consider natural=peak for the most distinct mountains in the district" />
		<tag k="name" v="Hædna" />
		<tag k="natural" v="hill" />
		<tag k="place" v="locality" />
		<tag k="ssr:date" v="2019-12-27" />
		<tag k="ssr:gruppe" v="høyder" />
		<tag k="ssr:hovedgruppe" v="terreng" />
		<tag k="ssr:stedsnr" v="66416" />
		<tag k="ssr:type" v="ås" />
	</node>
	<node lat="60.27394444660279" lon="7.20841389204505" id="-34529">
		<tag k="name" v="Rjupehaug" />
		<tag k="natural" v="hill" />
		<tag k="place" v="locality" />
		<tag k="ssr:date" v="2021-06-08" />
		<tag k="ssr:gruppe" v="høyder" />
		<tag k="ssr:hovedgruppe" v="terreng" />
		<tag k="ssr:stedsnr" v="66594" />
		<tag k="ssr:type" v="haug" />
	</node>
	<node lat="60.226061112226894" lon="6.194441660854352" id="-34530">
		<tag k="name" v="Hamnen" />
		<tag k="natural" v="bay" />
		<tag k="ssr:date" v="2019-12-27" />
		<tag k="ssr:gruppe" v="kystkontur" />
		<tag k="ssr:hovedgruppe" v="sjø" />
		<tag k="ssr:stedsnr" v="66709" />
		<tag k="ssr:type" v="vikISjø" />
	</node>
	<node lat="60.290738889311775" lon="6.900730558994632" id="-34531">
		<tag k="name" v="Rekadalen" />
		<tag k="natural" v="valley" />
		<tag k="place" v="locality" />
		<tag k="ssr:date" v="2021-06-08" />
		<tag k="ssr:gruppe" v="senkninger" />
		<tag k="ssr:hovedgruppe" v="terreng" />
		<tag k="ssr:stedsnr" v="66670" />
		<tag k="ssr:type" v="dal" />
	</node>
	<node lat="60.420691663099106" lon="6.876588890518857" id="-34532">
		<tag k="name" v="Skoddadalen" />
		<tag k="natural" v="valley" />
		<tag k="place" v="locality" />
		<tag k="ssr:date" v="2019-12-27" />
		<tag k="ssr:gruppe" v="senkninger" />
		<tag k="ssr:hovedgruppe" v="terreng" />
		<tag k="ssr:stedsnr" v="67606" />
		<tag k="ssr:type" v="dal" />
	</node>
	<node lat="60.114456031340374" lon="6.559408016732408" id="-34533">
		<tag k="alt_name" v="Tyssedalstveit" />
		<tag k="fixme" v="consider place=hamlet" />
		<tag k="name" v="Tyssedalstveiti" />
		<tag k="place" v="farm" />
		<tag k="ssr:date" v="2019-12-27" />
		<tag k="ssr:gruppe" v="gardsbebyggelse" />
		<tag k="ssr:hovedgruppe" v="bebyggelse" />
		<tag k="ssr:stedsnr" v="242737" />
		<tag k="ssr:type" v="gard" />
	</node>
	<node lat="59.97114999866057" lon="6.717994444030287" id="-34534">
		<tag k="loc_name" v="Storetjørna;Storatjørn" />
		<tag k="name" v="Storetjørni" />
		<tag k="natural" v="water" />
		<tag k="ssr:date" v="2021-06-08" />
		<tag k="ssr:gruppe" v="stilleståendeVann" />
		<tag k="ssr:hovedgruppe" v="ferskvann" />
		<tag k="ssr:stedsnr" v="81523" />
		<tag k="ssr:type" v="tjern" />
	</node>
	<node lat="60.348738885885425" lon="6.7432583376263135" id="-34535">
		<tag k="fixme" v="consider natural=peak for the most distinct mountains in the district" />
		<tag k="name" v="Tveitafjellet" />
		<tag k="natural" v="hill" />
		<tag k="place" v="locality" />
		<tag k="ssr:date" v="2021-06-08" />
		<tag k="ssr:gruppe" v="høyder" />
		<tag k="ssr:hovedgruppe" v="terreng" />
		<tag k="ssr:stedsnr" v="82194" />
		<tag k="ssr:type" v="fjell" />
	</node>
	<node lat="60.098841494568326" lon="6.514136168515893" id="-34536">
		<tag k="name" v="Eitrheim" />
		<tag k="place" v="farm" />
		<tag k="ssr:date" v="2021-06-08" />
		<tag k="ssr:gruppe" v="gardsbebyggelse" />
		<tag k="ssr:hovedgruppe" v="bebyggelse" />
		<tag k="ssr:stedsnr" v="82615" />
		<tag k="ssr:type" v="bruk" />
	</node>
	<node lat="60.22739166563695" lon="7.0739527741839465" id="-34537">
		<tag k="name" v="Grøndalen" />
		<tag k="natural" v="valley" />
		<tag k="place" v="locality" />
		<tag k="ssr:date" v="2021-06-08" />
		<tag k="ssr:gruppe" v="senkninger" />
		<tag k="ssr:hovedgruppe" v="terreng" />
		<tag k="ssr:stedsnr" v="82946" />
		<tag k="ssr:type" v="dal" />
	</node>
	<node lat="60.388802781277384" lon="6.717072219145418" id="-34538">
		<tag k="name" v="Flugebakken" />
		<tag k="natural" v="slope" />
		<tag k="place" v="locality" />
		<tag k="ssr:date" v="2021-06-08" />
		<tag k="ssr:gruppe" v="skråninger" />
		<tag k="ssr:hovedgruppe" v="terreng" />
		<tag k="ssr:stedsnr" v="83182" />
		<tag k="ssr:type" v="li" />
	</node>
	<node lat="60.09894999981634" lon="7.487983339709965" id="-34539">
		<tag k="name" v="Hardangervidda" />
		<tag k="natural" v="plateau" />
		<tag k="ssr:date" v="2020-06-03" />
		<tag k="ssr:gruppe" v="terrengområder" />
		<tag k="ssr:hovedgruppe" v="terreng" />
		<tag k="ssr:stedsnr" v="85109" />
		<tag k="ssr:type" v="vidde" />
	</node>
	<node lat="59.88046944456446" lon="6.66123610299609" id="-34540">
		<tag k="leisure" v="pitch" />
		<tag k="name" v="Korlevoll skistadion" />
		<tag k="ssr:date" v="2019-12-27" />
		<tag k="ssr:gruppe" v="fritidsanlegg" />
		<tag k="ssr:hovedgruppe" v="bebyggelse" />
		<tag k="ssr:stedsnr" v="85185" />
		<tag k="ssr:type" v="idrettsanlegg" />
	</node>
	<node lat="60.006747221513514" lon="6.60293889612155" id="-34541">
		<tag k="fixme" v="consider natural=peak for the most distinct mountains in the district" />
		<tag k="name" v="Rundenuten" />
		<tag k="natural" v="hill" />
		<tag k="place" v="locality" />
		<tag k="ssr:date" v="2019-12-27" />
		<tag k="ssr:gruppe" v="høyder" />
		<tag k="ssr:hovedgruppe" v="terreng" />
		<tag k="ssr:stedsnr" v="85512" />
		<tag k="ssr:type" v="topp" />
	</node>
	<node lat="59.930663891053605" lon="6.669405561341681" id="-34542">
		<tag k="name" v="Sandabekken" />
		<tag k="ssr:date" v="2021-06-08" />
		<tag k="ssr:gruppe" v="rennendeVann" />
		<tag k="ssr:hovedgruppe" v="ferskvann" />
		<tag k="ssr:stedsnr" v="246174" />
		<tag k="ssr:type" v="bekk" />
		<tag k="waterway" v="stream" />
	</node>
	<node lat="59.69925997381087" lon="6.759035901043074" id="-34543">
		<tag k="fixme" v="consider natural=peak for the most distinct mountains in the district" />
		<tag k="loc_name" v="Marknut" />
		<tag k="name" v="Martnuten" />
		<tag k="natural" v="hill" />
		<tag k="place" v="locality" />
		<tag k="ssr:date" v="2021-06-08" />
		<tag k="ssr:gruppe" v="høyder" />
		<tag k="ssr:hovedgruppe" v="terreng" />
		<tag k="ssr:stedsnr" v="246199" />
		<tag k="ssr:type" v="topp" />
	</node>
	<node lat="59.71915555741523" lon="6.760580553442619" id="-34544">
		<tag k="historic" v="shieling" />
		<tag k="name" v="Dalastølen" />
		<tag k="place" v="isolated_dwelling" />
		<tag k="ssr:date" v="2021-06-08" />
		<tag k="ssr:gruppe" v="gardsbebyggelse" />
		<tag k="ssr:hovedgruppe" v="bebyggelse" />
		<tag k="ssr:stedsnr" v="246241" />
		<tag k="ssr:type" v="seterStøl" />
	</node>
	<node lat="59.977061482764235" lon="6.518373161687521" id="-34545">
		<tag k="name" v="Vierdalsloni" />
		<tag k="natural" v="water" />
		<tag k="ssr:date" v="2019-12-27" />
		<tag k="ssr:gruppe" v="stilleståendeVann" />
		<tag k="ssr:hovedgruppe" v="ferskvann" />
		<tag k="ssr:stedsnr" v="246397" />
		<tag k="ssr:type" v="tjern" />
	</node>
	<node lat="59.96503888944432" lon="6.534136110889158" id="-34546">
		<tag k="name" v="Andaretjørn" />
		<tag k="natural" v="water" />
		<tag k="ssr:date" v="2019-12-27" />
		<tag k="ssr:gruppe" v="stilleståendeVann" />
		<tag k="ssr:hovedgruppe" v="ferskvann" />
		<tag k="ssr:stedsnr" v="246399" />
		<tag k="ssr:type" v="tjern" />
	</node>
	<node lat="59.96930282205591" lon="6.540170169916354" id="-34547">
		<tag k="name" v="Leitetjørn" />
		<tag k="natural" v="water" />
		<tag k="ssr:date" v="2019-12-27" />
		<tag k="ssr:gruppe" v="stilleståendeVann" />
		<tag k="ssr:hovedgruppe" v="ferskvann" />
		<tag k="ssr:stedsnr" v="246400" />
		<tag k="ssr:type" v="tjern" />
	</node>
	<node lat="59.81148055508373" lon="6.809225003335233" id="-34548">
		<tag k="name" v="Kvile" />
		<tag k="place" v="farm" />
		<tag k="ssr:date" v="2021-06-08" />
		<tag k="ssr:gruppe" v="gardsbebyggelse" />
		<tag k="ssr:hovedgruppe" v="bebyggelse" />
		<tag k="ssr:stedsnr" v="246761" />
		<tag k="ssr:type" v="bruk" />
	</node>
	<node lat="59.8106836721521" lon="6.901237941080645" id="-34549">
		<tag k="name" v="Austmannatjørna" />
		<tag k="natural" v="water" />
		<tag k="ssr:date" v="2021-06-08" />
		<tag k="ssr:gruppe" v="stilleståendeVann" />
		<tag k="ssr:hovedgruppe" v="ferskvann" />
		<tag k="ssr:stedsnr" v="246764" />
		<tag k="ssr:type" v="tjern" />
	</node>
	<node lat="59.798750002002784" lon="6.771408339439292" id="-34550">
		<tag k="name" v="Vikanes" />
		<tag k="natural" v="cape" />
		<tag k="ssr:date" v="2021-06-08" />
		<tag k="ssr:gruppe" v="ferskvannskontur" />
		<tag k="ssr:hovedgruppe" v="ferskvann" />
		<tag k="ssr:stedsnr" v="246755" />
		<tag k="ssr:type" v="nes" />
	</node>
	<node lat="59.81318333079088" lon="6.810575006337975" id="-34551">
		<tag k="name" v="Tveita" />
		<tag k="place" v="farm" />
		<tag k="ssr:date" v="2021-06-08" />
		<tag k="ssr:gruppe" v="gardsbebyggelse" />
		<tag k="ssr:hovedgruppe" v="bebyggelse" />
		<tag k="ssr:stedsnr" v="246760" />
		<tag k="ssr:type" v="bruk" />
	</node>
	<node lat="59.99324444124162" lon="6.6196722239802375" id="-34552">
		<tag k="name" v="Hildalsdalen" />
		<tag k="natural" v="valley" />
		<tag k="place" v="locality" />
		<tag k="ssr:date" v="2021-06-08" />
		<tag k="ssr:gruppe" v="senkninger" />
		<tag k="ssr:hovedgruppe" v="terreng" />
		<tag k="ssr:stedsnr" v="247089" />
		<tag k="ssr:type" v="dal" />
	</node>
	<node lat="59.96454444653129" lon="6.68950833540715" id="-34553">
		<tag k="fixme" v="consider natural=peak for the most distinct mountains in the district" />
		<tag k="name" v="Halsen" />
		<tag k="natural" v="hill" />
		<tag k="place" v="locality" />
		<tag k="ssr:date" v="2021-06-08" />
		<tag k="ssr:gruppe" v="høyder" />
		<tag k="ssr:hovedgruppe" v="terreng" />
		<tag k="ssr:stedsnr" v="247154" />
		<tag k="ssr:type" v="ås" />
	</node>
	<node lat="59.96144166806172" lon="6.672994449365016" id="-34554">
		<tag k="historic" v="shieling" />
		<tag k="name" v="Fisketjørnstølen" />
		<tag k="place" v="isolated_dwelling" />
		<tag k="ssr:date" v="2021-06-08" />
		<tag k="ssr:gruppe" v="gardsbebyggelse" />
		<tag k="ssr:hovedgruppe" v="bebyggelse" />
		<tag k="ssr:stedsnr" v="247156" />
		<tag k="ssr:type" v="seterStøl" />
	</node>
	<node lat="60.12782499859268" lon="6.579849997709778" id="-34555">
		<tag k="alt_name" v="Tyssenuten" />
		<tag k="fixme" v="consider natural=peak for the most distinct mountains in the district" />
		<tag k="name" v="Tyssedalsnuten" />
		<tag k="natural" v="hill" />
		<tag k="place" v="locality" />
		<tag k="ssr:date" v="2019-12-27" />
		<tag k="ssr:gruppe" v="høyder" />
		<tag k="ssr:hovedgruppe" v="terreng" />
		<tag k="ssr:stedsnr" v="247157" />
		<tag k="ssr:type" v="fjell" />
	</node>
	<node lat="60.140272218129326" lon="6.528030553256145" id="-34556">
		<tag k="name" v="Litleli" />
		<tag k="natural" v="slope" />
		<tag k="place" v="locality" />
		<tag k="ssr:date" v="2019-12-27" />
		<tag k="ssr:gruppe" v="skråninger" />
		<tag k="ssr:hovedgruppe" v="terreng" />
		<tag k="ssr:stedsnr" v="247163" />
		<tag k="ssr:type" v="li" />
	</node>
	<node lat="60.14033610690335" lon="6.59011388025484" id="-34557">
		<tag k="fixme" v="consider natural=peak for the most distinct mountains in the district" />
		<tag k="name" v="Reinatinden" />
		<tag k="natural" v="hill" />
		<tag k="place" v="locality" />
		<tag k="ssr:date" v="2019-12-27" />
		<tag k="ssr:gruppe" v="høyder" />
		<tag k="ssr:hovedgruppe" v="terreng" />
		<tag k="ssr:stedsnr" v="247168" />
		<tag k="ssr:type" v="ås" />
	</node>
	<node lat="60.14988055682052" lon="6.529866658130286" id="-34558">
		<tag k="name" v="Skyrfosselvi" />
		<tag k="ssr:date" v="2019-12-27" />
		<tag k="ssr:gruppe" v="rennendeVann" />
		<tag k="ssr:hovedgruppe" v="ferskvann" />
		<tag k="ssr:stedsnr" v="247172" />
		<tag k="ssr:type" v="bekk" />
		<tag k="waterway" v="stream" />
	</node>
	<node lat="60.14487777553048" lon="6.52079999469601" id="-34559">
		<tag k="name" v="Turtnagili" />
		<tag k="natural" v="valley" />
		<tag k="place" v="locality" />
		<tag k="ssr:date" v="2019-12-27" />
		<tag k="ssr:gruppe" v="senkninger" />
		<tag k="ssr:hovedgruppe" v="terreng" />
		<tag k="ssr:stedsnr" v="247173" />
		<tag k="ssr:type" v="skar" />
	</node>
	<node lat="59.85343888933976" lon="6.830319440365133" id="-34560">
		<tag k="historic" v="shieling" />
		<tag k="name" v="Austdalen" />
		<tag k="place" v="isolated_dwelling" />
		<tag k="ssr:date" v="2021-06-08" />
		<tag k="ssr:gruppe" v="gardsbebyggelse" />
		<tag k="ssr:hovedgruppe" v="bebyggelse" />
		<tag k="ssr:stedsnr" v="247188" />
		<tag k="ssr:type" v="seterStøl" />
	</node>
	<node lat="60.15516666739083" lon="6.572449993648376" id="-34561">
		<tag k="name" v="Teigen" />
		<tag k="place" v="farm" />
		<tag k="ssr:date" v="2019-12-27" />
		<tag k="ssr:gruppe" v="gardsbebyggelse" />
		<tag k="ssr:hovedgruppe" v="bebyggelse" />
		<tag k="ssr:stedsnr" v="247193" />
		<tag k="ssr:type" v="bruk" />
	</node>
	<node lat="59.86386666826844" lon="6.868652781932691" id="-34562">
		<tag k="historic" v="shieling" />
		<tag k="name" v="Bråstølflota" />
		<tag k="place" v="isolated_dwelling" />
		<tag k="ssr:date" v="2021-06-08" />
		<tag k="ssr:gruppe" v="gardsbebyggelse" />
		<tag k="ssr:hovedgruppe" v="bebyggelse" />
		<tag k="ssr:stedsnr" v="247206" />
		<tag k="ssr:type" v="seterStøl" />
	</node>
	<node lat="59.866188890606104" lon="6.778774992457459" id="-34563">
		<tag k="fixme" v="consider natural=peak for the most distinct mountains in the district" />
		<tag k="name" v="Grøndalsnuten" />
		<tag k="natural" v="hill" />
		<tag k="place" v="locality" />
		<tag k="ssr:date" v="2021-06-08" />
		<tag k="ssr:gruppe" v="høyder" />
		<tag k="ssr:hovedgruppe" v="terreng" />
		<tag k="ssr:stedsnr" v="247208" />
		<tag k="ssr:type" v="ås" />
	</node>
	<node lat="59.856124998071856" lon="6.664388880944674" id="-34564">
		<tag k="fixme" v="consider natural=peak for the most distinct mountains in the district" />
		<tag k="name" v="Histeinsnuten" />
		<tag k="natural" v="hill" />
		<tag k="place" v="locality" />
		<tag k="ssr:date" v="2021-06-08" />
		<tag k="ssr:gruppe" v="høyder" />
		<tag k="ssr:hovedgruppe" v="terreng" />
		<tag k="ssr:stedsnr" v="247213" />
		<tag k="ssr:type" v="fjell" />
	</node>
	<node lat="60.17769999995438" lon="6.576575007734982" id="-34565">
		<tag k="alt_name" v="Moshamar" />
		<tag k="name" v="Moshammarneset" />
		<tag k="natural" v="cape" />
		<tag k="ssr:date" v="2019-12-27" />
		<tag k="ssr:gruppe" v="kystkontur" />
		<tag k="ssr:hovedgruppe" v="sjø" />
		<tag k="ssr:stedsnr" v="247219" />
		<tag k="ssr:type" v="nesISjø" />
	</node>
	<node lat="59.83489166501982" lon="6.612977774771972" id="-34566">
		<tag k="name" v="Steinatjørnane" />
		<tag k="natural" v="water" />
		<tag k="ssr:date" v="2021-06-08" />
		<tag k="ssr:gruppe" v="stilleståendeVann" />
		<tag k="ssr:hovedgruppe" v="ferskvann" />
		<tag k="ssr:stedsnr" v="247226" />
		<tag k="ssr:type" v="gruppeAvTjern" />
		<tag k="water" v="lake" />
	</node>
	<node lat="60.18286111216554" lon="6.551827784123722" id="-34567">
		<tag k="name" v="Eikhamrane" />
		<tag k="place" v="farm" />
		<tag k="ssr:date" v="2019-12-27" />
		<tag k="ssr:gruppe" v="gardsbebyggelse" />
		<tag k="ssr:hovedgruppe" v="bebyggelse" />
		<tag k="ssr:stedsnr" v="247231" />
		<tag k="ssr:type" v="bruk" />
	</node>
	<node lat="60.06204721815941" lon="7.257444439207551" id="-34568">
		<tag k="fixme" v="consider natural=peak for the most distinct mountains in the district" />
		<tag k="name" v="Tua" />
		<tag k="natural" v="hill" />
		<tag k="place" v="locality" />
		<tag k="ssr:date" v="2021-06-08" />
		<tag k="ssr:gruppe" v="høyder" />
		<tag k="ssr:hovedgruppe" v="terreng" />
		<tag k="ssr:stedsnr" v="247242" />
		<tag k="ssr:type" v="ås" />
	</node>
	<node lat="60.02023888735111" lon="7.022244445628531" id="-34569">
		<tag k="name" v="Tyristein" />
		<tag k="place" v="locality" />
		<tag k="ssr:date" v="2019-12-27" />
		<tag k="ssr:gruppe" v="gardsbebyggelse" />
		<tag k="ssr:hovedgruppe" v="bebyggelse" />
		<tag k="ssr:stedsnr" v="247253" />
		<tag k="ssr:type" v="eiendom" />
	</node>
	<node lat="60.184452777004516" lon="6.981972220149486" id="-34570">
		<tag k="name" v="Stora Kinso" />
		<tag k="ssr:date" v="2021-06-08" />
		<tag k="ssr:gruppe" v="rennendeVann" />
		<tag k="ssr:hovedgruppe" v="ferskvann" />
		<tag k="ssr:stedsnr" v="247295" />
		<tag k="ssr:type" v="elv" />
		<tag k="waterway" v="river" />
	</node>
	<node lat="60.21579999971173" lon="7.127936104791847" id="-34571">
		<tag k="fixme" v="consider natural=peak for the most distinct mountains in the district" />
		<tag k="name" v="Smørstamp" />
		<tag k="natural" v="hill" />
		<tag k="place" v="locality" />
		<tag k="ssr:date" v="2019-12-27" />
		<tag k="ssr:gruppe" v="høyder" />
		<tag k="ssr:hovedgruppe" v="terreng" />
		<tag k="ssr:stedsnr" v="247300" />
		<tag k="ssr:type" v="ås" />
	</node>
	<node lat="60.04054166400539" lon="6.899902776561318" id="-34572">
		<tag k="name" v="Finahalli" />
		<tag k="natural" v="slope" />
		<tag k="place" v="locality" />
		<tag k="ssr:date" v="2021-06-08" />
		<tag k="ssr:gruppe" v="skråninger" />
		<tag k="ssr:hovedgruppe" v="terreng" />
		<tag k="ssr:stedsnr" v="247385" />
		<tag k="ssr:type" v="li" />
	</node>
	<node lat="60.035219446278354" lon="6.633494436146828" id="-34573">
		<tag k="name" v="Sjauseteskaret" />
		<tag k="natural" v="valley" />
		<tag k="place" v="locality" />
		<tag k="ssr:date" v="2019-12-27" />
		<tag k="ssr:gruppe" v="senkninger" />
		<tag k="ssr:hovedgruppe" v="terreng" />
		<tag k="ssr:stedsnr" v="247387" />
		<tag k="ssr:type" v="skar" />
	</node>
	<node lat="60.130863893022216" lon="6.743130555705196" id="-34574">
		<tag k="name" v="Tysso" />
		<tag k="ssr:date" v="2019-12-27" />
		<tag k="ssr:gruppe" v="rennendeVann" />
		<tag k="ssr:hovedgruppe" v="ferskvann" />
		<tag k="ssr:stedsnr" v="247398" />
		<tag k="ssr:type" v="elv" />
		<tag k="waterway" v="river" />
	</node>
	<node lat="60.41936666544408" lon="6.801074997173789" id="-34575">
		<tag k="name" v="Fagradal" />
		<tag k="natural" v="valley" />
		<tag k="place" v="locality" />
		<tag k="ssr:date" v="2019-12-27" />
		<tag k="ssr:gruppe" v="senkninger" />
		<tag k="ssr:hovedgruppe" v="terreng" />
		<tag k="ssr:stedsnr" v="248333" />
		<tag k="ssr:type" v="dal" />
	</node>
	<node lat="60.40428480582494" lon="6.823054950983371" id="-34576">
		<tag k="name" v="Steintjørnane" />
		<tag k="natural" v="water" />
		<tag k="ssr:date" v="2021-06-08" />
		<tag k="ssr:gruppe" v="stilleståendeVann" />
		<tag k="ssr:hovedgruppe" v="ferskvann" />
		<tag k="ssr:stedsnr" v="248338" />
		<tag k="ssr:type" v="gruppeAvTjern" />
		<tag k="water" v="lake" />
	</node>
	<node lat="60.41308888854654" lon="6.859363882512494" id="-34577">
		<tag k="fixme" v="consider natural=peak for the most distinct mountains in the district" />
		<tag k="name" v="Storeflåtten" />
		<tag k="natural" v="hill" />
		<tag k="place" v="locality" />
		<tag k="ssr:date" v="2021-06-08" />
		<tag k="ssr:gruppe" v="høyder" />
		<tag k="ssr:hovedgruppe" v="terreng" />
		<tag k="ssr:stedsnr" v="248341" />
		<tag k="ssr:type" v="topp" />
	</node>
	<node lat="60.40626944767363" lon="6.740852778698605" id="-34578">
		<tag k="alt_name" v="Maurelvi" />
		<tag k="name" v="Mauro" />
		<tag k="ssr:date" v="2019-12-27" />
		<tag k="ssr:gruppe" v="rennendeVann" />
		<tag k="ssr:hovedgruppe" v="ferskvann" />
		<tag k="ssr:stedsnr" v="248343" />
		<tag k="ssr:type" v="bekk" />
		<tag k="waterway" v="stream" />
	</node>
	<node lat="60.09618888610598" lon="6.54881944066901" id="-34579">
		<tag k="name" v="Slevebekken" />
		<tag k="ssr:date" v="2019-12-27" />
		<tag k="ssr:gruppe" v="rennendeVann" />
		<tag k="ssr:hovedgruppe" v="ferskvann" />
		<tag k="ssr:stedsnr" v="247092" />
		<tag k="ssr:type" v="bekk" />
		<tag k="waterway" v="stream" />
	</node>
	<node lat="60.23770555309398" lon="6.971594450127121" id="-34580">
		<tag k="name" v="Kinsevatnet" />
		<tag k="natural" v="water" />
		<tag k="ssr:date" v="2019-12-27" />
		<tag k="ssr:gruppe" v="stilleståendeVann" />
		<tag k="ssr:hovedgruppe" v="ferskvann" />
		<tag k="ssr:stedsnr" v="247327" />
		<tag k="ssr:type" v="vann" />
		<tag k="water" v="lake" />
	</node>
	<node lat="60.030408335676434" lon="6.802622218395163" id="-34581">
		<tag k="name" v="Nordra Blåvatnet" />
		<tag k="natural" v="water" />
		<tag k="ssr:date" v="2021-06-08" />
		<tag k="ssr:gruppe" v="stilleståendeVann" />
		<tag k="ssr:hovedgruppe" v="ferskvann" />
		<tag k="ssr:stedsnr" v="247336" />
		<tag k="ssr:type" v="vann" />
		<tag k="water" v="lake" />
	</node>
	<node lat="60.02252222126806" lon="6.884661112277923" id="-34582">
		<tag k="name" v="Svartenutskori" />
		<tag k="natural" v="ridge" />
		<tag k="place" v="locality" />
		<tag k="ssr:date" v="2021-06-08" />
		<tag k="ssr:gruppe" v="høyder" />
		<tag k="ssr:hovedgruppe" v="terreng" />
		<tag k="ssr:stedsnr" v="247338" />
		<tag k="ssr:type" v="rygg" />
	</node>
	<node lat="60.148933336087026" lon="6.670366670288737" id="-34583">
		<tag k="name" v="Trombeskar" />
		<tag k="natural" v="valley" />
		<tag k="place" v="locality" />
		<tag k="ssr:date" v="2021-06-08" />
		<tag k="ssr:gruppe" v="senkninger" />
		<tag k="ssr:hovedgruppe" v="terreng" />
		<tag k="ssr:stedsnr" v="247434" />
		<tag k="ssr:type" v="skar" />
	</node>
	<node lat="60.13650728317609" lon="6.75398207125006" id="-34584">
		<tag k="name" v="Tyssestrengene" />
		<tag k="natural" v="waterfall" />
		<tag k="ssr:date" v="2020-05-26" />
		<tag k="ssr:gruppe" v="rennendeVann" />
		<tag k="ssr:hovedgruppe" v="ferskvann" />
		<tag k="ssr:stedsnr" v="247443" />
		<tag k="ssr:type" v="foss" />
	</node>
	<node lat="60.236419447297514" lon="6.92801667103248" id="-34585">
		<tag k="historic" v="shieling" />
		<tag k="name" v="Langhellefiti" />
		<tag k="place" v="isolated_dwelling" />
		<tag k="ssr:date" v="2021-06-08" />
		<tag k="ssr:gruppe" v="gardsbebyggelse" />
		<tag k="ssr:hovedgruppe" v="bebyggelse" />
		<tag k="ssr:stedsnr" v="247446" />
		<tag k="ssr:type" v="seterStøl" />
	</node>
	<node lat="60.22068610997058" lon="6.82250556443917" id="-34586">
		<tag k="loc_name" v="Grjothaugen" />
		<tag k="name" v="Grothaugen" />
		<tag k="natural" v="hill" />
		<tag k="place" v="locality" />
		<tag k="ssr:date" v="2019-12-27" />
		<tag k="ssr:gruppe" v="høyder" />
		<tag k="ssr:hovedgruppe" v="terreng" />
		<tag k="ssr:stedsnr" v="247451" />
		<tag k="ssr:type" v="haug" />
	</node>
	<node lat="60.20910277985421" lon="6.619963891270428" id="-34587">
		<tag k="alt_name" v="Skreda" />
		<tag k="name" v="Skredo" />
		<tag k="ssr:date" v="2019-12-27" />
		<tag k="ssr:gruppe" v="rennendeVann" />
		<tag k="ssr:hovedgruppe" v="ferskvann" />
		<tag k="ssr:stedsnr" v="247453" />
		<tag k="ssr:type" v="bekk" />
		<tag k="waterway" v="stream" />
	</node>
	<node lat="60.16883888467914" lon="6.152769445411313" id="-34588">
		<tag k="historic" v="shieling" />
		<tag k="name" v="Heimasætret" />
		<tag k="place" v="isolated_dwelling" />
		<tag k="ssr:date" v="2019-12-27" />
		<tag k="ssr:gruppe" v="gardsbebyggelse" />
		<tag k="ssr:hovedgruppe" v="bebyggelse" />
		<tag k="ssr:stedsnr" v="247541" />
		<tag k="ssr:type" v="seterStøl" />
	</node>
	<node lat="60.15525277870345" lon="6.170327785789327" id="-34590">
		<tag k="fixme" v="consider natural=peak for the most distinct mountains in the district" />
		<tag k="name" v="Saualifjell" />
		<tag k="natural" v="hill" />
		<tag k="place" v="locality" />
		<tag k="ssr:date" v="2019-12-27" />
		<tag k="ssr:gruppe" v="høyder" />
		<tag k="ssr:hovedgruppe" v="terreng" />
		<tag k="ssr:stedsnr" v="247594" />
		<tag k="ssr:type" v="ås" />
	</node>
	<node lat="60.090125004323696" lon="7.3601277764689" id="-34591">
		<tag k="fixme" v="consider natural=peak for the most distinct mountains in the district" />
		<tag k="name" v="Krokavassekslene" />
		<tag k="natural" v="hill" />
		<tag k="place" v="locality" />
		<tag k="ssr:date" v="2019-12-27" />
		<tag k="ssr:gruppe" v="høyder" />
		<tag k="ssr:hovedgruppe" v="terreng" />
		<tag k="ssr:stedsnr" v="247719" />
		<tag k="ssr:type" v="ås" />
	</node>
	<node lat="60.23701388856771" lon="6.203894436102223" id="-34592">
		<tag k="name" v="Torsneselva" />
		<tag k="ssr:date" v="2019-12-27" />
		<tag k="ssr:gruppe" v="rennendeVann" />
		<tag k="ssr:hovedgruppe" v="ferskvann" />
		<tag k="ssr:stedsnr" v="247721" />
		<tag k="ssr:type" v="bekk" />
		<tag k="waterway" v="stream" />
	</node>
	<node lat="60.238903019348975" lon="6.234349831378538" id="-34593">
		<tag k="name" v="Vassvikane" />
		<tag k="natural" v="bay" />
		<tag k="ssr:date" v="2019-12-27" />
		<tag k="ssr:gruppe" v="ferskvannskontur" />
		<tag k="ssr:hovedgruppe" v="ferskvann" />
		<tag k="ssr:stedsnr" v="247781" />
		<tag k="ssr:type" v="vik" />
	</node>
	<node lat="59.75316389252621" lon="6.795441663474528" id="-34594">
		<tag k="fixme" v="consider place=hamlet" />
		<tag k="name" v="Botnen" />
		<tag k="place" v="village" />
		<tag k="ssr:date" v="2019-12-27" />
		<tag k="ssr:gruppe" v="bebyggelsesområder" />
		<tag k="ssr:hovedgruppe" v="bebyggelse" />
		<tag k="ssr:stedsnr" v="247752" />
		<tag k="ssr:type" v="bygdelagBygd" />
	</node>
	<node lat="60.22938611054433" lon="6.220949994780108" id="-34595">
		<tag k="name" v="Halvgjengesbekkene" />
		<tag k="ssr:date" v="2019-12-27" />
		<tag k="ssr:gruppe" v="rennendeVann" />
		<tag k="ssr:hovedgruppe" v="ferskvann" />
		<tag k="ssr:stedsnr" v="247793" />
		<tag k="ssr:type" v="bekk" />
		<tag k="waterway" v="stream" />
	</node>
	<node lat="60.249034807056596" lon="6.552070487600219" id="-34596">
		<tag k="fixme" v="consider place=hamlet" />
		<tag k="name" v="Reisete" />
		<tag k="place" v="farm" />
		<tag k="ssr:date" v="2021-06-08" />
		<tag k="ssr:gruppe" v="gardsbebyggelse" />
		<tag k="ssr:hovedgruppe" v="bebyggelse" />
		<tag k="ssr:stedsnr" v="247795" />
		<tag k="ssr:type" v="gard" />
	</node>
	<node lat="60.132425001493026" lon="6.170108330894042" id="-34597">
		<tag k="name" v="Hessvikelva" />
		<tag k="ssr:date" v="2019-12-27" />
		<tag k="ssr:gruppe" v="rennendeVann" />
		<tag k="ssr:hovedgruppe" v="ferskvann" />
		<tag k="ssr:stedsnr" v="98160" />
		<tag k="ssr:type" v="elv" />
		<tag k="waterway" v="river" />
	</node>
	<node lat="59.746961107099686" lon="6.761022220124624" id="-34598">
		<tag k="name" v="Nipebekken" />
		<tag k="ssr:date" v="2019-12-27" />
		<tag k="ssr:gruppe" v="rennendeVann" />
		<tag k="ssr:hovedgruppe" v="ferskvann" />
		<tag k="ssr:stedsnr" v="98361" />
		<tag k="ssr:type" v="bekk" />
		<tag k="waterway" v="stream" />
	</node>
	<node lat="60.15202453594874" lon="6.5381348259659875" id="-34599">
		<tag k="name" v="Einstabbehaugen" />
		<tag k="natural" v="hill" />
		<tag k="place" v="locality" />
		<tag k="ssr:date" v="2019-12-27" />
		<tag k="ssr:gruppe" v="høyder" />
		<tag k="ssr:hovedgruppe" v="terreng" />
		<tag k="ssr:stedsnr" v="98673" />
		<tag k="ssr:type" v="haug" />
	</node>
	<node lat="60.14924931752133" lon="6.536933487193875" id="-34600">
		<tag k="name" v="Naltane" />
		<tag k="place" v="locality" />
		<tag k="ssr:date" v="2019-12-27" />
		<tag k="ssr:gruppe" v="terrengdetaljer" />
		<tag k="ssr:hovedgruppe" v="terreng" />
		<tag k="ssr:stedsnr" v="98677" />
		<tag k="ssr:type" v="annenTerrengdetalj" />
	</node>
	<node lat="60.147888886778304" lon="6.52978055876355" id="-34601">
		<tag k="historic" v="shieling" />
		<tag k="name" v="Stuastøl" />
		<tag k="place" v="isolated_dwelling" />
		<tag k="ssr:date" v="2019-12-27" />
		<tag k="ssr:gruppe" v="gardsbebyggelse" />
		<tag k="ssr:hovedgruppe" v="bebyggelse" />
		<tag k="ssr:stedsnr" v="98685" />
		<tag k="ssr:type" v="seterStøl" />
	</node>
	<node lat="60.2489916709183" lon="6.358030547032784" id="-34602">
		<tag k="name" v="Osadalskaret" />
		<tag k="natural" v="valley" />
		<tag k="place" v="locality" />
		<tag k="ssr:date" v="2019-12-27" />
		<tag k="ssr:gruppe" v="senkninger" />
		<tag k="ssr:hovedgruppe" v="terreng" />
		<tag k="ssr:stedsnr" v="98816" />
		<tag k="ssr:type" v="skar" />
	</node>
	<node lat="60.30372499613111" lon="6.389794442695416" id="-34603">
		<tag k="name" v="Brennemyrane" />
		<tag k="natural" v="wetland" />
		<tag k="ssr:date" v="2019-12-27" />
		<tag k="ssr:gruppe" v="våtmark" />
		<tag k="ssr:hovedgruppe" v="markslag" />
		<tag k="ssr:stedsnr" v="248033" />
		<tag k="ssr:type" v="myr" />
	</node>
	<node lat="60.42280278061761" lon="6.542855549771049" id="-34604">
		<tag k="name" v="Midttun" />
		<tag k="place" v="farm" />
		<tag k="ssr:date" v="2019-12-27" />
		<tag k="ssr:gruppe" v="gardsbebyggelse" />
		<tag k="ssr:hovedgruppe" v="bebyggelse" />
		<tag k="ssr:stedsnr" v="99102" />
		<tag k="ssr:type" v="bruk" />
	</node>
	<node lat="60.425738889207146" lon="6.583088885655437" id="-34605">
		<tag k="name" v="Geitastedekkena" />
		<tag k="place" v="locality" />
		<tag k="ssr:date" v="2019-12-27" />
		<tag k="ssr:gruppe" v="terrengdetaljer" />
		<tag k="ssr:hovedgruppe" v="terreng" />
		<tag k="ssr:stedsnr" v="99103" />
		<tag k="ssr:type" v="annenTerrengdetalj" />
	</node>
	<node lat="60.419794444426635" lon="6.6137916629580165" id="-34606">
		<tag k="name" v="Berget" />
		<tag k="natural" v="hill" />
		<tag k="place" v="locality" />
		<tag k="ssr:date" v="2019-12-27" />
		<tag k="ssr:gruppe" v="høyder" />
		<tag k="ssr:hovedgruppe" v="terreng" />
		<tag k="ssr:stedsnr" v="99111" />
		<tag k="ssr:type" v="berg" />
	</node>
	<node lat="60.41085555520083" lon="6.626536107932768" id="-34607">
		<tag k="name" v="Hjallane" />
		<tag k="place" v="locality" />
		<tag k="ssr:date" v="2019-12-27" />
		<tag k="ssr:gruppe" v="terrengdetaljer" />
		<tag k="ssr:hovedgruppe" v="terreng" />
		<tag k="ssr:stedsnr" v="99163" />
		<tag k="ssr:type" v="hylle" />
	</node>
	<node lat="60.40901111397032" lon="6.614880561994878" id="-34608">
		<tag k="name" v="Herborgslåtta" />
		<tag k="place" v="locality" />
		<tag k="ssr:date" v="2019-12-27" />
		<tag k="ssr:gruppe" v="dyrkamark" />
		<tag k="ssr:hovedgruppe" v="markslag" />
		<tag k="ssr:stedsnr" v="99171" />
		<tag k="ssr:type" v="jorde" />
	</node>
	<node lat="60.38939166844412" lon="6.547488896718845" id="-34609">
		<tag k="name" v="Viersmyr" />
		<tag k="natural" v="wetland" />
		<tag k="ssr:date" v="2019-12-27" />
		<tag k="ssr:gruppe" v="våtmark" />
		<tag k="ssr:hovedgruppe" v="markslag" />
		<tag k="ssr:stedsnr" v="99181" />
		<tag k="ssr:type" v="myr" />
	</node>
	<node lat="59.78990833251984" lon="6.76684444945618" id="-34610">
		<tag k="name" v="Veslaelva" />
		<tag k="ssr:date" v="2019-12-27" />
		<tag k="ssr:gruppe" v="rennendeVann" />
		<tag k="ssr:hovedgruppe" v="ferskvann" />
		<tag k="ssr:stedsnr" v="99316" />
		<tag k="ssr:type" v="elv" />
		<tag k="waterway" v="river" />
	</node>
	<node lat="59.79426388993268" lon="6.75610832547756" id="-34611">
		<tag k="historic" v="shieling" />
		<tag k="name" v="Ekkjevikstølen" />
		<tag k="place" v="locality" />
		<tag k="ssr:date" v="2019-12-27" />
		<tag k="ssr:gruppe" v="dyrkamark" />
		<tag k="ssr:hovedgruppe" v="markslag" />
		<tag k="ssr:stedsnr" v="99317" />
		<tag k="ssr:type" v="setervoll" />
	</node>
	<node lat="59.784330553223484" lon="6.790033331658623" id="-34612">
		<tag k="name" v="Stuvaledbekken" />
		<tag k="ssr:date" v="2019-12-27" />
		<tag k="ssr:gruppe" v="rennendeVann" />
		<tag k="ssr:hovedgruppe" v="ferskvann" />
		<tag k="ssr:stedsnr" v="99364" />
		<tag k="ssr:type" v="bekk" />
		<tag k="waterway" v="stream" />
	</node>
	<node lat="59.81506110815777" lon="6.8162861043302385" id="-34613">
		<tag k="name" v="Gjertrabekk" />
		<tag k="ssr:date" v="2019-12-27" />
		<tag k="ssr:gruppe" v="rennendeVann" />
		<tag k="ssr:hovedgruppe" v="ferskvann" />
		<tag k="ssr:stedsnr" v="99367" />
		<tag k="ssr:type" v="bekk" />
		<tag k="waterway" v="stream" />
	</node>
	<node lat="60.36977222250766" lon="6.365208334270123" id="-34614">
		<tag k="alt_name" v="Vikane, in;Vikane" />
		<tag k="name" v="Indre Vikane" />
		<tag k="place" v="farm" />
		<tag k="ssr:date" v="2019-12-27" />
		<tag k="ssr:gruppe" v="gardsbebyggelse" />
		<tag k="ssr:hovedgruppe" v="bebyggelse" />
		<tag k="ssr:stedsnr" v="248081" />
		<tag k="ssr:type" v="bruk" />
	</node>
	<node lat="60.34132500382296" lon="6.419886118577817" id="-34615">
		<tag k="name" v="Marhellelii" />
		<tag k="natural" v="slope" />
		<tag k="place" v="locality" />
		<tag k="ssr:date" v="2019-12-27" />
		<tag k="ssr:gruppe" v="skråninger" />
		<tag k="ssr:hovedgruppe" v="terreng" />
		<tag k="ssr:stedsnr" v="248089" />
		<tag k="ssr:type" v="li" />
	</node>
	<node lat="60.34470277516471" lon="6.390052771510314" id="-34616">
		<tag k="fixme" v="consider place=hamlet" />
		<tag k="name" v="Eiki" />
		<tag k="place" v="farm" />
		<tag k="ssr:date" v="2019-12-27" />
		<tag k="ssr:gruppe" v="gardsbebyggelse" />
		<tag k="ssr:hovedgruppe" v="bebyggelse" />
		<tag k="ssr:stedsnr" v="248092" />
		<tag k="ssr:type" v="gard" />
	</node>
	<node lat="60.41342777958429" lon="6.542511106948167" id="-34617">
		<tag k="name" v="Tunga" />
		<tag k="natural" v="hill" />
		<tag k="place" v="locality" />
		<tag k="ssr:date" v="2019-12-27" />
		<tag k="ssr:gruppe" v="høyder" />
		<tag k="ssr:hovedgruppe" v="terreng" />
		<tag k="ssr:stedsnr" v="99016" />
		<tag k="ssr:type" v="berg" />
	</node>
	<node lat="60.33824167044649" lon="6.349524992490811" id="-34618">
		<tag k="fixme" v="consider seamark:type=rock or natural=shoal" />
		<tag k="name" v="Kjerringaskjer" />
		<tag k="place" v="islet" />
		<tag k="ssr:date" v="2019-12-27" />
		<tag k="ssr:gruppe" v="grunnerISjø" />
		<tag k="ssr:hovedgruppe" v="sjø" />
		<tag k="ssr:stedsnr" v="99059" />
		<tag k="ssr:type" v="skjærISjø" />
	</node>
	<node lat="60.33862222565235" lon="6.365302785536529" id="-34619">
		<tag k="name" v="Plasset" />
		<tag k="place" v="farm" />
		<tag k="ssr:date" v="2019-12-27" />
		<tag k="ssr:gruppe" v="gardsbebyggelse" />
		<tag k="ssr:hovedgruppe" v="bebyggelse" />
		<tag k="ssr:stedsnr" v="99061" />
		<tag k="ssr:type" v="bruk" />
	</node>
	<node lat="60.3901290128328" lon="6.612882883652727" id="-34620">
		<tag k="fixme" v="multiple name tags, choose one and add the other to alt_name" />
		<tag k="historic" v="shieling" />
		<tag k="name" v="Hausastølen;Sjusete" />
		<tag k="place" v="locality" />
		<tag k="ssr:date" v="2021-06-08" />
		<tag k="ssr:gruppe" v="dyrkamark" />
		<tag k="ssr:hovedgruppe" v="markslag" />
		<tag k="ssr:stedsnr" v="99069" />
		<tag k="ssr:type" v="setervoll" />
	</node>
	<node lat="60.26083333487519" lon="6.4045166723060305" id="-34621">
		<tag k="name" v="Kjeaskori" />
		<tag k="place" v="locality" />
		<tag k="ssr:date" v="2020-02-14" />
		<tag k="ssr:gruppe" v="terrengdetaljer" />
		<tag k="ssr:hovedgruppe" v="terreng" />
		<tag k="ssr:stedsnr" v="99072" />
		<tag k="ssr:type" v="hylle" />
	</node>
	<node lat="60.314644443351504" lon="6.419783336563164" id="-34622">
		<tag k="name" v="Vasslii" />
		<tag k="natural" v="slope" />
		<tag k="place" v="locality" />
		<tag k="ssr:date" v="2019-12-27" />
		<tag k="ssr:gruppe" v="skråninger" />
		<tag k="ssr:hovedgruppe" v="terreng" />
		<tag k="ssr:stedsnr" v="99076" />
		<tag k="ssr:type" v="li" />
	</node>
	<node lat="60.32681388458013" lon="6.400344449218019" id="-34623">
		<tag k="name" v="Haugskvilet" />
		<tag k="natural" v="hill" />
		<tag k="place" v="locality" />
		<tag k="ssr:date" v="2019-12-27" />
		<tag k="ssr:gruppe" v="høyder" />
		<tag k="ssr:hovedgruppe" v="terreng" />
		<tag k="ssr:stedsnr" v="99077" />
		<tag k="ssr:type" v="haug" />
	</node>
	<node lat="60.32647778040121" lon="6.408727784695705" id="-34624">
		<tag k="name" v="Bjørnespjot" />
		<tag k="natural" v="hill" />
		<tag k="place" v="locality" />
		<tag k="ssr:date" v="2019-12-27" />
		<tag k="ssr:gruppe" v="høyder" />
		<tag k="ssr:hovedgruppe" v="terreng" />
		<tag k="ssr:stedsnr" v="99078" />
		<tag k="ssr:type" v="høyde" />
	</node>
	<node lat="60.392816662343094" lon="6.6129055515389785" id="-34625">
		<tag k="name" v="Hausaheiane" />
		<tag k="natural" v="hill" />
		<tag k="place" v="locality" />
		<tag k="ssr:date" v="2019-12-27" />
		<tag k="ssr:gruppe" v="høyder" />
		<tag k="ssr:hovedgruppe" v="terreng" />
		<tag k="ssr:stedsnr" v="99079" />
		<tag k="ssr:type" v="hei" />
	</node>
	<node lat="60.32386666697087" lon="6.604925006649476" id="-34626">
		<tag k="name" v="Bersastein" />
		<tag k="natural" v="stone" />
		<tag k="ssr:date" v="2019-12-27" />
		<tag k="ssr:gruppe" v="løsmasseavsetninger" />
		<tag k="ssr:hovedgruppe" v="markslag" />
		<tag k="ssr:stedsnr" v="99212" />
		<tag k="ssr:type" v="stein" />
	</node>
	<node lat="59.756224996963724" lon="6.812841666717863" id="-34627">
		<tag k="name" v="Skora" />
		<tag k="place" v="locality" />
		<tag k="ssr:date" v="2020-02-18" />
		<tag k="ssr:gruppe" v="terrengdetaljer" />
		<tag k="ssr:hovedgruppe" v="terreng" />
		<tag k="ssr:stedsnr" v="99262" />
		<tag k="ssr:type" v="hylle" />
	</node>
	<node lat="60.31112500291504" lon="6.431036111780862" id="-34628">
		<tag k="name" v="Håvasete" />
		<tag k="place" v="locality" />
		<tag k="ssr:date" v="2019-12-27" />
		<tag k="ssr:gruppe" v="gardsbebyggelse" />
		<tag k="ssr:hovedgruppe" v="bebyggelse" />
		<tag k="ssr:stedsnr" v="248050" />
		<tag k="ssr:type" v="eiendom" />
	</node>
	<node lat="60.42152500297913" lon="6.542166668408508" id="-34629">
		<tag k="name" v="Midtun" />
		<tag k="place" v="farm" />
		<tag k="ssr:date" v="2019-12-27" />
		<tag k="ssr:gruppe" v="gardsbebyggelse" />
		<tag k="ssr:hovedgruppe" v="bebyggelse" />
		<tag k="ssr:stedsnr" v="248130" />
		<tag k="ssr:type" v="bruk" />
	</node>
	<node lat="60.21726110855636" lon="6.631752771095706" id="-34630">
		<tag k="name" v="Lyngtuedalen" />
		<tag k="natural" v="valley" />
		<tag k="place" v="locality" />
		<tag k="ssr:date" v="2019-12-27" />
		<tag k="ssr:gruppe" v="senkninger" />
		<tag k="ssr:hovedgruppe" v="terreng" />
		<tag k="ssr:stedsnr" v="99464" />
		<tag k="ssr:type" v="dal" />
	</node>
	<node lat="60.22750000086704" lon="6.630272215950843" id="-34631">
		<tag k="name" v="Drembelhaug" />
		<tag k="natural" v="hill" />
		<tag k="place" v="locality" />
		<tag k="ssr:date" v="2019-12-27" />
		<tag k="ssr:gruppe" v="høyder" />
		<tag k="ssr:hovedgruppe" v="terreng" />
		<tag k="ssr:stedsnr" v="99469" />
		<tag k="ssr:type" v="haug" />
	</node>
	<node lat="60.2660361119302" lon="6.649791665171298" id="-34632">
		<tag k="historic" v="shieling" />
		<tag k="name" v="Gunnhildstøl" />
		<tag k="place" v="isolated_dwelling" />
		<tag k="ssr:date" v="2019-12-27" />
		<tag k="ssr:gruppe" v="gardsbebyggelse" />
		<tag k="ssr:hovedgruppe" v="bebyggelse" />
		<tag k="ssr:stedsnr" v="99474" />
		<tag k="ssr:type" v="seterStøl" />
	</node>
	<node lat="60.281769445402944" lon="6.666072226088085" id="-34633">
		<tag k="fixme" v="consider natural=peak for the most distinct mountains in the district" />
		<tag k="name" v="Klyvjahaugen" />
		<tag k="natural" v="hill" />
		<tag k="place" v="locality" />
		<tag k="ssr:date" v="2019-12-27" />
		<tag k="ssr:gruppe" v="høyder" />
		<tag k="ssr:hovedgruppe" v="terreng" />
		<tag k="ssr:stedsnr" v="99479" />
		<tag k="ssr:type" v="ås" />
	</node>
	<node lat="59.86227777576773" lon="6.855450004439337" id="-34634">
		<tag k="name" v="Fellesteinsbekken" />
		<tag k="ssr:date" v="2019-12-27" />
		<tag k="ssr:gruppe" v="rennendeVann" />
		<tag k="ssr:hovedgruppe" v="ferskvann" />
		<tag k="ssr:stedsnr" v="99484" />
		<tag k="ssr:type" v="bekk" />
		<tag k="waterway" v="stream" />
	</node>
	<node lat="60.37663333772449" lon="6.726711117535658" id="-34635">
		<tag k="name" v="Hestadalane" />
		<tag k="natural" v="valley" />
		<tag k="place" v="locality" />
		<tag k="ssr:date" v="2019-12-27" />
		<tag k="ssr:gruppe" v="senkninger" />
		<tag k="ssr:hovedgruppe" v="terreng" />
		<tag k="ssr:stedsnr" v="99612" />
		<tag k="ssr:type" v="dal" />
	</node>
	<node lat="60.29339166944547" lon="6.314866666801005" id="-34636">
		<tag k="name" v="Grasdalsmyri" />
		<tag k="natural" v="wetland" />
		<tag k="ssr:date" v="2019-12-27" />
		<tag k="ssr:gruppe" v="våtmark" />
		<tag k="ssr:hovedgruppe" v="markslag" />
		<tag k="ssr:stedsnr" v="99616" />
		<tag k="ssr:type" v="myr" />
	</node>
	<node lat="60.0570805523101" lon="6.563452785868437" id="-34637">
		<tag k="name" v="Flotten" />
		<tag k="place" v="locality" />
		<tag k="ssr:date" v="2019-12-27" />
		<tag k="ssr:gruppe" v="terrengdetaljer" />
		<tag k="ssr:hovedgruppe" v="terreng" />
		<tag k="ssr:stedsnr" v="99624" />
		<tag k="ssr:type" v="annenTerrengdetalj" />
	</node>
	<node lat="60.05793332917086" lon="6.565780555153928" id="-34638">
		<tag k="name" v="Flottura" />
		<tag k="natural" v="scree" />
		<tag k="ssr:date" v="2019-12-27" />
		<tag k="ssr:gruppe" v="løsmasseavsetninger" />
		<tag k="ssr:hovedgruppe" v="markslag" />
		<tag k="ssr:stedsnr" v="99625" />
		<tag k="ssr:type" v="ur" />
	</node>
	<node lat="60.24770000089104" lon="6.621055563748247" id="-34639">
		<tag k="name" v="Gløshaug" />
		<tag k="natural" v="hill" />
		<tag k="place" v="locality" />
		<tag k="ssr:date" v="2019-12-27" />
		<tag k="ssr:gruppe" v="høyder" />
		<tag k="ssr:hovedgruppe" v="terreng" />
		<tag k="ssr:stedsnr" v="99505" />
		<tag k="ssr:type" v="haug" />
	</node>
	<node lat="60.28974166310631" lon="6.639736109639033" id="-34640">
		<tag k="name" v="Austmannaminnet" />
		<tag k="place" v="locality" />
		<tag k="ssr:date" v="2019-12-27" />
		<tag k="ssr:gruppe" v="terrengdetaljer" />
		<tag k="ssr:hovedgruppe" v="terreng" />
		<tag k="ssr:stedsnr" v="99508" />
		<tag k="ssr:type" v="annenTerrengdetalj" />
	</node>
	<node lat="60.03415555304692" lon="6.60846944451065" id="-34641">
		<tag k="name" v="Bruhaug" />
		<tag k="natural" v="hill" />
		<tag k="place" v="locality" />
		<tag k="ssr:date" v="2019-12-27" />
		<tag k="ssr:gruppe" v="høyder" />
		<tag k="ssr:hovedgruppe" v="terreng" />
		<tag k="ssr:stedsnr" v="99513" />
		<tag k="ssr:type" v="haug" />
	</node>
	<node lat="60.24401389089036" lon="6.316591669996678" id="-34642">
		<tag k="name" v="Korkatrekkjaren" />
		<tag k="place" v="locality" />
		<tag k="ssr:date" v="2019-12-27" />
		<tag k="ssr:gruppe" v="terrengdetaljer" />
		<tag k="ssr:hovedgruppe" v="terreng" />
		<tag k="ssr:stedsnr" v="99566" />
		<tag k="ssr:type" v="annenTerrengdetalj" />
	</node>
	<node lat="60.24398055550897" lon="6.301880550884979" id="-34643">
		<tag k="name" v="Andvereleitet" />
		<tag k="natural" v="slope" />
		<tag k="place" v="locality" />
		<tag k="ssr:date" v="2019-12-27" />
		<tag k="ssr:gruppe" v="skråninger" />
		<tag k="ssr:hovedgruppe" v="terreng" />
		<tag k="ssr:stedsnr" v="99568" />
		<tag k="ssr:type" v="bakke" />
	</node>
	<node lat="59.98737222372855" lon="6.568474993399302" id="-34644">
		<tag k="name" v="Krossgard" />
		<tag k="place" v="locality" />
		<tag k="ssr:date" v="2019-12-27" />
		<tag k="ssr:gruppe" v="terrengdetaljer" />
		<tag k="ssr:hovedgruppe" v="terreng" />
		<tag k="ssr:stedsnr" v="99569" />
		<tag k="ssr:type" v="annenTerrengdetalj" />
	</node>
	<node lat="60.247647220890975" lon="6.2983694509784796" id="-34645">
		<tag k="name" v="Osterli" />
		<tag k="natural" v="slope" />
		<tag k="place" v="locality" />
		<tag k="ssr:date" v="2019-12-27" />
		<tag k="ssr:gruppe" v="skråninger" />
		<tag k="ssr:hovedgruppe" v="terreng" />
		<tag k="ssr:stedsnr" v="99570" />
		<tag k="ssr:type" v="li" />
	</node>
	<node lat="60.315960303885824" lon="6.673205329798726" id="-34646">
		<tag k="name" v="Tveitane" />
		<tag k="place" v="locality" />
		<tag k="ssr:date" v="2020-07-13" />
		<tag k="ssr:gruppe" v="flater" />
		<tag k="ssr:hovedgruppe" v="terreng" />
		<tag k="ssr:stedsnr" v="99571" />
		<tag k="ssr:type" v="slette" />
	</node>
	<node lat="59.99132777671169" lon="6.528152781338127" id="-34647">
		<tag k="name" v="Hovden" />
		<tag k="natural" v="hill" />
		<tag k="place" v="locality" />
		<tag k="ssr:date" v="2019-12-27" />
		<tag k="ssr:gruppe" v="høyder" />
		<tag k="ssr:hovedgruppe" v="terreng" />
		<tag k="ssr:stedsnr" v="99572" />
		<tag k="ssr:type" v="haug" />
	</node>
	<node lat="60.3243935285513" lon="6.663417897255404" id="-34648">
		<tag k="name" v="Bjordalen" />
		<tag k="natural" v="valley" />
		<tag k="place" v="locality" />
		<tag k="ssr:date" v="2019-12-27" />
		<tag k="ssr:gruppe" v="senkninger" />
		<tag k="ssr:hovedgruppe" v="terreng" />
		<tag k="ssr:stedsnr" v="99573" />
		<tag k="ssr:type" v="dal" />
	</node>
	<node lat="60.20420555665869" lon="6.205811117950989" id="-34649">
		<tag k="name" v="Elleveskar" />
		<tag k="natural" v="valley" />
		<tag k="place" v="locality" />
		<tag k="ssr:date" v="2019-12-27" />
		<tag k="ssr:gruppe" v="senkninger" />
		<tag k="ssr:hovedgruppe" v="terreng" />
		<tag k="ssr:stedsnr" v="99703" />
		<tag k="ssr:type" v="skar" />
	</node>
	<node lat="60.233530552886286" lon="6.24225000554444" id="-34650">
		<tag k="name" v="Amundsstegsgjelet" />
		<tag k="place" v="locality" />
		<tag k="ssr:date" v="2019-12-27" />
		<tag k="ssr:gruppe" v="terrengdetaljer" />
		<tag k="ssr:hovedgruppe" v="terreng" />
		<tag k="ssr:stedsnr" v="99709" />
		<tag k="ssr:type" v="hylle" />
	</node>
	<node lat="60.1188083368888" lon="6.603969436278259" id="-34651">
		<tag k="name" v="Smibekken" />
		<tag k="ssr:date" v="2019-12-27" />
		<tag k="ssr:gruppe" v="rennendeVann" />
		<tag k="ssr:hovedgruppe" v="ferskvann" />
		<tag k="ssr:stedsnr" v="99710" />
		<tag k="ssr:type" v="bekk" />
		<tag k="waterway" v="stream" />
	</node>
	<node lat="60.12769166237249" lon="6.59789444367151" id="-34652">
		<tag k="name" v="Svelgberget" />
		<tag k="natural" v="hill" />
		<tag k="place" v="locality" />
		<tag k="ssr:date" v="2019-12-27" />
		<tag k="ssr:gruppe" v="høyder" />
		<tag k="ssr:hovedgruppe" v="terreng" />
		<tag k="ssr:stedsnr" v="99715" />
		<tag k="ssr:type" v="berg" />
	</node>
	<node lat="60.13009999592285" lon="6.599083331653953" id="-34653">
		<tag k="loc_name" v="Burtnagjelet" />
		<tag k="name" v="Burtnadgjelet" />
		<tag k="place" v="locality" />
		<tag k="ssr:date" v="2019-12-27" />
		<tag k="ssr:gruppe" v="terrengdetaljer" />
		<tag k="ssr:hovedgruppe" v="terreng" />
		<tag k="ssr:stedsnr" v="99716" />
		<tag k="ssr:type" v="annenTerrengdetalj" />
	</node>
	<node lat="60.12552778041052" lon="6.559863886297257" id="-34654">
		<tag k="name" v="Alskor" />
		<tag k="place" v="locality" />
		<tag k="ssr:date" v="2020-02-12" />
		<tag k="ssr:gruppe" v="terrengdetaljer" />
		<tag k="ssr:hovedgruppe" v="terreng" />
		<tag k="ssr:stedsnr" v="99717" />
		<tag k="ssr:type" v="hylle" />
	</node>
	<node lat="60.247402776601376" lon="6.22853889401248" id="-34655">
		<tag k="fixme" v="consider natural=peak for the most distinct mountains in the district" />
		<tag k="name" v="Legenolten" />
		<tag k="natural" v="hill" />
		<tag k="place" v="locality" />
		<tag k="ssr:date" v="2019-12-27" />
		<tag k="ssr:gruppe" v="høyder" />
		<tag k="ssr:hovedgruppe" v="terreng" />
		<tag k="ssr:stedsnr" v="99760" />
		<tag k="ssr:type" v="topp" />
	</node>
	<node lat="60.30529722562132" lon="6.280491659598469" id="-34656">
		<tag k="name" v="Kyrkjesteg" />
		<tag k="place" v="farm" />
		<tag k="ssr:date" v="2019-12-27" />
		<tag k="ssr:gruppe" v="gardsbebyggelse" />
		<tag k="ssr:hovedgruppe" v="bebyggelse" />
		<tag k="ssr:stedsnr" v="99765" />
		<tag k="ssr:type" v="bruk" />
	</node>
	<node lat="60.435480559387926" lon="6.585375008108563" id="-34657">
		<tag k="name" v="Skomakarstolen" />
		<tag k="natural" v="cape" />
		<tag k="old_name" v="Skoma" />
		<tag k="ssr:date" v="2019-12-27" />
		<tag k="ssr:gruppe" v="kystkontur" />
		<tag k="ssr:hovedgruppe" v="sjø" />
		<tag k="ssr:stedsnr" v="248152" />
		<tag k="ssr:type" v="nesISjø" />
	</node>
	<node lat="60.37768055932369" lon="6.801769449403589" id="-34658">
		<tag k="highway" v="path" />
		<tag k="name" v="Flatakvilet" />
		<tag k="ssr:date" v="2019-12-27" />
		<tag k="ssr:gruppe" v="veg" />
		<tag k="ssr:hovedgruppe" v="infrastruktur" />
		<tag k="ssr:stedsnr" v="99807" />
		<tag k="ssr:type" v="sti" />
	</node>
	<node lat="60.418572221716055" lon="6.750138895268653" id="-34659">
		<tag k="name" v="Krossen" />
		<tag k="place" v="locality" />
		<tag k="ssr:date" v="2019-12-27" />
		<tag k="ssr:gruppe" v="terrengdetaljer" />
		<tag k="ssr:hovedgruppe" v="terreng" />
		<tag k="ssr:stedsnr" v="99808" />
		<tag k="ssr:type" v="annenTerrengdetalj" />
	</node>
	<node lat="60.32935455729374" lon="6.659778289376026" id="-34660">
		<tag k="name" v="Solbakken" />
		<tag k="place" v="farm" />
		<tag k="ssr:date" v="2019-12-27" />
		<tag k="ssr:gruppe" v="gardsbebyggelse" />
		<tag k="ssr:hovedgruppe" v="bebyggelse" />
		<tag k="ssr:stedsnr" v="99813" />
		<tag k="ssr:type" v="bruk" />
	</node>
	<node lat="60.241002781995014" lon="6.242394446151261" id="-34661">
		<tag k="name" v="Skuffo" />
		<tag k="place" v="locality" />
		<tag k="ssr:date" v="2019-12-27" />
		<tag k="ssr:gruppe" v="terrengdetaljer" />
		<tag k="ssr:hovedgruppe" v="terreng" />
		<tag k="ssr:stedsnr" v="99818" />
		<tag k="ssr:type" v="hylle" />
	</node>
	<node lat="60.294186112918716" lon="6.584002778202716" id="-34662">
		<tag k="name" v="Kolleskor" />
		<tag k="natural" v="hill" />
		<tag k="place" v="locality" />
		<tag k="ssr:date" v="2019-12-27" />
		<tag k="ssr:gruppe" v="høyder" />
		<tag k="ssr:hovedgruppe" v="terreng" />
		<tag k="ssr:stedsnr" v="99865" />
		<tag k="ssr:type" v="haug" />
	</node>
	<node lat="60.32831111545608" lon="6.415413890535997" id="-34663">
		<tag k="name" v="Tossegjelet" />
		<tag k="place" v="locality" />
		<tag k="ssr:date" v="2019-12-27" />
		<tag k="ssr:gruppe" v="terrengdetaljer" />
		<tag k="ssr:hovedgruppe" v="terreng" />
		<tag k="ssr:stedsnr" v="99872" />
		<tag k="ssr:type" v="hylle" />
	</node>
	<node lat="60.36675000216244" lon="6.631733340014664" id="-34664">
		<tag k="name" v="Haustveitelvi" />
		<tag k="ssr:date" v="2019-12-27" />
		<tag k="ssr:gruppe" v="rennendeVann" />
		<tag k="ssr:hovedgruppe" v="ferskvann" />
		<tag k="ssr:stedsnr" v="99873" />
		<tag k="ssr:type" v="elv" />
		<tag k="waterway" v="river" />
	</node>
	<node lat="60.3815166662888" lon="6.636155552903752" id="-34665">
		<tag k="name" v="Kleivahaug" />
		<tag k="natural" v="hill" />
		<tag k="place" v="locality" />
		<tag k="ssr:date" v="2019-12-27" />
		<tag k="ssr:gruppe" v="høyder" />
		<tag k="ssr:hovedgruppe" v="terreng" />
		<tag k="ssr:stedsnr" v="99874" />
		<tag k="ssr:type" v="haug" />
	</node>
	<node lat="60.289130557452495" lon="6.429247224682968" id="-34666">
		<tag k="ford" v="yes" />
		<tag k="name" v="Smalabruvad" />
		<tag k="place" v="locality" />
		<tag k="ssr:date" v="2019-12-27" />
		<tag k="ssr:gruppe" v="veg" />
		<tag k="ssr:hovedgruppe" v="infrastruktur" />
		<tag k="ssr:stedsnr" v="99875" />
		<tag k="ssr:type" v="vad" />
	</node>
	<node lat="60.37697500451343" lon="6.7211527796787" id="-34667">
		<tag k="name" v="Grandane" />
		<tag k="natural" v="beach" />
		<tag k="ssr:date" v="2019-12-27" />
		<tag k="ssr:gruppe" v="løsmasseavsetninger" />
		<tag k="ssr:hovedgruppe" v="markslag" />
		<tag k="ssr:stedsnr" v="99879" />
		<tag k="ssr:type" v="sand" />
		<tag k="surface" v="sand" />
	</node>
	<node lat="60.33997499807209" lon="6.436636102451234" id="-34668">
		<tag k="name" v="Kvitakjetta" />
		<tag k="place" v="locality" />
		<tag k="ssr:date" v="2019-12-27" />
		<tag k="ssr:gruppe" v="terrengdetaljer" />
		<tag k="ssr:hovedgruppe" v="terreng" />
		<tag k="ssr:stedsnr" v="99885" />
		<tag k="ssr:type" v="annenTerrengdetalj" />
	</node>
	<node lat="60.37457777876003" lon="6.938800000357173" id="-34669">
		<tag k="fixme" v="consider natural=peak for the most distinct mountains in the district" />
		<tag k="name" v="Sovarenuten" />
		<tag k="natural" v="hill" />
		<tag k="place" v="locality" />
		<tag k="ssr:date" v="2021-06-08" />
		<tag k="ssr:gruppe" v="høyder" />
		<tag k="ssr:hovedgruppe" v="terreng" />
		<tag k="ssr:stedsnr" v="248260" />
		<tag k="ssr:type" v="topp" />
	</node>
	<node lat="60.353208337533516" lon="6.719494446014334" id="-34670">
		<tag k="historic" v="shieling" />
		<tag k="name" v="Vetla Kvanndal" />
		<tag k="place" v="isolated_dwelling" />
		<tag k="ssr:date" v="2021-06-08" />
		<tag k="ssr:gruppe" v="gardsbebyggelse" />
		<tag k="ssr:hovedgruppe" v="bebyggelse" />
		<tag k="ssr:stedsnr" v="248262" />
		<tag k="ssr:type" v="seterStøl" />
	</node>
	<node lat="60.35302181989833" lon="6.6949827145911796" id="-34671">
		<tag k="fixme" v="consider natural=peak for the most distinct mountains in the district" />
		<tag k="name" v="Nipa" />
		<tag k="natural" v="hill" />
		<tag k="place" v="locality" />
		<tag k="ssr:date" v="2021-06-08" />
		<tag k="ssr:gruppe" v="høyder" />
		<tag k="ssr:hovedgruppe" v="terreng" />
		<tag k="ssr:stedsnr" v="248264" />
		<tag k="ssr:type" v="topp" />
	</node>
	<node lat="60.32154150068202" lon="6.653828121963255" id="-34672">
		<tag k="fixme" v="consider place=hamlet" />
		<tag k="name" v="Århus" />
		<tag k="place" v="farm" />
		<tag k="ssr:date" v="2019-12-27" />
		<tag k="ssr:gruppe" v="gardsbebyggelse" />
		<tag k="ssr:hovedgruppe" v="bebyggelse" />
		<tag k="ssr:stedsnr" v="248279" />
		<tag k="ssr:type" v="gard" />
	</node>
	<node lat="60.3823750036861" lon="6.495988880488228" id="-34673">
		<tag k="name" v="Lauvhaug" />
		<tag k="natural" v="hill" />
		<tag k="place" v="locality" />
		<tag k="ssr:date" v="2019-12-27" />
		<tag k="ssr:gruppe" v="høyder" />
		<tag k="ssr:hovedgruppe" v="terreng" />
		<tag k="ssr:stedsnr" v="99905" />
		<tag k="ssr:type" v="haug" />
	</node>
	<node lat="60.350030551401154" lon="6.490297214149448" id="-34674">
		<tag k="name" v="Lauvamyr" />
		<tag k="natural" v="wetland" />
		<tag k="ssr:date" v="2019-12-27" />
		<tag k="ssr:gruppe" v="våtmark" />
		<tag k="ssr:hovedgruppe" v="markslag" />
		<tag k="ssr:stedsnr" v="99920" />
		<tag k="ssr:type" v="myr" />
	</node>
	<node lat="60.21868333308499" lon="6.564144453393092" id="-34675">
		<tag k="highway" v="path" />
		<tag k="name" v="Raudstig" />
		<tag k="ssr:date" v="2019-12-27" />
		<tag k="ssr:gruppe" v="veg" />
		<tag k="ssr:hovedgruppe" v="infrastruktur" />
		<tag k="ssr:stedsnr" v="99967" />
		<tag k="ssr:type" v="sti" />
	</node>
	<node lat="60.17359444244381" lon="6.549758325157326" id="-34676">
		<tag k="name" v="Osen" />
		<tag k="natural" v="bay" />
		<tag k="ssr:date" v="2019-12-27" />
		<tag k="ssr:gruppe" v="rennendeVann" />
		<tag k="ssr:hovedgruppe" v="ferskvann" />
		<tag k="ssr:stedsnr" v="99980" />
		<tag k="ssr:type" v="os" />
	</node>
	<node lat="60.237466670258144" lon="6.5546333369098955" id="-34677">
		<tag k="name" v="Millomå" />
		<tag k="ssr:date" v="2019-12-27" />
		<tag k="ssr:gruppe" v="rennendeVann" />
		<tag k="ssr:hovedgruppe" v="ferskvann" />
		<tag k="ssr:stedsnr" v="99982" />
		<tag k="ssr:type" v="bekk" />
		<tag k="waterway" v="stream" />
	</node>
	<node lat="60.38379048135036" lon="6.707386780601791" id="-34678">
		<tag k="name" v="Kinsarvikbukti" />
		<tag k="natural" v="bay" />
		<tag k="ssr:date" v="2020-05-29" />
		<tag k="ssr:gruppe" v="kystkontur" />
		<tag k="ssr:hovedgruppe" v="sjø" />
		<tag k="ssr:stedsnr" v="248248" />
		<tag k="ssr:type" v="vågISjø" />
	</node>
	<node lat="60.321175843464864" lon="6.694475444802691" id="-34679">
		<tag k="name" v="Nosi" />
		<tag k="natural" v="hill" />
		<tag k="place" v="locality" />
		<tag k="ssr:date" v="2021-06-08" />
		<tag k="ssr:gruppe" v="høyder" />
		<tag k="ssr:hovedgruppe" v="terreng" />
		<tag k="ssr:stedsnr" v="248282" />
		<tag k="ssr:type" v="høyde" />
	</node>
	<node lat="60.297380552926164" lon="6.700341663563973" id="-34680">
		<tag k="historic" v="shieling" />
		<tag k="name" v="Skriksete" />
		<tag k="place" v="isolated_dwelling" />
		<tag k="ssr:date" v="2021-06-08" />
		<tag k="ssr:gruppe" v="gardsbebyggelse" />
		<tag k="ssr:hovedgruppe" v="bebyggelse" />
		<tag k="ssr:stedsnr" v="248289" />
		<tag k="ssr:type" v="seterStøl" />
	</node>
	<node lat="60.30803796106636" lon="6.91588144114874" id="-34681">
		<tag k="name" v="Lonavatnet" />
		<tag k="natural" v="water" />
		<tag k="ssr:date" v="2021-06-08" />
		<tag k="ssr:gruppe" v="stilleståendeVann" />
		<tag k="ssr:hovedgruppe" v="ferskvann" />
		<tag k="ssr:stedsnr" v="248292" />
		<tag k="ssr:type" v="vann" />
		<tag k="water" v="lake" />
	</node>
	<node lat="60.38858512728304" lon="6.643874022065599" id="-34682">
		<tag k="fixme" v="consider place=hamlet" />
		<tag k="name" v="Indre Langasete" />
		<tag k="place" v="farm" />
		<tag k="ssr:date" v="2021-06-08" />
		<tag k="ssr:gruppe" v="gardsbebyggelse" />
		<tag k="ssr:hovedgruppe" v="bebyggelse" />
		<tag k="ssr:stedsnr" v="248348" />
		<tag k="ssr:type" v="gard" />
	</node>
	<node lat="60.271944447855475" lon="6.3763944385705305" id="-34683">
		<tag k="name" v="Vedahaugen" />
		<tag k="natural" v="hill" />
		<tag k="place" v="locality" />
		<tag k="ssr:date" v="2019-12-27" />
		<tag k="ssr:gruppe" v="høyder" />
		<tag k="ssr:hovedgruppe" v="terreng" />
		<tag k="ssr:stedsnr" v="248368" />
		<tag k="ssr:type" v="haug" />
	</node>
	<node lat="60.253147246226085" lon="6.344174599799281" id="-34684">
		<tag k="name" v="Grytingsvatnet" />
		<tag k="natural" v="water" />
		<tag k="ssr:date" v="2019-12-27" />
		<tag k="ssr:gruppe" v="stilleståendeVann" />
		<tag k="ssr:hovedgruppe" v="ferskvann" />
		<tag k="ssr:stedsnr" v="248376" />
		<tag k="ssr:type" v="vann" />
		<tag k="water" v="lake" />
	</node>
	<node lat="60.290602776817366" lon="6.459552769625723" id="-34685">
		<tag k="name" v="Skarvabotnen" />
		<tag k="natural" v="valley" />
		<tag k="place" v="locality" />
		<tag k="ssr:date" v="2019-12-27" />
		<tag k="ssr:gruppe" v="senkninger" />
		<tag k="ssr:hovedgruppe" v="terreng" />
		<tag k="ssr:stedsnr" v="248448" />
		<tag k="ssr:type" v="botn" />
	</node>
	<node lat="60.26403952254832" lon="6.3135277403762355" id="-34686">
		<tag k="name" v="Snodalstjørni" />
		<tag k="natural" v="water" />
		<tag k="ssr:date" v="2019-12-27" />
		<tag k="ssr:gruppe" v="stilleståendeVann" />
		<tag k="ssr:hovedgruppe" v="ferskvann" />
		<tag k="ssr:stedsnr" v="248480" />
		<tag k="ssr:type" v="tjern" />
	</node>
	<node lat="60.21232157596359" lon="6.156621335182554" id="-34687">
		<tag k="fixme" v="consider place=hamlet" />
		<tag k="name" v="Gangdal" />
		<tag k="place" v="farm" />
		<tag k="ssr:date" v="2019-12-27" />
		<tag k="ssr:gruppe" v="gardsbebyggelse" />
		<tag k="ssr:hovedgruppe" v="bebyggelse" />
		<tag k="ssr:stedsnr" v="248497" />
		<tag k="ssr:type" v="gard" />
	</node>
	<node lat="60.189161111902386" lon="6.086269445444444" id="-34688">
		<tag k="alt_name" v="Hamaren" />
		<tag k="name" v="Hammaren" />
		<tag k="place" v="farm" />
		<tag k="ssr:date" v="2019-12-27" />
		<tag k="ssr:gruppe" v="gardsbebyggelse" />
		<tag k="ssr:hovedgruppe" v="bebyggelse" />
		<tag k="ssr:stedsnr" v="248574" />
		<tag k="ssr:type" v="bruk" />
	</node>
	<node lat="60.33661944437885" lon="7.0585694455369214" id="-34689">
		<tag k="name" v="Djupebotnen" />
		<tag k="natural" v="valley" />
		<tag k="place" v="locality" />
		<tag k="ssr:date" v="2021-06-08" />
		<tag k="ssr:gruppe" v="senkninger" />
		<tag k="ssr:hovedgruppe" v="terreng" />
		<tag k="ssr:stedsnr" v="248543" />
		<tag k="ssr:type" v="botn" />
	</node>
	<node lat="60.15156666692253" lon="6.7210444465354025" id="-34690">
		<tag k="fixme" v="consider natural=peak for the most distinct mountains in the district" />
		<tag k="name" v="Storenuten" />
		<tag k="natural" v="hill" />
		<tag k="place" v="locality" />
		<tag k="ssr:date" v="2021-06-08" />
		<tag k="ssr:gruppe" v="høyder" />
		<tag k="ssr:hovedgruppe" v="terreng" />
		<tag k="ssr:stedsnr" v="248628" />
		<tag k="ssr:type" v="topp" />
	</node>
	<node lat="60.26898611245304" lon="7.012205564137381" id="-34691">
		<tag k="name" v="Vikebygd" />
		<tag k="natural" v="hill" />
		<tag k="place" v="locality" />
		<tag k="ssr:date" v="2021-06-08" />
		<tag k="ssr:gruppe" v="høyder" />
		<tag k="ssr:hovedgruppe" v="terreng" />
		<tag k="ssr:stedsnr" v="248642" />
		<tag k="ssr:type" v="hei" />
	</node>
	<node lat="60.2796083309178" lon="6.888936110702486" id="-34692">
		<tag k="fixme" v="consider natural=peak for the most distinct mountains in the district" />
		<tag k="name" v="Oksli" />
		<tag k="natural" v="hill" />
		<tag k="place" v="locality" />
		<tag k="ssr:date" v="2021-06-08" />
		<tag k="ssr:gruppe" v="høyder" />
		<tag k="ssr:hovedgruppe" v="terreng" />
		<tag k="ssr:stedsnr" v="248666" />
		<tag k="ssr:type" v="topp" />
	</node>
	<node lat="60.25645833093265" lon="6.845575002539144" id="-34693">
		<tag k="name" v="Moldkleivhøgdi" />
		<tag k="natural" v="hill" />
		<tag k="place" v="locality" />
		<tag k="ssr:date" v="2021-06-08" />
		<tag k="ssr:gruppe" v="høyder" />
		<tag k="ssr:hovedgruppe" v="terreng" />
		<tag k="ssr:stedsnr" v="248676" />
		<tag k="ssr:type" v="høyde" />
	</node>
	<node lat="60.25181444997557" lon="6.621033411613395" id="-34694">
		<tag k="name" v="Sekse" />
		<tag k="place" v="hamlet" />
		<tag k="ssr:date" v="2019-12-27" />
		<tag k="ssr:gruppe" v="gardsbebyggelse" />
		<tag k="ssr:hovedgruppe" v="bebyggelse" />
		<tag k="ssr:stedsnr" v="248679" />
		<tag k="ssr:type" v="navnegard" />
	</node>
	<node lat="60.28527499733726" lon="6.931852780164714" id="-34695">
		<tag k="name" v="Austmannavatnet" />
		<tag k="natural" v="water" />
		<tag k="ssr:date" v="2021-06-08" />
		<tag k="ssr:gruppe" v="stilleståendeVann" />
		<tag k="ssr:hovedgruppe" v="ferskvann" />
		<tag k="ssr:stedsnr" v="248688" />
		<tag k="ssr:type" v="vann" />
		<tag k="water" v="lake" />
	</node>
	<node lat="60.277605552806065" lon="6.852902782306549" id="-34696">
		<tag k="name" v="Gravdalsvatnet" />
		<tag k="natural" v="water" />
		<tag k="ssr:date" v="2021-06-08" />
		<tag k="ssr:gruppe" v="stilleståendeVann" />
		<tag k="ssr:hovedgruppe" v="ferskvann" />
		<tag k="ssr:stedsnr" v="248693" />
		<tag k="ssr:type" v="vann" />
		<tag k="water" v="lake" />
	</node>
	<node lat="60.27430555216318" lon="6.659805553540329" id="-34697">
		<tag k="name" v="Grimsdalen" />
		<tag k="natural" v="valley" />
		<tag k="place" v="locality" />
		<tag k="ssr:date" v="2021-06-08" />
		<tag k="ssr:gruppe" v="senkninger" />
		<tag k="ssr:hovedgruppe" v="terreng" />
		<tag k="ssr:stedsnr" v="248695" />
		<tag k="ssr:type" v="dal" />
	</node>
	<node lat="60.13141111379701" lon="6.164236114833058" id="-34698">
		<tag k="name" v="Husafjellet" />
		<tag k="natural" v="hill" />
		<tag k="place" v="locality" />
		<tag k="ssr:date" v="2019-12-27" />
		<tag k="ssr:gruppe" v="høyder" />
		<tag k="ssr:hovedgruppe" v="terreng" />
		<tag k="ssr:stedsnr" v="248885" />
		<tag k="ssr:type" v="berg" />
	</node>
	<node lat="60.208105552625454" lon="6.278294438046883" id="-34699">
		<tag k="name" v="Glomsdalsskardet" />
		<tag k="natural" v="valley" />
		<tag k="place" v="locality" />
		<tag k="ssr:date" v="2019-12-27" />
		<tag k="ssr:gruppe" v="senkninger" />
		<tag k="ssr:hovedgruppe" v="terreng" />
		<tag k="ssr:stedsnr" v="248841" />
		<tag k="ssr:type" v="skar" />
	</node>
	<node lat="60.21323333006203" lon="6.563661112096331" id="-34700">
		<tag k="alt_name" v="Illagil" />
		<tag k="name" v="Illegjel" />
		<tag k="natural" v="valley" />
		<tag k="place" v="locality" />
		<tag k="ssr:date" v="2019-12-27" />
		<tag k="ssr:gruppe" v="senkninger" />
		<tag k="ssr:hovedgruppe" v="terreng" />
		<tag k="ssr:stedsnr" v="248846" />
		<tag k="ssr:type" v="skar" />
	</node>
	<node lat="60.391227779051896" lon="6.502072216505079" id="-34701">
		<tag k="name" v="Alsåker" />
		<tag k="place" v="hamlet" />
		<tag k="ssr:date" v="2021-02-15" />
		<tag k="ssr:gruppe" v="gardsbebyggelse" />
		<tag k="ssr:hovedgruppe" v="bebyggelse" />
		<tag k="ssr:stedsnr" v="104113" />
		<tag k="ssr:type" v="navnegard" />
	</node>
	<node lat="60.14384166563252" lon="6.130916659950635" id="-34702">
		<tag k="name" v="Apalvikneset" />
		<tag k="natural" v="cape" />
		<tag k="ssr:date" v="2019-12-27" />
		<tag k="ssr:gruppe" v="kystkontur" />
		<tag k="ssr:hovedgruppe" v="sjø" />
		<tag k="ssr:stedsnr" v="104433" />
		<tag k="ssr:type" v="nesISjø" />
	</node>
	<node lat="60.08186944569725" lon="6.529261109498696" id="-34703">
		<tag k="alt_name" v="Eigne Heim" />
		<tag k="name" v="Egne Hjem" />
		<tag k="place" v="quarter" />
		<tag k="ssr:date" v="2019-12-27" />
		<tag k="ssr:gruppe" v="bebyggelsesområder" />
		<tag k="ssr:hovedgruppe" v="bebyggelse" />
		<tag k="ssr:stedsnr" v="104697" />
		<tag k="ssr:type" v="boligfelt" />
	</node>
	<node lat="59.77324444252088" lon="6.742450004156244" id="-34709">
		<tag k="bridge" v="yes" />
		<tag k="layer" v="1" />
		<tag k="name" v="Ekkjeskar" />
		<tag k="ssr:date" v="2019-12-27" />
		<tag k="ssr:gruppe" v="samferdselsanlegg" />
		<tag k="ssr:hovedgruppe" v="infrastruktur" />
		<tag k="ssr:stedsnr" v="107875" />
		<tag k="ssr:type" v="bru" />
	</node>
	<node lat="60.14586944683533" lon="6.541616657527361" id="-34710">
		<tag k="bridge" v="yes" />
		<tag k="layer" v="1" />
		<tag k="name" v="Apold" />
		<tag k="ssr:date" v="2019-12-27" />
		<tag k="ssr:gruppe" v="samferdselsanlegg" />
		<tag k="ssr:hovedgruppe" v="infrastruktur" />
		<tag k="ssr:stedsnr" v="107879" />
		<tag k="ssr:type" v="bru" />
	</node>
	<node lat="60.19310000016949" lon="7.069183338972876" id="-34713">
		<tag k="man_made" v="cairn" />
		<tag k="name" v="Hårteigen" />
		<tag k="place" v="locality" />
		<tag k="ssr:date" v="2019-12-27" />
		<tag k="ssr:gruppe" v="navigasjon" />
		<tag k="ssr:hovedgruppe" v="infrastruktur" />
		<tag k="ssr:stedsnr" v="111314" />
		<tag k="ssr:type" v="varde" />
	</node>
	<node lat="60.01428055224445" lon="6.5855750089366225" id="-34714">
		<tag k="fixme" v="consider natural=peak for the most distinct mountains in the district" />
		<tag k="name" v="Eidesfjellet" />
		<tag k="natural" v="hill" />
		<tag k="place" v="locality" />
		<tag k="ssr:date" v="2019-12-27" />
		<tag k="ssr:gruppe" v="høyder" />
		<tag k="ssr:hovedgruppe" v="terreng" />
		<tag k="ssr:stedsnr" v="125016" />
		<tag k="ssr:type" v="ås" />
	</node>
	<node lat="60.014069448317464" lon="6.489424994221769" id="-34715">
		<tag k="name" v="Kvanndalsvatn" />
		<tag k="natural" v="water" />
		<tag k="ssr:date" v="2019-12-27" />
		<tag k="ssr:gruppe" v="stilleståendeVann" />
		<tag k="ssr:hovedgruppe" v="ferskvann" />
		<tag k="ssr:stedsnr" v="125018" />
		<tag k="ssr:type" v="tjern" />
	</node>
	<node lat="60.01391090734043" lon="6.458513439708205" id="-34716">
		<tag k="name" v="Blåvatn" />
		<tag k="natural" v="water" />
		<tag k="ssr:date" v="2019-12-27" />
		<tag k="ssr:gruppe" v="stilleståendeVann" />
		<tag k="ssr:hovedgruppe" v="ferskvann" />
		<tag k="ssr:stedsnr" v="125023" />
		<tag k="ssr:type" v="tjern" />
	</node>
	<node lat="60.05352222222411" lon="6.557372217214169" id="-34717">
		<tag k="fixme" v="consider place=hamlet" />
		<tag k="name" v="Vasstun" />
		<tag k="place" v="farm" />
		<tag k="ssr:date" v="2019-12-27" />
		<tag k="ssr:gruppe" v="gardsbebyggelse" />
		<tag k="ssr:hovedgruppe" v="bebyggelse" />
		<tag k="ssr:stedsnr" v="125055" />
		<tag k="ssr:type" v="gard" />
	</node>
	<node lat="60.050644445739934" lon="6.499041674978711" id="-34718">
		<tag k="name" v="Bjørnskortinden" />
		<tag k="natural" v="hill" />
		<tag k="place" v="locality" />
		<tag k="ssr:date" v="2019-12-27" />
		<tag k="ssr:gruppe" v="høyder" />
		<tag k="ssr:hovedgruppe" v="terreng" />
		<tag k="ssr:stedsnr" v="125064" />
		<tag k="ssr:type" v="haug" />
	</node>
	<node lat="60.05310000158375" lon="6.455252786479415" id="-34719">
		<tag k="name" v="Såta" />
		<tag k="natural" v="hill" />
		<tag k="place" v="locality" />
		<tag k="ssr:date" v="2019-12-27" />
		<tag k="ssr:gruppe" v="høyder" />
		<tag k="ssr:hovedgruppe" v="terreng" />
		<tag k="ssr:stedsnr" v="125067" />
		<tag k="ssr:type" v="haug" />
	</node>
	<node lat="59.987763888953005" lon="6.823825003085623" id="-34720">
		<tag k="name" v="Isvassnutane" />
		<tag k="natural" v="hill" />
		<tag k="place" v="locality" />
		<tag k="ssr:date" v="2021-06-08" />
		<tag k="ssr:gruppe" v="høyder" />
		<tag k="ssr:hovedgruppe" v="terreng" />
		<tag k="ssr:stedsnr" v="125107" />
		<tag k="ssr:type" v="berg" />
	</node>
	<node lat="59.97746666756637" lon="6.664394453054361" id="-34721">
		<tag k="fixme" v="consider natural=peak for the most distinct mountains in the district" />
		<tag k="name" v="Bunuten" />
		<tag k="natural" v="hill" />
		<tag k="place" v="locality" />
		<tag k="ssr:date" v="2021-06-08" />
		<tag k="ssr:gruppe" v="høyder" />
		<tag k="ssr:hovedgruppe" v="terreng" />
		<tag k="ssr:stedsnr" v="125110" />
		<tag k="ssr:type" v="ås" />
	</node>
	<node lat="59.83085041142535" lon="6.822734924041018" id="-34722">
		<tag k="alt_name" v="Røldal" />
		<tag k="amenity" v="place_of_worship" />
		<tag k="denomination" v="lutheran" />
		<tag k="name" v="Røldal stavkyrkje" />
		<tag k="religion" v="christian" />
		<tag k="ssr:date" v="2021-02-08" />
		<tag k="ssr:gruppe" v="kulturinstitusjoner" />
		<tag k="ssr:hovedgruppe" v="kultur" />
		<tag k="ssr:stedsnr" v="125255" />
		<tag k="ssr:type" v="kirke" />
	</node>
	<node lat="60.05394181494776" lon="6.6631236768552125" id="-34723">
		<tag k="name" v="Vetlatjørn" />
		<tag k="natural" v="water" />
		<tag k="ssr:date" v="2021-06-08" />
		<tag k="ssr:gruppe" v="stilleståendeVann" />
		<tag k="ssr:hovedgruppe" v="ferskvann" />
		<tag k="ssr:stedsnr" v="125410" />
		<tag k="ssr:type" v="tjern" />
	</node>
	<node lat="59.99784444626222" lon="6.515388882606645" id="-34724">
		<tag k="name" v="Midtstølsbekken" />
		<tag k="ssr:date" v="2019-12-27" />
		<tag k="ssr:gruppe" v="rennendeVann" />
		<tag k="ssr:hovedgruppe" v="ferskvann" />
		<tag k="ssr:stedsnr" v="125430" />
		<tag k="ssr:type" v="bekk" />
		<tag k="waterway" v="stream" />
	</node>
	<node lat="59.98222222408799" lon="6.51908889613046" id="-34725">
		<tag k="name" v="Årebukti" />
		<tag k="place" v="locality" />
		<tag k="ssr:date" v="2019-12-27" />
		<tag k="ssr:gruppe" v="rennendeVann" />
		<tag k="ssr:hovedgruppe" v="ferskvann" />
		<tag k="ssr:stedsnr" v="125431" />
		<tag k="ssr:type" v="høl" />
	</node>
	<node lat="60.12425833632159" lon="6.600944442614126" id="-34726">
		<tag k="name" v="Svelgarhaugen" />
		<tag k="natural" v="hill" />
		<tag k="place" v="locality" />
		<tag k="ssr:date" v="2019-12-27" />
		<tag k="ssr:gruppe" v="høyder" />
		<tag k="ssr:hovedgruppe" v="terreng" />
		<tag k="ssr:stedsnr" v="125434" />
		<tag k="ssr:type" v="haug" />
	</node>
	<node lat="59.98951154097831" lon="6.565373308244785" id="-34727">
		<tag k="alt_name" v="Orøyni" />
		<tag k="name" v="Orrøyna" />
		<tag k="place" v="island" />
		<tag k="ssr:date" v="2019-12-27" />
		<tag k="ssr:gruppe" v="ferskvannskontur" />
		<tag k="ssr:hovedgruppe" v="ferskvann" />
		<tag k="ssr:stedsnr" v="125437" />
		<tag k="ssr:type" v="øy" />
	</node>
	<node lat="59.98763506141539" lon="6.5251603547783645" id="-34728">
		<tag k="name" v="Midtstølsvatnet" />
		<tag k="natural" v="water" />
		<tag k="ssr:date" v="2019-12-27" />
		<tag k="ssr:gruppe" v="stilleståendeVann" />
		<tag k="ssr:hovedgruppe" v="ferskvann" />
		<tag k="ssr:stedsnr" v="125439" />
		<tag k="ssr:type" v="vann" />
		<tag k="water" v="lake" />
	</node>
	<node lat="60.106064314988075" lon="6.928595188536359" id="-34729">
		<tag k="name" v="Nedsta Håvardsvatnet" />
		<tag k="natural" v="water" />
		<tag k="ssr:date" v="2021-06-08" />
		<tag k="ssr:gruppe" v="stilleståendeVann" />
		<tag k="ssr:hovedgruppe" v="ferskvann" />
		<tag k="ssr:stedsnr" v="125451" />
		<tag k="ssr:type" v="vann" />
		<tag k="water" v="lake" />
	</node>
	<node lat="60.10141828222201" lon="6.746469429009465" id="-34730">
		<tag k="name" v="Floren" />
		<tag k="natural" v="valley" />
		<tag k="place" v="locality" />
		<tag k="ssr:date" v="2021-06-16" />
		<tag k="ssr:gruppe" v="senkninger" />
		<tag k="ssr:hovedgruppe" v="terreng" />
		<tag k="ssr:stedsnr" v="125455" />
		<tag k="ssr:type" v="botn" />
	</node>
	<node lat="60.11475833403469" lon="6.9373972299527065" id="-34731">
		<tag k="fixme" v="consider natural=peak for the most distinct mountains in the district" />
		<tag k="name" v="Bakkanuten" />
		<tag k="natural" v="hill" />
		<tag k="place" v="locality" />
		<tag k="ssr:date" v="2021-06-08" />
		<tag k="ssr:gruppe" v="høyder" />
		<tag k="ssr:hovedgruppe" v="terreng" />
		<tag k="ssr:stedsnr" v="125457" />
		<tag k="ssr:type" v="topp" />
	</node>
	<node lat="59.96753889257324" lon="6.572116673616894" id="-34732">
		<tag k="fixme" v="consider place=hamlet" />
		<tag k="name" v="Grønsdal" />
		<tag k="place" v="farm" />
		<tag k="ssr:date" v="2019-12-27" />
		<tag k="ssr:gruppe" v="gardsbebyggelse" />
		<tag k="ssr:hovedgruppe" v="bebyggelse" />
		<tag k="ssr:stedsnr" v="125458" />
		<tag k="ssr:type" v="gard" />
	</node>
	<node lat="59.9206583308494" lon="6.6744916753249095" id="-34733">
		<tag k="fixme" v="consider natural=peak for the most distinct mountains in the district" />
		<tag k="name" v="Grøneggi" />
		<tag k="natural" v="hill" />
		<tag k="place" v="locality" />
		<tag k="ssr:date" v="2021-06-08" />
		<tag k="ssr:gruppe" v="høyder" />
		<tag k="ssr:hovedgruppe" v="terreng" />
		<tag k="ssr:stedsnr" v="125198" />
		<tag k="ssr:type" v="ås" />
	</node>
	<node lat="59.93134999994207" lon="6.882649996006565" id="-34734">
		<tag k="name" v="Holdøledalen" />
		<tag k="natural" v="valley" />
		<tag k="place" v="locality" />
		<tag k="ssr:date" v="2021-06-08" />
		<tag k="ssr:gruppe" v="senkninger" />
		<tag k="ssr:hovedgruppe" v="terreng" />
		<tag k="ssr:stedsnr" v="125200" />
		<tag k="ssr:type" v="dal" />
	</node>
	<node lat="60.11645000173818" lon="7.169575006496224" id="-34735">
		<tag k="name" v="Ambjørgsfljåna" />
		<tag k="place" v="locality" />
		<tag k="ssr:date" v="2021-06-08" />
		<tag k="ssr:gruppe" v="flater" />
		<tag k="ssr:hovedgruppe" v="terreng" />
		<tag k="ssr:stedsnr" v="125302" />
		<tag k="ssr:type" v="slette" />
	</node>
	<node lat="60.13340832971344" lon="7.220863889960161" id="-34736">
		<tag k="fixme" v="consider natural=peak for the most distinct mountains in the district" />
		<tag k="name" v="Flautenuten" />
		<tag k="natural" v="hill" />
		<tag k="place" v="locality" />
		<tag k="ssr:date" v="2019-12-27" />
		<tag k="ssr:gruppe" v="høyder" />
		<tag k="ssr:hovedgruppe" v="terreng" />
		<tag k="ssr:stedsnr" v="125307" />
		<tag k="ssr:type" v="fjell" />
	</node>
	<node lat="59.90966110797732" lon="6.53631388510079" id="-34737">
		<tag k="alt_name" v="Vassviki" />
		<tag k="fixme" v="consider place=hamlet" />
		<tag k="name" v="Vassvik" />
		<tag k="place" v="farm" />
		<tag k="ssr:date" v="2019-12-27" />
		<tag k="ssr:gruppe" v="gardsbebyggelse" />
		<tag k="ssr:hovedgruppe" v="bebyggelse" />
		<tag k="ssr:stedsnr" v="125497" />
		<tag k="ssr:type" v="gard" />
	</node>
	<node lat="59.792950157194355" lon="6.701159522151015" id="-34738">
		<tag k="name" v="Langetjørn" />
		<tag k="natural" v="water" />
		<tag k="ssr:date" v="2021-06-08" />
		<tag k="ssr:gruppe" v="stilleståendeVann" />
		<tag k="ssr:hovedgruppe" v="ferskvann" />
		<tag k="ssr:stedsnr" v="125802" />
		<tag k="ssr:type" v="tjern" />
	</node>
	<node lat="59.77550000223438" lon="6.792200008244142" id="-34739">
		<tag k="name" v="Huskakk" />
		<tag k="place" v="farm" />
		<tag k="ssr:date" v="2021-06-08" />
		<tag k="ssr:gruppe" v="gardsbebyggelse" />
		<tag k="ssr:hovedgruppe" v="bebyggelse" />
		<tag k="ssr:stedsnr" v="125821" />
		<tag k="ssr:type" v="bruk" />
	</node>
</osm>
