<?xml version="1.0" encoding="UTF-8"?>
<osm generator="osmapis" version="0.6">
	<node id="-30394" lat="59.9246055526" lon="10.9655055599">
		<tag k="amenity" v="school" />
		<tag k="old_name" v="Sk책rer책sen skole" />
		<tag k="ssr:date" v="2019-12-27" />
		<tag k="ssr:gruppe" v="institusjoner" />
		<tag k="ssr:hovedgruppe" v="bebyggelse" />
		<tag k="ssr:stedsnr" v="691936" />
		<tag k="ssr:type" v="skole" />
	</node>
	<node id="-30297" lat="59.9391388897" lon="10.9930472306">
		<tag k="layer" v="-1" />
		<tag k="old_name" v="Bl책kollen III" />
		<tag k="ssr:date" v="2019-12-27" />
		<tag k="ssr:gruppe" v="samferdselsanlegg" />
		<tag k="ssr:hovedgruppe" v="infrastruktur" />
		<tag k="ssr:stedsnr" v="287155" />
		<tag k="ssr:type" v="tunnel" />
		<tag k="tunnel" v="yes" />
	</node>
	<node id="-30509" lat="59.9392972196" lon="10.9464527753">
		<tag k="old_name" v="Rufsrud;Robsrud" />
		<tag k="place" v="farm" />
		<tag k="ssr:date" v="2019-12-27" />
		<tag k="ssr:gruppe" v="gardsbebyggelse" />
		<tag k="ssr:hovedgruppe" v="bebyggelse" />
		<tag k="ssr:stedsnr" v="65047" />
		<tag k="ssr:type" v="bruk" />
	</node>
	<node id="-30764" lat="59.9422650257" lon="10.9797782669">
		<tag k="amenity" v="place_of_worship" />
		<tag k="denomination" v="lutheran" />
		<tag k="loc_name" v="Fjellhamar kirke" />
		<tag k="religion" v="christian" />
		<tag k="ssr:date" v="2019-12-27" />
		<tag k="ssr:gruppe" v="kulturinstitusjoner" />
		<tag k="ssr:hovedgruppe" v="kultur" />
		<tag k="ssr:stedsnr" v="990993" />
		<tag k="ssr:type" v="kirke" />
	</node>
	<node id="-30442" lat="59.9314277789" lon="10.9938111183">
		<tag k="amenity" v="nursing_home" />
		<tag k="old_name" v="Barneverninstituttet" />
		<tag k="ssr:date" v="2019-12-27" />
		<tag k="ssr:gruppe" v="institusjoner" />
		<tag k="ssr:hovedgruppe" v="bebyggelse" />
		<tag k="ssr:stedsnr" v="934578" />
		<tag k="ssr:type" v="helseinstitusjon" />
	</node>
	<node id="-30627" lat="59.9405619892" lon="10.9929960314">
		<tag k="layer" v="-1" />
		<tag k="old_name" v="Bl책kollen" />
		<tag k="ssr:date" v="2020-01-28" />
		<tag k="ssr:gruppe" v="samferdselsanlegg" />
		<tag k="ssr:hovedgruppe" v="infrastruktur" />
		<tag k="ssr:stedsnr" v="529135" />
		<tag k="ssr:type" v="tunnel" />
		<tag k="tunnel" v="yes" />
	</node>
</osm>
