<?xml version="1.0" encoding="UTF-8"?>
<osm generator="osmapis" version="0.6">
	<node id="-257024" lat="59.838205628" lon="11.0462353134">
		<tag k="fixme" v="consider boundary=protected_area and relevant protect_class if not nature reserve" />
		<tag k="leisure" v="nature_reserve" />
		<tag k="name" v="Østmarka naturreservat" />
		<tag k="ssr:date" v="2020-06-09" />
		<tag k="ssr:gruppe" v="verne-OgBruksområder" />
		<tag k="ssr:hovedgruppe" v="offentligAdministrasjon" />
		<tag k="ssr:stedsnr" v="972728" />
		<tag k="ssr:type" v="verneområde" />
	</node>
	<node id="-257023" lat="59.8443277761" lon="10.9262416615">
		<tag k="alt_name" v="Svanefoss" />
		<tag k="name" v="Svanefossen" />
		<tag k="natural" v="waterfall" />
		<tag k="ssr:date" v="2020-06-08" />
		<tag k="ssr:gruppe" v="rennendeVann" />
		<tag k="ssr:hovedgruppe" v="ferskvann" />
		<tag k="ssr:stedsnr" v="509902" />
		<tag k="ssr:type" v="foss" />
	</node>
	<node id="-257018" lat="59.9055360192" lon="11.0288106148">
		<tag k="alt_name" v="Blåtjern" />
		<tag k="name" v="Blåtjernet" />
		<tag k="natural" v="water" />
		<tag k="ssr:date" v="2020-05-07" />
		<tag k="ssr:gruppe" v="stilleståendeVann" />
		<tag k="ssr:hovedgruppe" v="ferskvann" />
		<tag k="ssr:stedsnr" v="430062" />
		<tag k="ssr:type" v="tjern" />
	</node>
	<node id="-257016" lat="59.8719916652" lon="10.9762557439">
		<tag k="fixme" v="consider tourism=alpine_hut or tourism=chalet" />
		<tag k="name" v="Fiskelaushytta" />
		<tag k="ssr:date" v="2020-02-06" />
		<tag k="ssr:gruppe" v="næring" />
		<tag k="ssr:hovedgruppe" v="bebyggelse" />
		<tag k="ssr:stedsnr" v="1074880" />
		<tag k="ssr:type" v="turisthytte" />
		<tag k="tourism" v="wilderness_hut" />
	</node>
	<node id="-257000" lat="59.9422650257" lon="10.9797782669">
		<tag k="amenity" v="place_of_worship" />
		<tag k="denomination" v="lutheran" />
		<tag k="name" v="Fjellhamar kirke" />
		<tag k="religion" v="christian" />
		<tag k="ssr:date" v="2019-12-27" />
		<tag k="ssr:gruppe" v="kulturinstitusjoner" />
		<tag k="ssr:hovedgruppe" v="kultur" />
		<tag k="ssr:stedsnr" v="990993" />
		<tag k="ssr:type" v="kirke" />
	</node>
	<node id="-256999" lat="59.9455388861" lon="10.9520472206">
		<tag k="name" v="Ødegården" />
		<tag k="place" v="quarter" />
		<tag k="ssr:date" v="2019-12-27" />
		<tag k="ssr:gruppe" v="bebyggelsesområder" />
		<tag k="ssr:hovedgruppe" v="bebyggelse" />
		<tag k="ssr:stedsnr" v="968134" />
		<tag k="ssr:type" v="tettsteddel" />
	</node>
	<node id="-256998" lat="59.9310277749" lon="10.967086108">
		<tag k="bridge" v="yes" />
		<tag k="layer" v="1" />
		<tag k="name" v="Knatten" />
		<tag k="ssr:date" v="2019-12-27" />
		<tag k="ssr:gruppe" v="samferdselsanlegg" />
		<tag k="ssr:hovedgruppe" v="infrastruktur" />
		<tag k="ssr:stedsnr" v="956029" />
		<tag k="ssr:type" v="bru" />
	</node>
	<node id="-256997" lat="59.9427805565" lon="10.9915861185">
		<tag k="bridge" v="yes" />
		<tag k="layer" v="1" />
		<tag k="name" v="Fjellhamarelva" />
		<tag k="ssr:date" v="2019-12-27" />
		<tag k="ssr:gruppe" v="samferdselsanlegg" />
		<tag k="ssr:hovedgruppe" v="infrastruktur" />
		<tag k="ssr:stedsnr" v="956028" />
		<tag k="ssr:type" v="bru" />
	</node>
	<node id="-256996" lat="59.9184888905" lon="10.9528555555">
		<tag k="name" v="Triaden" />
		<tag k="place" v="quarter" />
		<tag k="ssr:date" v="2019-12-27" />
		<tag k="ssr:gruppe" v="bebyggelsesområder" />
		<tag k="ssr:hovedgruppe" v="bebyggelse" />
		<tag k="ssr:stedsnr" v="873997" />
		<tag k="ssr:type" v="industriområde" />
	</node>
	<node id="-256995" lat="59.8998722217" lon="11.004691673">
		<tag k="name" v="Odølingsmyra" />
		<tag k="natural" v="wetland" />
		<tag k="ssr:date" v="2019-12-27" />
		<tag k="ssr:gruppe" v="våtmark" />
		<tag k="ssr:hovedgruppe" v="markslag" />
		<tag k="ssr:stedsnr" v="873890" />
		<tag k="ssr:type" v="myr" />
	</node>
	<node id="-256994" lat="59.8642388847" lon="10.9194027829">
		<tag k="name" v="Aslakstomta" />
		<tag k="place" v="locality" />
		<tag k="ssr:date" v="2019-12-27" />
		<tag k="ssr:gruppe" v="dyrkamark" />
		<tag k="ssr:hovedgruppe" v="markslag" />
		<tag k="ssr:stedsnr" v="873880" />
		<tag k="ssr:type" v="utmark" />
	</node>
	<node id="-256993" lat="59.9100972202" lon="11.000077772">
		<tag k="name" v="Tømmerholen" />
		<tag k="place" v="locality" />
		<tag k="ssr:date" v="2019-12-27" />
		<tag k="ssr:gruppe" v="dyrkamark" />
		<tag k="ssr:hovedgruppe" v="markslag" />
		<tag k="ssr:stedsnr" v="873877" />
		<tag k="ssr:type" v="utmark" />
	</node>
	<node id="-256992" lat="59.9280888919" lon="10.938838883">
		<tag k="name" v="Bråten" />
		<tag k="place" v="locality" />
		<tag k="ssr:date" v="2019-12-27" />
		<tag k="ssr:gruppe" v="bolighus" />
		<tag k="ssr:hovedgruppe" v="bebyggelse" />
		<tag k="ssr:stedsnr" v="873638" />
		<tag k="ssr:type" v="gammelBosettingsplass" />
	</node>
	<node id="-256991" lat="59.9291638931" lon="10.9641555519">
		<tag k="name" v="Skårås" />
		<tag k="place" v="locality" />
		<tag k="ssr:date" v="2019-12-27" />
		<tag k="ssr:gruppe" v="bolighus" />
		<tag k="ssr:hovedgruppe" v="bebyggelse" />
		<tag k="ssr:stedsnr" v="873637" />
		<tag k="ssr:type" v="gammelBosettingsplass" />
	</node>
	<node id="-256990" lat="59.8770194479" lon="11.0041750062">
		<tag k="name" v="Putten" />
		<tag k="natural" v="water" />
		<tag k="ssr:date" v="2019-12-27" />
		<tag k="ssr:gruppe" v="stilleståendeVann" />
		<tag k="ssr:hovedgruppe" v="ferskvann" />
		<tag k="ssr:stedsnr" v="873132" />
		<tag k="ssr:type" v="tjern" />
	</node>
	<node id="-256989" lat="59.9144472193" lon="10.993902783">
		<tag k="name" v="Toppberget" />
		<tag k="natural" v="hill" />
		<tag k="place" v="locality" />
		<tag k="ssr:date" v="2019-12-27" />
		<tag k="ssr:gruppe" v="høyder" />
		<tag k="ssr:hovedgruppe" v="terreng" />
		<tag k="ssr:stedsnr" v="873045" />
		<tag k="ssr:type" v="berg" />
	</node>
	<node id="-256988" lat="59.909661112" lon="10.9908000057">
		<tag k="name" v="Kleiva" />
		<tag k="natural" v="valley" />
		<tag k="place" v="locality" />
		<tag k="ssr:date" v="2019-12-27" />
		<tag k="ssr:gruppe" v="senkninger" />
		<tag k="ssr:hovedgruppe" v="terreng" />
		<tag k="ssr:stedsnr" v="873102" />
		<tag k="ssr:type" v="dal" />
	</node>
	<node id="-256987" lat="59.9007222263" lon="10.9895916721">
		<tag k="name" v="Bakkeruddalen" />
		<tag k="natural" v="valley" />
		<tag k="place" v="locality" />
		<tag k="ssr:date" v="2019-12-27" />
		<tag k="ssr:gruppe" v="senkninger" />
		<tag k="ssr:hovedgruppe" v="terreng" />
		<tag k="ssr:stedsnr" v="873100" />
		<tag k="ssr:type" v="dal" />
	</node>
	<node id="-256986" lat="59.9239416688" lon="10.9710555534">
		<tag k="name" v="Søndre Nordli" />
		<tag k="place" v="farm" />
		<tag k="ssr:date" v="2019-12-27" />
		<tag k="ssr:gruppe" v="gardsbebyggelse" />
		<tag k="ssr:hovedgruppe" v="bebyggelse" />
		<tag k="ssr:stedsnr" v="873096" />
		<tag k="ssr:type" v="bruk" />
	</node>
	<node id="-256985" lat="59.8726583299" lon="11.0113527719">
		<tag k="alt_name" v="Gjerterudlia" />
		<tag k="name" v="Gjertrudlia" />
		<tag k="natural" v="slope" />
		<tag k="place" v="locality" />
		<tag k="ssr:date" v="2019-12-27" />
		<tag k="ssr:gruppe" v="skråninger" />
		<tag k="ssr:hovedgruppe" v="terreng" />
		<tag k="ssr:stedsnr" v="873092" />
		<tag k="ssr:type" v="li" />
	</node>
	<node id="-256984" lat="59.9099583377" lon="11.0078222175">
		<tag k="fixme" v="consider natural=peak for the most distinct mountains in the district" />
		<tag k="name" v="Tordenås" />
		<tag k="natural" v="hill" />
		<tag k="place" v="locality" />
		<tag k="ssr:date" v="2019-12-27" />
		<tag k="ssr:gruppe" v="høyder" />
		<tag k="ssr:hovedgruppe" v="terreng" />
		<tag k="ssr:stedsnr" v="873083" />
		<tag k="ssr:type" v="ås" />
	</node>
	<node id="-256983" lat="59.9469694401" lon="10.968541672">
		<tag k="fixme" v="consider natural=peak for the most distinct mountains in the district" />
		<tag k="name" v="Haneborgåsen" />
		<tag k="natural" v="hill" />
		<tag k="place" v="locality" />
		<tag k="ssr:date" v="2019-12-27" />
		<tag k="ssr:gruppe" v="høyder" />
		<tag k="ssr:hovedgruppe" v="terreng" />
		<tag k="ssr:stedsnr" v="873074" />
		<tag k="ssr:type" v="ås" />
	</node>
	<node id="-256982" lat="59.8769777756" lon="10.9860277779">
		<tag k="fixme" v="consider natural=peak for the most distinct mountains in the district" />
		<tag k="name" v="Løkkåsen" />
		<tag k="natural" v="hill" />
		<tag k="place" v="locality" />
		<tag k="ssr:date" v="2019-12-27" />
		<tag k="ssr:gruppe" v="høyder" />
		<tag k="ssr:hovedgruppe" v="terreng" />
		<tag k="ssr:stedsnr" v="873071" />
		<tag k="ssr:type" v="ås" />
	</node>
	<node id="-256981" lat="59.8729777746" lon="11.0018833289">
		<tag k="fixme" v="consider natural=peak for the most distinct mountains in the district" />
		<tag k="name" v="Finnlandsåsen" />
		<tag k="natural" v="hill" />
		<tag k="place" v="locality" />
		<tag k="ssr:date" v="2019-12-27" />
		<tag k="ssr:gruppe" v="høyder" />
		<tag k="ssr:hovedgruppe" v="terreng" />
		<tag k="ssr:stedsnr" v="873067" />
		<tag k="ssr:type" v="ås" />
	</node>
	<node id="-256980" lat="59.9039444483" lon="10.9219472256">
		<tag k="fixme" v="consider natural=peak for the most distinct mountains in the district" />
		<tag k="name" v="Brennåsen" />
		<tag k="natural" v="hill" />
		<tag k="place" v="locality" />
		<tag k="ssr:date" v="2019-12-27" />
		<tag k="ssr:gruppe" v="høyder" />
		<tag k="ssr:hovedgruppe" v="terreng" />
		<tag k="ssr:stedsnr" v="873063" />
		<tag k="ssr:type" v="ås" />
	</node>
	<node id="-256979" lat="59.9174861069" lon="10.9491249919">
		<tag k="name" v="Benterud" />
		<tag k="place" v="farm" />
		<tag k="ssr:date" v="2019-12-27" />
		<tag k="ssr:gruppe" v="gardsbebyggelse" />
		<tag k="ssr:hovedgruppe" v="bebyggelse" />
		<tag k="ssr:stedsnr" v="854014" />
		<tag k="ssr:type" v="bruk" />
	</node>
	<node id="-256978" lat="59.8633666696" lon="10.9697666617">
		<tag k="alt_name" v="Drettvann" />
		<tag k="name" v="Drettvannet" />
		<tag k="natural" v="water" />
		<tag k="old_name" v="Dretvatn" />
		<tag k="ssr:date" v="2019-12-27" />
		<tag k="ssr:gruppe" v="stilleståendeVann" />
		<tag k="ssr:hovedgruppe" v="ferskvann" />
		<tag k="ssr:stedsnr" v="854125" />
		<tag k="ssr:type" v="vann" />
		<tag k="water" v="lake" />
	</node>
	<node id="-256977" lat="59.9361083345" lon="10.9664027784">
		<tag k="name" v="Fjellhamarskogen" />
		<tag k="place" v="quarter" />
		<tag k="ssr:date" v="2019-12-27" />
		<tag k="ssr:gruppe" v="bebyggelsesområder" />
		<tag k="ssr:hovedgruppe" v="bebyggelse" />
		<tag k="ssr:stedsnr" v="830044" />
		<tag k="ssr:type" v="tettsteddel" />
	</node>
	<node id="-256976" lat="59.8455805573" lon="10.9806222238">
		<tag k="fixme" v="consider natural=peak for the most distinct mountains in the district" />
		<tag k="name" v="Liseterkollen" />
		<tag k="natural" v="hill" />
		<tag k="place" v="locality" />
		<tag k="ssr:date" v="2019-12-27" />
		<tag k="ssr:gruppe" v="høyder" />
		<tag k="ssr:hovedgruppe" v="terreng" />
		<tag k="ssr:stedsnr" v="817811" />
		<tag k="ssr:type" v="ås" />
	</node>
	<node id="-256975" lat="59.9200666706" lon="10.9518361065">
		<tag k="name" v="Skårer vest" />
		<tag k="place" v="quarter" />
		<tag k="ssr:date" v="2019-12-27" />
		<tag k="ssr:gruppe" v="bebyggelsesområder" />
		<tag k="ssr:hovedgruppe" v="bebyggelse" />
		<tag k="ssr:stedsnr" v="813000" />
		<tag k="ssr:type" v="industriområde" />
	</node>
	<node id="-256974" lat="59.9047305559" lon="10.9525944392">
		<tag k="name" v="Søndre Hauger" />
		<tag k="place" v="farm" />
		<tag k="ssr:date" v="2019-12-27" />
		<tag k="ssr:gruppe" v="gardsbebyggelse" />
		<tag k="ssr:hovedgruppe" v="bebyggelse" />
		<tag k="ssr:stedsnr" v="812988" />
		<tag k="ssr:type" v="bruk" />
	</node>
	<node id="-256973" lat="59.8968416655" lon="10.9584277798">
		<tag k="name" v="Vålerenga" />
		<tag k="place" v="farm" />
		<tag k="ssr:date" v="2019-12-27" />
		<tag k="ssr:gruppe" v="gardsbebyggelse" />
		<tag k="ssr:hovedgruppe" v="bebyggelse" />
		<tag k="ssr:stedsnr" v="812987" />
		<tag k="ssr:type" v="bruk" />
	</node>
	<node id="-256972" lat="59.9239249995" lon="10.9939361169">
		<tag k="name" v="Østheim" />
		<tag k="place" v="farm" />
		<tag k="ssr:date" v="2019-12-27" />
		<tag k="ssr:gruppe" v="gardsbebyggelse" />
		<tag k="ssr:hovedgruppe" v="bebyggelse" />
		<tag k="ssr:stedsnr" v="812985" />
		<tag k="ssr:type" v="bruk" />
	</node>
	<node id="-256971" lat="59.9356166669" lon="11.0034388871">
		<tag k="name" v="Sletten" />
		<tag k="place" v="farm" />
		<tag k="ssr:date" v="2019-12-27" />
		<tag k="ssr:gruppe" v="gardsbebyggelse" />
		<tag k="ssr:hovedgruppe" v="bebyggelse" />
		<tag k="ssr:stedsnr" v="812983" />
		<tag k="ssr:type" v="bruk" />
	</node>
	<node id="-256970" lat="59.9194222179" lon="10.9977499993">
		<tag k="name" v="Store Stensrud" />
		<tag k="place" v="farm" />
		<tag k="ssr:date" v="2019-12-27" />
		<tag k="ssr:gruppe" v="gardsbebyggelse" />
		<tag k="ssr:hovedgruppe" v="bebyggelse" />
		<tag k="ssr:stedsnr" v="812981" />
		<tag k="ssr:type" v="bruk" />
	</node>
	<node id="-256969" lat="59.8990527742" lon="10.9685611112">
		<tag k="name" v="Vålerhagan" />
		<tag k="place" v="farm" />
		<tag k="ssr:date" v="2019-12-27" />
		<tag k="ssr:gruppe" v="gardsbebyggelse" />
		<tag k="ssr:hovedgruppe" v="bebyggelse" />
		<tag k="ssr:stedsnr" v="812977" />
		<tag k="ssr:type" v="bruk" />
	</node>
	<node id="-256968" lat="59.8549249961" lon="11.0011138932">
		<tag k="historic" v="shieling" />
		<tag k="name" v="Feiringsetra" />
		<tag k="place" v="locality" />
		<tag k="ssr:date" v="2019-12-27" />
		<tag k="ssr:gruppe" v="gardsbebyggelse" />
		<tag k="ssr:hovedgruppe" v="bebyggelse" />
		<tag k="ssr:stedsnr" v="812958" />
		<tag k="ssr:type" v="seterStøl" />
	</node>
	<node id="-256967" lat="59.9244249975" lon="10.9980249946">
		<tag k="amenity" v="nursing_home" />
		<tag k="name" v="Østbytunet behandlingshjem" />
		<tag k="ssr:date" v="2019-12-27" />
		<tag k="ssr:gruppe" v="institusjoner" />
		<tag k="ssr:hovedgruppe" v="bebyggelse" />
		<tag k="ssr:stedsnr" v="812951" />
		<tag k="ssr:type" v="helseinstitusjon" />
	</node>
	<node id="-256966" lat="59.8711500027" lon="10.9679277819">
		<tag k="name" v="Flaskemyra" />
		<tag k="natural" v="wetland" />
		<tag k="ssr:date" v="2019-12-27" />
		<tag k="ssr:gruppe" v="våtmark" />
		<tag k="ssr:hovedgruppe" v="markslag" />
		<tag k="ssr:stedsnr" v="812914" />
		<tag k="ssr:type" v="myr" />
	</node>
	<node id="-256965" lat="59.8775138896" lon="10.9496722308">
		<tag k="name" v="Lombardiet" />
		<tag k="place" v="locality" />
		<tag k="ssr:date" v="2019-12-27" />
		<tag k="ssr:gruppe" v="dyrkamark" />
		<tag k="ssr:hovedgruppe" v="markslag" />
		<tag k="ssr:stedsnr" v="812899" />
		<tag k="ssr:type" v="utmark" />
	</node>
	<node id="-256964" lat="59.8608694466" lon="10.9854361118">
		<tag k="name" v="Femtiliteren" />
		<tag k="place" v="locality" />
		<tag k="ssr:date" v="2019-12-27" />
		<tag k="ssr:gruppe" v="dyrkamark" />
		<tag k="ssr:hovedgruppe" v="markslag" />
		<tag k="ssr:stedsnr" v="812896" />
		<tag k="ssr:type" v="utmark" />
	</node>
	<node id="-256963" lat="59.9290250034" lon="10.9874250004">
		<tag k="name" v="Torshovbråten" />
		<tag k="place" v="locality" />
		<tag k="ssr:date" v="2019-12-27" />
		<tag k="ssr:gruppe" v="bolighus" />
		<tag k="ssr:hovedgruppe" v="bebyggelse" />
		<tag k="ssr:stedsnr" v="812697" />
		<tag k="ssr:type" v="gammelBosettingsplass" />
	</node>
	<node id="-256962" lat="59.9243500019" lon="10.9479805508">
		<tag k="leisure" v="pitch" />
		<tag k="name" v="Rolvsrud idrettsplass" />
		<tag k="ssr:date" v="2019-12-27" />
		<tag k="ssr:gruppe" v="fritidsanlegg" />
		<tag k="ssr:hovedgruppe" v="bebyggelse" />
		<tag k="ssr:stedsnr" v="812675" />
		<tag k="ssr:type" v="idrettsanlegg" />
	</node>
	<node id="-256961" lat="59.905305554" lon="10.9427472214">
		<tag k="name" v="Bekkensten" />
		<tag k="place" v="locality" />
		<tag k="ssr:date" v="2019-12-27" />
		<tag k="ssr:gruppe" v="bolighus" />
		<tag k="ssr:hovedgruppe" v="bebyggelse" />
		<tag k="ssr:stedsnr" v="812666" />
		<tag k="ssr:type" v="gammelBosettingsplass" />
	</node>
	<node id="-256960" lat="59.8600277804" lon="10.9998638893">
		<tag k="name" v="Knurra" />
		<tag k="natural" v="strait" />
		<tag k="ssr:date" v="2019-12-27" />
		<tag k="ssr:gruppe" v="ferskvannskontur" />
		<tag k="ssr:hovedgruppe" v="ferskvann" />
		<tag k="ssr:stedsnr" v="812149" />
		<tag k="ssr:type" v="sund" />
	</node>
	<node id="-256959" lat="59.8781777822" lon="10.9516194365">
		<tag k="name" v="Morkputten" />
		<tag k="natural" v="water" />
		<tag k="ssr:date" v="2019-12-27" />
		<tag k="ssr:gruppe" v="stilleståendeVann" />
		<tag k="ssr:hovedgruppe" v="ferskvann" />
		<tag k="ssr:stedsnr" v="812148" />
		<tag k="ssr:type" v="pytt" />
		<tag k="water" v="pond" />
	</node>
	<node id="-256958" lat="59.9012194426" lon="11.0101305503">
		<tag k="name" v="Plåterudsetertjern" />
		<tag k="natural" v="water" />
		<tag k="ssr:date" v="2019-12-27" />
		<tag k="ssr:gruppe" v="stilleståendeVann" />
		<tag k="ssr:hovedgruppe" v="ferskvann" />
		<tag k="ssr:stedsnr" v="812144" />
		<tag k="ssr:type" v="tjern" />
	</node>
	<node id="-256957" lat="59.8961583371" lon="10.9243694497">
		<tag k="name" v="Igletjern" />
		<tag k="natural" v="water" />
		<tag k="ssr:date" v="2019-12-27" />
		<tag k="ssr:gruppe" v="stilleståendeVann" />
		<tag k="ssr:hovedgruppe" v="ferskvann" />
		<tag k="ssr:stedsnr" v="812131" />
		<tag k="ssr:type" v="tjern" />
	</node>
	<node id="-256956" lat="59.868036113" lon="10.9781666649">
		<tag k="name" v="Lusetjern" />
		<tag k="natural" v="water" />
		<tag k="ssr:date" v="2019-12-27" />
		<tag k="ssr:gruppe" v="stilleståendeVann" />
		<tag k="ssr:hovedgruppe" v="ferskvann" />
		<tag k="ssr:stedsnr" v="812126" />
		<tag k="ssr:type" v="tjern" />
	</node>
	<node id="-256955" lat="59.8456249996" lon="10.9556249938">
		<tag k="name" v="Cudriosteinen" />
		<tag k="natural" v="stone" />
		<tag k="ssr:date" v="2019-12-27" />
		<tag k="ssr:gruppe" v="løsmasseavsetninger" />
		<tag k="ssr:hovedgruppe" v="markslag" />
		<tag k="ssr:stedsnr" v="812096" />
		<tag k="ssr:type" v="stein" />
	</node>
	<node id="-256954" lat="59.9006694465" lon="11.0226305468">
		<tag k="name" v="Isdalen" />
		<tag k="natural" v="valley" />
		<tag k="place" v="locality" />
		<tag k="ssr:date" v="2019-12-27" />
		<tag k="ssr:gruppe" v="senkninger" />
		<tag k="ssr:hovedgruppe" v="terreng" />
		<tag k="ssr:stedsnr" v="812094" />
		<tag k="ssr:type" v="dal" />
	</node>
	<node id="-256953" lat="59.8634000002" lon="10.9249805619">
		<tag k="name" v="Tjuvdalen" />
		<tag k="natural" v="valley" />
		<tag k="place" v="locality" />
		<tag k="ssr:date" v="2019-12-27" />
		<tag k="ssr:gruppe" v="senkninger" />
		<tag k="ssr:hovedgruppe" v="terreng" />
		<tag k="ssr:stedsnr" v="812084" />
		<tag k="ssr:type" v="dal" />
	</node>
	<node id="-256952" lat="59.8829500028" lon="11.006080561">
		<tag k="fixme" v="consider natural=peak for the most distinct mountains in the district" />
		<tag k="name" v="Puttåsen" />
		<tag k="natural" v="hill" />
		<tag k="place" v="locality" />
		<tag k="ssr:date" v="2019-12-27" />
		<tag k="ssr:gruppe" v="høyder" />
		<tag k="ssr:hovedgruppe" v="terreng" />
		<tag k="ssr:stedsnr" v="812070" />
		<tag k="ssr:type" v="ås" />
	</node>
	<node id="-256951" lat="59.8956916655" lon="10.9479944485">
		<tag k="name" v="Linderudkollen" />
		<tag k="natural" v="hill" />
		<tag k="place" v="locality" />
		<tag k="ssr:date" v="2019-12-27" />
		<tag k="ssr:gruppe" v="høyder" />
		<tag k="ssr:hovedgruppe" v="terreng" />
		<tag k="ssr:stedsnr" v="812046" />
		<tag k="ssr:type" v="høyde" />
	</node>
	<node id="-256950" lat="59.894761114" lon="11.0107499993">
		<tag k="alt_name" v="Veslevann" />
		<tag k="name" v="Veslevannet" />
		<tag k="natural" v="water" />
		<tag k="ssr:date" v="2019-12-27" />
		<tag k="ssr:gruppe" v="stilleståendeVann" />
		<tag k="ssr:hovedgruppe" v="ferskvann" />
		<tag k="ssr:stedsnr" v="811891" />
		<tag k="ssr:type" v="tjern" />
	</node>
	<node id="-256949" lat="59.9141499992" lon="10.9504499933">
		<tag k="name" v="Vallerud" />
		<tag k="place" v="farm" />
		<tag k="ssr:date" v="2019-12-27" />
		<tag k="ssr:gruppe" v="gardsbebyggelse" />
		<tag k="ssr:hovedgruppe" v="bebyggelse" />
		<tag k="ssr:stedsnr" v="793122" />
		<tag k="ssr:type" v="bruk" />
	</node>
	<node id="-256948" lat="59.9140472223" lon="10.938497221">
		<tag k="fixme" v="consider natural=peak for the most distinct mountains in the district" />
		<tag k="name" v="Vallerudåsen" />
		<tag k="natural" v="hill" />
		<tag k="place" v="locality" />
		<tag k="ssr:date" v="2019-12-27" />
		<tag k="ssr:gruppe" v="høyder" />
		<tag k="ssr:hovedgruppe" v="terreng" />
		<tag k="ssr:stedsnr" v="793121" />
		<tag k="ssr:type" v="ås" />
	</node>
	<node id="-256947" lat="59.9190305591" lon="11.0271555612">
		<tag k="name" v="Åmotdammen" />
		<tag k="natural" v="water" />
		<tag k="ssr:date" v="2019-12-27" />
		<tag k="ssr:gruppe" v="stilleståendeVann" />
		<tag k="ssr:hovedgruppe" v="ferskvann" />
		<tag k="ssr:stedsnr" v="793100" />
		<tag k="ssr:type" v="vann" />
		<tag k="water" v="lake" />
	</node>
	<node id="-256946" lat="59.9267027761" lon="11.0131805529">
		<tag k="name" v="Hovelsrudstua" />
		<tag k="place" v="farm" />
		<tag k="ssr:date" v="2019-12-27" />
		<tag k="ssr:gruppe" v="gardsbebyggelse" />
		<tag k="ssr:hovedgruppe" v="bebyggelse" />
		<tag k="ssr:stedsnr" v="793097" />
		<tag k="ssr:type" v="bruk" />
	</node>
	<node id="-256945" lat="59.9107899246" lon="10.9183704548">
		<tag k="name" v="Bjørndalen" />
		<tag k="place" v="farm" />
		<tag k="ssr:date" v="2019-12-27" />
		<tag k="ssr:gruppe" v="gardsbebyggelse" />
		<tag k="ssr:hovedgruppe" v="bebyggelse" />
		<tag k="ssr:stedsnr" v="793088" />
		<tag k="ssr:type" v="bruk" />
	</node>
	<node id="-256944" lat="59.9121472212" lon="10.9257861148">
		<tag k="name" v="Ekerud" />
		<tag k="place" v="isolated_dwelling" />
		<tag k="ssr:date" v="2019-12-27" />
		<tag k="ssr:gruppe" v="bolighus" />
		<tag k="ssr:hovedgruppe" v="bebyggelse" />
		<tag k="ssr:stedsnr" v="793085" />
		<tag k="ssr:type" v="eneboligMindreBoligbygg" />
	</node>
	<node id="-256943" lat="59.9366999974" lon="11.0081861035">
		<tag k="name" v="Bårli" />
		<tag k="place" v="farm" />
		<tag k="ssr:date" v="2019-12-27" />
		<tag k="ssr:gruppe" v="gardsbebyggelse" />
		<tag k="ssr:hovedgruppe" v="bebyggelse" />
		<tag k="ssr:stedsnr" v="793060" />
		<tag k="ssr:type" v="bruk" />
	</node>
	<node id="-256942" lat="59.9406992359" lon="10.9817560465">
		<tag k="alt_name" v="Fjellhamar" />
		<tag k="name" v="Fjellhamar holdeplass" />
		<tag k="railway" v="halt" />
		<tag k="ssr:date" v="2019-12-27" />
		<tag k="ssr:gruppe" v="bane" />
		<tag k="ssr:hovedgruppe" v="infrastruktur" />
		<tag k="ssr:stedsnr" v="793058" />
		<tag k="ssr:type" v="holdeplass" />
		<tag k="train" v="yes" />
	</node>
	<node id="-256941" lat="59.939844448" lon="10.9878916597">
		<tag k="bridge" v="yes" />
		<tag k="layer" v="1" />
		<tag k="name" v="Fjellhammer" />
		<tag k="ssr:date" v="2019-12-27" />
		<tag k="ssr:gruppe" v="samferdselsanlegg" />
		<tag k="ssr:hovedgruppe" v="infrastruktur" />
		<tag k="ssr:stedsnr" v="774021" />
		<tag k="ssr:type" v="bru" />
	</node>
	<node id="-256940" lat="59.9157611134" lon="10.9393861152">
		<tag k="name" v="Vallerud" />
		<tag k="place" v="quarter" />
		<tag k="ssr:date" v="2019-12-27" />
		<tag k="ssr:gruppe" v="bebyggelsesområder" />
		<tag k="ssr:hovedgruppe" v="bebyggelse" />
		<tag k="ssr:stedsnr" v="768044" />
		<tag k="ssr:type" v="tettsteddel" />
	</node>
	<node id="-256939" lat="59.9344972211" lon="10.9971972153">
		<tag k="name" v="Nordby" />
		<tag k="place" v="quarter" />
		<tag k="ssr:date" v="2019-12-27" />
		<tag k="ssr:gruppe" v="bebyggelsesområder" />
		<tag k="ssr:hovedgruppe" v="bebyggelse" />
		<tag k="ssr:stedsnr" v="751997" />
		<tag k="ssr:type" v="boligfelt" />
	</node>
	<node id="-256938" lat="59.9105527782" lon="10.9785472256">
		<tag k="name" v="Nedre Feiring" />
		<tag k="place" v="farm" />
		<tag k="ssr:date" v="2019-12-27" />
		<tag k="ssr:gruppe" v="gardsbebyggelse" />
		<tag k="ssr:hovedgruppe" v="bebyggelse" />
		<tag k="ssr:stedsnr" v="751981" />
		<tag k="ssr:type" v="bruk" />
	</node>
	<node id="-256937" lat="59.9166777735" lon="11.0050888885">
		<tag k="name" v="Stensrudbråten" />
		<tag k="place" v="isolated_dwelling" />
		<tag k="ssr:date" v="2019-12-27" />
		<tag k="ssr:gruppe" v="bolighus" />
		<tag k="ssr:hovedgruppe" v="bebyggelse" />
		<tag k="ssr:stedsnr" v="751972" />
		<tag k="ssr:type" v="eneboligMindreBoligbygg" />
	</node>
	<node id="-256936" lat="59.8507944478" lon="10.982772225">
		<tag k="name" v="Skålsjøhytta" />
		<tag k="place" v="isolated_dwelling" />
		<tag k="ssr:date" v="2019-12-27" />
		<tag k="ssr:gruppe" v="bolighus" />
		<tag k="ssr:hovedgruppe" v="bebyggelse" />
		<tag k="ssr:stedsnr" v="751971" />
		<tag k="ssr:type" v="fritidsbolig" />
	</node>
	<node id="-256935" lat="59.9237805523" lon="10.9664749944">
		<tag k="amenity" v="school" />
		<tag k="name" v="Åsen skole" />
		<tag k="old_name" v="Nordliåsen skole" />
		<tag k="ssr:date" v="2019-12-27" />
		<tag k="ssr:gruppe" v="institusjoner" />
		<tag k="ssr:hovedgruppe" v="bebyggelse" />
		<tag k="ssr:stedsnr" v="751958" />
		<tag k="ssr:type" v="skole" />
	</node>
	<node id="-256934" lat="59.8742555524" lon="10.9931527794">
		<tag k="name" v="Maurodden" />
		<tag k="natural" v="cape" />
		<tag k="ssr:date" v="2019-12-27" />
		<tag k="ssr:gruppe" v="ferskvannskontur" />
		<tag k="ssr:hovedgruppe" v="ferskvann" />
		<tag k="ssr:stedsnr" v="751941" />
		<tag k="ssr:type" v="nes" />
	</node>
	<node id="-256933" lat="59.863577776" lon="10.9380888868">
		<tag k="name" v="Skytterrøene" />
		<tag k="place" v="locality" />
		<tag k="ssr:date" v="2019-12-27" />
		<tag k="ssr:gruppe" v="dyrkamark" />
		<tag k="ssr:hovedgruppe" v="markslag" />
		<tag k="ssr:stedsnr" v="751918" />
		<tag k="ssr:type" v="utmark" />
	</node>
	<node id="-256932" lat="59.895286113" lon="10.9807555612">
		<tag k="name" v="Vestmorkhagan" />
		<tag k="place" v="locality" />
		<tag k="ssr:date" v="2019-12-27" />
		<tag k="ssr:gruppe" v="dyrkamark" />
		<tag k="ssr:hovedgruppe" v="markslag" />
		<tag k="ssr:stedsnr" v="751915" />
		<tag k="ssr:type" v="utmark" />
	</node>
	<node id="-256931" lat="59.9095083375" lon="11.0259055529">
		<tag k="name" v="Jutebrenna" />
		<tag k="place" v="locality" />
		<tag k="ssr:date" v="2019-12-27" />
		<tag k="ssr:gruppe" v="dyrkamark" />
		<tag k="ssr:hovedgruppe" v="markslag" />
		<tag k="ssr:stedsnr" v="751908" />
		<tag k="ssr:type" v="utmark" />
	</node>
	<node id="-256930" lat="59.9281222182" lon="10.9343805601">
		<tag k="name" v="Svingen" />
		<tag k="place" v="hamlet" />
		<tag k="ssr:date" v="2019-12-27" />
		<tag k="ssr:gruppe" v="bebyggelsesområder" />
		<tag k="ssr:hovedgruppe" v="bebyggelse" />
		<tag k="ssr:stedsnr" v="751899" />
		<tag k="ssr:type" v="grend" />
	</node>
	<node id="-256929" lat="59.9237194461" lon="10.9345361194">
		<tag k="name" v="Østlia" />
		<tag k="place" v="hamlet" />
		<tag k="ssr:date" v="2019-12-27" />
		<tag k="ssr:gruppe" v="bebyggelsesområder" />
		<tag k="ssr:hovedgruppe" v="bebyggelse" />
		<tag k="ssr:stedsnr" v="751897" />
		<tag k="ssr:type" v="grend" />
	</node>
	<node id="-256928" lat="59.9346722199" lon="10.9777527723">
		<tag k="name" v="Tynes" />
		<tag k="place" v="hamlet" />
		<tag k="ssr:date" v="2019-12-27" />
		<tag k="ssr:gruppe" v="bebyggelsesområder" />
		<tag k="ssr:hovedgruppe" v="bebyggelse" />
		<tag k="ssr:stedsnr" v="751892" />
		<tag k="ssr:type" v="grend" />
	</node>
	<node id="-256927" lat="59.9168055599" lon="10.9953111071">
		<tag k="name" v="Røyribråtan" />
		<tag k="place" v="locality" />
		<tag k="ssr:date" v="2019-12-27" />
		<tag k="ssr:gruppe" v="bolighus" />
		<tag k="ssr:hovedgruppe" v="bebyggelse" />
		<tag k="ssr:stedsnr" v="751693" />
		<tag k="ssr:type" v="gammelBosettingsplass" />
	</node>
	<node id="-256926" lat="59.9111916708" lon="11.0237555508">
		<tag k="highway" v="path" />
		<tag k="name" v="Oskarsgate" />
		<tag k="ssr:date" v="2019-12-27" />
		<tag k="ssr:gruppe" v="veg" />
		<tag k="ssr:hovedgruppe" v="infrastruktur" />
		<tag k="ssr:stedsnr" v="751683" />
		<tag k="ssr:type" v="sti" />
	</node>
	<node id="-256925" lat="59.9139361105" lon="10.9198972187">
		<tag k="highway" v="path" />
		<tag k="name" v="Mølleråsveien" />
		<tag k="ssr:date" v="2019-12-27" />
		<tag k="ssr:gruppe" v="veg" />
		<tag k="ssr:hovedgruppe" v="infrastruktur" />
		<tag k="ssr:stedsnr" v="751680" />
		<tag k="ssr:type" v="sti" />
	</node>
	<node id="-256924" lat="59.9059027751" lon="11.011838882">
		<tag k="alt_name" v="Seterle" />
		<tag k="name" v="Seterled" />
		<tag k="place" v="locality" />
		<tag k="ssr:date" v="2019-12-27" />
		<tag k="ssr:gruppe" v="veg" />
		<tag k="ssr:hovedgruppe" v="infrastruktur" />
		<tag k="ssr:stedsnr" v="751676" />
		<tag k="ssr:type" v="grind" />
	</node>
	<node id="-256923" lat="59.8722611137" lon="10.964041672">
		<tag k="name" v="Klubbtjern" />
		<tag k="natural" v="water" />
		<tag k="ssr:date" v="2019-12-27" />
		<tag k="ssr:gruppe" v="stilleståendeVann" />
		<tag k="ssr:hovedgruppe" v="ferskvann" />
		<tag k="ssr:stedsnr" v="751111" />
		<tag k="ssr:type" v="tjern" />
	</node>
	<node id="-256922" lat="59.9243222182" lon="10.9826027797">
		<tag k="name" v="Søndre Hammer" />
		<tag k="place" v="farm" />
		<tag k="ssr:date" v="2019-12-27" />
		<tag k="ssr:gruppe" v="gardsbebyggelse" />
		<tag k="ssr:hovedgruppe" v="bebyggelse" />
		<tag k="ssr:stedsnr" v="751085" />
		<tag k="ssr:type" v="bruk" />
	</node>
	<node id="-256921" lat="59.8635916633" lon="10.9115916606">
		<tag k="fixme" v="consider natural=peak for the most distinct mountains in the district" />
		<tag k="name" v="Sagåsen" />
		<tag k="natural" v="hill" />
		<tag k="place" v="locality" />
		<tag k="ssr:date" v="2019-12-27" />
		<tag k="ssr:gruppe" v="høyder" />
		<tag k="ssr:hovedgruppe" v="terreng" />
		<tag k="ssr:stedsnr" v="751064" />
		<tag k="ssr:type" v="ås" />
	</node>
	<node id="-256920" lat="59.9387444479" lon="11.0054555541">
		<tag k="name" v="Bårlibakken" />
		<tag k="place" v="quarter" />
		<tag k="ssr:date" v="2019-12-27" />
		<tag k="ssr:gruppe" v="bebyggelsesområder" />
		<tag k="ssr:hovedgruppe" v="bebyggelse" />
		<tag k="ssr:stedsnr" v="751666" />
		<tag k="ssr:type" v="boligfelt" />
	</node>
	<node id="-256919" lat="59.9337638896" lon="10.9821416684">
		<tag k="bridge" v="yes" />
		<tag k="layer" v="1" />
		<tag k="name" v="Kloppa" />
		<tag k="ssr:date" v="2019-12-27" />
		<tag k="ssr:gruppe" v="samferdselsanlegg" />
		<tag k="ssr:hovedgruppe" v="infrastruktur" />
		<tag k="ssr:stedsnr" v="652014" />
		<tag k="ssr:type" v="bru" />
	</node>
	<node id="-256918" lat="59.9181666672" lon="10.9470166698">
		<tag k="bridge" v="yes" />
		<tag k="layer" v="1" />
		<tag k="name" v="Vallerud" />
		<tag k="ssr:date" v="2019-12-27" />
		<tag k="ssr:gruppe" v="samferdselsanlegg" />
		<tag k="ssr:hovedgruppe" v="infrastruktur" />
		<tag k="ssr:stedsnr" v="652012" />
		<tag k="ssr:type" v="bru" />
	</node>
	<node id="-256917" lat="59.9340027807" lon="11.0231222164">
		<tag k="name" v="Kurland" />
		<tag k="place" v="quarter" />
		<tag k="ssr:date" v="2019-12-27" />
		<tag k="ssr:gruppe" v="bebyggelsesområder" />
		<tag k="ssr:hovedgruppe" v="bebyggelse" />
		<tag k="ssr:stedsnr" v="647041" />
		<tag k="ssr:type" v="tettsteddel" />
	</node>
	<node id="-256916" lat="59.9333805525" lon="10.9786777821">
		<tag k="name" v="Bensen" />
		<tag k="place" v="quarter" />
		<tag k="ssr:date" v="2019-12-27" />
		<tag k="ssr:gruppe" v="bebyggelsesområder" />
		<tag k="ssr:hovedgruppe" v="bebyggelse" />
		<tag k="ssr:stedsnr" v="630997" />
		<tag k="ssr:type" v="industriområde" />
	</node>
	<node id="-256915" lat="59.8584722254" lon="10.9902194416">
		<tag k="name" v="Mellomslora" />
		<tag k="place" v="locality" />
		<tag k="ssr:date" v="2019-12-27" />
		<tag k="ssr:gruppe" v="dyrkamark" />
		<tag k="ssr:hovedgruppe" v="markslag" />
		<tag k="ssr:stedsnr" v="630851" />
		<tag k="ssr:type" v="utmark" />
	</node>
	<node id="-256914" lat="59.9296916695" lon="10.9586472162">
		<tag k="amenity" v="school" />
		<tag k="name" v="Kjenn skole" />
		<tag k="ssr:date" v="2019-12-27" />
		<tag k="ssr:gruppe" v="institusjoner" />
		<tag k="ssr:hovedgruppe" v="bebyggelse" />
		<tag k="ssr:stedsnr" v="630943" />
		<tag k="ssr:type" v="skole" />
	</node>
	<node id="-256913" lat="59.9321388868" lon="10.9918249941">
		<tag k="amenity" v="school" />
		<tag k="name" v="Røde Kors sykepleieskole" />
		<tag k="ssr:date" v="2019-12-27" />
		<tag k="ssr:gruppe" v="institusjoner" />
		<tag k="ssr:hovedgruppe" v="bebyggelse" />
		<tag k="ssr:stedsnr" v="630941" />
		<tag k="ssr:type" v="skole" />
	</node>
	<node id="-256912" lat="59.9224722218" lon="10.9674944496">
		<tag k="amenity" v="school" />
		<tag k="name" v="Løkenåsen skole" />
		<tag k="ssr:date" v="2019-12-27" />
		<tag k="ssr:gruppe" v="institusjoner" />
		<tag k="ssr:hovedgruppe" v="bebyggelse" />
		<tag k="ssr:stedsnr" v="630931" />
		<tag k="ssr:type" v="skole" />
	</node>
	<node id="-256911" lat="59.9057611096" lon="10.9241805572">
		<tag k="name" v="Torvmyra" />
		<tag k="natural" v="wetland" />
		<tag k="ssr:date" v="2019-12-27" />
		<tag k="ssr:gruppe" v="våtmark" />
		<tag k="ssr:hovedgruppe" v="markslag" />
		<tag k="ssr:stedsnr" v="630902" />
		<tag k="ssr:type" v="myr" />
	</node>
	<node id="-256910" lat="59.9069666682" lon="10.999319436">
		<tag k="name" v="Torvmyra" />
		<tag k="natural" v="wetland" />
		<tag k="ssr:date" v="2019-12-27" />
		<tag k="ssr:gruppe" v="våtmark" />
		<tag k="ssr:hovedgruppe" v="markslag" />
		<tag k="ssr:stedsnr" v="630895" />
		<tag k="ssr:type" v="myr" />
	</node>
	<node id="-256909" lat="59.9095083348" lon="10.9947750018">
		<tag k="name" v="Lemyra" />
		<tag k="natural" v="wetland" />
		<tag k="ssr:date" v="2019-12-27" />
		<tag k="ssr:gruppe" v="våtmark" />
		<tag k="ssr:hovedgruppe" v="markslag" />
		<tag k="ssr:stedsnr" v="630892" />
		<tag k="ssr:type" v="myr" />
	</node>
	<node id="-256908" lat="59.8858361105" lon="11.0022583272">
		<tag k="name" v="Nestemyra" />
		<tag k="natural" v="wetland" />
		<tag k="ssr:date" v="2019-12-27" />
		<tag k="ssr:gruppe" v="våtmark" />
		<tag k="ssr:hovedgruppe" v="markslag" />
		<tag k="ssr:stedsnr" v="630891" />
		<tag k="ssr:type" v="myr" />
	</node>
	<node id="-256907" lat="59.8825638853" lon="10.9968138844">
		<tag k="name" v="Langmyra" />
		<tag k="natural" v="wetland" />
		<tag k="ssr:date" v="2019-12-27" />
		<tag k="ssr:gruppe" v="våtmark" />
		<tag k="ssr:hovedgruppe" v="markslag" />
		<tag k="ssr:stedsnr" v="630890" />
		<tag k="ssr:type" v="myr" />
	</node>
	<node id="-256906" lat="59.8998083351" lon="11.0100972154">
		<tag k="historic" v="shieling" />
		<tag k="name" v="Plåterudseter" />
		<tag k="place" v="locality" />
		<tag k="ssr:date" v="2019-12-27" />
		<tag k="ssr:gruppe" v="dyrkamark" />
		<tag k="ssr:hovedgruppe" v="markslag" />
		<tag k="ssr:stedsnr" v="630830" />
		<tag k="ssr:type" v="setervoll" />
	</node>
	<node id="-256905" lat="59.9178361083" lon="10.9583138947">
		<tag k="junction" v="yes" />
		<tag k="name" v="Skårer" />
		<tag k="place" v="locality" />
		<tag k="ssr:date" v="2019-12-27" />
		<tag k="ssr:gruppe" v="veg" />
		<tag k="ssr:hovedgruppe" v="infrastruktur" />
		<tag k="ssr:stedsnr" v="630595" />
		<tag k="ssr:type" v="vegkryss" />
	</node>
	<node id="-256904" lat="59.9075333327" lon="10.986688884">
		<tag k="name" v="Blåveislia" />
		<tag k="natural" v="slope" />
		<tag k="place" v="locality" />
		<tag k="ssr:date" v="2019-12-27" />
		<tag k="ssr:gruppe" v="skråninger" />
		<tag k="ssr:hovedgruppe" v="terreng" />
		<tag k="ssr:stedsnr" v="630089" />
		<tag k="ssr:type" v="li" />
	</node>
	<node id="-256903" lat="59.8545527783" lon="10.9294416665">
		<tag k="name" v="Losbydalen" />
		<tag k="natural" v="valley" />
		<tag k="place" v="locality" />
		<tag k="ssr:date" v="2019-12-27" />
		<tag k="ssr:gruppe" v="senkninger" />
		<tag k="ssr:hovedgruppe" v="terreng" />
		<tag k="ssr:stedsnr" v="630083" />
		<tag k="ssr:type" v="dal" />
	</node>
	<node id="-256902" lat="59.8706222231" lon="10.9980249986">
		<tag k="fixme" v="consider natural=peak for the most distinct mountains in the district" />
		<tag k="name" v="Fløytsagåsen" />
		<tag k="natural" v="hill" />
		<tag k="place" v="locality" />
		<tag k="ssr:date" v="2019-12-27" />
		<tag k="ssr:gruppe" v="høyder" />
		<tag k="ssr:hovedgruppe" v="terreng" />
		<tag k="ssr:stedsnr" v="630073" />
		<tag k="ssr:type" v="ås" />
	</node>
	<node id="-256901" lat="59.8670944442" lon="10.982874995">
		<tag k="name" v="Mønekollen" />
		<tag k="natural" v="hill" />
		<tag k="place" v="locality" />
		<tag k="ssr:date" v="2019-12-27" />
		<tag k="ssr:gruppe" v="høyder" />
		<tag k="ssr:hovedgruppe" v="terreng" />
		<tag k="ssr:stedsnr" v="630058" />
		<tag k="ssr:type" v="høyde" />
	</node>
	<node id="-256900" lat="59.9083833295" lon="10.9704583254">
		<tag k="name" v="Feiring" />
		<tag k="place" v="farm" />
		<tag k="ssr:date" v="2019-12-27" />
		<tag k="ssr:gruppe" v="gardsbebyggelse" />
		<tag k="ssr:hovedgruppe" v="bebyggelse" />
		<tag k="ssr:stedsnr" v="611113" />
		<tag k="ssr:type" v="bruk" />
	</node>
	<node id="-256899" lat="59.9116111079" lon="10.9643500002">
		<tag k="name" v="Finstad" />
		<tag k="place" v="farm" />
		<tag k="ssr:date" v="2019-12-27" />
		<tag k="ssr:gruppe" v="gardsbebyggelse" />
		<tag k="ssr:hovedgruppe" v="bebyggelse" />
		<tag k="ssr:stedsnr" v="611111" />
		<tag k="ssr:type" v="bruk" />
	</node>
	<node id="-256898" lat="59.9069972184" lon="10.9252722236">
		<tag k="name" v="Jonsrud" />
		<tag k="place" v="isolated_dwelling" />
		<tag k="ssr:date" v="2019-12-27" />
		<tag k="ssr:gruppe" v="bolighus" />
		<tag k="ssr:hovedgruppe" v="bebyggelse" />
		<tag k="ssr:stedsnr" v="611080" />
		<tag k="ssr:type" v="fritidsbolig" />
	</node>
	<node id="-256897" lat="59.872752777" lon="10.9295749991">
		<tag k="alt_name" v="Garfangåsen" />
		<tag k="fixme" v="consider natural=peak for the most distinct mountains in the district" />
		<tag k="name" v="Gardfangåsen" />
		<tag k="natural" v="hill" />
		<tag k="place" v="locality" />
		<tag k="ssr:date" v="2019-12-27" />
		<tag k="ssr:gruppe" v="høyder" />
		<tag k="ssr:hovedgruppe" v="terreng" />
		<tag k="ssr:stedsnr" v="611171" />
		<tag k="ssr:type" v="ås" />
	</node>
	<node id="-256896" lat="59.8748194469" lon="10.930816675">
		<tag k="name" v="Gråbeinmåsan" />
		<tag k="natural" v="wetland" />
		<tag k="old_name" v="Gråbeinmosen" />
		<tag k="ssr:date" v="2019-12-27" />
		<tag k="ssr:gruppe" v="våtmark" />
		<tag k="ssr:hovedgruppe" v="markslag" />
		<tag k="ssr:stedsnr" v="611169" />
		<tag k="ssr:type" v="myr" />
	</node>
	<node id="-256895" lat="59.9416666626" lon="10.9893777838">
		<tag k="alt_name" v="Fjellhammer Brug;Fjeldhammer Brug" />
		<tag k="name" v="Fjellhammer bruk" />
		<tag k="place" v="quarter" />
		<tag k="ssr:date" v="2019-12-27" />
		<tag k="ssr:gruppe" v="bebyggelsesområder" />
		<tag k="ssr:hovedgruppe" v="bebyggelse" />
		<tag k="ssr:stedsnr" v="569996" />
		<tag k="ssr:type" v="industriområde" />
	</node>
	<node id="-256894" lat="59.9337472262" lon="10.9998499997">
		<tag k="name" v="Nordheim" />
		<tag k="place" v="farm" />
		<tag k="ssr:date" v="2019-12-27" />
		<tag k="ssr:gruppe" v="gardsbebyggelse" />
		<tag k="ssr:hovedgruppe" v="bebyggelse" />
		<tag k="ssr:stedsnr" v="569981" />
		<tag k="ssr:type" v="bruk" />
	</node>
	<node id="-256893" lat="59.8972388898" lon="10.9692000044">
		<tag k="name" v="Heia" />
		<tag k="place" v="isolated_dwelling" />
		<tag k="ssr:date" v="2019-12-27" />
		<tag k="ssr:gruppe" v="bolighus" />
		<tag k="ssr:hovedgruppe" v="bebyggelse" />
		<tag k="ssr:stedsnr" v="569949" />
		<tag k="ssr:type" v="eneboligMindreBoligbygg" />
	</node>
	<node id="-256892" lat="59.8688444458" lon="10.996230549">
		<tag k="name" v="Søndre Tangen" />
		<tag k="place" v="farm" />
		<tag k="ssr:date" v="2019-12-27" />
		<tag k="ssr:gruppe" v="gardsbebyggelse" />
		<tag k="ssr:hovedgruppe" v="bebyggelse" />
		<tag k="ssr:stedsnr" v="569948" />
		<tag k="ssr:type" v="bruk" />
	</node>
	<node id="-256891" lat="59.8922083367" lon="10.9590055566">
		<tag k="name" v="Vesle Dalbakk" />
		<tag k="place" v="farm" />
		<tag k="ssr:date" v="2019-12-27" />
		<tag k="ssr:gruppe" v="gardsbebyggelse" />
		<tag k="ssr:hovedgruppe" v="bebyggelse" />
		<tag k="ssr:stedsnr" v="569937" />
		<tag k="ssr:type" v="bruk" />
	</node>
	<node id="-256890" lat="59.9023500045" lon="10.9201888808">
		<tag k="name" v="Igletjernbekken" />
		<tag k="ssr:date" v="2019-12-27" />
		<tag k="ssr:gruppe" v="rennendeVann" />
		<tag k="ssr:hovedgruppe" v="ferskvann" />
		<tag k="ssr:stedsnr" v="569911" />
		<tag k="ssr:type" v="bekk" />
		<tag k="waterway" v="stream" />
	</node>
	<node id="-256889" lat="59.8746500037" lon="10.9920472194">
		<tag k="name" v="St. Helena" />
		<tag k="place" v="islet" />
		<tag k="ssr:date" v="2019-12-27" />
		<tag k="ssr:gruppe" v="ferskvannskontur" />
		<tag k="ssr:hovedgruppe" v="ferskvann" />
		<tag k="ssr:stedsnr" v="569906" />
		<tag k="ssr:type" v="holme" />
	</node>
	<node id="-256888" lat="59.9112027774" lon="11.0165111115">
		<tag k="name" v="Nordlistykket" />
		<tag k="place" v="locality" />
		<tag k="ssr:date" v="2019-12-27" />
		<tag k="ssr:gruppe" v="dyrkamark" />
		<tag k="ssr:hovedgruppe" v="markslag" />
		<tag k="ssr:stedsnr" v="569856" />
		<tag k="ssr:type" v="utmark" />
	</node>
	<node id="-256887" lat="59.8416166644" lon="10.9809305565">
		<tag k="historic" v="shieling" />
		<tag k="name" v="Lisetra" />
		<tag k="place" v="locality" />
		<tag k="ssr:date" v="2019-12-27" />
		<tag k="ssr:gruppe" v="dyrkamark" />
		<tag k="ssr:hovedgruppe" v="markslag" />
		<tag k="ssr:stedsnr" v="569853" />
		<tag k="ssr:type" v="setervoll" />
	</node>
	<node id="-256886" lat="59.9238666662" lon="10.9953944439">
		<tag k="name" v="Sørli" />
		<tag k="place" v="isolated_dwelling" />
		<tag k="ssr:date" v="2019-12-27" />
		<tag k="ssr:gruppe" v="bolighus" />
		<tag k="ssr:hovedgruppe" v="bebyggelse" />
		<tag k="ssr:stedsnr" v="569849" />
		<tag k="ssr:type" v="eneboligMindreBoligbygg" />
	</node>
	<node id="-256885" lat="59.9192611155" lon="11.0084888865">
		<tag k="fixme" v="consider natural=peak for the most distinct mountains in the district" />
		<tag k="name" v="Tjuvåsen" />
		<tag k="natural" v="hill" />
		<tag k="place" v="locality" />
		<tag k="ssr:date" v="2019-12-27" />
		<tag k="ssr:gruppe" v="høyder" />
		<tag k="ssr:hovedgruppe" v="terreng" />
		<tag k="ssr:stedsnr" v="569648" />
		<tag k="ssr:type" v="ås" />
	</node>
	<node id="-256884" lat="59.9360777806" lon="11.0049305618">
		<tag k="name" v="Bårlibekken" />
		<tag k="ssr:date" v="2019-12-27" />
		<tag k="ssr:gruppe" v="rennendeVann" />
		<tag k="ssr:hovedgruppe" v="ferskvann" />
		<tag k="ssr:stedsnr" v="569642" />
		<tag k="ssr:type" v="bekk" />
		<tag k="waterway" v="stream" />
	</node>
	<node id="-256883" lat="59.9285583342" lon="11.0073749993">
		<tag k="name" v="Nordre Hovelsrud" />
		<tag k="place" v="farm" />
		<tag k="ssr:date" v="2019-12-27" />
		<tag k="ssr:gruppe" v="gardsbebyggelse" />
		<tag k="ssr:hovedgruppe" v="bebyggelse" />
		<tag k="ssr:stedsnr" v="569636" />
		<tag k="ssr:type" v="bruk" />
	</node>
	<node id="-256882" lat="59.8865444445" lon="10.9335722238">
		<tag k="name" v="Mesmerkleiva" />
		<tag k="natural" v="valley" />
		<tag k="place" v="locality" />
		<tag k="ssr:date" v="2019-12-27" />
		<tag k="ssr:gruppe" v="senkninger" />
		<tag k="ssr:hovedgruppe" v="terreng" />
		<tag k="ssr:stedsnr" v="569109" />
		<tag k="ssr:type" v="dal" />
	</node>
	<node id="-256881" lat="59.9128916623" lon="11.0240972196">
		<tag k="fixme" v="consider natural=peak for the most distinct mountains in the district" />
		<tag k="name" v="Svaraberget" />
		<tag k="natural" v="hill" />
		<tag k="place" v="locality" />
		<tag k="ssr:date" v="2019-12-27" />
		<tag k="ssr:gruppe" v="høyder" />
		<tag k="ssr:hovedgruppe" v="terreng" />
		<tag k="ssr:stedsnr" v="569087" />
		<tag k="ssr:type" v="ås" />
	</node>
	<node id="-256880" lat="59.8691444444" lon="10.9252388832">
		<tag k="fixme" v="consider natural=peak for the most distinct mountains in the district" />
		<tag k="name" v="Skråbakkåsen" />
		<tag k="natural" v="hill" />
		<tag k="place" v="locality" />
		<tag k="ssr:date" v="2019-12-27" />
		<tag k="ssr:gruppe" v="høyder" />
		<tag k="ssr:hovedgruppe" v="terreng" />
		<tag k="ssr:stedsnr" v="569076" />
		<tag k="ssr:type" v="ås" />
	</node>
	<node id="-256879" lat="59.9100638846" lon="11.0119861156">
		<tag k="name" v="Arnlihøgda" />
		<tag k="natural" v="hill" />
		<tag k="place" v="locality" />
		<tag k="ssr:date" v="2019-12-27" />
		<tag k="ssr:gruppe" v="høyder" />
		<tag k="ssr:hovedgruppe" v="terreng" />
		<tag k="ssr:stedsnr" v="569072" />
		<tag k="ssr:type" v="høyde" />
	</node>
	<node id="-256878" lat="59.9021694429" lon="10.9729083381">
		<tag k="name" v="Rudkollen" />
		<tag k="natural" v="hill" />
		<tag k="place" v="locality" />
		<tag k="ssr:date" v="2019-12-27" />
		<tag k="ssr:gruppe" v="høyder" />
		<tag k="ssr:hovedgruppe" v="terreng" />
		<tag k="ssr:stedsnr" v="569057" />
		<tag k="ssr:type" v="høyde" />
	</node>
	<node id="-256877" lat="59.8868611109" lon="10.9508833402">
		<tag k="name" v="Hestekollen" />
		<tag k="natural" v="hill" />
		<tag k="place" v="locality" />
		<tag k="ssr:date" v="2019-12-27" />
		<tag k="ssr:gruppe" v="høyder" />
		<tag k="ssr:hovedgruppe" v="terreng" />
		<tag k="ssr:stedsnr" v="569055" />
		<tag k="ssr:type" v="høyde" />
	</node>
	<node id="-256876" lat="59.9077888844" lon="10.9876388948">
		<tag k="name" v="Kirkerudkollen" />
		<tag k="natural" v="hill" />
		<tag k="place" v="locality" />
		<tag k="ssr:date" v="2019-12-27" />
		<tag k="ssr:gruppe" v="høyder" />
		<tag k="ssr:hovedgruppe" v="terreng" />
		<tag k="ssr:stedsnr" v="569052" />
		<tag k="ssr:type" v="høyde" />
	</node>
	<node id="-256875" lat="59.9054916628" lon="10.9533472297">
		<tag k="name" v="Hauger" />
		<tag k="place" v="farm" />
		<tag k="ssr:date" v="2019-12-27" />
		<tag k="ssr:gruppe" v="gardsbebyggelse" />
		<tag k="ssr:hovedgruppe" v="bebyggelse" />
		<tag k="ssr:stedsnr" v="551075" />
		<tag k="ssr:type" v="bruk" />
	</node>
	<node id="-256874" lat="59.9451967919" lon="10.9434520604">
		<tag k="alt_name" v="Lørenskog;Lørenskog st." />
		<tag k="name" v="Lørenskog stasjon" />
		<tag k="railway" v="station" />
		<tag k="ssr:date" v="2019-12-27" />
		<tag k="ssr:gruppe" v="bane" />
		<tag k="ssr:hovedgruppe" v="infrastruktur" />
		<tag k="ssr:stedsnr" v="550504" />
		<tag k="ssr:type" v="stasjon" />
		<tag k="train" v="yes" />
	</node>
	<node id="-256873" lat="59.8427249971" lon="10.9644249942">
		<tag k="name" v="Løkensetermyrene" />
		<tag k="natural" v="wetland" />
		<tag k="ssr:date" v="2019-12-27" />
		<tag k="ssr:gruppe" v="våtmark" />
		<tag k="ssr:hovedgruppe" v="markslag" />
		<tag k="ssr:stedsnr" v="550197" />
		<tag k="ssr:type" v="myr" />
	</node>
	<node id="-256872" lat="59.8738055533" lon="10.9977500031">
		<tag k="name" v="Finnland" />
		<tag k="place" v="isolated_dwelling" />
		<tag k="ssr:date" v="2019-12-27" />
		<tag k="ssr:gruppe" v="bolighus" />
		<tag k="ssr:hovedgruppe" v="bebyggelse" />
		<tag k="ssr:stedsnr" v="550191" />
		<tag k="ssr:type" v="fritidsbolig" />
	</node>
	<node id="-256871" lat="59.8734717329" lon="10.9941415527">
		<tag k="name" v="Mønevannet" />
		<tag k="natural" v="water" />
		<tag k="old_name" v="Mønevatn" />
		<tag k="ssr:date" v="2019-12-27" />
		<tag k="ssr:gruppe" v="stilleståendeVann" />
		<tag k="ssr:hovedgruppe" v="ferskvann" />
		<tag k="ssr:stedsnr" v="550186" />
		<tag k="ssr:type" v="vann" />
		<tag k="water" v="lake" />
	</node>
	<node id="-256870" lat="59.8756638855" lon="10.951027769">
		<tag k="alt_name" v="Halssjøen" />
		<tag k="name" v="Halsjøen" />
		<tag k="natural" v="water" />
		<tag k="old_name" v="Store Halsjøen" />
		<tag k="ssr:date" v="2019-12-27" />
		<tag k="ssr:gruppe" v="stilleståendeVann" />
		<tag k="ssr:hovedgruppe" v="ferskvann" />
		<tag k="ssr:stedsnr" v="550185" />
		<tag k="ssr:type" v="vann" />
		<tag k="water" v="lake" />
	</node>
	<node id="-256869" lat="59.9045833305" lon="10.9407166739">
		<tag k="name" v="Høgda" />
		<tag k="place" v="isolated_dwelling" />
		<tag k="ssr:date" v="2019-12-27" />
		<tag k="ssr:gruppe" v="bolighus" />
		<tag k="ssr:hovedgruppe" v="bebyggelse" />
		<tag k="ssr:stedsnr" v="550088" />
		<tag k="ssr:type" v="eneboligMindreBoligbygg" />
	</node>
	<node id="-256868" lat="59.9245585303" lon="10.9848262487">
		<tag k="alt_name" v="Lørenskog" />
		<tag k="amenity" v="place_of_worship" />
		<tag k="denomination" v="lutheran" />
		<tag k="name" v="Lørenskog kirke" />
		<tag k="religion" v="christian" />
		<tag k="ssr:date" v="2019-12-27" />
		<tag k="ssr:gruppe" v="kulturinstitusjoner" />
		<tag k="ssr:hovedgruppe" v="kultur" />
		<tag k="ssr:stedsnr" v="550028" />
		<tag k="ssr:type" v="kirke" />
	</node>
	<node id="-256867" lat="59.9254920163" lon="10.9813172693">
		<tag k="fixme" v="consider place=hamlet" />
		<tag k="name" v="Hammar" />
		<tag k="place" v="farm" />
		<tag k="ssr:date" v="2019-12-27" />
		<tag k="ssr:gruppe" v="gardsbebyggelse" />
		<tag k="ssr:hovedgruppe" v="bebyggelse" />
		<tag k="ssr:stedsnr" v="550016" />
		<tag k="ssr:type" v="gard" />
	</node>
	<node id="-256866" lat="59.9322750013" lon="11.0056833393">
		<tag k="name" v="Plåterud" />
		<tag k="place" v="farm" />
		<tag k="ssr:date" v="2019-12-27" />
		<tag k="ssr:gruppe" v="gardsbebyggelse" />
		<tag k="ssr:hovedgruppe" v="bebyggelse" />
		<tag k="ssr:stedsnr" v="550014" />
		<tag k="ssr:type" v="bruk" />
	</node>
	<node id="-256865" lat="59.9318111139" lon="10.936338882">
		<tag k="fixme" v="consider place=suburb, village or hamlet" />
		<tag k="name" v="Visperud" />
		<tag k="place" v="quarter" />
		<tag k="ssr:date" v="2019-12-27" />
		<tag k="ssr:gruppe" v="bebyggelsesområder" />
		<tag k="ssr:hovedgruppe" v="bebyggelse" />
		<tag k="ssr:stedsnr" v="550011" />
		<tag k="ssr:type" v="tettbebyggelse" />
	</node>
	<node id="-256864" lat="59.9280555551" lon="10.9551027815">
		<tag k="name" v="Solheim" />
		<tag k="place" v="isolated_dwelling" />
		<tag k="ssr:date" v="2019-12-27" />
		<tag k="ssr:gruppe" v="bolighus" />
		<tag k="ssr:hovedgruppe" v="bebyggelse" />
		<tag k="ssr:stedsnr" v="550009" />
		<tag k="ssr:type" v="eneboligMindreBoligbygg" />
	</node>
	<node id="-256862" lat="59.8460083361" lon="10.9428388854">
		<tag k="alt_name" v="Blåsynsmåsan" />
		<tag k="name" v="Blåsynmåsan" />
		<tag k="natural" v="wetland" />
		<tag k="old_name" v="Blåsynmosen" />
		<tag k="ssr:date" v="2019-12-27" />
		<tag k="ssr:gruppe" v="våtmark" />
		<tag k="ssr:hovedgruppe" v="markslag" />
		<tag k="ssr:stedsnr" v="430231" />
		<tag k="ssr:type" v="myr" />
	</node>
	<node id="-256861" lat="59.9059083299" lon="10.9599972174">
		<tag k="name" v="Rud" />
		<tag k="place" v="farm" />
		<tag k="ssr:date" v="2019-12-27" />
		<tag k="ssr:gruppe" v="gardsbebyggelse" />
		<tag k="ssr:hovedgruppe" v="bebyggelse" />
		<tag k="ssr:stedsnr" v="430069" />
		<tag k="ssr:type" v="bruk" />
	</node>
	<node id="-256860" lat="59.9010500002" lon="10.9737500082">
		<tag k="fixme" v="consider natural=peak for the most distinct mountains in the district" />
		<tag k="name" v="Feiringåsen" />
		<tag k="natural" v="hill" />
		<tag k="place" v="locality" />
		<tag k="ssr:date" v="2019-12-27" />
		<tag k="ssr:gruppe" v="høyder" />
		<tag k="ssr:hovedgruppe" v="terreng" />
		<tag k="ssr:stedsnr" v="430068" />
		<tag k="ssr:type" v="ås" />
	</node>
	<node id="-256859" lat="59.8445892657" lon="10.9707093273">
		<tag k="name" v="Skålsjøen" />
		<tag k="natural" v="water" />
		<tag k="ssr:date" v="2019-12-27" />
		<tag k="ssr:gruppe" v="stilleståendeVann" />
		<tag k="ssr:hovedgruppe" v="ferskvann" />
		<tag k="ssr:stedsnr" v="430230" />
		<tag k="ssr:type" v="vann" />
		<tag k="water" v="lake" />
	</node>
	<node id="-256858" lat="59.9514722239" lon="10.9678388895">
		<tag k="name" v="Svarttjern" />
		<tag k="natural" v="water" />
		<tag k="ssr:date" v="2019-12-27" />
		<tag k="ssr:gruppe" v="stilleståendeVann" />
		<tag k="ssr:hovedgruppe" v="ferskvann" />
		<tag k="ssr:stedsnr" v="429032" />
		<tag k="ssr:type" v="tjern" />
	</node>
	<node id="-256857" lat="59.9405527813" lon="10.9815027697">
		<tag k="name" v="Fjellhamar sokn" />
		<tag k="old_name" v="Lørenskog sokn" />
		<tag k="place" v="hamlet" />
		<tag k="ssr:date" v="2019-12-27" />
		<tag k="ssr:gruppe" v="administrativeIndelinger" />
		<tag k="ssr:hovedgruppe" v="offentligAdministrasjon" />
		<tag k="ssr:stedsnr" v="420846" />
		<tag k="ssr:type" v="sokn" />
	</node>
	<node id="-256856" lat="59.9126277748" lon="10.9601722201">
		<tag k="bridge" v="yes" />
		<tag k="layer" v="1" />
		<tag k="name" v="Finstadrabben" />
		<tag k="ssr:date" v="2019-12-27" />
		<tag k="ssr:gruppe" v="samferdselsanlegg" />
		<tag k="ssr:hovedgruppe" v="infrastruktur" />
		<tag k="ssr:stedsnr" v="410018" />
		<tag k="ssr:type" v="bru" />
	</node>
	<node id="-256854" lat="59.939763892" lon="10.9970138816">
		<tag k="name" v="Vittenberg" />
		<tag k="place" v="quarter" />
		<tag k="ssr:date" v="2019-12-27" />
		<tag k="ssr:gruppe" v="bebyggelsesområder" />
		<tag k="ssr:hovedgruppe" v="bebyggelse" />
		<tag k="ssr:stedsnr" v="404041" />
		<tag k="ssr:type" v="tettsteddel" />
	</node>
	<node id="-256853" lat="59.9281277761" lon="10.9534388873">
		<tag k="name" v="Lørenskog sentrum" />
		<tag k="place" v="quarter" />
		<tag k="ssr:date" v="2019-12-27" />
		<tag k="ssr:gruppe" v="bebyggelsesområder" />
		<tag k="ssr:hovedgruppe" v="bebyggelse" />
		<tag k="ssr:stedsnr" v="404035" />
		<tag k="ssr:type" v="tettsteddel" />
	</node>
	<node id="-256852" lat="59.9281888898" lon="10.9937583326">
		<tag k="name" v="Bredde" />
		<tag k="place" v="quarter" />
		<tag k="ssr:date" v="2019-12-27" />
		<tag k="ssr:gruppe" v="bebyggelsesområder" />
		<tag k="ssr:hovedgruppe" v="bebyggelse" />
		<tag k="ssr:stedsnr" v="387996" />
		<tag k="ssr:type" v="boligfelt" />
	</node>
	<node id="-256851" lat="59.8424944416" lon="10.9395138852">
		<tag k="name" v="Blåsynsrøene" />
		<tag k="place" v="locality" />
		<tag k="ssr:date" v="2019-12-27" />
		<tag k="ssr:gruppe" v="dyrkamark" />
		<tag k="ssr:hovedgruppe" v="markslag" />
		<tag k="ssr:stedsnr" v="387897" />
		<tag k="ssr:type" v="utmark" />
	</node>
	<node id="-256850" lat="59.8590194481" lon="10.9335305622">
		<tag k="name" v="17. maiplassen" />
		<tag k="place" v="locality" />
		<tag k="ssr:date" v="2019-12-27" />
		<tag k="ssr:gruppe" v="dyrkamark" />
		<tag k="ssr:hovedgruppe" v="markslag" />
		<tag k="ssr:stedsnr" v="387894" />
		<tag k="ssr:type" v="utmark" />
	</node>
	<node id="-256849" lat="59.8596222239" lon="11.0016527842">
		<tag k="name" v="Morktanga" />
		<tag k="place" v="locality" />
		<tag k="ssr:date" v="2019-12-27" />
		<tag k="ssr:gruppe" v="dyrkamark" />
		<tag k="ssr:hovedgruppe" v="markslag" />
		<tag k="ssr:stedsnr" v="387889" />
		<tag k="ssr:type" v="utmark" />
	</node>
	<node id="-256848" lat="59.8633833356" lon="11.0071777772">
		<tag k="name" v="Merrasprenga" />
		<tag k="place" v="locality" />
		<tag k="ssr:date" v="2019-12-27" />
		<tag k="ssr:gruppe" v="dyrkamark" />
		<tag k="ssr:hovedgruppe" v="markslag" />
		<tag k="ssr:stedsnr" v="387886" />
		<tag k="ssr:type" v="utmark" />
	</node>
	<node id="-256847" lat="59.8466722197" lon="10.964113888">
		<tag k="fixme" v="consider natural=peak for the most distinct mountains in the district" />
		<tag k="name" v="Velåsen" />
		<tag k="natural" v="hill" />
		<tag k="place" v="locality" />
		<tag k="ssr:date" v="2019-12-27" />
		<tag k="ssr:gruppe" v="høyder" />
		<tag k="ssr:hovedgruppe" v="terreng" />
		<tag k="ssr:stedsnr" v="387089" />
		<tag k="ssr:type" v="ås" />
	</node>
	<node id="-256846" lat="59.8671555572" lon="10.9989888935">
		<tag k="name" v="Fløyta" />
		<tag k="natural" v="water" />
		<tag k="ssr:date" v="2019-12-27" />
		<tag k="ssr:gruppe" v="stilleståendeVann" />
		<tag k="ssr:hovedgruppe" v="ferskvann" />
		<tag k="ssr:stedsnr" v="369131" />
		<tag k="ssr:type" v="tjern" />
	</node>
	<node id="-256845" lat="59.8662722244" lon="10.9610777811">
		<tag k="name" v="Mortvannet" />
		<tag k="natural" v="water" />
		<tag k="old_name" v="Mortvatn" />
		<tag k="ssr:date" v="2019-12-27" />
		<tag k="ssr:gruppe" v="stilleståendeVann" />
		<tag k="ssr:hovedgruppe" v="ferskvann" />
		<tag k="ssr:stedsnr" v="369126" />
		<tag k="ssr:type" v="tjern" />
	</node>
	<node id="-256844" lat="59.9175726305" lon="10.9614711534">
		<tag k="fixme" v="consider place=hamlet" />
		<tag k="name" v="Løken" />
		<tag k="place" v="farm" />
		<tag k="ssr:date" v="2019-12-27" />
		<tag k="ssr:gruppe" v="gardsbebyggelse" />
		<tag k="ssr:hovedgruppe" v="bebyggelse" />
		<tag k="ssr:stedsnr" v="369115" />
		<tag k="ssr:type" v="gard" />
	</node>
	<node id="-256843" lat="59.886738158" lon="10.9829969605">
		<tag k="name" v="Losby" />
		<tag k="place" v="farm" />
		<tag k="ssr:date" v="2019-12-27" />
		<tag k="ssr:gruppe" v="gardsbebyggelse" />
		<tag k="ssr:hovedgruppe" v="bebyggelse" />
		<tag k="ssr:stedsnr" v="368198" />
		<tag k="ssr:type" v="bruk" />
	</node>
	<node id="-256842" lat="59.9459303083" lon="10.9582934011">
		<tag k="name" v="Steinerud" />
		<tag k="place" v="locality" />
		<tag k="ssr:date" v="2019-12-27" />
		<tag k="ssr:gruppe" v="bolighus" />
		<tag k="ssr:hovedgruppe" v="bebyggelse" />
		<tag k="ssr:stedsnr" v="368047" />
		<tag k="ssr:type" v="gammelBosettingsplass" />
	</node>
	<node id="-256841" lat="59.9174194405" lon="10.9632916721">
		<tag k="name" v="Løken" />
		<tag k="place" v="quarter" />
		<tag k="ssr:date" v="2019-12-27" />
		<tag k="ssr:gruppe" v="bebyggelsesområder" />
		<tag k="ssr:hovedgruppe" v="bebyggelse" />
		<tag k="ssr:stedsnr" v="343041" />
		<tag k="ssr:type" v="tettsteddel" />
	</node>
	<node id="-256840" lat="59.9324305581" lon="10.9296749988">
		<tag k="name" v="Visperud" />
		<tag k="place" v="quarter" />
		<tag k="ssr:date" v="2019-12-27" />
		<tag k="ssr:gruppe" v="bebyggelsesområder" />
		<tag k="ssr:hovedgruppe" v="bebyggelse" />
		<tag k="ssr:stedsnr" v="343035" />
		<tag k="ssr:type" v="tettsteddel" />
	</node>
	<node id="-256839" lat="59.9207333319" lon="10.9859638847">
		<tag k="name" v="Søndre Røyri" />
		<tag k="place" v="farm" />
		<tag k="ssr:date" v="2019-12-27" />
		<tag k="ssr:gruppe" v="gardsbebyggelse" />
		<tag k="ssr:hovedgruppe" v="bebyggelse" />
		<tag k="ssr:stedsnr" v="327978" />
		<tag k="ssr:type" v="bruk" />
	</node>
	<node id="-256838" lat="59.9011944455" lon="10.9861944529">
		<tag k="name" v="Myra" />
		<tag k="place" v="farm" />
		<tag k="ssr:date" v="2019-12-27" />
		<tag k="ssr:gruppe" v="gardsbebyggelse" />
		<tag k="ssr:hovedgruppe" v="bebyggelse" />
		<tag k="ssr:stedsnr" v="327969" />
		<tag k="ssr:type" v="bruk" />
	</node>
	<node id="-256837" lat="59.8975249961" lon="10.9682861094">
		<tag k="name" v="Grinda" />
		<tag k="place" v="farm" />
		<tag k="ssr:date" v="2019-12-27" />
		<tag k="ssr:gruppe" v="gardsbebyggelse" />
		<tag k="ssr:hovedgruppe" v="bebyggelse" />
		<tag k="ssr:stedsnr" v="327955" />
		<tag k="ssr:type" v="bruk" />
	</node>
	<node id="-256836" lat="59.8924944486" lon="10.9829972263">
		<tag k="name" v="Grytehaugen" />
		<tag k="place" v="farm" />
		<tag k="ssr:date" v="2019-12-27" />
		<tag k="ssr:gruppe" v="gardsbebyggelse" />
		<tag k="ssr:hovedgruppe" v="bebyggelse" />
		<tag k="ssr:stedsnr" v="327954" />
		<tag k="ssr:type" v="bruk" />
	</node>
	<node id="-256835" lat="59.9000527823" lon="10.9868472156">
		<tag k="name" v="Kirkerudbråten" />
		<tag k="place" v="farm" />
		<tag k="ssr:date" v="2019-12-27" />
		<tag k="ssr:gruppe" v="gardsbebyggelse" />
		<tag k="ssr:hovedgruppe" v="bebyggelse" />
		<tag k="ssr:stedsnr" v="327948" />
		<tag k="ssr:type" v="bruk" />
	</node>
	<node id="-256834" lat="59.9247083325" lon="10.9813944418">
		<tag k="name" v="St. Olavs kilde" />
		<tag k="place" v="locality" />
		<tag k="ssr:date" v="2019-12-27" />
		<tag k="ssr:gruppe" v="detaljerIFerskvann" />
		<tag k="ssr:hovedgruppe" v="ferskvann" />
		<tag k="ssr:stedsnr" v="327900" />
		<tag k="ssr:type" v="annenVanndetalj" />
	</node>
	<node id="-256833" lat="59.8894805584" lon="11.0099499953">
		<tag k="name" v="Breimåsan" />
		<tag k="natural" v="wetland" />
		<tag k="ssr:date" v="2019-12-27" />
		<tag k="ssr:gruppe" v="våtmark" />
		<tag k="ssr:hovedgruppe" v="markslag" />
		<tag k="ssr:stedsnr" v="327862" />
		<tag k="ssr:type" v="myr" />
	</node>
	<node id="-256832" lat="59.9321777804" lon="11.020827778">
		<tag k="fixme" v="consider place=suburb, village or hamlet" />
		<tag k="name" v="Kurland" />
		<tag k="place" v="quarter" />
		<tag k="ssr:date" v="2019-12-27" />
		<tag k="ssr:gruppe" v="bebyggelsesområder" />
		<tag k="ssr:hovedgruppe" v="bebyggelse" />
		<tag k="ssr:stedsnr" v="327600" />
		<tag k="ssr:type" v="tettbebyggelse" />
	</node>
	<node id="-256831" lat="59.9247777766" lon="10.9930111032">
		<tag k="name" v="Tangen" />
		<tag k="place" v="locality" />
		<tag k="ssr:date" v="2019-12-27" />
		<tag k="ssr:gruppe" v="bolighus" />
		<tag k="ssr:hovedgruppe" v="bebyggelse" />
		<tag k="ssr:stedsnr" v="327633" />
		<tag k="ssr:type" v="gammelBosettingsplass" />
	</node>
	<node id="-256830" lat="59.8967138867" lon="10.9696166732">
		<tag k="name" v="Hellerud" />
		<tag k="place" v="locality" />
		<tag k="ssr:date" v="2019-12-27" />
		<tag k="ssr:gruppe" v="bolighus" />
		<tag k="ssr:hovedgruppe" v="bebyggelse" />
		<tag k="ssr:stedsnr" v="327629" />
		<tag k="ssr:type" v="gammelBosettingsplass" />
	</node>
	<node id="-256829" lat="59.9168805528" lon="11.0018083282">
		<tag k="name" v="Nylenne" />
		<tag k="place" v="locality" />
		<tag k="ssr:date" v="2019-12-27" />
		<tag k="ssr:gruppe" v="bolighus" />
		<tag k="ssr:hovedgruppe" v="bebyggelse" />
		<tag k="ssr:stedsnr" v="327627" />
		<tag k="ssr:type" v="gammelBosettingsplass" />
	</node>
	<node id="-256828" lat="59.9162027779" lon="11.0000694519">
		<tag k="name" v="Nybakk" />
		<tag k="place" v="locality" />
		<tag k="ssr:date" v="2019-12-27" />
		<tag k="ssr:gruppe" v="bolighus" />
		<tag k="ssr:hovedgruppe" v="bebyggelse" />
		<tag k="ssr:stedsnr" v="327626" />
		<tag k="ssr:type" v="gammelBosettingsplass" />
	</node>
	<node id="-256827" lat="59.8941499991" lon="11.0010861152">
		<tag k="name" v="Styggvannsdalen" />
		<tag k="natural" v="valley" />
		<tag k="place" v="locality" />
		<tag k="ssr:date" v="2019-12-27" />
		<tag k="ssr:gruppe" v="senkninger" />
		<tag k="ssr:hovedgruppe" v="terreng" />
		<tag k="ssr:stedsnr" v="327096" />
		<tag k="ssr:type" v="dal" />
	</node>
	<node id="-256826" lat="59.8657555555" lon="10.9733583263">
		<tag k="name" v="Snøsokkdalen" />
		<tag k="natural" v="valley" />
		<tag k="place" v="locality" />
		<tag k="ssr:date" v="2019-12-27" />
		<tag k="ssr:gruppe" v="senkninger" />
		<tag k="ssr:hovedgruppe" v="terreng" />
		<tag k="ssr:stedsnr" v="327091" />
		<tag k="ssr:type" v="dal" />
	</node>
	<node id="-256825" lat="59.8952805563" lon="10.974488894">
		<tag k="name" v="Bråtabakken" />
		<tag k="natural" v="slope" />
		<tag k="place" v="locality" />
		<tag k="ssr:date" v="2019-12-27" />
		<tag k="ssr:gruppe" v="skråninger" />
		<tag k="ssr:hovedgruppe" v="terreng" />
		<tag k="ssr:stedsnr" v="327090" />
		<tag k="ssr:type" v="bakke" />
	</node>
	<node id="-256824" lat="59.8766361144" lon="10.9773388899">
		<tag k="alt_name" v="Endtjernliene" />
		<tag k="name" v="Endtjernlia" />
		<tag k="natural" v="slope" />
		<tag k="place" v="locality" />
		<tag k="ssr:date" v="2019-12-27" />
		<tag k="ssr:gruppe" v="skråninger" />
		<tag k="ssr:hovedgruppe" v="terreng" />
		<tag k="ssr:stedsnr" v="327086" />
		<tag k="ssr:type" v="li" />
	</node>
	<node id="-256823" lat="59.8933416693" lon="11.0105972153">
		<tag k="fixme" v="consider natural=peak for the most distinct mountains in the district" />
		<tag k="name" v="Nestemyråsen" />
		<tag k="natural" v="hill" />
		<tag k="place" v="locality" />
		<tag k="ssr:date" v="2019-12-27" />
		<tag k="ssr:gruppe" v="høyder" />
		<tag k="ssr:hovedgruppe" v="terreng" />
		<tag k="ssr:stedsnr" v="327076" />
		<tag k="ssr:type" v="ås" />
	</node>
	<node id="-256822" lat="59.8800694402" lon="10.9376388881">
		<tag k="fixme" v="consider natural=peak for the most distinct mountains in the district" />
		<tag k="name" v="Tørråsen" />
		<tag k="natural" v="hill" />
		<tag k="place" v="locality" />
		<tag k="ssr:date" v="2019-12-27" />
		<tag k="ssr:gruppe" v="høyder" />
		<tag k="ssr:hovedgruppe" v="terreng" />
		<tag k="ssr:stedsnr" v="327059" />
		<tag k="ssr:type" v="ås" />
	</node>
	<node id="-256821" lat="59.8563909458" lon="10.9677695868">
		<tag k="name" v="Tretjerna" />
		<tag k="natural" v="water" />
		<tag k="ssr:date" v="2020-05-07" />
		<tag k="ssr:gruppe" v="stilleståendeVann" />
		<tag k="ssr:hovedgruppe" v="ferskvann" />
		<tag k="ssr:stedsnr" v="308203" />
		<tag k="ssr:type" v="gruppeAvTjern" />
		<tag k="water" v="lake" />
	</node>
	<node id="-256820" lat="59.8610111098" lon="10.9372250052">
		<tag k="alt_name" v="Kalvebrumåsan" />
		<tag k="name" v="Kavlebrumyra" />
		<tag k="natural" v="wetland" />
		<tag k="ssr:date" v="2019-12-27" />
		<tag k="ssr:gruppe" v="våtmark" />
		<tag k="ssr:hovedgruppe" v="markslag" />
		<tag k="ssr:stedsnr" v="308201" />
		<tag k="ssr:type" v="myr" />
	</node>
	<node id="-256819" lat="59.8872888845" lon="10.9306999945">
		<tag k="fixme" v="consider natural=peak for the most distinct mountains in the district" />
		<tag k="name" v="Haugerkollen" />
		<tag k="natural" v="hill" />
		<tag k="place" v="locality" />
		<tag k="ssr:date" v="2019-12-27" />
		<tag k="ssr:gruppe" v="høyder" />
		<tag k="ssr:hovedgruppe" v="terreng" />
		<tag k="ssr:stedsnr" v="308139" />
		<tag k="ssr:type" v="ås" />
	</node>
	<node id="-256818" lat="59.924088887" lon="10.9712277721">
		<tag k="name" v="Nordli" />
		<tag k="place" v="farm" />
		<tag k="ssr:date" v="2019-12-27" />
		<tag k="ssr:gruppe" v="gardsbebyggelse" />
		<tag k="ssr:hovedgruppe" v="bebyggelse" />
		<tag k="ssr:stedsnr" v="308013" />
		<tag k="ssr:type" v="bruk" />
	</node>
	<node id="-256817" lat="59.9263722191" lon="10.998794451">
		<tag k="name" v="Østbyenga" />
		<tag k="place" v="farm" />
		<tag k="ssr:date" v="2019-12-27" />
		<tag k="ssr:gruppe" v="gardsbebyggelse" />
		<tag k="ssr:hovedgruppe" v="bebyggelse" />
		<tag k="ssr:stedsnr" v="308006" />
		<tag k="ssr:type" v="bruk" />
	</node>
	<node id="-256816" lat="59.9432777809" lon="10.9463361164">
		<tag k="name" v="Sumpen" />
		<tag k="natural" v="wetland" />
		<tag k="ssr:date" v="2019-12-27" />
		<tag k="ssr:gruppe" v="våtmark" />
		<tag k="ssr:hovedgruppe" v="markslag" />
		<tag k="ssr:stedsnr" v="205933" />
		<tag k="ssr:type" v="myr" />
	</node>
	<node id="-256815" lat="59.9085972223" lon="11.0019972201">
		<tag k="name" v="Røyrimyra" />
		<tag k="natural" v="wetland" />
		<tag k="ssr:date" v="2019-12-27" />
		<tag k="ssr:gruppe" v="våtmark" />
		<tag k="ssr:hovedgruppe" v="markslag" />
		<tag k="ssr:stedsnr" v="205929" />
		<tag k="ssr:type" v="myr" />
	</node>
	<node id="-256814" lat="59.9531444407" lon="10.9666499967">
		<tag k="name" v="Røssmyra" />
		<tag k="natural" v="wetland" />
		<tag k="ssr:date" v="2019-12-27" />
		<tag k="ssr:gruppe" v="våtmark" />
		<tag k="ssr:hovedgruppe" v="markslag" />
		<tag k="ssr:stedsnr" v="205925" />
		<tag k="ssr:type" v="myr" />
	</node>
	<node id="-256813" lat="59.8908166692" lon="10.9734111031">
		<tag k="name" v="Lennemyra" />
		<tag k="natural" v="wetland" />
		<tag k="ssr:date" v="2019-12-27" />
		<tag k="ssr:gruppe" v="våtmark" />
		<tag k="ssr:hovedgruppe" v="markslag" />
		<tag k="ssr:stedsnr" v="205921" />
		<tag k="ssr:type" v="myr" />
	</node>
	<node id="-256812" lat="59.8635055586" lon="10.9806166594">
		<tag k="name" v="Rundmyr" />
		<tag k="natural" v="wetland" />
		<tag k="ssr:date" v="2019-12-27" />
		<tag k="ssr:gruppe" v="våtmark" />
		<tag k="ssr:hovedgruppe" v="markslag" />
		<tag k="ssr:stedsnr" v="205919" />
		<tag k="ssr:type" v="myr" />
	</node>
	<node id="-256811" lat="59.8586027762" lon="11.0155916591">
		<tag k="name" v="Delingsmyra" />
		<tag k="natural" v="wetland" />
		<tag k="ssr:date" v="2019-12-27" />
		<tag k="ssr:gruppe" v="våtmark" />
		<tag k="ssr:hovedgruppe" v="markslag" />
		<tag k="ssr:stedsnr" v="205915" />
		<tag k="ssr:type" v="myr" />
	</node>
	<node id="-256810" lat="59.8510111141" lon="10.9362083416">
		<tag k="name" v="Kastvangen" />
		<tag k="place" v="locality" />
		<tag k="ssr:date" v="2019-12-27" />
		<tag k="ssr:gruppe" v="dyrkamark" />
		<tag k="ssr:hovedgruppe" v="markslag" />
		<tag k="ssr:stedsnr" v="205912" />
		<tag k="ssr:type" v="utmark" />
	</node>
	<node id="-256809" lat="59.885372225" lon="10.9873333261">
		<tag k="name" v="Lønnefløtten" />
		<tag k="place" v="locality" />
		<tag k="ssr:date" v="2019-12-27" />
		<tag k="ssr:gruppe" v="dyrkamark" />
		<tag k="ssr:hovedgruppe" v="markslag" />
		<tag k="ssr:stedsnr" v="205897" />
		<tag k="ssr:type" v="jorde" />
	</node>
	<node id="-256808" lat="59.9248249964" lon="10.9969916721">
		<tag k="name" v="Lille Østby" />
		<tag k="place" v="hamlet" />
		<tag k="ssr:date" v="2019-12-27" />
		<tag k="ssr:gruppe" v="bebyggelsesområder" />
		<tag k="ssr:hovedgruppe" v="bebyggelse" />
		<tag k="ssr:stedsnr" v="205894" />
		<tag k="ssr:type" v="grend" />
	</node>
	<node id="-256806" lat="59.9205194435" lon="11.0160583263">
		<tag k="fixme" v="consider natural=peak for the most distinct mountains in the district" />
		<tag k="name" v="Østbyåsen" />
		<tag k="natural" v="hill" />
		<tag k="place" v="locality" />
		<tag k="ssr:date" v="2019-12-27" />
		<tag k="ssr:gruppe" v="høyder" />
		<tag k="ssr:hovedgruppe" v="terreng" />
		<tag k="ssr:stedsnr" v="205677" />
		<tag k="ssr:type" v="ås" />
	</node>
	<node id="-256805" lat="59.8882333357" lon="10.9104694375">
		<tag k="name" v="Mortvika" />
		<tag k="natural" v="bay" />
		<tag k="ssr:date" v="2019-12-27" />
		<tag k="ssr:gruppe" v="ferskvannskontur" />
		<tag k="ssr:hovedgruppe" v="ferskvann" />
		<tag k="ssr:stedsnr" v="205128" />
		<tag k="ssr:type" v="vik" />
	</node>
	<node id="-256804" lat="59.9103527777" lon="10.9400638853">
		<tag k="fixme" v="consider natural=peak for the most distinct mountains in the district" />
		<tag k="name" v="Løgnås" />
		<tag k="natural" v="hill" />
		<tag k="place" v="locality" />
		<tag k="ssr:date" v="2019-12-27" />
		<tag k="ssr:gruppe" v="høyder" />
		<tag k="ssr:hovedgruppe" v="terreng" />
		<tag k="ssr:stedsnr" v="205072" />
		<tag k="ssr:type" v="ås" />
	</node>
	<node id="-256803" lat="59.8649999966" lon="10.9986388867">
		<tag k="fixme" v="consider natural=peak for the most distinct mountains in the district" />
		<tag k="name" v="Malmeråsen" />
		<tag k="natural" v="hill" />
		<tag k="place" v="locality" />
		<tag k="ssr:date" v="2019-12-27" />
		<tag k="ssr:gruppe" v="høyder" />
		<tag k="ssr:hovedgruppe" v="terreng" />
		<tag k="ssr:stedsnr" v="205064" />
		<tag k="ssr:type" v="ås" />
	</node>
	<node id="-256802" lat="59.8851388874" lon="10.9547750063">
		<tag k="name" v="Kula" />
		<tag k="natural" v="hill" />
		<tag k="place" v="locality" />
		<tag k="ssr:date" v="2019-12-27" />
		<tag k="ssr:gruppe" v="høyder" />
		<tag k="ssr:hovedgruppe" v="terreng" />
		<tag k="ssr:stedsnr" v="205045" />
		<tag k="ssr:type" v="høyde" />
	</node>
	<node id="-256801" lat="59.8959398228" lon="10.9624517862">
		<tag k="fixme" v="consider place=hamlet" />
		<tag k="name" v="Våler" />
		<tag k="place" v="farm" />
		<tag k="ssr:date" v="2019-12-27" />
		<tag k="ssr:gruppe" v="gardsbebyggelse" />
		<tag k="ssr:hovedgruppe" v="bebyggelse" />
		<tag k="ssr:stedsnr" v="187080" />
		<tag k="ssr:type" v="gard" />
	</node>
	<node id="-256800" lat="59.9033361109" lon="10.9271888802">
		<tag k="alt_name" v="Seteråsen" />
		<tag k="fixme" v="consider natural=peak for the most distinct mountains in the district" />
		<tag k="name" v="Sæteråsen" />
		<tag k="natural" v="hill" />
		<tag k="place" v="locality" />
		<tag k="ssr:date" v="2019-12-27" />
		<tag k="ssr:gruppe" v="høyder" />
		<tag k="ssr:hovedgruppe" v="terreng" />
		<tag k="ssr:stedsnr" v="187071" />
		<tag k="ssr:type" v="ås" />
	</node>
	<node id="-256799" lat="59.8402222245" lon="10.985222224">
		<tag k="name" v="Liseterputten" />
		<tag k="natural" v="water" />
		<tag k="ssr:date" v="2019-12-27" />
		<tag k="ssr:gruppe" v="stilleståendeVann" />
		<tag k="ssr:hovedgruppe" v="ferskvann" />
		<tag k="ssr:stedsnr" v="186195" />
		<tag k="ssr:type" v="tjern" />
	</node>
	<node id="-256798" lat="59.8756333356" lon="10.9747249921">
		<tag k="name" v="Endtjernet" />
		<tag k="natural" v="water" />
		<tag k="ssr:date" v="2019-12-27" />
		<tag k="ssr:gruppe" v="stilleståendeVann" />
		<tag k="ssr:hovedgruppe" v="ferskvann" />
		<tag k="ssr:stedsnr" v="186178" />
		<tag k="ssr:type" v="tjern" />
	</node>
	<node id="-256797" lat="59.9256805578" lon="10.9316972246">
		<tag k="fixme" v="consider place=suburb, village or hamlet" />
		<tag k="name" v="Røykås" />
		<tag k="place" v="quarter" />
		<tag k="ssr:date" v="2019-12-27" />
		<tag k="ssr:gruppe" v="bebyggelsesområder" />
		<tag k="ssr:hovedgruppe" v="bebyggelse" />
		<tag k="ssr:stedsnr" v="186007" />
		<tag k="ssr:type" v="tettbebyggelse" />
	</node>
	<node id="-256796" lat="59.9391277801" lon="10.9470499951">
		<tag k="name" v="Robsrud" />
		<tag k="place" v="quarter" />
		<tag k="ssr:date" v="2019-12-27" />
		<tag k="ssr:gruppe" v="bebyggelsesområder" />
		<tag k="ssr:hovedgruppe" v="bebyggelse" />
		<tag k="ssr:stedsnr" v="179126" />
		<tag k="ssr:type" v="tettsteddel" />
	</node>
	<node id="-256795" lat="59.9364444402" lon="10.9931027745">
		<tag k="bridge" v="yes" />
		<tag k="layer" v="1" />
		<tag k="name" v="Brannvaktveien" />
		<tag k="ssr:date" v="2019-12-27" />
		<tag k="ssr:gruppe" v="samferdselsanlegg" />
		<tag k="ssr:hovedgruppe" v="infrastruktur" />
		<tag k="ssr:stedsnr" v="167026" />
		<tag k="ssr:type" v="bru" />
	</node>
	<node id="-256794" lat="59.9489444434" lon="10.9861611193">
		<tag k="name" v="Grønlia" />
		<tag k="place" v="quarter" />
		<tag k="ssr:date" v="2019-12-27" />
		<tag k="ssr:gruppe" v="bebyggelsesområder" />
		<tag k="ssr:hovedgruppe" v="bebyggelse" />
		<tag k="ssr:stedsnr" v="162037" />
		<tag k="ssr:type" v="tettsteddel" />
	</node>
	<node id="-256793" lat="59.9172583341" lon="10.9317361164">
		<tag k="name" v="Øvre Rasta" />
		<tag k="place" v="quarter" />
		<tag k="ssr:date" v="2019-12-27" />
		<tag k="ssr:gruppe" v="bebyggelsesområder" />
		<tag k="ssr:hovedgruppe" v="bebyggelse" />
		<tag k="ssr:stedsnr" v="144995" />
		<tag k="ssr:type" v="boligfelt" />
	</node>
	<node id="-256792" lat="59.9349333364" lon="10.9364444438">
		<tag k="junction" v="yes" />
		<tag k="name" v="Visperud" />
		<tag k="place" v="locality" />
		<tag k="ssr:date" v="2019-12-27" />
		<tag k="ssr:gruppe" v="veg" />
		<tag k="ssr:hovedgruppe" v="infrastruktur" />
		<tag k="ssr:stedsnr" v="144991" />
		<tag k="ssr:type" v="vegkryss" />
	</node>
	<node id="-256791" lat="59.9129888877" lon="10.9895027857">
		<tag k="name" v="Nordenga" />
		<tag k="place" v="farm" />
		<tag k="ssr:date" v="2019-12-27" />
		<tag k="ssr:gruppe" v="gardsbebyggelse" />
		<tag k="ssr:hovedgruppe" v="bebyggelse" />
		<tag k="ssr:stedsnr" v="144974" />
		<tag k="ssr:type" v="bruk" />
	</node>
	<node id="-256790" lat="59.8988444467" lon="10.9653277863">
		<tag k="name" v="Nordre Våler" />
		<tag k="place" v="farm" />
		<tag k="ssr:date" v="2019-12-27" />
		<tag k="ssr:gruppe" v="gardsbebyggelse" />
		<tag k="ssr:hovedgruppe" v="bebyggelse" />
		<tag k="ssr:stedsnr" v="144970" />
		<tag k="ssr:type" v="bruk" />
	</node>
	<node id="-256789" lat="59.8943555567" lon="10.9628888967">
		<tag k="name" v="Søndre Våler" />
		<tag k="place" v="farm" />
		<tag k="ssr:date" v="2019-12-27" />
		<tag k="ssr:gruppe" v="gardsbebyggelse" />
		<tag k="ssr:hovedgruppe" v="bebyggelse" />
		<tag k="ssr:stedsnr" v="144968" />
		<tag k="ssr:type" v="bruk" />
	</node>
	<node id="-256788" lat="59.892127779" lon="10.9537916682">
		<tag k="name" v="Store Dalbakk" />
		<tag k="place" v="farm" />
		<tag k="ssr:date" v="2019-12-27" />
		<tag k="ssr:gruppe" v="gardsbebyggelse" />
		<tag k="ssr:hovedgruppe" v="bebyggelse" />
		<tag k="ssr:stedsnr" v="144950" />
		<tag k="ssr:type" v="bruk" />
	</node>
	<node id="-256787" lat="59.9371833301" lon="10.9873749989">
		<tag k="name" v="Fjellhamardammen" />
		<tag k="natural" v="water" />
		<tag k="ssr:date" v="2019-12-27" />
		<tag k="ssr:gruppe" v="rennendeVann" />
		<tag k="ssr:hovedgruppe" v="ferskvann" />
		<tag k="ssr:stedsnr" v="144930" />
		<tag k="ssr:type" v="lon" />
		<tag k="water" v="lake" />
	</node>
	<node id="-256786" lat="59.8685111125" lon="11.0071722286">
		<tag k="name" v="Geitsjøbogen" />
		<tag k="natural" v="cape" />
		<tag k="ssr:date" v="2019-12-27" />
		<tag k="ssr:gruppe" v="ferskvannskontur" />
		<tag k="ssr:hovedgruppe" v="ferskvann" />
		<tag k="ssr:stedsnr" v="144927" />
		<tag k="ssr:type" v="nes" />
	</node>
	<node id="-256785" lat="59.8658027738" lon="10.9389861141">
		<tag k="name" v="Stokkholtmyra" />
		<tag k="natural" v="wetland" />
		<tag k="ssr:date" v="2019-12-27" />
		<tag k="ssr:gruppe" v="våtmark" />
		<tag k="ssr:hovedgruppe" v="markslag" />
		<tag k="ssr:stedsnr" v="144923" />
		<tag k="ssr:type" v="myr" />
	</node>
	<node id="-256784" lat="59.9100305565" lon="10.9190944456">
		<tag k="name" v="Bjørndalsmyra" />
		<tag k="natural" v="wetland" />
		<tag k="ssr:date" v="2019-12-27" />
		<tag k="ssr:gruppe" v="våtmark" />
		<tag k="ssr:hovedgruppe" v="markslag" />
		<tag k="ssr:stedsnr" v="144917" />
		<tag k="ssr:type" v="myr" />
	</node>
	<node id="-256783" lat="59.8526111121" lon="10.9506833412">
		<tag k="name" v="Eggemåsan" />
		<tag k="natural" v="wetland" />
		<tag k="ssr:date" v="2019-12-27" />
		<tag k="ssr:gruppe" v="våtmark" />
		<tag k="ssr:hovedgruppe" v="markslag" />
		<tag k="ssr:stedsnr" v="144904" />
		<tag k="ssr:type" v="myr" />
	</node>
	<node id="-256782" lat="59.8559755575" lon="10.9678076373">
		<tag k="name" v="Tretjernhøla" />
		<tag k="natural" v="wetland" />
		<tag k="ssr:date" v="2020-05-07" />
		<tag k="ssr:gruppe" v="våtmark" />
		<tag k="ssr:hovedgruppe" v="markslag" />
		<tag k="ssr:stedsnr" v="144888" />
		<tag k="ssr:type" v="myr" />
	</node>
	<node id="-256781" lat="59.8876222253" lon="10.9838694511">
		<tag k="leisure" v="park" />
		<tag k="name" v="Parken" />
		<tag k="ssr:date" v="2019-12-27" />
		<tag k="ssr:gruppe" v="fritidsanlegg" />
		<tag k="ssr:hovedgruppe" v="bebyggelse" />
		<tag k="ssr:stedsnr" v="144877" />
		<tag k="ssr:type" v="park" />
	</node>
	<node id="-256780" lat="59.8677833298" lon="11.0015777745">
		<tag k="name" v="Geiterud" />
		<tag k="place" v="locality" />
		<tag k="ssr:date" v="2019-12-27" />
		<tag k="ssr:gruppe" v="bolighus" />
		<tag k="ssr:hovedgruppe" v="bebyggelse" />
		<tag k="ssr:stedsnr" v="144688" />
		<tag k="ssr:type" v="gammelBosettingsplass" />
	</node>
	<node id="-256779" lat="59.9180222208" lon="11.0123083348">
		<tag k="name" v="Sanderud" />
		<tag k="place" v="locality" />
		<tag k="ssr:date" v="2019-12-27" />
		<tag k="ssr:gruppe" v="bolighus" />
		<tag k="ssr:hovedgruppe" v="bebyggelse" />
		<tag k="ssr:stedsnr" v="144684" />
		<tag k="ssr:type" v="gammelBosettingsplass" />
	</node>
	<node id="-256778" lat="59.9049750021" lon="10.9133416696">
		<tag k="name" v="Dammen" />
		<tag k="ssr:date" v="2019-12-27" />
		<tag k="ssr:gruppe" v="stilleståendeVann" />
		<tag k="ssr:hovedgruppe" v="ferskvann" />
		<tag k="ssr:stedsnr" v="144666" />
		<tag k="ssr:type" v="dam" />
		<tag k="waterway" v="dam" />
	</node>
	<node id="-256777" lat="59.9174888893" lon="10.9191611141">
		<tag k="name" v="Møllerstua" />
		<tag k="place" v="locality" />
		<tag k="ssr:date" v="2019-12-27" />
		<tag k="ssr:gruppe" v="bolighus" />
		<tag k="ssr:hovedgruppe" v="bebyggelse" />
		<tag k="ssr:stedsnr" v="144663" />
		<tag k="ssr:type" v="gammelBosettingsplass" />
	</node>
	<node id="-256776" lat="59.9221583371" lon="11.0235166674">
		<tag k="fixme" v="consider natural=peak for the most distinct mountains in the district" />
		<tag k="name" v="Midtåsen" />
		<tag k="natural" v="hill" />
		<tag k="place" v="locality" />
		<tag k="ssr:date" v="2019-12-27" />
		<tag k="ssr:gruppe" v="høyder" />
		<tag k="ssr:hovedgruppe" v="terreng" />
		<tag k="ssr:stedsnr" v="144658" />
		<tag k="ssr:type" v="ås" />
	</node>
	<node id="-256775" lat="59.9297361128" lon="11.0224305592">
		<tag k="name" v="Sandbakken" />
		<tag k="place" v="farm" />
		<tag k="ssr:date" v="2019-12-27" />
		<tag k="ssr:gruppe" v="gardsbebyggelse" />
		<tag k="ssr:hovedgruppe" v="bebyggelse" />
		<tag k="ssr:stedsnr" v="144651" />
		<tag k="ssr:type" v="bruk" />
	</node>
	<node id="-256774" lat="59.8677277767" lon="10.9360666735">
		<tag k="name" v="Puttedalen" />
		<tag k="natural" v="valley" />
		<tag k="place" v="locality" />
		<tag k="ssr:date" v="2019-12-27" />
		<tag k="ssr:gruppe" v="senkninger" />
		<tag k="ssr:hovedgruppe" v="terreng" />
		<tag k="ssr:stedsnr" v="144093" />
		<tag k="ssr:type" v="dal" />
	</node>
	<node id="-256773" lat="59.904572219" lon="10.9295333298">
		<tag k="name" v="Langmyrdalen" />
		<tag k="natural" v="valley" />
		<tag k="place" v="locality" />
		<tag k="ssr:date" v="2019-12-27" />
		<tag k="ssr:gruppe" v="senkninger" />
		<tag k="ssr:hovedgruppe" v="terreng" />
		<tag k="ssr:stedsnr" v="144091" />
		<tag k="ssr:type" v="dal" />
	</node>
	<node id="-256772" lat="59.8689083314" lon="10.9914555588">
		<tag k="name" v="Arndalen" />
		<tag k="natural" v="valley" />
		<tag k="place" v="locality" />
		<tag k="ssr:date" v="2019-12-27" />
		<tag k="ssr:gruppe" v="senkninger" />
		<tag k="ssr:hovedgruppe" v="terreng" />
		<tag k="ssr:stedsnr" v="144083" />
		<tag k="ssr:type" v="dal" />
	</node>
	<node id="-256771" lat="59.8557916629" lon="10.9872999981">
		<tag k="fixme" v="consider natural=peak for the most distinct mountains in the district" />
		<tag k="name" v="Damåsen" />
		<tag k="natural" v="hill" />
		<tag k="place" v="locality" />
		<tag k="ssr:date" v="2019-12-27" />
		<tag k="ssr:gruppe" v="høyder" />
		<tag k="ssr:hovedgruppe" v="terreng" />
		<tag k="ssr:stedsnr" v="144070" />
		<tag k="ssr:type" v="ås" />
	</node>
	<node id="-256770" lat="59.9066472265" lon="10.9160777798">
		<tag k="fixme" v="consider natural=peak for the most distinct mountains in the district" />
		<tag k="name" v="Bjørndalsåsen" />
		<tag k="natural" v="hill" />
		<tag k="place" v="locality" />
		<tag k="ssr:date" v="2019-12-27" />
		<tag k="ssr:gruppe" v="høyder" />
		<tag k="ssr:hovedgruppe" v="terreng" />
		<tag k="ssr:stedsnr" v="144067" />
		<tag k="ssr:type" v="ås" />
	</node>
	<node id="-256769" lat="59.9092472259" lon="10.9330361108">
		<tag k="fixme" v="consider natural=peak for the most distinct mountains in the district" />
		<tag k="name" v="Lintjernåsen" />
		<tag k="natural" v="hill" />
		<tag k="place" v="locality" />
		<tag k="ssr:date" v="2019-12-27" />
		<tag k="ssr:gruppe" v="høyder" />
		<tag k="ssr:hovedgruppe" v="terreng" />
		<tag k="ssr:stedsnr" v="144066" />
		<tag k="ssr:type" v="ås" />
	</node>
	<node id="-256768" lat="59.8550611091" lon="10.9761972234">
		<tag k="alt_name" v="Høymyra" />
		<tag k="name" v="Høgmyra" />
		<tag k="natural" v="wetland" />
		<tag k="ssr:date" v="2019-12-27" />
		<tag k="ssr:gruppe" v="våtmark" />
		<tag k="ssr:hovedgruppe" v="markslag" />
		<tag k="ssr:stedsnr" v="126220" />
		<tag k="ssr:type" v="myr" />
	</node>
	<node id="-256767" lat="59.8787222183" lon="10.9666999957">
		<tag k="name" v="Igletjernet" />
		<tag k="natural" v="water" />
		<tag k="ssr:date" v="2019-12-27" />
		<tag k="ssr:gruppe" v="stilleståendeVann" />
		<tag k="ssr:hovedgruppe" v="ferskvann" />
		<tag k="ssr:stedsnr" v="126171" />
		<tag k="ssr:type" v="tjern" />
	</node>
	<node id="-256766" lat="59.8798555548" lon="10.9266388923">
		<tag k="alt_name" v="Dammyra" />
		<tag k="name" v="Dammyr" />
		<tag k="natural" v="wetland" />
		<tag k="ssr:date" v="2019-12-27" />
		<tag k="ssr:gruppe" v="våtmark" />
		<tag k="ssr:hovedgruppe" v="markslag" />
		<tag k="ssr:stedsnr" v="126170" />
		<tag k="ssr:type" v="myr" />
	</node>
	<node id="-256765" lat="59.8704297514" lon="10.9725812933">
		<tag k="alt_name" v="Fiskeløysa" />
		<tag k="name" v="Fiskelausa" />
		<tag k="natural" v="water" />
		<tag k="ssr:date" v="2020-02-06" />
		<tag k="ssr:gruppe" v="stilleståendeVann" />
		<tag k="ssr:hovedgruppe" v="ferskvann" />
		<tag k="ssr:stedsnr" v="126133" />
		<tag k="ssr:type" v="tjern" />
	</node>
	<node id="-256764" lat="59.895983337" lon="10.9325722162">
		<tag k="alt_name" v="Kvennåsen" />
		<tag k="fixme" v="consider natural=peak for the most distinct mountains in the district" />
		<tag k="name" v="Kvernås" />
		<tag k="natural" v="hill" />
		<tag k="place" v="locality" />
		<tag k="ssr:date" v="2019-12-27" />
		<tag k="ssr:gruppe" v="høyder" />
		<tag k="ssr:hovedgruppe" v="terreng" />
		<tag k="ssr:stedsnr" v="126084" />
		<tag k="ssr:type" v="ås" />
	</node>
	<node id="-256763" lat="59.8919083314" lon="10.9537249935">
		<tag k="name" v="Dalbakk" />
		<tag k="place" v="isolated_dwelling" />
		<tag k="ssr:date" v="2019-12-27" />
		<tag k="ssr:gruppe" v="bolighus" />
		<tag k="ssr:hovedgruppe" v="bebyggelse" />
		<tag k="ssr:stedsnr" v="126083" />
		<tag k="ssr:type" v="eneboligMindreBoligbygg" />
	</node>
	<node id="-256762" lat="59.8436277821" lon="10.9386055478">
		<tag k="fixme" v="consider natural=peak for the most distinct mountains in the district" />
		<tag k="name" v="Blåsyna" />
		<tag k="natural" v="hill" />
		<tag k="place" v="locality" />
		<tag k="ssr:date" v="2019-12-27" />
		<tag k="ssr:gruppe" v="høyder" />
		<tag k="ssr:hovedgruppe" v="terreng" />
		<tag k="ssr:stedsnr" v="125210" />
		<tag k="ssr:type" v="ås" />
	</node>
	<node id="-256761" lat="59.8875500023" lon="10.9928861066">
		<tag k="name" v="Østmork" />
		<tag k="place" v="farm" />
		<tag k="ssr:date" v="2019-12-27" />
		<tag k="ssr:gruppe" v="gardsbebyggelse" />
		<tag k="ssr:hovedgruppe" v="bebyggelse" />
		<tag k="ssr:stedsnr" v="125181" />
		<tag k="ssr:type" v="bruk" />
	</node>
	<node id="-256759" lat="59.8623027741" lon="10.9714666631">
		<tag k="name" v="Slettnebbet" />
		<tag k="natural" v="cape" />
		<tag k="ssr:date" v="2019-12-27" />
		<tag k="ssr:gruppe" v="ferskvannskontur" />
		<tag k="ssr:hovedgruppe" v="ferskvann" />
		<tag k="ssr:stedsnr" v="84941" />
		<tag k="ssr:type" v="nes" />
	</node>
	<node id="-256758" lat="59.8433861117" lon="10.9585277863">
		<tag k="historic" v="shieling" />
		<tag k="loc_name" v="Løykjesetra" />
		<tag k="name" v="Løkensetra" />
		<tag k="place" v="locality" />
		<tag k="ssr:date" v="2019-12-27" />
		<tag k="ssr:gruppe" v="dyrkamark" />
		<tag k="ssr:hovedgruppe" v="markslag" />
		<tag k="ssr:stedsnr" v="84896" />
		<tag k="ssr:type" v="setervoll" />
	</node>
	<node id="-256757" lat="59.9122527813" lon="10.9209666597">
		<tag k="name" v="Pålerud" />
		<tag k="place" v="farm" />
		<tag k="ssr:date" v="2019-12-27" />
		<tag k="ssr:gruppe" v="gardsbebyggelse" />
		<tag k="ssr:hovedgruppe" v="bebyggelse" />
		<tag k="ssr:stedsnr" v="84988" />
		<tag k="ssr:type" v="bruk" />
	</node>
	<node id="-256756" lat="59.9120305552" lon="10.9566222299">
		<tag k="name" v="Øvre Finstad" />
		<tag k="place" v="farm" />
		<tag k="ssr:date" v="2019-12-27" />
		<tag k="ssr:gruppe" v="gardsbebyggelse" />
		<tag k="ssr:hovedgruppe" v="bebyggelse" />
		<tag k="ssr:stedsnr" v="84986" />
		<tag k="ssr:type" v="bruk" />
	</node>
	<node id="-256755" lat="59.9323888909" lon="10.9624055484">
		<tag k="name" v="Polen" />
		<tag k="place" v="locality" />
		<tag k="ssr:date" v="2019-12-27" />
		<tag k="ssr:gruppe" v="bolighus" />
		<tag k="ssr:hovedgruppe" v="bebyggelse" />
		<tag k="ssr:stedsnr" v="84689" />
		<tag k="ssr:type" v="gammelBosettingsplass" />
	</node>
	<node id="-256754" lat="59.9271993767" lon="11.0082391767">
		<tag k="name" v="Søndre Hovelsrud" />
		<tag k="place" v="farm" />
		<tag k="ssr:date" v="2019-12-27" />
		<tag k="ssr:gruppe" v="gardsbebyggelse" />
		<tag k="ssr:hovedgruppe" v="bebyggelse" />
		<tag k="ssr:stedsnr" v="84650" />
		<tag k="ssr:type" v="bruk" />
	</node>
	<node id="-256753" lat="59.9116333343" lon="10.9148499969">
		<tag k="name" v="Ellingsrudelva" />
		<tag k="ssr:date" v="2019-12-27" />
		<tag k="ssr:gruppe" v="rennendeVann" />
		<tag k="ssr:hovedgruppe" v="ferskvann" />
		<tag k="ssr:stedsnr" v="84636" />
		<tag k="ssr:type" v="elv" />
		<tag k="waterway" v="river" />
	</node>
	<node id="-256752" lat="59.846388893" lon="11.0159305605">
		<tag k="name" v="Skårerputten" />
		<tag k="natural" v="water" />
		<tag k="ssr:date" v="2019-12-27" />
		<tag k="ssr:gruppe" v="stilleståendeVann" />
		<tag k="ssr:hovedgruppe" v="ferskvann" />
		<tag k="ssr:stedsnr" v="84140" />
		<tag k="ssr:type" v="tjern" />
	</node>
	<node id="-256751" lat="59.8441861151" lon="11.0120638903">
		<tag k="name" v="Østre Tonekollen" />
		<tag k="natural" v="hill" />
		<tag k="place" v="locality" />
		<tag k="ssr:date" v="2019-12-27" />
		<tag k="ssr:gruppe" v="høyder" />
		<tag k="ssr:hovedgruppe" v="terreng" />
		<tag k="ssr:stedsnr" v="84080" />
		<tag k="ssr:type" v="høyde" />
	</node>
	<node id="-256750" lat="59.8451694486" lon="10.9948138948">
		<tag k="name" v="Makrellknatten" />
		<tag k="natural" v="hill" />
		<tag k="place" v="locality" />
		<tag k="ssr:date" v="2019-12-27" />
		<tag k="ssr:gruppe" v="høyder" />
		<tag k="ssr:hovedgruppe" v="terreng" />
		<tag k="ssr:stedsnr" v="84078" />
		<tag k="ssr:type" v="høyde" />
	</node>
	<node id="-256749" lat="59.9056083375" lon="10.945686114">
		<tag k="name" v="Vestereng" />
		<tag k="place" v="farm" />
		<tag k="ssr:date" v="2019-12-27" />
		<tag k="ssr:gruppe" v="gardsbebyggelse" />
		<tag k="ssr:hovedgruppe" v="bebyggelse" />
		<tag k="ssr:stedsnr" v="66078" />
		<tag k="ssr:type" v="bruk" />
	</node>
	<node id="-256748" lat="59.877094448" lon="11.0196499972">
		<tag k="alt_name" v="Trettås" />
		<tag k="fixme" v="consider natural=peak for the most distinct mountains in the district" />
		<tag k="name" v="Trettåsen" />
		<tag k="natural" v="hill" />
		<tag k="place" v="locality" />
		<tag k="ssr:date" v="2019-12-27" />
		<tag k="ssr:gruppe" v="høyder" />
		<tag k="ssr:hovedgruppe" v="terreng" />
		<tag k="ssr:stedsnr" v="65185" />
		<tag k="ssr:type" v="ås" />
	</node>
	<node id="-256747" lat="59.8817234197" lon="10.9565925865">
		<tag k="fixme" v="consider natural=peak for the most distinct mountains in the district" />
		<tag k="name" v="Tronfjellet" />
		<tag k="natural" v="hill" />
		<tag k="place" v="locality" />
		<tag k="ssr:date" v="2019-12-27" />
		<tag k="ssr:gruppe" v="høyder" />
		<tag k="ssr:hovedgruppe" v="terreng" />
		<tag k="ssr:stedsnr" v="65169" />
		<tag k="ssr:type" v="ås" />
	</node>
	<node id="-256746" lat="59.9111083303" lon="10.922530562">
		<tag k="alt_name" v="Elvågasæter" />
		<tag k="name" v="Elvågaseter" />
		<tag k="place" v="farm" />
		<tag k="ssr:date" v="2019-12-27" />
		<tag k="ssr:gruppe" v="gardsbebyggelse" />
		<tag k="ssr:hovedgruppe" v="bebyggelse" />
		<tag k="ssr:stedsnr" v="65079" />
		<tag k="ssr:type" v="bruk" />
	</node>
	<node id="-256744" lat="59.9385496132" lon="10.9552640902">
		<tag k="alt_name" v="Langtjernet" />
		<tag k="name" v="Langvannet" />
		<tag k="natural" v="water" />
		<tag k="ssr:date" v="2019-12-27" />
		<tag k="ssr:gruppe" v="stilleståendeVann" />
		<tag k="ssr:hovedgruppe" v="ferskvann" />
		<tag k="ssr:stedsnr" v="65045" />
		<tag k="ssr:type" v="tjern" />
	</node>
	<node id="-256743" lat="59.9279565758" lon="11.0078105059">
		<tag k="fixme" v="consider place=hamlet" />
		<tag k="name" v="Hovelsrud" />
		<tag k="place" v="farm" />
		<tag k="ssr:date" v="2019-12-27" />
		<tag k="ssr:gruppe" v="gardsbebyggelse" />
		<tag k="ssr:hovedgruppe" v="bebyggelse" />
		<tag k="ssr:stedsnr" v="65009" />
		<tag k="ssr:type" v="gard" />
	</node>
	<node id="-256742" lat="59.9197499966" lon="10.9738944404">
		<tag k="name" v="Sørli" />
		<tag k="place" v="quarter" />
		<tag k="ssr:date" v="2019-12-27" />
		<tag k="ssr:gruppe" v="bebyggelsesområder" />
		<tag k="ssr:hovedgruppe" v="bebyggelse" />
		<tag k="ssr:stedsnr" v="40043" />
		<tag k="ssr:type" v="tettsteddel" />
	</node>
	<node id="-256741" lat="59.9201027766" lon="10.9404083374">
		<tag k="name" v="Rasta" />
		<tag k="place" v="quarter" />
		<tag k="ssr:date" v="2019-12-27" />
		<tag k="ssr:gruppe" v="bebyggelsesområder" />
		<tag k="ssr:hovedgruppe" v="bebyggelse" />
		<tag k="ssr:stedsnr" v="40040" />
		<tag k="ssr:type" v="tettsteddel" />
	</node>
	<node id="-256740" lat="59.9311527811" lon="10.938333338">
		<tag k="name" v="Thurmannskogen" />
		<tag k="place" v="quarter" />
		<tag k="ssr:date" v="2019-12-27" />
		<tag k="ssr:gruppe" v="bebyggelsesområder" />
		<tag k="ssr:hovedgruppe" v="bebyggelse" />
		<tag k="ssr:stedsnr" v="40036" />
		<tag k="ssr:type" v="tettsteddel" />
	</node>
	<node id="-256739" lat="59.928586108" lon="10.9522611163">
		<tag k="name" v="Pokerskogen" />
		<tag k="place" v="hamlet" />
		<tag k="ssr:date" v="2019-12-27" />
		<tag k="ssr:gruppe" v="bebyggelsesområder" />
		<tag k="ssr:hovedgruppe" v="bebyggelse" />
		<tag k="ssr:stedsnr" v="23992" />
		<tag k="ssr:type" v="grend" />
	</node>
	<node id="-256738" lat="59.9109777738" lon="10.985436111">
		<tag k="name" v="Nordre Kirkerud" />
		<tag k="place" v="farm" />
		<tag k="ssr:date" v="2019-12-27" />
		<tag k="ssr:gruppe" v="gardsbebyggelse" />
		<tag k="ssr:hovedgruppe" v="bebyggelse" />
		<tag k="ssr:stedsnr" v="23979" />
		<tag k="ssr:type" v="bruk" />
	</node>
	<node id="-256737" lat="59.9365472251" lon="10.9766749936">
		<tag k="amenity" v="school" />
		<tag k="name" v="Fjellsrud skole" />
		<tag k="ssr:date" v="2019-12-27" />
		<tag k="ssr:gruppe" v="institusjoner" />
		<tag k="ssr:hovedgruppe" v="bebyggelse" />
		<tag k="ssr:stedsnr" v="23962" />
		<tag k="ssr:type" v="skole" />
	</node>
	<node id="-256736" lat="59.9066055541" lon="10.9552916694">
		<tag k="name" v="Haugerbekken" />
		<tag k="ssr:date" v="2019-12-27" />
		<tag k="ssr:gruppe" v="rennendeVann" />
		<tag k="ssr:hovedgruppe" v="ferskvann" />
		<tag k="ssr:stedsnr" v="23940" />
		<tag k="ssr:type" v="bekk" />
		<tag k="waterway" v="stream" />
	</node>
	<node id="-256735" lat="59.918338891" lon="10.9792250043">
		<tag k="name" v="Neskulpen" />
		<tag k="place" v="locality" />
		<tag k="ssr:date" v="2019-12-27" />
		<tag k="ssr:gruppe" v="detaljerIFerskvann" />
		<tag k="ssr:hovedgruppe" v="ferskvann" />
		<tag k="ssr:stedsnr" v="23937" />
		<tag k="ssr:type" v="annenVanndetalj" />
	</node>
	<node id="-256734" lat="59.8751999988" lon="11.0004944519">
		<tag k="name" v="Finnlandsmyra" />
		<tag k="natural" v="wetland" />
		<tag k="ssr:date" v="2019-12-27" />
		<tag k="ssr:gruppe" v="våtmark" />
		<tag k="ssr:hovedgruppe" v="markslag" />
		<tag k="ssr:stedsnr" v="23925" />
		<tag k="ssr:type" v="myr" />
	</node>
	<node id="-256733" lat="59.915786115" lon="11.0026944415">
		<tag k="name" v="Lauvås" />
		<tag k="place" v="locality" />
		<tag k="ssr:date" v="2019-12-27" />
		<tag k="ssr:gruppe" v="bolighus" />
		<tag k="ssr:hovedgruppe" v="bebyggelse" />
		<tag k="ssr:stedsnr" v="23696" />
		<tag k="ssr:type" v="gammelBosettingsplass" />
	</node>
	<node id="-256732" lat="59.9440166706" lon="10.9582472238">
		<tag k="landuse" v="winter_sports" />
		<tag k="name" v="Margaretalia" />
		<tag k="piste:type" v="downhill" />
		<tag k="ssr:date" v="2019-12-27" />
		<tag k="ssr:gruppe" v="fritidsanlegg" />
		<tag k="ssr:hovedgruppe" v="bebyggelse" />
		<tag k="ssr:stedsnr" v="23679" />
		<tag k="ssr:type" v="alpinanlegg" />
	</node>
	<node id="-256731" lat="59.8718611131" lon="10.9381388858">
		<tag k="name" v="Halssjøputten" />
		<tag k="natural" v="bay" />
		<tag k="ssr:date" v="2019-12-27" />
		<tag k="ssr:gruppe" v="ferskvannskontur" />
		<tag k="ssr:hovedgruppe" v="ferskvann" />
		<tag k="ssr:stedsnr" v="23143" />
		<tag k="ssr:type" v="vik" />
	</node>
	<node id="-256730" lat="59.8630361101" lon="10.9943527738">
		<tag k="name" v="Malmerlia" />
		<tag k="natural" v="slope" />
		<tag k="place" v="locality" />
		<tag k="ssr:date" v="2019-12-27" />
		<tag k="ssr:gruppe" v="skråninger" />
		<tag k="ssr:hovedgruppe" v="terreng" />
		<tag k="ssr:stedsnr" v="23093" />
		<tag k="ssr:type" v="li" />
	</node>
	<node id="-256729" lat="59.9041686449" lon="11.0170734716">
		<tag k="fixme" v="consider natural=peak for the most distinct mountains in the district" />
		<tag k="name" v="Jongseterås" />
		<tag k="natural" v="hill" />
		<tag k="place" v="locality" />
		<tag k="ssr:date" v="2020-05-07" />
		<tag k="ssr:gruppe" v="høyder" />
		<tag k="ssr:hovedgruppe" v="terreng" />
		<tag k="ssr:stedsnr" v="23084" />
		<tag k="ssr:type" v="ås" />
	</node>
	<node id="-256728" lat="59.926477776" lon="10.981694448">
		<tag k="name" v="Nordre Hammer" />
		<tag k="place" v="farm" />
		<tag k="ssr:date" v="2019-12-27" />
		<tag k="ssr:gruppe" v="gardsbebyggelse" />
		<tag k="ssr:hovedgruppe" v="bebyggelse" />
		<tag k="ssr:stedsnr" v="23083" />
		<tag k="ssr:type" v="bruk" />
	</node>
	<node id="-256727" lat="59.8602000011" lon="10.9920555633">
		<tag k="name" v="Espbrenna" />
		<tag k="natural" v="hill" />
		<tag k="place" v="locality" />
		<tag k="ssr:date" v="2019-12-27" />
		<tag k="ssr:gruppe" v="høyder" />
		<tag k="ssr:hovedgruppe" v="terreng" />
		<tag k="ssr:stedsnr" v="23056" />
		<tag k="ssr:type" v="høyde" />
	</node>
	<node id="-256726" lat="59.8763337926" lon="10.9914502911">
		<tag k="name" v="Garterudberget" />
		<tag k="natural" v="hill" />
		<tag k="place" v="locality" />
		<tag k="ssr:date" v="2019-12-27" />
		<tag k="ssr:gruppe" v="høyder" />
		<tag k="ssr:hovedgruppe" v="terreng" />
		<tag k="ssr:stedsnr" v="23054" />
		<tag k="ssr:type" v="høyde" />
	</node>
	<node id="-256725" lat="59.8846500009" lon="10.9415166748">
		<tag k="name" v="Lyerberget" />
		<tag k="natural" v="hill" />
		<tag k="place" v="locality" />
		<tag k="ssr:date" v="2019-12-27" />
		<tag k="ssr:gruppe" v="høyder" />
		<tag k="ssr:hovedgruppe" v="terreng" />
		<tag k="ssr:stedsnr" v="23047" />
		<tag k="ssr:type" v="høyde" />
	</node>
	<node id="-256724" lat="59.8459583291" lon="10.9589833248">
		<tag k="alt_name" v="Svarttjernet" />
		<tag k="name" v="Svartkulp" />
		<tag k="natural" v="water" />
		<tag k="ssr:date" v="2019-12-27" />
		<tag k="ssr:gruppe" v="stilleståendeVann" />
		<tag k="ssr:hovedgruppe" v="ferskvann" />
		<tag k="ssr:stedsnr" v="5239" />
		<tag k="ssr:type" v="tjern" />
	</node>
	<node id="-256723" lat="59.854258336" lon="10.9339916651">
		<tag k="loc_name" v="Løykjebrudalen" />
		<tag k="name" v="Løkebrudalen" />
		<tag k="natural" v="valley" />
		<tag k="place" v="locality" />
		<tag k="ssr:date" v="2019-12-27" />
		<tag k="ssr:gruppe" v="senkninger" />
		<tag k="ssr:hovedgruppe" v="terreng" />
		<tag k="ssr:stedsnr" v="5230" />
		<tag k="ssr:type" v="dal" />
	</node>
	<node id="-256722" lat="59.9009083367" lon="10.9997388834">
		<tag k="name" v="Styggvannet" />
		<tag k="natural" v="water" />
		<tag k="old_name" v="Styggvatnet" />
		<tag k="ssr:date" v="2019-12-27" />
		<tag k="ssr:gruppe" v="stilleståendeVann" />
		<tag k="ssr:hovedgruppe" v="ferskvann" />
		<tag k="ssr:stedsnr" v="5060" />
		<tag k="ssr:type" v="tjern" />
	</node>
	<node id="-256721" lat="59.8400833355" lon="11.0185611133">
		<tag k="alt_name" v="Kytetjernet, nordre;Nordre Kyttjern" />
		<tag k="name" v="Nordre Kytetjernet" />
		<tag k="natural" v="water" />
		<tag k="ssr:date" v="2019-12-27" />
		<tag k="ssr:gruppe" v="stilleståendeVann" />
		<tag k="ssr:hovedgruppe" v="ferskvann" />
		<tag k="ssr:stedsnr" v="4203" />
		<tag k="ssr:type" v="tjern" />
	</node>
	<node id="-256720" lat="59.8827722194" lon="10.990975004">
		<tag k="name" v="Møllerenga" />
		<tag k="place" v="isolated_dwelling" />
		<tag k="ssr:date" v="2019-12-27" />
		<tag k="ssr:gruppe" v="bolighus" />
		<tag k="ssr:hovedgruppe" v="bebyggelse" />
		<tag k="ssr:stedsnr" v="4182" />
		<tag k="ssr:type" v="eneboligMindreBoligbygg" />
	</node>
	<node id="-256719" lat="59.9388399285" lon="10.9661146322">
		<tag k="alt_name" v="Hanaborg" />
		<tag k="name" v="Hanaborg holdeplass" />
		<tag k="railway" v="halt" />
		<tag k="ssr:date" v="2019-12-27" />
		<tag k="ssr:gruppe" v="bane" />
		<tag k="ssr:hovedgruppe" v="infrastruktur" />
		<tag k="ssr:stedsnr" v="4059" />
		<tag k="ssr:type" v="holdeplass" />
		<tag k="train" v="yes" />
	</node>
	<node id="-256718" lat="59.9233026452" lon="11.003664393">
		<tag k="fixme" v="consider place=hamlet" />
		<tag k="name" v="Østby" />
		<tag k="place" v="farm" />
		<tag k="ssr:date" v="2019-12-27" />
		<tag k="ssr:gruppe" v="gardsbebyggelse" />
		<tag k="ssr:hovedgruppe" v="bebyggelse" />
		<tag k="ssr:stedsnr" v="4018" />
		<tag k="ssr:type" v="gard" />
	</node>
	<node id="-256717" lat="59.9320305519" lon="10.9700888916">
		<tag k="alt_name" v="Fjellhammarelva" />
		<tag k="name" v="Fjellhamarelva" />
		<tag k="ssr:date" v="2019-12-27" />
		<tag k="ssr:gruppe" v="rennendeVann" />
		<tag k="ssr:hovedgruppe" v="ferskvann" />
		<tag k="ssr:stedsnr" v="4012" />
		<tag k="ssr:type" v="bekk" />
		<tag k="waterway" v="stream" />
	</node>
	<node id="-256715" lat="59.9183666713" lon="10.9551916588">
		<tag k="name" v="Skårer" />
		<tag k="place" v="quarter" />
		<tag k="ssr:date" v="2019-12-27" />
		<tag k="ssr:gruppe" v="bebyggelsesområder" />
		<tag k="ssr:hovedgruppe" v="bebyggelse" />
		<tag k="ssr:stedsnr" v="951035" />
		<tag k="ssr:type" v="tettsteddel" />
	</node>
	<node id="-256714" lat="59.8752555584" lon="10.9965249934">
		<tag k="name" v="Bispetangen" />
		<tag k="natural" v="cape" />
		<tag k="ssr:date" v="2019-12-27" />
		<tag k="ssr:gruppe" v="ferskvannskontur" />
		<tag k="ssr:hovedgruppe" v="ferskvann" />
		<tag k="ssr:stedsnr" v="934915" />
		<tag k="ssr:type" v="nes" />
	</node>
	<node id="-256713" lat="59.90869722" lon="10.979786114">
		<tag k="name" v="Kaldkroken" />
		<tag k="place" v="locality" />
		<tag k="ssr:date" v="2019-12-27" />
		<tag k="ssr:gruppe" v="bolighus" />
		<tag k="ssr:hovedgruppe" v="bebyggelse" />
		<tag k="ssr:stedsnr" v="934630" />
		<tag k="ssr:type" v="gammelBosettingsplass" />
	</node>
	<node id="-256712" lat="59.9118722212" lon="10.9798555554">
		<tag k="name" v="Lia" />
		<tag k="place" v="locality" />
		<tag k="ssr:date" v="2019-12-27" />
		<tag k="ssr:gruppe" v="bolighus" />
		<tag k="ssr:hovedgruppe" v="bebyggelse" />
		<tag k="ssr:stedsnr" v="934627" />
		<tag k="ssr:type" v="gammelBosettingsplass" />
	</node>
	<node id="-256711" lat="59.9030888933" lon="10.9151388851">
		<tag k="name" v="Toresplassen" />
		<tag k="place" v="locality" />
		<tag k="ssr:date" v="2019-12-27" />
		<tag k="ssr:gruppe" v="bolighus" />
		<tag k="ssr:hovedgruppe" v="bebyggelse" />
		<tag k="ssr:stedsnr" v="934607" />
		<tag k="ssr:type" v="gammelBosettingsplass" />
	</node>
	<node id="-256710" lat="59.908608331" lon="10.9293777764">
		<tag k="name" v="Kristianstomta" />
		<tag k="place" v="locality" />
		<tag k="ssr:date" v="2019-12-27" />
		<tag k="ssr:gruppe" v="bolighus" />
		<tag k="ssr:hovedgruppe" v="bebyggelse" />
		<tag k="ssr:stedsnr" v="934605" />
		<tag k="ssr:type" v="gammelBosettingsplass" />
	</node>
	<node id="-256709" lat="59.9066444405" lon="10.9456777721">
		<tag k="name" v="Nyborgholen" />
		<tag k="place" v="locality" />
		<tag k="ssr:date" v="2019-12-27" />
		<tag k="ssr:gruppe" v="bolighus" />
		<tag k="ssr:hovedgruppe" v="bebyggelse" />
		<tag k="ssr:stedsnr" v="934604" />
		<tag k="ssr:type" v="gammelBosettingsplass" />
	</node>
	<node id="-256708" lat="59.881149996" lon="10.9330722256">
		<tag k="alt_name" v="Seterkollen" />
		<tag k="fixme" v="consider natural=peak for the most distinct mountains in the district" />
		<tag k="name" v="Sæterkollen" />
		<tag k="natural" v="hill" />
		<tag k="place" v="locality" />
		<tag k="ssr:date" v="2019-12-27" />
		<tag k="ssr:gruppe" v="høyder" />
		<tag k="ssr:hovedgruppe" v="terreng" />
		<tag k="ssr:stedsnr" v="915158" />
		<tag k="ssr:type" v="ås" />
	</node>
	<node id="-256707" lat="59.8487888889" lon="10.9276111148">
		<tag k="alt_name" v="Skytten, søndre" />
		<tag k="loc_name" v="Sør-Skytten" />
		<tag k="name" v="Søndre Skytten" />
		<tag k="place" v="locality" />
		<tag k="ssr:date" v="2019-12-27" />
		<tag k="ssr:gruppe" v="bolighus" />
		<tag k="ssr:hovedgruppe" v="bebyggelse" />
		<tag k="ssr:stedsnr" v="915215" />
		<tag k="ssr:type" v="gammelBosettingsplass" />
	</node>
	<node id="-256706" lat="59.8995749994" lon="10.9886555596">
		<tag k="name" v="Bakkerud" />
		<tag k="place" v="farm" />
		<tag k="ssr:date" v="2019-12-27" />
		<tag k="ssr:gruppe" v="gardsbebyggelse" />
		<tag k="ssr:hovedgruppe" v="bebyggelse" />
		<tag k="ssr:stedsnr" v="915076" />
		<tag k="ssr:type" v="bruk" />
	</node>
	<node id="-256705" lat="59.9067749975" lon="10.9351861137">
		<tag k="alt_name" v="Lintjernet" />
		<tag k="name" v="Lintjern" />
		<tag k="natural" v="water" />
		<tag k="ssr:date" v="2019-12-27" />
		<tag k="ssr:gruppe" v="stilleståendeVann" />
		<tag k="ssr:hovedgruppe" v="ferskvann" />
		<tag k="ssr:stedsnr" v="915069" />
		<tag k="ssr:type" v="tjern" />
	</node>
	<node id="-256704" lat="59.8559444475" lon="10.9764472158">
		<tag k="name" v="Høymyrholtet" />
		<tag k="place" v="locality" />
		<tag k="ssr:date" v="2019-12-27" />
		<tag k="ssr:gruppe" v="dyrkamark" />
		<tag k="ssr:hovedgruppe" v="markslag" />
		<tag k="ssr:stedsnr" v="873871" />
		<tag k="ssr:type" v="utmark" />
	</node>
	<node id="-256703" lat="59.9138722202" lon="10.9449999987">
		<tag k="name" v="Ilajordet" />
		<tag k="place" v="hamlet" />
		<tag k="ssr:date" v="2019-12-27" />
		<tag k="ssr:gruppe" v="bebyggelsesområder" />
		<tag k="ssr:hovedgruppe" v="bebyggelse" />
		<tag k="ssr:stedsnr" v="873857" />
		<tag k="ssr:type" v="grend" />
	</node>
	<node id="-256702" lat="59.8888305595" lon="10.983191662">
		<tag k="name" v="Oppigard" />
		<tag k="place" v="locality" />
		<tag k="ssr:date" v="2019-12-27" />
		<tag k="ssr:gruppe" v="bolighus" />
		<tag k="ssr:hovedgruppe" v="bebyggelse" />
		<tag k="ssr:stedsnr" v="873969" />
		<tag k="ssr:type" v="gammelBosettingsplass" />
	</node>
	<node id="-256701" lat="59.8894833316" lon="10.9818277801">
		<tag k="name" v="Tomta" />
		<tag k="place" v="isolated_dwelling" />
		<tag k="ssr:date" v="2019-12-27" />
		<tag k="ssr:gruppe" v="bolighus" />
		<tag k="ssr:hovedgruppe" v="bebyggelse" />
		<tag k="ssr:stedsnr" v="873954" />
		<tag k="ssr:type" v="eneboligMindreBoligbygg" />
	</node>
	<node id="-256700" lat="59.9190999973" lon="10.9603083349">
		<tag k="amenity" v="community_centre" />
		<tag k="loc_name" v="Bøndenes hus" />
		<tag k="name" v="Bøndernes hus" />
		<tag k="ssr:date" v="2019-12-27" />
		<tag k="ssr:gruppe" v="kulturinstitusjoner" />
		<tag k="ssr:hovedgruppe" v="kultur" />
		<tag k="ssr:stedsnr" v="873927" />
		<tag k="ssr:type" v="forsamlingshusKulturhus" />
	</node>
	<node id="-256699" lat="59.9381638875" lon="10.9994166677">
		<tag k="name" v="Vittenbergbekken" />
		<tag k="ssr:date" v="2019-12-27" />
		<tag k="ssr:gruppe" v="rennendeVann" />
		<tag k="ssr:hovedgruppe" v="ferskvann" />
		<tag k="ssr:stedsnr" v="873925" />
		<tag k="ssr:type" v="bekk" />
		<tag k="waterway" v="stream" />
	</node>
	<node id="-256698" lat="59.9482694469" lon="10.9512416752">
		<tag k="name" v="Djupdalsbekken" />
		<tag k="ssr:date" v="2019-12-27" />
		<tag k="ssr:gruppe" v="rennendeVann" />
		<tag k="ssr:hovedgruppe" v="ferskvann" />
		<tag k="ssr:stedsnr" v="873923" />
		<tag k="ssr:type" v="bekk" />
		<tag k="waterway" v="stream" />
	</node>
	<node id="-256697" lat="59.8690777759" lon="11.0048444386">
		<tag k="name" v="Ospøya" />
		<tag k="place" v="island" />
		<tag k="ssr:date" v="2019-12-27" />
		<tag k="ssr:gruppe" v="ferskvannskontur" />
		<tag k="ssr:hovedgruppe" v="ferskvann" />
		<tag k="ssr:stedsnr" v="873921" />
		<tag k="ssr:type" v="øy" />
	</node>
	<node id="-256696" lat="59.8929138846" lon="10.9257694399">
		<tag k="name" v="Kloppmyra" />
		<tag k="natural" v="wetland" />
		<tag k="ssr:date" v="2019-12-27" />
		<tag k="ssr:gruppe" v="våtmark" />
		<tag k="ssr:hovedgruppe" v="markslag" />
		<tag k="ssr:stedsnr" v="873910" />
		<tag k="ssr:type" v="myr" />
	</node>
	<node id="-256695" lat="59.9158444474" lon="10.9783583295">
		<tag k="leisure" v="pitch" />
		<tag k="name" v="Neskollen skibakke" />
		<tag k="ssr:date" v="2019-12-27" />
		<tag k="ssr:gruppe" v="fritidsanlegg" />
		<tag k="ssr:hovedgruppe" v="bebyggelse" />
		<tag k="ssr:stedsnr" v="873613" />
		<tag k="ssr:type" v="idrettsanlegg" />
	</node>
	<node id="-256694" lat="59.8703583294" lon="10.9793638801">
		<tag k="name" v="Veslekollen" />
		<tag k="natural" v="hill" />
		<tag k="place" v="locality" />
		<tag k="ssr:date" v="2019-12-27" />
		<tag k="ssr:gruppe" v="høyder" />
		<tag k="ssr:hovedgruppe" v="terreng" />
		<tag k="ssr:stedsnr" v="873055" />
		<tag k="ssr:type" v="høyde" />
	</node>
	<node id="-256693" lat="59.8859722203" lon="11.0141500006">
		<tag k="name" v="Djupdalen" />
		<tag k="natural" v="valley" />
		<tag k="place" v="locality" />
		<tag k="ssr:date" v="2019-12-27" />
		<tag k="ssr:gruppe" v="senkninger" />
		<tag k="ssr:hovedgruppe" v="terreng" />
		<tag k="ssr:stedsnr" v="855513" />
		<tag k="ssr:type" v="dal" />
	</node>
	<node id="-256692" lat="59.8945555534" lon="10.9533111027">
		<tag k="name" v="Skulerud" />
		<tag k="place" v="farm" />
		<tag k="ssr:date" v="2019-12-27" />
		<tag k="ssr:gruppe" v="gardsbebyggelse" />
		<tag k="ssr:hovedgruppe" v="bebyggelse" />
		<tag k="ssr:stedsnr" v="855078" />
		<tag k="ssr:type" v="bruk" />
	</node>
	<node id="-256691" lat="59.8791333335" lon="11.0147555604">
		<tag k="alt_name" v="Gjerterudkampen" />
		<tag k="fixme" v="consider natural=peak for the most distinct mountains in the district" />
		<tag k="name" v="Geiterudfjellet" />
		<tag k="natural" v="hill" />
		<tag k="place" v="locality" />
		<tag k="ssr:date" v="2019-12-27" />
		<tag k="ssr:gruppe" v="høyder" />
		<tag k="ssr:hovedgruppe" v="terreng" />
		<tag k="ssr:stedsnr" v="854173" />
		<tag k="ssr:type" v="ås" />
	</node>
	<node id="-256690" lat="59.8750055575" lon="10.9907499956">
		<tag k="alt_name" v="Sotue" />
		<tag k="name" v="Sotua" />
		<tag k="place" v="farm" />
		<tag k="ssr:date" v="2019-12-27" />
		<tag k="ssr:gruppe" v="gardsbebyggelse" />
		<tag k="ssr:hovedgruppe" v="bebyggelse" />
		<tag k="ssr:stedsnr" v="854172" />
		<tag k="ssr:type" v="bruk" />
	</node>
	<node id="-256689" lat="59.8771499988" lon="10.9091111148">
		<tag k="alt_name" v="Nordre Elvåga" />
		<tag k="name" v="Nord-Elvåga" />
		<tag k="natural" v="water" />
		<tag k="ssr:date" v="2019-12-27" />
		<tag k="ssr:gruppe" v="stilleståendeVann" />
		<tag k="ssr:hovedgruppe" v="ferskvann" />
		<tag k="ssr:stedsnr" v="854169" />
		<tag k="ssr:type" v="vann" />
		<tag k="water" v="lake" />
	</node>
	<node id="-256688" lat="59.9374416635" lon="10.9332833294">
		<tag k="bridge" v="yes" />
		<tag k="layer" v="1" />
		<tag k="name" v="Enga" />
		<tag k="ssr:date" v="2019-12-27" />
		<tag k="ssr:gruppe" v="samferdselsanlegg" />
		<tag k="ssr:hovedgruppe" v="infrastruktur" />
		<tag k="ssr:stedsnr" v="835025" />
		<tag k="ssr:type" v="bru" />
	</node>
	<node id="-256687" lat="59.9072666699" lon="10.993541673">
		<tag k="name" v="Pjaskemyra" />
		<tag k="natural" v="wetland" />
		<tag k="ssr:date" v="2019-12-27" />
		<tag k="ssr:gruppe" v="våtmark" />
		<tag k="ssr:hovedgruppe" v="markslag" />
		<tag k="ssr:stedsnr" v="934901" />
		<tag k="ssr:type" v="myr" />
	</node>
	<node id="-256686" lat="59.9388972211" lon="10.9972499941">
		<tag k="name" v="Vittenberg" />
		<tag k="place" v="quarter" />
		<tag k="ssr:date" v="2019-12-27" />
		<tag k="ssr:gruppe" v="bebyggelsesområder" />
		<tag k="ssr:hovedgruppe" v="bebyggelse" />
		<tag k="ssr:stedsnr" v="934996" />
		<tag k="ssr:type" v="boligfelt" />
	</node>
	<node id="-256685" lat="59.9116999989" lon="10.9194388818">
		<tag k="name" v="Aspelund" />
		<tag k="place" v="farm" />
		<tag k="ssr:date" v="2019-12-27" />
		<tag k="ssr:gruppe" v="gardsbebyggelse" />
		<tag k="ssr:hovedgruppe" v="bebyggelse" />
		<tag k="ssr:stedsnr" v="934991" />
		<tag k="ssr:type" v="bruk" />
	</node>
	<node id="-256684" lat="59.9187305542" lon="11.0022416633">
		<tag k="name" v="Vestby" />
		<tag k="place" v="farm" />
		<tag k="ssr:date" v="2019-12-27" />
		<tag k="ssr:gruppe" v="gardsbebyggelse" />
		<tag k="ssr:hovedgruppe" v="bebyggelse" />
		<tag k="ssr:stedsnr" v="934981" />
		<tag k="ssr:type" v="bruk" />
	</node>
	<node id="-256683" lat="59.898980556" lon="10.9696222163">
		<tag k="name" v="Lund" />
		<tag k="place" v="isolated_dwelling" />
		<tag k="ssr:date" v="2019-12-27" />
		<tag k="ssr:gruppe" v="bolighus" />
		<tag k="ssr:hovedgruppe" v="bebyggelse" />
		<tag k="ssr:stedsnr" v="934951" />
		<tag k="ssr:type" v="eneboligMindreBoligbygg" />
	</node>
	<node id="-256682" lat="59.9320750005" lon="10.9841416603">
		<tag k="amenity" v="school" />
		<tag k="name" v="Lørenskog videregående skole" />
		<tag k="ssr:date" v="2019-12-27" />
		<tag k="ssr:gruppe" v="institusjoner" />
		<tag k="ssr:hovedgruppe" v="bebyggelse" />
		<tag k="ssr:stedsnr" v="934937" />
		<tag k="ssr:type" v="skole" />
	</node>
	<node id="-256681" lat="59.9313999992" lon="10.9819916648">
		<tag k="amenity" v="sports_centre" />
		<tag k="name" v="Lørenskoghallen" />
		<tag k="ssr:date" v="2019-12-27" />
		<tag k="ssr:gruppe" v="fritidsanlegg" />
		<tag k="ssr:hovedgruppe" v="bebyggelse" />
		<tag k="ssr:stedsnr" v="934935" />
		<tag k="ssr:type" v="idrettshall" />
	</node>
	<node id="-256680" lat="59.8669972213" lon="11.0105361041">
		<tag k="name" v="Tyrihjellnebbet" />
		<tag k="natural" v="cape" />
		<tag k="ssr:date" v="2019-12-27" />
		<tag k="ssr:gruppe" v="ferskvannskontur" />
		<tag k="ssr:hovedgruppe" v="ferskvann" />
		<tag k="ssr:stedsnr" v="934921" />
		<tag k="ssr:type" v="nes" />
	</node>
	<node id="-256679" lat="59.9342333346" lon="11.0222666694">
		<tag k="name" v="Kurlandsåsen" />
		<tag k="place" v="quarter" />
		<tag k="ssr:date" v="2019-12-27" />
		<tag k="ssr:gruppe" v="bebyggelsesområder" />
		<tag k="ssr:hovedgruppe" v="bebyggelse" />
		<tag k="ssr:stedsnr" v="934594" />
		<tag k="ssr:type" v="boligfelt" />
	</node>
	<node id="-256677" lat="59.8688333317" lon="11.0142305468">
		<tag k="name" v="Badstudalen" />
		<tag k="natural" v="valley" />
		<tag k="place" v="locality" />
		<tag k="ssr:date" v="2019-12-27" />
		<tag k="ssr:gruppe" v="senkninger" />
		<tag k="ssr:hovedgruppe" v="terreng" />
		<tag k="ssr:stedsnr" v="934095" />
		<tag k="ssr:type" v="dal" />
	</node>
	<node id="-256676" lat="59.9113277787" lon="10.9301611062">
		<tag k="fixme" v="consider natural=peak for the most distinct mountains in the district" />
		<tag k="name" v="Tistilåsen" />
		<tag k="natural" v="hill" />
		<tag k="place" v="locality" />
		<tag k="ssr:date" v="2019-12-27" />
		<tag k="ssr:gruppe" v="høyder" />
		<tag k="ssr:hovedgruppe" v="terreng" />
		<tag k="ssr:stedsnr" v="934069" />
		<tag k="ssr:type" v="ås" />
	</node>
	<node id="-256675" lat="59.9006222216" lon="10.9147861041">
		<tag k="fixme" v="consider natural=peak for the most distinct mountains in the district" />
		<tag k="name" v="Toresplassåsen" />
		<tag k="natural" v="hill" />
		<tag k="place" v="locality" />
		<tag k="ssr:date" v="2019-12-27" />
		<tag k="ssr:gruppe" v="høyder" />
		<tag k="ssr:hovedgruppe" v="terreng" />
		<tag k="ssr:stedsnr" v="934060" />
		<tag k="ssr:type" v="ås" />
	</node>
	<node id="-256674" lat="59.8656138873" lon="10.9184861049">
		<tag k="fixme" v="consider natural=peak for the most distinct mountains in the district" />
		<tag k="name" v="Skogbakkåsen" />
		<tag k="natural" v="hill" />
		<tag k="place" v="locality" />
		<tag k="ssr:date" v="2019-12-27" />
		<tag k="ssr:gruppe" v="høyder" />
		<tag k="ssr:hovedgruppe" v="terreng" />
		<tag k="ssr:stedsnr" v="934053" />
		<tag k="ssr:type" v="ås" />
	</node>
	<node id="-256673" lat="59.8821277789" lon="10.9933472252">
		<tag k="name" v="Møllerenghagan" />
		<tag k="natural" v="hill" />
		<tag k="place" v="locality" />
		<tag k="ssr:date" v="2019-12-27" />
		<tag k="ssr:gruppe" v="høyder" />
		<tag k="ssr:hovedgruppe" v="terreng" />
		<tag k="ssr:stedsnr" v="934042" />
		<tag k="ssr:type" v="høyde" />
	</node>
	<node id="-256672" lat="59.9008250037" lon="10.9672027835">
		<tag k="name" v="Grinderud" />
		<tag k="place" v="farm" />
		<tag k="ssr:date" v="2019-12-27" />
		<tag k="ssr:gruppe" v="gardsbebyggelse" />
		<tag k="ssr:hovedgruppe" v="bebyggelse" />
		<tag k="ssr:stedsnr" v="794067" />
		<tag k="ssr:type" v="bruk" />
	</node>
	<node id="-256671" lat="59.904438885" lon="10.9848055626">
		<tag k="alt_name" v="Engerbråten" />
		<tag k="name" v="Engebråtan" />
		<tag k="old_name" v="Engebråten" />
		<tag k="place" v="farm" />
		<tag k="ssr:date" v="2019-12-27" />
		<tag k="ssr:gruppe" v="gardsbebyggelse" />
		<tag k="ssr:hovedgruppe" v="bebyggelse" />
		<tag k="ssr:stedsnr" v="794066" />
		<tag k="ssr:type" v="bruk" />
	</node>
	<node id="-256670" lat="59.8813250029" lon="10.9670500081">
		<tag k="fixme" v="consider natural=peak for the most distinct mountains in the district" />
		<tag k="name" v="Svartåsen" />
		<tag k="natural" v="hill" />
		<tag k="place" v="locality" />
		<tag k="ssr:date" v="2019-12-27" />
		<tag k="ssr:gruppe" v="høyder" />
		<tag k="ssr:hovedgruppe" v="terreng" />
		<tag k="ssr:stedsnr" v="793173" />
		<tag k="ssr:type" v="ås" />
	</node>
	<node id="-256669" lat="59.9192361068" lon="10.9977388821">
		<tag k="name" v="Steinsrud" />
		<tag k="place" v="farm" />
		<tag k="ssr:date" v="2019-12-27" />
		<tag k="ssr:gruppe" v="gardsbebyggelse" />
		<tag k="ssr:hovedgruppe" v="bebyggelse" />
		<tag k="ssr:stedsnr" v="793015" />
		<tag k="ssr:type" v="bruk" />
	</node>
	<node id="-256668" lat="59.9241861149" lon="10.9349722245">
		<tag k="name" v="Østli" />
		<tag k="place" v="farm" />
		<tag k="ssr:date" v="2019-12-27" />
		<tag k="ssr:gruppe" v="gardsbebyggelse" />
		<tag k="ssr:hovedgruppe" v="bebyggelse" />
		<tag k="ssr:stedsnr" v="793014" />
		<tag k="ssr:type" v="bruk" />
	</node>
	<node id="-256667" lat="59.8605693546" lon="10.9166211249">
		<tag k="alt_name" v="Skytten, nordre" />
		<tag k="loc_name" v="Nord-Skytten" />
		<tag k="name" v="Nordre Skytten" />
		<tag k="place" v="locality" />
		<tag k="ssr:date" v="2020-05-14" />
		<tag k="ssr:gruppe" v="bolighus" />
		<tag k="ssr:hovedgruppe" v="bebyggelse" />
		<tag k="ssr:stedsnr" v="915149" />
		<tag k="ssr:type" v="gammelBosettingsplass" />
	</node>
	<node id="-256666" lat="59.8695750023" lon="10.9436611139">
		<tag k="alt_name" v="Rudsvangsholtet;Rudvangsholtet" />
		<tag k="fixme" v="consider natural=peak for the most distinct mountains in the district" />
		<tag k="name" v="Rudsvangholtet" />
		<tag k="natural" v="hill" />
		<tag k="old_name" v="Rudvangholtet" />
		<tag k="place" v="locality" />
		<tag k="ssr:date" v="2019-12-27" />
		<tag k="ssr:gruppe" v="høyder" />
		<tag k="ssr:hovedgruppe" v="terreng" />
		<tag k="ssr:stedsnr" v="915140" />
		<tag k="ssr:type" v="ås" />
	</node>
	<node id="-256665" lat="59.9242305531" lon="10.9623611059">
		<tag k="fixme" v="consider natural=peak for the most distinct mountains in the district" />
		<tag k="name" v="Skåreråsen" />
		<tag k="natural" v="hill" />
		<tag k="place" v="locality" />
		<tag k="ssr:date" v="2019-12-27" />
		<tag k="ssr:gruppe" v="høyder" />
		<tag k="ssr:hovedgruppe" v="terreng" />
		<tag k="ssr:stedsnr" v="915014" />
		<tag k="ssr:type" v="ås" />
	</node>
	<node id="-256664" lat="59.8474638904" lon="11.0220583343">
		<tag k="alt_name" v="Nordre Krokvann" />
		<tag k="name" v="Nordre Krokvannet" />
		<tag k="natural" v="water" />
		<tag k="old_name" v="Krokvatnet, nordre" />
		<tag k="ssr:date" v="2019-12-27" />
		<tag k="ssr:gruppe" v="stilleståendeVann" />
		<tag k="ssr:hovedgruppe" v="ferskvann" />
		<tag k="ssr:stedsnr" v="733230" />
		<tag k="ssr:type" v="tjern" />
	</node>
	<node id="-256663" lat="59.8554499994" lon="11.0044916606">
		<tag k="name" v="Røyrivannet" />
		<tag k="natural" v="water" />
		<tag k="old_name" v="Røyrivatnet" />
		<tag k="ssr:date" v="2019-12-27" />
		<tag k="ssr:gruppe" v="stilleståendeVann" />
		<tag k="ssr:hovedgruppe" v="ferskvann" />
		<tag k="ssr:stedsnr" v="733218" />
		<tag k="ssr:type" v="tjern" />
	</node>
	<node id="-256662" lat="59.8577638881" lon="10.9160527811">
		<tag k="alt_name" v="Søndre Elvåga" />
		<tag k="name" v="Sør-Elvåga" />
		<tag k="natural" v="water" />
		<tag k="ssr:date" v="2020-06-08" />
		<tag k="ssr:gruppe" v="stilleståendeVann" />
		<tag k="ssr:hovedgruppe" v="ferskvann" />
		<tag k="ssr:stedsnr" v="733213" />
		<tag k="ssr:type" v="vann" />
		<tag k="water" v="lake" />
	</node>
	<node id="-256661" lat="59.8690249979" lon="10.9196305536">
		<tag k="name" v="Deledalen" />
		<tag k="natural" v="valley" />
		<tag k="place" v="locality" />
		<tag k="ssr:date" v="2019-12-27" />
		<tag k="ssr:gruppe" v="senkninger" />
		<tag k="ssr:hovedgruppe" v="terreng" />
		<tag k="ssr:stedsnr" v="733150" />
		<tag k="ssr:type" v="dal" />
	</node>
	<node id="-256660" lat="59.9339500024" lon="11.014963885">
		<tag k="alt_name" v="Kurlandsholen" />
		<tag k="name" v="Holen" />
		<tag k="place" v="farm" />
		<tag k="ssr:date" v="2019-12-27" />
		<tag k="ssr:gruppe" v="gardsbebyggelse" />
		<tag k="ssr:hovedgruppe" v="bebyggelse" />
		<tag k="ssr:stedsnr" v="732012" />
		<tag k="ssr:type" v="bruk" />
	</node>
	<node id="-256659" lat="59.9472361067" lon="10.9479805577">
		<tag k="bridge" v="yes" />
		<tag k="layer" v="1" />
		<tag k="name" v="Tangerud" />
		<tag k="ssr:date" v="2019-12-27" />
		<tag k="ssr:gruppe" v="samferdselsanlegg" />
		<tag k="ssr:hovedgruppe" v="infrastruktur" />
		<tag k="ssr:stedsnr" v="896012" />
		<tag k="ssr:type" v="bru" />
	</node>
	<node id="-256658" lat="59.9293055581" lon="10.9461222143">
		<tag k="bridge" v="yes" />
		<tag k="layer" v="1" />
		<tag k="name" v="Thurmann" />
		<tag k="ssr:date" v="2019-12-27" />
		<tag k="ssr:gruppe" v="samferdselsanlegg" />
		<tag k="ssr:hovedgruppe" v="infrastruktur" />
		<tag k="ssr:stedsnr" v="713016" />
		<tag k="ssr:type" v="bru" />
	</node>
	<node id="-256657" lat="59.910912519" lon="10.9851248315">
		<tag k="fixme" v="consider place=hamlet" />
		<tag k="name" v="Midtbygda" />
		<tag k="place" v="village" />
		<tag k="ssr:date" v="2019-12-27" />
		<tag k="ssr:gruppe" v="bebyggelsesområder" />
		<tag k="ssr:hovedgruppe" v="bebyggelse" />
		<tag k="ssr:stedsnr" v="890067" />
		<tag k="ssr:type" v="bygdelagBygd" />
	</node>
	<node id="-256656" lat="59.9318305544" lon="10.9966027699">
		<tag k="amenity" v="hospital" />
		<tag k="name" v="Akershus universitetssykehus" />
		<tag k="old_name" v="Sentralsykehuset;Sentralsykehuset i Akershus" />
		<tag k="ssr:date" v="2019-12-27" />
		<tag k="ssr:gruppe" v="institusjoner" />
		<tag k="ssr:hovedgruppe" v="bebyggelse" />
		<tag k="ssr:stedsnr" v="890011" />
		<tag k="ssr:type" v="sykehus" />
	</node>
	<node id="-256655" lat="59.8985499978" lon="10.944058332">
		<tag k="name" v="Heggedalen" />
		<tag k="place" v="isolated_dwelling" />
		<tag k="ssr:date" v="2019-12-27" />
		<tag k="ssr:gruppe" v="bolighus" />
		<tag k="ssr:hovedgruppe" v="bebyggelse" />
		<tag k="ssr:stedsnr" v="733093" />
		<tag k="ssr:type" v="fritidsbolig" />
	</node>
	<node id="-256654" lat="59.9022611137" lon="10.9319361182">
		<tag k="alt_name" v="Langåsen" />
		<tag k="fixme" v="consider natural=peak for the most distinct mountains in the district" />
		<tag k="name" v="Linås" />
		<tag k="natural" v="hill" />
		<tag k="place" v="locality" />
		<tag k="ssr:date" v="2019-12-27" />
		<tag k="ssr:gruppe" v="høyder" />
		<tag k="ssr:hovedgruppe" v="terreng" />
		<tag k="ssr:stedsnr" v="733088" />
		<tag k="ssr:type" v="ås" />
	</node>
	<node id="-256653" lat="59.9008193296" lon="11.0208749239">
		<tag k="fixme" v="consider natural=peak for the most distinct mountains in the district" />
		<tag k="name" v="Dunderen" />
		<tag k="natural" v="hill" />
		<tag k="place" v="locality" />
		<tag k="ssr:date" v="2020-05-07" />
		<tag k="ssr:gruppe" v="høyder" />
		<tag k="ssr:hovedgruppe" v="terreng" />
		<tag k="ssr:stedsnr" v="733082" />
		<tag k="ssr:type" v="ås" />
	</node>
	<node id="-256652" lat="59.9023555548" lon="11.0056999977">
		<tag k="fixme" v="consider natural=peak for the most distinct mountains in the district" />
		<tag k="name" v="Linfjellet" />
		<tag k="natural" v="hill" />
		<tag k="place" v="locality" />
		<tag k="ssr:date" v="2019-12-27" />
		<tag k="ssr:gruppe" v="høyder" />
		<tag k="ssr:hovedgruppe" v="terreng" />
		<tag k="ssr:stedsnr" v="733081" />
		<tag k="ssr:type" v="ås" />
	</node>
	<node id="-256651" lat="59.9222777744" lon="10.9217583269">
		<tag k="name" v="Nordli" />
		<tag k="place" v="farm" />
		<tag k="ssr:date" v="2019-12-27" />
		<tag k="ssr:gruppe" v="gardsbebyggelse" />
		<tag k="ssr:hovedgruppe" v="bebyggelse" />
		<tag k="ssr:stedsnr" v="733027" />
		<tag k="ssr:type" v="bruk" />
	</node>
	<node id="-256650" lat="59.945639095" lon="10.9513566066">
		<tag k="fixme" v="consider place=hamlet" />
		<tag k="name" v="Skårerødegården" />
		<tag k="place" v="farm" />
		<tag k="ssr:date" v="2019-12-27" />
		<tag k="ssr:gruppe" v="gardsbebyggelse" />
		<tag k="ssr:hovedgruppe" v="bebyggelse" />
		<tag k="ssr:stedsnr" v="732561" />
		<tag k="ssr:type" v="gard" />
	</node>
	<node id="-256649" lat="59.8525666668" lon="10.9836916595">
		<tag k="name" v="Skålsjømyra" />
		<tag k="natural" v="wetland" />
		<tag k="ssr:date" v="2019-12-27" />
		<tag k="ssr:gruppe" v="våtmark" />
		<tag k="ssr:hovedgruppe" v="markslag" />
		<tag k="ssr:stedsnr" v="630876" />
		<tag k="ssr:type" v="myr" />
	</node>
	<node id="-256648" lat="59.9008027808" lon="11.0146805611">
		<tag k="name" v="Langmyra" />
		<tag k="natural" v="wetland" />
		<tag k="ssr:date" v="2019-12-27" />
		<tag k="ssr:gruppe" v="våtmark" />
		<tag k="ssr:hovedgruppe" v="markslag" />
		<tag k="ssr:stedsnr" v="630873" />
		<tag k="ssr:type" v="myr" />
	</node>
	<node id="-256647" lat="59.9237416701" lon="11.0006250077">
		<tag k="name" v="Nedre Østby" />
		<tag k="place" v="farm" />
		<tag k="ssr:date" v="2019-12-27" />
		<tag k="ssr:gruppe" v="gardsbebyggelse" />
		<tag k="ssr:hovedgruppe" v="bebyggelse" />
		<tag k="ssr:stedsnr" v="630971" />
		<tag k="ssr:type" v="bruk" />
	</node>
	<node id="-256646" lat="59.9085777749" lon="10.9708444364">
		<tag k="name" v="Øvre Feiring" />
		<tag k="place" v="farm" />
		<tag k="ssr:date" v="2019-12-27" />
		<tag k="ssr:gruppe" v="gardsbebyggelse" />
		<tag k="ssr:hovedgruppe" v="bebyggelse" />
		<tag k="ssr:stedsnr" v="630966" />
		<tag k="ssr:type" v="bruk" />
	</node>
	<node id="-256645" lat="59.892241667" lon="10.9774666615">
		<tag k="name" v="Skolehuset" />
		<tag k="place" v="farm" />
		<tag k="ssr:date" v="2019-12-27" />
		<tag k="ssr:gruppe" v="gardsbebyggelse" />
		<tag k="ssr:hovedgruppe" v="bebyggelse" />
		<tag k="ssr:stedsnr" v="630954" />
		<tag k="ssr:type" v="bruk" />
	</node>
	<node id="-256644" lat="59.8686638905" lon="10.9109999953">
		<tag k="name" v="Tangenøya" />
		<tag k="place" v="island" />
		<tag k="ssr:date" v="2019-12-27" />
		<tag k="ssr:gruppe" v="ferskvannskontur" />
		<tag k="ssr:hovedgruppe" v="ferskvann" />
		<tag k="ssr:stedsnr" v="630916" />
		<tag k="ssr:type" v="øy" />
	</node>
	<node id="-256643" lat="59.939550004" lon="11.0073833287">
		<tag k="name" v="Fjellstad" />
		<tag k="place" v="hamlet" />
		<tag k="ssr:date" v="2019-12-27" />
		<tag k="ssr:gruppe" v="bebyggelsesområder" />
		<tag k="ssr:hovedgruppe" v="bebyggelse" />
		<tag k="ssr:stedsnr" v="630577" />
		<tag k="ssr:type" v="grend" />
	</node>
	<node id="-256642" lat="59.8881583294" lon="10.9400249956">
		<tag k="alt_name" v="Skullerudtjernet" />
		<tag k="name" v="Skullerudtjern" />
		<tag k="natural" v="water" />
		<tag k="ssr:date" v="2019-12-27" />
		<tag k="ssr:gruppe" v="stilleståendeVann" />
		<tag k="ssr:hovedgruppe" v="ferskvann" />
		<tag k="ssr:stedsnr" v="611159" />
		<tag k="ssr:type" v="tjern" />
	</node>
	<node id="-256641" lat="59.859822221" lon="10.952749993">
		<tag k="name" v="Langmyra" />
		<tag k="natural" v="wetland" />
		<tag k="ssr:date" v="2019-12-27" />
		<tag k="ssr:gruppe" v="våtmark" />
		<tag k="ssr:hovedgruppe" v="markslag" />
		<tag k="ssr:stedsnr" v="611221" />
		<tag k="ssr:type" v="myr" />
	</node>
	<node id="-256640" lat="59.856772226" lon="10.9246388892">
		<tag k="name" v="Purkemyrene" />
		<tag k="natural" v="wetland" />
		<tag k="ssr:date" v="2019-12-27" />
		<tag k="ssr:gruppe" v="våtmark" />
		<tag k="ssr:hovedgruppe" v="markslag" />
		<tag k="ssr:stedsnr" v="611220" />
		<tag k="ssr:type" v="myr" />
	</node>
	<node id="-256639" lat="59.9166861109" lon="10.9768722246">
		<tag k="name" v="Nes" />
		<tag k="place" v="farm" />
		<tag k="ssr:date" v="2019-12-27" />
		<tag k="ssr:gruppe" v="gardsbebyggelse" />
		<tag k="ssr:hovedgruppe" v="bebyggelse" />
		<tag k="ssr:stedsnr" v="611022" />
		<tag k="ssr:type" v="bruk" />
	</node>
	<node id="-256638" lat="59.9201372014" lon="10.9576989284">
		<tag k="fixme" v="consider place=hamlet" />
		<tag k="name" v="Skårer" />
		<tag k="place" v="farm" />
		<tag k="ssr:date" v="2019-12-27" />
		<tag k="ssr:gruppe" v="gardsbebyggelse" />
		<tag k="ssr:hovedgruppe" v="bebyggelse" />
		<tag k="ssr:stedsnr" v="611015" />
		<tag k="ssr:type" v="gard" />
	</node>
	<node id="-256637" lat="59.9429833334" lon="10.9471194438">
		<tag k="bridge" v="yes" />
		<tag k="layer" v="1" />
		<tag k="name" v="Robsrud" />
		<tag k="ssr:date" v="2019-12-27" />
		<tag k="ssr:gruppe" v="samferdselsanlegg" />
		<tag k="ssr:hovedgruppe" v="infrastruktur" />
		<tag k="ssr:stedsnr" v="592022" />
		<tag k="ssr:type" v="bru" />
	</node>
	<node id="-256636" lat="59.9436333372" lon="10.9466277809">
		<tag k="bridge" v="yes" />
		<tag k="layer" v="1" />
		<tag k="name" v="Stasjonsmyra" />
		<tag k="ssr:date" v="2019-12-27" />
		<tag k="ssr:gruppe" v="samferdselsanlegg" />
		<tag k="ssr:hovedgruppe" v="infrastruktur" />
		<tag k="ssr:stedsnr" v="592013" />
		<tag k="ssr:type" v="bru" />
	</node>
	<node id="-256635" lat="59.9422861136" lon="10.9690222293">
		<tag k="name" v="Haneborglia" />
		<tag k="place" v="quarter" />
		<tag k="ssr:date" v="2019-12-27" />
		<tag k="ssr:gruppe" v="bebyggelsesområder" />
		<tag k="ssr:hovedgruppe" v="bebyggelse" />
		<tag k="ssr:stedsnr" v="708059" />
		<tag k="ssr:type" v="tettsteddel" />
	</node>
	<node id="-256634" lat="59.9339833317" lon="10.9529777837">
		<tag k="name" v="Kjenn" />
		<tag k="place" v="quarter" />
		<tag k="ssr:date" v="2019-12-27" />
		<tag k="ssr:gruppe" v="bebyggelsesområder" />
		<tag k="ssr:hovedgruppe" v="bebyggelse" />
		<tag k="ssr:stedsnr" v="708029" />
		<tag k="ssr:type" v="tettsteddel" />
	</node>
	<node id="-256633" lat="59.9223361076" lon="10.9856388872">
		<tag k="name" v="Mellom-Røyri" />
		<tag k="place" v="farm" />
		<tag k="ssr:date" v="2019-12-27" />
		<tag k="ssr:gruppe" v="gardsbebyggelse" />
		<tag k="ssr:hovedgruppe" v="bebyggelse" />
		<tag k="ssr:stedsnr" v="691983" />
		<tag k="ssr:type" v="bruk" />
	</node>
	<node id="-256632" lat="59.8957138908" lon="10.9601555607">
		<tag k="name" v="Vestre Våler" />
		<tag k="place" v="farm" />
		<tag k="ssr:date" v="2019-12-27" />
		<tag k="ssr:gruppe" v="gardsbebyggelse" />
		<tag k="ssr:hovedgruppe" v="bebyggelse" />
		<tag k="ssr:stedsnr" v="691961" />
		<tag k="ssr:type" v="bruk" />
	</node>
	<node id="-256631" lat="59.8799361071" lon="10.9884222149">
		<tag k="name" v="Sandstykket" />
		<tag k="place" v="farm" />
		<tag k="ssr:date" v="2019-12-27" />
		<tag k="ssr:gruppe" v="gardsbebyggelse" />
		<tag k="ssr:hovedgruppe" v="bebyggelse" />
		<tag k="ssr:stedsnr" v="691950" />
		<tag k="ssr:type" v="bruk" />
	</node>
	<node id="-256629" lat="59.918511112" lon="10.9611277699">
		<tag k="amenity" v="nursing_home" />
		<tag k="name" v="Lørenskog sykehjem" />
		<tag k="ssr:date" v="2019-12-27" />
		<tag k="ssr:gruppe" v="institusjoner" />
		<tag k="ssr:hovedgruppe" v="bebyggelse" />
		<tag k="ssr:stedsnr" v="691930" />
		<tag k="ssr:type" v="helseinstitusjon" />
	</node>
	<node id="-256628" lat="59.9338611116" lon="10.9715527798">
		<tag k="amenity" v="nursing_home" />
		<tag k="name" v="Dovre trygdesenter" />
		<tag k="ssr:date" v="2019-12-27" />
		<tag k="ssr:gruppe" v="institusjoner" />
		<tag k="ssr:hovedgruppe" v="bebyggelse" />
		<tag k="ssr:stedsnr" v="691928" />
		<tag k="ssr:type" v="helseinstitusjon" />
	</node>
	<node id="-256627" lat="59.8926722195" lon="10.9505916607">
		<tag k="name" v="Skillebekk" />
		<tag k="ssr:date" v="2019-12-27" />
		<tag k="ssr:gruppe" v="rennendeVann" />
		<tag k="ssr:hovedgruppe" v="ferskvann" />
		<tag k="ssr:stedsnr" v="691910" />
		<tag k="ssr:type" v="bekk" />
		<tag k="waterway" v="stream" />
	</node>
	<node id="-256626" lat="59.8792416654" lon="10.9355277841">
		<tag k="name" v="Kastmyra" />
		<tag k="natural" v="wetland" />
		<tag k="ssr:date" v="2019-12-27" />
		<tag k="ssr:gruppe" v="våtmark" />
		<tag k="ssr:hovedgruppe" v="markslag" />
		<tag k="ssr:stedsnr" v="691899" />
		<tag k="ssr:type" v="myr" />
	</node>
	<node id="-256625" lat="59.8888694415" lon="10.9649111061">
		<tag k="name" v="Vålermyra" />
		<tag k="natural" v="wetland" />
		<tag k="ssr:date" v="2019-12-27" />
		<tag k="ssr:gruppe" v="våtmark" />
		<tag k="ssr:hovedgruppe" v="markslag" />
		<tag k="ssr:stedsnr" v="691888" />
		<tag k="ssr:type" v="myr" />
	</node>
	<node id="-256624" lat="59.9171055577" lon="11.0084388963">
		<tag k="name" v="Tranbærmyra" />
		<tag k="natural" v="wetland" />
		<tag k="ssr:date" v="2019-12-27" />
		<tag k="ssr:gruppe" v="våtmark" />
		<tag k="ssr:hovedgruppe" v="markslag" />
		<tag k="ssr:stedsnr" v="691879" />
		<tag k="ssr:type" v="myr" />
	</node>
	<node id="-256623" lat="59.8730611127" lon="10.9369777724">
		<tag k="name" v="Musehogget" />
		<tag k="place" v="locality" />
		<tag k="ssr:date" v="2019-12-27" />
		<tag k="ssr:gruppe" v="dyrkamark" />
		<tag k="ssr:hovedgruppe" v="markslag" />
		<tag k="ssr:stedsnr" v="691876" />
		<tag k="ssr:type" v="utmark" />
	</node>
	<node id="-256622" lat="59.8576249965" lon="10.9964583371">
		<tag k="name" v="Askeslora" />
		<tag k="place" v="locality" />
		<tag k="ssr:date" v="2019-12-27" />
		<tag k="ssr:gruppe" v="dyrkamark" />
		<tag k="ssr:hovedgruppe" v="markslag" />
		<tag k="ssr:stedsnr" v="691871" />
		<tag k="ssr:type" v="utmark" />
	</node>
	<node id="-256621" lat="59.9082666661" lon="11.0220388955">
		<tag k="historic" v="shieling" />
		<tag k="name" v="Jongseter" />
		<tag k="place" v="locality" />
		<tag k="ssr:date" v="2019-12-27" />
		<tag k="ssr:gruppe" v="dyrkamark" />
		<tag k="ssr:hovedgruppe" v="markslag" />
		<tag k="ssr:stedsnr" v="691858" />
		<tag k="ssr:type" v="setervoll" />
	</node>
	<node id="-256620" lat="59.9376694475" lon="10.9888972245">
		<tag k="name" v="Lørdagsrud" />
		<tag k="place" v="locality" />
		<tag k="ssr:date" v="2019-12-27" />
		<tag k="ssr:gruppe" v="bolighus" />
		<tag k="ssr:hovedgruppe" v="bebyggelse" />
		<tag k="ssr:stedsnr" v="691662" />
		<tag k="ssr:type" v="gammelBosettingsplass" />
	</node>
	<node id="-256619" lat="59.9159833374" lon="10.9963583371">
		<tag k="name" v="Nordal" />
		<tag k="place" v="locality" />
		<tag k="ssr:date" v="2019-12-27" />
		<tag k="ssr:gruppe" v="bolighus" />
		<tag k="ssr:hovedgruppe" v="bebyggelse" />
		<tag k="ssr:stedsnr" v="691649" />
		<tag k="ssr:type" v="gammelBosettingsplass" />
	</node>
	<node id="-256618" lat="59.9301527745" lon="10.932808329">
		<tag k="name" v="Røykås trafostasjon" />
		<tag k="place" v="locality" />
		<tag k="ssr:date" v="2019-12-27" />
		<tag k="ssr:gruppe" v="kulturminner" />
		<tag k="ssr:hovedgruppe" v="kultur" />
		<tag k="ssr:stedsnr" v="691647" />
		<tag k="ssr:type" v="annenKulturdetalj" />
	</node>
	<node id="-256617" lat="59.8908499969" lon="10.9275944498">
		<tag k="highway" v="path" />
		<tag k="name" v="Kustinta" />
		<tag k="ssr:date" v="2019-12-27" />
		<tag k="ssr:gruppe" v="veg" />
		<tag k="ssr:hovedgruppe" v="infrastruktur" />
		<tag k="ssr:stedsnr" v="691641" />
		<tag k="ssr:type" v="sti" />
	</node>
	<node id="-256616" lat="59.8422638875" lon="10.9271999973">
		<tag k="name" v="Eriksvannbekken" />
		<tag k="ssr:date" v="2019-12-27" />
		<tag k="ssr:gruppe" v="rennendeVann" />
		<tag k="ssr:hovedgruppe" v="ferskvann" />
		<tag k="ssr:stedsnr" v="691198" />
		<tag k="ssr:type" v="bekk" />
		<tag k="waterway" v="stream" />
	</node>
	<node id="-256615" lat="59.8723888932" lon="10.9986916599">
		<tag k="name" v="Grytebråtevika" />
		<tag k="natural" v="bay" />
		<tag k="ssr:date" v="2019-12-27" />
		<tag k="ssr:gruppe" v="ferskvannskontur" />
		<tag k="ssr:hovedgruppe" v="ferskvann" />
		<tag k="ssr:stedsnr" v="691144" />
		<tag k="ssr:type" v="vik" />
	</node>
	<node id="-256614" lat="59.8625888915" lon="11.010180563">
		<tag k="name" v="Kalddalen" />
		<tag k="natural" v="valley" />
		<tag k="place" v="locality" />
		<tag k="ssr:date" v="2019-12-27" />
		<tag k="ssr:gruppe" v="senkninger" />
		<tag k="ssr:hovedgruppe" v="terreng" />
		<tag k="ssr:stedsnr" v="691125" />
		<tag k="ssr:type" v="dal" />
	</node>
	<node id="-256613" lat="59.8437444474" lon="11.0093027827">
		<tag k="name" v="Tonekolldalen" />
		<tag k="natural" v="valley" />
		<tag k="place" v="locality" />
		<tag k="ssr:date" v="2019-12-27" />
		<tag k="ssr:gruppe" v="senkninger" />
		<tag k="ssr:hovedgruppe" v="terreng" />
		<tag k="ssr:stedsnr" v="691112" />
		<tag k="ssr:type" v="dal" />
	</node>
	<node id="-256612" lat="59.9249749993" lon="10.9712361163">
		<tag k="name" v="Nordre Nordli" />
		<tag k="place" v="farm" />
		<tag k="ssr:date" v="2019-12-27" />
		<tag k="ssr:gruppe" v="gardsbebyggelse" />
		<tag k="ssr:hovedgruppe" v="bebyggelse" />
		<tag k="ssr:stedsnr" v="691107" />
		<tag k="ssr:type" v="bruk" />
	</node>
	<node id="-256611" lat="59.8905388851" lon="10.95636389">
		<tag k="name" v="Vålerlia" />
		<tag k="natural" v="slope" />
		<tag k="place" v="locality" />
		<tag k="ssr:date" v="2019-12-27" />
		<tag k="ssr:gruppe" v="skråninger" />
		<tag k="ssr:hovedgruppe" v="terreng" />
		<tag k="ssr:stedsnr" v="691105" />
		<tag k="ssr:type" v="li" />
	</node>
	<node id="-256610" lat="59.8692111112" lon="10.9758555616">
		<tag k="fixme" v="consider natural=peak for the most distinct mountains in the district" />
		<tag k="name" v="Romsås" />
		<tag k="natural" v="hill" />
		<tag k="place" v="locality" />
		<tag k="ssr:date" v="2019-12-27" />
		<tag k="ssr:gruppe" v="høyder" />
		<tag k="ssr:hovedgruppe" v="terreng" />
		<tag k="ssr:stedsnr" v="691101" />
		<tag k="ssr:type" v="ås" />
	</node>
	<node id="-256609" lat="59.8649777745" lon="11.0046166698">
		<tag k="fixme" v="consider natural=peak for the most distinct mountains in the district" />
		<tag k="name" v="Elgås" />
		<tag k="natural" v="hill" />
		<tag k="place" v="locality" />
		<tag k="ssr:date" v="2019-12-27" />
		<tag k="ssr:gruppe" v="høyder" />
		<tag k="ssr:hovedgruppe" v="terreng" />
		<tag k="ssr:stedsnr" v="691098" />
		<tag k="ssr:type" v="ås" />
	</node>
	<node id="-256608" lat="59.9131555573" lon="10.9759138943">
		<tag k="fixme" v="consider natural=peak for the most distinct mountains in the district" />
		<tag k="name" v="Nesåsen" />
		<tag k="natural" v="hill" />
		<tag k="place" v="locality" />
		<tag k="ssr:date" v="2019-12-27" />
		<tag k="ssr:gruppe" v="høyder" />
		<tag k="ssr:hovedgruppe" v="terreng" />
		<tag k="ssr:stedsnr" v="691087" />
		<tag k="ssr:type" v="ås" />
	</node>
	<node id="-256607" lat="59.8707166626" lon="10.9522138874">
		<tag k="name" v="Ryenseterkollen" />
		<tag k="natural" v="hill" />
		<tag k="place" v="locality" />
		<tag k="ssr:date" v="2019-12-27" />
		<tag k="ssr:gruppe" v="høyder" />
		<tag k="ssr:hovedgruppe" v="terreng" />
		<tag k="ssr:stedsnr" v="691068" />
		<tag k="ssr:type" v="høyde" />
	</node>
	<node id="-256606" lat="59.9519972216" lon="10.9637666625">
		<tag k="name" v="Osloutsikten" />
		<tag k="natural" v="hill" />
		<tag k="place" v="locality" />
		<tag k="ssr:date" v="2019-12-27" />
		<tag k="ssr:gruppe" v="høyder" />
		<tag k="ssr:hovedgruppe" v="terreng" />
		<tag k="ssr:stedsnr" v="691058" />
		<tag k="ssr:type" v="høyde" />
	</node>
	<node id="-256605" lat="59.9173638856" lon="10.9999888836">
		<tag k="name" v="Suseberget" />
		<tag k="natural" v="hill" />
		<tag k="place" v="locality" />
		<tag k="ssr:date" v="2019-12-27" />
		<tag k="ssr:gruppe" v="høyder" />
		<tag k="ssr:hovedgruppe" v="terreng" />
		<tag k="ssr:stedsnr" v="691053" />
		<tag k="ssr:type" v="berg" />
	</node>
	<node id="-256604" lat="59.9287444468" lon="10.9656416692">
		<tag k="bridge" v="yes" />
		<tag k="layer" v="1" />
		<tag k="name" v="Knattenkrysset" />
		<tag k="ssr:date" v="2019-12-27" />
		<tag k="ssr:gruppe" v="samferdselsanlegg" />
		<tag k="ssr:hovedgruppe" v="infrastruktur" />
		<tag k="ssr:stedsnr" v="531019" />
		<tag k="ssr:type" v="bru" />
	</node>
	<node id="-256603" lat="59.8920166639" lon="10.9232166655">
		<tag k="name" v="Lørenskogmarka vest" />
		<tag k="place" v="locality" />
		<tag k="ssr:date" v="2019-12-27" />
		<tag k="ssr:gruppe" v="dyrkamark" />
		<tag k="ssr:hovedgruppe" v="markslag" />
		<tag k="ssr:stedsnr" v="526048" />
		<tag k="ssr:type" v="utmark" />
	</node>
	<node id="-256602" lat="59.9375416669" lon="10.9841527773">
		<tag k="name" v="Fjellhamar" />
		<tag k="place" v="quarter" />
		<tag k="ssr:date" v="2019-12-27" />
		<tag k="ssr:gruppe" v="bebyggelsesområder" />
		<tag k="ssr:hovedgruppe" v="bebyggelse" />
		<tag k="ssr:stedsnr" v="526044" />
		<tag k="ssr:type" v="tettsteddel" />
	</node>
	<node id="-256601" lat="59.9337527811" lon="10.9946666701">
		<tag k="name" v="Nordbyhagen" />
		<tag k="place" v="quarter" />
		<tag k="ssr:date" v="2019-12-27" />
		<tag k="ssr:gruppe" v="bebyggelsesområder" />
		<tag k="ssr:hovedgruppe" v="bebyggelse" />
		<tag k="ssr:stedsnr" v="526030" />
		<tag k="ssr:type" v="tettsteddel" />
	</node>
	<node id="-256600" lat="59.9391277801" lon="10.9470499951">
		<tag k="alt_name" v="Robsrud" />
		<tag k="name" v="Rufsrud" />
		<tag k="place" v="quarter" />
		<tag k="ssr:date" v="2019-12-27" />
		<tag k="ssr:gruppe" v="bebyggelsesområder" />
		<tag k="ssr:hovedgruppe" v="bebyggelse" />
		<tag k="ssr:stedsnr" v="526020" />
		<tag k="ssr:type" v="tettsteddel" />
	</node>
	<node id="-256599" lat="59.855169446" lon="10.9528472276">
		<tag k="name" v="Bjørnebettet" />
		<tag k="place" v="locality" />
		<tag k="ssr:date" v="2019-12-27" />
		<tag k="ssr:gruppe" v="dyrkamark" />
		<tag k="ssr:hovedgruppe" v="markslag" />
		<tag k="ssr:stedsnr" v="509858" />
		<tag k="ssr:type" v="utmark" />
	</node>
	<node id="-256598" lat="59.8979555529" lon="11.022697225">
		<tag k="name" v="Ismyra" />
		<tag k="natural" v="wetland" />
		<tag k="ssr:date" v="2019-12-27" />
		<tag k="ssr:gruppe" v="våtmark" />
		<tag k="ssr:hovedgruppe" v="markslag" />
		<tag k="ssr:stedsnr" v="509456" />
		<tag k="ssr:type" v="myr" />
	</node>
	<node id="-256597" lat="59.843388887" lon="11.0058027723">
		<tag k="name" v="Lagmannsputten" />
		<tag k="natural" v="water" />
		<tag k="ssr:date" v="2019-12-27" />
		<tag k="ssr:gruppe" v="stilleståendeVann" />
		<tag k="ssr:hovedgruppe" v="ferskvann" />
		<tag k="ssr:stedsnr" v="509115" />
		<tag k="ssr:type" v="pytt" />
		<tag k="water" v="pond" />
	</node>
	<node id="-256596" lat="59.9300749965" lon="11.0302527862">
		<tag k="name" v="Sandbekken" />
		<tag k="place" v="isolated_dwelling" />
		<tag k="ssr:date" v="2019-12-27" />
		<tag k="ssr:gruppe" v="bolighus" />
		<tag k="ssr:hovedgruppe" v="bebyggelse" />
		<tag k="ssr:stedsnr" v="490003" />
		<tag k="ssr:type" v="fritidsbolig" />
	</node>
	<node id="-256595" lat="59.876280792" lon="10.993455285">
		<tag k="name" v="Garterud" />
		<tag k="place" v="farm" />
		<tag k="ssr:date" v="2019-12-27" />
		<tag k="ssr:gruppe" v="gardsbebyggelse" />
		<tag k="ssr:hovedgruppe" v="bebyggelse" />
		<tag k="ssr:stedsnr" v="672174" />
		<tag k="ssr:type" v="bruk" />
	</node>
	<node id="-256594" lat="59.8815361092" lon="10.9200111034">
		<tag k="name" v="Skilledalen" />
		<tag k="natural" v="valley" />
		<tag k="place" v="locality" />
		<tag k="ssr:date" v="2019-12-27" />
		<tag k="ssr:gruppe" v="senkninger" />
		<tag k="ssr:hovedgruppe" v="terreng" />
		<tag k="ssr:stedsnr" v="672148" />
		<tag k="ssr:type" v="dal" />
	</node>
	<node id="-256593" lat="59.8904638925" lon="10.9217499951">
		<tag k="alt_name" v="Setermyra" />
		<tag k="name" v="Sætermyr" />
		<tag k="natural" v="wetland" />
		<tag k="ssr:date" v="2019-12-27" />
		<tag k="ssr:gruppe" v="våtmark" />
		<tag k="ssr:hovedgruppe" v="markslag" />
		<tag k="ssr:stedsnr" v="672146" />
		<tag k="ssr:type" v="myr" />
	</node>
	<node id="-256592" lat="59.8652361108" lon="11.0083999997">
		<tag k="name" v="Geitsjøen" />
		<tag k="natural" v="water" />
		<tag k="ssr:date" v="2019-12-27" />
		<tag k="ssr:gruppe" v="stilleståendeVann" />
		<tag k="ssr:hovedgruppe" v="ferskvann" />
		<tag k="ssr:stedsnr" v="672129" />
		<tag k="ssr:type" v="tjern" />
	</node>
	<node id="-256591" lat="59.8652499997" lon="10.9316277851">
		<tag k="alt_name" v="Svarvestolbrenna" />
		<tag k="fixme" v="consider natural=peak for the most distinct mountains in the district" />
		<tag k="name" v="Svarvestolsbrenna" />
		<tag k="natural" v="hill" />
		<tag k="place" v="locality" />
		<tag k="ssr:date" v="2019-12-27" />
		<tag k="ssr:gruppe" v="høyder" />
		<tag k="ssr:hovedgruppe" v="terreng" />
		<tag k="ssr:stedsnr" v="672126" />
		<tag k="ssr:type" v="ås" />
	</node>
	<node id="-256590" lat="59.9079749973" lon="11.0023027854">
		<tag k="name" v="Røyritjernet" />
		<tag k="natural" v="water" />
		<tag k="ssr:date" v="2019-12-27" />
		<tag k="ssr:gruppe" v="stilleståendeVann" />
		<tag k="ssr:hovedgruppe" v="ferskvann" />
		<tag k="ssr:stedsnr" v="672110" />
		<tag k="ssr:type" v="tjern" />
	</node>
	<node id="-256589" lat="59.944744446" lon="10.9673416632">
		<tag k="name" v="Skjettenkollen" />
		<tag k="natural" v="hill" />
		<tag k="place" v="locality" />
		<tag k="ssr:date" v="2019-12-27" />
		<tag k="ssr:gruppe" v="høyder" />
		<tag k="ssr:hovedgruppe" v="terreng" />
		<tag k="ssr:stedsnr" v="672044" />
		<tag k="ssr:type" v="haug" />
	</node>
	<node id="-256588" lat="59.9202416626" lon="10.9768611177">
		<tag k="name" v="Sørli" />
		<tag k="place" v="isolated_dwelling" />
		<tag k="ssr:date" v="2019-12-27" />
		<tag k="ssr:gruppe" v="bolighus" />
		<tag k="ssr:hovedgruppe" v="bebyggelse" />
		<tag k="ssr:stedsnr" v="672024" />
		<tag k="ssr:type" v="eneboligMindreBoligbygg" />
	</node>
	<node id="-256587" lat="59.9221511731" lon="10.9868934377">
		<tag k="name" v="Røyri" />
		<tag k="place" v="farm" />
		<tag k="ssr:date" v="2019-12-27" />
		<tag k="ssr:gruppe" v="gardsbebyggelse" />
		<tag k="ssr:hovedgruppe" v="bebyggelse" />
		<tag k="ssr:stedsnr" v="672019" />
		<tag k="ssr:type" v="bruk" />
	</node>
	<node id="-256586" lat="59.9212000029" lon="10.9506249954">
		<tag k="alt_name" v="Søndre Rolvsrud" />
		<tag k="name" v="Rolvsrud" />
		<tag k="place" v="farm" />
		<tag k="ssr:date" v="2019-12-27" />
		<tag k="ssr:gruppe" v="gardsbebyggelse" />
		<tag k="ssr:hovedgruppe" v="bebyggelse" />
		<tag k="ssr:stedsnr" v="672014" />
		<tag k="ssr:type" v="bruk" />
	</node>
	<node id="-256585" lat="59.9272527773" lon="10.9371722206">
		<tag k="name" v="Rasta" />
		<tag k="place" v="farm" />
		<tag k="ssr:date" v="2019-12-27" />
		<tag k="ssr:gruppe" v="gardsbebyggelse" />
		<tag k="ssr:hovedgruppe" v="bebyggelse" />
		<tag k="ssr:stedsnr" v="672007" />
		<tag k="ssr:type" v="bruk" />
	</node>
	<node id="-256584" lat="59.9309722239" lon="10.9537222292">
		<tag k="fixme" v="consider place=suburb, village or hamlet" />
		<tag k="name" v="Kjenn" />
		<tag k="place" v="quarter" />
		<tag k="ssr:date" v="2019-12-27" />
		<tag k="ssr:gruppe" v="bebyggelsesområder" />
		<tag k="ssr:hovedgruppe" v="bebyggelse" />
		<tag k="ssr:stedsnr" v="672006" />
		<tag k="ssr:type" v="tettbebyggelse" />
	</node>
	<node id="-256583" lat="59.9288749983" lon="11.0219055637">
		<tag k="name" v="Skihytta" />
		<tag k="place" v="isolated_dwelling" />
		<tag k="ssr:date" v="2019-12-27" />
		<tag k="ssr:gruppe" v="bolighus" />
		<tag k="ssr:hovedgruppe" v="bebyggelse" />
		<tag k="ssr:stedsnr" v="672004" />
		<tag k="ssr:type" v="fritidsbolig" />
	</node>
	<node id="-256582" lat="59.843750002" lon="10.9912583413">
		<tag k="name" v="Middagsmyra" />
		<tag k="natural" v="wetland" />
		<tag k="ssr:date" v="2019-12-27" />
		<tag k="ssr:gruppe" v="våtmark" />
		<tag k="ssr:hovedgruppe" v="markslag" />
		<tag k="ssr:stedsnr" v="448912" />
		<tag k="ssr:type" v="myr" />
	</node>
	<node id="-256581" lat="59.9053694475" lon="11.0227250054">
		<tag k="name" v="Ilemyr" />
		<tag k="natural" v="wetland" />
		<tag k="ssr:date" v="2019-12-27" />
		<tag k="ssr:gruppe" v="våtmark" />
		<tag k="ssr:hovedgruppe" v="markslag" />
		<tag k="ssr:stedsnr" v="448908" />
		<tag k="ssr:type" v="myr" />
	</node>
	<node id="-256580" lat="59.863661109" lon="10.9971611142">
		<tag k="alt_name" v="Malmern" />
		<tag k="name" v="Malmeren" />
		<tag k="natural" v="water" />
		<tag k="ssr:date" v="2019-12-27" />
		<tag k="ssr:gruppe" v="stilleståendeVann" />
		<tag k="ssr:hovedgruppe" v="ferskvann" />
		<tag k="ssr:stedsnr" v="430129" />
		<tag k="ssr:type" v="tjern" />
	</node>
	<node id="-256579" lat="59.922900002" lon="10.9905777705">
		<tag k="name" v="Norum" />
		<tag k="place" v="farm" />
		<tag k="ssr:date" v="2019-12-27" />
		<tag k="ssr:gruppe" v="gardsbebyggelse" />
		<tag k="ssr:hovedgruppe" v="bebyggelse" />
		<tag k="ssr:stedsnr" v="429020" />
		<tag k="ssr:type" v="bruk" />
	</node>
	<node id="-256578" lat="59.9320472191" lon="11.0198861025">
		<tag k="name" v="Kuland" />
		<tag k="place" v="farm" />
		<tag k="ssr:date" v="2019-12-27" />
		<tag k="ssr:gruppe" v="gardsbebyggelse" />
		<tag k="ssr:hovedgruppe" v="bebyggelse" />
		<tag k="ssr:stedsnr" v="429002" />
		<tag k="ssr:type" v="bruk" />
	</node>
	<node id="-256577" lat="59.9416749986" lon="11.0089611104">
		<tag k="name" v="Guldal" />
		<tag k="place" v="quarter" />
		<tag k="ssr:date" v="2019-12-27" />
		<tag k="ssr:gruppe" v="bebyggelsesområder" />
		<tag k="ssr:hovedgruppe" v="bebyggelse" />
		<tag k="ssr:stedsnr" v="509994" />
		<tag k="ssr:type" v="boligfelt" />
	</node>
	<node id="-256576" lat="59.9108749976" lon="10.9201583255">
		<tag k="name" v="Nyborg" />
		<tag k="place" v="farm" />
		<tag k="ssr:date" v="2019-12-27" />
		<tag k="ssr:gruppe" v="gardsbebyggelse" />
		<tag k="ssr:hovedgruppe" v="bebyggelse" />
		<tag k="ssr:stedsnr" v="509982" />
		<tag k="ssr:type" v="bruk" />
	</node>
	<node id="-256575" lat="59.9001527769" lon="10.9681888861">
		<tag k="amenity" v="school" />
		<tag k="name" v="Fredheim skole" />
		<tag k="ssr:date" v="2019-12-27" />
		<tag k="ssr:gruppe" v="institusjoner" />
		<tag k="ssr:hovedgruppe" v="bebyggelse" />
		<tag k="ssr:stedsnr" v="509930" />
		<tag k="ssr:type" v="skole" />
	</node>
	<node id="-256574" lat="59.8856138876" lon="10.9323472142">
		<tag k="historic" v="shieling" />
		<tag k="name" v="Skullerudsetra" />
		<tag k="place" v="locality" />
		<tag k="ssr:date" v="2019-12-27" />
		<tag k="ssr:gruppe" v="dyrkamark" />
		<tag k="ssr:hovedgruppe" v="markslag" />
		<tag k="ssr:stedsnr" v="509843" />
		<tag k="ssr:type" v="setervoll" />
	</node>
	<node id="-256573" lat="59.8888861095" lon="10.9223583398">
		<tag k="historic" v="shieling" />
		<tag k="name" v="Haugerseter" />
		<tag k="place" v="locality" />
		<tag k="ssr:date" v="2019-12-27" />
		<tag k="ssr:gruppe" v="dyrkamark" />
		<tag k="ssr:hovedgruppe" v="markslag" />
		<tag k="ssr:stedsnr" v="509842" />
		<tag k="ssr:type" v="setervoll" />
	</node>
	<node id="-256572" lat="59.9085666655" lon="11.0158777709">
		<tag k="historic" v="shieling" />
		<tag k="name" v="Rattvoll" />
		<tag k="place" v="locality" />
		<tag k="ssr:date" v="2019-12-27" />
		<tag k="ssr:gruppe" v="dyrkamark" />
		<tag k="ssr:hovedgruppe" v="markslag" />
		<tag k="ssr:stedsnr" v="509840" />
		<tag k="ssr:type" v="setervoll" />
	</node>
	<node id="-256571" lat="59.9045694446" lon="10.9938166751">
		<tag k="name" v="Jentebråtamyra" />
		<tag k="natural" v="wetland" />
		<tag k="ssr:date" v="2019-12-27" />
		<tag k="ssr:gruppe" v="våtmark" />
		<tag k="ssr:hovedgruppe" v="markslag" />
		<tag k="ssr:stedsnr" v="509888" />
		<tag k="ssr:type" v="myr" />
	</node>
	<node id="-256570" lat="59.9356722183" lon="11.0020527722">
		<tag k="name" v="Haugen" />
		<tag k="place" v="locality" />
		<tag k="ssr:date" v="2019-12-27" />
		<tag k="ssr:gruppe" v="bolighus" />
		<tag k="ssr:hovedgruppe" v="bebyggelse" />
		<tag k="ssr:stedsnr" v="509627" />
		<tag k="ssr:type" v="gammelBosettingsplass" />
	</node>
	<node id="-256569" lat="59.9171249968" lon="10.9926444501">
		<tag k="name" v="Røyrihagan" />
		<tag k="place" v="locality" />
		<tag k="ssr:date" v="2019-12-27" />
		<tag k="ssr:gruppe" v="bolighus" />
		<tag k="ssr:hovedgruppe" v="bebyggelse" />
		<tag k="ssr:stedsnr" v="509624" />
		<tag k="ssr:type" v="gammelBosettingsplass" />
	</node>
	<node id="-256568" lat="59.9132944406" lon="10.9833416721">
		<tag k="name" v="Bomma" />
		<tag k="place" v="locality" />
		<tag k="ssr:date" v="2019-12-27" />
		<tag k="ssr:gruppe" v="bolighus" />
		<tag k="ssr:hovedgruppe" v="bebyggelse" />
		<tag k="ssr:stedsnr" v="509621" />
		<tag k="ssr:type" v="gammelBosettingsplass" />
	</node>
	<node id="-256567" lat="59.9228999996" lon="11.0069916719">
		<tag k="name" v="Øvre Østby" />
		<tag k="place" v="farm" />
		<tag k="ssr:date" v="2019-12-27" />
		<tag k="ssr:gruppe" v="gardsbebyggelse" />
		<tag k="ssr:hovedgruppe" v="bebyggelse" />
		<tag k="ssr:stedsnr" v="509600" />
		<tag k="ssr:type" v="bruk" />
	</node>
	<node id="-256566" lat="59.9189444471" lon="11.0098611101">
		<tag k="name" v="NRTKs hytte" />
		<tag k="place" v="isolated_dwelling" />
		<tag k="ssr:date" v="2019-12-27" />
		<tag k="ssr:gruppe" v="bolighus" />
		<tag k="ssr:hovedgruppe" v="bebyggelse" />
		<tag k="ssr:stedsnr" v="509593" />
		<tag k="ssr:type" v="fritidsbolig" />
	</node>
	<node id="-256565" lat="59.9300555514" lon="10.9661083291">
		<tag k="name" v="Knatteåsen" />
		<tag k="natural" v="hill" />
		<tag k="place" v="locality" />
		<tag k="ssr:date" v="2019-12-27" />
		<tag k="ssr:gruppe" v="høyder" />
		<tag k="ssr:hovedgruppe" v="terreng" />
		<tag k="ssr:stedsnr" v="509039" />
		<tag k="ssr:type" v="høyde" />
	</node>
	<node id="-256564" lat="59.9112888928" lon="10.992852773">
		<tag k="name" v="St. Hansberget" />
		<tag k="natural" v="hill" />
		<tag k="place" v="locality" />
		<tag k="ssr:date" v="2019-12-27" />
		<tag k="ssr:gruppe" v="høyder" />
		<tag k="ssr:hovedgruppe" v="terreng" />
		<tag k="ssr:stedsnr" v="509038" />
		<tag k="ssr:type" v="høyde" />
	</node>
	<node id="-256563" lat="59.9118749996" lon="11.0056527728">
		<tag k="name" v="Trolldalen" />
		<tag k="natural" v="valley" />
		<tag k="place" v="locality" />
		<tag k="ssr:date" v="2019-12-27" />
		<tag k="ssr:gruppe" v="senkninger" />
		<tag k="ssr:hovedgruppe" v="terreng" />
		<tag k="ssr:stedsnr" v="509091" />
		<tag k="ssr:type" v="dal" />
	</node>
	<node id="-256562" lat="59.9216138931" lon="10.9736249932">
		<tag k="name" v="Nordre Sørli" />
		<tag k="place" v="isolated_dwelling" />
		<tag k="ssr:date" v="2019-12-27" />
		<tag k="ssr:gruppe" v="bolighus" />
		<tag k="ssr:hovedgruppe" v="bebyggelse" />
		<tag k="ssr:stedsnr" v="387875" />
		<tag k="ssr:type" v="eneboligMindreBoligbygg" />
	</node>
	<node id="-256561" lat="59.8952694483" lon="10.9712444482">
		<tag k="name" v="Morkbråten" />
		<tag k="place" v="farm" />
		<tag k="ssr:date" v="2019-12-27" />
		<tag k="ssr:gruppe" v="gardsbebyggelse" />
		<tag k="ssr:hovedgruppe" v="bebyggelse" />
		<tag k="ssr:stedsnr" v="387974" />
		<tag k="ssr:type" v="bruk" />
	</node>
	<node id="-256560" lat="59.9186916697" lon="11.0012083266">
		<tag k="name" v="Nordli" />
		<tag k="place" v="isolated_dwelling" />
		<tag k="ssr:date" v="2019-12-27" />
		<tag k="ssr:gruppe" v="bolighus" />
		<tag k="ssr:hovedgruppe" v="bebyggelse" />
		<tag k="ssr:stedsnr" v="387965" />
		<tag k="ssr:type" v="eneboligMindreBoligbygg" />
	</node>
	<node id="-256559" lat="59.8707138863" lon="10.9948555552">
		<tag k="name" v="Nordre Tangen" />
		<tag k="place" v="farm" />
		<tag k="ssr:date" v="2019-12-27" />
		<tag k="ssr:gruppe" v="gardsbebyggelse" />
		<tag k="ssr:hovedgruppe" v="bebyggelse" />
		<tag k="ssr:stedsnr" v="387964" />
		<tag k="ssr:type" v="bruk" />
	</node>
	<node id="-256558" lat="59.8682999964" lon="11.0002444356">
		<tag k="name" v="Geiterudtangen" />
		<tag k="natural" v="cape" />
		<tag k="ssr:date" v="2019-12-27" />
		<tag k="ssr:gruppe" v="ferskvannskontur" />
		<tag k="ssr:hovedgruppe" v="ferskvann" />
		<tag k="ssr:stedsnr" v="387919" />
		<tag k="ssr:type" v="nes" />
	</node>
	<node id="-256557" lat="59.8847972262" lon="10.9353805524">
		<tag k="name" v="Setermyra" />
		<tag k="natural" v="wetland" />
		<tag k="ssr:date" v="2019-12-27" />
		<tag k="ssr:gruppe" v="våtmark" />
		<tag k="ssr:hovedgruppe" v="markslag" />
		<tag k="ssr:stedsnr" v="387917" />
		<tag k="ssr:type" v="myr" />
	</node>
	<node id="-256556" lat="59.8628194446" lon="10.919416674">
		<tag k="name" v="Skyttenmyra" />
		<tag k="natural" v="wetland" />
		<tag k="ssr:date" v="2019-12-27" />
		<tag k="ssr:gruppe" v="våtmark" />
		<tag k="ssr:hovedgruppe" v="markslag" />
		<tag k="ssr:stedsnr" v="387914" />
		<tag k="ssr:type" v="myr" />
	</node>
	<node id="-256555" lat="59.894594444" lon="10.9980000007">
		<tag k="name" v="Steinbråtemyrene" />
		<tag k="natural" v="wetland" />
		<tag k="ssr:date" v="2019-12-27" />
		<tag k="ssr:gruppe" v="våtmark" />
		<tag k="ssr:hovedgruppe" v="markslag" />
		<tag k="ssr:stedsnr" v="387909" />
		<tag k="ssr:type" v="myr" />
	</node>
	<node id="-256554" lat="59.8781583336" lon="10.962788882">
		<tag k="name" v="Igletjernmåsan" />
		<tag k="natural" v="wetland" />
		<tag k="ssr:date" v="2019-12-27" />
		<tag k="ssr:gruppe" v="våtmark" />
		<tag k="ssr:hovedgruppe" v="markslag" />
		<tag k="ssr:stedsnr" v="387908" />
		<tag k="ssr:type" v="myr" />
	</node>
	<node id="-256553" lat="59.8594472188" lon="10.9633583373">
		<tag k="name" v="Setermyra" />
		<tag k="natural" v="wetland" />
		<tag k="ssr:date" v="2019-12-27" />
		<tag k="ssr:gruppe" v="våtmark" />
		<tag k="ssr:hovedgruppe" v="markslag" />
		<tag k="ssr:stedsnr" v="387905" />
		<tag k="ssr:type" v="myr" />
	</node>
	<node id="-256552" lat="59.9193333371" lon="11.0025111109">
		<tag k="name" v="Lille Stensrud" />
		<tag k="place" v="locality" />
		<tag k="ssr:date" v="2019-12-27" />
		<tag k="ssr:gruppe" v="bolighus" />
		<tag k="ssr:hovedgruppe" v="bebyggelse" />
		<tag k="ssr:stedsnr" v="387663" />
		<tag k="ssr:type" v="gammelBosettingsplass" />
	</node>
	<node id="-256551" lat="59.9024166635" lon="10.9875194503">
		<tag k="name" v="Sanderud" />
		<tag k="place" v="locality" />
		<tag k="ssr:date" v="2019-12-27" />
		<tag k="ssr:gruppe" v="bolighus" />
		<tag k="ssr:hovedgruppe" v="bebyggelse" />
		<tag k="ssr:stedsnr" v="387662" />
		<tag k="ssr:type" v="gammelBosettingsplass" />
	</node>
	<node id="-256550" lat="59.8448055517" lon="11.0242888903">
		<tag k="name" v="Kustinta" />
		<tag k="place" v="locality" />
		<tag k="ssr:date" v="2019-12-27" />
		<tag k="ssr:gruppe" v="bolighus" />
		<tag k="ssr:hovedgruppe" v="bebyggelse" />
		<tag k="ssr:stedsnr" v="387658" />
		<tag k="ssr:type" v="gammelBosettingsplass" />
	</node>
	<node id="-256549" lat="59.929272222" lon="10.9725444495">
		<tag k="name" v="Kråkåsen" />
		<tag k="natural" v="hill" />
		<tag k="place" v="locality" />
		<tag k="ssr:date" v="2019-12-27" />
		<tag k="ssr:gruppe" v="høyder" />
		<tag k="ssr:hovedgruppe" v="terreng" />
		<tag k="ssr:stedsnr" v="387055" />
		<tag k="ssr:type" v="høyde" />
	</node>
	<node id="-256548" lat="59.9120944467" lon="10.9177777737">
		<tag k="name" v="Bjerkelund" />
		<tag k="natural" v="hill" />
		<tag k="place" v="locality" />
		<tag k="ssr:date" v="2019-12-27" />
		<tag k="ssr:gruppe" v="høyder" />
		<tag k="ssr:hovedgruppe" v="terreng" />
		<tag k="ssr:stedsnr" v="387054" />
		<tag k="ssr:type" v="høyde" />
	</node>
	<node id="-256547" lat="59.9070388892" lon="11.0070305629">
		<tag k="name" v="Grevlingdalen" />
		<tag k="natural" v="valley" />
		<tag k="place" v="locality" />
		<tag k="ssr:date" v="2019-12-27" />
		<tag k="ssr:gruppe" v="senkninger" />
		<tag k="ssr:hovedgruppe" v="terreng" />
		<tag k="ssr:stedsnr" v="387114" />
		<tag k="ssr:type" v="dal" />
	</node>
	<node id="-256546" lat="59.8509055513" lon="10.9748500049">
		<tag k="name" v="Østmarka" />
		<tag k="natural" v="wood" />
		<tag k="ssr:date" v="2020-06-10" />
		<tag k="ssr:gruppe" v="terrengområder" />
		<tag k="ssr:hovedgruppe" v="terreng" />
		<tag k="ssr:stedsnr" v="490224" />
		<tag k="ssr:type" v="skogområde" />
	</node>
	<node id="-256545" lat="59.8626000004" lon="10.9493749963">
		<tag k="alt_name" v="Mortvassåsen" />
		<tag k="fixme" v="consider natural=peak for the most distinct mountains in the district" />
		<tag k="name" v="Mortvannsåsen" />
		<tag k="natural" v="hill" />
		<tag k="place" v="locality" />
		<tag k="ssr:date" v="2019-12-27" />
		<tag k="ssr:gruppe" v="høyder" />
		<tag k="ssr:hovedgruppe" v="terreng" />
		<tag k="ssr:stedsnr" v="490141" />
		<tag k="ssr:type" v="ås" />
	</node>
	<node id="-256544" lat="59.8943527752" lon="10.9872249937">
		<tag k="name" v="Losbyelva" />
		<tag k="ssr:date" v="2019-12-27" />
		<tag k="ssr:gruppe" v="rennendeVann" />
		<tag k="ssr:hovedgruppe" v="ferskvann" />
		<tag k="ssr:stedsnr" v="490083" />
		<tag k="ssr:type" v="bekk" />
		<tag k="waterway" v="stream" />
	</node>
	<node id="-256543" lat="59.9296583375" lon="10.980880554">
		<tag k="name" v="Torshov" />
		<tag k="place" v="farm" />
		<tag k="ssr:date" v="2019-12-27" />
		<tag k="ssr:gruppe" v="gardsbebyggelse" />
		<tag k="ssr:hovedgruppe" v="bebyggelse" />
		<tag k="ssr:stedsnr" v="489017" />
		<tag k="ssr:type" v="bruk" />
	</node>
	<node id="-256542" lat="59.9302333369" lon="10.9551611173">
		<tag k="amenity" v="school" />
		<tag k="name" v="Solheim skole" />
		<tag k="ssr:date" v="2019-12-27" />
		<tag k="ssr:gruppe" v="institusjoner" />
		<tag k="ssr:hovedgruppe" v="bebyggelse" />
		<tag k="ssr:stedsnr" v="327935" />
		<tag k="ssr:type" v="skole" />
	</node>
	<node id="-256541" lat="59.8691694439" lon="10.9516055594">
		<tag k="historic" v="shieling" />
		<tag k="name" v="Ryensetra" />
		<tag k="place" v="locality" />
		<tag k="ssr:date" v="2019-12-27" />
		<tag k="ssr:gruppe" v="gardsbebyggelse" />
		<tag k="ssr:hovedgruppe" v="bebyggelse" />
		<tag k="ssr:stedsnr" v="327929" />
		<tag k="ssr:type" v="seterStøl" />
	</node>
	<node id="-256540" lat="59.9204861145" lon="10.9385499997">
		<tag k="amenity" v="school" />
		<tag k="name" v="Rasta skole" />
		<tag k="ssr:date" v="2019-12-27" />
		<tag k="ssr:gruppe" v="institusjoner" />
		<tag k="ssr:hovedgruppe" v="bebyggelse" />
		<tag k="ssr:stedsnr" v="327923" />
		<tag k="ssr:type" v="skole" />
	</node>
	<node id="-256539" lat="59.8668867112" lon="10.9121143481">
		<tag k="name" v="Skullerudtangen" />
		<tag k="natural" v="cape" />
		<tag k="ssr:date" v="2020-05-14" />
		<tag k="ssr:gruppe" v="ferskvannskontur" />
		<tag k="ssr:hovedgruppe" v="ferskvann" />
		<tag k="ssr:stedsnr" v="327906" />
		<tag k="ssr:type" v="nes" />
	</node>
	<node id="-256538" lat="59.9138027793" lon="11.0093611166">
		<tag k="name" v="Stensrudmarka" />
		<tag k="place" v="locality" />
		<tag k="ssr:date" v="2019-12-27" />
		<tag k="ssr:gruppe" v="dyrkamark" />
		<tag k="ssr:hovedgruppe" v="markslag" />
		<tag k="ssr:stedsnr" v="327827" />
		<tag k="ssr:type" v="utmark" />
	</node>
	<node id="-256537" lat="59.8555361117" lon="11.0101750077">
		<tag k="historic" v="shieling" />
		<tag k="name" v="Bårliseter" />
		<tag k="place" v="locality" />
		<tag k="ssr:date" v="2019-12-27" />
		<tag k="ssr:gruppe" v="dyrkamark" />
		<tag k="ssr:hovedgruppe" v="markslag" />
		<tag k="ssr:stedsnr" v="327821" />
		<tag k="ssr:type" v="setervoll" />
	</node>
	<node id="-256536" lat="59.9348416674" lon="10.9815083317">
		<tag k="bridge" v="yes" />
		<tag k="layer" v="1" />
		<tag k="name" v="Kloppa" />
		<tag k="ssr:date" v="2019-12-27" />
		<tag k="ssr:gruppe" v="samferdselsanlegg" />
		<tag k="ssr:hovedgruppe" v="infrastruktur" />
		<tag k="ssr:stedsnr" v="327613" />
		<tag k="ssr:type" v="klopp" />
	</node>
	<node id="-256535" lat="59.9341055578" lon="10.996977784">
		<tag k="fixme" v="consider place=hamlet" />
		<tag k="name" v="Nordbygda" />
		<tag k="place" v="village" />
		<tag k="ssr:date" v="2019-12-27" />
		<tag k="ssr:gruppe" v="bebyggelsesområder" />
		<tag k="ssr:hovedgruppe" v="bebyggelse" />
		<tag k="ssr:stedsnr" v="465049" />
		<tag k="ssr:type" v="bygdelagBygd" />
	</node>
	<node id="-256534" lat="59.9131694461" lon="10.9754361058">
		<tag k="name" v="Nesåsen" />
		<tag k="place" v="quarter" />
		<tag k="ssr:date" v="2019-12-27" />
		<tag k="ssr:gruppe" v="bebyggelsesområder" />
		<tag k="ssr:hovedgruppe" v="bebyggelse" />
		<tag k="ssr:stedsnr" v="465029" />
		<tag k="ssr:type" v="tettsteddel" />
	</node>
	<node id="-256532" lat="59.9379916691" lon="10.9785777726">
		<tag k="name" v="Fjellsrud" />
		<tag k="place" v="quarter" />
		<tag k="ssr:date" v="2019-12-27" />
		<tag k="ssr:gruppe" v="bebyggelsesområder" />
		<tag k="ssr:hovedgruppe" v="bebyggelse" />
		<tag k="ssr:stedsnr" v="449000" />
		<tag k="ssr:type" v="industriområde" />
	</node>
	<node id="-256531" lat="59.9356638884" lon="10.9348583352">
		<tag k="name" v="Robsrudenga" />
		<tag k="place" v="quarter" />
		<tag k="ssr:date" v="2019-12-27" />
		<tag k="ssr:gruppe" v="bebyggelsesområder" />
		<tag k="ssr:hovedgruppe" v="bebyggelse" />
		<tag k="ssr:stedsnr" v="448998" />
		<tag k="ssr:type" v="industriområde" />
	</node>
	<node id="-256530" lat="59.9389638918" lon="10.9919527821">
		<tag k="name" v="Blåkollen" />
		<tag k="place" v="quarter" />
		<tag k="ssr:date" v="2019-12-27" />
		<tag k="ssr:gruppe" v="bebyggelsesområder" />
		<tag k="ssr:hovedgruppe" v="bebyggelse" />
		<tag k="ssr:stedsnr" v="448996" />
		<tag k="ssr:type" v="boligfelt" />
	</node>
	<node id="-256529" lat="59.9165444403" lon="10.9496083325">
		<tag k="name" v="Løkenhagen" />
		<tag k="place" v="hamlet" />
		<tag k="ssr:date" v="2019-12-27" />
		<tag k="ssr:gruppe" v="bebyggelsesområder" />
		<tag k="ssr:hovedgruppe" v="bebyggelse" />
		<tag k="ssr:stedsnr" v="448995" />
		<tag k="ssr:type" v="grend" />
	</node>
	<node id="-256528" lat="59.9307555564" lon="10.967877785">
		<tag k="name" v="Knatten" />
		<tag k="place" v="farm" />
		<tag k="ssr:date" v="2019-12-27" />
		<tag k="ssr:gruppe" v="gardsbebyggelse" />
		<tag k="ssr:hovedgruppe" v="bebyggelse" />
		<tag k="ssr:stedsnr" v="448993" />
		<tag k="ssr:type" v="bruk" />
	</node>
	<node id="-256527" lat="59.9065694438" lon="10.9520222142">
		<tag k="name" v="Nordre Hauger" />
		<tag k="place" v="farm" />
		<tag k="ssr:date" v="2019-12-27" />
		<tag k="ssr:gruppe" v="gardsbebyggelse" />
		<tag k="ssr:hovedgruppe" v="bebyggelse" />
		<tag k="ssr:stedsnr" v="448983" />
		<tag k="ssr:type" v="bruk" />
	</node>
	<node id="-256526" lat="59.8825000031" lon="10.9882027706">
		<tag k="name" v="Sagenga" />
		<tag k="place" v="farm" />
		<tag k="ssr:date" v="2019-12-27" />
		<tag k="ssr:gruppe" v="gardsbebyggelse" />
		<tag k="ssr:hovedgruppe" v="bebyggelse" />
		<tag k="ssr:stedsnr" v="448965" />
		<tag k="ssr:type" v="bruk" />
	</node>
	<node id="-256525" lat="59.9396388865" lon="10.9843499927">
		<tag k="amenity" v="school" />
		<tag k="name" v="Fjellhamar skole" />
		<tag k="ssr:date" v="2019-12-27" />
		<tag k="ssr:gruppe" v="institusjoner" />
		<tag k="ssr:hovedgruppe" v="bebyggelse" />
		<tag k="ssr:stedsnr" v="448960" />
		<tag k="ssr:type" v="skole" />
	</node>
	<node id="-256524" lat="59.8986444421" lon="10.9295916674">
		<tag k="name" v="Langmyra" />
		<tag k="natural" v="wetland" />
		<tag k="ssr:date" v="2019-12-27" />
		<tag k="ssr:gruppe" v="våtmark" />
		<tag k="ssr:hovedgruppe" v="markslag" />
		<tag k="ssr:stedsnr" v="448936" />
		<tag k="ssr:type" v="myr" />
	</node>
	<node id="-256523" lat="59.8864527735" lon="10.9355333375">
		<tag k="name" v="Tørråsmyra" />
		<tag k="natural" v="wetland" />
		<tag k="ssr:date" v="2019-12-27" />
		<tag k="ssr:gruppe" v="våtmark" />
		<tag k="ssr:hovedgruppe" v="markslag" />
		<tag k="ssr:stedsnr" v="448932" />
		<tag k="ssr:type" v="myr" />
	</node>
	<node id="-256522" lat="59.9056833373" lon="10.9921805612">
		<tag k="name" v="Brenna" />
		<tag k="natural" v="wetland" />
		<tag k="ssr:date" v="2019-12-27" />
		<tag k="ssr:gruppe" v="våtmark" />
		<tag k="ssr:hovedgruppe" v="markslag" />
		<tag k="ssr:stedsnr" v="448930" />
		<tag k="ssr:type" v="myr" />
	</node>
	<node id="-256521" lat="59.8587555568" lon="11.0066777725">
		<tag k="name" v="Trondslora" />
		<tag k="place" v="locality" />
		<tag k="ssr:date" v="2019-12-27" />
		<tag k="ssr:gruppe" v="dyrkamark" />
		<tag k="ssr:hovedgruppe" v="markslag" />
		<tag k="ssr:stedsnr" v="448901" />
		<tag k="ssr:type" v="utmark" />
	</node>
	<node id="-256519" lat="59.9302972205" lon="11.0123722235">
		<tag k="name" v="Hovelsrudhagan" />
		<tag k="natural" v="hill" />
		<tag k="place" v="locality" />
		<tag k="ssr:date" v="2019-12-27" />
		<tag k="ssr:gruppe" v="høyder" />
		<tag k="ssr:hovedgruppe" v="terreng" />
		<tag k="ssr:stedsnr" v="448683" />
		<tag k="ssr:type" v="høyde" />
	</node>
	<node id="-256518" lat="59.9162777787" lon="10.9716083422">
		<tag k="name" v="Finstadbekken" />
		<tag k="ssr:date" v="2019-12-27" />
		<tag k="ssr:gruppe" v="rennendeVann" />
		<tag k="ssr:hovedgruppe" v="ferskvann" />
		<tag k="ssr:stedsnr" v="448666" />
		<tag k="ssr:type" v="bekk" />
		<tag k="waterway" v="stream" />
	</node>
	<node id="-256517" lat="59.8516138873" lon="11.0072305557">
		<tag k="name" v="Tonevannsvika" />
		<tag k="natural" v="bay" />
		<tag k="ssr:date" v="2019-12-27" />
		<tag k="ssr:gruppe" v="ferskvannskontur" />
		<tag k="ssr:hovedgruppe" v="ferskvann" />
		<tag k="ssr:stedsnr" v="448128" />
		<tag k="ssr:type" v="vik" />
	</node>
	<node id="-256516" lat="59.9345638906" lon="10.9681638876">
		<tag k="name" v="Vesletjernet" />
		<tag k="natural" v="water" />
		<tag k="ssr:date" v="2019-12-27" />
		<tag k="ssr:gruppe" v="stilleståendeVann" />
		<tag k="ssr:hovedgruppe" v="ferskvann" />
		<tag k="ssr:stedsnr" v="448121" />
		<tag k="ssr:type" v="tjern" />
	</node>
	<node id="-256515" lat="59.8479194425" lon="11.0105527786">
		<tag k="name" v="Skårerlia" />
		<tag k="natural" v="slope" />
		<tag k="place" v="locality" />
		<tag k="ssr:date" v="2019-12-27" />
		<tag k="ssr:gruppe" v="skråninger" />
		<tag k="ssr:hovedgruppe" v="terreng" />
		<tag k="ssr:stedsnr" v="448086" />
		<tag k="ssr:type" v="li" />
	</node>
	<node id="-256514" lat="59.8682638863" lon="10.9705694479">
		<tag k="fixme" v="consider natural=peak for the most distinct mountains in the district" />
		<tag k="name" v="Drettvannsåsen" />
		<tag k="natural" v="hill" />
		<tag k="place" v="locality" />
		<tag k="ssr:date" v="2019-12-27" />
		<tag k="ssr:gruppe" v="høyder" />
		<tag k="ssr:hovedgruppe" v="terreng" />
		<tag k="ssr:stedsnr" v="448083" />
		<tag k="ssr:type" v="ås" />
	</node>
	<node id="-256513" lat="59.925336111" lon="10.9839277735">
		<tag k="name" v="Mellom-Hammer" />
		<tag k="place" v="farm" />
		<tag k="ssr:date" v="2019-12-27" />
		<tag k="ssr:gruppe" v="gardsbebyggelse" />
		<tag k="ssr:hovedgruppe" v="bebyggelse" />
		<tag k="ssr:stedsnr" v="448078" />
		<tag k="ssr:type" v="bruk" />
	</node>
	<node id="-256512" lat="59.9154972241" lon="10.9180111069">
		<tag k="fixme" v="consider natural=peak for the most distinct mountains in the district" />
		<tag k="name" v="Mølleråsen" />
		<tag k="natural" v="hill" />
		<tag k="place" v="locality" />
		<tag k="ssr:date" v="2019-12-27" />
		<tag k="ssr:gruppe" v="høyder" />
		<tag k="ssr:hovedgruppe" v="terreng" />
		<tag k="ssr:stedsnr" v="448073" />
		<tag k="ssr:type" v="ås" />
	</node>
	<node id="-256511" lat="59.8397611123" lon="11.0033249974">
		<tag k="name" v="Vestre Tonekollen" />
		<tag k="natural" v="hill" />
		<tag k="place" v="locality" />
		<tag k="ssr:date" v="2019-12-27" />
		<tag k="ssr:gruppe" v="høyder" />
		<tag k="ssr:hovedgruppe" v="terreng" />
		<tag k="ssr:stedsnr" v="448064" />
		<tag k="ssr:type" v="høyde" />
	</node>
	<node id="-256510" lat="59.8410527782" lon="10.9773055524">
		<tag k="name" v="Søndre Liseterkollen" />
		<tag k="natural" v="hill" />
		<tag k="place" v="locality" />
		<tag k="ssr:date" v="2019-12-27" />
		<tag k="ssr:gruppe" v="høyder" />
		<tag k="ssr:hovedgruppe" v="terreng" />
		<tag k="ssr:stedsnr" v="448063" />
		<tag k="ssr:type" v="høyde" />
	</node>
	<node id="-256509" lat="59.9387055526" lon="10.9676555501">
		<tag k="bridge" v="yes" />
		<tag k="layer" v="1" />
		<tag k="name" v="Haneborg" />
		<tag k="ssr:date" v="2019-12-27" />
		<tag k="ssr:gruppe" v="samferdselsanlegg" />
		<tag k="ssr:hovedgruppe" v="infrastruktur" />
		<tag k="ssr:stedsnr" v="228024" />
		<tag k="ssr:type" v="bru" />
	</node>
	<node id="-256508" lat="59.9248722259" lon="10.9304888917">
		<tag k="name" v="Røykås" />
		<tag k="place" v="quarter" />
		<tag k="ssr:date" v="2019-12-27" />
		<tag k="ssr:gruppe" v="bebyggelsesområder" />
		<tag k="ssr:hovedgruppe" v="bebyggelse" />
		<tag k="ssr:stedsnr" v="283028" />
		<tag k="ssr:type" v="tettsteddel" />
	</node>
	<node id="-256507" lat="59.930838889" lon="10.9465611171">
		<tag k="bridge" v="yes" />
		<tag k="layer" v="1" />
		<tag k="name" v="Thurmannskogen" />
		<tag k="ssr:date" v="2019-12-27" />
		<tag k="ssr:gruppe" v="samferdselsanlegg" />
		<tag k="ssr:hovedgruppe" v="infrastruktur" />
		<tag k="ssr:stedsnr" v="167018" />
		<tag k="ssr:type" v="bru" />
	</node>
	<node id="-256506" lat="59.9209916699" lon="10.9790666658">
		<tag k="bridge" v="yes" />
		<tag k="layer" v="1" />
		<tag k="name" v="Sørli" />
		<tag k="ssr:date" v="2019-12-27" />
		<tag k="ssr:gruppe" v="samferdselsanlegg" />
		<tag k="ssr:hovedgruppe" v="infrastruktur" />
		<tag k="ssr:stedsnr" v="167016" />
		<tag k="ssr:type" v="bru" />
	</node>
	<node id="-256505" lat="59.8965556971" lon="10.9614163163">
		<tag k="fixme" v="consider place=hamlet" />
		<tag k="name" v="Sørbygda" />
		<tag k="place" v="village" />
		<tag k="ssr:date" v="2019-12-27" />
		<tag k="ssr:gruppe" v="bebyggelsesområder" />
		<tag k="ssr:hovedgruppe" v="bebyggelse" />
		<tag k="ssr:stedsnr" v="162056" />
		<tag k="ssr:type" v="bygdelagBygd" />
	</node>
	<node id="-256504" lat="59.8953833338" lon="10.9676638935">
		<tag k="name" v="Østre Våler" />
		<tag k="place" v="farm" />
		<tag k="ssr:date" v="2019-12-27" />
		<tag k="ssr:gruppe" v="gardsbebyggelse" />
		<tag k="ssr:hovedgruppe" v="bebyggelse" />
		<tag k="ssr:stedsnr" v="266971" />
		<tag k="ssr:type" v="bruk" />
	</node>
	<node id="-256503" lat="59.9153583334" lon="10.9538416704">
		<tag k="name" v="Berger" />
		<tag k="place" v="farm" />
		<tag k="ssr:date" v="2019-12-27" />
		<tag k="ssr:gruppe" v="gardsbebyggelse" />
		<tag k="ssr:hovedgruppe" v="bebyggelse" />
		<tag k="ssr:stedsnr" v="266959" />
		<tag k="ssr:type" v="bruk" />
	</node>
	<node id="-256502" lat="59.8503166648" lon="11.0095499911">
		<tag k="fixme" v="consider tourism=alpine_hut or tourism=chalet" />
		<tag k="name" v="Røyrivannskoia" />
		<tag k="ssr:date" v="2019-12-27" />
		<tag k="ssr:gruppe" v="næring" />
		<tag k="ssr:hovedgruppe" v="bebyggelse" />
		<tag k="ssr:stedsnr" v="266944" />
		<tag k="ssr:type" v="turisthytte" />
		<tag k="tourism" v="wilderness_hut" />
	</node>
	<node id="-256501" lat="59.9112027788" lon="10.9969555522">
		<tag k="name" v="Gråbeinhølet" />
		<tag k="natural" v="wetland" />
		<tag k="ssr:date" v="2019-12-27" />
		<tag k="ssr:gruppe" v="våtmark" />
		<tag k="ssr:hovedgruppe" v="markslag" />
		<tag k="ssr:stedsnr" v="266911" />
		<tag k="ssr:type" v="myr" />
	</node>
	<node id="-256500" lat="59.8468694489" lon="10.9534222205">
		<tag k="name" v="Løkenseterrøene" />
		<tag k="place" v="locality" />
		<tag k="ssr:date" v="2019-12-27" />
		<tag k="ssr:gruppe" v="dyrkamark" />
		<tag k="ssr:hovedgruppe" v="markslag" />
		<tag k="ssr:stedsnr" v="266889" />
		<tag k="ssr:type" v="utmark" />
	</node>
	<node id="-256499" lat="59.9211583297" lon="11.0095944367">
		<tag k="name" v="Østbytajet" />
		<tag k="place" v="locality" />
		<tag k="ssr:date" v="2019-12-27" />
		<tag k="ssr:gruppe" v="bolighus" />
		<tag k="ssr:hovedgruppe" v="bebyggelse" />
		<tag k="ssr:stedsnr" v="266706" />
		<tag k="ssr:type" v="gammelBosettingsplass" />
	</node>
	<node id="-256498" lat="59.9190527748" lon="10.985755554">
		<tag k="name" v="Bakken" />
		<tag k="place" v="locality" />
		<tag k="ssr:date" v="2019-12-27" />
		<tag k="ssr:gruppe" v="bolighus" />
		<tag k="ssr:hovedgruppe" v="bebyggelse" />
		<tag k="ssr:stedsnr" v="266664" />
		<tag k="ssr:type" v="gammelBosettingsplass" />
	</node>
	<node id="-256497" lat="59.9118361111" lon="10.9485277762">
		<tag k="name" v="Søndre Vallerud" />
		<tag k="place" v="locality" />
		<tag k="ssr:date" v="2019-12-27" />
		<tag k="ssr:gruppe" v="bolighus" />
		<tag k="ssr:hovedgruppe" v="bebyggelse" />
		<tag k="ssr:stedsnr" v="266656" />
		<tag k="ssr:type" v="gammelBosettingsplass" />
	</node>
	<node id="-256496" lat="59.8983638857" lon="10.9521138918">
		<tag k="name" v="Linderud" />
		<tag k="place" v="locality" />
		<tag k="ssr:date" v="2019-12-27" />
		<tag k="ssr:gruppe" v="bolighus" />
		<tag k="ssr:hovedgruppe" v="bebyggelse" />
		<tag k="ssr:stedsnr" v="266655" />
		<tag k="ssr:type" v="gammelBosettingsplass" />
	</node>
	<node id="-256495" lat="59.8977916678" lon="10.9442805547">
		<tag k="name" v="Gamle Linderud" />
		<tag k="place" v="locality" />
		<tag k="ssr:date" v="2019-12-27" />
		<tag k="ssr:gruppe" v="bolighus" />
		<tag k="ssr:hovedgruppe" v="bebyggelse" />
		<tag k="ssr:stedsnr" v="266645" />
		<tag k="ssr:type" v="gammelBosettingsplass" />
	</node>
	<node id="-256494" lat="59.9256416655" lon="11.0113861103">
		<tag k="name" v="Østbystua" />
		<tag k="place" v="farm" />
		<tag k="ssr:date" v="2019-12-27" />
		<tag k="ssr:gruppe" v="gardsbebyggelse" />
		<tag k="ssr:hovedgruppe" v="bebyggelse" />
		<tag k="ssr:stedsnr" v="266630" />
		<tag k="ssr:type" v="bruk" />
	</node>
	<node id="-256493" lat="59.941088892" lon="10.9422944457">
		<tag k="name" v="Ellingsrudelva" />
		<tag k="ssr:date" v="2019-12-27" />
		<tag k="ssr:gruppe" v="rennendeVann" />
		<tag k="ssr:hovedgruppe" v="ferskvann" />
		<tag k="ssr:stedsnr" v="266129" />
		<tag k="ssr:type" v="elv" />
		<tag k="waterway" v="river" />
	</node>
	<node id="-256492" lat="59.892172219" lon="11.0054250026">
		<tag k="name" v="Veslevannsdalen" />
		<tag k="natural" v="valley" />
		<tag k="place" v="locality" />
		<tag k="ssr:date" v="2019-12-27" />
		<tag k="ssr:gruppe" v="senkninger" />
		<tag k="ssr:hovedgruppe" v="terreng" />
		<tag k="ssr:stedsnr" v="266107" />
		<tag k="ssr:type" v="dal" />
	</node>
	<node id="-256491" lat="59.874944447" lon="10.9402388829">
		<tag k="name" v="Vesle Halssjøen" />
		<tag k="natural" v="water" />
		<tag k="ssr:date" v="2019-12-27" />
		<tag k="ssr:gruppe" v="stilleståendeVann" />
		<tag k="ssr:hovedgruppe" v="ferskvann" />
		<tag k="ssr:stedsnr" v="266102" />
		<tag k="ssr:type" v="delAvInnsjø" />
	</node>
	<node id="-256490" lat="59.8823111135" lon="10.962022225">
		<tag k="name" v="Liadalen" />
		<tag k="natural" v="valley" />
		<tag k="place" v="locality" />
		<tag k="ssr:date" v="2019-12-27" />
		<tag k="ssr:gruppe" v="senkninger" />
		<tag k="ssr:hovedgruppe" v="terreng" />
		<tag k="ssr:stedsnr" v="266096" />
		<tag k="ssr:type" v="dal" />
	</node>
	<node id="-256489" lat="59.9229472254" lon="10.9881166599">
		<tag k="name" v="Øvre Røyri" />
		<tag k="place" v="farm" />
		<tag k="ssr:date" v="2019-12-27" />
		<tag k="ssr:gruppe" v="gardsbebyggelse" />
		<tag k="ssr:hovedgruppe" v="bebyggelse" />
		<tag k="ssr:stedsnr" v="266077" />
		<tag k="ssr:type" v="bruk" />
	</node>
	<node id="-256488" lat="59.8906749983" lon="10.939225008">
		<tag k="name" v="Skullerudkollen" />
		<tag k="natural" v="hill" />
		<tag k="place" v="locality" />
		<tag k="ssr:date" v="2019-12-27" />
		<tag k="ssr:gruppe" v="høyder" />
		<tag k="ssr:hovedgruppe" v="terreng" />
		<tag k="ssr:stedsnr" v="266039" />
		<tag k="ssr:type" v="høyde" />
	</node>
	<node id="-256487" lat="59.9112083321" lon="10.9718527756">
		<tag k="name" v="Feiringhagan" />
		<tag k="place" v="farm" />
		<tag k="ssr:date" v="2019-12-27" />
		<tag k="ssr:gruppe" v="gardsbebyggelse" />
		<tag k="ssr:hovedgruppe" v="bebyggelse" />
		<tag k="ssr:stedsnr" v="84977" />
		<tag k="ssr:type" v="bruk" />
	</node>
	<node id="-256486" lat="59.9095805543" lon="10.9661361028">
		<tag k="name" v="Finstadenga" />
		<tag k="place" v="farm" />
		<tag k="ssr:date" v="2019-12-27" />
		<tag k="ssr:gruppe" v="gardsbebyggelse" />
		<tag k="ssr:hovedgruppe" v="bebyggelse" />
		<tag k="ssr:stedsnr" v="84974" />
		<tag k="ssr:type" v="bruk" />
	</node>
	<node id="-256485" lat="59.9236500039" lon="10.9826361151">
		<tag k="amenity" v="school" />
		<tag k="name" v="Hammer skole" />
		<tag k="ssr:date" v="2019-12-27" />
		<tag k="ssr:gruppe" v="institusjoner" />
		<tag k="ssr:hovedgruppe" v="bebyggelse" />
		<tag k="ssr:stedsnr" v="84969" />
		<tag k="ssr:type" v="skole" />
	</node>
	<node id="-256484" lat="59.8506666685" lon="10.9972416653">
		<tag k="name" v="Feiringsetermyr" />
		<tag k="natural" v="wetland" />
		<tag k="ssr:date" v="2019-12-27" />
		<tag k="ssr:gruppe" v="våtmark" />
		<tag k="ssr:hovedgruppe" v="markslag" />
		<tag k="ssr:stedsnr" v="84923" />
		<tag k="ssr:type" v="myr" />
	</node>
	<node id="-256483" lat="59.8791055518" lon="10.9140777766">
		<tag k="name" v="Gaupesteina" />
		<tag k="place" v="locality" />
		<tag k="ssr:date" v="2019-12-27" />
		<tag k="ssr:gruppe" v="dyrkamark" />
		<tag k="ssr:hovedgruppe" v="markslag" />
		<tag k="ssr:stedsnr" v="84913" />
		<tag k="ssr:type" v="utmark" />
	</node>
	<node id="-256482" lat="59.9128166646" lon="10.9157027811">
		<tag k="name" v="Dammen" />
		<tag k="ssr:date" v="2019-12-27" />
		<tag k="ssr:gruppe" v="stilleståendeVann" />
		<tag k="ssr:hovedgruppe" v="ferskvann" />
		<tag k="ssr:stedsnr" v="84669" />
		<tag k="ssr:type" v="dam" />
		<tag k="waterway" v="dam" />
	</node>
	<node id="-256481" lat="59.8902611081" lon="10.9122722274">
		<tag k="name" v="Brenninga" />
		<tag k="place" v="locality" />
		<tag k="ssr:date" v="2019-12-27" />
		<tag k="ssr:gruppe" v="bolighus" />
		<tag k="ssr:hovedgruppe" v="bebyggelse" />
		<tag k="ssr:stedsnr" v="84666" />
		<tag k="ssr:type" v="gammelBosettingsplass" />
	</node>
	<node id="-256480" lat="59.9241805553" lon="11.0208138919">
		<tag k="name" v="Kopledalen" />
		<tag k="natural" v="valley" />
		<tag k="place" v="locality" />
		<tag k="ssr:date" v="2019-12-27" />
		<tag k="ssr:gruppe" v="senkninger" />
		<tag k="ssr:hovedgruppe" v="terreng" />
		<tag k="ssr:stedsnr" v="84660" />
		<tag k="ssr:type" v="dal" />
	</node>
	<node id="-256479" lat="59.9202861115" lon="11.0265638978">
		<tag k="name" v="Hovelsrudtangen" />
		<tag k="natural" v="cape" />
		<tag k="ssr:date" v="2019-12-27" />
		<tag k="ssr:gruppe" v="ferskvannskontur" />
		<tag k="ssr:hovedgruppe" v="ferskvann" />
		<tag k="ssr:stedsnr" v="84654" />
		<tag k="ssr:type" v="nes" />
	</node>
	<node id="-256478" lat="59.8863111122" lon="10.9121694531">
		<tag k="name" v="Sundliene" />
		<tag k="natural" v="slope" />
		<tag k="place" v="locality" />
		<tag k="ssr:date" v="2019-12-27" />
		<tag k="ssr:gruppe" v="skråninger" />
		<tag k="ssr:hovedgruppe" v="terreng" />
		<tag k="ssr:stedsnr" v="84114" />
		<tag k="ssr:type" v="li" />
	</node>
	<node id="-256477" lat="59.871550004" lon="10.9587444507">
		<tag k="fixme" v="consider natural=peak for the most distinct mountains in the district" />
		<tag k="name" v="Strudsåsen" />
		<tag k="natural" v="hill" />
		<tag k="place" v="locality" />
		<tag k="ssr:date" v="2019-12-27" />
		<tag k="ssr:gruppe" v="høyder" />
		<tag k="ssr:hovedgruppe" v="terreng" />
		<tag k="ssr:stedsnr" v="84108" />
		<tag k="ssr:type" v="ås" />
	</node>
	<node id="-256476" lat="59.8844361154" lon="11.0161194517">
		<tag k="fixme" v="consider natural=peak for the most distinct mountains in the district" />
		<tag k="name" v="Hvitvannsåsen" />
		<tag k="natural" v="hill" />
		<tag k="place" v="locality" />
		<tag k="ssr:date" v="2019-12-27" />
		<tag k="ssr:gruppe" v="høyder" />
		<tag k="ssr:hovedgruppe" v="terreng" />
		<tag k="ssr:stedsnr" v="84105" />
		<tag k="ssr:type" v="ås" />
	</node>
	<node id="-256475" lat="59.8574861101" lon="10.9258166683">
		<tag k="name" v="Cudrioberget" />
		<tag k="natural" v="hill" />
		<tag k="place" v="locality" />
		<tag k="ssr:date" v="2019-12-27" />
		<tag k="ssr:gruppe" v="høyder" />
		<tag k="ssr:hovedgruppe" v="terreng" />
		<tag k="ssr:stedsnr" v="84054" />
		<tag k="ssr:type" v="berg" />
	</node>
	<node id="-256474" lat="59.8936722192" lon="10.9354722133">
		<tag k="name" v="Furuberget" />
		<tag k="natural" v="hill" />
		<tag k="place" v="locality" />
		<tag k="ssr:date" v="2019-12-27" />
		<tag k="ssr:gruppe" v="høyder" />
		<tag k="ssr:hovedgruppe" v="terreng" />
		<tag k="ssr:stedsnr" v="84053" />
		<tag k="ssr:type" v="berg" />
	</node>
	<node id="-256473" lat="59.8487070279" lon="10.9319118495">
		<tag k="alt_name" v="Slepptjern" />
		<tag k="name" v="Slepptjernet" />
		<tag k="natural" v="water" />
		<tag k="ssr:date" v="2020-05-14" />
		<tag k="ssr:gruppe" v="stilleståendeVann" />
		<tag k="ssr:hovedgruppe" v="ferskvann" />
		<tag k="ssr:stedsnr" v="248239" />
		<tag k="ssr:type" v="tjern" />
	</node>
	<node id="-256472" lat="59.8920027816" lon="10.9345583341">
		<tag k="alt_name" v="Knuttjernet" />
		<tag k="name" v="Knuttjern" />
		<tag k="natural" v="water" />
		<tag k="ssr:date" v="2019-12-27" />
		<tag k="ssr:gruppe" v="stilleståendeVann" />
		<tag k="ssr:hovedgruppe" v="ferskvann" />
		<tag k="ssr:stedsnr" v="248080" />
		<tag k="ssr:type" v="tjern" />
	</node>
	<node id="-256471" lat="59.8941499977" lon="10.9893944511">
		<tag k="name" v="Steinbråtan" />
		<tag k="old_name" v="Steinbråten" />
		<tag k="place" v="isolated_dwelling" />
		<tag k="ssr:date" v="2019-12-27" />
		<tag k="ssr:gruppe" v="bolighus" />
		<tag k="ssr:hovedgruppe" v="bebyggelse" />
		<tag k="ssr:stedsnr" v="248077" />
		<tag k="ssr:type" v="eneboligMindreBoligbygg" />
	</node>
	<node id="-256470" lat="59.8542583368" lon="11.0177749914">
		<tag k="alt_name" v="Biritjern" />
		<tag k="name" v="Biritjernet" />
		<tag k="natural" v="water" />
		<tag k="ssr:date" v="2019-12-27" />
		<tag k="ssr:gruppe" v="stilleståendeVann" />
		<tag k="ssr:hovedgruppe" v="ferskvann" />
		<tag k="ssr:stedsnr" v="247214" />
		<tag k="ssr:type" v="tjern" />
	</node>
	<node id="-256469" lat="59.870288889" lon="10.9949805593">
		<tag k="name" v="Tangen" />
		<tag k="place" v="farm" />
		<tag k="ssr:date" v="2019-12-27" />
		<tag k="ssr:gruppe" v="gardsbebyggelse" />
		<tag k="ssr:hovedgruppe" v="bebyggelse" />
		<tag k="ssr:stedsnr" v="247142" />
		<tag k="ssr:type" v="bruk" />
	</node>
	<node id="-256468" lat="59.9099250012" lon="10.9838722292">
		<tag k="name" v="Kirkerud" />
		<tag k="place" v="farm" />
		<tag k="ssr:date" v="2019-12-27" />
		<tag k="ssr:gruppe" v="gardsbebyggelse" />
		<tag k="ssr:hovedgruppe" v="bebyggelse" />
		<tag k="ssr:stedsnr" v="247114" />
		<tag k="ssr:type" v="bruk" />
	</node>
	<node id="-256467" lat="59.9095550997" lon="11.0199104449">
		<tag k="name" v="Østbyputten" />
		<tag k="natural" v="water" />
		<tag k="ssr:date" v="2020-05-07" />
		<tag k="ssr:gruppe" v="stilleståendeVann" />
		<tag k="ssr:hovedgruppe" v="ferskvann" />
		<tag k="ssr:stedsnr" v="247105" />
		<tag k="ssr:type" v="tjern" />
	</node>
	<node id="-256466" lat="59.9025555595" lon="10.985872229">
		<tag k="name" v="Juterud" />
		<tag k="place" v="farm" />
		<tag k="ssr:date" v="2019-12-27" />
		<tag k="ssr:gruppe" v="gardsbebyggelse" />
		<tag k="ssr:hovedgruppe" v="bebyggelse" />
		<tag k="ssr:stedsnr" v="247061" />
		<tag k="ssr:type" v="bruk" />
	</node>
	<node id="-256465" lat="59.9195999961" lon="10.9603694425">
		<tag k="alt_name" v="Skårer kapell" />
		<tag k="amenity" v="place_of_worship" />
		<tag k="denomination" v="lutheran" />
		<tag k="name" v="Skårer kirke" />
		<tag k="religion" v="christian" />
		<tag k="ssr:date" v="2019-12-27" />
		<tag k="ssr:gruppe" v="kulturinstitusjoner" />
		<tag k="ssr:hovedgruppe" v="kultur" />
		<tag k="ssr:stedsnr" v="247018" />
		<tag k="ssr:type" v="kirke" />
	</node>
	<node id="-256464" lat="59.9271409535" lon="10.9260817625">
		<tag k="fixme" v="consider place=hamlet" />
		<tag k="name" v="Lysås" />
		<tag k="place" v="farm" />
		<tag k="ssr:date" v="2019-12-27" />
		<tag k="ssr:gruppe" v="gardsbebyggelse" />
		<tag k="ssr:hovedgruppe" v="bebyggelse" />
		<tag k="ssr:stedsnr" v="247015" />
		<tag k="ssr:type" v="gard" />
	</node>
	<node id="-256463" lat="59.8652861108" lon="10.9243249962">
		<tag k="fixme" v="consider natural=peak for the most distinct mountains in the district" />
		<tag k="name" v="Nilsåsen" />
		<tag k="natural" v="hill" />
		<tag k="place" v="locality" />
		<tag k="ssr:date" v="2019-12-27" />
		<tag k="ssr:gruppe" v="høyder" />
		<tag k="ssr:hovedgruppe" v="terreng" />
		<tag k="ssr:stedsnr" v="65130" />
		<tag k="ssr:type" v="ås" />
	</node>
	<node id="-256462" lat="59.9130388923" lon="10.98583055">
		<tag k="name" v="Bjørnholt" />
		<tag k="place" v="farm" />
		<tag k="ssr:date" v="2019-12-27" />
		<tag k="ssr:gruppe" v="gardsbebyggelse" />
		<tag k="ssr:hovedgruppe" v="bebyggelse" />
		<tag k="ssr:stedsnr" v="65112" />
		<tag k="ssr:type" v="bruk" />
	</node>
	<node id="-256461" lat="59.9079777754" lon="10.9426777855">
		<tag k="name" v="Frydenberg" />
		<tag k="place" v="isolated_dwelling" />
		<tag k="ssr:date" v="2019-12-27" />
		<tag k="ssr:gruppe" v="bolighus" />
		<tag k="ssr:hovedgruppe" v="bebyggelse" />
		<tag k="ssr:stedsnr" v="65108" />
		<tag k="ssr:type" v="eneboligMindreBoligbygg" />
	</node>
	<node id="-256460" lat="59.9127194409" lon="11.0186611192">
		<tag k="name" v="Lørenskogmarka øst" />
		<tag k="place" v="locality" />
		<tag k="ssr:date" v="2019-12-27" />
		<tag k="ssr:gruppe" v="dyrkamark" />
		<tag k="ssr:hovedgruppe" v="markslag" />
		<tag k="ssr:stedsnr" v="40053" />
		<tag k="ssr:type" v="utmark" />
	</node>
	<node id="-256459" lat="59.8693888868" lon="10.9474999938">
		<tag k="name" v="Simannsmyra" />
		<tag k="natural" v="wetland" />
		<tag k="ssr:date" v="2019-12-27" />
		<tag k="ssr:gruppe" v="våtmark" />
		<tag k="ssr:hovedgruppe" v="markslag" />
		<tag k="ssr:stedsnr" v="23920" />
		<tag k="ssr:type" v="myr" />
	</node>
	<node id="-256458" lat="59.8587305534" lon="10.9314833303">
		<tag k="name" v="Skråbakkhølet" />
		<tag k="place" v="locality" />
		<tag k="ssr:date" v="2019-12-27" />
		<tag k="ssr:gruppe" v="dyrkamark" />
		<tag k="ssr:hovedgruppe" v="markslag" />
		<tag k="ssr:stedsnr" v="23913" />
		<tag k="ssr:type" v="utmark" />
	</node>
	<node id="-256457" lat="59.8965361134" lon="10.9271083372">
		<tag k="name" v="Trettestykket" />
		<tag k="place" v="locality" />
		<tag k="ssr:date" v="2019-12-27" />
		<tag k="ssr:gruppe" v="dyrkamark" />
		<tag k="ssr:hovedgruppe" v="markslag" />
		<tag k="ssr:stedsnr" v="23910" />
		<tag k="ssr:type" v="utmark" />
	</node>
	<node id="-256456" lat="59.9146777815" lon="10.9914499943">
		<tag k="name" v="Tyskerudsletta" />
		<tag k="place" v="locality" />
		<tag k="ssr:date" v="2019-12-27" />
		<tag k="ssr:gruppe" v="dyrkamark" />
		<tag k="ssr:hovedgruppe" v="markslag" />
		<tag k="ssr:stedsnr" v="23902" />
		<tag k="ssr:type" v="jorde" />
	</node>
	<node id="-256455" lat="59.9017138846" lon="10.9280333354">
		<tag k="name" v="Toresrud" />
		<tag k="place" v="locality" />
		<tag k="ssr:date" v="2019-12-27" />
		<tag k="ssr:gruppe" v="bolighus" />
		<tag k="ssr:hovedgruppe" v="bebyggelse" />
		<tag k="ssr:stedsnr" v="23704" />
		<tag k="ssr:type" v="gammelBosettingsplass" />
	</node>
	<node id="-256454" lat="59.9106027782" lon="10.918605557">
		<tag k="name" v="Bjørndalen" />
		<tag k="place" v="hamlet" />
		<tag k="ssr:date" v="2019-12-27" />
		<tag k="ssr:gruppe" v="bebyggelsesområder" />
		<tag k="ssr:hovedgruppe" v="bebyggelse" />
		<tag k="ssr:stedsnr" v="222037" />
		<tag k="ssr:type" v="grend" />
	</node>
	<node id="-256453" lat="59.9117944411" lon="10.9610111162">
		<tag k="name" v="Finstad" />
		<tag k="place" v="quarter" />
		<tag k="ssr:date" v="2019-12-27" />
		<tag k="ssr:gruppe" v="bebyggelsesområder" />
		<tag k="ssr:hovedgruppe" v="bebyggelse" />
		<tag k="ssr:stedsnr" v="222031" />
		<tag k="ssr:type" v="tettsteddel" />
	</node>
</osm>
