<?xml version="1.0" encoding="UTF-8"?>
<osm version="0.6" generator="osmapis">
	<node id="455441494" lat="66.5744917" lon="12.9812429" version="2" timestamp="2022-07-16T04:49:36Z" changeset="123675112" uid="3497659" user="NKA">
		<tag k="alt_name" v="Selsøyvik" />
		<tag k="name" v="Selsøyvika" />
		<tag k="place" v="village" />
		<tag k="ssr:stedsnr" v="137011" />
	</node>
	<node id="560530869" lat="66.4670957" lon="13.2832104" version="2" timestamp="2022-07-16T04:49:36Z" changeset="123675112" uid="3497659" user="NKA">
		<tag k="alt_name" v="Skivik" />
		<tag k="name" v="Skivika" />
		<tag k="place" v="farm" />
		<tag k="ssr:stedsnr" v="137636" />
	</node>
	<node id="560531636" lat="66.5189755" lon="13.2756974" version="3" timestamp="2022-07-16T04:49:36Z" changeset="123675112" uid="3497659" user="NKA">
		<tag k="alt_name" v="Sætervika;Sætervik" />
		<tag k="name" v="Setervik" />
		<tag k="place" v="farm" />
		<tag k="ssr:stedsnr" v="562392" />
	</node>
	<node id="560531896" lat="66.4964455" lon="13.2989769" version="3" timestamp="2022-07-16T04:49:36Z" changeset="123675112" uid="3497659" user="NKA">
		<tag k="alt_name" v="Nygard" />
		<tag k="name" v="Nygård" />
		<tag k="place" v="hamlet" />
		<tag k="ssr:stedsnr" v="259622" />
	</node>
	<node id="560541588" lat="66.514907" lon="13.28294" version="2" timestamp="2022-07-16T04:49:36Z" changeset="123675112" uid="3497659" user="NKA">
		<tag k="name" v="Klubben" />
		<tag k="place" v="hamlet" />
		<tag k="ssr:stedsnr" v="77419" />
	</node>
	<node id="560542449" lat="66.4809167" lon="13.2832489" version="2" timestamp="2022-07-16T04:49:36Z" changeset="123675112" uid="3497659" user="NKA">
		<tag k="alt_name" v="Hellvika" />
		<tag k="name" v="Hellvika" />
		<tag k="place" v="hamlet" />
		<tag k="ssr:stedsnr" v="744626" />
	</node>
	<node id="3114766074" lat="66.742067" lon="13.361681" version="3" timestamp="2018-05-02T19:22:13Z" changeset="58624479" uid="3497659" user="NKA">
		<tag k="bay" v="fjord" />
		<tag k="name" v="Skarsfjorden" />
		<tag k="natural" v="bay" />
		<tag k="ssr:stedsnr" v="137124" />
	</node>
	<node id="4848520807" lat="66.5153654" lon="13.6762478" version="2" timestamp="2022-07-16T04:49:36Z" changeset="123675112" uid="3497659" user="NKA">
		<tag k="alt_name" v="Melfjorden" />
		<tag k="name" v="Melfjordbotn" />
		<tag k="place" v="village" />
		<tag k="ssr:stedsnr" v="927416" />
	</node>
	<node id="5439411315" lat="66.7008665" lon="13.3031191" version="3" timestamp="2022-07-16T04:49:36Z" changeset="123675112" uid="3497659" user="NKA">
		<tag k="name" v="Tryggestad" />
		<tag k="place" v="farm" />
		<tag k="ssr:stedsnr" v="511411" />
	</node>
	<node id="5439411868" lat="66.7134499" lon="13.2962889" version="2" timestamp="2022-07-16T04:49:36Z" changeset="123675112" uid="3497659" user="NKA">
		<tag k="name" v="Våga" />
		<tag k="place" v="farm" />
		<tag k="ssr:stedsnr" v="926151" />
	</node>
	<node id="5439411870" lat="66.7135006" lon="13.2877436" version="2" timestamp="2022-07-16T04:49:36Z" changeset="123675112" uid="3497659" user="NKA">
		<tag k="name" v="Vågaholmen" />
		<tag k="place" v="suburb" />
		<tag k="ssr:stedsnr" v="622145" />
	</node>
	<node id="5439411902" lat="66.7118639" lon="13.2633029" version="2" timestamp="2022-07-16T04:49:36Z" changeset="123675112" uid="3497659" user="NKA">
		<tag k="name" v="Kleppan" />
		<tag k="place" v="locality" />
		<tag k="ssr:stedsnr" v="105871" />
	</node>
	<node id="5439412429" lat="66.7015185" lon="13.2998578" version="2" timestamp="2022-07-16T04:49:36Z" changeset="123675112" uid="3497659" user="NKA">
		<tag k="name" v="Svenolsavika" />
		<tag k="place" v="hamlet" />
		<tag k="ssr:stedsnr" v="529848" />
	</node>
	<node id="5439586924" lat="66.6942784" lon="13.4282713" version="2" timestamp="2022-07-16T04:49:36Z" changeset="123675112" uid="3497659" user="NKA">
		<tag k="alt_name" v="Kila østre" />
		<tag k="loc_name" v="Austerkila" />
		<tag k="name" v="Østre Kila" />
		<tag k="place" v="hamlet" />
		<tag k="ssr:stedsnr" v="44939" />
	</node>
	<node id="5439586943" lat="66.6941178" lon="13.4082883" version="2" timestamp="2022-07-16T04:49:36Z" changeset="123675112" uid="3497659" user="NKA">
		<tag k="alt_name" v="Kila;Kila vestre" />
		<tag k="loc_name" v="Vesterkila" />
		<tag k="name" v="Vestre Kila" />
		<tag k="place" v="hamlet" />
		<tag k="ssr:stedsnr" v="866181" />
	</node>
	<node id="5440038704" lat="66.6857438" lon="13.4502639" version="2" timestamp="2022-07-16T04:49:36Z" changeset="123675112" uid="3497659" user="NKA">
		<tag k="name" v="Tjong" />
		<tag k="place" v="village" />
		<tag k="ssr:stedsnr" v="502199" />
	</node>
	<node id="5442512901" lat="66.6735948" lon="13.5146936" version="2" timestamp="2022-07-16T04:49:36Z" changeset="123675112" uid="3497659" user="NKA">
		<tag k="alt_name" v="Ørnnes" />
		<tag k="name" v="Årnes" />
		<tag k="place" v="locality" />
		<tag k="ssr:stedsnr" v="744162" />
	</node>
	<node id="5442512904" lat="66.6508493" lon="13.5645964" version="2" timestamp="2022-07-16T04:49:36Z" changeset="123675112" uid="3497659" user="NKA">
		<tag k="name" v="Reppasjøen" />
		<tag k="place" v="hamlet" />
		<tag k="ssr:stedsnr" v="773525" />
	</node>
	<node id="5445508763" lat="66.6468583" lon="13.5225445" version="2" timestamp="2022-07-16T04:49:36Z" changeset="123675112" uid="3497659" user="NKA">
		<tag k="alt_name" v="Skjelvika;Skjellvika" />
		<tag k="name" v="Skjellevik" />
		<tag k="place" v="locality" />
		<tag k="ssr:stedsnr" v="137243" />
	</node>
	<node id="5458905980" lat="66.6431068" lon="13.2822695" version="2" timestamp="2022-07-16T04:49:36Z" changeset="123675112" uid="3497659" user="NKA">
		<tag k="name" v="Rønningen" />
		<tag k="place" v="locality" />
		<tag k="ssr:stedsnr" v="954372" />
	</node>
	<node id="5466633260" lat="66.6638" lon="13.1829666" version="2" timestamp="2022-07-16T04:49:36Z" changeset="123675112" uid="3497659" user="NKA">
		<tag k="name" v="Litlvik" />
		<tag k="place" v="locality" />
		<tag k="ssr:stedsnr" v="650155" />
	</node>
	<node id="5466633261" lat="66.662464" lon="13.188056" version="2" timestamp="2022-07-16T04:49:36Z" changeset="123675112" uid="3497659" user="NKA">
		<tag k="name" v="Nord-Åkvik" />
		<tag k="place" v="locality" />
		<tag k="ssr:stedsnr" v="165169" />
	</node>
	<node id="5475136646" lat="66.627286" lon="13.353339" version="2" timestamp="2022-07-16T04:49:36Z" changeset="123675112" uid="3497659" user="NKA">
		<tag k="name" v="Melsæter" />
		<tag k="place" v="locality" />
		<tag k="ssr:stedsnr" v="622266" />
	</node>
	<node id="5478067764" lat="66.609039" lon="13.331386" version="3" timestamp="2022-07-16T04:49:36Z" changeset="123675112" uid="3497659" user="NKA">
		<tag k="historic" v="shieling" />
		<tag k="name" v="Kolviksetra" />
		<tag k="place" v="isolated_dwelling" />
		<tag k="ssr:stedsnr" v="651432" />
	</node>
	<node id="5478067771" lat="66.6070278" lon="13.3467417" version="3" timestamp="2022-07-16T04:49:36Z" changeset="123675112" uid="3497659" user="NKA">
		<tag k="historic" v="shieling" />
		<tag k="name" v="Litlfjordsetra" />
		<tag k="place" v="locality" />
		<tag k="ssr:stedsnr" v="530438" />
	</node>
	<node id="5479890036" lat="66.6258352" lon="13.2918532" version="2" timestamp="2022-07-16T04:49:36Z" changeset="123675112" uid="3497659" user="NKA">
		<tag k="alt_name" v="Jektvik" />
		<tag k="name" v="Jektvika" />
		<tag k="place" v="village" />
		<tag k="ssr:stedsnr" v="562350" />
	</node>
	<node id="5493288765" lat="66.544361" lon="13.631883" version="2" timestamp="2022-07-16T04:49:36Z" changeset="123675112" uid="3497659" user="NKA">
		<tag k="alt_name" v="Ramnskardet;Ramnskaret" />
		<tag k="name" v="Ravnskardet" />
		<tag k="place" v="locality" />
		<tag k="ssr:stedsnr" v="16383" />
	</node>
	<node id="5507637470" lat="66.500811" lon="13.304042" version="2" timestamp="2022-07-16T04:49:36Z" changeset="123675112" uid="3497659" user="NKA">
		<tag k="name" v="Nordrabben" />
		<tag k="place" v="neighbourhood" />
		<tag k="ssr:stedsnr" v="590505" />
	</node>
	<node id="5507637474" lat="66.503856" lon="13.309153" version="2" timestamp="2022-07-16T04:49:36Z" changeset="123675112" uid="3497659" user="NKA">
		<tag k="name" v="Vikran" />
		<tag k="place" v="locality" />
		<tag k="ssr:stedsnr" v="773485" />
	</node>
	<node id="5507637504" lat="66.5066298" lon="13.311257" version="2" timestamp="2022-07-16T04:49:36Z" changeset="123675112" uid="3497659" user="NKA">
		<tag k="alt_name" v="Oldervik" />
		<tag k="name" v="Oldervika" />
		<tag k="place" v="hamlet" />
		<tag k="ssr:stedsnr" v="623398" />
	</node>
	<node id="5507724270" lat="66.4916397" lon="13.2926092" version="2" timestamp="2022-07-16T04:49:36Z" changeset="123675112" uid="3497659" user="NKA">
		<tag k="name" v="Sørfjorden" />
		<tag k="place" v="village" />
		<tag k="ssr:stedsnr" v="622635" />
	</node>
	<node id="5532805353" lat="66.4573722" lon="13.317036" version="2" timestamp="2022-07-16T04:49:36Z" changeset="123675112" uid="3497659" user="NKA">
		<tag k="alt_name" v="Vassvik" />
		<tag k="name" v="Vassvika" />
		<tag k="place" v="hamlet" />
		<tag k="ssr:stedsnr" v="441686" />
	</node>
	<node id="5532983854" lat="66.4429334" lon="13.2531944" version="2" timestamp="2022-07-16T04:49:36Z" changeset="123675112" uid="3497659" user="NKA">
		<tag k="name" v="Stakmyra" />
		<tag k="place" v="locality" />
		<tag k="ssr:stedsnr" v="106001" />
	</node>
	<node id="5542064775" lat="66.4622061" lon="13.2263948" version="2" timestamp="2022-07-16T04:49:36Z" changeset="123675112" uid="3497659" user="NKA">
		<tag k="alt_name" v="Øresvik" />
		<tag k="name" v="Øresvika" />
		<tag k="place" v="village" />
		<tag k="ssr:stedsnr" v="319648" />
	</node>
	<node id="5542423343" lat="66.4878061" lon="13.2254647" version="2" timestamp="2022-07-16T04:49:36Z" changeset="123675112" uid="3497659" user="NKA">
		<tag k="alt_name" v="Kilboghavn" />
		<tag k="name" v="Kilboghamn" />
		<tag k="place" v="village" />
		<tag k="ssr:stedsnr" v="744606" />
	</node>
	<node id="5547866063" lat="66.5079217" lon="13.2181928" version="3" timestamp="2022-07-16T04:49:36Z" changeset="123675112" uid="3497659" user="NKA">
		<tag k="name" v="Hilstad" />
		<tag k="place" v="hamlet" />
		<tag k="ssr:stedsnr" v="623401" />
	</node>
	<node id="5555981827" lat="66.613925" lon="13.0127695" version="2" timestamp="2022-07-16T04:49:36Z" changeset="123675112" uid="3497659" user="NKA">
		<tag k="name" v="Gammelgården" />
		<tag k="place" v="locality" />
		<tag k="ssr:stedsnr" v="408102" />
	</node>
	<node id="5555981859" lat="66.6359778" lon="13.009489" version="2" timestamp="2022-07-16T04:49:36Z" changeset="123675112" uid="3497659" user="NKA">
		<tag k="name" v="Kongsvollen" />
		<tag k="place" v="locality" />
		<tag k="ssr:stedsnr" v="833246" />
	</node>
	<node id="5558635929" lat="66.6652631" lon="13.066755" version="2" timestamp="2022-07-16T04:49:36Z" changeset="123675112" uid="3497659" user="NKA">
		<tag k="name" v="Abrahamsplassen" />
		<tag k="place" v="hamlet" />
		<tag k="ssr:stedsnr" v="711178" />
	</node>
	<node id="5558635974" lat="66.6574367" lon="13.076259" version="2" timestamp="2022-07-16T04:49:36Z" changeset="123675112" uid="3497659" user="NKA">
		<tag k="name" v="Losvika" />
		<tag k="place" v="hamlet" />
		<tag k="ssr:stedsnr" v="105159" />
	</node>
	<node id="5558635981" lat="66.662114" lon="13.0764" version="2" timestamp="2022-07-16T04:49:36Z" changeset="123675112" uid="3497659" user="NKA">
		<tag k="name" v="Badstumyra" />
		<tag k="place" v="neighbourhood" />
		<tag k="ssr:stedsnr" v="529149" />
	</node>
	<node id="5558733308" lat="66.7609204" lon="12.4785712" version="2" timestamp="2022-07-16T04:49:36Z" changeset="123675112" uid="3497659" user="NKA">
		<tag k="name" v="Myken" />
		<tag k="place" v="village" />
		<tag k="ssr:stedsnr" v="744665" />
	</node>
	<node id="5563646538" lat="66.545447" lon="12.844547" version="2" timestamp="2022-07-16T04:49:36Z" changeset="123675112" uid="3497659" user="NKA">
		<tag k="name" v="Nildeplassen" />
		<tag k="place" v="locality" />
		<tag k="ssr:stedsnr" v="287011" />
	</node>
	<node id="6205774450" lat="66.5292007" lon="13.0169753" version="2" timestamp="2022-07-16T04:49:36Z" changeset="123675112" uid="3497659" user="NKA">
		<tag k="alt_name" v="Gjersvik;Gjersvikgrenda" />
		<tag k="name" v="Gjersvika" />
		<tag k="place" v="hamlet" />
		<tag k="ssr:stedsnr" v="744041" />
	</node>
	<node id="6205774455" lat="66.5509331" lon="12.8431303" version="2" timestamp="2022-07-16T04:49:36Z" changeset="123675112" uid="3497659" user="NKA">
		<tag k="name" v="Selsøya" />
		<tag k="place" v="hamlet" />
		<tag k="ssr:stedsnr" v="16087" />
	</node>
	<node id="6205774468" lat="66.6171207" lon="13.0123723" version="2" timestamp="2022-07-16T04:49:36Z" changeset="123675112" uid="3497659" user="NKA">
		<tag k="name" v="Gjerdøya" />
		<tag k="place" v="hamlet" />
		<tag k="ssr:stedsnr" v="1072066" />
	</node>
	<node id="6205774471" lat="66.6662542" lon="13.2502906" version="2" timestamp="2022-07-16T04:49:36Z" changeset="123675112" uid="3497659" user="NKA">
		<tag k="alt_name" v="Nord-Værnes" />
		<tag k="name" v="Nordværnes" />
		<tag k="place" v="hamlet" />
		<tag k="ssr:stedsnr" v="380289" />
	</node>
	<node id="6205774476" lat="66.5929444" lon="12.6422275" version="2" timestamp="2022-07-16T04:49:36Z" changeset="123675112" uid="3497659" user="NKA">
		<tag k="name" v="Nordnesøya" />
		<tag k="place" v="hamlet" />
		<tag k="ssr:stedsnr" v="137786" />
	</node>
	<node id="9890930228" lat="66.6043778" lon="13.0226611" version="1" timestamp="2022-07-16T04:49:36Z" changeset="123675112" uid="3497659" user="NKA">
		<tag k="alt_name" v="Øyra" />
		<tag k="name" v="Strendern" />
		<tag k="place" v="farm" />
		<tag k="ssr:stedsnr" v="380033" />
	</node>
	<node id="9890930229" lat="66.6106" lon="12.9902084" version="1" timestamp="2022-07-16T04:49:36Z" changeset="123675112" uid="3497659" user="NKA">
		<tag k="loc_name" v="Øya" />
		<tag k="name" v="Øyhammaren" />
		<tag k="place" v="farm" />
		<tag k="ssr:stedsnr" v="511899" />
	</node>
	<node id="9890930230" lat="66.592275" lon="12.9414194" version="1" timestamp="2022-07-16T04:49:36Z" changeset="123675112" uid="3497659" user="NKA">
		<tag k="name" v="Solstrand" />
		<tag k="place" v="farm" />
		<tag k="ssr:stedsnr" v="380039" />
	</node>
	<node id="9890930231" lat="66.5856" lon="12.9353" version="1" timestamp="2022-07-16T04:49:36Z" changeset="123675112" uid="3497659" user="NKA">
		<tag k="alt_name" v="Nedre Sundøy" />
		<tag k="name" v="Nergården" />
		<tag k="place" v="farm" />
		<tag k="ssr:stedsnr" v="198033" />
	</node>
	<node id="9890930232" lat="66.7055639" lon="13.29405" version="1" timestamp="2022-07-16T04:49:36Z" changeset="123675112" uid="3497659" user="NKA">
		<tag k="name" v="Vågengskardet" />
		<tag k="place" v="farm" />
		<tag k="ssr:stedsnr" v="866206" />
	</node>
	<node id="9890930233" lat="66.5175717" lon="13.2780195" version="1" timestamp="2022-07-16T04:49:36Z" changeset="123675112" uid="3497659" user="NKA">
		<tag k="alt_name" v="Almlia" />
		<tag k="name" v="Almli" />
		<tag k="place" v="farm" />
		<tag k="ssr:stedsnr" v="805417" />
	</node>
	<node id="9890930234" lat="66.4843604" lon="13.2774817" version="1" timestamp="2022-07-16T04:49:36Z" changeset="123675112" uid="3497659" user="NKA">
		<tag k="name" v="Nord-Strand" />
		<tag k="place" v="farm" />
		<tag k="ssr:stedsnr" v="834066" />
	</node>
	<node id="9890930235" lat="66.6827813" lon="13.0657867" version="1" timestamp="2022-07-16T04:49:36Z" changeset="123675112" uid="3497659" user="NKA">
		<tag k="name" v="Høyvågen" />
		<tag k="place" v="locality" />
		<tag k="ssr:stedsnr" v="562877" />
	</node>
	<node id="9890930236" lat="66.7092986" lon="13.2912924" version="1" timestamp="2022-07-16T04:49:36Z" changeset="123675112" uid="3497659" user="NKA">
		<tag k="name" v="Einvollen" />
		<tag k="place" v="farm" />
		<tag k="ssr:stedsnr" v="198129" />
	</node>
	<node id="9890930237" lat="66.5596128" lon="12.8609027" version="1" timestamp="2022-07-16T04:49:36Z" changeset="123675112" uid="3497659" user="NKA">
		<tag k="alt_name" v="Vollen" />
		<tag k="name" v="Slettvoll" />
		<tag k="place" v="farm" />
		<tag k="ssr:stedsnr" v="805021" />
	</node>
	<node id="9890930238" lat="66.478501" lon="13.2803936" version="1" timestamp="2022-07-16T04:49:36Z" changeset="123675112" uid="3497659" user="NKA">
		<tag k="name" v="Skogan" />
		<tag k="place" v="farm" />
		<tag k="ssr:stedsnr" v="622663" />
	</node>
	<node id="9890930239" lat="66.5413" lon="13.4002945" version="1" timestamp="2022-07-16T04:49:36Z" changeset="123675112" uid="3497659" user="NKA">
		<tag k="name" v="Aspvika" />
		<tag k="place" v="farm" />
		<tag k="ssr:stedsnr" v="744371" />
	</node>
	<node id="9890930240" lat="66.7128911" lon="13.2931674" version="1" timestamp="2022-07-16T04:49:36Z" changeset="123675112" uid="3497659" user="NKA">
		<tag k="name" v="Midttun" />
		<tag k="place" v="farm" />
		<tag k="ssr:stedsnr" v="166845" />
	</node>
	<node id="9890930241" lat="66.5508167" lon="12.8466945" version="1" timestamp="2022-07-16T04:49:36Z" changeset="123675112" uid="3497659" user="NKA">
		<tag k="name" v="Nygård" />
		<tag k="place" v="farm" />
		<tag k="ssr:stedsnr" v="772036" />
	</node>
	<node id="9890930242" lat="66.5559251" lon="12.836786" version="1" timestamp="2022-07-16T04:49:36Z" changeset="123675112" uid="3497659" user="NKA">
		<tag k="name" v="Myrvoll" />
		<tag k="place" v="farm" />
		<tag k="ssr:stedsnr" v="469032" />
	</node>
	<node id="9890930243" lat="66.5615528" lon="12.8573832" version="1" timestamp="2022-07-16T04:49:36Z" changeset="123675112" uid="3497659" user="NKA">
		<tag k="name" v="Tendringsvika" />
		<tag k="place" v="farm" />
		<tag k="ssr:stedsnr" v="501015" />
	</node>
	<node id="9890930244" lat="66.6871633" lon="13.4418735" version="1" timestamp="2022-07-16T04:49:36Z" changeset="123675112" uid="3497659" user="NKA">
		<tag k="name" v="Melkvika" />
		<tag k="place" v="farm" />
		<tag k="ssr:stedsnr" v="571447" />
	</node>
	<node id="9890930245" lat="66.4717138" lon="13.3819629" version="1" timestamp="2022-07-16T04:49:36Z" changeset="123675112" uid="3497659" user="NKA">
		<tag k="name" v="Kvalvika" />
		<tag k="place" v="farm" />
		<tag k="ssr:stedsnr" v="441676" />
	</node>
	<node id="9890930246" lat="66.5495044" lon="12.8486508" version="1" timestamp="2022-07-16T04:49:36Z" changeset="123675112" uid="3497659" user="NKA">
		<tag k="alt_name" v="Grønvoll" />
		<tag k="name" v="Grønnvoll" />
		<tag k="place" v="farm" />
		<tag k="ssr:stedsnr" v="441101" />
	</node>
	<node id="9890930247" lat="66.6959556" lon="13.4257417" version="1" timestamp="2022-07-16T04:49:36Z" changeset="123675112" uid="3497659" user="NKA">
		<tag k="name" v="Gjerde" />
		<tag k="place" v="farm" />
		<tag k="ssr:stedsnr" v="833959" />
	</node>
	<node id="9890930248" lat="66.5858196" lon="12.6498145" version="1" timestamp="2022-07-16T04:49:36Z" changeset="123675112" uid="3497659" user="NKA">
		<tag k="name" v="Fjellheim" />
		<tag k="place" v="farm" />
		<tag k="ssr:stedsnr" v="469232" />
	</node>
	<node id="9890930249" lat="66.6948111" lon="13.3920166" version="1" timestamp="2022-07-16T04:49:36Z" changeset="123675112" uid="3497659" user="NKA">
		<tag k="alt_name" v="Bruås" />
		<tag k="name" v="Bruåsen" />
		<tag k="place" v="farm" />
		<tag k="ssr:stedsnr" v="16171" />
	</node>
	<node id="9890930250" lat="66.5814806" lon="12.9294055" version="1" timestamp="2022-07-16T04:49:36Z" changeset="123675112" uid="3497659" user="NKA">
		<tag k="alt_name" v="Korsvik" />
		<tag k="name" v="Bakken" />
		<tag k="place" v="farm" />
		<tag k="ssr:stedsnr" v="16038" />
	</node>
	<node id="9890930251" lat="66.6967168" lon="13.317248" version="1" timestamp="2022-07-16T04:49:36Z" changeset="123675112" uid="3497659" user="NKA">
		<tag k="alt_name" v="Segelfore" />
		<tag k="name" v="Seglfor" />
		<tag k="place" v="hamlet" />
		<tag k="ssr:stedsnr" v="16174" />
	</node>
	<node id="9890930252" lat="66.4581045" lon="13.3211169" version="1" timestamp="2022-07-16T04:49:36Z" changeset="123675112" uid="3497659" user="NKA">
		<tag k="name" v="Rydningen" />
		<tag k="place" v="farm" />
		<tag k="ssr:stedsnr" v="1084022" />
	</node>
	<node id="9890930253" lat="66.5529861" lon="12.8388721" version="1" timestamp="2022-07-16T04:49:36Z" changeset="123675112" uid="3497659" user="NKA">
		<tag k="alt_name" v="Nerfalkhetta" />
		<tag k="name" v="Nedre Falkhetta" />
		<tag k="place" v="farm" />
		<tag k="ssr:stedsnr" v="77094" />
	</node>
	<node id="9890930254" lat="66.539386" lon="13.3513235" version="1" timestamp="2022-07-16T04:49:36Z" changeset="123675112" uid="3497659" user="NKA">
		<tag k="name" v="Lines" />
		<tag k="place" v="locality" />
		<tag k="ssr:stedsnr" v="198407" />
	</node>
	<node id="9890930255" lat="66.4650611" lon="13.2304083" version="1" timestamp="2022-07-16T04:49:36Z" changeset="123675112" uid="3497659" user="NKA">
		<tag k="name" v="Solhaug" />
		<tag k="place" v="farm" />
		<tag k="ssr:stedsnr" v="198647" />
	</node>
	<node id="9890930256" lat="66.4929112" lon="13.2937775" version="1" timestamp="2022-07-16T04:49:36Z" changeset="123675112" uid="3497659" user="NKA">
		<tag k="name" v="Trudvang" />
		<tag k="place" v="farm" />
		<tag k="ssr:stedsnr" v="955503" />
	</node>
	<node id="9890930257" lat="66.483013" lon="13.2770136" version="1" timestamp="2022-07-16T04:49:36Z" changeset="123675112" uid="3497659" user="NKA">
		<tag k="name" v="Strand" />
		<tag k="place" v="farm" />
		<tag k="ssr:stedsnr" v="1073558" />
	</node>
	<node id="9890930258" lat="66.53075" lon="13.6066027" version="1" timestamp="2022-07-16T04:49:36Z" changeset="123675112" uid="3497659" user="NKA">
		<tag k="alt_name" v="Kilhavn" />
		<tag k="name" v="Kilhamn" />
		<tag k="place" v="locality" />
		<tag k="ssr:stedsnr" v="16373" />
	</node>
	<node id="9890930259" lat="66.5609556" lon="13.4768556" version="1" timestamp="2022-07-16T04:49:36Z" changeset="123675112" uid="3497659" user="NKA">
		<tag k="name" v="Laupbakken" />
		<tag k="place" v="isolated_dwelling" />
		<tag k="ssr:stedsnr" v="441430" />
	</node>
	<node id="9890930260" lat="66.5852333" lon="13.2646333" version="1" timestamp="2022-07-16T04:49:36Z" changeset="123675112" uid="3497659" user="NKA">
		<tag k="name" v="Sperstadsætra" />
		<tag k="place" v="isolated_dwelling" />
		<tag k="ssr:stedsnr" v="865384" />
	</node>
	<node id="9890930261" lat="66.7117684" lon="13.2864066" version="1" timestamp="2022-07-16T04:49:36Z" changeset="123675112" uid="3497659" user="NKA">
		<tag k="name" v="Solvik" />
		<tag k="place" v="farm" />
		<tag k="ssr:stedsnr" v="347892" />
	</node>
	<node id="9890930262" lat="66.7499709" lon="13.16094" version="1" timestamp="2022-07-16T04:49:36Z" changeset="123675112" uid="3497659" user="NKA">
		<tag k="name" v="Svinværet" />
		<tag k="place" v="farm" />
		<tag k="ssr:stedsnr" v="319861" />
	</node>
	<node id="9890930263" lat="66.562809" lon="13.4776083" version="1" timestamp="2022-07-16T04:49:36Z" changeset="123675112" uid="3497659" user="NKA">
		<tag k="name" v="Nordfjordneset" />
		<tag k="place" v="farm" />
		<tag k="ssr:stedsnr" v="1073592" />
	</node>
	<node id="9890930264" lat="66.546553" lon="13.4678226" version="1" timestamp="2022-07-16T04:49:36Z" changeset="123675112" uid="3497659" user="NKA">
		<tag k="name" v="Hyttan" />
		<tag k="place" v="locality" />
		<tag k="ssr:stedsnr" v="562405" />
	</node>
	<node id="9890930265" lat="66.4741916" lon="13.436103" version="1" timestamp="2022-07-16T04:49:36Z" changeset="123675112" uid="3497659" user="NKA">
		<tag k="name" v="Gjervalen" />
		<tag k="place" v="locality" />
		<tag k="ssr:stedsnr" v="1073557" />
	</node>
	<node id="9890930266" lat="66.6213493" lon="13.2916536" version="1" timestamp="2022-07-16T04:49:36Z" changeset="123675112" uid="3497659" user="NKA">
		<tag k="alt_name" v="Kolvika" />
		<tag k="name" v="Kolvik" />
		<tag k="place" v="farm" />
		<tag k="ssr:stedsnr" v="319351" />
	</node>
	<node id="9890930267" lat="66.5629938" lon="13.3380985" version="1" timestamp="2022-07-16T04:49:36Z" changeset="123675112" uid="3497659" user="NKA">
		<tag k="name" v="Våtvika" />
		<tag k="place" v="locality" />
		<tag k="ssr:stedsnr" v="380321" />
	</node>
	<node id="9890930268" lat="66.6927555" lon="13.3840777" version="1" timestamp="2022-07-16T04:49:36Z" changeset="123675112" uid="3497659" user="NKA">
		<tag k="name" v="Engstad" />
		<tag k="place" v="farm" />
		<tag k="ssr:stedsnr" v="409925" />
	</node>
	<node id="9890930269" lat="66.6934972" lon="13.3865055" version="1" timestamp="2022-07-16T04:49:36Z" changeset="123675112" uid="3497659" user="NKA">
		<tag k="name" v="Elvegård" />
		<tag k="place" v="farm" />
		<tag k="ssr:stedsnr" v="288939" />
	</node>
	<node id="9890930270" lat="66.5846945" lon="12.6578417" version="1" timestamp="2022-07-16T04:49:36Z" changeset="123675112" uid="3497659" user="NKA">
		<tag k="name" v="Fjellstad" />
		<tag k="place" v="farm" />
		<tag k="ssr:stedsnr" v="259820" />
	</node>
	<node id="9890930271" lat="66.6949583" lon="13.3955055" version="1" timestamp="2022-07-16T04:49:36Z" changeset="123675112" uid="3497659" user="NKA">
		<tag k="name" v="Graven" />
		<tag k="place" v="farm" />
		<tag k="ssr:stedsnr" v="833954" />
	</node>
	<node id="9890930272" lat="66.6445379" lon="13.2897529" version="1" timestamp="2022-07-16T04:49:36Z" changeset="123675112" uid="3497659" user="NKA">
		<tag k="name" v="Engabakken" />
		<tag k="place" v="farm" />
		<tag k="ssr:stedsnr" v="267351" />
	</node>
	<node id="9890930273" lat="66.6894111" lon="13.429425" version="1" timestamp="2022-07-16T04:49:36Z" changeset="123675112" uid="3497659" user="NKA">
		<tag k="name" v="Kleften" />
		<tag k="place" v="farm" />
		<tag k="ssr:stedsnr" v="16193" />
	</node>
	<node id="9890930274" lat="66.6872416" lon="13.4286055" version="1" timestamp="2022-07-16T04:49:36Z" changeset="123675112" uid="3497659" user="NKA">
		<tag k="name" v="Kufiskosen" />
		<tag k="place" v="farm" />
		<tag k="ssr:stedsnr" v="562189" />
	</node>
	<node id="9890930275" lat="66.5323028" lon="12.9897917" version="1" timestamp="2022-07-16T04:49:36Z" changeset="123675112" uid="3497659" user="NKA">
		<tag k="name" v="Buneset" />
		<tag k="place" v="farm" />
		<tag k="ssr:stedsnr" v="259048" />
	</node>
	<node id="9890930276" lat="66.6872217" lon="13.4620674" version="1" timestamp="2022-07-16T04:49:36Z" changeset="123675112" uid="3497659" user="NKA">
		<tag k="name" v="Solheim" />
		<tag k="place" v="farm" />
		<tag k="ssr:stedsnr" v="834876" />
	</node>
	<node id="9890930277" lat="66.5941579" lon="12.6422586" version="1" timestamp="2022-07-16T04:49:36Z" changeset="123675112" uid="3497659" user="NKA">
		<tag k="alt_name" v="Dyraker" />
		<tag k="name" v="Dyrekra" />
		<tag k="place" v="farm" />
		<tag k="ssr:stedsnr" v="926797" />
	</node>
	<node id="9890930278" lat="66.55065" lon="12.8416112" version="1" timestamp="2022-07-16T04:49:36Z" changeset="123675112" uid="3497659" user="NKA">
		<tag k="name" v="Sletthaug" />
		<tag k="place" v="farm" />
		<tag k="ssr:stedsnr" v="833026" />
	</node>
	<node id="9890930279" lat="66.7178371" lon="13.2625144" version="1" timestamp="2022-07-16T04:49:36Z" changeset="123675112" uid="3497659" user="NKA">
		<tag k="name" v="Fagermo" />
		<tag k="place" v="farm" />
		<tag k="ssr:stedsnr" v="165874" />
	</node>
	<node id="9890930280" lat="66.5561846" lon="12.8357595" version="1" timestamp="2022-07-16T04:49:36Z" changeset="123675112" uid="3497659" user="NKA">
		<tag k="name" v="Solvollen" />
		<tag k="place" v="farm" />
		<tag k="ssr:stedsnr" v="408021" />
	</node>
	<node id="9890930281" lat="66.5615517" lon="13.4796695" version="1" timestamp="2022-07-16T04:49:36Z" changeset="123675112" uid="3497659" user="NKA">
		<tag k="name" v="Tårnes" />
		<tag k="place" v="farm" />
		<tag k="ssr:stedsnr" v="458054" />
	</node>
	<node id="9890930282" lat="66.4560306" lon="13.3145221" version="1" timestamp="2022-07-16T04:49:36Z" changeset="123675112" uid="3497659" user="NKA">
		<tag k="alt_name" v="Øvervoll" />
		<tag k="name" v="Øverbakkan" />
		<tag k="place" v="farm" />
		<tag k="ssr:stedsnr" v="622673" />
	</node>
	<node id="9890930283" lat="66.4984473" lon="13.2976749" version="1" timestamp="2022-07-16T04:49:36Z" changeset="123675112" uid="3497659" user="NKA">
		<tag k="alt_name" v="Måsnes" />
		<tag k="name" v="Møssnes" />
		<tag k="place" v="farm" />
		<tag k="ssr:stedsnr" v="622622" />
	</node>
	<node id="9890930284" lat="66.5567314" lon="12.8480786" version="1" timestamp="2022-07-16T04:49:36Z" changeset="123675112" uid="3497659" user="NKA">
		<tag k="name" v="Nyheim" />
		<tag k="place" v="farm" />
		<tag k="ssr:stedsnr" v="44014" />
	</node>
	<node id="9890930285" lat="66.558209" lon="12.8436876" version="1" timestamp="2022-07-16T04:49:36Z" changeset="123675112" uid="3497659" user="NKA">
		<tag k="name" v="Kleiva" />
		<tag k="place" v="farm" />
		<tag k="ssr:stedsnr" v="226028" />
	</node>
	<node id="9890930286" lat="66.5515096" lon="12.8427555" version="1" timestamp="2022-07-16T04:49:36Z" changeset="123675112" uid="3497659" user="NKA">
		<tag k="name" v="Heimly" />
		<tag k="place" v="farm" />
		<tag k="ssr:stedsnr" v="44024" />
	</node>
	<node id="9890930287" lat="66.545725" lon="12.8420501" version="1" timestamp="2022-07-16T04:49:36Z" changeset="123675112" uid="3497659" user="NKA">
		<tag k="name" v="Solbakken" />
		<tag k="place" v="farm" />
		<tag k="ssr:stedsnr" v="77101" />
	</node>
	<node id="9890930288" lat="66.6590349" lon="13.1864996" version="1" timestamp="2022-07-16T04:49:36Z" changeset="123675112" uid="3497659" user="NKA">
		<tag k="alt_name" v="Åkvika" />
		<tag k="name" v="Åkvik" />
		<tag k="place" v="farm" />
		<tag k="ssr:stedsnr" v="683898" />
	</node>
	<node id="9890930289" lat="66.7178861" lon="13.2258055" version="1" timestamp="2022-07-16T04:49:36Z" changeset="123675112" uid="3497659" user="NKA">
		<tag k="alt_name" v="Kokkvika" />
		<tag k="name" v="Kokkvik" />
		<tag k="place" v="farm" />
		<tag k="ssr:stedsnr" v="137110" />
	</node>
	<node id="9890930290" lat="66.6597445" lon="13.0846667" version="1" timestamp="2022-07-16T04:49:36Z" changeset="123675112" uid="3497659" user="NKA">
		<tag k="name" v="Bryggevika" />
		<tag k="place" v="farm" />
		<tag k="ssr:stedsnr" v="590159" />
	</node>
	<node id="9890930291" lat="66.4458396" lon="13.2544018" version="1" timestamp="2022-07-16T04:49:36Z" changeset="123675112" uid="3497659" user="NKA">
		<tag k="name" v="Øyra" />
		<tag k="old_name" v="Øren" />
		<tag k="place" v="farm" />
		<tag k="ssr:stedsnr" v="590011" />
	</node>
	<node id="9890930292" lat="66.5916667" lon="12.6583334" version="1" timestamp="2022-07-16T04:49:36Z" changeset="123675112" uid="3497659" user="NKA">
		<tag k="name" v="Fagerheim" />
		<tag k="place" v="farm" />
		<tag k="ssr:stedsnr" v="688585" />
	</node>
	<node id="9890930293" lat="66.6917083" lon="13.3419418" version="1" timestamp="2022-07-16T04:49:36Z" changeset="123675112" uid="3497659" user="NKA">
		<tag k="name" v="Makkaurholmen" />
		<tag k="place" v="isolated_dwelling" />
		<tag k="ssr:stedsnr" v="25431" />
	</node>
	<node id="9890930294" lat="66.4777823" lon="13.2424251" version="1" timestamp="2022-07-16T04:49:36Z" changeset="123675112" uid="3497659" user="NKA">
		<tag k="alt_name" v="Brenneset" />
		<tag k="name" v="Brennesvik" />
		<tag k="place" v="farm" />
		<tag k="ssr:stedsnr" v="77664" />
	</node>
	<node id="9890930295" lat="66.595825" lon="12.6579251" version="1" timestamp="2022-07-16T04:49:36Z" changeset="123675112" uid="3497659" user="NKA">
		<tag k="alt_name" v="Stølen" />
		<tag k="name" v="Staulen" />
		<tag k="place" v="farm" />
		<tag k="ssr:stedsnr" v="866755" />
	</node>
	<node id="9890930296" lat="66.7055073" lon="13.3004688" version="1" timestamp="2022-07-16T04:49:36Z" changeset="123675112" uid="3497659" user="NKA">
		<tag k="alt_name" v="Vågenget" />
		<tag k="name" v="Vågenga" />
		<tag k="place" v="farm" />
		<tag k="ssr:stedsnr" v="77236" />
	</node>
	<node id="9890930297" lat="66.5527389" lon="13.2969167" version="1" timestamp="2022-07-16T04:49:36Z" changeset="123675112" uid="3497659" user="NKA">
		<tag k="name" v="Hammarheia" />
		<tag k="place" v="locality" />
		<tag k="ssr:stedsnr" v="77437" />
	</node>
	<node id="9890930298" lat="66.5305667" lon="13.0305362" version="1" timestamp="2022-07-16T04:49:36Z" changeset="123675112" uid="3497659" user="NKA">
		<tag k="name" v="Gjerstad" />
		<tag k="place" v="farm" />
		<tag k="ssr:stedsnr" v="77059" />
	</node>
	<node id="9890930299" lat="66.6257413" lon="13.408975" version="1" timestamp="2022-07-16T04:49:36Z" changeset="123675112" uid="3497659" user="NKA">
		<tag k="alt_name" v="Kisten" />
		<tag k="name" v="Kista" />
		<tag k="place" v="farm" />
		<tag k="ssr:stedsnr" v="926350" />
	</node>
	<node id="9890930300" lat="66.6178" lon="13.104925" version="1" timestamp="2022-07-16T04:49:36Z" changeset="123675112" uid="3497659" user="NKA">
		<tag k="alt_name" v="Rengen, yt" />
		<tag k="name" v="Ytre Rengen" />
		<tag k="place" v="farm" />
		<tag k="ssr:stedsnr" v="380983" />
	</node>
	<node id="9890930301" lat="66.6847609" lon="13.4605958" version="1" timestamp="2022-07-16T04:49:36Z" changeset="123675112" uid="3497659" user="NKA">
		<tag k="alt_name" v="Nedre Tjong" />
		<tag k="name" v="Ner-Tjong" />
		<tag k="place" v="farm" />
		<tag k="ssr:stedsnr" v="773872" />
	</node>
	<node id="9890930302" lat="66.5462389" lon="12.8202056" version="1" timestamp="2022-07-16T04:49:36Z" changeset="123675112" uid="3497659" user="NKA">
		<tag k="name" v="Fjellvik" />
		<tag k="place" v="farm" />
		<tag k="ssr:stedsnr" v="347008" />
	</node>
	<node id="9890930303" lat="66.6184541" lon="13.2930995" version="1" timestamp="2022-07-16T04:49:36Z" changeset="123675112" uid="3497659" user="NKA">
		<tag k="alt_name" v="Sjåvik" />
		<tag k="name" v="Skjåvika" />
		<tag k="place" v="hamlet" />
		<tag k="ssr:stedsnr" v="380375" />
	</node>
	<node id="9890930304" lat="66.5551337" lon="12.8669386" version="1" timestamp="2022-07-16T04:49:36Z" changeset="123675112" uid="3497659" user="NKA">
		<tag k="name" v="Sandvika" />
		<tag k="place" v="farm" />
		<tag k="ssr:stedsnr" v="319104" />
	</node>
	<node id="9890930305" lat="66.6319522" lon="13.3773251" version="1" timestamp="2022-07-16T04:49:36Z" changeset="123675112" uid="3497659" user="NKA">
		<tag k="alt_name" v="Straumshaugen;Straumhaug" />
		<tag k="name" v="Straumshaug" />
		<tag k="place" v="farm" />
		<tag k="ssr:stedsnr" v="562234" />
	</node>
	<node id="9890930306" lat="66.632211" lon="13.3459649" version="1" timestamp="2022-07-16T04:49:36Z" changeset="123675112" uid="3497659" user="NKA">
		<tag k="alt_name" v="Melen" />
		<tag k="name" v="Mælen" />
		<tag k="place" v="farm" />
		<tag k="ssr:stedsnr" v="744198" />
	</node>
	<node id="9890930307" lat="66.6200663" lon="13.3371006" version="1" timestamp="2022-07-16T04:49:36Z" changeset="123675112" uid="3497659" user="NKA">
		<tag k="name" v="Forsdal" />
		<tag k="place" v="hamlet" />
		<tag k="ssr:stedsnr" v="805368" />
	</node>
	<node id="9890930308" lat="66.6322189" lon="13.3402834" version="1" timestamp="2022-07-16T04:49:36Z" changeset="123675112" uid="3497659" user="NKA">
		<tag k="name" v="Birkelund" />
		<tag k="place" v="farm" />
		<tag k="ssr:stedsnr" v="688571" />
	</node>
	<node id="9890930309" lat="66.6375417" lon="13.2652112" version="1" timestamp="2022-07-16T04:49:36Z" changeset="123675112" uid="3497659" user="NKA">
		<tag k="alt_name" v="Lauknes" />
		<tag k="name" v="Laukneset" />
		<tag k="place" v="farm" />
		<tag k="ssr:stedsnr" v="805241" />
	</node>
	<node id="9890930310" lat="66.6585829" lon="13.080129" version="1" timestamp="2022-07-16T04:49:36Z" changeset="123675112" uid="3497659" user="NKA">
		<tag k="name" v="Solheimsvollen" />
		<tag k="place" v="farm" />
		<tag k="ssr:stedsnr" v="772162" />
	</node>
	<node id="9890930311" lat="66.6421473" lon="13.2813055" version="1" timestamp="2022-07-16T04:49:36Z" changeset="123675112" uid="3497659" user="NKA">
		<tag k="name" v="Bratland" />
		<tag k="place" v="farm" />
		<tag k="ssr:stedsnr" v="408403" />
	</node>
	<node id="9890930312" lat="66.6403006" lon="13.2764635" version="1" timestamp="2022-07-16T04:49:36Z" changeset="123675112" uid="3497659" user="NKA">
		<tag k="name" v="Plassen" />
		<tag k="place" v="farm" />
		<tag k="ssr:stedsnr" v="561293" />
	</node>
	<node id="9890930313" lat="66.6664029" lon="13.056281" version="1" timestamp="2022-07-16T04:49:36Z" changeset="123675112" uid="3497659" user="NKA">
		<tag k="name" v="Selvågen gård" />
		<tag k="place" v="farm" />
		<tag k="ssr:stedsnr" v="772180" />
	</node>
	<node id="9890930314" lat="66.7515139" lon="13.1602893" version="1" timestamp="2022-07-16T04:49:36Z" changeset="123675112" uid="3497659" user="NKA">
		<tag k="name" v="Nord-Svinværet" />
		<tag k="old_name" v="Nordre Svinvær" />
		<tag k="place" v="farm" />
		<tag k="ssr:stedsnr" v="1082277" />
	</node>
	<node id="9890930315" lat="66.6320988" lon="13.3659758" version="1" timestamp="2022-07-16T04:49:36Z" changeset="123675112" uid="3497659" user="NKA">
		<tag k="name" v="Urskog" />
		<tag k="place" v="farm" />
		<tag k="ssr:stedsnr" v="511440" />
	</node>
	<node id="9890930316" lat="66.6456201" lon="13.2975912" version="1" timestamp="2022-07-16T04:49:36Z" changeset="123675112" uid="3497659" user="NKA">
		<tag k="alt_name" v="Værang ytre" />
		<tag k="name" v="Værangen" />
		<tag k="place" v="hamlet" />
		<tag k="ssr:stedsnr" v="529257" />
	</node>
	<node id="9890939717" lat="66.6626368" lon="13.2493375" version="1" timestamp="2022-07-16T04:49:36Z" changeset="123675112" uid="3497659" user="NKA">
		<tag k="alt_name" v="Slettbakken" />
		<tag k="name" v="Slettbakkan" />
		<tag k="place" v="farm" />
		<tag k="ssr:stedsnr" v="502275" />
	</node>
	<node id="9890939718" lat="66.5630495" lon="12.8526704" version="1" timestamp="2022-07-16T04:49:36Z" changeset="123675112" uid="3497659" user="NKA">
		<tag k="alt_name" v="Utneset" />
		<tag k="name" v="Utnes" />
		<tag k="place" v="farm" />
		<tag k="ssr:stedsnr" v="137018" />
	</node>
	<node id="9890939719" lat="66.4525972" lon="13.2111888" version="1" timestamp="2022-07-16T04:49:36Z" changeset="123675112" uid="3497659" user="NKA">
		<tag k="name" v="Dalbotnan" />
		<tag k="place" v="farm" />
		<tag k="ssr:stedsnr" v="744394" />
	</node>
	<node id="9890939720" lat="66.4433944" lon="13.2394778" version="1" timestamp="2022-07-16T04:49:36Z" changeset="123675112" uid="3497659" user="NKA">
		<tag k="name" v="Vårheim" />
		<tag k="place" v="farm" />
		<tag k="ssr:stedsnr" v="744642" />
	</node>
	<node id="9890939721" lat="66.6682014" lon="13.2481917" version="1" timestamp="2022-07-16T04:49:36Z" changeset="123675112" uid="3497659" user="NKA">
		<tag k="name" v="Lundestad" />
		<tag k="place" v="farm" />
		<tag k="ssr:stedsnr" v="529271" />
	</node>
	<node id="9890939722" lat="66.6004695" lon="13.5416805" version="1" timestamp="2022-07-16T04:49:36Z" changeset="123675112" uid="3497659" user="NKA">
		<tag k="name" v="Småslåttan" />
		<tag k="place" v="isolated_dwelling" />
		<tag k="ssr:stedsnr" v="441330" />
	</node>
	<node id="9890939723" lat="66.5989055" lon="13.2475749" version="1" timestamp="2022-07-16T04:49:36Z" changeset="123675112" uid="3497659" user="NKA">
		<tag k="alt_name" v="Buvika" />
		<tag k="name" v="Buvik" />
		<tag k="place" v="farm" />
		<tag k="ssr:stedsnr" v="441355" />
	</node>
	<node id="9890939724" lat="66.5689641" lon="13.1936347" version="1" timestamp="2022-07-16T04:49:36Z" changeset="123675112" uid="3497659" user="NKA">
		<tag k="name" v="Telnes" />
		<tag k="place" v="hamlet" />
		<tag k="ssr:stedsnr" v="441016" />
	</node>
	<node id="9890939725" lat="66.6172639" lon="13.2982195" version="1" timestamp="2022-07-16T04:49:36Z" changeset="123675112" uid="3497659" user="NKA">
		<tag k="alt_name" v="Tømmerbakken" />
		<tag k="name" v="Tømmerbakk" />
		<tag k="place" v="farm" />
		<tag k="ssr:stedsnr" v="684364" />
	</node>
	<node id="9890939726" lat="66.6237909" lon="13.4431253" version="1" timestamp="2022-07-16T04:49:36Z" changeset="123675112" uid="3497659" user="NKA">
		<tag k="alt_name" v="Strømdal;Straumsnes" />
		<tag k="name" v="Straumdal" />
		<tag k="place" v="farm" />
		<tag k="ssr:stedsnr" v="622349" />
	</node>
	<node id="9890939727" lat="66.5655156" lon="12.9995645" version="1" timestamp="2022-07-16T04:49:36Z" changeset="123675112" uid="3497659" user="NKA">
		<tag k="name" v="Rangsund" />
		<tag k="place" v="hamlet" />
		<tag k="ssr:stedsnr" v="380027" />
	</node>
	<node id="9890939728" lat="66.6109" lon="12.9948084" version="1" timestamp="2022-07-16T04:49:36Z" changeset="123675112" uid="3497659" user="NKA">
		<tag k="name" v="Selsøyvollen" />
		<tag k="place" v="farm" />
		<tag k="ssr:stedsnr" v="319984" />
	</node>
	<node id="9890939729" lat="66.660477" lon="13.4715176" version="1" timestamp="2022-07-16T04:49:36Z" changeset="123675112" uid="3497659" user="NKA">
		<tag k="name" v="Bjerga" />
		<tag k="place" v="farm" />
		<tag k="ssr:stedsnr" v="712958" />
	</node>
	<node id="9890939730" lat="66.5746639" lon="13.0627612" version="1" timestamp="2022-07-16T04:49:36Z" changeset="123675112" uid="3497659" user="NKA">
		<tag k="name" v="Valvikmoen" />
		<tag k="place" v="farm" />
		<tag k="ssr:stedsnr" v="137014" />
	</node>
	<node id="9890939731" lat="66.6514591" lon="13.5675838" version="1" timestamp="2022-07-16T04:49:36Z" changeset="123675112" uid="3497659" user="NKA">
		<tag k="name" v="Ner-Reppen" />
		<tag k="place" v="farm" />
		<tag k="ssr:stedsnr" v="319264" />
	</node>
	<node id="9890939732" lat="66.4948604" lon="13.2126991" version="1" timestamp="2022-07-16T04:49:36Z" changeset="123675112" uid="3497659" user="NKA">
		<tag k="alt_name" v="Jansvika" />
		<tag k="name" v="Jansvik" />
		<tag k="place" v="hamlet" />
		<tag k="ssr:stedsnr" v="866468" />
	</node>
	<node id="9890939733" lat="66.5166765" lon="13.2062784" version="1" timestamp="2022-07-16T04:49:36Z" changeset="123675112" uid="3497659" user="NKA">
		<tag k="name" v="Steinsland" />
		<tag k="place" v="hamlet" />
		<tag k="ssr:stedsnr" v="866152" />
	</node>
	<node id="9890939734" lat="66.7002583" lon="13.4062889" version="1" timestamp="2022-07-16T04:49:36Z" changeset="123675112" uid="3497659" user="NKA">
		<tag k="name" v="Nyvoll" />
		<tag k="place" v="farm" />
		<tag k="ssr:stedsnr" v="259179" />
	</node>
	<node id="9890939735" lat="66.4873898" lon="13.219114" version="1" timestamp="2022-07-16T04:49:36Z" changeset="123675112" uid="3497659" user="NKA">
		<tag k="name" v="Engseth" />
		<tag k="place" v="farm" />
		<tag k="ssr:stedsnr" v="712364" />
	</node>
	<node id="9890939736" lat="66.6386334" lon="13.0390806" version="1" timestamp="2022-07-16T04:49:36Z" changeset="123675112" uid="3497659" user="NKA">
		<tag k="name" v="Einmo" />
		<tag k="place" v="farm" />
		<tag k="ssr:stedsnr" v="165142" />
	</node>
	<node id="9890939737" lat="66.5236361" lon="13.6638333" version="1" timestamp="2022-07-16T04:49:36Z" changeset="123675112" uid="3497659" user="NKA">
		<tag k="name" v="Ryneset" />
		<tag k="place" v="isolated_dwelling" />
		<tag k="ssr:stedsnr" v="683368" />
	</node>
	<node id="9890939738" lat="66.6869777" lon="13.4698277" version="1" timestamp="2022-07-16T04:49:36Z" changeset="123675112" uid="3497659" user="NKA">
		<tag k="name" v="Vollan" />
		<tag k="place" v="farm" />
		<tag k="ssr:stedsnr" v="105895" />
	</node>
	<node id="9890939739" lat="66.4822694" lon="13.2766361" version="1" timestamp="2022-07-16T04:49:36Z" changeset="123675112" uid="3497659" user="NKA">
		<tag k="name" v="Sør-Strand" />
		<tag k="place" v="farm" />
		<tag k="ssr:stedsnr" v="712053" />
	</node>
	<node id="9890939740" lat="66.6444361" lon="13.3231305" version="1" timestamp="2022-07-16T04:49:36Z" changeset="123675112" uid="3497659" user="NKA">
		<tag k="name" v="Reiten" />
		<tag k="place" v="farm" />
		<tag k="ssr:stedsnr" v="137261" />
	</node>
	<node id="9890939741" lat="66.6724003" lon="13.527805" version="1" timestamp="2022-07-16T04:49:36Z" changeset="123675112" uid="3497659" user="NKA">
		<tag k="name" v="Bjerkeli" />
		<tag k="place" v="farm" />
		<tag k="ssr:stedsnr" v="45509" />
	</node>
	<node id="9890939742" lat="66.5322917" lon="13.0322583" version="1" timestamp="2022-07-16T04:49:36Z" changeset="123675112" uid="3497659" user="NKA">
		<tag k="name" v="Klubbvik" />
		<tag k="place" v="farm" />
		<tag k="ssr:stedsnr" v="711249" />
	</node>
	<node id="9890939743" lat="66.5775583" lon="12.6142805" version="1" timestamp="2022-07-16T04:49:36Z" changeset="123675112" uid="3497659" user="NKA">
		<tag k="name" v="Kjølvika" />
		<tag k="place" v="farm" />
		<tag k="ssr:stedsnr" v="501767" />
	</node>
	<node id="9890939744" lat="66.6132795" lon="12.9935268" version="1" timestamp="2022-07-16T04:49:36Z" changeset="123675112" uid="3497659" user="NKA">
		<tag k="name" v="Sør-Gjerdøya" />
		<tag k="old_name" v="Gjerøen søndre" />
		<tag k="place" v="hamlet" />
		<tag k="ssr:stedsnr" v="1082163" />
	</node>
	<node id="9890939745" lat="66.6506792" lon="13.1992473" version="1" timestamp="2022-07-16T04:49:36Z" changeset="123675112" uid="3497659" user="NKA">
		<tag k="name" v="Sørværnes" />
		<tag k="place" v="farm" />
		<tag k="ssr:stedsnr" v="1073600" />
	</node>
	<node id="9890939746" lat="66.7339479" lon="13.0161989" version="1" timestamp="2022-07-16T04:49:36Z" changeset="123675112" uid="3497659" user="NKA">
		<tag k="name" v="Oterværet" />
		<tag k="place" v="farm" />
		<tag k="ssr:stedsnr" v="1082288" />
	</node>
	<node id="9890939747" lat="66.7182773" lon="13.2556641" version="1" timestamp="2022-07-16T04:49:36Z" changeset="123675112" uid="3497659" user="NKA">
		<tag k="name" v="Fagerheim" />
		<tag k="place" v="farm" />
		<tag k="ssr:stedsnr" v="711877" />
	</node>
	<node id="9890939748" lat="66.7338777" lon="13.0158083" version="1" timestamp="2022-07-16T04:49:36Z" changeset="123675112" uid="3497659" user="NKA">
		<tag k="loc_name" v="Oterværet" />
		<tag k="name" v="Otervær" />
		<tag k="place" v="farm" />
		<tag k="ssr:stedsnr" v="1072552" />
	</node>
	<node id="9890939749" lat="66.71785" lon="13.2162999" version="1" timestamp="2022-07-16T04:49:36Z" changeset="123675112" uid="3497659" user="NKA">
		<tag k="name" v="Nordgården" />
		<tag k="place" v="farm" />
		<tag k="ssr:stedsnr" v="198843" />
	</node>
	<node id="9890939750" lat="66.5261176" lon="13.3020135" version="1" timestamp="2022-07-16T04:49:36Z" changeset="123675112" uid="3497659" user="NKA">
		<tag k="name" v="Hellarvika" />
		<tag k="place" v="locality" />
		<tag k="ssr:stedsnr" v="622396" />
	</node>
	<node id="9890939751" lat="66.6095871" lon="13.1230886" version="1" timestamp="2022-07-16T04:49:36Z" changeset="123675112" uid="3497659" user="NKA">
		<tag k="alt_name" v="Rengen, in" />
		<tag k="name" v="Indre Rengen" />
		<tag k="place" v="farm" />
		<tag k="ssr:stedsnr" v="562967" />
	</node>
	<node id="9890939752" lat="66.5203583" lon="13.184825" version="1" timestamp="2022-07-16T04:49:36Z" changeset="123675112" uid="3497659" user="NKA">
		<tag k="name" v="Fjellmo" />
		<tag k="place" v="farm" />
		<tag k="ssr:stedsnr" v="319079" />
	</node>
	<node id="9890939753" lat="66.4449245" lon="13.2594334" version="1" timestamp="2022-07-16T04:49:36Z" changeset="123675112" uid="3497659" user="NKA">
		<tag k="alt_name" v="Sørfjordgården;Sørfjordgardan" />
		<tag k="name" v="Sørfjorden" />
		<tag k="place" v="hamlet" />
		<tag k="ssr:stedsnr" v="77681" />
	</node>
	<node id="9890939754" lat="66.6236417" lon="13.2578779" version="1" timestamp="2022-07-16T04:49:36Z" changeset="123675112" uid="3497659" user="NKA">
		<tag k="name" v="Oddvang" />
		<tag k="place" v="farm" />
		<tag k="ssr:stedsnr" v="562237" />
	</node>
	<node id="9890939755" lat="66.6155167" lon="13.0109641" version="1" timestamp="2022-07-16T04:49:36Z" changeset="123675112" uid="3497659" user="NKA">
		<tag k="alt_name" v="Midtigården" />
		<tag k="name" v="Midtgården" />
		<tag k="place" v="farm" />
		<tag k="ssr:stedsnr" v="16970" />
	</node>
	<node id="9890939756" lat="66.5417555" lon="13.0751945" version="1" timestamp="2022-07-16T04:49:36Z" changeset="123675112" uid="3497659" user="NKA">
		<tag k="name" v="Langmo" />
		<tag k="place" v="farm" />
		<tag k="ssr:stedsnr" v="441118" />
	</node>
	<node id="9890939757" lat="66.5335744" lon="13.1391394" version="1" timestamp="2022-07-16T04:49:36Z" changeset="123675112" uid="3497659" user="NKA">
		<tag k="alt_name" v="Molvik" />
		<tag k="name" v="Molvika" />
		<tag k="place" v="farm" />
		<tag k="ssr:stedsnr" v="805067" />
	</node>
	<node id="9890939758" lat="66.4614472" lon="13.2312305" version="1" timestamp="2022-07-16T04:49:36Z" changeset="123675112" uid="3497659" user="NKA">
		<tag k="name" v="Halsan" />
		<tag k="place" v="farm" />
		<tag k="ssr:stedsnr" v="259655" />
	</node>
	<node id="9890939759" lat="66.6387028" lon="13.0390279" version="1" timestamp="2022-07-16T04:49:36Z" changeset="123675112" uid="3497659" user="NKA">
		<tag k="name" v="Esvåg" />
		<tag k="place" v="farm" />
		<tag k="ssr:stedsnr" v="683951" />
	</node>
	<node id="9890939760" lat="66.461796" lon="13.2388859" version="1" timestamp="2022-07-16T04:49:36Z" changeset="123675112" uid="3497659" user="NKA">
		<tag k="name" v="Venes" />
		<tag k="place" v="farm" />
		<tag k="ssr:stedsnr" v="1082158" />
	</node>
	<node id="9890939761" lat="66.5293842" lon="13.0103862" version="1" timestamp="2022-07-16T04:49:36Z" changeset="123675112" uid="3497659" user="NKA">
		<tag k="name" v="Melkvika" />
		<tag k="place" v="farm" />
		<tag k="ssr:stedsnr" v="866046" />
	</node>
	<node id="9890939762" lat="66.6001295" lon="13.5358401" version="1" timestamp="2022-07-16T04:49:36Z" changeset="123675112" uid="3497659" user="NKA">
		<tag k="name" v="Nordfjordholmen" />
		<tag k="place" v="locality" />
		<tag k="ssr:stedsnr" v="198293" />
	</node>
	<node id="9890939763" lat="66.6648145" lon="13.0891503" version="1" timestamp="2022-07-16T04:49:36Z" changeset="123675112" uid="3497659" user="NKA">
		<tag k="alt_name" v="Hagevika" />
		<tag k="name" v="Hagevik" />
		<tag k="place" v="farm" />
		<tag k="ssr:stedsnr" v="320941" />
	</node>
	<node id="9890939764" lat="66.5805803" lon="13.0484433" version="1" timestamp="2022-07-16T04:49:36Z" changeset="123675112" uid="3497659" user="NKA">
		<tag k="alt_name" v="Håkaringen;Nergården" />
		<tag k="name" v="Nergården" />
		<tag k="place" v="farm" />
		<tag k="ssr:stedsnr" v="198001" />
	</node>
	<node id="9890939765" lat="66.5461628" lon="13.0939777" version="1" timestamp="2022-07-16T04:49:36Z" changeset="123675112" uid="3497659" user="NKA">
		<tag k="alt_name" v="Langneset" />
		<tag k="name" v="Langnes" />
		<tag k="place" v="farm" />
		<tag k="ssr:stedsnr" v="259088" />
	</node>
	<node id="9890939766" lat="66.6499667" lon="13.5749868" version="1" timestamp="2022-07-16T04:49:36Z" changeset="123675112" uid="3497659" user="NKA">
		<tag k="name" v="Reppen øvre" />
		<tag k="old_name" v="Reppen" />
		<tag k="place" v="farm" />
		<tag k="ssr:stedsnr" v="1072064" />
	</node>
	<node id="9890939767" lat="66.650333" lon="13.5773992" version="1" timestamp="2022-07-16T04:49:36Z" changeset="123675112" uid="3497659" user="NKA">
		<tag k="name" v="Øver-Reppen" />
		<tag k="old_name" v="Reppa" />
		<tag k="place" v="farm" />
		<tag k="ssr:stedsnr" v="198235" />
	</node>
	<node id="9890939768" lat="66.7472694" lon="13.1593074" version="1" timestamp="2022-07-16T04:49:36Z" changeset="123675112" uid="3497659" user="NKA">
		<tag k="name" v="Svinvær" />
		<tag k="place" v="farm" />
		<tag k="ssr:stedsnr" v="1082272" />
	</node>
	<node id="9890939769" lat="66.6498594" lon="13.5725723" version="1" timestamp="2022-07-16T04:49:36Z" changeset="123675112" uid="3497659" user="NKA">
		<tag k="name" v="Reppen" />
		<tag k="place" v="farm" />
		<tag k="ssr:stedsnr" v="1072063" />
	</node>
	<node id="9890939770" lat="66.5786894" lon="13.0469787" version="1" timestamp="2022-07-16T04:49:36Z" changeset="123675112" uid="3497659" user="NKA">
		<tag k="alt_name" v="Øvergården" />
		<tag k="name" v="Håkaringen" />
		<tag k="place" v="farm" />
		<tag k="ssr:stedsnr" v="1072359" />
	</node>
	<node id="9890939771" lat="66.6214129" lon="13.2649929" version="1" timestamp="2022-07-16T04:49:36Z" changeset="123675112" uid="3497659" user="NKA">
		<tag k="alt_name" v="Raudnes" />
		<tag k="name" v="Raunes" />
		<tag k="place" v="farm" />
		<tag k="ssr:stedsnr" v="622274" />
	</node>
	<node id="9890939772" lat="66.6685769" lon="13.2058722" version="1" timestamp="2022-07-16T04:49:36Z" changeset="123675112" uid="3497659" user="NKA">
		<tag k="alt_name" v="Rønvik" />
		<tag k="name" v="Rønvika" />
		<tag k="place" v="farm" />
		<tag k="ssr:stedsnr" v="259921" />
	</node>
	<node id="9890939773" lat="66.6863624" lon="13.4548429" version="1" timestamp="2022-07-16T04:49:36Z" changeset="123675112" uid="3497659" user="NKA">
		<tag k="alt_name" v="Øvre Tjong" />
		<tag k="name" v="Øver-Tjong" />
		<tag k="place" v="farm" />
		<tag k="ssr:stedsnr" v="1073664" />
	</node>
	<node id="9890939774" lat="66.7261171" lon="13.2304962" version="1" timestamp="2022-07-16T04:49:36Z" changeset="123675112" uid="3497659" user="NKA">
		<tag k="name" v="Solvoll" />
		<tag k="place" v="farm" />
		<tag k="ssr:stedsnr" v="287868" />
	</node>
	<node id="9890939775" lat="66.6867916" lon="13.4733111" version="1" timestamp="2022-07-16T04:49:36Z" changeset="123675112" uid="3497659" user="NKA">
		<tag k="name" v="Åsheim" />
		<tag k="place" v="farm" />
		<tag k="ssr:stedsnr" v="866192" />
	</node>
	<node id="9890939776" lat="66.6174889" lon="13.0042528" version="1" timestamp="2022-07-16T04:49:36Z" changeset="123675112" uid="3497659" user="NKA">
		<tag k="name" v="Haugen" />
		<tag k="place" v="farm" />
		<tag k="ssr:stedsnr" v="347230" />
	</node>
	<node id="9890939777" lat="66.5991924" lon="13.2289792" version="1" timestamp="2022-07-16T04:49:36Z" changeset="123675112" uid="3497659" user="NKA">
		<tag k="name" v="Einvika" />
		<tag k="place" v="farm" />
		<tag k="ssr:stedsnr" v="320354" />
	</node>
	<node id="9890939778" lat="66.5445287" lon="13.0757055" version="1" timestamp="2022-07-16T04:49:36Z" changeset="123675112" uid="3497659" user="NKA">
		<tag k="alt_name" v="Langvika" />
		<tag k="name" v="Langvik" />
		<tag k="place" v="farm" />
		<tag k="ssr:stedsnr" v="77100" />
	</node>
	<node id="9890939779" lat="66.5835044" lon="12.6791973" version="1" timestamp="2022-07-16T04:49:36Z" changeset="123675112" uid="3497659" user="NKA">
		<tag k="name" v="Sandvika" />
		<tag k="place" v="farm" />
		<tag k="ssr:stedsnr" v="926801" />
	</node>
	<node id="9890939780" lat="66.6722833" lon="13.5246722" version="1" timestamp="2022-07-16T04:49:36Z" changeset="123675112" uid="3497659" user="NKA">
		<tag k="name" v="Seljenes" />
		<tag k="place" v="farm" />
		<tag k="ssr:stedsnr" v="834516" />
	</node>
	<node id="9890939781" lat="66.7313614" lon="13.3092089" version="1" timestamp="2022-07-16T04:49:36Z" changeset="123675112" uid="3497659" user="NKA">
		<tag k="name" v="Seines" />
		<tag k="place" v="farm" />
		<tag k="ssr:stedsnr" v="137100" />
	</node>
	<node id="9890939782" lat="66.6879449" lon="13.4724749" version="1" timestamp="2022-07-16T04:49:36Z" changeset="123675112" uid="3497659" user="NKA">
		<tag k="name" v="Fjellheim" />
		<tag k="place" v="farm" />
		<tag k="ssr:stedsnr" v="409872" />
	</node>
	<node id="9890939783" lat="66.6688819" lon="13.2329288" version="1" timestamp="2022-07-16T04:49:36Z" changeset="123675112" uid="3497659" user="NKA">
		<tag k="name" v="Bø" />
		<tag k="place" v="farm" />
		<tag k="ssr:stedsnr" v="77299" />
	</node>
	<node id="9890939784" lat="66.6501546" lon="13.3998512" version="1" timestamp="2022-07-16T04:49:36Z" changeset="123675112" uid="3497659" user="NKA">
		<tag k="alt_name" v="Blok" />
		<tag k="name" v="Blokk" />
		<tag k="place" v="farm" />
		<tag k="ssr:stedsnr" v="137264" />
	</node>
	<node id="9890939785" lat="66.6721574" lon="13.5207399" version="1" timestamp="2022-07-16T04:49:36Z" changeset="123675112" uid="3497659" user="NKA">
		<tag k="name" v="Årnesmyra" />
		<tag k="place" v="farm" />
		<tag k="ssr:stedsnr" v="227517" />
	</node>
	<node id="9890939786" lat="66.6408333" lon="13.0225083" version="1" timestamp="2022-07-16T04:49:36Z" changeset="123675112" uid="3497659" user="NKA">
		<tag k="name" v="Sandvika" />
		<tag k="place" v="farm" />
		<tag k="ssr:stedsnr" v="744954" />
	</node>
	<node id="9890939787" lat="66.6605767" lon="13.4684144" version="1" timestamp="2022-07-16T04:49:36Z" changeset="123675112" uid="3497659" user="NKA">
		<tag k="name" v="Møllervoll" />
		<tag k="place" v="farm" />
		<tag k="ssr:stedsnr" v="146398" />
	</node>
	<node id="9890939788" lat="66.6972139" lon="13.3989639" version="1" timestamp="2022-07-16T04:49:36Z" changeset="123675112" uid="3497659" user="NKA">
		<tag k="name" v="Ytterkila" />
		<tag k="old_name" v="Ytter Kila" />
		<tag k="place" v="farm" />
		<tag k="ssr:stedsnr" v="40117" />
	</node>
	<node id="9890939789" lat="66.6986444" lon="13.4316749" version="1" timestamp="2022-07-16T04:49:36Z" changeset="123675112" uid="3497659" user="NKA">
		<tag k="name" v="Gullstad" />
		<tag k="place" v="farm" />
		<tag k="ssr:stedsnr" v="77195" />
	</node>
	<node id="9890939790" lat="66.6903861" lon="13.4092417" version="1" timestamp="2022-07-16T04:49:36Z" changeset="123675112" uid="3497659" user="NKA">
		<tag k="name" v="Staulen" />
		<tag k="place" v="farm" />
		<tag k="ssr:stedsnr" v="16168" />
	</node>
	<node id="9890939791" lat="66.5899194" lon="12.9389972" version="1" timestamp="2022-07-16T04:49:36Z" changeset="123675112" uid="3497659" user="NKA">
		<tag k="name" v="Krabbevågen" />
		<tag k="place" v="farm" />
		<tag k="ssr:stedsnr" v="287120" />
	</node>
	<node id="9890939792" lat="66.6968444" lon="13.3028584" version="1" timestamp="2022-07-16T04:49:36Z" changeset="123675112" uid="3497659" user="NKA">
		<tag k="alt_name" v="Hammarvoll" />
		<tag k="name" v="Hammervoll" />
		<tag k="place" v="farm" />
		<tag k="ssr:stedsnr" v="16175" />
	</node>
	<node id="9890939793" lat="66.6355832" lon="13.2271047" version="1" timestamp="2022-07-16T04:49:36Z" changeset="123675112" uid="3497659" user="NKA">
		<tag k="name" v="Esjeholmen" />
		<tag k="place" v="farm" />
		<tag k="ssr:stedsnr" v="137238" />
	</node>
	<node id="9890939794" lat="66.6317288" lon="13.3217144" version="1" timestamp="2022-07-16T04:49:36Z" changeset="123675112" uid="3497659" user="NKA">
		<tag k="name" v="Kvitnesvika" />
		<tag k="place" v="farm" />
		<tag k="ssr:stedsnr" v="1073593" />
	</node>
	<node id="9890939795" lat="66.6941903" lon="13.416449" version="1" timestamp="2022-07-16T04:49:36Z" changeset="123675112" uid="3497659" user="NKA">
		<tag k="name" v="Innerkila" />
		<tag k="old_name" v="Indre Kila;Kila indre" />
		<tag k="place" v="farm" />
		<tag k="ssr:stedsnr" v="768106" />
	</node>
	<node id="9890939796" lat="66.634775" lon="13.3310693" version="1" timestamp="2022-07-16T04:49:36Z" changeset="123675112" uid="3497659" user="NKA">
		<tag k="alt_name" v="Rotnes" />
		<tag k="name" v="Rotneset" />
		<tag k="place" v="farm" />
		<tag k="ssr:stedsnr" v="866219" />
	</node>
	<node id="9890939797" lat="66.6690864" lon="12.9185312" version="1" timestamp="2022-07-16T04:49:36Z" changeset="123675112" uid="3497659" user="NKA">
		<tag k="name" v="Østre Grindværet" />
		<tag k="place" v="farm" />
		<tag k="ssr:stedsnr" v="1082254" />
	</node>
	<node id="9890939798" lat="66.5845197" lon="12.9316734" version="1" timestamp="2022-07-16T04:49:36Z" changeset="123675112" uid="3497659" user="NKA">
		<tag k="name" v="Sundøy" />
		<tag k="place" v="farm" />
		<tag k="ssr:stedsnr" v="1073542" />
	</node>
	<node id="9890939799" lat="66.6941166" lon="13.3475666" version="1" timestamp="2022-07-16T04:49:36Z" changeset="123675112" uid="3497659" user="NKA">
		<tag k="name" v="Makkauren" />
		<tag k="place" v="isolated_dwelling" />
		<tag k="ssr:stedsnr" v="866179" />
	</node>
	<node id="9890939800" lat="66.5498423" lon="12.8456525" version="1" timestamp="2022-07-16T04:49:36Z" changeset="123675112" uid="3497659" user="NKA">
		<tag k="name" v="Selsøygården" />
		<tag k="place" v="farm" />
		<tag k="ssr:stedsnr" v="165031" />
	</node>
	<node id="9890939801" lat="66.5916653" lon="12.6406392" version="1" timestamp="2022-07-16T04:49:36Z" changeset="123675112" uid="3497659" user="NKA">
		<tag k="name" v="Øvergården" />
		<tag k="place" v="farm" />
		<tag k="ssr:stedsnr" v="319981" />
	</node>
	<node id="9890939802" lat="66.5453746" lon="12.8213233" version="1" timestamp="2022-07-16T04:49:36Z" changeset="123675112" uid="3497659" user="NKA">
		<tag k="name" v="Dalmo" />
		<tag k="place" v="farm" />
		<tag k="ssr:stedsnr" v="165002" />
	</node>
	<node id="9890939803" lat="66.5776195" lon="13.0461501" version="1" timestamp="2022-07-16T04:49:36Z" changeset="123675112" uid="3497659" user="NKA">
		<tag k="name" v="Øvergården" />
		<tag k="place" v="locality" />
		<tag k="ssr:stedsnr" v="16002" />
	</node>
	<node id="9890939804" lat="66.5550566" lon="12.837776" version="1" timestamp="2022-07-16T04:49:36Z" changeset="123675112" uid="3497659" user="NKA">
		<tag k="name" v="Sandberget" />
		<tag k="place" v="farm" />
		<tag k="ssr:stedsnr" v="105023" />
	</node>
	<node id="9890939805" lat="66.5525333" lon="12.8507945" version="1" timestamp="2022-07-16T04:49:36Z" changeset="123675112" uid="3497659" user="NKA">
		<tag k="name" v="Nordfalkhetta" />
		<tag k="place" v="farm" />
		<tag k="ssr:stedsnr" v="77096" />
	</node>
	<node id="9890939806" lat="66.6973539" lon="13.4211155" version="1" timestamp="2022-07-16T04:49:36Z" changeset="123675112" uid="3497659" user="NKA">
		<tag k="name" v="Kila" />
		<tag k="place" v="hamlet" />
		<tag k="ssr:stedsnr" v="647135" />
	</node>
	<node id="9890939807" lat="66.6527233" lon="13.5815584" version="1" timestamp="2022-07-16T04:49:36Z" changeset="123675112" uid="3497659" user="NKA">
		<tag k="alt_name" v="Øyjorda" />
		<tag k="name" v="Øyjord" />
		<tag k="place" v="farm" />
		<tag k="ssr:stedsnr" v="319265" />
	</node>
	<node id="9890939808" lat="66.7283195" lon="13.2812666" version="1" timestamp="2022-07-16T04:49:36Z" changeset="123675112" uid="3497659" user="NKA">
		<tag k="name" v="Moan" />
		<tag k="place" v="farm" />
		<tag k="ssr:stedsnr" v="77180" />
	</node>
	<node id="9890939809" lat="66.7323222" lon="13.2997555" version="1" timestamp="2022-07-16T04:49:36Z" changeset="123675112" uid="3497659" user="NKA">
		<tag k="name" v="Seinesvika" />
		<tag k="place" v="farm" />
		<tag k="ssr:stedsnr" v="206845" />
	</node>
	<node id="9890939810" lat="66.6534027" lon="13.581675" version="1" timestamp="2022-07-16T04:49:36Z" changeset="123675112" uid="3497659" user="NKA">
		<tag k="name" v="Fjellmo" />
		<tag k="place" v="farm" />
		<tag k="ssr:stedsnr" v="227543" />
	</node>
	<node id="9890939811" lat="66.6965671" lon="13.4269673" version="1" timestamp="2022-07-16T04:49:36Z" changeset="123675112" uid="3497659" user="NKA">
		<tag k="name" v="Forsmo" />
		<tag k="place" v="farm" />
		<tag k="ssr:stedsnr" v="894944" />
	</node>
	<node id="9890939812" lat="66.6951521" lon="13.3125674" version="1" timestamp="2022-07-16T04:49:36Z" changeset="123675112" uid="3497659" user="NKA">
		<tag k="name" v="Klipvollen" />
		<tag k="place" v="farm" />
		<tag k="ssr:stedsnr" v="894839" />
	</node>
	<node id="9890939813" lat="66.6127303" lon="13.2362056" version="1" timestamp="2022-07-16T04:49:36Z" changeset="123675112" uid="3497659" user="NKA">
		<tag k="name" v="Sperstad" />
		<tag k="place" v="farm" />
		<tag k="ssr:stedsnr" v="502364" />
	</node>
	<node id="9890939814" lat="66.5848778" lon="12.9328305" version="1" timestamp="2022-07-16T04:49:36Z" changeset="123675112" uid="3497659" user="NKA">
		<tag k="name" v="Solstad" />
		<tag k="place" v="farm" />
		<tag k="ssr:stedsnr" v="44603" />
	</node>
	<node id="9890939815" lat="66.5867585" lon="12.9337564" version="1" timestamp="2022-07-16T04:49:36Z" changeset="123675112" uid="3497659" user="NKA">
		<tag k="name" v="Skreien" />
		<tag k="place" v="farm" />
		<tag k="ssr:stedsnr" v="44110" />
	</node>
	<node id="9890939816" lat="66.5168611" lon="13.6578833" version="1" timestamp="2022-07-16T04:49:36Z" changeset="123675112" uid="3497659" user="NKA">
		<tag k="name" v="Bjørkneset" />
		<tag k="place" v="neighbourhood" />
		<tag k="ssr:stedsnr" v="162091" />
	</node>
	<node id="9890939817" lat="66.5513924" lon="12.8371089" version="1" timestamp="2022-07-16T04:49:36Z" changeset="123675112" uid="3497659" user="NKA">
		<tag k="name" v="Vågen" />
		<tag k="place" v="farm" />
		<tag k="ssr:stedsnr" v="469050" />
	</node>
	<node id="9890939818" lat="66.5624834" lon="13.4747166" version="1" timestamp="2022-07-16T04:49:36Z" changeset="123675112" uid="3497659" user="NKA">
		<tag k="name" v="Volden" />
		<tag k="old_name" v="Årnes" />
		<tag k="place" v="farm" />
		<tag k="ssr:stedsnr" v="259429" />
	</node>
	<node id="9890939819" lat="66.57545" lon="13.0099833" version="1" timestamp="2022-07-16T04:49:36Z" changeset="123675112" uid="3497659" user="NKA">
		<tag k="name" v="Skjelstad" />
		<tag k="place" v="farm" />
		<tag k="ssr:stedsnr" v="926013" />
	</node>
	<node id="9890939820" lat="66.7072202" lon="13.3325749" version="1" timestamp="2022-07-16T04:49:36Z" changeset="123675112" uid="3497659" user="NKA">
		<tag k="name" v="Solvang" />
		<tag k="place" v="farm" />
		<tag k="ssr:stedsnr" v="834869" />
	</node>
	<node id="9890939821" lat="66.5908444" lon="12.9372388" version="1" timestamp="2022-07-16T04:49:36Z" changeset="123675112" uid="3497659" user="NKA">
		<tag k="name" v="Krabbvågen" />
		<tag k="place" v="farm" />
		<tag k="ssr:stedsnr" v="137028" />
	</node>
	<node id="9890939822" lat="66.5455256" lon="12.8173126" version="1" timestamp="2022-07-16T04:49:36Z" changeset="123675112" uid="3497659" user="NKA">
		<tag k="name" v="Farstad" />
		<tag k="place" v="farm" />
		<tag k="ssr:stedsnr" v="529006" />
	</node>
	<node id="9890939823" lat="66.5514462" lon="12.8452045" version="1" timestamp="2022-07-16T04:49:36Z" changeset="123675112" uid="3497659" user="NKA">
		<tag k="name" v="Haugtun" />
		<tag k="place" v="farm" />
		<tag k="ssr:stedsnr" v="894037" />
	</node>
	<node id="9890939824" lat="66.5575722" lon="12.863189" version="1" timestamp="2022-07-16T04:49:36Z" changeset="123675112" uid="3497659" user="NKA">
		<tag k="name" v="Resmorsberget" />
		<tag k="place" v="farm" />
		<tag k="ssr:stedsnr" v="562083" />
	</node>
	<node id="9890939825" lat="66.474272" lon="13.2852787" version="1" timestamp="2022-07-16T04:49:36Z" changeset="123675112" uid="3497659" user="NKA">
		<tag k="alt_name" v="Fjellenget" />
		<tag k="name" v="Fjelleng" />
		<tag k="place" v="farm" />
		<tag k="ssr:stedsnr" v="926657" />
	</node>
	<node id="9890939826" lat="66.5573278" lon="12.8322307" version="1" timestamp="2022-07-16T04:49:36Z" changeset="123675112" uid="3497659" user="NKA">
		<tag k="name" v="Solvika" />
		<tag k="place" v="isolated_dwelling" />
		<tag k="ssr:stedsnr" v="469026" />
	</node>
	<node id="9890939827" lat="66.4901833" lon="13.2844473" version="1" timestamp="2022-07-16T04:49:36Z" changeset="123675112" uid="3497659" user="NKA">
		<tag k="name" v="Myrvang" />
		<tag k="place" v="farm" />
		<tag k="ssr:stedsnr" v="805635" />
	</node>
	<node id="9890939828" lat="66.7294695" lon="13.3184446" version="1" timestamp="2022-07-16T04:49:36Z" changeset="123675112" uid="3497659" user="NKA">
		<tag k="name" v="Djupdal" />
		<tag k="place" v="farm" />
		<tag k="ssr:stedsnr" v="623154" />
	</node>
	<node id="9890939829" lat="66.6708416" lon="13.5374959" version="1" timestamp="2022-07-16T04:49:36Z" changeset="123675112" uid="3497659" user="NKA">
		<tag k="name" v="Breivika" />
		<tag k="place" v="hamlet" />
		<tag k="ssr:stedsnr" v="805168" />
	</node>
	<node id="9890939830" lat="66.5792902" lon="13.0218744" version="1" timestamp="2022-07-16T04:49:36Z" changeset="123675112" uid="3497659" user="NKA">
		<tag k="alt_name" v="Breiviken;Breidvika" />
		<tag k="name" v="Breivika" />
		<tag k="place" v="farm" />
		<tag k="ssr:stedsnr" v="440086" />
	</node>
	<node id="9890939831" lat="66.5005972" lon="13.3004111" version="1" timestamp="2022-07-16T04:49:36Z" changeset="123675112" uid="3497659" user="NKA">
		<tag k="alt_name" v="Møssnesvika" />
		<tag k="name" v="Måsnesvika" />
		<tag k="place" v="farm" />
		<tag k="ssr:stedsnr" v="744357" />
	</node>
	<node id="9890939832" lat="66.61235" lon="13.0112777" version="1" timestamp="2022-07-16T04:49:36Z" changeset="123675112" uid="3497659" user="NKA">
		<tag k="name" v="Hagland" />
		<tag k="place" v="farm" />
		<tag k="ssr:stedsnr" v="320978" />
	</node>
	<node id="9890939833" lat="66.4504595" lon="13.2197897" version="1" timestamp="2022-07-16T04:49:36Z" changeset="123675112" uid="3497659" user="NKA">
		<tag k="alt_name" v="Tømmerdalen" />
		<tag k="name" v="Tømmerdal" />
		<tag k="place" v="farm" />
		<tag k="ssr:stedsnr" v="501648" />
	</node>
	<node id="9890939834" lat="66.7032493" lon="13.2869621" version="1" timestamp="2022-07-16T04:49:36Z" changeset="123675112" uid="3497659" user="NKA">
		<tag k="name" v="Svenolsavika" />
		<tag k="place" v="farm" />
		<tag k="ssr:stedsnr" v="268405" />
	</node>
	<node id="9890939835" lat="66.5448584" lon="12.8223" version="1" timestamp="2022-07-16T04:49:36Z" changeset="123675112" uid="3497659" user="NKA">
		<tag k="name" v="Grønnvika" />
		<tag k="old_name" v="Grønnvik" />
		<tag k="place" v="farm" />
		<tag k="ssr:stedsnr" v="622112" />
	</node>
	<node id="9890939836" lat="66.5414401" lon="13.5546131" version="1" timestamp="2022-07-16T04:49:36Z" changeset="123675112" uid="3497659" user="NKA">
		<tag k="name" v="Sandvika" />
		<tag k="place" v="locality" />
		<tag k="ssr:stedsnr" v="1073590" />
	</node>
	<node id="9890939837" lat="66.5279876" lon="13.0195702" version="1" timestamp="2022-07-16T04:49:36Z" changeset="123675112" uid="3497659" user="NKA">
		<tag k="name" v="Vollen" />
		<tag k="place" v="farm" />
		<tag k="ssr:stedsnr" v="16045" />
	</node>
	<node id="9890939838" lat="66.648996" lon="13.3998801" version="1" timestamp="2022-07-16T04:49:36Z" changeset="123675112" uid="3497659" user="NKA">
		<tag k="name" v="Myrland" />
		<tag k="place" v="farm" />
		<tag k="ssr:stedsnr" v="530948" />
	</node>
	<node id="9890939839" lat="66.7053218" lon="13.4141032" version="1" timestamp="2022-07-16T04:49:36Z" changeset="123675112" uid="3497659" user="NKA">
		<tag k="name" v="Nyrud" />
		<tag k="place" v="farm" />
		<tag k="ssr:stedsnr" v="287874" />
	</node>
	<node id="9890939840" lat="66.7041805" lon="13.4021833" version="1" timestamp="2022-07-16T04:49:36Z" changeset="123675112" uid="3497659" user="NKA">
		<tag k="name" v="Øverkila" />
		<tag k="place" v="hamlet" />
		<tag k="ssr:stedsnr" v="287873" />
	</node>
	<node id="9890939841" lat="66.706025" lon="13.4032834" version="1" timestamp="2022-07-16T04:49:36Z" changeset="123675112" uid="3497659" user="NKA">
		<tag k="name" v="Uteng" />
		<tag k="place" v="farm" />
		<tag k="ssr:stedsnr" v="287872" />
	</node>
	<node id="9890939842" lat="66.4642" lon="13.2281001" version="1" timestamp="2022-07-16T04:49:36Z" changeset="123675112" uid="3497659" user="NKA">
		<tag k="name" v="Myrvoll" />
		<tag k="place" v="farm" />
		<tag k="ssr:stedsnr" v="562648" />
	</node>
	<node id="9890939843" lat="66.5578889" lon="12.8689945" version="1" timestamp="2022-07-16T04:49:36Z" changeset="123675112" uid="3497659" user="NKA">
		<tag k="name" v="Bakkevang" />
		<tag k="place" v="isolated_dwelling" />
		<tag k="ssr:stedsnr" v="226051" />
	</node>
	<node id="9890939844" lat="66.5426477" lon="12.8616257" version="1" timestamp="2022-07-16T04:49:36Z" changeset="123675112" uid="3497659" user="NKA">
		<tag k="name" v="Vangen" />
		<tag k="place" v="farm" />
		<tag k="ssr:stedsnr" v="347053" />
	</node>
	<node id="9890939845" lat="66.5913416" lon="12.9375583" version="1" timestamp="2022-07-16T04:49:36Z" changeset="123675112" uid="3497659" user="NKA">
		<tag k="name" v="Moen" />
		<tag k="place" v="farm" />
		<tag k="ssr:stedsnr" v="772106" />
	</node>
	<node id="9890939846" lat="66.5127916" lon="13.67468" version="1" timestamp="2022-07-16T04:49:36Z" changeset="123675112" uid="3497659" user="NKA">
		<tag k="name" v="Kveldheim" />
		<tag k="place" v="farm" />
		<tag k="ssr:stedsnr" v="259379" />
	</node>
	<node id="9890939847" lat="66.6124415" lon="13.0133938" version="1" timestamp="2022-07-16T04:49:36Z" changeset="123675112" uid="3497659" user="NKA">
		<tag k="alt_name" v="Sør-Gjerdøya" />
		<tag k="name" v="Øvergården" />
		<tag k="old_name" v="Gjærøy søndre" />
		<tag k="place" v="farm" />
		<tag k="ssr:stedsnr" v="772255" />
	</node>
	<node id="9890939848" lat="66.6647339" lon="13.3660043" version="1" timestamp="2022-07-16T04:49:36Z" changeset="123675112" uid="3497659" user="NKA">
		<tag k="name" v="Kvalvika" />
		<tag k="place" v="farm" />
		<tag k="ssr:stedsnr" v="501283" />
	</node>
	<node id="9890939849" lat="66.6519234" lon="13.2118342" version="1" timestamp="2022-07-16T04:49:36Z" changeset="123675112" uid="3497659" user="NKA">
		<tag k="alt_name" v="Værnesos" />
		<tag k="name" v="Værnesosen" />
		<tag k="place" v="farm" />
		<tag k="ssr:stedsnr" v="198969" />
	</node>
	<node id="9890939850" lat="66.6609645" lon="13.0796643" version="1" timestamp="2022-07-16T04:49:36Z" changeset="123675112" uid="3497659" user="NKA">
		<tag k="name" v="Rødøy prestegård" />
		<tag k="place" v="farm" />
		<tag k="ssr:stedsnr" v="1073686" />
	</node>
	<node id="9890939851" lat="66.506925" lon="13.6999389" version="1" timestamp="2022-07-16T04:49:36Z" changeset="123675112" uid="3497659" user="NKA">
		<tag k="name" v="Litlhåkanhågen" />
		<tag k="place" v="isolated_dwelling" />
		<tag k="ssr:stedsnr" v="954560" />
	</node>
	<node id="9890939852" lat="66.7135583" lon="13.2898639" version="1" timestamp="2022-07-16T04:49:36Z" changeset="123675112" uid="3497659" user="NKA">
		<tag k="name" v="Heimly" />
		<tag k="place" v="farm" />
		<tag k="ssr:stedsnr" v="469856" />
	</node>
	<node id="9890939853" lat="66.6858506" lon="12.971577" version="1" timestamp="2022-07-16T04:49:36Z" changeset="123675112" uid="3497659" user="NKA">
		<tag k="name" v="Gjessøya" />
		<tag k="place" v="locality" />
		<tag k="ssr:stedsnr" v="1073681" />
	</node>
	<node id="9890939854" lat="66.6735913" lon="12.9448737" version="1" timestamp="2022-07-16T04:49:36Z" changeset="123675112" uid="3497659" user="NKA">
		<tag k="name" v="Vestre Grindvær" />
		<tag k="place" v="farm" />
		<tag k="ssr:stedsnr" v="1082257" />
	</node>
	<node id="9890939855" lat="66.6417329" lon="13.3558952" version="1" timestamp="2022-07-16T04:49:36Z" changeset="123675112" uid="3497659" user="NKA">
		<tag k="name" v="Eidvik" />
		<tag k="place" v="farm" />
		<tag k="ssr:stedsnr" v="693467" />
	</node>
	<node id="9890939856" lat="66.5818389" lon="12.9290138" version="1" timestamp="2022-07-16T04:49:36Z" changeset="123675112" uid="3497659" user="NKA">
		<tag k="alt_name" v="Øvre Sundøy" />
		<tag k="name" v="Øvergården" />
		<tag k="place" v="farm" />
		<tag k="ssr:stedsnr" v="198042" />
	</node>
	<node id="9890939857" lat="66.5113866" lon="13.6812504" version="1" timestamp="2022-07-16T04:49:36Z" changeset="123675112" uid="3497659" user="NKA">
		<tag k="name" v="Åsen" />
		<tag k="place" v="farm" />
		<tag k="ssr:stedsnr" v="441383" />
	</node>
	<node id="9890939858" lat="66.6547627" lon="12.9903831" version="1" timestamp="2022-07-16T04:49:36Z" changeset="123675112" uid="3497659" user="NKA">
		<tag k="name" v="Flatøya" />
		<tag k="place" v="farm" />
		<tag k="ssr:stedsnr" v="1073739" />
	</node>
	<node id="9890939859" lat="66.583776" lon="12.9336555" version="1" timestamp="2022-07-16T04:49:36Z" changeset="123675112" uid="3497659" user="NKA">
		<tag k="name" v="Sandåkeren" />
		<tag k="old_name" v="Sandåker;Sandaker" />
		<tag k="place" v="hamlet" />
		<tag k="ssr:stedsnr" v="440081" />
	</node>
	<node id="9890939860" lat="66.5094389" lon="13.6914999" version="1" timestamp="2022-07-16T04:49:36Z" changeset="123675112" uid="3497659" user="NKA">
		<tag k="name" v="Skogheim" />
		<tag k="place" v="farm" />
		<tag k="ssr:stedsnr" v="866364" />
	</node>
	<node id="9890939861" lat="66.630669" lon="13.027612" version="1" timestamp="2022-07-16T04:49:36Z" changeset="123675112" uid="3497659" user="NKA">
		<tag k="name" v="Nord-Gjerdøya" />
		<tag k="place" v="farm" />
		<tag k="ssr:stedsnr" v="866946" />
	</node>
	<node id="9890939862" lat="66.6215483" lon="13.3403534" version="1" timestamp="2022-07-16T04:49:36Z" changeset="123675112" uid="3497659" user="NKA">
		<tag k="name" v="Ånes" />
		<tag k="place" v="farm" />
		<tag k="ssr:stedsnr" v="1073595" />
	</node>
	<node id="9890939863" lat="66.4979305" lon="13.2995694" version="1" timestamp="2022-07-16T04:49:36Z" changeset="123675112" uid="3497659" user="NKA">
		<tag k="name" v="Birkely" />
		<tag k="place" v="farm" />
		<tag k="ssr:stedsnr" v="77648" />
	</node>
	<node id="9890939864" lat="66.599059" lon="13.010352" version="1" timestamp="2022-07-16T04:49:36Z" changeset="123675112" uid="3497659" user="NKA">
		<tag k="alt_name" v="Gjerdøyhamn" />
		<tag k="name" v="Nerhamn" />
		<tag k="old_name" v="Gjerøyhavn" />
		<tag k="place" v="farm" />
		<tag k="ssr:stedsnr" v="894107" />
	</node>
	<node id="9890939865" lat="66.469783" lon="13.236814" version="1" timestamp="2022-07-16T04:49:36Z" changeset="123675112" uid="3497659" user="NKA">
		<tag k="name" v="Slettvoll" />
		<tag k="place" v="neighbourhood" />
		<tag k="ssr:stedsnr" v="951099" />
	</node>
	<node id="9890939866" lat="66.6480611" lon="13.5687111" version="1" timestamp="2022-07-16T04:49:36Z" changeset="123675112" uid="3497659" user="NKA">
		<tag k="name" v="Elverum" />
		<tag k="place" v="farm" />
		<tag k="ssr:stedsnr" v="501258" />
	</node>
	<node id="9890939867" lat="66.7080389" lon="13.416125" version="1" timestamp="2022-07-16T04:49:36Z" changeset="123675112" uid="3497659" user="NKA">
		<tag k="name" v="Kila" />
		<tag k="old_name" v="Kilen;Kiilen" />
		<tag k="place" v="farm" />
		<tag k="ssr:stedsnr" v="40112" />
	</node>
	<node id="9890939868" lat="66.6540849" lon="13.5154811" version="1" timestamp="2022-07-16T04:49:36Z" changeset="123675112" uid="3497659" user="NKA">
		<tag k="alt_name" v="Kjettvik" />
		<tag k="name" v="Kjettvika" />
		<tag k="place" v="hamlet" />
		<tag k="ssr:stedsnr" v="501247" />
	</node>
	<node id="9890939869" lat="66.6358659" lon="13.388156" version="1" timestamp="2022-07-16T04:49:36Z" changeset="123675112" uid="3497659" user="NKA">
		<tag k="alt_name" v="Strømsvik" />
		<tag k="name" v="Straumsvika" />
		<tag k="place" v="farm" />
		<tag k="ssr:stedsnr" v="501236" />
	</node>
	<node id="9890939870" lat="66.6168203" lon="13.01029" version="1" timestamp="2022-07-16T04:49:36Z" changeset="123675112" uid="3497659" user="NKA">
		<tag k="name" v="Sjøvollen" />
		<tag k="place" v="farm" />
		<tag k="ssr:stedsnr" v="226254" />
	</node>
	<node id="9890939871" lat="66.6924251" lon="13.4053863" version="1" timestamp="2022-07-16T04:49:36Z" changeset="123675112" uid="3497659" user="NKA">
		<tag k="name" v="Nerkila" />
		<tag k="old_name" v="Nedre Kila" />
		<tag k="place" v="farm" />
		<tag k="ssr:stedsnr" v="40114" />
	</node>
	<node id="9890939872" lat="66.6373667" lon="13.0575241" version="1" timestamp="2022-07-16T04:49:36Z" changeset="123675112" uid="3497659" user="NKA">
		<tag k="name" v="Storhaugen" />
		<tag k="place" v="farm" />
		<tag k="ssr:stedsnr" v="561943" />
	</node>
	<node id="9890939873" lat="66.6663333" lon="13.0637779" version="1" timestamp="2022-07-16T04:49:36Z" changeset="123675112" uid="3497659" user="NKA">
		<tag k="name" v="Korsvollen" />
		<tag k="place" v="farm" />
		<tag k="ssr:stedsnr" v="287187" />
	</node>
	<node id="9890939874" lat="66.6907484" lon="13.4031484" version="1" timestamp="2022-07-16T04:49:36Z" changeset="123675112" uid="3497659" user="NKA">
		<tag k="name" v="Kilavik" />
		<tag k="old_name" v="Kilavika" />
		<tag k="place" v="farm" />
		<tag k="ssr:stedsnr" v="465104" />
	</node>
	<node id="9890939875" lat="66.6402084" lon="13.050907" version="1" timestamp="2022-07-16T04:49:36Z" changeset="123675112" uid="3497659" user="NKA">
		<tag k="name" v="Esvåg" />
		<tag k="place" v="hamlet" />
		<tag k="ssr:stedsnr" v="622951" />
	</node>
	<node id="9890939876" lat="66.5564867" lon="12.8607539" version="1" timestamp="2022-07-16T04:49:36Z" changeset="123675112" uid="3497659" user="NKA">
		<tag k="name" v="Sandmoa" />
		<tag k="place" v="farm" />
		<tag k="ssr:stedsnr" v="772069" />
	</node>
	<node id="9890939877" lat="66.7197611" lon="13.2240834" version="1" timestamp="2022-07-16T04:49:36Z" changeset="123675112" uid="3497659" user="NKA">
		<tag k="alt_name" v="Marvollen" />
		<tag k="name" v="Marvoll" />
		<tag k="place" v="farm" />
		<tag k="ssr:stedsnr" v="805132" />
	</node>
	<node id="9890939878" lat="66.7325389" lon="13.2941999" version="1" timestamp="2022-07-16T04:49:36Z" changeset="123675112" uid="3497659" user="NKA">
		<tag k="name" v="Gognstadvika" />
		<tag k="place" v="isolated_dwelling" />
		<tag k="ssr:stedsnr" v="450400" />
	</node>
	<node id="9890939879" lat="66.5138897" lon="13.2912925" version="1" timestamp="2022-07-16T04:49:36Z" changeset="123675112" uid="3497659" user="NKA">
		<tag k="alt_name" v="Fosslund" />
		<tag k="name" v="Forslund" />
		<tag k="place" v="farm" />
		<tag k="ssr:stedsnr" v="684402" />
	</node>
	<node id="9890939880" lat="66.7200639" lon="13.2967251" version="1" timestamp="2022-07-16T04:49:36Z" changeset="123675112" uid="3497659" user="NKA">
		<tag k="name" v="Åsmoa" />
		<tag k="place" v="farm" />
		<tag k="ssr:stedsnr" v="105865" />
	</node>
	<node id="9890939881" lat="66.6836" lon="13.0891029" version="1" timestamp="2022-07-16T04:49:36Z" changeset="123675112" uid="3497659" user="NKA">
		<tag k="name" v="Risvika" />
		<tag k="place" v="farm" />
		<tag k="ssr:stedsnr" v="441897" />
	</node>
	<node id="9890939882" lat="66.7237028" lon="13.2188695" version="1" timestamp="2022-07-16T04:49:36Z" changeset="123675112" uid="3497659" user="NKA">
		<tag k="name" v="Nordvik" />
		<tag k="place" v="farm" />
		<tag k="ssr:stedsnr" v="683115" />
	</node>
	<node id="9890939883" lat="66.5914634" lon="12.6419743" version="1" timestamp="2022-07-16T04:49:36Z" changeset="123675112" uid="3497659" user="NKA">
		<tag k="name" v="Nergården" />
		<tag k="place" v="farm" />
		<tag k="ssr:stedsnr" v="772257" />
	</node>
	<node id="9890939884" lat="66.5805419" lon="12.9861134" version="1" timestamp="2022-07-16T04:49:36Z" changeset="123675112" uid="3497659" user="NKA">
		<tag k="name" v="Nordset" />
		<tag k="place" v="farm" />
		<tag k="ssr:stedsnr" v="711084" />
	</node>
	<node id="9890939885" lat="66.7180667" lon="13.2563389" version="1" timestamp="2022-07-16T04:49:36Z" changeset="123675112" uid="3497659" user="NKA">
		<tag k="name" v="Gjedden" />
		<tag k="place" v="farm" />
		<tag k="ssr:stedsnr" v="380150" />
	</node>
	<node id="9890939886" lat="66.4652085" lon="13.2339174" version="1" timestamp="2022-07-16T04:49:36Z" changeset="123675112" uid="3497659" user="NKA">
		<tag k="alt_name" v="Haugvik" />
		<tag k="name" v="Vikland" />
		<tag k="place" v="farm" />
		<tag k="ssr:stedsnr" v="683640" />
	</node>
	<node id="9890939887" lat="66.6532195" lon="13.5100416" version="1" timestamp="2022-07-16T04:49:36Z" changeset="123675112" uid="3497659" user="NKA">
		<tag k="name" v="Bakkeland" />
		<tag k="place" v="farm" />
		<tag k="ssr:stedsnr" v="712541" />
	</node>
	<node id="9890939888" lat="66.5864922" lon="12.6523982" version="1" timestamp="2022-07-16T04:49:36Z" changeset="123675112" uid="3497659" user="NKA">
		<tag k="name" v="Grimsland" />
		<tag k="place" v="hamlet" />
		<tag k="ssr:stedsnr" v="683781" />
	</node>
	<node id="9890939889" lat="66.7167062" lon="13.2173064" version="1" timestamp="2022-07-16T04:49:36Z" changeset="123675112" uid="3497659" user="NKA">
		<tag k="name" v="Oddvik" />
		<tag k="place" v="farm" />
		<tag k="ssr:stedsnr" v="25409" />
	</node>
	<node id="9890939890" lat="66.5141584" lon="13.2141916" version="1" timestamp="2022-07-16T04:49:36Z" changeset="123675112" uid="3497659" user="NKA">
		<tag k="name" v="Sandvika" />
		<tag k="place" v="farm" />
		<tag k="ssr:stedsnr" v="501166" />
	</node>
	<node id="9890939891" lat="66.7311984" lon="13.2589858" version="1" timestamp="2022-07-16T04:49:36Z" changeset="123675112" uid="3497659" user="NKA">
		<tag k="name" v="Sleipnessjøen" />
		<tag k="place" v="farm" />
		<tag k="ssr:stedsnr" v="268400" />
	</node>
	<node id="9890939892" lat="66.7293568" lon="13.2436479" version="1" timestamp="2022-07-16T04:49:36Z" changeset="123675112" uid="3497659" user="NKA">
		<tag k="alt_name" v="Hjellvågan" />
		<tag k="name" v="Gjelvågan" />
		<tag k="place" v="farm" />
		<tag k="ssr:stedsnr" v="866159" />
	</node>
	<node id="9890939893" lat="66.72296" lon="13.3724223" version="1" timestamp="2022-07-16T04:49:36Z" changeset="123675112" uid="3497659" user="NKA">
		<tag k="alt_name" v="Tølløkken" />
		<tag k="name" v="Tølløken" />
		<tag k="place" v="farm" />
		<tag k="ssr:stedsnr" v="622141" />
	</node>
	<node id="9890939894" lat="66.7266138" lon="13.268498" version="1" timestamp="2022-07-16T04:49:36Z" changeset="123675112" uid="3497659" user="NKA">
		<tag k="name" v="Sleipnes" />
		<tag k="place" v="hamlet" />
		<tag k="ssr:stedsnr" v="380173" />
	</node>
	<node id="9890939895" lat="66.4917808" lon="13.3001637" version="1" timestamp="2022-07-16T04:49:36Z" changeset="123675112" uid="3497659" user="NKA">
		<tag k="name" v="Lomås" />
		<tag k="place" v="farm" />
		<tag k="ssr:stedsnr" v="287420" />
	</node>
	<node id="9890939896" lat="66.4594779" lon="13.3250038" version="1" timestamp="2022-07-16T04:49:36Z" changeset="123675112" uid="3497659" user="NKA">
		<tag k="name" v="Forslund" />
		<tag k="place" v="farm" />
		<tag k="ssr:stedsnr" v="259666" />
	</node>
	<node id="9890939897" lat="66.6331777" lon="13.3349251" version="1" timestamp="2022-07-16T04:49:36Z" changeset="123675112" uid="3497659" user="NKA">
		<tag k="name" v="Staklavika" />
		<tag k="place" v="farm" />
		<tag k="ssr:stedsnr" v="772447" />
	</node>
	<node id="9890939898" lat="66.7010529" lon="13.3991935" version="1" timestamp="2022-07-16T04:49:36Z" changeset="123675112" uid="3497659" user="NKA">
		<tag k="name" v="Furustad" />
		<tag k="place" v="farm" />
		<tag k="ssr:stedsnr" v="287871" />
	</node>
	<node id="9890939899" lat="66.5992654" lon="13.0134132" version="1" timestamp="2022-07-16T04:49:36Z" changeset="123675112" uid="3497659" user="NKA">
		<tag k="name" v="Gjerdøyhamn" />
		<tag k="place" v="farm" />
		<tag k="ssr:stedsnr" v="441033" />
	</node>
	<node id="9890939900" lat="66.702604" lon="13.4084206" version="1" timestamp="2022-07-16T04:49:36Z" changeset="123675112" uid="3497659" user="NKA">
		<tag k="name" v="Elvebakken" />
		<tag k="place" v="farm" />
		<tag k="ssr:stedsnr" v="773857" />
	</node>
	<node id="9890939901" lat="66.6928712" lon="13.3724443" version="1" timestamp="2022-07-16T04:49:36Z" changeset="123675112" uid="3497659" user="NKA">
		<tag k="alt_name" v="Esvika" />
		<tag k="name" v="Esvik" />
		<tag k="place" v="farm" />
		<tag k="ssr:stedsnr" v="683184" />
	</node>
	<node id="3053508493" lat="66.7012572" lon="13.460638" version="1" timestamp="2014-09-01T12:51:46Z" changeset="25159326" uid="680402" user="dubf" />
	<node id="3053508495" lat="66.7013195" lon="13.4605888" version="1" timestamp="2014-09-01T12:51:46Z" changeset="25159326" uid="680402" user="dubf" />
	<node id="3053508507" lat="66.7015453" lon="13.4607561" version="1" timestamp="2014-09-01T12:51:46Z" changeset="25159326" uid="680402" user="dubf" />
	<node id="3053508558" lat="66.7018388" lon="13.4604658" version="1" timestamp="2014-09-01T12:51:47Z" changeset="25159326" uid="680402" user="dubf" />
	<node id="3053508563" lat="66.7020116" lon="13.4607046" version="1" timestamp="2014-09-01T12:51:47Z" changeset="25159326" uid="680402" user="dubf" />
	<node id="3053508648" lat="66.7042563" lon="13.460859" version="1" timestamp="2014-09-01T12:51:49Z" changeset="25159326" uid="680402" user="dubf" />
	<node id="3053508683" lat="66.7045753" lon="13.4604538" version="1" timestamp="2014-09-01T12:51:49Z" changeset="25159326" uid="680402" user="dubf" />
	<node id="3053508704" lat="66.7048823" lon="13.4606387" version="1" timestamp="2014-09-01T12:51:50Z" changeset="25159326" uid="680402" user="dubf" />
	<node id="3053508728" lat="66.7050892" lon="13.4606938" version="1" timestamp="2014-09-01T12:51:50Z" changeset="25159326" uid="680402" user="dubf" />
	<node id="3053508438" lat="66.700514" lon="13.4626333" version="1" timestamp="2014-09-01T12:51:45Z" changeset="25159326" uid="680402" user="dubf" />
	<node id="3053508440" lat="66.7005517" lon="13.4633652" version="1" timestamp="2014-09-01T12:51:45Z" changeset="25159326" uid="680402" user="dubf" />
	<node id="3053508442" lat="66.7005582" lon="13.4634917" version="1" timestamp="2014-09-01T12:51:45Z" changeset="25159326" uid="680402" user="dubf" />
	<node id="3053508445" lat="66.7005856" lon="13.4636373" version="1" timestamp="2014-09-01T12:51:45Z" changeset="25159326" uid="680402" user="dubf" />
	<node id="3053508447" lat="66.7006291" lon="13.4652322" version="1" timestamp="2014-09-01T12:51:45Z" changeset="25159326" uid="680402" user="dubf" />
	<node id="3053508448" lat="66.700637" lon="13.4654108" version="1" timestamp="2014-09-01T12:51:45Z" changeset="25159326" uid="680402" user="dubf" />
	<node id="3053508449" lat="66.7006504" lon="13.4646643" version="1" timestamp="2014-09-01T12:51:45Z" changeset="25159326" uid="680402" user="dubf" />
	<node id="3053508450" lat="66.7006718" lon="13.4640965" version="1" timestamp="2014-09-01T12:51:45Z" changeset="25159326" uid="680402" user="dubf" />
	<node id="3053508451" lat="66.7006749" lon="13.4662492" version="1" timestamp="2014-09-01T12:51:45Z" changeset="25159326" uid="680402" user="dubf" />
	<node id="3053508460" lat="66.7007121" lon="13.4617825" version="1" timestamp="2014-09-01T12:51:46Z" changeset="25159326" uid="680402" user="dubf" />
	<node id="3053508465" lat="66.7007674" lon="13.466538" version="1" timestamp="2014-09-01T12:51:46Z" changeset="25159326" uid="680402" user="dubf" />
	<node id="3053508474" lat="66.7009399" lon="13.4612244" version="1" timestamp="2014-09-01T12:51:46Z" changeset="25159326" uid="680402" user="dubf" />
	<node id="3053508480" lat="66.7010303" lon="13.4668163" version="1" timestamp="2014-09-01T12:51:46Z" changeset="25159326" uid="680402" user="dubf" />
	<node id="3053508509" lat="66.7015749" lon="13.4665332" version="1" timestamp="2014-09-01T12:51:46Z" changeset="25159326" uid="680402" user="dubf" />
	<node id="3053508511" lat="66.701612" lon="13.4666297" version="1" timestamp="2014-09-01T12:51:46Z" changeset="25159326" uid="680402" user="dubf" />
	<node id="3053508518" lat="66.7016853" lon="13.466821" version="1" timestamp="2014-09-01T12:51:47Z" changeset="25159326" uid="680402" user="dubf" />
	<node id="3053508544" lat="66.7017784" lon="13.4671551" version="1" timestamp="2014-09-01T12:51:47Z" changeset="25159326" uid="680402" user="dubf" />
	<node id="3053508566" lat="66.7021569" lon="13.4673356" version="1" timestamp="2014-09-01T12:51:47Z" changeset="25159326" uid="680402" user="dubf" />
	<node id="3053508577" lat="66.7023794" lon="13.4616106" version="1" timestamp="2014-09-01T12:51:48Z" changeset="25159326" uid="680402" user="dubf" />
	<node id="3053508585" lat="66.7026933" lon="13.4616137" version="1" timestamp="2014-09-01T12:51:48Z" changeset="25159326" uid="680402" user="dubf" />
	<node id="3053508586" lat="66.7027369" lon="13.4615842" version="1" timestamp="2014-09-01T12:51:48Z" changeset="25159326" uid="680402" user="dubf" />
	<node id="3053508587" lat="66.7027477" lon="13.461577" version="1" timestamp="2014-09-01T12:51:48Z" changeset="25159326" uid="680402" user="dubf" />
	<node id="3053508595" lat="66.7031392" lon="13.4613137" version="1" timestamp="2014-09-01T12:51:48Z" changeset="25159326" uid="680402" user="dubf" />
	<node id="3053508580" lat="66.7025599" lon="13.4681718" version="1" timestamp="2014-09-01T12:51:48Z" changeset="25159326" uid="680402" user="dubf" />
	<node id="3053508596" lat="66.7031699" lon="13.4690858" version="1" timestamp="2014-09-01T12:51:48Z" changeset="25159326" uid="680402" user="dubf" />
	<node id="3053508602" lat="66.7035719" lon="13.4698088" version="1" timestamp="2014-09-01T12:51:48Z" changeset="25159326" uid="680402" user="dubf" />
	<node id="3053508624" lat="66.704066" lon="13.4698689" version="1" timestamp="2014-09-01T12:51:48Z" changeset="25159326" uid="680402" user="dubf" />
	<node id="3053508654" lat="66.7043126" lon="13.4694003" version="1" timestamp="2014-09-01T12:51:49Z" changeset="25159326" uid="680402" user="dubf" />
	<node id="3053508673" lat="66.7044517" lon="13.4696047" version="1" timestamp="2014-09-01T12:51:49Z" changeset="25159326" uid="680402" user="dubf" />
	<node id="3053508676" lat="66.704502" lon="13.4696787" version="1" timestamp="2014-09-01T12:51:49Z" changeset="25159326" uid="680402" user="dubf" />
	<node id="3053508690" lat="66.7046677" lon="13.4699223" version="1" timestamp="2014-09-01T12:51:49Z" changeset="25159326" uid="680402" user="dubf" />
	<node id="3053508714" lat="66.7049817" lon="13.4699255" version="1" timestamp="2014-09-01T12:51:50Z" changeset="25159326" uid="680402" user="dubf" />
	<node id="3053508748" lat="66.705399" lon="13.4694429" version="1" timestamp="2014-09-01T12:51:51Z" changeset="25159326" uid="680402" user="dubf" />
	<node id="3053508758" lat="66.7054787" lon="13.4693507" version="1" timestamp="2014-09-01T12:51:51Z" changeset="25159326" uid="680402" user="dubf" />
	<node id="3053508760" lat="66.7055421" lon="13.4694147" version="1" timestamp="2014-09-01T12:51:51Z" changeset="25159326" uid="680402" user="dubf" />
	<node id="3053508783" lat="66.7058122" lon="13.4695113" version="1" timestamp="2014-09-01T12:51:51Z" changeset="25159326" uid="680402" user="dubf" />
	<node id="3057371865" lat="66.7108559" lon="13.4428979" version="1" timestamp="2014-09-03T13:27:44Z" changeset="25204840" uid="680402" user="dubf" />
	<node id="3057371866" lat="66.7108576" lon="13.4429796" version="1" timestamp="2014-09-03T13:27:44Z" changeset="25204840" uid="680402" user="dubf" />
	<node id="3057371868" lat="66.7108649" lon="13.4428706" version="2" timestamp="2018-02-27T10:13:51Z" changeset="56717500" uid="680402" user="dubf" />
	<node id="3057371870" lat="66.7108931" lon="13.4427847" version="1" timestamp="2014-09-03T13:27:44Z" changeset="25204840" uid="680402" user="dubf" />
	<node id="3057371871" lat="66.7108957" lon="13.4431842" version="1" timestamp="2014-09-03T13:27:44Z" changeset="25204840" uid="680402" user="dubf" />
	<node id="3057371875" lat="66.7109203" lon="13.4428004" version="1" timestamp="2014-09-03T13:27:44Z" changeset="25204840" uid="680402" user="dubf" />
	<node id="3057371880" lat="66.7109679" lon="13.4437195" version="1" timestamp="2014-09-03T13:27:44Z" changeset="25204840" uid="680402" user="dubf" />
	<node id="3057371888" lat="66.7109869" lon="13.4441944" version="1" timestamp="2014-09-03T13:27:44Z" changeset="25204840" uid="680402" user="dubf" />
	<node id="3057371891" lat="66.7110316" lon="13.4430861" version="1" timestamp="2014-09-03T13:27:44Z" changeset="25204840" uid="680402" user="dubf" />
	<node id="3057371892" lat="66.7110368" lon="13.4444488" version="1" timestamp="2014-09-03T13:27:44Z" changeset="25204840" uid="680402" user="dubf" />
	<node id="3057371894" lat="66.7110417" lon="13.4444739" version="1" timestamp="2014-09-03T13:27:44Z" changeset="25204840" uid="680402" user="dubf" />
	<node id="3057371895" lat="66.711047" lon="13.4445474" version="1" timestamp="2014-09-03T13:27:44Z" changeset="25204840" uid="680402" user="dubf" />
	<node id="3057371897" lat="66.7110684" lon="13.444649" version="1" timestamp="2014-09-03T13:27:44Z" changeset="25204840" uid="680402" user="dubf" />
	<node id="3057371900" lat="66.7110991" lon="13.4446768" version="1" timestamp="2014-09-03T13:27:44Z" changeset="25204840" uid="680402" user="dubf" />
	<node id="3057371904" lat="66.7111559" lon="13.4446789" version="1" timestamp="2014-09-03T13:27:44Z" changeset="25204840" uid="680402" user="dubf" />
	<node id="3057371905" lat="66.7111606" lon="13.4433607" version="1" timestamp="2014-09-03T13:27:44Z" changeset="25204840" uid="680402" user="dubf" />
	<node id="3057371911" lat="66.711204" lon="13.4434826" version="1" timestamp="2014-09-03T13:27:45Z" changeset="25204840" uid="680402" user="dubf" />
	<node id="3057371913" lat="66.7112163" lon="13.4447154" version="1" timestamp="2014-09-03T13:27:45Z" changeset="25204840" uid="680402" user="dubf" />
	<node id="3057371914" lat="66.7112227" lon="13.4435676" version="1" timestamp="2014-09-03T13:27:45Z" changeset="25204840" uid="680402" user="dubf" />
	<node id="3057371920" lat="66.711253" lon="13.4437051" version="1" timestamp="2014-09-03T13:27:45Z" changeset="25204840" uid="680402" user="dubf" />
	<node id="3057371928" lat="66.7113063" lon="13.4448113" version="1" timestamp="2014-09-03T13:27:45Z" changeset="25204840" uid="680402" user="dubf" />
	<node id="3057371945" lat="66.7114087" lon="13.4440401" version="1" timestamp="2014-09-03T13:27:45Z" changeset="25204840" uid="680402" user="dubf" />
	<node id="3057371946" lat="66.7114198" lon="13.4449937" version="1" timestamp="2014-09-03T13:27:45Z" changeset="25204840" uid="680402" user="dubf" />
	<node id="3057371955" lat="66.711457" lon="13.4442314" version="1" timestamp="2014-09-03T13:27:45Z" changeset="25204840" uid="680402" user="dubf" />
	<node id="3057371958" lat="66.711485" lon="13.4450279" version="1" timestamp="2014-09-03T13:27:45Z" changeset="25204840" uid="680402" user="dubf" />
	<node id="3057371963" lat="66.7115272" lon="13.4444151" version="1" timestamp="2014-09-03T13:27:45Z" changeset="25204840" uid="680402" user="dubf" />
	<node id="3057371968" lat="66.7116046" lon="13.4450156" version="1" timestamp="2014-09-03T13:27:46Z" changeset="25204840" uid="680402" user="dubf" />
	<node id="3057371969" lat="66.7116056" lon="13.4447027" version="1" timestamp="2014-09-03T13:27:46Z" changeset="25204840" uid="680402" user="dubf" />
	<node id="3057371972" lat="66.7116166" lon="13.4449441" version="1" timestamp="2014-09-03T13:27:46Z" changeset="25204840" uid="680402" user="dubf" />
	<node id="3053508787" lat="66.7058533" lon="13.4617568" version="1" timestamp="2014-09-01T12:51:51Z" changeset="25159326" uid="680402" user="dubf" />
	<node id="3053508847" lat="66.7066656" lon="13.4668517" version="1" timestamp="2014-09-01T12:51:53Z" changeset="25159326" uid="680402" user="dubf" />
	<node id="3053508858" lat="66.7068808" lon="13.4640729" version="1" timestamp="2014-09-01T12:51:53Z" changeset="25159326" uid="680402" user="dubf" />
	<node id="3053508861" lat="66.7069123" lon="13.466383" version="1" timestamp="2014-09-01T12:51:53Z" changeset="25159326" uid="680402" user="dubf" />
	<node id="3053508878" lat="66.7071352" lon="13.4662332" version="1" timestamp="2014-09-01T12:51:53Z" changeset="25159326" uid="680402" user="dubf" />
	<node id="3053508896" lat="66.707359" lon="13.4661739" version="1" timestamp="2014-09-01T12:51:54Z" changeset="25159326" uid="680402" user="dubf" />
	<node id="3053508901" lat="66.7074259" lon="13.4647417" version="1" timestamp="2014-09-01T12:51:54Z" changeset="25159326" uid="680402" user="dubf" />
	<node id="3053508906" lat="66.707535" lon="13.465823" version="1" timestamp="2014-09-01T12:51:54Z" changeset="25159326" uid="680402" user="dubf" />
	<node id="3053508907" lat="66.7075369" lon="13.4650975" version="1" timestamp="2014-09-01T12:51:54Z" changeset="25159326" uid="680402" user="dubf" />
	<node id="3053508912" lat="66.707603" lon="13.4654334" version="1" timestamp="2014-09-01T12:51:54Z" changeset="25159326" uid="680402" user="dubf" />
	<node id="3053508920" lat="66.7077128" lon="13.465653" version="1" timestamp="2014-09-01T12:51:54Z" changeset="25159326" uid="680402" user="dubf" />
	<node id="3053508949" lat="66.7081195" lon="13.4659453" version="1" timestamp="2014-09-01T12:51:55Z" changeset="25159326" uid="680402" user="dubf" />
	<node id="3053508950" lat="66.7081594" lon="13.4660652" version="1" timestamp="2014-09-01T12:51:55Z" changeset="25159326" uid="680402" user="dubf" />
	<node id="3053508952" lat="66.7081681" lon="13.4663277" version="1" timestamp="2014-09-01T12:51:55Z" changeset="25159326" uid="680402" user="dubf" />
	<node id="3053508956" lat="66.7082304" lon="13.4662785" version="1" timestamp="2014-09-01T12:51:55Z" changeset="25159326" uid="680402" user="dubf" />
	<node id="3053508807" lat="66.7060326" lon="13.4691123" version="1" timestamp="2014-09-01T12:51:52Z" changeset="25159326" uid="680402" user="dubf" />
	<node id="3053508815" lat="66.7061213" lon="13.4687124" version="1" timestamp="2014-09-01T12:51:52Z" changeset="25159326" uid="680402" user="dubf" />
	<node id="3053508824" lat="66.7063077" lon="13.4678713" version="1" timestamp="2014-09-01T12:51:52Z" changeset="25159326" uid="680402" user="dubf" />
	<way id="301653447" version="2" timestamp="2018-05-02T19:27:24Z" changeset="58624479" uid="3497659" user="NKA">
		<tag k="ele" v="285" />
		<tag k="name" v="Teppskarvatnet" />
		<tag k="natural" v="water" />
		<tag k="source" v="Kartverket" />
		<tag k="ssr:stedsnr" v="590392" />
		<nd ref="3057371914" />
		<nd ref="3057371920" />
		<nd ref="3057371945" />
		<nd ref="3057371955" />
		<nd ref="3057371963" />
		<nd ref="3057371969" />
		<nd ref="3057371972" />
		<nd ref="3057371968" />
		<nd ref="3057371958" />
		<nd ref="3057371946" />
		<nd ref="3057371928" />
		<nd ref="3057371913" />
		<nd ref="3057371904" />
		<nd ref="3057371900" />
		<nd ref="3057371897" />
		<nd ref="3057371895" />
		<nd ref="3057371894" />
		<nd ref="3057371892" />
		<nd ref="3057371888" />
		<nd ref="3057371880" />
		<nd ref="3057371871" />
		<nd ref="3057371866" />
		<nd ref="3057371865" />
		<nd ref="3057371868" />
		<nd ref="3057371870" />
		<nd ref="3057371875" />
		<nd ref="3057371891" />
		<nd ref="3057371905" />
		<nd ref="3057371911" />
		<nd ref="3057371914" />
	</way>
	<way id="301274831" version="1" timestamp="2014-09-01T12:52:33Z" changeset="25159326" uid="680402" user="dubf">
		<tag k="source" v="Kartverket" />
		<nd ref="3053508748" />
		<nd ref="3053508758" />
		<nd ref="3053508760" />
		<nd ref="3053508783" />
		<nd ref="3053508807" />
		<nd ref="3053508815" />
		<nd ref="3053508824" />
		<nd ref="3053508847" />
		<nd ref="3053508861" />
		<nd ref="3053508878" />
		<nd ref="3053508896" />
		<nd ref="3053508906" />
		<nd ref="3053508952" />
		<nd ref="3053508956" />
		<nd ref="3053508950" />
		<nd ref="3053508949" />
		<nd ref="3053508920" />
		<nd ref="3053508912" />
		<nd ref="3053508907" />
		<nd ref="3053508901" />
		<nd ref="3053508858" />
		<nd ref="3053508787" />
		<nd ref="3053508728" />
		<nd ref="3053508704" />
		<nd ref="3053508683" />
		<nd ref="3053508648" />
		<nd ref="3053508595" />
		<nd ref="3053508587" />
		<nd ref="3053508586" />
		<nd ref="3053508585" />
		<nd ref="3053508577" />
		<nd ref="3053508563" />
		<nd ref="3053508558" />
		<nd ref="3053508507" />
		<nd ref="3053508495" />
		<nd ref="3053508493" />
		<nd ref="3053508474" />
		<nd ref="3053508460" />
		<nd ref="3053508438" />
		<nd ref="3053508440" />
		<nd ref="3053508442" />
		<nd ref="3053508445" />
		<nd ref="3053508450" />
		<nd ref="3053508449" />
		<nd ref="3053508447" />
		<nd ref="3053508448" />
	</way>
	<way id="301274750" version="1" timestamp="2014-09-01T12:52:29Z" changeset="25159326" uid="680402" user="dubf">
		<tag k="source" v="Kartverket" />
		<nd ref="3053508465" />
		<nd ref="3053508480" />
		<nd ref="3053508509" />
		<nd ref="3053508511" />
		<nd ref="3053508518" />
		<nd ref="3053508544" />
		<nd ref="3053508566" />
		<nd ref="3053508580" />
		<nd ref="3053508596" />
		<nd ref="3053508602" />
		<nd ref="3053508624" />
		<nd ref="3053508654" />
		<nd ref="3053508673" />
		<nd ref="3053508676" />
	</way>
	<way id="301274806" version="1" timestamp="2014-09-01T12:52:32Z" changeset="25159326" uid="680402" user="dubf">
		<tag k="source" v="Kartverket" />
		<nd ref="3053508448" />
		<nd ref="3053508451" />
		<nd ref="3053508465" />
	</way>
	<way id="301274816" version="1" timestamp="2014-09-01T12:52:33Z" changeset="25159326" uid="680402" user="dubf">
		<tag k="source" v="Kartverket" />
		<nd ref="3053508676" />
		<nd ref="3053508690" />
		<nd ref="3053508714" />
		<nd ref="3053508748" />
	</way>
	<relation id="4005442" version="2" timestamp="2018-05-02T19:30:56Z" changeset="58624479" uid="3497659" user="NKA">
		<tag k="ele" v="23" />
		<tag k="name" v="Ågvatnet" />
		<tag k="natural" v="water" />
		<tag k="ssr:stedsnr" v="77201" />
		<tag k="type" v="multipolygon" />
		<member type="way" ref="301274750" role="outer" />
		<member type="way" ref="301274816" role="outer" />
		<member type="way" ref="301274831" role="outer" />
		<member type="way" ref="301274806" role="outer" />
	</relation>
</osm>
