<?xml version="1.0" encoding="UTF-8"?>
<osm version="0.6" generator="osmapis">
	<node lat="59.576241082038734" lon="6.306219182271545" id="-3396">
		<tag k="alt_name" v="Solandsneset" />
		<tag k="name" v="Solandsneset lykt" />
		<tag k="old_name" v="Sollandsnes" />
		<tag k="ssr:date" v="2017-02-02" />
		<tag k="ssr:gruppe" v="navigasjon" />
		<tag k="ssr:hovedgruppe" v="infrastruktur" />
		<tag k="ssr:stedsnr" v="64871" />
		<tag k="ssr:type" v="fyrlykt" />
	</node>
	<node lat="59.65067499606375" lon="6.353161105500171" id="-3490">
		<tag k="alt_name" v="Sauda" />
		<tag k="name" v="Sauda kommune" />
		<tag k="ssr:date" v="2019-11-14" />
		<tag k="ssr:gruppe" v="administrativeIndelinger" />
		<tag k="ssr:hovedgruppe" v="offentligAdministrasjon" />
		<tag k="ssr:stedsnr" v="145123" />
		<tag k="ssr:type" v="kommune" />
	</node>
	<node lat="59.57156571649096" lon="6.329882034600969" id="-3747">
		<tag k="name" v="Vanvikvegen" />
		<tag k="ssr:date" v="2019-05-30" />
		<tag k="ssr:gruppe" v="veg" />
		<tag k="ssr:hovedgruppe" v="infrastruktur" />
		<tag k="ssr:stedsnr" v="605017" />
		<tag k="ssr:type" v="adressenavn" />
	</node>
	<node lat="59.62678611095606" lon="6.331738892134118" id="-3962">
		<tag k="name" v="Ramsnes lanterne" />
		<tag k="ssr:date" v="2016-05-11" />
		<tag k="ssr:gruppe" v="navigasjon" />
		<tag k="ssr:hovedgruppe" v="infrastruktur" />
		<tag k="ssr:stedsnr" v="891668" />
		<tag k="ssr:type" v="lanterne" />
	</node>
	<node lat="59.64326763442687" lon="6.357407984182919" id="-4171">
		<tag k="name" v="Ekkjegrunnen lanterne" />
		<tag k="ssr:date" v="2016-12-28" />
		<tag k="ssr:gruppe" v="navigasjon" />
		<tag k="ssr:hovedgruppe" v="infrastruktur" />
		<tag k="ssr:stedsnr" v="223686" />
		<tag k="ssr:type" v="lanterne" />
	</node>
	<node lat="59.641725974922636" lon="6.330321093165052" id="-4226">
		<tag k="alt_name" v="Saudnes" />
		<tag k="name" v="Saudnes lykt" />
		<tag k="old_name" v="Saunes" />
		<tag k="ssr:date" v="2020-09-03" />
		<tag k="ssr:gruppe" v="navigasjon" />
		<tag k="ssr:hovedgruppe" v="infrastruktur" />
		<tag k="ssr:stedsnr" v="307767" />
		<tag k="ssr:type" v="fyrlykt" />
	</node>
	<node lat="58.9647333357896" lon="5.731188892301877" id="-4357">
		<tag k="alt_name" v="Rogaland" />
		<tag k="name" v="Rogaland fylke" />
		<tag k="ssr:date" v="2021-02-03" />
		<tag k="ssr:gruppe" v="administrativeIndelinger" />
		<tag k="ssr:hovedgruppe" v="offentligAdministrasjon" />
		<tag k="ssr:stedsnr" v="511115" />
		<tag k="ssr:type" v="fylke" />
	</node>
	<node lat="59.637525000183345" lon="6.312572225124313" id="-4615">
		<tag k="name" v="Saudaskjeret lanterne" />
		<tag k="ssr:date" v="2016-05-11" />
		<tag k="ssr:gruppe" v="navigasjon" />
		<tag k="ssr:hovedgruppe" v="infrastruktur" />
		<tag k="ssr:stedsnr" v="830663" />
		<tag k="ssr:type" v="lanterne" />
	</node>
</osm>
