<?xml version="1.0" encoding="UTF-8"?>
<osm version="0.6" generator="osmapis">
	<node id="9435813881" lat="68.5809637" lon="16.4818042" version="1" timestamp="2022-01-21T07:34:53Z" changeset="116415921" uid="3497659" user="NKA" />
	<node id="9435813882" lat="68.5808697" lon="16.4817774" version="1" timestamp="2022-01-21T07:34:53Z" changeset="116415921" uid="3497659" user="NKA" />
	<node id="9448191267" lat="68.6004905" lon="16.4978036" version="1" timestamp="2022-01-25T18:21:17Z" changeset="116596754" uid="3497659" user="NKA" />
	<node id="9448191268" lat="68.6005688" lon="16.4980102" version="1" timestamp="2022-01-25T18:21:17Z" changeset="116596754" uid="3497659" user="NKA" />
	<node id="243890" lat="68.6292206" lon="16.5674207" version="8" timestamp="2018-07-23T11:45:15Z" changeset="60983687" uid="8470372" user="Entur AS | Angie Torres" />
	<node id="5779125492" lat="68.6292431" lon="16.5672157" version="1" timestamp="2018-07-23T11:39:25Z" changeset="60983484" uid="8470372" user="Entur AS | Angie Torres" />
	<node id="2367294618" lat="68.6291877" lon="16.5677726" version="2" timestamp="2018-07-23T11:47:09Z" changeset="60983687" uid="8470372" user="Entur AS | Angie Torres" />
	<node id="9448191264" lat="68.6282162" lon="16.5792857" version="1" timestamp="2022-01-25T18:21:17Z" changeset="116596754" uid="3497659" user="NKA">
		<tag k="bridge:support" v="pylon" />
	</node>
	<node id="9448191263" lat="68.6276298" lon="16.586234" version="1" timestamp="2022-01-25T18:21:17Z" changeset="116596754" uid="3497659" user="NKA">
		<tag k="bridge:support" v="pylon" />
	</node>
	<node id="243893" lat="68.6273229" lon="16.5898707" version="7" timestamp="2018-07-26T11:37:47Z" changeset="61085867" uid="8470372" user="Entur AS | Angie Torres" />
	<node id="2090517574" lat="68.6272495" lon="16.5907131" version="4" timestamp="2018-07-26T11:38:19Z" changeset="61085867" uid="8470372" user="Entur AS | Angie Torres" />
	<node id="5787026736" lat="68.6272094" lon="16.5910909" version="2" timestamp="2020-09-29T09:19:25Z" changeset="91694515" uid="5198133" user="Wulfmorn" />
	<node id="5787032129" lat="68.6271789" lon="16.5913055" version="1" timestamp="2018-07-26T11:36:09Z" changeset="61085769" uid="8470372" user="Entur AS | Angie Torres" />
	<node id="6190912782" lat="68.9567189" lon="16.6231475" version="1" timestamp="2019-01-07T21:27:09Z" changeset="66109998" uid="3497659" user="NKA" />
	<node id="6190912936" lat="68.956806" lon="16.6248266" version="1" timestamp="2019-01-07T21:27:10Z" changeset="66109998" uid="3497659" user="NKA" />
	<node id="6190912937" lat="68.9566587" lon="16.6219873" version="1" timestamp="2019-01-07T21:27:10Z" changeset="66109998" uid="3497659" user="NKA" />
	<node id="6190912938" lat="68.9565972" lon="16.6208021" version="1" timestamp="2019-01-07T21:27:10Z" changeset="66109998" uid="3497659" user="NKA" />
	<node id="6190912924" lat="68.9566107" lon="16.6330638" version="1" timestamp="2019-01-07T21:27:10Z" changeset="66109998" uid="3497659" user="NKA" />
	<node id="9448191247" lat="68.9561289" lon="16.6382316" version="1" timestamp="2022-01-25T18:21:17Z" changeset="116596754" uid="3497659" user="NKA">
		<tag k="bridge:support" v="pier" />
	</node>
	<node id="9448191248" lat="68.9563867" lon="16.6354661" version="1" timestamp="2022-01-25T18:21:17Z" changeset="116596754" uid="3497659" user="NKA">
		<tag k="bridge:support" v="pier" />
	</node>
	<node id="6190912889" lat="68.9559061" lon="16.6406216" version="1" timestamp="2019-01-07T21:27:09Z" changeset="66109998" uid="3497659" user="NKA" />
	<node id="6190912890" lat="68.9555571" lon="16.6451493" version="1" timestamp="2019-01-07T21:27:09Z" changeset="66109998" uid="3497659" user="NKA" />
	<node id="6190912891" lat="68.9555685" lon="16.6448024" version="1" timestamp="2019-01-07T21:27:09Z" changeset="66109998" uid="3497659" user="NKA" />
	<node id="6190912892" lat="68.9555831" lon="16.644464" version="1" timestamp="2019-01-07T21:27:09Z" changeset="66109998" uid="3497659" user="NKA" />
	<node id="6190912893" lat="68.9556083" lon="16.6440044" version="1" timestamp="2019-01-07T21:27:09Z" changeset="66109998" uid="3497659" user="NKA" />
	<node id="6190912894" lat="68.9556174" lon="16.6438623" version="1" timestamp="2019-01-07T21:27:09Z" changeset="66109998" uid="3497659" user="NKA" />
	<node id="6190912942" lat="68.9555485" lon="16.6455412" version="1" timestamp="2019-01-07T21:27:10Z" changeset="66109998" uid="3497659" user="NKA" />
	<way id="24998908" version="16" timestamp="2022-01-25T18:21:17Z" changeset="116596754" uid="3497659" user="NKA">
		<tag k="bridge" v="yes" />
		<tag k="bridge:structure" v="suspension" />
		<tag k="highway" v="trunk" />
		<tag k="lanes" v="2" />
		<tag k="layer" v="1" />
		<tag k="lit" v="yes" />
		<tag k="maxspeed" v="80" />
		<tag k="name" v="Tjeldsundbrua" />
		<tag k="ref" v="E 10" />
		<tag k="sidewalk" v="none" />
		<tag k="source:maxspeed" v="NO:rural" />
		<tag k="ssr:stedsnr" v="323250" />
		<tag k="surface" v="asphalt" />
		<tag k="width" v="7" />
		<tag k="wikidata" v="Q3314901" />
		<nd ref="5787032129" />
		<nd ref="5787026736" />
		<nd ref="2090517574" />
		<nd ref="243893" />
		<nd ref="9448191263" />
		<nd ref="9448191264" />
		<nd ref="2367294618" />
		<nd ref="243890" />
		<nd ref="5779125492" />
	</way>
	<way id="661279160" version="6" timestamp="2022-01-25T18:21:17Z" changeset="116596754" uid="3497659" user="NKA">
		<tag k="bridge" v="cantilever" />
		<tag k="bridge:structure" v="beam" />
		<tag k="highway" v="secondary" />
		<tag k="layer" v="1" />
		<tag k="name" v="Sandsøysundbrua" />
		<tag k="old_ref" v="125" />
		<tag k="ref" v="7800" />
		<tag k="ssr:stedsnr" v="988028" />
		<nd ref="6190912924" />
		<nd ref="9448191248" />
		<nd ref="9448191247" />
		<nd ref="6190912889" />
	</way>
	<way id="661279163" version="5" timestamp="2022-01-21T07:16:18Z" changeset="116415148" uid="3497659" user="NKA">
		<tag k="bridge" v="yes" />
		<tag k="bridge:structure" v="beam" />
		<tag k="highway" v="secondary" />
		<tag k="layer" v="1" />
		<tag k="name" v="Dynabrua" />
		<tag k="old_ref" v="125" />
		<tag k="ref" v="7800" />
		<tag k="ssr:stedsnr" v="988027" />
		<nd ref="6190912782" />
		<nd ref="6190912936" />
	</way>
	<way id="661279168" version="5" timestamp="2022-01-21T07:16:18Z" changeset="116415148" uid="3497659" user="NKA">
		<tag k="bridge" v="yes" />
		<tag k="bridge:structure" v="beam" />
		<tag k="highway" v="secondary" />
		<tag k="layer" v="1" />
		<tag k="name" v="Hjellnesbrua" />
		<tag k="old_ref" v="125" />
		<tag k="ref" v="7800" />
		<tag k="ssr:stedsnr" v="988029" />
		<nd ref="6190912894" />
		<nd ref="6190912893" />
		<nd ref="6190912892" />
		<nd ref="6190912891" />
		<nd ref="6190912890" />
		<nd ref="6190912942" />
	</way>
	<way id="661279173" version="5" timestamp="2022-01-21T07:16:18Z" changeset="116415148" uid="3497659" user="NKA">
		<tag k="bridge" v="yes" />
		<tag k="bridge:structure" v="beam" />
		<tag k="highway" v="secondary" />
		<tag k="layer" v="1" />
		<tag k="name" v="Tjeldevikbrua" />
		<tag k="old_ref" v="125" />
		<tag k="ref" v="7800" />
		<tag k="ssr:stedsnr" v="988025" />
		<nd ref="6190912938" />
		<nd ref="6190912937" />
	</way>
	<way id="1023147757" version="1" timestamp="2022-01-21T07:34:53Z" changeset="116415921" uid="3497659" user="NKA">
		<tag k="bridge" v="yes" />
		<tag k="highway" v="path" />
		<tag k="layer" v="1" />
		<tag k="name" v="Årbogbrua - Orbogirovvi" />
		<tag k="name:no" v="Årbogbrua" />
		<tag k="name:se" v="Orbogirovvi" />
		<tag k="ssr:stedsnr" v="1073182" />
		<nd ref="9435813882" />
		<nd ref="9435813881" />
	</way>
	<way id="1024634146" version="1" timestamp="2022-01-25T18:21:17Z" changeset="116596754" uid="3497659" user="NKA">
		<tag k="bridge" v="yes" />
		<tag k="highway" v="track" />
		<tag k="layer" v="1" />
		<tag k="name" v="Haukebøbrua - Hohkkabirovvi" />
		<tag k="name:no" v="Haukebøbrua" />
		<tag k="name:se" v="Hohkkabirovvi" />
		<tag k="ssr:stedsnr" v="1073248" />
		<nd ref="9448191268" />
		<nd ref="9448191267" />
	</way>
</osm>
