<?xml version="1.0" encoding="UTF-8"?>
<osm generator="osmapis" version="0.6">
	<node id="-120384" lat="61.5934111088" lon="9.41881389031">
		<tag k="name" v="Tjønnsætervegen" />
		<tag k="ssr:date" v="2017-05-30" />
		<tag k="ssr:gruppe" v="veg" />
		<tag k="ssr:hovedgruppe" v="infrastruktur" />
		<tag k="ssr:stedsnr" v="902529" />
		<tag k="ssr:type" v="vegstrekning" />
	</node>
	<node id="-117759" lat="61.5955805544" lon="9.74827222425">
		<tag k="name" v="Nord-Fron kommune" />
		<tag k="ssr:date" v="2016-05-10" />
		<tag k="ssr:gruppe" v="administrativeIndelinger" />
		<tag k="ssr:hovedgruppe" v="offentligAdministrasjon" />
		<tag k="ssr:stedsnr" v="328015" />
		<tag k="ssr:type" v="kommune" />
	</node>
	<node id="-119707" lat="61.6593750037" lon="9.6740888966">
		<tag k="name" v="Baksidevegen" />
		<tag k="ssr:date" v="2019-05-30" />
		<tag k="ssr:gruppe" v="veg" />
		<tag k="ssr:hovedgruppe" v="infrastruktur" />
		<tag k="ssr:stedsnr" v="665099" />
		<tag k="ssr:type" v="adressenavn" />
	</node>
	<node id="-120666" lat="61.6853581108" lon="9.58263589911">
		<tag k="name" v="Holsætervegen" />
		<tag k="ssr:date" v="2019-05-30" />
		<tag k="ssr:gruppe" v="veg" />
		<tag k="ssr:hovedgruppe" v="infrastruktur" />
		<tag k="ssr:stedsnr" v="979322" />
		<tag k="ssr:type" v="adressenavn" />
	</node>
	<node id="-120665" lat="61.5960825173" lon="9.77878728099">
		<tag k="name" v="Nigard Tokse" />
		<tag k="ssr:date" v="2017-10-10" />
		<tag k="ssr:gruppe" v="veg" />
		<tag k="ssr:hovedgruppe" v="infrastruktur" />
		<tag k="ssr:stedsnr" v="979253" />
		<tag k="ssr:type" v="adressetilleggsnavn" />
	</node>
	<node id="-120664" lat="61.5996884126" lon="9.75629337225">
		<tag k="name" v="Søre Byrlykkja" />
		<tag k="ssr:date" v="2017-10-10" />
		<tag k="ssr:gruppe" v="veg" />
		<tag k="ssr:hovedgruppe" v="infrastruktur" />
		<tag k="ssr:stedsnr" v="979252" />
		<tag k="ssr:type" v="adressetilleggsnavn" />
	</node>
	<node id="-120663" lat="61.6437083664" lon="9.71806476238">
		<tag k="name" v="Dokka" />
		<tag k="ssr:date" v="2017-10-10" />
		<tag k="ssr:gruppe" v="veg" />
		<tag k="ssr:hovedgruppe" v="infrastruktur" />
		<tag k="ssr:stedsnr" v="979251" />
		<tag k="ssr:type" v="adressetilleggsnavn" />
	</node>
	<node id="-120662" lat="61.6649563576" lon="9.73820070744">
		<tag k="name" v="Teige" />
		<tag k="ssr:date" v="2017-10-10" />
		<tag k="ssr:gruppe" v="veg" />
		<tag k="ssr:hovedgruppe" v="infrastruktur" />
		<tag k="ssr:stedsnr" v="979250" />
		<tag k="ssr:type" v="adressetilleggsnavn" />
	</node>
	<node id="-120661" lat="61.5744340639" lon="9.74070838588">
		<tag k="name" v="Hov" />
		<tag k="ssr:date" v="2017-10-10" />
		<tag k="ssr:gruppe" v="veg" />
		<tag k="ssr:hovedgruppe" v="infrastruktur" />
		<tag k="ssr:stedsnr" v="979246" />
		<tag k="ssr:type" v="adressetilleggsnavn" />
	</node>
	<node id="-120660" lat="61.5234463355" lon="9.40279438945">
		<tag k="name" v="Søre Kampesæter" />
		<tag k="ssr:date" v="2017-10-10" />
		<tag k="ssr:gruppe" v="veg" />
		<tag k="ssr:hovedgruppe" v="infrastruktur" />
		<tag k="ssr:stedsnr" v="979245" />
		<tag k="ssr:type" v="adressetilleggsnavn" />
	</node>
	<node id="-120659" lat="61.6746111239" lon="9.68842051427">
		<tag k="name" v="Veikle" />
		<tag k="ssr:date" v="2017-10-10" />
		<tag k="ssr:gruppe" v="veg" />
		<tag k="ssr:hovedgruppe" v="infrastruktur" />
		<tag k="ssr:stedsnr" v="979242" />
		<tag k="ssr:type" v="adressetilleggsnavn" />
	</node>
	<node id="-120657" lat="60.5908609473" lon="9.63819281559">
		<tag k="fixme" v="multiple name tags, choose one and add the other to alt_name" />
		<tag k="name" v="Austlandet;Østlandet" />
		<tag k="ssr:date" v="2018-01-09" />
		<tag k="ssr:gruppe" v="administrativeIndelinger" />
		<tag k="ssr:hovedgruppe" v="offentligAdministrasjon" />
		<tag k="ssr:stedsnr" v="974775" />
		<tag k="ssr:type" v="annenAdministrativInndeling" />
	</node>
	<node id="-118114" lat="61.5967166107" lon="9.72867561675">
		<tag k="name" v="Furulundvegen" />
		<tag k="ssr:date" v="2019-05-30" />
		<tag k="ssr:gruppe" v="veg" />
		<tag k="ssr:hovedgruppe" v="infrastruktur" />
		<tag k="ssr:stedsnr" v="1017478" />
		<tag k="ssr:type" v="adressenavn" />
	</node>
	<node id="-119498" lat="61.7825138858" lon="9.74275555119">
		<tag k="name" v="Luseby" />
		<tag k="ssr:date" v="2019-05-30" />
		<tag k="ssr:gruppe" v="veg" />
		<tag k="ssr:hovedgruppe" v="infrastruktur" />
		<tag k="ssr:stedsnr" v="602134" />
		<tag k="ssr:type" v="adressenavn" />
	</node>
	<node id="-118116" lat="61.7765942002" lon="9.70191480947">
		<tag k="name" v="Elgsvika" />
		<tag k="ssr:date" v="2019-05-30" />
		<tag k="ssr:gruppe" v="veg" />
		<tag k="ssr:hovedgruppe" v="infrastruktur" />
		<tag k="ssr:stedsnr" v="1017485" />
		<tag k="ssr:type" v="adressenavn" />
	</node>
	<node id="-119706" lat="61.7729138923" lon="9.76737222377">
		<tag k="name" v="Frylia" />
		<tag k="ssr:date" v="2019-05-30" />
		<tag k="ssr:gruppe" v="veg" />
		<tag k="ssr:hovedgruppe" v="infrastruktur" />
		<tag k="ssr:stedsnr" v="663141" />
		<tag k="ssr:type" v="adressenavn" />
	</node>
	<node id="-118115" lat="61.7612838001" lon="9.68353424853">
		<tag k="name" v="Kringsetervegen" />
		<tag k="ssr:date" v="2019-05-30" />
		<tag k="ssr:gruppe" v="veg" />
		<tag k="ssr:hovedgruppe" v="infrastruktur" />
		<tag k="ssr:stedsnr" v="1017483" />
		<tag k="ssr:type" v="adressenavn" />
	</node>
</osm>
