<?xml version="1.0" encoding="UTF-8"?>
<osm generator="osmapis" version="0.6">
	<node id="-168893" lat="60.516269448" lon="9.48912777373">
		<tag k="fixme" v="consider boundary=protected_area and relevant protect_class if not nature reserve" />
		<tag k="leisure" v="nature_reserve" />
		<tag k="name" v="Vassfaret og Vidalen landskapsvernområde" />
		<tag k="ssr:stedsnr" v="646668" />
	</node>
	<node id="-169386" lat="60.3736944459" lon="9.20238610852">
		<tag k="fixme" v="consider boundary=protected_area and relevant protect_class if not nature reserve" />
		<tag k="leisure" v="nature_reserve" />
		<tag k="name" v="Flenten naturresevat" />
		<tag k="ssr:stedsnr" v="969412" />
	</node>
	<node id="-168079" lat="60.3264783967" lon="9.55712842378">
		<tag k="fixme" v="consider boundary=protected_area and relevant protect_class if not nature reserve" />
		<tag k="leisure" v="nature_reserve" />
		<tag k="name" v="Hestgjuvnatten naturreservat" />
		<tag k="ssr:stedsnr" v="1072097" />
	</node>
	<node id="-168394" lat="60.4079944432" lon="9.29388610793">
		<tag k="fixme" v="consider boundary=protected_area and relevant protect_class if not nature reserve" />
		<tag k="leisure" v="nature_reserve" />
		<tag k="name" v="Stavnselva naturreservat" />
		<tag k="ssr:stedsnr" v="180401" />
	</node>
	<node id="-168392" lat="60.558274999" lon="9.39606110751">
		<tag k="fixme" v="consider boundary=protected_area and relevant protect_class if not nature reserve" />
		<tag k="leisure" v="nature_reserve" />
		<tag k="name" v="Bringen naturreservat" />
		<tag k="ssr:stedsnr" v="180363" />
	</node>
	<node id="-169350" lat="60.5437583299" lon="9.39854444207">
		<tag k="fixme" v="consider boundary=protected_area and relevant protect_class if not nature reserve" />
		<tag k="leisure" v="nature_reserve" />
		<tag k="name" v="Indre Vassfaret landskapsvernområde" />
		<tag k="ssr:stedsnr" v="950675" />
	</node>
	<node id="-169126" lat="60.518188891" lon="9.583725001">
		<tag k="fixme" v="consider boundary=protected_area and relevant protect_class if not nature reserve" />
		<tag k="leisure" v="nature_reserve" />
		<tag k="name" v="Festningen naturreservat" />
		<tag k="ssr:stedsnr" v="785268" />
	</node>
	<node id="-169218" lat="60.3168083335" lon="9.68521111373">
		<tag k="fixme" v="consider boundary=protected_area and relevant protect_class if not nature reserve" />
		<tag k="leisure" v="nature_reserve" />
		<tag k="name" v="Haverstingen naturreservat" />
		<tag k="ssr:stedsnr" v="846276" />
	</node>
	<node id="-168091" lat="60.3581058151" lon="9.54075418445">
		<tag k="fixme" v="consider boundary=protected_area and relevant protect_class if not nature reserve" />
		<tag k="leisure" v="nature_reserve" />
		<tag k="name" v="Gulsvikelvi naturreservat" />
		<tag k="ssr:stedsnr" v="982682" />
	</node>
</osm>
