<?xml version="1.0" encoding="UTF-8"?>
<osm generator="osmapis" version="0.6">
	<node id="-169501" lat="60.3297915973" lon="9.78976043134">
		<tag k="alt_name" v="Langtj" />
		<tag k="fixme" v="multiple name tags, choose one and add the other to alt_name" />
		<tag k="name" v="Bogetjern;Langtjern" />
		<tag k="natural" v="water" />
		<tag k="ssr:stedsnr" v="969911" />
	</node>
	<node id="-169496" lat="60.3710472189" lon="9.31703333679">
		<tag k="name" v="Granodden" />
		<tag k="natural" v="cape" />
		<tag k="ssr:stedsnr" v="969356" />
	</node>
	<node id="-169487" lat="60.3925333343" lon="9.55948333406">
		<tag k="name" v="Gulsvikøyni" />
		<tag k="natural" v="cape" />
		<tag k="ssr:stedsnr" v="967452" />
	</node>
	<node id="-169480" lat="60.4314916684" lon="9.39722499101">
		<tag k="name" v="Gaptjerngryta" />
		<tag k="natural" v="water" />
		<tag k="ssr:stedsnr" v="967005" />
		<tag k="water" v="lake" />
	</node>
	<node id="-169479" lat="60.4293249978" lon="9.39196666772">
		<tag k="name" v="Hagastryken" />
		<tag k="ssr:stedsnr" v="967003" />
		<tag k="waterway" v="rapids" />
	</node>
	<node id="-169477" lat="60.5367166675" lon="9.59654167289">
		<tag k="name" v="Lortfjord" />
		<tag k="natural" v="bay" />
		<tag k="ssr:stedsnr" v="967250" />
	</node>
	<node id="-169474" lat="60.424236107" lon="9.78109443759">
		<tag k="name" v="Skarbekken" />
		<tag k="ssr:stedsnr" v="967211" />
		<tag k="waterway" v="stream" />
	</node>
	<node id="-169471" lat="60.5197694476" lon="9.41263889413">
		<tag k="name" v="Mattjern" />
		<tag k="natural" v="water" />
		<tag k="ssr:stedsnr" v="952692" />
	</node>
	<node id="-169460" lat="60.3627194402" lon="9.57305833391">
		<tag k="name" v="Valdresbråtebekken" />
		<tag k="ssr:stedsnr" v="950572" />
		<tag k="waterway" v="stream" />
	</node>
	<node id="-169450" lat="60.5306555563" lon="9.59530000341">
		<tag k="name" v="Rauhåkenbekken" />
		<tag k="ssr:stedsnr" v="917866" />
		<tag k="waterway" v="stream" />
	</node>
	<node id="-169446" lat="60.5126783966" lon="9.38277833714">
		<tag k="name" v="Saulivatni" />
		<tag k="natural" v="water" />
		<tag k="ssr:stedsnr" v="917764" />
		<tag k="water" v="lake" />
	</node>
	<node id="-169439" lat="60.4015755342" lon="9.64685695129">
		<tag k="fixme" v="multiple name tags, choose one and add the other to alt_name" />
		<tag k="name" v="Bjørnalitjernet;Bjørnetjern" />
		<tag k="natural" v="water" />
		<tag k="ssr:stedsnr" v="916952" />
	</node>
	<node id="-169430" lat="60.4864000002" lon="9.47685000491">
		<tag k="alt_name" v="Trugadistjern" />
		<tag k="name" v="Trøgadisstjern" />
		<tag k="natural" v="water" />
		<tag k="ssr:stedsnr" v="916370" />
	</node>
	<node id="-169428" lat="60.4824111076" lon="9.30547499591">
		<tag k="name" v="Kjøldalsbekken" />
		<tag k="ssr:stedsnr" v="916359" />
		<tag k="waterway" v="stream" />
	</node>
	<node id="-169420" lat="60.4284277787" lon="9.38548888622">
		<tag k="loc_name" v="Storåne" />
		<tag k="name" v="Hallingdalselve" />
		<tag k="old_name" v="Hallingdalsåni" />
		<tag k="ssr:stedsnr" v="916191" />
		<tag k="waterway" v="river" />
	</node>
	<node id="-169415" lat="60.4413999964" lon="9.25137500294">
		<tag k="name" v="Ryfjelltjern" />
		<tag k="natural" v="water" />
		<tag k="ssr:stedsnr" v="916140" />
	</node>
	<node id="-169413" lat="60.3148250009" lon="9.49452499834">
		<tag k="name" v="Sauvalltjernan" />
		<tag k="natural" v="water" />
		<tag k="ssr:stedsnr" v="916048" />
		<tag k="water" v="lake" />
	</node>
	<node id="-169411" lat="60.3914027813" lon="9.29322777632">
		<tag k="name" v="Kimbebekk" />
		<tag k="ssr:stedsnr" v="909386" />
		<tag k="waterway" v="stream" />
	</node>
	<node id="-169385" lat="60.5072555514" lon="9.41347778199">
		<tag k="name" v="Øyvatn" />
		<tag k="natural" v="water" />
		<tag k="ssr:stedsnr" v="857784" />
	</node>
	<node id="-169381" lat="60.3968777753" lon="9.62290000569">
		<tag k="alt_name" v="Solheimselva" />
		<tag k="name" v="Solheimselvi" />
		<tag k="ssr:stedsnr" v="856966" />
		<tag k="waterway" v="river" />
	</node>
	<node id="-169378" lat="60.3351888913" lon="9.69800000574">
		<tag k="alt_name" v="Kjeltjern" />
		<tag k="name" v="Kjeltjernet" />
		<tag k="natural" v="water" />
		<tag k="ssr:stedsnr" v="856871" />
	</node>
	<node id="-169369" lat="60.3907194484" lon="9.28897777903">
		<tag k="alt_name" v="Haugabekk" />
		<tag k="name" v="Haugabekken" />
		<tag k="ssr:stedsnr" v="856251" />
		<tag k="waterway" v="stream" />
	</node>
	<node id="-169365" lat="60.4229725329" lon="9.57552999326">
		<tag k="name" v="Roligholttjernan" />
		<tag k="natural" v="water" />
		<tag k="ssr:stedsnr" v="856223" />
		<tag k="water" v="lake" />
	</node>
	<node id="-169363" lat="60.4062250043" lon="9.56155000422">
		<tag k="name" v="Storbråtabekken" />
		<tag k="ssr:stedsnr" v="856208" />
		<tag k="waterway" v="stream" />
	</node>
	<node id="-169353" lat="60.3499583334" lon="9.51868888271">
		<tag k="name" v="Kluftebekk" />
		<tag k="ssr:stedsnr" v="856019" />
		<tag k="waterway" v="stream" />
	</node>
	<node id="-169352" lat="60.3377499964" lon="9.48279166568">
		<tag k="alt_name" v="Litjernan" />
		<tag k="name" v="Eitjernan" />
		<tag k="natural" v="water" />
		<tag k="ssr:stedsnr" v="856011" />
	</node>
	<node id="-169350" lat="60.3724777775" lon="9.19420000489">
		<tag k="alt_name" v="Flentetjern" />
		<tag k="name" v="Flentetjernet" />
		<tag k="natural" v="water" />
		<tag k="ssr:stedsnr" v="855348" />
	</node>
	<node id="-169349" lat="60.4604305554" lon="9.46424999408">
		<tag k="name" v="Slåttemyrbekken" />
		<tag k="ssr:stedsnr" v="855345" />
		<tag k="waterway" v="stream" />
	</node>
	<node id="-169348" lat="60.4896305564" lon="9.3229944356">
		<tag k="alt_name" v="Nedre Nysætertjern" />
		<tag k="name" v="Nedre Nysetertjern" />
		<tag k="natural" v="water" />
		<tag k="ssr:stedsnr" v="855311" />
	</node>
	<node id="-169319" lat="60.468291671" lon="9.32967499851">
		<tag k="name" v="Fjøsseterbekken" />
		<tag k="ssr:stedsnr" v="830602" />
		<tag k="waterway" v="stream" />
	</node>
	<node id="-169314" lat="60.4425388868" lon="9.32274722404">
		<tag k="name" v="Steinøyri" />
		<tag k="natural" v="shoal" />
		<tag k="place" v="locality" />
		<tag k="ssr:stedsnr" v="829845" />
	</node>
	<node id="-169313" lat="60.4789611138" lon="9.44852499929">
		<tag k="name" v="Hangsløken" />
		<tag k="ssr:stedsnr" v="829733" />
		<tag k="waterway" v="river" />
	</node>
	<node id="-169312" lat="60.4884666625" lon="9.39249721654">
		<tag k="name" v="Holutjern" />
		<tag k="natural" v="water" />
		<tag k="ssr:stedsnr" v="829729" />
	</node>
	<node id="-169309" lat="60.382416666" lon="9.57795555298">
		<tag k="name" v="Kalvøyni" />
		<tag k="place" v="islet" />
		<tag k="ssr:stedsnr" v="829385" />
	</node>
	<node id="-169300" lat="60.5212833318" lon="9.3564055468">
		<tag k="name" v="Kaggetjern" />
		<tag k="natural" v="water" />
		<tag k="ssr:stedsnr" v="796793" />
	</node>
	<node id="-169299" lat="60.5274499985" lon="9.50195278653">
		<tag k="name" v="Skrukkefylla" />
		<tag k="natural" v="water" />
		<tag k="ssr:stedsnr" v="796784" />
		<tag k="water" v="lake" />
	</node>
	<node id="-169298" lat="60.52718611" lon="9.52979166187">
		<tag k="alt_name" v="Hallingvika" />
		<tag k="name" v="Hallingviki" />
		<tag k="natural" v="bay" />
		<tag k="ssr:stedsnr" v="796779" />
	</node>
	<node id="-169296" lat="60.5398916669" lon="9.4560388922">
		<tag k="name" v="Storøya" />
		<tag k="place" v="islet" />
		<tag k="ssr:stedsnr" v="796771" />
	</node>
	<node id="-169295" lat="60.4382138928" lon="9.59359444467">
		<tag k="alt_name" v="Skarselva" />
		<tag k="name" v="Skardselvi" />
		<tag k="old_name" v="Skarsellva" />
		<tag k="ssr:stedsnr" v="795993" />
		<tag k="waterway" v="river" />
	</node>
	<node id="-169293" lat="60.4870962313" lon="9.61807536665">
		<tag k="name" v="Tolvtjernan" />
		<tag k="natural" v="water" />
		<tag k="ssr:stedsnr" v="795943" />
		<tag k="water" v="lake" />
	</node>
	<node id="-169292" lat="60.3279012438" lon="9.59907593899">
		<tag k="name" v="Svarteputt" />
		<tag k="natural" v="water" />
		<tag k="ssr:stedsnr" v="795870" />
	</node>
	<node id="-169291" lat="60.3360583322" lon="9.623522218">
		<tag k="alt_name" v="Veterskjæret" />
		<tag k="name" v="Veterskjeret" />
		<tag k="place" v="islet" />
		<tag k="ssr:stedsnr" v="795863" />
	</node>
	<node id="-169290" lat="60.5526277747" lon="9.376258325">
		<tag k="name" v="Spunsetjern" />
		<tag k="natural" v="water" />
		<tag k="ssr:stedsnr" v="795858" />
	</node>
	<node id="-169280" lat="60.3798169555" lon="9.42475646998">
		<tag k="loc_name" v="Tritjerne" />
		<tag k="name" v="Trytetjern" />
		<tag k="natural" v="water" />
		<tag k="ssr:stedsnr" v="795268" />
	</node>
	<node id="-169274" lat="60.4195805529" lon="9.43107222154">
		<tag k="name" v="Tvigreinbekken" />
		<tag k="ssr:stedsnr" v="795195" />
		<tag k="waterway" v="stream" />
	</node>
	<node id="-169271" lat="60.3266250036" lon="9.58493334126">
		<tag k="name" v="Løken" />
		<tag k="place" v="locality" />
		<tag k="ssr:stedsnr" v="795090" />
	</node>
	<node id="-169270" lat="60.3263249971" lon="9.58267499579">
		<tag k="name" v="Fisketjern" />
		<tag k="natural" v="water" />
		<tag k="ssr:stedsnr" v="795089" />
	</node>
	<node id="-169269" lat="60.319595481" lon="9.41079371157">
		<tag k="name" v="Jervolltjern" />
		<tag k="natural" v="water" />
		<tag k="ssr:stedsnr" v="795084" />
	</node>
	<node id="-169267" lat="60.3216249974" lon="9.49030277109">
		<tag k="name" v="Sauvallbekken" />
		<tag k="ssr:stedsnr" v="795075" />
		<tag k="waterway" v="stream" />
	</node>
	<node id="-169262" lat="60.3369428525" lon="9.50619660071">
		<tag k="alt_name" v="Fisketjerna" />
		<tag k="name" v="Fisketjernan" />
		<tag k="natural" v="water" />
		<tag k="ssr:stedsnr" v="795013" />
		<tag k="water" v="lake" />
	</node>
	<node id="-169261" lat="60.3390499957" lon="9.45889999797">
		<tag k="name" v="Fyrisjøen" />
		<tag k="natural" v="water" />
		<tag k="ssr:stedsnr" v="795002" />
		<tag k="water" v="lake" />
	</node>
	<node id="-169260" lat="60.4442111093" lon="9.76199999098">
		<tag k="name" v="Fosstjernet" />
		<tag k="natural" v="water" />
		<tag k="ssr:stedsnr" v="794895" />
	</node>
	<node id="-169251" lat="60.3827388898" lon="9.33452500642">
		<tag k="name" v="Lauvhaugtjern" />
		<tag k="natural" v="water" />
		<tag k="ssr:stedsnr" v="787385" />
	</node>
	<node id="-169221" lat="60.5029499966" lon="9.47807499885">
		<tag k="name" v="Herbrandstjern" />
		<tag k="natural" v="water" />
		<tag k="ssr:stedsnr" v="768707" />
	</node>
	<node id="-169220" lat="60.5278361096" lon="9.49128611277">
		<tag k="name" v="Jagarhølen" />
		<tag k="place" v="locality" />
		<tag k="ssr:stedsnr" v="768705" />
	</node>
	<node id="-169219" lat="60.5285638912" lon="9.48362778052">
		<tag k="name" v="Jagerhølen" />
		<tag k="place" v="locality" />
		<tag k="ssr:stedsnr" v="768701" />
	</node>
	<node id="-169217" lat="60.3734444437" lon="9.50540832808">
		<tag k="name" v="Fossen" />
		<tag k="natural" v="waterfall" />
		<tag k="ssr:stedsnr" v="768343" />
	</node>
	<node id="-169213" lat="60.3075333295" lon="9.56714999442">
		<tag k="name" v="Gråkollputten" />
		<tag k="natural" v="water" />
		<tag k="ssr:stedsnr" v="768169" />
	</node>
	<node id="-169212" lat="60.3365666699" lon="9.54041111046">
		<tag k="name" v="Hestejuvbekken" />
		<tag k="ssr:stedsnr" v="768165" />
		<tag k="waterway" v="stream" />
	</node>
	<node id="-169206" lat="60.5461555596" lon="9.39842777375">
		<tag k="name" v="Fetjabekken" />
		<tag k="ssr:stedsnr" v="735875" />
		<tag k="waterway" v="stream" />
	</node>
	<node id="-169202" lat="60.5282722219" lon="9.51590833979">
		<tag k="name" v="Greineløken" />
		<tag k="natural" v="water" />
		<tag k="ssr:stedsnr" v="735764" />
	</node>
	<node id="-169193" lat="60.3415555564" lon="9.7262666709">
		<tag k="name" v="Svarteputt" />
		<tag k="natural" v="water" />
		<tag k="ssr:stedsnr" v="734849" />
	</node>
	<node id="-169191" lat="60.347099997" lon="9.76137778454">
		<tag k="alt_name" v="Vestre Holmetjern" />
		<tag k="name" v="Vestre Holmetjernet" />
		<tag k="natural" v="water" />
		<tag k="ssr:stedsnr" v="734775" />
	</node>
	<node id="-169189" lat="60.4579888914" lon="9.58075277067">
		<tag k="alt_name" v="Grautebekk" />
		<tag k="name" v="Grautebekken" />
		<tag k="ssr:stedsnr" v="734410" />
		<tag k="waterway" v="stream" />
	</node>
	<node id="-169187" lat="60.4631361133" lon="9.39295554769">
		<tag k="name" v="Oksetjern" />
		<tag k="natural" v="water" />
		<tag k="ssr:stedsnr" v="734398" />
	</node>
	<node id="-169185" lat="60.4727027735" lon="9.51131666618">
		<tag k="name" v="Olaseterbekken" />
		<tag k="ssr:stedsnr" v="734392" />
		<tag k="waterway" v="stream" />
	</node>
	<node id="-169180" lat="60.393955904" lon="9.29688506044">
		<tag k="name" v="Nedre Kimbetjern" />
		<tag k="natural" v="water" />
		<tag k="ssr:stedsnr" v="734275" />
	</node>
	<node id="-169179" lat="60.3742444403" lon="9.45854444256">
		<tag k="name" v="Sjølingelve" />
		<tag k="old_name" v="Sjølingelva" />
		<tag k="ssr:stedsnr" v="734266" />
		<tag k="waterway" v="river" />
	</node>
	<node id="-169178" lat="60.3843000022" lon="9.56760000816">
		<tag k="alt_name" v="Gulsviktjern" />
		<tag k="name" v="Gulsviktjernet" />
		<tag k="natural" v="water" />
		<tag k="ssr:stedsnr" v="734255" />
	</node>
	<node id="-169176" lat="60.421949998" lon="9.52687500779">
		<tag k="name" v="Dugurdsnattjern" />
		<tag k="natural" v="water" />
		<tag k="ssr:stedsnr" v="734237" />
	</node>
	<node id="-169166" lat="60.4465750017" lon="9.3945527838">
		<tag k="alt_name" v="Svarttjern" />
		<tag k="name" v="Svartetjern" />
		<tag k="natural" v="water" />
		<tag k="ssr:stedsnr" v="734148" />
	</node>
	<node id="-169161" lat="60.3407500035" lon="9.37849999515">
		<tag k="name" v="Vollebekkvatni" />
		<tag k="natural" v="water" />
		<tag k="ssr:stedsnr" v="734013" />
		<tag k="water" v="lake" />
	</node>
	<node id="-169154" lat="60.3863416629" lon="9.30341388096">
		<tag k="name" v="Steffanfoss" />
		<tag k="natural" v="waterfall" />
		<tag k="ssr:stedsnr" v="727383" />
	</node>
	<node id="-169151" lat="60.3782083347" lon="9.29436111685">
		<tag k="name" v="Liabekk" />
		<tag k="ssr:stedsnr" v="727365" />
		<tag k="waterway" v="stream" />
	</node>
	<node id="-169149" lat="60.3725861137" lon="9.32689445334">
		<tag k="name" v="Pipervika" />
		<tag k="natural" v="bay" />
		<tag k="ssr:stedsnr" v="727353" />
	</node>
	<node id="-169148" lat="60.3681944472" lon="9.34826388135">
		<tag k="name" v="Nordstugubekken" />
		<tag k="ssr:stedsnr" v="727352" />
		<tag k="waterway" v="stream" />
	</node>
	<node id="-169141" lat="60.4447027797" lon="9.43349444395">
		<tag k="name" v="Gåsøyne" />
		<tag k="place" v="islet" />
		<tag k="ssr:stedsnr" v="724989" />
	</node>
	<node id="-169136" lat="60.4059750024" lon="9.77637500245">
		<tag k="name" v="Buvannsodden" />
		<tag k="natural" v="cape" />
		<tag k="ssr:stedsnr" v="724465" />
	</node>
	<node id="-169120" lat="60.4136138892" lon="9.54497499226">
		<tag k="name" v="Brunåi" />
		<tag k="ssr:stedsnr" v="723165" />
		<tag k="waterway" v="stream" />
	</node>
	<node id="-169118" lat="60.5262444465" lon="9.36885278441">
		<tag k="name" v="Smørduppen" />
		<tag k="natural" v="water" />
		<tag k="ssr:stedsnr" v="709701" />
	</node>
	<node id="-169101" lat="60.3759277796" lon="9.59537777999">
		<tag k="name" v="Kårmoviken" />
		<tag k="natural" v="bay" />
		<tag k="ssr:stedsnr" v="707394" />
	</node>
	<node id="-169093" lat="60.5080500012" lon="9.45593332474">
		<tag k="name" v="Damtjern" />
		<tag k="natural" v="water" />
		<tag k="ssr:stedsnr" v="675812" />
	</node>
	<node id="-169092" lat="60.3902422391" lon="9.66604102868">
		<tag k="name" v="Sørbøltjernet" />
		<tag k="natural" v="water" />
		<tag k="ssr:stedsnr" v="674968" />
	</node>
	<node id="-169091" lat="60.3802861112" lon="9.66201388286">
		<tag k="name" v="Stormyrdammen" />
		<tag k="ssr:stedsnr" v="674953" />
		<tag k="waterway" v="dam" />
	</node>
	<node id="-169089" lat="60.3374033313" lon="9.76262244169">
		<tag k="name" v="Klemtjern" />
		<tag k="natural" v="water" />
		<tag k="ssr:stedsnr" v="674848" />
	</node>
	<node id="-169086" lat="60.3780861098" lon="9.69324444096">
		<tag k="alt_name" v="Røvshølbekken" />
		<tag k="name" v="Revsholbekken" />
		<tag k="ssr:stedsnr" v="674789" />
		<tag k="waterway" v="stream" />
	</node>
	<node id="-169084" lat="60.5323777755" lon="9.37724444447">
		<tag k="alt_name" v="Svartetjern" />
		<tag k="name" v="Svarttjern" />
		<tag k="natural" v="water" />
		<tag k="ssr:stedsnr" v="674760" />
	</node>
	<node id="-169083" lat="60.5274750042" lon="9.37662500325">
		<tag k="alt_name" v="Nedre Dagalitjern" />
		<tag k="name" v="Domfettjern" />
		<tag k="natural" v="water" />
		<tag k="ssr:stedsnr" v="674759" />
	</node>
	<node id="-169081" lat="60.4273500039" lon="9.24735000102">
		<tag k="name" v="Ormetjern" />
		<tag k="natural" v="water" />
		<tag k="ssr:stedsnr" v="674181" />
	</node>
	<node id="-169075" lat="60.3417750035" lon="9.34235000265">
		<tag k="name" v="Vollebekken" />
		<tag k="ssr:stedsnr" v="674010" />
		<tag k="waterway" v="stream" />
	</node>
	<node id="-169074" lat="60.3490277758" lon="9.40647500858">
		<tag k="name" v="Nedre Fjelltjern" />
		<tag k="natural" v="water" />
		<tag k="ssr:stedsnr" v="674004" />
	</node>
	<node id="-169070" lat="60.4327166622" lon="9.61868056102">
		<tag k="alt_name" v="Vaktartjern" />
		<tag k="name" v="Vaktartjernet" />
		<tag k="natural" v="water" />
		<tag k="ssr:stedsnr" v="673971" />
	</node>
	<node id="-169066" lat="60.4599138886" lon="9.75134999705">
		<tag k="name" v="Øvre Prestgardstjernet" />
		<tag k="natural" v="water" />
		<tag k="ssr:stedsnr" v="673887" />
	</node>
	<node id="-169065" lat="60.4636500023" lon="9.71075278027">
		<tag k="name" v="Stjerneskardtjern" />
		<tag k="natural" v="water" />
		<tag k="ssr:stedsnr" v="673881" />
	</node>
	<node id="-169061" lat="60.3528638852" lon="9.79752778117">
		<tag k="alt_name" v="Kollepytt" />
		<tag k="name" v="Kolleputten" />
		<tag k="natural" v="water" />
		<tag k="ssr:stedsnr" v="673752" />
	</node>
	<node id="-169046" lat="60.3121277815" lon="9.44697499887">
		<tag k="name" v="Høgvardebekken" />
		<tag k="ssr:stedsnr" v="673067" />
		<tag k="waterway" v="stream" />
	</node>
	<node id="-169039" lat="60.3794555941" lon="9.44378408668">
		<tag k="name" v="Kittelstjerna" />
		<tag k="natural" v="water" />
		<tag k="ssr:stedsnr" v="666356" />
		<tag k="water" v="lake" />
	</node>
	<node id="-169038" lat="60.3707361124" lon="9.35421944414">
		<tag k="name" v="Gryvlebekk" />
		<tag k="ssr:stedsnr" v="666352" />
		<tag k="waterway" v="stream" />
	</node>
	<node id="-169031" lat="60.4196916706" lon="9.78438333839">
		<tag k="name" v="Delesbekken" />
		<tag k="ssr:stedsnr" v="663481" />
		<tag k="waterway" v="stream" />
	</node>
	<node id="-169029" lat="60.5352388861" lon="9.59414445205">
		<tag k="name" v="Prestsandodden" />
		<tag k="natural" v="cape" />
		<tag k="ssr:stedsnr" v="663269" />
	</node>
	<node id="-169020" lat="60.5116620476" lon="9.37226895539">
		<tag k="name" v="Øvre Saulivatn" />
		<tag k="natural" v="water" />
		<tag k="ssr:stedsnr" v="648705" />
		<tag k="water" v="lake" />
	</node>
	<node id="-169015" lat="60.4796249989" lon="9.31711111441">
		<tag k="name" v="Seterlitjern" />
		<tag k="natural" v="water" />
		<tag k="ssr:stedsnr" v="648510" />
	</node>
	<node id="-169010" lat="60.4499333315" lon="9.28077777272">
		<tag k="name" v="Saltøyre" />
		<tag k="place" v="islet" />
		<tag k="ssr:stedsnr" v="646824" />
	</node>
	<node id="-168993" lat="60.3991027821" lon="9.68047500808">
		<tag k="name" v="Svartlitjernan" />
		<tag k="natural" v="water" />
		<tag k="ssr:stedsnr" v="613938" />
		<tag k="water" v="lake" />
	</node>
	<node id="-168992" lat="60.3320777769" lon="9.7022388973">
		<tag k="alt_name" v="Ingridtjern" />
		<tag k="name" v="Ingridtjernet" />
		<tag k="natural" v="water" />
		<tag k="ssr:stedsnr" v="613857" />
	</node>
	<node id="-168976" lat="60.3530999971" lon="9.42997499961">
		<tag k="name" v="Jakobslitjern" />
		<tag k="natural" v="water" />
		<tag k="ssr:stedsnr" v="613008" />
	</node>
	<node id="-168975" lat="60.3493749976" lon="9.44269999372">
		<tag k="name" v="Bjørnetjern" />
		<tag k="natural" v="water" />
		<tag k="ssr:stedsnr" v="613002" />
	</node>
	<node id="-168969" lat="60.4595000005" lon="9.62733611933">
		<tag k="name" v="Kalvetjernan" />
		<tag k="natural" v="water" />
		<tag k="ssr:stedsnr" v="612876" />
	</node>
	<node id="-168967" lat="60.3643527768" lon="9.73302777788">
		<tag k="alt_name" v="Langtjern" />
		<tag k="name" v="Langtjernet" />
		<tag k="natural" v="water" />
		<tag k="ssr:stedsnr" v="612805" />
	</node>
	<node id="-168966" lat="60.3661916644" lon="9.69331110439">
		<tag k="alt_name" v="Røvsholtjern" />
		<tag k="name" v="Revsholtjernet" />
		<tag k="natural" v="water" />
		<tag k="ssr:stedsnr" v="612802" />
	</node>
	<node id="-168965" lat="60.4680194436" lon="9.56125277432">
		<tag k="alt_name" v="Skarselva" />
		<tag k="name" v="Skardselvi" />
		<tag k="ssr:stedsnr" v="612392" />
		<tag k="waterway" v="stream" />
	</node>
	<node id="-168964" lat="60.4677236431" lon="9.4454755444">
		<tag k="alt_name" v="Brøskapstjern" />
		<tag k="name" v="Brødskåpstjern" />
		<tag k="natural" v="water" />
		<tag k="ssr:stedsnr" v="612387" />
	</node>
	<node id="-168961" lat="60.4855499999" lon="9.44174999831">
		<tag k="alt_name" v="Hangsbekk" />
		<tag k="name" v="Hangsbekken" />
		<tag k="ssr:stedsnr" v="612366" />
		<tag k="waterway" v="stream" />
	</node>
	<node id="-168955" lat="60.4032249982" lon="9.45072777757">
		<tag k="name" v="Nordtjern" />
		<tag k="natural" v="water" />
		<tag k="ssr:stedsnr" v="612211" />
	</node>
	<node id="-168948" lat="60.3706750025" lon="9.32245277896">
		<tag k="name" v="Såte" />
		<tag k="place" v="islet" />
		<tag k="ssr:stedsnr" v="605369" />
	</node>
	<node id="-168938" lat="60.4642055523" lon="9.57168055925">
		<tag k="name" v="Fjellbekken" />
		<tag k="ssr:stedsnr" v="603256" />
		<tag k="waterway" v="stream" />
	</node>
	<node id="-168927" lat="60.5392333333" lon="9.34652777992">
		<tag k="name" v="Lakrisputtan" />
		<tag k="natural" v="water" />
		<tag k="ssr:stedsnr" v="588714" />
		<tag k="water" v="lake" />
	</node>
	<node id="-168914" lat="60.368005555" lon="9.61227499631">
		<tag k="name" v="Smedodden" />
		<tag k="natural" v="cape" />
		<tag k="ssr:stedsnr" v="586389" />
	</node>
	<node id="-168908" lat="60.4237638853" lon="9.48337777208">
		<tag k="name" v="Vesevja" />
		<tag k="natural" v="bay" />
		<tag k="ssr:stedsnr" v="586229" />
	</node>
	<node id="-168898" lat="60.3652805548" lon="9.65082222728">
		<tag k="name" v="Megårdsbekken" />
		<tag k="ssr:stedsnr" v="585535" />
		<tag k="waterway" v="stream" />
	</node>
	<node id="-168892" lat="60.3974944429" lon="9.46785555117">
		<tag k="name" v="Ølbekk" />
		<tag k="ssr:stedsnr" v="581185" />
		<tag k="waterway" v="stream" />
	</node>
	<node id="-168889" lat="60.3851888875" lon="9.64515278102">
		<tag k="alt_name" v="Lielva" />
		<tag k="name" v="Lielvi" />
		<tag k="ssr:stedsnr" v="552977" />
		<tag k="waterway" v="river" />
	</node>
	<node id="-168888" lat="60.4509527749" lon="9.75615555209">
		<tag k="name" v="Nedre Prestgardstjernet" />
		<tag k="natural" v="water" />
		<tag k="ssr:stedsnr" v="552918" />
	</node>
	<node id="-168887" lat="60.3431055564" lon="9.6788222162">
		<tag k="name" v="Kvernbekken" />
		<tag k="ssr:stedsnr" v="552880" />
		<tag k="waterway" v="stream" />
	</node>
	<node id="-168884" lat="60.3489298189" lon="9.74492876461">
		<tag k="alt_name" v="Røytjerna" />
		<tag k="name" v="Røytjernan" />
		<tag k="natural" v="water" />
		<tag k="ssr:stedsnr" v="552800" />
		<tag k="water" v="lake" />
	</node>
	<node id="-168879" lat="60.3934638861" lon="9.52731110873">
		<tag k="name" v="Gulsvikstryken" />
		<tag k="ssr:stedsnr" v="552258" />
		<tag k="waterway" v="rapids" />
	</node>
	<node id="-168874" lat="60.3708805521" lon="9.24635555474">
		<tag k="name" v="Fellebekk" />
		<tag k="ssr:stedsnr" v="552240" />
		<tag k="waterway" v="stream" />
	</node>
	<node id="-168871" lat="60.4056333344" lon="9.25894166253">
		<tag k="alt_name" v="Sindrebekk" />
		<tag k="name" v="Sindrebekken" />
		<tag k="ssr:stedsnr" v="552220" />
		<tag k="waterway" v="stream" />
	</node>
	<node id="-168868" lat="60.4221749984" lon="9.23574999797">
		<tag k="alt_name" v="Millomnattetjern" />
		<tag k="name" v="Mellomnattetjern" />
		<tag k="natural" v="water" />
		<tag k="ssr:stedsnr" v="552175" />
	</node>
	<node id="-168866" lat="60.3692305569" lon="9.583308325">
		<tag k="alt_name" v="Gulsvikelva" />
		<tag k="name" v="Gulsvikelvi" />
		<tag k="ssr:stedsnr" v="552050" />
		<tag k="waterway" v="river" />
	</node>
	<node id="-168864" lat="60.3589000017" lon="9.44957499568">
		<tag k="name" v="Ormetjern" />
		<tag k="natural" v="water" />
		<tag k="ssr:stedsnr" v="552041" />
	</node>
	<node id="-168862" lat="60.3451999996" lon="9.42795277507">
		<tag k="name" v="Fjellelvi" />
		<tag k="ssr:stedsnr" v="552001" />
		<tag k="waterway" v="stream" />
	</node>
	<node id="-168852" lat="60.4037250013" lon="9.3671388945">
		<tag k="name" v="Slåttemyrtjern" />
		<tag k="natural" v="water" />
		<tag k="ssr:stedsnr" v="544395" />
	</node>
	<node id="-168851" lat="60.3963249983" lon="9.31562778266">
		<tag k="name" v="Brattefoss" />
		<tag k="natural" v="waterfall" />
		<tag k="ssr:stedsnr" v="544392" />
	</node>
	<node id="-168812" lat="60.4869805545" lon="9.50164166064">
		<tag k="name" v="Uksehølun" />
		<tag k="natural" v="water" />
		<tag k="ssr:stedsnr" v="525724" />
	</node>
	<node id="-168804" lat="60.3632694469" lon="9.69539443784">
		<tag k="name" v="Granbuløken" />
		<tag k="ssr:stedsnr" v="525576" />
		<tag k="waterway" v="stream" />
	</node>
	<node id="-168803" lat="60.3672638922" lon="9.49967500694">
		<tag k="name" v="Flettetjern" />
		<tag k="natural" v="water" />
		<tag k="ssr:stedsnr" v="525572" />
	</node>
	<node id="-168795" lat="60.3174749989" lon="9.59412500668">
		<tag k="alt_name" v="Hallingtjern" />
		<tag k="name" v="Hallingtjernet" />
		<tag k="natural" v="water" />
		<tag k="ssr:stedsnr" v="492872" />
	</node>
	<node id="-168789" lat="60.5149638867" lon="9.55508333674">
		<tag k="name" v="Busandbekken" />
		<tag k="ssr:stedsnr" v="492768" />
		<tag k="waterway" v="stream" />
	</node>
	<node id="-168786" lat="60.4123722199" lon="9.42231667522">
		<tag k="name" v="Trøstheimbekken" />
		<tag k="ssr:stedsnr" v="492132" />
		<tag k="waterway" v="stream" />
	</node>
	<node id="-168780" lat="60.4236555589" lon="9.76569167511">
		<tag k="alt_name" v="Fjellelva" />
		<tag k="name" v="Fjellelvi" />
		<tag k="ssr:stedsnr" v="491969" />
		<tag k="waterway" v="river" />
	</node>
	<node id="-168778" lat="60.4497500026" lon="9.67317500117">
		<tag k="loc_name" v="Fetjaløken" />
		<tag k="name" v="Fekjaløken" />
		<tag k="place" v="locality" />
		<tag k="ssr:stedsnr" v="491908" />
	</node>
	<node id="-168776" lat="60.4159638914" lon="9.41083333336">
		<tag k="name" v="Vesleåi" />
		<tag k="ssr:stedsnr" v="491602" />
		<tag k="waterway" v="stream" />
	</node>
	<node id="-168769" lat="60.4708750042" lon="9.38708333945">
		<tag k="alt_name" v="Stormyrtjern" />
		<tag k="name" v="Stormyrtjernet" />
		<tag k="natural" v="water" />
		<tag k="ssr:stedsnr" v="491375" />
	</node>
	<node id="-168767" lat="60.4874555591" lon="9.35660000204">
		<tag k="name" v="Mosebekk" />
		<tag k="ssr:stedsnr" v="491338" />
		<tag k="waterway" v="stream" />
	</node>
	<node id="-168766" lat="60.4946250029" lon="9.36897499888">
		<tag k="name" v="Hellebekktjern" />
		<tag k="natural" v="water" />
		<tag k="ssr:stedsnr" v="491336" />
	</node>
	<node id="-168764" lat="60.4579638861" lon="9.4994444508">
		<tag k="alt_name" v="Øvre Vesleåntjern" />
		<tag k="name" v="Øvre Vesleåtjern" />
		<tag k="natural" v="water" />
		<tag k="ssr:stedsnr" v="491163" />
	</node>
	<node id="-168761" lat="60.4761388847" lon="9.50956944448">
		<tag k="alt_name" v="Vesleåni" />
		<tag k="name" v="Vesleåi" />
		<tag k="ssr:stedsnr" v="491143" />
		<tag k="waterway" v="stream" />
	</node>
	<node id="-168759" lat="60.3327996528" lon="9.58183453486">
		<tag k="alt_name" v="Svartetjern" />
		<tag k="name" v="Svarttjern" />
		<tag k="natural" v="water" />
		<tag k="ssr:stedsnr" v="491056" />
	</node>
	<node id="-168754" lat="60.3940388861" lon="9.33658055068">
		<tag k="name" v="Brennåstjernet" />
		<tag k="natural" v="water" />
		<tag k="ssr:stedsnr" v="484353" />
	</node>
	<node id="-168753" lat="60.409008334" lon="9.28151388932">
		<tag k="name" v="Brennebekk" />
		<tag k="ssr:stedsnr" v="484351" />
		<tag k="waterway" v="stream" />
	</node>
	<node id="-168750" lat="60.3713638866" lon="9.36204166165">
		<tag k="name" v="Rolighølbekken" />
		<tag k="ssr:stedsnr" v="484322" />
		<tag k="waterway" v="stream" />
	</node>
	<node id="-168748" lat="60.3911055556" lon="9.41186388555">
		<tag k="name" v="Trytetjernbekken" />
		<tag k="ssr:stedsnr" v="484120" />
		<tag k="waterway" v="stream" />
	</node>
	<node id="-168747" lat="60.3230916708" lon="9.56569999494">
		<tag k="name" v="Fjelltjern" />
		<tag k="natural" v="water" />
		<tag k="ssr:stedsnr" v="484063" />
	</node>
	<node id="-168743" lat="60.4119777774" lon="9.76449722271">
		<tag k="name" v="Trytebergvika" />
		<tag k="natural" v="bay" />
		<tag k="ssr:stedsnr" v="481526" />
	</node>
	<node id="-168742" lat="60.4049277742" lon="9.76946945025">
		<tag k="name" v="Langodden" />
		<tag k="natural" v="cape" />
		<tag k="ssr:stedsnr" v="481510" />
	</node>
	<node id="-168741" lat="60.3924638846" lon="9.71643056026">
		<tag k="name" v="Fellebekktjern" />
		<tag k="natural" v="water" />
		<tag k="ssr:stedsnr" v="481507" />
	</node>
	<node id="-168732" lat="60.5010777753" lon="9.34189722763">
		<tag k="name" v="Langeleinbekken" />
		<tag k="ssr:stedsnr" v="466742" />
		<tag k="waterway" v="stream" />
	</node>
	<node id="-168731" lat="60.498805558" lon="9.40320000773">
		<tag k="name" v="Raubekk" />
		<tag k="ssr:stedsnr" v="466740" />
		<tag k="waterway" v="stream" />
	</node>
	<node id="-168717" lat="60.3222694485" lon="9.58971111906">
		<tag k="name" v="Storrløken" />
		<tag k="natural" v="water" />
		<tag k="ssr:stedsnr" v="464184" />
	</node>
	<node id="-168709" lat="60.5132777766" lon="9.33733889092">
		<tag k="name" v="Drittjern" />
		<tag k="natural" v="water" />
		<tag k="ssr:stedsnr" v="432774" />
	</node>
	<node id="-168707" lat="60.5290055566" lon="9.53626945268">
		<tag k="name" v="Djupodden" />
		<tag k="natural" v="cape" />
		<tag k="ssr:stedsnr" v="432752" />
	</node>
	<node id="-168706" lat="60.5378648867" lon="9.46308670344">
		<tag k="name" v="Nevlingen" />
		<tag k="natural" v="water" />
		<tag k="ssr:stedsnr" v="432736" />
		<tag k="water" v="lake" />
	</node>
	<node id="-168700" lat="60.3292833376" lon="9.65283333586">
		<tag k="loc_name" v="Nobbe" />
		<tag k="name" v="Nøbbe" />
		<tag k="natural" v="cape" />
		<tag k="ssr:stedsnr" v="431885" />
	</node>
	<node id="-168699" lat="60.3377500031" lon="9.72281389589">
		<tag k="alt_name" v="Øvre Svarttjern" />
		<tag k="name" v="Øvre Svarttjernet" />
		<tag k="natural" v="water" />
		<tag k="ssr:stedsnr" v="431881" />
	</node>
	<node id="-168697" lat="60.3760249977" lon="9.64907499211">
		<tag k="alt_name" v="Tromaldelvi;Trommaldelva" />
		<tag k="name" v="Trommaldelvi" />
		<tag k="ssr:stedsnr" v="431813" />
		<tag k="waterway" v="river" />
	</node>
	<node id="-168695" lat="60.3592138849" lon="9.61882778581">
		<tag k="alt_name" v="Sauøyre" />
		<tag k="name" v="Sauøyri" />
		<tag k="place" v="islet" />
		<tag k="ssr:stedsnr" v="431773" />
	</node>
	<node id="-168692" lat="60.3914111111" lon="9.28069166079">
		<tag k="alt_name" v="Venelibekk" />
		<tag k="name" v="Venelibekken" />
		<tag k="ssr:stedsnr" v="431266" />
		<tag k="waterway" v="stream" />
	</node>
	<node id="-168691" lat="60.3740027805" lon="9.48757499955">
		<tag k="alt_name" v="Lisætertjern" />
		<tag k="name" v="Lisetertjern" />
		<tag k="natural" v="water" />
		<tag k="ssr:stedsnr" v="431252" />
	</node>
	<node id="-168689" lat="60.4107750025" lon="9.38150276901">
		<tag k="alt_name" v="Gyltebekk" />
		<tag k="name" v="Gyltebekken" />
		<tag k="ssr:stedsnr" v="431233" />
		<tag k="waterway" v="stream" />
	</node>
	<node id="-168680" lat="60.4348055593" lon="9.5420611098">
		<tag k="name" v="Suserudbekken" />
		<tag k="ssr:stedsnr" v="431193" />
		<tag k="waterway" v="stream" />
	</node>
	<node id="-168676" lat="60.4512638927" lon="9.59470277814">
		<tag k="alt_name" v="Svangtjern" />
		<tag k="name" v="Svangtjernet" />
		<tag k="natural" v="water" />
		<tag k="ssr:stedsnr" v="431151" />
	</node>
	<node id="-168675" lat="60.4404999963" lon="9.31725277938">
		<tag k="alt_name" v="Bottentjern" />
		<tag k="name" v="Botntjern" />
		<tag k="natural" v="water" />
		<tag k="ssr:stedsnr" v="431148" />
	</node>
	<node id="-168669" lat="60.342674998" lon="9.58364999355">
		<tag k="alt_name" v="Buøenelva;Buøynelva" />
		<tag k="name" v="Buøynelvi" />
		<tag k="ssr:stedsnr" v="431017" />
		<tag k="waterway" v="stream" />
	</node>
	<node id="-168668" lat="60.3534777809" lon="9.28712500161">
		<tag k="name" v="Bekkelibekken" />
		<tag k="ssr:stedsnr" v="431007" />
		<tag k="waterway" v="stream" />
	</node>
	<node id="-168667" lat="60.3452333323" lon="9.39303888811">
		<tag k="name" v="Øvre Fjelltjern" />
		<tag k="natural" v="water" />
		<tag k="ssr:stedsnr" v="431003" />
	</node>
	<node id="-168665" lat="60.4354805518" lon="9.63529166852">
		<tag k="alt_name" v="Lauvhaugelva" />
		<tag k="name" v="Lauvhaugelvi" />
		<tag k="ssr:stedsnr" v="430977" />
		<tag k="waterway" v="stream" />
	</node>
	<node id="-168664" lat="60.43150794" lon="9.6448170161">
		<tag k="alt_name" v="Moltetjern" />
		<tag k="name" v="Moltetjernet" />
		<tag k="natural" v="water" />
		<tag k="ssr:stedsnr" v="430976" />
	</node>
	<node id="-168661" lat="60.4659500012" lon="9.48042499509">
		<tag k="name" v="Slåttemyrtjern" />
		<tag k="natural" v="water" />
		<tag k="ssr:stedsnr" v="430356" />
	</node>
	<node id="-168660" lat="60.4690361148" lon="9.32644722111">
		<tag k="name" v="Jordesbekken" />
		<tag k="ssr:stedsnr" v="430353" />
		<tag k="waterway" v="stream" />
	</node>
	<node id="-168659" lat="60.4760250022" lon="9.35652778518">
		<tag k="name" v="Huldratjernan" />
		<tag k="natural" v="water" />
		<tag k="old_name" v="Hudratj(ørn)ene;Hudratjerna" />
		<tag k="ssr:stedsnr" v="430346" />
		<tag k="water" v="lake" />
	</node>
	<node id="-168655" lat="60.4089027755" lon="9.31578611235">
		<tag k="alt_name" v="Bjørnehaugbekken" />
		<tag k="name" v="Bjørnehaugsbekken" />
		<tag k="ssr:stedsnr" v="423431" />
		<tag k="waterway" v="stream" />
	</node>
	<node id="-168642" lat="60.4154166622" lon="9.74573056358">
		<tag k="name" v="Skruibekken" />
		<tag k="ssr:stedsnr" v="421490" />
		<tag k="waterway" v="stream" />
	</node>
	<node id="-168627" lat="60.5187111117" lon="9.53201666205">
		<tag k="name" v="Gjermundbekken" />
		<tag k="ssr:stedsnr" v="250768" />
		<tag k="waterway" v="stream" />
	</node>
	<node id="-168626" lat="60.3877503615" lon="9.70203048568">
		<tag k="name" v="Gørrtjernan" />
		<tag k="natural" v="water" />
		<tag k="ssr:stedsnr" v="249960" />
		<tag k="water" v="lake" />
	</node>
	<node id="-168624" lat="60.3997410991" lon="9.71961298906">
		<tag k="name" v="Langvatnet" />
		<tag k="natural" v="water" />
		<tag k="ssr:stedsnr" v="249946" />
		<tag k="water" v="lake" />
	</node>
	<node id="-168623" lat="60.3374111124" lon="9.64479722939">
		<tag k="name" v="Ståloddeberget" />
		<tag k="natural" v="cape" />
		<tag k="ssr:stedsnr" v="249859" />
	</node>
	<node id="-168621" lat="60.3719249298" lon="9.69140427189">
		<tag k="alt_name" v="Fagertjern" />
		<tag k="name" v="Fagersitjernet" />
		<tag k="natural" v="water" />
		<tag k="ssr:stedsnr" v="249777" />
	</node>
	<node id="-168619" lat="60.4873990606" lon="9.51450312754">
		<tag k="fixme" v="multiple name tags, choose one and add the other to alt_name" />
		<tag k="name" v="Kvilartjern;Øvre Kvilartjern" />
		<tag k="natural" v="water" />
		<tag k="ssr:stedsnr" v="249327" />
	</node>
	<node id="-168616" lat="60.3824749975" lon="9.29669999105">
		<tag k="name" v="Kimbetjern" />
		<tag k="natural" v="water" />
		<tag k="ssr:stedsnr" v="249209" />
	</node>
	<node id="-168600" lat="60.4735250043" lon="9.39570000324">
		<tag k="name" v="Kvitjern" />
		<tag k="natural" v="water" />
		<tag k="ssr:stedsnr" v="248328" />
	</node>
	<node id="-168597" lat="60.492074998" lon="9.32202500184">
		<tag k="alt_name" v="Nysetertjern" />
		<tag k="name" v="Øvre Nysetertjern" />
		<tag k="natural" v="water" />
		<tag k="ssr:stedsnr" v="248298" />
	</node>
	<node id="-168596" lat="60.4166777791" lon="9.26335278243">
		<tag k="alt_name" v="Brennebekk" />
		<tag k="name" v="Brennebekken" />
		<tag k="ssr:stedsnr" v="248215" />
		<tag k="waterway" v="stream" />
	</node>
	<node id="-168586" lat="60.4481722253" lon="9.39782777106">
		<tag k="name" v="Høgfossen" />
		<tag k="natural" v="waterfall" />
		<tag k="ssr:stedsnr" v="239789" />
	</node>
	<node id="-168583" lat="60.4040222192" lon="9.77863333036">
		<tag k="name" v="Buvannsdammen" />
		<tag k="ssr:stedsnr" v="239476" />
		<tag k="waterway" v="dam" />
	</node>
	<node id="-168572" lat="60.4293638867" lon="9.40322777169">
		<tag k="name" v="Velteøyne" />
		<tag k="place" v="islet" />
		<tag k="ssr:stedsnr" v="239008" />
	</node>
	<node id="-168566" lat="60.460205559" lon="9.45373889137">
		<tag k="name" v="Vøttehølen" />
		<tag k="place" v="locality" />
		<tag k="ssr:stedsnr" v="223611" />
	</node>
	<node id="-168553" lat="60.5530833321" lon="9.35185278002">
		<tag k="name" v="Jutulfottjern" />
		<tag k="natural" v="water" />
		<tag k="ssr:stedsnr" v="222677" />
	</node>
	<node id="-168550" lat="60.3717611141" lon="9.49947222987">
		<tag k="name" v="Fjellelva" />
		<tag k="ssr:stedsnr" v="222520" />
		<tag k="waterway" v="stream" />
	</node>
	<node id="-168539" lat="60.3314111134" lon="9.78088610658">
		<tag k="name" v="Feletjern" />
		<tag k="natural" v="water" />
		<tag k="ssr:stedsnr" v="188890" />
	</node>
	<node id="-168538" lat="60.3250140824" lon="9.72859284416">
		<tag k="alt_name" v="Svarttjern" />
		<tag k="name" v="Svarttjernet" />
		<tag k="natural" v="water" />
		<tag k="ssr:stedsnr" v="188875" />
	</node>
	<node id="-168537" lat="60.3240888861" lon="9.63098888554">
		<tag k="name" v="Storviksanden" />
		<tag k="natural" v="beach" />
		<tag k="ssr:stedsnr" v="188842" />
	</node>
	<node id="-168536" lat="60.367025004" lon="9.7626416658">
		<tag k="alt_name" v="Lauvskartjern" />
		<tag k="name" v="Lauvskardtjernet" />
		<tag k="natural" v="water" />
		<tag k="ssr:stedsnr" v="188835" />
	</node>
	<node id="-168534" lat="60.3852027735" lon="9.80836945185">
		<tag k="alt_name" v="Frisvannet" />
		<tag k="name" v="Frisvatnet" />
		<tag k="natural" v="water" />
		<tag k="ssr:stedsnr" v="188812" />
		<tag k="water" v="lake" />
	</node>
	<node id="-168533" lat="60.4467944408" lon="9.39933611944">
		<tag k="alt_name" v="Raubekk" />
		<tag k="name" v="Raudbekken" />
		<tag k="ssr:stedsnr" v="188627" />
		<tag k="waterway" v="stream" />
	</node>
	<node id="-168531" lat="60.4849777806" lon="9.52187500458">
		<tag k="fixme" v="multiple name tags, choose one and add the other to alt_name" />
		<tag k="name" v="Nedre Kvilartjern;Olastjern" />
		<tag k="natural" v="water" />
		<tag k="ssr:stedsnr" v="188378" />
	</node>
	<node id="-168530" lat="60.4841249976" lon="9.5346388893">
		<tag k="alt_name" v="Svartetjern" />
		<tag k="name" v="Svarttjern" />
		<tag k="natural" v="water" />
		<tag k="ssr:stedsnr" v="188376" />
	</node>
	<node id="-168529" lat="60.4822750042" lon="9.5027499914">
		<tag k="name" v="Gøffeputten" />
		<tag k="natural" v="water" />
		<tag k="ssr:stedsnr" v="188375" />
	</node>
	<node id="-168527" lat="60.4813834463" lon="9.33167502627">
		<tag k="name" v="Svaretjern" />
		<tag k="natural" v="water" />
		<tag k="ssr:stedsnr" v="188365" />
	</node>
	<node id="-168524" lat="60.4911500023" lon="9.33237500629">
		<tag k="name" v="Djupetjern" />
		<tag k="natural" v="water" />
		<tag k="ssr:stedsnr" v="188343" />
	</node>
	<node id="-168523" lat="60.3908638881" lon="9.30539722185">
		<tag k="alt_name" v="Kimbefoss" />
		<tag k="name" v="Kimbefossen" />
		<tag k="natural" v="waterfall" />
		<tag k="ssr:stedsnr" v="188273" />
	</node>
	<node id="-168520" lat="60.3536777818" lon="9.33545000171">
		<tag k="name" v="Flåbekken" />
		<tag k="ssr:stedsnr" v="188025" />
		<tag k="waterway" v="stream" />
	</node>
	<node id="-168518" lat="60.3432435153" lon="9.47940945383">
		<tag k="name" v="Holmetjern" />
		<tag k="natural" v="water" />
		<tag k="ssr:stedsnr" v="188008" />
	</node>
	<node id="-168517" lat="60.4538750006" lon="9.49280000436">
		<tag k="alt_name" v="Nedre Vesleåntjern" />
		<tag k="name" v="Nedre Vesleåtjern" />
		<tag k="natural" v="water" />
		<tag k="ssr:stedsnr" v="188180" />
	</node>
	<node id="-168512" lat="60.335274996" lon="9.57744999585">
		<tag k="fixme" v="multiple name tags, choose one and add the other to alt_name" />
		<tag k="name" v="Lomtjern;Moltetjern" />
		<tag k="natural" v="water" />
		<tag k="ssr:stedsnr" v="188060" />
	</node>
	<node id="-168510" lat="60.4740249998" lon="9.28769722763">
		<tag k="name" v="Kleivetjern" />
		<tag k="natural" v="water" />
		<tag k="ssr:stedsnr" v="187324" />
	</node>
	<node id="-168491" lat="60.4167222217" lon="9.42081110757">
		<tag k="name" v="Haugemyrhøl" />
		<tag k="natural" v="water" />
		<tag k="ssr:stedsnr" v="178025" />
		<tag k="water" v="pond" />
	</node>
	<node id="-168483" lat="60.4722638906" lon="9.38875554871">
		<tag k="name" v="Røtuhullputten" />
		<tag k="natural" v="water" />
		<tag k="ssr:stedsnr" v="163530" />
		<tag k="water" v="pond" />
	</node>
	<node id="-168478" lat="60.4954249973" lon="9.40788888107">
		<tag k="name" v="Langebrenntjern" />
		<tag k="natural" v="water" />
		<tag k="ssr:stedsnr" v="161700" />
	</node>
	<node id="-168466" lat="60.5625666695" lon="9.41050277582">
		<tag k="name" v="Langodden" />
		<tag k="natural" v="cape" />
		<tag k="ssr:stedsnr" v="161615" />
	</node>
	<node id="-168465" lat="60.3964027797" lon="9.51304166887">
		<tag k="name" v="Flatsjø" />
		<tag k="place" v="locality" />
		<tag k="ssr:stedsnr" v="157132" />
	</node>
	<node id="-168460" lat="60.4997111113" lon="9.39186945075">
		<tag k="alt_name" v="Saulielva" />
		<tag k="name" v="Saulielvi" />
		<tag k="ssr:stedsnr" v="128794" />
		<tag k="waterway" v="stream" />
	</node>
	<node id="-168459" lat="60.5116971141" lon="9.42484100463">
		<tag k="alt_name" v="Raufjellvatn" />
		<tag k="name" v="Raudfjellvatnet" />
		<tag k="natural" v="water" />
		<tag k="ssr:stedsnr" v="128783" />
	</node>
	<node id="-168457" lat="60.3861472201" lon="9.65978333354">
		<tag k="alt_name" v="Nevertjern" />
		<tag k="name" v="Nevertjernet" />
		<tag k="natural" v="water" />
		<tag k="ssr:stedsnr" v="127961" />
	</node>
	<node id="-168456" lat="60.3413277821" lon="9.76697499863">
		<tag k="alt_name" v="Skjærtjern" />
		<tag k="name" v="Skjertjern" />
		<tag k="natural" v="water" />
		<tag k="ssr:stedsnr" v="127864" />
	</node>
	<node id="-168454" lat="60.3622166653" lon="9.62103056055">
		<tag k="name" v="Stabbeholmen" />
		<tag k="place" v="islet" />
		<tag k="ssr:stedsnr" v="127827" />
	</node>
	<node id="-168449" lat="60.4963750031" lon="9.34417778572">
		<tag k="alt_name" v="Kolsrudtjerna;Kolsrudtjern" />
		<tag k="name" v="Kolsrudtjernan" />
		<tag k="natural" v="water" />
		<tag k="ssr:stedsnr" v="127336" />
	</node>
	<node id="-168447" lat="60.4133749975" lon="9.55212500136">
		<tag k="name" v="Brunåi" />
		<tag k="ssr:stedsnr" v="127243" />
		<tag k="waterway" v="stream" />
	</node>
	<node id="-168442" lat="60.4404805593" lon="9.49376667384">
		<tag k="name" v="Vesbekken" />
		<tag k="ssr:stedsnr" v="127205" />
		<tag k="waterway" v="stream" />
	</node>
	<node id="-168440" lat="60.4815250002" lon="9.44792499523">
		<tag k="name" v="Hangstjern" />
		<tag k="natural" v="water" />
		<tag k="ssr:stedsnr" v="127364" />
	</node>
	<node id="-168437" lat="60.3955722197" lon="9.57502778605">
		<tag k="alt_name" v="Søndre Koksumbekken" />
		<tag k="name" v="Søre Koksumbekken" />
		<tag k="ssr:stedsnr" v="127272" />
		<tag k="waterway" v="stream" />
	</node>
	<node id="-168428" lat="60.3628250029" lon="9.53007500215">
		<tag k="name" v="Granbakktjern" />
		<tag k="natural" v="water" />
		<tag k="ssr:stedsnr" v="127034" />
	</node>
	<node id="-168425" lat="60.3713666678" lon="9.32218610797">
		<tag k="name" v="Tingsjø" />
		<tag k="natural" v="water" />
		<tag k="ssr:stedsnr" v="127023" />
		<tag k="water" v="lake" />
	</node>
	<node id="-168424" lat="60.360921704" lon="9.42712145206">
		<tag k="name" v="Eitrytetjern" />
		<tag k="natural" v="water" />
		<tag k="ssr:stedsnr" v="127019" />
	</node>
	<node id="-168421" lat="60.4593583297" lon="9.43029166789">
		<tag k="name" v="Trytetjern" />
		<tag k="natural" v="water" />
		<tag k="ssr:stedsnr" v="127159" />
	</node>
	<node id="-168420" lat="60.4624138921" lon="9.4514416686">
		<tag k="alt_name" v="Heieelva" />
		<tag k="name" v="Heieelvi" />
		<tag k="ssr:stedsnr" v="127156" />
		<tag k="waterway" v="river" />
	</node>
	<node id="-168418" lat="60.3119499995" lon="9.42867500815">
		<tag k="name" v="Fagerlibekken" />
		<tag k="ssr:stedsnr" v="127058" />
		<tag k="waterway" v="stream" />
	</node>
	<node id="-168414" lat="60.3815888918" lon="9.35522500088">
		<tag k="name" v="Langelibekken" />
		<tag k="ssr:stedsnr" v="120364" />
		<tag k="waterway" v="stream" />
	</node>
	<node id="-168397" lat="60.4036305542" lon="9.55361110722">
		<tag k="name" v="Koksumbekken" />
		<tag k="ssr:stedsnr" v="118441" />
		<tag k="waterway" v="stream" />
	</node>
	<node id="-168381" lat="60.4663694474" lon="9.40776110705">
		<tag k="name" v="Hellebekktjern" />
		<tag k="natural" v="water" />
		<tag k="ssr:stedsnr" v="102605" />
	</node>
	<node id="-168375" lat="60.561447225" lon="9.35320278323">
		<tag k="name" v="Hestlidalbekken" />
		<tag k="ssr:stedsnr" v="101706" />
		<tag k="waterway" v="stream" />
	</node>
	<node id="-168374" lat="60.545063893" lon="9.36245000601">
		<tag k="name" v="Hestlidaltjern" />
		<tag k="natural" v="water" />
		<tag k="ssr:stedsnr" v="101700" />
	</node>
	<node id="-168373" lat="60.5281277814" lon="9.52733056121">
		<tag k="name" v="Båthusodden" />
		<tag k="natural" v="cape" />
		<tag k="ssr:stedsnr" v="101698" />
	</node>
	<node id="-168372" lat="60.529569443" lon="9.48070832566">
		<tag k="name" v="Nevlingsdammen" />
		<tag k="ssr:stedsnr" v="101697" />
		<tag k="waterway" v="dam" />
	</node>
	<node id="-168369" lat="60.374330559" lon="9.60506944596">
		<tag k="loc_name" v="Nobbe" />
		<tag k="name" v="Nøbbe" />
		<tag k="natural" v="cape" />
		<tag k="ssr:stedsnr" v="101375" />
	</node>
	<node id="-168358" lat="60.3221444467" lon="9.7432416707">
		<tag k="name" v="Moltetjern" />
		<tag k="natural" v="water" />
		<tag k="ssr:stedsnr" v="100154" />
	</node>
	<node id="-168353" lat="60.5223416633" lon="9.32726666271">
		<tag k="name" v="Brennåstjern" />
		<tag k="natural" v="water" />
		<tag k="ssr:stedsnr" v="68780" />
	</node>
	<node id="-168352" lat="60.4121027779" lon="9.65288055413">
		<tag k="alt_name" v="Vesle Veåstjern" />
		<tag k="name" v="Vesle Veåstjernet" />
		<tag k="natural" v="water" />
		<tag k="ssr:stedsnr" v="67989" />
	</node>
	<node id="-168351" lat="60.3899944413" lon="9.71987778478">
		<tag k="alt_name" v="Fellebekk" />
		<tag k="name" v="Fellebekken" />
		<tag k="ssr:stedsnr" v="67968" />
		<tag k="waterway" v="stream" />
	</node>
	<node id="-168350" lat="60.5480472207" lon="9.38685555484">
		<tag k="name" v="Ormeleinbekken" />
		<tag k="ssr:stedsnr" v="67868" />
		<tag k="waterway" v="stream" />
	</node>
	<node id="-168347" lat="60.3401666692" lon="9.61921112001">
		<tag k="name" v="Steinarodden" />
		<tag k="natural" v="cape" />
		<tag k="ssr:stedsnr" v="67854" />
	</node>
	<node id="-168346" lat="60.3241999988" lon="9.69660278628">
		<tag k="alt_name" v="Damtjern" />
		<tag k="name" v="Damtjernet" />
		<tag k="natural" v="water" />
		<tag k="ssr:stedsnr" v="67816" />
	</node>
	<node id="-168345" lat="60.3486999986" lon="9.78475277437">
		<tag k="alt_name" v="Tranetjern" />
		<tag k="name" v="Tranetjernet" />
		<tag k="natural" v="water" />
		<tag k="ssr:stedsnr" v="67780" />
	</node>
	<node id="-168344" lat="60.4833250043" lon="9.54767500101">
		<tag k="name" v="Damtjern" />
		<tag k="natural" v="water" />
		<tag k="ssr:stedsnr" v="67365" />
	</node>
	<node id="-168339" lat="60.4107666656" lon="9.58330555154">
		<tag k="name" v="Koksumbekken" />
		<tag k="ssr:stedsnr" v="67273" />
		<tag k="waterway" v="stream" />
	</node>
	<node id="-168338" lat="60.3942999958" lon="9.5657527702">
		<tag k="alt_name" v="Grøtøya" />
		<tag k="name" v="Grøtøyni" />
		<tag k="place" v="islet" />
		<tag k="ssr:stedsnr" v="67271" />
	</node>
	<node id="-168335" lat="60.3815092933" lon="9.3472065516">
		<tag k="alt_name" v="Langlitjern" />
		<tag k="name" v="Langelitjern" />
		<tag k="natural" v="water" />
		<tag k="ssr:stedsnr" v="67258" />
	</node>
	<node id="-168320" lat="60.4178083357" lon="9.27616110719">
		<tag k="name" v="Elgtjern" />
		<tag k="natural" v="water" />
		<tag k="ssr:stedsnr" v="67193" />
	</node>
	<node id="-168319" lat="60.4555333342" lon="9.4825055517">
		<tag k="alt_name" v="Sprenetjern" />
		<tag k="name" v="Sprentjern" />
		<tag k="natural" v="water" />
		<tag k="ssr:stedsnr" v="67171" />
	</node>
	<node id="-168315" lat="60.3568233129" lon="9.38311266072">
		<tag k="name" v="Steinrullartjern" />
		<tag k="natural" v="water" />
		<tag k="ssr:stedsnr" v="67038" />
	</node>
	<node id="-168314" lat="60.3630249999" lon="9.27442500726">
		<tag k="name" v="Liabekk" />
		<tag k="ssr:stedsnr" v="67027" />
		<tag k="waterway" v="stream" />
	</node>
	<node id="-168308" lat="60.3154666689" lon="9.64714999274">
		<tag k="alt_name" v="Hyttevika" />
		<tag k="name" v="Hytteviki" />
		<tag k="natural" v="bay" />
		<tag k="ssr:stedsnr" v="66811" />
	</node>
	<node id="-168305" lat="60.3777722179" lon="9.32016388196">
		<tag k="name" v="Vassenden" />
		<tag k="natural" v="bay" />
		<tag k="ssr:stedsnr" v="59382" />
	</node>
	<node id="-168294" lat="60.412341667" lon="9.74967222592">
		<tag k="name" v="Kalketjern" />
		<tag k="natural" v="water" />
		<tag k="ssr:stedsnr" v="57475" />
	</node>
	<node id="-168293" lat="60.4223500017" lon="9.62886110617">
		<tag k="name" v="Langelitjern" />
		<tag k="natural" v="water" />
		<tag k="ssr:stedsnr" v="57473" />
	</node>
	<node id="-168282" lat="60.4990833292" lon="9.4184388903">
		<tag k="name" v="Halvfartjern" />
		<tag k="natural" v="water" />
		<tag k="ssr:stedsnr" v="42664" />
	</node>
	<node id="-168274" lat="60.3729083348" lon="9.60609444666">
		<tag k="loc_name" v="Skalbergnobbe" />
		<tag k="name" v="Skalbergnøbbe" />
		<tag k="natural" v="cape" />
		<tag k="ssr:stedsnr" v="40392" />
	</node>
	<node id="-168268" lat="60.3334972249" lon="9.50068056116">
		<tag k="name" v="Storekrok" />
		<tag k="place" v="locality" />
		<tag k="ssr:stedsnr" v="40190" />
	</node>
	<node id="-168266" lat="60.4365777743" lon="9.3230305585">
		<tag k="name" v="Steinstryken" />
		<tag k="ssr:stedsnr" v="39820" />
		<tag k="waterway" v="rapids" />
	</node>
	<node id="-168262" lat="60.3532833289" lon="9.51803611051">
		<tag k="name" v="Brislingtjern" />
		<tag k="natural" v="water" />
		<tag k="ssr:stedsnr" v="39529" />
	</node>
	<node id="-168258" lat="60.3202138869" lon="9.54088333907">
		<tag k="name" v="Fiskebekkdammen" />
		<tag k="natural" v="water" />
		<tag k="ssr:stedsnr" v="40144" />
	</node>
	<node id="-168257" lat="60.5264138912" lon="9.35140000196">
		<tag k="name" v="Grisetjern" />
		<tag k="natural" v="water" />
		<tag k="ssr:stedsnr" v="7745" />
	</node>
	<node id="-168255" lat="60.5338361114" lon="9.46679166598">
		<tag k="name" v="Tjuvodden" />
		<tag k="natural" v="cape" />
		<tag k="ssr:stedsnr" v="7741" />
	</node>
	<node id="-168254" lat="60.4051683899" lon="9.70203133645">
		<tag k="alt_name" v="Øvstevann" />
		<tag k="name" v="Øvstevatnet" />
		<tag k="natural" v="water" />
		<tag k="ssr:stedsnr" v="6996" />
		<tag k="water" v="lake" />
	</node>
	<node id="-168252" lat="60.3807499974" lon="9.72425555231">
		<tag k="name" v="Åstjernet" />
		<tag k="natural" v="water" />
		<tag k="ssr:stedsnr" v="6967" />
	</node>
	<node id="-168251" lat="60.4076749998" lon="9.76428056061">
		<tag k="alt_name" v="Buvann" />
		<tag k="name" v="Buvatnet" />
		<tag k="natural" v="water" />
		<tag k="ssr:stedsnr" v="6964" />
		<tag k="water" v="lake" />
	</node>
	<node id="-168250" lat="60.4639436539" lon="9.66171947266">
		<tag k="name" v="Fetjernan" />
		<tag k="natural" v="water" />
		<tag k="ssr:stedsnr" v="6887" />
	</node>
	<node id="-168249" lat="60.3304555545" lon="9.77120556249">
		<tag k="alt_name" v="Moltetjern" />
		<tag k="name" v="Moltetjernet" />
		<tag k="natural" v="water" />
		<tag k="ssr:stedsnr" v="6883" />
	</node>
	<node id="-168248" lat="60.3330666629" lon="9.61399444156">
		<tag k="name" v="Rikolbekken" />
		<tag k="ssr:stedsnr" v="6869" />
		<tag k="waterway" v="stream" />
	</node>
	<node id="-168245" lat="60.3468500021" lon="9.73370554901">
		<tag k="name" v="Elgebustjern" />
		<tag k="natural" v="water" />
		<tag k="ssr:stedsnr" v="6794" />
	</node>
	<node id="-168244" lat="60.3826905639" lon="9.16026098118">
		<tag k="alt_name" v="Piktjern" />
		<tag k="name" v="Piktjernet" />
		<tag k="natural" v="water" />
		<tag k="ssr:stedsnr" v="6405" />
	</node>
	<node id="-168241" lat="60.4818166641" lon="9.41550555179">
		<tag k="name" v="Kvitjernbekken" />
		<tag k="ssr:stedsnr" v="6365" />
		<tag k="waterway" v="stream" />
	</node>
	<node id="-168231" lat="60.4123999959" lon="9.31657777035">
		<tag k="alt_name" v="Stavnselva" />
		<tag k="name" v="Stamnselvi" />
		<tag k="ssr:stedsnr" v="6222" />
		<tag k="waterway" v="river" />
	</node>
	<node id="-168227" lat="60.4326999986" lon="9.31123889454">
		<tag k="alt_name" v="Jeppebekk" />
		<tag k="name" v="Jeppebekken" />
		<tag k="ssr:stedsnr" v="6198" />
		<tag k="waterway" v="stream" />
	</node>
	<node id="-168225" lat="60.4223999979" lon="9.25022499408">
		<tag k="alt_name" v="Gammalsætertjern" />
		<tag k="name" v="Gamalsetertjern" />
		<tag k="natural" v="water" />
		<tag k="ssr:stedsnr" v="6176" />
	</node>
	<node id="-168217" lat="60.3561749963" lon="9.28095000882">
		<tag k="name" v="Fiskebekken" />
		<tag k="ssr:stedsnr" v="6036" />
		<tag k="waterway" v="stream" />
	</node>
	<node id="-168216" lat="60.3546749986" lon="9.43809999297">
		<tag k="name" v="Stigtjern" />
		<tag k="natural" v="water" />
		<tag k="ssr:stedsnr" v="6030" />
	</node>
	<node id="-168210" lat="60.461100001" lon="9.43887499798">
		<tag k="alt_name" v="Hesteortjern" />
		<tag k="name" v="Hesteorttjern" />
		<tag k="natural" v="water" />
		<tag k="ssr:stedsnr" v="5356" />
	</node>
	<node id="-168203" lat="60.5335340377" lon="9.55224616883">
		<tag k="fixme" v="multiple name tags, choose one and add the other to alt_name" />
		<tag k="loc_name" v="Aurdalsvatnet" />
		<tag k="name" v="Aurdalsfjorden;Aurdalsvannet" />
		<tag k="natural" v="water" />
		<tag k="ssr:stedsnr" v="371761" />
		<tag k="water" v="lake" />
	</node>
	<node id="-168192" lat="60.5133828897" lon="9.31849870768">
		<tag k="name" v="Bødalsvatnet" />
		<tag k="natural" v="water" />
		<tag k="ssr:stedsnr" v="128790" />
		<tag k="water" v="lake" />
	</node>
	<node id="-168191" lat="60.5643122436" lon="9.34927835443">
		<tag k="name" v="Buvatnet" />
		<tag k="natural" v="water" />
		<tag k="ssr:stedsnr" v="6849" />
		<tag k="water" v="lake" />
	</node>
	<node id="-168175" lat="60.5265361074" lon="9.38707499099">
		<tag k="name" v="Storrtjern" />
		<tag k="natural" v="water" />
		<tag k="ssr:stedsnr" v="892701" />
	</node>
	<node id="-168173" lat="60.5071388905" lon="9.39701944929">
		<tag k="name" v="Daubekk" />
		<tag k="ssr:stedsnr" v="892688" />
		<tag k="waterway" v="stream" />
	</node>
	<node id="-168168" lat="60.4562472199" lon="9.27166944141">
		<tag k="name" v="Kleivodden" />
		<tag k="natural" v="cape" />
		<tag k="ssr:stedsnr" v="891602" />
	</node>
	<node id="-168159" lat="60.3788694455" lon="9.54196389549">
		<tag k="name" v="Nordbråtatjern" />
		<tag k="natural" v="water" />
		<tag k="ssr:stedsnr" v="890379" />
	</node>
	<node id="-168151" lat="60.3473861107" lon="9.63964722589">
		<tag k="name" v="Leknesodden" />
		<tag k="natural" v="cape" />
		<tag k="ssr:stedsnr" v="889565" />
	</node>
	<node id="-168150" lat="60.3524805529" lon="9.62345554963">
		<tag k="name" v="Halsan" />
		<tag k="place" v="islet" />
		<tag k="ssr:stedsnr" v="889564" />
	</node>
	<node id="-168149" lat="60.3576916642" lon="9.62475277847">
		<tag k="name" v="Vierhalsen" />
		<tag k="natural" v="strait" />
		<tag k="ssr:stedsnr" v="889557" />
	</node>
	<node id="-168143" lat="60.3318777745" lon="9.51809443846">
		<tag k="name" v="Brennåfoss" />
		<tag k="natural" v="waterfall" />
		<tag k="ssr:stedsnr" v="889162" />
	</node>
	<node id="-168136" lat="60.4593833375" lon="9.49776111417">
		<tag k="name" v="Rakafiskputten" />
		<tag k="natural" v="bay" />
		<tag k="ssr:stedsnr" v="405537" />
	</node>
	<node id="-168130" lat="60.3143555563" lon="9.638694446">
		<tag k="name" v="Hyttebekken" />
		<tag k="ssr:stedsnr" v="404177" />
		<tag k="waterway" v="stream" />
	</node>
	<node id="-168119" lat="60.500575004" lon="9.43687777558">
		<tag k="alt_name" v="Styrmannstjern" />
		<tag k="name" v="Styrmanntjern" />
		<tag k="natural" v="water" />
		<tag k="ssr:stedsnr" v="371802" />
	</node>
	<node id="-168116" lat="60.4203388932" lon="9.69232500367">
		<tag k="alt_name" v="Øvstevannsbekken" />
		<tag k="name" v="Øvstevassbekken" />
		<tag k="ssr:stedsnr" v="370992" />
		<tag k="waterway" v="stream" />
	</node>
	<node id="-168113" lat="60.3962750038" lon="9.6785250078">
		<tag k="name" v="Lomtjernet" />
		<tag k="natural" v="water" />
		<tag k="ssr:stedsnr" v="370977" />
	</node>
	<node id="-168109" lat="60.3568499967" lon="9.71005834138">
		<tag k="alt_name" v="Stortjern" />
		<tag k="name" v="Stortjernet" />
		<tag k="natural" v="water" />
		<tag k="ssr:stedsnr" v="370773" />
	</node>
	<node id="-168108" lat="60.3944166708" lon="9.79078888404">
		<tag k="alt_name" v="Buvannselva" />
		<tag k="name" v="Buvasselvi" />
		<tag k="ssr:stedsnr" v="370605" />
		<tag k="waterway" v="river" />
	</node>
	<node id="-168107" lat="60.3682225857" lon="9.15181716583">
		<tag k="name" v="Fjelløkteren" />
		<tag k="natural" v="water" />
		<tag k="ssr:stedsnr" v="370438" />
		<tag k="water" v="lake" />
	</node>
	<node id="-168105" lat="60.4036444416" lon="9.15868332534">
		<tag k="alt_name" v="Krysskobekk" />
		<tag k="name" v="Krysskotbekken" />
		<tag k="ssr:stedsnr" v="370399" />
		<tag k="waterway" v="stream" />
	</node>
	<node id="-168101" lat="60.3978000042" lon="9.53032500761">
		<tag k="name" v="Trolltjern" />
		<tag k="natural" v="water" />
		<tag k="ssr:stedsnr" v="370287" />
	</node>
	<node id="-168097" lat="60.4037499991" lon="9.46812500357">
		<tag k="name" v="Droppelbekk" />
		<tag k="ssr:stedsnr" v="370248" />
		<tag k="waterway" v="stream" />
	</node>
	<node id="-168088" lat="60.4353500033" lon="9.32022500282">
		<tag k="alt_name" v="Kråkeneshølen" />
		<tag k="name" v="Kråkneshølen" />
		<tag k="place" v="locality" />
		<tag k="ssr:stedsnr" v="370163" />
	</node>
	<node id="-168084" lat="60.3559000016" lon="9.33087500609">
		<tag k="name" v="Toveelvi" />
		<tag k="ssr:stedsnr" v="370034" />
		<tag k="waterway" v="stream" />
	</node>
	<node id="-168082" lat="60.442291665" lon="9.80320277397">
		<tag k="name" v="Fonneskardbekken" />
		<tag k="ssr:stedsnr" v="369887" />
		<tag k="waterway" v="stream" />
	</node>
	<node id="-168078" lat="60.4108138849" lon="9.36286111391">
		<tag k="alt_name" v="Grøslandelva" />
		<tag k="name" v="Grøslandelvi" />
		<tag k="ssr:stedsnr" v="431231" />
		<tag k="waterway" v="river" />
	</node>
	<node id="-168074" lat="60.3793709296" lon="9.42209734915">
		<tag k="name" v="Skreddervika" />
		<tag k="natural" v="bay" />
		<tag k="ssr:stedsnr" v="362376" />
	</node>
	<node id="-168069" lat="60.4024722253" lon="9.71737500749">
		<tag k="name" v="Øvstevannsdammen" />
		<tag k="ssr:stedsnr" v="360449" />
		<tag k="waterway" v="dam" />
	</node>
	<node id="-168065" lat="60.4293499964" lon="9.38655277612">
		<tag k="name" v="Veltehølen" />
		<tag k="place" v="locality" />
		<tag k="ssr:stedsnr" v="360004" />
	</node>
	<node id="-168058" lat="60.4682888868" lon="9.39967500112">
		<tag k="name" v="Lisletjern" />
		<tag k="natural" v="water" />
		<tag k="ssr:stedsnr" v="344559" />
	</node>
	<node id="-168056" lat="60.4648138861" lon="9.49631666929">
		<tag k="name" v="Slåttemyrbekken" />
		<tag k="ssr:stedsnr" v="344533" />
		<tag k="waterway" v="stream" />
	</node>
	<node id="-168052" lat="60.4347861115" lon="9.4092000078">
		<tag k="name" v="Gaptjerntjern" />
		<tag k="natural" v="water" />
		<tag k="ssr:stedsnr" v="343863" />
	</node>
	<node id="-168049" lat="60.5457527766" lon="9.36971111753">
		<tag k="name" v="Vesle Spunsettjern" />
		<tag k="natural" v="water" />
		<tag k="ssr:stedsnr" v="343735" />
	</node>
	<node id="-168046" lat="60.3512999965" lon="9.68111388431">
		<tag k="name" v="Røbbetjern" />
		<tag k="natural" v="water" />
		<tag k="ssr:stedsnr" v="343581" />
	</node>
	<node id="-168037" lat="60.4551527811" lon="9.29683889343">
		<tag k="alt_name" v="Kvernabekken" />
		<tag k="name" v="Kvernbekken" />
		<tag k="ssr:stedsnr" v="126348" />
		<tag k="waterway" v="stream" />
	</node>
	<node id="-168034" lat="60.542847223" lon="9.35170556421">
		<tag k="alt_name" v="Krøsstjernan" />
		<tag k="name" v="Krosstjernan" />
		<tag k="natural" v="water" />
		<tag k="ssr:stedsnr" v="310860" />
		<tag k="water" v="lake" />
	</node>
	<node id="-168032" lat="60.5224750032" lon="9.37361388977">
		<tag k="name" v="Dagalitjern" />
		<tag k="natural" v="water" />
		<tag k="ssr:stedsnr" v="310781" />
	</node>
	<node id="-168031" lat="60.5209777783" lon="9.47089166243">
		<tag k="alt_name" v="Venelibekk" />
		<tag k="name" v="Venelibekken" />
		<tag k="ssr:stedsnr" v="310778" />
		<tag k="waterway" v="stream" />
	</node>
	<node id="-168030" lat="60.525844443" lon="9.47476388496">
		<tag k="name" v="Hallingtjern" />
		<tag k="natural" v="water" />
		<tag k="ssr:stedsnr" v="310772" />
	</node>
	<node id="-168024" lat="60.4173249973" lon="9.64836666256">
		<tag k="fixme" v="multiple name tags, choose one and add the other to alt_name" />
		<tag k="name" v="Store Veåstjernet;Veåstjern" />
		<tag k="natural" v="water" />
		<tag k="ssr:stedsnr" v="310000" />
	</node>
	<node id="-168022" lat="60.391116667" lon="9.69667500536">
		<tag k="alt_name" v="Trytetjern" />
		<tag k="name" v="Trytetjernan" />
		<tag k="natural" v="water" />
		<tag k="ssr:stedsnr" v="309969" />
		<tag k="water" v="lake" />
	</node>
	<node id="-168015" lat="60.3899694482" lon="9.20531667535">
		<tag k="alt_name" v="Helgevatnet" />
		<tag k="name" v="Helgesetvatnet" />
		<tag k="natural" v="water" />
		<tag k="ssr:stedsnr" v="309404" />
		<tag k="water" v="lake" />
	</node>
	<node id="-168013" lat="60.4609249973" lon="9.34447221961">
		<tag k="alt_name" v="Nysæterputten" />
		<tag k="name" v="Nyseterputten" />
		<tag k="place" v="locality" />
		<tag k="ssr:stedsnr" v="309399" />
	</node>
	<node id="-168012" lat="60.4495249974" lon="9.37776110623">
		<tag k="alt_name" v="Rimeelva" />
		<tag k="name" v="Rimeelvi" />
		<tag k="ssr:stedsnr" v="309398" />
		<tag k="waterway" v="river" />
	</node>
	<node id="-168009" lat="60.4769888893" lon="9.44815000272">
		<tag k="name" v="Erskoløken" />
		<tag k="ssr:stedsnr" v="309384" />
		<tag k="waterway" v="river" />
	</node>
	<node id="-168008" lat="60.4833944417" lon="9.42795278536">
		<tag k="name" v="Hangfoss" />
		<tag k="natural" v="waterfall" />
		<tag k="ssr:stedsnr" v="309383" />
	</node>
	<node id="-168006" lat="60.4954833344" lon="9.31353333906">
		<tag k="name" v="Gampetjern" />
		<tag k="natural" v="water" />
		<tag k="ssr:stedsnr" v="309356" />
	</node>
	<node id="-168004" lat="60.3859500045" lon="9.29822500324">
		<tag k="alt_name" v="Mellom-Kimbetjern" />
		<tag k="name" v="Midtre Kimbetjern" />
		<tag k="natural" v="water" />
		<tag k="ssr:stedsnr" v="309263" />
	</node>
	<node id="-167999" lat="60.4091499958" lon="9.54322778305">
		<tag k="name" v="Haramobekken" />
		<tag k="ssr:stedsnr" v="309223" />
		<tag k="waterway" v="stream" />
	</node>
	<node id="-167992" lat="60.4559138875" lon="9.34549444895">
		<tag k="alt_name" v="Nysæterbekken" />
		<tag k="name" v="Nyseterbekken" />
		<tag k="ssr:stedsnr" v="309140" />
		<tag k="waterway" v="stream" />
	</node>
	<node id="-167985" lat="60.4447611119" lon="9.49468610548">
		<tag k="name" v="Puttane" />
		<tag k="natural" v="water" />
		<tag k="ssr:stedsnr" v="300953" />
		<tag k="water" v="pond" />
	</node>
	<node id="-167980" lat="60.3952611068" lon="9.6989250012">
		<tag k="name" v="Gørrtjern" />
		<tag k="natural" v="water" />
		<tag k="ssr:stedsnr" v="300503" />
	</node>
	<node id="-167974" lat="60.4182250006" lon="9.47830277295">
		<tag k="name" v="Rudstjern" />
		<tag k="natural" v="water" />
		<tag k="ssr:stedsnr" v="300248" />
	</node>
	<node id="-167965" lat="60.5138666698" lon="9.38717778387">
		<tag k="name" v="Nedre Saulivatn" />
		<tag k="natural" v="water" />
		<tag k="ssr:stedsnr" v="285682" />
		<tag k="water" v="lake" />
	</node>
	<node id="-167964" lat="60.5072722209" lon="9.39156111909">
		<tag k="name" v="Rundeløk" />
		<tag k="natural" v="water" />
		<tag k="ssr:stedsnr" v="285678" />
	</node>
	<node id="-167953" lat="60.4343777786" lon="9.32239166399">
		<tag k="name" v="Felestryken" />
		<tag k="ssr:stedsnr" v="282830" />
		<tag k="waterway" v="rapids" />
	</node>
</osm>
