<?xml version="1.0" encoding="UTF-8"?>
<osm generator="osmapis" version="0.6">
	<node id="-169497" lat="60.3780083378" lon="9.38115833435">
		<tag k="name" v="Fjellkinndalen" />
		<tag k="natural" v="valley" />
		<tag k="place" v="locality" />
		<tag k="ssr:stedsnr" v="969364" />
	</node>
	<node id="-169494" lat="60.4010805601" lon="9.41483888192">
		<tag k="name" v="Pellarlia" />
		<tag k="natural" v="slope" />
		<tag k="place" v="locality" />
		<tag k="ssr:stedsnr" v="969182" />
	</node>
	<node id="-169493" lat="60.4046222256" lon="9.41927777625">
		<tag k="name" v="Furuhaugen" />
		<tag k="natural" v="hill" />
		<tag k="place" v="locality" />
		<tag k="ssr:stedsnr" v="969177" />
	</node>
	<node id="-169488" lat="60.4269194406" lon="9.69408332533">
		<tag k="name" v="Hestehaugan" />
		<tag k="natural" v="hill" />
		<tag k="place" v="locality" />
		<tag k="ssr:stedsnr" v="967477" />
	</node>
	<node id="-169485" lat="60.4152861123" lon="9.45042499983">
		<tag k="name" v="Eivindshøl" />
		<tag k="natural" v="valley" />
		<tag k="place" v="locality" />
		<tag k="ssr:stedsnr" v="967182" />
	</node>
	<node id="-169482" lat="60.4297027772" lon="9.33651388464">
		<tag k="name" v="Nedre Tjyrunattskar" />
		<tag k="natural" v="valley" />
		<tag k="place" v="locality" />
		<tag k="ssr:stedsnr" v="967040" />
	</node>
	<node id="-169481" lat="60.4291833326" lon="9.42111944651">
		<tag k="name" v="Skarbråtene" />
		<tag k="place" v="locality" />
		<tag k="ssr:stedsnr" v="967010" />
	</node>
	<node id="-169476" lat="60.4428527819" lon="9.81541667412">
		<tag k="name" v="Skarlia" />
		<tag k="natural" v="slope" />
		<tag k="place" v="locality" />
		<tag k="ssr:stedsnr" v="967237" />
	</node>
	<node id="-169470" lat="60.4678500001" lon="9.29171666112">
		<tag k="name" v="Tetruskar" />
		<tag k="natural" v="valley" />
		<tag k="place" v="locality" />
		<tag k="ssr:stedsnr" v="951625" />
	</node>
	<node id="-169469" lat="60.4733916636" lon="9.29858889588">
		<tag k="name" v="Bråteskar" />
		<tag k="natural" v="valley" />
		<tag k="place" v="locality" />
		<tag k="ssr:stedsnr" v="951622" />
	</node>
	<node id="-169468" lat="60.4654194482" lon="9.31875278521">
		<tag k="name" v="Tjuvhovdlia" />
		<tag k="natural" v="slope" />
		<tag k="place" v="locality" />
		<tag k="ssr:stedsnr" v="951616" />
	</node>
	<node id="-169466" lat="60.4719277765" lon="9.50266388336">
		<tag k="name" v="Vesleseterlia" />
		<tag k="natural" v="slope" />
		<tag k="place" v="locality" />
		<tag k="ssr:stedsnr" v="951536" />
	</node>
	<node id="-169464" lat="60.4371222185" lon="9.38479167307">
		<tag k="name" v="Trolldalen" />
		<tag k="natural" v="valley" />
		<tag k="place" v="locality" />
		<tag k="ssr:stedsnr" v="950811" />
	</node>
	<node id="-169454" lat="60.3104277821" lon="9.601297216">
		<tag k="name" v="Ranteskar" />
		<tag k="natural" v="valley" />
		<tag k="place" v="locality" />
		<tag k="ssr:stedsnr" v="950193" />
	</node>
	<node id="-169451" lat="60.4053972196" lon="9.47475555563">
		<tag k="name" v="Brekkene" />
		<tag k="place" v="locality" />
		<tag k="ssr:stedsnr" v="946136" />
	</node>
	<node id="-169448" lat="60.4994975501" lon="9.50089539049">
		<tag k="fixme" v="consider natural=peak for the most distinct mountains in the district" />
		<tag k="name" v="Veslefjell" />
		<tag k="natural" v="hill" />
		<tag k="place" v="locality" />
		<tag k="ssr:stedsnr" v="917787" />
	</node>
	<node id="-169447" lat="60.5075666644" lon="9.42590000905">
		<tag k="fixme" v="consider natural=peak for the most distinct mountains in the district" />
		<tag k="name" v="Styrmannatten" />
		<tag k="natural" v="hill" />
		<tag k="place" v="locality" />
		<tag k="ssr:stedsnr" v="917772" />
	</node>
	<node id="-169445" lat="60.5390666641" lon="9.40211111923">
		<tag k="fixme" v="consider natural=peak for the most distinct mountains in the district" />
		<tag k="name" v="Øvre Nevlinghaugen" />
		<tag k="natural" v="hill" />
		<tag k="place" v="locality" />
		<tag k="ssr:stedsnr" v="917747" />
	</node>
	<node id="-169442" lat="60.3175277771" lon="9.39594721549">
		<tag k="fixme" v="consider natural=peak for the most distinct mountains in the district" />
		<tag k="name" v="Gråfjell" />
		<tag k="natural" v="hill" />
		<tag k="place" v="locality" />
		<tag k="ssr:stedsnr" v="917034" />
	</node>
	<node id="-169441" lat="60.3565500013" lon="9.35177500576">
		<tag k="name" v="Hesteskardnatten" />
		<tag k="natural" v="hill" />
		<tag k="place" v="locality" />
		<tag k="ssr:stedsnr" v="917013" />
	</node>
	<node id="-169438" lat="60.4679499989" lon="9.67551111834">
		<tag k="fixme" v="consider natural=peak for the most distinct mountains in the district" />
		<tag k="name" v="Rultikollen" />
		<tag k="natural" v="hill" />
		<tag k="place" v="locality" />
		<tag k="ssr:stedsnr" v="916906" />
	</node>
	<node id="-169432" lat="60.4622583315" lon="9.29465000634">
		<tag k="alt_name" v="Smyrlihøgda" />
		<tag k="name" v="Smyrlihøgdi" />
		<tag k="natural" v="hill" />
		<tag k="place" v="locality" />
		<tag k="ssr:stedsnr" v="916381" />
	</node>
	<node id="-169429" lat="60.4845749999" lon="9.34770000849">
		<tag k="name" v="Grannatten" />
		<tag k="natural" v="hill" />
		<tag k="place" v="locality" />
		<tag k="ssr:stedsnr" v="916361" />
	</node>
	<node id="-169423" lat="60.4112222209" lon="9.34363889665">
		<tag k="fixme" v="consider natural=peak for the most distinct mountains in the district" />
		<tag k="name" v="Rakhalsnatten" />
		<tag k="natural" v="hill" />
		<tag k="place" v="locality" />
		<tag k="ssr:stedsnr" v="916219" />
	</node>
	<node id="-169419" lat="60.4285333315" lon="9.42821110947">
		<tag k="fixme" v="consider natural=peak for the most distinct mountains in the district" />
		<tag k="name" v="Trøstheimåsen" />
		<tag k="natural" v="hill" />
		<tag k="place" v="locality" />
		<tag k="ssr:stedsnr" v="916179" />
	</node>
	<node id="-169418" lat="60.4555666652" lon="9.33374722098">
		<tag k="alt_name" v="Suserudskar" />
		<tag k="name" v="Suserudskardet" />
		<tag k="natural" v="valley" />
		<tag k="place" v="locality" />
		<tag k="ssr:stedsnr" v="916160" />
	</node>
	<node id="-169416" lat="60.4462833356" lon="9.48820277753">
		<tag k="fixme" v="consider natural=peak for the most distinct mountains in the district" />
		<tag k="name" v="Knausen" />
		<tag k="natural" v="hill" />
		<tag k="place" v="locality" />
		<tag k="ssr:stedsnr" v="916145" />
	</node>
	<node id="-169414" lat="60.3128250017" lon="9.53121943706">
		<tag k="name" v="Hestgjuvet" />
		<tag k="natural" v="cliff" />
		<tag k="ssr:stedsnr" v="916050" />
	</node>
	<node id="-169412" lat="60.3178250036" lon="9.57477500543">
		<tag k="name" v="Pika" />
		<tag k="natural" v="hill" />
		<tag k="place" v="locality" />
		<tag k="ssr:stedsnr" v="916039" />
	</node>
	<node id="-169410" lat="60.4093555548" lon="9.2319611172">
		<tag k="fixme" v="consider natural=peak for the most distinct mountains in the district" />
		<tag k="name" v="Langelifjell" />
		<tag k="natural" v="hill" />
		<tag k="place" v="locality" />
		<tag k="ssr:stedsnr" v="909387" />
	</node>
	<node id="-169409" lat="60.3989249988" lon="9.41214444589">
		<tag k="name" v="Lågkastet" />
		<tag k="place" v="locality" />
		<tag k="ssr:stedsnr" v="909173" />
	</node>
	<node id="-169408" lat="60.3913388906" lon="9.42090277649">
		<tag k="name" v="Meisebakke" />
		<tag k="natural" v="slope" />
		<tag k="place" v="locality" />
		<tag k="ssr:stedsnr" v="909161" />
	</node>
	<node id="-169404" lat="60.4112611088" lon="9.76729444239">
		<tag k="name" v="Tryteberget" />
		<tag k="natural" v="hill" />
		<tag k="place" v="locality" />
		<tag k="ssr:stedsnr" v="907467" />
	</node>
	<node id="-169403" lat="60.4196111125" lon="9.71401111128">
		<tag k="name" v="Rolihøl" />
		<tag k="place" v="locality" />
		<tag k="ssr:stedsnr" v="907464" />
	</node>
	<node id="-169399" lat="60.4385722223" lon="9.78023888496">
		<tag k="name" v="Brennskaret" />
		<tag k="natural" v="valley" />
		<tag k="place" v="locality" />
		<tag k="ssr:stedsnr" v="907254" />
	</node>
	<node id="-169396" lat="60.4157444428" lon="9.3131472302">
		<tag k="name" v="Glomsrudnatten" />
		<tag k="natural" v="hill" />
		<tag k="place" v="locality" />
		<tag k="ssr:stedsnr" v="907043" />
	</node>
	<node id="-169393" lat="60.4144361126" lon="9.34743332724">
		<tag k="name" v="Sigridskar" />
		<tag k="natural" v="valley" />
		<tag k="place" v="locality" />
		<tag k="ssr:stedsnr" v="907003" />
	</node>
	<node id="-169392" lat="60.4162638921" lon="9.43723888626">
		<tag k="name" v="Ormeberglia" />
		<tag k="natural" v="slope" />
		<tag k="place" v="locality" />
		<tag k="ssr:stedsnr" v="906258" />
	</node>
	<node id="-169391" lat="60.4158888925" lon="9.46592222242">
		<tag k="loc_name" v="Skardet" />
		<tag k="name" v="Skaret" />
		<tag k="natural" v="valley" />
		<tag k="place" v="locality" />
		<tag k="ssr:stedsnr" v="906247" />
	</node>
	<node id="-169390" lat="60.4140222207" lon="9.43953332483">
		<tag k="name" v="Bjønndalen" />
		<tag k="natural" v="valley" />
		<tag k="place" v="locality" />
		<tag k="ssr:stedsnr" v="906240" />
	</node>
	<node id="-169389" lat="60.4196305573" lon="9.37556111539">
		<tag k="name" v="Raumo" />
		<tag k="place" v="locality" />
		<tag k="ssr:stedsnr" v="906014" />
	</node>
	<node id="-169376" lat="60.3520750043" lon="9.679800009">
		<tag k="alt_name" v="Røbbe" />
		<tag k="name" v="Røbbi" />
		<tag k="natural" v="hill" />
		<tag k="place" v="locality" />
		<tag k="ssr:stedsnr" v="856790" />
	</node>
	<node id="-169374" lat="60.3503499962" lon="9.71551666212">
		<tag k="alt_name" v="Merratjerndalen" />
		<tag k="name" v="Merratjernsdalen" />
		<tag k="natural" v="valley" />
		<tag k="place" v="locality" />
		<tag k="ssr:stedsnr" v="856776" />
	</node>
	<node id="-169371" lat="60.4798250006" lon="9.31316111854">
		<tag k="fixme" v="consider natural=peak for the most distinct mountains in the district" />
		<tag k="name" v="Damåsen" />
		<tag k="natural" v="hill" />
		<tag k="place" v="locality" />
		<tag k="ssr:stedsnr" v="856367" />
	</node>
	<node id="-169367" lat="60.3785416676" lon="9.46995833138">
		<tag k="name" v="Svarthaug" />
		<tag k="natural" v="hill" />
		<tag k="place" v="locality" />
		<tag k="ssr:stedsnr" v="856234" />
	</node>
	<node id="-169366" lat="60.3720999959" lon="9.37425277364">
		<tag k="fixme" v="consider natural=peak for the most distinct mountains in the district" />
		<tag k="name" v="Fjellkinnatten" />
		<tag k="natural" v="hill" />
		<tag k="place" v="locality" />
		<tag k="ssr:stedsnr" v="856228" />
	</node>
	<node id="-169362" lat="60.4286888902" lon="9.28157499138">
		<tag k="fixme" v="consider natural=peak for the most distinct mountains in the district" />
		<tag k="name" v="Jeppenatten" />
		<tag k="natural" v="hill" />
		<tag k="place" v="locality" />
		<tag k="ssr:stedsnr" v="856190" />
	</node>
	<node id="-169361" lat="60.4341499996" lon="9.57482499166">
		<tag k="alt_name" v="Glitreskar" />
		<tag k="name" v="Glitreskard" />
		<tag k="natural" v="valley" />
		<tag k="place" v="locality" />
		<tag k="ssr:stedsnr" v="856188" />
	</node>
	<node id="-169359" lat="60.4201749957" lon="9.27276666312">
		<tag k="fixme" v="consider natural=peak for the most distinct mountains in the district" />
		<tag k="name" v="Bakåsen" />
		<tag k="natural" v="hill" />
		<tag k="place" v="locality" />
		<tag k="ssr:stedsnr" v="856174" />
	</node>
	<node id="-169358" lat="60.4561611113" lon="9.55697778385">
		<tag k="alt_name" v="Dyrskar" />
		<tag k="name" v="Dyrskard" />
		<tag k="natural" v="valley" />
		<tag k="place" v="locality" />
		<tag k="ssr:stedsnr" v="856127" />
	</node>
	<node id="-169357" lat="60.3236500016" lon="9.44897777307">
		<tag k="fixme" v="consider natural=peak for the most distinct mountains in the district" />
		<tag k="name" v="Rundenatten" />
		<tag k="natural" v="hill" />
		<tag k="place" v="locality" />
		<tag k="ssr:stedsnr" v="856059" />
	</node>
	<node id="-169355" lat="60.3622499973" lon="9.58662499766">
		<tag k="name" v="Kårmolii" />
		<tag k="natural" v="slope" />
		<tag k="place" v="locality" />
		<tag k="ssr:stedsnr" v="856034" />
	</node>
	<node id="-169351" lat="60.4404861125" lon="9.79697778642">
		<tag k="name" v="Fonneskardet" />
		<tag k="natural" v="valley" />
		<tag k="place" v="locality" />
		<tag k="ssr:stedsnr" v="855984" />
	</node>
	<node id="-169346" lat="60.3412222191" lon="9.58563332799">
		<tag k="name" v="Heimseterpika" />
		<tag k="natural" v="hill" />
		<tag k="place" v="locality" />
		<tag k="ssr:stedsnr" v="848909" />
	</node>
	<node id="-169344" lat="60.3939694476" lon="9.28922500374">
		<tag k="name" v="Finntoppskar" />
		<tag k="natural" v="valley" />
		<tag k="place" v="locality" />
		<tag k="ssr:stedsnr" v="848417" />
	</node>
	<node id="-169343" lat="60.3923805553" lon="9.2592166647">
		<tag k="name" v="Gråberget" />
		<tag k="place" v="locality" />
		<tag k="ssr:stedsnr" v="848418" />
	</node>
	<node id="-169342" lat="60.4089722216" lon="9.3667611166">
		<tag k="name" v="Hyttelia" />
		<tag k="natural" v="slope" />
		<tag k="place" v="locality" />
		<tag k="ssr:stedsnr" v="848149" />
	</node>
	<node id="-169337" lat="60.4157777775" lon="9.71093333329">
		<tag k="name" v="Øvstevannslia" />
		<tag k="natural" v="slope" />
		<tag k="place" v="locality" />
		<tag k="ssr:stedsnr" v="846486" />
	</node>
	<node id="-169336" lat="60.4196194415" lon="9.63656111981">
		<tag k="name" v="Haftebekklia" />
		<tag k="natural" v="slope" />
		<tag k="place" v="locality" />
		<tag k="ssr:stedsnr" v="846481" />
	</node>
	<node id="-169328" lat="60.4310916632" lon="9.78200555906">
		<tag k="name" v="Vesle Bukollen" />
		<tag k="natural" v="hill" />
		<tag k="place" v="locality" />
		<tag k="ssr:stedsnr" v="846223" />
	</node>
	<node id="-169327" lat="60.4247194464" lon="9.80878610797">
		<tag k="name" v="Tømmerlia" />
		<tag k="natural" v="slope" />
		<tag k="place" v="locality" />
		<tag k="ssr:stedsnr" v="846219" />
	</node>
	<node id="-169323" lat="60.4196527772" lon="9.2957527841">
		<tag k="name" v="Grååsflaget" />
		<tag k="place" v="locality" />
		<tag k="ssr:stedsnr" v="846032" />
	</node>
	<node id="-169318" lat="60.45677778" lon="9.45558055426">
		<tag k="name" v="Sleaberget" />
		<tag k="natural" v="hill" />
		<tag k="place" v="locality" />
		<tag k="ssr:stedsnr" v="830566" />
	</node>
	<node id="-169306" lat="60.3699833296" lon="9.54524444425">
		<tag k="name" v="Helvete" />
		<tag k="natural" v="gorge" />
		<tag k="ssr:stedsnr" v="829367" />
	</node>
	<node id="-169305" lat="60.30411944" lon="9.58028332801">
		<tag k="name" v="Kvilarvollen" />
		<tag k="place" v="locality" />
		<tag k="ssr:stedsnr" v="829167" />
	</node>
	<node id="-169301" lat="60.4160416651" lon="9.43142499726">
		<tag k="name" v="Tvigreinåsen" />
		<tag k="natural" v="hill" />
		<tag k="place" v="locality" />
		<tag k="ssr:stedsnr" v="829213" />
	</node>
	<node id="-169294" lat="60.3876027755" lon="9.65864999357">
		<tag k="fixme" v="consider natural=peak for the most distinct mountains in the district" />
		<tag k="name" v="Nevertjernåsen" />
		<tag k="natural" v="hill" />
		<tag k="place" v="locality" />
		<tag k="ssr:stedsnr" v="795983" />
	</node>
	<node id="-169289" lat="60.558316665" lon="9.41031945138">
		<tag k="name" v="Suluvassmoen" />
		<tag k="place" v="locality" />
		<tag k="ssr:stedsnr" v="795854" />
	</node>
	<node id="-169285" lat="60.4585027747" lon="9.28343333731">
		<tag k="alt_name" v="Grønskardalen" />
		<tag k="name" v="Grønskarddalen" />
		<tag k="natural" v="valley" />
		<tag k="place" v="locality" />
		<tag k="ssr:stedsnr" v="795629" />
	</node>
	<node id="-169279" lat="60.3756194411" lon="9.41097777088">
		<tag k="fixme" v="consider natural=peak for the most distinct mountains in the district" />
		<tag k="name" v="Kollen" />
		<tag k="natural" v="hill" />
		<tag k="place" v="locality" />
		<tag k="ssr:stedsnr" v="795259" />
	</node>
	<node id="-169278" lat="60.3770333317" lon="9.27316944521">
		<tag k="name" v="Venelinatten" />
		<tag k="natural" v="hill" />
		<tag k="place" v="locality" />
		<tag k="ssr:stedsnr" v="795255" />
	</node>
	<node id="-169272" lat="60.4365055523" lon="9.33053332885">
		<tag k="alt_name" v="Langeskørri" />
		<tag k="name" v="Langeskori" />
		<tag k="place" v="locality" />
		<tag k="ssr:stedsnr" v="795166" />
	</node>
	<node id="-169266" lat="60.3165138915" lon="9.55199166204">
		<tag k="name" v="Tverrhogget" />
		<tag k="natural" v="valley" />
		<tag k="place" v="locality" />
		<tag k="ssr:stedsnr" v="795060" />
	</node>
	<node id="-169265" lat="60.3657750001" lon="9.22985278594">
		<tag k="alt_name" v="Flenteflåen" />
		<tag k="name" v="Flenteflået" />
		<tag k="natural" v="slope" />
		<tag k="place" v="locality" />
		<tag k="ssr:stedsnr" v="795036" />
	</node>
	<node id="-169264" lat="60.3419805543" lon="9.5619333419">
		<tag k="fixme" v="consider natural=peak for the most distinct mountains in the district" />
		<tag k="name" v="Posalinatten" />
		<tag k="natural" v="hill" />
		<tag k="place" v="locality" />
		<tag k="ssr:stedsnr" v="795024" />
	</node>
	<node id="-169263" lat="60.3612750014" lon="9.50137499741">
		<tag k="name" v="Lauvhaugen" />
		<tag k="natural" v="hill" />
		<tag k="place" v="locality" />
		<tag k="ssr:stedsnr" v="795025" />
	</node>
	<node id="-169257" lat="60.4751000034" lon="9.34520277404">
		<tag k="fixme" v="consider natural=peak for the most distinct mountains in the district" />
		<tag k="name" v="Sørfjellet" />
		<tag k="natural" v="hill" />
		<tag k="place" v="locality" />
		<tag k="ssr:stedsnr" v="794331" />
	</node>
	<node id="-169255" lat="60.395558333" lon="9.25944167143">
		<tag k="name" v="Gråås" />
		<tag k="natural" v="hill" />
		<tag k="place" v="locality" />
		<tag k="ssr:stedsnr" v="787413" />
	</node>
	<node id="-169254" lat="60.3990805549" lon="9.31988332728">
		<tag k="name" v="Bratte" />
		<tag k="natural" v="slope" />
		<tag k="place" v="locality" />
		<tag k="ssr:stedsnr" v="787407" />
	</node>
	<node id="-169249" lat="60.3297111117" lon="9.57135556164">
		<tag k="name" v="Nybunatten" />
		<tag k="natural" v="hill" />
		<tag k="place" v="locality" />
		<tag k="ssr:stedsnr" v="787042" />
	</node>
	<node id="-169246" lat="60.4405138927" lon="9.38258055586">
		<tag k="name" v="Trolldalhaugen" />
		<tag k="natural" v="hill" />
		<tag k="place" v="locality" />
		<tag k="ssr:stedsnr" v="785764" />
	</node>
	<node id="-169244" lat="60.4135972189" lon="9.62413610761">
		<tag k="name" v="Tungeremmen" />
		<tag k="natural" v="valley" />
		<tag k="place" v="locality" />
		<tag k="ssr:stedsnr" v="785467" />
	</node>
	<node id="-169242" lat="60.391472225" lon="9.74999166789">
		<tag k="name" v="Åsskar" />
		<tag k="natural" v="valley" />
		<tag k="place" v="locality" />
		<tag k="ssr:stedsnr" v="785459" />
	</node>
	<node id="-169230" lat="60.5301888908" lon="9.39954443852">
		<tag k="name" v="Kvilarhaugen" />
		<tag k="natural" v="hill" />
		<tag k="place" v="locality" />
		<tag k="ssr:stedsnr" v="770710" />
	</node>
	<node id="-169229" lat="60.5352638914" lon="9.35730834003">
		<tag k="name" v="Kvinatten" />
		<tag k="natural" v="hill" />
		<tag k="place" v="locality" />
		<tag k="ssr:stedsnr" v="770708" />
	</node>
	<node id="-169223" lat="60.4789500037" lon="9.44703334058">
		<tag k="name" v="Tvigreinberget" />
		<tag k="place" v="locality" />
		<tag k="ssr:stedsnr" v="768760" />
	</node>
	<node id="-169222" lat="60.5144833296" lon="9.46128889438">
		<tag k="name" v="Stillinghaugen" />
		<tag k="natural" v="hill" />
		<tag k="place" v="locality" />
		<tag k="ssr:stedsnr" v="768711" />
	</node>
	<node id="-169216" lat="60.4290777753" lon="9.44276944388">
		<tag k="name" v="Styggeskar" />
		<tag k="natural" v="valley" />
		<tag k="place" v="locality" />
		<tag k="ssr:stedsnr" v="768228" />
	</node>
	<node id="-169214" lat="60.3165027778" lon="9.63279999661">
		<tag k="name" v="Luterflaten" />
		<tag k="place" v="locality" />
		<tag k="ssr:stedsnr" v="768170" />
	</node>
	<node id="-169210" lat="60.4442611114" lon="9.31285833331">
		<tag k="name" v="Botten" />
		<tag k="place" v="locality" />
		<tag k="ssr:stedsnr" v="767863" />
	</node>
	<node id="-169205" lat="60.5475305579" lon="9.34475277202">
		<tag k="fixme" v="consider natural=peak for the most distinct mountains in the district" />
		<tag k="name" v="Jutulfoten" />
		<tag k="natural" v="hill" />
		<tag k="place" v="locality" />
		<tag k="ssr:stedsnr" v="735871" />
	</node>
	<node id="-169204" lat="60.5194083335" lon="9.47856666903">
		<tag k="name" v="Hallingtjernlii" />
		<tag k="natural" v="slope" />
		<tag k="place" v="locality" />
		<tag k="ssr:stedsnr" v="735771" />
	</node>
	<node id="-169201" lat="60.4145916679" lon="9.59328888807">
		<tag k="fixme" v="consider natural=peak for the most distinct mountains in the district" />
		<tag k="name" v="Turufjellet" />
		<tag k="natural" v="hill" />
		<tag k="place" v="locality" />
		<tag k="ssr:stedsnr" v="735000" />
	</node>
	<node id="-169200" lat="60.4327109572" lon="9.80470870114">
		<tag k="fixme" v="consider natural=peak for the most distinct mountains in the district" />
		<tag k="name" v="Bukollen" />
		<tag k="natural" v="hill" />
		<tag k="place" v="locality" />
		<tag k="ssr:stedsnr" v="734992" />
	</node>
	<node id="-169199" lat="60.4089388906" lon="9.6435888817">
		<tag k="fixme" v="consider natural=peak for the most distinct mountains in the district" />
		<tag k="name" v="Veåsen" />
		<tag k="natural" v="hill" />
		<tag k="place" v="locality" />
		<tag k="ssr:stedsnr" v="734993" />
	</node>
	<node id="-169198" lat="60.4406694464" lon="9.62796110677">
		<tag k="alt_name" v="Lauvhaugan" />
		<tag k="name" v="Lauvhaugen" />
		<tag k="natural" v="hill" />
		<tag k="place" v="locality" />
		<tag k="ssr:stedsnr" v="734990" />
	</node>
	<node id="-169194" lat="60.4496805527" lon="9.80010000879">
		<tag k="fixme" v="consider natural=peak for the most distinct mountains in the district" />
		<tag k="name" v="Gråkollen" />
		<tag k="natural" v="hill" />
		<tag k="place" v="locality" />
		<tag k="ssr:stedsnr" v="734888" />
	</node>
	<node id="-169192" lat="60.3672638878" lon="9.68155556108">
		<tag k="name" v="Oppsalåsen" />
		<tag k="natural" v="hill" />
		<tag k="place" v="locality" />
		<tag k="ssr:stedsnr" v="734804" />
	</node>
	<node id="-169186" lat="60.3790666635" lon="9.16776110401">
		<tag k="fixme" v="consider natural=peak for the most distinct mountains in the district" />
		<tag k="name" v="Flentpiken" />
		<tag k="natural" v="hill" />
		<tag k="place" v="locality" />
		<tag k="ssr:stedsnr" v="734394" />
	</node>
	<node id="-169184" lat="60.4785250042" lon="9.30699999608">
		<tag k="alt_name" v="Damlia" />
		<tag k="name" v="Damlii" />
		<tag k="natural" v="slope" />
		<tag k="place" v="locality" />
		<tag k="ssr:stedsnr" v="734381" />
	</node>
	<node id="-169183" lat="60.488594441" lon="9.45125833419">
		<tag k="name" v="Kippingsmyrhaugen" />
		<tag k="natural" v="hill" />
		<tag k="place" v="locality" />
		<tag k="ssr:stedsnr" v="734362" />
	</node>
	<node id="-169182" lat="60.4956472256" lon="9.33779722445">
		<tag k="fixme" v="consider natural=peak for the most distinct mountains in the district" />
		<tag k="name" v="Skurvenatten" />
		<tag k="natural" v="hill" />
		<tag k="place" v="locality" />
		<tag k="ssr:stedsnr" v="734354" />
	</node>
	<node id="-169174" lat="60.4125166669" lon="9.42705832633">
		<tag k="name" v="Toppen" />
		<tag k="natural" v="hill" />
		<tag k="place" v="locality" />
		<tag k="ssr:stedsnr" v="734234" />
	</node>
	<node id="-169171" lat="60.4206027813" lon="9.30304999226">
		<tag k="name" v="Stavnsflaget" />
		<tag k="place" v="locality" />
		<tag k="ssr:stedsnr" v="734177" />
	</node>
	<node id="-169170" lat="60.4211750014" lon="9.29607499406">
		<tag k="fixme" v="consider natural=peak for the most distinct mountains in the district" />
		<tag k="name" v="Gråås" />
		<tag k="natural" v="hill" />
		<tag k="place" v="locality" />
		<tag k="ssr:stedsnr" v="734175" />
	</node>
	<node id="-169165" lat="60.446230552" lon="9.4629027755">
		<tag k="alt_name" v="Bakko" />
		<tag k="name" v="Bakka" />
		<tag k="natural" v="slope" />
		<tag k="place" v="locality" />
		<tag k="ssr:stedsnr" v="734143" />
	</node>
	<node id="-169163" lat="60.3646999998" lon="9.46469999998">
		<tag k="alt_name" v="Kalvehøyden" />
		<tag k="fixme" v="consider natural=peak for the most distinct mountains in the district" />
		<tag k="name" v="Kalvehøgdi" />
		<tag k="natural" v="hill" />
		<tag k="place" v="locality" />
		<tag k="ssr:stedsnr" v="734022" />
	</node>
	<node id="-169159" lat="60.355300002" lon="9.58990833706">
		<tag k="alt_name" v="Kosaåsen" />
		<tag k="fixme" v="consider natural=peak for the most distinct mountains in the district" />
		<tag k="name" v="Køsaåsen" />
		<tag k="natural" v="hill" />
		<tag k="place" v="locality" />
		<tag k="ssr:stedsnr" v="734010" />
	</node>
	<node id="-169156" lat="60.3311527764" lon="9.55964444294">
		<tag k="name" v="Øvre Posaliflleddene" />
		<tag k="place" v="locality" />
		<tag k="ssr:stedsnr" v="727902" />
	</node>
	<node id="-169155" lat="60.3342972239" lon="9.57609166967">
		<tag k="name" v="Det kvite berget" />
		<tag k="natural" v="hill" />
		<tag k="place" v="locality" />
		<tag k="ssr:stedsnr" v="727900" />
	</node>
	<node id="-169153" lat="60.4025749969" lon="9.32975554742">
		<tag k="name" v="Slemdaljuv" />
		<tag k="natural" v="gorge" />
		<tag k="ssr:stedsnr" v="727380" />
	</node>
	<node id="-169128" lat="60.4123638853" lon="9.80728056383">
		<tag k="name" v="Tungehøgda" />
		<tag k="natural" v="hill" />
		<tag k="place" v="locality" />
		<tag k="ssr:stedsnr" v="724225" />
	</node>
	<node id="-169124" lat="60.4210972241" lon="9.36128611227">
		<tag k="fixme" v="consider natural=peak for the most distinct mountains in the district" />
		<tag k="name" v="Kleivenatten" />
		<tag k="natural" v="hill" />
		<tag k="place" v="locality" />
		<tag k="ssr:stedsnr" v="724051" />
	</node>
	<node id="-169114" lat="60.4958333352" lon="9.36319165897">
		<tag k="alt_name" v="Søndre Sauliskar" />
		<tag k="loc_name" v="Søre Sauliskard" />
		<tag k="name" v="Søre Sauliskar" />
		<tag k="natural" v="valley" />
		<tag k="place" v="locality" />
		<tag k="ssr:stedsnr" v="709536" />
	</node>
	<node id="-169113" lat="60.5486166712" lon="9.38551388088">
		<tag k="name" v="Ormeleini" />
		<tag k="place" v="locality" />
		<tag k="ssr:stedsnr" v="708691" />
	</node>
	<node id="-169111" lat="60.4377277821" lon="9.38926944273">
		<tag k="name" v="Godal" />
		<tag k="place" v="locality" />
		<tag k="ssr:stedsnr" v="707833" />
	</node>
	<node id="-169108" lat="60.3577388885" lon="9.55321389129">
		<tag k="name" v="Kårmolia" />
		<tag k="natural" v="slope" />
		<tag k="place" v="locality" />
		<tag k="ssr:stedsnr" v="707611" />
	</node>
	<node id="-169107" lat="60.3532055584" lon="9.60668889184">
		<tag k="name" v="Veterhøgda" />
		<tag k="place" v="locality" />
		<tag k="ssr:stedsnr" v="707605" />
	</node>
	<node id="-169102" lat="60.3688944423" lon="9.59628334106">
		<tag k="name" v="Slåttehøgda" />
		<tag k="place" v="locality" />
		<tag k="ssr:stedsnr" v="707401" />
	</node>
	<node id="-169099" lat="60.4243749963" lon="9.44690000796">
		<tag k="name" v="Svingelia" />
		<tag k="natural" v="slope" />
		<tag k="place" v="locality" />
		<tag k="ssr:stedsnr" v="707244" />
	</node>
	<node id="-169098" lat="60.3433083347" lon="9.49686111613">
		<tag k="name" v="Pikås" />
		<tag k="natural" v="hill" />
		<tag k="place" v="locality" />
		<tag k="ssr:stedsnr" v="707186" />
	</node>
	<node id="-169097" lat="60.4019444417" lon="9.46632222924">
		<tag k="name" v="Juvet" />
		<tag k="natural" v="gorge" />
		<tag k="ssr:stedsnr" v="703191" />
	</node>
	<node id="-169096" lat="60.395602774" lon="9.533425009">
		<tag k="name" v="Ormeplettåsen" />
		<tag k="natural" v="hill" />
		<tag k="place" v="locality" />
		<tag k="ssr:stedsnr" v="703185" />
	</node>
	<node id="-169095" lat="60.5700611076" lon="9.39311944357">
		<tag k="fixme" v="consider natural=peak for the most distinct mountains in the district" />
		<tag k="name" v="Bringen" />
		<tag k="natural" v="hill" />
		<tag k="place" v="locality" />
		<tag k="ssr:stedsnr" v="675845" />
	</node>
	<node id="-169087" lat="60.3131083319" lon="9.59792778414">
		<tag k="name" v="Nattkvilarhaugen" />
		<tag k="natural" v="hill" />
		<tag k="place" v="locality" />
		<tag k="ssr:stedsnr" v="674813" />
	</node>
	<node id="-169076" lat="60.3545499996" lon="9.26329999505">
		<tag k="fixme" v="consider natural=peak for the most distinct mountains in the district" />
		<tag k="name" v="Småtjernnatten" />
		<tag k="natural" v="hill" />
		<tag k="place" v="locality" />
		<tag k="ssr:stedsnr" v="674022" />
	</node>
	<node id="-169073" lat="60.4205861108" lon="9.60053332874">
		<tag k="name" v="Stillingdalen" />
		<tag k="natural" v="valley" />
		<tag k="place" v="locality" />
		<tag k="ssr:stedsnr" v="673999" />
	</node>
	<node id="-169069" lat="60.4283638852" lon="9.82057500143">
		<tag k="alt_name" v="Veslefjell" />
		<tag k="name" v="Veslefjellet" />
		<tag k="natural" v="hill" />
		<tag k="place" v="locality" />
		<tag k="ssr:stedsnr" v="673969" />
	</node>
	<node id="-169068" lat="60.4522027794" lon="9.62786667196">
		<tag k="alt_name" v="Sørbølsnatten" />
		<tag k="fixme" v="consider natural=peak for the most distinct mountains in the district" />
		<tag k="name" v="Sørbølnatten" />
		<tag k="natural" v="hill" />
		<tag k="place" v="locality" />
		<tag k="ssr:stedsnr" v="673914" />
	</node>
	<node id="-169067" lat="60.4504666645" lon="9.79493333123">
		<tag k="name" v="Brennskardet" />
		<tag k="natural" v="valley" />
		<tag k="place" v="locality" />
		<tag k="ssr:stedsnr" v="673905" />
	</node>
	<node id="-169062" lat="60.3425194406" lon="9.68815833288">
		<tag k="fixme" v="consider natural=peak for the most distinct mountains in the district" />
		<tag k="name" v="Leknesfjellet" />
		<tag k="natural" v="hill" />
		<tag k="place" v="locality" />
		<tag k="ssr:stedsnr" v="673760" />
	</node>
	<node id="-169060" lat="60.3571250038" lon="9.47617499219">
		<tag k="fixme" v="consider natural=peak for the most distinct mountains in the district" />
		<tag k="name" v="Vardefjell" />
		<tag k="natural" v="hill" />
		<tag k="place" v="locality" />
		<tag k="ssr:stedsnr" v="673597" />
	</node>
	<node id="-169059" lat="60.3969555585" lon="9.34083889286">
		<tag k="fixme" v="consider natural=peak for the most distinct mountains in the district" />
		<tag k="name" v="Brennåsen" />
		<tag k="natural" v="hill" />
		<tag k="place" v="locality" />
		<tag k="ssr:stedsnr" v="673595" />
	</node>
	<node id="-169056" lat="60.4708750016" lon="9.29172778317">
		<tag k="fixme" v="consider natural=peak for the most distinct mountains in the district" />
		<tag k="name" v="Kleivetjernåsen" />
		<tag k="natural" v="hill" />
		<tag k="place" v="locality" />
		<tag k="ssr:stedsnr" v="673369" />
	</node>
	<node id="-169055" lat="60.4860999989" lon="9.35982499213">
		<tag k="name" v="Haugesetlii" />
		<tag k="natural" v="slope" />
		<tag k="place" v="locality" />
		<tag k="ssr:stedsnr" v="673360" />
	</node>
	<node id="-169054" lat="60.488999996" lon="9.32987500874">
		<tag k="alt_name" v="Nysæterfjellet" />
		<tag k="fixme" v="consider natural=peak for the most distinct mountains in the district" />
		<tag k="name" v="Nyseterfjellet" />
		<tag k="natural" v="hill" />
		<tag k="place" v="locality" />
		<tag k="ssr:stedsnr" v="673339" />
	</node>
	<node id="-169052" lat="60.4125666629" lon="9.36235277513">
		<tag k="name" v="Klypenatten" />
		<tag k="natural" v="hill" />
		<tag k="place" v="locality" />
		<tag k="ssr:stedsnr" v="673225" />
	</node>
	<node id="-169050" lat="60.4541083345" lon="9.40022778052">
		<tag k="name" v="Svarteli" />
		<tag k="natural" v="slope" />
		<tag k="place" v="locality" />
		<tag k="ssr:stedsnr" v="673172" />
	</node>
	<node id="-169049" lat="60.4525222253" lon="9.39011943684">
		<tag k="name" v="Sørstølhaugen" />
		<tag k="natural" v="hill" />
		<tag k="place" v="locality" />
		<tag k="ssr:stedsnr" v="673169" />
	</node>
	<node id="-169045" lat="60.3279750001" lon="9.44177500414">
		<tag k="fixme" v="consider natural=peak for the most distinct mountains in the district" />
		<tag k="name" v="Fagerlinattan" />
		<tag k="natural" v="hill" />
		<tag k="place" v="locality" />
		<tag k="ssr:stedsnr" v="673055" />
	</node>
	<node id="-169044" lat="60.3346861098" lon="9.58745278167">
		<tag k="fixme" v="consider natural=peak for the most distinct mountains in the district" />
		<tag k="name" v="Høgdin" />
		<tag k="natural" v="hill" />
		<tag k="place" v="locality" />
		<tag k="ssr:stedsnr" v="666885" />
	</node>
	<node id="-169040" lat="60.3727944438" lon="9.39835833583">
		<tag k="name" v="Fjellseterhaugan" />
		<tag k="natural" v="hill" />
		<tag k="place" v="locality" />
		<tag k="ssr:stedsnr" v="666364" />
	</node>
	<node id="-169033" lat="60.4390250028" lon="9.39453610417">
		<tag k="name" v="Bjørneskar" />
		<tag k="place" v="locality" />
		<tag k="ssr:stedsnr" v="664772" />
	</node>
	<node id="-169026" lat="60.4123888885" lon="9.43900277103">
		<tag k="name" v="Fjøsdalen" />
		<tag k="natural" v="valley" />
		<tag k="place" v="locality" />
		<tag k="ssr:stedsnr" v="663227" />
	</node>
	<node id="-169024" lat="60.4230722215" lon="9.42873889368">
		<tag k="name" v="Brennhaugen" />
		<tag k="natural" v="hill" />
		<tag k="place" v="locality" />
		<tag k="ssr:stedsnr" v="663019" />
	</node>
	<node id="-169023" lat="60.4219249981" lon="9.39554444646">
		<tag k="name" v="Skomakerhaugen" />
		<tag k="natural" v="hill" />
		<tag k="place" v="locality" />
		<tag k="ssr:stedsnr" v="663016" />
	</node>
	<node id="-169019" lat="60.4707305522" lon="9.31666110619">
		<tag k="name" v="Helleren" />
		<tag k="natural" v="hill" />
		<tag k="place" v="locality" />
		<tag k="ssr:stedsnr" v="648558" />
	</node>
	<node id="-169018" lat="60.4629305594" lon="9.4140444425">
		<tag k="name" v="Høvet" />
		<tag k="place" v="locality" />
		<tag k="ssr:stedsnr" v="648546" />
	</node>
	<node id="-169016" lat="60.4775833377" lon="9.29520555609">
		<tag k="name" v="Kleiveskar" />
		<tag k="natural" v="valley" />
		<tag k="place" v="locality" />
		<tag k="ssr:stedsnr" v="648516" />
	</node>
	<node id="-169011" lat="60.4337416702" lon="9.32567500774">
		<tag k="name" v="Engehaugen" />
		<tag k="natural" v="hill" />
		<tag k="place" v="locality" />
		<tag k="ssr:stedsnr" v="646828" />
	</node>
	<node id="-169007" lat="60.4352361101" lon="9.42334166075">
		<tag k="name" v="Gjestemolia" />
		<tag k="natural" v="slope" />
		<tag k="place" v="locality" />
		<tag k="ssr:stedsnr" v="646795" />
	</node>
	<node id="-168997" lat="60.3436388867" lon="9.51382499872">
		<tag k="name" v="Langebakke" />
		<tag k="natural" v="slope" />
		<tag k="place" v="locality" />
		<tag k="ssr:stedsnr" v="646160" />
	</node>
	<node id="-168995" lat="60.400627778" lon="9.44403333963">
		<tag k="fixme" v="consider natural=peak for the most distinct mountains in the district" />
		<tag k="name" v="Rudskarvarden" />
		<tag k="natural" v="hill" />
		<tag k="place" v="locality" />
		<tag k="ssr:stedsnr" v="642149" />
	</node>
	<node id="-168991" lat="60.337286114" lon="9.69279445105">
		<tag k="name" v="Gruvedalen" />
		<tag k="natural" v="valley" />
		<tag k="place" v="locality" />
		<tag k="ssr:stedsnr" v="613856" />
	</node>
	<node id="-168990" lat="60.3073666631" lon="9.60702500832">
		<tag k="name" v="Luta" />
		<tag k="natural" v="hill" />
		<tag k="place" v="locality" />
		<tag k="ssr:stedsnr" v="613813" />
	</node>
	<node id="-168985" lat="60.3930083368" lon="9.16315000098">
		<tag k="fixme" v="consider natural=peak for the most distinct mountains in the district" />
		<tag k="name" v="Trøgasetnatten" />
		<tag k="natural" v="hill" />
		<tag k="ssr:stedsnr" v="613358" />
	</node>
	<node id="-168983" lat="60.4164111101" lon="9.52121667421">
		<tag k="fixme" v="multiple name tags, choose one and add the other to alt_name; consider natural=peak for the most distinct mountains in the district" />
		<tag k="name" v="Dugurdsnatten;Store Dugurdsnatten" />
		<tag k="natural" v="hill" />
		<tag k="place" v="locality" />
		<tag k="ssr:stedsnr" v="613209" />
	</node>
	<node id="-168981" lat="60.4313666683" lon="9.44525277984">
		<tag k="name" v="Vikberget" />
		<tag k="natural" v="hill" />
		<tag k="place" v="locality" />
		<tag k="ssr:stedsnr" v="613164" />
	</node>
	<node id="-168978" lat="60.370098768" lon="9.27062854324">
		<tag k="alt_name" v="Tollefsrudfjell" />
		<tag k="fixme" v="consider natural=peak for the most distinct mountains in the district" />
		<tag k="name" v="Tollevsrudfjellet" />
		<tag k="natural" v="hill" />
		<tag k="place" v="locality" />
		<tag k="ssr:stedsnr" v="613025" />
	</node>
	<node id="-168977" lat="60.3430313016" lon="9.50357469933">
		<tag k="fixme" v="consider natural=peak for the most distinct mountains in the district" />
		<tag k="name" v="Pika" />
		<tag k="natural" v="hill" />
		<tag k="ssr:stedsnr" v="613021" />
	</node>
	<node id="-168970" lat="60.4511805564" lon="9.71953333581">
		<tag k="fixme" v="consider natural=peak for the most distinct mountains in the district" />
		<tag k="name" v="Nautskardfjellet" />
		<tag k="natural" v="hill" />
		<tag k="place" v="locality" />
		<tag k="ssr:stedsnr" v="612910" />
	</node>
	<node id="-168960" lat="60.48219444" lon="9.32099167202">
		<tag k="alt_name" v="Grønskardalen" />
		<tag k="name" v="Grønskarddalen" />
		<tag k="natural" v="valley" />
		<tag k="place" v="locality" />
		<tag k="ssr:stedsnr" v="612354" />
	</node>
	<node id="-168951" lat="60.3110749965" lon="9.50537499172">
		<tag k="fixme" v="consider natural=peak for the most distinct mountains in the district" />
		<tag k="name" v="Hesteleinnattan" />
		<tag k="natural" v="hill" />
		<tag k="place" v="locality" />
		<tag k="ssr:stedsnr" v="612056" />
	</node>
	<node id="-168950" lat="60.323599996" lon="9.5599694441">
		<tag k="alt_name" v="Hestejuvnatten" />
		<tag k="fixme" v="consider natural=peak for the most distinct mountains in the district" />
		<tag k="name" v="Hestgjuvnatten" />
		<tag k="natural" v="hill" />
		<tag k="place" v="locality" />
		<tag k="ssr:stedsnr" v="612044" />
	</node>
	<node id="-168949" lat="60.3145749984" lon="9.487800005">
		<tag k="fixme" v="consider natural=peak for the most distinct mountains in the district" />
		<tag k="name" v="Sauvallnattan" />
		<tag k="natural" v="hill" />
		<tag k="place" v="locality" />
		<tag k="ssr:stedsnr" v="612041" />
	</node>
	<node id="-168936" lat="60.4249555511" lon="9.26316388662">
		<tag k="name" v="Høgeli" />
		<tag k="natural" v="slope" />
		<tag k="place" v="locality" />
		<tag k="ssr:stedsnr" v="603019" />
	</node>
	<node id="-168931" lat="60.4257777773" lon="9.3362749945">
		<tag k="name" v="Hagamoen" />
		<tag k="place" v="locality" />
		<tag k="ssr:stedsnr" v="602055" />
	</node>
	<node id="-168926" lat="60.5051499966" lon="9.32149166252">
		<tag k="name" v="Rolighøl" />
		<tag k="place" v="locality" />
		<tag k="ssr:stedsnr" v="588704" />
	</node>
	<node id="-168925" lat="60.4688777742" lon="9.39486110921">
		<tag k="name" v="Kullhushaugen" />
		<tag k="natural" v="hill" />
		<tag k="place" v="locality" />
		<tag k="ssr:stedsnr" v="587604" />
	</node>
	<node id="-168922" lat="60.4912194466" lon="9.30830555998">
		<tag k="name" v="Lunningslia" />
		<tag k="natural" v="slope" />
		<tag k="place" v="locality" />
		<tag k="ssr:stedsnr" v="587544" />
	</node>
	<node id="-168921" lat="60.4776055596" lon="9.32809722201">
		<tag k="name" v="Svaretjernlia" />
		<tag k="natural" v="slope" />
		<tag k="place" v="locality" />
		<tag k="ssr:stedsnr" v="587541" />
	</node>
	<node id="-168912" lat="60.3758555594" lon="9.55622222624">
		<tag k="name" v="Langeberget" />
		<tag k="natural" v="ridge" />
		<tag k="place" v="locality" />
		<tag k="ssr:stedsnr" v="586380" />
	</node>
	<node id="-168906" lat="60.432916664" lon="9.30301389495">
		<tag k="name" v="Rantene" />
		<tag k="place" v="locality" />
		<tag k="ssr:stedsnr" v="585865" />
	</node>
	<node id="-168905" lat="60.440013888" lon="9.3047138904">
		<tag k="name" v="Seterdalen" />
		<tag k="natural" v="valley" />
		<tag k="place" v="locality" />
		<tag k="ssr:stedsnr" v="585863" />
	</node>
	<node id="-168902" lat="60.3619972179" lon="9.541647221">
		<tag k="name" v="Bjønnedalen" />
		<tag k="natural" v="valley" />
		<tag k="place" v="locality" />
		<tag k="ssr:stedsnr" v="585562" />
	</node>
	<node id="-168901" lat="60.3473499982" lon="9.59900555407">
		<tag k="name" v="Halsåsen" />
		<tag k="natural" v="cliff" />
		<tag k="ssr:stedsnr" v="585557" />
	</node>
	<node id="-168895" lat="60.3189111086" lon="9.57898889671">
		<tag k="name" v="Styggdalen" />
		<tag k="natural" v="valley" />
		<tag k="place" v="locality" />
		<tag k="ssr:stedsnr" v="585164" />
	</node>
	<node id="-168891" lat="60.3920027792" lon="9.75937777684">
		<tag k="fixme" v="consider natural=peak for the most distinct mountains in the district" />
		<tag k="name" v="Rabben" />
		<tag k="natural" v="hill" />
		<tag k="place" v="locality" />
		<tag k="ssr:stedsnr" v="552985" />
	</node>
	<node id="-168881" lat="60.4780555596" lon="9.34963889585">
		<tag k="alt_name" v="Okseskar" />
		<tag k="name" v="Okseskard" />
		<tag k="natural" v="valley" />
		<tag k="place" v="locality" />
		<tag k="ssr:stedsnr" v="552372" />
	</node>
	<node id="-168880" lat="60.4915777761" lon="9.3911694528">
		<tag k="fixme" v="consider natural=peak for the most distinct mountains in the district" />
		<tag k="name" v="Hovden" />
		<tag k="natural" v="hill" />
		<tag k="place" v="locality" />
		<tag k="ssr:stedsnr" v="552358" />
	</node>
	<node id="-168878" lat="60.3827805554" lon="9.5517166647">
		<tag k="fixme" v="multiple name tags, choose one and add the other to alt_name; consider natural=peak for the most distinct mountains in the district" />
		<tag k="name" v="Gandrudnatten;Geitenatten" />
		<tag k="natural" v="hill" />
		<tag k="place" v="locality" />
		<tag k="ssr:stedsnr" v="552255" />
	</node>
	<node id="-168872" lat="60.4057805575" lon="9.2920694517">
		<tag k="alt_name" v="Ravnjuvet" />
		<tag k="name" v="Ramnsgjuvet" />
		<tag k="natural" v="gorge" />
		<tag k="ssr:stedsnr" v="552221" />
	</node>
	<node id="-168865" lat="60.357250002" lon="9.31484999464">
		<tag k="name" v="Tovehaugen" />
		<tag k="natural" v="hill" />
		<tag k="place" v="locality" />
		<tag k="ssr:stedsnr" v="552043" />
	</node>
	<node id="-168860" lat="60.3793333365" lon="9.13447221481">
		<tag k="fixme" v="consider natural=peak for the most distinct mountains in the district" />
		<tag k="name" v="Delesnatten" />
		<tag k="natural" v="hill" />
		<tag k="place" v="locality" />
		<tag k="ssr:stedsnr" v="551356" />
	</node>
	<node id="-168859" lat="60.4673749985" lon="9.32048054704">
		<tag k="fixme" v="consider natural=peak for the most distinct mountains in the district" />
		<tag k="name" v="Tjuvhovden" />
		<tag k="natural" v="hill" />
		<tag k="place" v="locality" />
		<tag k="ssr:stedsnr" v="551353" />
	</node>
	<node id="-168853" lat="60.3665055524" lon="9.22355278041">
		<tag k="name" v="Hallingnatten" />
		<tag k="natural" v="hill" />
		<tag k="place" v="locality" />
		<tag k="ssr:stedsnr" v="544397" />
	</node>
	<node id="-168850" lat="60.3763500024" lon="9.27363611827">
		<tag k="name" v="Hesteskar" />
		<tag k="natural" v="valley" />
		<tag k="place" v="locality" />
		<tag k="ssr:stedsnr" v="544369" />
	</node>
	<node id="-168847" lat="60.4059944486" lon="9.3450555618">
		<tag k="name" v="Rakhalsjuvet" />
		<tag k="natural" v="gorge" />
		<tag k="ssr:stedsnr" v="544139" />
	</node>
	<node id="-168839" lat="60.4441027814" lon="9.45187777451">
		<tag k="name" v="Heimoen" />
		<tag k="place" v="locality" />
		<tag k="ssr:stedsnr" v="542978" />
	</node>
	<node id="-168832" lat="60.5327611093" lon="9.56714999408">
		<tag k="name" v="Skriusand" />
		<tag k="place" v="locality" />
		<tag k="ssr:stedsnr" v="542288" />
	</node>
	<node id="-168828" lat="60.4344416672" lon="9.69069999342">
		<tag k="name" v="Haraberga" />
		<tag k="natural" v="hill" />
		<tag k="place" v="locality" />
		<tag k="ssr:stedsnr" v="542241" />
	</node>
	<node id="-168827" lat="60.4147833344" lon="9.43710833636">
		<tag k="name" v="Oddevolljuvet" />
		<tag k="natural" v="valley" />
		<tag k="place" v="locality" />
		<tag k="ssr:stedsnr" v="542226" />
	</node>
	<node id="-168823" lat="60.4261555583" lon="9.35732778431">
		<tag k="name" v="Dansarberget" />
		<tag k="place" v="locality" />
		<tag k="ssr:stedsnr" v="542049" />
	</node>
	<node id="-168822" lat="60.4226749965" lon="9.30518610826">
		<tag k="name" v="Bekkeflag" />
		<tag k="place" v="locality" />
		<tag k="ssr:stedsnr" v="542039" />
	</node>
	<node id="-168821" lat="60.4178277804" lon="9.23419999818">
		<tag k="fixme" v="consider natural=peak for the most distinct mountains in the district" />
		<tag k="name" v="Skomakernatten" />
		<tag k="natural" v="hill" />
		<tag k="place" v="locality" />
		<tag k="ssr:stedsnr" v="542035" />
	</node>
	<node id="-168813" lat="60.4981638911" lon="9.33655000719">
		<tag k="name" v="Oseleina" />
		<tag k="natural" v="slope" />
		<tag k="place" v="locality" />
		<tag k="ssr:stedsnr" v="527714" />
	</node>
	<node id="-168811" lat="60.5455472195" lon="9.3820138921">
		<tag k="name" v="Slaen" />
		<tag k="place" v="locality" />
		<tag k="ssr:stedsnr" v="525687" />
	</node>
	<node id="-168810" lat="60.5437472265" lon="9.3615777787">
		<tag k="name" v="Domfetkirka" />
		<tag k="natural" v="hill" />
		<tag k="place" v="locality" />
		<tag k="ssr:stedsnr" v="525670" />
	</node>
	<node id="-168809" lat="60.3478638857" lon="9.50089999177">
		<tag k="name" v="Grasliskar" />
		<tag k="natural" v="valley" />
		<tag k="place" v="locality" />
		<tag k="ssr:stedsnr" v="525605" />
	</node>
	<node id="-168805" lat="60.3552361148" lon="9.6499861048">
		<tag k="name" v="Sønstebydalen" />
		<tag k="natural" v="valley" />
		<tag k="place" v="locality" />
		<tag k="ssr:stedsnr" v="525581" />
	</node>
	<node id="-168797" lat="60.3916500041" lon="9.54121665962">
		<tag k="name" v="Jøteplett" />
		<tag k="place" v="locality" />
		<tag k="ssr:stedsnr" v="521161" />
	</node>
	<node id="-168796" lat="60.3201333327" lon="9.59908610687">
		<tag k="fixme" v="consider natural=peak for the most distinct mountains in the district" />
		<tag k="name" v="Hallingtjernpika" />
		<tag k="natural" v="hill" />
		<tag k="place" v="locality" />
		<tag k="ssr:stedsnr" v="492873" />
	</node>
	<node id="-168791" lat="60.5155388845" lon="9.44121666486">
		<tag k="fixme" v="consider natural=peak for the most distinct mountains in the district" />
		<tag k="name" v="Kraknatten" />
		<tag k="natural" v="hill" />
		<tag k="place" v="locality" />
		<tag k="ssr:stedsnr" v="492770" />
	</node>
	<node id="-168790" lat="60.5182722229" lon="9.4989388836">
		<tag k="alt_name" v="Styggdalen" />
		<tag k="name" v="Styggedalen" />
		<tag k="natural" v="valley" />
		<tag k="place" v="locality" />
		<tag k="ssr:stedsnr" v="492767" />
	</node>
	<node id="-168788" lat="60.5228666664" lon="9.39227777424">
		<tag k="fixme" v="consider natural=peak for the most distinct mountains in the district" />
		<tag k="name" v="Likkistefjellet" />
		<tag k="natural" v="hill" />
		<tag k="place" v="locality" />
		<tag k="ssr:stedsnr" v="492763" />
	</node>
	<node id="-168783" lat="60.3562249987" lon="9.38697500171">
		<tag k="name" v="Steinrullarnatten" />
		<tag k="natural" v="hill" />
		<tag k="place" v="locality" />
		<tag k="ssr:stedsnr" v="492018" />
	</node>
	<node id="-168782" lat="60.3506472207" lon="9.56592223094">
		<tag k="fixme" v="consider natural=peak for the most distinct mountains in the district" />
		<tag k="name" v="Middagsnatten" />
		<tag k="natural" v="hill" />
		<tag k="place" v="locality" />
		<tag k="ssr:stedsnr" v="492012" />
	</node>
	<node id="-168775" lat="60.4613027738" lon="9.3010222152">
		<tag k="name" v="Ostebekklia" />
		<tag k="natural" v="slope" />
		<tag k="place" v="locality" />
		<tag k="ssr:stedsnr" v="491391" />
	</node>
	<node id="-168774" lat="60.4662250023" lon="9.41963334043">
		<tag k="fixme" v="consider natural=peak for the most distinct mountains in the district" />
		<tag k="name" v="Brennun" />
		<tag k="natural" v="hill" />
		<tag k="place" v="locality" />
		<tag k="ssr:stedsnr" v="491389" />
	</node>
	<node id="-168773" lat="60.4606694482" lon="9.41341666916">
		<tag k="alt_name" v="Kvisæternatten" />
		<tag k="fixme" v="consider natural=peak for the most distinct mountains in the district" />
		<tag k="name" v="Kviseternatten" />
		<tag k="natural" v="hill" />
		<tag k="place" v="locality" />
		<tag k="ssr:stedsnr" v="491388" />
	</node>
	<node id="-168771" lat="60.4632194475" lon="9.29045833425">
		<tag k="name" v="Nøbberensleåsen" />
		<tag k="natural" v="hill" />
		<tag k="place" v="locality" />
		<tag k="ssr:stedsnr" v="491383" />
	</node>
	<node id="-168765" lat="60.4555194445" lon="9.36250555106">
		<tag k="fixme" v="consider natural=peak for the most distinct mountains in the district" />
		<tag k="name" v="Rimenatten" />
		<tag k="natural" v="hill" />
		<tag k="place" v="locality" />
		<tag k="ssr:stedsnr" v="491171" />
	</node>
	<node id="-168760" lat="60.3275194435" lon="9.52126667035">
		<tag k="name" v="Vindnor" />
		<tag k="place" v="locality" />
		<tag k="ssr:stedsnr" v="491057" />
	</node>
	<node id="-168755" lat="60.4100777761" lon="9.29795277951">
		<tag k="alt_name" v="Åsjuvet" />
		<tag k="name" v="Åsgjuvet" />
		<tag k="natural" v="gorge" />
		<tag k="ssr:stedsnr" v="491218" />
	</node>
	<node id="-168752" lat="60.3808444428" lon="9.27974722815">
		<tag k="name" v="Venelidalen" />
		<tag k="natural" v="valley" />
		<tag k="place" v="locality" />
		<tag k="ssr:stedsnr" v="484345" />
	</node>
	<node id="-168751" lat="60.3832000037" lon="9.34341665977">
		<tag k="name" v="Langelitjernnatten" />
		<tag k="natural" v="hill" />
		<tag k="place" v="locality" />
		<tag k="ssr:stedsnr" v="484343" />
	</node>
	<node id="-168749" lat="60.4067027745" lon="9.33502500647">
		<tag k="name" v="Herbrandsbråtelia" />
		<tag k="natural" v="slope" />
		<tag k="place" v="locality" />
		<tag k="ssr:stedsnr" v="484124" />
	</node>
	<node id="-168739" lat="60.4315055544" lon="9.83220833429">
		<tag k="name" v="Storejuv" />
		<tag k="natural" v="gorge" />
		<tag k="ssr:stedsnr" v="481275" />
	</node>
	<node id="-168729" lat="60.4771972196" lon="9.35428889472">
		<tag k="name" v="Huldraflaget" />
		<tag k="old_name" v="Hudraflake;Hudraflaget" />
		<tag k="place" v="locality" />
		<tag k="ssr:stedsnr" v="466568" />
	</node>
	<node id="-168728" lat="60.4604694456" lon="9.38396110524">
		<tag k="name" v="Stillenatten" />
		<tag k="natural" v="hill" />
		<tag k="place" v="locality" />
		<tag k="ssr:stedsnr" v="466562" />
	</node>
	<node id="-168727" lat="60.5407749979" lon="9.35423610446">
		<tag k="fixme" v="consider natural=peak for the most distinct mountains in the district" />
		<tag k="name" v="Rakkegrasåsen" />
		<tag k="natural" v="hill" />
		<tag k="place" v="locality" />
		<tag k="ssr:stedsnr" v="465691" />
	</node>
	<node id="-168726" lat="60.3521861107" lon="9.7919305499">
		<tag k="name" v="Tranetjernlia" />
		<tag k="natural" v="slope" />
		<tag k="place" v="locality" />
		<tag k="ssr:stedsnr" v="465560" />
	</node>
	<node id="-168715" lat="60.3988361139" lon="9.44834721827">
		<tag k="name" v="Rudskar" />
		<tag k="natural" v="valley" />
		<tag k="place" v="locality" />
		<tag k="ssr:stedsnr" v="461155" />
	</node>
	<node id="-168714" lat="60.4083500013" lon="9.44384999217">
		<tag k="fixme" v="consider natural=peak for the most distinct mountains in the district" />
		<tag k="name" v="Midtinatten" />
		<tag k="natural" v="hill" />
		<tag k="place" v="locality" />
		<tag k="ssr:stedsnr" v="460203" />
	</node>
	<node id="-168712" lat="60.544799998" lon="9.40703055296">
		<tag k="fixme" v="consider natural=peak for the most distinct mountains in the district" />
		<tag k="name" v="Nedre Nevlinghaugen" />
		<tag k="natural" v="hill" />
		<tag k="place" v="locality" />
		<tag k="ssr:stedsnr" v="432869" />
	</node>
	<node id="-168710" lat="60.5021833373" lon="9.35406388733">
		<tag k="name" v="Langeleina" />
		<tag k="natural" v="slope" />
		<tag k="place" v="locality" />
		<tag k="ssr:stedsnr" v="432780" />
	</node>
	<node id="-168708" lat="60.5168472249" lon="9.34776110923">
		<tag k="alt_name" v="Saulifjell" />
		<tag k="fixme" v="consider natural=peak for the most distinct mountains in the district" />
		<tag k="name" v="Saulifjellet" />
		<tag k="natural" v="hill" />
		<tag k="place" v="locality" />
		<tag k="ssr:stedsnr" v="432766" />
	</node>
	<node id="-168705" lat="60.4211472232" lon="9.71887500014">
		<tag k="fixme" v="multiple name tags, choose one and add the other to alt_name" />
		<tag k="name" v="Roligholkollen;Rolihølnatten" />
		<tag k="natural" v="hill" />
		<tag k="place" v="locality" />
		<tag k="ssr:stedsnr" v="431998" />
	</node>
	<node id="-168703" lat="60.3921499981" lon="9.68333889064">
		<tag k="fixme" v="multiple name tags, choose one and add the other to alt_name; consider natural=peak for the most distinct mountains in the district" />
		<tag k="name" v="Øllesjuåsen;Ølløvsgjuvåsen" />
		<tag k="natural" v="hill" />
		<tag k="place" v="locality" />
		<tag k="ssr:stedsnr" v="431972" />
	</node>
	<node id="-168701" lat="60.4808027753" lon="9.67125000603">
		<tag k="name" v="Pika" />
		<tag k="natural" v="hill" />
		<tag k="place" v="locality" />
		<tag k="ssr:stedsnr" v="431940" />
	</node>
	<node id="-168696" lat="60.3467194476" lon="9.69707222823">
		<tag k="fixme" v="consider natural=peak for the most distinct mountains in the district" />
		<tag k="name" v="Sæteråsen" />
		<tag k="natural" v="hill" />
		<tag k="place" v="locality" />
		<tag k="ssr:stedsnr" v="431800" />
	</node>
	<node id="-168694" lat="60.4832222262" lon="9.34090832795">
		<tag k="alt_name" v="Heimskar" />
		<tag k="name" v="Heimskard" />
		<tag k="natural" v="valley" />
		<tag k="place" v="locality" />
		<tag k="ssr:stedsnr" v="431357" />
	</node>
	<node id="-168685" lat="60.4039916677" lon="9.3624027772">
		<tag k="name" v="Slåttemyrhaugen" />
		<tag k="natural" v="hill" />
		<tag k="place" v="locality" />
		<tag k="ssr:stedsnr" v="431217" />
	</node>
	<node id="-168679" lat="60.4571694415" lon="9.44860554978">
		<tag k="fixme" v="consider natural=peak for the most distinct mountains in the district" />
		<tag k="name" v="Nysetåsen" />
		<tag k="natural" v="hill" />
		<tag k="place" v="locality" />
		<tag k="ssr:stedsnr" v="431170" />
	</node>
	<node id="-168678" lat="60.4445500043" lon="9.39912499439">
		<tag k="alt_name" v="Raukollen" />
		<tag k="fixme" v="consider natural=peak for the most distinct mountains in the district" />
		<tag k="name" v="Raudkollen" />
		<tag k="natural" v="hill" />
		<tag k="place" v="locality" />
		<tag k="ssr:stedsnr" v="431160" />
	</node>
	<node id="-168673" lat="60.3387750018" lon="9.51554167158">
		<tag k="fixme" v="consider natural=peak for the most distinct mountains in the district" />
		<tag k="name" v="Brennåsen" />
		<tag k="natural" v="hill" />
		<tag k="place" v="locality" />
		<tag k="ssr:stedsnr" v="431061" />
	</node>
	<node id="-168671" lat="60.3683472179" lon="9.53464721858">
		<tag k="fixme" v="consider natural=peak for the most distinct mountains in the district" />
		<tag k="name" v="Kastet" />
		<tag k="natural" v="hill" />
		<tag k="place" v="locality" />
		<tag k="ssr:stedsnr" v="431037" />
	</node>
	<node id="-168666" lat="60.4339222212" lon="9.8350666704">
		<tag k="alt_name" v="Kavringnatten" />
		<tag k="name" v="Kavringhatten" />
		<tag k="natural" v="hill" />
		<tag k="place" v="locality" />
		<tag k="ssr:stedsnr" v="430981" />
	</node>
	<node id="-168663" lat="60.4672944452" lon="9.54145555869">
		<tag k="fixme" v="consider natural=peak for the most distinct mountains in the district" />
		<tag k="name" v="Kristnatten" />
		<tag k="natural" v="hill" />
		<tag k="place" v="locality" />
		<tag k="ssr:stedsnr" v="430361" />
	</node>
	<node id="-168662" lat="60.4648166705" lon="9.39010278689">
		<tag k="name" v="Stormyrhaugen" />
		<tag k="natural" v="hill" />
		<tag k="place" v="locality" />
		<tag k="ssr:stedsnr" v="430359" />
	</node>
	<node id="-168653" lat="60.3675694446" lon="9.43832778228">
		<tag k="name" v="Fluguseterhaugen" />
		<tag k="natural" v="hill" />
		<tag k="place" v="locality" />
		<tag k="ssr:stedsnr" v="423397" />
	</node>
	<node id="-168652" lat="60.3705583351" lon="9.34669166926">
		<tag k="name" v="Blåbærhaugen" />
		<tag k="natural" v="hill" />
		<tag k="place" v="locality" />
		<tag k="ssr:stedsnr" v="423393" />
	</node>
	<node id="-168651" lat="60.3827583324" lon="9.40807499333">
		<tag k="name" v="Slettelie" />
		<tag k="natural" v="slope" />
		<tag k="place" v="locality" />
		<tag k="ssr:stedsnr" v="423384" />
	</node>
	<node id="-168649" lat="60.4047222235" lon="9.4220722221">
		<tag k="name" v="Golingsbrenna" />
		<tag k="place" v="locality" />
		<tag k="ssr:stedsnr" v="423174" />
	</node>
	<node id="-168648" lat="60.4036638933" lon="9.3465916683">
		<tag k="name" v="Samuelsli" />
		<tag k="natural" v="slope" />
		<tag k="place" v="locality" />
		<tag k="ssr:stedsnr" v="423164" />
	</node>
	<node id="-168643" lat="60.4421749995" lon="9.40418610903">
		<tag k="name" v="Halvardskar" />
		<tag k="natural" v="valley" />
		<tag k="place" v="locality" />
		<tag k="ssr:stedsnr" v="421784" />
	</node>
	<node id="-168637" lat="60.4316250035" lon="9.63972221405">
		<tag k="fixme" v="consider natural=peak for the most distinct mountains in the district" />
		<tag k="name" v="Moltetjernåsen" />
		<tag k="natural" v="hill" />
		<tag k="place" v="locality" />
		<tag k="ssr:stedsnr" v="421309" />
	</node>
	<node id="-168635" lat="60.4441472253" lon="9.81075833978">
		<tag k="name" v="Brennskaret" />
		<tag k="natural" v="valley" />
		<tag k="place" v="locality" />
		<tag k="ssr:stedsnr" v="421265" />
	</node>
	<node id="-168633" lat="60.4124083306" lon="9.43331944114">
		<tag k="name" v="Hestebakke" />
		<tag k="natural" v="slope" />
		<tag k="place" v="locality" />
		<tag k="ssr:stedsnr" v="421219" />
	</node>
	<node id="-168631" lat="60.4192055518" lon="9.3102944515">
		<tag k="name" v="Svarteflag" />
		<tag k="place" v="locality" />
		<tag k="ssr:stedsnr" v="421031" />
	</node>
	<node id="-168629" lat="60.415733333" lon="9.33246666707">
		<tag k="name" v="Raunekastet" />
		<tag k="place" v="locality" />
		<tag k="ssr:stedsnr" v="421003" />
	</node>
	<node id="-168622" lat="60.3421083304" lon="9.74764444001">
		<tag k="alt_name" v="Titjernhøgda" />
		<tag k="fixme" v="consider natural=peak for the most distinct mountains in the district" />
		<tag k="name" v="Titjernhøgdi" />
		<tag k="natural" v="hill" />
		<tag k="place" v="locality" />
		<tag k="ssr:stedsnr" v="249856" />
	</node>
	<node id="-168615" lat="60.3895972217" lon="9.34538889397">
		<tag k="alt_name" v="Ufsan" />
		<tag k="name" v="Ufsin" />
		<tag k="natural" v="hill" />
		<tag k="place" v="locality" />
		<tag k="ssr:stedsnr" v="249208" />
	</node>
	<node id="-168614" lat="60.3694027795" lon="9.42822500825">
		<tag k="alt_name" v="Geitlii" />
		<tag k="name" v="Geitlie" />
		<tag k="natural" v="slope" />
		<tag k="place" v="locality" />
		<tag k="ssr:stedsnr" v="249204" />
	</node>
	<node id="-168605" lat="60.448869443" lon="9.46075832683">
		<tag k="alt_name" v="Juvet" />
		<tag k="name" v="Gjuvet" />
		<tag k="natural" v="gorge" />
		<tag k="ssr:stedsnr" v="249126" />
	</node>
	<node id="-168603" lat="60.3158250021" lon="9.57804443633">
		<tag k="fixme" v="multiple name tags, choose one and add the other to alt_name" />
		<tag k="name" v="Snedfjell;Snøfjell" />
		<tag k="natural" v="hill" />
		<tag k="place" v="locality" />
		<tag k="ssr:stedsnr" v="249041" />
	</node>
	<node id="-168602" lat="60.360252777" lon="9.41112777032">
		<tag k="fixme" v="consider natural=peak for the most distinct mountains in the district" />
		<tag k="name" v="Skåpleinun" />
		<tag k="natural" v="hill" />
		<tag k="place" v="locality" />
		<tag k="ssr:stedsnr" v="249015" />
	</node>
	<node id="-168599" lat="60.4960722246" lon="9.44814167177">
		<tag k="alt_name" v="Tungemyrberga" />
		<tag k="name" v="Tungemyrbergi" />
		<tag k="natural" v="slope" />
		<tag k="place" v="locality" />
		<tag k="ssr:stedsnr" v="248307" />
	</node>
	<node id="-168595" lat="60.4118444477" lon="9.53621389719">
		<tag k="name" v="Torvberget" />
		<tag k="natural" v="hill" />
		<tag k="place" v="locality" />
		<tag k="ssr:stedsnr" v="248192" />
	</node>
	<node id="-168593" lat="60.4048083363" lon="9.29732500611">
		<tag k="name" v="Høge Bjørnehaug" />
		<tag k="natural" v="hill" />
		<tag k="place" v="locality" />
		<tag k="ssr:stedsnr" v="241379" />
	</node>
	<node id="-168589" lat="60.4490749956" lon="9.51468888967">
		<tag k="name" v="Turufjellskar" />
		<tag k="natural" v="valley" />
		<tag k="place" v="locality" />
		<tag k="ssr:stedsnr" v="239973" />
	</node>
	<node id="-168582" lat="60.3670333341" lon="9.32403054696">
		<tag k="name" v="Bufarhaugen" />
		<tag k="natural" v="hill" />
		<tag k="place" v="locality" />
		<tag k="ssr:stedsnr" v="239330" />
	</node>
	<node id="-168580" lat="60.4553944475" lon="9.59270555422">
		<tag k="name" v="Svangtjernlia" />
		<tag k="natural" v="slope" />
		<tag k="place" v="locality" />
		<tag k="ssr:stedsnr" v="239267" />
	</node>
	<node id="-168574" lat="60.4160444483" lon="9.41375833681">
		<tag k="name" v="Juvet" />
		<tag k="place" v="locality" />
		<tag k="ssr:stedsnr" v="239020" />
	</node>
	<node id="-168569" lat="60.5200361095" lon="9.38654167439">
		<tag k="name" v="Saulibraute" />
		<tag k="place" v="locality" />
		<tag k="ssr:stedsnr" v="224694" />
	</node>
	<node id="-168567" lat="60.4595027799" lon="9.36347777339">
		<tag k="name" v="Nedre Grøvskar" />
		<tag k="natural" v="valley" />
		<tag k="place" v="locality" />
		<tag k="ssr:stedsnr" v="223628" />
	</node>
	<node id="-168562" lat="60.4610833302" lon="9.39202221811">
		<tag k="name" v="Raubekkoddane" />
		<tag k="place" v="locality" />
		<tag k="ssr:stedsnr" v="223572" />
	</node>
	<node id="-168561" lat="60.4697083298" lon="9.38419721919">
		<tag k="name" v="Stormyrhaugen" />
		<tag k="natural" v="hill" />
		<tag k="place" v="locality" />
		<tag k="ssr:stedsnr" v="223561" />
	</node>
	<node id="-168560" lat="60.4785194415" lon="9.3181722243">
		<tag k="name" v="Seterlia" />
		<tag k="natural" v="slope" />
		<tag k="place" v="locality" />
		<tag k="ssr:stedsnr" v="223531" />
	</node>
	<node id="-168559" lat="60.4357587212" lon="9.34446763436">
		<tag k="loc_name" v="Skardet" />
		<tag k="name" v="Skaret" />
		<tag k="natural" v="valley" />
		<tag k="place" v="locality" />
		<tag k="ssr:stedsnr" v="222839" />
	</node>
	<node id="-168558" lat="60.4437055517" lon="9.32363055835">
		<tag k="name" v="Spjutskjefte" />
		<tag k="place" v="locality" />
		<tag k="ssr:stedsnr" v="222813" />
	</node>
	<node id="-168557" lat="60.4331444417" lon="9.42598333107">
		<tag k="name" v="Åsen" />
		<tag k="natural" v="slope" />
		<tag k="place" v="locality" />
		<tag k="ssr:stedsnr" v="222803" />
	</node>
	<node id="-168554" lat="60.4858999982" lon="9.3955777816">
		<tag k="name" v="Høvdehøl" />
		<tag k="place" v="locality" />
		<tag k="ssr:stedsnr" v="222722" />
	</node>
	<node id="-168546" lat="60.474100577" lon="9.60072455102">
		<tag k="fixme" v="consider natural=peak for the most distinct mountains in the district" />
		<tag k="name" v="Sørbølfjellet" />
		<tag k="natural" v="hill" />
		<tag k="place" v="locality" />
		<tag k="ssr:stedsnr" v="222271" />
	</node>
	<node id="-168542" lat="60.516766663" lon="9.43441388755">
		<tag k="alt_name" v="Raufjell" />
		<tag k="fixme" v="consider natural=peak for the most distinct mountains in the district" />
		<tag k="name" v="Raudfjellet" />
		<tag k="natural" v="hill" />
		<tag k="place" v="locality" />
		<tag k="ssr:stedsnr" v="189749" />
	</node>
	<node id="-168541" lat="60.5334445926" lon="9.43847347727">
		<tag k="alt_name" v="Steinhyttlia" />
		<tag k="name" v="Steinhyttlii" />
		<tag k="natural" v="slope" />
		<tag k="place" v="locality" />
		<tag k="ssr:stedsnr" v="189729" />
	</node>
	<node id="-168535" lat="60.3639583362" lon="9.67859999703">
		<tag k="fixme" v="consider natural=peak for the most distinct mountains in the district" />
		<tag k="name" v="Delesåsen" />
		<tag k="natural" v="hill" />
		<tag k="place" v="locality" />
		<tag k="ssr:stedsnr" v="188831" />
	</node>
	<node id="-168528" lat="60.4803000018" lon="9.3852750016">
		<tag k="fixme" v="multiple name tags, choose one and add the other to alt_name" />
		<tag k="name" v="Brattebakklii;Brattlia" />
		<tag k="natural" v="slope" />
		<tag k="place" v="locality" />
		<tag k="ssr:stedsnr" v="188370" />
	</node>
	<node id="-168525" lat="60.4096749982" lon="9.52172499426">
		<tag k="fixme" v="consider natural=peak for the most distinct mountains in the district" />
		<tag k="name" v="Vesle Dugurdsnatten" />
		<tag k="natural" v="hill" />
		<tag k="place" v="locality" />
		<tag k="ssr:stedsnr" v="188227" />
	</node>
	<node id="-168516" lat="60.4483527734" lon="9.26644999472">
		<tag k="fixme" v="consider natural=peak for the most distinct mountains in the district" />
		<tag k="name" v="Dokkerudnatten" />
		<tag k="natural" v="hill" />
		<tag k="place" v="locality" />
		<tag k="ssr:stedsnr" v="188176" />
	</node>
	<node id="-168509" lat="60.476347225" lon="9.32848332967">
		<tag k="alt_name" v="Svaretjernlia" />
		<tag k="name" v="Svaretjernlii" />
		<tag k="natural" v="slope" />
		<tag k="place" v="locality" />
		<tag k="ssr:stedsnr" v="187323" />
	</node>
	<node id="-168504" lat="60.3836444484" lon="9.40302499592">
		<tag k="name" v="Venelidalene" />
		<tag k="natural" v="valley" />
		<tag k="place" v="locality" />
		<tag k="ssr:stedsnr" v="180345" />
	</node>
	<node id="-168485" lat="60.5302555519" lon="9.34329721643">
		<tag k="fixme" v="consider natural=peak for the most distinct mountains in the district" />
		<tag k="name" v="Grisetjernnatten" />
		<tag k="natural" v="hill" />
		<tag k="place" v="locality" />
		<tag k="ssr:stedsnr" v="163709" />
	</node>
	<node id="-168484" lat="60.5060777781" lon="9.35897222721">
		<tag k="loc_name" v="Sauliskard" />
		<tag k="name" v="Sauliskar" />
		<tag k="natural" v="valley" />
		<tag k="place" v="locality" />
		<tag k="ssr:stedsnr" v="163702" />
	</node>
	<node id="-168481" lat="60.4727361116" lon="9.36773611522">
		<tag k="name" v="Haugesetlii" />
		<tag k="natural" v="slope" />
		<tag k="place" v="locality" />
		<tag k="ssr:stedsnr" v="162626" />
	</node>
	<node id="-168467" lat="60.5473944454" lon="9.40134166278">
		<tag k="name" v="Nordre Kastet" />
		<tag k="natural" v="valley" />
		<tag k="place" v="locality" />
		<tag k="ssr:stedsnr" v="161654" />
	</node>
	<node id="-168462" lat="60.5434472258" lon="9.37287500705">
		<tag k="alt_name" v="Brennattene" />
		<tag k="fixme" v="consider natural=peak for the most distinct mountains in the district" />
		<tag k="name" v="Brenn-natten" />
		<tag k="natural" v="hill" />
		<tag k="place" v="locality" />
		<tag k="ssr:stedsnr" v="128864" />
	</node>
	<node id="-168461" lat="60.5025000031" lon="9.57223888401">
		<tag k="fixme" v="consider natural=peak for the most distinct mountains in the district" />
		<tag k="name" v="Pukla" />
		<tag k="natural" v="hill" />
		<tag k="place" v="locality" />
		<tag k="ssr:stedsnr" v="128797" />
	</node>
	<node id="-168455" lat="60.3548777751" lon="9.73117221351">
		<tag k="fixme" v="consider natural=peak for the most distinct mountains in the district" />
		<tag k="name" v="Stortjernåsen" />
		<tag k="natural" v="hill" />
		<tag k="place" v="locality" />
		<tag k="ssr:stedsnr" v="127787" />
	</node>
	<node id="-168452" lat="60.4629916642" lon="9.42017500532">
		<tag k="alt_name" v="Seterskar" />
		<tag k="name" v="Sæterskardet" />
		<tag k="natural" v="valley" />
		<tag k="place" v="locality" />
		<tag k="ssr:stedsnr" v="127394" />
	</node>
	<node id="-168444" lat="60.4043972206" lon="9.439238887">
		<tag k="alt_name" v="Tørrjusnatten" />
		<tag k="name" v="Torjusnatten" />
		<tag k="natural" v="hill" />
		<tag k="place" v="locality" />
		<tag k="ssr:stedsnr" v="127215" />
	</node>
	<node id="-168438" lat="60.3912500037" lon="9.40457500796">
		<tag k="alt_name" v="Vindfellingslia" />
		<tag k="name" v="Vindfellingslii" />
		<tag k="natural" v="slope" />
		<tag k="place" v="locality" />
		<tag k="ssr:stedsnr" v="127274" />
	</node>
	<node id="-168434" lat="60.4462333346" lon="9.34339167254">
		<tag k="alt_name" v="Ravnejuvet" />
		<tag k="name" v="Ramnegjuvet" />
		<tag k="natural" v="valley" />
		<tag k="place" v="locality" />
		<tag k="ssr:stedsnr" v="127147" />
	</node>
	<node id="-168432" lat="60.4466138893" lon="9.56399444749">
		<tag k="alt_name" v="Beinskar" />
		<tag k="name" v="Beinskard" />
		<tag k="natural" v="valley" />
		<tag k="place" v="locality" />
		<tag k="ssr:stedsnr" v="127135" />
	</node>
	<node id="-168431" lat="60.4383916637" lon="9.39303889541">
		<tag k="alt_name" v="Lefseklingberget" />
		<tag k="name" v="Lefsklingberget" />
		<tag k="place" v="locality" />
		<tag k="ssr:stedsnr" v="127130" />
	</node>
	<node id="-168426" lat="60.3604500036" lon="9.35157499989">
		<tag k="name" v="Sæternatten" />
		<tag k="natural" v="hill" />
		<tag k="place" v="locality" />
		<tag k="ssr:stedsnr" v="127022" />
	</node>
	<node id="-168422" lat="60.4532055558" lon="9.44475278104">
		<tag k="name" v="Furuhaugen" />
		<tag k="natural" v="hill" />
		<tag k="place" v="locality" />
		<tag k="ssr:stedsnr" v="127161" />
	</node>
	<node id="-168419" lat="60.3032749975" lon="9.54607499363">
		<tag k="fixme" v="consider natural=peak for the most distinct mountains in the district" />
		<tag k="name" v="Puttåsen" />
		<tag k="natural" v="hill" />
		<tag k="place" v="locality" />
		<tag k="ssr:stedsnr" v="127081" />
	</node>
	<node id="-168416" lat="60.3319333362" lon="9.65254722379">
		<tag k="name" v="Tolleskyttdalen" />
		<tag k="natural" v="valley" />
		<tag k="place" v="locality" />
		<tag k="ssr:stedsnr" v="120904" />
	</node>
	<node id="-168411" lat="60.3731055544" lon="9.35841667061">
		<tag k="name" v="Rolighølhaugen" />
		<tag k="natural" v="hill" />
		<tag k="place" v="locality" />
		<tag k="ssr:stedsnr" v="120345" />
	</node>
	<node id="-168410" lat="60.4038666628" lon="9.42275277704">
		<tag k="name" v="Trøsabakke" />
		<tag k="natural" v="slope" />
		<tag k="place" v="locality" />
		<tag k="ssr:stedsnr" v="120169" />
	</node>
	<node id="-168407" lat="60.3318694463" lon="9.56875000645">
		<tag k="name" v="Storeleina" />
		<tag k="natural" v="slope" />
		<tag k="place" v="locality" />
		<tag k="ssr:stedsnr" v="120053" />
	</node>
	<node id="-168403" lat="60.4360722186" lon="9.43123611687">
		<tag k="name" v="Kvennahaugen" />
		<tag k="natural" v="hill" />
		<tag k="place" v="locality" />
		<tag k="ssr:stedsnr" v="118987" />
	</node>
	<node id="-168392" lat="60.4125388909" lon="9.29231110385">
		<tag k="name" v="Purkehaug" />
		<tag k="natural" v="hill" />
		<tag k="place" v="locality" />
		<tag k="ssr:stedsnr" v="118034" />
	</node>
	<node id="-168389" lat="60.3957750015" lon="9.73605832796">
		<tag k="name" v="Langvasslie" />
		<tag k="natural" v="slope" />
		<tag k="place" v="locality" />
		<tag k="ssr:stedsnr" v="114963" />
	</node>
	<node id="-168385" lat="60.5368388906" lon="9.38191111118">
		<tag k="name" v="Høgehaug" />
		<tag k="natural" v="hill" />
		<tag k="place" v="locality" />
		<tag k="ssr:stedsnr" v="103693" />
	</node>
	<node id="-168384" lat="60.4573694444" lon="9.35567222862">
		<tag k="name" v="Djupdalen" />
		<tag k="natural" v="valley" />
		<tag k="place" v="locality" />
		<tag k="ssr:stedsnr" v="102647" />
	</node>
	<node id="-168383" lat="60.4643805534" lon="9.46919723117">
		<tag k="name" v="Slåttemyrbakken" />
		<tag k="natural" v="slope" />
		<tag k="place" v="locality" />
		<tag k="ssr:stedsnr" v="102622" />
	</node>
	<node id="-168378" lat="60.4797555563" lon="9.46094166393">
		<tag k="name" v="Brøtalia" />
		<tag k="natural" v="slope" />
		<tag k="place" v="locality" />
		<tag k="ssr:stedsnr" v="101746" />
	</node>
	<node id="-168377" lat="60.4763111116" lon="9.43553611289">
		<tag k="name" v="Brennum" />
		<tag k="place" v="locality" />
		<tag k="ssr:stedsnr" v="101741" />
	</node>
	<node id="-168370" lat="60.3824666637" lon="9.68664444987">
		<tag k="name" v="Lågmyrhaugen" />
		<tag k="natural" v="hill" />
		<tag k="place" v="locality" />
		<tag k="ssr:stedsnr" v="101401" />
	</node>
	<node id="-168368" lat="60.4290833331" lon="9.47471943657">
		<tag k="name" v="Vesberget" />
		<tag k="natural" v="hill" />
		<tag k="place" v="locality" />
		<tag k="ssr:stedsnr" v="101216" />
	</node>
	<node id="-168367" lat="60.4355972252" lon="9.31208610712">
		<tag k="name" v="Engeflag" />
		<tag k="place" v="locality" />
		<tag k="ssr:stedsnr" v="100838" />
	</node>
	<node id="-168365" lat="60.4408333357" lon="9.31146388654">
		<tag k="name" v="Gurobråten" />
		<tag k="place" v="locality" />
		<tag k="ssr:stedsnr" v="100825" />
	</node>
	<node id="-168363" lat="60.4349027741" lon="9.32424999629">
		<tag k="name" v="Felehaugen" />
		<tag k="natural" v="hill" />
		<tag k="place" v="locality" />
		<tag k="ssr:stedsnr" v="100811" />
	</node>
	<node id="-168359" lat="60.3347972219" lon="9.52002499299">
		<tag k="name" v="Brennåsskar" />
		<tag k="natural" v="valley" />
		<tag k="place" v="locality" />
		<tag k="ssr:stedsnr" v="100156" />
	</node>
	<node id="-168355" lat="60.3668388848" lon="9.55249722907">
		<tag k="name" v="Jørankleiv" />
		<tag k="natural" v="slope" />
		<tag k="place" v="locality" />
		<tag k="ssr:stedsnr" v="101359" />
	</node>
	<node id="-168354" lat="60.4038416641" lon="9.4706500088">
		<tag k="name" v="Bronsehøl" />
		<tag k="place" v="locality" />
		<tag k="ssr:stedsnr" v="96187" />
	</node>
	<node id="-168349" lat="60.5549416708" lon="9.35827500043">
		<tag k="alt_name" v="Hestlidal" />
		<tag k="name" v="Hestlidalen" />
		<tag k="natural" v="valley" />
		<tag k="place" v="locality" />
		<tag k="ssr:stedsnr" v="67862" />
	</node>
	<node id="-168343" lat="60.4951250027" lon="9.42522777937">
		<tag k="alt_name" v="Lyfte" />
		<tag k="name" v="Lyftet" />
		<tag k="natural" v="hill" />
		<tag k="place" v="locality" />
		<tag k="ssr:stedsnr" v="67343" />
	</node>
	<node id="-168341" lat="60.3904999961" lon="9.47162499266">
		<tag k="name" v="Gråskallen" />
		<tag k="natural" v="hill" />
		<tag k="place" v="locality" />
		<tag k="ssr:stedsnr" v="67279" />
	</node>
	<node id="-168340" lat="60.3910805568" lon="9.22791110636">
		<tag k="fixme" v="consider natural=peak for the most distinct mountains in the district" />
		<tag k="name" v="Kollenatten" />
		<tag k="natural" v="hill" />
		<tag k="place" v="locality" />
		<tag k="ssr:stedsnr" v="67274" />
	</node>
	<node id="-168334" lat="60.3744499971" lon="9.44392499267">
		<tag k="name" v="Gopleflag" />
		<tag k="natural" v="hill" />
		<tag k="place" v="locality" />
		<tag k="ssr:stedsnr" v="67251" />
	</node>
	<node id="-168332" lat="60.4110750038" lon="9.38514999533">
		<tag k="alt_name" v="Brekkene" />
		<tag k="name" v="Brekkun" />
		<tag k="natural" v="slope" />
		<tag k="place" v="locality" />
		<tag k="ssr:stedsnr" v="67241" />
	</node>
	<node id="-168330" lat="60.4034944448" lon="9.31803888507">
		<tag k="name" v="Brattenatten" />
		<tag k="natural" v="hill" />
		<tag k="place" v="locality" />
		<tag k="ssr:stedsnr" v="67228" />
	</node>
	<node id="-168328" lat="60.3997999966" lon="9.46803333139">
		<tag k="name" v="Rensleberget" />
		<tag k="natural" v="ridge" />
		<tag k="place" v="locality" />
		<tag k="ssr:stedsnr" v="67221" />
	</node>
	<node id="-168321" lat="60.4257361128" lon="9.42327221592">
		<tag k="alt_name" v="Skaråsen" />
		<tag k="fixme" v="consider natural=peak for the most distinct mountains in the district" />
		<tag k="name" v="Skardåsen" />
		<tag k="natural" v="hill" />
		<tag k="place" v="locality" />
		<tag k="ssr:stedsnr" v="67199" />
	</node>
	<node id="-168316" lat="60.3682000018" lon="9.57255556235">
		<tag k="name" v="Elvebråten" />
		<tag k="natural" v="slope" />
		<tag k="place" v="locality" />
		<tag k="ssr:stedsnr" v="67044" />
	</node>
	<node id="-168309" lat="60.4258250034" lon="9.69761388228">
		<tag k="alt_name" v="Smyrikollen" />
		<tag k="name" v="Smylekollen" />
		<tag k="natural" v="hill" />
		<tag k="place" v="locality" />
		<tag k="ssr:stedsnr" v="66968" />
	</node>
	<node id="-168304" lat="60.3697027739" lon="9.45218888529">
		<tag k="name" v="Høgeli" />
		<tag k="natural" v="slope" />
		<tag k="place" v="locality" />
		<tag k="ssr:stedsnr" v="59356" />
	</node>
	<node id="-168303" lat="60.3967166641" lon="9.41521945035">
		<tag k="name" v="Høgkastet" />
		<tag k="place" v="locality" />
		<tag k="ssr:stedsnr" v="59141" />
	</node>
	<node id="-168301" lat="60.3914277751" lon="9.41491666589">
		<tag k="name" v="Trytetjernhaugene" />
		<tag k="natural" v="ridge" />
		<tag k="place" v="locality" />
		<tag k="ssr:stedsnr" v="59127" />
	</node>
	<node id="-168297" lat="60.4492777738" lon="9.39153334092">
		<tag k="name" v="Svartetjerndalen" />
		<tag k="natural" v="valley" />
		<tag k="place" v="locality" />
		<tag k="ssr:stedsnr" v="57762" />
	</node>
	<node id="-168296" lat="60.4490944465" lon="9.50939999239">
		<tag k="fixme" v="consider natural=peak for the most distinct mountains in the district" />
		<tag k="name" v="Tjyruhjellåsen" />
		<tag k="natural" v="hill" />
		<tag k="place" v="locality" />
		<tag k="ssr:stedsnr" v="57947" />
	</node>
	<node id="-168291" lat="60.42155278" lon="9.35288332735">
		<tag k="loc_name" v="Skardet" />
		<tag k="name" v="Skaret" />
		<tag k="natural" v="valley" />
		<tag k="place" v="locality" />
		<tag k="ssr:stedsnr" v="57053" />
	</node>
	<node id="-168288" lat="60.425316671" lon="9.42611666796">
		<tag k="name" v="Larssonhølet" />
		<tag k="natural" v="valley" />
		<tag k="place" v="locality" />
		<tag k="ssr:stedsnr" v="57009" />
	</node>
	<node id="-168286" lat="60.4156388857" lon="9.36173333666">
		<tag k="name" v="Raumeskar" />
		<tag k="natural" v="valley" />
		<tag k="place" v="locality" />
		<tag k="ssr:stedsnr" v="57004" />
	</node>
	<node id="-168281" lat="60.4598111087" lon="9.29686388323">
		<tag k="name" v="Gamlebakken" />
		<tag k="natural" v="slope" />
		<tag k="place" v="locality" />
		<tag k="ssr:stedsnr" v="41592" />
	</node>
	<node id="-168271" lat="60.4196000036" lon="9.44114999387">
		<tag k="fixme" v="consider natural=peak for the most distinct mountains in the district" />
		<tag k="name" v="Muresteinåsen" />
		<tag k="natural" v="hill" />
		<tag k="place" v="locality" />
		<tag k="ssr:stedsnr" v="40245" />
	</node>
	<node id="-168270" lat="60.3270638927" lon="9.54546944399">
		<tag k="name" v="Hestejuvlia" />
		<tag k="natural" v="slope" />
		<tag k="place" v="locality" />
		<tag k="ssr:stedsnr" v="40206" />
	</node>
	<node id="-168263" lat="60.3549111128" lon="9.52869999152">
		<tag k="name" v="Primberget" />
		<tag k="natural" v="cliff" />
		<tag k="ssr:stedsnr" v="39530" />
	</node>
	<node id="-168259" lat="60.3896944468" lon="9.47917222156">
		<tag k="name" v="Kanturdalen" />
		<tag k="natural" v="valley" />
		<tag k="place" v="locality" />
		<tag k="ssr:stedsnr" v="36126" />
	</node>
	<node id="-168256" lat="60.5309805583" lon="9.35885832872">
		<tag k="alt_name" v="Dagalifj;Høgeli" />
		<tag k="fixme" v="consider natural=peak for the most distinct mountains in the district" />
		<tag k="name" v="Dagalifjell" />
		<tag k="natural" v="hill" />
		<tag k="place" v="locality" />
		<tag k="ssr:stedsnr" v="7744" />
	</node>
	<node id="-168243" lat="60.3836305545" lon="9.17380555677">
		<tag k="fixme" v="multiple name tags, choose one and add the other to alt_name" />
		<tag k="name" v="Skurven;Skurvenatten" />
		<tag k="natural" v="hill" />
		<tag k="place" v="locality" />
		<tag k="ssr:stedsnr" v="6393" />
	</node>
	<node id="-168242" lat="60.4846555601" lon="9.47425833634">
		<tag k="alt_name" v="Trugadisnatten" />
		<tag k="fixme" v="consider natural=peak for the most distinct mountains in the district" />
		<tag k="name" v="Trøgadissnatten" />
		<tag k="natural" v="hill" />
		<tag k="old_name" v="Trøgadisnt" />
		<tag k="place" v="locality" />
		<tag k="ssr:stedsnr" v="6370" />
	</node>
	<node id="-168239" lat="60.4925388878" lon="9.4665305539">
		<tag k="name" v="Veneknatten" />
		<tag k="natural" v="hill" />
		<tag k="place" v="locality" />
		<tag k="ssr:stedsnr" v="6344" />
	</node>
	<node id="-168234" lat="60.3806666657" lon="9.33764166629">
		<tag k="name" v="Lauvhaugen" />
		<tag k="natural" v="hill" />
		<tag k="place" v="locality" />
		<tag k="ssr:stedsnr" v="6232" />
	</node>
	<node id="-168224" lat="60.4199333353" lon="9.24167778595">
		<tag k="fixme" v="consider natural=peak for the most distinct mountains in the district" />
		<tag k="name" v="Anfinnatten" />
		<tag k="natural" v="hill" />
		<tag k="place" v="locality" />
		<tag k="ssr:stedsnr" v="6171" />
	</node>
	<node id="-168223" lat="60.4139694406" lon="9.44710278667">
		<tag k="alt_name" v="Bjørnestillinga" />
		<tag k="name" v="Bjørnestillingi" />
		<tag k="natural" v="valley" />
		<tag k="place" v="locality" />
		<tag k="ssr:stedsnr" v="6170" />
	</node>
	<node id="-168221" lat="60.4531388899" lon="9.43108054966">
		<tag k="name" v="Ørneflag" />
		<tag k="place" v="locality" />
		<tag k="ssr:stedsnr" v="6161" />
	</node>
	<node id="-168218" lat="60.4475194417" lon="9.38811388711">
		<tag k="fixme" v="consider natural=peak for the most distinct mountains in the district" />
		<tag k="name" v="Kalveberget" />
		<tag k="natural" v="hill" />
		<tag k="place" v="locality" />
		<tag k="ssr:stedsnr" v="6147" />
	</node>
	<node id="-168214" lat="60.3679694485" lon="9.39373055895">
		<tag k="name" v="Gurufjell" />
		<tag k="natural" v="hill" />
		<tag k="place" v="locality" />
		<tag k="ssr:stedsnr" v="6023" />
	</node>
	<node id="-168211" lat="60.4640944438" lon="9.48412222969">
		<tag k="fixme" v="consider natural=peak for the most distinct mountains in the district" />
		<tag k="name" v="Sprenåsen" />
		<tag k="natural" v="hill" />
		<tag k="place" v="locality" />
		<tag k="ssr:stedsnr" v="5360" />
	</node>
	<node id="-168209" lat="60.4680555559" lon="9.42602221904">
		<tag k="name" v="Nyseterskardet" />
		<tag k="natural" v="valley" />
		<tag k="place" v="locality" />
		<tag k="ssr:stedsnr" v="5334" />
	</node>
	<node id="-168205" lat="60.430390666" lon="9.23639137101">
		<tag k="fixme" v="consider natural=peak for the most distinct mountains in the district" />
		<tag k="name" v="Ålungruken" />
		<tag k="natural" v="hill" />
		<tag k="place" v="locality" />
		<tag k="ssr:stedsnr" v="795222" />
	</node>
	<node id="-168196" lat="60.5344611128" lon="9.48946666012">
		<tag k="name" v="Vassfaret" />
		<tag k="natural" v="valley" />
		<tag k="place" v="locality" />
		<tag k="ssr:stedsnr" v="735876" />
	</node>
	<node id="-168174" lat="60.52352778" lon="9.38089999743">
		<tag k="name" v="Dagalireset" />
		<tag k="place" v="locality" />
		<tag k="ssr:stedsnr" v="892697" />
	</node>
	<node id="-168172" lat="60.4990277744" lon="9.32103055305">
		<tag k="name" v="Heimskar" />
		<tag k="natural" v="valley" />
		<tag k="place" v="locality" />
		<tag k="ssr:stedsnr" v="892684" />
	</node>
	<node id="-168171" lat="60.463541667" lon="9.28296944902">
		<tag k="name" v="Ragnorrensle" />
		<tag k="place" v="locality" />
		<tag k="ssr:stedsnr" v="891622" />
	</node>
	<node id="-168170" lat="60.4701111148" lon="9.31272500271">
		<tag k="name" v="Grøndalen" />
		<tag k="natural" v="valley" />
		<tag k="place" v="locality" />
		<tag k="ssr:stedsnr" v="891623" />
	</node>
	<node id="-168163" lat="60.4806833294" lon="9.3294916655">
		<tag k="name" v="Svaretjernnatten" />
		<tag k="natural" v="hill" />
		<tag k="place" v="locality" />
		<tag k="ssr:stedsnr" v="891530" />
	</node>
	<node id="-168162" lat="60.5467250029" lon="9.40310277459">
		<tag k="name" v="Søre Kastet" />
		<tag k="natural" v="valley" />
		<tag k="place" v="locality" />
		<tag k="ssr:stedsnr" v="890724" />
	</node>
	<node id="-168161" lat="60.5526805536" lon="9.38368332762">
		<tag k="fixme" v="consider natural=peak for the most distinct mountains in the district" />
		<tag k="name" v="Benkefjellet" />
		<tag k="natural" v="hill" />
		<tag k="place" v="locality" />
		<tag k="ssr:stedsnr" v="890720" />
	</node>
	<node id="-168158" lat="60.3737611138" lon="9.55223333304">
		<tag k="name" v="Middagsnatten" />
		<tag k="natural" v="hill" />
		<tag k="place" v="locality" />
		<tag k="ssr:stedsnr" v="890375" />
	</node>
	<node id="-168154" lat="60.4419444447" lon="9.36867777184">
		<tag k="name" v="Juvemoen" />
		<tag k="place" v="locality" />
		<tag k="ssr:stedsnr" v="889842" />
	</node>
	<node id="-168152" lat="60.3482861104" lon="9.58858611717">
		<tag k="name" v="Gravnebakken" />
		<tag k="natural" v="slope" />
		<tag k="place" v="locality" />
		<tag k="ssr:stedsnr" v="889572" />
	</node>
	<node id="-168141" lat="60.4628138904" lon="9.29110833615">
		<tag k="loc_name" v="Nobberensle" />
		<tag k="name" v="Nøbberensle" />
		<tag k="place" v="locality" />
		<tag k="ssr:stedsnr" v="405626" />
	</node>
	<node id="-168140" lat="60.4691611094" lon="9.33370277857">
		<tag k="name" v="Fjøsseterlia" />
		<tag k="natural" v="slope" />
		<tag k="place" v="locality" />
		<tag k="ssr:stedsnr" v="405620" />
	</node>
	<node id="-168139" lat="60.4671138873" lon="9.37758333909">
		<tag k="name" v="Gaffelgrøfta" />
		<tag k="place" v="locality" />
		<tag k="ssr:stedsnr" v="405575" />
	</node>
	<node id="-168138" lat="60.4897777763" lon="9.35731944582">
		<tag k="name" v="Moseberget" />
		<tag k="place" v="locality" />
		<tag k="ssr:stedsnr" v="405568" />
	</node>
	<node id="-168137" lat="60.4939916673" lon="9.35625555746">
		<tag k="name" v="Bølmyrvollen" />
		<tag k="place" v="locality" />
		<tag k="ssr:stedsnr" v="405561" />
	</node>
	<node id="-168129" lat="60.4159944464" lon="9.42370833444">
		<tag k="name" v="Karlsonslettene" />
		<tag k="place" v="locality" />
		<tag k="ssr:stedsnr" v="404030" />
	</node>
	<node id="-168128" lat="60.4140611098" lon="9.42687778259">
		<tag k="name" v="Rudsbråtedalen" />
		<tag k="natural" v="valley" />
		<tag k="place" v="locality" />
		<tag k="ssr:stedsnr" v="404028" />
	</node>
	<node id="-168127" lat="60.4412916625" lon="9.29927499324">
		<tag k="name" v="Svartordekkan" />
		<tag k="place" v="locality" />
		<tag k="ssr:stedsnr" v="403865" />
	</node>
	<node id="-168125" lat="60.3537138908" lon="9.59758334123">
		<tag k="name" v="Juvet" />
		<tag k="natural" v="gorge" />
		<tag k="ssr:stedsnr" v="403563" />
	</node>
	<node id="-168122" lat="60.493947221" lon="9.51305277831">
		<tag k="alt_name" v="Tørget" />
		<tag k="name" v="Torget" />
		<tag k="natural" v="valley" />
		<tag k="place" v="locality" />
		<tag k="ssr:stedsnr" v="403045" />
	</node>
	<node id="-168121" lat="60.4006250033" lon="9.47851666248">
		<tag k="name" v="Bukkeskar" />
		<tag k="natural" v="valley" />
		<tag k="place" v="locality" />
		<tag k="ssr:stedsnr" v="400146" />
	</node>
	<node id="-168117" lat="60.4180750007" lon="9.67806110737">
		<tag k="fixme" v="consider natural=peak for the most distinct mountains in the district" />
		<tag k="name" v="Gråkollen" />
		<tag k="natural" v="hill" />
		<tag k="place" v="locality" />
		<tag k="ssr:stedsnr" v="371000" />
	</node>
	<node id="-168115" lat="60.4089388929" lon="9.72545000335">
		<tag k="alt_name" v="Skarshaugan" />
		<tag k="fixme" v="consider natural=peak for the most distinct mountains in the district" />
		<tag k="name" v="Skardhaugan" />
		<tag k="natural" v="hill" />
		<tag k="old_name" v="Skardhauga" />
		<tag k="place" v="locality" />
		<tag k="ssr:stedsnr" v="370989" />
	</node>
	<node id="-168112" lat="60.3805194429" lon="9.7637611122">
		<tag k="alt_name" v="Lauvskarfjell" />
		<tag k="fixme" v="consider natural=peak for the most distinct mountains in the district" />
		<tag k="name" v="Lauvskardfjellet" />
		<tag k="natural" v="hill" />
		<tag k="place" v="locality" />
		<tag k="ssr:stedsnr" v="370962" />
	</node>
	<node id="-168106" lat="60.3707583374" lon="9.13742778521">
		<tag k="fixme" v="consider natural=peak for the most distinct mountains in the district" />
		<tag k="name" v="Økternatten" />
		<tag k="natural" v="hill" />
		<tag k="place" v="locality" />
		<tag k="ssr:stedsnr" v="370413" />
	</node>
	<node id="-168104" lat="60.4944750038" lon="9.3497500024">
		<tag k="name" v="Smørlii" />
		<tag k="natural" v="slope" />
		<tag k="place" v="locality" />
		<tag k="ssr:stedsnr" v="370369" />
	</node>
	<node id="-168103" lat="60.388816669" lon="9.45332499138">
		<tag k="alt_name" v="Langemyrfjell" />
		<tag k="fixme" v="consider natural=peak for the most distinct mountains in the district" />
		<tag k="name" v="Langemyrfjellet" />
		<tag k="natural" v="hill" />
		<tag k="place" v="locality" />
		<tag k="ssr:stedsnr" v="370296" />
	</node>
	<node id="-168100" lat="60.3897111071" lon="9.48711943707">
		<tag k="alt_name" v="Ljøsåsen" />
		<tag k="fixme" v="consider natural=peak for the most distinct mountains in the district" />
		<tag k="name" v="Ljosåsen" />
		<tag k="natural" v="hill" />
		<tag k="old_name" v="Ljøsaasen" />
		<tag k="place" v="locality" />
		<tag k="ssr:stedsnr" v="370275" />
	</node>
	<node id="-168096" lat="60.4139833346" lon="9.42097777271">
		<tag k="name" v="Karlsonnatten" />
		<tag k="natural" v="hill" />
		<tag k="place" v="locality" />
		<tag k="ssr:stedsnr" v="370249" />
	</node>
	<node id="-168092" lat="60.4207388918" lon="9.42487778523">
		<tag k="alt_name" v="Heimsæteråsen" />
		<tag k="name" v="Heimseteråsen" />
		<tag k="natural" v="hill" />
		<tag k="place" v="locality" />
		<tag k="ssr:stedsnr" v="370189" />
	</node>
	<node id="-168091" lat="60.4446611146" lon="9.34339443627">
		<tag k="fixme" v="consider natural=peak for the most distinct mountains in the district" />
		<tag k="name" v="Tjyrunatten" />
		<tag k="natural" v="hill" />
		<tag k="place" v="locality" />
		<tag k="ssr:stedsnr" v="370178" />
	</node>
	<node id="-168090" lat="60.4478999958" lon="9.40612500878">
		<tag k="name" v="Jordesflaget" />
		<tag k="place" v="locality" />
		<tag k="ssr:stedsnr" v="370175" />
	</node>
	<node id="-168087" lat="60.4395000016" lon="9.36987499959">
		<tag k="name" v="Austvollnatten" />
		<tag k="natural" v="hill" />
		<tag k="place" v="locality" />
		<tag k="ssr:stedsnr" v="370162" />
	</node>
	<node id="-168086" lat="60.3032222222" lon="9.56769166312">
		<tag k="alt_name" v="Gråkoll" />
		<tag k="fixme" v="consider natural=peak for the most distinct mountains in the district" />
		<tag k="name" v="Gråkollen" />
		<tag k="natural" v="hill" />
		<tag k="place" v="locality" />
		<tag k="ssr:stedsnr" v="370111" />
	</node>
	<node id="-168085" lat="60.3103555586" lon="9.52919165975">
		<tag k="fixme" v="consider natural=peak for the most distinct mountains in the district" />
		<tag k="name" v="Kalvelifjellet" />
		<tag k="natural" v="hill" />
		<tag k="place" v="locality" />
		<tag k="ssr:stedsnr" v="370060" />
	</node>
	<node id="-168080" lat="60.4632250022" lon="9.38017499914">
		<tag k="alt_name" v="Krøssmyrnatten" />
		<tag k="name" v="Krossmyrnatten" />
		<tag k="natural" v="hill" />
		<tag k="place" v="locality" />
		<tag k="ssr:stedsnr" v="369336" />
	</node>
	<node id="-168073" lat="60.3746083294" lon="9.4300249975">
		<tag k="name" v="Bakli" />
		<tag k="natural" v="slope" />
		<tag k="place" v="locality" />
		<tag k="ssr:stedsnr" v="362373" />
	</node>
	<node id="-168070" lat="60.412438887" lon="9.64351944932">
		<tag k="name" v="Torsbråtahalla" />
		<tag k="place" v="locality" />
		<tag k="ssr:stedsnr" v="360465" />
	</node>
	<node id="-168066" lat="60.4227583327" lon="9.37772221949">
		<tag k="name" v="Høghaug" />
		<tag k="natural" v="hill" />
		<tag k="place" v="locality" />
		<tag k="ssr:stedsnr" v="360007" />
	</node>
	<node id="-168063" lat="60.5179472181" lon="9.37893889747">
		<tag k="name" v="Lyberg" />
		<tag k="place" v="locality" />
		<tag k="ssr:stedsnr" v="345694" />
	</node>
	<node id="-168062" lat="60.4695111099" lon="9.28360278228">
		<tag k="name" v="Kleiverensle" />
		<tag k="place" v="locality" />
		<tag k="ssr:stedsnr" v="344628" />
	</node>
	<node id="-168060" lat="60.4589222254" lon="9.3093083343">
		<tag k="name" v="Jordesbekklia" />
		<tag k="natural" v="slope" />
		<tag k="place" v="locality" />
		<tag k="ssr:stedsnr" v="344606" />
	</node>
	<node id="-168055" lat="60.4871833376" lon="9.31450832673">
		<tag k="name" v="Kjøldalslia" />
		<tag k="natural" v="slope" />
		<tag k="place" v="locality" />
		<tag k="ssr:stedsnr" v="344528" />
	</node>
	<node id="-168051" lat="60.4354222182" lon="9.39196666186">
		<tag k="name" v="Gaptjernnatten" />
		<tag k="natural" v="hill" />
		<tag k="place" v="locality" />
		<tag k="ssr:stedsnr" v="343861" />
	</node>
	<node id="-168050" lat="60.4820944489" lon="9.37973888559">
		<tag k="name" v="Grønliberget" />
		<tag k="place" v="locality" />
		<tag k="ssr:stedsnr" v="343765" />
	</node>
	<node id="-168048" lat="60.3523250001" lon="9.58854999945">
		<tag k="name" v="Køsadalen" />
		<tag k="natural" v="valley" />
		<tag k="place" v="locality" />
		<tag k="ssr:stedsnr" v="343612" />
	</node>
	<node id="-168040" lat="60.428436107" lon="9.43291667259">
		<tag k="name" v="Vaberget" />
		<tag k="place" v="locality" />
		<tag k="ssr:stedsnr" v="343213" />
	</node>
	<node id="-168039" lat="60.3173166668" lon="9.73797222539">
		<tag k="fixme" v="consider natural=peak for the most distinct mountains in the district" />
		<tag k="name" v="Geiteberget" />
		<tag k="natural" v="hill" />
		<tag k="place" v="locality" />
		<tag k="ssr:stedsnr" v="343159" />
	</node>
	<node id="-168035" lat="60.3822888851" lon="9.62237500748">
		<tag k="alt_name" v="Stoåsen" />
		<tag k="fixme" v="consider natural=peak for the most distinct mountains in the district" />
		<tag k="name" v="Støåsen" />
		<tag k="natural" v="hill" />
		<tag k="place" v="locality" />
		<tag k="ssr:stedsnr" v="310955" />
	</node>
	<node id="-168021" lat="60.4817111134" lon="9.65136388461">
		<tag k="fixme" v="consider natural=peak for the most distinct mountains in the district" />
		<tag k="name" v="Saunatten" />
		<tag k="natural" v="hill" />
		<tag k="place" v="locality" />
		<tag k="ssr:stedsnr" v="309930" />
	</node>
	<node id="-168019" lat="60.3075555538" lon="9.60082777157">
		<tag k="fixme" v="consider natural=peak for the most distinct mountains in the district" />
		<tag k="name" v="Lauvåsen" />
		<tag k="natural" v="hill" />
		<tag k="place" v="locality" />
		<tag k="ssr:stedsnr" v="309836" />
	</node>
	<node id="-168014" lat="60.4539972205" lon="9.31838888894">
		<tag k="name" v="Kolsrudflaget" />
		<tag k="place" v="locality" />
		<tag k="ssr:stedsnr" v="309403" />
	</node>
	<node id="-168011" lat="60.4720499958" lon="9.44752500097">
		<tag k="name" v="Hyttekastet" />
		<tag k="natural" v="slope" />
		<tag k="place" v="locality" />
		<tag k="ssr:stedsnr" v="309395" />
	</node>
	<node id="-168007" lat="60.4890888915" lon="9.562655564">
		<tag k="name" v="Damtjernhallin" />
		<tag k="natural" v="slope" />
		<tag k="place" v="locality" />
		<tag k="ssr:stedsnr" v="309369" />
	</node>
	<node id="-168001" lat="60.4073555555" lon="9.45392777622">
		<tag k="fixme" v="consider natural=peak for the most distinct mountains in the district" />
		<tag k="name" v="Sauflag" />
		<tag k="natural" v="hill" />
		<tag k="place" v="locality" />
		<tag k="ssr:stedsnr" v="309243" />
	</node>
	<node id="-167995" lat="60.4566194434" lon="9.40445834131">
		<tag k="alt_name" v="Strindebergnatten" />
		<tag k="name" v="Strindbergnatten" />
		<tag k="natural" v="hill" />
		<tag k="place" v="locality" />
		<tag k="ssr:stedsnr" v="309192" />
	</node>
	<node id="-167994" lat="60.459447225" lon="9.55859722902">
		<tag k="alt_name" v="Nordpolskar" />
		<tag k="name" v="Nordpolskardet" />
		<tag k="natural" v="valley" />
		<tag k="place" v="locality" />
		<tag k="ssr:stedsnr" v="309176" />
	</node>
	<node id="-167993" lat="60.4463250001" lon="9.54674166835">
		<tag k="alt_name" v="Turufjell" />
		<tag k="fixme" v="consider natural=peak for the most distinct mountains in the district" />
		<tag k="name" v="Turufjellet" />
		<tag k="natural" v="hill" />
		<tag k="place" v="locality" />
		<tag k="ssr:stedsnr" v="309148" />
	</node>
	<node id="-167990" lat="60.4079166626" lon="9.32663334027">
		<tag k="name" v="Langemyrnatten" />
		<tag k="natural" v="hill" />
		<tag k="place" v="locality" />
		<tag k="ssr:stedsnr" v="302178" />
	</node>
	<node id="-167989" lat="60.3238749962" lon="9.56725277506">
		<tag k="name" v="Storeleina" />
		<tag k="place" v="locality" />
		<tag k="ssr:stedsnr" v="302138" />
	</node>
	<node id="-167983" lat="60.4155000045" lon="9.7733861127">
		<tag k="name" v="Geiteryggberget" />
		<tag k="natural" v="hill" />
		<tag k="place" v="locality" />
		<tag k="ssr:stedsnr" v="300520" />
	</node>
	<node id="-167981" lat="60.411736115" lon="9.63038055908">
		<tag k="name" v="Englemmen" />
		<tag k="natural" v="valley" />
		<tag k="place" v="locality" />
		<tag k="ssr:stedsnr" v="300511" />
	</node>
	<node id="-167978" lat="60.4324805561" lon="9.78385556416">
		<tag k="name" v="Midtre Sva" />
		<tag k="place" v="locality" />
		<tag k="ssr:stedsnr" v="300306" />
	</node>
	<node id="-167963" lat="60.4603861124" lon="9.36586945051">
		<tag k="name" v="Øvre Grøvskar" />
		<tag k="natural" v="valley" />
		<tag k="place" v="locality" />
		<tag k="ssr:stedsnr" v="284599" />
	</node>
	<node id="-167961" lat="60.4944277737" lon="9.38090276869">
		<tag k="name" v="Mathølet" />
		<tag k="place" v="locality" />
		<tag k="ssr:stedsnr" v="283723" />
	</node>
	<node id="-167960" lat="60.5507805536" lon="9.39480278301">
		<tag k="name" v="Mathølet" />
		<tag k="place" v="locality" />
		<tag k="ssr:stedsnr" v="283689" />
	</node>
	<node id="-167955" lat="60.4333138863" lon="9.33591666844">
		<tag k="name" v="Øvre Tjyrunattskar" />
		<tag k="natural" v="valley" />
		<tag k="place" v="locality" />
		<tag k="ssr:stedsnr" v="282833" />
	</node>
	<node id="-167954" lat="60.4514111138" lon="9.28275554656">
		<tag k="name" v="Nøbben" />
		<tag k="natural" v="hill" />
		<tag k="place" v="locality" />
		<tag k="ssr:stedsnr" v="282828" />
	</node>
	<node id="-167950" lat="60.4369833379" lon="9.4271972177">
		<tag k="name" v="Herbrandsbråten" />
		<tag k="place" v="locality" />
		<tag k="ssr:stedsnr" v="282794" />
	</node>
	<node id="-167948" lat="60.3519472205" lon="9.59724166617">
		<tag k="name" v="Juveren" />
		<tag k="place" v="locality" />
		<tag k="ssr:stedsnr" v="282570" />
	</node>
	<node id="-167947" lat="60.3600138878" lon="9.59853054669">
		<tag k="name" v="Myreskarkollen" />
		<tag k="natural" v="hill" />
		<tag k="place" v="locality" />
		<tag k="ssr:stedsnr" v="282569" />
	</node>
</osm>
