<?xml version="1.0" encoding="UTF-8"?>
<osm generator="osmapis" version="0.6">
	<node id="-167936" lat="60.3887638861" lon="9.53737500405">
		<tag k="landuse" v="quarry" />
		<tag k="name" v="Gulsvik sandtak" />
		<tag k="ssr:stedsnr" v="339177" />
	</node>
	<node id="-167910" lat="60.4683416669" lon="9.45325278351">
		<tag k="alt_name" v="Brøskapsremmen" />
		<tag k="name" v="Brødskåpsremmen" />
		<tag k="place" v="locality" />
		<tag k="ssr:stedsnr" v="309393" />
	</node>
	<node id="-168928" lat="60.380788889" lon="9.4639138892">
		<tag k="name" v="Rundhøl" />
		<tag k="natural" v="wetland" />
		<tag k="ssr:stedsnr" v="666366" />
	</node>
	<node id="-168924" lat="60.396638885" lon="9.40260555947">
		<tag k="name" v="Tungemyr" />
		<tag k="natural" v="wetland" />
		<tag k="ssr:stedsnr" v="666163" />
	</node>
	<node id="-167897" lat="60.4372916686" lon="9.50392777745">
		<tag k="name" v="Leikarmyr" />
		<tag k="natural" v="wetland" />
		<tag k="ssr:stedsnr" v="309207" />
	</node>
	<node id="-168400" lat="60.3017638893" lon="9.44310833277">
		<tag k="name" v="Raudmyra" />
		<tag k="natural" v="wetland" />
		<tag k="ssr:stedsnr" v="188097" />
	</node>
	<node id="-168781" lat="60.3083555516" lon="9.61275277428">
		<tag k="name" v="Kransemyr" />
		<tag k="natural" v="wetland" />
		<tag k="ssr:stedsnr" v="585161" />
	</node>
	<node id="-168390" lat="60.4072027758" lon="9.41814722414">
		<tag k="name" v="Hyttemyra" />
		<tag k="natural" v="wetland" />
		<tag k="ssr:stedsnr" v="180161" />
	</node>
	<node id="-168389" lat="60.394941665" lon="9.37808889451">
		<tag k="name" v="Halvfarmyr" />
		<tag k="natural" v="wetland" />
		<tag k="ssr:stedsnr" v="180151" />
	</node>
	<node id="-168896" lat="60.4335805528" lon="9.39837500064">
		<tag k="name" v="Gaptjernjordet" />
		<tag k="place" v="locality" />
		<tag k="ssr:stedsnr" v="646811" />
	</node>
	<node id="-168886" lat="60.3848083368" lon="9.61338888435">
		<tag k="name" v="Liuslåtta" />
		<tag k="place" v="locality" />
		<tag k="ssr:stedsnr" v="646376" />
	</node>
	<node id="-168883" lat="60.3041638878" lon="9.52614166729">
		<tag k="name" v="Svartestein" />
		<tag k="natural" v="stone" />
		<tag k="ssr:stedsnr" v="646128" />
	</node>
	<node id="-168366" lat="60.486463887" lon="9.45212221928">
		<tag k="name" v="Kippingsmyrremmen" />
		<tag k="place" v="locality" />
		<tag k="ssr:stedsnr" v="161704" />
	</node>
	<node id="-169387" lat="60.3912944405" lon="9.2895277841">
		<tag k="historic" v="shieling" />
		<tag k="name" v="Finntoppvollen" />
		<tag k="place" v="locality" />
		<tag k="ssr:stedsnr" v="969418" />
	</node>
	<node id="-169385" lat="60.3741777771" lon="9.39830277677">
		<tag k="historic" v="shieling" />
		<tag k="name" v="Neperudvollen" />
		<tag k="place" v="locality" />
		<tag k="ssr:stedsnr" v="969372" />
	</node>
	<node id="-169003" lat="60.4593749968" lon="9.32309444291">
		<tag k="name" v="Flagemyr" />
		<tag k="natural" v="wetland" />
		<tag k="ssr:stedsnr" v="709589" />
	</node>
	<node id="-169379" lat="60.4353805524" lon="9.43173610783">
		<tag k="name" v="Gurojordet" />
		<tag k="place" v="locality" />
		<tag k="ssr:stedsnr" v="967987" />
	</node>
	<node id="-168351" lat="60.3914944418" lon="9.46575555462">
		<tag k="name" v="Langemyr" />
		<tag k="natural" v="wetland" />
		<tag k="ssr:stedsnr" v="157130" />
	</node>
	<node id="-168861" lat="60.4214083344" lon="9.80697776889">
		<tag k="alt_name" v="Størrmyr" />
		<tag k="name" v="Størrmyra" />
		<tag k="natural" v="wetland" />
		<tag k="ssr:stedsnr" v="612994" />
	</node>
	<node id="-169370" lat="60.4265083343" lon="9.33194167315">
		<tag k="name" v="Klokkarjordet" />
		<tag k="place" v="locality" />
		<tag k="ssr:stedsnr" v="967044" />
	</node>
	<node id="-169349" lat="60.5042111131" lon="9.54036110694">
		<tag k="name" v="Hildegrasingene" />
		<tag k="place" v="locality" />
		<tag k="ssr:stedsnr" v="950669" />
	</node>
	<node id="-169348" lat="60.345338892" lon="9.58693888005">
		<tag k="name" v="Heimyr" />
		<tag k="natural" v="wetland" />
		<tag k="ssr:stedsnr" v="950580" />
	</node>
	<node id="-168833" lat="60.4076277799" lon="9.33771945002">
		<tag k="name" v="Langemyr" />
		<tag k="natural" v="wetland" />
		<tag k="ssr:stedsnr" v="605176" />
	</node>
	<node id="-168829" lat="60.4392861148" lon="9.42357499895">
		<tag k="landuse" v="meadow" />
		<tag k="name" v="Langenga" />
		<tag k="ssr:stedsnr" v="603734" />
	</node>
	<node id="-169340" lat="60.3301222263" lon="9.5371555508">
		<tag k="name" v="Klype" />
		<tag k="natural" v="wetland" />
		<tag k="ssr:stedsnr" v="950189" />
	</node>
	<node id="-169339" lat="60.3047833304" lon="9.53521945328">
		<tag k="name" v="Svartesteindokka" />
		<tag k="natural" v="wetland" />
		<tag k="ssr:stedsnr" v="950168" />
	</node>
	<node id="-168822" lat="60.4187194409" lon="9.22757777855">
		<tag k="name" v="Gislerud vestmark" />
		<tag k="place" v="locality" />
		<tag k="ssr:stedsnr" v="603016" />
	</node>
	<node id="-168811" lat="60.4700138889" lon="9.38114444887">
		<tag k="name" v="Stormyrhalsen" />
		<tag k="natural" v="wetland" />
		<tag k="ssr:stedsnr" v="587575" />
	</node>
	<node id="-168296" lat="60.407833331" lon="9.34247777164">
		<tag k="name" v="Rakhalsmyr" />
		<tag k="natural" v="wetland" />
		<tag k="ssr:stedsnr" v="120153" />
	</node>
	<node id="-168295" lat="60.3955861134" lon="9.41171944291">
		<tag k="name" v="Kastemyrene" />
		<tag k="natural" v="wetland" />
		<tag k="ssr:stedsnr" v="120145" />
	</node>
	<node id="-168286" lat="60.4129250022" lon="9.76045277084">
		<tag k="name" v="Elvetangene" />
		<tag k="place" v="locality" />
		<tag k="ssr:stedsnr" v="118473" />
	</node>
	<node id="-168282" lat="60.4223666644" lon="9.75689721742">
		<tag k="name" v="Bjønnemyra" />
		<tag k="natural" v="wetland" />
		<tag k="ssr:stedsnr" v="118243" />
	</node>
	<node id="-168281" lat="60.4201138863" lon="9.43810833079">
		<tag k="historic" v="shieling" />
		<tag k="name" v="Heimseterstykket" />
		<tag k="place" v="locality" />
		<tag k="ssr:stedsnr" v="118225" />
	</node>
	<node id="-169294" lat="60.3288472188" lon="9.59229166754">
		<tag k="name" v="Tretjern" />
		<tag k="natural" v="wetland" />
		<tag k="ssr:stedsnr" v="909038" />
	</node>
	<node id="-169293" lat="60.450286115" lon="9.38180278067">
		<tag k="name" v="Langebekkmyrene" />
		<tag k="natural" v="wetland" />
		<tag k="ssr:stedsnr" v="907988" />
	</node>
	<node id="-168266" lat="60.4912250028" lon="9.4413583349">
		<tag k="name" v="Rismyr" />
		<tag k="natural" v="wetland" />
		<tag k="ssr:stedsnr" v="101748" />
	</node>
	<node id="-169289" lat="60.4257027767" lon="9.65934721408">
		<tag k="name" v="Flåmyrene" />
		<tag k="natural" v="wetland" />
		<tag k="ssr:stedsnr" v="907463" />
	</node>
	<node id="-168263" lat="60.4907000006" lon="9.41698332526">
		<tag k="name" v="Torgemyr" />
		<tag k="natural" v="wetland" />
		<tag k="ssr:stedsnr" v="101736" />
	</node>
	<node id="-169282" lat="60.4276361153" lon="9.28661666255">
		<tag k="name" v="Veslesetermyr" />
		<tag k="natural" v="wetland" />
		<tag k="ssr:stedsnr" v="907039" />
	</node>
	<node id="-169281" lat="60.4298583307" lon="9.2968277789">
		<tag k="name" v="Gampemyr" />
		<tag k="natural" v="wetland" />
		<tag k="ssr:stedsnr" v="907037" />
	</node>
	<node id="-168248" lat="60.3494694404" lon="9.54488332449">
		<tag k="name" v="Heimseterstykket" />
		<tag k="place" v="locality" />
		<tag k="ssr:stedsnr" v="100576" />
	</node>
	<node id="-168247" lat="60.3037805519" lon="9.55870834176">
		<tag k="name" v="Damvollmyra" />
		<tag k="natural" v="wetland" />
		<tag k="ssr:stedsnr" v="100166" />
	</node>
	<node id="-168244" lat="60.3789972254" lon="9.58371666097">
		<tag k="name" v="Åmellom" />
		<tag k="place" v="locality" />
		<tag k="ssr:stedsnr" v="101368" />
	</node>
	<node id="-168243" lat="60.376988889" lon="9.52965556391">
		<tag k="name" v="Trommeslagermyra" />
		<tag k="natural" v="wetland" />
		<tag k="ssr:stedsnr" v="101366" />
	</node>
	<node id="-168743" lat="60.3429555517" lon="9.59800278627">
		<tag k="name" v="Kumyr" />
		<tag k="natural" v="wetland" />
		<tag k="ssr:stedsnr" v="544917" />
	</node>
	<node id="-168742" lat="60.3973027737" lon="9.30792499592">
		<tag k="name" v="Brattemyrene" />
		<tag k="natural" v="wetland" />
		<tag k="ssr:stedsnr" v="544407" />
	</node>
	<node id="-168741" lat="60.4053111095" lon="9.21837222061">
		<tag k="name" v="Langemyr" />
		<tag k="natural" v="wetland" />
		<tag k="ssr:stedsnr" v="544401" />
	</node>
	<node id="-168736" lat="60.409247219" lon="9.42507221325">
		<tag k="name" v="Lemyrene" />
		<tag k="natural" v="wetland" />
		<tag k="ssr:stedsnr" v="544152" />
	</node>
	<node id="-168223" lat="60.3823499962" lon="9.47958888955">
		<tag k="name" v="Hestemyr" />
		<tag k="natural" v="wetland" />
		<tag k="ssr:stedsnr" v="67263" />
	</node>
	<node id="-169271" lat="60.539063885" lon="9.38727499987">
		<tag k="name" v="Fetjan" />
		<tag k="natural" v="wetland" />
		<tag k="ssr:stedsnr" v="857773" />
	</node>
	<node id="-168199" lat="60.4363833366" lon="9.60612499774">
		<tag k="name" v="Sandemyri" />
		<tag k="natural" v="wetland" />
		<tag k="ssr:stedsnr" v="66881" />
	</node>
	<node id="-168193" lat="60.3937527804" lon="9.27278333622">
		<tag k="historic" v="shieling" />
		<tag k="name" v="Tungevollen" />
		<tag k="place" v="locality" />
		<tag k="ssr:stedsnr" v="59409" />
	</node>
	<node id="-169216" lat="60.4258055524" lon="9.7581944472">
		<tag k="name" v="Heimyran" />
		<tag k="natural" v="wetland" />
		<tag k="ssr:stedsnr" v="846226" />
	</node>
	<node id="-168189" lat="60.4103111128" lon="9.33571389365">
		<tag k="name" v="Kringlemyr" />
		<tag k="natural" v="wetland" />
		<tag k="ssr:stedsnr" v="59134" />
	</node>
	<node id="-168185" lat="60.4471722242" lon="9.38096666215">
		<tag k="name" v="Langebakkstykket" />
		<tag k="place" v="locality" />
		<tag k="ssr:stedsnr" v="57763" />
	</node>
	<node id="-169208" lat="60.4155944403" lon="9.35803056343">
		<tag k="name" v="Raumeskarmyr" />
		<tag k="natural" v="wetland" />
		<tag k="ssr:stedsnr" v="846004" />
	</node>
	<node id="-168695" lat="60.347819443" lon="9.59265555721">
		<tag k="name" v="Flagemyr" />
		<tag k="natural" v="wetland" />
		<tag k="ssr:stedsnr" v="525597" />
	</node>
	<node id="-169204" lat="60.4766166668" lon="9.35046111948">
		<tag k="name" v="Okseskarmyr" />
		<tag k="natural" v="wetland" />
		<tag k="ssr:stedsnr" v="830499" />
	</node>
	<node id="-168174" lat="60.430658337" lon="9.39421666753">
		<tag k="name" v="Hagaåkeren" />
		<tag k="place" v="locality" />
		<tag k="ssr:stedsnr" v="57006" />
	</node>
	<node id="-169194" lat="60.3798499971" lon="9.57781943811">
		<tag k="alt_name" v="Fekjan" />
		<tag k="name" v="Fetjan" />
		<tag k="place" v="locality" />
		<tag k="ssr:stedsnr" v="829371" />
	</node>
	<node id="-168167" lat="60.4900638919" lon="9.45781389532">
		<tag k="name" v="Heimre Veneliskog" />
		<tag k="place" v="locality" />
		<tag k="ssr:stedsnr" v="40773" />
	</node>
	<node id="-169190" lat="60.4305388889" lon="9.43770278482">
		<tag k="name" v="Sandbakkstykket" />
		<tag k="place" v="locality" />
		<tag k="ssr:stedsnr" v="829233" />
	</node>
	<node id="-168165" lat="60.4934166684" lon="9.47234722908">
		<tag k="name" v="Veneliskogen" />
		<tag k="place" v="locality" />
		<tag k="ssr:stedsnr" v="40770" />
	</node>
	<node id="-168668" lat="60.4367888913" lon="9.77801667">
		<tag k="historic" v="shieling" />
		<tag k="name" v="Brennsetervollen" />
		<tag k="place" v="locality" />
		<tag k="ssr:stedsnr" v="491984" />
	</node>
	<node id="-169169" lat="60.3947555587" lon="9.41670000082">
		<tag k="alt_name" v="Svertemyra" />
		<tag k="name" v="Svartemyri" />
		<tag k="natural" v="wetland" />
		<tag k="ssr:stedsnr" v="795286" />
	</node>
	<node id="-168127" lat="60.482041665" lon="9.30116110875">
		<tag k="alt_name" v="Dammyrene" />
		<tag k="name" v="Dammyran" />
		<tag k="natural" v="wetland" />
		<tag k="ssr:stedsnr" v="6352" />
	</node>
	<node id="-168122" lat="60.3863638913" lon="9.51765277513">
		<tag k="alt_name" v="Steguren" />
		<tag k="name" v="Stigurdin" />
		<tag k="natural" v="scree" />
		<tag k="ssr:stedsnr" v="6239" />
	</node>
	<node id="-168633" lat="60.4327138912" lon="9.51304999201">
		<tag k="name" v="Storsteinmyr" />
		<tag k="natural" v="wetland" />
		<tag k="ssr:stedsnr" v="482986" />
	</node>
	<node id="-169140" lat="60.4003333373" lon="9.3020555598">
		<tag k="name" v="Benkemyr" />
		<tag k="natural" v="wetland" />
		<tag k="ssr:stedsnr" v="787393" />
	</node>
	<node id="-168625" lat="60.4261555525" lon="9.32559721721">
		<tag k="name" v="Hansejordet" />
		<tag k="place" v="locality" />
		<tag k="ssr:stedsnr" v="481042" />
	</node>
	<node id="-169121" lat="60.4192138899" lon="9.26032221563">
		<tag k="name" v="Krossmyrene" />
		<tag k="natural" v="wetland" />
		<tag k="ssr:stedsnr" v="785043" />
	</node>
	<node id="-169113" lat="60.4617388924" lon="9.38257500543">
		<tag k="name" v="Krossmyr" />
		<tag k="natural" v="wetland" />
		<tag k="ssr:stedsnr" v="769557" />
	</node>
	<node id="-169111" lat="60.4938083334" lon="9.36131111435">
		<tag k="name" v="Mosebekkmyra" />
		<tag k="natural" v="wetland" />
		<tag k="ssr:stedsnr" v="769543" />
	</node>
	<node id="-169094" lat="60.3575916671" lon="9.67843610359">
		<tag k="name" v="Korsmyra" />
		<tag k="natural" v="wetland" />
		<tag k="ssr:stedsnr" v="767557" />
	</node>
	<node id="-168069" lat="60.4665555537" lon="9.37203055858">
		<tag k="name" v="Halvfarmyr" />
		<tag k="natural" v="wetland" />
		<tag k="ssr:stedsnr" v="891621" />
	</node>
	<node id="-168065" lat="60.4717444401" lon="9.38498332854">
		<tag k="name" v="Stormyr" />
		<tag k="natural" v="wetland" />
		<tag k="ssr:stedsnr" v="891565" />
	</node>
	<node id="-168384" lat="60.4441888921" lon="9.38453056427">
		<tag k="name" v="Jonsonmyra" />
		<tag k="natural" v="wetland" />
		<tag k="ssr:stedsnr" v="178752" />
	</node>
	<node id="-168573" lat="60.3977888895" lon="9.45738888189">
		<tag k="name" v="Nordsetermyri" />
		<tag k="natural" v="wetland" />
		<tag k="ssr:stedsnr" v="431220" />
	</node>
	<node id="-169084" lat="60.3830249986" lon="9.68913332651">
		<tag k="name" v="Slåttemyri" />
		<tag k="natural" v="wetland" />
		<tag k="ssr:stedsnr" v="734963" />
	</node>
	<node id="-168571" lat="60.4010750026" lon="9.3934416585">
		<tag k="alt_name" v="Vikhyttemyrene" />
		<tag k="name" v="Vikhyttemyran" />
		<tag k="natural" v="wetland" />
		<tag k="ssr:stedsnr" v="431213" />
	</node>
	<node id="-169082" lat="60.4027111121" lon="9.67169166465">
		<tag k="name" v="Nedre Strengsmyri" />
		<tag k="natural" v="wetland" />
		<tag k="ssr:stedsnr" v="734950" />
	</node>
	<node id="-168531" lat="60.4524777822" lon="9.47386110729">
		<tag k="name" v="Leikarmyr" />
		<tag k="natural" v="wetland" />
		<tag k="ssr:stedsnr" v="421982" />
	</node>
	<node id="-169039" lat="60.4016388867" lon="9.27600555354">
		<tag k="name" v="Tungemyran" />
		<tag k="natural" v="wetland" />
		<tag k="ssr:stedsnr" v="727375" />
	</node>
	<node id="-169037" lat="60.3772916656" lon="9.46783611892">
		<tag k="name" v="Olaugmyr" />
		<tag k="natural" v="wetland" />
		<tag k="ssr:stedsnr" v="727356" />
	</node>
	<node id="-169033" lat="60.3899138909" lon="9.40865556376">
		<tag k="name" v="Gassgivermyrene" />
		<tag k="natural" v="wetland" />
		<tag k="ssr:stedsnr" v="727145" />
	</node>
	<node id="-167862" lat="60.4541361132" lon="9.46437777191">
		<tag k="name" v="Karirudremmene" />
		<tag k="place" v="locality" />
		<tag k="ssr:stedsnr" v="284572" />
	</node>
	<node id="-169024" lat="60.4171500034" lon="9.76937777674">
		<tag k="name" v="Haukemyr" />
		<tag k="natural" v="wetland" />
		<tag k="ssr:stedsnr" v="724480" />
	</node>
	<node id="-168116" lat="60.4069749973" lon="9.5387000023">
		<tag k="name" v="Sisselstein" />
		<tag k="natural" v="stone" />
		<tag k="ssr:stedsnr" v="6212" />
	</node>
	<node id="-168491" lat="60.3080500014" lon="9.58985000351">
		<tag k="name" v="Stormyr" />
		<tag k="natural" v="wetland" />
		<tag k="ssr:stedsnr" v="249088" />
	</node>
	<node id="-167976" lat="60.4014916658" lon="9.26916388894">
		<tag k="name" v="Stavnsmarki" />
		<tag k="place" v="locality" />
		<tag k="ssr:stedsnr" v="362408" />
	</node>
	<node id="-167975" lat="60.3735444484" lon="9.41419999805">
		<tag k="name" v="Grasingstykket" />
		<tag k="place" v="locality" />
		<tag k="ssr:stedsnr" v="362380" />
	</node>
	<node id="-168997" lat="60.4825444446" lon="9.45912499832">
		<tag k="name" v="Hangsremmen" />
		<tag k="place" v="locality" />
		<tag k="ssr:stedsnr" v="707730" />
	</node>
	<node id="-168996" lat="60.487483332" lon="9.44269166862">
		<tag k="name" v="Kippingsmyr" />
		<tag k="natural" v="wetland" />
		<tag k="ssr:stedsnr" v="707729" />
	</node>
	<node id="-168481" lat="60.3367472236" lon="9.59886667476">
		<tag k="name" v="Pikarmyr" />
		<tag k="natural" v="wetland" />
		<tag k="ssr:stedsnr" v="241913" />
	</node>
	<node id="-167961" lat="60.4650083371" lon="9.29803888219">
		<tag k="historic" v="shieling" />
		<tag k="name" v="Nøbbevollen" />
		<tag k="place" v="locality" />
		<tag k="ssr:stedsnr" v="344625" />
	</node>
	<node id="-167959" lat="60.4725555512" lon="9.46280555111">
		<tag k="name" v="Klypemyr" />
		<tag k="natural" v="wetland" />
		<tag k="ssr:stedsnr" v="344579" />
	</node>
	<node id="-168466" lat="60.4185861085" lon="9.74400556132">
		<tag k="name" v="Tjernmyr" />
		<tag k="natural" v="wetland" />
		<tag k="ssr:stedsnr" v="239251" />
	</node>
	<node id="-168977" lat="60.405430552" lon="9.67218332465">
		<tag k="name" v="Øvre Strengsmyri" />
		<tag k="natural" v="wetland" />
		<tag k="ssr:stedsnr" v="674934" />
	</node>
	<node id="-168462" lat="60.410905558" lon="9.21728332687">
		<tag k="historic" v="shieling" />
		<tag k="name" v="Eilivsvollen" />
		<tag k="place" v="locality" />
		<tag k="ssr:stedsnr" v="239037" />
	</node>
	<node id="-168455" lat="60.4639888901" lon="9.36203610776">
		<tag k="name" v="Stormyr" />
		<tag k="natural" v="wetland" />
		<tag k="ssr:stedsnr" v="223632" />
	</node>
	<node id="-167942" lat="60.3812638863" lon="9.48927777995">
		<tag k="name" v="Stormyr" />
		<tag k="natural" v="wetland" />
		<tag k="ssr:stedsnr" v="343334" />
	</node>
	<node id="-168451" lat="60.4601277797" lon="9.45509999541">
		<tag k="name" v="Kalvemyr" />
		<tag k="natural" v="wetland" />
		<tag k="ssr:stedsnr" v="223609" />
	</node>
	<node id="-168450" lat="60.4626138872" lon="9.46108056125">
		<tag k="name" v="Kalvemyrremmene" />
		<tag k="place" v="locality" />
		<tag k="ssr:stedsnr" v="223594" />
	</node>
</osm>
