<?xml version="1.0" encoding="UTF-8"?>
<osm generator="osmapis" version="0.6">
	<node id="-169503" lat="60.4787718309" lon="9.61140129561">
		<tag k="name" v="Harehopp" />
		<tag k="place" v="locality" />
		<tag k="ssr:stedsnr" v="976227" />
	</node>
	<node id="-169495" lat="60.3875722225" lon="9.42482500183">
		<tag k="historic" v="shieling" />
		<tag k="name" v="Jonsevollen" />
		<tag k="place" v="locality" />
		<tag k="ssr:stedsnr" v="969353" />
	</node>
	<node id="-169491" lat="60.4421277796" lon="9.44976110746">
		<tag k="name" v="Hugnadheim" />
		<tag k="place" v="isolated_dwelling" />
		<tag k="ssr:stedsnr" v="967959" />
	</node>
	<node id="-169489" lat="60.4458611087" lon="9.4256777858">
		<tag k="name" v="Kviheim" />
		<tag k="place" v="farm" />
		<tag k="ssr:stedsnr" v="967728" />
	</node>
	<node id="-169486" lat="60.4172124487" lon="9.48347396112">
		<tag k="fixme" v="consider place=hamlet" />
		<tag k="name" v="Rud" />
		<tag k="place" v="farm" />
		<tag k="ssr:stedsnr" v="967185" />
	</node>
	<node id="-169478" lat="60.3853888894" lon="9.63527777125">
		<tag k="name" v="Øvre Rudningen" />
		<tag k="place" v="locality" />
		<tag k="ssr:stedsnr" v="967275" />
	</node>
	<node id="-169475" lat="60.4525583311" lon="9.58261944099">
		<tag k="name" v="Nordhei" />
		<tag k="place" v="isolated_dwelling" />
		<tag k="ssr:stedsnr" v="967235" />
	</node>
	<node id="-169473" lat="60.4962574896" lon="9.46818368786">
		<tag k="fixme" v="consider tourism=alpine_hut or tourism=chalet" />
		<tag k="name" v="Vassfarkoia" />
		<tag k="ssr:stedsnr" v="963436" />
		<tag k="tourism" v="wilderness_hut" />
	</node>
	<node id="-169467" lat="60.4674888875" lon="9.43420000421">
		<tag k="loc_name" v="Nyset" />
		<tag k="name" v="Nysetseter" />
		<tag k="place" v="locality" />
		<tag k="ssr:stedsnr" v="951590" />
	</node>
	<node id="-169459" lat="60.3520027803" lon="9.64473888709">
		<tag k="name" v="Noreng" />
		<tag k="place" v="isolated_dwelling" />
		<tag k="ssr:stedsnr" v="950564" />
	</node>
	<node id="-169456" lat="60.3723151094" lon="9.64445291995">
		<tag k="alt_name" v="Østre Tromald;Østre Trommald" />
		<tag k="name" v="Austre Trommald" />
		<tag k="place" v="farm" />
		<tag k="ssr:stedsnr" v="950408" />
	</node>
	<node id="-169455" lat="60.4286555598" lon="9.47876389174">
		<tag k="name" v="Øvre Ve" />
		<tag k="place" v="farm" />
		<tag k="ssr:stedsnr" v="950244" />
	</node>
	<node id="-169449" lat="60.3156083294" lon="9.64218611798">
		<tag k="name" v="Hytta" />
		<tag k="place" v="isolated_dwelling" />
		<tag k="ssr:stedsnr" v="917820" />
	</node>
	<node id="-169443" lat="60.4182611124" lon="9.37127778592">
		<tag k="name" v="Plassen" />
		<tag k="place" v="farm" />
		<tag k="ssr:stedsnr" v="917126" />
	</node>
	<node id="-169440" lat="60.4059083364" lon="9.68017778121">
		<tag k="name" v="Strengsmyrhytta" />
		<tag k="place" v="isolated_dwelling" />
		<tag k="ssr:stedsnr" v="916987" />
	</node>
	<node id="-169437" lat="60.3679749983" lon="9.64612499778">
		<tag k="name" v="Vestbøen" />
		<tag k="place" v="isolated_dwelling" />
		<tag k="ssr:stedsnr" v="916818" />
	</node>
	<node id="-169436" lat="60.3658999986" lon="9.5992555467">
		<tag k="name" v="Slåtta" />
		<tag k="place" v="farm" />
		<tag k="ssr:stedsnr" v="916816" />
	</node>
	<node id="-169435" lat="60.3478305575" lon="9.60823333523">
		<tag k="alt_name" v="Søndre Veteren" />
		<tag k="name" v="Søre Veteren" />
		<tag k="place" v="farm" />
		<tag k="ssr:stedsnr" v="916798" />
	</node>
	<node id="-169434" lat="60.3578536245" lon="9.6510856645">
		<tag k="fixme" v="consider place=hamlet" />
		<tag k="name" v="Sønsteby" />
		<tag k="place" v="farm" />
		<tag k="ssr:stedsnr" v="916778" />
	</node>
	<node id="-169433" lat="60.4626972208" lon="9.34769167141">
		<tag k="alt_name" v="Nysæter" />
		<tag k="name" v="Nyseter" />
		<tag k="place" v="locality" />
		<tag k="ssr:stedsnr" v="916389" />
	</node>
	<node id="-169431" lat="60.4653444441" lon="9.30004166782">
		<tag k="name" v="Kvelven" />
		<tag k="place" v="locality" />
		<tag k="ssr:stedsnr" v="916379" />
	</node>
	<node id="-169427" lat="60.3930999961" lon="9.51505832876">
		<tag k="name" v="Listøl" />
		<tag k="place" v="farm" />
		<tag k="ssr:stedsnr" v="916251" />
	</node>
	<node id="-169426" lat="60.3772194408" lon="9.43073056261">
		<tag k="name" v="Baklihytta" />
		<tag k="place" v="isolated_dwelling" />
		<tag k="ssr:stedsnr" v="916238" />
	</node>
	<node id="-169425" lat="60.4128222227" lon="9.43258056203">
		<tag k="name" v="Skogbu" />
		<tag k="place" v="isolated_dwelling" />
		<tag k="ssr:stedsnr" v="916229" />
	</node>
	<node id="-169424" lat="60.414792739" lon="9.31454969285">
		<tag k="fixme" v="consider place=hamlet" />
		<tag k="name" v="Åsen" />
		<tag k="place" v="farm" />
		<tag k="ssr:stedsnr" v="916223" />
	</node>
	<node id="-169422" lat="60.4147444427" lon="9.49686110241">
		<tag k="alt_name" v="Engen" />
		<tag k="name" v="Engi" />
		<tag k="place" v="farm" />
		<tag k="ssr:stedsnr" v="916214" />
	</node>
	<node id="-169421" lat="60.4342750004" lon="9.40209999225">
		<tag k="name" v="Nørdre Gaptjern" />
		<tag k="old_name" v="Nordre Goptjern" />
		<tag k="place" v="farm" />
		<tag k="ssr:stedsnr" v="916198" />
	</node>
	<node id="-169417" lat="60.4504249973" lon="9.33609999374">
		<tag k="name" v="Heiun" />
		<tag k="place" v="isolated_dwelling" />
		<tag k="ssr:stedsnr" v="916152" />
	</node>
	<node id="-169405" lat="60.4408722227" lon="9.45432222763">
		<tag k="name" v="Åsheim" />
		<tag k="place" v="isolated_dwelling" />
		<tag k="ssr:stedsnr" v="907973" />
	</node>
	<node id="-169400" lat="60.3884416642" lon="9.57144167062">
		<tag k="name" v="Nedre Gulsvik" />
		<tag k="place" v="farm" />
		<tag k="ssr:stedsnr" v="907437" />
	</node>
	<node id="-169397" lat="60.4274900898" lon="9.31381625713">
		<tag k="alt_name" v="Stavnsbråten" />
		<tag k="name" v="Nordbråten" />
		<tag k="place" v="farm" />
		<tag k="ssr:stedsnr" v="907050" />
	</node>
	<node id="-169387" lat="60.4222972185" lon="9.38220277937">
		<tag k="name" v="Brubakken" />
		<tag k="place" v="isolated_dwelling" />
		<tag k="ssr:stedsnr" v="906007" />
	</node>
	<node id="-169383" lat="60.4162027822" lon="9.73997500791">
		<tag k="alt_name" v="Tjernmyrhytta" />
		<tag k="name" v="Tjernsmyrhytta" />
		<tag k="place" v="isolated_dwelling" />
		<tag k="ssr:stedsnr" v="856995" />
	</node>
	<node id="-169382" lat="60.3879343441" lon="9.61670981336">
		<tag k="fixme" v="consider place=hamlet" />
		<tag k="name" v="Solheim" />
		<tag k="place" v="farm" />
		<tag k="ssr:stedsnr" v="856972" />
	</node>
	<node id="-169380" lat="60.3984499979" lon="9.63000832498">
		<tag k="name" v="Torehus" />
		<tag k="place" v="locality" />
		<tag k="ssr:stedsnr" v="856963" />
	</node>
	<node id="-169379" lat="60.3879935195" lon="9.59755478871">
		<tag k="alt_name" v="Kittilsviken" />
		<tag k="fixme" v="consider place=hamlet" />
		<tag k="name" v="Kittilsviki" />
		<tag k="place" v="farm" />
		<tag k="ssr:stedsnr" v="856960" />
	</node>
	<node id="-169377" lat="60.3716194419" lon="9.65622499141">
		<tag k="name" v="Oppheim" />
		<tag k="place" v="isolated_dwelling" />
		<tag k="ssr:stedsnr" v="856802" />
	</node>
	<node id="-169375" lat="60.349874999" lon="9.64576111285">
		<tag k="name" v="Hansbråtan" />
		<tag k="place" v="farm" />
		<tag k="ssr:stedsnr" v="856789" />
	</node>
	<node id="-169373" lat="60.3543027803" lon="9.6254833363">
		<tag k="name" v="Halsan" />
		<tag k="place" v="farm" />
		<tag k="ssr:stedsnr" v="856766" />
	</node>
	<node id="-169372" lat="60.4790749994" lon="9.4547999938">
		<tag k="historic" v="shieling" />
		<tag k="name" v="Vesbråtenseter" />
		<tag k="place" v="locality" />
		<tag k="ssr:stedsnr" v="856381" />
	</node>
	<node id="-169370" lat="60.3890166647" lon="9.24712778002">
		<tag k="alt_name" v="Vieranseter" />
		<tag k="historic" v="shieling" />
		<tag k="name" v="Vieran" />
		<tag k="place" v="locality" />
		<tag k="ssr:stedsnr" v="856255" />
	</node>
	<node id="-169368" lat="60.3955749986" lon="9.49894722526">
		<tag k="name" v="Strindeberg" />
		<tag k="place" v="farm" />
		<tag k="ssr:stedsnr" v="856245" />
	</node>
	<node id="-169364" lat="60.4091194467" lon="9.48599166916">
		<tag k="name" v="Bråten" />
		<tag k="place" v="farm" />
		<tag k="ssr:stedsnr" v="856212" />
	</node>
	<node id="-169360" lat="60.4264612171" lon="9.40563189621">
		<tag k="fixme" v="consider place=hamlet" />
		<tag k="name" v="Åvestrud" />
		<tag k="place" v="farm" />
		<tag k="ssr:stedsnr" v="856182" />
	</node>
	<node id="-169356" lat="60.3189694421" lon="9.47072222055">
		<tag k="historic" v="shieling" />
		<tag k="name" v="Gulsviksetran" />
		<tag k="place" v="locality" />
		<tag k="ssr:stedsnr" v="856037" />
	</node>
	<node id="-169354" lat="60.3687999989" lon="9.3433388932">
		<tag k="historic" v="shieling" />
		<tag k="name" v="Åvestrudsetre" />
		<tag k="place" v="locality" />
		<tag k="ssr:stedsnr" v="856026" />
	</node>
	<node id="-169347" lat="60.3399583365" lon="9.64946666806">
		<tag k="name" v="Nyland" />
		<tag k="place" v="farm" />
		<tag k="ssr:stedsnr" v="848911" />
	</node>
	<node id="-169345" lat="60.3991888853" lon="9.28368054921">
		<tag k="historic" v="shieling" />
		<tag k="name" v="Tungsetre" />
		<tag k="place" v="locality" />
		<tag k="ssr:stedsnr" v="848419" />
	</node>
	<node id="-169341" lat="60.4382083313" lon="9.44819721669">
		<tag k="name" v="Tyttebærmoen" />
		<tag k="place" v="farm" />
		<tag k="ssr:stedsnr" v="846998" />
	</node>
	<node id="-169340" lat="60.4445583292" lon="9.44225277389">
		<tag k="name" v="Heiengen" />
		<tag k="place" v="farm" />
		<tag k="ssr:stedsnr" v="846978" />
	</node>
	<node id="-169335" lat="60.4215083289" lon="9.5967361178">
		<tag k="name" v="Stillingdalshytta" />
		<tag k="place" v="isolated_dwelling" />
		<tag k="ssr:stedsnr" v="846476" />
	</node>
	<node id="-169334" lat="60.3888666707" lon="9.56885278238">
		<tag k="name" v="Mellom-Gulsvik" />
		<tag k="place" v="farm" />
		<tag k="ssr:stedsnr" v="846464" />
	</node>
	<node id="-169333" lat="60.3874055531" lon="9.79616111722">
		<tag k="name" v="Tømmerkoia" />
		<tag k="place" v="isolated_dwelling" />
		<tag k="ssr:stedsnr" v="846456" />
	</node>
	<node id="-169326" lat="60.4112527811" lon="9.4796694512">
		<tag k="name" v="Rudslykkja" />
		<tag k="place" v="locality" />
		<tag k="ssr:stedsnr" v="846200" />
	</node>
	<node id="-169324" lat="60.4256444467" lon="9.32185278551">
		<tag k="name" v="Lykkja" />
		<tag k="place" v="farm" />
		<tag k="ssr:stedsnr" v="846038" />
	</node>
	<node id="-169316" lat="60.4452861136" lon="9.28391943845">
		<tag k="name" v="Johanmoen" />
		<tag k="place" v="locality" />
		<tag k="ssr:stedsnr" v="829855" />
	</node>
	<node id="-169315" lat="60.4338027764" lon="9.31559166947">
		<tag k="name" v="Botten" />
		<tag k="place" v="farm" />
		<tag k="ssr:stedsnr" v="829849" />
	</node>
	<node id="-169311" lat="60.3485166704" lon="9.78877777442">
		<tag k="name" v="Tranetjernhytta" />
		<tag k="place" v="isolated_dwelling" />
		<tag k="ssr:stedsnr" v="829576" />
	</node>
	<node id="-169308" lat="60.3784027808" lon="9.5550138821">
		<tag k="name" v="Kvernhusmoen" />
		<tag k="place" v="locality" />
		<tag k="ssr:stedsnr" v="829377" />
	</node>
	<node id="-169302" lat="60.4291055578" lon="9.46611110214">
		<tag k="amenity" v="townhall" />
		<tag k="name" v="Flå kommunehus" />
		<tag k="ssr:stedsnr" v="829226" />
	</node>
	<node id="-169297" lat="60.5370734909" lon="9.37354264143">
		<tag k="fixme" v="multiple name tags, choose one and add the other to alt_name" />
		<tag k="historic" v="shieling" />
		<tag k="name" v="Domfet;Domfetseter" />
		<tag k="place" v="locality" />
		<tag k="ssr:stedsnr" v="796773" />
	</node>
	<node id="-169288" lat="60.3130250041" lon="9.62795277307">
		<tag k="name" v="Ranten" />
		<tag k="place" v="isolated_dwelling" />
		<tag k="ssr:stedsnr" v="795822" />
	</node>
	<node id="-169287" lat="60.3695500019" lon="9.65738055598">
		<tag k="name" v="Slenta" />
		<tag k="place" v="isolated_dwelling" />
		<tag k="ssr:stedsnr" v="795806" />
	</node>
	<node id="-169286" lat="60.3496666691" lon="9.69659166307">
		<tag k="name" v="Kringsjå" />
		<tag k="place" v="isolated_dwelling" />
		<tag k="ssr:stedsnr" v="795779" />
	</node>
	<node id="-169284" lat="60.4802861138" lon="9.51665555208">
		<tag k="name" v="Trollbu" />
		<tag k="place" v="isolated_dwelling" />
		<tag k="ssr:stedsnr" v="795394" />
	</node>
	<node id="-169283" lat="60.4827000003" lon="9.38385832895">
		<tag k="historic" v="shieling" />
		<tag k="name" v="Kvisetran" />
		<tag k="place" v="locality" />
		<tag k="ssr:stedsnr" v="795381" />
	</node>
	<node id="-169281" lat="60.3893850173" lon="9.57002426043">
		<tag k="name" v="Gulsvik" />
		<tag k="place" v="hamlet" />
		<tag k="ssr:stedsnr" v="795272" />
	</node>
	<node id="-169277" lat="60.3757472261" lon="9.29098333281">
		<tag k="historic" v="shieling" />
		<tag k="name" v="Tollevsrudsetre" />
		<tag k="place" v="locality" />
		<tag k="ssr:stedsnr" v="795254" />
	</node>
	<node id="-169275" lat="60.4285194448" lon="9.48424721831">
		<tag k="name" v="Vesberg" />
		<tag k="place" v="farm" />
		<tag k="ssr:stedsnr" v="795210" />
	</node>
	<node id="-169273" lat="60.4448805536" lon="9.32431388176">
		<tag k="alt_name" v="Søndre Kolsrud;Kolsrud søndre" />
		<tag k="name" v="Søre Kolsrud" />
		<tag k="place" v="farm" />
		<tag k="ssr:stedsnr" v="795180" />
	</node>
	<node id="-169268" lat="60.3391555589" lon="9.53302777344">
		<tag k="name" v="Leirvollen" />
		<tag k="place" v="isolated_dwelling" />
		<tag k="ssr:stedsnr" v="795079" />
	</node>
	<node id="-169259" lat="60.4435750013" lon="9.83178334225">
		<tag k="historic" v="shieling" />
		<tag k="name" v="Skardsetre" />
		<tag k="place" v="locality" />
		<tag k="ssr:stedsnr" v="794892" />
	</node>
	<node id="-169258" lat="60.4746499989" lon="9.45170277916">
		<tag k="name" v="Guribu" />
		<tag k="place" v="isolated_dwelling" />
		<tag k="ssr:stedsnr" v="794336" />
	</node>
	<node id="-169256" lat="60.3430333366" lon="9.80314166337">
		<tag k="name" v="Griseseter" />
		<tag k="place" v="locality" />
		<tag k="ssr:stedsnr" v="787923" />
	</node>
	<node id="-169248" lat="60.4374416708" lon="9.43532499949">
		<tag k="name" v="Øvre Trøstheim" />
		<tag k="place" v="farm" />
		<tag k="ssr:stedsnr" v="785994" />
	</node>
	<node id="-169238" lat="60.4181388852" lon="9.49430000398">
		<tag k="name" v="Vesbuøen" />
		<tag k="place" v="farm" />
		<tag k="ssr:stedsnr" v="785187" />
	</node>
	<node id="-169237" lat="60.409777775" lon="9.50715277414">
		<tag k="name" v="Engebo" />
		<tag k="place" v="farm" />
		<tag k="ssr:stedsnr" v="785179" />
	</node>
	<node id="-169215" lat="60.3160388922" lon="9.56874444725">
		<tag k="historic" v="shieling" />
		<tag k="loc_name" v="Gamlevollen" />
		<tag k="name" v="Nybu" />
		<tag k="place" v="locality" />
		<tag k="ssr:stedsnr" v="768175" />
	</node>
	<node id="-169203" lat="60.5295611156" lon="9.54874445099">
		<tag k="name" v="Busand" />
		<tag k="place" v="isolated_dwelling" />
		<tag k="ssr:stedsnr" v="735765" />
	</node>
	<node id="-169196" lat="60.4068416671" lon="9.77543332937">
		<tag k="fixme" v="consider tourism=alpine_hut or tourism=chalet" />
		<tag k="name" v="Buvasskoia" />
		<tag k="ssr:stedsnr" v="734956" />
		<tag k="tourism" v="wilderness_hut" />
	</node>
	<node id="-169190" lat="60.3588916666" lon="9.6786444408">
		<tag k="name" v="Åsbu" />
		<tag k="place" v="isolated_dwelling" />
		<tag k="ssr:stedsnr" v="734760" />
	</node>
	<node id="-169188" lat="60.4517472185" lon="9.2938444527">
		<tag k="name" v="Vassfarmoen" />
		<tag k="place" v="farm" />
		<tag k="ssr:stedsnr" v="734406" />
	</node>
	<node id="-169181" lat="60.3944972254" lon="9.46216944536">
		<tag k="historic" v="shieling" />
		<tag k="name" v="Sjugurdsetre" />
		<tag k="place" v="locality" />
		<tag k="ssr:stedsnr" v="734278" />
	</node>
	<node id="-169177" lat="60.382375" lon="9.51814999552">
		<tag k="name" v="Li" />
		<tag k="place" v="isolated_dwelling" />
		<tag k="ssr:stedsnr" v="734252" />
	</node>
	<node id="-169175" lat="60.4193555543" lon="9.49066666159">
		<tag k="name" v="Buheim" />
		<tag k="place" v="farm" />
		<tag k="ssr:stedsnr" v="734235" />
	</node>
	<node id="-169173" lat="60.4266083298" lon="9.45298055279">
		<tag k="name" v="Svingen" />
		<tag k="place" v="farm" />
		<tag k="ssr:stedsnr" v="734195" />
	</node>
	<node id="-169172" lat="60.4263666687" lon="9.46098610746">
		<tag k="name" v="Evjo" />
		<tag k="place" v="farm" />
		<tag k="ssr:stedsnr" v="734192" />
	</node>
	<node id="-169169" lat="60.4237972232" lon="9.39471389206">
		<tag k="name" v="Steinmoen" />
		<tag k="place" v="isolated_dwelling" />
		<tag k="ssr:stedsnr" v="734171" />
	</node>
	<node id="-169168" lat="60.4579472193" lon="9.3331333373">
		<tag k="name" v="Suserud" />
		<tag k="place" v="isolated_dwelling" />
		<tag k="ssr:stedsnr" v="734170" />
	</node>
	<node id="-169167" lat="60.4496234715" lon="9.31334852827">
		<tag k="name" v="Nordre Kolsrud" />
		<tag k="place" v="farm" />
		<tag k="ssr:stedsnr" v="734155" />
	</node>
	<node id="-169164" lat="60.4415388872" lon="9.38511667571">
		<tag k="historic" v="shieling" />
		<tag k="name" v="Nylio" />
		<tag k="place" v="locality" />
		<tag k="ssr:stedsnr" v="734134" />
	</node>
	<node id="-169162" lat="60.3444750034" lon="9.53151943813">
		<tag k="name" v="Solbu" />
		<tag k="place" v="isolated_dwelling" />
		<tag k="ssr:stedsnr" v="734020" />
	</node>
	<node id="-169160" lat="60.3534749979" lon="9.53083332684">
		<tag k="fixme" v="multiple name tags, choose one and add the other to alt_name" />
		<tag k="historic" v="shieling" />
		<tag k="name" v="Gulsvik heimseter;Bjørnsetre" />
		<tag k="place" v="locality" />
		<tag k="ssr:stedsnr" v="734012" />
	</node>
	<node id="-169147" lat="60.3860277795" lon="9.42783611731">
		<tag k="name" v="Frihetsstykket" />
		<tag k="place" v="locality" />
		<tag k="ssr:stedsnr" v="727345" />
	</node>
	<node id="-169145" lat="60.4434357486" lon="9.44689101741">
		<tag k="alt_name" v="Heie" />
		<tag k="fixme" v="consider place=hamlet" />
		<tag k="name" v="Hei" />
		<tag k="place" v="farm" />
		<tag k="ssr:stedsnr" v="726548" />
	</node>
	<node id="-169144" lat="60.4391416689" lon="9.45649721805">
		<tag k="name" v="Heiland" />
		<tag k="place" v="isolated_dwelling" />
		<tag k="ssr:stedsnr" v="724998" />
	</node>
	<node id="-169142" lat="60.4317194409" lon="9.47083332463">
		<tag k="name" v="Elvetun" />
		<tag k="place" v="isolated_dwelling" />
		<tag k="ssr:stedsnr" v="724990" />
	</node>
	<node id="-169135" lat="60.3964305556" lon="9.61850832682">
		<tag k="name" v="Tunga" />
		<tag k="place" v="farm" />
		<tag k="ssr:stedsnr" v="724452" />
	</node>
	<node id="-169133" lat="60.3933000001" lon="9.55221943566">
		<tag k="name" v="Roppeøyni" />
		<tag k="place" v="isolated_dwelling" />
		<tag k="ssr:stedsnr" v="724444" />
	</node>
	<node id="-169132" lat="60.3886416647" lon="9.56928611599">
		<tag k="alt_name" v="Søndre Gulsvik" />
		<tag k="name" v="Søre Gulsvik" />
		<tag k="place" v="farm" />
		<tag k="ssr:stedsnr" v="724445" />
	</node>
	<node id="-169131" lat="60.3814499966" lon="9.60538055457">
		<tag k="building" v="industrial" />
		<tag k="name" v="Gulsvik sag &amp; høvleri" />
		<tag k="ssr:stedsnr" v="724292" />
	</node>
	<node id="-169130" lat="60.4320388882" lon="9.74985555702">
		<tag k="name" v="Erikbu" />
		<tag k="place" v="isolated_dwelling" />
		<tag k="ssr:stedsnr" v="724253" />
	</node>
	<node id="-169127" lat="60.4461305513" lon="9.59209999221">
		<tag k="name" v="Svangtjernhytta" />
		<tag k="place" v="isolated_dwelling" />
		<tag k="ssr:stedsnr" v="724219" />
	</node>
	<node id="-169125" lat="60.4096916652" lon="9.49656667369">
		<tag k="name" v="Tangen" />
		<tag k="place" v="farm" />
		<tag k="ssr:stedsnr" v="724161" />
	</node>
	<node id="-169123" lat="60.4311194429" lon="9.41629444469">
		<tag k="name" v="Viskop" />
		<tag k="place" v="isolated_dwelling" />
		<tag k="ssr:stedsnr" v="724012" />
	</node>
	<node id="-169122" lat="60.4274361086" lon="9.40854443754">
		<tag k="alt_name" v="Søndre Åvestrud" />
		<tag k="name" v="Søre Åvestrud" />
		<tag k="place" v="farm" />
		<tag k="ssr:stedsnr" v="724010" />
	</node>
	<node id="-169106" lat="60.3541749988" lon="9.6106027775">
		<tag k="name" v="Bera" />
		<tag k="place" v="locality" />
		<tag k="ssr:stedsnr" v="707597" />
	</node>
	<node id="-169103" lat="60.3646972244" lon="9.73530834099">
		<tag k="name" v="Slåttohytta" />
		<tag k="place" v="isolated_dwelling" />
		<tag k="ssr:stedsnr" v="707579" />
	</node>
	<node id="-169094" lat="60.5127666703" lon="9.41194999221">
		<tag k="historic" v="shieling" />
		<tag k="name" v="Nedre Raudfjellsetre" />
		<tag k="place" v="locality" />
		<tag k="ssr:stedsnr" v="675815" />
	</node>
	<node id="-169088" lat="60.565466665" lon="9.40705278563">
		<tag k="name" v="Arnebu" />
		<tag k="place" v="locality" />
		<tag k="ssr:stedsnr" v="674833" />
	</node>
	<node id="-169085" lat="60.5167027775" lon="9.41722777009">
		<tag k="historic" v="shieling" />
		<tag k="name" v="Øvre Raudfjellsetre" />
		<tag k="place" v="locality" />
		<tag k="ssr:stedsnr" v="674773" />
	</node>
	<node id="-169082" lat="60.4224833301" lon="9.49247500405">
		<tag k="name" v="Øystre" />
		<tag k="place" v="farm" />
		<tag k="ssr:stedsnr" v="674207" />
	</node>
	<node id="-169080" lat="60.4322888894" lon="9.35672500494">
		<tag k="name" v="Austvoll" />
		<tag k="place" v="isolated_dwelling" />
		<tag k="ssr:stedsnr" v="674178" />
	</node>
	<node id="-169079" lat="60.4279499995" lon="9.37698332896">
		<tag k="alt_name" v="Dokken" />
		<tag k="name" v="Dokki" />
		<tag k="place" v="farm" />
		<tag k="ssr:stedsnr" v="674176" />
	</node>
	<node id="-169078" lat="60.4316805511" lon="9.34273055833">
		<tag k="name" v="Melbråten" />
		<tag k="place" v="farm" />
		<tag k="ssr:stedsnr" v="674175" />
	</node>
	<node id="-169077" lat="60.4219897433" lon="9.37073872115">
		<tag k="alt_name" v="Reiarsgarden" />
		<tag k="name" v="Reiarsgard" />
		<tag k="old_name" v="Reiarskard" />
		<tag k="place" v="farm" />
		<tag k="ssr:stedsnr" v="674161" />
	</node>
	<node id="-169072" lat="60.4403333331" lon="9.77068888517">
		<tag k="name" v="Fjellandvollen" />
		<tag k="place" v="isolated_dwelling" />
		<tag k="ssr:stedsnr" v="673982" />
	</node>
	<node id="-169071" lat="60.4346666694" lon="9.61392777813">
		<tag k="name" v="Vaktartjernhytta" />
		<tag k="place" v="isolated_dwelling" />
		<tag k="ssr:stedsnr" v="673979" />
	</node>
	<node id="-169064" lat="60.3441094137" lon="9.64607210624">
		<tag k="fixme" v="consider place=hamlet" />
		<tag k="name" v="Leknes" />
		<tag k="place" v="farm" />
		<tag k="ssr:stedsnr" v="673762" />
	</node>
	<node id="-169063" lat="60.350791667" lon="9.60852777536">
		<tag k="alt_name" v="Veteren" />
		<tag k="name" v="Nordre Veteren" />
		<tag k="place" v="farm" />
		<tag k="ssr:stedsnr" v="673761" />
	</node>
	<node id="-169058" lat="60.3659555556" lon="9.18332777441">
		<tag k="historic" v="shieling" />
		<tag k="name" v="Bergesetre" />
		<tag k="place" v="locality" />
		<tag k="ssr:stedsnr" v="673402" />
	</node>
	<node id="-169057" lat="60.4755777745" lon="9.37838888186">
		<tag k="historic" v="shieling" />
		<tag k="name" v="Grønlisetran" />
		<tag k="place" v="locality" />
		<tag k="ssr:stedsnr" v="673373" />
	</node>
	<node id="-169053" lat="60.3945527789" lon="9.53549444104">
		<tag k="name" v="Haramoen" />
		<tag k="place" v="isolated_dwelling" />
		<tag k="ssr:stedsnr" v="673258" />
	</node>
	<node id="-169051" lat="60.4053611105" lon="9.34813055089">
		<tag k="name" v="Samuelslisetre" />
		<tag k="place" v="locality" />
		<tag k="ssr:stedsnr" v="673207" />
	</node>
	<node id="-169048" lat="60.4551833289" lon="9.573413882">
		<tag k="historic" v="shieling" />
		<tag k="name" v="Skardsetre" />
		<tag k="place" v="locality" />
		<tag k="ssr:stedsnr" v="673161" />
	</node>
	<node id="-169047" lat="60.4451138867" lon="9.4291388842">
		<tag k="alt_name" v="Engen" />
		<tag k="name" v="Engi" />
		<tag k="place" v="farm" />
		<tag k="ssr:stedsnr" v="673150" />
	</node>
	<node id="-169036" lat="60.3316611112" lon="9.58127776996">
		<tag k="name" v="Svarttjernhytta" />
		<tag k="place" v="isolated_dwelling" />
		<tag k="ssr:stedsnr" v="666048" />
	</node>
	<node id="-169028" lat="60.4322555592" lon="9.75294721877">
		<tag k="name" v="Steinkollvollen" />
		<tag k="place" v="isolated_dwelling" />
		<tag k="ssr:stedsnr" v="663268" />
	</node>
	<node id="-169027" lat="60.4204388851" lon="9.80234167434">
		<tag k="name" v="Størrmyrhytta" />
		<tag k="place" v="isolated_dwelling" />
		<tag k="ssr:stedsnr" v="663246" />
	</node>
	<node id="-169022" lat="60.4079444487" lon="9.49563332917">
		<tag k="name" v="Bergom" />
		<tag k="place" v="farm" />
		<tag k="ssr:stedsnr" v="662186" />
	</node>
	<node id="-169013" lat="60.4472138907" lon="9.2976750005">
		<tag k="name" v="Gamletunet" />
		<tag k="place" v="locality" />
		<tag k="ssr:stedsnr" v="646835" />
	</node>
	<node id="-169005" lat="60.5274111149" lon="9.51323611224">
		<tag k="name" v="Greineløkhytta" />
		<tag k="place" v="isolated_dwelling" />
		<tag k="ssr:stedsnr" v="646663" />
	</node>
	<node id="-169004" lat="60.3508469872" lon="9.60855519014">
		<tag k="name" v="Veteren" />
		<tag k="old_name" v="Væteren" />
		<tag k="place" v="farm" />
		<tag k="ssr:stedsnr" v="646592" />
	</node>
	<node id="-169003" lat="60.3461388847" lon="9.73026944525">
		<tag k="name" v="Elgebuss" />
		<tag k="place" v="isolated_dwelling" />
		<tag k="ssr:stedsnr" v="646574" />
	</node>
	<node id="-169001" lat="60.3741833313" lon="9.62544722783">
		<tag k="name" v="Vikstrand" />
		<tag k="place" v="isolated_dwelling" />
		<tag k="ssr:stedsnr" v="646392" />
	</node>
	<node id="-168998" lat="60.4270416634" lon="9.46835000147">
		<tag k="alt_name" v="Søndre Voll" />
		<tag k="name" v="Søre Voll" />
		<tag k="place" v="farm" />
		<tag k="ssr:stedsnr" v="646229" />
	</node>
	<node id="-168994" lat="60.3893361111" lon="9.79052499621">
		<tag k="alt_name" v="Myrhus" />
		<tag k="name" v="Myrehus" />
		<tag k="place" v="isolated_dwelling" />
		<tag k="ssr:stedsnr" v="613962" />
	</node>
	<node id="-168989" lat="60.3716777805" lon="9.76618332535">
		<tag k="name" v="Lauvskardsetre" />
		<tag k="place" v="locality" />
		<tag k="ssr:stedsnr" v="613785" />
	</node>
	<node id="-168988" lat="60.375333334" lon="9.65197776899">
		<tag k="alt_name" v="Hagen" />
		<tag k="name" v="Hagan" />
		<tag k="place" v="farm" />
		<tag k="ssr:stedsnr" v="613782" />
	</node>
	<node id="-168987" lat="60.5321333365" lon="9.57311389231">
		<tag k="alt_name" v="Kana" />
		<tag k="name" v="Kanan" />
		<tag k="place" v="locality" />
		<tag k="ssr:stedsnr" v="613762" />
	</node>
	<node id="-168986" lat="60.5233416654" lon="9.3673722176">
		<tag k="alt_name" v="Dagaliseter" />
		<tag k="historic" v="shieling" />
		<tag k="name" v="Dagali" />
		<tag k="place" v="locality" />
		<tag k="ssr:stedsnr" v="613749" />
	</node>
	<node id="-168984" lat="60.4158277792" lon="9.54357777876">
		<tag k="historic" v="shieling" />
		<tag k="name" v="Mosetre" />
		<tag k="place" v="locality" />
		<tag k="ssr:stedsnr" v="613217" />
	</node>
	<node id="-168982" lat="60.4275027759" lon="9.45157499196">
		<tag k="alt_name" v="Larsplass" />
		<tag k="name" v="Larsplassen" />
		<tag k="place" v="farm" />
		<tag k="ssr:stedsnr" v="613165" />
	</node>
	<node id="-168980" lat="60.445449998" lon="9.46517776912">
		<tag k="name" v="Leipa" />
		<tag k="place" v="locality" />
		<tag k="ssr:stedsnr" v="613133" />
	</node>
	<node id="-168979" lat="60.372277775" lon="9.48896111889">
		<tag k="historic" v="shieling" />
		<tag k="name" v="Gandrudsetre" />
		<tag k="place" v="locality" />
		<tag k="ssr:stedsnr" v="613027" />
	</node>
	<node id="-168973" lat="60.4102805527" lon="9.701055552">
		<tag k="historic" v="shieling" />
		<tag k="name" v="Øvstevassetran" />
		<tag k="place" v="locality" />
		<tag k="ssr:stedsnr" v="612985" />
	</node>
	<node id="-168972" lat="60.4229138875" lon="9.77722499213">
		<tag k="name" v="Bukollplassen" />
		<tag k="place" v="isolated_dwelling" />
		<tag k="ssr:stedsnr" v="612968" />
	</node>
	<node id="-168971" lat="60.4285749985" lon="9.76290000016">
		<tag k="historic" v="shieling" />
		<tag k="name" v="Oppsalsetre" />
		<tag k="place" v="locality" />
		<tag k="ssr:stedsnr" v="612966" />
	</node>
	<node id="-168968" lat="60.3151138875" lon="9.70940555687">
		<tag k="historic" v="shieling" />
		<tag k="name" v="Lindelisetre" />
		<tag k="place" v="locality" />
		<tag k="ssr:stedsnr" v="612820" />
	</node>
	<node id="-168963" lat="60.3730305516" lon="9.18258056435">
		<tag k="historic" v="shieling" />
		<tag k="name" v="Flatvollen" />
		<tag k="place" v="locality" />
		<tag k="ssr:stedsnr" v="612384" />
	</node>
	<node id="-168962" lat="60.4856138867" lon="9.44615833791">
		<tag k="fixme" v="multiple name tags, choose one and add the other to alt_name" />
		<tag k="name" v="Hangshytta;Hangstjernhytta" />
		<tag k="place" v="isolated_dwelling" />
		<tag k="ssr:stedsnr" v="612368" />
	</node>
	<node id="-168959" lat="60.494494442" lon="9.45909444776">
		<tag k="name" v="Nybu" />
		<tag k="place" v="isolated_dwelling" />
		<tag k="ssr:stedsnr" v="612342" />
	</node>
	<node id="-168958" lat="60.4144166668" lon="9.43423610944">
		<tag k="alt_name" v="Bjønndalshytta" />
		<tag k="name" v="Bjørnedalshytta" />
		<tag k="place" v="isolated_dwelling" />
		<tag k="ssr:stedsnr" v="612225" />
	</node>
	<node id="-168957" lat="60.4070249971" lon="9.30101110783">
		<tag k="name" v="Bjørnehaug" />
		<tag k="place" v="isolated_dwelling" />
		<tag k="ssr:stedsnr" v="612218" />
	</node>
	<node id="-168956" lat="60.4126888921" lon="9.49946388614">
		<tag k="name" v="Engheim" />
		<tag k="place" v="isolated_dwelling" />
		<tag k="ssr:stedsnr" v="612214" />
	</node>
	<node id="-168954" lat="60.4035750032" lon="9.39180277283">
		<tag k="name" v="Vikhytta" />
		<tag k="place" v="isolated_dwelling" />
		<tag k="ssr:stedsnr" v="612208" />
	</node>
	<node id="-168953" lat="60.4552111155" lon="9.38582499222">
		<tag k="historic" v="shieling" />
		<tag k="name" v="Sørstølan" />
		<tag k="place" v="locality" />
		<tag k="ssr:stedsnr" v="612169" />
	</node>
	<node id="-168952" lat="60.4560277795" lon="9.42741110238">
		<tag k="historic" v="shieling" />
		<tag k="name" v="Kviheimsetre" />
		<tag k="place" v="locality" />
		<tag k="ssr:stedsnr" v="612167" />
	</node>
	<node id="-168945" lat="60.4396388868" lon="9.4555055557">
		<tag k="name" v="Dalen" />
		<tag k="place" v="isolated_dwelling" />
		<tag k="ssr:stedsnr" v="603993" />
	</node>
	<node id="-168939" lat="60.4147333365" lon="9.63877221667">
		<tag k="name" v="Veåshytta" />
		<tag k="place" v="isolated_dwelling" />
		<tag k="ssr:stedsnr" v="603497" />
	</node>
	<node id="-168934" lat="60.4646555549" lon="9.5632694532">
		<tag k="loc_name" v="Skarsdalen" />
		<tag k="name" v="Skardsdalen" />
		<tag k="place" v="neighbourhood" />
		<tag k="ssr:stedsnr" v="602876" />
	</node>
	<node id="-168933" lat="60.3890694456" lon="9.56107499919">
		<tag k="name" v="Nordre Gulsvik" />
		<tag k="place" v="farm" />
		<tag k="ssr:stedsnr" v="602488" />
	</node>
	<node id="-168932" lat="60.422222225" lon="9.51653333328">
		<tag k="name" v="Fattigset" />
		<tag k="place" v="locality" />
		<tag k="ssr:stedsnr" v="602197" />
	</node>
	<node id="-168929" lat="60.4054416671" lon="9.49196388453">
		<tag k="name" v="Kjøsenga" />
		<tag k="place" v="farm" />
		<tag k="ssr:stedsnr" v="601183" />
	</node>
	<node id="-168923" lat="60.4553527789" lon="9.49773612001">
		<tag k="name" v="Vesleånhytta" />
		<tag k="place" v="isolated_dwelling" />
		<tag k="ssr:stedsnr" v="587552" />
	</node>
	<node id="-168920" lat="60.4915111127" lon="9.38332499448">
		<tag k="alt_name" v="Veslefekjan" />
		<tag k="name" v="Veslefetjan" />
		<tag k="place" v="locality" />
		<tag k="ssr:stedsnr" v="586744" />
	</node>
	<node id="-168919" lat="60.544391664" lon="9.42595000874">
		<tag k="name" v="Sundehytta" />
		<tag k="place" v="locality" />
		<tag k="ssr:stedsnr" v="586695" />
	</node>
	<node id="-168918" lat="60.3758777787" lon="9.62435555294">
		<tag k="name" v="Bråten" />
		<tag k="place" v="farm" />
		<tag k="ssr:stedsnr" v="586425" />
	</node>
	<node id="-168917" lat="60.3734285509" lon="9.64301872041">
		<tag k="alt_name" v="Vestre Tromald" />
		<tag k="name" v="Vestre Trommald" />
		<tag k="place" v="farm" />
		<tag k="ssr:stedsnr" v="586422" />
	</node>
	<node id="-168915" lat="60.3821444421" lon="9.61072777088">
		<tag k="name" v="Granheim" />
		<tag k="place" v="farm" />
		<tag k="ssr:stedsnr" v="586400" />
	</node>
	<node id="-168913" lat="60.3723972252" lon="9.63511389069">
		<tag k="name" v="Fossmo" />
		<tag k="place" v="isolated_dwelling" />
		<tag k="ssr:stedsnr" v="586390" />
	</node>
	<node id="-168911" lat="60.4308833332" lon="9.46110278651">
		<tag k="name" v="Grønvoll" />
		<tag k="place" v="farm" />
		<tag k="ssr:stedsnr" v="586240" />
	</node>
	<node id="-168910" lat="60.4275361074" lon="9.47311667504">
		<tag k="name" v="Nedre Ve" />
		<tag k="place" v="farm" />
		<tag k="ssr:stedsnr" v="586237" />
	</node>
	<node id="-168909" lat="60.4279083315" lon="9.46909166605">
		<tag k="name" v="Solvang" />
		<tag k="place" v="isolated_dwelling" />
		<tag k="ssr:stedsnr" v="586236" />
	</node>
	<node id="-168900" lat="60.3492194468" lon="9.64838055006">
		<tag k="name" v="Reset" />
		<tag k="place" v="locality" />
		<tag k="ssr:stedsnr" v="585543" />
	</node>
	<node id="-168899" lat="60.3531055597" lon="9.65228334169">
		<tag k="name" v="Øvre Haug" />
		<tag k="place" v="farm" />
		<tag k="ssr:stedsnr" v="585539" />
	</node>
	<node id="-168897" lat="60.3656027749" lon="9.64751111421">
		<tag k="name" v="Nordre Medbøen" />
		<tag k="place" v="farm" />
		<tag k="ssr:stedsnr" v="585534" />
	</node>
	<node id="-168890" lat="60.3800611081" lon="9.65092777379">
		<tag k="alt_name" v="Tranumbråten" />
		<tag k="name" v="Tranebråtan" />
		<tag k="place" v="farm" />
		<tag k="ssr:stedsnr" v="552978" />
	</node>
	<node id="-168886" lat="60.3628249969" lon="9.67131110326">
		<tag k="name" v="Sætri" />
		<tag k="place" v="locality" />
		<tag k="ssr:stedsnr" v="552832" />
	</node>
	<node id="-168885" lat="60.3777750028" lon="9.63897500822">
		<tag k="alt_name" v="Lien" />
		<tag k="name" v="Lii" />
		<tag k="place" v="farm" />
		<tag k="ssr:stedsnr" v="552814" />
	</node>
	<node id="-168883" lat="60.3589717735" lon="9.60877955041">
		<tag k="alt_name" v="Buøen" />
		<tag k="fixme" v="consider place=hamlet" />
		<tag k="loc_name" v="Buøyni" />
		<tag k="name" v="Buøyna" />
		<tag k="place" v="farm" />
		<tag k="ssr:stedsnr" v="552772" />
	</node>
	<node id="-168882" lat="60.4828305545" lon="9.35696943747">
		<tag k="historic" v="shieling" />
		<tag k="name" v="Rimesetre" />
		<tag k="place" v="locality" />
		<tag k="ssr:stedsnr" v="552373" />
	</node>
	<node id="-168877" lat="60.3828499978" lon="9.56225278073">
		<tag k="name" v="Vesle Gandrud" />
		<tag k="place" v="farm" />
		<tag k="ssr:stedsnr" v="552254" />
	</node>
	<node id="-168876" lat="60.3809249998" lon="9.46866943662">
		<tag k="historic" v="shieling" />
		<tag k="name" v="Sølesetre" />
		<tag k="place" v="locality" />
		<tag k="ssr:stedsnr" v="552250" />
	</node>
	<node id="-168875" lat="60.376211114" lon="9.46098333055">
		<tag k="historic" v="shieling" />
		<tag k="name" v="Rudsheimsetre" />
		<tag k="place" v="locality" />
		<tag k="ssr:stedsnr" v="552244" />
	</node>
	<node id="-168873" lat="60.4169527782" lon="9.48253333822">
		<tag k="alt_name" v="Søndre Rud" />
		<tag k="name" v="Søre Rud" />
		<tag k="place" v="farm" />
		<tag k="ssr:stedsnr" v="552230" />
	</node>
	<node id="-168870" lat="60.4009833337" lon="9.35913888894">
		<tag k="historic" v="shieling" />
		<tag k="name" v="Slåttemyr" />
		<tag k="place" v="locality" />
		<tag k="ssr:stedsnr" v="552207" />
	</node>
	<node id="-168869" lat="60.4387944562" lon="9.43343098179">
		<tag k="fixme" v="consider place=hamlet" />
		<tag k="name" v="Trøstheim" />
		<tag k="place" v="farm" />
		<tag k="ssr:stedsnr" v="552199" />
	</node>
	<node id="-168867" lat="60.4169888877" lon="9.39806388228">
		<tag k="name" v="Liabråten" />
		<tag k="place" v="farm" />
		<tag k="ssr:stedsnr" v="552167" />
	</node>
	<node id="-168863" lat="60.3482777736" lon="9.42788334183">
		<tag k="name" v="Jakobslisetre" />
		<tag k="place" v="locality" />
		<tag k="ssr:stedsnr" v="552003" />
	</node>
	<node id="-168861" lat="60.442005552" lon="9.64391665863">
		<tag k="name" v="Gamlevollen" />
		<tag k="place" v="isolated_dwelling" />
		<tag k="ssr:stedsnr" v="551901" />
	</node>
	<node id="-168858" lat="60.4743444402" lon="9.4043138959">
		<tag k="name" v="Kvitjernhytta" />
		<tag k="place" v="isolated_dwelling" />
		<tag k="ssr:stedsnr" v="551343" />
	</node>
	<node id="-168857" lat="60.4343250025" lon="9.44928889026">
		<tag k="name" v="Bjørneparken" />
		<tag k="ssr:stedsnr" v="545460" />
		<tag k="tourism" v="theme_park" />
	</node>
	<node id="-168846" lat="60.3265250001" lon="9.58944443784">
		<tag k="name" v="Løken" />
		<tag k="place" v="isolated_dwelling" />
		<tag k="ssr:stedsnr" v="544033" />
	</node>
	<node id="-168845" lat="60.4405777745" lon="9.45640833558">
		<tag k="name" v="Elvelund" />
		<tag k="place" v="isolated_dwelling" />
		<tag k="ssr:stedsnr" v="542999" />
	</node>
	<node id="-168843" lat="60.4313361089" lon="9.47275555301">
		<tag k="name" v="Fjellheim" />
		<tag k="place" v="isolated_dwelling" />
		<tag k="ssr:stedsnr" v="542992" />
	</node>
	<node id="-168841" lat="60.4345638873" lon="9.46589722643">
		<tag k="name" v="Nedre Hilde" />
		<tag k="place" v="farm" />
		<tag k="ssr:stedsnr" v="542985" />
	</node>
	<node id="-168838" lat="60.4420055573" lon="9.45130278218">
		<tag k="amenity" v="nursing_home" />
		<tag k="name" v="Flå bygdaheim" />
		<tag k="ssr:stedsnr" v="542971" />
	</node>
	<node id="-168837" lat="60.4060583327" lon="9.75236111427">
		<tag k="name" v="Trillegården" />
		<tag k="place" v="farm" />
		<tag k="ssr:stedsnr" v="542496" />
	</node>
	<node id="-168836" lat="60.3990222188" lon="9.79506389759">
		<tag k="historic" v="shieling" />
		<tag k="name" v="Fossebråtan" />
		<tag k="place" v="locality" />
		<tag k="ssr:stedsnr" v="542497" />
	</node>
	<node id="-168835" lat="60.403538892" lon="9.65452500149">
		<tag k="name" v="Drikkarmyrhytta" />
		<tag k="place" v="isolated_dwelling" />
		<tag k="ssr:stedsnr" v="542486" />
	</node>
	<node id="-168834" lat="60.3946583292" lon="9.56000833819">
		<tag k="name" v="Langeros" />
		<tag k="place" v="farm" />
		<tag k="ssr:stedsnr" v="542484" />
	</node>
	<node id="-168833" lat="60.3829194443" lon="9.80764166458">
		<tag k="name" v="Lomdalshytta" />
		<tag k="place" v="isolated_dwelling" />
		<tag k="ssr:stedsnr" v="542476" />
	</node>
	<node id="-168831" lat="60.537838889" lon="9.60268611454">
		<tag k="name" v="Damstua" />
		<tag k="place" v="isolated_dwelling" />
		<tag k="ssr:stedsnr" v="542285" />
	</node>
	<node id="-168830" lat="60.4371861085" lon="9.77650000529">
		<tag k="name" v="Brennsetre" />
		<tag k="place" v="locality" />
		<tag k="ssr:stedsnr" v="542274" />
	</node>
	<node id="-168829" lat="60.4259277794" lon="9.78542222526">
		<tag k="name" v="Bukollseter" />
		<tag k="place" v="locality" />
		<tag k="ssr:stedsnr" v="542254" />
	</node>
	<node id="-168826" lat="60.4372722221" lon="9.45185555396">
		<tag k="name" v="Odden" />
		<tag k="place" v="locality" />
		<tag k="ssr:stedsnr" v="542224" />
	</node>
	<node id="-168825" lat="60.4239805519" lon="9.5120027732">
		<tag k="name" v="Fattigset" />
		<tag k="place" v="locality" />
		<tag k="ssr:stedsnr" v="542186" />
	</node>
	<node id="-168820" lat="60.420280559" lon="9.42843055796">
		<tag k="alt_name" v="Tvigrein" />
		<tag k="name" v="Tvigreinene" />
		<tag k="place" v="locality" />
		<tag k="ssr:stedsnr" v="542016" />
	</node>
	<node id="-168819" lat="60.4259583378" lon="9.40384167228">
		<tag k="name" v="Nordre Åvestrud" />
		<tag k="place" v="farm" />
		<tag k="ssr:stedsnr" v="542012" />
	</node>
	<node id="-168818" lat="60.4307611083" lon="9.41883056106">
		<tag k="name" v="Øvre Viskop" />
		<tag k="place" v="locality" />
		<tag k="ssr:stedsnr" v="542007" />
	</node>
	<node id="-168802" lat="60.3791583375" lon="9.56489445284">
		<tag k="fixme" v="multiple name tags, choose one and add the other to alt_name" />
		<tag k="name" v="Gandrudbakken;Gandrudhaugen" />
		<tag k="place" v="isolated_dwelling" />
		<tag k="ssr:stedsnr" v="525403" />
	</node>
	<node id="-168794" lat="60.3730584298" lon="9.64359755529">
		<tag k="alt_name" v="Tromald" />
		<tag k="fixme" v="consider place=hamlet" />
		<tag k="name" v="Trommald" />
		<tag k="place" v="farm" />
		<tag k="ssr:stedsnr" v="492784" />
	</node>
	<node id="-168793" lat="60.3682500024" lon="9.64719999369">
		<tag k="fixme" v="consider place=hamlet" />
		<tag k="name" v="Sørbygde" />
		<tag k="place" v="village" />
		<tag k="ssr:stedsnr" v="492779" />
	</node>
	<node id="-168792" lat="60.3791138908" lon="9.78347222055">
		<tag k="name" v="Åshytta" />
		<tag k="place" v="isolated_dwelling" />
		<tag k="ssr:stedsnr" v="492772" />
	</node>
	<node id="-168787" lat="60.4202388857" lon="9.49004444073">
		<tag k="alt_name" v="Vesbuøen" />
		<tag k="name" v="Vesbuøyni" />
		<tag k="old_name" v="Vestbuøyni" />
		<tag k="place" v="farm" />
		<tag k="ssr:stedsnr" v="492175" />
	</node>
	<node id="-168785" lat="60.4195499979" lon="9.24961110647">
		<tag k="alt_name" v="Gammalsæter" />
		<tag k="historic" v="shieling" />
		<tag k="name" v="Gamalseter" />
		<tag k="place" v="locality" />
		<tag k="ssr:stedsnr" v="492125" />
	</node>
	<node id="-168784" lat="60.4235305511" lon="9.34091945226">
		<tag k="alt_name" v="Ødegården" />
		<tag k="name" v="Øygarden" />
		<tag k="old_name" v="Øydgd" />
		<tag k="place" v="farm" />
		<tag k="ssr:stedsnr" v="492123" />
	</node>
	<node id="-168779" lat="60.382672224" lon="9.60908610209">
		<tag k="fixme" v="consider place=suburb, village or hamlet" />
		<tag k="name" v="Gulsvik" />
		<tag k="place" v="quarter" />
		<tag k="ssr:stedsnr" v="491960" />
	</node>
	<node id="-168777" lat="60.3545388888" lon="9.65131388758">
		<tag k="name" v="Haugen" />
		<tag k="place" v="farm" />
		<tag k="ssr:stedsnr" v="491752" />
	</node>
	<node id="-168772" lat="60.4700944454" lon="9.36843333632">
		<tag k="name" v="Haugesethytta" />
		<tag k="place" v="isolated_dwelling" />
		<tag k="ssr:stedsnr" v="491384" />
	</node>
	<node id="-168770" lat="60.4758055557" lon="9.55021944293">
		<tag k="alt_name" v="Knutestova" />
		<tag k="name" v="Knutestua" />
		<tag k="place" v="isolated_dwelling" />
		<tag k="ssr:stedsnr" v="491379" />
	</node>
	<node id="-168768" lat="60.4897527817" lon="9.44395833122">
		<tag k="name" v="Langebrennsnaret" />
		<tag k="place" v="isolated_dwelling" />
		<tag k="ssr:stedsnr" v="491341" />
	</node>
	<node id="-168763" lat="60.4453249983" lon="9.30145278421">
		<tag k="alt_name" v="Søndre Gislerud" />
		<tag k="name" v="Søre Gislerud" />
		<tag k="place" v="farm" />
		<tag k="ssr:stedsnr" v="491155" />
	</node>
	<node id="-168762" lat="60.4457083345" lon="9.43419999885">
		<tag k="name" v="Kvarve" />
		<tag k="place" v="isolated_dwelling" />
		<tag k="ssr:stedsnr" v="491149" />
	</node>
	<node id="-168758" lat="60.325030552" lon="9.57645277919">
		<tag k="alt_name" v="Nybuseter" />
		<tag k="name" v="Nybu" />
		<tag k="place" v="locality" />
		<tag k="ssr:stedsnr" v="491042" />
	</node>
	<node id="-168757" lat="60.3894527756" lon="9.39148610772">
		<tag k="historic" v="shieling" />
		<tag k="name" v="Veslesetre" />
		<tag k="place" v="locality" />
		<tag k="ssr:stedsnr" v="491249" />
	</node>
	<node id="-168756" lat="60.3868444412" lon="9.23214443874">
		<tag k="historic" v="shieling" />
		<tag k="name" v="Liseter" />
		<tag k="place" v="locality" />
		<tag k="ssr:stedsnr" v="491241" />
	</node>
	<node id="-168740" lat="60.3875027797" lon="9.80510556107">
		<tag k="name" v="Langodden" />
		<tag k="place" v="isolated_dwelling" />
		<tag k="ssr:stedsnr" v="481501" />
	</node>
	<node id="-168737" lat="60.4207277757" lon="9.38131110595">
		<tag k="name" v="Elverud" />
		<tag k="place" v="isolated_dwelling" />
		<tag k="ssr:stedsnr" v="481021" />
	</node>
	<node id="-168730" lat="60.4705888894" lon="9.3035444515">
		<tag k="name" v="Vesleseter" />
		<tag k="place" v="locality" />
		<tag k="ssr:stedsnr" v="466624" />
	</node>
	<node id="-168722" lat="60.491533336" lon="9.32437778074">
		<tag k="name" v="Øvre Nyseter" />
		<tag k="place" v="locality" />
		<tag k="ssr:stedsnr" v="466545" />
	</node>
	<node id="-168719" lat="60.3490916674" lon="9.54701666608">
		<tag k="name" v="Gulsvikseter" />
		<tag k="place" v="isolated_dwelling" />
		<tag k="ssr:stedsnr" v="464594" />
	</node>
	<node id="-168716" lat="60.3076999984" lon="9.58886943637">
		<tag k="name" v="Stormyrhytta" />
		<tag k="place" v="isolated_dwelling" />
		<tag k="ssr:stedsnr" v="464182" />
	</node>
	<node id="-168711" lat="60.5048583322" lon="9.46573888417">
		<tag k="alt_name" v="Veneli hyttegrend" />
		<tag k="name" v="Veneli" />
		<tag k="place" v="neighbourhood" />
		<tag k="ssr:stedsnr" v="432785" />
	</node>
	<node id="-168704" lat="60.3928999984" lon="9.62845554947">
		<tag k="alt_name" v="Bråten" />
		<tag k="name" v="Bråtan" />
		<tag k="place" v="farm" />
		<tag k="ssr:stedsnr" v="431975" />
	</node>
	<node id="-168702" lat="60.381924999" lon="9.70615000541">
		<tag k="alt_name" v="Megårdshaugen" />
		<tag k="name" v="Megardshaugen" />
		<tag k="place" v="isolated_dwelling" />
		<tag k="ssr:stedsnr" v="431965" />
	</node>
	<node id="-168698" lat="60.3229888851" lon="9.73067499645">
		<tag k="name" v="Svarttjernhytta" />
		<tag k="place" v="isolated_dwelling" />
		<tag k="ssr:stedsnr" v="431835" />
	</node>
	<node id="-168693" lat="60.4015361113" lon="9.53406665812">
		<tag k="alt_name" v="Trabendal" />
		<tag k="name" v="Travendal" />
		<tag k="place" v="isolated_dwelling" />
		<tag k="ssr:stedsnr" v="431267" />
	</node>
	<node id="-168690" lat="60.4166055591" lon="9.49632778549">
		<tag k="alt_name" v="Ves-Buøen" />
		<tag k="name" v="Vesbuøyni" />
		<tag k="place" v="farm" />
		<tag k="ssr:stedsnr" v="431240" />
	</node>
	<node id="-168688" lat="60.40195833" lon="9.32561111948">
		<tag k="historic" v="shieling" />
		<tag k="name" v="Brandenborgsetre" />
		<tag k="place" v="locality" />
		<tag k="ssr:stedsnr" v="431229" />
	</node>
	<node id="-168687" lat="60.4032972191" lon="9.42416110441">
		<tag k="name" v="Trøgabekkhytta" />
		<tag k="place" v="locality" />
		<tag k="ssr:stedsnr" v="431221" />
	</node>
	<node id="-168683" lat="60.4428805598" lon="9.44711944835">
		<tag k="alt_name" v="Nørdre Hei" />
		<tag k="name" v="Nordre Hei" />
		<tag k="place" v="farm" />
		<tag k="ssr:stedsnr" v="431210" />
	</node>
	<node id="-168682" lat="60.4306000035" lon="9.38011944149">
		<tag k="name" v="Velta" />
		<tag k="place" v="farm" />
		<tag k="ssr:stedsnr" v="431200" />
	</node>
	<node id="-168681" lat="60.4254522314" lon="9.34707925922">
		<tag k="alt_name" v="Tollefsrud" />
		<tag k="name" v="Tollevsrud" />
		<tag k="place" v="hamlet" />
		<tag k="ssr:stedsnr" v="431197" />
	</node>
	<node id="-168677" lat="60.4486055586" lon="9.43732777479">
		<tag k="name" v="Heiplass" />
		<tag k="place" v="isolated_dwelling" />
		<tag k="ssr:stedsnr" v="431159" />
	</node>
	<node id="-168674" lat="60.4364027761" lon="9.40673055491">
		<tag k="name" v="Øvre Gaptjern" />
		<tag k="old_name" v="Øvre Goptjern" />
		<tag k="place" v="farm" />
		<tag k="ssr:stedsnr" v="431146" />
	</node>
	<node id="-168672" lat="60.3279444424" lon="9.49010832467">
		<tag k="alt_name" v="Miljosætri" />
		<tag k="name" v="Miljoseter" />
		<tag k="place" v="isolated_dwelling" />
		<tag k="ssr:stedsnr" v="431055" />
	</node>
	<node id="-168670" lat="60.3784361097" lon="9.58036944899">
		<tag k="fixme" v="multiple name tags, choose one and add the other to alt_name" />
		<tag k="name" v="Gamlemoen;Moen" />
		<tag k="place" v="farm" />
		<tag k="ssr:stedsnr" v="431026" />
	</node>
	<node id="-168658" lat="60.4459331754" lon="9.30172502465">
		<tag k="fixme" v="consider place=hamlet" />
		<tag k="name" v="Gislerud" />
		<tag k="place" v="farm" />
		<tag k="ssr:stedsnr" v="423557" />
	</node>
	<node id="-168657" lat="60.4070166653" lon="9.24459444224">
		<tag k="loc_name" v="Bjørnalie" />
		<tag k="name" v="Bjørneliseter" />
		<tag k="place" v="locality" />
		<tag k="ssr:stedsnr" v="423446" />
	</node>
	<node id="-168656" lat="60.4016750038" lon="9.35517221515">
		<tag k="name" v="Slåttemyrbråten" />
		<tag k="place" v="locality" />
		<tag k="ssr:stedsnr" v="423442" />
	</node>
	<node id="-168647" lat="60.4384277765" lon="9.46538889163">
		<tag k="name" v="Haugen" />
		<tag k="place" v="isolated_dwelling" />
		<tag k="ssr:stedsnr" v="421999" />
	</node>
	<node id="-168646" lat="60.4337944461" lon="9.47566110824">
		<tag k="name" v="Sølvberg" />
		<tag k="place" v="farm" />
		<tag k="ssr:stedsnr" v="421989" />
	</node>
	<node id="-168640" lat="60.401813892" lon="9.72249721424">
		<tag k="name" v="Oppsallegret" />
		<tag k="place" v="isolated_dwelling" />
		<tag k="ssr:stedsnr" v="421481" />
	</node>
	<node id="-168639" lat="60.3953944432" lon="9.62465832502">
		<tag k="name" v="Djupdal" />
		<tag k="place" v="locality" />
		<tag k="ssr:stedsnr" v="421474" />
	</node>
	<node id="-168638" lat="60.396433337" lon="9.56713611508">
		<tag k="name" v="Koksum" />
		<tag k="place" v="locality" />
		<tag k="ssr:stedsnr" v="421471" />
	</node>
	<node id="-168630" lat="60.4224472231" lon="9.3860166757">
		<tag k="name" v="Bråten" />
		<tag k="place" v="farm" />
		<tag k="ssr:stedsnr" v="421008" />
	</node>
	<node id="-168628" lat="60.4003888905" lon="9.49883888873">
		<tag k="name" v="Skår" />
		<tag k="place" v="farm" />
		<tag k="ssr:stedsnr" v="419210" />
	</node>
	<node id="-168625" lat="60.4087000036" lon="9.77628610595">
		<tag k="alt_name" v="Buvannsvollen" />
		<tag k="name" v="Buvassvollen" />
		<tag k="place" v="isolated_dwelling" />
		<tag k="ssr:stedsnr" v="249955" />
	</node>
	<node id="-168620" lat="60.4812777752" lon="9.35676944426">
		<tag k="historic" v="shieling" />
		<tag k="name" v="Rimeplassetran" />
		<tag k="place" v="locality" />
		<tag k="ssr:stedsnr" v="249335" />
	</node>
	<node id="-168618" lat="60.3984777762" lon="9.51292778057">
		<tag k="alt_name" v="Bårdsplass" />
		<tag k="name" v="Bårdsplassen" />
		<tag k="place" v="farm" />
		<tag k="ssr:stedsnr" v="249223" />
	</node>
	<node id="-168617" lat="60.3823361067" lon="9.48532221496">
		<tag k="name" v="Stormyrhytta" />
		<tag k="place" v="isolated_dwelling" />
		<tag k="ssr:stedsnr" v="249213" />
	</node>
	<node id="-168613" lat="60.4325305568" lon="9.48696665853">
		<tag k="name" v="Vesbråten" />
		<tag k="place" v="isolated_dwelling" />
		<tag k="ssr:stedsnr" v="249177" />
	</node>
	<node id="-168612" lat="60.4381194464" lon="9.41789167436">
		<tag k="name" v="Tangen" />
		<tag k="place" v="farm" />
		<tag k="ssr:stedsnr" v="249174" />
	</node>
	<node id="-168611" lat="60.4278777781" lon="9.48236389057">
		<tag k="name" v="Løken" />
		<tag k="place" v="farm" />
		<tag k="ssr:stedsnr" v="249159" />
	</node>
	<node id="-168610" lat="60.4272801912" lon="9.46859373308">
		<tag k="fixme" v="consider place=hamlet" />
		<tag k="name" v="Voll" />
		<tag k="place" v="farm" />
		<tag k="ssr:stedsnr" v="249160" />
	</node>
	<node id="-168609" lat="60.4234416704" lon="9.37449721434">
		<tag k="alt_name" v="Stillingen" />
		<tag k="name" v="Stillingi" />
		<tag k="place" v="farm" />
		<tag k="ssr:stedsnr" v="249154" />
	</node>
	<node id="-168608" lat="60.4226055563" lon="9.31526666163">
		<tag k="fixme" v="multiple name tags, choose one and add the other to alt_name" />
		<tag k="name" v="Framgardsbråten;Larsebråten" />
		<tag k="place" v="isolated_dwelling" />
		<tag k="ssr:stedsnr" v="249153" />
	</node>
	<node id="-168607" lat="60.4218949479" lon="9.39139945727">
		<tag k="fixme" v="consider place=hamlet" />
		<tag k="name" v="Grøsland" />
		<tag k="place" v="farm" />
		<tag k="ssr:stedsnr" v="249149" />
	</node>
	<node id="-168606" lat="60.4466833357" lon="9.44829722604">
		<tag k="name" v="Oldebråten" />
		<tag k="place" v="isolated_dwelling" />
		<tag k="ssr:stedsnr" v="249128" />
	</node>
	<node id="-168601" lat="60.435117768" lon="9.66938566282">
		<tag k="historic" v="shieling" />
		<tag k="name" v="Sørbølsetran" />
		<tag k="place" v="locality" />
		<tag k="ssr:stedsnr" v="248982" />
	</node>
	<node id="-168598" lat="60.4907555587" lon="9.34770278108">
		<tag k="historic" v="shieling" />
		<tag k="loc_name" v="Haugeset" />
		<tag k="name" v="Haugesetsetre" />
		<tag k="place" v="locality" />
		<tag k="ssr:stedsnr" v="248304" />
	</node>
	<node id="-168590" lat="60.448127782" lon="9.43525000912">
		<tag k="name" v="Solhaug" />
		<tag k="place" v="farm" />
		<tag k="ssr:stedsnr" v="239984" />
	</node>
	<node id="-168587" lat="60.4417277766" lon="9.40330833106">
		<tag k="name" v="Haugaseter" />
		<tag k="place" v="locality" />
		<tag k="ssr:stedsnr" v="239792" />
	</node>
	<node id="-168584" lat="60.422422224" lon="9.57269167071">
		<tag k="name" v="Steinbu" />
		<tag k="place" v="isolated_dwelling" />
		<tag k="ssr:stedsnr" v="239484" />
	</node>
	<node id="-168571" lat="60.4302333318" lon="9.46198611844">
		<tag k="fixme" v="consider place=suburb, village or hamlet" />
		<tag k="name" v="Flå" />
		<tag k="place" v="quarter" />
		<tag k="ssr:stedsnr" v="234929" />
	</node>
	<node id="-168556" lat="60.4351694472" lon="9.42155832513">
		<tag k="name" v="Gjestemoen" />
		<tag k="place" v="isolated_dwelling" />
		<tag k="ssr:stedsnr" v="222801" />
	</node>
	<node id="-168555" lat="60.4362732446" lon="9.40736092052">
		<tag k="fixme" v="consider place=hamlet" />
		<tag k="name" v="Gaptjern" />
		<tag k="old_name" v="Gapkjenn;Gapkin" />
		<tag k="place" v="farm" />
		<tag k="ssr:stedsnr" v="222798" />
	</node>
	<node id="-168552" lat="60.3641777764" lon="9.60250556243">
		<tag k="name" v="Fjordgløtt" />
		<tag k="place" v="isolated_dwelling" />
		<tag k="ssr:stedsnr" v="222541" />
	</node>
	<node id="-168549" lat="60.3745416711" lon="9.62746666902">
		<tag k="name" v="Lieng" />
		<tag k="place" v="isolated_dwelling" />
		<tag k="ssr:stedsnr" v="222388" />
	</node>
	<node id="-168545" lat="60.314866669" lon="9.62570833916">
		<tag k="name" v="Tuftehytta" />
		<tag k="place" v="isolated_dwelling" />
		<tag k="ssr:stedsnr" v="222150" />
	</node>
	<node id="-168544" lat="60.3947888892" lon="9.51931110396">
		<tag k="name" v="Nedre Strømbråtan" />
		<tag k="place" v="locality" />
		<tag k="ssr:stedsnr" v="218171" />
	</node>
	<node id="-168543" lat="60.50633056" lon="9.48375276916">
		<tag k="alt_name" v="Veneliseter" />
		<tag k="historic" v="shieling" />
		<tag k="name" v="Veneli" />
		<tag k="place" v="locality" />
		<tag k="ssr:stedsnr" v="189756" />
	</node>
	<node id="-168540" lat="60.3816999975" lon="9.63750278356">
		<tag k="name" v="Plassen" />
		<tag k="place" v="farm" />
		<tag k="ssr:stedsnr" v="188972" />
	</node>
	<node id="-168532" lat="60.3927527821" lon="9.21562222535">
		<tag k="alt_name" v="Kollenseter" />
		<tag k="name" v="Kollen" />
		<tag k="place" v="isolated_dwelling" />
		<tag k="ssr:stedsnr" v="188389" />
	</node>
	<node id="-168526" lat="60.4207777749" lon="9.47448888564">
		<tag k="name" v="Nordre Rud" />
		<tag k="place" v="farm" />
		<tag k="ssr:stedsnr" v="188238" />
	</node>
	<node id="-168522" lat="60.3851250005" lon="9.42671665961">
		<tag k="historic" v="shieling" />
		<tag k="name" v="Trytetjernsetre" />
		<tag k="place" v="locality" />
		<tag k="ssr:stedsnr" v="188258" />
	</node>
	<node id="-168521" lat="60.4405555589" lon="9.41325277551">
		<tag k="alt_name" v="Jorde" />
		<tag k="name" v="Jordet" />
		<tag k="place" v="farm" />
		<tag k="ssr:stedsnr" v="188149" />
	</node>
	<node id="-168519" lat="60.3758777818" lon="9.59219999247">
		<tag k="name" v="Kårmo" />
		<tag k="place" v="farm" />
		<tag k="ssr:stedsnr" v="188024" />
	</node>
	<node id="-168515" lat="60.4495583352" lon="9.27648611651">
		<tag k="name" v="Sørsmoen" />
		<tag k="place" v="isolated_dwelling" />
		<tag k="ssr:stedsnr" v="188174" />
	</node>
	<node id="-168514" lat="60.4441410833" lon="9.42314674485">
		<tag k="fixme" v="consider place=hamlet" />
		<tag k="name" v="Kvi" />
		<tag k="place" v="farm" />
		<tag k="ssr:stedsnr" v="188164" />
	</node>
	<node id="-168511" lat="60.4314944425" lon="9.75278610412">
		<tag k="historic" v="shieling" />
		<tag k="name" v="Steinkollsetre" />
		<tag k="place" v="locality" />
		<tag k="ssr:stedsnr" v="187972" />
	</node>
	<node id="-168508" lat="60.3367166676" lon="9.61697778666">
		<tag k="name" v="Eilev-Veteren" />
		<tag k="place" v="farm" />
		<tag k="ssr:stedsnr" v="180901" />
	</node>
	<node id="-168501" lat="60.4376805562" lon="9.45564167385">
		<tag k="name" v="Elvemo" />
		<tag k="place" v="locality" />
		<tag k="ssr:stedsnr" v="178988" />
	</node>
	<node id="-168500" lat="60.4335777773" lon="9.47322221938">
		<tag k="alt_name" v="Søndre Hilde" />
		<tag k="name" v="Søre Hilde" />
		<tag k="place" v="farm" />
		<tag k="ssr:stedsnr" v="178983" />
	</node>
	<node id="-168498" lat="60.4414583295" lon="9.45620277427">
		<tag k="name" v="Sagadalen" />
		<tag k="place" v="isolated_dwelling" />
		<tag k="ssr:stedsnr" v="178970" />
	</node>
	<node id="-168496" lat="60.3483750014" lon="9.69976944844">
		<tag k="name" v="Solbu" />
		<tag k="place" v="isolated_dwelling" />
		<tag k="ssr:stedsnr" v="178287" />
	</node>
	<node id="-168495" lat="60.4406277776" lon="9.5878944396">
		<tag k="fixme" v="multiple name tags, choose one and add the other to alt_name" />
		<tag k="loc_name" v="Glitreskardseter" />
		<tag k="name" v="Glitre Sr;Glitreskarseter" />
		<tag k="place" v="locality" />
		<tag k="ssr:stedsnr" v="178247" />
	</node>
	<node id="-168492" lat="60.420069441" lon="9.37278888658">
		<tag k="name" v="Stensrud" />
		<tag k="place" v="isolated_dwelling" />
		<tag k="ssr:stedsnr" v="178027" />
	</node>
	<node id="-168489" lat="60.4006361109" lon="9.51880556018">
		<tag k="name" v="Øvre Strømbråtan" />
		<tag k="place" v="locality" />
		<tag k="ssr:stedsnr" v="176210" />
	</node>
	<node id="-168482" lat="60.4500003551" lon="9.31453736958">
		<tag k="fixme" v="consider place=hamlet" />
		<tag k="name" v="Kolsrud" />
		<tag k="place" v="farm" />
		<tag k="ssr:stedsnr" v="163490" />
	</node>
	<node id="-168477" lat="60.3635444454" lon="9.60378055207">
		<tag k="name" v="Mælingen" />
		<tag k="place" v="farm" />
		<tag k="ssr:stedsnr" v="161559" />
	</node>
	<node id="-168476" lat="60.3490166663" lon="9.65336111314">
		<tag k="alt_name" v="Glahaugen" />
		<tag k="name" v="Gladhaug" />
		<tag k="place" v="locality" />
		<tag k="ssr:stedsnr" v="161552" />
	</node>
	<node id="-168475" lat="60.3531583348" lon="9.61897499535">
		<tag k="name" v="Ottersholet" />
		<tag k="place" v="farm" />
		<tag k="ssr:stedsnr" v="161551" />
	</node>
	<node id="-168474" lat="60.3579222195" lon="9.64966111651">
		<tag k="alt_name" v="Søndre Sønsteby" />
		<tag k="name" v="Søre Sønsteby" />
		<tag k="place" v="farm" />
		<tag k="ssr:stedsnr" v="161548" />
	</node>
	<node id="-168473" lat="60.3733333333" lon="9.63633055593">
		<tag k="name" v="Trommald" />
		<tag k="place" v="hamlet" />
		<tag k="ssr:stedsnr" v="161403" />
	</node>
	<node id="-168471" lat="60.3764694409" lon="9.54702223051">
		<tag k="name" v="Brakka" />
		<tag k="place" v="locality" />
		<tag k="ssr:stedsnr" v="161361" />
	</node>
	<node id="-168470" lat="60.4297888887" lon="9.46848055717">
		<tag k="name" v="Nedre Vik" />
		<tag k="place" v="farm" />
		<tag k="ssr:stedsnr" v="161239" />
	</node>
	<node id="-168469" lat="60.4288388932" lon="9.45967777156">
		<tag k="name" v="Øvre Voll" />
		<tag k="place" v="farm" />
		<tag k="ssr:stedsnr" v="161228" />
	</node>
	<node id="-168463" lat="60.4397944458" lon="9.42972222394">
		<tag k="alt_name" v="Nordre Trøsteim;Trøstheim" />
		<tag k="name" v="Nordre Trøstheim" />
		<tag k="place" v="farm" />
		<tag k="ssr:stedsnr" v="145002" />
	</node>
	<node id="-168458" lat="60.3962583324" lon="9.78315834195">
		<tag k="historic" v="shieling" />
		<tag k="name" v="Frisvassetre" />
		<tag k="place" v="locality" />
		<tag k="ssr:stedsnr" v="127948" />
	</node>
	<node id="-168453" lat="60.373038886" lon="9.72697500657">
		<tag k="name" v="Langtjernhytta" />
		<tag k="place" v="isolated_dwelling" />
		<tag k="ssr:stedsnr" v="127816" />
	</node>
	<node id="-168451" lat="60.4926972261" lon="9.44148888733">
		<tag k="name" v="Rismyrhytta" />
		<tag k="place" v="isolated_dwelling" />
		<tag k="ssr:stedsnr" v="127345" />
	</node>
	<node id="-168450" lat="60.4890388892" lon="9.3782000089">
		<tag k="historic" v="shieling" />
		<tag k="name" v="Kuluset" />
		<tag k="place" v="locality" />
		<tag k="ssr:stedsnr" v="127341" />
	</node>
	<node id="-168448" lat="60.3728972234" lon="9.47355833972">
		<tag k="name" v="Svarthaugen" />
		<tag k="place" v="isolated_dwelling" />
		<tag k="ssr:stedsnr" v="127249" />
	</node>
	<node id="-168446" lat="60.4077916653" lon="9.31192778146">
		<tag k="historic" v="shieling" />
		<tag k="name" v="Bjørnehaugsetre" />
		<tag k="place" v="locality" />
		<tag k="ssr:stedsnr" v="127228" />
	</node>
	<node id="-168445" lat="60.4010027738" lon="9.4528777807">
		<tag k="alt_name" v="Nordsæter" />
		<tag k="historic" v="shieling" />
		<tag k="name" v="Nordseter" />
		<tag k="place" v="locality" />
		<tag k="ssr:stedsnr" v="127216" />
	</node>
	<node id="-168443" lat="60.4023222237" lon="9.37438055737">
		<tag k="alt_name" v="Brakketomta" />
		<tag k="name" v="Brakketomti" />
		<tag k="place" v="isolated_dwelling" />
		<tag k="ssr:stedsnr" v="127211" />
	</node>
	<node id="-168441" lat="60.427965269" lon="9.47292688714">
		<tag k="fixme" v="consider place=hamlet" />
		<tag k="name" v="Ve" />
		<tag k="place" v="farm" />
		<tag k="ssr:stedsnr" v="127179" />
	</node>
	<node id="-168439" lat="60.4860277757" lon="9.37318055863">
		<tag k="historic" v="shieling" />
		<tag k="name" v="Ransarhaugen" />
		<tag k="place" v="locality" />
		<tag k="ssr:stedsnr" v="127356" />
	</node>
	<node id="-168436" lat="60.3968888848" lon="9.51968888029">
		<tag k="name" v="Hoffmannsmoen" />
		<tag k="place" v="farm" />
		<tag k="ssr:stedsnr" v="127267" />
	</node>
	<node id="-168435" lat="60.3948000008" lon="9.50973055256">
		<tag k="name" v="Lieng" />
		<tag k="place" v="farm" />
		<tag k="ssr:stedsnr" v="127263" />
	</node>
	<node id="-168433" lat="60.4509333373" lon="9.46326111158">
		<tag k="name" v="Karirud" />
		<tag k="place" v="locality" />
		<tag k="ssr:stedsnr" v="127137" />
	</node>
	<node id="-168430" lat="60.3404055595" lon="9.57982222339">
		<tag k="name" v="Buøynsetre" />
		<tag k="place" v="locality" />
		<tag k="ssr:stedsnr" v="127051" />
	</node>
	<node id="-168429" lat="60.3351027763" lon="9.4986388834">
		<tag k="historic" v="shieling" />
		<tag k="name" v="Kroksetre" />
		<tag k="place" v="locality" />
		<tag k="ssr:stedsnr" v="127047" />
	</node>
	<node id="-168427" lat="60.3697388881" lon="9.56096110232">
		<tag k="fixme" v="multiple name tags, choose one and add the other to alt_name" />
		<tag k="name" v="Aslehusbråten;Bråten" />
		<tag k="place" v="locality" />
		<tag k="ssr:stedsnr" v="127032" />
	</node>
	<node id="-168423" lat="60.3546000045" lon="9.45179999812">
		<tag k="historic" v="shieling" />
		<tag k="name" v="Rudsetran" />
		<tag k="place" v="locality" />
		<tag k="ssr:stedsnr" v="127009" />
	</node>
	<node id="-168417" lat="60.3409444422" lon="9.64948610283">
		<tag k="name" v="Frydenlund" />
		<tag k="place" v="farm" />
		<tag k="ssr:stedsnr" v="120914" />
	</node>
	<node id="-168415" lat="60.4037000004" lon="9.231338892">
		<tag k="loc_name" v="Langeli" />
		<tag k="name" v="Langeliseter" />
		<tag k="place" v="locality" />
		<tag k="ssr:stedsnr" v="120382" />
	</node>
	<node id="-168405" lat="60.4397444404" lon="9.4664083379">
		<tag k="name" v="Åsly" />
		<tag k="place" v="isolated_dwelling" />
		<tag k="ssr:stedsnr" v="118999" />
	</node>
	<node id="-168404" lat="60.4398694421" lon="9.43493889794">
		<tag k="name" v="Nedre Trøstheim" />
		<tag k="place" v="farm" />
		<tag k="ssr:stedsnr" v="118994" />
	</node>
	<node id="-168401" lat="60.4388722195" lon="9.40957777643">
		<tag k="name" v="Stillingen" />
		<tag k="place" v="locality" />
		<tag k="ssr:stedsnr" v="118762" />
	</node>
	<node id="-168400" lat="60.4451916691" lon="9.41840000433">
		<tag k="name" v="Øvre Kvi" />
		<tag k="place" v="locality" />
		<tag k="ssr:stedsnr" v="118747" />
	</node>
	<node id="-168398" lat="60.3991583373" lon="9.61099167417">
		<tag k="name" v="Bråten" />
		<tag k="place" v="isolated_dwelling" />
		<tag k="ssr:stedsnr" v="118444" />
	</node>
	<node id="-168396" lat="60.4085527754" lon="9.55503888017">
		<tag k="name" v="Turufjell T.k." />
		<tag k="place" v="isolated_dwelling" />
		<tag k="ssr:stedsnr" v="118436" />
	</node>
	<node id="-168393" lat="60.4097861123" lon="9.49488055085">
		<tag k="name" v="Roen" />
		<tag k="place" v="farm" />
		<tag k="ssr:stedsnr" v="118168" />
	</node>
	<node id="-168382" lat="60.4583805545" lon="9.37931666055">
		<tag k="name" v="Larsliu" />
		<tag k="place" v="locality" />
		<tag k="ssr:stedsnr" v="102609" />
	</node>
	<node id="-168371" lat="60.3748166634" lon="9.62263054724">
		<tag k="name" v="Fjellheim" />
		<tag k="place" v="farm" />
		<tag k="ssr:stedsnr" v="101406" />
	</node>
	<node id="-168348" lat="60.3359027734" lon="9.720241667">
		<tag k="name" v="Svarttjernkoia" />
		<tag k="place" v="isolated_dwelling" />
		<tag k="ssr:stedsnr" v="67861" />
	</node>
	<node id="-168342" lat="60.4889750028" lon="9.43414167152">
		<tag k="name" v="Hangen" />
		<tag k="place" v="locality" />
		<tag k="ssr:stedsnr" v="67341" />
	</node>
	<node id="-168337" lat="60.394272218" lon="9.51090278105">
		<tag k="alt_name" v="Engen" />
		<tag k="name" v="Engi" />
		<tag k="place" v="farm" />
		<tag k="ssr:stedsnr" v="67268" />
	</node>
	<node id="-168333" lat="60.6661277767" lon="8.55851943985">
		<tag k="alt_name" v="Trøstheimsætri" />
		<tag k="historic" v="shieling" />
		<tag k="name" v="Trøstheimseter" />
		<tag k="old_name" v="Trøstheimsetri" />
		<tag k="place" v="locality" />
		<tag k="ssr:stedsnr" v="67249" />
	</node>
	<node id="-168331" lat="60.4027166683" lon="9.34861388981">
		<tag k="name" v="Samuelslihytta" />
		<tag k="place" v="isolated_dwelling" />
		<tag k="ssr:stedsnr" v="67229" />
	</node>
	<node id="-168329" lat="60.4111861097" lon="9.48793055505">
		<tag k="name" v="Ytre Voll" />
		<tag k="place" v="farm" />
		<tag k="ssr:stedsnr" v="67226" />
	</node>
	<node id="-168327" lat="60.4017138847" lon="9.48993055017">
		<tag k="alt_name" v="Trælup" />
		<tag k="name" v="Trælopp" />
		<tag k="place" v="farm" />
		<tag k="ssr:stedsnr" v="67219" />
	</node>
	<node id="-168326" lat="60.4019999982" lon="9.40241944095">
		<tag k="name" v="Lynghaughytta" />
		<tag k="place" v="isolated_dwelling" />
		<tag k="ssr:stedsnr" v="67216" />
	</node>
	<node id="-168325" lat="60.4354628465" lon="9.46528044644">
		<tag k="fixme" v="consider place=hamlet" />
		<tag k="name" v="Hilde" />
		<tag k="place" v="farm" />
		<tag k="ssr:stedsnr" v="67214" />
	</node>
	<node id="-168324" lat="60.3987250032" lon="9.41239999144">
		<tag k="name" v="Kastehytta" />
		<tag k="place" v="isolated_dwelling" />
		<tag k="ssr:stedsnr" v="67215" />
	</node>
	<node id="-168323" lat="60.4316138921" lon="9.32563610402">
		<tag k="alt_name" v="Engen" />
		<tag k="name" v="Engi" />
		<tag k="place" v="isolated_dwelling" />
		<tag k="ssr:stedsnr" v="67211" />
	</node>
	<node id="-168322" lat="60.3150749973" lon="9.57239999956">
		<tag k="historic" v="shieling" />
		<tag k="name" v="Hestgjuvsetran" />
		<tag k="place" v="locality" />
		<tag k="ssr:stedsnr" v="67055" />
	</node>
	<node id="-168318" lat="60.4442749982" lon="9.37517500736">
		<tag k="alt_name" v="Rimeplass" />
		<tag k="historic" v="shieling" />
		<tag k="name" v="Rimeplassen" />
		<tag k="place" v="locality" />
		<tag k="ssr:stedsnr" v="67161" />
	</node>
	<node id="-168317" lat="60.442630557" lon="9.46292500244">
		<tag k="name" v="Padderud" />
		<tag k="place" v="farm" />
		<tag k="ssr:stedsnr" v="67154" />
	</node>
	<node id="-168313" lat="60.3605916638" lon="9.5136749972">
		<tag k="historic" v="shieling" />
		<tag k="name" v="Gandrudsetre" />
		<tag k="place" v="locality" />
		<tag k="ssr:stedsnr" v="67010" />
	</node>
	<node id="-168311" lat="60.3775083342" lon="9.17852499519">
		<tag k="historic" v="shieling" />
		<tag k="name" v="Flenten" />
		<tag k="place" v="locality" />
		<tag k="ssr:stedsnr" v="66353" />
	</node>
	<node id="-168310" lat="60.4707750033" lon="9.33317499391">
		<tag k="historic" v="shieling" />
		<tag k="loc_name" v="Fjøssetre" />
		<tag k="name" v="Fjossetre" />
		<tag k="place" v="locality" />
		<tag k="ssr:stedsnr" v="66345" />
	</node>
	<node id="-168307" lat="60.3363194467" lon="9.64982777029">
		<tag k="name" v="Haugen" />
		<tag k="place" v="locality" />
		<tag k="ssr:stedsnr" v="59904" />
	</node>
	<node id="-168299" lat="60.4370722196" lon="9.46811389223">
		<tag k="name" v="Øvre Hilde" />
		<tag k="place" v="farm" />
		<tag k="ssr:stedsnr" v="57978" />
	</node>
	<node id="-168292" lat="60.3901972209" lon="9.79621110617">
		<tag k="name" v="Frivannshytta" />
		<tag k="place" v="isolated_dwelling" />
		<tag k="ssr:stedsnr" v="57463" />
	</node>
	<node id="-168290" lat="60.4302666633" lon="9.35081666557">
		<tag k="name" v="Melbråten" />
		<tag k="place" v="farm" />
		<tag k="ssr:stedsnr" v="57043" />
	</node>
	<node id="-168279" lat="60.491613887" lon="9.45372222816">
		<tag k="name" v="Veneknatten" />
		<tag k="place" v="isolated_dwelling" />
		<tag k="ssr:stedsnr" v="40772" />
	</node>
	<node id="-168275" lat="60.3687805594" lon="9.6111833422">
		<tag k="name" v="Kniveberg" />
		<tag k="place" v="isolated_dwelling" />
		<tag k="ssr:stedsnr" v="40399" />
	</node>
	<node id="-168273" lat="60.375902781" lon="9.57495832904">
		<tag k="name" v="Gamlerudningen" />
		<tag k="place" v="locality" />
		<tag k="ssr:stedsnr" v="40389" />
	</node>
	<node id="-168272" lat="60.3838277769" lon="9.6346305577">
		<tag k="name" v="Nedre Rudningen" />
		<tag k="place" v="locality" />
		<tag k="ssr:stedsnr" v="40427" />
	</node>
	<node id="-168269" lat="60.3424138856" lon="9.52601667327">
		<tag k="name" v="Dollhus" />
		<tag k="place" v="isolated_dwelling" />
		<tag k="ssr:stedsnr" v="40197" />
	</node>
	<node id="-168267" lat="60.3377805545" lon="9.50284723041">
		<tag k="name" v="Fjellblink" />
		<tag k="place" v="isolated_dwelling" />
		<tag k="ssr:stedsnr" v="40189" />
	</node>
	<node id="-168253" lat="60.3802250026" lon="9.6329944405">
		<tag k="name" v="Myrvad" />
		<tag k="place" v="farm" />
		<tag k="ssr:stedsnr" v="6972" />
	</node>
	<node id="-168247" lat="60.3376361074" lon="9.65760834044">
		<tag k="name" v="Rugbråtan" />
		<tag k="place" v="locality" />
		<tag k="ssr:stedsnr" v="6861" />
	</node>
	<node id="-168246" lat="60.3695811393" lon="9.65254923925">
		<tag k="fixme" v="consider place=hamlet" />
		<tag k="name" v="Oppsal" />
		<tag k="place" v="farm" />
		<tag k="ssr:stedsnr" v="6819" />
	</node>
	<node id="-168238" lat="60.4944638925" lon="9.38403333092">
		<tag k="alt_name" v="Fekjan" />
		<tag k="historic" v="shieling" />
		<tag k="name" v="Fetjan" />
		<tag k="place" v="locality" />
		<tag k="ssr:stedsnr" v="6342" />
	</node>
	<node id="-168237" lat="60.3943638875" lon="9.55100556114">
		<tag k="name" v="Roppe" />
		<tag k="place" v="farm" />
		<tag k="ssr:stedsnr" v="6248" />
	</node>
	<node id="-168236" lat="60.396969448" lon="9.50286944585">
		<tag k="name" v="Strandi" />
		<tag k="place" v="farm" />
		<tag k="ssr:stedsnr" v="6245" />
	</node>
	<node id="-168233" lat="60.4117861101" lon="9.2473722224">
		<tag k="historic" v="shieling" />
		<tag k="name" v="Nysetre" />
		<tag k="place" v="locality" />
		<tag k="ssr:stedsnr" v="6228" />
	</node>
	<node id="-168232" lat="60.4087361118" lon="9.34337778394">
		<tag k="historic" v="shieling" />
		<tag k="name" v="Rakhalsen" />
		<tag k="place" v="locality" />
		<tag k="ssr:stedsnr" v="6223" />
	</node>
	<node id="-168230" lat="60.4063083346" lon="9.56979444632">
		<tag k="name" v="Turufjellkoia" />
		<tag k="place" v="isolated_dwelling" />
		<tag k="ssr:stedsnr" v="6217" />
	</node>
	<node id="-168228" lat="60.4367000015" lon="9.41531110666">
		<tag k="alt_name" v="Gaptjern nedre" />
		<tag k="name" v="Nedre Gaptjern" />
		<tag k="old_name" v="Nedre Goptjern" />
		<tag k="place" v="farm" />
		<tag k="ssr:stedsnr" v="6202" />
	</node>
	<node id="-168226" lat="60.429949996" lon="9.48099999919">
		<tag k="name" v="Kvernjordet" />
		<tag k="place" v="farm" />
		<tag k="ssr:stedsnr" v="6179" />
	</node>
	<node id="-168222" lat="60.4592749965" lon="9.31627222889">
		<tag k="name" v="Flagebu" />
		<tag k="place" v="locality" />
		<tag k="ssr:stedsnr" v="6164" />
	</node>
	<node id="-168220" lat="60.4444805581" lon="9.29546944797">
		<tag k="alt_name" v="Nordre Gislerud" />
		<tag k="name" v="Øvre Gislerud" />
		<tag k="place" v="farm" />
		<tag k="ssr:stedsnr" v="6155" />
	</node>
	<node id="-168219" lat="60.4475064062" lon="9.37182596961">
		<tag k="fixme" v="consider place=hamlet" />
		<tag k="name" v="Rime" />
		<tag k="place" v="farm" />
		<tag k="ssr:stedsnr" v="6149" />
	</node>
	<node id="-168215" lat="60.3776638869" lon="9.57003610698">
		<tag k="alt_name" v="Sæterstøi" />
		<tag k="loc_name" v="Seterstø;Seterstøa" />
		<tag k="name" v="Sæterstøa" />
		<tag k="place" v="isolated_dwelling" />
		<tag k="ssr:stedsnr" v="6028" />
	</node>
	<node id="-168213" lat="60.3523999976" lon="9.44760000729">
		<tag k="historic" v="shieling" />
		<tag k="name" v="Vollsetran" />
		<tag k="place" v="locality" />
		<tag k="ssr:stedsnr" v="6004" />
	</node>
	<node id="-168212" lat="60.4346083337" lon="9.64900277033">
		<tag k="historic" v="shieling" />
		<tag k="name" v="Solheimsetran" />
		<tag k="place" v="locality" />
		<tag k="ssr:stedsnr" v="5974" />
	</node>
	<node id="-168207" lat="60.5053997178" lon="9.46811191025">
		<tag k="fixme" v="consider tourism=alpine_hut or tourism=chalet" />
		<tag k="name" v="Røde Kors-hytta på Veneli" />
		<tag k="ssr:stedsnr" v="988994" />
		<tag k="tourism" v="wilderness_hut" />
	</node>
	<node id="-168194" lat="60.3935509459" lon="9.18956086416">
		<tag k="name" v="Reinsjøfjell" />
		<tag k="place" v="quarter" />
		<tag k="ssr:stedsnr" v="981819" />
	</node>
	<node id="-168193" lat="60.4447549496" lon="9.45488159104">
		<tag k="name" v="Heimoen" />
		<tag k="place" v="quarter" />
		<tag k="ssr:stedsnr" v="981817" />
	</node>
	<node id="-168180" lat="60.429562013" lon="9.46659649178">
		<tag k="fixme" v="consider place=hamlet" />
		<tag k="name" v="Vik" />
		<tag k="place" v="farm" />
		<tag k="ssr:stedsnr" v="1072302" />
	</node>
	<node id="-168164" lat="60.4580611089" lon="9.50315832783">
		<tag k="name" v="Furutangen" />
		<tag k="place" v="isolated_dwelling" />
		<tag k="ssr:stedsnr" v="891539" />
	</node>
	<node id="-168160" lat="60.3756249976" lon="9.56806110809">
		<tag k="name" v="Vestheim" />
		<tag k="place" v="farm" />
		<tag k="ssr:stedsnr" v="890386" />
	</node>
	<node id="-168157" lat="60.4282027796" lon="9.46477221812">
		<tag k="name" v="Voll" />
		<tag k="place" v="farm" />
		<tag k="ssr:stedsnr" v="890240" />
	</node>
	<node id="-168153" lat="60.4475111078" lon="9.32030554787">
		<tag k="name" v="Alfheim" />
		<tag k="place" v="isolated_dwelling" />
		<tag k="ssr:stedsnr" v="889828" />
	</node>
	<node id="-168148" lat="60.358627777" lon="9.6485861043">
		<tag k="name" v="Nordre Sønsteby" />
		<tag k="place" v="farm" />
		<tag k="ssr:stedsnr" v="889556" />
	</node>
	<node id="-168146" lat="60.3637333346" lon="9.64587777163">
		<tag k="alt_name" v="Søndre Medbøen" />
		<tag k="name" v="Søre Medbøen" />
		<tag k="place" v="farm" />
		<tag k="ssr:stedsnr" v="889551" />
	</node>
	<node id="-168135" lat="60.4917416688" lon="9.41404999183">
		<tag k="name" v="Langebrennsnaret" />
		<tag k="place" v="isolated_dwelling" />
		<tag k="ssr:stedsnr" v="404720" />
	</node>
	<node id="-168134" lat="60.3749638857" lon="9.68927778088">
		<tag k="name" v="Piniklo" />
		<tag k="place" v="isolated_dwelling" />
		<tag k="ssr:stedsnr" v="404385" />
	</node>
	<node id="-168133" lat="60.38055449" lon="9.5623399668">
		<tag k="fixme" v="consider place=hamlet" />
		<tag k="name" v="Gandrud" />
		<tag k="place" v="farm" />
		<tag k="ssr:stedsnr" v="404373" />
	</node>
	<node id="-168131" lat="60.4211916662" lon="9.46160278181">
		<tag k="name" v="Håkonsrud" />
		<tag k="place" v="locality" />
		<tag k="ssr:stedsnr" v="404221" />
	</node>
	<node id="-168126" lat="60.3504611114" lon="9.5436861028">
		<tag k="name" v="Seterlihytta" />
		<tag k="place" v="isolated_dwelling" />
		<tag k="ssr:stedsnr" v="403570" />
	</node>
	<node id="-168123" lat="60.3965722197" lon="9.50866944354">
		<tag k="name" v="Gandrudhaugen" />
		<tag k="place" v="farm" />
		<tag k="ssr:stedsnr" v="403145" />
	</node>
	<node id="-168120" lat="60.5507194426" lon="9.41144444822">
		<tag k="name" v="Olsonheimen" />
		<tag k="place" v="isolated_dwelling" />
		<tag k="ssr:stedsnr" v="371850" />
	</node>
	<node id="-168118" lat="60.5045777745" lon="9.33582777834">
		<tag k="fixme" v="multiple name tags, choose one and add the other to alt_name" />
		<tag k="historic" v="shieling" />
		<tag k="name" v="Kolsrudbødalen;Nordre Kolsrudbødalen" />
		<tag k="place" v="locality" />
		<tag k="ssr:stedsnr" v="371800" />
	</node>
	<node id="-168114" lat="60.4132277802" lon="9.75159999275">
		<tag k="name" v="Kalkemoen" />
		<tag k="place" v="isolated_dwelling" />
		<tag k="ssr:stedsnr" v="370987" />
	</node>
	<node id="-168111" lat="60.3660114429" lon="9.64966776922">
		<tag k="fixme" v="consider place=hamlet" />
		<tag k="name" v="Mebøen" />
		<tag k="place" v="farm" />
		<tag k="ssr:stedsnr" v="370816" />
	</node>
	<node id="-168110" lat="60.3507611131" lon="9.64561389136">
		<tag k="name" v="Ottersplass" />
		<tag k="place" v="farm" />
		<tag k="ssr:stedsnr" v="370788" />
	</node>
	<node id="-168102" lat="60.3897611107" lon="9.25317500088">
		<tag k="alt_name" v="Damhaugen;Damhaugsr" />
		<tag k="historic" v="shieling" />
		<tag k="name" v="Damhaug" />
		<tag k="place" v="locality" />
		<tag k="ssr:stedsnr" v="370292" />
	</node>
	<node id="-168098" lat="60.4140000022" lon="9.29205000533">
		<tag k="historic" v="shieling" />
		<tag k="name" v="Stavnheimsetran" />
		<tag k="place" v="locality" />
		<tag k="ssr:stedsnr" v="370255" />
	</node>
	<node id="-168095" lat="60.4019611085" lon="9.48875278462">
		<tag k="name" v="Hellerud" />
		<tag k="place" v="farm" />
		<tag k="ssr:stedsnr" v="370232" />
	</node>
	<node id="-168094" lat="60.4252972225" lon="9.3275888809">
		<tag k="name" v="Teigen" />
		<tag k="place" v="farm" />
		<tag k="ssr:stedsnr" v="370191" />
	</node>
	<node id="-168093" lat="60.4203277742" lon="9.46502222493">
		<tag k="name" v="Myre" />
		<tag k="place" v="isolated_dwelling" />
		<tag k="ssr:stedsnr" v="370190" />
	</node>
	<node id="-168083" lat="60.3746333344" lon="9.50247222535">
		<tag k="name" v="Høgslepa" />
		<tag k="place" v="isolated_dwelling" />
		<tag k="ssr:stedsnr" v="370031" />
	</node>
	<node id="-168081" lat="60.4638805526" lon="9.43949722499">
		<tag k="alt_name" v="Hesteortjernhytta" />
		<tag k="name" v="Hesteorttjernhytta" />
		<tag k="place" v="isolated_dwelling" />
		<tag k="ssr:stedsnr" v="369337" />
	</node>
	<node id="-168079" lat="60.4762527771" lon="9.51744721768">
		<tag k="historic" v="shieling" />
		<tag k="name" v="Olasetran" />
		<tag k="place" v="locality" />
		<tag k="ssr:stedsnr" v="369326" />
	</node>
	<node id="-168077" lat="60.3395083289" lon="9.64940278281">
		<tag k="name" v="Danmark" />
		<tag k="place" v="farm" />
		<tag k="ssr:stedsnr" v="362912" />
	</node>
	<node id="-168071" lat="60.4407277738" lon="9.45958888242">
		<tag k="name" v="Haugen" />
		<tag k="place" v="farm" />
		<tag k="ssr:stedsnr" v="360994" />
	</node>
	<node id="-168057" lat="60.48875278" lon="9.3232777783">
		<tag k="name" v="Nedre Nyseter" />
		<tag k="place" v="locality" />
		<tag k="ssr:stedsnr" v="344552" />
	</node>
	<node id="-168053" lat="60.4329916644" lon="9.3592194499">
		<tag k="name" v="Ballanby" />
		<tag k="place" v="isolated_dwelling" />
		<tag k="ssr:stedsnr" v="343877" />
	</node>
	<node id="-168043" lat="60.3753027818" lon="9.57015832842">
		<tag k="name" v="Jonebråten" />
		<tag k="place" v="farm" />
		<tag k="ssr:stedsnr" v="343340" />
	</node>
	<node id="-168033" lat="60.326628133" lon="9.6644521017">
		<tag k="alt_name" v="Lindelien" />
		<tag k="fixme" v="consider place=hamlet" />
		<tag k="loc_name" v="Lindelie" />
		<tag k="name" v="Lindelia" />
		<tag k="place" v="farm" />
		<tag k="ssr:stedsnr" v="310857" />
	</node>
	<node id="-168029" lat="60.4009666677" lon="9.17509444446">
		<tag k="historic" v="shieling" />
		<tag k="name" v="Trøgaset" />
		<tag k="place" v="locality" />
		<tag k="ssr:stedsnr" v="310348" />
	</node>
	<node id="-168028" lat="60.4321083312" lon="9.45736111087">
		<tag k="alt_name" v="Vik" />
		<tag k="name" v="Vik gjestgiveri" />
		<tag k="place" v="farm" />
		<tag k="ssr:stedsnr" v="310162" />
	</node>
	<node id="-168027" lat="60.4250916648" lon="9.27197500688">
		<tag k="alt_name" v="Jeppesr" />
		<tag k="fixme" v="multiple name tags, choose one and add the other to alt_name" />
		<tag k="historic" v="shieling" />
		<tag k="name" v="Jeppe;Jeppeseter" />
		<tag k="place" v="locality" />
		<tag k="ssr:stedsnr" v="310150" />
	</node>
	<node id="-168026" lat="60.4247999958" lon="9.55475000013">
		<tag k="historic" v="shieling" />
		<tag k="name" v="Mosetre" />
		<tag k="place" v="locality" />
		<tag k="ssr:stedsnr" v="310147" />
	</node>
	<node id="-168023" lat="60.4302583335" lon="9.67729166138">
		<tag k="historic" v="shieling" />
		<tag k="name" v="Aslesetre" />
		<tag k="place" v="locality" />
		<tag k="ssr:stedsnr" v="309976" />
	</node>
	<node id="-168020" lat="60.32819444" lon="9.62527499881">
		<tag k="alt_name" v="Nordre Veteren" />
		<tag k="name" v="Veterhytta" />
		<tag k="place" v="isolated_dwelling" />
		<tag k="ssr:stedsnr" v="309863" />
	</node>
	<node id="-168018" lat="60.366016666" lon="9.60928333388">
		<tag k="alt_name" v="Vika" />
		<tag k="name" v="Viki" />
		<tag k="place" v="farm" />
		<tag k="ssr:stedsnr" v="309799" />
	</node>
	<node id="-168017" lat="60.3441944471" lon="9.70623889582">
		<tag k="name" v="Matsesetre" />
		<tag k="place" v="locality" />
		<tag k="ssr:stedsnr" v="309778" />
	</node>
	<node id="-168016" lat="60.359980555" lon="9.70090834189">
		<tag k="name" v="Granbu" />
		<tag k="place" v="isolated_dwelling" />
		<tag k="ssr:stedsnr" v="309757" />
	</node>
	<node id="-168005" lat="60.3811972184" lon="9.51648333022">
		<tag k="name" v="Likleivi" />
		<tag k="place" v="isolated_dwelling" />
		<tag k="ssr:stedsnr" v="309271" />
	</node>
	<node id="-168003" lat="60.3725888849" lon="9.48445278375">
		<tag k="historic" v="shieling" />
		<tag k="name" v="Lisetre" />
		<tag k="place" v="locality" />
		<tag k="ssr:stedsnr" v="309260" />
	</node>
	<node id="-168002" lat="60.3799638908" lon="9.56178888383">
		<tag k="alt_name" v="Gandrud" />
		<tag k="name" v="Store Gandrud" />
		<tag k="place" v="farm" />
		<tag k="ssr:stedsnr" v="309255" />
	</node>
	<node id="-168000" lat="60.4124027797" lon="9.50577778517">
		<tag k="alt_name" v="Engene" />
		<tag k="name" v="Engan" />
		<tag k="place" v="farm" />
		<tag k="ssr:stedsnr" v="309228" />
	</node>
	<node id="-167998" lat="60.4250973973" lon="9.33006073171">
		<tag k="fixme" v="consider place=hamlet" />
		<tag k="name" v="Stavn" />
		<tag k="place" v="farm" />
		<tag k="ssr:stedsnr" v="309209" />
	</node>
	<node id="-167996" lat="60.4323444425" lon="9.35274721398">
		<tag k="alt_name" v="Bråtejordet" />
		<tag k="name" v="Bråtajordet" />
		<tag k="place" v="farm" />
		<tag k="ssr:stedsnr" v="309204" />
	</node>
	<node id="-167991" lat="60.3317972206" lon="9.76691389444">
		<tag k="name" v="Klemtjernhytta" />
		<tag k="place" v="isolated_dwelling" />
		<tag k="ssr:stedsnr" v="302923" />
	</node>
	<node id="-167988" lat="60.4384888902" lon="9.46337499309">
		<tag k="name" v="Saramoen" />
		<tag k="place" v="isolated_dwelling" />
		<tag k="ssr:stedsnr" v="300998" />
	</node>
	<node id="-167986" lat="60.4431499956" lon="9.46053333401">
		<tag k="name" v="Ormerud" />
		<tag k="place" v="farm" />
		<tag k="ssr:stedsnr" v="300977" />
	</node>
	<node id="-167977" lat="60.4670499961" lon="9.56132778559">
		<tag k="name" v="Flagligrende" />
		<tag k="place" v="hamlet" />
		<tag k="ssr:stedsnr" v="300295" />
	</node>
	<node id="-167975" lat="60.4225416626" lon="9.80786111998">
		<tag k="name" v="Maribohytta" />
		<tag k="place" v="isolated_dwelling" />
		<tag k="ssr:stedsnr" v="300276" />
	</node>
	<node id="-167972" lat="60.4161638849" lon="9.50185832933">
		<tag k="name" v="Natten" />
		<tag k="place" v="isolated_dwelling" />
		<tag k="ssr:stedsnr" v="300210" />
	</node>
	<node id="-167970" lat="60.4190750014" lon="9.38169166814">
		<tag k="name" v="Botolfshus" />
		<tag k="place" v="farm" />
		<tag k="ssr:stedsnr" v="300018" />
	</node>
	<node id="-167959" lat="60.3676083316" lon="9.64823889054">
		<tag k="name" v="Nordre Medbøen" />
		<tag k="place" v="farm" />
		<tag k="ssr:stedsnr" v="283326" />
	</node>
	<node id="-167957" lat="60.387013887" lon="9.55474444127">
		<tag k="name" v="Skogtun" />
		<tag k="place" v="isolated_dwelling" />
		<tag k="ssr:stedsnr" v="283307" />
	</node>
	<node id="-167956" lat="60.309905554" lon="9.54742778513">
		<tag k="name" v="Fiskebekkhytta" />
		<tag k="place" v="isolated_dwelling" />
		<tag k="ssr:stedsnr" v="283101" />
	</node>
	<node id="-167952" lat="60.4386055574" lon="9.32301666869">
		<tag k="name" v="Kråkenes" />
		<tag k="place" v="locality" />
		<tag k="ssr:stedsnr" v="282824" />
	</node>
	<node id="-167951" lat="60.4320027781" lon="9.37902777256">
		<tag k="name" v="Granmo" />
		<tag k="place" v="isolated_dwelling" />
		<tag k="ssr:stedsnr" v="282813" />
	</node>
</osm>
