<?xml version="1.0" encoding="UTF-8"?>
<osm generator="osmapis" version="0.6">
	<node id="-393088" lat="58.8400805573" lon="5.71424999911">
		<tag k="alt_name" v="Gand" />
		<tag k="amenity" v="place_of_worship" />
		<tag k="denomination" v="lutheran" />
		<tag k="name" v="Gand kirke" />
		<tag k="religion" v="christian" />
		<tag k="ssr:stedsnr" v="206679" />
	</node>
	<node id="-392640" lat="58.9262561851" lon="5.8510173587">
		<tag k="amenity" v="place_of_worship" />
		<tag k="denomination" v="lutheran" />
		<tag k="name" v="Riska gamle kirke" />
		<tag k="religion" v="christian" />
		<tag k="ssr:stedsnr" v="991243" />
	</node>
	<node id="-392638" lat="58.8205877261" lon="5.74644499614">
		<tag k="amenity" v="place_of_worship" />
		<tag k="denomination" v="lutheran" />
		<tag k="name" v="Bogafjell kyrkje" />
		<tag k="religion" v="christian" />
		<tag k="ssr:stedsnr" v="991181" />
	</node>
	<node id="-392860" lat="58.8684222221" lon="5.71080000424">
		<tag k="amenity" v="community_centre" />
		<tag k="name" v="Myrtun" />
		<tag k="ssr:stedsnr" v="85269" />
	</node>
	<node id="-392538" lat="58.8283611128" lon="5.82716666716">
		<tag k="alt_name" v="Sviland" />
		<tag k="amenity" v="place_of_worship" />
		<tag k="denomination" v="lutheran" />
		<tag k="name" v="Sviland kapell" />
		<tag k="religion" v="christian" />
		<tag k="ssr:stedsnr" v="365897" />
	</node>
	<node id="-392639" lat="58.8641158753" lon="5.75782171011">
		<tag k="amenity" v="place_of_worship" />
		<tag k="denomination" v="lutheran" />
		<tag k="name" v="Hana kirke" />
		<tag k="religion" v="christian" />
		<tag k="ssr:stedsnr" v="991190" />
	</node>
	<node id="-394071" lat="58.830761107" lon="5.66426111954">
		<tag k="alt_name" v="Julebygda" />
		<tag k="amenity" v="place_of_worship" />
		<tag k="denomination" v="lutheran" />
		<tag k="name" v="Julebygda kapell" />
		<tag k="religion" v="christian" />
		<tag k="ssr:stedsnr" v="911890" />
	</node>
	<node id="-392534" lat="58.9278434816" lon="5.85453484286">
		<tag k="alt_name" v="Riska" />
		<tag k="amenity" v="place_of_worship" />
		<tag k="denomination" v="lutheran" />
		<tag k="name" v="Riska kirke" />
		<tag k="religion" v="christian" />
		<tag k="ssr:stedsnr" v="365727" />
	</node>
	<node id="-393753" lat="58.8308805601" lon="5.75067778269">
		<tag k="alt_name" v="Høyland;Høyland kyrkje" />
		<tag k="amenity" v="place_of_worship" />
		<tag k="denomination" v="lutheran" />
		<tag k="name" v="Høyland kirke" />
		<tag k="religion" v="christian" />
		<tag k="ssr:stedsnr" v="729889" />
	</node>
	<node id="-393203" lat="58.8969027798" lon="6.00814444975">
		<tag k="alt_name" v="Høle" />
		<tag k="amenity" v="place_of_worship" />
		<tag k="denomination" v="lutheran" />
		<tag k="name" v="Høle kyrkje" />
		<tag k="religion" v="christian" />
		<tag k="ssr:stedsnr" v="425636" />
	</node>
	<node id="-393271" lat="58.8554749991" lon="5.67632221455">
		<tag k="amenity" v="community_centre" />
		<tag k="name" v="Rudlå" />
		<tag k="ssr:stedsnr" v="449283" />
	</node>
	<node id="-392523" lat="58.8528666707" lon="5.73345000799">
		<tag k="alt_name" v="Sandnes" />
		<tag k="amenity" v="place_of_worship" />
		<tag k="denomination" v="lutheran" />
		<tag k="name" v="Sandnes kirke" />
		<tag k="religion" v="christian" />
		<tag k="ssr:stedsnr" v="364982" />
	</node>
	<node id="-393463" lat="58.9211722207" lon="5.82480554989">
		<tag k="amenity" v="community_centre" />
		<tag k="name" v="Karmel" />
		<tag k="ssr:stedsnr" v="569075" />
	</node>
	<node id="-393895" lat="58.8916111146" lon="5.84394167019">
		<tag k="name" v="Kolhaugen" />
		<tag k="place" v="locality" />
		<tag k="ssr:stedsnr" v="811189" />
	</node>
	<node id="-393190" lat="58.8728472234" lon="5.73023056164">
		<tag k="alt_name" v="Lura" />
		<tag k="amenity" v="place_of_worship" />
		<tag k="denomination" v="lutheran" />
		<tag k="name" v="Lura kirke" />
		<tag k="religion" v="christian" />
		<tag k="ssr:stedsnr" v="267680" />
	</node>
	<node id="-393471" lat="58.8584944485" lon="5.72597221423">
		<tag k="amenity" v="community_centre" />
		<tag k="name" v="Giskehallen" />
		<tag k="ssr:stedsnr" v="569665" />
	</node>
</osm>
