<?xml version="1.0" encoding="UTF-8"?>
<osm generator="osmapis" version="0.6">
	<node id="-393214" lat="58.8434055521" lon="5.94873888594">
		<tag k="name" v="Bustetjørna" />
		<tag k="natural" v="water" />
		<tag k="ssr:stedsnr" v="691893" />
	</node>
	<node id="-392188" lat="58.8814406051" lon="6.04852796912">
		<tag k="alt_name" v="Selvigtjørna" />
		<tag k="name" v="Selvikvatnet" />
		<tag k="natural" v="water" />
		<tag k="ssr:stedsnr" v="1675" />
		<tag k="water" v="lake" />
	</node>
	<node id="-392187" lat="58.8845500005" lon="5.91271667382">
		<tag k="name" v="Kupholmen" />
		<tag k="place" v="islet" />
		<tag k="ssr:stedsnr" v="1672" />
	</node>
	<node id="-392181" lat="58.8013611128" lon="5.90769999241">
		<tag k="alt_name" v="Eiavatnet" />
		<tag k="name" v="Eidavatnet" />
		<tag k="natural" v="water" />
		<tag k="ssr:stedsnr" v="1539" />
		<tag k="water" v="lake" />
	</node>
	<node id="-392180" lat="58.8042361123" lon="5.85935278419">
		<tag k="alt_name" v="Dyranestjørn" />
		<tag k="name" v="Dyranuttjørna" />
		<tag k="natural" v="water" />
		<tag k="ssr:stedsnr" v="1530" />
	</node>
	<node id="-392190" lat="58.8824027786" lon="5.97789167325">
		<tag k="alt_name" v="Krosstjørnene" />
		<tag k="name" v="Krosstjørna" />
		<tag k="natural" v="water" />
		<tag k="ssr:stedsnr" v="1686" />
	</node>
	<node id="-393202" lat="58.8037333349" lon="5.74425000212">
		<tag k="name" v="Plassatjørn" />
		<tag k="natural" v="water" />
		<tag k="ssr:stedsnr" v="691628" />
	</node>
	<node id="-392175" lat="58.8940209768" lon="5.94318456358">
		<tag k="alt_name" v="Imsvatnet;Imsvatn" />
		<tag k="name" v="Liavatnet" />
		<tag k="natural" v="water" />
		<tag k="ssr:stedsnr" v="641" />
		<tag k="water" v="lake" />
	</node>
	<node id="-392172" lat="58.8475722266" lon="5.96737778239">
		<tag k="name" v="Heimra Tjørna" />
		<tag k="natural" v="water" />
		<tag k="ssr:stedsnr" v="266921" />
	</node>
	<node id="-392682" lat="58.8582305597" lon="5.89377222213">
		<tag k="name" v="Toskatjørna" />
		<tag k="natural" v="water" />
		<tag k="ssr:stedsnr" v="266054" />
		<tag k="water" v="lake" />
	</node>
	<node id="-393383" lat="58.8805888909" lon="5.87785556063">
		<tag k="alt_name" v="Vaulatjørn" />
		<tag k="name" v="Vaulatjørna" />
		<tag k="natural" v="water" />
		<tag k="ssr:stedsnr" v="790704" />
	</node>
	<node id="-392414" lat="58.8433027766" lon="5.9173361135">
		<tag k="alt_name" v="Krogedalstjørna" />
		<tag k="name" v="Kråkedalstjørna" />
		<tag k="natural" v="water" />
		<tag k="ssr:stedsnr" v="122597" />
	</node>
	<node id="-392675" lat="58.8846611141" lon="5.90838056171">
		<tag k="name" v="Risnestangen" />
		<tag k="natural" v="cape" />
		<tag k="ssr:stedsnr" v="265192" />
	</node>
	<node id="-393185" lat="58.8723166643" lon="5.89101389611">
		<tag k="name" v="Kutangen" />
		<tag k="natural" v="cape" />
		<tag k="ssr:stedsnr" v="690177" />
	</node>
	<node id="-392672" lat="58.9092500028" lon="5.85290555048">
		<tag k="name" v="Teinebekken" />
		<tag k="ssr:stedsnr" v="265153" />
		<tag k="waterway" v="stream" />
	</node>
	<node id="-392667" lat="58.9489527762" lon="5.89038889053">
		<tag k="loc_name" v="Hamratjørna" />
		<tag k="name" v="Hamratjørn" />
		<tag k="natural" v="water" />
		<tag k="ssr:stedsnr" v="265120" />
	</node>
	<node id="-393295" lat="58.8729444457" lon="5.86910834004">
		<tag k="name" v="Hedleneset" />
		<tag k="natural" v="cape" />
		<tag k="ssr:stedsnr" v="751221" />
	</node>
	<node id="-393176" lat="58.872949996" lon="5.9585305577">
		<tag k="name" v="Revastitjørna" />
		<tag k="natural" v="water" />
		<tag k="ssr:stedsnr" v="690071" />
		<tag k="water" v="lake" />
	</node>
	<node id="-393175" lat="58.8948583302" lon="5.96198888545">
		<tag k="name" v="Fossbekk" />
		<tag k="ssr:stedsnr" v="690061" />
		<tag k="waterway" v="stream" />
	</node>
	<node id="-392660" lat="58.8867611071" lon="5.97010277727">
		<tag k="name" v="Svanelitjørna" />
		<tag k="natural" v="water" />
		<tag k="ssr:stedsnr" v="265057" />
	</node>
	<node id="-393170" lat="58.8086500005" lon="5.93616388216">
		<tag k="name" v="Litla Ryggjavatn" />
		<tag k="natural" v="water" />
		<tag k="ssr:stedsnr" v="690007" />
		<tag k="water" v="lake" />
	</node>
	<node id="-393166" lat="58.8889083317" lon="5.79261388189">
		<tag k="name" v="Revholstjørn" />
		<tag k="natural" v="water" />
		<tag k="ssr:stedsnr" v="668938" />
	</node>
	<node id="-393037" lat="58.8773194421" lon="5.86950833541">
		<tag k="alt_name" v="Magnlitjørn" />
		<tag k="name" v="Mangelitjørna" />
		<tag k="natural" v="water" />
		<tag k="ssr:stedsnr" v="607680" />
	</node>
	<node id="-392650" lat="58.810347187" lon="5.82035298135">
		<tag k="alt_name" v="Espelandstjørna" />
		<tag k="name" v="Espelandstjørn" />
		<tag k="natural" v="water" />
		<tag k="ssr:stedsnr" v="244923" />
	</node>
	<node id="-392649" lat="58.8039336419" lon="5.78924453997">
		<tag k="name" v="Bråsteinvatnet" />
		<tag k="natural" v="water" />
		<tag k="ssr:stedsnr" v="244915" />
		<tag k="water" v="lake" />
	</node>
	<node id="-392647" lat="58.9143194425" lon="5.86039721501">
		<tag k="alt_name" v="Frøylandsvatn" />
		<tag k="name" v="Frøylandsvatnet" />
		<tag k="natural" v="water" />
		<tag k="ssr:stedsnr" v="244755" />
		<tag k="water" v="lake" />
	</node>
	<node id="-393151" lat="58.9436305583" lon="5.92496945091">
		<tag k="alt_name" v="Breidviksstemmen, nordre;nedre Breivikstemmen" />
		<tag k="name" v="Nordre Breidviksstemmen" />
		<tag k="natural" v="water" />
		<tag k="ssr:stedsnr" v="668717" />
	</node>
	<node id="-392637" lat="58.9418805549" lon="5.94161389034">
		<tag k="alt_name" v="Asbjørntjørn" />
		<tag k="name" v="Asbjørnstjørna" />
		<tag k="natural" v="water" />
		<tag k="ssr:stedsnr" v="243700" />
	</node>
	<node id="-392632" lat="58.9327305527" lon="5.93017222666">
		<tag k="alt_name" v="Foretjørn" />
		<tag k="name" v="Furetjørna" />
		<tag k="natural" v="water" />
		<tag k="ssr:stedsnr" v="243714" />
	</node>
	<node id="-393143" lat="58.8330333366" lon="5.89362778484">
		<tag k="alt_name" v="Hagatjørna" />
		<tag k="name" v="Stemtjørna" />
		<tag k="natural" v="water" />
		<tag k="ssr:stedsnr" v="668637" />
	</node>
	<node id="-393142" lat="58.8322749984" lon="5.98276389533">
		<tag k="name" v="Holmen" />
		<tag k="place" v="islet" />
		<tag k="ssr:stedsnr" v="668634" />
	</node>
	<node id="-393140" lat="58.9196466684" lon="5.79925255923">
		<tag k="fixme" v="multiple name tags, choose one and add the other to alt_name" />
		<tag k="name" v="Høgafjellstjørna;Litjørna" />
		<tag k="natural" v="water" />
		<tag k="ssr:stedsnr" v="668027" />
	</node>
	<node id="-392179" lat="58.807325003" lon="5.88331110591">
		<tag k="alt_name" v="Øksnatjørn" />
		<tag k="name" v="Øksnatjørna" />
		<tag k="natural" v="water" />
		<tag k="ssr:stedsnr" v="1518" />
	</node>
	<node id="-393117" lat="58.8321555518" lon="5.67463054931">
		<tag k="name" v="Raugstadbekken" />
		<tag k="ssr:stedsnr" v="631786" />
		<tag k="waterway" v="stream" />
	</node>
	<node id="-393625" lat="58.8900444434" lon="5.85804999174">
		<tag k="name" v="Kvednabekken" />
		<tag k="ssr:stedsnr" v="933231" />
		<tag k="waterway" v="stream" />
	</node>
	<node id="-393620" lat="58.8902194447" lon="5.9275833312">
		<tag k="name" v="Sundatjørna" />
		<tag k="natural" v="water" />
		<tag k="ssr:stedsnr" v="933192" />
	</node>
	<node id="-392594" lat="58.9190694445" lon="5.7910749922">
		<tag k="name" v="Nordafjellstjørna" />
		<tag k="natural" v="water" />
		<tag k="ssr:stedsnr" v="206056" />
	</node>
	<node id="-392079" lat="58.856833333" lon="5.90224443747">
		<tag k="name" v="Holbekken" />
		<tag k="ssr:stedsnr" v="387068" />
		<tag k="waterway" v="stream" />
	</node>
	<node id="-392078" lat="58.8543472244" lon="5.89863888874">
		<tag k="name" v="Arnaholen" />
		<tag k="place" v="locality" />
		<tag k="ssr:stedsnr" v="387067" />
	</node>
	<node id="-392076" lat="58.8534499998" lon="5.93589999166">
		<tag k="name" v="Blommatjørn" />
		<tag k="natural" v="water" />
		<tag k="ssr:stedsnr" v="387063" />
	</node>
	<node id="-392074" lat="58.8712916683" lon="5.86798889003">
		<tag k="name" v="Apalstø" />
		<tag k="natural" v="bay" />
		<tag k="ssr:stedsnr" v="386214" />
	</node>
	<node id="-392582" lat="58.8321111072" lon="5.97059166778">
		<tag k="name" v="Vaudl" />
		<tag k="natural" v="strait" />
		<tag k="ssr:stedsnr" v="205898" />
	</node>
	<node id="-392069" lat="58.9256166697" lon="5.94033055203">
		<tag k="name" v="Botnalaustjørn" />
		<tag k="natural" v="water" />
		<tag k="ssr:stedsnr" v="386099" />
	</node>
	<node id="-393089" lat="58.8748472208" lon="5.79398333415">
		<tag k="name" v="Kubbetjørn" />
		<tag k="natural" v="water" />
		<tag k="ssr:stedsnr" v="630206" />
	</node>
	<node id="-392576" lat="58.8908888894" lon="5.91651945029">
		<tag k="name" v="Lammaneset" />
		<tag k="natural" v="cape" />
		<tag k="ssr:stedsnr" v="205196" />
	</node>
	<node id="-392574" lat="58.8705444464" lon="5.91382222896">
		<tag k="name" v="Osen" />
		<tag k="natural" v="bay" />
		<tag k="ssr:stedsnr" v="205184" />
	</node>
	<node id="-392170" lat="58.8584194439" lon="5.96453888284">
		<tag k="name" v="Liabekken" />
		<tag k="ssr:stedsnr" v="266898" />
		<tag k="waterway" v="stream" />
	</node>
	<node id="-393082" lat="58.8709000025" lon="5.83499166004">
		<tag k="name" v="Risholmen" />
		<tag k="place" v="islet" />
		<tag k="ssr:stedsnr" v="629209" />
	</node>
	<node id="-393081" lat="58.8694861114" lon="5.87523889024">
		<tag k="name" v="Kvednaneset" />
		<tag k="natural" v="cape" />
		<tag k="ssr:stedsnr" v="629203" />
	</node>
	<node id="-392567" lat="58.9460000016" lon="5.89937776898">
		<tag k="loc_name" v="Hodlatjørna" />
		<tag k="name" v="Hodlatjørn" />
		<tag k="natural" v="water" />
		<tag k="ssr:stedsnr" v="205160" />
	</node>
	<node id="-392054" lat="58.9004166688" lon="5.93943888012">
		<tag k="name" v="Iglatjørna" />
		<tag k="natural" v="water" />
		<tag k="ssr:stedsnr" v="365647" />
	</node>
	<node id="-393076" lat="58.9124611082" lon="5.87254722229">
		<tag k="name" v="Sanddalsbekken" />
		<tag k="ssr:stedsnr" v="629149" />
		<tag k="waterway" v="stream" />
	</node>
	<node id="-392436" lat="58.8093833309" lon="5.89963333658">
		<tag k="name" v="Gulltjørna" />
		<tag k="natural" v="water" />
		<tag k="ssr:stedsnr" v="143006" />
		<tag k="water" v="lake" />
	</node>
	<node id="-393069" lat="58.9341638853" lon="5.85333889195">
		<tag k="loc_name" v="Heståvatnet" />
		<tag k="name" v="Heståvatn" />
		<tag k="natural" v="water" />
		<tag k="ssr:stedsnr" v="629119" />
		<tag k="water" v="lake" />
	</node>
	<node id="-393064" lat="58.8890527757" lon="5.98068055724">
		<tag k="name" v="Ulvaskarstjørna" />
		<tag k="natural" v="water" />
		<tag k="ssr:stedsnr" v="629075" />
	</node>
	<node id="-393574" lat="58.8949916692" lon="5.92996944509">
		<tag k="alt_name" v="Straumtjørna" />
		<tag k="name" v="Straumstjørna" />
		<tag k="natural" v="water" />
		<tag k="ssr:stedsnr" v="911666" />
	</node>
	<node id="-393570" lat="58.8268083326" lon="5.95408610578">
		<tag k="name" v="Svihusvatnet" />
		<tag k="natural" v="water" />
		<tag k="ssr:stedsnr" v="911617" />
		<tag k="water" v="lake" />
	</node>
	<node id="-393568" lat="58.8065277801" lon="5.89922222327">
		<tag k="alt_name" v="Langavatn" />
		<tag k="name" v="Langavatnet" />
		<tag k="natural" v="water" />
		<tag k="ssr:stedsnr" v="911530" />
		<tag k="water" v="lake" />
	</node>
	<node id="-392543" lat="58.8803916641" lon="5.92054999628">
		<tag k="alt_name" v="Storeholmen" />
		<tag k="name" v="Storholmen" />
		<tag k="place" v="islet" />
		<tag k="ssr:stedsnr" v="183665" />
	</node>
	<node id="-392542" lat="58.8861222255" lon="5.93536666769">
		<tag k="name" v="Vommavatnet" />
		<tag k="natural" v="water" />
		<tag k="ssr:stedsnr" v="183651" />
		<tag k="water" v="lake" />
	</node>
	<node id="-393053" lat="58.8206243953" lon="5.73044224158">
		<tag k="name" v="Stokkalandsvatnet" />
		<tag k="natural" v="water" />
		<tag k="ssr:stedsnr" v="607926" />
	</node>
	<node id="-393052" lat="58.8096666627" lon="5.73744166399">
		<tag k="alt_name" v="Vagletjørna" />
		<tag k="name" v="Vagletjørn" />
		<tag k="natural" v="water" />
		<tag k="ssr:stedsnr" v="607919" />
	</node>
	<node id="-391994" lat="58.8815472227" lon="5.78538333954">
		<tag k="name" v="Gramstadbekken" />
		<tag k="ssr:stedsnr" v="327188" />
		<tag k="waterway" v="stream" />
	</node>
	<node id="-392026" lat="58.8951166671" lon="6.00428889261">
		<tag k="name" v="Høleåna" />
		<tag k="ssr:stedsnr" v="343145" />
		<tag k="waterway" v="river" />
	</node>
	<node id="-392537" lat="58.8023583353" lon="5.88303888723">
		<tag k="alt_name" v="Rodatjørn" />
		<tag k="name" v="Rotatjørna" />
		<tag k="natural" v="water" />
		<tag k="ssr:stedsnr" v="183493" />
	</node>
	<node id="-393273" lat="58.8012472249" lon="5.86718055435">
		<tag k="name" v="Dyranesbekken" />
		<tag k="ssr:stedsnr" v="750085" />
		<tag k="waterway" v="stream" />
	</node>
	<node id="-392531" lat="58.9521944402" lon="5.90079445251">
		<tag k="name" v="Nordavatnet" />
		<tag k="natural" v="water" />
		<tag k="ssr:stedsnr" v="182789" />
		<tag k="water" v="lake" />
	</node>
	<node id="-393042" lat="58.9144342816" lon="5.92399054395">
		<tag k="fixme" v="multiple name tags, choose one and add the other to alt_name" />
		<tag k="name" v="Steinstjørn;Stemmetjørna" />
		<tag k="natural" v="water" />
		<tag k="ssr:stedsnr" v="607742" />
	</node>
	<node id="-392014" lat="58.8432916708" lon="5.97012777313">
		<tag k="name" v="Tverrbekken" />
		<tag k="ssr:stedsnr" v="327883" />
		<tag k="waterway" v="stream" />
	</node>
	<node id="-392013" lat="58.831708332" lon="5.94924166145">
		<tag k="name" v="Teinetjørna" />
		<tag k="natural" v="water" />
		<tag k="ssr:stedsnr" v="327861" />
	</node>
	<node id="-393527" lat="58.8912805598" lon="5.83245556">
		<tag k="name" v="Kvednhusbekken" />
		<tag k="ssr:stedsnr" v="872245" />
		<tag k="waterway" v="stream" />
	</node>
	<node id="-392005" lat="58.8372305532" lon="5.72702777524">
		<tag k="name" v="Storåna" />
		<tag k="ssr:stedsnr" v="327607" />
		<tag k="waterway" v="river" />
	</node>
	<node id="-392004" lat="58.8036722229" lon="5.7232361138">
		<tag k="name" v="Røyrvikhølen" />
		<tag k="place" v="locality" />
		<tag k="ssr:stedsnr" v="327595" />
	</node>
	<node id="-393538" lat="58.7964805514" lon="5.76682500569">
		<tag k="name" v="Møgedalshølen" />
		<tag k="place" v="locality" />
		<tag k="ssr:stedsnr" v="873586" />
	</node>
	<node id="-392513" lat="58.8315343494" lon="5.86930280224">
		<tag k="alt_name" v="Skjelbreidtjørna" />
		<tag k="name" v="Skjelbreitjørna" />
		<tag k="natural" v="water" />
		<tag k="ssr:stedsnr" v="162651" />
		<tag k="water" v="lake" />
	</node>
	<node id="-393533" lat="58.8509499965" lon="5.8982888963">
		<tag k="name" v="Stølsholen" />
		<tag k="place" v="locality" />
		<tag k="ssr:stedsnr" v="873064" />
	</node>
	<node id="-393532" lat="58.9228166666" lon="5.81934445144">
		<tag k="name" v="Liaåna" />
		<tag k="ssr:stedsnr" v="873061" />
		<tag k="waterway" v="stream" />
	</node>
	<node id="-393019" lat="58.8580888929" lon="6.07129443815">
		<tag k="alt_name" v="Buløytjørna" />
		<tag k="name" v="Løypedalstjørna" />
		<tag k="natural" v="water" />
		<tag k="ssr:stedsnr" v="607581" />
	</node>
	<node id="-393530" lat="58.7956527765" lon="5.88327222093">
		<tag k="name" v="Åletjørn" />
		<tag k="natural" v="water" />
		<tag k="ssr:stedsnr" v="873028" />
	</node>
	<node id="-393015" lat="58.8108833379" lon="5.88891944928">
		<tag k="name" v="Toskatjørna" />
		<tag k="natural" v="water" />
		<tag k="ssr:stedsnr" v="607502" />
	</node>
	<node id="-393525" lat="58.8926138857" lon="5.92197221555">
		<tag k="name" v="Sorteneset" />
		<tag k="natural" v="cape" />
		<tag k="ssr:stedsnr" v="872201" />
	</node>
	<node id="-393012" lat="58.8682194436" lon="6.07402222276">
		<tag k="name" v="Selitjørna" />
		<tag k="natural" v="water" />
		<tag k="ssr:stedsnr" v="604185" />
	</node>
	<node id="-393011" lat="58.874505552" lon="6.07385556221">
		<tag k="alt_name" v="Selvigå" />
		<tag k="name" v="Seliåna" />
		<tag k="ssr:stedsnr" v="604178" />
		<tag k="waterway" v="river" />
	</node>
	<node id="-391986" lat="58.8709638852" lon="5.87718333577">
		<tag k="name" v="Kvednaholmane" />
		<tag k="place" v="islet" />
		<tag k="ssr:stedsnr" v="326208" />
	</node>
	<node id="-391985" lat="58.880880556" lon="5.85375277952">
		<tag k="name" v="Bergursneset" />
		<tag k="natural" v="cape" />
		<tag k="ssr:stedsnr" v="326200" />
	</node>
	<node id="-393519" lat="58.8786527758" lon="5.89836388116">
		<tag k="name" v="Sikabukta" />
		<tag k="natural" v="bay" />
		<tag k="ssr:stedsnr" v="872157" />
	</node>
	<node id="-391982" lat="58.931858332" lon="5.85999722423">
		<tag k="name" v="Heståna" />
		<tag k="ssr:stedsnr" v="326172" />
		<tag k="waterway" v="river" />
	</node>
	<node id="-392493" lat="58.8043694463" lon="5.68709721907">
		<tag k="name" v="Skjævelandshølen" />
		<tag k="place" v="locality" />
		<tag k="ssr:stedsnr" v="145761" />
	</node>
	<node id="-393567" lat="58.803272224" lon="5.92629722514">
		<tag k="name" v="Grimslitjørna" />
		<tag k="natural" v="water" />
		<tag k="ssr:stedsnr" v="911528" />
	</node>
	<node id="-393510" lat="58.9001972232" lon="5.98128611552">
		<tag k="name" v="Skiftebekken" />
		<tag k="ssr:stedsnr" v="872063" />
		<tag k="waterway" v="stream" />
	</node>
	<node id="-392997" lat="58.8375861152" lon="5.66494445046">
		<tag k="name" v="Varholstemmen" />
		<tag k="natural" v="water" />
		<tag k="ssr:stedsnr" v="570774" />
	</node>
	<node id="-392484" lat="58.8127722225" lon="5.73639721473">
		<tag k="name" v="Lonabekken" />
		<tag k="ssr:stedsnr" v="145617" />
		<tag k="waterway" v="stream" />
	</node>
	<node id="-393606" lat="58.881211112" lon="5.96773332564">
		<tag k="name" v="Rankestitjørn" />
		<tag k="natural" v="water" />
		<tag k="ssr:stedsnr" v="933095" />
		<tag k="water" v="lake" />
	</node>
	<node id="-392481" lat="58.8122916621" lon="5.81185554873">
		<tag k="name" v="Skittjørn" />
		<tag k="natural" v="water" />
		<tag k="ssr:stedsnr" v="145210" />
	</node>
	<node id="-391968" lat="58.8059249997" lon="5.84469443764">
		<tag k="name" v="Krossbekken" />
		<tag k="ssr:stedsnr" v="326094" />
		<tag k="waterway" v="stream" />
	</node>
	<node id="-392305" lat="58.9186333324" lon="5.94977222883">
		<tag k="name" v="Eskelandsstemmen" />
		<tag k="natural" v="water" />
		<tag k="ssr:stedsnr" v="62731" />
	</node>
	<node id="-392986" lat="58.8535638854" lon="5.95614166933">
		<tag k="name" v="Paddetjørna" />
		<tag k="natural" v="water" />
		<tag k="ssr:stedsnr" v="569859" />
	</node>
	<node id="-393263" lat="58.9544916667" lon="5.88227500111">
		<tag k="alt_name" v="Rodatjørn" />
		<tag k="name" v="Rotatjørna" />
		<tag k="natural" v="water" />
		<tag k="ssr:stedsnr" v="729814" />
	</node>
	<node id="-391958" lat="58.8069583303" lon="5.94074722768">
		<tag k="name" v="Stora Ryggjavatn" />
		<tag k="natural" v="water" />
		<tag k="ssr:stedsnr" v="326009" />
		<tag k="water" v="lake" />
	</node>
	<node id="-392981" lat="58.8268388932" lon="5.7615583392">
		<tag k="name" v="Melsheibekken" />
		<tag k="ssr:stedsnr" v="569652" />
		<tag k="waterway" v="stream" />
	</node>
	<node id="-391956" lat="58.8702833312" lon="5.8236249975">
		<tag k="name" v="Lutsivatnet" />
		<tag k="natural" v="water" />
		<tag k="ssr:stedsnr" v="304989" />
		<tag k="water" v="lake" />
	</node>
	<node id="-393518" lat="58.9126917491" lon="5.86306616609">
		<tag k="name" v="Lyngnes" />
		<tag k="natural" v="cape" />
		<tag k="ssr:stedsnr" v="872152" />
	</node>
	<node id="-392466" lat="58.8678916704" lon="5.83687221857">
		<tag k="name" v="Hanes" />
		<tag k="natural" v="cape" />
		<tag k="ssr:stedsnr" v="144238" />
	</node>
	<node id="-392465" lat="58.8742666651" lon="5.83405833419">
		<tag k="name" v="Sandalsholmane" />
		<tag k="place" v="islet" />
		<tag k="ssr:stedsnr" v="144226" />
	</node>
	<node id="-392664" lat="58.9568388867" lon="5.87069166253">
		<tag k="name" v="Johannesvatnet" />
		<tag k="natural" v="water" />
		<tag k="ssr:stedsnr" v="265101" />
		<tag k="water" v="lake" />
	</node>
	<node id="-393484" lat="58.8317805546" lon="5.82651389502">
		<tag k="name" v="Svilandsåna" />
		<tag k="old_name" v="Svilandselva" />
		<tag k="ssr:stedsnr" v="850892" />
		<tag k="waterway" v="stream" />
	</node>
	<node id="-392458" lat="58.936236109" lon="5.86941388121">
		<tag k="name" v="Krambuneset" />
		<tag k="natural" v="cape" />
		<tag k="ssr:stedsnr" v="144193" />
	</node>
	<node id="-392456" lat="58.8785055539" lon="5.8935694464">
		<tag k="name" v="Heimra Longaneset" />
		<tag k="natural" v="cape" />
		<tag k="ssr:stedsnr" v="144170" />
	</node>
	<node id="-393479" lat="58.8394111088" lon="5.93401389196">
		<tag k="name" v="Rikkatjørna" />
		<tag k="natural" v="water" />
		<tag k="ssr:stedsnr" v="850588" />
	</node>
	<node id="-391941" lat="58.929413888" lon="5.90996111937">
		<tag k="name" v="Kleivadalsvatnet" />
		<tag k="natural" v="water" />
		<tag k="old_name" v="Kletvadalsvatnet" />
		<tag k="ssr:stedsnr" v="304722" />
		<tag k="water" v="lake" />
	</node>
	<node id="-393476" lat="58.8584861131" lon="6.03928611532">
		<tag k="name" v="Blommetjørna" />
		<tag k="natural" v="water" />
		<tag k="ssr:stedsnr" v="848837" />
	</node>
	<node id="-391939" lat="58.9419805543" lon="5.92536944086">
		<tag k="alt_name" v="Breidviksstemmen, søre;Øvre Breivikstemmen" />
		<tag k="name" v="Søre Breidviksstemmen" />
		<tag k="natural" v="water" />
		<tag k="ssr:stedsnr" v="304702" />
	</node>
	<node id="-392450" lat="58.9317527758" lon="5.92105555085">
		<tag k="name" v="Blommatjørna" />
		<tag k="natural" v="water" />
		<tag k="ssr:stedsnr" v="144139" />
	</node>
	<node id="-392961" lat="58.8959500014" lon="5.91558055134">
		<tag k="name" v="Stora Sandvika" />
		<tag k="natural" v="bay" />
		<tag k="ssr:stedsnr" v="568194" />
	</node>
	<node id="-392960" lat="58.8710472198" lon="5.91605832735">
		<tag k="name" v="Vigjå" />
		<tag k="natural" v="bay" />
		<tag k="ssr:stedsnr" v="568180" />
	</node>
	<node id="-391933" lat="58.8530750046" lon="6.0443138939">
		<tag k="alt_name" v="Trodlabergtjørna" />
		<tag k="name" v="Trollabærtjørna" />
		<tag k="natural" v="water" />
		<tag k="ssr:stedsnr" v="304605" />
	</node>
	<node id="-391932" lat="58.8554944489" lon="5.88072500481">
		<tag k="name" v="Nordlandstjørna" />
		<tag k="natural" v="water" />
		<tag k="ssr:stedsnr" v="304580" />
	</node>
	<node id="-391930" lat="58.8066111102" lon="5.94233333399">
		<tag k="alt_name" v="stora Ryggjavatnet" />
		<tag k="name" v="Ryggjavatnet" />
		<tag k="natural" v="water" />
		<tag k="ssr:stedsnr" v="304521" />
		<tag k="water" v="lake" />
	</node>
	<node id="-391924" lat="58.8543694413" lon="6.01977777418">
		<tag k="name" v="Tjelmatjørna" />
		<tag k="natural" v="water" />
		<tag k="ssr:stedsnr" v="302827" />
	</node>
	<node id="-392435" lat="58.8661738378" lon="5.8068117512">
		<tag k="name" v="Dybingen" />
		<tag k="natural" v="water" />
		<tag k="old_name" v="Dybningen" />
		<tag k="ssr:stedsnr" v="122987" />
		<tag k="water" v="lake" />
	</node>
	<node id="-392433" lat="58.8832305599" lon="5.79527778468">
		<tag k="alt_name" v="Gramstadtjørn" />
		<tag k="name" v="Gramstadtjørna" />
		<tag k="natural" v="water" />
		<tag k="ssr:stedsnr" v="122928" />
	</node>
	<node id="-391918" lat="58.8713888899" lon="6.07271110985">
		<tag k="name" v="Fossen" />
		<tag k="natural" v="waterfall" />
		<tag k="ssr:stedsnr" v="301161" />
	</node>
	<node id="-392146" lat="58.8034151069" lon="5.6981665295">
		<tag k="name" v="Lonavatnet" />
		<tag k="natural" v="water" />
		<tag k="old_name" v="Lonavatn" />
		<tag k="ssr:stedsnr" v="911918" />
	</node>
	<node id="-392423" lat="58.9114392445" lon="5.95913966061">
		<tag k="fixme" v="multiple name tags, choose one and add the other to alt_name" />
		<tag k="name" v="Rundatjørn;Slevatjørna" />
		<tag k="natural" v="water" />
		<tag k="ssr:stedsnr" v="122736" />
	</node>
	<node id="-392932" lat="58.8777000029" lon="6.01293611278">
		<tag k="alt_name" v="Stemmatjørna" />
		<tag k="name" v="Stemmetjørna" />
		<tag k="natural" v="water" />
		<tag k="ssr:stedsnr" v="547715" />
	</node>
	<node id="-392931" lat="58.8721451864" lon="5.88280329926">
		<tag k="name" v="Storavatnet" />
		<tag k="natural" v="water" />
		<tag k="ssr:stedsnr" v="547711" />
		<tag k="water" v="lake" />
	</node>
	<node id="-392930" lat="58.9014638914" lon="5.90203888187">
		<tag k="alt_name" v="Bratthetlandsvatnet" />
		<tag k="name" v="Bratthetlandstjørna" />
		<tag k="natural" v="water" />
		<tag k="ssr:stedsnr" v="547686" />
	</node>
	<node id="-392416" lat="58.9408370692" lon="5.89439564162">
		<tag k="alt_name" v="Eltarvågvatnet" />
		<tag k="name" v="Søravatnet" />
		<tag k="natural" v="water" />
		<tag k="ssr:stedsnr" v="122676" />
		<tag k="water" v="lake" />
	</node>
	<node id="-392926" lat="58.8511111116" lon="5.79200278376">
		<tag k="name" v="Grunningen" />
		<tag k="natural" v="water" />
		<tag k="ssr:stedsnr" v="546966" />
	</node>
	<node id="-392229" lat="58.8688055589" lon="5.85438333278">
		<tag k="name" v="Litlevågen" />
		<tag k="natural" v="bay" />
		<tag k="ssr:stedsnr" v="23255" />
	</node>
	<node id="-393594" lat="58.8757638924" lon="5.86094722279">
		<tag k="name" v="Forenessunda" />
		<tag k="natural" v="strait" />
		<tag k="ssr:stedsnr" v="933205" />
	</node>
	<node id="-392919" lat="58.939052782" lon="5.91246110289">
		<tag k="alt_name" v="nordre Grimstjørn" />
		<tag k="name" v="Grimstjørna" />
		<tag k="natural" v="water" />
		<tag k="ssr:stedsnr" v="546660" />
	</node>
	<node id="-392918" lat="58.9366833318" lon="5.9108999993">
		<tag k="name" v="Ommålstjørna" />
		<tag k="natural" v="water" />
		<tag k="ssr:stedsnr" v="546658" />
	</node>
	<node id="-392917" lat="58.8924611157" lon="5.92320556289">
		<tag k="name" v="Klubben" />
		<tag k="natural" v="cape" />
		<tag k="ssr:stedsnr" v="546614" />
	</node>
	<node id="-392915" lat="58.8648249967" lon="5.97221943617">
		<tag k="name" v="Tengesdalsvatnet" />
		<tag k="natural" v="water" />
		<tag k="ssr:stedsnr" v="546525" />
		<tag k="water" v="lake" />
	</node>
	<node id="-392398" lat="58.8605972219" lon="6.04276388736">
		<tag k="name" v="Steintjørna" />
		<tag k="natural" v="water" />
		<tag k="ssr:stedsnr" v="120844" />
	</node>
	<node id="-393414" lat="58.8219388875" lon="5.96597500735">
		<tag k="name" v="Nonsvaretjørn" />
		<tag k="natural" v="water" />
		<tag k="ssr:stedsnr" v="812888" />
	</node>
	<node id="-393411" lat="58.8680638871" lon="5.87510833918">
		<tag k="name" v="Kvednavika" />
		<tag k="natural" v="bay" />
		<tag k="ssr:stedsnr" v="811200" />
	</node>
	<node id="-393410" lat="58.8719999992" lon="5.85589166901">
		<tag k="name" v="Storevågen" />
		<tag k="natural" v="bay" />
		<tag k="ssr:stedsnr" v="811196" />
	</node>
	<node id="-392384" lat="58.8930222188" lon="6.04725278084">
		<tag k="name" v="Nodaberget" />
		<tag k="natural" v="cape" />
		<tag k="ssr:stedsnr" v="101131" />
	</node>
	<node id="-393407" lat="58.882019442" lon="5.9159000081">
		<tag k="name" v="Joaskjera" />
		<tag k="place" v="islet" />
		<tag k="ssr:stedsnr" v="811177" />
	</node>
	<node id="-393427" lat="58.8327083333" lon="5.61489166734">
		<tag k="name" v="Gulltangen" />
		<tag k="natural" v="cape" />
		<tag k="ssr:stedsnr" v="813202" />
	</node>
	<node id="-392890" lat="58.8329361156" lon="5.95788333871">
		<tag k="name" v="Varmekråtjørna" />
		<tag k="natural" v="water" />
		<tag k="ssr:stedsnr" v="509876" />
	</node>
	<node id="-392889" lat="58.8481333341" lon="5.98600554723">
		<tag k="name" v="Podlane" />
		<tag k="natural" v="water" />
		<tag k="ssr:stedsnr" v="509855" />
		<tag k="water" v="pond" />
	</node>
	<node id="-392373" lat="58.8580194464" lon="5.72813056169">
		<tag k="name" v="Gisketjørn" />
		<tag k="natural" v="water" />
		<tag k="ssr:stedsnr" v="85605" />
	</node>
	<node id="-392372" lat="58.8020944476" lon="5.76653888404">
		<tag k="name" v="Skrudstjørna" />
		<tag k="natural" v="water" />
		<tag k="ssr:stedsnr" v="85551" />
	</node>
	<node id="-392881" lat="58.8324055534" lon="5.74064443796">
		<tag k="name" v="Høylandsåna" />
		<tag k="ssr:stedsnr" v="509608" />
		<tag k="waterway" v="river" />
	</node>
	<node id="-392363" lat="58.8191083295" lon="5.96175000607">
		<tag k="name" v="Stokkomtjørna" />
		<tag k="natural" v="water" />
		<tag k="ssr:stedsnr" v="84940" />
	</node>
	<node id="-393384" lat="58.8858805569" lon="5.91406111719">
		<tag k="name" v="Lamholmen" />
		<tag k="place" v="islet" />
		<tag k="ssr:stedsnr" v="790707" />
	</node>
	<node id="-392359" lat="58.8367472217" lon="5.96090277393">
		<tag k="name" v="Djupatjørna" />
		<tag k="natural" v="water" />
		<tag k="ssr:stedsnr" v="84906" />
	</node>
	<node id="-393381" lat="58.8332611099" lon="5.98094721588">
		<tag k="name" v="Seldalsvatnet" />
		<tag k="natural" v="water" />
		<tag k="ssr:stedsnr" v="790647" />
		<tag k="water" v="lake" />
	</node>
	<node id="-392868" lat="58.861219443" lon="5.84884722138">
		<tag k="name" v="Naudaneset" />
		<tag k="natural" v="cape" />
		<tag k="ssr:stedsnr" v="509034" />
	</node>
	<node id="-393378" lat="58.9435745023" lon="5.82439665428">
		<tag k="alt_name" v="Kvernavatn;Kvednavatnet" />
		<tag k="name" v="Kvernavatnet" />
		<tag k="natural" v="water" />
		<tag k="ssr:stedsnr" v="790043" />
	</node>
	<node id="-392863" lat="58.8756444402" lon="5.88405277275">
		<tag k="name" v="Fatliholmen" />
		<tag k="place" v="islet" />
		<tag k="ssr:stedsnr" v="508200" />
	</node>
	<node id="-392861" lat="58.8923833356" lon="5.92506389244">
		<tag k="name" v="Ytra Sundet" />
		<tag k="natural" v="strait" />
		<tag k="ssr:stedsnr" v="508188" />
	</node>
	<node id="-393372" lat="58.851507734" lon="5.83842773963">
		<tag k="alt_name" v="Kydlesvatnet" />
		<tag k="name" v="Kyllesvatnet" />
		<tag k="natural" v="water" />
		<tag k="ssr:stedsnr" v="789907" />
		<tag k="water" v="lake" />
	</node>
	<node id="-392857" lat="58.8724083301" lon="5.91293055987">
		<tag k="name" v="Farmestangen" />
		<tag k="natural" v="cape" />
		<tag k="ssr:stedsnr" v="508150" />
	</node>
	<node id="-392344" lat="58.8441611124" lon="5.88943889739">
		<tag k="name" v="Fossen" />
		<tag k="ssr:stedsnr" v="84056" />
		<tag k="waterway" v="stream" />
	</node>
	<node id="-392855" lat="58.9248888849" lon="5.85243610327">
		<tag k="name" v="Stemmen" />
		<tag k="ssr:stedsnr" v="508138" />
		<tag k="waterway" v="dam" />
	</node>
	<node id="-392342" lat="58.8132972216" lon="5.92468888996">
		<tag k="name" v="Pyttatjørn" />
		<tag k="natural" v="water" />
		<tag k="ssr:stedsnr" v="84002" />
	</node>
	<node id="-392853" lat="58.9276805532" lon="5.91258889026">
		<tag k="loc_name" v="Mørkvetjørna" />
		<tag k="name" v="Mørkvetjørn" />
		<tag k="natural" v="water" />
		<tag k="ssr:stedsnr" v="508125" />
	</node>
	<node id="-393361" lat="58.8673083367" lon="6.06418611786">
		<tag k="name" v="Ragsheitjørna" />
		<tag k="natural" v="water" />
		<tag k="ssr:stedsnr" v="789571" />
	</node>
	<node id="-393360" lat="58.8593027794" lon="6.05120833976">
		<tag k="alt_name" v="Aurelitjørn" />
		<tag k="name" v="Auratjørna" />
		<tag k="natural" v="water" />
		<tag k="ssr:stedsnr" v="789570" />
	</node>
	<node id="-392326" lat="58.866505558" lon="5.88191111728">
		<tag k="name" v="Håvarsbekk" />
		<tag k="ssr:stedsnr" v="83203" />
		<tag k="waterway" v="stream" />
	</node>
	<node id="-392325" lat="58.8703888872" lon="5.84155000438">
		<tag k="name" v="Breiholmen" />
		<tag k="place" v="islet" />
		<tag k="ssr:stedsnr" v="83201" />
	</node>
	<node id="-392324" lat="58.871913889" lon="5.85179722622">
		<tag k="name" v="Litle klubben" />
		<tag k="natural" v="cape" />
		<tag k="ssr:stedsnr" v="83200" />
	</node>
	<node id="-392323" lat="58.8730944482" lon="5.83949166409">
		<tag k="name" v="Langholmen" />
		<tag k="place" v="islet" />
		<tag k="ssr:stedsnr" v="83195" />
	</node>
	<node id="-393408" lat="58.8921472228" lon="5.91362777572">
		<tag k="name" v="Vika" />
		<tag k="natural" v="bay" />
		<tag k="ssr:stedsnr" v="811182" />
	</node>
	<node id="-392829" lat="58.9015416629" lon="5.93518610988">
		<tag k="alt_name" v="Horvetjørn;Horvevatn" />
		<tag k="name" v="Horvetjørna" />
		<tag k="natural" v="water" />
		<tag k="ssr:stedsnr" v="486657" />
	</node>
	<node id="-392314" lat="58.8810749989" lon="5.89581667322">
		<tag k="name" v="Skjelet" />
		<tag k="natural" v="water" />
		<tag k="ssr:stedsnr" v="83153" />
	</node>
	<node id="-393493" lat="58.9233916664" lon="5.88791111267">
		<tag k="alt_name" v="Iglatjørn" />
		<tag k="name" v="Iglatjørna" />
		<tag k="natural" v="water" />
		<tag k="ssr:stedsnr" v="851712" />
	</node>
	<node id="-392824" lat="58.8140511151" lon="5.94160980387">
		<tag k="name" v="Fossvatnet" />
		<tag k="natural" v="water" />
		<tag k="ssr:stedsnr" v="486527" />
		<tag k="water" v="lake" />
	</node>
	<node id="-392822" lat="58.877175004" lon="5.9097555577">
		<tag k="name" v="Storavatnet" />
		<tag k="natural" v="water" />
		<tag k="ssr:stedsnr" v="486229" />
		<tag k="water" v="lake" />
	</node>
	<node id="-392309" lat="58.9536166631" lon="5.88991111675">
		<tag k="alt_name" v="Holmatjørn" />
		<tag k="name" v="Holmatjørna" />
		<tag k="natural" v="water" />
		<tag k="ssr:stedsnr" v="62808" />
	</node>
	<node id="-392307" lat="58.9150333373" lon="5.94524722036">
		<tag k="name" v="Fløysviktjørna" />
		<tag k="natural" v="water" />
		<tag k="ssr:stedsnr" v="62747" />
	</node>
	<node id="-392817" lat="58.8810444416" lon="6.03475278144">
		<tag k="name" v="Komletjørna" />
		<tag k="natural" v="water" />
		<tag k="ssr:stedsnr" v="484114" />
	</node>
	<node id="-393327" lat="58.8021722231" lon="5.71200833306">
		<tag k="name" v="Lona" />
		<tag k="place" v="locality" />
		<tag k="ssr:stedsnr" v="752742" />
	</node>
	<node id="-392302" lat="58.8981194414" lon="5.85471388899">
		<tag k="name" v="Merlandstjørna" />
		<tag k="natural" v="water" />
		<tag k="ssr:stedsnr" v="62653" />
	</node>
	<node id="-393325" lat="58.8356250011" lon="5.81117223028">
		<tag k="name" v="Gråbeinsbekken" />
		<tag k="ssr:stedsnr" v="752673" />
		<tag k="waterway" v="stream" />
	</node>
	<node id="-392300" lat="58.9072082792" lon="5.94941701532">
		<tag k="alt_name" v="Eigelivatnet" />
		<tag k="name" v="Eikelivatnet" />
		<tag k="natural" v="water" />
		<tag k="ssr:stedsnr" v="62640" />
		<tag k="water" v="lake" />
	</node>
	<node id="-391954" lat="58.8871944436" lon="5.8187527774">
		<tag k="name" v="Fjogstadvatnet" />
		<tag k="natural" v="water" />
		<tag k="ssr:stedsnr" v="304946" />
		<tag k="water" v="lake" />
	</node>
	<node id="-392298" lat="58.8121861097" lon="5.91469722207">
		<tag k="alt_name" v="Lomstjørna" />
		<tag k="name" v="Lomtjørna" />
		<tag k="natural" v="water" />
		<tag k="ssr:stedsnr" v="62513" />
	</node>
	<node id="-393489" lat="58.9530406991" lon="5.82224312195">
		<tag k="alt_name" v="Torvikvatnet" />
		<tag k="loc_name" v="Torvvikvatnet" />
		<tag k="name" v="Torvvikvatn" />
		<tag k="natural" v="water" />
		<tag k="ssr:stedsnr" v="851044" />
	</node>
	<node id="-392287" lat="58.9304722188" lon="5.94221111736">
		<tag k="alt_name" v="Bersagelstemmen" />
		<tag k="name" v="Storestemmen" />
		<tag k="natural" v="water" />
		<tag k="ssr:stedsnr" v="61698" />
	</node>
	<node id="-393310" lat="58.8020916655" lon="5.80184721737">
		<tag k="name" v="Djupedalsbekken" />
		<tag k="ssr:stedsnr" v="752195" />
		<tag k="waterway" v="stream" />
	</node>
	<node id="-393317" lat="58.7986638876" lon="5.73345833315">
		<tag k="name" v="Eikelandshølen" />
		<tag k="place" v="locality" />
		<tag k="ssr:stedsnr" v="752597" />
	</node>
	<node id="-392791" lat="58.8250361074" lon="5.80975278418">
		<tag k="name" v="Grasmyrbekken" />
		<tag k="ssr:stedsnr" v="449684" />
		<tag k="waterway" v="stream" />
	</node>
	<node id="-393401" lat="58.9297000016" lon="5.92302222905">
		<tag k="name" v="Kolatjørna" />
		<tag k="natural" v="water" />
		<tag k="ssr:stedsnr" v="811130" />
	</node>
	<node id="-393300" lat="58.8414805518" lon="5.97084166795">
		<tag k="name" v="Leidebekken" />
		<tag k="ssr:stedsnr" v="751931" />
		<tag k="waterway" v="stream" />
	</node>
	<node id="-393297" lat="58.8203277753" lon="5.97169444641">
		<tag k="name" v="Stemtjørn" />
		<tag k="natural" v="water" />
		<tag k="ssr:stedsnr" v="751891" />
	</node>
	<node id="-392272" lat="58.8664472206" lon="6.06053332711">
		<tag k="name" v="Steintjørna" />
		<tag k="natural" v="water" />
		<tag k="ssr:stedsnr" v="59157" />
	</node>
	<node id="-392271" lat="58.8727305557" lon="6.04950278238">
		<tag k="name" v="Hatlebergtjørna" />
		<tag k="natural" v="water" />
		<tag k="ssr:stedsnr" v="59119" />
	</node>
	<node id="-393293" lat="58.8822749998" lon="5.89993056139">
		<tag k="name" v="Rennarsundet" />
		<tag k="natural" v="strait" />
		<tag k="ssr:stedsnr" v="751196" />
	</node>
	<node id="-393290" lat="58.8802555601" lon="5.90297778438">
		<tag k="name" v="Kjeringå" />
		<tag k="place" v="islet" />
		<tag k="ssr:stedsnr" v="751168" />
	</node>
	<node id="-392204" lat="58.8092222262" lon="5.9084777776">
		<tag k="name" v="Midtjørna" />
		<tag k="natural" v="water" />
		<tag k="ssr:stedsnr" v="23009" />
	</node>
	<node id="-393286" lat="58.9349032855" lon="5.86291939239">
		<tag k="name" v="Vassbakktjørnene" />
		<tag k="natural" v="water" />
		<tag k="ssr:stedsnr" v="751132" />
		<tag k="water" v="lake" />
	</node>
	<node id="-392772" lat="58.8203722183" lon="5.91397499172">
		<tag k="name" v="Svia" />
		<tag k="ssr:stedsnr" v="448978" />
		<tag k="waterway" v="river" />
	</node>
	<node id="-393283" lat="58.8785277785" lon="5.95585834192">
		<tag k="name" v="Rankebergtjørn" />
		<tag k="natural" v="water" />
		<tag k="ssr:stedsnr" v="751080" />
		<tag k="water" v="lake" />
	</node>
	<node id="-393491" lat="58.8803694449" lon="5.86301110568">
		<tag k="alt_name" v="Bergurstjørna" />
		<tag k="loc_name" v="Bergurtjørna" />
		<tag k="name" v="Bergurdtjørna" />
		<tag k="natural" v="water" />
		<tag k="ssr:stedsnr" v="851658" />
	</node>
	<node id="-392764" lat="58.8588500034" lon="5.92110555464">
		<tag k="name" v="Tjørrå" />
		<tag k="ssr:stedsnr" v="448066" />
		<tag k="waterway" v="stream" />
	</node>
	<node id="-392763" lat="58.8246166698" lon="5.84743333262">
		<tag k="name" v="Svilandsfossen" />
		<tag k="natural" v="waterfall" />
		<tag k="ssr:stedsnr" v="448058" />
	</node>
	<node id="-392826" lat="58.8368111148" lon="5.90514721918">
		<tag k="alt_name" v="Svanitjørn" />
		<tag k="name" v="Svanetjørna" />
		<tag k="natural" v="water" />
		<tag k="ssr:stedsnr" v="486612" />
	</node>
	<node id="-392761" lat="58.7922527782" lon="5.86750000326">
		<tag k="name" v="Tangane" />
		<tag k="natural" v="cape" />
		<tag k="ssr:stedsnr" v="448043" />
	</node>
	<node id="-392758" lat="58.8658472228" lon="5.84131389183">
		<tag k="name" v="Lammaneset" />
		<tag k="natural" v="cape" />
		<tag k="ssr:stedsnr" v="447191" />
	</node>
	<node id="-393566" lat="58.8157666697" lon="5.87793056305">
		<tag k="name" v="Skiftesbekken" />
		<tag k="ssr:stedsnr" v="911507" />
		<tag k="waterway" v="stream" />
	</node>
	<node id="-392754" lat="58.8737972245" lon="5.91795833726">
		<tag k="name" v="Litleholmen" />
		<tag k="place" v="islet" />
		<tag k="ssr:stedsnr" v="447151" />
	</node>
	<node id="-392751" lat="58.880402782" lon="5.89984166018">
		<tag k="name" v="Ytra Longaneset" />
		<tag k="natural" v="cape" />
		<tag k="ssr:stedsnr" v="447137" />
	</node>
	<node id="-393661" lat="58.9122444426" lon="6.0081388958">
		<tag k="name" v="Stiatjørn" />
		<tag k="natural" v="water" />
		<tag k="ssr:stedsnr" v="950904" />
	</node>
	<node id="-393259" lat="58.9187166983" lon="5.87386492823">
		<tag k="name" v="Kvitlåna" />
		<tag k="ssr:stedsnr" v="729740" />
		<tag k="waterway" v="stream" />
	</node>
	<node id="-392741" lat="58.893163893" lon="5.94693888376">
		<tag k="name" v="Liaholmen" />
		<tag k="place" v="islet" />
		<tag k="ssr:stedsnr" v="447068" />
	</node>
	<node id="-393248" lat="58.8526527784" lon="5.96741667185">
		<tag k="alt_name" v="nordra Tjørna" />
		<tag k="name" v="Stølstjørna" />
		<tag k="natural" v="water" />
		<tag k="ssr:stedsnr" v="729594" />
	</node>
	<node id="-393245" lat="58.8592749998" lon="5.84690555743">
		<tag k="name" v="Floen" />
		<tag k="natural" v="water" />
		<tag k="ssr:stedsnr" v="729571" />
		<tag k="water" v="lake" />
	</node>
	<node id="-392220" lat="58.9390666703" lon="5.85725000737">
		<tag k="name" v="Sorpetjørna" />
		<tag k="natural" v="water" />
		<tag k="ssr:stedsnr" v="23158" />
	</node>
	<node id="-392729" lat="58.9323299437" lon="5.86730186655">
		<tag k="name" v="Hetlandsvatnet" />
		<tag k="natural" v="water" />
		<tag k="ssr:stedsnr" v="426700" />
		<tag k="water" v="lake" />
	</node>
	<node id="-392728" lat="58.8751833353" lon="5.88764722709">
		<tag k="name" v="Forenesvatnet" />
		<tag k="natural" v="water" />
		<tag k="ssr:stedsnr" v="426672" />
		<tag k="water" v="lake" />
	</node>
	<node id="-392727" lat="58.8886500037" lon="5.87601667045">
		<tag k="alt_name" v="Lomstjørn" />
		<tag k="name" v="Lomstjørna" />
		<tag k="natural" v="water" />
		<tag k="ssr:stedsnr" v="426670" />
	</node>
	<node id="-392726" lat="58.8825749979" lon="5.87673056157">
		<tag k="alt_name" v="Sloglongstjørna" />
		<tag k="name" v="Sloklongstjørna" />
		<tag k="natural" v="water" />
		<tag k="ssr:stedsnr" v="426668" />
	</node>
	<node id="-392725" lat="58.8832500017" lon="5.8561333248">
		<tag k="name" v="Hogstadholmen" />
		<tag k="place" v="islet" />
		<tag k="ssr:stedsnr" v="426666" />
	</node>
	<node id="-392212" lat="58.899497222" lon="5.95204723028">
		<tag k="name" v="Imsa" />
		<tag k="ssr:stedsnr" v="23085" />
		<tag k="waterway" v="river" />
	</node>
	<node id="-392209" lat="58.8514777814" lon="5.94053610469">
		<tag k="name" v="Steintjørna" />
		<tag k="natural" v="water" />
		<tag k="ssr:stedsnr" v="23063" />
	</node>
	<node id="-392720" lat="58.953871574" lon="5.82570310205">
		<tag k="alt_name" v="Ålkjervatn" />
		<tag k="name" v="Ålkjervatnet" />
		<tag k="natural" v="water" />
		<tag k="ssr:stedsnr" v="426041" />
	</node>
	<node id="-392719" lat="58.9103861624" lon="5.80210256886">
		<tag k="alt_name" v="Dalevatn" />
		<tag k="name" v="Dalevatnet" />
		<tag k="natural" v="water" />
		<tag k="ssr:stedsnr" v="425964" />
		<tag k="water" v="lake" />
	</node>
	<node id="-392716" lat="58.8644166658" lon="5.84966667351">
		<tag k="alt_name" v="Naudaneset" />
		<tag k="name" v="Nautaneset" />
		<tag k="natural" v="cape" />
		<tag k="ssr:stedsnr" v="425679" />
	</node>
	<node id="-393029" lat="58.8963555578" lon="5.87852777123">
		<tag k="alt_name" v="Grindavatnet" />
		<tag k="name" v="Grinavatnet" />
		<tag k="natural" v="water" />
		<tag k="ssr:stedsnr" v="607652" />
		<tag k="water" v="lake" />
	</node>
	<node id="-392707" lat="58.8723166671" lon="6.06808611732">
		<tag k="name" v="Svartopstjørna" />
		<tag k="natural" v="water" />
		<tag k="ssr:stedsnr" v="423181" />
	</node>
	<node id="-392194" lat="58.9145944415" lon="5.9045666668">
		<tag k="alt_name" v="Mågatjørn" />
		<tag k="name" v="Måkatjørna" />
		<tag k="natural" v="water" />
		<tag k="ssr:stedsnr" v="1750" />
	</node>
</osm>
