<?xml version="1.0" encoding="UTF-8"?>
<osm generator="osmapis" version="0.6">
	<node id="-393211" lat="58.8296626807" lon="5.97284475229">
		<tag k="fixme" v="consider place=hamlet" />
		<tag k="name" v="Røynli" />
		<tag k="place" v="farm" />
		<tag k="ssr:stedsnr" v="426610" />
	</node>
	<node id="-393205" lat="58.8674324515" lon="5.86152804253">
		<tag k="fixme" v="consider place=hamlet" />
		<tag k="name" v="Furenes" />
		<tag k="place" v="farm" />
		<tag k="ssr:stedsnr" v="425683" />
	</node>
	<node id="-393202" lat="58.8933499996" lon="6.03506110432">
		<tag k="name" v="Trodal" />
		<tag k="place" v="farm" />
		<tag k="ssr:stedsnr" v="425632" />
	</node>
	<node id="-393193" lat="58.9208972225" lon="5.96695000295">
		<tag k="fixme" v="consider tourism=alpine_hut or tourism=chalet" />
		<tag k="name" v="Nodhagen" />
		<tag k="ssr:stedsnr" v="480017" />
		<tag k="tourism" v="wilderness_hut" />
	</node>
	<node id="-393185" lat="58.8632750001" lon="5.72629721523">
		<tag k="fixme" v="consider place=suburb, village or hamlet" />
		<tag k="name" v="Smeaheia" />
		<tag k="place" v="quarter" />
		<tag k="ssr:stedsnr" v="266685" />
	</node>
	<node id="-393180" lat="58.8638722219" lon="5.71793055424">
		<tag k="name" v="Maurholen" />
		<tag k="place" v="farm" />
		<tag k="ssr:stedsnr" v="266336" />
	</node>
	<node id="-393178" lat="58.8194583343" lon="5.64816111566">
		<tag k="name" v="Auglend" />
		<tag k="place" v="farm" />
		<tag k="ssr:stedsnr" v="266298" />
	</node>
	<node id="-393177" lat="58.8855777811" lon="5.71148888328">
		<tag k="name" v="Erdal" />
		<tag k="place" v="farm" />
		<tag k="ssr:stedsnr" v="266276" />
	</node>
	<node id="-393171" lat="58.8247444414" lon="5.83484722959">
		<tag k="loc_name" v="Sygnaheia" />
		<tag k="name" v="Syngaheia" />
		<tag k="place" v="farm" />
		<tag k="ssr:stedsnr" v="266057" />
	</node>
	<node id="-393159" lat="58.9077249989" lon="5.85140278201">
		<tag k="name" v="Holå" />
		<tag k="place" v="farm" />
		<tag k="ssr:stedsnr" v="265152" />
	</node>
	<node id="-393143" lat="58.8725722181" lon="5.73989445167">
		<tag k="fixme" v="consider place=suburb, village or hamlet" />
		<tag k="name" v="Lura" />
		<tag k="place" v="quarter" />
		<tag k="ssr:stedsnr" v="244997" />
	</node>
	<node id="-393141" lat="58.8799166677" lon="5.77436943783">
		<tag k="fixme" v="consider place=hamlet" />
		<tag k="name" v="Stronda" />
		<tag k="place" v="village" />
		<tag k="ssr:stedsnr" v="244949" />
	</node>
	<node id="-393140" lat="58.879958337" lon="5.70670833512">
		<tag k="alt_name" v="Stokka" />
		<tag k="name" v="Stokkaheia" />
		<tag k="place" v="farm" />
		<tag k="ssr:stedsnr" v="244947" />
	</node>
	<node id="-393131" lat="58.8450444463" lon="5.70858055094">
		<tag k="name" v="Skeiane" />
		<tag k="place" v="farm" />
		<tag k="ssr:stedsnr" v="269098" />
	</node>
	<node id="-393130" lat="58.850409135" lon="5.82561780682">
		<tag k="fixme" v="consider place=hamlet" />
		<tag k="name" v="Kylles" />
		<tag k="place" v="farm" />
		<tag k="ssr:stedsnr" v="243894" />
	</node>
	<node id="-393129" lat="58.8368305571" lon="5.83166388293">
		<tag k="name" v="Foren" />
		<tag k="place" v="farm" />
		<tag k="ssr:stedsnr" v="243884" />
	</node>
	<node id="-393126" lat="58.9475261968" lon="5.8957847238">
		<tag k="fixme" v="consider place=hamlet" />
		<tag k="name" v="Eltarvåg" />
		<tag k="place" v="farm" />
		<tag k="ssr:stedsnr" v="243786" />
	</node>
	<node id="-393122" lat="58.8706426515" lon="5.95823511687">
		<tag k="fixme" v="consider place=hamlet" />
		<tag k="name" v="Veraland" />
		<tag k="place" v="farm" />
		<tag k="ssr:stedsnr" v="243580" />
	</node>
	<node id="-393108" lat="58.8612027743" lon="5.72571388277">
		<tag k="leisure" v="pitch" />
		<tag k="name" v="Idrettsplass" />
		<tag k="ssr:stedsnr" v="221320" />
	</node>
	<node id="-393107" lat="58.9164212708" lon="5.9991279206">
		<tag k="fixme" v="consider place=hamlet" />
		<tag k="name" v="Husabø" />
		<tag k="place" v="farm" />
		<tag k="ssr:stedsnr" v="208191" />
	</node>
	<node id="-393106" lat="58.8467027779" lon="5.7244472208">
		<tag k="name" v="Skeiane" />
		<tag k="place" v="farm" />
		<tag k="ssr:stedsnr" v="208086" />
	</node>
	<node id="-393105" lat="58.8468305596" lon="5.7324138814">
		<tag k="name" v="Skeiane" />
		<tag k="place" v="farm" />
		<tag k="ssr:stedsnr" v="208083" />
	</node>
	<node id="-393104" lat="58.8483000034" lon="5.73806666786">
		<tag k="name" v="Skeiane" />
		<tag k="place" v="farm" />
		<tag k="ssr:stedsnr" v="208037" />
	</node>
	<node id="-393103" lat="58.8443805592" lon="5.70881110342">
		<tag k="name" v="Skeiane" />
		<tag k="place" v="farm" />
		<tag k="ssr:stedsnr" v="208038" />
	</node>
	<node id="-393100" lat="58.8620638864" lon="5.69869722431">
		<tag k="name" v="Soma kom. gard" />
		<tag k="place" v="farm" />
		<tag k="ssr:stedsnr" v="206284" />
	</node>
	<node id="-393098" lat="58.8476694479" lon="5.68895833094">
		<tag k="name" v="Danseholen" />
		<tag k="place" v="farm" />
		<tag k="ssr:stedsnr" v="206281" />
	</node>
	<node id="-393097" lat="58.8474555546" lon="5.64798055151">
		<tag k="name" v="Auglend" />
		<tag k="place" v="farm" />
		<tag k="ssr:stedsnr" v="206269" />
	</node>
	<node id="-393096" lat="58.8495499999" lon="5.65263610341">
		<tag k="name" v="Melkeholen" />
		<tag k="place" v="farm" />
		<tag k="ssr:stedsnr" v="206267" />
	</node>
	<node id="-393094" lat="58.8275750041" lon="5.64638333576">
		<tag k="name" v="Håland" />
		<tag k="place" v="farm" />
		<tag k="ssr:stedsnr" v="206232" />
	</node>
	<node id="-393092" lat="58.8218805592" lon="5.6544194483">
		<tag k="name" v="Lunden" />
		<tag k="place" v="farm" />
		<tag k="ssr:stedsnr" v="206227" />
	</node>
	<node id="-393090" lat="58.8905722187" lon="5.78308055998">
		<tag k="name" v="Lundane" />
		<tag k="place" v="locality" />
		<tag k="ssr:stedsnr" v="206205" />
	</node>
	<node id="-393087" lat="58.8767305563" lon="5.73160000799">
		<tag k="fixme" v="consider place=suburb, village or hamlet" />
		<tag k="name" v="Svingholen" />
		<tag k="place" v="quarter" />
		<tag k="ssr:stedsnr" v="206664" />
	</node>
	<node id="-393084" lat="58.8554388863" lon="5.78298888686">
		<tag k="name" v="Trødnes" />
		<tag k="place" v="farm" />
		<tag k="ssr:stedsnr" v="206627" />
	</node>
	<node id="-393083" lat="58.8196166631" lon="5.73629166368">
		<tag k="name" v="Holane" />
		<tag k="place" v="farm" />
		<tag k="ssr:stedsnr" v="206616" />
	</node>
	<node id="-393078" lat="58.8399388867" lon="5.866011109">
		<tag k="name" v="Heiå" />
		<tag k="place" v="farm" />
		<tag k="ssr:stedsnr" v="205992" />
	</node>
	<node id="-393044" lat="58.8704194466" lon="5.67147500227">
		<tag k="landuse" v="military" />
		<tag k="name" v="Somaleiren" />
		<tag k="ssr:stedsnr" v="183994" />
	</node>
	<node id="-393043" lat="58.8703055563" lon="5.76821666944">
		<tag k="name" v="Sandvika" />
		<tag k="old_name" v="Sandvik" />
		<tag k="place" v="farm" />
		<tag k="ssr:stedsnr" v="183991" />
	</node>
	<node id="-393042" lat="58.8113595567" lon="5.72226606062">
		<tag k="fixme" v="consider place=hamlet" />
		<tag k="name" v="Vagle" />
		<tag k="place" v="farm" />
		<tag k="ssr:stedsnr" v="183927" />
	</node>
	<node id="-393041" lat="58.8071792644" lon="5.68812652248">
		<tag k="alt_name" v="Skjeveland" />
		<tag k="fixme" v="consider place=hamlet" />
		<tag k="name" v="Skjæveland" />
		<tag k="place" v="farm" />
		<tag k="ssr:stedsnr" v="183920" />
	</node>
	<node id="-393040" lat="58.8360083301" lon="5.68724999485">
		<tag k="alt_name" v="Todneim" />
		<tag k="name" v="Todnheim" />
		<tag k="place" v="farm" />
		<tag k="ssr:stedsnr" v="183903" />
	</node>
	<node id="-393039" lat="58.83227384" lon="5.73155013192">
		<tag k="fixme" v="consider place=hamlet" />
		<tag k="name" v="Hove" />
		<tag k="place" v="farm" />
		<tag k="ssr:stedsnr" v="183889" />
	</node>
	<node id="-393038" lat="58.8281046947" lon="5.71106281013">
		<tag k="fixme" v="consider place=hamlet" />
		<tag k="name" v="Åse" />
		<tag k="place" v="farm" />
		<tag k="ssr:stedsnr" v="183885" />
	</node>
	<node id="-393037" lat="58.8206611074" lon="5.64549166459">
		<tag k="name" v="Lea" />
		<tag k="place" v="farm" />
		<tag k="ssr:stedsnr" v="183883" />
	</node>
	<node id="-393036" lat="58.9094805894" lon="5.92061655762">
		<tag k="alt_name" v="Stora Auglend;Store Augeland;store Auglend" />
		<tag k="fixme" v="consider place=hamlet" />
		<tag k="name" v="Storauglend" />
		<tag k="place" v="farm" />
		<tag k="ssr:stedsnr" v="183747" />
	</node>
	<node id="-393027" lat="58.8382649534" lon="5.84831251762">
		<tag k="alt_name" v="Fossvatne" />
		<tag k="fixme" v="consider place=hamlet" />
		<tag k="name" v="Foss-Vatne" />
		<tag k="place" v="farm" />
		<tag k="ssr:stedsnr" v="183581" />
	</node>
	<node id="-393022" lat="58.8554995106" lon="5.68566283851">
		<tag k="fixme" v="consider place=hamlet" />
		<tag k="name" v="Austvoll" />
		<tag k="place" v="farm" />
		<tag k="ssr:stedsnr" v="182981" />
	</node>
	<node id="-393021" lat="58.9095787836" lon="5.82552496791">
		<tag k="fixme" v="consider place=hamlet" />
		<tag k="name" v="Jødestad" />
		<tag k="place" v="farm" />
		<tag k="ssr:stedsnr" v="182953" />
	</node>
	<node id="-393017" lat="58.892499998" lon="6.05610832704">
		<tag k="alt_name" v="Lauvviga;Lauvvik" />
		<tag k="name" v="Lauvvika" />
		<tag k="place" v="farm" />
		<tag k="ssr:stedsnr" v="182645" />
	</node>
	<node id="-393013" lat="58.8648277738" lon="6.00967499953">
		<tag k="alt_name" v="Kvervå" />
		<tag k="name" v="Kvervo" />
		<tag k="place" v="farm" />
		<tag k="ssr:stedsnr" v="182559" />
	</node>
	<node id="-393009" lat="58.8958833353" lon="6.04462778622">
		<tag k="name" v="Haugen" />
		<tag k="place" v="farm" />
		<tag k="ssr:stedsnr" v="180056" />
	</node>
	<node id="-392996" lat="58.90913611" lon="6.01403611639">
		<tag k="name" v="Klampen" />
		<tag k="place" v="locality" />
		<tag k="ssr:stedsnr" v="161906" />
	</node>
	<node id="-392992" lat="58.8801777796" lon="5.77115278477">
		<tag k="name" v="Sjølyst" />
		<tag k="place" v="isolated_dwelling" />
		<tag k="ssr:stedsnr" v="160413" />
	</node>
	<node id="-392991" lat="58.8178472256" lon="5.72642777259">
		<tag k="name" v="Stokkaland" />
		<tag k="place" v="farm" />
		<tag k="ssr:stedsnr" v="155269" />
	</node>
	<node id="-392989" lat="58.8444472239" lon="5.70927778288">
		<tag k="name" v="Skeiane" />
		<tag k="place" v="farm" />
		<tag k="ssr:stedsnr" v="147091" />
	</node>
	<node id="-392988" lat="58.8429111143" lon="5.76795833079">
		<tag k="name" v="Skaret" />
		<tag k="place" v="farm" />
		<tag k="ssr:stedsnr" v="147067" />
	</node>
	<node id="-392987" lat="58.8420944476" lon="5.70905833599">
		<tag k="name" v="Skeiane" />
		<tag k="place" v="farm" />
		<tag k="ssr:stedsnr" v="147037" />
	</node>
	<node id="-392984" lat="58.8191361145" lon="5.66738333845">
		<tag k="name" v="Småberg" />
		<tag k="place" v="farm" />
		<tag k="ssr:stedsnr" v="145801" />
	</node>
	<node id="-392983" lat="58.8394111106" lon="5.68507222581">
		<tag k="name" v="Trollsholen" />
		<tag k="place" v="farm" />
		<tag k="ssr:stedsnr" v="145788" />
	</node>
	<node id="-392979" lat="58.8724305563" lon="5.73395278553">
		<tag k="fixme" v="consider place=suburb, village or hamlet" />
		<tag k="name" v="Vodlageilen" />
		<tag k="old_name" v="Vollageilen" />
		<tag k="place" v="quarter" />
		<tag k="ssr:stedsnr" v="145672" />
	</node>
	<node id="-392976" lat="58.8499055525" lon="5.79985833124">
		<tag k="name" v="Ognavik" />
		<tag k="place" v="farm" />
		<tag k="ssr:stedsnr" v="145643" />
	</node>
	<node id="-392966" lat="58.9171555545" lon="5.81687777917">
		<tag k="name" v="Slettebø" />
		<tag k="place" v="farm" />
		<tag k="ssr:stedsnr" v="145048" />
	</node>
	<node id="-392953" lat="58.8997361124" lon="5.83958611639">
		<tag k="name" v="Nygård" />
		<tag k="place" v="farm" />
		<tag k="ssr:stedsnr" v="144218" />
	</node>
	<node id="-392933" lat="58.8629305537" lon="5.98009999934">
		<tag k="name" v="Stølen" />
		<tag k="place" v="farm" />
		<tag k="ssr:stedsnr" v="144082" />
	</node>
	<node id="-392924" lat="58.8493301478" lon="5.70660208291">
		<tag k="name" v="Stangaland" />
		<tag k="place" v="village" />
		<tag k="ssr:stedsnr" v="122978" />
	</node>
	<node id="-392922" lat="58.8670060612" lon="5.72080330755">
		<tag k="fixme" v="consider place=hamlet" />
		<tag k="name" v="Lura" />
		<tag k="place" v="farm" />
		<tag k="ssr:stedsnr" v="122925" />
	</node>
	<node id="-392921" lat="58.818930552" lon="5.7612222286">
		<tag k="name" v="Myra" />
		<tag k="place" v="farm" />
		<tag k="ssr:stedsnr" v="122911" />
	</node>
	<node id="-392920" lat="58.8302037882" lon="5.62227761297">
		<tag k="fixme" v="consider place=hamlet" />
		<tag k="name" v="Heigre" />
		<tag k="old_name" v="Hegre" />
		<tag k="place" v="farm" />
		<tag k="ssr:stedsnr" v="122882" />
	</node>
	<node id="-392919" lat="58.7866305582" lon="5.81547222191">
		<tag k="name" v="Figgjo" />
		<tag k="place" v="village" />
		<tag k="ssr:stedsnr" v="122813" />
	</node>
	<node id="-392916" lat="58.950387968" lon="5.92292646982">
		<tag k="alt_name" v="Skrubbatona" />
		<tag k="name" v="Ladervik" />
		<tag k="place" v="farm" />
		<tag k="ssr:stedsnr" v="122791" />
	</node>
	<node id="-392911" lat="58.9214611125" lon="5.90737778189">
		<tag k="alt_name" v="Lundekvammen" />
		<tag k="name" v="Lundekvam" />
		<tag k="place" v="locality" />
		<tag k="ssr:stedsnr" v="122722" />
	</node>
	<node id="-392910" lat="58.9210249975" lon="5.92915277107">
		<tag k="name" v="Kvelvane" />
		<tag k="place" v="farm" />
		<tag k="ssr:stedsnr" v="122716" />
	</node>
	<node id="-392909" lat="58.9184305578" lon="5.92275554712">
		<tag k="name" v="Svea" />
		<tag k="place" v="farm" />
		<tag k="ssr:stedsnr" v="122717" />
	</node>
	<node id="-392908" lat="58.9267083294" lon="5.92732221587">
		<tag k="name" v="Vårli" />
		<tag k="place" v="farm" />
		<tag k="ssr:stedsnr" v="122702" />
	</node>
	<node id="-392905" lat="58.8931000032" lon="5.85050000285">
		<tag k="name" v="Voll" />
		<tag k="place" v="farm" />
		<tag k="ssr:stedsnr" v="122644" />
	</node>
	<node id="-392903" lat="58.8364791882" lon="5.97358273959">
		<tag k="fixme" v="consider place=hamlet" />
		<tag k="name" v="Nordland" />
		<tag k="place" v="farm" />
		<tag k="ssr:stedsnr" v="122588" />
	</node>
	<node id="-392897" lat="58.8720777796" lon="6.00965555329">
		<tag k="name" v="Hølestøl" />
		<tag k="place" v="farm" />
		<tag k="ssr:stedsnr" v="122553" />
	</node>
	<node id="-392894" lat="58.9262194409" lon="5.81266667493">
		<tag k="name" v="Li" />
		<tag k="place" v="farm" />
		<tag k="ssr:stedsnr" v="122240" />
	</node>
	<node id="-392883" lat="58.863172219" lon="6.06584165975">
		<tag k="historic" v="shieling" />
		<tag k="name" v="Selvikstølen" />
		<tag k="place" v="locality" />
		<tag k="ssr:stedsnr" v="119176" />
	</node>
	<node id="-392872" lat="58.8508499964" lon="5.75312499652">
		<tag k="name" v="Høgevoll" />
		<tag k="place" v="isolated_dwelling" />
		<tag k="ssr:stedsnr" v="100438" />
	</node>
	<node id="-392871" lat="58.8650916697" lon="5.75836388509">
		<tag k="name" v="Granlund" />
		<tag k="place" v="isolated_dwelling" />
		<tag k="ssr:stedsnr" v="100418" />
	</node>
	<node id="-392870" lat="58.8561333363" lon="5.75776388">
		<tag k="leisure" v="pitch" />
		<tag k="name" v="Hana stadion" />
		<tag k="ssr:stedsnr" v="100414" />
	</node>
	<node id="-392867" lat="58.8427755099" lon="5.76755142342">
		<tag k="name" v="Skaret" />
		<tag k="place" v="farm" />
		<tag k="ssr:stedsnr" v="87116" />
	</node>
	<node id="-392866" lat="58.8430666623" lon="5.76885555446">
		<tag k="name" v="Skaret" />
		<tag k="place" v="farm" />
		<tag k="ssr:stedsnr" v="87068" />
	</node>
	<node id="-392858" lat="58.8893972226" lon="5.70241944936">
		<tag k="name" v="Svanholm" />
		<tag k="place" v="farm" />
		<tag k="ssr:stedsnr" v="85204" />
	</node>
	<node id="-392844" lat="58.8764722212" lon="5.73351944834">
		<tag k="fixme" v="consider place=suburb, village or hamlet" />
		<tag k="name" v="Staraberget" />
		<tag k="place" v="quarter" />
		<tag k="ssr:stedsnr" v="84699" />
	</node>
	<node id="-392843" lat="58.8542606623" lon="5.80507098042">
		<tag k="fixme" v="consider place=hamlet" />
		<tag k="name" v="Kyllevik" />
		<tag k="place" v="farm" />
		<tag k="ssr:stedsnr" v="84676" />
	</node>
	<node id="-392835" lat="58.8443388849" lon="5.83410555752">
		<tag k="name" v="Neset" />
		<tag k="place" v="farm" />
		<tag k="ssr:stedsnr" v="84061" />
	</node>
	<node id="-392802" lat="58.8666027798" lon="5.73063333428">
		<tag k="alt_name" v="Varatun" />
		<tag k="name" v="Vardatun" />
		<tag k="place" v="farm" />
		<tag k="ssr:stedsnr" v="62995" />
	</node>
	<node id="-392801" lat="58.8880760976" lon="5.81344978713">
		<tag k="fixme" v="consider place=hamlet" />
		<tag k="name" v="Fjogstad" />
		<tag k="place" v="farm" />
		<tag k="ssr:stedsnr" v="62946" />
	</node>
	<node id="-392800" lat="58.7996753571" lon="5.83184851686">
		<tag k="alt_name" v="Tjesseim" />
		<tag k="fixme" v="consider place=hamlet" />
		<tag k="name" v="Tjessheim" />
		<tag k="place" v="farm" />
		<tag k="ssr:stedsnr" v="62918" />
	</node>
	<node id="-392796" lat="58.9098555512" lon="5.92693333657">
		<tag k="name" v="Dalen" />
		<tag k="place" v="farm" />
		<tag k="ssr:stedsnr" v="62746" />
	</node>
	<node id="-392787" lat="58.8656694429" lon="5.7601722154">
		<tag k="alt_name" v="Asparholen" />
		<tag k="name" v="Asperholen" />
		<tag k="place" v="farm" />
		<tag k="ssr:stedsnr" v="61979" />
	</node>
	<node id="-392786" lat="58.8118166684" lon="5.76848334124">
		<tag k="name" v="Osli" />
		<tag k="place" v="farm" />
		<tag k="ssr:stedsnr" v="61929" />
	</node>
	<node id="-392785" lat="58.8230138921" lon="5.71723889549">
		<tag k="name" v="Ganddal" />
		<tag k="place" v="village" />
		<tag k="ssr:stedsnr" v="61930" />
	</node>
	<node id="-392784" lat="58.8331178492" lon="5.69654938206">
		<tag k="alt_name" v="Åsheim;Asseim" />
		<tag k="fixme" v="consider place=hamlet" />
		<tag k="name" v="Assheim" />
		<tag k="place" v="farm" />
		<tag k="ssr:stedsnr" v="61903" />
	</node>
	<node id="-392783" lat="58.8410269829" lon="5.76574029408">
		<tag k="fixme" v="consider place=hamlet" />
		<tag k="name" v="Skaret" />
		<tag k="place" v="farm" />
		<tag k="ssr:stedsnr" v="61892" />
	</node>
	<node id="-392781" lat="58.8298833366" lon="5.75862778377">
		<tag k="name" v="Vollen" />
		<tag k="place" v="farm" />
		<tag k="ssr:stedsnr" v="61879" />
	</node>
	<node id="-392780" lat="58.8277433686" lon="5.72524286917">
		<tag k="fixme" v="consider place=hamlet" />
		<tag k="name" v="Sørbø" />
		<tag k="place" v="farm" />
		<tag k="ssr:stedsnr" v="61878" />
	</node>
	<node id="-392779" lat="58.8296550692" lon="5.68409059296">
		<tag k="alt_name" v="Todneim" />
		<tag k="fixme" v="consider place=hamlet" />
		<tag k="name" v="Todnheim" />
		<tag k="place" v="farm" />
		<tag k="ssr:stedsnr" v="61876" />
	</node>
	<node id="-392778" lat="58.9488005712" lon="5.878367435">
		<tag k="name" v="Slåttebakk" />
		<tag k="place" v="farm" />
		<tag k="ssr:stedsnr" v="61779" />
	</node>
	<node id="-392774" lat="58.892191669" lon="5.94204443985">
		<tag k="alt_name" v="Imsalia" />
		<tag k="name" v="Lia" />
		<tag k="place" v="farm" />
		<tag k="ssr:stedsnr" v="61635" />
	</node>
	<node id="-392773" lat="58.8955722255" lon="6.00926666622">
		<tag k="fixme" v="consider place=hamlet" />
		<tag k="name" v="Høle" />
		<tag k="place" v="village" />
		<tag k="ssr:stedsnr" v="61621" />
	</node>
	<node id="-392768" lat="58.9018402713" lon="5.84382911852">
		<tag k="fixme" v="consider place=hamlet" />
		<tag k="name" v="Haugaland" />
		<tag k="place" v="farm" />
		<tag k="ssr:stedsnr" v="61222" />
	</node>
	<node id="-392765" lat="58.850572225" lon="6.00945832884">
		<tag k="name" v="Nordheim" />
		<tag k="place" v="farm" />
		<tag k="ssr:stedsnr" v="59838" />
	</node>
	<node id="-392751" lat="58.8815055537" lon="6.00944167272">
		<tag k="name" v="Stemmen" />
		<tag k="place" v="farm" />
		<tag k="ssr:stedsnr" v="40174" />
	</node>
	<node id="-392748" lat="58.8935416679" lon="6.00963334066">
		<tag k="name" v="Voll" />
		<tag k="place" v="farm" />
		<tag k="ssr:stedsnr" v="40109" />
	</node>
	<node id="-392744" lat="58.8387111079" lon="5.78493055394">
		<tag k="name" v="Skaret" />
		<tag k="place" v="farm" />
		<tag k="ssr:stedsnr" v="26153" />
	</node>
	<node id="-392743" lat="58.8427000022" lon="5.77033333692">
		<tag k="name" v="Skaret" />
		<tag k="place" v="farm" />
		<tag k="ssr:stedsnr" v="26144" />
	</node>
	<node id="-392742" lat="58.8428888915" lon="5.77026111935">
		<tag k="name" v="Skaret" />
		<tag k="place" v="farm" />
		<tag k="ssr:stedsnr" v="26142" />
	</node>
	<node id="-392741" lat="58.84271667" lon="5.76981111073">
		<tag k="name" v="Skaret" />
		<tag k="place" v="farm" />
		<tag k="ssr:stedsnr" v="26143" />
	</node>
	<node id="-392740" lat="58.8449166687" lon="5.72119166347">
		<tag k="name" v="Skeiane" />
		<tag k="place" v="farm" />
		<tag k="ssr:stedsnr" v="26099" />
	</node>
	<node id="-392739" lat="58.8477416622" lon="5.73069165843">
		<tag k="name" v="Skeiane" />
		<tag k="place" v="farm" />
		<tag k="ssr:stedsnr" v="26045" />
	</node>
	<node id="-392738" lat="58.8415027745" lon="5.70934166801">
		<tag k="name" v="Skeiane" />
		<tag k="place" v="farm" />
		<tag k="ssr:stedsnr" v="26042" />
	</node>
	<node id="-392737" lat="58.848172219" lon="5.73784167333">
		<tag k="name" v="Skeiane" />
		<tag k="place" v="farm" />
		<tag k="ssr:stedsnr" v="26038" />
	</node>
	<node id="-392736" lat="58.867302781" lon="5.86089722582">
		<tag k="name" v="Furenes" />
		<tag k="place" v="farm" />
		<tag k="ssr:stedsnr" v="27211" />
	</node>
	<node id="-392735" lat="58.8243583319" lon="5.66586110607">
		<tag k="name" v="Hedleholen" />
		<tag k="place" v="farm" />
		<tag k="ssr:stedsnr" v="24804" />
	</node>
	<node id="-392732" lat="58.8789833337" lon="5.73339999382">
		<tag k="name" v="Porsholen" />
		<tag k="place" v="farm" />
		<tag k="ssr:stedsnr" v="24686" />
	</node>
	<node id="-392731" lat="58.7852574294" lon="5.8063078838">
		<tag k="fixme" v="consider place=hamlet" />
		<tag k="name" v="Figved" />
		<tag k="place" v="farm" />
		<tag k="ssr:stedsnr" v="24665" />
	</node>
	<node id="-392730" lat="58.8403694412" lon="5.73952499529">
		<tag k="name" v="Tranegarden" />
		<tag k="place" v="farm" />
		<tag k="ssr:stedsnr" v="24637" />
	</node>
	<node id="-392729" lat="58.8190027769" lon="5.75991111885">
		<tag k="name" v="Bjønnbåsen" />
		<tag k="place" v="farm" />
		<tag k="ssr:stedsnr" v="24624" />
	</node>
	<node id="-392727" lat="58.8359777774" lon="5.6495833316">
		<tag k="name" v="Slåttå" />
		<tag k="place" v="farm" />
		<tag k="ssr:stedsnr" v="24223" />
	</node>
	<node id="-392715" lat="58.8930472192" lon="5.83947500889">
		<tag k="name" v="Langaland" />
		<tag k="place" v="farm" />
		<tag k="ssr:stedsnr" v="23243" />
	</node>
	<node id="-392693" lat="58.8134833309" lon="5.75708055696">
		<tag k="alt_name" v="Boggeland" />
		<tag k="name" v="Buggeland" />
		<tag k="place" v="farm" />
		<tag k="ssr:stedsnr" v="1933" />
	</node>
	<node id="-392692" lat="58.7966588243" lon="5.81307082729">
		<tag k="alt_name" v="Sauaheia" />
		<tag k="name" v="Fjellheim" />
		<tag k="place" v="farm" />
		<tag k="ssr:stedsnr" v="1908" />
	</node>
	<node id="-392691" lat="58.8254333327" lon="5.72108332837">
		<tag k="name" v="Lunde" />
		<tag k="place" v="farm" />
		<tag k="ssr:stedsnr" v="1886" />
	</node>
	<node id="-392690" lat="58.7875362973" lon="5.82139767973">
		<tag k="alt_name" v="Håland, øvre;Håland øvre" />
		<tag k="fixme" v="consider place=hamlet" />
		<tag k="name" v="Øvre Håland" />
		<tag k="place" v="farm" />
		<tag k="ssr:stedsnr" v="1838" />
	</node>
	<node id="-392687" lat="58.9634402949" lon="5.88584468118">
		<tag k="name" v="Galtavik" />
		<tag k="place" v="farm" />
		<tag k="ssr:stedsnr" v="1760" />
	</node>
	<node id="-392684" lat="58.9116361086" lon="5.84401666458">
		<tag k="name" v="Storhaug" />
		<tag k="place" v="farm" />
		<tag k="ssr:stedsnr" v="1746" />
	</node>
	<node id="-392683" lat="58.9071884003" lon="6.02356187844">
		<tag k="alt_name" v="Litle-Ådnøy;Litle Ådnøy" />
		<tag k="fixme" v="consider place=hamlet" />
		<tag k="name" v="Litlådnøyna" />
		<tag k="place" v="farm" />
		<tag k="ssr:stedsnr" v="1738" />
	</node>
	<node id="-392674" lat="58.8474361111" lon="6.00418332855">
		<tag k="alt_name" v="Hamrabø" />
		<tag k="name" v="Hammarbø" />
		<tag k="place" v="farm" />
		<tag k="ssr:stedsnr" v="1598" />
	</node>
	<node id="-392673" lat="58.850896326" lon="5.88764474185">
		<tag k="fixme" v="consider place=hamlet" />
		<tag k="name" v="Nordland" />
		<tag k="place" v="farm" />
		<tag k="ssr:stedsnr" v="1588" />
	</node>
	<node id="-392636" lat="58.9150762765" lon="5.99225469348">
		<tag k="fixme" v="consider place=hamlet" />
		<tag k="name" v="Foreholmen" />
		<tag k="place" v="farm" />
		<tag k="ssr:stedsnr" v="990876" />
	</node>
	<node id="-392635" lat="58.931682466" lon="5.99271092431">
		<tag k="fixme" v="consider place=hamlet" />
		<tag k="name" v="Aspøy" />
		<tag k="place" v="farm" />
		<tag k="ssr:stedsnr" v="990875" />
	</node>
	<node id="-392634" lat="58.8274748195" lon="5.90108766994">
		<tag k="fixme" v="consider place=hamlet" />
		<tag k="name" v="Hetland" />
		<tag k="place" v="farm" />
		<tag k="ssr:stedsnr" v="990832" />
	</node>
	<node id="-392632" lat="58.8466120094" lon="5.87752703091">
		<tag k="name" v="Juldal" />
		<tag k="place" v="farm" />
		<tag k="ssr:stedsnr" v="985218" />
	</node>
	<node id="-392631" lat="58.8474677599" lon="5.720317143">
		<tag k="amenity" v="school" />
		<tag k="name" v="Skeiane ungdomsskole" />
		<tag k="ssr:stedsnr" v="985188" />
	</node>
	<node id="-392613" lat="58.8836694436" lon="6.04813611662">
		<tag k="name" v="Ytre Vodl" />
		<tag k="place" v="farm" />
		<tag k="ssr:stedsnr" v="890168" />
	</node>
	<node id="-392607" lat="58.8414222226" lon="5.71033055249">
		<tag k="name" v="Skeiane" />
		<tag k="place" v="farm" />
		<tag k="ssr:stedsnr" v="269106" />
	</node>
	<node id="-392606" lat="58.8417916703" lon="5.71022221697">
		<tag k="name" v="Skeiane" />
		<tag k="place" v="farm" />
		<tag k="ssr:stedsnr" v="269104" />
	</node>
	<node id="-392593" lat="58.842716663" lon="5.76931110668">
		<tag k="name" v="Skaret" />
		<tag k="place" v="farm" />
		<tag k="ssr:stedsnr" v="390130" />
	</node>
	<node id="-392592" lat="58.8427055521" lon="5.76882500347">
		<tag k="name" v="Skaret" />
		<tag k="place" v="farm" />
		<tag k="ssr:stedsnr" v="390131" />
	</node>
	<node id="-392591" lat="58.841394445" lon="5.70981111593">
		<tag k="name" v="Skeiane" />
		<tag k="place" v="farm" />
		<tag k="ssr:stedsnr" v="390103" />
	</node>
	<node id="-392590" lat="58.8481777738" lon="5.72929999626">
		<tag k="name" v="Skeiane" />
		<tag k="place" v="farm" />
		<tag k="ssr:stedsnr" v="390095" />
	</node>
	<node id="-392589" lat="58.8410249977" lon="5.70893056315">
		<tag k="name" v="Skeiane" />
		<tag k="place" v="farm" />
		<tag k="ssr:stedsnr" v="390043" />
	</node>
	<node id="-392588" lat="58.8450555587" lon="5.72560556255">
		<tag k="name" v="Skeiane" />
		<tag k="place" v="farm" />
		<tag k="ssr:stedsnr" v="390031" />
	</node>
	<node id="-392586" lat="58.834352781" lon="5.7011861137">
		<tag k="name" v="Molgjerda" />
		<tag k="place" v="farm" />
		<tag k="ssr:stedsnr" v="388764" />
	</node>
	<node id="-392569" lat="58.80291111" lon="5.75306667354">
		<tag k="alt_name" v="Slettebø" />
		<tag k="name" v="Eikelandsmyra" />
		<tag k="place" v="farm" />
		<tag k="ssr:stedsnr" v="387685" />
	</node>
	<node id="-392535" lat="58.9215277758" lon="5.92347777329">
		<tag k="name" v="Myrland" />
		<tag k="place" v="farm" />
		<tag k="ssr:stedsnr" v="365740" />
	</node>
	<node id="-392533" lat="58.927612821" lon="5.88914061742">
		<tag k="alt_name" v="Hetland" />
		<tag k="name" v="Hetli" />
		<tag k="place" v="farm" />
		<tag k="ssr:stedsnr" v="365723" />
	</node>
	<node id="-392531" lat="58.8198205179" lon="5.90954095906">
		<tag k="fixme" v="consider place=hamlet" />
		<tag k="name" v="Tveit" />
		<tag k="place" v="farm" />
		<tag k="ssr:stedsnr" v="365639" />
	</node>
	<node id="-392528" lat="58.8459561195" lon="5.88103557755">
		<tag k="name" v="Sletthei" />
		<tag k="place" v="locality" />
		<tag k="ssr:stedsnr" v="365591" />
	</node>
	<node id="-392527" lat="58.7982111125" lon="5.86106111738">
		<tag k="name" v="Flassamyra" />
		<tag k="place" v="farm" />
		<tag k="ssr:stedsnr" v="365523" />
	</node>
	<node id="-392525" lat="58.8668944411" lon="5.91979166093">
		<tag k="name" v="Osaland" />
		<tag k="place" v="farm" />
		<tag k="ssr:stedsnr" v="365243" />
	</node>
	<node id="-392522" lat="58.8485527748" lon="5.76186110307">
		<tag k="alt_name" v="Hana, øvre" />
		<tag k="name" v="Øvre Hana" />
		<tag k="place" v="farm" />
		<tag k="ssr:stedsnr" v="364973" />
	</node>
	<node id="-392517" lat="58.9490722261" lon="5.87007500377">
		<tag k="name" v="Lauvåsvågen" />
		<tag k="place" v="farm" />
		<tag k="ssr:stedsnr" v="364805" />
	</node>
	<node id="-392506" lat="58.8842222253" lon="5.79914722721">
		<tag k="fixme" v="consider tourism=alpine_hut or tourism=chalet" />
		<tag k="name" v="Gramstad" />
		<tag k="ssr:stedsnr" v="344189" />
		<tag k="tourism" v="wilderness_hut" />
	</node>
	<node id="-392499" lat="58.8426583322" lon="5.76721389309">
		<tag k="name" v="Skaret" />
		<tag k="place" v="farm" />
		<tag k="ssr:stedsnr" v="329135" />
	</node>
	<node id="-392498" lat="58.8413500001" lon="5.70941389238">
		<tag k="name" v="Skeiane" />
		<tag k="place" v="farm" />
		<tag k="ssr:stedsnr" v="329041" />
	</node>
	<node id="-392496" lat="58.8218416637" lon="5.90309721978">
		<tag k="name" v="Holane" />
		<tag k="place" v="farm" />
		<tag k="ssr:stedsnr" v="327983" />
	</node>
	<node id="-392485" lat="58.8388758845" lon="5.74377898739">
		<tag k="fixme" v="consider place=hamlet" />
		<tag k="name" v="Austrått" />
		<tag k="place" v="farm" />
		<tag k="ssr:stedsnr" v="327615" />
	</node>
	<node id="-392479" lat="58.8278638902" lon="5.65511945018">
		<tag k="name" v="Heiå" />
		<tag k="place" v="farm" />
		<tag k="ssr:stedsnr" v="327231" />
	</node>
	<node id="-392477" lat="58.8630944463" lon="5.79104721636">
		<tag k="fixme" v="consider place=suburb, village or hamlet" />
		<tag k="name" v="Sandbakk" />
		<tag k="place" v="quarter" />
		<tag k="ssr:stedsnr" v="327196" />
	</node>
	<node id="-392470" lat="58.855016667" lon="5.90766110297">
		<tag k="name" v="Rikkaleitet" />
		<tag k="place" v="farm" />
		<tag k="ssr:stedsnr" v="327056" />
	</node>
	<node id="-392460" lat="58.8658972236" lon="5.91376666162">
		<tag k="name" v="Risholen" />
		<tag k="place" v="farm" />
		<tag k="ssr:stedsnr" v="326157" />
	</node>
	<node id="-392459" lat="58.8644527816" lon="5.91235556216">
		<tag k="name" v="Egrå" />
		<tag k="place" v="farm" />
		<tag k="ssr:stedsnr" v="326155" />
	</node>
	<node id="-392448" lat="58.954055559" lon="5.90925278235">
		<tag k="alt_name" v="Sletta" />
		<tag k="name" v="Sletten" />
		<tag k="place" v="farm" />
		<tag k="ssr:stedsnr" v="326095" />
	</node>
	<node id="-392436" lat="58.892358336" lon="5.89086666342">
		<tag k="name" v="Sandbakken" />
		<tag k="place" v="locality" />
		<tag k="ssr:stedsnr" v="326006" />
	</node>
	<node id="-392434" lat="58.8429792816" lon="5.6895118981">
		<tag k="fixme" v="consider place=hamlet" />
		<tag k="name" v="Folkvord" />
		<tag k="old_name" v="Folkvår" />
		<tag k="place" v="farm" />
		<tag k="ssr:stedsnr" v="304961" />
	</node>
	<node id="-392432" lat="58.8910975016" lon="5.84789912033">
		<tag k="fixme" v="consider place=hamlet" />
		<tag k="name" v="Hogstad" />
		<tag k="place" v="farm" />
		<tag k="ssr:stedsnr" v="304932" />
	</node>
	<node id="-392431" lat="58.8212805558" lon="5.81663889077">
		<tag k="name" v="Steinfjell" />
		<tag k="place" v="farm" />
		<tag k="ssr:stedsnr" v="304927" />
	</node>
	<node id="-392430" lat="58.8346228013" lon="5.7232427058">
		<tag k="fixme" v="consider place=hamlet" />
		<tag k="name" v="Skei" />
		<tag k="place" v="farm" />
		<tag k="ssr:stedsnr" v="304904" />
	</node>
	<node id="-392424" lat="58.9447311231" lon="5.87492117496">
		<tag k="alt_name" v="Lauvåsen" />
		<tag k="fixme" v="consider place=hamlet" />
		<tag k="name" v="Lauvås" />
		<tag k="place" v="farm" />
		<tag k="ssr:stedsnr" v="304805" />
	</node>
	<node id="-392419" lat="58.931783107" lon="5.96087738504">
		<tag k="alt_name" v="Hammar" />
		<tag k="fixme" v="consider place=hamlet" />
		<tag k="name" v="Hamar" />
		<tag k="place" v="farm" />
		<tag k="ssr:stedsnr" v="304719" />
	</node>
	<node id="-392417" lat="58.8633827153" lon="5.91492210561">
		<tag k="fixme" v="consider place=hamlet" />
		<tag k="name" v="Kjosavik" />
		<tag k="place" v="farm" />
		<tag k="ssr:stedsnr" v="304694" />
	</node>
	<node id="-392416" lat="58.8967194471" lon="5.98645555633">
		<tag k="name" v="Hølelia" />
		<tag k="place" v="farm" />
		<tag k="ssr:stedsnr" v="304651" />
	</node>
	<node id="-392415" lat="58.9035470249" lon="5.89746149326">
		<tag k="fixme" v="consider place=hamlet" />
		<tag k="name" v="Bratthetland" />
		<tag k="place" v="farm" />
		<tag k="ssr:stedsnr" v="304648" />
	</node>
	<node id="-392413" lat="58.8252916682" lon="5.8558472275">
		<tag k="alt_name" v="Orreberg" />
		<tag k="name" v="Orraberget" />
		<tag k="place" v="farm" />
		<tag k="ssr:stedsnr" v="304616" />
	</node>
	<node id="-392408" lat="58.8174732464" lon="5.89387200244">
		<tag k="fixme" v="consider place=hamlet" />
		<tag k="name" v="Åreskjold" />
		<tag k="place" v="farm" />
		<tag k="ssr:stedsnr" v="304501" />
	</node>
	<node id="-392407" lat="58.8185369205" lon="5.65308021231">
		<tag k="fixme" v="consider place=hamlet" />
		<tag k="name" v="Lea" />
		<tag k="place" v="farm" />
		<tag k="ssr:stedsnr" v="304226" />
	</node>
	<node id="-392396" lat="58.9255583359" lon="5.85103611134">
		<tag k="alt_name" v="Hommarsåk" />
		<tag k="fixme" v="consider place=suburb, village or hamlet" />
		<tag k="name" v="Hommersåk" />
		<tag k="place" v="quarter" />
		<tag k="ssr:stedsnr" v="295719" />
	</node>
	<node id="-392389" lat="58.8382674983" lon="5.86393226674">
		<tag k="alt_name" v="Skjelbreid" />
		<tag k="fixme" v="consider place=hamlet" />
		<tag k="name" v="Skjelbrei" />
		<tag k="place" v="farm" />
		<tag k="ssr:stedsnr" v="284615" />
	</node>
	<node id="-392388" lat="58.8519222258" lon="5.73437778005">
		<tag k="name" v="Aaslaug Aaslands plass" />
		<tag k="place" v="square" />
		<tag k="ssr:stedsnr" v="283131" />
	</node>
	<node id="-392380" lat="58.8552499967" lon="5.75231389426">
		<tag k="name" v="Giljarhaugen" />
		<tag k="place" v="isolated_dwelling" />
		<tag k="ssr:stedsnr" v="282436" />
	</node>
	<node id="-392379" lat="58.8704833348" lon="5.8653444512">
		<tag k="name" v="Soma" />
		<tag k="place" v="farm" />
		<tag k="ssr:stedsnr" v="281312" />
	</node>
	<node id="-394159" lat="58.9529176518" lon="5.85143812681">
		<tag k="fixme" v="consider place=hamlet" />
		<tag k="name" v="Rosenvik" />
		<tag k="place" v="village" />
		<tag k="ssr:stedsnr" v="973874" />
	</node>
	<node id="-394155" lat="58.8808305561" lon="6.07298888443">
		<tag k="name" v="Selia" />
		<tag k="place" v="farm" />
		<tag k="ssr:stedsnr" v="969183" />
	</node>
	<node id="-394146" lat="58.8937666652" lon="6.00614167522">
		<tag k="name" v="Runnane" />
		<tag k="place" v="farm" />
		<tag k="ssr:stedsnr" v="950116" />
	</node>
	<node id="-394140" lat="58.8470527792" lon="5.73106111246">
		<tag k="name" v="Skeiane" />
		<tag k="place" v="farm" />
		<tag k="ssr:stedsnr" v="936087" />
	</node>
	<node id="-394139" lat="58.8402888927" lon="5.70613333552">
		<tag k="name" v="Skeiane" />
		<tag k="place" v="farm" />
		<tag k="ssr:stedsnr" v="936086" />
	</node>
	<node id="-394138" lat="58.8428694403" lon="5.76929166702">
		<tag k="name" v="Skaret" />
		<tag k="place" v="farm" />
		<tag k="ssr:stedsnr" v="936068" />
	</node>
	<node id="-394137" lat="58.8449722216" lon="5.70814721963">
		<tag k="name" v="Skeiane" />
		<tag k="place" v="farm" />
		<tag k="ssr:stedsnr" v="936037" />
	</node>
	<node id="-394136" lat="58.8358138891" lon="5.66687222205">
		<tag k="name" v="Varholen" />
		<tag k="place" v="farm" />
		<tag k="ssr:stedsnr" v="935782" />
	</node>
	<node id="-394128" lat="58.8597722192" lon="5.72392778324">
		<tag k="leisure" v="pitch" />
		<tag k="name" v="Sandnes stadion" />
		<tag k="ssr:stedsnr" v="934624" />
	</node>
	<node id="-394127" lat="58.8519246688" lon="5.71232122793">
		<tag k="fixme" v="consider place=hamlet" />
		<tag k="name" v="Stangaland" />
		<tag k="place" v="farm" />
		<tag k="ssr:stedsnr" v="934615" />
	</node>
	<node id="-394122" lat="58.8676888876" lon="5.6907166715">
		<tag k="name" v="Skjekkjå" />
		<tag k="place" v="farm" />
		<tag k="ssr:stedsnr" v="934305" />
	</node>
	<node id="-394121" lat="58.8748916705" lon="5.71328333763">
		<tag k="name" v="Holen" />
		<tag k="place" v="farm" />
		<tag k="ssr:stedsnr" v="934301" />
	</node>
	<node id="-394120" lat="58.8645472228" lon="5.68995277518">
		<tag k="name" v="Stavholen" />
		<tag k="place" v="farm" />
		<tag k="ssr:stedsnr" v="934297" />
	</node>
	<node id="-394119" lat="58.8462277798" lon="5.70255555639">
		<tag k="name" v="Kvernhusholen" />
		<tag k="place" v="farm" />
		<tag k="ssr:stedsnr" v="934263" />
	</node>
	<node id="-394118" lat="58.8423638879" lon="5.68027222678">
		<tag k="name" v="Helhei" />
		<tag k="place" v="farm" />
		<tag k="ssr:stedsnr" v="934259" />
	</node>
	<node id="-394117" lat="58.8395999975" lon="5.65778888689">
		<tag k="name" v="Ægrå" />
		<tag k="place" v="farm" />
		<tag k="ssr:stedsnr" v="934221" />
	</node>
	<node id="-394116" lat="58.8227361128" lon="5.66098610283">
		<tag k="name" v="Stuttland" />
		<tag k="place" v="farm" />
		<tag k="ssr:stedsnr" v="934220" />
	</node>
	<node id="-394110" lat="58.9174583318" lon="5.81873888517">
		<tag k="name" v="Bø" />
		<tag k="place" v="farm" />
		<tag k="ssr:stedsnr" v="934055" />
	</node>
	<node id="-394100" lat="58.9340075637" lon="5.8388990214">
		<tag k="name" v="Ulsnes" />
		<tag k="place" v="locality" />
		<tag k="ssr:stedsnr" v="933133" />
	</node>
	<node id="-394082" lat="58.9269793762" lon="5.85441860877">
		<tag k="fixme" v="consider place=hamlet" />
		<tag k="name" v="Hommersåk" />
		<tag k="place" v="farm" />
		<tag k="ssr:stedsnr" v="933005" />
	</node>
	<node id="-394079" lat="58.8509083329" lon="5.74080554881">
		<tag k="name" v="Sandnes" />
		<tag k="place" v="town" />
		<tag k="ssr:stedsnr" v="911983" />
	</node>
	<node id="-394077" lat="58.8588277742" lon="5.78918333909">
		<tag k="landuse" v="military" />
		<tag k="name" v="Vatneleiren" />
		<tag k="ssr:stedsnr" v="911977" />
	</node>
	<node id="-394076" lat="58.8594565034" lon="5.8407568897">
		<tag k="fixme" v="consider place=hamlet" />
		<tag k="name" v="Alsnes" />
		<tag k="place" v="farm" />
		<tag k="ssr:stedsnr" v="911965" />
	</node>
	<node id="-394073" lat="58.8085678497" lon="5.82513242182">
		<tag k="fixme" v="consider place=hamlet" />
		<tag k="name" v="Espeland" />
		<tag k="place" v="farm" />
		<tag k="ssr:stedsnr" v="911907" />
	</node>
	<node id="-394070" lat="58.8473081888" lon="5.78023415326">
		<tag k="fixme" v="consider place=hamlet" />
		<tag k="name" v="Auestad" />
		<tag k="place" v="farm" />
		<tag k="ssr:stedsnr" v="911886" />
	</node>
	<node id="-394069" lat="58.8382083328" lon="5.73245556158">
		<tag k="name" v="Kvelluren" />
		<tag k="old_name" v="Kjellurda" />
		<tag k="place" v="farm" />
		<tag k="ssr:stedsnr" v="911882" />
	</node>
	<node id="-394068" lat="58.8153577934" lon="5.7194579686">
		<tag k="fixme" v="consider place=hamlet" />
		<tag k="name" v="Kvål" />
		<tag k="place" v="farm" />
		<tag k="ssr:stedsnr" v="911867" />
	</node>
	<node id="-394067" lat="58.7933796887" lon="5.77521745238">
		<tag k="fixme" v="consider place=hamlet" />
		<tag k="name" v="Møgedal" />
		<tag k="place" v="farm" />
		<tag k="ssr:stedsnr" v="911830" />
	</node>
	<node id="-394066" lat="58.9526023969" lon="5.86037131538">
		<tag k="name" v="Holland" />
		<tag k="place" v="farm" />
		<tag k="ssr:stedsnr" v="911806" />
	</node>
	<node id="-394062" lat="58.8813583294" lon="6.07146389639">
		<tag k="name" v="Selvikvågen" />
		<tag k="place" v="farm" />
		<tag k="ssr:stedsnr" v="911680" />
	</node>
	<node id="-394061" lat="58.8910861095" lon="6.04487500397">
		<tag k="name" v="Bjørklund" />
		<tag k="place" v="farm" />
		<tag k="ssr:stedsnr" v="911673" />
	</node>
	<node id="-394058" lat="58.9012174895" lon="5.85299998783">
		<tag k="fixme" v="consider place=hamlet" />
		<tag k="name" v="Merland" />
		<tag k="place" v="farm" />
		<tag k="ssr:stedsnr" v="911645" />
	</node>
	<node id="-394057" lat="58.9044099676" lon="5.92494513696">
		<tag k="fixme" v="consider place=hamlet" />
		<tag k="name" v="Horve" />
		<tag k="place" v="farm" />
		<tag k="ssr:stedsnr" v="911641" />
	</node>
	<node id="-394055" lat="58.8427389241" lon="5.86403390658">
		<tag k="alt_name" v="Skruss-Eikeland" />
		<tag k="fixme" v="consider place=hamlet" />
		<tag k="name" v="Skrusseikjeland" />
		<tag k="place" v="farm" />
		<tag k="ssr:stedsnr" v="911593" />
	</node>
	<node id="-394051" lat="58.816952779" lon="5.91664444877">
		<tag k="name" v="Tveit" />
		<tag k="place" v="farm" />
		<tag k="ssr:stedsnr" v="911508" />
	</node>
	<node id="-394040" lat="58.8472333337" lon="5.72513611876">
		<tag k="name" v="Skeiane" />
		<tag k="place" v="farm" />
		<tag k="ssr:stedsnr" v="875082" />
	</node>
	<node id="-394037" lat="58.8203499985" lon="5.91915832527">
		<tag k="name" v="Brådland" />
		<tag k="place" v="farm" />
		<tag k="ssr:stedsnr" v="873986" />
	</node>
	<node id="-394027" lat="58.8577194404" lon="5.77847777926">
		<tag k="name" v="Voll" />
		<tag k="place" v="farm" />
		<tag k="ssr:stedsnr" v="873622" />
	</node>
	<node id="-394025" lat="58.8091944485" lon="5.72633888306">
		<tag k="name" v="Bekkjene" />
		<tag k="place" v="farm" />
		<tag k="ssr:stedsnr" v="873600" />
	</node>
	<node id="-394023" lat="58.8748305543" lon="5.71676666558">
		<tag k="name" v="Tobiasholen" />
		<tag k="place" v="farm" />
		<tag k="ssr:stedsnr" v="873347" />
	</node>
	<node id="-394022" lat="58.8494194473" lon="5.64558333374">
		<tag k="name" v="Stokkholen" />
		<tag k="place" v="farm" />
		<tag k="ssr:stedsnr" v="873289" />
	</node>
	<node id="-394001" lat="58.9576805536" lon="5.84422499855">
		<tag k="name" v="Sørvik" />
		<tag k="place" v="farm" />
		<tag k="ssr:stedsnr" v="872108" />
	</node>
	<node id="-393993" lat="58.9209361127" lon="5.96681389706">
		<tag k="name" v="Nothagen" />
		<tag k="place" v="isolated_dwelling" />
		<tag k="ssr:stedsnr" v="872043" />
	</node>
	<node id="-393989" lat="58.8055916657" lon="5.79526943726">
		<tag k="name" v="Vassvik" />
		<tag k="place" v="farm" />
		<tag k="ssr:stedsnr" v="851919" />
	</node>
	<node id="-393988" lat="58.8024212482" lon="5.73231727041">
		<tag k="alt_name" v="Foss-Eikeland" />
		<tag k="fixme" v="consider place=hamlet" />
		<tag k="name" v="Foss Eikjeland" />
		<tag k="place" v="farm" />
		<tag k="ssr:stedsnr" v="851906" />
	</node>
	<node id="-393987" lat="58.7989439338" lon="5.78781230901">
		<tag k="fixme" v="consider place=hamlet" />
		<tag k="name" v="Bråstein" />
		<tag k="place" v="farm" />
		<tag k="ssr:stedsnr" v="851903" />
	</node>
	<node id="-393985" lat="58.8147833304" lon="5.69968889567">
		<tag k="name" v="Brotet" />
		<tag k="place" v="farm" />
		<tag k="ssr:stedsnr" v="851875" />
	</node>
	<node id="-393984" lat="58.817574996" lon="5.68088888082">
		<tag k="alt_name" v="Skjeveland" />
		<tag k="name" v="Skjæveland" />
		<tag k="place" v="farm" />
		<tag k="ssr:stedsnr" v="851876" />
	</node>
	<node id="-393983" lat="58.9604424475" lon="5.86601970531">
		<tag k="name" v="Stølsvik" />
		<tag k="place" v="farm" />
		<tag k="ssr:stedsnr" v="851803" />
	</node>
	<node id="-393980" lat="58.9177093961" lon="5.85504216217">
		<tag k="fixme" v="consider place=hamlet" />
		<tag k="name" v="Frøyland" />
		<tag k="place" v="farm" />
		<tag k="ssr:stedsnr" v="851721" />
	</node>
	<node id="-393978" lat="58.8776750014" lon="6.07821110804">
		<tag k="alt_name" v="Krånå" />
		<tag k="name" v="Kråno" />
		<tag k="place" v="farm" />
		<tag k="ssr:stedsnr" v="851663" />
	</node>
	<node id="-393974" lat="58.8419027754" lon="5.73986110523">
		<tag k="fixme" v="consider place=suburb, village or hamlet" />
		<tag k="name" v="Austrått" />
		<tag k="place" v="quarter" />
		<tag k="ssr:stedsnr" v="850969" />
	</node>
	<node id="-393971" lat="58.8408916686" lon="5.80336666813">
		<tag k="alt_name" v="Øygard;Ødegård" />
		<tag k="name" v="Øydgard" />
		<tag k="place" v="farm" />
		<tag k="ssr:stedsnr" v="850894" />
	</node>
	<node id="-393949" lat="58.9133333367" lon="5.99770555115">
		<tag k="name" v="Malenaland" />
		<tag k="place" v="locality" />
		<tag k="ssr:stedsnr" v="829929" />
	</node>
	<node id="-393944" lat="58.8936694481" lon="6.01201943906">
		<tag k="name" v="Grobå" />
		<tag k="place" v="farm" />
		<tag k="ssr:stedsnr" v="829109" />
	</node>
	<node id="-393939" lat="58.8427138932" lon="5.76792499398">
		<tag k="name" v="Skaret" />
		<tag k="place" v="farm" />
		<tag k="ssr:stedsnr" v="815125" />
	</node>
	<node id="-393938" lat="58.8423305516" lon="5.76872500284">
		<tag k="name" v="Skaret" />
		<tag k="place" v="farm" />
		<tag k="ssr:stedsnr" v="815121" />
	</node>
	<node id="-393937" lat="58.8430194412" lon="5.76840834178">
		<tag k="name" v="Skaret" />
		<tag k="place" v="farm" />
		<tag k="ssr:stedsnr" v="815073" />
	</node>
	<node id="-393936" lat="58.8418166668" lon="5.70916667046">
		<tag k="name" v="Skeiane" />
		<tag k="place" v="farm" />
		<tag k="ssr:stedsnr" v="815047" />
	</node>
	<node id="-393935" lat="58.8483527795" lon="5.73827222344">
		<tag k="name" v="Skeiane" />
		<tag k="place" v="farm" />
		<tag k="ssr:stedsnr" v="815040" />
	</node>
	<node id="-393930" lat="58.8188388858" lon="5.67632499791">
		<tag k="name" v="Leitet" />
		<tag k="place" v="hamlet" />
		<tag k="ssr:stedsnr" v="813765" />
	</node>
	<node id="-393927" lat="58.8685333334" lon="5.72028055166">
		<tag k="name" v="Firkanten" />
		<tag k="place" v="farm" />
		<tag k="ssr:stedsnr" v="813688" />
	</node>
	<node id="-393921" lat="58.854077778" lon="5.77879721647">
		<tag k="name" v="Revholen" />
		<tag k="place" v="farm" />
		<tag k="ssr:stedsnr" v="813643" />
	</node>
	<node id="-393918" lat="58.8280694464" lon="5.74859999693">
		<tag k="fixme" v="consider place=suburb, village or hamlet" />
		<tag k="name" v="Håbet" />
		<tag k="place" v="quarter" />
		<tag k="ssr:stedsnr" v="813626" />
	</node>
	<node id="-393917" lat="58.8664833374" lon="5.69598055364">
		<tag k="name" v="Tjengaren" />
		<tag k="place" v="locality" />
		<tag k="ssr:stedsnr" v="813291" />
	</node>
	<node id="-393914" lat="58.843152781" lon="5.65061944178">
		<tag k="name" v="Nullsrudla" />
		<tag k="place" v="farm" />
		<tag k="ssr:stedsnr" v="813238" />
	</node>
	<node id="-393912" lat="58.8255527739" lon="5.62858332805">
		<tag k="name" v="Trekanten" />
		<tag k="place" v="farm" />
		<tag k="ssr:stedsnr" v="813199" />
	</node>
	<node id="-393890" lat="58.9462999958" lon="5.89689167468">
		<tag k="name" v="Hodel" />
		<tag k="place" v="farm" />
		<tag k="ssr:stedsnr" v="811149" />
	</node>
	<node id="-393876" lat="58.9159805568" lon="5.96609999742">
		<tag k="name" v="Kattaberget" />
		<tag k="place" v="isolated_dwelling" />
		<tag k="ssr:stedsnr" v="811050" />
	</node>
	<node id="-393873" lat="58.8012055593" lon="5.71048610826">
		<tag k="name" v="Vaglemoen" />
		<tag k="place" v="farm" />
		<tag k="ssr:stedsnr" v="790936" />
	</node>
	<node id="-393868" lat="58.8355610648" lon="5.99282410745">
		<tag k="fixme" v="consider place=hamlet" />
		<tag k="name" v="Seldal" />
		<tag k="place" v="farm" />
		<tag k="ssr:stedsnr" v="790652" />
	</node>
	<node id="-393865" lat="58.8217773767" lon="5.94055639826">
		<tag k="fixme" v="consider place=hamlet" />
		<tag k="name" v="Svihus" />
		<tag k="place" v="farm" />
		<tag k="ssr:stedsnr" v="790524" />
	</node>
	<node id="-393863" lat="58.8536194485" lon="5.8006083289">
		<tag k="name" v="Svartemyr" />
		<tag k="place" v="farm" />
		<tag k="ssr:stedsnr" v="789978" />
	</node>
	<node id="-393861" lat="58.89913778" lon="5.77840920953">
		<tag k="fixme" v="consider place=hamlet" />
		<tag k="name" v="Dale" />
		<tag k="place" v="farm" />
		<tag k="ssr:stedsnr" v="789954" />
	</node>
	<node id="-393859" lat="58.8344931441" lon="5.67221528518">
		<tag k="alt_name" v="Raudstad" />
		<tag k="fixme" v="consider place=hamlet" />
		<tag k="name" v="Raugstad" />
		<tag k="place" v="farm" />
		<tag k="ssr:stedsnr" v="789909" />
	</node>
	<node id="-393857" lat="58.8325749964" lon="5.81676389476">
		<tag k="name" v="Sviland" />
		<tag k="place" v="farm" />
		<tag k="ssr:stedsnr" v="789896" />
	</node>
	<node id="-393855" lat="58.8229419796" lon="5.78581980696">
		<tag k="name" v="Melshei" />
		<tag k="place" v="farm" />
		<tag k="ssr:stedsnr" v="789879" />
	</node>
	<node id="-393852" lat="58.9286098401" lon="5.87174868774">
		<tag k="fixme" v="consider place=hamlet" />
		<tag k="name" v="Hetland" />
		<tag k="place" v="farm" />
		<tag k="ssr:stedsnr" v="789718" />
	</node>
	<node id="-393848" lat="58.8567833359" lon="5.85779167448">
		<tag k="name" v="Alsvik" />
		<tag k="place" v="farm" />
		<tag k="ssr:stedsnr" v="789574" />
	</node>
	<node id="-393845" lat="58.822138503" lon="5.93987701037">
		<tag k="name" v="Svihus" />
		<tag k="place" v="farm" />
		<tag k="ssr:stedsnr" v="789239" />
	</node>
	<node id="-393844" lat="58.9209710374" lon="5.82505116916">
		<tag k="fixme" v="consider place=hamlet" />
		<tag k="name" v="Riska" />
		<tag k="place" v="village" />
		<tag k="ssr:stedsnr" v="789021" />
	</node>
	<node id="-393843" lat="58.9235272702" lon="5.80808714781">
		<tag k="fixme" v="consider place=hamlet" />
		<tag k="name" v="Li" />
		<tag k="place" v="farm" />
		<tag k="ssr:stedsnr" v="789010" />
	</node>
	<node id="-393838" lat="58.9011958167" lon="5.72855795889">
		<tag k="name" v="Gausel" />
		<tag k="place" v="farm" />
		<tag k="ssr:stedsnr" v="786140" />
	</node>
	<node id="-393837" lat="58.9000166639" lon="5.74364721714">
		<tag k="name" v="Gausel" />
		<tag k="place" v="farm" />
		<tag k="ssr:stedsnr" v="786137" />
	</node>
	<node id="-393828" lat="58.8950432978" lon="6.01467476155">
		<tag k="fixme" v="consider place=hamlet" />
		<tag k="name" v="Høle" />
		<tag k="place" v="farm" />
		<tag k="ssr:stedsnr" v="768150" />
	</node>
	<node id="-393824" lat="58.8504972245" lon="5.73838055165">
		<tag k="name" v="Gravaren" />
		<tag k="place" v="quarter" />
		<tag k="ssr:stedsnr" v="767436" />
	</node>
	<node id="-393820" lat="58.8429472188" lon="5.76764444481">
		<tag k="name" v="Skaret" />
		<tag k="place" v="farm" />
		<tag k="ssr:stedsnr" v="754152" />
	</node>
	<node id="-393819" lat="58.8452583321" lon="5.72503332643">
		<tag k="name" v="Skeiane" />
		<tag k="place" v="farm" />
		<tag k="ssr:stedsnr" v="754108" />
	</node>
	<node id="-393818" lat="58.8411888873" lon="5.709502773">
		<tag k="name" v="Skeiane" />
		<tag k="place" v="farm" />
		<tag k="ssr:stedsnr" v="754053" />
	</node>
	<node id="-393817" lat="58.8419777756" lon="5.70899166056">
		<tag k="name" v="Skeiane" />
		<tag k="place" v="farm" />
		<tag k="ssr:stedsnr" v="754045" />
	</node>
	<node id="-393815" lat="58.8281083315" lon="5.66653055148">
		<tag k="name" v="Knolten" />
		<tag k="place" v="farm" />
		<tag k="ssr:stedsnr" v="752771" />
	</node>
	<node id="-393814" lat="58.8072250019" lon="5.69870833478">
		<tag k="name" v="Rudlene" />
		<tag k="place" v="quarter" />
		<tag k="ssr:stedsnr" v="752747" />
	</node>
	<node id="-393810" lat="58.8835944404" lon="5.72082499272">
		<tag k="name" v="Stokka" />
		<tag k="place" v="farm" />
		<tag k="ssr:stedsnr" v="752663" />
	</node>
	<node id="-393809" lat="58.9207139206" lon="5.8259598657">
		<tag k="fixme" v="consider place=hamlet" />
		<tag k="name" v="Riska" />
		<tag k="place" v="farm" />
		<tag k="ssr:stedsnr" v="752656" />
	</node>
	<node id="-393806" lat="58.8520701507" lon="5.75626675678">
		<tag k="fixme" v="consider place=hamlet" />
		<tag k="name" v="Hana" />
		<tag k="place" v="farm" />
		<tag k="ssr:stedsnr" v="752616" />
	</node>
	<node id="-393805" lat="58.8570631553" lon="5.78693893021">
		<tag k="fixme" v="consider place=hamlet" />
		<tag k="name" v="Vatne" />
		<tag k="place" v="farm" />
		<tag k="ssr:stedsnr" v="752614" />
	</node>
	<node id="-393801" lat="58.8630611105" lon="5.70201110563">
		<tag k="amenity" v="school" />
		<tag k="name" v="Soma Barneskole" />
		<tag k="ssr:stedsnr" v="752300" />
	</node>
	<node id="-393797" lat="58.8458999988" lon="5.71282499574">
		<tag k="name" v="Foren" />
		<tag k="place" v="farm" />
		<tag k="ssr:stedsnr" v="752255" />
	</node>
	<node id="-393793" lat="58.8909972239" lon="5.79699167304">
		<tag k="name" v="Revholen" />
		<tag k="place" v="locality" />
		<tag k="ssr:stedsnr" v="752182" />
	</node>
	<node id="-393780" lat="58.8788555583" lon="5.8764138861">
		<tag k="name" v="Fløysvik" />
		<tag k="place" v="farm" />
		<tag k="ssr:stedsnr" v="751217" />
	</node>
	<node id="-393778" lat="58.8801722243" lon="5.88089166627">
		<tag k="name" v="Vaudl" />
		<tag k="place" v="farm" />
		<tag k="ssr:stedsnr" v="751173" />
	</node>
	<node id="-393777" lat="58.8646277765" lon="5.92220278233">
		<tag k="name" v="Gjetlefoten" />
		<tag k="place" v="farm" />
		<tag k="ssr:stedsnr" v="751169" />
	</node>
	<node id="-393758" lat="58.858758332" lon="5.75595555507">
		<tag k="name" v="Rovik" />
		<tag k="old_name" v="Rotvik" />
		<tag k="place" v="suburb" />
		<tag k="ssr:stedsnr" v="729990" />
	</node>
	<node id="-393757" lat="58.8147943284" lon="5.80156404578">
		<tag k="alt_name" v="Myklebost" />
		<tag k="fixme" v="consider place=hamlet" />
		<tag k="name" v="Myklabost" />
		<tag k="old_name" v="Myklebostad" />
		<tag k="place" v="farm" />
		<tag k="ssr:stedsnr" v="729934" />
	</node>
	<node id="-393754" lat="58.837655847" lon="5.71374156641">
		<tag k="fixme" v="consider place=hamlet" />
		<tag k="name" v="Sandve" />
		<tag k="place" v="farm" />
		<tag k="ssr:stedsnr" v="729898" />
	</node>
	<node id="-393752" lat="58.8234972201" lon="5.70466667197">
		<tag k="alt_name" v="Åse, øvre" />
		<tag k="name" v="Øvre Åse" />
		<tag k="place" v="farm" />
		<tag k="ssr:stedsnr" v="729886" />
	</node>
	<node id="-393751" lat="58.8260500021" lon="5.79176388287">
		<tag k="alt_name" v="Grønestad" />
		<tag k="name" v="Grønnestad" />
		<tag k="place" v="farm" />
		<tag k="ssr:stedsnr" v="729873" />
	</node>
	<node id="-393750" lat="58.9589249973" lon="5.89963055626">
		<tag k="loc_name" v="Naustervik" />
		<tag k="name" v="Naustervika" />
		<tag k="place" v="farm" />
		<tag k="ssr:stedsnr" v="729820" />
	</node>
	<node id="-393740" lat="58.8966638933" lon="5.84470000791">
		<tag k="name" v="Hogstad" />
		<tag k="place" v="farm" />
		<tag k="ssr:stedsnr" v="729672" />
	</node>
	<node id="-393739" lat="58.888416667" lon="5.89311665879">
		<tag k="name" v="Sørbø" />
		<tag k="place" v="farm" />
		<tag k="ssr:stedsnr" v="729667" />
	</node>
	<node id="-393737" lat="58.9021361081" lon="5.93931944449">
		<tag k="name" v="Vatne" />
		<tag k="place" v="isolated_dwelling" />
		<tag k="ssr:stedsnr" v="729639" />
	</node>
	<node id="-393736" lat="58.8188236404" lon="5.86168567475">
		<tag k="alt_name" v="Ur-Eikeland;Ur-Eigeland" />
		<tag k="fixme" v="consider place=hamlet" />
		<tag k="name" v="Ur-Eikjeland" />
		<tag k="place" v="farm" />
		<tag k="ssr:stedsnr" v="729629" />
	</node>
	<node id="-393735" lat="58.8440909159" lon="5.92741389868">
		<tag k="alt_name" v="Krogedal" />
		<tag k="fixme" v="consider place=hamlet" />
		<tag k="name" v="Kråkedal" />
		<tag k="place" v="farm" />
		<tag k="ssr:stedsnr" v="729607" />
	</node>
	<node id="-393730" lat="58.8694140276" lon="6.00600361843">
		<tag k="fixme" v="consider place=hamlet" />
		<tag k="name" v="Hommeland" />
		<tag k="place" v="farm" />
		<tag k="ssr:stedsnr" v="729566" />
	</node>
	<node id="-393727" lat="58.9038555515" lon="5.85117778228">
		<tag k="alt_name" v="Bjødland" />
		<tag k="name" v="Bjelland" />
		<tag k="place" v="farm" />
		<tag k="ssr:stedsnr" v="729250" />
	</node>
	<node id="-393724" lat="58.9406991535" lon="5.82828345718">
		<tag k="fixme" v="consider place=hamlet" />
		<tag k="name" v="Uskjo" />
		<tag k="old_name" v="Uskjå" />
		<tag k="place" v="farm" />
		<tag k="ssr:stedsnr" v="728011" />
	</node>
	<node id="-393713" lat="58.9400361114" lon="5.85249721676">
		<tag k="name" v="Skjølvik" />
		<tag k="place" v="neighbourhood" />
		<tag k="ssr:stedsnr" v="707799" />
	</node>
	<node id="-393709" lat="58.8339444451" lon="5.76884445071">
		<tag k="name" v="Kleivane" />
		<tag k="place" v="farm" />
		<tag k="ssr:stedsnr" v="693143" />
	</node>
	<node id="-393708" lat="58.8423083295" lon="5.71208889477">
		<tag k="name" v="Skeiane" />
		<tag k="place" v="farm" />
		<tag k="ssr:stedsnr" v="693101" />
	</node>
	<node id="-393707" lat="58.8473249966" lon="5.72581110706">
		<tag k="name" v="Skeiane" />
		<tag k="place" v="farm" />
		<tag k="ssr:stedsnr" v="693092" />
	</node>
	<node id="-393706" lat="58.8416527771" lon="5.70925555702">
		<tag k="name" v="Skeiane" />
		<tag k="place" v="farm" />
		<tag k="ssr:stedsnr" v="693041" />
	</node>
	<node id="-393705" lat="58.8480916652" lon="5.73760000818">
		<tag k="name" v="Skeiane" />
		<tag k="place" v="farm" />
		<tag k="ssr:stedsnr" v="693039" />
	</node>
	<node id="-393693" lat="58.877966668" lon="5.74645833677">
		<tag k="name" v="Midle" />
		<tag k="place" v="farm" />
		<tag k="ssr:stedsnr" v="691679" />
	</node>
	<node id="-393691" lat="58.7869833357" lon="5.81915555116">
		<tag k="name" v="Håland" />
		<tag k="place" v="farm" />
		<tag k="ssr:stedsnr" v="691661" />
	</node>
	<node id="-393690" lat="58.8629489095" lon="5.73119986198">
		<tag k="fixme" v="consider place=hamlet" />
		<tag k="name" v="Trones" />
		<tag k="place" v="farm" />
		<tag k="ssr:stedsnr" v="691652" />
	</node>
	<node id="-393686" lat="58.8452847308" lon="5.72024870209">
		<tag k="fixme" v="consider place=hamlet" />
		<tag k="name" v="Skeiane" />
		<tag k="place" v="farm" />
		<tag k="ssr:stedsnr" v="691323" />
	</node>
	<node id="-393676" lat="58.8954999999" lon="5.84338889367">
		<tag k="name" v="Litlaheia" />
		<tag k="place" v="farm" />
		<tag k="ssr:stedsnr" v="690227" />
	</node>
	<node id="-393668" lat="58.9215333345" lon="5.83275833001">
		<tag k="name" v="Vodl" />
		<tag k="place" v="farm" />
		<tag k="ssr:stedsnr" v="690139" />
	</node>
	<node id="-393667" lat="58.9150444412" lon="5.83319721527">
		<tag k="amenity" v="nursing_home" />
		<tag k="name" v="Fjordsyn" />
		<tag k="ssr:stedsnr" v="690137" />
	</node>
	<node id="-393653" lat="58.8648482393" lon="5.82256259481">
		<tag k="fixme" v="consider place=hamlet" />
		<tag k="name" v="Haga" />
		<tag k="place" v="farm" />
		<tag k="ssr:stedsnr" v="668981" />
	</node>
	<node id="-393651" lat="58.802286107" lon="5.77991110323">
		<tag k="name" v="Bråstein" />
		<tag k="place" v="farm" />
		<tag k="ssr:stedsnr" v="668901" />
	</node>
	<node id="-393650" lat="58.8456734044" lon="5.7983303231">
		<tag k="fixme" v="consider place=hamlet" />
		<tag k="name" v="Skjørestad" />
		<tag k="place" v="farm" />
		<tag k="ssr:stedsnr" v="668895" />
	</node>
	<node id="-393649" lat="58.8399972246" lon="5.757977772">
		<tag k="name" v="Svebastad" />
		<tag k="place" v="farm" />
		<tag k="ssr:stedsnr" v="668889" />
	</node>
	<node id="-393648" lat="58.827102776" lon="5.62468332511">
		<tag k="name" v="Heigre" />
		<tag k="old_name" v="Hegre" />
		<tag k="place" v="farm" />
		<tag k="ssr:stedsnr" v="668880" />
	</node>
	<node id="-393647" lat="58.7932777394" lon="5.78383629525">
		<tag k="alt_name" v="Gilje" />
		<tag k="fixme" v="consider place=hamlet" />
		<tag k="name" v="Gilja" />
		<tag k="place" v="farm" />
		<tag k="ssr:stedsnr" v="668832" />
	</node>
	<node id="-393644" lat="58.9636750033" lon="5.89375277112">
		<tag k="name" v="Vier" />
		<tag k="place" v="farm" />
		<tag k="ssr:stedsnr" v="668785" />
	</node>
	<node id="-393639" lat="58.9173801367" lon="5.88794631956">
		<tag k="fixme" v="consider place=hamlet" />
		<tag k="name" v="Maudland" />
		<tag k="place" v="farm" />
		<tag k="ssr:stedsnr" v="668746" />
	</node>
	<node id="-393638" lat="58.9313896269" lon="5.96806655362">
		<tag k="fixme" v="consider place=hamlet" />
		<tag k="name" v="Bersagel" />
		<tag k="place" v="farm" />
		<tag k="ssr:stedsnr" v="668727" />
	</node>
	<node id="-393636" lat="58.9360999986" lon="5.96794999202">
		<tag k="name" v="Dreggjavik" />
		<tag k="place" v="farm" />
		<tag k="ssr:stedsnr" v="668715" />
	</node>
	<node id="-393632" lat="58.8838138855" lon="5.92855277411">
		<tag k="name" v="Dansen" />
		<tag k="place" v="farm" />
		<tag k="ssr:stedsnr" v="668687" />
	</node>
	<node id="-393630" lat="58.9013290046" lon="5.96428057989">
		<tag k="fixme" v="consider place=hamlet" />
		<tag k="name" v="Ims" />
		<tag k="place" v="farm" />
		<tag k="ssr:stedsnr" v="668650" />
	</node>
	<node id="-393609" lat="58.8672305552" lon="5.86456389231">
		<tag k="name" v="Furenes" />
		<tag k="place" v="farm" />
		<tag k="ssr:stedsnr" v="634222" />
	</node>
	<node id="-393608" lat="58.8425611098" lon="5.70983333199">
		<tag k="name" v="Skeiane" />
		<tag k="place" v="farm" />
		<tag k="ssr:stedsnr" v="632114" />
	</node>
	<node id="-393607" lat="58.8472722235" lon="5.72626111129">
		<tag k="name" v="Skeiane" />
		<tag k="place" v="farm" />
		<tag k="ssr:stedsnr" v="632105" />
	</node>
	<node id="-393606" lat="58.8411694453" lon="5.70884444147">
		<tag k="name" v="Skeiane" />
		<tag k="place" v="farm" />
		<tag k="ssr:stedsnr" v="632048" />
	</node>
	<node id="-393604" lat="58.8332194481" lon="5.68875278577">
		<tag k="name" v="Håbakken" />
		<tag k="place" v="farm" />
		<tag k="ssr:stedsnr" v="631787" />
	</node>
	<node id="-393602" lat="58.8095888894" lon="5.70492777904">
		<tag k="name" v="Brunnholen" />
		<tag k="place" v="farm" />
		<tag k="ssr:stedsnr" v="631773" />
	</node>
	<node id="-393598" lat="58.8914000014" lon="6.04421388268">
		<tag k="name" v="Likstø" />
		<tag k="place" v="farm" />
		<tag k="ssr:stedsnr" v="631180" />
	</node>
	<node id="-393586" lat="58.8356499974" lon="5.75900554842">
		<tag k="name" v="Prestbakken" />
		<tag k="place" v="farm" />
		<tag k="ssr:stedsnr" v="630589" />
	</node>
	<node id="-393583" lat="58.8773972258" lon="5.716505555">
		<tag k="alt_name" v="Kyrkjeholen" />
		<tag k="name" v="Kjørkjeholen" />
		<tag k="place" v="farm" />
		<tag k="ssr:stedsnr" v="630315" />
	</node>
	<node id="-393579" lat="58.900755556" lon="5.79523611127">
		<tag k="name" v="Daleholen" />
		<tag k="place" v="locality" />
		<tag k="ssr:stedsnr" v="630217" />
	</node>
	<node id="-393578" lat="58.8655055557" lon="5.79800554724">
		<tag k="name" v="Einartangen" />
		<tag k="place" v="farm" />
		<tag k="ssr:stedsnr" v="630213" />
	</node>
	<node id="-393572" lat="58.829136107" lon="5.83506110651">
		<tag k="name" v="Holane" />
		<tag k="place" v="farm" />
		<tag k="ssr:stedsnr" v="630054" />
	</node>
	<node id="-393564" lat="58.8693000037" lon="5.91224166767">
		<tag k="name" v="Mjelkeholen" />
		<tag k="place" v="farm" />
		<tag k="ssr:stedsnr" v="629167" />
	</node>
	<node id="-393557" lat="58.9117277746" lon="5.84225277776">
		<tag k="name" v="Heiane" />
		<tag k="place" v="farm" />
		<tag k="ssr:stedsnr" v="629129" />
	</node>
	<node id="-393544" lat="58.8705296384" lon="5.81401548766">
		<tag k="fixme" v="consider place=hamlet" />
		<tag k="name" v="Lutsi" />
		<tag k="place" v="farm" />
		<tag k="ssr:stedsnr" v="607993" />
	</node>
	<node id="-393543" lat="58.8673474413" lon="5.69200118303">
		<tag k="fixme" v="consider place=hamlet" />
		<tag k="name" v="Soma" />
		<tag k="place" v="farm" />
		<tag k="ssr:stedsnr" v="607984" />
	</node>
	<node id="-393542" lat="58.8536075567" lon="5.66399736008">
		<tag k="fixme" v="consider place=hamlet" />
		<tag k="name" v="Årsvoll" />
		<tag k="place" v="farm" />
		<tag k="ssr:stedsnr" v="607979" />
	</node>
	<node id="-393541" lat="58.856174999" lon="5.78703888033">
		<tag k="fixme" v="consider place=hamlet" />
		<tag k="name" v="Vatne" />
		<tag k="place" v="village" />
		<tag k="ssr:stedsnr" v="607969" />
	</node>
	<node id="-393540" lat="58.8399694434" lon="5.66085277582">
		<tag k="alt_name" v="Malmeim" />
		<tag k="name" v="Malmheim" />
		<tag k="place" v="farm" />
		<tag k="ssr:stedsnr" v="607962" />
	</node>
	<node id="-393537" lat="58.8090583341" lon="5.76159999299">
		<tag k="loc_name" v="Helgeland" />
		<tag k="name" v="Helgaland" />
		<tag k="place" v="farm" />
		<tag k="ssr:stedsnr" v="607916" />
	</node>
	<node id="-393535" lat="58.8213361097" lon="5.75783333663">
		<tag k="alt_name" v="Brattabø" />
		<tag k="name" v="Brattebø" />
		<tag k="place" v="farm" />
		<tag k="ssr:stedsnr" v="607876" />
	</node>
	<node id="-393534" lat="58.821463885" lon="5.67048055858">
		<tag k="name" v="Følhusholen" />
		<tag k="place" v="farm" />
		<tag k="ssr:stedsnr" v="607871" />
	</node>
	<node id="-393533" lat="58.8296083377" lon="5.63897777708">
		<tag k="name" v="Heigre" />
		<tag k="old_name" v="Hegre" />
		<tag k="place" v="farm" />
		<tag k="ssr:stedsnr" v="607868" />
	</node>
	<node id="-393532" lat="58.8255111071" lon="5.79525554859">
		<tag k="alt_name" v="Kydles" />
		<tag k="name" v="Netland" />
		<tag k="place" v="farm" />
		<tag k="ssr:stedsnr" v="607861" />
	</node>
	<node id="-393530" lat="58.9066085821" lon="5.84601887139">
		<tag k="alt_name" v="Bjødland" />
		<tag k="fixme" v="consider place=hamlet" />
		<tag k="name" v="Bjelland" />
		<tag k="place" v="farm" />
		<tag k="ssr:stedsnr" v="607747" />
	</node>
	<node id="-393529" lat="58.9096111107" lon="5.88613611637">
		<tag k="name" v="Sanddal" />
		<tag k="place" v="farm" />
		<tag k="ssr:stedsnr" v="607748" />
	</node>
	<node id="-393527" lat="58.9229941815" lon="5.96068464054">
		<tag k="fixme" v="consider place=hamlet" />
		<tag k="name" v="Eskeland" />
		<tag k="place" v="farm" />
		<tag k="ssr:stedsnr" v="607717" />
	</node>
	<node id="-393522" lat="58.8843738555" lon="6.05224859328">
		<tag k="fixme" v="consider place=hamlet" />
		<tag k="name" v="Selvik" />
		<tag k="place" v="farm" />
		<tag k="ssr:stedsnr" v="607661" />
	</node>
	<node id="-393520" lat="58.8848842317" lon="6.01089980847">
		<tag k="alt_name" v="Gjesteland" />
		<tag k="fixme" v="consider place=hamlet" />
		<tag k="name" v="Gjestaland" />
		<tag k="place" v="farm" />
		<tag k="ssr:stedsnr" v="607659" />
	</node>
	<node id="-393519" lat="58.8851416698" lon="5.93208610993">
		<tag k="name" v="Vomma" />
		<tag k="place" v="isolated_dwelling" />
		<tag k="ssr:stedsnr" v="607657" />
	</node>
	<node id="-393517" lat="58.89228611" lon="5.89181111202">
		<tag k="name" v="Fløysvikbakken" />
		<tag k="place" v="farm" />
		<tag k="ssr:stedsnr" v="607654" />
	</node>
	<node id="-393515" lat="58.8863944473" lon="5.84886944743">
		<tag k="name" v="Steinane" />
		<tag k="place" v="farm" />
		<tag k="ssr:stedsnr" v="607650" />
	</node>
	<node id="-393514" lat="58.8999164211" lon="5.89315331149">
		<tag k="alt_name" v="Litle Auglend" />
		<tag k="fixme" v="consider place=hamlet" />
		<tag k="name" v="Litlauglend" />
		<tag k="place" v="farm" />
		<tag k="ssr:stedsnr" v="607640" />
	</node>
	<node id="-393513" lat="58.904149704" lon="5.9041602116">
		<tag k="name" v="Tjørnabakken" />
		<tag k="place" v="farm" />
		<tag k="ssr:stedsnr" v="607639" />
	</node>
	<node id="-393512" lat="58.9073722185" lon="6.02132777638">
		<tag k="name" v="Karlavika" />
		<tag k="place" v="farm" />
		<tag k="ssr:stedsnr" v="607632" />
	</node>
	<node id="-393511" lat="58.8276194426" lon="5.90389443738">
		<tag k="alt_name" v="Hetland" />
		<tag k="name" v="Store-Hetland" />
		<tag k="place" v="farm" />
		<tag k="ssr:stedsnr" v="607613" />
	</node>
	<node id="-393510" lat="58.824730553" lon="5.87728889624">
		<tag k="alt_name" v="Hetland" />
		<tag k="name" v="Litle-Hetland" />
		<tag k="place" v="farm" />
		<tag k="ssr:stedsnr" v="607609" />
	</node>
	<node id="-393509" lat="58.8418660941" lon="5.87720623037">
		<tag k="alt_name" v="Levang;Leigvom" />
		<tag k="fixme" v="consider place=hamlet" />
		<tag k="name" v="Leikvam" />
		<tag k="place" v="farm" />
		<tag k="ssr:stedsnr" v="607596" />
	</node>
	<node id="-393508" lat="58.8409361138" lon="5.99125555319">
		<tag k="name" v="Hagen" />
		<tag k="place" v="farm" />
		<tag k="ssr:stedsnr" v="607594" />
	</node>
	<node id="-393505" lat="58.8688072524" lon="5.91669184839">
		<tag k="fixme" v="consider place=hamlet" />
		<tag k="name" v="Osaland" />
		<tag k="place" v="farm" />
		<tag k="ssr:stedsnr" v="607573" />
	</node>
	<node id="-393504" lat="58.8655663762" lon="5.94935341717">
		<tag k="fixme" v="consider place=hamlet" />
		<tag k="name" v="Tengesdal" />
		<tag k="place" v="farm" />
		<tag k="ssr:stedsnr" v="607572" />
	</node>
	<node id="-393503" lat="58.789997226" lon="5.84384722267">
		<tag k="alt_name" v="Bleget" />
		<tag k="name" v="Bliket" />
		<tag k="place" v="farm" />
		<tag k="ssr:stedsnr" v="607538" />
	</node>
	<node id="-393497" lat="58.8562638917" lon="5.73408889196">
		<tag k="name" v="Trones" />
		<tag k="place" v="farm" />
		<tag k="ssr:stedsnr" v="603618" />
	</node>
	<node id="-393494" lat="58.8315166659" lon="5.66330277281">
		<tag k="fixme" v="consider place=hamlet" />
		<tag k="name" v="Julebygda" />
		<tag k="place" v="village" />
		<tag k="ssr:stedsnr" v="601197" />
	</node>
	<node id="-393487" lat="58.8421138913" lon="5.70994166857">
		<tag k="name" v="Skeiane" />
		<tag k="place" v="farm" />
		<tag k="ssr:stedsnr" v="572125" />
	</node>
	<node id="-393486" lat="58.8468611067" lon="5.72610833037">
		<tag k="name" v="Skeiane" />
		<tag k="place" v="farm" />
		<tag k="ssr:stedsnr" v="572109" />
	</node>
	<node id="-393485" lat="58.8464833313" lon="5.72569721836">
		<tag k="name" v="Skeiane" />
		<tag k="place" v="farm" />
		<tag k="ssr:stedsnr" v="572106" />
	</node>
	<node id="-393484" lat="58.869372219" lon="5.73346111914">
		<tag k="fixme" v="consider place=suburb, village or hamlet" />
		<tag k="name" v="Vibemyr" />
		<tag k="place" v="quarter" />
		<tag k="ssr:stedsnr" v="570664" />
	</node>
	<node id="-393482" lat="58.8994416636" lon="5.78496943785">
		<tag k="name" v="Dale" />
		<tag k="place" v="farm" />
		<tag k="ssr:stedsnr" v="570605" />
	</node>
	<node id="-393481" lat="58.8328113384" lon="5.75587405899">
		<tag k="fixme" v="consider place=hamlet" />
		<tag k="name" v="Høyland" />
		<tag k="place" v="farm" />
		<tag k="ssr:stedsnr" v="570589" />
	</node>
	<node id="-393477" lat="58.8196194434" lon="5.93301111904">
		<tag k="name" v="Buktahagen" />
		<tag k="place" v="farm" />
		<tag k="ssr:stedsnr" v="569986" />
	</node>
	<node id="-393470" lat="58.8584611085" lon="5.78836665905">
		<tag k="name" v="Fidjane" />
		<tag k="place" v="farm" />
		<tag k="ssr:stedsnr" v="569656" />
	</node>
	<node id="-393468" lat="58.8831833339" lon="5.71712500603">
		<tag k="alt_name" v="Lunden" />
		<tag k="name" v="Lunde" />
		<tag k="place" v="farm" />
		<tag k="ssr:stedsnr" v="569334" />
	</node>
	<node id="-393466" lat="58.8302444459" lon="5.65112222953">
		<tag k="name" v="Torvholen" />
		<tag k="place" v="farm" />
		<tag k="ssr:stedsnr" v="569246" />
	</node>
	<node id="-393462" lat="58.915452777" lon="5.81809722221">
		<tag k="name" v="Øvrabø" />
		<tag k="place" v="farm" />
		<tag k="ssr:stedsnr" v="569073" />
	</node>
	<node id="-393457" lat="58.846552775" lon="5.88760833451">
		<tag k="name" v="Kregene" />
		<tag k="place" v="farm" />
		<tag k="ssr:stedsnr" v="569034" />
	</node>
	<node id="-393453" lat="58.889647223" lon="5.84699166383">
		<tag k="name" v="Lunden" />
		<tag k="place" v="farm" />
		<tag k="ssr:stedsnr" v="568234" />
	</node>
	<node id="-393446" lat="58.8678861114" lon="5.91670000375">
		<tag k="name" v="Loen" />
		<tag k="place" v="farm" />
		<tag k="ssr:stedsnr" v="568174" />
	</node>
	<node id="-393426" lat="58.8191011959" lon="5.70255870272">
		<tag k="fixme" v="consider place=hamlet" />
		<tag k="name" v="Lunde" />
		<tag k="place" v="farm" />
		<tag k="ssr:stedsnr" v="547899" />
	</node>
	<node id="-393425" lat="58.7908472202" lon="5.83594444541">
		<tag k="name" v="Myra" />
		<tag k="place" v="farm" />
		<tag k="ssr:stedsnr" v="547850" />
	</node>
	<node id="-393417" lat="58.822791671" lon="5.89010277623">
		<tag k="name" v="Stakksheia" />
		<tag k="place" v="farm" />
		<tag k="ssr:stedsnr" v="547674" />
	</node>
	<node id="-393416" lat="58.8471083768" lon="5.8901115784">
		<tag k="fixme" v="consider place=hamlet" />
		<tag k="name" v="Sporaland" />
		<tag k="place" v="farm" />
		<tag k="ssr:stedsnr" v="547629" />
	</node>
	<node id="-393413" lat="58.8420440984" lon="5.64597431469">
		<tag k="alt_name" v="Kjedlingland" />
		<tag k="fixme" v="consider place=hamlet" />
		<tag k="name" v="Kjellingland" />
		<tag k="place" v="farm" />
		<tag k="ssr:stedsnr" v="546960" />
	</node>
	<node id="-393412" lat="58.8390063066" lon="5.63457087056">
		<tag k="fixme" v="consider place=hamlet" />
		<tag k="name" v="Jutland" />
		<tag k="place" v="farm" />
		<tag k="ssr:stedsnr" v="546957" />
	</node>
	<node id="-393410" lat="58.8358249957" lon="5.77438888089">
		<tag k="name" v="Kleivane" />
		<tag k="place" v="farm" />
		<tag k="ssr:stedsnr" v="546881" />
	</node>
	<node id="-393404" lat="58.8560311636" lon="5.91186570291">
		<tag k="fixme" v="consider place=hamlet" />
		<tag k="name" v="Auglend" />
		<tag k="place" v="farm" />
		<tag k="ssr:stedsnr" v="546530" />
	</node>
	<node id="-393393" lat="58.960640435" lon="5.84342634561">
		<tag k="loc_name" v="Kastevik" />
		<tag k="name" v="Kastevika" />
		<tag k="place" v="locality" />
		<tag k="ssr:stedsnr" v="525941" />
	</node>
	<node id="-393388" lat="58.8231583333" lon="5.67927777527">
		<tag k="name" v="Stavholen" />
		<tag k="place" v="farm" />
		<tag k="ssr:stedsnr" v="510827" />
	</node>
	<node id="-393387" lat="58.8153833302" lon="5.70358055575">
		<tag k="name" v="Storholen" />
		<tag k="place" v="farm" />
		<tag k="ssr:stedsnr" v="510818" />
	</node>
	<node id="-393386" lat="58.8401527799" lon="5.69011389707">
		<tag k="name" v="Øgard" />
		<tag k="place" v="farm" />
		<tag k="ssr:stedsnr" v="510812" />
	</node>
	<node id="-393384" lat="58.8099555548" lon="5.71652499868">
		<tag k="name" v="Skjeldebakken" />
		<tag k="place" v="farm" />
		<tag k="ssr:stedsnr" v="510793" />
	</node>
	<node id="-393375" lat="58.8666694456" lon="5.76423888638">
		<tag k="alt_name" v="Asparmyra" />
		<tag k="fixme" v="consider place=suburb, village or hamlet" />
		<tag k="name" v="Aspermyra" />
		<tag k="place" v="quarter" />
		<tag k="ssr:stedsnr" v="509670" />
	</node>
	<node id="-393372" lat="58.8435206736" lon="5.73045206666">
		<tag k="fixme" v="consider place=hamlet" />
		<tag k="name" v="Brualand" />
		<tag k="place" v="farm" />
		<tag k="ssr:stedsnr" v="509626" />
	</node>
	<node id="-393371" lat="58.8559916641" lon="5.78829444452">
		<tag k="name" v="Gamletun" />
		<tag k="place" v="farm" />
		<tag k="ssr:stedsnr" v="509614" />
	</node>
	<node id="-393367" lat="58.8572611119" lon="5.67675555036">
		<tag k="name" v="Haugen" />
		<tag k="place" v="farm" />
		<tag k="ssr:stedsnr" v="509282" />
	</node>
	<node id="-393366" lat="58.8367722221" lon="5.65625555927">
		<tag k="name" v="Storhaug" />
		<tag k="place" v="farm" />
		<tag k="ssr:stedsnr" v="509226" />
	</node>
	<node id="-393360" lat="58.8526722214" lon="5.89692778421">
		<tag k="name" v="Ratlamyra" />
		<tag k="place" v="farm" />
		<tag k="ssr:stedsnr" v="509054" />
	</node>
	<node id="-393359" lat="58.860794446" lon="5.92351111046">
		<tag k="name" v="Småriset" />
		<tag k="place" v="farm" />
		<tag k="ssr:stedsnr" v="509051" />
	</node>
	<node id="-393332" lat="58.8523250023" lon="5.76032222375">
		<tag k="fixme" v="consider place=suburb, village or hamlet" />
		<tag k="name" v="Hana" />
		<tag k="place" v="quarter" />
		<tag k="ssr:stedsnr" v="486982" />
	</node>
	<node id="-393330" lat="58.904438735" lon="5.83030337697">
		<tag k="fixme" v="consider place=hamlet" />
		<tag k="name" v="Skjørestad" />
		<tag k="place" v="farm" />
		<tag k="ssr:stedsnr" v="486966" />
	</node>
	<node id="-393329" lat="58.8224720557" lon="5.82216730984">
		<tag k="fixme" v="consider place=hamlet" />
		<tag k="name" v="Sviland" />
		<tag k="place" v="farm" />
		<tag k="ssr:stedsnr" v="486937" />
	</node>
	<node id="-393328" lat="58.8159015058" lon="5.72438504824">
		<tag k="fixme" v="consider place=hamlet" />
		<tag k="name" v="Stokkaland" />
		<tag k="place" v="farm" />
		<tag k="ssr:stedsnr" v="486933" />
	</node>
	<node id="-393327" lat="58.8280527739" lon="5.81221110528">
		<tag k="name" v="Skårland" />
		<tag k="place" v="farm" />
		<tag k="ssr:stedsnr" v="486882" />
	</node>
	<node id="-393325" lat="58.9472138933" lon="5.92685000547">
		<tag k="alt_name" v="Breidvik" />
		<tag k="name" v="Breivik" />
		<tag k="place" v="farm" />
		<tag k="ssr:stedsnr" v="486795" />
	</node>
	<node id="-393321" lat="58.8917044857" lon="6.04758420475">
		<tag k="name" v="Åna" />
		<tag k="place" v="farm" />
		<tag k="ssr:stedsnr" v="486682" />
	</node>
	<node id="-393320" lat="58.895153525" lon="5.91105817645">
		<tag k="fixme" v="consider place=hamlet" />
		<tag k="name" v="Fløysvik" />
		<tag k="place" v="farm" />
		<tag k="ssr:stedsnr" v="486679" />
	</node>
	<node id="-393318" lat="58.8942932922" lon="5.99786916787">
		<tag k="name" v="Lia" />
		<tag k="place" v="isolated_dwelling" />
		<tag k="ssr:stedsnr" v="486663" />
	</node>
	<node id="-393316" lat="58.8201750025" lon="5.91824999443">
		<tag k="name" v="Svihus" />
		<tag k="place" v="farm" />
		<tag k="ssr:stedsnr" v="486629" />
	</node>
	<node id="-393315" lat="58.828858332" lon="5.92016111367">
		<tag k="alt_name" v="Sletthei" />
		<tag k="name" v="Slettheia" />
		<tag k="place" v="farm" />
		<tag k="ssr:stedsnr" v="486628" />
	</node>
	<node id="-393311" lat="58.8309662945" lon="5.65844214699">
		<tag k="alt_name" v="Malmeim" />
		<tag k="fixme" v="consider place=hamlet" />
		<tag k="name" v="Malmheim" />
		<tag k="place" v="farm" />
		<tag k="ssr:stedsnr" v="486235" />
	</node>
	<node id="-393304" lat="58.8958833353" lon="6.04462778622">
		<tag k="name" v="Veholmen" />
		<tag k="place" v="farm" />
		<tag k="ssr:stedsnr" v="484050" />
	</node>
	<node id="-393285" lat="58.8426527793" lon="5.7684277828">
		<tag k="name" v="Skaret" />
		<tag k="place" v="farm" />
		<tag k="ssr:stedsnr" v="451146" />
	</node>
	<node id="-393284" lat="58.8474916643" lon="5.73138610938">
		<tag k="name" v="Skeiane" />
		<tag k="place" v="farm" />
		<tag k="ssr:stedsnr" v="451053" />
	</node>
	<node id="-393282" lat="58.8378944417" lon="5.69412499551">
		<tag k="name" v="Orsholen" />
		<tag k="place" v="farm" />
		<tag k="ssr:stedsnr" v="449767" />
	</node>
	<node id="-393281" lat="58.8069027761" lon="5.67233055569">
		<tag k="name" v="Brunes" />
		<tag k="place" v="farm" />
		<tag k="ssr:stedsnr" v="449747" />
	</node>
	<node id="-393278" lat="58.9149750043" lon="5.83397500685">
		<tag k="amenity" v="nursing_home" />
		<tag k="name" v="Riskatun" />
		<tag k="ssr:stedsnr" v="449675" />
	</node>
	<node id="-393277" lat="58.8804361089" lon="5.74385832919">
		<tag k="fixme" v="consider place=suburb, village or hamlet" />
		<tag k="name" v="Nadaberget" />
		<tag k="place" v="quarter" />
		<tag k="ssr:stedsnr" v="449668" />
	</node>
	<node id="-393273" lat="58.8320166627" lon="5.74231666711">
		<tag k="name" v="Tronsholen" />
		<tag k="place" v="farm" />
		<tag k="ssr:stedsnr" v="449631" />
	</node>
	<node id="-393272" lat="58.8403916675" lon="5.74571389578">
		<tag k="name" v="Buddegarden" />
		<tag k="place" v="farm" />
		<tag k="ssr:stedsnr" v="449626" />
	</node>
	<node id="-393265" lat="58.8686972262" lon="5.81673888542">
		<tag k="name" v="Moen" />
		<tag k="place" v="farm" />
		<tag k="ssr:stedsnr" v="449196" />
	</node>
	<node id="-393244" lat="58.8910166658" lon="5.84050277038">
		<tag k="name" v="Vestergård" />
		<tag k="place" v="farm" />
		<tag k="ssr:stedsnr" v="447173" />
	</node>
	<node id="-393241" lat="58.8650027781" lon="5.90891388028">
		<tag k="name" v="Hodl" />
		<tag k="place" v="farm" />
		<tag k="ssr:stedsnr" v="447141" />
	</node>
	<node id="-393228" lat="58.9177444428" lon="5.96529721597">
		<tag k="alt_name" v="Eikeskog" />
		<tag k="name" v="Eigeskog" />
		<tag k="place" v="isolated_dwelling" />
		<tag k="ssr:stedsnr" v="447039" />
	</node>
	<node id="-393225" lat="58.8824638867" lon="5.79778962634">
		<tag k="fixme" v="consider place=hamlet" />
		<tag k="name" v="Gramstad" />
		<tag k="place" v="farm" />
		<tag k="ssr:stedsnr" v="426949" />
	</node>
	<node id="-393224" lat="58.8847312277" lon="5.71184777969">
		<tag k="fixme" v="consider place=hamlet" />
		<tag k="name" v="Stokka" />
		<tag k="place" v="farm" />
		<tag k="ssr:stedsnr" v="426945" />
	</node>
	<node id="-393223" lat="58.8399388908" lon="5.77519166588">
		<tag k="alt_name" v="Øygard;Ødegård" />
		<tag k="name" v="Øydgard" />
		<tag k="place" v="farm" />
		<tag k="ssr:stedsnr" v="426903" />
	</node>
	<node id="-393220" lat="58.8291138874" lon="5.7806694391">
		<tag k="name" v="Helland" />
		<tag k="place" v="farm" />
		<tag k="ssr:stedsnr" v="426889" />
	</node>
	<node id="-393218" lat="58.9196144839" lon="6.00465770968">
		<tag k="alt_name" v="Ådnøy" />
		<tag k="fixme" v="consider place=hamlet" />
		<tag k="name" v="Storådnøyna" />
		<tag k="place" v="farm" />
		<tag k="ssr:stedsnr" v="426754" />
	</node>
</osm>
