<?xml version="1.0" encoding="UTF-8"?>
<osm generator="osmapis" version="0.6">
	<node id="-392698" lat="58.8386500035" lon="5.9204805498">
		<tag k="name" v="Djupemyr" />
		<tag k="natural" v="wetland" />
		<tag k="ssr:stedsnr" v="266982" />
	</node>
	<node id="-392788" lat="58.881827776" lon="5.72971945175">
		<tag k="name" v="Porsholmyra" />
		<tag k="natural" v="wetland" />
		<tag k="ssr:stedsnr" v="449667" />
	</node>
	<node id="-392694" lat="58.8442555599" lon="5.8195416706">
		<tag k="name" v="Klokkemyra" />
		<tag k="natural" v="wetland" />
		<tag k="ssr:stedsnr" v="266653" />
	</node>
	<node id="-392691" lat="58.8723305513" lon="5.6937888894">
		<tag k="name" v="Somamyr" />
		<tag k="natural" v="wetland" />
		<tag k="ssr:stedsnr" v="266334" />
	</node>
	<node id="-392688" lat="58.8133055579" lon="5.79129721589">
		<tag k="name" v="Follamyr" />
		<tag k="natural" v="wetland" />
		<tag k="ssr:stedsnr" v="266238" />
	</node>
	<node id="-392678" lat="58.8793361152" lon="5.86081943734">
		<tag k="name" v="Bergursmyra" />
		<tag k="natural" v="wetland" />
		<tag k="ssr:stedsnr" v="265207" />
	</node>
	<node id="-393183" lat="58.9121166703" lon="5.92693610539">
		<tag k="name" v="Kattura" />
		<tag k="natural" v="scree" />
		<tag k="ssr:stedsnr" v="690141" />
	</node>
	<node id="-392670" lat="58.912180554" lon="5.85292221732">
		<tag k="name" v="Bastemyra" />
		<tag k="natural" v="wetland" />
		<tag k="ssr:stedsnr" v="265140" />
	</node>
	<node id="-393178" lat="58.8037666663" lon="5.8483027821">
		<tag k="name" v="Goemyr" />
		<tag k="natural" v="wetland" />
		<tag k="ssr:stedsnr" v="690100" />
	</node>
	<node id="-392659" lat="58.8904472182" lon="5.96098888085">
		<tag k="name" v="Ragsmyr" />
		<tag k="natural" v="wetland" />
		<tag k="ssr:stedsnr" v="265056" />
	</node>
	<node id="-393659" lat="58.8848555589" lon="6.04218610545">
		<tag k="name" v="Torvmyra" />
		<tag k="natural" v="wetland" />
		<tag k="ssr:stedsnr" v="950113" />
	</node>
	<node id="-392120" lat="58.9123305575" lon="6.00258889079">
		<tag k="name" v="Gunnarsmyr" />
		<tag k="natural" v="wetland" />
		<tag k="ssr:stedsnr" v="404919" />
	</node>
	<node id="-392631" lat="58.8470472226" lon="6.02174444159">
		<tag k="name" v="Breianutsmyra" />
		<tag k="natural" v="wetland" />
		<tag k="ssr:stedsnr" v="241840" />
	</node>
	<node id="-393139" lat="58.8511777746" lon="6.01651667199">
		<tag k="name" v="Ålamyra" />
		<tag k="natural" v="wetland" />
		<tag k="ssr:stedsnr" v="666833" />
	</node>
	<node id="-393648" lat="58.8485333311" lon="5.94659722371">
		<tag k="name" v="Stora Myra" />
		<tag k="natural" v="wetland" />
		<tag k="ssr:stedsnr" v="934902" />
	</node>
	<node id="-392104" lat="58.8066666665" lon="5.7657722188">
		<tag k="loc_name" v="Helgelandsmyra" />
		<tag k="name" v="Helgalandsmyra" />
		<tag k="natural" v="wetland" />
		<tag k="ssr:stedsnr" v="388604" />
	</node>
	<node id="-392100" lat="58.8269694402" lon="5.91486388641">
		<tag k="name" v="Raulemyra" />
		<tag k="natural" v="wetland" />
		<tag k="ssr:stedsnr" v="387991" />
	</node>
	<node id="-392611" lat="58.8582444489" lon="5.69676666782">
		<tag k="name" v="Vølstadskogen" />
		<tag k="place" v="locality" />
		<tag k="ssr:stedsnr" v="206282" />
	</node>
	<node id="-392092" lat="58.8223888924" lon="5.98034444112">
		<tag k="name" v="Røynliheia" />
		<tag k="place" v="locality" />
		<tag k="ssr:stedsnr" v="387877" />
	</node>
	<node id="-393115" lat="58.8059555568" lon="5.70818054831">
		<tag k="name" v="Vagleskogen" />
		<tag k="place" v="locality" />
		<tag k="ssr:stedsnr" v="631770" />
	</node>
	<node id="-393626" lat="58.8905472268" lon="5.85435556184">
		<tag k="name" v="Storamyr" />
		<tag k="natural" v="wetland" />
		<tag k="ssr:stedsnr" v="933232" />
	</node>
	<node id="-392089" lat="58.8545388908" lon="5.69494721935">
		<tag k="name" v="Koppholsmyra" />
		<tag k="natural" v="wetland" />
		<tag k="ssr:stedsnr" v="387317" />
	</node>
	<node id="-392088" lat="58.8200166637" lon="5.6559333363">
		<tag k="name" v="Lende" />
		<tag k="natural" v="wetland" />
		<tag k="ssr:stedsnr" v="387263" />
	</node>
	<node id="-393110" lat="58.8225888853" lon="5.9304361065">
		<tag k="name" v="Jespaheia" />
		<tag k="place" v="locality" />
		<tag k="ssr:stedsnr" v="630960" />
	</node>
	<node id="-393109" lat="58.8450527751" lon="5.97279999605">
		<tag k="name" v="Stølsfjellmyra" />
		<tag k="natural" v="wetland" />
		<tag k="ssr:stedsnr" v="630901" />
	</node>
	<node id="-392082" lat="58.8931305545" lon="5.79482500813">
		<tag k="name" v="Kvitemyra" />
		<tag k="natural" v="wetland" />
		<tag k="ssr:stedsnr" v="387230" />
	</node>
	<node id="-392593" lat="58.9504611112" lon="5.81760000275">
		<tag k="name" v="Krossmyra" />
		<tag k="natural" v="wetland" />
		<tag k="ssr:stedsnr" v="206005" />
	</node>
	<node id="-393103" lat="58.831430557" lon="5.79787778119">
		<tag k="name" v="Gråbeinsmyra" />
		<tag k="natural" v="wetland" />
		<tag k="ssr:stedsnr" v="630653" />
	</node>
	<node id="-392587" lat="58.8439805592" lon="5.94449444152">
		<tag k="name" v="Litle Skaramyra" />
		<tag k="natural" v="wetland" />
		<tag k="ssr:stedsnr" v="205926" />
	</node>
	<node id="-392073" lat="58.9028666694" lon="5.86080000131">
		<tag k="name" v="Vassholen" />
		<tag k="natural" v="wetland" />
		<tag k="ssr:stedsnr" v="386204" />
	</node>
	<node id="-392583" lat="58.856327777" lon="5.96175833032">
		<tag k="name" v="Storamyr" />
		<tag k="natural" v="wetland" />
		<tag k="ssr:stedsnr" v="205909" />
	</node>
	<node id="-392578" lat="58.8882222256" lon="5.85288333292">
		<tag k="name" v="Vassholen" />
		<tag k="place" v="locality" />
		<tag k="ssr:stedsnr" v="205244" />
	</node>
	<node id="-393597" lat="58.8073777818" lon="5.92701388253">
		<tag k="name" v="Liamyra" />
		<tag k="natural" v="wetland" />
		<tag k="ssr:stedsnr" v="933009" />
	</node>
	<node id="-393077" lat="58.8694444399" lon="5.91927221889">
		<tag k="name" v="Sorpå" />
		<tag k="place" v="locality" />
		<tag k="ssr:stedsnr" v="629160" />
	</node>
	<node id="-393074" lat="58.9226416695" lon="5.85349999602">
		<tag k="name" v="Ørnamyra" />
		<tag k="natural" v="wetland" />
		<tag k="ssr:stedsnr" v="629147" />
	</node>
	<node id="-393072" lat="58.9174972238" lon="5.89396944468">
		<tag k="loc_name" v="Torsmyra" />
		<tag k="name" v="Torsmyr" />
		<tag k="natural" v="wetland" />
		<tag k="ssr:stedsnr" v="629139" />
	</node>
	<node id="-393067" lat="58.9523055553" lon="5.87473055806">
		<tag k="name" v="Djubemyra" />
		<tag k="natural" v="wetland" />
		<tag k="ssr:stedsnr" v="629101" />
	</node>
	<node id="-393065" lat="58.9024694457" lon="5.95105555011">
		<tag k="name" v="Longemyr" />
		<tag k="natural" v="wetland" />
		<tag k="ssr:stedsnr" v="629081" />
	</node>
	<node id="-393105" lat="58.8312527773" lon="5.9911499949">
		<tag k="name" v="Vassheia" />
		<tag k="place" v="locality" />
		<tag k="ssr:stedsnr" v="630839" />
	</node>
	<node id="-393060" lat="58.9163694448" lon="5.99039167041">
		<tag k="name" v="Askane" />
		<tag k="place" v="locality" />
		<tag k="ssr:stedsnr" v="629043" />
	</node>
	<node id="-392024" lat="58.8925222247" lon="6.0422416646">
		<tag k="name" v="Mågsteinen" />
		<tag k="natural" v="stone" />
		<tag k="ssr:stedsnr" v="343138" />
	</node>
	<node id="-392018" lat="58.8251194438" lon="5.89756945043">
		<tag k="name" v="Kodleholen" />
		<tag k="place" v="locality" />
		<tag k="ssr:stedsnr" v="327998" />
	</node>
	<node id="-392016" lat="58.8351749966" lon="5.92456110739">
		<tag k="name" v="Langholen" />
		<tag k="place" v="locality" />
		<tag k="ssr:stedsnr" v="327966" />
	</node>
	<node id="-393549" lat="58.8315638845" lon="5.91852222455">
		<tag k="name" v="Flatahei" />
		<tag k="place" v="locality" />
		<tag k="ssr:stedsnr" v="873978" />
	</node>
	<node id="-393099" lat="58.8121000009" lon="5.7646861168">
		<tag k="name" v="Prestamyra" />
		<tag k="natural" v="wetland" />
		<tag k="ssr:stedsnr" v="630574" />
	</node>
	<node id="-391999" lat="58.8889499994" lon="5.78733333055">
		<tag k="name" v="Lundamyra" />
		<tag k="natural" v="wetland" />
		<tag k="ssr:stedsnr" v="327199" />
	</node>
	<node id="-393534" lat="58.8164416624" lon="5.81695556138">
		<tag k="name" v="Svilandsforen" />
		<tag k="natural" v="wetland" />
		<tag k="ssr:stedsnr" v="873224" />
	</node>
	<node id="-391995" lat="58.8750499997" lon="5.82338055163">
		<tag k="name" v="Ulvaleitet" />
		<tag k="place" v="locality" />
		<tag k="ssr:stedsnr" v="327191" />
	</node>
	<node id="-392506" lat="58.8954666661" lon="6.02917499864">
		<tag k="name" v="Kalvaskogen" />
		<tag k="place" v="locality" />
		<tag k="ssr:stedsnr" v="161157" />
	</node>
	<node id="-393004" lat="58.9497543536" lon="5.83971284602">
		<tag k="loc_name" v="Biskopsura" />
		<tag k="name" v="Biskopsurda" />
		<tag k="natural" v="scree" />
		<tag k="ssr:stedsnr" v="585934" />
	</node>
	<node id="-392489" lat="58.8448194473" lon="5.80597500066">
		<tag k="name" v="Stompamyra" />
		<tag k="natural" v="wetland" />
		<tag k="ssr:stedsnr" v="145647" />
	</node>
	<node id="-393511" lat="58.8956416664" lon="5.95378332835">
		<tag k="name" v="Øygardslandet" />
		<tag k="place" v="locality" />
		<tag k="ssr:stedsnr" v="872065" />
	</node>
	<node id="-391974" lat="58.7999333292" lon="5.83139721671">
		<tag k="name" v="Kattamyra" />
		<tag k="natural" v="wetland" />
		<tag k="ssr:stedsnr" v="326106" />
	</node>
	<node id="-391973" lat="58.7983305543" lon="5.85148332486">
		<tag k="name" v="Fengjamyr" />
		<tag k="natural" v="wetland" />
		<tag k="ssr:stedsnr" v="326104" />
	</node>
	<node id="-392482" lat="58.8863944438" lon="5.71583055216">
		<tag k="name" v="Vadlamyra" />
		<tag k="natural" v="wetland" />
		<tag k="ssr:stedsnr" v="145239" />
	</node>
	<node id="-392480" lat="58.8987166699" lon="5.81142500089">
		<tag k="name" v="Resasteinen" />
		<tag k="natural" v="stone" />
		<tag k="ssr:stedsnr" v="145194" />
	</node>
	<node id="-392479" lat="58.8799777802" lon="5.81206944333">
		<tag k="name" v="Bjønndalsmyra" />
		<tag k="natural" v="wetland" />
		<tag k="ssr:stedsnr" v="145186" />
	</node>
	<node id="-392988" lat="58.831391667" lon="5.93046944711">
		<tag k="name" v="Kregane" />
		<tag k="place" v="locality" />
		<tag k="ssr:stedsnr" v="569970" />
	</node>
	<node id="-392470" lat="58.852402781" lon="5.98720556255">
		<tag k="name" v="Undeknutsmyra" />
		<tag k="natural" v="wetland" />
		<tag k="ssr:stedsnr" v="144892" />
	</node>
	<node id="-392467" lat="58.8886888865" lon="5.83451388542">
		<tag k="name" v="Hatleskog" />
		<tag k="place" v="locality" />
		<tag k="ssr:stedsnr" v="144254" />
	</node>
	<node id="-392463" lat="58.8991333356" lon="5.85604721794">
		<tag k="name" v="Merlandsmyra" />
		<tag k="natural" v="wetland" />
		<tag k="ssr:stedsnr" v="144215" />
	</node>
	<node id="-393486" lat="58.8973916626" lon="5.81580556114">
		<tag k="name" v="Skardet" />
		<tag k="place" v="locality" />
		<tag k="ssr:stedsnr" v="850945" />
	</node>
	<node id="-392968" lat="58.7945944484" lon="5.86220833292">
		<tag k="name" v="Flassamyra" />
		<tag k="natural" v="wetland" />
		<tag k="ssr:stedsnr" v="569030" />
	</node>
	<node id="-392748" lat="58.8035444487" lon="5.85625278347">
		<tag k="alt_name" v="Tjødnamyra" />
		<tag k="name" v="Tjørnamyra" />
		<tag k="natural" v="wetland" />
		<tag k="ssr:stedsnr" v="447103" />
	</node>
	<node id="-392454" lat="58.9207999979" lon="5.84404167546">
		<tag k="name" v="Eskemyr" />
		<tag k="natural" v="wetland" />
		<tag k="ssr:stedsnr" v="144154" />
	</node>
	<node id="-392452" lat="58.9461080824" lon="5.88687679111">
		<tag k="name" v="Hagen" />
		<tag k="place" v="locality" />
		<tag k="ssr:stedsnr" v="144151" />
	</node>
	<node id="-392442" lat="58.857694448" lon="5.91128889668">
		<tag k="name" v="Rompeskogen" />
		<tag k="place" v="locality" />
		<tag k="ssr:stedsnr" v="144062" />
	</node>
	<node id="-392952" lat="58.9436444456" lon="5.8655777735">
		<tag k="name" v="Brunsmyra" />
		<tag k="natural" v="wetland" />
		<tag k="ssr:stedsnr" v="568134" />
	</node>
	<node id="-392951" lat="58.9475863112" lon="5.8529617134">
		<tag k="name" v="Liamyra" />
		<tag k="natural" v="wetland" />
		<tag k="ssr:stedsnr" v="568129" />
	</node>
	<node id="-393171" lat="58.80466944" lon="5.89569166089">
		<tag k="name" v="Storemyr" />
		<tag k="natural" v="wetland" />
		<tag k="ssr:stedsnr" v="690009" />
	</node>
	<node id="-391920" lat="58.8468444444" lon="6.00828888146">
		<tag k="name" v="Flakkå" />
		<tag k="place" v="locality" />
		<tag k="ssr:stedsnr" v="301841" />
	</node>
	<node id="-392941" lat="58.9141611104" lon="5.99180555639">
		<tag k="name" v="Fedå" />
		<tag k="place" v="locality" />
		<tag k="ssr:stedsnr" v="568033" />
	</node>
	<node id="-393442" lat="58.8678722182" lon="5.7238027811">
		<tag k="name" v="Grønskemyra" />
		<tag k="natural" v="wetland" />
		<tag k="ssr:stedsnr" v="813690" />
	</node>
	<node id="-393438" lat="58.7832472201" lon="5.80329444356">
		<tag k="name" v="Figvedlia" />
		<tag k="place" v="locality" />
		<tag k="ssr:stedsnr" v="813662" />
	</node>
	<node id="-393437" lat="58.8487694443" lon="5.79102499706">
		<tag k="name" v="Skjørestadmyra" />
		<tag k="natural" v="wetland" />
		<tag k="ssr:stedsnr" v="813653" />
	</node>
	<node id="-393422" lat="58.8345333313" lon="5.91515833016">
		<tag k="name" v="Storehei" />
		<tag k="place" v="locality" />
		<tag k="ssr:stedsnr" v="812998" />
	</node>
	<node id="-393420" lat="58.8302305539" lon="5.92584444268">
		<tag k="name" v="Holbekkmyra" />
		<tag k="natural" v="wetland" />
		<tag k="ssr:stedsnr" v="812994" />
	</node>
	<node id="-393403" lat="58.9256250042" lon="5.8391972265">
		<tag k="loc_name" v="Kyrkjevollen" />
		<tag k="name" v="Kjørkjevollen" />
		<tag k="place" v="locality" />
		<tag k="ssr:stedsnr" v="811143" />
	</node>
	<node id="-392885" lat="58.7871055524" lon="5.79687500008">
		<tag k="landuse" v="meadow" />
		<tag k="name" v="Figvedheia" />
		<tag k="ssr:stedsnr" v="509630" />
	</node>
	<node id="-392371" lat="58.8128305561" lon="5.73931944857">
		<tag k="name" v="Goemyr" />
		<tag k="natural" v="wetland" />
		<tag k="ssr:stedsnr" v="85547" />
	</node>
	<node id="-392366" lat="58.8229888865" lon="5.90511666979">
		<tag k="name" v="Gangsteinmyra" />
		<tag k="natural" v="wetland" />
		<tag k="ssr:stedsnr" v="84999" />
	</node>
	<node id="-392875" lat="58.818672221" lon="5.7877027855">
		<tag k="name" v="Teinemyra" />
		<tag k="natural" v="wetland" />
		<tag k="ssr:stedsnr" v="509207" />
	</node>
	<node id="-391964" lat="58.9161055599" lon="5.95299723033">
		<tag k="name" v="Myrå" />
		<tag k="natural" v="wetland" />
		<tag k="ssr:stedsnr" v="326042" />
	</node>
	<node id="-392355" lat="58.8802472209" lon="5.72241388765">
		<tag k="name" v="Stokkamyra" />
		<tag k="natural" v="wetland" />
		<tag k="ssr:stedsnr" v="84701" />
	</node>
	<node id="-392866" lat="58.8548166706" lon="5.86746389504">
		<tag k="name" v="Hillarto" />
		<tag k="natural" v="wetland" />
		<tag k="ssr:stedsnr" v="509030" />
	</node>
	<node id="-392352" lat="58.833563891" lon="5.74810000165">
		<tag k="name" v="Høylandsmyra" />
		<tag k="natural" v="wetland" />
		<tag k="ssr:stedsnr" v="84668" />
	</node>
	<node id="-392339" lat="58.880836109" lon="5.86998333426">
		<tag k="name" v="Pyttamyr" />
		<tag k="natural" v="wetland" />
		<tag k="ssr:stedsnr" v="83143" />
	</node>
	<node id="-392334" lat="58.8052694408" lon="5.8509722159">
		<tag k="name" v="Nøkkamyra" />
		<tag k="natural" v="wetland" />
		<tag k="ssr:stedsnr" v="83106" />
	</node>
	<node id="-393354" lat="58.8507000001" lon="6.02349165997">
		<tag k="name" v="Moltemyra" />
		<tag k="natural" v="wetland" />
		<tag k="ssr:stedsnr" v="787837" />
	</node>
	<node id="-392313" lat="58.9320083297" lon="5.87666389551">
		<tag k="name" v="Sprengsmyra" />
		<tag k="natural" v="wetland" />
		<tag k="ssr:stedsnr" v="83154" />
	</node>
	<node id="-392979" lat="58.8453388928" lon="5.63320832603">
		<tag k="name" v="Heigremyrane" />
		<tag k="natural" v="wetland" />
		<tag k="ssr:stedsnr" v="569287" />
	</node>
	<node id="-392814" lat="58.8753805553" lon="6.05937776951">
		<tag k="name" v="Svartopsmyra" />
		<tag k="place" v="locality" />
		<tag k="ssr:stedsnr" v="483203" />
	</node>
	<node id="-393321" lat="58.8432277737" lon="5.75365832659">
		<tag k="name" v="Iglemyr" />
		<tag k="natural" v="wetland" />
		<tag k="ssr:stedsnr" v="752633" />
	</node>
	<node id="-393309" lat="58.8070249988" lon="5.80061388206">
		<tag k="name" v="Vassvikmyra" />
		<tag k="natural" v="wetland" />
		<tag k="ssr:stedsnr" v="752191" />
	</node>
	<node id="-393303" lat="58.8235583377" lon="5.91039443887">
		<tag k="name" v="Nesjene" />
		<tag k="natural" v="wetland" />
		<tag k="ssr:stedsnr" v="752000" />
	</node>
	<node id="-393302" lat="58.8402138856" lon="5.91652778568">
		<tag k="name" v="Bronehei" />
		<tag k="place" v="locality" />
		<tag k="ssr:stedsnr" v="751982" />
	</node>
	<node id="-392277" lat="58.8469416681" lon="5.7197250061">
		<tag k="name" v="Skeiaskogen" />
		<tag k="place" v="locality" />
		<tag k="ssr:stedsnr" v="59997" />
	</node>
	<node id="-392276" lat="58.9220166679" lon="6.00060277653">
		<tag k="name" v="Skarmyra" />
		<tag k="natural" v="wetland" />
		<tag k="ssr:stedsnr" v="59870" />
	</node>
	<node id="-392786" lat="58.8485777763" lon="5.81406667355">
		<tag k="name" v="Breidmyra" />
		<tag k="natural" v="wetland" />
		<tag k="ssr:stedsnr" v="449642" />
	</node>
	<node id="-393296" lat="58.8634750007" lon="5.86800555841">
		<tag k="name" v="Stemmemyr" />
		<tag k="natural" v="wetland" />
		<tag k="ssr:stedsnr" v="751230" />
	</node>
	<node id="-393655" lat="58.895311111" lon="5.98874722785">
		<tag k="name" v="Kjørra" />
		<tag k="place" v="locality" />
		<tag k="ssr:stedsnr" v="936165" />
	</node>
	<node id="-392775" lat="58.8725722203" lon="5.81651945048">
		<tag k="name" v="Loen" />
		<tag k="place" v="locality" />
		<tag k="ssr:stedsnr" v="449188" />
	</node>
	<node id="-392262" lat="58.9152527738" lon="6.01074444769">
		<tag k="name" v="Bjønndalsmyra" />
		<tag k="natural" v="wetland" />
		<tag k="ssr:stedsnr" v="40928" />
	</node>
	<node id="-392771" lat="58.8460055553" lon="5.9786777733">
		<tag k="name" v="Myra" />
		<tag k="natural" v="wetland" />
		<tag k="ssr:stedsnr" v="448935" />
	</node>
	<node id="-392244" lat="58.8328611083" lon="5.68118333612">
		<tag k="name" v="Egerheisteinen" />
		<tag k="natural" v="stone" />
		<tag k="ssr:stedsnr" v="24789" />
	</node>
	<node id="-392236" lat="58.8829722192" lon="5.80374444575">
		<tag k="name" v="Djupemyr" />
		<tag k="natural" v="wetland" />
		<tag k="ssr:stedsnr" v="24160" />
	</node>
	<node id="-392235" lat="58.8277527756" lon="5.89079443965">
		<tag k="name" v="Gompen" />
		<tag k="place" v="locality" />
		<tag k="ssr:stedsnr" v="23998" />
	</node>
	<node id="-392746" lat="58.9531187084" lon="5.85137123942">
		<tag k="name" v="Kubåsen" />
		<tag k="place" v="locality" />
		<tag k="ssr:stedsnr" v="447096" />
	</node>
	<node id="-392742" lat="58.8792500005" lon="5.94871944768">
		<tag k="name" v="Slåttemyra" />
		<tag k="natural" v="wetland" />
		<tag k="ssr:stedsnr" v="447070" />
	</node>
	<node id="-392227" lat="58.8791638928" lon="5.86911944861">
		<tag k="name" v="Longemyr" />
		<tag k="natural" v="wetland" />
		<tag k="ssr:stedsnr" v="23246" />
	</node>
	<node id="-392226" lat="58.8832016593" lon="5.86698922589">
		<tag k="name" v="Bergura" />
		<tag k="natural" v="scree" />
		<tag k="ssr:stedsnr" v="23247" />
	</node>
	<node id="-392721" lat="58.812780559" lon="5.85183055615">
		<tag k="name" v="Voremyra" />
		<tag k="natural" v="wetland" />
		<tag k="ssr:stedsnr" v="426491" />
	</node>
</osm>
