<?xml version="1.0" encoding="UTF-8"?>
<osm generator="osmapis" version="0.6">
	<node id="-392704" lat="58.8115388893" lon="5.66967777634">
		<tag k="man_made" v="tower" />
		<tag k="name" v="Rogaland Radio" />
		<tag k="ssr:stedsnr" v="267921" />
		<tag k="tower:type" v="communications" />
	</node>
	<node id="-392693" lat="58.8517916625" lon="5.78343333446">
		<tag k="name" v="Auestadkanalen" />
		<tag k="ssr:stedsnr" v="266651" />
		<tag k="waterway" v="canal" />
	</node>
	<node id="-392142" lat="58.8232740737" lon="5.71717091543">
		<tag k="name" v="Ganddal stasjon" />
		<tag k="railway" v="station" />
		<tag k="ssr:stedsnr" v="989988" />
		<tag k="train" v="yes" />
	</node>
	<node id="-392138" lat="58.8226305538" lon="5.71138610636">
		<tag k="bridge" v="yes" />
		<tag k="layer" v="1" />
		<tag k="name" v="Ganddal" />
		<tag k="ssr:stedsnr" v="897351" />
	</node>
	<node id="-392137" lat="58.782108331" lon="5.82983056122">
		<tag k="bridge" v="yes" />
		<tag k="layer" v="1" />
		<tag k="name" v="Figgjo Øvre" />
		<tag k="ssr:stedsnr" v="897349" />
	</node>
	<node id="-392136" lat="58.8524040297" lon="5.73656875225">
		<tag k="name" v="Sandnes sentrum stasjon" />
		<tag k="railway" v="halt" />
		<tag k="ssr:stedsnr" v="891158" />
		<tag k="train" v="yes" />
	</node>
	<node id="-393671" lat="58.855037422" lon="5.74365758727">
		<tag k="man_made" v="quay" />
		<tag k="name" v="Honnørbryggen" />
		<tag k="place" v="locality" />
		<tag k="ssr:stedsnr" v="973831" />
	</node>
	<node id="-393666" lat="58.8619222199" lon="5.71141111529">
		<tag k="bridge" v="yes" />
		<tag k="layer" v="1" />
		<tag k="name" v="Soma" />
		<tag k="ssr:stedsnr" v="957338" />
	</node>
	<node id="-393665" lat="58.873444441" lon="5.73435000243">
		<tag k="bridge" v="yes" />
		<tag k="layer" v="1" />
		<tag k="name" v="Lura" />
		<tag k="ssr:stedsnr" v="957326" />
	</node>
	<node id="-393664" lat="58.8798305558" lon="5.77416388716">
		<tag k="bridge" v="yes" />
		<tag k="layer" v="1" />
		<tag k="name" v="Strondavika" />
		<tag k="ssr:stedsnr" v="957316" />
	</node>
	<node id="-393663" lat="58.8296805573" lon="5.8288555519">
		<tag k="bridge" v="yes" />
		<tag k="layer" v="1" />
		<tag k="name" v="Sviland" />
		<tag k="ssr:stedsnr" v="957314" />
	</node>
	<node id="-392126" lat="58.8594194461" lon="5.91832222432">
		<tag k="bridge" v="yes" />
		<tag k="layer" v="1" />
		<tag k="name" v="Risdal" />
		<tag k="ssr:stedsnr" v="411332" />
	</node>
	<node id="-392125" lat="58.8395444457" lon="5.75367777823">
		<tag k="bridge" v="yes" />
		<tag k="layer" v="1" />
		<tag k="name" v="Riaren" />
		<tag k="ssr:stedsnr" v="411330" />
	</node>
	<node id="-392124" lat="58.9038250007" lon="5.9633583374">
		<tag k="bridge" v="yes" />
		<tag k="layer" v="1" />
		<tag k="name" v="Ims" />
		<tag k="ssr:stedsnr" v="411327" />
	</node>
	<node id="-392123" lat="58.7878416679" lon="5.81577777042">
		<tag k="bridge" v="yes" />
		<tag k="layer" v="1" />
		<tag k="name" v="Tjessem" />
		<tag k="ssr:stedsnr" v="411315" />
	</node>
	<node id="-392122" lat="58.8297416703" lon="5.7170999928">
		<tag k="bridge" v="yes" />
		<tag k="layer" v="1" />
		<tag k="name" v="Torger Carlsen" />
		<tag k="ssr:stedsnr" v="411313" />
	</node>
	<node id="-392121" lat="58.8337166624" lon="5.71946111118">
		<tag k="bridge" v="yes" />
		<tag k="layer" v="1" />
		<tag k="name" v="Åsedalen" />
		<tag k="ssr:stedsnr" v="411310" />
	</node>
	<node id="-392627" lat="58.7882500007" lon="5.80689443657">
		<tag k="bridge" v="yes" />
		<tag k="layer" v="1" />
		<tag k="name" v="Figgjo" />
		<tag k="ssr:stedsnr" v="229357" />
	</node>
	<node id="-392626" lat="58.8822944447" lon="5.74316665868">
		<tag k="bridge" v="yes" />
		<tag k="layer" v="1" />
		<tag k="name" v="Eventyrveien" />
		<tag k="ssr:stedsnr" v="229358" />
	</node>
	<node id="-392625" lat="58.840611113" lon="5.72494166049">
		<tag k="bridge" v="yes" />
		<tag k="layer" v="1" />
		<tag k="name" v="Sandved" />
		<tag k="ssr:stedsnr" v="229353" />
	</node>
	<node id="-392624" lat="58.8227777747" lon="5.74746667116">
		<tag k="bridge" v="yes" />
		<tag k="layer" v="1" />
		<tag k="name" v="Presthei" />
		<tag k="ssr:stedsnr" v="229350" />
	</node>
	<node id="-392623" lat="58.8726805544" lon="5.81385833378">
		<tag k="bridge" v="yes" />
		<tag k="layer" v="1" />
		<tag k="name" v="Lutsi" />
		<tag k="ssr:stedsnr" v="229338" />
	</node>
	<node id="-393132" lat="58.8466555531" lon="5.71596945033">
		<tag k="bridge" v="yes" />
		<tag k="layer" v="1" />
		<tag k="name" v="Foren" />
		<tag k="ssr:stedsnr" v="654364" />
	</node>
	<node id="-393131" lat="58.8301555533" lon="5.73729167007">
		<tag k="bridge" v="yes" />
		<tag k="layer" v="1" />
		<tag k="name" v="Hove III" />
		<tag k="ssr:stedsnr" v="654363" />
	</node>
	<node id="-393130" lat="58.8022500002" lon="5.78130832519">
		<tag k="bridge" v="yes" />
		<tag k="layer" v="1" />
		<tag k="name" v="Bråstein" />
		<tag k="ssr:stedsnr" v="654357" />
	</node>
	<node id="-393129" lat="58.8453083364" lon="5.71832222588">
		<tag k="bridge" v="yes" />
		<tag k="layer" v="1" />
		<tag k="name" v="Skeianemarka" />
		<tag k="ssr:stedsnr" v="654352" />
	</node>
	<node id="-393128" lat="58.8213972243" lon="5.91147221441">
		<tag k="bridge" v="yes" />
		<tag k="layer" v="1" />
		<tag k="name" v="Svihus" />
		<tag k="ssr:stedsnr" v="654333" />
	</node>
	<node id="-392607" lat="58.8338361082" lon="5.62678332928">
		<tag k="junction" v="yes" />
		<tag k="name" v="Vippene" />
		<tag k="place" v="locality" />
		<tag k="ssr:stedsnr" v="206233" />
	</node>
	<node id="-393586" lat="58.8027944485" lon="5.72880833563">
		<tag k="name" v="Fosseikeland" />
		<tag k="old_name" v="Foss Eikjeland" />
		<tag k="railway" v="station" />
		<tag k="ssr:stedsnr" v="911896" />
		<tag k="train" v="yes" />
	</node>
	<node id="-392031" lat="58.8500944446" lon="5.71465833439">
		<tag k="bridge" v="yes" />
		<tag k="layer" v="1" />
		<tag k="name" v="Gåshaugen" />
		<tag k="ssr:stedsnr" v="350322" />
	</node>
	<node id="-392030" lat="58.850497218" lon="5.72044444473">
		<tag k="bridge" v="yes" />
		<tag k="layer" v="1" />
		<tag k="name" v="Bjørnstj. Bjørnsonsgate" />
		<tag k="ssr:stedsnr" v="350321" />
	</node>
	<node id="-392029" lat="58.8368583339" lon="5.73240277136">
		<tag k="bridge" v="yes" />
		<tag k="layer" v="1" />
		<tag k="name" v="Skei" />
		<tag k="ssr:stedsnr" v="350303" />
	</node>
	<node id="-392025" lat="58.8972888861" lon="6.00147778055">
		<tag k="man_made" v="quay" />
		<tag k="name" v="Prestabrygga" />
		<tag k="place" v="locality" />
		<tag k="ssr:stedsnr" v="343140" />
	</node>
	<node id="-392518" lat="58.9329222223" lon="5.87463889735">
		<tag k="bridge" v="yes" />
		<tag k="layer" v="1" />
		<tag k="loc_name" v="Hetland bru" />
		<tag k="name" v="Hetland Nedre" />
		<tag k="ssr:stedsnr" v="168357" />
	</node>
	<node id="-392517" lat="58.7905777773" lon="5.80493611465">
		<tag k="bridge" v="yes" />
		<tag k="layer" v="1" />
		<tag k="name" v="Figgjo Nedre" />
		<tag k="ssr:stedsnr" v="168350" />
	</node>
	<node id="-392516" lat="58.8398777743" lon="5.74066944835">
		<tag k="bridge" v="yes" />
		<tag k="layer" v="1" />
		<tag k="name" v="Prestegårdsvegen" />
		<tag k="ssr:stedsnr" v="168346" />
	</node>
	<node id="-392515" lat="58.8738749962" lon="5.72233056317">
		<tag k="bridge" v="yes" />
		<tag k="layer" v="1" />
		<tag k="name" v="Lurasvingen" />
		<tag k="ssr:stedsnr" v="168338" />
	</node>
	<node id="-392514" lat="58.8555083325" lon="5.71453888832">
		<tag k="bridge" v="yes" />
		<tag k="layer" v="1" />
		<tag k="name" v="Stangeland Skole" />
		<tag k="ssr:stedsnr" v="168330" />
	</node>
	<node id="-392001" lat="58.8596694451" lon="5.66764166518">
		<tag k="name" v="Skas/Heigre-kanalen" />
		<tag k="ssr:stedsnr" v="327278" />
		<tag k="waterway" v="canal" />
	</node>
	<node id="-393006" lat="58.8885138914" lon="5.72944444233">
		<tag k="bridge" v="yes" />
		<tag k="layer" v="1" />
		<tag k="name" v="Forus" />
		<tag k="ssr:stedsnr" v="593325" />
	</node>
	<node id="-393005" lat="58.7878027817" lon="5.80583055649">
		<tag k="bridge" v="yes" />
		<tag k="layer" v="1" />
		<tag k="name" v="Figgjo Kanal" />
		<tag k="ssr:stedsnr" v="593316" />
	</node>
	<node id="-393512" lat="58.871858337" lon="5.95981667419">
		<tag k="highway" v="path" />
		<tag k="name" v="Revastien" />
		<tag k="ssr:stedsnr" v="872071" />
	</node>
	<node id="-393500" lat="58.7948333292" lon="5.77775834071">
		<tag k="name" v="Bråstein" />
		<tag k="railway" v="station" />
		<tag k="ssr:stedsnr" v="851901" />
		<tag k="train" v="yes" />
	</node>
	<node id="-393468" lat="58.8839499979" lon="6.01217499974">
		<tag k="bridge" v="yes" />
		<tag k="layer" v="1" />
		<tag k="name" v="Nedre Gjesteland" />
		<tag k="ssr:stedsnr" v="836315" />
	</node>
	<node id="-393467" lat="58.8371249971" lon="5.72248056259">
		<tag k="bridge" v="yes" />
		<tag k="layer" v="1" />
		<tag k="name" v="Sandvedlunden" />
		<tag k="ssr:stedsnr" v="836294" />
	</node>
	<node id="-393466" lat="58.8622027788" lon="5.84621944449">
		<tag k="bridge" v="yes" />
		<tag k="layer" v="1" />
		<tag k="name" v="Naudaneset" />
		<tag k="ssr:stedsnr" v="836292" />
	</node>
	<node id="-393465" lat="58.8356388895" lon="5.74226388289">
		<tag k="bridge" v="yes" />
		<tag k="layer" v="1" />
		<tag k="name" v="Myrland" />
		<tag k="ssr:stedsnr" v="836290" />
	</node>
	<node id="-393454" lat="58.8468944443" lon="5.76333332737">
		<tag k="layer" v="-1" />
		<tag k="name" v="Austråttunnelen" />
		<tag k="ssr:stedsnr" v="815252" />
		<tag k="tunnel" v="yes" />
	</node>
	<node id="-391915" lat="58.8361111123" lon="5.73931388167">
		<tag k="bridge" v="yes" />
		<tag k="layer" v="1" />
		<tag k="name" v="Hovemarka" />
		<tag k="ssr:stedsnr" v="290335" />
	</node>
	<node id="-391914" lat="58.8192583372" lon="5.76306388115">
		<tag k="bridge" v="yes" />
		<tag k="layer" v="1" />
		<tag k="name" v="Bråsteinkanal" />
		<tag k="ssr:stedsnr" v="290331" />
	</node>
	<node id="-391913" lat="58.8942388911" lon="6.05520833363">
		<tag k="amenity" v="ferry_terminal" />
		<tag k="name" v="Lauvvik ferjekai" />
		<tag k="ssr:stedsnr" v="290325" />
	</node>
	<node id="-391912" lat="58.7887444468" lon="5.81139444707">
		<tag k="bridge" v="yes" />
		<tag k="layer" v="1" />
		<tag k="name" v="Håland (Nordre)" />
		<tag k="ssr:stedsnr" v="290323" />
	</node>
	<node id="-392909" lat="58.9303361079" lon="5.8481166606">
		<tag k="man_made" v="quay" />
		<tag k="name" v="Hommersåk kai" />
		<tag k="place" v="locality" />
		<tag k="ssr:stedsnr" v="532346" />
	</node>
	<node id="-392908" lat="58.8236388923" lon="5.88124722974">
		<tag k="bridge" v="yes" />
		<tag k="layer" v="1" />
		<tag k="name" v="Hetland (Øvre)" />
		<tag k="ssr:stedsnr" v="532339" />
	</node>
	<node id="-392907" lat="58.8337166697" lon="5.7414222135">
		<tag k="bridge" v="yes" />
		<tag k="layer" v="1" />
		<tag k="name" v="Høyland" />
		<tag k="ssr:stedsnr" v="532323" />
	</node>
	<node id="-392389" lat="58.8368000026" lon="5.83767499484">
		<tag k="bridge" v="yes" />
		<tag k="layer" v="1" />
		<tag k="name" v="Foss Vatne" />
		<tag k="ssr:stedsnr" v="108366" />
	</node>
	<node id="-392388" lat="58.8964361142" lon="5.99960277161">
		<tag k="bridge" v="yes" />
		<tag k="layer" v="1" />
		<tag k="name" v="Høleåna" />
		<tag k="ssr:stedsnr" v="108362" />
	</node>
	<node id="-392387" lat="58.8706027798" lon="5.74279166022">
		<tag k="bridge" v="yes" />
		<tag k="layer" v="1" />
		<tag k="name" v="Somanes" />
		<tag k="ssr:stedsnr" v="108345" />
	</node>
	<node id="-392386" lat="58.8517972228" lon="5.77008888363">
		<tag k="bridge" v="yes" />
		<tag k="layer" v="1" />
		<tag k="name" v="Myrå" />
		<tag k="ssr:stedsnr" v="108341" />
	</node>
	<node id="-392897" lat="58.8277111088" lon="5.67690555528">
		<tag k="alt_name" v="Todneim Raugstad-kanalen" />
		<tag k="name" v="Todnheim Raugstad-kanalen" />
		<tag k="ssr:stedsnr" v="510806" />
		<tag k="waterway" v="canal" />
	</node>
	<node id="-392880" lat="58.8734722261" lon="5.69262777148">
		<tag k="name" v="Soma/Bæreim-kanalen" />
		<tag k="ssr:stedsnr" v="509313" />
		<tag k="waterway" v="canal" />
	</node>
	<node id="-393119" lat="58.8469527741" lon="5.73449167286">
		<tag k="name" v="Skeiane stasjon" />
		<tag k="railway" v="station" />
		<tag k="ssr:stedsnr" v="632043" />
		<tag k="train" v="yes" />
	</node>
	<node id="-392849" lat="58.8757916682" lon="5.95667222325">
		<tag k="highway" v="path" />
		<tag k="name" v="Renkestien" />
		<tag k="ssr:stedsnr" v="508077" />
	</node>
	<node id="-393347" lat="58.8220777821" lon="5.71709443879">
		<tag k="bridge" v="yes" />
		<tag k="layer" v="1" />
		<tag k="name" v="Ganddal" />
		<tag k="ssr:stedsnr" v="775328" />
	</node>
	<node id="-393346" lat="58.8869777764" lon="5.85785833847">
		<tag k="bridge" v="yes" />
		<tag k="layer" v="1" />
		<tag k="loc_name" v="Hogstad bru" />
		<tag k="name" v="Bergura" />
		<tag k="ssr:stedsnr" v="775323" />
	</node>
	<node id="-393345" lat="58.8625305521" lon="5.71143889551">
		<tag k="bridge" v="yes" />
		<tag k="layer" v="1" />
		<tag k="name" v="Smeaheia Vest" />
		<tag k="ssr:stedsnr" v="775314" />
	</node>
	<node id="-393344" lat="58.8276805522" lon="5.73879445144">
		<tag k="bridge" v="yes" />
		<tag k="layer" v="1" />
		<tag k="name" v="Høylandsåna" />
		<tag k="ssr:stedsnr" v="775309" />
	</node>
	<node id="-392127" lat="58.8412083303" lon="5.73893610531">
		<tag k="bridge" v="yes" />
		<tag k="layer" v="1" />
		<tag k="name" v="Austrått" />
		<tag k="ssr:stedsnr" v="411339" />
	</node>
	<node id="-392810" lat="58.7813861094" lon="5.8254138852">
		<tag k="bridge" v="yes" />
		<tag k="layer" v="1" />
		<tag k="name" v="Figgjoelven" />
		<tag k="ssr:stedsnr" v="472338" />
	</node>
	<node id="-392809" lat="58.881272222" lon="6.00685555779">
		<tag k="bridge" v="yes" />
		<tag k="layer" v="1" />
		<tag k="name" v="Øvre Gjesteland" />
		<tag k="ssr:stedsnr" v="472336" />
	</node>
	<node id="-392808" lat="58.8580416643" lon="5.70933889453">
		<tag k="bridge" v="yes" />
		<tag k="layer" v="1" />
		<tag k="name" v="Austvollkrysset" />
		<tag k="ssr:stedsnr" v="472334" />
	</node>
	<node id="-392807" lat="58.8798888871" lon="5.74288888537">
		<tag k="bridge" v="yes" />
		<tag k="layer" v="1" />
		<tag k="name" v="Askeladdveien" />
		<tag k="ssr:stedsnr" v="472330" />
	</node>
	<node id="-392806" lat="58.8628083377" lon="5.92867499826">
		<tag k="bridge" v="yes" />
		<tag k="layer" v="1" />
		<tag k="name" v="Osaland" />
		<tag k="ssr:stedsnr" v="472325" />
	</node>
	<node id="-392805" lat="58.8375749979" lon="5.73344721403">
		<tag k="bridge" v="yes" />
		<tag k="layer" v="1" />
		<tag k="name" v="Kvelluren" />
		<tag k="ssr:stedsnr" v="472322" />
	</node>
	<node id="-392804" lat="58.8347083337" lon="5.97566943832">
		<tag k="bridge" v="yes" />
		<tag k="layer" v="1" />
		<tag k="name" v="Nordland" />
		<tag k="ssr:stedsnr" v="472323" />
	</node>
	<node id="-392803" lat="58.8174027746" lon="5.70474722341">
		<tag k="bridge" v="yes" />
		<tag k="layer" v="1" />
		<tag k="name" v="Lunde" />
		<tag k="ssr:stedsnr" v="472315" />
	</node>
	<node id="-392802" lat="58.8363555533" lon="5.7404166684">
		<tag k="bridge" v="yes" />
		<tag k="layer" v="1" />
		<tag k="name" v="Ålgårdsveien" />
		<tag k="ssr:stedsnr" v="472308" />
	</node>
	<node id="-393316" lat="58.8117611092" lon="5.7709111191">
		<tag k="name" v="Bråsteinkanalen" />
		<tag k="ssr:stedsnr" v="752593" />
		<tag k="waterway" v="canal" />
	</node>
	<node id="-392269" lat="58.8216111138" lon="5.75574165784">
		<tag k="bridge" v="yes" />
		<tag k="layer" v="1" />
		<tag k="name" v="Bogafjell" />
		<tag k="ssr:stedsnr" v="47353" />
	</node>
	<node id="-392268" lat="58.8416222247" lon="5.72581943579">
		<tag k="bridge" v="yes" />
		<tag k="layer" v="1" />
		<tag k="name" v="Sandskaret" />
		<tag k="ssr:stedsnr" v="47352" />
	</node>
	<node id="-392267" lat="58.8474111091" lon="5.71663888255">
		<tag k="bridge" v="yes" />
		<tag k="layer" v="1" />
		<tag k="name" v="Skeiane" />
		<tag k="ssr:stedsnr" v="47346" />
	</node>
	<node id="-392266" lat="58.7844472225" lon="5.82327500362">
		<tag k="bridge" v="yes" />
		<tag k="layer" v="1" />
		<tag k="name" v="Håland (Søndre)" />
		<tag k="ssr:stedsnr" v="47343" />
	</node>
	<node id="-392265" lat="58.8290472201" lon="5.72498888403">
		<tag k="bridge" v="yes" />
		<tag k="layer" v="1" />
		<tag k="name" v="Lundehaugen" />
		<tag k="ssr:stedsnr" v="47340" />
	</node>
	<node id="-392264" lat="58.8474444471" lon="5.73671666211">
		<tag k="bridge" v="yes" />
		<tag k="layer" v="1" />
		<tag k="name" v="Storåna" />
		<tag k="ssr:stedsnr" v="47332" />
	</node>
	<node id="-392263" lat="58.8433250012" lon="5.7588499934">
		<tag k="layer" v="-1" />
		<tag k="name" v="Austrått" />
		<tag k="ssr:stedsnr" v="44076" />
		<tag k="tunnel" v="yes" />
	</node>
	<node id="-392238" lat="58.841588889" lon="5.69171111264">
		<tag k="junction" v="yes" />
		<tag k="name" v="Vadet" />
		<tag k="place" v="locality" />
		<tag k="ssr:stedsnr" v="24260" />
	</node>
	<node id="-393231" lat="58.8585888925" lon="5.7115277773">
		<tag k="bridge" v="yes" />
		<tag k="layer" v="1" />
		<tag k="name" v="Stangeland" />
		<tag k="ssr:stedsnr" v="715372" />
	</node>
	<node id="-393230" lat="58.8486805576" lon="5.71946944352">
		<tag k="bridge" v="yes" />
		<tag k="layer" v="1" />
		<tag k="name" v="Vårveien" />
		<tag k="ssr:stedsnr" v="715353" />
	</node>
	<node id="-392706" lat="58.8521638889" lon="5.7371833382">
		<tag k="highway" v="bus_stop" />
		<tag k="name" v="Sandnes rutebilstasjon" />
		<tag k="ssr:stedsnr" v="422672" />
	</node>
</osm>
