<?xml version="1.0" encoding="UTF-8"?>
<osm generator="osmapis" version="0.6">
	<node id="-392696" lat="58.8677972237" lon="5.75944721873">
		<tag k="alt_name" v="Asparvika" />
		<tag k="name" v="Aspervika" />
		<tag k="natural" v="bay" />
		<tag k="ssr:stedsnr" v="266683" />
	</node>
	<node id="-393206" lat="58.8737527747" lon="5.74176111232">
		<tag k="name" v="Luravika" />
		<tag k="natural" v="bay" />
		<tag k="ssr:stedsnr" v="691678" />
	</node>
	<node id="-392176" lat="58.9499388864" lon="5.93765278569">
		<tag k="name" v="Ramsviga" />
		<tag k="natural" v="bay" />
		<tag k="ssr:stedsnr" v="798" />
	</node>
	<node id="-392687" lat="58.9004888861" lon="5.77390278192">
		<tag k="name" v="Nidle" />
		<tag k="natural" v="cape" />
		<tag k="ssr:stedsnr" v="266236" />
	</node>
	<node id="-392103" lat="58.9366888878" lon="5.85001945132">
		<tag k="name" v="Hestvigflua" />
		<tag k="place" v="locality" />
		<tag k="seamark:type" v="rock" />
		<tag k="ssr:stedsnr" v="388601" />
	</node>
	<node id="-392102" lat="58.9051138904" lon="5.96602778301">
		<tag k="name" v="Hølen" />
		<tag k="natural" v="bay" />
		<tag k="ssr:stedsnr" v="388598" />
	</node>
	<node id="-392669" lat="58.9477583332" lon="5.93285554704">
		<tag k="name" v="Asalvik" />
		<tag k="natural" v="bay" />
		<tag k="ssr:stedsnr" v="265130" />
	</node>
	<node id="-393179" lat="58.953027781" lon="5.84009443763">
		<tag k="name" v="Mannholmen" />
		<tag k="place" v="islet" />
		<tag k="ssr:stedsnr" v="690103" />
	</node>
	<node id="-392665" lat="58.966277775" lon="5.87011111667">
		<tag k="name" v="Brattholmsundet" />
		<tag k="natural" v="strait" />
		<tag k="ssr:stedsnr" v="265105" />
	</node>
	<node id="-393174" lat="58.9176861102" lon="5.99303889472">
		<tag k="name" v="Suggeneset" />
		<tag k="natural" v="cape" />
		<tag k="ssr:stedsnr" v="690039" />
	</node>
	<node id="-392661" lat="58.9022505974" lon="5.97332889861">
		<tag k="name" v="Kleivabukta" />
		<tag k="natural" v="bay" />
		<tag k="ssr:stedsnr" v="265065" />
	</node>
	<node id="-392658" lat="58.9151055537" lon="5.96756944588">
		<tag k="name" v="Urnes" />
		<tag k="natural" v="cape" />
		<tag k="ssr:stedsnr" v="265037" />
	</node>
	<node id="-392657" lat="58.9257499965" lon="5.99040277025">
		<tag k="name" v="Goviknes" />
		<tag k="natural" v="cape" />
		<tag k="ssr:stedsnr" v="265032" />
	</node>
	<node id="-392656" lat="58.9582583327" lon="5.90293333315">
		<tag k="name" v="Nausterviga" />
		<tag k="natural" v="bay" />
		<tag k="ssr:stedsnr" v="265004" />
	</node>
	<node id="-393208" lat="58.8785694475" lon="5.7708638942">
		<tag k="name" v="Strondavika" />
		<tag k="natural" v="bay" />
		<tag k="ssr:stedsnr" v="691683" />
	</node>
	<node id="-393160" lat="58.9561166637" lon="5.90962777583">
		<tag k="name" v="Grunnasundsholmen" />
		<tag k="place" v="islet" />
		<tag k="ssr:stedsnr" v="668819" />
	</node>
	<node id="-393159" lat="58.9678027804" lon="5.88814167335">
		<tag k="name" v="Strålaus" />
		<tag k="place" v="islet" />
		<tag k="ssr:stedsnr" v="668787" />
	</node>
	<node id="-392646" lat="58.918341664" lon="5.96963610392">
		<tag k="name" v="Eskelandsholmane" />
		<tag k="place" v="islet" />
		<tag k="ssr:stedsnr" v="244738" />
	</node>
	<node id="-393157" lat="58.9678833326" lon="5.87090556061">
		<tag k="name" v="Brattholmen" />
		<tag k="place" v="islet" />
		<tag k="ssr:stedsnr" v="668783" />
	</node>
	<node id="-392644" lat="58.9497138875" lon="5.82300278058">
		<tag k="name" v="Uskjo" />
		<tag k="place" v="island" />
		<tag k="ssr:stedsnr" v="244050" />
	</node>
	<node id="-393155" lat="58.915422219" lon="5.99171943737">
		<tag k="name" v="Foreholmen" />
		<tag k="place" v="islet" />
		<tag k="ssr:stedsnr" v="668762" />
	</node>
	<node id="-392639" lat="58.9555194418" lon="5.91728056129">
		<tag k="name" v="Kobbholmen" />
		<tag k="place" v="islet" />
		<tag k="ssr:stedsnr" v="243807" />
	</node>
	<node id="-392633" lat="58.9314486281" lon="5.78677507884">
		<tag k="name" v="Sandviga" />
		<tag k="natural" v="bay" />
		<tag k="ssr:stedsnr" v="243006" />
	</node>
	<node id="-393656" lat="58.9132861152" lon="5.98876389046">
		<tag k="name" v="Kattaflua" />
		<tag k="place" v="locality" />
		<tag k="seamark:type" v="rock" />
		<tag k="ssr:stedsnr" v="936622" />
	</node>
	<node id="-392118" lat="58.9379083361" lon="5.82608888702">
		<tag k="name" v="Nova" />
		<tag k="natural" v="cape" />
		<tag k="ssr:stedsnr" v="403954" />
	</node>
	<node id="-392628" lat="58.8984500023" lon="5.77472499627">
		<tag k="alt_name" v="Daleviki;Dalsvågen" />
		<tag k="name" v="Dalevika" />
		<tag k="natural" v="bay" />
		<tag k="ssr:stedsnr" v="240139" />
	</node>
	<node id="-393133" lat="58.8894944458" lon="6.06590277242">
		<tag k="alt_name" v="Grasvik" />
		<tag k="name" v="Grasvig" />
		<tag k="natural" v="bay" />
		<tag k="ssr:stedsnr" v="663724" />
	</node>
	<node id="-393127" lat="58.9488535219" lon="5.79169298756">
		<tag k="name" v="Ligrunnen" />
		<tag k="natural" v="shoal" />
		<tag k="place" v="locality" />
		<tag k="ssr:stedsnr" v="647346" />
	</node>
	<node id="-392614" lat="58.9581888884" lon="5.8369777854">
		<tag k="name" v="Nordre Kasteviga" />
		<tag k="natural" v="bay" />
		<tag k="ssr:stedsnr" v="207615" />
	</node>
	<node id="-392613" lat="58.898788887" lon="6.00304999503">
		<tag k="name" v="Selesviga" />
		<tag k="natural" v="bay" />
		<tag k="ssr:stedsnr" v="207610" />
	</node>
	<node id="-393114" lat="58.8632805532" lon="5.7541805588">
		<tag k="name" v="Lauvvik" />
		<tag k="natural" v="bay" />
		<tag k="ssr:stedsnr" v="631756" />
	</node>
	<node id="-393455" lat="58.9131638914" lon="5.98356111267">
		<tag k="name" v="Imsaflua" />
		<tag k="place" v="locality" />
		<tag k="seamark:type" v="rock" />
		<tag k="ssr:stedsnr" v="815605" />
	</node>
	<node id="-393284" lat="58.938163892" lon="5.96461666979">
		<tag k="name" v="Erevik" />
		<tag k="natural" v="bay" />
		<tag k="ssr:stedsnr" v="751094" />
	</node>
	<node id="-392597" lat="58.8570833297" lon="5.75156943979">
		<tag k="name" v="Rovika" />
		<tag k="natural" v="bay" />
		<tag k="ssr:stedsnr" v="206639" />
	</node>
	<node id="-393611" lat="58.9616472248" lon="5.84383332936">
		<tag k="name" v="Nordre Kastevika" />
		<tag k="natural" v="bay" />
		<tag k="ssr:stedsnr" v="933117" />
	</node>
	<node id="-392071" lat="58.9649444489" lon="5.89059999755">
		<tag k="name" v="Storevågen" />
		<tag k="natural" v="bay" />
		<tag k="ssr:stedsnr" v="386129" />
	</node>
	<node id="-392070" lat="58.9547444429" lon="5.91585833563">
		<tag k="name" v="Store Langholmen" />
		<tag k="place" v="islet" />
		<tag k="ssr:stedsnr" v="386116" />
	</node>
	<node id="-392068" lat="58.9309833371" lon="5.98375276945">
		<tag k="name" v="Lauvvigholmen" />
		<tag k="place" v="islet" />
		<tag k="ssr:stedsnr" v="386091" />
	</node>
	<node id="-392067" lat="58.9294999975" lon="5.98207221606">
		<tag k="name" v="Lauvik" />
		<tag k="natural" v="bay" />
		<tag k="ssr:stedsnr" v="386089" />
	</node>
	<node id="-393601" lat="58.9252222256" lon="5.9756388957">
		<tag k="name" v="Ersvik" />
		<tag k="natural" v="bay" />
		<tag k="ssr:stedsnr" v="933043" />
	</node>
	<node id="-392064" lat="58.9229777787" lon="5.97051943593">
		<tag k="name" v="Notaberget" />
		<tag k="natural" v="cape" />
		<tag k="ssr:stedsnr" v="386042" />
	</node>
	<node id="-392063" lat="58.9257027788" lon="5.98944721851">
		<tag k="name" v="Govik" />
		<tag k="natural" v="bay" />
		<tag k="ssr:stedsnr" v="386038" />
	</node>
	<node id="-392085" lat="58.887052782" lon="5.77343332668">
		<tag k="name" v="Store Holmen" />
		<tag k="place" v="islet" />
		<tag k="ssr:stedsnr" v="387243" />
	</node>
	<node id="-392308" lat="58.9676611076" lon="5.89213056223">
		<tag k="loc_name" v="Store Vierneset" />
		<tag k="name" v="Stora Vierneset" />
		<tag k="natural" v="cape" />
		<tag k="ssr:stedsnr" v="62764" />
	</node>
	<node id="-392564" lat="58.9559583376" lon="5.9085277765">
		<tag k="name" v="Grunnasundet" />
		<tag k="natural" v="strait" />
		<tag k="ssr:stedsnr" v="205123" />
	</node>
	<node id="-392851" lat="58.9597055518" lon="5.83696666105">
		<tag k="name" v="Grunnasundet" />
		<tag k="natural" v="strait" />
		<tag k="ssr:stedsnr" v="508111" />
	</node>
	<node id="-393448" lat="58.9666472217" lon="5.88927499636">
		<tag k="name" v="Litla Vierneset" />
		<tag k="natural" v="cape" />
		<tag k="ssr:stedsnr" v="814668" />
	</node>
	<node id="-392558" lat="58.9240722196" lon="5.97521111293">
		<tag k="name" v="Ersholmen" />
		<tag k="place" v="islet" />
		<tag k="ssr:stedsnr" v="205041" />
	</node>
	<node id="-392557" lat="58.9173638869" lon="5.99008333353">
		<tag k="name" v="Skjerpesundet" />
		<tag k="natural" v="strait" />
		<tag k="ssr:stedsnr" v="205039" />
	</node>
	<node id="-393068" lat="58.9539166705" lon="5.91941943723">
		<tag k="name" v="Loddervikneset" />
		<tag k="natural" v="cape" />
		<tag k="ssr:stedsnr" v="629102" />
	</node>
	<node id="-393061" lat="58.927238885" lon="5.98630277065">
		<tag k="name" v="Stora Sundtangen" />
		<tag k="natural" v="cape" />
		<tag k="ssr:stedsnr" v="629048" />
	</node>
	<node id="-392545" lat="58.9244888902" lon="5.99784444006">
		<tag k="name" v="Skjølsviga" />
		<tag k="natural" v="bay" />
		<tag k="ssr:stedsnr" v="183711" />
	</node>
	<node id="-392541" lat="58.9046683839" lon="5.97224865713">
		<tag k="alt_name" v="Imsabukta" />
		<tag k="name" v="Imsavika" />
		<tag k="natural" v="bay" />
		<tag k="ssr:stedsnr" v="183617" />
	</node>
	<node id="-393564" lat="58.9545900958" lon="5.83853933066">
		<tag k="name" v="Sluppen" />
		<tag k="natural" v="bay" />
		<tag k="ssr:stedsnr" v="911059" />
	</node>
	<node id="-393562" lat="58.9386003523" lon="5.7863639504">
		<tag k="name" v="Håtangen" />
		<tag k="natural" v="cape" />
		<tag k="ssr:stedsnr" v="911009" />
	</node>
	<node id="-393560" lat="58.9162329614" lon="5.99432805986">
		<tag k="name" v="Husabøvågen" />
		<tag k="natural" v="bay" />
		<tag k="ssr:stedsnr" v="909890" />
	</node>
	<node id="-392535" lat="58.9526916692" lon="5.92535556206">
		<tag k="name" v="Breivig" />
		<tag k="natural" v="bay" />
		<tag k="ssr:stedsnr" v="183214" />
	</node>
	<node id="-392534" lat="58.9535735558" lon="5.80350360939">
		<tag k="alt_name" v="Uskjaklubben" />
		<tag k="name" v="Uskaklubben" />
		<tag k="natural" v="cape" />
		<tag k="ssr:stedsnr" v="183043" />
	</node>
	<node id="-392505" lat="58.9339222208" lon="5.84347500625">
		<tag k="loc_name" v="Holsundet" />
		<tag k="name" v="Holmsundet" />
		<tag k="natural" v="strait" />
		<tag k="ssr:stedsnr" v="160766" />
	</node>
	<node id="-393556" lat="58.9323277765" lon="5.84858888046">
		<tag k="alt_name" v="Hommarsåkvågen" />
		<tag k="name" v="Hommersåkvågen" />
		<tag k="natural" v="bay" />
		<tag k="ssr:stedsnr" v="902720" />
	</node>
	<node id="-393555" lat="58.9312472246" lon="5.83770555221">
		<tag k="fixme" v="consider seamark:type=rock or natural=shoal" />
		<tag k="loc_name" v="Breiviksholmen" />
		<tag k="name" v="Breivigsholmen" />
		<tag k="place" v="islet" />
		<tag k="ssr:stedsnr" v="875598" />
	</node>
	<node id="-392530" lat="58.9422830929" lon="5.85369742436">
		<tag k="name" v="Skjølviga" />
		<tag k="natural" v="bay" />
		<tag k="ssr:stedsnr" v="182780" />
	</node>
	<node id="-393041" lat="58.9127027797" lon="6.02209445158">
		<tag k="name" v="Ådnøy" />
		<tag k="place" v="island" />
		<tag k="ssr:stedsnr" v="607736" />
	</node>
	<node id="-392527" lat="58.9155083355" lon="5.97907222041">
		<tag k="alt_name" v="Hølefjorden" />
		<tag k="bay" v="fjord" />
		<tag k="name" v="Hølen" />
		<tag k="natural" v="bay" />
		<tag k="ssr:stedsnr" v="182627" />
	</node>
	<node id="-393125" lat="58.9653811837" lon="5.87698740837">
		<tag k="loc_name" v="Urviga" />
		<tag k="name" v="Urdvika" />
		<tag k="natural" v="bay" />
		<tag k="ssr:stedsnr" v="646927" />
	</node>
	<node id="-393034" lat="58.8832776697" lon="6.06796353251">
		<tag k="loc_name" v="Selvigsvågen" />
		<tag k="name" v="Selvigvågen" />
		<tag k="natural" v="bay" />
		<tag k="ssr:stedsnr" v="607660" />
	</node>
	<node id="-393543" lat="58.8695111093" lon="5.76078056053">
		<tag k="name" v="Søre Bogsteinen" />
		<tag k="natural" v="cape" />
		<tag k="ssr:stedsnr" v="873656" />
	</node>
	<node id="-392512" lat="58.9422027786" lon="5.83696388463">
		<tag k="loc_name" v="Uskaviga" />
		<tag k="name" v="Uskavika" />
		<tag k="natural" v="bay" />
		<tag k="ssr:stedsnr" v="161934" />
	</node>
	<node id="-392511" lat="58.9495472203" lon="5.84634166997">
		<tag k="name" v="Håbekk" />
		<tag k="natural" v="cape" />
		<tag k="ssr:stedsnr" v="161928" />
	</node>
	<node id="-392509" lat="58.9059055526" lon="6.01660555263">
		<tag k="name" v="Kvitaneset" />
		<tag k="natural" v="cape" />
		<tag k="ssr:stedsnr" v="161910" />
	</node>
	<node id="-393529" lat="58.9568138907" lon="5.81129166995">
		<tag k="alt_name" v="Leirvågtangen" />
		<tag k="name" v="Leirvågstangen" />
		<tag k="natural" v="cape" />
		<tag k="ssr:stedsnr" v="873005" />
	</node>
	<node id="-392501" lat="58.9527666628" lon="5.83573333175">
		<tag k="name" v="Søre Kasteviga" />
		<tag k="natural" v="bay" />
		<tag k="ssr:stedsnr" v="268638" />
	</node>
	<node id="-393009" lat="58.9211861095" lon="6.00972777762">
		<tag k="name" v="Austra Vigå" />
		<tag k="natural" v="bay" />
		<tag k="ssr:stedsnr" v="602730" />
	</node>
	<node id="-392496" lat="58.9321980448" lon="5.84218326655">
		<tag k="name" v="Ulsneset" />
		<tag k="natural" v="cape" />
		<tag k="ssr:stedsnr" v="146596" />
	</node>
	<node id="-393516" lat="58.9653111092" lon="5.89317500718">
		<tag k="alt_name" v="Litla Viervågen" />
		<tag k="loc_name" v="Litle Viervågen" />
		<tag k="name" v="Litlevågen" />
		<tag k="natural" v="bay" />
		<tag k="ssr:stedsnr" v="872122" />
	</node>
	<node id="-392491" lat="58.8815861125" lon="5.76958055781">
		<tag k="name" v="Dyrnesodden" />
		<tag k="natural" v="cape" />
		<tag k="ssr:stedsnr" v="145681" />
	</node>
	<node id="-393001" lat="58.9169537522" lon="6.02137866534">
		<tag k="name" v="Jektarauå" />
		<tag k="natural" v="cape" />
		<tag k="ssr:stedsnr" v="585901" />
	</node>
	<node id="-392497" lat="58.9556928535" lon="5.8472245103">
		<tag k="name" v="Tøget" />
		<tag k="natural" v="cape" />
		<tag k="ssr:stedsnr" v="146621" />
	</node>
	<node id="-391972" lat="58.9540555593" lon="5.93905834155">
		<tag k="name" v="Slettnesvik" />
		<tag k="natural" v="bay" />
		<tag k="ssr:stedsnr" v="326102" />
	</node>
	<node id="-391961" lat="58.9233861096" lon="5.98371111495">
		<tag k="name" v="Prestasetet" />
		<tag k="natural" v="cape" />
		<tag k="ssr:stedsnr" v="326034" />
	</node>
	<node id="-391960" lat="58.9203277739" lon="5.98728888573">
		<tag k="name" v="Sleggeberget" />
		<tag k="natural" v="cape" />
		<tag k="ssr:stedsnr" v="326033" />
	</node>
	<node id="-393348" lat="58.9653638927" lon="5.88868056298">
		<tag k="name" v="Store Viervågen" />
		<tag k="natural" v="bay" />
		<tag k="ssr:stedsnr" v="783480" />
	</node>
	<node id="-393262" lat="58.9501987949" lon="5.84267868265">
		<tag k="name" v="Uskasundet" />
		<tag k="natural" v="strait" />
		<tag k="ssr:stedsnr" v="729805" />
	</node>
	<node id="-393603" lat="58.9072790698" lon="5.97103998495">
		<tag k="name" v="Habn" />
		<tag k="natural" v="bay" />
		<tag k="ssr:stedsnr" v="933046" />
	</node>
	<node id="-393487" lat="58.908666664" lon="5.77589444683">
		<tag k="alt_name" v="Breidvika" />
		<tag k="name" v="Breivika" />
		<tag k="natural" v="bay" />
		<tag k="old_name" v="Breidvik" />
		<tag k="ssr:stedsnr" v="850966" />
	</node>
	<node id="-391949" lat="58.9607769305" lon="5.90572993171">
		<tag k="name" v="Store Nausterholmen" />
		<tag k="place" v="islet" />
		<tag k="ssr:stedsnr" v="304825" />
	</node>
	<node id="-392022" lat="58.866474412" lon="5.75320517094">
		<tag k="alt_name" v="Asparmyrbåen" />
		<tag k="name" v="Aspermyrbåen" />
		<tag k="place" v="locality" />
		<tag k="seamark:type" v="rock" />
		<tag k="ssr:stedsnr" v="342417" />
	</node>
	<node id="-391944" lat="58.9709305917" lon="5.85853326555">
		<tag k="name" v="Litle Teistholmen" />
		<tag k="place" v="islet" />
		<tag k="ssr:stedsnr" v="304788" />
	</node>
	<node id="-391943" lat="58.9609922515" lon="5.89963004467">
		<tag k="alt_name" v="Djubevika" />
		<tag k="loc_name" v="Djubeviga" />
		<tag k="name" v="Djupevika" />
		<tag k="natural" v="bay" />
		<tag k="ssr:stedsnr" v="304773" />
	</node>
	<node id="-391942" lat="58.9249055556" lon="6.00069165935">
		<tag k="name" v="Måganeset" />
		<tag k="natural" v="cape" />
		<tag k="ssr:stedsnr" v="304740" />
	</node>
	<node id="-392451" lat="58.9463555556" lon="5.83902222297">
		<tag k="loc_name" v="Nodaviga" />
		<tag k="name" v="Nodavika" />
		<tag k="natural" v="bay" />
		<tag k="ssr:stedsnr" v="144147" />
	</node>
	<node id="-393003" lat="58.947758333" lon="5.84586389503">
		<tag k="name" v="Djubevikodden" />
		<tag k="natural" v="cape" />
		<tag k="ssr:stedsnr" v="585930" />
	</node>
	<node id="-392448" lat="58.9547500028" lon="5.93243889582">
		<tag k="name" v="Slettnes" />
		<tag k="natural" v="cape" />
		<tag k="ssr:stedsnr" v="144127" />
	</node>
	<node id="-393469" lat="58.8883111122" lon="5.77469721444">
		<tag k="name" v="Litle Holmen" />
		<tag k="place" v="islet" />
		<tag k="ssr:stedsnr" v="847177" />
	</node>
	<node id="-393464" lat="58.8902222192" lon="5.76300277232">
		<tag k="alt_name" v="Gandafjorden" />
		<tag k="bay" v="fjord" />
		<tag k="name" v="Gandsfjorden" />
		<tag k="natural" v="bay" />
		<tag k="old_name" v="Gansfjorden" />
		<tag k="ssr:stedsnr" v="830968" />
	</node>
	<node id="-391927" lat="58.9316629986" lon="5.7994183876">
		<tag k="name" v="Grødvig" />
		<tag k="natural" v="bay" />
		<tag k="ssr:stedsnr" v="304007" />
	</node>
	<node id="-392950" lat="58.9412138913" lon="5.8517138973">
		<tag k="name" v="Skjølvikneset" />
		<tag k="natural" v="cape" />
		<tag k="ssr:stedsnr" v="568126" />
	</node>
	<node id="-393461" lat="58.9089916634" lon="6.00852499779">
		<tag k="name" v="Stokkurvik" />
		<tag k="natural" v="bay" />
		<tag k="ssr:stedsnr" v="829919" />
	</node>
	<node id="-393460" lat="58.9145749996" lon="6.02343332909">
		<tag k="name" v="Stronnå" />
		<tag k="natural" v="beach" />
		<tag k="place" v="locality" />
		<tag k="ssr:stedsnr" v="829916" />
	</node>
	<node id="-392440" lat="58.9218666701" lon="5.98699444013">
		<tag k="name" v="Klungvik" />
		<tag k="natural" v="bay" />
		<tag k="ssr:stedsnr" v="144042" />
	</node>
	<node id="-392945" lat="58.953861109" lon="5.91726667122">
		<tag k="name" v="Litle Langholmen" />
		<tag k="place" v="islet" />
		<tag k="ssr:stedsnr" v="568100" />
	</node>
	<node id="-393456" lat="58.9535222203" lon="5.83613332537">
		<tag k="loc_name" v="Jekteviga" />
		<tag k="name" v="Jektavika" />
		<tag k="natural" v="bay" />
		<tag k="ssr:stedsnr" v="828929" />
	</node>
	<node id="-392943" lat="58.9074750017" lon="5.97356944543">
		<tag k="name" v="Godfarneset" />
		<tag k="natural" v="cape" />
		<tag k="ssr:stedsnr" v="568042" />
	</node>
	<node id="-392428" lat="58.9575638921" lon="5.90844444729">
		<tag k="alt_name" v="Tedneholmen" />
		<tag k="name" v="Ternaholmen" />
		<tag k="place" v="islet" />
		<tag k="ssr:stedsnr" v="122806" />
	</node>
	<node id="-392427" lat="58.9551718769" lon="5.86135973497">
		<tag k="name" v="Lauvåsvågen" />
		<tag k="natural" v="bay" />
		<tag k="ssr:stedsnr" v="122794" />
	</node>
	<node id="-392425" lat="58.9356555577" lon="5.97017777242">
		<tag k="name" v="Dreggjaviga" />
		<tag k="natural" v="bay" />
		<tag k="ssr:stedsnr" v="122790" />
	</node>
	<node id="-392424" lat="58.9740708536" lon="5.85505400389">
		<tag k="name" v="Store Teistholmen" />
		<tag k="place" v="islet" />
		<tag k="ssr:stedsnr" v="122773" />
	</node>
	<node id="-393447" lat="58.9559222189" lon="5.85458055709">
		<tag k="name" v="Bikkjeneset" />
		<tag k="natural" v="cape" />
		<tag k="ssr:stedsnr" v="814652" />
	</node>
	<node id="-392422" lat="58.9095111078" lon="5.99258611587">
		<tag k="name" v="Skjeggreiholmen" />
		<tag k="place" v="islet" />
		<tag k="ssr:stedsnr" v="122733" />
	</node>
	<node id="-393445" lat="58.902541665" lon="6.00011943792">
		<tag k="name" v="Kyrkjeflua" />
		<tag k="place" v="locality" />
		<tag k="seamark:type" v="rock" />
		<tag k="ssr:stedsnr" v="814646" />
	</node>
	<node id="-391907" lat="58.9617916648" lon="5.83685555595">
		<tag k="loc_name" v="Kuneset" />
		<tag k="name" v="Kunesodden" />
		<tag k="natural" v="cape" />
		<tag k="ssr:stedsnr" v="282959" />
	</node>
	<node id="-391905" lat="58.9080999994" lon="6.01230000509">
		<tag k="name" v="Nausterneset" />
		<tag k="natural" v="cape" />
		<tag k="ssr:stedsnr" v="282916" />
	</node>
	<node id="-393440" lat="58.8741583373" lon="5.76334722668">
		<tag k="name" v="Nordre Bogsteinen" />
		<tag k="natural" v="cape" />
		<tag k="ssr:stedsnr" v="813684" />
	</node>
	<node id="-391903" lat="58.8654444436" lon="5.74660277736">
		<tag k="name" v="Smedagrunnen" />
		<tag k="natural" v="shoal" />
		<tag k="place" v="locality" />
		<tag k="ssr:stedsnr" v="282471" />
	</node>
	<node id="-393509" lat="58.9031194411" lon="5.97794444812">
		<tag k="name" v="Storekleiv" />
		<tag k="natural" v="cape" />
		<tag k="ssr:stedsnr" v="872060" />
	</node>
	<node id="-393423" lat="58.9202805524" lon="5.77820556237">
		<tag k="name" v="Bjorhamn" />
		<tag k="natural" v="bay" />
		<tag k="ssr:stedsnr" v="813048" />
	</node>
	<node id="-392402" lat="58.9616333358" lon="5.82053054724">
		<tag k="alt_name" v="Langaneset" />
		<tag k="name" v="Langanes" />
		<tag k="natural" v="cape" />
		<tag k="ssr:stedsnr" v="122094" />
	</node>
	<node id="-392401" lat="58.9373888915" lon="5.80415833111">
		<tag k="bay" v="fjord" />
		<tag k="name" v="Riskafjorden" />
		<tag k="natural" v="bay" />
		<tag k="ssr:stedsnr" v="122048" />
	</node>
	<node id="-392399" lat="58.9273910293" lon="5.78048100483">
		<tag k="name" v="Einerneset" />
		<tag k="natural" v="cape" />
		<tag k="ssr:stedsnr" v="121020" />
	</node>
	<node id="-392906" lat="58.9632523289" lon="5.83971001802">
		<tag k="name" v="Nordviga" />
		<tag k="natural" v="bay" />
		<tag k="ssr:stedsnr" v="526254" />
	</node>
	<node id="-392904" lat="58.9651583312" lon="5.86891110682">
		<tag k="loc_name" v="Dueviga" />
		<tag k="name" v="Duevika" />
		<tag k="natural" v="bay" />
		<tag k="ssr:stedsnr" v="525927" />
	</node>
	<node id="-392901" lat="58.8539976182" lon="5.74604611725">
		<tag k="name" v="Vågen" />
		<tag k="natural" v="bay" />
		<tag k="ssr:stedsnr" v="524744" />
	</node>
	<node id="-392895" lat="58.8969888846" lon="6.02230832855">
		<tag k="name" v="Abalstø" />
		<tag k="natural" v="bay" />
		<tag k="ssr:stedsnr" v="510655" />
	</node>
	<node id="-392046" lat="58.9595051926" lon="5.81203736378">
		<tag k="name" v="Snekka" />
		<tag k="place" v="islet" />
		<tag k="ssr:stedsnr" v="365106" />
	</node>
	<node id="-392375" lat="58.9485611087" lon="5.81090000012">
		<tag k="name" v="Storaviga" />
		<tag k="natural" v="bay" />
		<tag k="ssr:stedsnr" v="86625" />
	</node>
	<node id="-393398" lat="58.9592466708" lon="5.86369746586">
		<tag k="name" v="Stølsviga" />
		<tag k="natural" v="bay" />
		<tag k="ssr:stedsnr" v="811109" />
	</node>
	<node id="-393394" lat="58.9373666664" lon="5.97361945272">
		<tag k="name" v="Horpevika" />
		<tag k="natural" v="bay" />
		<tag k="ssr:stedsnr" v="811086" />
	</node>
	<node id="-393672" lat="58.8665690907" lon="5.75389721608">
		<tag k="name" v="Aspernesgrunnen" />
		<tag k="natural" v="shoal" />
		<tag k="place" v="locality" />
		<tag k="ssr:stedsnr" v="973853" />
	</node>
	<node id="-393389" lat="58.9256666652" lon="5.98361667382">
		<tag k="name" v="Litla Sundtangen" />
		<tag k="natural" v="cape" />
		<tag k="ssr:stedsnr" v="811047" />
	</node>
	<node id="-393385" lat="58.9586111104" lon="5.84310000081">
		<tag k="name" v="Uskakalven" />
		<tag k="place" v="island" />
		<tag k="ssr:stedsnr" v="790773" />
	</node>
	<node id="-391926" lat="58.9342170571" lon="5.81983480821">
		<tag k="name" v="Riskaholmane" />
		<tag k="place" v="islet" />
		<tag k="ssr:stedsnr" v="304008" />
	</node>
	<node id="-392356" lat="58.8825861114" lon="5.77173610736">
		<tag k="name" v="Dyrnesvika" />
		<tag k="natural" v="bay" />
		<tag k="ssr:stedsnr" v="84704" />
	</node>
	<node id="-392350" lat="58.8864750024" lon="5.77584167464">
		<tag k="name" v="Holmavika" />
		<tag k="natural" v="bay" />
		<tag k="ssr:stedsnr" v="84224" />
	</node>
	<node id="-392133" lat="58.9258250041" lon="6.05168054839">
		<tag k="name" v="Kløvodden" />
		<tag k="natural" v="cape" />
		<tag k="ssr:stedsnr" v="889909" />
	</node>
	<node id="-392347" lat="58.9460916641" lon="5.81059999792">
		<tag k="name" v="Nova" />
		<tag k="natural" v="cape" />
		<tag k="ssr:stedsnr" v="84204" />
	</node>
	<node id="-392854" lat="58.9371694404" lon="5.85102221602">
		<tag k="name" v="Hestviga" />
		<tag k="natural" v="bay" />
		<tag k="ssr:stedsnr" v="508130" />
	</node>
	<node id="-393365" lat="58.9300833317" lon="5.9947499999">
		<tag k="name" v="Aspøy" />
		<tag k="place" v="island" />
		<tag k="ssr:stedsnr" v="789714" />
	</node>
	<node id="-393070" lat="58.9350888863" lon="5.84349722042">
		<tag k="name" v="Hommersåkholmen" />
		<tag k="place" v="islet" />
		<tag k="ssr:stedsnr" v="629123" />
	</node>
	<node id="-392131" lat="58.8614793987" lon="5.75013300182">
		<tag k="name" v="Lundegrunnen" />
		<tag k="natural" v="shoal" />
		<tag k="place" v="locality" />
		<tag k="ssr:stedsnr" v="889439" />
	</node>
	<node id="-392333" lat="58.951730553" lon="5.91894721685">
		<tag k="alt_name" v="Loddervik;Lådervik" />
		<tag k="loc_name" v="Lodderviga" />
		<tag k="name" v="Lådervig" />
		<tag k="natural" v="bay" />
		<tag k="ssr:stedsnr" v="83105" />
	</node>
	<node id="-392332" lat="58.9575416674" lon="5.86328333542">
		<tag k="loc_name" v="Mortaviga" />
		<tag k="name" v="Mortavika" />
		<tag k="natural" v="bay" />
		<tag k="ssr:stedsnr" v="83095" />
	</node>
	<node id="-392843" lat="58.9063166652" lon="5.77883889019">
		<tag k="name" v="Dalsvågen" />
		<tag k="natural" v="bay" />
		<tag k="ssr:stedsnr" v="486973" />
	</node>
	<node id="-392556" lat="58.9500555557" lon="5.9531111168">
		<tag k="name" v="Kistines" />
		<tag k="natural" v="cape" />
		<tag k="ssr:stedsnr" v="205009" />
	</node>
	<node id="-393350" lat="58.9074611078" lon="5.74482223061">
		<tag k="name" v="Gauselbukta" />
		<tag k="natural" v="bay" />
		<tag k="ssr:stedsnr" v="786138" />
	</node>
	<node id="-393349" lat="58.9439333361" lon="5.85162500263">
		<tag k="name" v="Mynteviga" />
		<tag k="natural" v="bay" />
		<tag k="ssr:stedsnr" v="783483" />
	</node>
	<node id="-392836" lat="58.9374249982" lon="5.97674167361">
		<tag k="name" v="Horpevigneset" />
		<tag k="natural" v="cape" />
		<tag k="ssr:stedsnr" v="486791" />
	</node>
	<node id="-392835" lat="58.9628652473" lon="5.8660102331">
		<tag k="name" v="Vargaviga" />
		<tag k="natural" v="bay" />
		<tag k="ssr:stedsnr" v="486768" />
	</node>
	<node id="-393391" lat="58.9127138919" lon="5.96765554665">
		<tag k="loc_name" v="Holaviga" />
		<tag k="name" v="Holevik" />
		<tag k="natural" v="bay" />
		<tag k="ssr:stedsnr" v="811052" />
	</node>
	<node id="-393343" lat="58.9614611154" lon="5.90381666364">
		<tag k="name" v="Litle Nausterholmen" />
		<tag k="place" v="islet" />
		<tag k="ssr:stedsnr" v="773984" />
	</node>
	<node id="-392315" lat="58.934031305" lon="5.84174054651">
		<tag k="name" v="Nodaberget" />
		<tag k="natural" v="cape" />
		<tag k="ssr:stedsnr" v="83157" />
	</node>
	<node id="-393336" lat="58.9471916655" lon="5.84668055807">
		<tag k="loc_name" v="Djubeviga" />
		<tag k="name" v="Djubevik" />
		<tag k="natural" v="bay" />
		<tag k="ssr:stedsnr" v="754657" />
	</node>
	<node id="-393335" lat="58.9187070598" lon="5.99628994232">
		<tag k="name" v="Vågen" />
		<tag k="natural" v="bay" />
		<tag k="ssr:stedsnr" v="754634" />
	</node>
	<node id="-392820" lat="58.9238361149" lon="6.00618054811">
		<tag k="name" v="Sandvika" />
		<tag k="natural" v="bay" />
		<tag k="ssr:stedsnr" v="484869" />
	</node>
	<node id="-393330" lat="58.9646361085" lon="5.84334444704">
		<tag k="fixme" v="consider seamark:type=rock or natural=shoal" />
		<tag k="name" v="Austra Torva" />
		<tag k="place" v="islet" />
		<tag k="ssr:stedsnr" v="753591" />
	</node>
	<node id="-392811" lat="58.8815750031" lon="6.07334445081">
		<tag k="name" v="Borghammar" />
		<tag k="natural" v="cape" />
		<tag k="ssr:stedsnr" v="481711" />
	</node>
	<node id="-393322" lat="58.8818916653" lon="5.74779166454">
		<tag k="loc_name" v="Rissebærstraen;Rissebærstranden" />
		<tag k="name" v="Ripsbærstraen" />
		<tag k="natural" v="beach" />
		<tag k="place" v="locality" />
		<tag k="ssr:stedsnr" v="752654" />
	</node>
	<node id="-393339" lat="58.9552250019" lon="5.83696944606">
		<tag k="fixme" v="consider seamark:type=rock or natural=shoal" />
		<tag k="name" v="Terneskjeret" />
		<tag k="place" v="islet" />
		<tag k="ssr:stedsnr" v="767959" />
	</node>
	<node id="-392800" lat="58.9449694464" lon="5.83917777742">
		<tag k="loc_name" v="Nodavikneset" />
		<tag k="name" v="Notaneset" />
		<tag k="natural" v="cape" />
		<tag k="ssr:stedsnr" v="464943" />
	</node>
	<node id="-392798" lat="58.9212972189" lon="5.98545832683">
		<tag k="name" v="Klungvigflua" />
		<tag k="place" v="locality" />
		<tag k="seamark:type" v="rock" />
		<tag k="ssr:stedsnr" v="451642" />
	</node>
	<node id="-393573" lat="58.8942655353" lon="6.04225610842">
		<tag k="name" v="Trodalsvågen" />
		<tag k="natural" v="bay" />
		<tag k="ssr:stedsnr" v="911656" />
	</node>
	<node id="-392795" lat="58.900913885" lon="6.00547222699">
		<tag k="name" v="Høleneset" />
		<tag k="natural" v="cape" />
		<tag k="ssr:stedsnr" v="450649" />
	</node>
	<node id="-393304" lat="58.958080557" lon="5.81695833434">
		<tag k="name" v="Leirvågen" />
		<tag k="natural" v="bay" />
		<tag k="ssr:stedsnr" v="752009" />
	</node>
	<node id="-393229" lat="58.9385777801" lon="5.84162499369">
		<tag k="name" v="Djupaflua" />
		<tag k="natural" v="shoal" />
		<tag k="place" v="locality" />
		<tag k="ssr:stedsnr" v="707945" />
	</node>
	<node id="-393287" lat="58.9411277762" lon="5.85307221528">
		<tag k="name" v="Søylevågen" />
		<tag k="natural" v="bay" />
		<tag k="ssr:stedsnr" v="751141" />
	</node>
	<node id="-393285" lat="58.928222222" lon="5.98348889272">
		<tag k="name" v="Pigepallen" />
		<tag k="natural" v="cape" />
		<tag k="ssr:stedsnr" v="751095" />
	</node>
	<node id="-392260" lat="58.9616527813" lon="5.86258333711">
		<tag k="name" v="Litla Vargavika" />
		<tag k="natural" v="bay" />
		<tag k="ssr:stedsnr" v="39928" />
	</node>
	<node id="-392256" lat="58.9071611086" lon="6.0153500043">
		<tag k="name" v="Kalaviga" />
		<tag k="natural" v="bay" />
		<tag k="ssr:stedsnr" v="26619" />
	</node>
	<node id="-392255" lat="58.918075455" lon="6.00134826163">
		<tag k="name" v="Grunnevågen" />
		<tag k="natural" v="bay" />
		<tag k="ssr:stedsnr" v="26615" />
	</node>
	<node id="-392116" lat="58.9103277736" lon="5.99683889046">
		<tag k="name" v="Kobbholmen" />
		<tag k="place" v="islet" />
		<tag k="ssr:stedsnr" v="390618" />
	</node>
	<node id="-393480" lat="58.9045055557" lon="6.00944166335">
		<tag k="name" v="Skreddarsundet" />
		<tag k="natural" v="strait" />
		<tag k="ssr:stedsnr" v="850613" />
	</node>
	<node id="-392750" lat="58.9594333369" lon="5.84627499523">
		<tag k="name" v="Søre Kastevika" />
		<tag k="natural" v="bay" />
		<tag k="ssr:stedsnr" v="447109" />
	</node>
	<node id="-393173" lat="58.9191194485" lon="5.9885111093">
		<tag k="name" v="Nordra Sundvik" />
		<tag k="natural" v="bay" />
		<tag k="ssr:stedsnr" v="690035" />
	</node>
	<node id="-393257" lat="58.9251222266" lon="5.98155278171">
		<tag k="name" v="Storasundet" />
		<tag k="natural" v="strait" />
		<tag k="ssr:stedsnr" v="729732" />
	</node>
	<node id="-393252" lat="58.8964527739" lon="6.04408611791">
		<tag k="name" v="Vedholmen" />
		<tag k="place" v="islet" />
		<tag k="ssr:stedsnr" v="729657" />
	</node>
	<node id="-393439" lat="58.870663893" lon="5.74553888447">
		<tag k="name" v="Somaneset" />
		<tag k="natural" v="cape" />
		<tag k="ssr:stedsnr" v="813671" />
	</node>
	<node id="-392109" lat="58.905338889" lon="6.02593056085">
		<tag k="name" v="Kjerringa" />
		<tag k="natural" v="cape" />
		<tag k="ssr:stedsnr" v="389646" />
	</node>
	<node id="-392221" lat="58.9471277806" lon="5.84742222423">
		<tag k="name" v="Muntevika" />
		<tag k="natural" v="bay" />
		<tag k="ssr:stedsnr" v="23165" />
	</node>
	<node id="-392731" lat="58.9620448561" lon="5.8984531235">
		<tag k="alt_name" v="Viervika" />
		<tag k="name" v="Viervågen" />
		<tag k="natural" v="bay" />
		<tag k="ssr:stedsnr" v="426770" />
	</node>
	<node id="-393242" lat="58.8711142428" lon="5.76352611153">
		<tag k="name" v="Sandvika" />
		<tag k="natural" v="bay" />
		<tag k="ssr:stedsnr" v="729258" />
	</node>
	<node id="-392217" lat="58.9644222254" lon="5.8367888952">
		<tag k="fixme" v="consider seamark:type=rock or natural=shoal" />
		<tag k="name" v="Vestra Torva" />
		<tag k="place" v="islet" />
		<tag k="ssr:stedsnr" v="23128" />
	</node>
	<node id="-392215" lat="58.9564972235" lon="5.83671943805">
		<tag k="loc_name" v="Varholmen" />
		<tag k="name" v="Vadholmen" />
		<tag k="place" v="islet" />
		<tag k="ssr:stedsnr" v="23125" />
	</node>
	<node id="-393233" lat="58.885780552" lon="6.06972500895">
		<tag k="name" v="Kleivik" />
		<tag k="natural" v="bay" />
		<tag k="ssr:stedsnr" v="726034" />
	</node>
	<node id="-393232" lat="58.9068472187" lon="5.74300277144">
		<tag k="name" v="Kustøbåen" />
		<tag k="place" v="locality" />
		<tag k="seamark:type" v="rock" />
		<tag k="ssr:stedsnr" v="725219" />
	</node>
	<node id="-392621" lat="58.9631222211" lon="5.86570277847">
		<tag k="alt_name" v="Store Vargavika" />
		<tag k="loc_name" v="Store Vargaviga" />
		<tag k="name" v="Stora Vargavika" />
		<tag k="natural" v="bay" />
		<tag k="ssr:stedsnr" v="221911" />
	</node>
	<node id="-393228" lat="58.9523722247" lon="5.84937222189">
		<tag k="loc_name" v="Hanaviga" />
		<tag k="name" v="Hanavika" />
		<tag k="natural" v="bay" />
		<tag k="ssr:stedsnr" v="707935" />
	</node>
	<node id="-393226" lat="58.8606666641" lon="5.74753611676">
		<tag k="name" v="Rappaneset" />
		<tag k="natural" v="cape" />
		<tag k="ssr:stedsnr" v="707454" />
	</node>
	<node id="-392712" lat="58.9305897327" lon="5.83901455875">
		<tag k="alt_name" v="Breidvika;Breivik" />
		<tag k="loc_name" v="Breiviga" />
		<tag k="name" v="Breivika" />
		<tag k="natural" v="bay" />
		<tag k="ssr:stedsnr" v="425012" />
	</node>
	<node id="-392739" lat="58.9247805555" lon="5.9717361178">
		<tag k="name" v="Engjaviga" />
		<tag k="natural" v="bay" />
		<tag k="ssr:stedsnr" v="447035" />
	</node>
	<node id="-392197" lat="58.9697388883" lon="5.87968333624">
		<tag k="name" v="Tingholmen" />
		<tag k="place" v="islet" />
		<tag k="ssr:stedsnr" v="1775" />
	</node>
	<node id="-392195" lat="58.962594783" lon="5.86294127467">
		<tag k="name" v="Vargavigneset" />
		<tag k="natural" v="cape" />
		<tag k="ssr:stedsnr" v="1758" />
	</node>
	<node id="-392218" lat="58.9503277789" lon="5.93472778461">
		<tag k="name" v="Torskaviga" />
		<tag k="natural" v="bay" />
		<tag k="ssr:stedsnr" v="23135" />
	</node>
</osm>
