<?xml version="1.0" encoding="UTF-8"?>
<osm generator="osmapis" version="0.6">
	<node id="-393216" lat="58.8361055516" lon="5.93584444687">
		<tag k="fixme" v="consider natural=peak for the most distinct mountains in the district" />
		<tag k="name" v="Kåsen" />
		<tag k="natural" v="hill" />
		<tag k="place" v="locality" />
		<tag k="ssr:stedsnr" v="691969" />
	</node>
	<node id="-393215" lat="58.8169138907" lon="5.9760611164">
		<tag k="fixme" v="consider natural=peak for the most distinct mountains in the district" />
		<tag k="name" v="Preikestolen" />
		<tag k="natural" v="hill" />
		<tag k="place" v="locality" />
		<tag k="ssr:stedsnr" v="691908" />
	</node>
	<node id="-393213" lat="58.8201555574" lon="5.95758888236">
		<tag k="fixme" v="consider natural=peak for the most distinct mountains in the district" />
		<tag k="name" v="Nuden" />
		<tag k="natural" v="hill" />
		<tag k="place" v="locality" />
		<tag k="ssr:stedsnr" v="691883" />
	</node>
	<node id="-393212" lat="58.834411112" lon="5.95051111569">
		<tag k="name" v="Blåbærkråna" />
		<tag k="natural" v="valley" />
		<tag k="place" v="locality" />
		<tag k="ssr:stedsnr" v="691881" />
	</node>
	<node id="-393211" lat="58.824780553" lon="5.96463611701">
		<tag k="name" v="Mollbrekka" />
		<tag k="natural" v="slope" />
		<tag k="place" v="locality" />
		<tag k="ssr:stedsnr" v="691863" />
	</node>
	<node id="-393210" lat="58.8352472204" lon="5.94252221617">
		<tag k="fixme" v="consider natural=peak for the most distinct mountains in the district" />
		<tag k="name" v="Bergjene" />
		<tag k="natural" v="hill" />
		<tag k="place" v="locality" />
		<tag k="ssr:stedsnr" v="691856" />
	</node>
	<node id="-393209" lat="58.8343472196" lon="5.95725000055">
		<tag k="fixme" v="consider natural=peak for the most distinct mountains in the district" />
		<tag k="name" v="Rundenuten" />
		<tag k="natural" v="hill" />
		<tag k="place" v="locality" />
		<tag k="ssr:stedsnr" v="691855" />
	</node>
	<node id="-393203" lat="58.8327722219" lon="5.76006666963">
		<tag k="fixme" v="consider natural=peak for the most distinct mountains in the district" />
		<tag k="name" v="Prestberget" />
		<tag k="natural" v="hill" />
		<tag k="place" v="locality" />
		<tag k="ssr:stedsnr" v="691638" />
	</node>
	<node id="-393201" lat="58.8145888858" lon="5.7428083363">
		<tag k="fixme" v="consider natural=peak for the most distinct mountains in the district" />
		<tag k="name" v="Stokkalandsfjellet" />
		<tag k="natural" v="hill" />
		<tag k="place" v="locality" />
		<tag k="ssr:stedsnr" v="691624" />
	</node>
	<node id="-393199" lat="58.835794446" lon="5.64072500123">
		<tag k="name" v="Trodlabærholen" />
		<tag k="natural" v="valley" />
		<tag k="place" v="locality" />
		<tag k="ssr:stedsnr" v="691274" />
	</node>
	<node id="-393198" lat="58.8865944453" lon="5.80326666525">
		<tag k="fixme" v="consider natural=peak for the most distinct mountains in the district" />
		<tag k="name" v="Kallandsnuten" />
		<tag k="natural" v="hill" />
		<tag k="place" v="locality" />
		<tag k="ssr:stedsnr" v="691245" />
	</node>
	<node id="-393197" lat="58.9026833364" lon="5.79733888952">
		<tag k="name" v="Kjerdal" />
		<tag k="natural" v="valley" />
		<tag k="place" v="locality" />
		<tag k="ssr:stedsnr" v="691239" />
	</node>
	<node id="-393196" lat="58.8755777804" lon="5.78355555891">
		<tag k="fixme" v="consider natural=peak for the most distinct mountains in the district" />
		<tag k="name" v="Kollirudla" />
		<tag k="natural" v="hill" />
		<tag k="place" v="locality" />
		<tag k="ssr:stedsnr" v="691235" />
	</node>
	<node id="-393195" lat="58.8540999989" lon="5.89108888232">
		<tag k="name" v="Eigeriset" />
		<tag k="natural" v="valley" />
		<tag k="place" v="locality" />
		<tag k="ssr:stedsnr" v="691075" />
	</node>
	<node id="-393194" lat="58.8414527742" lon="5.852838891">
		<tag k="fixme" v="consider natural=peak for the most distinct mountains in the district" />
		<tag k="name" v="Haugåsfjellet" />
		<tag k="natural" v="hill" />
		<tag k="place" v="locality" />
		<tag k="ssr:stedsnr" v="691057" />
	</node>
	<node id="-393193" lat="58.850472225" lon="5.86566111876">
		<tag k="fixme" v="consider natural=peak for the most distinct mountains in the district" />
		<tag k="name" v="Stakkanuten" />
		<tag k="natural" v="hill" />
		<tag k="place" v="locality" />
		<tag k="ssr:stedsnr" v="691048" />
	</node>
	<node id="-393192" lat="58.8921027738" lon="5.86424722906">
		<tag k="fixme" v="consider natural=peak for the most distinct mountains in the district" />
		<tag k="name" v="Litlaberget" />
		<tag k="natural" v="hill" />
		<tag k="place" v="locality" />
		<tag k="ssr:stedsnr" v="690270" />
	</node>
	<node id="-393191" lat="58.8691638923" lon="5.86645277209">
		<tag k="fixme" v="consider natural=peak for the most distinct mountains in the district" />
		<tag k="name" v="Kjeringfjellet" />
		<tag k="natural" v="hill" />
		<tag k="place" v="locality" />
		<tag k="ssr:stedsnr" v="690243" />
	</node>
	<node id="-393189" lat="58.8979888851" lon="5.93057222299">
		<tag k="fixme" v="consider natural=peak for the most distinct mountains in the district" />
		<tag k="name" v="Høgeberg" />
		<tag k="natural" v="hill" />
		<tag k="place" v="locality" />
		<tag k="ssr:stedsnr" v="690210" />
	</node>
	<node id="-393188" lat="58.8726305536" lon="5.93882223061">
		<tag k="fixme" v="consider natural=peak for the most distinct mountains in the district" />
		<tag k="name" v="Rinnafjellet" />
		<tag k="natural" v="hill" />
		<tag k="place" v="locality" />
		<tag k="ssr:stedsnr" v="690203" />
	</node>
	<node id="-393187" lat="58.8804222247" lon="5.92657777538">
		<tag k="fixme" v="consider natural=peak for the most distinct mountains in the district" />
		<tag k="name" v="Litlelifjellet" />
		<tag k="natural" v="hill" />
		<tag k="place" v="locality" />
		<tag k="ssr:stedsnr" v="690183" />
	</node>
	<node id="-393186" lat="58.8827749968" lon="5.93377777057">
		<tag k="name" v="Foredalen" />
		<tag k="natural" v="valley" />
		<tag k="place" v="locality" />
		<tag k="ssr:stedsnr" v="690180" />
	</node>
	<node id="-393184" lat="58.924038885" lon="5.89183333522">
		<tag k="fixme" v="consider natural=peak for the most distinct mountains in the district" />
		<tag k="loc_name" v="Middagsfjellet" />
		<tag k="name" v="Middagsfjell" />
		<tag k="natural" v="hill" />
		<tag k="place" v="locality" />
		<tag k="ssr:stedsnr" v="690144" />
	</node>
	<node id="-393180" lat="58.9444166699" lon="5.91800555872">
		<tag k="fixme" v="consider natural=peak for the most distinct mountains in the district" />
		<tag k="name" v="Rudlehammaren" />
		<tag k="natural" v="hill" />
		<tag k="place" v="locality" />
		<tag k="ssr:stedsnr" v="690127" />
	</node>
	<node id="-393177" lat="58.8635416673" lon="5.98341944648">
		<tag k="fixme" v="consider natural=peak for the most distinct mountains in the district" />
		<tag k="name" v="Stølsryggen" />
		<tag k="natural" v="hill" />
		<tag k="place" v="locality" />
		<tag k="ssr:stedsnr" v="690073" />
	</node>
	<node id="-393172" lat="58.8010416645" lon="5.8909055634">
		<tag k="fixme" v="consider natural=peak for the most distinct mountains in the district" />
		<tag k="name" v="Ritlefjellet" />
		<tag k="natural" v="hill" />
		<tag k="place" v="locality" />
		<tag k="ssr:stedsnr" v="690012" />
	</node>
	<node id="-393169" lat="58.8098527748" lon="5.91854167143">
		<tag k="fixme" v="consider natural=peak for the most distinct mountains in the district" />
		<tag k="name" v="Lomsfjellet" />
		<tag k="natural" v="hill" />
		<tag k="place" v="locality" />
		<tag k="ssr:stedsnr" v="690003" />
	</node>
	<node id="-393168" lat="58.8160138878" lon="5.88923333937">
		<tag k="fixme" v="consider natural=peak for the most distinct mountains in the district" />
		<tag k="name" v="Rudlå" />
		<tag k="natural" v="hill" />
		<tag k="place" v="locality" />
		<tag k="ssr:stedsnr" v="690001" />
	</node>
	<node id="-393156" lat="58.9143555514" lon="5.91127499905">
		<tag k="alt_name" v="Mågafjellet" />
		<tag k="name" v="Måkafjellet" />
		<tag k="natural" v="hill" />
		<tag k="place" v="locality" />
		<tag k="ssr:stedsnr" v="668764" />
	</node>
	<node id="-393154" lat="58.9194388898" lon="5.89957776944">
		<tag k="alt_name" v="Torsfjell" />
		<tag k="fixme" v="consider natural=peak for the most distinct mountains in the district" />
		<tag k="name" v="Torsfjellet" />
		<tag k="natural" v="hill" />
		<tag k="place" v="locality" />
		<tag k="ssr:stedsnr" v="668749" />
	</node>
	<node id="-393149" lat="58.88001667" lon="5.93238610903">
		<tag k="fixme" v="consider natural=peak for the most distinct mountains in the district" />
		<tag k="name" v="Tverrfjellet" />
		<tag k="natural" v="hill" />
		<tag k="place" v="locality" />
		<tag k="ssr:stedsnr" v="668711" />
	</node>
	<node id="-393148" lat="58.870711114" lon="5.93756388459">
		<tag k="alt_name" v="Kyllesknuten" />
		<tag k="fixme" v="consider natural=peak for the most distinct mountains in the district" />
		<tag k="name" v="Kjølleknuten" />
		<tag k="natural" v="hill" />
		<tag k="place" v="locality" />
		<tag k="ssr:stedsnr" v="668712" />
	</node>
	<node id="-393147" lat="58.8629722236" lon="5.89065000303">
		<tag k="alt_name" v="Øygjafjell" />
		<tag k="fixme" v="consider natural=peak for the most distinct mountains in the district" />
		<tag k="name" v="Øykjafjellet" />
		<tag k="natural" v="hill" />
		<tag k="place" v="locality" />
		<tag k="ssr:stedsnr" v="668706" />
	</node>
	<node id="-393145" lat="58.8909833351" lon="5.88323054858">
		<tag k="fixme" v="consider natural=peak for the most distinct mountains in the district" />
		<tag k="name" v="Grastofjellet" />
		<tag k="natural" v="hill" />
		<tag k="place" v="locality" />
		<tag k="ssr:stedsnr" v="668683" />
	</node>
	<node id="-393141" lat="58.8665361103" lon="6.04566389595">
		<tag k="alt_name" v="Rudlefjellet" />
		<tag k="fixme" v="consider natural=peak for the most distinct mountains in the district" />
		<tag k="name" v="Rullefjellet" />
		<tag k="natural" v="hill" />
		<tag k="place" v="locality" />
		<tag k="ssr:stedsnr" v="668578" />
	</node>
	<node id="-393138" lat="58.8361972258" lon="6.00449166539">
		<tag k="name" v="Bakliheia" />
		<tag k="natural" v="hill" />
		<tag k="place" v="locality" />
		<tag k="ssr:stedsnr" v="665861" />
	</node>
	<node id="-393137" lat="58.8750888884" lon="6.02661944515">
		<tag k="name" v="Saualia" />
		<tag k="natural" v="slope" />
		<tag k="place" v="locality" />
		<tag k="ssr:stedsnr" v="665189" />
	</node>
	<node id="-393136" lat="58.8765249965" lon="6.03078332671">
		<tag k="fixme" v="consider natural=peak for the most distinct mountains in the district" />
		<tag k="name" v="Ørnaknuten" />
		<tag k="natural" v="hill" />
		<tag k="place" v="locality" />
		<tag k="ssr:stedsnr" v="665186" />
	</node>
	<node id="-393135" lat="58.8682083331" lon="6.01421667482">
		<tag k="fixme" v="consider natural=peak for the most distinct mountains in the district" />
		<tag k="name" v="Gjitladalshammaren" />
		<tag k="natural" v="hill" />
		<tag k="place" v="locality" />
		<tag k="ssr:stedsnr" v="665182" />
	</node>
	<node id="-393134" lat="58.8746333292" lon="6.07630833983">
		<tag k="name" v="Lia" />
		<tag k="natural" v="slope" />
		<tag k="place" v="locality" />
		<tag k="ssr:stedsnr" v="665171" />
	</node>
	<node id="-393126" lat="58.8902388895" lon="6.0390333286">
		<tag k="fixme" v="consider natural=peak for the most distinct mountains in the district" />
		<tag k="name" v="Dunsen" />
		<tag k="natural" v="hill" />
		<tag k="place" v="locality" />
		<tag k="ssr:stedsnr" v="647174" />
	</node>
	<node id="-393124" lat="58.8702166714" lon="5.74094722993">
		<tag k="name" v="Revholen" />
		<tag k="natural" v="hill" />
		<tag k="place" v="locality" />
		<tag k="ssr:stedsnr" v="645460" />
	</node>
	<node id="-393113" lat="58.8961166689" lon="6.01840556306">
		<tag k="name" v="Apalstøbakke" />
		<tag k="natural" v="slope" />
		<tag k="place" v="locality" />
		<tag k="ssr:stedsnr" v="631182" />
	</node>
	<node id="-393111" lat="58.8235583367" lon="5.91831388222">
		<tag k="fixme" v="consider natural=peak for the most distinct mountains in the district" />
		<tag k="name" v="Rassberget" />
		<tag k="natural" v="hill" />
		<tag k="place" v="locality" />
		<tag k="ssr:stedsnr" v="630995" />
	</node>
	<node id="-393108" lat="58.8424527766" lon="5.99440833763">
		<tag k="name" v="Padl" />
		<tag k="natural" v="valley" />
		<tag k="place" v="locality" />
		<tag k="ssr:stedsnr" v="630879" />
	</node>
	<node id="-393107" lat="58.8585777744" lon="5.94335555125">
		<tag k="fixme" v="consider natural=peak for the most distinct mountains in the district" />
		<tag k="name" v="Rundehammaren" />
		<tag k="natural" v="hill" />
		<tag k="place" v="locality" />
		<tag k="ssr:stedsnr" v="630859" />
	</node>
	<node id="-393106" lat="58.8488277751" lon="5.97429722406">
		<tag k="fixme" v="consider natural=peak for the most distinct mountains in the district" />
		<tag k="name" v="Heimra Stølsfjellet" />
		<tag k="natural" v="hill" />
		<tag k="place" v="locality" />
		<tag k="ssr:stedsnr" v="630853" />
	</node>
	<node id="-393104" lat="58.8403361128" lon="5.82135277138">
		<tag k="fixme" v="consider natural=peak for the most distinct mountains in the district" />
		<tag k="name" v="Torsteinsfjellet" />
		<tag k="natural" v="hill" />
		<tag k="place" v="locality" />
		<tag k="ssr:stedsnr" v="630656" />
	</node>
	<node id="-393102" lat="58.883425" lon="5.73573055371">
		<tag k="name" v="Litla Myklaberget" />
		<tag k="natural" v="hill" />
		<tag k="place" v="locality" />
		<tag k="ssr:stedsnr" v="630636" />
	</node>
	<node id="-393101" lat="58.8571361129" lon="5.75772777163">
		<tag k="fixme" v="consider natural=peak for the most distinct mountains in the district" />
		<tag k="name" v="Rovikfjellet" />
		<tag k="natural" v="hill" />
		<tag k="place" v="locality" />
		<tag k="ssr:stedsnr" v="630604" />
	</node>
	<node id="-393098" lat="58.8103444442" lon="5.73482500089">
		<tag k="fixme" v="consider natural=peak for the most distinct mountains in the district" />
		<tag k="name" v="Vaglefjellet" />
		<tag k="natural" v="hill" />
		<tag k="place" v="locality" />
		<tag k="ssr:stedsnr" v="630570" />
	</node>
	<node id="-393096" lat="58.8525138856" lon="5.68673610772">
		<tag k="name" v="Påskhus" />
		<tag k="natural" v="hill" />
		<tag k="place" v="locality" />
		<tag k="ssr:stedsnr" v="630277" />
	</node>
	<node id="-393095" lat="58.8167111123" lon="5.8239083313">
		<tag k="name" v="Svilandsmoen" />
		<tag k="place" v="locality" />
		<tag k="ssr:stedsnr" v="630225" />
	</node>
	<node id="-393094" lat="58.8868833317" lon="5.73649722927">
		<tag k="alt_name" v="Luranuten" />
		<tag k="fixme" v="consider natural=peak for the most distinct mountains in the district" />
		<tag k="name" v="Stora Myklaberget" />
		<tag k="natural" v="hill" />
		<tag k="place" v="locality" />
		<tag k="ssr:stedsnr" v="630222" />
	</node>
	<node id="-393091" lat="58.8693833307" lon="5.79965278105">
		<tag k="name" v="Hengeto" />
		<tag k="natural" v="mountain_range" />
		<tag k="ssr:stedsnr" v="630209" />
	</node>
	<node id="-393090" lat="58.8674388861" lon="5.8187805523">
		<tag k="fixme" v="consider natural=peak for the most distinct mountains in the district" />
		<tag k="name" v="Kvednafjellet" />
		<tag k="natural" v="hill" />
		<tag k="place" v="locality" />
		<tag k="ssr:stedsnr" v="630208" />
	</node>
	<node id="-393088" lat="58.8786555524" lon="5.82011665918">
		<tag k="name" v="Olato" />
		<tag k="natural" v="hill" />
		<tag k="place" v="locality" />
		<tag k="ssr:stedsnr" v="630197" />
	</node>
	<node id="-393087" lat="58.9135249964" lon="5.79596110505">
		<tag k="alt_name" v="Søra-fjellet" />
		<tag k="fixme" v="consider natural=peak for the most distinct mountains in the district" />
		<tag k="name" v="Sørafjellet" />
		<tag k="natural" v="hill" />
		<tag k="place" v="locality" />
		<tag k="ssr:stedsnr" v="630060" />
	</node>
	<node id="-393085" lat="58.8229972192" lon="5.8677194525">
		<tag k="name" v="Hetlandsheia" />
		<tag k="natural" v="hill" />
		<tag k="place" v="locality" />
		<tag k="ssr:stedsnr" v="630052" />
	</node>
	<node id="-393084" lat="58.8460111123" lon="5.90655555642">
		<tag k="name" v="Grasdalen" />
		<tag k="natural" v="valley" />
		<tag k="place" v="locality" />
		<tag k="ssr:stedsnr" v="630035" />
	</node>
	<node id="-393083" lat="58.8850499997" lon="5.8813527709">
		<tag k="fixme" v="consider natural=peak for the most distinct mountains in the district" />
		<tag k="name" v="Sloglongshammaren" />
		<tag k="natural" v="hill" />
		<tag k="place" v="locality" />
		<tag k="ssr:stedsnr" v="629231" />
	</node>
	<node id="-393080" lat="58.8721111127" lon="5.89844445114">
		<tag k="name" v="Kjosen" />
		<tag k="natural" v="valley" />
		<tag k="place" v="locality" />
		<tag k="ssr:stedsnr" v="629171" />
	</node>
	<node id="-393079" lat="58.8684666668" lon="5.90732222711">
		<tag k="fixme" v="consider natural=peak for the most distinct mountains in the district" />
		<tag k="name" v="Søra Kjeaberget" />
		<tag k="natural" v="hill" />
		<tag k="place" v="locality" />
		<tag k="ssr:stedsnr" v="629169" />
	</node>
	<node id="-393075" lat="58.9104388881" lon="5.88155554957">
		<tag k="name" v="Sanddalen" />
		<tag k="natural" v="valley" />
		<tag k="place" v="locality" />
		<tag k="ssr:stedsnr" v="629148" />
	</node>
	<node id="-393073" lat="58.94873611" lon="5.89209444566">
		<tag k="fixme" v="consider natural=peak for the most distinct mountains in the district" />
		<tag k="name" v="Hammaren" />
		<tag k="natural" v="hill" />
		<tag k="place" v="locality" />
		<tag k="ssr:stedsnr" v="629144" />
	</node>
	<node id="-393066" lat="58.8983166702" lon="5.97513334119">
		<tag k="fixme" v="consider natural=peak for the most distinct mountains in the district" />
		<tag k="name" v="Dørmålsnuten" />
		<tag k="natural" v="hill" />
		<tag k="place" v="locality" />
		<tag k="ssr:stedsnr" v="629084" />
	</node>
	<node id="-393063" lat="58.887380558" lon="5.96003054741">
		<tag k="name" v="Svaneli" />
		<tag k="natural" v="slope" />
		<tag k="place" v="locality" />
		<tag k="ssr:stedsnr" v="629073" />
	</node>
	<node id="-393062" lat="58.9253222184" lon="5.97943610503">
		<tag k="fixme" v="consider natural=peak for the most distinct mountains in the district" />
		<tag k="name" v="Lensmannsberget" />
		<tag k="natural" v="hill" />
		<tag k="place" v="locality" />
		<tag k="ssr:stedsnr" v="629051" />
	</node>
	<node id="-393059" lat="58.8022361149" lon="5.88862777117">
		<tag k="fixme" v="consider natural=peak for the most distinct mountains in the district" />
		<tag k="name" v="Øksnanuten" />
		<tag k="natural" v="hill" />
		<tag k="place" v="locality" />
		<tag k="ssr:stedsnr" v="629011" />
	</node>
	<node id="-393050" lat="58.8072583808" lon="5.83621460768">
		<tag k="alt_name" v="Nudane" />
		<tag k="fixme" v="consider natural=peak for the most distinct mountains in the district" />
		<tag k="name" v="Nutane" />
		<tag k="natural" v="hill" />
		<tag k="place" v="locality" />
		<tag k="ssr:stedsnr" v="607903" />
	</node>
	<node id="-393045" lat="58.911944443" lon="5.89411943629">
		<tag k="alt_name" v="Middagsnuten" />
		<tag k="fixme" v="consider natural=peak for the most distinct mountains in the district" />
		<tag k="name" v="Middagsknutane" />
		<tag k="natural" v="hill" />
		<tag k="place" v="locality" />
		<tag k="ssr:stedsnr" v="607752" />
	</node>
	<node id="-393039" lat="58.87390556" lon="5.96399167096">
		<tag k="fixme" v="consider natural=peak for the most distinct mountains in the district" />
		<tag k="name" v="Husafjellet" />
		<tag k="natural" v="hill" />
		<tag k="place" v="locality" />
		<tag k="ssr:stedsnr" v="607684" />
	</node>
	<node id="-393038" lat="58.866625004" lon="5.89148889397">
		<tag k="alt_name" v="Fatli" />
		<tag k="name" v="Fattlia" />
		<tag k="natural" v="slope" />
		<tag k="place" v="locality" />
		<tag k="ssr:stedsnr" v="607682" />
	</node>
	<node id="-393036" lat="58.8653527757" lon="5.87405832988">
		<tag k="name" v="Dormelinuten" />
		<tag k="natural" v="hill" />
		<tag k="place" v="locality" />
		<tag k="ssr:stedsnr" v="607676" />
	</node>
	<node id="-393031" lat="58.8893499967" lon="6.0293444511">
		<tag k="fixme" v="consider natural=peak for the most distinct mountains in the district" />
		<tag k="name" v="Krusafjellet" />
		<tag k="natural" v="hill" />
		<tag k="place" v="locality" />
		<tag k="ssr:stedsnr" v="607658" />
	</node>
	<node id="-393020" lat="58.8552777769" lon="5.98924167296">
		<tag k="name" v="Undeknuten" />
		<tag k="natural" v="hill" />
		<tag k="place" v="locality" />
		<tag k="ssr:stedsnr" v="607589" />
	</node>
	<node id="-393014" lat="58.8662500017" lon="6.01202500274">
		<tag k="fixme" v="consider natural=peak for the most distinct mountains in the district" />
		<tag k="name" v="Vindalshammaren" />
		<tag k="natural" v="hill" />
		<tag k="place" v="locality" />
		<tag k="ssr:stedsnr" v="605216" />
	</node>
	<node id="-393013" lat="58.8795777811" lon="6.05348334159">
		<tag k="name" v="Svartops" />
		<tag k="natural" v="valley" />
		<tag k="place" v="locality" />
		<tag k="ssr:stedsnr" v="604226" />
	</node>
	<node id="-393002" lat="58.9148083325" lon="6.0032416637">
		<tag k="fixme" v="consider natural=peak for the most distinct mountains in the district" />
		<tag k="name" v="Leiråsen" />
		<tag k="natural" v="hill" />
		<tag k="place" v="locality" />
		<tag k="ssr:stedsnr" v="585912" />
	</node>
	<node id="-392995" lat="58.8334111145" lon="5.79272778158">
		<tag k="fixme" v="consider natural=peak for the most distinct mountains in the district" />
		<tag k="name" v="Skjenanuten" />
		<tag k="natural" v="hill" />
		<tag k="place" v="locality" />
		<tag k="ssr:stedsnr" v="570660" />
	</node>
	<node id="-392992" lat="58.8252694487" lon="5.93706110764">
		<tag k="fixme" v="consider natural=peak for the most distinct mountains in the district" />
		<tag k="name" v="Høgeholen" />
		<tag k="natural" v="hill" />
		<tag k="place" v="locality" />
		<tag k="ssr:stedsnr" v="569999" />
	</node>
	<node id="-392991" lat="58.8287444482" lon="5.92858888275">
		<tag k="fixme" v="consider natural=peak for the most distinct mountains in the district" />
		<tag k="name" v="Vonda Fenet" />
		<tag k="natural" v="hill" />
		<tag k="place" v="locality" />
		<tag k="ssr:stedsnr" v="569992" />
	</node>
	<node id="-392990" lat="58.8364555533" lon="5.85580000039">
		<tag k="fixme" v="consider natural=peak for the most distinct mountains in the district" />
		<tag k="name" v="Snibe" />
		<tag k="natural" v="hill" />
		<tag k="place" v="locality" />
		<tag k="ssr:stedsnr" v="569991" />
	</node>
	<node id="-392987" lat="58.8237972207" lon="5.95951110277">
		<tag k="fixme" v="consider natural=peak for the most distinct mountains in the district" />
		<tag k="name" v="Rauenuten" />
		<tag k="natural" v="hill" />
		<tag k="place" v="locality" />
		<tag k="ssr:stedsnr" v="569869" />
	</node>
	<node id="-392985" lat="58.7877750039" lon="5.82773055848">
		<tag k="fixme" v="consider natural=peak for the most distinct mountains in the district" />
		<tag k="name" v="Hålandsfjellet" />
		<tag k="natural" v="hill" />
		<tag k="place" v="locality" />
		<tag k="ssr:stedsnr" v="569671" />
	</node>
	<node id="-392984" lat="58.8495333377" lon="5.75505000622">
		<tag k="fixme" v="consider natural=peak for the most distinct mountains in the district" />
		<tag k="name" v="Krampafjellet" />
		<tag k="natural" v="hill" />
		<tag k="place" v="locality" />
		<tag k="ssr:stedsnr" v="569666" />
	</node>
	<node id="-392977" lat="58.8891083359" lon="5.80500277842">
		<tag k="fixme" v="consider natural=peak for the most distinct mountains in the district" />
		<tag k="name" v="Fjogstadnuten" />
		<tag k="natural" v="hill" />
		<tag k="place" v="locality" />
		<tag k="ssr:stedsnr" v="569226" />
	</node>
	<node id="-392976" lat="58.8471888875" lon="5.92995278223">
		<tag k="fixme" v="consider natural=peak for the most distinct mountains in the district" />
		<tag k="name" v="Raude Nuten" />
		<tag k="natural" v="hill" />
		<tag k="place" v="locality" />
		<tag k="ssr:stedsnr" v="569079" />
	</node>
	<node id="-392973" lat="58.8559194463" lon="5.93600832849">
		<tag k="fixme" v="consider natural=peak for the most distinct mountains in the district" />
		<tag k="name" v="Hesthammaren" />
		<tag k="natural" v="hill" />
		<tag k="place" v="locality" />
		<tag k="ssr:stedsnr" v="569062" />
	</node>
	<node id="-392972" lat="58.8297361125" lon="5.84938056021">
		<tag k="name" v="Røysaheia" />
		<tag k="natural" v="hill" />
		<tag k="place" v="locality" />
		<tag k="ssr:stedsnr" v="569059" />
	</node>
	<node id="-392971" lat="58.8444500025" lon="5.86736388512">
		<tag k="fixme" v="consider natural=peak for the most distinct mountains in the district" />
		<tag k="name" v="Husafjellet" />
		<tag k="natural" v="hill" />
		<tag k="place" v="locality" />
		<tag k="ssr:stedsnr" v="569048" />
	</node>
	<node id="-392970" lat="58.8438055579" lon="5.92193889544">
		<tag k="fixme" v="consider natural=peak for the most distinct mountains in the district" />
		<tag k="name" v="Fuglaberget" />
		<tag k="natural" v="hill" />
		<tag k="place" v="locality" />
		<tag k="ssr:stedsnr" v="569035" />
	</node>
	<node id="-392967" lat="58.8962416655" lon="5.86768333414">
		<tag k="fixme" v="consider natural=peak for the most distinct mountains in the district" />
		<tag k="name" v="Nadaråsen" />
		<tag k="natural" v="hill" />
		<tag k="place" v="locality" />
		<tag k="ssr:stedsnr" v="568244" />
	</node>
	<node id="-392966" lat="58.886727776" lon="5.83736944796">
		<tag k="fixme" v="consider natural=peak for the most distinct mountains in the district" />
		<tag k="name" v="Forehaugen" />
		<tag k="natural" v="hill" />
		<tag k="place" v="locality" />
		<tag k="ssr:stedsnr" v="568237" />
	</node>
	<node id="-392964" lat="58.8645388903" lon="5.86428333149">
		<tag k="fixme" v="consider natural=peak for the most distinct mountains in the district" />
		<tag k="name" v="Rudlå" />
		<tag k="natural" v="hill" />
		<tag k="place" v="locality" />
		<tag k="ssr:stedsnr" v="568219" />
	</node>
	<node id="-392963" lat="58.8900166671" lon="5.93867222122">
		<tag k="fixme" v="consider natural=peak for the most distinct mountains in the district" />
		<tag k="name" v="Liaåsen" />
		<tag k="natural" v="hill" />
		<tag k="place" v="locality" />
		<tag k="ssr:stedsnr" v="568204" />
	</node>
	<node id="-392962" lat="58.8860861081" lon="5.86234166895">
		<tag k="name" v="Skreå" />
		<tag k="natural" v="cliff" />
		<tag k="ssr:stedsnr" v="568201" />
	</node>
	<node id="-392959" lat="58.8827944426" lon="5.9388972244">
		<tag k="name" v="Nevredalen" />
		<tag k="natural" v="valley" />
		<tag k="place" v="locality" />
		<tag k="ssr:stedsnr" v="568176" />
	</node>
	<node id="-392957" lat="58.8799972202" lon="5.93051388143">
		<tag k="fixme" v="consider natural=peak for the most distinct mountains in the district" />
		<tag k="name" v="Tverrberget" />
		<tag k="natural" v="hill" />
		<tag k="place" v="locality" />
		<tag k="ssr:stedsnr" v="568172" />
	</node>
	<node id="-392956" lat="58.8710333358" lon="5.89550833462">
		<tag k="name" v="Maurbakken" />
		<tag k="natural" v="slope" />
		<tag k="place" v="locality" />
		<tag k="ssr:stedsnr" v="568166" />
	</node>
	<node id="-392955" lat="58.8831138851" lon="5.88346665955">
		<tag k="name" v="Donå" />
		<tag k="natural" v="hill" />
		<tag k="place" v="locality" />
		<tag k="ssr:stedsnr" v="568164" />
	</node>
	<node id="-392954" lat="58.9432194462" lon="5.90711111586">
		<tag k="fixme" v="consider natural=peak for the most distinct mountains in the district" />
		<tag k="name" v="Sauaknuten" />
		<tag k="natural" v="hill" />
		<tag k="place" v="locality" />
		<tag k="ssr:stedsnr" v="568151" />
	</node>
	<node id="-392953" lat="58.9059972179" lon="5.88725277764">
		<tag k="fixme" v="consider natural=peak for the most distinct mountains in the district" />
		<tag k="name" v="Stora Tånå" />
		<tag k="natural" v="hill" />
		<tag k="place" v="locality" />
		<tag k="ssr:stedsnr" v="568142" />
	</node>
	<node id="-392949" lat="58.8012833366" lon="5.84245277601">
		<tag k="fixme" v="consider natural=peak for the most distinct mountains in the district" />
		<tag k="name" v="Husaberget" />
		<tag k="natural" v="hill" />
		<tag k="place" v="locality" />
		<tag k="ssr:stedsnr" v="568117" />
	</node>
	<node id="-392948" lat="58.9501083359" lon="5.89220277214">
		<tag k="fixme" v="consider natural=peak for the most distinct mountains in the district" />
		<tag k="name" v="Sveneknuten" />
		<tag k="natural" v="hill" />
		<tag k="place" v="locality" />
		<tag k="ssr:stedsnr" v="568114" />
	</node>
	<node id="-392947" lat="58.8093388889" lon="5.83806666396">
		<tag k="name" v="Vindheia" />
		<tag k="natural" v="hill" />
		<tag k="place" v="locality" />
		<tag k="ssr:stedsnr" v="568105" />
	</node>
	<node id="-392946" lat="58.8100416694" lon="5.87546110656">
		<tag k="name" v="Breheia" />
		<tag k="natural" v="hill" />
		<tag k="place" v="locality" />
		<tag k="ssr:stedsnr" v="568106" />
	</node>
	<node id="-392944" lat="58.8791472262" lon="5.97986388778">
		<tag k="name" v="Svedalen" />
		<tag k="natural" v="valley" />
		<tag k="place" v="locality" />
		<tag k="ssr:stedsnr" v="568075" />
	</node>
	<node id="-392942" lat="58.9103027745" lon="5.94511945071">
		<tag k="alt_name" v="Eiklifjellet" />
		<tag k="fixme" v="consider natural=peak for the most distinct mountains in the district" />
		<tag k="name" v="Eigelifjellet" />
		<tag k="natural" v="hill" />
		<tag k="place" v="locality" />
		<tag k="ssr:stedsnr" v="568032" />
	</node>
	<node id="-392940" lat="58.9365222212" lon="5.95297221637">
		<tag k="fixme" v="consider natural=peak for the most distinct mountains in the district" />
		<tag k="name" v="Store Hammarsfjell" />
		<tag k="natural" v="hill" />
		<tag k="place" v="locality" />
		<tag k="ssr:stedsnr" v="568031" />
	</node>
	<node id="-392939" lat="58.8117277758" lon="5.91168611589">
		<tag k="fixme" v="consider natural=peak for the most distinct mountains in the district" />
		<tag k="name" v="Lomshammaren" />
		<tag k="natural" v="hill" />
		<tag k="place" v="locality" />
		<tag k="ssr:stedsnr" v="568002" />
	</node>
	<node id="-392936" lat="58.9129000044" lon="6.0191555555">
		<tag k="alt_name" v="Rudlefjell" />
		<tag k="fixme" v="consider natural=peak for the most distinct mountains in the district" />
		<tag k="name" v="Rudlo" />
		<tag k="natural" v="hill" />
		<tag k="place" v="locality" />
		<tag k="ssr:stedsnr" v="547774" />
	</node>
	<node id="-392935" lat="58.9160916664" lon="5.87868611788">
		<tag k="alt_name" v="Eilevfjell" />
		<tag k="fixme" v="consider natural=peak for the most distinct mountains in the district" />
		<tag k="name" v="Eilevfjellet" />
		<tag k="natural" v="hill" />
		<tag k="place" v="locality" />
		<tag k="ssr:stedsnr" v="547762" />
	</node>
	<node id="-392933" lat="58.8773027779" lon="6.04530000417">
		<tag k="name" v="Nonsknuten" />
		<tag k="natural" v="hill" />
		<tag k="place" v="locality" />
		<tag k="ssr:stedsnr" v="547717" />
	</node>
	<node id="-392927" lat="58.8629289451" lon="5.76977378067">
		<tag k="alt_name" v="Ulvanuten" />
		<tag k="fixme" v="consider natural=peak for the most distinct mountains in the district" />
		<tag k="name" v="Ulvanutane" />
		<tag k="natural" v="hill" />
		<tag k="old_name" v="Olvanutane" />
		<tag k="place" v="locality" />
		<tag k="ssr:stedsnr" v="546979" />
	</node>
	<node id="-392923" lat="58.9082361117" lon="5.79000556077">
		<tag k="fixme" v="consider natural=peak for the most distinct mountains in the district" />
		<tag k="name" v="Flatafjellet" />
		<tag k="natural" v="hill" />
		<tag k="old_name" v="Flatafjell" />
		<tag k="place" v="locality" />
		<tag k="ssr:stedsnr" v="546950" />
	</node>
	<node id="-392920" lat="58.9416500026" lon="5.86738055729">
		<tag k="alt_name" v="Espefjell" />
		<tag k="name" v="Espefjellet" />
		<tag k="natural" v="hill" />
		<tag k="place" v="locality" />
		<tag k="ssr:stedsnr" v="546662" />
	</node>
	<node id="-392914" lat="58.8677249976" lon="6.08080556258">
		<tag k="name" v="Foreknuten" />
		<tag k="natural" v="hill" />
		<tag k="place" v="locality" />
		<tag k="ssr:stedsnr" v="546522" />
	</node>
	<node id="-392913" lat="58.9203388899" lon="5.79004444956">
		<tag k="fixme" v="consider natural=peak for the most distinct mountains in the district" />
		<tag k="name" v="Lifjellet" />
		<tag k="natural" v="hill" />
		<tag k="old_name" v="Lifjell" />
		<tag k="place" v="locality" />
		<tag k="ssr:stedsnr" v="546039" />
	</node>
	<node id="-392912" lat="58.8378083297" lon="6.0011111188">
		<tag k="name" v="Baklia" />
		<tag k="natural" v="slope" />
		<tag k="place" v="locality" />
		<tag k="ssr:stedsnr" v="544824" />
	</node>
	<node id="-392911" lat="58.8635444487" lon="6.04745833288">
		<tag k="name" v="Rudlebakka" />
		<tag k="natural" v="slope" />
		<tag k="place" v="locality" />
		<tag k="ssr:stedsnr" v="544179" />
	</node>
	<node id="-392910" lat="58.8823000008" lon="6.03971389049">
		<tag k="fixme" v="consider natural=peak for the most distinct mountains in the district" />
		<tag k="name" v="Høgaberg" />
		<tag k="natural" v="hill" />
		<tag k="place" v="locality" />
		<tag k="ssr:stedsnr" v="544175" />
	</node>
	<node id="-392903" lat="58.8871805569" lon="6.02013056223">
		<tag k="name" v="Kvelven" />
		<tag k="natural" v="valley" />
		<tag k="place" v="locality" />
		<tag k="ssr:stedsnr" v="525159" />
	</node>
	<node id="-392902" lat="58.8859833327" lon="6.04585555083">
		<tag k="fixme" v="consider natural=peak for the most distinct mountains in the district" />
		<tag k="name" v="Foreberget" />
		<tag k="natural" v="hill" />
		<tag k="place" v="locality" />
		<tag k="ssr:stedsnr" v="525109" />
	</node>
	<node id="-392894" lat="58.8987333312" lon="5.98134722092">
		<tag k="name" v="Hølelia" />
		<tag k="natural" v="slope" />
		<tag k="place" v="locality" />
		<tag k="ssr:stedsnr" v="510653" />
	</node>
	<node id="-392893" lat="58.8386833304" lon="5.882658331">
		<tag k="fixme" v="consider natural=peak for the most distinct mountains in the district" />
		<tag k="name" v="Bufjellet" />
		<tag k="natural" v="hill" />
		<tag k="place" v="locality" />
		<tag k="ssr:stedsnr" v="509981" />
	</node>
	<node id="-392892" lat="58.8485527749" lon="5.96134721766">
		<tag k="fixme" v="consider natural=peak for the most distinct mountains in the district" />
		<tag k="name" v="Pigfjellet" />
		<tag k="natural" v="hill" />
		<tag k="place" v="locality" />
		<tag k="ssr:stedsnr" v="509890" />
	</node>
	<node id="-392891" lat="58.8455111131" lon="5.94513611446">
		<tag k="fixme" v="consider natural=peak for the most distinct mountains in the district" />
		<tag k="name" v="Mattisfjellet" />
		<tag k="natural" v="hill" />
		<tag k="place" v="locality" />
		<tag k="ssr:stedsnr" v="509887" />
	</node>
	<node id="-392888" lat="58.8208805556" lon="5.96724999863">
		<tag k="name" v="Harasmoget" />
		<tag k="natural" v="valley" />
		<tag k="place" v="locality" />
		<tag k="ssr:stedsnr" v="509839" />
	</node>
	<node id="-392886" lat="58.8356638921" lon="5.82164999222">
		<tag k="fixme" v="consider natural=peak for the most distinct mountains in the district" />
		<tag k="name" v="Løberget" />
		<tag k="natural" v="hill" />
		<tag k="place" v="locality" />
		<tag k="ssr:stedsnr" v="509665" />
	</node>
	<node id="-392882" lat="58.8306499988" lon="5.76206666369">
		<tag k="fixme" v="consider natural=peak for the most distinct mountains in the district" />
		<tag k="name" v="Melkeberget" />
		<tag k="natural" v="hill" />
		<tag k="place" v="locality" />
		<tag k="ssr:stedsnr" v="509611" />
	</node>
	<node id="-392877" lat="58.8074111104" lon="5.79236389724">
		<tag k="name" v="Kjeaberget" />
		<tag k="natural" v="hill" />
		<tag k="place" v="locality" />
		<tag k="ssr:stedsnr" v="509214" />
	</node>
	<node id="-392876" lat="58.8949777803" lon="5.77382499863">
		<tag k="fixme" v="consider natural=peak for the most distinct mountains in the district" />
		<tag k="name" v="Otte" />
		<tag k="natural" v="hill" />
		<tag k="place" v="locality" />
		<tag k="ssr:stedsnr" v="509208" />
	</node>
	<node id="-392874" lat="58.8920472228" lon="5.82406665955">
		<tag k="fixme" v="consider natural=peak for the most distinct mountains in the district" />
		<tag k="name" v="Kule" />
		<tag k="natural" v="hill" />
		<tag k="place" v="locality" />
		<tag k="ssr:stedsnr" v="509201" />
	</node>
	<node id="-392873" lat="58.882805557" lon="5.78090277664">
		<tag k="fixme" v="consider natural=peak for the most distinct mountains in the district" />
		<tag k="name" v="Nedre Eikenuten" />
		<tag k="natural" v="hill" />
		<tag k="place" v="locality" />
		<tag k="ssr:stedsnr" v="509178" />
	</node>
	<node id="-392870" lat="58.9105350763" lon="5.81533842886">
		<tag k="fixme" v="consider natural=peak for the most distinct mountains in the district" />
		<tag k="name" v="Jødestadfjellet" />
		<tag k="natural" v="hill" />
		<tag k="place" v="locality" />
		<tag k="ssr:stedsnr" v="509050" />
	</node>
	<node id="-392869" lat="58.8292777813" lon="5.86055277799">
		<tag k="fixme" v="consider natural=peak for the most distinct mountains in the district" />
		<tag k="name" v="Vaulaberget" />
		<tag k="natural" v="hill" />
		<tag k="place" v="locality" />
		<tag k="ssr:stedsnr" v="509046" />
	</node>
	<node id="-392867" lat="58.8458666665" lon="5.90216944684">
		<tag k="fixme" v="consider natural=peak for the most distinct mountains in the district" />
		<tag k="name" v="Pinken" />
		<tag k="natural" v="hill" />
		<tag k="place" v="locality" />
		<tag k="ssr:stedsnr" v="509029" />
	</node>
	<node id="-392865" lat="58.8438388884" lon="5.93748332955">
		<tag k="name" v="Rikkedalen" />
		<tag k="natural" v="valley" />
		<tag k="place" v="locality" />
		<tag k="ssr:stedsnr" v="509025" />
	</node>
	<node id="-392864" lat="58.8645527743" lon="5.873125004">
		<tag k="fixme" v="consider natural=peak for the most distinct mountains in the district" />
		<tag k="name" v="Stien" />
		<tag k="natural" v="hill" />
		<tag k="place" v="locality" />
		<tag k="ssr:stedsnr" v="508211" />
	</node>
	<node id="-392862" lat="58.8869694469" lon="5.92660833013">
		<tag k="fixme" v="consider natural=peak for the most distinct mountains in the district" />
		<tag k="name" v="Snåreberget" />
		<tag k="natural" v="hill" />
		<tag k="place" v="locality" />
		<tag k="ssr:stedsnr" v="508192" />
	</node>
	<node id="-392860" lat="58.8777472235" lon="5.92363333862">
		<tag k="fixme" v="consider natural=peak for the most distinct mountains in the district" />
		<tag k="name" v="Holmafjellet" />
		<tag k="natural" v="hill" />
		<tag k="place" v="locality" />
		<tag k="ssr:stedsnr" v="508178" />
	</node>
	<node id="-392859" lat="58.8752583362" lon="5.92149166048">
		<tag k="name" v="Bastalisletta" />
		<tag k="place" v="locality" />
		<tag k="ssr:stedsnr" v="508175" />
	</node>
	<node id="-392858" lat="58.8700861117" lon="5.89824443687">
		<tag k="name" v="Jodå" />
		<tag k="natural" v="slope" />
		<tag k="place" v="locality" />
		<tag k="ssr:stedsnr" v="508161" />
	</node>
	<node id="-392856" lat="58.8738722225" lon="5.90592499332">
		<tag k="fixme" v="consider natural=peak for the most distinct mountains in the district" />
		<tag k="name" v="Kuhammaren" />
		<tag k="natural" v="hill" />
		<tag k="place" v="locality" />
		<tag k="ssr:stedsnr" v="508149" />
	</node>
	<node id="-392852" lat="58.9365250028" lon="5.91890555424">
		<tag k="name" v="Ommål" />
		<tag k="natural" v="slope" />
		<tag k="place" v="locality" />
		<tag k="ssr:stedsnr" v="508118" />
	</node>
	<node id="-392850" lat="58.9446222252" lon="5.96157778513">
		<tag k="fixme" v="consider natural=peak for the most distinct mountains in the district" />
		<tag k="name" v="Håbakkhammaren" />
		<tag k="natural" v="hill" />
		<tag k="place" v="locality" />
		<tag k="ssr:stedsnr" v="508081" />
	</node>
	<node id="-392848" lat="58.9015972264" lon="5.96683055543">
		<tag k="fixme" v="consider natural=peak for the most distinct mountains in the district" />
		<tag k="name" v="Korphaug" />
		<tag k="natural" v="hill" />
		<tag k="place" v="locality" />
		<tag k="ssr:stedsnr" v="508074" />
	</node>
	<node id="-392847" lat="58.8858125436" lon="5.97972202211">
		<tag k="alt_name" v="Bukkanuten" />
		<tag k="fixme" v="consider natural=peak for the most distinct mountains in the district" />
		<tag k="name" v="Bukkaknuten" />
		<tag k="natural" v="hill" />
		<tag k="place" v="locality" />
		<tag k="ssr:stedsnr" v="508070" />
	</node>
	<node id="-392846" lat="58.9182722235" lon="5.99232222737">
		<tag k="fixme" v="consider natural=peak for the most distinct mountains in the district" />
		<tag k="name" v="Stora Sundhammar" />
		<tag k="natural" v="hill" />
		<tag k="place" v="locality" />
		<tag k="ssr:stedsnr" v="508038" />
	</node>
	<node id="-392845" lat="58.8078333334" lon="5.93283056143">
		<tag k="fixme" v="consider natural=peak for the most distinct mountains in the district" />
		<tag k="name" v="Tindafjell" />
		<tag k="natural" v="hill" />
		<tag k="place" v="locality" />
		<tag k="ssr:stedsnr" v="508008" />
	</node>
	<node id="-392838" lat="58.8111388896" lon="5.83901388505">
		<tag k="alt_name" v="Kolfjellet" />
		<tag k="fixme" v="consider natural=peak for the most distinct mountains in the district" />
		<tag k="name" v="Kolfjell" />
		<tag k="natural" v="hill" />
		<tag k="place" v="locality" />
		<tag k="ssr:stedsnr" v="486916" />
	</node>
	<node id="-392834" lat="58.9418333292" lon="5.91302499581">
		<tag k="alt_name" v="Eikelifjell" />
		<tag k="fixme" v="consider natural=peak for the most distinct mountains in the district" />
		<tag k="name" v="Eikelifjellet" />
		<tag k="natural" v="hill" />
		<tag k="place" v="locality" />
		<tag k="ssr:stedsnr" v="486717" />
	</node>
	<node id="-392825" lat="58.8509249962" lon="6.0315999956">
		<tag k="fixme" v="consider natural=peak for the most distinct mountains in the district" />
		<tag k="name" v="Grytefjellet" />
		<tag k="natural" v="hill" />
		<tag k="place" v="locality" />
		<tag k="ssr:stedsnr" v="486607" />
	</node>
	<node id="-392819" lat="58.877402779" lon="6.01705000792">
		<tag k="fixme" v="consider natural=peak for the most distinct mountains in the district" />
		<tag k="name" v="Tjuhaugen" />
		<tag k="natural" v="hill" />
		<tag k="place" v="locality" />
		<tag k="ssr:stedsnr" v="484163" />
	</node>
	<node id="-392818" lat="58.8741472213" lon="6.02198055757">
		<tag k="fixme" v="consider natural=peak for the most distinct mountains in the district" />
		<tag k="name" v="Gloppefjellet" />
		<tag k="natural" v="hill" />
		<tag k="place" v="locality" />
		<tag k="ssr:stedsnr" v="484117" />
	</node>
	<node id="-392815" lat="58.8488611128" lon="5.99798610634">
		<tag k="fixme" v="consider natural=peak for the most distinct mountains in the district" />
		<tag k="name" v="Varden" />
		<tag k="natural" v="hill" />
		<tag k="place" v="locality" />
		<tag k="ssr:stedsnr" v="483876" />
	</node>
	<node id="-392813" lat="58.8676583324" lon="6.08138889208">
		<tag k="fixme" v="consider natural=peak for the most distinct mountains in the district" />
		<tag k="name" v="Løypedalsfjellet" />
		<tag k="natural" v="hill" />
		<tag k="place" v="locality" />
		<tag k="ssr:stedsnr" v="483200" />
	</node>
	<node id="-392812" lat="58.8599277778" lon="6.06467778271">
		<tag k="name" v="Buløybakkane" />
		<tag k="natural" v="slope" />
		<tag k="place" v="locality" />
		<tag k="ssr:stedsnr" v="482845" />
	</node>
	<node id="-392801" lat="58.8858361123" lon="6.04071389733">
		<tag k="name" v="Krusabakka" />
		<tag k="natural" v="slope" />
		<tag k="place" v="locality" />
		<tag k="ssr:stedsnr" v="465146" />
	</node>
	<node id="-392799" lat="58.8333083303" lon="5.848847225">
		<tag k="name" v="Litlasygno" />
		<tag k="natural" v="hill" />
		<tag k="place" v="locality" />
		<tag k="ssr:stedsnr" v="461914" />
	</node>
	<node id="-392792" lat="58.8303166658" lon="5.803130557">
		<tag k="fixme" v="consider natural=peak for the most distinct mountains in the district" />
		<tag k="name" v="Hammaren" />
		<tag k="natural" v="hill" />
		<tag k="place" v="locality" />
		<tag k="ssr:stedsnr" v="449688" />
	</node>
	<node id="-392787" lat="58.8507472226" lon="5.75946666357">
		<tag k="name" v="Skjeraberget" />
		<tag k="natural" v="hill" />
		<tag k="place" v="locality" />
		<tag k="ssr:stedsnr" v="449645" />
	</node>
	<node id="-392782" lat="58.8110527762" lon="5.80232778624">
		<tag k="name" v="Vassviklia" />
		<tag k="natural" v="slope" />
		<tag k="place" v="locality" />
		<tag k="ssr:stedsnr" v="449215" />
	</node>
	<node id="-392781" lat="58.814044443" lon="5.80017222027">
		<tag k="fixme" v="consider natural=peak for the most distinct mountains in the district" />
		<tag k="name" v="Nonsberget" />
		<tag k="natural" v="hill" />
		<tag k="place" v="locality" />
		<tag k="ssr:stedsnr" v="449216" />
	</node>
	<node id="-392780" lat="58.8961527801" lon="5.82221110309">
		<tag k="fixme" v="consider natural=peak for the most distinct mountains in the district" />
		<tag k="name" v="Bogafjellet" />
		<tag k="natural" v="hill" />
		<tag k="place" v="locality" />
		<tag k="ssr:stedsnr" v="449206" />
	</node>
	<node id="-392779" lat="58.8867916706" lon="5.82531111396">
		<tag k="fixme" v="consider natural=peak for the most distinct mountains in the district" />
		<tag k="name" v="Hogstadfjellet" />
		<tag k="natural" v="hill" />
		<tag k="place" v="locality" />
		<tag k="ssr:stedsnr" v="449204" />
	</node>
	<node id="-392778" lat="58.8988805581" lon="5.8198055546">
		<tag k="name" v="Fjogstadskaret" />
		<tag k="natural" v="valley" />
		<tag k="place" v="locality" />
		<tag k="ssr:stedsnr" v="449205" />
	</node>
	<node id="-392776" lat="58.8741472195" lon="5.8040527833">
		<tag k="name" v="Paradisskaret" />
		<tag k="natural" v="valley" />
		<tag k="place" v="locality" />
		<tag k="ssr:stedsnr" v="449191" />
	</node>
	<node id="-392774" lat="58.8806055569" lon="5.79123889432">
		<tag k="name" v="Fossli" />
		<tag k="natural" v="slope" />
		<tag k="place" v="locality" />
		<tag k="ssr:stedsnr" v="449180" />
	</node>
	<node id="-392773" lat="58.8380861075" lon="5.85226667178">
		<tag k="name" v="Skjelbreidalen" />
		<tag k="natural" v="valley" />
		<tag k="place" v="locality" />
		<tag k="ssr:stedsnr" v="448992" />
	</node>
	<node id="-392770" lat="58.8444305584" lon="5.97659166969">
		<tag k="fixme" v="consider natural=peak for the most distinct mountains in the district" />
		<tag k="name" v="Kjørkjeberget" />
		<tag k="natural" v="hill" />
		<tag k="place" v="locality" />
		<tag k="ssr:stedsnr" v="448928" />
	</node>
	<node id="-392769" lat="58.8276861105" lon="5.98536665965">
		<tag k="name" v="Kjatona" />
		<tag k="natural" v="mountain_range" />
		<tag k="ssr:stedsnr" v="448895" />
	</node>
	<node id="-392768" lat="58.8298166659" lon="5.99506388666">
		<tag k="name" v="Urdalen" />
		<tag k="natural" v="valley" />
		<tag k="place" v="locality" />
		<tag k="ssr:stedsnr" v="448893" />
	</node>
	<node id="-392767" lat="58.8263583309" lon="5.97671944917">
		<tag k="name" v="Røynlibakken" />
		<tag k="natural" v="slope" />
		<tag k="place" v="locality" />
		<tag k="ssr:stedsnr" v="448891" />
	</node>
	<node id="-392766" lat="58.8403777819" lon="5.95258332804">
		<tag k="fixme" v="consider natural=peak for the most distinct mountains in the district" />
		<tag k="name" v="Hedlefjellet" />
		<tag k="natural" v="hill" />
		<tag k="place" v="locality" />
		<tag k="ssr:stedsnr" v="448889" />
	</node>
	<node id="-392765" lat="58.8204888891" lon="5.97451943703">
		<tag k="fixme" v="consider natural=peak for the most distinct mountains in the district" />
		<tag k="name" v="Anfinnstølen" />
		<tag k="natural" v="hill" />
		<tag k="place" v="locality" />
		<tag k="ssr:stedsnr" v="448888" />
	</node>
	<node id="-392762" lat="58.8495833296" lon="5.91088610362">
		<tag k="fixme" v="consider natural=peak for the most distinct mountains in the district" />
		<tag k="name" v="Hesthammaren" />
		<tag k="natural" v="hill" />
		<tag k="place" v="locality" />
		<tag k="ssr:stedsnr" v="448046" />
	</node>
	<node id="-392760" lat="58.7921472266" lon="5.84762221845">
		<tag k="fixme" v="consider natural=peak for the most distinct mountains in the district" />
		<tag k="name" v="Litle Blegafjell" />
		<tag k="natural" v="hill" />
		<tag k="place" v="locality" />
		<tag k="ssr:stedsnr" v="448041" />
	</node>
	<node id="-392759" lat="58.8954666696" lon="5.8745361069">
		<tag k="name" v="Vatnalia" />
		<tag k="natural" v="slope" />
		<tag k="place" v="locality" />
		<tag k="ssr:stedsnr" v="447210" />
	</node>
	<node id="-392757" lat="58.8636972244" lon="5.87748889184">
		<tag k="name" v="Ospeberget" />
		<tag k="natural" v="hill" />
		<tag k="place" v="locality" />
		<tag k="ssr:stedsnr" v="447187" />
	</node>
	<node id="-392755" lat="58.8895472246" lon="5.90976944433">
		<tag k="fixme" v="consider natural=peak for the most distinct mountains in the district" />
		<tag k="name" v="Løberget" />
		<tag k="natural" v="hill" />
		<tag k="place" v="locality" />
		<tag k="ssr:stedsnr" v="447164" />
	</node>
	<node id="-392752" lat="58.8674277787" lon="5.93257222135">
		<tag k="name" v="Trengslå" />
		<tag k="natural" v="valley" />
		<tag k="place" v="locality" />
		<tag k="ssr:stedsnr" v="447139" />
	</node>
	<node id="-392749" lat="58.9567277797" lon="5.84633889068">
		<tag k="fixme" v="consider natural=peak for the most distinct mountains in the district" />
		<tag k="loc_name" v="Tøgehaugen" />
		<tag k="name" v="Høgehaug" />
		<tag k="natural" v="hill" />
		<tag k="place" v="locality" />
		<tag k="ssr:stedsnr" v="447105" />
	</node>
	<node id="-392747" lat="58.8042666648" lon="5.83533056237">
		<tag k="fixme" v="consider natural=peak for the most distinct mountains in the district" />
		<tag k="name" v="Fosshola" />
		<tag k="natural" v="hill" />
		<tag k="place" v="locality" />
		<tag k="ssr:stedsnr" v="447102" />
	</node>
	<node id="-392745" lat="58.9532611151" lon="5.87053611152">
		<tag k="fixme" v="consider natural=peak for the most distinct mountains in the district" />
		<tag k="loc_name" v="Toppdalsfjellet" />
		<tag k="name" v="Toppdalsfjell" />
		<tag k="natural" v="hill" />
		<tag k="place" v="locality" />
		<tag k="ssr:stedsnr" v="447094" />
	</node>
	<node id="-392744" lat="58.8822444402" lon="5.96373332879">
		<tag k="fixme" v="consider natural=peak for the most distinct mountains in the district" />
		<tag k="name" v="Einarkollen" />
		<tag k="natural" v="hill" />
		<tag k="place" v="locality" />
		<tag k="ssr:stedsnr" v="447087" />
	</node>
	<node id="-392743" lat="58.9398750034" lon="5.96062222339">
		<tag k="name" v="Svartaberget" />
		<tag k="natural" v="hill" />
		<tag k="place" v="locality" />
		<tag k="ssr:stedsnr" v="447079" />
	</node>
	<node id="-392738" lat="58.9207027789" lon="5.99256943598">
		<tag k="fixme" v="consider natural=peak for the most distinct mountains in the district" />
		<tag k="name" v="Kveås" />
		<tag k="natural" v="hill" />
		<tag k="place" v="locality" />
		<tag k="ssr:stedsnr" v="447033" />
	</node>
	<node id="-392734" lat="58.8234055568" lon="5.74363610268">
		<tag k="fixme" v="consider natural=peak for the most distinct mountains in the district" />
		<tag k="name" v="Presthei" />
		<tag k="natural" v="hill" />
		<tag k="place" v="locality" />
		<tag k="ssr:stedsnr" v="426899" />
	</node>
	<node id="-392733" lat="58.8286692631" lon="5.84157723335">
		<tag k="alt_name" v="Synno;Sygnå" />
		<tag k="name" v="Sygno" />
		<tag k="natural" v="hill" />
		<tag k="place" v="locality" />
		<tag k="ssr:stedsnr" v="426892" />
	</node>
	<node id="-392724" lat="58.830586114" lon="5.95388888285">
		<tag k="alt_name" v="Flåje" />
		<tag k="name" v="Fløyen" />
		<tag k="natural" v="hill" />
		<tag k="place" v="locality" />
		<tag k="ssr:stedsnr" v="426616" />
	</node>
	<node id="-392722" lat="58.8510305568" lon="5.97368055005">
		<tag k="fixme" v="consider natural=peak for the most distinct mountains in the district" />
		<tag k="name" v="Stølsfjellet" />
		<tag k="natural" v="hill" />
		<tag k="place" v="locality" />
		<tag k="ssr:stedsnr" v="426568" />
	</node>
	<node id="-392718" lat="58.9023605081" lon="5.81384217416">
		<tag k="alt_name" v="Skjørestadfjell" />
		<tag k="fixme" v="consider natural=peak for the most distinct mountains in the district" />
		<tag k="name" v="Skjørestadfjellet" />
		<tag k="natural" v="hill" />
		<tag k="place" v="locality" />
		<tag k="ssr:stedsnr" v="425955" />
	</node>
	<node id="-392713" lat="58.86763611" lon="6.00911943746">
		<tag k="fixme" v="consider natural=peak for the most distinct mountains in the district" />
		<tag k="name" v="Dyråsen" />
		<tag k="natural" v="hill" />
		<tag k="place" v="locality" />
		<tag k="ssr:stedsnr" v="425545" />
	</node>
	<node id="-392711" lat="58.853741671" lon="6.02645832671">
		<tag k="name" v="Skrubbaskaret" />
		<tag k="natural" v="valley" />
		<tag k="place" v="locality" />
		<tag k="ssr:stedsnr" v="423860" />
	</node>
	<node id="-392710" lat="58.8644361073" lon="5.99771111952">
		<tag k="fixme" v="consider natural=peak for the most distinct mountains in the district" />
		<tag k="name" v="Fladeberga" />
		<tag k="natural" v="hill" />
		<tag k="place" v="locality" />
		<tag k="ssr:stedsnr" v="423193" />
	</node>
	<node id="-392709" lat="58.8666638924" lon="6.0405111066">
		<tag k="fixme" v="consider natural=peak for the most distinct mountains in the district" />
		<tag k="name" v="Litla Tverrfjellet" />
		<tag k="natural" v="hill" />
		<tag k="place" v="locality" />
		<tag k="ssr:stedsnr" v="423190" />
	</node>
	<node id="-392708" lat="58.8790333358" lon="6.06592222513">
		<tag k="fixme" v="consider natural=peak for the most distinct mountains in the district" />
		<tag k="name" v="Knuten" />
		<tag k="natural" v="hill" />
		<tag k="place" v="locality" />
		<tag k="ssr:stedsnr" v="423189" />
	</node>
	<node id="-392703" lat="58.8128333299" lon="5.69692777504">
		<tag k="name" v="Brunnadalen" />
		<tag k="natural" v="valley" />
		<tag k="place" v="locality" />
		<tag k="ssr:stedsnr" v="267761" />
	</node>
	<node id="-392701" lat="58.8241472226" lon="5.93728889741">
		<tag k="name" v="Ulvastien" />
		<tag k="natural" v="slope" />
		<tag k="place" v="locality" />
		<tag k="ssr:stedsnr" v="267000" />
	</node>
	<node id="-392700" lat="58.8334944402" lon="5.878877777">
		<tag k="fixme" v="consider natural=peak for the most distinct mountains in the district" />
		<tag k="name" v="Dormenuten" />
		<tag k="natural" v="hill" />
		<tag k="place" v="locality" />
		<tag k="ssr:stedsnr" v="266995" />
	</node>
	<node id="-392699" lat="58.8209583344" lon="5.92507222978">
		<tag k="fixme" v="consider natural=peak for the most distinct mountains in the district" />
		<tag k="name" v="Kristenberget" />
		<tag k="natural" v="hill" />
		<tag k="place" v="locality" />
		<tag k="ssr:stedsnr" v="266992" />
	</node>
	<node id="-392695" lat="58.841436114" lon="5.75245554854">
		<tag k="name" v="Riaren" />
		<tag k="natural" v="hill" />
		<tag k="place" v="locality" />
		<tag k="ssr:stedsnr" v="266661" />
	</node>
	<node id="-392686" lat="58.8877888858" lon="5.73334445208">
		<tag k="name" v="Midtberg" />
		<tag k="natural" v="hill" />
		<tag k="place" v="locality" />
		<tag k="ssr:stedsnr" v="266226" />
	</node>
	<node id="-392685" lat="58.9044527823" lon="5.78850555711">
		<tag k="fixme" v="consider natural=peak for the most distinct mountains in the district" />
		<tag k="name" v="Ramnafjellet" />
		<tag k="natural" v="hill" />
		<tag k="place" v="locality" />
		<tag k="ssr:stedsnr" v="266216" />
	</node>
	<node id="-392684" lat="58.8802888884" lon="5.80338056295">
		<tag k="name" v="Reen" />
		<tag k="natural" v="ridge" />
		<tag k="place" v="locality" />
		<tag k="ssr:stedsnr" v="266204" />
	</node>
	<node id="-392681" lat="58.8415555598" lon="5.89221665874">
		<tag k="fixme" v="consider natural=peak for the most distinct mountains in the district" />
		<tag k="name" v="Skogaberget" />
		<tag k="natural" v="hill" />
		<tag k="place" v="locality" />
		<tag k="ssr:stedsnr" v="266035" />
	</node>
	<node id="-392680" lat="58.8450111137" lon="5.89374167271">
		<tag k="fixme" v="consider natural=peak for the most distinct mountains in the district" />
		<tag k="name" v="Ryggjaberget" />
		<tag k="natural" v="hill" />
		<tag k="place" v="locality" />
		<tag k="ssr:stedsnr" v="266032" />
	</node>
	<node id="-392679" lat="58.8634250004" lon="5.87313332656">
		<tag k="fixme" v="consider natural=peak for the most distinct mountains in the district" />
		<tag k="name" v="Litlevikfjellet" />
		<tag k="natural" v="hill" />
		<tag k="place" v="locality" />
		<tag k="ssr:stedsnr" v="265229" />
	</node>
	<node id="-392677" lat="58.8924999979" lon="5.92724722674">
		<tag k="fixme" v="consider natural=peak for the most distinct mountains in the district" />
		<tag k="name" v="Straumhammaren" />
		<tag k="natural" v="hill" />
		<tag k="place" v="locality" />
		<tag k="ssr:stedsnr" v="265196" />
	</node>
	<node id="-392676" lat="58.890097225" lon="5.92596945187">
		<tag k="fixme" v="consider natural=peak for the most distinct mountains in the district" />
		<tag k="name" v="Svinneknausen" />
		<tag k="natural" v="hill" />
		<tag k="place" v="locality" />
		<tag k="ssr:stedsnr" v="265195" />
	</node>
	<node id="-392674" lat="58.874538891" lon="5.89183055071">
		<tag k="fixme" v="consider natural=peak for the most distinct mountains in the district" />
		<tag k="name" v="Nibbå" />
		<tag k="natural" v="hill" />
		<tag k="place" v="locality" />
		<tag k="ssr:stedsnr" v="265176" />
	</node>
	<node id="-392673" lat="58.9477152998" lon="5.90377682278">
		<tag k="fixme" v="consider natural=peak for the most distinct mountains in the district" />
		<tag k="name" v="Litle Foreknuten" />
		<tag k="natural" v="hill" />
		<tag k="place" v="locality" />
		<tag k="ssr:stedsnr" v="265156" />
	</node>
	<node id="-392668" lat="58.9592132098" lon="5.8917459556">
		<tag k="fixme" v="consider natural=peak for the most distinct mountains in the district" />
		<tag k="name" v="Lauvåsen" />
		<tag k="natural" v="hill" />
		<tag k="place" v="locality" />
		<tag k="ssr:stedsnr" v="265124" />
	</node>
	<node id="-392666" lat="58.9621555576" lon="5.88222778606">
		<tag k="fixme" v="consider natural=peak for the most distinct mountains in the district" />
		<tag k="name" v="Skjeråsen" />
		<tag k="natural" v="hill" />
		<tag k="place" v="locality" />
		<tag k="ssr:stedsnr" v="265103" />
	</node>
	<node id="-392663" lat="58.9354944469" lon="5.9768888852">
		<tag k="fixme" v="consider natural=peak for the most distinct mountains in the district" />
		<tag k="name" v="Landpåsane" />
		<tag k="natural" v="hill" />
		<tag k="place" v="locality" />
		<tag k="ssr:stedsnr" v="265084" />
	</node>
	<node id="-392662" lat="58.8631444436" lon="5.94783332525">
		<tag k="fixme" v="consider natural=peak for the most distinct mountains in the district" />
		<tag k="name" v="Husafjellet" />
		<tag k="natural" v="hill" />
		<tag k="place" v="locality" />
		<tag k="ssr:stedsnr" v="265081" />
	</node>
	<node id="-392654" lat="58.8778658741" lon="5.80837387547">
		<tag k="fixme" v="consider natural=peak for the most distinct mountains in the district" />
		<tag k="name" v="Lutsifjellet" />
		<tag k="natural" v="hill" />
		<tag k="place" v="locality" />
		<tag k="ssr:stedsnr" v="244951" />
	</node>
	<node id="-392651" lat="58.8083249973" lon="5.71360832739">
		<tag k="fixme" v="consider natural=peak for the most distinct mountains in the district" />
		<tag k="name" v="Storevarden" />
		<tag k="natural" v="hill" />
		<tag k="place" v="locality" />
		<tag k="ssr:stedsnr" v="244929" />
	</node>
	<node id="-392648" lat="58.7935893924" lon="5.80830569161">
		<tag k="alt_name" v="Krossfjell" />
		<tag k="fixme" v="consider natural=peak for the most distinct mountains in the district" />
		<tag k="name" v="Krossfjellet" />
		<tag k="natural" v="hill" />
		<tag k="place" v="locality" />
		<tag k="ssr:stedsnr" v="244840" />
	</node>
	<node id="-392645" lat="58.9473428405" lon="5.82758910457">
		<tag k="alt_name" v="Varhaug" />
		<tag k="name" v="Vardhaug" />
		<tag k="natural" v="hill" />
		<tag k="place" v="locality" />
		<tag k="ssr:stedsnr" v="244053" />
	</node>
	<node id="-392640" lat="58.8253055597" lon="5.65005277815">
		<tag k="name" v="Leanuten" />
		<tag k="natural" v="hill" />
		<tag k="place" v="locality" />
		<tag k="ssr:stedsnr" v="243873" />
	</node>
	<node id="-392636" lat="58.8949416627" lon="5.96806944713">
		<tag k="fixme" v="consider natural=peak for the most distinct mountains in the district" />
		<tag k="name" v="Husalifjellet" />
		<tag k="natural" v="hill" />
		<tag k="place" v="locality" />
		<tag k="ssr:stedsnr" v="243649" />
	</node>
	<node id="-392635" lat="58.8532361135" lon="5.92806110377">
		<tag k="alt_name" v="Rabnafjellet" />
		<tag k="fixme" v="consider natural=peak for the most distinct mountains in the district" />
		<tag k="name" v="Ramnafjellet" />
		<tag k="natural" v="hill" />
		<tag k="place" v="locality" />
		<tag k="ssr:stedsnr" v="243586" />
	</node>
	<node id="-392630" lat="58.8595944458" lon="6.03514999977">
		<tag k="name" v="Myrlandsskaret" />
		<tag k="natural" v="valley" />
		<tag k="place" v="locality" />
		<tag k="ssr:stedsnr" v="241839" />
	</node>
	<node id="-392629" lat="58.8875694454" lon="6.06502499429">
		<tag k="fixme" v="consider natural=peak for the most distinct mountains in the district" />
		<tag k="name" v="Kleiviknuten" />
		<tag k="natural" v="hill" />
		<tag k="place" v="locality" />
		<tag k="ssr:stedsnr" v="241026" />
	</node>
	<node id="-392622" lat="58.8941888907" lon="6.05031111855">
		<tag k="fixme" v="consider natural=peak for the most distinct mountains in the district" />
		<tag k="name" v="Hesthammar" />
		<tag k="natural" v="hill" />
		<tag k="place" v="locality" />
		<tag k="ssr:stedsnr" v="222090" />
	</node>
	<node id="-392605" lat="58.8247805563" lon="5.64980000261">
		<tag k="fixme" v="consider natural=peak for the most distinct mountains in the district" />
		<tag k="name" v="Leavoren" />
		<tag k="natural" v="hill" />
		<tag k="place" v="locality" />
		<tag k="ssr:stedsnr" v="206230" />
	</node>
	<node id="-392603" lat="58.8003722259" lon="5.79704165945">
		<tag k="name" v="Hushammaren" />
		<tag k="natural" v="hill" />
		<tag k="place" v="locality" />
		<tag k="ssr:stedsnr" v="206216" />
	</node>
	<node id="-392601" lat="58.9021388857" lon="5.80467222514">
		<tag k="fixme" v="consider natural=peak for the most distinct mountains in the district" />
		<tag k="name" v="Kjerdalsfjellet" />
		<tag k="natural" v="hill" />
		<tag k="place" v="locality" />
		<tag k="ssr:stedsnr" v="206203" />
	</node>
	<node id="-392598" lat="58.8712250038" lon="5.72839165773">
		<tag k="alt_name" v="Haholen" />
		<tag k="fixme" v="consider natural=peak for the most distinct mountains in the district" />
		<tag k="name" v="Håholen" />
		<tag k="natural" v="hill" />
		<tag k="place" v="locality" />
		<tag k="ssr:stedsnr" v="206660" />
	</node>
	<node id="-392592" lat="58.8298055558" lon="5.89136388781">
		<tag k="fixme" v="consider natural=peak for the most distinct mountains in the district" />
		<tag k="name" v="Kodleberget" />
		<tag k="natural" v="hill" />
		<tag k="place" v="locality" />
		<tag k="ssr:stedsnr" v="206000" />
	</node>
	<node id="-392591" lat="58.8355305595" lon="5.91098611485">
		<tag k="fixme" v="consider natural=peak for the most distinct mountains in the district" />
		<tag k="name" v="Hetlandsnuten" />
		<tag k="natural" v="hill" />
		<tag k="place" v="locality" />
		<tag k="ssr:stedsnr" v="205997" />
	</node>
	<node id="-392589" lat="58.8386750044" lon="5.91065555276">
		<tag k="name" v="Hetlandsbakken" />
		<tag k="natural" v="slope" />
		<tag k="place" v="locality" />
		<tag k="ssr:stedsnr" v="205983" />
	</node>
	<node id="-392588" lat="58.8488861118" lon="5.98023055332">
		<tag k="name" v="Heiå" />
		<tag k="natural" v="valley" />
		<tag k="place" v="locality" />
		<tag k="ssr:stedsnr" v="205935" />
	</node>
	<node id="-392586" lat="58.8495388912" lon="5.95378610458">
		<tag k="fixme" v="consider natural=peak for the most distinct mountains in the district" />
		<tag k="name" v="Bustefjell" />
		<tag k="natural" v="hill" />
		<tag k="place" v="locality" />
		<tag k="ssr:stedsnr" v="205924" />
	</node>
	<node id="-392585" lat="58.8549916629" lon="5.96742222958">
		<tag k="fixme" v="consider natural=peak for the most distinct mountains in the district" />
		<tag k="name" v="Søre Dørmålsnuten" />
		<tag k="natural" v="hill" />
		<tag k="place" v="locality" />
		<tag k="ssr:stedsnr" v="205923" />
	</node>
	<node id="-392584" lat="58.8600944423" lon="5.95954167254">
		<tag k="name" v="Tengesdalslia" />
		<tag k="natural" v="slope" />
		<tag k="place" v="locality" />
		<tag k="ssr:stedsnr" v="205910" />
	</node>
	<node id="-392581" lat="58.8910324349" lon="5.86541882562">
		<tag k="name" v="Aratørne" />
		<tag k="natural" v="slope" />
		<tag k="place" v="locality" />
		<tag k="ssr:stedsnr" v="205257" />
	</node>
	<node id="-392580" lat="58.8934194432" lon="5.87404444283">
		<tag k="fixme" v="consider natural=peak for the most distinct mountains in the district" />
		<tag k="name" v="Høgenuten" />
		<tag k="natural" v="hill" />
		<tag k="place" v="locality" />
		<tag k="ssr:stedsnr" v="205253" />
	</node>
	<node id="-392579" lat="58.8866083301" lon="5.83426667159">
		<tag k="fixme" v="consider natural=peak for the most distinct mountains in the district" />
		<tag k="name" v="Bergnova" />
		<tag k="natural" v="hill" />
		<tag k="place" v="locality" />
		<tag k="ssr:stedsnr" v="205249" />
	</node>
	<node id="-392577" lat="58.8885555561" lon="5.9274055598">
		<tag k="fixme" v="consider natural=peak for the most distinct mountains in the district" />
		<tag k="name" v="Teinehammaren" />
		<tag k="natural" v="hill" />
		<tag k="place" v="locality" />
		<tag k="ssr:stedsnr" v="205198" />
	</node>
	<node id="-392575" lat="58.8746249977" lon="5.93565833947">
		<tag k="fixme" v="consider natural=peak for the most distinct mountains in the district" />
		<tag k="name" v="Orna" />
		<tag k="natural" v="hill" />
		<tag k="place" v="locality" />
		<tag k="ssr:stedsnr" v="205187" />
	</node>
	<node id="-392573" lat="58.8709277812" lon="5.90038332902">
		<tag k="fixme" v="consider natural=peak for the most distinct mountains in the district" />
		<tag k="name" v="Porsfjellet" />
		<tag k="natural" v="hill" />
		<tag k="place" v="locality" />
		<tag k="ssr:stedsnr" v="205178" />
	</node>
	<node id="-392572" lat="58.8647444407" lon="5.92823888139">
		<tag k="fixme" v="consider natural=peak for the most distinct mountains in the district" />
		<tag k="name" v="Flådaleitet" />
		<tag k="natural" v="hill" />
		<tag k="place" v="locality" />
		<tag k="ssr:stedsnr" v="205172" />
	</node>
	<node id="-392571" lat="58.9060388878" lon="5.88337499929">
		<tag k="fixme" v="consider natural=peak for the most distinct mountains in the district" />
		<tag k="name" v="Litla Tånå" />
		<tag k="natural" v="hill" />
		<tag k="place" v="locality" />
		<tag k="ssr:stedsnr" v="205165" />
	</node>
	<node id="-392570" lat="58.9090084542" lon="5.87292920085">
		<tag k="alt_name" v="Øykjafjellet" />
		<tag k="fixme" v="consider natural=peak for the most distinct mountains in the district" />
		<tag k="name" v="Øygjafjellet" />
		<tag k="natural" v="hill" />
		<tag k="place" v="locality" />
		<tag k="ssr:stedsnr" v="205164" />
	</node>
	<node id="-392569" lat="58.939136113" lon="5.90478888819">
		<tag k="fixme" v="consider natural=peak for the most distinct mountains in the district" />
		<tag k="name" v="Fjellsenden" />
		<tag k="natural" v="hill" />
		<tag k="place" v="locality" />
		<tag k="ssr:stedsnr" v="205162" />
	</node>
	<node id="-392568" lat="58.9371277746" lon="5.88925832793">
		<tag k="name" v="Markahevet" />
		<tag k="natural" v="slope" />
		<tag k="place" v="locality" />
		<tag k="ssr:stedsnr" v="205161" />
	</node>
	<node id="-392566" lat="58.9080083324" lon="5.84217499842">
		<tag k="name" v="Djubedalen" />
		<tag k="natural" v="valley" />
		<tag k="place" v="locality" />
		<tag k="ssr:stedsnr" v="205153" />
	</node>
	<node id="-392565" lat="58.934374996" lon="5.92500833611">
		<tag k="name" v="Kleivane" />
		<tag k="natural" v="slope" />
		<tag k="place" v="locality" />
		<tag k="ssr:stedsnr" v="205139" />
	</node>
	<node id="-392563" lat="58.8891694434" lon="5.96784721546">
		<tag k="fixme" v="consider natural=peak for the most distinct mountains in the district" />
		<tag k="name" v="Fagerhaug" />
		<tag k="natural" v="hill" />
		<tag k="place" v="locality" />
		<tag k="ssr:stedsnr" v="205067" />
	</node>
	<node id="-392562" lat="58.8898499973" lon="5.94140000557">
		<tag k="name" v="Stølsdalen" />
		<tag k="natural" v="valley" />
		<tag k="place" v="locality" />
		<tag k="ssr:stedsnr" v="205061" />
	</node>
	<node id="-392561" lat="58.8477694419" lon="5.90889444978">
		<tag k="fixme" v="consider natural=peak for the most distinct mountains in the district" />
		<tag k="name" v="Store Hesthammaren" />
		<tag k="natural" v="hill" />
		<tag k="place" v="locality" />
		<tag k="ssr:stedsnr" v="205057" />
	</node>
	<node id="-392560" lat="58.8581000033" lon="5.89711945042">
		<tag k="name" v="Holbekkskaret" />
		<tag k="natural" v="valley" />
		<tag k="place" v="locality" />
		<tag k="ssr:stedsnr" v="205051" />
	</node>
	<node id="-392559" lat="58.8431888882" lon="5.84659999495">
		<tag k="fixme" v="consider natural=peak for the most distinct mountains in the district" />
		<tag k="name" v="Arensfjellet" />
		<tag k="natural" v="hill" />
		<tag k="place" v="locality" />
		<tag k="ssr:stedsnr" v="205042" />
	</node>
	<node id="-392546" lat="58.9240472252" lon="5.93157777091">
		<tag k="fixme" v="consider natural=peak for the most distinct mountains in the district" />
		<tag k="name" v="Vårlivarden" />
		<tag k="natural" v="hill" />
		<tag k="place" v="locality" />
		<tag k="ssr:stedsnr" v="183731" />
	</node>
	<node id="-392544" lat="58.8769611119" lon="5.99118333729">
		<tag k="name" v="Bukkaknuten" />
		<tag k="natural" v="hill" />
		<tag k="place" v="locality" />
		<tag k="ssr:stedsnr" v="183680" />
	</node>
	<node id="-392540" lat="58.8287666639" lon="5.93825833087">
		<tag k="fixme" v="consider natural=peak for the most distinct mountains in the district" />
		<tag k="name" v="Kvelvafjellet" />
		<tag k="natural" v="hill" />
		<tag k="place" v="locality" />
		<tag k="ssr:stedsnr" v="183605" />
	</node>
	<node id="-392539" lat="58.8312138904" lon="5.88854999309">
		<tag k="name" v="Dormålnuten" />
		<tag k="natural" v="hill" />
		<tag k="place" v="locality" />
		<tag k="ssr:stedsnr" v="183595" />
	</node>
	<node id="-392536" lat="58.8193000014" lon="5.95865000584">
		<tag k="fixme" v="consider natural=peak for the most distinct mountains in the district" />
		<tag k="name" v="Svihusfjellet" />
		<tag k="natural" v="hill" />
		<tag k="place" v="locality" />
		<tag k="ssr:stedsnr" v="183461" />
	</node>
	<node id="-392529" lat="58.8884027753" lon="5.86874999361">
		<tag k="fixme" v="consider natural=peak for the most distinct mountains in the district" />
		<tag k="name" v="Storaberget" />
		<tag k="natural" v="hill" />
		<tag k="place" v="locality" />
		<tag k="ssr:stedsnr" v="182647" />
	</node>
	<node id="-392526" lat="58.8562333363" lon="5.84897499634">
		<tag k="name" v="Alsnesfjellet" />
		<tag k="natural" v="hill" />
		<tag k="place" v="locality" />
		<tag k="ssr:stedsnr" v="182575" />
	</node>
	<node id="-392525" lat="58.8565527738" lon="5.86539165928">
		<tag k="fixme" v="consider natural=peak for the most distinct mountains in the district" />
		<tag k="name" v="Duelifjellet" />
		<tag k="natural" v="hill" />
		<tag k="place" v="locality" />
		<tag k="ssr:stedsnr" v="182571" />
	</node>
	<node id="-392523" lat="58.8481638878" lon="6.01955000177">
		<tag k="fixme" v="consider natural=peak for the most distinct mountains in the district" />
		<tag k="name" v="Råså" />
		<tag k="natural" v="hill" />
		<tag k="place" v="locality" />
		<tag k="ssr:stedsnr" v="181850" />
	</node>
	<node id="-392522" lat="58.8701638854" lon="6.06193611925">
		<tag k="fixme" v="consider natural=peak for the most distinct mountains in the district" />
		<tag k="name" v="Badnaknuten" />
		<tag k="natural" v="hill" />
		<tag k="place" v="locality" />
		<tag k="ssr:stedsnr" v="180177" />
	</node>
	<node id="-392521" lat="58.8765583322" lon="6.00346388781">
		<tag k="fixme" v="consider natural=peak for the most distinct mountains in the district" />
		<tag k="name" v="Elishammaren" />
		<tag k="natural" v="hill" />
		<tag k="place" v="locality" />
		<tag k="ssr:stedsnr" v="180146" />
	</node>
	<node id="-392519" lat="58.8845750024" lon="6.06765833123">
		<tag k="name" v="Jektaberget" />
		<tag k="natural" v="hill" />
		<tag k="place" v="locality" />
		<tag k="ssr:stedsnr" v="180021" />
	</node>
	<node id="-392510" lat="58.918327777" lon="6.01511666865">
		<tag k="name" v="Storedalen" />
		<tag k="natural" v="valley" />
		<tag k="place" v="locality" />
		<tag k="ssr:stedsnr" v="161916" />
	</node>
	<node id="-392508" lat="58.9121805598" lon="6.0146944445">
		<tag k="fixme" v="consider natural=peak for the most distinct mountains in the district" />
		<tag k="name" v="Bjønndalsfjellet" />
		<tag k="natural" v="hill" />
		<tag k="place" v="locality" />
		<tag k="ssr:stedsnr" v="161908" />
	</node>
	<node id="-392492" lat="58.8198749999" lon="5.77573055585">
		<tag k="fixme" v="consider natural=peak for the most distinct mountains in the district" />
		<tag k="name" v="Stortofjellet" />
		<tag k="natural" v="hill" />
		<tag k="place" v="locality" />
		<tag k="ssr:stedsnr" v="145687" />
	</node>
	<node id="-392488" lat="58.8453638875" lon="5.80211110523">
		<tag k="fixme" v="consider natural=peak for the most distinct mountains in the district" />
		<tag k="name" v="Husafjellet" />
		<tag k="natural" v="hill" />
		<tag k="place" v="locality" />
		<tag k="ssr:stedsnr" v="145646" />
	</node>
	<node id="-392486" lat="58.8588833321" lon="5.77872223049">
		<tag k="name" v="Apalhaugen" />
		<tag k="natural" v="hill" />
		<tag k="place" v="locality" />
		<tag k="ssr:stedsnr" v="145642" />
	</node>
	<node id="-392485" lat="58.8280194469" lon="5.75996388497">
		<tag k="fixme" v="consider natural=peak for the most distinct mountains in the district" />
		<tag k="name" v="Vodlafjellet" />
		<tag k="natural" v="hill" />
		<tag k="place" v="locality" />
		<tag k="ssr:stedsnr" v="145638" />
	</node>
	<node id="-392483" lat="58.7863525769" lon="5.7656612654">
		<tag k="fixme" v="consider natural=peak for the most distinct mountains in the district" />
		<tag k="name" v="Krossfjell" />
		<tag k="natural" v="hill" />
		<tag k="place" v="locality" />
		<tag k="ssr:stedsnr" v="145604" />
	</node>
	<node id="-392478" lat="58.8830722217" lon="5.79280277897">
		<tag k="fixme" v="consider natural=peak for the most distinct mountains in the district" />
		<tag k="name" v="Husaberget" />
		<tag k="natural" v="hill" />
		<tag k="place" v="locality" />
		<tag k="ssr:stedsnr" v="145183" />
	</node>
	<node id="-392476" lat="58.9198833314" lon="5.80194999823">
		<tag k="fixme" v="consider natural=peak for the most distinct mountains in the district" />
		<tag k="loc_name" v="Høgafjellet" />
		<tag k="name" v="Høgafjell" />
		<tag k="natural" v="hill" />
		<tag k="place" v="locality" />
		<tag k="ssr:stedsnr" v="145046" />
	</node>
	<node id="-392475" lat="58.912888887" lon="5.78360832617">
		<tag k="name" v="Revsdal" />
		<tag k="natural" v="valley" />
		<tag k="place" v="locality" />
		<tag k="ssr:stedsnr" v="145044" />
	</node>
	<node id="-392474" lat="58.8310277763" lon="5.85643889163">
		<tag k="fixme" v="consider natural=peak for the most distinct mountains in the district" />
		<tag k="name" v="Kodleberget" />
		<tag k="natural" v="hill" />
		<tag k="place" v="locality" />
		<tag k="ssr:stedsnr" v="144992" />
	</node>
	<node id="-392473" lat="58.8326083358" lon="5.85934999757">
		<tag k="name" v="Revsdal" />
		<tag k="natural" v="valley" />
		<tag k="place" v="locality" />
		<tag k="ssr:stedsnr" v="144990" />
	</node>
	<node id="-392471" lat="58.8604472236" lon="5.98833334056">
		<tag k="fixme" v="consider natural=peak for the most distinct mountains in the district" />
		<tag k="name" v="Litle Revaskarshammaren" />
		<tag k="natural" v="hill" />
		<tag k="place" v="locality" />
		<tag k="ssr:stedsnr" v="144893" />
	</node>
	<node id="-392469" lat="58.851174996" lon="5.97331667081">
		<tag k="fixme" v="consider natural=peak for the most distinct mountains in the district" />
		<tag k="name" v="Nordra Stølsfjellet" />
		<tag k="natural" v="hill" />
		<tag k="place" v="locality" />
		<tag k="ssr:stedsnr" v="144887" />
	</node>
	<node id="-392468" lat="58.8286055561" lon="5.98651389087">
		<tag k="name" v="Blegje" />
		<tag k="natural" v="mountain_range" />
		<tag k="ssr:stedsnr" v="144881" />
	</node>
	<node id="-392462" lat="58.8877194461" lon="5.888433339">
		<tag k="fixme" v="consider natural=peak for the most distinct mountains in the district" />
		<tag k="name" v="Klogaberget" />
		<tag k="natural" v="hill" />
		<tag k="place" v="locality" />
		<tag k="ssr:stedsnr" v="144207" />
	</node>
	<node id="-392461" lat="58.8628944455" lon="5.83842500646">
		<tag k="fixme" v="consider natural=peak for the most distinct mountains in the district" />
		<tag k="name" v="Gliben" />
		<tag k="natural" v="hill" />
		<tag k="place" v="locality" />
		<tag k="ssr:stedsnr" v="144205" />
	</node>
	<node id="-392460" lat="58.8690861088" lon="5.92455278553">
		<tag k="name" v="Sveiven" />
		<tag k="natural" v="slope" />
		<tag k="place" v="locality" />
		<tag k="ssr:stedsnr" v="144197" />
	</node>
	<node id="-392459" lat="58.9305444444" lon="5.86332777663">
		<tag k="fixme" v="consider natural=peak for the most distinct mountains in the district" />
		<tag k="name" v="Hesthammar" />
		<tag k="natural" v="hill" />
		<tag k="place" v="locality" />
		<tag k="ssr:stedsnr" v="144194" />
	</node>
	<node id="-392457" lat="58.8657416643" lon="5.92960832539">
		<tag k="fixme" v="consider natural=peak for the most distinct mountains in the district" />
		<tag k="name" v="Geitshammaren" />
		<tag k="natural" v="hill" />
		<tag k="place" v="locality" />
		<tag k="ssr:stedsnr" v="144171" />
	</node>
	<node id="-392455" lat="58.9174277748" lon="5.88348888199">
		<tag k="fixme" v="consider natural=peak for the most distinct mountains in the district" />
		<tag k="loc_name" v="Husafjellet" />
		<tag k="name" v="Husafjell" />
		<tag k="natural" v="hill" />
		<tag k="place" v="locality" />
		<tag k="ssr:stedsnr" v="144163" />
	</node>
	<node id="-392453" lat="58.9474867656" lon="5.88356101729">
		<tag k="fixme" v="consider natural=peak for the most distinct mountains in the district" />
		<tag k="name" v="Kattaborga" />
		<tag k="natural" v="hill" />
		<tag k="place" v="locality" />
		<tag k="ssr:stedsnr" v="144152" />
	</node>
	<node id="-392449" lat="58.9363055577" lon="5.93116111125">
		<tag k="fixme" v="consider natural=peak for the most distinct mountains in the district" />
		<tag k="name" v="Litla Vårlifjellet" />
		<tag k="natural" v="hill" />
		<tag k="place" v="locality" />
		<tag k="ssr:stedsnr" v="144136" />
	</node>
	<node id="-392447" lat="58.9515027802" lon="5.93791945164">
		<tag k="fixme" v="consider natural=peak for the most distinct mountains in the district" />
		<tag k="name" v="Lindepallen" />
		<tag k="natural" v="hill" />
		<tag k="place" v="locality" />
		<tag k="ssr:stedsnr" v="144125" />
	</node>
	<node id="-392446" lat="58.9500166699" lon="5.87426943994">
		<tag k="fixme" v="consider natural=peak for the most distinct mountains in the district" />
		<tag k="loc_name" v="Gjesdalfjellet" />
		<tag k="name" v="Gjesdalsfjell" />
		<tag k="natural" v="hill" />
		<tag k="place" v="locality" />
		<tag k="ssr:stedsnr" v="144120" />
	</node>
	<node id="-392445" lat="58.9249666691" lon="5.93964166701">
		<tag k="fixme" v="consider natural=peak for the most distinct mountains in the district" />
		<tag k="name" v="Øygjafjellet" />
		<tag k="natural" v="hill" />
		<tag k="place" v="locality" />
		<tag k="ssr:stedsnr" v="144106" />
	</node>
	<node id="-392444" lat="58.929391663" lon="5.97140834082">
		<tag k="name" v="Bakkjadalen" />
		<tag k="natural" v="valley" />
		<tag k="place" v="locality" />
		<tag k="ssr:stedsnr" v="144090" />
	</node>
	<node id="-392441" lat="58.8467833357" lon="5.93613055385">
		<tag k="name" v="Rudleheia" />
		<tag k="natural" v="hill" />
		<tag k="place" v="locality" />
		<tag k="ssr:stedsnr" v="144063" />
	</node>
	<node id="-392439" lat="58.9305555516" lon="5.94860832915">
		<tag k="fixme" v="consider natural=peak for the most distinct mountains in the district" />
		<tag k="name" v="Gobakkfjell" />
		<tag k="natural" v="hill" />
		<tag k="place" v="locality" />
		<tag k="ssr:stedsnr" v="144037" />
	</node>
	<node id="-392438" lat="58.7935499998" lon="5.87586666968">
		<tag k="fixme" v="consider natural=peak for the most distinct mountains in the district" />
		<tag k="name" v="Høneland" />
		<tag k="natural" v="hill" />
		<tag k="place" v="locality" />
		<tag k="ssr:stedsnr" v="144033" />
	</node>
	<node id="-392437" lat="58.8164388887" lon="5.93837222292">
		<tag k="fixme" v="consider natural=peak for the most distinct mountains in the district" />
		<tag k="name" v="Fossberget" />
		<tag k="natural" v="hill" />
		<tag k="place" v="locality" />
		<tag k="ssr:stedsnr" v="144001" />
	</node>
	<node id="-392417" lat="58.9339091814" lon="5.88382996481">
		<tag k="alt_name" v="Rabnafjellet" />
		<tag k="fixme" v="consider natural=peak for the most distinct mountains in the district" />
		<tag k="name" v="Ramnafjellet" />
		<tag k="natural" v="hill" />
		<tag k="place" v="locality" />
		<tag k="ssr:stedsnr" v="122679" />
	</node>
	<node id="-392412" lat="58.8423611141" lon="5.95317499955">
		<tag k="name" v="Mosaberget" />
		<tag k="natural" v="hill" />
		<tag k="place" v="locality" />
		<tag k="ssr:stedsnr" v="122585" />
	</node>
	<node id="-392410" lat="58.8491333369" lon="5.93727777681">
		<tag k="name" v="Dyranuten" />
		<tag k="natural" v="hill" />
		<tag k="place" v="locality" />
		<tag k="ssr:stedsnr" v="122569" />
	</node>
	<node id="-392409" lat="58.8491000008" lon="5.95725555941">
		<tag k="alt_name" v="Kjerringfjellet" />
		<tag k="fixme" v="consider natural=peak for the most distinct mountains in the district" />
		<tag k="name" v="Kjeringfjellet" />
		<tag k="natural" v="hill" />
		<tag k="place" v="locality" />
		<tag k="ssr:stedsnr" v="122566" />
	</node>
	<node id="-392408" lat="58.8569805566" lon="5.9546111056">
		<tag k="fixme" v="consider natural=peak for the most distinct mountains in the district" />
		<tag k="name" v="Akslifjellet" />
		<tag k="natural" v="hill" />
		<tag k="place" v="locality" />
		<tag k="ssr:stedsnr" v="122558" />
	</node>
	<node id="-392406" lat="58.8119027824" lon="5.9811138951">
		<tag k="name" v="Rott" />
		<tag k="natural" v="hill" />
		<tag k="place" v="locality" />
		<tag k="ssr:stedsnr" v="122506" />
	</node>
	<node id="-392405" lat="58.8111527812" lon="5.85939722265">
		<tag k="fixme" v="consider natural=peak for the most distinct mountains in the district" />
		<tag k="name" v="Voren" />
		<tag k="natural" v="hill" />
		<tag k="place" v="locality" />
		<tag k="ssr:stedsnr" v="122488" />
	</node>
	<node id="-392403" lat="58.8585194478" lon="5.87339722668">
		<tag k="fixme" v="consider natural=peak for the most distinct mountains in the district" />
		<tag k="name" v="Høgås" />
		<tag k="natural" v="hill" />
		<tag k="place" v="locality" />
		<tag k="ssr:stedsnr" v="122238" />
	</node>
	<node id="-392397" lat="58.866666664" lon="5.99741388347">
		<tag k="fixme" v="consider natural=peak for the most distinct mountains in the district" />
		<tag k="name" v="Nonsknuten" />
		<tag k="natural" v="hill" />
		<tag k="place" v="locality" />
		<tag k="ssr:stedsnr" v="120181" />
	</node>
	<node id="-392396" lat="58.8582361098" lon="5.99816389504">
		<tag k="fixme" v="consider natural=peak for the most distinct mountains in the district" />
		<tag k="name" v="Pigghammaren" />
		<tag k="natural" v="hill" />
		<tag k="place" v="locality" />
		<tag k="ssr:stedsnr" v="119877" />
	</node>
	<node id="-392395" lat="58.8617972256" lon="6.0273444507">
		<tag k="name" v="Myrlandsdalen" />
		<tag k="natural" v="valley" />
		<tag k="place" v="locality" />
		<tag k="ssr:stedsnr" v="119876" />
	</node>
	<node id="-392394" lat="58.8530694461" lon="6.03504721388">
		<tag k="name" v="Skorpaheia" />
		<tag k="natural" v="hill" />
		<tag k="place" v="locality" />
		<tag k="ssr:stedsnr" v="119871" />
	</node>
	<node id="-392385" lat="58.8885527763" lon="6.04233889381">
		<tag k="name" v="Grasbakka" />
		<tag k="natural" v="slope" />
		<tag k="place" v="locality" />
		<tag k="ssr:stedsnr" v="101134" />
	</node>
	<node id="-392383" lat="58.9102638874" lon="6.00678056162">
		<tag k="fixme" v="consider natural=peak for the most distinct mountains in the district" />
		<tag k="name" v="Runafjell" />
		<tag k="natural" v="hill" />
		<tag k="place" v="locality" />
		<tag k="ssr:stedsnr" v="100911" />
	</node>
	<node id="-392379" lat="58.8980361116" lon="6.01584444256">
		<tag k="fixme" v="consider natural=peak for the most distinct mountains in the district" />
		<tag k="name" v="Hammaren" />
		<tag k="natural" v="hill" />
		<tag k="place" v="locality" />
		<tag k="ssr:stedsnr" v="100098" />
	</node>
	<node id="-392378" lat="58.9230573749" lon="6.00431201398">
		<tag k="name" v="Klubben" />
		<tag k="natural" v="hill" />
		<tag k="place" v="locality" />
		<tag k="ssr:stedsnr" v="87633" />
	</node>
	<node id="-392374" lat="58.8466027782" lon="5.76723888576">
		<tag k="alt_name" v="Hunnsrau" />
		<tag k="name" v="Hundsrauv" />
		<tag k="natural" v="hill" />
		<tag k="place" v="locality" />
		<tag k="ssr:stedsnr" v="85609" />
	</node>
	<node id="-392369" lat="58.8804083309" lon="5.69046944744">
		<tag k="name" v="Humleberga" />
		<tag k="natural" v="hill" />
		<tag k="place" v="locality" />
		<tag k="ssr:stedsnr" v="85263" />
	</node>
	<node id="-392367" lat="58.8348555543" lon="5.63105277078">
		<tag k="name" v="Haukimmelen" />
		<tag k="natural" v="valley" />
		<tag k="place" v="locality" />
		<tag k="ssr:stedsnr" v="85188" />
	</node>
	<node id="-392365" lat="58.8240416624" lon="5.97065555192">
		<tag k="name" v="Ytre Skoren" />
		<tag k="natural" v="valley" />
		<tag k="place" v="locality" />
		<tag k="ssr:stedsnr" v="84894" />
	</node>
	<node id="-392364" lat="58.839963892" lon="5.85226943636">
		<tag k="fixme" v="consider natural=peak for the most distinct mountains in the district" />
		<tag k="name" v="Haugåsen" />
		<tag k="natural" v="hill" />
		<tag k="place" v="locality" />
		<tag k="ssr:stedsnr" v="84991" />
	</node>
	<node id="-392362" lat="58.8638222215" lon="5.94287499934">
		<tag k="fixme" v="consider natural=peak for the most distinct mountains in the district" />
		<tag k="name" v="Høkkhaugen" />
		<tag k="natural" v="hill" />
		<tag k="place" v="locality" />
		<tag k="ssr:stedsnr" v="84918" />
	</node>
	<node id="-392361" lat="58.8561805537" lon="5.98055555626">
		<tag k="fixme" v="consider natural=peak for the most distinct mountains in the district" />
		<tag k="name" v="Klovsteinsrinnen" />
		<tag k="natural" v="hill" />
		<tag k="place" v="locality" />
		<tag k="ssr:stedsnr" v="84916" />
	</node>
	<node id="-392360" lat="58.8498416707" lon="5.97949999641">
		<tag k="fixme" v="consider natural=peak for the most distinct mountains in the district" />
		<tag k="name" v="Sveberget" />
		<tag k="natural" v="hill" />
		<tag k="place" v="locality" />
		<tag k="ssr:stedsnr" v="84909" />
	</node>
	<node id="-392358" lat="58.8291555533" lon="5.99397776932">
		<tag k="fixme" v="consider natural=peak for the most distinct mountains in the district" />
		<tag k="name" v="Midtberget" />
		<tag k="natural" v="hill" />
		<tag k="place" v="locality" />
		<tag k="ssr:stedsnr" v="84904" />
	</node>
	<node id="-392357" lat="58.8740166643" lon="5.945197221">
		<tag k="fixme" v="consider natural=peak for the most distinct mountains in the district" />
		<tag k="name" v="Heiaknuten" />
		<tag k="natural" v="hill" />
		<tag k="place" v="locality" />
		<tag k="ssr:stedsnr" v="84903" />
	</node>
	<node id="-392351" lat="58.7983999956" lon="5.80385554731">
		<tag k="name" v="Rupholen" />
		<tag k="natural" v="hill" />
		<tag k="place" v="locality" />
		<tag k="ssr:stedsnr" v="84243" />
	</node>
	<node id="-392349" lat="58.8736388891" lon="5.80826666024">
		<tag k="name" v="Hommen" />
		<tag k="natural" v="hill" />
		<tag k="place" v="locality" />
		<tag k="ssr:stedsnr" v="84220" />
	</node>
	<node id="-392348" lat="58.8776861095" lon="5.79360555106">
		<tag k="fixme" v="consider natural=peak for the most distinct mountains in the district" />
		<tag k="name" v="Steinfjellet" />
		<tag k="natural" v="hill" />
		<tag k="place" v="locality" />
		<tag k="ssr:stedsnr" v="84216" />
	</node>
	<node id="-392346" lat="58.8543666639" lon="5.92156110968">
		<tag k="fixme" v="consider natural=peak for the most distinct mountains in the district" />
		<tag k="name" v="Sletthammaren" />
		<tag k="natural" v="hill" />
		<tag k="place" v="locality" />
		<tag k="ssr:stedsnr" v="84076" />
	</node>
	<node id="-392343" lat="58.95270937" lon="5.80515826569">
		<tag k="name" v="Storaberget" />
		<tag k="natural" v="hill" />
		<tag k="place" v="locality" />
		<tag k="ssr:stedsnr" v="84008" />
	</node>
	<node id="-392341" lat="58.8902944437" lon="5.87314999183">
		<tag k="fixme" v="consider natural=peak for the most distinct mountains in the district" />
		<tag k="name" v="Fladafjellet" />
		<tag k="natural" v="hill" />
		<tag k="place" v="locality" />
		<tag k="ssr:stedsnr" v="83237" />
	</node>
	<node id="-392340" lat="58.8958555576" lon="5.86803889338">
		<tag k="name" v="Stokkhammarskaret" />
		<tag k="natural" v="valley" />
		<tag k="place" v="locality" />
		<tag k="ssr:stedsnr" v="83229" />
	</node>
	<node id="-392338" lat="58.938041664" lon="5.89548888349">
		<tag k="name" v="Grimmeli" />
		<tag k="natural" v="slope" />
		<tag k="place" v="locality" />
		<tag k="ssr:stedsnr" v="83120" />
	</node>
	<node id="-392337" lat="58.9405361128" lon="5.93103888529">
		<tag k="name" v="Røyrdalen" />
		<tag k="natural" v="valley" />
		<tag k="place" v="locality" />
		<tag k="ssr:stedsnr" v="83121" />
	</node>
	<node id="-392336" lat="58.949222218" lon="5.88787222093">
		<tag k="fixme" v="consider natural=peak for the most distinct mountains in the district" />
		<tag k="name" v="Varaberget" />
		<tag k="natural" v="hill" />
		<tag k="place" v="locality" />
		<tag k="ssr:stedsnr" v="83114" />
	</node>
	<node id="-392335" lat="58.8050694466" lon="5.87948054785">
		<tag k="name" v="Torjå" />
		<tag k="natural" v="hill" />
		<tag k="place" v="locality" />
		<tag k="ssr:stedsnr" v="83108" />
	</node>
	<node id="-392331" lat="58.8765833357" lon="5.95531388303">
		<tag k="fixme" v="consider natural=peak for the most distinct mountains in the district" />
		<tag k="name" v="Rankeberget" />
		<tag k="natural" v="hill" />
		<tag k="place" v="locality" />
		<tag k="ssr:stedsnr" v="83072" />
	</node>
	<node id="-392330" lat="58.8998888914" lon="5.97637222639">
		<tag k="name" v="Rinnå" />
		<tag k="natural" v="ridge" />
		<tag k="place" v="locality" />
		<tag k="ssr:stedsnr" v="83068" />
	</node>
	<node id="-392329" lat="58.9258111069" lon="5.95343333791">
		<tag k="name" v="Vindre" />
		<tag k="natural" v="slope" />
		<tag k="place" v="locality" />
		<tag k="ssr:stedsnr" v="83042" />
	</node>
	<node id="-392328" lat="58.8075972241" lon="5.91552778369">
		<tag k="name" v="Gjeitaryggen" />
		<tag k="natural" v="ridge" />
		<tag k="place" v="locality" />
		<tag k="ssr:stedsnr" v="83008" />
	</node>
	<node id="-392327" lat="58.8091027819" lon="5.90420833501">
		<tag k="name" v="Padladalen" />
		<tag k="natural" v="valley" />
		<tag k="place" v="locality" />
		<tag k="ssr:stedsnr" v="83004" />
	</node>
	<node id="-392322" lat="58.8757194423" lon="5.8684944426">
		<tag k="fixme" v="consider natural=peak for the most distinct mountains in the district" />
		<tag k="name" v="Kringleskoghammaren" />
		<tag k="natural" v="hill" />
		<tag k="place" v="locality" />
		<tag k="ssr:stedsnr" v="83190" />
	</node>
	<node id="-392321" lat="58.8774444447" lon="5.86376110805">
		<tag k="fixme" v="consider natural=peak for the most distinct mountains in the district" />
		<tag k="name" v="Eikeskoghamrane" />
		<tag k="natural" v="hill" />
		<tag k="place" v="locality" />
		<tag k="ssr:stedsnr" v="83187" />
	</node>
	<node id="-392320" lat="58.9000249982" lon="5.92459167126">
		<tag k="fixme" v="consider natural=peak for the most distinct mountains in the district" />
		<tag k="name" v="Lunneåsen" />
		<tag k="natural" v="hill" />
		<tag k="place" v="locality" />
		<tag k="ssr:stedsnr" v="83168" />
	</node>
	<node id="-392319" lat="58.8908944442" lon="5.9012444469">
		<tag k="fixme" v="consider natural=peak for the most distinct mountains in the district" />
		<tag k="name" v="Tødne" />
		<tag k="natural" v="hill" />
		<tag k="place" v="locality" />
		<tag k="ssr:stedsnr" v="83167" />
	</node>
	<node id="-392318" lat="58.8663638926" lon="5.88770555699">
		<tag k="fixme" v="consider natural=peak for the most distinct mountains in the district" />
		<tag k="name" v="Rinnafjellet" />
		<tag k="natural" v="hill" />
		<tag k="place" v="locality" />
		<tag k="ssr:stedsnr" v="83165" />
	</node>
	<node id="-392317" lat="58.8781888856" lon="5.93511945106">
		<tag k="name" v="Småliane" />
		<tag k="natural" v="slope" />
		<tag k="place" v="locality" />
		<tag k="ssr:stedsnr" v="83166" />
	</node>
	<node id="-392316" lat="58.8708861114" lon="5.93675833732">
		<tag k="fixme" v="consider natural=peak for the most distinct mountains in the district" />
		<tag k="name" v="Hesthammaren" />
		<tag k="natural" v="hill" />
		<tag k="place" v="locality" />
		<tag k="ssr:stedsnr" v="83161" />
	</node>
	<node id="-392304" lat="58.881483337" lon="5.94943055961">
		<tag k="alt_name" v="Urdalshammaren" />
		<tag k="name" v="Urddalshaug" />
		<tag k="natural" v="hill" />
		<tag k="place" v="locality" />
		<tag k="ssr:stedsnr" v="62667" />
	</node>
	<node id="-392303" lat="58.8886611083" lon="5.94618611349">
		<tag k="alt_name" v="Nonsnut" />
		<tag k="fixme" v="consider natural=peak for the most distinct mountains in the district" />
		<tag k="name" v="Nonsknuten" />
		<tag k="natural" v="hill" />
		<tag k="place" v="locality" />
		<tag k="ssr:stedsnr" v="62665" />
	</node>
	<node id="-392301" lat="58.9022138889" lon="5.90704999664">
		<tag k="alt_name" v="Kjylefjellet" />
		<tag k="name" v="Kyllesfjellet" />
		<tag k="natural" v="hill" />
		<tag k="place" v="locality" />
		<tag k="ssr:stedsnr" v="62651" />
	</node>
	<node id="-392299" lat="58.8051166712" lon="5.8706000027">
		<tag k="alt_name" v="Dyranut" />
		<tag k="name" v="Dyranuten" />
		<tag k="natural" v="hill" />
		<tag k="place" v="locality" />
		<tag k="ssr:stedsnr" v="62527" />
	</node>
	<node id="-392292" lat="58.8359626085" lon="5.76770266272">
		<tag k="alt_name" v="Ragnhildsnuten" />
		<tag k="name" v="Ragnhildnuten" />
		<tag k="natural" v="hill" />
		<tag k="old_name" v="Ragnhildnut" />
		<tag k="place" v="locality" />
		<tag k="ssr:stedsnr" v="61885" />
	</node>
	<node id="-392286" lat="58.9240611152" lon="5.9530694361">
		<tag k="name" v="Husafjellet" />
		<tag k="natural" v="hill" />
		<tag k="place" v="locality" />
		<tag k="ssr:stedsnr" v="61695" />
	</node>
	<node id="-392285" lat="58.8959944445" lon="5.8987388897">
		<tag k="fixme" v="consider natural=peak for the most distinct mountains in the district" />
		<tag k="name" v="Alisfjellet" />
		<tag k="natural" v="hill" />
		<tag k="place" v="locality" />
		<tag k="ssr:stedsnr" v="61637" />
	</node>
	<node id="-392282" lat="58.8382361121" lon="5.96078610599">
		<tag k="name" v="Lyngberget" />
		<tag k="natural" v="hill" />
		<tag k="place" v="locality" />
		<tag k="ssr:stedsnr" v="61586" />
	</node>
	<node id="-392281" lat="58.8542861085" lon="6.05073332649">
		<tag k="fixme" v="consider natural=peak for the most distinct mountains in the district" />
		<tag k="name" v="Flatafjellet" />
		<tag k="natural" v="hill" />
		<tag k="place" v="locality" />
		<tag k="ssr:stedsnr" v="61579" />
	</node>
	<node id="-392280" lat="58.861958332" lon="6.08325276978">
		<tag k="alt_name" v="Selvigstakk" />
		<tag k="fixme" v="consider natural=peak for the most distinct mountains in the district" />
		<tag k="name" v="Selvigstakken" />
		<tag k="natural" v="hill" />
		<tag k="place" v="locality" />
		<tag k="ssr:stedsnr" v="61567" />
	</node>
	<node id="-392279" lat="58.8483972244" lon="5.85942778093">
		<tag k="name" v="Jøstolen" />
		<tag k="natural" v="hill" />
		<tag k="place" v="locality" />
		<tag k="ssr:stedsnr" v="61563" />
	</node>
	<node id="-392274" lat="58.8552111125" lon="6.00602221493">
		<tag k="name" v="Hesthammarheia" />
		<tag k="natural" v="hill" />
		<tag k="place" v="locality" />
		<tag k="ssr:stedsnr" v="59830" />
	</node>
	<node id="-392273" lat="58.8437083362" lon="6.01452222467">
		<tag k="name" v="Pinetona" />
		<tag k="place" v="locality" />
		<tag k="ssr:stedsnr" v="59825" />
	</node>
	<node id="-392270" lat="58.8690833311" lon="6.09041389277">
		<tag k="name" v="Nibene" />
		<tag k="natural" v="hill" />
		<tag k="place" v="locality" />
		<tag k="ssr:stedsnr" v="57757" />
	</node>
	<node id="-392259" lat="58.8547194425" lon="5.75799999394">
		<tag k="name" v="Hanabakken" />
		<tag k="natural" v="slope" />
		<tag k="place" v="locality" />
		<tag k="ssr:stedsnr" v="39394" />
	</node>
	<node id="-392257" lat="58.8876777781" lon="6.01019166328">
		<tag k="name" v="Bangadalen" />
		<tag k="natural" v="valley" />
		<tag k="place" v="locality" />
		<tag k="ssr:stedsnr" v="40108" />
	</node>
	<node id="-392243" lat="58.8693749982" lon="5.7721527776">
		<tag k="fixme" v="consider natural=peak for the most distinct mountains in the district" />
		<tag k="name" v="Sandviksbotnen" />
		<tag k="natural" v="hill" />
		<tag k="place" v="locality" />
		<tag k="ssr:stedsnr" v="24690" />
	</node>
	<node id="-392234" lat="58.8169722201" lon="5.98787777975">
		<tag k="fixme" v="consider natural=peak for the most distinct mountains in the district" />
		<tag k="name" v="Peraslåtten" />
		<tag k="natural" v="hill" />
		<tag k="place" v="locality" />
		<tag k="ssr:stedsnr" v="23935" />
	</node>
	<node id="-392233" lat="58.8592499996" lon="5.98534445278">
		<tag k="name" v="Revaskaret" />
		<tag k="natural" v="valley" />
		<tag k="place" v="locality" />
		<tag k="ssr:stedsnr" v="23915" />
	</node>
	<node id="-392232" lat="58.8498888897" lon="5.99031110319">
		<tag k="fixme" v="consider natural=peak for the most distinct mountains in the district" />
		<tag k="name" v="Komlå" />
		<tag k="natural" v="hill" />
		<tag k="place" v="locality" />
		<tag k="ssr:stedsnr" v="23912" />
	</node>
	<node id="-392231" lat="58.8374805562" lon="5.95747500054">
		<tag k="fixme" v="consider natural=peak for the most distinct mountains in the district" />
		<tag k="name" v="Grovaskarpigen" />
		<tag k="natural" v="hill" />
		<tag k="place" v="locality" />
		<tag k="ssr:stedsnr" v="23901" />
	</node>
	<node id="-392230" lat="58.8909583295" lon="5.88119722649">
		<tag k="alt_name" v="Bakkafjell" />
		<tag k="fixme" v="consider natural=peak for the most distinct mountains in the district" />
		<tag k="name" v="Bakkafjellet" />
		<tag k="natural" v="hill" />
		<tag k="place" v="locality" />
		<tag k="ssr:stedsnr" v="23286" />
	</node>
	<node id="-392228" lat="58.8673361129" lon="5.8538583283">
		<tag k="name" v="Kuberget" />
		<tag k="natural" v="hill" />
		<tag k="place" v="locality" />
		<tag k="ssr:stedsnr" v="23254" />
	</node>
	<node id="-392224" lat="58.8834916637" lon="5.83937500214">
		<tag k="name" v="Langholen" />
		<tag k="natural" v="hill" />
		<tag k="place" v="locality" />
		<tag k="ssr:stedsnr" v="23221" />
	</node>
	<node id="-392223" lat="58.8690500032" lon="5.93249444991">
		<tag k="fixme" v="consider natural=peak for the most distinct mountains in the district" />
		<tag k="name" v="Kjølleknuten" />
		<tag k="natural" v="hill" />
		<tag k="place" v="locality" />
		<tag k="ssr:stedsnr" v="23213" />
	</node>
	<node id="-392222" lat="58.8754861142" lon="5.90041666715">
		<tag k="fixme" v="consider natural=peak for the most distinct mountains in the district" />
		<tag k="name" v="Tverrberget" />
		<tag k="natural" v="hill" />
		<tag k="place" v="locality" />
		<tag k="ssr:stedsnr" v="23177" />
	</node>
	<node id="-392219" lat="58.7983611106" lon="5.87809443804">
		<tag k="fixme" v="consider natural=peak for the most distinct mountains in the district" />
		<tag k="name" v="Korpapigen" />
		<tag k="natural" v="hill" />
		<tag k="place" v="locality" />
		<tag k="ssr:stedsnr" v="23146" />
	</node>
	<node id="-392216" lat="58.8074972181" lon="5.85925834043">
		<tag k="name" v="Vorebakken" />
		<tag k="natural" v="hill" />
		<tag k="place" v="locality" />
		<tag k="ssr:stedsnr" v="23126" />
	</node>
	<node id="-392214" lat="58.8684833306" lon="5.95231110467">
		<tag k="fixme" v="consider natural=peak for the most distinct mountains in the district" />
		<tag k="name" v="Ingridhammaren" />
		<tag k="natural" v="hill" />
		<tag k="place" v="locality" />
		<tag k="ssr:stedsnr" v="23096" />
	</node>
	<node id="-392213" lat="58.8917888876" lon="5.94907499932">
		<tag k="name" v="Liane" />
		<tag k="natural" v="slope" />
		<tag k="place" v="locality" />
		<tag k="ssr:stedsnr" v="23087" />
	</node>
	<node id="-392211" lat="58.889008335" lon="5.95414722307">
		<tag k="fixme" v="consider natural=peak for the most distinct mountains in the district" />
		<tag k="name" v="Smånutane" />
		<tag k="natural" v="hill" />
		<tag k="place" v="locality" />
		<tag k="ssr:stedsnr" v="23073" />
	</node>
	<node id="-392210" lat="58.8511305563" lon="5.93398332944">
		<tag k="fixme" v="consider natural=peak for the most distinct mountains in the district" />
		<tag k="name" v="Tverrfjellet" />
		<tag k="natural" v="hill" />
		<tag k="place" v="locality" />
		<tag k="ssr:stedsnr" v="23071" />
	</node>
	<node id="-392208" lat="58.9264166661" lon="5.94765277413">
		<tag k="fixme" v="consider natural=peak for the most distinct mountains in the district" />
		<tag k="name" v="Øykjafjellet" />
		<tag k="natural" v="hill" />
		<tag k="place" v="locality" />
		<tag k="ssr:stedsnr" v="23058" />
	</node>
	<node id="-392207" lat="58.83324444" lon="5.84876110657">
		<tag k="fixme" v="consider natural=peak for the most distinct mountains in the district" />
		<tag k="name" v="Litlasygnå" />
		<tag k="natural" v="hill" />
		<tag k="place" v="locality" />
		<tag k="ssr:stedsnr" v="23057" />
	</node>
	<node id="-392206" lat="58.7819277742" lon="5.83616666146">
		<tag k="fixme" v="consider natural=peak for the most distinct mountains in the district" />
		<tag k="name" v="Kleivapiggen" />
		<tag k="natural" v="hill" />
		<tag k="place" v="locality" />
		<tag k="ssr:stedsnr" v="23036" />
	</node>
	<node id="-392205" lat="58.8051055513" lon="5.91799722417">
		<tag k="name" v="Brunndalen" />
		<tag k="natural" v="valley" />
		<tag k="place" v="locality" />
		<tag k="ssr:stedsnr" v="23013" />
	</node>
	<node id="-392203" lat="58.878669218" lon="5.74432254416">
		<tag k="alt_name" v="Lurahamaren" />
		<tag k="name" v="Lurahammaren" />
		<tag k="natural" v="hill" />
		<tag k="place" v="locality" />
		<tag k="ssr:stedsnr" v="1940" />
	</node>
	<node id="-392198" lat="58.9517861084" lon="5.87929999484">
		<tag k="alt_name" v="Høgebjørg" />
		<tag k="name" v="Høgebjør" />
		<tag k="natural" v="hill" />
		<tag k="place" v="locality" />
		<tag k="ssr:stedsnr" v="1801" />
	</node>
	<node id="-392191" lat="58.9342166709" lon="5.91844721701">
		<tag k="alt_name" v="Ommålsknuten" />
		<tag k="name" v="Ommålknuten" />
		<tag k="natural" v="hill" />
		<tag k="place" v="locality" />
		<tag k="ssr:stedsnr" v="1705" />
	</node>
	<node id="-392189" lat="58.878391671" lon="5.84814721409">
		<tag k="name" v="Klubben" />
		<tag k="natural" v="hill" />
		<tag k="place" v="locality" />
		<tag k="ssr:stedsnr" v="1683" />
	</node>
	<node id="-392186" lat="58.9008277739" lon="5.87881944956">
		<tag k="fixme" v="consider natural=peak for the most distinct mountains in the district" />
		<tag k="name" v="Torenipen" />
		<tag k="natural" v="hill" />
		<tag k="place" v="locality" />
		<tag k="ssr:stedsnr" v="1652" />
	</node>
	<node id="-392185" lat="58.8323829709" lon="5.85399110202">
		<tag k="alt_name" v="Krågeberget" />
		<tag k="name" v="Kråkeberget" />
		<tag k="natural" v="hill" />
		<tag k="place" v="locality" />
		<tag k="ssr:stedsnr" v="1616" />
	</node>
	<node id="-392184" lat="58.8400749986" lon="5.90368610493">
		<tag k="fixme" v="consider natural=peak for the most distinct mountains in the district" />
		<tag k="name" v="Vardafjell" />
		<tag k="natural" v="hill" />
		<tag k="place" v="locality" />
		<tag k="ssr:stedsnr" v="1609" />
	</node>
	<node id="-392178" lat="58.8272138887" lon="5.98972777628">
		<tag k="fixme" v="consider natural=peak for the most distinct mountains in the district" />
		<tag k="name" v="Vassfjellet" />
		<tag k="natural" v="hill" />
		<tag k="place" v="locality" />
		<tag k="ssr:stedsnr" v="1512" />
	</node>
	<node id="-392177" lat="58.8479805519" lon="5.82018610408">
		<tag k="name" v="Husafjell" />
		<tag k="natural" v="hill" />
		<tag k="place" v="locality" />
		<tag k="ssr:stedsnr" v="906" />
	</node>
	<node id="-392174" lat="58.8568861084" lon="5.89328611454">
		<tag k="alt_name" v="Novafjell" />
		<tag k="name" v="Novafjellet" />
		<tag k="natural" v="hill" />
		<tag k="place" v="locality" />
		<tag k="ssr:stedsnr" v="565" />
	</node>
	<node id="-392173" lat="58.8570500034" lon="5.96678610394">
		<tag k="name" v="Dormålsknuten" />
		<tag k="natural" v="hill" />
		<tag k="place" v="locality" />
		<tag k="ssr:stedsnr" v="562" />
	</node>
	<node id="-392171" lat="58.8413583322" lon="5.98179166285">
		<tag k="fixme" v="consider natural=peak for the most distinct mountains in the district" />
		<tag k="name" v="Heimra Kodleberget" />
		<tag k="natural" v="hill" />
		<tag k="place" v="locality" />
		<tag k="ssr:stedsnr" v="266919" />
	</node>
	<node id="-392169" lat="58.8532722261" lon="5.99359167127">
		<tag k="fixme" v="consider natural=peak for the most distinct mountains in the district" />
		<tag k="name" v="Longe Bergene" />
		<tag k="natural" v="hill" />
		<tag k="place" v="locality" />
		<tag k="ssr:stedsnr" v="266896" />
	</node>
	<node id="-392168" lat="58.8452777768" lon="5.99364999615">
		<tag k="fixme" v="consider natural=peak for the most distinct mountains in the district" />
		<tag k="name" v="Flatafjellet" />
		<tag k="natural" v="hill" />
		<tag k="place" v="locality" />
		<tag k="ssr:stedsnr" v="266890" />
	</node>
	<node id="-392167" lat="58.8268055594" lon="5.96317221812">
		<tag k="fixme" v="consider natural=peak for the most distinct mountains in the district" />
		<tag k="name" v="Storeholen" />
		<tag k="natural" v="hill" />
		<tag k="place" v="locality" />
		<tag k="ssr:stedsnr" v="266887" />
	</node>
	<node id="-392139" lat="58.8169248047" lon="5.7945821737">
		<tag k="name" v="Melsheia" />
		<tag k="natural" v="wood" />
		<tag k="ssr:stedsnr" v="1072122" />
	</node>
	<node id="-392134" lat="58.9103111089" lon="6.017791675">
		<tag k="name" v="Hatlebakken" />
		<tag k="natural" v="slope" />
		<tag k="place" v="locality" />
		<tag k="ssr:stedsnr" v="889918" />
	</node>
	<node id="-392132" lat="58.853577782" lon="5.76148887988">
		<tag k="name" v="Hanadalen" />
		<tag k="natural" v="valley" />
		<tag k="place" v="locality" />
		<tag k="ssr:stedsnr" v="889449" />
	</node>
	<node id="-392130" lat="58.8316599697" lon="5.84620593567">
		<tag k="alt_name" v="Lågasygno" />
		<tag k="fixme" v="consider natural=peak for the most distinct mountains in the district" />
		<tag k="name" v="Lågesygnå" />
		<tag k="natural" v="hill" />
		<tag k="place" v="locality" />
		<tag k="ssr:stedsnr" v="886870" />
	</node>
	<node id="-392119" lat="58.9112277749" lon="6.0209416649">
		<tag k="name" v="Kjeringhaugen" />
		<tag k="natural" v="hill" />
		<tag k="place" v="locality" />
		<tag k="ssr:stedsnr" v="404915" />
	</node>
	<node id="-392117" lat="58.8611527778" lon="5.7622388873">
		<tag k="name" v="Langafjellet" />
		<tag k="natural" v="hill" />
		<tag k="place" v="locality" />
		<tag k="ssr:stedsnr" v="403420" />
	</node>
	<node id="-392107" lat="58.811929985" lon="5.66475450295">
		<tag k="name" v="Kuleberget" />
		<tag k="natural" v="mountain_range" />
		<tag k="ssr:stedsnr" v="388744" />
	</node>
	<node id="-392106" lat="58.8295138851" lon="5.80328611482">
		<tag k="fixme" v="consider natural=peak for the most distinct mountains in the district" />
		<tag k="name" v="Vindberget" />
		<tag k="natural" v="hill" />
		<tag k="place" v="locality" />
		<tag k="ssr:stedsnr" v="388684" />
	</node>
	<node id="-392105" lat="58.8302222214" lon="5.78906945037">
		<tag k="fixme" v="consider natural=peak for the most distinct mountains in the district" />
		<tag k="name" v="Brekkafjellet" />
		<tag k="natural" v="hill" />
		<tag k="place" v="locality" />
		<tag k="ssr:stedsnr" v="388682" />
	</node>
	<node id="-392101" lat="58.8772611142" lon="5.69262222639">
		<tag k="name" v="Bæreimsnuten" />
		<tag k="natural" v="hill" />
		<tag k="place" v="locality" />
		<tag k="ssr:stedsnr" v="388299" />
	</node>
	<node id="-392099" lat="58.8215277797" lon="5.93038332908">
		<tag k="fixme" v="consider natural=peak for the most distinct mountains in the district" />
		<tag k="name" v="Mehammaren" />
		<tag k="natural" v="hill" />
		<tag k="place" v="locality" />
		<tag k="ssr:stedsnr" v="387989" />
	</node>
	<node id="-392098" lat="58.8341888898" lon="5.93718055613">
		<tag k="name" v="Store Rikkadalen" />
		<tag k="natural" v="valley" />
		<tag k="place" v="locality" />
		<tag k="ssr:stedsnr" v="387978" />
	</node>
	<node id="-392097" lat="58.8429194489" lon="5.98820555925">
		<tag k="fixme" v="consider natural=peak for the most distinct mountains in the district" />
		<tag k="name" v="Årraberget" />
		<tag k="natural" v="hill" />
		<tag k="place" v="locality" />
		<tag k="ssr:stedsnr" v="387911" />
	</node>
	<node id="-392096" lat="58.8573388877" lon="5.96678333064">
		<tag k="fixme" v="consider natural=peak for the most distinct mountains in the district" />
		<tag k="name" v="Nordre Dørmålsnuten" />
		<tag k="natural" v="hill" />
		<tag k="place" v="locality" />
		<tag k="ssr:stedsnr" v="387910" />
	</node>
	<node id="-392095" lat="58.8582805531" lon="5.98609166437">
		<tag k="fixme" v="consider natural=peak for the most distinct mountains in the district" />
		<tag k="name" v="Store Revaskarshammaren" />
		<tag k="natural" v="hill" />
		<tag k="place" v="locality" />
		<tag k="ssr:stedsnr" v="387900" />
	</node>
	<node id="-392094" lat="58.8600000022" lon="5.94008888198">
		<tag k="fixme" v="consider natural=peak for the most distinct mountains in the district" />
		<tag k="name" v="Rudlå" />
		<tag k="natural" v="hill" />
		<tag k="place" v="locality" />
		<tag k="ssr:stedsnr" v="387891" />
	</node>
	<node id="-392093" lat="58.8394444461" lon="5.97974722499">
		<tag k="fixme" v="consider natural=peak for the most distinct mountains in the district" />
		<tag k="name" v="Askenuten" />
		<tag k="natural" v="hill" />
		<tag k="place" v="locality" />
		<tag k="ssr:stedsnr" v="387887" />
	</node>
	<node id="-392090" lat="58.830286109" lon="5.76796388859">
		<tag k="fixme" v="consider natural=peak for the most distinct mountains in the district" />
		<tag k="name" v="Kodleberget" />
		<tag k="natural" v="hill" />
		<tag k="place" v="locality" />
		<tag k="ssr:stedsnr" v="387651" />
	</node>
	<node id="-392087" lat="58.8122555544" lon="5.79783889383">
		<tag k="fixme" v="consider natural=peak for the most distinct mountains in the district" />
		<tag k="name" v="Pålsberget" />
		<tag k="natural" v="hill" />
		<tag k="place" v="locality" />
		<tag k="ssr:stedsnr" v="387249" />
	</node>
	<node id="-392086" lat="58.807255558" lon="5.8200888894">
		<tag k="name" v="Krokholen" />
		<tag k="natural" v="hill" />
		<tag k="place" v="locality" />
		<tag k="ssr:stedsnr" v="387247" />
	</node>
	<node id="-392084" lat="58.8149500021" lon="5.82848888051">
		<tag k="name" v="Selshammaren" />
		<tag k="natural" v="hill" />
		<tag k="place" v="locality" />
		<tag k="ssr:stedsnr" v="387241" />
	</node>
	<node id="-392083" lat="58.8853694402" lon="5.81495833691">
		<tag k="name" v="Bjønndalen" />
		<tag k="natural" v="valley" />
		<tag k="place" v="locality" />
		<tag k="ssr:stedsnr" v="387231" />
	</node>
	<node id="-392081" lat="58.8844500036" lon="5.78488056311">
		<tag k="fixme" v="consider natural=peak for the most distinct mountains in the district" />
		<tag k="name" v="Øvre Eikenuten" />
		<tag k="natural" v="hill" />
		<tag k="place" v="locality" />
		<tag k="ssr:stedsnr" v="387229" />
	</node>
	<node id="-392080" lat="58.8500083314" lon="5.92881944367">
		<tag k="fixme" v="consider natural=peak for the most distinct mountains in the district" />
		<tag k="name" v="Steinfjellet" />
		<tag k="natural" v="hill" />
		<tag k="place" v="locality" />
		<tag k="ssr:stedsnr" v="387074" />
	</node>
	<node id="-392077" lat="58.8547583291" lon="5.88739999197">
		<tag k="name" v="Svehaugane" />
		<tag k="natural" v="slope" />
		<tag k="place" v="locality" />
		<tag k="ssr:stedsnr" v="387065" />
	</node>
	<node id="-392075" lat="58.8968722263" lon="5.87089722636">
		<tag k="fixme" v="consider natural=peak for the most distinct mountains in the district" />
		<tag k="name" v="Stokkhammar" />
		<tag k="natural" v="hill" />
		<tag k="place" v="locality" />
		<tag k="ssr:stedsnr" v="386236" />
	</node>
	<node id="-392072" lat="58.9434305539" lon="5.87324999916">
		<tag k="fixme" v="consider natural=peak for the most distinct mountains in the district" />
		<tag k="name" v="Husafjellet" />
		<tag k="natural" v="hill" />
		<tag k="place" v="locality" />
		<tag k="ssr:stedsnr" v="386144" />
	</node>
	<node id="-392066" lat="58.8903000024" lon="5.98763333928">
		<tag k="name" v="Ulvaskaret" />
		<tag k="natural" v="valley" />
		<tag k="place" v="locality" />
		<tag k="ssr:stedsnr" v="386067" />
	</node>
	<node id="-392065" lat="58.9069027759" lon="5.95582778448">
		<tag k="fixme" v="consider natural=peak for the most distinct mountains in the district" />
		<tag k="name" v="Torvmyrhaugen" />
		<tag k="natural" v="hill" />
		<tag k="place" v="locality" />
		<tag k="ssr:stedsnr" v="386047" />
	</node>
	<node id="-392062" lat="58.8044777795" lon="5.907427785">
		<tag k="name" v="Tverrbakken" />
		<tag k="natural" v="slope" />
		<tag k="place" v="locality" />
		<tag k="ssr:stedsnr" v="386013" />
	</node>
	<node id="-392061" lat="58.8691111152" lon="5.79436111647">
		<tag k="fixme" v="consider natural=peak for the most distinct mountains in the district" />
		<tag k="name" v="Vassfjellet" />
		<tag k="natural" v="hill" />
		<tag k="old_name" v="Vatnefjellet" />
		<tag k="place" v="locality" />
		<tag k="ssr:stedsnr" v="365998" />
	</node>
	<node id="-392059" lat="58.9599916708" lon="5.89382222869">
		<tag k="name" v="Vierknuten" />
		<tag k="natural" v="hill" />
		<tag k="place" v="locality" />
		<tag k="ssr:stedsnr" v="365829" />
	</node>
	<node id="-392058" lat="58.9245774976" lon="5.86928550815">
		<tag k="alt_name" v="Fladaberget;Flatefjell" />
		<tag k="fixme" v="consider natural=peak for the most distinct mountains in the district" />
		<tag k="name" v="Flataberget" />
		<tag k="natural" v="hill" />
		<tag k="place" v="locality" />
		<tag k="ssr:stedsnr" v="365748" />
	</node>
	<node id="-392052" lat="58.8396555519" lon="5.98317499248">
		<tag k="name" v="Nuten" />
		<tag k="natural" v="hill" />
		<tag k="place" v="locality" />
		<tag k="ssr:stedsnr" v="365611" />
	</node>
	<node id="-392051" lat="58.8487416647" lon="6.07168611859">
		<tag k="alt_name" v="Bynut" />
		<tag k="fixme" v="consider natural=peak for the most distinct mountains in the district" />
		<tag k="name" v="Bynuten" />
		<tag k="natural" v="hill" />
		<tag k="place" v="locality" />
		<tag k="ssr:stedsnr" v="365601" />
	</node>
	<node id="-392048" lat="58.8115679296" lon="5.93970546277">
		<tag k="alt_name" v="Varrafjellet" />
		<tag k="fixme" v="consider natural=peak for the most distinct mountains in the district" />
		<tag k="name" v="Vardafjellet" />
		<tag k="natural" v="hill" />
		<tag k="place" v="locality" />
		<tag k="ssr:stedsnr" v="365516" />
	</node>
	<node id="-392043" lat="58.8717833358" lon="6.00506110848">
		<tag k="alt_name" v="Rishammar" />
		<tag k="name" v="Rishammaren" />
		<tag k="natural" v="hill" />
		<tag k="place" v="locality" />
		<tag k="ssr:stedsnr" v="364581" />
	</node>
	<node id="-392042" lat="58.8711833354" lon="6.08071110668">
		<tag k="name" v="Gulafjellet" />
		<tag k="natural" v="hill" />
		<tag k="place" v="locality" />
		<tag k="ssr:stedsnr" v="364578" />
	</node>
	<node id="-392041" lat="58.7958638872" lon="5.84369444085">
		<tag k="alt_name" v="Store Blegafjell" />
		<tag k="fixme" v="consider natural=peak for the most distinct mountains in the district" />
		<tag k="name" v="Blikafjellet" />
		<tag k="natural" v="hill" />
		<tag k="place" v="locality" />
		<tag k="ssr:stedsnr" v="364540" />
	</node>
	<node id="-392040" lat="58.9441666658" lon="5.91459443929">
		<tag k="fixme" v="consider natural=peak for the most distinct mountains in the district" />
		<tag k="name" v="Hagaknuten" />
		<tag k="natural" v="hill" />
		<tag k="place" v="locality" />
		<tag k="ssr:stedsnr" v="364819" />
	</node>
	<node id="-392038" lat="58.8609750003" lon="6.01542777273">
		<tag k="fixme" v="consider natural=peak for the most distinct mountains in the district" />
		<tag k="name" v="Gulshammaren" />
		<tag k="natural" v="hill" />
		<tag k="place" v="locality" />
		<tag k="ssr:stedsnr" v="362846" />
	</node>
	<node id="-392037" lat="58.8560083322" lon="6.02527500304">
		<tag k="fixme" v="consider natural=peak for the most distinct mountains in the district" />
		<tag k="name" v="Litle Grytefjell" />
		<tag k="natural" v="hill" />
		<tag k="place" v="locality" />
		<tag k="ssr:stedsnr" v="362841" />
	</node>
	<node id="-392036" lat="58.8820138862" lon="6.01712222983">
		<tag k="name" v="Erlonsbakken" />
		<tag k="natural" v="slope" />
		<tag k="place" v="locality" />
		<tag k="ssr:stedsnr" v="362192" />
	</node>
	<node id="-392035" lat="58.8802027784" lon="6.05648611067">
		<tag k="name" v="Klimpedalen" />
		<tag k="natural" v="valley" />
		<tag k="place" v="locality" />
		<tag k="ssr:stedsnr" v="362178" />
	</node>
	<node id="-392034" lat="58.8717333326" lon="6.05620000522">
		<tag k="name" v="Benkjene" />
		<tag k="natural" v="valley" />
		<tag k="place" v="locality" />
		<tag k="ssr:stedsnr" v="362175" />
	</node>
	<node id="-392033" lat="58.8608000038" lon="6.07737222285">
		<tag k="fixme" v="consider natural=peak for the most distinct mountains in the district" />
		<tag k="name" v="Serifjellet" />
		<tag k="natural" v="hill" />
		<tag k="place" v="locality" />
		<tag k="ssr:stedsnr" v="360843" />
	</node>
	<node id="-392027" lat="58.9169388866" lon="6.00557778145">
		<tag k="name" v="Bjønndalen" />
		<tag k="natural" v="valley" />
		<tag k="place" v="locality" />
		<tag k="ssr:stedsnr" v="343935" />
	</node>
	<node id="-392021" lat="58.918861113" lon="6.01608055649">
		<tag k="fixme" v="consider natural=peak for the most distinct mountains in the district" />
		<tag k="name" v="Kløva" />
		<tag k="natural" v="hill" />
		<tag k="place" v="locality" />
		<tag k="ssr:stedsnr" v="329601" />
	</node>
	<node id="-392015" lat="58.8175999955" lon="5.99076110442">
		<tag k="fixme" v="consider natural=peak for the most distinct mountains in the district" />
		<tag k="name" v="Tverrfjellet" />
		<tag k="natural" v="hill" />
		<tag k="place" v="locality" />
		<tag k="ssr:stedsnr" v="327898" />
	</node>
	<node id="-392012" lat="58.8297777758" lon="5.96744167418">
		<tag k="fixme" v="consider natural=peak for the most distinct mountains in the district" />
		<tag k="name" v="Storaberget" />
		<tag k="natural" v="hill" />
		<tag k="place" v="locality" />
		<tag k="ssr:stedsnr" v="327828" />
	</node>
	<node id="-392011" lat="58.8310388863" lon="5.80551665904">
		<tag k="fixme" v="consider natural=peak for the most distinct mountains in the district" />
		<tag k="name" v="Skålshammaren" />
		<tag k="natural" v="hill" />
		<tag k="place" v="locality" />
		<tag k="ssr:stedsnr" v="327664" />
	</node>
	<node id="-392010" lat="58.8713972267" lon="5.77235277853">
		<tag k="fixme" v="consider natural=peak for the most distinct mountains in the district" />
		<tag k="name" v="Sandviksnuten" />
		<tag k="natural" v="hill" />
		<tag k="place" v="locality" />
		<tag k="ssr:stedsnr" v="327653" />
	</node>
	<node id="-392009" lat="58.8734638934" lon="5.76560278299">
		<tag k="fixme" v="consider natural=peak for the most distinct mountains in the district" />
		<tag k="name" v="Hesjanutane" />
		<tag k="natural" v="hill" />
		<tag k="place" v="locality" />
		<tag k="ssr:stedsnr" v="327652" />
	</node>
	<node id="-392008" lat="58.8517250015" lon="5.80677500318">
		<tag k="fixme" v="consider natural=peak for the most distinct mountains in the district" />
		<tag k="name" v="Ranglefjellet" />
		<tag k="natural" v="hill" />
		<tag k="place" v="locality" />
		<tag k="ssr:stedsnr" v="327619" />
	</node>
	<node id="-392007" lat="58.856641663" lon="5.79386667405">
		<tag k="name" v="Ornhammaren" />
		<tag k="natural" v="hill" />
		<tag k="place" v="locality" />
		<tag k="ssr:stedsnr" v="327617" />
	</node>
	<node id="-392003" lat="58.8093250002" lon="5.74092222652">
		<tag k="fixme" v="consider natural=peak for the most distinct mountains in the district" />
		<tag k="name" v="Arafjellet" />
		<tag k="natural" v="hill" />
		<tag k="place" v="locality" />
		<tag k="ssr:stedsnr" v="327593" />
	</node>
	<node id="-392002" lat="58.8828861152" lon="5.70112777151">
		<tag k="name" v="Langdalen" />
		<tag k="natural" v="valley" />
		<tag k="place" v="locality" />
		<tag k="ssr:stedsnr" v="327327" />
	</node>
	<node id="-391997" lat="58.8708777814" lon="5.77751110333">
		<tag k="name" v="Stølatona" />
		<tag k="natural" v="mountain_range" />
		<tag k="ssr:stedsnr" v="327194" />
	</node>
	<node id="-391996" lat="58.8676499978" lon="5.79210000827">
		<tag k="name" v="Tjuingdalen" />
		<tag k="natural" v="valley" />
		<tag k="place" v="locality" />
		<tag k="ssr:stedsnr" v="327193" />
	</node>
	<node id="-391993" lat="58.8818805595" lon="5.81273055235">
		<tag k="fixme" v="consider natural=peak for the most distinct mountains in the district" />
		<tag k="name" v="Stavstol" />
		<tag k="natural" v="hill" />
		<tag k="place" v="locality" />
		<tag k="ssr:stedsnr" v="327183" />
	</node>
	<node id="-391992" lat="58.8480777756" lon="5.91827777768">
		<tag k="name" v="Gropa" />
		<tag k="natural" v="valley" />
		<tag k="place" v="locality" />
		<tag k="ssr:stedsnr" v="327061" />
	</node>
	<node id="-391990" lat="58.8257388851" lon="5.83394166742">
		<tag k="name" v="Skålabrotet" />
		<tag k="natural" v="valley" />
		<tag k="place" v="locality" />
		<tag k="ssr:stedsnr" v="327052" />
	</node>
	<node id="-391989" lat="58.917519445" lon="5.79545278413">
		<tag k="name" v="Øksendalen" />
		<tag k="natural" v="valley" />
		<tag k="place" v="locality" />
		<tag k="ssr:stedsnr" v="327053" />
	</node>
	<node id="-391988" lat="58.8445055589" lon="5.90139999938">
		<tag k="name" v="Breiaskaret" />
		<tag k="natural" v="valley" />
		<tag k="place" v="locality" />
		<tag k="ssr:stedsnr" v="327029" />
	</node>
	<node id="-391987" lat="58.8164111138" lon="5.84813611763">
		<tag k="fixme" v="consider natural=peak for the most distinct mountains in the district" />
		<tag k="name" v="Nibå" />
		<tag k="natural" v="hill" />
		<tag k="place" v="locality" />
		<tag k="ssr:stedsnr" v="327015" />
	</node>
	<node id="-391984" lat="58.9039527773" lon="5.91303332965">
		<tag k="fixme" v="consider natural=peak for the most distinct mountains in the district" />
		<tag k="name" v="Frafjell" />
		<tag k="natural" v="hill" />
		<tag k="place" v="locality" />
		<tag k="ssr:stedsnr" v="326186" />
	</node>
	<node id="-391983" lat="58.9340750032" lon="5.87734722515">
		<tag k="fixme" v="consider natural=peak for the most distinct mountains in the district" />
		<tag k="name" v="Skakkenuten" />
		<tag k="natural" v="hill" />
		<tag k="place" v="locality" />
		<tag k="ssr:stedsnr" v="326173" />
	</node>
	<node id="-391979" lat="58.8665194475" lon="5.92746943945">
		<tag k="name" v="Råsene" />
		<tag k="natural" v="slope" />
		<tag k="place" v="locality" />
		<tag k="ssr:stedsnr" v="326151" />
	</node>
	<node id="-391978" lat="58.8736722264" lon="5.89431666491">
		<tag k="fixme" v="consider natural=peak for the most distinct mountains in the district" />
		<tag k="name" v="Nordra Porsfjellet" />
		<tag k="natural" v="hill" />
		<tag k="place" v="locality" />
		<tag k="ssr:stedsnr" v="326147" />
	</node>
	<node id="-391977" lat="58.9211222261" lon="5.87849721498">
		<tag k="name" v="Maudlandsdalen" />
		<tag k="natural" v="valley" />
		<tag k="place" v="locality" />
		<tag k="ssr:stedsnr" v="326145" />
	</node>
	<node id="-391976" lat="58.944227779" lon="5.8352555587">
		<tag k="fixme" v="consider natural=peak for the most distinct mountains in the district" />
		<tag k="loc_name" v="Bårdsknuten" />
		<tag k="name" v="Bårdsnut" />
		<tag k="natural" v="hill" />
		<tag k="place" v="locality" />
		<tag k="ssr:stedsnr" v="326127" />
	</node>
	<node id="-391975" lat="58.9377083355" lon="5.92238610994">
		<tag k="fixme" v="consider natural=peak for the most distinct mountains in the district" />
		<tag k="name" v="Levandebakka" />
		<tag k="natural" v="hill" />
		<tag k="place" v="locality" />
		<tag k="ssr:stedsnr" v="326110" />
	</node>
	<node id="-391971" lat="58.8076194456" lon="5.86631944198">
		<tag k="fixme" v="consider natural=peak for the most distinct mountains in the district" />
		<tag k="name" v="Reiphammar" />
		<tag k="natural" v="hill" />
		<tag k="place" v="locality" />
		<tag k="ssr:stedsnr" v="326099" />
	</node>
	<node id="-391970" lat="58.8065916648" lon="5.85326110479">
		<tag k="fixme" v="consider natural=peak for the most distinct mountains in the district" />
		<tag k="name" v="Haraberget" />
		<tag k="natural" v="hill" />
		<tag k="place" v="locality" />
		<tag k="ssr:stedsnr" v="326097" />
	</node>
	<node id="-391967" lat="58.8696694405" lon="5.94771666525">
		<tag k="name" v="Gaupestien" />
		<tag k="natural" v="valley" />
		<tag k="place" v="locality" />
		<tag k="ssr:stedsnr" v="326074" />
	</node>
	<node id="-391966" lat="58.8757250003" lon="5.98139167222">
		<tag k="fixme" v="consider natural=peak for the most distinct mountains in the district" />
		<tag k="name" v="Svedalsknuten" />
		<tag k="natural" v="hill" />
		<tag k="place" v="locality" />
		<tag k="ssr:stedsnr" v="326068" />
	</node>
	<node id="-391965" lat="58.8992694427" lon="5.96720278156">
		<tag k="name" v="Husalia" />
		<tag k="natural" v="slope" />
		<tag k="place" v="locality" />
		<tag k="ssr:stedsnr" v="326059" />
	</node>
	<node id="-391963" lat="58.9096388906" lon="5.96283610818">
		<tag k="fixme" v="consider natural=peak for the most distinct mountains in the district" />
		<tag k="name" v="Ørnasteinen" />
		<tag k="natural" v="hill" />
		<tag k="place" v="locality" />
		<tag k="ssr:stedsnr" v="326040" />
	</node>
	<node id="-391962" lat="58.9181055574" lon="5.96197778094">
		<tag k="fixme" v="consider natural=peak for the most distinct mountains in the district" />
		<tag k="name" v="Kvednhammar" />
		<tag k="natural" v="hill" />
		<tag k="place" v="locality" />
		<tag k="ssr:stedsnr" v="326041" />
	</node>
	<node id="-391959" lat="58.9408194441" lon="5.95232221945">
		<tag k="fixme" v="consider natural=peak for the most distinct mountains in the district" />
		<tag k="name" v="Midtre Hammarsfjell" />
		<tag k="natural" v="hill" />
		<tag k="place" v="locality" />
		<tag k="ssr:stedsnr" v="326014" />
	</node>
	<node id="-391950" lat="58.7856735208" lon="5.76888839686">
		<tag k="fixme" v="consider natural=peak for the most distinct mountains in the district" />
		<tag k="name" v="Stutafjell" />
		<tag k="natural" v="hill" />
		<tag k="place" v="locality" />
		<tag k="ssr:stedsnr" v="304856" />
	</node>
	<node id="-391948" lat="58.9550666671" lon="5.88728056">
		<tag k="name" v="Holmaknuten" />
		<tag k="natural" v="hill" />
		<tag k="old_name" v="Halmaknuten" />
		<tag k="place" v="locality" />
		<tag k="ssr:stedsnr" v="304823" />
	</node>
	<node id="-391947" lat="58.946219442" lon="5.90780833194">
		<tag k="name" v="Forefjellet" />
		<tag k="natural" v="hill" />
		<tag k="place" v="locality" />
		<tag k="ssr:stedsnr" v="304809" />
	</node>
	<node id="-391946" lat="58.9504306991" lon="5.85824606197">
		<tag k="alt_name" v="Bjørga;Bjørå" />
		<tag k="fixme" v="consider natural=peak for the most distinct mountains in the district" />
		<tag k="name" v="Bjøro" />
		<tag k="natural" v="hill" />
		<tag k="place" v="locality" />
		<tag k="ssr:stedsnr" v="304807" />
	</node>
	<node id="-391935" lat="58.8291777744" lon="5.87835277568">
		<tag k="name" v="Ørnanuten" />
		<tag k="natural" v="hill" />
		<tag k="place" v="locality" />
		<tag k="ssr:stedsnr" v="304631" />
	</node>
	<node id="-391931" lat="58.7977861143" lon="5.87422499973">
		<tag k="name" v="Vassnutane" />
		<tag k="natural" v="hill" />
		<tag k="place" v="locality" />
		<tag k="ssr:stedsnr" v="304524" />
	</node>
	<node id="-391923" lat="58.8722694433" lon="6.0431055627">
		<tag k="name" v="Hatlebergskaret" />
		<tag k="natural" v="valley" />
		<tag k="place" v="locality" />
		<tag k="ssr:stedsnr" v="302214" />
	</node>
	<node id="-391922" lat="58.8586888898" lon="6.02193888257">
		<tag k="name" v="Myrlandsheia" />
		<tag k="natural" v="hill" />
		<tag k="place" v="locality" />
		<tag k="ssr:stedsnr" v="301850" />
	</node>
	<node id="-391921" lat="58.8582249968" lon="6.03419165834">
		<tag k="name" v="Allmannaskaret" />
		<tag k="natural" v="valley" />
		<tag k="place" v="locality" />
		<tag k="ssr:stedsnr" v="301843" />
	</node>
	<node id="-391919" lat="58.8728305591" lon="6.0617638914">
		<tag k="name" v="Småliane" />
		<tag k="natural" v="slope" />
		<tag k="place" v="locality" />
		<tag k="ssr:stedsnr" v="301165" />
	</node>
	<node id="-391908" lat="58.8931805558" lon="6.02242778188">
		<tag k="name" v="Floen" />
		<tag k="place" v="locality" />
		<tag k="ssr:stedsnr" v="283113" />
	</node>
	<node id="-391906" lat="58.9156555559" lon="6.01458333157">
		<tag k="fixme" v="consider natural=peak for the most distinct mountains in the district" />
		<tag k="name" v="Varatødne" />
		<tag k="natural" v="hill" />
		<tag k="place" v="locality" />
		<tag k="ssr:stedsnr" v="282935" />
	</node>
	<node id="-391902" lat="58.8812166641" lon="5.7710027762">
		<tag k="name" v="Knuten" />
		<tag k="natural" v="hill" />
		<tag k="place" v="locality" />
		<tag k="ssr:stedsnr" v="282453" />
	</node>
	<node id="-391897" lat="58.9231998807" lon="5.98867914508">
		<tag k="fixme" v="consider natural=peak for the most distinct mountains in the district" />
		<tag k="name" v="Sunnaråsen" />
		<tag k="natural" v="hill" />
		<tag k="place" v="locality" />
		<tag k="ssr:stedsnr" v="275860" />
	</node>
	<node id="-393670" lat="58.8739111152" lon="6.08171389586">
		<tag k="name" v="Løypedalen" />
		<tag k="natural" v="valley" />
		<tag k="place" v="locality" />
		<tag k="ssr:stedsnr" v="969187" />
	</node>
	<node id="-393668" lat="58.8530666696" lon="6.00920833748">
		<tag k="fixme" v="consider natural=peak for the most distinct mountains in the district" />
		<tag k="name" v="Kvednahaugen" />
		<tag k="natural" v="hill" />
		<tag k="place" v="locality" />
		<tag k="ssr:stedsnr" v="968867" />
	</node>
	<node id="-393667" lat="58.8616638927" lon="6.0592055591">
		<tag k="fixme" v="consider natural=peak for the most distinct mountains in the district" />
		<tag k="name" v="Buløyfjellet" />
		<tag k="natural" v="hill" />
		<tag k="place" v="locality" />
		<tag k="ssr:stedsnr" v="967832" />
	</node>
	<node id="-393662" lat="58.913824997" lon="6.00195555405">
		<tag k="name" v="Flatdalen" />
		<tag k="natural" v="valley" />
		<tag k="place" v="locality" />
		<tag k="ssr:stedsnr" v="950914" />
	</node>
	<node id="-393658" lat="58.889575" lon="6.04936944944">
		<tag k="name" v="Mjådalen" />
		<tag k="natural" v="valley" />
		<tag k="place" v="locality" />
		<tag k="ssr:stedsnr" v="950109" />
	</node>
	<node id="-393657" lat="58.8354027762" lon="5.79061110732">
		<tag k="name" v="Vedafjell" />
		<tag k="natural" v="mountain_range" />
		<tag k="ssr:stedsnr" v="949707" />
	</node>
	<node id="-393649" lat="58.8333694442" lon="5.90904722818">
		<tag k="name" v="Stien" />
		<tag k="natural" v="valley" />
		<tag k="place" v="locality" />
		<tag k="ssr:stedsnr" v="934997" />
	</node>
	<node id="-393647" lat="58.8549638913" lon="5.97294999691">
		<tag k="name" v="Håvardsheia" />
		<tag k="natural" v="slope" />
		<tag k="place" v="locality" />
		<tag k="ssr:stedsnr" v="934877" />
	</node>
	<node id="-393646" lat="58.844786115" lon="5.98311389205">
		<tag k="fixme" v="consider natural=peak for the most distinct mountains in the district" />
		<tag k="name" v="Skrubbaberget" />
		<tag k="natural" v="hill" />
		<tag k="place" v="locality" />
		<tag k="ssr:stedsnr" v="934867" />
	</node>
	<node id="-393645" lat="58.8253138927" lon="5.97093334077">
		<tag k="fixme" v="consider natural=peak for the most distinct mountains in the district" />
		<tag k="name" v="Slettanuten" />
		<tag k="natural" v="hill" />
		<tag k="place" v="locality" />
		<tag k="ssr:stedsnr" v="934853" />
	</node>
	<node id="-393644" lat="58.8395527772" lon="5.81773888428">
		<tag k="name" v="Smørdalen" />
		<tag k="natural" v="valley" />
		<tag k="place" v="locality" />
		<tag k="ssr:stedsnr" v="934672" />
	</node>
	<node id="-393643" lat="58.8612527815" lon="5.75609721887">
		<tag k="fixme" v="consider natural=peak for the most distinct mountains in the district" />
		<tag k="name" v="Laberget" />
		<tag k="natural" v="hill" />
		<tag k="place" v="locality" />
		<tag k="ssr:stedsnr" v="934626" />
	</node>
	<node id="-393640" lat="58.8134694405" lon="5.74719444669">
		<tag k="fixme" v="consider natural=peak for the most distinct mountains in the district" />
		<tag k="name" v="Kladden" />
		<tag k="natural" v="hill" />
		<tag k="place" v="locality" />
		<tag k="ssr:stedsnr" v="934590" />
	</node>
	<node id="-393639" lat="58.8121416646" lon="5.74328333168">
		<tag k="fixme" v="consider natural=peak for the most distinct mountains in the district" />
		<tag k="name" v="Litla Bogafjellet" />
		<tag k="natural" v="hill" />
		<tag k="place" v="locality" />
		<tag k="ssr:stedsnr" v="934587" />
	</node>
	<node id="-393638" lat="58.8078472229" lon="5.73786111965">
		<tag k="fixme" v="consider natural=peak for the most distinct mountains in the district" />
		<tag k="name" v="Rabnafjellet" />
		<tag k="natural" v="hill" />
		<tag k="place" v="locality" />
		<tag k="ssr:stedsnr" v="934584" />
	</node>
	<node id="-393637" lat="58.7871993444" lon="5.76721062048">
		<tag k="fixme" v="consider natural=peak for the most distinct mountains in the district" />
		<tag k="name" v="Fagrafjell" />
		<tag k="natural" v="hill" />
		<tag k="place" v="locality" />
		<tag k="ssr:stedsnr" v="934569" />
	</node>
	<node id="-393629" lat="58.8884555527" lon="5.73011667223">
		<tag k="name" v="Forusholmen" />
		<tag k="natural" v="hill" />
		<tag k="place" v="locality" />
		<tag k="ssr:stedsnr" v="934198" />
	</node>
	<node id="-393628" lat="58.8798666661" lon="5.81514722784">
		<tag k="fixme" v="consider natural=peak for the most distinct mountains in the district" />
		<tag k="name" v="Kuheia" />
		<tag k="natural" v="hill" />
		<tag k="place" v="locality" />
		<tag k="ssr:stedsnr" v="934180" />
	</node>
	<node id="-393627" lat="58.8775784056" lon="5.80849130938">
		<tag k="fixme" v="consider natural=peak for the most distinct mountains in the district" />
		<tag k="name" v="Mattirudla" />
		<tag k="natural" v="hill" />
		<tag k="place" v="locality" />
		<tag k="ssr:stedsnr" v="934179" />
	</node>
	<node id="-393623" lat="58.8335570543" lon="5.84954549385">
		<tag k="alt_name" v="Kjeringnuten" />
		<tag k="fixme" v="consider natural=peak for the most distinct mountains in the district" />
		<tag k="name" v="Kjerringfjellet" />
		<tag k="natural" v="hill" />
		<tag k="place" v="locality" />
		<tag k="ssr:stedsnr" v="934045" />
	</node>
	<node id="-393622" lat="58.8289999992" lon="5.86750555349">
		<tag k="name" v="Rodaberget" />
		<tag k="natural" v="hill" />
		<tag k="place" v="locality" />
		<tag k="ssr:stedsnr" v="934043" />
	</node>
	<node id="-393621" lat="58.9037111125" lon="5.8381138838">
		<tag k="name" v="Skiftesdalen" />
		<tag k="natural" v="valley" />
		<tag k="place" v="locality" />
		<tag k="ssr:stedsnr" v="933194" />
	</node>
	<node id="-393619" lat="58.885383329" lon="5.90101944708">
		<tag k="fixme" v="consider natural=peak for the most distinct mountains in the district" />
		<tag k="name" v="Kjyhammaren" />
		<tag k="natural" v="hill" />
		<tag k="place" v="locality" />
		<tag k="ssr:stedsnr" v="933189" />
	</node>
	<node id="-393618" lat="58.8706722205" lon="5.90841388487">
		<tag k="fixme" v="consider natural=peak for the most distinct mountains in the district" />
		<tag k="name" v="Nordra Kjeaberget" />
		<tag k="natural" v="hill" />
		<tag k="place" v="locality" />
		<tag k="ssr:stedsnr" v="933167" />
	</node>
	<node id="-393617" lat="58.8761361143" lon="5.89396666015">
		<tag k="name" v="Longanesholen" />
		<tag k="place" v="locality" />
		<tag k="ssr:stedsnr" v="933156" />
	</node>
	<node id="-393616" lat="58.943116664" lon="5.88652777263">
		<tag k="fixme" v="consider natural=peak for the most distinct mountains in the district" />
		<tag k="loc_name" v="Duberget" />
		<tag k="name" v="Dueberget" />
		<tag k="natural" v="hill" />
		<tag k="place" v="locality" />
		<tag k="ssr:stedsnr" v="933146" />
	</node>
	<node id="-393615" lat="58.9100222241" lon="5.88979443613">
		<tag k="fixme" v="consider natural=peak for the most distinct mountains in the district" />
		<tag k="name" v="Langalifjell" />
		<tag k="natural" v="hill" />
		<tag k="place" v="locality" />
		<tag k="ssr:stedsnr" v="933143" />
	</node>
	<node id="-393613" lat="58.9356861138" lon="5.90155278506">
		<tag k="fixme" v="consider natural=peak for the most distinct mountains in the district" />
		<tag k="loc_name" v="Litle Grimmeliknuten" />
		<tag k="name" v="Grimmeliknuten" />
		<tag k="natural" v="hill" />
		<tag k="place" v="locality" />
		<tag k="ssr:stedsnr" v="933129" />
	</node>
	<node id="-393612" lat="58.9517722256" lon="5.89014166517">
		<tag k="fixme" v="consider natural=peak for the most distinct mountains in the district" />
		<tag k="name" v="Iglemyrknuten" />
		<tag k="natural" v="hill" />
		<tag k="place" v="locality" />
		<tag k="ssr:stedsnr" v="933123" />
	</node>
	<node id="-393610" lat="58.9512111071" lon="5.90867222358">
		<tag k="fixme" v="consider natural=peak for the most distinct mountains in the district" />
		<tag k="name" v="Foreknuten" />
		<tag k="natural" v="hill" />
		<tag k="place" v="locality" />
		<tag k="ssr:stedsnr" v="933112" />
	</node>
	<node id="-393609" lat="58.9504666709" lon="5.90022500029">
		<tag k="fixme" v="consider natural=peak for the most distinct mountains in the district" />
		<tag k="name" v="Klåberget" />
		<tag k="natural" v="hill" />
		<tag k="place" v="locality" />
		<tag k="ssr:stedsnr" v="933111" />
	</node>
	<node id="-393608" lat="58.9562638871" lon="5.86597778109">
		<tag k="fixme" v="consider natural=peak for the most distinct mountains in the district" />
		<tag k="name" v="Mortavikhammaren" />
		<tag k="natural" v="hill" />
		<tag k="place" v="locality" />
		<tag k="ssr:stedsnr" v="933108" />
	</node>
	<node id="-393607" lat="58.9136083289" lon="5.92793888893">
		<tag k="alt_name" v="Tjødnåsskardet" />
		<tag k="name" v="Tjørnåsskardet" />
		<tag k="natural" v="valley" />
		<tag k="place" v="locality" />
		<tag k="ssr:stedsnr" v="933103" />
	</node>
	<node id="-393605" lat="58.9473388912" lon="5.95549999537">
		<tag k="name" v="Håvarsli" />
		<tag k="natural" v="slope" />
		<tag k="place" v="locality" />
		<tag k="ssr:stedsnr" v="933088" />
	</node>
	<node id="-393604" lat="58.8695805565" lon="5.97929722086">
		<tag k="fixme" v="consider natural=peak for the most distinct mountains in the district" />
		<tag k="name" v="Kleivaknuten" />
		<tag k="natural" v="hill" />
		<tag k="place" v="locality" />
		<tag k="ssr:stedsnr" v="933083" />
	</node>
	<node id="-393602" lat="58.912880556" lon="5.96274722333">
		<tag k="fixme" v="consider natural=peak for the most distinct mountains in the district" />
		<tag k="name" v="Foreknuten" />
		<tag k="natural" v="hill" />
		<tag k="place" v="locality" />
		<tag k="ssr:stedsnr" v="933047" />
	</node>
	<node id="-393600" lat="58.9378277774" lon="5.94163055961">
		<tag k="name" v="Hammarsdalen" />
		<tag k="natural" v="valley" />
		<tag k="place" v="locality" />
		<tag k="ssr:stedsnr" v="933036" />
	</node>
	<node id="-393599" lat="58.8069555574" lon="5.90873611355">
		<tag k="fixme" v="consider natural=peak for the most distinct mountains in the district" />
		<tag k="name" v="Eigefjellet" />
		<tag k="natural" v="hill" />
		<tag k="place" v="locality" />
		<tag k="ssr:stedsnr" v="933010" />
	</node>
	<node id="-393598" lat="58.8081611095" lon="5.88929445314">
		<tag k="fixme" v="consider natural=peak for the most distinct mountains in the district" />
		<tag k="name" v="Lauvberga" />
		<tag k="natural" v="hill" />
		<tag k="place" v="locality" />
		<tag k="ssr:stedsnr" v="933011" />
	</node>
	<node id="-393595" lat="58.8154111117" lon="5.90245834086">
		<tag k="fixme" v="consider natural=peak for the most distinct mountains in the district" />
		<tag k="name" v="Hammaren" />
		<tag k="natural" v="hill" />
		<tag k="place" v="locality" />
		<tag k="ssr:stedsnr" v="933001" />
	</node>
	<node id="-393592" lat="58.861269448" lon="5.81428611284">
		<tag k="fixme" v="consider natural=peak for the most distinct mountains in the district" />
		<tag k="name" v="Hagafjellet" />
		<tag k="natural" v="hill" />
		<tag k="old_name" v="Hagafjell" />
		<tag k="place" v="locality" />
		<tag k="ssr:stedsnr" v="911980" />
	</node>
	<node id="-393589" lat="58.8222055533" lon="5.79535000168">
		<tag k="fixme" v="consider natural=peak for the most distinct mountains in the district" />
		<tag k="name" v="Steinfjellet" />
		<tag k="natural" v="hill" />
		<tag k="place" v="locality" />
		<tag k="ssr:stedsnr" v="911919" />
	</node>
	<node id="-393588" lat="58.8022222233" lon="5.76965555643">
		<tag k="alt_name" v="Bråsteinnuten" />
		<tag k="name" v="Bråsteinåsen" />
		<tag k="natural" v="hill" />
		<tag k="place" v="locality" />
		<tag k="ssr:stedsnr" v="911913" />
	</node>
	<node id="-393579" lat="58.9587444484" lon="5.87328055701">
		<tag k="alt_name" v="Foreåsen, litle" />
		<tag k="fixme" v="consider natural=peak for the most distinct mountains in the district" />
		<tag k="name" v="Litle Foreåsen" />
		<tag k="natural" v="hill" />
		<tag k="place" v="locality" />
		<tag k="ssr:stedsnr" v="911770" />
	</node>
	<node id="-393578" lat="58.913125004" lon="5.94279999586">
		<tag k="alt_name" v="Rabnafjellet" />
		<tag k="name" v="Ramnafjellet" />
		<tag k="natural" v="hill" />
		<tag k="place" v="locality" />
		<tag k="ssr:stedsnr" v="911760" />
	</node>
	<node id="-393577" lat="58.9181555541" lon="5.93112499554">
		<tag k="name" v="Hestafjellet" />
		<tag k="natural" v="hill" />
		<tag k="place" v="locality" />
		<tag k="ssr:stedsnr" v="911741" />
	</node>
	<node id="-393563" lat="58.9304307686" lon="5.79321209139">
		<tag k="name" v="Lihalsen" />
		<tag k="place" v="locality" />
		<tag k="ssr:stedsnr" v="911012" />
	</node>
	<node id="-393559" lat="58.8776277775" lon="6.02324445279">
		<tag k="name" v="Kråkelia" />
		<tag k="natural" v="slope" />
		<tag k="place" v="locality" />
		<tag k="ssr:stedsnr" v="909204" />
	</node>
	<node id="-393558" lat="58.8718833332" lon="6.03493056009">
		<tag k="fixme" v="consider natural=peak for the most distinct mountains in the district" />
		<tag k="name" v="Saualifjellet" />
		<tag k="natural" v="hill" />
		<tag k="place" v="locality" />
		<tag k="ssr:stedsnr" v="909155" />
	</node>
	<node id="-393557" lat="58.8552222219" lon="5.99873611898">
		<tag k="fixme" v="consider natural=peak for the most distinct mountains in the district" />
		<tag k="name" v="Pinhammaren" />
		<tag k="natural" v="hill" />
		<tag k="place" v="locality" />
		<tag k="ssr:stedsnr" v="908877" />
	</node>
	<node id="-393553" lat="58.8332166655" lon="5.9045277831">
		<tag k="fixme" v="consider natural=peak for the most distinct mountains in the district" />
		<tag k="name" v="Longetofjellet" />
		<tag k="natural" v="hill" />
		<tag k="place" v="locality" />
		<tag k="ssr:stedsnr" v="873995" />
	</node>
	<node id="-393552" lat="58.8371888906" lon="5.86363611136">
		<tag k="name" v="Vadladalen" />
		<tag k="natural" v="valley" />
		<tag k="place" v="locality" />
		<tag k="ssr:stedsnr" v="873992" />
	</node>
	<node id="-393550" lat="58.8316472209" lon="5.93764999205">
		<tag k="name" v="Litle Rikkadalen" />
		<tag k="natural" v="valley" />
		<tag k="place" v="locality" />
		<tag k="ssr:stedsnr" v="873977" />
	</node>
	<node id="-393548" lat="58.8401916631" lon="5.93928333001">
		<tag k="fixme" v="consider natural=peak for the most distinct mountains in the district" />
		<tag k="name" v="Skarafjellet" />
		<tag k="natural" v="hill" />
		<tag k="place" v="locality" />
		<tag k="ssr:stedsnr" v="873974" />
	</node>
	<node id="-393547" lat="58.8621277778" lon="5.98966665902">
		<tag k="name" v="Undedalen" />
		<tag k="natural" v="valley" />
		<tag k="place" v="locality" />
		<tag k="ssr:stedsnr" v="873891" />
	</node>
	<node id="-393546" lat="58.8589388855" lon="5.94783333196">
		<tag k="name" v="Kvelvane" />
		<tag k="natural" v="slope" />
		<tag k="place" v="locality" />
		<tag k="ssr:stedsnr" v="873887" />
	</node>
	<node id="-393545" lat="58.8399694458" lon="5.97413056169">
		<tag k="fixme" v="consider natural=peak for the most distinct mountains in the district" />
		<tag k="name" v="Kregjeberget" />
		<tag k="natural" v="hill" />
		<tag k="place" v="locality" />
		<tag k="ssr:stedsnr" v="873870" />
	</node>
	<node id="-393544" lat="58.8213672904" lon="5.80462899001">
		<tag k="fixme" v="consider natural=peak for the most distinct mountains in the district" />
		<tag k="name" v="Skogaberget" />
		<tag k="natural" v="hill" />
		<tag k="place" v="locality" />
		<tag k="ssr:stedsnr" v="873663" />
	</node>
	<node id="-393542" lat="58.8681972229" lon="5.76683889699">
		<tag k="fixme" v="consider natural=peak for the most distinct mountains in the district" />
		<tag k="name" v="Løenuten" />
		<tag k="natural" v="hill" />
		<tag k="place" v="locality" />
		<tag k="ssr:stedsnr" v="873657" />
	</node>
	<node id="-393540" lat="58.825447221" lon="5.77039167153">
		<tag k="fixme" v="consider natural=peak for the most distinct mountains in the district" />
		<tag k="name" v="Melsheinuten" />
		<tag k="natural" v="hill" />
		<tag k="place" v="locality" />
		<tag k="ssr:stedsnr" v="873618" />
	</node>
	<node id="-393535" lat="58.8255166647" lon="5.64497777788">
		<tag k="name" v="Hålandsdalen" />
		<tag k="natural" v="valley" />
		<tag k="place" v="locality" />
		<tag k="ssr:stedsnr" v="873249" />
	</node>
	<node id="-393531" lat="58.9161833289" lon="5.80908054802">
		<tag k="fixme" v="consider natural=peak for the most distinct mountains in the district" />
		<tag k="name" v="Lihesthammaren" />
		<tag k="natural" v="hill" />
		<tag k="place" v="locality" />
		<tag k="ssr:stedsnr" v="873056" />
	</node>
	<node id="-393528" lat="58.8957722229" lon="5.85807499596">
		<tag k="fixme" v="consider natural=peak for the most distinct mountains in the district" />
		<tag k="name" v="Småberga" />
		<tag k="natural" v="hill" />
		<tag k="place" v="locality" />
		<tag k="ssr:stedsnr" v="872250" />
	</node>
	<node id="-393526" lat="58.900002775" lon="5.86008889011">
		<tag k="fixme" v="consider natural=peak for the most distinct mountains in the district" />
		<tag k="name" v="Eikjeberget" />
		<tag k="natural" v="hill" />
		<tag k="place" v="locality" />
		<tag k="ssr:stedsnr" v="872211" />
	</node>
	<node id="-393524" lat="58.8743333291" lon="5.92883055258">
		<tag k="name" v="Bastalia" />
		<tag k="natural" v="slope" />
		<tag k="place" v="locality" />
		<tag k="ssr:stedsnr" v="872187" />
	</node>
	<node id="-393523" lat="58.9388888864" lon="5.87473054904">
		<tag k="name" v="Kjeringsmauet" />
		<tag k="natural" v="valley" />
		<tag k="place" v="locality" />
		<tag k="ssr:stedsnr" v="872181" />
	</node>
	<node id="-393522" lat="58.8835777766" lon="5.92441110552">
		<tag k="fixme" v="consider natural=peak for the most distinct mountains in the district" />
		<tag k="name" v="Drengjaberget" />
		<tag k="natural" v="hill" />
		<tag k="place" v="locality" />
		<tag k="ssr:stedsnr" v="872173" />
	</node>
	<node id="-393521" lat="58.8671777787" lon="5.8983750005">
		<tag k="name" v="Fatliskaret" />
		<tag k="natural" v="valley" />
		<tag k="place" v="locality" />
		<tag k="ssr:stedsnr" v="872166" />
	</node>
	<node id="-393520" lat="58.8676083301" lon="5.9344333274">
		<tag k="fixme" v="consider natural=peak for the most distinct mountains in the district" />
		<tag k="name" v="Lamshammaren" />
		<tag k="natural" v="hill" />
		<tag k="place" v="locality" />
		<tag k="ssr:stedsnr" v="872162" />
	</node>
	<node id="-393517" lat="58.9337944475" lon="5.91133888445">
		<tag k="fixme" v="consider natural=peak for the most distinct mountains in the district" />
		<tag k="name" v="Jektå" />
		<tag k="natural" v="hill" />
		<tag k="place" v="locality" />
		<tag k="ssr:stedsnr" v="872129" />
	</node>
	<node id="-393514" lat="58.80165" lon="5.8735250023">
		<tag k="name" v="Ramsvikane" />
		<tag k="natural" v="hill" />
		<tag k="place" v="locality" />
		<tag k="ssr:stedsnr" v="872102" />
	</node>
	<node id="-393513" lat="58.944636109" lon="5.94639444309">
		<tag k="fixme" v="consider natural=peak for the most distinct mountains in the district" />
		<tag k="name" v="Ørnahammaren" />
		<tag k="natural" v="hill" />
		<tag k="place" v="locality" />
		<tag k="ssr:stedsnr" v="872079" />
	</node>
	<node id="-393508" lat="58.8967833298" lon="5.95173332744">
		<tag k="fixme" v="consider natural=peak for the most distinct mountains in the district" />
		<tag k="name" v="Hamrane" />
		<tag k="natural" v="hill" />
		<tag k="place" v="locality" />
		<tag k="ssr:stedsnr" v="872057" />
	</node>
	<node id="-393506" lat="58.934261107" lon="5.95525556032">
		<tag k="name" v="Rinnå" />
		<tag k="natural" v="ridge" />
		<tag k="place" v="locality" />
		<tag k="ssr:stedsnr" v="872032" />
	</node>
	<node id="-393505" lat="58.8833000034" lon="5.81979167079">
		<tag k="alt_name" v="Bjønndalsfjellet" />
		<tag k="fixme" v="consider natural=peak for the most distinct mountains in the district" />
		<tag k="name" v="Bjørndalsfjellet" />
		<tag k="natural" v="hill" />
		<tag k="old_name" v="Bjørndalsfjell" />
		<tag k="place" v="locality" />
		<tag k="ssr:stedsnr" v="852000" />
	</node>
	<node id="-393504" lat="58.8077079407" lon="5.75783107567">
		<tag k="alt_name" v="Helgalandsfjellet" />
		<tag k="fixme" v="consider natural=peak for the most distinct mountains in the district" />
		<tag k="loc_name" v="Helgelandsåsen" />
		<tag k="name" v="Helgalandsnuten" />
		<tag k="natural" v="hill" />
		<tag k="old_name" v="Helgalandsfjell" />
		<tag k="place" v="locality" />
		<tag k="ssr:stedsnr" v="851936" />
	</node>
	<node id="-393496" lat="58.906685209" lon="5.87390733787">
		<tag k="alt_name" v="Bjødlandsfjellet" />
		<tag k="fixme" v="consider natural=peak for the most distinct mountains in the district" />
		<tag k="name" v="Bjellandsfjellet" />
		<tag k="natural" v="hill" />
		<tag k="place" v="locality" />
		<tag k="ssr:stedsnr" v="851733" />
	</node>
	<node id="-393495" lat="58.9079749993" lon="5.93024166967">
		<tag k="name" v="Mulafjellet" />
		<tag k="natural" v="hill" />
		<tag k="place" v="locality" />
		<tag k="ssr:stedsnr" v="851730" />
	</node>
	<node id="-393490" lat="58.8313361155" lon="5.90120555292">
		<tag k="fixme" v="consider natural=peak for the most distinct mountains in the district" />
		<tag k="name" v="Husafjellet" />
		<tag k="natural" v="hill" />
		<tag k="place" v="locality" />
		<tag k="ssr:stedsnr" v="851608" />
	</node>
	<node id="-393483" lat="58.9465083376" lon="5.86238610242">
		<tag k="alt_name" v="Tidefjell" />
		<tag k="name" v="Tidefjellet" />
		<tag k="natural" v="hill" />
		<tag k="place" v="locality" />
		<tag k="ssr:stedsnr" v="850784" />
	</node>
	<node id="-393482" lat="58.9416222228" lon="5.91830832929">
		<tag k="alt_name" v="Novå" />
		<tag k="fixme" v="consider natural=peak for the most distinct mountains in the district" />
		<tag k="name" v="Nova" />
		<tag k="natural" v="hill" />
		<tag k="place" v="locality" />
		<tag k="ssr:stedsnr" v="850676" />
	</node>
	<node id="-393481" lat="58.8631138897" lon="5.86220555565">
		<tag k="alt_name" v="Blikkesnuten" />
		<tag k="name" v="Blokkhusnuten" />
		<tag k="natural" v="hill" />
		<tag k="place" v="locality" />
		<tag k="ssr:stedsnr" v="850664" />
	</node>
	<node id="-393478" lat="58.8384111074" lon="5.92998610947">
		<tag k="name" v="Rikkafjellet" />
		<tag k="natural" v="hill" />
		<tag k="place" v="locality" />
		<tag k="ssr:stedsnr" v="850587" />
	</node>
	<node id="-393475" lat="58.8437361098" lon="6.01963611586">
		<tag k="fixme" v="consider natural=peak for the most distinct mountains in the district" />
		<tag k="name" v="Smørstakken" />
		<tag k="natural" v="hill" />
		<tag k="place" v="locality" />
		<tag k="ssr:stedsnr" v="848831" />
	</node>
	<node id="-393474" lat="58.8758499965" lon="6.05585000896">
		<tag k="fixme" v="consider natural=peak for the most distinct mountains in the district" />
		<tag k="name" v="Middagsnuten" />
		<tag k="natural" v="hill" />
		<tag k="place" v="locality" />
		<tag k="ssr:stedsnr" v="848195" />
	</node>
	<node id="-393473" lat="58.8765361127" lon="6.06793888103">
		<tag k="name" v="Austebertehola" />
		<tag k="natural" v="gorge" />
		<tag k="ssr:stedsnr" v="848194" />
	</node>
	<node id="-393472" lat="58.879913892" lon="6.0168333253">
		<tag k="fixme" v="consider natural=peak for the most distinct mountains in the district" />
		<tag k="name" v="Århammaren" />
		<tag k="natural" v="hill" />
		<tag k="place" v="locality" />
		<tag k="ssr:stedsnr" v="848142" />
	</node>
	<node id="-393471" lat="58.8783638881" lon="6.04084721443">
		<tag k="name" v="Vassbotnlia" />
		<tag k="natural" v="slope" />
		<tag k="place" v="locality" />
		<tag k="ssr:stedsnr" v="848207" />
	</node>
	<node id="-393470" lat="58.8795388903" lon="6.04982500748">
		<tag k="name" v="Nesabakken" />
		<tag k="natural" v="slope" />
		<tag k="place" v="locality" />
		<tag k="ssr:stedsnr" v="848205" />
	</node>
	<node id="-393462" lat="58.9182500025" lon="6.01637500123">
		<tag k="name" v="Orrarinda" />
		<tag k="place" v="locality" />
		<tag k="ssr:stedsnr" v="829921" />
	</node>
	<node id="-393459" lat="58.9070499984" lon="6.02524444527">
		<tag k="name" v="Indre Kalavika" />
		<tag k="natural" v="valley" />
		<tag k="place" v="locality" />
		<tag k="ssr:stedsnr" v="829912" />
	</node>
	<node id="-393457" lat="58.8844472195" lon="6.00500278543">
		<tag k="fixme" v="consider natural=peak for the most distinct mountains in the district" />
		<tag k="name" v="Gjesthammar" />
		<tag k="natural" v="hill" />
		<tag k="place" v="locality" />
		<tag k="ssr:stedsnr" v="829108" />
	</node>
	<node id="-393446" lat="58.8944500005" lon="6.02837777114">
		<tag k="name" v="Trodalen" />
		<tag k="natural" v="valley" />
		<tag k="place" v="locality" />
		<tag k="ssr:stedsnr" v="814648" />
	</node>
	<node id="-393443" lat="58.8661055534" lon="5.7203166751">
		<tag k="fixme" v="consider natural=peak for the most distinct mountains in the district" />
		<tag k="name" v="Brattholen" />
		<tag k="natural" v="hill" />
		<tag k="place" v="locality" />
		<tag k="ssr:stedsnr" v="813691" />
	</node>
	<node id="-393436" lat="58.8516388921" lon="5.80046110613">
		<tag k="fixme" v="consider natural=peak for the most distinct mountains in the district" />
		<tag k="name" v="Ognafjellet" />
		<tag k="natural" v="hill" />
		<tag k="place" v="locality" />
		<tag k="ssr:stedsnr" v="813646" />
	</node>
	<node id="-393434" lat="58.8593361078" lon="5.79529722617">
		<tag k="name" v="Haugåsen" />
		<tag k="natural" v="hill" />
		<tag k="place" v="locality" />
		<tag k="ssr:stedsnr" v="813634" />
	</node>
	<node id="-393433" lat="58.8294750024" lon="5.75257499321">
		<tag k="name" v="Eikebakken" />
		<tag k="natural" v="slope" />
		<tag k="place" v="locality" />
		<tag k="ssr:stedsnr" v="813629" />
	</node>
	<node id="-393430" lat="58.8789666685" lon="5.69388611005">
		<tag k="fixme" v="consider natural=peak for the most distinct mountains in the district" />
		<tag k="name" v="Varden" />
		<tag k="natural" v="hill" />
		<tag k="place" v="locality" />
		<tag k="ssr:stedsnr" v="813286" />
	</node>
	<node id="-393429" lat="58.8520166649" lon="5.69646944864">
		<tag k="name" v="Sletthei" />
		<tag k="natural" v="hill" />
		<tag k="place" v="locality" />
		<tag k="ssr:stedsnr" v="813250" />
	</node>
	<node id="-393425" lat="58.8110111114" lon="5.7823666626">
		<tag k="fixme" v="consider natural=peak for the most distinct mountains in the district" />
		<tag k="name" v="Glihammaren" />
		<tag k="natural" v="hill" />
		<tag k="place" v="locality" />
		<tag k="ssr:stedsnr" v="813174" />
	</node>
	<node id="-393424" lat="58.876580553" lon="5.81443888987">
		<tag k="name" v="Stegakjeden" />
		<tag k="natural" v="hill" />
		<tag k="place" v="locality" />
		<tag k="ssr:stedsnr" v="813156" />
	</node>
	<node id="-393421" lat="58.8271249994" lon="5.93151944764">
		<tag k="name" v="Kvelven" />
		<tag k="natural" v="slope" />
		<tag k="place" v="locality" />
		<tag k="ssr:stedsnr" v="812996" />
	</node>
	<node id="-393419" lat="58.8493444445" lon="5.94588056204">
		<tag k="name" v="Lobergdalen" />
		<tag k="natural" v="valley" />
		<tag k="place" v="locality" />
		<tag k="ssr:stedsnr" v="812920" />
	</node>
	<node id="-393418" lat="58.8495138906" lon="5.98541111478">
		<tag k="name" v="Klovsteinen" />
		<tag k="natural" v="hill" />
		<tag k="place" v="locality" />
		<tag k="ssr:stedsnr" v="812905" />
	</node>
	<node id="-393417" lat="58.8546527752" lon="5.95751667169">
		<tag k="fixme" v="consider natural=peak for the most distinct mountains in the district" />
		<tag k="name" v="Kvitenuten" />
		<tag k="natural" v="hill" />
		<tag k="place" v="locality" />
		<tag k="ssr:stedsnr" v="812902" />
	</node>
	<node id="-393416" lat="58.8522722267" lon="5.95963888993">
		<tag k="fixme" v="consider natural=peak for the most distinct mountains in the district" />
		<tag k="name" v="Paddå" />
		<tag k="natural" v="hill" />
		<tag k="place" v="locality" />
		<tag k="ssr:stedsnr" v="812898" />
	</node>
	<node id="-393415" lat="58.8381999956" lon="5.98574444484">
		<tag k="fixme" v="consider natural=peak for the most distinct mountains in the district" />
		<tag k="name" v="Skeiberget" />
		<tag k="natural" v="hill" />
		<tag k="place" v="locality" />
		<tag k="ssr:stedsnr" v="812894" />
	</node>
	<node id="-393413" lat="58.84796389" lon="5.87961388216">
		<tag k="name" v="Nordlandsheia" />
		<tag k="natural" v="hill" />
		<tag k="place" v="locality" />
		<tag k="ssr:stedsnr" v="812035" />
	</node>
	<node id="-393412" lat="58.8533916648" lon="5.87545277937">
		<tag k="name" v="Skogshei" />
		<tag k="natural" v="slope" />
		<tag k="place" v="locality" />
		<tag k="ssr:stedsnr" v="812033" />
	</node>
	<node id="-393406" lat="58.8714361137" lon="5.92579721461">
		<tag k="fixme" v="consider natural=peak for the most distinct mountains in the district" />
		<tag k="name" v="Dyrshammaren" />
		<tag k="natural" v="hill" />
		<tag k="place" v="locality" />
		<tag k="ssr:stedsnr" v="811172" />
	</node>
	<node id="-393405" lat="58.9298944489" lon="5.87460277485">
		<tag k="fixme" v="consider natural=peak for the most distinct mountains in the district" />
		<tag k="loc_name" v="Åvelandsberget" />
		<tag k="name" v="Overlandsberget" />
		<tag k="natural" v="hill" />
		<tag k="place" v="locality" />
		<tag k="ssr:stedsnr" v="811167" />
	</node>
	<node id="-393402" lat="58.9395305573" lon="5.92702221776">
		<tag k="name" v="Stølsdalen" />
		<tag k="natural" v="valley" />
		<tag k="place" v="locality" />
		<tag k="ssr:stedsnr" v="811137" />
	</node>
	<node id="-393400" lat="58.9379833361" lon="5.92512777296">
		<tag k="name" v="Ulvadalen" />
		<tag k="natural" v="valley" />
		<tag k="place" v="locality" />
		<tag k="ssr:stedsnr" v="811128" />
	</node>
	<node id="-393399" lat="58.8014000042" lon="5.85261944575">
		<tag k="name" v="Storeheia" />
		<tag k="natural" v="hill" />
		<tag k="place" v="locality" />
		<tag k="ssr:stedsnr" v="811119" />
	</node>
	<node id="-393397" lat="58.9162194481" lon="5.93569999107">
		<tag k="name" v="Heiaskardet" />
		<tag k="natural" v="valley" />
		<tag k="place" v="locality" />
		<tag k="ssr:stedsnr" v="811103" />
	</node>
	<node id="-393396" lat="58.8811638935" lon="5.95531945236">
		<tag k="fixme" v="consider natural=peak for the most distinct mountains in the district" />
		<tag k="name" v="Fladafjellet" />
		<tag k="natural" v="hill" />
		<tag k="place" v="locality" />
		<tag k="ssr:stedsnr" v="811092" />
	</node>
	<node id="-393395" lat="58.9276277819" lon="5.97077222268">
		<tag k="name" v="Bergene" />
		<tag k="natural" v="hill" />
		<tag k="place" v="locality" />
		<tag k="ssr:stedsnr" v="811090" />
	</node>
	<node id="-393393" lat="58.8743861151" lon="5.96805555191">
		<tag k="name" v="Dyraskaret" />
		<tag k="natural" v="valley" />
		<tag k="place" v="locality" />
		<tag k="ssr:stedsnr" v="811078" />
	</node>
	<node id="-393392" lat="58.8681694405" lon="5.95763889111">
		<tag k="fixme" v="consider natural=peak for the most distinct mountains in the district" />
		<tag k="name" v="Varaberget" />
		<tag k="natural" v="hill" />
		<tag k="place" v="locality" />
		<tag k="ssr:stedsnr" v="811079" />
	</node>
	<node id="-393388" lat="58.9182777737" lon="5.98882222215">
		<tag k="fixme" v="consider natural=peak for the most distinct mountains in the district" />
		<tag k="name" v="Litla Sundhammar" />
		<tag k="natural" v="hill" />
		<tag k="place" v="locality" />
		<tag k="ssr:stedsnr" v="811044" />
	</node>
	<node id="-393386" lat="58.9569499964" lon="5.8809500006">
		<tag k="alt_name" v="Øygjafjell" />
		<tag k="loc_name" v="Øygjafjellet" />
		<tag k="name" v="Øykjafjellet" />
		<tag k="natural" v="hill" />
		<tag k="place" v="locality" />
		<tag k="ssr:stedsnr" v="790830" />
	</node>
	<node id="-393380" lat="58.8109694419" lon="5.90462499856">
		<tag k="fixme" v="consider natural=peak for the most distinct mountains in the district" />
		<tag k="name" v="Storafjellet" />
		<tag k="natural" v="hill" />
		<tag k="place" v="locality" />
		<tag k="ssr:stedsnr" v="790533" />
	</node>
	<node id="-393376" lat="58.8492305588" lon="5.81051388426">
		<tag k="name" v="Kjølen" />
		<tag k="natural" v="hill" />
		<tag k="place" v="locality" />
		<tag k="ssr:stedsnr" v="789976" />
	</node>
	<node id="-393374" lat="58.8917194478" lon="5.78531111626">
		<tag k="fixme" v="consider natural=peak for the most distinct mountains in the district" />
		<tag k="name" v="Dalsnuten" />
		<tag k="natural" v="hill" />
		<tag k="place" v="locality" />
		<tag k="ssr:stedsnr" v="789953" />
	</node>
	<node id="-393370" lat="58.835480556" lon="5.79056388039">
		<tag k="fixme" v="consider natural=peak for the most distinct mountains in the district" />
		<tag k="name" v="Vedafjellet" />
		<tag k="natural" v="hill" />
		<tag k="old_name" v="Vetafjell;Vetafjellet" />
		<tag k="place" v="locality" />
		<tag k="ssr:stedsnr" v="789895" />
	</node>
	<node id="-393368" lat="58.9464249967" lon="5.94779723033">
		<tag k="fixme" v="consider natural=peak for the most distinct mountains in the district" />
		<tag k="name" v="Hammarsfjellet" />
		<tag k="natural" v="hill" />
		<tag k="place" v="locality" />
		<tag k="ssr:stedsnr" v="789802" />
	</node>
	<node id="-393367" lat="58.9448282976" lon="5.8637752753">
		<tag k="loc_name" v="Heiafjellet" />
		<tag k="name" v="Eikeberg" />
		<tag k="natural" v="hill" />
		<tag k="place" v="locality" />
		<tag k="ssr:stedsnr" v="789798" />
	</node>
	<node id="-393364" lat="58.9367919503" lon="5.88264602108">
		<tag k="name" v="Ulvafjellet" />
		<tag k="natural" v="hill" />
		<tag k="place" v="locality" />
		<tag k="ssr:stedsnr" v="789703" />
	</node>
	<node id="-393363" lat="58.8406027743" lon="5.90354445008">
		<tag k="alt_name" v="Solkjen" />
		<tag k="name" v="Sulken" />
		<tag k="natural" v="hill" />
		<tag k="place" v="locality" />
		<tag k="ssr:stedsnr" v="789593" />
	</node>
	<node id="-393355" lat="58.9228158334" lon="6.00308308964">
		<tag k="fixme" v="consider natural=peak for the most distinct mountains in the district" />
		<tag k="name" v="Aspøyberget" />
		<tag k="natural" v="hill" />
		<tag k="place" v="locality" />
		<tag k="ssr:stedsnr" v="787869" />
	</node>
	<node id="-393353" lat="58.8728444479" lon="6.08260278386">
		<tag k="fixme" v="consider natural=peak for the most distinct mountains in the district" />
		<tag k="name" v="Tindane" />
		<tag k="natural" v="hill" />
		<tag k="place" v="locality" />
		<tag k="ssr:stedsnr" v="787166" />
	</node>
	<node id="-393341" lat="58.8852138923" lon="6.01901665994">
		<tag k="name" v="Lundagarden" />
		<tag k="place" v="locality" />
		<tag k="ssr:stedsnr" v="768147" />
	</node>
	<node id="-393340" lat="58.8883916708" lon="6.03530277913">
		<tag k="name" v="Trodalstødne" />
		<tag k="place" v="locality" />
		<tag k="ssr:stedsnr" v="768146" />
	</node>
	<node id="-393337" lat="58.8573111643" lon="5.75881601224">
		<tag k="name" v="Kråkeberget" />
		<tag k="natural" v="hill" />
		<tag k="place" v="locality" />
		<tag k="ssr:stedsnr" v="767430" />
	</node>
	<node id="-393326" lat="58.8331944434" lon="5.81317777332">
		<tag k="fixme" v="consider natural=peak for the most distinct mountains in the district" />
		<tag k="name" v="Langabakka" />
		<tag k="natural" v="hill" />
		<tag k="place" v="locality" />
		<tag k="ssr:stedsnr" v="752674" />
	</node>
	<node id="-393318" lat="58.8313249965" lon="5.75804444478">
		<tag k="name" v="Jonsokberget" />
		<tag k="natural" v="hill" />
		<tag k="place" v="locality" />
		<tag k="ssr:stedsnr" v="752608" />
	</node>
	<node id="-393314" lat="58.8681111146" lon="5.70141111309">
		<tag k="name" v="Somahaugen" />
		<tag k="natural" v="hill" />
		<tag k="place" v="locality" />
		<tag k="ssr:stedsnr" v="752297" />
	</node>
	<node id="-393313" lat="58.8458472234" lon="5.69730277664">
		<tag k="name" v="Egerbakk" />
		<tag k="natural" v="hill" />
		<tag k="place" v="locality" />
		<tag k="ssr:stedsnr" v="752256" />
	</node>
	<node id="-393312" lat="58.8451250025" lon="5.68247222075">
		<tag k="name" v="Bjørkingshaug" />
		<tag k="natural" v="hill" />
		<tag k="place" v="locality" />
		<tag k="ssr:stedsnr" v="752257" />
	</node>
	<node id="-393308" lat="58.8155472265" lon="5.78612221827">
		<tag k="fixme" v="consider natural=peak for the most distinct mountains in the district" />
		<tag k="name" v="Biskhusberg" />
		<tag k="natural" v="hill" />
		<tag k="place" v="locality" />
		<tag k="ssr:stedsnr" v="752188" />
	</node>
	<node id="-393306" lat="58.8751750004" lon="5.80561111903">
		<tag k="fixme" v="consider natural=peak for the most distinct mountains in the district" />
		<tag k="name" v="Rinna" />
		<tag k="natural" v="hill" />
		<tag k="place" v="locality" />
		<tag k="ssr:stedsnr" v="752177" />
	</node>
	<node id="-393305" lat="58.8788777789" lon="5.80151111226">
		<tag k="fixme" v="consider natural=peak for the most distinct mountains in the district" />
		<tag k="name" v="Ryggen" />
		<tag k="natural" v="hill" />
		<tag k="place" v="locality" />
		<tag k="ssr:stedsnr" v="752175" />
	</node>
	<node id="-393301" lat="58.8429555572" lon="5.97985556303">
		<tag k="fixme" v="consider natural=peak for the most distinct mountains in the district" />
		<tag k="name" v="Nordra Kodleberget" />
		<tag k="natural" v="hill" />
		<tag k="place" v="locality" />
		<tag k="ssr:stedsnr" v="751933" />
	</node>
	<node id="-393299" lat="58.8208472235" lon="5.98930833623">
		<tag k="fixme" v="consider natural=peak for the most distinct mountains in the district" />
		<tag k="name" v="Trossanuten" />
		<tag k="natural" v="hill" />
		<tag k="place" v="locality" />
		<tag k="ssr:stedsnr" v="751903" />
	</node>
	<node id="-393298" lat="58.8390138894" lon="5.94561945088">
		<tag k="fixme" v="consider natural=peak for the most distinct mountains in the district" />
		<tag k="name" v="Måsahaugen" />
		<tag k="natural" v="hill" />
		<tag k="place" v="locality" />
		<tag k="ssr:stedsnr" v="751896" />
	</node>
	<node id="-393289" lat="58.9086944475" lon="5.91260278521">
		<tag k="fixme" v="consider natural=peak for the most distinct mountains in the district" />
		<tag k="name" v="Vigmulen" />
		<tag k="natural" v="hill" />
		<tag k="place" v="locality" />
		<tag k="ssr:stedsnr" v="751151" />
	</node>
	<node id="-393288" lat="58.9342083371" lon="5.85750277488">
		<tag k="fixme" v="consider natural=peak for the most distinct mountains in the district" />
		<tag k="loc_name" v="Rudlefjellet" />
		<tag k="name" v="Rudlefjell" />
		<tag k="natural" v="hill" />
		<tag k="place" v="locality" />
		<tag k="ssr:stedsnr" v="751142" />
	</node>
	<node id="-393282" lat="58.8866861114" lon="5.95338056255">
		<tag k="fixme" v="consider natural=peak for the most distinct mountains in the district" />
		<tag k="name" v="Einarkoll" />
		<tag k="natural" v="hill" />
		<tag k="place" v="locality" />
		<tag k="ssr:stedsnr" v="751071" />
	</node>
	<node id="-393281" lat="58.8888000005" lon="5.94310555301">
		<tag k="fixme" v="consider natural=peak for the most distinct mountains in the district" />
		<tag k="name" v="Kammen" />
		<tag k="natural" v="hill" />
		<tag k="place" v="locality" />
		<tag k="ssr:stedsnr" v="751070" />
	</node>
	<node id="-393280" lat="58.9173805589" lon="5.94916388704">
		<tag k="fixme" v="consider natural=peak for the most distinct mountains in the district" />
		<tag k="name" v="Longafjellet" />
		<tag k="natural" v="hill" />
		<tag k="place" v="locality" />
		<tag k="ssr:stedsnr" v="751057" />
	</node>
	<node id="-393279" lat="58.9157361081" lon="5.95706667035">
		<tag k="fixme" v="consider natural=peak for the most distinct mountains in the district" />
		<tag k="name" v="Varahammaren" />
		<tag k="natural" v="hill" />
		<tag k="place" v="locality" />
		<tag k="ssr:stedsnr" v="751055" />
	</node>
	<node id="-393278" lat="58.8415944459" lon="5.89752500035">
		<tag k="name" v="Degene" />
		<tag k="natural" v="valley" />
		<tag k="place" v="locality" />
		<tag k="ssr:stedsnr" v="751040" />
	</node>
	<node id="-393277" lat="58.8161361149" lon="5.85645000049">
		<tag k="fixme" v="consider natural=peak for the most distinct mountains in the district" />
		<tag k="name" v="Ådnaberget" />
		<tag k="natural" v="hill" />
		<tag k="place" v="locality" />
		<tag k="ssr:stedsnr" v="751011" />
	</node>
	<node id="-393276" lat="58.8132944484" lon="5.93189167312">
		<tag k="fixme" v="consider natural=peak for the most distinct mountains in the district" />
		<tag k="name" v="Lauvberga" />
		<tag k="natural" v="hill" />
		<tag k="place" v="locality" />
		<tag k="ssr:stedsnr" v="751001" />
	</node>
	<node id="-393275" lat="58.8140999955" lon="5.85779166533">
		<tag k="fixme" v="consider natural=peak for the most distinct mountains in the district" />
		<tag k="name" v="Langaberget" />
		<tag k="natural" v="hill" />
		<tag k="place" v="locality" />
		<tag k="ssr:stedsnr" v="750091" />
	</node>
	<node id="-393274" lat="58.8000138913" lon="5.87814443918">
		<tag k="fixme" v="consider natural=peak for the most distinct mountains in the district" />
		<tag k="name" v="Ramsfjellet" />
		<tag k="natural" v="hill" />
		<tag k="place" v="locality" />
		<tag k="ssr:stedsnr" v="750086" />
	</node>
	<node id="-393270" lat="58.8171277764" lon="5.77694722133">
		<tag k="fixme" v="consider natural=peak for the most distinct mountains in the district" />
		<tag k="name" v="Oslifjellet" />
		<tag k="natural" v="hill" />
		<tag k="old_name" v="Oslifjell" />
		<tag k="place" v="locality" />
		<tag k="ssr:stedsnr" v="729927" />
	</node>
	<node id="-393269" lat="58.8087527806" lon="5.74430832704">
		<tag k="alt_name" v="Stora Bogafjellet" />
		<tag k="fixme" v="consider natural=peak for the most distinct mountains in the district" />
		<tag k="name" v="Bogafjellet" />
		<tag k="natural" v="hill" />
		<tag k="old_name" v="Boggefjell" />
		<tag k="place" v="locality" />
		<tag k="ssr:stedsnr" v="729922" />
	</node>
	<node id="-393260" lat="58.9620166712" lon="5.87338333653">
		<tag k="alt_name" v="Foreåsen, store" />
		<tag k="fixme" v="consider natural=peak for the most distinct mountains in the district" />
		<tag k="name" v="Store Foreåsen" />
		<tag k="natural" v="hill" />
		<tag k="place" v="locality" />
		<tag k="ssr:stedsnr" v="729779" />
	</node>
	<node id="-393258" lat="58.9227379179" lon="5.9935514303">
		<tag k="name" v="Karifjellet" />
		<tag k="natural" v="hill" />
		<tag k="place" v="locality" />
		<tag k="ssr:stedsnr" v="729737" />
	</node>
	<node id="-393256" lat="58.8727944412" lon="5.97462499897">
		<tag k="fixme" v="consider natural=peak for the most distinct mountains in the district" />
		<tag k="name" v="Dyrafjellet" />
		<tag k="natural" v="hill" />
		<tag k="place" v="locality" />
		<tag k="ssr:stedsnr" v="729708" />
	</node>
	<node id="-393255" lat="58.882745965" lon="5.991139301">
		<tag k="name" v="Nonsknuten" />
		<tag k="natural" v="hill" />
		<tag k="place" v="locality" />
		<tag k="ssr:stedsnr" v="729684" />
	</node>
	<node id="-393247" lat="58.8504583321" lon="5.86954443615">
		<tag k="fixme" v="consider natural=peak for the most distinct mountains in the district" />
		<tag k="name" v="Skrussfjellet" />
		<tag k="natural" v="hill" />
		<tag k="place" v="locality" />
		<tag k="ssr:stedsnr" v="729582" />
	</node>
	<node id="-393246" lat="58.8423083353" lon="5.94366389447">
		<tag k="alt_name" v="Hedlefjell" />
		<tag k="fixme" v="consider natural=peak for the most distinct mountains in the district" />
		<tag k="name" v="Hellefjell" />
		<tag k="natural" v="hill" />
		<tag k="place" v="locality" />
		<tag k="ssr:stedsnr" v="729575" />
	</node>
	<node id="-393243" lat="58.8221027763" lon="5.95463334191">
		<tag k="name" v="Skoradalen" />
		<tag k="natural" v="valley" />
		<tag k="place" v="locality" />
		<tag k="ssr:stedsnr" v="729494" />
	</node>
	<node id="-393240" lat="58.8872638895" lon="6.05848055168">
		<tag k="fixme" v="consider natural=peak for the most distinct mountains in the district" />
		<tag k="name" v="Åsen" />
		<tag k="natural" v="hill" />
		<tag k="place" v="locality" />
		<tag k="ssr:stedsnr" v="729242" />
	</node>
	<node id="-393237" lat="58.9210388892" lon="6.00059999217">
		<tag k="fixme" v="consider natural=peak for the most distinct mountains in the district" />
		<tag k="name" v="Skjygningsberget" />
		<tag k="natural" v="hill" />
		<tag k="place" v="locality" />
		<tag k="ssr:stedsnr" v="726899" />
	</node>
	<node id="-393236" lat="58.8614472201" lon="6.00371389106">
		<tag k="name" v="Sledabergskaret" />
		<tag k="natural" v="valley" />
		<tag k="place" v="locality" />
		<tag k="ssr:stedsnr" v="726858" />
	</node>
	<node id="-393235" lat="58.8785972185" lon="6.05731666595">
		<tag k="name" v="Juvet" />
		<tag k="natural" v="gorge" />
		<tag k="ssr:stedsnr" v="726174" />
	</node>
	<node id="-393234" lat="58.8864277736" lon="6.05963333472">
		<tag k="name" v="Kalvatødne" />
		<tag k="place" v="locality" />
		<tag k="ssr:stedsnr" v="726033" />
	</node>
	<node id="-393225" lat="58.8674232441" lon="5.76201252172">
		<tag k="name" v="Haugen" />
		<tag k="natural" v="hill" />
		<tag k="place" v="locality" />
		<tag k="ssr:stedsnr" v="707450" />
	</node>
	<node id="-393224" lat="58.8371750015" lon="6.03945832561">
		<tag k="fixme" v="consider natural=peak for the most distinct mountains in the district" />
		<tag k="name" v="Litla Kvelvafjellet" />
		<tag k="natural" v="hill" />
		<tag k="place" v="locality" />
		<tag k="ssr:stedsnr" v="707010" />
	</node>
	<node id="-393218" lat="58.8374055564" lon="5.85496389375">
		<tag k="name" v="Gravdal" />
		<tag k="natural" v="valley" />
		<tag k="place" v="locality" />
		<tag k="ssr:stedsnr" v="691996" />
	</node>
	<node id="-393217" lat="58.8198222225" lon="5.92491667071">
		<tag k="fixme" v="consider natural=peak for the most distinct mountains in the district" />
		<tag k="name" v="Hoggåsen" />
		<tag k="natural" v="hill" />
		<tag k="place" v="locality" />
		<tag k="ssr:stedsnr" v="691992" />
	</node>
</osm>
