<?xml version="1.0" encoding="UTF-8"?>
<osm generator="osmapis" version="0.6">
	<node id="-342014" lat="58.4123499973" lon="6.73490000072">
		<tag k="alt_name" v="Nordre Klungland" />
		<tag k="fixme" v="consider place=hamlet" />
		<tag k="name" v="Klungland" />
		<tag k="place" v="farm" />
		<tag k="ssr:stedsnr" v="121378" />
	</node>
	<node id="-342013" lat="58.5003499972" lon="6.77476111647">
		<tag k="fixme" v="consider place=hamlet" />
		<tag k="name" v="Seljord" />
		<tag k="place" v="farm" />
		<tag k="ssr:stedsnr" v="121359" />
	</node>
	<node id="-342012" lat="58.276944446" lon="6.67055277975">
		<tag k="fixme" v="consider place=hamlet" />
		<tag k="name" v="Lauvik" />
		<tag k="place" v="farm" />
		<tag k="ssr:stedsnr" v="121283" />
	</node>
	<node id="-342011" lat="58.2818416683" lon="6.71635555391">
		<tag k="fixme" v="consider place=hamlet" />
		<tag k="name" v="Nuland" />
		<tag k="place" v="farm" />
		<tag k="ssr:stedsnr" v="121282" />
	</node>
	<node id="-342001" lat="58.254322224" lon="6.54660555341">
		<tag k="fixme" v="consider place=hamlet" />
		<tag k="name" v="Dåtland" />
		<tag k="place" v="farm" />
		<tag k="ssr:stedsnr" v="121065" />
	</node>
	<node id="-341997" lat="58.2802333348" lon="6.40458888227">
		<tag k="alt_name" v="Østebø" />
		<tag k="fixme" v="consider place=hamlet" />
		<tag k="name" v="Ystebø" />
		<tag k="place" v="farm" />
		<tag k="ssr:stedsnr" v="121008" />
	</node>
	<node id="-344034" lat="58.299847224" lon="6.73491944494">
		<tag k="name" v="Øvre Lian" />
		<tag k="place" v="farm" />
		<tag k="ssr:stedsnr" v="710631" />
	</node>
	<node id="-341981" lat="58.2503972194" lon="6.66012777949">
		<tag k="name" v="Bolshus" />
		<tag k="place" v="farm" />
		<tag k="ssr:stedsnr" v="104745" />
	</node>
	<node id="-344023" lat="58.326105554" lon="6.57292222961">
		<tag k="name" v="Øvstefjells" />
		<tag k="place" v="hamlet" />
		<tag k="ssr:stedsnr" v="710529" />
	</node>
	<node id="-341969" lat="58.4207725802" lon="6.82505270231">
		<tag k="name" v="Øvre Li" />
		<tag k="place" v="farm" />
		<tag k="ssr:stedsnr" v="104243" />
	</node>
	<node id="-341959" lat="58.4176444415" lon="6.83782777298">
		<tag k="amenity" v="school" />
		<tag k="name" v="Lilunden" />
		<tag k="ssr:stedsnr" v="104145" />
	</node>
	<node id="-343993" lat="58.2299249997" lon="6.55193055801">
		<tag k="name" v="Fredheim" />
		<tag k="place" v="farm" />
		<tag k="ssr:stedsnr" v="710417" />
	</node>
	<node id="-343992" lat="58.2284861149" lon="6.56620555649">
		<tag k="name" v="Helle" />
		<tag k="place" v="hamlet" />
		<tag k="ssr:stedsnr" v="710416" />
	</node>
	<node id="-341936" lat="58.4750194468" lon="6.67055555474">
		<tag k="name" v="Blåsenborg" />
		<tag k="place" v="farm" />
		<tag k="ssr:stedsnr" v="103898" />
	</node>
	<node id="-341932" lat="58.438877781" lon="6.68907778483">
		<tag k="name" v="Ersdal" />
		<tag k="place" v="hamlet" />
		<tag k="ssr:stedsnr" v="103864" />
	</node>
	<node id="-341931" lat="58.3515388855" lon="6.64930556306">
		<tag k="name" v="Lavoll" />
		<tag k="place" v="hamlet" />
		<tag k="ssr:stedsnr" v="103855" />
	</node>
	<node id="-341917" lat="58.5159472232" lon="6.63470278512">
		<tag k="historic" v="shieling" />
		<tag k="name" v="Lindelistølen" />
		<tag k="place" v="locality" />
		<tag k="ssr:stedsnr" v="103769" />
	</node>
	<node id="-341913" lat="58.3898166703" lon="6.68338888416">
		<tag k="fixme" v="multiple name tags, choose one and add the other to alt_name; consider place=hamlet" />
		<tag k="name" v="Hamar;Hamre" />
		<tag k="place" v="farm" />
		<tag k="ssr:stedsnr" v="103757" />
	</node>
	<node id="-343957" lat="58.2725083342" lon="6.67833611293">
		<tag k="fixme" v="consider place=hamlet" />
		<tag k="name" v="Djupvik" />
		<tag k="place" v="village" />
		<tag k="ssr:stedsnr" v="710168" />
	</node>
	<node id="-343952" lat="58.2844027817" lon="6.62308333807">
		<tag k="name" v="Bestyrarinnas Recidens" />
		<tag k="place" v="isolated_dwelling" />
		<tag k="ssr:stedsnr" v="710098" />
	</node>
	<node id="-343921" lat="58.4867388893" lon="6.77356388526">
		<tag k="name" v="Hjuringhuset" />
		<tag k="place" v="farm" />
		<tag k="ssr:stedsnr" v="709053" />
	</node>
	<node id="-343914" lat="58.2501972232" lon="6.54840555969">
		<tag k="fixme" v="consider tourism=alpine_hut or tourism=chalet" />
		<tag k="name" v="Gården Li" />
		<tag k="ssr:stedsnr" v="708193" />
		<tag k="tourism" v="wilderness_hut" />
	</node>
	<node id="-343909" lat="58.3490138887" lon="6.76561945116">
		<tag k="name" v="Dunsæd" />
		<tag k="place" v="farm" />
		<tag k="ssr:stedsnr" v="707461" />
	</node>
	<node id="-343905" lat="58.3051083291" lon="6.67654167394">
		<tag k="name" v="Kråketona" />
		<tag k="place" v="quarter" />
		<tag k="ssr:stedsnr" v="706914" />
	</node>
	<node id="-341986" lat="58.3588777812" lon="6.63218333732">
		<tag k="name" v="Nedre Eie" />
		<tag k="place" v="hamlet" />
		<tag k="ssr:stedsnr" v="104835" />
	</node>
	<node id="-343863" lat="58.3300694459" lon="6.68232777666">
		<tag k="alt_name" v="Fladen" />
		<tag k="fixme" v="consider place=hamlet" />
		<tag k="name" v="Flaten" />
		<tag k="place" v="farm" />
		<tag k="ssr:stedsnr" v="667433" />
	</node>
	<node id="-343861" lat="58.336308332" lon="6.7648111128">
		<tag k="fixme" v="consider place=hamlet" />
		<tag k="name" v="Eikedal" />
		<tag k="place" v="farm" />
		<tag k="ssr:stedsnr" v="667419" />
	</node>
	<node id="-343859" lat="58.388738885" lon="6.79270000569">
		<tag k="fixme" v="consider place=hamlet" />
		<tag k="name" v="Øystøl" />
		<tag k="place" v="farm" />
		<tag k="ssr:stedsnr" v="667393" />
	</node>
	<node id="-343857" lat="58.4039611115" lon="6.85740556217">
		<tag k="fixme" v="consider place=hamlet" />
		<tag k="name" v="Eikhom" />
		<tag k="place" v="farm" />
		<tag k="ssr:stedsnr" v="667379" />
	</node>
	<node id="-343855" lat="58.5241749972" lon="6.64692500204">
		<tag k="alt_name" v="Jendal, yt" />
		<tag k="fixme" v="consider place=hamlet" />
		<tag k="name" v="Ytre Jendal" />
		<tag k="place" v="farm" />
		<tag k="ssr:stedsnr" v="667347" />
	</node>
	<node id="-343852" lat="58.3018750045" lon="6.73634999925">
		<tag k="fixme" v="consider place=hamlet" />
		<tag k="name" v="Seland" />
		<tag k="place" v="farm" />
		<tag k="ssr:stedsnr" v="667264" />
	</node>
	<node id="-343851" lat="58.2971388864" lon="6.66026944887">
		<tag k="name" v="Flekkefjord" />
		<tag k="place" v="town" />
		<tag k="ssr:stedsnr" v="667258" />
	</node>
	<node id="-343839" lat="58.4783305573" lon="6.84766667226">
		<tag k="name" v="Fossheim" />
		<tag k="place" v="farm" />
		<tag k="ssr:stedsnr" v="667113" />
	</node>
	<node id="-343838" lat="58.2224805565" lon="6.58277500324">
		<tag k="alt_name" v="Hestad" />
		<tag k="fixme" v="consider place=hamlet" />
		<tag k="name" v="Hæstad" />
		<tag k="place" v="farm" />
		<tag k="ssr:stedsnr" v="667112" />
	</node>
	<node id="-341787" lat="58.2104333342" lon="6.58024444911">
		<tag k="name" v="Eikenes" />
		<tag k="place" v="isolated_dwelling" />
		<tag k="ssr:stedsnr" v="101670" />
	</node>
	<node id="-343830" lat="58.2662499959" lon="6.45488610833">
		<tag k="fixme" v="consider place=hamlet" />
		<tag k="name" v="Skarpenes" />
		<tag k="place" v="farm" />
		<tag k="ssr:stedsnr" v="667085" />
	</node>
	<node id="-343829" lat="58.282905552" lon="6.53630000332">
		<tag k="fixme" v="consider place=hamlet" />
		<tag k="name" v="Kvanvik" />
		<tag k="place" v="farm" />
		<tag k="ssr:stedsnr" v="667080" />
	</node>
	<node id="-343827" lat="58.261850002" lon="6.51717500533">
		<tag k="name" v="Stø" />
		<tag k="place" v="isolated_dwelling" />
		<tag k="ssr:stedsnr" v="667066" />
	</node>
	<node id="-343823" lat="58.2748416627" lon="6.45430833212">
		<tag k="fixme" v="consider place=hamlet" />
		<tag k="name" v="Vatland" />
		<tag k="place" v="farm" />
		<tag k="ssr:stedsnr" v="667013" />
	</node>
	<node id="-343822" lat="58.279252779" lon="6.39519444544">
		<tag k="alt_name" v="Roligheta" />
		<tag k="name" v="Roligheten" />
		<tag k="place" v="hamlet" />
		<tag k="ssr:stedsnr" v="667007" />
	</node>
	<node id="-343819" lat="58.2812916708" lon="6.46479166846">
		<tag k="fixme" v="consider place=hamlet" />
		<tag k="name" v="Håskog" />
		<tag k="place" v="farm" />
		<tag k="ssr:stedsnr" v="667001" />
	</node>
	<node id="-341764" lat="58.4578694448" lon="6.75901111949">
		<tag k="fixme" v="consider place=hamlet" />
		<tag k="name" v="Budal" />
		<tag k="place" v="farm" />
		<tag k="ssr:stedsnr" v="99473" />
	</node>
	<node id="-343797" lat="58.4516388868" lon="6.63912777979">
		<tag k="historic" v="shieling" />
		<tag k="name" v="Tjødnelitoa" />
		<tag k="place" v="locality" />
		<tag k="ssr:stedsnr" v="649948" />
	</node>
	<node id="-341746" lat="58.4109055519" lon="6.63536111343">
		<tag k="name" v="Sira" />
		<tag k="place" v="hamlet" />
		<tag k="ssr:stedsnr" v="89826" />
	</node>
	<node id="-341742" lat="58.5573611072" lon="6.6446555597">
		<tag k="alt_name" v="Skrekkelistølen;Skrekelistølen" />
		<tag k="historic" v="shieling" />
		<tag k="name" v="Skregelidstølen" />
		<tag k="place" v="locality" />
		<tag k="ssr:stedsnr" v="85665" />
	</node>
	<node id="-341741" lat="58.2495833356" lon="6.73395833668">
		<tag k="name" v="Bjelland" />
		<tag k="place" v="farm" />
		<tag k="ssr:stedsnr" v="61874" />
	</node>
	<node id="-341739" lat="58.3628416668" lon="6.73065000363">
		<tag k="fixme" v="consider place=hamlet" />
		<tag k="name" v="Lindeland" />
		<tag k="place" v="farm" />
		<tag k="ssr:stedsnr" v="61421" />
	</node>
	<node id="-341738" lat="58.368133337" lon="6.71006388843">
		<tag k="fixme" v="consider place=hamlet" />
		<tag k="name" v="Skailand" />
		<tag k="place" v="farm" />
		<tag k="ssr:stedsnr" v="61422" />
	</node>
	<node id="-341735" lat="58.3697166691" lon="6.77755554721">
		<tag k="alt_name" v="Eikås, l" />
		<tag k="fixme" v="consider place=hamlet" />
		<tag k="name" v="Lille Eikås" />
		<tag k="place" v="farm" />
		<tag k="ssr:stedsnr" v="61411" />
	</node>
	<node id="-341730" lat="58.393561111" lon="6.76233611037">
		<tag k="name" v="Hamar" />
		<tag k="place" v="farm" />
		<tag k="ssr:stedsnr" v="61388" />
	</node>
	<node id="-341728" lat="58.4030805588" lon="6.83391110925">
		<tag k="fixme" v="consider place=hamlet" />
		<tag k="name" v="Nedland" />
		<tag k="place" v="farm" />
		<tag k="ssr:stedsnr" v="61381" />
	</node>
	<node id="-341725" lat="58.4043611096" lon="6.6396750059">
		<tag k="alt_name" v="Omdal" />
		<tag k="name" v="Åmdal" />
		<tag k="place" v="farm" />
		<tag k="ssr:stedsnr" v="61369" />
	</node>
	<node id="-341715" lat="58.4308138901" lon="6.83972500846">
		<tag k="fixme" v="consider place=hamlet" />
		<tag k="name" v="Gyland" />
		<tag k="place" v="village" />
		<tag k="ssr:stedsnr" v="61084" />
	</node>
	<node id="-343761" lat="58.3004555514" lon="6.64395832547">
		<tag k="fixme" v="consider place=hamlet" />
		<tag k="name" v="Søyland" />
		<tag k="place" v="farm" />
		<tag k="ssr:stedsnr" v="649747" />
	</node>
	<node id="-341711" lat="58.240802774" lon="6.54022778456">
		<tag k="alt_name" v="Omland" />
		<tag k="fixme" v="consider place=hamlet" />
		<tag k="name" v="Åmland" />
		<tag k="place" v="farm" />
		<tag k="ssr:stedsnr" v="61062" />
	</node>
	<node id="-341708" lat="58.4977555571" lon="6.62995276952">
		<tag k="fixme" v="multiple name tags, choose one and add the other to alt_name; consider place=hamlet" />
		<tag k="name" v="Furstøl;Furustøl" />
		<tag k="place" v="farm" />
		<tag k="ssr:stedsnr" v="61029" />
	</node>
	<node id="-341706" lat="58.2743499995" lon="6.48630277102">
		<tag k="name" v="Åsnes" />
		<tag k="place" v="farm" />
		<tag k="ssr:stedsnr" v="61005" />
	</node>
	<node id="-341667" lat="58.2371833308" lon="6.59743611974">
		<tag k="name" v="Bukstad" />
		<tag k="place" v="hamlet" />
		<tag k="ssr:stedsnr" v="43754" />
	</node>
	<node id="-343685" lat="58.2360472217" lon="6.53777500545">
		<tag k="alt_name" v="Vallås" />
		<tag k="name" v="Valås" />
		<tag k="place" v="farm" />
		<tag k="ssr:stedsnr" v="649353" />
	</node>
	<node id="-341622" lat="58.2906166687" lon="6.64858610938">
		<tag k="fixme" v="consider place=suburb, village or hamlet" />
		<tag k="name" v="Fagerstrand" />
		<tag k="place" v="quarter" />
		<tag k="ssr:stedsnr" v="43093" />
	</node>
	<node id="-341599" lat="58.3326444439" lon="6.74757499218">
		<tag k="fixme" v="consider place=hamlet" />
		<tag k="name" v="Lille Løyning" />
		<tag k="place" v="farm" />
		<tag k="ssr:stedsnr" v="42712" />
	</node>
	<node id="-341169" lat="58.323477781" lon="6.65661667009">
		<tag k="name" v="Logaåsen" />
		<tag k="place" v="quarter" />
		<tag k="ssr:stedsnr" v="888163" />
	</node>
	<node id="-343636" lat="58.2713027781" lon="6.50866944799">
		<tag k="fixme" v="consider place=hamlet" />
		<tag k="name" v="Polland" />
		<tag k="place" v="farm" />
		<tag k="ssr:stedsnr" v="648548" />
	</node>
	<node id="-341585" lat="58.2985500042" lon="6.65495556281">
		<tag k="name" v="Lilleheia" />
		<tag k="place" v="quarter" />
		<tag k="ssr:stedsnr" v="42574" />
	</node>
	<node id="-341577" lat="58.4148694425" lon="6.65243334105">
		<tag k="fixme" v="consider place=hamlet" />
		<tag k="name" v="Lende" />
		<tag k="place" v="village" />
		<tag k="ssr:stedsnr" v="42679" />
	</node>
	<node id="-343608" lat="58.4796888906" lon="6.71251388728">
		<tag k="name" v="Kleppestøl" />
		<tag k="place" v="farm" />
		<tag k="ssr:stedsnr" v="648014" />
	</node>
	<node id="-343598" lat="58.2863944456" lon="6.67266665963">
		<tag k="name" v="Rauli" />
		<tag k="place" v="quarter" />
		<tag k="ssr:stedsnr" v="646633" />
	</node>
	<node id="-343597" lat="58.2410916648" lon="6.66478054887">
		<tag k="name" v="Stampen" />
		<tag k="place" v="neighbourhood" />
		<tag k="ssr:stedsnr" v="646628" />
	</node>
	<node id="-343574" lat="58.3082694479" lon="6.67419443686">
		<tag k="name" v="Øvreeid" />
		<tag k="place" v="hamlet" />
		<tag k="ssr:stedsnr" v="645214" />
	</node>
	<node id="-341498" lat="58.3073055561" lon="6.67018611657">
		<tag k="name" v="Nedreeid" />
		<tag k="place" v="hamlet" />
		<tag k="ssr:stedsnr" v="39188" />
	</node>
	<node id="-343537" lat="58.3315749978" lon="6.72356667143">
		<tag k="alt_name" v="Lilledrange;Lille Drange" />
		<tag k="fixme" v="consider place=hamlet" />
		<tag k="name" v="Litledranga" />
		<tag k="place" v="farm" />
		<tag k="ssr:stedsnr" v="606441" />
	</node>
	<node id="-343535" lat="58.3797972225" lon="6.89546111724">
		<tag k="fixme" v="consider place=hamlet" />
		<tag k="name" v="Homme" />
		<tag k="place" v="farm" />
		<tag k="ssr:stedsnr" v="606396" />
	</node>
	<node id="-343534" lat="58.377355555" lon="6.73791111615">
		<tag k="fixme" v="consider place=hamlet" />
		<tag k="name" v="Gausdal" />
		<tag k="place" v="farm" />
		<tag k="ssr:stedsnr" v="606390" />
	</node>
	<node id="-343522" lat="58.2108805552" lon="6.58616666237">
		<tag k="name" v="Hummarås" />
		<tag k="place" v="farm" />
		<tag k="ssr:stedsnr" v="606110" />
	</node>
	<node id="-343521" lat="58.4284333333" lon="6.66058611075">
		<tag k="fixme" v="consider place=hamlet" />
		<tag k="name" v="Rannestad" />
		<tag k="place" v="farm" />
		<tag k="ssr:stedsnr" v="606108" />
	</node>
	<node id="-343518" lat="58.2346166698" lon="6.58983333624">
		<tag k="alt_name" v="Bukstad" />
		<tag k="name" v="Bukkstad" />
		<tag k="place" v="farm" />
		<tag k="ssr:stedsnr" v="606091" />
	</node>
	<node id="-343516" lat="58.4805861078" lon="6.65824999977">
		<tag k="fixme" v="consider place=hamlet" />
		<tag k="name" v="Brikland" />
		<tag k="place" v="farm" />
		<tag k="ssr:stedsnr" v="606085" />
	</node>
	<node id="-343513" lat="58.4708444441" lon="6.78956666314">
		<tag k="fixme" v="consider place=hamlet" />
		<tag k="name" v="Mydland" />
		<tag k="place" v="farm" />
		<tag k="ssr:stedsnr" v="606075" />
	</node>
	<node id="-343509" lat="58.2643666656" lon="6.58182777795">
		<tag k="alt_name" v="Store Håland;Håland" />
		<tag k="fixme" v="consider place=hamlet" />
		<tag k="name" v="Håland, store" />
		<tag k="place" v="farm" />
		<tag k="ssr:stedsnr" v="606049" />
	</node>
	<node id="-343508" lat="58.4874527799" lon="6.78695833281">
		<tag k="alt_name" v="Sandvann" />
		<tag k="fixme" v="consider place=hamlet" />
		<tag k="name" v="Sandvatn" />
		<tag k="place" v="farm" />
		<tag k="ssr:stedsnr" v="606029" />
	</node>
	<node id="-343507" lat="58.3095277772" lon="6.58983055119">
		<tag k="fixme" v="consider place=hamlet" />
		<tag k="name" v="Grønsund" />
		<tag k="place" v="farm" />
		<tag k="ssr:stedsnr" v="606010" />
	</node>
	<node id="-341453" lat="58.5602277741" lon="6.69300000132">
		<tag k="fixme" v="consider place=hamlet" />
		<tag k="name" v="Hommannsdal" />
		<tag k="place" v="farm" />
		<tag k="ssr:stedsnr" v="745" />
	</node>
	<node id="-341451" lat="58.3161166658" lon="6.77301666547">
		<tag k="fixme" v="consider place=hamlet" />
		<tag k="name" v="Osen" />
		<tag k="place" v="farm" />
		<tag k="ssr:stedsnr" v="482" />
	</node>
	<node id="-341448" lat="58.3790138896" lon="6.75429166458">
		<tag k="fixme" v="consider place=hamlet" />
		<tag k="name" v="Hellestøl" />
		<tag k="place" v="farm" />
		<tag k="ssr:stedsnr" v="422" />
	</node>
	<node id="-341445" lat="58.2953138924" lon="6.77385000462">
		<tag k="fixme" v="consider place=hamlet" />
		<tag k="name" v="Lian" />
		<tag k="place" v="farm" />
		<tag k="ssr:stedsnr" v="274" />
	</node>
	<node id="-341444" lat="58.2887000039" lon="6.6488666697">
		<tag k="fixme" v="consider place=hamlet" />
		<tag k="name" v="Sveiga" />
		<tag k="place" v="village" />
		<tag k="ssr:stedsnr" v="271" />
	</node>
	<node id="-341439" lat="58.4568472194" lon="6.78303611839">
		<tag k="name" v="Vestheim" />
		<tag k="place" v="farm" />
		<tag k="ssr:stedsnr" v="129" />
	</node>
	<node id="-341437" lat="58.2340138915" lon="6.53531666564">
		<tag k="name" v="Festevoll" />
		<tag k="place" v="quarter" />
		<tag k="ssr:stedsnr" v="87" />
	</node>
	<node id="-341436" lat="58.2312083341" lon="6.56356111525">
		<tag k="fixme" v="consider place=hamlet" />
		<tag k="name" v="Marstad" />
		<tag k="place" v="farm" />
		<tag k="ssr:stedsnr" v="82" />
	</node>
	<node id="-341434" lat="58.2413611131" lon="6.53585834013">
		<tag k="alt_name" v="Kåde" />
		<tag k="fixme" v="consider place=hamlet" />
		<tag k="name" v="Kåda" />
		<tag k="place" v="farm" />
		<tag k="ssr:stedsnr" v="69" />
	</node>
	<node id="-341432" lat="58.250583331" lon="6.54795277844">
		<tag k="fixme" v="consider place=hamlet" />
		<tag k="name" v="Li" />
		<tag k="place" v="farm" />
		<tag k="ssr:stedsnr" v="53" />
	</node>
	<node id="-342600" lat="58.4459027752" lon="6.80895554924">
		<tag k="alt_name" v="Uglandskaret;Uglandsskar" />
		<tag k="fixme" v="consider place=hamlet" />
		<tag k="name" v="Uglandskard" />
		<tag k="place" v="farm" />
		<tag k="ssr:stedsnr" v="425107" />
	</node>
	<node id="-342598" lat="58.4351472223" lon="6.73916943741">
		<tag k="alt_name" v="Fosdal" />
		<tag k="fixme" v="multiple name tags, choose one and add the other to alt_name; consider place=hamlet" />
		<tag k="name" v="Fåsdal;Østre Fossdal" />
		<tag k="place" v="farm" />
		<tag k="ssr:stedsnr" v="425095" />
	</node>
	<node id="-343442" lat="58.3569194487" lon="6.63321944498">
		<tag k="name" v="Eikeland" />
		<tag k="place" v="farm" />
		<tag k="ssr:stedsnr" v="588863" />
	</node>
	<node id="-341387" lat="58.4028916625" lon="6.62512221853">
		<tag k="name" v="Skjeggestad" />
		<tag k="place" v="hamlet" />
		<tag k="ssr:stedsnr" v="892858" />
	</node>
	<node id="-344983" lat="58.219136115" lon="6.5731361126">
		<tag k="name" v="Vaulevik" />
		<tag k="place" v="farm" />
		<tag k="ssr:stedsnr" v="953429" />
	</node>
	<node id="-343382" lat="58.281797221" lon="6.64055555187">
		<tag k="name" v="Sveigeskogen" />
		<tag k="place" v="quarter" />
		<tag k="ssr:stedsnr" v="588591" />
	</node>
	<node id="-342581" lat="58.2933555567" lon="6.44769999654">
		<tag k="alt_name" v="Austhom" />
		<tag k="name" v="Austerheim" />
		<tag k="place" v="isolated_dwelling" />
		<tag k="ssr:stedsnr" v="425013" />
	</node>
	<node id="-341293" lat="58.4493277792" lon="6.80436667222">
		<tag k="name" v="Nesheim" />
		<tag k="place" v="farm" />
		<tag k="ssr:stedsnr" v="892441" />
	</node>
	<node id="-340871" lat="58.2734750006" lon="6.72518333497">
		<tag k="alt_name" v="Tjærland" />
		<tag k="fixme" v="consider place=hamlet" />
		<tag k="name" v="Tjersland" />
		<tag k="place" v="farm" />
		<tag k="ssr:stedsnr" v="364294" />
	</node>
	<node id="-341280" lat="58.2263166626" lon="6.551486116">
		<tag k="name" v="Myran" />
		<tag k="place" v="farm" />
		<tag k="ssr:stedsnr" v="892371" />
	</node>
	<node id="-341251" lat="58.4119935489" lon="6.82988484119">
		<tag k="name" v="Steian" />
		<tag k="place" v="farm" />
		<tag k="ssr:stedsnr" v="892136" />
	</node>
	<node id="-341246" lat="58.2948527811" lon="6.69067777048">
		<tag k="fixme" v="consider place=hamlet" />
		<tag k="name" v="Austad" />
		<tag k="place" v="village" />
		<tag k="ssr:stedsnr" v="892118" />
	</node>
	<node id="-341233" lat="58.3791305561" lon="6.85024165842">
		<tag k="name" v="Krabban" />
		<tag k="place" v="farm" />
		<tag k="ssr:stedsnr" v="892064" />
	</node>
	<node id="-341231" lat="58.2475888881" lon="6.63716389432">
		<tag k="name" v="Fredli" />
		<tag k="place" v="farm" />
		<tag k="ssr:stedsnr" v="892057" />
	</node>
	<node id="-343278" lat="58.405169448" lon="6.64727778541">
		<tag k="name" v="Hapte" />
		<tag k="place" v="farm" />
		<tag k="ssr:stedsnr" v="584973" />
	</node>
	<node id="-341215" lat="58.3420194406" lon="6.78198610463">
		<tag k="name" v="Dunsæd" />
		<tag k="place" v="farm" />
		<tag k="ssr:stedsnr" v="890506" />
	</node>
	<node id="-341213" lat="58.2298222262" lon="6.55192500039">
		<tag k="name" v="Rudjord" />
		<tag k="place" v="isolated_dwelling" />
		<tag k="ssr:stedsnr" v="889705" />
	</node>
	<node id="-343252" lat="58.2910166649" lon="6.44214722191">
		<tag k="name" v="Sletta" />
		<tag k="place" v="hamlet" />
		<tag k="ssr:stedsnr" v="584317" />
	</node>
	<node id="-341202" lat="58.3773472266" lon="6.6381194427">
		<tag k="name" v="Tona" />
		<tag k="place" v="farm" />
		<tag k="ssr:stedsnr" v="888871" />
	</node>
	<node id="-340854" lat="58.2222583301" lon="6.54419444312">
		<tag k="name" v="Råga" />
		<tag k="place" v="farm" />
		<tag k="ssr:stedsnr" v="364088" />
	</node>
	<node id="-343229" lat="58.5511444448" lon="6.67525833049">
		<tag k="alt_name" v="Skrekeli" />
		<tag k="fixme" v="consider place=hamlet" />
		<tag k="name" v="Skregeli" />
		<tag k="place" v="farm" />
		<tag k="ssr:stedsnr" v="546710" />
	</node>
	<node id="-343226" lat="58.3293083315" lon="6.65511943932">
		<tag k="alt_name" v="Logja" />
		<tag k="name" v="Loga" />
		<tag k="place" v="hamlet" />
		<tag k="ssr:stedsnr" v="546429" />
	</node>
	<node id="-342559" lat="58.2943027758" lon="6.60735000523">
		<tag k="alt_name" v="Midtfjells;Midtre Fjeldså" />
		<tag k="fixme" v="consider place=hamlet" />
		<tag k="name" v="Midtfjellsæ" />
		<tag k="place" v="farm" />
		<tag k="ssr:stedsnr" v="243243" />
	</node>
	<node id="-343224" lat="58.3497777781" lon="6.76608611145">
		<tag k="fixme" v="consider place=hamlet" />
		<tag k="name" v="Dunsæd" />
		<tag k="place" v="farm" />
		<tag k="ssr:stedsnr" v="546422" />
	</node>
	<node id="-343223" lat="58.3537805576" lon="6.79435833468">
		<tag k="alt_name" v="Rossestøl (Stølen)" />
		<tag k="fixme" v="consider place=hamlet" />
		<tag k="name" v="Røssestøl" />
		<tag k="place" v="farm" />
		<tag k="ssr:stedsnr" v="546413" />
	</node>
	<node id="-341174" lat="58.3230638929" lon="6.69331666169">
		<tag k="name" v="Legenes" />
		<tag k="place" v="farm" />
		<tag k="ssr:stedsnr" v="888191" />
	</node>
	<node id="-343221" lat="58.3859749969" lon="6.73561110728">
		<tag k="fixme" v="consider place=hamlet" />
		<tag k="name" v="Haugland" />
		<tag k="place" v="farm" />
		<tag k="ssr:stedsnr" v="546373" />
	</node>
	<node id="-343217" lat="58.2952666665" lon="6.6944333401">
		<tag k="fixme" v="consider place=hamlet" />
		<tag k="name" v="Austad" />
		<tag k="place" v="farm" />
		<tag k="ssr:stedsnr" v="546249" />
	</node>
	<node id="-343211" lat="58.4467666647" lon="6.79828610973">
		<tag k="fixme" v="consider place=hamlet" />
		<tag k="name" v="Rygg" />
		<tag k="place" v="farm" />
		<tag k="ssr:stedsnr" v="546125" />
	</node>
	<node id="-341162" lat="58.4465666678" lon="6.67928611144">
		<tag k="name" v="Øigarden" />
		<tag k="place" v="locality" />
		<tag k="ssr:stedsnr" v="892974" />
	</node>
	<node id="-343206" lat="58.4779055536" lon="6.67443056087">
		<tag k="fixme" v="consider place=hamlet" />
		<tag k="name" v="Mjåsund" />
		<tag k="place" v="farm" />
		<tag k="ssr:stedsnr" v="546092" />
	</node>
	<node id="-343205" lat="58.4788749957" lon="6.78682499436">
		<tag k="name" v="Nordbø" />
		<tag k="place" v="farm" />
		<tag k="ssr:stedsnr" v="546093" />
	</node>
	<node id="-343202" lat="58.2739972228" lon="6.54434722912">
		<tag k="fixme" v="consider place=hamlet" />
		<tag k="name" v="Fidsel" />
		<tag k="place" v="farm" />
		<tag k="ssr:stedsnr" v="546058" />
	</node>
	<node id="-343201" lat="58.2825555565" lon="6.41746389564">
		<tag k="name" v="Akerhus" />
		<tag k="place" v="locality" />
		<tag k="ssr:stedsnr" v="546021" />
	</node>
	<node id="-343198" lat="58.2971472223" lon="6.52010834052">
		<tag k="fixme" v="consider place=hamlet" />
		<tag k="name" v="Gumpefjell" />
		<tag k="place" v="farm" />
		<tag k="ssr:stedsnr" v="546017" />
	</node>
	<node id="-340506" lat="58.3517750041" lon="6.76927777348">
		<tag k="name" v="Uglandskar" />
		<tag k="place" v="farm" />
		<tag k="ssr:stedsnr" v="286379" />
	</node>
	<node id="-341135" lat="58.3716138931" lon="6.70514722261">
		<tag k="name" v="Nordli" />
		<tag k="place" v="farm" />
		<tag k="ssr:stedsnr" v="407869" />
	</node>
	<node id="-341081" lat="58.2314305592" lon="6.55815833891">
		<tag k="fixme" v="consider place=hamlet" />
		<tag k="name" v="Ågenes" />
		<tag k="place" v="farm" />
		<tag k="ssr:stedsnr" v="407418" />
	</node>
	<node id="-341015" lat="58.3627111124" lon="6.68364166103">
		<tag k="name" v="Lona" />
		<tag k="place" v="hamlet" />
		<tag k="ssr:stedsnr" v="406876" />
	</node>
	<node id="-341066" lat="58.2032388895" lon="6.59451666687">
		<tag k="name" v="Steian" />
		<tag k="place" v="locality" />
		<tag k="ssr:stedsnr" v="407362" />
	</node>
	<node id="-345148" lat="58.3941131339" lon="6.76248837918">
		<tag k="fixme" v="consider place=hamlet" />
		<tag k="name" v="Nordre Hammer" />
		<tag k="place" v="farm" />
		<tag k="ssr:stedsnr" v="978416" />
	</node>
	<node id="-345147" lat="58.2180090447" lon="6.53880699163">
		<tag k="fixme" v="consider place=hamlet" />
		<tag k="name" v="Kjellingsnes" />
		<tag k="place" v="farm" />
		<tag k="ssr:stedsnr" v="978222" />
	</node>
	<node id="-345146" lat="58.4300994979" lon="6.83925478876">
		<tag k="fixme" v="consider place=hamlet" />
		<tag k="name" v="Gyland" />
		<tag k="place" v="farm" />
		<tag k="ssr:stedsnr" v="978427" />
	</node>
	<node id="-345145" lat="58.3997578546" lon="6.88205943137">
		<tag k="fixme" v="consider place=hamlet" />
		<tag k="name" v="Ronås" />
		<tag k="place" v="farm" />
		<tag k="ssr:stedsnr" v="978425" />
	</node>
	<node id="-345144" lat="58.4203906045" lon="6.82885811638">
		<tag k="fixme" v="consider place=hamlet" />
		<tag k="name" v="Lie" />
		<tag k="place" v="farm" />
		<tag k="ssr:stedsnr" v="978426" />
	</node>
	<node id="-345143" lat="58.3574254203" lon="6.87572828738">
		<tag k="fixme" v="consider place=hamlet" />
		<tag k="name" v="Espeli" />
		<tag k="place" v="farm" />
		<tag k="ssr:stedsnr" v="978424" />
	</node>
	<node id="-345142" lat="58.3379121716" lon="6.82066165135">
		<tag k="fixme" v="consider place=hamlet" />
		<tag k="name" v="Seland" />
		<tag k="place" v="farm" />
		<tag k="ssr:stedsnr" v="978423" />
	</node>
	<node id="-345141" lat="58.363346706" lon="6.81040913495">
		<tag k="fixme" v="consider place=hamlet" />
		<tag k="name" v="Østre Klungland" />
		<tag k="place" v="farm" />
		<tag k="ssr:stedsnr" v="978421" />
	</node>
	<node id="-345140" lat="58.4622791725" lon="6.72221681121">
		<tag k="fixme" v="consider place=hamlet" />
		<tag k="name" v="Vestre Eitlandskleiv" />
		<tag k="place" v="farm" />
		<tag k="ssr:stedsnr" v="978418" />
	</node>
	<node id="-345139" lat="58.4323892697" lon="6.73777118235">
		<tag k="fixme" v="consider place=hamlet" />
		<tag k="name" v="Vestre Fossdal" />
		<tag k="place" v="farm" />
		<tag k="ssr:stedsnr" v="978417" />
	</node>
	<node id="-345138" lat="58.4355605128" lon="6.70041394606">
		<tag k="fixme" v="consider place=hamlet" />
		<tag k="name" v="Østre Ersdal" />
		<tag k="place" v="farm" />
		<tag k="ssr:stedsnr" v="978413" />
	</node>
	<node id="-345137" lat="58.415979043" lon="6.66666594016">
		<tag k="fixme" v="consider place=hamlet" />
		<tag k="name" v="Birkeland" />
		<tag k="place" v="farm" />
		<tag k="ssr:stedsnr" v="978412" />
	</node>
	<node id="-345136" lat="58.4260394769" lon="6.66577768198">
		<tag k="fixme" v="consider place=hamlet" />
		<tag k="name" v="Ågård" />
		<tag k="place" v="farm" />
		<tag k="ssr:stedsnr" v="978411" />
	</node>
	<node id="-345135" lat="58.407403242" lon="6.63237399992">
		<tag k="fixme" v="consider place=hamlet" />
		<tag k="name" v="Sirnes" />
		<tag k="place" v="farm" />
		<tag k="ssr:stedsnr" v="978410" />
	</node>
	<node id="-345134" lat="58.4114461388" lon="6.65878288455">
		<tag k="fixme" v="consider place=hamlet" />
		<tag k="name" v="Bakke" />
		<tag k="place" v="farm" />
		<tag k="ssr:stedsnr" v="978409" />
	</node>
	<node id="-345133" lat="58.4111911224" lon="6.62498406269">
		<tag k="fixme" v="consider place=hamlet" />
		<tag k="name" v="Sirnes" />
		<tag k="place" v="farm" />
		<tag k="ssr:stedsnr" v="978408" />
	</node>
	<node id="-345132" lat="58.501326429" lon="6.66332841376">
		<tag k="fixme" v="consider place=hamlet" />
		<tag k="name" v="Nygård" />
		<tag k="place" v="farm" />
		<tag k="ssr:stedsnr" v="978316" />
	</node>
	<node id="-345131" lat="58.2320795465" lon="6.67370769248">
		<tag k="fixme" v="consider place=hamlet" />
		<tag k="name" v="Andabeløy" />
		<tag k="place" v="farm" />
		<tag k="ssr:stedsnr" v="978313" />
	</node>
	<node id="-345130" lat="58.3102749626" lon="6.67069948819">
		<tag k="fixme" v="consider place=hamlet" />
		<tag k="name" v="Sunde" />
		<tag k="place" v="farm" />
		<tag k="ssr:stedsnr" v="978310" />
	</node>
	<node id="-345129" lat="58.3502069725" lon="6.66060530276">
		<tag k="fixme" v="consider place=hamlet" />
		<tag k="name" v="Flikka" />
		<tag k="place" v="farm" />
		<tag k="ssr:stedsnr" v="978284" />
	</node>
	<node id="-345128" lat="58.2927941862" lon="6.74526328469">
		<tag k="fixme" v="consider place=hamlet" />
		<tag k="name" v="Rødlandslåtten" />
		<tag k="place" v="farm" />
		<tag k="ssr:stedsnr" v="978285" />
	</node>
	<node id="-345127" lat="58.2360121112" lon="6.55953024355">
		<tag k="fixme" v="consider place=hamlet" />
		<tag k="name" v="Eide" />
		<tag k="place" v="farm" />
		<tag k="ssr:stedsnr" v="978283" />
	</node>
	<node id="-345126" lat="58.3300803541" lon="6.65189943179">
		<tag k="fixme" v="consider place=hamlet" />
		<tag k="name" v="Loga" />
		<tag k="place" v="farm" />
		<tag k="ssr:stedsnr" v="978282" />
	</node>
	<node id="-345125" lat="58.3022092978" lon="6.65824242151">
		<tag k="fixme" v="consider place=hamlet" />
		<tag k="name" v="Nes" />
		<tag k="place" v="farm" />
		<tag k="ssr:stedsnr" v="978271" />
	</node>
	<node id="-345124" lat="58.296673345" lon="6.64243175873">
		<tag k="fixme" v="consider place=hamlet" />
		<tag k="name" v="Tjørsvåg" />
		<tag k="place" v="farm" />
		<tag k="ssr:stedsnr" v="978270" />
	</node>
	<node id="-345123" lat="58.2865636291" lon="6.6511633296">
		<tag k="fixme" v="consider place=hamlet" />
		<tag k="name" v="Sveige" />
		<tag k="place" v="farm" />
		<tag k="ssr:stedsnr" v="978269" />
	</node>
	<node id="-345122" lat="58.2700601803" lon="6.64149346704">
		<tag k="fixme" v="consider place=hamlet" />
		<tag k="name" v="Nedre Fjeldså" />
		<tag k="place" v="farm" />
		<tag k="ssr:stedsnr" v="978264" />
	</node>
	<node id="-345121" lat="58.2837801971" lon="6.47306913936">
		<tag k="fixme" v="consider place=hamlet" />
		<tag k="name" v="Hommen" />
		<tag k="place" v="farm" />
		<tag k="ssr:stedsnr" v="978263" />
	</node>
	<node id="-345120" lat="58.2615322878" lon="6.51893078663">
		<tag k="fixme" v="consider place=hamlet" />
		<tag k="name" v="Stø" />
		<tag k="place" v="farm" />
		<tag k="ssr:stedsnr" v="978262" />
	</node>
	<node id="-345119" lat="58.3083131827" lon="6.54568131471">
		<tag k="fixme" v="consider place=hamlet" />
		<tag k="name" v="Stemmen" />
		<tag k="place" v="farm" />
		<tag k="ssr:stedsnr" v="978259" />
	</node>
	<node id="-345118" lat="58.2748121664" lon="6.56192605508">
		<tag k="fixme" v="consider place=hamlet" />
		<tag k="name" v="Mønstermyr" />
		<tag k="place" v="farm" />
		<tag k="ssr:stedsnr" v="978256" />
	</node>
	<node id="-345117" lat="58.257389794" lon="6.55826089159">
		<tag k="fixme" v="consider place=hamlet" />
		<tag k="name" v="Indre Kleppe" />
		<tag k="place" v="farm" />
		<tag k="ssr:stedsnr" v="978255" />
	</node>
	<node id="-345116" lat="58.2458629563" lon="6.57422634597">
		<tag k="fixme" v="consider place=hamlet" />
		<tag k="name" v="Bekkedal" />
		<tag k="place" v="farm" />
		<tag k="ssr:stedsnr" v="978246" />
	</node>
	<node id="-345115" lat="58.2401476657" lon="6.6510577659">
		<tag k="fixme" v="consider place=hamlet" />
		<tag k="name" v="Abelsnes" />
		<tag k="place" v="farm" />
		<tag k="ssr:stedsnr" v="978245" />
	</node>
	<node id="-345114" lat="58.229500145" lon="6.62417677095">
		<tag k="fixme" v="consider place=hamlet" />
		<tag k="name" v="Støitland" />
		<tag k="place" v="farm" />
		<tag k="ssr:stedsnr" v="978244" />
	</node>
	<node id="-345113" lat="58.2192442437" lon="6.63459288439">
		<tag k="fixme" v="consider place=hamlet" />
		<tag k="name" v="Langelandsstranden" />
		<tag k="place" v="farm" />
		<tag k="ssr:stedsnr" v="978243" />
	</node>
	<node id="-345112" lat="58.2101921813" lon="6.58700870636">
		<tag k="fixme" v="consider place=hamlet" />
		<tag k="name" v="Hummerås" />
		<tag k="place" v="farm" />
		<tag k="ssr:stedsnr" v="978236" />
	</node>
	<node id="-345111" lat="58.2291273511" lon="6.57122431448">
		<tag k="fixme" v="consider place=hamlet" />
		<tag k="name" v="Øvre Urstad" />
		<tag k="place" v="farm" />
		<tag k="ssr:stedsnr" v="978235" />
	</node>
	<node id="-345110" lat="58.2360002264" lon="6.53601220308">
		<tag k="fixme" v="consider place=hamlet" />
		<tag k="name" v="Valås" />
		<tag k="place" v="farm" />
		<tag k="ssr:stedsnr" v="978233" />
	</node>
	<node id="-345109" lat="58.2333776328" lon="6.536029909">
		<tag k="fixme" v="consider place=hamlet" />
		<tag k="name" v="Festevoll" />
		<tag k="place" v="farm" />
		<tag k="ssr:stedsnr" v="978232" />
	</node>
	<node id="-345108" lat="58.2315115965" lon="6.53550257061">
		<tag k="fixme" v="consider place=hamlet" />
		<tag k="name" v="Vestre Fidje" />
		<tag k="place" v="farm" />
		<tag k="ssr:stedsnr" v="978231" />
	</node>
	<node id="-345107" lat="58.2272242024" lon="6.54898058568">
		<tag k="fixme" v="consider place=hamlet" />
		<tag k="name" v="Øvre Ulland" />
		<tag k="place" v="farm" />
		<tag k="ssr:stedsnr" v="978225" />
	</node>
	<node id="-345106" lat="58.2252294344" lon="6.5462570707">
		<tag k="fixme" v="consider place=hamlet" />
		<tag k="name" v="Ytre Ulland" />
		<tag k="place" v="farm" />
		<tag k="ssr:stedsnr" v="978224" />
	</node>
	<node id="-345088" lat="58.2979277768" lon="6.66318889711">
		<tag k="building" v="civic" />
		<tag k="name" v="Flekkefjord havnevesen" />
		<tag k="ssr:stedsnr" v="967110" />
	</node>
	<node id="-345087" lat="58.2995527747" lon="6.66995833548">
		<tag k="leisure" v="pitch" />
		<tag k="name" v="Uenes stadion" />
		<tag k="ssr:stedsnr" v="967111" />
	</node>
	<node id="-340981" lat="58.2464722263" lon="6.65437222071">
		<tag k="name" v="Erikstemmen" />
		<tag k="place" v="quarter" />
		<tag k="ssr:stedsnr" v="406587" />
	</node>
	<node id="-340939" lat="58.3779111087" lon="6.78024722756">
		<tag k="name" v="Eikås" />
		<tag k="place" v="hamlet" />
		<tag k="ssr:stedsnr" v="241143" />
	</node>
	<node id="-340937" lat="58.2792527773" lon="6.39521111188">
		<tag k="fixme" v="consider place=suburb, village or hamlet" />
		<tag k="name" v="Stornes" />
		<tag k="place" v="quarter" />
		<tag k="ssr:stedsnr" v="403288" />
	</node>
	<node id="-340936" lat="58.5375277784" lon="6.65421388959">
		<tag k="historic" v="shieling" />
		<tag k="name" v="Ramslistølen" />
		<tag k="place" v="locality" />
		<tag k="ssr:stedsnr" v="403230" />
	</node>
	<node id="-342982" lat="58.3679694434" lon="6.68540833576">
		<tag k="name" v="Lyngnes" />
		<tag k="place" v="farm" />
		<tag k="ssr:stedsnr" v="524881" />
	</node>
	<node id="-345029" lat="58.2807750023" lon="6.40293055443">
		<tag k="name" v="Østebø" />
		<tag k="place" v="hamlet" />
		<tag k="ssr:stedsnr" v="953741" />
	</node>
	<node id="-340911" lat="58.5023805573" lon="6.80008333879">
		<tag k="historic" v="shieling" />
		<tag k="name" v="Seljordstølen" />
		<tag k="place" v="locality" />
		<tag k="ssr:stedsnr" v="402590" />
	</node>
	<node id="-340888" lat="58.5457666686" lon="6.65238333068">
		<tag k="alt_name" v="Indre Jendal" />
		<tag k="fixme" v="consider place=hamlet" />
		<tag k="name" v="Jendal" />
		<tag k="place" v="farm" />
		<tag k="ssr:stedsnr" v="364760" />
	</node>
	<node id="-342935" lat="58.3221444472" lon="6.68863610589">
		<tag k="alt_name" v="Glendrange" />
		<tag k="fixme" v="consider place=hamlet" />
		<tag k="name" v="Glendranga" />
		<tag k="place" v="farm" />
		<tag k="ssr:stedsnr" v="485411" />
	</node>
	<node id="-342933" lat="58.3300166683" lon="6.64161389002">
		<tag k="alt_name" v="Strømland" />
		<tag k="fixme" v="consider place=hamlet" />
		<tag k="name" v="Straumland" />
		<tag k="place" v="farm" />
		<tag k="ssr:stedsnr" v="485400" />
	</node>
	<node id="-342932" lat="58.3488694416" lon="6.81371944067">
		<tag k="alt_name" v="Lauvland" />
		<tag k="fixme" v="consider place=hamlet" />
		<tag k="name" v="Løvland" />
		<tag k="place" v="farm" />
		<tag k="ssr:stedsnr" v="485382" />
	</node>
	<node id="-342929" lat="58.4194166636" lon="6.81554165851">
		<tag k="fixme" v="consider place=hamlet" />
		<tag k="loc_name" v="Heggeland" />
		<tag k="name" v="Heggland" />
		<tag k="place" v="farm" />
		<tag k="ssr:stedsnr" v="485309" />
	</node>
	<node id="-340880" lat="58.3623611154" lon="6.65364166158">
		<tag k="alt_name" v="Lauås" />
		<tag k="fixme" v="consider place=hamlet" />
		<tag k="name" v="Lauvås" />
		<tag k="place" v="farm" />
		<tag k="ssr:stedsnr" v="364432" />
	</node>
	<node id="-340878" lat="58.3756499996" lon="6.64088889406">
		<tag k="fixme" v="consider place=hamlet" />
		<tag k="name" v="Fodnestøl" />
		<tag k="place" v="farm" />
		<tag k="ssr:stedsnr" v="364420" />
	</node>
	<node id="-340875" lat="58.4203388878" lon="6.85611111485">
		<tag k="alt_name" v="Ytre Stølan" />
		<tag k="name" v="Stølen, yt" />
		<tag k="place" v="isolated_dwelling" />
		<tag k="ssr:stedsnr" v="364391" />
	</node>
	<node id="-342921" lat="58.3267361111" lon="6.57247776937">
		<tag k="alt_name" v="Østre Fjeldså" />
		<tag k="fixme" v="consider place=hamlet" />
		<tag k="name" v="Øvstefjellså" />
		<tag k="place" v="farm" />
		<tag k="ssr:stedsnr" v="485184" />
	</node>
	<node id="-344967" lat="58.2388361102" lon="6.5309611085">
		<tag k="name" v="Kjøydevåg" />
		<tag k="place" v="hamlet" />
		<tag k="ssr:stedsnr" v="953356" />
	</node>
	<node id="-342916" lat="58.4668638905" lon="6.6652055614">
		<tag k="alt_name" v="Sandsmork, in;Indre Sandsmork" />
		<tag k="fixme" v="consider place=hamlet" />
		<tag k="name" v="Indre Sandsmark" />
		<tag k="place" v="farm" />
		<tag k="ssr:stedsnr" v="485072" />
	</node>
	<node id="-342915" lat="58.2322166682" lon="6.54347499467">
		<tag k="alt_name" v="Kråkedal" />
		<tag k="fixme" v="consider place=hamlet" />
		<tag k="name" v="Krågedal" />
		<tag k="place" v="farm" />
		<tag k="ssr:stedsnr" v="485071" />
	</node>
	<node id="-340865" lat="58.4411555562" lon="6.80896665914">
		<tag k="name" v="Solheim" />
		<tag k="place" v="farm" />
		<tag k="ssr:stedsnr" v="364127" />
	</node>
	<node id="-340864" lat="58.4382527807" lon="6.68830833474">
		<tag k="alt_name" v="Vestre Ersdal" />
		<tag k="fixme" v="consider place=hamlet" />
		<tag k="name" v="Ersdal" />
		<tag k="place" v="farm" />
		<tag k="ssr:stedsnr" v="364121" />
	</node>
	<node id="-342911" lat="58.2678638906" lon="6.43391944104">
		<tag k="name" v="Tele" />
		<tag k="place" v="isolated_dwelling" />
		<tag k="ssr:stedsnr" v="485047" />
	</node>
	<node id="-340861" lat="58.4268555518" lon="6.80399999651">
		<tag k="fixme" v="consider place=hamlet" />
		<tag k="name" v="Åtland" />
		<tag k="place" v="farm" />
		<tag k="ssr:stedsnr" v="364107" />
	</node>
	<node id="-340859" lat="58.2202699576" lon="6.59218045465">
		<tag k="alt_name" v="Øvre Veisdal;Veisdal" />
		<tag k="fixme" v="consider place=hamlet" />
		<tag k="name" v="Veisdal, øvre" />
		<tag k="place" v="farm" />
		<tag k="ssr:stedsnr" v="364102" />
	</node>
	<node id="-340858" lat="58.2176734318" lon="6.5874951834">
		<tag k="alt_name" v="Nedre Veisdal" />
		<tag k="fixme" v="multiple name tags, choose one and add the other to alt_name; consider place=hamlet" />
		<tag k="name" v="Veisdal, ytre;Ytre Veisdal" />
		<tag k="place" v="farm" />
		<tag k="ssr:stedsnr" v="364100" />
	</node>
	<node id="-340857" lat="58.4205527754" lon="6.66298888389">
		<tag k="name" v="Sira" />
		<tag k="place" v="village" />
		<tag k="ssr:stedsnr" v="364099" />
	</node>
	<node id="-342904" lat="58.2166500009" lon="6.58549166444">
		<tag k="name" v="Slådel" />
		<tag k="place" v="isolated_dwelling" />
		<tag k="ssr:stedsnr" v="482660" />
	</node>
	<node id="-340855" lat="58.2263027772" lon="6.57304445051">
		<tag k="alt_name" v="Nedre Urstad" />
		<tag k="fixme" v="consider place=hamlet" />
		<tag k="name" v="Urstad" />
		<tag k="place" v="farm" />
		<tag k="ssr:stedsnr" v="364090" />
	</node>
	<node id="-344950" lat="58.2742416656" lon="6.66597778085">
		<tag k="name" v="Snerthammer" />
		<tag k="place" v="hamlet" />
		<tag k="ssr:stedsnr" v="953184" />
	</node>
	<node id="-340852" lat="58.4649027818" lon="6.72491389011">
		<tag k="alt_name" v="Østre Eitlandskleiv" />
		<tag k="fixme" v="consider place=hamlet" />
		<tag k="name" v="Kleiva" />
		<tag k="place" v="farm" />
		<tag k="ssr:stedsnr" v="364075" />
	</node>
	<node id="-340851" lat="58.2385027789" lon="6.53561943978">
		<tag k="alt_name" v="Kjøyta;Kjøide" />
		<tag k="fixme" v="consider place=hamlet" />
		<tag k="name" v="Kjøyda" />
		<tag k="place" v="farm" />
		<tag k="ssr:stedsnr" v="364068" />
	</node>
	<node id="-344926" lat="58.4262916655" lon="6.66558055742">
		<tag k="fixme" v="consider place=suburb, village or hamlet" />
		<tag k="name" v="Osen" />
		<tag k="place" v="quarter" />
		<tag k="ssr:stedsnr" v="952869" />
	</node>
	<node id="-344910" lat="58.4780944425" lon="6.83128611195">
		<tag k="name" v="Stølen" />
		<tag k="place" v="farm" />
		<tag k="ssr:stedsnr" v="952676" />
	</node>
	<node id="-340795" lat="58.4608250024" lon="6.63173610404">
		<tag k="historic" v="shieling" />
		<tag k="name" v="Sandsmarkstølen" />
		<tag k="place" v="locality" />
		<tag k="ssr:stedsnr" v="346769" />
	</node>
	<node id="-342841" lat="58.2280194488" lon="6.53515555356">
		<tag k="alt_name" v="Østre Fidje" />
		<tag k="fixme" v="consider place=hamlet" />
		<tag k="name" v="Fidje" />
		<tag k="place" v="farm" />
		<tag k="ssr:stedsnr" v="467741" />
	</node>
	<node id="-340792" lat="58.2847916633" lon="6.54330276978">
		<tag k="name" v="Kvanvik" />
		<tag k="place" v="hamlet" />
		<tag k="ssr:stedsnr" v="346748" />
	</node>
	<node id="-342838" lat="58.4650833306" lon="6.66571666314">
		<tag k="name" v="Indre Sandsmark" />
		<tag k="place" v="hamlet" />
		<tag k="ssr:stedsnr" v="467738" />
	</node>
	<node id="-342822" lat="58.3342194471" lon="6.81685554717">
		<tag k="name" v="Skarvollen" />
		<tag k="place" v="farm" />
		<tag k="ssr:stedsnr" v="467674" />
	</node>
	<node id="-344867" lat="58.3489944477" lon="6.76558610589">
		<tag k="name" v="Dunsæd" />
		<tag k="place" v="farm" />
		<tag k="ssr:stedsnr" v="950460" />
	</node>
	<node id="-344866" lat="58.350799997" lon="6.76702777665">
		<tag k="name" v="Dunsæd" />
		<tag k="place" v="farm" />
		<tag k="ssr:stedsnr" v="950457" />
	</node>
	<node id="-340736" lat="58.2481027769" lon="6.55236666478">
		<tag k="alt_name" v="Lille Botne" />
		<tag k="fixme" v="consider place=hamlet" />
		<tag k="name" v="Botna" />
		<tag k="place" v="farm" />
		<tag k="ssr:stedsnr" v="346371" />
	</node>
	<node id="-344823" lat="58.3568527766" lon="6.76568334066">
		<tag k="fixme" v="consider place=hamlet" />
		<tag k="name" v="Listøl" />
		<tag k="place" v="farm" />
		<tag k="ssr:stedsnr" v="911451" />
	</node>
	<node id="-344822" lat="58.2615083319" lon="6.75126666472">
		<tag k="fixme" v="consider place=hamlet" />
		<tag k="name" v="Birkeland" />
		<tag k="place" v="farm" />
		<tag k="ssr:stedsnr" v="911304" />
	</node>
	<node id="-344821" lat="58.4557499998" lon="6.79193332858">
		<tag k="name" v="Sørheim" />
		<tag k="place" v="farm" />
		<tag k="ssr:stedsnr" v="911121" />
	</node>
	<node id="-344819" lat="58.2500361083" lon="6.63743056045">
		<tag k="fixme" v="consider place=hamlet" />
		<tag k="name" v="Kvelland" />
		<tag k="place" v="farm" />
		<tag k="ssr:stedsnr" v="910890" />
	</node>
	<node id="-344816" lat="58.3338250028" lon="6.82557499199">
		<tag k="alt_name" v="Krosli" />
		<tag k="fixme" v="consider place=hamlet" />
		<tag k="name" v="Krossli" />
		<tag k="place" v="farm" />
		<tag k="ssr:stedsnr" v="910475" />
	</node>
	<node id="-344813" lat="58.3606888845" lon="6.63433610556">
		<tag k="fixme" v="consider place=hamlet" />
		<tag k="name" v="Eide" />
		<tag k="place" v="farm" />
		<tag k="ssr:stedsnr" v="910426" />
	</node>
	<node id="-342763" lat="58.2332333343" lon="6.55541943758">
		<tag k="name" v="Lega" />
		<tag k="place" v="farm" />
		<tag k="ssr:stedsnr" v="467399" />
	</node>
	<node id="-344808" lat="58.284358333" lon="6.74731110663">
		<tag k="fixme" v="consider place=hamlet" />
		<tag k="name" v="Nedrejord" />
		<tag k="place" v="farm" />
		<tag k="ssr:stedsnr" v="910270" />
	</node>
	<node id="-344807" lat="58.2972638855" lon="6.64413611093">
		<tag k="name" v="Tjørsvåg" />
		<tag k="place" v="suburb" />
		<tag k="ssr:stedsnr" v="910260" />
	</node>
	<node id="-344806" lat="58.2881166711" lon="6.65967221977">
		<tag k="name" v="Grønnes" />
		<tag k="place" v="hamlet" />
		<tag k="ssr:stedsnr" v="910256" />
	</node>
	<node id="-344804" lat="58.2901249996" lon="6.71217500071">
		<tag k="alt_name" v="Egenes" />
		<tag k="name" v="Eikenes" />
		<tag k="place" v="farm" />
		<tag k="ssr:stedsnr" v="910252" />
	</node>
	<node id="-344799" lat="58.4499277768" lon="6.66034443702">
		<tag k="alt_name" v="Sandsmork, yt;Ytre Sandsmork" />
		<tag k="fixme" v="consider place=hamlet" />
		<tag k="name" v="Ytre Sandsmark" />
		<tag k="place" v="farm" />
		<tag k="ssr:stedsnr" v="910128" />
	</node>
	<node id="-344798" lat="58.245444443" lon="6.63653332502">
		<tag k="alt_name" v="Snørebrot" />
		<tag k="name" v="Snørebråt" />
		<tag k="place" v="farm" />
		<tag k="ssr:stedsnr" v="910117" />
	</node>
	<node id="-344796" lat="58.411174999" lon="6.63656111199">
		<tag k="fixme" v="consider place=hamlet" />
		<tag k="name" v="Sira" />
		<tag k="place" v="farm" />
		<tag k="ssr:stedsnr" v="910104" />
	</node>
	<node id="-344794" lat="58.4733166683" lon="6.72769999843">
		<tag k="fixme" v="consider place=hamlet" />
		<tag k="name" v="Eitland" />
		<tag k="place" v="farm" />
		<tag k="ssr:stedsnr" v="910094" />
	</node>
	<node id="-344793" lat="58.2273944437" lon="6.55682499474">
		<tag k="fixme" v="consider place=hamlet" />
		<tag k="name" v="Våge" />
		<tag k="place" v="farm" />
		<tag k="ssr:stedsnr" v="910095" />
	</node>
	<node id="-344791" lat="58.2386444466" lon="6.56187500424">
		<tag k="alt_name" v="Eide" />
		<tag k="name" v="Eie" />
		<tag k="place" v="isolated_dwelling" />
		<tag k="ssr:stedsnr" v="910085" />
	</node>
	<node id="-344790" lat="58.4599833304" lon="6.78467500259">
		<tag k="name" v="Nordheim" />
		<tag k="place" v="farm" />
		<tag k="ssr:stedsnr" v="910081" />
	</node>
	<node id="-344788" lat="58.2746888921" lon="6.52538611054">
		<tag k="fixme" v="consider place=hamlet" />
		<tag k="name" v="Dåstøl" />
		<tag k="place" v="farm" />
		<tag k="ssr:stedsnr" v="910073" />
	</node>
	<node id="-344782" lat="58.2861611082" lon="6.4264333407">
		<tag k="alt_name" v="Midtbø" />
		<tag k="fixme" v="consider place=hamlet" />
		<tag k="name" v="Midbø" />
		<tag k="place" v="farm" />
		<tag k="ssr:stedsnr" v="910019" />
	</node>
	<node id="-344778" lat="58.2964111108" lon="6.65982222743">
		<tag k="building" v="civic" />
		<tag k="name" v="Flekkefjord politistasjon" />
		<tag k="ssr:stedsnr" v="907127" />
	</node>
	<node id="-344774" lat="58.2862638877" lon="6.64691388191">
		<tag k="fixme" v="consider place=suburb, village or hamlet" />
		<tag k="name" v="Sveiga" />
		<tag k="place" v="quarter" />
		<tag k="ssr:stedsnr" v="874542" />
	</node>
	<node id="-340677" lat="58.3606583331" lon="6.63461111391">
		<tag k="name" v="Øvre Eie" />
		<tag k="place" v="hamlet" />
		<tag k="ssr:stedsnr" v="345855" />
	</node>
	<node id="-342717" lat="58.4154315482" lon="6.82092407394">
		<tag k="name" v="Bjødnevollen" />
		<tag k="place" v="farm" />
		<tag k="ssr:stedsnr" v="467133" />
	</node>
	<node id="-344761" lat="58.505680557" lon="6.67189444386">
		<tag k="fixme" v="consider place=hamlet" />
		<tag k="name" v="Lindeli" />
		<tag k="place" v="farm" />
		<tag k="ssr:stedsnr" v="850387" />
	</node>
	<node id="-344756" lat="58.2484166705" lon="6.63379166116">
		<tag k="name" v="Kvelland" />
		<tag k="place" v="farm" />
		<tag k="ssr:stedsnr" v="850117" />
	</node>
	<node id="-344752" lat="58.2265805544" lon="6.53428056252">
		<tag k="alt_name" v="Østhus" />
		<tag k="fixme" v="consider place=hamlet" />
		<tag k="name" v="Ysthus" />
		<tag k="place" v="farm" />
		<tag k="ssr:stedsnr" v="850096" />
	</node>
	<node id="-344751" lat="58.4783583313" lon="6.85675834095">
		<tag k="alt_name" v="Østre Hamar" />
		<tag k="fixme" v="consider place=hamlet" />
		<tag k="name" v="Hamar" />
		<tag k="place" v="farm" />
		<tag k="ssr:stedsnr" v="850082" />
	</node>
	<node id="-344750" lat="58.2297611114" lon="6.54325000121">
		<tag k="fixme" v="consider place=hamlet" />
		<tag k="name" v="Auland" />
		<tag k="place" v="farm" />
		<tag k="ssr:stedsnr" v="850079" />
	</node>
	<node id="-344749" lat="58.2378277757" lon="6.5561916626">
		<tag k="alt_name" v="Vimmervåg" />
		<tag k="fixme" v="consider place=hamlet" />
		<tag k="name" v="Vimrevåg" />
		<tag k="place" v="farm" />
		<tag k="ssr:stedsnr" v="850080" />
	</node>
	<node id="-344746" lat="58.4717750017" lon="6.84849999391">
		<tag k="alt_name" v="Urddal" />
		<tag k="fixme" v="consider place=hamlet" />
		<tag k="name" v="Urdal" />
		<tag k="place" v="farm" />
		<tag k="ssr:stedsnr" v="850074" />
	</node>
	<node id="-344745" lat="58.2392694487" lon="6.56107221609">
		<tag k="name" v="Hidrasund" />
		<tag k="place" v="hamlet" />
		<tag k="ssr:stedsnr" v="850072" />
	</node>
	<node id="-340648" lat="58.4683305586" lon="6.82690833978">
		<tag k="name" v="Plasset" />
		<tag k="place" v="farm" />
		<tag k="ssr:stedsnr" v="345611" />
	</node>
	<node id="-344737" lat="58.3061499986" lon="6.53379166253">
		<tag k="fixme" v="consider place=hamlet" />
		<tag k="name" v="Allestad" />
		<tag k="place" v="farm" />
		<tag k="ssr:stedsnr" v="849029" />
	</node>
	<node id="-344733" lat="58.2823833318" lon="6.67347500068">
		<tag k="name" v="Fjellstua" />
		<tag k="place" v="isolated_dwelling" />
		<tag k="ssr:stedsnr" v="846142" />
	</node>
	<node id="-344717" lat="58.485622219" lon="6.63501111326">
		<tag k="historic" v="shieling" />
		<tag k="name" v="Briklandstølen" />
		<tag k="place" v="locality" />
		<tag k="ssr:stedsnr" v="832894" />
	</node>
	<node id="-340615" lat="58.3833805538" lon="6.83683332585">
		<tag k="name" v="Lunden" />
		<tag k="place" v="quarter" />
		<tag k="ssr:stedsnr" v="345062" />
	</node>
	<node id="-341781" lat="58.410586114" lon="6.62331389227">
		<tag k="name" v="Stuen" />
		<tag k="place" v="locality" />
		<tag k="ssr:stedsnr" v="99925" />
	</node>
	<node id="-342568" lat="58.3782749965" lon="6.84059445294">
		<tag k="fixme" v="multiple name tags, choose one and add the other to alt_name; consider place=hamlet" />
		<tag k="name" v="Kongevoll;Kumlevoll" />
		<tag k="place" v="farm" />
		<tag k="ssr:stedsnr" v="243425" />
	</node>
	<node id="-344170" lat="58.3805083352" lon="6.84769444568">
		<tag k="alt_name" v="Fedjestad;Fidjesdal" />
		<tag k="fixme" v="consider place=hamlet" />
		<tag k="name" v="Fedjesdal" />
		<tag k="place" v="farm" />
		<tag k="ssr:stedsnr" v="728389" />
	</node>
	<node id="-340600" lat="58.3490138887" lon="6.76561945116">
		<tag k="name" v="Dunsæd" />
		<tag k="place" v="farm" />
		<tag k="ssr:stedsnr" v="343461" />
	</node>
	<node id="-344679" lat="58.2921472267" lon="6.74675000743">
		<tag k="name" v="Slåta" />
		<tag k="place" v="farm" />
		<tag k="ssr:stedsnr" v="832629" />
	</node>
	<node id="-342630" lat="58.4027722181" lon="6.84067499361">
		<tag k="name" v="Hauan" />
		<tag k="place" v="farm" />
		<tag k="ssr:stedsnr" v="463151" />
	</node>
	<node id="-342626" lat="58.2509916667" lon="6.61460278234">
		<tag k="name" v="Kulåsen" />
		<tag k="place" v="farm" />
		<tag k="ssr:stedsnr" v="464723" />
	</node>
	<node id="-340577" lat="58.4647749956" lon="6.73027776973">
		<tag k="historic" v="shieling" />
		<tag k="name" v="Kleivstølen" />
		<tag k="place" v="locality" />
		<tag k="ssr:stedsnr" v="341513" />
	</node>
	<node id="-342621" lat="58.3262527744" lon="6.82843611074">
		<tag k="name" v="Krossli" />
		<tag k="place" v="farm" />
		<tag k="ssr:stedsnr" v="425458" />
	</node>
	<node id="-342614" lat="58.3930500019" lon="6.72078610405">
		<tag k="fixme" v="consider place=hamlet" />
		<tag k="name" v="Løland" />
		<tag k="place" v="farm" />
		<tag k="ssr:stedsnr" v="425402" />
	</node>
	<node id="-342613" lat="58.387011112" lon="6.71221110787">
		<tag k="fixme" v="consider place=hamlet" />
		<tag k="name" v="Helledal" />
		<tag k="place" v="farm" />
		<tag k="ssr:stedsnr" v="425400" />
	</node>
	<node id="-340562" lat="58.5017194447" lon="6.80712499966">
		<tag k="alt_name" v="Slettebø" />
		<tag k="name" v="Slettabø" />
		<tag k="place" v="isolated_dwelling" />
		<tag k="ssr:stedsnr" v="304361" />
	</node>
	<node id="-342609" lat="58.2720777796" lon="6.67723333296">
		<tag k="fixme" v="consider place=hamlet" />
		<tag k="name" v="Djupvik" />
		<tag k="place" v="farm" />
		<tag k="ssr:stedsnr" v="425292" />
	</node>
	<node id="-344655" lat="58.2564444449" lon="6.58456388591">
		<tag k="name" v="Stykket" />
		<tag k="place" v="locality" />
		<tag k="ssr:stedsnr" v="832420" />
	</node>
	<node id="-342604" lat="58.202519448" lon="6.61519722228">
		<tag k="alt_name" v="Hitterøkalven" />
		<tag k="fixme" v="consider place=hamlet" />
		<tag k="name" v="Kalven" />
		<tag k="place" v="farm" />
		<tag k="ssr:stedsnr" v="425167" />
	</node>
	<node id="-340554" lat="58.3372861071" lon="6.63693333247">
		<tag k="fixme" v="consider place=hamlet" />
		<tag k="name" v="Soland" />
		<tag k="place" v="farm" />
		<tag k="ssr:stedsnr" v="303456" />
	</node>
	<node id="-340552" lat="58.3628666643" lon="6.81117500278">
		<tag k="name" v="Klungland" />
		<tag k="place" v="farm" />
		<tag k="ssr:stedsnr" v="303430" />
	</node>
	<node id="-340550" lat="58.3888138882" lon="6.81002500495">
		<tag k="alt_name" v="Fedog" />
		<tag k="fixme" v="consider place=hamlet" />
		<tag k="name" v="Fedåk" />
		<tag k="place" v="farm" />
		<tag k="ssr:stedsnr" v="303404" />
	</node>
	<node id="-342597" lat="58.4254055578" lon="6.63456111385">
		<tag k="alt_name" v="Skogen" />
		<tag k="fixme" v="consider place=hamlet" />
		<tag k="name" v="Skogan" />
		<tag k="place" v="farm" />
		<tag k="ssr:stedsnr" v="425090" />
	</node>
	<node id="-340548" lat="58.3992388895" lon="6.79728611761">
		<tag k="alt_name" v="Hjellesæ;Jellesæd" />
		<tag k="fixme" v="consider place=hamlet" />
		<tag k="name" v="Hjelleset" />
		<tag k="place" v="farm" />
		<tag k="ssr:stedsnr" v="303389" />
	</node>
	<node id="-340547" lat="58.4128999986" lon="6.77941111536">
		<tag k="fixme" v="consider place=hamlet" />
		<tag k="name" v="Voilås" />
		<tag k="place" v="farm" />
		<tag k="ssr:stedsnr" v="303372" />
	</node>
	<node id="-340546" lat="58.3016166628" lon="6.75285278193">
		<tag k="fixme" v="consider place=hamlet" />
		<tag k="name" v="Helland" />
		<tag k="place" v="farm" />
		<tag k="ssr:stedsnr" v="303262" />
	</node>
	<node id="-342589" lat="58.46968611" lon="6.69332499502">
		<tag k="alt_name" v="Modalslien" />
		<tag k="fixme" v="consider place=hamlet" />
		<tag k="name" v="Modalsli" />
		<tag k="place" v="farm" />
		<tag k="ssr:stedsnr" v="425069" />
	</node>
	<node id="-342588" lat="58.2294999957" lon="6.55734166283">
		<tag k="name" v="Havsvik" />
		<tag k="place" v="farm" />
		<tag k="ssr:stedsnr" v="425068" />
	</node>
	<node id="-342587" lat="58.2401444439" lon="6.5481694389">
		<tag k="fixme" v="consider place=hamlet" />
		<tag k="name" v="Reistad" />
		<tag k="place" v="farm" />
		<tag k="ssr:stedsnr" v="425064" />
	</node>
	<node id="-340537" lat="58.414988893" lon="6.65007499521">
		<tag k="fixme" v="consider place=hamlet" />
		<tag k="name" v="Lende" />
		<tag k="place" v="farm" />
		<tag k="ssr:stedsnr" v="303100" />
	</node>
	<node id="-342584" lat="58.2532611132" lon="6.55274723001">
		<tag k="alt_name" v="Ytre Kleppe" />
		<tag k="fixme" v="consider place=hamlet" />
		<tag k="name" v="Kleppe" />
		<tag k="place" v="farm" />
		<tag k="ssr:stedsnr" v="425043" />
	</node>
	<node id="-340534" lat="58.2226916649" lon="6.5524638828">
		<tag k="alt_name" v="Sæle" />
		<tag k="fixme" v="consider place=hamlet" />
		<tag k="name" v="Sele" />
		<tag k="place" v="farm" />
		<tag k="ssr:stedsnr" v="303088" />
	</node>
	<node id="-340533" lat="58.4633416634" lon="6.70085833967">
		<tag k="fixme" v="consider place=hamlet" />
		<tag k="name" v="Modal" />
		<tag k="place" v="farm" />
		<tag k="ssr:stedsnr" v="303071" />
	</node>
	<node id="-340532" lat="58.4577222262" lon="6.65876110395">
		<tag k="alt_name" v="Konstali" />
		<tag k="fixme" v="consider place=hamlet" />
		<tag k="name" v="Konnstali" />
		<tag k="place" v="farm" />
		<tag k="ssr:stedsnr" v="303059" />
	</node>
	<node id="-340531" lat="58.2599000007" lon="6.59253611461">
		<tag k="fixme" v="consider place=hamlet" />
		<tag k="name" v="Itland" />
		<tag k="place" v="farm" />
		<tag k="ssr:stedsnr" v="303050" />
	</node>
	<node id="-342575" lat="58.3059611116" lon="6.73782777121">
		<tag k="fixme" v="consider place=hamlet" />
		<tag k="name" v="Reppen" />
		<tag k="place" v="farm" />
		<tag k="ssr:stedsnr" v="243495" />
	</node>
	<node id="-342574" lat="58.3094749957" lon="6.64345554967">
		<tag k="fixme" v="consider place=hamlet" />
		<tag k="name" v="Helle" />
		<tag k="place" v="farm" />
		<tag k="ssr:stedsnr" v="243482" />
	</node>
	<node id="-340524" lat="58.2984805596" lon="6.6659166669">
		<tag k="amenity" v="hospital" />
		<tag k="name" v="Flekkefjord sykehus" />
		<tag k="ssr:stedsnr" v="300146" />
	</node>
	<node id="-342569" lat="58.3693166708" lon="6.80686111229">
		<tag k="fixme" v="consider place=hamlet" />
		<tag k="name" v="Tesåk" />
		<tag k="place" v="farm" />
		<tag k="ssr:stedsnr" v="243426" />
	</node>
	<node id="-344616" lat="58.3632972179" lon="6.8649055611">
		<tag k="name" v="Skåland" />
		<tag k="place" v="farm" />
		<tag k="ssr:stedsnr" v="832239" />
	</node>
	<node id="-344614" lat="58.4092176966" lon="6.82173463911">
		<tag k="name" v="Bjørkevollen" />
		<tag k="place" v="farm" />
		<tag k="ssr:stedsnr" v="832192" />
	</node>
	<node id="-342565" lat="58.4004500046" lon="6.75818333755">
		<tag k="fixme" v="consider place=hamlet" />
		<tag k="name" v="Netland" />
		<tag k="place" v="farm" />
		<tag k="ssr:stedsnr" v="243396" />
	</node>
	<node id="-342564" lat="58.4098000043" lon="6.64620832542">
		<tag k="fixme" v="consider place=hamlet" />
		<tag k="name" v="Sirnes" />
		<tag k="place" v="village" />
		<tag k="ssr:stedsnr" v="243386" />
	</node>
	<node id="-342563" lat="58.4207999961" lon="6.83769999333">
		<tag k="name" v="Li" />
		<tag k="place" v="farm" />
		<tag k="ssr:stedsnr" v="243381" />
	</node>
	<node id="-342562" lat="58.5028611082" lon="6.66160556034">
		<tag k="alt_name" v="Berghøyden" />
		<tag k="name" v="Berghyrne" />
		<tag k="place" v="farm" />
		<tag k="ssr:stedsnr" v="243369" />
	</node>
	<node id="-340511" lat="58.3720722261" lon="6.78154722493">
		<tag k="name" v="Egra" />
		<tag k="place" v="farm" />
		<tag k="ssr:stedsnr" v="286683" />
	</node>
	<node id="-342556" lat="58.242727775" lon="6.64039166036">
		<tag k="name" v="Myran" />
		<tag k="place" v="hamlet" />
		<tag k="ssr:stedsnr" v="243103" />
	</node>
	<node id="-344602" lat="58.2966916627" lon="6.64423888251">
		<tag k="amenity" v="nursing_home" />
		<tag k="name" v="Tjørsvågheimen" />
		<tag k="ssr:stedsnr" v="832095" />
	</node>
	<node id="-340496" lat="58.4107992481" lon="6.82634124021">
		<tag k="name" v="Stykket" />
		<tag k="place" v="farm" />
		<tag k="ssr:stedsnr" v="286143" />
	</node>
	<node id="-342539" lat="58.2535583296" lon="6.61897500052">
		<tag k="fixme" v="consider place=hamlet" />
		<tag k="name" v="Haugeland" />
		<tag k="place" v="farm" />
		<tag k="ssr:stedsnr" v="242293" />
	</node>
	<node id="-342536" lat="58.4340166705" lon="6.80741666677">
		<tag k="alt_name" v="Tømmerli" />
		<tag k="fixme" v="consider place=hamlet" />
		<tag k="name" v="Timmerli" />
		<tag k="place" v="farm" />
		<tag k="ssr:stedsnr" v="242088" />
	</node>
	<node id="-340487" lat="58.46952222" lon="6.68629999917">
		<tag k="name" v="Krågen" />
		<tag k="place" v="farm" />
		<tag k="ssr:stedsnr" v="285967" />
	</node>
	<node id="-342530" lat="58.295158331" lon="6.66895000114">
		<tag k="amenity" v="school" />
		<tag k="name" v="Sunde skole" />
		<tag k="ssr:stedsnr" v="239134" />
	</node>
	<node id="-344560" lat="58.4673583351" lon="6.81646389479">
		<tag k="name" v="Unnevoll" />
		<tag k="place" v="farm" />
		<tag k="ssr:stedsnr" v="831384" />
	</node>
	<node id="-340441" lat="58.4413250032" lon="6.85845555709">
		<tag k="historic" v="shieling" />
		<tag k="name" v="Hommestølen" />
		<tag k="place" v="locality" />
		<tag k="ssr:stedsnr" v="285650" />
	</node>
	<node id="-344530" lat="58.3496638791" lon="6.76516448655">
		<tag k="name" v="Dunsæd" />
		<tag k="place" v="farm" />
		<tag k="ssr:stedsnr" v="829468" />
	</node>
	<node id="-344529" lat="58.3025499993" lon="6.6673722227">
		<tag k="name" v="Uenes" />
		<tag k="place" v="quarter" />
		<tag k="ssr:stedsnr" v="829642" />
	</node>
	<node id="-342473" lat="58.2278611152" lon="6.54802222922">
		<tag k="name" v="Ulland" />
		<tag k="place" v="hamlet" />
		<tag k="ssr:stedsnr" v="225433" />
	</node>
	<node id="-342449" lat="58.4206666639" lon="6.81629166609">
		<tag k="name" v="Geitebu" />
		<tag k="place" v="isolated_dwelling" />
		<tag k="ssr:stedsnr" v="225298" />
	</node>
	<node id="-344490" lat="58.5326500038" lon="6.68483611373">
		<tag k="fixme" v="consider place=hamlet" />
		<tag k="name" v="Ramsli" />
		<tag k="place" v="farm" />
		<tag k="ssr:stedsnr" v="789728" />
	</node>
	<node id="-344486" lat="58.3485444441" lon="6.66196388048">
		<tag k="fixme" v="consider place=hamlet" />
		<tag k="name" v="Flikka" />
		<tag k="place" v="village" />
		<tag k="ssr:stedsnr" v="789454" />
	</node>
	<node id="-344485" lat="58.3509250018" lon="6.64780277881">
		<tag k="name" v="Lavoll" />
		<tag k="place" v="farm" />
		<tag k="ssr:stedsnr" v="789444" />
	</node>
	<node id="-344484" lat="58.3624611082" lon="6.68382778518">
		<tag k="alt_name" v="Lone" />
		<tag k="fixme" v="consider place=hamlet" />
		<tag k="name" v="Lona" />
		<tag k="place" v="farm" />
		<tag k="ssr:stedsnr" v="789432" />
	</node>
	<node id="-344483" lat="58.3783861135" lon="6.80356389363">
		<tag k="alt_name" v="Eikeland" />
		<tag k="fixme" v="consider place=hamlet" />
		<tag k="loc_name" v="Eikjeland" />
		<tag k="name" v="Eigeland" />
		<tag k="place" v="farm" />
		<tag k="ssr:stedsnr" v="789424" />
	</node>
	<node id="-344482" lat="58.3789027776" lon="6.78040833439">
		<tag k="alt_name" v="Eikås, store" />
		<tag k="fixme" v="consider place=hamlet" />
		<tag k="name" v="Store Eikås" />
		<tag k="place" v="farm" />
		<tag k="ssr:stedsnr" v="789423" />
	</node>
	<node id="-344478" lat="58.2656999997" lon="6.73004999202">
		<tag k="fixme" v="consider place=hamlet" />
		<tag k="name" v="Netland" />
		<tag k="place" v="farm" />
		<tag k="ssr:stedsnr" v="789300" />
	</node>
	<node id="-344476" lat="58.2640638896" lon="6.6796333272">
		<tag k="name" v="Vollesfjord" />
		<tag k="place" v="isolated_dwelling" />
		<tag k="ssr:stedsnr" v="789294" />
	</node>
	<node id="-344475" lat="58.2694444416" lon="6.64347499781">
		<tag k="alt_name" v="Fjellsæ" />
		<tag k="fixme" v="consider place=suburb, village or hamlet" />
		<tag k="loc_name" v="Fjellså" />
		<tag k="name" v="Fjellse" />
		<tag k="place" v="quarter" />
		<tag k="ssr:stedsnr" v="789279" />
	</node>
	<node id="-344474" lat="58.2395111121" lon="6.69908056112">
		<tag k="name" v="Helle" />
		<tag k="place" v="farm" />
		<tag k="ssr:stedsnr" v="789137" />
	</node>
	<node id="-344473" lat="58.239822225" lon="6.6490361141">
		<tag k="fixme" v="consider place=hamlet" />
		<tag k="loc_name" v="Abelsnes" />
		<tag k="name" v="Abelnes" />
		<tag k="place" v="village" />
		<tag k="ssr:stedsnr" v="789136" />
	</node>
	<node id="-344472" lat="58.2489444455" lon="6.73321667245">
		<tag k="fixme" v="consider place=hamlet" />
		<tag k="name" v="Bjelland" />
		<tag k="place" v="farm" />
		<tag k="ssr:stedsnr" v="789123" />
	</node>
	<node id="-344469" lat="58.2204305581" lon="6.57183889544">
		<tag k="name" v="Sønnevik" />
		<tag k="place" v="farm" />
		<tag k="ssr:stedsnr" v="789096" />
	</node>
	<node id="-344468" lat="58.2128361116" lon="6.58149443787">
		<tag k="fixme" v="consider place=suburb, village or hamlet" />
		<tag k="name" v="Rasvåg" />
		<tag k="place" v="quarter" />
		<tag k="ssr:stedsnr" v="789093" />
	</node>
	<node id="-344464" lat="58.4690555529" lon="6.78984166704">
		<tag k="name" v="Bø" />
		<tag k="place" v="farm" />
		<tag k="ssr:stedsnr" v="789070" />
	</node>
	<node id="-344458" lat="58.3389333369" lon="6.82181110859">
		<tag k="name" v="Seland" />
		<tag k="place" v="hamlet" />
		<tag k="ssr:stedsnr" v="788453" />
	</node>
	<node id="-344455" lat="58.4156305559" lon="6.80063888396">
		<tag k="fixme" v="consider place=hamlet" />
		<tag k="name" v="Nuland" />
		<tag k="place" v="farm" />
		<tag k="ssr:stedsnr" v="788358" />
	</node>
	<node id="-340356" lat="58.2447361143" lon="6.69477222069">
		<tag k="name" v="Litle Helle" />
		<tag k="place" v="farm" />
		<tag k="ssr:stedsnr" v="285061" />
	</node>
	<node id="-344450" lat="58.2776111087" lon="6.528591667">
		<tag k="fixme" v="consider place=hamlet" />
		<tag k="name" v="Hogstad" />
		<tag k="place" v="farm" />
		<tag k="ssr:stedsnr" v="788050" />
	</node>
	<node id="-342394" lat="58.250152782" lon="6.6361500038">
		<tag k="fixme" v="consider place=hamlet" />
		<tag k="name" v="Kvelland" />
		<tag k="place" v="village" />
		<tag k="ssr:stedsnr" v="224690" />
	</node>
	<node id="-342385" lat="58.4367805553" lon="6.8672888912">
		<tag k="historic" v="shieling" />
		<tag k="name" v="Klaustølen" />
		<tag k="place" v="locality" />
		<tag k="ssr:stedsnr" v="224624" />
	</node>
	<node id="-340336" lat="58.3003583319" lon="6.64874165964">
		<tag k="name" v="Nesmarka" />
		<tag k="place" v="quarter" />
		<tag k="ssr:stedsnr" v="283610" />
	</node>
	<node id="-340328" lat="58.4218861104" lon="6.66085277159">
		<tag k="fixme" v="consider place=suburb, village or hamlet" />
		<tag k="name" v="Prestmoen" />
		<tag k="place" v="quarter" />
		<tag k="ssr:stedsnr" v="281935" />
	</node>
	<node id="-343100" lat="58.2309388853" lon="6.53474444939">
		<tag k="fixme" v="consider place=suburb, village or hamlet" />
		<tag k="name" v="Tuna" />
		<tag k="place" v="quarter" />
		<tag k="ssr:stedsnr" v="528459" />
	</node>
	<node id="-342357" lat="58.4458333344" lon="6.65840277205">
		<tag k="name" v="Øigarden" />
		<tag k="place" v="locality" />
		<tag k="ssr:stedsnr" v="224981" />
	</node>
	<node id="-344402" lat="58.2267972255" lon="6.53431665885">
		<tag k="name" v="Ysthus" />
		<tag k="place" v="hamlet" />
		<tag k="ssr:stedsnr" v="771760" />
	</node>
	<node id="-342350" lat="58.4360638867" lon="6.81471667">
		<tag k="name" v="Krogan" />
		<tag k="place" v="farm" />
		<tag k="ssr:stedsnr" v="224426" />
	</node>
	<node id="-342337" lat="58.3025888901" lon="6.64007777896">
		<tag k="name" v="Søyland" />
		<tag k="place" v="quarter" />
		<tag k="ssr:stedsnr" v="222605" />
	</node>
	<node id="-342309" lat="58.365263891" lon="6.71540556237">
		<tag k="name" v="Jordet" />
		<tag k="place" v="farm" />
		<tag k="ssr:stedsnr" v="220621" />
	</node>
	<node id="-342298" lat="58.4352972253" lon="6.73873889483">
		<tag k="name" v="Fåsdal" />
		<tag k="place" v="hamlet" />
		<tag k="ssr:stedsnr" v="206483" />
	</node>
	<node id="-344343" lat="58.365455554" lon="6.87599166396">
		<tag k="name" v="Skåland" />
		<tag k="place" v="farm" />
		<tag k="ssr:stedsnr" v="771227" />
	</node>
	<node id="-342294" lat="58.3048000036" lon="6.64511389034">
		<tag k="name" v="Søyland" />
		<tag k="place" v="farm" />
		<tag k="ssr:stedsnr" v="182483" />
	</node>
	<node id="-342291" lat="58.3463249995" lon="6.86070000701">
		<tag k="fixme" v="consider place=hamlet" />
		<tag k="name" v="Grøtteland" />
		<tag k="place" v="farm" />
		<tag k="ssr:stedsnr" v="182443" />
	</node>
	<node id="-344333" lat="58.293077782" lon="6.68425555506">
		<tag k="name" v="Nygård" />
		<tag k="place" v="farm" />
		<tag k="ssr:stedsnr" v="771142" />
	</node>
	<node id="-342283" lat="58.4205500023" lon="6.71184999993">
		<tag k="name" v="Nyvik" />
		<tag k="place" v="farm" />
		<tag k="ssr:stedsnr" v="182369" />
	</node>
	<node id="-342281" lat="58.2572944407" lon="6.70380555321">
		<tag k="alt_name" v="Grundevik" />
		<tag k="fixme" v="consider place=hamlet" />
		<tag k="name" v="Grunnevik" />
		<tag k="place" v="farm" />
		<tag k="ssr:stedsnr" v="182286" />
	</node>
	<node id="-342279" lat="58.283591663" lon="6.67177500742">
		<tag k="alt_name" v="Rauli" />
		<tag k="name" v="Raudli" />
		<tag k="place" v="isolated_dwelling" />
		<tag k="ssr:stedsnr" v="182266" />
	</node>
	<node id="-342278" lat="58.2968027747" lon="6.75250833364">
		<tag k="alt_name" v="Store Løyning" />
		<tag k="fixme" v="consider place=hamlet" />
		<tag k="name" v="Løyning" />
		<tag k="place" v="farm" />
		<tag k="ssr:stedsnr" v="182253" />
	</node>
	<node id="-342277" lat="58.2884305527" lon="6.74345277359">
		<tag k="alt_name" v="Rødland" />
		<tag k="fixme" v="consider place=hamlet" />
		<tag k="name" v="Røydland" />
		<tag k="place" v="farm" />
		<tag k="ssr:stedsnr" v="182245" />
	</node>
	<node id="-342275" lat="58.2133277791" lon="6.61060277897">
		<tag k="fixme" v="consider place=hamlet" />
		<tag k="name" v="Langeland" />
		<tag k="place" v="farm" />
		<tag k="ssr:stedsnr" v="182143" />
	</node>
	<node id="-342264" lat="58.226908332" lon="6.54551388855">
		<tag k="name" v="Ulland" />
		<tag k="place" v="farm" />
		<tag k="ssr:stedsnr" v="182075" />
	</node>
	<node id="-342262" lat="58.2319722221" lon="6.53850555691">
		<tag k="name" v="Kirkehamn" />
		<tag k="place" v="village" />
		<tag k="ssr:stedsnr" v="182068" />
	</node>
	<node id="-342261" lat="58.4691388907" lon="6.81921111823">
		<tag k="alt_name" v="Laugstøl" />
		<tag k="fixme" v="consider place=hamlet" />
		<tag k="name" v="Lavstøl" />
		<tag k="place" v="farm" />
		<tag k="ssr:stedsnr" v="182064" />
	</node>
	<node id="-342260" lat="58.4624888881" lon="6.78576388378">
		<tag k="name" v="Sørbø" />
		<tag k="place" v="farm" />
		<tag k="ssr:stedsnr" v="182054" />
	</node>
	<node id="-342258" lat="58.2533000019" lon="6.56821388464">
		<tag k="alt_name" v="Litle Håland;Lille Håland" />
		<tag k="fixme" v="consider place=hamlet" />
		<tag k="name" v="Håland, l" />
		<tag k="place" v="farm" />
		<tag k="ssr:stedsnr" v="182041" />
	</node>
	<node id="-342256" lat="58.4886138907" lon="6.75128610509">
		<tag k="alt_name" v="Birkeland" />
		<tag k="fixme" v="consider place=hamlet" />
		<tag k="name" v="Byrkjeland" />
		<tag k="place" v="farm" />
		<tag k="ssr:stedsnr" v="182033" />
	</node>
	<node id="-342240" lat="58.4377611069" lon="6.65545833535">
		<tag k="alt_name" v="Målløs" />
		<tag k="fixme" v="consider place=hamlet" />
		<tag k="name" v="Mållaus" />
		<tag k="place" v="farm" />
		<tag k="ssr:stedsnr" v="164972" />
	</node>
	<node id="-344283" lat="58.4992333352" lon="6.8612388926">
		<tag k="name" v="Stølen" />
		<tag k="place" v="farm" />
		<tag k="ssr:stedsnr" v="770656" />
	</node>
	<node id="-344267" lat="58.2920888911" lon="6.51650278503">
		<tag k="fixme" v="multiple name tags, choose one and add the other to alt_name; consider place=hamlet" />
		<tag k="name" v="Botna;Botne på heien" />
		<tag k="place" v="farm" />
		<tag k="ssr:stedsnr" v="770517" />
	</node>
	<node id="-344256" lat="58.4532305535" lon="6.80019722467">
		<tag k="name" v="Solbakken" />
		<tag k="place" v="farm" />
		<tag k="ssr:stedsnr" v="770375" />
	</node>
	<node id="-342203" lat="58.2496750012" lon="6.73174166021">
		<tag k="name" v="Bjelland" />
		<tag k="place" v="hamlet" />
		<tag k="ssr:stedsnr" v="164756" />
	</node>
	<node id="-343070" lat="58.3461055585" lon="6.82832222595">
		<tag k="name" v="Solli" />
		<tag k="place" v="farm" />
		<tag k="ssr:stedsnr" v="528244" />
	</node>
	<node id="-344222" lat="58.3489944477" lon="6.76558610589">
		<tag k="name" v="Dunsæd" />
		<tag k="place" v="farm" />
		<tag k="ssr:stedsnr" v="768467" />
	</node>
	<node id="-344221" lat="58.3506583348" lon="6.76623334132">
		<tag k="name" v="Dunsæd" />
		<tag k="place" v="farm" />
		<tag k="ssr:stedsnr" v="768462" />
	</node>
	<node id="-344220" lat="58.3512055593" lon="6.7655333264">
		<tag k="name" v="Dunsæd" />
		<tag k="place" v="farm" />
		<tag k="ssr:stedsnr" v="768460" />
	</node>
	<node id="-342153" lat="58.4147888887" lon="6.81513889584">
		<tag k="name" v="Skaret" />
		<tag k="place" v="farm" />
		<tag k="ssr:stedsnr" v="164367" />
	</node>
	<node id="-344190" lat="58.3217944483" lon="6.68945000258">
		<tag k="name" v="Glendrange" />
		<tag k="place" v="hamlet" />
		<tag k="ssr:stedsnr" v="766228" />
	</node>
	<node id="-344178" lat="58.2364416683" lon="6.59600555622">
		<tag k="alt_name" v="Bukstad" />
		<tag k="fixme" v="consider place=hamlet" />
		<tag k="name" v="Bukkstad" />
		<tag k="place" v="farm" />
		<tag k="ssr:stedsnr" v="728694" />
	</node>
	<node id="-344177" lat="58.311147225" lon="6.67015277469">
		<tag k="name" v="Drangeid" />
		<tag k="place" v="suburb" />
		<tag k="ssr:stedsnr" v="728475" />
	</node>
	<node id="-344176" lat="58.3279277743" lon="6.70185278367">
		<tag k="alt_name" v="Stordrange" />
		<tag k="fixme" v="consider place=hamlet" />
		<tag k="loc_name" v="Drange" />
		<tag k="name" v="Storedranga" />
		<tag k="place" v="farm" />
		<tag k="ssr:stedsnr" v="728455" />
	</node>
	<node id="-342127" lat="58.2936472207" lon="6.66350277545">
		<tag k="name" v="Verven" />
		<tag k="place" v="quarter" />
		<tag k="ssr:stedsnr" v="164128" />
	</node>
	<node id="-344174" lat="58.3552055554" lon="6.7863750014">
		<tag k="alt_name" v="Øysæd" />
		<tag k="fixme" v="consider place=hamlet" />
		<tag k="name" v="Øysæ" />
		<tag k="place" v="farm" />
		<tag k="ssr:stedsnr" v="728412" />
	</node>
	<node id="-344171" lat="58.3715416709" lon="6.62821667418">
		<tag k="alt_name" v="Regevik" />
		<tag k="fixme" v="consider place=hamlet" />
		<tag k="name" v="Rekevik" />
		<tag k="place" v="farm" />
		<tag k="ssr:stedsnr" v="728391" />
	</node>
	<node id="-342122" lat="58.2964111142" lon="6.64969443919">
		<tag k="leisure" v="park" />
		<tag k="name" v="Fjellparken" />
		<tag k="ssr:stedsnr" v="164099" />
	</node>
	<node id="-344164" lat="58.4019749988" lon="6.6302999939">
		<tag k="fixme" v="consider place=hamlet" />
		<tag k="name" v="Skjeggestad" />
		<tag k="place" v="farm" />
		<tag k="ssr:stedsnr" v="728342" />
	</node>
	<node id="-344160" lat="58.5108861103" lon="6.6796666704">
		<tag k="fixme" v="consider place=hamlet" />
		<tag k="name" v="Espelund" />
		<tag k="place" v="farm" />
		<tag k="ssr:stedsnr" v="728309" />
	</node>
	<node id="-344159" lat="58.2643027748" lon="6.60444443884">
		<tag k="alt_name" v="Eigeland" />
		<tag k="name" v="Eikeland" />
		<tag k="place" v="farm" />
		<tag k="ssr:stedsnr" v="728259" />
	</node>
	<node id="-344156" lat="58.2309388933" lon="6.70865833085">
		<tag k="alt_name" v="Undhamar" />
		<tag k="fixme" v="consider place=hamlet" />
		<tag k="name" v="Unhammer" />
		<tag k="place" v="farm" />
		<tag k="ssr:stedsnr" v="728130" />
	</node>
	<node id="-344155" lat="58.2319805522" lon="6.67209166851">
		<tag k="fixme" v="consider place=suburb, village or hamlet" />
		<tag k="name" v="Andabeløy" />
		<tag k="place" v="quarter" />
		<tag k="ssr:stedsnr" v="728121" />
	</node>
	<node id="-344154" lat="58.2472472267" lon="6.70507777789">
		<tag k="fixme" v="consider place=hamlet" />
		<tag k="name" v="Ståby" />
		<tag k="place" v="farm" />
		<tag k="ssr:stedsnr" v="728109" />
	</node>
	<node id="-344149" lat="58.4289249981" lon="6.66257500762">
		<tag k="name" v="Osen" />
		<tag k="place" v="farm" />
		<tag k="ssr:stedsnr" v="728076" />
	</node>
	<node id="-344141" lat="58.4888111146" lon="6.69013332902">
		<tag k="fixme" v="consider place=hamlet" />
		<tag k="name" v="Stangborli" />
		<tag k="place" v="farm" />
		<tag k="ssr:stedsnr" v="728032" />
	</node>
	<node id="-342054" lat="58.2203361087" lon="6.63445556121">
		<tag k="name" v="Furua" />
		<tag k="place" v="isolated_dwelling" />
		<tag k="ssr:stedsnr" v="161738" />
	</node>
	<node id="-342029" lat="58.3967055555" lon="6.77313333724">
		<tag k="name" v="Bjørja" />
		<tag k="place" v="isolated_dwelling" />
		<tag k="ssr:stedsnr" v="159498" />
	</node>
	<node id="-342025" lat="58.2855777815" lon="6.77546111497">
		<tag k="fixme" v="consider place=hamlet" />
		<tag k="name" v="Solli" />
		<tag k="place" v="farm" />
		<tag k="ssr:stedsnr" v="159652" />
	</node>
	<node id="-342017" lat="58.3574555535" lon="6.87821110296">
		<tag k="fixme" v="multiple name tags, choose one and add the other to alt_name" />
		<tag k="name" v="Espeli;Lian" />
		<tag k="place" v="isolated_dwelling" />
		<tag k="ssr:stedsnr" v="121424" />
	</node>
</osm>
