<?xml version="1.0" encoding="UTF-8"?>
<osm generator="osmapis" version="0.6">
	<node id="-344057" lat="58.4834861092" lon="6.84410278607">
		<tag k="name" v="Viamyra" />
		<tag k="natural" v="wetland" />
		<tag k="ssr:stedsnr" v="710706" />
	</node>
	<node id="-344043" lat="58.4684416633" lon="6.83954999889">
		<tag k="name" v="Ørnemyr" />
		<tag k="natural" v="wetland" />
		<tag k="ssr:stedsnr" v="710655" />
	</node>
	<node id="-344041" lat="58.3832333376" lon="6.70953610786">
		<tag k="name" v="Myra" />
		<tag k="natural" v="wetland" />
		<tag k="ssr:stedsnr" v="710651" />
	</node>
	<node id="-344029" lat="58.2114861116" lon="6.60078611274">
		<tag k="name" v="Langamyra" />
		<tag k="natural" v="wetland" />
		<tag k="ssr:stedsnr" v="710596" />
	</node>
	<node id="-341980" lat="58.3046611069" lon="6.75451945302">
		<tag k="name" v="Veisa" />
		<tag k="natural" v="wetland" />
		<tag k="ssr:stedsnr" v="104724" />
	</node>
	<node id="-344027" lat="58.3160472201" lon="6.57170833481">
		<tag k="name" v="Lange myran" />
		<tag k="natural" v="wetland" />
		<tag k="ssr:stedsnr" v="710575" />
	</node>
	<node id="-344022" lat="58.3347499995" lon="6.59033611719">
		<tag k="name" v="Skogemyr" />
		<tag k="natural" v="wetland" />
		<tag k="ssr:stedsnr" v="710525" />
	</node>
	<node id="-341965" lat="58.4097111121" lon="6.84905832961">
		<tag k="name" v="Stora myra" />
		<tag k="natural" v="wetland" />
		<tag k="ssr:stedsnr" v="104189" />
	</node>
	<node id="-344011" lat="58.2626777778" lon="6.53217222042">
		<tag k="name" v="Porsmyr" />
		<tag k="natural" v="wetland" />
		<tag k="ssr:stedsnr" v="710492" />
	</node>
	<node id="-344008" lat="58.2890333344" lon="6.53505555724">
		<tag k="name" v="Flekkedalsmyra" />
		<tag k="natural" v="wetland" />
		<tag k="ssr:stedsnr" v="710466" />
	</node>
	<node id="-341956" lat="58.4531666651" lon="6.64659721399">
		<tag k="name" v="Grinningsmyr" />
		<tag k="natural" v="wetland" />
		<tag k="ssr:stedsnr" v="103995" />
	</node>
	<node id="-344003" lat="58.2998222234" lon="6.58044445208">
		<tag k="name" v="Litle Staksmyr" />
		<tag k="natural" v="wetland" />
		<tag k="ssr:stedsnr" v="710450" />
	</node>
	<node id="-344002" lat="58.2949416678" lon="6.59646389561">
		<tag k="name" v="Trømyr" />
		<tag k="natural" v="wetland" />
		<tag k="ssr:stedsnr" v="710451" />
	</node>
	<node id="-343989" lat="58.3530555568" lon="6.80967499206">
		<tag k="name" v="Kjemyr" />
		<tag k="natural" v="wetland" />
		<tag k="ssr:stedsnr" v="710395" />
	</node>
	<node id="-341939" lat="58.4843250042" lon="6.62585554827">
		<tag k="name" v="Feittjødnmyran" />
		<tag k="natural" v="wetland" />
		<tag k="ssr:stedsnr" v="103906" />
	</node>
	<node id="-341937" lat="58.4759138928" lon="6.66593889517">
		<tag k="name" v="Stora myra" />
		<tag k="natural" v="wetland" />
		<tag k="ssr:stedsnr" v="103899" />
	</node>
	<node id="-343979" lat="58.3539750001" lon="6.70998889071">
		<tag k="name" v="Skiftingsmyran" />
		<tag k="natural" v="wetland" />
		<tag k="ssr:stedsnr" v="710354" />
	</node>
	<node id="-343971" lat="58.2742249996" lon="6.41002777792">
		<tag k="name" v="Djupa myra" />
		<tag k="natural" v="wetland" />
		<tag k="ssr:stedsnr" v="710308" />
	</node>
	<node id="-343966" lat="58.4205500017" lon="6.79286389617">
		<tag k="name" v="Hellebrokka" />
		<tag k="place" v="locality" />
		<tag k="ssr:stedsnr" v="710285" />
	</node>
	<node id="-343965" lat="58.4228138857" lon="6.78805833923">
		<tag k="name" v="Midtmyr" />
		<tag k="natural" v="wetland" />
		<tag k="ssr:stedsnr" v="710284" />
	</node>
	<node id="-341915" lat="58.5051111151" lon="6.63702221526">
		<tag k="name" v="Fismyr" />
		<tag k="natural" v="wetland" />
		<tag k="ssr:stedsnr" v="103765" />
	</node>
	<node id="-341914" lat="58.3917972239" lon="6.67560277864">
		<tag k="name" v="Stemmemyra" />
		<tag k="natural" v="wetland" />
		<tag k="ssr:stedsnr" v="103761" />
	</node>
	<node id="-345071" lat="58.4473055534" lon="6.69989999356">
		<tag k="name" v="Stakksmyran" />
		<tag k="natural" v="wetland" />
		<tag k="ssr:stedsnr" v="953959" />
	</node>
	<node id="-341912" lat="58.5047694419" lon="6.62664444776">
		<tag k="name" v="Romemyran" />
		<tag k="natural" v="wetland" />
		<tag k="ssr:stedsnr" v="103756" />
	</node>
	<node id="-343947" lat="58.4982333308" lon="6.74639445018">
		<tag k="name" v="Jomfruhola" />
		<tag k="natural" v="wetland" />
		<tag k="ssr:stedsnr" v="710075" />
	</node>
	<node id="-342121" lat="58.2228111108" lon="6.63043333406">
		<tag k="name" v="Stormyra" />
		<tag k="place" v="locality" />
		<tag k="ssr:stedsnr" v="164092" />
	</node>
	<node id="-341897" lat="58.4813916709" lon="6.85440000087">
		<tag k="name" v="Blaudamyra" />
		<tag k="natural" v="wetland" />
		<tag k="ssr:stedsnr" v="103678" />
	</node>
	<node id="-343939" lat="58.4913277821" lon="6.81857222667">
		<tag k="name" v="Gamlemyra" />
		<tag k="natural" v="wetland" />
		<tag k="ssr:stedsnr" v="710030" />
	</node>
	<node id="-341889" lat="58.4714750001" lon="6.86889999915">
		<tag k="name" v="Diblemyr" />
		<tag k="natural" v="wetland" />
		<tag k="ssr:stedsnr" v="103637" />
	</node>
	<node id="-341886" lat="58.550652775" lon="6.67102499232">
		<tag k="name" v="Kallemyr" />
		<tag k="natural" v="wetland" />
		<tag k="ssr:stedsnr" v="103608" />
	</node>
	<node id="-344724" lat="58.4480166637" lon="6.69080833309">
		<tag k="name" v="Floddmyran" />
		<tag k="natural" v="wetland" />
		<tag k="ssr:stedsnr" v="832962" />
	</node>
	<node id="-343924" lat="58.3735361148" lon="6.85023888014">
		<tag k="name" v="Rosvollen" />
		<tag k="place" v="locality" />
		<tag k="ssr:stedsnr" v="709062" />
	</node>
	<node id="-343922" lat="58.4851916661" lon="6.81571389116">
		<tag k="name" v="Skarmyr" />
		<tag k="natural" v="wetland" />
		<tag k="ssr:stedsnr" v="709054" />
	</node>
	<node id="-343920" lat="58.4849972196" lon="6.78734445292">
		<tag k="landuse" v="meadow" />
		<tag k="name" v="Storemyr" />
		<tag k="ssr:stedsnr" v="709047" />
	</node>
	<node id="-343917" lat="58.4811694424" lon="6.72474166063">
		<tag k="name" v="Jeleskarmyra" />
		<tag k="natural" v="wetland" />
		<tag k="ssr:stedsnr" v="709010" />
	</node>
	<node id="-341863" lat="58.4071416626" lon="6.78343055268">
		<tag k="name" v="Kallemyr" />
		<tag k="natural" v="wetland" />
		<tag k="ssr:stedsnr" v="103490" />
	</node>
	<node id="-341861" lat="58.2685694485" lon="6.53347222615">
		<tag k="name" v="Diblemyra" />
		<tag k="natural" v="wetland" />
		<tag k="ssr:stedsnr" v="103486" />
	</node>
	<node id="-343906" lat="58.4291305516" lon="6.68274445061">
		<tag k="name" v="Botnemyr" />
		<tag k="natural" v="wetland" />
		<tag k="ssr:stedsnr" v="706920" />
	</node>
	<node id="-341857" lat="58.4411138917" lon="6.76893610883">
		<tag k="name" v="Lauvhellaren" />
		<tag k="natural" v="stone" />
		<tag k="ssr:stedsnr" v="103456" />
	</node>
	<node id="-341856" lat="58.4508666665" lon="6.71755555466">
		<tag k="name" v="Timlimyran" />
		<tag k="natural" v="wetland" />
		<tag k="ssr:stedsnr" v="103450" />
	</node>
	<node id="-340965" lat="58.4353222231" lon="6.74780276961">
		<tag k="name" v="Hommemyr" />
		<tag k="natural" v="wetland" />
		<tag k="ssr:stedsnr" v="406413" />
	</node>
	<node id="-341852" lat="58.4705027803" lon="6.77755000146">
		<tag k="name" v="Dalan" />
		<tag k="natural" v="wetland" />
		<tag k="ssr:stedsnr" v="103420" />
	</node>
	<node id="-343898" lat="58.466127779" lon="6.75307222193">
		<tag k="name" v="Kleivs Budal" />
		<tag k="natural" v="wetland" />
		<tag k="ssr:stedsnr" v="706429" />
	</node>
	<node id="-343897" lat="58.4712777807" lon="6.73363334151">
		<tag k="name" v="Steian" />
		<tag k="place" v="locality" />
		<tag k="ssr:stedsnr" v="706425" />
	</node>
	<node id="-343892" lat="58.5213666648" lon="6.6189194394">
		<tag k="name" v="Ursteinen" />
		<tag k="natural" v="stone" />
		<tag k="ssr:stedsnr" v="706240" />
	</node>
	<node id="-343890" lat="58.3701361155" lon="6.63084166895">
		<tag k="name" v="Åsmyra" />
		<tag k="natural" v="wetland" />
		<tag k="ssr:stedsnr" v="706207" />
	</node>
	<node id="-341840" lat="58.2556027803" lon="6.53811665923">
		<tag k="name" v="Ytre Botna" />
		<tag k="natural" v="wetland" />
		<tag k="ssr:stedsnr" v="103383" />
	</node>
	<node id="-340621" lat="58.3794638909" lon="6.88526666736">
		<tag k="name" v="Surtemyr" />
		<tag k="natural" v="wetland" />
		<tag k="ssr:stedsnr" v="345211" />
	</node>
	<node id="-343884" lat="58.4017111146" lon="6.82213610359">
		<tag k="name" v="Hove" />
		<tag k="natural" v="stone" />
		<tag k="ssr:stedsnr" v="706131" />
	</node>
	<node id="-343881" lat="58.3597888849" lon="6.74091388089">
		<tag k="name" v="Store myra" />
		<tag k="natural" v="wetland" />
		<tag k="ssr:stedsnr" v="705640" />
	</node>
	<node id="-343880" lat="58.4160888921" lon="6.78876665988">
		<tag k="name" v="Bjørndalsbergan" />
		<tag k="place" v="locality" />
		<tag k="ssr:stedsnr" v="705636" />
	</node>
	<node id="-343877" lat="58.3670277763" lon="6.87815833621">
		<tag k="name" v="Maurvollen" />
		<tag k="place" v="locality" />
		<tag k="ssr:stedsnr" v="705586" />
	</node>
	<node id="-343874" lat="58.3366583314" lon="6.68687778194">
		<tag k="name" v="Surtemyr" />
		<tag k="natural" v="wetland" />
		<tag k="ssr:stedsnr" v="705220" />
	</node>
	<node id="-341825" lat="58.3980777773" lon="6.73204722304">
		<tag k="name" v="Fjordfoldmyra" />
		<tag k="natural" v="wetland" />
		<tag k="ssr:stedsnr" v="103291" />
	</node>
	<node id="-341816" lat="58.2636222252" lon="6.6181027816">
		<tag k="name" v="Ormemyra" />
		<tag k="natural" v="wetland" />
		<tag k="ssr:stedsnr" v="103167" />
	</node>
	<node id="-341807" lat="58.2989944431" lon="6.61226944065">
		<tag k="name" v="Atlakslåta" />
		<tag k="natural" v="wetland" />
		<tag k="ssr:stedsnr" v="103098" />
	</node>
	<node id="-341806" lat="58.2163277776" lon="6.60004166651">
		<tag k="name" v="Saksemyra" />
		<tag k="natural" v="wetland" />
		<tag k="ssr:stedsnr" v="103083" />
	</node>
	<node id="-341796" lat="58.4763638901" lon="6.78198889221">
		<tag k="name" v="Kringlemyr" />
		<tag k="natural" v="wetland" />
		<tag k="ssr:stedsnr" v="103028" />
	</node>
	<node id="-343003" lat="58.4947222179" lon="6.77121110733">
		<tag k="name" v="Kvednhushommen" />
		<tag k="place" v="locality" />
		<tag k="ssr:stedsnr" v="527144" />
	</node>
	<node id="-341685" lat="58.51010278" lon="6.66243611343">
		<tag k="name" v="Surtemyr" />
		<tag k="natural" v="wetland" />
		<tag k="ssr:stedsnr" v="43948" />
	</node>
	<node id="-341770" lat="58.2671805551" lon="6.73230833374">
		<tag k="name" v="Katteholet" />
		<tag k="natural" v="wetland" />
		<tag k="ssr:stedsnr" v="99563" />
	</node>
	<node id="-341765" lat="58.4073777785" lon="6.77265555657">
		<tag k="name" v="Viemyran" />
		<tag k="natural" v="wetland" />
		<tag k="ssr:stedsnr" v="99494" />
	</node>
	<node id="-343809" lat="58.4592333334" lon="6.62232222287">
		<tag k="name" v="Fjordingsmyr" />
		<tag k="natural" v="wetland" />
		<tag k="ssr:stedsnr" v="649989" />
	</node>
	<node id="-341759" lat="58.2893888898" lon="6.46705832775">
		<tag k="name" v="Lundemyr" />
		<tag k="natural" v="wetland" />
		<tag k="ssr:stedsnr" v="99307" />
	</node>
	<node id="-343782" lat="58.2883138916" lon="6.7586083362">
		<tag k="name" v="Brunnmyra" />
		<tag k="natural" v="wetland" />
		<tag k="ssr:stedsnr" v="649851" />
	</node>
	<node id="-343773" lat="58.4792916694" lon="6.64691665813">
		<tag k="name" v="Bronemyr" />
		<tag k="natural" v="wetland" />
		<tag k="ssr:stedsnr" v="649819" />
	</node>
	<node id="-341710" lat="58.2744138849" lon="6.56183333036">
		<tag k="alt_name" v="Mønstremyr" />
		<tag k="name" v="Mønstremyra" />
		<tag k="natural" v="wetland" />
		<tag k="ssr:stedsnr" v="61038" />
	</node>
	<node id="-343748" lat="58.4922416644" lon="6.82467499653">
		<tag k="name" v="Torkildslåten" />
		<tag k="natural" v="wetland" />
		<tag k="ssr:stedsnr" v="649697" />
	</node>
	<node id="-343743" lat="58.4981555535" lon="6.84530278591">
		<tag k="name" v="Studemyr" />
		<tag k="natural" v="wetland" />
		<tag k="ssr:stedsnr" v="649688" />
	</node>
	<node id="-341689" lat="58.4442305595" lon="6.6967638841">
		<tag k="name" v="Steian" />
		<tag k="natural" v="wetland" />
		<tag k="ssr:stedsnr" v="43978" />
	</node>
	<node id="-343734" lat="58.3803861088" lon="6.73448610755">
		<tag k="name" v="Skarmyra" />
		<tag k="natural" v="wetland" />
		<tag k="ssr:stedsnr" v="649658" />
	</node>
	<node id="-343733" lat="58.3902166681" lon="6.84115278444">
		<tag k="name" v="Momyra" />
		<tag k="natural" v="wetland" />
		<tag k="ssr:stedsnr" v="649655" />
	</node>
	<node id="-343724" lat="58.2540722218" lon="6.57704166108">
		<tag k="name" v="Myran" />
		<tag k="natural" v="wetland" />
		<tag k="ssr:stedsnr" v="649555" />
	</node>
	<node id="-343723" lat="58.2548916634" lon="6.72805277907">
		<tag k="name" v="Feiformyra" />
		<tag k="natural" v="wetland" />
		<tag k="ssr:stedsnr" v="649552" />
	</node>
	<node id="-343721" lat="58.2662833333" lon="6.54469999586">
		<tag k="name" v="Ytre Stoa" />
		<tag k="natural" v="wetland" />
		<tag k="ssr:stedsnr" v="649535" />
	</node>
	<node id="-343720" lat="58.3397500011" lon="6.5838083309">
		<tag k="name" v="Kråkemyra" />
		<tag k="natural" v="wetland" />
		<tag k="ssr:stedsnr" v="649533" />
	</node>
	<node id="-343709" lat="58.2848166638" lon="6.52357500628">
		<tag k="name" v="Fuglekjerr" />
		<tag k="natural" v="wetland" />
		<tag k="ssr:stedsnr" v="649475" />
	</node>
	<node id="-341660" lat="58.3832222194" lon="6.7290861037">
		<tag k="name" v="Skiftingsmyra" />
		<tag k="natural" v="wetland" />
		<tag k="ssr:stedsnr" v="43635" />
	</node>
	<node id="-343703" lat="58.4345083307" lon="6.7503805608">
		<tag k="name" v="Hestemyr" />
		<tag k="natural" v="wetland" />
		<tag k="ssr:stedsnr" v="649431" />
	</node>
	<node id="-341654" lat="58.3082833312" lon="6.7372027706">
		<tag k="name" v="Nordvollen" />
		<tag k="place" v="locality" />
		<tag k="ssr:stedsnr" v="43720" />
	</node>
	<node id="-341650" lat="58.2546222237" lon="6.75876944662">
		<tag k="name" v="Diblemyr" />
		<tag k="natural" v="wetland" />
		<tag k="ssr:stedsnr" v="43498" />
	</node>
	<node id="-343696" lat="58.2377138851" lon="6.55237777411">
		<tag k="name" v="Lauåsmyr" />
		<tag k="natural" v="wetland" />
		<tag k="ssr:stedsnr" v="649399" />
	</node>
	<node id="-343695" lat="58.42611667" lon="6.73469165927">
		<tag k="name" v="Kringlemyr" />
		<tag k="natural" v="wetland" />
		<tag k="ssr:stedsnr" v="649394" />
	</node>
	<node id="-343694" lat="58.4224999957" lon="6.73307500029">
		<tag k="name" v="Farligbustø" />
		<tag k="natural" v="wetland" />
		<tag k="ssr:stedsnr" v="649393" />
	</node>
	<node id="-341645" lat="58.255080553" lon="6.53437222043">
		<tag k="name" v="Stomyr" />
		<tag k="natural" v="wetland" />
		<tag k="ssr:stedsnr" v="43360" />
	</node>
	<node id="-343676" lat="58.4220305556" lon="6.80789444169">
		<tag k="name" v="Hestmyr" />
		<tag k="place" v="locality" />
		<tag k="ssr:stedsnr" v="649276" />
	</node>
	<node id="-343671" lat="58.3833194405" lon="6.88496667194">
		<tag k="name" v="Langemyr" />
		<tag k="natural" v="wetland" />
		<tag k="ssr:stedsnr" v="649204" />
	</node>
	<node id="-343669" lat="58.3378222211" lon="6.61430833319">
		<tag k="name" v="Moltemyr" />
		<tag k="natural" v="wetland" />
		<tag k="ssr:stedsnr" v="649182" />
	</node>
	<node id="-343653" lat="58.2016527796" lon="6.59796388843">
		<tag k="name" v="Kråketjødna" />
		<tag k="natural" v="wetland" />
		<tag k="ssr:stedsnr" v="649034" />
	</node>
	<node id="-344678" lat="58.2951194475" lon="6.74766389331">
		<tag k="name" v="Persslåtta" />
		<tag k="natural" v="wetland" />
		<tag k="ssr:stedsnr" v="832625" />
	</node>
	<node id="-341591" lat="58.4752555553" lon="6.64440833051">
		<tag k="name" v="Lange myran" />
		<tag k="natural" v="wetland" />
		<tag k="ssr:stedsnr" v="42904" />
	</node>
	<node id="-343628" lat="58.4305083295" lon="6.79590277758">
		<tag k="name" v="Storemyr" />
		<tag k="natural" v="wetland" />
		<tag k="ssr:stedsnr" v="648412" />
	</node>
	<node id="-341578" lat="58.2888666704" lon="6.45649721658">
		<tag k="name" v="Diblemyra" />
		<tag k="natural" v="wetland" />
		<tag k="ssr:stedsnr" v="42691" />
	</node>
	<node id="-341575" lat="58.4858250019" lon="6.83973888811">
		<tag k="name" v="Langemyr" />
		<tag k="natural" v="wetland" />
		<tag k="ssr:stedsnr" v="42657" />
	</node>
	<node id="-343622" lat="58.4983361107" lon="6.76759166356">
		<tag k="name" v="Lundjuv" />
		<tag k="natural" v="wetland" />
		<tag k="ssr:stedsnr" v="648129" />
	</node>
	<node id="-341571" lat="58.5024472194" lon="6.82603610579">
		<tag k="name" v="Botnan" />
		<tag k="natural" v="wetland" />
		<tag k="ssr:stedsnr" v="42639" />
	</node>
	<node id="-341570" lat="58.43231111" lon="6.8586888949">
		<tag k="name" v="Lislåta" />
		<tag k="natural" v="wetland" />
		<tag k="ssr:stedsnr" v="42628" />
	</node>
	<node id="-343616" lat="58.4963083366" lon="6.75661666888">
		<tag k="name" v="Liemyr" />
		<tag k="natural" v="wetland" />
		<tag k="ssr:stedsnr" v="648089" />
	</node>
	<node id="-343615" lat="58.5007750005" lon="6.76193610788">
		<tag k="landuse" v="meadow" />
		<tag k="name" v="Nesan" />
		<tag k="ssr:stedsnr" v="648087" />
	</node>
	<node id="-341560" lat="58.3039222244" lon="6.52617221884">
		<tag k="name" v="Skådåsmyra" />
		<tag k="natural" v="wetland" />
		<tag k="ssr:stedsnr" v="42475" />
	</node>
	<node id="-343605" lat="58.4791583363" lon="6.80253333222">
		<tag k="name" v="Moland" />
		<tag k="place" v="locality" />
		<tag k="ssr:stedsnr" v="648002" />
	</node>
	<node id="-341555" lat="58.4305694477" lon="6.7219277701">
		<tag k="name" v="Langemyran" />
		<tag k="natural" v="wetland" />
		<tag k="ssr:stedsnr" v="42436" />
	</node>
	<node id="-343619" lat="58.4945499995" lon="6.76876389551">
		<tag k="name" v="Haugeli" />
		<tag k="natural" v="wetland" />
		<tag k="ssr:stedsnr" v="648109" />
	</node>
	<node id="-343987" lat="58.4250861134" lon="6.74418334156">
		<tag k="name" v="Langesteinen" />
		<tag k="natural" v="stone" />
		<tag k="ssr:stedsnr" v="710384" />
	</node>
	<node id="-341551" lat="58.439427777" lon="6.78317222541">
		<tag k="name" v="Burmannsteinen" />
		<tag k="natural" v="stone" />
		<tag k="ssr:stedsnr" v="42414" />
	</node>
	<node id="-343590" lat="58.3569194421" lon="6.61689722264">
		<tag k="name" v="Nesmyran" />
		<tag k="natural" v="wetland" />
		<tag k="ssr:stedsnr" v="645924" />
	</node>
	<node id="-341540" lat="58.4310055592" lon="6.80390833606">
		<tag k="name" v="Stien" />
		<tag k="natural" v="wetland" />
		<tag k="ssr:stedsnr" v="42399" />
	</node>
	<node id="-345008" lat="58.5548694475" lon="6.68865556123">
		<tag k="name" v="Trevmyr" />
		<tag k="natural" v="wetland" />
		<tag k="ssr:stedsnr" v="953647" />
	</node>
	<node id="-343575" lat="58.3065750021" lon="6.68275834079">
		<tag k="name" v="Storemyra" />
		<tag k="natural" v="wetland" />
		<tag k="ssr:stedsnr" v="645219" />
	</node>
	<node id="-343568" lat="58.395975002" lon="6.80693611043">
		<tag k="landuse" v="meadow" />
		<tag k="name" v="Kleivmyr" />
		<tag k="ssr:stedsnr" v="644614" />
	</node>
	<node id="-341518" lat="58.2476222231" lon="6.62880554904">
		<tag k="name" v="Holman" />
		<tag k="place" v="locality" />
		<tag k="ssr:stedsnr" v="42045" />
	</node>
	<node id="-341516" lat="58.4881027803" lon="6.80908055022">
		<tag k="name" v="Pytten" />
		<tag k="natural" v="wetland" />
		<tag k="ssr:stedsnr" v="42023" />
	</node>
	<node id="-343563" lat="58.2579805563" lon="6.75987500162">
		<tag k="name" v="Bekkemyr" />
		<tag k="natural" v="wetland" />
		<tag k="ssr:stedsnr" v="644588" />
	</node>
	<node id="-341512" lat="58.3792416705" lon="6.90172777851">
		<tag k="name" v="Methommen" />
		<tag k="place" v="locality" />
		<tag k="ssr:stedsnr" v="42214" />
	</node>
	<node id="-341508" lat="58.4860750024" lon="6.76322221489">
		<tag k="name" v="Liksteinmyra" />
		<tag k="natural" v="wetland" />
		<tag k="ssr:stedsnr" v="42131" />
	</node>
	<node id="-343555" lat="58.4042138922" lon="6.78856111434">
		<tag k="name" v="Pigsteinen" />
		<tag k="natural" v="stone" />
		<tag k="ssr:stedsnr" v="644499" />
	</node>
	<node id="-341497" lat="58.3786472231" lon="6.62501111958">
		<tag k="name" v="Store Myra" />
		<tag k="natural" v="wetland" />
		<tag k="ssr:stedsnr" v="39184" />
	</node>
	<node id="-341491" lat="58.3261444461" lon="6.62564721612">
		<tag k="name" v="Midtbakkmyra" />
		<tag k="natural" v="wetland" />
		<tag k="ssr:stedsnr" v="39135" />
	</node>
	<node id="-341471" lat="58.4026166692" lon="6.81222500047">
		<tag k="name" v="Diblan" />
		<tag k="natural" v="wetland" />
		<tag k="ssr:stedsnr" v="38503" />
	</node>
	<node id="-341470" lat="58.3932499996" lon="6.80515000516">
		<tag k="name" v="Lonevollen" />
		<tag k="place" v="locality" />
		<tag k="ssr:stedsnr" v="38499" />
	</node>
	<node id="-341469" lat="58.4719027774" lon="6.75781389371">
		<tag k="name" v="Birkelands Budal" />
		<tag k="natural" v="wetland" />
		<tag k="ssr:stedsnr" v="38486" />
	</node>
	<node id="-340619" lat="58.499877774" lon="6.76738332657">
		<tag k="name" v="Lunden" />
		<tag k="place" v="locality" />
		<tag k="ssr:stedsnr" v="345129" />
	</node>
	<node id="-343495" lat="58.3348805571" lon="6.73497777831">
		<tag k="name" v="Skogåkeren" />
		<tag k="place" v="locality" />
		<tag k="ssr:stedsnr" v="589766" />
	</node>
	<node id="-343494" lat="58.3339750006" lon="6.72017778375">
		<tag k="name" v="Floran" />
		<tag k="place" v="locality" />
		<tag k="ssr:stedsnr" v="589762" />
	</node>
	<node id="-343492" lat="58.3039638891" lon="6.73272777211">
		<tag k="name" v="Porsmyr" />
		<tag k="place" v="locality" />
		<tag k="ssr:stedsnr" v="589717" />
	</node>
	<node id="-343477" lat="58.4162333356" lon="6.84002777292">
		<tag k="name" v="Litle Lunden" />
		<tag k="place" v="locality" />
		<tag k="ssr:stedsnr" v="589172" />
	</node>
	<node id="-341428" lat="58.3724333288" lon="6.69792221909">
		<tag k="name" v="Åsmyr" />
		<tag k="natural" v="wetland" />
		<tag k="ssr:stedsnr" v="267430" />
	</node>
	<node id="-343475" lat="58.4627944429" lon="6.65600833705">
		<tag k="name" v="Florstykket" />
		<tag k="place" v="locality" />
		<tag k="ssr:stedsnr" v="588992" />
	</node>
	<node id="-343473" lat="58.4573527798" lon="6.62398332596">
		<tag k="name" v="Orresnormyr" />
		<tag k="natural" v="wetland" />
		<tag k="ssr:stedsnr" v="588990" />
	</node>
	<node id="-343472" lat="58.4417416708" lon="6.65220832575">
		<tag k="name" v="Fiblemyr" />
		<tag k="natural" v="wetland" />
		<tag k="ssr:stedsnr" v="588985" />
	</node>
	<node id="-343470" lat="58.4580166691" lon="6.68873611626">
		<tag k="name" v="Store myran" />
		<tag k="natural" v="wetland" />
		<tag k="ssr:stedsnr" v="588981" />
	</node>
	<node id="-343623" lat="58.4844916631" lon="6.71074721772">
		<tag k="name" v="Elshom" />
		<tag k="natural" v="wetland" />
		<tag k="ssr:stedsnr" v="648151" />
	</node>
	<node id="-343460" lat="58.4029388922" lon="6.66888333786">
		<tag k="name" v="Stora Krubbemyr" />
		<tag k="natural" v="wetland" />
		<tag k="ssr:stedsnr" v="588952" />
	</node>
	<node id="-341408" lat="58.4788390563" lon="6.610329047">
		<tag k="name" v="Måvrestølen" />
		<tag k="place" v="locality" />
		<tag k="ssr:stedsnr" v="633494" />
	</node>
	<node id="-343618" lat="58.5005916665" lon="6.72843888262">
		<tag k="name" v="Greftebakken" />
		<tag k="natural" v="wetland" />
		<tag k="ssr:stedsnr" v="648103" />
	</node>
	<node id="-343450" lat="58.48400278" lon="6.70807499391">
		<tag k="name" v="Orresteinen" />
		<tag k="natural" v="stone" />
		<tag k="ssr:stedsnr" v="588900" />
	</node>
	<node id="-343445" lat="58.3661249991" lon="6.68344444891">
		<tag k="name" v="Torvmyra" />
		<tag k="natural" v="wetland" />
		<tag k="ssr:stedsnr" v="588874" />
	</node>
	<node id="-343441" lat="58.3547999984" lon="6.63393333202">
		<tag k="name" v="Dragsmyra" />
		<tag k="place" v="locality" />
		<tag k="ssr:stedsnr" v="588857" />
	</node>
	<node id="-341390" lat="58.4789611126" lon="6.70496665886">
		<tag k="name" v="Skrubbemyr" />
		<tag k="natural" v="wetland" />
		<tag k="ssr:stedsnr" v="892873" />
	</node>
	<node id="-343435" lat="58.5343305586" lon="6.66200000501">
		<tag k="name" v="Homman" />
		<tag k="natural" v="wetland" />
		<tag k="ssr:stedsnr" v="588848" />
	</node>
	<node id="-343428" lat="58.4249777795" lon="6.67655833639">
		<tag k="name" v="Memyr" />
		<tag k="natural" v="wetland" />
		<tag k="ssr:stedsnr" v="588807" />
	</node>
	<node id="-341379" lat="58.3614999964" lon="6.69507499214">
		<tag k="name" v="Moltemyr" />
		<tag k="natural" v="wetland" />
		<tag k="ssr:stedsnr" v="892818" />
	</node>
	<node id="-343422" lat="58.4709750034" lon="6.66337777592">
		<tag k="name" v="Hellarfed" />
		<tag k="natural" v="wetland" />
		<tag k="ssr:stedsnr" v="588769" />
	</node>
	<node id="-343421" lat="58.45309722" lon="6.63202777279">
		<tag k="name" v="Kregemyr" />
		<tag k="natural" v="wetland" />
		<tag k="ssr:stedsnr" v="588767" />
	</node>
	<node id="-341354" lat="58.4823583369" lon="6.63116943759">
		<tag k="name" v="Snoremyr" />
		<tag k="natural" v="wetland" />
		<tag k="ssr:stedsnr" v="892728" />
	</node>
	<node id="-343399" lat="58.4381749967" lon="6.82130833614">
		<tag k="name" v="Krogemonen" />
		<tag k="natural" v="wetland" />
		<tag k="ssr:stedsnr" v="588666" />
	</node>
	<node id="-343393" lat="58.4597472248" lon="6.83010833799">
		<tag k="name" v="Tangheimyran" />
		<tag k="natural" v="wetland" />
		<tag k="ssr:stedsnr" v="588639" />
	</node>
	<node id="-341341" lat="58.3852694438" lon="6.76064445052">
		<tag k="name" v="Botnen" />
		<tag k="place" v="locality" />
		<tag k="ssr:stedsnr" v="892659" />
	</node>
	<node id="-343387" lat="58.2668083346" lon="6.62760832519">
		<tag k="name" v="Hellermyr" />
		<tag k="natural" v="wetland" />
		<tag k="ssr:stedsnr" v="588612" />
	</node>
	<node id="-341331" lat="58.4511388894" lon="6.8611055597">
		<tag k="name" v="Nerkleivmyran" />
		<tag k="natural" v="wetland" />
		<tag k="ssr:stedsnr" v="892624" />
	</node>
	<node id="-341328" lat="58.3841138869" lon="6.71351944958">
		<tag k="name" v="Hundemyr" />
		<tag k="natural" v="wetland" />
		<tag k="ssr:stedsnr" v="892617" />
	</node>
	<node id="-343372" lat="58.5327611084" lon="6.65934721739">
		<tag k="name" v="Hestedalslega" />
		<tag k="natural" v="wetland" />
		<tag k="ssr:stedsnr" v="588524" />
	</node>
	<node id="-341320" lat="58.2963805535" lon="6.74154166461">
		<tag k="name" v="Myran" />
		<tag k="natural" v="wetland" />
		<tag k="ssr:stedsnr" v="892589" />
	</node>
	<node id="-341318" lat="58.2691194483" lon="6.60901388263">
		<tag k="name" v="Skuggemyr" />
		<tag k="natural" v="wetland" />
		<tag k="ssr:stedsnr" v="892574" />
	</node>
	<node id="-343360" lat="58.3039361084" lon="6.50186111854">
		<tag k="name" v="Karensmyr" />
		<tag k="natural" v="wetland" />
		<tag k="ssr:stedsnr" v="588471" />
	</node>
	<node id="-343353" lat="58.2981083375" lon="6.51538889423">
		<tag k="name" v="Porsmyr" />
		<tag k="natural" v="wetland" />
		<tag k="ssr:stedsnr" v="588427" />
	</node>
	<node id="-341303" lat="58.2978027785" lon="6.53025277427">
		<tag k="name" v="Langa myra" />
		<tag k="natural" v="wetland" />
		<tag k="ssr:stedsnr" v="892506" />
	</node>
	<node id="-341301" lat="58.2547277786" lon="6.56610277735">
		<tag k="name" v="Bormyr" />
		<tag k="natural" v="wetland" />
		<tag k="ssr:stedsnr" v="892498" />
	</node>
	<node id="-341292" lat="58.4322361073" lon="6.76012777885">
		<tag k="name" v="Skiftingsdalen" />
		<tag k="natural" v="wetland" />
		<tag k="ssr:stedsnr" v="892438" />
	</node>
	<node id="-343337" lat="58.3522861074" lon="6.76340833965">
		<tag k="name" v="Ansteinsura" />
		<tag k="natural" v="scree" />
		<tag k="ssr:stedsnr" v="588352" />
	</node>
	<node id="-341282" lat="58.4460333352" lon="6.73955833518">
		<tag k="name" v="Gullbergtoa" />
		<tag k="natural" v="wetland" />
		<tag k="ssr:stedsnr" v="892377" />
	</node>
	<node id="-341279" lat="58.4414333358" lon="6.76078333571">
		<tag k="name" v="Lødalsmyra" />
		<tag k="natural" v="wetland" />
		<tag k="ssr:stedsnr" v="892369" />
	</node>
	<node id="-343319" lat="58.4232166632" lon="6.81602499648">
		<tag k="name" v="Steinskarmyra" />
		<tag k="natural" v="wetland" />
		<tag k="ssr:stedsnr" v="588254" />
	</node>
	<node id="-341265" lat="58.3995777792" lon="6.74148054919">
		<tag k="name" v="Jordhola" />
		<tag k="natural" v="wetland" />
		<tag k="ssr:stedsnr" v="892292" />
	</node>
	<node id="-343310" lat="58.2680638919" lon="6.60826944223">
		<tag k="name" v="Langemyr" />
		<tag k="natural" v="wetland" />
		<tag k="ssr:stedsnr" v="588137" />
	</node>
	<node id="-343306" lat="58.5038305515" lon="6.79054443963">
		<tag k="name" v="Brende bakken" />
		<tag k="place" v="locality" />
		<tag k="ssr:stedsnr" v="588105" />
	</node>
	<node id="-341247" lat="58.4991083336" lon="6.78319166766">
		<tag k="name" v="Fluseli" />
		<tag k="natural" v="wetland" />
		<tag k="ssr:stedsnr" v="892121" />
	</node>
	<node id="-341236" lat="58.2201361087" lon="6.66572499205">
		<tag k="name" v="Piptersteinen" />
		<tag k="natural" v="stone" />
		<tag k="ssr:stedsnr" v="892077" />
	</node>
	<node id="-341229" lat="58.3706611082" lon="6.8659472297">
		<tag k="name" v="Torvmyra" />
		<tag k="natural" v="wetland" />
		<tag k="ssr:stedsnr" v="892055" />
	</node>
	<node id="-343272" lat="58.3803055542" lon="6.64831389597">
		<tag k="name" v="Store Ura" />
		<tag k="natural" v="scree" />
		<tag k="ssr:stedsnr" v="584929" />
	</node>
	<node id="-341221" lat="58.3108499972" lon="6.56713332943">
		<tag k="name" v="Blaute myra" />
		<tag k="natural" v="wetland" />
		<tag k="ssr:stedsnr" v="892009" />
	</node>
	<node id="-343263" lat="58.2833305559" lon="6.73396666619">
		<tag k="name" v="Tuemyr" />
		<tag k="natural" v="wetland" />
		<tag k="ssr:stedsnr" v="584585" />
	</node>
	<node id="-343260" lat="58.5126833343" lon="6.82281111152">
		<tag k="name" v="Dabeslåta" />
		<tag k="place" v="locality" />
		<tag k="ssr:stedsnr" v="584504" />
	</node>
	<node id="-343257" lat="58.3880527791" lon="6.79851388249">
		<tag k="name" v="Steiemyr" />
		<tag k="natural" v="wetland" />
		<tag k="ssr:stedsnr" v="584491" />
	</node>
	<node id="-341207" lat="58.4219388906" lon="6.6741611066">
		<tag k="name" v="Stemmyr" />
		<tag k="natural" v="wetland" />
		<tag k="ssr:stedsnr" v="888913" />
	</node>
	<node id="-341195" lat="58.4320444399" lon="6.81195277065">
		<tag k="name" v="Vågemyr" />
		<tag k="natural" v="wetland" />
		<tag k="ssr:stedsnr" v="888527" />
	</node>
	<node id="-343242" lat="58.3326305595" lon="6.69680554812">
		<tag k="name" v="Torekjerr" />
		<tag k="natural" v="wetland" />
		<tag k="ssr:stedsnr" v="584214" />
	</node>
	<node id="-343241" lat="58.3258555591" lon="6.65656943609">
		<tag k="name" v="Sandvollen" />
		<tag k="place" v="locality" />
		<tag k="ssr:stedsnr" v="584203" />
	</node>
	<node id="-343237" lat="58.3933361135" lon="6.84069444187">
		<tag k="name" v="Trongja" />
		<tag k="place" v="locality" />
		<tag k="ssr:stedsnr" v="584179" />
	</node>
	<node id="-341187" lat="58.4046527735" lon="6.81080555752">
		<tag k="name" v="Kartmyr" />
		<tag k="natural" v="wetland" />
		<tag k="ssr:stedsnr" v="888455" />
	</node>
	<node id="-343234" lat="58.2618888907" lon="6.62028888207">
		<tag k="name" v="Eigelandsmyra" />
		<tag k="natural" v="wetland" />
		<tag k="ssr:stedsnr" v="588158" />
	</node>
	<node id="-341185" lat="58.4063805539" lon="6.76608333028">
		<tag k="name" v="Storemyr" />
		<tag k="natural" v="wetland" />
		<tag k="ssr:stedsnr" v="888439" />
	</node>
	<node id="-341184" lat="58.4615388865" lon="6.76162222172">
		<tag k="name" v="Mydlandsbakken" />
		<tag k="natural" v="wetland" />
		<tag k="ssr:stedsnr" v="888436" />
	</node>
	<node id="-341165" lat="58.4073472265" lon="6.84136388992">
		<tag k="name" v="Steinkyrkja" />
		<tag k="natural" v="stone" />
		<tag k="ssr:stedsnr" v="888133" />
	</node>
	<node id="-341160" lat="58.4504222215" lon="6.64766111482">
		<tag k="name" v="Litle Stemmen" />
		<tag k="natural" v="wetland" />
		<tag k="ssr:stedsnr" v="892964" />
	</node>
	<node id="-341189" lat="58.4552222187" lon="6.84039721399">
		<tag k="name" v="Lauvhellaren" />
		<tag k="natural" v="stone" />
		<tag k="ssr:stedsnr" v="888475" />
	</node>
	<node id="-343175" lat="58.4008749996" lon="6.70479443604">
		<tag k="name" v="Stormyra" />
		<tag k="natural" v="wetland" />
		<tag k="ssr:stedsnr" v="528939" />
	</node>
	<node id="-341124" lat="58.4554277774" lon="6.62973611502">
		<tag k="name" v="Skotsmyr" />
		<tag k="natural" v="wetland" />
		<tag k="ssr:stedsnr" v="407790" />
	</node>
	<node id="-343169" lat="58.4797916668" lon="6.68187777345">
		<tag k="name" v="Nodura" />
		<tag k="natural" v="scree" />
		<tag k="ssr:stedsnr" v="528903" />
	</node>
	<node id="-341118" lat="58.3269555527" lon="6.81966388608">
		<tag k="name" v="Kjehagen" />
		<tag k="place" v="locality" />
		<tag k="ssr:stedsnr" v="407726" />
	</node>
	<node id="-344255" lat="58.4636444457" lon="6.81073888856">
		<tag k="name" v="Ranebekklunden" />
		<tag k="place" v="locality" />
		<tag k="ssr:stedsnr" v="770372" />
	</node>
	<node id="-341111" lat="58.2970666668" lon="6.73356110504">
		<tag k="name" v="Langemyr" />
		<tag k="natural" v="wetland" />
		<tag k="ssr:stedsnr" v="407672" />
	</node>
	<node id="-341105" lat="58.2639750035" lon="6.57380000146">
		<tag k="name" v="Skiljemyr" />
		<tag k="natural" v="wetland" />
		<tag k="ssr:stedsnr" v="407547" />
	</node>
	<node id="-343152" lat="58.5365194437" lon="6.66389167019">
		<tag k="name" v="Stormyr" />
		<tag k="natural" v="wetland" />
		<tag k="ssr:stedsnr" v="528805" />
	</node>
	<node id="-341097" lat="58.2755499964" lon="6.57444445157">
		<tag k="name" v="Middagssletta" />
		<tag k="natural" v="wetland" />
		<tag k="ssr:stedsnr" v="407495" />
	</node>
	<node id="-341096" lat="58.2729972237" lon="6.55669444679">
		<tag k="name" v="Hellermyr" />
		<tag k="natural" v="wetland" />
		<tag k="ssr:stedsnr" v="407486" />
	</node>
	<node id="-343142" lat="58.4717277788" lon="6.63309166434">
		<tag k="name" v="Sauskarmyr" />
		<tag k="natural" v="wetland" />
		<tag k="ssr:stedsnr" v="528763" />
	</node>
	<node id="-341090" lat="58.2739361148" lon="6.49211110528">
		<tag k="name" v="Sprangelimyr" />
		<tag k="natural" v="wetland" />
		<tag k="ssr:stedsnr" v="407462" />
	</node>
	<node id="-343119" lat="58.5506888873" lon="6.65778333662">
		<tag k="name" v="Storamyra" />
		<tag k="natural" v="wetland" />
		<tag k="ssr:stedsnr" v="528621" />
	</node>
	<node id="-341070" lat="58.362513887" lon="6.73093888827">
		<tag k="landuse" v="meadow" />
		<tag k="name" v="Feda" />
		<tag k="ssr:stedsnr" v="407372" />
	</node>
	<node id="-343116" lat="58.2626444438" lon="6.55269444595">
		<tag k="name" v="Vestemyr" />
		<tag k="natural" v="wetland" />
		<tag k="ssr:stedsnr" v="528546" />
	</node>
	<node id="-343115" lat="58.3372222184" lon="6.5874472189">
		<tag k="name" v="Røyrmyr" />
		<tag k="natural" v="wetland" />
		<tag k="ssr:stedsnr" v="528540" />
	</node>
	<node id="-341057" lat="58.4178527772" lon="6.78109722949">
		<tag k="name" v="Torgrimslåta" />
		<tag k="place" v="locality" />
		<tag k="ssr:stedsnr" v="407293" />
	</node>
	<node id="-341056" lat="58.4135194449" lon="6.7804749984">
		<tag k="name" v="Dugan" />
		<tag k="natural" v="wetland" />
		<tag k="ssr:stedsnr" v="407292" />
	</node>
	<node id="-343092" lat="58.2681333367" lon="6.48009443602">
		<tag k="name" v="Ulveura" />
		<tag k="natural" v="scree" />
		<tag k="ssr:stedsnr" v="528394" />
	</node>
	<node id="-341043" lat="58.2609861087" lon="6.63464722928">
		<tag k="name" v="Flotmyr" />
		<tag k="natural" v="wetland" />
		<tag k="ssr:stedsnr" v="407183" />
	</node>
	<node id="-341035" lat="58.221522218" lon="6.63104444168">
		<tag k="name" v="Stormyra" />
		<tag k="natural" v="wetland" />
		<tag k="ssr:stedsnr" v="407101" />
	</node>
	<node id="-343079" lat="58.2744694421" lon="6.40349165859">
		<tag k="name" v="Torvmyra" />
		<tag k="natural" v="wetland" />
		<tag k="ssr:stedsnr" v="528327" />
	</node>
	<node id="-341030" lat="58.2503527767" lon="6.59914443982">
		<tag k="name" v="Rodemyr" />
		<tag k="natural" v="wetland" />
		<tag k="ssr:stedsnr" v="407057" />
	</node>
	<node id="-341029" lat="58.2542722211" lon="6.6060972162">
		<tag k="name" v="Torvmyra" />
		<tag k="natural" v="wetland" />
		<tag k="ssr:stedsnr" v="407056" />
	</node>
	<node id="-343069" lat="58.3732777739" lon="6.89254721653">
		<tag k="name" v="Vårflormyra" />
		<tag k="natural" v="wetland" />
		<tag k="ssr:stedsnr" v="528233" />
	</node>
	<node id="-341019" lat="58.3984416634" lon="6.66341388994">
		<tag k="name" v="Fenan" />
		<tag k="natural" v="wetland" />
		<tag k="ssr:stedsnr" v="406955" />
	</node>
	<node id="-341018" lat="58.3944277792" lon="6.69304444516">
		<tag k="name" v="Sandlagan" />
		<tag k="natural" v="beach" />
		<tag k="ssr:stedsnr" v="406950" />
		<tag k="surface" v="sand" />
	</node>
	<node id="-341017" lat="58.5310583375" lon="6.68882499984">
		<tag k="name" v="Øykjefloda" />
		<tag k="place" v="locality" />
		<tag k="ssr:stedsnr" v="406885" />
	</node>
	<node id="-343064" lat="58.2638000002" lon="6.63144721382">
		<tag k="name" v="Stakkemyr" />
		<tag k="natural" v="wetland" />
		<tag k="ssr:stedsnr" v="528177" />
	</node>
	<node id="-341014" lat="58.2820416698" lon="6.75377221831">
		<tag k="name" v="Dyngjemyra" />
		<tag k="natural" v="wetland" />
		<tag k="ssr:stedsnr" v="406851" />
	</node>
	<node id="-341849" lat="58.4321972179" lon="6.74426943879">
		<tag k="name" v="Pinsti" />
		<tag k="place" v="locality" />
		<tag k="ssr:stedsnr" v="103414" />
	</node>
	<node id="-343059" lat="58.42180076" lon="6.83668375451">
		<tag k="landuse" v="meadow" />
		<tag k="name" v="Skeidsmonen" />
		<tag k="ssr:stedsnr" v="528159" />
	</node>
	<node id="-343058" lat="58.4081722198" lon="6.85451111432">
		<tag k="name" v="Bjøndalsmyra" />
		<tag k="natural" v="wetland" />
		<tag k="ssr:stedsnr" v="528155" />
	</node>
	<node id="-341006" lat="58.5019305585" lon="6.70466665863">
		<tag k="name" v="Vide myran" />
		<tag k="natural" v="wetland" />
		<tag k="ssr:stedsnr" v="406762" />
	</node>
	<node id="-344237" lat="58.4846583309" lon="6.79480277383">
		<tag k="name" v="Holen" />
		<tag k="natural" v="wetland" />
		<tag k="ssr:stedsnr" v="770030" />
	</node>
	<node id="-341000" lat="58.4857249989" lon="6.83289167497">
		<tag k="name" v="Lunnemyr" />
		<tag k="natural" v="wetland" />
		<tag k="ssr:stedsnr" v="406699" />
	</node>
	<node id="-340998" lat="58.4734777823" lon="6.83797500747">
		<tag k="name" v="Revshola" />
		<tag k="natural" v="wetland" />
		<tag k="ssr:stedsnr" v="406689" />
	</node>
	<node id="-344918" lat="58.2470055583" lon="6.72659722148">
		<tag k="name" v="Hestefjellmyra" />
		<tag k="natural" v="wetland" />
		<tag k="ssr:stedsnr" v="952795" />
	</node>
	<node id="-340994" lat="58.4385916668" lon="6.85741111886">
		<tag k="name" v="Ragnhildskjerran" />
		<tag k="natural" v="wetland" />
		<tag k="ssr:stedsnr" v="406661" />
	</node>
	<node id="-343039" lat="58.2065361075" lon="6.66483333881">
		<tag k="name" v="Grasdalsmyra" />
		<tag k="natural" v="wetland" />
		<tag k="ssr:stedsnr" v="528040" />
	</node>
	<node id="-343034" lat="58.3022638872" lon="6.58694444229">
		<tag k="name" v="Kjellemyr" />
		<tag k="natural" v="wetland" />
		<tag k="ssr:stedsnr" v="528018" />
	</node>
	<node id="-345076" lat="58.4656611102" lon="6.62248333531">
		<tag k="name" v="Sermyr" />
		<tag k="natural" v="wetland" />
		<tag k="ssr:stedsnr" v="953978" />
	</node>
	<node id="-340975" lat="58.2747083302" lon="6.58142777243">
		<tag k="name" v="Røyrmyr" />
		<tag k="natural" v="wetland" />
		<tag k="ssr:stedsnr" v="406548" />
	</node>
	<node id="-345064" lat="58.4969472262" lon="6.65018055753">
		<tag k="name" v="Øvre Stakksmyr" />
		<tag k="natural" v="wetland" />
		<tag k="ssr:stedsnr" v="953917" />
	</node>
	<node id="-345063" lat="58.4819222251" lon="6.63850833808">
		<tag k="name" v="Takholtmyr" />
		<tag k="natural" v="wetland" />
		<tag k="ssr:stedsnr" v="953908" />
	</node>
	<node id="-343014" lat="58.2489555563" lon="6.72841667485">
		<tag k="name" v="Digemyra" />
		<tag k="natural" v="wetland" />
		<tag k="ssr:stedsnr" v="527530" />
	</node>
	<node id="-343013" lat="58.2460222245" lon="6.71781111016">
		<tag k="name" v="Hestefjellmyr" />
		<tag k="natural" v="wetland" />
		<tag k="ssr:stedsnr" v="527528" />
	</node>
	<node id="-343011" lat="58.2487166623" lon="6.58354722283">
		<tag k="name" v="Langemyr" />
		<tag k="natural" v="wetland" />
		<tag k="ssr:stedsnr" v="527520" />
	</node>
	<node id="-343009" lat="58.4628583354" lon="6.74951111648">
		<tag k="name" v="Stora myra" />
		<tag k="natural" v="wetland" />
		<tag k="ssr:stedsnr" v="527499" />
	</node>
	<node id="-343007" lat="58.4571083367" lon="6.76724722183">
		<tag k="name" v="Kjerringpytten" />
		<tag k="natural" v="wetland" />
		<tag k="ssr:stedsnr" v="527407" />
	</node>
	<node id="-340955" lat="58.4775972194" lon="6.75768611922">
		<tag k="name" v="Stolsmyr" />
		<tag k="natural" v="wetland" />
		<tag k="ssr:stedsnr" v="406131" />
	</node>
	<node id="-340954" lat="58.4959972185" lon="6.76599166018">
		<tag k="name" v="Seljordstangen" />
		<tag k="place" v="locality" />
		<tag k="ssr:stedsnr" v="406126" />
	</node>
	<node id="-340951" lat="58.4970861116" lon="6.755816662">
		<tag k="name" v="Bjødnehola" />
		<tag k="place" v="locality" />
		<tag k="ssr:stedsnr" v="406079" />
	</node>
	<node id="-345045" lat="58.5511722179" lon="6.69008054761">
		<tag k="name" v="Slåtta" />
		<tag k="natural" v="wetland" />
		<tag k="ssr:stedsnr" v="953794" />
	</node>
	<node id="-345036" lat="58.4876444475" lon="6.64841389136">
		<tag k="name" v="Rismyr" />
		<tag k="natural" v="wetland" />
		<tag k="ssr:stedsnr" v="953771" />
	</node>
	<node id="-345033" lat="58.3267083334" lon="6.7207638872">
		<tag k="name" v="Nesan" />
		<tag k="place" v="locality" />
		<tag k="ssr:stedsnr" v="953761" />
	</node>
	<node id="-340935" lat="58.305711113" lon="6.67324721716">
		<tag k="name" v="Vollen" />
		<tag k="place" v="locality" />
		<tag k="ssr:stedsnr" v="403223" />
	</node>
	<node id="-340934" lat="58.3106999955" lon="6.65779443637">
		<tag k="name" v="Trollura" />
		<tag k="natural" v="scree" />
		<tag k="ssr:stedsnr" v="403220" />
	</node>
	<node id="-340926" lat="58.4151722247" lon="6.63629165846">
		<tag k="name" v="Kringla" />
		<tag k="place" v="locality" />
		<tag k="ssr:stedsnr" v="402945" />
	</node>
	<node id="-340924" lat="58.3447138929" lon="6.67224721571">
		<tag k="name" v="Myran" />
		<tag k="natural" v="wetland" />
		<tag k="ssr:stedsnr" v="402936" />
	</node>
	<node id="-340922" lat="58.4152750036" lon="6.69682500266">
		<tag k="name" v="Moltemyr" />
		<tag k="natural" v="wetland" />
		<tag k="ssr:stedsnr" v="402929" />
	</node>
	<node id="-340914" lat="58.2901638913" lon="6.72825555714">
		<tag k="name" v="Litleslåta" />
		<tag k="natural" v="wetland" />
		<tag k="ssr:stedsnr" v="402608" />
	</node>
	<node id="-340912" lat="58.4112277748" lon="6.77536111687">
		<tag k="name" v="Stemmen" />
		<tag k="natural" v="wetland" />
		<tag k="ssr:stedsnr" v="402599" />
	</node>
	<node id="-342959" lat="58.3102083309" lon="6.75560555943">
		<tag k="name" v="Bærbakkan" />
		<tag k="place" v="locality" />
		<tag k="ssr:stedsnr" v="523624" />
	</node>
	<node id="-342954" lat="58.3972416712" lon="6.79846944804">
		<tag k="name" v="Huskevollen" />
		<tag k="place" v="locality" />
		<tag k="ssr:stedsnr" v="523511" />
	</node>
	<node id="-344999" lat="58.287888885" lon="6.52601388512">
		<tag k="name" v="Store Myra" />
		<tag k="natural" v="wetland" />
		<tag k="ssr:stedsnr" v="953473" />
	</node>
	<node id="-342950" lat="58.3120722232" lon="6.63651666195">
		<tag k="name" v="Bjønnsbærmyra" />
		<tag k="natural" v="wetland" />
		<tag k="ssr:stedsnr" v="523223" />
	</node>
	<node id="-340900" lat="58.3973916654" lon="6.78515832628">
		<tag k="name" v="Grubbedalsmyra" />
		<tag k="natural" v="wetland" />
		<tag k="ssr:stedsnr" v="402473" />
	</node>
	<node id="-340896" lat="58.3300222207" lon="6.70083888535">
		<tag k="name" v="Raunstiura" />
		<tag k="natural" v="scree" />
		<tag k="ssr:stedsnr" v="402214" />
	</node>
	<node id="-342850" lat="58.4603111099" lon="6.63674445075">
		<tag k="name" v="Sandsmarkbotnan" />
		<tag k="natural" v="wetland" />
		<tag k="ssr:stedsnr" v="467772" />
	</node>
	<node id="-343873" lat="58.342786108" lon="6.6758500037">
		<tag k="name" v="Torvmyra" />
		<tag k="natural" v="wetland" />
		<tag k="ssr:stedsnr" v="705196" />
	</node>
	<node id="-342906" lat="58.2430611151" lon="6.52415555888">
		<tag k="name" v="Urdagrå" />
		<tag k="natural" v="scree" />
		<tag k="ssr:stedsnr" v="483129" />
	</node>
	<node id="-344951" lat="58.3657083314" lon="6.87855833327">
		<tag k="name" v="Skålandsmyr" />
		<tag k="natural" v="wetland" />
		<tag k="ssr:stedsnr" v="953229" />
	</node>
	<node id="-344947" lat="58.2689416654" lon="6.60004999815">
		<tag k="name" v="Melkemyra" />
		<tag k="natural" v="wetland" />
		<tag k="ssr:stedsnr" v="953137" />
	</node>
	<node id="-344938" lat="58.2174249976" lon="6.61685555915">
		<tag k="name" v="Diblemyr" />
		<tag k="natural" v="wetland" />
		<tag k="ssr:stedsnr" v="953079" />
	</node>
	<node id="-342985" lat="58.3218499985" lon="6.61203056003">
		<tag k="name" v="Langemyra" />
		<tag k="natural" v="wetland" />
		<tag k="ssr:stedsnr" v="524886" />
	</node>
	<node id="-344930" lat="58.2075888853" lon="6.61840555997">
		<tag k="name" v="Kolmyra" />
		<tag k="natural" v="wetland" />
		<tag k="ssr:stedsnr" v="953025" />
	</node>
	<node id="-342881" lat="58.557013889" lon="6.63084444688">
		<tag k="name" v="Kvassteinsmyr" />
		<tag k="natural" v="wetland" />
		<tag k="ssr:stedsnr" v="467896" />
	</node>
	<node id="-342880" lat="58.4736805549" lon="6.70925554785">
		<tag k="name" v="Skjønnemyr" />
		<tag k="natural" v="wetland" />
		<tag k="ssr:stedsnr" v="467894" />
	</node>
	<node id="-340828" lat="58.4071000028" lon="6.69771388565">
		<tag k="name" v="Langamyr" />
		<tag k="natural" v="wetland" />
		<tag k="ssr:stedsnr" v="346960" />
	</node>
	<node id="-342875" lat="58.3703222184" lon="6.66416388064">
		<tag k="name" v="Stormyr" />
		<tag k="natural" v="wetland" />
		<tag k="ssr:stedsnr" v="467867" />
	</node>
	<node id="-342872" lat="58.5402222223" lon="6.67839722573">
		<tag k="name" v="Gråmannsmyra" />
		<tag k="natural" v="wetland" />
		<tag k="ssr:stedsnr" v="467858" />
	</node>
	<node id="-342870" lat="58.2929888897" lon="6.71969166475">
		<tag k="name" v="Ytre Uran" />
		<tag k="natural" v="scree" />
		<tag k="ssr:stedsnr" v="467848" />
	</node>
	<node id="-344917" lat="58.4890277771" lon="6.7067555521">
		<tag k="name" v="Moltemyra" />
		<tag k="natural" v="wetland" />
		<tag k="ssr:stedsnr" v="952787" />
	</node>
	<node id="-340819" lat="58.4875249985" lon="6.65085555145">
		<tag k="name" v="Midbu" />
		<tag k="place" v="locality" />
		<tag k="ssr:stedsnr" v="346905" />
	</node>
	<node id="-344914" lat="58.5505027755" lon="6.6498111045">
		<tag k="name" v="Jendalsslåtta" />
		<tag k="natural" v="wetland" />
		<tag k="ssr:stedsnr" v="952776" />
	</node>
	<node id="-340816" lat="58.4781333329" lon="6.6122666699">
		<tag k="name" v="Kjørkja" />
		<tag k="natural" v="stone" />
		<tag k="ssr:stedsnr" v="346889" />
	</node>
	<node id="-340814" lat="58.3718750044" lon="6.70705833258">
		<tag k="name" v="Myra" />
		<tag k="natural" v="wetland" />
		<tag k="ssr:stedsnr" v="346855" />
	</node>
	<node id="-344904" lat="58.4438388891" lon="6.84229166007">
		<tag k="name" v="Høylandsmyra" />
		<tag k="natural" v="wetland" />
		<tag k="ssr:stedsnr" v="952625" />
	</node>
	<node id="-344903" lat="58.4589888903" lon="6.83849999284">
		<tag k="name" v="Stimyran" />
		<tag k="natural" v="wetland" />
		<tag k="ssr:stedsnr" v="952614" />
	</node>
	<node id="-342852" lat="58.5143972225" lon="6.65793610722">
		<tag k="name" v="Stora Myra" />
		<tag k="natural" v="wetland" />
		<tag k="ssr:stedsnr" v="467774" />
	</node>
	<node id="-340802" lat="58.4119472218" lon="6.69339721908">
		<tag k="name" v="Stora Ura" />
		<tag k="natural" v="scree" />
		<tag k="ssr:stedsnr" v="346797" />
	</node>
	<node id="-342843" lat="58.3392499958" lon="6.71368332725">
		<tag k="name" v="Bråtan" />
		<tag k="place" v="locality" />
		<tag k="ssr:stedsnr" v="467754" />
	</node>
	<node id="-340794" lat="58.3392444415" lon="6.71705833051">
		<tag k="name" v="Storbakkan" />
		<tag k="place" v="locality" />
		<tag k="ssr:stedsnr" v="346756" />
	</node>
	<node id="-344888" lat="58.454127777" lon="6.79886111225">
		<tag k="name" v="Skiljingsmyran" />
		<tag k="natural" v="wetland" />
		<tag k="ssr:stedsnr" v="952408" />
	</node>
	<node id="-344887" lat="58.4709222223" lon="6.8019638848">
		<tag k="name" v="Diblemyr" />
		<tag k="natural" v="wetland" />
		<tag k="ssr:stedsnr" v="952409" />
	</node>
	<node id="-344885" lat="58.3757055596" lon="6.88943055589">
		<tag k="name" v="Klymre" />
		<tag k="natural" v="scree" />
		<tag k="ssr:stedsnr" v="952243" />
	</node>
	<node id="-344883" lat="58.3819833288" lon="6.88936943824">
		<tag k="name" v="Hommekyrkja" />
		<tag k="natural" v="stone" />
		<tag k="ssr:stedsnr" v="952234" />
	</node>
	<node id="-344882" lat="58.4873138883" lon="6.71861110318">
		<tag k="name" v="Steinstova" />
		<tag k="natural" v="stone" />
		<tag k="ssr:stedsnr" v="952153" />
	</node>
	<node id="-344880" lat="58.4954555585" lon="6.80499721505">
		<tag k="name" v="Tangan" />
		<tag k="natural" v="wetland" />
		<tag k="ssr:stedsnr" v="952149" />
	</node>
	<node id="-344878" lat="58.4812916686" lon="6.74795277625">
		<tag k="name" v="Jengstimyra" />
		<tag k="natural" v="wetland" />
		<tag k="ssr:stedsnr" v="952138" />
	</node>
	<node id="-344876" lat="58.5022944459" lon="6.7738694378">
		<tag k="name" v="Rydlen" />
		<tag k="place" v="locality" />
		<tag k="ssr:stedsnr" v="952119" />
	</node>
	<node id="-344873" lat="58.4846333309" lon="6.78535556234">
		<tag k="landuse" v="meadow" />
		<tag k="name" v="Monan" />
		<tag k="ssr:stedsnr" v="952053" />
	</node>
	<node id="-342824" lat="58.3326722227" lon="6.85490000253">
		<tag k="name" v="Trettemyr" />
		<tag k="natural" v="wetland" />
		<tag k="ssr:stedsnr" v="467682" />
	</node>
	<node id="-340773" lat="58.3793527798" lon="6.73361389397">
		<tag k="name" v="Porsmyra" />
		<tag k="natural" v="wetland" />
		<tag k="ssr:stedsnr" v="346649" />
	</node>
	<node id="-340784" lat="58.3666249976" lon="6.72630278093">
		<tag k="name" v="Lintona" />
		<tag k="natural" v="wetland" />
		<tag k="ssr:stedsnr" v="346706" />
	</node>
	<node id="-340765" lat="58.5425500022" lon="6.68853611024">
		<tag k="name" v="Blaude myra" />
		<tag k="natural" v="wetland" />
		<tag k="ssr:stedsnr" v="346617" />
	</node>
	<node id="-340762" lat="58.2624027742" lon="6.55082221858">
		<tag k="name" v="Vimyr" />
		<tag k="natural" v="wetland" />
		<tag k="ssr:stedsnr" v="346536" />
	</node>
	<node id="-340761" lat="58.3273500041" lon="6.59024999284">
		<tag k="name" v="Stølsmyra" />
		<tag k="natural" v="wetland" />
		<tag k="ssr:stedsnr" v="346520" />
	</node>
	<node id="-344854" lat="58.3848972266" lon="6.70448611527">
		<tag k="name" v="Langemyr" />
		<tag k="natural" v="wetland" />
		<tag k="ssr:stedsnr" v="949856" />
	</node>
	<node id="-341891" lat="58.4548416657" lon="6.85891111077">
		<tag k="name" v="Kjerran" />
		<tag k="natural" v="wetland" />
		<tag k="ssr:stedsnr" v="103648" />
	</node>
	<node id="-342795" lat="58.2502527755" lon="6.75040277866">
		<tag k="name" v="Slåten" />
		<tag k="natural" v="wetland" />
		<tag k="ssr:stedsnr" v="467546" />
	</node>
	<node id="-342793" lat="58.254255552" lon="6.73716666141">
		<tag k="name" v="Skillingmyra" />
		<tag k="natural" v="wetland" />
		<tag k="ssr:stedsnr" v="467541" />
	</node>
	<node id="-340741" lat="58.3598722252" lon="6.79980000502">
		<tag k="name" v="Lindemyra" />
		<tag k="natural" v="wetland" />
		<tag k="ssr:stedsnr" v="346392" />
	</node>
	<node id="-344836" lat="58.3733416709" lon="6.83545278511">
		<tag k="name" v="Vestre Kilan" />
		<tag k="natural" v="wetland" />
		<tag k="ssr:stedsnr" v="948584" />
	</node>
	<node id="-344891" lat="58.4406000019" lon="6.75365555606">
		<tag k="name" v="Kleivmyr" />
		<tag k="natural" v="wetland" />
		<tag k="ssr:stedsnr" v="952449" />
	</node>
	<node id="-342780" lat="58.4020916695" lon="6.73721111942">
		<tag k="name" v="Stora myra" />
		<tag k="natural" v="wetland" />
		<tag k="ssr:stedsnr" v="467486" />
	</node>
	<node id="-342775" lat="58.2920666631" lon="6.5234666648">
		<tag k="name" v="Errekjerr" />
		<tag k="natural" v="wetland" />
		<tag k="ssr:stedsnr" v="467470" />
	</node>
	<node id="-340725" lat="58.3889944479" lon="6.75597500191">
		<tag k="name" v="Dyrdalsmyra" />
		<tag k="natural" v="wetland" />
		<tag k="ssr:stedsnr" v="346320" />
	</node>
	<node id="-342770" lat="58.4347361118" lon="6.78013888706">
		<tag k="name" v="Ingridshylen" />
		<tag k="natural" v="wetland" />
		<tag k="ssr:stedsnr" v="467431" />
	</node>
	<node id="-340776" lat="58.3416611122" lon="6.83041666629">
		<tag k="name" v="Surtemyr" />
		<tag k="natural" v="wetland" />
		<tag k="ssr:stedsnr" v="346677" />
	</node>
	<node id="-342766" lat="58.233313886" lon="6.59382778307">
		<tag k="name" v="Bjønnsemyra" />
		<tag k="natural" v="wetland" />
		<tag k="ssr:stedsnr" v="467411" />
	</node>
	<node id="-340716" lat="58.4238777775" lon="6.78009167306">
		<tag k="name" v="Kringlemyrstøa" />
		<tag k="natural" v="wetland" />
		<tag k="ssr:stedsnr" v="346287" />
	</node>
	<node id="-340713" lat="58.4152944428" lon="6.77376666782">
		<tag k="name" v="Skodemyr" />
		<tag k="natural" v="wetland" />
		<tag k="ssr:stedsnr" v="346263" />
	</node>
	<node id="-342758" lat="58.2580944483" lon="6.53784722049">
		<tag k="name" v="Indre Botna" />
		<tag k="natural" v="wetland" />
		<tag k="ssr:stedsnr" v="467382" />
	</node>
	<node id="-342753" lat="58.2515555567" lon="6.58363888899">
		<tag k="name" v="Tverrdalsmyr" />
		<tag k="natural" v="wetland" />
		<tag k="ssr:stedsnr" v="467368" />
	</node>
	<node id="-340702" lat="58.2782694484" lon="6.69273889116">
		<tag k="name" v="Fuglemyr" />
		<tag k="natural" v="wetland" />
		<tag k="ssr:stedsnr" v="346150" />
	</node>
	<node id="-340698" lat="58.2708527818" lon="6.59957222852">
		<tag k="name" v="Store Myra" />
		<tag k="natural" v="wetland" />
		<tag k="ssr:stedsnr" v="346128" />
	</node>
	<node id="-342744" lat="58.4201111079" lon="6.8001944364">
		<tag k="name" v="Storemyr" />
		<tag k="natural" v="wetland" />
		<tag k="ssr:stedsnr" v="467322" />
	</node>
	<node id="-342742" lat="58.4068722177" lon="6.75841110709">
		<tag k="name" v="Vollen" />
		<tag k="natural" v="wetland" />
		<tag k="ssr:stedsnr" v="467313" />
	</node>
	<node id="-340692" lat="58.2911944461" lon="6.64646111615">
		<tag k="name" v="Brattastykket" />
		<tag k="place" v="locality" />
		<tag k="ssr:stedsnr" v="346105" />
	</node>
	<node id="-340689" lat="58.2165111084" lon="6.60528055178">
		<tag k="name" v="Tjødnemyra" />
		<tag k="natural" v="wetland" />
		<tag k="ssr:stedsnr" v="346070" />
	</node>
	<node id="-340687" lat="58.2563750008" lon="6.62746665872">
		<tag k="name" v="Kjørslemyr" />
		<tag k="natural" v="wetland" />
		<tag k="ssr:stedsnr" v="346035" />
	</node>
	<node id="-342734" lat="58.4174138858" lon="6.79041110803">
		<tag k="name" v="Langemyr" />
		<tag k="natural" v="wetland" />
		<tag k="ssr:stedsnr" v="467271" />
	</node>
	<node id="-340675" lat="58.2716777748" lon="6.7140055474">
		<tag k="name" v="Dibla" />
		<tag k="natural" v="wetland" />
		<tag k="ssr:stedsnr" v="345825" />
	</node>
	<node id="-342719" lat="58.4143801357" lon="6.86616851927">
		<tag k="name" v="Bjørkholtmyra" />
		<tag k="natural" v="wetland" />
		<tag k="ssr:stedsnr" v="467145" />
	</node>
	<node id="-342716" lat="58.273077775" lon="6.60402221889">
		<tag k="name" v="Piggsteinen" />
		<tag k="natural" v="stone" />
		<tag k="ssr:stedsnr" v="467132" />
	</node>
	<node id="-340667" lat="58.5142944461" lon="6.64039443607">
		<tag k="name" v="Søyran" />
		<tag k="natural" v="wetland" />
		<tag k="ssr:stedsnr" v="345761" />
	</node>
	<node id="-342714" lat="58.2831611144" lon="6.69236666219">
		<tag k="name" v="Skiftingsmyra" />
		<tag k="natural" v="wetland" />
		<tag k="ssr:stedsnr" v="467124" />
	</node>
	<node id="-340665" lat="58.5010277779" lon="6.65774167026">
		<tag k="name" v="Floran" />
		<tag k="place" v="locality" />
		<tag k="ssr:stedsnr" v="345746" />
	</node>
	<node id="-340663" lat="58.3295472257" lon="6.71771666067">
		<tag k="landuse" v="meadow" />
		<tag k="name" v="Storevoll" />
		<tag k="ssr:stedsnr" v="345732" />
	</node>
	<node id="-340659" lat="58.5212777756" lon="6.61513888575">
		<tag k="name" v="Uran" />
		<tag k="natural" v="scree" />
		<tag k="ssr:stedsnr" v="345708" />
	</node>
	<node id="-342706" lat="58.2942555539" lon="6.59814722443">
		<tag k="name" v="Trøen" />
		<tag k="natural" v="wetland" />
		<tag k="ssr:stedsnr" v="467095" />
	</node>
	<node id="-342703" lat="58.4999055543" lon="6.73231944344">
		<tag k="name" v="Birkelandshommen" />
		<tag k="place" v="locality" />
		<tag k="ssr:stedsnr" v="467084" />
	</node>
	<node id="-340654" lat="58.4928749981" lon="6.86088056221">
		<tag k="name" v="Indre Diblemyr" />
		<tag k="natural" v="wetland" />
		<tag k="ssr:stedsnr" v="345670" />
	</node>
	<node id="-340652" lat="58.4441694476" lon="6.85488610858">
		<tag k="name" v="Stean" />
		<tag k="natural" v="wetland" />
		<tag k="ssr:stedsnr" v="345647" />
	</node>
	<node id="-340650" lat="58.468783331" lon="6.82999721436">
		<tag k="name" v="Myran" />
		<tag k="natural" v="wetland" />
		<tag k="ssr:stedsnr" v="345627" />
	</node>
	<node id="-341447" lat="58.3874611128" lon="6.89011110544">
		<tag k="name" v="Ovaldsteinen" />
		<tag k="natural" v="stone" />
		<tag k="ssr:stedsnr" v="415" />
	</node>
	<node id="-342694" lat="58.4891694461" lon="6.78374722982">
		<tag k="name" v="Smieura" />
		<tag k="natural" v="scree" />
		<tag k="ssr:stedsnr" v="467050" />
	</node>
	<node id="-342693" lat="58.2534555517" lon="6.63453056228">
		<tag k="name" v="Bulæga" />
		<tag k="natural" v="wetland" />
		<tag k="ssr:stedsnr" v="467049" />
	</node>
	<node id="-342690" lat="58.2100861085" lon="6.60817778299">
		<tag k="name" v="Diblemyra" />
		<tag k="natural" v="wetland" />
		<tag k="ssr:stedsnr" v="467021" />
	</node>
	<node id="-344728" lat="58.4617527796" lon="6.66066110877">
		<tag k="name" v="Høstbreislåta" />
		<tag k="place" v="locality" />
		<tag k="ssr:stedsnr" v="832994" />
	</node>
	<node id="-342677" lat="58.4303166698" lon="6.62492778451">
		<tag k="name" v="Loggmyra" />
		<tag k="natural" v="wetland" />
		<tag k="ssr:stedsnr" v="463947" />
	</node>
	<node id="-342676" lat="58.4271194443" lon="6.62930554828">
		<tag k="name" v="Bronnemyra" />
		<tag k="natural" v="wetland" />
		<tag k="ssr:stedsnr" v="463945" />
	</node>
	<node id="-342673" lat="58.3162722261" lon="6.63287777589">
		<tag k="name" v="Trettingsmyran" />
		<tag k="natural" v="wetland" />
		<tag k="ssr:stedsnr" v="463901" />
	</node>
	<node id="-344720" lat="58.5061722233" lon="6.63294999965">
		<tag k="name" v="Børenstølen" />
		<tag k="natural" v="wetland" />
		<tag k="ssr:stedsnr" v="832921" />
	</node>
	<node id="-344718" lat="58.4975638892" lon="6.65747221887">
		<tag k="name" v="Nedre Stakksmyr" />
		<tag k="natural" v="wetland" />
		<tag k="ssr:stedsnr" v="832902" />
	</node>
	<node id="-342669" lat="58.399499998" lon="6.85565833779">
		<tag k="name" v="Diblemyran" />
		<tag k="natural" v="wetland" />
		<tag k="ssr:stedsnr" v="463612" />
	</node>
	<node id="-342667" lat="58.29210833" lon="6.75808333052">
		<tag k="name" v="Hestemyr" />
		<tag k="natural" v="wetland" />
		<tag k="ssr:stedsnr" v="463561" />
	</node>
	<node id="-340611" lat="58.4805749969" lon="6.77830556299">
		<tag k="name" v="Hestheistølen" />
		<tag k="place" v="locality" />
		<tag k="ssr:stedsnr" v="345040" />
	</node>
	<node id="-340609" lat="58.4780333312" lon="6.79697500275">
		<tag k="name" v="Drittsteinen" />
		<tag k="natural" v="stone" />
		<tag k="ssr:stedsnr" v="345005" />
	</node>
	<node id="-342656" lat="58.4587388925" lon="6.73497500064">
		<tag k="name" v="Sølfermyra" />
		<tag k="natural" v="wetland" />
		<tag k="ssr:stedsnr" v="463447" />
	</node>
	<node id="-342655" lat="58.4080805583" lon="6.78874166553">
		<tag k="name" v="Trollemyra" />
		<tag k="natural" v="wetland" />
		<tag k="ssr:stedsnr" v="463439" />
	</node>
	<node id="-344699" lat="58.4628972222" lon="6.62228333664">
		<tag k="name" v="Øvre Krossen" />
		<tag k="natural" v="wetland" />
		<tag k="ssr:stedsnr" v="832769" />
	</node>
	<node id="-344693" lat="58.3361388867" lon="6.72075277446">
		<tag k="name" v="Lundan" />
		<tag k="place" v="locality" />
		<tag k="ssr:stedsnr" v="832747" />
	</node>
	<node id="-340595" lat="58.2985250002" lon="6.48279166133">
		<tag k="name" v="Langemyr" />
		<tag k="natural" v="wetland" />
		<tag k="ssr:stedsnr" v="342234" />
	</node>
	<node id="-342637" lat="58.3314888866" lon="6.65728611258">
		<tag k="name" v="Stormyra" />
		<tag k="natural" v="wetland" />
		<tag k="ssr:stedsnr" v="463176" />
	</node>
	<node id="-344684" lat="58.3789722246" lon="6.73576388265">
		<tag k="name" v="Myra" />
		<tag k="natural" v="wetland" />
		<tag k="ssr:stedsnr" v="832668" />
	</node>
	<node id="-340583" lat="58.4984861102" lon="6.75367221702">
		<tag k="name" v="Lian" />
		<tag k="place" v="locality" />
		<tag k="ssr:stedsnr" v="341625" />
	</node>
	<node id="-340582" lat="58.4752777801" lon="6.71993611072">
		<tag k="name" v="Lian" />
		<tag k="natural" v="wetland" />
		<tag k="ssr:stedsnr" v="341622" />
	</node>
	<node id="-340578" lat="58.4686833294" lon="6.75746944787">
		<tag k="name" v="Gards Budal" />
		<tag k="natural" v="wetland" />
		<tag k="ssr:stedsnr" v="341521" />
	</node>
	<node id="-344665" lat="58.3982388851" lon="6.71076111813">
		<tag k="name" v="Sølvgrova" />
		<tag k="natural" v="wetland" />
		<tag k="ssr:stedsnr" v="832494" />
	</node>
	<node id="-344663" lat="58.269000003" lon="6.5798722148">
		<tag k="name" v="Litle Flåmyr" />
		<tag k="natural" v="wetland" />
		<tag k="ssr:stedsnr" v="832483" />
	</node>
	<node id="-344662" lat="58.2703777771" lon="6.5777944371">
		<tag k="name" v="Store Flåmyr" />
		<tag k="natural" v="wetland" />
		<tag k="ssr:stedsnr" v="832477" />
	</node>
	<node id="-344658" lat="58.2311138899" lon="6.53377778209">
		<tag k="name" v="Manshaus" />
		<tag k="place" v="locality" />
		<tag k="ssr:stedsnr" v="832452" />
	</node>
	<node id="-340408" lat="58.2784472224" lon="6.56806388385">
		<tag k="name" v="Trolldalsmyr" />
		<tag k="natural" v="wetland" />
		<tag k="ssr:stedsnr" v="285457" />
	</node>
	<node id="-344650" lat="58.3558361129" lon="6.80916667479">
		<tag k="name" v="Kjerran" />
		<tag k="place" v="locality" />
		<tag k="ssr:stedsnr" v="832414" />
	</node>
	<node id="-344503" lat="58.388952777" lon="6.76965555434">
		<tag k="name" v="Veremyra" />
		<tag k="natural" v="wetland" />
		<tag k="ssr:stedsnr" v="827492" />
	</node>
	<node id="-344634" lat="58.4083305524" lon="6.8068861039">
		<tag k="name" v="Pyttemyr" />
		<tag k="natural" v="wetland" />
		<tag k="ssr:stedsnr" v="832355" />
	</node>
	<node id="-344625" lat="58.40957222" lon="6.77145833814">
		<tag k="name" v="Torvmyra" />
		<tag k="natural" v="wetland" />
		<tag k="ssr:stedsnr" v="832289" />
	</node>
	<node id="-340527" lat="58.3036944445" lon="6.64449166307">
		<tag k="landuse" v="meadow" />
		<tag k="name" v="Jordet" />
		<tag k="ssr:stedsnr" v="301267" />
	</node>
	<node id="-344619" lat="58.345186111" lon="6.82513055953">
		<tag k="name" v="Skjeremyra" />
		<tag k="natural" v="wetland" />
		<tag k="ssr:stedsnr" v="832245" />
	</node>
	<node id="-340518" lat="58.3722083297" lon="6.64747778623">
		<tag k="name" v="Nonskarmyra" />
		<tag k="natural" v="wetland" />
		<tag k="ssr:stedsnr" v="286894" />
	</node>
	<node id="-343588" lat="58.4257055533" lon="6.68987500538">
		<tag k="name" v="Varpemyran" />
		<tag k="natural" v="wetland" />
		<tag k="ssr:stedsnr" v="645913" />
	</node>
	<node id="-340514" lat="58.3090805598" lon="6.75780000067">
		<tag k="name" v="Krossbakkan" />
		<tag k="place" v="locality" />
		<tag k="ssr:stedsnr" v="286747" />
	</node>
	<node id="-344837" lat="58.3589083317" lon="6.87573611306">
		<tag k="name" v="Skaren" />
		<tag k="place" v="locality" />
		<tag k="ssr:stedsnr" v="948589" />
	</node>
	<node id="-340504" lat="58.3619111071" lon="6.73405555772">
		<tag k="landuse" v="meadow" />
		<tag k="name" v="Myra" />
		<tag k="ssr:stedsnr" v="286346" />
	</node>
	<node id="-340500" lat="58.369183337" lon="6.88621388034">
		<tag k="name" v="Nordre Myra" />
		<tag k="natural" v="wetland" />
		<tag k="ssr:stedsnr" v="286211" />
	</node>
	<node id="-340499" lat="58.4211999962" lon="6.84188055392">
		<tag k="landuse" v="meadow" />
		<tag k="name" v="Lunden" />
		<tag k="ssr:stedsnr" v="286153" />
	</node>
	<node id="-340497" lat="58.4109700503" lon="6.83747301084">
		<tag k="landuse" v="meadow" />
		<tag k="name" v="Trettenes" />
		<tag k="ssr:stedsnr" v="286147" />
	</node>
	<node id="-340494" lat="58.4579277779" lon="6.62622222352">
		<tag k="name" v="Raunekleivmyr" />
		<tag k="natural" v="wetland" />
		<tag k="ssr:stedsnr" v="285988" />
	</node>
	<node id="-340491" lat="58.4373222225" lon="6.62415000755">
		<tag k="name" v="Espelimyra" />
		<tag k="natural" v="wetland" />
		<tag k="ssr:stedsnr" v="285976" />
	</node>
	<node id="-344583" lat="58.3398972242" lon="6.89434721361">
		<tag k="name" v="Lunnane" />
		<tag k="place" v="locality" />
		<tag k="ssr:stedsnr" v="831765" />
	</node>
	<node id="-341761" lat="58.2877083346" lon="6.44799721763">
		<tag k="name" v="Torvmyra" />
		<tag k="natural" v="wetland" />
		<tag k="ssr:stedsnr" v="99311" />
	</node>
	<node id="-342525" lat="58.4720694422" lon="6.69437221638">
		<tag k="name" v="Ørnemyr" />
		<tag k="natural" v="wetland" />
		<tag k="ssr:stedsnr" v="226000" />
	</node>
	<node id="-342522" lat="58.4582805561" lon="6.7048888865">
		<tag k="name" v="Hjertamyr" />
		<tag k="natural" v="wetland" />
		<tag k="ssr:stedsnr" v="225993" />
	</node>
	<node id="-340473" lat="58.5292388849" lon="6.67171389651">
		<tag k="name" v="Store myra" />
		<tag k="natural" v="wetland" />
		<tag k="ssr:stedsnr" v="285858" />
	</node>
	<node id="-342518" lat="58.399886111" lon="6.6747138871">
		<tag k="name" v="Stora myra" />
		<tag k="natural" v="wetland" />
		<tag k="ssr:stedsnr" v="225939" />
	</node>
	<node id="-340469" lat="58.4862638845" lon="6.66274721936">
		<tag k="name" v="Hapte" />
		<tag k="natural" v="wetland" />
		<tag k="ssr:stedsnr" v="285805" />
	</node>
	<node id="-340462" lat="58.5025305536" lon="6.64022778611">
		<tag k="name" v="Snoremyr" />
		<tag k="natural" v="wetland" />
		<tag k="ssr:stedsnr" v="285767" />
	</node>
	<node id="-342509" lat="58.4769638911" lon="6.70882499982">
		<tag k="name" v="Velholet" />
		<tag k="natural" v="wetland" />
		<tag k="ssr:stedsnr" v="225866" />
	</node>
	<node id="-344554" lat="58.3679361103" lon="6.90455277813">
		<tag k="name" v="Vonda fænet" />
		<tag k="natural" v="wetland" />
		<tag k="ssr:stedsnr" v="831208" />
	</node>
	<node id="-340455" lat="58.4827805564" lon="6.62732221859">
		<tag k="name" v="Ulskarmyran" />
		<tag k="natural" v="wetland" />
		<tag k="ssr:stedsnr" v="285740" />
	</node>
	<node id="-344550" lat="58.3826583314" lon="6.82649444037">
		<tag k="name" v="Baujordet" />
		<tag k="place" v="locality" />
		<tag k="ssr:stedsnr" v="831043" />
	</node>
	<node id="-344549" lat="58.4759944427" lon="6.78904167388">
		<tag k="name" v="Myran" />
		<tag k="natural" v="wetland" />
		<tag k="ssr:stedsnr" v="831040" />
	</node>
	<node id="-344546" lat="58.4783916683" lon="6.72510833661">
		<tag k="name" v="Kringlemyr" />
		<tag k="natural" v="wetland" />
		<tag k="ssr:stedsnr" v="831021" />
	</node>
	<node id="-342496" lat="58.303161112" lon="6.73356667482">
		<tag k="landuse" v="meadow" />
		<tag k="name" v="Skeia" />
		<tag k="ssr:stedsnr" v="225732" />
	</node>
	<node id="-340446" lat="58.5232249998" lon="6.65072222065">
		<tag k="name" v="Fuglemyr" />
		<tag k="natural" v="wetland" />
		<tag k="ssr:stedsnr" v="285696" />
	</node>
	<node id="-340445" lat="58.5344194429" lon="6.61478333873">
		<tag k="name" v="Einarvannsmyran" />
		<tag k="natural" v="wetland" />
		<tag k="ssr:stedsnr" v="285689" />
	</node>
	<node id="-340442" lat="58.4991055534" lon="6.84821667105">
		<tag k="name" v="Håversmyrå" />
		<tag k="natural" v="wetland" />
		<tag k="ssr:stedsnr" v="285660" />
	</node>
	<node id="-340438" lat="58.5496805516" lon="6.68833611125">
		<tag k="name" v="Kringlemyr" />
		<tag k="natural" v="wetland" />
		<tag k="ssr:stedsnr" v="285616" />
	</node>
	<node id="-342482" lat="58.3054916699" lon="6.52833888315">
		<tag k="name" v="Slåtemyr" />
		<tag k="natural" v="wetland" />
		<tag k="ssr:stedsnr" v="225509" />
	</node>
	<node id="-340432" lat="58.2650805526" lon="6.63039443856">
		<tag k="name" v="Hønsestimyr" />
		<tag k="natural" v="wetland" />
		<tag k="ssr:stedsnr" v="285592" />
	</node>
	<node id="-342479" lat="58.2717000011" lon="6.57536111793">
		<tag k="name" v="Mørkedalsmyra" />
		<tag k="natural" v="wetland" />
		<tag k="ssr:stedsnr" v="225485" />
	</node>
	<node id="-344515" lat="58.3814916644" lon="6.68964167039">
		<tag k="name" v="Hestet" />
		<tag k="place" v="locality" />
		<tag k="ssr:stedsnr" v="827901" />
	</node>
	<node id="-344511" lat="58.3414944416" lon="6.89148610914">
		<tag k="name" v="Litla Kartemyra" />
		<tag k="natural" v="wetland" />
		<tag k="ssr:stedsnr" v="827614" />
	</node>
	<node id="-344507" lat="58.2633361123" lon="6.74290277509">
		<tag k="name" v="Surtemyr" />
		<tag k="natural" v="wetland" />
		<tag k="ssr:stedsnr" v="827591" />
	</node>
	<node id="-344505" lat="58.4017444431" lon="6.78203610297">
		<tag k="name" v="Dibelen" />
		<tag k="natural" v="wetland" />
		<tag k="ssr:stedsnr" v="827523" />
	</node>
	<node id="-342456" lat="58.2755222193" lon="6.39456944036">
		<tag k="name" v="Torvmyra" />
		<tag k="natural" v="wetland" />
		<tag k="ssr:stedsnr" v="225336" />
	</node>
	<node id="-342455" lat="58.4256305597" lon="6.80961666057">
		<tag k="name" v="Langemyr" />
		<tag k="natural" v="wetland" />
		<tag k="ssr:stedsnr" v="225325" />
	</node>
	<node id="-344497" lat="58.3260444431" lon="6.68590277958">
		<tag k="name" v="Bjørntjødnmyr" />
		<tag k="natural" v="wetland" />
		<tag k="ssr:stedsnr" v="827206" />
	</node>
	<node id="-342445" lat="58.3674722229" lon="6.88960554922">
		<tag k="name" v="Espelimyra" />
		<tag k="natural" v="wetland" />
		<tag k="ssr:stedsnr" v="225226" />
	</node>
	<node id="-340395" lat="58.2274500017" lon="6.51014722724">
		<tag k="name" v="Storamyra" />
		<tag k="natural" v="wetland" />
		<tag k="ssr:stedsnr" v="285405" />
	</node>
	<node id="-342442" lat="58.4120140469" lon="6.83255087056">
		<tag k="name" v="Hegglandsmyra" />
		<tag k="natural" v="wetland" />
		<tag k="ssr:stedsnr" v="225204" />
	</node>
	<node id="-342438" lat="58.4264227668" lon="6.85819317815">
		<tag k="name" v="Krogstemyra" />
		<tag k="natural" v="wetland" />
		<tag k="ssr:stedsnr" v="225188" />
	</node>
	<node id="-340387" lat="58.2521638871" lon="6.54539999526">
		<tag k="name" v="Kjellemyr" />
		<tag k="natural" v="wetland" />
		<tag k="ssr:stedsnr" v="285353" />
	</node>
	<node id="-342432" lat="58.4099583005" lon="6.840046604">
		<tag k="landuse" v="meadow" />
		<tag k="name" v="Stigenes" />
		<tag k="ssr:stedsnr" v="225154" />
	</node>
	<node id="-342422" lat="58.2455999984" lon="6.65068889505">
		<tag k="name" v="Tuemyr" />
		<tag k="natural" v="wetland" />
		<tag k="ssr:stedsnr" v="225075" />
	</node>
	<node id="-342421" lat="58.2527277794" lon="6.60817777136">
		<tag k="name" v="Røyseland" />
		<tag k="place" v="locality" />
		<tag k="ssr:stedsnr" v="225066" />
	</node>
	<node id="-340367" lat="58.272700002" lon="6.61088889112">
		<tag k="name" v="Kallandsholet" />
		<tag k="natural" v="wetland" />
		<tag k="ssr:stedsnr" v="285149" />
	</node>
	<node id="-340364" lat="58.4946499976" lon="6.78226389682">
		<tag k="name" v="Knutemyrane" />
		<tag k="natural" v="wetland" />
		<tag k="ssr:stedsnr" v="285139" />
	</node>
	<node id="-340353" lat="58.246830553" lon="6.59901111869">
		<tag k="name" v="Store Stimyr" />
		<tag k="natural" v="wetland" />
		<tag k="ssr:stedsnr" v="285053" />
	</node>
	<node id="-340352" lat="58.4832805524" lon="6.77079999601">
		<tag k="name" v="Porsmyran" />
		<tag k="natural" v="wetland" />
		<tag k="ssr:stedsnr" v="285046" />
	</node>
	<node id="-342398" lat="58.2757888918" lon="6.40354445094">
		<tag k="name" v="Myran" />
		<tag k="natural" v="wetland" />
		<tag k="ssr:stedsnr" v="224724" />
	</node>
	<node id="-340373" lat="58.3271361117" lon="6.620933332">
		<tag k="name" v="Nordvannsmyra" />
		<tag k="natural" v="wetland" />
		<tag k="ssr:stedsnr" v="285201" />
	</node>
	<node id="-340347" lat="58.4837777748" lon="6.75740277901">
		<tag k="name" v="Rydlandskogen" />
		<tag k="place" v="locality" />
		<tag k="ssr:stedsnr" v="285012" />
	</node>
	<node id="-340346" lat="58.4774249968" lon="6.72128611843">
		<tag k="name" v="Hapte" />
		<tag k="place" v="locality" />
		<tag k="ssr:stedsnr" v="285009" />
	</node>
	<node id="-342391" lat="58.4765055563" lon="6.82226666614">
		<tag k="name" v="Mordelimyr" />
		<tag k="natural" v="wetland" />
		<tag k="ssr:stedsnr" v="224674" />
	</node>
	<node id="-340340" lat="58.3769611085" lon="6.90764167461">
		<tag k="name" v="Øygarden" />
		<tag k="place" v="locality" />
		<tag k="ssr:stedsnr" v="285225" />
	</node>
	<node id="-344428" lat="58.5104805527" lon="6.66563056321">
		<tag k="name" v="Timrehola" />
		<tag k="natural" v="wetland" />
		<tag k="ssr:stedsnr" v="771924" />
	</node>
	<node id="-344426" lat="58.4868527821" lon="6.69613611217">
		<tag k="name" v="Torvmyr" />
		<tag k="natural" v="wetland" />
		<tag k="ssr:stedsnr" v="771902" />
	</node>
	<node id="-344425" lat="58.4741944433" lon="6.65888333213">
		<tag k="name" v="Slåtemyr" />
		<tag k="natural" v="wetland" />
		<tag k="ssr:stedsnr" v="771900" />
	</node>
	<node id="-344420" lat="58.479122221" lon="6.70342499173">
		<tag k="name" v="Tornesteinan" />
		<tag k="natural" v="stone" />
		<tag k="ssr:stedsnr" v="771890" />
	</node>
	<node id="-342371" lat="58.2642888925" lon="6.58534444834">
		<tag k="name" v="Lagden" />
		<tag k="natural" v="wetland" />
		<tag k="ssr:stedsnr" v="224510" />
	</node>
	<node id="-342369" lat="58.2994416657" lon="6.53412499365">
		<tag k="name" v="Moltemyra" />
		<tag k="natural" v="wetland" />
		<tag k="ssr:stedsnr" v="224504" />
	</node>
	<node id="-340319" lat="58.3899416687" lon="6.77653610557">
		<tag k="name" v="Uran" />
		<tag k="natural" v="scree" />
		<tag k="ssr:stedsnr" v="281506" />
	</node>
	<node id="-342361" lat="58.4680444426" lon="6.72816667067">
		<tag k="name" v="Jore" />
		<tag k="place" v="locality" />
		<tag k="ssr:stedsnr" v="224473" />
	</node>
	<node id="-342360" lat="58.4557777744" lon="6.64046944951">
		<tag k="name" v="Søytlemyr" />
		<tag k="natural" v="wetland" />
		<tag k="ssr:stedsnr" v="224999" />
	</node>
	<node id="-342358" lat="58.4570222181" lon="6.65190278183">
		<tag k="name" v="Breimyr" />
		<tag k="natural" v="wetland" />
		<tag k="ssr:stedsnr" v="224993" />
	</node>
	<node id="-344405" lat="58.4049277782" lon="6.68012499637">
		<tag k="name" v="Seljehom" />
		<tag k="natural" v="wetland" />
		<tag k="ssr:stedsnr" v="771795" />
	</node>
	<node id="-344404" lat="58.3995388881" lon="6.66098888135">
		<tag k="name" v="Skårsmyra" />
		<tag k="natural" v="wetland" />
		<tag k="ssr:stedsnr" v="771791" />
	</node>
	<node id="-344403" lat="58.4730305539" lon="6.70467499441">
		<tag k="name" v="Gjerpeskarmyr" />
		<tag k="natural" v="wetland" />
		<tag k="ssr:stedsnr" v="771777" />
	</node>
	<node id="-342348" lat="58.4325388926" lon="6.7551833275">
		<tag k="name" v="Raunetona" />
		<tag k="natural" v="wetland" />
		<tag k="ssr:stedsnr" v="224424" />
	</node>
	<node id="-342346" lat="58.4299444448" lon="6.79923889566">
		<tag k="name" v="Klovsteinan" />
		<tag k="natural" v="stone" />
		<tag k="ssr:stedsnr" v="224402" />
	</node>
	<node id="-342343" lat="58.4894166703" lon="6.76058055113">
		<tag k="name" v="Lian" />
		<tag k="place" v="locality" />
		<tag k="ssr:stedsnr" v="224028" />
	</node>
	<node id="-342339" lat="58.2388944446" lon="6.5881694517">
		<tag k="name" v="Duenesurda" />
		<tag k="natural" v="scree" />
		<tag k="ssr:stedsnr" v="222725" />
	</node>
	<node id="-344384" lat="58.2651833314" lon="6.56314722333">
		<tag k="name" v="Langemyra" />
		<tag k="natural" v="wetland" />
		<tag k="ssr:stedsnr" v="771533" />
	</node>
	<node id="-344382" lat="58.3045166694" lon="6.50619722901">
		<tag k="name" v="Store Ropemyr" />
		<tag k="natural" v="wetland" />
		<tag k="ssr:stedsnr" v="771504" />
	</node>
	<node id="-344378" lat="58.2737944455" lon="6.56877778175">
		<tag k="name" v="Botnen" />
		<tag k="natural" v="wetland" />
		<tag k="ssr:stedsnr" v="771483" />
	</node>
	<node id="-344376" lat="58.2814555582" lon="6.51264722853">
		<tag k="name" v="Øygardsmyr" />
		<tag k="natural" v="wetland" />
		<tag k="ssr:stedsnr" v="771462" />
	</node>
	<node id="-342320" lat="58.2835527764" lon="6.41615833218">
		<tag k="name" v="Monen" />
		<tag k="place" v="locality" />
		<tag k="ssr:stedsnr" v="221216" />
	</node>
	<node id="-344364" lat="58.2079416634" lon="6.59570277382">
		<tag k="name" v="Mågefjellmyr" />
		<tag k="natural" v="wetland" />
		<tag k="ssr:stedsnr" v="771360" />
	</node>
	<node id="-344359" lat="58.4270444449" lon="6.81303889686">
		<tag k="name" v="Vågemyr" />
		<tag k="natural" v="wetland" />
		<tag k="ssr:stedsnr" v="771342" />
	</node>
	<node id="-342307" lat="58.4004111155" lon="6.79448056028">
		<tag k="name" v="Høgevollen" />
		<tag k="place" v="locality" />
		<tag k="ssr:stedsnr" v="220497" />
	</node>
	<node id="-342305" lat="58.3263916685" lon="6.66797778284">
		<tag k="name" v="Hestemyra" />
		<tag k="natural" v="wetland" />
		<tag k="ssr:stedsnr" v="220229" />
	</node>
	<node id="-344352" lat="58.4198277795" lon="6.73971666216">
		<tag k="name" v="Lykkemyr" />
		<tag k="natural" v="wetland" />
		<tag k="ssr:stedsnr" v="771304" />
	</node>
	<node id="-344346" lat="58.3631611135" lon="6.91350554821">
		<tag k="name" v="Hommenesan" />
		<tag k="place" v="locality" />
		<tag k="ssr:stedsnr" v="771262" />
	</node>
	<node id="-344342" lat="58.3321972213" lon="6.61830833616">
		<tag k="name" v="Diblemyra" />
		<tag k="natural" v="wetland" />
		<tag k="ssr:stedsnr" v="771212" />
	</node>
	<node id="-344341" lat="58.3387055525" lon="6.62328611788">
		<tag k="name" v="Bulemyra" />
		<tag k="natural" v="wetland" />
		<tag k="ssr:stedsnr" v="771208" />
	</node>
	<node id="-344338" lat="58.278119442" lon="6.64763332874">
		<tag k="name" v="Uran" />
		<tag k="natural" v="scree" />
		<tag k="ssr:stedsnr" v="771163" />
	</node>
	<node id="-344334" lat="58.2871972211" lon="6.70206111821">
		<tag k="name" v="Høystakkmyra" />
		<tag k="natural" v="wetland" />
		<tag k="ssr:stedsnr" v="771144" />
	</node>
	<node id="-344332" lat="58.2824972213" lon="6.70499999429">
		<tag k="name" v="Klampemyra" />
		<tag k="natural" v="wetland" />
		<tag k="ssr:stedsnr" v="771141" />
	</node>
	<node id="-344331" lat="58.2934166676" lon="6.64118610892">
		<tag k="name" v="Løslåta" />
		<tag k="natural" v="wetland" />
		<tag k="ssr:stedsnr" v="771111" />
	</node>
	<node id="-344320" lat="58.2526888867" lon="6.60394167274">
		<tag k="name" v="Åsan" />
		<tag k="natural" v="wetland" />
		<tag k="ssr:stedsnr" v="771042" />
	</node>
	<node id="-344319" lat="58.2530611102" lon="6.59855555971">
		<tag k="name" v="Bjørkåsmyra" />
		<tag k="natural" v="wetland" />
		<tag k="ssr:stedsnr" v="771040" />
	</node>
	<node id="-344300" lat="58.5033777758" lon="6.64769999236">
		<tag k="name" v="Pininghola" />
		<tag k="natural" v="wetland" />
		<tag k="ssr:stedsnr" v="770763" />
	</node>
	<node id="-344299" lat="58.4965805595" lon="6.64504443635">
		<tag k="name" v="Bjødlemyr" />
		<tag k="natural" v="wetland" />
		<tag k="ssr:stedsnr" v="770756" />
	</node>
	<node id="-344297" lat="58.4922666669" lon="6.6454666648">
		<tag k="name" v="Borhom" />
		<tag k="natural" v="wetland" />
		<tag k="ssr:stedsnr" v="770747" />
	</node>
	<node id="-344296" lat="58.3302722218" lon="6.71517222764">
		<tag k="landuse" v="meadow" />
		<tag k="name" v="Varbakksmyr" />
		<tag k="ssr:stedsnr" v="770738" />
	</node>
	<node id="-344293" lat="58.5174666624" lon="6.6833111032">
		<tag k="name" v="Sigbjørnshola" />
		<tag k="natural" v="wetland" />
		<tag k="ssr:stedsnr" v="770717" />
	</node>
	<node id="-344282" lat="58.494266668" lon="6.84369443829">
		<tag k="name" v="Reiershola" />
		<tag k="place" v="locality" />
		<tag k="ssr:stedsnr" v="770653" />
	</node>
	<node id="-342233" lat="58.5015472187" lon="6.63896666438">
		<tag k="name" v="Øvre Diblemyr" />
		<tag k="natural" v="wetland" />
		<tag k="ssr:stedsnr" v="164932" />
	</node>
	<node id="-342232" lat="58.4986333301" lon="6.6451416663">
		<tag k="name" v="Blaude steinen" />
		<tag k="natural" v="stone" />
		<tag k="ssr:stedsnr" v="164930" />
	</node>
	<node id="-342230" lat="58.4771472216" lon="6.6303777794">
		<tag k="name" v="Stora Moltemyr" />
		<tag k="natural" v="wetland" />
		<tag k="ssr:stedsnr" v="164900" />
	</node>
	<node id="-342229" lat="58.5555277805" lon="6.61804721691">
		<tag k="name" v="Spjodesteinen" />
		<tag k="natural" v="stone" />
		<tag k="ssr:stedsnr" v="164896" />
	</node>
	<node id="-342227" lat="58.3752611115" lon="6.64045833379">
		<tag k="name" v="Jordet" />
		<tag k="place" v="locality" />
		<tag k="ssr:stedsnr" v="164883" />
	</node>
	<node id="-342216" lat="58.407708336" lon="6.69100833143">
		<tag k="name" v="Tjødnemyr" />
		<tag k="natural" v="wetland" />
		<tag k="ssr:stedsnr" v="164803" />
	</node>
	<node id="-344872" lat="58.4746861134" lon="6.78647222068">
		<tag k="name" v="Lynghaugen" />
		<tag k="place" v="locality" />
		<tag k="ssr:stedsnr" v="952046" />
	</node>
	<node id="-342207" lat="58.3431166663" lon="6.72343888769">
		<tag k="name" v="Fidjan" />
		<tag k="place" v="locality" />
		<tag k="ssr:stedsnr" v="164768" />
	</node>
	<node id="-342206" lat="58.3279972235" lon="6.72611389285">
		<tag k="name" v="Uran" />
		<tag k="natural" v="scree" />
		<tag k="ssr:stedsnr" v="164766" />
	</node>
	<node id="-342205" lat="58.3361416709" lon="6.74687222646">
		<tag k="name" v="Langemyr" />
		<tag k="natural" v="wetland" />
		<tag k="ssr:stedsnr" v="164762" />
	</node>
	<node id="-344246" lat="58.2505861083" lon="6.70002500617">
		<tag k="name" v="Tjerra" />
		<tag k="place" v="locality" />
		<tag k="ssr:stedsnr" v="770069" />
	</node>
	<node id="-342197" lat="58.4347916693" lon="6.82912778616">
		<tag k="name" v="Diblemyr" />
		<tag k="natural" v="wetland" />
		<tag k="ssr:stedsnr" v="164719" />
	</node>
	<node id="-344244" lat="58.4855055557" lon="6.81053055609">
		<tag k="name" v="Sandvå" />
		<tag k="natural" v="wetland" />
		<tag k="ssr:stedsnr" v="770054" />
	</node>
	<node id="-342192" lat="58.3766138886" lon="6.73710277001">
		<tag k="name" v="Lega" />
		<tag k="place" v="locality" />
		<tag k="ssr:stedsnr" v="164698" />
	</node>
	<node id="-342189" lat="58.5459833319" lon="6.67496110779">
		<tag k="name" v="Stora myra" />
		<tag k="natural" v="wetland" />
		<tag k="ssr:stedsnr" v="164682" />
	</node>
	<node id="-342185" lat="58.2528027784" lon="6.74285833911">
		<tag k="name" v="Folkefjellmyra" />
		<tag k="natural" v="wetland" />
		<tag k="ssr:stedsnr" v="164603" />
	</node>
	<node id="-342184" lat="58.2675111108" lon="6.57078611876">
		<tag k="name" v="Botnen" />
		<tag k="natural" v="wetland" />
		<tag k="ssr:stedsnr" v="164580" />
	</node>
	<node id="-342182" lat="58.3041305548" lon="6.5108083311">
		<tag k="name" v="Litle Ropemyr" />
		<tag k="natural" v="wetland" />
		<tag k="ssr:stedsnr" v="164556" />
	</node>
	<node id="-344227" lat="58.476038892" lon="6.79167222536">
		<tag k="name" v="Hestetona" />
		<tag k="place" v="locality" />
		<tag k="ssr:stedsnr" v="770001" />
	</node>
	<node id="-344226" lat="58.2606055519" lon="6.68400555977">
		<tag k="name" v="Urda" />
		<tag k="natural" v="scree" />
		<tag k="ssr:stedsnr" v="768932" />
	</node>
	<node id="-342173" lat="58.2959388864" lon="6.57001944357">
		<tag k="name" v="Store Myran" />
		<tag k="natural" v="wetland" />
		<tag k="ssr:stedsnr" v="164493" />
	</node>
	<node id="-344212" lat="58.3250194465" lon="6.60577778293">
		<tag k="name" v="Høge myran" />
		<tag k="natural" v="wetland" />
		<tag k="ssr:stedsnr" v="767147" />
	</node>
	<node id="-342151" lat="58.2746527766" lon="6.40814443667">
		<tag k="name" v="Gomannsmyr" />
		<tag k="natural" v="wetland" />
		<tag k="ssr:stedsnr" v="164345" />
	</node>
	<node id="-344198" lat="58.260011109" lon="6.74701943811">
		<tag k="name" v="Stokkemyr" />
		<tag k="natural" v="wetland" />
		<tag k="ssr:stedsnr" v="766553" />
	</node>
	<node id="-342148" lat="58.4249750013" lon="6.78818889361">
		<tag k="name" v="Stakkhomsmyra" />
		<tag k="natural" v="wetland" />
		<tag k="ssr:stedsnr" v="164329" />
	</node>
	<node id="-342144" lat="58.349252775" lon="6.82296666117">
		<tag k="name" v="Storemyran" />
		<tag k="natural" v="wetland" />
		<tag k="ssr:stedsnr" v="164258" />
	</node>
	<node id="-342143" lat="58.3831194448" lon="6.89400278123">
		<tag k="name" v="Litleskogen" />
		<tag k="place" v="locality" />
		<tag k="ssr:stedsnr" v="164252" />
	</node>
	<node id="-344185" lat="58.2598166663" lon="6.73812499855">
		<tag k="name" v="Kjerringmyra" />
		<tag k="natural" v="wetland" />
		<tag k="ssr:stedsnr" v="766550" />
	</node>
	<node id="-342130" lat="58.4177472221" lon="6.84089166955">
		<tag k="name" v="Store Lunden" />
		<tag k="place" v="locality" />
		<tag k="ssr:stedsnr" v="164154" />
	</node>
	<node id="-342125" lat="58.2866638874" lon="6.62065833399">
		<tag k="name" v="Lindevikura" />
		<tag k="natural" v="scree" />
		<tag k="ssr:stedsnr" v="164114" />
	</node>
	<node id="-342124" lat="58.2943333364" lon="6.62275832792">
		<tag k="name" v="Store Myra" />
		<tag k="natural" v="wetland" />
		<tag k="ssr:stedsnr" v="164108" />
	</node>
	<node id="-341351" lat="58.2938944433" lon="6.48549443618">
		<tag k="name" v="Store Myra" />
		<tag k="natural" v="wetland" />
		<tag k="ssr:stedsnr" v="892710" />
	</node>
	<node id="-342117" lat="58.2437527777" lon="6.70111388602">
		<tag k="name" v="Slåtedalsholet" />
		<tag k="natural" v="wetland" />
		<tag k="ssr:stedsnr" v="164071" />
	</node>
	<node id="-342112" lat="58.314113888" lon="6.57258055823">
		<tag k="name" v="Flinturmyra" />
		<tag k="natural" v="wetland" />
		<tag k="ssr:stedsnr" v="164004" />
	</node>
	<node id="-340666" lat="58.4978388888" lon="6.63666666761">
		<tag k="name" v="Torvmyr" />
		<tag k="natural" v="wetland" />
		<tag k="ssr:stedsnr" v="345756" />
	</node>
	<node id="-344419" lat="58.4829750019" lon="6.70120278607">
		<tag k="name" v="Fænemyr" />
		<tag k="natural" v="wetland" />
		<tag k="ssr:stedsnr" v="771887" />
	</node>
	<node id="-342090" lat="58.2681444446" lon="6.54561944997">
		<tag k="name" v="Skilsmyr" />
		<tag k="natural" v="wetland" />
		<tag k="ssr:stedsnr" v="163533" />
	</node>
	<node id="-342083" lat="58.2610527804" lon="6.57249999684">
		<tag k="name" v="Torvmyra" />
		<tag k="natural" v="wetland" />
		<tag k="ssr:stedsnr" v="163491" />
	</node>
	<node id="-342079" lat="58.2574305543" lon="6.56787778091">
		<tag k="name" v="Svemyr" />
		<tag k="natural" v="wetland" />
		<tag k="ssr:stedsnr" v="163474" />
	</node>
	<node id="-344125" lat="58.4568722259" lon="6.64717223048">
		<tag k="name" v="Longemyr" />
		<tag k="natural" v="wetland" />
		<tag k="ssr:stedsnr" v="710996" />
	</node>
	<node id="-344123" lat="58.4613305591" lon="6.62524722331">
		<tag k="name" v="Tverrmyr" />
		<tag k="natural" v="wetland" />
		<tag k="ssr:stedsnr" v="710991" />
	</node>
	<node id="-344122" lat="58.4677861143" lon="6.6613194364">
		<tag k="name" v="Ansteinstykket" />
		<tag k="place" v="locality" />
		<tag k="ssr:stedsnr" v="710988" />
	</node>
	<node id="-342071" lat="58.4325305552" lon="6.72445278213">
		<tag k="name" v="Hellersmyr" />
		<tag k="natural" v="wetland" />
		<tag k="ssr:stedsnr" v="163353" />
	</node>
	<node id="-342069" lat="58.3441055567" lon="6.84232222443">
		<tag k="name" v="Ingeridsteinen" />
		<tag k="natural" v="stone" />
		<tag k="ssr:stedsnr" v="163216" />
	</node>
	<node id="-342065" lat="58.4987749962" lon="6.75745278135">
		<tag k="name" v="Stora myra" />
		<tag k="natural" v="wetland" />
		<tag k="ssr:stedsnr" v="163070" />
	</node>
	<node id="-342060" lat="58.4907500001" lon="6.79488888537">
		<tag k="name" v="Kleivsholet" />
		<tag k="natural" v="wetland" />
		<tag k="ssr:stedsnr" v="163022" />
	</node>
	<node id="-344105" lat="58.5091166657" lon="6.66823055163">
		<tag k="name" v="Lindemyr" />
		<tag k="place" v="locality" />
		<tag k="ssr:stedsnr" v="710933" />
	</node>
	<node id="-344104" lat="58.5145416694" lon="6.67949721529">
		<tag k="name" v="Espelundsmyra" />
		<tag k="natural" v="wetland" />
		<tag k="ssr:stedsnr" v="710931" />
	</node>
	<node id="-344102" lat="58.499925003" lon="6.63885000564">
		<tag k="name" v="Nedre Diblemyr" />
		<tag k="natural" v="wetland" />
		<tag k="ssr:stedsnr" v="710927" />
	</node>
	<node id="-344097" lat="58.4869555553" lon="6.62674444693">
		<tag k="name" v="Grimestølen" />
		<tag k="natural" v="wetland" />
		<tag k="ssr:stedsnr" v="710907" />
	</node>
	<node id="-342048" lat="58.2846833344" lon="6.45053889283">
		<tag k="name" v="Austre Myra" />
		<tag k="natural" v="wetland" />
		<tag k="ssr:stedsnr" v="160276" />
	</node>
	<node id="-342047" lat="58.2876027805" lon="6.44440555942">
		<tag k="name" v="Fordalsmyra" />
		<tag k="natural" v="wetland" />
		<tag k="ssr:stedsnr" v="160263" />
	</node>
	<node id="-344409" lat="58.407650004" lon="6.68151111061">
		<tag k="name" v="Hestmyr" />
		<tag k="natural" v="wetland" />
		<tag k="ssr:stedsnr" v="771806" />
	</node>
	<node id="-344082" lat="58.3549611117" lon="6.63920277194">
		<tag k="name" v="Langevollen" />
		<tag k="place" v="locality" />
		<tag k="ssr:stedsnr" v="710833" />
	</node>
	<node id="-340995" lat="58.4860027798" lon="6.85864443902">
		<tag k="name" v="Diblemyr" />
		<tag k="natural" v="wetland" />
		<tag k="ssr:stedsnr" v="406684" />
	</node>
	<node id="-342028" lat="58.4004500029" lon="6.79694165966">
		<tag k="landuse" v="meadow" />
		<tag k="name" v="Teigan" />
		<tag k="ssr:stedsnr" v="159483" />
	</node>
	<node id="-343042" lat="58.2460111131" lon="6.60180000268">
		<tag k="name" v="Stimyr" />
		<tag k="natural" v="wetland" />
		<tag k="ssr:stedsnr" v="528054" />
	</node>
	<node id="-344406" lat="58.4096027741" lon="6.6606666676">
		<tag k="name" v="Kringlemyr" />
		<tag k="natural" v="wetland" />
		<tag k="ssr:stedsnr" v="771801" />
	</node>
</osm>
