<?xml version="1.0" encoding="UTF-8"?>
<osm generator="osmapis" version="0.6">
	<node id="-342528" lat="58.2860611148" lon="6.64978055307">
		<tag k="bridge" v="yes" />
		<tag k="layer" v="1" />
		<tag k="name" v="Sveige" />
		<tag k="ssr:stedsnr" v="228114" />
	</node>
	<node id="-342527" lat="58.5000694489" lon="6.66281111176">
		<tag k="bridge" v="yes" />
		<tag k="layer" v="1" />
		<tag k="name" v="Berghøyden" />
		<tag k="ssr:stedsnr" v="227123" />
	</node>
	<node id="-342526" lat="58.3466805582" lon="6.66763333158">
		<tag k="bridge" v="yes" />
		<tag k="layer" v="1" />
		<tag k="name" v="Flikka Armco" />
		<tag k="ssr:stedsnr" v="227120" />
	</node>
	<node id="-345082" lat="58.272452779" lon="6.72895277666">
		<tag k="bridge" v="yes" />
		<tag k="layer" v="1" />
		<tag k="name" v="Tjersland bru" />
		<tag k="ssr:stedsnr" v="957064" />
	</node>
	<node id="-345081" lat="58.4171333311" lon="6.8089611142">
		<tag k="bridge" v="yes" />
		<tag k="layer" v="1" />
		<tag k="name" v="Krossholm" />
		<tag k="ssr:stedsnr" v="955131" />
	</node>
	<node id="-340478" lat="58.510388887" lon="6.66713332556">
		<tag k="highway" v="path" />
		<tag k="name" v="Tronsveien" />
		<tag k="ssr:stedsnr" v="285912" />
	</node>
	<node id="-341991" lat="58.3537472241" lon="6.81617221427">
		<tag k="bridge" v="yes" />
		<tag k="layer" v="1" />
		<tag k="name" v="Kjeåna" />
		<tag k="ssr:stedsnr" v="106124" />
	</node>
	<node id="-341990" lat="58.2786777815" lon="6.47969166822">
		<tag k="bridge" v="yes" />
		<tag k="layer" v="1" />
		<tag k="name" v="Botnevann" />
		<tag k="ssr:stedsnr" v="106117" />
	</node>
	<node id="-345053" lat="58.3681055545" lon="6.68069722214">
		<tag k="highway" v="path" />
		<tag k="name" v="Gildrestien" />
		<tag k="ssr:stedsnr" v="953856" />
	</node>
	<node id="-343499" lat="58.4662638899" lon="6.665891669">
		<tag k="bridge" v="yes" />
		<tag k="layer" v="1" />
		<tag k="name" v="Sandsmark" />
		<tag k="ssr:stedsnr" v="592116" />
	</node>
	<node id="-343498" lat="58.4228166669" lon="6.61244166638">
		<tag k="bridge" v="yes" />
		<tag k="layer" v="1" />
		<tag k="name" v="Djupedalsbekk bru" />
		<tag k="ssr:stedsnr" v="591101" />
	</node>
	<node id="-342464" lat="58.3497055592" lon="6.79727499586">
		<tag k="man_made" v="quay" />
		<tag k="name" v="Stølstø" />
		<tag k="place" v="locality" />
		<tag k="ssr:stedsnr" v="225391" />
	</node>
	<node id="-342459" lat="58.3612361098" lon="6.73842500835">
		<tag k="highway" v="path" />
		<tag k="name" v="Midtstien" />
		<tag k="ssr:stedsnr" v="225350" />
	</node>
	<node id="-344735" lat="58.2428250025" lon="6.59689999993">
		<tag k="fixme" v="verify maritime location" />
		<tag k="mooring" v="yes" />
		<tag k="name" v="Røytlandstøa" />
		<tag k="place" v="locality" />
		<tag k="ssr:stedsnr" v="848110" />
	</node>
	<node id="-341405" lat="58.3706138929" lon="6.81693054813">
		<tag k="bridge" v="yes" />
		<tag k="layer" v="1" />
		<tag k="name" v="Råna bru" />
		<tag k="ssr:stedsnr" v="896102" />
	</node>
	<node id="-341404" lat="58.3128166687" lon="6.67932499833">
		<tag k="bridge" v="yes" />
		<tag k="layer" v="1" />
		<tag k="name" v="Selura" />
		<tag k="ssr:stedsnr" v="896099" />
	</node>
	<node id="-341403" lat="58.3030861143" lon="6.64406111532">
		<tag k="bridge" v="yes" />
		<tag k="layer" v="1" />
		<tag k="name" v="Søyland" />
		<tag k="ssr:stedsnr" v="896054" />
	</node>
	<node id="-341402" lat="58.270394445" lon="6.74778056211">
		<tag k="bridge" v="yes" />
		<tag k="layer" v="1" />
		<tag k="name" v="Krogebakken" />
		<tag k="ssr:stedsnr" v="895115" />
	</node>
	<node id="-341401" lat="58.3905000019" lon="6.62867778204">
		<tag k="layer" v="-1" />
		<tag k="name" v="Skjeggestad" />
		<tag k="ssr:stedsnr" v="894752" />
		<tag k="tunnel" v="yes" />
	</node>
	<node id="-341400" lat="58.3239277786" lon="6.66377777008">
		<tag k="layer" v="-1" />
		<tag k="name" v="Loga" />
		<tag k="ssr:stedsnr" v="894347" />
		<tag k="tunnel" v="yes" />
	</node>
	<node id="-342928" lat="58.2500666682" lon="6.69753610294">
		<tag k="alt_name" v="Ståbystrand" />
		<tag k="man_made" v="quay" />
		<tag k="name" v="Ståbystranda" />
		<tag k="place" v="locality" />
		<tag k="ssr:stedsnr" v="485240" />
	</node>
	<node id="-340361" lat="58.3297416663" lon="6.65128332697">
		<tag k="bridge" v="yes" />
		<tag k="layer" v="1" />
		<tag k="name" v="Løgane" />
		<tag k="ssr:stedsnr" v="285131" />
	</node>
	<node id="-341887" lat="58.2945055562" lon="6.66169445147">
		<tag k="name" v="Elva" />
		<tag k="ssr:stedsnr" v="103611" />
		<tag k="waterway" v="canal" />
	</node>
	<node id="-344440" lat="58.4341861069" lon="6.70273055016">
		<tag k="bridge" v="yes" />
		<tag k="layer" v="1" />
		<tag k="name" v="Stemvassbekk" />
		<tag k="ssr:stedsnr" v="775102" />
	</node>
	<node id="-344439" lat="58.2967305551" lon="6.65133056243">
		<tag k="bridge" v="yes" />
		<tag k="layer" v="1" />
		<tag k="name" v="Dalens garveri" />
		<tag k="ssr:stedsnr" v="774107" />
	</node>
	<node id="-344438" lat="58.4770388927" lon="6.84738889595">
		<tag k="bridge" v="yes" />
		<tag k="layer" v="1" />
		<tag k="name" v="Fossmyr" />
		<tag k="ssr:stedsnr" v="773137" />
	</node>
	<node id="-344437" lat="58.2417361152" lon="6.63136666974">
		<tag k="bridge" v="yes" />
		<tag k="layer" v="1" />
		<tag k="name" v="Kvellandstrand ferje" />
		<tag k="ssr:stedsnr" v="773131" />
	</node>
	<node id="-344436" lat="58.3141944414" lon="6.67731666693">
		<tag k="layer" v="-1" />
		<tag k="name" v="Drangeid" />
		<tag k="ssr:stedsnr" v="772392" />
		<tag k="tunnel" v="yes" />
	</node>
	<node id="-342898" lat="58.4747499987" lon="6.81434999255">
		<tag k="bridge" v="yes" />
		<tag k="layer" v="1" />
		<tag k="name" v="Stølsbekk" />
		<tag k="ssr:stedsnr" v="471107" />
	</node>
	<node id="-342897" lat="58.3125805592" lon="6.6761222245">
		<tag k="bridge" v="yes" />
		<tag k="layer" v="1" />
		<tag k="name" v="Sæluråna" />
		<tag k="ssr:stedsnr" v="471062" />
	</node>
	<node id="-342896" lat="58.2778944453" lon="6.6288111059">
		<tag k="bridge" v="yes" />
		<tag k="layer" v="1" />
		<tag k="name" v="Halsåvassbekk bru" />
		<tag k="ssr:stedsnr" v="470097" />
	</node>
	<node id="-342895" lat="58.3640444461" lon="6.81073611942">
		<tag k="bridge" v="yes" />
		<tag k="layer" v="1" />
		<tag k="name" v="Klungland" />
		<tag k="ssr:stedsnr" v="470094" />
	</node>
	<node id="-340836" lat="58.3513722229" lon="6.66859721706">
		<tag k="bridge" v="yes" />
		<tag k="layer" v="1" />
		<tag k="name" v="Årdalsbekken" />
		<tag k="ssr:stedsnr" v="350062" />
	</node>
	<node id="-340835" lat="58.3801972219" lon="6.73261111119">
		<tag k="bridge" v="yes" />
		<tag k="layer" v="1" />
		<tag k="name" v="Årsvassbekk" />
		<tag k="ssr:stedsnr" v="350061" />
	</node>
	<node id="-340834" lat="58.2848305552" lon="6.54230000633">
		<tag k="bridge" v="yes" />
		<tag k="layer" v="1" />
		<tag k="name" v="Kvanvik østre" />
		<tag k="ssr:stedsnr" v="348110" />
	</node>
	<node id="-340833" lat="58.4230388917" lon="6.61183611713">
		<tag k="layer" v="-1" />
		<tag k="name" v="Djupedal" />
		<tag k="ssr:stedsnr" v="347390" />
		<tag k="tunnel" v="yes" />
	</node>
	<node id="-340832" lat="58.3706527761" lon="6.83085000124">
		<tag k="layer" v="-1" />
		<tag k="name" v="Kongevoll" />
		<tag k="ssr:stedsnr" v="347278" />
		<tag k="tunnel" v="yes" />
	</node>
	<node id="-343391" lat="58.3784361108" lon="6.72442777704">
		<tag k="highway" v="path" />
		<tag k="name" v="Stien" />
		<tag k="ssr:stedsnr" v="588630" />
	</node>
	<node id="-343886" lat="58.403980555" lon="6.83462499974">
		<tag k="junction" v="yes" />
		<tag k="name" v="Krossen" />
		<tag k="place" v="locality" />
		<tag k="ssr:stedsnr" v="706141" />
	</node>
	<node id="-344393" lat="58.3788916695" lon="6.80836110355">
		<tag k="man_made" v="quay" />
		<tag k="name" v="Eikelandstøa" />
		<tag k="place" v="locality" />
		<tag k="ssr:stedsnr" v="771674" />
	</node>
	<node id="-343856" lat="58.4094749964" lon="6.73638332621">
		<tag k="name" v="Bjørkevoll" />
		<tag k="railway" v="halt" />
		<tag k="ssr:stedsnr" v="667372" />
		<tag k="train" v="yes" />
	</node>
	<node id="-342304" lat="58.34173889" lon="6.68740000781">
		<tag k="highway" v="path" />
		<tag k="name" v="Kolerstien" />
		<tag k="ssr:stedsnr" v="220209" />
	</node>
	<node id="-341268" lat="58.4083527811" lon="6.80088611843">
		<tag k="highway" v="path" />
		<tag k="name" v="Rostestien" />
		<tag k="ssr:stedsnr" v="892307" />
	</node>
	<node id="-344336" lat="58.4268222191" lon="6.66406110924">
		<tag k="bridge" v="yes" />
		<tag k="layer" v="1" />
		<tag k="name" v="Osen" />
		<tag k="ssr:stedsnr" v="771147" />
	</node>
	<node id="-342287" lat="58.3564222234" lon="6.63027500192">
		<tag k="name" v="Flikkeid" />
		<tag k="railway" v="station" />
		<tag k="ssr:stedsnr" v="182418" />
		<tag k="train" v="yes" />
	</node>
	<node id="-343307" lat="58.4696277821" lon="6.82634722571">
		<tag k="bridge" v="yes" />
		<tag k="layer" v="1" />
		<tag k="name" v="Laugstølåna" />
		<tag k="ssr:stedsnr" v="588122" />
	</node>
	<node id="-343815" lat="58.2825027788" lon="6.71672500432">
		<tag k="bridge" v="yes" />
		<tag k="layer" v="1" />
		<tag k="name" v="Skogvassbekk" />
		<tag k="ssr:stedsnr" v="653099" />
	</node>
	<node id="-343814" lat="58.2398944416" lon="6.64987500155">
		<tag k="bridge" v="yes" />
		<tag k="layer" v="1" />
		<tag k="name" v="Abelsnes bru" />
		<tag k="ssr:stedsnr" v="652088" />
	</node>
	<node id="-343813" lat="58.4846166686" lon="6.65881111159">
		<tag k="bridge" v="yes" />
		<tag k="layer" v="1" />
		<tag k="name" v="Birkeland" />
		<tag k="ssr:stedsnr" v="652083" />
	</node>
	<node id="-343812" lat="58.3574749994" lon="6.64141110435">
		<tag k="layer" v="-1" />
		<tag k="name" v="Eie" />
		<tag k="ssr:stedsnr" v="650381" />
		<tag k="tunnel" v="yes" />
	</node>
	<node id="-342782" lat="58.4021388849" lon="6.77211944273">
		<tag k="highway" v="path" />
		<tag k="name" v="Øystølstien" />
		<tag k="ssr:stedsnr" v="467490" />
	</node>
	<node id="-340717" lat="58.4260250021" lon="6.78298334065">
		<tag k="highway" v="path" />
		<tag k="name" v="Røsingstien" />
		<tag k="ssr:stedsnr" v="346288" />
	</node>
	<node id="-342250" lat="58.2794861142" lon="6.62707777113">
		<tag k="bridge" v="yes" />
		<tag k="layer" v="1" />
		<tag k="name" v="Skolla" />
		<tag k="ssr:stedsnr" v="168122" />
	</node>
	<node id="-342249" lat="58.4042555593" lon="6.62265833658">
		<tag k="bridge" v="yes" />
		<tag k="layer" v="1" />
		<tag k="name" v="Sireåen" />
		<tag k="ssr:stedsnr" v="168121" />
	</node>
	<node id="-342248" lat="58.4273333363" lon="6.83769722411">
		<tag k="bridge" v="yes" />
		<tag k="layer" v="1" />
		<tag k="name" v="Gyland" />
		<tag k="ssr:stedsnr" v="166136" />
	</node>
	<node id="-342247" lat="58.2706305586" lon="6.74296388365">
		<tag k="layer" v="-1" />
		<tag k="name" v="Gaupås" />
		<tag k="ssr:stedsnr" v="165454" />
		<tag k="tunnel" v="yes" />
	</node>
	<node id="-340697" lat="58.4611249955" lon="6.78995277689">
		<tag k="bridge" v="yes" />
		<tag k="layer" v="1" />
		<tag k="name" v="Nordheim" />
		<tag k="ssr:stedsnr" v="346124" />
	</node>
	<node id="-343760" lat="58.2417888902" lon="6.63341667377">
		<tag k="amenity" v="ferry_terminal" />
		<tag k="name" v="Kvellandstrand" />
		<tag k="ssr:stedsnr" v="649745" />
	</node>
	<node id="-343759" lat="58.236397222" lon="6.61198055079">
		<tag k="alt_name" v="Launes;Launes ferjekai" />
		<tag k="amenity" v="ferry_terminal" />
		<tag k="name" v="Lauvnes ferjekai" />
		<tag k="ssr:stedsnr" v="649744" />
	</node>
	<node id="-344779" lat="58.2929194469" lon="6.6624083379">
		<tag k="man_made" v="quay" />
		<tag k="name" v="Jernbanekaia" />
		<tag k="place" v="locality" />
		<tag k="ssr:stedsnr" v="907130" />
	</node>
	<node id="-341696" lat="58.2943111149" lon="6.66042222968">
		<tag k="man_made" v="quay" />
		<tag k="name" v="Tollbukaia" />
		<tag k="place" v="locality" />
		<tag k="ssr:stedsnr" v="57111" />
	</node>
	<node id="-341694" lat="58.524611108" lon="6.67764999842">
		<tag k="bridge" v="yes" />
		<tag k="layer" v="1" />
		<tag k="name" v="Grytåna" />
		<tag k="ssr:stedsnr" v="45123" />
	</node>
	<node id="-341693" lat="58.4131749972" lon="6.65494166624">
		<tag k="bridge" v="yes" />
		<tag k="layer" v="1" />
		<tag k="name" v="Bakke" />
		<tag k="ssr:stedsnr" v="45114" />
	</node>
	<node id="-344764" lat="58.3847611124" lon="6.84055555507">
		<tag k="alt_name" v="Gyland st." />
		<tag k="name" v="Gyland" />
		<tag k="railway" v="station" />
		<tag k="ssr:stedsnr" v="850439" />
		<tag k="train" v="yes" />
	</node>
	<node id="-341691" lat="58.2369333336" lon="6.55915833199">
		<tag k="bridge" v="yes" />
		<tag k="layer" v="1" />
		<tag k="name" v="Eide" />
		<tag k="ssr:stedsnr" v="45109" />
	</node>
	<node id="-342711" lat="58.4777277733" lon="6.80912221461">
		<tag k="bridge" v="yes" />
		<tag k="layer" v="1" />
		<tag k="name" v="Mydland" />
		<tag k="ssr:stedsnr" v="467115" />
	</node>
	<node id="-341168" lat="58.3397416686" lon="6.68890834023">
		<tag k="highway" v="path" />
		<tag k="name" v="Sjurstien" />
		<tag k="ssr:stedsnr" v="888145" />
	</node>
	<node id="-344946" lat="58.2174361123" lon="6.58167500353">
		<tag k="bridge" v="yes" />
		<tag k="layer" v="1" />
		<tag k="name" v="Rasvåg" />
		<tag k="ssr:stedsnr" v="953135" />
	</node>
	<node id="-341151" lat="58.4513555534" lon="6.79658333258">
		<tag k="bridge" v="yes" />
		<tag k="layer" v="1" />
		<tag k="name" v="Rygg" />
		<tag k="ssr:stedsnr" v="410111" />
	</node>
	<node id="-341150" lat="58.2825916673" lon="6.45130556392">
		<tag k="bridge" v="yes" />
		<tag k="layer" v="1" />
		<tag k="name" v="Berefjord" />
		<tag k="ssr:stedsnr" v="410101" />
	</node>
	<node id="-341149" lat="58.2963027775" lon="6.66365278592">
		<tag k="bridge" v="yes" />
		<tag k="layer" v="1" />
		<tag k="name" v="Flekkefjord" />
		<tag k="ssr:stedsnr" v="409138" />
	</node>
	<node id="-341148" lat="58.3558972203" lon="6.65912778537">
		<tag k="layer" v="-1" />
		<tag k="name" v="Lavoll" />
		<tag k="ssr:stedsnr" v="408326" />
		<tag k="tunnel" v="yes" />
	</node>
	<node id="-344731" lat="58.2859194427" lon="6.53494167441">
		<tag k="bridge" v="yes" />
		<tag k="layer" v="1" />
		<tag k="name" v="Kvanvik vestre" />
		<tag k="ssr:stedsnr" v="834134" />
	</node>
	<node id="-343193" lat="58.4855305545" lon="6.78708054777">
		<tag k="bridge" v="yes" />
		<tag k="layer" v="1" />
		<tag k="name" v="Sandvatn" />
		<tag k="ssr:stedsnr" v="532100" />
	</node>
	<node id="-343192" lat="58.3135277822" lon="6.67829999979">
		<tag k="bridge" v="yes" />
		<tag k="layer" v="1" />
		<tag k="name" v="Svinevika" />
		<tag k="ssr:stedsnr" v="532057" />
	</node>
	<node id="-343191" lat="58.4172666638" lon="6.61573055582">
		<tag k="layer" v="-1" />
		<tag k="name" v="Gjeilene" />
		<tag k="ssr:stedsnr" v="529447" />
		<tag k="tunnel" v="yes" />
	</node>
	<node id="-343699" lat="58.3609333335" lon="6.81460555795">
		<tag k="man_made" v="quay" />
		<tag k="name" v="Klunglandstøa" />
		<tag k="place" v="locality" />
		<tag k="ssr:stedsnr" v="649419" />
	</node>
	<node id="-340626" lat="58.351055557" lon="6.84882777581">
		<tag k="man_made" v="quay" />
		<tag k="name" v="Grøttelandsstøa" />
		<tag k="place" v="locality" />
		<tag k="ssr:stedsnr" v="345237" />
	</node>
	<node id="-344206" lat="58.4241611096" lon="6.67710554722">
		<tag k="fixme" v="consider highway=path" />
		<tag k="highway" v="track" />
		<tag k="name" v="Presteveien" />
		<tag k="ssr:stedsnr" v="766916" />
	</node>
	<node id="-343683" lat="58.3626027776" lon="6.73927777916">
		<tag k="highway" v="path" />
		<tag k="name" v="Fjellstien" />
		<tag k="ssr:stedsnr" v="649345" />
	</node>
	<node id="-341633" lat="58.3598527797" lon="6.73726944251">
		<tag k="highway" v="path" />
		<tag k="name" v="Bustien" />
		<tag k="ssr:stedsnr" v="43325" />
	</node>
	<node id="-344188" lat="58.328677777" lon="6.66251389036">
		<tag k="highway" v="path" />
		<tag k="name" v="Stien" />
		<tag k="ssr:stedsnr" v="766196" />
	</node>
	<node id="-342138" lat="58.4140861958" lon="6.82668603527">
		<tag k="highway" v="path" />
		<tag k="name" v="Storstien" />
		<tag k="ssr:stedsnr" v="164204" />
	</node>
	<node id="-341692" lat="58.2877638848" lon="6.60691111434">
		<tag k="bridge" v="yes" />
		<tag k="layer" v="1" />
		<tag k="name" v="Fiskebekk" />
		<tag k="ssr:stedsnr" v="45108" />
	</node>
	<node id="-341082" lat="58.2238361153" lon="6.56933055437">
		<tag k="alt_name" v="Urstadstranda" />
		<tag k="landuse" v="harbour" />
		<tag k="name" v="Urstadstrand" />
		<tag k="seamark:type" v="harbour" />
		<tag k="ssr:stedsnr" v="407426" />
	</node>
	<node id="-344335" lat="58.5348944487" lon="6.67896111574">
		<tag k="bridge" v="yes" />
		<tag k="layer" v="1" />
		<tag k="name" v="Ramslid" />
		<tag k="ssr:stedsnr" v="771148" />
	</node>
	<node id="-342603" lat="58.2159138875" lon="6.63490277243">
		<tag k="alt_name" v="Langelandsstranda;Langlandstrand" />
		<tag k="landuse" v="harbour" />
		<tag k="name" v="Langelandsstrand" />
		<tag k="seamark:type" v="harbour" />
		<tag k="ssr:stedsnr" v="425157" />
	</node>
	<node id="-344130" lat="58.297897223" lon="6.67969721987">
		<tag k="bridge" v="yes" />
		<tag k="layer" v="1" />
		<tag k="name" v="Sundslia bru" />
		<tag k="ssr:stedsnr" v="714095" />
	</node>
	<node id="-344129" lat="58.4124083357" lon="6.65634721757">
		<tag k="bridge" v="yes" />
		<tag k="layer" v="1" />
		<tag k="name" v="Årvoll" />
		<tag k="ssr:stedsnr" v="714061" />
	</node>
	<node id="-344128" lat="58.4126666657" lon="6.65545834042">
		<tag k="bridge" v="yes" />
		<tag k="layer" v="1" />
		<tag k="name" v="Bakkekleiva" />
		<tag k="ssr:stedsnr" v="713107" />
	</node>
	<node id="-344127" lat="58.3097472184" lon="6.68315277507">
		<tag k="bridge" v="yes" />
		<tag k="layer" v="1" />
		<tag k="name" v="Eidsvika" />
		<tag k="ssr:stedsnr" v="713104" />
	</node>
	<node id="-344126" lat="58.4079333339" lon="6.62078333715">
		<tag k="layer" v="-1" />
		<tag k="name" v="Sira" />
		<tag k="ssr:stedsnr" v="712747" />
		<tag k="tunnel" v="yes" />
	</node>
	<node id="-343087" lat="58.3622694486" lon="6.73819167125">
		<tag k="highway" v="path" />
		<tag k="name" v="Stien" />
		<tag k="ssr:stedsnr" v="528382" />
	</node>
	<node id="-340519" lat="58.347619441" lon="6.66294723021">
		<tag k="bridge" v="yes" />
		<tag k="layer" v="1" />
		<tag k="name" v="Flikka" />
		<tag k="ssr:stedsnr" v="288110" />
	</node>
	<node id="-341016" lat="58.4178138847" lon="6.6604611113">
		<tag k="name" v="Sira" />
		<tag k="railway" v="station" />
		<tag k="ssr:stedsnr" v="406875" />
		<tag k="train" v="yes" />
	</node>
	<node id="-344086" lat="58.3844944424" lon="6.68428332657">
		<tag k="highway" v="path" />
		<tag k="name" v="Odrestien" />
		<tag k="ssr:stedsnr" v="710852" />
	</node>
	<node id="-341010" lat="58.2484388849" lon="6.71589722549">
		<tag k="highway" v="path" />
		<tag k="name" v="Bjellandsvegen" />
		<tag k="ssr:stedsnr" v="406828" />
	</node>
	<node id="-345100" lat="58.294642851" lon="6.65789875151">
		<tag k="man_made" v="quay" />
		<tag k="name" v="Eschebrygga" />
		<tag k="place" v="locality" />
		<tag k="ssr:stedsnr" v="975941" />
	</node>
	<node id="-343050" lat="58.5069361121" lon="6.67013888885">
		<tag k="bridge" v="yes" />
		<tag k="layer" v="1" />
		<tag k="name" v="Lindelid" />
		<tag k="ssr:stedsnr" v="528116" />
	</node>
	<node id="-342532" lat="58.2951499979" lon="6.66755277547">
		<tag k="name" v="Flekkefjord stasjon" />
		<tag k="railway" v="station" />
		<tag k="ssr:stedsnr" v="239137" />
		<tag k="train" v="yes" />
	</node>
</osm>
