<?xml version="1.0" encoding="UTF-8"?>
<osm version="0.6" generator="osmapis">
	<node lat="59.174008333894314" lon="10.182597216806496" id="-47327">
		<tag k="fixme" v="consider natural=peak for the most distinct mountains in the district" />
		<tag k="name" v="Semsåsen" />
		<tag k="natural" v="hill" />
		<tag k="place" v="locality" />
		<tag k="ssr:stedsnr" v="1203" />
	</node>
	<node lat="59.26970000128535" lon="10.10921388757948" id="-47337">
		<tag k="fixme" v="consider natural=peak for the most distinct mountains in the district" />
		<tag k="name" v="Piddane" />
		<tag k="natural" v="hill" />
		<tag k="place" v="locality" />
		<tag k="ssr:stedsnr" v="2875" />
	</node>
	<node lat="59.083341662522564" lon="10.277419445707956" id="-47342">
		<tag k="name" v="Båtåsen" />
		<tag k="natural" v="hill" />
		<tag k="place" v="locality" />
		<tag k="ssr:stedsnr" v="24291" />
	</node>
	<node lat="59.05219721954695" lon="10.275549998132158" id="-47343">
		<tag k="name" v="Midtåsen" />
		<tag k="natural" v="hill" />
		<tag k="place" v="locality" />
		<tag k="ssr:stedsnr" v="24327" />
	</node>
	<node lat="59.23080277354757" lon="10.334319443376156" id="-47347">
		<tag k="fixme" v="consider natural=peak for the most distinct mountains in the district" />
		<tag k="name" v="Vadumåsen" />
		<tag k="natural" v="hill" />
		<tag k="place" v="locality" />
		<tag k="ssr:stedsnr" v="25427" />
	</node>
	<node lat="59.315611114039235" lon="10.096566675532896" id="-47354">
		<tag k="fixme" v="consider natural=peak for the most distinct mountains in the district" />
		<tag k="name" v="Bakkevannsfjellet" />
		<tag k="natural" v="hill" />
		<tag k="place" v="locality" />
		<tag k="ssr:stedsnr" v="27175" />
	</node>
	<node lat="59.338113886930095" lon="10.166408325346286" id="-47358">
		<tag k="name" v="Godthull" />
		<tag k="natural" v="valley" />
		<tag k="place" v="locality" />
		<tag k="ssr:stedsnr" v="27395" />
	</node>
	<node lat="59.2242527794193" lon="10.233633333729697" id="-47364">
		<tag k="name" v="Aspelund" />
		<tag k="natural" v="hill" />
		<tag k="place" v="locality" />
		<tag k="ssr:stedsnr" v="27714" />
	</node>
	<node lat="59.146394446298665" lon="10.257911111737556" id="-47366">
		<tag k="fixme" v="consider natural=peak for the most distinct mountains in the district" />
		<tag k="name" v="Frebergåsen" />
		<tag k="natural" v="hill" />
		<tag k="place" v="locality" />
		<tag k="ssr:stedsnr" v="27771" />
	</node>
	<node lat="59.175108334879766" lon="10.156155554870056" id="-47367">
		<tag k="fixme" v="consider natural=peak for the most distinct mountains in the district" />
		<tag k="name" v="Vilderåsen" />
		<tag k="natural" v="hill" />
		<tag k="place" v="locality" />
		<tag k="ssr:stedsnr" v="27775" />
	</node>
	<node lat="59.24214722191073" lon="10.110825005422178" id="-47372">
		<tag k="name" v="Askedalene" />
		<tag k="natural" v="valley" />
		<tag k="place" v="locality" />
		<tag k="ssr:stedsnr" v="27990" />
	</node>
	<node lat="59.11055555227966" lon="10.223958338381756" id="-47376">
		<tag k="name" v="Ommestadkollen" />
		<tag k="natural" v="hill" />
		<tag k="place" v="locality" />
		<tag k="ssr:stedsnr" v="28567" />
	</node>
	<node lat="59.23865555717302" lon="10.213688886802755" id="-47395">
		<tag k="fixme" v="consider natural=peak for the most distinct mountains in the district" />
		<tag k="name" v="Traåsen" />
		<tag k="natural" v="hill" />
		<tag k="place" v="locality" />
		<tag k="ssr:stedsnr" v="62331" />
	</node>
	<node lat="59.242402781754485" lon="10.238174997874761" id="-47398">
		<tag k="name" v="Djupedal" />
		<tag k="natural" v="valley" />
		<tag k="place" v="locality" />
		<tag k="ssr:stedsnr" v="62276" />
	</node>
	<node lat="59.33193333164801" lon="10.028508330351006" id="-47404">
		<tag k="alt_name" v="Sæteråsen" />
		<tag k="fixme" v="consider natural=peak for the most distinct mountains in the district" />
		<tag k="name" v="Seteråsen" />
		<tag k="natural" v="hill" />
		<tag k="place" v="locality" />
		<tag k="ssr:stedsnr" v="70672" />
	</node>
	<node lat="59.13356110920864" lon="10.281711112790795" id="-47405">
		<tag k="fixme" v="consider natural=peak for the most distinct mountains in the district" />
		<tag k="name" v="Seileråsen" />
		<tag k="natural" v="hill" />
		<tag k="place" v="locality" />
		<tag k="ssr:stedsnr" v="85206" />
	</node>
	<node lat="59.31279722327626" lon="10.023774999496776" id="-47415">
		<tag k="fixme" v="consider natural=peak for the most distinct mountains in the district" />
		<tag k="name" v="Amurfjell" />
		<tag k="natural" v="hill" />
		<tag k="place" v="locality" />
		<tag k="ssr:stedsnr" v="87586" />
	</node>
	<node lat="59.36166666390375" lon="10.100466669952462" id="-47419">
		<tag k="fixme" v="consider natural=peak for the most distinct mountains in the district" />
		<tag k="name" v="Kringlefjell" />
		<tag k="natural" v="hill" />
		<tag k="place" v="locality" />
		<tag k="ssr:stedsnr" v="88108" />
	</node>
	<node lat="59.29291111378443" lon="10.148474991456116" id="-47425">
		<tag k="name" v="Rønningen" />
		<tag k="natural" v="slope" />
		<tag k="place" v="locality" />
		<tag k="ssr:stedsnr" v="88185" />
	</node>
	<node lat="59.30693333468623" lon="10.157408327055206" id="-47426">
		<tag k="name" v="Skør" />
		<tag k="natural" v="slope" />
		<tag k="place" v="locality" />
		<tag k="ssr:stedsnr" v="88368" />
	</node>
	<node lat="59.141711111677566" lon="10.269286109635411" id="-47429">
		<tag k="fixme" v="consider natural=peak for the most distinct mountains in the district" />
		<tag k="name" v="Dronninga" />
		<tag k="natural" v="hill" />
		<tag k="place" v="locality" />
		<tag k="ssr:stedsnr" v="88677" />
	</node>
	<node lat="59.13626944123797" lon="10.257802778494757" id="-47430">
		<tag k="fixme" v="consider natural=peak for the most distinct mountains in the district" />
		<tag k="name" v="Gjekstadåsen" />
		<tag k="natural" v="hill" />
		<tag k="place" v="locality" />
		<tag k="ssr:stedsnr" v="88679" />
	</node>
	<node lat="59.13771666835272" lon="10.265791674587794" id="-47431">
		<tag k="fixme" v="consider natural=peak for the most distinct mountains in the district" />
		<tag k="name" v="Morellåsen" />
		<tag k="natural" v="hill" />
		<tag k="place" v="locality" />
		<tag k="ssr:stedsnr" v="88680" />
	</node>
	<node lat="59.196019440896" lon="10.108366663021918" id="-47432">
		<tag k="name" v="Siljustreket" />
		<tag k="natural" v="valley" />
		<tag k="place" v="locality" />
		<tag k="ssr:stedsnr" v="88807" />
	</node>
	<node lat="59.2029361111111" lon="10.120161111789312" id="-47433">
		<tag k="name" v="Heia" />
		<tag k="natural" v="hill" />
		<tag k="place" v="locality" />
		<tag k="ssr:stedsnr" v="88809" />
	</node>
	<node lat="59.14085833651152" lon="10.129100000073954" id="-47434">
		<tag k="fixme" v="consider natural=peak for the most distinct mountains in the district" />
		<tag k="name" v="Bjerkåsen" />
		<tag k="natural" v="hill" />
		<tag k="place" v="locality" />
		<tag k="ssr:stedsnr" v="88826" />
	</node>
	<node lat="59.28512500196529" lon="10.115936108082346" id="-47435">
		<tag k="name" v="Lauvåsdalen" />
		<tag k="natural" v="valley" />
		<tag k="place" v="locality" />
		<tag k="ssr:stedsnr" v="88780" />
	</node>
	<node lat="59.20592499721998" lon="10.15289166076145" id="-47437">
		<tag k="name" v="Rønningen" />
		<tag k="natural" v="hill" />
		<tag k="place" v="locality" />
		<tag k="ssr:stedsnr" v="88790" />
	</node>
	<node lat="59.219180559928745" lon="10.115047229399984" id="-47438">
		<tag k="fixme" v="consider natural=peak for the most distinct mountains in the district" />
		<tag k="name" v="Ulås" />
		<tag k="natural" v="hill" />
		<tag k="place" v="locality" />
		<tag k="ssr:stedsnr" v="88966" />
	</node>
	<node lat="59.2224472188487" lon="10.089722230051915" id="-47440">
		<tag k="fixme" v="consider natural=peak for the most distinct mountains in the district" />
		<tag k="name" v="Dammyråsen" />
		<tag k="natural" v="hill" />
		<tag k="place" v="locality" />
		<tag k="ssr:stedsnr" v="88980" />
	</node>
	<node lat="59.23536666614877" lon="10.079436106047778" id="-47454">
		<tag k="fixme" v="consider natural=peak for the most distinct mountains in the district" />
		<tag k="name" v="Vardås" />
		<tag k="natural" v="hill" />
		<tag k="place" v="locality" />
		<tag k="ssr:stedsnr" v="123365" />
	</node>
	<node lat="59.28110277794876" lon="10.049777772350737" id="-47466">
		<tag k="fixme" v="consider natural=peak for the most distinct mountains in the district" />
		<tag k="name" v="Flatåsen" />
		<tag k="natural" v="hill" />
		<tag k="place" v="locality" />
		<tag k="ssr:stedsnr" v="147804" />
	</node>
	<node lat="59.35547500107628" lon="10.068375001553852" id="-47467">
		<tag k="name" v="Gurihølet" />
		<tag k="natural" v="valley" />
		<tag k="place" v="locality" />
		<tag k="ssr:stedsnr" v="148153" />
	</node>
	<node lat="59.3176611104426" lon="10.080641672177261" id="-47469">
		<tag k="fixme" v="consider natural=peak for the most distinct mountains in the district" />
		<tag k="name" v="Langås" />
		<tag k="natural" v="hill" />
		<tag k="place" v="locality" />
		<tag k="ssr:stedsnr" v="148202" />
	</node>
	<node lat="59.31878611398245" lon="10.13452500124206" id="-47470">
		<tag k="fixme" v="consider natural=peak for the most distinct mountains in the district" />
		<tag k="name" v="Den brente åsen" />
		<tag k="natural" v="hill" />
		<tag k="place" v="locality" />
		<tag k="ssr:stedsnr" v="148216" />
	</node>
	<node lat="59.271677779844545" lon="10.201761105907556" id="-47473">
		<tag k="fixme" v="consider natural=peak for the most distinct mountains in the district" />
		<tag k="name" v="Årholt" />
		<tag k="natural" v="hill" />
		<tag k="place" v="locality" />
		<tag k="ssr:stedsnr" v="148510" />
	</node>
	<node lat="59.29037499977934" lon="10.18140000653527" id="-47474">
		<tag k="name" v="Trollhaugen" />
		<tag k="natural" v="hill" />
		<tag k="place" v="locality" />
		<tag k="ssr:stedsnr" v="148512" />
	</node>
	<node lat="59.2819138843987" lon="10.15791389494017" id="-47477">
		<tag k="fixme" v="consider natural=peak for the most distinct mountains in the district" />
		<tag k="name" v="Gulliåsen" />
		<tag k="natural" v="hill" />
		<tag k="place" v="locality" />
		<tag k="ssr:stedsnr" v="148522" />
	</node>
	<node lat="59.1454027749178" lon="10.237033337779826" id="-47482">
		<tag k="fixme" v="consider natural=peak for the most distinct mountains in the district" />
		<tag k="name" v="Danseberget" />
		<tag k="natural" v="hill" />
		<tag k="place" v="locality" />
		<tag k="ssr:stedsnr" v="148754" />
	</node>
	<node lat="59.121233331330785" lon="10.237500007535242" id="-47484">
		<tag k="fixme" v="consider natural=peak for the most distinct mountains in the district" />
		<tag k="name" v="Huvikåsen" />
		<tag k="natural" v="hill" />
		<tag k="place" v="locality" />
		<tag k="ssr:stedsnr" v="148773" />
	</node>
	<node lat="59.194191665331786" lon="10.142586114745317" id="-47487">
		<tag k="name" v="Oredalen" />
		<tag k="natural" v="valley" />
		<tag k="place" v="locality" />
		<tag k="ssr:stedsnr" v="148826" />
	</node>
	<node lat="59.14194999872433" lon="10.13110277386523" id="-47488">
		<tag k="name" v="Kyllingdalen" />
		<tag k="natural" v="valley" />
		<tag k="place" v="locality" />
		<tag k="ssr:stedsnr" v="148859" />
	</node>
	<node lat="59.202274858574484" lon="10.293845862314999" id="-47518">
		<tag k="fixme" v="consider natural=peak for the most distinct mountains in the district" />
		<tag k="name" v="Husumåsen" />
		<tag k="natural" v="hill" />
		<tag k="place" v="locality" />
		<tag k="ssr:stedsnr" v="183123" />
	</node>
	<node lat="59.25387499614567" lon="10.008474992101268" id="-47530">
		<tag k="alt_name" v="Andersdalen" />
		<tag k="name" v="Andersdal" />
		<tag k="natural" v="valley" />
		<tag k="place" v="locality" />
		<tag k="ssr:stedsnr" v="184906" />
	</node>
	<node lat="59.33070555335056" lon="10.018549999645558" id="-47540">
		<tag k="name" v="Vestre Slipedalen" />
		<tag k="natural" v="valley" />
		<tag k="place" v="locality" />
		<tag k="ssr:stedsnr" v="208595" />
	</node>
	<node lat="59.31791667094061" lon="10.016966660532143" id="-47541">
		<tag k="name" v="Raumyrskærva" />
		<tag k="natural" v="hill" />
		<tag k="place" v="locality" />
		<tag k="ssr:stedsnr" v="208599" />
	</node>
	<node lat="59.33439166807982" lon="10.033911102706243" id="-47543">
		<tag k="fixme" v="consider natural=peak for the most distinct mountains in the district" />
		<tag k="name" v="Hornmyrfjellet" />
		<tag k="natural" v="hill" />
		<tag k="place" v="locality" />
		<tag k="ssr:stedsnr" v="208603" />
	</node>
	<node lat="59.3359777736709" lon="10.146608335248173" id="-47546">
		<tag k="name" v="Kremmern" />
		<tag k="place" v="locality" />
		<tag k="ssr:stedsnr" v="209144" />
	</node>
	<node lat="59.338469445279465" lon="10.11488332721946" id="-47547">
		<tag k="fixme" v="consider natural=peak for the most distinct mountains in the district" />
		<tag k="name" v="Mellomåsen" />
		<tag k="natural" v="hill" />
		<tag k="place" v="locality" />
		<tag k="ssr:stedsnr" v="209145" />
	</node>
	<node lat="59.32649444480862" lon="10.221947219745493" id="-47550">
		<tag k="fixme" v="consider natural=peak for the most distinct mountains in the district" />
		<tag k="name" v="Myråsen" />
		<tag k="natural" v="hill" />
		<tag k="place" v="locality" />
		<tag k="ssr:stedsnr" v="209444" />
	</node>
	<node lat="59.10716388730356" lon="10.209277771567026" id="-47552">
		<tag k="fixme" v="consider natural=peak for the most distinct mountains in the district" />
		<tag k="name" v="Lystadåsen" />
		<tag k="natural" v="hill" />
		<tag k="place" v="locality" />
		<tag k="ssr:stedsnr" v="209611" />
	</node>
	<node lat="59.343899997461584" lon="10.16585833937431" id="-47553">
		<tag k="name" v="Hagen" />
		<tag k="natural" v="hill" />
		<tag k="place" v="locality" />
		<tag k="ssr:stedsnr" v="209397" />
	</node>
	<node lat="59.306508329933706" lon="10.032861106315197" id="-47556">
		<tag k="fixme" v="consider natural=peak for the most distinct mountains in the district" />
		<tag k="name" v="Bjørkedalsåsen" />
		<tag k="natural" v="hill" />
		<tag k="place" v="locality" />
		<tag k="ssr:stedsnr" v="209551" />
	</node>
	<node lat="59.29397777734834" lon="10.021658335687833" id="-47557">
		<tag k="fixme" v="consider natural=peak for the most distinct mountains in the district" />
		<tag k="name" v="Heddeåsen" />
		<tag k="natural" v="hill" />
		<tag k="place" v="locality" />
		<tag k="ssr:stedsnr" v="209556" />
	</node>
	<node lat="59.146833337012204" lon="10.235983336879432" id="-47562">
		<tag k="fixme" v="consider natural=peak for the most distinct mountains in the district" />
		<tag k="name" v="Brentåsen" />
		<tag k="natural" v="hill" />
		<tag k="place" v="locality" />
		<tag k="ssr:stedsnr" v="209744" />
	</node>
	<node lat="59.1507499965256" lon="10.238947221107697" id="-47563">
		<tag k="fixme" v="consider natural=peak for the most distinct mountains in the district" />
		<tag k="name" v="Matgloveåsen" />
		<tag k="natural" v="hill" />
		<tag k="place" v="locality" />
		<tag k="ssr:stedsnr" v="209745" />
	</node>
	<node lat="59.152061109494795" lon="10.236661106811976" id="-47564">
		<tag k="fixme" v="consider natural=peak for the most distinct mountains in the district" />
		<tag k="name" v="Sandskjæråsen" />
		<tag k="natural" v="hill" />
		<tag k="place" v="locality" />
		<tag k="ssr:stedsnr" v="209749" />
	</node>
	<node lat="59.27151110942301" lon="10.111763886098572" id="-47573">
		<tag k="name" v="Pidden" />
		<tag k="place" v="locality" />
		<tag k="ssr:stedsnr" v="209813" />
	</node>
	<node lat="59.238238888286276" lon="10.146897227944962" id="-47575">
		<tag k="name" v="Verpedal" />
		<tag k="natural" v="valley" />
		<tag k="place" v="locality" />
		<tag k="ssr:stedsnr" v="209991" />
	</node>
	<node lat="59.37286666454384" lon="10.099905551551005" id="-47592">
		<tag k="fixme" v="consider natural=peak for the most distinct mountains in the district" />
		<tag k="name" v="Nautås" />
		<tag k="natural" v="hill" />
		<tag k="place" v="locality" />
		<tag k="ssr:stedsnr" v="245190" />
	</node>
	<node lat="59.1604416709526" lon="10.290333331252828" id="-47603">
		<tag k="name" v="Bringebæråsen" />
		<tag k="natural" v="hill" />
		<tag k="place" v="locality" />
		<tag k="ssr:stedsnr" v="267250" />
	</node>
	<node lat="59.156586113641225" lon="10.278730560117902" id="-47604">
		<tag k="name" v="Ormeura" />
		<tag k="natural" v="hill" />
		<tag k="place" v="locality" />
		<tag k="ssr:stedsnr" v="267255" />
	</node>
	<node lat="59.05849722443134" lon="10.30853056296146" id="-47606">
		<tag k="name" v="Tønneberget" />
		<tag k="natural" v="hill" />
		<tag k="place" v="locality" />
		<tag k="ssr:stedsnr" v="267312" />
	</node>
	<node lat="59.150466667665405" lon="10.278455563553775" id="-47608">
		<tag k="fixme" v="consider natural=peak for the most distinct mountains in the district" />
		<tag k="name" v="Mileåsen" />
		<tag k="natural" v="hill" />
		<tag k="place" v="locality" />
		<tag k="ssr:stedsnr" v="268308" />
	</node>
	<node lat="59.310769443264874" lon="10.02020834113765" id="-47612">
		<tag k="name" v="Briskemyr" />
		<tag k="place" v="locality" />
		<tag k="ssr:stedsnr" v="269599" />
	</node>
	<node lat="59.3550083338509" lon="10.080005556270995" id="-47614">
		<tag k="fixme" v="consider natural=peak for the most distinct mountains in the district" />
		<tag k="name" v="Haukås" />
		<tag k="natural" v="hill" />
		<tag k="place" v="locality" />
		<tag k="ssr:stedsnr" v="270171" />
	</node>
	<node lat="59.226080552516535" lon="10.237616662744491" id="-47619">
		<tag k="fixme" v="consider natural=peak for the most distinct mountains in the district" />
		<tag k="name" v="Elgåsen" />
		<tag k="natural" v="hill" />
		<tag k="place" v="locality" />
		<tag k="ssr:stedsnr" v="270698" />
	</node>
	<node lat="59.12608333743599" lon="10.32053334178762" id="-47622">
		<tag k="name" v="Blåsen" />
		<tag k="natural" v="hill" />
		<tag k="place" v="locality" />
		<tag k="ssr:stedsnr" v="449254" />
	</node>
	<node lat="59.145275000679284" lon="10.245947215300042" id="-47625">
		<tag k="name" v="Hemsbakken" />
		<tag k="natural" v="slope" />
		<tag k="place" v="locality" />
		<tag k="ssr:stedsnr" v="270748" />
	</node>
	<node lat="59.28705277827551" lon="10.11241389493776" id="-47626">
		<tag k="name" v="Lauvåskleiva" />
		<tag k="natural" v="slope" />
		<tag k="place" v="locality" />
		<tag k="ssr:stedsnr" v="270788" />
	</node>
	<node lat="59.194549999589974" lon="10.113955556736306" id="-47627">
		<tag k="name" v="Muskebånn-hølen" />
		<tag k="natural" v="valley" />
		<tag k="place" v="locality" />
		<tag k="ssr:stedsnr" v="270790" />
	</node>
	<node lat="59.18925833012837" lon="10.142161103513958" id="-47628">
		<tag k="name" v="Strutelia" />
		<tag k="natural" v="slope" />
		<tag k="place" v="locality" />
		<tag k="ssr:stedsnr" v="270795" />
	</node>
	<node lat="59.28071388746835" lon="10.136841664199526" id="-47629">
		<tag k="fixme" v="consider natural=peak for the most distinct mountains in the district" />
		<tag k="name" v="Båhusåsen" />
		<tag k="natural" v="hill" />
		<tag k="place" v="locality" />
		<tag k="ssr:stedsnr" v="270796" />
	</node>
	<node lat="59.06980832989197" lon="10.298188886406006" id="-47630">
		<tag k="fixme" v="consider natural=peak for the most distinct mountains in the district" />
		<tag k="name" v="Ravnereiråsen" />
		<tag k="natural" v="hill" />
		<tag k="place" v="locality" />
		<tag k="ssr:stedsnr" v="449319" />
	</node>
	<node lat="59.209222218456176" lon="10.104383332887272" id="-47631">
		<tag k="fixme" v="consider natural=peak for the most distinct mountains in the district" />
		<tag k="name" v="Dårestigen" />
		<tag k="natural" v="hill" />
		<tag k="place" v="locality" />
		<tag k="ssr:stedsnr" v="270951" />
	</node>
	<node lat="59.23490555429736" lon="10.089691670508996" id="-47632">
		<tag k="fixme" v="consider natural=peak for the most distinct mountains in the district" />
		<tag k="name" v="Søndre Barlindglovåsane" />
		<tag k="natural" v="hill" />
		<tag k="place" v="locality" />
		<tag k="ssr:stedsnr" v="270997" />
	</node>
	<node lat="59.220299999652745" lon="10.307380550508265" id="-47635">
		<tag k="fixme" v="consider natural=peak for the most distinct mountains in the district" />
		<tag k="name" v="Solåsen" />
		<tag k="natural" v="hill" />
		<tag k="place" v="locality" />
		<tag k="ssr:stedsnr" v="450416" />
	</node>
	<node lat="59.19632222450592" lon="10.338394441670703" id="-47636">
		<tag k="name" v="Ravnøy nordre" />
		<tag k="natural" v="hill" />
		<tag k="place" v="locality" />
		<tag k="ssr:stedsnr" v="450482" />
	</node>
	<node lat="59.175063888983544" lon="10.32714722979477" id="-47639">
		<tag k="alt_name" v="Sundås" />
		<tag k="fixme" v="consider natural=peak for the most distinct mountains in the district" />
		<tag k="name" v="Sundåsen" />
		<tag k="natural" v="hill" />
		<tag k="place" v="locality" />
		<tag k="ssr:stedsnr" v="450462" />
	</node>
	<node lat="59.28931110916663" lon="10.058950005147409" id="-47644">
		<tag k="name" v="Sagdalen" />
		<tag k="natural" v="valley" />
		<tag k="place" v="locality" />
		<tag k="ssr:stedsnr" v="451834" />
	</node>
	<node lat="59.32080833242087" lon="10.105497228372274" id="-47646">
		<tag k="name" v="Seterbakke" />
		<tag k="natural" v="slope" />
		<tag k="place" v="locality" />
		<tag k="ssr:stedsnr" v="452183" />
	</node>
	<node lat="59.36239999689878" lon="10.125416674942942" id="-47649">
		<tag k="name" v="Sprenebakken" />
		<tag k="natural" v="slope" />
		<tag k="place" v="locality" />
		<tag k="ssr:stedsnr" v="452121" />
	</node>
	<node lat="59.0851916639787" lon="10.269361102321119" id="-47662">
		<tag k="name" v="Herreporten" />
		<tag k="place" v="locality" />
		<tag k="ssr:stedsnr" v="452566" />
	</node>
	<node lat="59.21653611102192" lon="10.16901111160729" id="-47663">
		<tag k="name" v="Solhaug" />
		<tag k="natural" v="hill" />
		<tag k="place" v="locality" />
		<tag k="ssr:stedsnr" v="452698" />
	</node>
	<node lat="59.07166666768954" lon="10.267811102641787" id="-47664">
		<tag k="fixme" v="consider natural=peak for the most distinct mountains in the district" />
		<tag k="name" v="Tornberget" />
		<tag k="natural" v="hill" />
		<tag k="place" v="locality" />
		<tag k="ssr:stedsnr" v="452637" />
	</node>
	<node lat="59.1959111121746" lon="10.130599996105666" id="-47665">
		<tag k="name" v="Vassvollen" />
		<tag k="natural" v="hill" />
		<tag k="place" v="locality" />
		<tag k="ssr:stedsnr" v="452833" />
	</node>
	<node lat="59.16701388813339" lon="10.172491658013788" id="-47666">
		<tag k="name" v="Semsbakken" />
		<tag k="natural" v="slope" />
		<tag k="place" v="locality" />
		<tag k="ssr:stedsnr" v="452720" />
	</node>
	<node lat="59.29778055865427" lon="10.28449999304219" id="-47667">
		<tag k="fixme" v="consider natural=peak for the most distinct mountains in the district" />
		<tag k="name" v="Bekkevaråsen" />
		<tag k="natural" v="hill" />
		<tag k="place" v="locality" />
		<tag k="ssr:stedsnr" v="452747" />
	</node>
	<node lat="59.22979721907833" lon="10.093349992447086" id="-47670">
		<tag k="name" v="Kvennerønningen" />
		<tag k="natural" v="slope" />
		<tag k="place" v="locality" />
		<tag k="ssr:stedsnr" v="452997" />
	</node>
	<node lat="59.281233329271686" lon="10.149819438223536" id="-47671">
		<tag k="fixme" v="consider natural=peak for the most distinct mountains in the district" />
		<tag k="name" v="Halumåsen" />
		<tag k="natural" v="hill" />
		<tag k="place" v="locality" />
		<tag k="ssr:stedsnr" v="452819" />
	</node>
	<node lat="59.20387221886707" lon="10.127816668598555" id="-47672">
		<tag k="fixme" v="consider natural=peak for the most distinct mountains in the district" />
		<tag k="name" v="Husåsen" />
		<tag k="natural" v="hill" />
		<tag k="place" v="locality" />
		<tag k="ssr:stedsnr" v="452839" />
	</node>
	<node lat="59.13947500021896" lon="10.122852781078336" id="-47673">
		<tag k="name" v="Fjeldbolia" />
		<tag k="natural" v="slope" />
		<tag k="place" v="locality" />
		<tag k="ssr:stedsnr" v="452851" />
	</node>
	<node lat="59.137025003128066" lon="10.122294438514823" id="-47674">
		<tag k="name" v="Oredalen" />
		<tag k="natural" v="valley" />
		<tag k="place" v="locality" />
		<tag k="ssr:stedsnr" v="452853" />
	</node>
	<node lat="59.212727779281174" lon="10.130533340843959" id="-47676">
		<tag k="name" v="Plassen" />
		<tag k="place" v="locality" />
		<tag k="ssr:stedsnr" v="452970" />
	</node>
	<node lat="59.11625000075675" lon="10.258055553286857" id="-47679">
		<tag k="fixme" v="consider natural=peak for the most distinct mountains in the district" />
		<tag k="name" v="Ringkollen" />
		<tag k="natural" v="hill" />
		<tag k="place" v="locality" />
		<tag k="ssr:stedsnr" v="453594" />
	</node>
	<node lat="59.21132777868628" lon="10.207749991981315" id="-47688">
		<tag k="fixme" v="consider natural=peak for the most distinct mountains in the district" />
		<tag k="name" v="Flatås" />
		<tag k="natural" v="hill" />
		<tag k="place" v="locality" />
		<tag k="ssr:stedsnr" v="304121" />
	</node>
	<node lat="59.36221111229191" lon="10.068088889693108" id="-47693">
		<tag k="alt_name" v="Åletjørnkollen" />
		<tag k="fixme" v="consider natural=peak for the most distinct mountains in the district" />
		<tag k="name" v="Åletjønnkollen" />
		<tag k="natural" v="hill" />
		<tag k="place" v="locality" />
		<tag k="ssr:stedsnr" v="305210" />
	</node>
	<node lat="59.3769416629902" lon="10.138880555575328" id="-47705">
		<tag k="name" v="Duedalen" />
		<tag k="natural" v="valley" />
		<tag k="place" v="locality" />
		<tag k="ssr:stedsnr" v="330169" />
	</node>
	<node lat="59.34004444549572" lon="10.11404444651083" id="-47707">
		<tag k="fixme" v="consider natural=peak for the most distinct mountains in the district" />
		<tag k="name" v="Spirås" />
		<tag k="natural" v="hill" />
		<tag k="place" v="locality" />
		<tag k="ssr:stedsnr" v="330182" />
	</node>
	<node lat="59.35266666313338" lon="10.07082777138626" id="-47708">
		<tag k="fixme" v="consider natural=peak for the most distinct mountains in the district" />
		<tag k="name" v="Klosteråsen" />
		<tag k="natural" v="hill" />
		<tag k="place" v="locality" />
		<tag k="ssr:stedsnr" v="330185" />
	</node>
	<node lat="59.303769442671566" lon="10.265344438783151" id="-47709">
		<tag k="fixme" v="consider natural=peak for the most distinct mountains in the district" />
		<tag k="name" v="Askedalsåsen" />
		<tag k="natural" v="hill" />
		<tag k="place" v="locality" />
		<tag k="ssr:stedsnr" v="330368" />
	</node>
	<node lat="59.25803888832969" lon="10.144958330847317" id="-47712">
		<tag k="fixme" v="consider natural=peak for the most distinct mountains in the district" />
		<tag k="name" v="Kåssene" />
		<tag k="natural" v="hill" />
		<tag k="place" v="locality" />
		<tag k="ssr:stedsnr" v="330814" />
	</node>
	<node lat="59.215772222876176" lon="10.115383331742855" id="-47715">
		<tag k="fixme" v="consider natural=peak for the most distinct mountains in the district" />
		<tag k="name" v="Tiuråsen" />
		<tag k="natural" v="hill" />
		<tag k="place" v="locality" />
		<tag k="ssr:stedsnr" v="330967" />
	</node>
	<node lat="59.21097500202194" lon="10.069922219985248" id="-47717">
		<tag k="name" v="Kvernebakken" />
		<tag k="natural" v="slope" />
		<tag k="place" v="locality" />
		<tag k="ssr:stedsnr" v="330980" />
	</node>
	<node lat="59.2030305585476" lon="10.11204444337471" id="-47720">
		<tag k="name" v="Brure hølet" />
		<tag k="natural" v="valley" />
		<tag k="place" v="locality" />
		<tag k="ssr:stedsnr" v="330864" />
	</node>
	<node lat="59.12313055769169" lon="10.245452781290608" id="-47741">
		<tag k="alt_name" v="Kamfjordåsane" />
		<tag k="fixme" v="consider natural=peak for the most distinct mountains in the district" />
		<tag k="name" v="Kamfjordåsen" />
		<tag k="natural" v="hill" />
		<tag k="place" v="locality" />
		<tag k="ssr:stedsnr" v="366047" />
	</node>
	<node lat="59.25877500251155" lon="10.003955549550497" id="-47750">
		<tag k="alt_name" v="Andersdalsskarvene" />
		<tag k="name" v="Andersdalskarva" />
		<tag k="natural" v="hill" />
		<tag k="place" v="locality" />
		<tag k="ssr:stedsnr" v="366854" />
	</node>
	<node lat="59.322555559096386" lon="10.123058341903329" id="-47752">
		<tag k="fixme" v="consider natural=peak for the most distinct mountains in the district" />
		<tag k="name" v="Bustingen" />
		<tag k="natural" v="hill" />
		<tag k="place" v="locality" />
		<tag k="ssr:stedsnr" v="366790" />
	</node>
	<node lat="59.28646944041357" lon="10.009494438597615" id="-47756">
		<tag k="fixme" v="consider natural=peak for the most distinct mountains in the district" />
		<tag k="name" v="Granasnekollen" />
		<tag k="natural" v="hill" />
		<tag k="place" v="locality" />
		<tag k="ssr:stedsnr" v="367832" />
	</node>
	<node lat="59.27820555927119" lon="10.02293611221854" id="-47758">
		<tag k="alt_name" v="Plankeås" />
		<tag k="fixme" v="consider natural=peak for the most distinct mountains in the district" />
		<tag k="name" v="Plankeåsen" />
		<tag k="natural" v="hill" />
		<tag k="place" v="locality" />
		<tag k="ssr:stedsnr" v="367893" />
	</node>
	<node lat="59.11193948634312" lon="10.25197108386359" id="-47765">
		<tag k="fixme" v="consider natural=peak for the most distinct mountains in the district" />
		<tag k="name" v="Kariåsen" />
		<tag k="natural" v="hill" />
		<tag k="place" v="locality" />
		<tag k="ssr:stedsnr" v="390310" />
	</node>
	<node lat="59.29044205716064" lon="10.150426765712544" id="-47766">
		<tag k="fixme" v="consider natural=peak for the most distinct mountains in the district" />
		<tag k="name" v="Ulspipa" />
		<tag k="natural" v="hill" />
		<tag k="place" v="locality" />
		<tag k="ssr:stedsnr" v="390353" />
	</node>
	<node lat="59.300419443120006" lon="10.069452775289847" id="-47770">
		<tag k="name" v="Djupdalen" />
		<tag k="natural" v="valley" />
		<tag k="place" v="locality" />
		<tag k="ssr:stedsnr" v="391249" />
	</node>
	<node lat="59.31143611523855" lon="10.17404999679095" id="-47774">
		<tag k="fixme" v="consider natural=peak for the most distinct mountains in the district" />
		<tag k="name" v="Kjørkåsen" />
		<tag k="natural" v="hill" />
		<tag k="place" v="locality" />
		<tag k="ssr:stedsnr" v="391454" />
	</node>
	<node lat="59.14361111073932" lon="10.216388880326107" id="-47785">
		<tag k="fixme" v="consider natural=peak for the most distinct mountains in the district" />
		<tag k="name" v="Midtås" />
		<tag k="natural" v="hill" />
		<tag k="place" v="locality" />
		<tag k="ssr:stedsnr" v="391758" />
	</node>
	<node lat="59.14838889006959" lon="10.233161118764995" id="-47786">
		<tag k="fixme" v="consider natural=peak for the most distinct mountains in the district" />
		<tag k="name" v="Bjørnåsen" />
		<tag k="natural" v="hill" />
		<tag k="place" v="locality" />
		<tag k="ssr:stedsnr" v="391763" />
	</node>
	<node lat="59.259022225404465" lon="10.143841669140032" id="-47787">
		<tag k="name" v="Hesterønningen" />
		<tag k="natural" v="slope" />
		<tag k="place" v="locality" />
		<tag k="ssr:stedsnr" v="391797" />
	</node>
	<node lat="59.269649997340935" lon="10.271130561302423" id="-47788">
		<tag k="fixme" v="consider natural=peak for the most distinct mountains in the district" />
		<tag k="name" v="Huppeåsen" />
		<tag k="natural" v="hill" />
		<tag k="place" v="locality" />
		<tag k="ssr:stedsnr" v="391698" />
	</node>
	<node lat="59.228855557244444" lon="10.04508056143758" id="-47790">
		<tag k="fixme" v="consider natural=peak for the most distinct mountains in the district" />
		<tag k="name" v="Mørkåsen" />
		<tag k="natural" v="hill" />
		<tag k="place" v="locality" />
		<tag k="ssr:stedsnr" v="391809" />
	</node>
	<node lat="59.273405552193104" lon="10.126261117963017" id="-47791">
		<tag k="name" v="Bokemodalen" />
		<tag k="natural" v="valley" />
		<tag k="place" v="locality" />
		<tag k="ssr:stedsnr" v="391810" />
	</node>
	<node lat="59.26116389263804" lon="10.049269443769528" id="-47792">
		<tag k="fixme" v="consider natural=peak for the most distinct mountains in the district" />
		<tag k="name" v="Uleåsen" />
		<tag k="natural" v="hill" />
		<tag k="place" v="locality" />
		<tag k="ssr:stedsnr" v="391817" />
	</node>
	<node lat="59.15936667040512" lon="10.30794166753427" id="-47821">
		<tag k="fixme" v="consider natural=peak for the most distinct mountains in the district" />
		<tag k="name" v="Storåsen" />
		<tag k="natural" v="hill" />
		<tag k="place" v="locality" />
		<tag k="ssr:stedsnr" v="449293" />
	</node>
	<node lat="59.15192500345957" lon="10.288127769653821" id="-47824">
		<tag k="fixme" v="consider natural=peak for the most distinct mountains in the district" />
		<tag k="name" v="Marthesåsen" />
		<tag k="natural" v="hill" />
		<tag k="place" v="locality" />
		<tag k="ssr:stedsnr" v="450299" />
	</node>
	<node lat="59.22073610837751" lon="10.361425000315927" id="-47825">
		<tag k="name" v="Svarteberget" />
		<tag k="natural" v="hill" />
		<tag k="place" v="locality" />
		<tag k="ssr:stedsnr" v="450406" />
	</node>
	<node lat="59.212511111082044" lon="10.338952771383696" id="-47826">
		<tag k="name" v="Solnesbakken" />
		<tag k="natural" v="slope" />
		<tag k="place" v="locality" />
		<tag k="ssr:stedsnr" v="450412" />
	</node>
	<node lat="59.21340555225855" lon="10.336813894508927" id="-47827">
		<tag k="fixme" v="consider natural=peak for the most distinct mountains in the district" />
		<tag k="name" v="Solnes" />
		<tag k="natural" v="hill" />
		<tag k="place" v="locality" />
		<tag k="ssr:stedsnr" v="450413" />
	</node>
	<node lat="59.289652780614276" lon="10.139630552460341" id="-47830">
		<tag k="name" v="Tranget" />
		<tag k="place" v="locality" />
		<tag k="ssr:stedsnr" v="451802" />
	</node>
	<node lat="59.29689166998978" lon="10.097797217688385" id="-47836">
		<tag k="name" v="Elgeberget" />
		<tag k="natural" v="hill" />
		<tag k="place" v="locality" />
		<tag k="ssr:stedsnr" v="452229" />
	</node>
	<node lat="59.281902774627596" lon="10.12036388672484" id="-47842">
		<tag k="fixme" v="consider natural=peak for the most distinct mountains in the district" />
		<tag k="name" v="Byttingåsen" />
		<tag k="natural" v="hill" />
		<tag k="place" v="locality" />
		<tag k="ssr:stedsnr" v="452815" />
	</node>
	<node lat="59.20456389178581" lon="10.102274991789537" id="-47843">
		<tag k="name" v="Tyskedal" />
		<tag k="natural" v="valley" />
		<tag k="place" v="locality" />
		<tag k="ssr:stedsnr" v="452828" />
	</node>
	<node lat="59.16771389086554" lon="10.164347221939877" id="-47846">
		<tag k="name" v="Tryteberget" />
		<tag k="natural" v="hill" />
		<tag k="place" v="locality" />
		<tag k="ssr:stedsnr" v="452722" />
	</node>
	<node lat="59.24693055386854" lon="10.091661111500535" id="-47848">
		<tag k="name" v="Oddelia" />
		<tag k="natural" v="slope" />
		<tag k="place" v="locality" />
		<tag k="ssr:stedsnr" v="452786" />
	</node>
	<node lat="59.27226666780037" lon="10.12186388288259" id="-47849">
		<tag k="fixme" v="consider natural=peak for the most distinct mountains in the district" />
		<tag k="name" v="Obbedalsåsen" />
		<tag k="natural" v="hill" />
		<tag k="place" v="locality" />
		<tag k="ssr:stedsnr" v="452793" />
	</node>
	<node lat="59.23451944033113" lon="10.072344445672595" id="-47851">
		<tag k="fixme" v="consider natural=peak for the most distinct mountains in the district" />
		<tag k="name" v="Furuåsen" />
		<tag k="natural" v="hill" />
		<tag k="place" v="locality" />
		<tag k="ssr:stedsnr" v="452994" />
	</node>
	<node lat="59.16440555124451" lon="10.226361114511691" id="-47858">
		<tag k="fixme" v="consider natural=peak for the most distinct mountains in the district" />
		<tag k="name" v="Hjertås" />
		<tag k="natural" v="hill" />
		<tag k="place" v="locality" />
		<tag k="ssr:stedsnr" v="453704" />
	</node>
	<node lat="59.236130558520166" lon="10.225586107875017" id="-47859">
		<tag k="name" v="Grinnane" />
		<tag k="natural" v="slope" />
		<tag k="place" v="locality" />
		<tag k="ssr:stedsnr" v="453690" />
	</node>
	<node lat="59.18192499641629" lon="10.158844440898982" id="-47880">
		<tag k="fixme" v="consider natural=peak for the most distinct mountains in the district" />
		<tag k="name" v="Eikåsen" />
		<tag k="natural" v="hill" />
		<tag k="place" v="locality" />
		<tag k="ssr:stedsnr" v="487174" />
	</node>
	<node lat="59.24598610822139" lon="10.13987222943595" id="-47881">
		<tag k="fixme" v="consider natural=peak for the most distinct mountains in the district" />
		<tag k="name" v="Vilderåsen" />
		<tag k="natural" v="hill" />
		<tag k="place" v="locality" />
		<tag k="ssr:stedsnr" v="487302" />
	</node>
	<node lat="59.24674999641579" lon="10.08027221578438" id="-47902">
		<tag k="fixme" v="consider natural=peak for the most distinct mountains in the district" />
		<tag k="name" v="Fuglemyråsane" />
		<tag k="natural" v="hill" />
		<tag k="place" v="locality" />
		<tag k="ssr:stedsnr" v="669270" />
	</node>
	<node lat="59.12363055546108" lon="10.249691663026502" id="-47916">
		<tag k="fixme" v="consider natural=peak for the most distinct mountains in the district" />
		<tag k="name" v="Vestvarden" />
		<tag k="natural" v="hill" />
		<tag k="place" v="locality" />
		<tag k="ssr:stedsnr" v="510613" />
	</node>
	<node lat="59.34055833114354" lon="10.04526666395933" id="-47921">
		<tag k="fixme" v="consider natural=peak for the most distinct mountains in the district" />
		<tag k="name" v="Portås" />
		<tag k="natural" v="hill" />
		<tag k="place" v="locality" />
		<tag k="ssr:stedsnr" v="512136" />
	</node>
	<node lat="59.345383334400324" lon="10.172975007921107" id="-47922">
		<tag k="name" v="Svarteknipa" />
		<tag k="natural" v="valley" />
		<tag k="place" v="locality" />
		<tag k="ssr:stedsnr" v="512394" />
	</node>
	<node lat="59.26196666700415" lon="10.256772220415655" id="-47923">
		<tag k="name" v="Dalen" />
		<tag k="natural" v="valley" />
		<tag k="place" v="locality" />
		<tag k="ssr:stedsnr" v="512397" />
	</node>
	<node lat="59.30970833219674" lon="10.158038892370977" id="-47926">
		<tag k="name" v="Svebrekke" />
		<tag k="natural" v="slope" />
		<tag k="place" v="locality" />
		<tag k="ssr:stedsnr" v="512431" />
	</node>
	<node lat="59.27689999650291" lon="10.167497224061416" id="-47927">
		<tag k="fixme" v="consider natural=peak for the most distinct mountains in the district" />
		<tag k="name" v="Skjellandsåsen" />
		<tag k="natural" v="hill" />
		<tag k="place" v="locality" />
		<tag k="ssr:stedsnr" v="512494" />
	</node>
	<node lat="59.07560555898877" lon="10.265086119789954" id="-47931">
		<tag k="name" v="Urdeåsen" />
		<tag k="natural" v="hill" />
		<tag k="place" v="locality" />
		<tag k="ssr:stedsnr" v="512629" />
	</node>
	<node lat="59.264833331988314" lon="10.144638896893726" id="-47936">
		<tag k="name" v="Hagalia" />
		<tag k="natural" v="slope" />
		<tag k="place" v="locality" />
		<tag k="ssr:stedsnr" v="512789" />
	</node>
	<node lat="59.181294445049176" lon="10.143080560204336" id="-47938">
		<tag k="fixme" v="consider natural=peak for the most distinct mountains in the district" />
		<tag k="name" v="Langekilåsen" />
		<tag k="natural" v="hill" />
		<tag k="place" v="locality" />
		<tag k="ssr:stedsnr" v="512793" />
	</node>
	<node lat="59.248897222985136" lon="10.092658337632775" id="-47941">
		<tag k="name" v="Burvald" />
		<tag k="natural" v="valley" />
		<tag k="place" v="locality" />
		<tag k="ssr:stedsnr" v="512798" />
	</node>
	<node lat="59.19044722202709" lon="10.130508340772321" id="-47943">
		<tag k="name" v="Skjedalen" />
		<tag k="natural" v="valley" />
		<tag k="place" v="locality" />
		<tag k="ssr:stedsnr" v="512827" />
	</node>
	<node lat="59.10702777783836" lon="10.252874996556578" id="-47947">
		<tag k="fixme" v="consider natural=peak for the most distinct mountains in the district" />
		<tag k="name" v="Holtåsen" />
		<tag k="natural" v="hill" />
		<tag k="place" v="locality" />
		<tag k="ssr:stedsnr" v="513612" />
	</node>
	<node lat="59.3208388858078" lon="10.042297224519936" id="-47969">
		<tag k="name" v="Glovåsen" />
		<tag k="natural" v="hill" />
		<tag k="place" v="locality" />
		<tag k="ssr:stedsnr" v="549759" />
	</node>
	<node lat="59.20253610836699" lon="10.301730547027605" id="-47971">
		<tag k="name" v="Stubberød" />
		<tag k="place" v="locality" />
		<tag k="ssr:stedsnr" v="570209" />
	</node>
	<node lat="59.13354999608253" lon="10.28310833743113" id="-47972">
		<tag k="fixme" v="consider natural=peak for the most distinct mountains in the district" />
		<tag k="name" v="Klokkatolvåsen" />
		<tag k="natural" v="hill" />
		<tag k="place" v="locality" />
		<tag k="ssr:stedsnr" v="570215" />
	</node>
	<node lat="59.354966665196116" lon="10.04633889010026" id="-47978">
		<tag k="name" v="Delingsdalen" />
		<tag k="natural" v="valley" />
		<tag k="place" v="locality" />
		<tag k="ssr:stedsnr" v="572556" />
	</node>
	<node lat="59.345202777665335" lon="10.169463888635786" id="-47982">
		<tag k="fixme" v="consider natural=peak for the most distinct mountains in the district" />
		<tag k="name" v="Uleberget" />
		<tag k="natural" v="hill" />
		<tag k="place" v="locality" />
		<tag k="ssr:stedsnr" v="573366" />
	</node>
	<node lat="59.25079444474581" lon="10.214458324964376" id="-47983">
		<tag k="name" v="Gravdal" />
		<tag k="natural" v="valley" />
		<tag k="place" v="locality" />
		<tag k="ssr:stedsnr" v="573371" />
	</node>
	<node lat="59.32985000373038" lon="10.077900004528962" id="-47985">
		<tag k="name" v="Vassbånn" />
		<tag k="place" v="locality" />
		<tag k="ssr:stedsnr" v="573206" />
	</node>
	<node lat="59.323811110559255" lon="10.218938892759404" id="-47987">
		<tag k="fixme" v="consider natural=peak for the most distinct mountains in the district" />
		<tag k="name" v="Fjosåsen" />
		<tag k="natural" v="hill" />
		<tag k="place" v="locality" />
		<tag k="ssr:stedsnr" v="573416" />
	</node>
	<node lat="59.19698888667256" lon="10.121650003060063" id="-47988">
		<tag k="fixme" v="consider natural=peak for the most distinct mountains in the district" />
		<tag k="name" v="Brånaråsen" />
		<tag k="natural" v="hill" />
		<tag k="place" v="locality" />
		<tag k="ssr:stedsnr" v="573808" />
	</node>
	<node lat="59.19838333559797" lon="10.106858338557213" id="-47989">
		<tag k="fixme" v="consider natural=peak for the most distinct mountains in the district" />
		<tag k="name" v="Siriåsen" />
		<tag k="natural" v="hill" />
		<tag k="place" v="locality" />
		<tag k="ssr:stedsnr" v="573809" />
	</node>
	<node lat="59.087733336448636" lon="10.19663054815321" id="-47991">
		<tag k="fixme" v="consider natural=peak for the most distinct mountains in the district" />
		<tag k="name" v="Påskeåsen" />
		<tag k="natural" v="hill" />
		<tag k="place" v="locality" />
		<tag k="ssr:stedsnr" v="573503" />
	</node>
	<node lat="59.09291110726901" lon="10.218294438665891" id="-47992">
		<tag k="name" v="Lønneglovene" />
		<tag k="natural" v="valley" />
		<tag k="place" v="locality" />
		<tag k="ssr:stedsnr" v="573507" />
	</node>
	<node lat="59.0840027802644" lon="10.262333332691593" id="-47993">
		<tag k="name" v="Steinglova" />
		<tag k="natural" v="valley" />
		<tag k="place" v="locality" />
		<tag k="ssr:stedsnr" v="573513" />
	</node>
	<node lat="59.23809166447462" lon="10.143769449247028" id="-47998">
		<tag k="fixme" v="consider natural=peak for the most distinct mountains in the district" />
		<tag k="name" v="Verpedalsås" />
		<tag k="natural" v="hill" />
		<tag k="place" v="locality" />
		<tag k="ssr:stedsnr" v="573986" />
	</node>
	<node lat="59.251608337086715" lon="10.206724996380194" id="-47999">
		<tag k="fixme" v="consider natural=peak for the most distinct mountains in the district" />
		<tag k="name" v="Holtan" />
		<tag k="natural" v="hill" />
		<tag k="place" v="locality" />
		<tag k="ssr:stedsnr" v="574454" />
	</node>
	<node lat="59.26615555148993" lon="10.18435832896334" id="-48001">
		<tag k="fixme" v="consider natural=peak for the most distinct mountains in the district" />
		<tag k="name" v="Vinnelrødåsen" />
		<tag k="natural" v="hill" />
		<tag k="place" v="locality" />
		<tag k="ssr:stedsnr" v="574458" />
	</node>
	<node lat="59.283122224711626" lon="10.226288894508702" id="-48002">
		<tag k="fixme" v="consider natural=peak for the most distinct mountains in the district" />
		<tag k="name" v="Åsåsen" />
		<tag k="natural" v="hill" />
		<tag k="place" v="locality" />
		<tag k="ssr:stedsnr" v="574465" />
	</node>
	<node lat="59.142891670952835" lon="10.151111106388052" id="-48004">
		<tag k="fixme" v="consider natural=peak for the most distinct mountains in the district" />
		<tag k="name" v="Pinseåsen" />
		<tag k="natural" v="hill" />
		<tag k="place" v="locality" />
		<tag k="ssr:stedsnr" v="607022" />
	</node>
	<node lat="59.24597499733394" lon="10.190455561093835" id="-48015">
		<tag k="fixme" v="consider natural=peak for the most distinct mountains in the district" />
		<tag k="name" v="Bastelinsåsen" />
		<tag k="natural" v="hill" />
		<tag k="place" v="locality" />
		<tag k="ssr:stedsnr" v="608301" />
	</node>
	<node lat="59.19385555815601" lon="10.298950006649891" id="-48028">
		<tag k="name" v="Kleppan V" />
		<tag k="natural" v="hill" />
		<tag k="place" v="locality" />
		<tag k="ssr:stedsnr" v="631455" />
	</node>
	<node lat="59.341141670593906" lon="10.170200004625489" id="-48031">
		<tag k="name" v="Paltene" />
		<tag k="natural" v="slope" />
		<tag k="place" v="locality" />
		<tag k="ssr:stedsnr" v="633414" />
	</node>
	<node lat="59.33648888916428" lon="10.177122229346873" id="-48033">
		<tag k="name" v="Almedal" />
		<tag k="natural" v="valley" />
		<tag k="place" v="locality" />
		<tag k="ssr:stedsnr" v="633385" />
	</node>
	<node lat="59.315694442158545" lon="10.035369440465862" id="-48036">
		<tag k="name" v="Dammyrlegda" />
		<tag k="natural" v="slope" />
		<tag k="place" v="locality" />
		<tag k="ssr:stedsnr" v="633593" />
	</node>
	<node lat="59.14004721809047" lon="10.193091670392542" id="-48039">
		<tag k="fixme" v="consider natural=peak for the most distinct mountains in the district" />
		<tag k="name" v="Svartås" />
		<tag k="natural" v="hill" />
		<tag k="place" v="locality" />
		<tag k="ssr:stedsnr" v="633790" />
	</node>
	<node lat="59.27559999710333" lon="10.119463889960743" id="-48043">
		<tag k="fixme" v="consider natural=peak for the most distinct mountains in the district" />
		<tag k="name" v="Flatås" />
		<tag k="natural" v="hill" />
		<tag k="place" v="locality" />
		<tag k="ssr:stedsnr" v="633839" />
	</node>
	<node lat="59.19312499983282" lon="10.150594444905915" id="-48044">
		<tag k="name" v="Kleggedalen" />
		<tag k="natural" v="valley" />
		<tag k="place" v="locality" />
		<tag k="ssr:stedsnr" v="633843" />
	</node>
	<node lat="59.19023332956555" lon="10.301677782684845" id="-48048">
		<tag k="name" v="Stavnumlia" />
		<tag k="natural" v="valley" />
		<tag k="place" v="locality" />
		<tag k="ssr:stedsnr" v="692445" />
	</node>
	<node lat="59.21376666614858" lon="10.307527770348841" id="-48051">
		<tag k="fixme" v="consider natural=peak for the most distinct mountains in the district" />
		<tag k="name" v="Hvålsåsen" />
		<tag k="natural" v="hill" />
		<tag k="place" v="locality" />
		<tag k="ssr:stedsnr" v="693436" />
	</node>
	<node lat="59.23905000344362" lon="10.33359444096884" id="-48055">
		<tag k="name" v="Saueberget" />
		<tag k="natural" v="hill" />
		<tag k="place" v="locality" />
		<tag k="ssr:stedsnr" v="693459" />
	</node>
	<node lat="59.2895138911311" lon="10.042366663019873" id="-48063">
		<tag k="name" v="Rønningen" />
		<tag k="place" v="locality" />
		<tag k="ssr:stedsnr" v="694639" />
	</node>
	<node lat="59.32432499752725" lon="10.028672223879775" id="-48064">
		<tag k="name" v="Halvorslier" />
		<tag k="natural" v="slope" />
		<tag k="place" v="locality" />
		<tag k="ssr:stedsnr" v="694605" />
	</node>
	<node lat="59.26303055947748" lon="10.114497215143325" id="-48066">
		<tag k="fixme" v="consider natural=peak for the most distinct mountains in the district" />
		<tag k="name" v="Storemyråsane" />
		<tag k="natural" v="hill" />
		<tag k="place" v="locality" />
		<tag k="ssr:stedsnr" v="694760" />
	</node>
	<node lat="59.3533916650686" lon="10.118494444183868" id="-48069">
		<tag k="fixme" v="consider natural=peak for the most distinct mountains in the district" />
		<tag k="name" v="Dalaåsen" />
		<tag k="natural" v="hill" />
		<tag k="place" v="locality" />
		<tag k="ssr:stedsnr" v="695164" />
	</node>
	<node lat="59.33325555749987" lon="10.137949999397254" id="-48070">
		<tag k="name" v="Galteryggen" />
		<tag k="natural" v="ridge" />
		<tag k="place" v="locality" />
		<tag k="ssr:stedsnr" v="695228" />
	</node>
	<node lat="59.32450555686808" lon="10.127519449956761" id="-48071">
		<tag k="fixme" v="consider natural=peak for the most distinct mountains in the district" />
		<tag k="name" v="Kviåsen" />
		<tag k="natural" v="hill" />
		<tag k="place" v="locality" />
		<tag k="ssr:stedsnr" v="695233" />
	</node>
	<node lat="59.31513055667449" lon="10.131369438099831" id="-48072">
		<tag k="name" v="Barlindsletta" />
		<tag k="place" v="locality" />
		<tag k="ssr:stedsnr" v="695236" />
	</node>
	<node lat="59.299266664108366" lon="10.05622777391153" id="-48075">
		<tag k="fixme" v="consider natural=peak for the most distinct mountains in the district" />
		<tag k="name" v="Våtåsen" />
		<tag k="natural" v="hill" />
		<tag k="place" v="locality" />
		<tag k="ssr:stedsnr" v="695246" />
	</node>
	<node lat="59.29707221999211" lon="10.184841674720285" id="-48078">
		<tag k="fixme" v="consider natural=peak for the most distinct mountains in the district" />
		<tag k="name" v="Kjoneåsen" />
		<tag k="natural" v="hill" />
		<tag k="place" v="locality" />
		<tag k="ssr:stedsnr" v="695359" />
	</node>
	<node lat="59.30292777994966" lon="10.166313885636676" id="-48083">
		<tag k="name" v="Stigen" />
		<tag k="natural" v="slope" />
		<tag k="place" v="locality" />
		<tag k="ssr:stedsnr" v="695446" />
	</node>
	<node lat="59.08638888544718" lon="10.258888892522554" id="-48088">
		<tag k="name" v="Sjøbakken" />
		<tag k="place" v="locality" />
		<tag k="ssr:stedsnr" v="695555" />
	</node>
	<node lat="59.18151666825847" lon="10.168711107004555" id="-48094">
		<tag k="name" v="Rønningbakken" />
		<tag k="natural" v="slope" />
		<tag k="place" v="locality" />
		<tag k="ssr:stedsnr" v="695728" />
	</node>
	<node lat="59.15724166524581" lon="10.248869437486766" id="-48095">
		<tag k="fixme" v="consider natural=peak for the most distinct mountains in the district" />
		<tag k="name" v="Påskeåsen" />
		<tag k="natural" v="hill" />
		<tag k="place" v="locality" />
		<tag k="ssr:stedsnr" v="695738" />
	</node>
	<node lat="59.138344443590476" lon="10.225347227914662" id="-48097">
		<tag k="fixme" v="consider natural=peak for the most distinct mountains in the district" />
		<tag k="name" v="Mølleråsen" />
		<tag k="natural" v="hill" />
		<tag k="place" v="locality" />
		<tag k="ssr:stedsnr" v="695752" />
	</node>
	<node lat="59.237758329361114" lon="10.131497213361756" id="-48100">
		<tag k="fixme" v="consider natural=peak for the most distinct mountains in the district" />
		<tag k="name" v="Kørpås" />
		<tag k="natural" v="hill" />
		<tag k="place" v="locality" />
		<tag k="ssr:stedsnr" v="695994" />
	</node>
	<node lat="59.281463892573726" lon="10.142538887131003" id="-48115">
		<tag k="fixme" v="consider natural=peak for the most distinct mountains in the district" />
		<tag k="name" v="Flåttåsen" />
		<tag k="natural" v="hill" />
		<tag k="place" v="locality" />
		<tag k="ssr:stedsnr" v="670829" />
	</node>
	<node lat="59.055691671051605" lon="10.274186105126619" id="-48118">
		<tag k="name" v="Krokekollen" />
		<tag k="natural" v="hill" />
		<tag k="place" v="locality" />
		<tag k="ssr:stedsnr" v="692306" />
	</node>
	<node lat="59.22024722563667" lon="10.336280563771547" id="-48120">
		<tag k="fixme" v="consider natural=peak for the most distinct mountains in the district" />
		<tag k="name" v="Melsomvik" />
		<tag k="natural" v="hill" />
		<tag k="place" v="locality" />
		<tag k="ssr:stedsnr" v="692386" />
	</node>
	<node lat="59.28199999823532" lon="10.109447228123754" id="-48126">
		<tag k="fixme" v="consider natural=peak for the most distinct mountains in the district" />
		<tag k="name" v="Lauvås" />
		<tag k="natural" v="hill" />
		<tag k="place" v="locality" />
		<tag k="ssr:stedsnr" v="694782" />
	</node>
	<node lat="59.28845833020067" lon="10.080633333918108" id="-48132">
		<tag k="name" v="Enga" />
		<tag k="place" v="locality" />
		<tag k="ssr:stedsnr" v="694805" />
	</node>
	<node lat="59.290658329206" lon="10.102413895285249" id="-48134">
		<tag k="name" v="Ringdal" />
		<tag k="natural" v="valley" />
		<tag k="place" v="locality" />
		<tag k="ssr:stedsnr" v="694811" />
	</node>
	<node lat="59.34985555355737" lon="10.063116675356941" id="-48135">
		<tag k="fixme" v="consider natural=peak for the most distinct mountains in the district" />
		<tag k="name" v="Elveåsane" />
		<tag k="natural" v="hill" />
		<tag k="place" v="locality" />
		<tag k="ssr:stedsnr" v="695172" />
	</node>
	<node lat="59.32269166311596" lon="10.046988883837312" id="-48138">
		<tag k="name" v="Haralegda" />
		<tag k="natural" v="slope" />
		<tag k="place" v="locality" />
		<tag k="ssr:stedsnr" v="695213" />
	</node>
	<node lat="59.300277773505506" lon="10.122644436041105" id="-48139">
		<tag k="name" v="Tamburhaugen" />
		<tag k="natural" v="hill" />
		<tag k="place" v="locality" />
		<tag k="ssr:stedsnr" v="695271" />
	</node>
	<node lat="59.19505833095726" lon="10.170086107780957" id="-48141">
		<tag k="name" v="Drangedalen" />
		<tag k="natural" v="valley" />
		<tag k="place" v="locality" />
		<tag k="ssr:stedsnr" v="695708" />
	</node>
	<node lat="59.26567778200331" lon="10.069558335516277" id="-48143">
		<tag k="name" v="Haukeli" />
		<tag k="natural" v="slope" />
		<tag k="place" v="locality" />
		<tag k="ssr:stedsnr" v="695783" />
	</node>
	<node lat="59.22508611015552" lon="10.087844443074877" id="-48147">
		<tag k="fixme" v="consider natural=peak for the most distinct mountains in the district" />
		<tag k="name" v="Barlindknatten" />
		<tag k="natural" v="hill" />
		<tag k="place" v="locality" />
		<tag k="ssr:stedsnr" v="695977" />
	</node>
	<node lat="59.226424996123136" lon="10.060713887966097" id="-48150">
		<tag k="name" v="Tveitanholmen" />
		<tag k="place" v="locality" />
		<tag k="ssr:stedsnr" v="695988" />
	</node>
	<node lat="59.24427500178545" lon="10.134325008685162" id="-48151">
		<tag k="name" v="Hov øvre" />
		<tag k="natural" v="hill" />
		<tag k="place" v="locality" />
		<tag k="ssr:stedsnr" v="695989" />
	</node>
	<node lat="59.14937499939659" lon="10.234286108273619" id="-48158">
		<tag k="fixme" v="consider natural=peak for the most distinct mountains in the district" />
		<tag k="name" v="Drakeåsen" />
		<tag k="natural" v="hill" />
		<tag k="place" v="locality" />
		<tag k="ssr:stedsnr" v="729006" />
	</node>
	<node lat="59.14284167116259" lon="10.134205556605355" id="-48159">
		<tag k="fixme" v="consider natural=peak for the most distinct mountains in the district" />
		<tag k="name" v="Midtåsen" />
		<tag k="natural" v="hill" />
		<tag k="place" v="locality" />
		<tag k="ssr:stedsnr" v="729022" />
	</node>
	<node lat="59.2972694411814" lon="10.167474995880784" id="-48169">
		<tag k="fixme" v="consider natural=peak for the most distinct mountains in the district" />
		<tag k="name" v="Vetan" />
		<tag k="natural" v="hill" />
		<tag k="place" v="locality" />
		<tag k="ssr:stedsnr" v="731810" />
	</node>
	<node lat="59.15363333662244" lon="10.308030559231698" id="-48178">
		<tag k="alt_name" v="Ronsås" />
		<tag k="fixme" v="consider natural=peak for the most distinct mountains in the district" />
		<tag k="name" v="Rønnsåsen" />
		<tag k="natural" v="hill" />
		<tag k="place" v="locality" />
		<tag k="ssr:stedsnr" v="752266" />
	</node>
	<node lat="59.22376944443674" lon="10.331541659099155" id="-48183">
		<tag k="name" v="Gullhaugen" />
		<tag k="natural" v="hill" />
		<tag k="place" v="locality" />
		<tag k="ssr:stedsnr" v="753366" />
	</node>
	<node lat="59.13592499983949" lon="10.315177771252127" id="-48186">
		<tag k="name" v="Hamburgkilen" />
		<tag k="place" v="locality" />
		<tag k="ssr:stedsnr" v="753207" />
	</node>
	<node lat="59.09870555825154" lon="10.292505556367866" id="-48189">
		<tag k="name" v="Vatnhaugen" />
		<tag k="natural" v="hill" />
		<tag k="place" v="locality" />
		<tag k="ssr:stedsnr" v="753274" />
	</node>
	<node lat="59.18020277735132" lon="10.30831667134383" id="-48190">
		<tag k="fixme" v="consider natural=peak for the most distinct mountains in the district" />
		<tag k="name" v="Hauganåsen" />
		<tag k="natural" v="hill" />
		<tag k="place" v="locality" />
		<tag k="ssr:stedsnr" v="753410" />
	</node>
	<node lat="59.17378333069396" lon="10.320499999520322" id="-48192">
		<tag k="name" v="Vestre Skravestadkollen" />
		<tag k="natural" v="hill" />
		<tag k="place" v="locality" />
		<tag k="ssr:stedsnr" v="754602" />
	</node>
	<node lat="59.2887888928323" lon="10.093116674392167" id="-48193">
		<tag k="name" v="Rønningen" />
		<tag k="natural" v="slope" />
		<tag k="place" v="locality" />
		<tag k="ssr:stedsnr" v="754805" />
	</node>
	<node lat="59.27425555906242" lon="10.049041666257263" id="-48194">
		<tag k="name" v="Kultestykket" />
		<tag k="natural" v="slope" />
		<tag k="place" v="locality" />
		<tag k="ssr:stedsnr" v="754815" />
	</node>
	<node lat="59.32038332945992" lon="10.053611103629041" id="-48197">
		<tag k="fixme" v="consider natural=peak for the most distinct mountains in the district" />
		<tag k="name" v="Hynneåsen" />
		<tag k="natural" v="hill" />
		<tag k="place" v="locality" />
		<tag k="ssr:stedsnr" v="755208" />
	</node>
	<node lat="59.32985278226133" lon="10.047891658455592" id="-48199">
		<tag k="fixme" v="consider natural=peak for the most distinct mountains in the district" />
		<tag k="name" v="Tussehaugen" />
		<tag k="natural" v="hill" />
		<tag k="place" v="locality" />
		<tag k="ssr:stedsnr" v="755212" />
	</node>
	<node lat="59.29701110806856" lon="10.131383335019459" id="-48201">
		<tag k="name" v="Godokk" />
		<tag k="place" v="locality" />
		<tag k="ssr:stedsnr" v="755263" />
	</node>
	<node lat="59.33403889048217" lon="10.1233722307356" id="-48207">
		<tag k="name" v="Torestykket" />
		<tag k="natural" v="valley" />
		<tag k="place" v="locality" />
		<tag k="ssr:stedsnr" v="755202" />
	</node>
	<node lat="59.06946111291404" lon="10.264688881400406" id="-48215">
		<tag k="name" v="Husefjellet" />
		<tag k="natural" v="hill" />
		<tag k="place" v="locality" />
		<tag k="ssr:stedsnr" v="755613" />
	</node>
	<node lat="59.2515555589435" lon="10.299802770950894" id="-48216">
		<tag k="name" v="Sletta" />
		<tag k="place" v="locality" />
		<tag k="ssr:stedsnr" v="755660" />
	</node>
	<node lat="59.12378610787577" lon="10.24124167393281" id="-48218">
		<tag k="fixme" v="consider natural=peak for the most distinct mountains in the district" />
		<tag k="name" v="Fjellvikåsen" />
		<tag k="natural" v="hill" />
		<tag k="place" v="locality" />
		<tag k="ssr:stedsnr" v="755757" />
	</node>
	<node lat="59.21578333417537" lon="10.122838896020685" id="-48222">
		<tag k="fixme" v="consider natural=peak for the most distinct mountains in the district" />
		<tag k="name" v="Kjempås" />
		<tag k="natural" v="hill" />
		<tag k="place" v="locality" />
		<tag k="ssr:stedsnr" v="755958" />
	</node>
	<node lat="59.25501944669146" lon="10.072083332065784" id="-48225">
		<tag k="fixme" v="consider natural=peak for the most distinct mountains in the district" />
		<tag k="name" v="Pålåsen" />
		<tag k="natural" v="hill" />
		<tag k="place" v="locality" />
		<tag k="ssr:stedsnr" v="755805" />
	</node>
	<node lat="59.28294166656664" lon="10.125541660074838" id="-48226">
		<tag k="name" v="Demmingsdalen" />
		<tag k="natural" v="valley" />
		<tag k="place" v="locality" />
		<tag k="ssr:stedsnr" v="755813" />
	</node>
	<node lat="59.28270277987863" lon="10.264747221416764" id="-48231">
		<tag k="name" v="Korsebrekke" />
		<tag k="natural" v="slope" />
		<tag k="place" v="locality" />
		<tag k="ssr:stedsnr" v="756413" />
	</node>
	<node lat="59.32759999946929" lon="10.03716666063896" id="-48254">
		<tag k="fixme" v="consider natural=peak for the most distinct mountains in the district" />
		<tag k="name" v="Gørpusåsen" />
		<tag k="natural" v="hill" />
		<tag k="place" v="locality" />
		<tag k="ssr:stedsnr" v="791806" />
	</node>
	<node lat="59.316697223828285" lon="10.041561117783678" id="-48270">
		<tag k="fixme" v="consider natural=peak for the most distinct mountains in the district" />
		<tag k="name" v="Torsås" />
		<tag k="natural" v="hill" />
		<tag k="place" v="locality" />
		<tag k="ssr:stedsnr" v="815524" />
	</node>
	<node lat="59.27592777760182" lon="10.052938894016608" id="-48273">
		<tag k="name" v="Svevedalen" />
		<tag k="natural" v="valley" />
		<tag k="place" v="locality" />
		<tag k="ssr:stedsnr" v="815827" />
	</node>
	<node lat="59.30567222461113" lon="10.159069443503705" id="-48277">
		<tag k="name" v="Amurlegda" />
		<tag k="natural" v="valley" />
		<tag k="place" v="locality" />
		<tag k="ssr:stedsnr" v="816429" />
	</node>
	<node lat="59.34617222593087" lon="10.168919436704284" id="-48278">
		<tag k="name" v="Kastekleiva" />
		<tag k="natural" v="slope" />
		<tag k="place" v="locality" />
		<tag k="ssr:stedsnr" v="816388" />
	</node>
	<node lat="59.1939111093934" lon="10.115138897451693" id="-48281">
		<tag k="name" v="Hvitsteinteien" />
		<tag k="place" v="locality" />
		<tag k="ssr:stedsnr" v="816833" />
	</node>
	<node lat="59.08041666500179" lon="10.263888895246692" id="-48283">
		<tag k="fixme" v="consider natural=peak for the most distinct mountains in the district" />
		<tag k="name" v="Traåsen" />
		<tag k="natural" v="hill" />
		<tag k="place" v="locality" />
		<tag k="ssr:stedsnr" v="816774" />
	</node>
	<node lat="59.155866666894354" lon="10.251266659632007" id="-48286">
		<tag k="fixme" v="consider natural=peak for the most distinct mountains in the district" />
		<tag k="name" v="Stubbåsen" />
		<tag k="natural" v="hill" />
		<tag k="place" v="locality" />
		<tag k="ssr:stedsnr" v="816789" />
	</node>
	<node lat="59.218283332523875" lon="10.069516672873675" id="-48289">
		<tag k="fixme" v="consider natural=peak for the most distinct mountains in the district" />
		<tag k="name" v="Sagåsen" />
		<tag k="natural" v="hill" />
		<tag k="place" v="locality" />
		<tag k="ssr:stedsnr" v="816979" />
	</node>
	<node lat="59.24680555492444" lon="10.19450832721107" id="-48295">
		<tag k="fixme" v="consider natural=peak for the most distinct mountains in the district" />
		<tag k="name" v="Kjegla" />
		<tag k="natural" v="hill" />
		<tag k="place" v="locality" />
		<tag k="ssr:stedsnr" v="817677" />
	</node>
	<node lat="59.163275001715405" lon="10.23756666804971" id="-48308">
		<tag k="fixme" v="consider natural=peak for the most distinct mountains in the district" />
		<tag k="name" v="Storåsen" />
		<tag k="natural" v="hill" />
		<tag k="place" v="locality" />
		<tag k="ssr:stedsnr" v="912312" />
	</node>
	<node lat="59.229063886390634" lon="10.370261110596562" id="-48317">
		<tag k="fixme" v="consider natural=peak for the most distinct mountains in the district" />
		<tag k="name" v="Olsåsen" />
		<tag k="natural" v="hill" />
		<tag k="place" v="locality" />
		<tag k="ssr:stedsnr" v="851024" />
	</node>
	<node lat="59.30125080750137" lon="10.278394916296643" id="-48330">
		<tag k="name" v="Dalen" />
		<tag k="natural" v="valley" />
		<tag k="place" v="locality" />
		<tag k="ssr:stedsnr" v="853822" />
	</node>
	<node lat="59.32129444787129" lon="10.082075008193108" id="-48334">
		<tag k="fixme" v="consider natural=peak for the most distinct mountains in the district" />
		<tag k="name" v="Nesåsen" />
		<tag k="natural" v="hill" />
		<tag k="place" v="locality" />
		<tag k="ssr:stedsnr" v="913770" />
	</node>
	<node lat="59.057999995742925" lon="10.27272499570924" id="-48352">
		<tag k="name" v="Strangeberget" />
		<tag k="natural" v="hill" />
		<tag k="place" v="locality" />
		<tag k="ssr:stedsnr" v="874363" />
	</node>
	<node lat="59.37902499755209" lon="10.078213880700597" id="-48358">
		<tag k="name" v="Brånafjell" />
		<tag k="natural" v="hill" />
		<tag k="place" v="locality" />
		<tag k="ssr:stedsnr" v="876365" />
	</node>
	<node lat="59.346658332846985" lon="10.110605561085146" id="-48362">
		<tag k="fixme" v="consider natural=peak for the most distinct mountains in the district" />
		<tag k="name" v="Tjuvbergåsen" />
		<tag k="natural" v="hill" />
		<tag k="place" v="locality" />
		<tag k="ssr:stedsnr" v="877143" />
	</node>
	<node lat="59.107333331088924" lon="10.260999995670298" id="-48375">
		<tag k="fixme" v="consider natural=peak for the most distinct mountains in the district" />
		<tag k="name" v="Rambergåsen" />
		<tag k="natural" v="hill" />
		<tag k="place" v="locality" />
		<tag k="ssr:stedsnr" v="877604" />
	</node>
	<node lat="59.2537666658395" lon="10.063727777325003" id="-48376">
		<tag k="fixme" v="consider natural=peak for the most distinct mountains in the district" />
		<tag k="name" v="Fuglemyråsane" />
		<tag k="natural" v="hill" />
		<tag k="place" v="locality" />
		<tag k="ssr:stedsnr" v="877809" />
	</node>
	<node lat="59.25194722468382" lon="10.057888883620773" id="-48377">
		<tag k="fixme" v="consider natural=peak for the most distinct mountains in the district" />
		<tag k="name" v="Tysbaståsen" />
		<tag k="natural" v="hill" />
		<tag k="place" v="locality" />
		<tag k="ssr:stedsnr" v="877811" />
	</node>
	<node lat="59.28654999683274" lon="10.119949991959903" id="-48378">
		<tag k="fixme" v="consider natural=peak for the most distinct mountains in the district" />
		<tag k="name" v="Brånaåsen" />
		<tag k="natural" v="hill" />
		<tag k="place" v="locality" />
		<tag k="ssr:stedsnr" v="877818" />
	</node>
	<node lat="59.18876666671412" lon="10.140458325352459" id="-48379">
		<tag k="name" v="Vassengane" />
		<tag k="place" v="locality" />
		<tag k="ssr:stedsnr" v="877819" />
	</node>
	<node lat="59.22502499791063" lon="10.241300000695498" id="-48381">
		<tag k="name" v="Sørli" />
		<tag k="natural" v="slope" />
		<tag k="place" v="locality" />
		<tag k="ssr:stedsnr" v="877716" />
	</node>
	<node lat="59.24075278188506" lon="10.085216662314336" id="-48403">
		<tag k="alt_name" v="N. Barlindglovåsane" />
		<tag k="fixme" v="consider natural=peak for the most distinct mountains in the district" />
		<tag k="name" v="Barlindglovåsane" />
		<tag k="natural" v="hill" />
		<tag k="place" v="locality" />
		<tag k="ssr:stedsnr" v="912346" />
	</node>
	<node lat="59.05381666926793" lon="10.275608339639449" id="-48413">
		<tag k="name" v="Krokane" />
		<tag k="place" v="locality" />
		<tag k="ssr:stedsnr" v="935342" />
	</node>
	<node lat="59.346036114756615" lon="10.067222219304831" id="-48419">
		<tag k="fixme" v="consider natural=peak for the most distinct mountains in the district" />
		<tag k="name" v="Dylledalsåsen" />
		<tag k="natural" v="hill" />
		<tag k="place" v="locality" />
		<tag k="ssr:stedsnr" v="937192" />
	</node>
	<node lat="59.314686112650726" lon="10.04781389343518" id="-48421">
		<tag k="name" v="Lykkja" />
		<tag k="place" v="locality" />
		<tag k="ssr:stedsnr" v="937239" />
	</node>
	<node lat="59.31639722511188" lon="10.063222220692275" id="-48423">
		<tag k="name" v="Høgenhall" />
		<tag k="natural" v="slope" />
		<tag k="place" v="locality" />
		<tag k="ssr:stedsnr" v="937249" />
	</node>
	<node lat="59.29523333170915" lon="10.151299993570577" id="-48425">
		<tag k="name" v="Krokenga" />
		<tag k="natural" v="slope" />
		<tag k="place" v="locality" />
		<tag k="ssr:stedsnr" v="937286" />
	</node>
	<node lat="59.12261944175418" lon="10.248172226684494" id="-48429">
		<tag k="name" v="Anilla" />
		<tag k="natural" v="valley" />
		<tag k="place" v="locality" />
		<tag k="ssr:stedsnr" v="937741" />
	</node>
	<node lat="59.11808055832272" lon="10.203369449386603" id="-48430">
		<tag k="name" v="Fetjalund" />
		<tag k="natural" v="hill" />
		<tag k="place" v="locality" />
		<tag k="ssr:stedsnr" v="937635" />
	</node>
	<node lat="59.11551389025667" lon="10.159922222095064" id="-48431">
		<tag k="name" v="Kjær" />
		<tag k="place" v="locality" />
		<tag k="ssr:stedsnr" v="937638" />
	</node>
	<node lat="59.244005553224795" lon="10.142386105952045" id="-48432">
		<tag k="fixme" v="consider natural=peak for the most distinct mountains in the district" />
		<tag k="name" v="Gledisås" />
		<tag k="natural" v="hill" />
		<tag k="place" v="locality" />
		<tag k="ssr:stedsnr" v="937989" />
	</node>
	<node lat="59.248638892719654" lon="10.125216674661047" id="-48433">
		<tag k="fixme" v="consider natural=peak for the most distinct mountains in the district" />
		<tag k="name" v="Damåsen" />
		<tag k="natural" v="hill" />
		<tag k="place" v="locality" />
		<tag k="ssr:stedsnr" v="937999" />
	</node>
	<node lat="59.28242777538635" lon="10.067624999893432" id="-48434">
		<tag k="name" v="Ådnestua" />
		<tag k="natural" v="valley" />
		<tag k="place" v="locality" />
		<tag k="ssr:stedsnr" v="937840" />
	</node>
	<node lat="59.28213055133211" lon="10.244622228946566" id="-48435">
		<tag k="fixme" v="consider natural=peak for the most distinct mountains in the district" />
		<tag k="name" v="Stubberødåsen" />
		<tag k="natural" v="hill" />
		<tag k="place" v="locality" />
		<tag k="ssr:stedsnr" v="938414" />
	</node>
	<node lat="59.242523791692165" lon="10.129270814168146" id="-48487">
		<tag k="fixme" v="consider natural=peak for the most distinct mountains in the district" />
		<tag k="name" v="Haugåsen" />
		<tag k="natural" v="hill" />
		<tag k="place" v="locality" />
		<tag k="ssr:stedsnr" v="1333" />
	</node>
	<node lat="59.22067777857433" lon="10.125522219110588" id="-48500">
		<tag k="fixme" v="consider natural=peak for the most distinct mountains in the district" />
		<tag k="name" v="Stiåsen" />
		<tag k="natural" v="hill" />
		<tag k="place" v="locality" />
		<tag k="ssr:stedsnr" v="2389" />
	</node>
	<node lat="59.33848333538779" lon="10.033083325758184" id="-48501">
		<tag k="fixme" v="consider natural=peak for the most distinct mountains in the district" />
		<tag k="name" v="Kornmyrfjell" />
		<tag k="natural" v="hill" />
		<tag k="place" v="locality" />
		<tag k="ssr:stedsnr" v="2751" />
	</node>
	<node lat="59.309577779890134" lon="10.149802780951221" id="-48507">
		<tag k="fixme" v="consider natural=peak for the most distinct mountains in the district" />
		<tag k="name" v="Skørsåsane" />
		<tag k="natural" v="hill" />
		<tag k="place" v="locality" />
		<tag k="ssr:stedsnr" v="3828" />
	</node>
	<node lat="59.26784444868015" lon="9.992713884980274" id="-48511">
		<tag k="alt_name" v="Grevesteinen" />
		<tag k="fixme" v="consider natural=peak for the most distinct mountains in the district" />
		<tag k="name" v="Grevestein" />
		<tag k="natural" v="hill" />
		<tag k="place" v="locality" />
		<tag k="ssr:stedsnr" v="3895" />
	</node>
	<node lat="59.07086944067948" lon="10.304513882893438" id="-48515">
		<tag k="fixme" v="consider natural=peak for the most distinct mountains in the district" />
		<tag k="name" v="Kjerkeglovåsen" />
		<tag k="natural" v="hill" />
		<tag k="place" v="locality" />
		<tag k="ssr:stedsnr" v="24318" />
	</node>
	<node lat="59.13331666899112" lon="10.326191671070758" id="-48517">
		<tag k="fixme" v="consider natural=peak for the most distinct mountains in the district" />
		<tag k="name" v="Furuvikåsen" />
		<tag k="natural" v="hill" />
		<tag k="place" v="locality" />
		<tag k="ssr:stedsnr" v="24249" />
	</node>
	<node lat="59.088527779642135" lon="10.307027772217712" id="-48521">
		<tag k="fixme" v="consider natural=peak for the most distinct mountains in the district" />
		<tag k="name" v="Flautangåsen" />
		<tag k="natural" v="hill" />
		<tag k="place" v="locality" />
		<tag k="ssr:stedsnr" v="25336" />
	</node>
	<node lat="59.14715277465082" lon="10.296102771780813" id="-48522">
		<tag k="fixme" v="consider natural=peak for the most distinct mountains in the district" />
		<tag k="name" v="Oksåsen" />
		<tag k="natural" v="hill" />
		<tag k="place" v="locality" />
		<tag k="ssr:stedsnr" v="25318" />
	</node>
	<node lat="59.21990277816816" lon="10.311272225490004" id="-48523">
		<tag k="fixme" v="consider natural=peak for the most distinct mountains in the district" />
		<tag k="name" v="Laholmåsen" />
		<tag k="natural" v="hill" />
		<tag k="place" v="locality" />
		<tag k="ssr:stedsnr" v="25419" />
	</node>
	<node lat="59.0847055556607" lon="10.299974996759824" id="-48524">
		<tag k="fixme" v="consider natural=peak for the most distinct mountains in the district" />
		<tag k="name" v="Eianåsen" />
		<tag k="natural" v="hill" />
		<tag k="place" v="locality" />
		<tag k="ssr:stedsnr" v="25340" />
	</node>
	<node lat="59.2813083349336" lon="10.082355564229243" id="-48533">
		<tag k="fixme" v="consider natural=peak for the most distinct mountains in the district" />
		<tag k="name" v="Tolleåsen" />
		<tag k="natural" v="hill" />
		<tag k="place" v="locality" />
		<tag k="ssr:stedsnr" v="26763" />
	</node>
	<node lat="59.37307778107563" lon="10.132486118314338" id="-48535">
		<tag k="fixme" v="consider natural=peak for the most distinct mountains in the district" />
		<tag k="name" v="Kjerketomtåsen" />
		<tag k="natural" v="hill" />
		<tag k="place" v="locality" />
		<tag k="ssr:stedsnr" v="27121" />
	</node>
	<node lat="59.38277222607128" lon="10.097202778806889" id="-48542">
		<tag k="fixme" v="consider natural=peak for the most distinct mountains in the district" />
		<tag k="name" v="Flatås" />
		<tag k="natural" v="hill" />
		<tag k="place" v="locality" />
		<tag k="ssr:stedsnr" v="27065" />
	</node>
	<node lat="59.308688887046664" lon="10.096611111083583" id="-48545">
		<tag k="fixme" v="consider natural=peak for the most distinct mountains in the district" />
		<tag k="name" v="Brænnås" />
		<tag k="natural" v="hill" />
		<tag k="place" v="locality" />
		<tag k="ssr:stedsnr" v="27204" />
	</node>
	<node lat="59.32149444864166" lon="10.222797229578338" id="-48548">
		<tag k="fixme" v="consider natural=peak for the most distinct mountains in the district" />
		<tag k="name" v="Kjonåsen" />
		<tag k="natural" v="hill" />
		<tag k="place" v="locality" />
		<tag k="ssr:stedsnr" v="27452" />
	</node>
	<node lat="59.3016583361399" lon="10.099350007873275" id="-48550">
		<tag k="fixme" v="consider natural=peak for the most distinct mountains in the district" />
		<tag k="name" v="Åmotåsen" />
		<tag k="natural" v="hill" />
		<tag k="place" v="locality" />
		<tag k="ssr:stedsnr" v="27238" />
	</node>
	<node lat="59.365472220191805" lon="10.097486117364172" id="-48551">
		<tag k="name" v="Djupedal" />
		<tag k="natural" v="valley" />
		<tag k="place" v="locality" />
		<tag k="ssr:stedsnr" v="27250" />
	</node>
	<node lat="59.30076110730084" lon="10.102494447519629" id="-48552">
		<tag k="name" v="Lykkja" />
		<tag k="place" v="locality" />
		<tag k="ssr:stedsnr" v="27252" />
	</node>
	<node lat="59.30425555113408" lon="10.040402778400894" id="-48559">
		<tag k="name" v="Nilsedalen" />
		<tag k="natural" v="valley" />
		<tag k="place" v="locality" />
		<tag k="ssr:stedsnr" v="27562" />
	</node>
	<node lat="59.227019442349906" lon="10.064963882628744" id="-48560">
		<tag k="name" v="Risdalen" />
		<tag k="natural" v="valley" />
		<tag k="place" v="locality" />
		<tag k="ssr:stedsnr" v="27967" />
	</node>
	<node lat="59.20649999653317" lon="10.265344443564546" id="-48566">
		<tag k="name" v="Russeltvedt" />
		<tag k="place" v="locality" />
		<tag k="ssr:stedsnr" v="27743" />
	</node>
	<node lat="59.19745000439215" lon="10.130930550408877" id="-48570">
		<tag k="fixme" v="consider natural=peak for the most distinct mountains in the district" />
		<tag k="name" v="Smørfatåsen" />
		<tag k="natural" v="hill" />
		<tag k="place" v="locality" />
		<tag k="ssr:stedsnr" v="27839" />
	</node>
	<node lat="59.20413610809139" lon="10.130222219886813" id="-48571">
		<tag k="name" v="Miudal" />
		<tag k="natural" v="valley" />
		<tag k="place" v="locality" />
		<tag k="ssr:stedsnr" v="27840" />
	</node>
	<node lat="59.21006388586366" lon="10.074238881348961" id="-48572">
		<tag k="name" v="Neritraet" />
		<tag k="place" v="locality" />
		<tag k="ssr:stedsnr" v="27965" />
	</node>
	<node lat="59.12083333310911" lon="10.251111118168984" id="-48576">
		<tag k="fixme" v="consider natural=peak for the most distinct mountains in the district" />
		<tag k="name" v="Hubroåsen" />
		<tag k="natural" v="hill" />
		<tag k="place" v="locality" />
		<tag k="ssr:stedsnr" v="28592" />
	</node>
	<node lat="59.219152774251434" lon="10.169111103588774" id="-48600">
		<tag k="alt_name" v="Skjenaåsen" />
		<tag k="fixme" v="consider natural=peak for the most distinct mountains in the district" />
		<tag k="name" v="Skjenåsen" />
		<tag k="natural" v="hill" />
		<tag k="place" v="locality" />
		<tag k="ssr:stedsnr" v="63390" />
	</node>
	<node lat="59.313377778960074" lon="10.10733054866658" id="-48605">
		<tag k="fixme" v="consider natural=peak for the most distinct mountains in the district" />
		<tag k="name" v="Veggeråsen" />
		<tag k="natural" v="hill" />
		<tag k="place" v="locality" />
		<tag k="ssr:stedsnr" v="64848" />
	</node>
	<node lat="59.06901389263834" lon="10.310105562117863" id="-48609">
		<tag k="fixme" v="consider natural=peak for the most distinct mountains in the district" />
		<tag k="name" v="Strandvikåsen" />
		<tag k="natural" v="hill" />
		<tag k="place" v="locality" />
		<tag k="ssr:stedsnr" v="85270" />
	</node>
	<node lat="59.171397220274685" lon="10.30151944331515" id="-48611">
		<tag k="fixme" v="consider natural=peak for the most distinct mountains in the district" />
		<tag k="name" v="Tronka" />
		<tag k="natural" v="hill" />
		<tag k="place" v="locality" />
		<tag k="ssr:stedsnr" v="85366" />
	</node>
	<node lat="59.1425500044691" lon="10.31101943610931" id="-48612">
		<tag k="fixme" v="consider natural=peak for the most distinct mountains in the district" />
		<tag k="name" v="Mølleråsen" />
		<tag k="natural" v="hill" />
		<tag k="place" v="locality" />
		<tag k="ssr:stedsnr" v="86307" />
	</node>
	<node lat="59.23371111062932" lon="10.30826388148667" id="-48615">
		<tag k="fixme" v="consider natural=peak for the most distinct mountains in the district" />
		<tag k="name" v="Kjetilstuåsen" />
		<tag k="natural" v="hill" />
		<tag k="place" v="locality" />
		<tag k="ssr:stedsnr" v="86447" />
	</node>
	<node lat="59.227249996135924" lon="10.353308331788416" id="-48616">
		<tag k="fixme" v="consider natural=peak for the most distinct mountains in the district" />
		<tag k="name" v="Matisåsen" />
		<tag k="natural" v="hill" />
		<tag k="place" v="locality" />
		<tag k="ssr:stedsnr" v="86417" />
	</node>
	<node lat="59.33235833511244" lon="10.0310694374674" id="-48617">
		<tag k="name" v="Lønnabakken" />
		<tag k="natural" v="slope" />
		<tag k="place" v="locality" />
		<tag k="ssr:stedsnr" v="87622" />
	</node>
	<node lat="59.17378333069396" lon="10.320499999520322" id="-48618">
		<tag k="name" v="Skravestadkollene" />
		<tag k="natural" v="hill" />
		<tag k="place" v="locality" />
		<tag k="ssr:stedsnr" v="87601" />
	</node>
	<node lat="59.257052781758546" lon="10.008572225699341" id="-48622">
		<tag k="name" v="Hansesdal" />
		<tag k="natural" v="valley" />
		<tag k="place" v="locality" />
		<tag k="ssr:stedsnr" v="87645" />
	</node>
	<node lat="59.26591111552561" lon="10.013325007089424" id="-48623">
		<tag k="name" v="Heimoen" />
		<tag k="place" v="locality" />
		<tag k="ssr:stedsnr" v="87647" />
	</node>
	<node lat="59.29684999836457" lon="10.265377776736575" id="-48626">
		<tag k="name" v="Søndagsberget" />
		<tag k="natural" v="hill" />
		<tag k="place" v="locality" />
		<tag k="ssr:stedsnr" v="88291" />
	</node>
	<node lat="59.2997638883344" lon="10.267286109590941" id="-48627">
		<tag k="name" v="Botnen" />
		<tag k="natural" v="valley" />
		<tag k="place" v="locality" />
		<tag k="ssr:stedsnr" v="88295" />
	</node>
	<node lat="59.046702780353115" lon="10.270972228317653" id="-48628">
		<tag k="name" v="Steinkjerringa" />
		<tag k="natural" v="hill" />
		<tag k="place" v="locality" />
		<tag k="ssr:stedsnr" v="88549" />
	</node>
	<node lat="59.33445555984306" lon="10.060605561732102" id="-48630">
		<tag k="name" v="Djupedal" />
		<tag k="natural" v="valley" />
		<tag k="place" v="locality" />
		<tag k="ssr:stedsnr" v="88167" />
	</node>
	<node lat="59.19193611130919" lon="10.146119443280776" id="-48632">
		<tag k="name" v="Dåpaløkka" />
		<tag k="natural" v="hill" />
		<tag k="place" v="locality" />
		<tag k="ssr:stedsnr" v="88793" />
	</node>
	<node lat="59.08541944522363" lon="10.191352774387187" id="-48633">
		<tag k="fixme" v="consider natural=peak for the most distinct mountains in the district" />
		<tag k="name" v="Skerrås" />
		<tag k="natural" v="hill" />
		<tag k="place" v="locality" />
		<tag k="ssr:stedsnr" v="88460" />
	</node>
	<node lat="59.26439444290671" lon="10.13882222615259" id="-48635">
		<tag k="name" v="Rønningene" />
		<tag k="natural" v="slope" />
		<tag k="place" v="locality" />
		<tag k="ssr:stedsnr" v="88734" />
	</node>
	<node lat="59.265188887242985" lon="10.132547228974104" id="-48636">
		<tag k="name" v="Kupedal" />
		<tag k="natural" v="valley" />
		<tag k="place" v="locality" />
		<tag k="ssr:stedsnr" v="88736" />
	</node>
	<node lat="59.17494444354234" lon="10.146958335790128" id="-48638">
		<tag k="name" v="Oksverpet" />
		<tag k="place" v="locality" />
		<tag k="ssr:stedsnr" v="88740" />
	</node>
	<node lat="59.259502781481835" lon="10.134797217423912" id="-48639">
		<tag k="fixme" v="consider natural=peak for the most distinct mountains in the district" />
		<tag k="name" v="Svarveråsen" />
		<tag k="natural" v="hill" />
		<tag k="place" v="locality" />
		<tag k="ssr:stedsnr" v="88741" />
	</node>
	<node lat="59.246483330784855" lon="10.041766663516132" id="-48640">
		<tag k="name" v="Smaledal" />
		<tag k="natural" v="valley" />
		<tag k="place" v="locality" />
		<tag k="ssr:stedsnr" v="88748" />
	</node>
	<node lat="59.28698611041833" lon="10.27847499124215" id="-48647">
		<tag k="fixme" v="consider natural=peak for the most distinct mountains in the district" />
		<tag k="name" v="Brekkeåsen" />
		<tag k="natural" v="hill" />
		<tag k="place" v="locality" />
		<tag k="ssr:stedsnr" v="88640" />
	</node>
	<node lat="59.220374996481134" lon="10.203902777799987" id="-48649">
		<tag k="fixme" v="consider natural=peak for the most distinct mountains in the district" />
		<tag k="name" v="Store Løkkeåsen" />
		<tag k="natural" v="hill" />
		<tag k="place" v="locality" />
		<tag k="ssr:stedsnr" v="88653" />
	</node>
	<node lat="59.26061667085091" lon="10.062700005517389" id="-48684">
		<tag k="fixme" v="consider natural=peak for the most distinct mountains in the district" />
		<tag k="name" v="Brånan" />
		<tag k="natural" v="hill" />
		<tag k="place" v="locality" />
		<tag k="ssr:stedsnr" v="123946" />
	</node>
	<node lat="59.320441665983495" lon="10.024344451668837" id="-48686">
		<tag k="fixme" v="consider natural=peak for the most distinct mountains in the district" />
		<tag k="name" v="Kirilåsen" />
		<tag k="natural" v="hill" />
		<tag k="place" v="locality" />
		<tag k="ssr:stedsnr" v="124743" />
	</node>
	<node lat="59.07904166524609" lon="10.30134722222133" id="-48693">
		<tag k="name" v="Haugfjellet" />
		<tag k="natural" v="hill" />
		<tag k="place" v="locality" />
		<tag k="ssr:stedsnr" v="145279" />
	</node>
	<node lat="59.162499999249704" lon="10.311855559730093" id="-48694">
		<tag k="name" v="Skravestad" />
		<tag k="place" v="locality" />
		<tag k="ssr:stedsnr" v="145291" />
	</node>
	<node lat="59.12532221888633" lon="10.29014999528105" id="-48695">
		<tag k="fixme" v="consider natural=peak for the most distinct mountains in the district" />
		<tag k="name" v="Langåsen" />
		<tag k="natural" v="hill" />
		<tag k="place" v="locality" />
		<tag k="ssr:stedsnr" v="145247" />
	</node>
	<node lat="59.13873888490621" lon="10.322713888075945" id="-48698">
		<tag k="fixme" v="consider natural=peak for the most distinct mountains in the district" />
		<tag k="name" v="Årøyåsen" />
		<tag k="natural" v="hill" />
		<tag k="place" v="locality" />
		<tag k="ssr:stedsnr" v="145257" />
	</node>
	<node lat="59.165133332705956" lon="10.303330553292525" id="-48699">
		<tag k="name" v="Lysingsbakken" />
		<tag k="natural" v="slope" />
		<tag k="place" v="locality" />
		<tag k="ssr:stedsnr" v="145442" />
	</node>
	<node lat="59.164783329415194" lon="10.2765999997049" id="-48700">
		<tag k="name" v="Haugberget" />
		<tag k="natural" v="hill" />
		<tag k="place" v="locality" />
		<tag k="ssr:stedsnr" v="145443" />
	</node>
	<node lat="59.13489444513585" lon="10.279355548835648" id="-48703">
		<tag k="fixme" v="consider natural=peak for the most distinct mountains in the district" />
		<tag k="name" v="Vestadåsen" />
		<tag k="natural" v="hill" />
		<tag k="place" v="locality" />
		<tag k="ssr:stedsnr" v="146236" />
	</node>
	<node lat="59.29195555383199" lon="10.140336108532951" id="-48707">
		<tag k="fixme" v="consider natural=peak for the most distinct mountains in the district" />
		<tag k="name" v="Skauåsen" />
		<tag k="natural" v="hill" />
		<tag k="place" v="locality" />
		<tag k="ssr:stedsnr" v="147764" />
	</node>
	<node lat="59.274419444721204" lon="10.066313881888568" id="-48708">
		<tag k="fixme" v="consider natural=peak for the most distinct mountains in the district" />
		<tag k="name" v="Stuemyråsen" />
		<tag k="natural" v="hill" />
		<tag k="place" v="locality" />
		<tag k="ssr:stedsnr" v="147782" />
	</node>
	<node lat="59.290280552461624" lon="10.099683333279682" id="-48709">
		<tag k="name" v="Bergan" />
		<tag k="place" v="locality" />
		<tag k="ssr:stedsnr" v="147790" />
	</node>
	<node lat="59.32561944669102" lon="10.022272226585985" id="-48710">
		<tag k="name" v="Østre Slipedalen" />
		<tag k="natural" v="valley" />
		<tag k="place" v="locality" />
		<tag k="ssr:stedsnr" v="147580" />
	</node>
	<node lat="59.330380557304096" lon="10.01607777494914" id="-48711">
		<tag k="fixme" v="consider natural=peak for the most distinct mountains in the district" />
		<tag k="name" v="Bølevannsåsen" />
		<tag k="natural" v="hill" />
		<tag k="place" v="locality" />
		<tag k="ssr:stedsnr" v="147583" />
	</node>
	<node lat="59.315672219137305" lon="10.043174993649192" id="-48712">
		<tag k="name" v="Midtglova" />
		<tag k="natural" v="valley" />
		<tag k="place" v="locality" />
		<tag k="ssr:stedsnr" v="147541" />
	</node>
	<node lat="59.290655559655725" lon="10.016441659785055" id="-48713">
		<tag k="name" v="Pålehølet" />
		<tag k="natural" v="valley" />
		<tag k="place" v="locality" />
		<tag k="ssr:stedsnr" v="147610" />
	</node>
	<node lat="59.279905551343376" lon="10.042283336226497" id="-48714">
		<tag k="name" v="Heidalen" />
		<tag k="natural" v="valley" />
		<tag k="place" v="locality" />
		<tag k="ssr:stedsnr" v="147611" />
	</node>
	<node lat="59.26422222250331" lon="9.99808611114897" id="-48715">
		<tag k="name" v="Hellenesstigen" />
		<tag k="natural" v="valley" />
		<tag k="place" v="locality" />
		<tag k="ssr:stedsnr" v="147617" />
	</node>
	<node lat="59.38287500008841" lon="10.088866673827518" id="-48716">
		<tag k="fixme" v="consider natural=peak for the most distinct mountains in the district" />
		<tag k="name" v="Kjyrilåsen" />
		<tag k="natural" v="hill" />
		<tag k="place" v="locality" />
		<tag k="ssr:stedsnr" v="148072" />
	</node>
	<node lat="59.36883888975242" lon="10.048647220026796" id="-48718">
		<tag k="fixme" v="consider natural=peak for the most distinct mountains in the district" />
		<tag k="name" v="Hyttås" />
		<tag k="natural" v="hill" />
		<tag k="place" v="locality" />
		<tag k="ssr:stedsnr" v="148255" />
	</node>
	<node lat="59.3219861069159" lon="10.197483329226227" id="-48719">
		<tag k="name" v="Djupdalen" />
		<tag k="natural" v="valley" />
		<tag k="place" v="locality" />
		<tag k="ssr:stedsnr" v="148452" />
	</node>
	<node lat="59.326963888075916" lon="10.215747222874132" id="-48722">
		<tag k="fixme" v="consider natural=peak for the most distinct mountains in the district" />
		<tag k="name" v="Høgståsen" />
		<tag k="natural" v="hill" />
		<tag k="place" v="locality" />
		<tag k="ssr:stedsnr" v="148435" />
	</node>
	<node lat="59.0903194483053" lon="10.196375002149212" id="-48725">
		<tag k="fixme" v="consider natural=peak for the most distinct mountains in the district" />
		<tag k="name" v="Steinfjellet" />
		<tag k="natural" v="hill" />
		<tag k="place" v="locality" />
		<tag k="ssr:stedsnr" v="148556" />
	</node>
	<node lat="59.20987500395737" lon="10.087836108628926" id="-48728">
		<tag k="name" v="Pinebakken" />
		<tag k="natural" v="slope" />
		<tag k="place" v="locality" />
		<tag k="ssr:stedsnr" v="148967" />
	</node>
	<node lat="59.18200833787822" lon="10.15434444111995" id="-48733">
		<tag k="fixme" v="consider natural=peak for the most distinct mountains in the district" />
		<tag k="name" v="Bjørnåsen" />
		<tag k="natural" v="hill" />
		<tag k="place" v="locality" />
		<tag k="ssr:stedsnr" v="148787" />
	</node>
	<node lat="59.26334721874628" lon="10.151908326065385" id="-48734">
		<tag k="name" v="Rønningene" />
		<tag k="place" v="locality" />
		<tag k="ssr:stedsnr" v="148789" />
	</node>
	<node lat="59.24882778195865" lon="10.081508338670671" id="-48736">
		<tag k="name" v="Nautehue" />
		<tag k="natural" v="slope" />
		<tag k="place" v="locality" />
		<tag k="ssr:stedsnr" v="148794" />
	</node>
	<node lat="59.246347218978585" lon="10.073641669863758" id="-48737">
		<tag k="fixme" v="consider natural=peak for the most distinct mountains in the district" />
		<tag k="name" v="Maurås" />
		<tag k="natural" v="hill" />
		<tag k="place" v="locality" />
		<tag k="ssr:stedsnr" v="148796" />
	</node>
	<node lat="59.257169442668115" lon="10.052524997706941" id="-48739">
		<tag k="fixme" v="consider natural=peak for the most distinct mountains in the district" />
		<tag k="name" v="Gampen" />
		<tag k="natural" v="hill" />
		<tag k="place" v="locality" />
		<tag k="ssr:stedsnr" v="148800" />
	</node>
	<node lat="59.246902774161725" lon="10.135175003905118" id="-48740">
		<tag k="fixme" v="consider natural=peak for the most distinct mountains in the district" />
		<tag k="name" v="Midtåsen" />
		<tag k="natural" v="hill" />
		<tag k="place" v="locality" />
		<tag k="ssr:stedsnr" v="148982" />
	</node>
	<node lat="59.236955559045434" lon="10.068149995718178" id="-48741">
		<tag k="fixme" v="consider natural=peak for the most distinct mountains in the district" />
		<tag k="name" v="Furuåsen" />
		<tag k="natural" v="hill" />
		<tag k="place" v="locality" />
		<tag k="ssr:stedsnr" v="148989" />
	</node>
	<node lat="59.230666669972415" lon="10.07404166899567" id="-48743">
		<tag k="name" v="Nordre Tveitanheia" />
		<tag k="natural" v="hill" />
		<tag k="place" v="locality" />
		<tag k="ssr:stedsnr" v="148998" />
	</node>
	<node lat="59.24596111062585" lon="10.114186109206194" id="-48767">
		<tag k="fixme" v="consider natural=peak for the most distinct mountains in the district" />
		<tag k="name" v="Askedalsåsane" />
		<tag k="natural" v="hill" />
		<tag k="place" v="locality" />
		<tag k="ssr:stedsnr" v="183269" />
	</node>
	<node lat="59.23663888641539" lon="10.049030554528645" id="-48776">
		<tag k="fixme" v="consider natural=peak for the most distinct mountains in the district" />
		<tag k="name" v="Storås" />
		<tag k="natural" v="hill" />
		<tag k="place" v="locality" />
		<tag k="ssr:stedsnr" v="184296" />
	</node>
	<node lat="59.0627138878156" lon="10.306183331395427" id="-48789">
		<tag k="name" v="Ormereiråsen" />
		<tag k="natural" v="hill" />
		<tag k="place" v="locality" />
		<tag k="ssr:stedsnr" v="206326" />
	</node>
	<node lat="59.28382221921309" lon="10.053383334918557" id="-48803">
		<tag k="name" v="Brudalen" />
		<tag k="natural" v="valley" />
		<tag k="place" v="locality" />
		<tag k="ssr:stedsnr" v="208823" />
	</node>
	<node lat="59.37853888681568" lon="10.086099997844284" id="-48805">
		<tag k="fixme" v="consider natural=peak for the most distinct mountains in the district" />
		<tag k="name" v="Storås" />
		<tag k="natural" v="hill" />
		<tag k="place" v="locality" />
		<tag k="ssr:stedsnr" v="209075" />
	</node>
	<node lat="59.31626389202761" lon="10.146725000686743" id="-48806">
		<tag k="fixme" v="consider natural=peak for the most distinct mountains in the district" />
		<tag k="name" v="Suberget" />
		<tag k="natural" v="hill" />
		<tag k="place" v="locality" />
		<tag k="ssr:stedsnr" v="209229" />
	</node>
	<node lat="59.30302221867143" lon="10.048163887524133" id="-48807">
		<tag k="fixme" v="consider natural=peak for the most distinct mountains in the district" />
		<tag k="name" v="Furuåsen" />
		<tag k="natural" v="hill" />
		<tag k="place" v="locality" />
		<tag k="ssr:stedsnr" v="209231" />
	</node>
	<node lat="59.32634166493173" lon="10.129130553518609" id="-48808">
		<tag k="name" v="Håsken" />
		<tag k="natural" v="valley" />
		<tag k="place" v="locality" />
		<tag k="ssr:stedsnr" v="209234" />
	</node>
	<node lat="59.31362222485202" lon="10.121608335755042" id="-48809">
		<tag k="fixme" v="consider natural=peak for the most distinct mountains in the district" />
		<tag k="name" v="Vinkjelleren" />
		<tag k="natural" v="hill" />
		<tag k="place" v="locality" />
		<tag k="ssr:stedsnr" v="209239" />
	</node>
	<node lat="59.368361110474126" lon="10.075122220786458" id="-48813">
		<tag k="fixme" v="consider natural=peak for the most distinct mountains in the district" />
		<tag k="name" v="Bokås" />
		<tag k="natural" v="hill" />
		<tag k="place" v="locality" />
		<tag k="ssr:stedsnr" v="209258" />
	</node>
	<node lat="59.36634999954588" lon="10.077297214468576" id="-48814">
		<tag k="fixme" v="consider natural=peak for the most distinct mountains in the district" />
		<tag k="name" v="Pusås" />
		<tag k="natural" v="hill" />
		<tag k="place" v="locality" />
		<tag k="ssr:stedsnr" v="209261" />
	</node>
	<node lat="59.299858336389505" lon="10.252974999987638" id="-48818">
		<tag k="fixme" v="consider natural=peak for the most distinct mountains in the district" />
		<tag k="name" v="Bånås" />
		<tag k="natural" v="hill" />
		<tag k="place" v="locality" />
		<tag k="ssr:stedsnr" v="209360" />
	</node>
	<node lat="59.08148889171604" lon="10.265402779235009" id="-48824">
		<tag k="fixme" v="consider natural=peak for the most distinct mountains in the district" />
		<tag k="name" v="Fløyåsen" />
		<tag k="natural" v="hill" />
		<tag k="place" v="locality" />
		<tag k="ssr:stedsnr" v="209758" />
	</node>
	<node lat="59.2413777817595" lon="10.094813891818143" id="-48828">
		<tag k="fixme" v="consider natural=peak for the most distinct mountains in the district" />
		<tag k="name" v="Diplingene" />
		<tag k="natural" v="hill" />
		<tag k="place" v="locality" />
		<tag k="ssr:stedsnr" v="209780" />
	</node>
	<node lat="59.24826666603962" lon="10.04336943662032" id="-48829">
		<tag k="name" v="Apaldalen" />
		<tag k="natural" v="valley" />
		<tag k="place" v="locality" />
		<tag k="ssr:stedsnr" v="209781" />
	</node>
	<node lat="59.2024805588522" lon="10.11756110635483" id="-48831">
		<tag k="name" v="Vasseng-diket" />
		<tag k="place" v="locality" />
		<tag k="ssr:stedsnr" v="209826" />
	</node>
	<node lat="59.223041669352675" lon="10.06391389119206" id="-48833">
		<tag k="name" v="Tveitan-rønningen" />
		<tag k="natural" v="slope" />
		<tag k="place" v="locality" />
		<tag k="ssr:stedsnr" v="209968" />
	</node>
	<node lat="59.228086110248334" lon="10.155969445146924" id="-48834">
		<tag k="fixme" v="consider natural=peak for the most distinct mountains in the district" />
		<tag k="name" v="Gallisåsane østre" />
		<tag k="natural" v="hill" />
		<tag k="place" v="locality" />
		<tag k="ssr:stedsnr" v="209980" />
	</node>
	<node lat="59.2262555567701" lon="10.047602769505444" id="-48835">
		<tag k="fixme" v="consider natural=peak for the most distinct mountains in the district" />
		<tag k="name" v="Påledalsåsen" />
		<tag k="natural" v="hill" />
		<tag k="place" v="locality" />
		<tag k="ssr:stedsnr" v="209982" />
	</node>
	<node lat="59.237902777453975" lon="10.117536102898997" id="-48836">
		<tag k="fixme" v="consider natural=peak for the most distinct mountains in the district" />
		<tag k="name" v="Sagåsen" />
		<tag k="natural" v="hill" />
		<tag k="place" v="locality" />
		<tag k="ssr:stedsnr" v="209986" />
	</node>
	<node lat="59.279283337226765" lon="10.235688881952594" id="-48842">
		<tag k="fixme" v="consider natural=peak for the most distinct mountains in the district" />
		<tag k="name" v="Plankestillingen" />
		<tag k="natural" v="hill" />
		<tag k="place" v="locality" />
		<tag k="ssr:stedsnr" v="210432" />
	</node>
	<node lat="59.11081111494063" lon="10.235205548390134" id="-48843">
		<tag k="fixme" v="consider natural=peak for the most distinct mountains in the district" />
		<tag k="name" v="Veraåsen" />
		<tag k="natural" v="hill" />
		<tag k="place" v="locality" />
		<tag k="ssr:stedsnr" v="210563" />
	</node>
	<node lat="59.13377777990853" lon="10.314763888017684" id="-48846">
		<tag k="fixme" v="consider natural=peak for the most distinct mountains in the district" />
		<tag k="name" v="Bjørnåsen" />
		<tag k="natural" v="hill" />
		<tag k="place" v="locality" />
		<tag k="ssr:stedsnr" v="267208" />
	</node>
	<node lat="59.09425555682003" lon="10.2723444442356" id="-48851">
		<tag k="name" v="Hummelen" />
		<tag k="natural" v="hill" />
		<tag k="place" v="locality" />
		<tag k="ssr:stedsnr" v="268318" />
	</node>
	<node lat="59.242552779870934" lon="10.341805560789656" id="-48857">
		<tag k="fixme" v="consider natural=peak for the most distinct mountains in the district" />
		<tag k="name" v="Gileåsen" />
		<tag k="natural" v="hill" />
		<tag k="place" v="locality" />
		<tag k="ssr:stedsnr" v="268438" />
	</node>
	<node lat="59.11429721787939" lon="10.286550006134927" id="-48858">
		<tag k="name" v="Bellevitaåsen" />
		<tag k="natural" v="hill" />
		<tag k="place" v="locality" />
		<tag k="ssr:stedsnr" v="269035" />
	</node>
	<node lat="59.326719440861304" lon="10.024038885616982" id="-48859">
		<tag k="fixme" v="consider natural=peak for the most distinct mountains in the district" />
		<tag k="name" v="Storemyrhøgdene" />
		<tag k="natural" v="hill" />
		<tag k="place" v="locality" />
		<tag k="ssr:stedsnr" v="269629" />
	</node>
	<node lat="59.281538885273115" lon="10.06678611882227" id="-48860">
		<tag k="name" v="Ravneflau" />
		<tag k="natural" v="ridge" />
		<tag k="old_name" v="Ravnefau" />
		<tag k="place" v="locality" />
		<tag k="ssr:stedsnr" v="269812" />
	</node>
	<node lat="59.274919448446326" lon="10.071663881970055" id="-48861">
		<tag k="name" v="Kølabånn" />
		<tag k="natural" v="slope" />
		<tag k="place" v="locality" />
		<tag k="ssr:stedsnr" v="269814" />
	</node>
	<node lat="59.31752222071933" lon="10.139577773328746" id="-48866">
		<tag k="name" v="Taranrødmoa" />
		<tag k="place" v="locality" />
		<tag k="ssr:stedsnr" v="270223" />
	</node>
	<node lat="59.328980552665556" lon="10.126413887875708" id="-48867">
		<tag k="fixme" v="consider natural=peak for the most distinct mountains in the district" />
		<tag k="name" v="Mursteinåsen" />
		<tag k="natural" v="hill" />
		<tag k="place" v="locality" />
		<tag k="ssr:stedsnr" v="270229" />
	</node>
	<node lat="59.31514722517799" lon="10.125377773725068" id="-48869">
		<tag k="name" v="Strutemoa" />
		<tag k="place" v="locality" />
		<tag k="ssr:stedsnr" v="270234" />
	</node>
	<node lat="59.29432777356046" lon="10.199622218288416" id="-48870">
		<tag k="name" v="Bjønnehølet" />
		<tag k="natural" v="valley" />
		<tag k="place" v="locality" />
		<tag k="ssr:stedsnr" v="270353" />
	</node>
	<node lat="59.38387499594151" lon="10.095372229734917" id="-48872">
		<tag k="name" v="Kjyridalen" />
		<tag k="natural" v="valley" />
		<tag k="place" v="locality" />
		<tag k="ssr:stedsnr" v="270068" />
	</node>
	<node lat="59.29805555678304" lon="10.050841670341622" id="-48876">
		<tag k="name" v="Haralegda" />
		<tag k="natural" v="slope" />
		<tag k="place" v="locality" />
		<tag k="ssr:stedsnr" v="270244" />
	</node>
	<node lat="59.373311113617156" lon="10.082116659563237" id="-48877">
		<tag k="name" v="Hestedalen" />
		<tag k="natural" v="valley" />
		<tag k="place" v="locality" />
		<tag k="ssr:stedsnr" v="270257" />
	</node>
	<node lat="59.32677777885693" lon="10.227350006771896" id="-48880">
		<tag k="name" v="Bakken" />
		<tag k="natural" v="slope" />
		<tag k="place" v="locality" />
		<tag k="ssr:stedsnr" v="270430" />
	</node>
	<node lat="59.11944444643749" lon="10.211897215084646" id="-48883">
		<tag k="alt_name" v="Virikollen" />
		<tag k="fixme" v="consider natural=peak for the most distinct mountains in the district" />
		<tag k="name" v="Virikkollen" />
		<tag k="natural" v="hill" />
		<tag k="place" v="locality" />
		<tag k="ssr:stedsnr" v="270624" />
	</node>
	<node lat="59.06063333129317" lon="10.262588880169616" id="-48885">
		<tag k="fixme" v="consider natural=peak for the most distinct mountains in the district" />
		<tag k="name" v="Rørvikåsen" />
		<tag k="natural" v="hill" />
		<tag k="place" v="locality" />
		<tag k="ssr:stedsnr" v="270630" />
	</node>
	<node lat="59.14240277948837" lon="10.127086116960404" id="-48888">
		<tag k="name" v="Nyllahellinga" />
		<tag k="natural" v="slope" />
		<tag k="place" v="locality" />
		<tag k="ssr:stedsnr" v="270839" />
	</node>
	<node lat="59.299850001793764" lon="10.034827785146998" id="-48892">
		<tag k="name" v="Tryteberget" />
		<tag k="natural" v="hill" />
		<tag k="place" v="locality" />
		<tag k="ssr:stedsnr" v="270565" />
	</node>
	<node lat="59.18491111035185" lon="10.166080557088726" id="-48894">
		<tag k="fixme" v="consider natural=peak for the most distinct mountains in the district" />
		<tag k="name" v="Kjelleråsen" />
		<tag k="natural" v="hill" />
		<tag k="place" v="locality" />
		<tag k="ssr:stedsnr" v="270711" />
	</node>
	<node lat="59.2602638878207" lon="10.13459722403583" id="-48900">
		<tag k="name" v="Halrønningen" />
		<tag k="natural" v="slope" />
		<tag k="place" v="locality" />
		<tag k="ssr:stedsnr" v="270759" />
	</node>
	<node lat="59.25912222283445" lon="10.109247213583886" id="-48901">
		<tag k="fixme" v="consider natural=peak for the most distinct mountains in the district" />
		<tag k="name" v="Brudalsåsen" />
		<tag k="natural" v="hill" />
		<tag k="place" v="locality" />
		<tag k="ssr:stedsnr" v="270762" />
	</node>
	<node lat="59.2719055530674" lon="10.118372224430496" id="-48903">
		<tag k="fixme" v="consider natural=peak for the most distinct mountains in the district" />
		<tag k="name" v="Orekollen" />
		<tag k="natural" v="hill" />
		<tag k="place" v="locality" />
		<tag k="ssr:stedsnr" v="270772" />
	</node>
	<node lat="59.27369166794654" lon="10.104297224794463" id="-48905">
		<tag k="fixme" v="consider natural=peak for the most distinct mountains in the district" />
		<tag k="name" v="Kjønnåsen" />
		<tag k="natural" v="hill" />
		<tag k="place" v="locality" />
		<tag k="ssr:stedsnr" v="270801" />
	</node>
	<node lat="59.21437500209318" lon="10.07406388499919" id="-48909">
		<tag k="name" v="Grinhaugen" />
		<tag k="natural" v="hill" />
		<tag k="place" v="locality" />
		<tag k="ssr:stedsnr" v="270966" />
	</node>
	<node lat="59.2111361092621" lon="10.07410556271706" id="-48911">
		<tag k="name" v="Vestpåhaugen" />
		<tag k="natural" v="hill" />
		<tag k="place" v="locality" />
		<tag k="ssr:stedsnr" v="270973" />
	</node>
	<node lat="59.282341670206605" lon="10.249983335471066" id="-48914">
		<tag k="fixme" v="consider natural=peak for the most distinct mountains in the district" />
		<tag k="name" v="Pikås" />
		<tag k="natural" v="hill" />
		<tag k="place" v="locality" />
		<tag k="ssr:stedsnr" v="271465" />
	</node>
	<node lat="59.106133331708676" lon="10.256163883323245" id="-48919">
		<tag k="fixme" v="consider natural=peak for the most distinct mountains in the district" />
		<tag k="name" v="Tjømeåsen" />
		<tag k="natural" v="hill" />
		<tag k="place" v="locality" />
		<tag k="ssr:stedsnr" v="271626" />
	</node>
	<node lat="59.174616664708466" lon="10.222722218999543" id="-48920">
		<tag k="fixme" v="consider natural=peak for the most distinct mountains in the district" />
		<tag k="name" v="Husåsen" />
		<tag k="natural" v="hill" />
		<tag k="place" v="locality" />
		<tag k="ssr:stedsnr" v="271776" />
	</node>
	<node lat="59.17084166509905" lon="10.245902772627593" id="-48921">
		<tag k="fixme" v="consider natural=peak for the most distinct mountains in the district" />
		<tag k="name" v="Feensåsen" />
		<tag k="natural" v="hill" />
		<tag k="place" v="locality" />
		<tag k="ssr:stedsnr" v="271777" />
	</node>
	<node lat="59.11469999983771" lon="10.242749999311" id="-48928">
		<tag k="fixme" v="consider natural=peak for the most distinct mountains in the district" />
		<tag k="name" v="Rødsåsen" />
		<tag k="natural" v="hill" />
		<tag k="place" v="locality" />
		<tag k="ssr:stedsnr" v="305058" />
	</node>
	<node lat="59.14171389148909" lon="10.281344451918102" id="-48955">
		<tag k="fixme" v="consider natural=peak for the most distinct mountains in the district" />
		<tag k="name" v="Vitaåsen" />
		<tag k="natural" v="hill" />
		<tag k="place" v="locality" />
		<tag k="ssr:stedsnr" v="328239" />
	</node>
	<node lat="59.22346110958132" lon="10.286047219638078" id="-48963">
		<tag k="fixme" v="consider natural=peak for the most distinct mountains in the district" />
		<tag k="name" v="Kvellestadåsen" />
		<tag k="natural" v="hill" />
		<tag k="place" v="locality" />
		<tag k="ssr:stedsnr" v="328400" />
	</node>
	<node lat="59.171558334870184" lon="10.285716672907878" id="-48966">
		<tag k="fixme" v="consider natural=peak for the most distinct mountains in the district" />
		<tag k="name" v="Roveåsen" />
		<tag k="natural" v="hill" />
		<tag k="place" v="locality" />
		<tag k="ssr:stedsnr" v="328427" />
	</node>
	<node lat="59.19019721976402" lon="10.340194446401902" id="-48968">
		<tag k="name" v="Ravnø søndre" />
		<tag k="natural" v="hill" />
		<tag k="place" v="locality" />
		<tag k="ssr:stedsnr" v="328438" />
	</node>
	<node lat="59.32945000068728" lon="10.048875004855704" id="-48975">
		<tag k="name" v="Pinene" />
		<tag k="natural" v="slope" />
		<tag k="place" v="locality" />
		<tag k="ssr:stedsnr" v="330236" />
	</node>
	<node lat="59.3243111069349" lon="10.066158336356972" id="-48976">
		<tag k="name" v="Kjørkerønningen" />
		<tag k="natural" v="slope" />
		<tag k="place" v="locality" />
		<tag k="ssr:stedsnr" v="330237" />
	</node>
	<node lat="59.31519166764792" lon="10.1048638835967" id="-48977">
		<tag k="fixme" v="consider natural=peak for the most distinct mountains in the district" />
		<tag k="name" v="Askedalsåsane" />
		<tag k="natural" v="hill" />
		<tag k="place" v="locality" />
		<tag k="ssr:stedsnr" v="330248" />
	</node>
	<node lat="59.312172221590494" lon="10.142011115964225" id="-48978">
		<tag k="name" v="Mærkedalen" />
		<tag k="natural" v="valley" />
		<tag k="place" v="locality" />
		<tag k="ssr:stedsnr" v="330251" />
	</node>
	<node lat="59.30253333364496" lon="10.11706666691427" id="-48979">
		<tag k="name" v="Hamnedalen" />
		<tag k="natural" v="valley" />
		<tag k="place" v="locality" />
		<tag k="ssr:stedsnr" v="330253" />
	</node>
	<node lat="59.31366111561863" lon="10.171991666409326" id="-48985">
		<tag k="name" v="Ulvekula" />
		<tag k="natural" v="hill" />
		<tag k="place" v="locality" />
		<tag k="ssr:stedsnr" v="330453" />
	</node>
	<node lat="59.260925000346575" lon="10.041024996166795" id="-48990">
		<tag k="fixme" v="consider natural=peak for the most distinct mountains in the district" />
		<tag k="name" v="Snappeås" />
		<tag k="natural" v="hill" />
		<tag k="place" v="locality" />
		<tag k="ssr:stedsnr" v="330707" />
	</node>
	<node lat="59.26394444680141" lon="10.076180563785616" id="-48991">
		<tag k="name" v="Rønningen" />
		<tag k="natural" v="slope" />
		<tag k="place" v="locality" />
		<tag k="ssr:stedsnr" v="330825" />
	</node>
	<node lat="59.25239444549826" lon="10.056483335246847" id="-48992">
		<tag k="name" v="Kjerringdalen" />
		<tag k="natural" v="valley" />
		<tag k="place" v="locality" />
		<tag k="ssr:stedsnr" v="330834" />
	</node>
	<node lat="59.241333330137955" lon="10.150866657869456" id="-48994">
		<tag k="fixme" v="consider natural=peak for the most distinct mountains in the district" />
		<tag k="name" v="Vilderåsen" />
		<tag k="natural" v="hill" />
		<tag k="place" v="locality" />
		<tag k="ssr:stedsnr" v="330990" />
	</node>
	<node lat="59.24187777955162" lon="10.102711117741219" id="-48995">
		<tag k="name" v="Dalene søndre" />
		<tag k="natural" v="valley" />
		<tag k="place" v="locality" />
		<tag k="ssr:stedsnr" v="330994" />
	</node>
	<node lat="59.28059444710377" lon="10.130383340963997" id="-48999">
		<tag k="fixme" v="consider natural=peak for the most distinct mountains in the district" />
		<tag k="name" v="Hauganåsen" />
		<tag k="natural" v="hill" />
		<tag k="place" v="locality" />
		<tag k="ssr:stedsnr" v="330847" />
	</node>
	<node lat="59.274602773952566" lon="10.0676444364616" id="-49002">
		<tag k="name" v="Styggedalen" />
		<tag k="natural" v="valley" />
		<tag k="place" v="locality" />
		<tag k="ssr:stedsnr" v="330857" />
	</node>
	<node lat="59.27065278196134" lon="10.062472227104186" id="-49003">
		<tag k="name" v="Flisefyr" />
		<tag k="natural" v="hill" />
		<tag k="old_name" v="Flisefyr" />
		<tag k="place" v="locality" />
		<tag k="ssr:stedsnr" v="330858" />
	</node>
	<node lat="59.199613892056774" lon="10.106905556879774" id="-49005">
		<tag k="name" v="Hanekneet" />
		<tag k="place" v="locality" />
		<tag k="ssr:stedsnr" v="330863" />
	</node>
	<node lat="59.11540000262218" lon="10.257480554699459" id="-49011">
		<tag k="name" v="Lille Ringkollen" />
		<tag k="natural" v="hill" />
		<tag k="place" v="locality" />
		<tag k="ssr:stedsnr" v="331562" />
	</node>
	<node lat="59.17754999560272" lon="10.152677780537308" id="-49025">
		<tag k="fixme" v="consider natural=peak for the most distinct mountains in the district" />
		<tag k="name" v="Brentåsen" />
		<tag k="natural" v="hill" />
		<tag k="place" v="locality" />
		<tag k="ssr:stedsnr" v="365190" />
	</node>
	<node lat="59.2408249979792" lon="10.038399997536171" id="-49033">
		<tag k="alt_name" v="Sørensåsene" />
		<tag k="fixme" v="consider natural=peak for the most distinct mountains in the district" />
		<tag k="name" v="Sørensåsane" />
		<tag k="natural" v="hill" />
		<tag k="place" v="locality" />
		<tag k="ssr:stedsnr" v="365339" />
	</node>
	<node lat="59.21957778038054" lon="10.290108338542025" id="-49047">
		<tag k="fixme" v="consider natural=peak for the most distinct mountains in the district" />
		<tag k="name" v="Bærefjell" />
		<tag k="natural" v="hill" />
		<tag k="place" v="locality" />
		<tag k="ssr:stedsnr" v="389453" />
	</node>
	<node lat="59.215336113781426" lon="10.337594443066866" id="-49050">
		<tag k="fixme" v="consider natural=peak for the most distinct mountains in the district" />
		<tag k="name" v="Solnesåsen" />
		<tag k="natural" v="hill" />
		<tag k="place" v="locality" />
		<tag k="ssr:stedsnr" v="389433" />
	</node>
	<node lat="59.28577222224009" lon="10.064855550720262" id="-49061">
		<tag k="name" v="Ådnerønningen" />
		<tag k="natural" v="slope" />
		<tag k="place" v="locality" />
		<tag k="ssr:stedsnr" v="390790" />
	</node>
	<node lat="59.30428333126961" lon="10.150100004801715" id="-49063">
		<tag k="name" v="Tømmerdalen" />
		<tag k="natural" v="valley" />
		<tag k="place" v="locality" />
		<tag k="ssr:stedsnr" v="391240" />
	</node>
	<node lat="59.34904444471812" lon="10.045152779114927" id="-49067">
		<tag k="fixme" v="consider natural=peak for the most distinct mountains in the district" />
		<tag k="name" v="Middagsåsen" />
		<tag k="natural" v="hill" />
		<tag k="place" v="locality" />
		<tag k="ssr:stedsnr" v="391130" />
	</node>
	<node lat="59.362969444967014" lon="10.14199166926209" id="-49068">
		<tag k="fixme" v="consider natural=peak for the most distinct mountains in the district" />
		<tag k="name" v="Heimdalsåsen" />
		<tag k="natural" v="hill" />
		<tag k="place" v="locality" />
		<tag k="ssr:stedsnr" v="391132" />
	</node>
	<node lat="59.34238611099017" lon="10.152533334917129" id="-49069">
		<tag k="fixme" v="consider natural=peak for the most distinct mountains in the district" />
		<tag k="name" v="Sagåsen" />
		<tag k="natural" v="hill" />
		<tag k="place" v="locality" />
		<tag k="ssr:stedsnr" v="391146" />
	</node>
	<node lat="59.29226666673682" lon="10.269697222412882" id="-49077">
		<tag k="name" v="Brattekværna" />
		<tag k="natural" v="slope" />
		<tag k="place" v="locality" />
		<tag k="ssr:stedsnr" v="391711" />
	</node>
	<node lat="59.26151944659984" lon="10.122461110355164" id="-49083">
		<tag k="name" v="Dammedal" />
		<tag k="natural" v="valley" />
		<tag k="place" v="locality" />
		<tag k="ssr:stedsnr" v="391794" />
	</node>
	<node lat="59.2804388890216" lon="10.141141658087648" id="-49086">
		<tag k="fixme" v="consider natural=peak for the most distinct mountains in the district" />
		<tag k="name" v="Hauganhågan" />
		<tag k="natural" v="hill" />
		<tag k="place" v="locality" />
		<tag k="ssr:stedsnr" v="391839" />
	</node>
	<node lat="59.27478889199919" lon="10.113950007814614" id="-49087">
		<tag k="fixme" v="consider natural=peak for the most distinct mountains in the district" />
		<tag k="name" v="Piddåsane" />
		<tag k="natural" v="hill" />
		<tag k="place" v="locality" />
		<tag k="ssr:stedsnr" v="391843" />
	</node>
	<node lat="59.162330556578546" lon="10.149280561647302" id="-49089">
		<tag k="fixme" v="consider natural=peak for the most distinct mountains in the district" />
		<tag k="name" v="Klavenesåsen" />
		<tag k="natural" v="hill" />
		<tag k="place" v="locality" />
		<tag k="ssr:stedsnr" v="391877" />
	</node>
	<node lat="59.20639166836474" lon="10.118724992461956" id="-49090">
		<tag k="fixme" v="consider natural=peak for the most distinct mountains in the district" />
		<tag k="name" v="Bruåsen" />
		<tag k="natural" v="hill" />
		<tag k="place" v="locality" />
		<tag k="ssr:stedsnr" v="391975" />
	</node>
	<node lat="59.235813886102335" lon="10.07381944952998" id="-49093">
		<tag k="name" v="Kjøyta" />
		<tag k="natural" v="slope" />
		<tag k="place" v="locality" />
		<tag k="ssr:stedsnr" v="391999" />
	</node>
	<node lat="59.109333333013346" lon="10.246527786418241" id="-49094">
		<tag k="name" v="Huseby" />
		<tag k="place" v="locality" />
		<tag k="ssr:stedsnr" v="392621" />
	</node>
	<node lat="59.102777774599225" lon="10.250513887018657" id="-49096">
		<tag k="fixme" v="consider natural=peak for the most distinct mountains in the district" />
		<tag k="name" v="Tangenåsen" />
		<tag k="natural" v="hill" />
		<tag k="place" v="locality" />
		<tag k="ssr:stedsnr" v="392630" />
	</node>
	<node lat="59.22043611365112" lon="10.352711112172571" id="-49109">
		<tag k="fixme" v="consider natural=peak for the most distinct mountains in the district" />
		<tag k="name" v="Konåsen" />
		<tag k="natural" v="hill" />
		<tag k="place" v="locality" />
		<tag k="ssr:stedsnr" v="426043" />
	</node>
	<node lat="59.183416663271935" lon="10.137666664937985" id="-49117">
		<tag k="alt_name" v="Røver'n" />
		<tag k="name" v="Røveren" />
		<tag k="natural" v="hill" />
		<tag k="place" v="locality" />
		<tag k="ssr:stedsnr" v="426182" />
	</node>
	<node lat="59.308650003176524" lon="10.036741660823605" id="-49139">
		<tag k="fixme" v="consider natural=peak for the most distinct mountains in the district" />
		<tag k="name" v="Dalaåsen" />
		<tag k="natural" v="hill" />
		<tag k="place" v="locality" />
		<tag k="ssr:stedsnr" v="428841" />
	</node>
	<node lat="59.368625004084116" lon="10.084180564449975" id="-49141">
		<tag k="fixme" v="consider natural=peak for the most distinct mountains in the district" />
		<tag k="name" v="Storås" />
		<tag k="natural" v="hill" />
		<tag k="place" v="locality" />
		<tag k="ssr:stedsnr" v="434651" />
	</node>
	<node lat="59.19590278053043" lon="10.182858336414176" id="-49145">
		<tag k="fixme" v="consider natural=peak for the most distinct mountains in the district" />
		<tag k="name" v="Kobberåsen" />
		<tag k="natural" v="hill" />
		<tag k="place" v="locality" />
		<tag k="ssr:stedsnr" v="486143" />
	</node>
	<node lat="59.248524996547026" lon="10.007249993402334" id="-49162">
		<tag k="fixme" v="consider natural=peak for the most distinct mountains in the district" />
		<tag k="name" v="Knappen" />
		<tag k="natural" v="hill" />
		<tag k="place" v="locality" />
		<tag k="ssr:stedsnr" v="487290" />
	</node>
	<node lat="59.097094443882334" lon="10.28741667287078" id="-49179">
		<tag k="name" v="Øyåsen" />
		<tag k="natural" v="hill" />
		<tag k="place" v="locality" />
		<tag k="ssr:stedsnr" v="510290" />
	</node>
	<node lat="59.17506388877722" lon="10.327024996767177" id="-49184">
		<tag k="name" v="Østre Skravestadkollen" />
		<tag k="natural" v="hill" />
		<tag k="place" v="locality" />
		<tag k="ssr:stedsnr" v="510599" />
	</node>
	<node lat="59.2048250040176" lon="10.28509721649379" id="-49185">
		<tag k="name" v="Kihle" />
		<tag k="place" v="locality" />
		<tag k="ssr:stedsnr" v="510232" />
	</node>
	<node lat="59.12344431639279" lon="10.256243346427555" id="-49198">
		<tag k="fixme" v="consider natural=peak for the most distinct mountains in the district" />
		<tag k="name" v="Varden" />
		<tag k="natural" v="hill" />
		<tag k="place" v="locality" />
		<tag k="ssr:stedsnr" v="512319" />
	</node>
	<node lat="59.36224166404672" lon="10.06198054803744" id="-49200">
		<tag k="name" v="Bjørdal" />
		<tag k="natural" v="valley" />
		<tag k="place" v="locality" />
		<tag k="ssr:stedsnr" v="512243" />
	</node>
	<node lat="59.3656500004335" lon="10.072336113247408" id="-49201">
		<tag k="name" v="Stytteberget" />
		<tag k="natural" v="hill" />
		<tag k="place" v="locality" />
		<tag k="ssr:stedsnr" v="512245" />
	</node>
	<node lat="59.083316663049786" lon="10.261952782378772" id="-49205">
		<tag k="name" v="Sjøberget" />
		<tag k="natural" v="hill" />
		<tag k="place" v="locality" />
		<tag k="ssr:stedsnr" v="512555" />
	</node>
	<node lat="59.311977775559605" lon="10.259394436282893" id="-49208">
		<tag k="fixme" v="consider natural=peak for the most distinct mountains in the district" />
		<tag k="name" v="Hoksrødåsen" />
		<tag k="natural" v="hill" />
		<tag k="place" v="locality" />
		<tag k="ssr:stedsnr" v="512352" />
	</node>
	<node lat="59.33131666285842" lon="10.185130551899617" id="-49209">
		<tag k="fixme" v="consider natural=peak for the most distinct mountains in the district" />
		<tag k="name" v="Stulsåsen" />
		<tag k="natural" v="hill" />
		<tag k="place" v="locality" />
		<tag k="ssr:stedsnr" v="512451" />
	</node>
	<node lat="59.233744444115" lon="10.139944452740263" id="-49212">
		<tag k="fixme" v="consider natural=peak for the most distinct mountains in the district" />
		<tag k="name" v="Tassås" />
		<tag k="natural" v="hill" />
		<tag k="place" v="locality" />
		<tag k="ssr:stedsnr" v="512981" />
	</node>
	<node lat="59.24833610926349" lon="10.136569443509758" id="-49213">
		<tag k="fixme" v="consider natural=peak for the most distinct mountains in the district" />
		<tag k="name" v="Reklingmyråsen" />
		<tag k="natural" v="hill" />
		<tag k="place" v="locality" />
		<tag k="ssr:stedsnr" v="512986" />
	</node>
	<node lat="59.325461109198905" lon="10.036533332199665" id="-49216">
		<tag k="fixme" v="consider natural=peak for the most distinct mountains in the district" />
		<tag k="name" v="Gampekaståsen" />
		<tag k="natural" v="hill" />
		<tag k="place" v="locality" />
		<tag k="ssr:stedsnr" v="512669" />
	</node>
	<node lat="59.14088055292397" lon="10.256613886280176" id="-49217">
		<tag k="fixme" v="consider natural=peak for the most distinct mountains in the district" />
		<tag k="name" v="Flatåsen" />
		<tag k="natural" v="hill" />
		<tag k="place" v="locality" />
		<tag k="ssr:stedsnr" v="512736" />
	</node>
	<node lat="59.17033610974602" lon="10.177872218960967" id="-49218">
		<tag k="name" v="Lastelandet" />
		<tag k="place" v="locality" />
		<tag k="ssr:stedsnr" v="512754" />
	</node>
	<node lat="59.279424997808185" lon="10.085786113794168" id="-49222">
		<tag k="name" v="Franserønningen" />
		<tag k="natural" v="slope" />
		<tag k="place" v="locality" />
		<tag k="ssr:stedsnr" v="512843" />
	</node>
	<node lat="59.271611110624015" lon="10.047436115119206" id="-49225">
		<tag k="fixme" v="consider natural=peak for the most distinct mountains in the district" />
		<tag k="name" v="Skrubbåsen" />
		<tag k="natural" v="hill" />
		<tag k="place" v="locality" />
		<tag k="ssr:stedsnr" v="512852" />
	</node>
	<node lat="59.22912500083277" lon="10.093183334498782" id="-49231">
		<tag k="name" v="Myrdalen" />
		<tag k="natural" v="valley" />
		<tag k="place" v="locality" />
		<tag k="ssr:stedsnr" v="512998" />
	</node>
	<node lat="59.233550002561536" lon="10.085113881986603" id="-49232">
		<tag k="name" v="Vardalen" />
		<tag k="natural" v="valley" />
		<tag k="place" v="locality" />
		<tag k="ssr:stedsnr" v="512999" />
	</node>
	<node lat="59.22952222020895" lon="10.097486115185609" id="-49233">
		<tag k="name" v="Smårønningene" />
		<tag k="natural" v="slope" />
		<tag k="place" v="locality" />
		<tag k="ssr:stedsnr" v="513000" />
	</node>
	<node lat="59.27620833120421" lon="10.211150000557105" id="-49235">
		<tag k="fixme" v="consider natural=peak for the most distinct mountains in the district" />
		<tag k="name" v="Svinningen" />
		<tag k="natural" v="hill" />
		<tag k="place" v="locality" />
		<tag k="ssr:stedsnr" v="513517" />
	</node>
	<node lat="59.053711109026914" lon="10.271649993390874" id="-49254">
		<tag k="name" v="Sørpynten" />
		<tag k="natural" v="hill" />
		<tag k="place" v="locality" />
		<tag k="ssr:stedsnr" v="547201" />
	</node>
	<node lat="59.19180000331957" lon="10.146366674613615" id="-49258">
		<tag k="name" v="Lyrkollen" />
		<tag k="natural" v="hill" />
		<tag k="place" v="locality" />
		<tag k="ssr:stedsnr" v="547171" />
	</node>
	<node lat="59.34090832896223" lon="10.066891659588874" id="-49277">
		<tag k="fixme" v="consider natural=peak for the most distinct mountains in the district" />
		<tag k="name" v="Dalsåsen" />
		<tag k="natural" v="hill" />
		<tag k="place" v="locality" />
		<tag k="ssr:stedsnr" v="548745" />
	</node>
	<node lat="59.125330552216234" lon="10.28766666784239" id="-49286">
		<tag k="fixme" v="consider natural=peak for the most distinct mountains in the district" />
		<tag k="name" v="Sundeåsen" />
		<tag k="natural" v="hill" />
		<tag k="place" v="locality" />
		<tag k="ssr:stedsnr" v="570201" />
	</node>
	<node lat="59.15014722415362" lon="10.303969452138537" id="-49290">
		<tag k="fixme" v="consider natural=peak for the most distinct mountains in the district" />
		<tag k="name" v="Hønnerødåsen" />
		<tag k="natural" v="hill" />
		<tag k="place" v="locality" />
		<tag k="ssr:stedsnr" v="571272" />
	</node>
	<node lat="59.13222221942591" lon="10.231666674393649" id="-49293">
		<tag k="fixme" v="consider natural=peak for the most distinct mountains in the district" />
		<tag k="name" v="Preståsen" />
		<tag k="natural" v="hill" />
		<tag k="place" v="locality" />
		<tag k="ssr:stedsnr" v="572336" />
	</node>
	<node lat="59.32385278089334" lon="10.0156972154161" id="-49294">
		<tag k="name" v="Bølevannsskærvene" />
		<tag k="natural" v="hill" />
		<tag k="place" v="locality" />
		<tag k="ssr:stedsnr" v="572628" />
	</node>
	<node lat="59.290661109932955" lon="10.106975001592646" id="-49297">
		<tag k="name" v="Åstra" />
		<tag k="place" v="locality" />
		<tag k="ssr:stedsnr" v="572828" />
	</node>
	<node lat="59.275541670531275" lon="10.039497221441382" id="-49298">
		<tag k="name" v="Kjettedalen" />
		<tag k="natural" v="valley" />
		<tag k="place" v="locality" />
		<tag k="ssr:stedsnr" v="572655" />
	</node>
	<node lat="59.25002222365728" lon="10.019811107768087" id="-49299">
		<tag k="name" v="Skogdalen" />
		<tag k="natural" v="valley" />
		<tag k="place" v="locality" />
		<tag k="ssr:stedsnr" v="572663" />
	</node>
	<node lat="59.320883329875485" lon="10.082180563871637" id="-49300">
		<tag k="fixme" v="consider natural=peak for the most distinct mountains in the district" />
		<tag k="name" v="Tranumkollen" />
		<tag k="natural" v="hill" />
		<tag k="place" v="locality" />
		<tag k="ssr:stedsnr" v="573195" />
	</node>
	<node lat="59.301811109700374" lon="10.11303056070385" id="-49301">
		<tag k="name" v="Langerønningane" />
		<tag k="natural" v="hill" />
		<tag k="place" v="locality" />
		<tag k="ssr:stedsnr" v="573234" />
	</node>
	<node lat="59.30322777471054" lon="10.094983332189386" id="-49302">
		<tag k="name" v="Leirdal" />
		<tag k="natural" v="valley" />
		<tag k="place" v="locality" />
		<tag k="ssr:stedsnr" v="573237" />
	</node>
	<node lat="59.3054555512241" lon="10.248541663244161" id="-49307">
		<tag k="name" v="Bokeli" />
		<tag k="natural" v="slope" />
		<tag k="place" v="locality" />
		<tag k="ssr:stedsnr" v="573335" />
	</node>
	<node lat="59.225836111566075" lon="10.24571110334751" id="-49310">
		<tag k="fixme" v="consider natural=peak for the most distinct mountains in the district" />
		<tag k="name" v="Undelstvetåsen" />
		<tag k="natural" v="hill" />
		<tag k="place" v="locality" />
		<tag k="ssr:stedsnr" v="573633" />
	</node>
	<node lat="59.10583333201329" lon="10.260625001630935" id="-49313">
		<tag k="fixme" v="consider natural=peak for the most distinct mountains in the district" />
		<tag k="name" v="Langåkeråsen" />
		<tag k="natural" v="hill" />
		<tag k="place" v="locality" />
		<tag k="ssr:stedsnr" v="573541" />
	</node>
	<node lat="59.23762222449586" lon="10.0462055555483" id="-49317">
		<tag k="name" v="Smaldal" />
		<tag k="natural" v="valley" />
		<tag k="place" v="locality" />
		<tag k="ssr:stedsnr" v="573764" />
	</node>
	<node lat="59.3084694478257" lon="10.027194437098451" id="-49322">
		<tag k="name" v="Seterdalen" />
		<tag k="natural" v="valley" />
		<tag k="place" v="locality" />
		<tag k="ssr:stedsnr" v="573584" />
	</node>
	<node lat="59.058302778258444" lon="10.264094442158173" id="-49323">
		<tag k="fixme" v="consider natural=peak for the most distinct mountains in the district" />
		<tag k="name" v="Rønningsåsen" />
		<tag k="natural" v="hill" />
		<tag k="place" v="locality" />
		<tag k="ssr:stedsnr" v="573594" />
	</node>
	<node lat="59.195088891060315" lon="10.178491673294022" id="-49324">
		<tag k="name" v="Merradalen" />
		<tag k="natural" v="valley" />
		<tag k="place" v="locality" />
		<tag k="ssr:stedsnr" v="573694" />
	</node>
	<node lat="59.223422222986656" lon="10.117750005740405" id="-49333">
		<tag k="fixme" v="consider natural=peak for the most distinct mountains in the district" />
		<tag k="name" v="Brånan" />
		<tag k="natural" v="hill" />
		<tag k="place" v="locality" />
		<tag k="ssr:stedsnr" v="573957" />
	</node>
	<node lat="59.21366667090339" lon="10.095166660193478" id="-49334">
		<tag k="name" v="Ljøsterød" />
		<tag k="natural" v="valley" />
		<tag k="place" v="locality" />
		<tag k="ssr:stedsnr" v="573962" />
	</node>
	<node lat="59.250074999106346" lon="10.194919452640402" id="-49335">
		<tag k="name" v="Horntvedt M" />
		<tag k="natural" v="slope" />
		<tag k="place" v="locality" />
		<tag k="ssr:stedsnr" v="574447" />
	</node>
	<node lat="59.15974444152381" lon="10.27558056020678" id="-49362">
		<tag k="name" v="Ringfjellet" />
		<tag k="natural" v="hill" />
		<tag k="place" v="locality" />
		<tag k="ssr:stedsnr" v="608225" />
	</node>
	<node lat="59.22944999976489" lon="10.086380552838936" id="-49368">
		<tag k="alt_name" v="N. Brånarhusåsen" />
		<tag k="fixme" v="consider natural=peak for the most distinct mountains in the district" />
		<tag k="name" v="Brånarhusåsen" />
		<tag k="natural" v="hill" />
		<tag k="place" v="locality" />
		<tag k="ssr:stedsnr" v="608329" />
	</node>
	<node lat="59.22483610782103" lon="10.225538893192219" id="-49370">
		<tag k="fixme" v="consider natural=peak for the most distinct mountains in the district" />
		<tag k="name" v="Storås" />
		<tag k="natural" v="hill" />
		<tag k="place" v="locality" />
		<tag k="ssr:stedsnr" v="608336" />
	</node>
	<node lat="59.33271110983016" lon="10.117100005641326" id="-49381">
		<tag k="fixme" v="consider natural=peak for the most distinct mountains in the district" />
		<tag k="name" v="Storås" />
		<tag k="natural" v="hill" />
		<tag k="place" v="locality" />
		<tag k="ssr:stedsnr" v="616662" />
	</node>
	<node lat="59.13272221996934" lon="10.277433336700152" id="-49382">
		<tag k="fixme" v="consider natural=peak for the most distinct mountains in the district" />
		<tag k="name" v="Høgenhallåsen" />
		<tag k="natural" v="hill" />
		<tag k="place" v="locality" />
		<tag k="ssr:stedsnr" v="631226" />
	</node>
	<node lat="59.162983333109565" lon="10.295991669909675" id="-49385">
		<tag k="name" v="Skårsåsen" />
		<tag k="natural" v="hill" />
		<tag k="place" v="locality" />
		<tag k="ssr:stedsnr" v="631268" />
	</node>
	<node lat="59.05086111217436" lon="10.278947214980686" id="-49387">
		<tag k="name" v="Hestefjellet" />
		<tag k="natural" v="hill" />
		<tag k="place" v="locality" />
		<tag k="ssr:stedsnr" v="631327" />
	</node>
	<node lat="59.082022220382434" lon="10.293719446747069" id="-49388">
		<tag k="name" v="Aslefjellet" />
		<tag k="natural" v="hill" />
		<tag k="place" v="locality" />
		<tag k="ssr:stedsnr" v="631284" />
	</node>
	<node lat="59.31362500225487" lon="10.126480559339731" id="-49391">
		<tag k="fixme" v="consider natural=peak for the most distinct mountains in the district" />
		<tag k="name" v="Brånæskastet" />
		<tag k="natural" v="hill" />
		<tag k="place" v="locality" />
		<tag k="ssr:stedsnr" v="633262" />
	</node>
	<node lat="59.34151944826958" lon="10.143133329353427" id="-49394">
		<tag k="fixme" v="consider natural=peak for the most distinct mountains in the district" />
		<tag k="name" v="Bjønnås" />
		<tag k="natural" v="hill" />
		<tag k="place" v="locality" />
		<tag k="ssr:stedsnr" v="633173" />
	</node>
	<node lat="59.337311110296895" lon="10.08019166474191" id="-49397">
		<tag k="name" v="Geitedal" />
		<tag k="natural" v="valley" />
		<tag k="place" v="locality" />
		<tag k="ssr:stedsnr" v="633180" />
	</node>
	<node lat="59.34878333319774" lon="10.077205563311072" id="-49398">
		<tag k="fixme" v="consider natural=peak for the most distinct mountains in the district" />
		<tag k="name" v="Furumoåsen" />
		<tag k="natural" v="hill" />
		<tag k="place" v="locality" />
		<tag k="ssr:stedsnr" v="633182" />
	</node>
	<node lat="59.36084999658288" lon="10.047672225218463" id="-49402">
		<tag k="name" v="Stutaua" />
		<tag k="natural" v="hill" />
		<tag k="place" v="locality" />
		<tag k="ssr:stedsnr" v="633272" />
	</node>
	<node lat="59.37478610903294" lon="10.094380551892133" id="-49403">
		<tag k="name" v="Vrangdal" />
		<tag k="natural" v="valley" />
		<tag k="place" v="locality" />
		<tag k="ssr:stedsnr" v="633277" />
	</node>
	<node lat="59.30043610891846" lon="10.11890000072661" id="-49404">
		<tag k="fixme" v="consider natural=peak for the most distinct mountains in the district" />
		<tag k="name" v="Ulvekula" />
		<tag k="natural" v="hill" />
		<tag k="place" v="locality" />
		<tag k="ssr:stedsnr" v="633280" />
	</node>
	<node lat="59.201058329944004" lon="10.110277780230206" id="-49408">
		<tag k="fixme" v="consider natural=peak for the most distinct mountains in the district" />
		<tag k="name" v="Nurkholtåsen" />
		<tag k="natural" v="hill" />
		<tag k="place" v="locality" />
		<tag k="ssr:stedsnr" v="633853" />
	</node>
	<node lat="59.29106388441898" lon="10.11209445266516" id="-49409">
		<tag k="name" v="Smedalen" />
		<tag k="natural" v="valley" />
		<tag k="place" v="locality" />
		<tag k="ssr:stedsnr" v="633855" />
	</node>
	<node lat="59.09269444415094" lon="10.21070833384106" id="-49415">
		<tag k="fixme" v="consider natural=peak for the most distinct mountains in the district" />
		<tag k="name" v="Kiserudåsen" />
		<tag k="natural" v="hill" />
		<tag k="place" v="locality" />
		<tag k="ssr:stedsnr" v="633548" />
	</node>
	<node lat="59.18572222379613" lon="10.171713892991319" id="-49422">
		<tag k="fixme" v="consider natural=peak for the most distinct mountains in the district" />
		<tag k="name" v="Tjønnåsen" />
		<tag k="natural" v="hill" />
		<tag k="place" v="locality" />
		<tag k="ssr:stedsnr" v="633732" />
	</node>
	<node lat="59.143447217885644" lon="10.20947500683507" id="-49424">
		<tag k="fixme" v="consider natural=peak for the most distinct mountains in the district" />
		<tag k="name" v="Mokollen" />
		<tag k="natural" v="hill" />
		<tag k="place" v="locality" />
		<tag k="ssr:stedsnr" v="633759" />
	</node>
	<node lat="59.13749999913854" lon="10.22222221960388" id="-49426">
		<tag k="name" v="Mattisberget" />
		<tag k="natural" v="hill" />
		<tag k="place" v="locality" />
		<tag k="ssr:stedsnr" v="633779" />
	</node>
	<node lat="59.22536944604169" lon="10.140058341706148" id="-49430">
		<tag k="name" v="Huken" />
		<tag k="natural" v="slope" />
		<tag k="place" v="locality" />
		<tag k="ssr:stedsnr" v="633964" />
	</node>
	<node lat="59.22165833356086" lon="10.083344446176074" id="-49433">
		<tag k="fixme" v="consider natural=peak for the most distinct mountains in the district" />
		<tag k="name" v="Rønningsåsene" />
		<tag k="natural" v="hill" />
		<tag k="place" v="locality" />
		<tag k="ssr:stedsnr" v="633976" />
	</node>
	<node lat="59.21977500243865" lon="10.062308326905749" id="-49434">
		<tag k="name" v="Holmene nedre" />
		<tag k="natural" v="slope" />
		<tag k="place" v="locality" />
		<tag k="ssr:stedsnr" v="633979" />
	</node>
	<node lat="59.28306110737131" lon="10.236008326493607" id="-49437">
		<tag k="fixme" v="consider natural=peak for the most distinct mountains in the district" />
		<tag k="name" v="Brattåsåsen" />
		<tag k="natural" v="hill" />
		<tag k="place" v="locality" />
		<tag k="ssr:stedsnr" v="634447" />
	</node>
	<node lat="59.07648055278233" lon="10.269983331950618" id="-49450">
		<tag k="fixme" v="multiple name tags, choose one and add the other to alt_name; consider natural=peak for the most distinct mountains in the district" />
		<tag k="name" v="Vardås;Auvefjell" />
		<tag k="natural" v="hill" />
		<tag k="place" v="locality" />
		<tag k="ssr:stedsnr" v="730138" />
	</node>
	<node lat="59.07299444159952" lon="10.299916667142467" id="-49465">
		<tag k="fixme" v="consider natural=peak for the most distinct mountains in the district" />
		<tag k="name" v="Boklumåsen" />
		<tag k="natural" v="hill" />
		<tag k="place" v="locality" />
		<tag k="ssr:stedsnr" v="752304" />
	</node>
	<node lat="59.344333337061286" lon="10.031363893329006" id="-49471">
		<tag k="name" v="Trollsvannsdalen" />
		<tag k="natural" v="valley" />
		<tag k="place" v="locality" />
		<tag k="ssr:stedsnr" v="754566" />
	</node>
	<node lat="59.310461113406575" lon="10.024772218459214" id="-49472">
		<tag k="fixme" v="consider natural=peak for the most distinct mountains in the district" />
		<tag k="name" v="Briskåsen" />
		<tag k="natural" v="hill" />
		<tag k="place" v="locality" />
		<tag k="ssr:stedsnr" v="754593" />
	</node>
	<node lat="59.26243611316294" lon="10.019033339759263" id="-49473">
		<tag k="name" v="Sebabrudalen" />
		<tag k="natural" v="valley" />
		<tag k="place" v="locality" />
		<tag k="ssr:stedsnr" v="754646" />
	</node>
	<node lat="59.10801388898529" lon="10.287011104787126" id="-49478">
		<tag k="name" v="Gamlefjellet" />
		<tag k="natural" v="hill" />
		<tag k="place" v="locality" />
		<tag k="ssr:stedsnr" v="755043" />
	</node>
	<node lat="59.35910277961181" lon="10.128844442597506" id="-49479">
		<tag k="fixme" v="consider natural=peak for the most distinct mountains in the district" />
		<tag k="name" v="Lauvås" />
		<tag k="natural" v="hill" />
		<tag k="place" v="locality" />
		<tag k="ssr:stedsnr" v="755130" />
	</node>
	<node lat="59.311652774534686" lon="10.183411102614798" id="-49481">
		<tag k="name" v="Kullerød" />
		<tag k="natural" v="slope" />
		<tag k="place" v="locality" />
		<tag k="ssr:stedsnr" v="755432" />
	</node>
	<node lat="59.34685555255727" lon="10.123425002471325" id="-49484">
		<tag k="fixme" v="consider natural=peak for the most distinct mountains in the district" />
		<tag k="name" v="Rønningsåsen" />
		<tag k="natural" v="hill" />
		<tag k="place" v="locality" />
		<tag k="ssr:stedsnr" v="755146" />
	</node>
	<node lat="59.33191110887695" lon="10.12072222919423" id="-49486">
		<tag k="name" v="Uledalen" />
		<tag k="natural" v="valley" />
		<tag k="place" v="locality" />
		<tag k="ssr:stedsnr" v="755227" />
	</node>
	<node lat="59.315533337551486" lon="10.112558325337828" id="-49487">
		<tag k="fixme" v="consider natural=peak for the most distinct mountains in the district" />
		<tag k="name" v="Langevannsåsen" />
		<tag k="natural" v="hill" />
		<tag k="place" v="locality" />
		<tag k="ssr:stedsnr" v="755228" />
	</node>
	<node lat="59.30217777780379" lon="10.054866663900219" id="-49488">
		<tag k="name" v="Plassen" />
		<tag k="place" v="locality" />
		<tag k="ssr:stedsnr" v="755244" />
	</node>
	<node lat="59.29618611178722" lon="10.077636104645073" id="-49489">
		<tag k="name" v="Svingen" />
		<tag k="natural" v="slope" />
		<tag k="place" v="locality" />
		<tag k="ssr:stedsnr" v="755249" />
	</node>
	<node lat="59.23013889023848" lon="10.239416659451846" id="-49496">
		<tag k="fixme" v="consider natural=peak for the most distinct mountains in the district" />
		<tag k="name" v="Elgåsen" />
		<tag k="natural" v="hill" />
		<tag k="place" v="locality" />
		<tag k="ssr:stedsnr" v="755690" />
	</node>
	<node lat="59.197280560006575" lon="10.184436111796302" id="-49498">
		<tag k="name" v="Kjerva" />
		<tag k="natural" v="valley" />
		<tag k="place" v="locality" />
		<tag k="ssr:stedsnr" v="755697" />
	</node>
	<node lat="59.22575555831973" lon="10.083405563305663" id="-49502">
		<tag k="fixme" v="consider natural=peak for the most distinct mountains in the district" />
		<tag k="name" v="Tveitanåsen" />
		<tag k="natural" v="hill" />
		<tag k="place" v="locality" />
		<tag k="ssr:stedsnr" v="755971" />
	</node>
	<node lat="59.23921111193712" lon="10.144233329904733" id="-49503">
		<tag k="name" v="Gurua" />
		<tag k="natural" v="hill" />
		<tag k="place" v="locality" />
		<tag k="ssr:stedsnr" v="755987" />
	</node>
	<node lat="59.23191666656982" lon="10.07143055713141" id="-49504">
		<tag k="fixme" v="consider natural=peak for the most distinct mountains in the district" />
		<tag k="name" v="Stigen" />
		<tag k="natural" v="hill" />
		<tag k="place" v="locality" />
		<tag k="ssr:stedsnr" v="755992" />
	</node>
	<node lat="59.20637222538506" lon="10.252266666416718" id="-49507">
		<tag k="name" v="Bredholt" />
		<tag k="place" v="locality" />
		<tag k="ssr:stedsnr" v="755730" />
	</node>
	<node lat="59.267436111899706" lon="10.152155561310815" id="-49511">
		<tag k="name" v="Hanedalen" />
		<tag k="natural" v="valley" />
		<tag k="place" v="locality" />
		<tag k="ssr:stedsnr" v="755780" />
	</node>
	<node lat="59.105299998120394" lon="10.249591669364538" id="-49516">
		<tag k="fixme" v="consider natural=peak for the most distinct mountains in the district" />
		<tag k="name" v="Flatåsen" />
		<tag k="natural" v="hill" />
		<tag k="place" v="locality" />
		<tag k="ssr:stedsnr" v="756591" />
	</node>
	<node lat="59.141336112287284" lon="10.31096944060352" id="-49540">
		<tag k="fixme" v="consider natural=peak for the most distinct mountains in the district" />
		<tag k="name" v="Klopplokkåsen" />
		<tag k="natural" v="hill" />
		<tag k="place" v="locality" />
		<tag k="ssr:stedsnr" v="813241" />
	</node>
	<node lat="59.153641666838496" lon="10.314513882931612" id="-49542">
		<tag k="fixme" v="consider natural=peak for the most distinct mountains in the district" />
		<tag k="name" v="Verksåsen" />
		<tag k="natural" v="hill" />
		<tag k="place" v="locality" />
		<tag k="ssr:stedsnr" v="813261" />
	</node>
	<node lat="59.09018055922495" lon="10.293800000444797" id="-49545">
		<tag k="name" v="Påskeåsen" />
		<tag k="natural" v="hill" />
		<tag k="place" v="locality" />
		<tag k="ssr:stedsnr" v="814366" />
	</node>
	<node lat="59.2342194437921" lon="10.329216666707515" id="-49547">
		<tag k="fixme" v="consider natural=peak for the most distinct mountains in the district" />
		<tag k="name" v="Brekkeåsen" />
		<tag k="natural" v="hill" />
		<tag k="place" v="locality" />
		<tag k="ssr:stedsnr" v="814464" />
	</node>
	<node lat="59.2295749978036" lon="10.308311115542255" id="-49549">
		<tag k="fixme" v="consider natural=peak for the most distinct mountains in the district" />
		<tag k="name" v="Holtanåsen" />
		<tag k="natural" v="hill" />
		<tag k="place" v="locality" />
		<tag k="ssr:stedsnr" v="814470" />
	</node>
	<node lat="59.23397499718223" lon="10.310377782855419" id="-49550">
		<tag k="fixme" v="consider natural=peak for the most distinct mountains in the district" />
		<tag k="name" v="Lågerødåsen" />
		<tag k="natural" v="hill" />
		<tag k="place" v="locality" />
		<tag k="ssr:stedsnr" v="814471" />
	</node>
	<node lat="59.183477781225605" lon="10.328411111067014" id="-49553">
		<tag k="fixme" v="consider natural=peak for the most distinct mountains in the district" />
		<tag k="name" v="Klåstadåsen" />
		<tag k="natural" v="hill" />
		<tag k="place" v="locality" />
		<tag k="ssr:stedsnr" v="815459" />
	</node>
	<node lat="59.23950555840717" lon="10.03486388838896" id="-49560">
		<tag k="name" v="Nommedal" />
		<tag k="natural" v="valley" />
		<tag k="place" v="locality" />
		<tag k="ssr:stedsnr" v="816802" />
	</node>
	<node lat="59.304316665187294" lon="10.117716662329821" id="-49563">
		<tag k="name" v="Smårønningane" />
		<tag k="natural" v="hill" />
		<tag k="place" v="locality" />
		<tag k="ssr:stedsnr" v="816247" />
	</node>
	<node lat="59.343099996685126" lon="10.181330552896826" id="-49570">
		<tag k="name" v="Brånan" />
		<tag k="natural" v="hill" />
		<tag k="place" v="locality" />
		<tag k="ssr:stedsnr" v="816353" />
	</node>
	<node lat="59.06782500119556" lon="10.253502770318173" id="-49576">
		<tag k="name" v="Kvernberget" />
		<tag k="natural" v="hill" />
		<tag k="place" v="locality" />
		<tag k="ssr:stedsnr" v="816665" />
	</node>
	<node lat="59.0648027813827" lon="10.26940833085404" id="-49578">
		<tag k="name" v="Ekeroberget" />
		<tag k="natural" v="hill" />
		<tag k="place" v="locality" />
		<tag k="ssr:stedsnr" v="816670" />
	</node>
	<node lat="59.228377781718194" lon="10.249252774389518" id="-49579">
		<tag k="fixme" v="consider natural=peak for the most distinct mountains in the district" />
		<tag k="name" v="Brudebekkåsen" />
		<tag k="natural" v="hill" />
		<tag k="place" v="locality" />
		<tag k="ssr:stedsnr" v="816734" />
	</node>
	<node lat="59.34576666584382" lon="10.179080560697773" id="-49580">
		<tag k="fixme" v="consider natural=peak for the most distinct mountains in the district" />
		<tag k="name" v="Brånakleiva" />
		<tag k="natural" v="hill" />
		<tag k="place" v="locality" />
		<tag k="ssr:stedsnr" v="816359" />
	</node>
	<node lat="59.08511389102366" lon="10.266266674215105" id="-49582">
		<tag k="fixme" v="consider natural=peak for the most distinct mountains in the district" />
		<tag k="name" v="Verningåsen" />
		<tag k="natural" v="hill" />
		<tag k="place" v="locality" />
		<tag k="ssr:stedsnr" v="816596" />
	</node>
	<node lat="59.30898333234631" lon="10.038897214531767" id="-49583">
		<tag k="fixme" v="consider natural=peak for the most distinct mountains in the district" />
		<tag k="name" v="Faulemyråsane" />
		<tag k="natural" v="hill" />
		<tag k="place" v="locality" />
		<tag k="ssr:stedsnr" v="816599" />
	</node>
	<node lat="59.27509444113832" lon="10.127286103468716" id="-49584">
		<tag k="alt_name" v="Jakopsberje" />
		<tag k="fixme" v="consider natural=peak for the most distinct mountains in the district" />
		<tag k="name" v="Jakopberje" />
		<tag k="natural" v="hill" />
		<tag k="place" v="locality" />
		<tag k="ssr:stedsnr" v="816838" />
	</node>
	<node lat="59.19856666429758" lon="10.110361112114305" id="-49586">
		<tag k="fixme" v="consider natural=peak for the most distinct mountains in the district" />
		<tag k="name" v="Trollsåsen" />
		<tag k="natural" v="hill" />
		<tag k="place" v="locality" />
		<tag k="ssr:stedsnr" v="816852" />
	</node>
	<node lat="59.244122220153635" lon="10.11126389430494" id="-49588">
		<tag k="name" v="Stamperhølet" />
		<tag k="natural" v="valley" />
		<tag k="place" v="locality" />
		<tag k="ssr:stedsnr" v="817000" />
	</node>
	<node lat="59.30299721847891" lon="10.273408338071334" id="-49590">
		<tag k="fixme" v="consider natural=peak for the most distinct mountains in the district" />
		<tag k="name" v="Steingardåsen" />
		<tag k="natural" v="hill" />
		<tag k="place" v="locality" />
		<tag k="ssr:stedsnr" v="816768" />
	</node>
	<node lat="59.25390833714125" lon="10.142111111319895" id="-49591">
		<tag k="fixme" v="consider natural=peak for the most distinct mountains in the district" />
		<tag k="name" v="Sommerstadåsen" />
		<tag k="natural" v="hill" />
		<tag k="place" v="locality" />
		<tag k="ssr:stedsnr" v="816803" />
	</node>
	<node lat="59.27240000067404" lon="10.138075008061309" id="-49594">
		<tag k="name" v="Hotvedt" />
		<tag k="place" v="locality" />
		<tag k="ssr:stedsnr" v="816811" />
	</node>
	<node lat="59.19071111176648" lon="10.133252778883497" id="-49609">
		<tag k="fixme" v="consider natural=peak for the most distinct mountains in the district" />
		<tag k="name" v="Bergeåsen" />
		<tag k="natural" v="hill" />
		<tag k="place" v="locality" />
		<tag k="ssr:stedsnr" v="851151" />
	</node>
	<node lat="59.35504166391493" lon="10.040902770722187" id="-49620">
		<tag k="fixme" v="consider natural=peak for the most distinct mountains in the district" />
		<tag k="name" v="Dalseteråsen" />
		<tag k="natural" v="hill" />
		<tag k="place" v="locality" />
		<tag k="ssr:stedsnr" v="852738" />
	</node>
	<node lat="59.20490833334957" lon="10.280724998220657" id="-49628">
		<tag k="fixme" v="consider natural=peak for the most distinct mountains in the district" />
		<tag k="name" v="Kihlåsen" />
		<tag k="natural" v="hill" />
		<tag k="place" v="locality" />
		<tag k="ssr:stedsnr" v="874258" />
	</node>
	<node lat="59.09589999659964" lon="10.307399998604373" id="-49630">
		<tag k="name" v="Kaldglovene" />
		<tag k="natural" v="slope" />
		<tag k="place" v="locality" />
		<tag k="ssr:stedsnr" v="875329" />
	</node>
	<node lat="59.09769166450257" lon="10.29518889493314" id="-49633">
		<tag k="name" v="Lille Vatnhaugen" />
		<tag k="natural" v="hill" />
		<tag k="place" v="locality" />
		<tag k="ssr:stedsnr" v="875334" />
	</node>
	<node lat="59.24247778109503" lon="10.336213894313511" id="-49634">
		<tag k="fixme" v="consider natural=peak for the most distinct mountains in the district" />
		<tag k="name" v="Utsikten" />
		<tag k="natural" v="hill" />
		<tag k="place" v="locality" />
		<tag k="ssr:stedsnr" v="875448" />
	</node>
	<node lat="59.31547500388879" lon="10.029561109270642" id="-49637">
		<tag k="fixme" v="consider natural=peak for the most distinct mountains in the district" />
		<tag k="name" v="Brænna" />
		<tag k="natural" v="hill" />
		<tag k="place" v="locality" />
		<tag k="ssr:stedsnr" v="876645" />
	</node>
	<node lat="59.28346111230514" lon="10.082900005586113" id="-49640">
		<tag k="name" v="Vidaråsen landsby" />
		<tag k="place" v="locality" />
		<tag k="ssr:stedsnr" v="876813" />
	</node>
	<node lat="59.277697221834664" lon="10.093766664885239" id="-49641">
		<tag k="fixme" v="consider natural=peak for the most distinct mountains in the district" />
		<tag k="name" v="Kaståsen" />
		<tag k="natural" v="hill" />
		<tag k="place" v="locality" />
		<tag k="ssr:stedsnr" v="876819" />
	</node>
	<node lat="59.144813885046666" lon="10.132836112722165" id="-49643">
		<tag k="name" v="Tislelia" />
		<tag k="natural" v="slope" />
		<tag k="place" v="locality" />
		<tag k="ssr:stedsnr" v="876843" />
	</node>
	<node lat="59.30604444582884" lon="10.061233327557012" id="-49644">
		<tag k="fixme" v="consider natural=peak for the most distinct mountains in the district" />
		<tag k="name" v="Steinsåsen" />
		<tag k="natural" v="hill" />
		<tag k="place" v="locality" />
		<tag k="ssr:stedsnr" v="877233" />
	</node>
	<node lat="59.09866110735905" lon="10.20743055306055" id="-49649">
		<tag k="name" v="Gørrhaugen" />
		<tag k="natural" v="hill" />
		<tag k="place" v="locality" />
		<tag k="ssr:stedsnr" v="877540" />
	</node>
	<node lat="59.08827777445552" lon="10.208405547051386" id="-49650">
		<tag k="fixme" v="consider natural=peak for the most distinct mountains in the district" />
		<tag k="name" v="Åsane" />
		<tag k="natural" v="hill" />
		<tag k="place" v="locality" />
		<tag k="ssr:stedsnr" v="877547" />
	</node>
	<node lat="59.08247499700126" lon="10.194725001340107" id="-49651">
		<tag k="fixme" v="consider natural=peak for the most distinct mountains in the district" />
		<tag k="name" v="Påskeåsen" />
		<tag k="natural" v="hill" />
		<tag k="place" v="locality" />
		<tag k="ssr:stedsnr" v="877551" />
	</node>
	<node lat="59.33969166548423" lon="10.1727638905121" id="-49653">
		<tag k="name" v="Rauneflauget" />
		<tag k="natural" v="hill" />
		<tag k="place" v="locality" />
		<tag k="ssr:stedsnr" v="877391" />
	</node>
	<node lat="59.257580552772694" lon="10.252380559184076" id="-49654">
		<tag k="name" v="Lie" />
		<tag k="natural" v="slope" />
		<tag k="place" v="locality" />
		<tag k="ssr:stedsnr" v="877396" />
	</node>
	<node lat="59.20604444275817" lon="10.257311109050518" id="-49657">
		<tag k="name" v="Bredholtrønningen" />
		<tag k="place" v="locality" />
		<tag k="ssr:stedsnr" v="877749" />
	</node>
	<node lat="59.11204444850146" lon="10.223250008627922" id="-49658">
		<tag k="name" v="Nordkollen" />
		<tag k="natural" v="hill" />
		<tag k="place" v="locality" />
		<tag k="ssr:stedsnr" v="877580" />
	</node>
	<node lat="59.10356111058706" lon="10.21083888805156" id="-49659">
		<tag k="fixme" v="consider natural=peak for the most distinct mountains in the district" />
		<tag k="name" v="Hystadåsen" />
		<tag k="natural" v="hill" />
		<tag k="place" v="locality" />
		<tag k="ssr:stedsnr" v="877582" />
	</node>
	<node lat="59.12039722646351" lon="10.247774992413564" id="-49661">
		<tag k="fixme" v="consider natural=peak for the most distinct mountains in the district" />
		<tag k="name" v="Hagaåsen" />
		<tag k="natural" v="hill" />
		<tag k="place" v="locality" />
		<tag k="ssr:stedsnr" v="877595" />
	</node>
	<node lat="59.05946666723401" lon="10.260775008288396" id="-49665">
		<tag k="name" v="Granglova" />
		<tag k="natural" v="valley" />
		<tag k="place" v="locality" />
		<tag k="ssr:stedsnr" v="877642" />
	</node>
	<node lat="59.26116111147021" lon="10.123383330493523" id="-49666">
		<tag k="fixme" v="consider natural=peak for the most distinct mountains in the district" />
		<tag k="name" v="Askedalsåsen" />
		<tag k="natural" v="hill" />
		<tag k="place" v="locality" />
		<tag k="ssr:stedsnr" v="877794" />
	</node>
	<node lat="59.25563055309237" lon="10.112772229123346" id="-49667">
		<tag k="name" v="Svartedal" />
		<tag k="natural" v="valley" />
		<tag k="place" v="locality" />
		<tag k="ssr:stedsnr" v="877796" />
	</node>
	<node lat="59.25679443996977" lon="10.1148944490652" id="-49668">
		<tag k="fixme" v="consider natural=peak for the most distinct mountains in the district" />
		<tag k="name" v="Jammeråsen" />
		<tag k="natural" v="hill" />
		<tag k="place" v="locality" />
		<tag k="ssr:stedsnr" v="877800" />
	</node>
	<node lat="59.201572221161726" lon="10.123980561118824" id="-49672">
		<tag k="fixme" v="consider natural=peak for the most distinct mountains in the district" />
		<tag k="name" v="Vassengåsen" />
		<tag k="natural" v="hill" />
		<tag k="place" v="locality" />
		<tag k="ssr:stedsnr" v="877847" />
	</node>
	<node lat="59.241630557200736" lon="10.14188888290311" id="-49678">
		<tag k="fixme" v="consider natural=peak for the most distinct mountains in the district" />
		<tag k="name" v="Kirilåsen" />
		<tag k="natural" v="hill" />
		<tag k="place" v="locality" />
		<tag k="ssr:stedsnr" v="877993" />
	</node>
	<node lat="59.12309722096135" lon="10.278583330544915" id="-49681">
		<tag k="name" v="Hafallbrekka" />
		<tag k="natural" v="hill" />
		<tag k="place" v="locality" />
		<tag k="ssr:stedsnr" v="935211" />
	</node>
	<node lat="59.14050832930713" lon="10.322397214753247" id="-49684">
		<tag k="name" v="Langglova" />
		<tag k="natural" v="hill" />
		<tag k="place" v="locality" />
		<tag k="ssr:stedsnr" v="935258" />
	</node>
	<node lat="59.16004166841812" lon="10.283125004872037" id="-49686">
		<tag k="name" v="Ringkollen" />
		<tag k="natural" v="hill" />
		<tag k="place" v="locality" />
		<tag k="ssr:stedsnr" v="935273" />
	</node>
	<node lat="59.15351666545721" lon="10.28798333995164" id="-49688">
		<tag k="name" v="Dåpan" />
		<tag k="natural" v="hill" />
		<tag k="place" v="locality" />
		<tag k="ssr:stedsnr" v="935283" />
	</node>
	<node lat="59.225233328863396" lon="10.328352783936417" id="-49690">
		<tag k="name" v="Melsombakken" />
		<tag k="natural" v="slope" />
		<tag k="place" v="locality" />
		<tag k="ssr:stedsnr" v="935432" />
	</node>
	<node lat="59.17422500341736" lon="10.319505563827857" id="-49698">
		<tag k="fixme" v="consider natural=peak for the most distinct mountains in the district" />
		<tag k="name" v="Frøsås" />
		<tag k="natural" v="hill" />
		<tag k="place" v="locality" />
		<tag k="ssr:stedsnr" v="935476" />
	</node>
	<node lat="59.29981110662552" lon="10.112458339613646" id="-49701">
		<tag k="fixme" v="consider natural=peak for the most distinct mountains in the district" />
		<tag k="name" v="Susåsen" />
		<tag k="natural" v="hill" />
		<tag k="place" v="locality" />
		<tag k="ssr:stedsnr" v="937280" />
	</node>
	<node lat="59.29891944506344" lon="10.115994439535545" id="-49702">
		<tag k="name" v="Susen" />
		<tag k="natural" v="hill" />
		<tag k="place" v="locality" />
		<tag k="ssr:stedsnr" v="937281" />
	</node>
	<node lat="59.29488888513399" lon="10.184338885736977" id="-49705">
		<tag k="name" v="Trytebærje" />
		<tag k="natural" v="slope" />
		<tag k="place" v="locality" />
		<tag k="ssr:stedsnr" v="937369" />
	</node>
	<node lat="59.09061388784957" lon="10.268333325806973" id="-49711">
		<tag k="name" v="Båtsdalen" />
		<tag k="natural" v="valley" />
		<tag k="place" v="locality" />
		<tag k="ssr:stedsnr" v="937569" />
	</node>
	<node lat="59.084133330458585" lon="10.266244436173734" id="-49712">
		<tag k="name" v="Fjøsglova" />
		<tag k="natural" v="valley" />
		<tag k="place" v="locality" />
		<tag k="ssr:stedsnr" v="937571" />
	</node>
	<node lat="59.34063055182349" lon="10.04839444921858" id="-49713">
		<tag k="name" v="Flåene" />
		<tag k="natural" v="slope" />
		<tag k="place" v="locality" />
		<tag k="ssr:stedsnr" v="937164" />
	</node>
	<node lat="59.3063388898947" lon="10.176550001985172" id="-49718">
		<tag k="name" v="Bankbakken" />
		<tag k="natural" v="slope" />
		<tag k="place" v="locality" />
		<tag k="ssr:stedsnr" v="937441" />
	</node>
	<node lat="59.30388055506553" lon="10.025116668974885" id="-49722">
		<tag k="name" v="Bjørkedalen" />
		<tag k="natural" v="valley" />
		<tag k="place" v="locality" />
		<tag k="ssr:stedsnr" v="937633" />
	</node>
	<node lat="59.31566110968327" lon="10.018752774268595" id="-49724">
		<tag k="name" v="Pæltane" />
		<tag k="natural" v="slope" />
		<tag k="place" v="locality" />
		<tag k="ssr:stedsnr" v="937663" />
	</node>
	<node lat="59.3286222179729" lon="10.03660277726979" id="-49725">
		<tag k="fixme" v="consider natural=peak for the most distinct mountains in the district" />
		<tag k="name" v="Gørpussåsen" />
		<tag k="natural" v="hill" />
		<tag k="place" v="locality" />
		<tag k="ssr:stedsnr" v="937670" />
	</node>
	<node lat="59.30930833591901" lon="10.042211102834512" id="-49728">
		<tag k="name" v="Svervestolen" />
		<tag k="natural" v="hill" />
		<tag k="place" v="locality" />
		<tag k="ssr:stedsnr" v="937577" />
	</node>
	<node lat="59.27133611004701" lon="10.034288890084222" id="-49729">
		<tag k="name" v="Jerpedal" />
		<tag k="natural" v="valley" />
		<tag k="place" v="locality" />
		<tag k="ssr:stedsnr" v="937687" />
	</node>
	<node lat="59.08104166490592" lon="10.265038892297138" id="-49734">
		<tag k="fixme" v="consider natural=peak for the most distinct mountains in the district" />
		<tag k="name" v="Gapfjell" />
		<tag k="natural" v="hill" />
		<tag k="place" v="locality" />
		<tag k="ssr:stedsnr" v="937779" />
	</node>
	<node lat="59.287494440759694" lon="10.123724998385699" id="-49735">
		<tag k="fixme" v="consider natural=peak for the most distinct mountains in the district" />
		<tag k="name" v="Sauåsen" />
		<tag k="natural" v="hill" />
		<tag k="place" v="locality" />
		<tag k="ssr:stedsnr" v="937849" />
	</node>
	<node lat="59.150566667493045" lon="10.245919449247294" id="-49738">
		<tag k="fixme" v="consider natural=peak for the most distinct mountains in the district" />
		<tag k="name" v="Dverdalsåsen" />
		<tag k="natural" v="hill" />
		<tag k="place" v="locality" />
		<tag k="ssr:stedsnr" v="937793" />
	</node>
	<node lat="59.24957777562766" lon="10.143208337109318" id="-49741">
		<tag k="name" v="Gjerlaplassen" />
		<tag k="place" v="locality" />
		<tag k="ssr:stedsnr" v="937807" />
	</node>
	<node lat="59.231877774908455" lon="10.031441664262806" id="-49742">
		<tag k="name" v="Magnusdalen" />
		<tag k="natural" v="valley" />
		<tag k="place" v="locality" />
		<tag k="ssr:stedsnr" v="937809" />
	</node>
	<node lat="59.2175083363383" lon="10.088416662814522" id="-49745">
		<tag k="name" v="Tjønnedallia" />
		<tag k="natural" v="slope" />
		<tag k="place" v="locality" />
		<tag k="ssr:stedsnr" v="937977" />
	</node>
	<node lat="59.119280554728384" lon="10.21744444884353" id="-49747">
		<tag k="fixme" v="consider natural=peak for the most distinct mountains in the district" />
		<tag k="name" v="Ranvikåsen" />
		<tag k="natural" v="hill" />
		<tag k="place" v="locality" />
		<tag k="ssr:stedsnr" v="938546" />
	</node>
	<node lat="59.28634166446548" lon="10.264219436202103" id="-49748">
		<tag k="name" v="Åsbakken" />
		<tag k="natural" v="slope" />
		<tag k="place" v="locality" />
		<tag k="ssr:stedsnr" v="938425" />
	</node>
	<node lat="59.28167499653631" lon="10.204183328606446" id="-49750">
		<tag k="name" v="Bonden" />
		<tag k="natural" v="slope" />
		<tag k="place" v="locality" />
		<tag k="ssr:stedsnr" v="938492" />
	</node>
	<node lat="59.256986111961005" lon="10.30018332518874" id="-49752">
		<tag k="fixme" v="consider natural=peak for the most distinct mountains in the district" />
		<tag k="name" v="Tonås" />
		<tag k="natural" v="hill" />
		<tag k="place" v="locality" />
		<tag k="ssr:stedsnr" v="938660" />
	</node>
</osm>
