<?xml version="1.0" encoding="UTF-8"?>
<<<<<<< HEAD
<osm version="0.6" generator="osmapis">
	<node lat="59.192986110913466" lon="10.34129999561043" id="-27632">
		<tag k="name" v="Ravnø" />
		<tag k="place" v="island" />
		<tag k="ssr:stedsnr" v="1197" />
	</node>
	<node lat="59.062291667022315" lon="10.280616661360057" id="-27649">
		<tag k="fixme" v="consider seamark:type=rock or natural=shoal" />
		<tag k="name" v="Fluene" />
		<tag k="place" v="islet" />
		<tag k="ssr:stedsnr" v="24332" />
	</node>
	<node lat="59.07119722546832" lon="10.277222214010061" id="-27658">
		<tag k="name" v="Grubesand" />
		<tag k="natural" v="beach" />
		<tag k="ssr:stedsnr" v="26903" />
	</node>
	<node lat="59.10083333191084" lon="10.223333333770961" id="-27685">
		<tag k="name" v="Skaustranda" />
		<tag k="natural" v="beach" />
		<tag k="ssr:stedsnr" v="28569" />
	</node>
	<node lat="59.099688890374736" lon="10.229586117145884" id="-27686">
		<tag k="name" v="Løkholmen" />
		<tag k="place" v="islet" />
		<tag k="ssr:stedsnr" v="28571" />
	</node>
	<node lat="59.11835508149418" lon="10.224209046168253" id="-27687">
		<tag k="name" v="Stubb" />
		<tag k="natural" v="beach" />
		<tag k="ssr:stedsnr" v="28575" />
	</node>
	<node lat="59.08230555377604" lon="10.229166664156953" id="-27692">
		<tag k="name" v="Langgamla" />
		<tag k="natural" v="shoal" />
		<tag k="place" v="locality" />
		<tag k="ssr:stedsnr" v="239567" />
	</node>
	<node lat="59.07624166275742" lon="10.314580551125259" id="-27695">
		<tag k="alt_name" v="Lakseholmen" />
		<tag k="name" v="Laksholmen" />
		<tag k="place" v="islet" />
		<tag k="ssr:stedsnr" v="62126" />
	</node>
	<node lat="59.04282499699785" lon="10.271841667463015" id="-27697">
		<tag k="name" v="Tveitanodden" />
		<tag k="natural" v="cape" />
		<tag k="ssr:stedsnr" v="62192" />
	</node>
	<node lat="59.12235278101414" lon="10.313119438517491" id="-27706">
		<tag k="alt_name" v="Mareskjær" />
		<tag k="fixme" v="consider seamark:type=rock or natural=shoal" />
		<tag k="name" v="Marøskjæret" />
		<tag k="old_name" v="Marøyskjera;Marøyskjæra" />
		<tag k="place" v="islet" />
		<tag k="ssr:stedsnr" v="244068" />
	</node>
	<node lat="59.07793055657016" lon="10.253791663802364" id="-27710">
		<tag k="name" v="Hellesøya" />
		<tag k="place" v="islet" />
		<tag k="ssr:stedsnr" v="244152" />
	</node>
	<node lat="59.0819277812027" lon="10.339669440586142" id="-27711">
		<tag k="fixme" v="consider seamark:type=rock or natural=shoal" />
		<tag k="name" v="Torgerskjæra" />
		<tag k="place" v="islet" />
		<tag k="ssr:stedsnr" v="244130" />
	</node>
	<node lat="59.12761666267624" lon="10.326005556723494" id="-27729">
		<tag k="name" v="Furuvika" />
		<tag k="natural" v="bay" />
		<tag k="ssr:stedsnr" v="85207" />
	</node>
	<node lat="59.072480551113344" lon="10.313005561474123" id="-27731">
		<tag k="name" v="Trubersund" />
		<tag k="natural" v="strait" />
		<tag k="ssr:stedsnr" v="85276" />
	</node>
	<node lat="59.0588833341934" lon="10.297211113546" id="-27732">
		<tag k="name" v="Torsholmen" />
		<tag k="place" v="islet" />
		<tag k="ssr:stedsnr" v="85279" />
	</node>
	<node lat="59.24612222575934" lon="10.378486114074878" id="-27733">
		<tag k="bay" v="fjord" />
		<tag k="name" v="Vestfjorden" />
		<tag k="natural" v="bay" />
		<tag k="ssr:stedsnr" v="245295" />
	</node>
	<node lat="59.096655554601455" lon="10.240000008211036" id="-27769">
		<tag k="name" v="Asnes" />
		<tag k="natural" v="cape" />
		<tag k="ssr:stedsnr" v="122102" />
	</node>
	<node lat="59.08831389229202" lon="10.220833341417238" id="-27770">
		<tag k="name" v="Granholmen" />
		<tag k="place" v="islet" />
		<tag k="ssr:stedsnr" v="122111" />
	</node>
	<node lat="59.11433055812853" lon="10.26614445160166" id="-27774">
		<tag k="name" v="Ormestadholmen" />
		<tag k="place" v="islet" />
		<tag k="ssr:stedsnr" v="123080" />
	</node>
	<node lat="59.07483055834163" lon="10.221805553779879" id="-27778">
		<tag k="fixme" v="multiple name tags, choose one and add the other to alt_name" />
		<tag k="name" v="Storøya;Skogøy" />
		<tag k="place" v="islet" />
		<tag k="ssr:stedsnr" v="123148" />
	</node>
	<node lat="59.07808889120718" lon="10.307705551639469" id="-27779">
		<tag k="fixme" v="consider seamark:type=rock or natural=shoal" />
		<tag k="name" v="Selskjæret" />
		<tag k="place" v="islet" />
		<tag k="ssr:stedsnr" v="145278" />
	</node>
	<node lat="59.17117222483126" lon="10.328627784596522" id="-27784">
		<tag k="name" v="Gleabukta" />
		<tag k="natural" v="bay" />
		<tag k="ssr:stedsnr" v="146418" />
	</node>
	<node lat="59.09719999754467" lon="10.229797230407712" id="-27794">
		<tag k="name" v="Ulkeholmen" />
		<tag k="place" v="islet" />
		<tag k="ssr:stedsnr" v="148555" />
	</node>
	<node lat="59.09046666600494" lon="10.23151943715465" id="-27796">
		<tag k="name" v="Lofterødtredelen" />
		<tag k="place" v="islet" />
		<tag k="ssr:stedsnr" v="148562" />
	</node>
	<node lat="59.08894444627721" lon="10.232444446334243" id="-27814">
		<tag k="fixme" v="consider seamark:type=rock or natural=shoal" />
		<tag k="name" v="Bjerkskjær" />
		<tag k="place" v="islet" />
		<tag k="ssr:stedsnr" v="176753" />
	</node>
	<node lat="59.112438887596795" lon="10.31764999682869" id="-27819">
		<tag k="fixme" v="consider seamark:type=rock or natural=shoal" />
		<tag k="name" v="Svartskjær" />
		<tag k="place" v="islet" />
		<tag k="ssr:stedsnr" v="184050" />
	</node>
	<node lat="59.162641667959655" lon="10.328197219673312" id="-27822">
		<tag k="alt_name" v="Langø;Langøy" />
		<tag k="name" v="Langøya" />
		<tag k="place" v="island" />
		<tag k="ssr:stedsnr" v="184228" />
	</node>
	<node lat="59.14574166791891" lon="10.327752783056832" id="-27839">
		<tag k="fixme" v="consider seamark:type=rock or natural=shoal" />
		<tag k="name" v="Pikeskjæret" />
		<tag k="place" v="islet" />
		<tag k="ssr:stedsnr" v="207281" />
	</node>
	<node lat="59.07660555279713" lon="10.219266667060213" id="-27864">
		<tag k="name" v="Tuten" />
		<tag k="natural" v="cape" />
		<tag k="ssr:stedsnr" v="209614" />
	</node>
	<node lat="59.08108611181946" lon="10.25937777262108" id="-27871">
		<tag k="name" v="Stråholmen" />
		<tag k="place" v="islet" />
		<tag k="ssr:stedsnr" v="209751" />
	</node>
	<node lat="59.07879768260555" lon="10.217479580296455" id="-27872">
		<tag k="name" v="Sørbyøya" />
		<tag k="natural" v="cape" />
		<tag k="ssr:stedsnr" v="209752" />
	</node>
	<node lat="59.08215277747669" lon="10.231444448001712" id="-27873">
		<tag k="fixme" v="consider seamark:type=rock or natural=shoal" />
		<tag k="name" v="Vasskalven" />
		<tag k="place" v="islet" />
		<tag k="ssr:stedsnr" v="209753" />
	</node>
	<node lat="59.02060000332854" lon="10.307308324883374" id="-27884">
		<tag k="name" v="Sydostre" />
		<tag k="natural" v="shoal" />
		<tag k="place" v="locality" />
		<tag k="ssr:stedsnr" v="269959" />
	</node>
	<node lat="59.0538555537731" lon="10.264711117881598" id="-27899">
		<tag k="name" v="Susebukta" />
		<tag k="natural" v="bay" />
		<tag k="ssr:stedsnr" v="270614" />
	</node>
	<node lat="59.06180833739033" lon="10.255502777422725" id="-27907">
		<tag k="fixme" v="consider seamark:type=rock or natural=shoal" />
		<tag k="name" v="Jenteskjæret" />
		<tag k="place" v="islet" />
		<tag k="ssr:stedsnr" v="270632" />
	</node>
	<node lat="59.063430553636636" lon="10.25906667480823" id="-27908">
		<tag k="fixme" v="consider seamark:type=rock or natural=shoal" />
		<tag k="name" v="Gutteglova" />
=======
<osm generator="osmapis" version="0.6">
	<node id="-412757" lat="59.0474250007" lon="10.281322224">
		<tag k="alt_name" v="Fruvikholmene" />
		<tag k="name" v="Fruvikholmane" />
		<tag k="place" v="islet" />
		<tag k="ssr:stedsnr" v="790156" />
	</node>
	<node id="-413692" lat="59.1160916636" lon="10.2914277745">
		<tag k="name" v="Skjellvika" />
		<tag k="natural" v="beach" />
		<tag k="place" v="locality" />
		<tag k="ssr:stedsnr" v="427080" />
	</node>
	<node id="-412150" lat="59.0654888899" lon="10.2418944462">
		<tag k="name" v="Håholmen" />
		<tag k="place" v="islet" />
		<tag k="ssr:stedsnr" v="487157" />
	</node>
	<node id="-412149" lat="59.1015666711" lon="10.2789750034">
		<tag k="name" v="Grindholmen" />
		<tag k="place" v="islet" />
		<tag k="ssr:stedsnr" v="487077" />
	</node>
	<node id="-412660" lat="59.0972749997" lon="10.2511444514">
		<tag k="name" v="Tangenbukta" />
		<tag k="natural" v="bay" />
		<tag k="ssr:stedsnr" v="694506" />
	</node>
	<node id="-413814" lat="59.0549555575" lon="10.2638138849">
		<tag k="fixme" v="consider seamark:type=rock or natural=shoal" />
		<tag k="name" v="Blyreva" />
		<tag k="place" v="islet" />
		<tag k="ssr:stedsnr" v="573577" />
	</node>
	<node id="-413681" lat="59.2032499983" lon="10.3475472165">
		<tag k="name" v="Gåsø" />
		<tag k="place" v="islet" />
		<tag k="ssr:stedsnr" v="426052" />
	</node>
	<node id="-412144" lat="59.1139749988" lon="10.3101916716">
		<tag k="name" v="Fornet" />
		<tag k="place" v="islet" />
		<tag k="ssr:stedsnr" v="487059" />
	</node>
	<node id="-413678" lat="59.0952777767" lon="10.2511111089">
		<tag k="name" v="Såta" />
		<tag k="natural" v="shoal" />
		<tag k="place" v="locality" />
		<tag k="ssr:stedsnr" v="423777" />
	</node>
	<node id="-412138" lat="59.0477527748" lon="10.3234000037">
		<tag k="name" v="Storekrakk" />
		<tag k="natural" v="shoal" />
		<tag k="place" v="locality" />
		<tag k="ssr:stedsnr" v="486180" />
	</node>
	<node id="-412649" lat="59.1774666653" lon="10.3322222243">
		<tag k="name" v="Nallebergodden" />
		<tag k="natural" v="cape" />
		<tag k="ssr:stedsnr" v="878977" />
	</node>
	<node id="-412199" lat="59.0877666631" lon="10.2289555606">
		<tag k="name" v="Fjellholmen" />
		<tag k="place" v="islet" />
		<tag k="ssr:stedsnr" v="391556" />
	</node>
	<node id="-412135" lat="59.0752861072" lon="10.2308111032">
		<tag k="name" v="Uleholmen s." />
		<tag k="place" v="islet" />
		<tag k="ssr:stedsnr" v="330908" />
	</node>
	<node id="-412145" lat="59.111383335" lon="10.3255500057">
		<tag k="alt_name" v="Vakop" />
		<tag k="fixme" v="consider seamark:type=rock or natural=shoal" />
		<tag k="name" v="Vakopp" />
		<tag k="place" v="islet" />
		<tag k="ssr:stedsnr" v="487062" />
	</node>
	<node id="-412241" lat="59.0916111093" lon="10.2305611106">
		<tag k="name" v="Seilerholmen" />
		<tag k="place" v="islet" />
		<tag k="ssr:stedsnr" v="512552" />
	</node>
	<node id="-414179" lat="59.1314527792" lon="10.3318027716">
		<tag k="name" v="Årøbåen" />
		<tag k="natural" v="shoal" />
		<tag k="place" v="locality" />
		<tag k="ssr:stedsnr" v="875570" />
	</node>
	<node id="-413153" lat="59.096587499" lon="10.2483300193">
		<tag k="name" v="Tangen" />
		<tag k="natural" v="cape" />
		<tag k="ssr:stedsnr" v="87289" />
	</node>
	<node id="-414175" lat="59.1372138912" lon="10.281297227">
		<tag k="name" v="Elverhøystranda" />
		<tag k="natural" v="beach" />
		<tag k="place" v="locality" />
		<tag k="ssr:stedsnr" v="874283" />
	</node>
	<node id="-414174" lat="59.0346777733" lon="10.2784444515">
		<tag k="fixme" v="consider seamark:type=rock or natural=shoal" />
		<tag k="name" v="Leikerane" />
		<tag k="place" v="islet" />
		<tag k="ssr:stedsnr" v="874334" />
	</node>
	<node id="-412922" lat="59.1265027811" lon="10.2836027809">
		<tag k="name" v="Røysebekk-kilen" />
		<tag k="natural" v="bay" />
		<tag k="ssr:stedsnr" v="935228" />
	</node>
	<node id="-412122" lat="59.0728555517" lon="10.2807472236">
		<tag k="fixme" v="consider seamark:type=rock or natural=shoal" />
		<tag k="name" v="Grubsandskjæret" />
		<tag k="place" v="islet" />
		<tag k="ssr:stedsnr" v="328310" />
	</node>
	<node id="-412121" lat="59.122552777" lon="10.2993638942">
		<tag k="fixme" v="consider seamark:type=rock or natural=shoal" />
		<tag k="name" v="Hestebåen" />
		<tag k="place" v="islet" />
		<tag k="ssr:stedsnr" v="328222" />
	</node>
	<node id="-413143" lat="59.0588833342" lon="10.2972111135">
		<tag k="name" v="Torsholmen" />
		<tag k="place" v="islet" />
		<tag k="ssr:stedsnr" v="85279" />
	</node>
	<node id="-412629" lat="59.0695583349" lon="10.2416527811">
		<tag k="alt_name" v="Kari" />
		<tag k="name" v="Karibåen" />
		<tag k="place" v="locality" />
		<tag k="seamark:type" v="rock" />
		<tag k="ssr:stedsnr" v="877641" />
	</node>
	<node id="-414161" lat="59.104402775" lon="10.3068305525">
		<tag k="alt_name" v="Stigerholmen;Stigerholmene" />
		<tag k="name" v="Stigerholmane" />
		<tag k="place" v="islet" />
		<tag k="ssr:stedsnr" v="852087" />
	</node>
	<node id="-412224" lat="59.1336888904" lon="10.2989694446">
		<tag k="name" v="Furuholmene" />
		<tag k="place" v="islet" />
		<tag k="ssr:stedsnr" v="510237" />
	</node>
	<node id="-413130" lat="59.0865222206" lon="10.3479305489">
		<tag k="alt_name" v="Helgerødskjera" />
		<tag k="name" v="Helgerødskjæra" />
		<tag k="place" v="islet" />
		<tag k="ssr:stedsnr" v="62412" />
	</node>
	<node id="-412407" lat="59.0653638881" lon="10.259474998">
		<tag k="name" v="Slottsvika" />
		<tag k="natural" v="bay" />
		<tag k="ssr:stedsnr" v="487153" />
	</node>
	<node id="-412101" lat="59.1610305573" lon="10.3341166607">
		<tag k="name" v="Løkkabåen" />
		<tag k="place" v="locality" />
		<tag k="seamark:type" v="rock" />
		<tag k="ssr:stedsnr" v="271060" />
	</node>
	<node id="-414148" lat="59.0695083337" lon="10.338744446">
		<tag k="fixme" v="consider seamark:type=rock or natural=shoal" />
		<tag k="name" v="Stauperluva" />
		<tag k="place" v="islet" />
		<tag k="ssr:stedsnr" v="851144" />
	</node>
	<node id="-413631" lat="59.0752888919" lon="10.347683339">
		<tag k="name" v="Eksellensebåen" />
		<tag k="natural" v="shoal" />
		<tag k="place" v="locality" />
		<tag k="ssr:stedsnr" v="390985" />
	</node>
	<node id="-413118" lat="59.042824997" lon="10.2718416675">
		<tag k="name" v="Tveitanodden" />
		<tag k="natural" v="cape" />
		<tag k="ssr:stedsnr" v="62192" />
	</node>
	<node id="-414137" lat="59.0940833308" lon="10.244208328">
		<tag k="name" v="Korsvikbåen" />
		<tag k="natural" v="shoal" />
		<tag k="place" v="locality" />
		<tag k="ssr:stedsnr" v="844765" />
	</node>
	<node id="-413623" lat="59.1078888913" lon="10.2789500082">
		<tag k="fixme" v="consider seamark:type=rock or natural=shoal" />
		<tag k="name" v="Buskjæret" />
		<tag k="place" v="islet" />
		<tag k="ssr:stedsnr" v="390037" />
	</node>
	<node id="-412598" lat="59.0677833317" lon="10.2910833358">
		<tag k="name" v="Kollholmen" />
>>>>>>> e1d4bc35ff8a6074a6f2e91616a996b547c36f15
		<tag k="place" v="islet" />
		<tag k="ssr:stedsnr" v="876910" />
	</node>
<<<<<<< HEAD
	<node lat="59.161030557340844" lon="10.334116660736177" id="-27929">
		<tag k="name" v="Løkkabåen" />
		<tag k="place" v="locality" />
		<tag k="seamark:type" v="rock" />
		<tag k="ssr:stedsnr" v="271060" />
	</node>
	<node lat="59.07913888599623" lon="10.309316665682076" id="-27941">
		<tag k="fixme" v="consider seamark:type=rock or natural=shoal" />
		<tag k="name" v="Bikkjeskjæret" />
		<tag k="place" v="islet" />
		<tag k="ssr:stedsnr" v="449288" />
	</node>
	<node lat="59.0795833311002" lon="10.28071111056825" id="-27942">
		<tag k="name" v="Båtholmen" />
		<tag k="place" v="islet" />
		<tag k="ssr:stedsnr" v="449290" />
	</node>
	<node lat="59.244219447471345" lon="10.374750001259413" id="-27951">
		<tag k="name" v="Sjustokkdynga" />
		<tag k="natural" v="shoal" />
		<tag k="place" v="locality" />
		<tag k="ssr:stedsnr" v="238833" />
	</node>
	<node lat="59.10629999655428" lon="10.279494440900946" id="-27952">
		<tag k="name" v="Buholmen" />
		<tag k="place" v="islet" />
		<tag k="ssr:stedsnr" v="451045" />
	</node>
	<node lat="59.042769445192036" lon="10.263530549003805" id="-27954">
		<tag k="name" v="Holtskjærgrunnen" />
		<tag k="natural" v="shoal" />
		<tag k="place" v="locality" />
		<tag k="ssr:stedsnr" v="451958" />
	</node>
	<node lat="59.0936777820806" lon="10.328241670206804" id="-27955">
		<tag k="fixme" v="consider seamark:type=rock or natural=shoal" />
		<tag k="name" v="Bikja" />
		<tag k="place" v="islet" />
		<tag k="ssr:stedsnr" v="451984" />
	</node>
	<node lat="59.07372500306586" lon="10.314888897096097" id="-27958">
		<tag k="alt_name" v="Lakseskjæret" />
		<tag k="fixme" v="consider seamark:type=rock or natural=shoal" />
		<tag k="name" v="Lakseskjæra" />
		<tag k="place" v="islet" />
		<tag k="ssr:stedsnr" v="244145" />
	</node>
	<node lat="59.08714722569734" lon="10.227113888701085" id="-27979">
		<tag k="fixme" v="consider seamark:type=rock or natural=shoal" />
		<tag k="name" v="Jordbærskjæret" />
		<tag k="place" v="islet" />
		<tag k="ssr:stedsnr" v="452547" />
	</node>
	<node lat="59.10951388554818" lon="10.230616665667188" id="-28005">
		<tag k="name" v="Gonvika" />
		<tag k="natural" v="bay" />
		<tag k="ssr:stedsnr" v="453589" />
	</node>
	<node lat="59.12637499961292" lon="10.312169444127607" id="-28016">
		<tag k="name" v="Engeodden" />
		<tag k="natural" v="cape" />
		<tag k="ssr:stedsnr" v="267214" />
	</node>
	<node lat="59.13686666335543" lon="10.29103888815489" id="-28017">
		<tag k="fixme" v="consider seamark:type=rock or natural=shoal" />
		<tag k="name" v="Katteskjæret" />
=======
	<node id="-412085" lat="59.0538555538" lon="10.2647111179">
		<tag k="name" v="Susebukta" />
		<tag k="natural" v="bay" />
		<tag k="ssr:stedsnr" v="270614" />
	</node>
	<node id="-413108" lat="59.0762416628" lon="10.3145805511">
		<tag k="alt_name" v="Lakseholmen" />
		<tag k="name" v="Laksholmen" />
		<tag k="place" v="islet" />
		<tag k="ssr:stedsnr" v="62126" />
	</node>
	<node id="-413863" lat="59.0846166643" lon="10.2826361133">
		<tag k="name" v="Tossen" />
		<tag k="place" v="islet" />
		<tag k="ssr:stedsnr" v="608109" />
	</node>
	<node id="-413104" lat="59.0897222191" lon="10.2552777718">
		<tag k="name" v="Buerlandet" />
		<tag k="natural" v="beach" />
		<tag k="place" v="locality" />
		<tag k="ssr:stedsnr" v="55732" />
	</node>
	<node id="-412185" lat="59.1325083314" lon="10.3100888921">
		<tag k="fixme" v="consider seamark:type=rock or natural=shoal" />
		<tag k="name" v="Båtstadskjæra" />
		<tag k="place" v="islet" />
		<tag k="ssr:stedsnr" v="388214" />
	</node>
	<node id="-413614" lat="59.0434527807" lon="10.3341472193">
		<tag k="name" v="Mellomgrunnen" />
		<tag k="natural" v="shoal" />
		<tag k="place" v="locality" />
		<tag k="ssr:stedsnr" v="388951" />
	</node>
	<node id="-413613" lat="59.0833527757" lon="10.2890861037">
		<tag k="name" v="Eianholmen" />
		<tag k="place" v="islet" />
		<tag k="ssr:stedsnr" v="388280" />
	</node>
	<node id="-413100" lat="59.0933611114" lon="10.2495833305">
		<tag k="name" v="Sandholmen" />
		<tag k="place" v="islet" />
		<tag k="ssr:stedsnr" v="40293" />
	</node>
	<node id="-414122" lat="59.0676805569" lon="10.2701833318">
		<tag k="fixme" v="consider seamark:type=rock or natural=shoal" />
		<tag k="name" v="Landskjæret" />
		<tag k="place" v="islet" />
		<tag k="ssr:stedsnr" v="816674" />
	</node>
	<node id="-414120" lat="59.0659083307" lon="10.2572916588">
		<tag k="fixme" v="consider seamark:type=rock or natural=shoal" />
		<tag k="name" v="Jomfruskjæra" />
		<tag k="place" v="islet" />
		<tag k="ssr:stedsnr" v="816668" />
	</node>
	<node id="-413093" lat="59.1188888908" lon="10.2236111042">
		<tag k="name" v="Stubb" />
		<tag k="natural" v="beach" />
		<tag k="place" v="locality" />
		<tag k="ssr:stedsnr" v="28575" />
	</node>
	<node id="-414114" lat="59.0784499997" lon="10.2614555638">
		<tag k="name" v="Langeby badestrand" />
		<tag k="natural" v="beach" />
		<tag k="place" v="locality" />
		<tag k="ssr:stedsnr" v="816776" />
	</node>
	<node id="-413339" lat="59.162641668" lon="10.3281972197">
		<tag k="alt_name" v="Langø;Langøy" />
		<tag k="name" v="Langøya" />
		<tag k="place" v="island" />
		<tag k="ssr:stedsnr" v="184228" />
	</node>
	<node id="-412485" lat="59.1722972204" lon="10.3392861189">
		<tag k="name" v="Arøbåen" />
		<tag k="natural" v="shoal" />
		<tag k="place" v="locality" />
		<tag k="ssr:stedsnr" v="570525" />
	</node>
	<node id="-412060" lat="59.1095138855" lon="10.2306166657">
		<tag k="name" v="Gonvika" />
		<tag k="natural" v="bay" />
		<tag k="ssr:stedsnr" v="453589" />
	</node>
	<node id="-413592" lat="59.0527000019" lon="10.3295027706">
		<tag k="name" v="Svartebåen" />
		<tag k="natural" v="shoal" />
		<tag k="place" v="locality" />
		<tag k="ssr:stedsnr" v="366172" />
	</node>
	<node id="-411801" lat="59.0737250031" lon="10.3148888971">
		<tag k="alt_name" v="Lakseskjæret" />
		<tag k="fixme" v="consider seamark:type=rock or natural=shoal" />
		<tag k="name" v="Lakseskjæra" />
		<tag k="place" v="islet" />
		<tag k="ssr:stedsnr" v="244145" />
	</node>
	<node id="-413588" lat="59.1082749972" lon="10.2744916675">
		<tag k="name" v="Storholmen" />
		<tag k="place" v="islet" />
		<tag k="ssr:stedsnr" v="366064" />
	</node>
	<node id="-412563" lat="59.0816027782" lon="10.2914055557">
		<tag k="alt_name" v="Eianholmen" />
		<tag k="name" v="Andholmen" />
>>>>>>> e1d4bc35ff8a6074a6f2e91616a996b547c36f15
		<tag k="place" v="islet" />
		<tag k="ssr:stedsnr" v="730115" />
	</node>
<<<<<<< HEAD
	<node lat="59.14876389164979" lon="10.309588886599165" id="-28023">
		<tag k="name" v="Engebukta" />
		<tag k="natural" v="bay" />
		<tag k="ssr:stedsnr" v="268283" />
	</node>
	<node lat="59.09683055352324" lon="10.242705551177785" id="-28037">
		<tag k="name" v="Asnes badestrand" />
		<tag k="natural" v="beach" />
		<tag k="ssr:stedsnr" v="270528" />
	</node>
	<node lat="59.09222222443107" lon="10.249805556781718" id="-28060">
		<tag k="name" v="Mellomholmen" />
=======
	<node id="-413586" lat="59.1242555549" lon="10.3227805503">
		<tag k="name" v="Nattholmen" />
		<tag k="place" v="island" />
		<tag k="ssr:stedsnr" v="366052" />
	</node>
	<node id="-413072" lat="59.057836108" lon="10.2616833371">
		<tag k="name" v="Rørvikholmen" />
>>>>>>> e1d4bc35ff8a6074a6f2e91616a996b547c36f15
		<tag k="place" v="islet" />
		<tag k="ssr:stedsnr" v="27636" />
	</node>
<<<<<<< HEAD
	<node lat="59.12255277698408" lon="10.299363894226897" id="-28062">
		<tag k="fixme" v="consider seamark:type=rock or natural=shoal" />
		<tag k="name" v="Hestebåen" />
		<tag k="place" v="islet" />
		<tag k="ssr:stedsnr" v="328222" />
	</node>
	<node lat="59.091461108700166" lon="10.334963888888781" id="-28063">
		<tag k="name" v="Betjenterholmen" />
		<tag k="place" v="islet" />
		<tag k="ssr:stedsnr" v="328263" />
	</node>
	<node lat="59.097166665268226" lon="10.231702778370721" id="-28077">
		<tag k="name" v="Gustholmen" />
		<tag k="place" v="islet" />
		<tag k="ssr:stedsnr" v="330552" />
	</node>
	<node lat="59.05134757921347" lon="10.260843173074454" id="-28082">
		<tag k="name" v="Øgårdsbåen" />
		<tag k="natural" v="shoal" />
		<tag k="place" v="locality" />
		<tag k="ssr:stedsnr" v="330968" />
	</node>
	<node lat="59.146380553995336" lon="10.325125003905976" id="-28101">
		<tag k="alt_name" v="Saueholmen" />
		<tag k="name" v="Sauholmen" />
		<tag k="place" v="islet" />
		<tag k="ssr:stedsnr" v="365010" />
	</node>
	<node lat="59.04374721793694" lon="10.296299997744493" id="-28109">
		<tag k="alt_name" v="Lyngholmene" />
		<tag k="name" v="Lyngholmane" />
		<tag k="place" v="islet" />
		<tag k="ssr:stedsnr" v="365197" />
	</node>
	<node lat="59.06307500069873" lon="10.27391110794907" id="-28123">
		<tag k="fixme" v="consider seamark:type=rock or natural=shoal" />
		<tag k="name" v="Spellvikskjæret" />
		<tag k="place" v="islet" />
		<tag k="ssr:stedsnr" v="388322" />
	</node>
	<node lat="59.043452780717836" lon="10.334147219261052" id="-28124">
		<tag k="name" v="Mellomgrunnen" />
		<tag k="natural" v="shoal" />
		<tag k="place" v="locality" />
		<tag k="ssr:stedsnr" v="388951" />
	</node>
	<node lat="59.04775277480588" lon="10.323400003715811" id="-28154">
		<tag k="name" v="Storekrakk" />
		<tag k="natural" v="shoal" />
		<tag k="place" v="locality" />
		<tag k="ssr:stedsnr" v="486180" />
	</node>
	<node lat="59.111383335047655" lon="10.325550005658206" id="-28155">
		<tag k="alt_name" v="Vakop" />
		<tag k="fixme" v="consider seamark:type=rock or natural=shoal" />
		<tag k="name" v="Vakopp" />
		<tag k="place" v="islet" />
		<tag k="ssr:stedsnr" v="487062" />
	</node>
	<node lat="59.118425003810984" lon="10.297872214249635" id="-28162">
		<tag k="alt_name" v="Møyeren" />
		<tag k="name" v="Møyern" />
		<tag k="place" v="islet" />
		<tag k="ssr:stedsnr" v="487048" />
	</node>
	<node lat="59.10156667108232" lon="10.278975003368501" id="-28163">
		<tag k="name" v="Grindholmen" />
		<tag k="place" v="islet" />
		<tag k="ssr:stedsnr" v="487077" />
	</node>
	<node lat="59.040669448368014" lon="10.285705557022128" id="-28198">
		<tag k="fixme" v="consider seamark:type=rock or natural=shoal" />
		<tag k="name" v="Helleskjæret" />
		<tag k="place" v="islet" />
		<tag k="ssr:stedsnr" v="426205" />
	</node>
	<node lat="59.09861110730345" lon="10.244444452665245" id="-28200">
		<tag k="name" v="Korsvika" />
		<tag k="natural" v="bay" />
		<tag k="ssr:stedsnr" v="426112" />
	</node>
	<node lat="59.07731103319231" lon="10.232379730263284" id="-28203">
		<tag k="alt_name" v="Uleholmen n." />
		<tag k="name" v="Uleholmen" />
		<tag k="place" v="islet" />
		<tag k="ssr:stedsnr" v="426144" />
	</node>
	<node lat="59.11609166364605" lon="10.29142777445932" id="-28206">
		<tag k="name" v="Skjellvika" />
		<tag k="natural" v="beach" />
		<tag k="ssr:stedsnr" v="427080" />
	</node>
	<node lat="59.04919722480968" lon="10.275075004693319" id="-28218">
		<tag k="name" v="Askvika" />
=======
	<node id="-412312" lat="59.0783333354" lon="10.2327777826">
		<tag k="alt_name" v="Uleholmen n." />
		<tag k="name" v="Uleholmen" />
		<tag k="place" v="islet" />
		<tag k="ssr:stedsnr" v="426144" />
	</node>
	<node id="-412557" lat="59.0910749981" lon="10.2309527709">
		<tag k="name" v="Tredelene" />
		<tag k="place" v="islet" />
		<tag k="ssr:stedsnr" v="729106" />
	</node>
	<node id="-413068" lat="59.0862361128" lon="10.22881945">
		<tag k="name" v="Garnholmen" />
		<tag k="place" v="islet" />
		<tag k="ssr:stedsnr" v="27555" />
	</node>
	<node id="-413067" lat="59.0943388911" lon="10.2492944511">
		<tag k="name" v="Kjerkesundet" />
		<tag k="natural" v="strait" />
		<tag k="ssr:stedsnr" v="27552" />
	</node>
	<node id="-413577" lat="59.0417388877" lon="10.3201305619">
		<tag k="name" v="Lyngholmhausen" />
		<tag k="natural" v="shoal" />
		<tag k="place" v="locality" />
		<tag k="ssr:stedsnr" v="365212" />
	</node>
	<node id="-412550" lat="59.0800750012" lon="10.2603750074">
		<tag k="name" v="Båtholmen" />
		<tag k="place" v="islet" />
		<tag k="ssr:stedsnr" v="633765" />
	</node>
	<node id="-413573" lat="59.0437472179" lon="10.2962999977">
		<tag k="alt_name" v="Lyngholmene" />
		<tag k="name" v="Lyngholmane" />
		<tag k="place" v="islet" />
		<tag k="ssr:stedsnr" v="365197" />
	</node>
	<node id="-414083" lat="59.0802361142" lon="10.3146499987">
		<tag k="fixme" v="consider seamark:type=rock or natural=shoal" />
		<tag k="name" v="Rubo" />
		<tag k="place" v="islet" />
		<tag k="ssr:stedsnr" v="813255" />
	</node>
	<node id="-414081" lat="59.1301277816" lon="10.3234722187">
		<tag k="name" v="Årøykilen" />
		<tag k="natural" v="bay" />
		<tag k="ssr:stedsnr" v="813222" />
	</node>
	<node id="-414080" lat="59.133727774" lon="10.2920055575">
		<tag k="fixme" v="consider seamark:type=rock or natural=shoal" />
		<tag k="name" v="Bikkjeskjæret" />
		<tag k="place" v="islet" />
		<tag k="ssr:stedsnr" v="813219" />
	</node>
	<node id="-414079" lat="59.1352027788" lon="10.3123861036">
		<tag k="name" v="Yorkkilen" />
		<tag k="natural" v="bay" />
		<tag k="ssr:stedsnr" v="813213" />
	</node>
	<node id="-413566" lat="59.0800250039" lon="10.2688555504">
		<tag k="name" v="Vesterøya" />
		<tag k="natural" v="cape" />
		<tag k="ssr:stedsnr" v="365124" />
	</node>
	<node id="-411797" lat="59.122352781" lon="10.3131194385">
		<tag k="alt_name" v="Mareskjær" />
		<tag k="fixme" v="consider seamark:type=rock or natural=shoal" />
		<tag k="name" v="Marøskjæret" />
		<tag k="old_name" v="Marøyskjera;Marøyskjæra" />
		<tag k="place" v="islet" />
		<tag k="ssr:stedsnr" v="244068" />
	</node>
	<node id="-412540" lat="59.0824833309" lon="10.2585694425">
		<tag k="fixme" v="consider seamark:type=rock or natural=shoal" />
		<tag k="name" v="Røysa" />
		<tag k="place" v="islet" />
		<tag k="ssr:stedsnr" v="633561" />
	</node>
	<node id="-413418" lat="59.0821527775" lon="10.231444448">
		<tag k="fixme" v="consider seamark:type=rock or natural=shoal" />
		<tag k="name" v="Vasskalven" />
		<tag k="place" v="islet" />
		<tag k="ssr:stedsnr" v="209753" />
	</node>
	<node id="-413559" lat="59.146380554" lon="10.3251250039">
		<tag k="alt_name" v="Saueholmen" />
		<tag k="name" v="Sauholmen" />
		<tag k="place" v="islet" />
		<tag k="ssr:stedsnr" v="365010" />
	</node>
	<node id="-412905" lat="59.1150694461" lon="10.2784388854">
		<tag k="name" v="Bøkilen" />
		<tag k="natural" v="bay" />
		<tag k="ssr:stedsnr" v="876050" />
	</node>
	<node id="-412126" lat="59.1926833366" lon="10.328947228">
		<tag k="name" v="Fetjakilen" />
>>>>>>> e1d4bc35ff8a6074a6f2e91616a996b547c36f15
		<tag k="natural" v="bay" />
		<tag k="ssr:stedsnr" v="328437" />
	</node>
<<<<<<< HEAD
	<node lat="59.08679444549202" lon="10.276319437245986" id="-28221">
		<tag k="name" v="Maris odde" />
		<tag k="natural" v="cape" />
		<tag k="ssr:stedsnr" v="450312" />
	</node>
	<node lat="59.08253055858719" lon="10.303416666554671" id="-28222">
		<tag k="fixme" v="consider seamark:type=rock or natural=shoal" />
		<tag k="name" v="Eianskjæret" />
		<tag k="place" v="islet" />
		<tag k="ssr:stedsnr" v="450323" />
	</node>
	<node lat="59.090588893162206" lon="10.289258338974454" id="-28223">
		<tag k="fixme" v="consider seamark:type=rock or natural=shoal" />
		<tag k="name" v="Kjølhalskjæret" />
		<tag k="place" v="islet" />
		<tag k="ssr:stedsnr" v="450326" />
	</node>
	<node lat="59.06968055767885" lon="10.312230557487412" id="-28234">
		<tag k="alt_name" v="S. Trubervika" />
		<tag k="name" v="Søndre Trubervika" />
		<tag k="natural" v="bay" />
		<tag k="ssr:stedsnr" v="451933" />
	</node>
	<node lat="59.13745555470256" lon="10.324061116984188" id="-28264">
		<tag k="name" v="Årø" />
		<tag k="place" v="island" />
		<tag k="ssr:stedsnr" v="487019" />
	</node>
	<node lat="59.065363888142656" lon="10.25947499803302" id="-28266">
		<tag k="name" v="Slottsvika" />
		<tag k="natural" v="bay" />
		<tag k="ssr:stedsnr" v="487153" />
	</node>
	<node lat="59.065488889940205" lon="10.24189444615859" id="-28267">
		<tag k="name" v="Håholmen" />
		<tag k="place" v="islet" />
		<tag k="ssr:stedsnr" v="487157" />
	</node>
	<node lat="59.113974998766125" lon="10.310191671619855" id="-28271">
		<tag k="name" v="Fornet" />
		<tag k="place" v="islet" />
		<tag k="ssr:stedsnr" v="487059" />
	</node>
	<node lat="59.09103889299884" lon="10.286949997116151" id="-28279">
		<tag k="name" v="Namløsholmen" />
		<tag k="place" v="islet" />
		<tag k="ssr:stedsnr" v="509912" />
	</node>
	<node lat="59.052133337419846" lon="10.315305548163193" id="-28280">
		<tag k="name" v="Blytamp" />
		<tag k="natural" v="shoal" />
		<tag k="place" v="locality" />
		<tag k="ssr:stedsnr" v="509918" />
	</node>
	<node lat="59.065811107911465" lon="10.321980554102288" id="-28310">
		<tag k="name" v="Omebåen" />
		<tag k="natural" v="shoal" />
		<tag k="place" v="locality" />
		<tag k="ssr:stedsnr" v="547174" />
	</node>
	<node lat="58.99023820015093" lon="10.322979878194381" id="-28317">
		<tag k="alt_name" v="Sydostgrunnen" />
		<tag k="name" v="Sydøstgrunnen" />
		<tag k="natural" v="shoal" />
		<tag k="place" v="locality" />
		<tag k="ssr:stedsnr" v="547984" />
	</node>
	<node lat="59.12793610893028" lon="10.324986116892807" id="-28324">
		<tag k="fixme" v="consider seamark:type=rock or natural=shoal" />
		<tag k="name" v="Skuteskjæret" />
		<tag k="place" v="islet" />
		<tag k="ssr:stedsnr" v="692233" />
	</node>
	<node lat="59.16866389327815" lon="10.32830000767551" id="-28342">
		<tag k="name" v="Sandsund" />
		<tag k="natural" v="strait" />
		<tag k="ssr:stedsnr" v="571467" />
	</node>
	<node lat="59.01858055738019" lon="10.30270278622492" id="-28345">
		<tag k="name" v="Sydvestre" />
		<tag k="natural" v="shoal" />
		<tag k="place" v="locality" />
		<tag k="ssr:stedsnr" v="572964" />
	</node>
	<node lat="59.091666669795046" lon="10.244166663366036" id="-28401">
		<tag k="name" v="Sigrunnen" />
		<tag k="natural" v="shoal" />
		<tag k="place" v="locality" />
		<tag k="ssr:stedsnr" v="695556" />
	</node>
	<node lat="59.081499995980735" lon="10.232566667429168" id="-28405">
		<tag k="name" v="Vassholmen" />
		<tag k="place" v="islet" />
		<tag k="ssr:stedsnr" v="695743" />
	</node>
	<node lat="59.21362499733454" lon="10.357363885590203" id="-28420">
		<tag k="name" v="Trælsodden" />
		<tag k="natural" v="cape" />
		<tag k="ssr:stedsnr" v="608051" />
	</node>
	<node lat="59.08461666428322" lon="10.282636113301722" id="-28422">
		<tag k="name" v="Tossen" />
		<tag k="place" v="islet" />
		<tag k="ssr:stedsnr" v="608109" />
	</node>
	<node lat="59.07198611361861" lon="10.216905559235508" id="-28426">
		<tag k="name" v="Nærholmen" />
		<tag k="place" v="islet" />
		<tag k="ssr:stedsnr" v="608144" />
	</node>
	<node lat="59.103294443999665" lon="10.239866663342205" id="-28464">
		<tag k="name" v="Roabukta" />
		<tag k="natural" v="bay" />
		<tag k="ssr:stedsnr" v="634598" />
	</node>
	<node lat="59.12694444606203" lon="10.24083332743365" id="-28467">
		<tag k="name" v="Kamfjordkilen" />
		<tag k="natural" v="bay" />
		<tag k="ssr:stedsnr" v="666592" />
	</node>
	<node lat="59.19599166560718" lon="10.33080832672151" id="-28485">
		<tag k="name" v="Storevarstranda" />
		<tag k="natural" v="beach" />
		<tag k="ssr:stedsnr" v="692442" />
	</node>
	<node lat="59.09727499967594" lon="10.251144451445814" id="-28492">
		<tag k="name" v="Tangenbukta" />
		<tag k="natural" v="bay" />
		<tag k="ssr:stedsnr" v="694506" />
	</node>
	<node lat="59.09337777658313" lon="10.230183338458948" id="-28505">
		<tag k="name" v="Hystadtredelen" />
		<tag k="natural" v="bay" />
		<tag k="ssr:stedsnr" v="695547" />
	</node>
	<node lat="59.082108333168186" lon="10.258555553887886" id="-28506">
		<tag k="fixme" v="consider seamark:type=rock or natural=shoal" />
		<tag k="name" v="Dynga" />
		<tag k="place" v="islet" />
		<tag k="ssr:stedsnr" v="695548" />
	</node>
	<node lat="59.08464722211702" lon="10.228661111271633" id="-28507">
		<tag k="name" v="Vestre Furuholmen" />
		<tag k="place" v="islet" />
		<tag k="ssr:stedsnr" v="695553" />
	</node>
	<node lat="59.12188055467742" lon="10.266183325259455" id="-28512">
		<tag k="bay" v="fjord" />
		<tag k="name" v="Mefjorden" />
		<tag k="natural" v="bay" />
		<tag k="ssr:stedsnr" v="695715" />
	</node>
	<node lat="59.09107499806971" lon="10.230952770917547" id="-28523">
		<tag k="name" v="Tredelene" />
		<tag k="place" v="islet" />
		<tag k="ssr:stedsnr" v="729106" />
	</node>
	<node lat="59.1005083373632" lon="10.326830558503657" id="-28525">
		<tag k="fixme" v="consider seamark:type=rock or natural=shoal" />
		<tag k="name" v="Terneskjær" />
		<tag k="place" v="islet" />
		<tag k="ssr:stedsnr" v="730084" />
	</node>
	<node lat="59.08160277820495" lon="10.291405555664847" id="-28529">
		<tag k="alt_name" v="Eianholmen" />
		<tag k="name" v="Andholmen" />
		<tag k="place" v="islet" />
		<tag k="ssr:stedsnr" v="730115" />
	</node>
	<node lat="59.12087222288172" lon="10.31274166766155" id="-28536">
		<tag k="alt_name" v="Langskjær" />
		<tag k="fixme" v="consider seamark:type=rock or natural=shoal" />
		<tag k="name" v="Langeskjæret" />
		<tag k="place" v="islet" />
		<tag k="ssr:stedsnr" v="752223" />
	</node>
	<node lat="59.07618333775755" lon="10.311383335055188" id="-28539">
		<tag k="name" v="Havneholmen" />
		<tag k="place" v="islet" />
		<tag k="ssr:stedsnr" v="752310" />
	</node>
	<node lat="59.12848055855205" lon="10.31529166641079" id="-28544">
		<tag k="name" v="Innsjøen" />
		<tag k="natural" v="bay" />
		<tag k="ssr:stedsnr" v="753217" />
	</node>
	<node lat="59.056272222768726" lon="10.292641667490258" id="-28555">
		<tag k="fixme" v="consider seamark:type=rock or natural=shoal" />
		<tag k="name" v="Terneskjæret" />
		<tag k="place" v="islet" />
		<tag k="ssr:stedsnr" v="754915" />
	</node>
	<node lat="59.08544444414408" lon="10.252249994972564" id="-28603">
		<tag k="name" v="Buerbåen" />
		<tag k="natural" v="shoal" />
		<tag k="place" v="locality" />
		<tag k="ssr:stedsnr" v="783759" />
	</node>
	<node lat="59.092916669933444" lon="10.302550003417789" id="-28604">
		<tag k="name" v="Østerøya" />
		<tag k="natural" v="cape" />
		<tag k="ssr:stedsnr" v="911108" />
	</node>
	<node lat="59.047425000741285" lon="10.281322224013385" id="-28619">
		<tag k="alt_name" v="Fruvikholmene" />
		<tag k="name" v="Fruvikholmane" />
		<tag k="place" v="islet" />
		<tag k="ssr:stedsnr" v="790156" />
	</node>
	<node lat="59.02393055260999" lon="10.268808338103947" id="-28623">
		<tag k="name" v="Leikarhausen" />
		<tag k="natural" v="shoal" />
		<tag k="place" v="locality" />
		<tag k="ssr:stedsnr" v="790200" />
	</node>
	<node lat="59.12919167101883" lon="10.301827779899876" id="-28635">
		<tag k="alt_name" v="Raueren" />
		<tag k="name" v="Rauern" />
		<tag k="place" v="islet" />
		<tag k="ssr:stedsnr" v="912030" />
	</node>
	<node lat="59.12907499694287" lon="10.299691661891426" id="-28636">
		<tag k="bay" v="fjord" />
		<tag k="name" v="Lahellefjorden" />
		<tag k="natural" v="bay" />
		<tag k="ssr:stedsnr" v="912031" />
	</node>
	<node lat="59.196352780874996" lon="10.346827775265133" id="-28637">
		<tag k="bay" v="fjord" />
		<tag k="name" v="Tønsbergfjorden" />
		<tag k="natural" v="bay" />
		<tag k="ssr:stedsnr" v="912038" />
	</node>
	<node lat="59.061677779828564" lon="10.294844441941907" id="-28644">
		<tag k="name" v="Espeholmen" />
		<tag k="place" v="islet" />
		<tag k="ssr:stedsnr" v="912154" />
	</node>
	<node lat="59.054775000593075" lon="10.303474996598421" id="-28646">
		<tag k="name" v="Ertsvikodden" />
		<tag k="natural" v="cape" />
		<tag k="ssr:stedsnr" v="912186" />
	</node>
	<node lat="59.0405861081778" lon="10.266900007610657" id="-28647">
		<tag k="fixme" v="consider seamark:type=rock or natural=shoal" />
		<tag k="name" v="Holtskjæra" />
		<tag k="place" v="islet" />
		<tag k="ssr:stedsnr" v="912202" />
	</node>
	<node lat="59.13520277878265" lon="10.312386103618275" id="-28663">
		<tag k="name" v="Yorkkilen" />
		<tag k="natural" v="bay" />
		<tag k="ssr:stedsnr" v="813213" />
	</node>
	<node lat="59.046661114696256" lon="10.274569444536406" id="-28664">
		<tag k="name" v="Steinvika" />
		<tag k="natural" v="bay" />
		<tag k="ssr:stedsnr" v="813283" />
	</node>
	<node lat="59.067680556898345" lon="10.270183331811035" id="-28677">
		<tag k="fixme" v="consider seamark:type=rock or natural=shoal" />
		<tag k="name" v="Landskjæret" />
		<tag k="place" v="islet" />
		<tag k="ssr:stedsnr" v="816674" />
	</node>
	<node lat="59.09763888544415" lon="10.229074997841963" id="-28678">
		<tag k="name" v="Nåmannsholmen" />
		<tag k="place" v="islet" />
		<tag k="ssr:stedsnr" v="816571" />
	</node>
	<node lat="59.078449999704915" lon="10.261455563836831" id="-28681">
		<tag k="name" v="Langeby badestrand" />
		<tag k="natural" v="beach" />
		<tag k="ssr:stedsnr" v="816776" />
	</node>
	<node lat="59.151927776350504" lon="10.317786108289331" id="-28711">
=======
	<node id="-412018" lat="59.0936777821" lon="10.3282416702">
		<tag k="fixme" v="consider seamark:type=rock or natural=shoal" />
		<tag k="name" v="Bikja" />
		<tag k="place" v="islet" />
		<tag k="ssr:stedsnr" v="451984" />
	</node>
	<node id="-412017" lat="59.0427694452" lon="10.263530549">
		<tag k="name" v="Holtskjærgrunnen" />
		<tag k="natural" v="shoal" />
		<tag k="place" v="locality" />
		<tag k="ssr:stedsnr" v="451958" />
	</node>
	<node id="-412016" lat="59.0696805577" lon="10.3122305575">
		<tag k="alt_name" v="S. Trubervika" />
		<tag k="name" v="Søndre Trubervika" />
		<tag k="natural" v="bay" />
		<tag k="ssr:stedsnr" v="451933" />
	</node>
	<node id="-414060" lat="59.0706500011" lon="10.3138861139">
		<tag k="name" v="Truberodden" />
		<tag k="natural" v="cape" />
		<tag k="ssr:stedsnr" v="790130" />
	</node>
	<node id="-412562" lat="59.1005083374" lon="10.3268305585">
		<tag k="fixme" v="consider seamark:type=rock or natural=shoal" />
		<tag k="name" v="Terneskjær" />
		<tag k="place" v="islet" />
		<tag k="ssr:stedsnr" v="730084" />
	</node>
	<node id="-413542" lat="59.1547166669" lon="10.3228611025">
		<tag k="name" v="Lille Verksholmen" />
		<tag k="place" v="islet" />
		<tag k="ssr:stedsnr" v="331046" />
	</node>
	<node id="-413541" lat="59.1780166697" lon="10.3357222161">
		<tag k="name" v="Nallbergbåen" />
		<tag k="place" v="locality" />
		<tag k="seamark:type" v="rock" />
		<tag k="ssr:stedsnr" v="331043" />
	</node>
	<node id="-414052" lat="59.0854444441" lon="10.252249995">
		<tag k="name" v="Buerbåen" />
		<tag k="natural" v="shoal" />
		<tag k="place" v="locality" />
		<tag k="ssr:stedsnr" v="783759" />
	</node>
	<node id="-412003" lat="59.0905888932" lon="10.289258339">
		<tag k="fixme" v="consider seamark:type=rock or natural=shoal" />
		<tag k="name" v="Kjølhalskjæret" />
		<tag k="place" v="islet" />
		<tag k="ssr:stedsnr" v="450326" />
	</node>
	<node id="-412002" lat="59.0825305586" lon="10.3034166666">
		<tag k="fixme" v="consider seamark:type=rock or natural=shoal" />
		<tag k="name" v="Eianskjæret" />
		<tag k="place" v="islet" />
		<tag k="ssr:stedsnr" v="450323" />
	</node>
	<node id="-412001" lat="59.0867944455" lon="10.2763194372">
		<tag k="name" v="Maris odde" />
		<tag k="natural" v="cape" />
		<tag k="ssr:stedsnr" v="450312" />
	</node>
	<node id="-413024" lat="59.062291667" lon="10.2806166614">
		<tag k="fixme" v="consider seamark:type=rock or natural=shoal" />
		<tag k="name" v="Fluene" />
		<tag k="place" v="islet" />
		<tag k="ssr:stedsnr" v="24332" />
	</node>
	<node id="-413535" lat="59.0513475792" lon="10.2608431731">
		<tag k="name" v="Øgårdsbåen" />
		<tag k="natural" v="shoal" />
		<tag k="place" v="locality" />
		<tag k="ssr:stedsnr" v="330968" />
	</node>
	<node id="-413022" lat="59.0655472189" lon="10.2720777746">
		<tag k="fixme" v="consider seamark:type=rock or natural=shoal" />
		<tag k="name" v="Båtskjæret" />
		<tag k="place" v="islet" />
		<tag k="ssr:stedsnr" v="24322" />
	</node>
	<node id="-413533" lat="59.0720444419" lon="10.3084305618">
		<tag k="alt_name" v="N. Trubervik" />
		<tag k="name" v="Nordre Trubervika" />
		<tag k="natural" v="bay" />
		<tag k="ssr:stedsnr" v="330945" />
	</node>
	<node id="-413531" lat="59.0788805529" lon="10.2608694372">
		<tag k="name" v="Langholmen" />
		<tag k="natural" v="cape" />
		<tag k="ssr:stedsnr" v="330787" />
	</node>
	<node id="-411811" lat="59.2461222258" lon="10.3784861141">
		<tag k="bay" v="fjord" />
		<tag k="name" v="Vestfjorden" />
		<tag k="natural" v="bay" />
		<tag k="ssr:stedsnr" v="245295" />
	</node>
	<node id="-412510" lat="59.0115833368" lon="10.324286105">
		<tag k="name" v="Rauergrunnen" />
		<tag k="natural" v="shoal" />
		<tag k="place" v="locality" />
		<tag k="ssr:stedsnr" v="608223" />
	</node>
	<node id="-413567" lat="59.0839555545" lon="10.2559666646">
		<tag k="name" v="Buerøya" />
		<tag k="place" v="islet" />
		<tag k="ssr:stedsnr" v="365126" />
	</node>
	<node id="-414039" lat="59.1517833357" lon="10.3226305636">
		<tag k="name" v="Store Verksholmen" />
		<tag k="place" v="islet" />
		<tag k="ssr:stedsnr" v="756045" />
	</node>
	<node id="-411790" lat="59.0823055538" lon="10.2291666642">
		<tag k="name" v="Langgamla" />
		<tag k="natural" v="shoal" />
		<tag k="place" v="locality" />
		<tag k="ssr:stedsnr" v="239567" />
	</node>
	<node id="-412472" lat="59.081499996" lon="10.2325666674">
		<tag k="name" v="Vassholmen" />
		<tag k="place" v="islet" />
		<tag k="ssr:stedsnr" v="695743" />
	</node>
	<node id="-411789" lat="59.2442194475" lon="10.3747500013">
		<tag k="name" v="Sjustokkdynga" />
		<tag k="natural" v="shoal" />
		<tag k="place" v="locality" />
		<tag k="ssr:stedsnr" v="238833" />
	</node>
	<node id="-411980" lat="59.0779305566" lon="10.2537916638">
		<tag k="name" v="Hellesøya" />
		<tag k="place" v="islet" />
		<tag k="ssr:stedsnr" v="244152" />
	</node>
	<node id="-412706" lat="59.0929166699" lon="10.3025500034">
		<tag k="name" v="Østerøya" />
		<tag k="natural" v="cape" />
		<tag k="ssr:stedsnr" v="911108" />
	</node>
	<node id="-413002" lat="59.1020694427" lon="10.2293944406">
		<tag k="name" v="Thorøya" />
		<tag k="natural" v="cape" />
		<tag k="ssr:stedsnr" v="2082" />
	</node>
	<node id="-411998" lat="59.079138886" lon="10.3093166657">
		<tag k="fixme" v="consider seamark:type=rock or natural=shoal" />
		<tag k="name" v="Bikkjeskjæret" />
		<tag k="place" v="islet" />
		<tag k="ssr:stedsnr" v="449288" />
	</node>
	<node id="-412714" lat="59.1290749969" lon="10.2996916619">
		<tag k="bay" v="fjord" />
		<tag k="name" v="Lahellefjorden" />
		<tag k="natural" v="bay" />
		<tag k="ssr:stedsnr" v="912031" />
	</node>
	<node id="-412486" lat="59.1686638933" lon="10.3283000077">
		<tag k="name" v="Sandsund" />
		<tag k="natural" v="strait" />
		<tag k="ssr:stedsnr" v="571467" />
	</node>
	<node id="-413509" lat="59.0971666653" lon="10.2317027784">
		<tag k="name" v="Gustholmen" />
		<tag k="place" v="islet" />
		<tag k="ssr:stedsnr" v="330552" />
	</node>
	<node id="-412555" lat="59.103294444" lon="10.2398666633">
		<tag k="name" v="Roabukta" />
		<tag k="natural" v="bay" />
		<tag k="ssr:stedsnr" v="634598" />
	</node>
	<node id="-411967" lat="59.0766055528" lon="10.2192666671">
		<tag k="name" v="Tuten" />
		<tag k="natural" v="cape" />
		<tag k="ssr:stedsnr" v="209614" />
	</node>
	<node id="-412988" lat="59.1929861109" lon="10.3412999956">
		<tag k="name" v="Ravnø" />
		<tag k="place" v="island" />
		<tag k="ssr:stedsnr" v="1197" />
	</node>
	<node id="-412895" lat="59.1352805596" lon="10.3063083264">
		<tag k="name" v="Susebukta" />
		<tag k="natural" v="bay" />
		<tag k="ssr:stedsnr" v="874266" />
	</node>
	<node id="-412984" lat="59.0002388906" lon="10.2858833279">
		<tag k="name" v="Nordosta" />
		<tag k="natural" v="shoal" />
		<tag k="place" v="locality" />
		<tag k="ssr:stedsnr" v="1018" />
	</node>
	<node id="-412560" lat="59.2152749991" lon="10.3471111044">
		<tag k="name" v="Melsombukta" />
		<tag k="natural" v="bay" />
		<tag k="ssr:stedsnr" v="730033" />
	</node>
	<node id="-412809" lat="59.0796972262" lon="10.3121055535">
		<tag k="fixme" v="consider seamark:type=rock or natural=shoal" />
		<tag k="name" v="Flatskjær" />
		<tag k="place" v="islet" />
		<tag k="ssr:stedsnr" v="935278" />
	</node>
	<node id="-412468" lat="59.1218805547" lon="10.2661833253">
		<tag k="bay" v="fjord" />
		<tag k="name" v="Mefjorden" />
		<tag k="natural" v="bay" />
		<tag k="ssr:stedsnr" v="695715" />
	</node>
	<node id="-413491" lat="59.1894111079" lon="10.3364111061">
		<tag k="name" v="Ravnøysundet" />
		<tag k="natural" v="strait" />
		<tag k="ssr:stedsnr" v="328441" />
	</node>
	<node id="-413490" lat="59.083808333" lon="10.2760444395">
		<tag k="name" v="Langebystranda" />
		<tag k="natural" v="beach" />
		<tag k="place" v="locality" />
		<tag k="ssr:stedsnr" v="328279" />
	</node>
	<node id="-412723" lat="59.0547750006" lon="10.3034749966">
		<tag k="name" v="Ertsvikodden" />
		<tag k="natural" v="cape" />
		<tag k="ssr:stedsnr" v="912186" />
	</node>
	<node id="-413487" lat="59.0914611087" lon="10.3349638889">
		<tag k="name" v="Betjenterholmen" />
		<tag k="place" v="islet" />
		<tag k="ssr:stedsnr" v="328263" />
	</node>
	<node id="-413486" lat="59.142966668" lon="10.3179138812">
		<tag k="name" v="Askelundkilen" />
		<tag k="natural" v="bay" />
		<tag k="ssr:stedsnr" v="328248" />
	</node>
	<node id="-412679" lat="59.0916666698" lon="10.2441666634">
		<tag k="name" v="Sigrunnen" />
		<tag k="natural" v="shoal" />
		<tag k="place" v="locality" />
		<tag k="ssr:stedsnr" v="695556" />
	</node>
	<node id="-411948" lat="59.0869611141" lon="10.3458833288">
		<tag k="fixme" v="consider seamark:type=rock or natural=shoal" />
		<tag k="name" v="Helgerødskjær" />
		<tag k="place" v="islet" />
		<tag k="ssr:stedsnr" v="285324" />
	</node>
	<node id="-413483" lat="59.0638000011" lon="10.2765666629">
		<tag k="fixme" v="consider seamark:type=rock or natural=shoal" />
		<tag k="name" v="Hvalen" />
		<tag k="place" v="islet" />
		<tag k="ssr:stedsnr" v="328326" />
	</node>
	<node id="-412807" lat="59.1519277764" lon="10.3177861083">
>>>>>>> e1d4bc35ff8a6074a6f2e91616a996b547c36f15
		<tag k="name" v="Buerodden" />
		<tag k="natural" v="cape" />
		<tag k="ssr:stedsnr" v="935261" />
	</node>
<<<<<<< HEAD
	<node lat="59.1314527791737" lon="10.331802771588723" id="-28713">
		<tag k="name" v="Årøbåen" />
		<tag k="natural" v="shoal" />
		<tag k="place" v="locality" />
		<tag k="ssr:stedsnr" v="875570" />
	</node>
	<node lat="59.06676110916598" lon="10.28970277727578" id="-28742">
		<tag k="name" v="Kolholmen" />
		<tag k="place" v="islet" />
		<tag k="ssr:stedsnr" v="934929" />
	</node>
	<node lat="59.124516663804265" lon="10.314969442766118" id="-28743">
		<tag k="fixme" v="consider seamark:type=rock or natural=shoal" />
		<tag k="name" v="Marøyskjæra" />
		<tag k="place" v="islet" />
		<tag k="ssr:stedsnr" v="935235" />
	</node>
	<node lat="59.079697226222066" lon="10.31210555346131" id="-28747">
		<tag k="fixme" v="consider seamark:type=rock or natural=shoal" />
		<tag k="name" v="Flatskjær" />
		<tag k="place" v="islet" />
		<tag k="ssr:stedsnr" v="935278" />
	</node>
	<node lat="59.13321944264413" lon="10.318913880487388" id="-28749">
		<tag k="name" v="Hamburgkilen" />
		<tag k="natural" v="bay" />
		<tag k="ssr:stedsnr" v="935224" />
	</node>
	<node lat="59.126502781122284" lon="10.283602780871588" id="-28750">
		<tag k="name" v="Røysebekk-kilen" />
		<tag k="natural" v="bay" />
		<tag k="ssr:stedsnr" v="935228" />
	</node>
	<node lat="59.07455000428048" lon="10.314991662390359" id="-28751">
		<tag k="name" v="Godthøl" />
		<tag k="natural" v="bay" />
		<tag k="ssr:stedsnr" v="935341" />
	</node>
	<node lat="59.05360278087144" lon="10.280066669907447" id="-28753">
		<tag k="name" v="Krokeholmen" />
		<tag k="place" v="islet" />
		<tag k="ssr:stedsnr" v="935345" />
	</node>
	<node lat="59.08517500105376" lon="10.309163894018251" id="-28760">
		<tag k="name" v="Flautangen" />
		<tag k="natural" v="cape" />
		<tag k="ssr:stedsnr" v="912128" />
	</node>
	<node lat="59.08797222536568" lon="10.282758326410635" id="-28774">
		<tag k="fixme" v="consider seamark:type=rock or natural=shoal" />
		<tag k="name" v="Skitrot" />
		<tag k="place" v="islet" />
		<tag k="ssr:stedsnr" v="935306" />
	</node>
	<node lat="59.05417499704787" lon="10.306294441189221" id="-28775">
		<tag k="fixme" v="consider seamark:type=rock or natural=shoal" />
		<tag k="name" v="Ertsvikskjæret" />
		<tag k="place" v="islet" />
		<tag k="ssr:stedsnr" v="935312" />
	</node>
	<node lat="59.05104444417913" lon="10.293341659433322" id="-28776">
		<tag k="fixme" v="consider seamark:type=rock or natural=shoal" />
		<tag k="name" v="Lyngholmskjæret" />
		<tag k="place" v="islet" />
		<tag k="ssr:stedsnr" v="935314" />
	</node>
	<node lat="59.09175833697475" lon="10.272886111298517" id="-28777">
		<tag k="name" v="Hummelvika" />
		<tag k="natural" v="bay" />
		<tag k="ssr:stedsnr" v="935285" />
	</node>
	<node lat="59.15458333098048" lon="10.332388892503499" id="-28800">
		<tag k="alt_name" v="Hesteholmen" />
		<tag k="name" v="Hestholmen" />
		<tag k="place" v="islet" />
		<tag k="ssr:stedsnr" v="938807" />
	</node>
	<node lat="59.000238890600585" lon="10.285883327887692" id="-28853">
		<tag k="name" v="Nordosta" />
		<tag k="natural" v="shoal" />
		<tag k="place" v="locality" />
		<tag k="ssr:stedsnr" v="1018" />
	</node>
	<node lat="59.10611111145217" lon="10.267499994821772" id="-28855">
		<tag k="bay" v="fjord" />
		<tag k="name" v="Mefjorden" />
		<tag k="natural" v="bay" />
		<tag k="ssr:stedsnr" v="1119" />
	</node>
	<node lat="59.083044445145866" lon="10.231975002802956" id="-28856">
		<tag k="fixme" v="multiple name tags, choose one and add the other to alt_name" />
		<tag k="name" v="Furuholmen;Østre Furuholmen" />
		<tag k="place" v="islet" />
		<tag k="ssr:stedsnr" v="1133" />
	</node>
	<node lat="59.118155558744306" lon="10.229044446461511" id="-28862">
		<tag k="name" v="Framnes" />
		<tag k="natural" v="cape" />
		<tag k="ssr:stedsnr" v="1073" />
	</node>
	<node lat="59.10206944265992" lon="10.229394440578703" id="-28872">
		<tag k="name" v="Thorøya" />
		<tag k="natural" v="cape" />
		<tag k="ssr:stedsnr" v="2082" />
	</node>
	<node lat="59.06554721891314" lon="10.272077774550619" id="-28890">
		<tag k="fixme" v="consider seamark:type=rock or natural=shoal" />
		<tag k="name" v="Båtskjæret" />
		<tag k="place" v="islet" />
		<tag k="ssr:stedsnr" v="24322" />
	</node>
	<node lat="59.09433889113677" lon="10.249294451052174" id="-28932">
		<tag k="name" v="Kjerkesundet" />
		<tag k="natural" v="strait" />
		<tag k="ssr:stedsnr" v="27552" />
	</node>
	<node lat="59.086236112771786" lon="10.228819449965643" id="-28933">
		<tag k="name" v="Garnholmen" />
		<tag k="place" v="islet" />
		<tag k="ssr:stedsnr" v="27555" />
	</node>
	<node lat="59.05783610799091" lon="10.261683337096105" id="-28936">
		<tag k="name" v="Rørvikholmen" />
		<tag k="place" v="islet" />
		<tag k="ssr:stedsnr" v="27636" />
	</node>
	<node lat="59.09336111136044" lon="10.249583330508633" id="-28948">
		<tag k="name" v="Sandholmen" />
		<tag k="place" v="islet" />
		<tag k="ssr:stedsnr" v="40293" />
	</node>
	<node lat="59.08972221914633" lon="10.255277771826261" id="-28949">
		<tag k="name" v="Buerlandet" />
		<tag k="natural" v="beach" />
		<tag k="ssr:stedsnr" v="55732" />
	</node>
	<node lat="59.086522220554826" lon="10.34793054891846" id="-28961">
		<tag k="alt_name" v="Helgerødskjera" />
		<tag k="name" v="Helgerødskjæra" />
		<tag k="place" v="islet" />
		<tag k="ssr:stedsnr" v="62412" />
	</node>
	<node lat="59.0813888851882" lon="10.239999992365872" id="-28963">
		<tag k="alt_name" v="Sandefjorden" />
		<tag k="bay" v="fjord" />
		<tag k="name" v="Sandefjordsfjorden" />
		<tag k="natural" v="bay" />
		<tag k="ssr:stedsnr" v="62150" />
	</node>
	<node lat="59.09658749898121" lon="10.248330019309297" id="-28992">
		<tag k="name" v="Tangen" />
		<tag k="natural" v="cape" />
		<tag k="ssr:stedsnr" v="87289" />
	</node>
	<node lat="59.09472222365862" lon="10.254444442313854" id="-29043">
		<tag k="name" v="Vaholmen" />
		<tag k="place" v="islet" />
		<tag k="ssr:stedsnr" v="116743" />
	</node>
	<node lat="59.092499996878566" lon="10.22166666782115" id="-29044">
		<tag k="name" v="Berganbukta" />
		<tag k="natural" v="bay" />
		<tag k="ssr:stedsnr" v="118551" />
	</node>
	<node lat="59.04679444504522" lon="10.268716659390677" id="-29052">
		<tag k="name" v="Folehavna" />
		<tag k="natural" v="bay" />
		<tag k="ssr:stedsnr" v="122185" />
	</node>
	<node lat="59.05315277344798" lon="10.298850003582997" id="-29053">
		<tag k="alt_name" v="Saltskjær" />
		<tag k="fixme" v="consider seamark:type=rock or natural=shoal" />
		<tag k="name" v="Saltskjæret" />
		<tag k="place" v="islet" />
		<tag k="ssr:stedsnr" v="122187" />
	</node>
	<node lat="59.07861110926033" lon="10.237408330453016" id="-29056">
		<tag k="fixme" v="consider seamark:type=rock or natural=shoal" />
		<tag k="name" v="Beinskjæra" />
		<tag k="place" v="islet" />
		<tag k="ssr:stedsnr" v="123149" />
	</node>
	<node lat="59.049577774646174" lon="10.278152768997177" id="-29082">
		<tag k="name" v="Fruvika" />
		<tag k="natural" v="bay" />
		<tag k="ssr:stedsnr" v="145308" />
	</node>
	<node lat="59.130669444168724" lon="10.29445554786182" id="-29085">
		<tag k="fixme" v="consider seamark:type=rock or natural=shoal" />
		<tag k="name" v="Trondskjæra" />
		<tag k="place" v="islet" />
		<tag k="ssr:stedsnr" v="146240" />
	</node>
	<node lat="59.139630555655906" lon="10.288852785874367" id="-29086">
		<tag k="name" v="Arnfinntangen" />
		<tag k="natural" v="cape" />
		<tag k="ssr:stedsnr" v="146255" />
	</node>
	<node lat="59.08975833212443" lon="10.291411119378587" id="-29087">
		<tag k="name" v="Odden" />
		<tag k="natural" v="bay" />
		<tag k="ssr:stedsnr" v="146297" />
	</node>
	<node lat="59.05189166658733" lon="10.266566667201865" id="-29094">
		<tag k="name" v="Tjønnestranda" />
		<tag k="natural" v="beach" />
		<tag k="ssr:stedsnr" v="148627" />
	</node>
	<node lat="59.21988332975958" lon="10.373091667582152" id="-29130">
		<tag k="name" v="Verjøsundet" />
		<tag k="natural" v="strait" />
		<tag k="ssr:stedsnr" v="149077" />
	</node>
	<node lat="59.227133331308465" lon="10.375352775190994" id="-29131">
		<tag k="name" v="Rossnesodden" />
		<tag k="natural" v="cape" />
		<tag k="ssr:stedsnr" v="149079" />
	</node>
	<node lat="59.17191955163939" lon="10.339352615359978" id="-29132">
		<tag k="name" v="Gleabåen" />
		<tag k="place" v="locality" />
		<tag k="seamark:type" v="rock" />
		<tag k="ssr:stedsnr" v="149052" />
	</node>
	<node lat="59.09911111334983" lon="10.23289445068992" id="-29134">
		<tag k="name" v="Tranga" />
		<tag k="place" v="islet" />
		<tag k="ssr:stedsnr" v="149568" />
	</node>
	<node lat="59.115277775371055" lon="10.222777778802397" id="-29135">
		<tag k="name" v="Ranvika" />
		<tag k="natural" v="bay" />
		<tag k="ssr:stedsnr" v="160541" />
	</node>
	<node lat="59.078472226114556" lon="10.233055552911077" id="-29139">
		<tag k="name" v="Prekestolen" />
		<tag k="natural" v="cape" />
		<tag k="ssr:stedsnr" v="178498" />
	</node>
	<node lat="59.06588888582639" lon="10.272013880207057" id="-29153">
		<tag k="name" v="Bentsrødkilen" />
		<tag k="natural" v="bay" />
		<tag k="ssr:stedsnr" v="184152" />
	</node>
	<node lat="59.05501388625597" lon="10.280974993984316" id="-29154">
		<tag k="fixme" v="consider seamark:type=rock or natural=shoal" />
		<tag k="name" v="Krokane" />
		<tag k="place" v="islet" />
		<tag k="ssr:stedsnr" v="184169" />
	</node>
	<node lat="59.10223333597502" lon="10.274250008488874" id="-29155">
		<tag k="name" v="Brattholmen" />
		<tag k="place" v="islet" />
		<tag k="ssr:stedsnr" v="184066" />
	</node>
	<node lat="59.04064721873468" lon="10.273686116926068" id="-29172">
		<tag k="fixme" v="consider seamark:type=rock or natural=shoal" />
		<tag k="name" v="Svartskjær" />
		<tag k="place" v="islet" />
		<tag k="ssr:stedsnr" v="206309" />
	</node>
	<node lat="59.06302222528154" lon="10.278327786065425" id="-29174">
		<tag k="fixme" v="consider seamark:type=rock or natural=shoal" />
		<tag k="name" v="Galteskjær" />
		<tag k="place" v="islet" />
		<tag k="ssr:stedsnr" v="206327" />
	</node>
	<node lat="59.12352778172861" lon="10.325486112465372" id="-29176">
		<tag k="fixme" v="consider seamark:type=rock or natural=shoal" />
		<tag k="name" v="Sandbuktskjæret" />
		<tag k="place" v="islet" />
		<tag k="ssr:stedsnr" v="207259" />
	</node>
	<node lat="59.133580554899574" lon="10.299205561304984" id="-29178">
		<tag k="name" v="Faraholmen" />
		<tag k="place" v="islet" />
		<tag k="ssr:stedsnr" v="207561" />
	</node>
	<node lat="59.08741666970138" lon="10.231155559254988" id="-29203">
		<tag k="name" v="Østre Bjerkeholmen" />
		<tag k="place" v="islet" />
		<tag k="ssr:stedsnr" v="209542" />
	</node>
	<node lat="59.08329999818893" lon="10.227102774508815" id="-29204">
		<tag k="name" v="Nilseholmen" />
		<tag k="place" v="islet" />
		<tag k="ssr:stedsnr" v="209547" />
	</node>
	<node lat="59.07250833537199" lon="10.259261119433203" id="-29208">
		<tag k="name" v="Vøra badestrand" />
		<tag k="natural" v="beach" />
		<tag k="ssr:stedsnr" v="209622" />
	</node>
	<node lat="59.07607500124053" lon="10.231208332060273" id="-29225">
		<tag k="name" v="Ulesund" />
		<tag k="natural" v="strait" />
		<tag k="ssr:stedsnr" v="209882" />
	</node>
	<node lat="59.075400002940114" lon="10.209350007983549" id="-29226">
		<tag k="name" v="Hemsholmen" />
		<tag k="natural" v="cape" />
		<tag k="ssr:stedsnr" v="209889" />
	</node>
	<node lat="59.19258055962262" lon="10.331991665317044" id="-29227">
		<tag k="name" v="Maroniodden" />
		<tag k="natural" v="cape" />
		<tag k="ssr:stedsnr" v="210058" />
	</node>
	<node lat="59.11968888862395" lon="10.263888885400098" id="-29230">
		<tag k="name" v="Strandholmen" />
		<tag k="natural" v="beach" />
		<tag k="ssr:stedsnr" v="210570" />
	</node>
	<node lat="59.08696111411771" lon="10.345883328767131" id="-29233">
		<tag k="fixme" v="consider seamark:type=rock or natural=shoal" />
		<tag k="name" v="Helgerødskjær" />
		<tag k="place" v="islet" />
		<tag k="ssr:stedsnr" v="285324" />
	</node>
	<node lat="59.09153055644066" lon="10.250199991629026" id="-29237">
		<tag k="alt_name" v="Raunebben" />
		<tag k="name" v="Raudnebben" />
		<tag k="place" v="islet" />
		<tag k="ssr:stedsnr" v="304100" />
	</node>
	<node lat="59.09658333166901" lon="10.335713889552364" id="-29238">
		<tag k="name" v="Stauper" />
		<tag k="place" v="island" />
		<tag k="ssr:stedsnr" v="304101" />
	</node>
	<node lat="59.065216668967786" lon="10.310602774658609" id="-29247">
		<tag k="name" v="Strandvika" />
		<tag k="natural" v="bay" />
		<tag k="ssr:stedsnr" v="305155" />
	</node>
	<node lat="59.054925001206485" lon="10.315216671758996" id="-29248">
		<tag k="fixme" v="consider seamark:type=rock or natural=shoal" />
		<tag k="name" v="Tønneskjæra" />
		<tag k="place" v="islet" />
		<tag k="ssr:stedsnr" v="305171" />
	</node>
	<node lat="59.142966667968984" lon="10.31791388116866" id="-29275">
		<tag k="name" v="Askelundkilen" />
		<tag k="natural" v="bay" />
		<tag k="ssr:stedsnr" v="328248" />
	</node>
	<node lat="59.07285555168407" lon="10.280747223600166" id="-29276">
		<tag k="fixme" v="consider seamark:type=rock or natural=shoal" />
		<tag k="name" v="Grubsandskjæret" />
		<tag k="place" v="islet" />
		<tag k="ssr:stedsnr" v="328310" />
	</node>
	<node lat="59.063800001105975" lon="10.276566662933439" id="-29277">
		<tag k="fixme" v="consider seamark:type=rock or natural=shoal" />
		<tag k="name" v="Hvalen" />
		<tag k="place" v="islet" />
		<tag k="ssr:stedsnr" v="328326" />
	</node>
	<node lat="59.08380833300774" lon="10.276044439497136" id="-29278">
		<tag k="name" v="Langebystranda" />
		<tag k="natural" v="beach" />
		<tag k="ssr:stedsnr" v="328279" />
	</node>
	<node lat="59.192683336649466" lon="10.328947228002349" id="-29283">
		<tag k="name" v="Fetjakilen" />
		<tag k="natural" v="bay" />
		<tag k="ssr:stedsnr" v="328437" />
	</node>
	<node lat="59.1894111078802" lon="10.336411106110726" id="-29285">
		<tag k="name" v="Ravnøysundet" />
		<tag k="natural" v="strait" />
		<tag k="ssr:stedsnr" v="328441" />
	</node>
	<node lat="59.07528610717382" lon="10.230811103155656" id="-29287">
		<tag k="name" v="Søndre Uleholmen" />
=======
	<node id="-411944" lat="59.0991111133" lon="10.2328944507">
		<tag k="name" v="Tranga" />
		<tag k="place" v="islet" />
		<tag k="ssr:stedsnr" v="149568" />
	</node>
	<node id="-413233" lat="59.046794445" lon="10.2687166594">
		<tag k="name" v="Folehavna" />
		<tag k="natural" v="bay" />
		<tag k="ssr:stedsnr" v="122185" />
	</node>
	<node id="-411939" lat="59.1719195516" lon="10.3393526154">
		<tag k="name" v="Gleabåen" />
		<tag k="place" v="locality" />
		<tag k="seamark:type" v="rock" />
		<tag k="ssr:stedsnr" v="149052" />
	</node>
	<node id="-413744" lat="58.9902382002" lon="10.3229798782">
		<tag k="alt_name" v="Sydostgrunnen" />
		<tag k="name" v="Sydøstgrunnen" />
		<tag k="natural" v="shoal" />
		<tag k="place" v="locality" />
		<tag k="ssr:stedsnr" v="547984" />
	</node>
	<node id="-414085" lat="59.0466611147" lon="10.2745694445">
		<tag k="name" v="Steinvika" />
		<tag k="natural" v="bay" />
		<tag k="ssr:stedsnr" v="813283" />
	</node>
	<node id="-412463" lat="59.0821083332" lon="10.2585555539">
		<tag k="fixme" v="consider seamark:type=rock or natural=shoal" />
		<tag k="name" v="Dynga" />
		<tag k="place" v="islet" />
		<tag k="ssr:stedsnr" v="695548" />
	</node>
	<node id="-411927" lat="59.090466666" lon="10.2315194372">
		<tag k="name" v="Lofterødtredelen" />
		<tag k="place" v="islet" />
		<tag k="ssr:stedsnr" v="148562" />
	</node>
	<node id="-411925" lat="59.0971999975" lon="10.2297972304">
		<tag k="name" v="Ulkeholmen" />
		<tag k="place" v="islet" />
		<tag k="ssr:stedsnr" v="148555" />
	</node>
	<node id="-413460" lat="59.0549250012" lon="10.3152166718">
		<tag k="fixme" v="consider seamark:type=rock or natural=shoal" />
		<tag k="name" v="Tønneskjæra" />
		<tag k="place" v="islet" />
		<tag k="ssr:stedsnr" v="305171" />
	</node>
	<node id="-412462" lat="59.0933777766" lon="10.2301833385">
		<tag k="name" v="Hystadtredelen" />
		<tag k="natural" v="bay" />
		<tag k="ssr:stedsnr" v="695547" />
	</node>
	<node id="-412035" lat="59.0871472257" lon="10.2271138887">
		<tag k="fixme" v="consider seamark:type=rock or natural=shoal" />
		<tag k="name" v="Jordbærskjæret" />
		<tag k="place" v="islet" />
		<tag k="ssr:stedsnr" v="452547" />
	</node>
	<node id="-413966" lat="59.0809972264" lon="10.3471194526">
		<tag k="name" v="Treidebåene" />
		<tag k="natural" v="shoal" />
		<tag k="place" v="locality" />
		<tag k="ssr:stedsnr" v="754988" />
	</node>
	<node id="-413229" lat="59.0883138923" lon="10.2208333414">
		<tag k="name" v="Granholmen" />
		<tag k="place" v="islet" />
		<tag k="ssr:stedsnr" v="122111" />
	</node>
	<node id="-412428" lat="59.1959916656" lon="10.3308083267">
		<tag k="name" v="Storevarstranda" />
		<tag k="natural" v="beach" />
		<tag k="place" v="locality" />
		<tag k="ssr:stedsnr" v="692442" />
	</node>
	<node id="-412426" lat="59.1279361089" lon="10.3249861169">
		<tag k="fixme" v="consider seamark:type=rock or natural=shoal" />
		<tag k="name" v="Skuteskjæret" />
		<tag k="place" v="islet" />
		<tag k="ssr:stedsnr" v="692233" />
	</node>
	<node id="-412780" lat="59.0671527794" lon="10.2598833271">
		<tag k="name" v="Strandinga" />
		<tag k="natural" v="beach" />
		<tag k="place" v="locality" />
		<tag k="ssr:stedsnr" v="816663" />
	</node>
	<node id="-413445" lat="59.0965833317" lon="10.3357138896">
		<tag k="name" v="Stauper" />
		<tag k="place" v="island" />
		<tag k="ssr:stedsnr" v="304101" />
	</node>
	<node id="-413444" lat="59.0915305564" lon="10.2501999916">
		<tag k="alt_name" v="Raunebben" />
		<tag k="name" v="Raudnebben" />
		<tag k="place" v="islet" />
		<tag k="ssr:stedsnr" v="304100" />
	</node>
	<node id="-412419" lat="59.1571611106" lon="10.3350472256">
		<tag k="bay" v="fjord" />
		<tag k="name" v="Vestkjæla" />
		<tag k="natural" v="bay" />
		<tag k="ssr:stedsnr" v="513062" />
	</node>
	<node id="-413442" lat="59.1196888886" lon="10.2638888854">
		<tag k="name" v="Strandholmen" />
		<tag k="natural" v="beach" />
		<tag k="place" v="locality" />
		<tag k="ssr:stedsnr" v="210570" />
	</node>
	<node id="-412414" lat="59.0992027759" lon="10.2324361195">
		<tag k="alt_name" v="Trangsholmen" />
		<tag k="name" v="Trangsholmene" />
		<tag k="place" v="islet" />
		<tag k="ssr:stedsnr" v="512530" />
	</node>
	<node id="-412923" lat="59.1245166638" lon="10.3149694428">
		<tag k="fixme" v="consider seamark:type=rock or natural=shoal" />
		<tag k="name" v="Marøyskjæra" />
		<tag k="place" v="islet" />
		<tag k="ssr:stedsnr" v="935235" />
	</node>
	<node id="-413946" lat="59.1284805586" lon="10.3152916664">
		<tag k="name" v="Innsjøen" />
		<tag k="natural" v="bay" />
		<tag k="ssr:stedsnr" v="753217" />
	</node>
	<node id="-412409" lat="59.0521333374" lon="10.3153055482">
		<tag k="name" v="Blytamp" />
		<tag k="natural" v="shoal" />
		<tag k="place" v="locality" />
		<tag k="ssr:stedsnr" v="509918" />
	</node>
	<node id="-412408" lat="59.091038893" lon="10.2869499971">
		<tag k="name" v="Namløsholmen" />
		<tag k="place" v="islet" />
		<tag k="ssr:stedsnr" v="509912" />
	</node>
	<node id="-413943" lat="59.0883361134" lon="10.2878944377">
		<tag k="name" v="Berganholmen" />
		<tag k="place" v="islet" />
		<tag k="ssr:stedsnr" v="752928" />
	</node>
	<node id="-413430" lat="59.1925805596" lon="10.3319916653">
		<tag k="name" v="Maroniodden" />
		<tag k="natural" v="cape" />
		<tag k="ssr:stedsnr" v="210058" />
	</node>
	<node id="-413429" lat="59.0754000029" lon="10.209350008">
		<tag k="name" v="Hemsholmen" />
		<tag k="natural" v="cape" />
		<tag k="ssr:stedsnr" v="209889" />
	</node>
	<node id="-413428" lat="59.0760750012" lon="10.2312083321">
		<tag k="name" v="Ulesund" />
		<tag k="natural" v="strait" />
		<tag k="ssr:stedsnr" v="209882" />
	</node>
	<node id="-412403" lat="59.1184250038" lon="10.2978722142">
		<tag k="alt_name" v="Møyeren" />
		<tag k="name" v="Møyern" />
		<tag k="place" v="islet" />
		<tag k="ssr:stedsnr" v="487048" />
	</node>
	<node id="-413938" lat="59.1116666702" lon="10.2294444437">
		<tag k="name" v="Langestrandsbåen" />
		<tag k="natural" v="shoal" />
		<tag k="place" v="locality" />
		<tag k="ssr:stedsnr" v="646596" />
	</node>
	<node id="-412399" lat="59.1374555547" lon="10.324061117">
		<tag k="name" v="Årø" />
		<tag k="place" v="island" />
		<tag k="ssr:stedsnr" v="487019" />
	</node>
	<node id="-412702" lat="59.0562722228" lon="10.2926416675">
		<tag k="fixme" v="consider seamark:type=rock or natural=shoal" />
		<tag k="name" v="Terneskjæret" />
		<tag k="place" v="islet" />
		<tag k="ssr:stedsnr" v="754915" />
	</node>
	<node id="-413930" lat="59.0257972181" lon="10.2994916718">
		<tag k="name" v="Gjekstadkultene" />
		<tag k="natural" v="shoal" />
		<tag k="place" v="locality" />
		<tag k="ssr:stedsnr" v="633968" />
	</node>
	<node id="-413417" lat="59.0787976826" lon="10.2174795803">
		<tag k="name" v="Sørbyøya" />
		<tag k="natural" v="cape" />
		<tag k="ssr:stedsnr" v="209752" />
	</node>
	<node id="-413416" lat="59.0810861118" lon="10.2593777726">
		<tag k="name" v="Stråholmen" />
		<tag k="place" v="islet" />
		<tag k="ssr:stedsnr" v="209751" />
	</node>
	<node id="-412903" lat="59.0730722243" lon="10.2873222238">
		<tag k="fixme" v="consider seamark:type=rock or natural=shoal" />
		<tag k="name" v="Teineskjæret" />
		<tag k="place" v="islet" />
		<tag k="ssr:stedsnr" v="874915" />
	</node>
	<node id="-411877" lat="59.0634305536" lon="10.2590666748">
		<tag k="fixme" v="consider seamark:type=rock or natural=shoal" />
		<tag k="name" v="Gutteglova" />
		<tag k="place" v="islet" />
		<tag k="ssr:stedsnr" v="270633" />
	</node>
	<node id="-411876" lat="59.0618083374" lon="10.2555027774">
		<tag k="fixme" v="consider seamark:type=rock or natural=shoal" />
		<tag k="name" v="Jenteskjæret" />
		<tag k="place" v="islet" />
		<tag k="ssr:stedsnr" v="270632" />
	</node>
	<node id="-412198" lat="59.0888222238" lon="10.2298805507">
		<tag k="name" v="Vestre Bjerkeholmen" />
		<tag k="place" v="islet" />
		<tag k="ssr:stedsnr" v="391555" />
	</node>
	<node id="-412898" lat="59.1240972179" lon="10.3016666733">
		<tag k="alt_name" v="Kjølpene" />
		<tag k="fixme" v="consider seamark:type=rock or natural=shoal" />
		<tag k="name" v="Kjølpene" />
		<tag k="place" v="islet" />
		<tag k="ssr:stedsnr" v="874272" />
	</node>
	<node id="-413563" lat="59.1026916631" lon="10.322716666">
		<tag k="name" v="Engelsbåen" />
		<tag k="natural" v="shoal" />
		<tag k="place" v="locality" />
		<tag k="ssr:stedsnr" v="365102" />
	</node>
	<node id="-413407" lat="59.0832999982" lon="10.2271027745">
		<tag k="name" v="Nilseholmen" />
		<tag k="place" v="islet" />
		<tag k="ssr:stedsnr" v="209547" />
	</node>
	<node id="-413406" lat="59.0874166697" lon="10.2311555593">
		<tag k="name" v="Østre Bjerkeholmen" />
		<tag k="place" v="islet" />
		<tag k="ssr:stedsnr" v="209542" />
	</node>
	<node id="-413404" lat="59.0725083354" lon="10.2592611194">
		<tag k="name" v="Vøra badestrand" />
		<tag k="natural" v="beach" />
		<tag k="place" v="locality" />
		<tag k="ssr:stedsnr" v="209622" />
	</node>
	<node id="-413819" lat="59.0761111133" lon="10.2068222245">
		<tag k="bay" v="fjord" />
		<tag k="name" v="Hemskilen" />
		<tag k="natural" v="bay" />
		<tag k="ssr:stedsnr" v="573894" />
	</node>
	<node id="-413911" lat="59.0955361146" lon="10.2267000044">
		<tag k="name" v="Hober" />
		<tag k="natural" v="beach" />
		<tag k="place" v="locality" />
		<tag k="ssr:stedsnr" v="633552" />
	</node>
	<node id="-412885" lat="59.154583331" lon="10.3323888925">
		<tag k="name" v="Hestholmen" />
		<tag k="place" v="islet" />
		<tag k="ssr:stedsnr" v="938807" />
	</node>
	<node id="-412368" lat="59.0560583315" lon="10.3057027764">
		<tag k="name" v="Ertsvika" />
		<tag k="natural" v="bay" />
		<tag k="ssr:stedsnr" v="669154" />
	</node>
	<node id="-412367" lat="59.0588611133" lon="10.2622666697">
		<tag k="name" v="Rørvika" />
		<tag k="natural" v="bay" />
		<tag k="ssr:stedsnr" v="669145" />
	</node>
	<node id="-411881" lat="59.0968305535" lon="10.2427055512">
		<tag k="name" v="Asnes badestrand" />
		<tag k="natural" v="beach" />
		<tag k="place" v="locality" />
		<tag k="ssr:stedsnr" v="270528" />
	</node>
	<node id="-411851" lat="59.1487638916" lon="10.3095888866">
		<tag k="name" v="Engebukta" />
		<tag k="natural" v="bay" />
		<tag k="ssr:stedsnr" v="268283" />
	</node>
	<node id="-413897" lat="59.063422219" lon="10.2445138853">
		<tag k="name" v="Håholmbåene" />
		<tag k="natural" v="shoal" />
		<tag k="place" v="locality" />
		<tag k="ssr:stedsnr" v="632851" />
	</node>
	<node id="-413894" lat="59.1238472179" lon="10.3252638901">
		<tag k="name" v="Sandbukta" />
		<tag k="natural" v="bay" />
		<tag k="ssr:stedsnr" v="631230" />
	</node>
	<node id="-411845" lat="59.1368666634" lon="10.2910388882">
		<tag k="fixme" v="consider seamark:type=rock or natural=shoal" />
		<tag k="name" v="Katteskjæret" />
		<tag k="place" v="islet" />
		<tag k="ssr:stedsnr" v="267233" />
	</node>
	<node id="-411844" lat="59.1263749996" lon="10.3121694441">
		<tag k="name" v="Engeodden" />
		<tag k="natural" v="cape" />
		<tag k="ssr:stedsnr" v="267214" />
	</node>
	<node id="-412355" lat="59.0922222244" lon="10.2498055568">
		<tag k="name" v="Mellomholmen" />
		<tag k="place" v="islet" />
		<tag k="ssr:stedsnr" v="465268" />
	</node>
	<node id="-412354" lat="59.1269444461" lon="10.2408333274">
		<tag k="name" v="Kamfjordkilen" />
		<tag k="natural" v="bay" />
		<tag k="ssr:stedsnr" v="666592" />
	</node>
	<node id="-412353" lat="59.0811111144" lon="10.2211111189">
		<tag k="fixme" v="consider seamark:type=rock or natural=shoal" />
		<tag k="name" v="Vannøyskjæra" />
		<tag k="place" v="islet" />
		<tag k="ssr:stedsnr" v="663561" />
	</node>
	<node id="-412897" lat="59.127091664" lon="10.325099993">
		<tag k="fixme" v="consider seamark:type=rock or natural=shoal" />
		<tag k="name" v="Terneskjæret" />
		<tag k="place" v="islet" />
		<tag k="ssr:stedsnr" v="874269" />
	</node>
	<node id="-411838" lat="59.0877777798" lon="10.2388888817">
		<tag k="name" v="Krakken" />
		<tag k="place" v="locality" />
		<tag k="ssr:stedsnr" v="119781" />
	</node>
	<node id="-413373" lat="59.1335805549" lon="10.2992055613">
		<tag k="name" v="Faraholmen" />
		<tag k="place" v="islet" />
		<tag k="ssr:stedsnr" v="207561" />
	</node>
	<node id="-413847" lat="59.0854305537" lon="10.2228583284">
		<tag k="name" v="Fjøsbåen" />
		<tag k="natural" v="shoal" />
		<tag k="place" v="locality" />
		<tag k="ssr:stedsnr" v="601743" />
	</node>
	<node id="-413368" lat="59.1457416679" lon="10.3277527831">
		<tag k="fixme" v="consider seamark:type=rock or natural=shoal" />
		<tag k="name" v="Pikeskjæret" />
		<tag k="place" v="islet" />
		<tag k="ssr:stedsnr" v="207281" />
	</node>
	<node id="-413366" lat="59.1235277817" lon="10.3254861125">
		<tag k="fixme" v="consider seamark:type=rock or natural=shoal" />
		<tag k="name" v="Sandbuktskjæret" />
		<tag k="place" v="islet" />
		<tag k="ssr:stedsnr" v="207259" />
	</node>
	<node id="-411828" lat="59.0724805511" lon="10.3130055615">
		<tag k="name" v="Trubersund" />
		<tag k="natural" v="strait" />
		<tag k="ssr:stedsnr" v="85276" />
	</node>
	<node id="-413363" lat="59.0630222253" lon="10.2783277861">
		<tag k="fixme" v="consider seamark:type=rock or natural=shoal" />
		<tag k="name" v="Galteskjær" />
		<tag k="place" v="islet" />
		<tag k="ssr:stedsnr" v="206327" />
	</node>
	<node id="-412078" lat="59.0206000033" lon="10.3073083249">
		<tag k="name" v="Sydostre" />
		<tag k="natural" v="shoal" />
		<tag k="place" v="locality" />
		<tag k="ssr:stedsnr" v="269959" />
	</node>
	<node id="-413361" lat="59.0406472187" lon="10.2736861169">
		<tag k="fixme" v="consider seamark:type=rock or natural=shoal" />
		<tag k="name" v="Svartskjær" />
		<tag k="place" v="islet" />
		<tag k="ssr:stedsnr" v="206309" />
	</node>
	<node id="-412848" lat="59.085427777" lon="10.2276222281">
		<tag k="fixme" v="consider seamark:type=rock or natural=shoal" />
		<tag k="name" v="Garnskjæret" />
		<tag k="place" v="islet" />
		<tag k="ssr:stedsnr" v="937567" />
	</node>
	<node id="-412847" lat="59.0923833306" lon="10.2247027775">
		<tag k="fixme" v="consider seamark:type=rock or natural=shoal" />
		<tag k="name" v="Båtstangskjæret" />
		<tag k="place" v="islet" />
		<tag k="ssr:stedsnr" v="937563" />
	</node>
	<node id="-412846" lat="59.0904555533" lon="10.2216111154">
		<tag k="fixme" v="consider seamark:type=rock or natural=shoal" />
		<tag k="name" v="Langeskjæret" />
		<tag k="place" v="islet" />
		<tag k="ssr:stedsnr" v="937559" />
	</node>
	<node id="-412189" lat="59.1546833292" lon="10.332458337">
		<tag k="name" v="Hesteholmen" />
		<tag k="place" v="islet" />
		<tag k="ssr:stedsnr" v="389307" />
	</node>
	<node id="-413868" lat="59.0726333336" lon="10.228322215">
		<tag k="name" v="Saltholmen" />
		<tag k="place" v="islet" />
		<tag k="ssr:stedsnr" v="608134" />
	</node>
	<node id="-412331" lat="59.1062999966" lon="10.2794944409">
		<tag k="name" v="Buholmen" />
		<tag k="place" v="islet" />
		<tag k="ssr:stedsnr" v="451045" />
	</node>
	<node id="-413866" lat="59.078486112" lon="10.3165000064">
		<tag k="fixme" v="consider seamark:type=rock or natural=shoal" />
		<tag k="name" v="Snipa" />
>>>>>>> e1d4bc35ff8a6074a6f2e91616a996b547c36f15
		<tag k="place" v="islet" />
		<tag k="ssr:stedsnr" v="608127" />
	</node>
	<node id="-412327" lat="59.0491972248" lon="10.2750750047">
		<tag k="name" v="Askvika" />
		<tag k="natural" v="bay" />
		<tag k="ssr:stedsnr" v="449311" />
	</node>
	<node id="-413860" lat="59.108802774" lon="10.2628666609">
		<tag k="name" v="Ormestadvika" />
		<tag k="natural" v="bay" />
		<tag k="ssr:stedsnr" v="608060" />
	</node>
<<<<<<< HEAD
	<node lat="59.072044441858985" lon="10.308430561770667" id="-29289">
		<tag k="alt_name" v="N. Trubervik" />
		<tag k="name" v="Nordre Trubervika" />
		<tag k="natural" v="bay" />
		<tag k="ssr:stedsnr" v="330945" />
	</node>
	<node lat="59.078880552899335" lon="10.260869437220993" id="-29310">
		<tag k="name" v="Langholmen" />
		<tag k="natural" v="cape" />
		<tag k="ssr:stedsnr" v="330787" />
	</node>
	<node lat="59.178016669723355" lon="10.335722216108625" id="-29314">
		<tag k="name" v="Nallbergbåen" />
		<tag k="place" v="locality" />
		<tag k="seamark:type" v="rock" />
		<tag k="ssr:stedsnr" v="331043" />
	</node>
	<node lat="59.154716666926255" lon="10.322861102549336" id="-29315">
		<tag k="name" v="Lille Verksholmen" />
		<tag k="place" v="islet" />
		<tag k="ssr:stedsnr" v="331046" />
	</node>
	<node lat="59.09388888588447" lon="10.221111113490544" id="-29326">
		<tag k="name" v="Berganstranda" />
		<tag k="natural" v="beach" />
		<tag k="ssr:stedsnr" v="362559" />
	</node>
	<node lat="59.10269166310412" lon="10.322716665960687" id="-29328">
		<tag k="name" v="Engelsbåen" />
		<tag k="natural" v="shoal" />
		<tag k="place" v="locality" />
		<tag k="ssr:stedsnr" v="365102" />
	</node>
	<node lat="59.10530555416663" lon="10.335849994228436" id="-29329">
		<tag k="name" v="Kongskollen" />
		<tag k="place" v="islet" />
		<tag k="ssr:stedsnr" v="365104" />
	</node>
	<node lat="59.08002500388405" lon="10.268855550446919" id="-29331">
		<tag k="name" v="Vesterøya" />
		<tag k="natural" v="cape" />
		<tag k="ssr:stedsnr" v="365124" />
	</node>
	<node lat="59.083955554529496" lon="10.25596666457075" id="-29332">
		<tag k="name" v="Buerøya" />
		<tag k="place" v="islet" />
		<tag k="ssr:stedsnr" v="365126" />
	</node>
	<node lat="59.041738887651356" lon="10.320130561891999" id="-29335">
		<tag k="name" v="Lyngholmhausen" />
		<tag k="natural" v="shoal" />
		<tag k="place" v="locality" />
		<tag k="ssr:stedsnr" v="365212" />
	</node>
	<node lat="59.12373427786367" lon="10.322665327271443" id="-29341">
		<tag k="loc_name" v="Natholmen" />
		<tag k="name" v="Nattholmen" />
		<tag k="place" v="island" />
		<tag k="ssr:stedsnr" v="366052" />
	</node>
	<node lat="59.10827499717524" lon="10.274491667549237" id="-29343">
		<tag k="name" v="Storholmen" />
		<tag k="place" v="islet" />
		<tag k="ssr:stedsnr" v="366064" />
	</node>
	<node lat="59.05270000188649" lon="10.329502770587645" id="-29347">
		<tag k="name" v="Svartebåen" />
		<tag k="natural" v="shoal" />
		<tag k="place" v="locality" />
		<tag k="ssr:stedsnr" v="366172" />
	</node>
	<node lat="59.13250833136837" lon="10.310088892105414" id="-29360">
		<tag k="fixme" v="consider seamark:type=rock or natural=shoal" />
		<tag k="name" v="Båtstadskjæra" />
		<tag k="place" v="islet" />
		<tag k="ssr:stedsnr" v="388214" />
	</node>
	<node lat="59.08335277571755" lon="10.289086103701896" id="-29362">
		<tag k="name" v="Eianholmen" />
		<tag k="place" v="islet" />
		<tag k="ssr:stedsnr" v="388280" />
	</node>
	<node lat="59.12958055288038" lon="10.295033338255807" id="-29363">
		<tag k="name" v="Trondskjær" />
		<tag k="place" v="islet" />
		<tag k="ssr:stedsnr" v="388575" />
	</node>
	<node lat="59.087016669205596" lon="10.3297305593558" id="-29364">
		<tag k="name" v="Ryggen" />
		<tag k="natural" v="shoal" />
		<tag k="place" v="locality" />
		<tag k="ssr:stedsnr" v="388928" />
	</node>
	<node lat="59.107888891290216" lon="10.278950008158318" id="-29373">
=======
	<node id="-413859" lat="59.2136249973" lon="10.3573638856">
		<tag k="name" v="Trælsodden" />
		<tag k="natural" v="cape" />
		<tag k="ssr:stedsnr" v="608051" />
	</node>
	<node id="-413858" lat="59.1457499971" lon="10.3215694497">
		<tag k="name" v="Årøtangen" />
		<tag k="natural" v="cape" />
		<tag k="ssr:stedsnr" v="608028" />
	</node>
	<node id="-412318" lat="59.0315666697" lon="10.3277250022">
		<tag k="name" v="Flaten" />
		<tag k="natural" v="shoal" />
		<tag k="place" v="locality" />
		<tag k="ssr:stedsnr" v="426219" />
	</node>
	<node id="-412317" lat="59.0286000006" lon="10.3176416641">
		<tag k="name" v="Storegrunnen" />
		<tag k="natural" v="shoal" />
		<tag k="place" v="locality" />
		<tag k="ssr:stedsnr" v="426218" />
	</node>
	<node id="-412316" lat="59.0406694484" lon="10.285705557">
		<tag k="fixme" v="consider seamark:type=rock or natural=shoal" />
		<tag k="name" v="Helleskjæret" />
		<tag k="place" v="islet" />
		<tag k="ssr:stedsnr" v="426205" />
	</node>
	<node id="-412827" lat="59.1195083343" lon="10.321277773">
		<tag k="fixme" v="consider seamark:type=rock or natural=shoal" />
		<tag k="name" v="Natholmskjær" />
		<tag k="place" v="islet" />
		<tag k="ssr:stedsnr" v="937074" />
	</node>
	<node id="-413337" lat="59.0550138863" lon="10.280974994">
		<tag k="fixme" v="consider seamark:type=rock or natural=shoal" />
		<tag k="name" v="Krokane" />
		<tag k="place" v="islet" />
		<tag k="ssr:stedsnr" v="184169" />
	</node>
	<node id="-413336" lat="59.0658888858" lon="10.2720138802">
		<tag k="name" v="Bentsrødkilen" />
		<tag k="natural" v="bay" />
		<tag k="ssr:stedsnr" v="184152" />
	</node>
	<node id="-411799" lat="59.0819277812" lon="10.3396694406">
		<tag k="fixme" v="consider seamark:type=rock or natural=shoal" />
		<tag k="name" v="Torgerskjæra" />
		<tag k="place" v="islet" />
		<tag k="ssr:stedsnr" v="244130" />
	</node>
	<node id="-413333" lat="59.102233336" lon="10.2742500085">
		<tag k="name" v="Brattholmen" />
		<tag k="place" v="islet" />
		<tag k="ssr:stedsnr" v="184066" />
	</node>
	<node id="-412308" lat="59.0858166655" lon="10.2518777833">
		<tag k="fixme" v="consider seamark:type=rock or natural=shoal" />
		<tag k="name" v="Sjøbakken" />
		<tag k="place" v="islet" />
		<tag k="ssr:stedsnr" v="426125" />
	</node>
	<node id="-413331" lat="59.1124388876" lon="10.3176499968">
		<tag k="fixme" v="consider seamark:type=rock or natural=shoal" />
		<tag k="name" v="Svartskjær" />
		<tag k="place" v="islet" />
		<tag k="ssr:stedsnr" v="184050" />
	</node>
	<node id="-412867" lat="59.080711114" lon="10.2233333301">
		<tag k="name" v="Vannøyfloa" />
		<tag k="natural" v="strait" />
		<tag k="ssr:stedsnr" v="937775" />
	</node>
	<node id="-412304" lat="59.2216555575" lon="10.3667972233">
		<tag k="name" v="Brunstadsundet" />
		<tag k="natural" v="strait" />
		<tag k="ssr:stedsnr" v="513982" />
	</node>
	<node id="-412815" lat="59.0745500043" lon="10.3149916624">
		<tag k="name" v="Godthøl" />
		<tag k="natural" v="bay" />
		<tag k="ssr:stedsnr" v="935341" />
	</node>
	<node id="-412814" lat="59.0510444442" lon="10.2933416594">
		<tag k="fixme" v="consider seamark:type=rock or natural=shoal" />
		<tag k="name" v="Lyngholmskjæret" />
		<tag k="place" v="islet" />
		<tag k="ssr:stedsnr" v="935314" />
	</node>
	<node id="-412813" lat="59.054174997" lon="10.3062944412">
>>>>>>> e1d4bc35ff8a6074a6f2e91616a996b547c36f15
		<tag k="fixme" v="consider seamark:type=rock or natural=shoal" />
		<tag k="name" v="Ertsvikskjæret" />
		<tag k="place" v="islet" />
		<tag k="ssr:stedsnr" v="935312" />
	</node>
<<<<<<< HEAD
	<node lat="59.07528889193796" lon="10.34768333901996" id="-29382">
		<tag k="name" v="Eksellensebåen" />
		<tag k="natural" v="shoal" />
		<tag k="place" v="locality" />
		<tag k="ssr:stedsnr" v="390985" />
	</node>
	<node lat="59.08882222376619" lon="10.229880550654642" id="-29398">
		<tag k="name" v="Vestre Bjerkeholmen" />
		<tag k="place" v="islet" />
		<tag k="ssr:stedsnr" v="391555" />
	</node>
	<node lat="59.08776666311117" lon="10.22895556062565" id="-29399">
		<tag k="name" v="Fjellholmen" />
		<tag k="place" v="islet" />
		<tag k="ssr:stedsnr" v="391556" />
	</node>
	<node lat="59.086763890471545" lon="10.236102780492802" id="-29400">
		<tag k="fixme" v="consider seamark:type=rock or natural=shoal" />
		<tag k="name" v="Fjordbåen" />
		<tag k="place" v="islet" />
		<tag k="ssr:stedsnr" v="391558" />
	</node>
	<node lat="59.07861111316849" lon="10.227361108818299" id="-29411">
		<tag k="fixme" v="consider seamark:type=rock or natural=shoal" />
		<tag k="name" v="Tutekulten" />
		<tag k="place" v="islet" />
		<tag k="ssr:stedsnr" v="391767" />
	</node>
	<node lat="59.09527777672882" lon="10.251111108859368" id="-29428">
		<tag k="name" v="Såta" />
		<tag k="natural" v="shoal" />
		<tag k="place" v="locality" />
		<tag k="ssr:stedsnr" v="423777" />
	</node>
	<node lat="59.08581666549042" lon="10.251877783321767" id="-29429">
		<tag k="fixme" v="consider seamark:type=rock or natural=shoal" />
		<tag k="name" v="Sjøbakken" />
		<tag k="place" v="islet" />
		<tag k="ssr:stedsnr" v="426125" />
	</node>
	<node lat="59.20324999834035" lon="10.347547216465141" id="-29433">
		<tag k="name" v="Gåsø" />
		<tag k="place" v="islet" />
		<tag k="ssr:stedsnr" v="426052" />
	</node>
	<node lat="59.02860000058707" lon="10.317641664117637" id="-29435">
		<tag k="name" v="Storegrunnen" />
		<tag k="natural" v="shoal" />
		<tag k="place" v="locality" />
		<tag k="ssr:stedsnr" v="426218" />
	</node>
	<node lat="59.0315666696765" lon="10.327725002202135" id="-29436">
		<tag k="name" v="Flaten" />
		<tag k="natural" v="shoal" />
		<tag k="place" v="locality" />
		<tag k="ssr:stedsnr" v="426219" />
	</node>
	<node lat="59.082991663995145" lon="10.279811106027676" id="-29465">
		<tag k="name" v="Langgrunnen" />
		<tag k="natural" v="bay" />
		<tag k="ssr:stedsnr" v="510299" />
	</node>
	<node lat="59.13368889038454" lon="10.298969444552023" id="-29468">
		<tag k="name" v="Furuholmene" />
		<tag k="place" v="islet" />
		<tag k="ssr:stedsnr" v="510237" />
	</node>
	<node lat="59.12824166778015" lon="10.316955558087646" id="-29469">
		<tag k="fixme" v="consider seamark:type=rock or natural=shoal" />
		<tag k="name" v="Innsjøskjæret" />
		<tag k="place" v="islet" />
		<tag k="ssr:stedsnr" v="510244" />
	</node>
	<node lat="59.05393888920891" lon="10.28089722682179" id="-29471">
		<tag k="fixme" v="consider seamark:type=rock or natural=shoal" />
		<tag k="name" v="Vabakkane" />
		<tag k="place" v="islet" />
		<tag k="ssr:stedsnr" v="510341" />
	</node>
	<node lat="59.06430832906856" lon="10.27878054961533" id="-29472">
		<tag k="name" v="Auvetangen" />
		<tag k="natural" v="cape" />
		<tag k="ssr:stedsnr" v="510343" />
	</node>
	<node lat="59.0658472239596" lon="10.311247221705306" id="-29473">
		<tag k="name" v="Kjela" />
		<tag k="natural" v="cape" />
		<tag k="ssr:stedsnr" v="510346" />
	</node>
	<node lat="59.12235000054533" lon="10.299652784601454" id="-29475">
		<tag k="name" v="Hestbåen" />
		<tag k="natural" v="shoal" />
		<tag k="place" v="locality" />
		<tag k="ssr:stedsnr" v="510626" />
	</node>
	<node lat="59.11768644103875" lon="10.268701806021625" id="-29482">
		<tag k="name" v="Gokstadholmen" />
		<tag k="place" v="islet" />
		<tag k="ssr:stedsnr" v="511664" />
	</node>
	<node lat="59.09920277594279" lon="10.232436119480955" id="-29505">
		<tag k="alt_name" v="Trangsholmen" />
		<tag k="name" v="Trangsholmene" />
		<tag k="place" v="islet" />
		<tag k="ssr:stedsnr" v="512530" />
	</node>
	<node lat="59.088033328955646" lon="10.231361110533875" id="-29506">
		<tag k="name" v="Bergantredelen" />
		<tag k="place" v="islet" />
		<tag k="ssr:stedsnr" v="512549" />
	</node>
	<node lat="59.09161110925282" lon="10.230561110632777" id="-29507">
		<tag k="name" v="Seilerholmen" />
		<tag k="place" v="islet" />
		<tag k="ssr:stedsnr" v="512552" />
	</node>
	<node lat="59.157161110586145" lon="10.335047225551817" id="-29528">
		<tag k="bay" v="fjord" />
		<tag k="name" v="Vestkjæla" />
		<tag k="natural" v="bay" />
		<tag k="ssr:stedsnr" v="513062" />
	</node>
	<node lat="59.22165555749543" lon="10.366797223261505" id="-29537">
		<tag k="name" v="Brunstadsundet" />
		<tag k="natural" v="strait" />
		<tag k="ssr:stedsnr" v="513982" />
	</node>
	<node lat="59.0993055569308" lon="10.224166671691728" id="-29543">
		<tag k="name" v="Lofterødbukta" />
		<tag k="natural" v="bay" />
		<tag k="ssr:stedsnr" v="543593" />
	</node>
	<node lat="59.082805556578315" lon="10.303961111180953" id="-29551">
		<tag k="name" v="Bergekilen" />
		<tag k="natural" v="bay" />
		<tag k="ssr:stedsnr" v="547137" />
	</node>
	<node lat="59.031124996053975" lon="10.281099997207853" id="-29561">
		<tag k="name" v="Leikerane" />
		<tag k="place" v="islet" />
		<tag k="ssr:stedsnr" v="547241" />
	</node>
	<node lat="59.05828889167632" lon="10.294647227499274" id="-29563">
		<tag k="alt_name" v="Teisteholmen" />
		<tag k="name" v="Teistholmen" />
		<tag k="place" v="islet" />
		<tag k="ssr:stedsnr" v="548162" />
	</node>
	<node lat="59.06692500092417" lon="10.273302784063159" id="-29585">
		<tag k="name" v="Klevane" />
		<tag k="natural" v="beach" />
		<tag k="ssr:stedsnr" v="570286" />
	</node>
	<node lat="59.075405555428766" lon="10.313211113118179" id="-29586">
		<tag k="name" v="Holmesund" />
		<tag k="natural" v="strait" />
		<tag k="ssr:stedsnr" v="570290" />
	</node>
	<node lat="59.1722972204236" lon="10.339286118936247" id="-29587">
		<tag k="name" v="Arøbåen" />
		<tag k="natural" v="shoal" />
		<tag k="place" v="locality" />
		<tag k="ssr:stedsnr" v="570525" />
	</node>
	<node lat="59.05495555749019" lon="10.263813884948307" id="-29607">
		<tag k="fixme" v="consider seamark:type=rock or natural=shoal" />
		<tag k="name" v="Blyreva" />
		<tag k="place" v="islet" />
		<tag k="ssr:stedsnr" v="573577" />
	</node>
	<node lat="59.07611111329612" lon="10.206822224523853" id="-29633">
		<tag k="bay" v="fjord" />
		<tag k="name" v="Hemskilen" />
		<tag k="natural" v="bay" />
		<tag k="ssr:stedsnr" v="573894" />
	</node>
	<node lat="59.08543055371635" lon="10.222858328359996" id="-29645">
		<tag k="name" v="Fjøsbåen" />
		<tag k="natural" v="shoal" />
		<tag k="place" v="locality" />
		<tag k="ssr:stedsnr" v="601743" />
	</node>
	<node lat="59.145749997141074" lon="10.321569449660833" id="-29649">
		<tag k="name" v="Årøtangen" />
		<tag k="natural" v="cape" />
		<tag k="ssr:stedsnr" v="608028" />
	</node>
	<node lat="59.07848611197421" lon="10.316500006392584" id="-29650">
		<tag k="fixme" v="consider seamark:type=rock or natural=shoal" />
		<tag k="name" v="Snipa" />
		<tag k="place" v="islet" />
		<tag k="ssr:stedsnr" v="608127" />
	</node>
	<node lat="59.072633333630485" lon="10.228322215018569" id="-29652">
		<tag k="name" v="Saltholmen" />
		<tag k="place" v="islet" />
		<tag k="ssr:stedsnr" v="608134" />
	</node>
	<node lat="59.01158333675794" lon="10.324286104981471" id="-29654">
		<tag k="name" v="Rauergrunnen" />
		<tag k="natural" v="shoal" />
		<tag k="place" v="locality" />
		<tag k="ssr:stedsnr" v="608223" />
	</node>
	<node lat="59.108802774016446" lon="10.262866660941617" id="-29657">
		<tag k="name" v="Ormestadvika" />
		<tag k="natural" v="bay" />
		<tag k="ssr:stedsnr" v="608060" />
	</node>
	<node lat="59.151930552870965" lon="10.322555551109996" id="-29668">
		<tag k="alt_name" v="Store Verksholmen;Verkholmen" />
		<tag k="name" v="Verkholmane" />
		<tag k="place" v="islet" />
		<tag k="ssr:stedsnr" v="608229" />
	</node>
	<node lat="59.123847217889264" lon="10.32526389007852" id="-29682">
		<tag k="name" v="Sandbukta" />
		<tag k="natural" v="bay" />
		<tag k="ssr:stedsnr" v="631230" />
	</node>
	<node lat="59.094449999880894" lon="10.289552782575472" id="-29688">
		<tag k="fixme" v="consider seamark:type=rock or natural=shoal" />
		<tag k="name" v="Kvernhusskjær" />
		<tag k="place" v="islet" />
		<tag k="ssr:stedsnr" v="631273" />
	</node>
	<node lat="59.06342221897335" lon="10.24451388527811" id="-29692">
		<tag k="name" v="Håholmbåene" />
		<tag k="natural" v="shoal" />
		<tag k="place" v="locality" />
		<tag k="ssr:stedsnr" v="632851" />
	</node>
	<node lat="59.095536114585215" lon="10.22670000444721" id="-29712">
		<tag k="name" v="Hober" />
		<tag k="natural" v="beach" />
		<tag k="ssr:stedsnr" v="633552" />
	</node>
	<node lat="59.082483330945045" lon="10.258569442467891" id="-29713">
=======
	<node id="-412812" lat="59.0879722254" lon="10.2827583264">
		<tag k="fixme" v="consider seamark:type=rock or natural=shoal" />
		<tag k="name" v="Skitrot" />
		<tag k="place" v="islet" />
		<tag k="ssr:stedsnr" v="935306" />
	</node>
	<node id="-412811" lat="59.091758337" lon="10.2728861113">
		<tag k="name" v="Hummelvika" />
		<tag k="natural" v="bay" />
		<tag k="ssr:stedsnr" v="935285" />
	</node>
	<node id="-413564" lat="59.1053055542" lon="10.3358499942">
		<tag k="name" v="Kongskollen" />
		<tag k="place" v="islet" />
		<tag k="ssr:stedsnr" v="365104" />
	</node>
	<node id="-412524" lat="59.0944499999" lon="10.2895527826">
		<tag k="fixme" v="consider seamark:type=rock or natural=shoal" />
		<tag k="name" v="Kvernhusskjær" />
		<tag k="place" v="islet" />
		<tag k="ssr:stedsnr" v="631273" />
	</node>
	<node id="-413319" lat="59.0784722261" lon="10.2330555529">
		<tag k="name" v="Prekestolen" />
		<tag k="natural" v="cape" />
		<tag k="ssr:stedsnr" v="178498" />
	</node>
	<node id="-411782" lat="59.1008333319" lon="10.2233333338">
		<tag k="name" v="Skaustranda" />
		<tag k="natural" v="beach" />
		<tag k="place" v="locality" />
		<tag k="ssr:stedsnr" v="28569" />
	</node>
	<node id="-412921" lat="59.1332194426" lon="10.3189138805">
		<tag k="name" v="Hamburgkilen" />
		<tag k="natural" v="bay" />
		<tag k="ssr:stedsnr" v="935224" />
	</node>
	<node id="-413315" lat="59.1152777754" lon="10.2227777788">
		<tag k="name" v="Ranvika" />
		<tag k="natural" v="bay" />
		<tag k="ssr:stedsnr" v="160541" />
	</node>
	<node id="-413311" lat="59.2271333313" lon="10.3753527752">
		<tag k="name" v="Rossnesodden" />
		<tag k="natural" v="cape" />
		<tag k="ssr:stedsnr" v="149079" />
	</node>
	<node id="-413310" lat="59.2198833298" lon="10.3730916676">
		<tag k="name" v="Verjøsundet" />
		<tag k="natural" v="strait" />
		<tag k="ssr:stedsnr" v="149077" />
	</node>
	<node id="-412795" lat="59.074641671" lon="10.2118999936">
		<tag k="name" v="Snørholmen" />
		<tag k="place" v="islet" />
		<tag k="ssr:stedsnr" v="816906" />
	</node>
	<node id="-414143" lat="59.2206499967" lon="10.3710277863">
		<tag k="name" v="Verjø" />
		<tag k="place" v="islet" />
		<tag k="ssr:stedsnr" v="851042" />
	</node>
	<node id="-411766" lat="59.0711972255" lon="10.277222214">
		<tag k="name" v="Grubesand" />
		<tag k="natural" v="beach" />
		<tag k="place" v="locality" />
		<tag k="ssr:stedsnr" v="26903" />
	</node>
	<node id="-412786" lat="59.0944500004" lon="10.2299583306">
		<tag k="name" v="Fredøy" />
		<tag k="place" v="islet" />
		<tag k="ssr:stedsnr" v="816587" />
	</node>
	<node id="-412785" lat="59.0976388854" lon="10.2290749978">
		<tag k="name" v="Nåmannsholmen" />
		<tag k="place" v="islet" />
		<tag k="ssr:stedsnr" v="816571" />
	</node>
	<node id="-413292" lat="59.0518916666" lon="10.2665666672">
		<tag k="name" v="Tjønnestranda" />
		<tag k="natural" v="beach" />
		<tag k="place" v="locality" />
		<tag k="ssr:stedsnr" v="148627" />
	</node>
	<node id="-411751" lat="59.0830444451" lon="10.2319750028">
		<tag k="fixme" v="multiple name tags, choose one and add the other to alt_name" />
		<tag k="name" v="Furuholmen;Østre Furuholmen" />
		<tag k="place" v="islet" />
		<tag k="ssr:stedsnr" v="1133" />
	</node>
	<node id="-411750" lat="59.1061111115" lon="10.2674999948">
		<tag k="bay" v="fjord" />
		<tag k="name" v="Mefjorden" />
		<tag k="natural" v="bay" />
		<tag k="ssr:stedsnr" v="1119" />
	</node>
	<node id="-413457" lat="59.065216669" lon="10.3106027747">
		<tag k="name" v="Strandvika" />
		<tag k="natural" v="bay" />
		<tag k="ssr:stedsnr" v="305155" />
	</node>
	<node id="-412817" lat="59.0536027809" lon="10.2800666699">
		<tag k="name" v="Krokeholmen" />
		<tag k="place" v="islet" />
		<tag k="ssr:stedsnr" v="935345" />
	</node>
	<node id="-413794" lat="59.0185805574" lon="10.3027027862">
		<tag k="name" v="Sydvestre" />
		<tag k="natural" v="shoal" />
		<tag k="place" v="locality" />
		<tag k="ssr:stedsnr" v="572964" />
	</node>
	<node id="-413278" lat="59.1711722248" lon="10.3286277846">
		<tag k="name" v="Gleabukta" />
		<tag k="natural" v="bay" />
		<tag k="ssr:stedsnr" v="146418" />
	</node>
	<node id="-413277" lat="59.0897583321" lon="10.2914111194">
		<tag k="name" v="Odden" />
		<tag k="natural" v="bay" />
		<tag k="ssr:stedsnr" v="146297" />
	</node>
	<node id="-413276" lat="59.1306694442" lon="10.2944555479">
		<tag k="fixme" v="consider seamark:type=rock or natural=shoal" />
		<tag k="name" v="Trondskjæra" />
		<tag k="place" v="islet" />
		<tag k="ssr:stedsnr" v="146240" />
	</node>
	<node id="-412763" lat="59.0239305526" lon="10.2688083381">
		<tag k="name" v="Leikarhausen" />
		<tag k="natural" v="shoal" />
		<tag k="place" v="locality" />
		<tag k="ssr:stedsnr" v="790200" />
	</node>
	<node id="-413272" lat="59.0495777746" lon="10.278152769">
		<tag k="name" v="Fruvika" />
		<tag k="natural" v="bay" />
		<tag k="ssr:stedsnr" v="145308" />
	</node>
	<node id="-412759" lat="59.0398194466" lon="10.2820361185">
		<tag k="fixme" v="multiple name tags, choose one and add the other to alt_name; consider seamark:type=rock or natural=shoal" />
		<tag k="name" v="Hellebrottet;Svartskjæret" />
		<tag k="place" v="islet" />
		<tag k="ssr:stedsnr" v="790174" />
	</node>
	<node id="-413269" lat="59.0780888912" lon="10.3077055516">
		<tag k="fixme" v="consider seamark:type=rock or natural=shoal" />
		<tag k="name" v="Selskjæret" />
		<tag k="place" v="islet" />
		<tag k="ssr:stedsnr" v="145278" />
	</node>
	<node id="-413778" lat="59.0754055554" lon="10.3132111131">
		<tag k="name" v="Holmesund" />
		<tag k="natural" v="strait" />
		<tag k="ssr:stedsnr" v="570290" />
	</node>
	<node id="-413777" lat="59.0669250009" lon="10.2733027841">
		<tag k="name" v="Klevane" />
		<tag k="natural" v="beach" />
		<tag k="place" v="locality" />
		<tag k="ssr:stedsnr" v="570286" />
	</node>
	<node id="-412240" lat="59.088033329" lon="10.2313611105">
		<tag k="name" v="Bergantredelen" />
		<tag k="place" v="islet" />
		<tag k="ssr:stedsnr" v="512549" />
	</node>
	<node id="-412238" lat="59.117686441" lon="10.268701806">
		<tag k="name" v="Gokstadholmen" />
		<tag k="place" v="islet" />
		<tag k="ssr:stedsnr" v="511664" />
	</node>
	<node id="-412237" lat="59.1223500005" lon="10.2996527846">
		<tag k="name" v="Hestbåen" />
		<tag k="natural" v="shoal" />
		<tag k="place" v="locality" />
		<tag k="ssr:stedsnr" v="510626" />
	</node>
	<node id="-413234" lat="59.0531527734" lon="10.2988500036">
		<tag k="alt_name" v="Saltskjær" />
		<tag k="fixme" v="consider seamark:type=rock or natural=shoal" />
		<tag k="name" v="Saltskjæret" />
		<tag k="place" v="islet" />
		<tag k="ssr:stedsnr" v="122187" />
	</node>
	<node id="-412307" lat="59.0986111073" lon="10.2444444527">
		<tag k="name" v="Korsvika" />
		<tag k="natural" v="bay" />
		<tag k="ssr:stedsnr" v="426112" />
	</node>
	<node id="-412229" lat="59.065847224" lon="10.3112472217">
		<tag k="name" v="Kjela" />
		<tag k="natural" v="cape" />
		<tag k="ssr:stedsnr" v="510346" />
	</node>
	<node id="-412228" lat="59.0643083291" lon="10.2787805496">
		<tag k="name" v="Auvetangen" />
		<tag k="natural" v="cape" />
		<tag k="ssr:stedsnr" v="510343" />
	</node>
	<node id="-412227" lat="59.0539388892" lon="10.2808972268">
		<tag k="fixme" v="consider seamark:type=rock or natural=shoal" />
		<tag k="name" v="Vabakkane" />
		<tag k="place" v="islet" />
		<tag k="ssr:stedsnr" v="510341" />
	</node>
	<node id="-412225" lat="59.1282416678" lon="10.3169555581">
		<tag k="fixme" v="consider seamark:type=rock or natural=shoal" />
		<tag k="name" v="Innsjøskjæret" />
		<tag k="place" v="islet" />
		<tag k="ssr:stedsnr" v="510244" />
	</node>
	<node id="-412978" lat="59.1181555587" lon="10.2290444465">
		<tag k="name" v="Framnes" />
		<tag k="natural" v="cape" />
		<tag k="ssr:stedsnr" v="1073" />
	</node>
	<node id="-412222" lat="59.082991664" lon="10.279811106">
		<tag k="name" v="Langgrunnen" />
		<tag k="natural" v="bay" />
		<tag k="ssr:stedsnr" v="510299" />
	</node>
	<node id="-413243" lat="59.0786111093" lon="10.2374083305">
>>>>>>> e1d4bc35ff8a6074a6f2e91616a996b547c36f15
		<tag k="fixme" v="consider seamark:type=rock or natural=shoal" />
		<tag k="name" v="Beinskjæra" />
		<tag k="place" v="islet" />
<<<<<<< HEAD
		<tag k="ssr:stedsnr" v="633561" />
	</node>
	<node lat="59.08007500118902" lon="10.260375007350447" id="-29718">
		<tag k="name" v="Båtholmen" />
		<tag k="place" v="islet" />
		<tag k="ssr:stedsnr" v="633765" />
	</node>
	<node lat="59.02579721813736" lon="10.299491671790822" id="-29730">
		<tag k="name" v="Gjekstadkultene" />
		<tag k="natural" v="shoal" />
		<tag k="place" v="locality" />
		<tag k="ssr:stedsnr" v="633968" />
	</node>
	<node lat="59.111666670176305" lon="10.229444443715574" id="-29735">
		<tag k="name" v="Langestrandsbåen" />
		<tag k="natural" v="shoal" />
		<tag k="place" v="locality" />
		<tag k="ssr:stedsnr" v="646596" />
	</node>
	<node lat="59.081111114426214" lon="10.221111118885757" id="-29738">
		<tag k="fixme" v="consider seamark:type=rock or natural=shoal" />
		<tag k="name" v="Vannøyskjæra" />
		<tag k="place" v="islet" />
		<tag k="ssr:stedsnr" v="663561" />
	</node>
	<node lat="59.0588611133358" lon="10.262266669702344" id="-29744">
		<tag k="name" v="Rørvika" />
		<tag k="natural" v="bay" />
		<tag k="ssr:stedsnr" v="669145" />
	</node>
	<node lat="59.056058331503735" lon="10.305702776438215" id="-29745">
		<tag k="name" v="Ertsvika" />
		<tag k="natural" v="bay" />
		<tag k="ssr:stedsnr" v="669154" />
	</node>
	<node lat="59.215274999080385" lon="10.347111104385537" id="-29763">
		<tag k="name" v="Melsombukta" />
		<tag k="natural" v="bay" />
		<tag k="ssr:stedsnr" v="730033" />
	</node>
	<node lat="59.207774995721415" lon="10.34740000449573" id="-29765">
		<tag k="name" v="Gåsøkalven" />
		<tag k="place" v="islet" />
		<tag k="ssr:stedsnr" v="730052" />
	</node>
	<node lat="59.13681110931292" lon="10.308430549406143" id="-29783">
		<tag k="name" v="Klopplokkilen" />
		<tag k="natural" v="bay" />
		<tag k="ssr:stedsnr" v="752240" />
	</node>
	<node lat="59.08833611344083" lon="10.287894437666258" id="-29785">
		<tag k="name" v="Berganholmen" />
		<tag k="place" v="islet" />
		<tag k="ssr:stedsnr" v="752928" />
	</node>
	<node lat="59.08099722638389" lon="10.34711945262463" id="-29795">
		<tag k="name" v="Treidebåene" />
		<tag k="natural" v="shoal" />
		<tag k="place" v="locality" />
		<tag k="ssr:stedsnr" v="754988" />
	</node>
	<node lat="59.15178333567044" lon="10.322630563557267" id="-29831">
		<tag k="name" v="Store Verksholmen" />
		<tag k="place" v="islet" />
		<tag k="ssr:stedsnr" v="756045" />
	</node>
	<node lat="59.07065000114592" lon="10.313886113874112" id="-29840">
		<tag k="name" v="Truberodden" />
		<tag k="natural" v="cape" />
		<tag k="ssr:stedsnr" v="790130" />
	</node>
	<node lat="59.03981944656771" lon="10.282036118506287" id="-29842">
		<tag k="fixme" v="multiple name tags, choose one and add the other to alt_name; consider seamark:type=rock or natural=shoal" />
		<tag k="name" v="Hellebrottet;Svartskjæret" />
		<tag k="place" v="islet" />
		<tag k="ssr:stedsnr" v="790174" />
	</node>
	<node lat="59.13372777402779" lon="10.292005557465304" id="-29857">
		<tag k="fixme" v="consider seamark:type=rock or natural=shoal" />
		<tag k="name" v="Bikkjeskjæret" />
		<tag k="place" v="islet" />
		<tag k="ssr:stedsnr" v="813219" />
	</node>
	<node lat="59.13012778163846" lon="10.323472218655724" id="-29858">
		<tag k="name" v="Årøykilen" />
		<tag k="natural" v="bay" />
		<tag k="ssr:stedsnr" v="813222" />
	</node>
	<node lat="59.08023611418361" lon="10.314649998695698" id="-29860">
		<tag k="fixme" v="consider seamark:type=rock or natural=shoal" />
		<tag k="name" v="Rubo" />
		<tag k="place" v="islet" />
		<tag k="ssr:stedsnr" v="813255" />
	</node>
	<node lat="59.094450000402574" lon="10.229958330558063" id="-29879">
		<tag k="name" v="Fredøy" />
		<tag k="place" v="islet" />
		<tag k="ssr:stedsnr" v="816587" />
	</node>
	<node lat="59.06715277935115" lon="10.259883327054412" id="-29895">
		<tag k="name" v="Strandinga" />
		<tag k="natural" v="beach" />
		<tag k="ssr:stedsnr" v="816663" />
	</node>
	<node lat="59.065908330707416" lon="10.257291658762881" id="-29897">
		<tag k="fixme" v="consider seamark:type=rock or natural=shoal" />
		<tag k="name" v="Jomfruskjæra" />
		<tag k="place" v="islet" />
		<tag k="ssr:stedsnr" v="816668" />
	</node>
	<node lat="59.074641670986225" lon="10.211899993596118" id="-29912">
		<tag k="name" v="Snørholmen" />
		<tag k="place" v="islet" />
		<tag k="ssr:stedsnr" v="816906" />
	</node>
	<node lat="59.164597225062266" lon="10.326222228356091" id="-29913">
		<tag k="name" v="Sandsund" />
		<tag k="natural" v="strait" />
		<tag k="ssr:stedsnr" v="817055" />
	</node>
	<node lat="59.09408333083366" lon="10.24420832798323" id="-29919">
		<tag k="name" v="Korsvikbåen" />
		<tag k="natural" v="shoal" />
		<tag k="place" v="locality" />
		<tag k="ssr:stedsnr" v="844765" />
	</node>
	<node lat="59.069508333704796" lon="10.338744445997124" id="-29925">
		<tag k="fixme" v="consider seamark:type=rock or natural=shoal" />
		<tag k="name" v="Stauperluva" />
		<tag k="place" v="islet" />
		<tag k="ssr:stedsnr" v="851144" />
	</node>
	<node lat="59.220649996707536" lon="10.37102778630232" id="-29927">
		<tag k="name" v="Verjø" />
		<tag k="place" v="islet" />
		<tag k="ssr:stedsnr" v="851042" />
	</node>
	<node lat="59.104402775036576" lon="10.306830552500907" id="-29934">
		<tag k="alt_name" v="Stigerholmen;Stigerholmene" />
		<tag k="name" v="Stigerholmane" />
		<tag k="place" v="islet" />
		<tag k="ssr:stedsnr" v="852087" />
	</node>
	<node lat="59.03467777333403" lon="10.27844445146327" id="-29949">
		<tag k="fixme" v="consider seamark:type=rock or natural=shoal" />
		<tag k="name" v="Leikerane" />
		<tag k="place" v="islet" />
		<tag k="ssr:stedsnr" v="874334" />
	</node>
	<node lat="59.13528055963624" lon="10.306308326407965" id="-29957">
		<tag k="name" v="Susebukta" />
		<tag k="natural" v="bay" />
		<tag k="ssr:stedsnr" v="874266" />
	</node>
	<node lat="59.127091663992644" lon="10.325099993041652" id="-29959">
		<tag k="fixme" v="consider seamark:type=rock or natural=shoal" />
		<tag k="name" v="Terneskjæret" />
		<tag k="place" v="islet" />
		<tag k="ssr:stedsnr" v="874269" />
	</node>
	<node lat="59.12409721786417" lon="10.301666673325542" id="-29960">
		<tag k="alt_name" v="Kjølpene" />
		<tag k="fixme" v="consider seamark:type=rock or natural=shoal" />
		<tag k="name" v="Kjølpene" />
		<tag k="place" v="islet" />
		<tag k="ssr:stedsnr" v="874272" />
	</node>
	<node lat="59.1372138912212" lon="10.281297226975894" id="-29962">
		<tag k="name" v="Elverhøystranda" />
		<tag k="natural" v="beach" />
		<tag k="ssr:stedsnr" v="874283" />
	</node>
	<node lat="59.073072224294066" lon="10.287322223788193" id="-29967">
		<tag k="fixme" v="consider seamark:type=rock or natural=shoal" />
		<tag k="name" v="Teineskjæret" />
		<tag k="place" v="islet" />
		<tag k="ssr:stedsnr" v="874915" />
	</node>
	<node lat="59.11506944609159" lon="10.278438885425704" id="-29975">
		<tag k="name" v="Bøkilen" />
		<tag k="natural" v="bay" />
		<tag k="ssr:stedsnr" v="876050" />
	</node>
	<node lat="59.06778333172146" lon="10.291083335833195" id="-29984">
		<tag k="name" v="Kollholmen" />
=======
		<tag k="ssr:stedsnr" v="123149" />
	</node>
	<node id="-413242" lat="59.0748305583" lon="10.2218055538">
		<tag k="fixme" v="multiple name tags, choose one and add the other to alt_name" />
		<tag k="name" v="Skogøy;Storøya" />
		<tag k="place" v="islet" />
		<tag k="ssr:stedsnr" v="123148" />
	</node>
	<node id="-411999" lat="59.0795833311" lon="10.2807111106">
		<tag k="name" v="Båtholmen" />
		<tag k="place" v="islet" />
		<tag k="ssr:stedsnr" v="449290" />
	</node>
	<node id="-413240" lat="59.1143305581" lon="10.2661444516">
		<tag k="name" v="Ormestadholmen" />
		<tag k="place" v="islet" />
		<tag k="ssr:stedsnr" v="123080" />
	</node>
	<node id="-412214" lat="59.0786111132" lon="10.2273611088">
		<tag k="fixme" v="consider seamark:type=rock or natural=shoal" />
		<tag k="name" v="Tutekulten" />
		<tag k="place" v="islet" />
		<tag k="ssr:stedsnr" v="391767" />
	</node>
	<node id="-412724" lat="59.0405861082" lon="10.2669000076">
		<tag k="fixme" v="consider seamark:type=rock or natural=shoal" />
		<tag k="name" v="Holtskjæra" />
		<tag k="place" v="islet" />
		<tag k="ssr:stedsnr" v="912202" />
	</node>
	<node id="-413747" lat="59.0582888917" lon="10.2946472275">
		<tag k="alt_name" v="Teisteholmen" />
		<tag k="name" v="Teistholmen" />
		<tag k="place" v="islet" />
		<tag k="ssr:stedsnr" v="548162" />
	</node>
	<node id="-414258" lat="59.0409402529" lon="10.2679188352">
		<tag k="name" v="Holtskjærsundet" />
		<tag k="natural" v="strait" />
		<tag k="ssr:stedsnr" v="988858" />
	</node>
	<node id="-414257" lat="59.0562846394" lon="10.3097809195">
		<tag k="name" v="Tønnegapet" />
		<tag k="natural" v="strait" />
		<tag k="ssr:stedsnr" v="988813" />
	</node>
	<node id="-412803" lat="59.0667611092" lon="10.2897027773">
		<tag k="name" v="Kolholmen" />
		<tag k="place" v="islet" />
		<tag k="ssr:stedsnr" v="934929" />
	</node>
	<node id="-412719" lat="59.0851750011" lon="10.309163894">
		<tag k="name" v="Flautangen" />
		<tag k="natural" v="cape" />
		<tag k="ssr:stedsnr" v="912128" />
	</node>
	<node id="-414301" lat="58.8808669241" lon="9.40503401313">
		<tag k="name" v="Kalstadkilen" />
		<tag k="natural" v="bay" />
		<tag k="ssr:stedsnr" v="1074475" />
	</node>
	<node id="-413228" lat="59.0966555546" lon="10.2400000082">
		<tag k="name" v="Asnes" />
		<tag k="natural" v="cape" />
		<tag k="ssr:stedsnr" v="122102" />
	</node>
	<node id="-412715" lat="59.1963527809" lon="10.3468277753">
		<tag k="bay" v="fjord" />
		<tag k="name" v="Tønsbergfjorden" />
		<tag k="natural" v="bay" />
		<tag k="ssr:stedsnr" v="912038" />
	</node>
	<node id="-413738" lat="59.0311249961" lon="10.2810999972">
		<tag k="name" v="Leikerane" />
		<tag k="place" v="islet" />
		<tag k="ssr:stedsnr" v="547241" />
	</node>
	<node id="-412713" lat="59.129191671" lon="10.3018277799">
		<tag k="alt_name" v="Raueren" />
		<tag k="name" v="Rauern" />
		<tag k="place" v="islet" />
		<tag k="ssr:stedsnr" v="912030" />
	</node>
	<node id="-412200" lat="59.0867638905" lon="10.2361027805">
		<tag k="fixme" v="consider seamark:type=rock or natural=shoal" />
		<tag k="name" v="Fjordbåen" />
		<tag k="place" v="islet" />
		<tag k="ssr:stedsnr" v="391558" />
	</node>
	<node id="-413223" lat="59.0924999969" lon="10.2216666678">
		<tag k="name" v="Berganbukta" />
		<tag k="natural" v="bay" />
		<tag k="ssr:stedsnr" v="118551" />
	</node>
	<node id="-413222" lat="59.0947222237" lon="10.2544444423">
		<tag k="name" v="Vaholmen" />
		<tag k="place" v="islet" />
		<tag k="ssr:stedsnr" v="116743" />
	</node>
	<node id="-411825" lat="59.1276166627" lon="10.3260055567">
		<tag k="name" v="Furuvika" />
		<tag k="natural" v="bay" />
		<tag k="ssr:stedsnr" v="85207" />
	</node>
	<node id="-413318" lat="59.0889444463" lon="10.2324444463">
		<tag k="fixme" v="consider seamark:type=rock or natural=shoal" />
		<tag k="name" v="Bjerkskjær" />
		<tag k="place" v="islet" />
		<tag k="ssr:stedsnr" v="176753" />
	</node>
	<node id="-413730" lat="59.0658111079" lon="10.3219805541">
		<tag k="name" v="Omebåen" />
		<tag k="natural" v="shoal" />
		<tag k="place" v="locality" />
		<tag k="ssr:stedsnr" v="547174" />
	</node>
	<node id="-413726" lat="59.0828055566" lon="10.3039611112">
		<tag k="name" v="Bergekilen" />
		<tag k="natural" v="bay" />
		<tag k="ssr:stedsnr" v="547137" />
	</node>
	<node id="-412701" lat="59.0761833378" lon="10.3113833351">
		<tag k="name" v="Havneholmen" />
		<tag k="place" v="islet" />
		<tag k="ssr:stedsnr" v="752310" />
	</node>
	<node id="-412188" lat="59.0870166692" lon="10.3297305594">
		<tag k="name" v="Ryggen" />
		<tag k="natural" v="shoal" />
		<tag k="place" v="locality" />
		<tag k="ssr:stedsnr" v="388928" />
	</node>
	<node id="-412187" lat="59.1295805529" lon="10.2950333383">
		<tag k="name" v="Trondskjær" />
		<tag k="place" v="islet" />
		<tag k="ssr:stedsnr" v="388575" />
	</node>
	<node id="-412698" lat="59.1368111093" lon="10.3084305494">
		<tag k="name" v="Klopplokkilen" />
		<tag k="natural" v="bay" />
		<tag k="ssr:stedsnr" v="752240" />
	</node>
	<node id="-412697" lat="59.1208722229" lon="10.3127416677">
		<tag k="alt_name" v="Langskjær" />
		<tag k="fixme" v="consider seamark:type=rock or natural=shoal" />
		<tag k="name" v="Langeskjæret" />
		<tag k="place" v="islet" />
		<tag k="ssr:stedsnr" v="752223" />
	</node>
	<node id="-412184" lat="59.0630750007" lon="10.2739111079">
		<tag k="fixme" v="consider seamark:type=rock or natural=shoal" />
		<tag k="name" v="Spellvikskjæret" />
		<tag k="place" v="islet" />
		<tag k="ssr:stedsnr" v="388322" />
	</node>
	<node id="-412183" lat="59.0938888859" lon="10.2211111135">
		<tag k="name" v="Berganstranda" />
		<tag k="natural" v="beach" />
		<tag k="place" v="locality" />
		<tag k="ssr:stedsnr" v="362559" />
	</node>
	<node id="-412513" lat="59.1519305529" lon="10.3225555511">
		<tag k="alt_name" v="Store Verksholmen;Verkholmen" />
		<tag k="name" v="Verkholmane" />
		<tag k="place" v="islet" />
		<tag k="ssr:stedsnr" v="608229" />
	</node>
	<node id="-412721" lat="59.0616777798" lon="10.2948444419">
		<tag k="name" v="Espeholmen" />
		<tag k="place" v="islet" />
		<tag k="ssr:stedsnr" v="912154" />
	</node>
	<node id="-413716" lat="59.0993055569" lon="10.2241666717">
		<tag k="name" v="Lofterødbukta" />
		<tag k="natural" v="bay" />
		<tag k="ssr:stedsnr" v="543593" />
	</node>
	<node id="-413870" lat="59.0719861136" lon="10.2169055592">
		<tag k="name" v="Nærholmen" />
		<tag k="place" v="islet" />
		<tag k="ssr:stedsnr" v="608144" />
	</node>
	<node id="-412690" lat="59.2077749957" lon="10.3474000045">
		<tag k="name" v="Gåsøkalven" />
		<tag k="place" v="islet" />
		<tag k="ssr:stedsnr" v="730052" />
	</node>
	<node id="-411783" lat="59.0996888904" lon="10.2295861171">
		<tag k="name" v="Løkholmen" />
>>>>>>> e1d4bc35ff8a6074a6f2e91616a996b547c36f15
		<tag k="place" v="islet" />
		<tag k="ssr:stedsnr" v="876910" />
	</node>
<<<<<<< HEAD
	<node lat="59.069558334919215" lon="10.241652781109682" id="-30000">
		<tag k="alt_name" v="Kari" />
		<tag k="name" v="Karibåen" />
		<tag k="place" v="locality" />
		<tag k="seamark:type" v="rock" />
		<tag k="ssr:stedsnr" v="877641" />
	</node>
	<node lat="59.17746666532381" lon="10.332222224299189" id="-30013">
		<tag k="name" v="Nallebergodden" />
		<tag k="natural" v="cape" />
		<tag k="ssr:stedsnr" v="878977" />
	</node>
	<node lat="59.11950833431769" lon="10.321277772965809" id="-30018">
		<tag k="fixme" v="consider seamark:type=rock or natural=shoal" />
		<tag k="name" v="Natholmskjær" />
		<tag k="place" v="islet" />
		<tag k="ssr:stedsnr" v="937074" />
	</node>
	<node lat="59.09045555333918" lon="10.221611115366484" id="-30037">
		<tag k="fixme" v="consider seamark:type=rock or natural=shoal" />
		<tag k="name" v="Langeskjæret" />
		<tag k="place" v="islet" />
		<tag k="ssr:stedsnr" v="937559" />
	</node>
	<node lat="59.09238333062853" lon="10.224702777512581" id="-30038">
		<tag k="fixme" v="consider seamark:type=rock or natural=shoal" />
		<tag k="name" v="Båtstangskjæret" />
		<tag k="place" v="islet" />
		<tag k="ssr:stedsnr" v="937563" />
	</node>
	<node lat="59.0854277770264" lon="10.227622228128912" id="-30039">
		<tag k="fixme" v="consider seamark:type=rock or natural=shoal" />
		<tag k="name" v="Garnskjæret" />
		<tag k="place" v="islet" />
		<tag k="ssr:stedsnr" v="937567" />
	</node>
	<node lat="59.08071111399584" lon="10.2233333300861" id="-30052">
		<tag k="name" v="Vannøyfloa" />
		<tag k="natural" v="strait" />
		<tag k="ssr:stedsnr" v="937775" />
	</node>
	<node lat="59.04094025287529" lon="10.267918835182495" id="-30121">
		<tag k="name" v="Holtskjærsundet" />
		<tag k="natural" v="strait" />
		<tag k="ssr:stedsnr" v="988858" />
	</node>
	<node lat="59.05628463939522" lon="10.309780919531473" id="-30122">
		<tag k="name" v="Tønnegapet" />
		<tag k="natural" v="strait" />
		<tag k="ssr:stedsnr" v="988813" />
=======
	<node id="-411906" lat="59.1396305557" lon="10.2888527859">
		<tag k="name" v="Arnfinntangen" />
		<tag k="natural" v="cape" />
		<tag k="ssr:stedsnr" v="146255" />
	</node>
	<node id="-414124" lat="59.1645972251" lon="10.3262222284">
		<tag k="name" v="Sandsund" />
		<tag k="natural" v="strait" />
		<tag k="ssr:stedsnr" v="817055" />
	</node>
	<node id="-412677" lat="59.0846472221" lon="10.2286611113">
		<tag k="name" v="Vestre Furuholmen" />
		<tag k="place" v="islet" />
		<tag k="ssr:stedsnr" v="695553" />
	</node>
	<node id="-413113" lat="59.0813888852" lon="10.2399999924">
		<tag k="alt_name" v="Sandefjorden" />
		<tag k="bay" v="fjord" />
		<tag k="name" v="Sandefjordsfjorden" />
		<tag k="natural" v="bay" />
		<tag k="ssr:stedsnr" v="62150" />
>>>>>>> e1d4bc35ff8a6074a6f2e91616a996b547c36f15
	</node>
</osm>
