<?xml version="1.0" encoding="UTF-8"?>
<<<<<<< HEAD
<osm version="0.6" generator="osmapis">
	<node lat="59.24258611088888" lon="10.179852782038308" id="-27636">
		<tag k="name" v="Sprena" />
		<tag k="ssr:stedsnr" v="1336" />
		<tag k="waterway" v="stream" />
	</node>
	<node lat="59.365283334062966" lon="10.055749992290096" id="-27639">
		<tag k="alt_name" v="Åletjørn;Åetjønn" />
		<tag k="name" v="Åletjønn" />
		<tag k="natural" v="water" />
		<tag k="ssr:stedsnr" v="2212" />
		<tag k="water" v="lake" />
	</node>
	<node lat="59.35241111488253" lon="10.077569449050397" id="-27662">
		<tag k="name" v="Klosterbekken" />
		<tag k="ssr:stedsnr" v="27133" />
		<tag k="waterway" v="stream" />
	</node>
	<node lat="59.35365833031807" lon="10.06978332585457" id="-27664">
		<tag k="name" v="Sæterbekken" />
		<tag k="ssr:stedsnr" v="27139" />
		<tag k="waterway" v="stream" />
	</node>
	<node lat="59.22878611005269" lon="10.140722224226208" id="-27714">
		<tag k="name" v="Gallisvannet" />
		<tag k="natural" v="water" />
		<tag k="ssr:stedsnr" v="244315" />
		<tag k="water" v="lake" />
	</node>
	<node lat="59.23392222085099" lon="10.243725004827004" id="-27716">
		<tag k="name" v="Gjennestadvannet" />
		<tag k="natural" v="water" />
		<tag k="ssr:stedsnr" v="244324" />
	</node>
	<node lat="59.368675001945505" lon="10.070483340529533" id="-27741">
		<tag k="name" v="Grønntjønnbekken" />
		<tag k="ssr:stedsnr" v="88202" />
		<tag k="waterway" v="stream" />
	</node>
	<node lat="59.30563333363812" lon="10.077986103929154" id="-27744">
		<tag k="name" v="Guslandbekken" />
		<tag k="ssr:stedsnr" v="88173" />
		<tag k="waterway" v="stream" />
	</node>
	<node lat="59.31569166898292" lon="10.09416110594992" id="-27749">
		<tag k="name" v="Bakkevannet" />
		<tag k="natural" v="water" />
		<tag k="ssr:stedsnr" v="245770" />
	</node>
	<node lat="59.19389721879123" lon="10.122152771470914" id="-27753">
		<tag k="name" v="Kalven" />
		<tag k="natural" v="cape" />
		<tag k="ssr:stedsnr" v="88782" />
	</node>
	<node lat="59.25091388750488" lon="10.048372229191397" id="-27789">
		<tag k="name" v="Rønningsvannet" />
		<tag k="natural" v="water" />
		<tag k="ssr:stedsnr" v="147874" />
	</node>
	<node lat="59.13111111430153" lon="10.237444442245407" id="-27799">
		<tag k="name" v="Brydedammen" />
		<tag k="natural" v="water" />
		<tag k="ssr:stedsnr" v="148770" />
	</node>
	<node lat="59.18512500236253" lon="10.1404194453082" id="-27802">
		<tag k="name" v="Boroa" />
		<tag k="natural" v="cape" />
		<tag k="ssr:stedsnr" v="148819" />
	</node>
	<node lat="59.31036944651951" lon="10.0487583374995" id="-27855">
		<tag k="name" v="Langevannsbekken" />
		<tag k="ssr:stedsnr" v="209226" />
		<tag k="waterway" v="stream" />
	</node>
	<node lat="59.11462222111773" lon="10.204219439905017" id="-27862">
		<tag k="name" v="Skaubekken" />
		<tag k="ssr:stedsnr" v="209607" />
		<tag k="waterway" v="stream" />
	</node>
	<node lat="59.172291670175056" lon="10.155905551771415" id="-27916">
		<tag k="name" v="Merkemellom" />
		<tag k="natural" v="cape" />
		<tag k="ssr:stedsnr" v="270756" />
	</node>
	<node lat="59.247575001323334" lon="10.062136110049211" id="-27922">
		<tag k="name" v="Kjerringdalsbekken" />
		<tag k="ssr:stedsnr" v="270768" />
		<tag k="waterway" v="stream" />
	</node>
	<node lat="59.36780278001728" lon="10.106066667571683" id="-27967">
		<tag k="name" v="Aulesjordbekken" />
		<tag k="ssr:stedsnr" v="452129" />
		<tag k="waterway" v="stream" />
	</node>
	<node lat="59.114705555191726" lon="10.202619450541407" id="-28003">
		<tag k="name" v="Virikbekken" />
		<tag k="ssr:stedsnr" v="453582" />
		<tag k="waterway" v="stream" />
	</node>
	<node lat="59.29105555394254" lon="10.086619446525523" id="-28030">
		<tag k="name" v="Bakkedamsbekken" />
		<tag k="ssr:stedsnr" v="269822" />
		<tag k="waterway" v="stream" />
	</node>
	<node lat="59.20850278152359" lon="10.072908335681067" id="-28045">
		<tag k="name" v="Liverødbekken" />
		<tag k="ssr:stedsnr" v="270971" />
		<tag k="waterway" v="stream" />
	</node>
	<node lat="59.21965555910128" lon="10.18509443812033" id="-28056">
=======
<osm generator="osmapis" version="0.6">
	<node id="-412157" lat="59.3952166662" lon="10.0700416725">
		<tag k="name" v="Merkedamselva" />
		<tag k="ssr:stedsnr" v="487221" />
		<tag k="waterway" v="stream" />
	</node>
	<node id="-412156" lat="59.3619194472" lon="10.0400055501">
		<tag k="name" v="Svartvannet" />
		<tag k="natural" v="water" />
		<tag k="ssr:stedsnr" v="487218" />
	</node>
	<node id="-412665" lat="59.2807014755" lon="10.0946541015">
		<tag k="name" v="Nordre Skarsholttjønn" />
		<tag k="natural" v="water" />
		<tag k="ssr:stedsnr" v="694809" />
	</node>
	<node id="-413170" lat="59.3686750019" lon="10.0704833405">
		<tag k="name" v="Grønntjønnbekken" />
		<tag k="ssr:stedsnr" v="88202" />
		<tag k="waterway" v="stream" />
	</node>
	<node id="-413167" lat="59.3056333336" lon="10.0779861039">
		<tag k="name" v="Guslandbekken" />
		<tag k="ssr:stedsnr" v="88173" />
		<tag k="waterway" v="stream" />
	</node>
	<node id="-413161" lat="59.2879888858" lon="10.1543305469">
		<tag k="name" v="Kjæråsdammen" />
		<tag k="natural" v="water" />
		<tag k="ssr:stedsnr" v="87786" />
	</node>
	<node id="-413666" lat="59.2897055592" lon="10.2547138877">
		<tag k="name" v="Fossnesdammen" />
		<tag k="natural" v="water" />
		<tag k="ssr:stedsnr" v="392540" />
		<tag k="water" v="lake" />
	</node>
	<node id="-411984" lat="59.2287861101" lon="10.1407222242">
		<tag k="name" v="Gallisvannet" />
		<tag k="natural" v="water" />
		<tag k="ssr:stedsnr" v="244315" />
		<tag k="water" v="lake" />
	</node>
	<node id="-413150" lat="59.2403611119" lon="10.3320527771">
		<tag k="name" v="Tryteknatten" />
		<tag k="place" v="islet" />
		<tag k="ssr:stedsnr" v="86441" />
	</node>
	<node id="-413661" lat="59.2325027767" lon="10.1027388898">
		<tag k="name" v="Skorgefossen" />
		<tag k="natural" v="waterfall" />
		<tag k="ssr:stedsnr" v="391987" />
	</node>
	<node id="-414170" lat="59.2695305596" lon="10.0198000028">
		<tag k="name" v="Heivannet" />
		<tag k="natural" v="water" />
		<tag k="ssr:stedsnr" v="852882" />
	</node>
	<node id="-414165" lat="59.2191833353" lon="10.13676111">
		<tag k="name" v="Stisvannet" />
		<tag k="natural" v="water" />
		<tag k="ssr:stedsnr" v="852373" />
	</node>
	<node id="-412113" lat="59.2196555591" lon="10.1850944381">
>>>>>>> e1d4bc35ff8a6074a6f2e91616a996b547c36f15
		<tag k="alt_name" v="Storelv" />
		<tag k="name" v="Storelva" />
		<tag k="ssr:stedsnr" v="305310" />
		<tag k="waterway" v="river" />
	</node>
<<<<<<< HEAD
	<node lat="59.29850833337576" lon="10.037524998218474" id="-28059">
		<tag k="alt_name" v="Langevann" />
		<tag k="name" v="Langevannet" />
		<tag k="natural" v="water" />
		<tag k="ssr:stedsnr" v="306807" />
	</node>
	<node lat="59.366675004405785" lon="10.10090555347557" id="-28072">
		<tag k="name" v="Vrangdalsbekken" />
		<tag k="ssr:stedsnr" v="330177" />
		<tag k="waterway" v="stream" />
	</node>
	<node lat="59.27378551188979" lon="10.100633442709876" id="-28092">
		<tag k="name" v="Søndre Skarsholttjønn" />
		<tag k="natural" v="water" />
		<tag k="ssr:stedsnr" v="330865" />
	</node>
	<node lat="59.20156111372906" lon="10.120205562577409" id="-28093">
		<tag k="name" v="Trollsåselva" />
		<tag k="ssr:stedsnr" v="330866" />
		<tag k="waterway" v="stream" />
	</node>
	<node lat="59.109927781164615" lon="10.180883327252667" id="-28096">
		<tag k="name" v="Marumbekken" />
		<tag k="ssr:stedsnr" v="331555" />
		<tag k="waterway" v="stream" />
	</node>
	<node lat="59.31722499817643" lon="10.04576388222778" id="-28131">
		<tag k="name" v="Sagbekken" />
		<tag k="ssr:stedsnr" v="391206" />
		<tag k="waterway" v="stream" />
	</node>
	<node lat="59.292891666445804" lon="10.124952785937536" id="-28132">
		<tag k="name" v="Bergselva" />
		<tag k="ssr:stedsnr" v="391235" />
		<tag k="waterway" v="river" />
	</node>
	<node lat="59.33100000411257" lon="10.045177778000822" id="-28138">
		<tag k="name" v="Trollvannselva" />
		<tag k="ssr:stedsnr" v="391806" />
		<tag k="waterway" v="river" />
	</node>
	<node lat="59.23250277673168" lon="10.102738889807851" id="-28145">
		<tag k="name" v="Skorgefossen" />
		<tag k="natural" v="waterfall" />
		<tag k="ssr:stedsnr" v="391987" />
	</node>
	<node lat="59.321600000619384" lon="10.061752775117174" id="-28191">
		<tag k="alt_name" v="Lakstjernet" />
		<tag k="name" v="Lakskjønnvannet" />
		<tag k="natural" v="water" />
		<tag k="ssr:stedsnr" v="488787" />
	</node>
	<node lat="59.32218611126442" lon="10.115316668962647" id="-28210">
		<tag k="alt_name" v="Langevann" />
		<tag k="name" v="Langvannet" />
		<tag k="natural" v="water" />
		<tag k="ssr:stedsnr" v="427770" />
	</node>
	<node lat="59.28877500386471" lon="10.189636115298002" id="-28214">
		<tag k="name" v="Askjemvannet" />
		<tag k="natural" v="water" />
		<tag k="ssr:stedsnr" v="428869" />
		<tag k="water" v="lake" />
	</node>
	<node lat="59.29361944234373" lon="10.11926111104385" id="-28215">
		<tag k="name" v="Stålerødvannet" />
		<tag k="natural" v="water" />
		<tag k="ssr:stedsnr" v="428873" />
	</node>
	<node lat="59.33721475894672" lon="10.02082072744493" id="-28230">
		<tag k="name" v="Lorttjern" />
=======
	<node id="-413134" lat="59.3676148334" lon="10.1465836763">
		<tag k="alt_name" v="Ilestadvannet" />
		<tag k="name" v="Illestadvannet" />
		<tag k="natural" v="water" />
		<tag k="ssr:stedsnr" v="63226" />
	</node>
	<node id="-414155" lat="59.2429402098" lon="10.0581023374">
		<tag k="name" v="Gjerstaddammen" />
		<tag k="natural" v="water" />
		<tag k="ssr:stedsnr" v="851317" />
	</node>
	<node id="-412618" lat="59.3250250014" lon="10.1827249968">
		<tag k="name" v="Stulsbekken" />
		<tag k="ssr:stedsnr" v="877453" />
		<tag k="waterway" v="stream" />
	</node>
	<node id="-412105" lat="59.2085027815" lon="10.0729083357">
		<tag k="name" v="Liverødbekken" />
		<tag k="ssr:stedsnr" v="270971" />
		<tag k="waterway" v="stream" />
	</node>
	<node id="-412099" lat="59.2475750013" lon="10.06213611">
		<tag k="name" v="Kjerringdalsbekken" />
		<tag k="ssr:stedsnr" v="270768" />
		<tag k="waterway" v="stream" />
	</node>
	<node id="-412608" lat="59.3079666693" lon="10.0924750084">
		<tag k="name" v="Halstvedtelva" />
		<tag k="ssr:stedsnr" v="877261" />
		<tag k="waterway" v="stream" />
	</node>
	<node id="-413115" lat="59.1952916685" lon="10.1249833411">
		<tag k="alt_name" v="Trevlandbukta" />
		<tag k="name" v="Trevlandsbukta" />
		<tag k="natural" v="bay" />
		<tag k="ssr:stedsnr" v="62155" />
	</node>
	<node id="-412602" lat="59.3338138866" lon="10.1055722288">
		<tag k="name" v="Skjauffbekken" />
		<tag k="ssr:stedsnr" v="877211" />
		<tag k="waterway" v="stream" />
	</node>
	<node id="-412601" lat="59.326024999" lon="10.1100249943">
		<tag k="name" v="Stutaua" />
		<tag k="natural" v="water" />
		<tag k="ssr:stedsnr" v="877210" />
	</node>
	<node id="-412596" lat="59.2723388902" lon="10.0803361056">
		<tag k="name" v="Slettingdalselva" />
		<tag k="ssr:stedsnr" v="876828" />
		<tag k="waterway" v="river" />
	</node>
	<node id="-412592" lat="59.3335972252" lon="10.0401138935">
		<tag k="name" v="Missmørbekken" />
		<tag k="ssr:stedsnr" v="876648" />
		<tag k="waterway" v="stream" />
	</node>
	<node id="-413853" lat="59.2472118984" lon="10.0290183379">
		<tag k="alt_name" v="Diplingene" />
		<tag k="name" v="Diplingane" />
>>>>>>> e1d4bc35ff8a6074a6f2e91616a996b547c36f15
		<tag k="natural" v="water" />
		<tag k="ssr:stedsnr" v="451566" />
	</node>
<<<<<<< HEAD
	<node lat="59.361919447202595" lon="10.040005550079426" id="-28273">
		<tag k="name" v="Svartvannet" />
		<tag k="natural" v="water" />
		<tag k="ssr:stedsnr" v="487218" />
	</node>
	<node lat="59.39521666623504" lon="10.070041672507287" id="-28274">
		<tag k="name" v="Merkedamselva" />
		<tag k="ssr:stedsnr" v="487221" />
		<tag k="waterway" v="stream" />
	</node>
	<node lat="59.277863886828655" lon="10.29744444432037" id="-28278">
		<tag k="name" v="Merkedamselva" />
		<tag k="ssr:stedsnr" v="489886" />
		<tag k="waterway" v="stream" />
	</node>
	<node lat="59.13087500441466" lon="10.194369450553685" id="-28294">
		<tag k="name" v="Bugårdsdammen" />
=======
	<node id="-414119" lat="59.2827055581" lon="10.1928638935">
		<tag k="name" v="Lagårdsøya" />
		<tag k="natural" v="cape" />
		<tag k="ssr:stedsnr" v="816537" />
	</node>
	<node id="-414118" lat="59.2873277747" lon="10.2093472236">
		<tag k="name" v="Kullerødvannet" />
		<tag k="natural" v="water" />
		<tag k="ssr:stedsnr" v="816516" />
		<tag k="water" v="lake" />
	</node>
	<node id="-413598" lat="59.3323944438" lon="10.132399997">
		<tag k="alt_name" v="Molandsvannet" />
		<tag k="name" v="Molandvannet" />
		<tag k="natural" v="water" />
		<tag k="ssr:stedsnr" v="366792" />
	</node>
	<node id="-412058" lat="59.1147055552" lon="10.2026194505">
		<tag k="name" v="Virikbekken" />
		<tag k="ssr:stedsnr" v="453582" />
		<tag k="waterway" v="stream" />
	</node>
	<node id="-414105" lat="59.3260108916" lon="10.125080463">
		<tag k="name" v="Lorttjønn" />
>>>>>>> e1d4bc35ff8a6074a6f2e91616a996b547c36f15
		<tag k="natural" v="water" />
		<tag k="ssr:stedsnr" v="816233" />
	</node>
<<<<<<< HEAD
	<node lat="59.17487499595284" lon="10.140900002920787" id="-28313">
		<tag k="name" v="Goksjø" />
		<tag k="natural" v="water" />
		<tag k="ssr:stedsnr" v="547200" />
		<tag k="water" v="lake" />
	</node>
	<node lat="59.37557778037281" lon="10.073208325518623" id="-28319">
		<tag k="alt_name" v="Grønntjønn" />
		<tag k="name" v="Grøntjernet" />
		<tag k="natural" v="water" />
		<tag k="ssr:stedsnr" v="548210" />
	</node>
	<node lat="59.23503888537169" lon="10.338380564137616" id="-28335">
		<tag k="name" v="Melsombekken" />
		<tag k="ssr:stedsnr" v="693453" />
		<tag k="waterway" v="stream" />
	</node>
	<node lat="59.313539884230586" lon="10.06540687362465" id="-28347">
		<tag k="name" v="Oksenaua" />
=======
	<node id="-413074" lat="59.1723805541" lon="10.1595222211">
		<tag k="name" v="Oddane" />
		<tag k="natural" v="beach" />
		<tag k="ssr:stedsnr" v="27751" />
	</node>
	<node id="-414096" lat="59.3188416706" lon="10.0297194434">
		<tag k="name" v="Kirilvaet" />
		<tag k="ssr:stedsnr" v="815577" />
		<tag k="waterway" v="stream" />
	</node>
	<node id="-413070" lat="59.1027617177" lon="10.186903372">
		<tag k="name" v="Marumdammen" />
>>>>>>> e1d4bc35ff8a6074a6f2e91616a996b547c36f15
		<tag k="natural" v="water" />
		<tag k="ssr:stedsnr" v="27568" />
	</node>
<<<<<<< HEAD
	<node lat="59.35796666587814" lon="10.051722223369456" id="-28348">
		<tag k="name" v="Enersrødkilen" />
		<tag k="natural" v="bay" />
		<tag k="ssr:stedsnr" v="573246" />
	</node>
	<node lat="59.28070147554066" lon="10.09465410148841" id="-28380">
		<tag k="name" v="Nordre Skarsholttjønn" />
		<tag k="natural" v="water" />
		<tag k="ssr:stedsnr" v="694809" />
	</node>
	<node lat="59.20741666591562" lon="10.071830563536277" id="-28427">
		<tag k="name" v="Svartåa" />
		<tag k="ssr:stedsnr" v="608147" />
		<tag k="waterway" v="river" />
	</node>
	<node lat="59.34132778029617" lon="10.096308332666732" id="-28442">
		<tag k="name" v="Nesbekken" />
		<tag k="ssr:stedsnr" v="633179" />
		<tag k="waterway" v="stream" />
	</node>
	<node lat="59.216024995682574" lon="10.089722215012877" id="-28471">
		<tag k="alt_name" v="Uletjønna" />
		<tag k="name" v="Uletjern" />
		<tag k="natural" v="water" />
		<tag k="ssr:stedsnr" v="668392" />
	</node>
	<node lat="59.19439721874162" lon="10.119611106808243" id="-28494">
		<tag k="name" v="Trollsåsbukta" />
		<tag k="natural" v="bay" />
		<tag k="ssr:stedsnr" v="694780" />
	</node>
	<node lat="59.26074166251139" lon="10.046105556400507" id="-28515">
		<tag k="name" v="Ulevannet" />
		<tag k="natural" v="water" />
		<tag k="ssr:stedsnr" v="695787" />
	</node>
	<node lat="59.16924999852772" lon="10.1607611156552" id="-28527">
		<tag k="name" v="Gubbetangen" />
		<tag k="natural" v="cape" />
		<tag k="ssr:stedsnr" v="730208" />
	</node>
	<node lat="59.18341111397619" lon="10.173752785408547" id="-28530">
		<tag k="alt_name" v="Napperød tj." />
		<tag k="name" v="Napperødtjerna" />
		<tag k="natural" v="water" />
		<tag k="ssr:stedsnr" v="730176" />
	</node>
	<node lat="59.29415277436117" lon="10.109772227126546" id="-28561">
		<tag k="name" v="Kolkinnelva" />
		<tag k="ssr:stedsnr" v="755266" />
		<tag k="waterway" v="river" />
	</node>
	<node lat="59.29428055165509" lon="10.120283328496173" id="-28562">
		<tag k="name" v="Rørodden" />
		<tag k="natural" v="cape" />
		<tag k="ssr:stedsnr" v="755267" />
	</node>
	<node lat="59.28585000124996" lon="10.171563896274632" id="-28572">
		<tag k="name" v="Kjæråselva" />
		<tag k="ssr:stedsnr" v="755509" />
		<tag k="waterway" v="river" />
	</node>
	<node lat="59.28477777977165" lon="10.217124993041038" id="-28596">
		<tag k="name" v="Kulerødvannet" />
		<tag k="natural" v="water" />
		<tag k="ssr:stedsnr" v="756417" />
		<tag k="water" v="lake" />
	</node>
	<node lat="59.23089166834472" lon="10.235274996645124" id="-28598">
		<tag k="name" v="Vassbonnen" />
		<tag k="natural" v="shoal" />
		<tag k="place" v="locality" />
		<tag k="ssr:stedsnr" v="756697" />
	</node>
	<node lat="59.15017500142054" lon="10.261711102541254" id="-28608">
		<tag k="alt_name" v="Unnebergbekken" />
		<tag k="name" v="Unnebergsbekken" />
		<tag k="ssr:stedsnr" v="790004" />
		<tag k="waterway" v="stream" />
	</node>
	<node lat="59.252024998623426" lon="10.026975003133359" id="-28662">
		<tag k="name" v="Diplingane" />
=======
	<node id="-412548" lat="59.220175002" lon="10.2155583324">
		<tag k="name" v="Skjeldbredammen" />
		<tag k="natural" v="water" />
		<tag k="ssr:stedsnr" v="633714" />
	</node>
	<node id="-413050" lat="59.3536583303" lon="10.0697833259">
		<tag k="name" v="Sæterbekken" />
		<tag k="ssr:stedsnr" v="27139" />
		<tag k="waterway" v="stream" />
	</node>
	<node id="-414073" lat="59.2946472219" lon="10.0508750054">
		<tag k="name" v="Støfseren" />
		<tag k="natural" v="water" />
		<tag k="ssr:stedsnr" v="792801" />
	</node>
	<node id="-413048" lat="59.3524111149" lon="10.0775694491">
		<tag k="name" v="Klosterbekken" />
		<tag k="ssr:stedsnr" v="27133" />
		<tag k="waterway" v="stream" />
	</node>
	<node id="-412021" lat="59.36780278" lon="10.1060666676">
		<tag k="name" v="Aulesjordbekken" />
		<tag k="ssr:stedsnr" v="452129" />
		<tag k="waterway" v="stream" />
	</node>
	<node id="-412014" lat="59.3372147589" lon="10.0208207274">
		<tag k="name" v="Lorttjern" />
		<tag k="natural" v="water" />
		<tag k="ssr:stedsnr" v="451566" />
	</node>
	<node id="-414098" lat="59.2772027797" lon="10.0186472188">
		<tag k="name" v="Heielva" />
		<tag k="ssr:stedsnr" v="815600" />
		<tag k="waterway" v="stream" />
	</node>
	<node id="-413034" lat="59.2422027767" lon="10.3105083305">
		<tag k="name" v="Haslestadbekken" />
		<tag k="ssr:stedsnr" v="25438" />
		<tag k="waterway" v="stream" />
	</node>
	<node id="-413545" lat="59.1099277812" lon="10.1808833273">
		<tag k="name" v="Marumbekken" />
		<tag k="ssr:stedsnr" v="331555" />
		<tag k="waterway" v="stream" />
	</node>
	<node id="-412519" lat="59.275513431" lon="10.0059521823">
		<tag k="alt_name" v="Øvre Heivann" />
		<tag k="name" v="Lille Heivannet" />
>>>>>>> e1d4bc35ff8a6074a6f2e91616a996b547c36f15
		<tag k="natural" v="water" />
		<tag k="ssr:stedsnr" v="610922" />
	</node>
<<<<<<< HEAD
	<node lat="59.318841670618234" lon="10.02971944336837" id="-28667">
		<tag k="name" v="Kirilvaet" />
		<tag k="ssr:stedsnr" v="815577" />
		<tag k="waterway" v="stream" />
	</node>
	<node lat="59.32581110762111" lon="10.113908326008367" id="-28672">
		<tag k="name" v="Veslevann" />
		<tag k="natural" v="water" />
		<tag k="ssr:stedsnr" v="816209" />
	</node>
	<node lat="59.2982694400689" lon="10.123252783883744" id="-28673">
		<tag k="name" v="Hegrebekk" />
		<tag k="ssr:stedsnr" v="816273" />
		<tag k="waterway" v="stream" />
	</node>
	<node lat="59.28732777469473" lon="10.209347223618884" id="-28675">
		<tag k="name" v="Kullerødvannet" />
		<tag k="natural" v="water" />
		<tag k="ssr:stedsnr" v="816516" />
		<tag k="water" v="lake" />
	</node>
	<node lat="59.242940209845464" lon="10.05810233742314" id="-28701">
		<tag k="name" v="Gjerstaddammen" />
		<tag k="natural" v="water" />
		<tag k="ssr:stedsnr" v="851317" />
	</node>
	<node lat="59.2191833353139" lon="10.1367611100112" id="-28703">
		<tag k="name" v="Stisvannet" />
		<tag k="natural" v="water" />
		<tag k="ssr:stedsnr" v="852373" />
	</node>
	<node lat="59.32602499897957" lon="10.110024994294879" id="-28721">
		<tag k="name" v="Stutaua" />
		<tag k="natural" v="water" />
		<tag k="ssr:stedsnr" v="877210" />
	</node>
	<node lat="59.33381388663048" lon="10.105572228820847" id="-28722">
		<tag k="name" v="Skjauffbekken" />
		<tag k="ssr:stedsnr" v="877211" />
		<tag k="waterway" v="stream" />
	</node>
	<node lat="59.30796666931361" lon="10.09247500836252" id="-28724">
		<tag k="name" v="Halstvedtelva" />
		<tag k="ssr:stedsnr" v="877261" />
		<tag k="waterway" v="stream" />
	</node>
	<node lat="59.32502500144151" lon="10.182724996816233" id="-28730">
		<tag k="name" v="Stulsbekken" />
		<tag k="ssr:stedsnr" v="877453" />
		<tag k="waterway" v="stream" />
	</node>
	<node lat="59.243774999356006" lon="10.27538888973894" id="-28764">
		<tag k="name" v="Borgebekken" />
		<tag k="ssr:stedsnr" v="912304" />
		<tag k="waterway" v="stream" />
	</node>
	<node lat="59.35524444680214" lon="10.072374993096883" id="-28770">
		<tag k="name" v="Klostervannet" />
		<tag k="natural" v="water" />
		<tag k="ssr:stedsnr" v="913743" />
	</node>
	<node lat="59.33390555639838" lon="10.048833339554374" id="-28790">
		<tag k="name" v="Åletjønnelva" />
		<tag k="ssr:stedsnr" v="937804" />
		<tag k="waterway" v="river" />
	</node>
	<node lat="59.244166663257914" lon="10.327616670932116" id="-28859">
		<tag k="name" v="Akersvannet" />
		<tag k="natural" v="water" />
		<tag k="ssr:stedsnr" v="1331" />
		<tag k="water" v="lake" />
	</node>
	<node lat="59.26786666327547" lon="10.025927780955657" id="-28884">
		<tag k="name" v="Stusserudvannet" />
		<tag k="natural" v="water" />
		<tag k="ssr:stedsnr" v="3897" />
	</node>
	<node lat="59.240836113696446" lon="10.351811116301132" id="-28895">
		<tag k="name" v="Robergvannet" />
		<tag k="natural" v="water" />
		<tag k="ssr:stedsnr" v="25435" />
		<tag k="water" v="lake" />
	</node>
	<node lat="59.242202776742985" lon="10.3105083304982" id="-28897">
		<tag k="name" v="Haslestadbekken" />
		<tag k="ssr:stedsnr" v="25438" />
		<tag k="waterway" v="stream" />
	</node>
	<node lat="59.10276171772569" lon="10.186903372031281" id="-28935">
		<tag k="name" v="Marumdammen" />
		<tag k="natural" v="water" />
		<tag k="ssr:stedsnr" v="27568" />
	</node>
	<node lat="59.17238055407912" lon="10.15952222112812" id="-28938">
		<tag k="name" v="Oddane" />
		<tag k="natural" v="beach" />
		<tag k="ssr:stedsnr" v="27751" />
	</node>
	<node lat="59.195291668538395" lon="10.124983341068386" id="-28965">
		<tag k="alt_name" v="Trevlandbukta" />
		<tag k="name" v="Trevlandsbukta" />
		<tag k="natural" v="bay" />
		<tag k="ssr:stedsnr" v="62155" />
	</node>
	<node lat="59.3676148334266" lon="10.146583676338889" id="-28972">
		<tag k="alt_name" v="Ilestadvannet" />
		<tag k="name" v="Illestadvannet" />
		<tag k="natural" v="water" />
		<tag k="ssr:stedsnr" v="63226" />
	</node>
	<node lat="59.24036111193731" lon="10.332052777133763" id="-28984">
		<tag k="name" v="Tryteknatten" />
		<tag k="place" v="islet" />
		<tag k="ssr:stedsnr" v="86441" />
	</node>
	<node lat="59.287988885787655" lon="10.154330546949646" id="-29000">
		<tag k="name" v="Kjæråsdammen" />
		<tag k="natural" v="water" />
		<tag k="ssr:stedsnr" v="87786" />
	</node>
	<node lat="59.35785278128943" lon="10.112605561260473" id="-29002">
		<tag k="name" v="Skaugbekken" />
		<tag k="ssr:stedsnr" v="88103" />
		<tag k="waterway" v="stream" />
	</node>
	<node lat="59.17916388959096" lon="10.140161116127762" id="-29019">
		<tag k="name" v="Matskapet" />
		<tag k="natural" v="cape" />
		<tag k="ssr:stedsnr" v="88737" />
	</node>
	<node lat="59.26911944277366" lon="10.153244447261207" id="-29025">
		<tag k="name" v="Svartefossa" />
		<tag k="natural" v="waterfall" />
		<tag k="ssr:stedsnr" v="88754" />
	</node>
	<node lat="59.15736110871902" lon="10.14742499504118" id="-29030">
		<tag k="name" v="Bøbukta" />
		<tag k="natural" v="bay" />
		<tag k="ssr:stedsnr" v="88852" />
	</node>
	<node lat="59.2825972207699" lon="10.240752783147709" id="-29037">
		<tag k="name" v="Liadammen" />
		<tag k="natural" v="water" />
		<tag k="ssr:stedsnr" v="89449" />
		<tag k="water" v="lake" />
	</node>
	<node lat="59.07121388980507" lon="10.258225002164272" id="-29057">
		<tag k="name" v="Vøra" />
		<tag k="natural" v="beach" />
		<tag k="ssr:stedsnr" v="123158" />
	</node>
	<node lat="59.2871500038914" lon="10.033775000564363" id="-29076">
		<tag k="name" v="Bjønnevann" />
		<tag k="natural" v="water" />
		<tag k="ssr:stedsnr" v="124825" />
	</node>
	<node lat="59.30108611001318" lon="10.013433341584333" id="-29093">
		<tag k="name" v="Rennesikdammen" />
		<tag k="natural" v="water" />
		<tag k="ssr:stedsnr" v="147556" />
	</node>
	<node lat="59.28996111044416" lon="10.186511119721562" id="-29109">
		<tag k="name" v="Åsenstranda" />
		<tag k="natural" v="beach" />
		<tag k="ssr:stedsnr" v="148513" />
	</node>
	<node lat="59.09277777454303" lon="10.224444441822616" id="-29140">
		<tag k="name" v="Båtstangen" />
		<tag k="natural" v="cape" />
		<tag k="ssr:stedsnr" v="181589" />
	</node>
	<node lat="59.23261388791856" lon="10.120305562966605" id="-29157">
=======
	<node id="-414047" lat="59.2308916683" lon="10.2352749966">
		<tag k="name" v="Vassbonnen" />
		<tag k="natural" v="shoal" />
		<tag k="place" v="locality" />
		<tag k="ssr:stedsnr" v="756697" />
	</node>
	<node id="-414043" lat="59.2847777798" lon="10.217124993">
		<tag k="name" v="Kulerødvannet" />
		<tag k="natural" v="water" />
		<tag k="ssr:stedsnr" v="756417" />
		<tag k="water" v="lake" />
	</node>
	<node id="-413530" lat="59.2015611137" lon="10.1202055626">
		<tag k="name" v="Trollsåselva" />
		<tag k="ssr:stedsnr" v="330866" />
		<tag k="waterway" v="stream" />
	</node>
	<node id="-413529" lat="59.2737855119" lon="10.1006334427">
		<tag k="name" v="Søndre Skarsholttjønn" />
		<tag k="natural" v="water" />
		<tag k="ssr:stedsnr" v="330865" />
	</node>
	<node id="-411992" lat="59.315691669" lon="10.0941611059">
		<tag k="name" v="Bakkevannet" />
		<tag k="natural" v="water" />
		<tag k="ssr:stedsnr" v="245770" />
	</node>
	<node id="-411986" lat="59.2339222209" lon="10.2437250048">
		<tag k="name" v="Gjennestadvannet" />
		<tag k="natural" v="water" />
		<tag k="ssr:stedsnr" v="244324" />
	</node>
	<node id="-413520" lat="59.1882861074" lon="10.1304888903">
		<tag k="name" v="Tryteskjæret" />
		<tag k="place" v="islet" />
		<tag k="ssr:stedsnr" v="330846" />
	</node>
	<node id="-412998" lat="59.2425861109" lon="10.179852782">
		<tag k="name" v="Sprena" />
		<tag k="ssr:stedsnr" v="1336" />
		<tag k="waterway" v="stream" />
	</node>
	<node id="-412996" lat="59.2441666633" lon="10.3276166709">
		<tag k="name" v="Akersvannet" />
		<tag k="natural" v="water" />
		<tag k="ssr:stedsnr" v="1331" />
		<tag k="water" v="lake" />
	</node>
	<node id="-411965" lat="59.1146222211" lon="10.2042194399">
		<tag k="name" v="Skaubekken" />
		<tag k="ssr:stedsnr" v="209607" />
		<tag k="waterway" v="stream" />
	</node>
	<node id="-412475" lat="59.2607416625" lon="10.0461055564">
		<tag k="name" v="Ulevannet" />
		<tag k="natural" v="water" />
		<tag k="ssr:stedsnr" v="695787" />
	</node>
	<node id="-413497" lat="59.3666750044" lon="10.1009055535">
		<tag k="name" v="Vrangdalsbekken" />
		<tag k="ssr:stedsnr" v="330177" />
		<tag k="waterway" v="stream" />
	</node>
	<node id="-414001" lat="59.1112222188" lon="10.1962305614">
		<tag k="name" v="Hanastadbekken" />
		<tag k="ssr:stedsnr" v="755610" />
		<tag k="waterway" v="stream" />
	</node>
	<node id="-413999" lat="59.2858500012" lon="10.1715638963">
		<tag k="name" v="Kjæråselva" />
		<tag k="ssr:stedsnr" v="755509" />
		<tag k="waterway" v="river" />
	</node>
	<node id="-413989" lat="59.2942805517" lon="10.1202833285">
		<tag k="name" v="Rørodden" />
		<tag k="natural" v="cape" />
		<tag k="ssr:stedsnr" v="755267" />
	</node>
	<node id="-413476" lat="59.3108888923" lon="10.2384527697">
		<tag k="name" v="Grorødvannet" />
		<tag k="natural" v="water" />
		<tag k="ssr:stedsnr" v="306828" />
	</node>
	<node id="-413475" lat="59.2985083334" lon="10.0375249982">
		<tag k="alt_name" v="Langevann" />
		<tag k="name" v="Langevannet" />
		<tag k="natural" v="water" />
		<tag k="ssr:stedsnr" v="306807" />
	</node>
	<node id="-413472" lat="59.3401875985" lon="10.1250159383">
		<tag k="name" v="Bergsvannet" />
		<tag k="natural" v="water" />
		<tag k="ssr:stedsnr" v="306742" />
	</node>
	<node id="-411933" lat="59.1851250024" lon="10.1404194453">
		<tag k="name" v="Boroa" />
		<tag k="natural" v="cape" />
		<tag k="ssr:stedsnr" v="148819" />
	</node>
	<node id="-413977" lat="59.3265111149" lon="10.0472666679">
		<tag k="name" v="Hynneelva" />
		<tag k="ssr:stedsnr" v="755207" />
		<tag k="waterway" v="river" />
	</node>
	<node id="-412440" lat="59.1943972187" lon="10.1196111068">
		<tag k="name" v="Trollsåsbukta" />
		<tag k="natural" v="bay" />
		<tag k="ssr:stedsnr" v="694780" />
	</node>
	<node id="-411922" lat="59.2899611104" lon="10.1865111197">
		<tag k="name" v="Åsenstranda" />
		<tag k="natural" v="beach" />
		<tag k="ssr:stedsnr" v="148513" />
	</node>
	<node id="-411912" lat="59.30108611" lon="10.0134333416">
		<tag k="name" v="Rennesikdammen" />
		<tag k="natural" v="water" />
		<tag k="ssr:stedsnr" v="147556" />
	</node>
	<node id="-412933" lat="59.3339055564" lon="10.0488333396">
		<tag k="name" v="Åletjønnelva" />
		<tag k="ssr:stedsnr" v="937804" />
		<tag k="waterway" v="river" />
	</node>
	<node id="-413955" lat="59.239991671" lon="10.334591667">
		<tag k="name" v="Englibukta" />
		<tag k="natural" v="bay" />
		<tag k="ssr:stedsnr" v="753387" />
	</node>
	<node id="-413632" lat="59.2928916664" lon="10.1249527859">
		<tag k="name" v="Bergselva" />
		<tag k="ssr:stedsnr" v="391235" />
		<tag k="waterway" v="river" />
	</node>
	<node id="-412917" lat="59.2437749994" lon="10.2753888897">
		<tag k="name" v="Borgebekken" />
		<tag k="ssr:stedsnr" v="912304" />
		<tag k="waterway" v="stream" />
	</node>
	<node id="-413422" lat="59.1652555551" lon="10.1445027826">
		<tag k="name" v="Sandtangen" />
		<tag k="natural" v="cape" />
		<tag k="ssr:stedsnr" v="209774" />
	</node>
	<node id="-412385" lat="59.2589388904" lon="10.0362333342">
		<tag k="name" v="Svartåa" />
		<tag k="ssr:stedsnr" v="669932" />
		<tag k="waterway" v="stream" />
	</node>
	<node id="-413401" lat="59.3706638858" lon="10.0812166583">
		<tag k="name" v="Hestedalsbekken" />
		<tag k="ssr:stedsnr" v="209262" />
		<tag k="waterway" v="stream" />
	</node>
	<node id="-413988" lat="59.2941527744" lon="10.1097722271">
		<tag k="name" v="Kolkinnelva" />
		<tag k="ssr:stedsnr" v="755266" />
		<tag k="waterway" v="river" />
	</node>
	<node id="-412370" lat="59.3778611132" lon="10.0467583247">
		<tag k="name" v="Blokkvann" />
		<tag k="natural" v="water" />
		<tag k="ssr:stedsnr" v="669175" />
	</node>
	<node id="-413393" lat="59.3103694465" lon="10.0487583375">
		<tag k="name" v="Langevannsbekken" />
		<tag k="ssr:stedsnr" v="209226" />
		<tag k="waterway" v="stream" />
	</node>
	<node id="-413903" lat="59.3133361092" lon="10.0505722233">
		<tag k="name" v="Nøklegårdselva" />
		<tag k="ssr:stedsnr" v="633244" />
		<tag k="waterway" v="river" />
	</node>
	<node id="-413386" lat="59.3585805598" lon="10.1472111041">
		<tag k="name" v="Hålandbekken" />
		<tag k="ssr:stedsnr" v="209142" />
		<tag k="waterway" v="stream" />
	</node>
	<node id="-412359" lat="59.2160249957" lon="10.089722215">
		<tag k="alt_name" v="Uletjønna" />
		<tag k="name" v="Uletjern" />
		<tag k="natural" v="water" />
		<tag k="ssr:stedsnr" v="668392" />
	</node>
	<node id="-413382" lat="59.2886083327" lon="10.0174055562">
		<tag k="name" v="Svartåa" />
		<tag k="ssr:stedsnr" v="208616" />
		<tag k="waterway" v="stream" />
	</node>
	<node id="-413898" lat="59.3413277803" lon="10.0963083327">
		<tag k="name" v="Nesbekken" />
		<tag k="ssr:stedsnr" v="633179" />
		<tag k="waterway" v="stream" />
	</node>
	<node id="-411831" lat="59.3578527813" lon="10.1126055613">
		<tag k="name" v="Skaugbekken" />
		<tag k="ssr:stedsnr" v="88103" />
		<tag k="waterway" v="stream" />
	</node>
	<node id="-412852" lat="59.2970027767" lon="10.0294222151">
		<tag k="name" v="Steindalsbekken" />
		<tag k="ssr:stedsnr" v="937576" />
		<tag k="waterway" v="stream" />
	</node>
	<node id="-413875" lat="59.2353861105" lon="10.1010472143">
		<tag k="name" v="Skorgeelva" />
		<tag k="ssr:stedsnr" v="608334" />
		<tag k="waterway" v="river" />
	</node>
	<node id="-413871" lat="59.2074166659" lon="10.0718305635">
		<tag k="name" v="Svartåa" />
		<tag k="ssr:stedsnr" v="608147" />
		<tag k="waterway" v="river" />
	</node>
	<node id="-413354" lat="59.3326944437" lon="10.0800305506">
		<tag k="name" v="Kleiveren" />
		<tag k="natural" v="water" />
		<tag k="ssr:stedsnr" v="185793" />
	</node>
	<node id="-412836" lat="59.29526667" lon="10.1595861026">
		<tag k="name" v="Døvlebekken" />
		<tag k="ssr:stedsnr" v="937368" />
		<tag k="waterway" v="stream" />
	</node>
	<node id="-412321" lat="59.353558335" lon="10.033416672">
		<tag k="name" v="Trollsvannet" />
		<tag k="natural" v="water" />
		<tag k="ssr:stedsnr" v="427731" />
		<tag k="water" v="lake" />
	</node>
	<node id="-412832" lat="59.3752750043" lon="10.150688895">
		<tag k="name" v="Svællabekken" />
		<tag k="ssr:stedsnr" v="937166" />
		<tag k="waterway" v="stream" />
	</node>
	<node id="-413341" lat="59.2326138879" lon="10.120305563">
>>>>>>> e1d4bc35ff8a6074a6f2e91616a996b547c36f15
		<tag k="name" v="Ivjua" />
		<tag k="ssr:stedsnr" v="184311" />
		<tag k="waterway" v="stream" />
	</node>
<<<<<<< HEAD
	<node lat="59.3326944436734" lon="10.080030550620394" id="-29166">
		<tag k="name" v="Kleiveren" />
		<tag k="natural" v="water" />
		<tag k="ssr:stedsnr" v="185793" />
	</node>
	<node lat="59.288608332684234" lon="10.017405556248246" id="-29180">
		<tag k="name" v="Svartåa" />
		<tag k="ssr:stedsnr" v="208616" />
		<tag k="waterway" v="stream" />
	</node>
	<node lat="59.358580559843986" lon="10.147211104133994" id="-29185">
		<tag k="name" v="Hålandbekken" />
		<tag k="ssr:stedsnr" v="209142" />
		<tag k="waterway" v="stream" />
	</node>
	<node lat="59.370663885824726" lon="10.081216658310296" id="-29196">
		<tag k="name" v="Hestedalsbekken" />
		<tag k="ssr:stedsnr" v="209262" />
		<tag k="waterway" v="stream" />
	</node>
	<node lat="59.16525555505912" lon="10.144502782624022" id="-29209">
		<tag k="name" v="Sandtangen" />
		<tag k="natural" v="cape" />
		<tag k="ssr:stedsnr" v="209774" />
	</node>
	<node lat="59.327974999152694" lon="10.015805563240065" id="-29264">
		<tag k="name" v="Bølevannet" />
		<tag k="natural" v="water" />
		<tag k="ssr:stedsnr" v="306786" />
	</node>
	<node lat="59.3401875984837" lon="10.125015938296016" id="-29266">
		<tag k="name" v="Bergsvannet" />
		<tag k="natural" v="water" />
		<tag k="ssr:stedsnr" v="306742" />
	</node>
	<node lat="59.310888892273475" lon="10.238452769652842" id="-29267">
		<tag k="name" v="Grorødvannet" />
		<tag k="natural" v="water" />
		<tag k="ssr:stedsnr" v="306828" />
	</node>
	<node lat="59.18828610742939" lon="10.13048889032862" id="-29304">
		<tag k="name" v="Tryteskjæret" />
		<tag k="place" v="islet" />
		<tag k="ssr:stedsnr" v="330846" />
	</node>
	<node lat="59.33239444381864" lon="10.132399997043938" id="-29349">
		<tag k="alt_name" v="Molandsvannet" />
		<tag k="name" v="Molandvannet" />
		<tag k="natural" v="water" />
		<tag k="ssr:stedsnr" v="366792" />
	</node>
	<node lat="59.28698611485781" lon="10.153408340939217" id="-29381">
		<tag k="name" v="Moafossane" />
		<tag k="natural" v="waterfall" />
		<tag k="ssr:stedsnr" v="390770" />
	</node>
	<node lat="59.289705559225546" lon="10.25471388767864" id="-29421">
		<tag k="name" v="Fossnesdammen" />
=======
	<node id="-413852" lat="59.2228111114" lon="10.2142833295">
		<tag k="alt_name" v="Vesle-elv" />
		<tag k="name" v="Vesleelva" />
		<tag k="ssr:stedsnr" v="607393" />
		<tag k="waterway" v="stream" />
	</node>
	<node id="-411753" lat="59.3652833341" lon="10.0557499923">
		<tag k="alt_name" v="Åletjørn;Åetjønn" />
		<tag k="name" v="Åletjønn" />
		<tag k="natural" v="water" />
		<tag k="ssr:stedsnr" v="2212" />
		<tag k="water" v="lake" />
	</node>
	<node id="-413835" lat="59.1580277806" lon="10.1415166661">
		<tag k="name" v="Neshella" />
		<tag k="natural" v="cape" />
		<tag k="ssr:stedsnr" v="573843" />
	</node>
	<node id="-413320" lat="59.0927777745" lon="10.2244444418">
		<tag k="name" v="Båtstangen" />
		<tag k="natural" v="cape" />
		<tag k="ssr:stedsnr" v="181589" />
	</node>
	<node id="-413825" lat="59.1799666675" lon="10.1411027727">
		<tag k="name" v="Langekilen" />
		<tag k="natural" v="bay" />
		<tag k="ssr:stedsnr" v="573762" />
	</node>
	<node id="-413824" lat="59.1710666668" lon="10.1538361157">
		<tag k="name" v="Wittenberg" />
		<tag k="natural" v="cape" />
		<tag k="ssr:stedsnr" v="573760" />
	</node>
	<node id="-412096" lat="59.1722916702" lon="10.1559055518">
		<tag k="name" v="Merkemellom" />
		<tag k="natural" v="cape" />
		<tag k="ssr:stedsnr" v="270756" />
	</node>
	<node id="-412693" lat="59.1692499985" lon="10.1607611157">
		<tag k="name" v="Gubbetangen" />
		<tag k="natural" v="cape" />
		<tag k="ssr:stedsnr" v="730208" />
	</node>
	<node id="-413033" lat="59.2408361137" lon="10.3518111163">
		<tag k="name" v="Robergvannet" />
		<tag k="natural" v="water" />
		<tag k="ssr:stedsnr" v="25435" />
		<tag k="water" v="lake" />
	</node>
	<node id="-412274" lat="59.1308750044" lon="10.1943694506">
		<tag k="name" v="Bugårdsdammen" />
		<tag k="natural" v="water" />
		<tag k="ssr:stedsnr" v="512776" />
	</node>
	<node id="-413296" lat="59.1311111143" lon="10.2374444422">
		<tag k="name" v="Brydedammen" />
		<tag k="natural" v="water" />
		<tag k="ssr:stedsnr" v="148770" />
	</node>
	<node id="-413805" lat="59.3579666659" lon="10.0517222234">
		<tag k="name" v="Enersrødkilen" />
		<tag k="natural" v="bay" />
		<tag k="ssr:stedsnr" v="573246" />
	</node>
	<node id="-413802" lat="59.3135398842" lon="10.0654068736">
		<tag k="name" v="Oksenaua" />
		<tag k="natural" v="water" />
		<tag k="ssr:stedsnr" v="573215" />
	</node>
	<node id="-412777" lat="59.2982694401" lon="10.1232527839">
		<tag k="name" v="Hegrebekk" />
		<tag k="ssr:stedsnr" v="816273" />
		<tag k="waterway" v="stream" />
	</node>
	<node id="-412775" lat="59.371652781" lon="10.0584861078">
		<tag k="name" v="Fiskebekk" />
		<tag k="ssr:stedsnr" v="816259" />
		<tag k="waterway" v="stream" />
	</node>
	<node id="-414310" lat="59.3279749992" lon="10.0158055632">
		<tag k="name" v="Bølevannet" />
		<tag k="natural" v="water" />
		<tag k="ssr:stedsnr" v="306786" />
	</node>
	<node id="-413285" lat="59.2509138875" lon="10.0483722292">
		<tag k="name" v="Rønningsvannet" />
>>>>>>> e1d4bc35ff8a6074a6f2e91616a996b547c36f15
		<tag k="natural" v="water" />
		<tag k="ssr:stedsnr" v="392540" />
		<tag k="water" v="lake" />
	</node>
<<<<<<< HEAD
	<node lat="59.35355833500191" lon="10.033416671966386" id="-29441">
		<tag k="name" v="Trollsvannet" />
		<tag k="natural" v="water" />
		<tag k="ssr:stedsnr" v="427731" />
		<tag k="water" v="lake" />
	</node>
	<node lat="59.33956111125755" lon="10.145277769573328" id="-29489">
		<tag k="name" v="Røbekk" />
		<tag k="ssr:stedsnr" v="512155" />
		<tag k="waterway" v="stream" />
	</node>
	<node lat="59.30028888593625" lon="10.149219452798324" id="-29495">
=======
	<node id="-412771" lat="59.3535249961" lon="10.1128111159">
		<tag k="name" v="Bergsbekken" />
		<tag k="ssr:stedsnr" v="816163" />
		<tag k="waterway" v="stream" />
	</node>
	<node id="-413627" lat="59.2869861149" lon="10.1534083409">
		<tag k="name" v="Moafossane" />
		<tag k="natural" v="waterfall" />
		<tag k="ssr:stedsnr" v="390770" />
	</node>
	<node id="-412773" lat="59.3258111076" lon="10.113908326">
		<tag k="name" v="Veslevann" />
		<tag k="natural" v="water" />
		<tag k="ssr:stedsnr" v="816209" />
	</node>
	<node id="-412655" lat="59.2350388854" lon="10.3383805641">
		<tag k="name" v="Melsombekken" />
		<tag k="ssr:stedsnr" v="693453" />
		<tag k="waterway" v="stream" />
	</node>
	<node id="-412249" lat="59.3002888859" lon="10.1492194528">
>>>>>>> e1d4bc35ff8a6074a6f2e91616a996b547c36f15
		<tag k="name" v="Døvlebekken" />
		<tag k="ssr:stedsnr" v="512251" />
		<tag k="waterway" v="stream" />
	</node>
<<<<<<< HEAD
	<node lat="59.17113888729331" lon="10.293222223348867" id="-29560">
		<tag k="name" v="Rovebekken" />
		<tag k="ssr:stedsnr" v="547233" />
		<tag k="waterway" v="stream" />
	</node>
	<node lat="59.303533337393766" lon="10.069255562424093" id="-29578">
		<tag k="name" v="Steinsvannet" />
		<tag k="natural" v="water" />
		<tag k="ssr:stedsnr" v="549808" />
	</node>
	<node lat="59.17106666677503" lon="10.153836115748057" id="-29620">
		<tag k="name" v="Wittenberg" />
		<tag k="natural" v="cape" />
		<tag k="ssr:stedsnr" v="573760" />
	</node>
	<node lat="59.17996666754802" lon="10.141102772735307" id="-29621">
		<tag k="name" v="Langekilen" />
		<tag k="natural" v="bay" />
		<tag k="ssr:stedsnr" v="573762" />
	</node>
	<node lat="59.158027780635464" lon="10.141516666143971" id="-29631">
		<tag k="name" v="Neshella" />
		<tag k="natural" v="cape" />
		<tag k="ssr:stedsnr" v="573843" />
	</node>
	<node lat="59.22281111141859" lon="10.214283329458583" id="-29656">
		<tag k="alt_name" v="Vesle-elv" />
		<tag k="name" v="Vesleelva" />
		<tag k="ssr:stedsnr" v="607393" />
		<tag k="waterway" v="stream" />
	</node>
	<node lat="59.24721189835224" lon="10.029018337903535" id="-29660">
		<tag k="alt_name" v="Diplingene" />
		<tag k="name" v="Diplingane" />
		<tag k="natural" v="water" />
		<tag k="ssr:stedsnr" v="608276" />
	</node>
	<node lat="59.235386110498034" lon="10.101047214299237" id="-29665">
		<tag k="name" v="Skorgeelva" />
		<tag k="ssr:stedsnr" v="608334" />
		<tag k="waterway" v="river" />
	</node>
	<node lat="59.27551343102845" lon="10.005952182267157" id="-29678">
		<tag k="alt_name" v="Øvre Heivann" />
		<tag k="name" v="Lille Heivannet" />
=======
	<node id="-412243" lat="59.3395611113" lon="10.1452777696">
		<tag k="name" v="Røbekk" />
		<tag k="ssr:stedsnr" v="512155" />
		<tag k="waterway" v="stream" />
	</node>
	<node id="-412752" lat="59.1501750014" lon="10.2617111025">
		<tag k="alt_name" v="Unnebergbekken" />
		<tag k="name" v="Unnebergsbekken" />
		<tag k="ssr:stedsnr" v="790004" />
		<tag k="waterway" v="stream" />
	</node>
	<node id="-413263" lat="59.2871500039" lon="10.0337750006">
		<tag k="name" v="Bjønnevann" />
		<tag k="natural" v="water" />
		<tag k="ssr:stedsnr" v="124825" />
	</node>
	<node id="-412748" lat="59.2520249986" lon="10.0269750031">
		<tag k="name" v="Diplingane" />
		<tag k="natural" v="water" />
		<tag k="ssr:stedsnr" v="913927" />
	</node>
	<node id="-413767" lat="59.3035333374" lon="10.0692555624">
		<tag k="name" v="Steinsvannet" />
		<tag k="natural" v="water" />
		<tag k="ssr:stedsnr" v="549808" />
	</node>
	<node id="-412738" lat="59.3552444468" lon="10.0723749931">
		<tag k="name" v="Klostervannet" />
		<tag k="natural" v="water" />
		<tag k="ssr:stedsnr" v="913743" />
	</node>
	<node id="-413195" lat="59.2691194428" lon="10.1532444473">
		<tag k="name" v="Svartefossa" />
		<tag k="natural" v="waterfall" />
		<tag k="ssr:stedsnr" v="88754" />
	</node>
	<node id="-413244" lat="59.0712138898" lon="10.2582250022">
		<tag k="name" v="Vøra" />
		<tag k="natural" v="beach" />
		<tag k="ssr:stedsnr" v="123158" />
	</node>
	<node id="-413748" lat="59.3755777804" lon="10.0732083255">
		<tag k="alt_name" v="Grønntjønn" />
		<tag k="name" v="Grøntjernet" />
>>>>>>> e1d4bc35ff8a6074a6f2e91616a996b547c36f15
		<tag k="natural" v="water" />
		<tag k="ssr:stedsnr" v="548210" />
	</node>
<<<<<<< HEAD
	<node lat="59.31333610915886" lon="10.050572223284917" id="-29696">
		<tag k="name" v="Nøklegårdselva" />
		<tag k="ssr:stedsnr" v="633244" />
		<tag k="waterway" v="river" />
	</node>
	<node lat="59.220175002025805" lon="10.215558332409522" id="-29703">
		<tag k="name" v="Skjeldbredammen" />
		<tag k="natural" v="water" />
		<tag k="ssr:stedsnr" v="633714" />
	</node>
	<node lat="59.377861113249566" lon="10.046758324664887" id="-29747">
		<tag k="name" v="Blokkvann" />
		<tag k="natural" v="water" />
		<tag k="ssr:stedsnr" v="669175" />
	</node>
	<node lat="59.25893889041824" lon="10.036233334205395" id="-29756">
		<tag k="name" v="Svartåa" />
		<tag k="ssr:stedsnr" v="669932" />
		<tag k="waterway" v="stream" />
	</node>
	<node lat="59.239991670961146" lon="10.334591666974905" id="-29788">
		<tag k="name" v="Englibukta" />
		<tag k="natural" v="bay" />
		<tag k="ssr:stedsnr" v="753387" />
	</node>
	<node lat="59.32651111486419" lon="10.047266667866674" id="-29800">
		<tag k="name" v="Hynneelva" />
		<tag k="ssr:stedsnr" v="755207" />
		<tag k="waterway" v="river" />
	</node>
	<node lat="59.11122221880794" lon="10.196230561363585" id="-29815">
		<tag k="name" v="Hanastadbekken" />
		<tag k="ssr:stedsnr" v="755610" />
		<tag k="waterway" v="stream" />
	</node>
	<node lat="59.2946472219013" lon="10.050875005404963" id="-29851">
		<tag k="name" v="Støfseren" />
		<tag k="natural" v="water" />
		<tag k="ssr:stedsnr" v="792801" />
	</node>
	<node lat="59.27720277973051" lon="10.018647218808088" id="-29874">
		<tag k="name" v="Heielva" />
		<tag k="ssr:stedsnr" v="815600" />
		<tag k="waterway" v="stream" />
	</node>
	<node lat="59.35352499608119" lon="10.112811115936005" id="-29877">
		<tag k="name" v="Bergsbekken" />
		<tag k="ssr:stedsnr" v="816163" />
		<tag k="waterway" v="stream" />
	</node>
	<node lat="59.32601089162755" lon="10.12508046295101" id="-29878">
		<tag k="name" v="Lorttjønn" />
		<tag k="natural" v="water" />
		<tag k="ssr:stedsnr" v="816233" />
	</node>
	<node lat="59.37165278097388" lon="10.058486107775975" id="-29885">
		<tag k="name" v="Fiskebekk" />
		<tag k="ssr:stedsnr" v="816259" />
		<tag k="waterway" v="stream" />
	</node>
	<node lat="59.282705558059895" lon="10.192863893542388" id="-29892">
		<tag k="name" v="Lagårdsøya" />
		<tag k="natural" v="cape" />
		<tag k="ssr:stedsnr" v="816537" />
	</node>
	<node lat="59.26953055964706" lon="10.019800002765766" id="-29944">
		<tag k="name" v="Heivannet" />
		<tag k="natural" v="water" />
		<tag k="ssr:stedsnr" v="852882" />
	</node>
	<node lat="59.33359722522123" lon="10.040113893472256" id="-29978">
		<tag k="name" v="Missmørbekken" />
		<tag k="ssr:stedsnr" v="876648" />
		<tag k="waterway" v="stream" />
	</node>
	<node lat="59.27233889017255" lon="10.080336105560184" id="-29982">
		<tag k="name" v="Slettingdalselva" />
		<tag k="ssr:stedsnr" v="876828" />
		<tag k="waterway" v="river" />
	</node>
	<node lat="59.375275004345404" lon="10.150688894958362" id="-30019">
		<tag k="name" v="Svællabekken" />
		<tag k="ssr:stedsnr" v="937166" />
		<tag k="waterway" v="stream" />
	</node>
	<node lat="59.29526666995308" lon="10.159586102648452" id="-30029">
		<tag k="name" v="Døvlebekken" />
		<tag k="ssr:stedsnr" v="937368" />
		<tag k="waterway" v="stream" />
	</node>
	<node lat="59.30367777883949" lon="10.030591675391936" id="-30042">
		<tag k="name" v="Bjørkedalsbekken" />
		<tag k="ssr:stedsnr" v="937574" />
		<tag k="waterway" v="stream" />
	</node>
	<node lat="59.2970027766607" lon="10.02942221514221" id="-30043">
		<tag k="name" v="Steindalsbekken" />
		<tag k="ssr:stedsnr" v="937576" />
		<tag k="waterway" v="stream" />
=======
	<node id="-412851" lat="59.3036777788" lon="10.0305916754">
		<tag k="name" v="Bjørkedalsbekken" />
		<tag k="ssr:stedsnr" v="937574" />
		<tag k="waterway" v="stream" />
	</node>
	<node id="-412202" lat="59.3310000041" lon="10.045177778">
		<tag k="name" v="Trollvannselva" />
		<tag k="ssr:stedsnr" v="391806" />
		<tag k="waterway" v="river" />
	</node>
	<node id="-413737" lat="59.1711388873" lon="10.2932222233">
		<tag k="name" v="Rovebekken" />
		<tag k="ssr:stedsnr" v="547233" />
		<tag k="waterway" v="stream" />
	</node>
	<node id="-413733" lat="59.174874996" lon="10.1409000029">
		<tag k="name" v="Goksjø" />
		<tag k="natural" v="water" />
		<tag k="ssr:stedsnr" v="547200" />
		<tag k="water" v="lake" />
	</node>
	<node id="-412195" lat="59.3172249982" lon="10.0457638822">
		<tag k="name" v="Sagbekken" />
		<tag k="ssr:stedsnr" v="391206" />
		<tag k="waterway" v="stream" />
	</node>
	<node id="-413019" lat="59.2678666633" lon="10.025927781">
		<tag k="name" v="Stusserudvannet" />
		<tag k="natural" v="water" />
		<tag k="ssr:stedsnr" v="3897" />
	</node>
	<node id="-413212" lat="59.2825972208" lon="10.2407527831">
		<tag k="name" v="Liadammen" />
		<tag k="natural" v="water" />
		<tag k="ssr:stedsnr" v="89449" />
		<tag k="water" v="lake" />
	</node>
	<node id="-412696" lat="59.183411114" lon="10.1737527854">
		<tag k="alt_name" v="Napperød tj." />
		<tag k="name" v="Napperødtjerna" />
		<tag k="natural" v="water" />
		<tag k="ssr:stedsnr" v="730176" />
	</node>
	<node id="-412182" lat="59.2778638868" lon="10.2974444443">
		<tag k="name" v="Merkedamselva" />
		<tag k="ssr:stedsnr" v="489886" />
		<tag k="waterway" v="stream" />
	</node>
	<node id="-413205" lat="59.1573611087" lon="10.147424995">
		<tag k="name" v="Bøbukta" />
		<tag k="natural" v="bay" />
		<tag k="ssr:stedsnr" v="88852" />
	</node>
	<node id="-412176" lat="59.3216000006" lon="10.0617527751">
		<tag k="alt_name" v="Lakstjernet" />
		<tag k="name" v="Lakskjønnvannet" />
		<tag k="natural" v="water" />
		<tag k="ssr:stedsnr" v="488787" />
	</node>
	<node id="-413199" lat="59.1938972188" lon="10.1221527715">
		<tag k="name" v="Kalven" />
		<tag k="natural" v="cape" />
		<tag k="ssr:stedsnr" v="88782" />
	</node>
	<node id="-412077" lat="59.2910555539" lon="10.0866194465">
		<tag k="name" v="Bakkedamsbekken" />
		<tag k="ssr:stedsnr" v="269822" />
		<tag k="waterway" v="stream" />
	</node>
	<node id="-413707" lat="59.2936194423" lon="10.119261111">
		<tag k="name" v="Stålerødvannet" />
		<tag k="natural" v="water" />
		<tag k="ssr:stedsnr" v="428873" />
	</node>
	<node id="-413706" lat="59.2887750039" lon="10.1896361153">
		<tag k="name" v="Askjemvannet" />
		<tag k="natural" v="water" />
		<tag k="ssr:stedsnr" v="428869" />
		<tag k="water" v="lake" />
	</node>
	<node id="-413702" lat="59.3221861113" lon="10.115316669">
		<tag k="alt_name" v="Langevann" />
		<tag k="name" v="Langvannet" />
		<tag k="natural" v="water" />
		<tag k="ssr:stedsnr" v="427770" />
	</node>
	<node id="-413189" lat="59.1791638896" lon="10.1401611161">
		<tag k="name" v="Matskapet" />
		<tag k="natural" v="cape" />
		<tag k="ssr:stedsnr" v="88737" />
>>>>>>> e1d4bc35ff8a6074a6f2e91616a996b547c36f15
	</node>
</osm>
