<?xml version="1.0" encoding="UTF-8"?>
<osm version="0.6" generator="osmapis">
	<node lat="59.10046388706545" lon="10.217786113097665" id="-47378">
		<tag k="bridge" v="yes" />
		<tag k="layer" v="1" />
		<tag k="name" v="Hystadveien" />
		<tag k="ssr:stedsnr" v="46570" />
	</node>
	<node lat="59.14996666935692" lon="10.289802777828001" id="-47379">
		<tag k="bridge" v="yes" />
		<tag k="layer" v="1" />
		<tag k="name" v="Rovebekken" />
		<tag k="ssr:stedsnr" v="46575" />
	</node>
	<node lat="59.229241667023096" lon="10.260024998535288" id="-47380">
		<tag k="bridge" v="yes" />
		<tag k="layer" v="1" />
		<tag k="name" v="Gjennestad viadukt" />
		<tag k="ssr:stedsnr" v="46773" />
	</node>
	<node lat="59.131711112812106" lon="10.254163885727905" id="-47382">
		<tag k="bridge" v="yes" />
		<tag k="layer" v="1" />
		<tag k="name" v="Heimdal" />
		<tag k="ssr:stedsnr" v="228578" />
	</node>
	<node lat="59.15583055489197" lon="10.259205553758148" id="-47383">
		<tag k="bridge" v="yes" />
		<tag k="layer" v="1" />
		<tag k="name" v="From" />
		<tag k="ssr:stedsnr" v="228585" />
	</node>
	<node lat="59.1463666628457" lon="10.208305549802086" id="-47384">
		<tag k="bridge" v="yes" />
		<tag k="layer" v="1" />
		<tag k="name" v="Ringvegen" />
		<tag k="ssr:stedsnr" v="228588" />
	</node>
	<node lat="59.09540000020366" lon="10.255502780990236" id="-47385">
		<tag k="bridge" v="yes" />
		<tag k="layer" v="1" />
		<tag k="name" v="Tangen mur" />
		<tag k="ssr:stedsnr" v="228591" />
	</node>
	<node lat="59.36353888766744" lon="10.13427222349159" id="-47386">
		<tag k="bridge" v="yes" />
		<tag k="layer" v="1" />
		<tag k="name" v="Sukke" />
		<tag k="ssr:stedsnr" v="228769" />
	</node>
	<node lat="59.26073888722702" lon="10.161847227285737" id="-47387">
		<tag k="bridge" v="yes" />
		<tag k="layer" v="1" />
		<tag k="name" v="Rise" />
		<tag k="ssr:stedsnr" v="228770" />
	</node>
	<node lat="59.3320722177884" lon="10.048055561164764" id="-47388">
		<tag k="bridge" v="yes" />
		<tag k="layer" v="1" />
		<tag k="name" v="Åletjønn" />
		<tag k="ssr:stedsnr" v="228790" />
	</node>
	<node lat="59.14413610860656" lon="10.2795138924086" id="-47389">
		<tag k="junction" v="yes" />
		<tag k="name" v="Alonso" />
		<tag k="place" v="locality" />
		<tag k="ssr:stedsnr" v="62001" />
	</node>
	<node lat="59.24013333195655" lon="10.271836113523403" id="-47443">
		<tag k="bridge" v="yes" />
		<tag k="layer" v="1" />
		<tag k="name" v="Borge søndre" />
		<tag k="ssr:stedsnr" v="107770" />
	</node>
	<node lat="59.213494447663194" lon="10.294491669143842" id="-47513">
		<tag k="bridge" v="yes" />
		<tag k="layer" v="1" />
		<tag k="name" v="Døvle" />
		<tag k="ssr:stedsnr" v="168756" />
	</node>
	<node lat="59.13266111229438" lon="10.318338885455962" id="-47536">
		<tag k="man_made" v="quay" />
		<tag k="name" v="Galten" />
		<tag k="place" v="locality" />
		<tag k="ssr:stedsnr" v="207246" />
	</node>
	<node lat="59.354011115486976" lon="10.14439444802871" id="-47727">
		<tag k="bridge" v="yes" />
		<tag k="layer" v="1" />
		<tag k="name" v="Holand bru" />
		<tag k="ssr:stedsnr" v="350705" />
	</node>
	<node lat="59.2085222197742" lon="10.141027786337458" id="-47728">
		<tag k="bridge" v="yes" />
		<tag k="layer" v="1" />
		<tag k="name" v="Dalen" />
		<tag k="ssr:stedsnr" v="350713" />
	</node>
	<node lat="59.23226389067983" lon="10.26343332670415" id="-47729">
		<tag k="bridge" v="yes" />
		<tag k="layer" v="1" />
		<tag k="name" v="Gjennestadmyra landbruksundergang" />
		<tag k="ssr:stedsnr" v="350726" />
	</node>
	<node lat="59.10805555813471" lon="10.224444447592383" id="-47793">
		<tag k="man_made" v="quay" />
		<tag k="name" v="Lystadstranda" />
		<tag k="place" v="locality" />
		<tag k="ssr:stedsnr" v="392613" />
	</node>
	<node lat="59.306536112713545" lon="10.094177783058656" id="-47794">
		<tag k="bridge" v="yes" />
		<tag k="layer" v="1" />
		<tag k="name" v="Hallenstvedt" />
		<tag k="ssr:stedsnr" v="471727" />
	</node>
	<node lat="59.22719444677318" lon="10.207466663843785" id="-47795">
		<tag k="bridge" v="yes" />
		<tag k="layer" v="1" />
		<tag k="name" v="Veslebru" />
		<tag k="ssr:stedsnr" v="471742" />
	</node>
	<node lat="59.212100000159666" lon="10.305858334744617" id="-47796">
		<tag k="bridge" v="yes" />
		<tag k="layer" v="1" />
		<tag k="name" v="Doms" />
		<tag k="ssr:stedsnr" v="471759" />
	</node>
	<node lat="59.26415832891348" lon="10.300844447633656" id="-47798">
		<tag k="bridge" v="yes" />
		<tag k="layer" v="1" />
		<tag k="name" v="Holmane syd" />
		<tag k="ssr:stedsnr" v="410750" />
	</node>
	<node lat="59.26892499779197" lon="10.302294446861824" id="-47799">
		<tag k="bridge" v="yes" />
		<tag k="layer" v="1" />
		<tag k="name" v="Holmene nord" />
		<tag k="ssr:stedsnr" v="410751" />
	</node>
	<node lat="59.324858336316694" lon="10.132586111601134" id="-47835">
		<tag k="junction" v="yes" />
		<tag k="name" v="Stassjon" />
		<tag k="place" v="locality" />
		<tag k="ssr:stedsnr" v="452214" />
	</node>
	<node lat="59.12198888813277" lon="10.23246943636391" id="-47862">
		<tag k="bridge" v="yes" />
		<tag k="layer" v="1" />
		<tag k="name" v="Ferjeveien" />
		<tag k="ssr:stedsnr" v="470511" />
	</node>
	<node lat="59.127252776980384" lon="10.260924997757273" id="-47863">
		<tag k="bridge" v="yes" />
		<tag k="layer" v="1" />
		<tag k="name" v="Kastet" />
		<tag k="ssr:stedsnr" v="470517" />
	</node>
	<node lat="59.14249166320449" lon="10.274761105068334" id="-47864">
		<tag k="bridge" v="yes" />
		<tag k="layer" v="1" />
		<tag k="name" v="Sjuve" />
		<tag k="ssr:stedsnr" v="470520" />
	</node>
	<node lat="59.205208335834556" lon="10.230880555792478" id="-48003">
		<tag k="bridge" v="yes" />
		<tag k="layer" v="1" />
		<tag k="name" v="Hørdalsvegen" />
		<tag k="ssr:stedsnr" v="591504" />
	</node>
	<node lat="59.074438891909" lon="10.280430552144692" id="-48023">
		<tag k="man_made" v="quay" />
		<tag k="name" v="Hardbakken" />
		<tag k="place" v="locality" />
		<tag k="ssr:stedsnr" v="631318" />
	</node>
	<node lat="59.15143889171758" lon="10.190994439734185" id="-48068">
		<tag k="bridge" v="yes" />
		<tag k="layer" v="1" />
		<tag k="name" v="Innlaget" />
		<tag k="ssr:stedsnr" v="651543" />
	</node>
	<node lat="59.30570832975791" lon="10.181447217548303" id="-48152">
		<tag k="bridge" v="yes" />
		<tag k="layer" v="1" />
		<tag k="name" v="Andebu, mur" />
		<tag k="ssr:stedsnr" v="714706" />
	</node>
	<node lat="59.3037166665858" lon="10.197191675432423" id="-48153">
		<tag k="bridge" v="yes" />
		<tag k="layer" v="1" />
		<tag k="name" v="Gravdal" />
		<tag k="ssr:stedsnr" v="714711" />
	</node>
	<node lat="59.23823888513516" lon="10.274169435611249" id="-48154">
		<tag k="bridge" v="yes" />
		<tag k="layer" v="1" />
		<tag k="name" v="Sørby" />
		<tag k="ssr:stedsnr" v="714732" />
	</node>
	<node lat="59.22912777605842" lon="10.205508329974823" id="-48237">
		<tag k="bridge" v="yes" />
		<tag k="layer" v="1" />
		<tag k="name" v="Storebru" />
		<tag k="ssr:stedsnr" v="896780" />
	</node>
	<node lat="59.386447226624604" lon="10.118849993159701" id="-48238">
		<tag k="bridge" v="yes" />
		<tag k="layer" v="1" />
		<tag k="name" v="Valmestadrød" />
		<tag k="ssr:stedsnr" v="896789" />
	</node>
	<node lat="59.16590001490542" lon="10.266625035803255" id="-48246">
		<tag k="name" v="Torp" />
		<tag k="old_name" v="Råstad" />
		<tag k="railway" v="station" />
		<tag k="ssr:stedsnr" v="790197" />
		<tag k="train" v="yes" />
	</node>
	<node lat="59.21353611126385" lon="10.245736113348165" id="-48297">
		<tag k="bridge" v="yes" />
		<tag k="layer" v="1" />
		<tag k="name" v="Rørkoll vest" />
		<tag k="ssr:stedsnr" v="836739" />
	</node>
	<node lat="59.17710996156799" lon="10.20668263238285" id="-48385">
		<tag k="bridge" v="yes" />
		<tag k="layer" v="1" />
		<tag k="name" v="Nordre Fokserød overgangsbru" />
		<tag k="old_name" v="Fokserød Nordre bru" />
		<tag k="ssr:stedsnr" v="896563" />
	</node>
	<node lat="59.320241665518914" lon="10.089294439901089" id="-48386">
		<tag k="bridge" v="yes" />
		<tag k="layer" v="1" />
		<tag k="name" v="Guttedal" />
		<tag k="ssr:stedsnr" v="896773" />
	</node>
	<node lat="59.12740654069702" lon="10.230452027033902" id="-48474">
		<tag k="man_made" v="quay" />
		<tag k="name" v="Kamfjordgatekaien" />
		<tag k="place" v="locality" />
		<tag k="ssr:stedsnr" v="988900" />
	</node>
	<node lat="59.19977221863977" lon="10.155544448833131" id="-48568">
		<tag k="alt_name" v="Brekke" />
		<tag k="bridge" v="yes" />
		<tag k="layer" v="1" />
		<tag k="name" v="Brekke bru" />
		<tag k="ssr:stedsnr" v="27827" />
	</node>
	<node lat="59.17893611319861" lon="10.252488885298122" id="-48591">
		<tag k="aeroway" v="aerodrome" />
		<tag k="name" v="Sandefjord lufthavn, Torp" />
		<tag k="old_name" v="Sandefjord lufthavn;Torp flyplass;Sandefjord lufthamn;Torp" />
		<tag k="ssr:stedsnr" v="62152" />
	</node>
	<node lat="59.11892222599201" lon="10.231461109301907" id="-48658">
		<tag k="bridge" v="yes" />
		<tag k="layer" v="1" />
		<tag k="name" v="Framnes mur" />
		<tag k="ssr:stedsnr" v="107541" />
	</node>
	<node lat="59.1839166648833" lon="10.238938896332396" id="-48659">
		<tag k="bridge" v="yes" />
		<tag k="layer" v="1" />
		<tag k="name" v="Lingelemvegen" />
		<tag k="ssr:stedsnr" v="107548" />
	</node>
	<node lat="59.291874996669335" lon="10.1308638890243" id="-48660">
		<tag k="bridge" v="yes" />
		<tag k="layer" v="1" />
		<tag k="name" v="Berg søndre" />
		<tag k="ssr:stedsnr" v="107747" />
	</node>
	<node lat="59.2418083310732" lon="10.17506945098314" id="-48661">
		<tag k="bridge" v="yes" />
		<tag k="layer" v="1" />
		<tag k="name" v="Toverud" />
		<tag k="ssr:stedsnr" v="107765" />
	</node>
	<node lat="59.14096666479412" lon="10.325191674263497" id="-48696">
		<tag k="man_made" v="quay" />
		<tag k="name" v="Munkhallen" />
		<tag k="place" v="locality" />
		<tag k="ssr:stedsnr" v="145255" />
	</node>
	<node lat="59.20567222332698" lon="10.115847220098294" id="-48731">
		<tag k="alt_name" v="Trolsås" />
		<tag k="bridge" v="yes" />
		<tag k="layer" v="1" />
		<tag k="name" v="Trollsåsbrua" />
		<tag k="ssr:stedsnr" v="148837" />
	</node>
	<node lat="59.12559166786869" lon="10.270619449118222" id="-48753">
		<tag k="bridge" v="yes" />
		<tag k="layer" v="1" />
		<tag k="name" v="Busk" />
		<tag k="ssr:stedsnr" v="167572" />
	</node>
	<node lat="59.16603055240093" lon="10.293511102574227" id="-48754">
		<tag k="bridge" v="yes" />
		<tag k="layer" v="1" />
		<tag k="name" v="Rove" />
		<tag k="ssr:stedsnr" v="167580" />
	</node>
	<node lat="59.208413884749326" lon="10.239011104264796" id="-48755">
		<tag k="bridge" v="yes" />
		<tag k="layer" v="1" />
		<tag k="name" v="Tassebekk mur" />
		<tag k="ssr:stedsnr" v="167584" />
	</node>
	<node lat="59.23602221989332" lon="10.060455559493995" id="-48756">
		<tag k="bridge" v="yes" />
		<tag k="layer" v="1" />
		<tag k="name" v="Nomme" />
		<tag k="ssr:stedsnr" v="168721" />
	</node>
	<node lat="59.175986113804946" lon="10.213336119674036" id="-48924">
		<tag k="bridge" v="yes" />
		<tag k="layer" v="1" />
		<tag k="name" v="Kullerød elementkulvert" />
		<tag k="ssr:stedsnr" v="288486" />
	</node>
	<node lat="59.161358334309156" lon="10.196747217347822" id="-48925">
		<tag k="bridge" v="yes" />
		<tag k="layer" v="1" />
		<tag k="name" v="Granum" />
		<tag k="ssr:stedsnr" v="289563" />
	</node>
	<node lat="59.13865277571638" lon="10.247738883088847" id="-49014">
		<tag k="bridge" v="yes" />
		<tag k="layer" v="1" />
		<tag k="name" v="Nilsesvingen" />
		<tag k="ssr:stedsnr" v="349582" />
	</node>
	<node lat="59.145919447766" lon="10.205691673997412" id="-49015">
		<tag k="bridge" v="yes" />
		<tag k="layer" v="1" />
		<tag k="name" v="Ringveien overgangsbru" />
		<tag k="ssr:stedsnr" v="349586" />
	</node>
	<node lat="59.291219442618214" lon="10.248772222476871" id="-49016">
		<tag k="bridge" v="yes" />
		<tag k="layer" v="1" />
		<tag k="name" v="Fossnes bru" />
		<tag k="ssr:stedsnr" v="350737" />
	</node>
	<node lat="59.11277778018857" lon="10.23166667041186" id="-49095">
		<tag k="man_made" v="quay" />
		<tag k="name" v="Langestrand" />
		<tag k="place" v="locality" />
		<tag k="ssr:stedsnr" v="392624" />
	</node>
	<node lat="59.180197225009636" lon="10.172383341059659" id="-49103">
		<tag k="bridge" v="yes" />
		<tag k="layer" v="1" />
		<tag k="name" v="Svines" />
		<tag k="ssr:stedsnr" v="410543" />
	</node>
	<node lat="59.34561666596626" lon="10.096861105625774" id="-49104">
		<tag k="bridge" v="yes" />
		<tag k="layer" v="1" />
		<tag k="name" v="Bøen" />
		<tag k="ssr:stedsnr" v="410738" />
	</node>
	<node lat="59.213447219911295" lon="10.246238883521684" id="-49105">
		<tag k="bridge" v="yes" />
		<tag k="layer" v="1" />
		<tag k="name" v="Rørkoll øst" />
		<tag k="ssr:stedsnr" v="410747" />
	</node>
	<node lat="59.20888889075418" lon="10.240469443049335" id="-49106">
		<tag k="bridge" v="yes" />
		<tag k="layer" v="1" />
		<tag k="name" v="Tassebekk" />
		<tag k="ssr:stedsnr" v="410748" />
	</node>
	<node lat="59.075613889573994" lon="10.30515000068131" id="-49189">
		<tag k="landuse" v="harbour" />
		<tag k="name" v="Tallakshavn" />
		<tag k="seamark:type" v="harbour" />
		<tag k="ssr:stedsnr" v="510336" />
	</node>
	<node lat="59.23173611380419" lon="10.117186104076344" id="-49211">
		<tag k="junction" v="yes" />
		<tag k="name" v="Tollahaugen" />
		<tag k="place" v="locality" />
		<tag k="ssr:stedsnr" v="512980" />
	</node>
	<node lat="59.14569166733259" lon="10.174347214176882" id="-49243">
		<tag k="bridge" v="yes" />
		<tag k="layer" v="1" />
		<tag k="name" v="Bø" />
		<tag k="ssr:stedsnr" v="531561" />
	</node>
	<node lat="59.28664999948625" lon="10.168938881045928" id="-49244">
		<tag k="alt_name" v="Kjerrås" />
		<tag k="bridge" v="yes" />
		<tag k="layer" v="1" />
		<tag k="name" v="Kjæråsbrua" />
		<tag k="ssr:stedsnr" v="532723" />
	</node>
	<node lat="59.298547226066354" lon="10.103211103763702" id="-49245">
		<tag k="bridge" v="yes" />
		<tag k="layer" v="1" />
		<tag k="name" v="Bråvoll" />
		<tag k="ssr:stedsnr" v="532726" />
	</node>
	<node lat="59.20217499621166" lon="10.332966659017506" id="-49246">
		<tag k="bridge" v="yes" />
		<tag k="layer" v="1" />
		<tag k="name" v="Vahr store" />
		<tag k="ssr:stedsnr" v="532743" />
	</node>
	<node lat="59.23427777506878" lon="10.221497213532722" id="-49247">
		<tag k="bridge" v="yes" />
		<tag k="layer" v="1" />
		<tag k="name" v="Rømmingen" />
		<tag k="ssr:stedsnr" v="532747" />
	</node>
	<node lat="59.332619445040436" lon="10.044455552158006" id="-49248">
		<tag k="bridge" v="yes" />
		<tag k="layer" v="1" />
		<tag k="name" v="Trolsvann" />
		<tag k="ssr:stedsnr" v="532750" />
	</node>
	<node lat="59.2086277821845" lon="10.075580559137322" id="-49340">
		<tag k="bridge" v="yes" />
		<tag k="layer" v="1" />
		<tag k="name" v="Liverød" />
		<tag k="ssr:stedsnr" v="592773" />
	</node>
	<node lat="59.2754861149305" lon="10.30536110584425" id="-49341">
		<tag k="bridge" v="yes" />
		<tag k="layer" v="1" />
		<tag k="name" v="Åmot østre" />
		<tag k="ssr:stedsnr" v="592787" />
	</node>
	<node lat="59.23287500403595" lon="10.33999721367932" id="-49342">
		<tag k="bridge" v="yes" />
		<tag k="layer" v="1" />
		<tag k="name" v="Melsom" />
		<tag k="ssr:stedsnr" v="592800" />
	</node>
	<node lat="59.10562499867149" lon="10.166333337312095" id="-49350">
		<tag k="alt_name" v="Jåberg st." />
		<tag k="name" v="Jåberg" />
		<tag k="railway" v="station" />
		<tag k="ssr:stedsnr" v="608079" />
		<tag k="train" v="yes" />
	</node>
	<node lat="59.1166972229701" lon="10.250716671527801" id="-49441">
		<tag k="bridge" v="yes" />
		<tag k="layer" v="1" />
		<tag k="name" v="Ormestad" />
		<tag k="ssr:stedsnr" v="652518" />
	</node>
	<node lat="59.209963890236224" lon="10.284452784578308" id="-49442">
		<tag k="bridge" v="yes" />
		<tag k="layer" v="1" />
		<tag k="name" v="Kihle" />
		<tag k="ssr:stedsnr" v="653766" />
	</node>
	<node lat="59.15376441979011" lon="10.184428928321054" id="-49443">
		<tag k="bridge" v="yes" />
		<tag k="layer" v="1" />
		<tag k="name" v="Sandefjord innfartsbru" />
		<tag k="ssr:stedsnr" v="713555" />
	</node>
	<node lat="59.19763889091378" lon="10.096911115454379" id="-49501">
		<tag k="alt_name" v="Hagenes" />
		<tag k="bridge" v="yes" />
		<tag k="layer" v="1" />
		<tag k="name" v="Hagnesbrua" />
		<tag k="ssr:stedsnr" v="755827" />
	</node>
	<node lat="59.18222886761893" lon="10.207237803640371" id="-49519">
		<tag k="bridge" v="yes" />
		<tag k="layer" v="1" />
		<tag k="name" v="Fokserød Søndre bru" />
		<tag k="ssr:stedsnr" v="774576" />
	</node>
	<node lat="59.20373333214084" lon="10.142324998822483" id="-49520">
		<tag k="bridge" v="yes" />
		<tag k="layer" v="1" />
		<tag k="name" v="Skjeggerød" />
		<tag k="ssr:stedsnr" v="774587" />
	</node>
	<node lat="59.18533610799513" lon="10.287872227779308" id="-49521">
		<tag k="bridge" v="yes" />
		<tag k="layer" v="1" />
		<tag k="name" v="Stavnum" />
		<tag k="ssr:stedsnr" v="775730" />
	</node>
	<node lat="59.15074721772253" lon="10.194227783097977" id="-49598">
		<tag k="bridge" v="yes" />
		<tag k="layer" v="1" />
		<tag k="name" v="Raveien overgangsbru" />
		<tag k="ssr:stedsnr" v="835562" />
	</node>
	<node lat="59.236044444108074" lon="10.27019167520855" id="-49599">
		<tag k="bridge" v="yes" />
		<tag k="layer" v="1" />
		<tag k="name" v="Gjennestad" />
		<tag k="ssr:stedsnr" v="836745" />
	</node>
	<node lat="59.12072500024131" lon="10.232086111489638" id="-49754">
		<tag k="bridge" v="yes" />
		<tag k="layer" v="1" />
		<tag k="name" v="Framnes" />
		<tag k="ssr:stedsnr" v="956571" />
	</node>
	<node lat="59.164125003587685" lon="10.199125000857709" id="-49755">
		<tag k="bridge" v="yes" />
		<tag k="layer" v="1" />
		<tag k="name" v="Hotvedtveien overgang" />
		<tag k="ssr:stedsnr" v="956573" />
	</node>
	<node lat="59.17709444447619" lon="10.220944442494599" id="-49756">
		<tag k="bridge" v="yes" />
		<tag k="layer" v="1" />
		<tag k="name" v="Geirastadir" />
		<tag k="ssr:stedsnr" v="956574" />
	</node>
	<node lat="59.12994722260363" lon="10.218219440154595" id="-49757">
		<tag k="bridge" v="yes" />
		<tag k="layer" v="1" />
		<tag k="name" v="Pukkestad bru" />
		<tag k="ssr:stedsnr" v="956578" />
	</node>
	<node lat="59.27486388633346" lon="10.302827777078129" id="-49758">
		<tag k="bridge" v="yes" />
		<tag k="layer" v="1" />
		<tag k="name" v="Åmot" />
		<tag k="ssr:stedsnr" v="957745" />
	</node>
	<node lat="59.23644443997514" lon="10.343494450769372" id="-49759">
		<tag k="bridge" v="yes" />
		<tag k="layer" v="1" />
		<tag k="name" v="Gihle" />
		<tag k="ssr:stedsnr" v="957757" />
	</node>
	<node lat="59.382316665953475" lon="10.120186116459944" id="-49760">
		<tag k="bridge" v="yes" />
		<tag k="layer" v="1" />
		<tag k="name" v="Nordskog" />
		<tag k="ssr:stedsnr" v="957732" />
	</node>
	<node lat="59.12733604952421" lon="10.232231121304592" id="-49821">
		<tag k="man_made" v="quay" />
		<tag k="name" v="Fiskebrygga" />
		<tag k="place" v="locality" />
		<tag k="ssr:stedsnr" v="988901" />
	</node>
	<node lat="58.9440068916853" lon="9.637917728815127" id="-50831">
		<tag k="name" v="Tonerhavn" />
		<tag k="place" v="locality" />
		<tag k="ssr:stedsnr" v="1074516" />
	</node>
</osm>
