<?xml version="1.0" encoding="UTF-8"?>
<osm generator="osmapis" version="0.6">
	<node id="-442363" lat="59.4798999986" lon="8.41301388768">
		<tag k="name" v="Tryteberget" />
		<tag k="place" v="locality" />
		<tag k="ssr:stedsnr" v="899870" />
	</node>
	<node id="-443386" lat="59.2884555569" lon="8.5316111127">
		<tag k="alt_name" v="Holenderskotet" />
		<tag k="name" v="Hollendarskoti" />
		<tag k="place" v="locality" />
		<tag k="ssr:stedsnr" v="305714" />
	</node>
	<node id="-442873" lat="59.4775888926" lon="8.4180666635">
		<tag k="amenity" v="community_centre" />
		<tag k="name" v="Dølehalli" />
		<tag k="ssr:stedsnr" v="110863" />
	</node>
	<node id="-442853" lat="59.354044442" lon="8.3245444367">
		<tag k="name" v="Torvilslyfte" />
		<tag k="place" v="locality" />
		<tag k="ssr:stedsnr" v="110676" />
	</node>
	<node id="-442848" lat="59.4338472237" lon="8.47090833708">
		<tag k="name" v="Kokeriet" />
		<tag k="place" v="locality" />
		<tag k="ssr:stedsnr" v="110648" />
	</node>
	<node id="-440725" lat="59.5103861125" lon="8.33184444168">
		<tag k="name" v="Høglisåtet" />
		<tag k="place" v="locality" />
		<tag k="ssr:stedsnr" v="473137" />
	</node>
	<node id="-441338" lat="59.3265432732" lon="8.67536213605">
		<tag k="name" v="Veslehartholhytta" />
		<tag k="place" v="locality" />
		<tag k="ssr:stedsnr" v="476566" />
	</node>
	<node id="-441306" lat="59.3278361102" lon="8.41679722666">
		<tag k="amenity" v="place_of_worship" />
		<tag k="denomination" v="lutheran" />
		<tag k="name" v="Vrådal" />
		<tag k="religion" v="christian" />
		<tag k="ssr:stedsnr" v="670184" />
	</node>
	<node id="-444888" lat="59.3978020376" lon="8.26296050322">
		<tag k="name" v="Sandgruva" />
		<tag k="place" v="locality" />
		<tag k="ssr:stedsnr" v="780786" />
	</node>
	<node id="-441811" lat="59.3990194462" lon="8.34036111154">
		<tag k="name" v="Nipskotet" />
		<tag k="place" v="locality" />
		<tag k="ssr:stedsnr" v="657857" />
	</node>
	<node id="-443853" lat="59.4035388892" lon="8.4845222135">
		<tag k="amenity" v="place_of_worship" />
		<tag k="denomination" v="lutheran" />
		<tag k="name" v="Kviteseid" />
		<tag k="religion" v="christian" />
		<tag k="ssr:stedsnr" v="414149" />
	</node>
	<node id="-443847" lat="59.4894000002" lon="8.35881667328">
		<tag k="name" v="Hedderen" />
		<tag k="place" v="locality" />
		<tag k="ssr:stedsnr" v="414127" />
	</node>
	<node id="-444357" lat="59.3921913339" lon="8.25355331605">
		<tag k="name" v="Moldskøte" />
		<tag k="place" v="locality" />
		<tag k="ssr:stedsnr" v="598783" />
	</node>
	<node id="-444866" lat="59.3175274836" lon="8.5714051983">
		<tag k="name" v="Det nye landtaket" />
		<tag k="place" v="locality" />
		<tag k="ssr:stedsnr" v="779864" />
	</node>
	<node id="-445086" lat="59.4650800866" lon="8.51070581437">
		<tag k="name" v="Bjørkeskotet" />
		<tag k="place" v="locality" />
		<tag k="ssr:stedsnr" v="840146" />
	</node>
	<node id="-440751" lat="59.3238361124" lon="8.44459444291">
		<tag k="name" v="Ekserserplassen" />
		<tag k="place" v="locality" />
		<tag k="ssr:stedsnr" v="474048" />
	</node>
	<node id="-440237" lat="59.5095166697" lon="8.33224999306">
		<tag k="name" v="Skreppesåt" />
		<tag k="place" v="locality" />
		<tag k="ssr:stedsnr" v="110103" />
	</node>
	<node id="-441765" lat="59.3457194468" lon="8.32963055573">
		<tag k="name" v="Heimare Våtkleivskotet" />
		<tag k="place" v="locality" />
		<tag k="ssr:stedsnr" v="656716" />
	</node>
	<node id="-442784" lat="59.4407218368" lon="8.52204520139">
		<tag k="name" v="Skotbakken" />
		<tag k="place" v="locality" />
		<tag k="ssr:stedsnr" v="63084" />
	</node>
	<node id="-442271" lat="59.4589333303" lon="8.48087222491">
		<tag k="name" v="Langmyrskotet" />
		<tag k="place" v="locality" />
		<tag k="ssr:stedsnr" v="838687" />
	</node>
	<node id="-443286" lat="59.4316791131" lon="8.41977520622">
		<tag k="name" v="Sveivvelta" />
		<tag k="place" v="locality" />
		<tag k="ssr:stedsnr" v="173680" />
	</node>
	<node id="-441237" lat="59.3549712309" lon="8.52212999923">
		<tag k="amenity" v="community_centre" />
		<tag k="name" v="Kviteseid bygdetun" />
		<tag k="ssr:stedsnr" v="658571" />
	</node>
	<node id="-441748" lat="59.5021666645" lon="8.39422221861">
		<tag k="name" v="Ramsvikskotet" />
		<tag k="place" v="locality" />
		<tag k="ssr:stedsnr" v="656119" />
	</node>
	<node id="-442770" lat="59.2852004877" lon="8.73162982107">
		<tag k="name" v="Vasskupa" />
		<tag k="place" v="locality" />
		<tag k="ssr:stedsnr" v="52775" />
	</node>
	<node id="-442768" lat="59.2868205463" lon="8.76024646059">
		<tag k="name" v="Bjønnåta" />
		<tag k="place" v="locality" />
		<tag k="ssr:stedsnr" v="52692" />
	</node>
	<node id="-443789" lat="59.3256359699" lon="8.22497159785">
		<tag k="name" v="Krossliposten" />
		<tag k="place" v="locality" />
		<tag k="ssr:stedsnr" v="416247" />
	</node>
	<node id="-444120" lat="59.3109166681" lon="8.38367777185">
		<tag k="name" v="Perskøsskøtet" />
		<tag k="place" v="locality" />
		<tag k="ssr:stedsnr" v="535088" />
	</node>
	<node id="-444800" lat="59.3991166631" lon="8.33851110316">
		<tag k="name" v="Mollskotet" />
		<tag k="place" v="locality" />
		<tag k="ssr:stedsnr" v="778878" />
	</node>
	<node id="-442239" lat="59.4799638897" lon="8.51311111576">
		<tag k="name" v="Bjørndalstaulen" />
		<tag k="place" v="locality" />
		<tag k="ssr:stedsnr" v="791015" />
	</node>
	<node id="-445309" lat="59.3131475175" lon="8.70113100764">
		<tag k="name" v="Gravningsskote" />
		<tag k="place" v="locality" />
		<tag k="ssr:stedsnr" v="961495" />
	</node>
	<node id="-445307" lat="59.3713454189" lon="8.55960608014">
		<tag k="name" v="Kåvstaulskotet" />
		<tag k="place" v="locality" />
		<tag k="ssr:stedsnr" v="961481" />
	</node>
	<node id="-441202" lat="59.3727833357" lon="8.38334999427">
		<tag k="name" v="Myrbui" />
		<tag k="place" v="locality" />
		<tag k="ssr:stedsnr" v="657969" />
	</node>
	<node id="-442722" lat="59.30072786" lon="8.51893682704">
		<tag k="name" v="Jon Støylsmur" />
		<tag k="place" v="locality" />
		<tag k="ssr:stedsnr" v="51099" />
	</node>
	<node id="-444257" lat="59.3669847" lon="8.56818224745">
		<tag k="name" v="Listaulskotet" />
		<tag k="place" v="locality" />
		<tag k="ssr:stedsnr" v="537597" />
	</node>
	<node id="-444767" lat="59.4409250044" lon="8.32189444616">
		<tag k="name" v="Bjønnholet" />
		<tag k="place" v="locality" />
		<tag k="ssr:stedsnr" v="778685" />
	</node>
	<node id="-440293" lat="59.4706805533" lon="8.49046944599">
		<tag k="name" v="Brennevinsholet" />
		<tag k="place" v="locality" />
		<tag k="ssr:stedsnr" v="111942" />
	</node>
	<node id="-442200" lat="59.4849416627" lon="8.38058056023">
		<tag k="name" v="Kastedalskotet" />
		<tag k="place" v="locality" />
		<tag k="ssr:stedsnr" v="778307" />
	</node>
	<node id="-444245" lat="59.3190278526" lon="8.56636619722">
		<tag k="name" v="Det gamle landtaket" />
		<tag k="place" v="locality" />
		<tag k="ssr:stedsnr" v="536875" />
	</node>
	<node id="-445268" lat="59.3907805581" lon="8.31198055">
		<tag k="name" v="Den store gråni" />
		<tag k="place" v="locality" />
		<tag k="ssr:stedsnr" v="960974" />
	</node>
	<node id="-441170" lat="59.266931368" lon="8.53402217205">
		<tag k="name" v="Kvennhusbakkan" />
		<tag k="place" v="locality" />
		<tag k="ssr:stedsnr" v="657222" />
	</node>
	<node id="-441680" lat="59.344371487" lon="8.23801047126">
		<tag k="name" v="Vråskotet" />
		<tag k="place" v="locality" />
		<tag k="ssr:stedsnr" v="720740" />
	</node>
	<node id="-440143" lat="59.3216393374" lon="8.71145010675">
		<tag k="name" v="Det nye torvhuset" />
		<tag k="place" v="locality" />
		<tag k="ssr:stedsnr" v="51756" />
	</node>
	<node id="-440546" lat="59.2747470675" lon="8.66850871659">
		<tag k="name" v="Landtaket" />
		<tag k="place" v="locality" />
		<tag k="ssr:stedsnr" v="294241" />
	</node>
	<node id="-442183" lat="59.4624055546" lon="8.48272500294">
		<tag k="name" v="Djupskjerskotet" />
		<tag k="place" v="locality" />
		<tag k="ssr:stedsnr" v="777662" />
	</node>
	<node id="-443206" lat="59.3244111151" lon="8.63880278381">
		<tag k="name" v="Bunkersen" />
		<tag k="place" v="locality" />
		<tag k="ssr:stedsnr" v="172041" />
	</node>
	<node id="-443205" lat="59.316878985" lon="8.64508633144">
		<tag k="name" v="Krusliskotet" />
		<tag k="place" v="locality" />
		<tag k="ssr:stedsnr" v="172030" />
	</node>
	<node id="-444734" lat="59.4892250014" lon="8.40388055393">
		<tag k="name" v="Sandåkerbakken" />
		<tag k="place" v="locality" />
		<tag k="ssr:stedsnr" v="778153" />
	</node>
	<node id="-445245" lat="59.3443944409" lon="8.33398333057">
		<tag k="name" v="Våtkleivskotet" />
		<tag k="place" v="locality" />
		<tag k="ssr:stedsnr" v="960689" />
	</node>
	<node id="-443698" lat="59.3987295244" lon="8.24924737302">
		<tag k="name" v="Teijen" />
		<tag k="place" v="locality" />
		<tag k="ssr:stedsnr" v="355778" />
	</node>
	<node id="-440213" lat="59.3549555566" lon="8.74038889038">
		<tag k="name" v="Baklistaulen" />
		<tag k="place" v="locality" />
		<tag k="ssr:stedsnr" v="245820" />
	</node>
	<node id="-443690" lat="59.2924019215" lon="8.76564339175">
		<tag k="name" v="Krintolskotet" />
		<tag k="place" v="locality" />
		<tag k="ssr:stedsnr" v="355685" />
	</node>
	<node id="-444199" lat="59.3692472219" lon="8.3052916628">
		<tag k="name" v="Myrbui" />
		<tag k="place" v="locality" />
		<tag k="ssr:stedsnr" v="536000" />
	</node>
	<node id="-444701" lat="59.4548805523" lon="8.48984444659">
		<tag k="name" v="Tremyrskotet" />
		<tag k="place" v="locality" />
		<tag k="ssr:stedsnr" v="777640" />
	</node>
	<node id="-444186" lat="59.3916694464" lon="8.27520000675">
		<tag k="name" v="Veahoggaren" />
		<tag k="place" v="locality" />
		<tag k="ssr:stedsnr" v="535898" />
	</node>
	<node id="-441988" lat="59.5057527786" lon="8.35553888893">
		<tag k="name" v="Kleivesagi" />
		<tag k="place" v="locality" />
		<tag k="ssr:stedsnr" v="900182" />
	</node>
	<node id="-440598" lat="59.4530666633" lon="8.46090832566">
		<tag k="name" v="Tjønnanskotet" />
		<tag k="place" v="locality" />
		<tag k="ssr:stedsnr" v="231352" />
	</node>
	<node id="-444180" lat="59.4636027789" lon="8.42913889435">
		<tag k="name" v="Vassendskotet" />
		<tag k="place" v="locality" />
		<tag k="ssr:stedsnr" v="535882" />
	</node>
	<node id="-440593" lat="59.3595080044" lon="8.23289991099">
		<tag k="name" v="Gunnarskot" />
		<tag k="place" v="locality" />
		<tag k="ssr:stedsnr" v="295981" />
	</node>
	<node id="-444376" lat="59.4155000014" lon="8.49119444364">
		<tag k="name" v="Steinstolen" />
		<tag k="place" v="locality" />
		<tag k="ssr:stedsnr" v="595163" />
	</node>
	<node id="-444173" lat="59.3941388849" lon="8.27543054804">
		<tag k="name" v="Knutsliskøtet" />
		<tag k="place" v="locality" />
		<tag k="ssr:stedsnr" v="535982" />
	</node>
	<node id="-440076" lat="59.508524996" lon="8.33886110717">
		<tag k="name" v="Trogakleiv" />
		<tag k="place" v="locality" />
		<tag k="ssr:stedsnr" v="50154" />
	</node>
	<node id="-440074" lat="59.4710249984" lon="8.36407222304">
		<tag k="name" v="Firefløtingen" />
		<tag k="place" v="locality" />
		<tag k="ssr:stedsnr" v="50249" />
	</node>
	<node id="-445192" lat="59.5000333356" lon="8.36838333838">
		<tag k="name" v="Sandsåt" />
		<tag k="place" v="locality" />
		<tag k="ssr:stedsnr" v="959157" />
	</node>
	<node id="-442631" lat="59.3343499997" lon="8.3842916728">
		<tag k="name" v="Kongshaugen" />
		<tag k="place" v="locality" />
		<tag k="ssr:stedsnr" v="49991" />
	</node>
	<node id="-442118" lat="59.3554222224" lon="8.52625833504">
		<tag k="alt_name" v="Kviteseid Gamle Kirke" />
		<tag k="amenity" v="place_of_worship" />
		<tag k="denomination" v="lutheran" />
		<tag k="name" v="Kviteseid" />
		<tag k="religion" v="christian" />
		<tag k="ssr:stedsnr" v="912823" />
	</node>
	<node id="-440068" lat="59.4793305528" lon="8.30915833979">
		<tag k="name" v="Bruberget" />
		<tag k="place" v="locality" />
		<tag k="ssr:stedsnr" v="50238" />
	</node>
	<node id="-441603" lat="59.4689666674" lon="8.43861388519">
		<tag k="name" v="Kvildebakk" />
		<tag k="place" v="locality" />
		<tag k="ssr:stedsnr" v="718676" />
	</node>
	<node id="-444202" lat="59.3067288049" lon="8.70489382168">
		<tag k="name" v="Lundetangen" />
		<tag k="place" v="locality" />
		<tag k="ssr:stedsnr" v="536393" />
	</node>
	<node id="-440057" lat="59.3568911706" lon="8.20500344124">
		<tag k="name" v="Gruvestulen" />
		<tag k="place" v="locality" />
		<tag k="ssr:stedsnr" v="234901" />
	</node>
	<node id="-441591" lat="59.3047330132" lon="8.69877699006">
		<tag k="amenity" v="place_of_worship" />
		<tag k="denomination" v="lutheran" />
		<tag k="name" v="Kapellet" />
		<tag k="religion" v="christian" />
		<tag k="ssr:stedsnr" v="718468" />
	</node>
	<node id="-441587" lat="59.2992251843" lon="8.69384355397">
		<tag k="amenity" v="community_centre" />
		<tag k="name" v="Grendehuset" />
		<tag k="ssr:stedsnr" v="718432" />
	</node>
	<node id="-445166" lat="59.3047250045" lon="8.69873888266">
		<tag k="amenity" v="place_of_worship" />
		<tag k="denomination" v="lutheran" />
		<tag k="name" v="Fjågesund" />
		<tag k="religion" v="christian" />
		<tag k="ssr:stedsnr" v="852650" />
	</node>
	<node id="-442093" lat="59.3928605688" lon="8.24833523351">
		<tag k="name" v="Kjørslune" />
		<tag k="place" v="locality" />
		<tag k="ssr:stedsnr" v="902845" />
	</node>
	<node id="-443626" lat="59.2978139324" lon="8.53854182315">
		<tag k="name" v="Aslakskot" />
		<tag k="place" v="locality" />
		<tag k="ssr:stedsnr" v="354129" />
	</node>
	<node id="-440553" lat="59.3762284018" lon="8.55408458854">
		<tag k="name" v="Bjønnholet" />
		<tag k="place" v="locality" />
		<tag k="ssr:stedsnr" v="294496" />
	</node>
	<node id="-444645" lat="59.25343889" lon="8.5435111094">
		<tag k="name" v="Blikhola" />
		<tag k="place" v="locality" />
		<tag k="ssr:stedsnr" v="609516" />
	</node>
	<node id="-443106" lat="59.40518333" lon="8.4782611195">
		<tag k="amenity" v="community_centre" />
		<tag k="name" v="Sundvang" />
		<tag k="ssr:stedsnr" v="171203" />
	</node>
	<node id="-441050" lat="59.4523000025" lon="8.45319443652">
		<tag k="name" v="Hestmyrskotet" />
		<tag k="place" v="locality" />
		<tag k="ssr:stedsnr" v="413333" />
	</node>
	<node id="-442584" lat="59.4962416706" lon="8.36797777994">
		<tag k="name" v="Skinhefte" />
		<tag k="place" v="locality" />
		<tag k="ssr:stedsnr" v="49210" />
	</node>
	<node id="-442583" lat="59.4981333345" lon="8.36910834171">
		<tag k="name" v="Kvitsåt" />
		<tag k="place" v="locality" />
		<tag k="ssr:stedsnr" v="49209" />
	</node>
	<node id="-441556" lat="59.5326111107" lon="8.34951111253">
		<tag k="name" v="Kong Gustav" />
		<tag k="place" v="locality" />
		<tag k="ssr:stedsnr" v="718008" />
	</node>
	<node id="-442064" lat="59.3449253857" lon="8.63635187415">
		<tag k="name" v="Brakandalsskotet" />
		<tag k="place" v="locality" />
		<tag k="ssr:stedsnr" v="901669" />
	</node>
	<node id="-445134" lat="59.398318647" lon="8.24127162281">
		<tag k="name" v="Gaupehuset" />
		<tag k="place" v="locality" />
		<tag k="ssr:stedsnr" v="841785" />
	</node>
	<node id="-445133" lat="59.3836251725" lon="8.2376355367">
		<tag k="name" v="Graslidskotet" />
		<tag k="place" v="locality" />
		<tag k="ssr:stedsnr" v="841779" />
	</node>
	<node id="-445130" lat="59.2770220249" lon="8.81486056847">
		<tag k="name" v="Brilleposten" />
		<tag k="place" v="locality" />
		<tag k="ssr:stedsnr" v="841593" />
	</node>
	<node id="-443593" lat="59.3535027812" lon="8.31860833413">
		<tag k="name" v="Støvelen" />
		<tag k="place" v="locality" />
		<tag k="ssr:stedsnr" v="353828" />
	</node>
	<node id="-442046" lat="59.3911565921" lon="8.51855796822">
		<tag k="name" v="Tingstad" />
		<tag k="place" v="locality" />
		<tag k="ssr:stedsnr" v="900843" />
	</node>
	<node id="-442036" lat="59.3994999983" lon="8.3360027858">
		<tag k="name" v="Storskogskotet" />
		<tag k="place" v="locality" />
		<tag k="ssr:stedsnr" v="900884" />
	</node>
	<node id="-440499" lat="59.4592777752" lon="8.31616388907">
		<tag k="name" v="Skinhefte" />
		<tag k="place" v="locality" />
		<tag k="ssr:stedsnr" v="293426" />
	</node>
	<node id="-443057" lat="59.5175583365" lon="8.33485000483">
		<tag k="name" v="Strandstaultulla" />
		<tag k="place" v="locality" />
		<tag k="ssr:stedsnr" v="170124" />
	</node>
	<node id="-442539" lat="59.3345111129" lon="8.8049277698">
		<tag k="amenity" v="place_of_worship" />
		<tag k="denomination" v="lutheran" />
		<tag k="name" v="Kilen" />
		<tag k="religion" v="christian" />
		<tag k="ssr:stedsnr" v="2654" />
	</node>
	<node id="-444581" lat="59.4269440636" lon="8.40200965402">
		<tag k="name" v="Nystaulskotet" />
		<tag k="place" v="locality" />
		<tag k="ssr:stedsnr" v="598700" />
	</node>
	<node id="-439968" lat="59.3935472182" lon="8.38015555301">
		<tag k="name" v="Bytingsrenna" />
		<tag k="place" v="locality" />
		<tag k="ssr:stedsnr" v="232904" />
	</node>
	<node id="-443550" lat="59.4279472193" lon="8.55535556188">
		<tag k="name" v="Tussekyrkja" />
		<tag k="place" v="locality" />
		<tag k="ssr:stedsnr" v="353537" />
	</node>
	<node id="-440477" lat="59.4786027811" lon="8.37130832775">
		<tag k="name" v="Rykkin" />
		<tag k="place" v="locality" />
		<tag k="ssr:stedsnr" v="293303" />
	</node>
	<node id="-442012" lat="59.4791361136" lon="8.37980554678">
		<tag k="name" v="Våtkleiv" />
		<tag k="place" v="locality" />
		<tag k="ssr:stedsnr" v="900333" />
	</node>
	<node id="-439963" lat="59.4814916676" lon="8.40929721551">
		<tag k="name" v="Aursåt" />
		<tag k="place" v="locality" />
		<tag k="ssr:stedsnr" v="232838" />
	</node>
	<node id="-444565" lat="59.2927221715" lon="8.74900026993">
		<tag k="name" v="Haugeskotet" />
		<tag k="place" v="locality" />
		<tag k="ssr:stedsnr" v="597724" />
	</node>
	<node id="-439955" lat="59.34536667" lon="8.3328388967">
		<tag k="name" v="Høge spranget" />
		<tag k="place" v="locality" />
		<tag k="ssr:stedsnr" v="232653" />
	</node>
	<node id="-444560" lat="59.2869085352" lon="8.78726593152">
		<tag k="name" v="Støgo og Stallen" />
		<tag k="place" v="locality" />
		<tag k="ssr:stedsnr" v="597633" />
	</node>
	<node id="-445065" lat="59.3905472228" lon="8.28182777989">
		<tag k="name" v="Vasaskøtet" />
		<tag k="place" v="locality" />
		<tag k="ssr:stedsnr" v="839880" />
	</node>
	<node id="-443524" lat="59.4452675261" lon="8.54679484935">
		<tag k="name" v="St. Olavs kjelda" />
		<tag k="place" v="locality" />
		<tag k="ssr:stedsnr" v="353346" />
	</node>
	<node id="-444032" lat="59.2789608622" lon="8.75529731246">
		<tag k="name" v="Deildedalgrindi" />
		<tag k="place" v="locality" />
		<tag k="ssr:stedsnr" v="416692" />
	</node>
	<node id="-445053" lat="59.4473527784" lon="8.33363611284">
		<tag k="name" v="Søyleskotet" />
		<tag k="place" v="locality" />
		<tag k="ssr:stedsnr" v="839641" />
	</node>
	<node id="-443509" lat="59.4670388934" lon="8.33003611505">
		<tag k="name" v="Bekkjeroskotet" />
		<tag k="place" v="locality" />
		<tag k="ssr:stedsnr" v="353294" />
	</node>
	<node id="-443507" lat="59.4258388884" lon="8.41068889528">
		<tag k="name" v="Knurrliskotet" />
		<tag k="place" v="locality" />
		<tag k="ssr:stedsnr" v="353282" />
	</node>
	<node id="-440944" lat="59.3649059451" lon="8.52262623511">
		<tag k="amenity" v="community_centre" />
		<tag k="name" v="Dugnadli" />
		<tag k="ssr:stedsnr" v="476435" />
	</node>
	<node id="-444520" lat="59.4712694456" lon="8.39484445284">
		<tag k="name" v="Dammyrskotet" />
		<tag k="place" v="locality" />
		<tag k="ssr:stedsnr" v="596877" />
	</node>
	<node id="-442641" lat="59.4888555598" lon="8.3378666604">
		<tag k="name" v="Knipkleiv" />
		<tag k="place" v="locality" />
		<tag k="ssr:stedsnr" v="50130" />
	</node>
	<node id="-441953" lat="59.3660722267" lon="8.4079249987">
		<tag k="name" v="Elleplassen" />
		<tag k="place" v="locality" />
		<tag k="ssr:stedsnr" v="899981" />
	</node>
	<node id="-444000" lat="59.3210308255" lon="8.6866477892">
		<tag k="name" v="Sikhola" />
		<tag k="place" v="locality" />
		<tag k="ssr:stedsnr" v="415601" />
	</node>
	<node id="-440927" lat="59.4771194411" lon="8.41948610919">
		<tag k="name" v="Olav Bjålands museum" />
		<tag k="ssr:stedsnr" v="475821" />
		<tag k="tourism" v="museum" />
	</node>
	<node id="-442458" lat="59.4749805522" lon="8.39929722337">
		<tag k="name" v="Mjåkvoll" />
		<tag k="place" v="locality" />
		<tag k="ssr:stedsnr" v="960769" />
	</node>
	<node id="-441871" lat="59.5054055575" lon="8.33063611949">
		<tag k="name" v="Selvassdammen" />
		<tag k="place" v="locality" />
		<tag k="ssr:stedsnr" v="718172" />
	</node>
	<node id="-441944" lat="59.4240472236" lon="8.45953610343">
		<tag k="name" v="Stampa" />
		<tag k="place" v="locality" />
		<tag k="ssr:stedsnr" v="899645" />
	</node>
	<node id="-445201" lat="59.487161115" lon="8.39588333528">
		<tag k="name" v="Stoppestogo" />
		<tag k="place" v="locality" />
		<tag k="ssr:stedsnr" v="959504" />
	</node>
	<node id="-439886" lat="59.3972694455" lon="8.4513166716">
		<tag k="name" v="Skulestova" />
		<tag k="place" v="locality" />
		<tag k="ssr:stedsnr" v="231583" />
	</node>
	<node id="-440589" lat="59.3984606886" lon="8.25081563872">
		<tag k="name" v="Gruva" />
		<tag k="place" v="locality" />
		<tag k="ssr:stedsnr" v="295838" />
	</node>
	<node id="-441931" lat="59.3543833325" lon="8.30533056251">
		<tag k="name" v="Badstogskotet" />
		<tag k="place" v="locality" />
		<tag k="ssr:stedsnr" v="899676" />
	</node>
	<node id="-442953" lat="59.4558929351" lon="8.51514983792">
		<tag k="amenity" v="place_of_worship" />
		<tag k="denomination" v="lutheran" />
		<tag k="name" v="Kapell" />
		<tag k="religion" v="christian" />
		<tag k="ssr:stedsnr" v="112193" />
	</node>
	<node id="-441406" lat="59.4760444486" lon="8.31932221891">
		<tag k="name" v="Listaulskotet" />
		<tag k="place" v="locality" />
		<tag k="ssr:stedsnr" v="536156" />
	</node>
	<node id="-444477" lat="59.4266611142" lon="8.55218334035">
		<tag k="name" v="Bjønnehiet" />
		<tag k="place" v="locality" />
		<tag k="ssr:stedsnr" v="596315" />
	</node>
	<node id="-441403" lat="59.3123750756" lon="8.58157441648">
		<tag k="name" v="Stallen og stoga" />
		<tag k="place" v="locality" />
		<tag k="ssr:stedsnr" v="536034" />
	</node>
	<node id="-443449" lat="59.4336555557" lon="8.48134166961">
		<tag k="amenity" v="place_of_worship" />
		<tag k="denomination" v="lutheran" />
		<tag k="name" v="Brunkeberg" />
		<tag k="religion" v="christian" />
		<tag k="ssr:stedsnr" v="306893" />
	</node>
	<node id="-440369" lat="59.3294166624" lon="8.4352055493">
		<tag k="name" v="Sagi" />
		<tag k="place" v="locality" />
		<tag k="ssr:stedsnr" v="292112" />
	</node>
	<node id="-440584" lat="59.3623370037" lon="8.18945215724">
		<tag k="name" v="Toa" />
		<tag k="place" v="locality" />
		<tag k="ssr:stedsnr" v="295791" />
	</node>
	<node id="-444461" lat="59.4263543163" lon="8.40496610722">
		<tag k="name" v="Gruveskotet" />
		<tag k="place" v="locality" />
		<tag k="ssr:stedsnr" v="596264" />
	</node>
	<node id="-440583" lat="59.3627570676" lon="8.1920833811">
		<tag k="name" v="Gaupehuset" />
		<tag k="place" v="locality" />
		<tag k="ssr:stedsnr" v="295767" />
	</node>
	<node id="-441382" lat="59.4909083304" lon="8.4043277779">
		<tag k="name" v="Dansarfloti" />
		<tag k="place" v="locality" />
		<tag k="ssr:stedsnr" v="535152" />
	</node>
	<node id="-443654" lat="59.3631846113" lon="8.50742809127">
		<tag k="name" v="Daleevju" />
		<tag k="place" v="locality" />
		<tag k="ssr:stedsnr" v="354515" />
	</node>
	<node id="-444450" lat="59.2929789228" lon="8.54524936944">
		<tag k="name" v="Gaupehuset" />
		<tag k="place" v="locality" />
		<tag k="ssr:stedsnr" v="596198" />
	</node>
	<node id="-444956" lat="59.4237916684" lon="8.47642499649">
		<tag k="name" v="Vasskupa" />
		<tag k="place" v="locality" />
		<tag k="ssr:stedsnr" v="838653" />
	</node>
	<node id="-441882" lat="59.3043460945" lon="8.7066035524">
		<tag k="name" v="Linjorgrunnen" />
		<tag k="place" v="locality" />
		<tag k="ssr:stedsnr" v="718411" />
	</node>
	<node id="-442392" lat="59.2650679476" lon="8.55409611251">
		<tag k="name" v="Stevneplassen" />
		<tag k="place" v="locality" />
		<tag k="ssr:stedsnr" v="901221" />
	</node>
	<node id="-440340" lat="59.4416472237" lon="8.36353055223">
		<tag k="name" v="Bergskotet" />
		<tag k="place" v="locality" />
		<tag k="ssr:stedsnr" v="171746" />
	</node>
	<node id="-441362" lat="59.2591527757" lon="8.54540277382">
		<tag k="name" v="Finndreng" />
		<tag k="place" v="locality" />
		<tag k="ssr:stedsnr" v="488545" />
	</node>
	<node id="-442895" lat="59.4278416668" lon="8.41105833929">
		<tag k="name" v="Lundevallsbakken" />
		<tag k="place" v="locality" />
		<tag k="ssr:stedsnr" v="111247" />
	</node>
	<node id="-440106" lat="59.4872361148" lon="8.41288610568">
		<tag k="name" v="Huslidbakken" />
		<tag k="place" v="locality" />
		<tag k="ssr:stedsnr" v="50712" />
	</node>
	<node id="-442893" lat="59.4498933442" lon="8.51145361794">
		<tag k="amenity" v="community_centre" />
		<tag k="name" v="Sandland skule" />
		<tag k="ssr:stedsnr" v="111176" />
	</node>
	<node id="-444939" lat="59.2937777753" lon="8.56145555617">
		<tag k="name" v="Skilhus" />
		<tag k="place" v="locality" />
		<tag k="ssr:stedsnr" v="791705" />
	</node>
	<node id="-442378" lat="59.4399472201" lon="8.55096666828">
		<tag k="name" v="Tryteskotet" />
		<tag k="place" v="locality" />
		<tag k="ssr:stedsnr" v="900466" />
	</node>
	<node id="-443910" lat="59.4638222248" lon="8.28604167167">
		<tag k="name" v="Magnushomskotet" />
		<tag k="place" v="locality" />
		<tag k="ssr:stedsnr" v="414486" />
	</node>
	<node id="-442027" lat="59.3151609653" lon="8.51883251181">
		<tag k="amenity" v="place_of_worship" />
		<tag k="fixme" v="specify religion=*, denomination=*, building=* etc" />
		<tag k="name" v="Nedre Lønnegrav" />
		<tag k="ssr:stedsnr" v="900692" />
	</node>
</osm>
