<?xml version="1.0" encoding="UTF-8"?>
<osm version="0.6" generator="osmapis">
	<node lat="59.3392361152488" lon="8.251261102395071" id="-21763">
		<tag k="alt_name" v="Underberg" />
		<tag k="name" v="Undeberg" />
		<tag k="place" v="farm" />
		<tag k="ssr:stedsnr" v="2336" />
	</node>
	<node lat="59.48807499758056" lon="8.460611116848243" id="-21769">
		<tag k="fixme" v="consider place=hamlet" />
		<tag k="name" v="Slettemeås" />
		<tag k="place" v="farm" />
		<tag k="ssr:stedsnr" v="2431" />
	</node>
	<node lat="59.39916111136885" lon="8.250699991830109" id="-21770">
		<tag k="alt_name" v="Gulnes" />
		<tag k="name" v="Gullnes" />
		<tag k="place" v="isolated_dwelling" />
		<tag k="ssr:stedsnr" v="2487" />
	</node>
	<node lat="59.39427777561774" lon="8.520944441147547" id="-21783">
		<tag k="name" v="Jonsborg" />
		<tag k="place" v="locality" />
		<tag k="ssr:stedsnr" v="2989" />
	</node>
	<node lat="59.50101666630302" lon="8.461944447385843" id="-21784">
		<tag k="alt_name" v="Vatneliene" />
		<tag k="fixme" v="consider place=hamlet" />
		<tag k="name" v="Vatnelian" />
		<tag k="place" v="farm" />
		<tag k="ssr:stedsnr" v="3504" />
	</node>
	<node lat="59.31966666797657" lon="8.444030554877955" id="-21786">
		<tag k="name" v="Årstad" />
		<tag k="place" v="farm" />
		<tag k="ssr:stedsnr" v="231048" />
	</node>
	<node lat="59.32295555123362" lon="8.459613881939012" id="-21787">
		<tag k="name" v="Østre Roholdt" />
		<tag k="place" v="farm" />
		<tag k="ssr:stedsnr" v="231049" />
	</node>
	<node lat="59.284394444655995" lon="8.425913889534545" id="-21793">
		<tag k="name" v="Nystøyl" />
		<tag k="place" v="locality" />
		<tag k="ssr:stedsnr" v="231334" />
	</node>
	<node lat="59.44514166362153" lon="8.444794447806983" id="-21796">
		<tag k="name" v="Svolsbru" />
		<tag k="place" v="farm" />
		<tag k="ssr:stedsnr" v="231368" />
	</node>
	<node lat="59.45051944326937" lon="8.314083329932753" id="-21797">
		<tag k="name" v="Bergtun" />
		<tag k="place" v="isolated_dwelling" />
		<tag k="ssr:stedsnr" v="231441" />
	</node>
	<node lat="59.44973333075023" lon="8.284258326375117" id="-21801">
		<tag k="historic" v="shieling" />
		<tag k="name" v="Midt-Jønntjønn" />
		<tag k="old_name" v="Midt Jønntjønn" />
		<tag k="place" v="isolated_dwelling" />
		<tag k="ssr:stedsnr" v="231421" />
	</node>
	<node lat="59.45547499937491" lon="8.34298332795533" id="-21807">
		<tag k="fixme" v="consider place=hamlet" />
		<tag k="name" v="Landsverk" />
		<tag k="place" v="farm" />
		<tag k="ssr:stedsnr" v="231661" />
	</node>
	<node lat="59.39611111431612" lon="8.468505556926454" id="-21808">
		<tag k="name" v="Haugan" />
		<tag k="place" v="isolated_dwelling" />
		<tag k="ssr:stedsnr" v="231665" />
	</node>
	<node lat="59.431375003650444" lon="8.466277772381146" id="-21813">
		<tag k="name" v="Langmyrstaulen" />
		<tag k="place" v="locality" />
		<tag k="ssr:stedsnr" v="231750" />
	</node>
	<node lat="59.44166111126914" lon="8.391247227530606" id="-21816">
		<tag k="name" v="Teddeberg" />
		<tag k="place" v="locality" />
		<tag k="ssr:stedsnr" v="231722" />
	</node>
	<node lat="59.39368888581797" lon="8.396827780217766" id="-21820">
		<tag k="name" v="Breidalshytta" />
		<tag k="place" v="isolated_dwelling" />
		<tag k="ssr:stedsnr" v="231774" />
	</node>
	<node lat="59.371191663821236" lon="8.473258340156262" id="-21824">
		<tag k="name" v="Nordskog Nistøg" />
		<tag k="place" v="farm" />
		<tag k="ssr:stedsnr" v="231917" />
	</node>
	<node lat="59.51147499761912" lon="8.433597219216766" id="-21839">
		<tag k="name" v="Ranneibu" />
		<tag k="place" v="isolated_dwelling" />
		<tag k="ssr:stedsnr" v="232201" />
	</node>
	<node lat="59.50322777474023" lon="8.381041671662125" id="-21843">
		<tag k="name" v="Damhaugen" />
		<tag k="place" v="isolated_dwelling" />
		<tag k="ssr:stedsnr" v="232165" />
	</node>
	<node lat="59.4508725839487" lon="8.509558896201604" id="-21844">
		<tag k="name" v="Vollen" />
		<tag k="place" v="isolated_dwelling" />
		<tag k="ssr:stedsnr" v="232175" />
	</node>
	<node lat="59.42561666535902" lon="8.433322226824982" id="-21849">
		<tag k="name" v="Nordbøen" />
		<tag k="place" v="farm" />
		<tag k="ssr:stedsnr" v="232301" />
	</node>
	<node lat="59.4226416698919" lon="8.515633337955117" id="-21855">
		<tag k="name" v="Ruk" />
		<tag k="place" v="isolated_dwelling" />
		<tag k="ssr:stedsnr" v="232350" />
	</node>
	<node lat="59.45306944137635" lon="8.318705551630066" id="-21856">
		<tag k="fixme" v="consider place=hamlet" />
		<tag k="name" v="Moen øvre" />
		<tag k="place" v="farm" />
		<tag k="ssr:stedsnr" v="232387" />
	</node>
	<node lat="59.40765555835351" lon="8.4311222277399" id="-21859">
		<tag k="name" v="Tørrgråntoi" />
		<tag k="place" v="locality" />
		<tag k="ssr:stedsnr" v="232394" />
	</node>
	<node lat="59.41448888812617" lon="8.476213892141649" id="-21861">
		<tag k="name" v="Djuvland" />
		<tag k="place" v="farm" />
		<tag k="ssr:stedsnr" v="232411" />
	</node>
	<node lat="59.40288055718081" lon="8.428136118478294" id="-21864">
		<tag k="name" v="Kringlemyr" />
		<tag k="place" v="locality" />
		<tag k="ssr:stedsnr" v="232423" />
	</node>
	<node lat="59.48484722227082" lon="8.39495555565605" id="-21876">
		<tag k="name" v="Teigen" />
		<tag k="place" v="isolated_dwelling" />
		<tag k="ssr:stedsnr" v="232774" />
	</node>
	<node lat="59.4786333293942" lon="8.4144833251947" id="-21877">
		<tag k="name" v="Pirkom" />
		<tag k="place" v="locality" />
		<tag k="ssr:stedsnr" v="232843" />
	</node>
	<node lat="59.477680558369975" lon="8.489727771491667" id="-21885">
		<tag k="name" v="Svanajord uppigard" />
		<tag k="place" v="farm" />
		<tag k="ssr:stedsnr" v="232959" />
	</node>
	<node lat="59.393177780543766" lon="8.313305549442429" id="-21886">
		<tag k="name" v="Prestskoghytta" />
		<tag k="place" v="isolated_dwelling" />
		<tag k="ssr:stedsnr" v="232963" />
	</node>
	<node lat="59.319519299246345" lon="8.662838278869039" id="-21892">
		<tag k="name" v="Grotnes-nedre" />
		<tag k="place" v="locality" />
		<tag k="ssr:stedsnr" v="233049" />
	</node>
	<node lat="59.31077163151431" lon="8.552398152067557" id="-21894">
		<tag k="historic" v="shieling" />
		<tag k="name" v="Petterstøyl" />
		<tag k="place" v="isolated_dwelling" />
		<tag k="ssr:stedsnr" v="233073" />
	</node>
	<node lat="59.37064397089744" lon="8.532205963835102" id="-21903">
		<tag k="name" v="Løyning" />
		<tag k="place" v="isolated_dwelling" />
		<tag k="ssr:stedsnr" v="233375" />
	</node>
	<node lat="59.30629988640147" lon="8.696622231439676" id="-21908">
		<tag k="name" v="Mittstad" />
		<tag k="place" v="isolated_dwelling" />
		<tag k="ssr:stedsnr" v="233526" />
	</node>
	<node lat="59.33465505070916" lon="8.6989402509563" id="-21915">
		<tag k="name" v="Nystaul" />
		<tag k="place" v="locality" />
		<tag k="ssr:stedsnr" v="233598" />
	</node>
	<node lat="59.31027232284347" lon="8.514673818257384" id="-21924">
		<tag k="name" v="Berge" />
		<tag k="place" v="isolated_dwelling" />
		<tag k="ssr:stedsnr" v="233833" />
	</node>
	<node lat="59.31159076294005" lon="8.515884864059524" id="-21926">
		<tag k="name" v="Hegna" />
		<tag k="place" v="isolated_dwelling" />
		<tag k="ssr:stedsnr" v="233839" />
	</node>
	<node lat="59.31319222860058" lon="8.518681907905174" id="-21930">
		<tag k="name" v="Fjellvang" />
		<tag k="place" v="isolated_dwelling" />
		<tag k="ssr:stedsnr" v="233848" />
	</node>
	<node lat="59.38800744418781" lon="8.506820198600282" id="-21931">
		<tag k="name" v="Ståland nedre" />
		<tag k="place" v="farm" />
		<tag k="ssr:stedsnr" v="233852" />
	</node>
	<node lat="59.3908879970026" lon="8.513955730657075" id="-21932">
		<tag k="name" v="Bjørklund" />
		<tag k="place" v="isolated_dwelling" />
		<tag k="ssr:stedsnr" v="233857" />
	</node>
	<node lat="59.39641004333213" lon="8.502038508875138" id="-21933">
		<tag k="fixme" v="consider place=hamlet" />
		<tag k="name" v="Midtsund søndre" />
		<tag k="place" v="farm" />
		<tag k="ssr:stedsnr" v="233876" />
	</node>
	<node lat="59.338713718497694" lon="8.789575713858309" id="-21941">
		<tag k="name" v="Sud-Jordgrav" />
		<tag k="place" v="farm" />
		<tag k="ssr:stedsnr" v="234648" />
	</node>
	<node lat="59.34558971434693" lon="8.25045679390274" id="-21943">
		<tag k="name" v="Nord-Odden" />
		<tag k="place" v="isolated_dwelling" />
		<tag k="ssr:stedsnr" v="234724" />
	</node>
	<node lat="59.35503600853241" lon="8.152521773844892" id="-21944">
		<tag k="name" v="Vang" />
		<tag k="place" v="isolated_dwelling" />
		<tag k="ssr:stedsnr" v="234822" />
	</node>
	<node lat="59.4341166677467" lon="8.56588611800476" id="-21948">
		<tag k="name" v="Fosshol" />
		<tag k="place" v="farm" />
		<tag k="ssr:stedsnr" v="48389" />
	</node>
	<node lat="59.42560000049197" lon="8.444391670386846" id="-21954">
		<tag k="name" v="Dal" />
		<tag k="place" v="isolated_dwelling" />
		<tag k="ssr:stedsnr" v="49707" />
	</node>
	<node lat="59.42769722587935" lon="8.4516166647564" id="-21956">
		<tag k="name" v="Lauvdal" />
		<tag k="place" v="isolated_dwelling" />
		<tag k="ssr:stedsnr" v="49674" />
	</node>
	<node lat="59.438147218355134" lon="8.468586113995002" id="-21957">
		<tag k="name" v="Roe" />
		<tag k="place" v="locality" />
		<tag k="ssr:stedsnr" v="49680" />
	</node>
	<node lat="59.49826389103956" lon="8.408419450942274" id="-21966">
		<tag k="name" v="Åsheim" />
		<tag k="place" v="locality" />
		<tag k="ssr:stedsnr" v="50126" />
	</node>
	<node lat="59.48150555432717" lon="8.299597230665208" id="-21969">
		<tag k="name" v="Slomstaul" />
		<tag k="place" v="locality" />
		<tag k="ssr:stedsnr" v="50213" />
	</node>
	<node lat="59.4275944401016" lon="8.46616110459091" id="-21970">
		<tag k="name" v="Suigard" />
		<tag k="place" v="locality" />
		<tag k="ssr:stedsnr" v="50302" />
	</node>
	<node lat="59.44091944736198" lon="8.465844443955891" id="-21973">
		<tag k="name" v="Omtveit øvre" />
		<tag k="place" v="farm" />
		<tag k="ssr:stedsnr" v="50313" />
	</node>
	<node lat="59.431269440384064" lon="8.488877779666424" id="-21974">
		<tag k="name" v="Øvrebø" />
		<tag k="place" v="locality" />
		<tag k="ssr:stedsnr" v="50315" />
	</node>
	<node lat="59.40523333465883" lon="8.425877778980084" id="-21978">
		<tag k="name" v="Heggtveit" />
		<tag k="place" v="farm" />
		<tag k="ssr:stedsnr" v="50403" />
	</node>
	<node lat="59.454675004294835" lon="8.377802775865023" id="-21983">
		<tag k="name" v="Skogstaul" />
		<tag k="place" v="locality" />
		<tag k="ssr:stedsnr" v="50485" />
	</node>
	<node lat="59.48525833622989" lon="8.40813611059739" id="-21994">
		<tag k="name" v="Bruøy" />
		<tag k="place" v="isolated_dwelling" />
		<tag k="ssr:stedsnr" v="50714" />
	</node>
	<node lat="59.35607777837334" lon="8.279916660299014" id="-21996">
		<tag k="name" v="Homme nordre" />
		<tag k="place" v="farm" />
		<tag k="ssr:stedsnr" v="50720" />
	</node>
	<node lat="59.469055556132524" lon="8.407855560965917" id="-21997">
		<tag k="name" v="Dalen" />
		<tag k="place" v="locality" />
		<tag k="ssr:stedsnr" v="50722" />
	</node>
	<node lat="59.44853888992142" lon="8.394316661286263" id="-22002">
		<tag k="name" v="Brandeland" />
		<tag k="place" v="locality" />
		<tag k="ssr:stedsnr" v="50911" />
	</node>
	<node lat="59.462736113189806" lon="8.398561111666254" id="-22009">
		<tag k="name" v="Gunnleiksrud" />
		<tag k="place" v="locality" />
		<tag k="ssr:stedsnr" v="50877" />
	</node>
	<node lat="59.46061944263889" lon="8.405019449729789" id="-22010">
		<tag k="name" v="Nystaul" />
		<tag k="place" v="locality" />
		<tag k="ssr:stedsnr" v="50888" />
	</node>
	<node lat="59.32651324345472" lon="8.632176869299592" id="-22012">
		<tag k="name" v="Kaldflot" />
		<tag k="place" v="isolated_dwelling" />
		<tag k="ssr:stedsnr" v="51022" />
	</node>
	<node lat="59.36905026309751" lon="8.529935967111898" id="-22020">
		<tag k="name" v="Strandlid" />
		<tag k="place" v="isolated_dwelling" />
		<tag k="ssr:stedsnr" v="51383" />
	</node>
	<node lat="59.36909141878741" lon="8.53181368343278" id="-22022">
		<tag k="name" v="Odden" />
		<tag k="place" v="isolated_dwelling" />
		<tag k="ssr:stedsnr" v="51386" />
	</node>
	<node lat="59.29761219665082" lon="8.737162653920548" id="-22026">
		<tag k="name" v="Viflot" />
		<tag k="place" v="farm" />
		<tag k="ssr:stedsnr" v="51588" />
	</node>
	<node lat="59.39811673637626" lon="8.506219053870254" id="-22037">
		<tag k="name" v="Lauvstad" />
		<tag k="place" v="isolated_dwelling" />
		<tag k="ssr:stedsnr" v="51772" />
	</node>
	<node lat="59.39788202774099" lon="8.50764287889176" id="-22038">
		<tag k="name" v="Tveiten" />
		<tag k="place" v="farm" />
		<tag k="ssr:stedsnr" v="51778" />
	</node>
	<node lat="59.442916665061496" lon="8.57688332844873" id="-22039">
		<tag k="name" v="Solberg" />
		<tag k="place" v="locality" />
		<tag k="ssr:stedsnr" v="52271" />
	</node>
	<node lat="59.42322813609942" lon="8.47132605166921" id="-22043">
		<tag k="name" v="Bergkos" />
		<tag k="place" v="locality" />
		<tag k="ssr:stedsnr" v="52713" />
	</node>
	<node lat="59.27809166834546" lon="8.46332221652614" id="-22047">
		<tag k="alt_name" v="Heddersviki" />
		<tag k="name" v="Heddersvik" />
		<tag k="place" v="isolated_dwelling" />
		<tag k="ssr:stedsnr" v="63209" />
	</node>
	<node lat="59.4467833340836" lon="8.394397213941089" id="-22051">
		<tag k="name" v="Stavdal" />
		<tag k="place" v="isolated_dwelling" />
		<tag k="ssr:stedsnr" v="63422" />
	</node>
	<node lat="59.447063889640894" lon="8.355733335197439" id="-22052">
		<tag k="name" v="Hommen" />
		<tag k="place" v="farm" />
		<tag k="ssr:stedsnr" v="63425" />
	</node>
	<node lat="59.39458333353342" lon="8.458525005932852" id="-22053">
		<tag k="fixme" v="consider place=hamlet" />
		<tag k="name" v="Roeid" />
		<tag k="place" v="farm" />
		<tag k="ssr:stedsnr" v="63312" />
	</node>
	<node lat="59.35579444113808" lon="8.279672222508983" id="-22054">
		<tag k="name" v="Homme" />
		<tag k="place" v="farm" />
		<tag k="ssr:stedsnr" v="63381" />
	</node>
	<node lat="59.31160278222662" lon="8.570172213568481" id="-22055">
		<tag k="name" v="Jensøhytta" />
		<tag k="place" v="isolated_dwelling" />
		<tag k="ssr:stedsnr" v="63674" />
	</node>
	<node lat="59.301695625579164" lon="8.75273721646053" id="-22057">
		<tag k="name" v="Vik" />
		<tag k="place" v="farm" />
		<tag k="ssr:stedsnr" v="63682" />
	</node>
	<node lat="59.35373889058582" lon="8.485391658390041" id="-22058">
		<tag k="alt_name" v="Skørastaul" />
		<tag k="historic" v="shieling" />
		<tag k="name" v="Skardstaul" />
		<tag k="place" v="isolated_dwelling" />
		<tag k="ssr:stedsnr" v="63808" />
	</node>
	<node lat="59.35060277498306" lon="8.534750008172114" id="-22059">
		<tag k="alt_name" v="Sandvik" />
		<tag k="name" v="Sandviki" />
		<tag k="place" v="farm" />
		<tag k="ssr:stedsnr" v="63811" />
	</node>
	<node lat="59.25319166454361" lon="8.590838883995499" id="-22061">
		<tag k="name" v="Vassenden" />
		<tag k="place" v="isolated_dwelling" />
		<tag k="ssr:stedsnr" v="63561" />
	</node>
	<node lat="59.2799250002512" lon="8.795186108833276" id="-22062">
		<tag k="name" v="Sporastaul" />
		<tag k="place" v="locality" />
		<tag k="ssr:stedsnr" v="63713" />
	</node>
	<node lat="59.443083334196906" lon="8.519324994761465" id="-22067">
		<tag k="alt_name" v="Stamperue" />
		<tag k="name" v="Stamperui" />
		<tag k="place" v="farm" />
		<tag k="ssr:stedsnr" v="245066" />
	</node>
	<node lat="59.377108336806856" lon="8.261180553528257" id="-22076">
		<tag k="name" v="Smørkvartelet" />
		<tag k="place" v="locality" />
		<tag k="ssr:stedsnr" v="245250" />
	</node>
	<node lat="59.34111388931012" lon="8.288300008402505" id="-22078">
		<tag k="name" v="Haukenes" />
		<tag k="place" v="isolated_dwelling" />
		<tag k="ssr:stedsnr" v="245307" />
	</node>
	<node lat="59.342424997493794" lon="8.266574993605062" id="-22079">
		<tag k="name" v="Lunden" />
		<tag k="place" v="farm" />
		<tag k="ssr:stedsnr" v="245308" />
	</node>
	<node lat="59.36980833429006" lon="8.208869439544529" id="-22083">
		<tag k="alt_name" v="Veirhommen" />
		<tag k="name" v="Værholmen" />
		<tag k="place" v="locality" />
		<tag k="ssr:stedsnr" v="245262" />
	</node>
	<node lat="59.45091944092433" lon="8.42522222715991" id="-22085">
		<tag k="alt_name" v="Råmunddalen, nedre;Råmunddal nedre" />
		<tag k="name" v="Nedre Råmunddalen" />
		<tag k="place" v="farm" />
		<tag k="ssr:stedsnr" v="245379" />
	</node>
	<node lat="59.47888611202089" lon="8.312427770912254" id="-22088">
		<tag k="fixme" v="consider place=hamlet" />
		<tag k="name" v="Åkre" />
		<tag k="place" v="farm" />
		<tag k="ssr:stedsnr" v="245397" />
	</node>
	<node lat="59.253533331097934" lon="8.563688891178343" id="-22090">
		<tag k="alt_name" v="Fureli" />
		<tag k="name" v="Furrli" />
		<tag k="place" v="isolated_dwelling" />
		<tag k="ssr:stedsnr" v="245519" />
	</node>
	<node lat="59.336094442181434" lon="8.295225002907678" id="-22091">
		<tag k="alt_name" v="Noraberg" />
		<tag k="name" v="Nordaberg" />
		<tag k="place" v="farm" />
		<tag k="ssr:stedsnr" v="245324" />
	</node>
	<node lat="59.35651110996407" lon="8.329855558431145" id="-22092">
		<tag k="name" v="Ånevasstøylen" />
		<tag k="place" v="isolated_dwelling" />
		<tag k="ssr:stedsnr" v="245335" />
	</node>
	<node lat="59.356958336817996" lon="8.231980550008863" id="-22094">
		<tag k="name" v="Viki" />
		<tag k="place" v="isolated_dwelling" />
		<tag k="ssr:stedsnr" v="245343" />
	</node>
	<node lat="59.42958888693796" lon="8.433216667582991" id="-22097">
		<tag k="name" v="Gunnhildstaul" />
		<tag k="place" v="farm" />
		<tag k="ssr:stedsnr" v="245473" />
	</node>
	<node lat="59.27201944191739" lon="8.783850007662727" id="-22098">
		<tag k="name" v="Myrheim" />
		<tag k="place" v="farm" />
		<tag k="ssr:stedsnr" v="245485" />
	</node>
	<node lat="59.26518611086331" lon="8.534719440241473" id="-22100">
		<tag k="alt_name" v="Finndreng" />
		<tag k="fixme" v="consider place=hamlet" />
		<tag k="name" v="Findreng" />
		<tag k="place" v="farm" />
		<tag k="ssr:stedsnr" v="245491" />
	</node>
	<node lat="59.31347499826759" lon="8.742269440142483" id="-22102">
		<tag k="alt_name" v="Lauvviki" />
		<tag k="name" v="Lauvvik" />
		<tag k="place" v="farm" />
		<tag k="ssr:stedsnr" v="245658" />
	</node>
	<node lat="59.50383055621036" lon="8.424680548571136" id="-22105">
		<tag k="historic" v="shieling" />
		<tag k="name" v="Farstaul" />
		<tag k="place" v="isolated_dwelling" />
		<tag k="ssr:stedsnr" v="245533" />
	</node>
	<node lat="59.36850000225244" lon="8.528327780202543" id="-22111">
		<tag k="name" v="Sorgenfri" />
		<tag k="place" v="isolated_dwelling" />
		<tag k="ssr:stedsnr" v="245766" />
	</node>
	<node lat="59.382666669090135" lon="8.470197225438389" id="-22112">
		<tag k="alt_name" v="Bukti søndre" />
		<tag k="name" v="Bukti" />
		<tag k="place" v="isolated_dwelling" />
		<tag k="ssr:stedsnr" v="245756" />
	</node>
	<node lat="59.38194167101891" lon="8.49828889449441" id="-22114">
		<tag k="name" v="Homman" />
		<tag k="place" v="farm" />
		<tag k="ssr:stedsnr" v="245762" />
	</node>
	<node lat="59.33785277618015" lon="8.800391658651428" id="-22123">
		<tag k="alt_name" v="Bukåsa" />
		<tag k="name" v="Bukåsi" />
		<tag k="place" v="farm" />
		<tag k="ssr:stedsnr" v="245836" />
	</node>
	<node lat="59.338825003821455" lon="8.567377784982245" id="-22125">
		<tag k="alt_name" v="Torgi" />
		<tag k="name" v="Torget" />
		<tag k="place" v="locality" />
		<tag k="ssr:stedsnr" v="245851" />
	</node>
	<node lat="59.39248888840826" lon="8.526433341219576" id="-22128">
		<tag k="name" v="Lunde" />
		<tag k="place" v="farm" />
		<tag k="ssr:stedsnr" v="245987" />
	</node>
	<node lat="59.40421111045923" lon="8.58482777161168" id="-22132">
		<tag k="name" v="Sollistaulen" />
		<tag k="place" v="isolated_dwelling" />
		<tag k="ssr:stedsnr" v="245953" />
	</node>
	<node lat="59.513066669533465" lon="8.450850004314228" id="-22134">
		<tag k="historic" v="shieling" />
		<tag k="name" v="Jåman" />
		<tag k="place" v="isolated_dwelling" />
		<tag k="ssr:stedsnr" v="246474" />
	</node>
	<node lat="59.52358611209288" lon="8.428813894858061" id="-22135">
		<tag k="alt_name" v="Løkjin" />
		<tag k="historic" v="shieling" />
		<tag k="name" v="Løkin" />
		<tag k="place" v="isolated_dwelling" />
		<tag k="ssr:stedsnr" v="246484" />
	</node>
	<node lat="59.31216944278578" lon="8.465758340843283" id="-22150">
		<tag k="name" v="Haland" />
		<tag k="place" v="isolated_dwelling" />
		<tag k="ssr:stedsnr" v="110406" />
	</node>
	<node lat="59.453350000929404" lon="8.356658329812035" id="-22157">
		<tag k="name" v="Dalen nedre" />
		<tag k="place" v="farm" />
		<tag k="ssr:stedsnr" v="110579" />
	</node>
	<node lat="59.38385555862313" lon="8.458611109192164" id="-22158">
		<tag k="name" v="Skarprud nordre" />
		<tag k="place" v="farm" />
		<tag k="ssr:stedsnr" v="110582" />
	</node>
	<node lat="59.42299444293383" lon="8.441824993347964" id="-22162">
		<tag k="name" v="Myri" />
		<tag k="place" v="farm" />
		<tag k="ssr:stedsnr" v="110707" />
	</node>
	<node lat="59.45405833078033" lon="8.31027221783073" id="-22164">
		<tag k="amenity" v="school" />
		<tag k="name" v="Dalan" />
		<tag k="ssr:stedsnr" v="110473" />
	</node>
	<node lat="59.3925249984357" lon="8.488402781824044" id="-22167">
		<tag k="name" v="Rolefstad nedre" />
		<tag k="place" v="farm" />
		<tag k="ssr:stedsnr" v="110632" />
	</node>
	<node lat="59.434638886667706" lon="8.483044440315352" id="-22168">
		<tag k="name" v="Brunkeberg" />
		<tag k="place" v="village" />
		<tag k="ssr:stedsnr" v="110673" />
	</node>
	<node lat="59.33072778190199" lon="8.37790832926883" id="-22173">
		<tag k="name" v="Nyheim" />
		<tag k="place" v="isolated_dwelling" />
		<tag k="ssr:stedsnr" v="110987" />
	</node>
	<node lat="59.478377775861006" lon="8.352688896855497" id="-22183">
		<tag k="historic" v="shieling" />
		<tag k="name" v="Kolbu" />
		<tag k="place" v="isolated_dwelling" />
		<tag k="ssr:stedsnr" v="111303" />
	</node>
	<node lat="59.37747243466908" lon="8.505150457948677" id="-22187">
		<tag k="name" v="Urdbø" />
		<tag k="place" v="locality" />
		<tag k="ssr:stedsnr" v="111311" />
	</node>
	<node lat="59.42470555635008" lon="8.434677785577689" id="-22188">
		<tag k="name" v="Lieng" />
		<tag k="place" v="farm" />
		<tag k="ssr:stedsnr" v="111312" />
	</node>
	<node lat="59.42628889051714" lon="8.456858326248902" id="-22195">
		<tag k="alt_name" v="Opgården" />
		<tag k="fixme" v="consider place=hamlet" />
		<tag k="name" v="Uppgarden" />
		<tag k="place" v="farm" />
		<tag k="ssr:stedsnr" v="111277" />
	</node>
	<node lat="59.41533333526172" lon="8.425247225357975" id="-22199">
		<tag k="name" v="Bjørkelid" />
		<tag k="place" v="isolated_dwelling" />
		<tag k="ssr:stedsnr" v="111411" />
	</node>
	<node lat="59.45115833242022" lon="8.334794452130753" id="-22204">
		<tag k="historic" v="shieling" />
		<tag k="name" v="Årdalen" />
		<tag k="place" v="isolated_dwelling" />
		<tag k="ssr:stedsnr" v="111590" />
	</node>
	<node lat="59.39923905274886" lon="8.50314495568448" id="-22208">
		<tag k="name" v="Lia" />
		<tag k="place" v="farm" />
		<tag k="ssr:stedsnr" v="111710" />
	</node>
	<node lat="59.28082973409506" lon="8.747817185577453" id="-22230">
		<tag k="name" v="Holt" />
		<tag k="place" v="farm" />
		<tag k="ssr:stedsnr" v="112805" />
	</node>
	<node lat="59.39033013679502" lon="8.614964684840848" id="-22234">
		<tag k="historic" v="shieling" />
		<tag k="name" v="Brokestaul" />
		<tag k="place" v="isolated_dwelling" />
		<tag k="ssr:stedsnr" v="113270" />
	</node>
	<node lat="59.33813140551889" lon="8.793773708350784" id="-22238">
		<tag k="name" v="Haugen" />
		<tag k="place" v="farm" />
		<tag k="ssr:stedsnr" v="113615" />
	</node>
	<node lat="59.492886113178564" lon="8.469222218515814" id="-22243">
		<tag k="name" v="Nystaul" />
		<tag k="place" v="farm" />
		<tag k="ssr:stedsnr" v="123070" />
	</node>
	<node lat="59.437788885271" lon="8.48623333450538" id="-22244">
		<tag k="alt_name" v="Hauglid" />
		<tag k="name" v="Haugli" />
		<tag k="place" v="farm" />
		<tag k="ssr:stedsnr" v="123075" />
	</node>
	<node lat="59.439755551569874" lon="8.49606388644002" id="-22245">
		<tag k="name" v="Haugan" />
		<tag k="place" v="farm" />
		<tag k="ssr:stedsnr" v="123077" />
	</node>
	<node lat="59.413677779806235" lon="8.45446666431089" id="-22249">
		<tag k="name" v="Øyan" />
		<tag k="place" v="farm" />
		<tag k="ssr:stedsnr" v="123511" />
	</node>
	<node lat="59.44513055667885" lon="8.400402770748373" id="-22250">
		<tag k="fixme" v="consider place=hamlet" />
		<tag k="name" v="Homme" />
		<tag k="place" v="farm" />
		<tag k="ssr:stedsnr" v="123533" />
	</node>
	<node lat="59.44275833080864" lon="8.450805560959887" id="-22251">
		<tag k="name" v="Åmland" />
		<tag k="place" v="farm" />
		<tag k="ssr:stedsnr" v="123535" />
	</node>
	<node lat="59.33989721924506" lon="8.49959444919336" id="-22261">
		<tag k="name" v="Heia" />
		<tag k="place" v="isolated_dwelling" />
		<tag k="ssr:stedsnr" v="123867" />
	</node>
	<node lat="59.352888892421134" lon="8.83055833406018" id="-22262">
		<tag k="name" v="Grånastaul" />
		<tag k="place" v="isolated_dwelling" />
		<tag k="ssr:stedsnr" v="123869" />
	</node>
	<node lat="59.362980557097906" lon="8.227938886727465" id="-22263">
		<tag k="name" v="Svartbekk" />
		<tag k="place" v="locality" />
		<tag k="ssr:stedsnr" v="124304" />
	</node>
	<node lat="59.30312500116009" lon="8.694149996135756" id="-22266">
		<tag k="name" v="Fjågesund" />
		<tag k="place" v="hamlet" />
		<tag k="ssr:stedsnr" v="145377" />
	</node>
	<node lat="59.5091472253666" lon="8.332241674600162" id="-22268">
		<tag k="name" v="Skreppa" />
		<tag k="place" v="isolated_dwelling" />
		<tag k="ssr:stedsnr" v="170117" />
	</node>
	<node lat="59.327386112263724" lon="8.410461103508954" id="-22270">
		<tag k="name" v="Rustad" />
		<tag k="place" v="isolated_dwelling" />
		<tag k="ssr:stedsnr" v="170214" />
	</node>
	<node lat="59.4029194424036" lon="8.454025004248894" id="-22284">
		<tag k="name" v="Aslakstaul" />
		<tag k="place" v="locality" />
		<tag k="ssr:stedsnr" v="171003" />
	</node>
	<node lat="59.40230277858291" lon="8.397394436344657" id="-22304">
		<tag k="name" v="Kvennhuskosi" />
		<tag k="place" v="locality" />
		<tag k="ssr:stedsnr" v="171422" />
	</node>
	<node lat="59.414316665665645" lon="8.464958335478496" id="-22306">
		<tag k="name" v="Nyland" />
		<tag k="place" v="farm" />
		<tag k="ssr:stedsnr" v="171460" />
	</node>
	<node lat="59.4309249959071" lon="8.47000278272644" id="-22315">
		<tag k="name" v="Sudbø" />
		<tag k="place" v="locality" />
		<tag k="ssr:stedsnr" v="171669" />
	</node>
	<node lat="59.48535555282261" lon="8.409863886632692" id="-22316">
		<tag k="name" v="Strand" />
		<tag k="place" v="farm" />
		<tag k="ssr:stedsnr" v="171809" />
	</node>
	<node lat="59.37921111252564" lon="8.4691388859282" id="-22318">
		<tag k="name" v="Høysvæv" />
		<tag k="place" v="locality" />
		<tag k="ssr:stedsnr" v="171818" />
	</node>
	<node lat="59.471830554406644" lon="8.421783330144025" id="-22319">
		<tag k="name" v="Drangstveit" />
		<tag k="place" v="farm" />
		<tag k="ssr:stedsnr" v="171702" />
	</node>
	<node lat="59.32447322251056" lon="8.627268289418812" id="-22325">
		<tag k="name" v="Sud-Lia" />
		<tag k="place" v="locality" />
		<tag k="ssr:stedsnr" v="172002" />
	</node>
	<node lat="59.31491379445456" lon="8.604488202380418" id="-22326">
		<tag k="historic" v="shieling" />
		<tag k="name" v="Vrålsli" />
		<tag k="place" v="isolated_dwelling" />
		<tag k="ssr:stedsnr" v="172015" />
	</node>
	<node lat="59.30073701981453" lon="8.702595795997626" id="-22329">
		<tag k="name" v="Solvang" />
		<tag k="place" v="farm" />
		<tag k="ssr:stedsnr" v="172077" />
	</node>
	<node lat="59.3051025010289" lon="8.641131015294242" id="-22334">
		<tag k="name" v="Tjovik" />
		<tag k="place" v="isolated_dwelling" />
		<tag k="ssr:stedsnr" v="172312" />
	</node>
	<node lat="59.30453619489941" lon="8.700292977309365" id="-22340">
		<tag k="name" v="Vestby" />
		<tag k="place" v="isolated_dwelling" />
		<tag k="ssr:stedsnr" v="172474" />
	</node>
	<node lat="59.394234441079" lon="8.515561242488662" id="-22343">
		<tag k="name" v="Løvland" />
		<tag k="place" v="isolated_dwelling" />
		<tag k="ssr:stedsnr" v="172861" />
	</node>
	<node lat="59.3925451546308" lon="8.518545779604441" id="-22344">
		<tag k="name" v="Haukom" />
		<tag k="place" v="farm" />
		<tag k="ssr:stedsnr" v="172866" />
	</node>
	<node lat="59.38800779200052" lon="8.514333799065872" id="-22348">
		<tag k="name" v="Myrbøen" />
		<tag k="place" v="farm" />
		<tag k="ssr:stedsnr" v="172914" />
	</node>
	<node lat="59.34002972304402" lon="8.788040450097919" id="-22352">
		<tag k="alt_name" v="Jordgrav" />
		<tag k="name" v="Nord-Jordgrav" />
		<tag k="place" v="farm" />
		<tag k="ssr:stedsnr" v="173602" />
	</node>
	<node lat="59.317843966772976" lon="8.767417587071717" id="-22357">
		<tag k="name" v="Fiskarbekk nordre" />
		<tag k="place" v="farm" />
		<tag k="ssr:stedsnr" v="173577" />
	</node>
	<node lat="59.439113884992274" lon="8.515866671048801" id="-22362">
		<tag k="name" v="Storkås" />
		<tag k="place" v="farm" />
		<tag k="ssr:stedsnr" v="184044" />
	</node>
	<node lat="59.43728889202518" lon="8.529680561875647" id="-22363">
		<tag k="fixme" v="consider place=hamlet" />
		<tag k="name" v="Skogsmark" />
		<tag k="place" v="farm" />
		<tag k="ssr:stedsnr" v="184045" />
	</node>
	<node lat="59.466527781836255" lon="8.324324995919495" id="-22365">
		<tag k="historic" v="shieling" />
		<tag k="name" v="Bergstaul" />
		<tag k="place" v="isolated_dwelling" />
		<tag k="ssr:stedsnr" v="184447" />
	</node>
	<node lat="59.33895278187383" lon="8.42927777985941" id="-22366">
		<tag k="name" v="Perstøyl" />
		<tag k="place" v="isolated_dwelling" />
		<tag k="ssr:stedsnr" v="184343" />
	</node>
	<node lat="59.26237499631756" lon="8.52230556425919" id="-22368">
		<tag k="name" v="Myrland" />
		<tag k="place" v="farm" />
		<tag k="ssr:stedsnr" v="184511" />
	</node>
	<node lat="59.28208888901543" lon="8.7452611148098" id="-22373">
		<tag k="fixme" v="consider place=hamlet" />
		<tag k="name" v="Berge" />
		<tag k="place" v="farm" />
		<tag k="ssr:stedsnr" v="184738" />
	</node>
	<node lat="59.31798611121284" lon="8.771011111832" id="-22376">
		<tag k="name" v="Fiskarbekk" />
		<tag k="place" v="farm" />
		<tag k="ssr:stedsnr" v="184684" />
	</node>
	<node lat="59.42493611071238" lon="8.47272222200931" id="-22381">
		<tag k="alt_name" v="Berge" />
		<tag k="name" v="Berget" />
		<tag k="place" v="locality" />
		<tag k="ssr:stedsnr" v="184893" />
	</node>
	<node lat="59.31804999560897" lon="8.430700004621107" id="-22383">
		<tag k="alt_name" v="Holte" />
		<tag k="name" v="Holtet" />
		<tag k="place" v="farm" />
		<tag k="ssr:stedsnr" v="185133" />
	</node>
	<node lat="59.35753055938927" lon="8.171702771169254" id="-22386">
		<tag k="name" v="Vassendstøylen" />
		<tag k="place" v="farm" />
		<tag k="ssr:stedsnr" v="185339" />
	</node>
	<node lat="59.354236109111824" lon="8.251863889451574" id="-22387">
		<tag k="fixme" v="consider place=hamlet" />
		<tag k="name" v="Ormtveit" />
		<tag k="place" v="farm" />
		<tag k="ssr:stedsnr" v="185345" />
	</node>
	<node lat="59.48270555149716" lon="8.372127776755686" id="-22390">
		<tag k="alt_name" v="Omlid" />
		<tag k="name" v="Åmli" />
		<tag k="place" v="farm" />
		<tag k="ssr:stedsnr" v="185381" />
	</node>
	<node lat="59.40411666913926" lon="8.46742778521389" id="-22399">
		<tag k="name" v="Lisland" />
		<tag k="place" v="farm" />
		<tag k="ssr:stedsnr" v="231241" />
	</node>
	<node lat="59.407858332488644" lon="8.491150006375841" id="-22403">
		<tag k="name" v="Haugestaul" />
		<tag k="place" v="isolated_dwelling" />
		<tag k="ssr:stedsnr" v="231194" />
	</node>
	<node lat="59.395780553605825" lon="8.45613056145675" id="-22407">
		<tag k="name" v="Fjellstad" />
		<tag k="place" v="isolated_dwelling" />
		<tag k="ssr:stedsnr" v="231582" />
	</node>
	<node lat="59.4320000005997" lon="8.476455549416086" id="-22414">
		<tag k="name" v="Kosi nedre" />
		<tag k="place" v="farm" />
		<tag k="ssr:stedsnr" v="231780" />
	</node>
	<node lat="59.291758795208786" lon="8.503051053431891" id="-22423">
		<tag k="name" v="Dårlaup" />
		<tag k="place" v="locality" />
		<tag k="ssr:stedsnr" v="232028" />
	</node>
	<node lat="59.45167369170897" lon="8.51452816952791" id="-22427">
		<tag k="name" v="Flatsandland" />
		<tag k="place" v="farm" />
		<tag k="ssr:stedsnr" v="232178" />
	</node>
	<node lat="59.438908331619" lon="8.453022216500035" id="-22432">
		<tag k="name" v="Bjørntveit" />
		<tag k="place" v="locality" />
		<tag k="ssr:stedsnr" v="232281" />
	</node>
	<node lat="59.4369722209477" lon="8.451591669967838" id="-22433">
		<tag k="name" v="Tjønntveit" />
		<tag k="place" v="locality" />
		<tag k="ssr:stedsnr" v="232283" />
	</node>
	<node lat="59.474175002611744" lon="8.431786118068583" id="-22437">
		<tag k="name" v="Huskroi" />
		<tag k="place" v="locality" />
		<tag k="ssr:stedsnr" v="232602" />
	</node>
	<node lat="59.397548513161006" lon="8.502174482743458" id="-22444">
		<tag k="name" v="Sundbø" />
		<tag k="place" v="isolated_dwelling" />
		<tag k="ssr:stedsnr" v="232713" />
	</node>
	<node lat="59.48217499967364" lon="8.389952776805611" id="-22450">
		<tag k="name" v="Norheim" />
		<tag k="place" v="isolated_dwelling" />
		<tag k="ssr:stedsnr" v="232831" />
	</node>
	<node lat="59.30220985321338" lon="8.692298906798275" id="-22457">
		<tag k="name" v="Fjågesund Vestigard" />
		<tag k="place" v="farm" />
		<tag k="ssr:stedsnr" v="233090" />
	</node>
	<node lat="59.348700795725634" lon="8.51414644685171" id="-22468">
		<tag k="name" v="Firskothytta" />
		<tag k="place" v="isolated_dwelling" />
		<tag k="ssr:stedsnr" v="233636" />
	</node>
	<node lat="59.38222777443462" lon="8.513669436935944" id="-22473">
		<tag k="name" v="Steinkosi" />
		<tag k="place" v="locality" />
		<tag k="ssr:stedsnr" v="233954" />
	</node>
	<node lat="59.38222777443462" lon="8.513669436935944" id="-22474">
		<tag k="name" v="Kolabotn" />
		<tag k="place" v="locality" />
		<tag k="ssr:stedsnr" v="233956" />
	</node>
	<node lat="59.35364322081517" lon="8.263054075161195" id="-22479">
		<tag k="name" v="Bergland" />
		<tag k="place" v="locality" />
		<tag k="ssr:stedsnr" v="234703" />
	</node>
	<node lat="59.355040604880486" lon="8.24220795279078" id="-22481">
		<tag k="name" v="Nordvik" />
		<tag k="place" v="isolated_dwelling" />
		<tag k="ssr:stedsnr" v="234707" />
	</node>
	<node lat="59.35472119319677" lon="8.26224503642771" id="-22484">
		<tag k="name" v="Sandland" />
		<tag k="place" v="locality" />
		<tag k="ssr:stedsnr" v="234700" />
	</node>
	<node lat="59.35332156100889" lon="8.163597065362937" id="-22487">
		<tag k="leisure" v="pitch" />
		<tag k="name" v="Tusslidbakken" />
		<tag k="ssr:stedsnr" v="234913" />
	</node>
	<node lat="59.451227775696154" lon="8.51102499136653" id="-22490">
		<tag k="alt_name" v="Gjervold" />
		<tag k="fixme" v="consider place=hamlet" />
		<tag k="name" v="Gjervoll" />
		<tag k="place" v="farm" />
		<tag k="ssr:stedsnr" v="245080" />
	</node>
	<node lat="59.458191664120406" lon="8.502436108852466" id="-22491">
		<tag k="fixme" v="consider place=hamlet" />
		<tag k="name" v="Tytegrav" />
		<tag k="place" v="farm" />
		<tag k="ssr:stedsnr" v="245106" />
	</node>
	<node lat="59.32454166772525" lon="8.732555558422737" id="-22495">
		<tag k="name" v="Fagerbu" />
		<tag k="place" v="isolated_dwelling" />
		<tag k="ssr:stedsnr" v="245611" />
	</node>
	<node lat="59.31819999789321" lon="8.504183337732774" id="-22496">
		<tag k="name" v="Bruenden" />
		<tag k="place" v="isolated_dwelling" />
		<tag k="ssr:stedsnr" v="245617" />
	</node>
	<node lat="59.312349997650315" lon="8.50923888767159" id="-22497">
		<tag k="name" v="Bakkan" />
		<tag k="place" v="farm" />
		<tag k="ssr:stedsnr" v="245622" />
	</node>
	<node lat="59.30536666560526" lon="8.645461113071725" id="-22500">
		<tag k="name" v="Mjaugedalen" />
		<tag k="place" v="isolated_dwelling" />
		<tag k="ssr:stedsnr" v="245647" />
	</node>
	<node lat="59.463924999371436" lon="8.29200000160673" id="-22502">
		<tag k="name" v="Smylemoen" />
		<tag k="place" v="isolated_dwelling" />
		<tag k="ssr:stedsnr" v="245420" />
	</node>
	<node lat="59.48947499789218" lon="8.460886104458767" id="-22518">
		<tag k="name" v="Moldbakkåsen" />
		<tag k="place" v="farm" />
		<tag k="ssr:stedsnr" v="245891" />
	</node>
	<node lat="59.504100003247366" lon="8.478055549750511" id="-22520">
		<tag k="alt_name" v="Grønlidstaulen" />
		<tag k="historic" v="shieling" />
		<tag k="name" v="Grønli" />
		<tag k="place" v="isolated_dwelling" />
		<tag k="ssr:stedsnr" v="246011" />
	</node>
	<node lat="59.335297222197596" lon="8.443069448672482" id="-22526">
		<tag k="name" v="Nystøyl" />
		<tag k="place" v="locality" />
		<tag k="ssr:stedsnr" v="292031" />
	</node>
	<node lat="59.49135833404281" lon="8.387402778507669" id="-22529">
		<tag k="historic" v="shieling" />
		<tag k="name" v="Øverbø" />
		<tag k="place" v="isolated_dwelling" />
		<tag k="ssr:stedsnr" v="292135" />
	</node>
	<node lat="59.39535833578122" lon="8.453513885538468" id="-22534">
		<tag k="alt_name" v="Brauti nedre" />
		<tag k="name" v="Nedre Brauti" />
		<tag k="place" v="isolated_dwelling" />
		<tag k="ssr:stedsnr" v="292495" />
	</node>
	<node lat="59.4486305580748" lon="8.485438893051127" id="-22540">
		<tag k="historic" v="shieling" />
		<tag k="name" v="Sudpåstaul" />
		<tag k="place" v="isolated_dwelling" />
		<tag k="ssr:stedsnr" v="292624" />
	</node>
	<node lat="59.452563887128704" lon="8.48273333983012" id="-22543">
		<tag k="historic" v="shieling" />
		<tag k="name" v="Vårstaulen" />
		<tag k="place" v="isolated_dwelling" />
		<tag k="ssr:stedsnr" v="292632" />
	</node>
	<node lat="59.38007777902057" lon="8.463649997548169" id="-22546">
		<tag k="name" v="Rugkosi" />
		<tag k="place" v="locality" />
		<tag k="ssr:stedsnr" v="292534" />
	</node>
	<node lat="59.45327500241418" lon="8.361636110116192" id="-22548">
		<tag k="name" v="Frankrike" />
		<tag k="place" v="isolated_dwelling" />
		<tag k="ssr:stedsnr" v="292583" />
	</node>
	<node lat="59.433669446143256" lon="8.422752781406079" id="-22550">
		<tag k="name" v="Ståland" />
		<tag k="place" v="locality" />
		<tag k="ssr:stedsnr" v="292587" />
	</node>
	<node lat="59.432027780311785" lon="8.39566945196518" id="-22554">
		<tag k="historic" v="shieling" />
		<tag k="name" v="Flatadalastaul" />
		<tag k="place" v="isolated_dwelling" />
		<tag k="ssr:stedsnr" v="292680" />
	</node>
	<node lat="59.37400000076066" lon="8.455336109359767" id="-22562">
		<tag k="alt_name" v="Hurrung" />
		<tag k="fixme" v="consider place=hamlet" />
		<tag k="name" v="Hurrong" />
		<tag k="place" v="farm" />
		<tag k="ssr:stedsnr" v="292915" />
	</node>
	<node lat="59.416286110782295" lon="8.509100003305333" id="-22571">
		<tag k="historic" v="shieling" />
		<tag k="name" v="Kjekjustaul" />
		<tag k="place" v="isolated_dwelling" />
		<tag k="ssr:stedsnr" v="293307" />
	</node>
	<node lat="59.444269443600135" lon="8.499719450090298" id="-22572">
		<tag k="historic" v="shieling" />
		<tag k="name" v="Berge" />
		<tag k="place" v="isolated_dwelling" />
		<tag k="ssr:stedsnr" v="293323" />
	</node>
	<node lat="59.44382500313622" lon="8.539877773929405" id="-22586">
		<tag k="name" v="Skjeie" />
		<tag k="place" v="locality" />
		<tag k="ssr:stedsnr" v="293486" />
	</node>
	<node lat="59.38679534741249" lon="8.51838737227373" id="-22593">
		<tag k="name" v="Hegtun" />
		<tag k="place" v="isolated_dwelling" />
		<tag k="ssr:stedsnr" v="293991" />
	</node>
	<node lat="59.32992069340992" lon="8.66390194276338" id="-22594">
		<tag k="name" v="Bjørkehytta" />
		<tag k="place" v="isolated_dwelling" />
		<tag k="ssr:stedsnr" v="294203" />
	</node>
	<node lat="59.45814722375602" lon="8.497477777981368" id="-22619">
		<tag k="name" v="Åmtveit" />
		<tag k="place" v="farm" />
		<tag k="ssr:stedsnr" v="305112" />
	</node>
	<node lat="59.47363055810019" lon="8.307169451172298" id="-22621">
		<tag k="name" v="Elvestad" />
		<tag k="place" v="isolated_dwelling" />
		<tag k="ssr:stedsnr" v="305436" />
	</node>
	<node lat="59.47171666728006" lon="8.341427778486075" id="-22624">
		<tag k="alt_name" v="Andtjønnstaul" />
		<tag k="name" v="Andtjørnstaul" />
		<tag k="place" v="isolated_dwelling" />
		<tag k="ssr:stedsnr" v="305454" />
	</node>
	<node lat="59.36255555115675" lon="8.571547215882717" id="-22627">
		<tag k="alt_name" v="Kvennes" />
		<tag k="name" v="Kvernnes" />
		<tag k="place" v="isolated_dwelling" />
		<tag k="ssr:stedsnr" v="305812" />
	</node>
	<node lat="59.2751416673892" lon="8.720608329554551" id="-22628">
		<tag k="name" v="Sandbekk" />
		<tag k="place" v="isolated_dwelling" />
		<tag k="ssr:stedsnr" v="305562" />
	</node>
	<node lat="59.44146944640781" lon="8.517355546990348" id="-22630">
		<tag k="name" v="Nordbøen" />
		<tag k="place" v="farm" />
		<tag k="ssr:stedsnr" v="306077" />
	</node>
	<node lat="59.48507777360483" lon="8.30165555440116" id="-22637">
		<tag k="name" v="Åbø" />
		<tag k="place" v="farm" />
		<tag k="ssr:stedsnr" v="306902" />
	</node>
	<node lat="59.30965278145602" lon="8.73750277821281" id="-22638">
		<tag k="name" v="Jutulbrui" />
		<tag k="place" v="isolated_dwelling" />
		<tag k="ssr:stedsnr" v="306679" />
	</node>
	<node lat="59.441205556151615" lon="8.588888884388913" id="-22641">
		<tag k="alt_name" v="Gjelstad" />
		<tag k="fixme" v="consider place=hamlet" />
		<tag k="name" v="Jelstad" />
		<tag k="place" v="farm" />
		<tag k="ssr:stedsnr" v="306874" />
	</node>
	<node lat="59.46389444378844" lon="8.4473611139275" id="-22648">
		<tag k="name" v="Solbakken" />
		<tag k="place" v="isolated_dwelling" />
		<tag k="ssr:stedsnr" v="473332" />
	</node>
	<node lat="59.46311110728791" lon="8.448855559349873" id="-22649">
		<tag k="name" v="Bekkeblom" />
		<tag k="place" v="isolated_dwelling" />
		<tag k="ssr:stedsnr" v="473333" />
	</node>
	<node lat="59.44816666720281" lon="8.485641661087453" id="-22653">
		<tag k="name" v="Åsmundtveit søndre" />
		<tag k="place" v="farm" />
		<tag k="ssr:stedsnr" v="473643" />
	</node>
	<node lat="59.467888888686545" lon="8.442513890944404" id="-22661">
		<tag k="name" v="Drangeland" />
		<tag k="place" v="isolated_dwelling" />
		<tag k="ssr:stedsnr" v="473895" />
	</node>
	<node lat="59.32049722629431" lon="8.451219437852478" id="-22667">
		<tag k="name" v="Kyrkjehaugen" />
		<tag k="place" v="isolated_dwelling" />
		<tag k="ssr:stedsnr" v="474044" />
	</node>
	<node lat="59.325605559633516" lon="8.448624991640992" id="-22668">
		<tag k="name" v="Nordskogdalen" />
		<tag k="place" v="locality" />
		<tag k="ssr:stedsnr" v="474047" />
	</node>
	<node lat="59.317524999638394" lon="8.41428611469993" id="-22671">
		<tag k="name" v="Folleggdalen" />
		<tag k="place" v="locality" />
		<tag k="ssr:stedsnr" v="474093" />
	</node>
	<node lat="59.404002780697176" lon="8.442277777279477" id="-22674">
		<tag k="name" v="Bergtun" />
		<tag k="place" v="isolated_dwelling" />
		<tag k="ssr:stedsnr" v="474002" />
	</node>
	<node lat="59.40169722330893" lon="8.446808337938881" id="-22675">
		<tag k="fixme" v="consider place=hamlet" />
		<tag k="name" v="Tveit søndre" />
		<tag k="place" v="farm" />
		<tag k="ssr:stedsnr" v="474004" />
	</node>
	<node lat="59.40561388983254" lon="8.484930560898713" id="-22677">
		<tag k="name" v="Klangheim" />
		<tag k="place" v="isolated_dwelling" />
		<tag k="ssr:stedsnr" v="474192" />
	</node>
	<node lat="59.40614722551886" lon="8.495172215635643" id="-22681">
		<tag k="name" v="Haddeland" />
		<tag k="place" v="locality" />
		<tag k="ssr:stedsnr" v="474196" />
	</node>
	<node lat="59.291572219971584" lon="8.42644166734613" id="-22687">
		<tag k="name" v="Halanhytta" />
		<tag k="place" v="isolated_dwelling" />
		<tag k="ssr:stedsnr" v="474292" />
	</node>
	<node lat="59.45808888834312" lon="8.496922230502241" id="-22691">
		<tag k="alt_name" v="Lille Åmtveit" />
		<tag k="fixme" v="consider place=hamlet" />
		<tag k="name" v="Vesle Omtveit" />
		<tag k="place" v="farm" />
		<tag k="ssr:stedsnr" v="352659" />
	</node>
	<node lat="59.50108333737292" lon="8.410577786015704" id="-22692">
		<tag k="name" v="Heibø" />
		<tag k="place" v="locality" />
		<tag k="ssr:stedsnr" v="352570" />
	</node>
	<node lat="59.327458334970316" lon="8.406505554839054" id="-22700">
		<tag k="name" v="Rundvang" />
		<tag k="place" v="isolated_dwelling" />
		<tag k="ssr:stedsnr" v="353156" />
	</node>
	<node lat="59.32721944750514" lon="8.42371389638426" id="-22703">
		<tag k="name" v="Fiskebekk" />
		<tag k="place" v="neighbourhood" />
		<tag k="ssr:stedsnr" v="353177" />
	</node>
	<node lat="59.42099444508717" lon="8.493561107869763" id="-22706">
		<tag k="name" v="Torget" />
		<tag k="place" v="locality" />
		<tag k="ssr:stedsnr" v="353510" />
	</node>
	<node lat="59.274466668706346" lon="8.352350001862991" id="-22723">
		<tag k="historic" v="shieling" />
		<tag k="name" v="Gamle Nystøyl" />
		<tag k="place" v="isolated_dwelling" />
		<tag k="ssr:stedsnr" v="353264" />
	</node>
	<node lat="59.42141944285901" lon="8.441286115003882" id="-22724">
		<tag k="name" v="Rui" />
		<tag k="place" v="farm" />
		<tag k="ssr:stedsnr" v="353406" />
	</node>
	<node lat="59.39142500375891" lon="8.456005549556572" id="-22732">
		<tag k="name" v="Steinsland" />
		<tag k="place" v="farm" />
		<tag k="ssr:stedsnr" v="474524" />
	</node>
	<node lat="59.421402777736894" lon="8.467438885961501" id="-22745">
		<tag k="name" v="Hauglid" />
		<tag k="place" v="farm" />
		<tag k="ssr:stedsnr" v="474493" />
	</node>
	<node lat="59.43083888661408" lon="8.432336107474066" id="-22746">
		<tag k="name" v="Gunnhildskos" />
		<tag k="place" v="farm" />
		<tag k="ssr:stedsnr" v="353660" />
	</node>
	<node lat="59.42049444758341" lon="8.469286112631364" id="-22751">
		<tag k="name" v="Storgård" />
		<tag k="place" v="farm" />
		<tag k="ssr:stedsnr" v="474494" />
	</node>
	<node lat="59.45434166519536" lon="8.360786116639224" id="-22753">
		<tag k="fixme" v="consider place=hamlet" />
		<tag k="name" v="Dalen nordre" />
		<tag k="place" v="farm" />
		<tag k="ssr:stedsnr" v="474565" />
	</node>
	<node lat="59.38536389016776" lon="8.494372229612866" id="-22755">
		<tag k="name" v="Langkos" />
		<tag k="place" v="locality" />
		<tag k="ssr:stedsnr" v="474571" />
	</node>
	<node lat="59.397536106675226" lon="8.474505555531143" id="-22764">
		<tag k="name" v="Oppheim" />
		<tag k="place" v="farm" />
		<tag k="ssr:stedsnr" v="474629" />
	</node>
	<node lat="59.45133055646271" lon="8.342569440013932" id="-22765">
		<tag k="name" v="Vestgarden" />
		<tag k="place" v="locality" />
		<tag k="ssr:stedsnr" v="474630" />
	</node>
	<node lat="59.393780559765254" lon="8.485372216783313" id="-22773">
		<tag k="name" v="Brattebø" />
		<tag k="place" v="isolated_dwelling" />
		<tag k="ssr:stedsnr" v="474592" />
	</node>
	<node lat="59.42347778061444" lon="8.478350005903408" id="-22775">
		<tag k="name" v="Torjuskos" />
		<tag k="place" v="locality" />
		<tag k="ssr:stedsnr" v="474688" />
	</node>
	<node lat="59.439552773405026" lon="8.465549996486253" id="-22779">
		<tag k="name" v="Haugen" />
		<tag k="place" v="locality" />
		<tag k="ssr:stedsnr" v="474653" />
	</node>
	<node lat="59.40003333000014" lon="8.395622230803703" id="-22783">
		<tag k="name" v="Maurdalstaulen" />
		<tag k="place" v="locality" />
		<tag k="ssr:stedsnr" v="474742" />
	</node>
	<node lat="59.41373333148522" lon="8.345044441860402" id="-22790">
		<tag k="historic" v="shieling" />
		<tag k="name" v="Raunlid" />
		<tag k="place" v="isolated_dwelling" />
		<tag k="ssr:stedsnr" v="474879" />
	</node>
	<node lat="59.335203482224685" lon="8.192985226596306" id="-22798">
		<tag k="historic" v="shieling" />
		<tag k="name" v="Storli" />
		<tag k="place" v="isolated_dwelling" />
		<tag k="ssr:stedsnr" v="355770" />
	</node>
	<node lat="59.28221593869203" lon="8.7447089314241" id="-22800">
		<tag k="name" v="Berge søndre" />
		<tag k="place" v="farm" />
		<tag k="ssr:stedsnr" v="355780" />
	</node>
	<node lat="59.329980559222335" lon="8.373438895370585" id="-22809">
		<tag k="name" v="Sinnes vestre" />
		<tag k="place" v="farm" />
		<tag k="ssr:stedsnr" v="474993" />
	</node>
	<node lat="59.39061667006074" lon="8.284766672631937" id="-22814">
		<tag k="name" v="Strandheimhytta" />
		<tag k="place" v="isolated_dwelling" />
		<tag k="ssr:stedsnr" v="474950" />
	</node>
	<node lat="59.47374166218645" lon="8.476816661165058" id="-22815">
		<tag k="name" v="Kvigarden" />
		<tag k="place" v="locality" />
		<tag k="ssr:stedsnr" v="474954" />
	</node>
	<node lat="59.312082062383084" lon="8.553707702360953" id="-22816">
		<tag k="historic" v="shieling" />
		<tag k="name" v="Øvstestøyl" />
		<tag k="place" v="isolated_dwelling" />
		<tag k="ssr:stedsnr" v="475038" />
	</node>
	<node lat="59.42530278095503" lon="8.435847224955426" id="-22833">
		<tag k="name" v="Listaul" />
		<tag k="place" v="isolated_dwelling" />
		<tag k="ssr:stedsnr" v="475330" />
	</node>
	<node lat="59.40591110893787" lon="8.430922226793609" id="-22837">
		<tag k="name" v="Belgien" />
		<tag k="place" v="farm" />
		<tag k="ssr:stedsnr" v="475421" />
	</node>
	<node lat="59.40305555409351" lon="8.432872215694033" id="-22841">
		<tag k="name" v="Kosi" />
		<tag k="place" v="locality" />
		<tag k="ssr:stedsnr" v="475370" />
	</node>
	<node lat="59.3338180942989" lon="8.564826134924559" id="-22845">
		<tag k="name" v="Bilstadhytta" />
		<tag k="place" v="isolated_dwelling" />
		<tag k="ssr:stedsnr" v="475633" />
	</node>
	<node lat="59.32649167932486" lon="8.580757271065316" id="-22849">
		<tag k="historic" v="shieling" />
		<tag k="name" v="Damtjønnstøylen" />
		<tag k="place" v="isolated_dwelling" />
		<tag k="ssr:stedsnr" v="475650" />
	</node>
	<node lat="59.39418068589919" lon="8.500149835052742" id="-22861">
		<tag k="name" v="Strand" />
		<tag k="place" v="isolated_dwelling" />
		<tag k="ssr:stedsnr" v="475863" />
	</node>
	<node lat="59.398236536243026" lon="8.503983998245497" id="-22863">
		<tag k="name" v="Midtsund øvre" />
		<tag k="place" v="farm" />
		<tag k="ssr:stedsnr" v="475753" />
	</node>
	<node lat="59.3818555567678" lon="8.49821354780254" id="-22864">
		<tag k="name" v="Homman ytre" />
		<tag k="place" v="farm" />
		<tag k="ssr:stedsnr" v="475983" />
	</node>
	<node lat="59.39311132417061" lon="8.509781291321284" id="-22865">
		<tag k="name" v="Bjørkesett" />
		<tag k="place" v="isolated_dwelling" />
		<tag k="ssr:stedsnr" v="475841" />
	</node>
	<node lat="59.3917809129498" lon="8.51306674557252" id="-22867">
		<tag k="name" v="Bjørkelid" />
		<tag k="place" v="isolated_dwelling" />
		<tag k="ssr:stedsnr" v="475851" />
	</node>
	<node lat="59.375569968894425" lon="8.566156118406846" id="-22876">
		<tag k="historic" v="shieling" />
		<tag k="name" v="Holtevik - Kåvstaul" />
		<tag k="place" v="isolated_dwelling" />
		<tag k="ssr:stedsnr" v="476463" />
	</node>
	<node lat="59.27959241618475" lon="8.77463269191993" id="-22881">
		<tag k="historic" v="shieling" />
		<tag k="name" v="Fitjastaul" />
		<tag k="place" v="isolated_dwelling" />
		<tag k="ssr:stedsnr" v="476695" />
	</node>
	<node lat="59.3727070882967" lon="8.214530130855307" id="-22890">
		<tag k="historic" v="shieling" />
		<tag k="name" v="Nystøyl" />
		<tag k="place" v="isolated_dwelling" />
		<tag k="ssr:stedsnr" v="477835" />
	</node>
	<node lat="59.35198233595052" lon="8.147535326419842" id="-22891">
		<tag k="name" v="Tyrikosi" />
		<tag k="place" v="isolated_dwelling" />
		<tag k="ssr:stedsnr" v="477849" />
	</node>
	<node lat="59.35763415158227" lon="8.19832076369388" id="-22892">
		<tag k="name" v="Årviki" />
		<tag k="place" v="isolated_dwelling" />
		<tag k="ssr:stedsnr" v="477930" />
	</node>
	<node lat="59.37580555306661" lon="8.213288889337514" id="-22901">
		<tag k="name" v="Lauvstøyl" />
		<tag k="place" v="locality" />
		<tag k="ssr:stedsnr" v="366302" />
	</node>
	<node lat="59.38605555593938" lon="8.434188893716593" id="-22902">
		<tag k="name" v="Kassenes" />
		<tag k="place" v="isolated_dwelling" />
		<tag k="ssr:stedsnr" v="366304" />
	</node>
	<node lat="59.45243333731924" lon="8.362880561764328" id="-22906">
		<tag k="name" v="Dalen" />
		<tag k="place" v="hamlet" />
		<tag k="ssr:stedsnr" v="366411" />
	</node>
	<node lat="59.44985833591749" lon="8.38375833399392" id="-22907">
		<tag k="name" v="Stormyr" />
		<tag k="place" v="isolated_dwelling" />
		<tag k="ssr:stedsnr" v="366413" />
	</node>
	<node lat="59.476652778866466" lon="8.428402772484283" id="-22908">
		<tag k="name" v="Bergland" />
		<tag k="place" v="farm" />
		<tag k="ssr:stedsnr" v="366433" />
	</node>
	<node lat="59.436413889583406" lon="8.441336108445745" id="-22911">
		<tag k="alt_name" v="Tjønnhei" />
		<tag k="name" v="Tjørnlund" />
		<tag k="place" v="isolated_dwelling" />
		<tag k="ssr:stedsnr" v="366511" />
	</node>
	<node lat="59.31688055719746" lon="8.552213880981576" id="-22921">
		<tag k="name" v="Bergstøyl" />
		<tag k="place" v="isolated_dwelling" />
		<tag k="ssr:stedsnr" v="366677" />
	</node>
	<node lat="59.31459166892205" lon="8.685347220065541" id="-22922">
		<tag k="name" v="Slåtta" />
		<tag k="place" v="isolated_dwelling" />
		<tag k="ssr:stedsnr" v="366684" />
	</node>
	<node lat="59.30003055804561" lon="8.74951666698212" id="-22924">
		<tag k="name" v="Øygarden" />
		<tag k="place" v="farm" />
		<tag k="ssr:stedsnr" v="366694" />
	</node>
	<node lat="59.35276666583341" lon="8.708100000687784" id="-22926">
		<tag k="name" v="Nystaul" />
		<tag k="place" v="isolated_dwelling" />
		<tag k="ssr:stedsnr" v="366813" />
	</node>
	<node lat="59.427655557552576" lon="8.478683335718781" id="-22930">
		<tag k="name" v="Bakken" />
		<tag k="place" v="isolated_dwelling" />
		<tag k="ssr:stedsnr" v="366874" />
	</node>
	<node lat="59.42854999601329" lon="8.58236111590621" id="-22931">
		<tag k="historic" v="shieling" />
		<tag k="name" v="Nystaul" />
		<tag k="place" v="isolated_dwelling" />
		<tag k="ssr:stedsnr" v="366877" />
	</node>
	<node lat="59.41488055846878" lon="8.476013882460915" id="-22932">
		<tag k="name" v="Nordheim" />
		<tag k="place" v="farm" />
		<tag k="ssr:stedsnr" v="366925" />
	</node>
	<node lat="59.50405555709636" lon="8.435116661113103" id="-22934">
		<tag k="name" v="Lier" />
		<tag k="place" v="farm" />
		<tag k="ssr:stedsnr" v="367489" />
	</node>
	<node lat="59.46182777673265" lon="8.541583339791305" id="-22935">
		<tag k="name" v="Lofthus" />
		<tag k="place" v="isolated_dwelling" />
		<tag k="ssr:stedsnr" v="487095" />
	</node>
	<node lat="59.305149998050304" lon="8.325369447110072" id="-22936">
		<tag k="alt_name" v="Kroi" />
		<tag k="name" v="Kråi" />
		<tag k="place" v="isolated_dwelling" />
		<tag k="ssr:stedsnr" v="487129" />
	</node>
	<node lat="59.34808221356874" lon="8.240811407733466" id="-22943">
		<tag k="name" v="Vrå" />
		<tag k="place" v="farm" />
		<tag k="ssr:stedsnr" v="487386" />
	</node>
	<node lat="59.473327780342224" lon="8.411750005793788" id="-22946">
		<tag k="alt_name" v="Bygland" />
		<tag k="fixme" v="consider place=hamlet" />
		<tag k="name" v="Byggland" />
		<tag k="place" v="farm" />
		<tag k="ssr:stedsnr" v="487453" />
	</node>
	<node lat="59.45147499662343" lon="8.284397214802631" id="-22954">
		<tag k="historic" v="shieling" />
		<tag k="name" v="Nord Jønntjønn" />
		<tag k="place" v="isolated_dwelling" />
		<tag k="ssr:stedsnr" v="413407" />
	</node>
	<node lat="59.410255555587504" lon="8.444747218859131" id="-22955">
		<tag k="historic" v="shieling" />
		<tag k="name" v="Berge" />
		<tag k="place" v="isolated_dwelling" />
		<tag k="ssr:stedsnr" v="413498" />
	</node>
	<node lat="59.3692222189863" lon="8.485702785205273" id="-22961">
		<tag k="name" v="Surkosi" />
		<tag k="place" v="farm" />
		<tag k="ssr:stedsnr" v="487807" />
	</node>
	<node lat="59.36363332948384" lon="8.62407778189109" id="-22962">
		<tag k="name" v="Fjellstaul" />
		<tag k="place" v="locality" />
		<tag k="ssr:stedsnr" v="487810" />
	</node>
	<node lat="59.419616670950454" lon="8.469933339434851" id="-22963">
		<tag k="name" v="Berg" />
		<tag k="place" v="isolated_dwelling" />
		<tag k="ssr:stedsnr" v="413510" />
	</node>
	<node lat="59.423863891241105" lon="8.441563886518008" id="-22966">
		<tag k="name" v="Jore" />
		<tag k="place" v="farm" />
		<tag k="ssr:stedsnr" v="413707" />
	</node>
	<node lat="59.29170833156743" lon="8.684730548527268" id="-22967">
		<tag k="name" v="Jønnberg" />
		<tag k="place" v="isolated_dwelling" />
		<tag k="ssr:stedsnr" v="487769" />
	</node>
	<node lat="59.469830557441334" lon="8.445288883375234" id="-22975">
		<tag k="name" v="Ni Sollid" />
		<tag k="place" v="farm" />
		<tag k="ssr:stedsnr" v="413899" />
	</node>
	<node lat="59.442755555390605" lon="8.500463888785948" id="-22986">
		<tag k="name" v="Gosen" />
		<tag k="place" v="locality" />
		<tag k="ssr:stedsnr" v="414273" />
	</node>
	<node lat="59.49992500113923" lon="8.449652771921759" id="-23001">
		<tag k="historic" v="shieling" />
		<tag k="name" v="Norbø" />
		<tag k="place" v="isolated_dwelling" />
		<tag k="ssr:stedsnr" v="414509" />
	</node>
	<node lat="59.366919445714245" lon="8.48943888795352" id="-23013">
		<tag k="name" v="Strømsta" />
		<tag k="place" v="isolated_dwelling" />
		<tag k="ssr:stedsnr" v="414812" />
	</node>
	<node lat="59.472005553888835" lon="8.414791661667099" id="-23018">
		<tag k="name" v="Bygland nigard" />
		<tag k="place" v="farm" />
		<tag k="ssr:stedsnr" v="414789" />
	</node>
	<node lat="59.37331111058426" lon="8.46467222284099" id="-23020">
		<tag k="name" v="Øverbø" />
		<tag k="place" v="locality" />
		<tag k="ssr:stedsnr" v="414800" />
	</node>
	<node lat="59.33660277708163" lon="8.344980563136167" id="-23028">
		<tag k="name" v="Skipar" />
		<tag k="place" v="isolated_dwelling" />
		<tag k="ssr:stedsnr" v="488150" />
	</node>
	<node lat="59.331872221524854" lon="8.384299992996771" id="-23035">
		<tag k="name" v="Vetterøy" />
		<tag k="place" v="isolated_dwelling" />
		<tag k="ssr:stedsnr" v="414987" />
	</node>
	<node lat="59.33362500355281" lon="8.377027778355332" id="-23036">
		<tag k="name" v="Sinnes øvre" />
		<tag k="place" v="farm" />
		<tag k="ssr:stedsnr" v="414994" />
	</node>
	<node lat="59.37060791061661" lon="8.552819996544207" id="-23042">
		<tag k="name" v="Vesle Holteviki" />
		<tag k="place" v="locality" />
		<tag k="ssr:stedsnr" v="415445" />
	</node>
	<node lat="59.47447222116949" lon="8.492522215149833" id="-23044">
		<tag k="name" v="Håtveitåsen" />
		<tag k="place" v="farm" />
		<tag k="ssr:stedsnr" v="488026" />
	</node>
	<node lat="59.444552780262605" lon="8.48459722493287" id="-23047">
		<tag k="name" v="Moen" />
		<tag k="place" v="farm" />
		<tag k="ssr:stedsnr" v="488072" />
	</node>
	<node lat="59.4410138854198" lon="8.52467500707116" id="-23048">
		<tag k="name" v="Hovland" />
		<tag k="place" v="farm" />
		<tag k="ssr:stedsnr" v="488076" />
	</node>
	<node lat="59.399554343744185" lon="8.505418312571377" id="-23054">
		<tag k="name" v="Sundsli" />
		<tag k="place" v="isolated_dwelling" />
		<tag k="ssr:stedsnr" v="415794" />
	</node>
	<node lat="59.39631649505284" lon="8.503778488890289" id="-23056">
		<tag k="name" v="Jonstad" />
		<tag k="place" v="isolated_dwelling" />
		<tag k="ssr:stedsnr" v="415885" />
	</node>
	<node lat="59.36610555252835" lon="8.428961105509012" id="-23071">
		<tag k="alt_name" v="Bekkekrokstaul" />
		<tag k="name" v="Bekkekrokstaulen" />
		<tag k="place" v="locality" />
		<tag k="ssr:stedsnr" v="488233" />
	</node>
	<node lat="59.447580558986104" lon="8.413691661498358" id="-23073">
		<tag k="fixme" v="consider place=hamlet" />
		<tag k="name" v="Huvestad" />
		<tag k="place" v="farm" />
		<tag k="ssr:stedsnr" v="488373" />
	</node>
	<node lat="59.51082777639172" lon="8.361324997807115" id="-23075">
		<tag k="historic" v="shieling" />
		<tag k="name" v="Hovund" />
		<tag k="place" v="isolated_dwelling" />
		<tag k="ssr:stedsnr" v="488474" />
	</node>
	<node lat="59.313136109692046" lon="8.49171388565118" id="-23077">
		<tag k="alt_name" v="Øy" />
		<tag k="fixme" v="consider place=hamlet" />
		<tag k="name" v="Øyi" />
		<tag k="place" v="farm" />
		<tag k="ssr:stedsnr" v="488613" />
	</node>
	<node lat="59.29848332952663" lon="8.743963884230991" id="-23078">
		<tag k="name" v="Oddbukti" />
		<tag k="place" v="farm" />
		<tag k="ssr:stedsnr" v="488674" />
	</node>
	<node lat="59.452725003296905" lon="8.530577779445263" id="-23079">
		<tag k="name" v="Kasin" />
		<tag k="place" v="isolated_dwelling" />
		<tag k="ssr:stedsnr" v="427102" />
	</node>
	<node lat="59.4476916683656" lon="8.572708340489392" id="-23080">
		<tag k="fixme" v="consider place=hamlet" />
		<tag k="name" v="Heggtveit" />
		<tag k="place" v="farm" />
		<tag k="ssr:stedsnr" v="427090" />
	</node>
	<node lat="59.32566388591655" lon="8.33708611460748" id="-23081">
		<tag k="name" v="Lundeberg" />
		<tag k="place" v="farm" />
		<tag k="ssr:stedsnr" v="427174" />
	</node>
	<node lat="59.3624250032852" lon="8.287852784111442" id="-23083">
		<tag k="fixme" v="consider place=hamlet" />
		<tag k="name" v="Dale" />
		<tag k="place" v="farm" />
		<tag k="ssr:stedsnr" v="427374" />
	</node>
	<node lat="59.35642777833892" lon="8.209163880464349" id="-23084">
		<tag k="alt_name" v="Hegland" />
		<tag k="fixme" v="consider place=hamlet" />
		<tag k="name" v="Hægeland" />
		<tag k="place" v="farm" />
		<tag k="ssr:stedsnr" v="427386" />
	</node>
	<node lat="59.356150000763606" lon="8.272313890144032" id="-23085">
		<tag k="alt_name" v="Sandviki" />
		<tag k="name" v="Sandvik" />
		<tag k="place" v="isolated_dwelling" />
		<tag k="ssr:stedsnr" v="427389" />
	</node>
	<node lat="59.41610833670422" lon="8.445369451888862" id="-23086">
		<tag k="alt_name" v="Lie nedre;Li" />
		<tag k="fixme" v="consider place=hamlet" />
		<tag k="name" v="Lii" />
		<tag k="place" v="farm" />
		<tag k="ssr:stedsnr" v="427472" />
	</node>
	<node lat="59.44280000328027" lon="8.291119447671475" id="-23087">
		<tag k="historic" v="shieling" />
		<tag k="name" v="Sending" />
		<tag k="place" v="isolated_dwelling" />
		<tag k="ssr:stedsnr" v="427487" />
	</node>
	<node lat="59.28783055385762" lon="8.738266658852192" id="-23091">
		<tag k="name" v="Underberge" />
		<tag k="place" v="isolated_dwelling" />
		<tag k="ssr:stedsnr" v="427716" />
	</node>
	<node lat="59.38682500420565" lon="8.50918333646913" id="-23092">
		<tag k="name" v="Haugen" />
		<tag k="place" v="farm" />
		<tag k="ssr:stedsnr" v="427726" />
	</node>
	<node lat="59.31629166634702" lon="8.685997224697898" id="-23095">
		<tag k="alt_name" v="Fløta" />
		<tag k="name" v="Flottan" />
		<tag k="place" v="farm" />
		<tag k="ssr:stedsnr" v="427668" />
	</node>
	<node lat="59.436111106810614" lon="8.555258340133882" id="-23097">
		<tag k="name" v="Rudningen" />
		<tag k="place" v="farm" />
		<tag k="ssr:stedsnr" v="427874" />
	</node>
	<node lat="59.40565277442446" lon="8.489730547920969" id="-23104">
		<tag k="name" v="Sundbygdi" />
		<tag k="place" v="village" />
		<tag k="ssr:stedsnr" v="670962" />
	</node>
	<node lat="59.47133611368594" lon="8.44886389040177" id="-23113">
		<tag k="name" v="Uppi Sollid" />
		<tag k="place" v="farm" />
		<tag k="ssr:stedsnr" v="473904" />
	</node>
	<node lat="59.3261777817604" lon="8.481388897001127" id="-23114">
		<tag k="name" v="Vrådal" />
		<tag k="ssr:stedsnr" v="474112" />
		<tag k="tourism" v="hotel" />
	</node>
	<node lat="59.408036107213725" lon="8.477266665302507" id="-23121">
		<tag k="name" v="Sølverud" />
		<tag k="place" v="quarter" />
		<tag k="ssr:stedsnr" v="474166" />
	</node>
	<node lat="59.4890666664817" lon="8.44099999673831" id="-23123">
		<tag k="historic" v="shieling" />
		<tag k="name" v="Kåvsås" />
		<tag k="place" v="isolated_dwelling" />
		<tag k="ssr:stedsnr" v="474172" />
	</node>
	<node lat="59.44250277594466" lon="8.470669441721226" id="-23126">
		<tag k="historic" v="shieling" />
		<tag k="name" v="Høgtveit" />
		<tag k="place" v="isolated_dwelling" />
		<tag k="ssr:stedsnr" v="474305" />
	</node>
	<node lat="59.39946389213879" lon="8.471358335110558" id="-23129">
		<tag k="name" v="Glytte" />
		<tag k="place" v="locality" />
		<tag k="ssr:stedsnr" v="474612" />
	</node>
	<node lat="59.460927775296646" lon="8.42996111166192" id="-23144">
		<tag k="historic" v="shieling" />
		<tag k="name" v="Storevik" />
		<tag k="place" v="isolated_dwelling" />
		<tag k="ssr:stedsnr" v="474918" />
	</node>
	<node lat="59.456047220155675" lon="8.41448611462495" id="-23145">
		<tag k="name" v="Staulen" />
		<tag k="place" v="locality" />
		<tag k="ssr:stedsnr" v="474923" />
	</node>
	<node lat="59.32456685271811" lon="8.624755566904653" id="-23146">
		<tag k="name" v="Midt-Lia" />
		<tag k="place" v="locality" />
		<tag k="ssr:stedsnr" v="475003" />
	</node>
	<node lat="59.40304999827659" lon="8.411277771650278" id="-23162">
		<tag k="name" v="Haugen" />
		<tag k="place" v="farm" />
		<tag k="ssr:stedsnr" v="475417" />
	</node>
	<node lat="59.33908534562297" lon="8.54852742602469" id="-23169">
		<tag k="name" v="Selet" />
		<tag k="place" v="locality" />
		<tag k="ssr:stedsnr" v="475565" />
	</node>
	<node lat="59.31791110714076" lon="8.377788895968926" id="-23196">
		<tag k="name" v="Jore" />
		<tag k="place" v="locality" />
		<tag k="ssr:stedsnr" v="477719" />
	</node>
	<node lat="59.463694440307066" lon="8.381619446256302" id="-23207">
		<tag k="name" v="Nystaul" />
		<tag k="place" v="isolated_dwelling" />
		<tag k="ssr:stedsnr" v="487415" />
	</node>
	<node lat="59.468636114678006" lon="8.382180560899895" id="-23208">
		<tag k="name" v="Kosi" />
		<tag k="place" v="isolated_dwelling" />
		<tag k="ssr:stedsnr" v="487416" />
	</node>
	<node lat="59.40275000040457" lon="8.446344443640651" id="-23211">
		<tag k="name" v="Tveit" />
		<tag k="place" v="farm" />
		<tag k="ssr:stedsnr" v="487507" />
	</node>
	<node lat="59.32308611518417" lon="8.534983325380377" id="-23215">
		<tag k="name" v="Åhomstøyl" />
		<tag k="place" v="isolated_dwelling" />
		<tag k="ssr:stedsnr" v="487690" />
	</node>
	<node lat="59.34510277981382" lon="8.566213881509924" id="-23217">
		<tag k="name" v="Sagabukti" />
		<tag k="place" v="locality" />
		<tag k="ssr:stedsnr" v="487867" />
	</node>
	<node lat="59.43956944001796" lon="8.34185833117253" id="-23219">
		<tag k="name" v="Nykos" />
		<tag k="place" v="isolated_dwelling" />
		<tag k="ssr:stedsnr" v="488445" />
	</node>
	<node lat="59.30209167054646" lon="8.781199993990151" id="-23225">
		<tag k="name" v="Åse" />
		<tag k="place" v="isolated_dwelling" />
		<tag k="ssr:stedsnr" v="488695" />
	</node>
	<node lat="59.40223055315461" lon="8.492663890467448" id="-23227">
		<tag k="name" v="Kviteseid" />
		<tag k="place" v="village" />
		<tag k="ssr:stedsnr" v="488954" />
	</node>
	<node lat="59.39312222596695" lon="8.528866670911443" id="-23228">
		<tag k="name" v="Brekke" />
		<tag k="place" v="farm" />
		<tag k="ssr:stedsnr" v="488991" />
	</node>
	<node lat="59.4789027797444" lon="8.492180557253484" id="-23244">
		<tag k="name" v="Vårfjostufti" />
		<tag k="place" v="locality" />
		<tag k="ssr:stedsnr" v="534879" />
	</node>
	<node lat="59.4047777769154" lon="8.451636106776201" id="-23245">
		<tag k="name" v="Kosi" />
		<tag k="place" v="locality" />
		<tag k="ssr:stedsnr" v="535003" />
	</node>
	<node lat="59.315333332038364" lon="8.455361117969986" id="-23246">
		<tag k="fixme" v="consider place=hamlet" />
		<tag k="name" v="Kråkenes" />
		<tag k="place" v="farm" />
		<tag k="ssr:stedsnr" v="535013" />
	</node>
	<node lat="59.42698333671204" lon="8.461288883947912" id="-23260">
		<tag k="name" v="Utgarden" />
		<tag k="place" v="farm" />
		<tag k="ssr:stedsnr" v="535282" />
	</node>
	<node lat="59.403783337740954" lon="8.422891662661058" id="-23262">
		<tag k="name" v="Heggtveit n" />
		<tag k="place" v="farm" />
		<tag k="ssr:stedsnr" v="535421" />
	</node>
	<node lat="59.41096666537915" lon="8.477997220336116" id="-23263">
		<tag k="name" v="Jore" />
		<tag k="place" v="farm" />
		<tag k="ssr:stedsnr" v="535467" />
	</node>
	<node lat="59.38984999854572" lon="8.49268611371783" id="-23265">
		<tag k="name" v="Sudbø" />
		<tag k="place" v="farm" />
		<tag k="ssr:stedsnr" v="535602" />
	</node>
	<node lat="59.35796944143774" lon="8.289252769102553" id="-23269">
		<tag k="name" v="Brauti" />
		<tag k="place" v="isolated_dwelling" />
		<tag k="ssr:stedsnr" v="535768" />
	</node>
	<node lat="59.44876111048325" lon="8.42977778549588" id="-23273">
		<tag k="alt_name" v="Råmunddal søndre" />
		<tag k="name" v="Søndre Råmunddal" />
		<tag k="place" v="farm" />
		<tag k="ssr:stedsnr" v="535915" />
	</node>
	<node lat="59.45302777948287" lon="8.340738882173733" id="-23274">
		<tag k="name" v="Landsverk" />
		<tag k="place" v="isolated_dwelling" />
		<tag k="ssr:stedsnr" v="535622" />
	</node>
	<node lat="59.475783334232645" lon="8.417744442874145" id="-23278">
		<tag k="name" v="Skogheim" />
		<tag k="place" v="isolated_dwelling" />
		<tag k="ssr:stedsnr" v="535812" />
	</node>
	<node lat="59.41403888563893" lon="8.34322222276648" id="-23284">
		<tag k="historic" v="shieling" />
		<tag k="name" v="Raudberg" />
		<tag k="place" v="isolated_dwelling" />
		<tag k="ssr:stedsnr" v="535883" />
	</node>
	<node lat="59.31312222231859" lon="8.635061115091029" id="-23295">
		<tag k="historic" v="shieling" />
		<tag k="name" v="Grotnesstaulen" />
		<tag k="place" v="isolated_dwelling" />
		<tag k="ssr:stedsnr" v="536304" />
	</node>
	<node lat="59.48943055422159" lon="8.461583342038155" id="-23296">
		<tag k="name" v="Slettemeås øvre" />
		<tag k="place" v="farm" />
		<tag k="ssr:stedsnr" v="536606" />
	</node>
	<node lat="59.43898055635664" lon="8.59310000270737" id="-23298">
		<tag k="name" v="Tangval" />
		<tag k="place" v="locality" />
		<tag k="ssr:stedsnr" v="536503" />
	</node>
	<node lat="59.39374192967162" lon="8.502349871803846" id="-23305">
		<tag k="name" v="Vonheim" />
		<tag k="place" v="farm" />
		<tag k="ssr:stedsnr" v="536866" />
	</node>
	<node lat="59.395690343580135" lon="8.508078868180151" id="-23306">
		<tag k="name" v="Tveitan" />
		<tag k="place" v="farm" />
		<tag k="ssr:stedsnr" v="536867" />
	</node>
	<node lat="59.474880551300224" lon="8.489963891191302" id="-23310">
		<tag k="name" v="Haugen" />
		<tag k="place" v="isolated_dwelling" />
		<tag k="ssr:stedsnr" v="536971" />
	</node>
	<node lat="59.475750001816955" lon="8.488499996455925" id="-23326">
		<tag k="fixme" v="consider place=hamlet" />
		<tag k="name" v="Svanajord" />
		<tag k="place" v="farm" />
		<tag k="ssr:stedsnr" v="548023" />
	</node>
	<node lat="59.37540833684598" lon="8.243180557588408" id="-23327">
		<tag k="historic" v="shieling" />
		<tag k="name" v="Finndalen" />
		<tag k="place" v="isolated_dwelling" />
		<tag k="ssr:stedsnr" v="548275" />
	</node>
	<node lat="59.459691669224576" lon="8.398333339434389" id="-23329">
		<tag k="alt_name" v="Tjørnstaul" />
		<tag k="name" v="Tjønnstaul" />
		<tag k="place" v="isolated_dwelling" />
		<tag k="ssr:stedsnr" v="548405" />
	</node>
	<node lat="59.48220000101101" lon="8.457138889453525" id="-23330">
		<tag k="name" v="Sigurdstaul" />
		<tag k="place" v="isolated_dwelling" />
		<tag k="ssr:stedsnr" v="548423" />
	</node>
	<node lat="59.421841669987145" lon="8.462330562645883" id="-23331">
		<tag k="fixme" v="consider place=hamlet" />
		<tag k="name" v="Gotuholt" />
		<tag k="place" v="farm" />
		<tag k="ssr:stedsnr" v="548455" />
	</node>
	<node lat="59.393613892881525" lon="8.443677784377973" id="-23332">
		<tag k="alt_name" v="Apalstoi" />
		<tag k="name" v="Apalstod" />
		<tag k="place" v="farm" />
		<tag k="ssr:stedsnr" v="548302" />
	</node>
	<node lat="59.335475003432194" lon="8.2028499958553" id="-23333">
		<tag k="name" v="Åkerjordet" />
		<tag k="place" v="isolated_dwelling" />
		<tag k="ssr:stedsnr" v="548358" />
	</node>
	<node lat="59.33942777505027" lon="8.467611108845734" id="-23335">
		<tag k="name" v="Støylen" />
		<tag k="place" v="locality" />
		<tag k="ssr:stedsnr" v="548367" />
	</node>
	<node lat="59.363294442729654" lon="8.170463893989359" id="-23337">
		<tag k="fixme" v="consider place=hamlet" />
		<tag k="name" v="Vråliosen" />
		<tag k="place" v="village" />
		<tag k="ssr:stedsnr" v="548377" />
	</node>
	<node lat="59.430980555550555" lon="8.402733342130448" id="-23338">
		<tag k="alt_name" v="Hosom, nedre;Hosum" />
		<tag k="name" v="Nedre Hosom" />
		<tag k="place" v="isolated_dwelling" />
		<tag k="ssr:stedsnr" v="548506" />
	</node>
	<node lat="59.37794166409718" lon="8.572441665697632" id="-23348">
		<tag k="historic" v="shieling" />
		<tag k="name" v="Listaul" />
		<tag k="place" v="isolated_dwelling" />
		<tag k="ssr:stedsnr" v="548755" />
	</node>
	<node lat="59.38280833173331" lon="8.510686118633416" id="-23349">
		<tag k="name" v="Viki" />
		<tag k="place" v="isolated_dwelling" />
		<tag k="ssr:stedsnr" v="548771" />
	</node>
	<node lat="59.40530555678847" lon="8.628616661316327" id="-23351">
		<tag k="name" v="Mørkvasstaulen" />
		<tag k="place" v="isolated_dwelling" />
		<tag k="ssr:stedsnr" v="548954" />
	</node>
	<node lat="59.483469441368285" lon="8.346555555605494" id="-23356">
		<tag k="loc_name" v="Rjupestaul" />
		<tag k="name" v="Rupestaul" />
		<tag k="place" v="farm" />
		<tag k="ssr:stedsnr" v="694523" />
	</node>
	<node lat="59.32126388738826" lon="8.469708333978952" id="-23358">
		<tag k="name" v="Vetun" />
		<tag k="place" v="isolated_dwelling" />
		<tag k="ssr:stedsnr" v="595050" />
	</node>
	<node lat="59.4025111131724" lon="8.444291667483848" id="-23359">
		<tag k="name" v="Vestigard Tveit" />
		<tag k="place" v="farm" />
		<tag k="ssr:stedsnr" v="595001" />
	</node>
	<node lat="59.515152776254475" lon="8.401938891061217" id="-23367">
		<tag k="name" v="Fjøllstaul" />
		<tag k="place" v="locality" />
		<tag k="ssr:stedsnr" v="595153" />
	</node>
	<node lat="59.41085555328417" lon="8.495788882687965" id="-23368">
		<tag k="name" v="Høydal" />
		<tag k="place" v="locality" />
		<tag k="ssr:stedsnr" v="595156" />
	</node>
	<node lat="59.509963893109315" lon="8.426802777986433" id="-23370">
		<tag k="name" v="Stuvli" />
		<tag k="place" v="locality" />
		<tag k="ssr:stedsnr" v="595164" />
	</node>
	<node lat="59.40338055814337" lon="8.46999444066238" id="-23371">
		<tag k="name" v="Syftestad" />
		<tag k="place" v="farm" />
		<tag k="ssr:stedsnr" v="595201" />
	</node>
	<node lat="59.30917222007153" lon="8.394722230023955" id="-23372">
		<tag k="name" v="Skarstøyl" />
		<tag k="place" v="locality" />
		<tag k="ssr:stedsnr" v="595454" />
	</node>
	<node lat="59.48692777914442" lon="8.406269444926632" id="-23375">
		<tag k="name" v="Sagamostaul" />
		<tag k="place" v="locality" />
		<tag k="ssr:stedsnr" v="595519" />
	</node>
	<node lat="59.386366665447" lon="8.41005277977014" id="-23380">
		<tag k="name" v="Stekkjen" />
		<tag k="place" v="locality" />
		<tag k="ssr:stedsnr" v="595650" />
	</node>
	<node lat="59.42507222480855" lon="8.46671111063617" id="-23382">
		<tag k="name" v="Slotet" />
		<tag k="place" v="locality" />
		<tag k="ssr:stedsnr" v="595666" />
	</node>
	<node lat="59.38433794268126" lon="8.525612104250705" id="-23405">
		<tag k="name" v="Kleivstaul" />
		<tag k="place" v="isolated_dwelling" />
		<tag k="ssr:stedsnr" v="596219" />
	</node>
	<node lat="59.39906138630411" lon="8.504552783973132" id="-23426">
		<tag k="name" v="Høgheim" />
		<tag k="place" v="isolated_dwelling" />
		<tag k="ssr:stedsnr" v="596720" />
	</node>
	<node lat="59.35554166834436" lon="8.283691664086444" id="-23429">
		<tag k="name" v="Homme søndre" />
		<tag k="place" v="farm" />
		<tag k="ssr:stedsnr" v="596754" />
	</node>
	<node lat="59.30479266696138" lon="8.708203738535914" id="-23443">
		<tag k="name" v="Linjore" />
		<tag k="place" v="locality" />
		<tag k="ssr:stedsnr" v="597399" />
	</node>
	<node lat="59.27692153725524" lon="8.795284718396545" id="-23445">
		<tag k="name" v="Sporastaul" />
		<tag k="place" v="locality" />
		<tag k="ssr:stedsnr" v="597514" />
	</node>
	<node lat="59.34019168496857" lon="8.254634787310978" id="-23452">
		<tag k="name" v="Solberg" />
		<tag k="place" v="locality" />
		<tag k="ssr:stedsnr" v="598699" />
	</node>
	<node lat="59.35114518641365" lon="8.180319658351836" id="-23458">
		<tag k="name" v="Vesle-Naper" />
		<tag k="place" v="locality" />
		<tag k="ssr:stedsnr" v="598900" />
	</node>
	<node lat="59.35503333462519" lon="8.29971945283547" id="-23463">
		<tag k="fixme" v="consider place=hamlet" />
		<tag k="name" v="Flatland" />
		<tag k="place" v="farm" />
		<tag k="ssr:stedsnr" v="608351" />
	</node>
	<node lat="59.356633335497484" lon="8.370886115653454" id="-23464">
		<tag k="name" v="Hovden" />
		<tag k="place" v="isolated_dwelling" />
		<tag k="ssr:stedsnr" v="608355" />
	</node>
	<node lat="59.46299166445017" lon="8.446983333121823" id="-23465">
		<tag k="name" v="Kaldåk" />
		<tag k="place" v="farm" />
		<tag k="ssr:stedsnr" v="608391" />
	</node>
	<node lat="59.45820277884546" lon="8.358291661258313" id="-23466">
		<tag k="name" v="Lauvås" />
		<tag k="place" v="isolated_dwelling" />
		<tag k="ssr:stedsnr" v="608395" />
	</node>
	<node lat="59.37435277869773" lon="8.5243055591674" id="-23467">
		<tag k="alt_name" v="Nes" />
		<tag k="fixme" v="consider place=hamlet" />
		<tag k="name" v="Neset" />
		<tag k="place" v="farm" />
		<tag k="ssr:stedsnr" v="608806" />
	</node>
	<node lat="59.36350000199508" lon="8.499705547139689" id="-23469">
		<tag k="name" v="Haugan" />
		<tag k="place" v="farm" />
		<tag k="ssr:stedsnr" v="608828" />
	</node>
	<node lat="59.419702777010436" lon="8.510125007540937" id="-23470">
		<tag k="alt_name" v="Tjørnstaul" />
		<tag k="name" v="Tjønnstaul" />
		<tag k="place" v="isolated_dwelling" />
		<tag k="ssr:stedsnr" v="608931" />
	</node>
	<node lat="59.3863333372523" lon="8.479688883601208" id="-23471">
		<tag k="name" v="Meinstad" />
		<tag k="place" v="farm" />
		<tag k="ssr:stedsnr" v="608793" />
	</node>
	<node lat="59.45283889297447" lon="8.559608338031149" id="-23472">
		<tag k="name" v="Ramskeid" />
		<tag k="place" v="farm" />
		<tag k="ssr:stedsnr" v="609085" />
	</node>
	<node lat="59.445547224362976" lon="8.582133332051804" id="-23473">
		<tag k="name" v="Saltvoll" />
		<tag k="place" v="farm" />
		<tag k="ssr:stedsnr" v="609088" />
	</node>
	<node lat="59.28950555822618" lon="8.439477778844328" id="-23475">
		<tag k="name" v="Mydalen" />
		<tag k="place" v="isolated_dwelling" />
		<tag k="ssr:stedsnr" v="609204" />
	</node>
	<node lat="59.29313610878002" lon="8.34416111452965" id="-23476">
		<tag k="name" v="Tjørnstøyl" />
		<tag k="place" v="locality" />
		<tag k="ssr:stedsnr" v="609218" />
	</node>
	<node lat="59.34041944128456" lon="8.27133056372929" id="-23477">
		<tag k="name" v="Kilen" />
		<tag k="place" v="farm" />
		<tag k="ssr:stedsnr" v="609313" />
	</node>
	<node lat="59.32638724240661" lon="8.803573715904802" id="-23483">
		<tag k="alt_name" v="Rusodden" />
		<tag k="name" v="Rudsodden" />
		<tag k="place" v="farm" />
		<tag k="ssr:stedsnr" v="609592" />
	</node>
	<node lat="59.490263885521614" lon="8.402444439836907" id="-23485">
		<tag k="alt_name" v="Subø" />
		<tag k="fixme" v="consider place=hamlet" />
		<tag k="name" v="Sudbø" />
		<tag k="place" v="farm" />
		<tag k="ssr:stedsnr" v="609937" />
	</node>
	<node lat="59.29983611302119" lon="8.526977777815947" id="-23488">
		<tag k="name" v="Slokvik" />
		<tag k="place" v="farm" />
		<tag k="ssr:stedsnr" v="609685" />
	</node>
	<node lat="59.341625002418034" lon="8.580547229279835" id="-23490">
		<tag k="name" v="Lindestad" />
		<tag k="place" v="isolated_dwelling" />
		<tag k="ssr:stedsnr" v="609831" />
	</node>
	<node lat="59.46200555794297" lon="8.448786116331942" id="-23491">
		<tag k="name" v="Kallåk øvre" />
		<tag k="place" v="farm" />
		<tag k="ssr:stedsnr" v="655307" />
	</node>
	<node lat="59.46295833446617" lon="8.446458328973087" id="-23492">
		<tag k="name" v="Kallåk midtigard" />
		<tag k="place" v="farm" />
		<tag k="ssr:stedsnr" v="655308" />
	</node>
	<node lat="59.489416668383654" lon="8.455613881969262" id="-23494">
		<tag k="name" v="Ytterbø" />
		<tag k="place" v="locality" />
		<tag k="ssr:stedsnr" v="655499" />
	</node>
	<node lat="59.48519721787459" lon="8.396625006280495" id="-23496">
		<tag k="name" v="Nordre Berge" />
		<tag k="place" v="farm" />
		<tag k="ssr:stedsnr" v="655506" />
	</node>
	<node lat="59.48507500307875" lon="8.39355555802234" id="-23497">
		<tag k="name" v="Skogstad" />
		<tag k="place" v="isolated_dwelling" />
		<tag k="ssr:stedsnr" v="655509" />
	</node>
	<node lat="59.42371389094916" lon="8.444616674857432" id="-23499">
		<tag k="name" v="Åland" />
		<tag k="place" v="farm" />
		<tag k="ssr:stedsnr" v="655682" />
	</node>
	<node lat="59.41479722259077" lon="8.376719447745266" id="-23500">
		<tag k="historic" v="shieling" />
		<tag k="name" v="Åneroe" />
		<tag k="place" v="isolated_dwelling" />
		<tag k="ssr:stedsnr" v="655812" />
	</node>
	<node lat="59.404830557217" lon="8.489116671253216" id="-23506">
		<tag k="name" v="Høgvoll" />
		<tag k="place" v="quarter" />
		<tag k="ssr:stedsnr" v="656182" />
	</node>
	<node lat="59.450600004262924" lon="8.332972213667208" id="-23512">
		<tag k="name" v="Årdalen" />
		<tag k="place" v="isolated_dwelling" />
		<tag k="ssr:stedsnr" v="656640" />
	</node>
	<node lat="59.44229722426973" lon="8.430750007169115" id="-23513">
		<tag k="name" v="Vårstaulen" />
		<tag k="place" v="locality" />
		<tag k="ssr:stedsnr" v="656681" />
	</node>
	<node lat="59.415797220272346" lon="8.36431388817462" id="-23527">
		<tag k="historic" v="shieling" />
		<tag k="name" v="Bjørgulvstaul" />
		<tag k="place" v="isolated_dwelling" />
		<tag k="ssr:stedsnr" v="656932" />
	</node>
	<node lat="59.44635832899584" lon="8.430947214888537" id="-23528">
		<tag k="historic" v="shieling" />
		<tag k="name" v="Lintveit" />
		<tag k="place" v="isolated_dwelling" />
		<tag k="ssr:stedsnr" v="656934" />
	</node>
	<node lat="59.316566669459775" lon="8.361424996734616" id="-23531">
		<tag k="name" v="Nosterdal" />
		<tag k="place" v="isolated_dwelling" />
		<tag k="ssr:stedsnr" v="656987" />
	</node>
	<node lat="59.26253745245866" lon="8.527186474380924" id="-23538">
		<tag k="name" v="Myrvoll" />
		<tag k="place" v="isolated_dwelling" />
		<tag k="ssr:stedsnr" v="657239" />
	</node>
	<node lat="59.4849166689313" lon="8.347461116351894" id="-23543">
		<tag k="historic" v="shieling" />
		<tag k="name" v="Rupestaul" />
		<tag k="place" v="isolated_dwelling" />
		<tag k="ssr:stedsnr" v="657316" />
	</node>
	<node lat="59.42943333127504" lon="8.421061114454636" id="-23544">
		<tag k="name" v="Grasberg" />
		<tag k="place" v="locality" />
		<tag k="ssr:stedsnr" v="657317" />
	</node>
	<node lat="59.48074444320814" lon="8.368619442013294" id="-23545">
		<tag k="name" v="Kvennes" />
		<tag k="place" v="locality" />
		<tag k="ssr:stedsnr" v="657393" />
	</node>
	<node lat="59.48539444222261" lon="8.404477772348883" id="-23553">
		<tag k="name" v="Haugen" />
		<tag k="place" v="farm" />
		<tag k="ssr:stedsnr" v="657693" />
	</node>
	<node lat="59.363277776467086" lon="8.170447218616427" id="-23555">
		<tag k="name" v="Vårstaulen" />
		<tag k="place" v="quarter" />
		<tag k="ssr:stedsnr" v="657813" />
	</node>
	<node lat="59.48105833527577" lon="8.397158330237152" id="-23556">
		<tag k="name" v="Ringsevju" />
		<tag k="place" v="locality" />
		<tag k="ssr:stedsnr" v="657820" />
	</node>
	<node lat="59.3988508880841" lon="8.504077159855454" id="-23557">
		<tag k="name" v="Vegheim" />
		<tag k="place" v="isolated_dwelling" />
		<tag k="ssr:stedsnr" v="657721" />
	</node>
	<node lat="59.39751997717" lon="8.54130451751195" id="-23558">
		<tag k="historic" v="shieling" />
		<tag k="name" v="Hovstaul" />
		<tag k="place" v="isolated_dwelling" />
		<tag k="ssr:stedsnr" v="657789" />
	</node>
	<node lat="59.39589047621231" lon="8.52715575623211" id="-23559">
		<tag k="historic" v="shieling" />
		<tag k="name" v="Bekkhus" />
		<tag k="place" v="isolated_dwelling" />
		<tag k="ssr:stedsnr" v="657790" />
	</node>
	<node lat="59.389339674366624" lon="8.51301853242655" id="-23560">
		<tag k="name" v="Nybø" />
		<tag k="place" v="isolated_dwelling" />
		<tag k="ssr:stedsnr" v="657917" />
	</node>
	<node lat="59.467113891080075" lon="8.476247220361744" id="-23562">
		<tag k="name" v="Sprangreid" />
		<tag k="place" v="locality" />
		<tag k="ssr:stedsnr" v="657988" />
	</node>
	<node lat="59.386797342690954" lon="8.517277049981347" id="-23564">
		<tag k="name" v="Lauvlund" />
		<tag k="place" v="isolated_dwelling" />
		<tag k="ssr:stedsnr" v="657991" />
	</node>
	<node lat="59.43110104681476" lon="8.41830395524425" id="-23575">
		<tag k="name" v="Sveiven" />
		<tag k="place" v="locality" />
		<tag k="ssr:stedsnr" v="659732" />
	</node>
	<node lat="59.39850054817798" lon="8.254651722843397" id="-23578">
		<tag k="name" v="Sud-Gulnes" />
		<tag k="place" v="locality" />
		<tag k="ssr:stedsnr" v="659833" />
	</node>
	<node lat="59.272358334668155" lon="8.366405564202358" id="-23586">
		<tag k="name" v="Grimdalen" />
		<tag k="place" v="isolated_dwelling" />
		<tag k="ssr:stedsnr" v="669189" />
	</node>
	<node lat="59.40189999753479" lon="8.352911115629134" id="-23590">
		<tag k="fixme" v="consider place=hamlet" />
		<tag k="name" v="Uddedalen" />
		<tag k="place" v="farm" />
		<tag k="ssr:stedsnr" v="669482" />
	</node>
	<node lat="59.49478888918713" lon="8.338099995111126" id="-23593">
		<tag k="name" v="Olavstaul" />
		<tag k="place" v="isolated_dwelling" />
		<tag k="ssr:stedsnr" v="669877" />
	</node>
	<node lat="59.47694167119868" lon="8.48579722791611" id="-23594">
		<tag k="fixme" v="consider place=hamlet" />
		<tag k="name" v="Hosleberg" />
		<tag k="place" v="farm" />
		<tag k="ssr:stedsnr" v="670023" />
	</node>
	<node lat="59.36967500096774" lon="8.545730556547028" id="-23596">
		<tag k="name" v="Holteviki" />
		<tag k="place" v="isolated_dwelling" />
		<tag k="ssr:stedsnr" v="669778" />
	</node>
	<node lat="59.42039722617975" lon="8.588030564089326" id="-23599">
		<tag k="alt_name" v="Mevastaul" />
		<tag k="name" v="Mevasstaul" />
		<tag k="place" v="farm" />
		<tag k="ssr:stedsnr" v="669910" />
	</node>
	<node lat="59.452938891277824" lon="8.318758341614421" id="-23604">
		<tag k="name" v="Moen" />
		<tag k="place" v="farm" />
		<tag k="ssr:stedsnr" v="670394" />
	</node>
	<node lat="59.263836113496176" lon="8.591272214508066" id="-23605">
		<tag k="name" v="Buin" />
		<tag k="place" v="locality" />
		<tag k="ssr:stedsnr" v="670474" />
	</node>
	<node lat="59.322291664045466" lon="8.820091670638488" id="-23607">
		<tag k="name" v="Holdnes" />
		<tag k="place" v="isolated_dwelling" />
		<tag k="ssr:stedsnr" v="670614" />
	</node>
	<node lat="59.316664902518845" lon="8.519459595873407" id="-23608">
		<tag k="alt_name" v="Lønnegraff" />
		<tag k="fixme" v="consider place=hamlet" />
		<tag k="name" v="Lønnegrav" />
		<tag k="place" v="farm" />
		<tag k="ssr:stedsnr" v="670618" />
	</node>
	<node lat="59.31782499964039" lon="8.68377499533582" id="-23609">
		<tag k="alt_name" v="Rue" />
		<tag k="name" v="Rui" />
		<tag k="place" v="farm" />
		<tag k="ssr:stedsnr" v="670668" />
	</node>
	<node lat="59.51230278119884" lon="8.39578610780671" id="-23611">
		<tag k="alt_name" v="Kåvli" />
		<tag k="historic" v="shieling" />
		<tag k="name" v="Koveli" />
		<tag k="place" v="isolated_dwelling" />
		<tag k="ssr:stedsnr" v="671508" />
	</node>
	<node lat="59.41168889265758" lon="8.479058339502185" id="-23623">
		<tag k="name" v="Stokkeland" />
		<tag k="place" v="farm" />
		<tag k="ssr:stedsnr" v="717205" />
	</node>
	<node lat="59.413833336701515" lon="8.454324998319429" id="-23626">
		<tag k="alt_name" v="Øvre Øyene" />
		<tag k="fixme" v="consider place=hamlet" />
		<tag k="name" v="Øyan øvre" />
		<tag k="place" v="farm" />
		<tag k="ssr:stedsnr" v="717229" />
	</node>
	<node lat="59.482669448838344" lon="8.295336102652312" id="-23627">
		<tag k="name" v="Nasgrav" />
		<tag k="place" v="locality" />
		<tag k="ssr:stedsnr" v="717243" />
	</node>
	<node lat="59.491455553175385" lon="8.40076943706483" id="-23631">
		<tag k="name" v="Selberg" />
		<tag k="place" v="isolated_dwelling" />
		<tag k="ssr:stedsnr" v="717186" />
	</node>
	<node lat="59.40445555422023" lon="8.494230564020215" id="-23632">
		<tag k="name" v="Opsund sudigard" />
		<tag k="place" v="farm" />
		<tag k="ssr:stedsnr" v="717190" />
	</node>
	<node lat="59.42411388900081" lon="8.441224996429892" id="-23634">
		<tag k="name" v="Jore" />
		<tag k="place" v="farm" />
		<tag k="ssr:stedsnr" v="717315" />
	</node>
	<node lat="59.40822222407514" lon="8.490508329943703" id="-23636">
		<tag k="name" v="Solbakken" />
		<tag k="place" v="isolated_dwelling" />
		<tag k="ssr:stedsnr" v="899177" />
	</node>
	<node lat="59.40604444745763" lon="8.48467778346193" id="-23637">
		<tag k="name" v="Rising" />
		<tag k="place" v="isolated_dwelling" />
		<tag k="ssr:stedsnr" v="899187" />
	</node>
	<node lat="59.40148333290185" lon="8.42247221737604" id="-23639">
		<tag k="name" v="Raukleiv" />
		<tag k="place" v="farm" />
		<tag k="ssr:stedsnr" v="717431" />
	</node>
	<node lat="59.397836112663875" lon="8.480011112273084" id="-23641">
		<tag k="name" v="Bakken" />
		<tag k="place" v="isolated_dwelling" />
		<tag k="ssr:stedsnr" v="717618" />
	</node>
	<node lat="59.40206667050176" lon="8.468922230699716" id="-23647">
		<tag k="name" v="Landsverk" />
		<tag k="place" v="isolated_dwelling" />
		<tag k="ssr:stedsnr" v="899223" />
	</node>
	<node lat="59.552852781595796" lon="8.36412222035465" id="-23661">
		<tag k="historic" v="shieling" />
		<tag k="name" v="Rødokkstaul" />
		<tag k="place" v="isolated_dwelling" />
		<tag k="ssr:stedsnr" v="718019" />
	</node>
	<node lat="59.30781449461695" lon="8.559264146743407" id="-23662">
		<tag k="historic" v="shieling" />
		<tag k="name" v="Øvstekøs" />
		<tag k="place" v="isolated_dwelling" />
		<tag k="ssr:stedsnr" v="718023" />
	</node>
	<node lat="59.46227777916866" lon="8.444936102270349" id="-23669">
		<tag k="name" v="Kallåk søndre" />
		<tag k="place" v="farm" />
		<tag k="ssr:stedsnr" v="899315" />
	</node>
	<node lat="59.37041666365519" lon="8.432219440893522" id="-23672">
		<tag k="name" v="Furustaul" />
		<tag k="place" v="locality" />
		<tag k="ssr:stedsnr" v="717992" />
	</node>
	<node lat="59.379558329494756" lon="8.429797226738877" id="-23673">
		<tag k="name" v="Kassneshytta" />
		<tag k="place" v="isolated_dwelling" />
		<tag k="ssr:stedsnr" v="717995" />
	</node>
	<node lat="59.31786876253704" lon="8.674370316363351" id="-23698">
		<tag k="name" v="Nykos" />
		<tag k="place" v="locality" />
		<tag k="ssr:stedsnr" v="718687" />
	</node>
	<node lat="59.46536389003342" lon="8.45905277902155" id="-23702">
		<tag k="name" v="Glosimot" />
		<tag k="place" v="locality" />
		<tag k="ssr:stedsnr" v="899322" />
	</node>
	<node lat="59.46166666557966" lon="8.434147224132966" id="-23710">
		<tag k="name" v="Bakken" />
		<tag k="place" v="farm" />
		<tag k="ssr:stedsnr" v="718871" />
	</node>
	<node lat="59.300163431699524" lon="8.749055489545176" id="-23722">
		<tag k="name" v="Øygarden" />
		<tag k="place" v="farm" />
		<tag k="ssr:stedsnr" v="719524" />
	</node>
	<node lat="59.31792573964008" lon="8.770644855444933" id="-23725">
		<tag k="name" v="Fiskarbekk søndre" />
		<tag k="place" v="farm" />
		<tag k="ssr:stedsnr" v="719576" />
	</node>
	<node lat="59.38356388565485" lon="8.461658329185322" id="-23729">
		<tag k="name" v="Skarprud søndre" />
		<tag k="place" v="farm" />
		<tag k="ssr:stedsnr" v="899555" />
	</node>
	<node lat="59.38742499859384" lon="8.455191665245225" id="-23732">
		<tag k="name" v="Solhaug" />
		<tag k="place" v="isolated_dwelling" />
		<tag k="ssr:stedsnr" v="899547" />
	</node>
	<node lat="59.45193333341985" lon="8.358997219558827" id="-23734">
		<tag k="name" v="Tykkfit" />
		<tag k="place" v="locality" />
		<tag k="ssr:stedsnr" v="899598" />
	</node>
	<node lat="59.343262785115876" lon="8.259057650629419" id="-23739">
		<tag k="name" v="Holskil" />
		<tag k="place" v="locality" />
		<tag k="ssr:stedsnr" v="720733" />
	</node>
	<node lat="59.33974937239915" lon="8.246012827332244" id="-23740">
		<tag k="name" v="Nedrebø" />
		<tag k="place" v="locality" />
		<tag k="ssr:stedsnr" v="720734" />
	</node>
	<node lat="59.4340555583977" lon="8.465105562880025" id="-23741">
		<tag k="name" v="Landerud" />
		<tag k="place" v="locality" />
		<tag k="ssr:stedsnr" v="899637" />
	</node>
	<node lat="59.44115833103056" lon="8.416594443318893" id="-23748">
		<tag k="name" v="Sjodal" />
		<tag k="place" v="locality" />
		<tag k="ssr:stedsnr" v="899671" />
	</node>
	<node lat="59.359939923579056" lon="8.246971745651276" id="-23753">
		<tag k="name" v="Åmter" />
		<tag k="place" v="locality" />
		<tag k="ssr:stedsnr" v="720982" />
	</node>
	<node lat="59.40185833266293" lon="8.367902783878232" id="-23766">
		<tag k="name" v="Landsverk" />
		<tag k="place" v="locality" />
		<tag k="ssr:stedsnr" v="899881" />
	</node>
	<node lat="59.44562778093414" lon="8.44050000270296" id="-23767">
		<tag k="name" v="Haugjord" />
		<tag k="place" v="locality" />
		<tag k="ssr:stedsnr" v="899936" />
	</node>
	<node lat="59.55199444057417" lon="8.364986114225747" id="-23779">
		<tag k="historic" v="shieling" />
		<tag k="name" v="Rødokkstaul" />
		<tag k="place" v="isolated_dwelling" />
		<tag k="ssr:stedsnr" v="900001" />
	</node>
	<node lat="59.275924424484074" lon="8.52315213558032" id="-23785">
		<tag k="name" v="Løyning" />
		<tag k="place" v="isolated_dwelling" />
		<tag k="ssr:stedsnr" v="900238" />
	</node>
	<node lat="59.38678989816401" lon="8.526394514939668" id="-23786">
		<tag k="name" v="Kleivstaul nedre" />
		<tag k="place" v="farm" />
		<tag k="ssr:stedsnr" v="900246" />
	</node>
	<node lat="59.373431181897296" lon="8.533087049793874" id="-23796">
		<tag k="name" v="Kjelldal" />
		<tag k="place" v="isolated_dwelling" />
		<tag k="ssr:stedsnr" v="900351" />
	</node>
	<node lat="59.4150138895448" lon="8.4304694461448" id="-23797">
		<tag k="historic" v="shieling" />
		<tag k="name" v="Badstogkosi" />
		<tag k="place" v="isolated_dwelling" />
		<tag k="ssr:stedsnr" v="900428" />
	</node>
	<node lat="59.29311830797055" lon="8.674142437450875" id="-23801">
		<tag k="historic" v="shieling" />
		<tag k="name" v="Nystaul" />
		<tag k="place" v="isolated_dwelling" />
		<tag k="ssr:stedsnr" v="900380" />
	</node>
	<node lat="59.31650850282839" lon="8.519574674059866" id="-23815">
		<tag k="name" v="Øvre Lønnegrav" />
		<tag k="place" v="isolated_dwelling" />
		<tag k="ssr:stedsnr" v="900691" />
	</node>
	<node lat="59.318200200275626" lon="8.504215291738763" id="-23817">
		<tag k="name" v="Juvland" />
		<tag k="place" v="isolated_dwelling" />
		<tag k="ssr:stedsnr" v="900695" />
	</node>
	<node lat="59.3982824315587" lon="8.498581981060784" id="-23818">
		<tag k="fixme" v="consider place=hamlet" />
		<tag k="name" v="Midtsund nordre" />
		<tag k="place" v="farm" />
		<tag k="ssr:stedsnr" v="900751" />
	</node>
	<node lat="59.31222299659171" lon="8.514074695121428" id="-23819">
		<tag k="name" v="Lislekos" />
		<tag k="place" v="isolated_dwelling" />
		<tag k="ssr:stedsnr" v="900823" />
	</node>
	<node lat="59.35478889157798" lon="8.29220278113124" id="-23820">
		<tag k="name" v="Årbakk" />
		<tag k="place" v="isolated_dwelling" />
		<tag k="ssr:stedsnr" v="900781" />
	</node>
	<node lat="59.396139084310406" lon="8.50735910650345" id="-23822">
		<tag k="name" v="Furuheim" />
		<tag k="place" v="farm" />
		<tag k="ssr:stedsnr" v="900869" />
	</node>
	<node lat="59.39068875598294" lon="8.514255893400588" id="-23823">
		<tag k="name" v="Lia" />
		<tag k="place" v="isolated_dwelling" />
		<tag k="ssr:stedsnr" v="900837" />
	</node>
	<node lat="59.3808401164533" lon="8.523382814125164" id="-23832">
		<tag k="name" v="Reine" />
		<tag k="place" v="isolated_dwelling" />
		<tag k="ssr:stedsnr" v="900941" />
	</node>
	<node lat="59.37750000280834" lon="8.295408327746337" id="-23835">
		<tag k="name" v="Gaukstøylhytta" />
		<tag k="place" v="isolated_dwelling" />
		<tag k="ssr:stedsnr" v="900985" />
	</node>
	<node lat="59.30095326172141" lon="8.70380852236833" id="-23838">
		<tag k="leisure" v="park" />
		<tag k="name" v="Kyrkjegard" />
		<tag k="ssr:stedsnr" v="901108" />
	</node>
	<node lat="59.444488891768444" lon="8.53957778291838" id="-23841">
		<tag k="name" v="Hesteskodiket" />
		<tag k="place" v="farm" />
		<tag k="ssr:stedsnr" v="730068" />
	</node>
	<node lat="59.452591664225736" lon="8.57490278099453" id="-23842">
		<tag k="name" v="Tollehommen" />
		<tag k="place" v="farm" />
		<tag k="ssr:stedsnr" v="730074" />
	</node>
	<node lat="59.33229444676392" lon="8.35922499610071" id="-23844">
		<tag k="name" v="Askedalen" />
		<tag k="place" v="isolated_dwelling" />
		<tag k="ssr:stedsnr" v="730177" />
	</node>
	<node lat="59.331127779713235" lon="8.615788883782217" id="-23850">
		<tag k="name" v="Pekeberg" />
		<tag k="place" v="isolated_dwelling" />
		<tag k="ssr:stedsnr" v="730879" />
	</node>
	<node lat="59.26362019146667" lon="8.560969810389723" id="-23851">
		<tag k="name" v="Normannhytta" />
		<tag k="place" v="isolated_dwelling" />
		<tag k="ssr:stedsnr" v="901219" />
	</node>
	<node lat="59.37168889170489" lon="8.244000006455272" id="-23859">
		<tag k="historic" v="shieling" />
		<tag k="name" v="Støyldalen" />
		<tag k="place" v="isolated_dwelling" />
		<tag k="ssr:stedsnr" v="731223" />
	</node>
	<node lat="59.30973333674516" lon="8.527491664539298" id="-23864">
		<tag k="name" v="Dalen" />
		<tag k="place" v="isolated_dwelling" />
		<tag k="ssr:stedsnr" v="731622" />
	</node>
	<node lat="59.296852778655584" lon="8.735741672729615" id="-23865">
		<tag k="name" v="Teigen" />
		<tag k="place" v="farm" />
		<tag k="ssr:stedsnr" v="731655" />
	</node>
	<node lat="59.29483888592989" lon="8.730858329345208" id="-23867">
		<tag k="alt_name" v="Bergsto" />
		<tag k="name" v="Bergstod" />
		<tag k="place" v="farm" />
		<tag k="ssr:stedsnr" v="731663" />
	</node>
	<node lat="59.313761355552884" lon="8.689413869634862" id="-23874">
		<tag k="name" v="Bukasin" />
		<tag k="place" v="locality" />
		<tag k="ssr:stedsnr" v="901474" />
	</node>
	<node lat="59.35853165456262" lon="8.669264635744346" id="-23876">
		<tag k="name" v="Sandtjønnhytta" />
		<tag k="place" v="isolated_dwelling" />
		<tag k="ssr:stedsnr" v="901572" />
	</node>
	<node lat="59.30368895736303" lon="8.769017460411693" id="-23877">
		<tag k="name" v="Busettbakken" />
		<tag k="place" v="isolated_dwelling" />
		<tag k="ssr:stedsnr" v="901546" />
	</node>
	<node lat="59.41683031688161" lon="8.47475841438477" id="-23888">
		<tag k="name" v="Haddeland" />
		<tag k="place" v="farm" />
		<tag k="ssr:stedsnr" v="902678" />
	</node>
	<node lat="59.357519894428435" lon="8.24715930464968" id="-23889">
		<tag k="name" v="Åmterskotet" />
		<tag k="place" v="locality" />
		<tag k="ssr:stedsnr" v="902731" />
	</node>
	<node lat="59.42014999663117" lon="8.490752772172382" id="-23901">
		<tag k="name" v="Skrivarholet" />
		<tag k="place" v="locality" />
		<tag k="ssr:stedsnr" v="777500" />
	</node>
	<node lat="59.399763890551796" lon="8.457247217012506" id="-23904">
		<tag k="name" v="Solheim" />
		<tag k="place" v="locality" />
		<tag k="ssr:stedsnr" v="777605" />
	</node>
	<node lat="59.429236115131424" lon="8.433419447799533" id="-23910">
		<tag k="name" v="Nørstrud" />
		<tag k="place" v="farm" />
		<tag k="ssr:stedsnr" v="777657" />
	</node>
	<node lat="59.32312222521088" lon="8.496386110863948" id="-23915">
		<tag k="name" v="Vest Lønnegrav" />
		<tag k="place" v="isolated_dwelling" />
		<tag k="ssr:stedsnr" v="777510" />
	</node>
	<node lat="59.39406388458745" lon="8.4490611078367" id="-23918">
		<tag k="name" v="Nyheim" />
		<tag k="place" v="isolated_dwelling" />
		<tag k="ssr:stedsnr" v="777520" />
	</node>
	<node lat="59.45224721848832" lon="8.355005559608147" id="-23920">
		<tag k="name" v="Solbakken" />
		<tag k="place" v="isolated_dwelling" />
		<tag k="ssr:stedsnr" v="777552" />
	</node>
	<node lat="59.482538891900205" lon="8.377305556155605" id="-23929">
		<tag k="name" v="Havslon" />
		<tag k="place" v="farm" />
		<tag k="ssr:stedsnr" v="778305" />
	</node>
	<node lat="59.427225003747125" lon="8.435605557463141" id="-23931">
		<tag k="name" v="Nystaul" />
		<tag k="place" v="farm" />
		<tag k="ssr:stedsnr" v="778308" />
	</node>
	<node lat="59.42698888889423" lon="8.496697224832092" id="-23932">
		<tag k="name" v="Veslestaul" />
		<tag k="place" v="locality" />
		<tag k="ssr:stedsnr" v="778316" />
	</node>
	<node lat="59.48038610944331" lon="8.372580558837676" id="-23935">
		<tag k="name" v="Lid" />
		<tag k="place" v="farm" />
		<tag k="ssr:stedsnr" v="778322" />
	</node>
	<node lat="59.41123611187802" lon="8.48001665879239" id="-23938">
		<tag k="name" v="Sondbø" />
		<tag k="place" v="farm" />
		<tag k="ssr:stedsnr" v="778209" />
	</node>
	<node lat="59.404258336231486" lon="8.414797214503267" id="-23947">
		<tag k="name" v="Kvæven" />
		<tag k="place" v="isolated_dwelling" />
		<tag k="ssr:stedsnr" v="778406" />
	</node>
	<node lat="59.41781944688631" lon="8.404944450834025" id="-23949">
		<tag k="historic" v="shieling" />
		<tag k="name" v="Transtaul" />
		<tag k="place" v="isolated_dwelling" />
		<tag k="ssr:stedsnr" v="778421" />
	</node>
	<node lat="59.376847218488415" lon="8.470600004584425" id="-23961">
		<tag k="name" v="Midtbøen" />
		<tag k="place" v="locality" />
		<tag k="ssr:stedsnr" v="778804" />
	</node>
	<node lat="59.467138884686456" lon="8.494547220810398" id="-23965">
		<tag k="name" v="Kleivrud" />
		<tag k="place" v="locality" />
		<tag k="ssr:stedsnr" v="778949" />
	</node>
	<node lat="59.479838888837925" lon="8.476316662491316" id="-23967">
		<tag k="name" v="Kvålseth nigard" />
		<tag k="place" v="farm" />
		<tag k="ssr:stedsnr" v="778959" />
	</node>
	<node lat="59.301779760654675" lon="8.699311011713293" id="-23973">
		<tag k="name" v="Haugan" />
		<tag k="place" v="farm" />
		<tag k="ssr:stedsnr" v="779065" />
	</node>
	<node lat="59.36175433696695" lon="8.521363523695314" id="-23978">
		<tag k="name" v="Lyngås" />
		<tag k="place" v="isolated_dwelling" />
		<tag k="ssr:stedsnr" v="779503" />
	</node>
	<node lat="59.30828061379476" lon="8.69712467175897" id="-23980">
		<tag k="fixme" v="consider place=hamlet" />
		<tag k="name" v="Fjågesund" />
		<tag k="place" v="farm" />
		<tag k="ssr:stedsnr" v="779507" />
	</node>
	<node lat="59.364180056604" lon="8.513454905270134" id="-23982">
		<tag k="name" v="Straumhaug" />
		<tag k="place" v="isolated_dwelling" />
		<tag k="ssr:stedsnr" v="779517" />
	</node>
	<node lat="59.30628915842394" lon="8.698077468089338" id="-23983">
		<tag k="name" v="Fjågesund Suigard" />
		<tag k="place" v="farm" />
		<tag k="ssr:stedsnr" v="779454" />
	</node>
	<node lat="59.36557452628726" lon="8.50452729311145" id="-23984">
		<tag k="name" v="Roskifte" />
		<tag k="place" v="locality" />
		<tag k="ssr:stedsnr" v="779463" />
	</node>
	<node lat="59.398261378364396" lon="8.50066837164997" id="-23993">
		<tag k="amenity" v="nursing_home" />
		<tag k="name" v="Kviteseid sjuke- og trygdeheim" />
		<tag k="ssr:stedsnr" v="779761" />
	</node>
	<node lat="59.392684170290174" lon="8.532209857774243" id="-23998">
		<tag k="historic" v="shieling" />
		<tag k="name" v="Furustaul" />
		<tag k="place" v="isolated_dwelling" />
		<tag k="ssr:stedsnr" v="779816" />
	</node>
	<node lat="59.39237771889144" lon="8.512473923447114" id="-24000">
		<tag k="name" v="Kåsi" />
		<tag k="place" v="isolated_dwelling" />
		<tag k="ssr:stedsnr" v="779852" />
	</node>
	<node lat="59.34683697586143" lon="8.241609979992695" id="-24002">
		<tag k="fixme" v="consider place=hamlet" />
		<tag k="name" v="Vrå søndre" />
		<tag k="place" v="farm" />
		<tag k="ssr:stedsnr" v="780651" />
	</node>
	<node lat="59.36649901708111" lon="8.176350218916449" id="-24005">
		<tag k="fixme" v="consider place=hamlet" />
		<tag k="name" v="Vråli" />
		<tag k="place" v="farm" />
		<tag k="ssr:stedsnr" v="780749" />
	</node>
	<node lat="59.32970555855492" lon="8.305866665225732" id="-24011">
		<tag k="alt_name" v="Brøtli" />
		<tag k="name" v="Brotli" />
		<tag k="place" v="isolated_dwelling" />
		<tag k="ssr:stedsnr" v="791316" />
	</node>
	<node lat="59.33724444602873" lon="8.352241658401564" id="-24012">
		<tag k="alt_name" v="Herregården" />
		<tag k="name" v="Herregarden" />
		<tag k="place" v="farm" />
		<tag k="ssr:stedsnr" v="791323" />
	</node>
	<node lat="59.37561944189842" lon="8.262638883735434" id="-24018">
		<tag k="historic" v="shieling" />
		<tag k="name" v="Dårstøyl" />
		<tag k="place" v="isolated_dwelling" />
		<tag k="ssr:stedsnr" v="791258" />
	</node>
	<node lat="59.415983330868855" lon="8.458674996298724" id="-24019">
		<tag k="name" v="Skipsted" />
		<tag k="place" v="farm" />
		<tag k="ssr:stedsnr" v="791436" />
	</node>
	<node lat="59.4772666647804" lon="8.41858332670295" id="-24023">
		<tag k="fixme" v="consider place=hamlet" />
		<tag k="name" v="Morgedal" />
		<tag k="place" v="village" />
		<tag k="ssr:stedsnr" v="791389" />
	</node>
	<node lat="59.34408333044644" lon="8.836572222076846" id="-24032">
		<tag k="name" v="Fisbustaulen" />
		<tag k="place" v="isolated_dwelling" />
		<tag k="ssr:stedsnr" v="791846" />
	</node>
	<node lat="59.43288888514767" lon="8.482625002761692" id="-24033">
		<tag k="name" v="Staulen" />
		<tag k="place" v="farm" />
		<tag k="ssr:stedsnr" v="791890" />
	</node>
	<node lat="59.431649997047764" lon="8.476699997473007" id="-24034">
		<tag k="alt_name" v="Kåsen" />
		<tag k="fixme" v="consider place=hamlet" />
		<tag k="name" v="Kåsi" />
		<tag k="place" v="farm" />
		<tag k="ssr:stedsnr" v="791891" />
	</node>
	<node lat="59.29006111405528" lon="8.806411111268691" id="-24035">
		<tag k="alt_name" v="Øvrestaul" />
		<tag k="name" v="Øverstaul" />
		<tag k="place" v="isolated_dwelling" />
		<tag k="ssr:stedsnr" v="791741" />
	</node>
	<node lat="59.34309999804732" lon="8.196058328438044" id="-24038">
		<tag k="historic" v="shieling" />
		<tag k="name" v="Galtdalen" />
		<tag k="place" v="isolated_dwelling" />
		<tag k="ssr:stedsnr" v="912339" />
	</node>
	<node lat="59.47968332949801" lon="8.484750003694357" id="-24046">
		<tag k="alt_name" v="Midtbøen" />
		<tag k="fixme" v="consider place=hamlet" />
		<tag k="name" v="Midbøen" />
		<tag k="place" v="farm" />
		<tag k="ssr:stedsnr" v="913020" />
	</node>
	<node lat="59.47258055136457" lon="8.494086105705492" id="-24047">
		<tag k="fixme" v="consider place=hamlet" />
		<tag k="name" v="Rui" />
		<tag k="place" v="farm" />
		<tag k="ssr:stedsnr" v="913022" />
	</node>
	<node lat="59.31376110828402" lon="8.456363887980556" id="-24049">
		<tag k="name" v="Kråkenes" />
		<tag k="place" v="farm" />
		<tag k="ssr:stedsnr" v="913144" />
	</node>
	<node lat="59.315602778567616" lon="8.385977777041903" id="-24050">
		<tag k="name" v="Lauve" />
		<tag k="place" v="farm" />
		<tag k="ssr:stedsnr" v="913145" />
	</node>
	<node lat="59.38836111185313" lon="8.462288883416983" id="-24055">
		<tag k="name" v="Bekkhus" />
		<tag k="old_name" v="Brekkhus" />
		<tag k="place" v="farm" />
		<tag k="ssr:stedsnr" v="913295" />
	</node>
	<node lat="59.33460000196821" lon="8.297505553706527" id="-24057">
		<tag k="name" v="Berge" />
		<tag k="place" v="isolated_dwelling" />
		<tag k="ssr:stedsnr" v="913327" />
	</node>
	<node lat="59.442999995911684" lon="8.365511105126231" id="-24058">
		<tag k="fixme" v="consider place=hamlet" />
		<tag k="name" v="Vesterdal" />
		<tag k="place" v="farm" />
		<tag k="ssr:stedsnr" v="913448" />
	</node>
	<node lat="59.43808611041386" lon="8.465744441635653" id="-24059">
		<tag k="alt_name" v="Åmtveit, nedre;Omtveit nordre" />
		<tag k="name" v="Nedre Åmtveit" />
		<tag k="place" v="farm" />
		<tag k="ssr:stedsnr" v="913455" />
	</node>
	<node lat="59.43349646879225" lon="8.397885974371492" id="-24061">
		<tag k="name" v="Dalastaul" />
		<tag k="place" v="locality" />
		<tag k="ssr:stedsnr" v="913463" />
	</node>
	<node lat="59.31545278123979" lon="8.699355556571025" id="-24063">
		<tag k="alt_name" v="Knutskos" />
		<tag k="name" v="Knutskås" />
		<tag k="place" v="isolated_dwelling" />
		<tag k="ssr:stedsnr" v="913655" />
	</node>
	<node lat="59.29850277372544" lon="8.739291668203357" id="-24064">
		<tag k="alt_name" v="Midtbøen" />
		<tag k="name" v="Midbø" />
		<tag k="place" v="farm" />
		<tag k="ssr:stedsnr" v="913664" />
	</node>
	<node lat="59.30461666884459" lon="8.767008337808816" id="-24065">
		<tag k="name" v="Finnsand" />
		<tag k="place" v="isolated_dwelling" />
		<tag k="ssr:stedsnr" v="913679" />
	</node>
	<node lat="59.47602222621844" lon="8.421322217427562" id="-24073">
		<tag k="name" v="Morgedal hotell" />
		<tag k="old_name" v="Morgedal Turisthotell" />
		<tag k="ssr:stedsnr" v="820573" />
		<tag k="tourism" v="hotel" />
	</node>
	<node lat="59.42007499650795" lon="8.465608327732197" id="-24079">
		<tag k="name" v="Espeland" />
		<tag k="place" v="farm" />
		<tag k="ssr:stedsnr" v="838480" />
	</node>
	<node lat="59.49491110847063" lon="8.402033341057974" id="-24081">
		<tag k="name" v="Høgli" />
		<tag k="place" v="locality" />
		<tag k="ssr:stedsnr" v="838608" />
	</node>
	<node lat="59.49239166366313" lon="8.387597221755357" id="-24086">
		<tag k="name" v="Kleppe" />
		<tag k="place" v="locality" />
		<tag k="ssr:stedsnr" v="839139" />
	</node>
	<node lat="59.49234721837464" lon="8.391272222948484" id="-24087">
		<tag k="historic" v="shieling" />
		<tag k="name" v="Nystaul" />
		<tag k="place" v="isolated_dwelling" />
		<tag k="ssr:stedsnr" v="839140" />
	</node>
	<node lat="59.42788611273179" lon="8.431258336225435" id="-24091">
		<tag k="name" v="Haugen" />
		<tag k="place" v="locality" />
		<tag k="ssr:stedsnr" v="839313" />
	</node>
	<node lat="59.43772222560087" lon="8.470108338397882" id="-24092">
		<tag k="name" v="Omtveit søndre" />
		<tag k="place" v="farm" />
		<tag k="ssr:stedsnr" v="839328" />
	</node>
	<node lat="59.41077777963502" lon="8.438908325048915" id="-24104">
		<tag k="name" v="Åsland" />
		<tag k="place" v="farm" />
		<tag k="ssr:stedsnr" v="839412" />
	</node>
	<node lat="59.4059777774867" lon="8.44016666339896" id="-24112">
		<tag k="name" v="Nordjorde" />
		<tag k="place" v="farm" />
		<tag k="ssr:stedsnr" v="839478" />
	</node>
	<node lat="59.494599998661975" lon="8.467397225117818" id="-24114">
		<tag k="name" v="Staulen" />
		<tag k="place" v="farm" />
		<tag k="ssr:stedsnr" v="839628" />
	</node>
	<node lat="59.48991110784699" lon="8.4518972264563" id="-24115">
		<tag k="name" v="Breidalen" />
		<tag k="place" v="locality" />
		<tag k="ssr:stedsnr" v="839631" />
	</node>
	<node lat="59.450072226622645" lon="8.429755556626258" id="-24121">
		<tag k="name" v="Skrottholet" />
		<tag k="place" v="locality" />
		<tag k="ssr:stedsnr" v="839905" />
	</node>
	<node lat="59.35913388010017" lon="8.55345857411351" id="-24131">
		<tag k="name" v="Bukkøy" />
		<tag k="place" v="locality" />
		<tag k="ssr:stedsnr" v="840487" />
	</node>
	<node lat="59.39707064939183" lon="8.502886757477995" id="-24140">
		<tag k="name" v="Sollid" />
		<tag k="place" v="isolated_dwelling" />
		<tag k="ssr:stedsnr" v="840776" />
	</node>
	<node lat="59.39735872016359" lon="8.508579045882115" id="-24141">
		<tag k="name" v="Fjellheim" />
		<tag k="place" v="farm" />
		<tag k="ssr:stedsnr" v="840778" />
	</node>
	<node lat="59.38798635460213" lon="8.530599946168152" id="-24143">
		<tag k="name" v="Kleivstaul øvre" />
		<tag k="place" v="locality" />
		<tag k="ssr:stedsnr" v="840931" />
	</node>
	<node lat="59.33169509522249" lon="8.268697486306698" id="-24148">
		<tag k="historic" v="shieling" />
		<tag k="name" v="Lurås" />
		<tag k="place" v="isolated_dwelling" />
		<tag k="ssr:stedsnr" v="841279" />
	</node>
	<node lat="59.3992977927644" lon="8.24382135271329" id="-24153">
		<tag k="name" v="Kosi" />
		<tag k="place" v="locality" />
		<tag k="ssr:stedsnr" v="841795" />
	</node>
	<node lat="59.35346150168673" lon="8.190430175341069" id="-24154">
		<tag k="name" v="Lauvkosi" />
		<tag k="place" v="locality" />
		<tag k="ssr:stedsnr" v="841903" />
	</node>
	<node lat="59.35604749105843" lon="8.229254957092788" id="-24156">
		<tag k="name" v="Sundevollen" />
		<tag k="place" v="isolated_dwelling" />
		<tag k="ssr:stedsnr" v="841678" />
	</node>
	<node lat="59.356657742462616" lon="8.215346013593157" id="-24158">
		<tag k="name" v="Jordet" />
		<tag k="place" v="locality" />
		<tag k="ssr:stedsnr" v="841885" />
	</node>
	<node lat="59.45175000348982" lon="8.518227784004383" id="-24159">
		<tag k="name" v="Sandland" />
		<tag k="place" v="farm" />
		<tag k="ssr:stedsnr" v="852116" />
	</node>
	<node lat="59.4370222184803" lon="8.473286109430914" id="-24163">
		<tag k="name" v="Åmtveit" />
		<tag k="place" v="farm" />
		<tag k="ssr:stedsnr" v="852075" />
	</node>
	<node lat="59.48688610769174" lon="8.376113897652811" id="-24167">
		<tag k="name" v="Geitarås, vle" />
		<tag k="place" v="locality" />
		<tag k="ssr:stedsnr" v="852405" />
	</node>
	<node lat="59.44114999729864" lon="8.442425000305493" id="-24169">
		<tag k="name" v="Løksli" />
		<tag k="place" v="farm" />
		<tag k="ssr:stedsnr" v="852470" />
	</node>
	<node lat="59.3228000032128" lon="8.825780549401774" id="-24170">
		<tag k="name" v="Rudningen" />
		<tag k="place" v="farm" />
		<tag k="ssr:stedsnr" v="852610" />
	</node>
	<node lat="59.315278397592586" lon="8.509298842790473" id="-24171">
		<tag k="alt_name" v="Lønnemoen" />
		<tag k="name" v="Moen" />
		<tag k="place" v="farm" />
		<tag k="ssr:stedsnr" v="852614" />
	</node>
	<node lat="59.32298055445824" lon="8.496277773320521" id="-24172">
		<tag k="alt_name" v="Lønnegrav, vestre" />
		<tag k="name" v="Vestre Lønnegrav" />
		<tag k="place" v="farm" />
		<tag k="ssr:stedsnr" v="852628" />
	</node>
	<node lat="59.35593888865025" lon="8.583427784879625" id="-24181">
		<tag k="name" v="Kvæven" />
		<tag k="place" v="isolated_dwelling" />
		<tag k="ssr:stedsnr" v="852780" />
	</node>
	<node lat="59.491475002261026" lon="8.435216674997429" id="-24184">
		<tag k="alt_name" v="Krossbakkan" />
		<tag k="name" v="Krossbakken" />
		<tag k="place" v="farm" />
		<tag k="ssr:stedsnr" v="852878" />
	</node>
	<node lat="59.48631388508322" lon="8.395333339403207" id="-24185">
		<tag k="name" v="Bjålandsgrendi" />
		<tag k="place" v="hamlet" />
		<tag k="ssr:stedsnr" v="852880" />
	</node>
	<node lat="59.43457222490481" lon="8.572327775194433" id="-24186">
		<tag k="fixme" v="consider place=hamlet" />
		<tag k="name" v="Kolltveit" />
		<tag k="place" v="farm" />
		<tag k="ssr:stedsnr" v="852881" />
	</node>
	<node lat="59.49038610909521" lon="8.408294451462236" id="-24190">
		<tag k="fixme" v="consider place=hamlet" />
		<tag k="name" v="Haugann" />
		<tag k="place" v="farm" />
		<tag k="ssr:stedsnr" v="899164" />
	</node>
	<node lat="59.409369448856296" lon="8.483180548815902" id="-24192">
		<tag k="name" v="Opsund nordigard" />
		<tag k="place" v="farm" />
		<tag k="ssr:stedsnr" v="899217" />
	</node>
	<node lat="59.40004166699909" lon="8.446358330554158" id="-24196">
		<tag k="name" v="Flatin" />
		<tag k="place" v="farm" />
		<tag k="ssr:stedsnr" v="899522" />
	</node>
	<node lat="59.31325277708178" lon="8.385586103206569" id="-24199">
		<tag k="name" v="Perskøs" />
		<tag k="place" v="locality" />
		<tag k="ssr:stedsnr" v="899485" />
	</node>
	<node lat="59.44595833281472" lon="8.339994441528606" id="-24205">
		<tag k="name" v="Støyle" />
		<tag k="place" v="farm" />
		<tag k="ssr:stedsnr" v="899626" />
	</node>
	<node lat="59.33954166424455" lon="8.411322220378635" id="-24211">
		<tag k="name" v="Halvorsbu" />
		<tag k="place" v="isolated_dwelling" />
		<tag k="ssr:stedsnr" v="899803" />
	</node>
	<node lat="59.4303805581557" lon="8.44901944942658" id="-24221">
		<tag k="name" v="Lyberg" />
		<tag k="place" v="locality" />
		<tag k="ssr:stedsnr" v="900305" />
	</node>
	<node lat="59.42879166739854" lon="8.44918611871842" id="-24222">
		<tag k="name" v="Lauve" />
		<tag k="place" v="farm" />
		<tag k="ssr:stedsnr" v="900306" />
	</node>
	<node lat="59.425763891440134" lon="8.436402770021326" id="-24227">
		<tag k="name" v="Haugtun" />
		<tag k="place" v="isolated_dwelling" />
		<tag k="ssr:stedsnr" v="900324" />
	</node>
	<node lat="59.33335137838786" lon="8.539578136363948" id="-24235">
		<tag k="name" v="Hotell Røken" />
		<tag k="place" v="isolated_dwelling" />
		<tag k="ssr:stedsnr" v="900702" />
	</node>
</osm>
