<?xml version="1.0" encoding="UTF-8"?>
<osm generator="osmapis" version="0.6">
	<node id="-54272" lat="59.4373027759" lon="8.48620554885">
		<tag k="bridge" v="yes" />
		<tag k="layer" v="1" />
		<tag k="name" v="Brunkeberg undergang" />
		<tag k="ssr:stedsnr" v="46526" />
	</node>
	<node id="-54271" lat="59.3159222192" lon="8.36663611354">
		<tag k="bridge" v="yes" />
		<tag k="layer" v="1" />
		<tag k="name" v="Grotåi" />
		<tag k="ssr:stedsnr" v="46515" />
	</node>
	<node id="-58876" lat="59.3256472249" lon="8.42442221363">
		<tag k="bridge" v="yes" />
		<tag k="layer" v="1" />
		<tag k="name" v="Fiskebekk" />
		<tag k="ssr:stedsnr" v="775435" />
	</node>
	<node id="-57851" lat="59.3783504388" lon="8.52744255302">
		<tag k="fixme" v="verify maritime location" />
		<tag k="mooring" v="yes" />
		<tag k="name" v="Drammen" />
		<tag k="place" v="locality" />
		<tag k="ssr:stedsnr" v="354306" />
	</node>
	<node id="-56824" lat="59.3860055572" lon="8.45274999176">
		<tag k="man_made" v="quay" />
		<tag k="name" v="Sandodd" />
		<tag k="place" v="locality" />
		<tag k="ssr:stedsnr" v="49663" />
	</node>
	<node id="-58871" lat="59.3185222267" lon="8.4331694523">
		<tag k="bridge" v="yes" />
		<tag k="layer" v="1" />
		<tag k="name" v="Storstraumen" />
		<tag k="ssr:stedsnr" v="653437" />
	</node>
	<node id="-54260" lat="59.350136173" lon="8.23671347327">
		<tag k="man_made" v="quay" />
		<tag k="name" v="Brygga" />
		<tag k="place" v="locality" />
		<tag k="ssr:stedsnr" v="234710" />
	</node>
	<node id="-54762" lat="59.3595070778" lon="8.78031723731">
		<tag k="name" v="Drengsmyrvelta" />
		<tag k="place" v="locality" />
		<tag k="ssr:stedsnr" v="294347" />
	</node>
	<node id="-57833" lat="59.2944102156" lon="8.67206348548">
		<tag k="name" v="Flasavelta" />
		<tag k="place" v="locality" />
		<tag k="ssr:stedsnr" v="354030" />
	</node>
	<node id="-54755" lat="59.2632758278" lon="8.55782758676">
		<tag k="ford" v="yes" />
		<tag k="name" v="Skinstø" />
		<tag k="place" v="locality" />
		<tag k="ssr:stedsnr" v="294233" />
	</node>
	<node id="-55778" lat="59.2959449931" lon="8.70029106285">
		<tag k="junction" v="yes" />
		<tag k="name" v="Rullebakk" />
		<tag k="place" v="locality" />
		<tag k="ssr:stedsnr" v="718131" />
	</node>
	<node id="-59045" lat="59.3634070202" lon="8.52254579852">
		<tag k="bridge" v="yes" />
		<tag k="layer" v="1" />
		<tag k="name" v="Spjotsodd bru" />
		<tag k="ssr:stedsnr" v="779502" />
	</node>
	<node id="-55260" lat="59.4822111133" lon="8.34586666641">
		<tag k="bridge" v="yes" />
		<tag k="layer" v="1" />
		<tag k="name" v="Rjupestøyl bru" />
		<tag k="ssr:stedsnr" v="411427" />
	</node>
	<node id="-55259" lat="59.3502916634" lon="8.31251666257">
		<tag k="bridge" v="yes" />
		<tag k="layer" v="1" />
		<tag k="name" v="Ravnejuv" />
		<tag k="ssr:stedsnr" v="411426" />
	</node>
	<node id="-54738" lat="59.3961305575" lon="8.37929723051">
		<tag k="highway" v="path" />
		<tag k="name" v="Bjønnfaret" />
		<tag k="ssr:stedsnr" v="293915" />
	</node>
	<node id="-57296" lat="59.4418500041" lon="8.34294722232">
		<tag k="highway" v="path" />
		<tag k="name" v="Ostekleivi" />
		<tag k="ssr:stedsnr" v="170853" />
	</node>
	<node id="-56270" lat="59.3304825311" lon="8.24276728869">
		<tag k="man_made" v="cairn" />
		<tag k="name" v="Varden" />
		<tag k="place" v="locality" />
		<tag k="ssr:stedsnr" v="901241" />
	</node>
	<node id="-54216" lat="59.3032694459" lon="8.77154973213">
		<tag k="fixme" v="verify maritime location" />
		<tag k="mooring" v="yes" />
		<tag k="name" v="Åsestøi" />
		<tag k="place" v="locality" />
		<tag k="ssr:stedsnr" v="233574" />
	</node>
	<node id="-55749" lat="59.395088887" lon="8.42455277773">
		<tag k="fixme" v="verify maritime location" />
		<tag k="mooring" v="yes" />
		<tag k="name" v="Skotalandet" />
		<tag k="place" v="locality" />
		<tag k="ssr:stedsnr" v="717714" />
	</node>
	<node id="-54720" lat="59.4235388859" lon="8.58276388787">
		<tag k="fixme" v="verify maritime location" />
		<tag k="mooring" v="yes" />
		<tag k="name" v="Pramstø" />
		<tag k="place" v="locality" />
		<tag k="ssr:stedsnr" v="293551" />
	</node>
	<node id="-55229" lat="59.3074166674" lon="8.86437777272">
		<tag k="bridge" v="yes" />
		<tag k="layer" v="1" />
		<tag k="name" v="Toningsdalsbrua" />
		<tag k="ssr:stedsnr" v="350410" />
	</node>
	<node id="-55228" lat="59.3215361108" lon="8.34219721685">
		<tag k="bridge" v="yes" />
		<tag k="layer" v="1" />
		<tag k="name" v="Skreebekken" />
		<tag k="ssr:stedsnr" v="350403" />
	</node>
	<node id="-57263" lat="59.4783388884" lon="8.36056943648">
		<tag k="bridge" v="yes" />
		<tag k="layer" v="1" />
		<tag k="name" v="Løke" />
		<tag k="ssr:stedsnr" v="168447" />
	</node>
	<node id="-57262" lat="59.4161638846" lon="8.47798333304">
		<tag k="bridge" v="yes" />
		<tag k="layer" v="1" />
		<tag k="name" v="Holtan" />
		<tag k="ssr:stedsnr" v="168457" />
	</node>
	<node id="-57261" lat="59.4286527809" lon="8.40196111483">
		<tag k="bridge" v="yes" />
		<tag k="layer" v="1" />
		<tag k="name" v="Kvinnandalsbekken" />
		<tag k="ssr:stedsnr" v="168454" />
	</node>
	<node id="-57260" lat="59.3527694488" lon="8.3042972213">
		<tag k="bridge" v="yes" />
		<tag k="layer" v="1" />
		<tag k="name" v="Flatland" />
		<tag k="ssr:stedsnr" v="168452" />
	</node>
	<node id="-57060" lat="59.4492833335" lon="8.4732972254">
		<tag k="highway" v="path" />
		<tag k="name" v="Klemstre" />
		<tag k="ssr:stedsnr" v="110650" />
	</node>
	<node id="-55720" lat="59.4122027778" lon="8.45933888274">
		<tag k="name" v="Øyanvelta" />
		<tag k="place" v="locality" />
		<tag k="ssr:stedsnr" v="717470" />
	</node>
	<node id="-56211" lat="59.3865161723" lon="8.56226785461">
		<tag k="ford" v="yes" />
		<tag k="name" v="Løkvaet" />
		<tag k="place" v="locality" />
		<tag k="ssr:stedsnr" v="900315" />
	</node>
	<node id="-55183" lat="59.361949655" lon="8.2604356275">
		<tag k="ford" v="yes" />
		<tag k="name" v="Vadet" />
		<tag k="place" v="locality" />
		<tag k="ssr:stedsnr" v="477987" />
	</node>
	<node id="-54157" lat="59.410838889" lon="8.43219443945">
		<tag k="highway" v="path" />
		<tag k="name" v="Stigen" />
		<tag k="ssr:stedsnr" v="232397" />
	</node>
	<node id="-55180" lat="59.3992147584" lon="8.25289768419">
		<tag k="fixme" v="verify maritime location" />
		<tag k="mooring" v="yes" />
		<tag k="name" v="Gulnespråmstøi" />
		<tag k="place" v="locality" />
		<tag k="ssr:stedsnr" v="477866" />
	</node>
	<node id="-56715" lat="59.3294281588" lon="8.8112822547">
		<tag k="man_made" v="quay" />
		<tag k="name" v="Kilen brygge" />
		<tag k="place" v="locality" />
		<tag k="ssr:stedsnr" v="963371" />
	</node>
	<node id="-55177" lat="59.3521479045" lon="8.25209249915">
		<tag k="man_made" v="quay" />
		<tag k="name" v="Brygga" />
		<tag k="place" v="locality" />
		<tag k="ssr:stedsnr" v="477726" />
	</node>
	<node id="-58755" lat="59.2978773532" lon="8.68459882945">
		<tag k="highway" v="path" />
		<tag k="name" v="Ånåsvegen" />
		<tag k="ssr:stedsnr" v="597420" />
	</node>
	<node id="-58751" lat="59.3050776262" lon="8.63671745682">
		<tag k="fixme" v="consider highway=path" />
		<tag k="highway" v="track" />
		<tag k="name" v="Tjovikvegen" />
		<tag k="ssr:stedsnr" v="597310" />
	</node>
	<node id="-54933" lat="59.3564444439" lon="8.52255277991">
		<tag k="bridge" v="yes" />
		<tag k="layer" v="1" />
		<tag k="name" v="Kviteseid" />
		<tag k="ssr:stedsnr" v="471479" />
	</node>
	<node id="-56700" lat="59.3148742035" lon="8.6814131709">
		<tag k="junction" v="yes" />
		<tag k="name" v="Slusketorget" />
		<tag k="place" v="locality" />
		<tag k="ssr:stedsnr" v="961708" />
	</node>
	<node id="-58233" lat="59.3870503565" lon="8.49871756822">
		<tag k="fixme" v="verify maritime location" />
		<tag k="mooring" v="yes" />
		<tag k="name" v="Noriland" />
		<tag k="place" v="locality" />
		<tag k="ssr:stedsnr" v="415945" />
	</node>
	<node id="-55672" lat="59.2964393485" lon="8.70326836842">
		<tag k="name" v="Rullebakk" />
		<tag k="place" v="locality" />
		<tag k="ssr:stedsnr" v="597127" />
	</node>
	<node id="-58742" lat="59.3273909906" lon="8.61999411128">
		<tag k="fixme" v="verify maritime location" />
		<tag k="mooring" v="yes" />
		<tag k="name" v="Båthuset" />
		<tag k="place" v="locality" />
		<tag k="ssr:stedsnr" v="597015" />
	</node>
	<node id="-56809" lat="59.3094333302" lon="8.43906666439">
		<tag k="amenity" v="parking" />
		<tag k="name" v="Stolheisplassen" />
		<tag k="ssr:stedsnr" v="49487" />
	</node>
	<node id="-56678" lat="59.3154143851" lon="8.72951732065">
		<tag k="highway" v="path" />
		<tag k="name" v="Kjetilstien" />
		<tag k="ssr:stedsnr" v="961024" />
	</node>
	<node id="-58725" lat="59.3562166644" lon="8.32050832943">
		<tag k="bridge" v="yes" />
		<tag k="layer" v="1" />
		<tag k="name" v="Bruine" />
		<tag k="ssr:stedsnr" v="596834" />
	</node>
	<node id="-57699" lat="59.498772221" lon="8.40606111718">
		<tag k="bridge" v="yes" />
		<tag k="layer" v="1" />
		<tag k="name" v="Kvitterjo" />
		<tag k="ssr:stedsnr" v="353153" />
	</node>
	<node id="-54113" lat="59.3735249959" lon="8.44506667212">
		<tag k="fixme" v="consider highway=path" />
		<tag k="highway" v="track" />
		<tag k="name" v="Vinterslepa" />
		<tag k="ssr:stedsnr" v="231842" />
	</node>
	<node id="-55648" lat="59.4225250001" lon="8.45704445249">
		<tag k="bridge" v="yes" />
		<tag k="layer" v="1" />
		<tag k="name" v="Lundevall" />
		<tag k="ssr:stedsnr" v="714398" />
	</node>
	<node id="-55647" lat="59.3403472262" lon="8.79534166792">
		<tag k="bridge" v="yes" />
		<tag k="layer" v="1" />
		<tag k="name" v="Kaasa bru" />
		<tag k="ssr:stedsnr" v="592506" />
	</node>
	<node id="-55646" lat="59.3727612464" lon="8.26811165179">
		<tag k="ford" v="yes" />
		<tag k="name" v="Dårstøylvadet" />
		<tag k="place" v="locality" />
		<tag k="ssr:stedsnr" v="538955" />
	</node>
	<node id="-57178" lat="59.2974408837" lon="8.73479380158">
		<tag k="man_made" v="quay" />
		<tag k="name" v="Bergsto brygge" />
		<tag k="place" v="locality" />
		<tag k="ssr:stedsnr" v="112559" />
	</node>
	<node id="-59223" lat="59.308411107" lon="8.49655277304">
		<tag k="ford" v="yes" />
		<tag k="name" v="Høgøyvadet" />
		<tag k="place" v="locality" />
		<tag k="ssr:stedsnr" v="839385" />
	</node>
	<node id="-54414" lat="59.3738972257" lon="8.53094999751">
		<tag k="alt_name" v="Sundkil" />
		<tag k="bridge" v="yes" />
		<tag k="layer" v="1" />
		<tag k="name" v="Sundbrui" />
		<tag k="ssr:stedsnr" v="245735" />
	</node>
	<node id="-58680" lat="59.3758216052" lon="8.52522387478">
		<tag k="fixme" v="verify maritime location" />
		<tag k="mooring" v="yes" />
		<tag k="name" v="Skrikarberget" />
		<tag k="place" v="locality" />
		<tag k="ssr:stedsnr" v="596288" />
	</node>
	<node id="-57669" lat="59.357219445" lon="8.15395833161">
		<tag k="bridge" v="yes" />
		<tag k="layer" v="1" />
		<tag k="name" v="Folset" />
		<tag k="ssr:stedsnr" v="350432" />
	</node>
	<node id="-57668" lat="59.3194499991" lon="8.43279721414">
		<tag k="bridge" v="yes" />
		<tag k="layer" v="1" />
		<tag k="name" v="Heiå" />
		<tag k="ssr:stedsnr" v="350429" />
	</node>
	<node id="-54070" lat="59.2721944432" lon="8.52243333914">
		<tag k="bridge" v="yes" />
		<tag k="layer" v="1" />
		<tag k="name" v="Drang" />
		<tag k="ssr:stedsnr" v="228551" />
	</node>
	<node id="-56642" lat="59.441866666" lon="8.52232499743">
		<tag k="bridge" v="yes" />
		<tag k="layer" v="1" />
		<tag k="name" v="Skotbakkbroi" />
		<tag k="ssr:stedsnr" v="960258" />
	</node>
	<node id="-56639" lat="59.483041667" lon="8.30434999764">
		<tag k="name" v="Åbøvelta" />
		<tag k="place" v="locality" />
		<tag k="ssr:stedsnr" v="960223" />
	</node>
	<node id="-57144" lat="59.3514833358" lon="8.36340556211">
		<tag k="ford" v="yes" />
		<tag k="name" v="Fiskebuvadet" />
		<tag k="place" v="locality" />
		<tag k="ssr:stedsnr" v="111664" />
	</node>
	<node id="-56119" lat="59.4992888846" lon="8.42103056265">
		<tag k="bridge" v="yes" />
		<tag k="layer" v="1" />
		<tag k="name" v="Veilen" />
		<tag k="ssr:stedsnr" v="899135" />
	</node>
	<node id="-59190" lat="59.4041916656" lon="8.47041943786">
		<tag k="bridge" v="yes" />
		<tag k="layer" v="1" />
		<tag k="name" v="Mossbroi" />
		<tag k="ssr:stedsnr" v="839201" />
	</node>
	<node id="-54069" lat="59.2989222192" lon="8.69374166334">
		<tag k="bridge" v="yes" />
		<tag k="layer" v="1" />
		<tag k="name" v="Fjågesund kvernbekk" />
		<tag k="ssr:stedsnr" v="228533" />
	</node>
	<node id="-56113" lat="59.3573595758" lon="8.15387483106">
		<tag k="bridge" v="yes" />
		<tag k="layer" v="1" />
		<tag k="name" v="Folsetbru" />
		<tag k="ssr:stedsnr" v="720828" />
	</node>
	<node id="-56112" lat="59.3230583289" lon="8.82068888732">
		<tag k="bridge" v="yes" />
		<tag k="layer" v="1" />
		<tag k="name" v="Holdnes" />
		<tag k="ssr:stedsnr" v="896510" />
	</node>
	<node id="-56111" lat="59.3551777761" lon="8.52064167407">
		<tag k="bridge" v="yes" />
		<tag k="layer" v="1" />
		<tag k="name" v="Kviteseid bygdetun" />
		<tag k="ssr:stedsnr" v="896492" />
	</node>
	<node id="-56110" lat="59.2944472193" lon="8.53257500527">
		<tag k="bridge" v="yes" />
		<tag k="layer" v="1" />
		<tag k="name" v="Slokvik Søndre" />
		<tag k="ssr:stedsnr" v="896479" />
	</node>
	<node id="-56109" lat="59.308697219" lon="8.69456666394">
		<tag k="bridge" v="yes" />
		<tag k="layer" v="1" />
		<tag k="name" v="Rui" />
		<tag k="ssr:stedsnr" v="896477" />
	</node>
	<node id="-56108" lat="59.3080805548" lon="8.51750276982">
		<tag k="bridge" v="yes" />
		<tag k="layer" v="1" />
		<tag k="name" v="Stallan nordre" />
		<tag k="ssr:stedsnr" v="896476" />
	</node>
	<node id="-56107" lat="59.3017801883" lon="8.80041698688">
		<tag k="name" v="Groarulle" />
		<tag k="place" v="locality" />
		<tag k="ssr:stedsnr" v="720376" />
	</node>
	<node id="-54570" lat="59.3710861119" lon="8.53312776996">
		<tag k="bridge" v="yes" />
		<tag k="layer" v="1" />
		<tag k="name" v="Kviteseid bru" />
		<tag k="ssr:stedsnr" v="289486" />
	</node>
	<node id="-54569" lat="59.4840583355" lon="8.34128611045">
		<tag k="alt_name" v="Steinsbru" />
		<tag k="bridge" v="yes" />
		<tag k="layer" v="1" />
		<tag k="name" v="Stein" />
		<tag k="ssr:stedsnr" v="289482" />
	</node>
	<node id="-54568" lat="59.4422333311" lon="8.51854166036">
		<tag k="bridge" v="yes" />
		<tag k="layer" v="1" />
		<tag k="name" v="Stampefoss" />
		<tag k="ssr:stedsnr" v="289471" />
	</node>
	<node id="-54567" lat="59.2787250044" lon="8.52421389455">
		<tag k="bridge" v="yes" />
		<tag k="layer" v="1" />
		<tag k="name" v="Steane" />
		<tag k="ssr:stedsnr" v="289470" />
	</node>
	<node id="-56609" lat="59.3636852316" lon="8.50368598447">
		<tag k="fixme" v="verify maritime location" />
		<tag k="mooring" v="yes" />
		<tag k="name" v="Lårdalsstøi" />
		<tag k="place" v="locality" />
		<tag k="ssr:stedsnr" v="901464" />
	</node>
	<node id="-55577" lat="59.3325333356" lon="8.43097222069">
		<tag k="ford" v="yes" />
		<tag k="name" v="Vadet" />
		<tag k="place" v="locality" />
		<tag k="ssr:stedsnr" v="534238" />
	</node>
	<node id="-56087" lat="59.4772666684" lon="8.30969444729">
		<tag k="name" v="Landsverkvelta" />
		<tag k="place" v="locality" />
		<tag k="ssr:stedsnr" v="718231" />
	</node>
	<node id="-59158" lat="59.4383083298" lon="8.38916111329">
		<tag k="bridge" v="yes" />
		<tag k="layer" v="1" />
		<tag k="name" v="Bjørnflatin" />
		<tag k="ssr:stedsnr" v="836429" />
	</node>
	<node id="-54534" lat="59.2806638851" lon="8.52793611321">
		<tag k="junction" v="yes" />
		<tag k="name" v="Steane" />
		<tag k="place" v="locality" />
		<tag k="ssr:stedsnr" v="270589" />
	</node>
	<node id="-54571" lat="59.4713861075" lon="8.42571110434">
		<tag k="bridge" v="yes" />
		<tag k="layer" v="1" />
		<tag k="name" v="Morgendalsåi" />
		<tag k="ssr:stedsnr" v="289494" />
	</node>
	<node id="-55547" lat="59.370072226" lon="8.45407777916">
		<tag k="ford" v="yes" />
		<tag k="name" v="Tovåvadet" />
		<tag k="place" v="locality" />
		<tag k="ssr:stedsnr" v="474808" />
	</node>
	<node id="-54520" lat="59.2803271144" lon="8.74216596466">
		<tag k="ford" v="yes" />
		<tag k="name" v="Snøåsvadet" />
		<tag k="place" v="locality" />
		<tag k="ssr:stedsnr" v="112806" />
	</node>
	<node id="-58608" lat="59.3225222181" lon="8.47399445113">
		<tag k="man_made" v="quay" />
		<tag k="name" v="Frambrygga" />
		<tag k="place" v="locality" />
		<tag k="ssr:stedsnr" v="595480" />
	</node>
	<node id="-57070" lat="59.4427527796" lon="8.34018056015">
		<tag k="ford" v="yes" />
		<tag k="name" v="Støylevadet" />
		<tag k="place" v="locality" />
		<tag k="ssr:stedsnr" v="110846" />
	</node>
	<node id="-56045" lat="59.3515722212" lon="8.51681667438">
		<tag k="bridge" v="yes" />
		<tag k="layer" v="1" />
		<tag k="name" v="Firskott øvre" />
		<tag k="ssr:stedsnr" v="714415" />
	</node>
	<node id="-56044" lat="59.3474861067" lon="8.50713889416">
		<tag k="bridge" v="yes" />
		<tag k="layer" v="1" />
		<tag k="name" v="Nest Øverste" />
		<tag k="ssr:stedsnr" v="714414" />
	</node>
	<node id="-56786" lat="59.3417833368" lon="8.57520832724">
		<tag k="bridge" v="yes" />
		<tag k="layer" v="1" />
		<tag k="name" v="Lindestadbekk" />
		<tag k="ssr:stedsnr" v="46497" />
	</node>
	<node id="-59110" lat="59.3007947519" lon="8.80582078351">
		<tag k="fixme" v="verify maritime location" />
		<tag k="mooring" v="yes" />
		<tag k="name" v="Sundstø" />
		<tag k="place" v="locality" />
		<tag k="ssr:stedsnr" v="781373" />
	</node>
	<node id="-58085" lat="59.5020916708" lon="8.42707777339">
		<tag k="fixme" v="verify maritime location" />
		<tag k="mooring" v="yes" />
		<tag k="name" v="Farstaullandet" />
		<tag k="place" v="locality" />
		<tag k="ssr:stedsnr" v="414258" />
	</node>
	<node id="-58084" lat="59.5015027769" lon="8.43203334049">
		<tag k="fixme" v="verify maritime location" />
		<tag k="mooring" v="yes" />
		<tag k="name" v="Lierlandet" />
		<tag k="place" v="locality" />
		<tag k="ssr:stedsnr" v="414257" />
	</node>
	<node id="-55009" lat="59.4452833302" lon="8.3578694365">
		<tag k="highway" v="path" />
		<tag k="name" v="Sponmyri" />
		<tag k="ssr:stedsnr" v="474623" />
	</node>
	<node id="-55005" lat="59.4558805516" lon="8.34886666398">
		<tag k="highway" v="path" />
		<tag k="name" v="Åskleiv" />
		<tag k="ssr:stedsnr" v="474588" />
	</node>
	<node id="-54308" lat="59.3524416682" lon="8.29793055693">
		<tag k="man_made" v="quay" />
		<tag k="name" v="Brygga" />
		<tag k="place" v="locality" />
		<tag k="ssr:stedsnr" v="50615" />
	</node>
	<node id="-55503" lat="59.36358611" lon="8.52263055619">
		<tag k="alt_name" v="Spjotsodd" />
		<tag k="bridge" v="yes" />
		<tag k="layer" v="1" />
		<tag k="name" v="Spjotsundbrui" />
		<tag k="ssr:stedsnr" v="669797" />
	</node>
	<node id="-59597" lat="58.9440068917" lon="9.63791772882">
		<tag k="name" v="Tonerhavn" />
		<tag k="place" v="locality" />
		<tag k="ssr:stedsnr" v="1074516" />
	</node>
	<node id="-57036" lat="59.3411388916" lon="8.267580554">
		<tag k="bridge" v="yes" />
		<tag k="layer" v="1" />
		<tag k="name" v="Kilsbekk" />
		<tag k="ssr:stedsnr" v="107497" />
	</node>
	<node id="-57035" lat="59.3482361149" lon="8.51280000198">
		<tag k="bridge" v="yes" />
		<tag k="layer" v="1" />
		<tag k="name" v="Firskottmyr" />
		<tag k="ssr:stedsnr" v="107482" />
	</node>
	<node id="-58570" lat="59.3073027736" lon="8.51782777256">
		<tag k="bridge" v="yes" />
		<tag k="layer" v="1" />
		<tag k="name" v="Stallan Søndre" />
		<tag k="ssr:stedsnr" v="592492" />
	</node>
	<node id="-54982" lat="59.2866416691" lon="8.37391945205">
		<tag k="ford" v="yes" />
		<tag k="name" v="Langlivadet" />
		<tag k="place" v="locality" />
		<tag k="ssr:stedsnr" v="474221" />
	</node>
	<node id="-56513" lat="59.3472849451" lon="8.62574691935">
		<tag k="fixme" v="verify maritime location" />
		<tag k="mooring" v="yes" />
		<tag k="name" v="Brakandalstøi" />
		<tag k="place" v="locality" />
		<tag k="ssr:stedsnr" v="840700" />
	</node>
	<node id="-57034" lat="59.354175002" lon="8.51912500386">
		<tag k="bridge" v="yes" />
		<tag k="layer" v="1" />
		<tag k="name" v="Nederste" />
		<tag k="ssr:stedsnr" v="107481" />
	</node>
	<node id="-58028" lat="59.4566750005" lon="8.35171111474">
		<tag k="highway" v="path" />
		<tag k="name" v="Åskleiv" />
		<tag k="ssr:stedsnr" v="413588" />
	</node>
	<node id="-57513" lat="59.2992050515" lon="8.81056159027">
		<tag k="fixme" v="verify maritime location" />
		<tag k="mooring" v="yes" />
		<tag k="name" v="Mikkelstø" />
		<tag k="place" v="locality" />
		<tag k="ssr:stedsnr" v="174405" />
	</node>
	<node id="-57509" lat="59.3561839785" lon="8.17701493471">
		<tag k="landuse" v="industrial" />
		<tag k="name" v="Skafså II" />
		<tag k="power" v="plant" />
		<tag k="ssr:stedsnr" v="173892" />
	</node>
	<node id="-56472" lat="59.3515972263" lon="8.5171111074">
		<tag k="bridge" v="yes" />
		<tag k="layer" v="1" />
		<tag k="name" v="Firskott nedre" />
		<tag k="ssr:stedsnr" v="836422" />
	</node>
	<node id="-56471" lat="59.3389166666" lon="8.27982221746">
		<tag k="bridge" v="yes" />
		<tag k="layer" v="1" />
		<tag k="name" v="Merdalsåi" />
		<tag k="ssr:stedsnr" v="836419" />
	</node>
	<node id="-56470" lat="59.2533444475" lon="8.59261388533">
		<tag k="bridge" v="yes" />
		<tag k="layer" v="1" />
		<tag k="name" v="Langemyr II" />
		<tag k="ssr:stedsnr" v="836410" />
	</node>
	<node id="-55957" lat="59.4928611118" lon="8.37293054977">
		<tag k="ford" v="yes" />
		<tag k="name" v="Markåslivaet" />
		<tag k="place" v="locality" />
		<tag k="ssr:stedsnr" v="656116" />
	</node>
	<node id="-57998" lat="59.3081416699" lon="8.70314166669">
		<tag k="bridge" v="yes" />
		<tag k="layer" v="1" />
		<tag k="name" v="Fjågesund" />
		<tag k="ssr:stedsnr" v="411433" />
	</node>
	<node id="-55948" lat="59.3385416637" lon="8.79806944985">
		<tag k="bridge" v="yes" />
		<tag k="layer" v="1" />
		<tag k="name" v="Bukosi" />
		<tag k="ssr:stedsnr" v="653467" />
	</node>
	<node id="-55947" lat="59.3245527822" lon="8.32988334127">
		<tag k="bridge" v="yes" />
		<tag k="layer" v="1" />
		<tag k="name" v="Bjønnesbekken" />
		<tag k="ssr:stedsnr" v="653465" />
	</node>
	<node id="-55946" lat="59.3918583301" lon="8.51161943696">
		<tag k="bridge" v="yes" />
		<tag k="layer" v="1" />
		<tag k="name" v="Haukom" />
		<tag k="ssr:stedsnr" v="653457" />
	</node>
	<node id="-55945" lat="59.289855552" lon="8.71533611171">
		<tag k="bridge" v="yes" />
		<tag k="layer" v="1" />
		<tag k="name" v="Fjågesundsbakkane" />
		<tag k="ssr:stedsnr" v="653453" />
	</node>
	<node id="-54920" lat="59.3589342508" lon="8.52359942556">
		<tag k="fixme" v="verify maritime location" />
		<tag k="mooring" v="yes" />
		<tag k="name" v="Sandstø" />
		<tag k="place" v="locality" />
		<tag k="ssr:stedsnr" v="294504" />
	</node>
	<node id="-54806" lat="59.3472444412" lon="8.5066222257">
		<tag k="bridge" v="yes" />
		<tag k="layer" v="1" />
		<tag k="name" v="Øverste" />
		<tag k="ssr:stedsnr" v="228506" />
	</node>
	<node id="-57473" lat="59.3275936728" lon="8.7356501458">
		<tag k="highway" v="path" />
		<tag k="name" v="Fagerbukleivi" />
		<tag k="ssr:stedsnr" v="173027" />
	</node>
	<node id="-54912" lat="59.4219717957" lon="8.5869175129">
		<tag k="fixme" v="verify maritime location" />
		<tag k="mooring" v="yes" />
		<tag k="name" v="Geitan" />
		<tag k="place" v="locality" />
		<tag k="ssr:stedsnr" v="293658" />
	</node>
	<node id="-59006" lat="59.4689972222" lon="8.39668610647">
		<tag k="highway" v="path" />
		<tag k="name" v="Storkoskleivi" />
		<tag k="ssr:stedsnr" v="778866" />
	</node>
	<node id="-59002" lat="59.3643722267" lon="8.4954583344">
		<tag k="fixme" v="verify maritime location" />
		<tag k="mooring" v="yes" />
		<tag k="name" v="Gulstø" />
		<tag k="place" v="locality" />
		<tag k="ssr:stedsnr" v="778837" />
	</node>
	<node id="-57461" lat="59.3214949944" lon="8.7057089732">
		<tag k="man_made" v="cairn" />
		<tag k="name" v="Varden" />
		<tag k="place" v="locality" />
		<tag k="ssr:stedsnr" v="172779" />
	</node>
	<node id="-56947" lat="59.3043760498" lon="8.70086752723">
		<tag k="man_made" v="quay" />
		<tag k="name" v="Fjågesund brygge" />
		<tag k="place" v="locality" />
		<tag k="ssr:stedsnr" v="51498" />
	</node>
	<node id="-56433" lat="59.3632387774" lon="8.52518400882">
		<tag k="man_made" v="quay" />
		<tag k="name" v="Spjotsodd brygge" />
		<tag k="place" v="locality" />
		<tag k="ssr:stedsnr" v="779506" />
	</node>
	<node id="-57454" lat="59.3199781837" lon="8.68601997935">
		<tag k="fixme" v="verify maritime location" />
		<tag k="mooring" v="yes" />
		<tag k="name" v="Straumsnesstøi" />
		<tag k="place" v="locality" />
		<tag k="ssr:stedsnr" v="172751" />
	</node>
	<node id="-58465" lat="59.310496903" lon="8.53318072509">
		<tag k="ford" v="yes" />
		<tag k="name" v="Vadet" />
		<tag k="place" v="locality" />
		<tag k="ssr:stedsnr" v="537073" />
	</node>
	<node id="-57151" lat="59.4798666638" lon="8.38570555588">
		<tag k="bridge" v="yes" />
		<tag k="layer" v="1" />
		<tag k="name" v="Moskeidbru" />
		<tag k="ssr:stedsnr" v="111820" />
	</node>
	<node id="-59476" lat="59.4800722256" lon="8.39939999824">
		<tag k="highway" v="path" />
		<tag k="name" v="Kyrkleiv" />
		<tag k="ssr:stedsnr" v="960826" />
	</node>
	<node id="-59473" lat="59.3706861144" lon="8.48623332503">
		<tag k="fixme" v="verify maritime location" />
		<tag k="mooring" v="yes" />
		<tag k="name" v="Staulen" />
		<tag k="place" v="locality" />
		<tag k="ssr:stedsnr" v="960801" />
	</node>
	<node id="-54348" lat="59.3314573189" lon="8.68764833053">
		<tag k="bridge" v="yes" />
		<tag k="layer" v="1" />
		<tag k="name" v="Fisketjønnbrui" />
		<tag k="ssr:stedsnr" v="51613" />
	</node>
	<node id="-58441" lat="59.344197323" lon="8.66347288177">
		<tag k="man_made" v="cairn" />
		<tag k="name" v="Varden" />
		<tag k="place" v="locality" />
		<tag k="ssr:stedsnr" v="536679" />
	</node>
	<node id="-54934" lat="59.4120277815" lon="8.46879722787">
		<tag k="bridge" v="yes" />
		<tag k="layer" v="1" />
		<tag k="name" v="Passpå" />
		<tag k="ssr:stedsnr" v="471483" />
	</node>
	<node id="-58761" lat="59.3720894179" lon="8.56736104307">
		<tag k="junction" v="yes" />
		<tag k="name" v="Tarrekrysset" />
		<tag k="place" v="locality" />
		<tag k="ssr:stedsnr" v="597469" />
	</node>
	<node id="-55867" lat="59.2951812624" lon="8.7280663287">
		<tag k="fixme" v="verify maritime location" />
		<tag k="mooring" v="yes" />
		<tag k="name" v="Bergestøi" />
		<tag k="place" v="locality" />
		<tag k="ssr:stedsnr" v="719467" />
	</node>
	<node id="-55865" lat="59.3634094218" lon="8.51964097864">
		<tag k="man_made" v="quay" />
		<tag k="name" v="Smiodden brygge" />
		<tag k="place" v="locality" />
		<tag k="ssr:stedsnr" v="719452" />
	</node>
	<node id="-54840" lat="59.417422218" lon="8.49583334088">
		<tag k="ford" v="yes" />
		<tag k="name" v="Torgevae" />
		<tag k="place" v="locality" />
		<tag k="ssr:stedsnr" v="232412" />
	</node>
	<node id="-58935" lat="59.4409944431" lon="8.45365833557">
		<tag k="ford" v="yes" />
		<tag k="name" v="Omlandsvadet" />
		<tag k="place" v="locality" />
		<tag k="ssr:stedsnr" v="778292" />
	</node>
	<node id="-58933" lat="59.5073250045" lon="8.42285555655">
		<tag k="highway" v="path" />
		<tag k="name" v="Farstaulbrekkun" />
		<tag k="ssr:stedsnr" v="778290" />
	</node>
	<node id="-57902" lat="59.3466319276" lon="8.2634611924">
		<tag k="man_made" v="quay" />
		<tag k="name" v="Lundebrygga" />
		<tag k="place" v="locality" />
		<tag k="ssr:stedsnr" v="355687" />
	</node>
	<node id="-54313" lat="59.4524083365" lon="8.36756111251">
		<tag k="highway" v="path" />
		<tag k="name" v="Skjerkleiv" />
		<tag k="ssr:stedsnr" v="50569" />
	</node>
	<node id="-59428" lat="59.4783527776" lon="8.36049166533">
		<tag k="bridge" v="yes" />
		<tag k="layer" v="1" />
		<tag k="name" v="Løkjabroi" />
		<tag k="ssr:stedsnr" v="960285" />
	</node>
	<node id="-56863" lat="59.4303527775" lon="8.41806667262">
		<tag k="ford" v="yes" />
		<tag k="name" v="Skakkva" />
		<tag k="place" v="locality" />
		<tag k="ssr:stedsnr" v="50259" />
	</node>
	<node id="-54808" lat="59.4249333364" lon="8.44335278126">
		<tag k="bridge" v="yes" />
		<tag k="layer" v="1" />
		<tag k="name" v="Nørsterud" />
		<tag k="ssr:stedsnr" v="228519" />
	</node>
	<node id="-54807" lat="59.3561166688" lon="8.22985554722">
		<tag k="bridge" v="yes" />
		<tag k="layer" v="1" />
		<tag k="name" v="Sundsvollen" />
		<tag k="ssr:stedsnr" v="228511" />
	</node>
	<node id="-57878" lat="59.3218557782" lon="8.70311618014">
		<tag k="highway" v="path" />
		<tag k="name" v="Korpekleivi" />
		<tag k="ssr:stedsnr" v="354739" />
	</node>
	<node id="-54805" lat="59.3546916698" lon="8.29617221399">
		<tag k="bridge" v="yes" />
		<tag k="layer" v="1" />
		<tag k="name" v="Århus" />
		<tag k="ssr:stedsnr" v="228505" />
	</node>
	<node id="-59400" lat="59.3623777745" lon="8.16346944952">
		<tag k="bridge" v="yes" />
		<tag k="layer" v="1" />
		<tag k="name" v="Sollisvingen" />
		<tag k="ssr:stedsnr" v="957443" />
	</node>
	<node id="-57862" lat="59.3706291251" lon="8.56888407953">
		<tag k="highway" v="path" />
		<tag k="name" v="Rauåssvingen" />
		<tag k="ssr:stedsnr" v="354490" />
	</node>
</osm>
