<?xml version="1.0" encoding="UTF-8"?>
<osm version="0.6" generator="osmapis">
	<node lat="59.277036109023435" lon="8.529333330091342" id="-23665">
		<tag k="alt_name" v="Steantjørn" />
		<tag k="name" v="Steantjønni" />
		<tag k="natural" v="water" />
		<tag k="ssr:stedsnr" v="2714" />
	</node>
	<node lat="59.349649996763226" lon="8.802327769856438" id="-23669">
		<tag k="name" v="Svartpytt" />
		<tag k="place" v="locality" />
		<tag k="ssr:stedsnr" v="2812" />
	</node>
	<node lat="59.451480553313225" lon="8.352797223594903" id="-23701">
		<tag k="name" v="Bergshyl" />
		<tag k="place" v="locality" />
		<tag k="ssr:stedsnr" v="231614" />
	</node>
	<node lat="59.334622221708486" lon="8.287647226462456" id="-23720">
		<tag k="name" v="Haugeåi" />
		<tag k="ssr:stedsnr" v="231960" />
		<tag k="waterway" v="stream" />
	</node>
	<node lat="59.368288889680485" lon="8.41156388296882" id="-23723">
		<tag k="name" v="Listøyltjønni" />
		<tag k="natural" v="water" />
		<tag k="ssr:stedsnr" v="231975" />
	</node>
	<node lat="59.49403055920279" lon="8.32967778326323" id="-23728">
		<tag k="name" v="Aslakskostjønni" />
		<tag k="natural" v="water" />
		<tag k="ssr:stedsnr" v="232075" />
	</node>
	<node lat="59.47260833265772" lon="8.306541660329824" id="-23730">
		<tag k="name" v="Dalaåi" />
		<tag k="ssr:stedsnr" v="232219" />
		<tag k="waterway" v="river" />
	</node>
	<node lat="59.48096110746015" lon="8.301638882365413" id="-23732">
		<tag k="name" v="Slomstaultjønni" />
		<tag k="natural" v="water" />
		<tag k="ssr:stedsnr" v="232225" />
	</node>
	<node lat="59.44377500110741" lon="8.556594452545157" id="-23747">
		<tag k="name" v="Høgfoss" />
		<tag k="natural" v="waterfall" />
		<tag k="ssr:stedsnr" v="232388" />
	</node>
	<node lat="59.41538611026205" lon="8.474244443526425" id="-23753">
		<tag k="name" v="Bakkeåi" />
		<tag k="ssr:stedsnr" v="232413" />
		<tag k="waterway" v="stream" />
	</node>
	<node lat="59.422252778973636" lon="8.36406943702971" id="-23773">
		<tag k="name" v="Stikkhølbekken" />
		<tag k="ssr:stedsnr" v="232952" />
		<tag k="waterway" v="stream" />
	</node>
	<node lat="59.27085057564735" lon="8.526517323910141" id="-23791">
		<tag k="name" v="Indre Drang" />
		<tag k="natural" v="water" />
		<tag k="ssr:stedsnr" v="233256" />
	</node>
	<node lat="59.297309131405925" lon="8.644964078949327" id="-23795">
		<tag k="name" v="Midtre Kollingstjønnan" />
		<tag k="natural" v="water" />
		<tag k="ssr:stedsnr" v="233487" />
	</node>
	<node lat="59.345371221617086" lon="8.547241648743217" id="-23800">
		<tag k="name" v="Masteskotbekken" />
		<tag k="ssr:stedsnr" v="233584" />
		<tag k="waterway" v="stream" />
	</node>
	<node lat="59.28067738340925" lon="8.732172084190948" id="-23813">
		<tag k="name" v="Damtjønn" />
		<tag k="natural" v="water" />
		<tag k="ssr:stedsnr" v="233831" />
	</node>
	<node lat="59.273793481300494" lon="8.734970797190318" id="-23817">
		<tag k="name" v="Rovtjønn" />
		<tag k="natural" v="water" />
		<tag k="ssr:stedsnr" v="233841" />
	</node>
	<node lat="59.37533202376377" lon="8.230552864618632" id="-23824">
		<tag k="name" v="Tjønnstøyltjønni" />
		<tag k="natural" v="water" />
		<tag k="ssr:stedsnr" v="233968" />
	</node>
	<node lat="59.32649368064064" lon="8.805577536350599" id="-23828">
		<tag k="name" v="Rusodden" />
		<tag k="natural" v="cape" />
		<tag k="ssr:stedsnr" v="234354" />
	</node>
	<node lat="59.319338887457825" lon="8.388675006111194" id="-23850">
		<tag k="name" v="Storøy" />
		<tag k="place" v="island" />
		<tag k="ssr:stedsnr" v="50101" />
	</node>
	<node lat="59.32271111496052" lon="8.419608341433205" id="-23851">
		<tag k="name" v="Linstø" />
		<tag k="natural" v="bay" />
		<tag k="ssr:stedsnr" v="50121" />
	</node>
	<node lat="59.326536115538325" lon="8.419086113033844" id="-23853">
		<tag k="name" v="Fiskodden" />
		<tag k="natural" v="cape" />
		<tag k="ssr:stedsnr" v="50123" />
	</node>
	<node lat="59.48049444228348" lon="8.307016664963776" id="-23858">
		<tag k="name" v="Åstadhylen" />
		<tag k="place" v="locality" />
		<tag k="ssr:stedsnr" v="50212" />
	</node>
	<node lat="59.423750002845374" lon="8.587149993035109" id="-23866">
		<tag k="name" v="Hesteskallen" />
		<tag k="natural" v="cape" />
		<tag k="ssr:stedsnr" v="50504" />
	</node>
	<node lat="59.41431111092747" lon="8.431555554152206" id="-23870">
		<tag k="name" v="Bakstebordtjønni" />
		<tag k="natural" v="water" />
		<tag k="ssr:stedsnr" v="50411" />
	</node>
	<node lat="59.38379670802841" lon="8.509136340501158" id="-23903">
		<tag k="name" v="Snøkaodden" />
		<tag k="natural" v="cape" />
		<tag k="ssr:stedsnr" v="50978" />
	</node>
	<node lat="59.30193194713742" lon="8.54971303242688" id="-23905">
		<tag k="name" v="Salgraspytten" />
		<tag k="natural" v="water" />
		<tag k="ssr:stedsnr" v="51124" />
		<tag k="water" v="pond" />
	</node>
	<node lat="59.29991157669785" lon="8.701080125825607" id="-23907">
		<tag k="name" v="Bånpytt" />
		<tag k="natural" v="water" />
		<tag k="ssr:stedsnr" v="51070" />
		<tag k="water" v="pond" />
	</node>
	<node lat="59.25566618714623" lon="8.517992592932465" id="-23908">
		<tag k="name" v="Båtbergbukti" />
		<tag k="natural" v="bay" />
		<tag k="ssr:stedsnr" v="51277" />
	</node>
	<node lat="59.36673365221666" lon="8.511879166705228" id="-23913">
		<tag k="name" v="Tjørukallbukti" />
		<tag k="natural" v="bay" />
		<tag k="ssr:stedsnr" v="51512" />
	</node>
	<node lat="59.42035277350902" lon="8.573116665428666" id="-23922">
		<tag k="name" v="Urodden" />
		<tag k="natural" v="cape" />
		<tag k="ssr:stedsnr" v="51673" />
	</node>
	<node lat="59.35383555278199" lon="8.803314509411432" id="-23930">
		<tag k="name" v="Store Damtjønn" />
		<tag k="natural" v="water" />
		<tag k="ssr:stedsnr" v="52568" />
	</node>
	<node lat="59.382199999073194" lon="8.460463888509151" id="-23938">
		<tag k="name" v="Skarperudstraumen" />
		<tag k="natural" v="strait" />
		<tag k="ssr:stedsnr" v="63272" />
	</node>
	<node lat="59.38074999717293" lon="8.450311108906037" id="-23939">
		<tag k="name" v="Midtstaulbekken" />
		<tag k="ssr:stedsnr" v="63273" />
		<tag k="waterway" v="stream" />
	</node>
	<node lat="59.31683889075996" lon="8.733811114482906" id="-23946">
		<tag k="name" v="Lauvvikåi" />
		<tag k="ssr:stedsnr" v="63680" />
		<tag k="waterway" v="stream" />
	</node>
	<node lat="59.28013055295464" lon="8.819838884492205" id="-23953">
		<tag k="name" v="Sandtjørn" />
		<tag k="natural" v="water" />
		<tag k="ssr:stedsnr" v="63716" />
	</node>
	<node lat="59.36197777473704" lon="8.676711111870043" id="-23955">
		<tag k="name" v="Linddalsåi" />
		<tag k="ssr:stedsnr" v="63776" />
		<tag k="waterway" v="stream" />
	</node>
	<node lat="59.3049277798156" lon="8.861105563471055" id="-23960">
		<tag k="name" v="Tonningsdalskjeret" />
		<tag k="place" v="islet" />
		<tag k="ssr:stedsnr" v="245170" />
	</node>
	<node lat="59.375194447512094" lon="8.386244440105973" id="-23965">
		<tag k="alt_name" v="Sandtjørnan" />
		<tag k="name" v="Sandtjønn" />
		<tag k="natural" v="water" />
		<tag k="ssr:stedsnr" v="245236" />
	</node>
	<node lat="59.371386108869785" lon="8.458241662266717" id="-23967">
		<tag k="name" v="Torvåi" />
		<tag k="ssr:stedsnr" v="245252" />
		<tag k="waterway" v="river" />
	</node>
	<node lat="59.353411112652616" lon="8.406333335872878" id="-23970">
		<tag k="alt_name" v="Damtjørni" />
		<tag k="name" v="Damtjønn" />
		<tag k="natural" v="water" />
		<tag k="ssr:stedsnr" v="245312" />
	</node>
	<node lat="59.44912499794304" lon="8.281783340590874" id="-23976">
		<tag k="alt_name" v="Jønntjørn" />
		<tag k="name" v="Jønntjønn" />
		<tag k="natural" v="water" />
		<tag k="ssr:stedsnr" v="245389" />
	</node>
	<node lat="59.55886666653629" lon="8.345216667693741" id="-23977">
		<tag k="alt_name" v="Kinsarviktjørni, nedre" />
		<tag k="name" v="Nedre Kinsarviktjønn" />
		<tag k="natural" v="water" />
		<tag k="ssr:stedsnr" v="245390" />
	</node>
	<node lat="59.272324997805505" lon="8.76114166388584" id="-23989">
		<tag k="name" v="Trytetjørn" />
		<tag k="natural" v="water" />
		<tag k="ssr:stedsnr" v="245486" />
	</node>
	<node lat="59.38150277957284" lon="8.468883338155354" id="-23993">
		<tag k="name" v="Gulløy" />
		<tag k="place" v="islet" />
		<tag k="ssr:stedsnr" v="245754" />
	</node>
	<node lat="59.26021110847667" lon="8.549380548401812" id="-23994">
		<tag k="alt_name" v="Brubekk" />
		<tag k="name" v="Brubekken" />
		<tag k="ssr:stedsnr" v="245532" />
		<tag k="waterway" v="stream" />
	</node>
	<node lat="59.314616666275526" lon="8.75740833955544" id="-23996">
		<tag k="name" v="Halvfardalodden" />
		<tag k="natural" v="cape" />
		<tag k="ssr:stedsnr" v="245666" />
	</node>
	<node lat="59.29760833398578" lon="8.792199995277706" id="-23998">
		<tag k="alt_name" v="Groaåi" />
		<tag k="name" v="Groa" />
		<tag k="ssr:stedsnr" v="245675" />
		<tag k="waterway" v="stream" />
	</node>
	<node lat="59.29372221980636" lon="8.659924997346831" id="-23999">
		<tag k="alt_name" v="Flæsåi" />
		<tag k="name" v="Flæseåi" />
		<tag k="ssr:stedsnr" v="245683" />
		<tag k="waterway" v="stream" />
	</node>
	<node lat="59.29837222646604" lon="8.527900006168545" id="-24000">
		<tag k="name" v="Slokvikbukti" />
		<tag k="natural" v="bay" />
		<tag k="ssr:stedsnr" v="245687" />
	</node>
	<node lat="59.37946666638224" lon="8.513275000664688" id="-24003">
		<tag k="alt_name" v="Vesleøy" />
		<tag k="name" v="Vesløy" />
		<tag k="place" v="islet" />
		<tag k="ssr:stedsnr" v="245758" />
	</node>
	<node lat="59.36903333604792" lon="8.777111114737183" id="-24007">
		<tag k="alt_name" v="Homflåtjørni" />
		<tag k="name" v="Homflåtjønn" />
		<tag k="natural" v="water" />
		<tag k="ssr:stedsnr" v="245785" />
	</node>
	<node lat="59.36944166905012" lon="8.740580551175047" id="-24008">
		<tag k="alt_name" v="Baklitjørni" />
		<tag k="name" v="Baklitjønn" />
		<tag k="natural" v="water" />
		<tag k="ssr:stedsnr" v="245787" />
	</node>
	<node lat="59.35102777607902" lon="8.504022228237027" id="-24009">
		<tag k="name" v="Styggedalsbekken" />
		<tag k="ssr:stedsnr" v="245796" />
		<tag k="waterway" v="stream" />
	</node>
	<node lat="59.35491389213959" lon="8.530719449349471" id="-24010">
		<tag k="name" v="Kauphamar" />
		<tag k="natural" v="cape" />
		<tag k="ssr:stedsnr" v="245797" />
	</node>
	<node lat="59.330475735468035" lon="8.767401313885433" id="-24016">
		<tag k="alt_name" v="Kringletjørni" />
		<tag k="name" v="Kringletjønn" />
		<tag k="natural" v="water" />
		<tag k="ssr:stedsnr" v="245854" />
	</node>
	<node lat="59.338138884501625" lon="8.669749996285153" id="-24017">
		<tag k="alt_name" v="Tvindlingtjønnan" />
		<tag k="name" v="Tvillingtjønn" />
		<tag k="natural" v="water" />
		<tag k="ssr:stedsnr" v="245858" />
	</node>
	<node lat="59.41754722499204" lon="8.53480555326873" id="-24019">
		<tag k="name" v="Svarttjørnbekken" />
		<tag k="ssr:stedsnr" v="245931" />
		<tag k="waterway" v="stream" />
	</node>
	<node lat="59.4112942634639" lon="8.629914377182594" id="-24021">
		<tag k="name" v="Røyrtjørnan" />
		<tag k="natural" v="water" />
		<tag k="ssr:stedsnr" v="245942" />
		<tag k="water" v="lake" />
	</node>
	<node lat="59.40762777705238" lon="8.568319442433658" id="-24023">
		<tag k="alt_name" v="Klepptjørn" />
		<tag k="name" v="Klepptjønn" />
		<tag k="natural" v="water" />
		<tag k="ssr:stedsnr" v="245962" />
	</node>
	<node lat="59.297708336842454" lon="8.527358325614482" id="-24026">
		<tag k="alt_name" v="Langøy" />
		<tag k="name" v="Langøyi" />
		<tag k="place" v="islet" />
		<tag k="ssr:stedsnr" v="246640" />
	</node>
	<node lat="59.424905555544136" lon="8.616688888450646" id="-24027">
		<tag k="name" v="Bjortjønnåi" />
		<tag k="ssr:stedsnr" v="96321" />
		<tag k="waterway" v="river" />
	</node>
	<node lat="59.31638055980034" lon="8.465586104240483" id="-24028">
		<tag k="name" v="Kråkenespølen" />
		<tag k="natural" v="bay" />
		<tag k="ssr:stedsnr" v="110022" />
	</node>
	<node lat="59.31843333082544" lon="8.456152775897648" id="-24029">
		<tag k="name" v="Årstaødden" />
		<tag k="natural" v="cape" />
		<tag k="ssr:stedsnr" v="110023" />
	</node>
	<node lat="59.51974721887629" lon="8.334258340807741" id="-24031">
		<tag k="name" v="Storrodden" />
		<tag k="natural" v="cape" />
		<tag k="ssr:stedsnr" v="110105" />
	</node>
	<node lat="59.327447220399556" lon="8.418263897442698" id="-24032">
		<tag k="name" v="Kosabukti" />
		<tag k="natural" v="bay" />
		<tag k="ssr:stedsnr" v="110121" />
	</node>
	<node lat="59.49547777461379" lon="8.434799998404879" id="-24034">
		<tag k="name" v="Sandbukti" />
		<tag k="natural" v="bay" />
		<tag k="ssr:stedsnr" v="110123" />
	</node>
	<node lat="59.450613888690576" lon="8.462711106400471" id="-24039">
		<tag k="name" v="Tjønnantjønni" />
		<tag k="natural" v="water" />
		<tag k="ssr:stedsnr" v="110340" />
	</node>
	<node lat="59.33002777790796" lon="8.489888884439276" id="-24044">
		<tag k="name" v="Eidstoåi" />
		<tag k="ssr:stedsnr" v="110531" />
		<tag k="waterway" v="river" />
	</node>
	<node lat="59.38167500225591" lon="8.467252772828276" id="-24045">
		<tag k="name" v="Ålegrunnan" />
		<tag k="natural" v="shoal" />
		<tag k="place" v="locality" />
		<tag k="ssr:stedsnr" v="110572" />
	</node>
	<node lat="59.43380556005821" lon="8.313627778742578" id="-24053">
		<tag k="name" v="Rottjønnbekken" />
		<tag k="ssr:stedsnr" v="110710" />
		<tag k="waterway" v="stream" />
	</node>
	<node lat="59.43766111113183" lon="8.436119449259275" id="-24059">
		<tag k="name" v="Tjønnåstjønni" />
		<tag k="natural" v="water" />
		<tag k="ssr:stedsnr" v="110674" />
	</node>
	<node lat="59.415338885129415" lon="8.335674995248516" id="-24066">
		<tag k="name" v="Vesletjønn" />
		<tag k="natural" v="water" />
		<tag k="ssr:stedsnr" v="110887" />
	</node>
	<node lat="59.49641389143843" lon="8.447466673828687" id="-24092">
		<tag k="name" v="Skinarodden" />
		<tag k="natural" v="cape" />
		<tag k="ssr:stedsnr" v="111581" />
	</node>
	<node lat="59.483069442205256" lon="8.400936117212922" id="-24101">
		<tag k="name" v="Bergeosen" />
		<tag k="natural" v="bay" />
		<tag k="ssr:stedsnr" v="111675" />
	</node>
	<node lat="59.37706111000315" lon="8.2921083281764" id="-24106">
		<tag k="name" v="Nedre Gaukstøyltjønni" />
		<tag k="natural" v="water" />
		<tag k="ssr:stedsnr" v="111991" />
	</node>
	<node lat="59.34488040340777" lon="8.569708367862443" id="-24110">
		<tag k="name" v="Rankodden" />
		<tag k="natural" v="cape" />
		<tag k="ssr:stedsnr" v="112518" />
	</node>
	<node lat="59.34330109633947" lon="8.572417174608956" id="-24112">
		<tag k="name" v="Sagabukti" />
		<tag k="natural" v="bay" />
		<tag k="ssr:stedsnr" v="112532" />
	</node>
	<node lat="59.35989500320783" lon="8.707640146148364" id="-24115">
		<tag k="name" v="Tvillingtjønnan" />
		<tag k="natural" v="water" />
		<tag k="ssr:stedsnr" v="112570" />
	</node>
	<node lat="59.320882023092715" lon="8.668006596689748" id="-24116">
		<tag k="name" v="Sagodden" />
		<tag k="natural" v="cape" />
		<tag k="ssr:stedsnr" v="112575" />
	</node>
	<node lat="59.281145232385256" lon="8.733381176014154" id="-24122">
		<tag k="name" v="Kvennbekken" />
		<tag k="ssr:stedsnr" v="112809" />
		<tag k="waterway" v="stream" />
	</node>
	<node lat="59.307888884894304" lon="8.462294449556433" id="-24137">
		<tag k="alt_name" v="Stemtjørn, nedre" />
		<tag k="name" v="Store Stemtjønn" />
		<tag k="natural" v="water" />
		<tag k="ssr:stedsnr" v="123139" />
	</node>
	<node lat="59.259524997161186" lon="8.562086119593328" id="-24143">
		<tag k="name" v="Skinstobekken" />
		<tag k="ssr:stedsnr" v="123603" />
		<tag k="waterway" v="stream" />
	</node>
	<node lat="59.31285833476079" lon="8.534441665784303" id="-24145">
		<tag k="alt_name" v="Stemtjørn" />
		<tag k="name" v="Stemtjønn" />
		<tag k="natural" v="water" />
		<tag k="ssr:stedsnr" v="123707" />
	</node>
	<node lat="59.28425277549947" lon="8.802180556839865" id="-24146">
		<tag k="alt_name" v="Holmvatn" />
		<tag k="name" v="Holmvatnet" />
		<tag k="natural" v="water" />
		<tag k="ssr:stedsnr" v="123764" />
	</node>
	<node lat="59.41401110837167" lon="8.63615000552844" id="-24147">
		<tag k="name" v="Brotatjørn" />
		<tag k="natural" v="water" />
		<tag k="ssr:stedsnr" v="123960" />
	</node>
	<node lat="59.352463892955754" lon="8.56906945040829" id="-24149">
		<tag k="alt_name" v="Kviteseidvatn" />
		<tag k="name" v="Kviteseidvatnet" />
		<tag k="natural" v="water" />
		<tag k="ssr:stedsnr" v="123817" />
		<tag k="water" v="lake" />
	</node>
	<node lat="59.35312792390369" lon="8.482982814984043" id="-24150">
		<tag k="alt_name" v="Skardstaultjørni" />
		<tag k="name" v="Skørastaultjønni" />
		<tag k="natural" v="water" />
		<tag k="ssr:stedsnr" v="123820" />
	</node>
	<node lat="59.527055556144475" lon="8.322163886126091" id="-24154">
		<tag k="alt_name" v="Raudå" />
		<tag k="name" v="Raudåi" />
		<tag k="ssr:stedsnr" v="124323" />
		<tag k="waterway" v="stream" />
	</node>
	<node lat="59.51704444588232" lon="8.439919439063365" id="-24161">
		<tag k="name" v="Lauvtjønn" />
		<tag k="natural" v="water" />
		<tag k="ssr:stedsnr" v="170217" />
	</node>
	<node lat="59.520338891594974" lon="8.353669451646654" id="-24176">
		<tag k="name" v="Skonmyrnuten" />
		<tag k="natural" v="water" />
		<tag k="ssr:stedsnr" v="171015" />
	</node>
	<node lat="59.32435277947499" lon="8.416733333687125" id="-24183">
		<tag k="name" v="Skjerodden" />
		<tag k="natural" v="cape" />
		<tag k="ssr:stedsnr" v="171115" />
	</node>
	<node lat="59.31739166884951" lon="8.471122214855903" id="-24199">
		<tag k="name" v="Straumøy" />
		<tag k="place" v="islet" />
		<tag k="ssr:stedsnr" v="171507" />
	</node>
	<node lat="59.449066671151016" lon="8.364008329006388" id="-24202">
		<tag k="name" v="Nilshylfossen" />
		<tag k="natural" v="waterfall" />
		<tag k="ssr:stedsnr" v="171618" />
	</node>
	<node lat="59.32683269028745" lon="8.63696604572376" id="-24217">
		<tag k="name" v="Segelbergodden" />
		<tag k="natural" v="cape" />
		<tag k="ssr:stedsnr" v="172017" />
	</node>
	<node lat="59.29442559035102" lon="8.681944476184517" id="-24218">
		<tag k="name" v="Bryggefossen" />
		<tag k="natural" v="waterfall" />
		<tag k="ssr:stedsnr" v="172025" />
	</node>
	<node lat="59.33428333679854" lon="8.316761107862952" id="-24221">
		<tag k="name" v="Skjerkilødden" />
		<tag k="natural" v="cape" />
		<tag k="ssr:stedsnr" v="171955" />
	</node>
	<node lat="59.262688887699866" lon="8.517483334511574" id="-24259">
		<tag k="name" v="Pylsevikoddan" />
		<tag k="natural" v="cape" />
		<tag k="ssr:stedsnr" v="184512" />
	</node>
	<node lat="59.27231533247194" lon="8.549964824649853" id="-24261">
		<tag k="alt_name" v="Tjørnskardtjørni" />
		<tag k="name" v="Tjønnskarstjønni" />
		<tag k="natural" v="water" />
		<tag k="ssr:stedsnr" v="184522" />
	</node>
	<node lat="59.351549361351914" lon="8.803053205915546" id="-24268">
		<tag k="alt_name" v="Trytetjørni" />
		<tag k="name" v="Trytetjønn" />
		<tag k="natural" v="water" />
		<tag k="ssr:stedsnr" v="184804" />
	</node>
	<node lat="59.34951110921677" lon="8.612680557555251" id="-24269">
		<tag k="alt_name" v="Brakandalodden" />
		<tag k="name" v="Brakandalsodden" />
		<tag k="natural" v="cape" />
		<tag k="ssr:stedsnr" v="184813" />
	</node>
	<node lat="59.285800002394076" lon="8.376494448194373" id="-24275">
		<tag k="name" v="Romdalstjørnan" />
		<tag k="natural" v="water" />
		<tag k="ssr:stedsnr" v="185201" />
	</node>
	<node lat="59.29117500424982" lon="8.319819445809053" id="-24278">
		<tag k="alt_name" v="Gantekvævtjørni" />
		<tag k="name" v="Gantekvævtjønni" />
		<tag k="natural" v="water" />
		<tag k="ssr:stedsnr" v="185233" />
	</node>
	<node lat="59.4251500015064" lon="8.386058338784018" id="-24279">
		<tag k="name" v="Kvinnandalsbekken" />
		<tag k="ssr:stedsnr" v="185403" />
		<tag k="waterway" v="stream" />
	</node>
	<node lat="59.515486107404065" lon="8.331886103949696" id="-24291">
		<tag k="name" v="Kaldodde" />
		<tag k="natural" v="cape" />
		<tag k="ssr:stedsnr" v="231137" />
	</node>
	<node lat="59.41163889091865" lon="8.464755550634997" id="-24292">
		<tag k="name" v="Passpåhylen" />
		<tag k="place" v="locality" />
		<tag k="ssr:stedsnr" v="231187" />
	</node>
	<node lat="59.38418611288135" lon="8.437041668775565" id="-24302">
		<tag k="name" v="Kassnesbukti" />
		<tag k="natural" v="bay" />
		<tag k="ssr:stedsnr" v="231732" />
	</node>
	<node lat="59.4047777786078" lon="8.342766659779501" id="-24308">
		<tag k="name" v="Bjønndapen" />
		<tag k="natural" v="water" />
		<tag k="ssr:stedsnr" v="231881" />
		<tag k="water" v="pond" />
	</node>
	<node lat="59.49695555627491" lon="8.421052785957114" id="-24316">
		<tag k="name" v="Pråmbukti" />
		<tag k="natural" v="bay" />
		<tag k="ssr:stedsnr" v="232137" />
	</node>
	<node lat="59.353730559834446" lon="8.340008332725557" id="-24331">
		<tag k="name" v="Dammen" />
		<tag k="ssr:stedsnr" v="232637" />
		<tag k="waterway" v="dam" />
	</node>
	<node lat="59.41706944629601" lon="8.358527785996278" id="-24342">
		<tag k="name" v="Øksetjønn" />
		<tag k="natural" v="water" />
		<tag k="ssr:stedsnr" v="232881" />
	</node>
	<node lat="59.30722500262178" lon="8.517499993344988" id="-24344">
		<tag k="name" v="Øy" />
		<tag k="place" v="island" />
		<tag k="ssr:stedsnr" v="233004" />
	</node>
	<node lat="59.372902679442774" lon="8.52244949174501" id="-24353">
		<tag k="name" v="Nesbukti" />
		<tag k="natural" v="bay" />
		<tag k="ssr:stedsnr" v="233324" />
	</node>
	<node lat="59.37251170550526" lon="8.533876884285116" id="-24354">
		<tag k="name" v="Kjelldalodden" />
		<tag k="natural" v="cape" />
		<tag k="ssr:stedsnr" v="233380" />
	</node>
	<node lat="59.422548321345936" lon="8.5940766703252" id="-24360">
		<tag k="alt_name" v="Badstoviki" />
		<tag k="name" v="Badstogviki" />
		<tag k="natural" v="bay" />
		<tag k="ssr:stedsnr" v="233679" />
	</node>
	<node lat="59.38518818450669" lon="8.50237440016221" id="-24362">
		<tag k="name" v="Berglandsodden" />
		<tag k="natural" v="cape" />
		<tag k="ssr:stedsnr" v="233942" />
	</node>
	<node lat="59.38062448621916" lon="8.24932266394748" id="-24375">
		<tag k="name" v="Donstadtjønni" />
		<tag k="natural" v="water" />
		<tag k="ssr:stedsnr" v="234805" />
	</node>
	<node lat="59.301450003833494" lon="8.32671111540537" id="-24382">
		<tag k="alt_name" v="Skredstøyltjørnan" />
		<tag k="name" v="Skreestøyltjønnan" />
		<tag k="natural" v="water" />
		<tag k="ssr:stedsnr" v="245128" />
	</node>
	<node lat="59.343855552045135" lon="8.256699996529797" id="-24383">
		<tag k="name" v="Holtskilviki" />
		<tag k="natural" v="bay" />
		<tag k="ssr:stedsnr" v="245304" />
	</node>
	<node lat="59.31943611443059" lon="8.661355550530383" id="-24384">
		<tag k="name" v="Grjotnes" />
		<tag k="natural" v="cape" />
		<tag k="ssr:stedsnr" v="245607" />
	</node>
	<node lat="59.313350001401275" lon="8.482277784731172" id="-24388">
		<tag k="alt_name" v="Bjorøy" />
		<tag k="name" v="Bjorøyi" />
		<tag k="place" v="islet" />
		<tag k="ssr:stedsnr" v="245629" />
	</node>
	<node lat="59.301813892509" lon="8.489974992849733" id="-24389">
		<tag k="alt_name" v="Fukarholmen" />
		<tag k="name" v="Fjukarholmen" />
		<tag k="place" v="islet" />
		<tag k="ssr:stedsnr" v="245640" />
	</node>
	<node lat="59.28485000288808" lon="8.671947222366914" id="-24396">
		<tag k="name" v="Nystaulbekken" />
		<tag k="ssr:stedsnr" v="245709" />
		<tag k="waterway" v="stream" />
	</node>
	<node lat="59.29020000045555" lon="8.71716667483777" id="-24397">
		<tag k="alt_name" v="Sagaåi" />
		<tag k="name" v="Sagåi" />
		<tag k="ssr:stedsnr" v="245718" />
		<tag k="waterway" v="stream" />
	</node>
	<node lat="59.34925277967675" lon="8.47779999837875" id="-24400">
		<tag k="alt_name" v="Presttjørn" />
		<tag k="name" v="Presttjønn" />
		<tag k="natural" v="water" />
		<tag k="ssr:stedsnr" v="245802" />
	</node>
	<node lat="59.35857499617465" lon="8.675024995855235" id="-24401">
		<tag k="alt_name" v="Sandtjørn" />
		<tag k="name" v="Sandtjønn" />
		<tag k="natural" v="water" />
		<tag k="ssr:stedsnr" v="245806" />
	</node>
	<node lat="59.35720833406161" lon="8.695347221264456" id="-24403">
		<tag k="name" v="Svartpytt" />
		<tag k="place" v="locality" />
		<tag k="ssr:stedsnr" v="245809" />
	</node>
	<node lat="59.35474999569691" lon="8.755938883929286" id="-24406">
		<tag k="alt_name" v="Juvsåi" />
		<tag k="name" v="Gjuvsåi" />
		<tag k="ssr:stedsnr" v="245822" />
		<tag k="waterway" v="stream" />
	</node>
	<node lat="59.49494166949554" lon="8.427988883928279" id="-24409">
		<tag k="name" v="Gjerjordtjørni" />
		<tag k="natural" v="water" />
		<tag k="ssr:stedsnr" v="245897" />
	</node>
	<node lat="59.32583611099172" lon="8.437813890099639" id="-24418">
		<tag k="name" v="Øvretjønn" />
		<tag k="natural" v="water" />
		<tag k="ssr:stedsnr" v="292134" />
	</node>
	<node lat="59.402513886480456" lon="8.479447223239308" id="-24421">
		<tag k="name" v="Klokkarodden" />
		<tag k="natural" v="cape" />
		<tag k="ssr:stedsnr" v="292199" />
	</node>
	<node lat="59.43646667060436" lon="8.46408056408543" id="-24432">
		<tag k="name" v="Selstøfossen" />
		<tag k="natural" v="waterfall" />
		<tag k="ssr:stedsnr" v="292631" />
	</node>
	<node lat="59.45310000096251" lon="8.60573610414311" id="-24450">
		<tag k="name" v="Tjønnpytten" />
		<tag k="natural" v="water" />
		<tag k="ssr:stedsnr" v="292724" />
		<tag k="water" v="pond" />
	</node>
	<node lat="59.50855833039543" lon="8.332905560691822" id="-24458">
		<tag k="name" v="Selvassodden" />
		<tag k="natural" v="cape" />
		<tag k="ssr:stedsnr" v="293195" />
	</node>
	<node lat="59.29307632412939" lon="8.652010434732555" id="-24464">
		<tag k="name" v="Nedre Kollingstjønn" />
		<tag k="natural" v="water" />
		<tag k="ssr:stedsnr" v="293374" />
	</node>
	<node lat="59.27895209985727" lon="8.522008869535577" id="-24468">
		<tag k="name" v="Velvøy" />
		<tag k="place" v="island" />
		<tag k="ssr:stedsnr" v="293245" />
	</node>
	<node lat="59.471138890742516" lon="8.272441675250938" id="-24469">
		<tag k="name" v="Galanteren" />
		<tag k="natural" v="water" />
		<tag k="ssr:stedsnr" v="293276" />
	</node>
	<node lat="59.35974296400111" lon="8.524865380705501" id="-24488">
		<tag k="name" v="Tutarholmen" />
		<tag k="place" v="islet" />
		<tag k="ssr:stedsnr" v="294503" />
	</node>
	<node lat="59.32577974510297" lon="8.3354375362709" id="-24500">
		<tag k="name" v="Lundebergbekken" />
		<tag k="ssr:stedsnr" v="295424" />
		<tag k="waterway" v="stream" />
	</node>
	<node lat="59.478087072092265" lon="8.356467908305826" id="-24512">
		<tag k="alt_name" v="Løkjin" />
		<tag k="name" v="Løken" />
		<tag k="natural" v="water" />
		<tag k="ssr:stedsnr" v="305438" />
	</node>
	<node lat="59.3270416682415" lon="8.622355549062254" id="-24521">
		<tag k="name" v="Liabukti" />
		<tag k="natural" v="bay" />
		<tag k="ssr:stedsnr" v="306606" />
	</node>
	<node lat="59.30578889105224" lon="8.532077782729075" id="-24522">
		<tag k="name" v="Vesleåi" />
		<tag k="ssr:stedsnr" v="306612" />
		<tag k="waterway" v="stream" />
	</node>
	<node lat="59.30992500351999" lon="8.507430554675741" id="-24523">
		<tag k="name" v="Sinderholmen" />
		<tag k="place" v="islet" />
		<tag k="ssr:stedsnr" v="306618" />
	</node>
	<node lat="59.30414722341327" lon="8.549588892087979" id="-24524">
		<tag k="alt_name" v="Ekrestøyltjønni nedre" />
		<tag k="name" v="Ekrestøyltjønni" />
		<tag k="natural" v="water" />
		<tag k="ssr:stedsnr" v="306620" />
	</node>
	<node lat="59.35202499558907" lon="8.53721388458181" id="-24526">
		<tag k="name" v="Sandvikodden" />
		<tag k="natural" v="cape" />
		<tag k="ssr:stedsnr" v="306633" />
	</node>
	<node lat="59.30596110808408" lon="8.724991666521568" id="-24529">
		<tag k="name" v="Geitodden" />
		<tag k="natural" v="cape" />
		<tag k="ssr:stedsnr" v="306683" />
	</node>
	<node lat="59.329163887660634" lon="8.709308337539415" id="-24530">
		<tag k="alt_name" v="Øsgjengtjørni" />
		<tag k="name" v="Øsjengtjønni" />
		<tag k="natural" v="water" />
		<tag k="ssr:stedsnr" v="306856" />
	</node>
	<node lat="59.52316944538197" lon="8.3783611125509" id="-24534">
		<tag k="name" v="Halvorsdaltjønni" />
		<tag k="natural" v="water" />
		<tag k="ssr:stedsnr" v="473147" />
	</node>
	<node lat="59.35042499792041" lon="8.465736115482159" id="-24535">
		<tag k="name" v="Brillesjøen" />
		<tag k="natural" v="water" />
		<tag k="ssr:stedsnr" v="473235" />
	</node>
	<node lat="59.48539166425295" lon="8.461999992322829" id="-24544">
		<tag k="name" v="Bekkjekrokan" />
		<tag k="ssr:stedsnr" v="473883" />
		<tag k="waterway" v="stream" />
	</node>
	<node lat="59.320599999709025" lon="8.460705553613066" id="-24560">
		<tag k="name" v="Austgardbukti" />
		<tag k="natural" v="bay" />
		<tag k="ssr:stedsnr" v="474052" />
	</node>
	<node lat="59.31942500039765" lon="8.461197228360051" id="-24572">
		<tag k="name" v="Bukkøy" />
		<tag k="place" v="island" />
		<tag k="ssr:stedsnr" v="352021" />
	</node>
	<node lat="59.50566944487211" lon="8.49086111368174" id="-24578">
		<tag k="name" v="Svartebekk" />
		<tag k="ssr:stedsnr" v="352517" />
		<tag k="waterway" v="stream" />
	</node>
	<node lat="59.3084972241416" lon="8.488716665539378" id="-24579">
		<tag k="name" v="Krintolsundet" />
		<tag k="natural" v="strait" />
		<tag k="ssr:stedsnr" v="474363" />
	</node>
	<node lat="59.46274722494006" lon="8.496816670974445" id="-24580">
		<tag k="name" v="Gamphyl" />
		<tag k="place" v="locality" />
		<tag k="ssr:stedsnr" v="352656" />
	</node>
	<node lat="59.31909722229084" lon="8.422638887434797" id="-24588">
		<tag k="name" v="Sandbukti" />
		<tag k="natural" v="bay" />
		<tag k="ssr:stedsnr" v="353115" />
	</node>
	<node lat="59.326147225557065" lon="8.4029611102326" id="-24591">
		<tag k="name" v="Gryteodden" />
		<tag k="natural" v="cape" />
		<tag k="ssr:stedsnr" v="353157" />
	</node>
	<node lat="59.441363888403764" lon="8.52009166557686" id="-24594">
		<tag k="name" v="Stamperudtangen" />
		<tag k="natural" v="cape" />
		<tag k="ssr:stedsnr" v="353302" />
	</node>
	<node lat="59.43674722131029" lon="8.599738894908857" id="-24597">
		<tag k="name" v="Fisketjønn" />
		<tag k="natural" v="water" />
		<tag k="ssr:stedsnr" v="353516" />
	</node>
	<node lat="59.497355553674474" lon="8.44736110577037" id="-24600">
		<tag k="name" v="Kyri" />
		<tag k="place" v="islet" />
		<tag k="ssr:stedsnr" v="353528" />
	</node>
	<node lat="59.4475833290786" lon="8.36532222221445" id="-24619">
		<tag k="name" v="Jusureidfossen" />
		<tag k="natural" v="waterfall" />
		<tag k="ssr:stedsnr" v="353603" />
	</node>
	<node lat="59.452705557871774" lon="8.358541664296553" id="-24620">
		<tag k="name" v="Fådapen" />
		<tag k="natural" v="spring" />
		<tag k="ssr:stedsnr" v="353604" />
	</node>
	<node lat="59.34182222302463" lon="8.359861110871261" id="-24624">
		<tag k="name" v="Skogstøyltjønni" />
		<tag k="natural" v="water" />
		<tag k="ssr:stedsnr" v="353702" />
	</node>
	<node lat="59.39744167076876" lon="8.404597230019506" id="-24625">
		<tag k="name" v="Kjelda" />
		<tag k="natural" v="spring" />
		<tag k="ssr:stedsnr" v="353704" />
	</node>
	<node lat="59.39421111516831" lon="8.402802770385538" id="-24626">
		<tag k="name" v="Hanen" />
		<tag k="natural" v="cape" />
		<tag k="ssr:stedsnr" v="353706" />
	</node>
	<node lat="59.44275000287643" lon="8.323780562979174" id="-24627">
		<tag k="name" v="Dauvedaltjønni" />
		<tag k="natural" v="water" />
		<tag k="ssr:stedsnr" v="353708" />
	</node>
	<node lat="59.42465555432558" lon="8.338188881914185" id="-24629">
		<tag k="name" v="Løyningsbekken" />
		<tag k="ssr:stedsnr" v="353757" />
		<tag k="waterway" v="stream" />
	</node>
	<node lat="59.48294722065192" lon="8.437888883801104" id="-24631">
		<tag k="name" v="Rupenettjønnflyet" />
		<tag k="natural" v="water" />
		<tag k="ssr:stedsnr" v="353761" />
		<tag k="water" v="pond" />
	</node>
	<node lat="59.339911107059" lon="8.394316665734552" id="-24632">
		<tag k="name" v="Bekkekrokan" />
		<tag k="ssr:stedsnr" v="353768" />
		<tag k="waterway" v="stream" />
	</node>
	<node lat="59.3529999956099" lon="8.324105555027963" id="-24637">
		<tag k="name" v="Ravnjuvsåi" />
		<tag k="ssr:stedsnr" v="353662" />
		<tag k="waterway" v="stream" />
	</node>
	<node lat="59.36645555402025" lon="8.470516674105708" id="-24640">
		<tag k="name" v="Skreåi" />
		<tag k="ssr:stedsnr" v="353861" />
		<tag k="waterway" v="stream" />
	</node>
	<node lat="59.285885860208445" lon="8.525398239899928" id="-24647">
		<tag k="name" v="Bussvikødden" />
		<tag k="natural" v="cape" />
		<tag k="ssr:stedsnr" v="354218" />
	</node>
	<node lat="59.365320938900766" lon="8.51218978771198" id="-24658">
		<tag k="name" v="Halvardstryk" />
		<tag k="ssr:stedsnr" v="354513" />
		<tag k="waterway" v="rapids" />
	</node>
	<node lat="59.34143359153193" lon="8.66453274166393" id="-24661">
		<tag k="name" v="Den blanke tjønni" />
		<tag k="natural" v="water" />
		<tag k="ssr:stedsnr" v="354702" />
	</node>
	<node lat="59.32534596335742" lon="8.206181725748754" id="-24672">
		<tag k="name" v="Sippleåstjønni" />
		<tag k="natural" v="water" />
		<tag k="ssr:stedsnr" v="355291" />
	</node>
	<node lat="59.375402779707684" lon="8.479897216504947" id="-24678">
		<tag k="name" v="Tarjeisodde" />
		<tag k="natural" v="cape" />
		<tag k="ssr:stedsnr" v="474864" />
	</node>
	<node lat="59.41256388624408" lon="8.340730559321276" id="-24679">
		<tag k="name" v="Svarttjønn" />
		<tag k="natural" v="water" />
		<tag k="ssr:stedsnr" v="474870" />
	</node>
	<node lat="59.31766944250539" lon="8.284944441575782" id="-24691">
		<tag k="name" v="Skartjønnan" />
		<tag k="natural" v="water" />
		<tag k="ssr:stedsnr" v="474975" />
	</node>
	<node lat="59.39011944086154" lon="8.495077773996707" id="-24692">
		<tag k="name" v="Hommanodden" />
		<tag k="natural" v="cape" />
		<tag k="ssr:stedsnr" v="474976" />
	</node>
	<node lat="59.32442222326968" lon="8.349730547188292" id="-24693">
		<tag k="name" v="Kultøy" />
		<tag k="place" v="islet" />
		<tag k="ssr:stedsnr" v="474977" />
	</node>
	<node lat="59.5365249991263" lon="8.36179444523954" id="-24701">
		<tag k="name" v="Rupetjønn" />
		<tag k="natural" v="water" />
		<tag k="ssr:stedsnr" v="475028" />
	</node>
	<node lat="59.47678332925943" lon="8.302783336698633" id="-24708">
		<tag k="name" v="Rostjønn" />
		<tag k="natural" v="water" />
		<tag k="ssr:stedsnr" v="475233" />
	</node>
	<node lat="59.287337990153766" lon="8.510444275614779" id="-24710">
		<tag k="name" v="Klubbukti" />
		<tag k="natural" v="bay" />
		<tag k="old_name" v="Klubbbukti" />
		<tag k="ssr:stedsnr" v="475187" />
	</node>
	<node lat="59.279495310382195" lon="8.698426556386345" id="-24712">
		<tag k="name" v="Hestestotjønni" />
		<tag k="natural" v="water" />
		<tag k="ssr:stedsnr" v="475264" />
	</node>
	<node lat="59.48178333501706" lon="8.366200008532742" id="-24724">
		<tag k="name" v="Løyntjønn" />
		<tag k="natural" v="water" />
		<tag k="ssr:stedsnr" v="475331" />
	</node>
	<node lat="59.34275321906557" lon="8.57649274640304" id="-24745">
		<tag k="name" v="Koven" />
		<tag k="natural" v="cape" />
		<tag k="ssr:stedsnr" v="475544" />
	</node>
	<node lat="59.460777776654744" lon="8.426011111645767" id="-24752">
		<tag k="name" v="Gjersund nedre" />
		<tag k="natural" v="waterfall" />
		<tag k="ssr:stedsnr" v="475884" />
	</node>
	<node lat="59.305079817929375" lon="8.766968906436365" id="-24768">
		<tag k="name" v="Finnsandodden" />
		<tag k="natural" v="cape" />
		<tag k="ssr:stedsnr" v="476527" />
	</node>
	<node lat="59.32093036316392" lon="8.68427357968956" id="-24769">
		<tag k="name" v="Fiskodde" />
		<tag k="natural" v="cape" />
		<tag k="ssr:stedsnr" v="476542" />
	</node>
	<node lat="59.2998058763507" lon="8.743847243897484" id="-24770">
		<tag k="name" v="Grosvollbukti" />
		<tag k="natural" v="bay" />
		<tag k="ssr:stedsnr" v="476543" />
	</node>
	<node lat="59.374775924918644" lon="8.72676961898652" id="-24774">
		<tag k="name" v="Linddalsåi" />
		<tag k="ssr:stedsnr" v="476640" />
		<tag k="waterway" v="stream" />
	</node>
	<node lat="59.33277906841799" lon="8.800708813335465" id="-24778">
		<tag k="name" v="Tekstodden" />
		<tag k="natural" v="cape" />
		<tag k="ssr:stedsnr" v="477364" />
	</node>
	<node lat="59.334686229858946" lon="8.798331281301822" id="-24785">
		<tag k="name" v="Tangen" />
		<tag k="natural" v="cape" />
		<tag k="ssr:stedsnr" v="477381" />
	</node>
	<node lat="59.33776111152531" lon="8.258905563166294" id="-24793">
		<tag k="name" v="Lundeåi" />
		<tag k="ssr:stedsnr" v="366314" />
		<tag k="waterway" v="stream" />
	</node>
	<node lat="59.35176388913867" lon="8.419833333120215" id="-24794">
		<tag k="alt_name" v="Roholttjørnan" />
		<tag k="name" v="Roholttjønnan" />
		<tag k="natural" v="water" />
		<tag k="ssr:stedsnr" v="366321" />
	</node>
	<node lat="59.39254166892145" lon="8.307875001046028" id="-24795">
		<tag k="name" v="Dalaviki" />
		<tag k="natural" v="bay" />
		<tag k="ssr:stedsnr" v="366287" />
	</node>
	<node lat="59.47847222004363" lon="8.445394448248013" id="-24799">
		<tag k="alt_name" v="Løyntjørn" />
		<tag k="name" v="Løyntjønn" />
		<tag k="natural" v="water" />
		<tag k="ssr:stedsnr" v="366434" />
	</node>
	<node lat="59.29534722646848" lon="8.51270000475893" id="-24803">
		<tag k="name" v="Bussvikfjorden" />
		<tag k="natural" v="water" />
		<tag k="ssr:stedsnr" v="366703" />
		<tag k="water" v="lake" />
	</node>
	<node lat="59.29728498108543" lon="8.498971340646273" id="-24804">
		<tag k="alt_name" v="Strålsond" />
		<tag k="name" v="Strålsund" />
		<tag k="natural" v="strait" />
		<tag k="ssr:stedsnr" v="366705" />
	</node>
	<node lat="59.29117924904887" lon="8.647952735471788" id="-24805">
		<tag k="name" v="Kollingtjørnan" />
		<tag k="natural" v="water" />
		<tag k="ssr:stedsnr" v="366710" />
		<tag k="water" v="lake" />
	</node>
	<node lat="59.300257873484" lon="8.573558284200017" id="-24806">
		<tag k="alt_name" v="Venelitjørni" />
		<tag k="name" v="Venlitjønni" />
		<tag k="natural" v="water" />
		<tag k="ssr:stedsnr" v="366711" />
	</node>
	<node lat="59.293752782262544" lon="8.538861104551536" id="-24807">
		<tag k="name" v="Slokvikåi" />
		<tag k="ssr:stedsnr" v="366712" />
		<tag k="waterway" v="stream" />
	</node>
	<node lat="59.27681111109758" lon="8.484938887081197" id="-24808">
		<tag k="alt_name" v="Barskjerholman" />
		<tag k="name" v="Bakskjerholmen" />
		<tag k="place" v="islet" />
		<tag k="ssr:stedsnr" v="366716" />
	</node>
	<node lat="59.274233333696884" lon="8.468872214986918" id="-24809">
		<tag k="alt_name" v="Bustaodden" />
		<tag k="name" v="Bustallodden" />
		<tag k="natural" v="cape" />
		<tag k="ssr:stedsnr" v="366717" />
	</node>
	<node lat="59.327658333914144" lon="8.695313888706533" id="-24810">
		<tag k="alt_name" v="Fitjatjørn" />
		<tag k="name" v="Fitjartjønn" />
		<tag k="natural" v="water" />
		<tag k="ssr:stedsnr" v="366635" />
	</node>
	<node lat="59.35170555961507" lon="8.706441666995692" id="-24817">
		<tag k="alt_name" v="Nystaultjørni" />
		<tag k="name" v="Nystaultjønni" />
		<tag k="natural" v="water" />
		<tag k="ssr:stedsnr" v="366814" />
	</node>
	<node lat="59.33119999913111" lon="8.617147213702285" id="-24818">
		<tag k="name" v="Pekebergodden" />
		<tag k="natural" v="cape" />
		<tag k="ssr:stedsnr" v="366837" />
	</node>
	<node lat="59.41274444465398" lon="8.535347219698016" id="-24823">
		<tag k="alt_name" v="Urdtjørn" />
		<tag k="name" v="Urtjønn" />
		<tag k="natural" v="water" />
		<tag k="ssr:stedsnr" v="366931" />
	</node>
	<node lat="59.341408337673045" lon="8.316244436069098" id="-24828">
		<tag k="name" v="Måholmen" />
		<tag k="place" v="islet" />
		<tag k="ssr:stedsnr" v="487335" />
	</node>
	<node lat="59.35896666374603" lon="8.29314999886458" id="-24829">
		<tag k="name" v="Århusåi" />
		<tag k="ssr:stedsnr" v="487361" />
		<tag k="waterway" v="river" />
	</node>
	<node lat="59.35077500246121" lon="8.266166665622636" id="-24832">
		<tag k="name" v="Drivnes" />
		<tag k="natural" v="cape" />
		<tag k="ssr:stedsnr" v="487385" />
	</node>
	<node lat="59.335586110536056" lon="8.244558333283146" id="-24835">
		<tag k="name" v="Styggedalsbekken" />
		<tag k="ssr:stedsnr" v="487342" />
		<tag k="waterway" v="stream" />
	</node>
	<node lat="59.26596111346471" lon="8.521852770530742" id="-24837">
		<tag k="name" v="Bjårvik" />
		<tag k="natural" v="bay" />
		<tag k="ssr:stedsnr" v="487576" />
	</node>
	<node lat="59.31232777637471" lon="8.491780558851245" id="-24838">
		<tag k="name" v="Øyi" />
		<tag k="place" v="island" />
		<tag k="ssr:stedsnr" v="487694" />
	</node>
	<node lat="59.32181111456386" lon="8.449969443681935" id="-24839">
		<tag k="name" v="Nordskogbekken" />
		<tag k="ssr:stedsnr" v="413046" />
		<tag k="waterway" v="stream" />
	</node>
	<node lat="59.52471388726837" lon="8.431483333348362" id="-24841">
		<tag k="name" v="Hovtjønn" />
		<tag k="natural" v="water" />
		<tag k="ssr:stedsnr" v="413209" />
	</node>
	<node lat="59.38944444459676" lon="8.765008334910398" id="-24858">
		<tag k="name" v="Masteodden" />
		<tag k="natural" v="cape" />
		<tag k="ssr:stedsnr" v="487778" />
	</node>
	<node lat="59.37507643977852" lon="8.593699365110126" id="-24859">
		<tag k="alt_name" v="Skardastaultjørni" />
		<tag k="name" v="Skardastaultjønni" />
		<tag k="natural" v="water" />
		<tag k="ssr:stedsnr" v="487781" />
	</node>
	<node lat="59.33478055368457" lon="8.561261113030184" id="-24868">
		<tag k="alt_name" v="Mølbekken" />
		<tag k="name" v="Møllbekken" />
		<tag k="ssr:stedsnr" v="487878" />
		<tag k="waterway" v="stream" />
	</node>
	<node lat="59.31985277780298" lon="8.412541668137317" id="-24869">
		<tag k="name" v="Folleggdalbukti" />
		<tag k="natural" v="bay" />
		<tag k="ssr:stedsnr" v="414102" />
	</node>
	<node lat="59.326494440279326" lon="8.426327771090554" id="-24870">
		<tag k="name" v="Fiskebekk" />
		<tag k="ssr:stedsnr" v="414140" />
		<tag k="waterway" v="stream" />
	</node>
	<node lat="59.34433888792296" lon="8.481508336253421" id="-24871">
		<tag k="name" v="Eidstodåi" />
		<tag k="ssr:stedsnr" v="487829" />
		<tag k="waterway" v="stream" />
	</node>
	<node lat="59.43485833476598" lon="8.523902771058497" id="-24880">
		<tag k="name" v="Kvigardstangen" />
		<tag k="natural" v="cape" />
		<tag k="ssr:stedsnr" v="414299" />
	</node>
	<node lat="59.408236111787836" lon="8.396972222414247" id="-24881">
		<tag k="name" v="Rondtjønn" />
		<tag k="natural" v="water" />
		<tag k="ssr:stedsnr" v="414410" />
	</node>
	<node lat="59.43865000362028" lon="8.035816664107669" id="-24882">
		<tag k="name" v="Bandak" />
		<tag k="natural" v="water" />
		<tag k="ssr:stedsnr" v="487841" />
		<tag k="water" v="lake" />
	</node>
	<node lat="59.3511388889091" lon="8.727580561079172" id="-24883">
		<tag k="name" v="Løkin" />
		<tag k="natural" v="water" />
		<tag k="ssr:stedsnr" v="487842" />
	</node>
	<node lat="59.310197218089236" lon="8.440986114476317" id="-24896">
		<tag k="name" v="Den vesle tjønni" />
		<tag k="natural" v="water" />
		<tag k="ssr:stedsnr" v="414436" />
	</node>
	<node lat="59.44300555273473" lon="8.30252777104111" id="-24900">
		<tag k="name" v="Skrikartjønn" />
		<tag k="natural" v="water" />
		<tag k="ssr:stedsnr" v="414685" />
	</node>
	<node lat="59.341783335790815" lon="8.385669449568896" id="-24907">
		<tag k="name" v="Grauttjønn" />
		<tag k="natural" v="water" />
		<tag k="ssr:stedsnr" v="414787" />
	</node>
	<node lat="59.37957222460022" lon="8.469080547819974" id="-24909">
		<tag k="name" v="Høysvævodden" />
		<tag k="natural" v="cape" />
		<tag k="ssr:stedsnr" v="414797" />
	</node>
	<node lat="59.44932778132106" lon="8.402008325394672" id="-24911">
		<tag k="name" v="Stavdaltjønni" />
		<tag k="natural" v="water" />
		<tag k="ssr:stedsnr" v="414908" />
	</node>
	<node lat="59.409555553957645" lon="8.56792500589772" id="-24912">
		<tag k="name" v="Heivassåi" />
		<tag k="ssr:stedsnr" v="487940" />
		<tag k="waterway" v="stream" />
	</node>
	<node lat="59.4098777768637" lon="8.532305557707108" id="-24913">
		<tag k="alt_name" v="Lomtjørn" />
		<tag k="name" v="Lomtjønn" />
		<tag k="natural" v="water" />
		<tag k="ssr:stedsnr" v="487946" />
	</node>
	<node lat="59.31991637674946" lon="8.66093651172851" id="-24915">
		<tag k="name" v="Grotnesodden" />
		<tag k="natural" v="cape" />
		<tag k="ssr:stedsnr" v="415040" />
	</node>
	<node lat="59.31731666569402" lon="8.391183336273981" id="-24917">
		<tag k="alt_name" v="Sørlauvbukti" />
		<tag k="name" v="Lauvebukti" />
		<tag k="natural" v="bay" />
		<tag k="ssr:stedsnr" v="488147" />
	</node>
	<node lat="59.36578610963524" lon="8.396988889648458" id="-24923">
		<tag k="name" v="Størrhøle" />
		<tag k="natural" v="bay" />
		<tag k="ssr:stedsnr" v="414985" />
	</node>
	<node lat="59.3793444413078" lon="8.282538895454891" id="-24924">
		<tag k="name" v="Midtre Gaukstøyltjønni" />
		<tag k="natural" v="water" />
		<tag k="ssr:stedsnr" v="414986" />
	</node>
	<node lat="59.29501840533518" lon="8.713759579865513" id="-24927">
		<tag k="name" v="Briskelibergi" />
		<tag k="natural" v="cape" />
		<tag k="ssr:stedsnr" v="415113" />
	</node>
	<node lat="59.32570788867438" lon="8.235989788458475" id="-24948">
		<tag k="name" v="Åsbogtjønni" />
		<tag k="natural" v="water" />
		<tag k="ssr:stedsnr" v="416246" />
	</node>
	<node lat="59.47381087780776" lon="8.422363954387379" id="-24953">
		<tag k="name" v="Sauhylen" />
		<tag k="natural" v="water" />
		<tag k="ssr:stedsnr" v="416699" />
		<tag k="water" v="lake" />
	</node>
	<node lat="59.39841662669007" lon="8.267651784565773" id="-24958">
		<tag k="name" v="Digernesødden" />
		<tag k="natural" v="cape" />
		<tag k="ssr:stedsnr" v="416795" />
	</node>
	<node lat="59.51510555762621" lon="8.333041658495551" id="-24966">
		<tag k="name" v="Selvatn" />
		<tag k="natural" v="water" />
		<tag k="ssr:stedsnr" v="488476" />
		<tag k="water" v="lake" />
	</node>
	<node lat="59.36916110759548" lon="8.170238891555817" id="-24972">
		<tag k="name" v="Vrålipytten" />
		<tag k="natural" v="water" />
		<tag k="ssr:stedsnr" v="427303" />
		<tag k="water" v="pond" />
	</node>
	<node lat="59.281567066598996" lon="8.810747090560634" id="-24979">
		<tag k="alt_name" v="Johans-dammar" />
		<tag k="name" v="Johansdamman" />
		<tag k="natural" v="water" />
		<tag k="ssr:stedsnr" v="427703" />
	</node>
	<node lat="59.4360055579649" lon="8.533408337822195" id="-24986">
		<tag k="alt_name" v="Skogsmarktjørni" />
		<tag k="name" v="Skogsmarktjønni" />
		<tag k="natural" v="water" />
		<tag k="ssr:stedsnr" v="427873" />
	</node>
	<node lat="59.429019447553515" lon="8.589869439439225" id="-24988">
		<tag k="alt_name" v="Jønntjørn" />
		<tag k="name" v="Storejønntjønn" />
		<tag k="natural" v="water" />
		<tag k="ssr:stedsnr" v="427876" />
	</node>
	<node lat="59.419711110826235" lon="8.544608334707247" id="-24989">
		<tag k="alt_name" v="Svartetjørn" />
		<tag k="name" v="Svarttjønn" />
		<tag k="natural" v="water" />
		<tag k="ssr:stedsnr" v="427906" />
	</node>
	<node lat="59.51708610688784" lon="8.426594450449658" id="-24991">
		<tag k="alt_name" v="Kabrettstaultjørni" />
		<tag k="name" v="Kabrettstaultjønni" />
		<tag k="natural" v="water" />
		<tag k="ssr:stedsnr" v="428473" />
	</node>
	<node lat="59.31877777732128" lon="8.433519438483799" id="-24997">
		<tag k="name" v="Storstraum" />
		<tag k="natural" v="waterfall" />
		<tag k="ssr:stedsnr" v="473215" />
	</node>
	<node lat="59.3275027808682" lon="8.434938891490551" id="-25006">
		<tag k="name" v="Sagåi" />
		<tag k="ssr:stedsnr" v="474117" />
		<tag k="waterway" v="stream" />
	</node>
	<node lat="59.34615277899567" lon="8.323047229856767" id="-25020">
		<tag k="name" v="Bjønnhette" />
		<tag k="natural" v="cape" />
		<tag k="ssr:stedsnr" v="474673" />
	</node>
	<node lat="59.35243610860659" lon="8.365427773260949" id="-25026">
		<tag k="name" v="Vindlausbekken" />
		<tag k="ssr:stedsnr" v="474702" />
		<tag k="waterway" v="stream" />
	</node>
	<node lat="59.43224722115184" lon="8.470705562113677" id="-25028">
		<tag k="name" v="Kosafossen" />
		<tag k="natural" v="waterfall" />
		<tag k="ssr:stedsnr" v="474709" />
	</node>
	<node lat="59.43001110826904" lon="8.347619445435194" id="-25031">
		<tag k="name" v="Krokmyrbekken" />
		<tag k="ssr:stedsnr" v="474764" />
		<tag k="waterway" v="stream" />
	</node>
	<node lat="59.487447225487045" lon="8.43426388820109" id="-25033">
		<tag k="name" v="Krossbakktjønnflyet" />
		<tag k="natural" v="water" />
		<tag k="ssr:stedsnr" v="474770" />
		<tag k="water" v="pond" />
	</node>
	<node lat="59.443150001086444" lon="8.536836110662776" id="-25054">
		<tag k="name" v="Kistefoss" />
		<tag k="natural" v="waterfall" />
		<tag k="ssr:stedsnr" v="475463" />
	</node>
	<node lat="59.32642549255188" lon="8.700820746089903" id="-25061">
		<tag k="name" v="Diplan" />
		<tag k="natural" v="water" />
		<tag k="ssr:stedsnr" v="475711" />
	</node>
	<node lat="59.29714048792044" lon="8.5003981384199" id="-25073">
		<tag k="name" v="Øvre Småøyan" />
		<tag k="place" v="island" />
		<tag k="ssr:stedsnr" v="476114" />
	</node>
	<node lat="59.308945103162834" lon="8.51578852145769" id="-25082">
		<tag k="name" v="Stallanbukti" />
		<tag k="natural" v="bay" />
		<tag k="ssr:stedsnr" v="476870" />
	</node>
	<node lat="59.36207750529407" lon="8.164082555344521" id="-25091">
		<tag k="name" v="Hesttjønnbekken" />
		<tag k="ssr:stedsnr" v="477822" />
		<tag k="waterway" v="stream" />
	</node>
	<node lat="59.38776111171581" lon="8.415394448056997" id="-25094">
		<tag k="name" v="Halvfarodden" />
		<tag k="natural" v="cape" />
		<tag k="ssr:stedsnr" v="487317" />
	</node>
	<node lat="59.33943333143154" lon="8.416175001212203" id="-25095">
		<tag k="name" v="Persvatn" />
		<tag k="natural" v="water" />
		<tag k="ssr:stedsnr" v="487353" />
	</node>
	<node lat="59.26845000219549" lon="8.36738888423656" id="-25096">
		<tag k="name" v="Grimdalsåi" />
		<tag k="ssr:stedsnr" v="487210" />
		<tag k="waterway" v="stream" />
	</node>
	<node lat="59.40731666822079" lon="8.361741673192293" id="-25100">
		<tag k="alt_name" v="Byggstaultjørni" />
		<tag k="name" v="Byggstaultjønni" />
		<tag k="natural" v="water" />
		<tag k="ssr:stedsnr" v="487502" />
	</node>
	<node lat="59.299266663805604" lon="8.783902775809032" id="-25102">
		<tag k="name" v="Åsebekken" />
		<tag k="ssr:stedsnr" v="487727" />
		<tag k="waterway" v="stream" />
	</node>
	<node lat="59.33811185947691" lon="8.81098172346935" id="-25103">
		<tag k="alt_name" v="Sudkiltjørni" />
		<tag k="name" v="Sudkiltjønn" />
		<tag k="natural" v="water" />
		<tag k="ssr:stedsnr" v="487684" />
	</node>
	<node lat="59.32663333379816" lon="8.55022500374378" id="-25104">
		<tag k="name" v="Sirdalstjørnan" />
		<tag k="natural" v="water" />
		<tag k="ssr:stedsnr" v="487689" />
	</node>
	<node lat="59.35117499916858" lon="8.686149999170903" id="-25106">
		<tag k="alt_name" v="Holmevatn" />
		<tag k="name" v="Holmevatnet" />
		<tag k="natural" v="water" />
		<tag k="ssr:stedsnr" v="487852" />
	</node>
	<node lat="59.33585555813457" lon="8.758427775659232" id="-25108">
		<tag k="name" v="Granastaultjønn" />
		<tag k="natural" v="water" />
		<tag k="ssr:stedsnr" v="487870" />
	</node>
	<node lat="59.55825833089835" lon="8.406766671682373" id="-25111">
		<tag k="alt_name" v="Sundsbarmvatnet" />
		<tag k="name" v="Sundsbarmvatn" />
		<tag k="natural" v="water" />
		<tag k="ssr:stedsnr" v="488401" />
		<tag k="water" v="lake" />
	</node>
	<node lat="59.32229008084223" lon="8.72799140016323" id="-25112">
		<tag k="alt_name" v="Lomtjørn" />
		<tag k="name" v="Lomtjønn" />
		<tag k="natural" v="water" />
		<tag k="ssr:stedsnr" v="488606" />
	</node>
	<node lat="59.31031666779902" lon="8.702147217703454" id="-25113">
		<tag k="alt_name" v="Siljutangen" />
		<tag k="name" v="Siljetangen" />
		<tag k="natural" v="cape" />
		<tag k="ssr:stedsnr" v="488651" />
	</node>
	<node lat="59.318486112273916" lon="8.67608611500618" id="-25114">
		<tag k="name" v="Straumen" />
		<tag k="natural" v="strait" />
		<tag k="ssr:stedsnr" v="488654" />
	</node>
	<node lat="59.49552222132463" lon="8.36760278135552" id="-25124">
		<tag k="name" v="Vesle Råmundtjønn" />
		<tag k="natural" v="water" />
		<tag k="ssr:stedsnr" v="534180" />
	</node>
	<node lat="59.43084721796161" lon="8.475786118697409" id="-25126">
		<tag k="name" v="Kosabekken" />
		<tag k="ssr:stedsnr" v="534702" />
		<tag k="waterway" v="stream" />
	</node>
	<node lat="59.410686113235315" lon="8.382961105939213" id="-25128">
		<tag k="name" v="Sagadammen" />
		<tag k="ssr:stedsnr" v="534818" />
		<tag k="waterway" v="dam" />
	</node>
	<node lat="59.325566667198146" lon="8.395872213757784" id="-25133">
		<tag k="name" v="Sundsøy" />
		<tag k="place" v="island" />
		<tag k="ssr:stedsnr" v="535127" />
	</node>
	<node lat="59.5149916655476" lon="8.388352776277264" id="-25139">
		<tag k="name" v="Nedre Åndetjønn" />
		<tag k="natural" v="water" />
		<tag k="ssr:stedsnr" v="535204" />
	</node>
	<node lat="59.42518889140978" lon="8.534261114284151" id="-25146">
		<tag k="name" v="Fosshogge" />
		<tag k="natural" v="waterfall" />
		<tag k="ssr:stedsnr" v="535317" />
	</node>
	<node lat="59.3164861106252" lon="8.481044440401778" id="-25147">
		<tag k="name" v="Fossøytjønni" />
		<tag k="natural" v="water" />
		<tag k="ssr:stedsnr" v="535503" />
	</node>
	<node lat="59.342066665810904" lon="8.279369438248152" id="-25160">
		<tag k="name" v="Lisleødde" />
		<tag k="natural" v="cape" />
		<tag k="ssr:stedsnr" v="535769" />
	</node>
	<node lat="59.342502778890555" lon="8.278638891524746" id="-25161">
		<tag k="name" v="Mjaugevassundet" />
		<tag k="natural" v="strait" />
		<tag k="ssr:stedsnr" v="535770" />
	</node>
	<node lat="59.34035833391631" lon="8.297230549391726" id="-25162">
		<tag k="name" v="Haugeøddan" />
		<tag k="natural" v="cape" />
		<tag k="ssr:stedsnr" v="535775" />
	</node>
	<node lat="59.434955557843715" lon="8.393694451370266" id="-25165">
		<tag k="name" v="Piparfossen" />
		<tag k="natural" v="waterfall" />
		<tag k="ssr:stedsnr" v="535674" />
	</node>
	<node lat="59.355377780738074" lon="8.34270277862627" id="-25167">
		<tag k="name" v="Langødde" />
		<tag k="natural" v="cape" />
		<tag k="ssr:stedsnr" v="535680" />
	</node>
	<node lat="59.45775555174837" lon="8.4352194473831" id="-25171">
		<tag k="name" v="Hemmestveittjønni" />
		<tag k="natural" v="water" />
		<tag k="ssr:stedsnr" v="535879" />
	</node>
	<node lat="59.46311389194992" lon="8.432658331296398" id="-25172">
		<tag k="name" v="Vassend" />
		<tag k="natural" v="waterfall" />
		<tag k="ssr:stedsnr" v="535881" />
	</node>
	<node lat="59.26679991819526" lon="8.52520420735557" id="-25179">
		<tag k="name" v="Vesle Trytetjønn" />
		<tag k="natural" v="water" />
		<tag k="ssr:stedsnr" v="536213" />
	</node>
	<node lat="59.320538889125196" lon="8.35634165940832" id="-25181">
		<tag k="name" v="Indre Nordstøgdalødden" />
		<tag k="natural" v="cape" />
		<tag k="ssr:stedsnr" v="535974" />
	</node>
	<node lat="59.44820035130253" lon="8.51375858569233" id="-25183">
		<tag k="name" v="Åkragen" />
		<tag k="place" v="locality" />
		<tag k="ssr:stedsnr" v="536170" />
	</node>
	<node lat="59.38197415272389" lon="8.760368606539352" id="-25201">
		<tag k="name" v="Åstjønn" />
		<tag k="natural" v="water" />
		<tag k="ssr:stedsnr" v="537307" />
	</node>
	<node lat="59.40671145968954" lon="8.634058980035054" id="-25211">
		<tag k="name" v="Mørkevatn" />
		<tag k="natural" v="water" />
		<tag k="ssr:stedsnr" v="538282" />
		<tag k="water" v="lake" />
	</node>
	<node lat="59.37228055589814" lon="8.43287499940239" id="-25218">
		<tag k="alt_name" v="Nystaultjørni" />
		<tag k="name" v="Nystaultjønni" />
		<tag k="natural" v="water" />
		<tag k="ssr:stedsnr" v="548280" />
	</node>
	<node lat="59.33343610719917" lon="8.320150004873486" id="-25224">
		<tag k="name" v="Revskil" />
		<tag k="natural" v="bay" />
		<tag k="ssr:stedsnr" v="548360" />
	</node>
	<node lat="59.364150003758226" lon="8.38698610478078" id="-25226">
		<tag k="alt_name" v="Ljosvatn" />
		<tag k="name" v="Ljosvatnet" />
		<tag k="natural" v="water" />
		<tag k="ssr:stedsnr" v="548375" />
		<tag k="water" v="lake" />
	</node>
	<node lat="59.30613055330323" lon="8.500336107887653" id="-25229">
		<tag k="alt_name" v="Høgøy" />
		<tag k="name" v="Høgøyi" />
		<tag k="place" v="islet" />
		<tag k="ssr:stedsnr" v="548657" />
	</node>
	<node lat="59.32200555813254" lon="8.576358334619357" id="-25230">
		<tag k="alt_name" v="Løkjen" />
		<tag k="name" v="Løken" />
		<tag k="ssr:stedsnr" v="548661" />
		<tag k="waterway" v="stream" />
	</node>
	<node lat="59.32314444038605" lon="8.571550000162944" id="-25231">
		<tag k="alt_name" v="Damtjørn" />
		<tag k="name" v="Damtjønn" />
		<tag k="natural" v="water" />
		<tag k="ssr:stedsnr" v="548666" />
	</node>
	<node lat="59.35797499663443" lon="8.790005552588038" id="-25232">
		<tag k="alt_name" v="Skotbergtjørni" />
		<tag k="name" v="Skotbergtjønn" />
		<tag k="natural" v="water" />
		<tag k="ssr:stedsnr" v="548809" />
	</node>
	<node lat="59.28075278123079" lon="8.732600001169889" id="-25236">
		<tag k="name" v="Bergetjørn" />
		<tag k="natural" v="water" />
		<tag k="ssr:stedsnr" v="548717" />
	</node>
	<node lat="59.36902499834947" lon="8.561802785853743" id="-25240">
		<tag k="alt_name" v="Rauåi" />
		<tag k="name" v="Raudåi" />
		<tag k="ssr:stedsnr" v="548772" />
		<tag k="waterway" v="stream" />
	</node>
	<node lat="59.40687500411096" lon="8.579674991981442" id="-25243">
		<tag k="alt_name" v="Folatjørn" />
		<tag k="name" v="Folatjønn" />
		<tag k="natural" v="water" />
		<tag k="ssr:stedsnr" v="548959" />
	</node>
	<node lat="59.51162500151566" lon="8.45188056338602" id="-25244">
		<tag k="alt_name" v="Jåmantjørn" />
		<tag k="name" v="Jåmanntjønni" />
		<tag k="natural" v="water" />
		<tag k="ssr:stedsnr" v="549469" />
	</node>
	<node lat="59.34682222544521" lon="8.563213882403735" id="-25245">
		<tag k="name" v="Snaunesodden" />
		<tag k="natural" v="cape" />
		<tag k="ssr:stedsnr" v="549651" />
	</node>
	<node lat="59.31343055738629" lon="8.489205549600527" id="-25263">
		<tag k="name" v="Kålgarødden" />
		<tag k="natural" v="cape" />
		<tag k="ssr:stedsnr" v="595352" />
	</node>
	<node lat="59.386391663442055" lon="8.433677783902798" id="-25271">
		<tag k="name" v="Kassnesskjeret" />
		<tag k="place" v="islet" />
		<tag k="ssr:stedsnr" v="595662" />
	</node>
	<node lat="59.44488055859331" lon="8.584883336133158" id="-25274">
		<tag k="name" v="Saltvollbekken" />
		<tag k="ssr:stedsnr" v="595700" />
		<tag k="waterway" v="stream" />
	</node>
	<node lat="59.442666664641756" lon="8.337272219449554" id="-25278">
		<tag k="name" v="Vesletjønn" />
		<tag k="natural" v="water" />
		<tag k="ssr:stedsnr" v="595820" />
	</node>
	<node lat="59.36563333554513" lon="8.491324994567309" id="-25279">
		<tag k="name" v="Strømstabukti" />
		<tag k="natural" v="bay" />
		<tag k="ssr:stedsnr" v="595857" />
	</node>
	<node lat="59.318205558029454" lon="8.3010611176453" id="-25288">
		<tag k="name" v="Ufsebubekken" />
		<tag k="ssr:stedsnr" v="595955" />
		<tag k="waterway" v="stream" />
	</node>
	<node lat="59.2856179384441" lon="8.525267453540282" id="-25293">
		<tag k="name" v="Bussvik" />
		<tag k="natural" v="bay" />
		<tag k="ssr:stedsnr" v="596203" />
	</node>
	<node lat="59.505369447401655" lon="8.356111115864731" id="-25300">
		<tag k="name" v="Mjåvassbekken" />
		<tag k="ssr:stedsnr" v="596165" />
		<tag k="waterway" v="stream" />
	</node>
	<node lat="59.42418332964796" lon="8.430138880276766" id="-25304">
		<tag k="name" v="Nordbøbekken" />
		<tag k="ssr:stedsnr" v="596313" />
		<tag k="waterway" v="stream" />
	</node>
	<node lat="59.27991917960265" lon="8.660521145484429" id="-25309">
		<tag k="name" v="Gonnesontjønni" />
		<tag k="natural" v="water" />
		<tag k="ssr:stedsnr" v="596351" />
	</node>
	<node lat="59.41076728028582" lon="8.568808215033705" id="-25314">
		<tag k="name" v="Klepptjønnbekken" />
		<tag k="ssr:stedsnr" v="596703" />
		<tag k="waterway" v="stream" />
	</node>
	<node lat="59.35493055716639" lon="8.28859443698286" id="-25320">
		<tag k="name" v="Saubergviki" />
		<tag k="natural" v="bay" />
		<tag k="ssr:stedsnr" v="596757" />
	</node>
	<node lat="59.326287776225364" lon="8.626721389451005" id="-25324">
		<tag k="name" v="Sulisanden" />
		<tag k="natural" v="beach" />
		<tag k="ssr:stedsnr" v="597011" />
	</node>
	<node lat="59.361098262600095" lon="8.263187856555424" id="-25347">
		<tag k="name" v="Støyldalsbekken" />
		<tag k="ssr:stedsnr" v="598966" />
		<tag k="waterway" v="stream" />
	</node>
	<node lat="59.317180557316185" lon="8.848233334359012" id="-25349">
		<tag k="alt_name" v="Holdnestjørni" />
		<tag k="name" v="Holdnestjønni" />
		<tag k="natural" v="water" />
		<tag k="ssr:stedsnr" v="608200" />
	</node>
	<node lat="59.3925666698654" lon="8.371013887019357" id="-25350">
		<tag k="name" v="Digernes" />
		<tag k="natural" v="cape" />
		<tag k="ssr:stedsnr" v="608295" />
	</node>
	<node lat="59.461611112072276" lon="8.326349999204451" id="-25352">
		<tag k="alt_name" v="Storetjørn" />
		<tag k="name" v="Stortjønn" />
		<tag k="natural" v="water" />
		<tag k="ssr:stedsnr" v="608446" />
	</node>
	<node lat="59.287036114755075" lon="8.348075008341196" id="-25369">
		<tag k="alt_name" v="Damtjørn" />
		<tag k="name" v="Damtjønn" />
		<tag k="natural" v="water" />
		<tag k="ssr:stedsnr" v="609235" />
	</node>
	<node lat="59.44169166386873" lon="8.304350001571807" id="-25371">
		<tag k="alt_name" v="Sendingsvatn" />
		<tag k="name" v="Sendingsvatnet" />
		<tag k="natural" v="water" />
		<tag k="ssr:stedsnr" v="609448" />
		<tag k="water" v="lake" />
	</node>
	<node lat="59.306291670087866" lon="8.6693166599817" id="-25377">
		<tag k="alt_name" v="Hyvrebekken" />
		<tag k="name" v="Høvrebekken" />
		<tag k="ssr:stedsnr" v="609638" />
		<tag k="waterway" v="stream" />
	</node>
	<node lat="59.502133337753826" lon="8.451752785077693" id="-25383">
		<tag k="name" v="Jåmannbekken" />
		<tag k="ssr:stedsnr" v="655498" />
		<tag k="waterway" v="stream" />
	</node>
	<node lat="59.31698611146125" lon="8.383288882334277" id="-25392">
		<tag k="name" v="Halvorsødde" />
		<tag k="natural" v="cape" />
		<tag k="ssr:stedsnr" v="655981" />
	</node>
	<node lat="59.332141664784544" lon="8.388038883287548" id="-25397">
		<tag k="name" v="Sinnesbukti" />
		<tag k="natural" v="bay" />
		<tag k="ssr:stedsnr" v="656184" />
	</node>
	<node lat="59.31669394698391" lon="8.653489592693496" id="-25414">
		<tag k="name" v="Grotnesbekken" />
		<tag k="ssr:stedsnr" v="657040" />
		<tag k="waterway" v="stream" />
	</node>
	<node lat="59.39595757188157" lon="8.27313612281703" id="-25420">
		<tag k="name" v="Digernesbukti" />
		<tag k="natural" v="bay" />
		<tag k="ssr:stedsnr" v="656986" />
	</node>
	<node lat="59.32851944783998" lon="8.376172228066967" id="-25423">
		<tag k="name" v="Jordsødden" />
		<tag k="natural" v="cape" />
		<tag k="ssr:stedsnr" v="656999" />
	</node>
	<node lat="59.485366671043934" lon="8.306191672448891" id="-25427">
		<tag k="name" v="Brattrudfossen" />
		<tag k="natural" v="waterfall" />
		<tag k="ssr:stedsnr" v="657237" />
	</node>
	<node lat="59.31493137615005" lon="8.697898483012295" id="-25441">
		<tag k="name" v="Gravningsodden" />
		<tag k="natural" v="cape" />
		<tag k="ssr:stedsnr" v="657683" />
	</node>
	<node lat="59.313083315772396" lon="8.503173820318311" id="-25444">
		<tag k="name" v="Fløtetangødden" />
		<tag k="natural" v="cape" />
		<tag k="ssr:stedsnr" v="657805" />
	</node>
	<node lat="59.329487812132065" lon="8.26848104535868" id="-25462">
		<tag k="name" v="Mærdalsbekken" />
		<tag k="ssr:stedsnr" v="659109" />
		<tag k="waterway" v="stream" />
	</node>
	<node lat="59.352631961203805" lon="8.253323907124011" id="-25463">
		<tag k="name" v="Sørbukti" />
		<tag k="natural" v="bay" />
		<tag k="ssr:stedsnr" v="659715" />
	</node>
	<node lat="59.49268611524208" lon="8.3373527745568" id="-25482">
		<tag k="alt_name" v="Olavstaultjørni" />
		<tag k="name" v="Olavstaultjønni" />
		<tag k="natural" v="water" />
		<tag k="ssr:stedsnr" v="669875" />
	</node>
	<node lat="59.41966851563576" lon="8.574036717134321" id="-25490">
		<tag k="name" v="Langesjå" />
		<tag k="natural" v="water" />
		<tag k="ssr:stedsnr" v="669912" />
		<tag k="water" v="lake" />
	</node>
	<node lat="59.31791110714076" lon="8.377788895968926" id="-25511">
		<tag k="name" v="Joreødden" />
		<tag k="natural" v="cape" />
		<tag k="ssr:stedsnr" v="716977" />
	</node>
	<node lat="59.325719445126836" lon="8.397347222625461" id="-25519">
		<tag k="name" v="Sundsøygapet" />
		<tag k="natural" v="strait" />
		<tag k="ssr:stedsnr" v="717124" />
	</node>
	<node lat="59.407358331856116" lon="8.498872227846329" id="-25528">
		<tag k="name" v="Opsundbekken" />
		<tag k="ssr:stedsnr" v="899202" />
		<tag k="waterway" v="stream" />
	</node>
	<node lat="59.40833333253386" lon="8.502713890158647" id="-25535">
		<tag k="name" v="Vesledam" />
		<tag k="natural" v="water" />
		<tag k="ssr:stedsnr" v="899141" />
	</node>
	<node lat="59.4976361099154" lon="8.425191663278836" id="-25536">
		<tag k="name" v="Jutulbroi" />
		<tag k="natural" v="shoal" />
		<tag k="place" v="locality" />
		<tag k="ssr:stedsnr" v="899143" />
	</node>
	<node lat="59.4230972184887" lon="8.340597216268295" id="-25545">
		<tag k="name" v="Lintjønnbekken" />
		<tag k="ssr:stedsnr" v="717763" />
		<tag k="waterway" v="stream" />
	</node>
	<node lat="59.32633689715708" lon="8.629336127803104" id="-25553">
		<tag k="name" v="Fiskodden" />
		<tag k="natural" v="cape" />
		<tag k="ssr:stedsnr" v="718026" />
	</node>
	<node lat="59.27620277881634" lon="8.349194443645937" id="-25558">
		<tag k="name" v="Fosshogget" />
		<tag k="natural" v="waterfall" />
		<tag k="ssr:stedsnr" v="899243" />
	</node>
	<node lat="59.30721111032945" lon="8.481341669450103" id="-25583">
		<tag k="name" v="Lauvøddsondet" />
		<tag k="natural" v="strait" />
		<tag k="ssr:stedsnr" v="899375" />
	</node>
	<node lat="59.35761498667918" lon="8.577385374532808" id="-25593">
		<tag k="name" v="Deildebukti" />
		<tag k="natural" v="bay" />
		<tag k="ssr:stedsnr" v="718709" />
	</node>
	<node lat="59.48327777778429" lon="8.407111102916149" id="-25597">
		<tag k="name" v="Hegneosen" />
		<tag k="natural" v="bay" />
		<tag k="ssr:stedsnr" v="718717" />
	</node>
	<node lat="59.30394667162308" lon="8.755052222425398" id="-25609">
		<tag k="name" v="Belebukti" />
		<tag k="natural" v="bay" />
		<tag k="ssr:stedsnr" v="719490" />
	</node>
	<node lat="59.30411075683814" lon="8.790824888094928" id="-25623">
		<tag k="name" v="Bjønnholet" />
		<tag k="natural" v="bay" />
		<tag k="ssr:stedsnr" v="720372" />
	</node>
	<node lat="59.35626055166713" lon="8.26949155084843" id="-25628">
		<tag k="name" v="Sandvikbekken" />
		<tag k="ssr:stedsnr" v="720728" />
		<tag k="waterway" v="stream" />
	</node>
	<node lat="59.350391662390095" lon="8.360261108073205" id="-25636">
		<tag k="name" v="Størrholet" />
		<tag k="natural" v="bay" />
		<tag k="ssr:stedsnr" v="899722" />
	</node>
	<node lat="59.44376388965637" lon="8.412900006814768" id="-25639">
		<tag k="name" v="Sjodalstjønni" />
		<tag k="natural" v="water" />
		<tag k="ssr:stedsnr" v="899674" />
	</node>
	<node lat="59.3542321202997" lon="8.207889709025197" id="-25641">
		<tag k="name" v="Heglandsodden" />
		<tag k="natural" v="cape" />
		<tag k="ssr:stedsnr" v="720906" />
	</node>
	<node lat="59.39414999858865" lon="8.407208341994233" id="-25653">
		<tag k="name" v="Knutsurodden" />
		<tag k="natural" v="cape" />
		<tag k="ssr:stedsnr" v="899734" />
	</node>
	<node lat="59.336419445016375" lon="8.301286104982506" id="-25658">
		<tag k="name" v="Bergebukti" />
		<tag k="natural" v="bay" />
		<tag k="ssr:stedsnr" v="899944" />
	</node>
	<node lat="59.32810555692121" lon="8.318730554666212" id="-25661">
		<tag k="name" v="Fiskeholken" />
		<tag k="natural" v="bay" />
		<tag k="ssr:stedsnr" v="899953" />
	</node>
	<node lat="59.502763888644104" lon="8.381386107767609" id="-25671">
		<tag k="name" v="Breivassdammen" />
		<tag k="natural" v="bay" />
		<tag k="ssr:stedsnr" v="900187" />
	</node>
	<node lat="59.282944977751086" lon="8.510646129147876" id="-25673">
		<tag k="name" v="Jutulbroi" />
		<tag k="place" v="locality" />
		<tag k="ssr:stedsnr" v="900222" />
	</node>
	<node lat="59.449174184134456" lon="8.517444047309134" id="-25674">
		<tag k="name" v="Augonhyl" />
		<tag k="place" v="locality" />
		<tag k="ssr:stedsnr" v="900200" />
	</node>
	<node lat="59.40962222128621" lon="8.545730562686426" id="-25681">
		<tag k="name" v="Storebåstjønn" />
		<tag k="natural" v="water" />
		<tag k="ssr:stedsnr" v="900289" />
	</node>
	<node lat="59.371093940226686" lon="8.533641791756652" id="-25685">
		<tag k="name" v="Notodden" />
		<tag k="natural" v="cape" />
		<tag k="ssr:stedsnr" v="900349" />
	</node>
	<node lat="59.430294441303666" lon="8.586366672301924" id="-25698">
		<tag k="name" v="Veslejønntjønn" />
		<tag k="natural" v="water" />
		<tag k="ssr:stedsnr" v="900545" />
	</node>
	<node lat="59.47665555707157" lon="8.418224996950153" id="-25701">
		<tag k="name" v="Bjorhylen" />
		<tag k="place" v="locality" />
		<tag k="ssr:stedsnr" v="900681" />
	</node>
	<node lat="59.47095833599884" lon="8.423705547652474" id="-25704">
		<tag k="name" v="Drangstveithylen" />
		<tag k="place" v="locality" />
		<tag k="ssr:stedsnr" v="900688" />
	</node>
	<node lat="59.31839903499612" lon="8.557758653405426" id="-25716">
		<tag k="name" v="Dipplandøy" />
		<tag k="place" v="island" />
		<tag k="ssr:stedsnr" v="900877" />
	</node>
	<node lat="59.45970000231271" lon="8.402266670457463" id="-25719">
		<tag k="name" v="Gunnleikrudpytten" />
		<tag k="natural" v="water" />
		<tag k="ssr:stedsnr" v="900896" />
		<tag k="water" v="pond" />
	</node>
	<node lat="59.36261388594009" lon="8.338586105475471" id="-25726">
		<tag k="name" v="Gråndalsbukti" />
		<tag k="natural" v="bay" />
		<tag k="ssr:stedsnr" v="900995" />
	</node>
	<node lat="59.33786666728519" lon="8.319463891250281" id="-25735">
		<tag k="name" v="Vråvatn" />
		<tag k="natural" v="water" />
		<tag k="ssr:stedsnr" v="730317" />
		<tag k="water" v="lake" />
	</node>
	<node lat="59.458627775561524" lon="8.401422228512903" id="-25737">
		<tag k="alt_name" v="Tjørnstaultjørni" />
		<tag k="name" v="Tjønnstaultjønni" />
		<tag k="natural" v="water" />
		<tag k="ssr:stedsnr" v="730409" />
	</node>
	<node lat="59.43886389114603" lon="8.439994446821228" id="-25738">
		<tag k="alt_name" v="Løkslitjørni" />
		<tag k="name" v="Løkslidtjønni" />
		<tag k="natural" v="water" />
		<tag k="ssr:stedsnr" v="730512" />
	</node>
	<node lat="59.36770277963093" lon="8.491777769279677" id="-25739">
		<tag k="name" v="Sjohyl" />
		<tag k="place" v="locality" />
		<tag k="ssr:stedsnr" v="730819" />
	</node>
	<node lat="59.2965722250508" lon="8.704138884845257" id="-25756">
		<tag k="alt_name" v="Kvennarbukti" />
		<tag k="name" v="Kvernaviki" />
		<tag k="natural" v="bay" />
		<tag k="ssr:stedsnr" v="731662" />
	</node>
	<node lat="59.43745833135542" lon="8.61139722156518" id="-25759">
		<tag k="name" v="Raudbekk" />
		<tag k="ssr:stedsnr" v="731871" />
		<tag k="waterway" v="stream" />
	</node>
	<node lat="59.40822645877834" lon="8.59851460633486" id="-25761">
		<tag k="alt_name" v="Svarttjønn" />
		<tag k="name" v="Svarttjørn" />
		<tag k="natural" v="water" />
		<tag k="ssr:stedsnr" v="731968" />
	</node>
	<node lat="59.36100479467886" lon="8.555303849400095" id="-25769">
		<tag k="name" v="Samulskosbukti" />
		<tag k="natural" v="bay" />
		<tag k="ssr:stedsnr" v="901616" />
	</node>
	<node lat="59.32991448604452" lon="8.684775983930711" id="-25773">
		<tag k="name" v="Fisketjønnbekken" />
		<tag k="ssr:stedsnr" v="901587" />
		<tag k="waterway" v="stream" />
	</node>
	<node lat="59.293201111473756" lon="8.789867327687501" id="-25776">
		<tag k="name" v="Dammen" />
		<tag k="natural" v="water" />
		<tag k="ssr:stedsnr" v="902389" />
	</node>
	<node lat="59.347074525214595" lon="8.250654649580158" id="-25780">
		<tag k="name" v="Søylevassodden" />
		<tag k="natural" v="cape" />
		<tag k="ssr:stedsnr" v="902736" />
	</node>
	<node lat="59.34794273092378" lon="8.25248289840697" id="-25781">
		<tag k="name" v="Pilskjer" />
		<tag k="place" v="island" />
		<tag k="ssr:stedsnr" v="902745" />
	</node>
	<node lat="59.29023333493493" lon="8.375555547427942" id="-25787">
		<tag k="name" v="Langlitjønnan" />
		<tag k="natural" v="water" />
		<tag k="ssr:stedsnr" v="777210" />
	</node>
	<node lat="59.26964722397283" lon="8.38633611769864" id="-25790">
		<tag k="name" v="Otertjønn" />
		<tag k="natural" v="water" />
		<tag k="ssr:stedsnr" v="777255" />
	</node>
	<node lat="59.38481944809652" lon="8.454738889604297" id="-25793">
		<tag k="name" v="Sikholet" />
		<tag k="natural" v="shoal" />
		<tag k="place" v="locality" />
		<tag k="ssr:stedsnr" v="777603" />
	</node>
	<node lat="59.38426666246939" lon="8.44269167022284" id="-25798">
		<tag k="name" v="Kjerringstein" />
		<tag k="place" v="locality" />
		<tag k="seamark:type" v="rock" />
		<tag k="ssr:stedsnr" v="777620" />
	</node>
	<node lat="59.51088611477678" lon="8.343744437903192" id="-25813">
		<tag k="name" v="Bjønntjønn" />
		<tag k="natural" v="water" />
		<tag k="ssr:stedsnr" v="778026" />
	</node>
	<node lat="59.50777222606107" lon="8.331772219512812" id="-25815">
		<tag k="name" v="Vesle Selvatn" />
		<tag k="natural" v="water" />
		<tag k="ssr:stedsnr" v="778159" />
		<tag k="water" v="lake" />
	</node>
	<node lat="59.50830277695389" lon="8.371586102642633" id="-25816">
		<tag k="name" v="Svinsagosen" />
		<tag k="ssr:stedsnr" v="778161" />
		<tag k="waterway" v="stream" />
	</node>
	<node lat="59.48108611442529" lon="8.379874996085508" id="-25818">
		<tag k="name" v="Moskeid" />
		<tag k="natural" v="water" />
		<tag k="ssr:stedsnr" v="778304" />
		<tag k="water" v="lake" />
	</node>
	<node lat="59.31223055604283" lon="8.485430551214119" id="-25827">
		<tag k="name" v="Karishøl" />
		<tag k="natural" v="bay" />
		<tag k="ssr:stedsnr" v="778363" />
	</node>
	<node lat="59.275127777104046" lon="8.482005548808683" id="-25831">
		<tag k="name" v="Heddersvikfjorden" />
		<tag k="natural" v="water" />
		<tag k="ssr:stedsnr" v="778256" />
	</node>
	<node lat="59.47211388810811" lon="8.330658327879673" id="-25833">
		<tag k="name" v="Ventjønn" />
		<tag k="natural" v="water" />
		<tag k="ssr:stedsnr" v="778265" />
	</node>
	<node lat="59.26977820640468" lon="8.514489796525211" id="-25864">
		<tag k="fixme" v="multiple name tags, choose one and add the other to alt_name" />
		<tag k="name" v="Kragsholmen;Flekkholmen" />
		<tag k="place" v="island" />
		<tag k="ssr:stedsnr" v="779219" />
	</node>
	<node lat="59.3620018313861" lon="8.782556379068449" id="-25865">
		<tag k="name" v="Torsonhylen" />
		<tag k="place" v="locality" />
		<tag k="ssr:stedsnr" v="779352" />
	</node>
	<node lat="59.37091044140838" lon="8.54089683772524" id="-25867">
		<tag k="name" v="Fiskehyttbukti" />
		<tag k="natural" v="bay" />
		<tag k="ssr:stedsnr" v="779356" />
	</node>
	<node lat="59.40190626120006" lon="8.575750114599321" id="-25879">
		<tag k="name" v="Heivatn" />
		<tag k="natural" v="water" />
		<tag k="ssr:stedsnr" v="779705" />
		<tag k="water" v="lake" />
	</node>
	<node lat="59.328214563547995" lon="8.554117735992994" id="-25886">
		<tag k="name" v="Øvre Sirdaltjønn" />
		<tag k="natural" v="water" />
		<tag k="ssr:stedsnr" v="779659" />
	</node>
	<node lat="59.311413887051145" lon="8.351875003700632" id="-25899">
		<tag k="name" v="Skredtveitbekken" />
		<tag k="ssr:stedsnr" v="791143" />
		<tag k="waterway" v="stream" />
	</node>
	<node lat="59.353586109858206" lon="8.281461104580375" id="-25904">
		<tag k="alt_name" v="Homshommen" />
		<tag k="name" v="Hommesholmen" />
		<tag k="place" v="islet" />
		<tag k="ssr:stedsnr" v="791346" />
	</node>
	<node lat="59.30106666866887" lon="8.460961105142356" id="-25906">
		<tag k="alt_name" v="Trytetjørn" />
		<tag k="name" v="Trytetjønn" />
		<tag k="natural" v="water" />
		<tag k="ssr:stedsnr" v="791239" />
	</node>
	<node lat="59.28853332994582" lon="8.325538895904769" id="-25907">
		<tag k="name" v="Gantekvævbekken" />
		<tag k="ssr:stedsnr" v="791248" />
		<tag k="waterway" v="stream" />
	</node>
	<node lat="59.27228889072335" lon="8.67736944432718" id="-25910">
		<tag k="alt_name" v="Stavtjørn" />
		<tag k="name" v="Stavtjønn" />
		<tag k="natural" v="water" />
		<tag k="ssr:stedsnr" v="791490" />
	</node>
	<node lat="59.322194444979445" lon="8.656150005212366" id="-25911">
		<tag k="alt_name" v="Hollenderodden" />
		<tag k="name" v="Hollendarodden" />
		<tag k="natural" v="cape" />
		<tag k="ssr:stedsnr" v="791614" />
	</node>
	<node lat="59.31879444893017" lon="8.494955561357665" id="-25912">
		<tag k="alt_name" v="Rundøy" />
		<tag k="name" v="Rundøyi" />
		<tag k="place" v="islet" />
		<tag k="ssr:stedsnr" v="791637" />
	</node>
	<node lat="59.47450555597811" lon="8.4525722153664" id="-25914">
		<tag k="alt_name" v="Nastaultjørni" />
		<tag k="name" v="Nastaultjønni" />
		<tag k="natural" v="water" />
		<tag k="ssr:stedsnr" v="791400" />
	</node>
	<node lat="59.50132222480487" lon="8.363888892956227" id="-25915">
		<tag k="alt_name" v="Mjåvatnet" />
		<tag k="name" v="Mjåvatn" />
		<tag k="natural" v="water" />
		<tag k="ssr:stedsnr" v="791540" />
	</node>
	<node lat="59.25656110693483" lon="8.577030555912526" id="-25916">
		<tag k="name" v="Kaldvatn" />
		<tag k="natural" v="water" />
		<tag k="ssr:stedsnr" v="791541" />
	</node>
	<node lat="59.27508333401642" lon="8.675100001786555" id="-25918">
		<tag k="alt_name" v="Fisktjørn" />
		<tag k="name" v="Fisketjønn" />
		<tag k="natural" v="water" />
		<tag k="ssr:stedsnr" v="791709" />
	</node>
	<node lat="59.351155552219666" lon="8.826274994677126" id="-25920">
		<tag k="alt_name" v="Svartevatn" />
		<tag k="name" v="Svartvatnet" />
		<tag k="natural" v="water" />
		<tag k="ssr:stedsnr" v="791834" />
	</node>
	<node lat="59.38982777669505" lon="8.293933339544134" id="-25926">
		<tag k="name" v="Ånebubekken" />
		<tag k="ssr:stedsnr" v="912302" />
		<tag k="waterway" v="stream" />
	</node>
	<node lat="59.345724999298945" lon="8.26979167036969" id="-25927">
		<tag k="alt_name" v="Storodde" />
		<tag k="name" v="Storodden" />
		<tag k="natural" v="cape" />
		<tag k="ssr:stedsnr" v="912334" />
	</node>
	<node lat="59.35435000335111" lon="8.314544449169587" id="-25930">
		<tag k="name" v="Flatlandsåi" />
		<tag k="ssr:stedsnr" v="912378" />
		<tag k="waterway" v="river" />
	</node>
	<node lat="59.25846388638336" lon="8.596127785913371" id="-25931">
		<tag k="alt_name" v="Svarttjørn" />
		<tag k="name" v="Svarttjønn" />
		<tag k="natural" v="water" />
		<tag k="ssr:stedsnr" v="913529" />
	</node>
	<node lat="59.37330277569271" lon="8.56296111594162" id="-25934">
		<tag k="name" v="Kovstaulbekken" />
		<tag k="ssr:stedsnr" v="912779" />
		<tag k="waterway" v="stream" />
	</node>
	<node lat="59.42153888882114" lon="8.602080562155491" id="-25935">
		<tag k="alt_name" v="Bjortjørn" />
		<tag k="name" v="Bjortjønn" />
		<tag k="natural" v="water" />
		<tag k="ssr:stedsnr" v="912913" />
	</node>
	<node lat="59.47461111349769" lon="8.480430562423958" id="-25938">
		<tag k="name" v="Ordalsåi" />
		<tag k="ssr:stedsnr" v="913023" />
		<tag k="waterway" v="river" />
	</node>
	<node lat="59.317858336947076" lon="8.373100003804236" id="-25941">
		<tag k="alt_name" v="Midtbøøddan" />
		<tag k="name" v="Midbøodden" />
		<tag k="natural" v="cape" />
		<tag k="ssr:stedsnr" v="913148" />
	</node>
	<node lat="59.36508611366302" lon="8.363063887414942" id="-25942">
		<tag k="alt_name" v="Lynglitjørni" />
		<tag k="name" v="Linglitjønn" />
		<tag k="natural" v="water" />
		<tag k="ssr:stedsnr" v="913255" />
	</node>
	<node lat="59.34349166808721" lon="8.873150003251164" id="-25944">
		<tag k="alt_name" v="Sandtjørn" />
		<tag k="name" v="Sandtjønn" />
		<tag k="natural" v="water" />
		<tag k="ssr:stedsnr" v="913260" />
	</node>
	<node lat="59.43290277789854" lon="8.304144443715565" id="-25950">
		<tag k="alt_name" v="Rottjørn" />
		<tag k="name" v="Rottjønn" />
		<tag k="natural" v="water" />
		<tag k="ssr:stedsnr" v="913460" />
	</node>
	<node lat="59.34684999684082" lon="8.74026110542681" id="-25957">
		<tag k="alt_name" v="Svarttjørni" />
		<tag k="name" v="Svarttjønn" />
		<tag k="natural" v="water" />
		<tag k="ssr:stedsnr" v="913826" />
	</node>
	<node lat="59.35443333480528" lon="8.67177500727439" id="-25958">
		<tag k="alt_name" v="Bystigtjørni" />
		<tag k="name" v="Bystigtjønni" />
		<tag k="natural" v="water" />
		<tag k="ssr:stedsnr" v="913828" />
	</node>
	<node lat="59.330202781432675" lon="8.499158335300457" id="-25959">
		<tag k="name" v="Mørkedalsbekken" />
		<tag k="ssr:stedsnr" v="913869" />
		<tag k="waterway" v="stream" />
	</node>
	<node lat="59.41158055211438" lon="8.543538897171416" id="-25961">
		<tag k="alt_name" v="Dvergtjørn" />
		<tag k="name" v="Dvergtjønn" />
		<tag k="natural" v="water" />
		<tag k="ssr:stedsnr" v="913950" />
	</node>
	<node lat="59.330502781961265" lon="8.385433339680565" id="-25979">
		<tag k="name" v="Vetterøyødden" />
		<tag k="natural" v="cape" />
		<tag k="ssr:stedsnr" v="839189" />
	</node>
	<node lat="59.48301944371438" lon="8.301808330969974" id="-25988">
		<tag k="name" v="Slomstaulbekken" />
		<tag k="ssr:stedsnr" v="839247" />
		<tag k="waterway" v="stream" />
	</node>
	<node lat="59.44295277476868" lon="8.532588896031463" id="-25989">
		<tag k="name" v="Ordalsåi" />
		<tag k="ssr:stedsnr" v="839278" />
		<tag k="waterway" v="river" />
	</node>
	<node lat="59.44069999969975" lon="8.520047219657192" id="-25990">
		<tag k="name" v="Bjorhyl" />
		<tag k="place" v="locality" />
		<tag k="ssr:stedsnr" v="839280" />
	</node>
	<node lat="59.38581944692451" lon="8.43463888193414" id="-26006">
		<tag k="name" v="Beverhusbukti" />
		<tag k="natural" v="bay" />
		<tag k="ssr:stedsnr" v="839688" />
	</node>
	<node lat="59.332558309371436" lon="8.687612161711963" id="-26026">
		<tag k="name" v="Fisketjønndammen" />
		<tag k="ssr:stedsnr" v="840584" />
		<tag k="waterway" v="dam" />
	</node>
	<node lat="59.349416560162844" lon="8.241013550444567" id="-26047">
		<tag k="name" v="Nordstogodden" />
		<tag k="natural" v="cape" />
		<tag k="ssr:stedsnr" v="841680" />
	</node>
	<node lat="59.387280554367365" lon="8.445013887144873" id="-26052">
		<tag k="name" v="Bandaksøy" />
		<tag k="place" v="island" />
		<tag k="ssr:stedsnr" v="852308" />
	</node>
	<node lat="59.2950472224165" lon="8.470783341640802" id="-26064">
		<tag k="name" v="Heggelian" />
		<tag k="natural" v="bay" />
		<tag k="ssr:stedsnr" v="852670" />
	</node>
	<node lat="59.307738890984545" lon="8.727911112292302" id="-26065">
		<tag k="name" v="Aslaksdalbukti" />
		<tag k="natural" v="bay" />
		<tag k="ssr:stedsnr" v="852677" />
	</node>
	<node lat="59.345791668682395" lon="8.211188888036741" id="-26066">
		<tag k="name" v="Heiåi" />
		<tag k="ssr:stedsnr" v="852363" />
		<tag k="waterway" v="stream" />
	</node>
	<node lat="59.2648972243963" lon="8.519224992516806" id="-26068">
		<tag k="name" v="Bjårvikodden" />
		<tag k="natural" v="cape" />
		<tag k="ssr:stedsnr" v="852521" />
	</node>
	<node lat="59.36365555259925" lon="8.620686106162399" id="-26070">
		<tag k="name" v="Fjellstaultjønni" />
		<tag k="natural" v="water" />
		<tag k="ssr:stedsnr" v="852775" />
	</node>
	<node lat="59.333883328959615" lon="8.612347218070193" id="-26072">
		<tag k="name" v="Likhellerbukti" />
		<tag k="natural" v="bay" />
		<tag k="ssr:stedsnr" v="852856" />
	</node>
	<node lat="59.319555551870174" lon="8.458472221426685" id="-26081">
		<tag k="name" v="Katthyl" />
		<tag k="place" v="locality" />
		<tag k="ssr:stedsnr" v="899062" />
	</node>
	<node lat="59.46276666968556" lon="8.291658328889689" id="-26084">
		<tag k="name" v="Magnushombekken" />
		<tag k="ssr:stedsnr" v="899504" />
		<tag k="waterway" v="stream" />
	</node>
	<node lat="59.420316664770375" lon="8.445533340514498" id="-26090">
		<tag k="name" v="Dalaåi" />
		<tag k="ssr:stedsnr" v="899494" />
		<tag k="waterway" v="river" />
	</node>
	<node lat="59.460274999296395" lon="8.333591663629328" id="-26093">
		<tag k="name" v="Vesletjønn" />
		<tag k="natural" v="water" />
		<tag k="ssr:stedsnr" v="899620" />
	</node>
	<node lat="59.425144441767976" lon="8.459677776247059" id="-26096">
		<tag k="name" v="Sagfossan" />
		<tag k="natural" v="waterfall" />
		<tag k="ssr:stedsnr" v="899703" />
	</node>
	<node lat="59.44059722389778" lon="8.324194448779272" id="-26097">
		<tag k="name" v="Sendingsbekken" />
		<tag k="ssr:stedsnr" v="899716" />
		<tag k="waterway" v="stream" />
	</node>
	<node lat="59.54106389248227" lon="8.334155550443592" id="-26106">
		<tag k="name" v="Rauåi" />
		<tag k="ssr:stedsnr" v="900008" />
		<tag k="waterway" v="stream" />
	</node>
	<node lat="59.519919448317665" lon="8.350833324948335" id="-26108">
		<tag k="name" v="Sussannapytten" />
		<tag k="natural" v="water" />
		<tag k="ssr:stedsnr" v="900024" />
		<tag k="water" v="pond" />
	</node>
	<node lat="59.51554722040473" lon="8.338616663377602" id="-26109">
		<tag k="name" v="Bjørgulfsdalbekken" />
		<tag k="ssr:stedsnr" v="900109" />
		<tag k="waterway" v="stream" />
	</node>
</osm>
