<?xml version="1.0" encoding="UTF-8"?>
<osm version="0.6" generator="osmapis">
	<node lat="59.27627778047739" lon="8.71391388873417" id="-28211">
		<tag k="name" v="Flåtene" />
		<tag k="natural" v="wetland" />
		<tag k="ssr:stedsnr" v="2537" />
	</node>
	<node lat="59.29391111005534" lon="8.563558328120868" id="-28213">
		<tag k="name" v="Skilhusmyran" />
		<tag k="natural" v="wetland" />
		<tag k="ssr:stedsnr" v="2707" />
	</node>
	<node lat="59.34903888585053" lon="8.711999993763918" id="-28219">
		<tag k="name" v="Nystaulmyran" />
		<tag k="natural" v="wetland" />
		<tag k="ssr:stedsnr" v="2814" />
	</node>
	<node lat="59.31826389285012" lon="8.409072227952928" id="-28227">
		<tag k="name" v="Folleggdalsmyri" />
		<tag k="natural" v="wetland" />
		<tag k="ssr:stedsnr" v="231129" />
	</node>
	<node lat="59.52263055467739" lon="8.334749997428704" id="-28228">
		<tag k="name" v="Hyttemyri" />
		<tag k="natural" v="wetland" />
		<tag k="ssr:stedsnr" v="231131" />
	</node>
	<node lat="59.51571944342609" lon="8.335274993926673" id="-28229">
		<tag k="name" v="Dokki" />
		<tag k="natural" v="wetland" />
		<tag k="ssr:stedsnr" v="231132" />
	</node>
	<node lat="59.45054166726808" lon="8.323236105104668" id="-28237">
		<tag k="name" v="Vommeskinn" />
		<tag k="place" v="locality" />
		<tag k="ssr:stedsnr" v="231451" />
	</node>
	<node lat="59.420847225379575" lon="8.447991660954722" id="-28241">
		<tag k="name" v="Toneskog" />
		<tag k="place" v="locality" />
		<tag k="ssr:stedsnr" v="231543" />
	</node>
	<node lat="59.45807500131858" lon="8.28577500347087" id="-28242">
		<tag k="name" v="Mobot skor" />
		<tag k="place" v="locality" />
		<tag k="ssr:stedsnr" v="231563" />
	</node>
	<node lat="59.44453888758172" lon="8.48839443956325" id="-28248">
		<tag k="name" v="Tarkjellsmyr" />
		<tag k="natural" v="wetland" />
		<tag k="ssr:stedsnr" v="231694" />
	</node>
	<node lat="59.43920555701829" lon="8.390233337374745" id="-28256">
		<tag k="name" v="Hosumsuri" />
		<tag k="natural" v="scree" />
		<tag k="ssr:stedsnr" v="231725" />
	</node>
	<node lat="59.44278055810075" lon="8.335030555163915" id="-28261">
		<tag k="historic" v="shieling" />
		<tag k="name" v="Veslestaul" />
		<tag k="place" v="locality" />
		<tag k="ssr:stedsnr" v="231853" />
	</node>
	<node lat="59.330819443421326" lon="8.285583338344814" id="-28268">
		<tag k="historic" v="shieling" />
		<tag k="name" v="Sommundskås" />
		<tag k="place" v="locality" />
		<tag k="ssr:stedsnr" v="231959" />
	</node>
	<node lat="59.37271111117084" lon="8.42253888535694" id="-28273">
		<tag k="name" v="Vårbulimyri" />
		<tag k="natural" v="wetland" />
		<tag k="ssr:stedsnr" v="231987" />
	</node>
	<node lat="59.520894440740086" lon="8.355708328350977" id="-28275">
		<tag k="historic" v="shieling" />
		<tag k="name" v="Fjølldal" />
		<tag k="place" v="locality" />
		<tag k="ssr:stedsnr" v="232012" />
	</node>
	<node lat="59.51452500003293" lon="8.365955562658625" id="-28276">
		<tag k="historic" v="shieling" />
		<tag k="name" v="Rinden" />
		<tag k="place" v="locality" />
		<tag k="ssr:stedsnr" v="232018" />
	</node>
	<node lat="59.4773444415973" lon="8.315711114505456" id="-28280">
		<tag k="name" v="Langroveteigan" />
		<tag k="natural" v="wetland" />
		<tag k="ssr:stedsnr" v="232223" />
	</node>
	<node lat="59.48224722574966" lon="8.356038895935818" id="-28284">
		<tag k="name" v="Omlidmyri" />
		<tag k="natural" v="wetland" />
		<tag k="ssr:stedsnr" v="232292" />
	</node>
	<node lat="59.427847218768335" lon="8.50547778655343" id="-28285">
		<tag k="landuse" v="meadow" />
		<tag k="name" v="Godokkosi" />
		<tag k="ssr:stedsnr" v="232294" />
	</node>
	<node lat="59.50271944478018" lon="8.456477769003829" id="-28304">
		<tag k="historic" v="shieling" />
		<tag k="name" v="Bråtuft" />
		<tag k="place" v="locality" />
		<tag k="ssr:stedsnr" v="232464" />
	</node>
	<node lat="59.42118333216903" lon="8.569508326850215" id="-28305">
		<tag k="name" v="Bjønnhushommen" />
		<tag k="place" v="locality" />
		<tag k="ssr:stedsnr" v="232578" />
	</node>
	<node lat="59.48829444696331" lon="8.449736104749684" id="-28307">
		<tag k="name" v="Moldbakkasin" />
		<tag k="place" v="locality" />
		<tag k="ssr:stedsnr" v="232560" />
	</node>
	<node lat="59.45339721963373" lon="8.330305550100732" id="-28308">
		<tag k="name" v="Lauvkosi" />
		<tag k="place" v="locality" />
		<tag k="ssr:stedsnr" v="232561" />
	</node>
	<node lat="59.444558336003595" lon="8.336688895422432" id="-28310">
		<tag k="name" v="Tjønnflyet" />
		<tag k="natural" v="wetland" />
		<tag k="ssr:stedsnr" v="232571" />
	</node>
	<node lat="59.41107222264811" lon="8.351277784786937" id="-28318">
		<tag k="name" v="Byggstaulslåtta" />
		<tag k="natural" v="wetland" />
		<tag k="ssr:stedsnr" v="232919" />
	</node>
	<node lat="59.31853615014713" lon="8.664527114775048" id="-28330">
		<tag k="name" v="Askedokki" />
		<tag k="place" v="locality" />
		<tag k="ssr:stedsnr" v="233042" />
	</node>
	<node lat="59.31435019750271" lon="8.528708311925188" id="-28334">
		<tag k="name" v="Langemyr" />
		<tag k="natural" v="wetland" />
		<tag k="ssr:stedsnr" v="233074" />
	</node>
	<node lat="59.25348167379083" lon="8.592389097492935" id="-28335">
		<tag k="name" v="Bruresteinen" />
		<tag k="natural" v="stone" />
		<tag k="ssr:stedsnr" v="233155" />
	</node>
	<node lat="59.45651140710402" lon="8.517846075489244" id="-28338">
		<tag k="name" v="Vårfjosmyri" />
		<tag k="natural" v="wetland" />
		<tag k="ssr:stedsnr" v="233169" />
	</node>
	<node lat="59.25926091957083" lon="8.580028542950059" id="-28341">
		<tag k="name" v="Djupmyr" />
		<tag k="natural" v="wetland" />
		<tag k="ssr:stedsnr" v="233268" />
	</node>
	<node lat="59.3162646270598" lon="8.22381941746672" id="-28343">
		<tag k="historic" v="shieling" />
		<tag k="name" v="Luffendal" />
		<tag k="place" v="locality" />
		<tag k="ssr:stedsnr" v="233301" />
	</node>
	<node lat="59.31353474096009" lon="8.700600354530682" id="-28346">
		<tag k="name" v="Svartufs" />
		<tag k="natural" v="scree" />
		<tag k="ssr:stedsnr" v="233515" />
	</node>
	<node lat="59.316274397136254" lon="8.679398408779972" id="-28356">
		<tag k="landuse" v="meadow" />
		<tag k="name" v="Tallaksmyr" />
		<tag k="ssr:stedsnr" v="233743" />
	</node>
	<node lat="59.32259934711118" lon="8.497813785689797" id="-28368">
		<tag k="landuse" v="meadow" />
		<tag k="name" v="Midttveit" />
		<tag k="ssr:stedsnr" v="233724" />
	</node>
	<node lat="59.30049496182371" lon="8.782239275393326" id="-28378">
		<tag k="name" v="Åsemyri" />
		<tag k="natural" v="wetland" />
		<tag k="ssr:stedsnr" v="234367" />
	</node>
	<node lat="59.45604444243822" lon="8.457386106077935" id="-28388">
		<tag k="name" v="Krossmyr" />
		<tag k="natural" v="wetland" />
		<tag k="ssr:stedsnr" v="49369" />
	</node>
	<node lat="59.458736111632845" lon="8.35953888116696" id="-28391">
		<tag k="name" v="Lauvåskosi" />
		<tag k="place" v="locality" />
		<tag k="ssr:stedsnr" v="49585" />
	</node>
	<node lat="59.45298888648003" lon="8.465652777036949" id="-28397">
		<tag k="name" v="Diplan" />
		<tag k="natural" v="wetland" />
		<tag k="ssr:stedsnr" v="49689" />
	</node>
	<node lat="59.4094527805319" lon="8.376622214370915" id="-28398">
		<tag k="name" v="Lidflæi" />
		<tag k="natural" v="wetland" />
		<tag k="ssr:stedsnr" v="49823" />
	</node>
	<node lat="59.497191664668414" lon="8.409605564083597" id="-28401">
		<tag k="name" v="Åsheimmyri" />
		<tag k="natural" v="wetland" />
		<tag k="ssr:stedsnr" v="50122" />
	</node>
	<node lat="59.40236389310711" lon="8.510288889481798" id="-28403">
		<tag k="historic" v="shieling" />
		<tag k="name" v="Åsheimstaulen" />
		<tag k="place" v="locality" />
		<tag k="ssr:stedsnr" v="50124" />
	</node>
	<node lat="59.32096944414113" lon="8.425663892549583" id="-28404">
		<tag k="name" v="Søndingen" />
		<tag k="place" v="locality" />
		<tag k="ssr:stedsnr" v="50125" />
	</node>
	<node lat="59.41368610701922" lon="8.404400008044393" id="-28418">
		<tag k="name" v="Nystaulmyri" />
		<tag k="natural" v="wetland" />
		<tag k="ssr:stedsnr" v="50405" />
	</node>
	<node lat="59.41546111489273" lon="8.393919452129445" id="-28421">
		<tag k="landuse" v="quarry" />
		<tag k="name" v="Sylvberggruva" />
		<tag k="ssr:stedsnr" v="50415" />
	</node>
	<node lat="59.49579721913276" lon="8.450724992005258" id="-28428">
		<tag k="name" v="Listaulrennun" />
		<tag k="natural" v="wetland" />
		<tag k="ssr:stedsnr" v="50570" />
	</node>
	<node lat="59.4899611080397" lon="8.459119444900864" id="-28429">
		<tag k="name" v="Kaldmyr" />
		<tag k="natural" v="wetland" />
		<tag k="ssr:stedsnr" v="50573" />
	</node>
	<node lat="59.491163891633576" lon="8.459277779976883" id="-28430">
		<tag k="name" v="Vårfjosmyri" />
		<tag k="natural" v="wetland" />
		<tag k="ssr:stedsnr" v="50575" />
	</node>
	<node lat="59.4362000044872" lon="8.346088884825013" id="-28434">
		<tag k="name" v="Grasdalkjosi" />
		<tag k="place" v="locality" />
		<tag k="ssr:stedsnr" v="50715" />
	</node>
	<node lat="59.475202777565485" lon="8.408911117481493" id="-28437">
		<tag k="name" v="Deildemyr" />
		<tag k="natural" v="wetland" />
		<tag k="ssr:stedsnr" v="50779" />
	</node>
	<node lat="59.47441944020015" lon="8.411961110231452" id="-28438">
		<tag k="name" v="Dyrekjer" />
		<tag k="place" v="locality" />
		<tag k="ssr:stedsnr" v="50781" />
	</node>
	<node lat="59.47355833684102" lon="8.406152775224706" id="-28439">
		<tag k="name" v="Kasaåker" />
		<tag k="place" v="locality" />
		<tag k="ssr:stedsnr" v="50783" />
	</node>
	<node lat="59.39519721789613" lon="8.408597230314589" id="-28444">
		<tag k="name" v="Knutsur" />
		<tag k="natural" v="scree" />
		<tag k="ssr:stedsnr" v="50669" />
	</node>
	<node lat="59.453449997950266" lon="8.584847228083083" id="-28446">
		<tag k="name" v="Svartufsmyri" />
		<tag k="natural" v="wetland" />
		<tag k="ssr:stedsnr" v="50676" />
	</node>
	<node lat="59.29972846630336" lon="8.552364226110043" id="-28453">
		<tag k="name" v="Ivarsmyr" />
		<tag k="natural" v="wetland" />
		<tag k="ssr:stedsnr" v="51114" />
	</node>
	<node lat="59.328990362178594" lon="8.225502049370325" id="-28455">
		<tag k="historic" v="shieling" />
		<tag k="name" v="Bjørkeholtet" />
		<tag k="place" v="locality" />
		<tag k="ssr:stedsnr" v="51309" />
	</node>
	<node lat="59.358038198992254" lon="8.775064210202993" id="-28460">
		<tag k="name" v="Stallmyri" />
		<tag k="natural" v="wetland" />
		<tag k="ssr:stedsnr" v="51385" />
	</node>
	<node lat="59.30784097292652" lon="8.693013615021513" id="-28463">
		<tag k="landuse" v="meadow" />
		<tag k="name" v="Stakknes" />
		<tag k="ssr:stedsnr" v="51513" />
	</node>
	<node lat="59.33239406304614" lon="8.681118446414283" id="-28468">
		<tag k="name" v="Fisketjønnmyri" />
		<tag k="natural" v="wetland" />
		<tag k="ssr:stedsnr" v="51625" />
	</node>
	<node lat="59.318775753900425" lon="8.535201113411597" id="-28469">
		<tag k="name" v="Øvre Stuvstean" />
		<tag k="natural" v="wetland" />
		<tag k="ssr:stedsnr" v="51671" />
	</node>
	<node lat="59.318755703350035" lon="8.532187323904726" id="-28470">
		<tag k="name" v="Nedre Stuvstean" />
		<tag k="natural" v="wetland" />
		<tag k="ssr:stedsnr" v="51672" />
	</node>
	<node lat="59.41520888401581" lon="8.580770904741685" id="-28472">
		<tag k="name" v="Langmyr" />
		<tag k="natural" v="wetland" />
		<tag k="ssr:stedsnr" v="51686" />
	</node>
	<node lat="59.41291650714936" lon="8.56013031158815" id="-28473">
		<tag k="name" v="Slåttebøle" />
		<tag k="place" v="locality" />
		<tag k="ssr:stedsnr" v="51687" />
	</node>
	<node lat="59.27664769142577" lon="8.776395067531823" id="-28483">
		<tag k="name" v="Fitjastaulmyri" />
		<tag k="natural" v="wetland" />
		<tag k="ssr:stedsnr" v="52670" />
	</node>
	<node lat="59.3467749961963" lon="8.69097499746415" id="-28499">
		<tag k="name" v="Brakandalsmyran" />
		<tag k="natural" v="wetland" />
		<tag k="ssr:stedsnr" v="63826" />
	</node>
	<node lat="59.28654166436438" lon="8.474805549309124" id="-28546">
		<tag k="alt_name" v="Rolighetssvåa" />
		<tag k="name" v="Rolighetssvaet" />
		<tag k="place" v="locality" />
		<tag k="ssr:stedsnr" v="245674" />
	</node>
	<node lat="59.33684999698121" lon="8.470302778557247" id="-28561">
		<tag k="name" v="Stormyr" />
		<tag k="natural" v="wetland" />
		<tag k="ssr:stedsnr" v="245868" />
	</node>
	<node lat="59.45823611325374" lon="8.459961109318314" id="-28585">
		<tag k="name" v="Deildemyr" />
		<tag k="natural" v="wetland" />
		<tag k="ssr:stedsnr" v="110326" />
	</node>
	<node lat="59.46438333374973" lon="8.465491668317467" id="-28586">
		<tag k="name" v="Merde" />
		<tag k="natural" v="wetland" />
		<tag k="ssr:stedsnr" v="110330" />
	</node>
	<node lat="59.46082222467622" lon="8.448911111102685" id="-28587">
		<tag k="name" v="Sundjordet" />
		<tag k="place" v="locality" />
		<tag k="ssr:stedsnr" v="110331" />
	</node>
	<node lat="59.31034722538377" lon="8.45068056205097" id="-28590">
		<tag k="name" v="Springvassmyri" />
		<tag k="natural" v="wetland" />
		<tag k="ssr:stedsnr" v="110412" />
	</node>
	<node lat="59.38266388717853" lon="8.450161112488763" id="-28595">
		<tag k="historic" v="shieling" />
		<tag k="name" v="Kassnes" />
		<tag k="place" v="locality" />
		<tag k="ssr:stedsnr" v="110576" />
	</node>
	<node lat="59.38501944398887" lon="8.399972225280706" id="-28599">
		<tag k="name" v="Uri-Små" />
		<tag k="natural" v="scree" />
		<tag k="ssr:stedsnr" v="110702" />
	</node>
	<node lat="59.36291944882031" lon="8.39615832975282" id="-28613">
		<tag k="landuse" v="quarry" />
		<tag k="name" v="Glimmergruva" />
		<tag k="ssr:stedsnr" v="110990" />
	</node>
	<node lat="59.36879166855635" lon="8.495163890262468" id="-28614">
		<tag k="name" v="Knutsur" />
		<tag k="natural" v="scree" />
		<tag k="ssr:stedsnr" v="110873" />
	</node>
	<node lat="59.4754583351368" lon="8.444702769329687" id="-28616">
		<tag k="name" v="Langemyr" />
		<tag k="natural" v="wetland" />
		<tag k="ssr:stedsnr" v="110888" />
	</node>
	<node lat="59.42991944685641" lon="8.513977776556859" id="-28623">
		<tag k="name" v="Gunleiksmyr" />
		<tag k="natural" v="wetland" />
		<tag k="ssr:stedsnr" v="111304" />
	</node>
	<node lat="59.424450003329376" lon="8.531627770320425" id="-28624">
		<tag k="historic" v="shieling" />
		<tag k="name" v="Fosshoggstaulen" />
		<tag k="place" v="locality" />
		<tag k="ssr:stedsnr" v="111308" />
	</node>
	<node lat="59.42396111157084" lon="8.510222224452184" id="-28628">
		<tag k="name" v="Husstaulmyri" />
		<tag k="natural" v="wetland" />
		<tag k="ssr:stedsnr" v="111313" />
	</node>
	<node lat="59.45841944472691" lon="8.323555553783534" id="-28630">
		<tag k="name" v="Tjønnbroti" />
		<tag k="natural" v="wetland" />
		<tag k="ssr:stedsnr" v="111378" />
	</node>
	<node lat="59.49493889241805" lon="8.424072218804803" id="-28632">
		<tag k="name" v="Holtemyri" />
		<tag k="natural" v="wetland" />
		<tag k="ssr:stedsnr" v="111272" />
	</node>
	<node lat="59.42757777789947" lon="8.44682500040992" id="-28633">
		<tag k="name" v="Nordgarden" />
		<tag k="place" v="locality" />
		<tag k="ssr:stedsnr" v="111275" />
	</node>
	<node lat="59.43059166768256" lon="8.452241669337822" id="-28635">
		<tag k="landuse" v="quarry" />
		<tag k="name" v="Skolteberggruva" />
		<tag k="ssr:stedsnr" v="111282" />
	</node>
	<node lat="59.43168055363683" lon="8.531280548374493" id="-28636">
		<tag k="name" v="Vasskjosin" />
		<tag k="natural" v="wetland" />
		<tag k="ssr:stedsnr" v="111286" />
	</node>
	<node lat="59.488572220288454" lon="8.445158339238507" id="-28644">
		<tag k="historic" v="shieling" />
		<tag k="name" v="Løyning" />
		<tag k="place" v="locality" />
		<tag k="ssr:stedsnr" v="111594" />
	</node>
	<node lat="59.48774166333341" lon="8.452622220178574" id="-28645">
		<tag k="name" v="Breidalshaddi" />
		<tag k="natural" v="wetland" />
		<tag k="ssr:stedsnr" v="111595" />
	</node>
	<node lat="59.446130558746454" lon="8.59378889482927" id="-28646">
		<tag k="name" v="Olavsmyr" />
		<tag k="natural" v="wetland" />
		<tag k="ssr:stedsnr" v="111703" />
	</node>
	<node lat="59.47082499815738" lon="8.427799998568474" id="-28649">
		<tag k="name" v="Haugemyran" />
		<tag k="natural" v="wetland" />
		<tag k="ssr:stedsnr" v="111781" />
	</node>
	<node lat="59.30295704615952" lon="8.694859958949454" id="-28656">
		<tag k="landuse" v="meadow" />
		<tag k="name" v="Myri" />
		<tag k="ssr:stedsnr" v="112106" />
	</node>
	<node lat="59.347115277472206" lon="8.500240727159053" id="-28663">
		<tag k="name" v="Høybakkmyri" />
		<tag k="natural" v="wetland" />
		<tag k="ssr:stedsnr" v="112604" />
	</node>
	<node lat="59.27440302962102" lon="8.761650780642697" id="-28672">
		<tag k="name" v="Trytetjønnsmyran" />
		<tag k="natural" v="wetland" />
		<tag k="ssr:stedsnr" v="112815" />
	</node>
	<node lat="59.36351666377368" lon="8.462480547651898" id="-28691">
		<tag k="alt_name" v="Nordskogskreun" />
		<tag k="name" v="Nordskogsveurd" />
		<tag k="place" v="locality" />
		<tag k="ssr:stedsnr" v="123403" />
	</node>
	<node lat="59.462722222256176" lon="8.361475004983449" id="-28713">
		<tag k="name" v="Maurdalmyri" />
		<tag k="natural" v="wetland" />
		<tag k="ssr:stedsnr" v="170556" />
	</node>
	<node lat="59.460244440168786" lon="8.345219446613761" id="-28717">
		<tag k="name" v="Dalemyri" />
		<tag k="natural" v="wetland" />
		<tag k="ssr:stedsnr" v="170573" />
	</node>
	<node lat="59.44996666486062" lon="8.471380561794643" id="-28718">
		<tag k="name" v="Termyr" />
		<tag k="natural" v="wetland" />
		<tag k="ssr:stedsnr" v="170703" />
	</node>
	<node lat="59.44987222622686" lon="8.467802771891469" id="-28719">
		<tag k="name" v="Fillerud" />
		<tag k="place" v="locality" />
		<tag k="ssr:stedsnr" v="170704" />
	</node>
	<node lat="59.432183333611164" lon="8.466405554628455" id="-28720">
		<tag k="name" v="Slemdal" />
		<tag k="natural" v="wetland" />
		<tag k="ssr:stedsnr" v="170716" />
	</node>
	<node lat="59.40897500372668" lon="8.363455550918925" id="-28722">
		<tag k="name" v="Byggstaulmyri" />
		<tag k="natural" v="wetland" />
		<tag k="ssr:stedsnr" v="170859" />
	</node>
	<node lat="59.467116669654594" lon="8.449127784911107" id="-28727">
		<tag k="name" v="Vårfjoskosi" />
		<tag k="place" v="locality" />
		<tag k="ssr:stedsnr" v="170902" />
	</node>
	<node lat="59.42140277910265" lon="8.501236114975574" id="-28733">
		<tag k="name" v="Tustekjosin" />
		<tag k="natural" v="wetland" />
		<tag k="ssr:stedsnr" v="171116" />
	</node>
	<node lat="59.50162777369827" lon="8.347280549200597" id="-28734">
		<tag k="name" v="Limyran" />
		<tag k="natural" v="wetland" />
		<tag k="ssr:stedsnr" v="171118" />
	</node>
	<node lat="59.49866666948061" lon="8.37951667190996" id="-28736">
		<tag k="name" v="Koltingkjer" />
		<tag k="natural" v="wetland" />
		<tag k="ssr:stedsnr" v="171120" />
	</node>
	<node lat="59.48061666612188" lon="8.292819436045937" id="-28739">
		<tag k="name" v="Åmholet" />
		<tag k="place" v="locality" />
		<tag k="ssr:stedsnr" v="171205" />
	</node>
	<node lat="59.47563333655627" lon="8.330341663584386" id="-28741">
		<tag k="name" v="Grindemyri" />
		<tag k="natural" v="wetland" />
		<tag k="ssr:stedsnr" v="171273" />
	</node>
	<node lat="59.33179166813338" lon="8.4661694523059" id="-28749">
		<tag k="name" v="Langsvåa" />
		<tag k="place" v="locality" />
		<tag k="ssr:stedsnr" v="171518" />
	</node>
	<node lat="59.44843055721953" lon="8.329963890580904" id="-28752">
		<tag k="name" v="Gullkoppsvingen" />
		<tag k="place" v="locality" />
		<tag k="ssr:stedsnr" v="171658" />
	</node>
	<node lat="59.45555555868656" lon="8.357605551945024" id="-28753">
		<tag k="name" v="Rinden" />
		<tag k="place" v="locality" />
		<tag k="ssr:stedsnr" v="171663" />
	</node>
	<node lat="59.37221944393249" lon="8.44827222322346" id="-28756">
		<tag k="name" v="Oddemyran" />
		<tag k="natural" v="wetland" />
		<tag k="ssr:stedsnr" v="171815" />
	</node>
	<node lat="59.47219722583634" lon="8.42978889279989" id="-28759">
		<tag k="name" v="Nebbselet" />
		<tag k="place" v="locality" />
		<tag k="ssr:stedsnr" v="171706" />
	</node>
	<node lat="59.469563891705185" lon="8.43318611767864" id="-28760">
		<tag k="name" v="Haugåker" />
		<tag k="place" v="locality" />
		<tag k="ssr:stedsnr" v="171712" />
	</node>
	<node lat="59.482733334119416" lon="8.417925000713845" id="-28763">
		<tag k="name" v="Runningan" />
		<tag k="place" v="locality" />
		<tag k="ssr:stedsnr" v="171777" />
	</node>
	<node lat="59.45325271654412" lon="8.512708077907961" id="-28772">
		<tag k="name" v="Torvmyri" />
		<tag k="natural" v="wetland" />
		<tag k="ssr:stedsnr" v="172160" />
	</node>
	<node lat="59.303725062607064" lon="8.697217812889305" id="-28778">
		<tag k="landuse" v="meadow" />
		<tag k="name" v="Kattjønnbakken" />
		<tag k="ssr:stedsnr" v="172473" />
	</node>
	<node lat="59.33163516251653" lon="8.674193434718697" id="-28780">
		<tag k="name" v="Nålmyri" />
		<tag k="natural" v="wetland" />
		<tag k="ssr:stedsnr" v="172610" />
	</node>
	<node lat="59.31709813922035" lon="8.233760396612922" id="-28788">
		<tag k="historic" v="shieling" />
		<tag k="name" v="Øvre Luffendal" />
		<tag k="place" v="locality" />
		<tag k="ssr:stedsnr" v="173255" />
	</node>
	<node lat="59.341117273950154" lon="8.238943246336587" id="-28792">
		<tag k="name" v="Nedre Byggstøyl" />
		<tag k="place" v="locality" />
		<tag k="ssr:stedsnr" v="173664" />
	</node>
	<node lat="59.34959914503701" lon="8.780041909961446" id="-28793">
		<tag k="name" v="Bjørkemyra" />
		<tag k="natural" v="wetland" />
		<tag k="ssr:stedsnr" v="173556" />
	</node>
	<node lat="59.27292683303135" lon="8.792300609176117" id="-28795">
		<tag k="name" v="Tonnemyr" />
		<tag k="natural" v="wetland" />
		<tag k="ssr:stedsnr" v="173569" />
	</node>
	<node lat="59.35849313663153" lon="8.256027856195297" id="-28797">
		<tag k="name" v="Salgrasmyri" />
		<tag k="natural" v="wetland" />
		<tag k="ssr:stedsnr" v="173755" />
	</node>
	<node lat="59.360089324885855" lon="8.259811671892408" id="-28798">
		<tag k="name" v="Nedre Tægemyri" />
		<tag k="natural" v="wetland" />
		<tag k="ssr:stedsnr" v="173756" />
	</node>
	<node lat="59.27376388555715" lon="8.774572224093717" id="-28806">
		<tag k="name" v="Høgmyr" />
		<tag k="natural" v="wetland" />
		<tag k="ssr:stedsnr" v="184510" />
	</node>
	<node lat="59.358527781336306" lon="8.602822225465117" id="-28813">
		<tag k="name" v="Kvævskardmyran" />
		<tag k="natural" v="wetland" />
		<tag k="ssr:stedsnr" v="184785" />
	</node>
	<node lat="59.29674448423752" lon="8.787984728441591" id="-28816">
		<tag k="alt_name" v="Nedrestaul" />
		<tag k="historic" v="shieling" />
		<tag k="name" v="Nerstaul" />
		<tag k="place" v="locality" />
		<tag k="ssr:stedsnr" v="184688" />
	</node>
	<node lat="59.33214166900791" lon="8.450416667274599" id="-28835">
		<tag k="landuse" v="quarry" />
		<tag k="name" v="Gruvune" />
		<tag k="ssr:stedsnr" v="231035" />
	</node>
	<node lat="59.432949998940906" lon="8.49177778565491" id="-28849">
		<tag k="name" v="Stormyr" />
		<tag k="natural" v="wetland" />
		<tag k="ssr:stedsnr" v="231728" />
	</node>
	<node lat="59.44458055917473" lon="8.395022213548991" id="-28854">
		<tag k="name" v="Kvennhusmyri" />
		<tag k="natural" v="wetland" />
		<tag k="ssr:stedsnr" v="231932" />
	</node>
	<node lat="59.35630555114528" lon="8.393619436202323" id="-28856">
		<tag k="name" v="Dei vie myran" />
		<tag k="natural" v="wetland" />
		<tag k="ssr:stedsnr" v="231802" />
	</node>
	<node lat="59.47011110976774" lon="8.49672499215964" id="-28858">
		<tag k="historic" v="shieling" />
		<tag k="name" v="Slåtta" />
		<tag k="place" v="locality" />
		<tag k="ssr:stedsnr" v="231890" />
	</node>
	<node lat="59.466950001029055" lon="8.451774994628865" id="-28859">
		<tag k="name" v="Johanskos" />
		<tag k="place" v="locality" />
		<tag k="ssr:stedsnr" v="231891" />
	</node>
	<node lat="59.4737888882191" lon="8.446741659265243" id="-28861">
		<tag k="name" v="Fuglemyr" />
		<tag k="natural" v="wetland" />
		<tag k="ssr:stedsnr" v="231899" />
	</node>
	<node lat="59.30764166724643" lon="8.331099991220924" id="-28863">
		<tag k="name" v="Grauttjønnkvæven" />
		<tag k="place" v="locality" />
		<tag k="ssr:stedsnr" v="232107" />
	</node>
	<node lat="59.51478333402575" lon="8.425766662810554" id="-28867">
		<tag k="name" v="Pyttemyri" />
		<tag k="natural" v="wetland" />
		<tag k="ssr:stedsnr" v="232188" />
	</node>
	<node lat="59.476202778066074" lon="8.329536115612852" id="-28873">
		<tag k="name" v="Fivilmyri" />
		<tag k="natural" v="wetland" />
		<tag k="ssr:stedsnr" v="232285" />
	</node>
	<node lat="59.43558611132997" lon="8.528969440070687" id="-28875">
		<tag k="name" v="Koltemyr" />
		<tag k="natural" v="wetland" />
		<tag k="ssr:stedsnr" v="232289" />
	</node>
	<node lat="59.46994999723305" lon="8.41470277059635" id="-28877">
		<tag k="name" v="Staulsmyri" />
		<tag k="natural" v="wetland" />
		<tag k="ssr:stedsnr" v="232619" />
	</node>
	<node lat="59.429713889415694" lon="8.378911105389998" id="-28885">
		<tag k="name" v="Vårfjoskroi" />
		<tag k="place" v="locality" />
		<tag k="ssr:stedsnr" v="232720" />
	</node>
	<node lat="59.328855157525254" lon="8.663863257050668" id="-28897">
		<tag k="name" v="Moltemyri" />
		<tag k="natural" v="wetland" />
		<tag k="ssr:stedsnr" v="233228" />
	</node>
	<node lat="59.33225190750626" lon="8.589948120448739" id="-28910">
		<tag k="name" v="Størrmyri" />
		<tag k="natural" v="wetland" />
		<tag k="ssr:stedsnr" v="233681" />
	</node>
	<node lat="59.40585331202942" lon="8.615916513977783" id="-28915">
		<tag k="name" v="Mjeltedalsmyri" />
		<tag k="natural" v="wetland" />
		<tag k="ssr:stedsnr" v="234033" />
	</node>
	<node lat="59.35166905360386" lon="8.792905062354219" id="-28916">
		<tag k="name" v="Trengslemyr" />
		<tag k="natural" v="wetland" />
		<tag k="ssr:stedsnr" v="234591" />
	</node>
	<node lat="59.3526441936618" lon="8.257555362821586" id="-28919">
		<tag k="name" v="Anlaugskvild" />
		<tag k="place" v="locality" />
		<tag k="ssr:stedsnr" v="234706" />
	</node>
	<node lat="59.35470833764291" lon="8.692852784821957" id="-28951">
		<tag k="name" v="Flotin" />
		<tag k="natural" v="wetland" />
		<tag k="ssr:stedsnr" v="245808" />
	</node>
	<node lat="59.49528611098048" lon="8.351408335234444" id="-28956">
		<tag k="name" v="Langedalsmyran" />
		<tag k="natural" v="wetland" />
		<tag k="ssr:stedsnr" v="245881" />
	</node>
	<node lat="59.403583336963756" lon="8.449419442687255" id="-28966">
		<tag k="name" v="Raulimyr" />
		<tag k="natural" v="wetland" />
		<tag k="ssr:stedsnr" v="292002" />
	</node>
	<node lat="59.45114444644805" lon="8.337705559605586" id="-28975">
		<tag k="name" v="Hestegarmyri" />
		<tag k="natural" v="wetland" />
		<tag k="ssr:stedsnr" v="292607" />
	</node>
	<node lat="59.39924444150359" lon="8.45755555144298" id="-28977">
		<tag k="name" v="Solheimsmyri" />
		<tag k="natural" v="wetland" />
		<tag k="ssr:stedsnr" v="292610" />
	</node>
	<node lat="59.38149999760634" lon="8.455619449814192" id="-28984">
		<tag k="historic" v="shieling" />
		<tag k="name" v="Simonsbøle" />
		<tag k="place" v="locality" />
		<tag k="ssr:stedsnr" v="292530" />
	</node>
	<node lat="59.42764444054737" lon="8.437094442849139" id="-28988">
		<tag k="name" v="Åteigen" />
		<tag k="place" v="locality" />
		<tag k="ssr:stedsnr" v="292585" />
	</node>
	<node lat="59.43987778019234" lon="8.323980553368488" id="-28991">
		<tag k="name" v="Trugsmyran" />
		<tag k="natural" v="wetland" />
		<tag k="ssr:stedsnr" v="292707" />
	</node>
	<node lat="59.41410000156086" lon="8.353649992111542" id="-29002">
		<tag k="historic" v="shieling" />
		<tag k="name" v="Hillestaul" />
		<tag k="place" v="locality" />
		<tag k="ssr:stedsnr" v="292923" />
	</node>
	<node lat="59.47988332952072" lon="8.376491665209386" id="-29009">
		<tag k="landuse" v="meadow" />
		<tag k="name" v="Firemåløy" />
		<tag k="ssr:stedsnr" v="293305" />
	</node>
	<node lat="59.44459798493971" lon="8.50218586935717" id="-29015">
		<tag k="name" v="Bergemyri" />
		<tag k="natural" v="wetland" />
		<tag k="ssr:stedsnr" v="293225" />
	</node>
	<node lat="59.41701956219684" lon="8.584918370443614" id="-29021">
		<tag k="name" v="Vårfjosmyran øvre" />
		<tag k="natural" v="wetland" />
		<tag k="ssr:stedsnr" v="293726" />
	</node>
	<node lat="59.43316666381678" lon="8.525091667149287" id="-29023">
		<tag k="name" v="Søkkrisåt" />
		<tag k="place" v="locality" />
		<tag k="ssr:stedsnr" v="293479" />
	</node>
	<node lat="59.442830555090595" lon="8.54087777052594" id="-29024">
		<tag k="name" v="Sandåker" />
		<tag k="place" v="locality" />
		<tag k="ssr:stedsnr" v="293482" />
	</node>
	<node lat="59.49296667033059" lon="8.462849998339234" id="-29026">
		<tag k="historic" v="shieling" />
		<tag k="name" v="Eggestaul" />
		<tag k="place" v="locality" />
		<tag k="ssr:stedsnr" v="293623" />
	</node>
	<node lat="59.32309876274149" lon="8.55843122972453" id="-29029">
		<tag k="name" v="Sirdalsmann" />
		<tag k="natural" v="stone" />
		<tag k="ssr:stedsnr" v="293893" />
	</node>
	<node lat="59.30739617741096" lon="8.697656235080773" id="-29036">
		<tag k="landuse" v="meadow" />
		<tag k="name" v="Mittigar" />
		<tag k="ssr:stedsnr" v="294502" />
	</node>
	<node lat="59.328379855174774" lon="8.666673489492112" id="-29040">
		<tag k="name" v="Viermyri" />
		<tag k="natural" v="wetland" />
		<tag k="ssr:stedsnr" v="294612" />
	</node>
	<node lat="59.27269330602758" lon="8.741006334488375" id="-29041">
		<tag k="name" v="Holtemyri" />
		<tag k="natural" v="wetland" />
		<tag k="ssr:stedsnr" v="294811" />
	</node>
	<node lat="59.39954609752482" lon="8.615775714161137" id="-29047">
		<tag k="name" v="Møltemyran" />
		<tag k="natural" v="wetland" />
		<tag k="ssr:stedsnr" v="295281" />
	</node>
	<node lat="59.47544444699367" lon="8.444538886901645" id="-29062">
		<tag k="name" v="Langemyr" />
		<tag k="natural" v="wetland" />
		<tag k="ssr:stedsnr" v="305444" />
	</node>
	<node lat="59.52672222558842" lon="8.328783331739318" id="-29081">
		<tag k="name" v="Vasstaulmyran" />
		<tag k="natural" v="wetland" />
		<tag k="ssr:stedsnr" v="473098" />
	</node>
	<node lat="59.502311115485284" lon="8.374963884720193" id="-29086">
		<tag k="name" v="Vimyr" />
		<tag k="natural" v="wetland" />
		<tag k="ssr:stedsnr" v="473188" />
	</node>
	<node lat="59.4455166698129" lon="8.485611107296819" id="-29091">
		<tag k="name" v="Sivinna" />
		<tag k="natural" v="wetland" />
		<tag k="ssr:stedsnr" v="473626" />
	</node>
	<node lat="59.44270000055603" lon="8.326550008230704" id="-29096">
		<tag k="name" v="Dauvedalmyran" />
		<tag k="natural" v="wetland" />
		<tag k="ssr:stedsnr" v="474724" />
	</node>
	<node lat="59.443188887832314" lon="8.36505278543831" id="-29097">
		<tag k="historic" v="shieling" />
		<tag k="name" v="Vesterdal øvre" />
		<tag k="place" v="locality" />
		<tag k="ssr:stedsnr" v="474727" />
	</node>
	<node lat="59.440108331309986" lon="8.377805557210557" id="-29098">
		<tag k="name" v="Vesterdalskasin" />
		<tag k="place" v="locality" />
		<tag k="ssr:stedsnr" v="474730" />
	</node>
	<node lat="59.47683055206563" lon="8.450574995815876" id="-29101">
		<tag k="name" v="Nastaulholet" />
		<tag k="natural" v="wetland" />
		<tag k="ssr:stedsnr" v="473897" />
	</node>
	<node lat="59.488783337072384" lon="8.332624997995065" id="-29111">
		<tag k="name" v="Evjemyr" />
		<tag k="natural" v="wetland" />
		<tag k="ssr:stedsnr" v="474132" />
	</node>
	<node lat="59.4171249993796" lon="8.512047219005966" id="-29112">
		<tag k="name" v="Nevaslaget" />
		<tag k="natural" v="wetland" />
		<tag k="ssr:stedsnr" v="474138" />
	</node>
	<node lat="59.28324166248801" lon="8.350919444567099" id="-29119">
		<tag k="name" v="Roholtheii" />
		<tag k="place" v="locality" />
		<tag k="ssr:stedsnr" v="474223" />
	</node>
	<node lat="59.4809750006739" lon="8.294347227132754" id="-29125">
		<tag k="historic" v="shieling" />
		<tag k="name" v="Geitebui" />
		<tag k="place" v="locality" />
		<tag k="ssr:stedsnr" v="474234" />
	</node>
	<node lat="59.48604167117347" lon="8.449752783454404" id="-29133">
		<tag k="name" v="Kvennhusmyran" />
		<tag k="natural" v="wetland" />
		<tag k="ssr:stedsnr" v="352855" />
	</node>
	<node lat="59.489172226041255" lon="8.424188887511036" id="-29134">
		<tag k="historic" v="shieling" />
		<tag k="name" v="Nystaul" />
		<tag k="place" v="locality" />
		<tag k="ssr:stedsnr" v="353208" />
	</node>
	<node lat="59.447649106297604" lon="8.501298993956727" id="-29135">
		<tag k="name" v="Jentekasin" />
		<tag k="place" v="locality" />
		<tag k="ssr:stedsnr" v="353210" />
	</node>
	<node lat="59.45707222451695" lon="8.368355551912678" id="-29153">
		<tag k="landuse" v="meadow" />
		<tag k="name" v="Stavdalslåtta" />
		<tag k="ssr:stedsnr" v="353545" />
	</node>
	<node lat="59.43200555350522" lon="8.574269437462378" id="-29154">
		<tag k="name" v="Eggestaultangan" />
		<tag k="natural" v="wetland" />
		<tag k="ssr:stedsnr" v="353547" />
	</node>
	<node lat="59.38100833078251" lon="8.46242222973088" id="-29156">
		<tag k="name" v="Bastiansur" />
		<tag k="natural" v="scree" />
		<tag k="ssr:stedsnr" v="353563" />
	</node>
	<node lat="59.314558337352004" lon="8.398016672769337" id="-29159">
		<tag k="name" v="Sløte" />
		<tag k="place" v="locality" />
		<tag k="ssr:stedsnr" v="474467" />
	</node>
	<node lat="59.47510000232705" lon="8.309138894645313" id="-29161">
		<tag k="name" v="Svenskemyri" />
		<tag k="natural" v="wetland" />
		<tag k="ssr:stedsnr" v="353261" />
	</node>
	<node lat="59.40777222157165" lon="8.403394446409072" id="-29164">
		<tag k="name" v="Bjønnbåsmyri" />
		<tag k="natural" v="wetland" />
		<tag k="ssr:stedsnr" v="353412" />
	</node>
	<node lat="59.507983333052024" lon="8.454997225948071" id="-29170">
		<tag k="name" v="Mjøltekvæven" />
		<tag k="natural" v="wetland" />
		<tag k="ssr:stedsnr" v="474523" />
	</node>
	<node lat="59.43780833585964" lon="8.326663891835183" id="-29177">
		<tag k="historic" v="shieling" />
		<tag k="name" v="Listaul" />
		<tag k="place" v="locality" />
		<tag k="ssr:stedsnr" v="353714" />
	</node>
	<node lat="59.46126389298964" lon="8.356774992896492" id="-29193">
		<tag k="historic" v="shieling" />
		<tag k="name" v="Høg Nystaul" />
		<tag k="place" v="locality" />
		<tag k="ssr:stedsnr" v="474570" />
	</node>
	<node lat="59.457783336571694" lon="8.414877785672548" id="-29195">
		<tag k="landuse" v="quarry" />
		<tag k="name" v="Blåkåpargruve" />
		<tag k="ssr:stedsnr" v="353901" />
	</node>
	<node lat="59.28149407815626" lon="8.503179698933227" id="-29197">
		<tag k="name" v="Geiturin" />
		<tag k="natural" v="scree" />
		<tag k="ssr:stedsnr" v="354225" />
	</node>
	<node lat="59.45436667029904" lon="8.369641671635566" id="-29198">
		<tag k="historic" v="shieling" />
		<tag k="name" v="Kjerstaul" />
		<tag k="place" v="locality" />
		<tag k="ssr:stedsnr" v="474542" />
	</node>
	<node lat="59.347790670055645" lon="8.51532717977713" id="-29205">
		<tag k="name" v="Firskotmyri" />
		<tag k="natural" v="wetland" />
		<tag k="ssr:stedsnr" v="354618" />
	</node>
	<node lat="59.31816569661721" lon="8.686180293074628" id="-29211">
		<tag k="landuse" v="meadow" />
		<tag k="name" v="Lindeekra" />
		<tag k="ssr:stedsnr" v="354721" />
	</node>
	<node lat="59.34343055550918" lon="8.434130556969626" id="-29220">
		<tag k="historic" v="shieling" />
		<tag k="name" v="Straumenslåtta" />
		<tag k="place" v="locality" />
		<tag k="ssr:stedsnr" v="474774" />
	</node>
	<node lat="59.36961111314001" lon="8.466472222982256" id="-29224">
		<tag k="name" v="Brannfløt" />
		<tag k="place" v="locality" />
		<tag k="ssr:stedsnr" v="474838" />
	</node>
	<node lat="59.42738055897498" lon="8.342347216905537" id="-29225">
		<tag k="name" v="Åndålskjer" />
		<tag k="natural" v="wetland" />
		<tag k="ssr:stedsnr" v="474842" />
	</node>
	<node lat="59.31527222601203" lon="8.341369438807893" id="-29243">
		<tag k="name" v="Stutskrea" />
		<tag k="place" v="locality" />
		<tag k="ssr:stedsnr" v="474981" />
	</node>
	<node lat="59.36348404959652" lon="8.245894802744964" id="-29246">
		<tag k="name" v="Hesttakmyri" />
		<tag k="natural" v="wetland" />
		<tag k="ssr:stedsnr" v="355967" />
	</node>
	<node lat="59.33260833638423" lon="8.310749999797286" id="-29251">
		<tag k="name" v="Stormyr" />
		<tag k="natural" v="wetland" />
		<tag k="ssr:stedsnr" v="474936" />
	</node>
	<node lat="59.473322225126424" lon="8.484005563286154" id="-29252">
		<tag k="name" v="Myra" />
		<tag k="place" v="locality" />
		<tag k="ssr:stedsnr" v="474946" />
	</node>
	<node lat="59.47469166800823" lon="8.363119437798982" id="-29262">
		<tag k="name" v="Andreskos" />
		<tag k="place" v="locality" />
		<tag k="ssr:stedsnr" v="475268" />
	</node>
	<node lat="59.4680888869028" lon="8.3571555527941" id="-29264">
		<tag k="name" v="Tjønnflymyri" />
		<tag k="natural" v="wetland" />
		<tag k="ssr:stedsnr" v="475272" />
	</node>
	<node lat="59.28812924771535" lon="8.698499443390823" id="-29267">
		<tag k="name" v="Jønnbergs langemyr" />
		<tag k="natural" v="wetland" />
		<tag k="ssr:stedsnr" v="475278" />
	</node>
	<node lat="59.42967777347534" lon="8.446986105080791" id="-29269">
		<tag k="name" v="Bekkhus" />
		<tag k="place" v="locality" />
		<tag k="ssr:stedsnr" v="475297" />
	</node>
	<node lat="59.48489444164642" lon="8.345097220117728" id="-29270">
		<tag k="name" v="Rupestaulmyran" />
		<tag k="natural" v="wetland" />
		<tag k="ssr:stedsnr" v="475298" />
	</node>
	<node lat="59.43043055893774" lon="8.536533326381951" id="-29271">
		<tag k="name" v="Reinmyri" />
		<tag k="natural" v="wetland" />
		<tag k="ssr:stedsnr" v="475300" />
	</node>
	<node lat="59.44719791182385" lon="8.549594734504488" id="-29274">
		<tag k="name" v="Storåker" />
		<tag k="place" v="locality" />
		<tag k="ssr:stedsnr" v="475354" />
	</node>
	<node lat="59.41731666329411" lon="8.408899998029472" id="-29277">
		<tag k="name" v="Transtaulmyri" />
		<tag k="natural" v="wetland" />
		<tag k="ssr:stedsnr" v="475425" />
	</node>
	<node lat="59.406716670270306" lon="8.390694438306499" id="-29278">
		<tag k="name" v="Torvmyri" />
		<tag k="natural" v="wetland" />
		<tag k="ssr:stedsnr" v="475426" />
	</node>
	<node lat="59.453921360979294" lon="8.53054853397946" id="-29279">
		<tag k="name" v="Tuslemyrkosi" />
		<tag k="natural" v="wetland" />
		<tag k="ssr:stedsnr" v="475365" />
	</node>
	<node lat="59.44166111333812" lon="8.56148889756819" id="-29281">
		<tag k="name" v="Elsemyr" />
		<tag k="natural" v="wetland" />
		<tag k="ssr:stedsnr" v="475437" />
	</node>
	<node lat="59.41454741495165" lon="8.565420441224934" id="-29286">
		<tag k="historic" v="shieling" />
		<tag k="name" v="Pålsgard" />
		<tag k="place" v="locality" />
		<tag k="ssr:stedsnr" v="475644" />
	</node>
	<node lat="59.307505551782725" lon="8.3088694516863" id="-29289">
		<tag k="name" v="Gausbumyran" />
		<tag k="natural" v="wetland" />
		<tag k="ssr:stedsnr" v="475740" />
	</node>
	<node lat="59.43949722370495" lon="8.577841661059438" id="-29290">
		<tag k="name" v="Leikarvollen" />
		<tag k="place" v="locality" />
		<tag k="ssr:stedsnr" v="475523" />
	</node>
	<node lat="59.42449721906208" lon="8.562872220919001" id="-29292">
		<tag k="name" v="Skrottmyri" />
		<tag k="natural" v="wetland" />
		<tag k="ssr:stedsnr" v="475532" />
	</node>
	<node lat="59.46656944046696" lon="8.415855557848314" id="-29296">
		<tag k="name" v="Langemyr" />
		<tag k="natural" v="wetland" />
		<tag k="ssr:stedsnr" v="475670" />
	</node>
	<node lat="59.3152832362614" lon="8.524155572798295" id="-29297">
		<tag k="name" v="Rondemyr" />
		<tag k="natural" v="wetland" />
		<tag k="ssr:stedsnr" v="475678" />
	</node>
	<node lat="59.40179337852379" lon="8.564430671716483" id="-29298">
		<tag k="name" v="Rullemyr" />
		<tag k="natural" v="wetland" />
		<tag k="ssr:stedsnr" v="475691" />
	</node>
	<node lat="59.447388887484784" lon="8.423980558431621" id="-29307">
		<tag k="name" v="Teremyr" />
		<tag k="natural" v="wetland" />
		<tag k="ssr:stedsnr" v="475921" />
	</node>
	<node lat="59.36306118692584" lon="8.501389153680684" id="-29314">
		<tag k="name" v="Hauganmyri" />
		<tag k="natural" v="wetland" />
		<tag k="ssr:stedsnr" v="476447" />
	</node>
	<node lat="59.27416580218918" lon="8.77298201750889" id="-29324">
		<tag k="loc_name" v="Jenntjønnmyra" />
		<tag k="name" v="Jønntjønnmyri" />
		<tag k="natural" v="wetland" />
		<tag k="ssr:stedsnr" v="476708" />
	</node>
	<node lat="59.30510000161219" lon="8.521441661555794" id="-29326">
		<tag k="name" v="Mattiskos" />
		<tag k="place" v="locality" />
		<tag k="ssr:stedsnr" v="476880" />
	</node>
	<node lat="59.418067515740795" lon="8.461599033977764" id="-29335">
		<tag k="name" v="Gardkrokan" />
		<tag k="place" v="locality" />
		<tag k="ssr:stedsnr" v="477765" />
	</node>
	<node lat="59.36139870132609" lon="8.25784581566964" id="-29336">
		<tag k="name" v="Øvre Tægemyri" />
		<tag k="natural" v="wetland" />
		<tag k="ssr:stedsnr" v="477986" />
	</node>
	<node lat="59.26990277459553" lon="8.738602784876841" id="-29351">
		<tag k="name" v="Deildemyrane" />
		<tag k="natural" v="wetland" />
		<tag k="ssr:stedsnr" v="366534" />
	</node>
	<node lat="59.264494446392696" lon="8.345997230357902" id="-29389">
		<tag k="name" v="Raudhellkroi" />
		<tag k="place" v="locality" />
		<tag k="ssr:stedsnr" v="413208" />
	</node>
	<node lat="59.43723333620456" lon="8.418372225774293" id="-29396">
		<tag k="name" v="Kloppsmyri" />
		<tag k="natural" v="wetland" />
		<tag k="ssr:stedsnr" v="413606" />
	</node>
	<node lat="59.441955559048374" lon="8.40802778037735" id="-29397">
		<tag k="name" v="Moltemyran" />
		<tag k="natural" v="wetland" />
		<tag k="ssr:stedsnr" v="413611" />
	</node>
	<node lat="59.44374722128561" lon="8.399374999387469" id="-29409">
		<tag k="name" v="Vårfjoskosi" />
		<tag k="place" v="locality" />
		<tag k="ssr:stedsnr" v="413686" />
	</node>
	<node lat="59.44405555704057" lon="8.340577786303509" id="-29411">
		<tag k="name" v="Røymyr" />
		<tag k="natural" v="wetland" />
		<tag k="ssr:stedsnr" v="413845" />
	</node>
	<node lat="59.3461611067832" lon="8.484141660459592" id="-29423">
		<tag k="name" v="Stemmyr" />
		<tag k="natural" v="wetland" />
		<tag k="ssr:stedsnr" v="414236" />
	</node>
	<node lat="59.44232499723414" lon="8.51270833685848" id="-29426">
		<tag k="name" v="Sprøkridokki" />
		<tag k="place" v="locality" />
		<tag k="ssr:stedsnr" v="414279" />
	</node>
	<node lat="59.43125555555231" lon="8.528008324580615" id="-29427">
		<tag k="name" v="Skrottemyri" />
		<tag k="natural" v="wetland" />
		<tag k="ssr:stedsnr" v="414291" />
	</node>
	<node lat="59.49102777521574" lon="8.419266670910178" id="-29433">
		<tag k="name" v="Stålesbrot" />
		<tag k="place" v="locality" />
		<tag k="ssr:stedsnr" v="414186" />
	</node>
	<node lat="59.418541664675445" lon="8.42160000861774" id="-29436">
		<tag k="historic" v="shieling" />
		<tag k="name" v="Heggstaul" />
		<tag k="place" v="locality" />
		<tag k="ssr:stedsnr" v="414394" />
	</node>
	<node lat="59.49462222347435" lon="8.453005555794181" id="-29448">
		<tag k="historic" v="shieling" />
		<tag k="name" v="Listaul" />
		<tag k="place" v="locality" />
		<tag k="ssr:stedsnr" v="414612" />
	</node>
	<node lat="59.35535833718349" lon="8.383013890538772" id="-29450">
		<tag k="historic" v="shieling" />
		<tag k="name" v="Høystøyl" />
		<tag k="place" v="locality" />
		<tag k="ssr:stedsnr" v="414686" />
	</node>
	<node lat="59.441563887614066" lon="8.370424993220267" id="-29451">
		<tag k="historic" v="shieling" />
		<tag k="name" v="Vesterdal nedre" />
		<tag k="place" v="locality" />
		<tag k="ssr:stedsnr" v="414694" />
	</node>
	<node lat="59.48177777514314" lon="8.465041671312385" id="-29468">
		<tag k="name" v="Stormyr" />
		<tag k="natural" v="wetland" />
		<tag k="ssr:stedsnr" v="414936" />
	</node>
	<node lat="59.47615555838509" lon="8.471694438644725" id="-29471">
		<tag k="name" v="Slåtta" />
		<tag k="place" v="locality" />
		<tag k="ssr:stedsnr" v="414940" />
	</node>
	<node lat="59.46149443400612" lon="8.507687940522464" id="-29478">
		<tag k="name" v="Langmyr" />
		<tag k="natural" v="wetland" />
		<tag k="ssr:stedsnr" v="415141" />
	</node>
	<node lat="59.2639486098141" lon="8.539790660185156" id="-29479">
		<tag k="name" v="Søyledike" />
		<tag k="natural" v="wetland" />
		<tag k="ssr:stedsnr" v="415238" />
	</node>
	<node lat="59.26346942585712" lon="8.52312694884494" id="-29480">
		<tag k="name" v="Sparstykket" />
		<tag k="place" v="locality" />
		<tag k="ssr:stedsnr" v="415245" />
	</node>
	<node lat="59.32172184604332" lon="8.544385740156452" id="-29488">
		<tag k="name" v="Gruvemyri" />
		<tag k="natural" v="wetland" />
		<tag k="ssr:stedsnr" v="415687" />
	</node>
	<node lat="59.33225270288725" lon="8.593384521466295" id="-29491">
		<tag k="name" v="Løynmyr" />
		<tag k="natural" v="wetland" />
		<tag k="ssr:stedsnr" v="415704" />
	</node>
	<node lat="59.33086904645044" lon="8.585226334396662" id="-29496">
		<tag k="name" v="Skarkemyri" />
		<tag k="natural" v="wetland" />
		<tag k="ssr:stedsnr" v="415887" />
	</node>
	<node lat="59.27970760236275" lon="8.765435284685458" id="-29501">
		<tag k="name" v="Venbakk" />
		<tag k="place" v="locality" />
		<tag k="ssr:stedsnr" v="416695" />
	</node>
	<node lat="59.39456315410047" lon="8.257307557060392" id="-29505">
		<tag k="name" v="Midtstykke" />
		<tag k="place" v="locality" />
		<tag k="ssr:stedsnr" v="416791" />
	</node>
	<node lat="59.48622777727779" lon="8.424113884927795" id="-29513">
		<tag k="alt_name" v="Stråndemyri" />
		<tag k="name" v="Strondemyri" />
		<tag k="natural" v="wetland" />
		<tag k="ssr:stedsnr" v="488392" />
	</node>
	<node lat="59.49742500255822" lon="8.398066662433585" id="-29550">
		<tag k="name" v="Kjosin" />
		<tag k="natural" v="wetland" />
		<tag k="ssr:stedsnr" v="473572" />
	</node>
	<node lat="59.42179444007531" lon="8.539294444622922" id="-29556">
		<tag k="name" v="Eggestaulmyri" />
		<tag k="natural" v="wetland" />
		<tag k="ssr:stedsnr" v="474118" />
	</node>
	<node lat="59.40181666994709" lon="8.50145556347572" id="-29558">
		<tag k="name" v="Eldshol" />
		<tag k="place" v="locality" />
		<tag k="ssr:stedsnr" v="474128" />
	</node>
	<node lat="59.48906388892783" lon="8.434130550500392" id="-29561">
		<tag k="name" v="Bekkjekrokan" />
		<tag k="natural" v="wetland" />
		<tag k="ssr:stedsnr" v="474171" />
	</node>
	<node lat="59.48984444348812" lon="8.42175833220357" id="-29563">
		<tag k="name" v="Ospehaddi" />
		<tag k="place" v="locality" />
		<tag k="ssr:stedsnr" v="474174" />
	</node>
	<node lat="59.31275000068762" lon="8.443438880351634" id="-29564">
		<tag k="name" v="Tverrbekkmyri" />
		<tag k="natural" v="wetland" />
		<tag k="ssr:stedsnr" v="474407" />
	</node>
	<node lat="59.443191669937995" lon="8.3921027726297" id="-29570">
		<tag k="name" v="Småmyran" />
		<tag k="natural" v="wetland" />
		<tag k="ssr:stedsnr" v="474680" />
	</node>
	<node lat="59.41423332940964" lon="8.379247218188324" id="-29572">
		<tag k="historic" v="shieling" />
		<tag k="name" v="Listaul" />
		<tag k="place" v="locality" />
		<tag k="ssr:stedsnr" v="474822" />
	</node>
	<node lat="59.435911107613805" lon="8.314097229591656" id="-29576">
		<tag k="name" v="Godstaulmyran" />
		<tag k="natural" v="wetland" />
		<tag k="ssr:stedsnr" v="474708" />
	</node>
	<node lat="59.425152778641255" lon="8.367980556452972" id="-29581">
		<tag k="historic" v="shieling" />
		<tag k="name" v="Brattstaul" />
		<tag k="place" v="locality" />
		<tag k="ssr:stedsnr" v="474766" />
	</node>
	<node lat="59.30813177208125" lon="8.594960882658397" id="-29587">
		<tag k="name" v="Skarkemyri" />
		<tag k="natural" v="wetland" />
		<tag k="ssr:stedsnr" v="475020" />
	</node>
	<node lat="59.48066389046293" lon="8.357358331680853" id="-29588">
		<tag k="name" v="Norbønuri" />
		<tag k="natural" v="scree" />
		<tag k="ssr:stedsnr" v="475311" />
	</node>
	<node lat="59.43034166390638" lon="8.50924999268821" id="-29589">
		<tag k="name" v="Nori Godokk" />
		<tag k="place" v="locality" />
		<tag k="ssr:stedsnr" v="475313" />
	</node>
	<node lat="59.50594722146746" lon="8.363750000524202" id="-29591">
		<tag k="name" v="Mjåvassmyri" />
		<tag k="natural" v="wetland" />
		<tag k="ssr:stedsnr" v="475159" />
	</node>
	<node lat="59.45645141421655" lon="8.524789829546302" id="-29592">
		<tag k="name" v="Kåpåkjeldekkan" />
		<tag k="place" v="locality" />
		<tag k="ssr:stedsnr" v="475161" />
	</node>
	<node lat="59.45286924839846" lon="8.510601612994513" id="-29593">
		<tag k="landuse" v="meadow" />
		<tag k="name" v="Kviggaren" />
		<tag k="ssr:stedsnr" v="475168" />
	</node>
	<node lat="59.44957248569364" lon="8.504500523047668" id="-29594">
		<tag k="landuse" v="meadow" />
		<tag k="name" v="Liaråker" />
		<tag k="ssr:stedsnr" v="475170" />
	</node>
	<node lat="59.27299783600434" lon="8.53450247624374" id="-29596">
		<tag k="name" v="Steanmyri" />
		<tag k="natural" v="wetland" />
		<tag k="ssr:stedsnr" v="475223" />
	</node>
	<node lat="59.41836666234856" lon="8.515608331116097" id="-29599">
		<tag k="name" v="Tjønnstaulslåtta" />
		<tag k="natural" v="wetland" />
		<tag k="ssr:stedsnr" v="475259" />
	</node>
	<node lat="59.461075003796026" lon="8.318191673874477" id="-29600">
		<tag k="name" v="Anlaugshol" />
		<tag k="natural" v="wetland" />
		<tag k="ssr:stedsnr" v="475410" />
	</node>
	<node lat="59.43893610713008" lon="8.534108331928241" id="-29602">
		<tag k="name" v="Gampeskrottholet" />
		<tag k="natural" v="wetland" />
		<tag k="ssr:stedsnr" v="475459" />
	</node>
	<node lat="59.340964780129056" lon="8.564130201822785" id="-29609">
		<tag k="name" v="Saltgrasmyri" />
		<tag k="natural" v="wetland" />
		<tag k="ssr:stedsnr" v="475710" />
	</node>
	<node lat="59.41937295018662" lon="8.607043640966268" id="-29614">
		<tag k="name" v="Fivilmyri" />
		<tag k="natural" v="wetland" />
		<tag k="ssr:stedsnr" v="475719" />
	</node>
	<node lat="59.35772222296319" lon="8.314919445995196" id="-29619">
		<tag k="name" v="Nedre Kjosdalmyri" />
		<tag k="natural" v="wetland" />
		<tag k="ssr:stedsnr" v="475829" />
	</node>
	<node lat="59.35347989882031" lon="8.745581323355315" id="-29628">
		<tag k="name" v="Vaskarbekkmyri" />
		<tag k="natural" v="wetland" />
		<tag k="ssr:stedsnr" v="476611" />
	</node>
	<node lat="59.38150616431842" lon="8.227239368174528" id="-29630">
		<tag k="name" v="Saukjellmyran" />
		<tag k="natural" v="wetland" />
		<tag k="ssr:stedsnr" v="476908" />
	</node>
	<node lat="59.32957634910532" lon="8.21499352940116" id="-29632">
		<tag k="name" v="Grønhovdåsmyri" />
		<tag k="natural" v="wetland" />
		<tag k="ssr:stedsnr" v="477306" />
	</node>
	<node lat="59.479369576045485" lon="8.418451834134293" id="-29641">
		<tag k="name" v="Havrekleiv" />
		<tag k="place" v="locality" />
		<tag k="ssr:stedsnr" v="477757" />
	</node>
	<node lat="59.4322027754098" lon="8.459705556733484" id="-29676">
		<tag k="name" v="Slemdalsmyran" />
		<tag k="natural" v="wetland" />
		<tag k="ssr:stedsnr" v="534710" />
	</node>
	<node lat="59.414441671092376" lon="8.383066671873618" id="-29678">
		<tag k="landuse" v="quarry" />
		<tag k="name" v="Arsenikkgruva" />
		<tag k="ssr:stedsnr" v="534821" />
	</node>
	<node lat="59.48806111430101" lon="8.381088890625486" id="-29681">
		<tag k="name" v="Duveggmyri" />
		<tag k="natural" v="wetland" />
		<tag k="ssr:stedsnr" v="535122" />
	</node>
	<node lat="59.35712499972483" lon="8.495022218325085" id="-29691">
		<tag k="name" v="Utmannsvæum" />
		<tag k="place" v="locality" />
		<tag k="ssr:stedsnr" v="535212" />
	</node>
	<node lat="59.42342500167164" lon="8.513841673623705" id="-29692">
		<tag k="name" v="Hestemyri" />
		<tag k="natural" v="wetland" />
		<tag k="ssr:stedsnr" v="535308" />
	</node>
	<node lat="59.42466389047816" lon="8.518477775493166" id="-29693">
		<tag k="name" v="Røytekosi" />
		<tag k="place" v="locality" />
		<tag k="ssr:stedsnr" v="535309" />
	</node>
	<node lat="59.45910555889305" lon="8.293516666358606" id="-29698">
		<tag k="name" v="Skinhefte" />
		<tag k="natural" v="wetland" />
		<tag k="ssr:stedsnr" v="535508" />
	</node>
	<node lat="59.437988891788976" lon="8.452086116868657" id="-29700">
		<tag k="landuse" v="meadow" />
		<tag k="name" v="Haugjordslåtta" />
		<tag k="ssr:stedsnr" v="535288" />
	</node>
	<node lat="59.45288055391564" lon="8.564641673146163" id="-29705">
		<tag k="name" v="Sponmyr" />
		<tag k="natural" v="wetland" />
		<tag k="ssr:stedsnr" v="535707" />
	</node>
	<node lat="59.41412777618988" lon="8.333794435957312" id="-29724">
		<tag k="name" v="Langmyr" />
		<tag k="natural" v="wetland" />
		<tag k="ssr:stedsnr" v="535885" />
	</node>
	<node lat="59.47361666483323" lon="8.343283336909165" id="-29729">
		<tag k="historic" v="shieling" />
		<tag k="name" v="Andtjønnstaul øvre" />
		<tag k="place" v="locality" />
		<tag k="ssr:stedsnr" v="536267" />
	</node>
	<node lat="59.492941664782556" lon="8.454638895248829" id="-29736">
		<tag k="name" v="Brotakosi" />
		<tag k="place" v="locality" />
		<tag k="ssr:stedsnr" v="536610" />
	</node>
	<node lat="59.44009444012291" lon="8.596488884142472" id="-29738">
		<tag k="name" v="Heigotmyri" />
		<tag k="natural" v="wetland" />
		<tag k="ssr:stedsnr" v="536506" />
	</node>
	<node lat="59.34268684665321" lon="8.574815274964525" id="-29740">
		<tag k="name" v="Lindestadøyren" />
		<tag k="place" v="locality" />
		<tag k="ssr:stedsnr" v="536531" />
	</node>
	<node lat="59.31940508226682" lon="8.576302877498609" id="-29746">
		<tag k="name" v="Bakkanslåtta" />
		<tag k="natural" v="wetland" />
		<tag k="ssr:stedsnr" v="536874" />
	</node>
	<node lat="59.350574562410806" lon="8.838510500422368" id="-29751">
		<tag k="name" v="Langemyr" />
		<tag k="natural" v="wetland" />
		<tag k="ssr:stedsnr" v="537310" />
	</node>
	<node lat="59.36354692016686" lon="8.777358329510157" id="-29752">
		<tag k="name" v="Dengsmyran" />
		<tag k="natural" v="wetland" />
		<tag k="ssr:stedsnr" v="537314" />
	</node>
	<node lat="59.40702430361885" lon="8.444818200734563" id="-29755">
		<tag k="name" v="Kringlemyr" />
		<tag k="natural" v="wetland" />
		<tag k="ssr:stedsnr" v="537712" />
	</node>
	<node lat="59.333936524002226" lon="8.787696080505434" id="-29761">
		<tag k="name" v="Klokkarmyri" />
		<tag k="natural" v="wetland" />
		<tag k="ssr:stedsnr" v="538405" />
	</node>
	<node lat="59.355606785175944" lon="8.251038852482374" id="-29764">
		<tag k="name" v="Gjermundskos" />
		<tag k="place" v="locality" />
		<tag k="ssr:stedsnr" v="538711" />
	</node>
	<node lat="59.350594443867514" lon="8.773927781009284" id="-29782">
		<tag k="alt_name" v="Kringlemyri" />
		<tag k="name" v="Kringlemyr" />
		<tag k="natural" v="wetland" />
		<tag k="ssr:stedsnr" v="548820" />
	</node>
	<node lat="59.40405000176744" lon="8.547583338558582" id="-29791">
		<tag k="name" v="Krossmyr" />
		<tag k="natural" v="wetland" />
		<tag k="ssr:stedsnr" v="548956" />
	</node>
	<node lat="59.50236388672276" lon="8.399941670659958" id="-29801">
		<tag k="name" v="Havremyran" />
		<tag k="natural" v="wetland" />
		<tag k="ssr:stedsnr" v="595113" />
	</node>
	<node lat="59.33080277688647" lon="8.415447229834143" id="-29802">
		<tag k="name" v="Sandemyri" />
		<tag k="natural" v="wetland" />
		<tag k="ssr:stedsnr" v="595114" />
	</node>
	<node lat="59.390686114820454" lon="8.477355561917317" id="-29813">
		<tag k="name" v="Rondemyr" />
		<tag k="natural" v="wetland" />
		<tag k="ssr:stedsnr" v="595509" />
	</node>
	<node lat="59.44976388852156" lon="8.564927775262497" id="-29815">
		<tag k="name" v="Kvennhusekra" />
		<tag k="place" v="locality" />
		<tag k="ssr:stedsnr" v="595703" />
	</node>
	<node lat="59.34627777658475" lon="8.373122216228277" id="-29822">
		<tag k="name" v="Kollmyr" />
		<tag k="natural" v="wetland" />
		<tag k="ssr:stedsnr" v="595667" />
	</node>
	<node lat="59.41116666850243" lon="8.372802776111156" id="-29825">
		<tag k="name" v="Toråsmyri" />
		<tag k="natural" v="wetland" />
		<tag k="ssr:stedsnr" v="595810" />
	</node>
	<node lat="59.40597500006819" lon="8.374327778388908" id="-29826">
		<tag k="name" v="Stabbekjosin" />
		<tag k="place" v="locality" />
		<tag k="ssr:stedsnr" v="595815" />
	</node>
	<node lat="59.40146110780163" lon="8.36724165931922" id="-29829">
		<tag k="name" v="Landsverkmyri" />
		<tag k="natural" v="wetland" />
		<tag k="ssr:stedsnr" v="595859" />
	</node>
	<node lat="59.319227780158855" lon="8.300444450059544" id="-29838">
		<tag k="historic" v="shieling" />
		<tag k="name" v="Ufsebu" />
		<tag k="place" v="locality" />
		<tag k="ssr:stedsnr" v="595957" />
	</node>
	<node lat="59.532488887273324" lon="8.334166660483717" id="-29841">
		<tag k="historic" v="shieling" />
		<tag k="name" v="Sud Jonsli" />
		<tag k="place" v="locality" />
		<tag k="ssr:stedsnr" v="596005" />
	</node>
	<node lat="59.4761749962527" lon="8.31518888120562" id="-29845">
		<tag k="historic" v="shieling" />
		<tag k="name" v="Listaul" />
		<tag k="place" v="locality" />
		<tag k="ssr:stedsnr" v="596222" />
	</node>
	<node lat="59.252314412404594" lon="8.539599073311347" id="-29846">
		<tag k="name" v="Pyttemyri" />
		<tag k="natural" v="wetland" />
		<tag k="ssr:stedsnr" v="596249" />
	</node>
	<node lat="59.463956972962414" lon="8.532757305218484" id="-29848">
		<tag k="name" v="Lambrektsmyran" />
		<tag k="natural" v="wetland" />
		<tag k="ssr:stedsnr" v="596163" />
	</node>
	<node lat="59.47562777565234" lon="8.382111111366955" id="-29852">
		<tag k="name" v="Kishov" />
		<tag k="place" v="locality" />
		<tag k="ssr:stedsnr" v="596310" />
	</node>
	<node lat="59.487016663313355" lon="8.365852785173852" id="-29856">
		<tag k="historic" v="shieling" />
		<tag k="name" v="Skor" />
		<tag k="place" v="locality" />
		<tag k="ssr:stedsnr" v="596316" />
	</node>
	<node lat="59.42264722181604" lon="8.568002781807806" id="-29859">
		<tag k="name" v="Lauvlunden" />
		<tag k="place" v="locality" />
		<tag k="ssr:stedsnr" v="596602" />
	</node>
	<node lat="59.3527750906425" lon="8.531653793864972" id="-29862">
		<tag k="name" v="Sandvikmyran" />
		<tag k="natural" v="wetland" />
		<tag k="ssr:stedsnr" v="596558" />
	</node>
	<node lat="59.32010054168127" lon="8.603817286504109" id="-29871">
		<tag k="name" v="Talarstolen" />
		<tag k="natural" v="stone" />
		<tag k="ssr:stedsnr" v="596862" />
	</node>
	<node lat="59.329210016196086" lon="8.75889407589109" id="-29875">
		<tag k="name" v="Kringlemyr" />
		<tag k="natural" v="wetland" />
		<tag k="ssr:stedsnr" v="597021" />
	</node>
	<node lat="59.48291110988065" lon="8.474361106248299" id="-29876">
		<tag k="name" v="Kråkanjore" />
		<tag k="place" v="locality" />
		<tag k="ssr:stedsnr" v="596958" />
	</node>
	<node lat="59.41150956082037" lon="8.613110866814964" id="-29878">
		<tag k="name" v="Fotmyran" />
		<tag k="natural" v="wetland" />
		<tag k="ssr:stedsnr" v="597055" />
	</node>
	<node lat="59.303300462367055" lon="8.611968650953532" id="-29879">
		<tag k="name" v="Mjaugedalen" />
		<tag k="place" v="locality" />
		<tag k="ssr:stedsnr" v="597302" />
	</node>
	<node lat="59.29034096942303" lon="8.737050846724145" id="-29886">
		<tag k="name" v="Saulikosi" />
		<tag k="place" v="locality" />
		<tag k="ssr:stedsnr" v="597802" />
	</node>
	<node lat="59.41107222264811" lon="8.351277784786937" id="-29888">
		<tag k="name" v="Lislåtta" />
		<tag k="natural" v="wetland" />
		<tag k="ssr:stedsnr" v="598259" />
	</node>
	<node lat="59.4564083325604" lon="8.359441658132551" id="-29934">
		<tag k="historic" v="shieling" />
		<tag k="name" v="Bergdal øvre" />
		<tag k="place" v="locality" />
		<tag k="ssr:stedsnr" v="655501" />
	</node>
	<node lat="59.40388055619248" lon="8.475938893523809" id="-29943">
		<tag k="name" v="Fikjan" />
		<tag k="place" v="locality" />
		<tag k="ssr:stedsnr" v="656209" />
	</node>
	<node lat="59.386130558667936" lon="8.465844444655172" id="-29947">
		<tag k="name" v="Samuelskos" />
		<tag k="natural" v="wetland" />
		<tag k="ssr:stedsnr" v="656604" />
	</node>
	<node lat="59.400100004352076" lon="8.476049991603587" id="-29949">
		<tag k="name" v="Fikjan" />
		<tag k="natural" v="wetland" />
		<tag k="ssr:stedsnr" v="656633" />
	</node>
	<node lat="59.45210555878157" lon="8.33731666735186" id="-29950">
		<tag k="name" v="Bjønnemyr" />
		<tag k="natural" v="wetland" />
		<tag k="ssr:stedsnr" v="656637" />
	</node>
	<node lat="59.50596388445977" lon="8.451055559845264" id="-29953">
		<tag k="name" v="Tangan" />
		<tag k="natural" v="wetland" />
		<tag k="ssr:stedsnr" v="656532" />
	</node>
	<node lat="59.44496666603643" lon="8.555977783725782" id="-29954">
		<tag k="name" v="Nyork" />
		<tag k="place" v="locality" />
		<tag k="ssr:stedsnr" v="656738" />
	</node>
	<node lat="59.41586388883413" lon="8.34318611198746" id="-29959">
		<tag k="historic" v="shieling" />
		<tag k="name" v="Raudberg nordre" />
		<tag k="place" v="locality" />
		<tag k="ssr:stedsnr" v="656895" />
	</node>
	<node lat="59.45187221783175" lon="8.43321944349199" id="-29960">
		<tag k="name" v="Pråmmyr" />
		<tag k="natural" v="wetland" />
		<tag k="ssr:stedsnr" v="656897" />
	</node>
	<node lat="59.43440555243364" lon="8.333855564063963" id="-29964">
		<tag k="name" v="Fjelldalsmyri" />
		<tag k="natural" v="wetland" />
		<tag k="ssr:stedsnr" v="656783" />
	</node>
	<node lat="59.327133332829256" lon="8.306097222160357" id="-29968">
		<tag k="name" v="Sultingsvåa" />
		<tag k="place" v="locality" />
		<tag k="ssr:stedsnr" v="656939" />
	</node>
	<node lat="59.516958336737936" lon="8.336786113668406" id="-29975">
		<tag k="historic" v="shieling" />
		<tag k="name" v="Strandstaul" />
		<tag k="place" v="locality" />
		<tag k="ssr:stedsnr" v="657111" />
	</node>
	<node lat="59.44138055244987" lon="8.532380552502474" id="-29978">
		<tag k="name" v="Meinstadmyri" />
		<tag k="natural" v="wetland" />
		<tag k="ssr:stedsnr" v="657285" />
	</node>
	<node lat="59.30618817476859" lon="8.64867720613357" id="-29980">
		<tag k="name" v="Mjaugedalskroi" />
		<tag k="place" v="locality" />
		<tag k="ssr:stedsnr" v="657306" />
	</node>
	<node lat="59.444749788703" lon="8.467058242596647" id="-30015">
		<tag k="name" v="Fivilkroi" />
		<tag k="place" v="locality" />
		<tag k="ssr:stedsnr" v="659736" />
	</node>
	<node lat="59.4777625104878" lon="8.400922031345821" id="-30016">
		<tag k="name" v="Storåker" />
		<tag k="place" v="locality" />
		<tag k="ssr:stedsnr" v="659738" />
	</node>
	<node lat="59.37086902756911" lon="8.2586790953759" id="-30020">
		<tag k="name" v="Dårstøylmyri" />
		<tag k="natural" v="wetland" />
		<tag k="ssr:stedsnr" v="659990" />
	</node>
	<node lat="59.476561108629255" lon="8.286586105797703" id="-30028">
		<tag k="alt_name" v="Tjørnflymyran" />
		<tag k="name" v="Tjønnflymyran" />
		<tag k="natural" v="wetland" />
		<tag k="ssr:stedsnr" v="669427" />
	</node>
	<node lat="59.426961971991034" lon="8.600060956526555" id="-30037">
		<tag k="historic" v="shieling" />
		<tag k="name" v="Kishovstaulen" />
		<tag k="place" v="locality" />
		<tag k="ssr:stedsnr" v="669909" />
	</node>
	<node lat="59.45649999898598" lon="8.305247222853597" id="-30056">
		<tag k="name" v="Mogan" />
		<tag k="natural" v="wetland" />
		<tag k="ssr:stedsnr" v="716422" />
	</node>
	<node lat="59.45525833202154" lon="8.348419447832375" id="-30057">
		<tag k="name" v="Våtkleiv" />
		<tag k="natural" v="wetland" />
		<tag k="ssr:stedsnr" v="716578" />
	</node>
	<node lat="59.438394447953875" lon="8.368774998908442" id="-30059">
		<tag k="name" v="Gravi" />
		<tag k="place" v="locality" />
		<tag k="ssr:stedsnr" v="716826" />
	</node>
	<node lat="59.48792221975965" lon="8.365324998817208" id="-30061">
		<tag k="historic" v="shieling" />
		<tag k="name" v="Vesle Venås" />
		<tag k="place" v="locality" />
		<tag k="ssr:stedsnr" v="899133" />
	</node>
	<node lat="59.34660000322744" lon="8.492594447087471" id="-30063">
		<tag k="name" v="Langemyr" />
		<tag k="natural" v="wetland" />
		<tag k="ssr:stedsnr" v="717222" />
	</node>
	<node lat="59.338286106807544" lon="8.486705563506916" id="-30064">
		<tag k="name" v="Stormyr" />
		<tag k="natural" v="wetland" />
		<tag k="ssr:stedsnr" v="717224" />
	</node>
	<node lat="59.31140000176035" lon="8.486688890874113" id="-30074">
		<tag k="name" v="Skrikarberget" />
		<tag k="place" v="locality" />
		<tag k="ssr:stedsnr" v="717386" />
	</node>
	<node lat="59.461891664933795" lon="8.33548333869319" id="-30081">
		<tag k="name" v="Vesletjønnkosi" />
		<tag k="place" v="locality" />
		<tag k="ssr:stedsnr" v="717620" />
	</node>
	<node lat="59.44930555867446" lon="8.592641662092126" id="-30088">
		<tag k="name" v="Storemyr" />
		<tag k="natural" v="wetland" />
		<tag k="ssr:stedsnr" v="717720" />
	</node>
	<node lat="59.37806666549029" lon="8.470352772691507" id="-30095">
		<tag k="name" v="Fiskuri" />
		<tag k="natural" v="scree" />
		<tag k="ssr:stedsnr" v="717814" />
	</node>
	<node lat="59.538822218896534" lon="8.331036108671357" id="-30099">
		<tag k="name" v="Langemyr" />
		<tag k="natural" v="wetland" />
		<tag k="ssr:stedsnr" v="718011" />
	</node>
	<node lat="59.513361108754154" lon="8.376172223426542" id="-30103">
		<tag k="landuse" v="meadow" />
		<tag k="name" v="Småskålan" />
		<tag k="ssr:stedsnr" v="718029" />
	</node>
	<node lat="59.524155551935145" lon="8.348594449233127" id="-30106">
		<tag k="name" v="Ramsåsmyran" />
		<tag k="natural" v="wetland" />
		<tag k="ssr:stedsnr" v="718044" />
	</node>
	<node lat="59.509722218250474" lon="8.342972221904223" id="-30113">
		<tag k="name" v="Olavsmyr" />
		<tag k="natural" v="wetland" />
		<tag k="ssr:stedsnr" v="718115" />
	</node>
	<node lat="59.43822499825643" lon="8.504163894180724" id="-30118">
		<tag k="name" v="Kringlemyr" />
		<tag k="natural" v="wetland" />
		<tag k="ssr:stedsnr" v="718275" />
	</node>
	<node lat="59.42841666630649" lon="8.52043332468562" id="-30120">
		<tag k="name" v="Dogurmålmyri" />
		<tag k="natural" v="wetland" />
		<tag k="ssr:stedsnr" v="718289" />
	</node>
	<node lat="59.31272013821841" lon="8.721851177481536" id="-30122">
		<tag k="name" v="Gosiguri" />
		<tag k="natural" v="scree" />
		<tag k="ssr:stedsnr" v="718426" />
	</node>
	<node lat="59.50788888821514" lon="8.34256666154014" id="-30123">
		<tag k="name" v="Bergsmyran" />
		<tag k="natural" v="wetland" />
		<tag k="ssr:stedsnr" v="718170" />
	</node>
	<node lat="59.304713715630605" lon="8.64722087716082" id="-30124">
		<tag k="name" v="Mjaugedalstean" />
		<tag k="place" v="locality" />
		<tag k="ssr:stedsnr" v="718305" />
	</node>
	<node lat="59.476586108476944" lon="8.353905562749695" id="-30126">
		<tag k="historic" v="shieling" />
		<tag k="name" v="Listaul" />
		<tag k="place" v="locality" />
		<tag k="ssr:stedsnr" v="718307" />
	</node>
	<node lat="59.486775004239846" lon="8.36972500758184" id="-30129">
		<tag k="historic" v="shieling" />
		<tag k="name" v="Gamlestaul" />
		<tag k="place" v="locality" />
		<tag k="ssr:stedsnr" v="718316" />
	</node>
	<node lat="59.40144092049035" lon="8.566850741012729" id="-30138">
		<tag k="landuse" v="quarry" />
		<tag k="name" v="Glimmergruva" />
		<tag k="ssr:stedsnr" v="718689" />
	</node>
	<node lat="59.48183889228321" lon="8.400463892232985" id="-30144">
		<tag k="name" v="Vestmyran" />
		<tag k="natural" v="wetland" />
		<tag k="ssr:stedsnr" v="718715" />
	</node>
	<node lat="59.46206388605249" lon="8.40820556134776" id="-30147">
		<tag k="name" v="Kloppmyri" />
		<tag k="natural" v="wetland" />
		<tag k="ssr:stedsnr" v="718903" />
	</node>
	<node lat="59.44910000435898" lon="8.465627772137672" id="-30148">
		<tag k="historic" v="shieling" />
		<tag k="name" v="Tjønnanmyran" />
		<tag k="place" v="locality" />
		<tag k="ssr:stedsnr" v="899328" />
	</node>
	<node lat="59.457453281397946" lon="8.520366595117425" id="-30151">
		<tag k="landuse" v="meadow" />
		<tag k="name" v="Rugkosi" />
		<tag k="ssr:stedsnr" v="719145" />
	</node>
	<node lat="59.310869442893484" lon="8.496058336945552" id="-30152">
		<tag k="name" v="Notberget" />
		<tag k="place" v="locality" />
		<tag k="ssr:stedsnr" v="899387" />
	</node>
	<node lat="59.328466986638944" lon="8.26441189328599" id="-30155">
		<tag k="name" v="Mærdalssteane" />
		<tag k="natural" v="wetland" />
		<tag k="ssr:stedsnr" v="719269" />
	</node>
	<node lat="59.35561422549251" lon="8.518352212300677" id="-30162">
		<tag k="name" v="Petarskøs" />
		<tag k="place" v="locality" />
		<tag k="ssr:stedsnr" v="719531" />
	</node>
	<node lat="59.3504337456395" lon="8.773825520801937" id="-30165">
		<tag k="name" v="Ræpmyr" />
		<tag k="natural" v="wetland" />
		<tag k="ssr:stedsnr" v="719583" />
	</node>
	<node lat="59.44925833199909" lon="8.31640277353052" id="-30166">
		<tag k="name" v="Skogsmark" />
		<tag k="place" v="locality" />
		<tag k="ssr:stedsnr" v="899445" />
	</node>
	<node lat="59.28029186461464" lon="8.777195769102592" id="-30167">
		<tag k="name" v="Fjosmyri" />
		<tag k="natural" v="wetland" />
		<tag k="ssr:stedsnr" v="719678" />
	</node>
	<node lat="59.48363611125153" lon="8.395011113278354" id="-30170">
		<tag k="name" v="Kasaseljordet" />
		<tag k="place" v="locality" />
		<tag k="ssr:stedsnr" v="899542" />
	</node>
	<node lat="59.46065555428167" lon="8.484922216740197" id="-30193">
		<tag k="name" v="Langmyrdalen" />
		<tag k="natural" v="wetland" />
		<tag k="ssr:stedsnr" v="899680" />
	</node>
	<node lat="59.35276666730866" lon="8.334575007343581" id="-30195">
		<tag k="name" v="Ravnejuvstean" />
		<tag k="place" v="locality" />
		<tag k="ssr:stedsnr" v="899701" />
	</node>
	<node lat="59.48584722047214" lon="8.395308329986637" id="-30196">
		<tag k="name" v="Gardseker" />
		<tag k="place" v="locality" />
		<tag k="ssr:stedsnr" v="899824" />
	</node>
	<node lat="59.48361944607727" lon="8.437716671220434" id="-30197">
		<tag k="name" v="Kåvsåsmyran" />
		<tag k="natural" v="wetland" />
		<tag k="ssr:stedsnr" v="899828" />
	</node>
	<node lat="59.447600001712736" lon="8.592766659497114" id="-30203">
		<tag k="name" v="Herbjørnsmyr" />
		<tag k="natural" v="wetland" />
		<tag k="ssr:stedsnr" v="899740" />
	</node>
	<node lat="59.48520000010158" lon="8.44422499844657" id="-30208">
		<tag k="historic" v="shieling" />
		<tag k="name" v="Kåvsåsmyran" />
		<tag k="place" v="locality" />
		<tag k="ssr:stedsnr" v="899887" />
	</node>
	<node lat="59.54188055850771" lon="8.353611108368263" id="-30212">
		<tag k="name" v="Flottin" />
		<tag k="place" v="locality" />
		<tag k="ssr:stedsnr" v="900035" />
	</node>
	<node lat="59.47832499552483" lon="8.47284443731553" id="-30213">
		<tag k="name" v="Myran" />
		<tag k="natural" v="wetland" />
		<tag k="ssr:stedsnr" v="899959" />
	</node>
	<node lat="59.328380556436976" lon="8.283016666263766" id="-30214">
		<tag k="name" v="Hestemyr" />
		<tag k="natural" v="wetland" />
		<tag k="ssr:stedsnr" v="899967" />
	</node>
	<node lat="59.316561109771634" lon="8.356855562301831" id="-30215">
		<tag k="name" v="Kloppmyr" />
		<tag k="natural" v="wetland" />
		<tag k="ssr:stedsnr" v="899975" />
	</node>
	<node lat="59.48883611054419" lon="8.379891662138833" id="-30221">
		<tag k="landuse" v="quarry" />
		<tag k="name" v="Nystaulgruva" />
		<tag k="ssr:stedsnr" v="900146" />
	</node>
	<node lat="59.44195555191867" lon="8.5526861121791" id="-30231">
		<tag k="name" v="Søkkrisåt" />
		<tag k="place" v="locality" />
		<tag k="ssr:stedsnr" v="900291" />
	</node>
	<node lat="59.44959256400535" lon="8.5400068603961" id="-30233">
		<tag k="name" v="Diplingsmyran" />
		<tag k="natural" v="wetland" />
		<tag k="ssr:stedsnr" v="900345" />
	</node>
	<node lat="59.442916665061496" lon="8.57688332844873" id="-30238">
		<tag k="name" v="Saltvollmyri" />
		<tag k="natural" v="wetland" />
		<tag k="ssr:stedsnr" v="900441" />
	</node>
	<node lat="59.43892221840819" lon="8.574358333534487" id="-30244">
		<tag k="name" v="Dalemyran" />
		<tag k="natural" v="wetland" />
		<tag k="ssr:stedsnr" v="900525" />
	</node>
	<node lat="59.42845277775447" lon="8.567052775019004" id="-30246">
		<tag k="name" v="Rondemyr" />
		<tag k="natural" v="wetland" />
		<tag k="ssr:stedsnr" v="900537" />
	</node>
	<node lat="59.34580838631858" lon="8.526034090886677" id="-30249">
		<tag k="name" v="Knuts-slåtte" />
		<tag k="place" v="locality" />
		<tag k="ssr:stedsnr" v="900583" />
	</node>
	<node lat="59.490297218728216" lon="8.467061117558359" id="-30251">
		<tag k="name" v="Kruskeskogen" />
		<tag k="place" v="locality" />
		<tag k="ssr:stedsnr" v="900630" />
	</node>
	<node lat="59.32107812466827" lon="8.530019676016538" id="-30252">
		<tag k="name" v="Vasan" />
		<tag k="natural" v="wetland" />
		<tag k="ssr:stedsnr" v="900646" />
	</node>
	<node lat="59.32237804347543" lon="8.585649803769796" id="-30260">
		<tag k="name" v="Honlimyran" />
		<tag k="natural" v="wetland" />
		<tag k="ssr:stedsnr" v="900867" />
	</node>
	<node lat="59.46513888723076" lon="8.386044435964644" id="-30267">
		<tag k="name" v="Tusteslåtta" />
		<tag k="natural" v="wetland" />
		<tag k="ssr:stedsnr" v="900888" />
	</node>
	<node lat="59.3019845890286" lon="8.69014544993377" id="-30278">
		<tag k="landuse" v="meadow" />
		<tag k="name" v="Vestgardsdalen" />
		<tag k="ssr:stedsnr" v="901080" />
	</node>
	<node lat="59.45666912154218" lon="8.514821784378446" id="-30285">
		<tag k="landuse" v="meadow" />
		<tag k="name" v="Lønaåker" />
		<tag k="ssr:stedsnr" v="901139" />
	</node>
	<node lat="59.2695844594134" lon="8.55377037816254" id="-30292">
		<tag k="name" v="Briskedekkan" />
		<tag k="place" v="locality" />
		<tag k="ssr:stedsnr" v="901223" />
	</node>
	<node lat="59.2773865012559" lon="8.711480674479981" id="-30293">
		<tag k="name" v="Flottin" />
		<tag k="place" v="locality" />
		<tag k="ssr:stedsnr" v="901235" />
	</node>
	<node lat="59.28477550906272" lon="8.713368371386268" id="-30294">
		<tag k="name" v="Berges langemyr" />
		<tag k="natural" v="wetland" />
		<tag k="ssr:stedsnr" v="901238" />
	</node>
	<node lat="59.31223108799737" lon="8.721441881185413" id="-30307">
		<tag k="name" v="Gosig" />
		<tag k="natural" v="scree" />
		<tag k="ssr:stedsnr" v="901427" />
	</node>
	<node lat="59.43461666429593" lon="8.55735000320982" id="-30332">
		<tag k="name" v="Langmyr" />
		<tag k="natural" v="wetland" />
		<tag k="ssr:stedsnr" v="776412" />
	</node>
	<node lat="59.405627780700165" lon="8.444472216430702" id="-30333">
		<tag k="name" v="Tanganmyri" />
		<tag k="natural" v="wetland" />
		<tag k="ssr:stedsnr" v="777003" />
	</node>
	<node lat="59.45148055680423" lon="8.452572218477242" id="-30334">
		<tag k="name" v="Hestmyr" />
		<tag k="natural" v="wetland" />
		<tag k="ssr:stedsnr" v="777304" />
	</node>
	<node lat="59.28354444811224" lon="8.377733335095169" id="-30338">
		<tag k="historic" v="shieling" />
		<tag k="name" v="Nipen" />
		<tag k="place" v="locality" />
		<tag k="ssr:stedsnr" v="777218" />
	</node>
	<node lat="59.45859166634954" lon="8.487688881459107" id="-30352">
		<tag k="historic" v="shieling" />
		<tag k="name" v="Nystaul" />
		<tag k="place" v="locality" />
		<tag k="ssr:stedsnr" v="777670" />
	</node>
	<node lat="59.39882222595628" lon="8.45099167066252" id="-30356">
		<tag k="name" v="Dapehaddi" />
		<tag k="place" v="locality" />
		<tag k="ssr:stedsnr" v="777516" />
	</node>
	<node lat="59.4551055579696" lon="8.362816674936154" id="-30358">
		<tag k="historic" v="shieling" />
		<tag k="name" v="Haukerei" />
		<tag k="place" v="locality" />
		<tag k="ssr:stedsnr" v="777527" />
	</node>
	<node lat="59.461983329126554" lon="8.367963895749075" id="-30360">
		<tag k="name" v="Førstaulmyri" />
		<tag k="natural" v="wetland" />
		<tag k="ssr:stedsnr" v="777562" />
	</node>
	<node lat="59.41761944438938" lon="8.507688894515788" id="-30375">
		<tag k="name" v="Tjønnstaulmyran" />
		<tag k="natural" v="wetland" />
		<tag k="ssr:stedsnr" v="778354" />
	</node>
	<node lat="59.467586110640354" lon="8.355294436994003" id="-30378">
		<tag k="name" v="Kveldbekkmyri" />
		<tag k="natural" v="wetland" />
		<tag k="ssr:stedsnr" v="778250" />
	</node>
	<node lat="59.50642499608719" lon="8.402499996166668" id="-30381">
		<tag k="historic" v="shieling" />
		<tag k="name" v="Hovstaul" />
		<tag k="place" v="locality" />
		<tag k="ssr:stedsnr" v="778259" />
	</node>
	<node lat="59.42691666304166" lon="8.499183330388666" id="-30384">
		<tag k="name" v="Brattekos" />
		<tag k="place" v="locality" />
		<tag k="ssr:stedsnr" v="778300" />
	</node>
	<node lat="59.42682222343857" lon="8.523894444648128" id="-30385">
		<tag k="name" v="Skrøyvlidmyri" />
		<tag k="natural" v="wetland" />
		<tag k="ssr:stedsnr" v="778301" />
	</node>
	<node lat="59.44162222113179" lon="8.347766661983608" id="-30394">
		<tag k="name" v="Torvmyran" />
		<tag k="natural" v="wetland" />
		<tag k="ssr:stedsnr" v="778705" />
	</node>
	<node lat="59.45081388792894" lon="8.58620277340895" id="-30396">
		<tag k="name" v="Lonsarmyri" />
		<tag k="natural" v="wetland" />
		<tag k="ssr:stedsnr" v="778707" />
	</node>
	<node lat="59.43990832910065" lon="8.597266668651699" id="-30397">
		<tag k="name" v="Gjelstadholet" />
		<tag k="natural" v="wetland" />
		<tag k="ssr:stedsnr" v="778502" />
	</node>
	<node lat="59.448744445512226" lon="8.355105549828954" id="-30398">
		<tag k="name" v="Midtbøenøyrun" />
		<tag k="place" v="locality" />
		<tag k="ssr:stedsnr" v="778618" />
	</node>
	<node lat="59.39487499682798" lon="8.439063888256435" id="-30399">
		<tag k="name" v="Kvitur" />
		<tag k="natural" v="scree" />
		<tag k="ssr:stedsnr" v="778701" />
	</node>
	<node lat="59.363922226087666" lon="8.313986105591804" id="-30407">
		<tag k="name" v="Perskjer" />
		<tag k="natural" v="wetland" />
		<tag k="ssr:stedsnr" v="779000" />
	</node>
	<node lat="59.29373156968832" lon="8.550859240873113" id="-30408">
		<tag k="name" v="Nystøylmyri" />
		<tag k="natural" v="wetland" />
		<tag k="ssr:stedsnr" v="779001" />
	</node>
	<node lat="59.37210277708588" lon="8.483080555824658" id="-30409">
		<tag k="name" v="Vassåker" />
		<tag k="place" v="locality" />
		<tag k="ssr:stedsnr" v="778850" />
	</node>
	<node lat="59.31077560248625" lon="8.567119751455074" id="-30411">
		<tag k="name" v="Skurvemyri" />
		<tag k="natural" v="wetland" />
		<tag k="ssr:stedsnr" v="779015" />
	</node>
	<node lat="59.333454509241896" lon="8.564070981553332" id="-30436">
		<tag k="name" v="Bilstadmyri" />
		<tag k="natural" v="wetland" />
		<tag k="ssr:stedsnr" v="779663" />
	</node>
	<node lat="59.36660970690806" lon="8.69500834839359" id="-30442">
		<tag k="name" v="Lindalsmyran" />
		<tag k="natural" v="wetland" />
		<tag k="ssr:stedsnr" v="780509" />
	</node>
	<node lat="59.3690249989533" lon="8.320105563302915" id="-30492">
		<tag k="alt_name" v="Bøykehagan" />
		<tag k="name" v="Bøykjehaugen" />
		<tag k="natural" v="wetland" />
		<tag k="ssr:stedsnr" v="913259" />
	</node>
	<node lat="59.45208055459631" lon="8.318691665260069" id="-30517">
		<tag k="historic" v="shieling" />
		<tag k="name" v="Ravndokki" />
		<tag k="place" v="locality" />
		<tag k="ssr:stedsnr" v="838426" />
	</node>
	<node lat="59.423602775109956" lon="8.506016668394453" id="-30529">
		<tag k="name" v="Rundemyr" />
		<tag k="natural" v="wetland" />
		<tag k="ssr:stedsnr" v="839309" />
	</node>
	<node lat="59.428369441911606" lon="8.496216670696558" id="-30532">
		<tag k="name" v="Hestemyri" />
		<tag k="natural" v="wetland" />
		<tag k="ssr:stedsnr" v="839334" />
	</node>
	<node lat="59.48086388644639" lon="8.308455558803434" id="-30534">
		<tag k="historic" v="shieling" />
		<tag k="name" v="Finnstaulen" />
		<tag k="place" v="locality" />
		<tag k="ssr:stedsnr" v="839241" />
	</node>
	<node lat="59.481158336355364" lon="8.306577781545887" id="-30535">
		<tag k="historic" v="shieling" />
		<tag k="name" v="Åstad" />
		<tag k="place" v="locality" />
		<tag k="ssr:stedsnr" v="839242" />
	</node>
	<node lat="59.48411389308764" lon="8.30346388613551" id="-30536">
		<tag k="name" v="Tangen" />
		<tag k="natural" v="wetland" />
		<tag k="ssr:stedsnr" v="839245" />
	</node>
	<node lat="59.43180555626189" lon="8.52401666569793" id="-30541">
		<tag k="name" v="Bjordalstean" />
		<tag k="place" v="locality" />
		<tag k="ssr:stedsnr" v="839293" />
	</node>
	<node lat="59.4749250038337" lon="8.334344451164354" id="-30542">
		<tag k="name" v="Breidalsmyran" />
		<tag k="natural" v="wetland" />
		<tag k="ssr:stedsnr" v="839295" />
	</node>
	<node lat="59.406352778679796" lon="8.409161112156454" id="-30544">
		<tag k="name" v="Rondemyr" />
		<tag k="natural" v="wetland" />
		<tag k="ssr:stedsnr" v="839416" />
	</node>
	<node lat="59.43715555861349" lon="8.57799444968238" id="-30548">
		<tag k="name" v="Torvmyri" />
		<tag k="natural" v="wetland" />
		<tag k="ssr:stedsnr" v="839526" />
	</node>
	<node lat="59.46786110828386" lon="8.433886118309674" id="-30558">
		<tag k="name" v="Vesle fit" />
		<tag k="place" v="locality" />
		<tag k="ssr:stedsnr" v="839692" />
	</node>
	<node lat="59.358027779442196" lon="8.351955562056649" id="-30559">
		<tag k="historic" v="shieling" />
		<tag k="name" v="Øvre Nivelkinn" />
		<tag k="place" v="locality" />
		<tag k="ssr:stedsnr" v="839694" />
	</node>
	<node lat="59.4642944480176" lon="8.419019439083748" id="-30561">
		<tag k="name" v="Evjemyr" />
		<tag k="natural" v="wetland" />
		<tag k="ssr:stedsnr" v="839915" />
	</node>
	<node lat="59.32995000372806" lon="8.309116670441082" id="-30562">
		<tag k="name" v="Breilandssteane" />
		<tag k="place" v="locality" />
		<tag k="ssr:stedsnr" v="839934" />
	</node>
	<node lat="59.306302551205235" lon="8.585358904186274" id="-30564">
		<tag k="name" v="Jensehyttmyri" />
		<tag k="natural" v="wetland" />
		<tag k="ssr:stedsnr" v="840016" />
	</node>
	<node lat="59.37063777610633" lon="8.578973791895006" id="-30568">
		<tag k="name" v="Tarrestean" />
		<tag k="natural" v="wetland" />
		<tag k="ssr:stedsnr" v="840483" />
	</node>
	<node lat="59.40295754780381" lon="8.580245182203477" id="-30578">
		<tag k="name" v="Sollid" />
		<tag k="natural" v="wetland" />
		<tag k="ssr:stedsnr" v="840716" />
	</node>
	<node lat="59.270507493544784" lon="8.780724965700516" id="-30581">
		<tag k="name" v="Beitemyri" />
		<tag k="natural" v="wetland" />
		<tag k="ssr:stedsnr" v="840785" />
	</node>
	<node lat="59.33039659185199" lon="8.749296738437673" id="-30584">
		<tag k="landuse" v="meadow" />
		<tag k="name" v="Torvilds-slåttur" />
		<tag k="ssr:stedsnr" v="841028" />
	</node>
	<node lat="59.33218084460404" lon="8.742195805385423" id="-30585">
		<tag k="name" v="Tørdølingsmyri" />
		<tag k="natural" v="wetland" />
		<tag k="ssr:stedsnr" v="841033" />
	</node>
	<node lat="59.50554444254299" lon="8.406402772148622" id="-30589">
		<tag k="landuse" v="meadow" />
		<tag k="name" v="Juvlandslåtta" />
		<tag k="ssr:stedsnr" v="841703" />
	</node>
	<node lat="59.298986108581296" lon="8.431602777774405" id="-30599">
		<tag k="historic" v="shieling" />
		<tag k="name" v="Dagshus" />
		<tag k="place" v="locality" />
		<tag k="ssr:stedsnr" v="852125" />
	</node>
	<node lat="59.36961110743621" lon="8.259530563103299" id="-30605">
		<tag k="name" v="Porsmyr" />
		<tag k="natural" v="wetland" />
		<tag k="ssr:stedsnr" v="852283" />
	</node>
	<node lat="59.40665833336323" lon="8.395469450990197" id="-30607">
		<tag k="alt_name" v="Røyrtjørnmyran" />
		<tag k="name" v="Røyrtjønnmyran" />
		<tag k="natural" v="wetland" />
		<tag k="ssr:stedsnr" v="852458" />
	</node>
	<node lat="59.43642499943334" lon="8.563688889395051" id="-30627">
		<tag k="name" v="Sponmyr" />
		<tag k="natural" v="wetland" />
		<tag k="ssr:stedsnr" v="898424" />
	</node>
	<node lat="59.31689444368713" lon="8.42583888582164" id="-30628">
		<tag k="name" v="Holtemyr" />
		<tag k="natural" v="wetland" />
		<tag k="ssr:stedsnr" v="899114" />
	</node>
	<node lat="59.45002499947074" lon="8.30850277195418" id="-30636">
		<tag k="historic" v="shieling" />
		<tag k="name" v="Veslestaul" />
		<tag k="place" v="locality" />
		<tag k="ssr:stedsnr" v="899410" />
	</node>
	<node lat="59.31048055581953" lon="8.387866670780992" id="-30637">
		<tag k="name" v="Vasan" />
		<tag k="natural" v="wetland" />
		<tag k="ssr:stedsnr" v="899484" />
	</node>
	<node lat="59.46347777809661" lon="8.334711106408516" id="-30643">
		<tag k="name" v="Litmyri" />
		<tag k="natural" v="wetland" />
		<tag k="ssr:stedsnr" v="899621" />
	</node>
	<node lat="59.3861694437317" lon="8.428119452398462" id="-30647">
		<tag k="name" v="Kremarkjeringi" />
		<tag k="natural" v="stone" />
		<tag k="ssr:stedsnr" v="899761" />
	</node>
	<node lat="59.41473610705959" lon="8.36768054751235" id="-30648">
		<tag k="name" v="Tusle Aslaugsmyr" />
		<tag k="natural" v="wetland" />
		<tag k="ssr:stedsnr" v="899920" />
	</node>
	<node lat="59.36458889030518" lon="8.457191663009892" id="-30649">
		<tag k="name" v="Toi" />
		<tag k="place" v="locality" />
		<tag k="ssr:stedsnr" v="899923" />
	</node>
	<node lat="59.43105833460765" lon="8.535624999999172" id="-30662">
		<tag k="name" v="Vesleeggmyri" />
		<tag k="natural" v="wetland" />
		<tag k="ssr:stedsnr" v="900308" />
	</node>
	<node lat="59.47741111515742" lon="8.281166674706629" id="-30667">
		<tag k="name" v="Dømlaus" />
		<tag k="natural" v="wetland" />
		<tag k="ssr:stedsnr" v="900260" />
	</node>
	<node lat="59.41628721912587" lon="8.513954936072878" id="-30668">
		<tag k="name" v="Paradisslåtta" />
		<tag k="natural" v="wetland" />
		<tag k="ssr:stedsnr" v="900277" />
	</node>
	<node lat="59.318322324378364" lon="8.549197679307134" id="-30671">
		<tag k="name" v="Bergstøylmyri" />
		<tag k="natural" v="wetland" />
		<tag k="ssr:stedsnr" v="900653" />
	</node>
	<node lat="59.30510680457549" lon="8.694627984527374" id="-30682">
		<tag k="landuse" v="meadow" />
		<tag k="name" v="Liteigbakken" />
		<tag k="ssr:stedsnr" v="901461" />
	</node>
	<node lat="59.37262222637151" lon="8.765594446648285" id="-30719">
		<tag k="name" v="Høymyran" />
		<tag k="natural" v="wetland" />
		<tag k="ssr:stedsnr" v="912799" />
	</node>
	<node lat="59.34731110938303" lon="8.483730560826325" id="-30724">
		<tag k="name" v="Stemmyr" />
		<tag k="natural" v="wetland" />
		<tag k="ssr:stedsnr" v="912828" />
	</node>
	<node lat="59.28611944680643" lon="8.431424991237295" id="-30728">
		<tag k="alt_name" v="Nystøylstee" />
		<tag k="name" v="Nystøylsteen" />
		<tag k="natural" v="wetland" />
		<tag k="ssr:stedsnr" v="913206" />
	</node>
	<node lat="59.25225000050471" lon="8.581247221569917" id="-30739">
		<tag k="alt_name" v="Hjaselimyri" />
		<tag k="name" v="Hjaslimyri" />
		<tag k="natural" v="wetland" />
		<tag k="ssr:stedsnr" v="913510" />
	</node>
	<node lat="59.45566110771109" lon="8.362436102682292" id="-30755">
		<tag k="historic" v="shieling" />
		<tag k="name" v="Bergdal nedre" />
		<tag k="place" v="locality" />
		<tag k="ssr:stedsnr" v="959490" />
	</node>
	<node lat="59.464599999023186" lon="8.479286112606774" id="-30758">
		<tag k="name" v="Djupskjer" />
		<tag k="natural" v="wetland" />
		<tag k="ssr:stedsnr" v="959642" />
	</node>
	<node lat="59.43956944305415" lon="8.416833338318444" id="-30778">
		<tag k="name" v="Margitsmyr" />
		<tag k="natural" v="wetland" />
		<tag k="ssr:stedsnr" v="960595" />
	</node>
	<node lat="59.49376388607975" lon="8.449275000517938" id="-30789">
		<tag k="name" v="Homsdalmyran" />
		<tag k="natural" v="wetland" />
		<tag k="ssr:stedsnr" v="960607" />
	</node>
	<node lat="59.34182500290019" lon="8.34767500690897" id="-30791">
		<tag k="name" v="Jonskos" />
		<tag k="place" v="locality" />
		<tag k="ssr:stedsnr" v="960685" />
	</node>
	<node lat="59.45306666738735" lon="8.561780561343019" id="-30794">
		<tag k="historic" v="shieling" />
		<tag k="name" v="Ramskeidstaulen" />
		<tag k="place" v="locality" />
		<tag k="ssr:stedsnr" v="960698" />
	</node>
	<node lat="59.35338889185958" lon="8.300586110421179" id="-30795">
		<tag k="name" v="Storåker" />
		<tag k="place" v="locality" />
		<tag k="ssr:stedsnr" v="960816" />
	</node>
	<node lat="59.363577776105856" lon="8.44336388624839" id="-30796">
		<tag k="name" v="Den lange myri" />
		<tag k="natural" v="wetland" />
		<tag k="ssr:stedsnr" v="960789" />
	</node>
	<node lat="59.3703722257651" lon="8.438413896770985" id="-30800">
		<tag k="name" v="Oddemyr" />
		<tag k="natural" v="wetland" />
		<tag k="ssr:stedsnr" v="960996" />
	</node>
	<node lat="59.459158147279396" lon="8.500430905898456" id="-30802">
		<tag k="landuse" v="meadow" />
		<tag k="name" v="Ordalsekra" />
		<tag k="ssr:stedsnr" v="961147" />
	</node>
	<node lat="59.30765089667569" lon="8.556589763020968" id="-30804">
		<tag k="name" v="Bendiksmyr" />
		<tag k="natural" v="wetland" />
		<tag k="ssr:stedsnr" v="961015" />
	</node>
	<node lat="59.31053855642657" lon="8.702738932177942" id="-30816">
		<tag k="name" v="Kalvehegni" />
		<tag k="place" v="locality" />
		<tag k="ssr:stedsnr" v="961498" />
	</node>
	<node lat="59.355797686737816" lon="8.506711729080298" id="-30820">
		<tag k="name" v="Gauphusdalen" />
		<tag k="place" v="locality" />
		<tag k="ssr:stedsnr" v="961585" />
	</node>
	<node lat="59.319919344591355" lon="8.708433590633126" id="-30826">
		<tag k="name" v="Gravningsmyran" />
		<tag k="natural" v="wetland" />
		<tag k="ssr:stedsnr" v="961762" />
	</node>
	<node lat="59.286469447547056" lon="8.426016667490371" id="-30834">
		<tag k="name" v="Blakes moltekjerr" />
		<tag k="natural" v="wetland" />
		<tag k="ssr:stedsnr" v="962690" />
	</node>
	<node lat="59.385863893328015" lon="8.422261112363227" id="-30837">
		<tag k="landuse" v="meadow" />
		<tag k="name" v="Kals-slåtte" />
		<tag k="ssr:stedsnr" v="963739" />
	</node>
	<node lat="59.32542462861496" lon="8.248685665270527" id="-30851">
		<tag k="historic" v="shieling" />
		<tag k="name" v="Listøyl" />
		<tag k="place" v="locality" />
		<tag k="ssr:stedsnr" v="2183" />
	</node>
	<node lat="59.36647500305275" lon="8.292675001132366" id="-30852">
		<tag k="name" v="Svartufs" />
		<tag k="place" v="locality" />
		<tag k="ssr:stedsnr" v="2290" />
	</node>
	<node lat="59.29127499595729" lon="8.500063897683436" id="-30884">
		<tag k="name" v="Dårlaupmyri" />
		<tag k="natural" v="wetland" />
		<tag k="ssr:stedsnr" v="2694" />
	</node>
	<node lat="59.33613888911244" lon="8.465925005760106" id="-30903">
		<tag k="name" v="Svartsvåa" />
		<tag k="place" v="locality" />
		<tag k="ssr:stedsnr" v="49079" />
	</node>
	<node lat="59.51893611490108" lon="8.330563886751605" id="-30912">
		<tag k="name" v="Kveldbekkmyri" />
		<tag k="natural" v="wetland" />
		<tag k="ssr:stedsnr" v="49152" />
	</node>
	<node lat="59.448961110976875" lon="8.284238893013358" id="-30917">
		<tag k="historic" v="shieling" />
		<tag k="name" v="Sud Jønntjønn" />
		<tag k="place" v="locality" />
		<tag k="ssr:stedsnr" v="49428" />
	</node>
	<node lat="59.421544442564" lon="8.460088895005608" id="-30926">
		<tag k="name" v="Haugåker" />
		<tag k="place" v="locality" />
		<tag k="ssr:stedsnr" v="49515" />
	</node>
	<node lat="59.443466663145465" lon="8.389452780607002" id="-30933">
		<tag k="name" v="Stigmyr" />
		<tag k="natural" v="wetland" />
		<tag k="ssr:stedsnr" v="49698" />
	</node>
	<node lat="59.40636110755788" lon="8.34153889204101" id="-30942">
		<tag k="name" v="Vesleskog" />
		<tag k="place" v="locality" />
		<tag k="ssr:stedsnr" v="49866" />
	</node>
	<node lat="59.33569999751872" lon="8.434486106875084" id="-30953">
		<tag k="name" v="Svåun" />
		<tag k="natural" v="scree" />
		<tag k="ssr:stedsnr" v="50146" />
	</node>
	<node lat="59.501875001572564" lon="8.33215555905989" id="-30956">
		<tag k="name" v="Kolhyttemyri" />
		<tag k="natural" v="wetland" />
		<tag k="ssr:stedsnr" v="50157" />
	</node>
	<node lat="59.50780833300589" lon="8.366347218684485" id="-30957">
		<tag k="name" v="Vesle Svinsaga" />
		<tag k="natural" v="wetland" />
		<tag k="ssr:stedsnr" v="50158" />
	</node>
	<node lat="59.46201648612519" lon="8.526843366028398" id="-30958">
		<tag k="name" v="Hestemyran" />
		<tag k="natural" v="wetland" />
		<tag k="ssr:stedsnr" v="50159" />
	</node>
	<node lat="59.29203333540758" lon="8.341730558669578" id="-30962">
		<tag k="historic" v="shieling" />
		<tag k="name" v="Tjønnstøyl" />
		<tag k="place" v="locality" />
		<tag k="ssr:stedsnr" v="50228" />
	</node>
	<node lat="59.48915555372799" lon="8.41237499842672" id="-30966">
		<tag k="historic" v="shieling" />
		<tag k="name" v="Blikstaul" />
		<tag k="place" v="locality" />
		<tag k="ssr:stedsnr" v="50240" />
	</node>
	<node lat="59.4150138893957" lon="8.512219450492262" id="-30967">
		<tag k="historic" v="shieling" />
		<tag k="name" v="Haugestaul" />
		<tag k="place" v="locality" />
		<tag k="ssr:stedsnr" v="50242" />
	</node>
	<node lat="59.41188055778518" lon="8.5148888890871" id="-30970">
		<tag k="name" v="Røyrmyr" />
		<tag k="natural" v="wetland" />
		<tag k="ssr:stedsnr" v="50247" />
	</node>
	<node lat="59.409869440301065" lon="8.519655548296708" id="-30972">
		<tag k="name" v="Tripyttmyrane" />
		<tag k="natural" v="wetland" />
		<tag k="ssr:stedsnr" v="50250" />
	</node>
	<node lat="59.442400002212025" lon="8.502091662926837" id="-30979">
		<tag k="name" v="Hauglandsmyri" />
		<tag k="natural" v="wetland" />
		<tag k="ssr:stedsnr" v="50265" />
	</node>
	<node lat="59.49426944237055" lon="8.406883338298499" id="-30983">
		<tag k="name" v="Holakosi" />
		<tag k="place" v="locality" />
		<tag k="ssr:stedsnr" v="50180" />
	</node>
	<node lat="59.4707694422165" lon="8.38033055808956" id="-30985">
		<tag k="name" v="Skarkemyr" />
		<tag k="natural" v="wetland" />
		<tag k="ssr:stedsnr" v="50200" />
	</node>
	<node lat="59.29413659146121" lon="8.562656682119067" id="-30987">
		<tag k="name" v="Skjellhusmyran" />
		<tag k="natural" v="wetland" />
		<tag k="ssr:stedsnr" v="51038" />
	</node>
	<node lat="59.482844440519486" lon="8.362561119099015" id="-30992">
		<tag k="landuse" v="meadow" />
		<tag k="name" v="Marislåtta" />
		<tag k="ssr:stedsnr" v="50286" />
	</node>
	<node lat="59.477450000374056" lon="8.35768332770696" id="-30993">
		<tag k="historic" v="shieling" />
		<tag k="name" v="Løkjastaulen" />
		<tag k="place" v="locality" />
		<tag k="ssr:stedsnr" v="50290" />
	</node>
	<node lat="59.46377777959729" lon="8.330083340463263" id="-31000">
		<tag k="name" v="Stortjønnkjosin" />
		<tag k="natural" v="wetland" />
		<tag k="ssr:stedsnr" v="50584" />
	</node>
	<node lat="59.39195833722993" lon="8.472197226691378" id="-31006">
		<tag k="name" v="Torvmyri" />
		<tag k="natural" v="wetland" />
		<tag k="ssr:stedsnr" v="50549" />
	</node>
	<node lat="59.35029166485545" lon="8.341938892918014" id="-31007">
		<tag k="name" v="Bjønndapen" />
		<tag k="natural" v="wetland" />
		<tag k="ssr:stedsnr" v="50632" />
	</node>
	<node lat="59.43617499932885" lon="8.304536115124781" id="-31011">
		<tag k="historic" v="shieling" />
		<tag k="name" v="Godstaul" />
		<tag k="place" v="locality" />
		<tag k="ssr:stedsnr" v="50645" />
	</node>
	<node lat="59.34723333562437" lon="8.361288894016207" id="-31013">
		<tag k="landuse" v="meadow" />
		<tag k="name" v="Åsmundskøs" />
		<tag k="ssr:stedsnr" v="50651" />
	</node>
	<node lat="59.43711666623196" lon="8.326591668087186" id="-31014">
		<tag k="historic" v="shieling" />
		<tag k="name" v="Taglestaul" />
		<tag k="place" v="locality" />
		<tag k="ssr:stedsnr" v="50653" />
	</node>
	<node lat="59.44061111084861" lon="8.381622227289364" id="-31015">
		<tag k="name" v="Beitemyri" />
		<tag k="natural" v="wetland" />
		<tag k="ssr:stedsnr" v="50662" />
	</node>
	<node lat="59.48116111556116" lon="8.438377785788054" id="-31022">
		<tag k="landuse" v="meadow" />
		<tag k="name" v="Jakopslåtte" />
		<tag k="ssr:stedsnr" v="50762" />
	</node>
	<node lat="59.40449722181817" lon="8.350927776218123" id="-31024">
		<tag k="name" v="Øverlandsmyran" />
		<tag k="natural" v="wetland" />
		<tag k="ssr:stedsnr" v="50844" />
	</node>
	<node lat="59.470880559692674" lon="8.462072225339334" id="-31028">
		<tag k="name" v="Lianmyri" />
		<tag k="natural" v="wetland" />
		<tag k="ssr:stedsnr" v="50985" />
	</node>
	<node lat="59.395592621106054" lon="8.554430028141052" id="-31034">
		<tag k="name" v="Sondemyri" />
		<tag k="natural" v="wetland" />
		<tag k="ssr:stedsnr" v="51317" />
	</node>
	<node lat="59.37087761109224" lon="8.758153772575707" id="-31037">
		<tag k="landuse" v="meadow" />
		<tag k="name" v="Bukåsslåttun" />
		<tag k="ssr:stedsnr" v="51393" />
	</node>
	<node lat="59.36416666840405" lon="8.294066663668255" id="-31044">
		<tag k="historic" v="shieling" />
		<tag k="name" v="Svartufsstøylen" />
		<tag k="place" v="locality" />
		<tag k="ssr:stedsnr" v="50938" />
	</node>
	<node lat="59.361927781861546" lon="8.274111119283935" id="-31045">
		<tag k="name" v="Sjavskotmyri" />
		<tag k="natural" v="wetland" />
		<tag k="ssr:stedsnr" v="50952" />
	</node>
	<node lat="59.276637886249745" lon="8.558862845622095" id="-31051">
		<tag k="name" v="Hestehommen" />
		<tag k="place" v="locality" />
		<tag k="ssr:stedsnr" v="51249" />
	</node>
	<node lat="59.304608373099484" lon="8.691373476406833" id="-31060">
		<tag k="landuse" v="meadow" />
		<tag k="name" v="Ånesbakke" />
		<tag k="ssr:stedsnr" v="51494" />
	</node>
	<node lat="59.303467076914316" lon="8.701651844423772" id="-31061">
		<tag k="landuse" v="meadow" />
		<tag k="name" v="Hassvikjore" />
		<tag k="ssr:stedsnr" v="51497" />
	</node>
	<node lat="59.29663421236183" lon="8.770010420251447" id="-31064">
		<tag k="name" v="Stormyr" />
		<tag k="natural" v="wetland" />
		<tag k="ssr:stedsnr" v="51597" />
	</node>
	<node lat="59.30926572567975" lon="8.6962962196555" id="-31065">
		<tag k="landuse" v="meadow" />
		<tag k="name" v="By-bukk" />
		<tag k="ssr:stedsnr" v="51546" />
	</node>
	<node lat="59.35679413624441" lon="8.531729943682313" id="-31068">
		<tag k="name" v="Kristiansur" />
		<tag k="natural" v="scree" />
		<tag k="ssr:stedsnr" v="51629" />
	</node>
	<node lat="59.27366118581999" lon="8.807348562590223" id="-31071">
		<tag k="name" v="Stolpemyr" />
		<tag k="natural" v="wetland" />
		<tag k="ssr:stedsnr" v="51648" />
	</node>
	<node lat="59.27656635293904" lon="8.80326356572609" id="-31072">
		<tag k="name" v="Langemyr" />
		<tag k="natural" v="wetland" />
		<tag k="ssr:stedsnr" v="51649" />
	</node>
	<node lat="59.319169366538276" lon="8.687997927961716" id="-31075">
		<tag k="name" v="Straumsnesjore" />
		<tag k="place" v="locality" />
		<tag k="ssr:stedsnr" v="51739" />
	</node>
	<node lat="59.40249493306135" lon="8.572557247488929" id="-31076">
		<tag k="name" v="Solliduri" />
		<tag k="natural" v="scree" />
		<tag k="ssr:stedsnr" v="51740" />
	</node>
	<node lat="59.330950485973965" lon="8.527482993464924" id="-31078">
		<tag k="name" v="Jørnsmyr" />
		<tag k="natural" v="wetland" />
		<tag k="ssr:stedsnr" v="51743" />
	</node>
	<node lat="59.384267652180334" lon="8.499762426600368" id="-31083">
		<tag k="landuse" v="meadow" />
		<tag k="name" v="Lauvbukti" />
		<tag k="ssr:stedsnr" v="51932" />
	</node>
	<node lat="59.40784769307457" lon="8.635989501008789" id="-31086">
		<tag k="name" v="Blåuri" />
		<tag k="natural" v="scree" />
		<tag k="ssr:stedsnr" v="52033" />
	</node>
	<node lat="59.447413454448665" lon="8.45457838431435" id="-31092">
		<tag k="landuse" v="meadow" />
		<tag k="name" v="Roe" />
		<tag k="ssr:stedsnr" v="52696" />
	</node>
	<node lat="59.37829537941858" lon="8.253053283625023" id="-31097">
		<tag k="name" v="Dammyri" />
		<tag k="natural" v="wetland" />
		<tag k="ssr:stedsnr" v="52958" />
	</node>
	<node lat="59.488861111717405" lon="8.334686112008644" id="-31114">
		<tag k="name" v="Morgedalsheii" />
		<tag k="place" v="locality" />
		<tag k="ssr:stedsnr" v="63434" />
	</node>
	<node lat="59.3635972184168" lon="8.452475002524022" id="-31146">
		<tag k="name" v="Gudvesdalmyri" />
		<tag k="natural" v="wetland" />
		<tag k="ssr:stedsnr" v="110842" />
	</node>
	<node lat="59.521955559407324" lon="8.401466671605675" id="-31154">
		<tag k="name" v="Kyrkjer" />
		<tag k="place" v="locality" />
		<tag k="ssr:stedsnr" v="110145" />
	</node>
	<node lat="59.461472224072146" lon="8.342886118878603" id="-31165">
		<tag k="name" v="Viermyr" />
		<tag k="natural" v="wetland" />
		<tag k="ssr:stedsnr" v="110602" />
	</node>
	<node lat="59.49901666914639" lon="8.447300006221065" id="-31169">
		<tag k="name" v="Svartufsmarki" />
		<tag k="place" v="locality" />
		<tag k="ssr:stedsnr" v="110543" />
	</node>
	<node lat="59.45131111363388" lon="8.495363884619664" id="-31176">
		<tag k="name" v="Tussemyr" />
		<tag k="natural" v="wetland" />
		<tag k="ssr:stedsnr" v="110662" />
	</node>
	<node lat="59.33142499683211" lon="8.281352785267412" id="-31184">
		<tag k="historic" v="shieling" />
		<tag k="name" v="Haukenesstøylen" />
		<tag k="place" v="locality" />
		<tag k="ssr:stedsnr" v="110962" />
	</node>
	<node lat="59.47338333592008" lon="8.459525003241643" id="-31186">
		<tag k="historic" v="shieling" />
		<tag k="name" v="Nystaul" />
		<tag k="place" v="locality" />
		<tag k="ssr:stedsnr" v="110899" />
	</node>
	<node lat="59.37316944411634" lon="8.428777780938013" id="-31188">
		<tag k="name" v="Nedre Dritholmyri" />
		<tag k="natural" v="wetland" />
		<tag k="ssr:stedsnr" v="110995" />
	</node>
	<node lat="59.50488611440128" lon="8.438016661453117" id="-31192">
		<tag k="landuse" v="meadow" />
		<tag k="name" v="Øvre Lier" />
		<tag k="ssr:stedsnr" v="111294" />
	</node>
	<node lat="59.490002778815985" lon="8.37990555134596" id="-31198">
		<tag k="historic" v="shieling" />
		<tag k="name" v="Nystaul" />
		<tag k="place" v="locality" />
		<tag k="ssr:stedsnr" v="111135" />
	</node>
	<node lat="59.40404166375718" lon="8.509927781619364" id="-31199">
		<tag k="name" v="Svåun" />
		<tag k="place" v="locality" />
		<tag k="ssr:stedsnr" v="111139" />
	</node>
	<node lat="59.4568714565244" lon="8.52533461206035" id="-31201">
		<tag k="name" v="Vreitemyri" />
		<tag k="natural" v="wetland" />
		<tag k="ssr:stedsnr" v="111156" />
	</node>
	<node lat="59.45440080593076" lon="8.511907206207065" id="-31203">
		<tag k="name" v="Svånaugmyri" />
		<tag k="natural" v="wetland" />
		<tag k="ssr:stedsnr" v="111168" />
	</node>
	<node lat="59.26798219492808" lon="8.525648914602934" id="-31204">
		<tag k="name" v="Tussehøltet" />
		<tag k="place" v="locality" />
		<tag k="ssr:stedsnr" v="111224" />
	</node>
	<node lat="59.2559500036342" lon="8.551092275759027" id="-31205">
		<tag k="name" v="Karis blikhøle" />
		<tag k="place" v="locality" />
		<tag k="ssr:stedsnr" v="111225" />
	</node>
	<node lat="59.25897710202867" lon="8.52923916303564" id="-31206">
		<tag k="name" v="Fiskejonmyri" />
		<tag k="natural" v="wetland" />
		<tag k="ssr:stedsnr" v="111229" />
	</node>
	<node lat="59.507847218783105" lon="8.406822217855964" id="-31213">
		<tag k="historic" v="shieling" />
		<tag k="name" v="Fjosskorli" />
		<tag k="place" v="locality" />
		<tag k="ssr:stedsnr" v="111260" />
	</node>
	<node lat="59.29084166386707" lon="8.463597218704896" id="-31214">
		<tag k="name" v="Roligheten" />
		<tag k="natural" v="wetland" />
		<tag k="ssr:stedsnr" v="111266" />
	</node>
	<node lat="59.43767500144575" lon="8.530811105114104" id="-31219">
		<tag k="name" v="Moroekra" />
		<tag k="place" v="locality" />
		<tag k="ssr:stedsnr" v="111439" />
	</node>
	<node lat="59.43253055794523" lon="8.558944440463204" id="-31223">
		<tag k="name" v="Tjønnflymyri" />
		<tag k="natural" v="wetland" />
		<tag k="ssr:stedsnr" v="111511" />
	</node>
	<node lat="59.451083337173415" lon="8.402930548694075" id="-31230">
		<tag k="name" v="Paraplysteinen" />
		<tag k="natural" v="stone" />
		<tag k="ssr:stedsnr" v="111897" />
	</node>
	<node lat="59.41528889320361" lon="8.354122218463226" id="-31231">
		<tag k="name" v="Sigridsmyr" />
		<tag k="natural" v="wetland" />
		<tag k="ssr:stedsnr" v="111912" />
	</node>
	<node lat="59.32658595099682" lon="8.572658874275398" id="-31232">
		<tag k="name" v="Nedre Lauvlondmyr" />
		<tag k="natural" v="wetland" />
		<tag k="ssr:stedsnr" v="111637" />
	</node>
	<node lat="59.34814999693075" lon="8.34301944570083" id="-31233">
		<tag k="name" v="Hjasaslakte" />
		<tag k="natural" v="wetland" />
		<tag k="ssr:stedsnr" v="111659" />
	</node>
	<node lat="59.40246343217714" lon="8.602296163296636" id="-31234">
		<tag k="landuse" v="quarry" />
		<tag k="name" v="Eianggruva" />
		<tag k="ssr:stedsnr" v="111661" />
	</node>
	<node lat="59.46217788076345" lon="8.51818003345179" id="-31252">
		<tag k="name" v="Beitliddekkan" />
		<tag k="place" v="locality" />
		<tag k="ssr:stedsnr" v="112177" />
	</node>
	<node lat="59.45743967092295" lon="8.511698803910768" id="-31253">
		<tag k="landuse" v="meadow" />
		<tag k="name" v="Vårfjostrøi" />
		<tag k="ssr:stedsnr" v="112183" />
	</node>
	<node lat="59.45688609789385" lon="8.51205953884472" id="-31255">
		<tag k="landuse" v="meadow" />
		<tag k="name" v="Åmaberg" />
		<tag k="ssr:stedsnr" v="112188" />
	</node>
	<node lat="59.32094432113821" lon="8.684994701823408" id="-31261">
		<tag k="name" v="Bruggomstein" />
		<tag k="natural" v="stone" />
		<tag k="ssr:stedsnr" v="112566" />
	</node>
	<node lat="59.30370066749673" lon="8.692031586170925" id="-31263">
		<tag k="landuse" v="meadow" />
		<tag k="name" v="Flatin" />
		<tag k="ssr:stedsnr" v="112467" />
	</node>
	<node lat="59.335428639159844" lon="8.58900082015984" id="-31266">
		<tag k="name" v="Damdalsletta" />
		<tag k="place" v="locality" />
		<tag k="ssr:stedsnr" v="112666" />
	</node>
	<node lat="59.37651727803556" lon="8.239092370534415" id="-31273">
		<tag k="name" v="Flæmyrane" />
		<tag k="natural" v="wetland" />
		<tag k="ssr:stedsnr" v="112966" />
	</node>
	<node lat="59.32166992459405" lon="8.856539587673785" id="-31279">
		<tag k="name" v="Tonhusdalmyri" />
		<tag k="natural" v="wetland" />
		<tag k="ssr:stedsnr" v="113782" />
	</node>
	<node lat="59.36563608839721" lon="8.173436466165162" id="-31280">
		<tag k="name" v="Stolpemyr" />
		<tag k="natural" v="wetland" />
		<tag k="ssr:stedsnr" v="113784" />
	</node>
	<node lat="59.394330553237275" lon="8.55101667447791" id="-31323">
		<tag k="name" v="Stikmyran" />
		<tag k="natural" v="wetland" />
		<tag k="ssr:stedsnr" v="124993" />
	</node>
	<node lat="59.46311944879543" lon="8.470011112202126" id="-31327">
		<tag k="name" v="Hyttemyri" />
		<tag k="natural" v="wetland" />
		<tag k="ssr:stedsnr" v="170348" />
	</node>
	<node lat="59.46345277334446" lon="8.309216671639081" id="-31329">
		<tag k="name" v="Tjønnflymyri" />
		<tag k="natural" v="wetland" />
		<tag k="ssr:stedsnr" v="170418" />
	</node>
	<node lat="59.33024444111806" lon="8.405138884909292" id="-31336">
		<tag k="name" v="Briskedekkan" />
		<tag k="place" v="locality" />
		<tag k="ssr:stedsnr" v="170200" />
	</node>
	<node lat="59.4462805594833" lon="8.288527780424754" id="-31338">
		<tag k="name" v="Tjønnflymyri" />
		<tag k="natural" v="wetland" />
		<tag k="ssr:stedsnr" v="170400" />
	</node>
	<node lat="59.292463890077535" lon="8.379869446136887" id="-31339">
		<tag k="name" v="Tarjeis slåttur" />
		<tag k="natural" v="wetland" />
		<tag k="ssr:stedsnr" v="170238" />
	</node>
	<node lat="59.45801666701549" lon="8.485561105588973" id="-31345">
		<tag k="name" v="Nystaulmyri" />
		<tag k="natural" v="wetland" />
		<tag k="ssr:stedsnr" v="170679" />
	</node>
	<node lat="59.478683336760994" lon="8.459563891755257" id="-31349">
		<tag k="historic" v="shieling" />
		<tag k="name" v="Revstaul" />
		<tag k="place" v="locality" />
		<tag k="ssr:stedsnr" v="170887" />
	</node>
	<node lat="59.42669722019851" lon="8.495519436181945" id="-31359">
		<tag k="name" v="Dammyri" />
		<tag k="natural" v="wetland" />
		<tag k="ssr:stedsnr" v="171348" />
	</node>
	<node lat="59.48217221903644" lon="8.383438889438835" id="-31360">
		<tag k="historic" v="shieling" />
		<tag k="name" v="Maristaulhaugan" />
		<tag k="place" v="locality" />
		<tag k="ssr:stedsnr" v="171354" />
	</node>
	<node lat="59.4170833370522" lon="8.387319437073762" id="-31362">
		<tag k="name" v="Flåttin" />
		<tag k="place" v="locality" />
		<tag k="ssr:stedsnr" v="171429" />
	</node>
	<node lat="59.43758055630324" lon="8.54200555896475" id="-31370">
		<tag k="name" v="Svartufs" />
		<tag k="place" v="locality" />
		<tag k="ssr:stedsnr" v="171244" />
	</node>
	<node lat="59.46943333231171" lon="8.333113884433802" id="-31371">
		<tag k="name" v="Bekkjekrokan" />
		<tag k="natural" v="wetland" />
		<tag k="ssr:stedsnr" v="171248" />
	</node>
	<node lat="59.40419444684632" lon="8.430263894147318" id="-31386">
		<tag k="name" v="Raumyr" />
		<tag k="natural" v="wetland" />
		<tag k="ssr:stedsnr" v="171470" />
	</node>
	<node lat="59.4524805556563" lon="8.360802772330679" id="-31392">
		<tag k="name" v="Kyllandsåker" />
		<tag k="place" v="locality" />
		<tag k="ssr:stedsnr" v="171621" />
	</node>
	<node lat="59.394602781383206" lon="8.46437222331058" id="-31393">
		<tag k="landuse" v="meadow" />
		<tag k="name" v="Lauvslåtten" />
		<tag k="ssr:stedsnr" v="171627" />
	</node>
	<node lat="59.44695000254815" lon="8.368013882537028" id="-31395">
		<tag k="name" v="Folahefte" />
		<tag k="place" v="locality" />
		<tag k="ssr:stedsnr" v="171636" />
	</node>
	<node lat="59.420616670560705" lon="8.453194447995704" id="-31405">
		<tag k="landuse" v="quarry" />
		<tag k="name" v="Leirfallet" />
		<tag k="ssr:stedsnr" v="171499" />
	</node>
	<node lat="59.43432221783294" lon="8.364372228944847" id="-31414">
		<tag k="name" v="Dukan" />
		<tag k="place" v="locality" />
		<tag k="ssr:stedsnr" v="171781" />
	</node>
	<node lat="59.435622218400496" lon="8.354669436447063" id="-31415">
		<tag k="landuse" v="meadow" />
		<tag k="name" v="Kosi" />
		<tag k="ssr:stedsnr" v="171785" />
	</node>
	<node lat="59.47577500242133" lon="8.404241673632804" id="-31422">
		<tag k="name" v="Tjønnåsmyri" />
		<tag k="natural" v="wetland" />
		<tag k="ssr:stedsnr" v="171832" />
	</node>
	<node lat="59.31238055162148" lon="8.368774994889414" id="-31429">
		<tag k="name" v="Jenskøs" />
		<tag k="place" v="locality" />
		<tag k="ssr:stedsnr" v="171890" />
	</node>
	<node lat="59.4694666706633" lon="8.46096388020768" id="-31440">
		<tag k="name" v="Gorrmyri" />
		<tag k="natural" v="wetland" />
		<tag k="ssr:stedsnr" v="171990" />
	</node>
	<node lat="59.3886009496794" lon="8.548087313807583" id="-31445">
		<tag k="name" v="Stormyr" />
		<tag k="natural" v="wetland" />
		<tag k="ssr:stedsnr" v="172231" />
	</node>
	<node lat="59.280130322022316" lon="8.554822264548854" id="-31446">
		<tag k="name" v="Fjellstøylmyri" />
		<tag k="natural" v="wetland" />
		<tag k="ssr:stedsnr" v="172238" />
	</node>
	<node lat="59.30292325166763" lon="8.650550793167499" id="-31456">
		<tag k="name" v="Stean" />
		<tag k="place" v="locality" />
		<tag k="ssr:stedsnr" v="172484" />
	</node>
	<node lat="59.40084749678423" lon="8.511170281326494" id="-31472">
		<tag k="name" v="Deildmyr" />
		<tag k="natural" v="wetland" />
		<tag k="ssr:stedsnr" v="172794" />
	</node>
	<node lat="59.33129901603217" lon="8.517146511356268" id="-31476">
		<tag k="name" v="Pålemann" />
		<tag k="place" v="locality" />
		<tag k="ssr:stedsnr" v="172747" />
	</node>
	<node lat="59.32968135489028" lon="8.54559283018789" id="-31480">
		<tag k="name" v="Støgenutkjerret" />
		<tag k="natural" v="wetland" />
		<tag k="ssr:stedsnr" v="172753" />
	</node>
	<node lat="59.38528732905572" lon="8.515742592446992" id="-31484">
		<tag k="landuse" v="peat_cutting" />
		<tag k="name" v="Torvstykket" />
		<tag k="ssr:stedsnr" v="172992" />
	</node>
	<node lat="59.25546588319922" lon="8.561743468889492" id="-31485">
		<tag k="name" v="Rondemyrhøla" />
		<tag k="natural" v="wetland" />
		<tag k="ssr:stedsnr" v="173232" />
	</node>
	<node lat="59.37059227179432" lon="8.775329488912906" id="-31491">
		<tag k="historic" v="shieling" />
		<tag k="name" v="Ræpstaul" />
		<tag k="place" v="locality" />
		<tag k="ssr:stedsnr" v="173312" />
	</node>
	<node lat="59.35492086019723" lon="8.162951134186876" id="-31499">
		<tag k="name" v="Eidsmyrane" />
		<tag k="natural" v="wetland" />
		<tag k="ssr:stedsnr" v="173588" />
	</node>
	<node lat="59.3639140994431" lon="8.202302204829861" id="-31506">
		<tag k="historic" v="shieling" />
		<tag k="name" v="Endrestøyl" />
		<tag k="place" v="locality" />
		<tag k="ssr:stedsnr" v="173730" />
	</node>
	<node lat="59.364047334767754" lon="8.236388987868112" id="-31508">
		<tag k="name" v="Kringlemyr" />
		<tag k="natural" v="wetland" />
		<tag k="ssr:stedsnr" v="173973" />
	</node>
	<node lat="59.260147226649266" lon="8.587569442837317" id="-31533">
		<tag k="name" v="Ivarsmyr" />
		<tag k="natural" v="wetland" />
		<tag k="ssr:stedsnr" v="184569" />
	</node>
	<node lat="59.3988083325598" lon="8.545375004667488" id="-31537">
		<tag k="name" v="Hovstaulmyran" />
		<tag k="natural" v="wetland" />
		<tag k="ssr:stedsnr" v="184959" />
	</node>
	<node lat="59.37036666790034" lon="8.576652777328015" id="-31548">
		<tag k="name" v="Tarrestean" />
		<tag k="natural" v="wetland" />
		<tag k="ssr:stedsnr" v="184766" />
	</node>
	<node lat="59.34515277714317" lon="8.383902780344348" id="-31571">
		<tag k="historic" v="shieling" />
		<tag k="name" v="Skrøyva" />
		<tag k="place" v="locality" />
		<tag k="ssr:stedsnr" v="292689" />
	</node>
	<node lat="59.487027777256195" lon="8.40824722843218" id="-31575">
		<tag k="landuse" v="meadow" />
		<tag k="name" v="Russflatin" />
		<tag k="ssr:stedsnr" v="292809" />
	</node>
	<node lat="59.48947222209439" lon="8.42875554933865" id="-31589">
		<tag k="name" v="Konnkoshaddi" />
		<tag k="place" v="locality" />
		<tag k="ssr:stedsnr" v="292154" />
	</node>
	<node lat="59.45502222665961" lon="8.375466674104306" id="-31596">
		<tag k="historic" v="shieling" />
		<tag k="name" v="Nystaul" />
		<tag k="place" v="locality" />
		<tag k="ssr:stedsnr" v="292515" />
	</node>
	<node lat="59.45311944470433" lon="8.295986118080892" id="-31599">
		<tag k="name" v="Veslehom" />
		<tag k="natural" v="wetland" />
		<tag k="ssr:stedsnr" v="292357" />
	</node>
	<node lat="59.33227778168142" lon="8.474722227020164" id="-31601">
		<tag k="name" v="Fjellmyran" />
		<tag k="natural" v="wetland" />
		<tag k="ssr:stedsnr" v="292453" />
	</node>
	<node lat="59.45840833562293" lon="8.339291662842335" id="-31606">
		<tag k="historic" v="shieling" />
		<tag k="name" v="Veslestaul" />
		<tag k="place" v="locality" />
		<tag k="ssr:stedsnr" v="292553" />
	</node>
	<node lat="59.48795000318226" lon="8.386299999045896" id="-31608">
		<tag k="name" v="Leite" />
		<tag k="place" v="locality" />
		<tag k="ssr:stedsnr" v="292574" />
	</node>
	<node lat="59.44295555955554" lon="8.396919448224006" id="-31612">
		<tag k="name" v="Steindammyri" />
		<tag k="natural" v="wetland" />
		<tag k="ssr:stedsnr" v="292651" />
	</node>
	<node lat="59.47031389304966" lon="8.451263884958982" id="-31631">
		<tag k="landuse" v="meadow" />
		<tag k="name" v="Slåttun" />
		<tag k="ssr:stedsnr" v="292890" />
	</node>
	<node lat="59.47815555631952" lon="8.314299998005907" id="-31638">
		<tag k="name" v="Smiuteigan" />
		<tag k="place" v="locality" />
		<tag k="ssr:stedsnr" v="293264" />
	</node>
	<node lat="59.45571550919139" lon="8.526251830137825" id="-31641">
		<tag k="name" v="Deildemyr" />
		<tag k="natural" v="wetland" />
		<tag k="ssr:stedsnr" v="293203" />
	</node>
	<node lat="59.45527065181224" lon="8.529822789793375" id="-31642">
		<tag k="name" v="Tusle Aslaug myri" />
		<tag k="natural" v="wetland" />
		<tag k="ssr:stedsnr" v="293209" />
	</node>
	<node lat="59.446251163575894" lon="8.50848967614868" id="-31643">
		<tag k="name" v="Fitan" />
		<tag k="place" v="locality" />
		<tag k="ssr:stedsnr" v="293220" />
	</node>
	<node lat="59.429274999997915" lon="8.444788893345198" id="-31649">
		<tag k="name" v="Øysteinsmyr" />
		<tag k="natural" v="wetland" />
		<tag k="ssr:stedsnr" v="293343" />
	</node>
	<node lat="59.47596111324296" lon="8.38028611241071" id="-31658">
		<tag k="name" v="Svanheimholet" />
		<tag k="natural" v="wetland" />
		<tag k="ssr:stedsnr" v="293364" />
	</node>
	<node lat="59.4304166633387" lon="8.55045833667308" id="-31659">
		<tag k="name" v="Sløkdalmyri" />
		<tag k="natural" v="wetland" />
		<tag k="ssr:stedsnr" v="293370" />
	</node>
	<node lat="59.48368055130666" lon="8.373844444668546" id="-31660">
		<tag k="landuse" v="quarry" />
		<tag k="name" v="Omlidgruva" />
		<tag k="ssr:stedsnr" v="293372" />
	</node>
	<node lat="59.451725003405855" lon="8.571130563362074" id="-31664">
		<tag k="name" v="Vesle Runningen" />
		<tag k="place" v="locality" />
		<tag k="ssr:stedsnr" v="293536" />
	</node>
	<node lat="59.478383202957794" lon="8.505623072115217" id="-31665">
		<tag k="name" v="Jonskjer" />
		<tag k="place" v="locality" />
		<tag k="ssr:stedsnr" v="293379" />
	</node>
	<node lat="59.42923888722323" lon="8.479477785938283" id="-31666">
		<tag k="name" v="Rulleteig" />
		<tag k="place" v="locality" />
		<tag k="ssr:stedsnr" v="293384" />
	</node>
	<node lat="59.3319006627961" lon="8.499856090135557" id="-31671">
		<tag k="name" v="Verpeflata" />
		<tag k="place" v="locality" />
		<tag k="ssr:stedsnr" v="293697" />
	</node>
	<node lat="59.42288333432607" lon="8.566208336532803" id="-31673">
		<tag k="name" v="Tjønnflymyri" />
		<tag k="natural" v="wetland" />
		<tag k="ssr:stedsnr" v="293544" />
	</node>
	<node lat="59.4982749982545" lon="8.469636111876298" id="-31675">
		<tag k="name" v="Slåttekosi" />
		<tag k="natural" v="wetland" />
		<tag k="ssr:stedsnr" v="293636" />
	</node>
	<node lat="59.32333087677585" lon="8.75287702524471" id="-31686">
		<tag k="name" v="Tremyr" />
		<tag k="natural" v="wetland" />
		<tag k="ssr:stedsnr" v="294017" />
	</node>
	<node lat="59.39527057666406" lon="8.521661544680112" id="-31688">
		<tag k="landuse" v="meadow" />
		<tag k="name" v="Russekra" />
		<tag k="ssr:stedsnr" v="293841" />
	</node>
	<node lat="59.460725781228405" lon="8.515162057579971" id="-31694">
		<tag k="name" v="Kringlemyr" />
		<tag k="natural" v="wetland" />
		<tag k="ssr:stedsnr" v="294141" />
	</node>
	<node lat="59.260324384262034" lon="8.55885575044868" id="-31700">
		<tag k="name" v="Dukjen" />
		<tag k="natural" v="wetland" />
		<tag k="ssr:stedsnr" v="294234" />
	</node>
	<node lat="59.29029742250041" lon="8.691301695734337" id="-31702">
		<tag k="name" v="Beinholet" />
		<tag k="natural" v="wetland" />
		<tag k="ssr:stedsnr" v="294266" />
	</node>
	<node lat="59.30333651319142" lon="8.662985757010476" id="-31707">
		<tag k="name" v="Den ronde myri" />
		<tag k="natural" v="wetland" />
		<tag k="ssr:stedsnr" v="294469" />
	</node>
	<node lat="59.32330833433576" lon="8.224358326587687" id="-31761">
		<tag k="name" v="Grønhovdstean" />
		<tag k="natural" v="wetland" />
		<tag k="ssr:stedsnr" v="306176" />
	</node>
	<node lat="59.3441999957354" lon="8.773208325037832" id="-31782">
		<tag k="name" v="Raudmannheimyri" />
		<tag k="natural" v="wetland" />
		<tag k="ssr:stedsnr" v="306840" />
	</node>
	<node lat="59.46847499981006" lon="8.459902782064312" id="-31796">
		<tag k="name" v="Deildemyr" />
		<tag k="natural" v="wetland" />
		<tag k="ssr:stedsnr" v="353982" />
	</node>
	<node lat="59.374272223084034" lon="8.436730557048117" id="-31801">
		<tag k="historic" v="shieling" />
		<tag k="name" v="Midtstaul" />
		<tag k="place" v="locality" />
		<tag k="ssr:stedsnr" v="353996" />
	</node>
	<node lat="59.434947223653346" lon="8.456913897432466" id="-31815">
		<tag k="name" v="Gamle Tjønnhei" />
		<tag k="place" v="locality" />
		<tag k="ssr:stedsnr" v="352616" />
	</node>
	<node lat="59.44873611104453" lon="8.493744451239646" id="-31817">
		<tag k="name" v="Tjønnflyet" />
		<tag k="natural" v="wetland" />
		<tag k="ssr:stedsnr" v="352631" />
	</node>
	<node lat="59.42962777850214" lon="8.48496944840109" id="-31818">
		<tag k="name" v="Tonvollen" />
		<tag k="place" v="locality" />
		<tag k="ssr:stedsnr" v="352638" />
	</node>
	<node lat="59.45935833377178" lon="8.477480562273195" id="-31822">
		<tag k="name" v="Hyttemyri" />
		<tag k="natural" v="wetland" />
		<tag k="ssr:stedsnr" v="352652" />
	</node>
	<node lat="59.42250832974376" lon="8.537947225088642" id="-31824">
		<tag k="name" v="Tjønnflyet" />
		<tag k="natural" v="wetland" />
		<tag k="ssr:stedsnr" v="353141" />
	</node>
	<node lat="59.4984138932706" lon="8.336744436100116" id="-31828">
		<tag k="historic" v="shieling" />
		<tag k="name" v="Yngjulvstaul" />
		<tag k="place" v="locality" />
		<tag k="ssr:stedsnr" v="353181" />
	</node>
	<node lat="59.45432717952499" lon="8.50871342614157" id="-31829">
		<tag k="name" v="Moltemyri" />
		<tag k="natural" v="wetland" />
		<tag k="ssr:stedsnr" v="353195" />
	</node>
	<node lat="59.286469447547056" lon="8.426016667490371" id="-31834">
		<tag k="name" v="Jupmyr" />
		<tag k="natural" v="wetland" />
		<tag k="ssr:stedsnr" v="353327" />
	</node>
	<node lat="59.41326110907549" lon="8.407402770847348" id="-31849">
		<tag k="historic" v="shieling" />
		<tag k="name" v="Nystaul" />
		<tag k="place" v="locality" />
		<tag k="ssr:stedsnr" v="353423" />
	</node>
	<node lat="59.41407778091863" lon="8.417747216531438" id="-31850">
		<tag k="historic" v="shieling" />
		<tag k="name" v="Løkjestaul" />
		<tag k="place" v="locality" />
		<tag k="ssr:stedsnr" v="353425" />
	</node>
	<node lat="59.41693056003164" lon="8.425186102643691" id="-31856">
		<tag k="landuse" v="meadow" />
		<tag k="name" v="Vårbulid" />
		<tag k="ssr:stedsnr" v="353446" />
	</node>
	<node lat="59.43248055768076" lon="8.568252783951863" id="-31857">
		<tag k="landuse" v="meadow" />
		<tag k="name" v="Vårfjosjorde" />
		<tag k="ssr:stedsnr" v="353448" />
	</node>
	<node lat="59.45622222587973" lon="8.372905561981842" id="-31863">
		<tag k="name" v="Djupmyr" />
		<tag k="natural" v="wetland" />
		<tag k="ssr:stedsnr" v="353550" />
	</node>
	<node lat="59.44194444346089" lon="8.57068888083049" id="-31864">
		<tag k="name" v="Gommelsmyr" />
		<tag k="natural" v="wetland" />
		<tag k="ssr:stedsnr" v="353624" />
	</node>
	<node lat="59.49050555721473" lon="8.454183333384114" id="-31866">
		<tag k="landuse" v="meadow" />
		<tag k="name" v="Hyttejordet" />
		<tag k="ssr:stedsnr" v="353628" />
	</node>
	<node lat="59.346758337271005" lon="8.339844439646468" id="-31879">
		<tag k="name" v="Storkørmyri" />
		<tag k="natural" v="wetland" />
		<tag k="ssr:stedsnr" v="353684" />
	</node>
	<node lat="59.48320833523087" lon="8.405505560537375" id="-31885">
		<tag k="name" v="Ljotorva" />
		<tag k="natural" v="wetland" />
		<tag k="ssr:stedsnr" v="353726" />
	</node>
	<node lat="59.460024997682865" lon="8.42216110807781" id="-31890">
		<tag k="name" v="Øvrejorde" />
		<tag k="place" v="locality" />
		<tag k="ssr:stedsnr" v="353878" />
	</node>
	<node lat="59.453777777397576" lon="8.387588880964513" id="-31893">
		<tag k="name" v="Fivlandsmyri" />
		<tag k="natural" v="wetland" />
		<tag k="ssr:stedsnr" v="353895" />
	</node>
	<node lat="59.47968333280823" lon="8.390847222677124" id="-31894">
		<tag k="name" v="Kvennhusmyri" />
		<tag k="natural" v="wetland" />
		<tag k="ssr:stedsnr" v="353843" />
	</node>
	<node lat="59.455005553111675" lon="8.416197228802107" id="-31896">
		<tag k="name" v="Vreitemyri" />
		<tag k="natural" v="wetland" />
		<tag k="ssr:stedsnr" v="353928" />
	</node>
	<node lat="59.30228279950054" lon="8.54151633547405" id="-31910">
		<tag k="name" v="Possmyr" />
		<tag k="natural" v="wetland" />
		<tag k="ssr:stedsnr" v="354138" />
	</node>
	<node lat="59.384308117101845" lon="8.527688656406907" id="-31912">
		<tag k="landuse" v="meadow" />
		<tag k="name" v="Skotekra" />
		<tag k="ssr:stedsnr" v="354247" />
	</node>
	<node lat="59.30934157761812" lon="8.692983249050867" id="-31916">
		<tag k="landuse" v="meadow" />
		<tag k="name" v="Maurbu" />
		<tag k="ssr:stedsnr" v="354479" />
	</node>
	<node lat="59.40098235271765" lon="8.567448575027312" id="-31923">
		<tag k="landuse" v="quarry" />
		<tag k="name" v="Sandtaket" />
		<tag k="ssr:stedsnr" v="354296" />
	</node>
	<node lat="59.31944137064734" lon="8.545759596813468" id="-31937">
		<tag k="name" v="Gruvemyri" />
		<tag k="natural" v="wetland" />
		<tag k="ssr:stedsnr" v="354660" />
	</node>
	<node lat="59.3272892085469" lon="8.331832257744807" id="-31947">
		<tag k="name" v="Stean" />
		<tag k="natural" v="wetland" />
		<tag k="ssr:stedsnr" v="355384" />
	</node>
	<node lat="59.31457047807798" lon="8.236707384975356" id="-31949">
		<tag k="name" v="Tjoven" />
		<tag k="natural" v="wetland" />
		<tag k="ssr:stedsnr" v="355664" />
	</node>
	<node lat="59.37274436316736" lon="8.207533754755886" id="-31957">
		<tag k="name" v="Lauvstøylsteen" />
		<tag k="natural" v="wetland" />
		<tag k="ssr:stedsnr" v="355744" />
	</node>
	<node lat="59.460119444160206" lon="8.49512777405293" id="-31966">
		<tag k="name" v="Kjosen" />
		<tag k="place" v="locality" />
		<tag k="ssr:stedsnr" v="356864" />
	</node>
	<node lat="59.520961113611435" lon="8.338527770838844" id="-32028">
		<tag k="historic" v="shieling" />
		<tag k="name" v="Kleivstaul" />
		<tag k="place" v="locality" />
		<tag k="ssr:stedsnr" v="413128" />
	</node>
	<node lat="59.517938891271065" lon="8.364230551561576" id="-32029">
		<tag k="name" v="Rondthol" />
		<tag k="natural" v="wetland" />
		<tag k="ssr:stedsnr" v="413130" />
	</node>
	<node lat="59.506291670546844" lon="8.351430558143276" id="-32038">
		<tag k="name" v="Kleppestakkstøe" />
		<tag k="place" v="locality" />
		<tag k="ssr:stedsnr" v="414150" />
	</node>
	<node lat="59.501286111722045" lon="8.382436105409806" id="-32041">
		<tag k="name" v="Raunkroi" />
		<tag k="natural" v="wetland" />
		<tag k="ssr:stedsnr" v="414168" />
	</node>
	<node lat="59.4539570863679" lon="8.510529080004309" id="-32046">
		<tag k="landuse" v="meadow" />
		<tag k="name" v="Dukan" />
		<tag k="ssr:stedsnr" v="414177" />
	</node>
	<node lat="59.3979555559821" lon="8.467472219540333" id="-32057">
		<tag k="name" v="Steinstolen" />
		<tag k="natural" v="stone" />
		<tag k="ssr:stedsnr" v="413617" />
	</node>
	<node lat="59.49710277697497" lon="8.477797220672015" id="-32058">
		<tag k="name" v="Stråkmyr" />
		<tag k="natural" v="wetland" />
		<tag k="ssr:stedsnr" v="413620" />
	</node>
	<node lat="59.43467778156147" lon="8.49056944807504" id="-32061">
		<tag k="name" v="Toremyr" />
		<tag k="natural" v="wetland" />
		<tag k="ssr:stedsnr" v="413654" />
	</node>
	<node lat="59.502741670763655" lon="8.34010556323774" id="-32070">
		<tag k="historic" v="shieling" />
		<tag k="name" v="Kjikjustaul" />
		<tag k="place" v="locality" />
		<tag k="ssr:stedsnr" v="414130" />
	</node>
	<node lat="59.41525555555694" lon="8.500358338235435" id="-32071">
		<tag k="name" v="Vreitemyri" />
		<tag k="natural" v="wetland" />
		<tag k="ssr:stedsnr" v="414131" />
	</node>
	<node lat="59.40284444716737" lon="8.47505555797777" id="-32074">
		<tag k="name" v="Rødstad" />
		<tag k="place" v="locality" />
		<tag k="ssr:stedsnr" v="414211" />
	</node>
	<node lat="59.40424999837618" lon="8.334111102419106" id="-32075">
		<tag k="name" v="Storeskog" />
		<tag k="place" v="locality" />
		<tag k="ssr:stedsnr" v="413884" />
	</node>
	<node lat="59.33625555410154" lon="8.289036102676649" id="-32076">
		<tag k="name" v="Heimyri" />
		<tag k="natural" v="wetland" />
		<tag k="ssr:stedsnr" v="413946" />
	</node>
	<node lat="59.43291944650542" lon="8.326322225061496" id="-32080">
		<tag k="name" v="Skjervedalsmyra" />
		<tag k="natural" v="wetland" />
		<tag k="ssr:stedsnr" v="414676" />
	</node>
	<node lat="59.43496944130922" lon="8.349780561236331" id="-32082">
		<tag k="name" v="Svartufs" />
		<tag k="place" v="locality" />
		<tag k="ssr:stedsnr" v="414752" />
	</node>
	<node lat="59.47690555643732" lon="8.386766667595298" id="-32085">
		<tag k="name" v="Småmyran" />
		<tag k="natural" v="wetland" />
		<tag k="ssr:stedsnr" v="414843" />
	</node>
	<node lat="59.46935278034059" lon="8.390413895627772" id="-32086">
		<tag k="name" v="Ulkomyri" />
		<tag k="natural" v="wetland" />
		<tag k="ssr:stedsnr" v="414846" />
	</node>
	<node lat="59.475677777856234" lon="8.307786109124438" id="-32089">
		<tag k="name" v="Testemyri" />
		<tag k="natural" v="wetland" />
		<tag k="ssr:stedsnr" v="414225" />
	</node>
	<node lat="59.43339722262277" lon="8.512747220237395" id="-32091">
		<tag k="name" v="Hommedalsglipen" />
		<tag k="place" v="locality" />
		<tag k="ssr:stedsnr" v="414303" />
	</node>
	<node lat="59.30396666768934" lon="8.435224998043553" id="-32100">
		<tag k="name" v="Svartsvåa" />
		<tag k="place" v="locality" />
		<tag k="ssr:stedsnr" v="414447" />
	</node>
	<node lat="59.30957222353544" lon="8.415177781480576" id="-32101">
		<tag k="name" v="Bjønnstigvåa" />
		<tag k="place" v="locality" />
		<tag k="ssr:stedsnr" v="414448" />
	</node>
	<node lat="59.43491944826644" lon="8.536136102885886" id="-32102">
		<tag k="name" v="Høgsaten" />
		<tag k="place" v="locality" />
		<tag k="ssr:stedsnr" v="414450" />
	</node>
	<node lat="59.41558888839496" lon="8.406111106130975" id="-32110">
		<tag k="name" v="Stakkstø" />
		<tag k="natural" v="wetland" />
		<tag k="ssr:stedsnr" v="414427" />
	</node>
	<node lat="59.385866670461766" lon="8.493802772566442" id="-32115">
		<tag k="name" v="Småmyran" />
		<tag k="natural" v="wetland" />
		<tag k="ssr:stedsnr" v="414571" />
	</node>
	<node lat="59.43085555920585" lon="8.335194450610581" id="-32117">
		<tag k="name" v="Krokmyran" />
		<tag k="natural" v="wetland" />
		<tag k="ssr:stedsnr" v="414733" />
	</node>
	<node lat="59.47226666904421" lon="8.40666943752087" id="-32129">
		<tag k="name" v="Vreitemyri" />
		<tag k="natural" v="wetland" />
		<tag k="ssr:stedsnr" v="414868" />
	</node>
	<node lat="59.479294445117695" lon="8.472794452964477" id="-32134">
		<tag k="name" v="Vestjordet" />
		<tag k="place" v="locality" />
		<tag k="ssr:stedsnr" v="414941" />
	</node>
	<node lat="59.370402780077924" lon="8.400899998319964" id="-32140">
		<tag k="name" v="Kassestykket" />
		<tag k="place" v="locality" />
		<tag k="ssr:stedsnr" v="414978" />
	</node>
	<node lat="59.29963972159328" lon="8.696575924664552" id="-32143">
		<tag k="name" v="Kvennabrøtan" />
		<tag k="place" v="locality" />
		<tag k="ssr:stedsnr" v="415069" />
	</node>
	<node lat="59.303449817374855" lon="8.519147480795853" id="-32144">
		<tag k="name" v="Kleivhamarkroi" />
		<tag k="place" v="locality" />
		<tag k="ssr:stedsnr" v="415076" />
	</node>
	<node lat="59.30781222381331" lon="8.644172099910842" id="-32152">
		<tag k="name" v="Hovastaulmyri" />
		<tag k="natural" v="wetland" />
		<tag k="ssr:stedsnr" v="415315" />
	</node>
	<node lat="59.383139443603845" lon="8.555705086521359" id="-32154">
		<tag k="name" v="Størrholmyri" />
		<tag k="natural" v="wetland" />
		<tag k="ssr:stedsnr" v="415325" />
	</node>
	<node lat="59.320688751129794" lon="8.688777445445389" id="-32157">
		<tag k="name" v="Den flate stein" />
		<tag k="natural" v="stone" />
		<tag k="ssr:stedsnr" v="415598" />
	</node>
	<node lat="59.35913568642063" lon="8.516456003156994" id="-32161">
		<tag k="name" v="Kviteseidmyri" />
		<tag k="natural" v="wetland" />
		<tag k="ssr:stedsnr" v="415514" />
	</node>
	<node lat="59.31614366140265" lon="8.687045873584687" id="-32163">
		<tag k="landuse" v="meadow" />
		<tag k="name" v="Ruesdalsjore" />
		<tag k="ssr:stedsnr" v="415754" />
	</node>
	<node lat="59.417441123205464" lon="8.592647676158073" id="-32166">
		<tag k="name" v="Treskomyran" />
		<tag k="natural" v="wetland" />
		<tag k="ssr:stedsnr" v="415768" />
	</node>
	<node lat="59.40358678865878" lon="8.558129544918582" id="-32167">
		<tag k="name" v="Krossmyr" />
		<tag k="natural" v="wetland" />
		<tag k="ssr:stedsnr" v="415777" />
	</node>
	<node lat="59.315703876790536" lon="8.603378365764849" id="-32172">
		<tag k="name" v="Vrålsliuri" />
		<tag k="natural" v="scree" />
		<tag k="ssr:stedsnr" v="415870" />
	</node>
	<node lat="59.35312111031556" lon="8.25431083379062" id="-32183">
		<tag k="name" v="Storåker" />
		<tag k="place" v="locality" />
		<tag k="ssr:stedsnr" v="416660" />
	</node>
	<node lat="59.35742733559523" lon="8.241224539811897" id="-32184">
		<tag k="name" v="Hestetoi" />
		<tag k="place" v="locality" />
		<tag k="ssr:stedsnr" v="416673" />
	</node>
	<node lat="59.32472968154793" lon="8.789344913974302" id="-32189">
		<tag k="name" v="Torsdalsmyri" />
		<tag k="natural" v="wetland" />
		<tag k="ssr:stedsnr" v="417369" />
	</node>
	<node lat="59.333373988196385" lon="8.812569417111952" id="-32191">
		<tag k="landuse" v="meadow" />
		<tag k="name" v="Kyrkjehaugekra" />
		<tag k="ssr:stedsnr" v="417375" />
	</node>
	<node lat="59.38545833348986" lon="8.561908337587107" id="-32193">
		<tag k="name" v="Kovstaulmyri" />
		<tag k="natural" v="wetland" />
		<tag k="ssr:stedsnr" v="427730" />
	</node>
	<node lat="59.313886110809314" lon="8.60112500703222" id="-32226">
		<tag k="alt_name" v="Vrålslimyran" />
		<tag k="name" v="Vrålslimyri" />
		<tag k="natural" v="wetland" />
		<tag k="ssr:stedsnr" v="427664" />
	</node>
	<node lat="59.4516222231836" lon="8.46764999688082" id="-32256">
		<tag k="name" v="Fjøllmyr" />
		<tag k="natural" v="wetland" />
		<tag k="ssr:stedsnr" v="534692" />
	</node>
	<node lat="59.40538055391064" lon="8.381577780911723" id="-32257">
		<tag k="name" v="Krossmyr" />
		<tag k="natural" v="wetland" />
		<tag k="ssr:stedsnr" v="534825" />
	</node>
	<node lat="59.41285000373984" lon="8.366024993314689" id="-32258">
		<tag k="name" v="Bjørgulvstaulmyri" />
		<tag k="natural" v="wetland" />
		<tag k="ssr:stedsnr" v="534843" />
	</node>
	<node lat="59.408672226440835" lon="8.53103610605018" id="-32271">
		<tag k="name" v="Lomtjønnuri" />
		<tag k="natural" v="scree" />
		<tag k="ssr:stedsnr" v="535251" />
	</node>
	<node lat="59.446744443626216" lon="8.348230546765496" id="-32299">
		<tag k="historic" v="shieling" />
		<tag k="name" v="Mårenstaul" />
		<tag k="place" v="locality" />
		<tag k="ssr:stedsnr" v="535608" />
	</node>
	<node lat="59.47248889249286" lon="8.414413884352644" id="-32301">
		<tag k="name" v="Stogoåker" />
		<tag k="place" v="locality" />
		<tag k="ssr:stedsnr" v="535800" />
	</node>
	<node lat="59.45357777552039" lon="8.43068610337763" id="-32302">
		<tag k="name" v="Tågmyr" />
		<tag k="natural" v="wetland" />
		<tag k="ssr:stedsnr" v="535888" />
	</node>
	<node lat="59.45006666614469" lon="8.439402781588598" id="-32304">
		<tag k="name" v="Fossåker" />
		<tag k="place" v="locality" />
		<tag k="ssr:stedsnr" v="535896" />
	</node>
	<node lat="59.385863893328015" lon="8.422261112363227" id="-32310">
		<tag k="name" v="Halvfarodduri" />
		<tag k="natural" v="scree" />
		<tag k="ssr:stedsnr" v="535661" />
	</node>
	<node lat="59.448474997132024" lon="8.605647221747404" id="-32311">
		<tag k="name" v="Stakamyri" />
		<tag k="natural" v="wetland" />
		<tag k="ssr:stedsnr" v="535723" />
	</node>
	<node lat="59.43600277804722" lon="8.36079722350909" id="-32315">
		<tag k="historic" v="shieling" />
		<tag k="name" v="Trettanstaul" />
		<tag k="place" v="locality" />
		<tag k="ssr:stedsnr" v="535757" />
	</node>
	<node lat="59.40266111261091" lon="8.348338880817144" id="-32320">
		<tag k="name" v="Nipsekre" />
		<tag k="place" v="locality" />
		<tag k="ssr:stedsnr" v="535861" />
	</node>
	<node lat="59.31702777376567" lon="8.294236109076836" id="-32324">
		<tag k="historic" v="shieling" />
		<tag k="name" v="Dritbu" />
		<tag k="place" v="locality" />
		<tag k="ssr:stedsnr" v="535957" />
	</node>
	<node lat="59.31426734201324" lon="8.608370143974494" id="-32326">
		<tag k="name" v="Vrålslibronen" />
		<tag k="place" v="locality" />
		<tag k="ssr:stedsnr" v="536023" />
	</node>
	<node lat="59.4684416701531" lon="8.301333329547655" id="-32331">
		<tag k="name" v="Gunnarsjore" />
		<tag k="place" v="locality" />
		<tag k="ssr:stedsnr" v="536199" />
	</node>
	<node lat="59.475055556784774" lon="8.367402771750713" id="-32341">
		<tag k="name" v="Døli" />
		<tag k="place" v="locality" />
		<tag k="ssr:stedsnr" v="536336" />
	</node>
	<node lat="59.44145000092493" lon="8.587605558294257" id="-32344">
		<tag k="name" v="Gjelstad" />
		<tag k="natural" v="wetland" />
		<tag k="ssr:stedsnr" v="536511" />
	</node>
	<node lat="59.430055554498594" lon="8.565958338204513" id="-32348">
		<tag k="name" v="Flatastaulmyran" />
		<tag k="natural" v="wetland" />
		<tag k="ssr:stedsnr" v="536524" />
	</node>
	<node lat="59.423991664451684" lon="8.586688885545732" id="-32349">
		<tag k="historic" v="shieling" />
		<tag k="name" v="Stoastaulen" />
		<tag k="place" v="locality" />
		<tag k="ssr:stedsnr" v="536528" />
	</node>
	<node lat="59.32093918545936" lon="8.687120271990448" id="-32351">
		<tag k="name" v="Torstein" />
		<tag k="natural" v="stone" />
		<tag k="ssr:stedsnr" v="536557" />
	</node>
	<node lat="59.41331361624947" lon="8.567529830785453" id="-32356">
		<tag k="historic" v="shieling" />
		<tag k="name" v="Røysland" />
		<tag k="place" v="locality" />
		<tag k="ssr:stedsnr" v="536655" />
	</node>
	<node lat="59.40588052359281" lon="8.59120613804247" id="-32363">
		<tag k="name" v="Åmyri" />
		<tag k="natural" v="wetland" />
		<tag k="ssr:stedsnr" v="536701" />
	</node>
	<node lat="59.3250645512438" lon="8.514285363202498" id="-32365">
		<tag k="name" v="Den brende myri" />
		<tag k="natural" v="wetland" />
		<tag k="ssr:stedsnr" v="536710" />
	</node>
	<node lat="59.41241181256442" lon="8.591619152730448" id="-32368">
		<tag k="name" v="Moltekjeret" />
		<tag k="natural" v="wetland" />
		<tag k="ssr:stedsnr" v="536755" />
	</node>
	<node lat="59.25462345453031" lon="8.59167391931906" id="-32380">
		<tag k="name" v="Langemyr" />
		<tag k="natural" v="wetland" />
		<tag k="ssr:stedsnr" v="537114" />
	</node>
	<node lat="59.32772486435106" lon="8.236549548372178" id="-32385">
		<tag k="historic" v="shieling" />
		<tag k="name" v="Tullaren" />
		<tag k="place" v="locality" />
		<tag k="ssr:stedsnr" v="537244" />
	</node>
	<node lat="59.28907877021376" lon="8.742593537408627" id="-32395">
		<tag k="name" v="Underbergmyri" />
		<tag k="natural" v="wetland" />
		<tag k="ssr:stedsnr" v="537781" />
	</node>
	<node lat="59.25266388450157" lon="8.533013889231036" id="-32418">
		<tag k="name" v="Dei vide myran" />
		<tag k="natural" v="wetland" />
		<tag k="ssr:stedsnr" v="548552" />
	</node>
	<node lat="59.3315138876028" lon="8.591916662991169" id="-32441">
		<tag k="name" v="Høgtveitmarki" />
		<tag k="place" v="locality" />
		<tag k="ssr:stedsnr" v="548856" />
	</node>
	<node lat="59.43440555947601" lon="8.567030547117287" id="-32451">
		<tag k="name" v="Storåker" />
		<tag k="place" v="locality" />
		<tag k="ssr:stedsnr" v="594422" />
	</node>
	<node lat="59.31920833250605" lon="8.401255555087133" id="-32453">
		<tag k="name" v="Bjordamman" />
		<tag k="natural" v="wetland" />
		<tag k="ssr:stedsnr" v="595098" />
	</node>
	<node lat="59.26740833084156" lon="8.357747227619862" id="-32461">
		<tag k="name" v="Hagen" />
		<tag k="place" v="locality" />
		<tag k="ssr:stedsnr" v="595211" />
	</node>
	<node lat="59.46429444231324" lon="8.448377774604348" id="-32462">
		<tag k="name" v="Kalvehegni" />
		<tag k="place" v="locality" />
		<tag k="ssr:stedsnr" v="595276" />
	</node>
	<node lat="59.417566669835935" lon="8.44984445123181" id="-32470">
		<tag k="name" v="Ystestaulmogen" />
		<tag k="place" v="locality" />
		<tag k="ssr:stedsnr" v="595479" />
	</node>
	<node lat="59.31624999585905" lon="8.4935555594225" id="-32472">
		<tag k="name" v="Risøymyri" />
		<tag k="natural" v="wetland" />
		<tag k="ssr:stedsnr" v="595483" />
	</node>
	<node lat="59.438911107862786" lon="8.4447000081217" id="-32475">
		<tag k="name" v="Bjørnsrud" />
		<tag k="place" v="locality" />
		<tag k="ssr:stedsnr" v="595606" />
	</node>
	<node lat="59.439686113514796" lon="8.41274167277076" id="-32482">
		<tag k="name" v="Kleivmyri" />
		<tag k="natural" v="wetland" />
		<tag k="ssr:stedsnr" v="595575" />
	</node>
	<node lat="59.43283333145944" lon="8.455958330525716" id="-32483">
		<tag k="name" v="Torvmyri" />
		<tag k="natural" v="wetland" />
		<tag k="ssr:stedsnr" v="595674" />
	</node>
	<node lat="59.45557778210815" lon="8.380661109292353" id="-32486">
		<tag k="historic" v="shieling" />
		<tag k="name" v="Grovstaul" />
		<tag k="place" v="locality" />
		<tag k="ssr:stedsnr" v="595494" />
	</node>
	<node lat="59.403925001084296" lon="8.547216670041196" id="-32492">
		<tag k="name" v="Surtemyr" />
		<tag k="natural" v="wetland" />
		<tag k="ssr:stedsnr" v="596272" />
	</node>
	<node lat="59.504191665814666" lon="8.41100278654242" id="-32494">
		<tag k="name" v="Sundlandsmyri" />
		<tag k="natural" v="wetland" />
		<tag k="ssr:stedsnr" v="596276" />
	</node>
	<node lat="59.41311388989902" lon="8.416688888379092" id="-32502">
		<tag k="name" v="Løkjestaulmyri" />
		<tag k="natural" v="wetland" />
		<tag k="ssr:stedsnr" v="596394" />
	</node>
	<node lat="59.330163885779285" lon="8.295402780648146" id="-32509">
		<tag k="historic" v="shieling" />
		<tag k="name" v="Spondalen" />
		<tag k="place" v="locality" />
		<tag k="ssr:stedsnr" v="595938" />
	</node>
	<node lat="59.323230556814174" lon="8.317194450197796" id="-32512">
		<tag k="landuse" v="meadow" />
		<tag k="name" v="Øysteinsto" />
		<tag k="ssr:stedsnr" v="595948" />
	</node>
	<node lat="59.302549708879376" lon="8.557712940189262" id="-32514">
		<tag k="name" v="Bjørkeslåttamyri" />
		<tag k="natural" v="wetland" />
		<tag k="ssr:stedsnr" v="596023" />
	</node>
	<node lat="59.39225555907666" lon="8.483250001816645" id="-32517">
		<tag k="name" v="Lundeberg" />
		<tag k="place" v="locality" />
		<tag k="ssr:stedsnr" v="595973" />
	</node>
	<node lat="59.47364444023484" lon="8.320586106331293" id="-32523">
		<tag k="name" v="Åkremyran" />
		<tag k="natural" v="wetland" />
		<tag k="ssr:stedsnr" v="596225" />
	</node>
	<node lat="59.468385735942256" lon="8.51788824843739" id="-32527">
		<tag k="name" v="Slåttemyran" />
		<tag k="natural" v="wetland" />
		<tag k="ssr:stedsnr" v="596330" />
	</node>
	<node lat="59.449267674305496" lon="8.519954393017311" id="-32530">
		<tag k="name" v="Sandlanduri" />
		<tag k="natural" v="scree" />
		<tag k="ssr:stedsnr" v="596184" />
	</node>
	<node lat="59.28543965730295" lon="8.698636185294678" id="-32533">
		<tag k="name" v="Mann" />
		<tag k="place" v="locality" />
		<tag k="ssr:stedsnr" v="597277" />
	</node>
	<node lat="59.43070833131303" lon="8.584297213477823" id="-32538">
		<tag k="historic" v="shieling" />
		<tag k="name" v="Tjønnstaul" />
		<tag k="place" v="locality" />
		<tag k="ssr:stedsnr" v="596492" />
	</node>
	<node lat="59.31599602452804" lon="8.568355111915421" id="-32552">
		<tag k="name" v="Telefonmyran" />
		<tag k="natural" v="wetland" />
		<tag k="ssr:stedsnr" v="596872" />
	</node>
	<node lat="59.47058055656377" lon="8.391855546882793" id="-32553">
		<tag k="name" v="Deildemyr" />
		<tag k="natural" v="wetland" />
		<tag k="ssr:stedsnr" v="596874" />
	</node>
	<node lat="59.45386666732132" lon="8.435302781678827" id="-32555">
		<tag k="name" v="Damkosi" />
		<tag k="natural" v="wetland" />
		<tag k="ssr:stedsnr" v="596890" />
	</node>
	<node lat="59.26950487300815" lon="8.76619145030527" id="-32562">
		<tag k="name" v="Spabrekkmyri" />
		<tag k="natural" v="wetland" />
		<tag k="ssr:stedsnr" v="597039" />
	</node>
	<node lat="59.31886604209755" lon="8.65979524296947" id="-32563">
		<tag k="landuse" v="quarry" />
		<tag k="name" v="Grotnessanden" />
		<tag k="ssr:stedsnr" v="597045" />
	</node>
	<node lat="59.29656328415512" lon="8.68803753369537" id="-32570">
		<tag k="name" v="Tjørohjellflata" />
		<tag k="place" v="locality" />
		<tag k="ssr:stedsnr" v="597419" />
	</node>
	<node lat="59.305638599580135" lon="8.68850131598049" id="-32576">
		<tag k="landuse" v="meadow" />
		<tag k="name" v="Holmegardsekra" />
		<tag k="ssr:stedsnr" v="597451" />
	</node>
	<node lat="59.3041950969289" lon="8.688571550687081" id="-32577">
		<tag k="name" v="Kaffestykket" />
		<tag k="place" v="locality" />
		<tag k="ssr:stedsnr" v="597452" />
	</node>
	<node lat="59.30517617134356" lon="8.692418669574653" id="-32578">
		<tag k="landuse" v="meadow" />
		<tag k="name" v="Gråtaren" />
		<tag k="ssr:stedsnr" v="597459" />
	</node>
	<node lat="59.290508851156865" lon="8.75072363066239" id="-32589">
		<tag k="name" v="Østmarki" />
		<tag k="place" v="locality" />
		<tag k="ssr:stedsnr" v="597722" />
	</node>
	<node lat="59.372051757185865" lon="8.235416560621436" id="-32596">
		<tag k="name" v="Elgmyr" />
		<tag k="natural" v="wetland" />
		<tag k="ssr:stedsnr" v="597980" />
	</node>
	<node lat="59.32355702995977" lon="8.825025624919094" id="-32598">
		<tag k="name" v="Surtemyr" />
		<tag k="natural" v="wetland" />
		<tag k="ssr:stedsnr" v="598330" />
	</node>
	<node lat="59.344570344992285" lon="8.186232677786835" id="-32599">
		<tag k="name" v="Storkjer" />
		<tag k="natural" v="wetland" />
		<tag k="ssr:stedsnr" v="598927" />
	</node>
	<node lat="59.38852906631733" lon="8.249885868616685" id="-32605">
		<tag k="name" v="Åsålsmyr" />
		<tag k="natural" v="wetland" />
		<tag k="ssr:stedsnr" v="598774" />
	</node>
	<node lat="59.30497777361489" lon="8.472911116807975" id="-32613">
		<tag k="name" v="Storemyr" />
		<tag k="natural" v="wetland" />
		<tag k="ssr:stedsnr" v="598738" />
	</node>
	<node lat="59.36708417847766" lon="8.204126318248814" id="-32614">
		<tag k="name" v="Persteen" />
		<tag k="natural" v="wetland" />
		<tag k="ssr:stedsnr" v="598744" />
	</node>
	<node lat="59.37184722620778" lon="8.290661103836044" id="-32640">
		<tag k="alt_name" v="Store Kleivmyr" />
		<tag k="name" v="Kleivmyr" />
		<tag k="natural" v="wetland" />
		<tag k="ssr:stedsnr" v="609246" />
	</node>
	<node lat="59.37282778021203" lon="8.31394167246116" id="-32643">
		<tag k="name" v="Myrbuin" />
		<tag k="natural" v="wetland" />
		<tag k="ssr:stedsnr" v="609260" />
	</node>
	<node lat="59.500691666522926" lon="8.409544440953429" id="-32668">
		<tag k="name" v="Heibømyran" />
		<tag k="natural" v="wetland" />
		<tag k="ssr:stedsnr" v="656117" />
	</node>
	<node lat="59.33605555480632" lon="8.483380557528168" id="-32678">
		<tag k="name" v="Storemyri" />
		<tag k="natural" v="wetland" />
		<tag k="ssr:stedsnr" v="656025" />
	</node>
	<node lat="59.46039166446021" lon="8.342552776955925" id="-32682">
		<tag k="landuse" v="meadow" />
		<tag k="name" v="Åseslåtta" />
		<tag k="ssr:stedsnr" v="655564" />
	</node>
	<node lat="59.43070278156598" lon="8.477727785095619" id="-32683">
		<tag k="name" v="Gråtarteigen" />
		<tag k="place" v="locality" />
		<tag k="ssr:stedsnr" v="655730" />
	</node>
	<node lat="59.34157777377178" lon="8.419127784847984" id="-32686">
		<tag k="name" v="Middagsmyri" />
		<tag k="natural" v="wetland" />
		<tag k="ssr:stedsnr" v="656813" />
	</node>
	<node lat="59.48378889321759" lon="8.456500008029579" id="-32688">
		<tag k="name" v="Sigurdstaulmyran" />
		<tag k="natural" v="wetland" />
		<tag k="ssr:stedsnr" v="655867" />
	</node>
	<node lat="59.51109722621382" lon="8.418638893510677" id="-32692">
		<tag k="name" v="Heibjørk" />
		<tag k="place" v="locality" />
		<tag k="ssr:stedsnr" v="656153" />
	</node>
	<node lat="59.493788889434626" lon="8.412066675357421" id="-32695">
		<tag k="name" v="Sagaekra" />
		<tag k="place" v="locality" />
		<tag k="ssr:stedsnr" v="656172" />
	</node>
	<node lat="59.44292500430612" lon="8.401838894534594" id="-32709">
		<tag k="name" v="Dammyri" />
		<tag k="natural" v="wetland" />
		<tag k="ssr:stedsnr" v="656684" />
	</node>
</osm>
