<?xml version="1.0" encoding="UTF-8"?>
<osm generator="osmapis" version="0.6">
	<node id="-831423" lat="63.6329749991" lon="8.70717777972">
		<tag k="amenity" v="place_of_worship" />
		<tag k="denomination" v="lutheran" />
		<tag k="name" v="Dolm kirke" />
		<tag k="religion" v="christian" />
		<tag k="ssr:stedsnr" v="802960" />
	</node>
	<node id="-829308" lat="63.4803111156" lon="8.78429166681">
		<tag k="amenity" v="community_centre" />
		<tag k="name" v="Aunåa forsamlingshus" />
		<tag k="ssr:stedsnr" v="759724" />
	</node>
	<node id="-830986" lat="63.6484638884" lon="8.82201110766">
		<tag k="amenity" v="community_centre" />
		<tag k="name" v="Åsvang" />
		<tag k="ssr:stedsnr" v="498680" />
	</node>
	<node id="-828927" lat="63.4303361133" lon="8.42758889179">
		<tag k="amenity" v="place_of_worship" />
		<tag k="denomination" v="lutheran" />
		<tag k="name" v="Forsnes kapell" />
		<tag k="religion" v="christian" />
		<tag k="ssr:stedsnr" v="637319" />
	</node>
	<node id="-827576" lat="63.6285902117" lon="8.72678787522">
		<tag k="amenity" v="place_of_worship" />
		<tag k="denomination" v="lutheran" />
		<tag k="name" v="Hitra kirke" />
		<tag k="religion" v="christian" />
		<tag k="ssr:stedsnr" v="862273" />
	</node>
	<node id="-830148" lat="63.5035055528" lon="8.27945000046">
		<tag k="cemetery" v="grave" />
		<tag k="name" v="Rørøya kirkegård" />
		<tag k="place" v="locality" />
		<tag k="ssr:stedsnr" v="636698" />
	</node>
	<node id="-831350" lat="63.6073583302" lon="8.97466667012">
		<tag k="amenity" v="place_of_worship" />
		<tag k="denomination" v="lutheran" />
		<tag k="name" v="Fillan kirke" />
		<tag k="religion" v="christian" />
		<tag k="ssr:stedsnr" v="151844" />
	</node>
	<node id="-826929" lat="63.5121222179" lon="8.3640861052">
		<tag k="alt_name" v="Kvenvær gravkapell" />
		<tag k="cemetery" v="grave" />
		<tag k="name" v="Eidsmyra" />
		<tag k="place" v="locality" />
		<tag k="ssr:stedsnr" v="333385" />
	</node>
	<node id="-829870" lat="63.5870392253" lon="8.6606624134">
		<tag k="amenity" v="community_centre" />
		<tag k="name" v="Fjellvang" />
		<tag k="ssr:stedsnr" v="863623" />
	</node>
	<node id="-830666" lat="63.6489487457" lon="9.13695280845">
		<tag k="amenity" v="place_of_worship" />
		<tag k="denomination" v="lutheran" />
		<tag k="name" v="Nordbotn kirke" />
		<tag k="religion" v="christian" />
		<tag k="ssr:stedsnr" v="13286" />
	</node>
	<node id="-827044" lat="63.5298138901" lon="8.38181665957">
		<tag k="amenity" v="place_of_worship" />
		<tag k="denomination" v="lutheran" />
		<tag k="name" v="Kvenvær" />
		<tag k="religion" v="christian" />
		<tag k="ssr:stedsnr" v="758471" />
	</node>
	<node id="-827843" lat="63.5228250016" lon="9.09907499005">
		<tag k="amenity" v="place_of_worship" />
		<tag k="denomination" v="lutheran" />
		<tag k="name" v="Sandstad kirke" />
		<tag k="religion" v="christian" />
		<tag k="ssr:stedsnr" v="941392" />
	</node>
</osm>
