<?xml version="1.0" encoding="UTF-8"?>
<osm generator="osmapis" version="0.6">
	<node id="-831997" lat="63.6046777808" lon="8.75810556351">
		<tag k="name" v="Melandseteråsmyra" />
		<tag k="natural" v="wetland" />
		<tag k="ssr:stedsnr" v="30906" />
	</node>
	<node id="-835578" lat="63.5400888929" lon="9.11452499812">
		<tag k="name" v="Ytter Fuggelåsmyra" />
		<tag k="natural" v="wetland" />
		<tag k="ssr:stedsnr" v="152515" />
	</node>
	<node id="-833017" lat="63.5330194462" lon="9.09681387924">
		<tag k="name" v="Ørnåsmyra" />
		<tag k="natural" v="wetland" />
		<tag k="ssr:stedsnr" v="274352" />
	</node>
	<node id="-835064" lat="63.5161027816" lon="9.10322777169">
		<tag k="name" v="Legdesteinen" />
		<tag k="natural" v="stone" />
		<tag k="ssr:stedsnr" v="152420" />
	</node>
	<node id="-833527" lat="63.4363805534" lon="8.48812221936">
		<tag k="name" v="Melkstadmyra" />
		<tag k="natural" v="wetland" />
		<tag k="ssr:stedsnr" v="151286" />
	</node>
	<node id="-835062" lat="63.6273166703" lon="8.74904166588">
		<tag k="name" v="Undåsskogen" />
		<tag k="place" v="locality" />
		<tag k="ssr:stedsnr" v="636637" />
	</node>
	<node id="-834549" lat="63.4814861105" lon="8.52258054805">
		<tag k="name" v="Einskogan" />
		<tag k="place" v="locality" />
		<tag k="ssr:stedsnr" v="12070" />
	</node>
	<node id="-835572" lat="63.5035027761" lon="8.67852222583">
		<tag k="name" v="Auster Havmyran" />
		<tag k="natural" v="wetland" />
		<tag k="ssr:stedsnr" v="30650" />
	</node>
	<node id="-834034" lat="63.5569666685" lon="9.14722499443">
		<tag k="name" v="Nordvika" />
		<tag k="place" v="locality" />
		<tag k="ssr:stedsnr" v="881275" />
	</node>
	<node id="-836592" lat="63.5707833329" lon="8.68987500792">
		<tag k="name" v="Vikern" />
		<tag k="place" v="locality" />
		<tag k="ssr:stedsnr" v="819973" />
	</node>
	<node id="-833519" lat="63.5605444461" lon="9.18545278569">
		<tag k="name" v="Kjerkgården" />
		<tag k="place" v="locality" />
		<tag k="ssr:stedsnr" v="577345" />
	</node>
	<node id="-834542" lat="63.5352444409" lon="9.11608888757">
		<tag k="name" v="Inner Fuggelåsmyra" />
		<tag k="natural" v="wetland" />
		<tag k="ssr:stedsnr" v="820490" />
	</node>
	<node id="-835051" lat="63.5127194449" lon="8.57566666089">
		<tag k="name" v="Skumfossøren" />
		<tag k="place" v="locality" />
		<tag k="ssr:stedsnr" v="940724" />
	</node>
	<node id="-834538" lat="63.6120888876" lon="8.72846943994">
		<tag k="name" v="Dragan" />
		<tag k="place" v="locality" />
		<tag k="ssr:stedsnr" v="758923" />
	</node>
	<node id="-835561" lat="63.4511055514" lon="8.58097777286">
		<tag k="name" v="Stormyra" />
		<tag k="natural" v="wetland" />
		<tag k="ssr:stedsnr" v="575199" />
	</node>
	<node id="-835558" lat="63.571313889" lon="8.40678611083">
		<tag k="name" v="Liamyran" />
		<tag k="natural" v="wetland" />
		<tag k="ssr:stedsnr" v="516102" />
	</node>
	<node id="-835044" lat="63.6409166682" lon="8.74911389035">
		<tag k="name" v="Bonåkermyran" />
		<tag k="natural" v="wetland" />
		<tag k="ssr:stedsnr" v="636634" />
	</node>
	<node id="-835555" lat="63.5999722178" lon="8.56143054883">
		<tag k="name" v="Presturda" />
		<tag k="natural" v="scree" />
		<tag k="ssr:stedsnr" v="334881" />
	</node>
	<node id="-832994" lat="63.6400027814" lon="9.13563889017">
		<tag k="name" v="Jutuleinvika" />
		<tag k="place" v="locality" />
		<tag k="ssr:stedsnr" v="758007" />
	</node>
	<node id="-836065" lat="63.5244277771" lon="9.09593887889">
		<tag k="name" v="Nyvelta" />
		<tag k="place" v="locality" />
		<tag k="ssr:stedsnr" v="92391" />
	</node>
	<node id="-836261" lat="63.5337861088" lon="8.42061388762">
		<tag k="name" v="Melkstaden" />
		<tag k="place" v="locality" />
		<tag k="ssr:stedsnr" v="698367" />
	</node>
	<node id="-835066" lat="63.6163499997" lon="8.656949993">
		<tag k="name" v="Skjulsvika" />
		<tag k="place" v="locality" />
		<tag k="ssr:stedsnr" v="30557" />
	</node>
	<node id="-833494" lat="63.5417611122" lon="8.53373054918">
		<tag k="name" v="Hjellmyra" />
		<tag k="natural" v="wetland" />
		<tag k="ssr:stedsnr" v="515698" />
	</node>
	<node id="-836601" lat="63.5784472264" lon="8.47528611531">
		<tag k="name" v="Stormyra" />
		<tag k="natural" v="wetland" />
		<tag k="ssr:stedsnr" v="334191" />
	</node>
	<node id="-836560" lat="63.4710555554" lon="8.43508888848">
		<tag k="name" v="Hytta" />
		<tag k="place" v="locality" />
		<tag k="ssr:stedsnr" v="698416" />
	</node>
	<node id="-832713" lat="63.580561107" lon="9.13526666193">
		<tag k="name" v="Skardet" />
		<tag k="place" v="locality" />
		<tag k="ssr:stedsnr" v="274055" />
	</node>
	<node id="-836044" lat="63.6040222231" lon="8.60903332763">
		<tag k="name" v="Furuskogen" />
		<tag k="place" v="locality" />
		<tag k="ssr:stedsnr" v="256897" />
	</node>
	<node id="-835530" lat="63.4541138879" lon="8.59122223172">
		<tag k="name" v="Godhamnmyra" />
		<tag k="natural" v="wetland" />
		<tag k="ssr:stedsnr" v="515228" />
	</node>
	<node id="-833481" lat="63.6319194411" lon="8.97936944557">
		<tag k="name" v="Myra" />
		<tag k="place" v="locality" />
		<tag k="ssr:stedsnr" v="697875" />
	</node>
	<node id="-835526" lat="63.540522225" lon="8.5248583304">
		<tag k="name" v="Grønnmyran" />
		<tag k="natural" v="wetland" />
		<tag k="ssr:stedsnr" v="30646" />
	</node>
	<node id="-834501" lat="63.5794194439" lon="8.47017499102">
		<tag k="name" v="Rotmyra" />
		<tag k="natural" v="wetland" />
		<tag k="ssr:stedsnr" v="455189" />
	</node>
	<node id="-836036" lat="63.6128722248" lon="8.60158334198">
		<tag k="name" v="Melkstaden" />
		<tag k="place" v="locality" />
		<tag k="ssr:stedsnr" v="394915" />
	</node>
	<node id="-834038" lat="63.6344277751" lon="8.69806110516">
		<tag k="name" v="Kjerkmyran" />
		<tag k="natural" v="wetland" />
		<tag k="ssr:stedsnr" v="317921" />
	</node>
	<node id="-836032" lat="63.6047138849" lon="8.91106945419">
		<tag k="name" v="Litleidet" />
		<tag k="place" v="locality" />
		<tag k="ssr:stedsnr" v="819858" />
	</node>
	<node id="-834037" lat="63.6376083323" lon="9.0673916712">
		<tag k="alt_name" v="Øren" />
		<tag k="name" v="Øra" />
		<tag k="place" v="locality" />
		<tag k="ssr:stedsnr" v="741355" />
	</node>
	<node id="-832954" lat="63.5984166702" lon="8.67956945247">
		<tag k="name" v="Hagatjørnmyran" />
		<tag k="natural" v="wetland" />
		<tag k="ssr:stedsnr" v="758601" />
	</node>
	<node id="-836025" lat="63.6565555598" lon="8.84044999774">
		<tag k="name" v="Påssmyra" />
		<tag k="natural" v="wetland" />
		<tag k="ssr:stedsnr" v="272995" />
	</node>
	<node id="-831988" lat="63.5522916645" lon="9.20608332336">
		<tag k="name" v="Gåsvollan" />
		<tag k="place" v="locality" />
		<tag k="ssr:stedsnr" v="456498" />
	</node>
	<node id="-832949" lat="63.616486109" lon="8.68305833987">
		<tag k="name" v="Kvernamyra" />
		<tag k="natural" v="wetland" />
		<tag k="ssr:stedsnr" v="575566" />
	</node>
	<node id="-832948" lat="63.5274055575" lon="9.10348888819">
		<tag k="name" v="Svarthavet" />
		<tag k="place" v="locality" />
		<tag k="ssr:stedsnr" v="334377" />
	</node>
	<node id="-836528" lat="63.6685305563" lon="9.10639445213">
		<tag k="name" v="Prestvika" />
		<tag k="place" v="locality" />
		<tag k="ssr:stedsnr" v="394151" />
	</node>
	<node id="-836168" lat="63.6025749976" lon="8.96660834056">
		<tag k="name" v="Litlsloka" />
		<tag k="place" v="locality" />
		<tag k="ssr:stedsnr" v="273854" />
	</node>
	<node id="-833963" lat="63.5200972194" lon="8.41664166426">
		<tag k="name" v="Sandvassmyra" />
		<tag k="natural" v="wetland" />
		<tag k="ssr:stedsnr" v="273433" />
	</node>
	<node id="-833959" lat="63.4342000014" lon="8.51028889422">
		<tag k="name" v="Langmyra" />
		<tag k="natural" v="wetland" />
		<tag k="ssr:stedsnr" v="637286" />
	</node>
	<node id="-832928" lat="63.5213000041" lon="8.44027223159">
		<tag k="name" v="Tovmyra" />
		<tag k="natural" v="wetland" />
		<tag k="ssr:stedsnr" v="516410" />
	</node>
	<node id="-833264" lat="63.5805944478" lon="8.95041667181">
		<tag k="name" v="Ytter Baråsmyra" />
		<tag k="natural" v="wetland" />
		<tag k="ssr:stedsnr" v="30203" />
	</node>
	<node id="-833432" lat="63.4419083308" lon="8.54585000503">
		<tag k="name" v="Stangheimyra" />
		<tag k="natural" v="wetland" />
		<tag k="ssr:stedsnr" v="30236" />
	</node>
	<node id="-833430" lat="63.4322277819" lon="8.4713000098">
		<tag k="name" v="Langmyra" />
		<tag k="natural" v="wetland" />
		<tag k="ssr:stedsnr" v="941250" />
	</node>
	<node id="-834964" lat="63.5515055535" lon="8.7434583362">
		<tag k="name" v="Ramnreirsmyra" />
		<tag k="natural" v="wetland" />
		<tag k="ssr:stedsnr" v="576789" />
	</node>
	<node id="-834961" lat="63.4492944456" lon="8.3556833271">
		<tag k="name" v="Tunga" />
		<tag k="place" v="locality" />
		<tag k="ssr:stedsnr" v="455274" />
	</node>
	<node id="-836494" lat="63.5701666711" lon="8.39231388298">
		<tag k="name" v="Blautmyra" />
		<tag k="natural" v="wetland" />
		<tag k="ssr:stedsnr" v="819085" />
	</node>
	<node id="-834821" lat="63.5449277781" lon="8.41946111875">
		<tag k="name" v="Grønna" />
		<tag k="place" v="locality" />
		<tag k="ssr:stedsnr" v="758131" />
	</node>
	<node id="-834440" lat="63.5646916663" lon="9.02128334219">
		<tag k="name" v="Fagerdalsmyran" />
		<tag k="natural" v="wetland" />
		<tag k="ssr:stedsnr" v="334668" />
	</node>
	<node id="-836417" lat="63.5711055584" lon="8.56572223063">
		<tag k="name" v="Einarbergsmyra" />
		<tag k="natural" v="wetland" />
		<tag k="ssr:stedsnr" v="819946" />
	</node>
	<node id="-836484" lat="63.4388555592" lon="8.40472221365">
		<tag k="name" v="Dalamyra" />
		<tag k="natural" v="wetland" />
		<tag k="ssr:stedsnr" v="212308" />
	</node>
	<node id="-834947" lat="63.5216555521" lon="8.70641666661">
		<tag k="name" v="Vardlibua" />
		<tag k="place" v="locality" />
		<tag k="ssr:stedsnr" v="516801" />
	</node>
	<node id="-833921" lat="63.526363892" lon="8.42856388964">
		<tag k="name" v="Urda" />
		<tag k="natural" v="scree" />
		<tag k="ssr:stedsnr" v="273413" />
	</node>
	<node id="-835136" lat="63.5635166669" lon="8.77544167168">
		<tag k="name" v="Trøa" />
		<tag k="place" v="locality" />
		<tag k="ssr:stedsnr" v="576809" />
	</node>
	<node id="-835452" lat="63.590397223" lon="8.97846667581">
		<tag k="name" v="Smevika" />
		<tag k="place" v="locality" />
		<tag k="ssr:stedsnr" v="575191" />
	</node>
	<node id="-833403" lat="63.524949996" lon="9.08270834172">
		<tag k="name" v="Skjelingsstaden" />
		<tag k="place" v="locality" />
		<tag k="ssr:stedsnr" v="213430" />
	</node>
	<node id="-834364" lat="63.5436583305" lon="8.5477972249">
		<tag k="name" v="Trøa" />
		<tag k="place" v="locality" />
		<tag k="ssr:stedsnr" v="272703" />
	</node>
	<node id="-835988" lat="63.5714916661" lon="8.4160861049">
		<tag k="name" v="Rotmyra" />
		<tag k="natural" v="wetland" />
		<tag k="ssr:stedsnr" v="394080" />
	</node>
	<node id="-834421" lat="63.5256083311" lon="9.11128333688">
		<tag k="name" v="Vikahalten" />
		<tag k="place" v="locality" />
		<tag k="ssr:stedsnr" v="881362" />
	</node>
	<node id="-833854" lat="63.5443972187" lon="9.20438889345">
		<tag k="name" v="Fjøsmyra" />
		<tag k="natural" v="wetland" />
		<tag k="ssr:stedsnr" v="213513" />
	</node>
	<node id="-834417" lat="63.4140277764" lon="8.46690555256">
		<tag k="name" v="Langmyra" />
		<tag k="natural" v="wetland" />
		<tag k="ssr:stedsnr" v="880509" />
	</node>
	<node id="-835951" lat="63.5830277762" lon="8.62238332579">
		<tag k="name" v="Vikamyra" />
		<tag k="natural" v="wetland" />
		<tag k="ssr:stedsnr" v="576961" />
	</node>
	<node id="-836669" lat="63.5756055598" lon="8.92039999495">
		<tag k="name" v="Blåskogen" />
		<tag k="place" v="locality" />
		<tag k="ssr:stedsnr" v="152687" />
	</node>
	<node id="-832792" lat="63.634688889" lon="8.70451111476">
		<tag k="name" v="Dolmvalen" />
		<tag k="natural" v="wetland" />
		<tag k="ssr:stedsnr" v="758548" />
	</node>
	<node id="-836455" lat="63.6564611098" lon="8.83366388579">
		<tag k="name" v="Kvalvikan" />
		<tag k="place" v="locality" />
		<tag k="ssr:stedsnr" v="940994" />
	</node>
	<node id="-835941" lat="63.6585833349" lon="9.11835833674">
		<tag k="name" v="Bekkvika" />
		<tag k="place" v="locality" />
		<tag k="ssr:stedsnr" v="394087" />
	</node>
	<node id="-835428" lat="63.5821749967" lon="8.41960000186">
		<tag k="name" v="Myra" />
		<tag k="place" v="locality" />
		<tag k="ssr:stedsnr" v="576039" />
	</node>
	<node id="-833891" lat="63.5249111103" lon="8.42699445412">
		<tag k="name" v="Botnen" />
		<tag k="natural" v="wetland" />
		<tag k="ssr:stedsnr" v="273409" />
	</node>
	<node id="-834910" lat="63.4375055579" lon="8.41640000653">
		<tag k="name" v="Reitmyra" />
		<tag k="natural" v="wetland" />
		<tag k="ssr:stedsnr" v="91340" />
	</node>
	<node id="-834397" lat="63.623949999" lon="8.93296111025">
		<tag k="name" v="Rønningan" />
		<tag k="place" v="locality" />
		<tag k="ssr:stedsnr" v="515876" />
	</node>
	<node id="-832348" lat="63.6643833324" lon="9.06795556502">
		<tag k="name" v="Strand" />
		<tag k="place" v="locality" />
		<tag k="ssr:stedsnr" v="880149" />
	</node>
	<node id="-832858" lat="63.5223999964" lon="9.1280611156">
		<tag k="name" v="Lågbuktvollen" />
		<tag k="place" v="locality" />
		<tag k="ssr:stedsnr" v="334365" />
	</node>
	<node id="-834903" lat="63.5959416655" lon="8.69171111851">
		<tag k="name" v="Vollen" />
		<tag k="place" v="locality" />
		<tag k="ssr:stedsnr" v="151562" />
	</node>
	<node id="-834900" lat="63.6355666624" lon="9.16219444854">
		<tag k="name" v="Jakopvika" />
		<tag k="place" v="locality" />
		<tag k="ssr:stedsnr" v="698124" />
	</node>
	<node id="-833363" lat="63.5469722253" lon="8.82634445236">
		<tag k="name" v="Isakbuholtet" />
		<tag k="place" v="locality" />
		<tag k="ssr:stedsnr" v="455795" />
	</node>
	<node id="-835922" lat="63.5138972188" lon="8.9764472322">
		<tag k="name" v="Oksmyra" />
		<tag k="natural" v="wetland" />
		<tag k="ssr:stedsnr" v="881674" />
	</node>
	<node id="-833873" lat="63.5385277771" lon="8.71543054935">
		<tag k="name" v="Oterslættet" />
		<tag k="natural" v="wetland" />
		<tag k="ssr:stedsnr" v="698738" />
	</node>
	<node id="-832847" lat="63.5477333323" lon="8.55415555224">
		<tag k="name" v="Linvollen" />
		<tag k="place" v="locality" />
		<tag k="ssr:stedsnr" v="697740" />
	</node>
	<node id="-832846" lat="63.4285583339" lon="8.4511222321">
		<tag k="name" v="Haltvikurda" />
		<tag k="natural" v="scree" />
		<tag k="ssr:stedsnr" v="212490" />
	</node>
	<node id="-832329" lat="63.5499666696" lon="8.97968332427">
		<tag k="name" v="Futåsmyra" />
		<tag k="natural" v="wetland" />
		<tag k="ssr:stedsnr" v="941855" />
	</node>
	<node id="-834375" lat="63.5832527819" lon="8.40153887975">
		<tag k="name" v="Lomsmyra" />
		<tag k="natural" v="wetland" />
		<tag k="ssr:stedsnr" v="698028" />
	</node>
	<node id="-834886" lat="63.557280552" lon="9.00035834064">
		<tag k="name" v="Høybuen" />
		<tag k="natural" v="wetland" />
		<tag k="ssr:stedsnr" v="213708" />
	</node>
	<node id="-833860" lat="63.4149083314" lon="8.4619416568">
		<tag k="name" v="Parken" />
		<tag k="place" v="locality" />
		<tag k="ssr:stedsnr" v="394510" />
	</node>
	<node id="-833345" lat="63.5667861131" lon="8.56808887932">
		<tag k="name" v="Stokkmyra" />
		<tag k="natural" v="wetland" />
		<tag k="ssr:stedsnr" v="256576" />
	</node>
	<node id="-834367" lat="63.6419833306" lon="8.99079722633">
		<tag k="name" v="Steinvika" />
		<tag k="place" v="locality" />
		<tag k="ssr:stedsnr" v="758856" />
	</node>
	<node id="-835390" lat="63.5073361106" lon="8.82917222516">
		<tag k="name" v="Inner Skogtoppa" />
		<tag k="place" v="locality" />
		<tag k="ssr:stedsnr" v="576871" />
	</node>
	<node id="-833341" lat="63.4628388886" lon="8.4283972178">
		<tag k="name" v="Glenna" />
		<tag k="place" v="locality" />
		<tag k="ssr:stedsnr" v="576458" />
	</node>
	<node id="-832828" lat="63.547702777" lon="8.54759721931">
		<tag k="name" v="Perskogmyra" />
		<tag k="natural" v="wetland" />
		<tag k="ssr:stedsnr" v="697736" />
	</node>
	<node id="-833162" lat="63.5293749988" lon="8.3831861023">
		<tag k="name" v="Stein" />
		<tag k="place" v="locality" />
		<tag k="ssr:stedsnr" v="334400" />
	</node>
	<node id="-834360" lat="63.5255333305" lon="9.07534444177">
		<tag k="name" v="Kuåsmyra" />
		<tag k="natural" v="wetland" />
		<tag k="ssr:stedsnr" v="941421" />
	</node>
	<node id="-833334" lat="63.6265500025" lon="8.71761111768">
		<tag k="name" v="Svintrøa" />
		<tag k="place" v="locality" />
		<tag k="ssr:stedsnr" v="333599" />
	</node>
	<node id="-835376" lat="63.549738886" lon="9.15817778096">
		<tag k="name" v="Breimyra" />
		<tag k="natural" v="wetland" />
		<tag k="ssr:stedsnr" v="152487" />
	</node>
	<node id="-832815" lat="63.4567611146" lon="8.33646665873">
		<tag k="name" v="Djupmyra" />
		<tag k="natural" v="wetland" />
		<tag k="ssr:stedsnr" v="394321" />
	</node>
	<node id="-835372" lat="63.5472277761" lon="9.18620832634">
		<tag k="name" v="Sauholet" />
		<tag k="place" v="locality" />
		<tag k="ssr:stedsnr" v="152478" />
	</node>
	<node id="-836395" lat="63.5396277767" lon="8.81338332611">
		<tag k="name" v="Bjørkaskogen" />
		<tag k="place" v="locality" />
		<tag k="ssr:stedsnr" v="941795" />
	</node>
	<node id="-836394" lat="63.5841999977" lon="8.95286389812">
		<tag k="name" v="Gulltjørnmyra" />
		<tag k="natural" v="wetland" />
		<tag k="ssr:stedsnr" v="272198" />
	</node>
	<node id="-832297" lat="63.5995527736" lon="9.08700277368">
		<tag k="name" v="Kvalvika" />
		<tag k="place" v="locality" />
		<tag k="ssr:stedsnr" v="30031" />
	</node>
	<node id="-834343" lat="63.6098611086" lon="8.64294166644">
		<tag k="name" v="Melkstaden" />
		<tag k="place" v="locality" />
		<tag k="ssr:stedsnr" v="819577" />
	</node>
	<node id="-834341" lat="63.488524998" lon="8.62209444327">
		<tag k="alt_name" v="Havmyrane" />
		<tag k="name" v="Havmyran" />
		<tag k="natural" v="wetland" />
		<tag k="ssr:stedsnr" v="376098" />
	</node>
	<node id="-834339" lat="63.5878083327" lon="8.44915277192">
		<tag k="name" v="Urda" />
		<tag k="natural" v="scree" />
		<tag k="ssr:stedsnr" v="455148" />
	</node>
	<node id="-833314" lat="63.6358083299" lon="9.1690805522">
		<tag k="name" v="Tørvika" />
		<tag k="place" v="locality" />
		<tag k="ssr:stedsnr" v="637147" />
	</node>
	<node id="-836385" lat="63.5520861082" lon="9.16385277854">
		<tag k="name" v="Postmyran" />
		<tag k="natural" v="wetland" />
		<tag k="ssr:stedsnr" v="92441" />
	</node>
	<node id="-834335" lat="63.5085194483" lon="8.63485000998">
		<tag k="name" v="Nord Havmyran" />
		<tag k="natural" v="wetland" />
		<tag k="ssr:stedsnr" v="272685" />
	</node>
	<node id="-832284" lat="63.5492583351" lon="9.20446943764">
		<tag k="name" v="Sjøorman" />
		<tag k="place" v="locality" />
		<tag k="ssr:stedsnr" v="698470" />
	</node>
	<node id="-832793" lat="63.6102611084" lon="8.77410277128">
		<tag k="name" v="Stabelsmyran" />
		<tag k="natural" v="wetland" />
		<tag k="ssr:stedsnr" v="30951" />
	</node>
	<node id="-834025" lat="63.6439749996" lon="8.99124443957">
		<tag k="name" v="Myra" />
		<tag k="place" v="locality" />
		<tag k="ssr:stedsnr" v="758773" />
	</node>
	<node id="-835350" lat="63.6164972241" lon="9.05759721662">
		<tag k="name" v="Føllmyra" />
		<tag k="natural" v="wetland" />
		<tag k="ssr:stedsnr" v="576028" />
	</node>
	<node id="-835457" lat="63.5172388871" lon="8.72368610539">
		<tag k="name" v="Skogoddbua" />
		<tag k="place" v="locality" />
		<tag k="ssr:stedsnr" v="394819" />
	</node>
	<node id="-836075" lat="63.5854638933" lon="8.44976389079">
		<tag k="name" v="Sommarfjøsmyra" />
		<tag k="natural" v="wetland" />
		<tag k="ssr:stedsnr" v="218286" />
	</node>
	<node id="-835859" lat="63.4570305548" lon="8.57859166475">
		<tag k="name" v="Stordiket" />
		<tag k="natural" v="wetland" />
		<tag k="ssr:stedsnr" v="212217" />
	</node>
	<node id="-835346" lat="63.5115999974" lon="8.9562527745">
		<tag k="name" v="Straumsmyra" />
		<tag k="natural" v="wetland" />
		<tag k="ssr:stedsnr" v="152479" />
	</node>
	<node id="-833808" lat="63.6401416646" lon="8.76149443831">
		<tag k="name" v="Vettaaunet" />
		<tag k="natural" v="wetland" />
		<tag k="ssr:stedsnr" v="879594" />
	</node>
	<node id="-834319" lat="63.5793305586" lon="9.1127027765">
		<tag k="name" v="Vassmyra" />
		<tag k="natural" v="wetland" />
		<tag k="ssr:stedsnr" v="698041" />
	</node>
	<node id="-835853" lat="63.6459583373" lon="9.1568444372">
		<tag k="name" v="Storsandvika" />
		<tag k="place" v="locality" />
		<tag k="ssr:stedsnr" v="879129" />
	</node>
	<node id="-834314" lat="63.4921638897" lon="8.61919167083">
		<tag k="name" v="Vester Havmyran" />
		<tag k="natural" v="wetland" />
		<tag k="ssr:stedsnr" v="879716" />
	</node>
	<node id="-833801" lat="63.6386805565" lon="8.97630278143">
		<tag k="name" v="Melkstaden" />
		<tag k="place" v="locality" />
		<tag k="ssr:stedsnr" v="455871" />
	</node>
	<node id="-833797" lat="63.4378222266" lon="8.36386944343">
		<tag k="name" v="Otterurda" />
		<tag k="natural" v="scree" />
		<tag k="ssr:stedsnr" v="30304" />
	</node>
	<node id="-834820" lat="63.6398555518" lon="8.98465834053">
		<tag k="name" v="Valmyra" />
		<tag k="natural" v="wetland" />
		<tag k="ssr:stedsnr" v="212883" />
	</node>
	<node id="-833152" lat="63.6680722237" lon="9.14173055187">
		<tag k="name" v="Otterurda" />
		<tag k="natural" v="scree" />
		<tag k="ssr:stedsnr" v="30174" />
	</node>
	<node id="-836650" lat="63.5137833303" lon="9.03390000075">
		<tag k="name" v="Botnan" />
		<tag k="natural" v="wetland" />
		<tag k="ssr:stedsnr" v="698406" />
	</node>
	<node id="-834810" lat="63.6322500013" lon="8.98437778421">
		<tag k="name" v="Langfjæra" />
		<tag k="place" v="locality" />
		<tag k="ssr:stedsnr" v="212885" />
	</node>
	<node id="-835967" lat="63.5529333317" lon="9.07147777611">
		<tag k="historic" v="shieling" />
		<tag k="name" v="Aunøysetra" />
		<tag k="place" v="locality" />
		<tag k="ssr:stedsnr" v="820718" />
	</node>
	<node id="-833630" lat="63.4772083291" lon="8.33831666608">
		<tag k="name" v="Presthusmyra" />
		<tag k="natural" v="wetland" />
		<tag k="ssr:stedsnr" v="819399" />
	</node>
	<node id="-832240" lat="63.5705444474" lon="8.89097777761">
		<tag k="name" v="Blåskogvassmyran" />
		<tag k="natural" v="wetland" />
		<tag k="ssr:stedsnr" v="637790" />
	</node>
	<node id="-834286" lat="63.5675722221" lon="8.66633333632">
		<tag k="name" v="Kaltrøa" />
		<tag k="place" v="locality" />
		<tag k="ssr:stedsnr" v="212781" />
	</node>
	<node id="-833120" lat="63.4324555559" lon="8.40469722012">
		<tag k="name" v="Husvassmyra" />
		<tag k="natural" v="wetland" />
		<tag k="ssr:stedsnr" v="880293" />
	</node>
	<node id="-835820" lat="63.5911583376" lon="8.92095277052">
		<tag k="landuse" v="meadow" />
		<tag k="name" v="Stakkenget" />
		<tag k="ssr:stedsnr" v="819834" />
	</node>
	<node id="-833259" lat="63.4697222252" lon="8.44545555652">
		<tag k="name" v="Setermyran" />
		<tag k="natural" v="wetland" />
		<tag k="ssr:stedsnr" v="516482" />
	</node>
	<node id="-835879" lat="63.5731611114" lon="8.5407138822">
		<tag k="name" v="Grønnslokka" />
		<tag k="natural" v="wetland" />
		<tag k="ssr:stedsnr" v="819864" />
	</node>
	<node id="-833253" lat="63.6279277796" lon="8.73079722999">
		<tag k="name" v="Istermyra" />
		<tag k="natural" v="wetland" />
		<tag k="ssr:stedsnr" v="333595" />
	</node>
	<node id="-832891" lat="63.5788361076" lon="8.94335278015">
		<tag k="name" v="Tømmermyra" />
		<tag k="natural" v="wetland" />
		<tag k="ssr:stedsnr" v="636197" />
	</node>
	<node id="-835294" lat="63.4935666648" lon="9.13833889633">
		<tag k="name" v="Hamnabuktmyran" />
		<tag k="natural" v="wetland" />
		<tag k="ssr:stedsnr" v="820631" />
	</node>
	<node id="-832220" lat="63.6487222187" lon="9.16479165926">
		<tag k="name" v="Grøtvika" />
		<tag k="place" v="locality" />
		<tag k="ssr:stedsnr" v="879252" />
	</node>
	<node id="-833600" lat="63.4846083323" lon="8.38058611783">
		<tag k="name" v="Stongskogen" />
		<tag k="place" v="locality" />
		<tag k="ssr:stedsnr" v="273362" />
	</node>
	<node id="-833239" lat="63.5287666663" lon="9.00531388718">
		<tag k="name" v="Meiåsmyra" />
		<tag k="natural" v="wetland" />
		<tag k="ssr:stedsnr" v="92713" />
	</node>
	<node id="-836310" lat="63.5953611132" lon="8.70184166575">
		<tag k="name" v="Åsmyran" />
		<tag k="natural" v="wetland" />
		<tag k="ssr:stedsnr" v="134903" />
	</node>
	<node id="-832803" lat="63.5951444473" lon="8.69998332665">
		<tag k="name" v="Øver Åsmyra" />
		<tag k="natural" v="wetland" />
		<tag k="ssr:stedsnr" v="515556" />
	</node>
	<node id="-832205" lat="63.542508336" lon="8.40395278031">
		<tag k="name" v="Bukta" />
		<tag k="place" v="locality" />
		<tag k="ssr:stedsnr" v="880122" />
	</node>
	<node id="-832715" lat="63.6733888915" lon="9.04869722684">
		<tag k="name" v="Reitan" />
		<tag k="place" v="locality" />
		<tag k="ssr:stedsnr" v="941141" />
	</node>
	<node id="-832201" lat="63.5136805586" lon="8.8291500098">
		<tag k="name" v="Ytter Skogtoppa" />
		<tag k="place" v="locality" />
		<tag k="ssr:stedsnr" v="941840" />
	</node>
	<node id="-833735" lat="63.4365361072" lon="8.46389999471">
		<tag k="name" v="Aspavassmyran" />
		<tag k="natural" v="wetland" />
		<tag k="ssr:stedsnr" v="30288" />
	</node>
	<node id="-834753" lat="63.5352138861" lon="8.81285556167">
		<tag k="name" v="Dalabua" />
		<tag k="place" v="locality" />
		<tag k="ssr:stedsnr" v="212879" />
	</node>
	<node id="-832190" lat="63.5753694432" lon="8.61476944751">
		<tag k="name" v="Munkaunet" />
		<tag k="place" v="locality" />
		<tag k="ssr:stedsnr" v="819993" />
	</node>
	<node id="-836284" lat="63.6112777756" lon="8.95281666589">
		<tag k="name" v="Kjerkmyra" />
		<tag k="natural" v="wetland" />
		<tag k="ssr:stedsnr" v="273859" />
	</node>
	<node id="-836042" lat="63.5763166682" lon="8.73021667448">
		<tag k="name" v="Kvilartolla" />
		<tag k="place" v="locality" />
		<tag k="ssr:stedsnr" v="941740" />
	</node>
	<node id="-832186" lat="63.4433138901" lon="8.39558610935">
		<tag k="name" v="Langmyra" />
		<tag k="natural" v="wetland" />
		<tag k="ssr:stedsnr" v="334238" />
	</node>
	<node id="-832287" lat="63.5884333345" lon="8.63529722432">
		<tag k="name" v="Andersmyra" />
		<tag k="natural" v="wetland" />
		<tag k="ssr:stedsnr" v="273969" />
	</node>
	<node id="-834789" lat="63.5212972228" lon="9.1209583396">
		<tag k="name" v="Aunøymyra" />
		<tag k="natural" v="wetland" />
		<tag k="ssr:stedsnr" v="31360" />
	</node>
	<node id="-835785" lat="63.4646499964" lon="8.61373610668">
		<tag k="name" v="Lonen" />
		<tag k="natural" v="wetland" />
		<tag k="ssr:stedsnr" v="393216" />
	</node>
	<node id="-833203" lat="63.4283777788" lon="8.42768610654">
		<tag k="name" v="Holvikmyra" />
		<tag k="natural" v="wetland" />
		<tag k="ssr:stedsnr" v="273284" />
	</node>
	<node id="-836273" lat="63.5724388866" lon="9.17932222207">
		<tag k="name" v="Urda" />
		<tag k="natural" v="scree" />
		<tag k="ssr:stedsnr" v="456333" />
	</node>
	<node id="-834736" lat="63.5503083349" lon="9.20767778768">
		<tag k="name" v="Kjørarmyra" />
		<tag k="natural" v="wetland" />
		<tag k="ssr:stedsnr" v="941497" />
	</node>
	<node id="-834735" lat="63.6405166641" lon="8.99207776855">
		<tag k="name" v="Notvollan" />
		<tag k="place" v="locality" />
		<tag k="ssr:stedsnr" v="212869" />
	</node>
	<node id="-834734" lat="63.5179749978" lon="9.06264722553">
		<tag k="name" v="Melkstaden" />
		<tag k="place" v="locality" />
		<tag k="ssr:stedsnr" v="637447" />
	</node>
	<node id="-835613" lat="63.5880472261" lon="8.97801665734">
		<tag k="name" v="Tøfta" />
		<tag k="place" v="locality" />
		<tag k="ssr:stedsnr" v="758243" />
	</node>
	<node id="-836264" lat="63.6429527794" lon="9.04801110733">
		<tag k="name" v="Kattholet" />
		<tag k="place" v="locality" />
		<tag k="ssr:stedsnr" v="819075" />
	</node>
	<node id="-835868" lat="63.6301055517" lon="8.98011665925">
		<tag k="name" v="Slåttavika" />
		<tag k="place" v="locality" />
		<tag k="ssr:stedsnr" v="819869" />
	</node>
	<node id="-833701" lat="63.560502777" lon="9.17001665914">
		<tag k="name" v="Seterstormyrstrupen" />
		<tag k="natural" v="wetland" />
		<tag k="ssr:stedsnr" v="577366" />
	</node>
	<node id="-836259" lat="63.4317333341" lon="8.50965833974">
		<tag k="name" v="Stormyra" />
		<tag k="natural" v="wetland" />
		<tag k="ssr:stedsnr" v="212266" />
	</node>
	<node id="-835744" lat="63.5922916636" lon="8.62932777279">
		<tag k="name" v="Sandmyran" />
		<tag k="natural" v="wetland" />
		<tag k="ssr:stedsnr" v="516950" />
	</node>
	<node id="-836400" lat="63.6176277809" lon="8.79666388078">
		<tag k="name" v="Langvassåsmyra" />
		<tag k="natural" v="wetland" />
		<tag k="ssr:stedsnr" v="819950" />
	</node>
	<node id="-833692" lat="63.4354833374" lon="8.4310638898">
		<tag k="name" v="Kvernavassøren" />
		<tag k="natural" v="wetland" />
		<tag k="ssr:stedsnr" v="151307" />
	</node>
	<node id="-836244" lat="63.5317583358" lon="8.41158610394">
		<tag k="name" v="Monsvikmyra" />
		<tag k="natural" v="wetland" />
		<tag k="ssr:stedsnr" v="698368" />
	</node>
	<node id="-835694" lat="63.5508999977" lon="8.71581388578">
		<tag k="name" v="Kvernavassmyran" />
		<tag k="natural" v="wetland" />
		<tag k="ssr:stedsnr" v="273780" />
	</node>
	<node id="-835217" lat="63.6254833338" lon="8.74341389087">
		<tag k="name" v="Kjerkgårdsekra" />
		<tag k="place" v="locality" />
		<tag k="ssr:stedsnr" v="151618" />
	</node>
	<node id="-832144" lat="63.5123277762" lon="8.4090416618">
		<tag k="historic" v="shieling" />
		<tag k="name" v="Brennsetra" />
		<tag k="place" v="locality" />
		<tag k="ssr:stedsnr" v="698430" />
	</node>
	<node id="-836376" lat="63.5584527801" lon="9.17420832705">
		<tag k="name" v="Seterstormyra" />
		<tag k="natural" v="wetland" />
		<tag k="ssr:stedsnr" v="456344" />
	</node>
	<node id="-832654" lat="63.4829166645" lon="8.86154165702">
		<tag k="name" v="Holbekkmyra" />
		<tag k="natural" v="wetland" />
		<tag k="ssr:stedsnr" v="679433" />
	</node>
	<node id="-833165" lat="63.5317583355" lon="9.06618888531">
		<tag k="name" v="Søkkdalsmyra" />
		<tag k="natural" v="wetland" />
		<tag k="ssr:stedsnr" v="334403" />
	</node>
	<node id="-835210" lat="63.532566663" lon="8.71425556473">
		<tag k="name" v="Brennan" />
		<tag k="place" v="locality" />
		<tag k="ssr:stedsnr" v="576822" />
	</node>
	<node id="-836475" lat="63.6245805583" lon="8.70355278202">
		<tag k="name" v="Øver Bårbukta" />
		<tag k="place" v="locality" />
		<tag k="ssr:stedsnr" v="697517" />
	</node>
	<node id="-835720" lat="63.5351638933" lon="8.82071389462">
		<tag k="name" v="Engelskbua" />
		<tag k="place" v="locality" />
		<tag k="ssr:stedsnr" v="819847" />
	</node>
	<node id="-833670" lat="63.6112416685" lon="8.94100278654">
		<tag k="name" v="Liamyra" />
		<tag k="natural" v="wetland" />
		<tag k="ssr:stedsnr" v="455846" />
	</node>
	<node id="-833217" lat="63.4560722224" lon="8.31583889002">
		<tag k="name" v="Jossiasstøa" />
		<tag k="place" v="locality" />
		<tag k="ssr:stedsnr" v="394379" />
	</node>
	<node id="-833156" lat="63.5354444405" lon="8.41776111743">
		<tag k="name" v="Melkstadmyra" />
		<tag k="natural" v="wetland" />
		<tag k="ssr:stedsnr" v="576420" />
	</node>
	<node id="-834179" lat="63.6141694423" lon="8.8223972261">
		<tag k="name" v="Stuamyra" />
		<tag k="natural" v="wetland" />
		<tag k="ssr:stedsnr" v="758806" />
	</node>
	<node id="-834020" lat="63.5490972194" lon="9.15892500922">
		<tag k="name" v="Litlvågmunnen" />
		<tag k="place" v="locality" />
		<tag k="ssr:stedsnr" v="577442" />
	</node>
	<node id="-834688" lat="63.4480194403" lon="8.4493388843">
		<tag k="name" v="Lamyra" />
		<tag k="natural" v="wetland" />
		<tag k="ssr:stedsnr" v="91301" />
	</node>
	<node id="-834687" lat="63.6139361076" lon="8.45882500163">
		<tag k="name" v="Langmyra" />
		<tag k="natural" v="wetland" />
		<tag k="ssr:stedsnr" v="698114" />
	</node>
	<node id="-833148" lat="63.5856916709" lon="8.46858333539">
		<tag k="name" v="Trøa" />
		<tag k="place" v="locality" />
		<tag k="ssr:stedsnr" v="30173" />
	</node>
	<node id="-836219" lat="63.6283277767" lon="8.95567500118">
		<tag k="name" v="Stormyra" />
		<tag k="natural" v="wetland" />
		<tag k="ssr:stedsnr" v="819884" />
	</node>
	<node id="-834170" lat="63.5868305537" lon="8.44562777008">
		<tag k="name" v="Dalamyra" />
		<tag k="natural" v="wetland" />
		<tag k="ssr:stedsnr" v="278673" />
	</node>
	<node id="-833657" lat="63.5856805587" lon="8.44566944342">
		<tag k="name" v="Breimyra" />
		<tag k="natural" v="wetland" />
		<tag k="ssr:stedsnr" v="399664" />
	</node>
	<node id="-834139" lat="63.5596750005" lon="9.16566943913">
		<tag k="name" v="Rekstermyra" />
		<tag k="natural" v="wetland" />
		<tag k="ssr:stedsnr" v="274325" />
	</node>
	<node id="-832115" lat="63.5844166698" lon="8.95957500436">
		<tag k="name" v="Skagamyran" />
		<tag k="natural" v="wetland" />
		<tag k="ssr:stedsnr" v="394188" />
	</node>
	<node id="-835698" lat="63.4871666627" lon="8.72066389523">
		<tag k="name" v="Aunenget" />
		<tag k="place" v="locality" />
		<tag k="ssr:stedsnr" v="881639" />
	</node>
	<node id="-832622" lat="63.6652305589" lon="9.1565999956">
		<tag k="name" v="Herøysanden" />
		<tag k="place" v="locality" />
		<tag k="ssr:stedsnr" v="30083" />
	</node>
	<node id="-836205" lat="63.5796694456" lon="8.90515277819">
		<tag k="name" v="Øver Stormyra" />
		<tag k="natural" v="wetland" />
		<tag k="ssr:stedsnr" v="880824" />
	</node>
	<node id="-833298" lat="63.5781194443" lon="9.1352833349">
		<tag k="name" v="Alvoret" />
		<tag k="place" v="locality" />
		<tag k="ssr:stedsnr" v="31053" />
	</node>
	<node id="-835690" lat="63.5959583332" lon="8.68798332739">
		<tag k="name" v="Geitfjøset" />
		<tag k="place" v="locality" />
		<tag k="ssr:stedsnr" v="454575" />
	</node>
	<node id="-832617" lat="63.4773944425" lon="8.40394166219">
		<tag k="name" v="Snekkvikmarka" />
		<tag k="place" v="locality" />
		<tag k="ssr:stedsnr" v="758511" />
	</node>
	<node id="-832229" lat="63.6095388909" lon="8.59172222728">
		<tag k="name" v="Djupmyran" />
		<tag k="natural" v="wetland" />
		<tag k="ssr:stedsnr" v="880962" />
	</node>
	<node id="-835171" lat="63.6217805563" lon="8.6687361177">
		<tag k="name" v="Valmyra" />
		<tag k="place" v="locality" />
		<tag k="ssr:stedsnr" v="30582" />
	</node>
	<node id="-835682" lat="63.6132361128" lon="8.6265222302">
		<tag k="name" v="Pølmyra" />
		<tag k="natural" v="wetland" />
		<tag k="ssr:stedsnr" v="334914" />
	</node>
	<node id="-833633" lat="63.6204333302" lon="8.96934999115">
		<tag k="name" v="Gammelgården" />
		<tag k="place" v="locality" />
		<tag k="ssr:stedsnr" v="455826" />
	</node>
	<node id="-832096" lat="63.5944416679" lon="8.57815555256">
		<tag k="name" v="Tobbdiket" />
		<tag k="natural" v="wetland" />
		<tag k="ssr:stedsnr" v="880941" />
	</node>
	<node id="-835678" lat="63.5847999984" lon="8.70775278374">
		<tag k="name" v="Stormyra" />
		<tag k="natural" v="wetland" />
		<tag k="ssr:stedsnr" v="620581" />
	</node>
	<node id="-835002" lat="63.5191277806" lon="8.48326110873">
		<tag k="name" v="Fjellmyra" />
		<tag k="natural" v="wetland" />
		<tag k="ssr:stedsnr" v="620504" />
	</node>
	<node id="-832602" lat="63.4506722224" lon="8.39330278525">
		<tag k="name" v="Liamyra" />
		<tag k="natural" v="wetland" />
		<tag k="ssr:stedsnr" v="212439" />
	</node>
	<node id="-835343" lat="63.4494611154" lon="8.58888333404">
		<tag k="name" v="Vikan" />
		<tag k="place" v="locality" />
		<tag k="ssr:stedsnr" v="151648" />
	</node>
	<node id="-836694" lat="63.4390722211" lon="8.38331945091">
		<tag k="name" v="Myran" />
		<tag k="natural" v="wetland" />
		<tag k="ssr:stedsnr" v="783971" />
	</node>
	<node id="-833619" lat="63.6089944452" lon="8.65083333963">
		<tag k="name" v="Trollurda" />
		<tag k="natural" v="scree" />
		<tag k="ssr:stedsnr" v="272532" />
	</node>
	<node id="-832099" lat="63.6131972179" lon="8.6171666705">
		<tag k="name" v="Damman" />
		<tag k="natural" v="wetland" />
		<tag k="ssr:stedsnr" v="273939" />
	</node>
	<node id="-832501" lat="63.5290611127" lon="8.43741110656">
		<tag k="name" v="Rekstermyra" />
		<tag k="natural" v="wetland" />
		<tag k="ssr:stedsnr" v="212418" />
	</node>
	<node id="-834744" lat="63.546372219" lon="8.9807749996">
		<tag k="name" v="Kvilarrommet" />
		<tag k="place" v="locality" />
		<tag k="ssr:stedsnr" v="212881" />
	</node>
	<node id="-836621" lat="63.6109805555" lon="8.75252500921">
		<tag k="name" v="Stormyra" />
		<tag k="natural" v="wetland" />
		<tag k="ssr:stedsnr" v="880913" />
	</node>
	<node id="-835147" lat="63.6006361106" lon="8.97289722823">
		<tag k="name" v="Dyet" />
		<tag k="natural" v="wetland" />
		<tag k="ssr:stedsnr" v="516843" />
	</node>
	<node id="-836170" lat="63.6074277755" lon="8.63900832725">
		<tag k="name" v="Sjømyra" />
		<tag k="natural" v="wetland" />
		<tag k="ssr:stedsnr" v="394930" />
	</node>
	<node id="-836681" lat="63.5819416708" lon="8.79941944183">
		<tag k="name" v="Kropplimyra" />
		<tag k="natural" v="wetland" />
		<tag k="ssr:stedsnr" v="680393" />
	</node>
	<node id="-833608" lat="63.6393999976" lon="9.13973888281">
		<tag k="name" v="Steinvika" />
		<tag k="place" v="locality" />
		<tag k="ssr:stedsnr" v="455012" />
	</node>
	<node id="-835681" lat="63.6261222195" lon="8.91785554677">
		<tag k="name" v="Eidsmyra" />
		<tag k="natural" v="wetland" />
		<tag k="ssr:stedsnr" v="273778" />
	</node>
	<node id="-835649" lat="63.5577277745" lon="9.05487222774">
		<tag k="name" v="Svartholet" />
		<tag k="place" v="locality" />
		<tag k="ssr:stedsnr" v="698258" />
	</node>
	<node id="-832064" lat="63.6340638861" lon="8.67949721996">
		<tag k="name" v="Grønmyra" />
		<tag k="natural" v="wetland" />
		<tag k="ssr:stedsnr" v="134951" />
	</node>
	<node id="-835680" lat="63.5672666672" lon="8.70974165716">
		<tag k="name" v="Haltlandet" />
		<tag k="place" v="locality" />
		<tag k="ssr:stedsnr" v="880776" />
	</node>
	<node id="-832573" lat="63.6138111143" lon="8.72109166307">
		<tag k="name" v="Kråkreirmyra" />
		<tag k="natural" v="wetland" />
		<tag k="ssr:stedsnr" v="637916" />
	</node>
	<node id="-835644" lat="63.5762444419" lon="8.94573888354">
		<tag k="name" v="Inner Baråsmyra" />
		<tag k="natural" v="wetland" />
		<tag k="ssr:stedsnr" v="274630" />
	</node>
	<node id="-834107" lat="63.572047221" lon="9.18529166288">
		<tag k="name" v="Spontermyra" />
		<tag k="natural" v="wetland" />
		<tag k="ssr:stedsnr" v="881313" />
	</node>
	<node id="-832057" lat="63.5849555595" lon="8.6394166756">
		<tag k="name" v="Slaskomyra" />
		<tag k="natural" v="wetland" />
		<tag k="ssr:stedsnr" v="636955" />
	</node>
	<node id="-832568" lat="63.5967111106" lon="8.70135000214">
		<tag k="name" v="Ner Åsmyra" />
		<tag k="natural" v="wetland" />
		<tag k="ssr:stedsnr" v="758596" />
	</node>
	<node id="-833079" lat="63.4953166646" lon="8.35709444467">
		<tag k="name" v="Matmyra" />
		<tag k="natural" v="wetland" />
		<tag k="ssr:stedsnr" v="394353" />
	</node>
	<node id="-834057" lat="63.6160111076" lon="8.69176389368">
		<tag k="name" v="Stormyra" />
		<tag k="natural" v="wetland" />
		<tag k="ssr:stedsnr" v="334568" />
	</node>
	<node id="-832350" lat="63.4712944464" lon="8.44319166722">
		<tag k="name" v="Hyttmyran" />
		<tag k="natural" v="wetland" />
		<tag k="ssr:stedsnr" v="698460" />
	</node>
	<node id="-836144" lat="63.54352222" lon="8.7328611124">
		<tag k="name" v="Stormyra" />
		<tag k="natural" v="wetland" />
		<tag k="ssr:stedsnr" v="151777" />
	</node>
	<node id="-835119" lat="63.5073055524" lon="8.3805583386">
		<tag k="name" v="Langmyra" />
		<tag k="natural" v="wetland" />
		<tag k="ssr:stedsnr" v="636679" />
	</node>
	<node id="-836142" lat="63.4917944472" lon="8.36942222253">
		<tag k="name" v="Kovass-skogan" />
		<tag k="place" v="locality" />
		<tag k="ssr:stedsnr" v="698326" />
	</node>
	<node id="-832557" lat="63.5040944441" lon="8.92491388269">
		<tag k="name" v="Kolaskogen" />
		<tag k="place" v="locality" />
		<tag k="ssr:stedsnr" v="759436" />
	</node>
	<node id="-832554" lat="63.5665361073" lon="8.98175833999">
		<tag k="name" v="Seterhalsen" />
		<tag k="place" v="locality" />
		<tag k="ssr:stedsnr" v="92671" />
	</node>
	<node id="-836649" lat="63.4994416686" lon="8.80224445416">
		<tag k="name" v="Svartholet" />
		<tag k="place" v="locality" />
		<tag k="ssr:stedsnr" v="30815" />
	</node>
	<node id="-836648" lat="63.6284250003" lon="8.96727500248">
		<tag k="name" v="Jevika" />
		<tag k="place" v="locality" />
		<tag k="ssr:stedsnr" v="151862" />
	</node>
	<node id="-835415" lat="63.6027555558" lon="8.94527222838">
		<tag k="name" v="Djupmyra" />
		<tag k="natural" v="wetland" />
		<tag k="ssr:stedsnr" v="576865" />
	</node>
	<node id="-833840" lat="63.5420555533" lon="8.73805276833">
		<tag k="name" v="Meiholet" />
		<tag k="place" v="locality" />
		<tag k="ssr:stedsnr" v="758769" />
	</node>
	<node id="-835675" lat="63.6137833374" lon="9.08236110871">
		<tag k="name" v="Sollimyran" />
		<tag k="natural" v="wetland" />
		<tag k="ssr:stedsnr" v="377316" />
	</node>
	<node id="-832541" lat="63.5802861085" lon="8.4575333238">
		<tag k="name" v="Stormyra" />
		<tag k="natural" v="wetland" />
		<tag k="ssr:stedsnr" v="30155" />
	</node>
	<node id="-836186" lat="63.5819888871" lon="8.41275278229">
		<tag k="name" v="Grasskogmyra" />
		<tag k="natural" v="wetland" />
		<tag k="ssr:stedsnr" v="880030" />
	</node>
	<node id="-835610" lat="63.5906944483" lon="8.62468055221">
		<tag k="name" v="Vermyra" />
		<tag k="natural" v="wetland" />
		<tag k="ssr:stedsnr" v="516949" />
	</node>
	<node id="-833561" lat="63.4490499975" lon="8.57539167466">
		<tag k="name" v="Postmyra" />
		<tag k="natural" v="wetland" />
		<tag k="ssr:stedsnr" v="30262" />
	</node>
	<node id="-834583" lat="63.5769111126" lon="8.90626943997">
		<tag k="name" v="Ner Stormyra" />
		<tag k="natural" v="wetland" />
		<tag k="ssr:stedsnr" v="334690" />
	</node>
	<node id="-836630" lat="63.6150055519" lon="8.61456111695">
		<tag k="name" v="Lomsmyra" />
		<tag k="natural" v="wetland" />
		<tag k="ssr:stedsnr" v="880911" />
	</node>
	<node id="-832601" lat="63.4356250035" lon="8.45961111789">
		<tag k="name" v="Dyrmyra" />
		<tag k="natural" v="wetland" />
		<tag k="ssr:stedsnr" v="394280" />
	</node>
	<node id="-835896" lat="63.5484388928" lon="8.55697500754">
		<tag k="name" v="Skjåmyra" />
		<tag k="place" v="locality" />
		<tag k="ssr:stedsnr" v="30702" />
	</node>
	<node id="-835091" lat="63.5701194427" lon="8.83122778736">
		<tag k="name" v="Per-stakkenget" />
		<tag k="place" v="locality" />
		<tag k="ssr:stedsnr" v="334788" />
	</node>
	<node id="-836114" lat="63.5478555589" lon="8.48889166439">
		<tag k="name" v="Gaddheimyra" />
		<tag k="natural" v="wetland" />
		<tag k="ssr:stedsnr" v="273007" />
	</node>
	<node id="-832528" lat="63.6121749961" lon="8.73772223107">
		<tag k="name" v="Gruvmyra" />
		<tag k="natural" v="wetland" />
		<tag k="ssr:stedsnr" v="637932" />
	</node>
	<node id="-833551" lat="63.5311583374" lon="8.37566666162">
		<tag k="name" v="Trøa" />
		<tag k="place" v="locality" />
		<tag k="ssr:stedsnr" v="394441" />
	</node>
	<node id="-834574" lat="63.5167249966" lon="8.44519721687">
		<tag k="name" v="Fallmyra" />
		<tag k="natural" v="wetland" />
		<tag k="ssr:stedsnr" v="317466" />
	</node>
	<node id="-832173" lat="63.4921333352" lon="8.35645555317">
		<tag k="name" v="Kovassmyran" />
		<tag k="natural" v="wetland" />
		<tag k="ssr:stedsnr" v="212361" />
	</node>
	<node id="-836439" lat="63.5625750022" lon="8.76864722766">
		<tag k="name" v="Eintrøa" />
		<tag k="place" v="locality" />
		<tag k="ssr:stedsnr" v="30779" />
	</node>
	<node id="-835080" lat="63.5878861086" lon="8.44276666532">
		<tag k="name" v="Kavringmyra" />
		<tag k="natural" v="wetland" />
		<tag k="ssr:stedsnr" v="642661" />
	</node>
	<node id="-834800" lat="63.6672527784" lon="9.15386667193">
		<tag k="name" v="Åkervika" />
		<tag k="place" v="locality" />
		<tag k="ssr:stedsnr" v="515070" />
	</node>
	<node id="-832001" lat="63.4301222221" lon="8.48018889306">
		<tag k="name" v="Kaldvelta" />
		<tag k="place" v="locality" />
		<tag k="ssr:stedsnr" v="394269" />
	</node>
</osm>
