<?xml version="1.0" encoding="UTF-8"?>
<osm generator="osmapis" version="0.6">
	<node id="-835569" lat="63.5811750018" lon="8.96009165854">
		<tag k="fixme" v="consider highway=path" />
		<tag k="highway" v="track" />
		<tag k="name" v="Skogkleiva" />
		<tag k="ssr:stedsnr" v="575197" />
	</node>
	<node id="-833134" lat="63.6671861108" lon="9.14285832939">
		<tag k="highway" v="path" />
		<tag k="name" v="Naustkleiva" />
		<tag k="ssr:stedsnr" v="30175" />
	</node>
	<node id="-833382" lat="63.5197055533" lon="9.10961944574">
		<tag k="barrier" v="toll_booth" />
		<tag k="name" v="Sandstad" />
		<tag k="ssr:stedsnr" v="412513" />
	</node>
	<node id="-832484" lat="63.6537944431" lon="9.13343610238">
		<tag k="man_made" v="quay" />
		<tag k="name" v="Nordbotn (Nesa)" />
		<tag k="place" v="locality" />
		<tag k="ssr:stedsnr" v="636121" />
	</node>
	<node id="-831971" lat="63.439922218" lon="8.37989722587">
		<tag k="highway" v="path" />
		<tag k="name" v="Dalen" />
		<tag k="ssr:stedsnr" v="516337" />
	</node>
	<node id="-835170" lat="63.6323305571" lon="8.97362777588">
		<tag k="ford" v="yes" />
		<tag k="name" v="Vadet" />
		<tag k="place" v="locality" />
		<tag k="ssr:stedsnr" v="879857" />
	</node>
	<node id="-833504" lat="63.5203222224" lon="9.05948610949">
		<tag k="highway" v="path" />
		<tag k="name" v="Hjorthaugkleiva" />
		<tag k="ssr:stedsnr" v="213449" />
	</node>
	<node id="-834527" lat="63.4858249985" lon="8.29304444305">
		<tag k="leisure" v="marina" />
		<tag k="name" v="Risøysundet" />
		<tag k="ssr:stedsnr" v="940620" />
	</node>
	<node id="-834522" lat="63.4631999982" lon="8.41869165889">
		<tag k="highway" v="path" />
		<tag k="name" v="Brekka" />
		<tag k="ssr:stedsnr" v="941449" />
	</node>
	<node id="-835801" lat="63.60986111" lon="8.93359721891">
		<tag k="highway" v="path" />
		<tag k="name" v="Eidskleiva" />
		<tag k="ssr:stedsnr" v="394866" />
	</node>
	<node id="-834520" lat="63.5247277765" lon="9.08571667221">
		<tag k="name" v="Grønndiket" />
		<tag k="ssr:stedsnr" v="881390" />
		<tag k="waterway" v="canal" />
	</node>
	<node id="-834385" lat="63.51468333" lon="9.05863056314">
		<tag k="highway" v="path" />
		<tag k="name" v="Stien" />
		<tag k="ssr:stedsnr" v="820423" />
	</node>
	<node id="-833100" lat="63.5842444426" lon="8.4572611067">
		<tag k="name" v="Hamna" />
		<tag k="place" v="locality" />
		<tag k="ssr:stedsnr" v="886293" />
	</node>
	<node id="-832716" lat="63.5789749994" lon="8.45837500641">
		<tag k="man_made" v="quay" />
		<tag k="name" v="Valen" />
		<tag k="place" v="locality" />
		<tag k="ssr:stedsnr" v="273202" />
	</node>
	<node id="-832095" lat="63.5692805568" lon="8.4311888814">
		<tag k="name" v="Svinhusstøa" />
		<tag k="place" v="locality" />
		<tag k="ssr:stedsnr" v="825210" />
	</node>
	<node id="-835126" lat="63.6002833343" lon="8.73213611281">
		<tag k="highway" v="path" />
		<tag k="name" v="Straumsvegen" />
		<tag k="ssr:stedsnr" v="90543" />
	</node>
	<node id="-833842" lat="63.6123972216" lon="9.26807221695">
		<tag k="barrier" v="toll_booth" />
		<tag k="name" v="Grensa" />
		<tag k="ssr:stedsnr" v="654568" />
	</node>
	<node id="-834470" lat="63.4287361077" lon="8.40726666149">
		<tag k="amenity" v="ferry_terminal" />
		<tag k="name" v="Forsnes ferjekai" />
		<tag k="ssr:stedsnr" v="704854" />
	</node>
	<node id="-832029" lat="63.4720305521" lon="8.70055833675">
		<tag k="name" v="Lensmannssvingen" />
		<tag k="place" v="locality" />
		<tag k="ssr:stedsnr" v="213282" />
	</node>
	<node id="-833944" lat="63.6142250029" lon="8.65158887906">
		<tag k="ford" v="yes" />
		<tag k="name" v="Vadet" />
		<tag k="place" v="locality" />
		<tag k="ssr:stedsnr" v="334563" />
	</node>
	<node id="-835991" lat="63.4479361144" lon="8.38532777243">
		<tag k="bridge" v="yes" />
		<tag k="layer" v="1" />
		<tag k="name" v="Kjørstadbrua" />
		<tag k="ssr:stedsnr" v="758300" />
	</node>
	<node id="-834577" lat="63.6184083368" lon="8.71509722144">
		<tag k="fixme" v="consider highway=path" />
		<tag k="highway" v="track" />
		<tag k="name" v="Parelistolen" />
		<tag k="ssr:stedsnr" v="758929" />
	</node>
	<node id="-832394" lat="63.5815611105" lon="8.420869454">
		<tag k="name" v="Jekta" />
		<tag k="place" v="locality" />
		<tag k="ssr:stedsnr" v="400262" />
	</node>
	<node id="-834050" lat="63.4573111133" lon="8.38993610486">
		<tag k="highway" v="path" />
		<tag k="name" v="Raudvegen" />
		<tag k="ssr:stedsnr" v="880437" />
	</node>
</osm>
