<?xml version="1.0" encoding="UTF-8"?>
<osm generator="osmapis" version="0.6">
	<node id="-833536" lat="63.4270888867" lon="8.47345554817">
		<tag k="name" v="Trøa" />
		<tag k="place" v="farm" />
		<tag k="ssr:stedsnr" v="802088" />
	</node>
	<node id="-835581" lat="63.6336527806" lon="8.77407222889">
		<tag k="name" v="Vikstrøm" />
		<tag k="place" v="farm" />
		<tag k="ssr:stedsnr" v="424707" />
	</node>
	<node id="-835577" lat="63.4781499956" lon="8.76102778546">
		<tag k="name" v="Vågen Kamping" />
		<tag k="ssr:stedsnr" v="274617" />
		<tag k="tourism" v="camp_site" />
	</node>
	<node id="-835576" lat="63.4987391077" lon="8.96453273937">
		<tag k="fixme" v="consider place=hamlet" />
		<tag k="name" v="Hamna" />
		<tag k="place" v="farm" />
		<tag k="ssr:stedsnr" v="619501" />
	</node>
	<node id="-833526" lat="63.4892666634" lon="8.30438889405">
		<tag k="name" v="Strauman" />
		<tag k="place" v="farm" />
		<tag k="ssr:stedsnr" v="558096" />
	</node>
	<node id="-835573" lat="63.6229805536" lon="8.70483889761">
		<tag k="name" v="Fredly" />
		<tag k="place" v="farm" />
		<tag k="ssr:stedsnr" v="559926" />
	</node>
	<node id="-833523" lat="63.5911027804" lon="8.58763054659">
		<tag k="name" v="Einabu" />
		<tag k="place" v="isolated_dwelling" />
		<tag k="ssr:stedsnr" v="498904" />
	</node>
	<node id="-833521" lat="63.5506750031" lon="8.53881111991">
		<tag k="name" v="Langdalen" />
		<tag k="place" v="farm" />
		<tag k="ssr:stedsnr" v="802632" />
	</node>
	<node id="-833517" lat="63.551347224" lon="8.47048333524">
		<tag k="name" v="Stormyra" />
		<tag k="place" v="farm" />
		<tag k="ssr:stedsnr" v="377569" />
	</node>
	<node id="-833512" lat="63.6199750038" lon="8.65990833745">
		<tag k="alt_name" v="Svalgresset" />
		<tag k="name" v="Svalgraset" />
		<tag k="place" v="farm" />
		<tag k="ssr:stedsnr" v="195906" />
	</node>
	<node id="-833511" lat="63.6168166625" lon="8.56284167205">
		<tag k="fixme" v="consider place=hamlet" />
		<tag k="name" v="Langøya" />
		<tag k="place" v="farm" />
		<tag k="ssr:stedsnr" v="91905" />
	</node>
	<node id="-835547" lat="63.5053611139" lon="8.98348054745">
		<tag k="name" v="Nordgården" />
		<tag k="place" v="farm" />
		<tag k="ssr:stedsnr" v="92312" />
	</node>
	<node id="-835545" lat="63.4902999997" lon="8.26530277988">
		<tag k="name" v="Posten" />
		<tag k="place" v="farm" />
		<tag k="ssr:stedsnr" v="862098" />
	</node>
	<node id="-833493" lat="63.5945333289" lon="9.10908889042">
		<tag k="name" v="Ulvvær" />
		<tag k="place" v="farm" />
		<tag k="ssr:stedsnr" v="862378" />
	</node>
	<node id="-833490" lat="63.6397694459" lon="9.12382777453">
		<tag k="historic" v="shieling" />
		<tag k="name" v="Gammelsetra" />
		<tag k="place" v="locality" />
		<tag k="ssr:stedsnr" v="455008" />
	</node>
	<node id="-835235" lat="63.5224800011" lon="9.09541982706">
		<tag k="fixme" v="consider place=hamlet" />
		<tag k="name" v="Sandstad" />
		<tag k="place" v="village" />
		<tag k="ssr:stedsnr" v="741509" />
	</node>
	<node id="-835529" lat="63.5486805523" lon="9.13358055553">
		<tag k="alt_name" v="Grønlia" />
		<tag k="name" v="Grønli" />
		<tag k="place" v="farm" />
		<tag k="ssr:stedsnr" v="316525" />
	</node>
	<node id="-835528" lat="63.633151397" lon="9.14495340155">
		<tag k="fixme" v="consider place=hamlet" />
		<tag k="name" v="Fjellvær" />
		<tag k="place" v="farm" />
		<tag k="ssr:stedsnr" v="377297" />
	</node>
	<node id="-833478" lat="63.5851149361" lon="8.60592000603">
		<tag k="fixme" v="consider place=hamlet" />
		<tag k="name" v="Hestnes" />
		<tag k="place" v="farm" />
		<tag k="ssr:stedsnr" v="86998" />
	</node>
	<node id="-835525" lat="63.4675083315" lon="8.65285000561">
		<tag k="name" v="Skogli" />
		<tag k="place" v="farm" />
		<tag k="ssr:stedsnr" v="941664" />
	</node>
	<node id="-835522" lat="63.4777666642" lon="8.7479083324">
		<tag k="name" v="Oldervika" />
		<tag k="place" v="farm" />
		<tag k="ssr:stedsnr" v="108763" />
	</node>
	<node id="-835521" lat="63.6375666653" lon="8.80090277278">
		<tag k="name" v="Kvernhusvika" />
		<tag k="place" v="farm" />
		<tag k="ssr:stedsnr" v="272927" />
	</node>
	<node id="-835520" lat="63.58325" lon="8.65196666701">
		<tag k="name" v="Bakkan" />
		<tag k="place" v="farm" />
		<tag k="ssr:stedsnr" v="438631" />
	</node>
	<node id="-835518" lat="63.6644333348" lon="9.10366389304">
		<tag k="name" v="Sandvika" />
		<tag k="place" v="isolated_dwelling" />
		<tag k="ssr:stedsnr" v="212165" />
	</node>
	<node id="-833468" lat="63.6025611138" lon="8.97453889664">
		<tag k="amenity" v="school" />
		<tag k="name" v="Fillan skole" />
		<tag k="ssr:stedsnr" v="952748" />
	</node>
	<node id="-835515" lat="63.4837138903" lon="8.76467499815">
		<tag k="name" v="Myrset" />
		<tag k="place" v="farm" />
		<tag k="ssr:stedsnr" v="315434" />
	</node>
	<node id="-835514" lat="63.5851861146" lon="8.97120833948">
		<tag k="name" v="Hammarvika" />
		<tag k="place" v="farm" />
		<tag k="ssr:stedsnr" v="515203" />
	</node>
	<node id="-835502" lat="63.5942944486" lon="8.9710527821">
		<tag k="fixme" v="consider place=hamlet" />
		<tag k="name" v="Haugen" />
		<tag k="place" v="farm" />
		<tag k="ssr:stedsnr" v="515201" />
	</node>
	<node id="-833452" lat="63.5712944454" lon="8.68304444046">
		<tag k="name" v="Sundbu" />
		<tag k="place" v="isolated_dwelling" />
		<tag k="ssr:stedsnr" v="377563" />
	</node>
	<node id="-835490" lat="63.5334805523" lon="9.13101666066">
		<tag k="name" v="Grøttem" />
		<tag k="place" v="farm" />
		<tag k="ssr:stedsnr" v="316512" />
	</node>
	<node id="-833440" lat="63.4273972217" lon="8.46275555385">
		<tag k="name" v="Trøa" />
		<tag k="place" v="farm" />
		<tag k="ssr:stedsnr" v="334469" />
	</node>
	<node id="-835487" lat="63.6168709989" lon="8.8479316435">
		<tag k="alt_name" v="Aune" />
		<tag k="name" v="Aunet" />
		<tag k="place" v="farm" />
		<tag k="ssr:stedsnr" v="394812" />
	</node>
	<node id="-833431" lat="63.6010833303" lon="8.68714721991">
		<tag k="alt_name" v="Leikvam Ø." />
		<tag k="name" v="Leikvam" />
		<tag k="place" v="farm" />
		<tag k="ssr:stedsnr" v="498900" />
	</node>
	<node id="-835475" lat="63.6309277789" lon="9.0353750089">
		<tag k="alt_name" v="Fætten" />
		<tag k="fixme" v="consider place=hamlet" />
		<tag k="name" v="Feten" />
		<tag k="place" v="farm" />
		<tag k="ssr:stedsnr" v="377291" />
	</node>
	<node id="-835458" lat="63.6163094339" lon="9.08958438471">
		<tag k="alt_name" v="Sørsæter" />
		<tag k="fixme" v="consider place=hamlet" />
		<tag k="name" v="Sørsætra" />
		<tag k="place" v="farm" />
		<tag k="ssr:stedsnr" v="256300" />
	</node>
	<node id="-833409" lat="63.4634972217" lon="8.6373111024">
		<tag k="name" v="Karvevollen" />
		<tag k="place" v="farm" />
		<tag k="ssr:stedsnr" v="30232" />
	</node>
	<node id="-833406" lat="63.6262666656" lon="8.73440833584">
		<tag k="name" v="Ner Meland" />
		<tag k="place" v="farm" />
		<tag k="ssr:stedsnr" v="212595" />
	</node>
	<node id="-836245" lat="63.559869445" lon="8.75026110122">
		<tag k="name" v="Øra" />
		<tag k="place" v="farm" />
		<tag k="ssr:stedsnr" v="151788" />
	</node>
	<node id="-835445" lat="63.483658334" lon="8.33491945412">
		<tag k="name" v="Utenga" />
		<tag k="place" v="farm" />
		<tag k="ssr:stedsnr" v="862075" />
	</node>
	<node id="-835444" lat="63.4968277752" lon="8.9533500065">
		<tag k="alt_name" v="Hamnavollen" />
		<tag k="name" v="Hamnavollan" />
		<tag k="place" v="farm" />
		<tag k="ssr:stedsnr" v="152492" />
	</node>
	<node id="-833395" lat="63.5892693113" lon="8.86486022785">
		<tag k="name" v="Haraneset" />
		<tag k="place" v="farm" />
		<tag k="ssr:stedsnr" v="195396" />
	</node>
	<node id="-833391" lat="63.4624916676" lon="8.62699444374">
		<tag k="name" v="Brattåa" />
		<tag k="place" v="farm" />
		<tag k="ssr:stedsnr" v="90196" />
	</node>
	<node id="-835435" lat="63.6329083329" lon="9.15082499685">
		<tag k="name" v="Litlevågen" />
		<tag k="place" v="farm" />
		<tag k="ssr:stedsnr" v="334023" />
	</node>
	<node id="-833386" lat="63.6343944434" lon="9.05224999747">
		<tag k="name" v="Stranda" />
		<tag k="place" v="farm" />
		<tag k="ssr:stedsnr" v="90195" />
	</node>
	<node id="-835425" lat="63.5888138927" lon="8.83236388486">
		<tag k="name" v="Nordøverdalen" />
		<tag k="place" v="farm" />
		<tag k="ssr:stedsnr" v="394799" />
	</node>
	<node id="-835423" lat="63.6246777604" lon="9.0306253687">
		<tag k="fixme" v="consider place=hamlet" />
		<tag k="name" v="Akset" />
		<tag k="place" v="farm" />
		<tag k="ssr:stedsnr" v="377276" />
	</node>
	<node id="-835421" lat="63.51648056" lon="8.30869166632">
		<tag k="alt_name" v="Ytre Kvennvær" />
		<tag k="amenity" v="school" />
		<tag k="name" v="Kvenvær oppvekstsenter" />
		<tag k="ssr:stedsnr" v="91439" />
	</node>
	<node id="-833467" lat="63.4444527744" lon="8.36945554847">
		<tag k="name" v="Nordaune" />
		<tag k="place" v="farm" />
		<tag k="ssr:stedsnr" v="819372" />
	</node>
	<node id="-833365" lat="63.6062749987" lon="8.85451111517">
		<tag k="name" v="Fausland" />
		<tag k="place" v="farm" />
		<tag k="ssr:stedsnr" v="620310" />
	</node>
	<node id="-833362" lat="63.429005557" lon="8.53178889802">
		<tag k="name" v="Bekkvika" />
		<tag k="place" v="farm" />
		<tag k="ssr:stedsnr" v="558066" />
	</node>
	<node id="-833360" lat="63.4272416688" lon="8.48312222062">
		<tag k="name" v="Hundvika" />
		<tag k="place" v="farm" />
		<tag k="ssr:stedsnr" v="334454" />
	</node>
	<node id="-835404" lat="63.4632527817" lon="8.63681110364">
		<tag k="name" v="Voll" />
		<tag k="place" v="farm" />
		<tag k="ssr:stedsnr" v="498107" />
	</node>
	<node id="-835399" lat="63.4301361083" lon="8.47173611206">
		<tag k="name" v="Reitan" />
		<tag k="place" v="farm" />
		<tag k="ssr:stedsnr" v="698238" />
	</node>
	<node id="-835388" lat="63.6258388901" lon="8.8518500095">
		<tag k="name" v="Myra" />
		<tag k="place" v="farm" />
		<tag k="ssr:stedsnr" v="802319" />
	</node>
	<node id="-835387" lat="63.6632777746" lon="9.06654445192">
		<tag k="name" v="Melkvika" />
		<tag k="place" v="farm" />
		<tag k="ssr:stedsnr" v="195637" />
	</node>
	<node id="-835385" lat="63.6355833311" lon="8.83421944249">
		<tag k="name" v="Melkvika" />
		<tag k="place" v="farm" />
		<tag k="ssr:stedsnr" v="680286" />
	</node>
	<node id="-833336" lat="63.4493138867" lon="8.58555556116">
		<tag k="name" v="Stølan" />
		<tag k="place" v="farm" />
		<tag k="ssr:stedsnr" v="575626" />
	</node>
	<node id="-833335" lat="63.450541663" lon="8.35842778756">
		<tag k="name" v="Tunga" />
		<tag k="place" v="farm" />
		<tag k="ssr:stedsnr" v="819349" />
	</node>
	<node id="-835382" lat="63.5941722219" lon="8.97409444275">
		<tag k="fixme" v="consider place=hamlet" />
		<tag k="name" v="Nordre Leirvågan" />
		<tag k="place" v="farm" />
		<tag k="ssr:stedsnr" v="515200" />
	</node>
	<node id="-833312" lat="63.5487944458" lon="9.20113611852">
		<tag k="name" v="Yttergården" />
		<tag k="place" v="farm" />
		<tag k="ssr:stedsnr" v="516493" />
	</node>
	<node id="-835357" lat="63.5638944464" lon="8.74779722759">
		<tag k="name" v="Mittistua" />
		<tag k="place" v="farm" />
		<tag k="ssr:stedsnr" v="394783" />
	</node>
	<node id="-833308" lat="63.5974805554" lon="8.97738333079">
		<tag k="name" v="Oldervik" />
		<tag k="place" v="farm" />
		<tag k="ssr:stedsnr" v="74355" />
	</node>
	<node id="-835354" lat="63.5815371753" lon="9.01631591549">
		<tag k="fixme" v="consider place=hamlet" />
		<tag k="name" v="Skreddarvika" />
		<tag k="place" v="farm" />
		<tag k="ssr:stedsnr" v="619455" />
	</node>
	<node id="-833299" lat="63.5495138893" lon="9.1694222248">
		<tag k="name" v="Bukta" />
		<tag k="place" v="farm" />
		<tag k="ssr:stedsnr" v="863409" />
	</node>
	<node id="-835344" lat="63.6335388868" lon="9.13085277855">
		<tag k="name" v="Stranda" />
		<tag k="place" v="hamlet" />
		<tag k="ssr:stedsnr" v="879010" />
	</node>
	<node id="-833292" lat="63.5556055583" lon="9.14667777441">
		<tag k="name" v="Nordvika" />
		<tag k="place" v="farm" />
		<tag k="ssr:stedsnr" v="863410" />
	</node>
	<node id="-833290" lat="63.6318550296" lon="8.65858573179">
		<tag k="fixme" v="consider place=hamlet" />
		<tag k="name" v="Hjertøya" />
		<tag k="place" v="farm" />
		<tag k="ssr:stedsnr" v="863940" />
	</node>
	<node id="-833289" lat="63.6327666639" lon="8.75934721494">
		<tag k="name" v="Vågen" />
		<tag k="place" v="farm" />
		<tag k="ssr:stedsnr" v="437276" />
	</node>
	<node id="-835336" lat="63.5655444443" lon="8.50800832837">
		<tag k="name" v="Solstad" />
		<tag k="place" v="farm" />
		<tag k="ssr:stedsnr" v="498605" />
	</node>
	<node id="-836684" lat="63.6132388882" lon="8.8432249913">
		<tag k="name" v="Hatland" />
		<tag k="place" v="farm" />
		<tag k="ssr:stedsnr" v="13365" />
	</node>
	<node id="-835328" lat="63.5981388925" lon="8.7279944346">
		<tag k="alt_name" v="Minde" />
		<tag k="name" v="Margrethes Minde" />
		<tag k="old_name" v="Margretes Minne" />
		<tag k="place" v="isolated_dwelling" />
		<tag k="ssr:stedsnr" v="681308" />
	</node>
	<node id="-833277" lat="63.6379979222" lon="8.85536869411">
		<tag k="fixme" v="consider place=hamlet" />
		<tag k="name" v="Honnes" />
		<tag k="place" v="farm" />
		<tag k="ssr:stedsnr" v="971015" />
	</node>
	<node id="-833276" lat="63.5481035579" lon="8.45311981742">
		<tag k="fixme" v="consider place=hamlet" />
		<tag k="name" v="Faksvåg" />
		<tag k="place" v="farm" />
		<tag k="ssr:stedsnr" v="802598" />
	</node>
	<node id="-833272" lat="63.5762722224" lon="8.80763889184">
		<tag k="name" v="Asplia" />
		<tag k="place" v="farm" />
		<tag k="ssr:stedsnr" v="74350" />
	</node>
	<node id="-833271" lat="63.6210416642" lon="8.662013899">
		<tag k="name" v="Risnes" />
		<tag k="place" v="farm" />
		<tag k="ssr:stedsnr" v="333583" />
	</node>
	<node id="-835316" lat="63.6063754702" lon="8.97027375157">
		<tag k="fixme" v="consider place=hamlet" />
		<tag k="name" v="Fillan" />
		<tag k="place" v="farm" />
		<tag k="ssr:stedsnr" v="576858" />
	</node>
	<node id="-833266" lat="63.4323222224" lon="8.49189444712">
		<tag k="name" v="Halsetskardet" />
		<tag k="place" v="farm" />
		<tag k="ssr:stedsnr" v="941245" />
	</node>
	<node id="-835312" lat="63.589694485" lon="8.8657644732">
		<tag k="name" v="Sørdalen" />
		<tag k="place" v="farm" />
		<tag k="ssr:stedsnr" v="394793" />
	</node>
	<node id="-835309" lat="63.6340416659" lon="9.12977222321">
		<tag k="name" v="Grønningen" />
		<tag k="place" v="farm" />
		<tag k="ssr:stedsnr" v="272018" />
	</node>
	<node id="-835538" lat="63.6265970925" lon="9.11244007861">
		<tag k="fixme" v="consider place=hamlet" />
		<tag k="name" v="Nordsætra" />
		<tag k="place" v="farm" />
		<tag k="ssr:stedsnr" v="802336" />
	</node>
	<node id="-833256" lat="63.5160500044" lon="9.04179999344">
		<tag k="name" v="Terningsmoen" />
		<tag k="place" v="farm" />
		<tag k="ssr:stedsnr" v="680544" />
	</node>
	<node id="-835302" lat="63.6310111069" lon="8.84464166208">
		<tag k="name" v="Ytterbarman" />
		<tag k="place" v="farm" />
		<tag k="ssr:stedsnr" v="212976" />
	</node>
	<node id="-835298" lat="63.6280666659" lon="8.72428332621">
		<tag k="name" v="Skogodden" />
		<tag k="place" v="farm" />
		<tag k="ssr:stedsnr" v="30606" />
	</node>
	<node id="-833249" lat="63.5471638868" lon="9.12572777482">
		<tag k="name" v="Storvågen" />
		<tag k="place" v="farm" />
		<tag k="ssr:stedsnr" v="13491" />
	</node>
	<node id="-835296" lat="63.5733944445" lon="8.65241943934">
		<tag k="name" v="Trøa" />
		<tag k="place" v="farm" />
		<tag k="ssr:stedsnr" v="394775" />
	</node>
	<node id="-835285" lat="63.5587500001" lon="9.12320278145">
		<tag k="name" v="Aunet" />
		<tag k="place" v="farm" />
		<tag k="ssr:stedsnr" v="316487" />
	</node>
	<node id="-835284" lat="63.6450266774" lon="8.83491861197">
		<tag k="fixme" v="consider place=hamlet" />
		<tag k="name" v="Heggåsen" />
		<tag k="place" v="farm" />
		<tag k="ssr:stedsnr" v="802307" />
	</node>
	<node id="-835283" lat="63.6413666654" lon="8.67386389543">
		<tag k="name" v="Oløyan" />
		<tag k="place" v="farm" />
		<tag k="ssr:stedsnr" v="923971" />
	</node>
	<node id="-835282" lat="63.4286147585" lon="8.4748058051">
		<tag k="name" v="Morvollan" />
		<tag k="place" v="farm" />
		<tag k="ssr:stedsnr" v="833721" />
	</node>
	<node id="-835277" lat="63.5755833356" lon="8.64251388207">
		<tag k="fixme" v="consider place=hamlet" />
		<tag k="name" v="Skipnes" />
		<tag k="place" v="farm" />
		<tag k="ssr:stedsnr" v="394771" />
	</node>
	<node id="-835273" lat="63.5399861076" lon="9.13102778203">
		<tag k="name" v="Haugland" />
		<tag k="place" v="farm" />
		<tag k="ssr:stedsnr" v="741532" />
	</node>
	<node id="-835272" lat="63.6232111109" lon="8.72140276911">
		<tag k="name" v="Hopen" />
		<tag k="place" v="farm" />
		<tag k="ssr:stedsnr" v="30603" />
	</node>
	<node id="-833222" lat="63.4540194413" lon="8.60208610197">
		<tag k="name" v="Neset" />
		<tag k="place" v="farm" />
		<tag k="ssr:stedsnr" v="151218" />
	</node>
	<node id="-835269" lat="63.6379944407" lon="9.15753887937">
		<tag k="name" v="Storvågen" />
		<tag k="place" v="farm" />
		<tag k="ssr:stedsnr" v="576017" />
	</node>
	<node id="-835266" lat="63.6234666689" lon="8.72761665939">
		<tag k="name" v="Klokkargården" />
		<tag k="place" v="farm" />
		<tag k="ssr:stedsnr" v="30599" />
	</node>
	<node id="-835262" lat="63.5573083325" lon="8.49260555505">
		<tag k="name" v="Berget" />
		<tag k="place" v="isolated_dwelling" />
		<tag k="ssr:stedsnr" v="334005" />
	</node>
	<node id="-833209" lat="63.5751472211" lon="8.60423333798">
		<tag k="name" v="Aunet" />
		<tag k="place" v="isolated_dwelling" />
		<tag k="ssr:stedsnr" v="681576" />
	</node>
	<node id="-833207" lat="63.6216555594" lon="8.8529194529">
		<tag k="alt_name" v="Lyngvika" />
		<tag k="name" v="Lyngvik" />
		<tag k="place" v="farm" />
		<tag k="ssr:stedsnr" v="74345" />
	</node>
	<node id="-833205" lat="63.6467694414" lon="9.13759722158">
		<tag k="fixme" v="consider place=hamlet" />
		<tag k="name" v="Nordbotn" />
		<tag k="place" v="village" />
		<tag k="ssr:stedsnr" v="753113" />
	</node>
	<node id="-833201" lat="63.4303861111" lon="8.43269723191">
		<tag k="name" v="Auster Engvika" />
		<tag k="place" v="farm" />
		<tag k="ssr:stedsnr" v="819322" />
	</node>
	<node id="-833480" lat="63.5820249898" lon="8.65557811338">
		<tag k="name" v="Asmundvåg" />
		<tag k="place" v="farm" />
		<tag k="ssr:stedsnr" v="256599" />
	</node>
	<node id="-835242" lat="63.6476483533" lon="9.13783549032">
		<tag k="name" v="Nordbotn" />
		<tag k="place" v="farm" />
		<tag k="ssr:stedsnr" v="333130" />
	</node>
	<node id="-835239" lat="63.5742222182" lon="8.80438889543">
		<tag k="name" v="Nordaunet" />
		<tag k="place" v="farm" />
		<tag k="ssr:stedsnr" v="923435" />
	</node>
	<node id="-833187" lat="63.5308277775" lon="8.38459166364">
		<tag k="fixme" v="consider place=hamlet" />
		<tag k="name" v="Stein" />
		<tag k="place" v="farm" />
		<tag k="ssr:stedsnr" v="576440" />
	</node>
	<node id="-833186" lat="63.587319443" lon="8.97383054608">
		<tag k="name" v="Skage" />
		<tag k="place" v="farm" />
		<tag k="ssr:stedsnr" v="151209" />
	</node>
	<node id="-835233" lat="63.6354023244" lon="8.88250337155">
		<tag k="fixme" v="consider place=hamlet" />
		<tag k="name" v="Kjølsøya" />
		<tag k="place" v="farm" />
		<tag k="ssr:stedsnr" v="377252" />
	</node>
	<node id="-835231" lat="63.6216472223" lon="8.69111944338">
		<tag k="name" v="Sveen" />
		<tag k="place" v="farm" />
		<tag k="ssr:stedsnr" v="941577" />
	</node>
	<node id="-833176" lat="63.6436861094" lon="8.83251667543">
		<tag k="name" v="Trøa" />
		<tag k="place" v="farm" />
		<tag k="ssr:stedsnr" v="73282" />
	</node>
	<node id="-833173" lat="63.4392444454" lon="8.38431389827">
		<tag k="name" v="Dalen" />
		<tag k="place" v="farm" />
		<tag k="ssr:stedsnr" v="134020" />
	</node>
	<node id="-833170" lat="63.5493222266" lon="9.16745832371">
		<tag k="name" v="Halten" />
		<tag k="place" v="farm" />
		<tag k="ssr:stedsnr" v="516450" />
	</node>
	<node id="-833167" lat="63.5393111128" lon="9.12184999282">
		<tag k="name" v="Haugen" />
		<tag k="place" v="farm" />
		<tag k="ssr:stedsnr" v="13480" />
	</node>
	<node id="-835212" lat="63.6045472221" lon="8.62406945167">
		<tag k="name" v="Klubbhaugen" />
		<tag k="place" v="farm" />
		<tag k="ssr:stedsnr" v="516862" />
	</node>
	<node id="-833163" lat="63.6355049734" lon="8.98659718174">
		<tag k="fixme" v="consider place=hamlet" />
		<tag k="name" v="Ansnes" />
		<tag k="place" v="farm" />
		<tag k="ssr:stedsnr" v="971009" />
	</node>
	<node id="-833161" lat="63.6480222212" lon="8.75909721687">
		<tag k="alt_name" v="Kjerringvåg, l" />
		<tag k="name" v="Litle Kjerringvåg" />
		<tag k="place" v="farm" />
		<tag k="ssr:stedsnr" v="924245" />
	</node>
	<node id="-833154" lat="63.4299694486" lon="8.41154443822">
		<tag k="name" v="Gullsvika" />
		<tag k="place" v="farm" />
		<tag k="ssr:stedsnr" v="819332" />
	</node>
	<node id="-835200" lat="63.5508777751" lon="8.45596388973">
		<tag k="alt_name" v="Holvika" />
		<tag k="name" v="Holvik" />
		<tag k="place" v="farm" />
		<tag k="ssr:stedsnr" v="862573" />
	</node>
	<node id="-833144" lat="63.5833722211" lon="9.13105278732">
		<tag k="name" v="Oldret" />
		<tag k="place" v="farm" />
		<tag k="ssr:stedsnr" v="152066" />
	</node>
	<node id="-835191" lat="63.5870694467" lon="8.66062222048">
		<tag k="name" v="Fjellvang" />
		<tag k="place" v="farm" />
		<tag k="ssr:stedsnr" v="90554" />
	</node>
	<node id="-833474" lat="63.4967416659" lon="8.2678138848">
		<tag k="name" v="Klubben" />
		<tag k="place" v="isolated_dwelling" />
		<tag k="ssr:stedsnr" v="515674" />
	</node>
	<node id="-835188" lat="63.6210083313" lon="8.73178333623">
		<tag k="building" v="industrial" />
		<tag k="name" v="Vaskeriet" />
		<tag k="ssr:stedsnr" v="395622" />
	</node>
	<node id="-835186" lat="63.5642916649" lon="8.61521665965">
		<tag k="alt_name" v="Hammarvika" />
		<tag k="name" v="Hammarvik" />
		<tag k="place" v="farm" />
		<tag k="ssr:stedsnr" v="862575" />
	</node>
	<node id="-835185" lat="63.655086109" lon="8.80150277458">
		<tag k="name" v="Breivika" />
		<tag k="place" v="farm" />
		<tag k="ssr:stedsnr" v="272865" />
	</node>
	<node id="-833133" lat="63.4396375115" lon="8.32437992141">
		<tag k="fixme" v="consider place=hamlet" />
		<tag k="name" v="Lya" />
		<tag k="place" v="farm" />
		<tag k="ssr:stedsnr" v="134015" />
	</node>
	<node id="-833126" lat="63.536819446" lon="9.12958055341">
		<tag k="name" v="Flatåsen" />
		<tag k="place" v="farm" />
		<tag k="ssr:stedsnr" v="759474" />
	</node>
	<node id="-833125" lat="63.596472363" lon="9.02229105615">
		<tag k="fixme" v="consider place=hamlet" />
		<tag k="name" v="Tranvikan" />
		<tag k="place" v="farm" />
		<tag k="ssr:stedsnr" v="971014" />
	</node>
	<node id="-835169" lat="63.5828919341" lon="8.65741395129">
		<tag k="fixme" v="consider place=hamlet" />
		<tag k="name" v="Asmundvåg" />
		<tag k="place" v="farm" />
		<tag k="ssr:stedsnr" v="90556" />
	</node>
	<node id="-833119" lat="63.6409138915" lon="8.7990666675">
		<tag k="name" v="Stadsvik" />
		<tag k="place" v="farm" />
		<tag k="ssr:stedsnr" v="73277" />
	</node>
	<node id="-833117" lat="63.6103392039" lon="8.85183139012">
		<tag k="alt_name" v="Sveneset" />
		<tag k="fixme" v="consider place=hamlet" />
		<tag k="name" v="Svenes" />
		<tag k="place" v="farm" />
		<tag k="ssr:stedsnr" v="195358" />
	</node>
	<node id="-833115" lat="63.5983128523" lon="8.98110604097">
		<tag k="fixme" v="consider place=hamlet" />
		<tag k="name" v="Oldervika" />
		<tag k="place" v="farm" />
		<tag k="ssr:stedsnr" v="971012" />
	</node>
	<node id="-833113" lat="63.4297888889" lon="8.4242638869">
		<tag k="name" v="Ner Engvika" />
		<tag k="place" v="farm" />
		<tag k="ssr:stedsnr" v="880295" />
	</node>
	<node id="-832450" lat="63.6531583323" lon="8.83367221489">
		<tag k="name" v="Desmyra" />
		<tag k="place" v="farm" />
		<tag k="ssr:stedsnr" v="636990" />
	</node>
	<node id="-833102" lat="63.6393166686" lon="8.82775832962">
		<tag k="alt_name" v="Heggersvika" />
		<tag k="name" v="Heggesvik" />
		<tag k="place" v="farm" />
		<tag k="ssr:stedsnr" v="73275" />
	</node>
	<node id="-833101" lat="63.5095583341" lon="9.00339445406">
		<tag k="name" v="Solvang" />
		<tag k="place" v="farm" />
		<tag k="ssr:stedsnr" v="213377" />
	</node>
	<node id="-835146" lat="63.5583361125" lon="8.58534722039">
		<tag k="alt_name" v="Håvik;Sørhåvika" />
		<tag k="name" v="Håvika" />
		<tag k="place" v="farm" />
		<tag k="ssr:stedsnr" v="74589" />
	</node>
	<node id="-833096" lat="63.5293847517" lon="9.11455801021">
		<tag k="alt_name" v="Moa" />
		<tag k="name" v="Sandstadmoen" />
		<tag k="place" v="farm" />
		<tag k="ssr:stedsnr" v="134546" />
	</node>
	<node id="-835143" lat="63.6454611111" lon="8.71213889464">
		<tag k="alt_name" v="Mattesvika" />
		<tag k="name" v="Mattesvik" />
		<tag k="place" v="farm" />
		<tag k="ssr:stedsnr" v="316984" />
	</node>
	<node id="-833093" lat="63.5038722486" lon="8.37586383838">
		<tag k="fixme" v="consider place=hamlet" />
		<tag k="name" v="Snekkvika" />
		<tag k="place" v="farm" />
		<tag k="ssr:stedsnr" v="741774" />
	</node>
	<node id="-835135" lat="63.5580599149" lon="9.1928157329">
		<tag k="fixme" v="consider place=hamlet" />
		<tag k="name" v="Sætra" />
		<tag k="place" v="farm" />
		<tag k="ssr:stedsnr" v="316469" />
	</node>
	<node id="-833086" lat="63.5356166676" lon="9.13991667292">
		<tag k="name" v="Badstuvika" />
		<tag k="place" v="farm" />
		<tag k="ssr:stedsnr" v="376467" />
	</node>
	<node id="-833084" lat="63.6732805556" lon="9.10170555279">
		<tag k="name" v="Hagan" />
		<tag k="place" v="farm" />
		<tag k="ssr:stedsnr" v="30166" />
	</node>
	<node id="-833076" lat="63.5151138876" lon="8.30480000968">
		<tag k="name" v="Sørneset" />
		<tag k="place" v="farm" />
		<tag k="ssr:stedsnr" v="576407" />
	</node>
	<node id="-835120" lat="63.6768444482" lon="9.05243611797">
		<tag k="name" v="Bakken" />
		<tag k="place" v="farm" />
		<tag k="ssr:stedsnr" v="758181" />
	</node>
	<node id="-833071" lat="63.6207555585" lon="8.92561943957">
		<tag k="name" v="Eidsmo" />
		<tag k="place" v="farm" />
		<tag k="ssr:stedsnr" v="515847" />
	</node>
	<node id="-835165" lat="63.6573388931" lon="9.11924723035">
		<tag k="name" v="Bekkvika" />
		<tag k="place" v="farm" />
		<tag k="ssr:stedsnr" v="863651" />
	</node>
	<node id="-833066" lat="63.5237444488" lon="9.08864722532">
		<tag k="name" v="Sandstaddalen" />
		<tag k="place" v="farm" />
		<tag k="ssr:stedsnr" v="820405" />
	</node>
	<node id="-833063" lat="63.4609249962" lon="8.62093333292">
		<tag k="name" v="Myra" />
		<tag k="place" v="farm" />
		<tag k="ssr:stedsnr" v="801093" />
	</node>
	<node id="-835109" lat="63.6684000018" lon="9.0529194422">
		<tag k="name" v="Trovågen" />
		<tag k="place" v="farm" />
		<tag k="ssr:stedsnr" v="758178" />
	</node>
	<node id="-835107" lat="63.5711249962" lon="9.20341943561">
		<tag k="fixme" v="consider place=hamlet" />
		<tag k="name" v="Børøya" />
		<tag k="place" v="farm" />
		<tag k="ssr:stedsnr" v="559356" />
	</node>
	<node id="-833057" lat="63.5102194422" lon="9.00808889533">
		<tag k="name" v="Kvikne" />
		<tag k="place" v="farm" />
		<tag k="ssr:stedsnr" v="881328" />
	</node>
	<node id="-835101" lat="63.6654111107" lon="9.09140000292">
		<tag k="fixme" v="consider place=suburb, village or hamlet" />
		<tag k="name" v="Kvalvika" />
		<tag k="place" v="quarter" />
		<tag k="ssr:stedsnr" v="758179" />
	</node>
	<node id="-835099" lat="63.614599998" lon="8.62375000192">
		<tag k="alt_name" v="Skjelvika" />
		<tag k="name" v="Skjelvik" />
		<tag k="place" v="farm" />
		<tag k="ssr:stedsnr" v="923948" />
	</node>
	<node id="-833042" lat="63.5084000008" lon="8.99340833426">
		<tag k="name" v="Husberget" />
		<tag k="place" v="farm" />
		<tag k="ssr:stedsnr" v="74479" />
	</node>
	<node id="-835085" lat="63.5757540695" lon="8.99095256194">
		<tag k="alt_name" v="Kalklov" />
		<tag k="fixme" v="consider place=hamlet" />
		<tag k="name" v="Kaldklov" />
		<tag k="place" v="farm" />
		<tag k="ssr:stedsnr" v="316460" />
	</node>
	<node id="-833031" lat="63.6548916648" lon="8.8302694381">
		<tag k="name" v="Rinnarmyra" />
		<tag k="place" v="farm" />
		<tag k="ssr:stedsnr" v="697995" />
	</node>
	<node id="-835841" lat="63.5356642967" lon="9.13133613804">
		<tag k="name" v="Nyvoll" />
		<tag k="place" v="farm" />
		<tag k="ssr:stedsnr" v="619507" />
	</node>
	<node id="-835076" lat="63.4906311746" lon="8.92295336967">
		<tag k="fixme" v="consider place=hamlet" />
		<tag k="name" v="Olsvika" />
		<tag k="place" v="farm" />
		<tag k="ssr:stedsnr" v="740447" />
	</node>
	<node id="-835069" lat="63.61920556" lon="8.65508055295">
		<tag k="name" v="Gautvika" />
		<tag k="place" v="farm" />
		<tag k="ssr:stedsnr" v="30562" />
	</node>
	<node id="-833020" lat="63.54415278" lon="9.15269723045">
		<tag k="name" v="Nordstrand" />
		<tag k="place" v="farm" />
		<tag k="ssr:stedsnr" v="941396" />
	</node>
	<node id="-834132" lat="63.6656717246" lon="9.14700299572">
		<tag k="name" v="Herøya" />
		<tag k="place" v="farm" />
		<tag k="ssr:stedsnr" v="802696" />
	</node>
	<node id="-833010" lat="63.6343194434" lon="9.14164167513">
		<tag k="name" v="Fjellvær" />
		<tag k="place" v="farm" />
		<tag k="ssr:stedsnr" v="698018" />
	</node>
	<node id="-835056" lat="63.6352027753" lon="8.86105278223">
		<tag k="fixme" v="consider place=hamlet" />
		<tag k="name" v="Øya" />
		<tag k="place" v="farm" />
		<tag k="ssr:stedsnr" v="575981" />
	</node>
	<node id="-835054" lat="63.5476083359" lon="9.16564167606">
		<tag k="name" v="Kleiva" />
		<tag k="place" v="farm" />
		<tag k="ssr:stedsnr" v="637476" />
	</node>
	<node id="-835042" lat="63.6317222209" lon="8.77271944003">
		<tag k="name" v="Svennsgjerdet" />
		<tag k="place" v="farm" />
		<tag k="ssr:stedsnr" v="333961" />
	</node>
	<node id="-832992" lat="63.4412500001" lon="8.57075277494">
		<tag k="name" v="Korsmyra" />
		<tag k="place" v="farm" />
		<tag k="ssr:stedsnr" v="454265" />
	</node>
	<node id="-832991" lat="63.5470083292" lon="9.16127777539">
		<tag k="alt_name" v="Skjevika" />
		<tag k="name" v="Skjervika" />
		<tag k="place" v="farm" />
		<tag k="ssr:stedsnr" v="317415" />
	</node>
	<node id="-835034" lat="63.6349666624" lon="9.15184721317">
		<tag k="name" v="Fjellvær" />
		<tag k="place" v="farm" />
		<tag k="ssr:stedsnr" v="516020" />
	</node>
	<node id="-835032" lat="63.5555758313" lon="8.51461756269">
		<tag k="fixme" v="consider place=hamlet" />
		<tag k="name" v="Tømmervika" />
		<tag k="place" v="farm" />
		<tag k="ssr:stedsnr" v="74578" />
	</node>
	<node id="-835031" lat="63.6514333295" lon="9.14239722413">
		<tag k="name" v="Stein" />
		<tag k="place" v="locality" />
		<tag k="ssr:stedsnr" v="515139" />
	</node>
	<node id="-835029" lat="63.617508333" lon="8.96707222643">
		<tag k="name" v="Myra" />
		<tag k="place" v="farm" />
		<tag k="ssr:stedsnr" v="516840" />
	</node>
	<node id="-835018" lat="63.6305944466" lon="8.79225000967">
		<tag k="name" v="Reitan" />
		<tag k="place" v="farm" />
		<tag k="ssr:stedsnr" v="333945" />
	</node>
	<node id="-835017" lat="63.5733972201" lon="8.65235000798">
		<tag k="name" v="Skipnes" />
		<tag k="place" v="farm" />
		<tag k="ssr:stedsnr" v="74575" />
	</node>
	<node id="-832968" lat="63.5157194474" lon="8.36798054604">
		<tag k="name" v="Eide" />
		<tag k="place" v="isolated_dwelling" />
		<tag k="ssr:stedsnr" v="576398" />
	</node>
	<node id="-835014" lat="63.6362222215" lon="9.1642277785">
		<tag k="name" v="Lervika" />
		<tag k="place" v="farm" />
		<tag k="ssr:stedsnr" v="758165" />
	</node>
	<node id="-835488" lat="63.5928597678" lon="8.96956149267">
		<tag k="fixme" v="consider place=hamlet" />
		<tag k="name" v="Søre Leirvågan" />
		<tag k="place" v="farm" />
		<tag k="ssr:stedsnr" v="775489" />
	</node>
	<node id="-835829" lat="63.6324805543" lon="9.05638333771">
		<tag k="alt_name" v="Vågan" />
		<tag k="name" v="Vågen" />
		<tag k="place" v="farm" />
		<tag k="ssr:stedsnr" v="802347" />
	</node>
	<node id="-832955" lat="63.5674050563" lon="8.53591405485">
		<tag k="fixme" v="consider place=hamlet" />
		<tag k="name" v="Helgbustad" />
		<tag k="place" v="farm" />
		<tag k="ssr:stedsnr" v="559618" />
	</node>
	<node id="-832945" lat="63.6235864775" lon="9.10452120563">
		<tag k="fixme" v="consider place=hamlet" />
		<tag k="name" v="Mellomsætra" />
		<tag k="place" v="farm" />
		<tag k="ssr:stedsnr" v="971002" />
	</node>
	<node id="-834990" lat="63.6516555574" lon="8.76679167032">
		<tag k="name" v="Tøfta" />
		<tag k="place" v="locality" />
		<tag k="ssr:stedsnr" v="212916" />
	</node>
	<node id="-834988" lat="63.5562083332" lon="9.1432972266">
		<tag k="alt_name" v="Springarvika" />
		<tag k="name" v="Springarvik" />
		<tag k="place" v="farm" />
		<tag k="ssr:stedsnr" v="741494" />
	</node>
	<node id="-834986" lat="63.508855558" lon="8.31074167484">
		<tag k="name" v="Nesa" />
		<tag k="place" v="farm" />
		<tag k="ssr:stedsnr" v="819703" />
	</node>
	<node id="-832937" lat="63.509594449" lon="8.99752776841">
		<tag k="name" v="Myrvang" />
		<tag k="place" v="farm" />
		<tag k="ssr:stedsnr" v="134527" />
	</node>
	<node id="-834983" lat="63.6440722262" lon="8.72305278083">
		<tag k="name" v="Austen Bremvågan" />
		<tag k="place" v="farm" />
		<tag k="ssr:stedsnr" v="820569" />
	</node>
	<node id="-832932" lat="63.6551833361" lon="8.79165555328">
		<tag k="alt_name" v="Strømsvika" />
		<tag k="name" v="Straumsvik" />
		<tag k="place" v="farm" />
		<tag k="ssr:stedsnr" v="923658" />
	</node>
	<node id="-834979" lat="63.6511277774" lon="9.1147944387">
		<tag k="name" v="Solbakken" />
		<tag k="place" v="farm" />
		<tag k="ssr:stedsnr" v="515120" />
	</node>
	<node id="-832930" lat="63.5637723187" lon="8.74375320998">
		<tag k="fixme" v="consider place=hamlet" />
		<tag k="name" v="Straum" />
		<tag k="place" v="farm" />
		<tag k="ssr:stedsnr" v="13461" />
	</node>
	<node id="-832929" lat="63.6003919783" lon="8.86074580143">
		<tag k="fixme" v="consider place=hamlet" />
		<tag k="name" v="Vollen" />
		<tag k="place" v="farm" />
		<tag k="ssr:stedsnr" v="863357" />
	</node>
	<node id="-832927" lat="63.6372555543" lon="8.79990000787">
		<tag k="name" v="Kvernhusvika" />
		<tag k="place" v="hamlet" />
		<tag k="ssr:stedsnr" v="498308" />
	</node>
	<node id="-834967" lat="63.6354194404" lon="9.13902777456">
		<tag k="name" v="Myra" />
		<tag k="place" v="farm" />
		<tag k="ssr:stedsnr" v="516009" />
	</node>
	<node id="-832918" lat="63.6234499974" lon="8.73263334319">
		<tag k="fixme" v="multiple name tags, choose one and add the other to alt_name" />
		<tag k="name" v="Meland;Øver Meland" />
		<tag k="place" v="farm" />
		<tag k="ssr:stedsnr" v="74312" />
	</node>
	<node id="-834956" lat="63.5640527798" lon="8.73486111774">
		<tag k="name" v="Svendstrøa" />
		<tag k="old_name" v="Svensktrøa" />
		<tag k="place" v="farm" />
		<tag k="ssr:stedsnr" v="334759" />
	</node>
	<node id="-834952" lat="63.6314555568" lon="8.88410556194">
		<tag k="name" v="Moa" />
		<tag k="place" v="farm" />
		<tag k="ssr:stedsnr" v="575944" />
	</node>
	<node id="-834949" lat="63.5964583299" lon="9.06106944826">
		<tag k="name" v="Elva" />
		<tag k="place" v="farm" />
		<tag k="ssr:stedsnr" v="619408" />
	</node>
	<node id="-834948" lat="63.6606527779" lon="9.08274999268">
		<tag k="name" v="Trolla" />
		<tag k="place" v="farm" />
		<tag k="ssr:stedsnr" v="575075" />
	</node>
	<node id="-834946" lat="63.6697194425" lon="9.049486105">
		<tag k="name" v="Kjevikan" />
		<tag k="place" v="hamlet" />
		<tag k="ssr:stedsnr" v="698135" />
	</node>
	<node id="-832890" lat="63.4784777746" lon="8.7623083315">
		<tag k="name" v="Vågen" />
		<tag k="place" v="isolated_dwelling" />
		<tag k="ssr:stedsnr" v="801471" />
	</node>
	<node id="-834935" lat="63.6491333366" lon="8.74637221746">
		<tag k="name" v="Dalen" />
		<tag k="place" v="locality" />
		<tag k="ssr:stedsnr" v="212913" />
	</node>
	<node id="-834932" lat="63.6173694413" lon="8.97343611452">
		<tag k="alt_name" v="Kvernhusvik" />
		<tag k="name" v="Kvernhusvika" />
		<tag k="place" v="farm" />
		<tag k="ssr:stedsnr" v="923381" />
	</node>
	<node id="-832883" lat="63.5076472222" lon="9.00606666826">
		<tag k="name" v="Kvernavika" />
		<tag k="place" v="farm" />
		<tag k="ssr:stedsnr" v="802539" />
	</node>
	<node id="-834930" lat="63.6315333356" lon="8.77267500056">
		<tag k="name" v="Svensgjerdet" />
		<tag k="place" v="farm" />
		<tag k="ssr:stedsnr" v="558269" />
	</node>
	<node id="-832876" lat="63.5085694425" lon="9.00596388894">
		<tag k="name" v="Elvemoa" />
		<tag k="place" v="farm" />
		<tag k="ssr:stedsnr" v="213337" />
	</node>
	<node id="-834922" lat="63.5634055596" lon="8.75262221756">
		<tag k="name" v="Nordgården" />
		<tag k="place" v="farm" />
		<tag k="ssr:stedsnr" v="334767" />
	</node>
	<node id="-832873" lat="63.5138222223" lon="9.04601944652">
		<tag k="name" v="Solbakken" />
		<tag k="place" v="farm" />
		<tag k="ssr:stedsnr" v="802538" />
	</node>
	<node id="-834915" lat="63.649822225" lon="8.77770833005">
		<tag k="name" v="Breivollan" />
		<tag k="place" v="farm" />
		<tag k="ssr:stedsnr" v="212904" />
	</node>
	<node id="-832866" lat="63.6429194419" lon="9.13242500864">
		<tag k="name" v="Dammen" />
		<tag k="place" v="farm" />
		<tag k="ssr:stedsnr" v="90096" />
	</node>
	<node id="-832861" lat="63.6394472239" lon="8.81625277314">
		<tag k="alt_name" v="Vassæter" />
		<tag k="name" v="Vassætra" />
		<tag k="old_name" v="Vass-sætera" />
		<tag k="place" v="farm" />
		<tag k="ssr:stedsnr" v="498315" />
	</node>
	<node id="-834908" lat="63.6409722235" lon="8.79839167012">
		<tag k="fixme" v="consider place=hamlet" />
		<tag k="name" v="Stakkvika" />
		<tag k="place" v="farm" />
		<tag k="ssr:stedsnr" v="758964" />
	</node>
	<node id="-834907" lat="63.6322916695" lon="8.70474722868">
		<tag k="fixme" v="consider place=hamlet" />
		<tag k="name" v="Dolm" />
		<tag k="place" v="farm" />
		<tag k="ssr:stedsnr" v="30525" />
	</node>
	<node id="-836495" lat="63.5634777782" lon="8.73785278539">
		<tag k="name" v="Innlegget" />
		<tag k="place" v="farm" />
		<tag k="ssr:stedsnr" v="30789" />
	</node>
	<node id="-835812" lat="63.6491694462" lon="9.06198056353">
		<tag k="name" v="Skottsgrindan" />
		<tag k="place" v="farm" />
		<tag k="ssr:stedsnr" v="879089" />
	</node>
	<node id="-832854" lat="63.4307111092" lon="8.48645832906">
		<tag k="name" v="Morvollan" />
		<tag k="place" v="farm" />
		<tag k="ssr:stedsnr" v="880249" />
	</node>
	<node id="-834899" lat="63.5981361118" lon="9.02767499551">
		<tag k="name" v="Langvågen" />
		<tag k="place" v="hamlet" />
		<tag k="ssr:stedsnr" v="212044" />
	</node>
	<node id="-832839" lat="63.5041884957" lon="8.97753996606">
		<tag k="fixme" v="consider place=hamlet" />
		<tag k="name" v="Akset" />
		<tag k="place" v="farm" />
		<tag k="ssr:stedsnr" v="213331" />
	</node>
	<node id="-832835" lat="63.4917583301" lon="9.13018055872">
		<tag k="name" v="Hamnabukta" />
		<tag k="place" v="farm" />
		<tag k="ssr:stedsnr" v="92639" />
	</node>
	<node id="-832829" lat="63.5176694488" lon="9.08176388144">
		<tag k="alt_name" v="Hatlan" />
		<tag k="name" v="Haltland" />
		<tag k="place" v="farm" />
		<tag k="ssr:stedsnr" v="802551" />
	</node>
	<node id="-832826" lat="63.5717111134" lon="9.14441666365">
		<tag k="name" v="Litldrågen" />
		<tag k="place" v="farm" />
		<tag k="ssr:stedsnr" v="213322" />
	</node>
	<node id="-834870" lat="63.6596250021" lon="8.84072777089">
		<tag k="alt_name" v="Knutshaug" />
		<tag k="name" v="Knutshaugen" />
		<tag k="place" v="hamlet" />
		<tag k="ssr:stedsnr" v="255704" />
	</node>
	<node id="-832820" lat="63.6022000035" lon="8.86146666661">
		<tag k="name" v="Solbakken" />
		<tag k="place" v="farm" />
		<tag k="ssr:stedsnr" v="863360" />
	</node>
	<node id="-832817" lat="63.6392361079" lon="9.16725832722">
		<tag k="alt_name" v="Bosvika" />
		<tag k="name" v="Båtsvika" />
		<tag k="place" v="farm" />
		<tag k="ssr:stedsnr" v="151146" />
	</node>
	<node id="-834859" lat="63.5585416672" lon="8.50243333927">
		<tag k="alt_name" v="Furuvika" />
		<tag k="name" v="Furvik" />
		<tag k="place" v="farm" />
		<tag k="ssr:stedsnr" v="74558" />
	</node>
	<node id="-832809" lat="63.5078361109" lon="9.01838332553">
		<tag k="name" v="Storvika" />
		<tag k="place" v="farm" />
		<tag k="ssr:stedsnr" v="134517" />
	</node>
	<node id="-832802" lat="63.4772972243" lon="8.74656667486">
		<tag k="name" v="Fagerlia" />
		<tag k="place" v="farm" />
		<tag k="ssr:stedsnr" v="229764" />
	</node>
	<node id="-834845" lat="63.6349503732" lon="8.77885414054">
		<tag k="fixme" v="consider place=hamlet" />
		<tag k="name" v="Vikstrøm" />
		<tag k="place" v="farm" />
		<tag k="ssr:stedsnr" v="558262" />
	</node>
	<node id="-832388" lat="63.5178194471" lon="8.31616389821">
		<tag k="name" v="Kvalskaget" />
		<tag k="place" v="isolated_dwelling" />
		<tag k="ssr:stedsnr" v="212402" />
	</node>
	<node id="-834834" lat="63.5426666695" lon="8.42062499378">
		<tag k="name" v="Haugen" />
		<tag k="place" v="farm" />
		<tag k="ssr:stedsnr" v="758128" />
	</node>
	<node id="-833069" lat="63.6602977859" lon="9.06269820834">
		<tag k="fixme" v="consider place=hamlet" />
		<tag k="name" v="Ingeborgvika" />
		<tag k="place" v="farm" />
		<tag k="ssr:stedsnr" v="255640" />
	</node>
	<node id="-834828" lat="63.4317277771" lon="8.42200278276">
		<tag k="amenity" v="school" />
		<tag k="name" v="Forsnes" />
		<tag k="ssr:stedsnr" v="91331" />
	</node>
	<node id="-832767" lat="63.6483083313" lon="8.79677222402">
		<tag k="name" v="Øver Jektvika" />
		<tag k="place" v="farm" />
		<tag k="ssr:stedsnr" v="105706" />
	</node>
	<node id="-834813" lat="63.6149205878" lon="9.03726779884">
		<tag k="fixme" v="consider place=hamlet" />
		<tag k="name" v="Heggvika" />
		<tag k="place" v="farm" />
		<tag k="ssr:stedsnr" v="559309" />
	</node>
	<node id="-832764" lat="63.5090454741" lon="9.08576108049">
		<tag k="alt_name" v="Jøssenøya" />
		<tag k="fixme" v="consider place=hamlet" />
		<tag k="name" v="Jøsnøy" />
		<tag k="place" v="farm" />
		<tag k="ssr:stedsnr" v="134513" />
	</node>
	<node id="-832763" lat="63.5380457804" lon="8.40328213619">
		<tag k="fixme" v="consider place=hamlet" />
		<tag k="name" v="Vikan" />
		<tag k="place" v="farm" />
		<tag k="ssr:stedsnr" v="970979" />
	</node>
	<node id="-832756" lat="63.6379333366" lon="8.99440833286">
		<tag k="fixme" v="consider place=suburb, village or hamlet" />
		<tag k="name" v="Ansnes" />
		<tag k="place" v="quarter" />
		<tag k="ssr:stedsnr" v="438286" />
	</node>
	<node id="-832755" lat="63.6443777822" lon="8.72275000051">
		<tag k="alt_name" v="Sør Bremvågan" />
		<tag k="name" v="Bremvåg" />
		<tag k="place" v="farm" />
		<tag k="ssr:stedsnr" v="195312" />
	</node>
	<node id="-832750" lat="63.6623194462" lon="9.0977138971">
		<tag k="alt_name" v="Aunet" />
		<tag k="name" v="Magnhildaunet" />
		<tag k="place" v="isolated_dwelling" />
		<tag k="ssr:stedsnr" v="30107" />
	</node>
	<node id="-834797" lat="63.6497805522" lon="8.75568610246">
		<tag k="name" v="Fjellet" />
		<tag k="place" v="locality" />
		<tag k="ssr:stedsnr" v="333897" />
	</node>
	<node id="-832737" lat="63.6458833339" lon="9.05449721271">
		<tag k="name" v="Mastad" />
		<tag k="place" v="farm" />
		<tag k="ssr:stedsnr" v="90069" />
	</node>
	<node id="-833061" lat="63.5146083322" lon="8.31374165821">
		<tag k="fixme" v="consider place=hamlet" />
		<tag k="name" v="Gangstøa" />
		<tag k="place" v="farm" />
		<tag k="ssr:stedsnr" v="879674" />
	</node>
	<node id="-834778" lat="63.6321361137" lon="9.14239166663">
		<tag k="name" v="Fjellvær" />
		<tag k="place" v="farm" />
		<tag k="ssr:stedsnr" v="212015" />
	</node>
	<node id="-832729" lat="63.534089293" lon="8.37779466952">
		<tag k="fixme" v="consider place=hamlet" />
		<tag k="name" v="Helsøya" />
		<tag k="place" v="farm" />
		<tag k="ssr:stedsnr" v="970980" />
	</node>
	<node id="-832723" lat="63.4312421555" lon="8.42488336995">
		<tag k="fixme" v="consider place=hamlet" />
		<tag k="name" v="Forsnes" />
		<tag k="place" v="farm" />
		<tag k="ssr:stedsnr" v="970986" />
	</node>
	<node id="-832035" lat="63.5847748324" lon="8.44791565713">
		<tag k="fixme" v="consider place=hamlet" />
		<tag k="name" v="Henriksøya" />
		<tag k="place" v="farm" />
		<tag k="ssr:stedsnr" v="970972" />
	</node>
	<node id="-832719" lat="63.4820888891" lon="8.82880277865">
		<tag k="name" v="Vollan" />
		<tag k="place" v="farm" />
		<tag k="ssr:stedsnr" v="801468" />
	</node>
	<node id="-834766" lat="63.5432500026" lon="9.153675003">
		<tag k="amenity" v="school" />
		<tag k="name" v="Strand oppvekstsenter" />
		<tag k="ssr:stedsnr" v="42835" />
	</node>
	<node id="-834754" lat="63.5640611095" lon="8.77997778191">
		<tag k="name" v="Trøa" />
		<tag k="place" v="farm" />
		<tag k="ssr:stedsnr" v="516786" />
	</node>
	<node id="-832705" lat="63.479117079" lon="8.28514432006">
		<tag k="fixme" v="consider place=hamlet" />
		<tag k="name" v="Gjelsøya" />
		<tag k="place" v="farm" />
		<tag k="ssr:stedsnr" v="970985" />
	</node>
	<node id="-832702" lat="63.5768222214" lon="8.81675833399">
		<tag k="name" v="Sætra" />
		<tag k="place" v="farm" />
		<tag k="ssr:stedsnr" v="863351" />
	</node>
	<node id="-833397" lat="63.6478055536" lon="8.99874722565">
		<tag k="alt_name" v="Jektvik" />
		<tag k="name" v="Jektvika" />
		<tag k="place" v="farm" />
		<tag k="ssr:stedsnr" v="559662" />
	</node>
	<node id="-832696" lat="63.4998624619" lon="8.27213572389">
		<tag k="fixme" v="consider place=hamlet" />
		<tag k="name" v="Rørøya" />
		<tag k="place" v="farm" />
		<tag k="ssr:stedsnr" v="970984" />
	</node>
	<node id="-832694" lat="63.5010440591" lon="8.26631787237">
		<tag k="fixme" v="consider place=hamlet" />
		<tag k="name" v="Kalven" />
		<tag k="place" v="farm" />
		<tag k="ssr:stedsnr" v="970983" />
	</node>
	<node id="-832691" lat="63.6323194421" lon="8.7833250086">
		<tag k="name" v="Øvre Vikstrøm" />
		<tag k="place" v="farm" />
		<tag k="ssr:stedsnr" v="862282" />
	</node>
	<node id="-832689" lat="63.584972224" lon="9.13210000972">
		<tag k="name" v="Hallingmyra" />
		<tag k="place" v="farm" />
		<tag k="ssr:stedsnr" v="274050" />
	</node>
	<node id="-834733" lat="63.4823500044" lon="8.76412499059">
		<tag k="name" v="Bakken" />
		<tag k="place" v="farm" />
		<tag k="ssr:stedsnr" v="740425" />
	</node>
	<node id="-832684" lat="63.5115030676" lon="8.29208867623">
		<tag k="fixme" v="consider place=hamlet" />
		<tag k="name" v="Hakkbuan" />
		<tag k="place" v="farm" />
		<tag k="ssr:stedsnr" v="970982" />
	</node>
	<node id="-832683" lat="63.6664333327" lon="9.1456527828">
		<tag k="fixme" v="consider place=hamlet" />
		<tag k="name" v="Herøya" />
		<tag k="place" v="farm" />
		<tag k="ssr:stedsnr" v="636187" />
	</node>
	<node id="-834730" lat="63.6029222179" lon="8.97701944897">
		<tag k="amenity" v="school" />
		<tag k="name" v="Hitra videregående skole" />
		<tag k="ssr:stedsnr" v="42024" />
	</node>
	<node id="-832674" lat="63.6610055518" lon="9.06704723033">
		<tag k="name" v="Myra" />
		<tag k="place" v="isolated_dwelling" />
		<tag k="ssr:stedsnr" v="30093" />
	</node>
	<node id="-834718" lat="63.5721861123" lon="8.7978166707">
		<tag k="name" v="Søraunet" />
		<tag k="place" v="farm" />
		<tag k="ssr:stedsnr" v="741464" />
	</node>
	<node id="-834714" lat="63.5324638872" lon="8.39121943747">
		<tag k="name" v="Kvenvær" />
		<tag k="place" v="hamlet" />
		<tag k="ssr:stedsnr" v="438532" />
	</node>
	<node id="-832663" lat="63.4376830549" lon="8.39021997727">
		<tag k="fixme" v="consider place=hamlet" />
		<tag k="name" v="Dalen" />
		<tag k="place" v="farm" />
		<tag k="ssr:stedsnr" v="970988" />
	</node>
	<node id="-832652" lat="63.4359305522" lon="8.3812222262">
		<tag k="building" v="industrial" />
		<tag k="name" v="Smia" />
		<tag k="ssr:stedsnr" v="576353" />
	</node>
	<node id="-832651" lat="63.4158720917" lon="8.47014795586">
		<tag k="fixme" v="consider place=hamlet" />
		<tag k="name" v="Værøya" />
		<tag k="place" v="farm" />
		<tag k="ssr:stedsnr" v="970987" />
	</node>
	<node id="-834692" lat="63.5310333317" lon="8.38205832481">
		<tag k="name" v="Stein" />
		<tag k="place" v="farm" />
		<tag k="ssr:stedsnr" v="637440" />
	</node>
	<node id="-832643" lat="63.6124638921" lon="8.6374611112">
		<tag k="name" v="Hamn" />
		<tag k="place" v="farm" />
		<tag k="ssr:stedsnr" v="941918" />
	</node>
	<node id="-834689" lat="63.6211240114" lon="8.847530726">
		<tag k="fixme" v="consider place=hamlet" />
		<tag k="name" v="Straumsvika" />
		<tag k="place" v="farm" />
		<tag k="ssr:stedsnr" v="879784" />
	</node>
	<node id="-836117" lat="63.5734777737" lon="8.43827221552">
		<tag k="name" v="Hammarmyra" />
		<tag k="place" v="farm" />
		<tag k="ssr:stedsnr" v="334117" />
	</node>
	<node id="-834679" lat="63.5768888852" lon="9.13220277332">
		<tag k="alt_name" v="Utset, s" />
		<tag k="fixme" v="multiple name tags, choose one and add the other to alt_name" />
		<tag k="name" v="Søre Utset;Utsetmyra" />
		<tag k="place" v="farm" />
		<tag k="ssr:stedsnr" v="741456" />
	</node>
	<node id="-834674" lat="63.6067611134" lon="8.9687888853">
		<tag k="name" v="Museumsplassen" />
		<tag k="place" v="square" />
		<tag k="ssr:stedsnr" v="665174" />
	</node>
	<node id="-832625" lat="63.647230556" lon="9.12781389876">
		<tag k="name" v="Snellvika" />
		<tag k="place" v="farm" />
		<tag k="ssr:stedsnr" v="151117" />
	</node>
	<node id="-832623" lat="63.6486805552" lon="9.10537778467">
		<tag k="alt_name" v="Tuvika" />
		<tag k="name" v="Tuvik" />
		<tag k="place" v="farm" />
		<tag k="ssr:stedsnr" v="74277" />
	</node>
	<node id="-834749" lat="63.570213893" lon="9.17337223194">
		<tag k="name" v="Klungervika" />
		<tag k="old_name" v="Klugervik" />
		<tag k="place" v="farm" />
		<tag k="ssr:stedsnr" v="316433" />
	</node>
	<node id="-834665" lat="63.4266694413" lon="8.47729166866">
		<tag k="name" v="Berget" />
		<tag k="place" v="farm" />
		<tag k="ssr:stedsnr" v="30480" />
	</node>
	<node id="-834661" lat="63.43222222" lon="8.41516944598">
		<tag k="fixme" v="consider place=hamlet" />
		<tag k="name" v="Forsnes" />
		<tag k="place" v="village" />
		<tag k="ssr:stedsnr" v="195016" />
	</node>
	<node id="-834659" lat="63.426811113" lon="8.44892222297">
		<tag k="name" v="Smalsvika" />
		<tag k="place" v="farm" />
		<tag k="ssr:stedsnr" v="91296" />
	</node>
	<node id="-836705" lat="63.4790016922" lon="8.28483635275">
		<tag k="name" v="Gjelsøya" />
		<tag k="place" v="farm" />
		<tag k="ssr:stedsnr" v="991202" />
	</node>
	<node id="-834656" lat="63.5512999958" lon="9.1730861034">
		<tag k="name" v="Myra" />
		<tag k="place" v="farm" />
		<tag k="ssr:stedsnr" v="881419" />
	</node>
	<node id="-834655" lat="63.5478805538" lon="9.20217499513">
		<tag k="name" v="Midtigården" />
		<tag k="place" v="farm" />
		<tag k="ssr:stedsnr" v="395509" />
	</node>
	<node id="-832606" lat="63.6259529674" lon="8.73475735819">
		<tag k="fixme" v="consider place=hamlet" />
		<tag k="name" v="Meland" />
		<tag k="place" v="farm" />
		<tag k="ssr:stedsnr" v="970970" />
	</node>
	<node id="-834652" lat="63.545646038" lon="8.55092140668">
		<tag k="fixme" v="consider place=hamlet" />
		<tag k="name" v="Gryta" />
		<tag k="place" v="farm" />
		<tag k="ssr:stedsnr" v="74536" />
	</node>
	<node id="-836696" lat="63.6120472199" lon="8.74173334034">
		<tag k="name" v="Tårnet" />
		<tag k="place" v="isolated_dwelling" />
		<tag k="ssr:stedsnr" v="273930" />
	</node>
	<node id="-832598" lat="63.6413607199" lon="8.7962701138">
		<tag k="name" v="Aunet med Stadsvik og Bruholmen" />
		<tag k="place" v="farm" />
		<tag k="ssr:stedsnr" v="970968" />
	</node>
	<node id="-836689" lat="63.5707111079" lon="9.16958888686">
		<tag k="name" v="Valen" />
		<tag k="place" v="farm" />
		<tag k="ssr:stedsnr" v="134429" />
	</node>
	<node id="-834638" lat="63.542677774" lon="8.40669165777">
		<tag k="name" v="Dønnesvik" />
		<tag k="place" v="isolated_dwelling" />
		<tag k="ssr:stedsnr" v="438523" />
	</node>
	<node id="-834636" lat="63.5917305543" lon="8.86478332342">
		<tag k="name" v="Tovdal" />
		<tag k="place" v="farm" />
		<tag k="ssr:stedsnr" v="741435" />
	</node>
	<node id="-834635" lat="63.6192444452" lon="8.65106389176">
		<tag k="name" v="Strauman" />
		<tag k="place" v="farm" />
		<tag k="ssr:stedsnr" v="741966" />
	</node>
	<node id="-832583" lat="63.5475583298" lon="8.44341666279">
		<tag k="name" v="Faksvågsjøen" />
		<tag k="place" v="farm" />
		<tag k="ssr:stedsnr" v="516373" />
	</node>
	<node id="-836678" lat="63.5859333358" lon="9.01206666639">
		<tag k="alt_name" v="Stokkvika" />
		<tag k="name" v="Stokkvik" />
		<tag k="place" v="farm" />
		<tag k="ssr:stedsnr" v="376352" />
	</node>
	<node id="-832581" lat="63.5127194486" lon="9.05275833859">
		<tag k="name" v="Jevikåsen" />
		<tag k="place" v="farm" />
		<tag k="ssr:stedsnr" v="334315" />
	</node>
	<node id="-832579" lat="63.4933083374" lon="8.9376416653">
		<tag k="name" v="Tevika" />
		<tag k="place" v="isolated_dwelling" />
		<tag k="ssr:stedsnr" v="759438" />
	</node>
	<node id="-836671" lat="63.5966166633" lon="8.56731389742">
		<tag k="name" v="Oksbåsen" />
		<tag k="place" v="isolated_dwelling" />
		<tag k="ssr:stedsnr" v="13896" />
	</node>
	<node id="-836670" lat="63.6216388918" lon="9.10599445088">
		<tag k="name" v="Nordgård" />
		<tag k="place" v="farm" />
		<tag k="ssr:stedsnr" v="151007" />
	</node>
	<node id="-832567" lat="63.5651222179" lon="8.51380554561">
		<tag k="name" v="Klubbneset" />
		<tag k="place" v="isolated_dwelling" />
		<tag k="ssr:stedsnr" v="941997" />
	</node>
	<node id="-832564" lat="63.5174833295" lon="8.99310555938">
		<tag k="alt_name" v="Englia" />
		<tag k="name" v="Engli" />
		<tag k="place" v="farm" />
		<tag k="ssr:stedsnr" v="802559" />
	</node>
	<node id="-835763" lat="63.5712750028" lon="8.66852222244">
		<tag k="name" v="Hofstadgårdan" />
		<tag k="place" v="hamlet" />
		<tag k="ssr:stedsnr" v="273791" />
	</node>
	<node id="-836652" lat="63.5928305543" lon="8.96938612012">
		<tag k="name" v="Leirvågan" />
		<tag k="place" v="farm" />
		<tag k="ssr:stedsnr" v="376359" />
	</node>
	<node id="-834603" lat="63.5051055552" lon="8.9776194461">
		<tag k="alt_name" v="Sørakset" />
		<tag k="name" v="Akset" />
		<tag k="place" v="farm" />
		<tag k="ssr:stedsnr" v="498526" />
	</node>
	<node id="-834600" lat="63.5593916708" lon="9.19570277114">
		<tag k="name" v="Steinvik" />
		<tag k="place" v="farm" />
		<tag k="ssr:stedsnr" v="31329" />
	</node>
	<node id="-834596" lat="63.4712833291" lon="8.68982778214">
		<tag k="name" v="Laksåvika" />
		<tag k="place" v="farm" />
		<tag k="ssr:stedsnr" v="255140" />
	</node>
	<node id="-832547" lat="63.5783611087" lon="8.4832583337">
		<tag k="name" v="Strandtøfta" />
		<tag k="place" v="isolated_dwelling" />
		<tag k="ssr:stedsnr" v="941177" />
	</node>
	<node id="-832545" lat="63.5204694458" lon="9.09123611372">
		<tag k="name" v="Vollen" />
		<tag k="place" v="farm" />
		<tag k="ssr:stedsnr" v="255488" />
	</node>
	<node id="-834590" lat="63.624036112" lon="9.02536665925">
		<tag k="name" v="Akset" />
		<tag k="place" v="farm" />
		<tag k="ssr:stedsnr" v="333861" />
	</node>
	<node id="-832540" lat="63.6079194407" lon="8.88416387946">
		<tag k="name" v="Dalen" />
		<tag k="place" v="farm" />
		<tag k="ssr:stedsnr" v="438319" />
	</node>
	<node id="-836633" lat="63.5638770013" lon="8.72351105418">
		<tag k="name" v="Bjørnavika" />
		<tag k="place" v="farm" />
		<tag k="ssr:stedsnr" v="134426" />
	</node>
	<node id="-833028" lat="63.6747321038" lon="9.03883767547">
		<tag k="fixme" v="consider place=hamlet" />
		<tag k="name" v="Ulvan" />
		<tag k="place" v="farm" />
		<tag k="ssr:stedsnr" v="377659" />
	</node>
	<node id="-834581" lat="63.5986722204" lon="9.09672778471">
		<tag k="name" v="Myra" />
		<tag k="place" v="farm" />
		<tag k="ssr:stedsnr" v="741443" />
	</node>
	<node id="-832532" lat="63.5457166647" lon="8.42535833898">
		<tag k="alt_name" v="Ottervika" />
		<tag k="name" v="Otervik" />
		<tag k="place" v="farm" />
		<tag k="ssr:stedsnr" v="377522" />
	</node>
	<node id="-834575" lat="63.6491361114" lon="8.75537499007">
		<tag k="name" v="Fjæra" />
		<tag k="place" v="locality" />
		<tag k="ssr:stedsnr" v="575880" />
	</node>
	<node id="-834572" lat="63.6503472256" lon="8.75510833557">
		<tag k="name" v="Skaga" />
		<tag k="place" v="locality" />
		<tag k="ssr:stedsnr" v="575881" />
	</node>
	<node id="-832519" lat="63.6292999967" lon="8.77501388696">
		<tag k="name" v="Vassdal" />
		<tag k="place" v="farm" />
		<tag k="ssr:stedsnr" v="438307" />
	</node>
	<node id="-832515" lat="63.6643472186" lon="9.09594722675">
		<tag k="name" v="Kvalvika" />
		<tag k="place" v="isolated_dwelling" />
		<tag k="ssr:stedsnr" v="151176" />
	</node>
	<node id="-832513" lat="63.5345694478" lon="8.39590833578">
		<tag k="name" v="Moa" />
		<tag k="place" v="farm" />
		<tag k="ssr:stedsnr" v="516423" />
	</node>
	<node id="-836608" lat="63.622327776" lon="8.85839722781">
		<tag k="alt_name" v="Haranes" />
		<tag k="name" v="Haraneset" />
		<tag k="place" v="farm" />
		<tag k="ssr:stedsnr" v="819981" />
	</node>
	<node id="-832682" lat="63.5379194422" lon="9.14409166294">
		<tag k="alt_name" v="Melkvika" />
		<tag k="name" v="Melkvik" />
		<tag k="place" v="farm" />
		<tag k="ssr:stedsnr" v="134499" />
	</node>
	<node id="-832506" lat="63.6318749969" lon="9.04991111627">
		<tag k="name" v="Gaddvika" />
		<tag k="place" v="farm" />
		<tag k="ssr:stedsnr" v="636241" />
	</node>
	<node id="-834552" lat="63.5463083345" lon="9.15469445294">
		<tag k="name" v="Ålmodalen" />
		<tag k="place" v="farm" />
		<tag k="ssr:stedsnr" v="498515" />
	</node>
	<node id="-834551" lat="63.4359444444" lon="8.32934999338">
		<tag k="name" v="Bollvika" />
		<tag k="place" v="locality" />
		<tag k="ssr:stedsnr" v="498014" />
	</node>
	<node id="-835635" lat="63.6373722221" lon="8.80020277018">
		<tag k="alt_name" v="Vikstrøm" />
		<tag k="name" v="Kvernhusvika" />
		<tag k="place" v="farm" />
		<tag k="ssr:stedsnr" v="424714" />
	</node>
	<node id="-836595" lat="63.6046388854" lon="8.62850555131">
		<tag k="name" v="Innergården" />
		<tag k="place" v="farm" />
		<tag k="ssr:stedsnr" v="880915" />
	</node>
	<node id="-832495" lat="63.6493861096" lon="8.74946388609">
		<tag k="name" v="Bukta" />
		<tag k="place" v="locality" />
		<tag k="ssr:stedsnr" v="30893" />
	</node>
	<node id="-834539" lat="63.6057888918" lon="8.62804999729">
		<tag k="name" v="Gammelgården" />
		<tag k="place" v="farm" />
		<tag k="ssr:stedsnr" v="698908" />
	</node>
	<node id="-836585" lat="63.5636936864" lon="8.72347894948">
		<tag k="name" v="Haslvika" />
		<tag k="place" v="farm" />
		<tag k="ssr:stedsnr" v="802441" />
	</node>
	<node id="-832487" lat="63.5260138916" lon="8.43328610196">
		<tag k="name" v="Svanvika" />
		<tag k="place" v="farm" />
		<tag k="ssr:stedsnr" v="212420" />
	</node>
	<node id="-832486" lat="63.5619638852" lon="9.19532499643">
		<tag k="name" v="Grindvika" />
		<tag k="place" v="hamlet" />
		<tag k="ssr:stedsnr" v="802489" />
	</node>
	<node id="-832485" lat="63.4321027759" lon="8.42038054714">
		<tag k="name" v="Halsan" />
		<tag k="place" v="farm" />
		<tag k="ssr:stedsnr" v="576303" />
	</node>
	<node id="-836576" lat="63.542811107" lon="8.40711111141">
		<tag k="name" v="Dønnesvika" />
		<tag k="place" v="farm" />
		<tag k="ssr:stedsnr" v="819125" />
	</node>
	<node id="-832429" lat="63.4612792028" lon="8.32744874406">
		<tag k="fixme" v="consider place=hamlet" />
		<tag k="name" v="Andersskogan" />
		<tag k="place" v="farm" />
		<tag k="ssr:stedsnr" v="740122" />
	</node>
	<node id="-832476" lat="63.4796932929" lon="8.84690128574">
		<tag k="alt_name" v="Balsnes" />
		<tag k="fixme" v="consider place=hamlet" />
		<tag k="name" v="Ballsnes" />
		<tag k="place" v="farm" />
		<tag k="ssr:stedsnr" v="558504" />
	</node>
	<node id="-832472" lat="63.5959782254" lon="9.07653494554">
		<tag k="alt_name" v="Ulvåg" />
		<tag k="fixme" v="consider place=hamlet" />
		<tag k="name" v="Ulvvågen" />
		<tag k="place" v="farm" />
		<tag k="ssr:stedsnr" v="13409" />
	</node>
	<node id="-836567" lat="63.5534916654" lon="8.53842499025">
		<tag k="alt_name" v="Grønnvika" />
		<tag k="name" v="Grønvika" />
		<tag k="place" v="farm" />
		<tag k="ssr:stedsnr" v="619602" />
	</node>
	<node id="-836257" lat="63.5540499991" lon="9.18130277436">
		<tag k="alt_name" v="Aunet;Nordaunet" />
		<tag k="name" v="Langaunet" />
		<tag k="place" v="farm" />
		<tag k="ssr:stedsnr" v="256371" />
	</node>
	<node id="-832465" lat="63.6476944458" lon="9.11947221287">
		<tag k="fixme" v="consider place=hamlet" />
		<tag k="name" v="Jobotn" />
		<tag k="place" v="farm" />
		<tag k="ssr:stedsnr" v="636117" />
	</node>
	<node id="-831992" lat="63.5834552151" lon="8.42033887663">
		<tag k="fixme" v="consider place=hamlet" />
		<tag k="name" v="Burøya" />
		<tag k="place" v="farm" />
		<tag k="ssr:stedsnr" v="970977" />
	</node>
	<node id="-836557" lat="63.4592305537" lon="8.61433611281">
		<tag k="name" v="Kulvika" />
		<tag k="place" v="farm" />
		<tag k="ssr:stedsnr" v="272221" />
	</node>
	<node id="-832456" lat="63.6457638861" lon="9.12701110467">
		<tag k="name" v="Botnvika" />
		<tag k="place" v="farm" />
		<tag k="ssr:stedsnr" v="636116" />
	</node>
	<node id="-834503" lat="63.6257416629" lon="8.89309166974">
		<tag k="alt_name" v="Sandås" />
		<tag k="name" v="Sandåsen" />
		<tag k="place" v="farm" />
		<tag k="ssr:stedsnr" v="923326" />
	</node>
	<node id="-832019" lat="63.6725361072" lon="9.10344444823">
		<tag k="name" v="Selvågan" />
		<tag k="place" v="hamlet" />
		<tag k="ssr:stedsnr" v="273173" />
	</node>
	<node id="-834498" lat="63.506374999" lon="8.42438333102">
		<tag k="alt_name" v="Munkedal" />
		<tag k="name" v="Munkdalen" />
		<tag k="place" v="farm" />
		<tag k="ssr:stedsnr" v="377699" />
	</node>
	<node id="-832428" lat="63.5044749973" lon="8.97440555089">
		<tag k="name" v="Sollia" />
		<tag k="place" v="farm" />
		<tag k="ssr:stedsnr" v="516324" />
	</node>
	<node id="-836542" lat="63.6217194473" lon="8.67338333853">
		<tag k="alt_name" v="Mortensvika" />
		<tag k="name" v="Mortensvik" />
		<tag k="place" v="farm" />
		<tag k="ssr:stedsnr" v="256938" />
	</node>
	<node id="-834486" lat="63.6547888888" lon="8.79851110323">
		<tag k="name" v="Haugen" />
		<tag k="place" v="locality" />
		<tag k="ssr:stedsnr" v="575872" />
	</node>
	<node id="-832436" lat="63.5643367138" lon="9.13099771523">
		<tag k="fixme" v="consider place=hamlet" />
		<tag k="name" v="Rabben" />
		<tag k="place" v="farm" />
		<tag k="ssr:stedsnr" v="802496" />
	</node>
	<node id="-832430" lat="63.5738416634" lon="8.46244999694">
		<tag k="name" v="Haugen" />
		<tag k="place" v="farm" />
		<tag k="ssr:stedsnr" v="819207" />
	</node>
	<node id="-834477" lat="63.6595444424" lon="8.82900833886">
		<tag k="name" v="Bjørnaneset" />
		<tag k="place" v="farm" />
		<tag k="ssr:stedsnr" v="455999" />
	</node>
	<node id="-834476" lat="63.6270888879" lon="8.97390277673">
		<tag k="name" v="Risvika" />
		<tag k="place" v="locality" />
		<tag k="ssr:stedsnr" v="575846" />
	</node>
	<node id="-834472" lat="63.615427779" lon="8.75364722081">
		<tag k="name" v="Lauvåsen" />
		<tag k="place" v="farm" />
		<tag k="ssr:stedsnr" v="316390" />
	</node>
	<node id="-836512" lat="63.5868678572" lon="8.83130567993">
		<tag k="fixme" v="consider place=hamlet" />
		<tag k="name" v="Øverdalen" />
		<tag k="place" v="farm" />
		<tag k="ssr:stedsnr" v="134414" />
	</node>
	<node id="-836510" lat="63.5635833289" lon="8.74980556257">
		<tag k="name" v="Neststua" />
		<tag k="place" v="farm" />
		<tag k="ssr:stedsnr" v="941775" />
	</node>
	<node id="-836506" lat="63.5795083315" lon="8.81843333813">
		<tag k="name" v="Snæringen" />
		<tag k="place" v="farm" />
		<tag k="ssr:stedsnr" v="802415" />
	</node>
	<node id="-832408" lat="63.6654000003" lon="9.09140000756">
		<tag k="name" v="Åkervika" />
		<tag k="place" v="hamlet" />
		<tag k="ssr:stedsnr" v="273159" />
	</node>
	<node id="-836500" lat="63.5928499996" lon="9.07992777431">
		<tag k="name" v="Ulvåg" />
		<tag k="place" v="farm" />
		<tag k="ssr:stedsnr" v="577041" />
	</node>
	<node id="-834451" lat="63.6319111094" lon="8.96325000964">
		<tag k="name" v="Jevik" />
		<tag k="place" v="farm" />
		<tag k="ssr:stedsnr" v="923339" />
	</node>
	<node id="-836498" lat="63.6352789726" lon="8.77834527279">
		<tag k="name" v="Vikstrøm" />
		<tag k="place" v="farm" />
		<tag k="ssr:stedsnr" v="484730" />
	</node>
	<node id="-832399" lat="63.6128916697" lon="8.61238610183">
		<tag k="name" v="Ingbriktsvika" />
		<tag k="place" v="farm" />
		<tag k="ssr:stedsnr" v="941898" />
	</node>
	<node id="-836493" lat="63.6498583337" lon="8.79639722827">
		<tag k="name" v="Ner Jektvika" />
		<tag k="place" v="farm" />
		<tag k="ssr:stedsnr" v="636884" />
	</node>
	<node id="-834443" lat="63.6291722254" lon="8.68318612015">
		<tag k="alt_name" v="Kongsneset" />
		<tag k="name" v="Kongsnes" />
		<tag k="place" v="farm" />
		<tag k="ssr:stedsnr" v="741954" />
	</node>
	<node id="-834436" lat="63.5264400084" lon="8.43694439094">
		<tag k="fixme" v="consider place=hamlet" />
		<tag k="name" v="Svankilen" />
		<tag k="place" v="farm" />
		<tag k="ssr:stedsnr" v="74507" />
	</node>
	<node id="-832387" lat="63.6480759783" lon="9.1375071945">
		<tag k="fixme" v="consider place=hamlet" />
		<tag k="name" v="Nordbotn" />
		<tag k="place" v="farm" />
		<tag k="ssr:stedsnr" v="636129" />
	</node>
	<node id="-832385" lat="63.5653272986" lon="9.12996396181">
		<tag k="alt_name" v="Oldervika" />
		<tag k="fixme" v="consider place=hamlet" />
		<tag k="name" v="Oldervik" />
		<tag k="place" v="farm" />
		<tag k="ssr:stedsnr" v="802495" />
	</node>
	<node id="-832383" lat="63.614791665" lon="9.09311388698">
		<tag k="alt_name" v="Stranda" />
		<tag k="name" v="Sørstranden" />
		<tag k="place" v="isolated_dwelling" />
		<tag k="ssr:stedsnr" v="30041" />
	</node>
	<node id="-832382" lat="63.5305083323" lon="9.12857221618">
		<tag k="name" v="Plikten" />
		<tag k="place" v="farm" />
		<tag k="ssr:stedsnr" v="759343" />
	</node>
	<node id="-834428" lat="63.4529361118" lon="8.32203055824">
		<tag k="name" v="Roparvika" />
		<tag k="place" v="farm" />
		<tag k="ssr:stedsnr" v="255119" />
	</node>
	<node id="-836474" lat="63.4986138895" lon="9.11793054608">
		<tag k="name" v="Hagan" />
		<tag k="place" v="farm" />
		<tag k="ssr:stedsnr" v="31651" />
	</node>
	<node id="-836471" lat="63.6178055582" lon="9.02438055187">
		<tag k="name" v="Brøttingsvågen" />
		<tag k="place" v="farm" />
		<tag k="ssr:stedsnr" v="151834" />
	</node>
	<node id="-834415" lat="63.5307999987" lon="9.12740555586">
		<tag k="alt_name" v="Nordvollan" />
		<tag k="name" v="Nordvollen" />
		<tag k="place" v="farm" />
		<tag k="ssr:stedsnr" v="438490" />
	</node>
	<node id="-836462" lat="63.6674694475" lon="9.09212778709">
		<tag k="name" v="Selvågan" />
		<tag k="place" v="farm" />
		<tag k="ssr:stedsnr" v="334170" />
	</node>
	<node id="-834413" lat="63.6462611128" lon="8.99481111962">
		<tag k="alt_name" v="Sandvik" />
		<tag k="name" v="Sandvika" />
		<tag k="place" v="farm" />
		<tag k="ssr:stedsnr" v="923317" />
	</node>
	<node id="-832360" lat="63.6449694406" lon="8.88571388115">
		<tag k="name" v="Skåvikan" />
		<tag k="place" v="locality" />
		<tag k="ssr:stedsnr" v="636977" />
	</node>
	<node id="-832084" lat="63.4375916669" lon="8.39123889352">
		<tag k="name" v="Øverdalen" />
		<tag k="place" v="farm" />
		<tag k="ssr:stedsnr" v="576240" />
	</node>
	<node id="-832355" lat="63.5477194406" lon="8.44035833769">
		<tag k="name" v="Jektvika" />
		<tag k="place" v="farm" />
		<tag k="ssr:stedsnr" v="212395" />
	</node>
	<node id="-832352" lat="63.5569222181" lon="9.15594166622">
		<tag k="name" v="Naustvika" />
		<tag k="place" v="farm" />
		<tag k="ssr:stedsnr" v="802471" />
	</node>
	<node id="-834396" lat="63.5457972235" lon="8.41644722085">
		<tag k="alt_name" v="Skjelvika" />
		<tag k="name" v="Skjelvik" />
		<tag k="place" v="farm" />
		<tag k="ssr:stedsnr" v="863548" />
	</node>
	<node id="-834394" lat="63.4701861137" lon="8.32114722282">
		<tag k="name" v="Ner Aunvågen" />
		<tag k="place" v="farm" />
		<tag k="ssr:stedsnr" v="637353" />
	</node>
	<node id="-834392" lat="63.5965249975" lon="8.55796388914">
		<tag k="loc_name" v="Stamneset" />
		<tag k="name" v="Stamnes" />
		<tag k="place" v="farm" />
		<tag k="ssr:stedsnr" v="741934" />
	</node>
	<node id="-834389" lat="63.5554111078" lon="9.13220278056">
		<tag k="name" v="Lian" />
		<tag k="place" v="farm" />
		<tag k="ssr:stedsnr" v="498486" />
	</node>
	<node id="-832333" lat="63.5707500019" lon="9.12941389879">
		<tag k="name" v="Einmo" />
		<tag k="place" v="farm" />
		<tag k="ssr:stedsnr" v="680424" />
	</node>
	<node id="-836428" lat="63.6132251303" lon="8.63140043583">
		<tag k="fixme" v="consider place=hamlet" />
		<tag k="name" v="Smågasjøen" />
		<tag k="place" v="farm" />
		<tag k="ssr:stedsnr" v="802950" />
	</node>
	<node id="-832331" lat="63.614858335" lon="8.63834722266">
		<tag k="name" v="Smågøya" />
		<tag k="place" v="farm" />
		<tag k="ssr:stedsnr" v="151920" />
	</node>
	<node id="-836426" lat="63.5819333359" lon="8.46736389578">
		<tag k="name" v="Haugen" />
		<tag k="place" v="farm" />
		<tag k="ssr:stedsnr" v="394147" />
	</node>
	<node id="-832328" lat="63.4319388878" lon="8.43314166603">
		<tag k="name" v="Einskardet" />
		<tag k="place" v="isolated_dwelling" />
		<tag k="ssr:stedsnr" v="334265" />
	</node>
	<node id="-832326" lat="63.6223499982" lon="8.93089444463">
		<tag k="name" v="Eide" />
		<tag k="place" v="farm" />
		<tag k="ssr:stedsnr" v="30864" />
	</node>
	<node id="-836419" lat="63.6283000005" lon="8.85099444788">
		<tag k="name" v="Barman" />
		<tag k="place" v="farm" />
		<tag k="ssr:stedsnr" v="940987" />
	</node>
	<node id="-834362" lat="63.4591277753" lon="8.60737777344">
		<tag k="name" v="Kulviklia" />
		<tag k="place" v="farm" />
		<tag k="ssr:stedsnr" v="376106" />
	</node>
	<node id="-832313" lat="63.6742027787" lon="9.05310000195">
		<tag k="name" v="Sommerstad" />
		<tag k="place" v="farm" />
		<tag k="ssr:stedsnr" v="819161" />
	</node>
	<node id="-832308" lat="63.6632444407" lon="9.06616112089">
		<tag k="name" v="Melkvika" />
		<tag k="place" v="hamlet" />
		<tag k="ssr:stedsnr" v="636089" />
	</node>
	<node id="-832306" lat="63.5970722206" lon="9.09813332937">
		<tag k="fixme" v="multiple name tags, choose one and add the other to alt_name" />
		<tag k="name" v="Haugen;Ottersølan" />
		<tag k="place" v="farm" />
		<tag k="ssr:stedsnr" v="376387" />
	</node>
	<node id="-832304" lat="63.6260083362" lon="8.70174167639">
		<tag k="name" v="Fjellbukta" />
		<tag k="place" v="farm" />
		<tag k="ssr:stedsnr" v="13922" />
	</node>
	<node id="-834351" lat="63.5471527771" lon="9.20275832784">
		<tag k="name" v="Innergården" />
		<tag k="place" v="farm" />
		<tag k="ssr:stedsnr" v="577498" />
	</node>
	<node id="-836397" lat="63.6170972201" lon="8.6570194449">
		<tag k="alt_name" v="Sjursvik" />
		<tag k="name" v="Skjulsvik" />
		<tag k="place" v="farm" />
		<tag k="ssr:stedsnr" v="134920" />
	</node>
	<node id="-834346" lat="63.506955559" lon="9.01231388709">
		<tag k="name" v="Saga" />
		<tag k="place" v="farm" />
		<tag k="ssr:stedsnr" v="195504" />
	</node>
	<node id="-832293" lat="63.5385833377" lon="8.4034583295">
		<tag k="name" v="Vikan" />
		<tag k="place" v="farm" />
		<tag k="ssr:stedsnr" v="923597" />
	</node>
	<node id="-832491" lat="63.4326166701" lon="8.41429166479">
		<tag k="name" v="Reisa" />
		<tag k="place" v="farm" />
		<tag k="ssr:stedsnr" v="334282" />
	</node>
	<node id="-834338" lat="63.4571250015" lon="8.33675556436">
		<tag k="name" v="Melkstad" />
		<tag k="place" v="farm" />
		<tag k="ssr:stedsnr" v="133097" />
	</node>
	<node id="-836059" lat="63.6543920576" lon="9.12341681936">
		<tag k="alt_name" v="Lervika" />
		<tag k="fixme" v="consider place=hamlet" />
		<tag k="name" v="Leirvika" />
		<tag k="place" v="farm" />
		<tag k="ssr:stedsnr" v="499204" />
	</node>
	<node id="-836384" lat="63.5648777758" lon="8.77816111442">
		<tag k="alt_name" v="Øver Sageidet" />
		<tag k="name" v="Sageidet" />
		<tag k="place" v="farm" />
		<tag k="ssr:stedsnr" v="377370" />
	</node>
	<node id="-834334" lat="63.6703694441" lon="9.04218333893">
		<tag k="name" v="Bakenget" />
		<tag k="place" v="farm" />
		<tag k="ssr:stedsnr" v="455153" />
	</node>
	<node id="-832279" lat="63.5196861102" lon="8.34043056068">
		<tag k="alt_name" v="Bakken" />
		<tag k="name" v="Bakkan" />
		<tag k="place" v="farm" />
		<tag k="ssr:stedsnr" v="212382" />
	</node>
	<node id="-832276" lat="63.6687027778" lon="9.0439416673">
		<tag k="name" v="Tangvika" />
		<tag k="place" v="locality" />
		<tag k="ssr:stedsnr" v="880158" />
	</node>
	<node id="-834323" lat="63.6215527783" lon="8.69138055403">
		<tag k="name" v="Svea" />
		<tag k="place" v="farm" />
		<tag k="ssr:stedsnr" v="741940" />
	</node>
	<node id="-832274" lat="63.5896916654" lon="8.97686666488">
		<tag k="name" v="Smedvika" />
		<tag k="place" v="farm" />
		<tag k="ssr:stedsnr" v="13389" />
	</node>
	<node id="-832273" lat="63.5216166197" lon="8.32947966309">
		<tag k="fixme" v="consider place=hamlet" />
		<tag k="name" v="Gjøssøya" />
		<tag k="place" v="farm" />
		<tag k="ssr:stedsnr" v="212384" />
	</node>
	<node id="-832984" lat="63.5100055527" lon="8.33217222386">
		<tag k="name" v="Straumen" />
		<tag k="place" v="farm" />
		<tag k="ssr:stedsnr" v="90352" />
	</node>
	<node id="-836365" lat="63.5776611069" lon="9.12094721623">
		<tag k="name" v="Rønningen" />
		<tag k="place" v="farm" />
		<tag k="ssr:stedsnr" v="558419" />
	</node>
	<node id="-832268" lat="63.6725083345" lon="9.04891944611">
		<tag k="name" v="Grindskardet" />
		<tag k="place" v="farm" />
		<tag k="ssr:stedsnr" v="880160" />
	</node>
	<node id="-832266" lat="63.6099000033" lon="8.6319805504">
		<tag k="alt_name" v="Sjøbakkan" />
		<tag k="name" v="Sjøbakken" />
		<tag k="place" v="farm" />
		<tag k="ssr:stedsnr" v="680945" />
	</node>
	<node id="-832264" lat="63.5598025731" lon="8.59486243301">
		<tag k="alt_name" v="Nord Håvika;Nordhåvika" />
		<tag k="name" v="Håvika" />
		<tag k="place" v="farm" />
		<tag k="ssr:stedsnr" v="636984" />
	</node>
	<node id="-832259" lat="63.5837858139" lon="8.9901174917">
		<tag k="fixme" v="consider place=hamlet" />
		<tag k="name" v="Øya" />
		<tag k="place" v="farm" />
		<tag k="ssr:stedsnr" v="255392" />
	</node>
	<node id="-836354" lat="63.6460944422" lon="8.99441666073">
		<tag k="name" v="Sandhaugen" />
		<tag k="place" v="farm" />
		<tag k="ssr:stedsnr" v="941761" />
	</node>
	<node id="-832256" lat="63.5824204924" lon="9.12980187383">
		<tag k="fixme" v="consider place=hamlet" />
		<tag k="name" v="Utset" />
		<tag k="place" v="farm" />
		<tag k="ssr:stedsnr" v="680432" />
	</node>
	<node id="-832981" lat="63.4854000012" lon="8.31130555517">
		<tag k="name" v="Rognvika" />
		<tag k="place" v="farm" />
		<tag k="ssr:stedsnr" v="376083" />
	</node>
	<node id="-832252" lat="63.6666333307" lon="9.10689166729">
		<tag k="name" v="Kjønnvika" />
		<tag k="place" v="isolated_dwelling" />
		<tag k="ssr:stedsnr" v="819177" />
	</node>
	<node id="-832251" lat="63.6201972239" lon="9.10176388071">
		<tag k="name" v="Sørsætra" />
		<tag k="place" v="farm" />
		<tag k="ssr:stedsnr" v="151038" />
	</node>
	<node id="-832626" lat="63.5327138857" lon="9.13282223224">
		<tag k="alt_name" v="Nordset" />
		<tag k="fixme" v="multiple name tags, choose one and add the other to alt_name" />
		<tag k="name" v="Bukten;Nordsett" />
		<tag k="place" v="farm" />
		<tag k="ssr:stedsnr" v="134498" />
	</node>
	<node id="-836341" lat="63.6167305592" lon="9.09696111886">
		<tag k="name" v="Stranden" />
		<tag k="place" v="isolated_dwelling" />
		<tag k="ssr:stedsnr" v="273049" />
	</node>
	<node id="-834285" lat="63.6196329635" lon="8.83738960093">
		<tag k="name" v="Bysting" />
		<tag k="place" v="farm" />
		<tag k="ssr:stedsnr" v="741407" />
	</node>
	<node id="-832233" lat="63.629086107" lon="8.73191667341">
		<tag k="alt_name" v="Melandsjø" />
		<tag k="fixme" v="consider place=hamlet" />
		<tag k="name" v="Melandsjøen" />
		<tag k="place" v="village" />
		<tag k="ssr:stedsnr" v="863301" />
	</node>
	<node id="-832489" lat="63.6379166691" lon="8.87919722671">
		<tag k="name" v="Kleiva" />
		<tag k="place" v="farm" />
		<tag k="ssr:stedsnr" v="438251" />
	</node>
	<node id="-832231" lat="63.4419111101" lon="8.36327222162">
		<tag k="alt_name" v="Søraune" />
		<tag k="name" v="Aunet" />
		<tag k="place" v="farm" />
		<tag k="ssr:stedsnr" v="315026" />
	</node>
	<node id="-834277" lat="63.4673000021" lon="8.64568889665">
		<tag k="name" v="Kobbvika" />
		<tag k="place" v="farm" />
		<tag k="ssr:stedsnr" v="376100" />
	</node>
	<node id="-834275" lat="63.5077277814" lon="9.02169722487">
		<tag k="name" v="Litlvika" />
		<tag k="place" v="farm" />
		<tag k="ssr:stedsnr" v="195502" />
	</node>
	<node id="-835707" lat="63.6209861094" lon="8.65771944548">
		<tag k="name" v="Neset" />
		<tag k="place" v="farm" />
		<tag k="ssr:stedsnr" v="571996" />
	</node>
	<node id="-834272" lat="63.5801166637" lon="9.13511944174">
		<tag k="name" v="Utset" />
		<tag k="place" v="farm" />
		<tag k="ssr:stedsnr" v="452662" />
	</node>
	<node id="-834270" lat="63.49034167" lon="8.30404167057">
		<tag k="name" v="Hummelvika" />
		<tag k="place" v="farm" />
		<tag k="ssr:stedsnr" v="255091" />
	</node>
	<node id="-836313" lat="63.5939416688" lon="8.55233888032">
		<tag k="alt_name" v="Stamnesvika" />
		<tag k="name" v="Stamnesvik" />
		<tag k="place" v="farm" />
		<tag k="ssr:stedsnr" v="377897" />
	</node>
	<node id="-836307" lat="63.5866388859" lon="8.96997778089">
		<tag k="fixme" v="consider place=hamlet" />
		<tag k="name" v="Skaget" />
		<tag k="place" v="farm" />
		<tag k="ssr:stedsnr" v="802410" />
	</node>
	<node id="-834256" lat="63.5175194436" lon="8.30959444837">
		<tag k="fixme" v="consider place=hamlet" />
		<tag k="name" v="Brattvikan" />
		<tag k="place" v="farm" />
		<tag k="ssr:stedsnr" v="151424" />
	</node>
	<node id="-832600" lat="63.6519616808" lon="9.11871462267">
		<tag k="alt_name" v="Breivika" />
		<tag k="fixme" v="consider place=hamlet" />
		<tag k="name" v="Breidvika" />
		<tag k="place" v="farm" />
		<tag k="ssr:stedsnr" v="74275" />
	</node>
	<node id="-836386" lat="63.5273250028" lon="9.10690000272">
		<tag k="name" v="Myreng" />
		<tag k="place" v="farm" />
		<tag k="ssr:stedsnr" v="923548" />
	</node>
	<node id="-832200" lat="63.4364027806" lon="8.54660000074">
		<tag k="name" v="Bekkvikdalen" />
		<tag k="place" v="farm" />
		<tag k="ssr:stedsnr" v="923065" />
	</node>
	<node id="-834246" lat="63.6313805528" lon="8.7865944372">
		<tag k="name" v="Reitan" />
		<tag k="place" v="farm" />
		<tag k="ssr:stedsnr" v="455951" />
	</node>
	<node id="-834245" lat="63.6543138872" lon="8.80690833254">
		<tag k="name" v="Sollia" />
		<tag k="place" v="farm" />
		<tag k="ssr:stedsnr" v="802708" />
	</node>
	<node id="-834239" lat="63.6241138918" lon="8.84302223205">
		<tag k="name" v="Solheim" />
		<tag k="place" v="farm" />
		<tag k="ssr:stedsnr" v="619325" />
	</node>
	<node id="-832189" lat="63.6482388885" lon="8.76226667303">
		<tag k="name" v="Litlkjerringvågen" />
		<tag k="place" v="locality" />
		<tag k="ssr:stedsnr" v="151894" />
	</node>
	<node id="-834235" lat="63.6745722228" lon="9.0432500081">
		<tag k="name" v="Storvollen" />
		<tag k="place" v="farm" />
		<tag k="ssr:stedsnr" v="455132" />
	</node>
	<node id="-834232" lat="63.6239083344" lon="8.69930832333">
		<tag k="name" v="Ner Bårbukta" />
		<tag k="place" v="locality" />
		<tag k="ssr:stedsnr" v="819546" />
	</node>
	<node id="-834231" lat="63.6293916626" lon="8.84444721407">
		<tag k="name" v="Åsheim" />
		<tag k="place" v="farm" />
		<tag k="ssr:stedsnr" v="619323" />
	</node>
	<node id="-832179" lat="63.6644527753" lon="9.1676444529">
		<tag k="name" v="Herøysanden" />
		<tag k="place" v="locality" />
		<tag k="ssr:stedsnr" v="879245" />
	</node>
	<node id="-834224" lat="63.6478500024" lon="9.12425834319">
		<tag k="name" v="Melkvika" />
		<tag k="place" v="farm" />
		<tag k="ssr:stedsnr" v="455109" />
	</node>
	<node id="-836269" lat="63.6284305568" lon="9.04009165745">
		<tag k="name" v="Kjedalen" />
		<tag k="place" v="farm" />
		<tag k="ssr:stedsnr" v="13322" />
	</node>
	<node id="-832171" lat="63.6282777788" lon="8.85108889287">
		<tag k="name" v="Barman" />
		<tag k="place" v="farm" />
		<tag k="ssr:stedsnr" v="863272" />
	</node>
	<node id="-836266" lat="63.5850388928" lon="8.9698361034">
		<tag k="name" v="Myran" />
		<tag k="place" v="farm" />
		<tag k="ssr:stedsnr" v="879188" />
	</node>
	<node id="-834216" lat="63.5474111099" lon="9.16383610387">
		<tag k="alt_name" v="Myra" />
		<tag k="name" v="Myran" />
		<tag k="place" v="farm" />
		<tag k="ssr:stedsnr" v="74463" />
	</node>
	<node id="-836262" lat="63.59058056" lon="9.01420555412">
		<tag k="alt_name" v="Storvika" />
		<tag k="name" v="Storvik" />
		<tag k="place" v="farm" />
		<tag k="ssr:stedsnr" v="802405" />
	</node>
	<node id="-832161" lat="63.5657111145" lon="9.13405278096">
		<tag k="name" v="Vilauet" />
		<tag k="place" v="farm" />
		<tag k="ssr:stedsnr" v="759277" />
	</node>
	<node id="-836256" lat="63.5514583316" lon="9.12763888882">
		<tag k="alt_name" v="Øverlian" />
		<tag k="name" v="Lian" />
		<tag k="place" v="farm" />
		<tag k="ssr:stedsnr" v="438162" />
	</node>
	<node id="-834204" lat="63.5098000022" lon="9.03054166516">
		<tag k="alt_name" v="Sætervika" />
		<tag k="name" v="Setervika" />
		<tag k="place" v="farm" />
		<tag k="ssr:stedsnr" v="438455" />
	</node>
	<node id="-834203" lat="63.4764277795" lon="8.73526667327">
		<tag k="name" v="Skardet" />
		<tag k="place" v="farm" />
		<tag k="ssr:stedsnr" v="516645" />
	</node>
	<node id="-832152" lat="63.6309311765" lon="8.90021110384">
		<tag k="fixme" v="consider place=hamlet" />
		<tag k="name" v="Gløstad" />
		<tag k="place" v="farm" />
		<tag k="ssr:stedsnr" v="863276" />
	</node>
	<node id="-834197" lat="63.571532582" lon="9.14017940328">
		<tag k="alt_name" v="Dråga" />
		<tag k="fixme" v="consider place=hamlet" />
		<tag k="name" v="Drågen" />
		<tag k="place" v="farm" />
		<tag k="ssr:stedsnr" v="498448" />
	</node>
	<node id="-832148" lat="63.5315305534" lon="9.12109445225">
		<tag k="name" v="Lyngvoll" />
		<tag k="place" v="farm" />
		<tag k="ssr:stedsnr" v="558476" />
	</node>
	<node id="-836242" lat="63.5843361091" lon="8.44838055833">
		<tag k="alt_name" v="Klingertjønndalen" />
		<tag k="name" v="Dalen" />
		<tag k="place" v="farm" />
		<tag k="ssr:stedsnr" v="880054" />
	</node>
	<node id="-834190" lat="63.4733833369" lon="8.33140555121">
		<tag k="alt_name" v="Øver Aunvågen" />
		<tag k="name" v="Aunvågen" />
		<tag k="place" v="farm" />
		<tag k="ssr:stedsnr" v="255081" />
	</node>
	<node id="-834188" lat="63.5147194469" lon="8.29106110474">
		<tag k="fixme" v="consider place=hamlet" />
		<tag k="name" v="Skåren" />
		<tag k="place" v="farm" />
		<tag k="ssr:stedsnr" v="272637" />
	</node>
	<node id="-834184" lat="63.5966611093" lon="9.06586388423">
		<tag k="name" v="Kvernes" />
		<tag k="place" v="farm" />
		<tag k="ssr:stedsnr" v="437396" />
	</node>
	<node id="-834181" lat="63.6708166659" lon="9.11031111831">
		<tag k="name" v="Aukan" />
		<tag k="place" v="isolated_dwelling" />
		<tag k="ssr:stedsnr" v="91193" />
	</node>
	<node id="-832131" lat="63.6207083364" lon="8.95499445277">
		<tag k="name" v="Eidsvåg" />
		<tag k="place" v="farm" />
		<tag k="ssr:stedsnr" v="13373" />
	</node>
	<node id="-836224" lat="63.5407305601" lon="9.14818055389">
		<tag k="name" v="Sørstrand" />
		<tag k="place" v="farm" />
		<tag k="ssr:stedsnr" v="698364" />
	</node>
	<node id="-836222" lat="63.6206333374" lon="8.9549972139">
		<tag k="name" v="Storvågen" />
		<tag k="place" v="farm" />
		<tag k="ssr:stedsnr" v="273864" />
	</node>
	<node id="-832125" lat="63.6416722245" lon="8.69451389664">
		<tag k="name" v="Hallarvika" />
		<tag k="place" v="farm" />
		<tag k="ssr:stedsnr" v="802984" />
	</node>
	<node id="-834172" lat="63.5559722181" lon="8.5246277878">
		<tag k="name" v="Vikern" />
		<tag k="place" v="farm" />
		<tag k="ssr:stedsnr" v="879636" />
	</node>
	<node id="-836217" lat="63.5475595514" lon="9.20041451845">
		<tag k="fixme" v="consider place=hamlet" />
		<tag k="name" v="Vedøya" />
		<tag k="place" v="farm" />
		<tag k="ssr:stedsnr" v="971123" />
	</node>
	<node id="-836236" lat="63.6521500028" lon="8.77598334302">
		<tag k="name" v="Kjerringvågsjøen" />
		<tag k="place" v="farm" />
		<tag k="ssr:stedsnr" v="636869" />
	</node>
	<node id="-834166" lat="63.6537361145" lon="8.83332777392">
		<tag k="name" v="Åsmyr" />
		<tag k="place" v="farm" />
		<tag k="ssr:stedsnr" v="134672" />
	</node>
	<node id="-834165" lat="63.6376780602" lon="8.85531307964">
		<tag k="fixme" v="consider place=hamlet" />
		<tag k="name" v="Vikan" />
		<tag k="place" v="farm" />
		<tag k="ssr:stedsnr" v="328964" />
	</node>
	<node id="-836212" lat="63.6554861128" lon="8.80465834248">
		<tag k="name" v="Breidvikdalen" />
		<tag k="place" v="farm" />
		<tag k="ssr:stedsnr" v="620609" />
	</node>
	<node id="-836209" lat="63.5619365743" lon="9.19291053893">
		<tag k="fixme" v="consider place=hamlet" />
		<tag k="name" v="Grindvika" />
		<tag k="place" v="farm" />
		<tag k="ssr:stedsnr" v="971122" />
	</node>
	<node id="-832112" lat="63.630252777" lon="9.11955554857">
		<tag k="name" v="Einvika" />
		<tag k="place" v="farm" />
		<tag k="ssr:stedsnr" v="13371" />
	</node>
	<node id="-834159" lat="63.5130277754" lon="9.04314444587">
		<tag k="alt_name" v="Hjertåsen" />
		<tag k="name" v="Hjertås" />
		<tag k="place" v="farm" />
		<tag k="ssr:stedsnr" v="438459" />
	</node>
	<node id="-832109" lat="63.5667194439" lon="9.19580000183">
		<tag k="name" v="Hestvika" />
		<tag k="place" v="hamlet" />
		<tag k="ssr:stedsnr" v="377411" />
	</node>
	<node id="-836202" lat="63.5695581545" lon="9.18790172949">
		<tag k="fixme" v="consider place=hamlet" />
		<tag k="name" v="Børøysund" />
		<tag k="place" v="farm" />
		<tag k="ssr:stedsnr" v="971121" />
	</node>
	<node id="-834151" lat="63.476686112" lon="8.7190916647">
		<tag k="name" v="Høgset" />
		<tag k="place" v="farm" />
		<tag k="ssr:stedsnr" v="497429" />
	</node>
	<node id="-836197" lat="63.5567743708" lon="9.13305262478">
		<tag k="fixme" v="consider place=hamlet" />
		<tag k="name" v="Bjørnavågen" />
		<tag k="place" v="farm" />
		<tag k="ssr:stedsnr" v="971120" />
	</node>
	<node id="-832100" lat="63.5856861143" lon="8.60507500634">
		<tag k="fixme" v="consider place=hamlet" />
		<tag k="name" v="Hestnes" />
		<tag k="place" v="village" />
		<tag k="ssr:stedsnr" v="741681" />
	</node>
	<node id="-834146" lat="63.6541999988" lon="8.8068999983">
		<tag k="name" v="Ekren" />
		<tag k="place" v="farm" />
		<tag k="ssr:stedsnr" v="697992" />
	</node>
	<node id="-832090" lat="63.4738611128" lon="8.31760276808">
		<tag k="name" v="Ottervika" />
		<tag k="place" v="farm" />
		<tag k="ssr:stedsnr" v="619074" />
	</node>
	<node id="-836184" lat="63.5301499995" lon="9.1218111166">
		<tag k="alt_name" v="Sørvollan" />
		<tag k="name" v="Sørvollen" />
		<tag k="place" v="farm" />
		<tag k="ssr:stedsnr" v="619541" />
	</node>
	<node id="-836182" lat="63.6642444412" lon="9.09679444597">
		<tag k="name" v="Røbergsvika" />
		<tag k="place" v="isolated_dwelling" />
		<tag k="ssr:stedsnr" v="576152" />
	</node>
	<node id="-836180" lat="63.5313722207" lon="9.11837777355">
		<tag k="name" v="Nordheim" />
		<tag k="place" v="farm" />
		<tag k="ssr:stedsnr" v="619540" />
	</node>
	<node id="-834129" lat="63.4311611106" lon="8.42628889065">
		<tag k="name" v="Engvika" />
		<tag k="place" v="farm" />
		<tag k="ssr:stedsnr" v="637317" />
	</node>
	<node id="-836176" lat="63.5350611113" lon="9.12597499827">
		<tag k="name" v="Solset" />
		<tag k="place" v="farm" />
		<tag k="ssr:stedsnr" v="923500" />
	</node>
	<node id="-832077" lat="63.4363611113" lon="8.38835277625">
		<tag k="name" v="Nerdalen" />
		<tag k="place" v="farm" />
		<tag k="ssr:stedsnr" v="576242" />
	</node>
	<node id="-834124" lat="63.6503333308" lon="8.77834166164">
		<tag k="name" v="Breidvoll" />
		<tag k="place" v="farm" />
		<tag k="ssr:stedsnr" v="134670" />
	</node>
	<node id="-834119" lat="63.5643846497" lon="8.74418670985">
		<tag k="name" v="Straum" />
		<tag k="place" v="hamlet" />
		<tag k="ssr:stedsnr" v="498441" />
	</node>
	<node id="-836161" lat="63.5110222236" lon="9.04520833009">
		<tag k="name" v="Åsmoa" />
		<tag k="place" v="locality" />
		<tag k="ssr:stedsnr" v="456324" />
	</node>
	<node id="-836704" lat="63.5115206127" lon="8.29175055403">
		<tag k="name" v="Hakkbuan" />
		<tag k="place" v="farm" />
		<tag k="ssr:stedsnr" v="991199" />
	</node>
	<node id="-832058" lat="63.5816430891" lon="8.96572786777">
		<tag k="fixme" v="consider place=hamlet" />
		<tag k="name" v="Valen" />
		<tag k="place" v="farm" />
		<tag k="ssr:stedsnr" v="802460" />
	</node>
	<node id="-836150" lat="63.5239283429" lon="9.13172404948">
		<tag k="fixme" v="consider place=hamlet" />
		<tag k="name" v="Aunøya" />
		<tag k="place" v="farm" />
		<tag k="ssr:stedsnr" v="971125" />
	</node>
	<node id="-832052" lat="63.4709055589" lon="8.67255834122">
		<tag k="name" v="Dyrvika" />
		<tag k="place" v="isolated_dwelling" />
		<tag k="ssr:stedsnr" v="152694" />
	</node>
	<node id="-834099" lat="63.6081083331" lon="8.85523888315">
		<tag k="fixme" v="consider place=hamlet" />
		<tag k="name" v="Fausland" />
		<tag k="place" v="farm" />
		<tag k="ssr:stedsnr" v="515806" />
	</node>
	<node id="-834097" lat="63.4814000007" lon="8.78153332596">
		<tag k="name" v="Lund" />
		<tag k="place" v="farm" />
		<tag k="ssr:stedsnr" v="194422" />
	</node>
	<node id="-832555" lat="63.5033472253" lon="8.97585276806">
		<tag k="name" v="Akset" />
		<tag k="place" v="hamlet" />
		<tag k="ssr:stedsnr" v="134002" />
	</node>
	<node id="-832045" lat="63.6067749964" lon="8.62715277988">
		<tag k="name" v="Steinåkeren" />
		<tag k="place" v="farm" />
		<tag k="ssr:stedsnr" v="30910" />
	</node>
	<node id="-836139" lat="63.5543783189" lon="9.22452290146">
		<tag k="fixme" v="consider place=hamlet" />
		<tag k="name" v="Stora" />
		<tag k="place" v="farm" />
		<tag k="ssr:stedsnr" v="971124" />
	</node>
	<node id="-836135" lat="63.4761083302" lon="8.31972777234">
		<tag k="fixme" v="multiple name tags, choose one and add the other to alt_name" />
		<tag k="name" v="Ottervika;Vika" />
		<tag k="place" v="farm" />
		<tag k="ssr:stedsnr" v="437083" />
	</node>
	<node id="-834086" lat="63.4558277814" lon="8.44596945039">
		<tag k="name" v="Sandvasshytta" />
		<tag k="place" v="isolated_dwelling" />
		<tag k="ssr:stedsnr" v="819516" />
	</node>
	<node id="-834083" lat="63.4743305581" lon="8.72455833151">
		<tag k="name" v="Sætra" />
		<tag k="place" v="farm" />
		<tag k="ssr:stedsnr" v="438450" />
	</node>
	<node id="-836127" lat="63.593749997" lon="8.57558055953">
		<tag k="name" v="Strandheim" />
		<tag k="place" v="farm" />
		<tag k="ssr:stedsnr" v="377867" />
	</node>
	<node id="-832030" lat="63.5600337326" lon="8.59605249096">
		<tag k="fixme" v="consider place=hamlet" />
		<tag k="name" v="Håvika" />
		<tag k="place" v="farm" />
		<tag k="ssr:stedsnr" v="970971" />
	</node>
	<node id="-832028" lat="63.5631551071" lon="9.13105137389">
		<tag k="fixme" v="consider place=hamlet" />
		<tag k="name" v="Vågen" />
		<tag k="place" v="farm" />
		<tag k="ssr:stedsnr" v="680471" />
	</node>
	<node id="-834071" lat="63.6649690687" lon="9.07797267693">
		<tag k="amenity" v="school" />
		<tag k="name" v="Knarrlagsund oppvekstsenter" />
		<tag k="ssr:stedsnr" v="952843" />
	</node>
	<node id="-834069" lat="63.6445277772" lon="9.16199445264">
		<tag k="name" v="Reksa" />
		<tag k="place" v="farm" />
		<tag k="ssr:stedsnr" v="619290" />
	</node>
	<node id="-834067" lat="63.5985833315" lon="8.86559999106">
		<tag k="name" v="Øvervollen" />
		<tag k="place" v="farm" />
		<tag k="ssr:stedsnr" v="758785" />
	</node>
	<node id="-834065" lat="63.6224083319" lon="8.71448888912">
		<tag k="name" v="Dalen" />
		<tag k="place" v="farm" />
		<tag k="ssr:stedsnr" v="620897" />
	</node>
	<node id="-832015" lat="63.5696942841" lon="8.42808440549">
		<tag k="fixme" v="consider place=hamlet" />
		<tag k="name" v="Olderøya" />
		<tag k="place" v="farm" />
		<tag k="ssr:stedsnr" v="941119" />
	</node>
	<node id="-836109" lat="63.6215222227" lon="8.73854444058">
		<tag k="name" v="Sollia" />
		<tag k="place" v="farm" />
		<tag k="ssr:stedsnr" v="255312" />
	</node>
	<node id="-836107" lat="63.4477333316" lon="8.4189972253">
		<tag k="name" v="Kvitsandhytta" />
		<tag k="place" v="isolated_dwelling" />
		<tag k="ssr:stedsnr" v="758343" />
	</node>
	<node id="-836105" lat="63.5472916666" lon="9.15814166573">
		<tag k="name" v="Skjervikdalen" />
		<tag k="place" v="farm" />
		<tag k="ssr:stedsnr" v="923512" />
	</node>
	<node id="-834056" lat="63.6226167497" lon="8.93000900065">
		<tag k="alt_name" v="Eide" />
		<tag k="fixme" v="consider place=hamlet" />
		<tag k="name" v="Eid" />
		<tag k="place" v="farm" />
		<tag k="ssr:stedsnr" v="316331" />
	</node>
	<node id="-834055" lat="63.4791750043" lon="8.32143888454">
		<tag k="name" v="Lensmannsvika" />
		<tag k="place" v="farm" />
		<tag k="ssr:stedsnr" v="941355" />
	</node>
	<node id="-836096" lat="63.4571222193" lon="8.60225000823">
		<tag k="name" v="Lund" />
		<tag k="place" v="farm" />
		<tag k="ssr:stedsnr" v="333257" />
	</node>
	<node id="-834047" lat="63.5995000038" lon="9.08941389206">
		<tag k="name" v="Kvalvik" />
		<tag k="place" v="farm" />
		<tag k="ssr:stedsnr" v="498435" />
	</node>
	<node id="-831998" lat="63.5672646564" lon="8.37653420428">
		<tag k="fixme" v="consider place=hamlet" />
		<tag k="name" v="Edøya" />
		<tag k="place" v="farm" />
		<tag k="ssr:stedsnr" v="970978" />
	</node>
	<node id="-831994" lat="63.5231194423" lon="9.08861111148">
		<tag k="name" v="Dalen" />
		<tag k="place" v="farm" />
		<tag k="ssr:stedsnr" v="134483" />
	</node>
	<node id="-834040" lat="63.6503722181" lon="8.75946944276">
		<tag k="building" v="industrial" />
		<tag k="name" v="Dolmøy Slipp" />
		<tag k="ssr:stedsnr" v="334579" />
	</node>
	<node id="-831990" lat="63.611774206" lon="8.4443118808">
		<tag k="fixme" v="consider place=hamlet" />
		<tag k="name" v="Tosøya" />
		<tag k="place" v="farm" />
		<tag k="ssr:stedsnr" v="970976" />
	</node>
	<node id="-836083" lat="63.5234861093" lon="9.09937221602">
		<tag k="name" v="Sandstad (Nordgården)" />
		<tag k="place" v="farm" />
		<tag k="ssr:stedsnr" v="92393" />
	</node>
	<node id="-831983" lat="63.4420749968" lon="8.57067778111">
		<tag k="fixme" v="consider place=hamlet" />
		<tag k="name" v="Sørkvammen" />
		<tag k="place" v="farm" />
		<tag k="ssr:stedsnr" v="940248" />
	</node>
	<node id="-831981" lat="63.4929899519" lon="8.92558889295">
		<tag k="name" v="Tanderommet" />
		<tag k="place" v="locality" />
		<tag k="ssr:stedsnr" v="516357" />
	</node>
	<node id="-834028" lat="63.608337549" lon="8.88739716384">
		<tag k="fixme" v="consider place=hamlet" />
		<tag k="name" v="Hammerstaddalen" />
		<tag k="place" v="farm" />
		<tag k="ssr:stedsnr" v="575765" />
	</node>
	<node id="-831978" lat="63.4272916688" lon="8.47507221924">
		<tag k="name" v="Morvollan" />
		<tag k="place" v="farm" />
		<tag k="ssr:stedsnr" v="758525" />
	</node>
	<node id="-831977" lat="63.5252111122" lon="9.08680834326">
		<tag k="name" v="Øra" />
		<tag k="place" v="farm" />
		<tag k="ssr:stedsnr" v="255432" />
	</node>
	<node id="-836348" lat="63.6642861119" lon="9.080324992">
		<tag k="alt_name" v="Knarrlagsund" />
		<tag k="fixme" v="consider place=suburb, village or hamlet" />
		<tag k="name" v="Knarrlaget" />
		<tag k="place" v="quarter" />
		<tag k="ssr:stedsnr" v="394138" />
	</node>
	<node id="-834019" lat="63.5705055572" lon="9.19061111913">
		<tag k="fixme" v="consider place=hamlet" />
		<tag k="name" v="Børøysund" />
		<tag k="place" v="village" />
		<tag k="ssr:stedsnr" v="498437" />
	</node>
	<node id="-834017" lat="63.6291138892" lon="8.97796389817">
		<tag k="name" v="Slåttavik" />
		<tag k="place" v="farm" />
		<tag k="ssr:stedsnr" v="316335" />
	</node>
	<node id="-834011" lat="63.5415416684" lon="8.82163611504">
		<tag k="name" v="Nybua" />
		<tag k="place" v="isolated_dwelling" />
		<tag k="ssr:stedsnr" v="758797" />
	</node>
	<node id="-836054" lat="63.6480500006" lon="8.75616943892">
		<tag k="name" v="Bakkan" />
		<tag k="place" v="locality" />
		<tag k="ssr:stedsnr" v="819896" />
	</node>
	<node id="-834004" lat="63.5616972178" lon="8.52258888926">
		<tag k="name" v="Nordheim" />
		<tag k="place" v="farm" />
		<tag k="ssr:stedsnr" v="255598" />
	</node>
	<node id="-836043" lat="63.4833638916" lon="8.77585833111">
		<tag k="alt_name" v="Lundamo" />
		<tag k="name" v="Lundemo" />
		<tag k="place" v="farm" />
		<tag k="ssr:stedsnr" v="618469" />
	</node>
	<node id="-832588" lat="63.4990194473" lon="8.26814444494">
		<tag k="name" v="Sæbuskaget" />
		<tag k="place" v="isolated_dwelling" />
		<tag k="ssr:stedsnr" v="697658" />
	</node>
	<node id="-833990" lat="63.5320944449" lon="8.39134445166">
		<tag k="name" v="Myra" />
		<tag k="place" v="farm" />
		<tag k="ssr:stedsnr" v="273424" />
	</node>
	<node id="-833989" lat="63.5667502294" lon="9.13746676164">
		<tag k="fixme" v="consider place=hamlet" />
		<tag k="name" v="Neset" />
		<tag k="place" v="farm" />
		<tag k="ssr:stedsnr" v="195460" />
	</node>
	<node id="-836030" lat="63.5251472184" lon="9.11278333661">
		<tag k="name" v="Halten" />
		<tag k="place" v="farm" />
		<tag k="ssr:stedsnr" v="741592" />
	</node>
	<node id="-836029" lat="63.6359222216" lon="9.03588332546">
		<tag k="name" v="Aunet" />
		<tag k="place" v="farm" />
		<tag k="ssr:stedsnr" v="333247" />
	</node>
	<node id="-833980" lat="63.6503888923" lon="8.79019166015">
		<tag k="name" v="Mossavika" />
		<tag k="place" v="farm" />
		<tag k="ssr:stedsnr" v="455894" />
	</node>
	<node id="-836022" lat="63.4836361151" lon="8.82425832982">
		<tag k="name" v="Furulund" />
		<tag k="place" v="farm" />
		<tag k="ssr:stedsnr" v="922439" />
	</node>
	<node id="-836016" lat="63.4674472258" lon="8.64588887998">
		<tag k="name" v="Åsheim" />
		<tag k="place" v="farm" />
		<tag k="ssr:stedsnr" v="881659" />
	</node>
	<node id="-835790" lat="63.5607166661" lon="9.15541387941">
		<tag k="name" v="Holbekkvika" />
		<tag k="place" v="farm" />
		<tag k="ssr:stedsnr" v="698276" />
	</node>
	<node id="-836001" lat="63.6375861105" lon="8.99346945076">
		<tag k="name" v="Neset" />
		<tag k="place" v="farm" />
		<tag k="ssr:stedsnr" v="819861" />
	</node>
	<node id="-833951" lat="63.6272916697" lon="8.71930276942">
		<tag k="alt_name" v="Hopsjø" />
		<tag k="name" v="Hopsjøen" />
		<tag k="place" v="hamlet" />
		<tag k="ssr:stedsnr" v="394525" />
	</node>
	<node id="-833948" lat="63.4339611121" lon="8.41505555523">
		<tag k="name" v="Reitan" />
		<tag k="place" v="farm" />
		<tag k="ssr:stedsnr" v="30324" />
	</node>
	<node id="-833946" lat="63.6226499977" lon="8.73742500761">
		<tag k="name" v="Elva" />
		<tag k="place" v="farm" />
		<tag k="ssr:stedsnr" v="741361" />
	</node>
	<node id="-832887" lat="63.660839439" lon="9.08805542748">
		<tag k="fixme" v="multiple name tags, choose one and add the other to alt_name; consider place=hamlet" />
		<tag k="name" v="Kjerbusdalen;Skjærbusdal" />
		<tag k="place" v="farm" />
		<tag k="ssr:stedsnr" v="923654" />
	</node>
	<node id="-833943" lat="63.6590000016" lon="8.84428610792">
		<tag k="name" v="Knutshaugen" />
		<tag k="place" v="farm" />
		<tag k="ssr:stedsnr" v="347724" />
	</node>
	<node id="-835986" lat="63.5395527746" lon="8.42436111169">
		<tag k="name" v="Asskogan" />
		<tag k="place" v="farm" />
		<tag k="ssr:stedsnr" v="819859" />
	</node>
	<node id="-835985" lat="63.635858329" lon="9.15084443843">
		<tag k="name" v="Fjellvær" />
		<tag k="old_name" v="Leirvik" />
		<tag k="place" v="farm" />
		<tag k="ssr:stedsnr" v="255305" />
	</node>
	<node id="-833935" lat="63.4702388862" lon="8.3294277877">
		<tag k="name" v="Hylla" />
		<tag k="place" v="farm" />
		<tag k="ssr:stedsnr" v="801062" />
	</node>
	<node id="-836371" lat="63.5636916623" lon="8.75715277058">
		<tag k="name" v="Haugen" />
		<tag k="place" v="farm" />
		<tag k="ssr:stedsnr" v="941758" />
	</node>
	<node id="-836294" lat="63.6223139151" lon="9.10508171723">
		<tag k="name" v="Sætra" />
		<tag k="place" v="farm" />
		<tag k="ssr:stedsnr" v="13325" />
	</node>
	<node id="-833926" lat="63.4399416645" lon="8.31928610854">
		<tag k="name" v="Åkvika" />
		<tag k="place" v="farm" />
		<tag k="ssr:stedsnr" v="941325" />
	</node>
	<node id="-833924" lat="63.5115083322" lon="8.57306389652">
		<tag k="name" v="Skumfossøra" />
		<tag k="place" v="farm" />
		<tag k="ssr:stedsnr" v="559717" />
	</node>
	<node id="-833917" lat="63.5073916644" lon="8.99402777747">
		<tag k="name" v="Oldervika" />
		<tag k="place" v="farm" />
		<tag k="ssr:stedsnr" v="395358" />
	</node>
	<node id="-833913" lat="63.475575002" lon="8.72960000244">
		<tag k="name" v="Sundlia" />
		<tag k="place" v="farm" />
		<tag k="ssr:stedsnr" v="863479" />
	</node>
	<node id="-835957" lat="63.6220416646" lon="8.85053888059">
		<tag k="amenity" v="school" />
		<tag k="name" v="Barman oppvekstsenter" />
		<tag k="ssr:stedsnr" v="709752" />
	</node>
	<node id="-835943" lat="63.6691722225" lon="9.05055555741">
		<tag k="name" v="Kjevika" />
		<tag k="place" v="farm" />
		<tag k="ssr:stedsnr" v="74676" />
	</node>
	<node id="-836325" lat="63.6068111076" lon="8.96596943941">
		<tag k="name" v="Fillaunet" />
		<tag k="place" v="locality" />
		<tag k="ssr:stedsnr" v="880845" />
	</node>
	<node id="-835931" lat="63.6374916623" lon="9.14937222011">
		<tag k="name" v="Nordheim" />
		<tag k="place" v="farm" />
		<tag k="ssr:stedsnr" v="880012" />
	</node>
	<node id="-835929" lat="63.6470666668" lon="8.83778888776">
		<tag k="name" v="Eidestranda" />
		<tag k="place" v="farm" />
		<tag k="ssr:stedsnr" v="376279" />
	</node>
	<node id="-833878" lat="63.5339666668" lon="8.39323611654">
		<tag k="name" v="Båtvika" />
		<tag k="place" v="farm" />
		<tag k="ssr:stedsnr" v="819445" />
	</node>
	<node id="-835924" lat="63.6333833323" lon="9.03380833875">
		<tag k="name" v="Hagen" />
		<tag k="place" v="isolated_dwelling" />
		<tag k="ssr:stedsnr" v="212221" />
	</node>
	<node id="-833875" lat="63.6477166673" lon="8.71965277704">
		<tag k="name" v="Sletta" />
		<tag k="place" v="isolated_dwelling" />
		<tag k="ssr:stedsnr" v="697921" />
	</node>
	<node id="-833869" lat="63.4789749979" lon="8.74428055359">
		<tag k="alt_name" v="Furuvik" />
		<tag k="name" v="Furuvika" />
		<tag k="place" v="farm" />
		<tag k="ssr:stedsnr" v="194398" />
	</node>
	<node id="-835915" lat="63.6358749973" lon="8.98865000013">
		<tag k="name" v="Gåsvollan" />
		<tag k="place" v="farm" />
		<tag k="ssr:stedsnr" v="394883" />
	</node>
	<node id="-835909" lat="63.6556916694" lon="8.8466666699">
		<tag k="alt_name" v="Vollen" />
		<tag k="name" v="Vollan" />
		<tag k="place" v="farm" />
		<tag k="ssr:stedsnr" v="438661" />
	</node>
	<node id="-833859" lat="63.4514722242" lon="8.58853889759">
		<tag k="fixme" v="consider place=hamlet" />
		<tag k="name" v="Nordkvammen" />
		<tag k="place" v="farm" />
		<tag k="ssr:stedsnr" v="454205" />
	</node>
	<node id="-833857" lat="63.5559868189" lon="8.48153697201">
		<tag k="fixme" v="consider place=hamlet" />
		<tag k="name" v="Grefsnes" />
		<tag k="place" v="farm" />
		<tag k="ssr:stedsnr" v="255586" />
	</node>
	<node id="-835900" lat="63.5584777779" lon="8.58490000767">
		<tag k="name" v="Sørhåvika" />
		<tag k="place" v="farm" />
		<tag k="ssr:stedsnr" v="516979" />
	</node>
	<node id="-833850" lat="63.5359472184" lon="8.40232777631">
		<tag k="name" v="Vikan" />
		<tag k="place" v="hamlet" />
		<tag k="ssr:stedsnr" v="819449" />
	</node>
	<node id="-836318" lat="63.6230361088" lon="8.74726388165">
		<tag k="alt_name" v="Sommarvollen" />
		<tag k="name" v="Sommarvoll" />
		<tag k="place" v="farm" />
		<tag k="ssr:stedsnr" v="680352" />
	</node>
	<node id="-835889" lat="63.652397219" lon="8.80653055576">
		<tag k="name" v="Skjåvika" />
		<tag k="place" v="farm" />
		<tag k="ssr:stedsnr" v="272988" />
	</node>
	<node id="-832904" lat="63.5524972235" lon="9.17732223011">
		<tag k="alt_name" v="Langaunet" />
		<tag k="name" v="Strandaunet" />
		<tag k="place" v="farm" />
		<tag k="ssr:stedsnr" v="759411" />
	</node>
	<node id="-835883" lat="63.601945267" lon="8.98218475342">
		<tag k="fixme" v="consider place=hamlet" />
		<tag k="name" v="Vikan" />
		<tag k="place" v="farm" />
		<tag k="ssr:stedsnr" v="256338" />
	</node>
	<node id="-835880" lat="63.5818629313" lon="9.16718898019">
		<tag k="fixme" v="consider place=hamlet" />
		<tag k="name" v="Utsetøya" />
		<tag k="place" v="farm" />
		<tag k="ssr:stedsnr" v="971118" />
	</node>
	<node id="-835875" lat="63.6431444424" lon="8.98917777294">
		<tag k="name" v="Grindfaret" />
		<tag k="place" v="farm" />
		<tag k="ssr:stedsnr" v="376282" />
	</node>
	<node id="-833823" lat="63.4278555573" lon="8.4883916753">
		<tag k="name" v="Risvika" />
		<tag k="place" v="farm" />
		<tag k="ssr:stedsnr" v="394491" />
	</node>
	<node id="-835870" lat="63.4503861103" lon="8.58925278472">
		<tag k="name" v="Våttan" />
		<tag k="place" v="isolated_dwelling" />
		<tag k="ssr:stedsnr" v="333239" />
	</node>
	<node id="-835869" lat="63.64811667" lon="8.81050555027">
		<tag k="alt_name" v="Melkstad" />
		<tag k="name" v="Morrvika" />
		<tag k="place" v="farm" />
		<tag k="ssr:stedsnr" v="272986" />
	</node>
	<node id="-835865" lat="63.6243094448" lon="8.73999697131">
		<tag k="name" v="Stavlia" />
		<tag k="place" v="farm" />
		<tag k="ssr:stedsnr" v="134355" />
	</node>
	<node id="-835861" lat="63.5981361108" lon="9.02763333338">
		<tag k="name" v="Tranvikan" />
		<tag k="place" v="hamlet" />
		<tag k="ssr:stedsnr" v="333237" />
	</node>
	<node id="-833807" lat="63.4481177065" lon="8.58089253719">
		<tag k="name" v="Kvammen" />
		<tag k="place" v="hamlet" />
		<tag k="ssr:stedsnr" v="679011" />
	</node>
	<node id="-833804" lat="63.6281027768" lon="8.96482777322">
		<tag k="fixme" v="consider place=hamlet" />
		<tag k="name" v="Jevika" />
		<tag k="place" v="farm" />
		<tag k="ssr:stedsnr" v="455872" />
	</node>
	<node id="-835847" lat="63.6335222187" lon="9.0407111044">
		<tag k="name" v="Straumsvik" />
		<tag k="place" v="farm" />
		<tag k="ssr:stedsnr" v="212219" />
	</node>
	<node id="-836651" lat="63.5001196734" lon="8.34009991498">
		<tag k="alt_name" v="Hærnes" />
		<tag k="fixme" v="consider place=hamlet" />
		<tag k="name" v="Hernes" />
		<tag k="place" v="farm" />
		<tag k="ssr:stedsnr" v="862730" />
	</node>
	<node id="-835839" lat="63.4958277817" lon="8.93628889665">
		<tag k="name" v="Skogstad" />
		<tag k="place" v="farm" />
		<tag k="ssr:stedsnr" v="922425" />
	</node>
	<node id="-833237" lat="63.6059811317" lon="8.62720281359">
		<tag k="fixme" v="consider place=hamlet" />
		<tag k="name" v="Småge" />
		<tag k="place" v="farm" />
		<tag k="ssr:stedsnr" v="74880" />
	</node>
	<node id="-835836" lat="63.645461462" lon="9.17162440515">
		<tag k="fixme" v="consider place=hamlet" />
		<tag k="name" v="Reksa" />
		<tag k="place" v="farm" />
		<tag k="ssr:stedsnr" v="515255" />
	</node>
	<node id="-835833" lat="63.6333500026" lon="8.81268056377">
		<tag k="name" v="Fjellheim" />
		<tag k="place" v="farm" />
		<tag k="ssr:stedsnr" v="13282" />
	</node>
	<node id="-833784" lat="63.5335666675" lon="8.42131944456">
		<tag k="name" v="Melkstad" />
		<tag k="place" v="farm" />
		<tag k="ssr:stedsnr" v="13556" />
	</node>
	<node id="-833781" lat="63.6249712694" lon="8.74573029875">
		<tag k="fixme" v="consider place=hamlet" />
		<tag k="name" v="Undås" />
		<tag k="place" v="farm" />
		<tag k="ssr:stedsnr" v="879599" />
	</node>
	<node id="-835828" lat="63.6130364125" lon="8.88035759766">
		<tag k="alt_name" v="Hammarstad" />
		<tag k="fixme" v="consider place=hamlet" />
		<tag k="name" v="Hammerstad" />
		<tag k="place" v="farm" />
		<tag k="ssr:stedsnr" v="377323" />
	</node>
	<node id="-835825" lat="63.6111638919" lon="8.74063333819">
		<tag k="name" v="Melandsgruvan" />
		<tag k="place" v="quarter" />
		<tag k="ssr:stedsnr" v="576930" />
	</node>
	<node id="-833772" lat="63.6568305517" lon="8.838236118">
		<tag k="name" v="Myra" />
		<tag k="place" v="farm" />
		<tag k="ssr:stedsnr" v="681649" />
	</node>
	<node id="-835819" lat="63.5971557025" lon="9.02626759664">
		<tag k="name" v="Tranvik" />
		<tag k="place" v="farm" />
		<tag k="ssr:stedsnr" v="256334" />
	</node>
	<node id="-835818" lat="63.4375138883" lon="8.56666388849">
		<tag k="name" v="Atthammaren" />
		<tag k="place" v="farm" />
		<tag k="ssr:stedsnr" v="575234" />
	</node>
	<node id="-833767" lat="63.648091665" lon="8.81042222585">
		<tag k="name" v="Morvika" />
		<tag k="place" v="farm" />
		<tag k="ssr:stedsnr" v="741331" />
	</node>
	<node id="-833764" lat="63.6501611071" lon="8.75129167452">
		<tag k="name" v="Berge" />
		<tag k="place" v="locality" />
		<tag k="ssr:stedsnr" v="697899" />
	</node>
	<node id="-833763" lat="63.4300527816" lon="8.4323833306">
		<tag k="name" v="Engvika" />
		<tag k="place" v="farm" />
		<tag k="ssr:stedsnr" v="680067" />
	</node>
	<node id="-833762" lat="63.6031033526" lon="8.68221980762">
		<tag k="fixme" v="consider place=hamlet" />
		<tag k="name" v="Leikvam" />
		<tag k="place" v="farm" />
		<tag k="ssr:stedsnr" v="272559" />
	</node>
	<node id="-835808" lat="63.5712472206" lon="8.66913056299">
		<tag k="fixme" v="consider place=hamlet" />
		<tag k="name" v="Hofstad" />
		<tag k="place" v="farm" />
		<tag k="ssr:stedsnr" v="924550" />
	</node>
	<node id="-833759" lat="63.4492689577" lon="8.359863029">
		<tag k="fixme" v="consider place=hamlet" />
		<tag k="name" v="Tunga" />
		<tag k="place" v="farm" />
		<tag k="ssr:stedsnr" v="376022" />
	</node>
	<node id="-836154" lat="63.5295666657" lon="9.10873889425">
		<tag k="alt_name" v="Grønbakkan" />
		<tag k="name" v="Grønbakken" />
		<tag k="place" v="farm" />
		<tag k="ssr:stedsnr" v="619538" />
	</node>
	<node id="-835797" lat="63.5642388893" lon="8.74220833634">
		<tag k="name" v="Myran" />
		<tag k="place" v="farm" />
		<tag k="ssr:stedsnr" v="273797" />
	</node>
	<node id="-835795" lat="63.6238111083" lon="9.10550555604">
		<tag k="alt_name" v="Mellomsæter" />
		<tag k="fixme" v="consider place=hamlet" />
		<tag k="name" v="Mellomsætra" />
		<tag k="place" v="farm" />
		<tag k="ssr:stedsnr" v="940002" />
	</node>
	<node id="-836643" lat="63.6729587364" lon="9.10441969661">
		<tag k="fixme" v="consider place=hamlet" />
		<tag k="loc_name" v="Selvågen" />
		<tag k="name" v="Selvågan" />
		<tag k="place" v="farm" />
		<tag k="ssr:stedsnr" v="25934" />
	</node>
	<node id="-833742" lat="63.5489444433" lon="8.44981389662">
		<tag k="name" v="Faksvågmyra" />
		<tag k="place" v="farm" />
		<tag k="ssr:stedsnr" v="697015" />
	</node>
	<node id="-835789" lat="63.5634194419" lon="8.74410833765">
		<tag k="name" v="Vestergården" />
		<tag k="place" v="farm" />
		<tag k="ssr:stedsnr" v="273796" />
	</node>
	<node id="-835788" lat="63.6247166707" lon="8.85859444814">
		<tag k="alt_name" v="Breivika" />
		<tag k="name" v="Breivik" />
		<tag k="place" v="farm" />
		<tag k="ssr:stedsnr" v="134340" />
	</node>
	<node id="-833737" lat="63.6137499992" lon="8.61146388486">
		<tag k="name" v="Rognvik" />
		<tag k="place" v="farm" />
		<tag k="ssr:stedsnr" v="819421" />
	</node>
	<node id="-833733" lat="63.6508346972" lon="8.77782766796">
		<tag k="fixme" v="consider place=hamlet" />
		<tag k="name" v="Kjerringvågen" />
		<tag k="place" v="farm" />
		<tag k="ssr:stedsnr" v="697892" />
	</node>
	<node id="-833730" lat="63.5640555582" lon="8.78003888461">
		<tag k="name" v="Ner Sageidet" />
		<tag k="place" v="farm" />
		<tag k="ssr:stedsnr" v="455856" />
	</node>
	<node id="-836299" lat="63.5998416681" lon="8.97492499709">
		<tag k="fixme" v="consider place=suburb, village or hamlet" />
		<tag k="name" v="Oldervika" />
		<tag k="place" v="quarter" />
		<tag k="ssr:stedsnr" v="879184" />
	</node>
	<node id="-833728" lat="63.5523861154" lon="8.55228888155">
		<tag k="alt_name" v="Naustvika" />
		<tag k="name" v="Naustvik" />
		<tag k="place" v="farm" />
		<tag k="ssr:stedsnr" v="13551" />
	</node>
	<node id="-835775" lat="63.652380622" lon="8.81333500213">
		<tag k="fixme" v="consider place=hamlet" />
		<tag k="name" v="Norddolm" />
		<tag k="place" v="farm" />
		<tag k="ssr:stedsnr" v="74658" />
	</node>
	<node id="-833725" lat="63.5227770133" lon="9.0960293874">
		<tag k="fixme" v="consider place=hamlet" />
		<tag k="name" v="Sandstad" />
		<tag k="place" v="farm" />
		<tag k="ssr:stedsnr" v="577389" />
	</node>
	<node id="-835772" lat="63.6395916676" lon="8.99228888115">
		<tag k="name" v="Halsan" />
		<tag k="place" v="farm" />
		<tag k="ssr:stedsnr" v="940864" />
	</node>
	<node id="-835769" lat="63.5441666702" lon="8.41409167654">
		<tag k="name" v="Bekken" />
		<tag k="place" v="farm" />
		<tag k="ssr:stedsnr" v="576108" />
	</node>
	<node id="-835767" lat="63.4903416696" lon="8.26525000176">
		<tag k="name" v="Posten" />
		<tag k="place" v="isolated_dwelling" />
		<tag k="ssr:stedsnr" v="30685" />
	</node>
	<node id="-836221" lat="63.5049638924" lon="8.97570277613">
		<tag k="name" v="Granheim" />
		<tag k="place" v="farm" />
		<tag k="ssr:stedsnr" v="456319" />
	</node>
	<node id="-833715" lat="63.6502694429" lon="8.77539167426">
		<tag k="name" v="Haugen" />
		<tag k="place" v="farm" />
		<tag k="ssr:stedsnr" v="697889" />
	</node>
	<node id="-833706" lat="63.5943111155" lon="8.56455000174">
		<tag k="name" v="Nygård" />
		<tag k="place" v="farm" />
		<tag k="ssr:stedsnr" v="498920" />
	</node>
	<node id="-835752" lat="63.6203138857" lon="8.94756944439">
		<tag k="name" v="Litlvågen" />
		<tag k="place" v="farm" />
		<tag k="ssr:stedsnr" v="394854" />
	</node>
	<node id="-835751" lat="63.6262388847" lon="8.85654999463">
		<tag k="name" v="Bekken" />
		<tag k="place" v="farm" />
		<tag k="ssr:stedsnr" v="134337" />
	</node>
	<node id="-835270" lat="63.651400004" lon="9.15410555899">
		<tag k="name" v="Kvitsanden" />
		<tag k="place" v="farm" />
		<tag k="ssr:stedsnr" v="333136" />
	</node>
	<node id="-833697" lat="63.5417067849" lon="9.15046329861">
		<tag k="fixme" v="consider place=hamlet" />
		<tag k="name" v="Strand" />
		<tag k="place" v="farm" />
		<tag k="ssr:stedsnr" v="863473" />
	</node>
	<node id="-833693" lat="63.4287829337" lon="8.47490175119">
		<tag k="fixme" v="consider place=hamlet" />
		<tag k="name" v="Morvollan" />
		<tag k="place" v="farm" />
		<tag k="ssr:stedsnr" v="377060" />
	</node>
	<node id="-835739" lat="63.632888885" lon="8.75268610596">
		<tag k="name" v="Sørvågen" />
		<tag k="place" v="farm" />
		<tag k="ssr:stedsnr" v="13273" />
	</node>
	<node id="-833682" lat="63.5885104131" lon="9.01306630334">
		<tag k="alt_name" v="Henningsvika" />
		<tag k="fixme" v="consider place=hamlet" />
		<tag k="name" v="Henningsvik" />
		<tag k="place" v="farm" />
		<tag k="ssr:stedsnr" v="73345" />
	</node>
	<node id="-835722" lat="63.4980500028" lon="8.26507776806">
		<tag k="name" v="Sæbuan" />
		<tag k="place" v="isolated_dwelling" />
		<tag k="ssr:stedsnr" v="90658" />
	</node>
	<node id="-835721" lat="63.5953055593" lon="9.09874443478">
		<tag k="name" v="Litlulværet" />
		<tag k="place" v="farm" />
		<tag k="ssr:stedsnr" v="213063" />
	</node>
	<node id="-833672" lat="63.621655552" lon="8.67695554671">
		<tag k="name" v="Myra" />
		<tag k="place" v="farm" />
		<tag k="ssr:stedsnr" v="498921" />
	</node>
	<node id="-833671" lat="63.6477583316" lon="8.74280278121">
		<tag k="name" v="Myra" />
		<tag k="place" v="locality" />
		<tag k="ssr:stedsnr" v="697906" />
	</node>
	<node id="-832146" lat="63.4277611074" lon="8.49353888578">
		<tag k="name" v="Stokkvika" />
		<tag k="place" v="farm" />
		<tag k="ssr:stedsnr" v="619061" />
	</node>
	<node id="-833663" lat="63.5116583317" lon="9.08379166391">
		<tag k="name" v="Myraplassen" />
		<tag k="place" v="isolated_dwelling" />
		<tag k="ssr:stedsnr" v="820300" />
	</node>
	<node id="-833659" lat="63.6504194469" lon="8.76530278626">
		<tag k="name" v="Torvmyra" />
		<tag k="place" v="locality" />
		<tag k="ssr:stedsnr" v="697907" />
	</node>
	<node id="-835699" lat="63.6415000012" lon="9.04779445392">
		<tag k="name" v="Steinsbakken" />
		<tag k="place" v="farm" />
		<tag k="ssr:stedsnr" v="515247" />
	</node>
	<node id="-833646" lat="63.65115833" lon="8.77627776778">
		<tag k="fixme" v="consider place=hamlet" />
		<tag k="name" v="Kjerringvåg" />
		<tag k="place" v="village" />
		<tag k="ssr:stedsnr" v="256616" />
	</node>
	<node id="-833645" lat="63.6184222205" lon="9.0976472245">
		<tag k="name" v="Sætra" />
		<tag k="place" v="farm" />
		<tag k="ssr:stedsnr" v="455030" />
	</node>
	<node id="-833643" lat="63.4290194402" lon="8.49866667282">
		<tag k="name" v="Kvernavika" />
		<tag k="place" v="locality" />
		<tag k="ssr:stedsnr" v="680069" />
	</node>
	<node id="-833640" lat="63.4324305562" lon="8.54029443643">
		<tag k="name" v="Værøysetra" />
		<tag k="place" v="farm" />
		<tag k="ssr:stedsnr" v="377052" />
	</node>
	<node id="-833636" lat="63.6185254799" lon="8.96243926698">
		<tag k="fixme" v="consider place=hamlet" />
		<tag k="name" v="Steinklov" />
		<tag k="place" v="farm" />
		<tag k="ssr:stedsnr" v="620324" />
	</node>
	<node id="-833632" lat="63.6441904453" lon="8.70438789552">
		<tag k="name" v="Øya" />
		<tag k="place" v="farm" />
		<tag k="ssr:stedsnr" v="863973" />
	</node>
	<node id="-835672" lat="63.6495583374" lon="9.10932500441">
		<tag k="fixme" v="consider place=hamlet" />
		<tag k="name" v="Kastvika" />
		<tag k="place" v="farm" />
		<tag k="ssr:stedsnr" v="879100" />
	</node>
	<node id="-833621" lat="63.6063089327" lon="8.96962780221">
		<tag k="name" v="Fillan" />
		<tag k="place" v="village" />
		<tag k="ssr:stedsnr" v="498388" />
	</node>
	<node id="-835668" lat="63.649866671" lon="8.79639722911">
		<tag k="fixme" v="consider place=hamlet" />
		<tag k="name" v="Jektvika" />
		<tag k="place" v="farm" />
		<tag k="ssr:stedsnr" v="74651" />
	</node>
	<node id="-836280" lat="63.6006222239" lon="8.97649722749">
		<tag k="name" v="Torget" />
		<tag k="place" v="square" />
		<tag k="ssr:stedsnr" v="726147" />
	</node>
	<node id="-835658" lat="63.6462141148" lon="9.0530326232">
		<tag k="fixme" v="consider place=hamlet" />
		<tag k="name" v="Mastad" />
		<tag k="place" v="farm" />
		<tag k="ssr:stedsnr" v="376256" />
	</node>
	<node id="-835656" lat="63.5609694439" lon="9.15791388597">
		<tag k="name" v="Myrstad" />
		<tag k="place" v="farm" />
		<tag k="ssr:stedsnr" v="923462" />
	</node>
	<node id="-835648" lat="63.6171861099" lon="8.96706110274">
		<tag k="name" v="Arnstad" />
		<tag k="place" v="farm" />
		<tag k="ssr:stedsnr" v="256316" />
	</node>
	<node id="-835643" lat="63.6206333367" lon="8.93929999951">
		<tag k="alt_name" v="Naustbakkan" />
		<tag k="name" v="Naustbakken" />
		<tag k="place" v="farm" />
		<tag k="ssr:stedsnr" v="256317" />
	</node>
	<node id="-833587" lat="63.6283972218" lon="9.11951944056">
		<tag k="name" v="Einvika" />
		<tag k="place" v="farm" />
		<tag k="ssr:stedsnr" v="455016" />
	</node>
	<node id="-833585" lat="63.6380333312" lon="8.81184167581">
		<tag k="name" v="Dammen" />
		<tag k="place" v="farm" />
		<tag k="ssr:stedsnr" v="316287" />
	</node>
	<node id="-833573" lat="63.5791094833" lon="9.00714919699">
		<tag k="alt_name" v="Budalen" />
		<tag k="fixme" v="consider place=hamlet" />
		<tag k="name" v="Budal" />
		<tag k="place" v="farm" />
		<tag k="ssr:stedsnr" v="438391" />
	</node>
	<node id="-833570" lat="63.558369445" lon="9.12754444942">
		<tag k="name" v="Fosshaugen" />
		<tag k="place" v="farm" />
		<tag k="ssr:stedsnr" v="820263" />
	</node>
	<node id="-835604" lat="63.634238892" lon="8.7944805651">
		<tag k="name" v="Auna" />
		<tag k="place" v="farm" />
		<tag k="ssr:stedsnr" v="879939" />
	</node>
	<node id="-833555" lat="63.4831583338" lon="8.78964999073">
		<tag k="alt_name" v="Ballsnesaunet" />
		<tag k="fixme" v="consider place=hamlet" />
		<tag k="name" v="Balsnesaunet" />
		<tag k="place" v="farm" />
		<tag k="ssr:stedsnr" v="698705" />
	</node>
	<node id="-833554" lat="63.438758332" lon="8.56480277291">
		<tag k="name" v="Korshamna" />
		<tag k="place" v="farm" />
		<tag k="ssr:stedsnr" v="134068" />
	</node>
	<node id="-833552" lat="63.6241166666" lon="9.11261111735">
		<tag k="name" v="Nordsætra" />
		<tag k="place" v="farm" />
		<tag k="ssr:stedsnr" v="697004" />
	</node>
	<node id="-835599" lat="63.6278972261" lon="8.8966333386">
		<tag k="name" v="Gåsvika" />
		<tag k="place" v="farm" />
		<tag k="ssr:stedsnr" v="879956" />
	</node>
	<node id="-833550" lat="63.6463861131" lon="9.11058055698">
		<tag k="alt_name" v="Sørbotnen" />
		<tag k="name" v="Sørbotn" />
		<tag k="place" v="farm" />
		<tag k="ssr:stedsnr" v="316277" />
	</node>
	<node id="-835592" lat="63.6273666706" lon="8.71199721694">
		<tag k="name" v="Fjellhaug" />
		<tag k="place" v="farm" />
		<tag k="ssr:stedsnr" v="559925" />
	</node>
	<node id="-836609" lat="63.4326388913" lon="8.38298611945">
		<tag k="name" v="Leirvika" />
		<tag k="place" v="farm" />
		<tag k="ssr:stedsnr" v="212329" />
	</node>
	<node id="-834219" lat="63.6211055572" lon="8.84784165757">
		<tag k="alt_name" v="Strømsnes;Straumsnes" />
		<tag k="name" v="Straumsvika" />
		<tag k="place" v="hamlet" />
		<tag k="ssr:stedsnr" v="575781" />
	</node>
</osm>
