<?xml version="1.0" encoding="UTF-8"?>
<<<<<<< HEAD
<osm version="0.6" generator="osmapis">
	<node lat="60.65741944318563" lon="11.72706389402392" id="-15735">
		<tag k="name" v="Blåenga" />
		<tag k="natural" v="hill" />
		<tag k="place" v="locality" />
		<tag k="ssr:stedsnr" v="7319" />
	</node>
	<node lat="60.6252500036218" lon="11.851608337970932" id="-15738">
		<tag k="fixme" v="consider natural=peak for the most distinct mountains in the district" />
		<tag k="name" v="Brattåsen" />
=======
<osm generator="osmapis" version="0.6">
	<node id="-326651" lat="60.6804861121" lon="11.7695416619">
		<tag k="name" v="Risåsen" />
		<tag k="natural" v="hill" />
		<tag k="place" v="locality" />
		<tag k="ssr:stedsnr" v="665157" />
	</node>
	<node id="-326650" lat="60.68401667" lon="11.7482444474">
		<tag k="name" v="Veltberget" />
		<tag k="natural" v="hill" />
		<tag k="place" v="locality" />
		<tag k="ssr:stedsnr" v="665156" />
	</node>
	<node id="-327153" lat="60.9119416642" lon="12.1815083346">
		<tag k="alt_name" v="Søndre Hemberget" />
		<tag k="fixme" v="consider natural=peak for the most distinct mountains in the district" />
		<tag k="name" v="Hemberget" />
		<tag k="natural" v="hill" />
		<tag k="place" v="locality" />
		<tag k="ssr:stedsnr" v="70416" />
	</node>
	<node id="-326638" lat="60.735861107" lon="11.641269441">
		<tag k="name" v="Savaliberget" />
		<tag k="natural" v="hill" />
		<tag k="place" v="locality" />
		<tag k="ssr:stedsnr" v="662397" />
	</node>
	<node id="-326633" lat="61.0263444466" lon="12.1835222237">
		<tag k="name" v="Bråtåsæterberget" />
		<tag k="natural" v="hill" />
		<tag k="place" v="locality" />
		<tag k="ssr:stedsnr" v="449107" />
	</node>
	<node id="-326631" lat="60.8441305552" lon="12.1229249942">
		<tag k="alt_name" v="Gjerdåsen, s" />
		<tag k="fixme" v="consider natural=peak for the most distinct mountains in the district" />
		<tag k="name" v="Søndre Gjerdåsen" />
		<tag k="natural" v="hill" />
		<tag k="place" v="locality" />
		<tag k="ssr:stedsnr" v="434612" />
	</node>
	<node id="-326629" lat="60.9640333352" lon="12.1699638841">
		<tag k="name" v="Brennknuvlen" />
		<tag k="natural" v="hill" />
		<tag k="place" v="locality" />
		<tag k="ssr:stedsnr" v="434354" />
	</node>
	<node id="-326628" lat="60.9885416626" lon="12.1880000032">
		<tag k="alt_name" v="Søndre Enbergsåsen" />
		<tag k="name" v="Enberget" />
		<tag k="natural" v="hill" />
		<tag k="place" v="locality" />
		<tag k="ssr:stedsnr" v="434339" />
	</node>
	<node id="-327139" lat="60.7330249998" lon="11.6580694429">
		<tag k="fixme" v="consider natural=peak for the most distinct mountains in the district" />
		<tag k="name" v="Bjørnknappen" />
		<tag k="natural" v="hill" />
		<tag k="place" v="locality" />
		<tag k="ssr:stedsnr" v="68481" />
	</node>
	<node id="-326625" lat="60.6706861143" lon="11.7042444393">
		<tag k="name" v="Svarttjernshøgda" />
		<tag k="natural" v="hill" />
		<tag k="place" v="locality" />
		<tag k="ssr:stedsnr" v="432340" />
	</node>
	<node id="-327136" lat="60.723699998" lon="11.701241672">
		<tag k="fixme" v="consider natural=peak for the most distinct mountains in the district" />
		<tag k="name" v="Karibrenna" />
		<tag k="natural" v="hill" />
		<tag k="place" v="locality" />
		<tag k="ssr:stedsnr" v="68288" />
	</node>
	<node id="-327646" lat="60.7330499977" lon="11.6844166728">
		<tag k="name" v="Ditjernsberget" />
		<tag k="natural" v="hill" />
		<tag k="place" v="locality" />
		<tag k="ssr:stedsnr" v="613474" />
	</node>
	<node id="-327645" lat="60.7300527774" lon="11.71045277">
		<tag k="fixme" v="consider natural=peak for the most distinct mountains in the district" />
		<tag k="name" v="Gubben" />
		<tag k="natural" v="hill" />
		<tag k="place" v="locality" />
		<tag k="ssr:stedsnr" v="613472" />
	</node>
	<node id="-326614" lat="60.9027749967" lon="12.1369805534">
		<tag k="fixme" v="consider natural=peak for the most distinct mountains in the district" />
		<tag k="name" v="Svartberget" />
		<tag k="natural" v="hill" />
		<tag k="place" v="locality" />
		<tag k="ssr:stedsnr" v="419316" />
	</node>
	<node id="-327119" lat="60.687080551" lon="11.9096166728">
		<tag k="name" v="Nordermoen" />
		<tag k="place" v="locality" />
		<tag k="ssr:stedsnr" v="59450" />
	</node>
	<node id="-327114" lat="60.7501777819" lon="11.9770972162">
		<tag k="name" v="Rundberget" />
		<tag k="natural" v="hill" />
		<tag k="place" v="locality" />
		<tag k="ssr:stedsnr" v="57638" />
	</node>
	<node id="-327624" lat="60.6676111085" lon="11.9107638796">
		<tag k="name" v="Haslemoen" />
		<tag k="place" v="locality" />
		<tag k="ssr:stedsnr" v="604446" />
	</node>
	<node id="-327109" lat="60.930663888" lon="12.0001583363">
		<tag k="name" v="Rusland" />
		<tag k="natural" v="slope" />
		<tag k="place" v="locality" />
		<tag k="ssr:stedsnr" v="55959" />
	</node>
	<node id="-327108" lat="60.769611113" lon="12.0204222252">
		<tag k="name" v="Skarderudsæterberget" />
		<tag k="natural" v="slope" />
		<tag k="place" v="locality" />
		<tag k="ssr:stedsnr" v="55666" />
	</node>
	<node id="-327105" lat="60.7147805533" lon="11.6794666696">
		<tag k="fixme" v="consider natural=peak for the most distinct mountains in the district" />
		<tag k="name" v="Grasbakkhøgda" />
		<tag k="natural" v="hill" />
		<tag k="place" v="locality" />
		<tag k="ssr:stedsnr" v="42178" />
	</node>
	<node id="-327847" lat="61.0363083325" lon="12.1462249993">
		<tag k="name" v="Søkken" />
		<tag k="natural" v="valley" />
		<tag k="place" v="locality" />
		<tag k="ssr:stedsnr" v="950507" />
	</node>
	<node id="-327098" lat="60.9153277814" lon="12.2332027761">
		<tag k="name" v="Hakadalen" />
		<tag k="natural" v="valley" />
		<tag k="place" v="locality" />
		<tag k="ssr:stedsnr" v="40496" />
	</node>
	<node id="-327097" lat="60.8991694448" lon="12.2779777729">
		<tag k="name" v="Adoso" />
		<tag k="natural" v="valley" />
		<tag k="place" v="locality" />
		<tag k="ssr:stedsnr" v="40449" />
	</node>
	<node id="-326582" lat="60.7003638887" lon="11.6813416588">
		<tag k="fixme" v="consider natural=peak for the most distinct mountains in the district" />
		<tag k="name" v="Aursåsen" />
		<tag k="natural" v="hill" />
		<tag k="place" v="locality" />
		<tag k="ssr:stedsnr" v="371256" />
	</node>
	<node id="-326729" lat="60.771458331" lon="11.8202777728">
		<tag k="name" v="Tyskedalen" />
		<tag k="natural" v="valley" />
		<tag k="place" v="locality" />
		<tag k="ssr:stedsnr" v="707325" />
	</node>
	<node id="-327090" lat="60.9660638878" lon="12.1763861125">
		<tag k="name" v="Hestberget" />
		<tag k="natural" v="hill" />
		<tag k="place" v="locality" />
		<tag k="ssr:stedsnr" v="10380" />
	</node>
	<node id="-326577" lat="60.860983332" lon="12.0643444415">
		<tag k="name" v="Risberget" />
		<tag k="natural" v="hill" />
		<tag k="place" v="locality" />
		<tag k="ssr:stedsnr" v="495569" />
	</node>
	<node id="-326570" lat="60.959805556" lon="12.2544333383">
		<tag k="alt_name" v="Steinåskuvlen" />
		<tag k="fixme" v="consider natural=peak for the most distinct mountains in the district" />
		<tag k="name" v="Steinåsknuvlen" />
		<tag k="natural" v="hill" />
		<tag k="place" v="locality" />
		<tag k="ssr:stedsnr" v="494673" />
	</node>
	<node id="-327081" lat="60.8198861152" lon="12.1291638981">
		<tag k="name" v="Hestmyrdalen" />
		<tag k="natural" v="valley" />
		<tag k="place" v="locality" />
		<tag k="ssr:stedsnr" v="9531" />
	</node>
	<node id="-327077" lat="60.6252500036" lon="11.851608338">
		<tag k="fixme" v="consider natural=peak for the most distinct mountains in the district" />
		<tag k="name" v="Brattåsen" />
		<tag k="natural" v="hill" />
		<tag k="place" v="locality" />
		<tag k="ssr:stedsnr" v="7800" />
	</node>
	<node id="-327588" lat="60.7822777824" lon="11.8296805477">
		<tag k="name" v="Bjønnskjæra" />
		<tag k="natural" v="hill" />
		<tag k="place" v="locality" />
		<tag k="ssr:stedsnr" v="585281" />
	</node>
	<node id="-327070" lat="60.6574194432" lon="11.727063894">
		<tag k="name" v="Blåenga" />
		<tag k="natural" v="hill" />
		<tag k="place" v="locality" />
		<tag k="ssr:stedsnr" v="7319" />
	</node>
	<node id="-327580" lat="60.8165611146" lon="11.9150749957">
		<tag k="alt_name" v="Flatåsen" />
		<tag k="fixme" v="consider natural=peak for the most distinct mountains in the district" />
		<tag k="name" v="Sør-Flatåsen" />
		<tag k="natural" v="hill" />
		<tag k="place" v="locality" />
		<tag k="ssr:stedsnr" v="555469" />
	</node>
	<node id="-327575" lat="61.0175472183" lon="12.1570305636">
		<tag k="fixme" v="consider natural=peak for the most distinct mountains in the district" />
		<tag k="name" v="Enbergåsen" />
		<tag k="natural" v="hill" />
		<tag k="place" v="locality" />
		<tag k="ssr:stedsnr" v="553903" />
	</node>
	<node id="-327574" lat="61.0440027767" lon="12.1734138818">
		<tag k="name" v="Kjølberget" />
		<tag k="natural" v="hill" />
		<tag k="place" v="locality" />
		<tag k="ssr:stedsnr" v="553885" />
	</node>
	<node id="-326549" lat="60.8157694425" lon="11.9933861117">
		<tag k="name" v="Fløgknappen" />
		<tag k="natural" v="hill" />
		<tag k="place" v="locality" />
		<tag k="ssr:stedsnr" v="358752" />
	</node>
	<node id="-327059" lat="60.6187027779" lon="11.8240083381">
		<tag k="name" v="Vestsjøberget" />
		<tag k="natural" v="hill" />
		<tag k="place" v="locality" />
		<tag k="ssr:stedsnr" v="7183" />
	</node>
	<node id="-327058" lat="60.5765388891" lon="11.6672222177">
		<tag k="fixme" v="consider natural=peak for the most distinct mountains in the district" />
		<tag k="name" v="Odalsfjellet" />
		<tag k="natural" v="hill" />
		<tag k="place" v="locality" />
		<tag k="ssr:stedsnr" v="7164" />
	</node>
	<node id="-327057" lat="60.5817555545" lon="11.70928056">
		<tag k="fixme" v="consider natural=peak for the most distinct mountains in the district" />
		<tag k="name" v="Fjellråknappen" />
		<tag k="natural" v="hill" />
		<tag k="place" v="locality" />
		<tag k="ssr:stedsnr" v="7154" />
	</node>
	<node id="-327568" lat="60.7247027816" lon="11.6882861179">
		<tag k="name" v="Glennberget" />
		<tag k="natural" v="hill" />
		<tag k="place" v="locality" />
		<tag k="ssr:stedsnr" v="553273" />
	</node>
	<node id="-327052" lat="60.6930944479" lon="11.7925277711">
		<tag k="name" v="Gjerdrumsberget" />
		<tag k="natural" v="hill" />
		<tag k="place" v="locality" />
		<tag k="ssr:stedsnr" v="6290" />
	</node>
	<node id="-326536" lat="60.7410916685" lon="11.9303944474">
		<tag k="name" v="Limskaftet" />
		<tag k="natural" v="hill" />
		<tag k="place" v="locality" />
		<tag k="ssr:stedsnr" v="492169" />
	</node>
	<node id="-327830" lat="60.7209694403" lon="11.8561500084">
		<tag k="fixme" v="consider natural=peak for the most distinct mountains in the district" />
		<tag k="name" v="Strætåsen" />
		<tag k="natural" v="hill" />
		<tag k="place" v="locality" />
		<tag k="ssr:stedsnr" v="857202" />
	</node>
	<node id="-327039" lat="60.6002472195" lon="11.7880305607">
		<tag k="fixme" v="consider natural=peak for the most distinct mountains in the district" />
		<tag k="name" v="Langåsen" />
		<tag k="natural" v="hill" />
		<tag k="place" v="locality" />
		<tag k="ssr:stedsnr" v="967059" />
	</node>
	<node id="-327550" lat="60.8764972264" lon="12.1317416724">
		<tag k="name" v="Høgmoen" />
		<tag k="place" v="locality" />
		<tag k="ssr:stedsnr" v="542372" />
	</node>
	<node id="-327037" lat="60.7944055553" lon="11.8847527744">
		<tag k="name" v="Flatåsen" />
		<tag k="natural" v="hill" />
		<tag k="place" v="locality" />
		<tag k="ssr:stedsnr" v="965358" />
	</node>
	<node id="-327035" lat="60.7175333317" lon="11.7275833285">
		<tag k="name" v="Sjurhaugen" />
		<tag k="natural" v="hill" />
		<tag k="place" v="locality" />
		<tag k="ssr:stedsnr" v="952218" />
	</node>
	<node id="-327542" lat="60.6065194448" lon="11.8541638973">
		<tag k="name" v="Fageråsen" />
		<tag k="natural" v="hill" />
		<tag k="place" v="locality" />
		<tag k="ssr:stedsnr" v="540085" />
	</node>
	<node id="-327541" lat="60.8642750005" lon="12.2553777842">
		<tag k="name" v="Merraskjæra" />
		<tag k="natural" v="hill" />
		<tag k="place" v="locality" />
		<tag k="ssr:stedsnr" v="540252" />
	</node>
	<node id="-327571" lat="60.6735277809" lon="11.744336106">
		<tag k="name" v="Knipilen" />
		<tag k="natural" v="hill" />
		<tag k="place" v="locality" />
		<tag k="ssr:stedsnr" v="553362" />
	</node>
	<node id="-326509" lat="60.7929444472" lon="12.0394555616">
		<tag k="name" v="Fløgåsen" />
		<tag k="natural" v="hill" />
		<tag k="place" v="locality" />
		<tag k="ssr:stedsnr" v="479688" />
	</node>
	<node id="-327532" lat="60.7019361083" lon="11.7844861179">
		<tag k="name" v="Fossberget" />
		<tag k="natural" v="hill" />
		<tag k="place" v="locality" />
		<tag k="ssr:stedsnr" v="527065" />
	</node>
	<node id="-326546" lat="60.6636527817" lon="11.6608416726">
		<tag k="name" v="Sætersjøberget" />
		<tag k="natural" v="hill" />
		<tag k="place" v="locality" />
		<tag k="ssr:stedsnr" v="492346" />
	</node>
	<node id="-327528" lat="60.7036361104" lon="11.7564861182">
		<tag k="name" v="Tjennsmyrhaugen" />
		<tag k="natural" v="hill" />
		<tag k="place" v="locality" />
		<tag k="ssr:stedsnr" v="527192" />
	</node>
	<node id="-327484" lat="60.9111138873" lon="12.1163666746">
		<tag k="name" v="Ruskhaugen" />
		<tag k="natural" v="hill" />
		<tag k="place" v="locality" />
		<tag k="ssr:stedsnr" v="423388" />
	</node>
	<node id="-326502" lat="60.7829777806" lon="11.8438777809">
		<tag k="fixme" v="consider natural=peak for the most distinct mountains in the district" />
		<tag k="name" v="Sørsåsen" />
		<tag k="natural" v="hill" />
		<tag k="place" v="locality" />
		<tag k="ssr:stedsnr" v="312505" />
	</node>
	<node id="-327009" lat="61.0353611079" lon="12.1926833323">
		<tag k="name" v="Rensmoberget" />
		<tag k="natural" v="hill" />
		<tag k="place" v="locality" />
		<tag k="ssr:stedsnr" v="907708" />
	</node>
	<node id="-327003" lat="60.6191694458" lon="11.8365249924">
		<tag k="name" v="Staupåsdalen" />
		<tag k="natural" v="valley" />
		<tag k="place" v="locality" />
		<tag k="ssr:stedsnr" v="905066" />
	</node>
	<node id="-327513" lat="60.8561833372" lon="12.1811500069">
		<tag k="fixme" v="consider natural=peak for the most distinct mountains in the district" />
		<tag k="name" v="Stordigerheden" />
		<tag k="natural" v="hill" />
		<tag k="place" v="locality" />
		<tag k="ssr:stedsnr" v="434539" />
	</node>
	<node id="-326998" lat="60.7830722252" lon="11.8104861126">
		<tag k="name" v="Klinken" />
		<tag k="natural" v="hill" />
		<tag k="place" v="locality" />
		<tag k="ssr:stedsnr" v="950326" />
	</node>
	<node id="-326482" lat="60.9021444475" lon="12.0460472301">
		<tag k="name" v="Langryggen" />
		<tag k="natural" v="ridge" />
		<tag k="place" v="locality" />
		<tag k="ssr:stedsnr" v="466369" />
	</node>
	<node id="-326990" lat="61.0102916631" lon="12.2021777785">
		<tag k="name" v="Buberget" />
		<tag k="natural" v="hill" />
		<tag k="place" v="locality" />
		<tag k="ssr:stedsnr" v="859357" />
	</node>
	<node id="-327499" lat="60.7391138854" lon="11.7189805596">
		<tag k="alt_name" v="Svenskerudsberget" />
		<tag k="name" v="Svenkerudberget" />
		<tag k="natural" v="hill" />
		<tag k="place" v="locality" />
		<tag k="ssr:stedsnr" v="432439" />
	</node>
	<node id="-326986" lat="60.7404277741" lon="11.7950361174">
		<tag k="fixme" v="consider natural=peak for the most distinct mountains in the district" />
		<tag k="name" v="Øverbyåsen" />
		<tag k="natural" v="hill" />
		<tag k="place" v="locality" />
		<tag k="ssr:stedsnr" v="857465" />
	</node>
	<node id="-327495" lat="60.6157833307" lon="11.7279500007">
		<tag k="name" v="Kjølen" />
		<tag k="natural" v="hill" />
		<tag k="place" v="locality" />
		<tag k="ssr:stedsnr" v="432166" />
	</node>
	<node id="-326468" lat="60.6499999978" lon="11.6272500032">
		<tag k="fixme" v="consider natural=peak for the most distinct mountains in the district" />
		<tag k="name" v="Hølsjøberget" />
		<tag k="natural" v="hill" />
		<tag k="place" v="locality" />
		<tag k="ssr:stedsnr" v="221919" />
	</node>
	<node id="-326972" lat="60.8241333342" lon="11.9728444502">
		<tag k="name" v="Høghaugen" />
		<tag k="natural" v="hill" />
		<tag k="place" v="locality" />
		<tag k="ssr:stedsnr" v="798568" />
	</node>
	<node id="-326971" lat="60.8294666651" lon="11.9587999995">
		<tag k="fixme" v="consider natural=peak for the most distinct mountains in the district" />
		<tag k="name" v="Hakaskallen" />
		<tag k="natural" v="hill" />
		<tag k="place" v="locality" />
		<tag k="ssr:stedsnr" v="798567" />
	</node>
	<node id="-327482" lat="61.0120166709" lon="12.1648722262">
		<tag k="name" v="Nordre Enbergsåsen" />
		<tag k="natural" v="hill" />
		<tag k="place" v="locality" />
		<tag k="ssr:stedsnr" v="422453" />
	</node>
	<node id="-327480" lat="60.7992333366" lon="11.8649805641">
		<tag k="name" v="Bjudalen" />
		<tag k="natural" v="valley" />
		<tag k="place" v="locality" />
		<tag k="ssr:stedsnr" v="421860" />
	</node>
	<node id="-327704" lat="60.7125805596" lon="11.8079555648">
		<tag k="name" v="Sandkneppa" />
		<tag k="place" v="locality" />
		<tag k="ssr:stedsnr" v="769046" />
	</node>
	<node id="-327473" lat="60.5892111089" lon="11.8194249967">
		<tag k="fixme" v="consider natural=peak for the most distinct mountains in the district" />
		<tag k="name" v="Langåsen" />
		<tag k="natural" v="hill" />
		<tag k="place" v="locality" />
		<tag k="ssr:stedsnr" v="421058" />
	</node>
	<node id="-327471" lat="60.7763611118" lon="11.9773305583">
		<tag k="name" v="Hebergslia" />
		<tag k="natural" v="slope" />
		<tag k="place" v="locality" />
		<tag k="ssr:stedsnr" v="419699" />
	</node>
	<node id="-326444" lat="60.726791663" lon="11.6929999922">
		<tag k="name" v="Glennbergsdalen" />
		<tag k="natural" v="valley" />
		<tag k="place" v="locality" />
		<tag k="ssr:stedsnr" v="285188" />
	</node>
	<node id="-326954" lat="60.8964805542" lon="12.2784583251">
		<tag k="name" v="Fagerli" />
		<tag k="natural" v="slope" />
		<tag k="place" v="locality" />
		<tag k="ssr:stedsnr" v="919692" />
	</node>
	<node id="-326953" lat="60.9124972203" lon="12.2305777814">
		<tag k="name" v="Halberget" />
>>>>>>> e1d4bc35ff8a6074a6f2e91616a996b547c36f15
		<tag k="natural" v="hill" />
		<tag k="place" v="locality" />
		<tag k="ssr:stedsnr" v="7800" />
	</node>
<<<<<<< HEAD
	<node lat="60.80474444366242" lon="11.99193333476826" id="-15743">
		<tag k="name" v="Åkerberget" />
=======
	<node id="-326952" lat="60.9362500033" lon="12.2261916705">
		<tag k="name" v="Furuberget" />
>>>>>>> e1d4bc35ff8a6074a6f2e91616a996b547c36f15
		<tag k="natural" v="hill" />
		<tag k="place" v="locality" />
		<tag k="ssr:stedsnr" v="9516" />
	</node>
<<<<<<< HEAD
	<node lat="60.90994444390799" lon="12.269861117613557" id="-15746">
		<tag k="name" v="Halbergknappen" />
		<tag k="natural" v="hill" />
		<tag k="place" v="locality" />
		<tag k="ssr:stedsnr" v="9714" />
	</node>
	<node lat="60.89916944480018" lon="12.277977772902117" id="-15754">
		<tag k="name" v="Adoso" />
		<tag k="natural" v="valley" />
		<tag k="place" v="locality" />
		<tag k="ssr:stedsnr" v="40449" />
	</node>
	<node lat="60.86639722029235" lon="12.162969442923544" id="-15757">
		<tag k="name" v="Åtterknappen" />
=======
	<node id="-326961" lat="60.6076916648" lon="11.6780305597">
		<tag k="name" v="Stakamyrberget" />
		<tag k="natural" v="hill" />
		<tag k="place" v="locality" />
		<tag k="ssr:stedsnr" v="795224" />
	</node>
	<node id="-327457" lat="60.7003361093" lon="11.6737805595">
		<tag k="name" v="Aursåsdalen" />
		<tag k="natural" v="valley" />
		<tag k="place" v="locality" />
		<tag k="ssr:stedsnr" v="406158" />
	</node>
	<node id="-326942" lat="60.6871777744" lon="11.6377416621">
		<tag k="name" v="Gillerhaugen" />
		<tag k="natural" v="hill" />
		<tag k="place" v="locality" />
		<tag k="ssr:stedsnr" v="917335" />
	</node>
	<node id="-326940" lat="60.6800777744" lon="11.6908055519">
		<tag k="name" v="Løvberget" />
		<tag k="natural" v="hill" />
		<tag k="place" v="locality" />
		<tag k="ssr:stedsnr" v="917333" />
	</node>
	<node id="-327451" lat="60.74003611" lon="11.9116638941">
		<tag k="name" v="Lilleåsen" />
		<tag k="natural" v="hill" />
		<tag k="place" v="locality" />
		<tag k="ssr:stedsnr" v="403329" />
	</node>
	<node id="-327450" lat="60.7614333343" lon="11.902602787">
		<tag k="name" v="Knøsberget" />
		<tag k="natural" v="slope" />
		<tag k="place" v="locality" />
		<tag k="ssr:stedsnr" v="403328" />
	</node>
	<node id="-326935" lat="60.6883250002" lon="11.6697305532">
		<tag k="name" v="Bronkeberget" />
>>>>>>> e1d4bc35ff8a6074a6f2e91616a996b547c36f15
		<tag k="natural" v="hill" />
		<tag k="place" v="locality" />
		<tag k="ssr:stedsnr" v="237257" />
	</node>
<<<<<<< HEAD
	<node lat="60.73088055188227" lon="11.902708332096417" id="-15761">
		<tag k="fixme" v="consider natural=peak for the most distinct mountains in the district" />
		<tag k="name" v="Lilleåsen" />
=======
	<node id="-326419" lat="60.7372583339" lon="11.9422111044">
		<tag k="fixme" v="consider natural=peak for the most distinct mountains in the district" />
		<tag k="name" v="Skarprud" />
		<tag k="natural" v="hill" />
		<tag k="ssr:stedsnr" v="282315" />
	</node>
	<node id="-326417" lat="60.5994000036" lon="11.7440972221">
		<tag k="name" v="Veltkjølen" />
		<tag k="natural" v="hill" />
		<tag k="place" v="locality" />
		<tag k="ssr:stedsnr" v="282215" />
	</node>
	<node id="-326416" lat="60.5953111101" lon="11.7483138846">
		<tag k="name" v="Åklinten" />
		<tag k="natural" v="hill" />
		<tag k="place" v="locality" />
		<tag k="ssr:stedsnr" v="282200" />
	</node>
	<node id="-326925" lat="60.9099111129" lon="11.9959388962">
		<tag k="name" v="Ormbråten" />
		<tag k="natural" v="slope" />
		<tag k="place" v="locality" />
		<tag k="ssr:stedsnr" v="908965" />
	</node>
	<node id="-327436" lat="61.0530194474" lon="12.1180333263">
		<tag k="fixme" v="multiple name tags, choose one and add the other to alt_name; consider natural=peak for the most distinct mountains in the district" />
		<tag k="name" v="Nygardsbrenna;Ormbrenna" />
>>>>>>> e1d4bc35ff8a6074a6f2e91616a996b547c36f15
		<tag k="natural" v="hill" />
		<tag k="place" v="locality" />
		<tag k="ssr:stedsnr" v="237344" />
	</node>
<<<<<<< HEAD
	<node lat="60.71478055332996" lon="11.67946666957721" id="-15762">
		<tag k="fixme" v="consider natural=peak for the most distinct mountains in the district" />
		<tag k="name" v="Grasbakkhøgda" />
		<tag k="natural" v="hill" />
		<tag k="place" v="locality" />
		<tag k="ssr:stedsnr" v="42178" />
	</node>
	<node lat="60.61096944141183" lon="11.78393056194335" id="-15765">
		<tag k="name" v="Langåsen" />
		<tag k="natural" v="slope" />
		<tag k="place" v="locality" />
		<tag k="ssr:stedsnr" v="239065" />
	</node>
	<node lat="60.76961111297644" lon="12.020422225233304" id="-15776">
		<tag k="name" v="Skarderudsæterberget" />
		<tag k="natural" v="slope" />
		<tag k="place" v="locality" />
		<tag k="ssr:stedsnr" v="55666" />
	</node>
	<node lat="60.67859722110835" lon="11.681152778758234" id="-15781">
=======
	<node id="-326411" lat="60.641063891" lon="11.7428944531">
		<tag k="fixme" v="consider natural=peak for the most distinct mountains in the district" />
		<tag k="name" v="Kveldkuberget" />
		<tag k="natural" v="hill" />
		<tag k="place" v="locality" />
		<tag k="ssr:stedsnr" v="161922" />
	</node>
	<node id="-326917" lat="60.966491666" lon="12.1922333399">
		<tag k="name" v="Senderen" />
		<tag k="natural" v="hill" />
		<tag k="place" v="locality" />
		<tag k="ssr:stedsnr" v="906487" />
	</node>
	<node id="-326915" lat="60.8794555527" lon="12.095236106">
		<tag k="name" v="Norskemyrbakkene" />
		<tag k="natural" v="hill" />
		<tag k="place" v="locality" />
		<tag k="ssr:stedsnr" v="906381" />
	</node>
	<node id="-326398" lat="60.6338111085" lon="11.7674777705">
		<tag k="name" v="Magnessæterberget" />
		<tag k="natural" v="hill" />
		<tag k="place" v="locality" />
		<tag k="ssr:stedsnr" v="128309" />
	</node>
	<node id="-326908" lat="60.8124666643" lon="11.9645527742">
		<tag k="name" v="Halsteinsknappen" />
		<tag k="natural" v="hill" />
		<tag k="place" v="locality" />
		<tag k="ssr:stedsnr" v="726836" />
	</node>
	<node id="-327416" lat="60.8863527818" lon="12.0181722217">
		<tag k="name" v="Stabburshaugen" />
		<tag k="natural" v="hill" />
		<tag k="place" v="locality" />
		<tag k="ssr:stedsnr" v="360990" />
	</node>
	<node id="-326904" lat="60.8666805558" lon="12.0685722307">
		<tag k="fixme" v="consider natural=peak for the most distinct mountains in the district" />
		<tag k="name" v="Kaskonsberget" />
		<tag k="natural" v="hill" />
		<tag k="place" v="locality" />
		<tag k="ssr:stedsnr" v="724356" />
	</node>
	<node id="-326382" lat="60.7836444415" lon="11.9155027728">
		<tag k="name" v="Tandlia" />
		<tag k="natural" v="slope" />
		<tag k="place" v="locality" />
		<tag k="ssr:stedsnr" v="252453" />
	</node>
	<node id="-326366" lat="60.7352024555" lon="11.9276185279">
		<tag k="name" v="Ranumsberget" />
		<tag k="natural" v="hill" />
		<tag k="place" v="locality" />
		<tag k="ssr:stedsnr" v="250221" />
	</node>
	<node id="-326266" lat="60.8047444437" lon="11.9919333348">
		<tag k="name" v="Åkerberget" />
		<tag k="natural" v="hill" />
		<tag k="place" v="locality" />
		<tag k="ssr:stedsnr" v="9516" />
	</node>
	<node id="-327631" lat="60.6881249956" lon="11.7736111084">
		<tag k="name" v="Kulten" />
		<tag k="natural" v="hill" />
		<tag k="place" v="locality" />
		<tag k="ssr:stedsnr" v="613268" />
	</node>
	<node id="-327376" lat="60.230299997" lon="12.0507111097">
		<tag k="name" v="Glåmdalen" />
		<tag k="natural" v="valley" />
		<tag k="place" v="locality" />
		<tag k="ssr:stedsnr" v="331783" />
	</node>
	<node id="-327800" lat="60.8053611074" lon="11.9859583352">
		<tag k="name" v="Nubhaugen" />
		<tag k="natural" v="hill" />
		<tag k="place" v="locality" />
		<tag k="ssr:stedsnr" v="844754" />
	</node>
	<node id="-326862" lat="60.9569361133" lon="12.1889916591">
		<tag k="name" v="Gridhaugen" />
		<tag k="natural" v="hill" />
		<tag k="place" v="locality" />
		<tag k="ssr:stedsnr" v="676479" />
	</node>
	<node id="-326860" lat="60.7014666629" lon="11.7020166581">
		<tag k="fixme" v="consider natural=peak for the most distinct mountains in the district" />
		<tag k="name" v="Husåsen" />
		<tag k="natural" v="hill" />
		<tag k="place" v="locality" />
		<tag k="ssr:stedsnr" v="675308" />
	</node>
	<node id="-327371" lat="60.8290833313" lon="12.1241055499">
		<tag k="fixme" v="consider natural=peak for the most distinct mountains in the district" />
		<tag k="name" v="Bølsjøknappen" />
		<tag k="natural" v="hill" />
		<tag k="place" v="locality" />
		<tag k="ssr:stedsnr" v="312599" />
	</node>
	<node id="-327368" lat="61.0280750006" lon="12.1261666638">
		<tag k="name" v="Soppberget" />
		<tag k="natural" v="hill" />
		<tag k="place" v="locality" />
		<tag k="ssr:stedsnr" v="311924" />
	</node>
	<node id="-326433" lat="60.985713893" lon="12.1743166707">
		<tag k="name" v="Festningen" />
		<tag k="place" v="locality" />
		<tag k="ssr:stedsnr" v="178410" />
	</node>
	<node id="-326339" lat="60.6785972211" lon="11.6811527788">
>>>>>>> e1d4bc35ff8a6074a6f2e91616a996b547c36f15
		<tag k="name" v="Smågrandalen" />
		<tag k="natural" v="valley" />
		<tag k="place" v="locality" />
		<tag k="ssr:stedsnr" v="240153" />
	</node>
<<<<<<< HEAD
	<node lat="60.91528888793374" lon="12.028066668660726" id="-15786">
		<tag k="name" v="Bærmyrhøgda" />
		<tag k="natural" v="hill" />
		<tag k="place" v="locality" />
		<tag k="ssr:stedsnr" v="240967" />
	</node>
	<node lat="60.723699998015796" lon="11.701241672006947" id="-15791">
		<tag k="fixme" v="consider natural=peak for the most distinct mountains in the district" />
		<tag k="name" v="Karibrenna" />
=======
	<node id="-326347" lat="60.7563527742" lon="11.9149138881">
		<tag k="name" v="Knøsberget" />
		<tag k="natural" v="hill" />
		<tag k="place" v="locality" />
		<tag k="ssr:stedsnr" v="70519" />
	</node>
	<node id="-327872" lat="60.7250055565" lon="11.9609333331">
		<tag k="fixme" v="consider natural=peak for the most distinct mountains in the district" />
		<tag k="name" v="Furuberget" />
		<tag k="natural" v="hill" />
		<tag k="place" v="locality" />
		<tag k="ssr:stedsnr" v="965343" />
	</node>
	<node id="-327712" lat="60.8524055574" lon="12.0596861189">
		<tag k="name" v="17.mai-haugen" />
		<tag k="natural" v="hill" />
		<tag k="place" v="locality" />
		<tag k="ssr:stedsnr" v="770328" />
	</node>
	<node id="-326517" lat="61.0195833297" lon="12.2079527711">
		<tag k="name" v="Dritarholen" />
		<tag k="natural" v="hill" />
		<tag k="place" v="locality" />
		<tag k="ssr:stedsnr" v="482742" />
	</node>
	<node id="-326328" lat="60.9231500007" lon="12.070091665">
		<tag k="name" v="Fiskhullia" />
		<tag k="natural" v="slope" />
		<tag k="place" v="locality" />
		<tag k="ssr:stedsnr" v="239333" />
	</node>
	<node id="-326326" lat="60.6109694414" lon="11.7839305619">
		<tag k="name" v="Langåsen" />
		<tag k="natural" v="slope" />
		<tag k="place" v="locality" />
		<tag k="ssr:stedsnr" v="239065" />
	</node>
	<node id="-327347" lat="60.6109277815" lon="11.64461667">
		<tag k="fixme" v="consider natural=peak for the most distinct mountains in the district" />
		<tag k="name" v="Nordfjellkampen" />
		<tag k="natural" v="hill" />
		<tag k="place" v="locality" />
		<tag k="ssr:stedsnr" v="310168" />
	</node>
	<node id="-326344" lat="60.9152888879" lon="12.0280666687">
		<tag k="name" v="Bærmyrhøgda" />
		<tag k="natural" v="hill" />
		<tag k="place" v="locality" />
		<tag k="ssr:stedsnr" v="240967" />
	</node>
	<node id="-326316" lat="60.7845888862" lon="11.9329944431">
		<tag k="name" v="Øltønnedalen" />
		<tag k="natural" v="valley" />
		<tag k="place" v="locality" />
		<tag k="ssr:stedsnr" v="55352" />
	</node>
	<node id="-327339" lat="60.8112861147" lon="11.9446249948">
		<tag k="name" v="Skardberget" />
		<tag k="natural" v="hill" />
		<tag k="place" v="locality" />
		<tag k="ssr:stedsnr" v="312534" />
	</node>
	<node id="-326311" lat="60.7308805519" lon="11.9027083321">
		<tag k="fixme" v="consider natural=peak for the most distinct mountains in the district" />
		<tag k="name" v="Lilleåsen" />
		<tag k="natural" v="hill" />
		<tag k="place" v="locality" />
		<tag k="ssr:stedsnr" v="237344" />
	</node>
	<node id="-326821" lat="60.6002527812" lon="11.666219451">
		<tag k="fixme" v="consider natural=peak for the most distinct mountains in the district" />
		<tag k="name" v="Eidsfjellet" />
		<tag k="natural" v="hill" />
		<tag k="place" v="locality" />
		<tag k="ssr:stedsnr" v="735154" />
	</node>
	<node id="-326305" lat="60.8663972203" lon="12.1629694429">
		<tag k="name" v="Åtterknappen" />
		<tag k="natural" v="hill" />
		<tag k="place" v="locality" />
		<tag k="ssr:stedsnr" v="237257" />
	</node>
	<node id="-327873" lat="60.7470361093" lon="11.9575472311">
		<tag k="name" v="Godalen" />
		<tag k="natural" v="slope" />
		<tag k="place" v="locality" />
		<tag k="ssr:stedsnr" v="965344" />
	</node>
	<node id="-326597" lat="60.8524612438" lon="12.3339947784">
		<tag k="loc_name" v="Skarpjuvberget" />
		<tag k="name" v="Skarpgjuvberget" />
		<tag k="natural" v="hill" />
		<tag k="place" v="locality" />
		<tag k="ssr:stedsnr" v="373717" />
	</node>
	<node id="-327324" lat="60.7943111073" lon="11.9816055603">
		<tag k="fixme" v="consider natural=peak for the most distinct mountains in the district" />
		<tag k="name" v="Haukåsen" />
		<tag k="natural" v="hill" />
		<tag k="place" v="locality" />
		<tag k="ssr:stedsnr" v="191591" />
	</node>
	<node id="-326596" lat="60.8665444444" lon="12.2941277762">
		<tag k="name" v="Sjøbrenna" />
		<tag k="natural" v="hill" />
		<tag k="place" v="locality" />
		<tag k="ssr:stedsnr" v="373709" />
	</node>
	<node id="-326294" lat="60.586538891" lon="11.8513194362">
		<tag k="name" v="Langåsen" />
		<tag k="natural" v="slope" />
		<tag k="place" v="locality" />
		<tag k="ssr:stedsnr" v="224894" />
	</node>
	<node id="-326800" lat="60.6468250018" lon="11.6721861152">
		<tag k="name" v="Skjulhaugen" />
		<tag k="natural" v="hill" />
		<tag k="place" v="locality" />
		<tag k="ssr:stedsnr" v="726264" />
	</node>
	<node id="-326799" lat="60.6632083357" lon="11.7247749989">
		<tag k="name" v="Gråskjæra" />
		<tag k="natural" v="hill" />
		<tag k="place" v="locality" />
		<tag k="ssr:stedsnr" v="726262" />
	</node>
	<node id="-326765" lat="60.8816777734" lon="12.0896888878">
		<tag k="alt_name" v="Langåsen" />
		<tag k="name" v="Langtjernåsen" />
		<tag k="natural" v="hill" />
		<tag k="place" v="locality" />
		<tag k="ssr:stedsnr" v="602379" />
	</node>
	<node id="-326794" lat="61.03825278" lon="12.1834833284">
		<tag k="fixme" v="consider natural=peak for the most distinct mountains in the district" />
		<tag k="name" v="Håkåsæteråsen" />
		<tag k="natural" v="hill" />
		<tag k="place" v="locality" />
		<tag k="ssr:stedsnr" v="724746" />
	</node>
	<node id="-327305" lat="60.6701111152" lon="11.6358861068">
		<tag k="name" v="Tørrberget" />
		<tag k="natural" v="hill" />
		<tag k="place" v="locality" />
		<tag k="ssr:stedsnr" v="189345" />
	</node>
	<node id="-327304" lat="60.6358166636" lon="11.6425416605">
		<tag k="name" v="Gammelberget" />
		<tag k="natural" v="hill" />
		<tag k="place" v="locality" />
		<tag k="ssr:stedsnr" v="189322" />
	</node>
	<node id="-327303" lat="60.6263027783" lon="11.7200944471">
		<tag k="name" v="Sjøberget" />
		<tag k="natural" v="hill" />
		<tag k="place" v="locality" />
		<tag k="ssr:stedsnr" v="189305" />
	</node>
	<node id="-327301" lat="60.6421999965" lon="11.6499611082">
		<tag k="name" v="Brennberget" />
		<tag k="natural" v="hill" />
		<tag k="place" v="locality" />
		<tag k="ssr:stedsnr" v="189284" />
	</node>
	<node id="-326276" lat="60.9099444439" lon="12.2698611176">
		<tag k="name" v="Halbergknappen" />
		<tag k="natural" v="hill" />
		<tag k="place" v="locality" />
		<tag k="ssr:stedsnr" v="9714" />
	</node>
	<node id="-326786" lat="60.8855944484" lon="12.0603583395">
		<tag k="name" v="Sundhaugen" />
		<tag k="natural" v="hill" />
		<tag k="place" v="locality" />
		<tag k="ssr:stedsnr" v="722315" />
	</node>
	<node id="-326780" lat="60.7894055519" lon="11.8334250066">
		<tag k="name" v="Klinkhaugen" />
		<tag k="natural" v="hill" />
		<tag k="place" v="locality" />
		<tag k="ssr:stedsnr" v="616359" />
	</node>
	<node id="-327290" lat="60.6202111115" lon="11.6602027781">
		<tag k="name" v="Torthaugen" />
		<tag k="natural" v="hill" />
		<tag k="place" v="locality" />
		<tag k="ssr:stedsnr" v="189159" />
	</node>
	<node id="-326264" lat="60.7914666655" lon="11.8286944482">
		<tag k="name" v="Skinnsekken" />
		<tag k="natural" v="hill" />
		<tag k="place" v="locality" />
		<tag k="ssr:stedsnr" v="221306" />
	</node>
	<node id="-326263" lat="60.6125527798" lon="11.6614083358">
		<tag k="name" v="Veltblåenga" />
		<tag k="natural" v="hill" />
		<tag k="place" v="locality" />
		<tag k="ssr:stedsnr" v="221201" />
	</node>
	<node id="-326770" lat="60.9118333302" lon="12.0059861057">
		<tag k="name" v="Åsberget" />
		<tag k="natural" v="slope" />
		<tag k="place" v="locality" />
		<tag k="ssr:stedsnr" v="604954" />
	</node>
	<node id="-327793" lat="60.8385749996" lon="12.1677527697">
		<tag k="name" v="Skikjelkbakken" />
		<tag k="natural" v="slope" />
		<tag k="place" v="locality" />
		<tag k="ssr:stedsnr" v="844240" />
	</node>
	<node id="-327280" lat="60.6723250007" lon="11.6785166737">
		<tag k="name" v="Gammelstuholen" />
		<tag k="place" v="locality" />
		<tag k="ssr:stedsnr" v="180149" />
	</node>
	<node id="-326333" lat="60.9892249965" lon="12.2192861109">
		<tag k="name" v="Knolla" />
		<tag k="natural" v="hill" />
		<tag k="place" v="locality" />
		<tag k="ssr:stedsnr" v="239429" />
	</node>
	<node id="-326753" lat="60.7027944468" lon="11.8139055503">
		<tag k="name" v="Kåtmoen" />
		<tag k="place" v="locality" />
		<tag k="ssr:stedsnr" v="588072" />
	</node>
	<node id="-327262" lat="60.7490444407" lon="11.9674166709">
		<tag k="name" v="Hestberget" />
		<tag k="natural" v="hill" />
		<tag k="place" v="locality" />
		<tag k="ssr:stedsnr" v="176293" />
	</node>
	<node id="-327261" lat="60.7103722181" lon="11.6541305545">
		<tag k="name" v="Pælmyrhaugen" />
		<tag k="natural" v="hill" />
		<tag k="place" v="locality" />
		<tag k="ssr:stedsnr" v="176199" />
	</node>
	<node id="-327772" lat="60.6607916674" lon="11.8145138908">
		<tag k="name" v="Rudsmoen" />
		<tag k="place" v="locality" />
		<tag k="ssr:stedsnr" v="828090" />
	</node>
	<node id="-326747" lat="60.6325083379" lon="11.657072217">
		<tag k="name" v="Gammelbergsdalen" />
		<tag k="natural" v="valley" />
		<tag k="place" v="locality" />
		<tag k="ssr:stedsnr" v="585921" />
	</node>
	<node id="-327256" lat="60.5695944452" lon="11.7611194358">
		<tag k="name" v="Burmanshøgda" />
		<tag k="natural" v="hill" />
		<tag k="place" v="locality" />
		<tag k="ssr:stedsnr" v="163238" />
	</node>
	<node id="-326740" lat="60.7066472266" lon="11.6671166745">
		<tag k="name" v="Bjørntjernsknappen" />
		<tag k="natural" v="hill" />
		<tag k="place" v="locality" />
		<tag k="ssr:stedsnr" v="709146" />
	</node>
	<node id="-327761" lat="60.9344000042" lon="12.1921861081">
		<tag k="name" v="Smalberget" />
>>>>>>> e1d4bc35ff8a6074a6f2e91616a996b547c36f15
		<tag k="natural" v="hill" />
		<tag k="place" v="locality" />
		<tag k="ssr:stedsnr" v="68288" />
	</node>
	<node id="-327864" lat="60.8656083342" lon="12.1697138946">
		<tag k="name" v="Støllmyrstrupen" />
		<tag k="natural" v="valley" />
		<tag k="place" v="locality" />
		<tag k="ssr:stedsnr" v="965279" />
	</node>
	<node id="-327437" lat="61.0167083295" lon="12.1317500068">
		<tag k="name" v="Enberget" />
		<tag k="natural" v="hill" />
		<tag k="place" v="locality" />
		<tag k="ssr:stedsnr" v="371901" />
	</node>
	<node id="-327241" lat="60.6363916652" lon="11.6868083338">
		<tag k="fixme" v="consider natural=peak for the most distinct mountains in the district" />
		<tag k="name" v="Viertjernsåsen" />
		<tag k="natural" v="hill" />
		<tag k="place" v="locality" />
		<tag k="ssr:stedsnr" v="161238" />
	</node>
	<node id="-326726" lat="60.7888083314" lon="11.8893194373">
		<tag k="name" v="Magnhildsberget" />
		<tag k="natural" v="hill" />
		<tag k="place" v="locality" />
		<tag k="ssr:stedsnr" v="555449" />
	</node>
	<node id="-327237" lat="60.8507555518" lon="12.1121000071">
		<tag k="alt_name" v="Gjerdåsen, nordre;Gjerdåsen" />
		<tag k="fixme" v="consider natural=peak for the most distinct mountains in the district" />
		<tag k="name" v="Nordre Gjerdåsen" />
		<tag k="natural" v="hill" />
		<tag k="place" v="locality" />
		<tag k="ssr:stedsnr" v="131547" />
	</node>
	<node id="-327748" lat="60.7424388894" lon="11.9655361196">
		<tag k="name" v="Klinten" />
		<tag k="natural" v="hill" />
		<tag k="place" v="locality" />
		<tag k="ssr:stedsnr" v="796202" />
	</node>
	<node id="-327746" lat="60.6670472218" lon="11.8814555623">
		<tag k="fixme" v="consider natural=peak for the most distinct mountains in the district" />
		<tag k="name" v="Spulsåsen" />
		<tag k="natural" v="hill" />
		<tag k="place" v="locality" />
		<tag k="ssr:stedsnr" v="796101" />
	</node>
	<node id="-326540" lat="60.7826833331" lon="11.8468416668">
		<tag k="name" v="Kirkehøgda" />
		<tag k="natural" v="hill" />
		<tag k="place" v="locality" />
		<tag k="ssr:stedsnr" v="358322" />
	</node>
	<node id="-326714" lat="60.7486111091" lon="11.7050999941">
		<tag k="fixme" v="consider natural=peak for the most distinct mountains in the district" />
		<tag k="name" v="Stokkerudsberget" />
		<tag k="natural" v="hill" />
		<tag k="place" v="locality" />
		<tag k="ssr:stedsnr" v="540417" />
	</node>
	<node id="-327734" lat="60.6913833306" lon="11.8940305563">
		<tag k="name" v="Våtmoen" />
		<tag k="place" v="locality" />
		<tag k="ssr:stedsnr" v="786463" />
	</node>
	<node id="-327774" lat="60.6184666644" lon="11.6756972299">
		<tag k="fixme" v="consider natural=peak for the most distinct mountains in the district" />
		<tag k="name" v="Bjørnknappen" />
		<tag k="natural" v="hill" />
		<tag k="place" v="locality" />
		<tag k="ssr:stedsnr" v="828201" />
	</node>
	<node id="-326706" lat="60.7515666669" lon="11.9361166577">
		<tag k="name" v="Sæteråsen" />
		<tag k="natural" v="slope" />
		<tag k="place" v="locality" />
		<tag k="ssr:stedsnr" v="525353" />
	</node>
	<node id="-327213" lat="60.5776611105" lon="11.7393472305">
		<tag k="alt_name" v="Skjerberget" />
		<tag k="name" v="Skjærberget" />
		<tag k="natural" v="hill" />
		<tag k="place" v="locality" />
		<tag k="ssr:stedsnr" v="128106" />
	</node>
	<node id="-327724" lat="60.8674416624" lon="11.9666499933">
		<tag k="name" v="Hesthaugen" />
		<tag k="natural" v="hill" />
		<tag k="place" v="locality" />
		<tag k="ssr:stedsnr" v="785072" />
	</node>
	<node id="-327771" lat="60.8884694479" lon="12.0828694423">
		<tag k="name" v="Risbergmarka" />
		<tag k="natural" v="wood" />
		<tag k="ssr:stedsnr" v="814613" />
	</node>
	<node id="-327200" lat="60.8819555518" lon="12.0508222222">
		<tag k="name" v="Tusenmeterholmen" />
		<tag k="natural" v="hill" />
		<tag k="place" v="locality" />
		<tag k="ssr:stedsnr" v="117399" />
	</node>
	<node id="-327199" lat="60.8751527745" lon="12.0487138924">
		<tag k="name" v="Kjeldmyrhaugen" />
		<tag k="natural" v="hill" />
		<tag k="place" v="locality" />
		<tag k="ssr:stedsnr" v="117396" />
	</node>
	<node id="-326641" lat="60.9853416649" lon="12.2209611135">
		<tag k="name" v="Britalia" />
		<tag k="natural" v="slope" />
		<tag k="place" v="locality" />
		<tag k="ssr:stedsnr" v="663421" />
	</node>
	<node id="-327190" lat="60.714769443" lon="11.6414166601">
		<tag k="name" v="Ruskeberget" />
		<tag k="natural" v="hill" />
		<tag k="place" v="locality" />
		<tag k="ssr:stedsnr" v="116180" />
	</node>
	<node id="-326677" lat="60.5804000005" lon="11.7641499998">
		<tag k="fixme" v="consider natural=peak for the most distinct mountains in the district" />
		<tag k="name" v="Buråsen" />
		<tag k="natural" v="hill" />
		<tag k="place" v="locality" />
		<tag k="ssr:stedsnr" v="674144" />
	</node>
	<node id="-327691" lat="60.7656138928" lon="11.8568527731">
		<tag k="name" v="Pukmoen" />
		<tag k="place" v="locality" />
		<tag k="ssr:stedsnr" v="737540" />
	</node>
	<node id="-327689" lat="60.7590666711" lon="11.9658972252">
		<tag k="name" v="Heberget" />
		<tag k="natural" v="hill" />
		<tag k="place" v="locality" />
		<tag k="ssr:stedsnr" v="737530" />
	</node>
	<node id="-326845" lat="60.777211108" lon="11.8635166682">
		<tag k="name" v="Stabburshaugene" />
		<tag k="natural" v="hill" />
		<tag k="place" v="locality" />
		<tag k="ssr:stedsnr" v="662323" />
	</node>
	<node id="-326486" lat="60.8529777762" lon="12.0156194379">
		<tag k="name" v="Bjørfløtlia" />
		<tag k="natural" v="slope" />
		<tag k="place" v="locality" />
		<tag k="ssr:stedsnr" v="466983" />
	</node>
	<node id="-327681" lat="60.9092194421" lon="12.1160833361">
		<tag k="name" v="Svartberget" />
		<tag k="natural" v="hill" />
		<tag k="place" v="locality" />
		<tag k="ssr:stedsnr" v="737419" />
	</node>
</osm>
