<?xml version="1.0" encoding="UTF-8"?>
<osm generator="osmapis" version="0.6">
	<node id="-38912" lat="60.6780361138" lon="11.7808444513">
		<tag k="name" v="Nymoen" />
		<tag k="place" v="farm" />
		<tag k="ssr:stedsnr" v="709029" />
	</node>
	<node id="-38911" lat="60.6783611091" lon="11.7736999991">
		<tag k="name" v="Nedre Risåsen" />
		<tag k="place" v="farm" />
		<tag k="ssr:stedsnr" v="709025" />
	</node>
	<node id="-38910" lat="60.8904250012" lon="12.239980554">
		<tag k="name" v="Vestgård" />
		<tag k="place" v="farm" />
		<tag k="ssr:stedsnr" v="707490" />
	</node>
	<node id="-38908" lat="60.8905583357" lon="12.245961114">
		<tag k="name" v="Morud" />
		<tag k="place" v="farm" />
		<tag k="ssr:stedsnr" v="707483" />
	</node>
	<node id="-38907" lat="60.7492250001" lon="11.902869441">
		<tag k="name" v="Flaggstangkoia" />
		<tag k="place" v="isolated_dwelling" />
		<tag k="ssr:stedsnr" v="707362" />
	</node>
	<node id="-38904" lat="60.8412499972" lon="12.3226583377">
		<tag k="name" v="Holoskoia" />
		<tag k="place" v="isolated_dwelling" />
		<tag k="ssr:stedsnr" v="555707" />
	</node>
	<node id="-38902" lat="60.8635555568" lon="12.0553111092">
		<tag k="fixme" v="consider place=hamlet" />
		<tag k="name" v="Risberget" />
		<tag k="place" v="village" />
		<tag k="ssr:stedsnr" v="555511" />
	</node>
	<node id="-38899" lat="60.8372666678" lon="12.0689027847">
		<tag k="name" v="Lundebyvollen" />
		<tag k="place" v="farm" />
		<tag k="ssr:stedsnr" v="554652" />
	</node>
	<node id="-38898" lat="60.6989770544" lon="11.9365873157">
		<tag k="fixme" v="consider place=hamlet" />
		<tag k="name" v="Gunnarsrud" />
		<tag k="place" v="farm" />
		<tag k="ssr:stedsnr" v="544443" />
	</node>
	<node id="-38886" lat="60.7321083363" lon="11.7410722212">
		<tag k="name" v="Skjerpen" />
		<tag k="place" v="farm" />
		<tag k="ssr:stedsnr" v="527207" />
	</node>
	<node id="-38885" lat="60.7281388903" lon="11.7539777836">
		<tag k="name" v="Nyeng" />
		<tag k="place" v="farm" />
		<tag k="ssr:stedsnr" v="527206" />
	</node>
	<node id="-38882" lat="60.6726083318" lon="11.8402555497">
		<tag k="name" v="Murud" />
		<tag k="place" v="isolated_dwelling" />
		<tag k="ssr:stedsnr" v="525014" />
	</node>
	<node id="-38881" lat="60.6694611083" lon="11.8398527797">
		<tag k="name" v="Tuvrønningen" />
		<tag k="place" v="farm" />
		<tag k="ssr:stedsnr" v="525013" />
	</node>
	<node id="-38877" lat="60.7142888895" lon="11.8750888821">
		<tag k="name" v="Dypedrætt" />
		<tag k="place" v="farm" />
		<tag k="ssr:stedsnr" v="492040" />
	</node>
	<node id="-38875" lat="60.7669111108" lon="11.935705553">
		<tag k="name" v="Svennebykoia" />
		<tag k="place" v="isolated_dwelling" />
		<tag k="ssr:stedsnr" v="677530" />
	</node>
	<node id="-38872" lat="60.9010555516" lon="12.1818694378">
		<tag k="name" v="Soria Moria" />
		<tag k="place" v="locality" />
		<tag k="ssr:stedsnr" v="677445" />
	</node>
	<node id="-38871" lat="60.8730027801" lon="12.3259888971">
		<tag k="name" v="Haltorpet" />
		<tag k="place" v="farm" />
		<tag k="ssr:stedsnr" v="676686" />
	</node>
	<node id="-38869" lat="60.880991671" lon="12.2405777737">
		<tag k="fixme" v="consider place=hamlet" />
		<tag k="name" v="Gravberget" />
		<tag k="place" v="village" />
		<tag k="ssr:stedsnr" v="676677" />
	</node>
	<node id="-38867" lat="60.8244388908" lon="12.0846083337">
		<tag k="name" v="Løvset" />
		<tag k="place" v="farm" />
		<tag k="ssr:stedsnr" v="676598" />
	</node>
	<node id="-38865" lat="60.7109583331" lon="11.7853333325">
		<tag k="name" v="Foss" />
		<tag k="place" v="farm" />
		<tag k="ssr:stedsnr" v="675292" />
	</node>
	<node id="-38864" lat="60.6509083341" lon="11.8715888835">
		<tag k="landuse" v="military" />
		<tag k="name" v="Haslemoen" />
		<tag k="ssr:stedsnr" v="675089" />
	</node>
	<node id="-38863" lat="60.6520500021" lon="11.9254416685">
		<tag k="name" v="Harstad" />
		<tag k="place" v="farm" />
		<tag k="ssr:stedsnr" v="675087" />
	</node>
	<node id="-38862" lat="60.6050222224" lon="11.8782111174">
		<tag k="name" v="Sørli" />
		<tag k="place" v="farm" />
		<tag k="ssr:stedsnr" v="674846" />
	</node>
	<node id="-38861" lat="60.7377000014" lon="11.6798694445">
		<tag k="name" v="Lia" />
		<tag k="place" v="isolated_dwelling" />
		<tag k="ssr:stedsnr" v="674452" />
	</node>
	<node id="-38860" lat="60.7425249988" lon="11.7716000062">
		<tag k="name" v="Solstad" />
		<tag k="place" v="farm" />
		<tag k="ssr:stedsnr" v="674443" />
	</node>
	<node id="-38859" lat="60.7400194479" lon="11.8124194409">
		<tag k="name" v="Granlund" />
		<tag k="place" v="farm" />
		<tag k="ssr:stedsnr" v="674435" />
	</node>
	<node id="-38858" lat="60.7421083353" lon="11.8203555613">
		<tag k="alt_name" v="Norderhaug" />
		<tag k="name" v="Norderhov" />
		<tag k="place" v="farm" />
		<tag k="ssr:stedsnr" v="674433" />
	</node>
	<node id="-38856" lat="60.6634047445" lon="11.7925468256">
		<tag k="name" v="Toterud" />
		<tag k="place" v="hamlet" />
		<tag k="ssr:stedsnr" v="674348" />
	</node>
	<node id="-38855" lat="60.6438816285" lon="11.8195861472">
		<tag k="alt_name" v="Magnes" />
		<tag k="name" v="Mangnes" />
		<tag k="place" v="hamlet" />
		<tag k="ssr:stedsnr" v="674299" />
	</node>
	<node id="-38850" lat="60.7401972203" lon="11.8706916666">
		<tag k="name" v="Østli" />
		<tag k="place" v="farm" />
		<tag k="ssr:stedsnr" v="482461" />
	</node>
	<node id="-38849" lat="60.7417083295" lon="11.8534749929">
		<tag k="name" v="Strandli" />
		<tag k="place" v="isolated_dwelling" />
		<tag k="ssr:stedsnr" v="482458" />
	</node>
	<node id="-38848" lat="60.7345666647" lon="11.8358277761">
		<tag k="name" v="Haugrønningen" />
		<tag k="place" v="farm" />
		<tag k="ssr:stedsnr" v="482452" />
	</node>
	<node id="-38846" lat="60.7168388857" lon="11.9029999917">
		<tag k="name" v="Eng" />
		<tag k="place" v="farm" />
		<tag k="ssr:stedsnr" v="480315" />
	</node>
	<node id="-38844" lat="60.609616664" lon="11.8802194366">
		<tag k="name" v="Granli" />
		<tag k="place" v="farm" />
		<tag k="ssr:stedsnr" v="480059" />
	</node>
	<node id="-38839" lat="60.6726250003" lon="11.7772472142">
		<tag k="name" v="Lerudsmoen" />
		<tag k="place" v="isolated_dwelling" />
		<tag k="ssr:stedsnr" v="466102" />
	</node>
	<node id="-38838" lat="60.6846138848" lon="11.7911638905">
		<tag k="name" v="Øvre Vestgården" />
		<tag k="place" v="farm" />
		<tag k="ssr:stedsnr" v="466024" />
	</node>
	<node id="-38836" lat="60.6443694421" lon="11.8096833296">
		<tag k="name" v="Nordre Melsnes" />
		<tag k="place" v="isolated_dwelling" />
		<tag k="ssr:stedsnr" v="465115" />
	</node>
	<node id="-38834" lat="60.6383583372" lon="11.8007083422">
		<tag k="name" v="Brenna" />
		<tag k="place" v="farm" />
		<tag k="ssr:stedsnr" v="465111" />
	</node>
	<node id="-38833" lat="60.7168388857" lon="11.9029999917">
		<tag k="name" v="Eng" />
		<tag k="place" v="farm" />
		<tag k="ssr:stedsnr" v="464561" />
	</node>
	<node id="-38830" lat="60.6655638895" lon="11.8452972199">
		<tag k="name" v="Høgskjæret" />
		<tag k="place" v="isolated_dwelling" />
		<tag k="ssr:stedsnr" v="464117" />
	</node>
	<node id="-38829" lat="60.6974694413" lon="11.8938305501">
		<tag k="name" v="Gridderud" />
		<tag k="place" v="farm" />
		<tag k="ssr:stedsnr" v="665495" />
	</node>
	<node id="-38822" lat="60.7357416707" lon="11.8489388955">
		<tag k="name" v="Smedstød" />
		<tag k="place" v="farm" />
		<tag k="ssr:stedsnr" v="664440" />
	</node>
	<node id="-38821" lat="60.7365555548" lon="11.8620194359">
		<tag k="name" v="Nygård" />
		<tag k="place" v="farm" />
		<tag k="ssr:stedsnr" v="664438" />
	</node>
	<node id="-38820" lat="60.8211972193" lon="12.0575666611">
		<tag k="name" v="Rodal" />
		<tag k="place" v="isolated_dwelling" />
		<tag k="ssr:stedsnr" v="663749" />
	</node>
	<node id="-38813" lat="60.7372333338" lon="11.804955547">
		<tag k="name" v="Elsethagen" />
		<tag k="place" v="farm" />
		<tag k="ssr:stedsnr" v="661456" />
	</node>
	<node id="-38811" lat="60.8435527821" lon="12.1775583252">
		<tag k="name" v="Hemmervollen" />
		<tag k="place" v="isolated_dwelling" />
		<tag k="ssr:stedsnr" v="661228" />
	</node>
	<node id="-38809" lat="60.8430505363" lon="12.0024945046">
		<tag k="fixme" v="consider place=hamlet" />
		<tag k="name" v="Silkoset" />
		<tag k="place" v="farm" />
		<tag k="ssr:stedsnr" v="434617" />
	</node>
	<node id="-38807" lat="60.8980027794" lon="12.0777222262">
		<tag k="name" v="Embretslokoia" />
		<tag k="place" v="isolated_dwelling" />
		<tag k="ssr:stedsnr" v="434402" />
	</node>
	<node id="-38803" lat="60.6258752168" lon="11.8689096424">
		<tag k="fixme" v="consider place=hamlet" />
		<tag k="name" v="Klyperud" />
		<tag k="place" v="farm" />
		<tag k="ssr:stedsnr" v="432806" />
	</node>
	<node id="-38801" lat="60.6684055582" lon="11.7864555589">
		<tag k="alt_name" v="Misundstad" />
		<tag k="name" v="Midtsundstad" />
		<tag k="place" v="farm" />
		<tag k="ssr:stedsnr" v="432338" />
	</node>
	<node id="-38800" lat="60.6647694482" lon="11.7998722167">
		<tag k="name" v="Mågerud" />
		<tag k="place" v="farm" />
		<tag k="ssr:stedsnr" v="432329" />
	</node>
	<node id="-38799" lat="60.6363722185" lon="11.7210361101">
		<tag k="historic" v="shieling" />
		<tag k="name" v="Rundsætra" />
		<tag k="place" v="locality" />
		<tag k="ssr:stedsnr" v="432311" />
	</node>
	<node id="-38797" lat="60.7052888851" lon="11.7758055537">
		<tag k="name" v="Nordjordet" />
		<tag k="place" v="farm" />
		<tag k="ssr:stedsnr" v="432248" />
	</node>
	<node id="-38796" lat="60.7484722213" lon="11.8708416689">
		<tag k="name" v="Nysted" />
		<tag k="place" v="farm" />
		<tag k="ssr:stedsnr" v="432210" />
	</node>
	<node id="-38794" lat="60.668516665" lon="11.7362277779">
		<tag k="name" v="Muslikoia" />
		<tag k="place" v="isolated_dwelling" />
		<tag k="ssr:stedsnr" v="423246" />
	</node>
	<node id="-38789" lat="60.7056972234" lon="11.8027583253">
		<tag k="name" v="Søndre Vålengbakken" />
		<tag k="place" v="farm" />
		<tag k="ssr:stedsnr" v="416207" />
	</node>
	<node id="-38787" lat="60.8544972185" lon="12.056538881">
		<tag k="name" v="Skoglund" />
		<tag k="place" v="isolated_dwelling" />
		<tag k="ssr:stedsnr" v="406365" />
	</node>
	<node id="-38785" lat="60.706558335" lon="11.7775333248">
		<tag k="name" v="Moss" />
		<tag k="place" v="locality" />
		<tag k="ssr:stedsnr" v="406055" />
	</node>
	<node id="-38784" lat="60.6850249997" lon="11.8342972245">
		<tag k="name" v="Bråten" />
		<tag k="place" v="farm" />
		<tag k="ssr:stedsnr" v="406012" />
	</node>
	<node id="-38778" lat="60.8845921753" lon="12.2255129914">
		<tag k="name" v="Gravberget gård" />
		<tag k="ssr:stedsnr" v="389755" />
		<tag k="tourism" v="guest_house" />
	</node>
	<node id="-38776" lat="60.8631555555" lon="12.0559361062">
		<tag k="name" v="Gamle Oppistua" />
		<tag k="place" v="farm" />
		<tag k="ssr:stedsnr" v="384555" />
	</node>
	<node id="-38771" lat="60.7894944402" lon="11.9872027771">
		<tag k="name" v="Haukåsen" />
		<tag k="place" v="hamlet" />
		<tag k="ssr:stedsnr" v="373513" />
	</node>
	<node id="-38765" lat="60.6304825628" lon="11.8711807487">
		<tag k="fixme" v="consider place=hamlet" />
		<tag k="name" v="Haug" />
		<tag k="place" v="farm" />
		<tag k="ssr:stedsnr" v="371828" />
	</node>
	<node id="-38764" lat="60.5973722262" lon="11.8873555617">
		<tag k="name" v="Libekk" />
		<tag k="place" v="farm" />
		<tag k="ssr:stedsnr" v="371776" />
	</node>
	<node id="-38763" lat="60.6732166661" lon="11.7873638827">
		<tag k="name" v="Lerud" />
		<tag k="place" v="farm" />
		<tag k="ssr:stedsnr" v="371356" />
	</node>
	<node id="-38762" lat="60.6690619013" lon="11.7996664429">
		<tag k="fixme" v="consider place=hamlet" />
		<tag k="name" v="Sæter" />
		<tag k="place" v="farm" />
		<tag k="ssr:stedsnr" v="371353" />
	</node>
	<node id="-38761" lat="60.6476916627" lon="11.8097944454">
		<tag k="alt_name" v="Løvlien" />
		<tag k="name" v="Lauvlia" />
		<tag k="place" v="farm" />
		<tag k="ssr:stedsnr" v="371313" />
	</node>
	<node id="-38760" lat="60.7318667374" lon="11.7971680506">
		<tag k="fixme" v="consider place=hamlet" />
		<tag k="name" v="Øverby" />
		<tag k="place" v="farm" />
		<tag k="ssr:stedsnr" v="371279" />
	</node>
	<node id="-38758" lat="60.7086527816" lon="11.9274083272">
		<tag k="alt_name" v="Otterhaugen" />
		<tag k="name" v="Otterhaug" />
		<tag k="place" v="farm" />
		<tag k="ssr:stedsnr" v="371052" />
	</node>
	<node id="-38752" lat="60.7653361084" lon="11.9650833378">
		<tag k="alt_name" v="Heberget" />
		<tag k="name" v="Hebergsætrene" />
		<tag k="place" v="hamlet" />
		<tag k="ssr:stedsnr" v="495530" />
	</node>
	<node id="-38750" lat="60.7808666639" lon="11.8382555602">
		<tag k="name" v="Skipperstøvollen" />
		<tag k="place" v="isolated_dwelling" />
		<tag k="ssr:stedsnr" v="495374" />
	</node>
	<node id="-38749" lat="60.9218444409" lon="12.2679055473">
		<tag k="name" v="Mosæterkoia" />
		<tag k="place" v="locality" />
		<tag k="ssr:stedsnr" v="494680" />
	</node>
	<node id="-38748" lat="60.9506999972" lon="12.259244451">
		<tag k="name" v="Jonsrud" />
		<tag k="place" v="isolated_dwelling" />
		<tag k="ssr:stedsnr" v="494674" />
	</node>
	<node id="-38746" lat="60.853233337" lon="12.2969611039">
		<tag k="alt_name" v="Koia" />
		<tag k="name" v="Koien" />
		<tag k="place" v="farm" />
		<tag k="ssr:stedsnr" v="494669" />
	</node>
	<node id="-38744" lat="60.7733972187" lon="11.9731694457">
		<tag k="name" v="Ullerudkoia" />
		<tag k="place" v="isolated_dwelling" />
		<tag k="ssr:stedsnr" v="494528" />
	</node>
	<node id="-38741" lat="60.811524999" lon="12.062719442">
		<tag k="fixme" v="multiple name tags, choose one and add the other to alt_name" />
		<tag k="name" v="Knøssjøkoia;Kynndalsmokoia" />
		<tag k="place" v="isolated_dwelling" />
		<tag k="ssr:stedsnr" v="494495" />
	</node>
	<node id="-38739" lat="60.9207500016" lon="12.1671583316">
		<tag k="name" v="Nedgardsætra" />
		<tag k="place" v="locality" />
		<tag k="ssr:stedsnr" v="494424" />
	</node>
	<node id="-38738" lat="60.9220444477" lon="12.1084472301">
		<tag k="name" v="Nyborgsætra" />
		<tag k="place" v="locality" />
		<tag k="ssr:stedsnr" v="494423" />
	</node>
	<node id="-38737" lat="60.6155499992" lon="11.9139444479">
		<tag k="name" v="Enger" />
		<tag k="place" v="farm" />
		<tag k="ssr:stedsnr" v="492864" />
	</node>
	<node id="-38736" lat="60.6144683858" lon="11.8749207705">
		<tag k="fixme" v="consider place=hamlet" />
		<tag k="name" v="Sønsterud" />
		<tag k="place" v="farm" />
		<tag k="ssr:stedsnr" v="492861" />
	</node>
	<node id="-38735" lat="60.7088222221" lon="11.9073222211">
		<tag k="amenity" v="school" />
		<tag k="name" v="Hasla skole" />
		<tag k="ssr:stedsnr" v="362459" />
	</node>
	<node id="-38734" lat="60.6972527757" lon="11.905211109">
		<tag k="building" v="industrial" />
		<tag k="name" v="Strætkverna" />
		<tag k="ssr:stedsnr" v="362456" />
	</node>
	<node id="-38732" lat="60.5995666697" lon="11.8779777824">
		<tag k="alt_name" v="Sagen" />
		<tag k="name" v="Saga" />
		<tag k="place" v="farm" />
		<tag k="ssr:stedsnr" v="492759" />
	</node>
	<node id="-38731" lat="60.7387000018" lon="11.8524333272">
		<tag k="name" v="Rydningen" />
		<tag k="place" v="farm" />
		<tag k="ssr:stedsnr" v="360415" />
	</node>
	<node id="-38730" lat="60.7480111094" lon="11.8477555596">
		<tag k="name" v="Sjølund" />
		<tag k="place" v="farm" />
		<tag k="ssr:stedsnr" v="360414" />
	</node>
	<node id="-38729" lat="60.7384833334" lon="11.8399055521">
		<tag k="name" v="Sjøbrenna" />
		<tag k="place" v="farm" />
		<tag k="ssr:stedsnr" v="360411" />
	</node>
	<node id="-38728" lat="60.6203361088" lon="11.6949861132">
		<tag k="name" v="Sagkoia" />
		<tag k="place" v="isolated_dwelling" />
		<tag k="ssr:stedsnr" v="360211" />
	</node>
	<node id="-38727" lat="60.7480611101" lon="11.8180305489">
		<tag k="name" v="Hopteigen" />
		<tag k="place" v="farm" />
		<tag k="ssr:stedsnr" v="492411" />
	</node>
	<node id="-38724" lat="60.6735777761" lon="11.8051416635">
		<tag k="alt_name" v="Nilskroken" />
		<tag k="name" v="Kroken" />
		<tag k="place" v="farm" />
		<tag k="ssr:stedsnr" v="492351" />
	</node>
	<node id="-38722" lat="60.737441665" lon="11.8082444525">
		<tag k="name" v="Elsetrønningen" />
		<tag k="place" v="farm" />
		<tag k="ssr:stedsnr" v="358352" />
	</node>
	<node id="-38721" lat="60.63918889" lon="11.6994305541">
		<tag k="name" v="Snarådamkoia" />
		<tag k="place" v="isolated_dwelling" />
		<tag k="ssr:stedsnr" v="492321" />
	</node>
	<node id="-38720" lat="60.7363444461" lon="11.6635722248">
		<tag k="name" v="Killingrudsvollen" />
		<tag k="place" v="isolated_dwelling" />
		<tag k="ssr:stedsnr" v="358413" />
	</node>
	<node id="-38719" lat="60.6371527737" lon="11.7096972298">
		<tag k="historic" v="shieling" />
		<tag k="name" v="Toterudsætra" />
		<tag k="place" v="locality" />
		<tag k="ssr:stedsnr" v="492314" />
	</node>
	<node id="-38716" lat="60.6065888909" lon="11.8846388804">
		<tag k="name" v="Østhaug" />
		<tag k="place" v="farm" />
		<tag k="ssr:stedsnr" v="358074" />
	</node>
	<node id="-38715" lat="60.7232500001" lon="11.8182472139">
		<tag k="alt_name" v="Myreng" />
		<tag k="name" v="Myrenga" />
		<tag k="place" v="farm" />
		<tag k="ssr:stedsnr" v="492259" />
	</node>
	<node id="-38714" lat="60.7488694447" lon="11.8437694395">
		<tag k="name" v="Haug" />
		<tag k="place" v="farm" />
		<tag k="ssr:stedsnr" v="492188" />
	</node>
	<node id="-38712" lat="60.7174472264" lon="11.9188888819">
		<tag k="name" v="Teppa" />
		<tag k="place" v="farm" />
		<tag k="ssr:stedsnr" v="492162" />
	</node>
	<node id="-38711" lat="60.718539567" lon="11.8444690622">
		<tag k="alt_name" v="Ulsbøl" />
		<tag k="fixme" v="consider place=hamlet" />
		<tag k="name" v="Ulfsbøl" />
		<tag k="place" v="farm" />
		<tag k="ssr:stedsnr" v="492160" />
	</node>
	<node id="-38708" lat="60.5827750017" lon="11.8121583368">
		<tag k="historic" v="shieling" />
		<tag k="name" v="Mangbakksætra" />
		<tag k="place" v="locality" />
		<tag k="ssr:stedsnr" v="492108" />
	</node>
	<node id="-38707" lat="60.6701111075" lon="11.8509972276">
		<tag k="name" v="Østmo" />
		<tag k="place" v="farm" />
		<tag k="ssr:stedsnr" v="492089" />
	</node>
	<node id="-38705" lat="60.6616833365" lon="11.8399500027">
		<tag k="name" v="Myrer" />
		<tag k="place" v="farm" />
		<tag k="ssr:stedsnr" v="492073" />
	</node>
	<node id="-38704" lat="60.5742138867" lon="11.7346027837">
		<tag k="name" v="Hesteskotjernskoia" />
		<tag k="place" v="isolated_dwelling" />
		<tag k="ssr:stedsnr" v="345253" />
	</node>
	<node id="-38703" lat="60.6692416696" lon="11.7830249934">
		<tag k="name" v="Risbro" />
		<tag k="place" v="farm" />
		<tag k="ssr:stedsnr" v="345115" />
	</node>
	<node id="-38702" lat="60.8004305595" lon="11.8947611027">
		<tag k="name" v="Flatåskoia" />
		<tag k="place" v="locality" />
		<tag k="ssr:stedsnr" v="484079" />
	</node>
	<node id="-38700" lat="60.7042194421" lon="11.9070249935">
		<tag k="name" v="Helset" />
		<tag k="old_name" v="Huset" />
		<tag k="place" v="locality" />
		<tag k="ssr:stedsnr" v="483488" />
	</node>
	<node id="-38699" lat="60.708313885" lon="11.8957833278">
		<tag k="name" v="Bjergård" />
		<tag k="place" v="farm" />
		<tag k="ssr:stedsnr" v="483486" />
	</node>
	<node id="-38698" lat="60.701066665" lon="11.9105333322">
		<tag k="name" v="Kvernland" />
		<tag k="place" v="farm" />
		<tag k="ssr:stedsnr" v="483483" />
	</node>
	<node id="-38697" lat="60.6899444408" lon="11.693408339">
		<tag k="name" v="Nystuvollen" />
		<tag k="place" v="isolated_dwelling" />
		<tag k="ssr:stedsnr" v="483180" />
	</node>
	<node id="-38696" lat="60.6538750035" lon="11.7564472135">
		<tag k="name" v="Firerkoia" />
		<tag k="place" v="isolated_dwelling" />
		<tag k="ssr:stedsnr" v="483266" />
	</node>
	<node id="-38685" lat="60.8509777744" lon="12.1010222282">
		<tag k="name" v="Gjerdåskoia" />
		<tag k="place" v="isolated_dwelling" />
		<tag k="ssr:stedsnr" v="479343" />
	</node>
	<node id="-38684" lat="60.8873027815" lon="12.0432027724">
		<tag k="name" v="Veltbua" />
		<tag k="place" v="locality" />
		<tag k="ssr:stedsnr" v="479301" />
	</node>
	<node id="-38676" lat="60.7416888914" lon="11.8902166644">
		<tag k="name" v="Bredalen" />
		<tag k="place" v="farm" />
		<tag k="ssr:stedsnr" v="300464" />
	</node>
	<node id="-38675" lat="60.733213886" lon="11.8758694455">
		<tag k="name" v="Østre Rønningen" />
		<tag k="place" v="farm" />
		<tag k="ssr:stedsnr" v="300462" />
	</node>
	<node id="-38669" lat="60.7091472252" lon="11.7147222163">
		<tag k="name" v="Doktorkoia" />
		<tag k="place" v="locality" />
		<tag k="ssr:stedsnr" v="467151" />
	</node>
	<node id="-38668" lat="60.7212999998" lon="11.8424222218">
		<tag k="name" v="Torkeldsby" />
		<tag k="place" v="farm" />
		<tag k="ssr:stedsnr" v="467042" />
	</node>
	<node id="-38667" lat="60.7156027778" lon="11.875016669">
		<tag k="name" v="Ødegårdsplassen" />
		<tag k="place" v="farm" />
		<tag k="ssr:stedsnr" v="467033" />
	</node>
	<node id="-38665" lat="60.5842055519" lon="11.8348444433">
		<tag k="historic" v="shieling" />
		<tag k="name" v="Sønstrudsætra" />
		<tag k="place" v="locality" />
		<tag k="ssr:stedsnr" v="467182" />
	</node>
	<node id="-38664" lat="60.6000388874" lon="11.7986805592">
		<tag k="name" v="Astrupkoia" />
		<tag k="place" v="isolated_dwelling" />
		<tag k="ssr:stedsnr" v="467090" />
	</node>
	<node id="-38661" lat="60.8568555595" lon="12.0563222291">
		<tag k="name" v="Stenbråten" />
		<tag k="place" v="isolated_dwelling" />
		<tag k="ssr:stedsnr" v="466400" />
	</node>
	<node id="-38657" lat="60.6826527816" lon="11.7962777864">
		<tag k="name" v="Nystua" />
		<tag k="place" v="farm" />
		<tag k="ssr:stedsnr" v="466037" />
	</node>
	<node id="-38656" lat="60.6784972191" lon="11.79948888">
		<tag k="name" v="Gammelstua" />
		<tag k="place" v="isolated_dwelling" />
		<tag k="ssr:stedsnr" v="466031" />
	</node>
	<node id="-38655" lat="60.6720750011" lon="11.8155555629">
		<tag k="name" v="Glomli" />
		<tag k="place" v="isolated_dwelling" />
		<tag k="ssr:stedsnr" v="466030" />
	</node>
	<node id="-38654" lat="60.7125805527" lon="11.774249997">
		<tag k="name" v="Bårdstua" />
		<tag k="place" v="farm" />
		<tag k="ssr:stedsnr" v="466059" />
	</node>
	<node id="-38653" lat="60.9088527821" lon="12.2893222249">
		<tag k="name" v="Myggbo" />
		<tag k="place" v="locality" />
		<tag k="ssr:stedsnr" v="465379" />
	</node>
	<node id="-38650" lat="60.8965805573" lon="12.2874000067">
		<tag k="alt_name" v="Halberget" />
		<tag k="name" v="Nedre Halberget" />
		<tag k="place" v="farm" />
		<tag k="ssr:stedsnr" v="448789" />
	</node>
	<node id="-38649" lat="60.8569138904" lon="12.0610694406">
		<tag k="name" v="Nordre Berget" />
		<tag k="place" v="farm" />
		<tag k="ssr:stedsnr" v="445586" />
	</node>
	<node id="-38648" lat="60.8799722223" lon="12.30908888">
		<tag k="name" v="Langneskoia" />
		<tag k="place" v="locality" />
		<tag k="ssr:stedsnr" v="233036" />
	</node>
	<node id="-38644" lat="60.8181777773" lon="11.9771583402">
		<tag k="name" v="Bekkevollen" />
		<tag k="place" v="isolated_dwelling" />
		<tag k="ssr:stedsnr" v="298715" />
	</node>
	<node id="-38636" lat="60.7756944404" lon="11.8464944478">
		<tag k="alt_name" v="Tørråsvollen" />
		<tag k="name" v="Tøråsvollen" />
		<tag k="place" v="locality" />
		<tag k="ssr:stedsnr" v="191525" />
	</node>
	<node id="-38635" lat="60.9266944423" lon="12.2107222245">
		<tag k="alt_name" v="Smalberget" />
		<tag k="name" v="Øvre Smalberget" />
		<tag k="place" v="locality" />
		<tag k="ssr:stedsnr" v="191451" />
	</node>
	<node id="-38633" lat="60.9501777736" lon="12.0332833275">
		<tag k="alt_name" v="Gjeddsjøberget, s;Gjeddsjøberget" />
		<tag k="name" v="Søndre Gjeddsjøberget" />
		<tag k="place" v="isolated_dwelling" />
		<tag k="ssr:stedsnr" v="191442" />
	</node>
	<node id="-38631" lat="60.8977666675" lon="12.04711111">
		<tag k="name" v="Bjørbekkoia" />
		<tag k="place" v="locality" />
		<tag k="ssr:stedsnr" v="191403" />
	</node>
	<node id="-38629" lat="60.5839333369" lon="11.6991666747">
		<tag k="alt_name" v="Fjellsætra, s" />
		<tag k="name" v="Søndre Fjellsætra" />
		<tag k="place" v="hamlet" />
		<tag k="ssr:stedsnr" v="189128" />
	</node>
	<node id="-38627" lat="60.8467999978" lon="12.0611972268">
		<tag k="name" v="Solbakken" />
		<tag k="place" v="isolated_dwelling" />
		<tag k="ssr:stedsnr" v="285707" />
	</node>
	<node id="-38625" lat="60.7299416633" lon="11.7497444508">
		<tag k="name" v="Sørby" />
		<tag k="place" v="farm" />
		<tag k="ssr:stedsnr" v="285216" />
	</node>
	<node id="-38622" lat="60.7050166651" lon="11.7625749966">
		<tag k="name" v="Haugen" />
		<tag k="place" v="farm" />
		<tag k="ssr:stedsnr" v="285203" />
	</node>
	<node id="-38618" lat="60.690769443" lon="11.8168500083">
		<tag k="name" v="Nordre Strand" />
		<tag k="place" v="farm" />
		<tag k="ssr:stedsnr" v="285058" />
	</node>
	<node id="-38617" lat="60.7128256328" lon="11.8765478363">
		<tag k="fixme" v="consider place=hamlet" />
		<tag k="name" v="Ødegården" />
		<tag k="place" v="farm" />
		<tag k="ssr:stedsnr" v="285038" />
	</node>
	<node id="-38615" lat="60.7483722193" lon="11.8747805544">
		<tag k="name" v="Tøråsen kvern" />
		<tag k="place" v="farm" />
		<tag k="ssr:stedsnr" v="178469" />
	</node>
	<node id="-38613" lat="60.7395388897" lon="11.8626194397">
		<tag k="name" v="Langset" />
		<tag k="place" v="farm" />
		<tag k="ssr:stedsnr" v="178460" />
	</node>
	<node id="-38612" lat="60.7420305533" lon="11.8607833375">
		<tag k="name" v="Bjerke" />
		<tag k="place" v="farm" />
		<tag k="ssr:stedsnr" v="178459" />
	</node>
	<node id="-38605" lat="60.7044500031" lon="11.7127444536">
		<tag k="name" v="Hagavollen" />
		<tag k="place" v="isolated_dwelling" />
		<tag k="ssr:stedsnr" v="284145" />
	</node>
	<node id="-38604" lat="60.6756944453" lon="11.7930277699">
		<tag k="name" v="Syd-Rønningen" />
		<tag k="place" v="farm" />
		<tag k="ssr:stedsnr" v="284105" />
	</node>
	<node id="-38603" lat="60.7001666665" lon="11.8873000081">
		<tag k="name" v="Tallhaugen" />
		<tag k="place" v="farm" />
		<tag k="ssr:stedsnr" v="284056" />
	</node>
	<node id="-38602" lat="60.7195111069" lon="11.8211055634">
		<tag k="name" v="Kristmoen" />
		<tag k="place" v="farm" />
		<tag k="ssr:stedsnr" v="284039" />
	</node>
	<node id="-38599" lat="60.6365527774" lon="11.8196527737">
		<tag k="name" v="Nordre Mangerud" />
		<tag k="place" v="farm" />
		<tag k="ssr:stedsnr" v="283095" />
	</node>
	<node id="-38598" lat="60.6676333348" lon="11.8338666748">
		<tag k="name" v="Hemme" />
		<tag k="place" v="quarter" />
		<tag k="ssr:stedsnr" v="283079" />
	</node>
	<node id="-38591" lat="60.693330554" lon="11.8262722279">
		<tag k="name" v="Søndre Kåten" />
		<tag k="place" v="farm" />
		<tag k="ssr:stedsnr" v="163059" />
	</node>
	<node id="-38590" lat="60.7052305579" lon="11.771866674">
		<tag k="name" v="Skjellebekk" />
		<tag k="place" v="farm" />
		<tag k="ssr:stedsnr" v="163172" />
	</node>
	<node id="-38587" lat="60.6415000027" lon="11.6418888833">
		<tag k="name" v="Nierkoia" />
		<tag k="place" v="isolated_dwelling" />
		<tag k="ssr:stedsnr" v="161921" />
	</node>
	<node id="-38582" lat="60.6310444479" lon="11.8631000056">
		<tag k="name" v="Søndre Berg" />
		<tag k="place" v="farm" />
		<tag k="ssr:stedsnr" v="161075" />
	</node>
	<node id="-38581" lat="60.6112194478" lon="11.6376111112">
		<tag k="name" v="Opptrekkeren" />
		<tag k="place" v="locality" />
		<tag k="ssr:stedsnr" v="278765" />
	</node>
	<node id="-38580" lat="60.9811444419" lon="12.2262444521">
		<tag k="name" v="Bråtedammen" />
		<tag k="place" v="isolated_dwelling" />
		<tag k="ssr:stedsnr" v="131511" />
	</node>
	<node id="-38579" lat="60.8500888846" lon="12.1560972186">
		<tag k="name" v="Femmerkoia" />
		<tag k="place" v="isolated_dwelling" />
		<tag k="ssr:stedsnr" v="130603" />
	</node>
	<node id="-38578" lat="60.6266682367" lon="11.918698314">
		<tag k="fixme" v="consider place=hamlet" />
		<tag k="name" v="Øyset" />
		<tag k="place" v="farm" />
		<tag k="ssr:stedsnr" v="128808" />
	</node>
	<node id="-38577" lat="60.6775333347" lon="11.7285611199">
		<tag k="fixme" v="multiple name tags, choose one and add the other to alt_name" />
		<tag k="historic" v="shieling" />
		<tag k="name" v="Gjerdrumsætra;Vestgårdsætra" />
		<tag k="place" v="locality" />
		<tag k="ssr:stedsnr" v="128322" />
	</node>
	<node id="-38576" lat="60.6844333293" lon="11.7787861178">
		<tag k="alt_name" v="Lille Monsrud" />
		<tag k="name" v="Monsrud" />
		<tag k="place" v="farm" />
		<tag k="ssr:stedsnr" v="128317" />
	</node>
	<node id="-38574" lat="60.7089888867" lon="11.7488388899">
		<tag k="name" v="Bråten" />
		<tag k="place" v="farm" />
		<tag k="ssr:stedsnr" v="128238" />
	</node>
	<node id="-38570" lat="60.8895861129" lon="12.1618472149">
		<tag k="historic" v="shieling" />
		<tag k="name" v="Tre Koier" />
		<tag k="place" v="locality" />
		<tag k="ssr:stedsnr" v="263581" />
	</node>
	<node id="-38569" lat="60.7418305535" lon="11.8313305565">
		<tag k="name" v="Sandnes" />
		<tag k="place" v="farm" />
		<tag k="ssr:stedsnr" v="116344" />
	</node>
	<node id="-38567" lat="60.7107500036" lon="11.9156555619">
		<tag k="name" v="Håkensmoen" />
		<tag k="place" v="farm" />
		<tag k="ssr:stedsnr" v="116324" />
	</node>
	<node id="-38564" lat="60.8552944414" lon="12.2854555524">
		<tag k="name" v="Slettmoen" />
		<tag k="place" v="farm" />
		<tag k="ssr:stedsnr" v="252671" />
	</node>
	<node id="-38563" lat="60.8635722202" lon="12.1353277825">
		<tag k="alt_name" v="Nierkoia, nedre;Nierkoia" />
		<tag k="name" v="Nedre Nierkoia" />
		<tag k="place" v="isolated_dwelling" />
		<tag k="ssr:stedsnr" v="252525" />
	</node>
	<node id="-38562" lat="60.7672888873" lon="11.9493527861">
		<tag k="name" v="Toerkoia" />
		<tag k="place" v="isolated_dwelling" />
		<tag k="ssr:stedsnr" v="252499" />
	</node>
	<node id="-38560" lat="60.791380555" lon="11.8635805561">
		<tag k="name" v="Åtterkoia" />
		<tag k="place" v="isolated_dwelling" />
		<tag k="ssr:stedsnr" v="252458" />
	</node>
	<node id="-38558" lat="60.9389611117" lon="12.0656083319">
		<tag k="name" v="Storkoia" />
		<tag k="place" v="isolated_dwelling" />
		<tag k="ssr:stedsnr" v="252450" />
	</node>
	<node id="-38557" lat="60.8793499975" lon="11.9929499966">
		<tag k="name" v="Brenna" />
		<tag k="place" v="isolated_dwelling" />
		<tag k="ssr:stedsnr" v="252427" />
	</node>
	<node id="-38553" lat="60.9259499957" lon="12.2397500085">
		<tag k="fixme" v="multiple name tags, choose one and add the other to alt_name" />
		<tag k="name" v="Larsmyrkoia;Sætermyrkoia" />
		<tag k="place" v="locality" />
		<tag k="ssr:stedsnr" v="251736" />
	</node>
	<node id="-38552" lat="60.8462388858" lon="11.9882249999">
		<tag k="name" v="Brattlund" />
		<tag k="place" v="isolated_dwelling" />
		<tag k="ssr:stedsnr" v="251649" />
	</node>
	<node id="-38549" lat="60.6035277741" lon="11.8869027862">
		<tag k="name" v="Østmoen" />
		<tag k="place" v="farm" />
		<tag k="ssr:stedsnr" v="250827" />
	</node>
	<node id="-38544" lat="60.7190444438" lon="11.7312944518">
		<tag k="name" v="Siljubergkoia" />
		<tag k="place" v="isolated_dwelling" />
		<tag k="ssr:stedsnr" v="250303" />
	</node>
	<node id="-38542" lat="60.7365750018" lon="11.8922138865">
		<tag k="name" v="Libekk" />
		<tag k="place" v="isolated_dwelling" />
		<tag k="ssr:stedsnr" v="250215" />
	</node>
	<node id="-38541" lat="60.7363722264" lon="11.8719305627">
		<tag k="name" v="Karlshaugen" />
		<tag k="place" v="farm" />
		<tag k="ssr:stedsnr" v="250213" />
	</node>
	<node id="-38540" lat="60.7221750026" lon="11.8974972174">
		<tag k="name" v="Skårå" />
		<tag k="place" v="farm" />
		<tag k="ssr:stedsnr" v="250210" />
	</node>
	<node id="-38539" lat="60.6633111097" lon="11.9338166674">
		<tag k="name" v="Knatterud" />
		<tag k="place" v="farm" />
		<tag k="ssr:stedsnr" v="250111" />
	</node>
	<node id="-38538" lat="60.71618056" lon="11.9040861048">
		<tag k="name" v="Myrer" />
		<tag k="place" v="farm" />
		<tag k="ssr:stedsnr" v="250057" />
	</node>
	<node id="-38537" lat="60.7068416674" lon="11.8507111022">
		<tag k="name" v="Jevne" />
		<tag k="place" v="farm" />
		<tag k="ssr:stedsnr" v="250051" />
	</node>
	<node id="-38536" lat="60.5920416636" lon="11.8602805589">
		<tag k="fixme" v="multiple name tags, choose one and add the other to alt_name" />
		<tag k="name" v="Fallkoia;Sagslokoia" />
		<tag k="place" v="locality" />
		<tag k="ssr:stedsnr" v="249737" />
	</node>
	<node id="-38535" lat="60.7291766326" lon="11.7351573869">
		<tag k="fixme" v="consider place=hamlet" />
		<tag k="name" v="Svenkerud" />
		<tag k="place" v="farm" />
		<tag k="ssr:stedsnr" v="249290" />
	</node>
	<node id="-38534" lat="60.6905944473" lon="11.8303888816">
		<tag k="name" v="Myra" />
		<tag k="place" v="farm" />
		<tag k="ssr:stedsnr" v="249264" />
	</node>
	<node id="-38528" lat="60.5714861141" lon="11.7719833346">
		<tag k="historic" v="shieling" />
		<tag k="name" v="Sjurderudsætra" />
		<tag k="place" v="locality" />
		<tag k="ssr:stedsnr" v="249139" />
	</node>
	<node id="-38527" lat="60.6759416676" lon="11.6821944398">
		<tag k="alt_name" v="Smågrankoia" />
		<tag k="name" v="Smågrandalskoia" />
		<tag k="place" v="isolated_dwelling" />
		<tag k="ssr:stedsnr" v="249376" />
	</node>
	<node id="-38526" lat="60.9637611147" lon="12.2449194479">
		<tag k="name" v="Steinsåsen" />
		<tag k="place" v="isolated_dwelling" />
		<tag k="ssr:stedsnr" v="70706" />
	</node>
	<node id="-38523" lat="60.7426055569" lon="11.8629861094">
		<tag k="name" v="Borg" />
		<tag k="place" v="farm" />
		<tag k="ssr:stedsnr" v="68211" />
	</node>
	<node id="-38522" lat="60.6280805528" lon="11.880974991">
		<tag k="name" v="Sjurderudsundet" />
		<tag k="old_name" v="Sjuderudsundet" />
		<tag k="place" v="isolated_dwelling" />
		<tag k="ssr:stedsnr" v="67824" />
	</node>
	<node id="-38518" lat="60.6872388904" lon="11.8938083395">
		<tag k="name" v="Kolstad" />
		<tag k="place" v="farm" />
		<tag k="ssr:stedsnr" v="240461" />
	</node>
	<node id="-38512" lat="60.7332972259" lon="11.8375416583">
		<tag k="name" v="Lillehaugen" />
		<tag k="place" v="farm" />
		<tag k="ssr:stedsnr" v="239442" />
	</node>
	<node id="-38511" lat="60.7358722211" lon="11.8556527705">
		<tag k="name" v="Rikenberg" />
		<tag k="place" v="isolated_dwelling" />
		<tag k="ssr:stedsnr" v="239440" />
	</node>
	<node id="-38504" lat="60.8042944422" lon="11.9562444381">
		<tag k="name" v="Storbråten" />
		<tag k="place" v="isolated_dwelling" />
		<tag k="ssr:stedsnr" v="59798" />
	</node>
	<node id="-38500" lat="60.7482388883" lon="11.8549138929">
		<tag k="alt_name" v="Tøråsen" />
		<tag k="name" v="Øvre Tøråsen" />
		<tag k="place" v="farm" />
		<tag k="ssr:stedsnr" v="57430" />
	</node>
	<node id="-38489" lat="60.7137900352" lon="11.9140046545">
		<tag k="alt_name" v="Håkennsmoen" />
		<tag k="fixme" v="consider place=hamlet" />
		<tag k="name" v="Håkensmoen" />
		<tag k="place" v="farm" />
		<tag k="ssr:stedsnr" v="237350" />
	</node>
	<node id="-38485" lat="60.8937361097" lon="12.1303972241">
		<tag k="name" v="Nykoia" />
		<tag k="place" v="locality" />
		<tag k="ssr:stedsnr" v="237311" />
	</node>
	<node id="-38480" lat="60.8363888867" lon="12.1624194469">
		<tag k="name" v="Enerkoia" />
		<tag k="place" v="locality" />
		<tag k="ssr:stedsnr" v="237246" />
	</node>
	<node id="-38479" lat="60.6916527754" lon="11.6472194449">
		<tag k="name" v="Oset" />
		<tag k="place" v="isolated_dwelling" />
		<tag k="ssr:stedsnr" v="237228" />
	</node>
	<node id="-38474" lat="60.857038885" lon="12.0132944511">
		<tag k="name" v="Bjørfløtkoia" />
		<tag k="place" v="locality" />
		<tag k="ssr:stedsnr" v="224978" />
	</node>
	<node id="-38470" lat="60.7334333306" lon="11.7612388815">
		<tag k="name" v="Engebakken" />
		<tag k="place" v="farm" />
		<tag k="ssr:stedsnr" v="224460" />
	</node>
	<node id="-38469" lat="60.7333638904" lon="11.7574611173">
		<tag k="name" v="Moskau" />
		<tag k="place" v="farm" />
		<tag k="ssr:stedsnr" v="224458" />
	</node>
	<node id="-38468" lat="60.7386138909" lon="11.7564944444">
		<tag k="name" v="Nordset" />
		<tag k="place" v="farm" />
		<tag k="ssr:stedsnr" v="224455" />
	</node>
	<node id="-38467" lat="60.7058416695" lon="11.7716305554">
		<tag k="name" v="Amstemit" />
		<tag k="place" v="farm" />
		<tag k="ssr:stedsnr" v="224196" />
	</node>
	<node id="-38464" lat="60.6758638924" lon="11.8132138841">
		<tag k="name" v="Sundby" />
		<tag k="place" v="farm" />
		<tag k="ssr:stedsnr" v="224044" />
	</node>
	<node id="-38463" lat="60.6776376026" lon="11.8305184995">
		<tag k="fixme" v="consider place=hamlet" />
		<tag k="name" v="Vålbekken" />
		<tag k="place" v="farm" />
		<tag k="ssr:stedsnr" v="224016" />
	</node>
	<node id="-38462" lat="60.7165777744" lon="11.8306611119">
		<tag k="name" v="Nordre Gisti" />
		<tag k="place" v="farm" />
		<tag k="ssr:stedsnr" v="223046" />
	</node>
	<node id="-38461" lat="60.7228453137" lon="11.8310705298">
		<tag k="fixme" v="consider place=hamlet" />
		<tag k="name" v="Snarhol" />
		<tag k="place" v="farm" />
		<tag k="ssr:stedsnr" v="223041" />
	</node>
	<node id="-38459" lat="60.7239472229" lon="11.8324638888">
		<tag k="name" v="Kjøkkenet" />
		<tag k="place" v="farm" />
		<tag k="ssr:stedsnr" v="222469" />
	</node>
	<node id="-38455" lat="60.9029861099" lon="12.3119361091">
		<tag k="name" v="Oskoia" />
		<tag k="place" v="isolated_dwelling" />
		<tag k="ssr:stedsnr" v="9718" />
	</node>
	<node id="-38451" lat="60.9575805575" lon="12.2344083288">
		<tag k="name" v="Kubekkoia" />
		<tag k="place" v="locality" />
		<tag k="ssr:stedsnr" v="9707" />
	</node>
	<node id="-38446" lat="60.6409694476" lon="11.8411500093">
		<tag k="name" v="Magneshaugen" />
		<tag k="place" v="farm" />
		<tag k="ssr:stedsnr" v="222115" />
	</node>
	<node id="-38445" lat="60.6416361146" lon="11.8311750087">
		<tag k="name" v="Landås" />
		<tag k="place" v="farm" />
		<tag k="ssr:stedsnr" v="222114" />
	</node>
	<node id="-38444" lat="60.7991527795" lon="11.9485916622">
		<tag k="name" v="Rønningen" />
		<tag k="place" v="isolated_dwelling" />
		<tag k="ssr:stedsnr" v="9517" />
	</node>
	<node id="-40083" lat="60.8424721073" lon="12.0043975613">
		<tag k="name" v="Søndre Silkoset" />
		<tag k="place" v="farm" />
		<tag k="ssr:stedsnr" v="1076186" />
	</node>
	<node id="-40082" lat="60.7073759833" lon="11.8697271972">
		<tag k="fixme" v="consider place=hamlet" />
		<tag k="name" v="Vestre Stræte" />
		<tag k="place" v="farm" />
		<tag k="ssr:stedsnr" v="1076185" />
	</node>
	<node id="-40081" lat="60.6952430492" lon="11.8260880622">
		<tag k="name" v="Nordre Kåten" />
		<tag k="place" v="farm" />
		<tag k="ssr:stedsnr" v="1076184" />
	</node>
	<node id="-40080" lat="60.6313647564" lon="11.8633688418">
		<tag k="fixme" v="consider place=hamlet" />
		<tag k="name" v="Berg" />
		<tag k="place" v="farm" />
		<tag k="ssr:stedsnr" v="1076183" />
	</node>
	<node id="-40079" lat="60.636836782" lon="11.8226891132">
		<tag k="name" v="Søndre Mangerud" />
		<tag k="place" v="farm" />
		<tag k="ssr:stedsnr" v="1076179" />
	</node>
	<node id="-40078" lat="60.6538804851" lon="11.8420428297">
		<tag k="fixme" v="consider place=hamlet" />
		<tag k="name" v="Østre Eid" />
		<tag k="place" v="farm" />
		<tag k="ssr:stedsnr" v="1076178" />
	</node>
	<node id="-40077" lat="60.6506754283" lon="11.8348318258">
		<tag k="fixme" v="consider place=hamlet" />
		<tag k="name" v="Vestre Eid" />
		<tag k="place" v="farm" />
		<tag k="ssr:stedsnr" v="1076175" />
	</node>
	<node id="-40076" lat="60.7285305109" lon="11.7559127067">
		<tag k="fixme" v="consider place=hamlet" />
		<tag k="name" v="Sørli" />
		<tag k="place" v="farm" />
		<tag k="ssr:stedsnr" v="1076173" />
	</node>
	<node id="-40075" lat="60.7464843034" lon="11.719434945">
		<tag k="name" v="Søndre Stokkerud" />
		<tag k="place" v="farm" />
		<tag k="ssr:stedsnr" v="1076172" />
	</node>
	<node id="-40071" lat="60.9078841192" lon="12.0018215165">
		<tag k="name" v="Midtre Siljubergsåsen" />
		<tag k="place" v="farm" />
		<tag k="ssr:stedsnr" v="1072166" />
	</node>
	<node id="-40062" lat="60.724778892" lon="11.7959400045">
		<tag k="name" v="Lundebyhagan" />
		<tag k="place" v="quarter" />
		<tag k="ssr:stedsnr" v="982120" />
	</node>
	<node id="-40061" lat="60.7299539677" lon="11.8154624429">
		<tag k="name" v="Lundfeltet" />
		<tag k="place" v="quarter" />
		<tag k="ssr:stedsnr" v="982119" />
	</node>
	<node id="-40060" lat="60.6489056092" lon="11.8256334858">
		<tag k="name" v="Vestmo" />
		<tag k="place" v="quarter" />
		<tag k="ssr:stedsnr" v="982117" />
	</node>
	<node id="-40056" lat="60.8725555522" lon="12.0462694518">
		<tag k="name" v="Stensby" />
		<tag k="place" v="farm" />
		<tag k="ssr:stedsnr" v="967346" />
	</node>
	<node id="-40055" lat="60.7521500043" lon="11.8824722287">
		<tag k="name" v="Knøsen Søgården" />
		<tag k="place" v="farm" />
		<tag k="ssr:stedsnr" v="967435" />
	</node>
	<node id="-40054" lat="60.7521333319" lon="11.8748972255">
		<tag k="name" v="Dammen" />
		<tag k="place" v="farm" />
		<tag k="ssr:stedsnr" v="967434" />
	</node>
	<node id="-40047" lat="60.7375222229" lon="11.6657694413">
		<tag k="name" v="Ommundrudsvollen" />
		<tag k="place" v="isolated_dwelling" />
		<tag k="ssr:stedsnr" v="965445" />
	</node>
	<node id="-40039" lat="60.6388361131" lon="11.8033277847">
		<tag k="name" v="Vesterhaugen" />
		<tag k="place" v="farm" />
		<tag k="ssr:stedsnr" v="953772" />
	</node>
	<node id="-40036" lat="60.8440361129" lon="12.0624361181">
		<tag k="name" v="Kelbonn" />
		<tag k="place" v="isolated_dwelling" />
		<tag k="ssr:stedsnr" v="952715" />
	</node>
	<node id="-40035" lat="60.7411611125" lon="11.7283222157">
		<tag k="name" v="Remsa" />
		<tag k="place" v="isolated_dwelling" />
		<tag k="ssr:stedsnr" v="952478" />
	</node>
	<node id="-40032" lat="60.7319055541" lon="11.7462722293">
		<tag k="name" v="Nordlihagen" />
		<tag k="place" v="isolated_dwelling" />
		<tag k="ssr:stedsnr" v="952228" />
	</node>
	<node id="-40027" lat="60.7276666646" lon="11.8332611146">
		<tag k="name" v="Nedre Audenby" />
		<tag k="place" v="farm" />
		<tag k="ssr:stedsnr" v="952049" />
	</node>
	<node id="-40026" lat="60.6729861083" lon="11.7994138878">
		<tag k="loc_name" v="Fjell" />
		<tag k="name" v="Fjeld" />
		<tag k="place" v="farm" />
		<tag k="ssr:stedsnr" v="951393" />
	</node>
	<node id="-40025" lat="60.7123416659" lon="11.7722388859">
		<tag k="name" v="Braskerudmoen" />
		<tag k="place" v="farm" />
		<tag k="ssr:stedsnr" v="950907" />
	</node>
	<node id="-40023" lat="60.8285916707" lon="12.0439861048">
		<tag k="name" v="Hølsjøvikkoia" />
		<tag k="place" v="isolated_dwelling" />
		<tag k="ssr:stedsnr" v="859579" />
	</node>
	<node id="-40022" lat="60.8172444454" lon="11.9819722309">
		<tag k="name" v="Kåtvollen" />
		<tag k="place" v="isolated_dwelling" />
		<tag k="ssr:stedsnr" v="859569" />
	</node>
	<node id="-40021" lat="60.8967527736" lon="12.2024611096">
		<tag k="name" v="Madstorpet" />
		<tag k="place" v="locality" />
		<tag k="ssr:stedsnr" v="859418" />
	</node>
	<node id="-40019" lat="60.9807111069" lon="12.1842444451">
		<tag k="name" v="Damkoia" />
		<tag k="place" v="isolated_dwelling" />
		<tag k="ssr:stedsnr" v="859350" />
	</node>
	<node id="-40016" lat="60.8473250036" lon="12.185683337">
		<tag k="alt_name" v="Stordigerheden sæter" />
		<tag k="historic" v="shieling" />
		<tag k="name" v="Stordigerheden" />
		<tag k="place" v="locality" />
		<tag k="ssr:stedsnr" v="858641" />
	</node>
	<node id="-40015" lat="60.9334444477" lon="12.2777027695">
		<tag k="name" v="Strandkoia" />
		<tag k="place" v="locality" />
		<tag k="ssr:stedsnr" v="858741" />
	</node>
	<node id="-40014" lat="60.9485916661" lon="12.2189583261">
		<tag k="name" v="Svartbekkoia" />
		<tag k="place" v="locality" />
		<tag k="ssr:stedsnr" v="858734" />
	</node>
	<node id="-40012" lat="60.6650111125" lon="11.8046888877">
		<tag k="name" v="Vangen" />
		<tag k="place" v="farm" />
		<tag k="ssr:stedsnr" v="857388" />
	</node>
	<node id="-40011" lat="60.6567944445" lon="11.8005361178">
		<tag k="name" v="Bjørnstad" />
		<tag k="place" v="farm" />
		<tag k="ssr:stedsnr" v="857383" />
	</node>
	<node id="-40009" lat="60.7218686526" lon="11.9075797902">
		<tag k="alt_name" v="Stutrud" />
		<tag k="fixme" v="consider place=hamlet" />
		<tag k="name" v="Stuterud" />
		<tag k="place" v="farm" />
		<tag k="ssr:stedsnr" v="857218" />
	</node>
	<node id="-40008" lat="60.7241685302" lon="11.9349882304">
		<tag k="alt_name" v="Holtkjølen" />
		<tag k="fixme" v="consider place=hamlet" />
		<tag k="name" v="Holtekjølen" />
		<tag k="place" v="farm" />
		<tag k="ssr:stedsnr" v="857215" />
	</node>
	<node id="-40006" lat="60.7229583341" lon="11.8692055586">
		<tag k="name" v="Teppa" />
		<tag k="place" v="farm" />
		<tag k="ssr:stedsnr" v="857200" />
	</node>
	<node id="-40005" lat="60.6594114592" lon="11.8378379868">
		<tag k="fixme" v="consider place=hamlet" />
		<tag k="name" v="Kavlerud" />
		<tag k="place" v="farm" />
		<tag k="ssr:stedsnr" v="857343" />
	</node>
	<node id="-40003" lat="60.6871083361" lon="11.7637722298">
		<tag k="name" v="Vestby" />
		<tag k="place" v="farm" />
		<tag k="ssr:stedsnr" v="856292" />
	</node>
	<node id="-40002" lat="60.689063886" lon="11.695377773">
		<tag k="name" v="Gjerdrumsætra" />
		<tag k="place" v="hamlet" />
		<tag k="ssr:stedsnr" v="856289" />
	</node>
	<node id="-40000" lat="60.6178527794" lon="11.77436111">
		<tag k="name" v="Attenkoia" />
		<tag k="place" v="isolated_dwelling" />
		<tag k="ssr:stedsnr" v="856187" />
	</node>
	<node id="-39999" lat="60.6982333301" lon="11.9170583241">
		<tag k="name" v="Solbakken" />
		<tag k="place" v="isolated_dwelling" />
		<tag k="ssr:stedsnr" v="848457" />
	</node>
	<node id="-39998" lat="60.7020388912" lon="11.9340833293">
		<tag k="name" v="Rydningen" />
		<tag k="place" v="farm" />
		<tag k="ssr:stedsnr" v="848456" />
	</node>
	<node id="-39997" lat="60.7016111123" lon="11.9408805523">
		<tag k="name" v="Evenstad" />
		<tag k="place" v="farm" />
		<tag k="ssr:stedsnr" v="848455" />
	</node>
	<node id="-39996" lat="60.6994111115" lon="11.943794438">
		<tag k="name" v="Kvernhaugen" />
		<tag k="place" v="farm" />
		<tag k="ssr:stedsnr" v="848452" />
	</node>
	<node id="-39995" lat="60.6859972248" lon="11.7669583331">
		<tag k="name" v="Spilsberg" />
		<tag k="place" v="farm" />
		<tag k="ssr:stedsnr" v="848178" />
	</node>
	<node id="-39986" lat="60.7325055519" lon="11.8503638796">
		<tag k="name" v="Stenset" />
		<tag k="place" v="farm" />
		<tag k="ssr:stedsnr" v="846434" />
	</node>
	<node id="-39983" lat="60.9231722185" lon="12.0458972168">
		<tag k="name" v="Steinbua" />
		<tag k="place" v="locality" />
		<tag k="ssr:stedsnr" v="846332" />
	</node>
	<node id="-39980" lat="60.7472416656" lon="11.6399805615">
		<tag k="name" v="Sjøstua" />
		<tag k="place" v="isolated_dwelling" />
		<tag k="ssr:stedsnr" v="845438" />
	</node>
	<node id="-39978" lat="61.0104611089" lon="12.1375999913">
		<tag k="name" v="Enberget" />
		<tag k="place" v="hamlet" />
		<tag k="ssr:stedsnr" v="844756" />
	</node>
	<node id="-39975" lat="60.7449916661" lon="11.6845638877">
		<tag k="name" v="Sætermyrkoia" />
		<tag k="place" v="isolated_dwelling" />
		<tag k="ssr:stedsnr" v="844430" />
	</node>
	<node id="-39974" lat="60.7356222259" lon="11.6703333383">
		<tag k="name" v="Moskauvollen" />
		<tag k="place" v="isolated_dwelling" />
		<tag k="ssr:stedsnr" v="844427" />
	</node>
	<node id="-39973" lat="60.7372638859" lon="11.8133166685">
		<tag k="name" v="Vestgård" />
		<tag k="place" v="farm" />
		<tag k="ssr:stedsnr" v="844351" />
	</node>
	<node id="-39972" lat="60.7722472201" lon="11.9361999921">
		<tag k="name" v="Flatåsbekkoia" />
		<tag k="place" v="isolated_dwelling" />
		<tag k="ssr:stedsnr" v="844342" />
	</node>
	<node id="-39971" lat="60.7127916802" lon="11.9225264894">
		<tag k="fixme" v="consider place=hamlet" />
		<tag k="name" v="Skomakermoen" />
		<tag k="place" v="farm" />
		<tag k="ssr:stedsnr" v="844325" />
	</node>
	<node id="-39969" lat="60.705819444" lon="11.6205583368">
		<tag k="name" v="Damkoia" />
		<tag k="place" v="isolated_dwelling" />
		<tag k="ssr:stedsnr" v="844220" />
	</node>
	<node id="-39966" lat="60.7480277792" lon="11.7184888856">
		<tag k="name" v="Nordre Stokkerud" />
		<tag k="place" v="farm" />
		<tag k="ssr:stedsnr" v="831469" />
	</node>
	<node id="-39965" lat="60.733522226" lon="11.7553583253">
		<tag k="name" v="Morud" />
		<tag k="place" v="farm" />
		<tag k="ssr:stedsnr" v="831466" />
	</node>
	<node id="-39963" lat="60.8501166625" lon="12.0606527796">
		<tag k="name" v="Granli" />
		<tag k="place" v="isolated_dwelling" />
		<tag k="ssr:stedsnr" v="831342" />
	</node>
	<node id="-39959" lat="60.7307916669" lon="11.756847231">
		<tag k="name" v="Langset" />
		<tag k="place" v="farm" />
		<tag k="ssr:stedsnr" v="831175" />
	</node>
	<node id="-39958" lat="60.7103166681" lon="11.7491194487">
		<tag k="name" v="Høghaugen" />
		<tag k="place" v="isolated_dwelling" />
		<tag k="ssr:stedsnr" v="831156" />
	</node>
	<node id="-39957" lat="60.6714000038" lon="11.8003111199">
		<tag k="name" v="Østre Buttebergstua" />
		<tag k="place" v="farm" />
		<tag k="ssr:stedsnr" v="831117" />
	</node>
	<node id="-39956" lat="60.7093361141" lon="11.7770555579">
		<tag k="name" v="Korse" />
		<tag k="place" v="isolated_dwelling" />
		<tag k="ssr:stedsnr" v="831057" />
	</node>
	<node id="-39955" lat="60.6848361147" lon="11.7981250032">
		<tag k="name" v="Nedgården" />
		<tag k="place" v="farm" />
		<tag k="ssr:stedsnr" v="831023" />
	</node>
	<node id="-39954" lat="60.8149258814" lon="12.0938836278">
		<tag k="fixme" v="consider place=hamlet" />
		<tag k="name" v="Nordre Rundberget" />
		<tag k="place" v="farm" />
		<tag k="ssr:stedsnr" v="829521" />
	</node>
	<node id="-39953" lat="60.887361112" lon="12.2157722239">
		<tag k="name" v="Nordgården" />
		<tag k="place" v="farm" />
		<tag k="ssr:stedsnr" v="829511" />
	</node>
	<node id="-39950" lat="60.6572638917" lon="11.8104277753">
		<tag k="name" v="Skoglund" />
		<tag k="place" v="farm" />
		<tag k="ssr:stedsnr" v="828095" />
	</node>
	<node id="-39946" lat="60.861680552" lon="12.0564027731">
		<tag k="name" v="Nedstua" />
		<tag k="place" v="farm" />
		<tag k="ssr:stedsnr" v="809599" />
	</node>
	<node id="-39945" lat="60.8708583334" lon="12.0521583256">
		<tag k="name" v="Øvergård" />
		<tag k="place" v="farm" />
		<tag k="ssr:stedsnr" v="809594" />
	</node>
	<node id="-39944" lat="60.8688416687" lon="12.051208335">
		<tag k="name" v="Østby" />
		<tag k="place" v="farm" />
		<tag k="ssr:stedsnr" v="809593" />
	</node>
	<node id="-39940" lat="60.7952500012" lon="11.8456694356">
		<tag k="name" v="Treerkoia" />
		<tag k="place" v="locality" />
		<tag k="ssr:stedsnr" v="798469" />
	</node>
	<node id="-39937" lat="60.8777194403" lon="12.2459722148">
		<tag k="name" v="Kørra" />
		<tag k="place" v="farm" />
		<tag k="ssr:stedsnr" v="798657" />
	</node>
	<node id="-39934" lat="60.7837055597" lon="11.8142333344">
		<tag k="name" v="Svenskebua" />
		<tag k="place" v="isolated_dwelling" />
		<tag k="ssr:stedsnr" v="798336" />
	</node>
	<node id="-39932" lat="60.7443055587" lon="11.8304444411">
		<tag k="alt_name" v="Austad" />
		<tag k="name" v="Auestad" />
		<tag k="place" v="isolated_dwelling" />
		<tag k="ssr:stedsnr" v="796451" />
	</node>
	<node id="-39931" lat="60.6623444408" lon="11.7991305588">
		<tag k="name" v="Mojordet" />
		<tag k="place" v="farm" />
		<tag k="ssr:stedsnr" v="796329" />
	</node>
	<node id="-39930" lat="60.705413891" lon="11.7493277818">
		<tag k="name" v="Håvi" />
		<tag k="place" v="farm" />
		<tag k="ssr:stedsnr" v="796265" />
	</node>
	<node id="-39929" lat="60.7079138849" lon="11.7809111094">
		<tag k="name" v="Tangen" />
		<tag k="place" v="farm" />
		<tag k="ssr:stedsnr" v="796264" />
	</node>
	<node id="-39928" lat="60.7111027757" lon="11.7487416705">
		<tag k="alt_name" v="Skjeret" />
		<tag k="name" v="Skjæret" />
		<tag k="place" v="farm" />
		<tag k="ssr:stedsnr" v="796263" />
	</node>
	<node id="-39927" lat="60.7081027772" lon="11.6938000091">
		<tag k="alt_name" v="Tjoksmyrkoia" />
		<tag k="name" v="Kjoksmyrkoia" />
		<tag k="place" v="locality" />
		<tag k="ssr:stedsnr" v="796260" />
	</node>
	<node id="-39924" lat="60.7181000034" lon="11.9087083311">
		<tag k="name" v="Nerby" />
		<tag k="place" v="farm" />
		<tag k="ssr:stedsnr" v="796199" />
	</node>
	<node id="-39922" lat="60.6567916628" lon="11.8478805496">
		<tag k="name" v="Grønland" />
		<tag k="place" v="farm" />
		<tag k="ssr:stedsnr" v="796086" />
	</node>
	<node id="-39921" lat="60.7094649751" lon="11.9313926714">
		<tag k="fixme" v="consider place=hamlet" />
		<tag k="name" v="Ullerud" />
		<tag k="place" v="farm" />
		<tag k="ssr:stedsnr" v="796058" />
	</node>
	<node id="-39920" lat="60.6991999995" lon="11.9069166617">
		<tag k="alt_name" v="Strætkverna" />
		<tag k="name" v="Strætkvern" />
		<tag k="place" v="farm" />
		<tag k="ssr:stedsnr" v="796038" />
	</node>
	<node id="-39918" lat="60.6751249982" lon="11.6621499974">
		<tag k="name" v="Brattlia" />
		<tag k="place" v="isolated_dwelling" />
		<tag k="ssr:stedsnr" v="795425" />
	</node>
	<node id="-39917" lat="60.6887126454" lon="11.8208040571">
		<tag k="alt_name" v="Søndre Strand" />
		<tag k="fixme" v="consider place=hamlet" />
		<tag k="name" v="Strand" />
		<tag k="place" v="farm" />
		<tag k="ssr:stedsnr" v="795306" />
	</node>
	<node id="-39914" lat="60.7066944479" lon="11.9482333427">
		<tag k="name" v="Stenholen" />
		<tag k="place" v="isolated_dwelling" />
		<tag k="ssr:stedsnr" v="787463" />
	</node>
	<node id="-39913" lat="60.7042999985" lon="11.9242055492">
		<tag k="name" v="Ålund" />
		<tag k="place" v="farm" />
		<tag k="ssr:stedsnr" v="787462" />
	</node>
	<node id="-39912" lat="60.705394442" lon="11.8980749938">
		<tag k="name" v="Rismo" />
		<tag k="place" v="farm" />
		<tag k="ssr:stedsnr" v="787459" />
	</node>
	<node id="-39910" lat="60.6793583356" lon="11.7701111108">
		<tag k="name" v="Øvre Risåsen" />
		<tag k="place" v="farm" />
		<tag k="ssr:stedsnr" v="786147" />
	</node>
	<node id="-39903" lat="60.8630611155" lon="12.0546055617">
		<tag k="name" v="Børnebo" />
		<tag k="place" v="isolated_dwelling" />
		<tag k="ssr:stedsnr" v="785351" />
	</node>
	<node id="-39902" lat="60.8705444459" lon="12.0491972216">
		<tag k="name" v="Nordli" />
		<tag k="place" v="isolated_dwelling" />
		<tag k="ssr:stedsnr" v="785349" />
	</node>
	<node id="-39899" lat="60.7346805561" lon="11.8230916609">
		<tag k="name" v="Mostu" />
		<tag k="place" v="farm" />
		<tag k="ssr:stedsnr" v="783354" />
	</node>
	<node id="-39898" lat="60.7722472201" lon="11.9361999921">
		<tag k="name" v="Hebu" />
		<tag k="place" v="isolated_dwelling" />
		<tag k="ssr:stedsnr" v="783345" />
	</node>
	<node id="-39893" lat="60.7310777792" lon="11.834497227">
		<tag k="name" v="Audenbyhaugen" />
		<tag k="place" v="farm" />
		<tag k="ssr:stedsnr" v="770444" />
	</node>
	<node id="-39892" lat="60.7308944444" lon="11.7530750071">
		<tag k="name" v="Nordby" />
		<tag k="place" v="farm" />
		<tag k="ssr:stedsnr" v="770182" />
	</node>
	<node id="-39891" lat="60.7061000035" lon="11.7697166612">
		<tag k="loc_name" v="Østli" />
		<tag k="name" v="Østlie" />
		<tag k="place" v="farm" />
		<tag k="ssr:stedsnr" v="770175" />
	</node>
	<node id="-39890" lat="60.8573305533" lon="12.0603527742">
		<tag k="name" v="Skogheim" />
		<tag k="place" v="isolated_dwelling" />
		<tag k="ssr:stedsnr" v="770337" />
	</node>
	<node id="-39887" lat="60.6811250015" lon="11.7852111025">
		<tag k="building" v="industrial" />
		<tag k="name" v="Vestgården" />
		<tag k="ssr:stedsnr" v="770040" />
	</node>
	<node id="-39884" lat="60.6747444484" lon="11.7772611095">
		<tag k="name" v="Saga" />
		<tag k="place" v="farm" />
		<tag k="ssr:stedsnr" v="770099" />
	</node>
	<node id="-39882" lat="60.6556055583" lon="11.8076833358">
		<tag k="name" v="Bogstad" />
		<tag k="place" v="farm" />
		<tag k="ssr:stedsnr" v="769399" />
	</node>
	<node id="-39877" lat="60.7380138872" lon="11.7445222153">
		<tag k="name" v="Nymoen" />
		<tag k="place" v="farm" />
		<tag k="ssr:stedsnr" v="767441" />
	</node>
	<node id="-39872" lat="60.9149416662" lon="12.3003500057">
		<tag k="name" v="Damkoia" />
		<tag k="place" v="locality" />
		<tag k="ssr:stedsnr" v="737699" />
	</node>
	<node id="-39869" lat="60.8451447052" lon="12.0622826197">
		<tag k="alt_name" v="Nordre Svartvadet" />
		<tag k="fixme" v="consider place=hamlet" />
		<tag k="name" v="Svartvadet" />
		<tag k="place" v="farm" />
		<tag k="ssr:stedsnr" v="737616" />
	</node>
	<node id="-39865" lat="60.7509333329" lon="11.9326500042">
		<tag k="name" v="Flobergskoia" />
		<tag k="place" v="isolated_dwelling" />
		<tag k="ssr:stedsnr" v="737523" />
	</node>
	<node id="-39864" lat="60.8103333295" lon="12.006199995">
		<tag k="alt_name" v="Fløgen, nordre" />
		<tag k="name" v="Nordre Fløgen" />
		<tag k="place" v="hamlet" />
		<tag k="ssr:stedsnr" v="737510" />
	</node>
	<node id="-39863" lat="60.7958333343" lon="11.8973055586">
		<tag k="name" v="Flatåskoia" />
		<tag k="place" v="locality" />
		<tag k="ssr:stedsnr" v="737494" />
	</node>
	<node id="-39862" lat="60.7822888857" lon="11.8763833249">
		<tag k="name" v="Bakkevollen" />
		<tag k="place" v="isolated_dwelling" />
		<tag k="ssr:stedsnr" v="737488" />
	</node>
	<node id="-39861" lat="60.9493916627" lon="12.1169750035">
		<tag k="name" v="Kjerka" />
		<tag k="place" v="locality" />
		<tag k="ssr:stedsnr" v="737444" />
	</node>
	<node id="-39860" lat="60.9056305569" lon="12.0048944503">
		<tag k="alt_name" v="Siljubergsåsen;Østre Siljubergsåsen" />
		<tag k="name" v="Søndre Siljubergsåsen" />
		<tag k="place" v="farm" />
		<tag k="ssr:stedsnr" v="737425" />
	</node>
	<node id="-39859" lat="60.9225333317" lon="12.1375249923">
		<tag k="name" v="Ariakoia" />
		<tag k="place" v="isolated_dwelling" />
		<tag k="ssr:stedsnr" v="737421" />
	</node>
	<node id="-39853" lat="60.7321444458" lon="11.7479111049">
		<tag k="name" v="Bekkevoll" />
		<tag k="place" v="farm" />
		<tag k="ssr:stedsnr" v="648224" />
	</node>
	<node id="-39849" lat="60.6703194418" lon="11.8184055596">
		<tag k="name" v="Tangen" />
		<tag k="place" v="locality" />
		<tag k="ssr:stedsnr" v="648027" />
	</node>
	<node id="-39848" lat="60.6828555518" lon="11.7943249922">
		<tag k="name" v="Einarstua" />
		<tag k="place" v="farm" />
		<tag k="ssr:stedsnr" v="648022" />
	</node>
	<node id="-39846" lat="61.027833333" lon="12.1335416747">
		<tag k="name" v="Bjørndamkoia" />
		<tag k="place" v="isolated_dwelling" />
		<tag k="ssr:stedsnr" v="646561" />
	</node>
	<node id="-39844" lat="60.8142373783" lon="12.0956603097">
		<tag k="fixme" v="consider place=hamlet" />
		<tag k="name" v="Søndre Rundberget" />
		<tag k="place" v="farm" />
		<tag k="ssr:stedsnr" v="646500" />
	</node>
	<node id="-39843" lat="60.8920638924" lon="12.2383277822">
		<tag k="name" v="Skogli" />
		<tag k="place" v="isolated_dwelling" />
		<tag k="ssr:stedsnr" v="646475" />
	</node>
	<node id="-39838" lat="60.7495583342" lon="11.8168527858">
		<tag k="name" v="Bjørnhaugen" />
		<tag k="place" v="farm" />
		<tag k="ssr:stedsnr" v="646354" />
	</node>
	<node id="-39833" lat="60.886200001" lon="12.274488896">
		<tag k="alt_name" v="Rødbrakka" />
		<tag k="name" v="Raudbrakka" />
		<tag k="place" v="isolated_dwelling" />
		<tag k="ssr:stedsnr" v="615660" />
	</node>
	<node id="-39831" lat="60.8355972264" lon="12.0587527828">
		<tag k="name" v="Nerhagen" />
		<tag k="place" v="farm" />
		<tag k="ssr:stedsnr" v="615594" />
	</node>
	<node id="-39828" lat="60.9565138857" lon="12.1418500036">
		<tag k="name" v="Slottet" />
		<tag k="place" v="isolated_dwelling" />
		<tag k="ssr:stedsnr" v="615463" />
	</node>
	<node id="-39825" lat="60.6323944411" lon="11.732186111">
		<tag k="historic" v="shieling" />
		<tag k="name" v="Gammelsætra" />
		<tag k="place" v="locality" />
		<tag k="ssr:stedsnr" v="613336" />
	</node>
	<node id="-39824" lat="60.6352169896" lon="11.8384234999">
		<tag k="fixme" v="consider place=hamlet" />
		<tag k="name" v="Tårneby" />
		<tag k="place" v="farm" />
		<tag k="ssr:stedsnr" v="613332" />
	</node>
	<node id="-39821" lat="60.7420472261" lon="11.8090777864">
		<tag k="name" v="Kåterud" />
		<tag k="place" v="farm" />
		<tag k="ssr:stedsnr" v="613466" />
	</node>
	<node id="-39818" lat="60.5823194428" lon="11.7740305552">
		<tag k="name" v="Buråskoia" />
		<tag k="old_name" v="Buråsskoia" />
		<tag k="place" v="isolated_dwelling" />
		<tag k="ssr:stedsnr" v="613147" />
	</node>
	<node id="-39816" lat="60.6400555519" lon="11.9298194431">
		<tag k="name" v="Kvernbo" />
		<tag k="place" v="farm" />
		<tag k="ssr:stedsnr" v="613069" />
	</node>
	<node id="-39815" lat="60.7086138883" lon="11.9375416717">
		<tag k="alt_name" v="Nordre Trosterud" />
		<tag k="name" v="Trosterud" />
		<tag k="place" v="farm" />
		<tag k="ssr:stedsnr" v="613067" />
	</node>
	<node id="-39813" lat="60.7026972185" lon="11.9279722161">
		<tag k="alt_name" v="Moen" />
		<tag k="name" v="Ullerudsmoen" />
		<tag k="place" v="farm" />
		<tag k="ssr:stedsnr" v="613048" />
	</node>
	<node id="-39812" lat="60.7355388866" lon="11.7346916598">
		<tag k="name" v="Gravingen" />
		<tag k="place" v="farm" />
		<tag k="ssr:stedsnr" v="613298" />
	</node>
	<node id="-39811" lat="60.7345166668" lon="11.7524388823">
		<tag k="alt_name" v="Nedre Sandmoen" />
		<tag k="name" v="Sandmoen" />
		<tag k="place" v="farm" />
		<tag k="ssr:stedsnr" v="613294" />
	</node>
	<node id="-39810" lat="60.7348944398" lon="11.7592527859">
		<tag k="name" v="Moland" />
		<tag k="place" v="farm" />
		<tag k="ssr:stedsnr" v="613293" />
	</node>
	<node id="-39809" lat="60.6969361089" lon="11.800233341">
		<tag k="name" v="Sletta" />
		<tag k="place" v="farm" />
		<tag k="ssr:stedsnr" v="613279" />
	</node>
	<node id="-39807" lat="60.7106833326" lon="11.6759111113">
		<tag k="name" v="Nittenkoia" />
		<tag k="place" v="isolated_dwelling" />
		<tag k="ssr:stedsnr" v="613259" />
	</node>
	<node id="-39806" lat="60.7110583327" lon="11.6182138915">
		<tag k="alt_name" v="Torpet" />
		<tag k="name" v="Torpsætra" />
		<tag k="place" v="isolated_dwelling" />
		<tag k="ssr:stedsnr" v="613254" />
	</node>
	<node id="-39803" lat="60.6902083289" lon="11.6980111179">
		<tag k="name" v="Nedgårdsvollen" />
		<tag k="place" v="isolated_dwelling" />
		<tag k="ssr:stedsnr" v="604165" />
	</node>
	<node id="-39800" lat="60.7421833295" lon="11.8735138955">
		<tag k="name" v="Vangli" />
		<tag k="place" v="farm" />
		<tag k="ssr:stedsnr" v="603457" />
	</node>
	<node id="-39794" lat="60.7234833298" lon="11.9078444362">
		<tag k="name" v="Stuterudshaugen" />
		<tag k="place" v="isolated_dwelling" />
		<tag k="ssr:stedsnr" v="601322" />
	</node>
	<node id="-39793" lat="60.769108337" lon="11.8620194419">
		<tag k="name" v="Bakmannslokoia" />
		<tag k="place" v="isolated_dwelling" />
		<tag k="ssr:stedsnr" v="601308" />
	</node>
	<node id="-39792" lat="60.7563472262" lon="11.8735805509">
		<tag k="name" v="Kvernstua" />
		<tag k="place" v="isolated_dwelling" />
		<tag k="ssr:stedsnr" v="601304" />
	</node>
	<node id="-39788" lat="60.676586114" lon="11.8420749931">
		<tag k="name" v="Høgberg" />
		<tag k="place" v="isolated_dwelling" />
		<tag k="ssr:stedsnr" v="588009" />
	</node>
	<node id="-39786" lat="60.8442277806" lon="11.9980888838">
		<tag k="name" v="Nordre Silkoset" />
		<tag k="place" v="farm" />
		<tag k="ssr:stedsnr" v="587976" />
	</node>
	<node id="-39785" lat="60.8426916683" lon="11.9987916688">
		<tag k="name" v="Osbu" />
		<tag k="place" v="isolated_dwelling" />
		<tag k="ssr:stedsnr" v="587974" />
	</node>
	<node id="-39784" lat="60.7295555568" lon="11.7554527754">
		<tag k="name" v="Bekkevar" />
		<tag k="place" v="farm" />
		<tag k="ssr:stedsnr" v="588189" />
	</node>
	<node id="-39783" lat="60.712383334" lon="11.7626861026">
		<tag k="name" v="Rønningen" />
		<tag k="place" v="farm" />
		<tag k="ssr:stedsnr" v="588185" />
	</node>
	<node id="-39777" lat="60.8536500027" lon="12.0907916627">
		<tag k="name" v="Stallarholen" />
		<tag k="place" v="isolated_dwelling" />
		<tag k="ssr:stedsnr" v="587379" />
	</node>
	<node id="-39776" lat="60.6739944451" lon="11.8297999992">
		<tag k="amenity" v="school" />
		<tag k="name" v="Våler ungdomsskole" />
		<tag k="ssr:stedsnr" v="587025" />
	</node>
	<node id="-39775" lat="60.6719944422" lon="11.8012638923">
		<tag k="name" v="Buttebergstua" />
		<tag k="place" v="isolated_dwelling" />
		<tag k="ssr:stedsnr" v="587110" />
	</node>
	<node id="-39774" lat="60.7146583348" lon="11.776991661">
		<tag k="name" v="Storstua" />
		<tag k="place" v="farm" />
		<tag k="ssr:stedsnr" v="587057" />
	</node>
	<node id="-39773" lat="60.7087722264" lon="11.87600833">
		<tag k="name" v="Østgården" />
		<tag k="place" v="farm" />
		<tag k="ssr:stedsnr" v="586994" />
	</node>
	<node id="-39771" lat="60.6545499993" lon="11.8399222225">
		<tag k="name" v="Eid" />
		<tag k="place" v="farm" />
		<tag k="ssr:stedsnr" v="586086" />
	</node>
	<node id="-39768" lat="60.6165499995" lon="11.6634611117">
		<tag k="name" v="Torthaugkoia" />
		<tag k="place" v="isolated_dwelling" />
		<tag k="ssr:stedsnr" v="585210" />
	</node>
	<node id="-39766" lat="60.7534388859" lon="11.813205549">
		<tag k="name" v="Strandvoll" />
		<tag k="place" v="farm" />
		<tag k="ssr:stedsnr" v="585327" />
	</node>
	<node id="-39761" lat="60.6702277756" lon="11.8359999948">
		<tag k="name" v="Holstad" />
		<tag k="place" v="isolated_dwelling" />
		<tag k="ssr:stedsnr" v="585031" />
	</node>
	<node id="-39760" lat="60.6685583323" lon="11.841541672">
		<tag k="name" v="Brenna" />
		<tag k="place" v="isolated_dwelling" />
		<tag k="ssr:stedsnr" v="585030" />
	</node>
	<node id="-39759" lat="60.880674997" lon="12.2412222236">
		<tag k="name" v="Olastua" />
		<tag k="place" v="farm" />
		<tag k="ssr:stedsnr" v="555656" />
	</node>
	<node id="-39756" lat="60.8059888859" lon="11.9399222163">
		<tag k="name" v="Sjuerkoia" />
		<tag k="place" v="isolated_dwelling" />
		<tag k="ssr:stedsnr" v="555467" />
	</node>
	<node id="-39755" lat="60.8235916665" lon="12.0560583287">
		<tag k="historic" v="shieling" />
		<tag k="name" v="Holsætra" />
		<tag k="place" v="locality" />
		<tag k="ssr:stedsnr" v="555567" />
	</node>
	<node id="-39753" lat="60.8941888883" lon="12.2049333407">
		<tag k="name" v="Madsberget" />
		<tag k="place" v="farm" />
		<tag k="ssr:stedsnr" v="555398" />
	</node>
	<node id="-39750" lat="60.7383527775" lon="11.6653583243">
		<tag k="historic" v="shieling" />
		<tag k="name" v="Nordsætra" />
		<tag k="place" v="locality" />
		<tag k="ssr:stedsnr" v="553450" />
	</node>
	<node id="-39749" lat="60.7396027818" lon="11.8304472158">
		<tag k="name" v="Odnes" />
		<tag k="place" v="farm" />
		<tag k="ssr:stedsnr" v="553444" />
	</node>
	<node id="-39747" lat="60.671786111" lon="11.7813166643">
		<tag k="name" v="Kvernmoen" />
		<tag k="place" v="farm" />
		<tag k="ssr:stedsnr" v="553360" />
	</node>
	<node id="-39744" lat="60.7208548832" lon="11.7551206556">
		<tag k="alt_name" v="Amundrud" />
		<tag k="fixme" v="consider place=hamlet" />
		<tag k="name" v="Ommundrud" />
		<tag k="place" v="farm" />
		<tag k="ssr:stedsnr" v="553270" />
	</node>
	<node id="-39743" lat="60.7282481349" lon="11.8009812092">
		<tag k="fixme" v="consider place=hamlet" />
		<tag k="name" v="Lundeby" />
		<tag k="place" v="farm" />
		<tag k="ssr:stedsnr" v="553269" />
	</node>
	<node id="-39742" lat="60.7143611335" lon="11.850914428">
		<tag k="fixme" v="consider place=hamlet" />
		<tag k="name" v="Skarderud" />
		<tag k="place" v="farm" />
		<tag k="ssr:stedsnr" v="553177" />
	</node>
	<node id="-39740" lat="60.7035472249" lon="11.890683328">
		<tag k="name" v="Hammersborg" />
		<tag k="place" v="farm" />
		<tag k="ssr:stedsnr" v="553037" />
	</node>
	<node id="-39738" lat="60.6595305541" lon="11.9330527852">
		<tag k="name" v="Nordset" />
		<tag k="place" v="farm" />
		<tag k="ssr:stedsnr" v="553088" />
	</node>
	<node id="-39737" lat="60.6838222221" lon="11.7367222313">
		<tag k="alt_name" v="Knipilskoia" />
		<tag k="name" v="Knipilsmyrkoia" />
		<tag k="place" v="isolated_dwelling" />
		<tag k="ssr:stedsnr" v="552393" />
	</node>
	<node id="-39736" lat="60.6833527754" lon="11.7954972202">
		<tag k="name" v="Gjerdrum" />
		<tag k="place" v="hamlet" />
		<tag k="ssr:stedsnr" v="552390" />
	</node>
	<node id="-39735" lat="60.5875388847" lon="11.7538333346">
		<tag k="historic" v="shieling" />
		<tag k="name" v="Buråssætra" />
		<tag k="place" v="locality" />
		<tag k="ssr:stedsnr" v="552176" />
	</node>
	<node id="-39732" lat="60.7387583294" lon="11.8626666724">
		<tag k="name" v="Narbekk" />
		<tag k="place" v="farm" />
		<tag k="ssr:stedsnr" v="542454" />
	</node>
	<node id="-39726" lat="60.6503111124" lon="11.8252777781">
		<tag k="name" v="Vestmo" />
		<tag k="place" v="isolated_dwelling" />
		<tag k="ssr:stedsnr" v="542107" />
	</node>
	<node id="-39722" lat="60.7707138892" lon="11.9259027789">
		<tag k="name" v="Kleningsmyrkoia" />
		<tag k="place" v="isolated_dwelling" />
		<tag k="ssr:stedsnr" v="540334" />
	</node>
	<node id="-39720" lat="60.6076499977" lon="11.8763861096">
		<tag k="name" v="Grandal" />
		<tag k="place" v="farm" />
		<tag k="ssr:stedsnr" v="540086" />
	</node>
	<node id="-39716" lat="60.8502388868" lon="12.0550750084">
		<tag k="name" v="Pocahontas" />
		<tag k="place" v="isolated_dwelling" />
		<tag k="ssr:stedsnr" v="527364" />
	</node>
	<node id="-39714" lat="60.8513500025" lon="12.0559722159">
		<tag k="name" v="Nerbråten" />
		<tag k="place" v="locality" />
		<tag k="ssr:stedsnr" v="527360" />
	</node>
	<node id="-39713" lat="60.6733750008" lon="11.803763887">
		<tag k="name" v="Rudshaugen" />
		<tag k="place" v="farm" />
		<tag k="ssr:stedsnr" v="527111" />
	</node>
	<node id="-39712" lat="60.5982361074" lon="11.8356555632">
		<tag k="name" v="Damkoia" />
		<tag k="place" v="isolated_dwelling" />
		<tag k="ssr:stedsnr" v="527108" />
	</node>
	<node id="-39710" lat="60.596769449" lon="11.8243611036">
		<tag k="name" v="Langåskoia" />
		<tag k="place" v="locality" />
		<tag k="ssr:stedsnr" v="527106" />
	</node>
	<node id="-39706" lat="60.7137111136" lon="11.7407277726">
		<tag k="name" v="Stensby" />
		<tag k="place" v="isolated_dwelling" />
		<tag k="ssr:stedsnr" v="527196" />
	</node>
	<node id="-39704" lat="60.6723166657" lon="11.829944449">
		<tag k="amenity" v="school" />
		<tag k="name" v="Vålbyen skole" />
		<tag k="ssr:stedsnr" v="527031" />
	</node>
	<node id="-39702" lat="60.7155111113" lon="11.8294333252">
		<tag k="name" v="Gistimoen" />
		<tag k="place" v="farm" />
		<tag k="ssr:stedsnr" v="526050" />
	</node>
	<node id="-39701" lat="60.7074861106" lon="11.8743333381">
		<tag k="name" v="Oppgården" />
		<tag k="place" v="farm" />
		<tag k="ssr:stedsnr" v="525995" />
	</node>
	<node id="-39698" lat="60.739050003" lon="11.746352769">
		<tag k="name" v="Grønkilen" />
		<tag k="place" v="isolated_dwelling" />
		<tag k="ssr:stedsnr" v="525309" />
	</node>
	<node id="-39697" lat="60.7538166697" lon="11.8186472173">
		<tag k="name" v="Sjøvik" />
		<tag k="place" v="farm" />
		<tag k="ssr:stedsnr" v="525382" />
	</node>
	<node id="-39696" lat="60.6347249959" lon="11.842852781">
		<tag k="name" v="Gammelstua" />
		<tag k="place" v="farm" />
		<tag k="ssr:stedsnr" v="525145" />
	</node>
	<node id="-39695" lat="60.6553361144" lon="11.8012194511">
		<tag k="name" v="Smerud" />
		<tag k="place" v="farm" />
		<tag k="ssr:stedsnr" v="525122" />
	</node>
	<node id="-39691" lat="60.8688722227" lon="12.1511444363">
		<tag k="alt_name" v="Nierkoia, øvre" />
		<tag k="name" v="Øvre Nierkoia" />
		<tag k="place" v="isolated_dwelling" />
		<tag k="ssr:stedsnr" v="434555" />
	</node>
	<node id="-39689" lat="60.85429167" lon="11.971450003">
		<tag k="alt_name" v="Øvre Kynndammen" />
		<tag k="name" v="Kynndammen" />
		<tag k="place" v="isolated_dwelling" />
		<tag k="ssr:stedsnr" v="434535" />
	</node>
	<node id="-39686" lat="60.9085666672" lon="12.1541249913">
		<tag k="name" v="Svenskebrakka" />
		<tag k="place" v="isolated_dwelling" />
		<tag k="ssr:stedsnr" v="434394" />
	</node>
	<node id="-39682" lat="60.9978972251" lon="12.2324277728">
		<tag k="name" v="Bråten" />
		<tag k="place" v="farm" />
		<tag k="ssr:stedsnr" v="434488" />
	</node>
	<node id="-39681" lat="60.8146422682" lon="12.0953082007">
		<tag k="name" v="Rundberget" />
		<tag k="place" v="hamlet" />
		<tag k="ssr:stedsnr" v="434479" />
	</node>
	<node id="-39680" lat="60.79995556" lon="11.9362527769">
		<tag k="historic" v="shieling" />
		<tag k="name" v="Eidsætra" />
		<tag k="place" v="locality" />
		<tag k="ssr:stedsnr" v="434474" />
	</node>
	<node id="-39677" lat="61.0122777788" lon="12.1336333425">
		<tag k="alt_name" v="Enberget, nordre" />
		<tag k="name" v="Nordre Enberget" />
		<tag k="place" v="isolated_dwelling" />
		<tag k="ssr:stedsnr" v="433853" />
	</node>
	<node id="-39674" lat="60.7279388917" lon="11.8892055613">
		<tag k="name" v="Nyvoll" />
		<tag k="place" v="farm" />
		<tag k="ssr:stedsnr" v="432186" />
	</node>
	<node id="-39673" lat="60.6072277751" lon="11.8420583246">
		<tag k="alt_name" v="Fengserud" />
		<tag k="name" v="Fengsrud" />
		<tag k="place" v="farm" />
		<tag k="ssr:stedsnr" v="432169" />
	</node>
	<node id="-39670" lat="60.7158059783" lon="11.7534928753">
		<tag k="fixme" v="consider place=hamlet" />
		<tag k="name" v="Aslakrud" />
		<tag k="old_name" v="Aslaksrud" />
		<tag k="place" v="farm" />
		<tag k="ssr:stedsnr" v="432276" />
	</node>
	<node id="-39669" lat="60.702430555" lon="11.8618166661">
		<tag k="alt_name" v="Moum" />
		<tag k="name" v="Moheim" />
		<tag k="place" v="farm" />
		<tag k="ssr:stedsnr" v="432043" />
	</node>
	<node id="-39668" lat="60.6996888865" lon="11.9253611082">
		<tag k="name" v="Haslerud" />
		<tag k="place" v="farm" />
		<tag k="ssr:stedsnr" v="432035" />
	</node>
	<node id="-39667" lat="60.6801055579" lon="11.779719439">
		<tag k="name" v="Dal" />
		<tag k="place" v="farm" />
		<tag k="ssr:stedsnr" v="431381" />
	</node>
	<node id="-39664" lat="60.9084805565" lon="11.9995527691">
		<tag k="name" v="Vestre Siljubergsåsen" />
		<tag k="place" v="farm" />
		<tag k="ssr:stedsnr" v="423961" />
	</node>
	<node id="-39662" lat="60.7074583297" lon="11.894138885">
		<tag k="name" v="Bårå" />
		<tag k="place" v="farm" />
		<tag k="ssr:stedsnr" v="423495" />
	</node>
	<node id="-39660" lat="60.6522111084" lon="11.761458341">
		<tag k="name" v="Femmerkoia" />
		<tag k="place" v="isolated_dwelling" />
		<tag k="ssr:stedsnr" v="423252" />
	</node>
	<node id="-39655" lat="60.8637611149" lon="12.0464444437">
		<tag k="name" v="Tuva" />
		<tag k="place" v="isolated_dwelling" />
		<tag k="ssr:stedsnr" v="421367" />
	</node>
	<node id="-39646" lat="60.7414555526" lon="11.6629166741">
		<tag k="name" v="St. Halvard" />
		<tag k="place" v="isolated_dwelling" />
		<tag k="ssr:stedsnr" v="419434" />
	</node>
	<node id="-39644" lat="60.7460472213" lon="11.7311888831">
		<tag k="name" v="Næverholtet" />
		<tag k="place" v="farm" />
		<tag k="ssr:stedsnr" v="407784" />
	</node>
	<node id="-39638" lat="60.7072944413" lon="11.7661472241">
		<tag k="name" v="Hulua" />
		<tag k="place" v="isolated_dwelling" />
		<tag k="ssr:stedsnr" v="406198" />
	</node>
	<node id="-39637" lat="60.7103222213" lon="11.7665277733">
		<tag k="name" v="Braskerudmoen" />
		<tag k="place" v="farm" />
		<tag k="ssr:stedsnr" v="406188" />
	</node>
	<node id="-39636" lat="60.7034972237" lon="11.7498361156">
		<tag k="name" v="Nedre Magnor" />
		<tag k="place" v="locality" />
		<tag k="ssr:stedsnr" v="406187" />
	</node>
	<node id="-39635" lat="60.7328361141" lon="11.7618805498">
		<tag k="name" v="Engenes" />
		<tag k="place" v="farm" />
		<tag k="ssr:stedsnr" v="406176" />
	</node>
	<node id="-39631" lat="60.6321202886" lon="11.8550632413">
		<tag k="fixme" v="consider place=hamlet" />
		<tag k="name" v="Butteberg" />
		<tag k="place" v="farm" />
		<tag k="ssr:stedsnr" v="404125" />
	</node>
	<node id="-39630" lat="60.6428611079" lon="11.8263916676">
		<tag k="name" v="Heimstad" />
		<tag k="place" v="farm" />
		<tag k="ssr:stedsnr" v="404119" />
	</node>
	<node id="-39626" lat="60.6743583294" lon="11.8187083299">
		<tag k="name" v="Glomvang" />
		<tag k="place" v="farm" />
		<tag k="ssr:stedsnr" v="399731" />
	</node>
	<node id="-39625" lat="60.8460305515" lon="12.1612833321">
		<tag k="name" v="Firerkoia" />
		<tag k="place" v="isolated_dwelling" />
		<tag k="ssr:stedsnr" v="373643" />
	</node>
	<node id="-39624" lat="60.8322888903" lon="11.9826416588">
		<tag k="name" v="Oleanakoia" />
		<tag k="place" v="isolated_dwelling" />
		<tag k="ssr:stedsnr" v="373631" />
	</node>
	<node id="-39622" lat="60.8311777786" lon="12.035783329">
		<tag k="name" v="Holstad" />
		<tag k="place" v="farm" />
		<tag k="ssr:stedsnr" v="373624" />
	</node>
	<node id="-39621" lat="60.7510805545" lon="11.8489805474">
		<tag k="name" v="Nordstad" />
		<tag k="place" v="farm" />
		<tag k="ssr:stedsnr" v="373546" />
	</node>
	<node id="-39619" lat="60.8002500003" lon="11.959891672">
		<tag k="name" v="Eidsberget" />
		<tag k="place" v="isolated_dwelling" />
		<tag k="ssr:stedsnr" v="373527" />
	</node>
	<node id="-39617" lat="60.8740055518" lon="11.9956055481">
		<tag k="name" v="Kynnbråten" />
		<tag k="place" v="farm" />
		<tag k="ssr:stedsnr" v="373593" />
	</node>
	<node id="-39616" lat="60.8711944418" lon="12.0075750004">
		<tag k="name" v="Myrvoll" />
		<tag k="place" v="locality" />
		<tag k="ssr:stedsnr" v="373592" />
	</node>
	<node id="-39615" lat="60.9074083303" lon="12.0926277691">
		<tag k="name" v="Halakoia" />
		<tag k="place" v="isolated_dwelling" />
		<tag k="ssr:stedsnr" v="373446" />
	</node>
	<node id="-39612" lat="60.6032555548" lon="11.8772777769">
		<tag k="name" v="Solhaug" />
		<tag k="place" v="farm" />
		<tag k="ssr:stedsnr" v="371847" />
	</node>
	<node id="-39611" lat="60.6773925941" lon="11.8006230996">
		<tag k="fixme" v="consider place=hamlet" />
		<tag k="name" v="Rud" />
		<tag k="place" v="farm" />
		<tag k="ssr:stedsnr" v="371334" />
	</node>
	<node id="-39610" lat="60.6755833305" lon="11.8058499926">
		<tag k="alt_name" v="Julsrud" />
		<tag k="name" v="Gyllerud" />
		<tag k="place" v="farm" />
		<tag k="ssr:stedsnr" v="371333" />
	</node>
	<node id="-39609" lat="60.7157333299" lon="11.8857388849">
		<tag k="name" v="Brenna" />
		<tag k="place" v="farm" />
		<tag k="ssr:stedsnr" v="371046" />
	</node>
	<node id="-39608" lat="60.6459972196" lon="11.7315694361">
		<tag k="name" v="Svarttjernskoia" />
		<tag k="place" v="isolated_dwelling" />
		<tag k="ssr:stedsnr" v="371301" />
	</node>
	<node id="-39606" lat="60.7201736788" lon="11.8401675271">
		<tag k="alt_name" v="Torkeldsby" />
		<tag k="fixme" v="consider place=hamlet" />
		<tag k="name" v="Torkelsby" />
		<tag k="place" v="farm" />
		<tag k="ssr:stedsnr" v="371293" />
	</node>
	<node id="-39605" lat="60.7140636883" lon="11.7779107781">
		<tag k="fixme" v="consider place=hamlet" />
		<tag k="name" v="Braskerud" />
		<tag k="place" v="farm" />
		<tag k="ssr:stedsnr" v="371285" />
	</node>
	<node id="-39604" lat="60.7137888918" lon="11.7492305576">
		<tag k="name" v="Løvåsen" />
		<tag k="place" v="farm" />
		<tag k="ssr:stedsnr" v="371283" />
	</node>
	<node id="-39603" lat="60.7292249975" lon="11.8436138801">
		<tag k="name" v="Åsjordet" />
		<tag k="place" v="farm" />
		<tag k="ssr:stedsnr" v="371199" />
	</node>
	<node id="-39602" lat="60.7280222248" lon="11.8948888943">
		<tag k="name" v="Korsmo" />
		<tag k="place" v="farm" />
		<tag k="ssr:stedsnr" v="371194" />
	</node>
	<node id="-39601" lat="60.6583027798" lon="11.9339944443">
		<tag k="name" v="Kroken" />
		<tag k="place" v="farm" />
		<tag k="ssr:stedsnr" v="371078" />
	</node>
	<node id="-39600" lat="60.6839583328" lon="11.8331638843">
		<tag k="name" v="Kroken" />
		<tag k="place" v="farm" />
		<tag k="ssr:stedsnr" v="370321" />
	</node>
	<node id="-39599" lat="60.6867972182" lon="11.7670750085">
		<tag k="alt_name" v="Spilsberg, øvre" />
		<tag k="name" v="Spilsberg" />
		<tag k="place" v="farm" />
		<tag k="ssr:stedsnr" v="370319" />
	</node>
	<node id="-39598" lat="60.640455559" lon="11.889897228">
		<tag k="name" v="Lindstad" />
		<tag k="place" v="farm" />
		<tag k="ssr:stedsnr" v="370083" />
	</node>
	<node id="-39597" lat="60.8031638876" lon="12.0027972181">
		<tag k="name" v="Søndre Brumovoll" />
		<tag k="place" v="locality" />
		<tag k="ssr:stedsnr" v="362441" />
	</node>
	<node id="-39596" lat="60.6496388926" lon="11.6856500066">
		<tag k="name" v="Snaråkoia" />
		<tag k="place" v="isolated_dwelling" />
		<tag k="ssr:stedsnr" v="362263" />
	</node>
	<node id="-39588" lat="60.7536777763" lon="11.8873694459">
		<tag k="name" v="Oppgården" />
		<tag k="place" v="farm" />
		<tag k="ssr:stedsnr" v="360426" />
	</node>
	<node id="-39587" lat="60.8685694432" lon="12.0493055473">
		<tag k="name" v="Østli" />
		<tag k="place" v="farm" />
		<tag k="ssr:stedsnr" v="360350" />
	</node>
	<node id="-39580" lat="60.8887888904" lon="12.1432944464">
		<tag k="name" v="Trekoia" />
		<tag k="place" v="locality" />
		<tag k="ssr:stedsnr" v="358298" />
	</node>
	<node id="-39577" lat="60.6015361095" lon="11.6401861052">
		<tag k="name" v="Rødknappen" />
		<tag k="place" v="locality" />
		<tag k="ssr:stedsnr" v="345738" />
	</node>
	<node id="-39576" lat="60.7423694436" lon="11.7490249988">
		<tag k="name" v="Nordstrand" />
		<tag k="place" v="farm" />
		<tag k="ssr:stedsnr" v="345456" />
	</node>
	<node id="-39574" lat="60.8600138904" lon="12.0481472251">
		<tag k="name" v="Gjerdingstuen" />
		<tag k="place" v="locality" />
		<tag k="ssr:stedsnr" v="345343" />
	</node>
	<node id="-39573" lat="60.7360138935" lon="11.753824994">
		<tag k="name" v="Bjørnstad" />
		<tag k="place" v="farm" />
		<tag k="ssr:stedsnr" v="345451" />
	</node>
	<node id="-39570" lat="60.704252775" lon="11.810972221">
		<tag k="amenity" v="school" />
		<tag k="name" v="Norsk Trafikksenter" />
		<tag k="ssr:stedsnr" v="345082" />
	</node>
	<node id="-39569" lat="60.694936108" lon="11.8046694368">
		<tag k="name" v="Furuset" />
		<tag k="place" v="farm" />
		<tag k="ssr:stedsnr" v="345078" />
	</node>
	<node id="-39568" lat="60.7314888891" lon="11.7937472137">
		<tag k="name" v="Øverby" />
		<tag k="place" v="farm" />
		<tag k="ssr:stedsnr" v="344040" />
	</node>
	<node id="-39567" lat="60.7174361117" lon="11.8256166595">
		<tag k="name" v="Holtet" />
		<tag k="place" v="farm" />
		<tag k="ssr:stedsnr" v="344037" />
	</node>
	<node id="-39565" lat="60.9265972255" lon="12.2159638843">
		<tag k="name" v="Nedre Smalberget" />
		<tag k="place" v="locality" />
		<tag k="ssr:stedsnr" v="343463" />
	</node>
	<node id="-39561" lat="60.6446055545" lon="11.8038222187">
		<tag k="name" v="Skogstad" />
		<tag k="place" v="farm" />
		<tag k="ssr:stedsnr" v="343117" />
	</node>
	<node id="-39560" lat="60.641752775" lon="11.8003805463">
		<tag k="name" v="Finstad" />
		<tag k="place" v="isolated_dwelling" />
		<tag k="ssr:stedsnr" v="343116" />
	</node>
	<node id="-39559" lat="60.655566666" lon="11.845058339">
		<tag k="name" v="Lilleskjæret" />
		<tag k="place" v="isolated_dwelling" />
		<tag k="ssr:stedsnr" v="343104" />
	</node>
	<node id="-39557" lat="60.6710888924" lon="11.8481055485">
		<tag k="name" v="Framnes" />
		<tag k="place" v="farm" />
		<tag k="ssr:stedsnr" v="343021" />
	</node>
	<node id="-39554" lat="60.8588138928" lon="12.3005749989">
		<tag k="loc_name" v="Abborbua" />
		<tag k="name" v="Åborbua" />
		<tag k="place" v="isolated_dwelling" />
		<tag k="ssr:stedsnr" v="338490" />
	</node>
	<node id="-39551" lat="60.7740055512" lon="11.9060750057">
		<tag k="name" v="Jonskoia" />
		<tag k="place" v="isolated_dwelling" />
		<tag k="ssr:stedsnr" v="313550" />
	</node>
	<node id="-39550" lat="60.7552907296" lon="11.8820936063">
		<tag k="fixme" v="consider place=hamlet" />
		<tag k="name" v="Knøsen" />
		<tag k="place" v="farm" />
		<tag k="ssr:stedsnr" v="313533" />
	</node>
	<node id="-39547" lat="60.8269166694" lon="11.9981666623">
		<tag k="name" v="Elsetvollen" />
		<tag k="place" v="isolated_dwelling" />
		<tag k="ssr:stedsnr" v="312595" />
	</node>
	<node id="-39546" lat="61.038625003" lon="12.1523916695">
		<tag k="alt_name" v="Kjølbergkoia, nordre;Nordre Kjølbergskoia" />
		<tag k="name" v="Nordre Kjølbergkoia" />
		<tag k="place" v="isolated_dwelling" />
		<tag k="ssr:stedsnr" v="311928" />
	</node>
	<node id="-39544" lat="61.0272749998" lon="12.1658055576">
		<tag k="alt_name" v="Kjølbergkoia, s;Søndre Kjølbergskoia" />
		<tag k="name" v="Søndre Kjølbergkoia" />
		<tag k="place" v="isolated_dwelling" />
		<tag k="ssr:stedsnr" v="311922" />
	</node>
	<node id="-39543" lat="60.6170722258" lon="11.9041749959">
		<tag k="alt_name" v="Karisundmoen" />
		<tag k="name" v="Karisonmoen" />
		<tag k="place" v="farm" />
		<tag k="ssr:stedsnr" v="310862" />
	</node>
	<node id="-39542" lat="60.6086805523" lon="11.8512083289">
		<tag k="name" v="Fageråskoia" />
		<tag k="place" v="isolated_dwelling" />
		<tag k="ssr:stedsnr" v="310843" />
	</node>
	<node id="-39541" lat="60.6202615183" lon="11.8749976174">
		<tag k="fixme" v="consider place=hamlet" />
		<tag k="name" v="Sjurderud" />
		<tag k="place" v="farm" />
		<tag k="ssr:stedsnr" v="310813" />
	</node>
	<node id="-39539" lat="60.736294449" lon="11.6933972191">
		<tag k="name" v="Bjørnbekkoia" />
		<tag k="place" v="isolated_dwelling" />
		<tag k="ssr:stedsnr" v="310480" />
	</node>
	<node id="-39538" lat="60.6762499988" lon="11.7727361143">
		<tag k="name" v="Torp" />
		<tag k="place" v="farm" />
		<tag k="ssr:stedsnr" v="310355" />
	</node>
	<node id="-39537" lat="60.6356527807" lon="11.8329027728">
		<tag k="name" v="Nyjordet" />
		<tag k="place" v="farm" />
		<tag k="ssr:stedsnr" v="310341" />
	</node>
	<node id="-39536" lat="60.6358013951" lon="11.8291194313">
		<tag k="fixme" v="consider place=hamlet" />
		<tag k="name" v="Os" />
		<tag k="place" v="farm" />
		<tag k="ssr:stedsnr" v="310338" />
	</node>
	<node id="-39535" lat="60.6518700059" lon="11.8340180941">
		<tag k="name" v="Eid" />
		<tag k="place" v="hamlet" />
		<tag k="ssr:stedsnr" v="310321" />
	</node>
	<node id="-39534" lat="60.7177972201" lon="11.6906527757">
		<tag k="historic" v="shieling" />
		<tag k="name" v="Braskerudsætra" />
		<tag k="place" v="locality" />
		<tag k="ssr:stedsnr" v="310309" />
	</node>
	<node id="-39532" lat="60.7235849922" lon="11.7493168557">
		<tag k="fixme" v="consider place=hamlet" />
		<tag k="name" v="Killingrud" />
		<tag k="place" v="farm" />
		<tag k="ssr:stedsnr" v="310287" />
	</node>
	<node id="-39530" lat="60.7013538856" lon="11.7789891518">
		<tag k="fixme" v="consider place=hamlet" />
		<tag k="name" v="Knappen" />
		<tag k="place" v="farm" />
		<tag k="ssr:stedsnr" v="310268" />
	</node>
	<node id="-39529" lat="60.703833336" lon="11.7469527842">
		<tag k="name" v="Magnor" />
		<tag k="place" v="farm" />
		<tag k="ssr:stedsnr" v="310246" />
	</node>
	<node id="-39528" lat="60.707727774" lon="11.8107999926">
		<tag k="name" v="Nordhagemoen" />
		<tag k="place" v="farm" />
		<tag k="ssr:stedsnr" v="310234" />
	</node>
	<node id="-39527" lat="60.7023222239" lon="11.831963882">
		<tag k="name" v="Rokkerud" />
		<tag k="place" v="farm" />
		<tag k="ssr:stedsnr" v="310232" />
	</node>
	<node id="-39525" lat="60.7194388862" lon="11.9135388902">
		<tag k="alt_name" v="Kulskjulet" />
		<tag k="name" v="Kolskjulet" />
		<tag k="place" v="farm" />
		<tag k="ssr:stedsnr" v="310188" />
	</node>
	<node id="-39523" lat="60.6551888894" lon="11.9257027816">
		<tag k="name" v="Holmestrand" />
		<tag k="place" v="farm" />
		<tag k="ssr:stedsnr" v="310089" />
	</node>
	<node id="-39522" lat="60.6447222179" lon="11.9250222237">
		<tag k="name" v="Granheim" />
		<tag k="place" v="farm" />
		<tag k="ssr:stedsnr" v="310072" />
	</node>
	<node id="-39521" lat="60.7096750024" lon="11.9154861138">
		<tag k="name" v="Hasle" />
		<tag k="place" v="farm" />
		<tag k="ssr:stedsnr" v="310066" />
	</node>
	<node id="-39519" lat="60.6994361107" lon="11.9489444471">
		<tag k="name" v="Kvernhaugen" />
		<tag k="place" v="farm" />
		<tag k="ssr:stedsnr" v="310047" />
	</node>
	<node id="-39518" lat="60.7015108389" lon="11.9477957523">
		<tag k="alt_name" v="Delerud, østre;Delerud, vestre" />
		<tag k="fixme" v="consider place=hamlet" />
		<tag k="name" v="Dellerud" />
		<tag k="place" v="farm" />
		<tag k="ssr:stedsnr" v="310045" />
	</node>
	<node id="-39517" lat="60.7051416656" lon="11.8787249932">
		<tag k="name" v="Holtet" />
		<tag k="place" v="farm" />
		<tag k="ssr:stedsnr" v="310037" />
	</node>
	<node id="-39514" lat="60.7994583347" lon="11.9265000041">
		<tag k="alt_name" v="Klokkarsætra" />
		<tag k="historic" v="shieling" />
		<tag k="name" v="Klokkersætra" />
		<tag k="place" v="locality" />
		<tag k="ssr:stedsnr" v="312523" />
	</node>
	<node id="-39511" lat="60.6995000003" lon="11.9329805546">
		<tag k="name" v="Morud" />
		<tag k="place" v="farm" />
		<tag k="ssr:stedsnr" v="301443" />
	</node>
	<node id="-39505" lat="60.8556888872" lon="12.0621888862">
		<tag k="name" v="Søndre Berget" />
		<tag k="place" v="farm" />
		<tag k="ssr:stedsnr" v="215966" />
	</node>
	<node id="-39503" lat="60.8932611134" lon="12.2436861118">
		<tag k="name" v="Øverli" />
		<tag k="place" v="farm" />
		<tag k="ssr:stedsnr" v="191653" />
	</node>
	<node id="-39502" lat="60.9250333341" lon="12.2584416625">
		<tag k="name" v="Furubekkoia" />
		<tag k="place" v="isolated_dwelling" />
		<tag k="ssr:stedsnr" v="191649" />
	</node>
	<node id="-39500" lat="60.848572221" lon="12.0615222273">
		<tag k="name" v="Jørnsgarden" />
		<tag k="place" v="farm" />
		<tag k="ssr:stedsnr" v="191575" />
	</node>
	<node id="-39499" lat="60.8395972179" lon="12.1167472215">
		<tag k="historic" v="shieling" />
		<tag k="name" v="Bølsjøsætra" />
		<tag k="place" v="locality" />
		<tag k="ssr:stedsnr" v="191574" />
	</node>
	<node id="-39498" lat="60.8340305593" lon="12.1333722206">
		<tag k="name" v="Knappvollen" />
		<tag k="place" v="isolated_dwelling" />
		<tag k="ssr:stedsnr" v="191565" />
	</node>
	<node id="-39497" lat="60.828686113" lon="12.1143222217">
		<tag k="name" v="Kalneskoia" />
		<tag k="place" v="isolated_dwelling" />
		<tag k="ssr:stedsnr" v="191563" />
	</node>
	<node id="-39493" lat="60.87585833" lon="12.2994722293">
		<tag k="name" v="Båtvikkoia" />
		<tag k="place" v="locality" />
		<tag k="ssr:stedsnr" v="191636" />
	</node>
	<node id="-39491" lat="60.9417388892" lon="12.1517722181">
		<tag k="name" v="Brigaden" />
		<tag k="place" v="isolated_dwelling" />
		<tag k="ssr:stedsnr" v="191471" />
	</node>
	<node id="-39490" lat="60.974002779" lon="12.1324666699">
		<tag k="name" v="Tronsbergkoia" />
		<tag k="place" v="isolated_dwelling" />
		<tag k="ssr:stedsnr" v="191368" />
	</node>
	<node id="-39489" lat="60.7855944404" lon="11.8301250028">
		<tag k="name" v="Sormerudvollen" />
		<tag k="place" v="isolated_dwelling" />
		<tag k="ssr:stedsnr" v="191340" />
	</node>
	<node id="-39487" lat="60.6100416673" lon="11.8840861184">
		<tag k="name" v="Dalby" />
		<tag k="place" v="farm" />
		<tag k="ssr:stedsnr" v="189855" />
	</node>
	<node id="-39486" lat="60.6342011224" lon="11.8456758963">
		<tag k="fixme" v="consider place=hamlet" />
		<tag k="name" v="Solberg" />
		<tag k="place" v="farm" />
		<tag k="ssr:stedsnr" v="189810" />
	</node>
	<node id="-39485" lat="60.6311472218" lon="11.8617500007">
		<tag k="alt_name" v="Berg, øvre" />
		<tag k="name" v="Øvre Berg" />
		<tag k="place" v="farm" />
		<tag k="ssr:stedsnr" v="189808" />
	</node>
	<node id="-39484" lat="60.63305" lon="11.8647972284">
		<tag k="alt_name" v="Berg, nedre" />
		<tag k="name" v="Nedre Berg" />
		<tag k="place" v="farm" />
		<tag k="ssr:stedsnr" v="189807" />
	</node>
	<node id="-39483" lat="60.7472482299" lon="11.7184664592">
		<tag k="fixme" v="consider place=hamlet" />
		<tag k="name" v="Stokkerud" />
		<tag k="place" v="farm" />
		<tag k="ssr:stedsnr" v="189428" />
	</node>
	<node id="-39479" lat="60.6545305512" lon="11.8018694463">
		<tag k="name" v="Bremserud" />
		<tag k="place" v="farm" />
		<tag k="ssr:stedsnr" v="189295" />
	</node>
	<node id="-39477" lat="60.7176472247" lon="11.676675">
		<tag k="name" v="Grasholbakken" />
		<tag k="place" v="isolated_dwelling" />
		<tag k="ssr:stedsnr" v="189276" />
	</node>
	<node id="-39476" lat="60.7289627176" lon="11.8322010201">
		<tag k="fixme" v="consider place=hamlet" />
		<tag k="name" v="Audenby" />
		<tag k="place" v="farm" />
		<tag k="ssr:stedsnr" v="189259" />
	</node>
	<node id="-39475" lat="60.7384694479" lon="11.7299361126">
		<tag k="name" v="Norderud" />
		<tag k="place" v="farm" />
		<tag k="ssr:stedsnr" v="189256" />
	</node>
	<node id="-39474" lat="60.7373194482" lon="11.7589999965">
		<tag k="alt_name" v="Glåmstå" />
		<tag k="name" v="Glåmstø" />
		<tag k="place" v="farm" />
		<tag k="ssr:stedsnr" v="189253" />
	</node>
	<node id="-39472" lat="60.7477232272" lon="11.8568274181">
		<tag k="alt_name" v="Tørråsen" />
		<tag k="fixme" v="consider place=hamlet" />
		<tag k="name" v="Tøråsen" />
		<tag k="place" v="farm" />
		<tag k="ssr:stedsnr" v="189206" />
	</node>
	<node id="-39471" lat="60.7284010321" lon="11.8635332936">
		<tag k="fixme" v="consider place=hamlet" />
		<tag k="name" v="Rognerud" />
		<tag k="place" v="farm" />
		<tag k="ssr:stedsnr" v="189191" />
	</node>
	<node id="-39470" lat="60.7107559753" lon="11.8609000558">
		<tag k="alt_name" v="Skarderud, s" />
		<tag k="fixme" v="multiple name tags, choose one and add the other to alt_name" />
		<tag k="name" v="Larsstua;Søndre Skarderud" />
		<tag k="place" v="farm" />
		<tag k="ssr:stedsnr" v="189177" />
	</node>
	<node id="-39469" lat="60.7240055576" lon="11.8694277726">
		<tag k="name" v="Bråten" />
		<tag k="place" v="farm" />
		<tag k="ssr:stedsnr" v="189171" />
	</node>
	<node id="-39468" lat="60.7184999963" lon="11.8931027784">
		<tag k="name" v="Nymoen" />
		<tag k="place" v="isolated_dwelling" />
		<tag k="ssr:stedsnr" v="189166" />
	</node>
	<node id="-39465" lat="60.706038885" lon="11.9355527726">
		<tag k="name" v="Skyrud" />
		<tag k="place" v="farm" />
		<tag k="ssr:stedsnr" v="189037" />
	</node>
	<node id="-39464" lat="60.6946861148" lon="11.8890583282">
		<tag k="name" v="Glestad" />
		<tag k="place" v="farm" />
		<tag k="ssr:stedsnr" v="189033" />
	</node>
	<node id="-39461" lat="60.7068305591" lon="11.9012416736">
		<tag k="name" v="Vestheim" />
		<tag k="place" v="farm" />
		<tag k="ssr:stedsnr" v="180451" />
	</node>
	<node id="-39460" lat="60.6874111141" lon="11.8894944362">
		<tag k="name" v="Skoglund" />
		<tag k="place" v="farm" />
		<tag k="ssr:stedsnr" v="180439" />
	</node>
	<node id="-39458" lat="60.67683333" lon="11.6577722268">
		<tag k="name" v="Svenskebrakka" />
		<tag k="place" v="isolated_dwelling" />
		<tag k="ssr:stedsnr" v="180150" />
	</node>
	<node id="-39453" lat="60.8806944477" lon="12.0037638981">
		<tag k="name" v="Vestre Kvernbakken" />
		<tag k="place" v="farm" />
		<tag k="ssr:stedsnr" v="178981" />
	</node>
	<node id="-39448" lat="60.6224194446" lon="11.7228333368">
		<tag k="name" v="Sjøbergskoia" />
		<tag k="place" v="isolated_dwelling" />
		<tag k="ssr:stedsnr" v="178229" />
	</node>
	<node id="-39444" lat="60.7163777763" lon="11.9105861113">
		<tag k="name" v="Rydningen" />
		<tag k="place" v="farm" />
		<tag k="ssr:stedsnr" v="176328" />
	</node>
	<node id="-39443" lat="60.7108888887" lon="11.9233333311">
		<tag k="name" v="Eriksmoen" />
		<tag k="place" v="farm" />
		<tag k="ssr:stedsnr" v="176327" />
	</node>
	<node id="-39442" lat="60.6981638915" lon="11.9507277818">
		<tag k="name" v="Søjordet" />
		<tag k="place" v="farm" />
		<tag k="ssr:stedsnr" v="176300" />
	</node>
	<node id="-39436" lat="60.6087777819" lon="11.6387666624">
		<tag k="fixme" v="consider tourism=alpine_hut or tourism=chalet" />
		<tag k="name" v="Opptrekkern" />
		<tag k="ssr:stedsnr" v="164149" />
		<tag k="tourism" v="wilderness_hut" />
	</node>
	<node id="-39434" lat="60.8554833362" lon="12.0554333252">
		<tag k="name" v="Stenvang" />
		<tag k="place" v="isolated_dwelling" />
		<tag k="ssr:stedsnr" v="163330" />
	</node>
	<node id="-39430" lat="60.7084638889" lon="11.7472111134">
		<tag k="name" v="Høgberg" />
		<tag k="place" v="isolated_dwelling" />
		<tag k="ssr:stedsnr" v="163140" />
	</node>
	<node id="-39428" lat="60.6745777748" lon="11.8014805555">
		<tag k="name" v="Rudshaugen" />
		<tag k="place" v="farm" />
		<tag k="ssr:stedsnr" v="163023" />
	</node>
	<node id="-39427" lat="60.6850638921" lon="11.775163896">
		<tag k="alt_name" v="Mellem Vestgården" />
		<tag k="name" v="Mellum" />
		<tag k="place" v="farm" />
		<tag k="ssr:stedsnr" v="163017" />
	</node>
	<node id="-39426" lat="60.7155944411" lon="11.7902861046">
		<tag k="name" v="Fossum" />
		<tag k="place" v="farm" />
		<tag k="ssr:stedsnr" v="162044" />
	</node>
	<node id="-39425" lat="60.7297999967" lon="11.8207611165">
		<tag k="amenity" v="school" />
		<tag k="name" v="Nordhagen skole" />
		<tag k="ssr:stedsnr" v="162039" />
	</node>
	<node id="-39424" lat="60.7232749983" lon="11.7873361042">
		<tag k="name" v="Varde" />
		<tag k="place" v="farm" />
		<tag k="ssr:stedsnr" v="162031" />
	</node>
	<node id="-39420" lat="60.6345888844" lon="11.857138893">
		<tag k="name" v="Halvorset" />
		<tag k="place" v="farm" />
		<tag k="ssr:stedsnr" v="161140" />
	</node>
	<node id="-39417" lat="60.6541722204" lon="11.8444055542">
		<tag k="name" v="Breidablikk" />
		<tag k="place" v="farm" />
		<tag k="ssr:stedsnr" v="161120" />
	</node>
	<node id="-39416" lat="60.9007750003" lon="12.2900000041">
		<tag k="name" v="Øvre Halberget" />
		<tag k="place" v="farm" />
		<tag k="ssr:stedsnr" v="144756" />
	</node>
	<node id="-39415" lat="60.8731305557" lon="12.049886105">
		<tag k="name" v="Øverås" />
		<tag k="place" v="farm" />
		<tag k="ssr:stedsnr" v="141578" />
	</node>
	<node id="-39409" lat="60.8048277791" lon="12.0091472275">
		<tag k="name" v="Granheim" />
		<tag k="place" v="isolated_dwelling" />
		<tag k="ssr:stedsnr" v="130484" />
	</node>
	<node id="-39408" lat="60.8058388919" lon="12.0782000011">
		<tag k="name" v="Høgvelta" />
		<tag k="place" v="isolated_dwelling" />
		<tag k="ssr:stedsnr" v="130476" />
	</node>
	<node id="-39407" lat="60.7928500008" lon="11.9481944355">
		<tag k="name" v="Løvikkoia" />
		<tag k="place" v="locality" />
		<tag k="ssr:stedsnr" v="130473" />
	</node>
	<node id="-39405" lat="60.7891027809" lon="12.079736115">
		<tag k="alt_name" v="Fløgen" />
		<tag k="name" v="Fløga" />
		<tag k="place" v="isolated_dwelling" />
		<tag k="ssr:stedsnr" v="130466" />
	</node>
	<node id="-39404" lat="60.8917194436" lon="12.1021527835">
		<tag k="name" v="Oppstusætra" />
		<tag k="place" v="locality" />
		<tag k="ssr:stedsnr" v="130418" />
	</node>
	<node id="-39402" lat="61.0110083377" lon="12.1376361098">
		<tag k="alt_name" v="Enberget, s" />
		<tag k="name" v="Søndre Enberget" />
		<tag k="place" v="isolated_dwelling" />
		<tag k="ssr:stedsnr" v="129845" />
	</node>
	<node id="-39401" lat="60.6100305529" lon="11.8939277849">
		<tag k="name" v="Tollerud" />
		<tag k="place" v="locality" />
		<tag k="ssr:stedsnr" v="128865" />
	</node>
	<node id="-39400" lat="60.6548010103" lon="11.7957936657">
		<tag k="fixme" v="consider place=hamlet" />
		<tag k="name" v="Kapperud" />
		<tag k="place" v="farm" />
		<tag k="ssr:stedsnr" v="128295" />
	</node>
	<node id="-39399" lat="60.7330999969" lon="11.8694472137">
		<tag k="name" v="Gillerholtmoen" />
		<tag k="place" v="farm" />
		<tag k="ssr:stedsnr" v="128186" />
	</node>
	<node id="-39398" lat="60.7294972248" lon="11.8884916639">
		<tag k="name" v="Myrvoll" />
		<tag k="place" v="farm" />
		<tag k="ssr:stedsnr" v="128185" />
	</node>
	<node id="-39397" lat="60.7349111111" lon="11.8746638854">
		<tag k="name" v="Giri" />
		<tag k="place" v="farm" />
		<tag k="ssr:stedsnr" v="128183" />
	</node>
	<node id="-39396" lat="60.7190736087" lon="11.8741697201">
		<tag k="fixme" v="consider place=hamlet" />
		<tag k="name" v="Bru" />
		<tag k="place" v="farm" />
		<tag k="ssr:stedsnr" v="128159" />
	</node>
	<node id="-39394" lat="60.7140888892" lon="11.8212888971">
		<tag k="name" v="Rindal" />
		<tag k="old_name" v="Elsetrønningen" />
		<tag k="place" v="farm" />
		<tag k="ssr:stedsnr" v="128269" />
	</node>
	<node id="-39393" lat="60.6957643761" lon="11.8254948542">
		<tag k="fixme" v="consider place=hamlet" />
		<tag k="name" v="Kåten" />
		<tag k="place" v="farm" />
		<tag k="ssr:stedsnr" v="128252" />
	</node>
	<node id="-39392" lat="60.7155683923" lon="11.9220653183">
		<tag k="fixme" v="consider place=hamlet" />
		<tag k="name" v="Knutsmoen" />
		<tag k="place" v="farm" />
		<tag k="ssr:stedsnr" v="128049" />
	</node>
	<node id="-39391" lat="60.6301916665" lon="11.7743555488">
		<tag k="historic" v="shieling" />
		<tag k="name" v="Magnessætra" />
		<tag k="place" v="locality" />
		<tag k="ssr:stedsnr" v="128142" />
	</node>
	<node id="-39389" lat="60.6982361125" lon="11.9005055468">
		<tag k="name" v="Hasla handel" />
		<tag k="place" v="isolated_dwelling" />
		<tag k="ssr:stedsnr" v="120423" />
	</node>
	<node id="-39381" lat="60.7394222216" lon="11.8708833304">
		<tag k="name" v="Solli" />
		<tag k="place" v="farm" />
		<tag k="ssr:stedsnr" v="118426" />
	</node>
	<node id="-39380" lat="60.7411694407" lon="11.8587361197">
		<tag k="name" v="Tørmo" />
		<tag k="place" v="farm" />
		<tag k="ssr:stedsnr" v="118425" />
	</node>
	<node id="-39366" lat="60.6346630812" lon="11.837937135">
		<tag k="name" v="Elvstua" />
		<tag k="place" v="farm" />
		<tag k="ssr:stedsnr" v="111426" />
	</node>
	<node id="-39364" lat="60.8604611152" lon="12.0550333262">
		<tag k="name" v="Sole" />
		<tag k="place" v="isolated_dwelling" />
		<tag k="ssr:stedsnr" v="103351" />
	</node>
	<node id="-39362" lat="60.7082277797" lon="11.7497861095">
		<tag k="name" v="Teppdalen" />
		<tag k="place" v="farm" />
		<tag k="ssr:stedsnr" v="103187" />
	</node>
	<node id="-39359" lat="60.7214361147" lon="11.8894444376">
		<tag k="name" v="Brumoen" />
		<tag k="place" v="farm" />
		<tag k="ssr:stedsnr" v="103039" />
	</node>
	<node id="-39355" lat="60.6956138926" lon="11.6852861172">
		<tag k="name" v="Hallquistvollen" />
		<tag k="place" v="isolated_dwelling" />
		<tag k="ssr:stedsnr" v="102148" />
	</node>
	<node id="-39353" lat="60.6748249965" lon="11.7793111123">
		<tag k="name" v="Kvernbakken" />
		<tag k="place" v="farm" />
		<tag k="ssr:stedsnr" v="102100" />
	</node>
	<node id="-39349" lat="60.8553583313" lon="12.3243500015">
		<tag k="name" v="Olsguthemmet" />
		<tag k="place" v="locality" />
		<tag k="ssr:stedsnr" v="101420" />
	</node>
	<node id="-39346" lat="60.6386222204" lon="11.8190111104">
		<tag k="name" v="Kavlerudsmoen" />
		<tag k="place" v="farm" />
		<tag k="ssr:stedsnr" v="101110" />
	</node>
	<node id="-39345" lat="60.6438611096" lon="11.8094638972">
		<tag k="name" v="Gravingen" />
		<tag k="place" v="farm" />
		<tag k="ssr:stedsnr" v="101108" />
	</node>
	<node id="-39344" lat="60.6423722213" lon="11.800255563">
		<tag k="name" v="Midtskogen" />
		<tag k="place" v="isolated_dwelling" />
		<tag k="ssr:stedsnr" v="101107" />
	</node>
	<node id="-39343" lat="60.7341194443" lon="11.7492361115">
		<tag k="name" v="Øvre Sandmoen" />
		<tag k="place" v="isolated_dwelling" />
		<tag k="ssr:stedsnr" v="100429" />
	</node>
	<node id="-39340" lat="60.7983138914" lon="11.9605499991">
		<tag k="name" v="Granlivillaen" />
		<tag k="place" v="isolated_dwelling" />
		<tag k="ssr:stedsnr" v="81587" />
	</node>
	<node id="-39339" lat="60.8883500033" lon="12.2347027838">
		<tag k="alt_name" v="Berget, øvre" />
		<tag k="name" v="Øvre Berget" />
		<tag k="place" v="farm" />
		<tag k="ssr:stedsnr" v="70727" />
	</node>
	<node id="-39338" lat="60.8971333313" lon="12.3258194403">
		<tag k="name" v="Hallingbakken" />
		<tag k="place" v="isolated_dwelling" />
		<tag k="ssr:stedsnr" v="70725" />
	</node>
	<node id="-39337" lat="60.8545416683" lon="12.3073166707">
		<tag k="name" v="Haldammen" />
		<tag k="place" v="isolated_dwelling" />
		<tag k="ssr:stedsnr" v="70700" />
	</node>
	<node id="-39333" lat="60.8982333311" lon="12.1402305515">
		<tag k="name" v="Sorgenfri" />
		<tag k="place" v="locality" />
		<tag k="ssr:stedsnr" v="70451" />
	</node>
	<node id="-39331" lat="60.9103888899" lon="12.0220027784">
		<tag k="name" v="Leikmyrkoia" />
		<tag k="place" v="locality" />
		<tag k="ssr:stedsnr" v="70433" />
	</node>
	<node id="-39327" lat="60.8804527801" lon="12.1152888866">
		<tag k="name" v="Lømyrkoia" />
		<tag k="place" v="isolated_dwelling" />
		<tag k="ssr:stedsnr" v="70572" />
	</node>
	<node id="-39326" lat="60.8872583293" lon="12.21176111">
		<tag k="name" v="Skolemestra" />
		<tag k="place" v="farm" />
		<tag k="ssr:stedsnr" v="70571" />
	</node>
	<node id="-39325" lat="60.8795694422" lon="12.0131388824">
		<tag k="alt_name" v="Kvernbakken, østre" />
		<tag k="name" v="Kvernbakken" />
		<tag k="place" v="farm" />
		<tag k="ssr:stedsnr" v="70568" />
	</node>
	<node id="-39324" lat="60.9959222188" lon="12.1664500033">
		<tag k="name" v="Steinflokoia" />
		<tag k="place" v="locality" />
		<tag k="ssr:stedsnr" v="70359" />
	</node>
	<node id="-39323" lat="60.7763833319" lon="11.817233324">
		<tag k="name" v="Jøssingbua" />
		<tag k="place" v="isolated_dwelling" />
		<tag k="ssr:stedsnr" v="70291" />
	</node>
	<node id="-39319" lat="60.6712916708" lon="11.7813527739">
		<tag k="name" v="Teppa" />
		<tag k="place" v="isolated_dwelling" />
		<tag k="ssr:stedsnr" v="68393" />
	</node>
	<node id="-39317" lat="60.6655083361" lon="11.7896166623">
		<tag k="name" v="Holterud" />
		<tag k="place" v="farm" />
		<tag k="ssr:stedsnr" v="68375" />
	</node>
	<node id="-39315" lat="60.7295054061" lon="11.8051297013">
		<tag k="alt_name" v="Lunden" />
		<tag k="fixme" v="consider place=hamlet" />
		<tag k="name" v="Lund" />
		<tag k="place" v="farm" />
		<tag k="ssr:stedsnr" v="68296" />
	</node>
	<node id="-39314" lat="60.7365111084" lon="11.7764083375">
		<tag k="alt_name" v="Hagen" />
		<tag k="name" v="Almenholtet" />
		<tag k="place" v="farm" />
		<tag k="ssr:stedsnr" v="68289" />
	</node>
	<node id="-39311" lat="60.6597249999" lon="11.7992277734">
		<tag k="name" v="Åbakken" />
		<tag k="place" v="farm" />
		<tag k="ssr:stedsnr" v="68338" />
	</node>
	<node id="-39307" lat="60.6504722203" lon="11.8514027696">
		<tag k="alt_name" v="Eid, s" />
		<tag k="name" v="Søndre Eid" />
		<tag k="place" v="farm" />
		<tag k="ssr:stedsnr" v="68078" />
	</node>
	<node id="-39306" lat="60.6483722224" lon="11.9261444532">
		<tag k="name" v="Kilerud" />
		<tag k="place" v="farm" />
		<tag k="ssr:stedsnr" v="68072" />
	</node>
	<node id="-39305" lat="60.7085014493" lon="11.9464003485">
		<tag k="alt_name" v="Ræverud" />
		<tag k="fixme" v="consider place=hamlet" />
		<tag k="name" v="Reverud" />
		<tag k="place" v="farm" />
		<tag k="ssr:stedsnr" v="68056" />
	</node>
	<node id="-39304" lat="60.6984371207" lon="11.8826126381">
		<tag k="fixme" v="consider place=hamlet" />
		<tag k="name" v="Konterud" />
		<tag k="place" v="farm" />
		<tag k="ssr:stedsnr" v="68031" />
	</node>
	<node id="-39303" lat="60.6362591049" lon="11.9317752253">
		<tag k="fixme" v="consider place=hamlet" />
		<tag k="name" v="Svennebykverna" />
		<tag k="place" v="farm" />
		<tag k="ssr:stedsnr" v="67851" />
	</node>
	<node id="-39302" lat="60.681658332" lon="11.6556249956">
		<tag k="name" v="Damkoia" />
		<tag k="place" v="isolated_dwelling" />
		<tag k="ssr:stedsnr" v="67379" />
	</node>
	<node id="-39299" lat="60.5949138887" lon="11.7319277806">
		<tag k="alt_name" v="Frysut" />
		<tag k="name" v="Frysutkoia" />
		<tag k="place" v="isolated_dwelling" />
		<tag k="ssr:stedsnr" v="67187" />
	</node>
	<node id="-39298" lat="60.5969055569" lon="11.6884305524">
		<tag k="alt_name" v="Fjellsætra, nordre" />
		<tag k="name" v="Nordre Fjellsætra" />
		<tag k="place" v="hamlet" />
		<tag k="ssr:stedsnr" v="67177" />
	</node>
	<node id="-39297" lat="60.5827833307" lon="11.651316663">
		<tag k="name" v="Elgenes" />
		<tag k="place" v="isolated_dwelling" />
		<tag k="ssr:stedsnr" v="67163" />
	</node>
	<node id="-39293" lat="60.879238893" lon="12.0194166746">
		<tag k="name" v="Kvernhaugen" />
		<tag k="place" v="locality" />
		<tag k="ssr:stedsnr" v="57982" />
	</node>
	<node id="-39290" lat="60.7409527792" lon="11.8608555517">
		<tag k="name" v="Sæter" />
		<tag k="place" v="farm" />
		<tag k="ssr:stedsnr" v="57435" />
	</node>
	<node id="-39288" lat="60.8641611118" lon="12.0574555604">
		<tag k="name" v="Nye Oppistua" />
		<tag k="place" v="farm" />
		<tag k="ssr:stedsnr" v="57296" />
	</node>
	<node id="-39287" lat="60.7339805554" lon="11.652561119">
		<tag k="name" v="Domkirka" />
		<tag k="place" v="locality" />
		<tag k="ssr:stedsnr" v="56407" />
	</node>
	<node id="-39284" lat="60.8485027763" lon="12.1828055614">
		<tag k="name" v="Oppgardsvollen" />
		<tag k="place" v="isolated_dwelling" />
		<tag k="ssr:stedsnr" v="55244" />
	</node>
	<node id="-39281" lat="60.7261083344" lon="11.8352583399">
		<tag k="name" v="Mikkelstua" />
		<tag k="place" v="farm" />
		<tag k="ssr:stedsnr" v="42033" />
	</node>
	<node id="-39279" lat="60.8669444455" lon="12.0539944487">
		<tag k="name" v="Sørli" />
		<tag k="place" v="farm" />
		<tag k="ssr:stedsnr" v="41000" />
	</node>
	<node id="-39278" lat="60.7164583375" lon="11.8278722216">
		<tag k="name" v="Moen" />
		<tag k="place" v="farm" />
		<tag k="ssr:stedsnr" v="41044" />
	</node>
	<node id="-39277" lat="60.6758527818" lon="11.7788888836">
		<tag k="name" v="Sagmoen" />
		<tag k="place" v="farm" />
		<tag k="ssr:stedsnr" v="41032" />
	</node>
	<node id="-39273" lat="60.6349861141" lon="11.8408527747">
		<tag k="name" v="Nystua" />
		<tag k="place" v="farm" />
		<tag k="ssr:stedsnr" v="40138" />
	</node>
	<node id="-39272" lat="60.635716071" lon="11.8361063558">
		<tag k="fixme" v="consider place=hamlet" />
		<tag k="name" v="Nordby" />
		<tag k="place" v="farm" />
		<tag k="ssr:stedsnr" v="40137" />
	</node>
	<node id="-39271" lat="60.7468472181" lon="11.9419333313">
		<tag k="name" v="Isak-koia" />
		<tag k="place" v="isolated_dwelling" />
		<tag k="ssr:stedsnr" v="39284" />
	</node>
	<node id="-39269" lat="60.9262666642" lon="12.0728250081">
		<tag k="name" v="Kristensonkoia" />
		<tag k="place" v="isolated_dwelling" />
		<tag k="ssr:stedsnr" v="20599" />
	</node>
	<node id="-39268" lat="60.8662388925" lon="12.154144452">
		<tag k="name" v="Patenten" />
		<tag k="place" v="isolated_dwelling" />
		<tag k="ssr:stedsnr" v="10583" />
	</node>
	<node id="-39265" lat="60.8886638858" lon="12.2478416613">
		<tag k="name" v="Nervang" />
		<tag k="place" v="farm" />
		<tag k="ssr:stedsnr" v="9682" />
	</node>
	<node id="-39262" lat="60.9106333307" lon="12.1253583324">
		<tag k="name" v="Gudmundskoia" />
		<tag k="place" v="locality" />
		<tag k="ssr:stedsnr" v="9429" />
	</node>
	<node id="-39261" lat="60.7734083324" lon="11.9889333281">
		<tag k="name" v="Åtterkoia" />
		<tag k="place" v="isolated_dwelling" />
		<tag k="ssr:stedsnr" v="9553" />
	</node>
	<node id="-39260" lat="60.7666583313" lon="11.8790250019">
		<tag k="name" v="Åroskoia" />
		<tag k="place" v="isolated_dwelling" />
		<tag k="ssr:stedsnr" v="9548" />
	</node>
	<node id="-39259" lat="60.7501000014" lon="11.8661111151">
		<tag k="alt_name" v="Linnerud" />
		<tag k="name" v="Linderud" />
		<tag k="place" v="farm" />
		<tag k="ssr:stedsnr" v="9534" />
	</node>
	<node id="-39257" lat="60.6121944422" lon="11.8757833274">
		<tag k="name" v="Daler" />
		<tag k="place" v="farm" />
		<tag k="ssr:stedsnr" v="7863" />
	</node>
	<node id="-39253" lat="60.665624999" lon="11.8007583321">
		<tag k="alt_name" v="Råi" />
		<tag k="name" v="Rået" />
		<tag k="place" v="farm" />
		<tag k="ssr:stedsnr" v="7365" />
	</node>
	<node id="-39252" lat="60.6775888895" lon="11.7693388933">
		<tag k="alt_name" v="Nedre Risåsen" />
		<tag k="name" v="Risåsen" />
		<tag k="place" v="farm" />
		<tag k="ssr:stedsnr" v="7351" />
	</node>
	<node id="-39251" lat="60.6727055538" lon="11.8112166698">
		<tag k="alt_name" v="Rustad" />
		<tag k="name" v="Rudstad" />
		<tag k="place" v="farm" />
		<tag k="ssr:stedsnr" v="7346" />
	</node>
	<node id="-39249" lat="60.6336388862" lon="11.7443583414">
		<tag k="name" v="Gråbergskoia" />
		<tag k="place" v="isolated_dwelling" />
		<tag k="ssr:stedsnr" v="7337" />
	</node>
	<node id="-39248" lat="60.631725258" lon="11.8414677327">
		<tag k="name" v="Smedstua" />
		<tag k="place" v="farm" />
		<tag k="ssr:stedsnr" v="7334" />
	</node>
	<node id="-39245" lat="60.7332011192" lon="11.8038201483">
		<tag k="fixme" v="consider place=hamlet" />
		<tag k="name" v="Elset" />
		<tag k="place" v="farm" />
		<tag k="ssr:stedsnr" v="7292" />
	</node>
	<node id="-39244" lat="60.7246972195" lon="11.8019722275">
		<tag k="name" v="Braskereidfoss" />
		<tag k="place" v="village" />
		<tag k="ssr:stedsnr" v="7286" />
	</node>
	<node id="-39243" lat="60.7049444403" lon="11.7676416727">
		<tag k="name" v="Nyberg" />
		<tag k="place" v="farm" />
		<tag k="ssr:stedsnr" v="7266" />
	</node>
	<node id="-39242" lat="60.7307666685" lon="11.8561250005">
		<tag k="name" v="Tajet" />
		<tag k="place" v="farm" />
		<tag k="ssr:stedsnr" v="7226" />
	</node>
	<node id="-39241" lat="60.7307361132" lon="11.8903388892">
		<tag k="alt_name" v="Skjeret" />
		<tag k="fixme" v="multiple name tags, choose one and add the other to alt_name" />
		<tag k="name" v="Kalkrotskjæret;Skjæret" />
		<tag k="place" v="farm" />
		<tag k="ssr:stedsnr" v="7219" />
	</node>
	<node id="-39240" lat="60.7408593187" lon="11.8892942687">
		<tag k="fixme" v="consider place=hamlet" />
		<tag k="name" v="Bredalen" />
		<tag k="place" v="farm" />
		<tag k="ssr:stedsnr" v="7211" />
	</node>
	<node id="-39239" lat="60.7158429876" lon="11.848608786">
		<tag k="name" v="Skjæret" />
		<tag k="old_name" v="Kalkrotskjæret" />
		<tag k="place" v="locality" />
		<tag k="ssr:stedsnr" v="7200" />
	</node>
	<node id="-39238" lat="60.7229895284" lon="11.8748856831">
		<tag k="fixme" v="consider place=hamlet" />
		<tag k="name" v="Knashaug" />
		<tag k="place" v="farm" />
		<tag k="ssr:stedsnr" v="7192" />
	</node>
	<node id="-39237" lat="60.7231944445" lon="11.8958666719">
		<tag k="alt_name" v="Skårholen" />
		<tag k="name" v="Skåråholen" />
		<tag k="place" v="farm" />
		<tag k="ssr:stedsnr" v="7189" />
	</node>
	<node id="-39233" lat="60.7133638884" lon="11.8910583422">
		<tag k="name" v="Haslund" />
		<tag k="place" v="farm" />
		<tag k="ssr:stedsnr" v="7067" />
	</node>
	<node id="-39232" lat="60.7104138852" lon="11.8968916643">
		<tag k="name" v="Åberg" />
		<tag k="place" v="farm" />
		<tag k="ssr:stedsnr" v="7066" />
	</node>
	<node id="-39231" lat="60.6873277799" lon="11.8990083304">
		<tag k="name" v="Åeng" />
		<tag k="place" v="farm" />
		<tag k="ssr:stedsnr" v="7031" />
	</node>
	<node id="-39230" lat="60.6865944435" lon="11.8819777824">
		<tag k="alt_name" v="Granheim" />
		<tag k="name" v="Granum" />
		<tag k="place" v="farm" />
		<tag k="ssr:stedsnr" v="7029" />
	</node>
	<node id="-39224" lat="60.6245499973" lon="11.9183694532">
		<tag k="name" v="Øyset" />
		<tag k="place" v="farm" />
		<tag k="ssr:stedsnr" v="968454" />
	</node>
	<node id="-39220" lat="60.7419083354" lon="11.871924997">
		<tag k="loc_name" v="Vollmo" />
		<tag k="name" v="Voldmo" />
		<tag k="place" v="farm" />
		<tag k="ssr:stedsnr" v="967428" />
	</node>
	<node id="-39219" lat="60.7330027739" lon="11.8351861177">
		<tag k="name" v="Haugbråten" />
		<tag k="place" v="farm" />
		<tag k="ssr:stedsnr" v="967423" />
	</node>
	<node id="-39218" lat="60.7356638907" lon="11.8685499939">
		<tag k="name" v="Åsermoen" />
		<tag k="place" v="farm" />
		<tag k="ssr:stedsnr" v="967419" />
	</node>
	<node id="-39213" lat="60.6069388847" lon="11.8744999909">
		<tag k="name" v="Sønsterudholtet" />
		<tag k="place" v="farm" />
		<tag k="ssr:stedsnr" v="965077" />
	</node>
	<node id="-39211" lat="60.6775805546" lon="11.7951749926">
		<tag k="name" v="Bergerstua" />
		<tag k="place" v="farm" />
		<tag k="ssr:stedsnr" v="952045" />
	</node>
	<node id="-39210" lat="60.6831777813" lon="11.7967333424">
		<tag k="name" v="Nordstua" />
		<tag k="place" v="farm" />
		<tag k="ssr:stedsnr" v="952026" />
	</node>
	<node id="-39208" lat="60.663986114" lon="11.8397916663">
		<tag k="name" v="Teppa" />
		<tag k="place" v="isolated_dwelling" />
		<tag k="ssr:stedsnr" v="950120" />
	</node>
	<node id="-39203" lat="60.8141194437" lon="11.9730694454">
		<tag k="name" v="Vålervollen" />
		<tag k="place" v="isolated_dwelling" />
		<tag k="ssr:stedsnr" v="919575" />
	</node>
	<node id="-39201" lat="60.8566055536" lon="12.2994749939">
		<tag k="name" v="Bredestua" />
		<tag k="place" v="isolated_dwelling" />
		<tag k="ssr:stedsnr" v="919674" />
	</node>
	<node id="-39200" lat="60.8708555539" lon="12.2578666683">
		<tag k="fixme" v="multiple name tags, choose one and add the other to alt_name" />
		<tag k="name" v="Salongen;Skytterhuset" />
		<tag k="place" v="isolated_dwelling" />
		<tag k="ssr:stedsnr" v="919666" />
	</node>
	<node id="-39197" lat="60.7790527757" lon="11.8300833395">
		<tag k="alt_name" v="Embretstuvollen" />
		<tag k="name" v="Emberstuvollen" />
		<tag k="place" v="isolated_dwelling" />
		<tag k="ssr:stedsnr" v="919311" />
	</node>
	<node id="-39196" lat="60.5983416652" lon="11.8837694371">
		<tag k="name" v="Nordhaug" />
		<tag k="old_name" v="Vordhaug" />
		<tag k="place" v="farm" />
		<tag k="ssr:stedsnr" v="917754" />
	</node>
	<node id="-39195" lat="60.7236305586" lon="11.8334805528">
		<tag k="name" v="Snarhol" />
		<tag k="place" v="hamlet" />
		<tag k="ssr:stedsnr" v="917275" />
	</node>
	<node id="-39194" lat="60.7069333305" lon="11.7491749959">
		<tag k="name" v="Linnerud" />
		<tag k="place" v="farm" />
		<tag k="ssr:stedsnr" v="917222" />
	</node>
	<node id="-39193" lat="60.6791324832" lon="11.7927409925">
		<tag k="fixme" v="consider place=hamlet" />
		<tag k="name" v="Flaten" />
		<tag k="place" v="farm" />
		<tag k="ssr:stedsnr" v="917328" />
	</node>
	<node id="-39192" lat="60.6796944456" lon="11.8322277867">
		<tag k="name" v="Lønnerud" />
		<tag k="place" v="farm" />
		<tag k="ssr:stedsnr" v="917323" />
	</node>
	<node id="-39191" lat="60.6427666626" lon="11.8215444356">
		<tag k="name" v="Mellom" />
		<tag k="place" v="farm" />
		<tag k="ssr:stedsnr" v="917313" />
	</node>
	<node id="-39189" lat="60.639444449" lon="11.8931638803">
		<tag k="name" v="Kulpen" />
		<tag k="place" v="isolated_dwelling" />
		<tag k="ssr:stedsnr" v="917055" />
	</node>
	<node id="-39188" lat="60.7071472239" lon="11.9070583419">
		<tag k="name" v="Åbakken" />
		<tag k="place" v="farm" />
		<tag k="ssr:stedsnr" v="917029" />
	</node>
	<node id="-39187" lat="60.6974944441" lon="11.9094305493">
		<tag k="name" v="Smedbakken" />
		<tag k="place" v="isolated_dwelling" />
		<tag k="ssr:stedsnr" v="917025" />
	</node>
	<node id="-39185" lat="60.7467194435" lon="11.8571166678">
		<tag k="name" v="Nedre Tøråsen" />
		<tag k="place" v="farm" />
		<tag k="ssr:stedsnr" v="907426" />
	</node>
	<node id="-39184" lat="60.7463749997" lon="11.8555444466">
		<tag k="alt_name" v="Østre Tøråsen" />
		<tag k="name" v="Vestre Tøråsen" />
		<tag k="place" v="farm" />
		<tag k="ssr:stedsnr" v="907414" />
	</node>
	<node id="-39183" lat="60.7384666677" lon="11.8439749913">
		<tag k="name" v="Jansrud" />
		<tag k="place" v="farm" />
		<tag k="ssr:stedsnr" v="907412" />
	</node>
	<node id="-39182" lat="60.7370499972" lon="11.8231166678">
		<tag k="name" v="Trondhjem" />
		<tag k="place" v="isolated_dwelling" />
		<tag k="ssr:stedsnr" v="905357" />
	</node>
	<node id="-39178" lat="60.7139861126" lon="11.8324416623">
		<tag k="name" v="Karlsmo" />
		<tag k="place" v="farm" />
		<tag k="ssr:stedsnr" v="892026" />
	</node>
	<node id="-39172" lat="60.7473388856" lon="11.813877769">
		<tag k="name" v="Sjølia" />
		<tag k="place" v="farm" />
		<tag k="ssr:stedsnr" v="859609" />
	</node>
	<node id="-39170" lat="60.7941249987" lon="12.0245138873">
		<tag k="alt_name" v="Fløgen, søndre" />
		<tag k="name" v="Søndre Fløgen" />
		<tag k="place" v="hamlet" />
		<tag k="ssr:stedsnr" v="859460" />
	</node>
	<node id="-39169" lat="60.7858583305" lon="11.9715805476">
		<tag k="alt_name" v="Haukåsbrennkoia" />
		<tag k="name" v="Haukåsbrenna" />
		<tag k="place" v="isolated_dwelling" />
		<tag k="ssr:stedsnr" v="859458" />
	</node>
	<node id="-39166" lat="60.7069785662" lon="11.8737530231">
		<tag k="name" v="Stræte" />
		<tag k="place" v="hamlet" />
		<tag k="ssr:stedsnr" v="858963" />
	</node>
	<node id="-39165" lat="60.6385583333" lon="11.8123749956">
		<tag k="name" v="Holtet" />
		<tag k="place" v="farm" />
		<tag k="ssr:stedsnr" v="857359" />
	</node>
	<node id="-39164" lat="60.6372556562" lon="11.8201200797">
		<tag k="fixme" v="consider place=hamlet" />
		<tag k="name" v="Mangerud" />
		<tag k="place" v="farm" />
		<tag k="ssr:stedsnr" v="857353" />
	</node>
	<node id="-39161" lat="60.7084611123" lon="11.8724972252">
		<tag k="name" v="Stræte" />
		<tag k="place" v="hamlet" />
		<tag k="ssr:stedsnr" v="857053" />
	</node>
	<node id="-39160" lat="60.7152833301" lon="11.8320444432">
		<tag k="alt_name" v="Søndre Gisti" />
		<tag k="name" v="Gisti" />
		<tag k="place" v="farm" />
		<tag k="ssr:stedsnr" v="857317" />
	</node>
	<node id="-39159" lat="60.7306222182" lon="11.6769583359">
		<tag k="alt_name" v="Hækkelfjell" />
		<tag k="name" v="Hekkelfjell" />
		<tag k="place" v="isolated_dwelling" />
		<tag k="ssr:stedsnr" v="857306" />
	</node>
	<node id="-39158" lat="60.6439611142" lon="11.8515277741">
		<tag k="name" v="Ormsetenga" />
		<tag k="place" v="farm" />
		<tag k="ssr:stedsnr" v="856066" />
	</node>
	<node id="-39156" lat="60.7570861156" lon="11.8773666645">
		<tag k="name" v="Kråkhaugen" />
		<tag k="place" v="farm" />
		<tag k="ssr:stedsnr" v="844322" />
	</node>
	<node id="-39153" lat="60.8625055558" lon="12.0457583393">
		<tag k="name" v="Nyborg" />
		<tag k="place" v="farm" />
		<tag k="ssr:stedsnr" v="931575" />
	</node>
	<node id="-39150" lat="60.8383999999" lon="12.0508638921">
		<tag k="name" v="Myrli" />
		<tag k="place" v="farm" />
		<tag k="ssr:stedsnr" v="798578" />
	</node>
	<node id="-39145" lat="60.7809166656" lon="11.8382472149">
		<tag k="name" v="Skipperstøvollen" />
		<tag k="place" v="isolated_dwelling" />
		<tag k="ssr:stedsnr" v="798604" />
	</node>
	<node id="-39143" lat="60.9071164812" lon="12.0012110836">
		<tag k="name" v="Åsen" />
		<tag k="place" v="locality" />
		<tag k="ssr:stedsnr" v="798415" />
	</node>
	<node id="-39141" lat="60.9922833346" lon="12.1962250073">
		<tag k="name" v="Bekkedamkoia" />
		<tag k="place" v="locality" />
		<tag k="ssr:stedsnr" v="798356" />
	</node>
	<node id="-39139" lat="60.6889194465" lon="11.8822250055">
		<tag k="name" v="Solheim" />
		<tag k="place" v="farm" />
		<tag k="ssr:stedsnr" v="796020" />
	</node>
	<node id="-39136" lat="60.6487722213" lon="11.6559361164">
		<tag k="name" v="Svarttjernskoia" />
		<tag k="place" v="isolated_dwelling" />
		<tag k="ssr:stedsnr" v="786228" />
	</node>
	<node id="-39134" lat="60.7761277738" lon="12.0221750056">
		<tag k="alt_name" v="Skarderudsætrene" />
		<tag k="name" v="Skarderudsætra" />
		<tag k="place" v="hamlet" />
		<tag k="ssr:stedsnr" v="920538" />
	</node>
	<node id="-39128" lat="60.819220651" lon="12.0629547655">
		<tag k="fixme" v="consider place=hamlet" />
		<tag k="name" v="Bølla" />
		<tag k="place" v="farm" />
		<tag k="ssr:stedsnr" v="919578" />
	</node>
	<node id="-39127" lat="60.7822472255" lon="11.9007972208">
		<tag k="name" v="Hanskoia" />
		<tag k="place" v="isolated_dwelling" />
		<tag k="ssr:stedsnr" v="919499" />
	</node>
	<node id="-39126" lat="60.9582138876" lon="12.1754805567">
		<tag k="name" v="Blåsut" />
		<tag k="place" v="isolated_dwelling" />
		<tag k="ssr:stedsnr" v="919478" />
	</node>
	<node id="-39123" lat="60.6416027813" lon="11.9281388849">
		<tag k="name" v="Nordrud" />
		<tag k="place" v="farm" />
		<tag k="ssr:stedsnr" v="917843" />
	</node>
	<node id="-39122" lat="60.7440749995" lon="11.7606111056">
		<tag k="name" v="Sormbråten" />
		<tag k="place" v="farm" />
		<tag k="ssr:stedsnr" v="917435" />
	</node>
	<node id="-39121" lat="60.7433194404" lon="11.7432416642">
		<tag k="name" v="Elsrud" />
		<tag k="place" v="farm" />
		<tag k="ssr:stedsnr" v="917434" />
	</node>
	<node id="-39118" lat="60.6842666642" lon="11.708886114">
		<tag k="name" v="Sjuerkoia" />
		<tag k="place" v="isolated_dwelling" />
		<tag k="ssr:stedsnr" v="917334" />
	</node>
	<node id="-39116" lat="60.6527388901" lon="11.6980888907">
		<tag k="name" v="Rudsætra" />
		<tag k="place" v="hamlet" />
		<tag k="ssr:stedsnr" v="917289" />
	</node>
	<node id="-39115" lat="60.72402222" lon="11.6440083383">
		<tag k="name" v="Kølkoia" />
		<tag k="place" v="isolated_dwelling" />
		<tag k="ssr:stedsnr" v="917247" />
	</node>
	<node id="-39114" lat="60.6860404032" lon="11.8301143757">
		<tag k="fixme" v="consider place=hamlet" />
		<tag k="name" v="Langbakken" />
		<tag k="place" v="farm" />
		<tag k="ssr:stedsnr" v="917240" />
	</node>
	<node id="-39113" lat="60.6939111131" lon="11.6874138929">
		<tag k="alt_name" v="Venstadsætra" />
		<tag k="historic" v="shieling" />
		<tag k="name" v="Venstadvollen" />
		<tag k="place" v="locality" />
		<tag k="ssr:stedsnr" v="917234" />
	</node>
	<node id="-39111" lat="60.616727781" lon="11.735800006">
		<tag k="historic" v="shieling" />
		<tag k="name" v="Nysætra" />
		<tag k="place" v="locality" />
		<tag k="ssr:stedsnr" v="917142" />
	</node>
	<node id="-39110" lat="60.6719888919" lon="11.84703055">
		<tag k="name" v="Rivenes" />
		<tag k="place" v="farm" />
		<tag k="ssr:stedsnr" v="917101" />
	</node>
	<node id="-39109" lat="60.6686138885" lon="11.848394443">
		<tag k="name" v="Skogli" />
		<tag k="place" v="farm" />
		<tag k="ssr:stedsnr" v="917100" />
	</node>
	<node id="-39104" lat="60.6411305563" lon="11.812972214">
		<tag k="name" v="Myrer" />
		<tag k="place" v="isolated_dwelling" />
		<tag k="ssr:stedsnr" v="768119" />
	</node>
	<node id="-39103" lat="60.6651722247" lon="11.8383694428">
		<tag k="name" v="Heia Hotell" />
		<tag k="ssr:stedsnr" v="768104" />
		<tag k="tourism" v="hotel" />
	</node>
	<node id="-39101" lat="60.8176555583" lon="12.0664972164">
		<tag k="name" v="Søndre Bølla" />
		<tag k="place" v="isolated_dwelling" />
		<tag k="ssr:stedsnr" v="908763" />
	</node>
	<node id="-39100" lat="60.7095750039" lon="11.9344583276">
		<tag k="name" v="Nilsrud" />
		<tag k="place" v="farm" />
		<tag k="ssr:stedsnr" v="908496" />
	</node>
	<node id="-39099" lat="60.7037722239" lon="11.9058722169">
		<tag k="name" v="Åvang" />
		<tag k="place" v="farm" />
		<tag k="ssr:stedsnr" v="908491" />
	</node>
	<node id="-39091" lat="60.8669083309" lon="12.05229445">
		<tag k="name" v="Solbakken" />
		<tag k="place" v="isolated_dwelling" />
		<tag k="ssr:stedsnr" v="906379" />
	</node>
	<node id="-39090" lat="60.8116222228" lon="11.9738277717">
		<tag k="name" v="Trosterudsvollen" />
		<tag k="place" v="isolated_dwelling" />
		<tag k="ssr:stedsnr" v="905747" />
	</node>
	<node id="-39088" lat="60.7551916694" lon="11.8816083389">
		<tag k="name" v="Nordgården" />
		<tag k="place" v="isolated_dwelling" />
		<tag k="ssr:stedsnr" v="905331" />
	</node>
	<node id="-39083" lat="60.6898083301" lon="11.6961694375">
		<tag k="name" v="Einarstuvollen" />
		<tag k="place" v="isolated_dwelling" />
		<tag k="ssr:stedsnr" v="726159" />
	</node>
	<node id="-39077" lat="60.7071583289" lon="11.800797225">
		<tag k="name" v="Nordre Vålengbakken" />
		<tag k="place" v="farm" />
		<tag k="ssr:stedsnr" v="719215" />
	</node>
	<node id="-39076" lat="60.8576444447" lon="12.0531305614">
		<tag k="name" v="Finnbråten" />
		<tag k="place" v="locality" />
		<tag k="ssr:stedsnr" v="709363" />
	</node>
	<node id="-39074" lat="60.6461749962" lon="11.8335611087">
		<tag k="name" v="Glomvik" />
		<tag k="place" v="farm" />
		<tag k="ssr:stedsnr" v="708145" />
	</node>
	<node id="-39073" lat="60.6408916696" lon="11.81151945">
		<tag k="name" v="Holtrydningen" />
		<tag k="place" v="farm" />
		<tag k="ssr:stedsnr" v="708144" />
	</node>
	<node id="-39072" lat="60.6409111118" lon="11.802291658">
		<tag k="name" v="Osrønningen" />
		<tag k="place" v="isolated_dwelling" />
		<tag k="ssr:stedsnr" v="708141" />
	</node>
	<node id="-39070" lat="60.6555416676" lon="11.8100583284">
		<tag k="name" v="Vestad" />
		<tag k="place" v="farm" />
		<tag k="ssr:stedsnr" v="707122" />
	</node>
	<node id="-39068" lat="60.7051361112" lon="11.7351083334">
		<tag k="name" v="Gaukholkoia" />
		<tag k="place" v="locality" />
		<tag k="ssr:stedsnr" v="892192" />
	</node>
	<node id="-39067" lat="60.7041111075" lon="11.8316055552">
		<tag k="name" v="Rokkerud" />
		<tag k="place" v="farm" />
		<tag k="ssr:stedsnr" v="892061" />
	</node>
	<node id="-39057" lat="60.7295527767" lon="11.8114777826">
		<tag k="name" v="Kverngården" />
		<tag k="place" v="farm" />
		<tag k="ssr:stedsnr" v="891057" />
	</node>
	<node id="-39056" lat="60.7274083352" lon="11.7799583361">
		<tag k="name" v="Skipperstøa" />
		<tag k="place" v="farm" />
		<tag k="ssr:stedsnr" v="891055" />
	</node>
	<node id="-39055" lat="60.6807027796" lon="11.7783694521">
		<tag k="name" v="Rismo" />
		<tag k="place" v="farm" />
		<tag k="ssr:stedsnr" v="891035" />
	</node>
	<node id="-39054" lat="60.695138891" lon="11.8861666658">
		<tag k="name" v="Solstad" />
		<tag k="place" v="farm" />
		<tag k="ssr:stedsnr" v="891009" />
	</node>
	<node id="-39053" lat="60.6484666703" lon="11.853861109">
		<tag k="name" v="Eidsmoen" />
		<tag k="place" v="farm" />
		<tag k="ssr:stedsnr" v="890110" />
	</node>
	<node id="-39052" lat="60.6585694484" lon="11.8413777712">
		<tag k="name" v="Tajet" />
		<tag k="place" v="farm" />
		<tag k="ssr:stedsnr" v="890105" />
	</node>
	<node id="-39051" lat="60.6523999993" lon="11.8587166726">
		<tag k="name" v="Storskjæret" />
		<tag k="place" v="isolated_dwelling" />
		<tag k="ssr:stedsnr" v="890104" />
	</node>
	<node id="-39050" lat="60.6659055598" lon="11.8344972309">
		<tag k="amenity" v="nursing_home" />
		<tag k="name" v="Våler omsorgssenter" />
		<tag k="old_name" v="Våler Alders- og Sykehjem" />
		<tag k="ssr:stedsnr" v="890103" />
	</node>
	<node id="-39049" lat="60.7366666632" lon="11.742077781">
		<tag k="name" v="Myrvang" />
		<tag k="place" v="farm" />
		<tag k="ssr:stedsnr" v="889297" />
	</node>
	<node id="-39048" lat="60.6070944413" lon="11.7040833388">
		<tag k="historic" v="shieling" />
		<tag k="name" v="Holtersætra" />
		<tag k="place" v="locality" />
		<tag k="ssr:stedsnr" v="889245" />
	</node>
	<node id="-39044" lat="60.8845277808" lon="12.2256472208">
		<tag k="name" v="Gravbergsgården" />
		<tag k="place" v="farm" />
		<tag k="ssr:stedsnr" v="676714" />
	</node>
	<node id="-39042" lat="60.8435277748" lon="12.0311638877">
		<tag k="alt_name" v="Rostillet" />
		<tag k="name" v="Rostille" />
		<tag k="place" v="isolated_dwelling" />
		<tag k="ssr:stedsnr" v="676617" />
	</node>
	<node id="-39038" lat="60.7008527794" lon="11.772566662">
		<tag k="name" v="Vesterberg" />
		<tag k="place" v="farm" />
		<tag k="ssr:stedsnr" v="675312" />
	</node>
	<node id="-39035" lat="60.628425" lon="11.8605055523">
		<tag k="name" v="Einarsrud" />
		<tag k="place" v="farm" />
		<tag k="ssr:stedsnr" v="674820" />
	</node>
	<node id="-39034" lat="60.7337694443" lon="11.7323638895">
		<tag k="name" v="Nordli" />
		<tag k="place" v="farm" />
		<tag k="ssr:stedsnr" v="674278" />
	</node>
	<node id="-39033" lat="60.7006944474" lon="11.7969277741">
		<tag k="name" v="Hagan" />
		<tag k="old_name" v="Fosseid" />
		<tag k="place" v="isolated_dwelling" />
		<tag k="ssr:stedsnr" v="674265" />
	</node>
	<node id="-39032" lat="60.6897194447" lon="11.802372221">
		<tag k="name" v="Venstad" />
		<tag k="place" v="farm" />
		<tag k="ssr:stedsnr" v="674259" />
	</node>
	<node id="-39030" lat="60.7335531483" lon="11.8592151404">
		<tag k="fixme" v="consider place=hamlet" />
		<tag k="name" v="Norderud" />
		<tag k="place" v="farm" />
		<tag k="ssr:stedsnr" v="674210" />
	</node>
	<node id="-39028" lat="60.6585277752" lon="11.8003388903">
		<tag k="name" v="Velta" />
		<tag k="place" v="farm" />
		<tag k="ssr:stedsnr" v="674305" />
	</node>
	<node id="-39026" lat="60.8546166691" lon="12.3077194368">
		<tag k="fixme" v="consider tourism=alpine_hut or tourism=chalet" />
		<tag k="name" v="Haldammen" />
		<tag k="ssr:stedsnr" v="664915" />
		<tag k="tourism" v="wilderness_hut" />
	</node>
	<node id="-39025" lat="60.7534527824" lon="11.8708916619">
		<tag k="name" v="Bakken" />
		<tag k="place" v="isolated_dwelling" />
		<tag k="ssr:stedsnr" v="664454" />
	</node>
	<node id="-39017" lat="60.6059500018" lon="11.8746833421">
		<tag k="name" v="Sønsteby" />
		<tag k="place" v="farm" />
		<tag k="ssr:stedsnr" v="735844" />
	</node>
	<node id="-39016" lat="60.6354570856" lon="11.8719459408">
		<tag k="fixme" v="consider place=hamlet" />
		<tag k="name" v="Svenneby" />
		<tag k="place" v="farm" />
		<tag k="ssr:stedsnr" v="735819" />
	</node>
	<node id="-39015" lat="60.740050003" lon="11.768211106">
		<tag k="alt_name" v="Stinstøa" />
		<tag k="name" v="Stenstøen" />
		<tag k="place" v="farm" />
		<tag k="ssr:stedsnr" v="735448" />
	</node>
	<node id="-39014" lat="60.7425833334" lon="11.7266083424">
		<tag k="name" v="Nordvi" />
		<tag k="place" v="isolated_dwelling" />
		<tag k="ssr:stedsnr" v="735447" />
	</node>
	<node id="-39012" lat="60.7467111129" lon="11.8401527806">
		<tag k="name" v="Evje" />
		<tag k="place" v="farm" />
		<tag k="ssr:stedsnr" v="735426" />
	</node>
	<node id="-39011" lat="60.6712342733" lon="11.8346121942">
		<tag k="fixme" v="multiple name tags, choose one and add the other to alt_name" />
		<tag k="name" v="Vålbyen;Våler" />
		<tag k="place" v="village" />
		<tag k="ssr:stedsnr" v="735368" />
	</node>
	<node id="-39010" lat="60.6758083349" lon="11.7899194506">
		<tag k="alt_name" v="Vest-Rønningen" />
		<tag k="name" v="Rønningen" />
		<tag k="place" v="farm" />
		<tag k="ssr:stedsnr" v="735351" />
	</node>
	<node id="-39009" lat="60.6385194479" lon="11.66017222">
		<tag k="name" v="Tolverkoia" />
		<tag k="place" v="isolated_dwelling" />
		<tag k="ssr:stedsnr" v="735346" />
	</node>
	<node id="-39008" lat="60.6260638868" lon="11.6798500002">
		<tag k="name" v="Svennebysætra" />
		<tag k="place" v="hamlet" />
		<tag k="ssr:stedsnr" v="735337" />
	</node>
	<node id="-39007" lat="60.651582615" lon="11.7990682011">
		<tag k="fixme" v="consider place=hamlet" />
		<tag k="name" v="Gunnarsrud" />
		<tag k="place" v="farm" />
		<tag k="ssr:stedsnr" v="735331" />
	</node>
	<node id="-39006" lat="60.6370888884" lon="11.8060861063">
		<tag k="name" v="Åsen" />
		<tag k="place" v="farm" />
		<tag k="ssr:stedsnr" v="735321" />
	</node>
	<node id="-39005" lat="60.7164722232" lon="11.8238055473">
		<tag k="alt_name" v="Løkjamoen" />
		<tag k="name" v="Løkkjamoen" />
		<tag k="place" v="farm" />
		<tag k="ssr:stedsnr" v="735294" />
	</node>
	<node id="-39004" lat="60.6929027781" lon="11.8127111061">
		<tag k="alt_name" v="Nordre Brenna" />
		<tag k="name" v="Brenna" />
		<tag k="place" v="farm" />
		<tag k="ssr:stedsnr" v="735268" />
	</node>
	<node id="-39003" lat="60.7058222188" lon="11.7164638921">
		<tag k="historic" v="shieling" />
		<tag k="name" v="Knappsætra" />
		<tag k="place" v="locality" />
		<tag k="ssr:stedsnr" v="735250" />
	</node>
	<node id="-39002" lat="60.7452666702" lon="11.8842583313">
		<tag k="name" v="Holen" />
		<tag k="place" v="farm" />
		<tag k="ssr:stedsnr" v="735216" />
	</node>
	<node id="-39001" lat="60.738411109" lon="11.8674749987">
		<tag k="name" v="Mobekk" />
		<tag k="place" v="farm" />
		<tag k="ssr:stedsnr" v="735215" />
	</node>
	<node id="-39000" lat="60.7437888868" lon="11.862019442">
		<tag k="name" v="Eide" />
		<tag k="place" v="farm" />
		<tag k="ssr:stedsnr" v="735212" />
	</node>
	<node id="-38999" lat="60.7253416705" lon="11.8664416725">
		<tag k="alt_name" v="Søndre Mortensrud" />
		<tag k="name" v="Mortensrud" />
		<tag k="place" v="farm" />
		<tag k="ssr:stedsnr" v="735188" />
	</node>
	<node id="-38997" lat="60.6019222181" lon="11.7400472301">
		<tag k="alt_name" v="Tørnebysætra" />
		<tag k="name" v="Tårnebysætra" />
		<tag k="place" v="hamlet" />
		<tag k="ssr:stedsnr" v="735149" />
	</node>
	<node id="-38994" lat="60.7112470265" lon="11.9242552649">
		<tag k="fixme" v="consider place=hamlet" />
		<tag k="name" v="Eriksmoen" />
		<tag k="place" v="farm" />
		<tag k="ssr:stedsnr" v="735052" />
	</node>
	<node id="-38993" lat="60.7041472206" lon="11.874330563">
		<tag k="name" v="Strætmoen" />
		<tag k="place" v="farm" />
		<tag k="ssr:stedsnr" v="735035" />
	</node>
	<node id="-38992" lat="60.7008805584" lon="11.8803249981">
		<tag k="name" v="Oppheim" />
		<tag k="place" v="farm" />
		<tag k="ssr:stedsnr" v="735033" />
	</node>
	<node id="-38991" lat="60.702711115" lon="11.8647750072">
		<tag k="name" v="Strætgrinda" />
		<tag k="place" v="farm" />
		<tag k="ssr:stedsnr" v="648066" />
	</node>
	<node id="-38990" lat="60.7030527795" lon="11.7852000064">
		<tag k="name" v="Fossberget" />
		<tag k="place" v="farm" />
		<tag k="ssr:stedsnr" v="648060" />
	</node>
	<node id="-38988" lat="60.7142944422" lon="11.7844361166">
		<tag k="name" v="Støa" />
		<tag k="ssr:stedsnr" v="647077" />
		<tag k="tourism" v="camp_site" />
	</node>
	<node id="-38987" lat="60.7133750012" lon="11.7851583281">
		<tag k="name" v="Søndre Støa" />
		<tag k="place" v="farm" />
		<tag k="ssr:stedsnr" v="647072" />
	</node>
	<node id="-38986" lat="60.7114666671" lon="11.8014694385">
		<tag k="amenity" v="school" />
		<tag k="name" v="Våler videregående skole" />
		<tag k="ssr:stedsnr" v="647068" />
	</node>
	<node id="-38982" lat="60.6414805543" lon="11.8204972274">
		<tag k="name" v="Sagbakken" />
		<tag k="place" v="isolated_dwelling" />
		<tag k="ssr:stedsnr" v="646109" />
	</node>
	<node id="-38980" lat="60.6999694441" lon="11.8912861022">
		<tag k="name" v="Talhaugen" />
		<tag k="place" v="isolated_dwelling" />
		<tag k="ssr:stedsnr" v="726473" />
	</node>
	<node id="-38979" lat="60.6992861139" lon="11.8933666707">
		<tag k="name" v="Hammerbakken" />
		<tag k="place" v="farm" />
		<tag k="ssr:stedsnr" v="726471" />
	</node>
	<node id="-38978" lat="60.6987999978" lon="11.9160527721">
		<tag k="name" v="Smestad" />
		<tag k="place" v="isolated_dwelling" />
		<tag k="ssr:stedsnr" v="726469" />
	</node>
	<node id="-38966" lat="60.7393583354" lon="11.8040916625">
		<tag k="name" v="Øverbyhagen" />
		<tag k="place" v="locality" />
		<tag k="ssr:stedsnr" v="722494" />
	</node>
	<node id="-38962" lat="60.8502250024" lon="12.1746166737">
		<tag k="name" v="Villaen" />
		<tag k="place" v="isolated_dwelling" />
		<tag k="ssr:stedsnr" v="722269" />
	</node>
	<node id="-38960" lat="60.8847833366" lon="12.223172226">
		<tag k="name" v="Nedgården" />
		<tag k="place" v="farm" />
		<tag k="ssr:stedsnr" v="722142" />
	</node>
	<node id="-38959" lat="60.8592194442" lon="11.9815055494">
		<tag k="name" v="Stenmyrkoia" />
		<tag k="place" v="isolated_dwelling" />
		<tag k="ssr:stedsnr" v="616568" />
	</node>
	<node id="-38958" lat="60.8596027788" lon="12.1479944431">
		<tag k="name" v="Åtterkoia" />
		<tag k="place" v="isolated_dwelling" />
		<tag k="ssr:stedsnr" v="616555" />
	</node>
	<node id="-38956" lat="60.7540611076" lon="11.7630999971">
		<tag k="name" v="Sormbrua" />
		<tag k="place" v="farm" />
		<tag k="ssr:stedsnr" v="616417" />
	</node>
	<node id="-38955" lat="60.6355700271" lon="11.8568286815">
		<tag k="fixme" v="consider place=hamlet" />
		<tag k="name" v="Halvorset" />
		<tag k="place" v="farm" />
		<tag k="ssr:stedsnr" v="613829" />
	</node>
	<node id="-38948" lat="60.9118166708" lon="12.0011750094">
		<tag k="name" v="Åsgård" />
		<tag k="place" v="isolated_dwelling" />
		<tag k="ssr:stedsnr" v="604955" />
	</node>
	<node id="-38945" lat="60.8622722244" lon="12.0476972139">
		<tag k="name" v="Finnetunet" />
		<tag k="place" v="isolated_dwelling" />
		<tag k="ssr:stedsnr" v="602389" />
	</node>
	<node id="-38944" lat="60.8678027752" lon="12.0479527822">
		<tag k="name" v="Nordby" />
		<tag k="place" v="isolated_dwelling" />
		<tag k="ssr:stedsnr" v="602384" />
	</node>
	<node id="-38929" lat="60.7460805522" lon="11.7414694385">
		<tag k="name" v="Nordre Næverholtet" />
		<tag k="place" v="farm" />
		<tag k="ssr:stedsnr" v="710744" />
	</node>
	<node id="-38927" lat="60.6339527816" lon="11.8482111145">
		<tag k="name" v="Bergesiden" />
		<tag k="place" v="hamlet" />
		<tag k="ssr:stedsnr" v="586117" />
	</node>
	<node id="-38926" lat="60.6427027802" lon="11.8161500006">
		<tag k="name" v="Salhaugen" />
		<tag k="place" v="locality" />
		<tag k="ssr:stedsnr" v="586109" />
	</node>
	<node id="-38925" lat="60.6464527765" lon="11.8228055539">
		<tag k="name" v="Austad" />
		<tag k="place" v="farm" />
		<tag k="ssr:stedsnr" v="586103" />
	</node>
	<node id="-38923" lat="60.631927779" lon="11.8403638962">
		<tag k="name" v="Kongsrud" />
		<tag k="place" v="farm" />
		<tag k="ssr:stedsnr" v="585521" />
	</node>
	<node id="-38919" lat="60.7310944458" lon="11.7335805504">
		<tag k="name" v="Oppstua" />
		<tag k="place" v="farm" />
		<tag k="ssr:stedsnr" v="709211" />
	</node>
	<node id="-38916" lat="60.6929861121" lon="11.8003749976">
		<tag k="leisure" v="pitch" />
		<tag k="name" v="Gjerdrumsbakken" />
		<tag k="ssr:stedsnr" v="709072" />
	</node>
	<node id="-38915" lat="60.7017111112" lon="11.8840611094">
		<tag k="name" v="Olsrud" />
		<tag k="place" v="farm" />
		<tag k="ssr:stedsnr" v="709066" />
	</node>
	<node id="-38914" lat="60.7228055556" lon="11.8406416687">
		<tag k="name" v="Plassen" />
		<tag k="place" v="farm" />
		<tag k="ssr:stedsnr" v="709041" />
	</node>
	<node id="-38913" lat="60.7229277793" lon="11.8335194521">
		<tag k="name" v="Arstua" />
		<tag k="place" v="farm" />
		<tag k="ssr:stedsnr" v="709039" />
	</node>
</osm>
