<?xml version="1.0" encoding="UTF-8"?>
<osm version="0.6" generator="osmapis">
	<node lat="60.71980555549149" lon="11.661780548229583" id="-18717">
		<tag k="name" v="Aurtjernet" />
		<tag k="natural" v="water" />
		<tag k="ssr:stedsnr" v="7310" />
	</node>
	<node lat="60.84645833143679" lon="12.026916657470995" id="-18724">
		<tag k="name" v="Storbekken" />
		<tag k="ssr:stedsnr" v="9617" />
		<tag k="waterway" v="stream" />
	</node>
	<node lat="60.787519447705016" lon="12.020949991819297" id="-18725">
		<tag k="name" v="Søndre Fløgen" />
		<tag k="natural" v="water" />
		<tag k="ssr:stedsnr" v="9509" />
		<tag k="water" v="lake" />
	</node>
	<node lat="60.93550000176417" lon="12.279111114097121" id="-18728">
		<tag k="alt_name" v="Åbortjernet" />
		<tag k="name" v="Abbortjernet" />
		<tag k="natural" v="water" />
		<tag k="ssr:stedsnr" v="9712" />
	</node>
	<node lat="60.91030000214767" lon="12.230405558033281" id="-18730">
		<tag k="name" v="Fiskelaustjernet" />
		<tag k="natural" v="water" />
		<tag k="ssr:stedsnr" v="9715" />
	</node>
	<node lat="60.8629861152839" lon="12.284975001478033" id="-18732">
		<tag k="name" v="Slettmotjernet" />
		<tag k="natural" v="water" />
		<tag k="ssr:stedsnr" v="9698" />
	</node>
	<node lat="60.87541110744236" lon="12.21819999143476" id="-18741">
		<tag k="name" v="Bjørnskallebekken" />
		<tag k="ssr:stedsnr" v="237259" />
		<tag k="waterway" v="stream" />
	</node>
	<node lat="60.97612777765499" lon="12.204663896042016" id="-18751">
		<tag k="name" v="Jørnfossen" />
		<tag k="natural" v="waterfall" />
		<tag k="ssr:stedsnr" v="239402" />
	</node>
	<node lat="60.874086109116206" lon="12.103838883995671" id="-18752">
		<tag k="name" v="Maurtjernsbekken" />
		<tag k="ssr:stedsnr" v="239346" />
		<tag k="waterway" v="stream" />
	</node>
	<node lat="60.87001388897023" lon="12.085794437452984" id="-18753">
		<tag k="name" v="Gjeddtjernet" />
		<tag k="natural" v="water" />
		<tag k="ssr:stedsnr" v="239352" />
	</node>
	<node lat="60.87758611455797" lon="12.046875000068217" id="-18754">
		<tag k="name" v="Kjeldmyrkjella" />
		<tag k="natural" v="spring" />
		<tag k="ssr:stedsnr" v="239360" />
	</node>
	<node lat="60.64445000425227" lon="11.658022214794535" id="-18755">
		<tag k="name" v="Svarttjernet" />
		<tag k="natural" v="water" />
		<tag k="ssr:stedsnr" v="240255" />
	</node>
	<node lat="60.76589166453139" lon="11.89491388589972" id="-18756">
		<tag k="name" v="Sølvbekken" />
		<tag k="ssr:stedsnr" v="55319" />
		<tag k="waterway" v="stream" />
	</node>
	<node lat="60.970869445170635" lon="12.250941668391949" id="-18761">
		<tag k="name" v="Krokfossen" />
		<tag k="natural" v="waterfall" />
		<tag k="ssr:stedsnr" v="57422" />
	</node>
	<node lat="61.0090055593179" lon="12.223100006621461" id="-18762">
		<tag k="name" v="Stortjernet" />
		<tag k="natural" v="water" />
		<tag k="ssr:stedsnr" v="57425" />
	</node>
	<node lat="60.69440278118202" lon="11.76411111045926" id="-18770">
		<tag k="alt_name" v="Store Igletjenn" />
		<tag k="name" v="Igletjernet" />
		<tag k="natural" v="water" />
		<tag k="ssr:stedsnr" v="67300" />
	</node>
	<node lat="60.633816665010606" lon="11.702202770145993" id="-18772">
		<tag k="name" v="Snaråa" />
		<tag k="ssr:stedsnr" v="68349" />
		<tag k="waterway" v="stream" />
	</node>
	<node lat="61.03743888830017" lon="12.11386388416621" id="-18777">
		<tag k="name" v="Bjørnbekken" />
		<tag k="ssr:stedsnr" v="68897" />
		<tag k="waterway" v="stream" />
	</node>
	<node lat="60.924624997268104" lon="12.277069452688991" id="-18778">
		<tag k="name" v="Furubekken" />
		<tag k="ssr:stedsnr" v="69741" />
		<tag k="waterway" v="stream" />
	</node>
	<node lat="60.791250000827624" lon="11.879502770907097" id="-18779">
		<tag k="name" v="Tostenbekken" />
		<tag k="ssr:stedsnr" v="70486" />
		<tag k="waterway" v="stream" />
	</node>
	<node lat="60.7929388909969" lon="12.193900006239895" id="-18780">
		<tag k="name" v="Gjerda" />
		<tag k="ssr:stedsnr" v="70630" />
		<tag k="waterway" v="river" />
	</node>
	<node lat="60.74172499865062" lon="11.911613888319325" id="-18786">
		<tag k="name" v="Lilleåsbekken" />
		<tag k="ssr:stedsnr" v="100326" />
		<tag k="waterway" v="stream" />
	</node>
	<node lat="60.861116670439024" lon="12.30160832642686" id="-18792">
		<tag k="name" v="Berulvodden" />
		<tag k="natural" v="cape" />
		<tag k="ssr:stedsnr" v="101423" />
	</node>
	<node lat="60.85724166591107" lon="12.033841663419969" id="-18796">
		<tag k="name" v="Kvernbekken" />
		<tag k="ssr:stedsnr" v="102989" />
		<tag k="waterway" v="stream" />
	</node>
	<node lat="60.59686666979139" lon="11.786727778286838" id="-18797">
		<tag k="name" v="Lomtjernet" />
		<tag k="natural" v="water" />
		<tag k="ssr:stedsnr" v="103096" />
	</node>
	<node lat="60.592183336791244" lon="11.773355561415427" id="-18799">
		<tag k="name" v="Vålmangen" />
		<tag k="natural" v="water" />
		<tag k="ssr:stedsnr" v="249156" />
		<tag k="water" v="lake" />
	</node>
	<node lat="60.60670833741559" lon="11.774466659976907" id="-18800">
		<tag k="alt_name" v="Finnbytjernet;Finnbutjennet" />
		<tag k="name" v="Finnbutjernet" />
		<tag k="natural" v="water" />
		<tag k="ssr:stedsnr" v="249171" />
	</node>
	<node lat="60.60755555402047" lon="11.820583325487613" id="-18801">
		<tag k="name" v="Vestsjøen" />
		<tag k="natural" v="water" />
		<tag k="ssr:stedsnr" v="249173" />
		<tag k="water" v="lake" />
	</node>
	<node lat="60.576143850284275" lon="11.709327073894883" id="-18802">
		<tag k="name" v="Tvillingtjerna" />
		<tag k="natural" v="water" />
		<tag k="ssr:stedsnr" v="249143" />
		<tag k="water" v="lake" />
	</node>
	<node lat="60.72138610811874" lon="11.63005833815554" id="-18815">
		<tag k="name" v="Grautodden" />
		<tag k="natural" v="cape" />
		<tag k="ssr:stedsnr" v="250309" />
	</node>
	<node lat="60.64425833071531" lon="11.744808329160351" id="-18816">
		<tag k="name" v="Smørøyet" />
		<tag k="natural" v="water" />
		<tag k="ssr:stedsnr" v="250316" />
	</node>
	<node lat="60.74011388960797" lon="11.631122213195795" id="-18819">
		<tag k="name" v="Bergsvikholmen" />
		<tag k="natural" v="cape" />
		<tag k="ssr:stedsnr" v="116378" />
	</node>
	<node lat="60.980147226449276" lon="12.183347215798065" id="-18820">
		<tag k="name" v="Steindammen" />
		<tag k="ssr:stedsnr" v="117438" />
		<tag k="waterway" v="dam" />
	</node>
	<node lat="60.647849996980625" lon="11.716602777890573" id="-18824">
		<tag k="name" v="Sautjernet" />
		<tag k="natural" v="water" />
		<tag k="ssr:stedsnr" v="119233" />
	</node>
	<node lat="60.82890000449635" lon="12.08230833394274" id="-18826">
		<tag k="name" v="Bølåa" />
		<tag k="ssr:stedsnr" v="251630" />
		<tag k="waterway" v="river" />
	</node>
	<node lat="60.70708889211349" lon="11.663919441709481" id="-18833">
		<tag k="name" v="Bjørntjernet" />
		<tag k="natural" v="water" />
		<tag k="ssr:stedsnr" v="128234" />
	</node>
	<node lat="60.64218611123865" lon="11.678663883443681" id="-18836">
		<tag k="name" v="Hesteskotjernet" />
		<tag k="natural" v="water" />
		<tag k="ssr:stedsnr" v="128286" />
	</node>
	<node lat="60.754051092436626" lon="11.828905177879612" id="-18838">
		<tag k="name" v="Abbortjennet" />
		<tag k="natural" v="water" />
		<tag k="ssr:stedsnr" v="252394" />
	</node>
	<node lat="60.970711113285454" lon="12.028455553485863" id="-18840">
		<tag k="name" v="Ulvåa" />
		<tag k="old_name" v="Ulvåa, store" />
		<tag k="ssr:stedsnr" v="252369" />
		<tag k="waterway" v="river" />
	</node>
	<node lat="60.79645000312607" lon="11.867341664751354" id="-18846">
		<tag k="name" v="Bjua" />
		<tag k="ssr:stedsnr" v="252460" />
		<tag k="waterway" v="stream" />
	</node>
	<node lat="60.862136111587155" lon="11.958305563499117" id="-18849">
		<tag k="name" v="Renmyrsjøen" />
		<tag k="natural" v="water" />
		<tag k="ssr:stedsnr" v="252523" />
	</node>
	<node lat="60.77033055579694" lon="11.877788893895637" id="-18851">
		<tag k="name" v="Dipåa" />
		<tag k="ssr:stedsnr" v="130524" />
		<tag k="waterway" v="stream" />
	</node>
	<node lat="60.7944611148768" lon="11.958913898287484" id="-18853">
		<tag k="name" v="Rønningsbekken" />
		<tag k="ssr:stedsnr" v="130471" />
		<tag k="waterway" v="stream" />
	</node>
	<node lat="60.808949997107746" lon="11.990008331124875" id="-18856">
		<tag k="name" v="Svarttjernet" />
		<tag k="natural" v="water" />
		<tag k="ssr:stedsnr" v="130497" />
	</node>
	<node lat="60.73431111460366" lon="11.727394449439293" id="-18867">
		<tag k="name" v="Gravingsbekken" />
		<tag k="ssr:stedsnr" v="163424" />
		<tag k="waterway" v="stream" />
	</node>
	<node lat="60.65149166705914" lon="11.63518888531904" id="-18870">
		<tag k="name" v="Bjørntjernet" />
		<tag k="natural" v="water" />
		<tag k="ssr:stedsnr" v="163905" />
	</node>
	<node lat="60.678699996473114" lon="11.728569439227186" id="-18881">
		<tag k="name" v="Sæterbekken" />
		<tag k="ssr:stedsnr" v="180159" />
		<tag k="waterway" v="stream" />
	</node>
	<node lat="60.58628055421258" lon="11.66425833240364" id="-18885">
		<tag k="name" v="Langtjernet" />
		<tag k="natural" v="water" />
		<tag k="ssr:stedsnr" v="189129" />
	</node>
	<node lat="60.893302775924504" lon="12.328133337338757" id="-18895">
		<tag k="name" v="Orrholmen" />
		<tag k="place" v="islet" />
		<tag k="ssr:stedsnr" v="191657" />
	</node>
	<node lat="60.880784601566134" lon="12.147928606890037" id="-18896">
		<tag k="alt_name" v="Jørnsetertjennet" />
		<tag k="name" v="Jørnsætertjernet" />
		<tag k="natural" v="water" />
		<tag k="ssr:stedsnr" v="191551" />
	</node>
	<node lat="60.81520277969616" lon="12.070283334065063" id="-18897">
		<tag k="name" v="Gammelåa" />
		<tag k="ssr:stedsnr" v="191559" />
		<tag k="waterway" v="stream" />
	</node>
	<node lat="60.63113332990042" lon="11.661272220750567" id="-18903">
		<tag k="name" v="Gammelbergsdalsbekken" />
		<tag k="ssr:stedsnr" v="222189" />
		<tag k="waterway" v="stream" />
	</node>
	<node lat="60.930563886041675" lon="12.099922224005253" id="-18910">
		<tag k="name" v="Iversbekken" />
		<tag k="ssr:stedsnr" v="224586" />
		<tag k="waterway" v="stream" />
	</node>
	<node lat="60.68757777870471" lon="11.651624996821589" id="-18920">
		<tag k="name" v="Gjeddtjernet" />
		<tag k="natural" v="water" />
		<tag k="ssr:stedsnr" v="249255" />
	</node>
	<node lat="60.7265138870441" lon="11.90016666487685" id="-18933">
		<tag k="alt_name" v="Lonkemotjennet" />
		<tag k="name" v="Lonkemotjernet" />
		<tag k="natural" v="water" />
		<tag k="ssr:stedsnr" v="298321" />
	</node>
	<node lat="60.7556694463652" lon="11.814913893200316" id="-18936">
		<tag k="name" v="Skreddertangen" />
		<tag k="natural" v="cape" />
		<tag k="ssr:stedsnr" v="464309" />
	</node>
	<node lat="60.878936107453" lon="12.018855552697238" id="-18938">
		<tag k="name" v="Kverndammen" />
		<tag k="ssr:stedsnr" v="300988" />
		<tag k="waterway" v="dam" />
	</node>
	<node lat="60.809291664446185" lon="12.062333326504008" id="-18939">
		<tag k="name" v="Bjørnkjelltjernet" />
		<tag k="natural" v="water" />
		<tag k="ssr:stedsnr" v="301737" />
	</node>
	<node lat="60.60754999771162" lon="11.68846667105083" id="-18942">
		<tag k="name" v="Kubekken" />
		<tag k="ssr:stedsnr" v="464252" />
		<tag k="waterway" v="stream" />
	</node>
	<node lat="60.742280555423285" lon="11.846230562387197" id="-18951">
		<tag k="alt_name" v="Tørråssjøen" />
		<tag k="name" v="Tøråssjøen" />
		<tag k="natural" v="water" />
		<tag k="ssr:stedsnr" v="310195" />
	</node>
	<node lat="60.62423055109603" lon="11.900338892619393" id="-18958">
		<tag k="name" v="Svennebyøya" />
		<tag k="place" v="island" />
		<tag k="ssr:stedsnr" v="310812" />
	</node>
	<node lat="60.70745833392073" lon="11.658972215689635" id="-18961">
		<tag k="name" v="Vesle Bjørntjernet" />
		<tag k="natural" v="water" />
		<tag k="ssr:stedsnr" v="466144" />
	</node>
	<node lat="60.86447777990305" lon="12.123886117490686" id="-18964">
		<tag k="alt_name" v="Øvre Gjerdtjennet" />
		<tag k="name" v="Øvre Gjerdtjernet" />
		<tag k="natural" v="water" />
		<tag k="ssr:stedsnr" v="466394" />
	</node>
	<node lat="60.86685277903767" lon="12.256713881400723" id="-18967">
		<tag k="name" v="Kvernbekken" />
		<tag k="ssr:stedsnr" v="312675" />
		<tag k="waterway" v="stream" />
	</node>
	<node lat="60.88605555348033" lon="12.231697228454623" id="-18968">
		<tag k="name" v="Gropa" />
		<tag k="ssr:stedsnr" v="466509" />
		<tag k="waterway" v="stream" />
	</node>
	<node lat="60.846377776366914" lon="12.3189555628111" id="-18969">
		<tag k="name" v="Korrasvingen" />
		<tag k="place" v="locality" />
		<tag k="ssr:stedsnr" v="312718" />
	</node>
	<node lat="60.693347224111676" lon="11.900522230364293" id="-18975">
		<tag k="name" v="Nordre Hasla" />
		<tag k="ssr:stedsnr" v="468659" />
		<tag k="waterway" v="river" />
	</node>
	<node lat="61.029422219110714" lon="12.135049995293441" id="-18976">
		<tag k="name" v="Bjørndammen" />
		<tag k="ssr:stedsnr" v="327116" />
		<tag k="waterway" v="dam" />
	</node>
	<node lat="60.664961114683884" lon="11.873133329561256" id="-18981">
		<tag k="alt_name" v="Søndre Spulsåstjennet" />
		<tag k="name" v="Søndre Spulsåstjernet" />
		<tag k="natural" v="water" />
		<tag k="ssr:stedsnr" v="343101" />
	</node>
	<node lat="60.73994444825202" lon="11.917066666970504" id="-18982">
		<tag k="name" v="Haugsbekken" />
		<tag k="ssr:stedsnr" v="343306" />
		<tag k="waterway" v="stream" />
	</node>
	<node lat="60.73724721950078" lon="11.647266662528393" id="-18993">
		<tag k="name" v="Svenkerudsvika" />
		<tag k="natural" v="bay" />
		<tag k="ssr:stedsnr" v="359421" />
	</node>
	<node lat="60.89174444614112" lon="12.069972215307484" id="-18999">
		<tag k="name" v="Embretslobekken" />
		<tag k="ssr:stedsnr" v="479291" />
		<tag k="waterway" v="stream" />
	</node>
	<node lat="60.887536114078436" lon="12.05266111292853" id="-19000">
		<tag k="name" v="Bjørbekkoset" />
		<tag k="natural" v="bay" />
		<tag k="ssr:stedsnr" v="479298" />
	</node>
	<node lat="60.97920833068415" lon="12.205705560180679" id="-19006">
		<tag k="name" v="Enbergstjernet" />
		<tag k="natural" v="water" />
		<tag k="ssr:stedsnr" v="373404" />
	</node>
	<node lat="60.78748055610138" lon="11.917827786770372" id="-19008">
		<tag k="name" v="Blikktjernet" />
		<tag k="natural" v="water" />
		<tag k="ssr:stedsnr" v="373509" />
	</node>
	<node lat="60.801650002991245" lon="12.079450001855466" id="-19010">
		<tag k="name" v="Skårsjøen" />
		<tag k="natural" v="water" />
		<tag k="ssr:stedsnr" v="373517" />
	</node>
	<node lat="60.88140555913057" lon="12.063908332468989" id="-19014">
		<tag k="alt_name" v="Silkesjøen" />
		<tag k="name" v="Silksjøen" />
		<tag k="natural" v="water" />
		<tag k="ssr:stedsnr" v="373606" />
	</node>
	<node lat="60.958533330514925" lon="12.194963891446614" id="-19019">
		<tag k="name" v="Gridtjernet" />
		<tag k="ssr:stedsnr" v="481492" />
		<tag k="waterway" v="stream" />
	</node>
	<node lat="60.73639444816012" lon="11.877705554463665" id="-19020">
		<tag k="name" v="Kvernbekken" />
		<tag k="ssr:stedsnr" v="482447" />
		<tag k="waterway" v="stream" />
	</node>
	<node lat="60.86131944370231" lon="12.008991665703485" id="-19027">
		<tag k="name" v="Sagfallet" />
		<tag k="ssr:stedsnr" v="482992" />
		<tag k="waterway" v="rapids" />
	</node>
	<node lat="60.84340555603225" lon="12.335666663612978" id="-19032">
		<tag k="name" v="Meljubergsbekken" />
		<tag k="ssr:stedsnr" v="404403" />
		<tag k="waterway" v="stream" />
	</node>
	<node lat="60.93598610708235" lon="12.103383330426379" id="-19033">
		<tag k="name" v="Iversholmen" />
		<tag k="place" v="islet" />
		<tag k="ssr:stedsnr" v="405641" />
	</node>
	<node lat="60.59681111075625" lon="11.773366661254002" id="-19035">
		<tag k="name" v="Bergsholmen" />
		<tag k="place" v="islet" />
		<tag k="ssr:stedsnr" v="406102" />
	</node>
	<node lat="60.89917222522415" lon="12.080205554384943" id="-19039">
		<tag k="name" v="Embretslotjernet" />
		<tag k="natural" v="water" />
		<tag k="ssr:stedsnr" v="406343" />
	</node>
	<node lat="60.90301111140124" lon="12.055855550564381" id="-19040">
		<tag k="name" v="Nedre Dam" />
		<tag k="ssr:stedsnr" v="406346" />
		<tag k="waterway" v="dam" />
	</node>
	<node lat="60.74252499849087" lon="11.647019447060503" id="-19056">
		<tag k="name" v="Damvika" />
		<tag k="natural" v="bay" />
		<tag k="ssr:stedsnr" v="432421" />
	</node>
	<node lat="60.65604722642997" lon="11.636363891975504" id="-19057">
		<tag k="alt_name" v="Brattlitjernet, s" />
		<tag k="name" v="Søndre Brattlitjernet" />
		<tag k="natural" v="water" />
		<tag k="ssr:stedsnr" v="432304" />
	</node>
	<node lat="60.9943166708508" lon="12.23043055446206" id="-19065">
		<tag k="name" v="Hembekken" />
		<tag k="ssr:stedsnr" v="434490" />
		<tag k="waterway" v="stream" />
	</node>
	<node lat="60.96777500082653" lon="12.22435555750719" id="-19066">
		<tag k="name" v="Danielsmortentjernet" />
		<tag k="natural" v="water" />
		<tag k="ssr:stedsnr" v="434493" />
	</node>
	<node lat="60.811241665244324" lon="11.962761115602406" id="-19083">
		<tag k="name" v="Kumyrbekken" />
		<tag k="ssr:stedsnr" v="494504" />
		<tag k="waterway" v="stream" />
	</node>
	<node lat="60.84962500468955" lon="12.094366658794629" id="-19084">
		<tag k="alt_name" v="Bølsjøen, nordre" />
		<tag k="name" v="Nordre Bølsjøen" />
		<tag k="natural" v="water" />
		<tag k="ssr:stedsnr" v="494583" />
		<tag k="water" v="lake" />
	</node>
	<node lat="60.64423889309681" lon="11.889075008362303" id="-19086">
		<tag k="name" v="Dølda" />
		<tag k="ssr:stedsnr" v="674063" />
		<tag k="waterway" v="stream" />
	</node>
	<node lat="60.64080555172267" lon="11.807788891674914" id="-19096">
		<tag k="name" v="Tajebekken" />
		<tag k="ssr:stedsnr" v="465112" />
		<tag k="waterway" v="stream" />
	</node>
	<node lat="60.898899998373786" lon="12.170208331504304" id="-19117">
		<tag k="name" v="Djupdalsbekken" />
		<tag k="ssr:stedsnr" v="677446" />
		<tag k="waterway" v="stream" />
	</node>
	<node lat="60.78771111136519" lon="12.080369442559507" id="-19119">
		<tag k="name" v="Fløgåa" />
		<tag k="ssr:stedsnr" v="677551" />
		<tag k="waterway" v="river" />
	</node>
	<node lat="60.876283329509704" lon="12.076594441293134" id="-19120">
		<tag k="fixme" v="multiple name tags, choose one and add the other to alt_name" />
		<tag k="name" v="Krokbekken;Krokhasabekken" />
		<tag k="ssr:stedsnr" v="677574" />
		<tag k="waterway" v="stream" />
	</node>
	<node lat="60.57078611019576" lon="11.743249996513242" id="-19135">
		<tag k="name" v="Hesteskotjernet" />
		<tag k="natural" v="water" />
		<tag k="ssr:stedsnr" v="492110" />
	</node>
	<node lat="60.598302777762626" lon="11.74675000893027" id="-19136">
		<tag k="name" v="Fjellåa" />
		<tag k="ssr:stedsnr" v="492122" />
		<tag k="waterway" v="stream" />
	</node>
	<node lat="60.626244444911904" lon="11.673536114259054" id="-19141">
		<tag k="name" v="Vollåa" />
		<tag k="ssr:stedsnr" v="492306" />
		<tag k="waterway" v="stream" />
	</node>
	<node lat="60.803338892254466" lon="12.032572216711998" id="-19144">
		<tag k="alt_name" v="Fløgen, nordre" />
		<tag k="name" v="Nordre Fløgen" />
		<tag k="natural" v="water" />
		<tag k="ssr:stedsnr" v="494486" />
		<tag k="water" v="lake" />
	</node>
	<node lat="60.77398333084702" lon="12.044933333349622" id="-19145">
		<tag k="name" v="Røbekken" />
		<tag k="ssr:stedsnr" v="494523" />
		<tag k="waterway" v="stream" />
	</node>
	<node lat="60.87978610932971" lon="12.29567778096636" id="-19147">
		<tag k="name" v="Båtvikbekken" />
		<tag k="ssr:stedsnr" v="494662" />
		<tag k="waterway" v="stream" />
	</node>
	<node lat="60.864724999813696" lon="12.111430557628392" id="-19153">
		<tag k="alt_name" v="Åbortjernet" />
		<tag k="name" v="Abbortjernet" />
		<tag k="natural" v="water" />
		<tag k="ssr:stedsnr" v="495572" />
	</node>
	<node lat="60.670611106770146" lon="11.867225006995238" id="-19157">
		<tag k="alt_name" v="Nordre Spulsåstjennet" />
		<tag k="name" v="Nordre Spulsåstjernet" />
		<tag k="natural" v="water" />
		<tag k="ssr:stedsnr" v="527008" />
	</node>
	<node lat="60.93668055725003" lon="12.095188884623381" id="-19162">
		<tag k="name" v="Flisbergfloa" />
		<tag k="place" v="locality" />
		<tag k="ssr:stedsnr" v="527617" />
	</node>
	<node lat="60.84249999958951" lon="12.013402770007565" id="-19163">
		<tag k="name" v="Storbekkoset" />
		<tag k="natural" v="bay" />
		<tag k="ssr:stedsnr" v="527972" />
	</node>
	<node lat="60.894033330559104" lon="12.04518334024395" id="-19192">
		<tag k="name" v="Tjernsmyrtjernet" />
		<tag k="natural" v="water" />
		<tag k="ssr:stedsnr" v="587352" />
	</node>
	<node lat="60.68970277609363" lon="11.826497223512531" id="-19195">
		<tag k="name" v="Skvalebekken" />
		<tag k="ssr:stedsnr" v="588074" />
		<tag k="waterway" v="stream" />
	</node>
	<node lat="60.67282777746468" lon="11.763988889702327" id="-19199">
		<tag k="name" v="Gjeldbekken" />
		<tag k="ssr:stedsnr" v="604168" />
		<tag k="waterway" v="stream" />
	</node>
	<node lat="60.68220555544045" lon="11.627597219879718" id="-19205">
		<tag k="name" v="Sortåa" />
		<tag k="ssr:stedsnr" v="613367" />
		<tag k="waterway" v="stream" />
	</node>
	<node lat="60.838613884758935" lon="12.003661103126625" id="-19208">
		<tag k="alt_name" v="Silksjøen" />
		<tag k="name" v="Silkesjøen" />
		<tag k="natural" v="water" />
		<tag k="ssr:stedsnr" v="615595" />
	</node>
	<node lat="60.773871901010125" lon="11.901348374675887" id="-19210">
		<tag k="name" v="Tandlitjerna" />
		<tag k="natural" v="water" />
		<tag k="ssr:stedsnr" v="616543" />
		<tag k="water" v="lake" />
	</node>
	<node lat="60.64984722222231" lon="11.83994166990765" id="-19212">
		<tag k="name" v="Eidsfossen" />
		<tag k="natural" v="waterfall" />
		<tag k="ssr:stedsnr" v="646091" />
	</node>
	<node lat="60.8783694438828" lon="12.301755564622578" id="-19214">
		<tag k="name" v="Båtvika" />
		<tag k="natural" v="bay" />
		<tag k="ssr:stedsnr" v="646408" />
	</node>
	<node lat="60.74925555600157" lon="11.833255559410182" id="-19249">
		<tag k="name" v="Langbrutjernet" />
		<tag k="natural" v="water" />
		<tag k="ssr:stedsnr" v="664443" />
	</node>
	<node lat="60.740141669494356" lon="11.854041666691405" id="-19250">
		<tag k="name" v="Tøråstjernet" />
		<tag k="natural" v="water" />
		<tag k="ssr:stedsnr" v="664446" />
	</node>
	<node lat="60.94988888540578" lon="12.115241659195892" id="-19251">
		<tag k="name" v="Kjerkestrupen" />
		<tag k="natural" v="waterfall" />
		<tag k="ssr:stedsnr" v="709606" />
	</node>
	<node lat="60.861080558992484" lon="12.007399997259776" id="-19253">
		<tag k="name" v="Gammelkvernstupet" />
		<tag k="ssr:stedsnr" v="664989" />
		<tag k="waterway" v="rapids" />
	</node>
	<node lat="60.88371666626613" lon="12.026355551115065" id="-19254">
		<tag k="name" v="Merrbekkoset" />
		<tag k="natural" v="bay" />
		<tag k="ssr:stedsnr" v="664994" />
	</node>
	<node lat="60.85051944767252" lon="12.031827772662075" id="-19256">
		<tag k="name" v="Kvernbekkfallet" />
		<tag k="natural" v="waterfall" />
		<tag k="ssr:stedsnr" v="709970" />
	</node>
	<node lat="60.86055833057593" lon="12.30118333072156" id="-19258">
		<tag k="name" v="Kvesetvika" />
		<tag k="natural" v="bay" />
		<tag k="ssr:stedsnr" v="890440" />
	</node>
	<node lat="60.69398888811657" lon="11.750908328799685" id="-19260">
		<tag k="name" v="Husåsbekken" />
		<tag k="ssr:stedsnr" v="674254" />
		<tag k="waterway" v="stream" />
	</node>
	<node lat="60.60305292843273" lon="11.726485095097384" id="-19264">
		<tag k="name" v="Eidsmangen" />
		<tag k="natural" v="water" />
		<tag k="ssr:stedsnr" v="674184" />
		<tag k="water" v="lake" />
	</node>
	<node lat="60.83148333192427" lon="12.162441667252578" id="-19270">
		<tag k="fixme" v="multiple name tags, choose one and add the other to alt_name" />
		<tag k="name" v="Svantjernsbekken;Finnbekken" />
		<tag k="ssr:stedsnr" v="676604" />
		<tag k="waterway" v="stream" />
	</node>
	<node lat="60.843841665733976" lon="12.077511107055265" id="-19271">
		<tag k="alt_name" v="Fiskelaustjernet" />
		<tag k="name" v="Fiskeløystjernet" />
		<tag k="natural" v="water" />
		<tag k="ssr:stedsnr" v="676610" />
	</node>
	<node lat="60.79196944838522" lon="11.92631111830204" id="-19272">
		<tag k="name" v="Flatåsbekken" />
		<tag k="ssr:stedsnr" v="676516" />
		<tag k="waterway" v="stream" />
	</node>
	<node lat="60.815513889784775" lon="12.05624165956426" id="-19273">
		<tag k="name" v="Knøssjøvika" />
		<tag k="natural" v="bay" />
		<tag k="ssr:stedsnr" v="676597" />
	</node>
	<node lat="60.9084861110921" lon="12.2514416717887" id="-19275">
		<tag k="name" v="Håftalamp" />
		<tag k="natural" v="water" />
		<tag k="old_name" v="Hoftalamp" />
		<tag k="ssr:stedsnr" v="676707" />
	</node>
	<node lat="60.98613888804189" lon="12.102402783120608" id="-19277">
		<tag k="alt_name" v="Flisa" />
		<tag k="name" v="Vesleflisa" />
		<tag k="ssr:stedsnr" v="677355" />
		<tag k="waterway" v="river" />
	</node>
	<node lat="60.85168055845167" lon="12.010294450098094" id="-19282">
		<tag k="name" v="Bjørfløtdammen" />
		<tag k="ssr:stedsnr" v="891993" />
		<tag k="waterway" v="dam" />
	</node>
	<node lat="60.70871944070244" lon="11.828008325077972" id="-19285">
		<tag k="name" v="Kåtbekken" />
		<tag k="ssr:stedsnr" v="892046" />
		<tag k="waterway" v="stream" />
	</node>
	<node lat="60.619794447313815" lon="11.631627775423818" id="-19287">
		<tag k="name" v="Oppsangbekken" />
		<tag k="ssr:stedsnr" v="892992" />
		<tag k="waterway" v="stream" />
	</node>
	<node lat="60.69068055177159" lon="11.919888888309337" id="-19294">
		<tag k="name" v="Søndre Hasla" />
		<tag k="ssr:stedsnr" v="711675" />
		<tag k="waterway" v="river" />
	</node>
	<node lat="60.586161111523715" lon="11.798180556803324" id="-19297">
		<tag k="name" v="Mellomåa" />
		<tag k="ssr:stedsnr" v="719113" />
		<tag k="waterway" v="river" />
	</node>
	<node lat="60.735594447027275" lon="11.671780559890433" id="-19298">
		<tag k="name" v="Aurtjernsbekken" />
		<tag k="ssr:stedsnr" v="722441" />
		<tag k="waterway" v="stream" />
	</node>
	<node lat="60.906894445032" lon="12.065194440682305" id="-19314">
		<tag k="name" v="Multebekken" />
		<tag k="ssr:stedsnr" v="737413" />
		<tag k="waterway" v="stream" />
	</node>
	<node lat="60.894641663771544" lon="12.318311106173969" id="-19320">
		<tag k="name" v="Svartholmen" />
		<tag k="place" v="islet" />
		<tag k="ssr:stedsnr" v="737705" />
	</node>
	<node lat="60.86054166801641" lon="12.115961111334984" id="-19321">
		<tag k="name" v="Midjutjernet" />
		<tag k="natural" v="water" />
		<tag k="ssr:stedsnr" v="738557" />
	</node>
	<node lat="60.595961110853864" lon="11.732380559935914" id="-19329">
		<tag k="name" v="Svantjernsvika" />
		<tag k="natural" v="bay" />
		<tag k="ssr:stedsnr" v="767203" />
	</node>
	<node lat="60.911363887100286" lon="12.302186110824449" id="-19333">
		<tag k="name" v="Syverbekken" />
		<tag k="ssr:stedsnr" v="768346" />
		<tag k="waterway" v="stream" />
	</node>
	<node lat="60.860244442517406" lon="12.265233329656793" id="-19335">
		<tag k="name" v="Kvernbekkoset" />
		<tag k="natural" v="bay" />
		<tag k="ssr:stedsnr" v="907234" />
	</node>
	<node lat="60.89120555259439" lon="12.16421111682128" id="-19338">
		<tag k="name" v="Oppsahlbekken" />
		<tag k="ssr:stedsnr" v="769507" />
		<tag k="waterway" v="stream" />
	</node>
	<node lat="60.990505553715295" lon="12.162686104564681" id="-19351">
		<tag k="name" v="Kalivika" />
		<tag k="natural" v="bay" />
		<tag k="ssr:stedsnr" v="785407" />
	</node>
	<node lat="61.015266669997324" lon="12.17160555881937" id="-19355">
		<tag k="name" v="Bråtåsæterbekken" />
		<tag k="ssr:stedsnr" v="785761" />
		<tag k="waterway" v="stream" />
	</node>
	<node lat="60.88162777898317" lon="12.028827768993759" id="-19356">
		<tag k="name" v="Gammeldammen" />
		<tag k="ssr:stedsnr" v="785999" />
		<tag k="waterway" v="dam" />
	</node>
	<node lat="60.70672117606034" lon="11.632942275500634" id="-19362">
		<tag k="name" v="Knattjerna" />
		<tag k="natural" v="water" />
		<tag k="ssr:stedsnr" v="796256" />
		<tag k="water" v="lake" />
	</node>
	<node lat="60.57183610722583" lon="11.69845277713478" id="-19367">
		<tag k="name" v="Kjellaren" />
		<tag k="natural" v="water" />
		<tag k="ssr:stedsnr" v="796157" />
	</node>
	<node lat="60.785544445735326" lon="12.007252773555365" id="-19370">
		<tag k="name" v="Haukbekken" />
		<tag k="ssr:stedsnr" v="798462" />
		<tag k="waterway" v="stream" />
	</node>
	<node lat="60.983083334856886" lon="12.177983331875346" id="-19373">
		<tag k="name" v="Steindamfloa" />
		<tag k="natural" v="water" />
		<tag k="ssr:stedsnr" v="798347" />
	</node>
	<node lat="60.76933611509039" lon="11.881541674077116" id="-19374">
		<tag k="name" v="Tandliåa" />
		<tag k="ssr:stedsnr" v="798509" />
		<tag k="waterway" v="stream" />
	</node>
	<node lat="60.76644166324959" lon="11.92312499878282" id="-19375">
		<tag k="name" v="Østertjernet" />
		<tag k="natural" v="water" />
		<tag k="ssr:stedsnr" v="798510" />
	</node>
	<node lat="60.775408337059034" lon="12.017380562593226" id="-19376">
		<tag k="name" v="Storbekken" />
		<tag k="ssr:stedsnr" v="798519" />
		<tag k="waterway" v="stream" />
	</node>
	<node lat="60.821136109541825" lon="11.96711944978716" id="-19378">
		<tag k="name" v="Tostentjernet" />
		<tag k="natural" v="water" />
		<tag k="ssr:stedsnr" v="798558" />
	</node>
	<node lat="60.78415833057731" lon="11.961691665248855" id="-19379">
		<tag k="name" v="Bjørnbekken" />
		<tag k="ssr:stedsnr" v="798599" />
		<tag k="waterway" v="stream" />
	</node>
	<node lat="60.63562499887193" lon="11.708369437874879" id="-19384">
		<tag k="name" v="Toterudtjernet" />
		<tag k="natural" v="water" />
		<tag k="ssr:stedsnr" v="917309" />
	</node>
	<node lat="60.660844442812824" lon="11.638658334636157" id="-19399">
		<tag k="alt_name" v="Brattlitjernet, nordre" />
		<tag k="name" v="Nordre Brattlitjernet" />
		<tag k="natural" v="water" />
		<tag k="ssr:stedsnr" v="917345" />
	</node>
	<node lat="61.01792499937552" lon="12.112033337798247" id="-19407">
		<tag k="name" v="Slåttfløyta" />
		<tag k="natural" v="water" />
		<tag k="ssr:stedsnr" v="812137" />
		<tag k="water" v="lake" />
	</node>
	<node lat="60.97658611365751" lon="12.19795833846031" id="-19408">
		<tag k="name" v="Halåa" />
		<tag k="ssr:stedsnr" v="920361" />
		<tag k="waterway" v="river" />
	</node>
	<node lat="61.00779722303051" lon="12.18056666043618" id="-19409">
		<tag k="name" v="Enbergbekken" />
		<tag k="ssr:stedsnr" v="918881" />
		<tag k="waterway" v="stream" />
	</node>
	<node lat="60.76797499736226" lon="11.801266657681232" id="-19410">
		<tag k="name" v="Sæteråstjennet" />
		<tag k="natural" v="water" />
		<tag k="ssr:stedsnr" v="919326" />
	</node>
	<node lat="60.76478889238238" lon="11.869874994126661" id="-19420">
		<tag k="name" v="Hosla" />
		<tag k="ssr:stedsnr" v="920527" />
		<tag k="waterway" v="stream" />
	</node>
	<node lat="60.872425000604586" lon="12.106725005273331" id="-19421">
		<tag k="name" v="Maurtjernet" />
		<tag k="natural" v="water" />
		<tag k="ssr:stedsnr" v="920578" />
	</node>
	<node lat="60.98188055383625" lon="12.245858341307981" id="-19430">
		<tag k="alt_name" v="Elgtjennet" />
		<tag k="name" v="Elgtjernet" />
		<tag k="natural" v="water" />
		<tag k="ssr:stedsnr" v="846419" />
	</node>
	<node lat="60.88312222096284" lon="12.034463883175757" id="-19432">
		<tag k="name" v="Svinfotfossen" />
		<tag k="natural" v="waterfall" />
		<tag k="ssr:stedsnr" v="846999" />
	</node>
	<node lat="60.613405552519204" lon="11.703455553771077" id="-19436">
		<tag k="alt_name" v="Jerntjernåa;Jerntjennsåa" />
		<tag k="name" v="Jerntjernsåa" />
		<tag k="ssr:stedsnr" v="856192" />
		<tag k="waterway" v="stream" />
	</node>
	<node lat="60.6474543010701" lon="11.740270587199214" id="-19442">
		<tag k="alt_name" v="Blåengtjerna;Blåengstjenna" />
		<tag k="name" v="Blåengstjerna" />
		<tag k="natural" v="water" />
		<tag k="ssr:stedsnr" v="857335" />
		<tag k="water" v="lake" />
	</node>
	<node lat="60.75909078822057" lon="11.812647130705468" id="-19448">
		<tag k="name" v="Sørsåssjøen" />
		<tag k="natural" v="water" />
		<tag k="ssr:stedsnr" v="859380" />
		<tag k="water" v="lake" />
	</node>
	<node lat="60.780097219035525" lon="11.877641671118004" id="-19449">
		<tag k="name" v="Dipen" />
		<tag k="natural" v="water" />
		<tag k="ssr:stedsnr" v="859525" />
	</node>
	<node lat="60.9171166647609" lon="12.056599999747858" id="-19450">
		<tag k="name" v="Storkjølsbekken" />
		<tag k="ssr:stedsnr" v="859414" />
		<tag k="waterway" v="stream" />
	</node>
	<node lat="60.90608889235772" lon="12.03096944849718" id="-19453">
		<tag k="name" v="Gudmundsbekken" />
		<tag k="ssr:stedsnr" v="859608" />
		<tag k="waterway" v="stream" />
	</node>
	<node lat="60.84200000101749" lon="12.330399996739846" id="-19455">
		<tag k="name" v="Meljuvbergsbekken" />
		<tag k="old_name" v="Meljubergsbekken" />
		<tag k="ssr:stedsnr" v="859713" />
		<tag k="waterway" v="stream" />
	</node>
	<node lat="60.87420752229917" lon="12.313615014765254" id="-19456">
		<tag k="name" v="Halsjøen" />
		<tag k="natural" v="water" />
		<tag k="ssr:stedsnr" v="859667" />
		<tag k="water" v="lake" />
	</node>
	<node lat="60.8925055565896" lon="12.059388886500384" id="-19465">
		<tag k="name" v="Vivangskroken" />
		<tag k="place" v="locality" />
		<tag k="ssr:stedsnr" v="891360" />
	</node>
	<node lat="60.90222777662598" lon="12.058536118540866" id="-19467">
		<tag k="name" v="Nedre Koho" />
		<tag k="natural" v="water" />
		<tag k="ssr:stedsnr" v="891381" />
	</node>
	<node lat="60.89728611543343" lon="12.08948611077555" id="-19472">
		<tag k="name" v="Sæterbuslobekken" />
		<tag k="ssr:stedsnr" v="905301" />
		<tag k="waterway" v="stream" />
	</node>
	<node lat="60.78647222110302" lon="12.026272222009146" id="-19473">
		<tag k="name" v="Langneset" />
		<tag k="natural" v="cape" />
		<tag k="ssr:stedsnr" v="905715" />
	</node>
	<node lat="61.02534999601935" lon="12.140972229104857" id="-19480">
		<tag k="name" v="Kjølbergtjerna" />
		<tag k="natural" v="water" />
		<tag k="ssr:stedsnr" v="918924" />
		<tag k="water" v="lake" />
	</node>
	<node lat="60.762155554787746" lon="11.785719446980881" id="-19481">
		<tag k="name" v="Langtjennet" />
		<tag k="natural" v="water" />
		<tag k="ssr:stedsnr" v="919419" />
	</node>
	<node lat="60.97097499929329" lon="12.258825006672595" id="-19486">
		<tag k="alt_name" v="Åbortjerna" />
		<tag k="name" v="Abbortjerna" />
		<tag k="natural" v="water" />
		<tag k="ssr:stedsnr" v="920704" />
		<tag k="water" v="lake" />
	</node>
	<node lat="60.87832500001165" lon="12.076419449001524" id="-19505">
		<tag k="name" v="Åbortjernet" />
		<tag k="natural" v="water" />
		<tag k="ssr:stedsnr" v="967338" />
	</node>
	<node lat="60.87893888645349" lon="12.097980550574537" id="-19506">
		<tag k="name" v="Oluftjernet" />
		<tag k="natural" v="water" />
		<tag k="ssr:stedsnr" v="967340" />
	</node>
	<node lat="60.82903611390897" lon="12.110891664573764" id="-19509">
		<tag k="name" v="Killingholmen" />
		<tag k="place" v="islet" />
		<tag k="ssr:stedsnr" v="967704" />
	</node>
	<node lat="60.681977779806154" lon="11.656474999511026" id="-19511">
		<tag k="name" v="Sætersjødammen" />
		<tag k="ssr:stedsnr" v="968151" />
		<tag k="waterway" v="dam" />
	</node>
	<node lat="60.626158330605" lon="11.945036118594622" id="-19521">
		<tag k="name" v="Hasla" />
		<tag k="old_name" v="Halsa" />
		<tag k="ssr:stedsnr" v="7815" />
		<tag k="waterway" v="river" />
	</node>
	<node lat="60.63468610729585" lon="11.678130562964702" id="-19531">
		<tag k="name" v="Viertjernet" />
		<tag k="natural" v="water" />
		<tag k="ssr:stedsnr" v="7341" />
	</node>
	<node lat="60.731652786901904" lon="11.634705621884796" id="-19533">
		<tag k="name" v="Stor-Bronken" />
		<tag k="natural" v="water" />
		<tag k="ssr:stedsnr" v="7283" />
		<tag k="water" v="lake" />
	</node>
	<node lat="60.89428889241851" lon="12.051277780764698" id="-19537">
		<tag k="alt_name" v="Djørbekken" />
		<tag k="name" v="Bjørbekken" />
		<tag k="ssr:stedsnr" v="9460" />
		<tag k="waterway" v="stream" />
	</node>
	<node lat="60.86111050183893" lon="12.127740332855709" id="-19540">
		<tag k="name" v="Gjerdtjerna" />
		<tag k="natural" v="water" />
		<tag k="ssr:stedsnr" v="9569" />
		<tag k="water" v="lake" />
	</node>
	<node lat="60.851491666900486" lon="12.010374993591078" id="-19544">
		<tag k="name" v="Silkåa" />
		<tag k="ssr:stedsnr" v="9632" />
		<tag k="waterway" v="river" />
	</node>
	<node lat="60.59605278061885" lon="11.742769445488035" id="-19546">
		<tag k="name" v="Hoven" />
		<tag k="natural" v="bay" />
		<tag k="ssr:stedsnr" v="39179" />
	</node>
	<node lat="60.67662221774802" lon="11.784658336258309" id="-19550">
		<tag k="name" v="Lerbekken" />
		<tag k="ssr:stedsnr" v="41030" />
		<tag k="waterway" v="stream" />
	</node>
	<node lat="60.57772222586407" lon="11.732286112251256" id="-19557">
		<tag k="name" v="Svantjernet" />
		<tag k="natural" v="water" />
		<tag k="ssr:stedsnr" v="42254" />
	</node>
	<node lat="60.874638888623096" lon="12.233819447203087" id="-19559">
		<tag k="name" v="Hemmyrbekken" />
		<tag k="ssr:stedsnr" v="55254" />
		<tag k="waterway" v="stream" />
	</node>
	<node lat="60.76612499775536" lon="11.87716111445001" id="-19561">
		<tag k="name" v="Årotjernet" />
		<tag k="natural" v="water" />
		<tag k="ssr:stedsnr" v="55326" />
	</node>
	<node lat="60.98981666906638" lon="12.172074992257336" id="-19565">
		<tag k="name" v="Ormhullet" />
		<tag k="natural" v="water" />
		<tag k="ssr:stedsnr" v="57399" />
		<tag k="water" v="pond" />
	</node>
	<node lat="60.877125000346574" lon="12.101266665677532" id="-19566">
		<tag k="name" v="Fagertjernet" />
		<tag k="natural" v="water" />
		<tag k="ssr:stedsnr" v="57356" />
	</node>
	<node lat="60.87748889019481" lon="12.121322231343157" id="-19567">
		<tag k="name" v="Søndre Lømyrtjernet" />
		<tag k="natural" v="water" />
		<tag k="ssr:stedsnr" v="57359" />
	</node>
	<node lat="60.88054722378262" lon="12.01919999227623" id="-19572">
		<tag k="name" v="Kverndammen" />
		<tag k="natural" v="water" />
		<tag k="ssr:stedsnr" v="57983" />
	</node>
	<node lat="60.74556110683158" lon="11.665552777145107" id="-19579">
		<tag k="name" v="Bronkåa" />
		<tag k="ssr:stedsnr" v="67474" />
		<tag k="waterway" v="river" />
	</node>
	<node lat="60.64735555823608" lon="11.71674999469199" id="-19587">
		<tag k="name" v="Sautjerna" />
		<tag k="natural" v="water" />
		<tag k="ssr:stedsnr" v="68318" />
		<tag k="water" v="lake" />
	</node>
	<node lat="60.64436944464795" lon="11.625183333927826" id="-19588">
		<tag k="alt_name" v="Hølsjøen" />
		<tag k="name" v="Holsjøen" />
		<tag k="natural" v="water" />
		<tag k="ssr:stedsnr" v="68328" />
	</node>
	<node lat="60.66757777998314" lon="11.618766675493303" id="-19592">
		<tag k="name" v="Sorten" />
		<tag k="natural" v="water" />
		<tag k="ssr:stedsnr" v="68382" />
		<tag k="water" v="lake" />
	</node>
	<node lat="60.84832036445825" lon="12.152575093244634" id="-19595">
		<tag k="name" v="Lalatjerna" />
		<tag k="natural" v="water" />
		<tag k="ssr:stedsnr" v="69664" />
		<tag k="water" v="lake" />
	</node>
	<node lat="60.89200832991436" lon="12.179241660616306" id="-19598">
		<tag k="name" v="Kubekken" />
		<tag k="ssr:stedsnr" v="70437" />
		<tag k="waterway" v="stream" />
	</node>
	<node lat="60.82089166842407" lon="12.022733325774269" id="-19604">
		<tag k="name" v="Svartåa" />
		<tag k="ssr:stedsnr" v="70583" />
		<tag k="waterway" v="stream" />
	</node>
	<node lat="60.82393333311042" lon="12.040941659044583" id="-19605">
		<tag k="name" v="Skarderudvika" />
		<tag k="natural" v="bay" />
		<tag k="ssr:stedsnr" v="70585" />
	</node>
	<node lat="60.87126944511781" lon="12.32989166160378" id="-19606">
		<tag k="name" v="Johannesvika" />
		<tag k="natural" v="bay" />
		<tag k="ssr:stedsnr" v="70694" />
	</node>
	<node lat="60.76961388545836" lon="11.8185277801579" id="-19611">
		<tag k="name" v="Tyskedalsbekken" />
		<tag k="ssr:stedsnr" v="100294" />
		<tag k="waterway" v="stream" />
	</node>
	<node lat="60.67642222535669" lon="11.82602222811171" id="-19614">
		<tag k="name" v="Vålbekksundet" />
		<tag k="natural" v="strait" />
		<tag k="ssr:stedsnr" v="102031" />
	</node>
	<node lat="60.79496388524333" lon="11.91830833315303" id="-19627">
		<tag k="name" v="Hundtjernet" />
		<tag k="natural" v="water" />
		<tag k="ssr:stedsnr" v="116341" />
	</node>
	<node lat="60.89013055918857" lon="12.150672219083747" id="-19629">
		<tag k="name" v="Trekoibekken" />
		<tag k="ssr:stedsnr" v="116295" />
		<tag k="waterway" v="stream" />
	</node>
	<node lat="60.83040555521394" lon="12.02902777346403" id="-19631">
		<tag k="name" v="Snarholttjernet" />
		<tag k="natural" v="water" />
		<tag k="ssr:stedsnr" v="116741" />
	</node>
	<node lat="60.88166111514586" lon="12.093869444521893" id="-19632">
		<tag k="name" v="Ormhullbekken" />
		<tag k="ssr:stedsnr" v="117394" />
		<tag k="waterway" v="stream" />
	</node>
	<node lat="60.97241389159796" lon="12.24361945340738" id="-19636">
		<tag k="name" v="Tollporten" />
		<tag k="place" v="locality" />
		<tag k="ssr:stedsnr" v="117463" />
	</node>
	<node lat="60.62438600963008" lon="11.920348831284628" id="-19643">
		<tag k="alt_name" v="Øysettjennet" />
		<tag k="name" v="Øysettjernet" />
		<tag k="natural" v="water" />
		<tag k="ssr:stedsnr" v="119464" />
	</node>
	<node lat="60.69567777650163" lon="11.653047219075601" id="-19647">
		<tag k="name" v="Linerletjernet" />
		<tag k="natural" v="water" />
		<tag k="ssr:stedsnr" v="128232" />
	</node>
	<node lat="60.865588887377555" lon="12.319800002015436" id="-19654">
		<tag k="name" v="Ormneset" />
		<tag k="natural" v="cape" />
		<tag k="ssr:stedsnr" v="130656" />
	</node>
	<node lat="60.90156388753006" lon="12.238875001281809" id="-19655">
		<tag k="name" v="Olamobekken" />
		<tag k="ssr:stedsnr" v="130676" />
		<tag k="waterway" v="stream" />
	</node>
	<node lat="60.62747499710426" lon="11.669624999876" id="-19661">
		<tag k="name" v="Trebekkmøtet" />
		<tag k="ssr:stedsnr" v="161243" />
		<tag k="waterway" v="stream" />
	</node>
	<node lat="60.73814444617423" lon="11.769530559920442" id="-19662">
		<tag k="name" v="Øksenbekken" />
		<tag k="ssr:stedsnr" v="161299" />
		<tag k="waterway" v="stream" />
	</node>
	<node lat="60.760194444938875" lon="11.830238887381345" id="-19663">
		<tag k="name" v="Blassbekken" />
		<tag k="ssr:stedsnr" v="161325" />
		<tag k="waterway" v="stream" />
	</node>
	<node lat="60.85908333650271" lon="12.27886666249556" id="-19664">
		<tag k="name" v="Slettmobekken" />
		<tag k="ssr:stedsnr" v="161420" />
		<tag k="waterway" v="stream" />
	</node>
	<node lat="60.86216110800421" lon="12.319044436371092" id="-19665">
		<tag k="name" v="Lomvika" />
		<tag k="natural" v="bay" />
		<tag k="ssr:stedsnr" v="161421" />
	</node>
	<node lat="61.01688333782026" lon="12.118863885962506" id="-19667">
		<tag k="name" v="Kverntjernet" />
		<tag k="natural" v="water" />
		<tag k="ssr:stedsnr" v="161525" />
	</node>
	<node lat="61.02103611140854" lon="12.147461117165648" id="-19668">
		<tag k="name" v="Torvdammen" />
		<tag k="ssr:stedsnr" v="161527" />
		<tag k="waterway" v="dam" />
	</node>
	<node lat="60.72719444395894" lon="11.87966666011247" id="-19672">
		<tag k="name" v="Hasla" />
		<tag k="ssr:stedsnr" v="163036" />
		<tag k="waterway" v="stream" />
	</node>
	<node lat="60.71277221850884" lon="11.950130563567669" id="-19681">
		<tag k="name" v="Kittelsmyrbekken" />
		<tag k="ssr:stedsnr" v="176295" />
		<tag k="waterway" v="stream" />
	</node>
	<node lat="60.744041665781786" lon="11.845799999911504" id="-19690">
		<tag k="name" v="Langneset" />
		<tag k="natural" v="cape" />
		<tag k="ssr:stedsnr" v="178458" />
	</node>
	<node lat="60.87692222181248" lon="12.11460277365454" id="-19693">
		<tag k="name" v="Elsetslotjernet" />
		<tag k="natural" v="water" />
		<tag k="ssr:stedsnr" v="178351" />
	</node>
	<node lat="60.896161109294965" lon="12.013913890170276" id="-19695">
		<tag k="name" v="Faderbekken" />
		<tag k="ssr:stedsnr" v="178991" />
		<tag k="waterway" v="stream" />
	</node>
	<node lat="60.88353611412921" lon="12.010449994383924" id="-19696">
		<tag k="name" v="Trøsketjernet" />
		<tag k="natural" v="water" />
		<tag k="ssr:stedsnr" v="178994" />
	</node>
	<node lat="60.88275833715071" lon="12.031841675894484" id="-19697">
		<tag k="name" v="Svinfløyta" />
		<tag k="natural" v="water" />
		<tag k="ssr:stedsnr" v="178999" />
		<tag k="water" v="lake" />
	</node>
	<node lat="60.78403611208943" lon="12.055261119839223" id="-19704">
		<tag k="name" v="Mellemåa" />
		<tag k="ssr:stedsnr" v="180746" />
		<tag k="waterway" v="stream" />
	</node>
	<node lat="60.619600002377624" lon="11.690336120174429" id="-19710">
		<tag k="name" v="Jerntjernet" />
		<tag k="natural" v="water" />
		<tag k="ssr:stedsnr" v="189158" />
	</node>
	<node lat="60.70817778056908" lon="11.641150001634445" id="-19715">
		<tag k="name" v="Gåstjernet" />
		<tag k="natural" v="water" />
		<tag k="ssr:stedsnr" v="189229" />
	</node>
	<node lat="60.94596388785462" lon="12.02891111795694" id="-19731">
		<tag k="name" v="Gjeddsjøåa" />
		<tag k="ssr:stedsnr" v="191444" />
		<tag k="waterway" v="stream" />
	</node>
	<node lat="60.864155555133514" lon="12.095274990913305" id="-19733">
		<tag k="name" v="Kaskonsbekken" />
		<tag k="ssr:stedsnr" v="191538" />
		<tag k="waterway" v="stream" />
	</node>
	<node lat="60.8763916627488" lon="12.31425832697642" id="-19734">
		<tag k="name" v="Kompassen" />
		<tag k="place" v="islet" />
		<tag k="ssr:stedsnr" v="191634" />
	</node>
	<node lat="60.84204721824178" lon="12.321522222421422" id="-19759">
		<tag k="name" v="Haloset" />
		<tag k="natural" v="bay" />
		<tag k="ssr:stedsnr" v="283362" />
	</node>
	<node lat="60.79137500118879" lon="11.896541673848247" id="-19772">
		<tag k="name" v="Magnhildtjernet" />
		<tag k="natural" v="water" />
		<tag k="ssr:stedsnr" v="298337" />
	</node>
	<node lat="60.74498055997383" lon="11.638577781848278" id="-19773">
		<tag k="name" v="Knappvika" />
		<tag k="natural" v="bay" />
		<tag k="ssr:stedsnr" v="298361" />
	</node>
	<node lat="60.9130083314467" lon="12.062844439393388" id="-19775">
		<tag k="name" v="Brebumyrbekken" />
		<tag k="ssr:stedsnr" v="299364" />
		<tag k="waterway" v="stream" />
	</node>
	<node lat="60.96290555365805" lon="12.198402774497294" id="-19778">
		<tag k="name" v="Tierbekken" />
		<tag k="ssr:stedsnr" v="299483" />
		<tag k="waterway" v="stream" />
	</node>
	<node lat="60.654886109919296" lon="11.828633336723819" id="-19779">
		<tag k="name" v="Kirkeholmen" />
		<tag k="place" v="islet" />
		<tag k="ssr:stedsnr" v="300116" />
	</node>
	<node lat="61.00582777909945" lon="12.227894450701887" id="-19780">
		<tag k="name" v="Linnbekken" />
		<tag k="ssr:stedsnr" v="300457" />
		<tag k="waterway" v="stream" />
	</node>
	<node lat="60.70041944792191" lon="11.946547217860358" id="-19786">
		<tag k="name" v="Delbekken" />
		<tag k="ssr:stedsnr" v="301441" />
		<tag k="waterway" v="stream" />
	</node>
	<node lat="60.905399996879666" lon="12.109136113038236" id="-19788">
		<tag k="name" v="Torsteinstjernet" />
		<tag k="natural" v="water" />
		<tag k="ssr:stedsnr" v="302367" />
	</node>
	<node lat="60.71997500360063" lon="11.771849999707197" id="-19800">
		<tag k="name" v="Engåa" />
		<tag k="ssr:stedsnr" v="310300" />
		<tag k="waterway" v="stream" />
	</node>
	<node lat="60.89024471923335" lon="12.063208577715255" id="-19805">
		<tag k="alt_name" v="Vivangstjerna" />
		<tag k="name" v="Vidvangstjerna" />
		<tag k="natural" v="water" />
		<tag k="ssr:stedsnr" v="312457" />
		<tag k="water" v="lake" />
	</node>
	<node lat="60.81369444171647" lon="12.060408339152891" id="-19807">
		<tag k="name" v="Knøssjøen" />
		<tag k="natural" v="water" />
		<tag k="ssr:stedsnr" v="312529" />
	</node>
	<node lat="60.876383334952436" lon="12.092955558409644" id="-19813">
		<tag k="name" v="Steintjernet" />
		<tag k="natural" v="water" />
		<tag k="ssr:stedsnr" v="313582" />
	</node>
	<node lat="60.6247916667296" lon="11.685858332170747" id="-19816">
		<tag k="name" v="Viertjernsbekken" />
		<tag k="ssr:stedsnr" v="342217" />
		<tag k="waterway" v="stream" />
	</node>
	<node lat="60.70459166968093" lon="11.739394437727482" id="-19826">
		<tag k="alt_name" v="Husåstjennet" />
		<tag k="name" v="Husåstjernet" />
		<tag k="natural" v="water" />
		<tag k="ssr:stedsnr" v="345201" />
	</node>
	<node lat="60.845669446430385" lon="12.145263888119068" id="-19831">
		<tag k="name" v="Lalatjernet" />
		<tag k="natural" v="water" />
		<tag k="ssr:stedsnr" v="358341" />
	</node>
	<node lat="60.878008330056495" lon="12.089688887434482" id="-19841">
		<tag k="name" v="Gråbergsmerratjernet" />
		<tag k="natural" v="water" />
		<tag k="ssr:stedsnr" v="360348" />
	</node>
	<node lat="60.866252781703324" lon="12.012561109856716" id="-19844">
		<tag k="name" v="Kjekkonsbekken" />
		<tag k="ssr:stedsnr" v="360984" />
		<tag k="waterway" v="stream" />
	</node>
	<node lat="60.887977780214165" lon="12.036455560327024" id="-19847">
		<tag k="name" v="Steinmyrdam" />
		<tag k="ssr:stedsnr" v="360993" />
		<tag k="waterway" v="dam" />
	</node>
	<node lat="60.591805556384934" lon="11.68939166130838" id="-19856">
		<tag k="name" v="Fjellsjøen" />
		<tag k="natural" v="water" />
		<tag k="ssr:stedsnr" v="371164" />
	</node>
	<node lat="60.715080558194394" lon="11.710624991246455" id="-19863">
		<tag k="alt_name" v="Drykjeåa" />
		<tag k="name" v="Drykkjeåa" />
		<tag k="ssr:stedsnr" v="371297" />
		<tag k="waterway" v="stream" />
	</node>
	<node lat="60.82442499623164" lon="12.108983335077887" id="-19875">
		<tag k="name" v="Morttjernet" />
		<tag k="natural" v="water" />
		<tag k="ssr:stedsnr" v="373540" />
	</node>
	<node lat="60.83075277390154" lon="12.111258337248051" id="-19877">
		<tag k="alt_name" v="Bølsjøen, s" />
		<tag k="name" v="Søndre Bølsjøen" />
		<tag k="natural" v="water" />
		<tag k="ssr:stedsnr" v="373627" />
		<tag k="water" v="lake" />
	</node>
	<node lat="60.85675277341458" lon="12.13863611061914" id="-19881">
		<tag k="name" v="Børildbekken" />
		<tag k="ssr:stedsnr" v="373576" />
		<tag k="waterway" v="stream" />
	</node>
	<node lat="60.923294440215024" lon="12.293936102181174" id="-19883">
		<tag k="name" v="Svartbekken" />
		<tag k="ssr:stedsnr" v="373724" />
		<tag k="waterway" v="stream" />
	</node>
	<node lat="60.58576388567461" lon="11.734780553136742" id="-19899">
		<tag k="name" v="Svantjernsbekken" />
		<tag k="ssr:stedsnr" v="406269" />
		<tag k="waterway" v="stream" />
	</node>
	<node lat="60.88117777803528" lon="12.106077773786028" id="-19910">
		<tag k="name" v="Nordre Lømyrtjernet" />
		<tag k="natural" v="water" />
		<tag k="ssr:stedsnr" v="421362" />
	</node>
	<node lat="60.95740833457189" lon="12.23280277094568" id="-19913">
		<tag k="name" v="Kubekken" />
		<tag k="ssr:stedsnr" v="421485" />
		<tag k="waterway" v="stream" />
	</node>
	<node lat="61.0243888872533" lon="12.156227783983905" id="-19914">
		<tag k="name" v="Oleabrennbekken" />
		<tag k="ssr:stedsnr" v="421773" />
		<tag k="waterway" v="stream" />
	</node>
	<node lat="60.93943888528743" lon="11.516244438964907" id="-19918">
		<tag k="fixme" v="multiple name tags, choose one and add the other to alt_name" />
		<tag k="name" v="Glåma;Glomma" />
		<tag k="ssr:stedsnr" v="426301" />
		<tag k="waterway" v="river" />
	</node>
	<node lat="60.639422221661114" lon="11.832547225625905" id="-19919">
		<tag k="alt_name" v="Magnesåa" />
		<tag k="name" v="Mangnesåa" />
		<tag k="ssr:stedsnr" v="431301" />
		<tag k="waterway" v="stream" />
	</node>
	<node lat="60.59111944056352" lon="11.63976666916476" id="-19925">
		<tag k="name" v="Øvre Gåsvatn" />
		<tag k="natural" v="water" />
		<tag k="old_name" v="Gårdsvatn, øvre;Gaardsvand nordre" />
		<tag k="ssr:stedsnr" v="432157" />
	</node>
	<node lat="60.827641671126216" lon="12.094352779856509" id="-19934">
		<tag k="name" v="Koieplasstjernet" />
		<tag k="natural" v="water" />
		<tag k="ssr:stedsnr" v="434601" />
	</node>
	<node lat="60.59756944575674" lon="11.838277774033697" id="-19936">
		<tag k="name" v="Tverråa" />
		<tag k="ssr:stedsnr" v="433964" />
		<tag k="waterway" v="river" />
	</node>
	<node lat="60.76139999807426" lon="11.771497230324606" id="-19939">
		<tag k="name" v="Sorma" />
		<tag k="ssr:stedsnr" v="434377" />
		<tag k="waterway" v="stream" />
	</node>
	<node lat="60.90103055550055" lon="12.050374993572696" id="-19941">
		<tag k="alt_name" v="Breibubekken" />
		<tag k="name" v="Breidbubekken" />
		<tag k="ssr:stedsnr" v="434400" />
		<tag k="waterway" v="stream" />
	</node>
	<node lat="60.954483331039704" lon="12.148113894911067" id="-19942">
		<tag k="name" v="Ørbekken" />
		<tag k="ssr:stedsnr" v="434445" />
		<tag k="waterway" v="stream" />
	</node>
	<node lat="60.89551666308158" lon="12.261611119761618" id="-19943">
		<tag k="name" v="Mordosobekken" />
		<tag k="ssr:stedsnr" v="434682" />
		<tag k="waterway" v="stream" />
	</node>
	<node lat="60.8745166631391" lon="12.095519437672506" id="-19947">
		<tag k="name" v="Bruslotjernet" />
		<tag k="natural" v="water" />
		<tag k="ssr:stedsnr" v="434563" />
	</node>
	<node lat="60.88048611058066" lon="12.084502776931803" id="-19952">
		<tag k="name" v="Langtjernet" />
		<tag k="natural" v="water" />
		<tag k="ssr:stedsnr" v="495589" />
	</node>
	<node lat="61.04850277591344" lon="12.150086107693198" id="-19960">
		<tag k="name" v="Kjølbergsbekken" />
		<tag k="ssr:stedsnr" v="525522" />
		<tag k="waterway" v="stream" />
	</node>
	<node lat="60.89283055683774" lon="12.159516666697568" id="-19962">
		<tag k="name" v="Trekvibekken" />
		<tag k="ssr:stedsnr" v="526500" />
		<tag k="waterway" v="stream" />
	</node>
	<node lat="60.705094441664706" lon="11.790322213441419" id="-19964">
		<tag k="name" v="Tjuvholmen" />
		<tag k="natural" v="cape" />
		<tag k="ssr:stedsnr" v="527052" />
	</node>
	<node lat="60.58680833528785" lon="11.810902776376532" id="-19967">
		<tag k="name" v="Svarttjernet" />
		<tag k="natural" v="water" />
		<tag k="ssr:stedsnr" v="527107" />
	</node>
	<node lat="60.69480555579021" lon="11.753786111965876" id="-19972">
		<tag k="name" v="Igletjennsbekken" />
		<tag k="ssr:stedsnr" v="527199" />
		<tag k="waterway" v="stream" />
	</node>
	<node lat="61.010597223012496" lon="12.150883328500074" id="-19983">
		<tag k="name" v="Pissbekken" />
		<tag k="ssr:stedsnr" v="540554" />
		<tag k="waterway" v="stream" />
	</node>
	<node lat="60.67966111024338" lon="11.76340278208524" id="-19993">
		<tag k="name" v="Butjerna" />
		<tag k="natural" v="water" />
		<tag k="ssr:stedsnr" v="544161" />
		<tag k="water" v="lake" />
	</node>
	<node lat="60.62252500358865" lon="11.747933337351975" id="-20001">
		<tag k="name" v="Gammelsæterbekken" />
		<tag k="ssr:stedsnr" v="553159" />
		<tag k="waterway" v="stream" />
	</node>
	<node lat="60.70702500163328" lon="11.675644439645882" id="-20005">
		<tag k="alt_name" v="Drykkjetjennet" />
		<tag k="name" v="Drykjetjernet" />
		<tag k="natural" v="water" />
		<tag k="ssr:stedsnr" v="553251" />
	</node>
	<node lat="60.85038888475751" lon="12.138250001829938" id="-20010">
		<tag k="name" v="Jonsoktjernet" />
		<tag k="natural" v="water" />
		<tag k="ssr:stedsnr" v="554666" />
	</node>
	<node lat="60.77737958920854" lon="11.940221578494118" id="-20013">
		<tag k="name" v="Holtsjøen" />
		<tag k="natural" v="water" />
		<tag k="ssr:stedsnr" v="555451" />
		<tag k="water" v="lake" />
	</node>
	<node lat="60.88911111337279" lon="12.283461116853438" id="-20014">
		<tag k="alt_name" v="Adosobekken" />
		<tag k="name" v="Addassobekken" />
		<tag k="ssr:stedsnr" v="555654" />
		<tag k="waterway" v="stream" />
	</node>
	<node lat="60.63277778080618" lon="11.66356667474986" id="-20017">
		<tag k="name" v="Svarttjernsbekken" />
		<tag k="ssr:stedsnr" v="585194" />
		<tag k="waterway" v="stream" />
	</node>
	<node lat="60.61486944224366" lon="11.677727775065636" id="-20019">
		<tag k="name" v="Stakamyrbekken" />
		<tag k="ssr:stedsnr" v="585212" />
		<tag k="waterway" v="stream" />
	</node>
	<node lat="60.76414166289135" lon="11.799625002115425" id="-20022">
		<tag k="name" v="Nydammen" />
		<tag k="ssr:stedsnr" v="585279" />
		<tag k="waterway" v="dam" />
	</node>
	<node lat="60.840147223176345" lon="12.076813883007413" id="-20030">
		<tag k="name" v="Fiskelausbekken" />
		<tag k="ssr:stedsnr" v="587381" />
		<tag k="waterway" v="stream" />
	</node>
	<node lat="60.844244443671116" lon="12.015524992333518" id="-20039">
		<tag k="name" v="Mortensmyrkroken" />
		<tag k="place" v="locality" />
		<tag k="ssr:stedsnr" v="587977" />
	</node>
	<node lat="60.97443889226331" lon="12.151363884856861" id="-20040">
		<tag k="name" v="Gråbergskoiebekken" />
		<tag k="ssr:stedsnr" v="600525" />
		<tag k="waterway" v="stream" />
	</node>
	<node lat="60.8849444436822" lon="12.064250003357007" id="-20041">
		<tag k="name" v="Veltsilkebekken" />
		<tag k="ssr:stedsnr" v="601273" />
		<tag k="waterway" v="stream" />
	</node>
	<node lat="60.73845277586485" lon="11.958738881602336" id="-20042">
		<tag k="name" v="Gørtjernet" />
		<tag k="natural" v="water" />
		<tag k="ssr:stedsnr" v="601283" />
	</node>
	<node lat="60.75541666295394" lon="11.922358329745133" id="-20047">
		<tag k="name" v="Sæteråstjernet" />
		<tag k="natural" v="water" />
		<tag k="ssr:stedsnr" v="601336" />
	</node>
	<node lat="60.824877780560946" lon="12.034969445782846" id="-20048">
		<tag k="name" v="Åbortjernet" />
		<tag k="natural" v="water" />
		<tag k="ssr:stedsnr" v="601735" />
	</node>
	<node lat="60.83106944104269" lon="12.020672215231677" id="-20049">
		<tag k="name" v="Hovelsvika" />
		<tag k="natural" v="bay" />
		<tag k="ssr:stedsnr" v="601736" />
	</node>
	<node lat="60.90953889088367" lon="12.076977785432263" id="-20050">
		<tag k="name" v="Sørtjernet" />
		<tag k="natural" v="water" />
		<tag k="ssr:stedsnr" v="602345" />
	</node>
	<node lat="60.923222218797044" lon="12.089375006052006" id="-20051">
		<tag k="name" v="Brånåmyrbekken" />
		<tag k="ssr:stedsnr" v="602359" />
		<tag k="waterway" v="stream" />
	</node>
	<node lat="60.881855558349045" lon="12.072555558423687" id="-20052">
		<tag k="name" v="Okstjernet" />
		<tag k="natural" v="water" />
		<tag k="ssr:stedsnr" v="602377" />
	</node>
	<node lat="60.87992777644372" lon="12.138622230290448" id="-20054">
		<tag k="name" v="Kjøltjernet" />
		<tag k="natural" v="water" />
		<tag k="ssr:stedsnr" v="602382" />
	</node>
	<node lat="60.7345888911799" lon="11.889169439599254" id="-20057">
		<tag k="name" v="Lilleåsbekken" />
		<tag k="ssr:stedsnr" v="603445" />
		<tag k="waterway" v="stream" />
	</node>
	<node lat="60.920433331074896" lon="12.014158330877954" id="-20064">
		<tag k="name" v="Sørkjølbekken" />
		<tag k="ssr:stedsnr" v="604967" />
		<tag k="waterway" v="stream" />
	</node>
	<node lat="60.5781333301538" lon="11.755536116436081" id="-20066">
		<tag k="name" v="Buråstjernet" />
		<tag k="natural" v="water" />
		<tag k="ssr:stedsnr" v="613140" />
	</node>
	<node lat="60.59675833303984" lon="11.706702770314363" id="-20068">
		<tag k="name" v="Fjellsjøbekken" />
		<tag k="ssr:stedsnr" v="613153" />
		<tag k="waterway" v="stream" />
	</node>
	<node lat="60.66416944728278" lon="11.664336105046793" id="-20074">
		<tag k="name" v="Totjerna" />
		<tag k="natural" v="water" />
		<tag k="ssr:stedsnr" v="613374" />
		<tag k="water" v="lake" />
	</node>
	<node lat="60.67351388771139" lon="11.706702782165058" id="-20075">
		<tag k="name" v="Svarttjernet" />
		<tag k="natural" v="water" />
		<tag k="ssr:stedsnr" v="613384" />
	</node>
	<node lat="60.82123055335358" lon="12.051780552687209" id="-20084">
		<tag k="name" v="Holsjøen" />
		<tag k="natural" v="water" />
		<tag k="ssr:stedsnr" v="615584" />
	</node>
	<node lat="60.829080556227254" lon="12.04572222328343" id="-20085">
		<tag k="name" v="Fiskelausbekken" />
		<tag k="ssr:stedsnr" v="615587" />
		<tag k="waterway" v="stream" />
	</node>
	<node lat="60.926777781063294" lon="12.139233341594187" id="-20086">
		<tag k="name" v="Ariabekken" />
		<tag k="ssr:stedsnr" v="615471" />
		<tag k="waterway" v="stream" />
	</node>
	<node lat="60.975980556585704" lon="12.118975004508078" id="-20088">
		<tag k="alt_name" v="Gjettjernbekken" />
		<tag k="name" v="Gjeddebekken" />
		<tag k="ssr:stedsnr" v="616393" />
		<tag k="waterway" v="stream" />
	</node>
	<node lat="60.985188886619" lon="12.199286101890857" id="-20090">
		<tag k="name" v="Enbergsbekken" />
		<tag k="ssr:stedsnr" v="616361" />
		<tag k="waterway" v="stream" />
	</node>
	<node lat="60.64795277601723" lon="11.781430562103187" id="-20092">
		<tag k="name" v="Siringsbekken" />
		<tag k="ssr:stedsnr" v="646102" />
		<tag k="waterway" v="stream" />
	</node>
	<node lat="60.89476666957548" lon="12.253127773422896" id="-20096">
		<tag k="name" v="Gullikjelda" />
		<tag k="natural" v="spring" />
		<tag k="ssr:stedsnr" v="646468" />
	</node>
	<node lat="60.903649999967946" lon="12.062188894513454" id="-20101">
		<tag k="name" v="Øvre Koho" />
		<tag k="natural" v="water" />
		<tag k="ssr:stedsnr" v="648356" />
	</node>
	<node lat="60.70972777857922" lon="11.784394437567665" id="-20102">
		<tag k="name" v="Braskereidfossen" />
		<tag k="natural" v="waterfall" />
		<tag k="ssr:stedsnr" v="648057" />
	</node>
	<node lat="60.69293888964913" lon="11.766488884704453" id="-20109">
		<tag k="alt_name" v="Vesle Igletjenn" />
		<tag k="name" v="Vesle Igletjernet" />
		<tag k="natural" v="water" />
		<tag k="ssr:stedsnr" v="648218" />
	</node>
	<node lat="60.61910000052821" lon="11.795736112298435" id="-20115">
		<tag k="name" v="Vestsjøbekken" />
		<tag k="ssr:stedsnr" v="662059" />
		<tag k="waterway" v="stream" />
	</node>
	<node lat="60.90457222305152" lon="12.057769447629086" id="-20117">
		<tag k="name" v="Øvre Dam" />
		<tag k="ssr:stedsnr" v="663328" />
		<tag k="waterway" v="dam" />
	</node>
	<node lat="60.91934722634584" lon="12.066300006655645" id="-20118">
		<tag k="name" v="Fiskhullet" />
		<tag k="natural" v="water" />
		<tag k="ssr:stedsnr" v="663330" />
		<tag k="water" v="pond" />
	</node>
	<node lat="60.64430555989672" lon="11.734569448653184" id="-20124">
		<tag k="name" v="Svarttjernet" />
		<tag k="natural" v="water" />
		<tag k="ssr:stedsnr" v="665269" />
	</node>
	<node lat="60.886105556771376" lon="12.05743055725583" id="-20133">
		<tag k="name" v="Sundtjernet" />
		<tag k="natural" v="water" />
		<tag k="ssr:stedsnr" v="722316" />
	</node>
	<node lat="60.908999998153845" lon="12.069588887079462" id="-20136">
		<tag k="name" v="Sørstjernbekken" />
		<tag k="ssr:stedsnr" v="724324" />
		<tag k="waterway" v="stream" />
	</node>
	<node lat="60.63838611253936" lon="11.854125004598037" id="-20159">
		<tag k="name" v="Holmen" />
		<tag k="place" v="islet" />
		<tag k="ssr:stedsnr" v="735062" />
	</node>
	<node lat="60.57715966304713" lon="11.811005718938084" id="-20160">
		<tag k="name" v="Åsnesmangen" />
		<tag k="natural" v="water" />
		<tag k="ssr:stedsnr" v="735139" />
		<tag k="water" v="lake" />
	</node>
	<node lat="60.97113333111343" lon="12.120297220332935" id="-20167">
		<tag k="name" v="Koiebekken" />
		<tag k="ssr:stedsnr" v="737383" />
		<tag k="waterway" v="stream" />
	</node>
	<node lat="60.76714166716756" lon="11.953086111456859" id="-20170">
		<tag k="name" v="Vangmyrbekken" />
		<tag k="ssr:stedsnr" v="737532" />
		<tag k="waterway" v="stream" />
	</node>
	<node lat="60.85239166419229" lon="12.306538895014693" id="-20173">
		<tag k="name" v="Kverntjernet" />
		<tag k="natural" v="water" />
		<tag k="ssr:stedsnr" v="737685" />
	</node>
	<node lat="60.95273888743301" lon="12.270430549206852" id="-20174">
		<tag k="name" v="Barsjøostjernet" />
		<tag k="natural" v="water" />
		<tag k="ssr:stedsnr" v="737690" />
	</node>
	<node lat="60.94386666721752" lon="12.049636107900756" id="-20178">
		<tag k="name" v="Trysilkoibekken" />
		<tag k="ssr:stedsnr" v="769618" />
		<tag k="waterway" v="stream" />
	</node>
	<node lat="60.78548611056187" lon="12.048561105275867" id="-20201">
		<tag k="name" v="Søndre Fløgdammen" />
		<tag k="ssr:stedsnr" v="787741" />
		<tag k="waterway" v="dam" />
	</node>
	<node lat="60.60773333557729" lon="11.755119451272229" id="-20203">
		<tag k="name" v="Ostjernet" />
		<tag k="natural" v="water" />
		<tag k="ssr:stedsnr" v="795225" />
	</node>
	<node lat="60.67473333317471" lon="11.6711972208067" id="-20205">
		<tag k="alt_name" v="Nordre Sætersjøen;Søndre Sætersjøen" />
		<tag k="name" v="Sætersjøen" />
		<tag k="natural" v="water" />
		<tag k="ssr:stedsnr" v="795427" />
		<tag k="water" v="lake" />
	</node>
	<node lat="60.89189999982617" lon="12.019127773590455" id="-20216">
		<tag k="name" v="Merrabekken" />
		<tag k="ssr:stedsnr" v="798430" />
		<tag k="waterway" v="stream" />
	</node>
	<node lat="60.91834999691613" lon="12.287052775725801" id="-20225">
		<tag k="alt_name" v="Gotjennet" />
		<tag k="name" v="Gotjernet" />
		<tag k="natural" v="water" />
		<tag k="ssr:stedsnr" v="829374" />
	</node>
	<node lat="60.57004722128874" lon="11.76969167424099" id="-20232">
		<tag k="name" v="Sjurderudsætertjernet" />
		<tag k="natural" v="water" />
		<tag k="ssr:stedsnr" v="831252" />
	</node>
	<node lat="60.90604721861571" lon="12.076052772847865" id="-20250">
		<tag k="name" v="Honningkaketjernet" />
		<tag k="natural" v="water" />
		<tag k="ssr:stedsnr" v="846321" />
	</node>
	<node lat="60.750363890647535" lon="11.876319436516797" id="-20253">
		<tag k="name" v="Danielsdammen" />
		<tag k="natural" v="water" />
		<tag k="ssr:stedsnr" v="846451" />
	</node>
	<node lat="60.81310555453" lon="12.054955548513178" id="-20256">
		<tag k="name" v="Kjelltjernet" />
		<tag k="natural" v="water" />
		<tag k="ssr:stedsnr" v="847741" />
	</node>
	<node lat="60.746733329139744" lon="12.201530561680393" id="-20268">
		<tag k="name" v="Kynna" />
		<tag k="ssr:stedsnr" v="857240" />
		<tag k="waterway" v="river" />
	</node>
	<node lat="60.78817500089283" lon="11.799150006049766" id="-20274">
		<tag k="name" v="Rådelsbekken" />
		<tag k="ssr:stedsnr" v="859335" />
		<tag k="waterway" v="stream" />
	</node>
	<node lat="60.707419442477715" lon="11.78354999085125" id="-20286">
		<tag k="name" v="Fossvika" />
		<tag k="natural" v="bay" />
		<tag k="ssr:stedsnr" v="952060" />
	</node>
	<node lat="60.68465277391542" lon="11.636713892188462" id="-20294">
		<tag k="name" v="Gillerhaugtjernet" />
		<tag k="natural" v="water" />
		<tag k="ssr:stedsnr" v="952900" />
	</node>
	<node lat="60.85786666865833" lon="12.002461110587868" id="-20296">
		<tag k="name" v="Ingeborghullet" />
		<tag k="place" v="locality" />
		<tag k="ssr:stedsnr" v="952981" />
	</node>
	<node lat="60.727324999388614" lon="11.641352783322494" id="-20302">
		<tag k="name" v="Ruskebergsvika" />
		<tag k="natural" v="bay" />
		<tag k="ssr:stedsnr" v="965243" />
	</node>
	<node lat="60.72483889130248" lon="11.654513885277956" id="-20303">
		<tag k="name" v="Vesle Aurtjernet" />
		<tag k="natural" v="water" />
		<tag k="ssr:stedsnr" v="965246" />
	</node>
	<node lat="60.72510555966294" lon="11.641822219582481" id="-20304">
		<tag k="name" v="Ruskebekken" />
		<tag k="ssr:stedsnr" v="965248" />
		<tag k="waterway" v="stream" />
	</node>
	<node lat="60.885908331398795" lon="12.065558334017325" id="-20307">
		<tag k="name" v="Veltsilken" />
		<tag k="natural" v="water" />
		<tag k="ssr:stedsnr" v="965328" />
	</node>
	<node lat="60.911033334668566" lon="12.017866669404047" id="-20316">
		<tag k="name" v="Mattismyrbekken" />
		<tag k="ssr:stedsnr" v="968961" />
		<tag k="waterway" v="stream" />
	</node>
</osm>
