<?xml version="1.0" encoding="UTF-8"?>
<osm version="0.6" generator="osmapis">
	<node lat="60.83701666380661" lon="12.159952768983779" id="-36559">
		<tag k="highway" v="path" />
		<tag k="name" v="Finnvegen" />
		<tag k="ssr:stedsnr" v="239766" />
	</node>
	<node lat="60.878933331078194" lon="12.018516666112816" id="-36606">
		<tag k="bridge" v="yes" />
		<tag k="layer" v="1" />
		<tag k="name" v="Silksjødammen" />
		<tag k="ssr:stedsnr" v="107709" />
	</node>
	<node lat="60.77134521423603" lon="11.935508807076769" id="-36607">
		<tag k="bridge" v="yes" />
		<tag k="layer" v="1" />
		<tag k="name" v="Holtsjødammen bru" />
		<tag k="ssr:stedsnr" v="107711" />
	</node>
	<node lat="60.59772691718411" lon="11.880340347655888" id="-36673">
		<tag k="bridge" v="yes" />
		<tag k="layer" v="1" />
		<tag k="name" v="Øvre Tverrå bru" />
		<tag k="ssr:stedsnr" v="168676" />
	</node>
	<node lat="60.23234721891594" lon="12.45742222348456" id="-36726">
		<tag k="highway" v="path" />
		<tag k="name" v="Finnskogleden" />
		<tag k="ssr:stedsnr" v="265983" />
	</node>
	<node lat="60.915400002507276" lon="12.30177500371173" id="-36786">
		<tag k="name" v="Govelta" />
		<tag k="place" v="locality" />
		<tag k="ssr:stedsnr" v="343346" />
	</node>
	<node lat="60.8680611123027" lon="12.263988881075235" id="-36791">
		<tag k="junction" v="yes" />
		<tag k="name" v="Stormyrkrysset" />
		<tag k="place" v="locality" />
		<tag k="ssr:stedsnr" v="358248" />
	</node>
	<node lat="60.84346350650437" lon="12.310523409314216" id="-36968">
		<tag k="alt_name" v="Ytre Ulvå bru" />
		<tag k="bridge" v="yes" />
		<tag k="layer" v="1" />
		<tag k="name" v="Ulvå bru" />
		<tag k="ssr:stedsnr" v="532674" />
	</node>
	<node lat="60.77263601942132" lon="11.878756569479751" id="-37031">
		<tag k="alt_name" v="Dipå Østre" />
		<tag k="bridge" v="yes" />
		<tag k="layer" v="1" />
		<tag k="name" v="Dipbrua" />
		<tag k="ssr:stedsnr" v="653694" />
	</node>
	<node lat="60.90871666339173" lon="12.15150277224959" id="-37039">
		<tag k="name" v="Bjørkhullvelta" />
		<tag k="place" v="locality" />
		<tag k="ssr:stedsnr" v="661306" />
	</node>
	<node lat="60.86742778016057" lon="12.212800006914254" id="-37041">
		<tag k="highway" v="path" />
		<tag k="name" v="Kirkevegen" />
		<tag k="ssr:stedsnr" v="661235" />
	</node>
	<node lat="60.64225833196695" lon="11.81947778012169" id="-37093">
		<tag k="bridge" v="yes" />
		<tag k="layer" v="1" />
		<tag k="name" v="Stjerterud" />
		<tag k="ssr:stedsnr" v="896736" />
	</node>
	<node lat="60.75244862932517" lon="11.762246872504093" id="-37094">
		<tag k="bridge" v="yes" />
		<tag k="layer" v="1" />
		<tag k="name" v="Sorma bru" />
		<tag k="ssr:stedsnr" v="896738" />
	</node>
	<node lat="60.698069443799625" lon="11.907463888799281" id="-37095">
		<tag k="bridge" v="yes" />
		<tag k="layer" v="1" />
		<tag k="name" v="Strætkvern bru" />
		<tag k="ssr:stedsnr" v="896741" />
	</node>
	<node lat="60.84108888778778" lon="12.138725004495054" id="-37096">
		<tag k="bridge" v="yes" />
		<tag k="layer" v="1" />
		<tag k="name" v="Gjerdå" />
		<tag k="ssr:stedsnr" v="896742" />
	</node>
	<node lat="60.70825029136484" lon="11.909105138839458" id="-37101">
		<tag k="bridge" v="yes" />
		<tag k="layer" v="1" />
		<tag k="name" v="Åbakken bru" />
		<tag k="ssr:stedsnr" v="714674" />
	</node>
	<node lat="60.86913333526336" lon="12.023752774910621" id="-37238">
		<tag k="name" v="Hjemvelta" />
		<tag k="place" v="locality" />
		<tag k="ssr:stedsnr" v="846988" />
	</node>
	<node lat="60.65248753110672" lon="11.834636219479655" id="-37269">
		<tag k="alt_name" v="Eidsfoss bru" />
		<tag k="bridge" v="yes" />
		<tag k="layer" v="1" />
		<tag k="name" v="Eidsbrua" />
		<tag k="ssr:stedsnr" v="890112" />
	</node>
	<node lat="60.71309165591663" lon="11.779509198419337" id="-37287">
		<tag k="bridge" v="yes" />
		<tag k="layer" v="1" />
		<tag k="name" v="Braskereidfoss bru" />
		<tag k="ssr:stedsnr" v="228726" />
	</node>
	<node lat="60.70481944590718" lon="11.827977769603526" id="-37299">
		<tag k="bridge" v="yes" />
		<tag k="layer" v="1" />
		<tag k="name" v="Kåtbekken" />
		<tag k="ssr:stedsnr" v="228738" />
	</node>
	<node lat="60.637924997940665" lon="11.841749998958003" id="-37487">
		<tag k="bridge" v="yes" />
		<tag k="layer" v="1" />
		<tag k="name" v="Magneså" />
		<tag k="ssr:stedsnr" v="168680" />
	</node>
	<node lat="60.87286196987825" lon="12.218839112868737" id="-37488">
		<tag k="bridge" v="yes" />
		<tag k="layer" v="1" />
		<tag k="name" v="Ulvåa bru" />
		<tag k="ssr:stedsnr" v="176245" />
	</node>
	<node lat="60.66304105419401" lon="11.934567705334596" id="-37712">
		<tag k="bridge" v="yes" />
		<tag k="layer" v="1" />
		<tag k="name" v="Sjølikvern bru" />
		<tag k="ssr:stedsnr" v="410694" />
	</node>
	<node lat="60.87271388598575" lon="12.218741657818784" id="-37713">
		<tag k="bridge" v="yes" />
		<tag k="layer" v="1" />
		<tag k="name" v="Ulvå bru" />
		<tag k="ssr:stedsnr" v="410696" />
	</node>
	<node lat="60.62515981621963" lon="11.708330434017691" id="-37721">
		<tag k="bridge" v="yes" />
		<tag k="layer" v="1" />
		<tag k="name" v="Snaråbrua" />
		<tag k="ssr:stedsnr" v="421220" />
	</node>
	<node lat="60.827612096671245" lon="12.027350399529347" id="-37852">
		<tag k="alt_name" v="Kynna bru" />
		<tag k="bridge" v="yes" />
		<tag k="layer" v="1" />
		<tag k="name" v="Kynnbrua" />
		<tag k="ssr:stedsnr" v="592737" />
	</node>
	<node lat="60.84015833144966" lon="12.108672224137216" id="-37938">
		<tag k="bridge" v="yes" />
		<tag k="layer" v="1" />
		<tag k="name" v="Bøla bru" />
		<tag k="ssr:stedsnr" v="714657" />
	</node>
	<node lat="60.70600000336427" lon="11.790883329003123" id="-37939">
		<tag k="bridge" v="yes" />
		<tag k="layer" v="1" />
		<tag k="name" v="Braskereidfoss kraftverk" />
		<tag k="ssr:stedsnr" v="714659" />
	</node>
	<node lat="60.7479222265058" lon="11.876574993914701" id="-37940">
		<tag k="bridge" v="yes" />
		<tag k="layer" v="1" />
		<tag k="name" v="Tørråskvern" />
		<tag k="ssr:stedsnr" v="714668" />
	</node>
	<node lat="60.71807500019754" lon="11.820452773490505" id="-37941">
		<tag k="bridge" v="yes" />
		<tag k="layer" v="1" />
		<tag k="name" v="Kristmobekk bru" />
		<tag k="ssr:stedsnr" v="714669" />
	</node>
	<node lat="60.70634722174598" lon="11.791922219921927" id="-37992">
		<tag k="landuse" v="industrial" />
		<tag k="name" v="Braskereidfoss kraftverk" />
		<tag k="power" v="plant" />
		<tag k="ssr:stedsnr" v="770061" />
	</node>
	<node lat="60.78644999839737" lon="11.97977499647203" id="-38002">
		<tag k="bridge" v="yes" />
		<tag k="layer" v="1" />
		<tag k="name" v="Haukås" />
		<tag k="ssr:stedsnr" v="774728" />
	</node>
	<node lat="60.64871388883989" lon="11.860802777270973" id="-38078">
		<tag k="name" v="Hasle" />
		<tag k="railway" v="station" />
		<tag k="ssr:stedsnr" v="857078" />
		<tag k="train" v="yes" />
	</node>
	<node lat="60.86116111343035" lon="12.064355554156482" id="-38103">
		<tag k="man_made" v="cairn" />
		<tag k="name" v="Varden" />
		<tag k="place" v="locality" />
		<tag k="ssr:stedsnr" v="952373" />
	</node>
	<node lat="60.72320011253541" lon="11.793464117899214" id="-38138">
		<tag k="name" v="Braskereidfoss stasjon" />
		<tag k="railway" v="station" />
		<tag k="ssr:stedsnr" v="990105" />
		<tag k="train" v="yes" />
	</node>
</osm>
