<?xml version="1.0" encoding="UTF-8"?>
<osm version="0.6" generator="osmapis">
	<node lat="60.740859318748676" lon="11.88929426872015" id="-16589">
		<tag k="fixme" v="consider place=hamlet" />
		<tag k="name" v="Bredalen" />
		<tag k="place" v="farm" />
		<tag k="ssr:stedsnr" v="7211" />
	</node>
	<node lat="60.704944440261244" lon="11.767641672749404" id="-16590">
		<tag k="name" v="Nyberg" />
		<tag k="place" v="farm" />
		<tag k="ssr:stedsnr" v="7266" />
	</node>
	<node lat="60.715842987595494" lon="11.84860878595203" id="-16591">
		<tag k="name" v="Skjæret" />
		<tag k="old_name" v="Kalkrotskjæret" />
		<tag k="place" v="locality" />
		<tag k="ssr:stedsnr" v="7200" />
	</node>
	<node lat="60.71980555549149" lon="11.661780548229583" id="-16592">
		<tag k="name" v="Aurtjernet" />
		<tag k="natural" v="water" />
		<tag k="ssr:stedsnr" v="7310" />
	</node>
	<node lat="60.65741944318563" lon="11.72706389402392" id="-16593">
		<tag k="name" v="Blåenga" />
		<tag k="natural" v="hill" />
		<tag k="place" v="locality" />
		<tag k="ssr:stedsnr" v="7319" />
	</node>
	<node lat="60.67758888954861" lon="11.769338893317368" id="-16594">
		<tag k="alt_name" v="Nedre Risåsen" />
		<tag k="name" v="Risåsen" />
		<tag k="place" v="farm" />
		<tag k="ssr:stedsnr" v="7351" />
	</node>
	<node lat="60.66562499897124" lon="11.800758332132087" id="-16595">
		<tag k="alt_name" v="Råi" />
		<tag k="name" v="Rået" />
		<tag k="place" v="farm" />
		<tag k="ssr:stedsnr" v="7365" />
	</node>
	<node lat="60.6252500036218" lon="11.851608337970932" id="-16596">
		<tag k="fixme" v="consider natural=peak for the most distinct mountains in the district" />
		<tag k="name" v="Brattåsen" />
		<tag k="natural" v="hill" />
		<tag k="place" v="locality" />
		<tag k="ssr:stedsnr" v="7800" />
	</node>
	<node lat="60.85236110677218" lon="12.33448333743737" id="-16597">
		<tag k="historic" v="boundary_stone" />
		<tag k="man_made" v="cairn" />
		<tag k="name" v="Skarpgjuvbergsrøysa" />
		<tag k="old_name" v="Skarp Diupbergs Røset" />
		<tag k="place" v="locality" />
		<tag k="ssr:stedsnr" v="231283" />
	</node>
	<node lat="60.84645833143679" lon="12.026916657470995" id="-16599">
		<tag k="name" v="Storbekken" />
		<tag k="ssr:stedsnr" v="9617" />
		<tag k="waterway" v="stream" />
	</node>
	<node lat="60.787519447705016" lon="12.020949991819297" id="-16600">
		<tag k="name" v="Søndre Fløgen" />
		<tag k="natural" v="water" />
		<tag k="ssr:stedsnr" v="9509" />
		<tag k="water" v="lake" />
	</node>
	<node lat="60.80474444366242" lon="11.99193333476826" id="-16601">
		<tag k="name" v="Åkerberget" />
		<tag k="natural" v="hill" />
		<tag k="place" v="locality" />
		<tag k="ssr:stedsnr" v="9516" />
	</node>
	<node lat="60.79915277950668" lon="11.948591662175014" id="-16602">
		<tag k="name" v="Rønningen" />
		<tag k="place" v="isolated_dwelling" />
		<tag k="ssr:stedsnr" v="9517" />
	</node>
	<node lat="60.93550000176417" lon="12.279111114097121" id="-16603">
		<tag k="alt_name" v="Åbortjernet" />
		<tag k="name" v="Abbortjernet" />
		<tag k="natural" v="water" />
		<tag k="ssr:stedsnr" v="9712" />
	</node>
	<node lat="60.90994444390799" lon="12.269861117613557" id="-16604">
		<tag k="name" v="Halbergknappen" />
		<tag k="natural" v="hill" />
		<tag k="place" v="locality" />
		<tag k="ssr:stedsnr" v="9714" />
	</node>
	<node lat="60.91030000214767" lon="12.230405558033281" id="-16605">
		<tag k="name" v="Fiskelaustjernet" />
		<tag k="natural" v="water" />
		<tag k="ssr:stedsnr" v="9715" />
	</node>
	<node lat="60.90298610986142" lon="12.311936109104234" id="-16606">
		<tag k="name" v="Oskoia" />
		<tag k="place" v="isolated_dwelling" />
		<tag k="ssr:stedsnr" v="9718" />
	</node>
	<node lat="60.8629861152839" lon="12.284975001478033" id="-16607">
		<tag k="name" v="Slettmotjernet" />
		<tag k="natural" v="water" />
		<tag k="ssr:stedsnr" v="9698" />
	</node>
	<node lat="60.86623889253242" lon="12.154144451950943" id="-16608">
		<tag k="name" v="Patenten" />
		<tag k="place" v="isolated_dwelling" />
		<tag k="ssr:stedsnr" v="10583" />
	</node>
	<node lat="60.87997222232129" lon="12.309088879974837" id="-16609">
		<tag k="name" v="Langneskoia" />
		<tag k="place" v="locality" />
		<tag k="ssr:stedsnr" v="233036" />
	</node>
	<node lat="60.92626666420013" lon="12.072825008062114" id="-16610">
		<tag k="name" v="Kristensonkoia" />
		<tag k="place" v="isolated_dwelling" />
		<tag k="ssr:stedsnr" v="20599" />
	</node>
	<node lat="60.76222778034744" lon="11.970741665082423" id="-16611">
		<tag k="name" v="Vangmyra" />
		<tag k="natural" v="wetland" />
		<tag k="ssr:stedsnr" v="237737" />
	</node>
	<node lat="60.89916944480018" lon="12.277977772902117" id="-16612">
		<tag k="name" v="Adoso" />
		<tag k="natural" v="valley" />
		<tag k="place" v="locality" />
		<tag k="ssr:stedsnr" v="40449" />
	</node>
	<node lat="60.83638888667928" lon="12.162419446917578" id="-16613">
		<tag k="name" v="Enerkoia" />
		<tag k="place" v="locality" />
		<tag k="ssr:stedsnr" v="237246" />
	</node>
	<node lat="60.842841669221876" lon="12.200388891492436" id="-16614">
		<tag k="name" v="Kubekkholen" />
		<tag k="place" v="locality" />
		<tag k="ssr:stedsnr" v="237252" />
	</node>
	<node lat="60.86639722029235" lon="12.162969442923544" id="-16615">
		<tag k="name" v="Åtterknappen" />
		<tag k="natural" v="hill" />
		<tag k="place" v="locality" />
		<tag k="ssr:stedsnr" v="237257" />
	</node>
	<node lat="60.87541110744236" lon="12.21819999143476" id="-16616">
		<tag k="name" v="Bjørnskallebekken" />
		<tag k="ssr:stedsnr" v="237259" />
		<tag k="waterway" v="stream" />
	</node>
	<node lat="60.86515556011594" lon="12.263063880310451" id="-16617">
		<tag k="name" v="Jakoprasla" />
		<tag k="place" v="locality" />
		<tag k="ssr:stedsnr" v="237264" />
	</node>
	<node lat="60.8999305587768" lon="12.129208340738908" id="-16618">
		<tag k="name" v="Bjørkhullkjølen" />
		<tag k="natural" v="wetland" />
		<tag k="ssr:stedsnr" v="237320" />
	</node>
	<node lat="60.73088055188227" lon="11.902708332096417" id="-16619">
		<tag k="fixme" v="consider natural=peak for the most distinct mountains in the district" />
		<tag k="name" v="Lilleåsen" />
		<tag k="natural" v="hill" />
		<tag k="place" v="locality" />
		<tag k="ssr:stedsnr" v="237344" />
	</node>
	<node lat="60.71478055332996" lon="11.67946666957721" id="-16620">
		<tag k="fixme" v="consider natural=peak for the most distinct mountains in the district" />
		<tag k="name" v="Grasbakkhøgda" />
		<tag k="natural" v="hill" />
		<tag k="place" v="locality" />
		<tag k="ssr:stedsnr" v="42178" />
	</node>
	<node lat="60.71379003522061" lon="11.914004654549323" id="-16621">
		<tag k="alt_name" v="Håkennsmoen" />
		<tag k="fixme" v="consider place=hamlet" />
		<tag k="name" v="Håkensmoen" />
		<tag k="place" v="farm" />
		<tag k="ssr:stedsnr" v="237350" />
	</node>
	<node lat="60.92601667029942" lon="12.001313891909485" id="-16622">
		<tag k="name" v="Kanongulvet" />
		<tag k="natural" v="wetland" />
		<tag k="ssr:stedsnr" v="237969" />
	</node>
	<node lat="60.61096944141183" lon="11.78393056194335" id="-16623">
		<tag k="name" v="Langåsen" />
		<tag k="natural" v="slope" />
		<tag k="place" v="locality" />
		<tag k="ssr:stedsnr" v="239065" />
	</node>
	<node lat="60.733297225934045" lon="11.837541658262731" id="-16624">
		<tag k="name" v="Lillehaugen" />
		<tag k="place" v="farm" />
		<tag k="ssr:stedsnr" v="239442" />
	</node>
	<node lat="60.732563886305115" lon="11.696072230297782" id="-16625">
		<tag k="name" v="Jøtulsteinen" />
		<tag k="natural" v="stone" />
		<tag k="ssr:stedsnr" v="52002" />
	</node>
	<node lat="60.97612777765499" lon="12.204663896042016" id="-16626">
		<tag k="name" v="Jørnfossen" />
		<tag k="natural" v="waterfall" />
		<tag k="ssr:stedsnr" v="239402" />
	</node>
	<node lat="60.874086109116206" lon="12.103838883995671" id="-16627">
		<tag k="name" v="Maurtjernsbekken" />
		<tag k="ssr:stedsnr" v="239346" />
		<tag k="waterway" v="stream" />
	</node>
	<node lat="60.87001388897023" lon="12.085794437452984" id="-16628">
		<tag k="name" v="Gjeddtjernet" />
		<tag k="natural" v="water" />
		<tag k="ssr:stedsnr" v="239352" />
	</node>
	<node lat="60.87758611455797" lon="12.046875000068217" id="-16629">
		<tag k="name" v="Kjeldmyrkjella" />
		<tag k="natural" v="spring" />
		<tag k="ssr:stedsnr" v="239360" />
	</node>
	<node lat="60.64445000425227" lon="11.658022214794535" id="-16630">
		<tag k="name" v="Svarttjernet" />
		<tag k="natural" v="water" />
		<tag k="ssr:stedsnr" v="240255" />
	</node>
	<node lat="60.76589166453139" lon="11.89491388589972" id="-16631">
		<tag k="name" v="Sølvbekken" />
		<tag k="ssr:stedsnr" v="55319" />
		<tag k="waterway" v="stream" />
	</node>
	<node lat="60.901969447793796" lon="12.101333336130654" id="-16632">
		<tag k="historic" v="shieling" />
		<tag k="name" v="Gammelsætra" />
		<tag k="place" v="locality" />
		<tag k="ssr:stedsnr" v="55312" />
	</node>
	<node lat="60.83701666380661" lon="12.159952768983779" id="-16633">
		<tag k="highway" v="path" />
		<tag k="name" v="Finnvegen" />
		<tag k="ssr:stedsnr" v="239766" />
	</node>
	<node lat="60.76961111297644" lon="12.020422225233304" id="-16634">
		<tag k="name" v="Skarderudsæterberget" />
		<tag k="natural" v="slope" />
		<tag k="place" v="locality" />
		<tag k="ssr:stedsnr" v="55666" />
	</node>
	<node lat="60.734007351960045" lon="11.652527555579203" id="-16635">
		<tag k="name" v="Domkirka" />
		<tag k="place" v="locality" />
		<tag k="ssr:stedsnr" v="56407" />
	</node>
	<node lat="60.970869445170635" lon="12.250941668391949" id="-16636">
		<tag k="name" v="Krokfossen" />
		<tag k="natural" v="waterfall" />
		<tag k="ssr:stedsnr" v="57422" />
	</node>
	<node lat="61.0090055593179" lon="12.223100006621461" id="-16637">
		<tag k="name" v="Stortjernet" />
		<tag k="natural" v="water" />
		<tag k="ssr:stedsnr" v="57425" />
	</node>
	<node lat="60.748238888280305" lon="11.854913892870167" id="-16638">
		<tag k="alt_name" v="Tøråsen" />
		<tag k="name" v="Øvre Tøråsen" />
		<tag k="place" v="farm" />
		<tag k="ssr:stedsnr" v="57430" />
	</node>
	<node lat="60.67859722110835" lon="11.681152778758234" id="-16639">
		<tag k="name" v="Smågrandalen" />
		<tag k="natural" v="valley" />
		<tag k="place" v="locality" />
		<tag k="ssr:stedsnr" v="240153" />
	</node>
	<node lat="60.687238890430095" lon="11.893808339508432" id="-16640">
		<tag k="name" v="Kolstad" />
		<tag k="place" v="farm" />
		<tag k="ssr:stedsnr" v="240461" />
	</node>
	<node lat="60.79726944545228" lon="12.050591666754102" id="-16641">
		<tag k="name" v="Langbrumyra" />
		<tag k="natural" v="wetland" />
		<tag k="ssr:stedsnr" v="240741" />
	</node>
	<node lat="60.90666389100495" lon="12.024261117516813" id="-16642">
		<tag k="name" v="Leikmyra" />
		<tag k="natural" v="wetland" />
		<tag k="ssr:stedsnr" v="240963" />
	</node>
	<node lat="60.9149750025034" lon="12.021091660308207" id="-16643">
		<tag k="name" v="Follingmyra" />
		<tag k="natural" v="wetland" />
		<tag k="ssr:stedsnr" v="240965" />
	</node>
	<node lat="60.91528888793374" lon="12.028066668660726" id="-16644">
		<tag k="name" v="Bærmyrhøgda" />
		<tag k="natural" v="hill" />
		<tag k="place" v="locality" />
		<tag k="ssr:stedsnr" v="240967" />
	</node>
	<node lat="60.69440278118202" lon="11.76411111045926" id="-16645">
		<tag k="alt_name" v="Store Igletjenn" />
		<tag k="name" v="Igletjernet" />
		<tag k="natural" v="water" />
		<tag k="ssr:stedsnr" v="67300" />
	</node>
	<node lat="60.74260555685561" lon="11.862986109379113" id="-16646">
		<tag k="name" v="Borg" />
		<tag k="place" v="farm" />
		<tag k="ssr:stedsnr" v="68211" />
	</node>
	<node lat="60.633816665010606" lon="11.702202770145993" id="-16647">
		<tag k="name" v="Snaråa" />
		<tag k="ssr:stedsnr" v="68349" />
		<tag k="waterway" v="stream" />
	</node>
	<node lat="60.671291670833554" lon="11.781352773875334" id="-16648">
		<tag k="name" v="Teppa" />
		<tag k="place" v="isolated_dwelling" />
		<tag k="ssr:stedsnr" v="68393" />
	</node>
	<node lat="60.723699998015796" lon="11.701241672006947" id="-16649">
		<tag k="fixme" v="consider natural=peak for the most distinct mountains in the district" />
		<tag k="name" v="Karibrenna" />
		<tag k="natural" v="hill" />
		<tag k="place" v="locality" />
		<tag k="ssr:stedsnr" v="68288" />
	</node>
	<node lat="60.73651110837773" lon="11.776408337493956" id="-16650">
		<tag k="alt_name" v="Hagen" />
		<tag k="name" v="Almenholtet" />
		<tag k="place" v="farm" />
		<tag k="ssr:stedsnr" v="68289" />
	</node>
	<node lat="60.72950540614836" lon="11.805129701278158" id="-16651">
		<tag k="alt_name" v="Lunden" />
		<tag k="fixme" v="consider place=hamlet" />
		<tag k="name" v="Lund" />
		<tag k="place" v="farm" />
		<tag k="ssr:stedsnr" v="68296" />
	</node>
	<node lat="61.03743888830017" lon="12.11386388416621" id="-16652">
		<tag k="name" v="Bjørnbekken" />
		<tag k="ssr:stedsnr" v="68897" />
		<tag k="waterway" v="stream" />
	</node>
	<node lat="60.924624997268104" lon="12.277069452688991" id="-16653">
		<tag k="name" v="Furubekken" />
		<tag k="ssr:stedsnr" v="69741" />
		<tag k="waterway" v="stream" />
	</node>
	<node lat="60.791250000827624" lon="11.879502770907097" id="-16654">
		<tag k="name" v="Tostenbekken" />
		<tag k="ssr:stedsnr" v="70486" />
		<tag k="waterway" v="stream" />
	</node>
	<node lat="60.7929388909969" lon="12.193900006239895" id="-16655">
		<tag k="name" v="Gjerda" />
		<tag k="ssr:stedsnr" v="70630" />
		<tag k="waterway" v="river" />
	</node>
	<node lat="60.96376111474711" lon="12.244919447920513" id="-16656">
		<tag k="name" v="Steinsåsen" />
		<tag k="place" v="isolated_dwelling" />
		<tag k="ssr:stedsnr" v="70706" />
	</node>
	<node lat="60.88045278006718" lon="12.115288886578416" id="-16657">
		<tag k="name" v="Lømyrkoia" />
		<tag k="place" v="isolated_dwelling" />
		<tag k="ssr:stedsnr" v="70572" />
	</node>
	<node lat="60.89713333134141" lon="12.325819440334874" id="-16658">
		<tag k="name" v="Hallingbakken" />
		<tag k="place" v="isolated_dwelling" />
		<tag k="ssr:stedsnr" v="70725" />
	</node>
	<node lat="60.888350003283584" lon="12.234702783789588" id="-16659">
		<tag k="alt_name" v="Berget, øvre" />
		<tag k="name" v="Øvre Berget" />
		<tag k="place" v="farm" />
		<tag k="ssr:stedsnr" v="70727" />
	</node>
	<node lat="61.03900000218183" lon="12.116924998183315" id="-16660">
		<tag k="name" v="Bjørnslåttene" />
		<tag k="natural" v="wetland" />
		<tag k="ssr:stedsnr" v="85088" />
	</node>
	<node lat="60.74172499865062" lon="11.911613888319325" id="-16661">
		<tag k="name" v="Lilleåsbekken" />
		<tag k="ssr:stedsnr" v="100326" />
		<tag k="waterway" v="stream" />
	</node>
	<node lat="60.57148611407387" lon="11.771983334559478" id="-16662">
		<tag k="historic" v="shieling" />
		<tag k="name" v="Sjurderudsætra" />
		<tag k="place" v="isolated_dwelling" />
		<tag k="ssr:stedsnr" v="249139" />
	</node>
	<node lat="60.642372221306296" lon="11.80025556296011" id="-16663">
		<tag k="name" v="Midtskogen" />
		<tag k="place" v="isolated_dwelling" />
		<tag k="ssr:stedsnr" v="101107" />
	</node>
	<node lat="60.64386110957962" lon="11.809463897231172" id="-16664">
		<tag k="name" v="Gravingen" />
		<tag k="place" v="farm" />
		<tag k="ssr:stedsnr" v="101108" />
	</node>
	<node lat="60.63862222040873" lon="11.819011110353971" id="-16665">
		<tag k="name" v="Kavlerudsmoen" />
		<tag k="place" v="farm" />
		<tag k="ssr:stedsnr" v="101110" />
	</node>
	<node lat="60.85535833127529" lon="12.324350001545632" id="-16666">
		<tag k="name" v="Olsguthemmet" />
		<tag k="place" v="locality" />
		<tag k="ssr:stedsnr" v="101420" />
	</node>
	<node lat="60.861116670439024" lon="12.30160832642686" id="-16667">
		<tag k="name" v="Berulvodden" />
		<tag k="natural" v="cape" />
		<tag k="ssr:stedsnr" v="101423" />
	</node>
	<node lat="60.9261388880423" lon="12.299694440593568" id="-16668">
		<tag k="name" v="Steinmyra" />
		<tag k="natural" v="wetland" />
		<tag k="ssr:stedsnr" v="101374" />
	</node>
</osm>
