<?xml version="1.0" encoding="UTF-8"?>
<osm version="0.6" generator="osmapis">
	<node lat="60.76222778034744" lon="11.970741665082423" id="-15753">
		<tag k="name" v="Vangmyra" />
		<tag k="natural" v="wetland" />
		<tag k="ssr:stedsnr" v="237737" />
	</node>
	<node lat="60.842841669221876" lon="12.200388891492436" id="-15756">
		<tag k="name" v="Kubekkholen" />
		<tag k="place" v="locality" />
		<tag k="ssr:stedsnr" v="237252" />
	</node>
	<node lat="60.86515556011594" lon="12.263063880310451" id="-15759">
		<tag k="name" v="Jakoprasla" />
		<tag k="place" v="locality" />
		<tag k="ssr:stedsnr" v="237264" />
	</node>
	<node lat="60.8999305587768" lon="12.129208340738908" id="-15760">
		<tag k="name" v="Bjørkhullkjølen" />
		<tag k="natural" v="wetland" />
		<tag k="ssr:stedsnr" v="237320" />
	</node>
	<node lat="60.92601667029942" lon="12.001313891909485" id="-15764">
		<tag k="name" v="Kanongulvet" />
		<tag k="natural" v="wetland" />
		<tag k="ssr:stedsnr" v="237969" />
	</node>
	<node lat="60.732563886305115" lon="11.696072230297782" id="-15767">
		<tag k="name" v="Jøtulsteinen" />
		<tag k="natural" v="stone" />
		<tag k="ssr:stedsnr" v="52002" />
	</node>
	<node lat="60.901969447793796" lon="12.101333336130654" id="-15774">
		<tag k="historic" v="shieling" />
		<tag k="name" v="Gammelsætra" />
		<tag k="place" v="locality" />
		<tag k="ssr:stedsnr" v="55312" />
	</node>
	<node lat="60.79726944545228" lon="12.050591666754102" id="-15783">
		<tag k="name" v="Langbrumyra" />
		<tag k="natural" v="wetland" />
		<tag k="ssr:stedsnr" v="240741" />
	</node>
	<node lat="60.90666389100495" lon="12.024261117516813" id="-15784">
		<tag k="name" v="Leikmyra" />
		<tag k="natural" v="wetland" />
		<tag k="ssr:stedsnr" v="240963" />
	</node>
	<node lat="60.9149750025034" lon="12.021091660308207" id="-15785">
		<tag k="name" v="Follingmyra" />
		<tag k="natural" v="wetland" />
		<tag k="ssr:stedsnr" v="240965" />
	</node>
	<node lat="61.03900000218183" lon="12.116924998183315" id="-15802">
		<tag k="name" v="Bjørnslåttene" />
		<tag k="natural" v="wetland" />
		<tag k="ssr:stedsnr" v="85088" />
	</node>
	<node lat="60.9261388880423" lon="12.299694440593568" id="-15810">
		<tag k="name" v="Steinmyra" />
		<tag k="natural" v="wetland" />
		<tag k="ssr:stedsnr" v="101374" />
	</node>
</osm>
