<?xml version="1.0" encoding="UTF-8"?>
<osm version="0.6" generator="osmapis">
	<node lat="60.957580557463565" lon="12.23440832878647" id="-37604">
		<tag k="name" v="Kubekkoia" />
		<tag k="place" v="locality" />
		<tag k="ssr:stedsnr" v="9707" />
	</node>
	<node lat="60.673166666182844" lon="11.834755548421002" id="-37727">
		<tag k="amenity" v="place_of_worship" />
		<tag k="denomination" v="lutheran" />
		<tag k="name" v="Våler kapell" />
		<tag k="religion" v="christian" />
		<tag k="ssr:stedsnr" v="177111" />
	</node>
	<node lat="60.89373610972568" lon="12.130397224055933" id="-37797">
		<tag k="name" v="Nykoia" />
		<tag k="place" v="locality" />
		<tag k="ssr:stedsnr" v="237311" />
	</node>
	<node lat="60.88730278152213" lon="12.043202772366202" id="-37922">
		<tag k="name" v="Veltbua" />
		<tag k="place" v="locality" />
		<tag k="ssr:stedsnr" v="479301" />
	</node>
	<node lat="60.709330559979804" lon="11.910674992798018" id="-37996">
		<tag k="amenity" v="community_centre" />
		<tag k="name" v="Haslatun" />
		<tag k="ssr:stedsnr" v="483491" />
	</node>
	<node lat="60.87880833284596" lon="12.245236119414425" id="-38054">
		<tag k="amenity" v="place_of_worship" />
		<tag k="denomination" v="lutheran" />
		<tag k="name" v="Gravberget kirke" />
		<tag k="religion" v="christian" />
		<tag k="ssr:stedsnr" v="676680" />
	</node>
	<node lat="60.87630277878211" lon="12.036613881481555" id="-38258">
		<tag k="amenity" v="community_centre" />
		<tag k="name" v="Skytterhuset" />
		<tag k="ssr:stedsnr" v="907997" />
	</node>
	<node lat="60.87533888640613" lon="12.020980558636335" id="-38259">
		<tag k="name" v="Nykverna" />
		<tag k="place" v="locality" />
		<tag k="ssr:stedsnr" v="908000" />
	</node>
	<node lat="60.724463893148155" lon="11.80483888810755" id="-38354">
		<tag k="amenity" v="community_centre" />
		<tag k="name" v="Vidarvoll" />
		<tag k="ssr:stedsnr" v="951037" />
	</node>
	<node lat="60.86346666818534" lon="12.061069442618162" id="-38586">
		<tag k="cemetery" v="grave" />
		<tag k="name" v="Gravlunden" />
		<tag k="place" v="locality" />
		<tag k="ssr:stedsnr" v="117354" />
	</node>
	<node lat="60.858524996119314" lon="12.053299991843717" id="-38700">
		<tag k="amenity" v="place_of_worship" />
		<tag k="denomination" v="lutheran" />
		<tag k="name" v="Risberget kirkesal" />
		<tag k="religion" v="christian" />
		<tag k="ssr:stedsnr" v="284459" />
	</node>
	<node lat="60.858750002965586" lon="12.053511112260678" id="-38769">
		<tag k="amenity" v="community_centre" />
		<tag k="name" v="Risberget skole" />
		<tag k="ssr:stedsnr" v="345351" />
	</node>
	<node lat="60.90934166702613" lon="12.288497214740607" id="-39058">
		<tag k="name" v="Røret" />
		<tag k="place" v="locality" />
		<tag k="ssr:stedsnr" v="646360" />
	</node>
	<node lat="60.94857067934496" lon="12.219052882772377" id="-39250">
		<tag k="name" v="Svartbekkoia" />
		<tag k="place" v="locality" />
		<tag k="ssr:stedsnr" v="858734" />
	</node>
	<node lat="60.672700329320996" lon="11.836208104060853" id="-39321">
		<tag k="amenity" v="place_of_worship" />
		<tag k="denomination" v="lutheran" />
		<tag k="name" v="Våler nye kirke" />
		<tag k="religion" v="christian" />
		<tag k="ssr:stedsnr" v="991033" />
	</node>
</osm>
