<?xml version="1.0" encoding="UTF-8"?>
<osm version="0.6" generator="osmapis">
	<node lat="60.85236110677218" lon="12.33448333743737" id="-23948">
		<tag k="historic" v="boundary_stone" />
		<tag k="man_made" v="cairn" />
		<tag k="name" v="Skarpgjuvbergsrøysa" />
		<tag k="old_name" v="Skarp Diupbergs Røset" />
		<tag k="place" v="locality" />
		<tag k="ssr:stedsnr" v="231283" />
	</node>
	<node lat="60.89003192604852" lon="12.332791191910962" id="-24138">
		<tag k="historic" v="boundary_stone" />
		<tag k="man_made" v="cairn" />
		<tag k="name" v="Gåsetjernsund" />
		<tag k="old_name" v="Gåsekiernssund" />
		<tag k="place" v="locality" />
		<tag k="ssr:stedsnr" v="231281" />
	</node>
	<node lat="60.92963888571109" lon="12.2973638900163" id="-24522">
		<tag k="historic" v="boundary_stone" />
		<tag k="man_made" v="cairn" />
		<tag k="name" v="Steinmyra" />
		<tag k="place" v="locality" />
		<tag k="ssr:stedsnr" v="717251" />
	</node>
	<node lat="61.00642818308608" lon="12.21278886430569" id="-24738">
		<tag k="fixme" v="consider boundary=protected_area and relevant protect_class if not nature reserve" />
		<tag k="leisure" v="nature_reserve" />
		<tag k="name" v="Buberget naturreservat" />
		<tag k="ssr:stedsnr" v="982692" />
	</node>
	<node lat="60.91426485332759" lon="12.199907339758271" id="-24739">
		<tag k="fixme" v="consider boundary=protected_area and relevant protect_class if not nature reserve" />
		<tag k="leisure" v="nature_reserve" />
		<tag k="name" v="Hemberget naturreservat" />
		<tag k="ssr:stedsnr" v="982693" />
	</node>
	<node lat="60.88676666510981" lon="12.332783330719579" id="-25129">
		<tag k="historic" v="boundary_stone" />
		<tag k="man_made" v="cairn" />
		<tag k="name" v="Søndre Tjernsundsrøysa" />
		<tag k="old_name" v="Sødre Kiærnsunds Røset" />
		<tag k="place" v="locality" />
		<tag k="ssr:stedsnr" v="413275" />
	</node>
	<node lat="60.92142223743384" lon="12.304773375831754" id="-25130">
		<tag k="historic" v="boundary_stone" />
		<tag k="man_made" v="cairn" />
		<tag k="name" v="Svartbekksrøysa" />
		<tag k="old_name" v="Svartebeks Røset" />
		<tag k="place" v="locality" />
		<tag k="ssr:stedsnr" v="413279" />
	</node>
	<node lat="61.01308053575488" lon="12.223980374795495" id="-25202">
		<tag k="historic" v="boundary_stone" />
		<tag k="man_made" v="cairn" />
		<tag k="name" v="Bakklintsrøysa" />
		<tag k="old_name" v="Bakklindt Røset" />
		<tag k="place" v="locality" />
		<tag k="ssr:stedsnr" v="534250" />
	</node>
	<node lat="60.89679722039765" lon="12.326822222103344" id="-25524">
		<tag k="historic" v="boundary_stone" />
		<tag k="man_made" v="cairn" />
		<tag k="name" v="Nordre Tjernsundsrøysa" />
		<tag k="old_name" v="Nordre Kiærnsunds Røset" />
		<tag k="place" v="locality" />
		<tag k="ssr:stedsnr" v="959229" />
	</node>
	<node lat="60.75743028968122" lon="11.97715249758884" id="-25544">
		<tag k="fixme" v="consider boundary=protected_area and relevant protect_class if not nature reserve" />
		<tag k="leisure" v="nature_reserve" />
		<tag k="name" v="Verdensløpet naturreservat" />
		<tag k="ssr:stedsnr" v="980921" />
	</node>
	<node lat="60.660462225701814" lon="11.656527981317094" id="-25553">
		<tag k="fixme" v="consider boundary=protected_area and relevant protect_class if not nature reserve" />
		<tag k="leisure" v="nature_reserve" />
		<tag k="name" v="Sætersjøberget naturreservat" />
		<tag k="ssr:stedsnr" v="991082" />
	</node>
	<node lat="60.972490349713155" lon="12.17744283651587" id="-25559">
		<tag k="fixme" v="consider boundary=protected_area and relevant protect_class if not nature reserve" />
		<tag k="leisure" v="nature_reserve" />
		<tag k="name" v="Hestberget naturreservat" />
		<tag k="ssr:stedsnr" v="1074738" />
	</node>
</osm>
