<?xml version="1.0" encoding="UTF-8"?>
<osm generator="osmapis" version="0.6">
	<node changeset="65998035" id="6181694976" lat="59.1058528" lon="10.4045778" timestamp="2019-01-03T18:24:07Z" uid="3497659" user="NKA" version="1">
		<tag k="name" v="Kjære" />
		<tag k="place" v="farm" />
		<tag k="ssr:stedsnr" v="851400" />
		<tag k="ssr:type" v="bruk" />
	</node>
	<node changeset="65998035" id="6181694977" lat="59.1963417" lon="10.3743722" timestamp="2019-01-03T18:24:07Z" uid="3497659" user="NKA" version="1">
		<tag k="name" v="Tømmerholt" />
		<tag k="place" v="farm" />
		<tag k="ssr:stedsnr" v="912043" />
		<tag k="ssr:type" v="bruk" />
	</node>
	<node changeset="65998035" id="6181694978" lat="59.18595" lon="10.4626472" timestamp="2019-01-03T18:24:08Z" uid="3497659" user="NKA" version="1">
		<tag k="name" v="Rønningen" />
		<tag k="place" v="farm" />
		<tag k="ssr:stedsnr" v="426080" />
		<tag k="ssr:type" v="bruk" />
	</node>
	<node changeset="65998035" id="6181694979" lat="59.1533" lon="10.3627889" timestamp="2019-01-03T18:24:08Z" uid="3497659" user="NKA" version="1">
		<tag k="name" v="Rønningen" />
		<tag k="place" v="isolated_dwelling" />
		<tag k="ssr:stedsnr" v="184096" />
		<tag k="ssr:type" v="fritidsbolig" />
	</node>
	<node changeset="65998035" id="6181694980" lat="59.2310472" lon="10.4468417" timestamp="2019-01-03T18:24:08Z" uid="3497659" user="NKA" version="1">
		<tag k="name" v="Søndre Føyn" />
		<tag k="place" v="farm" />
		<tag k="ssr:stedsnr" v="608029" />
		<tag k="ssr:type" v="bruk" />
	</node>
	<node changeset="65998035" id="6181694981" lat="59.0723778" lon="10.438175" timestamp="2019-01-03T18:24:08Z" uid="3497659" user="NKA" version="1">
		<tag k="name" v="Oppegård" />
		<tag k="place" v="farm" />
		<tag k="ssr:stedsnr" v="937949" />
		<tag k="ssr:type" v="bruk" />
	</node>
	<node changeset="65998035" id="6181694982" lat="59.1513306" lon="10.3614361" timestamp="2019-01-03T18:24:08Z" uid="3497659" user="NKA" version="1">
		<tag k="name" v="Brekke" />
		<tag k="place" v="farm" />
		<tag k="ssr:stedsnr" v="669101" />
		<tag k="ssr:type" v="bruk" />
	</node>
	<node changeset="65998035" id="6181694983" lat="59.1210861" lon="10.3829889" timestamp="2019-01-03T18:24:08Z" uid="3497659" user="NKA" version="1">
		<tag k="name" v="Langvika" />
		<tag k="place" v="isolated_dwelling" />
		<tag k="ssr:stedsnr" v="390948" />
		<tag k="ssr:type" v="eneboligMindreBoligbygg" />
	</node>
	<node changeset="65998035" id="6181694984" lat="59.1285667" lon="10.40935" timestamp="2019-01-03T18:24:08Z" uid="3497659" user="NKA" version="1">
		<tag k="name" v="Hagan" />
		<tag k="place" v="isolated_dwelling" />
		<tag k="ssr:stedsnr" v="450215" />
		<tag k="ssr:type" v="fritidsbolig" />
	</node>
	<node changeset="65998035" id="6181694985" lat="59.2036167" lon="10.4242889" timestamp="2019-01-03T18:24:08Z" uid="3497659" user="NKA" version="1">
		<tag k="name" v="Furulund" />
		<tag k="place" v="farm" />
		<tag k="ssr:stedsnr" v="631941" />
		<tag k="ssr:type" v="bruk" />
	</node>
	<node changeset="65998035" id="6181694986" lat="59.1981583" lon="10.3670722" timestamp="2019-01-03T18:24:08Z" uid="3497659" user="NKA" version="1">
		<tag k="name" v="Glomstein" />
		<tag k="place" v="farm" />
		<tag k="ssr:stedsnr" v="244056" />
		<tag k="ssr:type" v="bruk" />
	</node>
	<node changeset="65998035" id="6181694987" lat="59.233175" lon="10.4171417" timestamp="2019-01-03T18:24:08Z" uid="3497659" user="NKA" version="1">
		<tag k="alt_name" v="Tanstad" />
		<tag k="name" v="Tandstad" />
		<tag k="place" v="village" />
		<tag k="ssr:stedsnr" v="692966" />
		<tag k="ssr:type" v="tettsted" />
	</node>
	<node changeset="65998035" id="687008268" lat="59.2210401" lon="10.4430927" timestamp="2019-01-03T18:24:23Z" uid="3497659" user="NKA" version="3">
		<tag k="name" v="Hjemseng" />
		<tag k="place" v="quarter" />
		<tag k="ssr:stedsnr" v="21056" />
		<tag k="ssr:type" v="tettsted" />
	</node>
	<node changeset="65998035" id="6181694989" lat="59.1691056" lon="10.442525" timestamp="2019-01-03T18:24:08Z" uid="3497659" user="NKA" version="1">
		<tag k="name" v="Nestvik" />
		<tag k="place" v="farm" />
		<tag k="ssr:stedsnr" v="695040" />
		<tag k="ssr:type" v="bruk" />
	</node>
	<node changeset="65998035" id="6181694990" lat="59.1461583" lon="10.3462083" timestamp="2019-01-03T18:24:08Z" uid="3497659" user="NKA" version="1">
		<tag k="name" v="Søndre Tangen" />
		<tag k="place" v="farm" />
		<tag k="ssr:stedsnr" v="930987" />
		<tag k="ssr:type" v="bruk" />
	</node>
	<node changeset="65998035" id="6181694991" lat="59.2182472" lon="10.4397556" timestamp="2019-01-03T18:24:08Z" uid="3497659" user="NKA" version="1">
		<tag k="name" v="Belgen" />
		<tag k="place" v="farm" />
		<tag k="ssr:stedsnr" v="753990" />
		<tag k="ssr:type" v="bruk" />
	</node>
	<node changeset="65998035" id="6181694992" lat="59.17965" lon="10.3880056" timestamp="2019-01-03T18:24:08Z" uid="3497659" user="NKA" version="1">
		<tag k="name" v="Landsrød" />
		<tag k="place" v="farm" />
		<tag k="ssr:stedsnr" v="1110" />
		<tag k="ssr:type" v="bruk" />
	</node>
	<node changeset="65998035" id="6181694993" lat="59.2294667" lon="10.457975" timestamp="2019-01-03T18:24:09Z" uid="3497659" user="NKA" version="1">
		<tag k="name" v="Myra" />
		<tag k="place" v="farm" />
		<tag k="ssr:stedsnr" v="912022" />
		<tag k="ssr:type" v="bruk" />
	</node>
	<node changeset="65998035" id="6181694994" lat="59.1296194" lon="10.4027972" timestamp="2019-01-03T18:24:09Z" uid="3497659" user="NKA" version="1">
		<tag k="name" v="Grimestadgrinda" />
		<tag k="place" v="hamlet" />
		<tag k="ssr:stedsnr" v="207208" />
		<tag k="ssr:type" v="grend" />
	</node>
	<node changeset="65998035" id="6181694995" lat="59.238975" lon="10.4402194" timestamp="2019-01-03T18:24:09Z" uid="3497659" user="NKA" version="1">
		<tag k="alt_name" v="Bjørnebo" />
		<tag k="name" v="Bjørnebu" />
		<tag k="place" v="farm" />
		<tag k="ssr:stedsnr" v="1040" />
		<tag k="ssr:type" v="bruk" />
	</node>
	<node changeset="65998035" id="6181694996" lat="59.198825" lon="10.452225" timestamp="2019-01-03T18:24:09Z" uid="3497659" user="NKA" version="1">
		<tag k="name" v="Arås" />
		<tag k="place" v="isolated_dwelling" />
		<tag k="ssr:stedsnr" v="305064" />
		<tag k="ssr:type" v="eneboligMindreBoligbygg" />
	</node>
	<node changeset="65998035" id="6181694997" lat="59.08215" lon="10.4049861" timestamp="2019-01-03T18:24:09Z" uid="3497659" user="NKA" version="1">
		<tag k="name" v="Kolabekk" />
		<tag k="place" v="farm" />
		<tag k="ssr:stedsnr" v="790417" />
		<tag k="ssr:type" v="bruk" />
	</node>
	<node changeset="65998035" id="6181694998" lat="59.1988186" lon="10.4091824" timestamp="2019-01-03T18:24:09Z" uid="3497659" user="NKA" version="1">
		<tag k="name" v="Engås" />
		<tag k="place" v="farm" />
		<tag k="ssr:stedsnr" v="244054" />
		<tag k="ssr:type" v="bruk" />
	</node>
	<node changeset="65998035" id="6181694999" lat="59.226025" lon="10.4186778" timestamp="2019-01-03T18:24:09Z" uid="3497659" user="NKA" version="1">
		<tag k="name" v="Gipø" />
		<tag k="place" v="farm" />
		<tag k="ssr:stedsnr" v="183012" />
		<tag k="ssr:type" v="bruk" />
	</node>
	<node changeset="65998035" id="6181695000" lat="59.1260889" lon="10.4088305" timestamp="2019-01-03T18:24:09Z" uid="3497659" user="NKA" version="1">
		<tag k="alt_name" v="Hulebakk" />
		<tag k="name" v="Hulebak" />
		<tag k="place" v="farm" />
		<tag k="ssr:stedsnr" v="305399" />
		<tag k="ssr:type" v="bruk" />
	</node>
	<node changeset="65998035" id="6181695001" lat="59.2213944" lon="10.4394944" timestamp="2019-01-03T18:24:09Z" uid="3497659" user="NKA" version="1">
		<tag k="name" v="Bugården" />
		<tag k="place" v="isolated_dwelling" />
		<tag k="ssr:stedsnr" v="146992" />
		<tag k="ssr:type" v="eneboligMindreBoligbygg" />
	</node>
	<node changeset="65998035" id="6181695002" lat="59.0793861" lon="10.4005806" timestamp="2019-01-03T18:24:09Z" uid="3497659" user="NKA" version="1">
		<tag k="name" v="Treidene" />
		<tag k="place" v="isolated_dwelling" />
		<tag k="ssr:stedsnr" v="669470" />
		<tag k="ssr:type" v="fritidsbolig" />
	</node>
	<node changeset="65998035" id="6181695003" lat="59.1796611" lon="10.3939278" timestamp="2019-01-03T18:24:09Z" uid="3497659" user="NKA" version="1">
		<tag k="alt_name" v="Sevik" />
		<tag k="name" v="Sevika" />
		<tag k="place" v="isolated_dwelling" />
		<tag k="ssr:stedsnr" v="62093" />
		<tag k="ssr:type" v="eneboligMindreBoligbygg" />
	</node>
	<node changeset="65998035" id="6181695004" lat="59.2403" lon="10.4055278" timestamp="2019-01-03T18:24:09Z" uid="3497659" user="NKA" version="1">
		<tag k="name" v="Kjærnås" />
		<tag k="place" v="farm" />
		<tag k="ssr:stedsnr" v="487018" />
		<tag k="ssr:type" v="bruk" />
	</node>
	<node changeset="65998035" id="6181695005" lat="59.2015389" lon="10.406325" timestamp="2019-01-03T18:24:09Z" uid="3497659" user="NKA" version="1">
		<tag k="name" v="Håvaldsrød" />
		<tag k="place" v="isolated_dwelling" />
		<tag k="ssr:stedsnr" v="388918" />
		<tag k="ssr:type" v="eneboligMindreBoligbygg" />
	</node>
	<node changeset="65998035" id="6181695006" lat="59.099263" lon="10.4038233" timestamp="2019-01-03T18:24:09Z" uid="3497659" user="NKA" version="1">
		<tag k="name" v="Eidene" />
		<tag k="place" v="isolated_dwelling" />
		<tag k="ssr:stedsnr" v="62438" />
		<tag k="ssr:type" v="fritidsbolig" />
	</node>
	<node changeset="65998035" id="6181695007" lat="59.2015722" lon="10.4342833" timestamp="2019-01-03T18:24:10Z" uid="3497659" user="NKA" version="1">
		<tag k="name" v="Roppestad" />
		<tag k="place" v="farm" />
		<tag k="ssr:stedsnr" v="851069" />
		<tag k="ssr:type" v="bruk" />
	</node>
	<node changeset="65998035" id="6181695008" lat="59.2019361" lon="10.4500583" timestamp="2019-01-03T18:24:10Z" uid="3497659" user="NKA" version="1">
		<tag k="name" v="Ulvø" />
		<tag k="place" v="farm" />
		<tag k="ssr:stedsnr" v="790061" />
		<tag k="ssr:type" v="bruk" />
	</node>
	<node changeset="65998035" id="6181695009" lat="59.19715" lon="10.3914167" timestamp="2019-01-03T18:24:10Z" uid="3497659" user="NKA" version="1">
		<tag k="name" v="Brattås" />
		<tag k="place" v="farm" />
		<tag k="ssr:stedsnr" v="608040" />
		<tag k="ssr:type" v="bruk" />
	</node>
	<node changeset="65998035" id="6181695010" lat="59.1835222" lon="10.4238528" timestamp="2019-01-03T18:24:10Z" uid="3497659" user="NKA" version="1">
		<tag k="name" v="Buerteigen" />
		<tag k="place" v="farm" />
		<tag k="ssr:stedsnr" v="1111" />
		<tag k="ssr:type" v="bruk" />
	</node>
	<node changeset="65998035" id="6181695011" lat="59.1017861" lon="10.3945389" timestamp="2019-01-03T18:24:10Z" uid="3497659" user="NKA" version="1">
		<tag k="name" v="Gon" />
		<tag k="place" v="locality" />
		<tag k="ssr:stedsnr" v="86627" />
		<tag k="ssr:type" v="eiendom" />
	</node>
	<node changeset="65998035" id="6181695012" lat="59.1465694" lon="10.3453028" timestamp="2019-01-03T18:24:10Z" uid="3497659" user="NKA" version="1">
		<tag k="name" v="Tangen" />
		<tag k="place" v="farm" />
		<tag k="ssr:stedsnr" v="547128" />
		<tag k="ssr:type" v="bruk" />
	</node>
	<node changeset="65998035" id="6181695013" lat="59.1259842" lon="10.4256253" timestamp="2019-01-03T18:24:10Z" uid="3497659" user="NKA" version="1">
		<tag k="name" v="Medø" />
		<tag k="place" v="isolated_dwelling" />
		<tag k="ssr:stedsnr" v="912407" />
		<tag k="ssr:type" v="eneboligMindreBoligbygg" />
	</node>
	<node changeset="65998035" id="6181695014" lat="59.1783917" lon="10.4327528" timestamp="2019-01-03T18:24:10Z" uid="3497659" user="NKA" version="1">
		<tag k="alt_name" v="Haukmyr" />
		<tag k="name" v="Haukemyr" />
		<tag k="place" v="farm" />
		<tag k="ssr:stedsnr" v="790067" />
		<tag k="ssr:type" v="bruk" />
	</node>
	<node changeset="65998035" id="6181695015" lat="59.232325" lon="10.4008583" timestamp="2019-01-03T18:24:10Z" uid="3497659" user="NKA" version="1">
		<tag k="name" v="Prestegård" />
		<tag k="place" v="farm" />
		<tag k="ssr:stedsnr" v="207964" />
		<tag k="ssr:type" v="bruk" />
	</node>
	<node changeset="65998035" id="6181695016" lat="59.1143611" lon="10.4068361" timestamp="2019-01-03T18:24:10Z" uid="3497659" user="NKA" version="1">
		<tag k="name" v="Solvangfeltet" />
		<tag k="place" v="neighbourhood" />
		<tag k="ssr:stedsnr" v="753597" />
		<tag k="ssr:type" v="boligfelt" />
	</node>
	<node changeset="65998035" id="6181695017" lat="59.0732944" lon="10.4014917" timestamp="2019-01-03T18:24:10Z" uid="3497659" user="NKA" version="1">
		<tag k="name" v="Hellesmo" />
		<tag k="place" v="farm" />
		<tag k="ssr:stedsnr" v="268375" />
		<tag k="ssr:type" v="bruk" />
	</node>
	<node changeset="65998035" id="6181695018" lat="59.2361528" lon="10.4565806" timestamp="2019-01-03T18:24:10Z" uid="3497659" user="NKA" version="1">
		<tag k="name" v="Myra" />
		<tag k="place" v="isolated_dwelling" />
		<tag k="ssr:stedsnr" v="814970" />
		<tag k="ssr:type" v="eneboligMindreBoligbygg" />
	</node>
	<node changeset="65998035" id="6181695019" lat="59.2078083" lon="10.3655556" timestamp="2019-01-03T18:24:10Z" uid="3497659" user="NKA" version="1">
		<tag k="name" v="Holmen" />
		<tag k="place" v="farm" />
		<tag k="ssr:stedsnr" v="244066" />
		<tag k="ssr:type" v="bruk" />
	</node>
	<node changeset="65998035" id="6181695020" lat="59.1576667" lon="10.4171556" timestamp="2019-01-03T18:24:10Z" uid="3497659" user="NKA" version="1">
		<tag k="name" v="Østre Kråkere" />
		<tag k="place" v="farm" />
		<tag k="ssr:stedsnr" v="146640" />
		<tag k="ssr:type" v="bruk" />
	</node>
	<node changeset="65998035" id="6181695021" lat="59.2317333" lon="10.4068361" timestamp="2019-01-03T18:24:10Z" uid="3497659" user="NKA" version="1">
		<tag k="name" v="Elgestad" />
		<tag k="place" v="farm" />
		<tag k="ssr:stedsnr" v="86981" />
		<tag k="ssr:type" v="bruk" />
	</node>
	<node changeset="65998035" id="6181695022" lat="59.2080583" lon="10.4392695" timestamp="2019-01-03T18:24:11Z" uid="3497659" user="NKA" version="1">
		<tag k="name" v="Bergan" />
		<tag k="place" v="farm" />
		<tag k="ssr:stedsnr" v="365065" />
		<tag k="ssr:type" v="bruk" />
	</node>
	<node changeset="65998035" id="6181695023" lat="59.2118528" lon="10.4472972" timestamp="2019-01-03T18:24:11Z" uid="3497659" user="NKA" version="1">
		<tag k="alt_name" v="Nes" />
		<tag k="name" v="Nes søndre" />
		<tag k="place" v="farm" />
		<tag k="ssr:stedsnr" v="123041" />
		<tag k="ssr:type" v="bruk" />
	</node>
	<node changeset="65998035" id="6181695024" lat="59.1294028" lon="10.4309667" timestamp="2019-01-03T18:24:11Z" uid="3497659" user="NKA" version="1">
		<tag k="name" v="Hønsø" />
		<tag k="place" v="farm" />
		<tag k="ssr:stedsnr" v="487412" />
		<tag k="ssr:type" v="bruk" />
	</node>
	<node changeset="65998035" id="6181695025" lat="59.2656778" lon="10.38745" timestamp="2019-01-03T18:24:11Z" uid="3497659" user="NKA" version="1">
		<tag k="name" v="Ramdal" />
		<tag k="place" v="farm" />
		<tag k="ssr:stedsnr" v="792635" />
		<tag k="ssr:type" v="bruk" />
	</node>
	<node changeset="65998035" id="6181695026" lat="59.2238583" lon="10.4469389" timestamp="2019-01-03T18:24:11Z" uid="3497659" user="NKA" version="1">
		<tag k="name" v="Neslund" />
		<tag k="place" v="farm" />
		<tag k="ssr:stedsnr" v="547062" />
		<tag k="ssr:type" v="bruk" />
	</node>
	<node changeset="65998035" id="6181695027" lat="59.2464278" lon="10.4291861" timestamp="2019-01-03T18:24:11Z" uid="3497659" user="NKA" version="1">
		<tag k="name" v="Hjertnes" />
		<tag k="place" v="farm" />
		<tag k="ssr:stedsnr" v="851011" />
		<tag k="ssr:type" v="bruk" />
	</node>
	<node changeset="65998035" id="6181695028" lat="59.1215472" lon="10.397975" timestamp="2019-01-03T18:24:11Z" uid="3497659" user="NKA" version="1">
		<tag k="name" v="Vestre Haug" />
		<tag k="place" v="farm" />
		<tag k="ssr:stedsnr" v="389218" />
		<tag k="ssr:type" v="bruk" />
	</node>
	<node changeset="65998035" id="6181695029" lat="59.1404583" lon="10.386525" timestamp="2019-01-03T18:24:11Z" uid="3497659" user="NKA" version="1">
		<tag k="name" v="Glenne" />
		<tag k="place" v="farm" />
		<tag k="ssr:stedsnr" v="730420" />
		<tag k="ssr:type" v="bruk" />
	</node>
	<node changeset="65998035" id="6181695030" lat="59.2134306" lon="10.4435444" timestamp="2019-01-03T18:24:11Z" uid="3497659" user="NKA" version="1">
		<tag k="name" v="Nes" />
		<tag k="place" v="farm" />
		<tag k="ssr:stedsnr" v="512308" />
		<tag k="ssr:type" v="bruk" />
	</node>
	<node changeset="65998035" id="6181695031" lat="59.1644778" lon="10.34425" timestamp="2019-01-03T18:24:11Z" uid="3497659" user="NKA" version="1">
		<tag k="name" v="Vestgården" />
		<tag k="place" v="farm" />
		<tag k="ssr:stedsnr" v="753393" />
		<tag k="ssr:type" v="bruk" />
	</node>
	<node changeset="65998035" id="6181695032" lat="59.0885528" lon="10.4317167" timestamp="2019-01-03T18:24:11Z" uid="3497659" user="NKA" version="1">
		<tag k="name" v="Sand" />
		<tag k="place" v="farm" />
		<tag k="ssr:stedsnr" v="389625" />
		<tag k="ssr:type" v="bruk" />
	</node>
	<node changeset="65998035" id="6181695033" lat="59.1855972" lon="10.4361056" timestamp="2019-01-03T18:24:11Z" uid="3497659" user="NKA" version="1">
		<tag k="alt_name" v="Torød, n;Torød, nordre;Torød" />
		<tag k="name" v="Nordre Torød" />
		<tag k="place" v="farm" />
		<tag k="ssr:stedsnr" v="851078" />
		<tag k="ssr:type" v="bruk" />
	</node>
	<node changeset="65998035" id="6181695034" lat="59.1959056" lon="10.4029" timestamp="2019-01-03T18:24:11Z" uid="3497659" user="NKA" version="1">
		<tag k="name" v="Lofterød" />
		<tag k="place" v="farm" />
		<tag k="ssr:stedsnr" v="426064" />
		<tag k="ssr:type" v="bruk" />
	</node>
	<node changeset="65998035" id="6181695035" lat="59.2140196" lon="10.4255963" timestamp="2019-01-03T18:24:11Z" uid="3497659" user="NKA" version="1">
		<tag k="name" v="Vollen" />
		<tag k="place" v="farm" />
		<tag k="ssr:stedsnr" v="146995" />
		<tag k="ssr:type" v="bruk" />
	</node>
	<node changeset="65998035" id="6181695036" lat="59.0834733" lon="10.4430816" timestamp="2019-01-03T18:24:11Z" uid="3497659" user="NKA" version="1">
		<tag k="name" v="Vestgarden" />
		<tag k="place" v="farm" />
		<tag k="ssr:stedsnr" v="207639" />
		<tag k="ssr:type" v="bruk" />
	</node>
	<node changeset="65998035" id="6181695037" lat="59.2455361" lon="10.411875" timestamp="2019-01-03T18:24:12Z" uid="3497659" user="NKA" version="1">
		<tag k="name" v="Frogner" />
		<tag k="place" v="farm" />
		<tag k="ssr:stedsnr" v="814986" />
		<tag k="ssr:type" v="bruk" />
	</node>
	<node changeset="65998035" id="6181695038" lat="59.1752722" lon="10.4226778" timestamp="2019-01-03T18:24:12Z" uid="3497659" user="NKA" version="1">
		<tag k="name" v="Vallers" />
		<tag k="place" v="farm" />
		<tag k="ssr:stedsnr" v="627047" />
		<tag k="ssr:type" v="bruk" />
	</node>
	<node changeset="65998035" id="6181695039" lat="59.1461556" lon="10.3462556" timestamp="2019-01-03T18:24:12Z" uid="3497659" user="NKA" version="1">
		<tag k="name" v="Søndre Tangen" />
		<tag k="place" v="farm" />
		<tag k="ssr:stedsnr" v="692244" />
		<tag k="ssr:type" v="bruk" />
	</node>
	<node changeset="65998035" id="6181695040" lat="59.1830111" lon="10.3937056" timestamp="2019-01-03T18:24:12Z" uid="3497659" user="NKA" version="1">
		<tag k="name" v="Lysheim" />
		<tag k="place" v="isolated_dwelling" />
		<tag k="ssr:stedsnr" v="25961" />
		<tag k="ssr:type" v="eneboligMindreBoligbygg" />
	</node>
	<node changeset="65998035" id="6181695041" lat="59.2192056" lon="10.4290833" timestamp="2019-01-03T18:24:12Z" uid="3497659" user="NKA" version="1">
		<tag k="name" v="Bjønnes" />
		<tag k="place" v="farm" />
		<tag k="ssr:stedsnr" v="123043" />
		<tag k="ssr:type" v="bruk" />
	</node>
	<node changeset="65998035" id="6181695042" lat="59.0668111" lon="10.4418445" timestamp="2019-01-03T18:24:12Z" uid="3497659" user="NKA" version="1">
		<tag k="name" v="Høgenhatt" />
		<tag k="place" v="farm" />
		<tag k="ssr:stedsnr" v="814403" />
		<tag k="ssr:type" v="bruk" />
	</node>
	<node changeset="65998035" id="6181695043" lat="59.2087333" lon="10.4322167" timestamp="2019-01-03T18:24:12Z" uid="3497659" user="NKA" version="1">
		<tag k="name" v="Rubberød" />
		<tag k="place" v="farm" />
		<tag k="ssr:stedsnr" v="1080" />
		<tag k="ssr:type" v="bruk" />
	</node>
	<node changeset="65998035" id="6181695044" lat="59.0637159" lon="10.4142739" timestamp="2019-01-03T18:24:12Z" uid="3497659" user="NKA" version="1">
		<tag k="name" v="Haukevika" />
		<tag k="place" v="locality" />
		<tag k="ssr:stedsnr" v="426450" />
		<tag k="ssr:type" v="hotell" />
	</node>
	<node changeset="65998035" id="6181695045" lat="59.0668806" lon="10.4446028" timestamp="2019-01-03T18:24:12Z" uid="3497659" user="NKA" version="1">
		<tag k="name" v="Sønstegard" />
		<tag k="place" v="isolated_dwelling" />
		<tag k="ssr:stedsnr" v="693397" />
		<tag k="ssr:type" v="eneboligMindreBoligbygg" />
	</node>
	<node changeset="65998035" id="6181695046" lat="59.1035889" lon="10.385575" timestamp="2019-01-03T18:24:12Z" uid="3497659" user="NKA" version="1">
		<tag k="alt_name" v="Barkevik" />
		<tag k="name" v="Barkevika" />
		<tag k="place" v="isolated_dwelling" />
		<tag k="ssr:stedsnr" v="304422" />
		<tag k="ssr:type" v="fritidsbolig" />
	</node>
	<node changeset="65998035" id="6181695047" lat="59.1904778" lon="10.4343833" timestamp="2019-01-03T18:24:12Z" uid="3497659" user="NKA" version="1">
		<tag k="name" v="Bergsøen" />
		<tag k="place" v="isolated_dwelling" />
		<tag k="ssr:stedsnr" v="328932" />
		<tag k="ssr:type" v="eneboligMindreBoligbygg" />
	</node>
	<node changeset="65998035" id="6181695048" lat="59.0895833" lon="10.4231389" timestamp="2019-01-03T18:24:12Z" uid="3497659" user="NKA" version="1">
		<tag k="name" v="Espevika" />
		<tag k="place" v="isolated_dwelling" />
		<tag k="ssr:stedsnr" v="729421" />
		<tag k="ssr:type" v="fritidsbolig" />
	</node>
	<node changeset="65998035" id="6181694988" lat="59.2183083" lon="10.4190778" timestamp="2019-01-03T18:24:08Z" uid="3497659" user="NKA" version="1">
		<tag k="name" v="Sem" />
		<tag k="place" v="farm" />
		<tag k="ssr:stedsnr" v="669027" />
		<tag k="ssr:type" v="bruk" />
	</node>
	<node changeset="65998035" id="6181695050" lat="59.0630694" lon="10.4130389" timestamp="2019-01-03T18:24:12Z" uid="3497659" user="NKA" version="1">
		<tag k="name" v="Grepan" />
		<tag k="place" v="locality" />
		<tag k="ssr:stedsnr" v="487477" />
		<tag k="ssr:type" v="hotell" />
	</node>
	<node changeset="65998035" id="6181695051" lat="59.1631778" lon="10.3447056" timestamp="2019-01-03T18:24:13Z" uid="3497659" user="NKA" version="1">
		<tag k="name" v="Vestgården" />
		<tag k="place" v="farm" />
		<tag k="ssr:stedsnr" v="328252" />
		<tag k="ssr:type" v="bruk" />
	</node>
	<node changeset="65998035" id="6181695052" lat="59.1833472" lon="10.3775556" timestamp="2019-01-03T18:24:13Z" uid="3497659" user="NKA" version="1">
		<tag k="alt_name" v="Engrønning" />
		<tag k="name" v="Engrønningen" />
		<tag k="place" v="farm" />
		<tag k="ssr:stedsnr" v="305086" />
		<tag k="ssr:type" v="bruk" />
	</node>
	<node changeset="65998035" id="6181695053" lat="59.2088204" lon="10.4532174" timestamp="2019-01-03T18:24:13Z" uid="3497659" user="NKA" version="1">
		<tag k="name" v="Knarrberg" />
		<tag k="place" v="quarter" />
		<tag k="ssr:stedsnr" v="183052" />
		<tag k="ssr:type" v="tettsted" />
	</node>
	<node changeset="65998035" id="6181695054" lat="59.1028417" lon="10.4295444" timestamp="2019-01-03T18:24:13Z" uid="3497659" user="NKA" version="1">
		<tag k="name" v="Søndre Holme" />
		<tag k="place" v="farm" />
		<tag k="ssr:stedsnr" v="86634" />
		<tag k="ssr:type" v="bruk" />
	</node>
	<node changeset="65998035" id="6181695055" lat="59.1572" lon="10.389025" timestamp="2019-01-03T18:24:13Z" uid="3497659" user="NKA" version="1">
		<tag k="name" v="Søndre Sundene" />
		<tag k="place" v="farm" />
		<tag k="ssr:stedsnr" v="305111" />
		<tag k="ssr:type" v="bruk" />
	</node>
	<node changeset="65998035" id="6181695056" lat="59.1116639" lon="10.391475" timestamp="2019-01-03T18:24:13Z" uid="3497659" user="NKA" version="1">
		<tag k="name" v="Rød" />
		<tag k="place" v="farm" />
		<tag k="ssr:stedsnr" v="244435" />
		<tag k="ssr:type" v="bruk" />
	</node>
	<node changeset="65998035" id="6181695057" lat="59.2285833" lon="10.4354389" timestamp="2019-01-03T18:24:13Z" uid="3497659" user="NKA" version="1">
		<tag k="name" v="Brua" />
		<tag k="place" v="quarter" />
		<tag k="ssr:stedsnr" v="938037" />
		<tag k="ssr:type" v="tettsted" />
	</node>
	<node changeset="65998035" id="6181695059" lat="59.1695639" lon="10.4242639" timestamp="2019-01-03T18:24:13Z" uid="3497659" user="NKA" version="1">
		<tag k="name" v="Buerstad" />
		<tag k="place" v="isolated_dwelling" />
		<tag k="ssr:stedsnr" v="790088" />
		<tag k="ssr:type" v="eneboligMindreBoligbygg" />
	</node>
	<node changeset="65998035" id="6181695060" lat="59.2172639" lon="10.3759028" timestamp="2019-01-03T18:24:13Z" uid="3497659" user="NKA" version="1">
		<tag k="name" v="Sanderønningen" />
		<tag k="place" v="isolated_dwelling" />
		<tag k="ssr:stedsnr" v="426038" />
		<tag k="ssr:type" v="eneboligMindreBoligbygg" />
	</node>
	<node changeset="65998035" id="6181695061" lat="59.195275" lon="10.4437778" timestamp="2019-01-03T18:24:13Z" uid="3497659" user="NKA" version="1">
		<tag k="name" v="Hårkollen" />
		<tag k="place" v="neighbourhood" />
		<tag k="ssr:stedsnr" v="753955" />
		<tag k="ssr:type" v="boligfelt" />
	</node>
	<node changeset="65998035" id="6181695062" lat="59.0856583" lon="10.4140139" timestamp="2019-01-03T18:24:13Z" uid="3497659" user="NKA" version="1">
		<tag k="name" v="Ottersti" />
		<tag k="place" v="isolated_dwelling" />
		<tag k="ssr:stedsnr" v="183371" />
		<tag k="ssr:type" v="eneboligMindreBoligbygg" />
	</node>
	<node changeset="65998035" id="6181695063" lat="59.2423" lon="10.429925" timestamp="2019-01-03T18:24:13Z" uid="3497659" user="NKA" version="1">
		<tag k="name" v="Skjæret" />
		<tag k="place" v="farm" />
		<tag k="ssr:stedsnr" v="123013" />
		<tag k="ssr:type" v="bruk" />
	</node>
	<node changeset="65998035" id="6181695064" lat="59.0749306" lon="10.4241445" timestamp="2019-01-03T18:24:13Z" uid="3497659" user="NKA" version="1">
		<tag k="name" v="Ramsen" />
		<tag k="place" v="isolated_dwelling" />
		<tag k="ssr:stedsnr" v="183408" />
		<tag k="ssr:type" v="fritidsbolig" />
	</node>
	<node changeset="65998035" id="6181695065" lat="59.0748389" lon="10.4421167" timestamp="2019-01-03T18:24:13Z" uid="3497659" user="NKA" version="1">
		<tag k="name" v="Austheim" />
		<tag k="place" v="hamlet" />
		<tag k="ssr:stedsnr" v="814400" />
		<tag k="ssr:type" v="grend" />
	</node>
	<node changeset="65998035" id="6181695066" lat="59.199475" lon="10.3863639" timestamp="2019-01-03T18:24:14Z" uid="3497659" user="NKA" version="1">
		<tag k="alt_name" v="Gurre" />
		<tag k="name" v="Gurød" />
		<tag k="place" v="farm" />
		<tag k="ssr:stedsnr" v="390971" />
		<tag k="ssr:type" v="bruk" />
	</node>
	<node changeset="65998035" id="6181695067" lat="59.1427722" lon="10.3423472" timestamp="2019-01-03T18:24:14Z" uid="3497659" user="NKA" version="1">
		<tag k="name" v="Hverven" />
		<tag k="place" v="isolated_dwelling" />
		<tag k="ssr:stedsnr" v="207261" />
		<tag k="ssr:type" v="eneboligMindreBoligbygg" />
	</node>
	<node changeset="65998035" id="6181695068" lat="59.093975" lon="10.4041806" timestamp="2019-01-03T18:24:14Z" uid="3497659" user="NKA" version="1">
		<tag k="name" v="Eidene" />
		<tag k="place" v="isolated_dwelling" />
		<tag k="ssr:stedsnr" v="911426" />
		<tag k="ssr:type" v="eneboligMindreBoligbygg" />
	</node>
	<node changeset="65998035" id="6181695069" lat="59.1511278" lon="10.3523528" timestamp="2019-01-03T18:24:14Z" uid="3497659" user="NKA" version="1">
		<tag k="name" v="Kriken" />
		<tag k="place" v="isolated_dwelling" />
		<tag k="ssr:stedsnr" v="328255" />
		<tag k="ssr:type" v="eneboligMindreBoligbygg" />
	</node>
	<node changeset="65998035" id="6181695070" lat="59.1873944" lon="10.3834" timestamp="2019-01-03T18:24:14Z" uid="3497659" user="NKA" version="1">
		<tag k="alt_name" v="Bjørndalen" />
		<tag k="name" v="Bjørndal" />
		<tag k="place" v="farm" />
		<tag k="ssr:stedsnr" v="451957" />
		<tag k="ssr:type" v="bruk" />
	</node>
	<node changeset="65998035" id="6181695071" lat="59.2109139" lon="10.3970861" timestamp="2019-01-03T18:24:14Z" uid="3497659" user="NKA" version="1">
		<tag k="name" v="Hovland" />
		<tag k="place" v="farm" />
		<tag k="ssr:stedsnr" v="608048" />
		<tag k="ssr:type" v="bruk" />
	</node>
	<node changeset="65998035" id="6181695072" lat="59.1492611" lon="10.4058333" timestamp="2019-01-03T18:24:14Z" uid="3497659" user="NKA" version="1">
		<tag k="name" v="Honerød" />
		<tag k="place" v="isolated_dwelling" />
		<tag k="ssr:stedsnr" v="268686" />
		<tag k="ssr:type" v="eneboligMindreBoligbygg" />
	</node>
	<node changeset="65998035" id="6181695073" lat="59.1469139" lon="10.3665083" timestamp="2019-01-03T18:24:14Z" uid="3497659" user="NKA" version="1">
		<tag k="name" v="Sjølyst" />
		<tag k="place" v="farm" />
		<tag k="ssr:stedsnr" v="85228" />
		<tag k="ssr:type" v="bruk" />
	</node>
	<node changeset="65998035" id="6181695074" lat="59.1423278" lon="10.3875778" timestamp="2019-01-03T18:24:14Z" uid="3497659" user="NKA" version="1">
		<tag k="name" v="Holme" />
		<tag k="place" v="isolated_dwelling" />
		<tag k="ssr:stedsnr" v="207221" />
		<tag k="ssr:type" v="eneboligMindreBoligbygg" />
	</node>
	<node changeset="65998035" id="6181695075" lat="59.2362139" lon="10.4170167" timestamp="2019-01-03T18:24:14Z" uid="3497659" user="NKA" version="1">
		<tag k="name" v="Skarphaga" />
		<tag k="place" v="farm" />
		<tag k="ssr:stedsnr" v="365034" />
		<tag k="ssr:type" v="bruk" />
	</node>
	<node changeset="65998035" id="6181695076" lat="59.19035" lon="10.3637917" timestamp="2019-01-03T18:24:14Z" uid="3497659" user="NKA" version="1">
		<tag k="name" v="Grøtterød" />
		<tag k="place" v="farm" />
		<tag k="ssr:stedsnr" v="365072" />
		<tag k="ssr:type" v="bruk" />
	</node>
	<node changeset="65998035" id="6181695077" lat="59.0872722" lon="10.4488306" timestamp="2019-01-03T18:24:14Z" uid="3497659" user="NKA" version="1">
		<tag k="name" v="Eide" />
		<tag k="place" v="isolated_dwelling" />
		<tag k="ssr:stedsnr" v="122416" />
		<tag k="ssr:type" v="fritidsbolig" />
	</node>
	<node changeset="65998035" id="6181695078" lat="59.0873333" lon="10.4265861" timestamp="2019-01-03T18:24:14Z" uid="3497659" user="NKA" version="1">
		<tag k="name" v="Øra" />
		<tag k="place" v="isolated_dwelling" />
		<tag k="ssr:stedsnr" v="122417" />
		<tag k="ssr:type" v="eneboligMindreBoligbygg" />
	</node>
	<node changeset="65998035" id="6181695079" lat="59.21115" lon="10.5561389" timestamp="2019-01-03T18:24:14Z" uid="3497659" user="NKA" version="1">
		<tag k="name" v="Grevestuen" />
		<tag k="place" v="isolated_dwelling" />
		<tag k="ssr:stedsnr" v="851057" />
		<tag k="ssr:type" v="fritidsbolig" />
	</node>
	<node changeset="65998035" id="6181695080" lat="59.2106333" lon="10.4090556" timestamp="2019-01-03T18:24:14Z" uid="3497659" user="NKA" version="1">
		<tag k="name" v="Meum" />
		<tag k="place" v="farm" />
		<tag k="ssr:stedsnr" v="547072" />
		<tag k="ssr:type" v="bruk" />
	</node>
	<node changeset="65998035" id="6181695081" lat="59.1591306" lon="10.3478306" timestamp="2019-01-03T18:24:15Z" uid="3497659" user="NKA" version="1">
		<tag k="alt_name" v="Vestgården" />
		<tag k="name" v="Vestgarden" />
		<tag k="place" v="farm" />
		<tag k="ssr:stedsnr" v="184117" />
		<tag k="ssr:type" v="bruk" />
	</node>
	<node changeset="65998035" id="6181695082" lat="59.1348167" lon="10.4071278" timestamp="2019-01-03T18:24:15Z" uid="3497659" user="NKA" version="1">
		<tag k="name" v="Geiteglova" />
		<tag k="place" v="isolated_dwelling" />
		<tag k="ssr:stedsnr" v="570168" />
		<tag k="ssr:type" v="fritidsbolig" />
	</node>
	<node changeset="65998035" id="6181695083" lat="59.1962889" lon="10.4173056" timestamp="2019-01-03T18:24:15Z" uid="3497659" user="NKA" version="1">
		<tag k="name" v="Skrafskjær" />
		<tag k="place" v="farm" />
		<tag k="ssr:stedsnr" v="365075" />
		<tag k="ssr:type" v="bruk" />
	</node>
	<node changeset="65998035" id="6181695084" lat="59.239675" lon="10.4278389" timestamp="2019-01-03T18:24:15Z" uid="3497659" user="NKA" version="1">
		<tag k="name" v="Sjølyst" />
		<tag k="place" v="farm" />
		<tag k="ssr:stedsnr" v="487022" />
		<tag k="ssr:type" v="bruk" />
	</node>
	<node changeset="65998035" id="5902069359" lat="59.1727813" lon="10.3774402" timestamp="2019-01-03T18:24:24Z" uid="3497659" user="NKA" version="2">
		<tag k="name" v="Tokenes" />
		<tag k="place" v="farm" />
		<tag k="ssr:stedsnr" v="244115" />
		<tag k="ssr:type" v="bruk" />
	</node>
	<node changeset="65998035" id="5902069360" lat="59.173125" lon="10.3675111" timestamp="2019-01-03T18:24:24Z" uid="3497659" user="NKA" version="2">
		<tag k="name" v="Småvik" />
		<tag k="place" v="farm" />
		<tag k="ssr:stedsnr" v="323993" />
		<tag k="ssr:type" v="bruk" />
	</node>
	<node changeset="65998035" id="6181695336" lat="59.2211694" lon="10.4340278" timestamp="2019-01-03T18:24:18Z" uid="3497659" user="NKA" version="1">
		<tag k="alt_name" v="Bugarden" />
		<tag k="name" v="Bugården" />
		<tag k="place" v="farm" />
		<tag k="ssr:stedsnr" v="912033" />
		<tag k="ssr:type" v="bruk" />
	</node>
	<node changeset="65998035" id="462098039" lat="59.2499315" lon="10.3864026" timestamp="2019-01-03T18:24:23Z" uid="3497659" user="NKA" version="3">
		<tag k="name" v="Munkerekka" />
		<tag k="place" v="quarter" />
		<tag k="ssr:stedsnr" v="730011" />
		<tag k="ssr:type" v="tettsted" />
	</node>
	<node changeset="65998035" id="6181695338" lat="59.0729183" lon="10.4076342" timestamp="2019-01-03T18:24:18Z" uid="3497659" user="NKA" version="1">
		<tag k="name" v="Hola" />
		<tag k="place" v="hamlet" />
		<tag k="ssr:stedsnr" v="207363" />
		<tag k="ssr:type" v="grend" />
	</node>
	<node changeset="65998035" id="6181695339" lat="59.1177722" lon="10.3951306" timestamp="2019-01-03T18:24:19Z" uid="3497659" user="NKA" version="1">
		<tag k="alt_name" v="Kirkelyrønningen" />
		<tag k="name" v="Kirkely" />
		<tag k="place" v="isolated_dwelling" />
		<tag k="ssr:stedsnr" v="730402" />
		<tag k="ssr:type" v="eneboligMindreBoligbygg" />
	</node>
	<node changeset="65998035" id="6178144113" lat="59.1954718" lon="10.450986" timestamp="2019-01-03T18:24:25Z" uid="3497659" user="NKA" version="2">
		<tag k="name" v="Oterbekk" />
		<tag k="place" v="neighbourhood" />
		<tag k="ssr:stedsnr" v="912065" />
		<tag k="ssr:type" v="bruk" />
	</node>
	<node changeset="65998035" id="6181695687" lat="59.2131417" lon="10.4332083" timestamp="2019-01-03T18:24:22Z" uid="3497659" user="NKA" version="1">
		<tag k="name" v="Kjøle" />
		<tag k="place" v="farm" />
		<tag k="ssr:stedsnr" v="912056" />
		<tag k="ssr:type" v="bruk" />
	</node>
	<node changeset="65998035" id="462230375" lat="59.2161017" lon="10.4052345" timestamp="2019-01-03T18:24:23Z" uid="3497659" user="NKA" version="3">
		<tag k="name" v="Stangeby" />
		<tag k="place" v="hamlet" />
		<tag k="ssr:stedsnr" v="851039" />
		<tag k="ssr:type" v="bruk" />
	</node>
	<node changeset="38837736" id="23626932" lat="59.1738753" lon="10.4738067" timestamp="2016-04-24T16:42:19Z" uid="1741239" user="freewaretips" version="2">
		<tag k="source" v="PGS(could be inacurately)" />
	</node>
	<node changeset="181937" id="23626934" lat="59.17439" lon="10.473472" timestamp="2007-01-01T12:23:40Z" uid="5080" user="vassloff" version="1">
		<tag k="created_by" v="almien_coastlines" />
		<tag k="source" v="PGS(could be inacurately)" />
	</node>
	<node changeset="65998035" id="6181695689" lat="59.2308778" lon="10.3997972" timestamp="2019-01-03T18:24:22Z" uid="3497659" user="NKA" version="1">
		<tag k="name" v="Nyhus" />
		<tag k="place" v="farm" />
		<tag k="ssr:stedsnr" v="912020" />
		<tag k="ssr:type" v="bruk" />
	</node>
	<node changeset="38837736" id="23626936" lat="59.1747395" lon="10.473719" timestamp="2016-04-24T16:42:19Z" uid="1741239" user="freewaretips" version="2">
		<tag k="source" v="PGS(could be inacurately)" />
	</node>
	<node changeset="38837736" id="23626939" lat="59.175653" lon="10.4742932" timestamp="2016-04-24T16:42:19Z" uid="1741239" user="freewaretips" version="2">
		<tag k="source" v="PGS(could be inacurately)" />
	</node>
	<node changeset="181937" id="23626941" lat="59.176429" lon="10.474308" timestamp="2007-01-01T12:23:41Z" uid="5080" user="vassloff" version="1">
		<tag k="created_by" v="almien_coastlines" />
		<tag k="source" v="PGS(could be inacurately)" />
	</node>
	<node changeset="65998035" id="6181695349" lat="59.1017194" lon="10.4228889" timestamp="2019-01-03T18:24:19Z" uid="3497659" user="NKA" version="1">
		<tag k="name" v="Rød" />
		<tag k="place" v="farm" />
		<tag k="ssr:stedsnr" v="122428" />
		<tag k="ssr:type" v="bruk" />
	</node>
	<node changeset="181937" id="23626944" lat="59.176551" lon="10.474812" timestamp="2007-01-01T12:23:41Z" uid="5080" user="vassloff" version="1">
		<tag k="created_by" v="almien_coastlines" />
		<tag k="source" v="PGS(could be inacurately)" />
	</node>
	<node changeset="65998035" id="6181695328" lat="59.1914694" lon="10.3732583" timestamp="2019-01-03T18:24:18Z" uid="3497659" user="NKA" version="1">
		<tag k="name" v="Horperød" />
		<tag k="place" v="farm" />
		<tag k="ssr:stedsnr" v="244074" />
		<tag k="ssr:type" v="bruk" />
	</node>
	<node changeset="181937" id="23626946" lat="59.176668" lon="10.475815" timestamp="2007-01-01T12:23:41Z" uid="5080" user="vassloff" version="1">
		<tag k="created_by" v="almien_coastlines" />
		<tag k="source" v="PGS(could be inacurately)" />
	</node>
	<node changeset="65998035" id="6181695691" lat="59.1593722" lon="10.3974167" timestamp="2019-01-03T18:24:22Z" uid="3497659" user="NKA" version="1">
		<tag k="name" v="Kynna gård" />
		<tag k="place" v="farm" />
		<tag k="ssr:stedsnr" v="146635" />
		<tag k="ssr:type" v="bruk" />
	</node>
	<node changeset="38837736" id="23626948" lat="59.176486" lon="10.4762666" timestamp="2016-04-24T16:42:19Z" uid="1741239" user="freewaretips" version="2">
		<tag k="source" v="PGS(could be inacurately)" />
	</node>
	<node changeset="65998035" id="6181695685" lat="59.105725" lon="10.429525" timestamp="2019-01-03T18:24:22Z" uid="3497659" user="NKA" version="1">
		<tag k="alt_name" v="Nordre Holme" />
		<tag k="name" v="Holme" />
		<tag k="place" v="farm" />
		<tag k="ssr:stedsnr" v="729440" />
		<tag k="ssr:type" v="bruk" />
	</node>
	<node changeset="65998035" id="6181695686" lat="59.1264444" lon="10.3840055" timestamp="2019-01-03T18:24:22Z" uid="3497659" user="NKA" version="1">
		<tag k="name" v="Budal" />
		<tag k="place" v="quarter" />
		<tag k="ssr:stedsnr" v="814274" />
		<tag k="ssr:type" v="tettbebyggelse" />
	</node>
	<node changeset="38837736" id="23626951" lat="59.1765153" lon="10.47654" timestamp="2016-04-24T16:42:19Z" uid="1741239" user="freewaretips" version="2">
		<tag k="source" v="PGS(could be inacurately)" />
	</node>
	<node changeset="66579344" id="6181695688" lat="59.1557972" lon="10.3532028" timestamp="2019-01-23T19:04:29Z" uid="3497659" user="NKA" version="2">
		<tag k="alt_name" v="Veierland" />
		<tag k="name" v="Kriken" />
		<tag k="place" v="hamlet" />
		<tag k="ssr:stedsnr" v="851117" />
		<tag k="ssr:type" v="bruk" />
	</node>
	<node changeset="38837736" id="23626953" lat="59.1759567" lon="10.4769299" timestamp="2016-04-24T16:42:19Z" uid="1741239" user="freewaretips" version="2">
		<tag k="source" v="PGS(could be inacurately)" />
	</node>
	<node changeset="65998035" id="6181695690" lat="59.2367472" lon="10.4239083" timestamp="2019-01-03T18:24:22Z" uid="3497659" user="NKA" version="1">
		<tag k="name" v="Øre" />
		<tag k="place" v="farm" />
		<tag k="ssr:stedsnr" v="669023" />
		<tag k="ssr:type" v="bruk" />
	</node>
	<node changeset="38837736" id="23626955" lat="59.1750689" lon="10.4770613" timestamp="2016-04-24T16:42:19Z" uid="1741239" user="freewaretips" version="2">
		<tag k="source" v="PGS(could be inacurately)" />
	</node>
	<node changeset="181937" id="23626958" lat="59.174865" lon="10.476734" timestamp="2007-01-01T12:23:42Z" uid="5080" user="vassloff" version="1">
		<tag k="created_by" v="almien_coastlines" />
		<tag k="source" v="PGS(could be inacurately)" />
	</node>
	<node changeset="38837736" id="23626961" lat="59.1743423" lon="10.4770011" timestamp="2016-04-24T16:42:19Z" uid="1741239" user="freewaretips" version="2">
		<tag k="source" v="PGS(could be inacurately)" />
	</node>
	<node changeset="38837736" id="23626963" lat="59.1738015" lon="10.4751461" timestamp="2016-04-24T16:42:19Z" uid="1741239" user="freewaretips" version="2">
		<tag k="source" v="PGS(could be inacurately)" />
	</node>
	<node changeset="65998035" id="5424474006" lat="59.1731036" lon="10.3830047" timestamp="2019-01-03T18:24:23Z" uid="3497659" user="NKA" version="2">
		<tag k="name" v="Kjøpmannskjær" />
		<tag k="place" v="village" />
		<tag k="population" v="421" />
		<tag k="population:date" v="2017-01-01" />
		<tag k="ssr:stedsnr" v="426119" />
		<tag k="ssr:type" v="grend" />
	</node>
	<node changeset="65998035" id="6181695380" lat="59.2150306" lon="10.4367306" timestamp="2019-01-03T18:24:21Z" uid="3497659" user="NKA" version="1">
		<tag k="name" v="Lilleng" />
		<tag k="place" v="farm" />
		<tag k="ssr:stedsnr" v="25993" />
		<tag k="ssr:type" v="bruk" />
	</node>
	<node changeset="65998035" id="541647087" lat="59.2571625" lon="10.4235439" timestamp="2019-01-03T18:24:23Z" uid="3497659" user="NKA" version="3">
		<tag k="alt_name" v="Ørnes" />
		<tag k="name" v="Ørsnes" />
		<tag k="place" v="quarter" />
		<tag k="ssr:stedsnr" v="877034" />
		<tag k="ssr:type" v="boligfelt" />
	</node>
	<node changeset="65998035" id="5424474007" lat="59.1831961" lon="10.4574576" timestamp="2019-01-03T18:24:24Z" uid="3497659" user="NKA" version="3">
		<tag k="name" v="Årøysund" />
		<tag k="place" v="village" />
		<tag k="ssr:stedsnr" v="244091" />
		<tag k="ssr:type" v="tettbebyggelse" />
	</node>
	<node changeset="66155065" id="462243069" lat="59.231296" lon="10.3861883" timestamp="2019-01-09T09:29:42Z" uid="633013" user="Honning" version="3">
		<tag k="name" v="Hella" />
		<tag k="place" v="quarter" />
		<tag k="ssr:stedsnr" v="487016" />
		<tag k="ssr:type" v="grend" />
	</node>
	<node changeset="65998035" id="462097281" lat="59.2512743" lon="10.4157845" timestamp="2019-01-03T18:24:23Z" uid="3497659" user="NKA" version="2">
		<tag k="alt_name" v="Teige" />
		<tag k="name" v="Teie" />
		<tag k="place" v="suburb" />
		<tag k="ssr:stedsnr" v="392042" />
		<tag k="ssr:type" v="tettsted" />
	</node>
	<node changeset="65998035" id="6181695331" lat="59.1178722" lon="10.416325" timestamp="2019-01-03T18:24:18Z" uid="3497659" user="NKA" version="1">
		<tag k="name" v="Dalen" />
		<tag k="place" v="isolated_dwelling" />
		<tag k="ssr:stedsnr" v="851365" />
		<tag k="ssr:type" v="eneboligMindreBoligbygg" />
	</node>
	<node changeset="65998035" id="6181695285" lat="59.2622028" lon="10.3972444" timestamp="2019-01-03T18:24:15Z" uid="3497659" user="NKA" version="1">
		<tag k="alt_name" v="Valhalle" />
		<tag k="name" v="Valhalla" />
		<tag k="place" v="neighbourhood" />
		<tag k="ssr:stedsnr" v="207741" />
		<tag k="ssr:type" v="boligfelt" />
	</node>
	<node changeset="65998035" id="6181695286" lat="59.204875" lon="10.4047722" timestamp="2019-01-03T18:24:15Z" uid="3497659" user="NKA" version="1">
		<tag k="name" v="Trolltorød" />
		<tag k="place" v="farm" />
		<tag k="ssr:stedsnr" v="912042" />
		<tag k="ssr:type" v="bruk" />
	</node>
	<node changeset="65998035" id="6181695287" lat="59.1264778" lon="10.4209889" timestamp="2019-01-03T18:24:15Z" uid="3497659" user="NKA" version="1">
		<tag k="name" v="Engø" />
		<tag k="place" v="farm" />
		<tag k="ssr:stedsnr" v="123417" />
		<tag k="ssr:type" v="bruk" />
	</node>
	<node changeset="65998035" id="462097720" lat="59.2443685" lon="10.3967744" timestamp="2019-01-03T18:24:23Z" uid="3497659" user="NKA" version="2">
		<tag k="name" v="Vestskogen" />
		<tag k="place" v="suburb" />
		<tag k="ssr:stedsnr" v="203057" />
		<tag k="ssr:type" v="tettsted" />
	</node>
	<node changeset="65998035" id="6181695289" lat="59.0616083" lon="10.4012944" timestamp="2019-01-03T18:24:15Z" uid="3497659" user="NKA" version="1">
		<tag k="name" v="Velvika" />
		<tag k="place" v="hamlet" />
		<tag k="ssr:stedsnr" v="935363" />
		<tag k="ssr:type" v="grend" />
	</node>
	<node changeset="65998035" id="6181695290" lat="59.1817472" lon="10.4452805" timestamp="2019-01-03T18:24:15Z" uid="3497659" user="NKA" version="1">
		<tag k="name" v="Svensrød" />
		<tag k="place" v="farm" />
		<tag k="ssr:stedsnr" v="123094" />
		<tag k="ssr:type" v="bruk" />
	</node>
	<node changeset="65998035" id="6181695291" lat="59.1087028" lon="10.4025194" timestamp="2019-01-03T18:24:15Z" uid="3497659" user="NKA" version="1">
		<tag k="name" v="Lindhøy" />
		<tag k="place" v="isolated_dwelling" />
		<tag k="ssr:stedsnr" v="511962" />
		<tag k="ssr:type" v="eneboligMindreBoligbygg" />
	</node>
	<node changeset="65998035" id="6181695292" lat="59.2039139" lon="10.4121917" timestamp="2019-01-03T18:24:15Z" uid="3497659" user="NKA" version="1">
		<tag k="name" v="Skjerve" />
		<tag k="place" v="farm" />
		<tag k="ssr:stedsnr" v="912040" />
		<tag k="ssr:type" v="bruk" />
	</node>
	<node changeset="65998035" id="6181695293" lat="59.1909028" lon="10.3782805" timestamp="2019-01-03T18:24:15Z" uid="3497659" user="NKA" version="1">
		<tag k="name" v="Grinda" />
		<tag k="place" v="farm" />
		<tag k="ssr:stedsnr" v="269966" />
		<tag k="ssr:type" v="bruk" />
	</node>
	<node changeset="65998035" id="6181695294" lat="59.1926589" lon="10.4105345" timestamp="2019-01-03T18:24:15Z" uid="3497659" user="NKA" version="1">
		<tag k="name" v="Kjønnerød" />
		<tag k="place" v="farm" />
		<tag k="ssr:stedsnr" v="869990" />
		<tag k="ssr:type" v="bruk" />
	</node>
	<node changeset="65998035" id="6181695295" lat="59.2418528" lon="10.4198306" timestamp="2019-01-03T18:24:16Z" uid="3497659" user="NKA" version="1">
		<tag k="name" v="Smidsrød" />
		<tag k="place" v="farm" />
		<tag k="ssr:stedsnr" v="305008" />
		<tag k="ssr:type" v="bruk" />
	</node>
	<node changeset="66579344" id="6181695296" lat="59.2136222" lon="10.4572083" timestamp="2019-01-23T19:04:29Z" uid="3497659" user="NKA" version="2">
		<tag k="name" v="Duken" />
		<tag k="place" v="neighbourhood" />
		<tag k="ssr:stedsnr" v="547069" />
		<tag k="ssr:type" v="eneboligMindreBoligbygg" />
	</node>
	<node changeset="65998035" id="6181695297" lat="59.17675" lon="10.4369333" timestamp="2019-01-03T18:24:16Z" uid="3497659" user="NKA" version="1">
		<tag k="name" v="Tømmereik" />
		<tag k="place" v="farm" />
		<tag k="ssr:stedsnr" v="912109" />
		<tag k="ssr:type" v="bruk" />
	</node>
	<node changeset="65998035" id="6181695298" lat="59.1748472" lon="10.3968972" timestamp="2019-01-03T18:24:16Z" uid="3497659" user="NKA" version="1">
		<tag k="name" v="Styrsvik" />
		<tag k="place" v="farm" />
		<tag k="ssr:stedsnr" v="184087" />
		<tag k="ssr:type" v="bruk" />
	</node>
	<node changeset="65998035" id="6181695299" lat="59.1847722" lon="10.4141167" timestamp="2019-01-03T18:24:16Z" uid="3497659" user="NKA" version="1">
		<tag k="name" v="Strengsdal" />
		<tag k="place" v="farm" />
		<tag k="ssr:stedsnr" v="426100" />
		<tag k="ssr:type" v="bruk" />
	</node>
	<node changeset="65998035" id="6181695300" lat="59.1843611" lon="10.3625389" timestamp="2019-01-03T18:24:16Z" uid="3497659" user="NKA" version="1">
		<tag k="name" v="Storebukt" />
		<tag k="place" v="isolated_dwelling" />
		<tag k="ssr:stedsnr" v="123100" />
		<tag k="ssr:type" v="eneboligMindreBoligbygg" />
	</node>
	<node changeset="65998035" id="6181695301" lat="59.2341056" lon="10.4026778" timestamp="2019-01-03T18:24:16Z" uid="3497659" user="NKA" version="1">
		<tag k="name" v="Nygård" />
		<tag k="place" v="farm" />
		<tag k="ssr:stedsnr" v="487020" />
		<tag k="ssr:type" v="bruk" />
	</node>
	<node changeset="65998035" id="6181695302" lat="59.0739806" lon="10.4368806" timestamp="2019-01-03T18:24:16Z" uid="3497659" user="NKA" version="1">
		<tag k="name" v="Megarden" />
		<tag k="place" v="farm" />
		<tag k="ssr:stedsnr" v="729457" />
		<tag k="ssr:type" v="bruk" />
	</node>
	<node changeset="65998035" id="6181695303" lat="59.1552944" lon="10.3909167" timestamp="2019-01-03T18:24:16Z" uid="3497659" user="NKA" version="1">
		<tag k="name" v="Lille Gjervåg" />
		<tag k="place" v="farm" />
		<tag k="ssr:stedsnr" v="510672" />
		<tag k="ssr:type" v="bruk" />
	</node>
	<node changeset="65998035" id="6181695304" lat="59.2219972" lon="10.402975" timestamp="2019-01-03T18:24:16Z" uid="3497659" user="NKA" version="1">
		<tag k="name" v="Gunnestad" />
		<tag k="place" v="farm" />
		<tag k="ssr:stedsnr" v="244047" />
		<tag k="ssr:type" v="bruk" />
	</node>
	<node changeset="65998035" id="6181695305" lat="59.0913389" lon="10.431025" timestamp="2019-01-03T18:24:16Z" uid="3497659" user="NKA" version="1">
		<tag k="name" v="Kjellekrøk" />
		<tag k="place" v="farm" />
		<tag k="ssr:stedsnr" v="389639" />
		<tag k="ssr:type" v="bruk" />
	</node>
	<node changeset="65998035" id="6181695306" lat="59.2142182" lon="10.4290888" timestamp="2019-01-03T18:24:16Z" uid="3497659" user="NKA" version="1">
		<tag k="name" v="Kjøle v" />
		<tag k="place" v="farm" />
		<tag k="ssr:stedsnr" v="571988" />
		<tag k="ssr:type" v="bruk" />
	</node>
	<node changeset="65998035" id="6181695307" lat="59.143025" lon="10.4011528" timestamp="2019-01-03T18:24:16Z" uid="3497659" user="NKA" version="1">
		<tag k="alt_name" v="Holtene;Havna;Holtan" />
		<tag k="name" v="Holtane" />
		<tag k="place" v="farm" />
		<tag k="ssr:stedsnr" v="184405" />
		<tag k="ssr:type" v="bruk" />
	</node>
	<node changeset="65998035" id="6181695308" lat="59.1975639" lon="10.4270417" timestamp="2019-01-03T18:24:16Z" uid="3497659" user="NKA" version="1">
		<tag k="name" v="Kårød" />
		<tag k="place" v="farm" />
		<tag k="ssr:stedsnr" v="426075" />
		<tag k="ssr:type" v="bruk" />
	</node>
	<node changeset="65998035" id="6181695309" lat="59.194225" lon="10.3919195" timestamp="2019-01-03T18:24:16Z" uid="3497659" user="NKA" version="1">
		<tag k="name" v="Possås" />
		<tag k="place" v="farm" />
		<tag k="ssr:stedsnr" v="809046" />
		<tag k="ssr:type" v="bruk" />
	</node>
	<node changeset="65998035" id="6181695311" lat="59.1923694" lon="10.4450194" timestamp="2019-01-03T18:24:17Z" uid="3497659" user="NKA" version="1">
		<tag k="alt_name" v="Petterrød" />
		<tag k="name" v="Petterød" />
		<tag k="place" v="farm" />
		<tag k="ssr:stedsnr" v="633971" />
		<tag k="ssr:type" v="bruk" />
	</node>
	<node changeset="65998035" id="6181695312" lat="59.2082833" lon="10.5581805" timestamp="2019-01-03T18:24:17Z" uid="3497659" user="NKA" version="1">
		<tag k="name" v="Solvik" />
		<tag k="place" v="isolated_dwelling" />
		<tag k="ssr:stedsnr" v="790046" />
		<tag k="ssr:type" v="fritidsbolig" />
	</node>
	<node changeset="65998035" id="6181695288" lat="59.2110465" lon="10.4136908" timestamp="2019-01-03T18:24:15Z" uid="3497659" user="NKA" version="1">
		<tag k="name" v="Nattvall" />
		<tag k="place" v="farm" />
		<tag k="ssr:stedsnr" v="870052" />
		<tag k="ssr:type" v="bruk" />
	</node>
	<node changeset="65998035" id="6181695314" lat="59.1522306" lon="10.3376778" timestamp="2019-01-03T18:24:17Z" uid="3497659" user="NKA" version="1">
		<tag k="name" v="Båsløkka" />
		<tag k="place" v="isolated_dwelling" />
		<tag k="ssr:stedsnr" v="693345" />
		<tag k="ssr:type" v="fritidsbolig" />
	</node>
	<node changeset="65998035" id="6181695315" lat="59.1995464" lon="10.3797646" timestamp="2019-01-03T18:24:17Z" uid="3497659" user="NKA" version="1">
		<tag k="name" v="Snarrønningen" />
		<tag k="place" v="farm" />
		<tag k="ssr:stedsnr" v="626990" />
		<tag k="ssr:type" v="bruk" />
	</node>
	<node changeset="65998035" id="6181695316" lat="59.0927111" lon="10.40615" timestamp="2019-01-03T18:24:17Z" uid="3497659" user="NKA" version="1">
		<tag k="name" v="Dagali" />
		<tag k="place" v="isolated_dwelling" />
		<tag k="ssr:stedsnr" v="328610" />
		<tag k="ssr:type" v="fritidsbolig" />
	</node>
	<node changeset="65998035" id="6181695317" lat="59.1502611" lon="10.3395917" timestamp="2019-01-03T18:24:17Z" uid="3497659" user="NKA" version="1">
		<tag k="name" v="Tangen" />
		<tag k="place" v="farm" />
		<tag k="ssr:stedsnr" v="693344" />
		<tag k="ssr:type" v="bruk" />
	</node>
	<node changeset="65998035" id="6181695318" lat="59.1999361" lon="10.429325" timestamp="2019-01-03T18:24:17Z" uid="3497659" user="NKA" version="1">
		<tag k="name" v="Hengerød" />
		<tag k="place" v="isolated_dwelling" />
		<tag k="ssr:stedsnr" v="85928" />
		<tag k="ssr:type" v="eneboligMindreBoligbygg" />
	</node>
	<node changeset="65998035" id="6181695319" lat="59.1958306" lon="10.3757444" timestamp="2019-01-03T18:24:17Z" uid="3497659" user="NKA" version="1">
		<tag k="name" v="Snipetorp" />
		<tag k="place" v="village" />
		<tag k="ssr:stedsnr" v="1091" />
		<tag k="ssr:type" v="bruk" />
	</node>
	<node changeset="65998035" id="6181695320" lat="59.1493611" lon="10.4104167" timestamp="2019-01-03T18:24:17Z" uid="3497659" user="NKA" version="1">
		<tag k="name" v="Honerød" />
		<tag k="place" v="farm" />
		<tag k="ssr:stedsnr" v="2412" />
		<tag k="ssr:type" v="bruk" />
	</node>
	<node changeset="65998035" id="6181695321" lat="59.1552111" lon="10.4102722" timestamp="2019-01-03T18:24:17Z" uid="3497659" user="NKA" version="1">
		<tag k="name" v="Kråkere" />
		<tag k="place" v="farm" />
		<tag k="ssr:stedsnr" v="62099" />
		<tag k="ssr:type" v="bruk" />
	</node>
	<node changeset="65998035" id="6181695322" lat="59.0978083" lon="10.3948639" timestamp="2019-01-03T18:24:17Z" uid="3497659" user="NKA" version="1">
		<tag k="name" v="Gon" />
		<tag k="place" v="locality" />
		<tag k="ssr:stedsnr" v="753589" />
		<tag k="ssr:type" v="eiendom" />
	</node>
	<node changeset="65998035" id="6181695323" lat="59.1543068" lon="10.4335112" timestamp="2019-01-03T18:24:17Z" uid="3497659" user="NKA" version="1">
		<tag k="name" v="Mågerø verft" />
		<tag k="place" v="locality" />
		<tag k="ssr:stedsnr" v="935711" />
		<tag k="ssr:type" v="industriområde" />
	</node>
	<node changeset="65998035" id="6181695324" lat="59.0716611" lon="10.4365778" timestamp="2019-01-03T18:24:18Z" uid="3497659" user="NKA" version="1">
		<tag k="name" v="Megård" />
		<tag k="place" v="farm" />
		<tag k="ssr:stedsnr" v="571982" />
		<tag k="ssr:type" v="bruk" />
	</node>
	<node changeset="65998035" id="6181695325" lat="59.089975" lon="10.44315" timestamp="2019-01-03T18:24:18Z" uid="3497659" user="NKA" version="1">
		<tag k="name" v="Nordhavna" />
		<tag k="place" v="isolated_dwelling" />
		<tag k="ssr:stedsnr" v="729412" />
		<tag k="ssr:type" v="fritidsbolig" />
	</node>
	<node changeset="65998035" id="6181695326" lat="59.1198278" lon="10.431025" timestamp="2019-01-03T18:24:18Z" uid="3497659" user="NKA" version="1">
		<tag k="name" v="Gåsø" />
		<tag k="place" v="isolated_dwelling" />
		<tag k="ssr:stedsnr" v="730400" />
		<tag k="ssr:type" v="fritidsbolig" />
	</node>
	<node changeset="65998035" id="6181695327" lat="59.185079" lon="10.370192" timestamp="2019-01-03T18:24:18Z" uid="3497659" user="NKA" version="1">
		<tag k="name" v="Skjerpe" />
		<tag k="place" v="farm" />
		<tag k="ssr:stedsnr" v="790079" />
		<tag k="ssr:type" v="bruk" />
	</node>
	<node changeset="38837736" id="4144775008" lat="59.1768404" lon="10.4750989" timestamp="2016-04-24T16:42:17Z" uid="1741239" user="freewaretips" version="1" />
	<node changeset="65998035" id="6181695329" lat="59.0704833" lon="10.40225" timestamp="2019-01-03T18:24:18Z" uid="3497659" user="NKA" version="1">
		<tag k="name" v="Midtgården" />
		<tag k="place" v="farm" />
		<tag k="ssr:stedsnr" v="244471" />
		<tag k="ssr:type" v="bruk" />
	</node>
	<node changeset="38837736" id="4144775010" lat="59.175226" lon="10.4737693" timestamp="2016-04-24T16:42:17Z" uid="1741239" user="freewaretips" version="1" />
	<node changeset="38837736" id="4144775011" lat="59.1751806" lon="10.4740226" timestamp="2016-04-24T16:42:17Z" uid="1741239" user="freewaretips" version="1" />
	<node changeset="65998035" id="6181695332" lat="59.0701528" lon="10.4070611" timestamp="2019-01-03T18:24:18Z" uid="3497659" user="NKA" version="1">
		<tag k="name" v="Gunnarsrød" />
		<tag k="place" v="farm" />
		<tag k="ssr:stedsnr" v="729459" />
		<tag k="ssr:type" v="bruk" />
	</node>
	<node changeset="66579344" id="6181695333" lat="59.2294611" lon="10.4080217" timestamp="2019-01-23T19:04:29Z" uid="3497659" user="NKA" version="2">
		<tag k="alt_name" v="Nøtterøy" />
		<tag k="name" v="Nøtterø" />
		<tag k="old_name" v="Borgheim" />
		<tag k="place" v="hamlet" />
		<tag k="ssr:stedsnr" v="1021" />
		<tag k="ssr:type" v="bruk" />
	</node>
	<node changeset="38837736" id="4144775014" lat="59.174453" lon="10.4754137" timestamp="2016-04-24T16:42:17Z" uid="1741239" user="freewaretips" version="1" />
	<node changeset="65998035" id="6181695335" lat="59.0719639" lon="10.4011611" timestamp="2019-01-03T18:24:18Z" uid="3497659" user="NKA" version="1">
		<tag k="name" v="Mo" />
		<tag k="place" v="farm" />
		<tag k="ssr:stedsnr" v="608474" />
		<tag k="ssr:type" v="bruk" />
	</node>
	<node changeset="38837736" id="4144775016" lat="59.1739595" lon="10.4756447" timestamp="2016-04-24T16:42:17Z" uid="1741239" user="freewaretips" version="1" />
	<node changeset="38837736" id="4144775017" lat="59.1744197" lon="10.4752872" timestamp="2016-04-24T16:42:17Z" uid="1741239" user="freewaretips" version="1" />
	<node changeset="38837736" id="4144775018" lat="59.1739289" lon="10.4740704" timestamp="2016-04-24T16:42:18Z" uid="1741239" user="freewaretips" version="1" />
	<node changeset="38837736" id="4144775019" lat="59.1737204" lon="10.4741062" timestamp="2016-04-24T16:42:18Z" uid="1741239" user="freewaretips" version="1" />
	<node changeset="65998035" id="6181695340" lat="59.123575" lon="10.386825" timestamp="2019-01-03T18:24:19Z" uid="3497659" user="NKA" version="1">
		<tag k="name" v="Budal" />
		<tag k="place" v="farm" />
		<tag k="ssr:stedsnr" v="669369" />
		<tag k="ssr:type" v="bruk" />
	</node>
	<node changeset="65998035" id="6181695341" lat="59.0860806" lon="10.3995361" timestamp="2019-01-03T18:24:19Z" uid="3497659" user="NKA" version="1">
		<tag k="name" v="Kjøye" />
		<tag k="place" v="locality" />
		<tag k="ssr:stedsnr" v="814641" />
		<tag k="ssr:type" v="eiendom" />
	</node>
	<node changeset="65998035" id="6181695342" lat="59.1894083" lon="10.4269806" timestamp="2019-01-03T18:24:19Z" uid="3497659" user="NKA" version="1">
		<tag k="name" v="Buer" />
		<tag k="place" v="farm" />
		<tag k="ssr:stedsnr" v="1094" />
		<tag k="ssr:type" v="bruk" />
	</node>
	<node changeset="65998035" id="6181695343" lat="59.1451" lon="10.3916611" timestamp="2019-01-03T18:24:19Z" uid="3497659" user="NKA" version="1">
		<tag k="name" v="Søndre Gjervåg" />
		<tag k="place" v="farm" />
		<tag k="ssr:stedsnr" v="25696" />
		<tag k="ssr:type" v="bruk" />
	</node>
	<node changeset="65998035" id="6181695344" lat="59.1402222" lon="10.4070167" timestamp="2019-01-03T18:24:19Z" uid="3497659" user="NKA" version="1">
		<tag k="name" v="Holtekjær" />
		<tag k="place" v="farm" />
		<tag k="ssr:stedsnr" v="244410" />
		<tag k="ssr:type" v="bruk" />
	</node>
	<node changeset="65998035" id="6181695345" lat="59.186525" lon="10.4089556" timestamp="2019-01-03T18:24:19Z" uid="3497659" user="NKA" version="1">
		<tag k="name" v="Tjæregrav" />
		<tag k="place" v="farm" />
		<tag k="ssr:stedsnr" v="305091" />
		<tag k="ssr:type" v="bruk" />
	</node>
	<node changeset="65998035" id="6181695346" lat="59.1580583" lon="10.4049583" timestamp="2019-01-03T18:24:19Z" uid="3497659" user="NKA" version="1">
		<tag k="name" v="Kråkererønningen" />
		<tag k="place" v="neighbourhood" />
		<tag k="ssr:stedsnr" v="389670" />
		<tag k="ssr:type" v="tettbebyggelse" />
	</node>
	<node changeset="65998035" id="6181695347" lat="59.1436083" lon="10.4140861" timestamp="2019-01-03T18:24:19Z" uid="3497659" user="NKA" version="1">
		<tag k="name" v="Flekken" />
		<tag k="place" v="isolated_dwelling" />
		<tag k="ssr:stedsnr" v="754910" />
		<tag k="ssr:type" v="eneboligMindreBoligbygg" />
	</node>
	<node changeset="65998035" id="6181695348" lat="59.0930361" lon="10.4247806" timestamp="2019-01-03T18:24:19Z" uid="3497659" user="NKA" version="1">
		<tag k="name" v="Brøtsø" />
		<tag k="place" v="farm" />
		<tag k="ssr:stedsnr" v="25983" />
		<tag k="ssr:type" v="bruk" />
	</node>
	<node changeset="65998035" id="6181695334" lat="59.0777861" lon="10.4452417" timestamp="2019-01-03T18:24:18Z" uid="3497659" user="NKA" version="1">
		<tag k="name" v="Kviet" />
		<tag k="place" v="hamlet" />
		<tag k="ssr:stedsnr" v="86386" />
		<tag k="ssr:type" v="grend" />
	</node>
	<node changeset="65998035" id="6181695350" lat="59.1220111" lon="10.3873917" timestamp="2019-01-03T18:24:19Z" uid="3497659" user="NKA" version="1">
		<tag k="name" v="Tjøme prestegård" />
		<tag k="place" v="farm" />
		<tag k="ssr:stedsnr" v="267185" />
		<tag k="ssr:type" v="bruk" />
	</node>
	<node changeset="65998035" id="6181695351" lat="59.2359194" lon="10.444125" timestamp="2019-01-03T18:24:19Z" uid="3497659" user="NKA" version="1">
		<tag k="name" v="Nordre Føyn" />
		<tag k="place" v="farm" />
		<tag k="ssr:stedsnr" v="547033" />
		<tag k="ssr:type" v="bruk" />
	</node>
	<node changeset="65998035" id="6181695352" lat="59.1172833" lon="10.3957583" timestamp="2019-01-03T18:24:19Z" uid="3497659" user="NKA" version="1">
		<tag k="name" v="Fredtunfeltet" />
		<tag k="place" v="neighbourhood" />
		<tag k="ssr:stedsnr" v="389649" />
		<tag k="ssr:type" v="boligfelt" />
	</node>
	<node changeset="65998035" id="6181695353" lat="59.1407083" lon="10.4038583" timestamp="2019-01-03T18:24:19Z" uid="3497659" user="NKA" version="1">
		<tag k="name" v="Glova" />
		<tag k="place" v="isolated_dwelling" />
		<tag k="ssr:stedsnr" v="510201" />
		<tag k="ssr:type" v="fritidsbolig" />
	</node>
	<node changeset="65998035" id="6181695354" lat="59.1499361" lon="10.4230972" timestamp="2019-01-03T18:24:20Z" uid="3497659" user="NKA" version="1">
		<tag k="name" v="Vallekjær" />
		<tag k="place" v="isolated_dwelling" />
		<tag k="ssr:stedsnr" v="305414" />
		<tag k="ssr:type" v="eneboligMindreBoligbygg" />
	</node>
	<node changeset="65998035" id="6181695355" lat="59.1205389" lon="10.3954667" timestamp="2019-01-03T18:24:20Z" uid="3497659" user="NKA" version="1">
		<tag k="alt_name" v="Øvre Haug" />
		<tag k="name" v="Haug" />
		<tag k="place" v="neighbourhood" />
		<tag k="ssr:stedsnr" v="184381" />
		<tag k="ssr:type" v="bruk" />
	</node>
	<node changeset="65998035" id="6181695356" lat="59.1876111" lon="10.4466139" timestamp="2019-01-03T18:24:20Z" uid="3497659" user="NKA" version="1">
		<tag k="name" v="Agerup" />
		<tag k="place" v="farm" />
		<tag k="ssr:stedsnr" v="183069" />
		<tag k="ssr:type" v="bruk" />
	</node>
	<node changeset="65998035" id="6181695357" lat="59.1131028" lon="10.3818945" timestamp="2019-01-03T18:24:20Z" uid="3497659" user="NKA" version="1">
		<tag k="alt_name" v="Bærstad" />
		<tag k="name" v="Berstad" />
		<tag k="place" v="farm" />
		<tag k="ssr:stedsnr" v="183379" />
		<tag k="ssr:type" v="bruk" />
	</node>
	<node changeset="65998035" id="6181695358" lat="59.099525" lon="10.3936333" timestamp="2019-01-03T18:24:20Z" uid="3497659" user="NKA" version="1">
		<tag k="name" v="Gon" />
		<tag k="place" v="farm" />
		<tag k="ssr:stedsnr" v="486455" />
		<tag k="ssr:type" v="bruk" />
	</node>
	<node changeset="65998035" id="6181695359" lat="59.1728333" lon="10.4460083" timestamp="2019-01-03T18:24:20Z" uid="3497659" user="NKA" version="1">
		<tag k="name" v="Stranda" />
		<tag k="place" v="farm" />
		<tag k="ssr:stedsnr" v="365118" />
		<tag k="ssr:type" v="bruk" />
	</node>
	<node changeset="65998035" id="6181695360" lat="59.2362972" lon="10.4481833" timestamp="2019-01-03T18:24:20Z" uid="3497659" user="NKA" version="1">
		<tag k="name" v="Nordål" />
		<tag k="place" v="farm" />
		<tag k="ssr:stedsnr" v="817042" />
		<tag k="ssr:type" v="bruk" />
	</node>
	<node changeset="65998035" id="6181695361" lat="59.1237278" lon="10.4062528" timestamp="2019-01-03T18:24:20Z" uid="3497659" user="NKA" version="1">
		<tag k="alt_name" v="Nedre Haug" />
		<tag k="name" v="Haug" />
		<tag k="place" v="farm" />
		<tag k="ssr:stedsnr" v="851366" />
		<tag k="ssr:type" v="bruk" />
	</node>
	<node changeset="65998035" id="6181695362" lat="59.1798056" lon="10.3827917" timestamp="2019-01-03T18:24:20Z" uid="3497659" user="NKA" version="1">
		<tag k="name" v="Bjørndalen" />
		<tag k="place" v="farm" />
		<tag k="ssr:stedsnr" v="183065" />
		<tag k="ssr:type" v="bruk" />
	</node>
	<node changeset="65998035" id="6181695363" lat="59.147425" lon="10.4027" timestamp="2019-01-03T18:24:20Z" uid="3497659" user="NKA" version="1">
		<tag k="name" v="Skauen" />
		<tag k="place" v="farm" />
		<tag k="ssr:stedsnr" v="547423" />
		<tag k="ssr:type" v="bruk" />
	</node>
	<node changeset="65998035" id="6181695364" lat="59.1609806" lon="10.3943194" timestamp="2019-01-03T18:24:20Z" uid="3497659" user="NKA" version="1">
		<tag k="name" v="Mellemskauen" />
		<tag k="place" v="locality" />
		<tag k="ssr:stedsnr" v="267705" />
		<tag k="ssr:type" v="eiendom" />
	</node>
	<node changeset="65998035" id="6181695365" lat="59.121125" lon="10.4224805" timestamp="2019-01-03T18:24:20Z" uid="3497659" user="NKA" version="1">
		<tag k="name" v="Engøbrygga" />
		<tag k="place" v="isolated_dwelling" />
		<tag k="ssr:stedsnr" v="427412" />
		<tag k="ssr:type" v="eneboligMindreBoligbygg" />
	</node>
	<node changeset="65998035" id="6181695366" lat="59.1353389" lon="10.3821389" timestamp="2019-01-03T18:24:20Z" uid="3497659" user="NKA" version="1">
		<tag k="name" v="Svelvik" />
		<tag k="place" v="isolated_dwelling" />
		<tag k="ssr:stedsnr" v="487436" />
		<tag k="ssr:type" v="eneboligMindreBoligbygg" />
	</node>
	<node changeset="65998035" id="6181695367" lat="59.1755556" lon="10.4136222" timestamp="2019-01-03T18:24:20Z" uid="3497659" user="NKA" version="1">
		<tag k="name" v="Rønningen" />
		<tag k="place" v="farm" />
		<tag k="ssr:stedsnr" v="305106" />
		<tag k="ssr:type" v="bruk" />
	</node>
	<node changeset="65998035" id="6181695368" lat="59.2110722" lon="10.4225972" timestamp="2019-01-03T18:24:20Z" uid="3497659" user="NKA" version="1">
		<tag k="alt_name" v="Fykås;Føikås" />
		<tag k="name" v="Føykås" />
		<tag k="place" v="farm" />
		<tag k="ssr:stedsnr" v="87971" />
		<tag k="ssr:type" v="bruk" />
	</node>
	<node changeset="65998035" id="6181695369" lat="59.1110028" lon="10.4026083" timestamp="2019-01-03T18:24:21Z" uid="3497659" user="NKA" version="1">
		<tag k="alt_name" v="Pytt" />
		<tag k="name" v="Solvang" />
		<tag k="place" v="neighbourhood" />
		<tag k="ssr:stedsnr" v="486452" />
		<tag k="ssr:type" v="bruk" />
	</node>
	<node changeset="65998035" id="6181695370" lat="59.150025" lon="10.3913861" timestamp="2019-01-03T18:24:21Z" uid="3497659" user="NKA" version="1">
		<tag k="name" v="Gjervåg" />
		<tag k="place" v="hamlet" />
		<tag k="ssr:stedsnr" v="244403" />
		<tag k="ssr:type" v="bruk" />
	</node>
	<node changeset="65998035" id="6181695371" lat="59.0998139" lon="10.412525" timestamp="2019-01-03T18:24:21Z" uid="3497659" user="NKA" version="1">
		<tag k="name" v="Ødekjære" />
		<tag k="place" v="farm" />
		<tag k="ssr:stedsnr" v="668449" />
		<tag k="ssr:type" v="bruk" />
	</node>
	<node changeset="65998035" id="6181695372" lat="59.1108278" lon="10.3957778" timestamp="2019-01-03T18:24:21Z" uid="3497659" user="NKA" version="1">
		<tag k="name" v="Gon" />
		<tag k="place" v="isolated_dwelling" />
		<tag k="ssr:stedsnr" v="62432" />
		<tag k="ssr:type" v="eneboligMindreBoligbygg" />
	</node>
	<node changeset="65998035" id="6181695373" lat="59.0657167" lon="10.4319667" timestamp="2019-01-03T18:24:21Z" uid="3497659" user="NKA" version="1">
		<tag k="name" v="Sønstegard" />
		<tag k="place" v="isolated_dwelling" />
		<tag k="ssr:stedsnr" v="426446" />
		<tag k="ssr:type" v="fritidsbolig" />
	</node>
	<node changeset="65998035" id="6181695374" lat="59.20995" lon="10.3900944" timestamp="2019-01-03T18:24:21Z" uid="3497659" user="NKA" version="1">
		<tag k="name" v="Støyten" />
		<tag k="place" v="farm" />
		<tag k="ssr:stedsnr" v="487045" />
		<tag k="ssr:type" v="bruk" />
	</node>
	<node changeset="65998035" id="6181695375" lat="59.1884917" lon="10.3879583" timestamp="2019-01-03T18:24:21Z" uid="3497659" user="NKA" version="1">
		<tag k="name" v="Torbjørnrød" />
		<tag k="place" v="farm" />
		<tag k="ssr:stedsnr" v="870051" />
		<tag k="ssr:type" v="bruk" />
	</node>
	<node changeset="65998035" id="6181695376" lat="59.1357306" lon="10.3926222" timestamp="2019-01-03T18:24:21Z" uid="3497659" user="NKA" version="1">
		<tag k="name" v="Sandbekk" />
		<tag k="place" v="farm" />
		<tag k="ssr:stedsnr" v="184411" />
		<tag k="ssr:type" v="bruk" />
	</node>
	<node changeset="65998035" id="6181695377" lat="59.2281444" lon="10.4170111" timestamp="2019-01-03T18:24:21Z" uid="3497659" user="NKA" version="1">
		<tag k="name" v="Gipø nordre" />
		<tag k="place" v="farm" />
		<tag k="ssr:stedsnr" v="571993" />
		<tag k="ssr:type" v="bruk" />
	</node>
	<node changeset="65998035" id="6181695378" lat="59.1450556" lon="10.3650305" timestamp="2019-01-03T18:24:21Z" uid="3497659" user="NKA" version="1">
		<tag k="name" v="Oslebakke" />
		<tag k="place" v="isolated_dwelling" />
		<tag k="ssr:stedsnr" v="207291" />
		<tag k="ssr:type" v="eneboligMindreBoligbygg" />
	</node>
	<node changeset="65998035" id="6181695379" lat="59.0783278" lon="10.4430111" timestamp="2019-01-03T18:24:21Z" uid="3497659" user="NKA" version="1">
		<tag k="name" v="Hertås" />
		<tag k="place" v="farm" />
		<tag k="ssr:stedsnr" v="450984" />
		<tag k="ssr:type" v="bruk" />
	</node>
	<node changeset="65998035" id="6181695330" lat="59.0760224" lon="10.4406295" timestamp="2019-01-03T18:24:18Z" uid="3497659" user="NKA" version="1">
		<tag k="amenity" v="kindergarten" />
		<tag k="name" v="Hvasser barnehage" />
		<tag k="old_name" v="Hvasser skole" />
		<tag k="ssr:stedsnr" v="86385" />
		<tag k="ssr:type" v="skole" />
	</node>
	<node changeset="65998035" id="6181695381" lat="59.1217917" lon="10.3963861" timestamp="2019-01-03T18:24:21Z" uid="3497659" user="NKA" version="1">
		<tag k="name" v="Øvre Haug" />
		<tag k="place" v="farm" />
		<tag k="ssr:stedsnr" v="753182" />
		<tag k="ssr:type" v="bruk" />
	</node>
	<node changeset="65998035" id="6181695382" lat="59.0626667" lon="10.4035139" timestamp="2019-01-03T18:24:21Z" uid="3497659" user="NKA" version="1">
		<tag k="name" v="Helgerød" />
		<tag k="place" v="hamlet" />
		<tag k="ssr:stedsnr" v="1470" />
		<tag k="ssr:type" v="fritidsbolig" />
	</node>
	<node changeset="65998035" id="6181695383" lat="59.2177917" lon="10.4452028" timestamp="2019-01-03T18:24:22Z" uid="3497659" user="NKA" version="1">
		<tag k="name" v="Nes nordre" />
		<tag k="place" v="farm" />
		<tag k="ssr:stedsnr" v="389988" />
		<tag k="ssr:type" v="bruk" />
	</node>
	<node changeset="65998035" id="5424474008" lat="59.179001" lon="10.4411183" timestamp="2019-01-03T18:24:24Z" uid="3497659" user="NKA" version="2">
		<tag k="name" v="Torød" />
		<tag k="place" v="village" />
		<tag k="ssr:stedsnr" v="388941" />
		<tag k="ssr:type" v="bygdelagBygd" />
	</node>
	<node changeset="65998035" id="5424474009" lat="59.2199499" lon="10.4539753" timestamp="2019-01-03T18:24:24Z" uid="3497659" user="NKA" version="3">
		<tag k="name" v="Nesbrygga" />
		<tag k="place" v="suburb" />
		<tag k="ssr:stedsnr" v="183038" />
		<tag k="ssr:type" v="tettsted" />
	</node>
	<node changeset="65998035" id="5424474010" lat="59.2050176" lon="10.4428955" timestamp="2019-01-03T18:24:24Z" uid="3497659" user="NKA" version="2">
		<tag k="name" v="Skallestad" />
		<tag k="place" v="suburb" />
		<tag k="ssr:stedsnr" v="62055" />
		<tag k="ssr:type" v="bruk" />
	</node>
	<node changeset="65998035" id="5424474011" lat="59.1752715" lon="10.3658673" timestamp="2019-01-03T18:24:24Z" uid="3497659" user="NKA" version="2">
		<tag k="alt_name" v="Tennvik" />
		<tag k="name" v="Tenvik" />
		<tag k="place" v="hamlet" />
		<tag k="ssr:stedsnr" v="305101" />
		<tag k="ssr:type" v="grend" />
	</node>
	<node changeset="65998035" id="5424474012" lat="59.172537" lon="10.4092895" timestamp="2019-01-03T18:24:24Z" uid="3497659" user="NKA" version="3">
		<tag k="name" v="Strengsdal" />
		<tag k="place" v="hamlet" />
		<tag k="ssr:stedsnr" v="305107" />
		<tag k="ssr:type" v="bruk" />
	</node>
	<node changeset="65998035" id="5424474013" lat="59.1675093" lon="10.4274038" timestamp="2019-01-03T18:24:24Z" uid="3497659" user="NKA" version="3">
		<tag k="name" v="Movik" />
		<tag k="place" v="quarter" />
		<tag k="ssr:stedsnr" v="912120" />
		<tag k="ssr:type" v="eneboligMindreBoligbygg" />
	</node>
	<node changeset="66579344" id="5424474014" lat="59.1149169" lon="10.3916872" timestamp="2019-01-23T19:04:29Z" uid="3497659" user="NKA" version="3">
		<tag k="alt_name" v="Tjøme" />
		<tag k="name" v="Kirkebygda" />
		<tag k="place" v="village" />
		<tag k="ssr:stedsnr" v="875498" />
		<tag k="ssr:type" v="tettsted" />
	</node>
	<node changeset="65998035" id="5424474017" lat="59.1359608" lon="10.4059139" timestamp="2019-01-03T18:24:24Z" uid="3497659" user="NKA" version="2">
		<tag k="name" v="Grimestad" />
		<tag k="place" v="quarter" />
		<tag k="ssr:stedsnr" v="305424" />
		<tag k="ssr:type" v="eneboligMindreBoligbygg" />
	</node>
	<node changeset="65998035" id="5424474018" lat="59.1088118" lon="10.4161694" timestamp="2019-01-03T18:24:24Z" uid="3497659" user="NKA" version="2">
		<tag k="name" v="Ormelet" />
		<tag k="place" v="quarter" />
		<tag k="ssr:stedsnr" v="547459" />
		<tag k="ssr:type" v="tettbebyggelse" />
	</node>
	<node changeset="65998035" id="462097811" lat="59.2262739" lon="10.407459" timestamp="2019-01-03T18:24:23Z" uid="3497659" user="NKA" version="5">
		<tag k="name" v="Borgheim" />
		<tag k="name:en" v="Borgheim" />
		<tag k="name:es" v="Borgheim" />
		<tag k="name:nn" v="Borgheim" />
		<tag k="place" v="suburb" />
		<tag k="ssr:stedsnr" v="512325" />
		<tag k="ssr:type" v="tettbebyggelse" />
		<tag k="wikipedia" v="es:Borgheim" />
		<tag k="wikipedia_1" v="en:Borgheim" />
	</node>
	<node changeset="65998035" id="6178144185" lat="59.198499" lon="10.4378271" timestamp="2019-01-03T18:24:25Z" uid="3497659" user="NKA" version="2">
		<tag k="name" v="Oserød" />
		<tag k="place" v="neighbourhood" />
		<tag k="ssr:stedsnr" v="244079" />
		<tag k="ssr:type" v="bruk" />
	</node>
	<node changeset="65998035" id="6181695049" lat="59.1995625" lon="10.4128506" timestamp="2019-01-03T18:24:12Z" uid="3497659" user="NKA" version="1">
		<tag k="name" v="Anildrød" />
		<tag k="place" v="farm" />
		<tag k="ssr:stedsnr" v="305044" />
		<tag k="ssr:type" v="bruk" />
	</node>
	<node changeset="38837736" id="4144775012" lat="59.1739362" lon="10.4746881" timestamp="2016-04-24T16:42:17Z" uid="1741239" user="freewaretips" version="1" />
	<node changeset="65998035" id="6178144186" lat="59.1996582" lon="10.4427731" timestamp="2019-01-03T18:24:25Z" uid="3497659" user="NKA" version="2">
		<tag k="name" v="Hårkollen" />
		<tag k="place" v="village" />
		<tag k="ssr:stedsnr" v="202993" />
		<tag k="ssr:type" v="tettsted" />
	</node>
	<node changeset="38837736" id="4144775015" lat="59.1739362" lon="10.4762118" timestamp="2016-04-24T16:42:17Z" uid="1741239" user="freewaretips" version="1" />
	<node changeset="65998035" id="462097864" lat="59.235385" lon="10.3862052" timestamp="2019-01-03T18:24:23Z" uid="3497659" user="NKA" version="2">
		<tag k="name" v="Tørkopp" />
		<tag k="place" v="quarter" />
		<tag k="ssr:stedsnr" v="487003" />
		<tag k="ssr:type" v="bruk" />
	</node>
	<node changeset="65998035" id="6181695337" lat="59.196225" lon="10.4591806" timestamp="2019-01-03T18:24:18Z" uid="3497659" user="NKA" version="1">
		<tag k="name" v="Sparrønningen" />
		<tag k="place" v="isolated_dwelling" />
		<tag k="ssr:stedsnr" v="244081" />
		<tag k="ssr:type" v="eneboligMindreBoligbygg" />
	</node>
	<node changeset="38837736" id="4144775013" lat="59.1736443" lon="10.4744775" timestamp="2016-04-24T16:42:17Z" uid="1741239" user="freewaretips" version="1" />
	<node changeset="65998035" id="6181695384" lat="59.1513472" lon="10.3873472" timestamp="2019-01-03T18:24:22Z" uid="3497659" user="NKA" version="1">
		<tag k="name" v="Bukkeli" />
		<tag k="place" v="farm" />
		<tag k="ssr:stedsnr" v="608407" />
		<tag k="ssr:type" v="bruk" />
	</node>
	<node changeset="65998035" id="6181695313" lat="59.153525" lon="10.4054806" timestamp="2019-01-03T18:24:17Z" uid="3497659" user="NKA" version="1">
		<tag k="name" v="Lufta" />
		<tag k="place" v="isolated_dwelling" />
		<tag k="ssr:stedsnr" v="328646" />
		<tag k="ssr:type" v="fritidsbolig" />
	</node>
	<node changeset="38837736" id="4144775009" lat="59.1756488" lon="10.4739733" timestamp="2016-04-24T16:42:17Z" uid="1741239" user="freewaretips" version="1" />
	<node changeset="65998035" id="6181694956" lat="59.1634056" lon="10.3525389" timestamp="2019-01-03T18:24:06Z" uid="3497659" user="NKA" version="1">
		<tag k="name" v="Alby" />
		<tag k="place" v="farm" />
		<tag k="ssr:stedsnr" v="365112" />
		<tag k="ssr:type" v="bruk" />
	</node>
	<node changeset="65998035" id="6181694957" lat="59.1573639" lon="10.3767389" timestamp="2019-01-03T18:24:06Z" uid="3497659" user="NKA" version="1">
		<tag k="name" v="Saltbu" />
		<tag k="place" v="farm" />
		<tag k="ssr:stedsnr" v="786922" />
		<tag k="ssr:type" v="bruk" />
	</node>
	<node changeset="65998035" id="6181694958" lat="59.1656083" lon="10.3923361" timestamp="2019-01-03T18:24:06Z" uid="3497659" user="NKA" version="1">
		<tag k="name" v="Sundene" />
		<tag k="place" v="isolated_dwelling" />
		<tag k="ssr:stedsnr" v="608112" />
		<tag k="ssr:type" v="eneboligMindreBoligbygg" />
	</node>
	<node changeset="65998035" id="6181694959" lat="59.2320028" lon="10.4333861" timestamp="2019-01-03T18:24:06Z" uid="3497659" user="NKA" version="1">
		<tag k="alt_name" v="Eiknes" />
		<tag k="name" v="Ekenes" />
		<tag k="place" v="farm" />
		<tag k="ssr:stedsnr" v="244026" />
		<tag k="ssr:type" v="bruk" />
	</node>
	<node changeset="65998035" id="6181694960" lat="59.1518472" lon="10.4089944" timestamp="2019-01-03T18:24:06Z" uid="3497659" user="NKA" version="1">
		<tag k="name" v="Fredheim" />
		<tag k="place" v="isolated_dwelling" />
		<tag k="ssr:stedsnr" v="510678" />
		<tag k="ssr:type" v="eneboligMindreBoligbygg" />
	</node>
	<node changeset="65998035" id="6181694962" lat="59.1613056" lon="10.3905694" timestamp="2019-01-03T18:24:06Z" uid="3497659" user="NKA" version="1">
		<tag k="name" v="Lund" />
		<tag k="place" v="isolated_dwelling" />
		<tag k="ssr:stedsnr" v="328651" />
		<tag k="ssr:type" v="fritidsbolig" />
	</node>
	<node changeset="65998035" id="6181694963" lat="59.1872528" lon="10.3955389" timestamp="2019-01-03T18:24:07Z" uid="3497659" user="NKA" version="1">
		<tag k="name" v="Skauen" />
		<tag k="place" v="farm" />
		<tag k="ssr:stedsnr" v="123102" />
		<tag k="ssr:type" v="bruk" />
	</node>
	<node changeset="65998035" id="6181694964" lat="59.0780023" lon="10.405691" timestamp="2019-01-03T18:24:07Z" uid="3497659" user="NKA" version="1">
		<tag k="name" v="Tjøme radio" />
		<tag k="place" v="locality" />
		<tag k="ssr:stedsnr" v="365466" />
		<tag k="ssr:type" v="fabrikk" />
	</node>
	<node changeset="65998035" id="6181694965" lat="59.0751389" lon="10.404375" timestamp="2019-01-03T18:24:07Z" uid="3497659" user="NKA" version="1">
		<tag k="name" v="Bjørnevåg" />
		<tag k="place" v="isolated_dwelling" />
		<tag k="ssr:stedsnr" v="486470" />
		<tag k="ssr:type" v="eneboligMindreBoligbygg" />
	</node>
	<node changeset="65998035" id="6181694966" lat="59.0750611" lon="10.4529889" timestamp="2019-01-03T18:24:07Z" uid="3497659" user="NKA" version="1">
		<tag k="name" v="Fyn" />
		<tag k="place" v="isolated_dwelling" />
		<tag k="ssr:stedsnr" v="790464" />
		<tag k="ssr:type" v="eneboligMindreBoligbygg" />
	</node>
	<node changeset="65998035" id="6181694967" lat="59.2249111" lon="10.3958528" timestamp="2019-01-03T18:24:07Z" uid="3497659" user="NKA" version="1">
		<tag k="name" v="Sande" />
		<tag k="place" v="farm" />
		<tag k="ssr:stedsnr" v="365015" />
		<tag k="ssr:type" v="bruk" />
	</node>
	<node changeset="65998035" id="6181694968" lat="59.1680028" lon="10.4363056" timestamp="2019-01-03T18:24:07Z" uid="3497659" user="NKA" version="1">
		<tag k="name" v="Brevik" />
		<tag k="place" v="farm" />
		<tag k="ssr:stedsnr" v="1132" />
		<tag k="ssr:type" v="bruk" />
	</node>
	<node changeset="65998035" id="6181694969" lat="59.1859306" lon="10.4297583" timestamp="2019-01-03T18:24:07Z" uid="3497659" user="NKA" version="1">
		<tag k="name" v="Buberg" />
		<tag k="place" v="farm" />
		<tag k="ssr:stedsnr" v="123103" />
		<tag k="ssr:type" v="bruk" />
	</node>
	<node changeset="65998035" id="6181694970" lat="59.0888889" lon="10.424975" timestamp="2019-01-03T18:24:07Z" uid="3497659" user="NKA" version="1">
		<tag k="name" v="Haugfjell" />
		<tag k="place" v="farm" />
		<tag k="ssr:stedsnr" v="814988" />
		<tag k="ssr:type" v="bruk" />
	</node>
	<node changeset="65998035" id="6181694971" lat="59.0720861" lon="10.4427111" timestamp="2019-01-03T18:24:07Z" uid="3497659" user="NKA" version="1">
		<tag k="name" v="Lia" />
		<tag k="place" v="farm" />
		<tag k="ssr:stedsnr" v="365470" />
		<tag k="ssr:type" v="bruk" />
	</node>
	<node changeset="65998035" id="6181694972" lat="59.176825" lon="10.4464444" timestamp="2019-01-03T18:24:07Z" uid="3497659" user="NKA" version="1">
		<tag k="name" v="Middelborg" />
		<tag k="place" v="quarter" />
		<tag k="ssr:stedsnr" v="878975" />
		<tag k="ssr:type" v="tettsted" />
	</node>
	<node changeset="65998035" id="6181694973" lat="59.1888278" lon="10.4173528" timestamp="2019-01-03T18:24:07Z" uid="3497659" user="NKA" version="1">
		<tag k="name" v="Krokgrinda" />
		<tag k="place" v="farm" />
		<tag k="ssr:stedsnr" v="547079" />
		<tag k="ssr:type" v="bruk" />
	</node>
	<node changeset="65998035" id="6181694974" lat="59.1931611" lon="10.4634639" timestamp="2019-01-03T18:24:07Z" uid="3497659" user="NKA" version="1">
		<tag k="name" v="Bukta" />
		<tag k="place" v="isolated_dwelling" />
		<tag k="ssr:stedsnr" v="305060" />
		<tag k="ssr:type" v="eneboligMindreBoligbygg" />
	</node>
	<node changeset="65998035" id="6181694975" lat="59.1507861" lon="10.3544722" timestamp="2019-01-03T18:24:07Z" uid="3497659" user="NKA" version="1">
		<tag k="name" v="Gråten" />
		<tag k="place" v="locality" />
		<tag k="ssr:stedsnr" v="935241" />
		<tag k="ssr:type" v="eiendom" />
	</node>
	<way changeset="65998035" id="4155427" timestamp="2019-01-03T18:24:25Z" uid="3497659" user="NKA" version="6">
		<tag k="name" v="Vassholmen" />
		<tag k="natural" v="coastline" />
		<tag k="place" v="islet" />
		<tag k="source" v="PGS(could be inacurately)" />
		<tag k="ssr:stedsnr" v="343380" />
		<tag k="ssr:type" v="bruk" />
		<nd ref="23626944" />
		<nd ref="23626941" />
		<nd ref="23626939" />
		<nd ref="4144775009" />
		<nd ref="4144775010" />
		<nd ref="4144775011" />
		<nd ref="23626936" />
		<nd ref="23626934" />
		<nd ref="23626932" />
		<nd ref="4144775018" />
		<nd ref="4144775019" />
		<nd ref="4144775013" />
		<nd ref="4144775012" />
		<nd ref="23626963" />
		<nd ref="4144775016" />
		<nd ref="4144775017" />
		<nd ref="4144775014" />
		<nd ref="4144775015" />
		<nd ref="23626961" />
		<nd ref="23626958" />
		<nd ref="23626955" />
		<nd ref="23626953" />
		<nd ref="23626951" />
		<nd ref="23626948" />
		<nd ref="23626946" />
		<nd ref="4144775008" />
		<nd ref="23626944" />
	</way>
</osm>
