<?xml version="1.0" encoding="UTF-8"?>
<osm generator="osmapis" version="0.6">
	<node id="-63487" lat="60.7948423261" lon="4.70246938416">
		<tag k="alt_name" v="Grisholmsund" />
		<tag k="name" v="Grisholmsund lykt" />
		<tag k="ssr:date" v="2020-09-08" />
		<tag k="ssr:gruppe" v="navigasjon" />
		<tag k="ssr:hovedgruppe" v="infrastruktur" />
		<tag k="ssr:stedsnr" v="310643" />
		<tag k="ssr:type" v="fyrlykt" />
	</node>
	<node id="-63486" lat="60.7912284765" lon="4.66907559187">
		<tag k="alt_name" v="Vestra Mågøy" />
		<tag k="name" v="Vestra Mågøy lykt" />
		<tag k="old_name" v="Mågøy" />
		<tag k="ssr:date" v="2020-09-08" />
		<tag k="ssr:gruppe" v="navigasjon" />
		<tag k="ssr:hovedgruppe" v="infrastruktur" />
		<tag k="ssr:stedsnr" v="310642" />
		<tag k="ssr:type" v="fyrlykt" />
	</node>
	<node id="-63293" lat="60.7882277741" lon="4.69493610826">
		<tag k="alt_name" v="Moldøyosen" />
		<tag k="name" v="Moldøyosen lykt" />
		<tag k="ssr:date" v="2019-12-27" />
		<tag k="ssr:gruppe" v="navigasjon" />
		<tag k="ssr:hovedgruppe" v="infrastruktur" />
		<tag k="ssr:stedsnr" v="236618" />
		<tag k="ssr:type" v="fyrlykt" />
	</node>
	<node id="-63482" lat="60.778736115" lon="4.7196833395">
		<tag k="alt_name" v="Fedje" />
		<tag k="name" v="Fedje kommune" />
		<tag k="ssr:date" v="2019-12-27" />
		<tag k="ssr:gruppe" v="administrativeIndelinger" />
		<tag k="ssr:hovedgruppe" v="offentligAdministrasjon" />
		<tag k="ssr:stedsnr" v="207068" />
		<tag k="ssr:type" v="kommune" />
	</node>
	<node id="-63503" lat="60.7521111102" lon="4.71067777757">
		<tag k="alt_name" v="Hellisøy" />
		<tag k="name" v="Hellisøy fyr" />
		<tag k="old_name" v="Hellesøy fyr" />
		<tag k="ssr:date" v="2019-12-27" />
		<tag k="ssr:gruppe" v="navigasjon" />
		<tag k="ssr:hovedgruppe" v="infrastruktur" />
		<tag k="ssr:stedsnr" v="371641" />
		<tag k="ssr:type" v="fyrstasjon" />
	</node>
	<node id="-63480" lat="60.7753944402" lon="4.74358055168">
		<tag k="alt_name" v="Fedje" />
		<tag k="name" v="Fedje lykt" />
		<tag k="ssr:date" v="2019-12-27" />
		<tag k="ssr:gruppe" v="navigasjon" />
		<tag k="ssr:hovedgruppe" v="infrastruktur" />
		<tag k="ssr:stedsnr" v="190019" />
		<tag k="ssr:type" v="fyrlykt" />
	</node>
	<node id="-63348" lat="60.8430305513" lon="4.64950277064">
		<tag k="alt_name" v="Holmengrå" />
		<tag k="name" v="Holmengrå fyr" />
		<tag k="ssr:date" v="2019-12-27" />
		<tag k="ssr:gruppe" v="navigasjon" />
		<tag k="ssr:hovedgruppe" v="infrastruktur" />
		<tag k="ssr:stedsnr" v="492735" />
		<tag k="ssr:type" v="fyrstasjon" />
	</node>
	<node id="-63600" lat="60.3866658713" lon="5.33255753121">
		<tag k="name" v="Vestland fylke" />
		<tag k="ssr:date" v="2020-01-13" />
		<tag k="ssr:gruppe" v="administrativeIndelinger" />
		<tag k="ssr:hovedgruppe" v="offentligAdministrasjon" />
		<tag k="ssr:stedsnr" v="1074408" />
		<tag k="ssr:type" v="fylke" />
	</node>
	<node id="-63599" lat="60.8204588941" lon="4.66277522751">
		<tag k="name" v="Burøyvarden" />
		<tag k="ssr:date" v="2019-12-27" />
		<tag k="ssr:gruppe" v="navigasjon" />
		<tag k="ssr:hovedgruppe" v="infrastruktur" />
		<tag k="ssr:stedsnr" v="1072135" />
		<tag k="ssr:type" v="sjøvarde" />
	</node>
	<node id="-63596" lat="60.7970392583" lon="4.70445284716">
		<tag k="name" v="Grisholmskjeret varde" />
		<tag k="ssr:date" v="2019-12-27" />
		<tag k="ssr:gruppe" v="navigasjon" />
		<tag k="ssr:hovedgruppe" v="infrastruktur" />
		<tag k="ssr:stedsnr" v="1072125" />
		<tag k="ssr:type" v="sjøvarde" />
	</node>
	<node id="-63305" lat="60.8662324451" lon="4.61911086246">
		<tag k="name" v="Bergskallen lysbøye" />
		<tag k="ssr:date" v="2019-12-27" />
		<tag k="ssr:gruppe" v="navigasjon" />
		<tag k="ssr:hovedgruppe" v="infrastruktur" />
		<tag k="ssr:stedsnr" v="116822" />
		<tag k="ssr:type" v="lysbøye" />
	</node>
	<node id="-63592" lat="60.7780475658" lon="4.68541197907">
		<tag k="name" v="Nordra Leieskjeret varde" />
		<tag k="ssr:date" v="2019-12-27" />
		<tag k="ssr:gruppe" v="navigasjon" />
		<tag k="ssr:hovedgruppe" v="infrastruktur" />
		<tag k="ssr:stedsnr" v="1072096" />
		<tag k="ssr:type" v="sjøvarde" />
	</node>
</osm>
