<?xml version="1.0" encoding="UTF-8"?>
<osm version="0.6" generator="osmapis">
	<node lat="60.82451111238884" lon="4.645413888597044" id="-73521">
		<tag k="name" v="Humreboen" />
		<tag k="natural" v="shoal" />
		<tag k="place" v="locality" />
		<tag k="ssr:date" v="2019-12-27" />
		<tag k="ssr:gruppe" v="grunnerISjø" />
		<tag k="ssr:hovedgruppe" v="sjø" />
		<tag k="ssr:stedsnr" v="238849" />
		<tag k="ssr:type" v="grunneISjø" />
	</node>
	<node lat="60.78987222673012" lon="4.680855562426141" id="-73529">
		<tag k="name" v="Nordre Lyngholmen" />
		<tag k="place" v="islet" />
		<tag k="ssr:date" v="2019-12-27" />
		<tag k="ssr:gruppe" v="kystkontur" />
		<tag k="ssr:hovedgruppe" v="sjø" />
		<tag k="ssr:stedsnr" v="98014" />
		<tag k="ssr:type" v="holmeISjø" />
	</node>
	<node lat="60.77971388612683" lon="4.708375008761397" id="-73530">
		<tag k="name" v="Smiholmen" />
		<tag k="place" v="islet" />
		<tag k="ssr:date" v="2019-12-27" />
		<tag k="ssr:gruppe" v="kystkontur" />
		<tag k="ssr:hovedgruppe" v="sjø" />
		<tag k="ssr:stedsnr" v="98022" />
		<tag k="ssr:type" v="holmeISjø" />
	</node>
	<node lat="60.76426537192495" lon="4.710355658499887" id="-73533">
		<tag k="name" v="Kroken" />
		<tag k="natural" v="water" />
		<tag k="ssr:date" v="2019-12-27" />
		<tag k="ssr:gruppe" v="stilleståendeVann" />
		<tag k="ssr:hovedgruppe" v="ferskvann" />
		<tag k="ssr:stedsnr" v="249640" />
		<tag k="ssr:type" v="tjern" />
	</node>
	<node lat="60.78533163086502" lon="4.7076560285884375" id="-73541">
		<tag k="name" v="Mulen" />
		<tag k="place" v="farm" />
		<tag k="ssr:date" v="2019-12-27" />
		<tag k="ssr:gruppe" v="gardsbebyggelse" />
		<tag k="ssr:hovedgruppe" v="bebyggelse" />
		<tag k="ssr:stedsnr" v="157003" />
		<tag k="ssr:type" v="bruk" />
	</node>
	<node lat="60.797505555985694" lon="4.700152781107" id="-73542">
		<tag k="fixme" v="consider seamark:type=rock or natural=shoal" />
		<tag k="name" v="Skjeret" />
		<tag k="place" v="islet" />
		<tag k="ssr:date" v="2019-12-27" />
		<tag k="ssr:gruppe" v="grunnerISjø" />
		<tag k="ssr:hovedgruppe" v="sjø" />
		<tag k="ssr:stedsnr" v="158103" />
		<tag k="ssr:type" v="skjærISjø" />
	</node>
	<node lat="60.75405277415588" lon="4.710725001061329" id="-73546">
		<tag k="name" v="Fyrsundet" />
		<tag k="natural" v="strait" />
		<tag k="ssr:date" v="2019-12-27" />
		<tag k="ssr:gruppe" v="kystkontur" />
		<tag k="ssr:hovedgruppe" v="sjø" />
		<tag k="ssr:stedsnr" v="189602" />
		<tag k="ssr:type" v="sundISjø" />
	</node>
	<node lat="60.77956666603537" lon="4.733058332750541" id="-73551">
		<tag k="name" v="Bratthammaren" />
		<tag k="natural" v="hill" />
		<tag k="place" v="locality" />
		<tag k="ssr:date" v="2019-12-27" />
		<tag k="ssr:gruppe" v="høyder" />
		<tag k="ssr:hovedgruppe" v="terreng" />
		<tag k="ssr:stedsnr" v="219113" />
		<tag k="ssr:type" v="berg" />
	</node>
	<node lat="60.79602500339069" lon="4.6761805533839285" id="-73552">
		<tag k="name" v="Mågøyklubben" />
		<tag k="natural" v="cape" />
		<tag k="ssr:date" v="2019-12-27" />
		<tag k="ssr:gruppe" v="kystkontur" />
		<tag k="ssr:hovedgruppe" v="sjø" />
		<tag k="ssr:stedsnr" v="219080" />
		<tag k="ssr:type" v="nesISjø" />
	</node>
	<node lat="60.77998333447402" lon="4.696630548394988" id="-73557">
		<tag k="man_made" v="tower" />
		<tag k="name" v="Fedje VTC" />
		<tag k="ssr:date" v="2019-12-27" />
		<tag k="ssr:gruppe" v="kommunikasjon" />
		<tag k="ssr:hovedgruppe" v="infrastruktur" />
		<tag k="ssr:stedsnr" v="238802" />
		<tag k="ssr:type" v="tV-Radio-EllerMobiltelefontårn" />
		<tag k="tower:type" v="communications" />
	</node>
	<node lat="60.77030555969088" lon="4.687436119602478" id="-73560">
		<tag k="fixme" v="consider seamark:type=rock or natural=shoal" />
		<tag k="name" v="Hella" />
		<tag k="place" v="islet" />
		<tag k="ssr:date" v="2019-12-27" />
		<tag k="ssr:gruppe" v="grunnerISjø" />
		<tag k="ssr:hovedgruppe" v="sjø" />
		<tag k="ssr:stedsnr" v="280018" />
		<tag k="ssr:type" v="skjærISjø" />
	</node>
	<node lat="60.77512499607331" lon="4.728852786631939" id="-73561">
		<tag k="bridge" v="yes" />
		<tag k="layer" v="1" />
		<tag k="name" v="Sildevågen" />
		<tag k="ssr:date" v="2019-12-27" />
		<tag k="ssr:gruppe" v="samferdselsanlegg" />
		<tag k="ssr:hovedgruppe" v="infrastruktur" />
		<tag k="ssr:stedsnr" v="290125" />
		<tag k="ssr:type" v="bru" />
	</node>
	<node lat="60.7679388896822" lon="4.683322230640099" id="-73562">
		<tag k="fixme" v="consider seamark:type=rock or natural=shoal" />
		<tag k="name" v="Islendingskjeret" />
		<tag k="place" v="islet" />
		<tag k="ssr:date" v="2019-12-27" />
		<tag k="ssr:gruppe" v="grunnerISjø" />
		<tag k="ssr:hovedgruppe" v="sjø" />
		<tag k="ssr:stedsnr" v="462027" />
		<tag k="ssr:type" v="skjærISjø" />
	</node>
	<node lat="60.75822352293275" lon="4.712114793011288" id="-73563">
		<tag k="name" v="Aurihopsvatna" />
		<tag k="natural" v="water" />
		<tag k="ssr:date" v="2020-02-27" />
		<tag k="ssr:gruppe" v="stilleståendeVann" />
		<tag k="ssr:hovedgruppe" v="ferskvann" />
		<tag k="ssr:stedsnr" v="462030" />
		<tag k="ssr:type" v="gruppeAvVann" />
		<tag k="water" v="lake" />
	</node>
	<node lat="60.82949444280614" lon="4.651033335949887" id="-73564">
		<tag k="name" v="Svartskjerflua" />
		<tag k="natural" v="shoal" />
		<tag k="place" v="locality" />
		<tag k="ssr:date" v="2019-12-27" />
		<tag k="ssr:gruppe" v="grunnerISjø" />
		<tag k="ssr:hovedgruppe" v="sjø" />
		<tag k="ssr:stedsnr" v="298803" />
		<tag k="ssr:type" v="grunneISjø" />
	</node>
	<node lat="60.75631291488735" lon="4.7260472830579845" id="-73567">
		<tag k="name" v="Sengsvatnet" />
		<tag k="natural" v="water" />
		<tag k="ssr:date" v="2020-02-27" />
		<tag k="ssr:gruppe" v="stilleståendeVann" />
		<tag k="ssr:hovedgruppe" v="ferskvann" />
		<tag k="ssr:stedsnr" v="340111" />
		<tag k="ssr:type" v="vann" />
		<tag k="water" v="lake" />
	</node>
	<node lat="60.76203333707017" lon="4.647577782493727" id="-73570">
		<tag k="name" v="Laggenakken" />
		<tag k="natural" v="shoal" />
		<tag k="place" v="locality" />
		<tag k="ssr:date" v="2019-12-27" />
		<tag k="ssr:gruppe" v="grunnerISjø" />
		<tag k="ssr:hovedgruppe" v="sjø" />
		<tag k="ssr:stedsnr" v="480796" />
		<tag k="ssr:type" v="grunneISjø" />
	</node>
	<node lat="60.75698003729153" lon="4.719982528856769" id="-73576">
		<tag k="name" v="Småsengsvatnet" />
		<tag k="natural" v="water" />
		<tag k="ssr:date" v="2020-02-27" />
		<tag k="ssr:gruppe" v="stilleståendeVann" />
		<tag k="ssr:hovedgruppe" v="ferskvann" />
		<tag k="ssr:stedsnr" v="401011" />
		<tag k="ssr:type" v="vann" />
		<tag k="water" v="lake" />
	</node>
	<node lat="60.79683888679652" lon="4.692808326946963" id="-73577">
		<tag k="name" v="Nordøysundet" />
		<tag k="natural" v="strait" />
		<tag k="ssr:date" v="2019-12-27" />
		<tag k="ssr:gruppe" v="kystkontur" />
		<tag k="ssr:hovedgruppe" v="sjø" />
		<tag k="ssr:stedsnr" v="401027" />
		<tag k="ssr:type" v="sundISjø" />
	</node>
	<node lat="60.77624166696006" lon="4.719480557155489" id="-73578">
		<tag k="name" v="Måsholmen" />
		<tag k="place" v="islet" />
		<tag k="ssr:date" v="2019-12-27" />
		<tag k="ssr:gruppe" v="ferskvannskontur" />
		<tag k="ssr:hovedgruppe" v="ferskvann" />
		<tag k="ssr:stedsnr" v="401076" />
		<tag k="ssr:type" v="holme" />
	</node>
	<node lat="60.79553888639551" lon="4.684713896828061" id="-73591">
		<tag k="name" v="Teistosen" />
		<tag k="natural" v="strait" />
		<tag k="ssr:date" v="2019-12-27" />
		<tag k="ssr:gruppe" v="kystkontur" />
		<tag k="ssr:hovedgruppe" v="sjø" />
		<tag k="ssr:stedsnr" v="462073" />
		<tag k="ssr:type" v="sundISjø" />
	</node>
	<node lat="60.76938610777597" lon="4.684336117408361" id="-73592">
		<tag k="fixme" v="consider seamark:type=rock or natural=shoal" />
		<tag k="name" v="Klumpen" />
		<tag k="place" v="islet" />
		<tag k="ssr:date" v="2019-12-27" />
		<tag k="ssr:gruppe" v="grunnerISjø" />
		<tag k="ssr:hovedgruppe" v="sjø" />
		<tag k="ssr:stedsnr" v="462081" />
		<tag k="ssr:type" v="skjærISjø" />
	</node>
	<node lat="60.86778055236835" lon="4.623774997885354" id="-73600">
		<tag k="name" v="Bergskallen" />
		<tag k="natural" v="shoal" />
		<tag k="place" v="locality" />
		<tag k="ssr:date" v="2019-12-27" />
		<tag k="ssr:gruppe" v="grunnerISjø" />
		<tag k="ssr:hovedgruppe" v="sjø" />
		<tag k="ssr:stedsnr" v="492719" />
		<tag k="ssr:type" v="grunneISjø" />
	</node>
	<node lat="60.78541111164353" lon="4.723091661856386" id="-73602">
		<tag k="name" v="Kisteneset" />
		<tag k="natural" v="cape" />
		<tag k="ssr:date" v="2019-12-27" />
		<tag k="ssr:gruppe" v="kystkontur" />
		<tag k="ssr:hovedgruppe" v="sjø" />
		<tag k="ssr:stedsnr" v="522103" />
		<tag k="ssr:type" v="nesISjø" />
	</node>
	<node lat="60.77970000157028" lon="4.706030559816932" id="-73605">
		<tag k="name" v="Pollen" />
		<tag k="natural" v="bay" />
		<tag k="ssr:date" v="2019-12-27" />
		<tag k="ssr:gruppe" v="kystkontur" />
		<tag k="ssr:hovedgruppe" v="sjø" />
		<tag k="ssr:stedsnr" v="541769" />
		<tag k="ssr:type" v="vågISjø" />
	</node>
	<node lat="60.76467499758412" lon="4.719361114928619" id="-73614">
		<tag k="name" v="Fagrevollen" />
		<tag k="place" v="locality" />
		<tag k="ssr:date" v="2019-12-27" />
		<tag k="ssr:gruppe" v="dyrkamark" />
		<tag k="ssr:hovedgruppe" v="markslag" />
		<tag k="ssr:stedsnr" v="583114" />
		<tag k="ssr:type" v="jorde" />
	</node>
	<node lat="60.77260144848334" lon="4.722599584697825" id="-73615">
		<tag k="name" v="Grønevasstjørna" />
		<tag k="natural" v="water" />
		<tag k="ssr:date" v="2019-12-27" />
		<tag k="ssr:gruppe" v="stilleståendeVann" />
		<tag k="ssr:hovedgruppe" v="ferskvann" />
		<tag k="ssr:stedsnr" v="583116" />
		<tag k="ssr:type" v="tjern" />
	</node>
	<node lat="60.79422777420673" lon="4.686916668992058" id="-73618">
		<tag k="alt_name" v="Flotten" />
		<tag k="name" v="Søre Flotten" />
		<tag k="place" v="islet" />
		<tag k="ssr:date" v="2019-12-27" />
		<tag k="ssr:gruppe" v="kystkontur" />
		<tag k="ssr:hovedgruppe" v="sjø" />
		<tag k="ssr:stedsnr" v="703075" />
		<tag k="ssr:type" v="holmeISjø" />
	</node>
	<node lat="60.7682502191118" lon="4.713072582646649" id="-73619">
		<tag k="name" v="Langevasskrokane" />
		<tag k="natural" v="water" />
		<tag k="ssr:date" v="2020-02-27" />
		<tag k="ssr:gruppe" v="stilleståendeVann" />
		<tag k="ssr:hovedgruppe" v="ferskvann" />
		<tag k="ssr:stedsnr" v="703001" />
		<tag k="ssr:type" v="gruppeAvVann" />
		<tag k="water" v="lake" />
	</node>
	<node lat="60.763668365346305" lon="4.728435899167561" id="-73620">
		<tag k="name" v="Tjørnane" />
		<tag k="natural" v="water" />
		<tag k="ssr:date" v="2020-06-23" />
		<tag k="ssr:gruppe" v="stilleståendeVann" />
		<tag k="ssr:hovedgruppe" v="ferskvann" />
		<tag k="ssr:stedsnr" v="704119" />
		<tag k="ssr:type" v="gruppeAvTjern" />
		<tag k="water" v="lake" />
	</node>
	<node lat="60.78658055811067" lon="4.706313895171114" id="-73621">
		<tag k="name" v="Kyrkjevågen" />
		<tag k="natural" v="bay" />
		<tag k="ssr:date" v="2019-12-27" />
		<tag k="ssr:gruppe" v="kystkontur" />
		<tag k="ssr:hovedgruppe" v="sjø" />
		<tag k="ssr:stedsnr" v="704013" />
		<tag k="ssr:type" v="vågISjø" />
	</node>
	<node lat="60.770719116527374" lon="4.737617795156428" id="-73623">
		<tag k="name" v="Rekkingedalstjørna" />
		<tag k="natural" v="water" />
		<tag k="ssr:date" v="2019-12-27" />
		<tag k="ssr:gruppe" v="stilleståendeVann" />
		<tag k="ssr:hovedgruppe" v="ferskvann" />
		<tag k="ssr:stedsnr" v="705081" />
		<tag k="ssr:type" v="tjern" />
	</node>
	<node lat="60.78242778130703" lon="4.690516669832239" id="-73624">
		<tag k="name" v="Karlsøysundet" />
		<tag k="natural" v="strait" />
		<tag k="ssr:date" v="2019-12-27" />
		<tag k="ssr:gruppe" v="kystkontur" />
		<tag k="ssr:hovedgruppe" v="sjø" />
		<tag k="ssr:stedsnr" v="642004" />
		<tag k="ssr:type" v="sundISjø" />
	</node>
	<node lat="60.87120555528389" lon="4.598702774124052" id="-73628">
		<tag k="name" v="Ytreskallen" />
		<tag k="natural" v="shoal" />
		<tag k="place" v="locality" />
		<tag k="ssr:date" v="2019-12-27" />
		<tag k="ssr:gruppe" v="grunnerISjø" />
		<tag k="ssr:hovedgruppe" v="sjø" />
		<tag k="ssr:stedsnr" v="675752" />
		<tag k="ssr:type" v="grunneISjø" />
	</node>
	<node lat="60.76204166583052" lon="4.718999991694254" id="-73634">
		<tag k="name" v="Hammarsvatnet" />
		<tag k="natural" v="water" />
		<tag k="ssr:date" v="2019-12-27" />
		<tag k="ssr:gruppe" v="stilleståendeVann" />
		<tag k="ssr:hovedgruppe" v="ferskvann" />
		<tag k="ssr:stedsnr" v="703009" />
		<tag k="ssr:type" v="vann" />
		<tag k="water" v="lake" />
	</node>
	<node lat="60.8409083377188" lon="4.629250005687458" id="-73635">
		<tag k="name" v="Ivarsnakken" />
		<tag k="natural" v="shoal" />
		<tag k="place" v="locality" />
		<tag k="ssr:date" v="2019-12-27" />
		<tag k="ssr:gruppe" v="grunnerISjø" />
		<tag k="ssr:hovedgruppe" v="sjø" />
		<tag k="ssr:stedsnr" v="723824" />
		<tag k="ssr:type" v="grunneISjø" />
	</node>
	<node lat="60.784822220878866" lon="4.691402781745456" id="-73638">
		<tag k="name" v="Skarvøyosen" />
		<tag k="natural" v="strait" />
		<tag k="ssr:date" v="2019-12-27" />
		<tag k="ssr:gruppe" v="kystkontur" />
		<tag k="ssr:hovedgruppe" v="sjø" />
		<tag k="ssr:stedsnr" v="735631" />
		<tag k="ssr:type" v="sundISjø" />
	</node>
	<node lat="60.87266388661379" lon="4.617463890308006" id="-73639">
		<tag k="name" v="Indreskallen" />
		<tag k="natural" v="shoal" />
		<tag k="place" v="locality" />
		<tag k="ssr:date" v="2019-12-27" />
		<tag k="ssr:gruppe" v="grunnerISjø" />
		<tag k="ssr:hovedgruppe" v="sjø" />
		<tag k="ssr:stedsnr" v="735724" />
		<tag k="ssr:type" v="grunneISjø" />
	</node>
	<node lat="60.78311944506358" lon="4.709763890128366" id="-73641">
		<tag k="name" v="Kremmarholmen" />
		<tag k="place" v="islet" />
		<tag k="ssr:date" v="2019-12-27" />
		<tag k="ssr:gruppe" v="kystkontur" />
		<tag k="ssr:hovedgruppe" v="sjø" />
		<tag k="ssr:stedsnr" v="768254" />
		<tag k="ssr:type" v="holmeISjø" />
	</node>
	<node lat="60.88091388667099" lon="4.6067916664100705" id="-73645">
		<tag k="name" v="Breidflua" />
		<tag k="natural" v="shoal" />
		<tag k="place" v="locality" />
		<tag k="ssr:date" v="2021-06-08" />
		<tag k="ssr:gruppe" v="grunnerISjø" />
		<tag k="ssr:hovedgruppe" v="sjø" />
		<tag k="ssr:stedsnr" v="917665" />
		<tag k="ssr:type" v="grunneISjø" />
	</node>
	<node lat="60.79613610714174" lon="4.687799995590629" id="-73652">
		<tag k="name" v="Nordre Flotten" />
		<tag k="place" v="islet" />
		<tag k="ssr:date" v="2019-12-27" />
		<tag k="ssr:gruppe" v="kystkontur" />
		<tag k="ssr:hovedgruppe" v="sjø" />
		<tag k="ssr:stedsnr" v="826123" />
		<tag k="ssr:type" v="holmeISjø" />
	</node>
	<node lat="60.80157222488986" lon="4.657016671188036" id="-73654">
		<tag k="name" v="Kloveflua" />
		<tag k="natural" v="shoal" />
		<tag k="place" v="locality" />
		<tag k="ssr:date" v="2019-12-27" />
		<tag k="ssr:gruppe" v="grunnerISjø" />
		<tag k="ssr:hovedgruppe" v="sjø" />
		<tag k="ssr:stedsnr" v="845891" />
		<tag k="ssr:type" v="grunneISjø" />
	</node>
	<node lat="60.781475001972176" lon="4.714705563716069" id="-73655">
		<tag k="alt_name" v="Fedje" />
		<tag k="amenity" v="place_of_worship" />
		<tag k="denomination" v="lutheran" />
		<tag k="name" v="Fedje kyrkje" />
		<tag k="religion" v="christian" />
		<tag k="ssr:date" v="2019-12-27" />
		<tag k="ssr:gruppe" v="kulturinstitusjoner" />
		<tag k="ssr:hovedgruppe" v="kultur" />
		<tag k="ssr:stedsnr" v="857641" />
		<tag k="ssr:type" v="kirke" />
	</node>
	<node lat="60.76819965836383" lon="4.720096028676807" id="-73660">
		<tag k="name" v="Storevasstjørna" />
		<tag k="natural" v="water" />
		<tag k="ssr:date" v="2019-12-27" />
		<tag k="ssr:gruppe" v="stilleståendeVann" />
		<tag k="ssr:hovedgruppe" v="ferskvann" />
		<tag k="ssr:stedsnr" v="886006" />
		<tag k="ssr:type" v="tjern" />
	</node>
	<node lat="60.78740000076432" lon="4.6865111095092935" id="-73661">
		<tag k="name" v="Lyngholmosen" />
		<tag k="natural" v="strait" />
		<tag k="ssr:date" v="2019-12-27" />
		<tag k="ssr:gruppe" v="kystkontur" />
		<tag k="ssr:hovedgruppe" v="sjø" />
		<tag k="ssr:stedsnr" v="887105" />
		<tag k="ssr:type" v="sundISjø" />
	</node>
	<node lat="60.77465000124322" lon="4.715438888421088" id="-73663">
		<tag k="name" v="Husavatnet" />
		<tag k="natural" v="water" />
		<tag k="ssr:date" v="2019-12-27" />
		<tag k="ssr:gruppe" v="stilleståendeVann" />
		<tag k="ssr:hovedgruppe" v="ferskvann" />
		<tag k="ssr:stedsnr" v="917617" />
		<tag k="ssr:type" v="vann" />
		<tag k="water" v="lake" />
	</node>
	<node lat="60.795463887696776" lon="4.671572220094506" id="-73669">
		<tag k="fixme" v="consider seamark:type=rock or natural=shoal" />
		<tag k="name" v="Gudmundskjeret" />
		<tag k="place" v="islet" />
		<tag k="ssr:date" v="2019-12-27" />
		<tag k="ssr:gruppe" v="grunnerISjø" />
		<tag k="ssr:hovedgruppe" v="sjø" />
		<tag k="ssr:stedsnr" v="947083" />
		<tag k="ssr:type" v="skjærISjø" />
	</node>
	<node lat="60.7822556918184" lon="4.714346887207225" id="-73670">
		<tag k="amenity" v="ferry_terminal" />
		<tag k="name" v="Fedje ferjekai" />
		<tag k="ssr:date" v="2019-12-27" />
		<tag k="ssr:gruppe" v="sjøfart" />
		<tag k="ssr:hovedgruppe" v="infrastruktur" />
		<tag k="ssr:stedsnr" v="978595" />
		<tag k="ssr:type" v="ferjekai" />
	</node>
	<node lat="60.78068707860104" lon="4.716525306001351" id="-73671">
		<tag k="fixme" v="consider place=hamlet" />
		<tag k="name" v="Fedje" />
		<tag k="place" v="farm" />
		<tag k="ssr:date" v="2019-12-27" />
		<tag k="ssr:gruppe" v="gardsbebyggelse" />
		<tag k="ssr:hovedgruppe" v="bebyggelse" />
		<tag k="ssr:stedsnr" v="989217" />
		<tag k="ssr:type" v="gard" />
	</node>
	<node lat="60.78775277789022" lon="4.68408333384052" id="-73676">
		<tag k="name" v="Søre Lyngholmen" />
		<tag k="place" v="islet" />
		<tag k="ssr:date" v="2019-12-27" />
		<tag k="ssr:gruppe" v="kystkontur" />
		<tag k="ssr:hovedgruppe" v="sjø" />
		<tag k="ssr:stedsnr" v="37124" />
		<tag k="ssr:type" v="holmeISjø" />
	</node>
	<node lat="60.774074998974285" lon="4.698308339175431" id="-73677">
		<tag k="fixme" v="consider seamark:type=rock or natural=shoal" />
		<tag k="name" v="Otresteinen" />
		<tag k="place" v="islet" />
		<tag k="ssr:date" v="2019-12-27" />
		<tag k="ssr:gruppe" v="grunnerISjø" />
		<tag k="ssr:hovedgruppe" v="sjø" />
		<tag k="ssr:stedsnr" v="37131" />
		<tag k="ssr:type" v="skjærISjø" />
	</node>
	<node lat="60.78631389119721" lon="4.679991660156087" id="-73678">
		<tag k="name" v="Flatholmen" />
		<tag k="place" v="islet" />
		<tag k="ssr:date" v="2019-12-27" />
		<tag k="ssr:gruppe" v="kystkontur" />
		<tag k="ssr:hovedgruppe" v="sjø" />
		<tag k="ssr:stedsnr" v="37141" />
		<tag k="ssr:type" v="holmeISjø" />
	</node>
	<node lat="60.76083055461057" lon="4.743669436175304" id="-73680">
		<tag k="name" v="Langøyna" />
		<tag k="place" v="island" />
		<tag k="ssr:date" v="2019-12-27" />
		<tag k="ssr:gruppe" v="kystkontur" />
		<tag k="ssr:hovedgruppe" v="sjø" />
		<tag k="ssr:stedsnr" v="37152" />
		<tag k="ssr:type" v="øyISjø" />
	</node>
	<node lat="60.7681888873999" lon="4.649647213686787" id="-73681">
		<tag k="name" v="Pershammaren" />
		<tag k="natural" v="shoal" />
		<tag k="place" v="locality" />
		<tag k="ssr:date" v="2019-12-27" />
		<tag k="ssr:gruppe" v="grunnerISjø" />
		<tag k="ssr:hovedgruppe" v="sjø" />
		<tag k="ssr:stedsnr" v="56798" />
		<tag k="ssr:type" v="grunneISjø" />
	</node>
	<node lat="60.84398611024907" lon="4.6532055538118975" id="-73682">
		<tag k="name" v="Spaken" />
		<tag k="natural" v="shoal" />
		<tag k="place" v="locality" />
		<tag k="ssr:date" v="2019-12-27" />
		<tag k="ssr:gruppe" v="grunnerISjø" />
		<tag k="ssr:hovedgruppe" v="sjø" />
		<tag k="ssr:stedsnr" v="56835" />
		<tag k="ssr:type" v="grunneISjø" />
	</node>
	<node lat="60.76883454821223" lon="4.710293532759164" id="-73683">
		<tag k="name" v="Langevatnet" />
		<tag k="natural" v="water" />
		<tag k="ssr:date" v="2019-12-27" />
		<tag k="ssr:gruppe" v="stilleståendeVann" />
		<tag k="ssr:hovedgruppe" v="ferskvann" />
		<tag k="ssr:stedsnr" v="68656" />
		<tag k="ssr:type" v="tjern" />
	</node>
	<node lat="60.778897224484986" lon="4.714891657986114" id="-73687">
		<tag k="name" v="Fedje" />
		<tag k="place" v="village" />
		<tag k="ssr:date" v="2019-12-27" />
		<tag k="ssr:gruppe" v="bebyggelsesområder" />
		<tag k="ssr:hovedgruppe" v="bebyggelse" />
		<tag k="ssr:stedsnr" v="85061" />
		<tag k="ssr:type" v="tettsted" />
	</node>
	<node lat="60.77184166407112" lon="4.715174999390835" id="-73690">
		<tag k="name" v="Kvernhusdalen" />
		<tag k="natural" v="valley" />
		<tag k="place" v="locality" />
		<tag k="ssr:date" v="2019-12-27" />
		<tag k="ssr:gruppe" v="senkninger" />
		<tag k="ssr:hovedgruppe" v="terreng" />
		<tag k="ssr:stedsnr" v="97082" />
		<tag k="ssr:type" v="dal" />
	</node>
	<node lat="60.831230555437415" lon="4.635288893152642" id="-73691">
		<tag k="fixme" v="consider seamark:type=rock or natural=shoal" />
		<tag k="name" v="Vestskjer" />
		<tag k="place" v="islet" />
		<tag k="ssr:date" v="2019-12-27" />
		<tag k="ssr:gruppe" v="grunnerISjø" />
		<tag k="ssr:hovedgruppe" v="sjø" />
		<tag k="ssr:stedsnr" v="116846" />
		<tag k="ssr:type" v="skjærISjø" />
	</node>
	<node lat="60.77083888617359" lon="4.695561110706537" id="-73700">
		<tag k="name" v="Sengsbukta" />
		<tag k="natural" v="bay" />
		<tag k="ssr:date" v="2019-12-27" />
		<tag k="ssr:gruppe" v="kystkontur" />
		<tag k="ssr:hovedgruppe" v="sjø" />
		<tag k="ssr:stedsnr" v="158134" />
		<tag k="ssr:type" v="vikISjø" />
	</node>
	<node lat="60.75474444598714" lon="4.7081388913928475" id="-73701">
		<tag k="name" v="Hammarsundsflua" />
		<tag k="place" v="locality" />
		<tag k="seamark:type" v="rock" />
		<tag k="ssr:date" v="2019-12-27" />
		<tag k="ssr:gruppe" v="grunnerISjø" />
		<tag k="ssr:hovedgruppe" v="sjø" />
		<tag k="ssr:stedsnr" v="177814" />
		<tag k="ssr:type" v="båeISjø" />
	</node>
	<node lat="60.78633055428669" lon="4.71873888498146" id="-73708">
		<tag k="name" v="Siglingeneset" />
		<tag k="natural" v="cape" />
		<tag k="ssr:date" v="2019-12-27" />
		<tag k="ssr:gruppe" v="kystkontur" />
		<tag k="ssr:hovedgruppe" v="sjø" />
		<tag k="ssr:stedsnr" v="218069" />
		<tag k="ssr:type" v="nesISjø" />
	</node>
	<node lat="60.76066388977648" lon="4.717138882207129" id="-73709">
		<tag k="name" v="Alterhaugen" />
		<tag k="natural" v="hill" />
		<tag k="place" v="locality" />
		<tag k="ssr:date" v="2019-12-27" />
		<tag k="ssr:gruppe" v="høyder" />
		<tag k="ssr:hovedgruppe" v="terreng" />
		<tag k="ssr:stedsnr" v="218070" />
		<tag k="ssr:type" v="haug" />
	</node>
	<node lat="60.77861667086475" lon="4.709536117180894" id="-73711">
		<tag k="name" v="Husavågen" />
		<tag k="natural" v="bay" />
		<tag k="ssr:date" v="2019-12-27" />
		<tag k="ssr:gruppe" v="kystkontur" />
		<tag k="ssr:hovedgruppe" v="sjø" />
		<tag k="ssr:stedsnr" v="219021" />
		<tag k="ssr:type" v="vågISjø" />
	</node>
	<node lat="60.75496463535265" lon="4.717914943610871" id="-73712">
		<tag k="name" v="Sekkjedalstjørna" />
		<tag k="natural" v="water" />
		<tag k="ssr:date" v="2019-12-27" />
		<tag k="ssr:gruppe" v="stilleståendeVann" />
		<tag k="ssr:hovedgruppe" v="ferskvann" />
		<tag k="ssr:stedsnr" v="219032" />
		<tag k="ssr:type" v="tjern" />
	</node>
	<node lat="60.76246044264065" lon="4.7361286619980545" id="-73714">
		<tag k="name" v="Blåbærholmtjørna" />
		<tag k="natural" v="water" />
		<tag k="ssr:date" v="2019-12-27" />
		<tag k="ssr:gruppe" v="stilleståendeVann" />
		<tag k="ssr:hovedgruppe" v="ferskvann" />
		<tag k="ssr:stedsnr" v="219121" />
		<tag k="ssr:type" v="tjern" />
	</node>
	<node lat="60.84456388697441" lon="4.649663891123656" id="-73717">
		<tag k="fixme" v="consider seamark:type=rock or natural=shoal" />
		<tag k="name" v="Skotten" />
		<tag k="place" v="islet" />
		<tag k="ssr:date" v="2019-12-27" />
		<tag k="ssr:gruppe" v="grunnerISjø" />
		<tag k="ssr:hovedgruppe" v="sjø" />
		<tag k="ssr:stedsnr" v="298779" />
		<tag k="ssr:type" v="skjærISjø" />
	</node>
	<node lat="60.783730551196285" lon="4.705719441104761" id="-73727">
		<tag k="name" v="Dansevågen" />
		<tag k="natural" v="bay" />
		<tag k="ssr:date" v="2019-12-27" />
		<tag k="ssr:gruppe" v="kystkontur" />
		<tag k="ssr:hovedgruppe" v="sjø" />
		<tag k="ssr:stedsnr" v="340126" />
		<tag k="ssr:type" v="vågISjø" />
	</node>
	<node lat="60.84353333788838" lon="4.646966673915434" id="-73729">
		<tag k="fixme" v="consider seamark:type=rock or natural=shoal" />
		<tag k="name" v="Utrorskjeret" />
		<tag k="place" v="islet" />
		<tag k="ssr:date" v="2019-12-27" />
		<tag k="ssr:gruppe" v="grunnerISjø" />
		<tag k="ssr:hovedgruppe" v="sjø" />
		<tag k="ssr:stedsnr" v="359827" />
		<tag k="ssr:type" v="skjærISjø" />
	</node>
	<node lat="60.821311114644864" lon="4.658222219071359" id="-73739">
		<tag k="name" v="Lyngholmen" />
		<tag k="place" v="islet" />
		<tag k="ssr:date" v="2019-12-27" />
		<tag k="ssr:gruppe" v="kystkontur" />
		<tag k="ssr:hovedgruppe" v="sjø" />
		<tag k="ssr:stedsnr" v="420856" />
		<tag k="ssr:type" v="holmeISjø" />
	</node>
	<node lat="60.781966663177684" lon="4.692375006641468" id="-73751">
		<tag k="name" v="Hestevågen" />
		<tag k="natural" v="bay" />
		<tag k="ssr:date" v="2019-12-27" />
		<tag k="ssr:gruppe" v="kystkontur" />
		<tag k="ssr:hovedgruppe" v="sjø" />
		<tag k="ssr:stedsnr" v="510862" />
		<tag k="ssr:type" v="vikISjø" />
	</node>
	<node lat="60.77637777931773" lon="4.711811119221228" id="-73753">
		<tag k="name" v="Bonholmen" />
		<tag k="place" v="islet" />
		<tag k="ssr:date" v="2019-12-27" />
		<tag k="ssr:gruppe" v="ferskvannskontur" />
		<tag k="ssr:hovedgruppe" v="ferskvann" />
		<tag k="ssr:stedsnr" v="522089" />
		<tag k="ssr:type" v="holme" />
	</node>
	<node lat="60.771561110694435" lon="4.739713896575274" id="-73754">
		<tag k="name" v="Terneneset" />
		<tag k="natural" v="cape" />
		<tag k="ssr:date" v="2019-12-27" />
		<tag k="ssr:gruppe" v="kystkontur" />
		<tag k="ssr:hovedgruppe" v="sjø" />
		<tag k="ssr:stedsnr" v="522096" />
		<tag k="ssr:type" v="nesISjø" />
	</node>
	<node lat="60.782325001594394" lon="4.701536103626368" id="-73762">
		<tag k="name" v="Sulen" />
		<tag k="place" v="farm" />
		<tag k="ssr:date" v="2019-12-27" />
		<tag k="ssr:gruppe" v="gardsbebyggelse" />
		<tag k="ssr:hovedgruppe" v="bebyggelse" />
		<tag k="ssr:stedsnr" v="583071" />
		<tag k="ssr:type" v="bruk" />
	</node>
	<node lat="60.77757499980846" lon="4.691383327291993" id="-73773">
		<tag k="name" v="Vidnappsvika" />
		<tag k="natural" v="bay" />
		<tag k="ssr:date" v="2019-12-27" />
		<tag k="ssr:gruppe" v="kystkontur" />
		<tag k="ssr:hovedgruppe" v="sjø" />
		<tag k="ssr:stedsnr" v="642001" />
		<tag k="ssr:type" v="vikISjø" />
	</node>
	<node lat="60.78302222324568" lon="4.7318555590199844" id="-73774">
		<tag k="name" v="Stongevågen" />
		<tag k="natural" v="bay" />
		<tag k="ssr:date" v="2019-12-27" />
		<tag k="ssr:gruppe" v="kystkontur" />
		<tag k="ssr:hovedgruppe" v="sjø" />
		<tag k="ssr:stedsnr" v="643133" />
		<tag k="ssr:type" v="vågISjø" />
	</node>
	<node lat="60.75991110736104" lon="4.705813895469247" id="-73775">
		<tag k="name" v="Vassvikskjeret" />
		<tag k="place" v="islet" />
		<tag k="ssr:date" v="2019-12-27" />
		<tag k="ssr:gruppe" v="kystkontur" />
		<tag k="ssr:hovedgruppe" v="sjø" />
		<tag k="ssr:stedsnr" v="723845" />
		<tag k="ssr:type" v="holmeISjø" />
	</node>
	<node lat="60.80062777927628" lon="4.689355546907705" id="-73784">
		<tag k="fixme" v="consider seamark:type=rock or natural=shoal" />
		<tag k="name" v="Teieskjeret" />
		<tag k="place" v="islet" />
		<tag k="ssr:date" v="2019-12-27" />
		<tag k="ssr:gruppe" v="grunnerISjø" />
		<tag k="ssr:hovedgruppe" v="sjø" />
		<tag k="ssr:stedsnr" v="765036" />
		<tag k="ssr:type" v="skjærISjø" />
	</node>
	<node lat="60.79051944669313" lon="4.70332778014981" id="-73785">
		<tag k="name" v="Moldøyholmen" />
		<tag k="place" v="islet" />
		<tag k="ssr:date" v="2019-12-27" />
		<tag k="ssr:gruppe" v="kystkontur" />
		<tag k="ssr:hovedgruppe" v="sjø" />
		<tag k="ssr:stedsnr" v="765113" />
		<tag k="ssr:type" v="holmeISjø" />
	</node>
	<node lat="60.757941670708135" lon="4.744116666660953" id="-73786">
		<tag k="fixme" v="consider seamark:type=rock or natural=shoal" />
		<tag k="name" v="Mortevikskjeret" />
		<tag k="place" v="islet" />
		<tag k="ssr:date" v="2019-12-27" />
		<tag k="ssr:gruppe" v="grunnerISjø" />
		<tag k="ssr:hovedgruppe" v="sjø" />
		<tag k="ssr:stedsnr" v="784814" />
		<tag k="ssr:type" v="skjærISjø" />
	</node>
	<node lat="60.78844999793653" lon="4.666702773011734" id="-73795">
		<tag k="name" v="Mågøyosen" />
		<tag k="natural" v="strait" />
		<tag k="ssr:date" v="2019-12-27" />
		<tag k="ssr:gruppe" v="kystkontur" />
		<tag k="ssr:hovedgruppe" v="sjø" />
		<tag k="ssr:stedsnr" v="826032" />
		<tag k="ssr:type" v="sundISjø" />
	</node>
	<node lat="60.789594440879085" lon="4.68875556110247" id="-73796">
		<tag k="name" v="Klubben" />
		<tag k="place" v="islet" />
		<tag k="ssr:date" v="2019-12-27" />
		<tag k="ssr:gruppe" v="kystkontur" />
		<tag k="ssr:hovedgruppe" v="sjø" />
		<tag k="ssr:stedsnr" v="826034" />
		<tag k="ssr:type" v="holmeISjø" />
	</node>
	<node lat="60.758741668449474" lon="4.743808334596102" id="-73797">
		<tag k="name" v="Mortevika" />
		<tag k="natural" v="bay" />
		<tag k="ssr:date" v="2019-12-27" />
		<tag k="ssr:gruppe" v="kystkontur" />
		<tag k="ssr:hovedgruppe" v="sjø" />
		<tag k="ssr:stedsnr" v="826148" />
		<tag k="ssr:type" v="vikISjø" />
	</node>
	<node lat="60.75040833760214" lon="4.708427775149253" id="-73807">
		<tag k="fixme" v="consider seamark:type=rock or natural=shoal" />
		<tag k="name" v="Teistenakken" />
		<tag k="place" v="islet" />
		<tag k="ssr:date" v="2019-12-27" />
		<tag k="ssr:gruppe" v="grunnerISjø" />
		<tag k="ssr:hovedgruppe" v="sjø" />
		<tag k="ssr:stedsnr" v="887035" />
		<tag k="ssr:type" v="skjærISjø" />
	</node>
	<node lat="60.79717499643502" lon="4.689727778996113" id="-73809">
		<tag k="name" v="Rognholmen" />
		<tag k="place" v="islet" />
		<tag k="ssr:date" v="2019-12-27" />
		<tag k="ssr:gruppe" v="kystkontur" />
		<tag k="ssr:hovedgruppe" v="sjø" />
		<tag k="ssr:stedsnr" v="887083" />
		<tag k="ssr:type" v="holmeISjø" />
	</node>
	<node lat="60.770936111209984" lon="4.706575005405793" id="-73812">
		<tag k="fixme" v="consider natural=peak for the most distinct mountains in the district" />
		<tag k="name" v="Såta" />
		<tag k="natural" v="hill" />
		<tag k="place" v="locality" />
		<tag k="ssr:date" v="2019-12-27" />
		<tag k="ssr:gruppe" v="høyder" />
		<tag k="ssr:hovedgruppe" v="terreng" />
		<tag k="ssr:stedsnr" v="947022" />
		<tag k="ssr:type" v="topp" />
	</node>
	<node lat="60.78001388503004" lon="4.691444449416842" id="-73813">
		<tag k="name" v="Sildevika" />
		<tag k="natural" v="bay" />
		<tag k="ssr:date" v="2019-12-27" />
		<tag k="ssr:gruppe" v="kystkontur" />
		<tag k="ssr:hovedgruppe" v="sjø" />
		<tag k="ssr:stedsnr" v="947104" />
		<tag k="ssr:type" v="vikISjø" />
	</node>
	<node lat="60.771061113683004" lon="4.731155560879008" id="-73815">
		<tag k="name" v="Rekkingedalen" />
		<tag k="natural" v="valley" />
		<tag k="place" v="locality" />
		<tag k="ssr:date" v="2019-12-27" />
		<tag k="ssr:gruppe" v="senkninger" />
		<tag k="ssr:hovedgruppe" v="terreng" />
		<tag k="ssr:stedsnr" v="947106" />
		<tag k="ssr:type" v="dal" />
	</node>
	<node lat="60.783119447806975" lon="4.68145000549177" id="-73816">
		<tag k="name" v="Småklovningane" />
		<tag k="place" v="islet" />
		<tag k="ssr:date" v="2019-12-27" />
		<tag k="ssr:gruppe" v="kystkontur" />
		<tag k="ssr:hovedgruppe" v="sjø" />
		<tag k="ssr:stedsnr" v="947109" />
		<tag k="ssr:type" v="holmegruppeISjø" />
	</node>
	<node lat="60.764086110895356" lon="4.745027779419081" id="-73817">
		<tag k="name" v="Langøybukta" />
		<tag k="natural" v="bay" />
		<tag k="ssr:date" v="2019-12-27" />
		<tag k="ssr:gruppe" v="kystkontur" />
		<tag k="ssr:hovedgruppe" v="sjø" />
		<tag k="ssr:stedsnr" v="947117" />
		<tag k="ssr:type" v="vikISjø" />
	</node>
	<node lat="60.82198888585028" lon="4.654466662031218" id="-73819">
		<tag k="name" v="Ljøsøyna" />
		<tag k="place" v="islet" />
		<tag k="ssr:date" v="2019-12-27" />
		<tag k="ssr:gruppe" v="kystkontur" />
		<tag k="ssr:hovedgruppe" v="sjø" />
		<tag k="ssr:stedsnr" v="966861" />
		<tag k="ssr:type" v="holmeISjø" />
	</node>
	<node lat="60.77834772426237" lon="4.695277143753505" id="-73840">
		<tag k="name" v="Vidnappen" />
		<tag k="natural" v="cape" />
		<tag k="ssr:date" v="2019-12-27" />
		<tag k="ssr:gruppe" v="kystkontur" />
		<tag k="ssr:hovedgruppe" v="sjø" />
		<tag k="ssr:stedsnr" v="1072118" />
		<tag k="ssr:type" v="nesISjø" />
	</node>
	<node lat="60.76676110913458" lon="4.687305244727582" id="-73841">
		<tag k="name" v="Søre Islendingen" />
		<tag k="place" v="islet" />
		<tag k="ssr:date" v="2019-12-27" />
		<tag k="ssr:gruppe" v="kystkontur" />
		<tag k="ssr:hovedgruppe" v="sjø" />
		<tag k="ssr:stedsnr" v="1072119" />
		<tag k="ssr:type" v="holmeISjø" />
	</node>
	<node lat="60.78070646712883" lon="4.709064658442616" id="-73842">
		<tag k="name" v="Sørvågen" />
		<tag k="natural" v="bay" />
		<tag k="ssr:date" v="2019-12-27" />
		<tag k="ssr:gruppe" v="kystkontur" />
		<tag k="ssr:hovedgruppe" v="sjø" />
		<tag k="ssr:stedsnr" v="1072124" />
		<tag k="ssr:type" v="vågISjø" />
	</node>
	<node lat="60.81277585097302" lon="4.648633019463376" id="-73844">
		<tag k="name" v="Revet" />
		<tag k="natural" v="shoal" />
		<tag k="place" v="locality" />
		<tag k="ssr:date" v="2019-12-27" />
		<tag k="ssr:gruppe" v="grunnerISjø" />
		<tag k="ssr:hovedgruppe" v="sjø" />
		<tag k="ssr:stedsnr" v="1072131" />
		<tag k="ssr:type" v="grunneISjø" />
	</node>
	<node lat="60.828379736924795" lon="4.643037782211698" id="-73845">
		<tag k="name" v="Frilsøyane" />
		<tag k="place" v="island" />
		<tag k="ssr:date" v="2019-12-27" />
		<tag k="ssr:gruppe" v="kystkontur" />
		<tag k="ssr:hovedgruppe" v="sjø" />
		<tag k="ssr:stedsnr" v="1072133" />
		<tag k="ssr:type" v="øygruppeISjø" />
	</node>
</osm>
