<?xml version="1.0" encoding="UTF-8"?>
<osm version="0.6" generator="osmapis">
	<node lat="59.56973055632229" lon="10.246736104717252" id="-24581">
		<tag k="man_made" v="quay" />
		<tag k="name" v="Lersbrygga" />
		<tag k="place" v="locality" />
		<tag k="ssr:stedsnr" v="28086" />
	</node>
	<node lat="59.59105833532102" lon="10.210563885269865" id="-24676">
		<tag k="bridge" v="yes" />
		<tag k="layer" v="1" />
		<tag k="name" v="Sandeelv nordre" />
		<tag k="ssr:stedsnr" v="107715" />
	</node>
	<node lat="59.5867138924653" lon="10.210277784978693" id="-24677">
		<tag k="bridge" v="yes" />
		<tag k="layer" v="1" />
		<tag k="name" v="Haga" />
		<tag k="ssr:stedsnr" v="107718" />
	</node>
	<node lat="59.57884999555004" lon="10.061802777177205" id="-24678">
		<tag k="bridge" v="yes" />
		<tag k="layer" v="1" />
		<tag k="name" v="Rød" />
		<tag k="ssr:stedsnr" v="107738" />
	</node>
	<node lat="59.555253943051326" lon="10.239541497489686" id="-24732">
		<tag k="man_made" v="quay" />
		<tag k="name" v="Saksrudhavna" />
		<tag k="place" v="locality" />
		<tag k="ssr:stedsnr" v="149604" />
	</node>
	<node lat="59.47024444248111" lon="10.301258337758378" id="-24744">
		<tag k="bridge" v="yes" />
		<tag k="layer" v="1" />
		<tag k="name" v="Mofjellbekken øst" />
		<tag k="ssr:stedsnr" v="168604" />
	</node>
	<node lat="59.54895555607443" lon="10.29008888794495" id="-24837">
		<tag k="man_made" v="quay" />
		<tag k="name" v="Bekkebrygga" />
		<tag k="place" v="locality" />
		<tag k="ssr:stedsnr" v="271045" />
	</node>
	<node lat="59.50902222272539" lon="10.213019435726846" id="-24880">
		<tag k="bridge" v="yes" />
		<tag k="layer" v="1" />
		<tag k="name" v="Island øst kulvert" />
		<tag k="ssr:stedsnr" v="228681" />
	</node>
	<node lat="59.46620000133077" lon="10.332661105869635" id="-24881">
		<tag k="bridge" v="yes" />
		<tag k="layer" v="1" />
		<tag k="name" v="Reggestad" />
		<tag k="ssr:stedsnr" v="228780" />
	</node>
	<node lat="59.5860861083608" lon="10.214783325490389" id="-25061">
		<tag k="bridge" v="yes" />
		<tag k="layer" v="1" />
		<tag k="name" v="Haga skole kulvert" />
		<tag k="ssr:stedsnr" v="470699" />
	</node>
	<node lat="59.5324805584777" lon="10.372161118909894" id="-25062">
		<tag k="junction" v="yes" />
		<tag k="name" v="Sandvika" />
		<tag k="place" v="locality" />
		<tag k="ssr:stedsnr" v="331073" />
	</node>
	<node lat="59.48973333048944" lon="10.314747226688661" id="-25100">
		<tag k="bridge" v="yes" />
		<tag k="layer" v="1" />
		<tag k="name" v="Bekkegata" />
		<tag k="ssr:stedsnr" v="471626" />
	</node>
	<node lat="59.56189166557695" lon="10.119955560579932" id="-25101">
		<tag k="bridge" v="yes" />
		<tag k="layer" v="1" />
		<tag k="name" v="Herstad" />
		<tag k="ssr:stedsnr" v="471718" />
	</node>
	<node lat="59.507158334913434" lon="10.194791670567147" id="-25102">
		<tag k="bridge" v="yes" />
		<tag k="layer" v="1" />
		<tag k="name" v="Hillestad skole" />
		<tag k="ssr:stedsnr" v="349668" />
	</node>
	<node lat="59.5667527767873" lon="10.266816661695627" id="-25103">
		<tag k="bridge" v="yes" />
		<tag k="layer" v="1" />
		<tag k="name" v="Selvik" />
		<tag k="ssr:stedsnr" v="349728" />
	</node>
	<node lat="59.61371944505197" lon="10.21405832725503" id="-25104">
		<tag k="bridge" v="yes" />
		<tag k="layer" v="1" />
		<tag k="name" v="Kopstad" />
		<tag k="ssr:stedsnr" v="349730" />
	</node>
	<node lat="59.57346666478985" lon="10.222430548298583" id="-25168">
		<tag k="bridge" v="yes" />
		<tag k="layer" v="1" />
		<tag k="name" v="Åsnes" />
		<tag k="ssr:stedsnr" v="410704" />
	</node>
	<node lat="59.47029166568407" lon="10.096622227183868" id="-25169">
		<tag k="bridge" v="yes" />
		<tag k="layer" v="1" />
		<tag k="name" v="Auen bru" />
		<tag k="ssr:stedsnr" v="410705" />
	</node>
	<node lat="59.5403111082967" lon="10.311519437928284" id="-25170">
		<tag k="bridge" v="yes" />
		<tag k="layer" v="1" />
		<tag k="name" v="Sando" />
		<tag k="ssr:stedsnr" v="410707" />
	</node>
	<node lat="59.61327778135457" lon="10.21648333786553" id="-25171">
		<tag k="bridge" v="yes" />
		<tag k="layer" v="1" />
		<tag k="name" v="Koppstad" />
		<tag k="ssr:stedsnr" v="410710" />
	</node>
	<node lat="59.60858610680899" lon="10.213636112001181" id="-25172">
		<tag k="bridge" v="yes" />
		<tag k="layer" v="1" />
		<tag k="name" v="Hallerud" />
		<tag k="ssr:stedsnr" v="410713" />
	</node>
	<node lat="59.66113055900147" lon="10.23415276911196" id="-25173">
		<tag k="bridge" v="yes" />
		<tag k="layer" v="1" />
		<tag k="name" v="Berg øst" />
		<tag k="ssr:stedsnr" v="410715" />
	</node>
	<node lat="59.4738083313305" lon="10.331663894178392" id="-25174">
		<tag k="bridge" v="yes" />
		<tag k="layer" v="1" />
		<tag k="name" v="Peter Pan" />
		<tag k="ssr:stedsnr" v="410634" />
	</node>
	<node lat="59.642923030345514" lon="10.18172298869058" id="-25175">
		<tag k="alt_name" v="Vadet, øvre" />
		<tag k="ford" v="yes" />
		<tag k="name" v="Øvre Vadet" />
		<tag k="place" v="locality" />
		<tag k="ssr:stedsnr" v="488152" />
	</node>
	<node lat="59.64486666816207" lon="10.220133331483266" id="-25334">
		<tag k="bridge" v="yes" />
		<tag k="layer" v="1" />
		<tag k="name" v="Gutufossen øst" />
		<tag k="ssr:stedsnr" v="531724" />
	</node>
	<node lat="59.58139722148159" lon="9.970300005372833" id="-25335">
		<tag k="man_made" v="cairn" />
		<tag k="name" v="Skibergfjell" />
		<tag k="place" v="locality" />
		<tag k="ssr:stedsnr" v="535087" />
	</node>
	<node lat="59.55561114127998" lon="10.240112256630118" id="-25419">
		<tag k="landuse" v="harbour" />
		<tag k="name" v="Saksrudhavna" />
		<tag k="seamark:type" v="harbour" />
		<tag k="ssr:stedsnr" v="695062" />
	</node>
	<node lat="59.47136666642932" lon="10.312211105324904" id="-25525">
		<tag k="landuse" v="industrial" />
		<tag k="name" v="Bentsrud koblingstasjon" />
		<tag k="power" v="plant" />
		<tag k="ssr:stedsnr" v="634879" />
	</node>
	<node lat="59.50530000285131" lon="10.175147222207826" id="-25533">
		<tag k="bridge" v="yes" />
		<tag k="layer" v="1" />
		<tag k="name" v="Kronlia kulvert" />
		<tag k="ssr:stedsnr" v="653630" />
	</node>
	<node lat="59.66930278070108" lon="10.242697218161947" id="-25600">
		<tag k="bridge" v="yes" />
		<tag k="layer" v="1" />
		<tag k="name" v="Tuft" />
		<tag k="ssr:stedsnr" v="895672" />
	</node>
	<node lat="59.55718611371136" lon="10.132777785202354" id="-25602">
		<tag k="bridge" v="yes" />
		<tag k="layer" v="1" />
		<tag k="name" v="Hanekleiva" />
		<tag k="ssr:stedsnr" v="896683" />
	</node>
	<node lat="59.646625002755826" lon="10.221197222030316" id="-25603">
		<tag k="bridge" v="yes" />
		<tag k="layer" v="1" />
		<tag k="name" v="Storelv" />
		<tag k="ssr:stedsnr" v="713732" />
	</node>
	<node lat="59.580150001676664" lon="10.217491663613963" id="-25604">
		<tag k="bridge" v="yes" />
		<tag k="layer" v="1" />
		<tag k="name" v="Sandeelv søndre" />
		<tag k="ssr:stedsnr" v="713733" />
	</node>
	<node lat="59.516805552706536" lon="10.347100005084421" id="-25629">
		<tag k="man_made" v="quay" />
		<tag k="name" v="Bjerkøybrygga" />
		<tag k="place" v="locality" />
		<tag k="ssr:stedsnr" v="756011" />
	</node>
	<node lat="59.543360612557684" lon="10.248740840237357" id="-25651">
		<tag k="barrier" v="toll_booth" />
		<tag k="name" v="Ødegården" />
		<tag k="ssr:stedsnr" v="767643" />
	</node>
	<node lat="59.51350277769513" lon="10.126961112843704" id="-25653">
		<tag k="bridge" v="yes" />
		<tag k="layer" v="1" />
		<tag k="name" v="Sundbyfoss sentrum" />
		<tag k="ssr:stedsnr" v="775704" />
	</node>
	<node lat="59.5115055527863" lon="10.09263055883563" id="-25743">
		<tag k="bridge" v="yes" />
		<tag k="layer" v="1" />
		<tag k="name" v="Dokken bru søndre" />
		<tag k="ssr:stedsnr" v="836713" />
	</node>
	<node lat="59.45244166366951" lon="10.354452785288272" id="-25744">
		<tag k="bridge" v="yes" />
		<tag k="layer" v="1" />
		<tag k="name" v="Snekkestad II" />
		<tag k="ssr:stedsnr" v="836729" />
	</node>
	<node lat="59.470652775328546" lon="10.297686117179499" id="-25800">
		<tag k="bridge" v="yes" />
		<tag k="layer" v="1" />
		<tag k="name" v="Mofjellbekken vest" />
		<tag k="ssr:stedsnr" v="896672" />
	</node>
	<node lat="59.48131111269219" lon="10.09659721660273" id="-25871">
		<tag k="bridge" v="yes" />
		<tag k="layer" v="1" />
		<tag k="name" v="Buen bru" />
		<tag k="ssr:stedsnr" v="228741" />
	</node>
	<node lat="59.55661944327176" lon="10.234994447831298" id="-25872">
		<tag k="bridge" v="yes" />
		<tag k="layer" v="1" />
		<tag k="name" v="Holm søndre" />
		<tag k="ssr:stedsnr" v="228742" />
	</node>
	<node lat="59.60862777803615" lon="10.20784444269555" id="-25873">
		<tag k="bridge" v="yes" />
		<tag k="layer" v="1" />
		<tag k="name" v="Brubakken" />
		<tag k="ssr:stedsnr" v="228748" />
	</node>
	<node lat="59.55539999990559" lon="10.096988880289148" id="-25874">
		<tag k="bridge" v="yes" />
		<tag k="layer" v="1" />
		<tag k="name" v="Kopstad" />
		<tag k="ssr:stedsnr" v="228761" />
	</node>
	<node lat="59.59613055552572" lon="10.038766669042962" id="-25875">
		<tag k="bridge" v="yes" />
		<tag k="layer" v="1" />
		<tag k="name" v="Eidsfoss bru" />
		<tag k="ssr:stedsnr" v="228763" />
	</node>
	<node lat="59.57785833451713" lon="10.195738893428357" id="-25876">
		<tag k="bridge" v="yes" />
		<tag k="layer" v="1" />
		<tag k="name" v="Teien" />
		<tag k="ssr:stedsnr" v="956728" />
	</node>
	<node lat="59.636505553067764" lon="9.993408325544477" id="-25877">
		<tag k="bridge" v="yes" />
		<tag k="layer" v="1" />
		<tag k="name" v="Pinnestad bru" />
		<tag k="ssr:stedsnr" v="957724" />
	</node>
	<node lat="59.59614166534998" lon="10.043558341432453" id="-25878">
		<tag k="bridge" v="yes" />
		<tag k="layer" v="1" />
		<tag k="name" v="Gata" />
		<tag k="ssr:stedsnr" v="957725" />
	</node>
	<node lat="59.514413888176165" lon="10.083141663218935" id="-25879">
		<tag k="bridge" v="yes" />
		<tag k="layer" v="1" />
		<tag k="name" v="Haslestad" />
		<tag k="ssr:stedsnr" v="957726" />
	</node>
	<node lat="59.49013317035899" lon="10.316951289399299" id="-25892">
		<tag k="man_made" v="quay" />
		<tag k="name" v="Langøybrygga" />
		<tag k="place" v="locality" />
		<tag k="ssr:stedsnr" v="985996" />
	</node>
	<node lat="59.573044080233124" lon="10.181478174524813" id="-25972">
		<tag k="barrier" v="toll_booth" />
		<tag k="name" v="Hanekleiva 1" />
		<tag k="ssr:stedsnr" v="39589" />
	</node>
	<node lat="59.583787662238365" lon="10.175161515441326" id="-25973">
		<tag k="barrier" v="toll_booth" />
		<tag k="name" v="Løvås" />
		<tag k="ssr:stedsnr" v="39595" />
	</node>
	<node lat="59.55984166651515" lon="10.233086104893154" id="-25974">
		<tag k="bridge" v="yes" />
		<tag k="layer" v="1" />
		<tag k="name" v="Holm nordre" />
		<tag k="ssr:stedsnr" v="46736" />
	</node>
	<node lat="59.61252222208646" lon="10.215933324614651" id="-25975">
		<tag k="bridge" v="yes" />
		<tag k="layer" v="1" />
		<tag k="name" v="Gilhusdalen øst" />
		<tag k="ssr:stedsnr" v="46742" />
	</node>
	<node lat="59.66111944495756" lon="10.234136102491677" id="-25976">
		<tag k="bridge" v="yes" />
		<tag k="layer" v="1" />
		<tag k="name" v="Berg vest" />
		<tag k="ssr:stedsnr" v="46744" />
	</node>
	<node lat="59.49566666725477" lon="10.285708336790028" id="-26087">
		<tag k="bridge" v="yes" />
		<tag k="layer" v="1" />
		<tag k="name" v="Island" />
		<tag k="ssr:stedsnr" v="107643" />
	</node>
	<node lat="59.48746111287583" lon="10.317094450812569" id="-26088">
		<tag k="bridge" v="yes" />
		<tag k="layer" v="1" />
		<tag k="name" v="Kleivbrottet mur" />
		<tag k="ssr:stedsnr" v="107645" />
	</node>
	<node lat="59.506024998998925" lon="10.182405554087149" id="-26089">
		<tag k="bridge" v="yes" />
		<tag k="layer" v="1" />
		<tag k="name" v="Neshaugen kulvert" />
		<tag k="ssr:stedsnr" v="107648" />
	</node>
	<node lat="59.47259722563106" lon="10.27699721549105" id="-26090">
		<tag k="bridge" v="yes" />
		<tag k="layer" v="1" />
		<tag k="name" v="Nygård kulvert" />
		<tag k="ssr:stedsnr" v="107662" />
	</node>
	<node lat="59.66539444794484" lon="10.214716661893718" id="-26190">
		<tag k="bridge" v="yes" />
		<tag k="layer" v="1" />
		<tag k="name" v="Flåte" />
		<tag k="ssr:stedsnr" v="167734" />
	</node>
	<node lat="59.50614166565302" lon="10.18677777192701" id="-26191">
		<tag k="bridge" v="yes" />
		<tag k="layer" v="1" />
		<tag k="name" v="Rønningen" />
		<tag k="ssr:stedsnr" v="168617" />
	</node>
	<node lat="59.471516664384154" lon="10.293447215939517" id="-26192">
		<tag k="bridge" v="yes" />
		<tag k="layer" v="1" />
		<tag k="name" v="Skjeggestad øst" />
		<tag k="ssr:stedsnr" v="168619" />
	</node>
	<node lat="59.57271667005543" lon="10.059725001214447" id="-26193">
		<tag k="bridge" v="yes" />
		<tag k="layer" v="1" />
		<tag k="name" v="Stubben bru" />
		<tag k="ssr:stedsnr" v="168715" />
	</node>
	<node lat="59.480269442660244" lon="10.32746389257093" id="-26281">
		<tag k="bridge" v="yes" />
		<tag k="layer" v="1" />
		<tag k="name" v="Bleikvolden Felleskjøpet" />
		<tag k="ssr:stedsnr" v="289689" />
	</node>
	<node lat="59.46374444210622" lon="10.345513892263984" id="-26282">
		<tag k="bridge" v="yes" />
		<tag k="layer" v="1" />
		<tag k="name" v="Nøklegård øst" />
		<tag k="ssr:stedsnr" v="289795" />
	</node>
	<node lat="59.58919444044764" lon="10.212230552426856" id="-26283">
		<tag k="bridge" v="yes" />
		<tag k="layer" v="1" />
		<tag k="name" v="Bøplassen" />
		<tag k="ssr:stedsnr" v="289763" />
	</node>
	<node lat="59.64846667061003" lon="10.232219450600226" id="-26402">
		<tag k="bridge" v="yes" />
		<tag k="layer" v="1" />
		<tag k="name" v="Kjeldås" />
		<tag k="ssr:stedsnr" v="349735" />
	</node>
	<node lat="59.61251111469327" lon="10.215916670872483" id="-26403">
		<tag k="bridge" v="yes" />
		<tag k="layer" v="1" />
		<tag k="name" v="Gilhusdalen vest" />
		<tag k="ssr:stedsnr" v="349736" />
	</node>
	<node lat="59.48730000283457" lon="10.087925005850101" id="-26404">
		<tag k="bridge" v="yes" />
		<tag k="layer" v="1" />
		<tag k="name" v="Solberg" />
		<tag k="ssr:stedsnr" v="350696" />
	</node>
	<node lat="59.62384722550399" lon="10.222477769249632" id="-26432">
		<tag k="alt_name" v="Galleberg st." />
		<tag k="name" v="Galleberg" />
		<tag k="railway" v="station" />
		<tag k="ssr:stedsnr" v="368101" />
		<tag k="train" v="yes" />
	</node>
	<node lat="59.62299166846668" lon="10.200830547595492" id="-26478">
		<tag k="junction" v="yes" />
		<tag k="name" v="Galleberg" />
		<tag k="place" v="locality" />
		<tag k="ssr:stedsnr" v="392674" />
	</node>
	<node lat="59.599280557249436" lon="10.165172215054481" id="-26482">
		<tag k="junction" v="yes" />
		<tag k="name" v="Kilen" />
		<tag k="place" v="locality" />
		<tag k="ssr:stedsnr" v="392917" />
	</node>
	<node lat="59.52396666968807" lon="10.282227774288241" id="-26492">
		<tag k="bridge" v="yes" />
		<tag k="layer" v="1" />
		<tag k="name" v="Smørstein halvbru" />
		<tag k="ssr:stedsnr" v="410637" />
	</node>
	<node lat="59.45946388828294" lon="10.332186118469457" id="-26537">
		<tag k="junction" v="yes" />
		<tag k="name" v="Syrstad" />
		<tag k="place" v="locality" />
		<tag k="ssr:stedsnr" v="512814" />
	</node>
	<node lat="59.57390884350575" lon="10.179735335921976" id="-26598">
		<tag k="barrier" v="toll_booth" />
		<tag k="name" v="Hanekleiva 2" />
		<tag k="ssr:stedsnr" v="524613" />
	</node>
	<node lat="59.6258777795323" lon="10.001138891186397" id="-26599">
		<tag k="bridge" v="yes" />
		<tag k="layer" v="1" />
		<tag k="name" v="Torrud bru" />
		<tag k="ssr:stedsnr" v="532716" />
	</node>
	<node lat="59.45278889005852" lon="10.354111115741553" id="-26671">
		<tag k="junction" v="yes" />
		<tag k="name" v="Snekkestad" />
		<tag k="place" v="locality" />
		<tag k="ssr:stedsnr" v="573857" />
	</node>
	<node lat="59.65201111113654" lon="10.207866671657447" id="-26704">
		<tag k="bridge" v="yes" />
		<tag k="layer" v="1" />
		<tag k="name" v="Sagbakken" />
		<tag k="ssr:stedsnr" v="592742" />
	</node>
	<node lat="59.471505551858996" lon="10.292580557392133" id="-26705">
		<tag k="bridge" v="yes" />
		<tag k="layer" v="1" />
		<tag k="name" v="Skjeggestad vest" />
		<tag k="ssr:stedsnr" v="592675" />
	</node>
	<node lat="59.5126333290765" lon="10.093422219695876" id="-26706">
		<tag k="bridge" v="yes" />
		<tag k="layer" v="1" />
		<tag k="name" v="Dokken bru nordre" />
		<tag k="ssr:stedsnr" v="592771" />
	</node>
	<node lat="59.62346666556573" lon="10.225969452217342" id="-26793">
		<tag k="bridge" v="yes" />
		<tag k="layer" v="1" />
		<tag k="name" v="Galleberg" />
		<tag k="ssr:stedsnr" v="652700" />
	</node>
	<node lat="59.46826944818167" lon="10.324936111611615" id="-26794">
		<tag k="bridge" v="yes" />
		<tag k="layer" v="1" />
		<tag k="name" v="Vålevegen" />
		<tag k="ssr:stedsnr" v="652630" />
	</node>
	<node lat="59.65054722296262" lon="10.230591659880371" id="-26807">
		<tag k="bridge" v="yes" />
		<tag k="layer" v="1" />
		<tag k="name" v="Gutu fotgjengerundergang" />
		<tag k="ssr:stedsnr" v="713736" />
	</node>
	<node lat="59.628986111793076" lon="10.230369443125754" id="-26808">
		<tag k="bridge" v="yes" />
		<tag k="layer" v="1" />
		<tag k="name" v="Foss" />
		<tag k="ssr:stedsnr" v="713737" />
	</node>
	<node lat="59.56758611117487" lon="10.115191660294624" id="-26809">
		<tag k="bridge" v="yes" />
		<tag k="layer" v="1" />
		<tag k="name" v="Dameng" />
		<tag k="ssr:stedsnr" v="714700" />
	</node>
	<node lat="59.61841111139792" lon="10.22005000212501" id="-26914">
		<tag k="bridge" v="yes" />
		<tag k="layer" v="1" />
		<tag k="name" v="Heimdal" />
		<tag k="ssr:stedsnr" v="774735" />
	</node>
	<node lat="59.61939722559574" lon="10.240736116236988" id="-26915">
		<tag k="bridge" v="yes" />
		<tag k="layer" v="1" />
		<tag k="name" v="Budderud" />
		<tag k="ssr:stedsnr" v="774738" />
	</node>
	<node lat="59.64517222454026" lon="9.984772217182327" id="-27021">
		<tag k="bridge" v="yes" />
		<tag k="layer" v="1" />
		<tag k="name" v="Tryterud bru" />
		<tag k="ssr:stedsnr" v="836700" />
	</node>
	<node lat="59.62533611273678" lon="10.181741659383922" id="-27094">
		<tag k="highway" v="path" />
		<tag k="name" v="Bjørnestien" />
		<tag k="ssr:stedsnr" v="877643" />
	</node>
	<node lat="59.550305558355774" lon="10.242772215377535" id="-27184">
		<tag k="man_made" v="quay" />
		<tag k="name" v="Bergbrygga" />
		<tag k="place" v="locality" />
		<tag k="ssr:stedsnr" v="938762" />
	</node>
	<node lat="58.9440068916853" lon="9.637917728815127" id="-27268">
		<tag k="name" v="Tonerhavn" />
		<tag k="place" v="locality" />
		<tag k="ssr:stedsnr" v="1074516" />
	</node>
</osm>
