<?xml version="1.0" encoding="UTF-8"?>
<osm version="0.6" generator="osmapis">
	<node lat="59.470573120943115" lon="10.283994642817156" id="-19810">
		<tag k="fixme" v="consider place=hamlet" />
		<tag k="name" v="Haugan" />
		<tag k="place" v="farm" />
		<tag k="ssr:stedsnr" v="2101" />
	</node>
	<node lat="59.47067676655878" lon="10.327841300775182" id="-19811">
		<tag k="fixme" v="consider place=hamlet" />
		<tag k="name" v="Tolfsrud" />
		<tag k="place" v="farm" />
		<tag k="ssr:stedsnr" v="2107" />
	</node>
	<node lat="59.47812940933502" lon="10.136578738970673" id="-19812">
		<tag k="fixme" v="consider place=hamlet" />
		<tag k="name" v="Soa" />
		<tag k="place" v="farm" />
		<tag k="ssr:stedsnr" v="2027" />
	</node>
	<node lat="59.58091603088241" lon="10.222282073080146" id="-19813">
		<tag k="fixme" v="consider place=hamlet" />
		<tag k="name" v="Gravningen" />
		<tag k="place" v="farm" />
		<tag k="ssr:stedsnr" v="3001" />
	</node>
	<node lat="59.58361111033277" lon="10.22376389108261" id="-19814">
		<tag k="alt_name" v="Ekeli" />
		<tag k="name" v="Eikeli" />
		<tag k="place" v="farm" />
		<tag k="ssr:stedsnr" v="3003" />
	</node>
	<node lat="59.57866895164058" lon="10.047760000185281" id="-19815">
		<tag k="fixme" v="consider place=hamlet" />
		<tag k="name" v="Gausen" />
		<tag k="place" v="farm" />
		<tag k="ssr:stedsnr" v="3016" />
	</node>
	<node lat="59.58571385004004" lon="10.04211148788128" id="-19817">
		<tag k="fixme" v="consider place=hamlet" />
		<tag k="name" v="Eid" />
		<tag k="place" v="farm" />
		<tag k="ssr:stedsnr" v="3023" />
	</node>
	<node lat="59.591012314846864" lon="10.233813850073357" id="-19818">
		<tag k="alt_name" v="Simenstad nedre" />
		<tag k="name" v="Simenstad" />
		<tag k="place" v="hamlet" />
		<tag k="ssr:stedsnr" v="3030" />
	</node>
	<node lat="59.56083743578712" lon="10.328172832962093" id="-19819">
		<tag k="fixme" v="consider place=hamlet" />
		<tag k="name" v="Holtan" />
		<tag k="place" v="farm" />
		<tag k="ssr:stedsnr" v="3036" />
	</node>
	<node lat="59.65573528674074" lon="10.204566771760302" id="-19822">
		<tag k="fixme" v="consider place=hamlet" />
		<tag k="name" v="Grytebakke" />
		<tag k="place" v="farm" />
		<tag k="ssr:stedsnr" v="3121" />
	</node>
	<node lat="59.51358889115478" lon="10.085644446732413" id="-19828">
		<tag k="building" v="industrial" />
		<tag k="industrial" v="factory" />
		<tag k="name" v="Haslestad bruk" />
		<tag k="ssr:stedsnr" v="3987" />
	</node>
	<node lat="59.536713763002616" lon="10.334317400069645" id="-19829">
		<tag k="alt_name" v="Gyltesø" />
		<tag k="fixme" v="consider place=hamlet" />
		<tag k="name" v="Gylteser" />
		<tag k="place" v="farm" />
		<tag k="ssr:stedsnr" v="3877" />
	</node>
	<node lat="59.535094118857664" lon="10.168925855555296" id="-19830">
		<tag k="alt_name" v="Odderud" />
		<tag k="fixme" v="consider place=hamlet" />
		<tag k="name" v="Odderød" />
		<tag k="place" v="farm" />
		<tag k="ssr:stedsnr" v="3880" />
	</node>
	<node lat="59.535130555764376" lon="10.084905562260216" id="-19831">
		<tag k="name" v="Storeng" />
		<tag k="place" v="farm" />
		<tag k="ssr:stedsnr" v="3884" />
	</node>
	<node lat="59.51630000359475" lon="10.039641659774068" id="-19832">
		<tag k="alt_name" v="Kullstuen" />
		<tag k="name" v="Kolastua" />
		<tag k="place" v="isolated_dwelling" />
		<tag k="ssr:stedsnr" v="3887" />
	</node>
	<node lat="59.61773290912433" lon="10.220441725855641" id="-19833">
		<tag k="name" v="Heimdal" />
		<tag k="place" v="farm" />
		<tag k="ssr:stedsnr" v="4068" />
	</node>
	<node lat="59.61898055850534" lon="10.277283339414799" id="-19834">
		<tag k="name" v="Lærumsetra" />
		<tag k="place" v="isolated_dwelling" />
		<tag k="ssr:stedsnr" v="4072" />
	</node>
	<node lat="59.58973333397516" lon="9.959650008016045" id="-19837">
		<tag k="name" v="Sandbekkstua" />
		<tag k="place" v="isolated_dwelling" />
		<tag k="ssr:stedsnr" v="24425" />
	</node>
	<node lat="59.521936109907166" lon="10.029800005364034" id="-19838">
		<tag k="name" v="Kommunestua" />
		<tag k="place" v="isolated_dwelling" />
		<tag k="ssr:stedsnr" v="24430" />
	</node>
	<node lat="59.48495555776769" lon="10.090841666941595" id="-19839">
		<tag k="name" v="Vassås" />
		<tag k="place" v="hamlet" />
		<tag k="ssr:stedsnr" v="26390" />
	</node>
	<node lat="59.47280832963761" lon="10.100455556673825" id="-19843">
		<tag k="name" v="Nordengen" />
		<tag k="place" v="locality" />
		<tag k="ssr:stedsnr" v="27524" />
	</node>
	<node lat="59.5055472187486" lon="10.240058335976107" id="-19845">
		<tag k="name" v="Lie nedre" />
		<tag k="place" v="farm" />
		<tag k="ssr:stedsnr" v="27604" />
	</node>
	<node lat="59.49825277940146" lon="10.233991660281642" id="-19846">
		<tag k="name" v="Bringaker mellom" />
		<tag k="place" v="farm" />
		<tag k="ssr:stedsnr" v="27607" />
	</node>
	<node lat="59.49992500238174" lon="10.253097218046753" id="-19847">
		<tag k="name" v="Gullhaug" />
		<tag k="place" v="farm" />
		<tag k="ssr:stedsnr" v="27615" />
	</node>
	<node lat="59.50199721875197" lon="10.204291672658329" id="-19848">
		<tag k="name" v="Solberg" />
		<tag k="place" v="farm" />
		<tag k="ssr:stedsnr" v="27622" />
	</node>
	<node lat="59.58032777923243" lon="10.190627774722637" id="-19862">
		<tag k="name" v="Teien østre" />
		<tag k="place" v="farm" />
		<tag k="ssr:stedsnr" v="28570" />
	</node>
	<node lat="59.57332500097281" lon="10.189863893169656" id="-19863">
		<tag k="name" v="Bråtan" />
		<tag k="place" v="isolated_dwelling" />
		<tag k="ssr:stedsnr" v="28581" />
	</node>
	<node lat="59.56017531780822" lon="10.149572028405563" id="-19864">
		<tag k="name" v="Soltun" />
		<tag k="place" v="farm" />
		<tag k="ssr:stedsnr" v="28701" />
	</node>
	<node lat="59.555133333898475" lon="10.22628888079674" id="-19866">
		<tag k="building" v="industrial" />
		<tag k="name" v="Holm" />
		<tag k="ssr:stedsnr" v="28621" />
	</node>
	<node lat="59.5939500036932" lon="10.142741671833011" id="-19868">
		<tag k="name" v="Høybråten" />
		<tag k="place" v="farm" />
		<tag k="ssr:stedsnr" v="28669" />
	</node>
	<node lat="59.553222219667774" lon="10.080338896588724" id="-19871">
		<tag k="name" v="Havblikk" />
		<tag k="place" v="farm" />
		<tag k="ssr:stedsnr" v="28677" />
	</node>
	<node lat="59.540958335079" lon="10.201666660949375" id="-19872">
		<tag k="name" v="Brekkeseter" />
		<tag k="place" v="isolated_dwelling" />
		<tag k="ssr:stedsnr" v="28767" />
	</node>
	<node lat="59.59511389148114" lon="10.173361110217021" id="-19873">
		<tag k="name" v="Vardal søndre" />
		<tag k="place" v="farm" />
		<tag k="ssr:stedsnr" v="28917" />
	</node>
	<node lat="59.59781110722583" lon="10.218336110816445" id="-19874">
		<tag k="name" v="Gran søndre" />
		<tag k="old_name" v="Løkka" />
		<tag k="place" v="farm" />
		<tag k="ssr:stedsnr" v="28923" />
	</node>
	<node lat="59.64183611064654" lon="10.240963882053526" id="-19877">
		<tag k="name" v="Eikeberg" />
		<tag k="place" v="isolated_dwelling" />
		<tag k="ssr:stedsnr" v="28974" />
	</node>
	<node lat="59.64721111186743" lon="10.224597227159235" id="-19878">
		<tag k="name" v="Gutu" />
		<tag k="place" v="farm" />
		<tag k="ssr:stedsnr" v="28981" />
	</node>
	<node lat="59.61145000435436" lon="10.224880552387278" id="-19880">
		<tag k="name" v="Rud" />
		<tag k="place" v="hamlet" />
		<tag k="ssr:stedsnr" v="237256" />
	</node>
	<node lat="59.49254273953188" lon="10.288637088036136" id="-19881">
		<tag k="fixme" v="consider place=hamlet" />
		<tag k="name" v="Hvalberg" />
		<tag k="place" v="farm" />
		<tag k="ssr:stedsnr" v="63003" />
	</node>
	<node lat="59.46884403516715" lon="10.255931449294298" id="-19882">
		<tag k="alt_name" v="Korsgården søndre" />
		<tag k="fixme" v="consider place=hamlet" />
		<tag k="name" v="Korsgården" />
		<tag k="place" v="farm" />
		<tag k="ssr:stedsnr" v="63117" />
	</node>
	<node lat="59.4664781928052" lon="10.144885067885689" id="-19883">
		<tag k="name" v="Langeli" />
		<tag k="place" v="farm" />
		<tag k="ssr:stedsnr" v="63122" />
	</node>
	<node lat="59.58270833575434" lon="10.073586104061555" id="-19887">
		<tag k="name" v="Rød" />
		<tag k="place" v="farm" />
		<tag k="ssr:stedsnr" v="64011" />
	</node>
	<node lat="59.62984999799888" lon="10.108247225136582" id="-19888">
		<tag k="name" v="Skogseterstulen" />
		<tag k="place" v="isolated_dwelling" />
		<tag k="ssr:stedsnr" v="64063" />
	</node>
	<node lat="59.544733337356064" lon="10.245772224122355" id="-19892">
		<tag k="name" v="Skjervik" />
		<tag k="place" v="farm" />
		<tag k="ssr:stedsnr" v="242830" />
	</node>
	<node lat="59.54688055444149" lon="10.244594450782152" id="-19893">
		<tag k="name" v="Skjervik" />
		<tag k="place" v="farm" />
		<tag k="ssr:stedsnr" v="242832" />
	</node>
	<node lat="59.48076024751221" lon="10.267932389368262" id="-19894">
		<tag k="name" v="Bekk" />
		<tag k="place" v="isolated_dwelling" />
		<tag k="ssr:stedsnr" v="245017" />
	</node>
	<node lat="59.57268350490964" lon="10.26151502964061" id="-19895">
		<tag k="name" v="Bjørndalen" />
		<tag k="place" v="hamlet" />
		<tag k="ssr:stedsnr" v="245048" />
	</node>
	<node lat="59.498333859562806" lon="10.297274281369306" id="-19896">
		<tag k="fixme" v="consider place=hamlet" />
		<tag k="name" v="Solberg" />
		<tag k="place" v="farm" />
		<tag k="ssr:stedsnr" v="245055" />
	</node>
	<node lat="59.46264722308216" lon="10.337363892770128" id="-19906">
		<tag k="name" v="Reggestad søndre" />
		<tag k="place" v="farm" />
		<tag k="ssr:stedsnr" v="88773" />
	</node>
	<node lat="59.60341389160542" lon="10.188625007590767" id="-19908">
		<tag k="name" v="Bolstad søndre" />
		<tag k="place" v="farm" />
		<tag k="ssr:stedsnr" v="88907" />
	</node>
	<node lat="59.49717777603881" lon="10.29926388910756" id="-19909">
		<tag k="name" v="Solvang" />
		<tag k="place" v="farm" />
		<tag k="ssr:stedsnr" v="88827" />
	</node>
	<node lat="59.49991389312268" lon="10.286191674639287" id="-19910">
		<tag k="name" v="Voll" />
		<tag k="place" v="farm" />
		<tag k="ssr:stedsnr" v="88831" />
	</node>
	<node lat="59.50475277704877" lon="10.163783332196397" id="-19912">
		<tag k="name" v="Kronlia" />
		<tag k="place" v="farm" />
		<tag k="ssr:stedsnr" v="245994" />
	</node>
	<node lat="59.50552309167215" lon="10.292881146286142" id="-19913">
		<tag k="alt_name" v="Østre Ramberg" />
		<tag k="fixme" v="consider place=hamlet" />
		<tag k="name" v="Ramberg" />
		<tag k="place" v="farm" />
		<tag k="ssr:stedsnr" v="245996" />
	</node>
	<node lat="59.56461388464951" lon="10.226036118363858" id="-19923">
		<tag k="name" v="Ve mellom" />
		<tag k="place" v="farm" />
		<tag k="ssr:stedsnr" v="89596" />
	</node>
	<node lat="59.6410694460948" lon="10.088577784887331" id="-19926">
		<tag k="name" v="Hallerudseter" />
		<tag k="place" v="locality" />
		<tag k="ssr:stedsnr" v="89725" />
	</node>
	<node lat="59.62535336952369" lon="10.200919830285516" id="-19932">
		<tag k="fixme" v="consider place=hamlet" />
		<tag k="name" v="Hallan" />
		<tag k="place" v="farm" />
		<tag k="ssr:stedsnr" v="89628" />
	</node>
	<node lat="59.62848635532278" lon="10.230569722531095" id="-19934">
		<tag k="alt_name" v="Foss bruk" />
		<tag k="building" v="industrial" />
		<tag k="industrial" v="factory" />
		<tag k="name" v="Foss mølle" />
		<tag k="ssr:stedsnr" v="246083" />
	</node>
	<node lat="59.62578888484244" lon="10.077188882219792" id="-19935">
		<tag k="name" v="Kabretta" />
		<tag k="place" v="isolated_dwelling" />
		<tag k="ssr:stedsnr" v="246095" />
	</node>
	<node lat="59.59943611052214" lon="10.193858339086349" id="-19936">
		<tag k="alt_name" v="Tandberg" />
		<tag k="name" v="Tannberg" />
		<tag k="place" v="farm" />
		<tag k="ssr:stedsnr" v="246096" />
	</node>
	<node lat="59.60080041110126" lon="10.172431042896674" id="-19937">
		<tag k="alt_name" v="Verdal, øvre;Vardal nordre" />
		<tag k="name" v="Øvre Verdal" />
		<tag k="place" v="farm" />
		<tag k="ssr:stedsnr" v="246097" />
	</node>
	<node lat="59.59778992707425" lon="10.287551427304098" id="-19938">
		<tag k="alt_name" v="Sjølsetra" />
		<tag k="name" v="Skjølsetra" />
		<tag k="place" v="isolated_dwelling" />
		<tag k="ssr:stedsnr" v="246100" />
	</node>
	<node lat="59.63255000205657" lon="10.23951111354696" id="-19939">
		<tag k="alt_name" v="Lærum mellom" />
		<tag k="name" v="Lærum" />
		<tag k="place" v="farm" />
		<tag k="ssr:stedsnr" v="246164" />
	</node>
	<node lat="59.63430389741569" lon="10.260357992987228" id="-19940">
		<tag k="name" v="Lundeby" />
		<tag k="place" v="farm" />
		<tag k="ssr:stedsnr" v="89903" />
	</node>
	<node lat="59.613355557112065" lon="10.204399995822438" id="-19942">
		<tag k="name" v="Dalsrud" />
		<tag k="place" v="locality" />
		<tag k="ssr:stedsnr" v="89907" />
	</node>
	<node lat="59.6145333335203" lon="10.20156111133918" id="-19943">
		<tag k="name" v="Granheim" />
		<tag k="place" v="farm" />
		<tag k="ssr:stedsnr" v="89909" />
	</node>
	<node lat="59.51306458642869" lon="10.181697986262837" id="-19947">
		<tag k="alt_name" v="Hillestad høye" />
		<tag k="fixme" v="consider place=hamlet" />
		<tag k="name" v="Hillestad" />
		<tag k="place" v="farm" />
		<tag k="ssr:stedsnr" v="246979" />
	</node>
	<node lat="59.619213891591905" lon="10.20995277907663" id="-19952">
		<tag k="name" v="Ruud nordre" />
		<tag k="place" v="farm" />
		<tag k="ssr:stedsnr" v="116238" />
	</node>
	<node lat="59.46624999813258" lon="10.079558339930935" id="-19953">
		<tag k="name" v="Plassen" />
		<tag k="place" v="farm" />
		<tag k="ssr:stedsnr" v="123117" />
	</node>
	<node lat="59.46664185780526" lon="10.292225280591556" id="-19954">
		<tag k="fixme" v="consider place=hamlet" />
		<tag k="name" v="Tverrdal" />
		<tag k="place" v="farm" />
		<tag k="ssr:stedsnr" v="123121" />
	</node>
	<node lat="59.582024999416014" lon="10.276947226008895" id="-19955">
		<tag k="name" v="Torget" />
		<tag k="place" v="isolated_dwelling" />
		<tag k="ssr:stedsnr" v="124006" />
	</node>
	<node lat="59.58044489368382" lon="10.095872634319795" id="-19957">
		<tag k="alt_name" v="Rivelsrud" />
		<tag k="fixme" v="consider place=hamlet" />
		<tag k="name" v="Ruelsrud" />
		<tag k="place" v="farm" />
		<tag k="ssr:stedsnr" v="124008" />
	</node>
	<node lat="59.59202777688941" lon="10.191655552472064" id="-19958">
		<tag k="alt_name" v="Dye" />
		<tag k="name" v="Dyet" />
		<tag k="place" v="farm" />
		<tag k="ssr:stedsnr" v="124023" />
	</node>
	<node lat="59.60638323194702" lon="10.203841819697125" id="-19960">
		<tag k="alt_name" v="Ås østre" />
		<tag k="name" v="Ås" />
		<tag k="place" v="hamlet" />
		<tag k="ssr:stedsnr" v="124103" />
	</node>
	<node lat="59.46372500119967" lon="10.342641672297516" id="-19961">
		<tag k="alt_name" v="Reggestad nordre" />
		<tag k="name" v="Reggestad" />
		<tag k="place" v="farm" />
		<tag k="ssr:stedsnr" v="124107" />
	</node>
	<node lat="59.65657515663695" lon="10.250012172054054" id="-19962">
		<tag k="name" v="Rinden" />
		<tag k="place" v="farm" />
		<tag k="ssr:stedsnr" v="124114" />
	</node>
	<node lat="59.65283758278553" lon="10.211802754275668" id="-19963">
		<tag k="fixme" v="consider place=hamlet" />
		<tag k="name" v="Øye" />
		<tag k="place" v="farm" />
		<tag k="ssr:stedsnr" v="124117" />
	</node>
	<node lat="59.641946523319184" lon="10.204581135566873" id="-19964">
		<tag k="fixme" v="consider place=hamlet" />
		<tag k="name" v="Gåserud" />
		<tag k="place" v="farm" />
		<tag k="ssr:stedsnr" v="124161" />
	</node>
	<node lat="59.643575003568714" lon="10.143575003530083" id="-19965">
		<tag k="name" v="Kopstadseter" />
		<tag k="place" v="isolated_dwelling" />
		<tag k="ssr:stedsnr" v="124162" />
	</node>
	<node lat="59.567099999392596" lon="10.023580557943461" id="-19968">
		<tag k="name" v="Nordbysetra" />
		<tag k="place" v="isolated_dwelling" />
		<tag k="ssr:stedsnr" v="124054" />
	</node>
	<node lat="59.57430555565729" lon="10.274972223565472" id="-19969">
		<tag k="name" v="Solberg" />
		<tag k="place" v="farm" />
		<tag k="ssr:stedsnr" v="124055" />
	</node>
	<node lat="59.53417489257643" lon="10.109863081133767" id="-19973">
		<tag k="fixme" v="consider place=hamlet" />
		<tag k="name" v="Haugestad" />
		<tag k="place" v="farm" />
		<tag k="ssr:stedsnr" v="124871" />
	</node>
	<node lat="59.55296345757725" lon="10.29800004097309" id="-19974">
		<tag k="alt_name" v="Bekke søndre" />
		<tag k="name" v="Bekke" />
		<tag k="place" v="hamlet" />
		<tag k="ssr:stedsnr" v="124901" />
	</node>
	<node lat="59.61593480470401" lon="10.202087346405978" id="-19975">
		<tag k="fixme" v="consider place=hamlet" />
		<tag k="name" v="Ånnerud" />
		<tag k="place" v="farm" />
		<tag k="ssr:stedsnr" v="125069" />
	</node>
	<node lat="59.61057450805969" lon="10.22234151065665" id="-19976">
		<tag k="fixme" v="consider place=hamlet" />
		<tag k="name" v="Søndre Rud" />
		<tag k="place" v="farm" />
		<tag k="ssr:stedsnr" v="125074" />
	</node>
	<node lat="59.54345555664561" lon="10.327555554345922" id="-19977">
		<tag k="name" v="Skar" />
		<tag k="place" v="farm" />
		<tag k="ssr:stedsnr" v="124917" />
	</node>
	<node lat="59.461086106802284" lon="10.280286107033294" id="-19993">
		<tag k="name" v="Kvån nordre" />
		<tag k="place" v="farm" />
		<tag k="ssr:stedsnr" v="148804" />
	</node>
	<node lat="59.51088332950014" lon="10.203802779721448" id="-20001">
		<tag k="name" v="Grelland" />
		<tag k="place" v="farm" />
		<tag k="ssr:stedsnr" v="149533" />
	</node>
	<node lat="59.51283611251331" lon="10.219091669198496" id="-20002">
		<tag k="name" v="Holtan" />
		<tag k="place" v="farm" />
		<tag k="ssr:stedsnr" v="149534" />
	</node>
	<node lat="59.564330555871614" lon="10.066986105112717" id="-20006">
		<tag k="name" v="Stubberud" />
		<tag k="place" v="farm" />
		<tag k="ssr:stedsnr" v="149662" />
	</node>
	<node lat="59.63981111109458" lon="10.242474999033158" id="-20015">
		<tag k="name" v="Bjerke" />
		<tag k="place" v="isolated_dwelling" />
		<tag k="ssr:stedsnr" v="149960" />
	</node>
	<node lat="59.48931110786635" lon="10.316897218894777" id="-20016">
		<tag k="name" v="Thomas Bache-Gabrielsens plass" />
		<tag k="place" v="square" />
		<tag k="ssr:stedsnr" v="165770" />
	</node>
	<node lat="59.497433917044575" lon="10.271632776482576" id="-20019">
		<tag k="alt_name" v="Mellom Foss" />
		<tag k="name" v="Foss" />
		<tag k="place" v="hamlet" />
		<tag k="ssr:stedsnr" v="184038" />
	</node>
	<node lat="59.47487133234903" lon="10.313843926627738" id="-20020">
		<tag k="fixme" v="consider place=hamlet" />
		<tag k="name" v="Marienborg" />
		<tag k="place" v="farm" />
		<tag k="ssr:stedsnr" v="184084" />
	</node>
	<node lat="59.490898645191464" lon="10.24784670956082" id="-20021">
		<tag k="alt_name" v="Berg Nordre" />
		<tag k="name" v="Berg" />
		<tag k="place" v="hamlet" />
		<tag k="ssr:stedsnr" v="184001" />
	</node>
	<node lat="59.57979929546195" lon="10.228824468472098" id="-20022">
		<tag k="fixme" v="consider place=hamlet" />
		<tag k="name" v="Hersgården" />
		<tag k="place" v="farm" />
		<tag k="ssr:stedsnr" v="185004" />
	</node>
	<node lat="59.59847644793558" lon="10.061632354012657" id="-20023">
		<tag k="fixme" v="consider place=hamlet" />
		<tag k="name" v="Heierstad" />
		<tag k="place" v="farm" />
		<tag k="ssr:stedsnr" v="185106" />
	</node>
	<node lat="59.66822249577224" lon="10.246672185653415" id="-20025">
		<tag k="fixme" v="consider place=hamlet" />
		<tag k="name" v="Tuft" />
		<tag k="place" v="farm" />
		<tag k="ssr:stedsnr" v="185135" />
	</node>
	<node lat="59.59732777387931" lon="10.149263882544032" id="-20027">
		<tag k="alt_name" v="Skjørdal" />
		<tag k="name" v="Skogskroken" />
		<tag k="place" v="farm" />
		<tag k="ssr:stedsnr" v="185088" />
	</node>
	<node lat="59.60304694625344" lon="10.226723670370033" id="-20028">
		<tag k="name" v="Gran" />
		<tag k="place" v="hamlet" />
		<tag k="ssr:stedsnr" v="185093" />
	</node>
	<node lat="59.60278201008253" lon="10.02272503523318" id="-20029">
		<tag k="alt_name" v="Hesthammar, øvre" />
		<tag k="name" v="Øvre Hesthammar" />
		<tag k="place" v="farm" />
		<tag k="ssr:stedsnr" v="185098" />
	</node>
	<node lat="59.6063194459183" lon="10.017211108616541" id="-20030">
		<tag k="name" v="Hammerborg" />
		<tag k="place" v="farm" />
		<tag k="ssr:stedsnr" v="186115" />
	</node>
	<node lat="59.52588611022701" lon="10.026977770953922" id="-20032">
		<tag k="historic" v="shieling" />
		<tag k="name" v="Åkerholtsetra" />
		<tag k="place" v="isolated_dwelling" />
		<tag k="ssr:stedsnr" v="267396" />
	</node>
	<node lat="59.58701944563244" lon="9.946013891272779" id="-20035">
		<tag k="name" v="Fredly" />
		<tag k="place" v="isolated_dwelling" />
		<tag k="ssr:stedsnr" v="207414" />
	</node>
	<node lat="59.49335832937415" lon="10.08026943977578" id="-20037">
		<tag k="name" v="Nauf" />
		<tag k="place" v="farm" />
		<tag k="ssr:stedsnr" v="209043" />
	</node>
	<node lat="59.49252778121833" lon="10.177097230520898" id="-20045">
		<tag k="name" v="Hegg" />
		<tag k="place" v="farm" />
		<tag k="ssr:stedsnr" v="209630" />
	</node>
	<node lat="59.49795555869902" lon="10.1750944380149" id="-20046">
		<tag k="name" v="Hegg" />
		<tag k="place" v="farm" />
		<tag k="ssr:stedsnr" v="209632" />
	</node>
	<node lat="59.46474167005584" lon="10.086569452721964" id="-20047">
		<tag k="name" v="Åkerholt øvre" />
		<tag k="place" v="farm" />
		<tag k="ssr:stedsnr" v="209525" />
	</node>
	<node lat="59.48802500137586" lon="10.278699999553734" id="-20048">
		<tag k="name" v="Søndre Myhre" />
		<tag k="place" v="farm" />
		<tag k="ssr:stedsnr" v="209831" />
	</node>
	<node lat="59.63231666930852" lon="10.292563890105225" id="-20055">
		<tag k="name" v="Vestre Kølabonn" />
		<tag k="place" v="isolated_dwelling" />
		<tag k="ssr:stedsnr" v="210232" />
	</node>
	<node lat="59.56369999714463" lon="10.27228610531566" id="-20059">
		<tag k="alt_name" v="Selvik søndre" />
		<tag k="name" v="Søndre Selvik" />
		<tag k="place" v="farm" />
		<tag k="ssr:stedsnr" v="210266" />
	</node>
	<node lat="59.54421944508116" lon="10.087408338357491" id="-20063">
		<tag k="name" v="Stenseth" />
		<tag k="place" v="locality" />
		<tag k="ssr:stedsnr" v="210309" />
	</node>
	<node lat="59.51059722081634" lon="10.18529999323703" id="-20065">
		<tag k="name" v="Hillestad søndre" />
		<tag k="place" v="farm" />
		<tag k="ssr:stedsnr" v="210524" />
	</node>
	<node lat="59.561455552651424" lon="10.06843333781595" id="-20071">
		<tag k="name" v="Bergastua" />
		<tag k="place" v="isolated_dwelling" />
		<tag k="ssr:stedsnr" v="210692" />
	</node>
	<node lat="59.56493611417984" lon="10.075338897493793" id="-20072">
		<tag k="name" v="Lia" />
		<tag k="place" v="farm" />
		<tag k="ssr:stedsnr" v="210694" />
	</node>
	<node lat="59.57310277594145" lon="10.259730554395672" id="-20074">
		<tag k="name" v="Bjørnstad" />
		<tag k="place" v="farm" />
		<tag k="ssr:stedsnr" v="210588" />
	</node>
	<node lat="59.55663333746425" lon="10.145913891662754" id="-20076">
		<tag k="name" v="Vollen" />
		<tag k="place" v="farm" />
		<tag k="ssr:stedsnr" v="210708" />
	</node>
	<node lat="59.602308331028034" lon="10.21057777037024" id="-20079">
		<tag k="name" v="Ås østre" />
		<tag k="place" v="farm" />
		<tag k="ssr:stedsnr" v="210913" />
	</node>
	<node lat="59.605969445940374" lon="10.200477772684136" id="-20080">
		<tag k="name" v="Ås vestre" />
		<tag k="place" v="farm" />
		<tag k="ssr:stedsnr" v="210920" />
	</node>
	<node lat="59.45313055482592" lon="10.089252775986399" id="-20087">
		<tag k="name" v="Engebråten" />
		<tag k="place" v="farm" />
		<tag k="ssr:stedsnr" v="270096" />
	</node>
	<node lat="59.454202777305454" lon="10.096419437563709" id="-20088">
		<tag k="name" v="Åsnes" />
		<tag k="place" v="farm" />
		<tag k="ssr:stedsnr" v="270101" />
	</node>
	<node lat="59.50581389228932" lon="10.07798056254136" id="-20091">
		<tag k="name" v="Søndre Haslestad" />
		<tag k="place" v="farm" />
		<tag k="ssr:stedsnr" v="270038" />
	</node>
	<node lat="59.46456944611991" lon="10.240375004105875" id="-20099">
		<tag k="name" v="Greaker vestre" />
		<tag k="place" v="farm" />
		<tag k="ssr:stedsnr" v="270550" />
	</node>
	<node lat="59.50351944018515" lon="10.183955551251948" id="-20100">
		<tag k="name" v="Broberg" />
		<tag k="place" v="farm" />
		<tag k="ssr:stedsnr" v="270635" />
	</node>
	<node lat="59.48391944762515" lon="10.299102773184215" id="-20102">
		<tag k="leisure" v="pitch" />
		<tag k="name" v="Hvitstein stadion" />
		<tag k="ssr:stedsnr" v="270838" />
	</node>
	<node lat="59.47082500084806" lon="10.318572216750386" id="-20103">
		<tag k="name" v="Norsk Titanduk" />
		<tag k="place" v="quarter" />
		<tag k="ssr:stedsnr" v="270840" />
	</node>
	<node lat="59.50051666770763" lon="10.267738895990176" id="-20107">
		<tag k="name" v="Hagan" />
		<tag k="place" v="isolated_dwelling" />
		<tag k="ssr:stedsnr" v="270820" />
	</node>
	<node lat="59.532236115443816" lon="10.371558329914544" id="-20109">
		<tag k="name" v="Sandviken" />
		<tag k="place" v="farm" />
		<tag k="ssr:stedsnr" v="271023" />
	</node>
	<node lat="59.53532777481559" lon="10.327750001212685" id="-20113">
		<tag k="name" v="Gyltesø" />
		<tag k="place" v="farm" />
		<tag k="ssr:stedsnr" v="271057" />
	</node>
	<node lat="59.54111666933054" lon="10.355972225446846" id="-20114">
		<tag k="name" v="Flåbekk" />
		<tag k="place" v="farm" />
		<tag k="ssr:stedsnr" v="271093" />
	</node>
	<node lat="59.55360277935498" lon="10.291894446323269" id="-20116">
		<tag k="name" v="Bekke vestre" />
		<tag k="place" v="farm" />
		<tag k="ssr:stedsnr" v="271270" />
	</node>
	<node lat="59.58945555516036" lon="10.119547224976252" id="-20119">
		<tag k="historic" v="shieling" />
		<tag k="name" v="Hafsrud-seter" />
		<tag k="place" v="isolated_dwelling" />
		<tag k="ssr:stedsnr" v="271390" />
	</node>
	<node lat="59.54840000119807" lon="10.076708333926684" id="-20122">
		<tag k="name" v="Fjell" />
		<tag k="place" v="farm" />
		<tag k="ssr:stedsnr" v="271337" />
	</node>
	<node lat="59.53529444388487" lon="10.106330561233658" id="-20123">
		<tag k="name" v="Haugestad" />
		<tag k="place" v="farm" />
		<tag k="ssr:stedsnr" v="271428" />
	</node>
	<node lat="59.51343333616127" lon="10.229963885357975" id="-20133">
		<tag k="name" v="Høgåshytta" />
		<tag k="place" v="isolated_dwelling" />
		<tag k="ssr:stedsnr" v="271597" />
	</node>
	<node lat="59.509922223576844" lon="10.213244449123696" id="-20134">
		<tag k="name" v="Island" />
		<tag k="place" v="farm" />
		<tag k="ssr:stedsnr" v="271599" />
	</node>
	<node lat="59.63431667054451" lon="10.210774997831544" id="-20135">
		<tag k="name" v="Bjørge nordre" />
		<tag k="place" v="farm" />
		<tag k="ssr:stedsnr" v="271675" />
	</node>
	<node lat="59.56878333234618" lon="10.259686117710359" id="-20138">
		<tag k="name" v="Brekke" />
		<tag k="place" v="farm" />
		<tag k="ssr:stedsnr" v="271642" />
	</node>
	<node lat="59.55922262653052" lon="10.143798554458108" id="-20140">
		<tag k="name" v="Løvås" />
		<tag k="old_name" v="Løvas" />
		<tag k="place" v="farm" />
		<tag k="ssr:stedsnr" v="271732" />
	</node>
	<node lat="59.6201609492882" lon="10.214987864194542" id="-20142">
		<tag k="fixme" v="consider place=hamlet" />
		<tag k="name" v="Galleberg" />
		<tag k="place" v="farm" />
		<tag k="ssr:stedsnr" v="271685" />
	</node>
	<node lat="59.56687499662899" lon="10.063500000948865" id="-20144">
		<tag k="name" v="Fredheim" />
		<tag k="place" v="farm" />
		<tag k="ssr:stedsnr" v="271699" />
	</node>
	<node lat="59.565895446473114" lon="10.065300717479932" id="-20145">
		<tag k="name" v="Sommerrud" />
		<tag k="place" v="farm" />
		<tag k="ssr:stedsnr" v="271701" />
	</node>
	<node lat="59.56352499908725" lon="10.067697226221112" id="-20146">
		<tag k="name" v="Fjellvang" />
		<tag k="place" v="farm" />
		<tag k="ssr:stedsnr" v="271718" />
	</node>
	<node lat="59.56253889122803" lon="10.187691673827922" id="-20155">
		<tag k="name" v="Stokkestua" />
		<tag k="place" v="isolated_dwelling" />
		<tag k="ssr:stedsnr" v="449339" />
	</node>
	<node lat="59.50256389308792" lon="10.104597222933856" id="-20164">
		<tag k="name" v="Grennesrønningen" />
		<tag k="place" v="farm" />
		<tag k="ssr:stedsnr" v="452050" />
	</node>
	<node lat="59.46733153343369" lon="10.311663608034976" id="-20166">
		<tag k="fixme" v="consider place=hamlet" />
		<tag k="name" v="Solum" />
		<tag k="place" v="farm" />
		<tag k="ssr:stedsnr" v="245107" />
	</node>
	<node lat="59.4645200730333" lon="10.308284736809334" id="-20167">
		<tag k="fixme" v="consider place=hamlet" />
		<tag k="name" v="Allum" />
		<tag k="place" v="farm" />
		<tag k="ssr:stedsnr" v="245108" />
	</node>
	<node lat="59.457900003620445" lon="10.262105554831352" id="-20168">
		<tag k="alt_name" v="Rød, s;Rød;Rød søndre" />
		<tag k="name" v="Søndre Rød" />
		<tag k="place" v="farm" />
		<tag k="ssr:stedsnr" v="245110" />
	</node>
	<node lat="59.57938610770312" lon="10.06524165848178" id="-20169">
		<tag k="name" v="Øya" />
		<tag k="place" v="farm" />
		<tag k="ssr:stedsnr" v="246012" />
	</node>
	<node lat="59.575150458072216" lon="10.085869773486046" id="-20170">
		<tag k="fixme" v="consider place=hamlet" />
		<tag k="name" v="Haugerud" />
		<tag k="place" v="farm" />
		<tag k="ssr:stedsnr" v="246014" />
	</node>
	<node lat="59.51348205563149" lon="10.114000581010265" id="-20172">
		<tag k="fixme" v="consider place=hamlet" />
		<tag k="name" v="Hallerud" />
		<tag k="place" v="farm" />
		<tag k="ssr:stedsnr" v="245969" />
	</node>
	<node lat="59.508887512245906" lon="10.07886193151948" id="-20173">
		<tag k="alt_name" v="Haslestad N." />
		<tag k="name" v="Haslestad" />
		<tag k="place" v="hamlet" />
		<tag k="ssr:stedsnr" v="245972" />
	</node>
	<node lat="59.60935207367777" lon="10.17408788249668" id="-20174">
		<tag k="fixme" v="consider place=hamlet" />
		<tag k="name" v="Solberg" />
		<tag k="place" v="farm" />
		<tag k="ssr:stedsnr" v="246111" />
	</node>
	<node lat="59.60886576060675" lon="10.243060602585782" id="-20176">
		<tag k="fixme" v="consider place=hamlet" />
		<tag k="name" v="Aunes" />
		<tag k="place" v="farm" />
		<tag k="ssr:stedsnr" v="246116" />
	</node>
	<node lat="59.60587500257572" lon="10.239644445850292" id="-20177">
		<tag k="alt_name" v="Veberg nordre" />
		<tag k="name" v="Veberg" />
		<tag k="place" v="farm" />
		<tag k="ssr:stedsnr" v="246119" />
	</node>
	<node lat="59.54101388971793" lon="10.201908335148838" id="-20184">
		<tag k="name" v="Markussetra" />
		<tag k="place" v="isolated_dwelling" />
		<tag k="ssr:stedsnr" v="246917" />
	</node>
	<node lat="59.54950555163697" lon="10.114166661653165" id="-20186">
		<tag k="name" v="Oreberg" />
		<tag k="place" v="farm" />
		<tag k="ssr:stedsnr" v="246924" />
	</node>
	<node lat="59.52650443739538" lon="10.27885597415435" id="-20188">
		<tag k="fixme" v="consider place=hamlet" />
		<tag k="name" v="Smørstein" />
		<tag k="place" v="farm" />
		<tag k="ssr:stedsnr" v="246870" />
	</node>
	<node lat="59.51812398762419" lon="10.064958302948979" id="-20189">
		<tag k="alt_name" v="Lian, vestre" />
		<tag k="name" v="Vestre Lian" />
		<tag k="place" v="farm" />
		<tag k="ssr:stedsnr" v="246880" />
	</node>
	<node lat="59.46360000061263" lon="10.245224991604388" id="-20191">
		<tag k="name" v="Greaker søndre" />
		<tag k="place" v="farm" />
		<tag k="ssr:stedsnr" v="452559" />
	</node>
	<node lat="59.567766667906554" lon="10.00267778185523" id="-20212">
		<tag k="name" v="Bokkemyrstua" />
		<tag k="place" v="isolated_dwelling" />
		<tag k="ssr:stedsnr" v="453341" />
	</node>
	<node lat="59.53302222274548" lon="10.239247224447226" id="-20215">
		<tag k="fixme" v="consider tourism=alpine_hut or tourism=chalet" />
		<tag k="name" v="Brannåsen turisthytte" />
		<tag k="ssr:stedsnr" v="453496" />
		<tag k="tourism" v="wilderness_hut" />
	</node>
	<node lat="59.53495000391546" lon="10.233066662466955" id="-20219">
		<tag k="name" v="Slettaseter" />
		<tag k="place" v="isolated_dwelling" />
		<tag k="ssr:stedsnr" v="453538" />
	</node>
	<node lat="59.523947218193506" lon="10.251024991179161" id="-20221">
		<tag k="name" v="Solberghytta" />
		<tag k="place" v="isolated_dwelling" />
		<tag k="ssr:stedsnr" v="453555" />
	</node>
	<node lat="59.515886109096414" lon="10.213213880707638" id="-20222">
		<tag k="name" v="Lagården" />
		<tag k="place" v="farm" />
		<tag k="ssr:stedsnr" v="453558" />
	</node>
	<node lat="59.57444166849786" lon="10.190488889495922" id="-20229">
		<tag k="name" v="Granheim" />
		<tag k="place" v="farm" />
		<tag k="ssr:stedsnr" v="453583" />
	</node>
	<node lat="59.53946666490443" lon="10.164572221074174" id="-20235">
		<tag k="name" v="Haga" />
		<tag k="place" v="farm" />
		<tag k="ssr:stedsnr" v="453758" />
	</node>
	<node lat="59.62035555256716" lon="10.236369438353671" id="-20237">
		<tag k="name" v="Lærum østre" />
		<tag k="place" v="farm" />
		<tag k="ssr:stedsnr" v="453645" />
	</node>
	<node lat="59.618947220891954" lon="10.21288888894032" id="-20238">
		<tag k="name" v="Resningstad" />
		<tag k="place" v="isolated_dwelling" />
		<tag k="ssr:stedsnr" v="453648" />
	</node>
	<node lat="59.666058332630975" lon="10.201547226021525" id="-20244">
		<tag k="name" v="Granstad" />
		<tag k="place" v="farm" />
		<tag k="ssr:stedsnr" v="453926" />
	</node>
	<node lat="59.600102779585455" lon="10.24333333016031" id="-20247">
		<tag k="name" v="Veberg østre" />
		<tag k="place" v="farm" />
		<tag k="ssr:stedsnr" v="453934" />
	</node>
	<node lat="59.64514902740082" lon="10.203066054698166" id="-20250">
		<tag k="fixme" v="consider place=hamlet" />
		<tag k="name" v="Klevjer" />
		<tag k="place" v="farm" />
		<tag k="ssr:stedsnr" v="267345" />
	</node>
	<node lat="59.64848333071264" lon="10.203688886463896" id="-20251">
		<tag k="name" v="Toppenhaug" />
		<tag k="place" v="farm" />
		<tag k="ssr:stedsnr" v="267346" />
	</node>
	<node lat="59.49125833284655" lon="10.072144446118202" id="-20256">
		<tag k="name" v="Midtre Nauf" />
		<tag k="place" v="farm" />
		<tag k="ssr:stedsnr" v="270028" />
	</node>
	<node lat="59.49738055189817" lon="10.237425005845623" id="-20264">
		<tag k="name" v="Østre Bringaker" />
		<tag k="place" v="farm" />
		<tag k="ssr:stedsnr" v="270596" />
	</node>
	<node lat="59.47655000028341" lon="10.179819442346949" id="-20265">
		<tag k="name" v="Barkost" />
		<tag k="place" v="farm" />
		<tag k="ssr:stedsnr" v="270705" />
	</node>
	<node lat="59.47489722431396" lon="10.346663892050174" id="-20269">
		<tag k="name" v="Gamle-Verven" />
		<tag k="place" v="isolated_dwelling" />
		<tag k="ssr:stedsnr" v="270915" />
	</node>
	<node lat="59.62999999768268" lon="10.319702769171204" id="-20270">
		<tag k="historic" v="shieling" />
		<tag k="name" v="Eikelundseter" />
		<tag k="place" v="isolated_dwelling" />
		<tag k="ssr:stedsnr" v="271232" />
	</node>
	<node lat="59.53802778032215" lon="10.059208337699602" id="-20274">
		<tag k="name" v="Enga" />
		<tag k="place" v="farm" />
		<tag k="ssr:stedsnr" v="271309" />
	</node>
	<node lat="59.57690555955787" lon="10.089141659514706" id="-20281">
		<tag k="name" v="Ekeberg" />
		<tag k="place" v="farm" />
		<tag k="ssr:stedsnr" v="271409" />
	</node>
	<node lat="59.65492222348358" lon="10.228038896321477" id="-20288">
		<tag k="name" v="Bergsenga" />
		<tag k="place" v="farm" />
		<tag k="ssr:stedsnr" v="271975" />
	</node>
	<node lat="59.608738890353656" lon="10.165527780491725" id="-20290">
		<tag k="name" v="Rud vestre" />
		<tag k="place" v="farm" />
		<tag k="ssr:stedsnr" v="271928" />
	</node>
	<node lat="59.59875556005898" lon="10.20017499154722" id="-20291">
		<tag k="name" v="Underås" />
		<tag k="place" v="farm" />
		<tag k="ssr:stedsnr" v="271930" />
	</node>
	<node lat="59.54343611493786" lon="10.247900005540973" id="-20294">
		<tag k="name" v="Skjervik" />
		<tag k="place" v="farm" />
		<tag k="ssr:stedsnr" v="303838" />
	</node>
	<node lat="59.58249058683002" lon="10.042222896815026" id="-20296">
		<tag k="name" v="Askim" />
		<tag k="place" v="isolated_dwelling" />
		<tag k="ssr:stedsnr" v="306012" />
	</node>
	<node lat="59.568856374876894" lon="10.113010840971745" id="-20302">
		<tag k="fixme" v="consider place=hamlet" />
		<tag k="name" v="Herstad" />
		<tag k="place" v="farm" />
		<tag k="ssr:stedsnr" v="306069" />
	</node>
	<node lat="59.4698036346431" lon="10.296443142483799" id="-20303">
		<tag k="fixme" v="consider place=hamlet" />
		<tag k="name" v="Skjeggestad" />
		<tag k="place" v="farm" />
		<tag k="ssr:stedsnr" v="306104" />
	</node>
	<node lat="59.4633361124793" lon="10.2589194357968" id="-20304">
		<tag k="alt_name" v="Rød, nordre" />
		<tag k="name" v="Nordre Rød" />
		<tag k="place" v="farm" />
		<tag k="ssr:stedsnr" v="306110" />
	</node>
	<node lat="59.53004999894405" lon="10.17220277450368" id="-20306">
		<tag k="alt_name" v="Løken nordre" />
		<tag k="name" v="Løken" />
		<tag k="place" v="farm" />
		<tag k="ssr:stedsnr" v="306908" />
	</node>
	<node lat="59.54850277894965" lon="10.031175005737113" id="-20307">
		<tag k="name" v="Nedre Lindsetseter" />
		<tag k="place" v="isolated_dwelling" />
		<tag k="ssr:stedsnr" v="306909" />
	</node>
	<node lat="59.55177777952776" lon="10.31214165876276" id="-20308">
		<tag k="alt_name" v="Bekke, store" />
		<tag k="name" v="Store Bekke" />
		<tag k="place" v="farm" />
		<tag k="ssr:stedsnr" v="306911" />
	</node>
	<node lat="59.55690000346658" lon="10.285636113706689" id="-20309">
		<tag k="name" v="Killingdalen" />
		<tag k="place" v="farm" />
		<tag k="ssr:stedsnr" v="306915" />
	</node>
	<node lat="59.55158888466826" lon="10.233038895209827" id="-20310">
		<tag k="fixme" v="consider place=hamlet" />
		<tag k="name" v="Skjervik" />
		<tag k="place" v="farm" />
		<tag k="ssr:stedsnr" v="306916" />
	</node>
	<node lat="59.54912235966941" lon="10.239276827494775" id="-20311">
		<tag k="alt_name" v="Berg ytre" />
		<tag k="fixme" v="consider place=hamlet" />
		<tag k="name" v="Berg" />
		<tag k="place" v="farm" />
		<tag k="ssr:stedsnr" v="306917" />
	</node>
	<node lat="59.62277777758647" lon="10.219177783752981" id="-20315">
		<tag k="fixme" v="consider place=hamlet" />
		<tag k="name" v="Galleberg" />
		<tag k="place" v="village" />
		<tag k="ssr:stedsnr" v="327563" />
	</node>
	<node lat="59.57538611345216" lon="9.951222228357622" id="-20318">
		<tag k="name" v="Øksnestua" />
		<tag k="place" v="isolated_dwelling" />
		<tag k="ssr:stedsnr" v="328422" />
	</node>
	<node lat="59.49796666702627" lon="10.07909444287383" id="-20323">
		<tag k="name" v="Hostvedt øvre" />
		<tag k="place" v="farm" />
		<tag k="ssr:stedsnr" v="330065" />
	</node>
	<node lat="59.49059722533759" lon="10.081200007242014" id="-20324">
		<tag k="name" v="Solberg" />
		<tag k="place" v="farm" />
		<tag k="ssr:stedsnr" v="330066" />
	</node>
	<node lat="59.47222221823048" lon="10.067977771081152" id="-20328">
		<tag k="name" v="Lofsberghytta" />
		<tag k="place" v="isolated_dwelling" />
		<tag k="ssr:stedsnr" v="330496" />
	</node>
	<node lat="59.541280551210285" lon="10.067763892647502" id="-20339">
		<tag k="name" v="Skau" />
		<tag k="place" v="isolated_dwelling" />
		<tag k="ssr:stedsnr" v="331292" />
	</node>
	<node lat="59.54177222224601" lon="10.095061103410075" id="-20340">
		<tag k="name" v="Vike" />
		<tag k="place" v="farm" />
		<tag k="ssr:stedsnr" v="331294" />
	</node>
	<node lat="59.52701666830454" lon="10.172222229357862" id="-20344">
		<tag k="name" v="Løken" />
		<tag k="place" v="farm" />
		<tag k="ssr:stedsnr" v="331512" />
	</node>
	<node lat="59.59289721784844" lon="10.229691668117889" id="-20345">
		<tag k="name" v="Simenstad øvre" />
		<tag k="place" v="farm" />
		<tag k="ssr:stedsnr" v="331559" />
	</node>
	<node lat="59.535927778825744" lon="10.0074805498856" id="-20352">
		<tag k="historic" v="shieling" />
		<tag k="name" v="Søndre Sundbyseterstulen" />
		<tag k="place" v="isolated_dwelling" />
		<tag k="ssr:stedsnr" v="331499" />
	</node>
	<node lat="59.47990278161225" lon="10.095108336286621" id="-20353">
		<tag k="name" v="Tretteholmen" />
		<tag k="place" v="farm" />
		<tag k="ssr:stedsnr" v="331501" />
	</node>
	<node lat="59.55485833399261" lon="10.229008337504306" id="-20354">
		<tag k="name" v="Solheim" />
		<tag k="place" v="farm" />
		<tag k="ssr:stedsnr" v="331602" />
	</node>
	<node lat="59.50663888830507" lon="10.18132500535629" id="-20358">
		<tag k="name" v="Neshaugen" />
		<tag k="place" v="farm" />
		<tag k="ssr:stedsnr" v="331619" />
	</node>
	<node lat="59.505927774704766" lon="10.179052784665974" id="-20361">
		<tag k="name" v="Løvheim" />
		<tag k="place" v="farm" />
		<tag k="ssr:stedsnr" v="331622" />
	</node>
	<node lat="59.50181944227085" lon="10.185486108059882" id="-20362">
		<tag k="fixme" v="consider place=hamlet" />
		<tag k="name" v="Sperte" />
		<tag k="place" v="farm" />
		<tag k="ssr:stedsnr" v="331623" />
	</node>
	<node lat="59.63674166889274" lon="10.213500007781251" id="-20363">
		<tag k="name" v="Bjørge søndre" />
		<tag k="place" v="farm" />
		<tag k="ssr:stedsnr" v="331624" />
	</node>
	<node lat="59.61118889176416" lon="10.232947215853349" id="-20372">
		<tag k="name" v="Fostvedt" />
		<tag k="place" v="farm" />
		<tag k="ssr:stedsnr" v="271952" />
	</node>
	<node lat="59.66252098454035" lon="10.222947022239016" id="-20378">
		<tag k="fixme" v="consider place=hamlet" />
		<tag k="name" v="Grimsrud" />
		<tag k="place" v="farm" />
		<tag k="ssr:stedsnr" v="367129" />
	</node>
	<node lat="59.56433917761275" lon="10.224843397745063" id="-20379">
		<tag k="alt_name" v="Ve søndre" />
		<tag k="name" v="Ve" />
		<tag k="place" v="hamlet" />
		<tag k="ssr:stedsnr" v="367030" />
	</node>
	<node lat="59.56301346142526" lon="10.211909463330292" id="-20380">
		<tag k="fixme" v="consider place=hamlet" />
		<tag k="name" v="Oreberg" />
		<tag k="place" v="farm" />
		<tag k="ssr:stedsnr" v="367032" />
	</node>
	<node lat="59.59708723643192" lon="10.2124129502094" id="-20381">
		<tag k="alt_name" v="Gunnestad søndre" />
		<tag k="name" v="Gunnestad" />
		<tag k="place" v="hamlet" />
		<tag k="ssr:stedsnr" v="367087" />
	</node>
	<node lat="59.59796756150411" lon="10.069380833556746" id="-20382">
		<tag k="alt_name" v="Berg øvre" />
		<tag k="fixme" v="consider place=hamlet" />
		<tag k="name" v="Berg" />
		<tag k="place" v="farm" />
		<tag k="ssr:stedsnr" v="367090" />
	</node>
	<node lat="59.64728889096021" lon="10.256022227026229" id="-20383">
		<tag k="name" v="Verket" />
		<tag k="place" v="farm" />
		<tag k="ssr:stedsnr" v="271965" />
	</node>
	<node lat="59.64899444437658" lon="10.258574995100217" id="-20384">
		<tag k="name" v="Lia" />
		<tag k="place" v="farm" />
		<tag k="ssr:stedsnr" v="271966" />
	</node>
	<node lat="59.620063188089745" lon="10.226555260814637" id="-20386">
		<tag k="name" v="Ryggetangen" />
		<tag k="place" v="hamlet" />
		<tag k="ssr:stedsnr" v="368083" />
	</node>
	<node lat="59.583301346142406" lon="10.224968424217643" id="-20387">
		<tag k="name" v="Ekebo" />
		<tag k="place" v="farm" />
		<tag k="ssr:stedsnr" v="481860" />
	</node>
	<node lat="59.56284533754709" lon="10.22919223589943" id="-20392">
		<tag k="name" v="Bergan" />
		<tag k="place" v="farm" />
		<tag k="ssr:stedsnr" v="388995" />
	</node>
	<node lat="59.50016388801542" lon="10.06809722834881" id="-20393">
		<tag k="name" v="Leikås" />
		<tag k="place" v="farm" />
		<tag k="ssr:stedsnr" v="391044" />
	</node>
	<node lat="59.472491667580215" lon="10.243511119771211" id="-20394">
		<tag k="name" v="Greaker nordre" />
		<tag k="place" v="farm" />
		<tag k="ssr:stedsnr" v="391714" />
	</node>
	<node lat="59.48155833660116" lon="10.067927774708556" id="-20397">
		<tag k="name" v="Mellomgranseter" />
		<tag k="place" v="isolated_dwelling" />
		<tag k="ssr:stedsnr" v="391491" />
	</node>
	<node lat="59.44855555432052" lon="10.371991663922126" id="-20402">
		<tag k="name" v="Valstad" />
		<tag k="place" v="farm" />
		<tag k="ssr:stedsnr" v="391895" />
	</node>
	<node lat="59.514683332328644" lon="10.29121666047979" id="-20404">
		<tag k="name" v="Hasselbakken" />
		<tag k="place" v="farm" />
		<tag k="ssr:stedsnr" v="392033" />
	</node>
	<node lat="59.53887444970799" lon="10.33897420661685" id="-20405">
		<tag k="name" v="Veberg" />
		<tag k="place" v="farm" />
		<tag k="ssr:stedsnr" v="392088" />
	</node>
	<node lat="59.536586114370174" lon="10.065077776521669" id="-20416">
		<tag k="name" v="Lindset V" />
		<tag k="place" v="farm" />
		<tag k="ssr:stedsnr" v="392287" />
	</node>
	<node lat="59.53202222017126" lon="10.093427778850755" id="-20417">
		<tag k="name" v="Kolstad søndre" />
		<tag k="place" v="farm" />
		<tag k="ssr:stedsnr" v="392294" />
	</node>
	<node lat="59.54812500073616" lon="10.126458339474334" id="-20418">
		<tag k="name" v="Ravnås" />
		<tag k="place" v="farm" />
		<tag k="ssr:stedsnr" v="392296" />
	</node>
	<node lat="59.53579444016997" lon="10.122480551026474" id="-20419">
		<tag k="name" v="Kammelrød øvre" />
		<tag k="place" v="farm" />
		<tag k="ssr:stedsnr" v="392405" />
	</node>
	<node lat="59.525075002114605" lon="10.246400000213367" id="-20422">
		<tag k="historic" v="shieling" />
		<tag k="name" v="Østre Liseter" />
		<tag k="place" v="isolated_dwelling" />
		<tag k="ssr:stedsnr" v="392595" />
	</node>
	<node lat="59.56529999901088" lon="10.062202777829931" id="-20424">
		<tag k="name" v="Vestheim" />
		<tag k="place" v="farm" />
		<tag k="ssr:stedsnr" v="392704" />
	</node>
	<node lat="59.6205055570019" lon="10.221191659986118" id="-20432">
		<tag k="name" v="Galleberg" />
		<tag k="place" v="farm" />
		<tag k="ssr:stedsnr" v="392685" />
	</node>
	<node lat="59.62681944840073" lon="10.211080558700987" id="-20433">
		<tag k="name" v="Myre" />
		<tag k="place" v="farm" />
		<tag k="ssr:stedsnr" v="392687" />
	</node>
	<node lat="59.60849444794741" lon="10.205466670035747" id="-20435">
		<tag k="name" v="Lindås" />
		<tag k="place" v="farm" />
		<tag k="ssr:stedsnr" v="392931" />
	</node>
	<node lat="59.49641701304873" lon="10.291988470879293" id="-20439">
		<tag k="alt_name" v="Sommerro" />
		<tag k="fixme" v="consider place=hamlet" />
		<tag k="name" v="Sommero" />
		<tag k="place" v="farm" />
		<tag k="ssr:stedsnr" v="487046" />
	</node>
	<node lat="59.49829400128619" lon="10.231296379085313" id="-20440">
		<tag k="name" v="Bringåker" />
		<tag k="place" v="hamlet" />
		<tag k="ssr:stedsnr" v="487050" />
	</node>
	<node lat="59.48100261039093" lon="10.246388022738957" id="-20449">
		<tag k="alt_name" v="Løvald østre" />
		<tag k="name" v="Løvall" />
		<tag k="place" v="farm" />
		<tag k="ssr:stedsnr" v="488014" />
	</node>
	<node lat="59.4857813936856" lon="10.149869412150947" id="-20451">
		<tag k="name" v="Skarrbo" />
		<tag k="place" v="hamlet" />
		<tag k="ssr:stedsnr" v="488021" />
	</node>
	<node lat="59.47990658118941" lon="10.162537340549704" id="-20452">
		<tag k="fixme" v="consider place=hamlet" />
		<tag k="name" v="Holm" />
		<tag k="place" v="farm" />
		<tag k="ssr:stedsnr" v="488023" />
	</node>
	<node lat="59.590727779455754" lon="10.088149998358587" id="-20453">
		<tag k="alt_name" v="Sagastua" />
		<tag k="name" v="Saga" />
		<tag k="place" v="isolated_dwelling" />
		<tag k="ssr:stedsnr" v="488024" />
	</node>
	<node lat="59.58989026007456" lon="10.177683906128156" id="-20454">
		<tag k="alt_name" v="Bonden øvre" />
		<tag k="name" v="Bondi" />
		<tag k="place" v="hamlet" />
		<tag k="ssr:stedsnr" v="488028" />
	</node>
	<node lat="59.5974832885037" lon="10.14494066567682" id="-20455">
		<tag k="fixme" v="consider place=hamlet" />
		<tag k="name" v="Skjørdal" />
		<tag k="place" v="farm" />
		<tag k="ssr:stedsnr" v="488090" />
	</node>
	<node lat="59.60227889611779" lon="10.040058699287856" id="-20456">
		<tag k="alt_name" v="Vassbonn" />
		<tag k="fixme" v="consider place=hamlet" />
		<tag k="name" v="Vassbotn" />
		<tag k="place" v="farm" />
		<tag k="ssr:stedsnr" v="488094" />
	</node>
	<node lat="59.59937222660526" lon="10.020261113654747" id="-20457">
		<tag k="name" v="Orevika" />
		<tag k="place" v="hamlet" />
		<tag k="ssr:stedsnr" v="488096" />
	</node>
	<node lat="59.66680065266841" lon="10.25224828057067" id="-20458">
		<tag k="fixme" v="consider place=hamlet" />
		<tag k="name" v="Trogstad" />
		<tag k="place" v="farm" />
		<tag k="ssr:stedsnr" v="488129" />
	</node>
	<node lat="59.664277780956155" lon="10.191866670034248" id="-20459">
		<tag k="name" v="Solli" />
		<tag k="place" v="farm" />
		<tag k="ssr:stedsnr" v="488138" />
	</node>
	<node lat="59.659315645708126" lon="10.20961121866055" id="-20460">
		<tag k="alt_name" v="Flåten søndre" />
		<tag k="name" v="Flåtan" />
		<tag k="place" v="hamlet" />
		<tag k="ssr:stedsnr" v="488140" />
	</node>
	<node lat="59.66740863486099" lon="10.230951521650553" id="-20461">
		<tag k="fixme" v="consider place=hamlet" />
		<tag k="name" v="Jonsrud" />
		<tag k="place" v="farm" />
		<tag k="ssr:stedsnr" v="488195" />
	</node>
	<node lat="59.553540167619396" lon="10.160703577963448" id="-20462">
		<tag k="name" v="Kaldåker" />
		<tag k="place" v="hamlet" />
		<tag k="ssr:stedsnr" v="488919" />
	</node>
	<node lat="59.51394444377685" lon="10.130808337813587" id="-20463">
		<tag k="name" v="Sundbyfoss" />
		<tag k="place" v="farm" />
		<tag k="ssr:stedsnr" v="488981" />
	</node>
	<node lat="59.47534518643766" lon="10.104434806807882" id="-20465">
		<tag k="name" v="Ønnemørk" />
		<tag k="place" v="hamlet" />
		<tag k="ssr:stedsnr" v="427028" />
	</node>
	<node lat="59.4852050036168" lon="10.290179475999649" id="-20466">
		<tag k="fixme" v="consider place=hamlet" />
		<tag k="name" v="Mofjøl" />
		<tag k="place" v="farm" />
		<tag k="ssr:stedsnr" v="427029" />
	</node>
	<node lat="59.50056389262021" lon="10.096513892945838" id="-20469">
		<tag k="alt_name" v="Grennes N;Grennes N." />
		<tag k="name" v="Grennes" />
		<tag k="place" v="farm" />
		<tag k="ssr:stedsnr" v="428008" />
	</node>
	<node lat="59.59149163986004" lon="10.218696703816788" id="-20471">
		<tag k="alt_name" v="Bø nordre" />
		<tag k="name" v="Bø" />
		<tag k="place" v="hamlet" />
		<tag k="ssr:stedsnr" v="428019" />
	</node>
	<node lat="59.527563885775685" lon="10.24087499615876" id="-20474">
		<tag k="name" v="Vestre Liseter" />
		<tag k="place" v="isolated_dwelling" />
		<tag k="ssr:stedsnr" v="428903" />
	</node>
	<node lat="59.55686388514241" lon="10.110622217357598" id="-20475">
		<tag k="alt_name" v="Kjennerud N" />
		<tag k="name" v="Kjennerud" />
		<tag k="place" v="farm" />
		<tag k="ssr:stedsnr" v="428916" />
	</node>
	<node lat="59.53908055478384" lon="9.987288882936687" id="-20476">
		<tag k="name" v="Hølasetra" />
		<tag k="place" v="isolated_dwelling" />
		<tag k="ssr:stedsnr" v="428920" />
	</node>
	<node lat="59.54897499600185" lon="10.21302499394575" id="-20477">
		<tag k="alt_name" v="Vessetra" />
		<tag k="name" v="Vesetra" />
		<tag k="place" v="locality" />
		<tag k="ssr:stedsnr" v="428923" />
	</node>
	<node lat="59.57492499705741" lon="10.194033332787727" id="-20480">
		<tag k="alt_name" v="Lippestad" />
		<tag k="name" v="Leppestad" />
		<tag k="place" v="farm" />
		<tag k="ssr:stedsnr" v="671057" />
	</node>
	<node lat="59.580427774193346" lon="10.241577777632436" id="-20483">
		<tag k="name" v="Østby" />
		<tag k="place" v="farm" />
		<tag k="ssr:stedsnr" v="671001" />
	</node>
	<node lat="59.62782500146524" lon="10.198274996914398" id="-20484">
		<tag k="name" v="Myre" />
		<tag k="place" v="farm" />
		<tag k="ssr:stedsnr" v="671083" />
	</node>
	<node lat="59.624644187433645" lon="10.210589111604286" id="-20486">
		<tag k="fixme" v="consider place=hamlet" />
		<tag k="name" v="Myre" />
		<tag k="place" v="farm" />
		<tag k="ssr:stedsnr" v="671085" />
	</node>
	<node lat="59.65176762596167" lon="10.222844675999054" id="-20488">
		<tag k="fixme" v="consider place=hamlet" />
		<tag k="name" v="Hole" />
		<tag k="place" v="farm" />
		<tag k="ssr:stedsnr" v="671137" />
	</node>
	<node lat="59.632680552552124" lon="10.21357222343708" id="-20492">
		<tag k="name" v="Bjørge" />
		<tag k="place" v="farm" />
		<tag k="ssr:stedsnr" v="671165" />
	</node>
	<node lat="59.49368055363279" lon="10.16502221928065" id="-20499">
		<tag k="name" v="Skoleåsen" />
		<tag k="place" v="farm" />
		<tag k="ssr:stedsnr" v="452612" />
	</node>
	<node lat="59.50808055323533" lon="10.206261117447795" id="-20500">
		<tag k="name" v="Nordli" />
		<tag k="place" v="farm" />
		<tag k="ssr:stedsnr" v="452616" />
	</node>
	<node lat="59.46332777964716" lon="10.22784722165567" id="-20503">
		<tag k="name" v="Vidskjold grustak" />
		<tag k="place" v="quarter" />
		<tag k="ssr:stedsnr" v="452564" />
	</node>
	<node lat="59.47077777520819" lon="10.302466669478079" id="-20505">
		<tag k="name" v="Bakke" />
		<tag k="place" v="farm" />
		<tag k="ssr:stedsnr" v="452867" />
	</node>
	<node lat="59.51434444101187" lon="10.283119444376563" id="-20510">
		<tag k="alt_name" v="Kleivan, nedre;Søndre Kleivan" />
		<tag k="name" v="Nedre Kleivan" />
		<tag k="place" v="farm" />
		<tag k="ssr:stedsnr" v="671980" />
	</node>
	<node lat="59.574283332595655" lon="10.27508611940818" id="-20513">
		<tag k="name" v="Mikkelsbråten" />
		<tag k="place" v="farm" />
		<tag k="ssr:stedsnr" v="453281" />
	</node>
	<node lat="59.54305277589585" lon="10.080105553336066" id="-20516">
		<tag k="name" v="Veierud" />
		<tag k="place" v="farm" />
		<tag k="ssr:stedsnr" v="453310" />
	</node>
	<node lat="59.61761944589731" lon="10.011597221612034" id="-20518">
		<tag k="name" v="Solbakken" />
		<tag k="place" v="farm" />
		<tag k="ssr:stedsnr" v="453320" />
	</node>
	<node lat="59.56026449129824" lon="10.144061654258502" id="-20524">
		<tag k="name" v="Hanevoll" />
		<tag k="place" v="farm" />
		<tag k="ssr:stedsnr" v="453676" />
	</node>
	<node lat="59.561944446251616" lon="10.13370277768149" id="-20525">
		<tag k="name" v="Nedre Tømmerås" />
		<tag k="place" v="farm" />
		<tag k="ssr:stedsnr" v="453678" />
	</node>
	<node lat="59.50873610984583" lon="10.221983329593131" id="-20526">
		<tag k="name" v="Hynnås" />
		<tag k="place" v="farm" />
		<tag k="ssr:stedsnr" v="453563" />
	</node>
	<node lat="59.54112499941233" lon="10.248680559465496" id="-20535">
		<tag k="name" v="Ødegården" />
		<tag k="place" v="farm" />
		<tag k="ssr:stedsnr" v="453777" />
	</node>
	<node lat="59.55221389273728" lon="10.23536110995213" id="-20538">
		<tag k="name" v="Skjervik" />
		<tag k="place" v="farm" />
		<tag k="ssr:stedsnr" v="485836" />
	</node>
	<node lat="59.45526638578427" lon="10.24648791186272" id="-20539">
		<tag k="fixme" v="consider place=hamlet" />
		<tag k="name" v="Kaupang" />
		<tag k="place" v="farm" />
		<tag k="ssr:stedsnr" v="487056" />
	</node>
	<node lat="59.46357778471337" lon="10.086494212452145" id="-20540">
		<tag k="name" v="Åkerholt" />
		<tag k="place" v="hamlet" />
		<tag k="ssr:stedsnr" v="488102" />
	</node>
	<node lat="59.60722777342549" lon="10.02568611293507" id="-20541">
		<tag k="name" v="Hovet" />
		<tag k="place" v="farm" />
		<tag k="ssr:stedsnr" v="488110" />
	</node>
	<node lat="59.66390196691573" lon="10.26273712156685" id="-20543">
		<tag k="fixme" v="consider place=hamlet" />
		<tag k="name" v="Rød" />
		<tag k="place" v="farm" />
		<tag k="ssr:stedsnr" v="488120" />
	</node>
	<node lat="59.579808332931975" lon="10.2235499945892" id="-20545">
		<tag k="name" v="Glypnes" />
		<tag k="place" v="farm" />
		<tag k="ssr:stedsnr" v="488002" />
	</node>
	<node lat="59.49320555462727" lon="10.080011113773416" id="-20546">
		<tag k="name" v="Solbakken" />
		<tag k="place" v="farm" />
		<tag k="ssr:stedsnr" v="488003" />
	</node>
	<node lat="59.46096105808246" lon="10.10633109736838" id="-20548">
		<tag k="alt_name" v="Berg øvre" />
		<tag k="name" v="Berg" />
		<tag k="place" v="hamlet" />
		<tag k="ssr:stedsnr" v="488101" />
	</node>
	<node lat="59.47924416107459" lon="10.090447650347297" id="-20553">
		<tag k="alt_name" v="Gran Søndre" />
		<tag k="name" v="Gran" />
		<tag k="place" v="hamlet" />
		<tag k="ssr:stedsnr" v="495661" />
	</node>
	<node lat="59.463286112213375" lon="10.353063894800055" id="-20564">
		<tag k="name" v="Snekkestad nordre" />
		<tag k="place" v="farm" />
		<tag k="ssr:stedsnr" v="512872" />
	</node>
	<node lat="59.535030553036364" lon="10.351802784000176" id="-20567">
		<tag k="name" v="Mørkassel vestre" />
		<tag k="place" v="farm" />
		<tag k="ssr:stedsnr" v="513019" />
	</node>
	<node lat="59.53081175205476" lon="10.098767520252732" id="-20576">
		<tag k="name" v="Haugestad" />
		<tag k="place" v="farm" />
		<tag k="ssr:stedsnr" v="513414" />
	</node>
	<node lat="59.59368611053615" lon="10.207572224943645" id="-20586">
		<tag k="amenity" v="townhall" />
		<tag k="name" v="Sande rådhus" />
		<tag k="ssr:stedsnr" v="513579" />
	</node>
	<node lat="59.574602778519996" lon="10.220741662365704" id="-20587">
		<tag k="name" v="Bakken" />
		<tag k="place" v="farm" />
		<tag k="ssr:stedsnr" v="513605" />
	</node>
	<node lat="59.571819445815855" lon="10.214394442883648" id="-20589">
		<tag k="name" v="Flåtastøa" />
		<tag k="place" v="locality" />
		<tag k="ssr:stedsnr" v="513619" />
	</node>
	<node lat="59.555577776212246" lon="10.057213896282077" id="-20595">
		<tag k="name" v="Vendskau" />
		<tag k="place" v="farm" />
		<tag k="ssr:stedsnr" v="513681" />
	</node>
	<node lat="59.649569442882424" lon="10.261763894152944" id="-20600">
		<tag k="name" v="Bråtan" />
		<tag k="place" v="farm" />
		<tag k="ssr:stedsnr" v="513969" />
	</node>
	<node lat="59.48575819965531" lon="10.275344331672647" id="-20601">
		<tag k="name" v="Myhrely" />
		<tag k="place" v="farm" />
		<tag k="ssr:stedsnr" v="513868" />
	</node>
	<node lat="59.46013624034306" lon="10.287852471955052" id="-20609">
		<tag k="name" v="Kvån" />
		<tag k="place" v="hamlet" />
		<tag k="ssr:stedsnr" v="548107" />
	</node>
	<node lat="59.48735653960607" lon="10.25187411901692" id="-20610">
		<tag k="alt_name" v="Guran" />
		<tag k="fixme" v="consider place=hamlet" />
		<tag k="name" v="Gurann" />
		<tag k="place" v="farm" />
		<tag k="ssr:stedsnr" v="548006" />
	</node>
	<node lat="59.495685952646774" lon="10.065026444578049" id="-20611">
		<tag k="fixme" v="consider place=hamlet" />
		<tag k="name" v="Goverud" />
		<tag k="place" v="farm" />
		<tag k="ssr:stedsnr" v="548008" />
	</node>
	<node lat="59.4616361065963" lon="10.145620591697297" id="-20614">
		<tag k="alt_name" v="Langeli M." />
		<tag k="name" v="Langeli" />
		<tag k="place" v="hamlet" />
		<tag k="ssr:stedsnr" v="548063" />
	</node>
	<node lat="59.51372720204675" lon="10.095420610964942" id="-20615">
		<tag k="name" v="Dokka" />
		<tag k="place" v="farm" />
		<tag k="ssr:stedsnr" v="548967" />
	</node>
	<node lat="59.62331917331901" lon="10.00356724808814" id="-20616">
		<tag k="fixme" v="consider place=hamlet" />
		<tag k="name" v="Torrud" />
		<tag k="place" v="farm" />
		<tag k="ssr:stedsnr" v="549103" />
	</node>
	<node lat="59.60574999966955" lon="10.201772229992555" id="-20617">
		<tag k="name" v="Veierud" />
		<tag k="place" v="farm" />
		<tag k="ssr:stedsnr" v="549127" />
	</node>
	<node lat="59.58727186909428" lon="10.065447801471588" id="-20619">
		<tag k="alt_name" v="Bjerke" />
		<tag k="fixme" v="consider place=hamlet" />
		<tag k="name" v="Bjørke" />
		<tag k="place" v="farm" />
		<tag k="ssr:stedsnr" v="549011" />
	</node>
	<node lat="59.57798055797913" lon="10.077541662575891" id="-20620">
		<tag k="name" v="Rød" />
		<tag k="place" v="farm" />
		<tag k="ssr:stedsnr" v="549016" />
	</node>
	<node lat="59.58499627793586" lon="10.078371733892958" id="-20621">
		<tag k="fixme" v="consider place=hamlet" />
		<tag k="name" v="Åsen" />
		<tag k="place" v="farm" />
		<tag k="ssr:stedsnr" v="549018" />
	</node>
	<node lat="59.56618412007755" lon="10.10026424859051" id="-20622">
		<tag k="alt_name" v="Næss søndre" />
		<tag k="name" v="Nes" />
		<tag k="place" v="hamlet" />
		<tag k="ssr:stedsnr" v="549057" />
	</node>
	<node lat="59.56013680154468" lon="10.077063984510758" id="-20623">
		<tag k="fixme" v="consider place=hamlet" />
		<tag k="name" v="Åsen" />
		<tag k="place" v="farm" />
		<tag k="ssr:stedsnr" v="549059" />
	</node>
	<node lat="59.555594826084686" lon="10.170307840244984" id="-20625">
		<tag k="alt_name" v="Kjeksrud" />
		<tag k="fixme" v="consider place=hamlet" />
		<tag k="name" v="Kjeksrød" />
		<tag k="place" v="farm" />
		<tag k="ssr:stedsnr" v="549914" />
	</node>
	<node lat="59.538665031536524" lon="10.067741186378855" id="-20626">
		<tag k="name" v="Lindset" />
		<tag k="place" v="hamlet" />
		<tag k="ssr:stedsnr" v="549920" />
	</node>
	<node lat="59.626233334303166" lon="10.200722224302758" id="-20629">
		<tag k="name" v="Ruud nordre" />
		<tag k="place" v="farm" />
		<tag k="ssr:stedsnr" v="695627" />
	</node>
	<node lat="59.50198888681031" lon="10.200319450352747" id="-20630">
		<tag k="name" v="Solberg" />
		<tag k="place" v="farm" />
		<tag k="ssr:stedsnr" v="695638" />
	</node>
	<node lat="59.56749444740509" lon="10.062027773194458" id="-20632">
		<tag k="name" v="Magnor" />
		<tag k="place" v="farm" />
		<tag k="ssr:stedsnr" v="695657" />
	</node>
	<node lat="59.57018055620241" lon="10.203488892547975" id="-20635">
		<tag k="name" v="Stokke søndre" />
		<tag k="place" v="farm" />
		<tag k="ssr:stedsnr" v="692340" />
	</node>
	<node lat="59.5303364010426" lon="10.087042098288881" id="-20641">
		<tag k="fixme" v="consider place=hamlet" />
		<tag k="name" v="Hof" />
		<tag k="place" v="village" />
		<tag k="ssr:stedsnr" v="570766" />
	</node>
	<node lat="59.63291388581257" lon="10.037247220053265" id="-20642">
		<tag k="name" v="Håkonshallen" />
		<tag k="place" v="isolated_dwelling" />
		<tag k="ssr:stedsnr" v="573313" />
	</node>
	<node lat="59.499349999677875" lon="10.160697214046762" id="-20645">
		<tag k="name" v="Heggshytta" />
		<tag k="place" v="isolated_dwelling" />
		<tag k="ssr:stedsnr" v="573601" />
	</node>
	<node lat="59.49899166920225" lon="10.196636117772183" id="-20651">
		<tag k="name" v="Vad" />
		<tag k="place" v="farm" />
		<tag k="ssr:stedsnr" v="573604" />
	</node>
	<node lat="59.6110316445848" lon="10.20001847071275" id="-20652">
		<tag k="fixme" v="consider place=hamlet" />
		<tag k="name" v="Løvald" />
		<tag k="place" v="farm" />
		<tag k="ssr:stedsnr" v="573905" />
	</node>
	<node lat="59.54086944619722" lon="10.359341661825686" id="-20654">
		<tag k="name" v="Flåbekk" />
		<tag k="old_name" v="Flåbekka" />
		<tag k="place" v="farm" />
		<tag k="ssr:stedsnr" v="574031" />
	</node>
	<node lat="59.55178888577908" lon="10.3264583326697" id="-20656">
		<tag k="name" v="Kvisle" />
		<tag k="place" v="farm" />
		<tag k="ssr:stedsnr" v="574249" />
	</node>
	<node lat="59.63262500047251" lon="9.994016670559832" id="-20658">
		<tag k="name" v="Torrud" />
		<tag k="place" v="farm" />
		<tag k="ssr:stedsnr" v="574350" />
	</node>
	<node lat="59.59292221814515" lon="10.237911110247504" id="-20660">
		<tag k="alt_name" v="Øvre Rud" />
		<tag k="name" v="Rud østre" />
		<tag k="place" v="farm" />
		<tag k="ssr:stedsnr" v="574602" />
	</node>
	<node lat="59.62065555571826" lon="10.206777780914397" id="-20662">
		<tag k="name" v="Ruud søndre" />
		<tag k="place" v="farm" />
		<tag k="ssr:stedsnr" v="574648" />
	</node>
	<node lat="59.630744443758225" lon="10.212263891648762" id="-20663">
		<tag k="name" v="Bølum nordre" />
		<tag k="place" v="farm" />
		<tag k="ssr:stedsnr" v="574658" />
	</node>
	<node lat="59.54703889271747" lon="10.295472231059055" id="-20666">
		<tag k="fixme" v="consider place=suburb, village or hamlet" />
		<tag k="name" v="Langdokk" />
		<tag k="place" v="quarter" />
		<tag k="ssr:stedsnr" v="574853" />
	</node>
	<node lat="59.58746666326881" lon="10.19208334111625" id="-20667">
		<tag k="name" v="Tangen" />
		<tag k="place" v="locality" />
		<tag k="ssr:stedsnr" v="574596" />
	</node>
	<node lat="59.58781111455834" lon="10.175816663681315" id="-20668">
		<tag k="name" v="Solli" />
		<tag k="place" v="farm" />
		<tag k="ssr:stedsnr" v="574597" />
	</node>
	<node lat="59.55524167019293" lon="10.1143249944306" id="-20671">
		<tag k="name" v="Søndre Kjennerud" />
		<tag k="place" v="farm" />
		<tag k="ssr:stedsnr" v="574708" />
	</node>
	<node lat="59.612322220344275" lon="10.089133335114271" id="-20674">
		<tag k="name" v="Skjørdalsseter" />
		<tag k="place" v="isolated_dwelling" />
		<tag k="ssr:stedsnr" v="574751" />
	</node>
	<node lat="59.54696666327797" lon="10.213199992574205" id="-20677">
		<tag k="name" v="Søndre Veseterstulen" />
		<tag k="place" v="isolated_dwelling" />
		<tag k="ssr:stedsnr" v="574797" />
	</node>
	<node lat="59.60972754015684" lon="10.194192145613684" id="-20679">
		<tag k="fixme" v="consider place=hamlet" />
		<tag k="name" v="Åkerud" />
		<tag k="place" v="farm" />
		<tag k="ssr:stedsnr" v="574918" />
	</node>
	<node lat="59.60824444158826" lon="10.234650001850804" id="-20681">
		<tag k="name" v="Gran søndre" />
		<tag k="place" v="farm" />
		<tag k="ssr:stedsnr" v="574960" />
	</node>
	<node lat="59.55892777530891" lon="10.276458326767937" id="-20682">
		<tag k="name" v="Saltbua" />
		<tag k="place" v="farm" />
		<tag k="ssr:stedsnr" v="574994" />
	</node>
	<node lat="59.456172222317754" lon="10.084986119864846" id="-20683">
		<tag k="name" v="Moholt" />
		<tag k="place" v="locality" />
		<tag k="ssr:stedsnr" v="695091" />
	</node>
	<node lat="59.46172500363936" lon="10.110108327981742" id="-20684">
		<tag k="name" v="Nordre Berg" />
		<tag k="place" v="farm" />
		<tag k="ssr:stedsnr" v="695102" />
	</node>
	<node lat="59.5487277763249" lon="10.298244441777804" id="-20686">
		<tag k="name" v="Bakke søndre" />
		<tag k="place" v="farm" />
		<tag k="ssr:stedsnr" v="695030" />
	</node>
	<node lat="59.510961963611734" lon="10.214634802816857" id="-20687">
		<tag k="fixme" v="consider place=hamlet" />
		<tag k="name" v="Island" />
		<tag k="place" v="farm" />
		<tag k="ssr:stedsnr" v="578704" />
	</node>
	<node lat="59.48334167005061" lon="10.30632778574571" id="-20690">
		<tag k="name" v="Gausen" />
		<tag k="place" v="quarter" />
		<tag k="ssr:stedsnr" v="695056" />
	</node>
	<node lat="59.48908611178883" lon="10.302966669910662" id="-20691">
		<tag k="name" v="Kleiva" />
		<tag k="place" v="quarter" />
		<tag k="ssr:stedsnr" v="695058" />
	</node>
	<node lat="59.56045045427067" lon="10.147236281565004" id="-20694">
		<tag k="name" v="Lien" />
		<tag k="place" v="farm" />
		<tag k="ssr:stedsnr" v="695693" />
	</node>
	<node lat="59.54722499738112" lon="10.13884722628147" id="-20695">
		<tag k="name" v="Dalen" />
		<tag k="place" v="isolated_dwelling" />
		<tag k="ssr:stedsnr" v="695283" />
	</node>
	<node lat="59.56955000285848" lon="10.268191671500482" id="-20697">
		<tag k="name" v="Selvik øvre" />
		<tag k="place" v="farm" />
		<tag k="ssr:stedsnr" v="695254" />
	</node>
	<node lat="59.57854444463293" lon="10.063658330027533" id="-20701">
		<tag k="name" v="Fjordgløtt" />
		<tag k="place" v="farm" />
		<tag k="ssr:stedsnr" v="695333" />
	</node>
	<node lat="59.579827776723484" lon="10.105730559245165" id="-20704">
		<tag k="name" v="Røyamyr" />
		<tag k="place" v="isolated_dwelling" />
		<tag k="ssr:stedsnr" v="695344" />
	</node>
	<node lat="59.51896195072885" lon="10.141499701885783" id="-20706">
		<tag k="name" v="Søndre Nøtnes" />
		<tag k="place" v="farm" />
		<tag k="ssr:stedsnr" v="695362" />
	</node>
	<node lat="59.58584999731038" lon="10.092197218211117" id="-20707">
		<tag k="name" v="Brantestua" />
		<tag k="place" v="isolated_dwelling" />
		<tag k="ssr:stedsnr" v="695370" />
	</node>
	<node lat="59.58021111199035" lon="10.04315833681794" id="-20708">
		<tag k="name" v="Vesterud" />
		<tag k="place" v="farm" />
		<tag k="ssr:stedsnr" v="695371" />
	</node>
	<node lat="59.52716944168948" lon="10.08037222587451" id="-20710">
		<tag k="name" v="Grønset" />
		<tag k="place" v="farm" />
		<tag k="ssr:stedsnr" v="695377" />
	</node>
	<node lat="59.49143055190587" lon="10.131269441920209" id="-20716">
		<tag k="name" v="Askerud" />
		<tag k="place" v="isolated_dwelling" />
		<tag k="ssr:stedsnr" v="695486" />
	</node>
	<node lat="59.592577779592254" lon="10.20809166352706" id="-20719">
		<tag k="name" v="Prestegården" />
		<tag k="place" v="farm" />
		<tag k="ssr:stedsnr" v="695559" />
	</node>
	<node lat="59.55970000028683" lon="10.152599995560072" id="-20723">
		<tag k="name" v="Eplerud" />
		<tag k="place" v="farm" />
		<tag k="ssr:stedsnr" v="695594" />
	</node>
	<node lat="59.66129722155174" lon="10.20981666317435" id="-20726">
		<tag k="name" v="Flåten nordre" />
		<tag k="place" v="farm" />
		<tag k="ssr:stedsnr" v="695929" />
	</node>
	<node lat="59.454777779621914" lon="10.361155549758088" id="-20732">
		<tag k="name" v="Sand" />
		<tag k="place" v="isolated_dwelling" />
		<tag k="ssr:stedsnr" v="695873" />
	</node>
	<node lat="59.46615000110132" lon="10.280105552552769" id="-20733">
		<tag k="name" v="Tangen" />
		<tag k="place" v="farm" />
		<tag k="ssr:stedsnr" v="695852" />
	</node>
	<node lat="59.47182222118614" lon="10.30217499549163" id="-20736">
		<tag k="name" v="Bakkevoll" />
		<tag k="place" v="farm" />
		<tag k="ssr:stedsnr" v="695864" />
	</node>
	<node lat="59.65360000451789" lon="10.233674996522133" id="-20737">
		<tag k="name" v="Berg" />
		<tag k="place" v="farm" />
		<tag k="ssr:stedsnr" v="695971" />
	</node>
	<node lat="59.654199999305106" lon="10.224249996088847" id="-20738">
		<tag k="name" v="Holehaugen" />
		<tag k="place" v="farm" />
		<tag k="ssr:stedsnr" v="695972" />
	</node>
	<node lat="59.596397223514664" lon="10.187127782849961" id="-20739">
		<tag k="name" v="Stubberud" />
		<tag k="place" v="farm" />
		<tag k="ssr:stedsnr" v="695889" />
	</node>
	<node lat="59.61147221816357" lon="10.211197226037504" id="-20741">
		<tag k="name" v="Åsheim" />
		<tag k="place" v="farm" />
		<tag k="ssr:stedsnr" v="695897" />
	</node>
	<node lat="59.59923611414356" lon="10.225463881524062" id="-20743">
		<tag k="name" v="Sjøl vestre" />
		<tag k="place" v="farm" />
		<tag k="ssr:stedsnr" v="695938" />
	</node>
	<node lat="59.64661944481909" lon="10.23125555908839" id="-20745">
		<tag k="name" v="Kløvstad" />
		<tag k="place" v="farm" />
		<tag k="ssr:stedsnr" v="695964" />
	</node>
	<node lat="59.5141916708039" lon="10.282477784070851" id="-20746">
		<tag k="name" v="Søndre Kleivan" />
		<tag k="place" v="quarter" />
		<tag k="ssr:stedsnr" v="597304" />
	</node>
	<node lat="59.54586944141801" lon="10.24982778503201" id="-20747">
		<tag k="name" v="Skjervik" />
		<tag k="place" v="farm" />
		<tag k="ssr:stedsnr" v="606823" />
	</node>
	<node lat="59.48288055886891" lon="10.061305558665207" id="-20749">
		<tag k="alt_name" v="Nord-Granseter" />
		<tag k="name" v="Gransetra" />
		<tag k="place" v="isolated_dwelling" />
		<tag k="ssr:stedsnr" v="609006" />
	</node>
	<node lat="59.58202777678811" lon="10.02235000203996" id="-20750">
		<tag k="name" v="Jerpelia" />
		<tag k="place" v="isolated_dwelling" />
		<tag k="ssr:stedsnr" v="609011" />
	</node>
	<node lat="59.485463892215115" lon="10.247699995999175" id="-20751">
		<tag k="name" v="Nordby" />
		<tag k="place" v="farm" />
		<tag k="ssr:stedsnr" v="609014" />
	</node>
	<node lat="59.58587048717855" lon="10.193354226218252" id="-20752">
		<tag k="fixme" v="consider place=hamlet" />
		<tag k="name" v="Valle" />
		<tag k="place" v="farm" />
		<tag k="ssr:stedsnr" v="609016" />
	</node>
	<node lat="59.58951844017281" lon="10.226166770415281" id="-20753">
		<tag k="fixme" v="consider place=hamlet" />
		<tag k="name" v="Duni" />
		<tag k="place" v="farm" />
		<tag k="ssr:stedsnr" v="609018" />
	</node>
	<node lat="59.55301388912741" lon="9.983274991336744" id="-20754">
		<tag k="name" v="Gullistua" />
		<tag k="place" v="isolated_dwelling" />
		<tag k="ssr:stedsnr" v="609030" />
	</node>
	<node lat="59.470065025323606" lon="10.319759213788867" id="-20755">
		<tag k="fixme" v="consider place=hamlet" />
		<tag k="name" v="Bentsrud" />
		<tag k="place" v="farm" />
		<tag k="ssr:stedsnr" v="609106" />
	</node>
	<node lat="59.474026784159555" lon="10.320567707048562" id="-20756">
		<tag k="fixme" v="consider place=hamlet" />
		<tag k="name" v="Grefsrud" />
		<tag k="place" v="farm" />
		<tag k="ssr:stedsnr" v="609107" />
	</node>
	<node lat="59.555002515380366" lon="10.09863386168872" id="-20757">
		<tag k="name" v="Kopstad" />
		<tag k="place" v="isolated_dwelling" />
		<tag k="ssr:stedsnr" v="609921" />
	</node>
	<node lat="59.53699166930881" lon="10.018675003038743" id="-20758">
		<tag k="name" v="Sundbysetra" />
		<tag k="place" v="isolated_dwelling" />
		<tag k="ssr:stedsnr" v="609923" />
	</node>
	<node lat="59.62138889314526" lon="10.218911110163397" id="-20760">
		<tag k="name" v="Galleberg" />
		<tag k="place" v="farm" />
		<tag k="ssr:stedsnr" v="610090" />
	</node>
	<node lat="59.623724996971795" lon="10.248191665771788" id="-20761">
		<tag k="name" v="Lærum sameie" />
		<tag k="place" v="farm" />
		<tag k="ssr:stedsnr" v="610092" />
	</node>
	<node lat="59.60735862060754" lon="10.148831693098037" id="-20765">
		<tag k="name" v="Sandåker" />
		<tag k="place" v="isolated_dwelling" />
		<tag k="ssr:stedsnr" v="610138" />
	</node>
	<node lat="59.64048610707135" lon="10.256530554016257" id="-20767">
		<tag k="name" v="Klinkelia" />
		<tag k="place" v="farm" />
		<tag k="ssr:stedsnr" v="610181" />
	</node>
	<node lat="59.51877306861093" lon="10.073384208949957" id="-20769">
		<tag k="alt_name" v="Lian, østre;Lian østre" />
		<tag k="name" v="Østre Lian" />
		<tag k="place" v="farm" />
		<tag k="ssr:stedsnr" v="610917" />
	</node>
	<node lat="59.573408330009286" lon="10.220702772456464" id="-20786">
		<tag k="name" v="Breivold" />
		<tag k="place" v="farm" />
		<tag k="ssr:stedsnr" v="634608" />
	</node>
	<node lat="59.591230554196756" lon="10.17969444343112" id="-20792">
		<tag k="name" v="Bonden nedre" />
		<tag k="place" v="farm" />
		<tag k="ssr:stedsnr" v="634579" />
	</node>
	<node lat="59.58191944395597" lon="10.189647224432834" id="-20793">
		<tag k="name" v="Teien østre" />
		<tag k="place" v="farm" />
		<tag k="ssr:stedsnr" v="634583" />
	</node>
	<node lat="59.576227780142574" lon="10.194113890510256" id="-20794">
		<tag k="name" v="Hauen-Teien" />
		<tag k="place" v="farm" />
		<tag k="ssr:stedsnr" v="634592" />
	</node>
	<node lat="59.55560277745564" lon="10.097891669571485" id="-20797">
		<tag k="name" v="Sorgenfri" />
		<tag k="place" v="farm" />
		<tag k="ssr:stedsnr" v="634714" />
	</node>
	<node lat="59.648761112525456" lon="10.018380557628983" id="-20803">
		<tag k="name" v="Sandsetervollen" />
		<tag k="place" v="isolated_dwelling" />
		<tag k="ssr:stedsnr" v="635305" />
	</node>
	<node lat="59.487611111025586" lon="10.317583334582183" id="-20811">
		<tag k="name" v="Holmestrand" />
		<tag k="place" v="town" />
		<tag k="ssr:stedsnr" v="670011" />
	</node>
	<node lat="59.58504444319461" lon="10.241875001276078" id="-20812">
		<tag k="alt_name" v="Rud, nedre" />
		<tag k="name" v="Nedre Rud" />
		<tag k="place" v="farm" />
		<tag k="ssr:stedsnr" v="670017" />
	</node>
	<node lat="59.49830685622172" lon="10.253191439570408" id="-20814">
		<tag k="name" v="Stubberud" />
		<tag k="place" v="farm" />
		<tag k="ssr:stedsnr" v="670073" />
	</node>
	<node lat="59.52602914445238" lon="10.094094975096127" id="-20817">
		<tag k="fixme" v="consider place=hamlet" />
		<tag k="name" v="Voll" />
		<tag k="place" v="farm" />
		<tag k="ssr:stedsnr" v="670873" />
	</node>
	<node lat="59.525941664029034" lon="10.155355558769456" id="-20818">
		<tag k="name" v="Lybekk" />
		<tag k="place" v="farm" />
		<tag k="ssr:stedsnr" v="670904" />
	</node>
	<node lat="59.55629999992185" lon="10.277775000493838" id="-20819">
		<tag k="alt_name" v="Orevika" />
		<tag k="name" v="Orvika" />
		<tag k="place" v="farm" />
		<tag k="ssr:stedsnr" v="670918" />
	</node>
	<node lat="59.50752406162846" lon="10.183999576464915" id="-20820">
		<tag k="name" v="Rønningen" />
		<tag k="place" v="hamlet" />
		<tag k="ssr:stedsnr" v="670996" />
	</node>
	<node lat="59.60024648953693" lon="10.018203501045088" id="-20821">
		<tag k="alt_name" v="Hesthammar, nedre" />
		<tag k="name" v="Nedre Hesthammar" />
		<tag k="place" v="farm" />
		<tag k="ssr:stedsnr" v="671109" />
	</node>
	<node lat="59.57880000104365" lon="10.24905000723074" id="-20830">
		<tag k="loc_name" v="Skafiell-åsen" />
		<tag k="name" v="Skafjellåsen" />
		<tag k="place" v="quarter" />
		<tag k="ssr:stedsnr" v="694320" />
	</node>
	<node lat="59.51806944483988" lon="10.346413887117402" id="-20831">
		<tag k="name" v="Hygga" />
		<tag k="place" v="isolated_dwelling" />
		<tag k="ssr:stedsnr" v="695004" />
	</node>
	<node lat="59.455905557343925" lon="10.09995834014809" id="-20834">
		<tag k="name" v="Nordre Myre" />
		<tag k="place" v="farm" />
		<tag k="ssr:stedsnr" v="695104" />
	</node>
	<node lat="59.52437777636862" lon="10.061202781148351" id="-20841">
		<tag k="name" v="Gurrikstua" />
		<tag k="place" v="isolated_dwelling" />
		<tag k="ssr:stedsnr" v="695405" />
	</node>
	<node lat="59.50945120749472" lon="10.191905716774663" id="-20847">
		<tag k="name" v="Fagerheim" />
		<tag k="place" v="farm" />
		<tag k="ssr:stedsnr" v="695538" />
	</node>
	<node lat="59.510666662884006" lon="10.228808324883358" id="-20849">
		<tag k="name" v="Nedre Skaug" />
		<tag k="place" v="isolated_dwelling" />
		<tag k="ssr:stedsnr" v="695550" />
	</node>
	<node lat="59.5741499982599" lon="10.19390833156679" id="-20852">
		<tag k="name" v="Stokke nordre" />
		<tag k="place" v="farm" />
		<tag k="ssr:stedsnr" v="695571" />
	</node>
	<node lat="59.50229722649736" lon="10.243041670510141" id="-20854">
		<tag k="name" v="Sletten" />
		<tag k="place" v="farm" />
		<tag k="ssr:stedsnr" v="695607" />
	</node>
	<node lat="59.56588055770656" lon="10.264002777819877" id="-20856">
		<tag k="name" v="Grønli" />
		<tag k="place" v="farm" />
		<tag k="ssr:stedsnr" v="695614" />
	</node>
	<node lat="59.501049999832404" lon="10.219972220538276" id="-20857">
		<tag k="name" v="Bringaker nordre" />
		<tag k="place" v="farm" />
		<tag k="ssr:stedsnr" v="695622" />
	</node>
	<node lat="59.50408889112403" lon="10.218622229700586" id="-20858">
		<tag k="name" v="Nordre Bringaker" />
		<tag k="place" v="farm" />
		<tag k="ssr:stedsnr" v="695623" />
	</node>
	<node lat="59.670111108679464" lon="10.248880564044912" id="-20866">
		<tag k="name" v="Tuft" />
		<tag k="place" v="farm" />
		<tag k="ssr:stedsnr" v="695921" />
	</node>
	<node lat="59.65074444608382" lon="10.234572220957572" id="-20868">
		<tag k="name" v="Kjeldås vestre" />
		<tag k="place" v="farm" />
		<tag k="ssr:stedsnr" v="695965" />
	</node>
	<node lat="59.62771388724779" lon="10.032069437499116" id="-20871">
		<tag k="name" v="Fjelltuen" />
		<tag k="place" v="isolated_dwelling" />
		<tag k="ssr:stedsnr" v="696307" />
	</node>
	<node lat="59.48101353355564" lon="10.174647741159662" id="-20879">
		<tag k="fixme" v="consider place=hamlet" />
		<tag k="name" v="Gutu" />
		<tag k="place" v="farm" />
		<tag k="ssr:stedsnr" v="730022" />
	</node>
	<node lat="59.581541665519296" lon="10.00505555070244" id="-20880">
		<tag k="name" v="Finneplassen" />
		<tag k="place" v="isolated_dwelling" />
		<tag k="ssr:stedsnr" v="731008" />
	</node>
	<node lat="59.58585555174722" lon="10.205633333003464" id="-20881">
		<tag k="alt_name" v="Revå nordre" />
		<tag k="name" v="Rævo" />
		<tag k="place" v="farm" />
		<tag k="ssr:stedsnr" v="731014" />
	</node>
	<node lat="59.59457778045456" lon="10.155583332061747" id="-20883">
		<tag k="name" v="Bjerke" />
		<tag k="place" v="isolated_dwelling" />
		<tag k="ssr:stedsnr" v="731081" />
	</node>
	<node lat="59.600955371968" lon="10.246360589633722" id="-20884">
		<tag k="alt_name" v="Veberg østre" />
		<tag k="name" v="Veberg" />
		<tag k="place" v="hamlet" />
		<tag k="ssr:stedsnr" v="731082" />
	</node>
	<node lat="59.59981692222674" lon="10.229460475561803" id="-20885">
		<tag k="alt_name" v="Sjøl" />
		<tag k="name" v="Skjøl" />
		<tag k="place" v="hamlet" />
		<tag k="ssr:stedsnr" v="731084" />
	</node>
	<node lat="59.552520933295696" lon="10.169386629929312" id="-20887">
		<tag k="alt_name" v="Bergan, nordre" />
		<tag k="fixme" v="consider place=hamlet" />
		<tag k="name" v="Nordre Bergan" />
		<tag k="place" v="farm" />
		<tag k="ssr:stedsnr" v="731908" />
	</node>
	<node lat="59.49195555180785" lon="10.069675004883296" id="-20895">
		<tag k="name" v="Nordre Nauf" />
		<tag k="place" v="farm" />
		<tag k="ssr:stedsnr" v="755050" />
	</node>
	<node lat="59.48281110734569" lon="10.27493889640433" id="-20899">
		<tag k="name" v="Åsly" />
		<tag k="place" v="farm" />
		<tag k="ssr:stedsnr" v="755857" />
	</node>
	<node lat="59.46445833670495" lon="10.288144448343587" id="-20900">
		<tag k="name" v="Tverdal" />
		<tag k="place" v="farm" />
		<tag k="ssr:stedsnr" v="755797" />
	</node>
	<node lat="59.63928055711154" lon="9.991902768977498" id="-20907">
		<tag k="name" v="Tinnerud" />
		<tag k="place" v="isolated_dwelling" />
		<tag k="ssr:stedsnr" v="756304" />
	</node>
	<node lat="59.5210444445519" lon="10.102075006104204" id="-20908">
		<tag k="name" v="Søndre Fogstad" />
		<tag k="place" v="farm" />
		<tag k="ssr:stedsnr" v="756352" />
	</node>
	<node lat="59.518786112687444" lon="10.091438886678109" id="-20910">
		<tag k="name" v="Rønneberg øvre" />
		<tag k="place" v="farm" />
		<tag k="ssr:stedsnr" v="756360" />
	</node>
	<node lat="59.56411111503647" lon="10.231230561067479" id="-20915">
		<tag k="name" v="Ve søndre" />
		<tag k="place" v="farm" />
		<tag k="ssr:stedsnr" v="756609" />
	</node>
	<node lat="59.56532499890507" lon="10.26158056099714" id="-20917">
		<tag k="name" v="Ørbekk" />
		<tag k="place" v="farm" />
		<tag k="ssr:stedsnr" v="756620" />
	</node>
	<node lat="59.553600010049706" lon="10.163655068603266" id="-20918">
		<tag k="fixme" v="consider place=hamlet" />
		<tag k="name" v="Østre Kaldåker" />
		<tag k="place" v="farm" />
		<tag k="ssr:stedsnr" v="756597" />
	</node>
	<node lat="59.616299997313014" lon="10.200300008121841" id="-20921">
		<tag k="name" v="Stensrud søndre" />
		<tag k="place" v="farm" />
		<tag k="ssr:stedsnr" v="756649" />
	</node>
	<node lat="59.54900833769919" lon="10.243752775357807" id="-20927">
		<tag k="name" v="Skjervik" />
		<tag k="place" v="farm" />
		<tag k="ssr:stedsnr" v="910817" />
	</node>
	<node lat="59.483430554411015" lon="10.086108341119983" id="-20928">
		<tag k="alt_name" v="Gran Nordre" />
		<tag k="name" v="Gran" />
		<tag k="place" v="farm" />
		<tag k="ssr:stedsnr" v="791005" />
	</node>
	<node lat="59.48431880276147" lon="10.188765621149445" id="-20930">
		<tag k="fixme" v="consider place=hamlet" />
		<tag k="name" v="Hallingsrud" />
		<tag k="place" v="farm" />
		<tag k="ssr:stedsnr" v="791013" />
	</node>
	<node lat="59.580091667651075" lon="10.202486102829091" id="-20932">
		<tag k="name" v="Finstad" />
		<tag k="place" v="farm" />
		<tag k="ssr:stedsnr" v="792006" />
	</node>
	<node lat="59.57993286968215" lon="10.180445660746981" id="-20933">
		<tag k="fixme" v="consider place=hamlet" />
		<tag k="name" v="Løvås" />
		<tag k="place" v="farm" />
		<tag k="ssr:stedsnr" v="792008" />
	</node>
	<node lat="59.57919618669201" lon="10.187337886152413" id="-20934">
		<tag k="alt_name" v="Teien vestre" />
		<tag k="name" v="Teigen" />
		<tag k="place" v="hamlet" />
		<tag k="ssr:stedsnr" v="792010" />
	</node>
	<node lat="59.5035992420993" lon="10.271923954595406" id="-20936">
		<tag k="fixme" v="consider place=hamlet" />
		<tag k="name" v="Bås" />
		<tag k="place" v="farm" />
		<tag k="ssr:stedsnr" v="791998" />
	</node>
	<node lat="59.55730527016358" lon="10.144915872485267" id="-20940">
		<tag k="fixme" v="consider place=hamlet" />
		<tag k="name" v="Bakke" />
		<tag k="place" v="farm" />
		<tag k="ssr:stedsnr" v="792906" />
	</node>
	<node lat="59.45788055448844" lon="10.354000007479073" id="-20943">
		<tag k="alt_name" v="Snekkestad øvre" />
		<tag k="name" v="Snekkestad" />
		<tag k="place" v="farm" />
		<tag k="ssr:stedsnr" v="912962" />
	</node>
	<node lat="59.47810041983521" lon="10.264748191255514" id="-20944">
		<tag k="alt_name" v="Knatten søndre" />
		<tag k="fixme" v="consider place=hamlet" />
		<tag k="name" v="Knatten" />
		<tag k="place" v="farm" />
		<tag k="ssr:stedsnr" v="913015" />
	</node>
	<node lat="59.586786112044145" lon="10.208083327222795" id="-20946">
		<tag k="name" v="Sande" />
		<tag k="place" v="village" />
		<tag k="ssr:stedsnr" v="913019" />
	</node>
	<node lat="59.56330000045376" lon="10.136602772442583" id="-20947">
		<tag k="alt_name" v="Øvre Tømmerås" />
		<tag k="name" v="Tømmerås" />
		<tag k="place" v="farm" />
		<tag k="ssr:stedsnr" v="913041" />
	</node>
	<node lat="59.56423889083076" lon="10.085063888974865" id="-20948">
		<tag k="name" v="Løvås" />
		<tag k="place" v="farm" />
		<tag k="ssr:stedsnr" v="913042" />
	</node>
	<node lat="59.4946937701384" lon="10.0862874516143" id="-20949">
		<tag k="alt_name" v="Hostvedt" />
		<tag k="name" v="Hostvet" />
		<tag k="place" v="hamlet" />
		<tag k="ssr:stedsnr" v="913049" />
	</node>
	<node lat="59.57362415613829" lon="10.229673732355078" id="-20950">
		<tag k="alt_name" v="Åsnæs" />
		<tag k="fixme" v="consider place=hamlet" />
		<tag k="name" v="Åsnes" />
		<tag k="place" v="farm" />
		<tag k="ssr:stedsnr" v="913050" />
	</node>
	<node lat="59.57303333162565" lon="10.143186103834198" id="-20951">
		<tag k="name" v="Bakkesetra" />
		<tag k="place" v="isolated_dwelling" />
		<tag k="ssr:stedsnr" v="913057" />
	</node>
	<node lat="59.57130555122565" lon="10.083766667480662" id="-20952">
		<tag k="alt_name" v="Næss nordre" />
		<tag k="name" v="Nes" />
		<tag k="place" v="farm" />
		<tag k="ssr:stedsnr" v="913060" />
	</node>
	<node lat="59.596238885579794" lon="10.036705563072218" id="-20953">
		<tag k="building" v="industrial" />
		<tag k="industrial" v="factory" />
		<tag k="name" v="Eidsfoss verk" />
		<tag k="ssr:stedsnr" v="913032" />
	</node>
	<node lat="59.64886111401768" lon="10.143308337855814" id="-20954">
		<tag k="name" v="Ryggetangseter" />
		<tag k="place" v="isolated_dwelling" />
		<tag k="ssr:stedsnr" v="913140" />
	</node>
	<node lat="59.55237909948413" lon="10.076805986054252" id="-20958">
		<tag k="name" v="Stuabrua" />
		<tag k="place" v="isolated_dwelling" />
		<tag k="ssr:stedsnr" v="913919" />
	</node>
	<node lat="59.52932561094329" lon="10.067019018619282" id="-20960">
		<tag k="fixme" v="consider place=hamlet" />
		<tag k="name" v="Gurrik" />
		<tag k="place" v="farm" />
		<tag k="ssr:stedsnr" v="913873" />
	</node>
	<node lat="59.611864339392724" lon="10.190544682911606" id="-20963">
		<tag k="fixme" v="consider place=hamlet" />
		<tag k="name" v="Børstad" />
		<tag k="place" v="farm" />
		<tag k="ssr:stedsnr" v="914065" />
	</node>
	<node lat="59.61183611352967" lon="10.238500001851781" id="-20964">
		<tag k="alt_name" v="Hagen" />
		<tag k="name" v="Skjølshagan" />
		<tag k="place" v="farm" />
		<tag k="ssr:stedsnr" v="914067" />
	</node>
	<node lat="59.613692693096404" lon="10.234466474367943" id="-20965">
		<tag k="alt_name" v="Fosstvedt" />
		<tag k="fixme" v="consider place=hamlet" />
		<tag k="name" v="Fosstvet" />
		<tag k="place" v="farm" />
		<tag k="ssr:stedsnr" v="914069" />
	</node>
	<node lat="59.630993300064624" lon="10.225598097600388" id="-20967">
		<tag k="name" v="Bølum" />
		<tag k="place" v="hamlet" />
		<tag k="ssr:stedsnr" v="914095" />
	</node>
	<node lat="59.506025003034026" lon="10.034972213758255" id="-20971">
		<tag k="name" v="Goverudhytta" />
		<tag k="place" v="isolated_dwelling" />
		<tag k="ssr:stedsnr" v="815829" />
	</node>
	<node lat="59.50428300684437" lon="10.172817475112828" id="-20976">
		<tag k="fixme" v="consider place=hamlet" />
		<tag k="name" v="Kronlia" />
		<tag k="place" v="farm" />
		<tag k="ssr:stedsnr" v="816669" />
	</node>
	<node lat="59.60287777738311" lon="10.021763883712714" id="-20987">
		<tag k="name" v="Skogstad" />
		<tag k="place" v="farm" />
		<tag k="ssr:stedsnr" v="817309" />
	</node>
	<node lat="59.54683333326462" lon="10.069544450434325" id="-20994">
		<tag k="name" v="Rønningen" />
		<tag k="place" v="farm" />
		<tag k="ssr:stedsnr" v="817283" />
	</node>
	<node lat="59.50988055741262" lon="10.191022226147801" id="-21000">
		<tag k="name" v="Granly" />
		<tag k="place" v="farm" />
		<tag k="ssr:stedsnr" v="817522" />
	</node>
	<node lat="59.56198333358654" lon="10.223099993933232" id="-21002">
		<tag k="name" v="Ekelund" />
		<tag k="place" v="farm" />
		<tag k="ssr:stedsnr" v="817585" />
	</node>
	<node lat="59.55944721771062" lon="10.236933340222949" id="-21003">
		<tag k="name" v="Holm" />
		<tag k="place" v="farm" />
		<tag k="ssr:stedsnr" v="817587" />
	</node>
	<node lat="59.566569448951554" lon="10.258830549657688" id="-21004">
		<tag k="name" v="Solbakken" />
		<tag k="place" v="farm" />
		<tag k="ssr:stedsnr" v="817589" />
	</node>
	<node lat="59.645161109004434" lon="10.20999166539701" id="-21014">
		<tag k="name" v="Gåserud" />
		<tag k="place" v="farm" />
		<tag k="ssr:stedsnr" v="817973" />
	</node>
	<node lat="59.46459016679775" lon="10.25226653736104" id="-21018">
		<tag k="alt_name" v="Fudske søndre" />
		<tag k="fixme" v="consider place=hamlet" />
		<tag k="name" v="Føske" />
		<tag k="place" v="farm" />
		<tag k="ssr:stedsnr" v="852111" />
	</node>
	<node lat="59.64527483292708" lon="9.989393704245643" id="-21019">
		<tag k="name" v="Engerud" />
		<tag k="place" v="farm" />
		<tag k="ssr:stedsnr" v="852177" />
	</node>
	<node lat="59.65195555800193" lon="10.26934444777893" id="-21021">
		<tag k="name" v="Lysdalen" />
		<tag k="place" v="farm" />
		<tag k="ssr:stedsnr" v="852181" />
	</node>
	<node lat="59.55775555710657" lon="10.073144449603559" id="-21023">
		<tag k="name" v="Breiset" />
		<tag k="place" v="farm" />
		<tag k="ssr:stedsnr" v="852908" />
	</node>
	<node lat="59.579943206770366" lon="10.210468070337402" id="-21024">
		<tag k="alt_name" v="Revå søndre" />
		<tag k="name" v="Rævo" />
		<tag k="place" v="hamlet" />
		<tag k="ssr:stedsnr" v="853006" />
	</node>
	<node lat="59.64867002712466" lon="10.217538072369443" id="-21029">
		<tag k="fixme" v="consider place=hamlet" />
		<tag k="name" v="Gryte" />
		<tag k="place" v="farm" />
		<tag k="ssr:stedsnr" v="853109" />
	</node>
	<node lat="59.55532762456767" lon="10.119438904377768" id="-21032">
		<tag k="alt_name" v="Høijord" />
		<tag k="fixme" v="consider place=hamlet" />
		<tag k="name" v="Høyjord" />
		<tag k="place" v="farm" />
		<tag k="ssr:stedsnr" v="853924" />
	</node>
	<node lat="59.58562499922945" lon="10.223588888024574" id="-21034">
		<tag k="name" v="Dunihagen" />
		<tag k="place" v="quarter" />
		<tag k="ssr:stedsnr" v="870768" />
	</node>
	<node lat="59.637199997963634" lon="9.993822225433894" id="-21036">
		<tag k="name" v="Tinnerud" />
		<tag k="place" v="isolated_dwelling" />
		<tag k="ssr:stedsnr" v="930973" />
	</node>
	<node lat="59.511466670814855" lon="10.278319437030477" id="-21040">
		<tag k="name" v="Ødgardshytta" />
		<tag k="place" v="isolated_dwelling" />
		<tag k="ssr:stedsnr" v="877004" />
	</node>
	<node lat="59.518300042919684" lon="10.119681944810537" id="-21046">
		<tag k="fixme" v="consider place=hamlet" />
		<tag k="name" v="Søndre Sundby" />
		<tag k="place" v="farm" />
		<tag k="ssr:stedsnr" v="877367" />
	</node>
	<node lat="59.55289167041554" lon="9.982077770315268" id="-21050">
		<tag k="name" v="Gullistua" />
		<tag k="place" v="isolated_dwelling" />
		<tag k="ssr:stedsnr" v="877461" />
	</node>
	<node lat="59.4737138852605" lon="10.26003333889493" id="-21057">
		<tag k="name" v="Granli" />
		<tag k="place" v="farm" />
		<tag k="ssr:stedsnr" v="877717" />
	</node>
	<node lat="59.61537607027469" lon="10.21350024458617" id="-21061">
		<tag k="fixme" v="consider place=hamlet" />
		<tag k="name" v="Kopstad" />
		<tag k="place" v="farm" />
		<tag k="ssr:stedsnr" v="877909" />
	</node>
	<node lat="59.60607777660758" lon="10.171055555714245" id="-21062">
		<tag k="name" v="Gilhus" />
		<tag k="place" v="farm" />
		<tag k="ssr:stedsnr" v="877914" />
	</node>
	<node lat="59.493644555303824" lon="10.275245415633178" id="-21064">
		<tag k="fixme" v="consider place=hamlet" />
		<tag k="name" v="Søndre Foss" />
		<tag k="place" v="farm" />
		<tag k="ssr:stedsnr" v="877852" />
	</node>
	<node lat="59.54506666961503" lon="10.076227771532297" id="-21067">
		<tag k="name" v="Hovland" />
		<tag k="place" v="farm" />
		<tag k="ssr:stedsnr" v="878305" />
	</node>
	<node lat="59.65848055607192" lon="10.23996945070498" id="-21071">
		<tag k="name" v="Berg" />
		<tag k="place" v="farm" />
		<tag k="ssr:stedsnr" v="878958" />
	</node>
	<node lat="59.64052375621077" lon="10.219254838996518" id="-21072">
		<tag k="alt_name" v="Jahren" />
		<tag k="name" v="Jaren" />
		<tag k="place" v="farm" />
		<tag k="ssr:stedsnr" v="878961" />
	</node>
	<node lat="59.48760174030562" lon="10.073208420863917" id="-21074">
		<tag k="fixme" v="consider place=hamlet" />
		<tag k="name" v="Gretteberg" />
		<tag k="place" v="farm" />
		<tag k="ssr:stedsnr" v="913006" />
	</node>
	<node lat="59.490325001334945" lon="10.213250002776968" id="-21075">
		<tag k="name" v="Løkka" />
		<tag k="place" v="farm" />
		<tag k="ssr:stedsnr" v="913001" />
	</node>
	<node lat="59.459350744652355" lon="10.239896299525535" id="-21076">
		<tag k="alt_name" v="Vidskjold søndre" />
		<tag k="fixme" v="consider place=hamlet" />
		<tag k="name" v="Vidskjøld" />
		<tag k="place" v="farm" />
		<tag k="ssr:stedsnr" v="913109" />
	</node>
	<node lat="59.6543499962291" lon="10.141702783789198" id="-21077">
		<tag k="name" v="Bjørgeseter" />
		<tag k="place" v="isolated_dwelling" />
		<tag k="ssr:stedsnr" v="913138" />
	</node>
	<node lat="59.638081798128965" lon="10.208924088158014" id="-21078">
		<tag k="alt_name" v="Bjørge nordre" />
		<tag k="name" v="Bjørge" />
		<tag k="place" v="hamlet" />
		<tag k="ssr:stedsnr" v="913160" />
	</node>
	<node lat="59.59411574617016" lon="10.178769483687832" id="-21079">
		<tag k="alt_name" v="Verdal, nedre;Vardal nedre" />
		<tag k="name" v="Nedre Verdal" />
		<tag k="place" v="farm" />
		<tag k="ssr:stedsnr" v="913095" />
	</node>
	<node lat="59.667125004237256" lon="10.202852779709882" id="-21081">
		<tag k="name" v="Enga" />
		<tag k="place" v="farm" />
		<tag k="ssr:stedsnr" v="913217" />
	</node>
	<node lat="59.551011707773085" lon="10.32349249058584" id="-21083">
		<tag k="fixme" v="consider place=hamlet" />
		<tag k="name" v="Kvisle" />
		<tag k="place" v="farm" />
		<tag k="ssr:stedsnr" v="913904" />
	</node>
	<node lat="59.467266664806736" lon="10.345250006115204" id="-21084">
		<tag k="name" v="Almedalen" />
		<tag k="place" v="farm" />
		<tag k="ssr:stedsnr" v="913908" />
	</node>
	<node lat="59.515608818139846" lon="10.104596777161792" id="-21086">
		<tag k="alt_name" v="Thormodsrud" />
		<tag k="fixme" v="consider place=hamlet" />
		<tag k="name" v="Tormodsrud" />
		<tag k="place" v="farm" />
		<tag k="ssr:stedsnr" v="913888" />
	</node>
	<node lat="59.522546306153814" lon="10.280523046578155" id="-21087">
		<tag k="alt_name" v="Bråten" />
		<tag k="fixme" v="consider place=hamlet" />
		<tag k="name" v="Bråtan" />
		<tag k="place" v="farm" />
		<tag k="ssr:stedsnr" v="913897" />
	</node>
	<node lat="59.52033888604539" lon="10.277283333189827" id="-21089">
		<tag k="alt_name" v="Kleivan, øvre;Nordre Kleivan" />
		<tag k="name" v="Øvre Kleivan" />
		<tag k="place" v="farm" />
		<tag k="ssr:stedsnr" v="913988" />
	</node>
	<node lat="59.65052902513793" lon="10.241554471400235" id="-21090">
		<tag k="alt_name" v="Kjeldås nordre" />
		<tag k="name" v="Kjeldås" />
		<tag k="place" v="hamlet" />
		<tag k="ssr:stedsnr" v="914190" />
	</node>
	<node lat="59.61461185478348" lon="10.16681191100814" id="-21091">
		<tag k="fixme" v="consider place=hamlet" />
		<tag k="name" v="Fjøserud" />
		<tag k="place" v="farm" />
		<tag k="ssr:stedsnr" v="914083" />
	</node>
	<node lat="59.53337221775469" lon="10.027311119810143" id="-21093">
		<tag k="name" v="Solstua" />
		<tag k="place" v="isolated_dwelling" />
		<tag k="ssr:stedsnr" v="935474" />
	</node>
	<node lat="59.46073333057721" lon="10.088611108264395" id="-21095">
		<tag k="name" v="Dammen" />
		<tag k="place" v="locality" />
		<tag k="ssr:stedsnr" v="937117" />
	</node>
	<node lat="59.46347150050434" lon="10.120836277050145" id="-21096">
		<tag k="name" v="Sjuestua" />
		<tag k="place" v="locality" />
		<tag k="ssr:stedsnr" v="937140" />
	</node>
	<node lat="59.537136111998635" lon="10.357063894049018" id="-21102">
		<tag k="name" v="Mørkassel østre" />
		<tag k="place" v="farm" />
		<tag k="ssr:stedsnr" v="938024" />
	</node>
	<node lat="59.57401957839716" lon="10.057132102248639" id="-21107">
		<tag k="fixme" v="consider place=hamlet" />
		<tag k="name" v="Brekkedalen" />
		<tag k="place" v="farm" />
		<tag k="ssr:stedsnr" v="938330" />
	</node>
	<node lat="59.57603611533968" lon="10.047691672220145" id="-21108">
		<tag k="name" v="Linnerud" />
		<tag k="place" v="farm" />
		<tag k="ssr:stedsnr" v="938331" />
	</node>
	<node lat="59.54250000325041" lon="10.085966666031156" id="-21112">
		<tag k="name" v="Hjelmseth" />
		<tag k="place" v="farm" />
		<tag k="ssr:stedsnr" v="938284" />
	</node>
	<node lat="59.51213888588905" lon="10.187527780358428" id="-21114">
		<tag k="name" v="Hillestad lille" />
		<tag k="place" v="farm" />
		<tag k="ssr:stedsnr" v="938528" />
	</node>
	<node lat="59.59676111389899" lon="10.069480552991848" id="-21117">
		<tag k="name" v="Berg mellom" />
		<tag k="place" v="farm" />
		<tag k="ssr:stedsnr" v="938707" />
	</node>
	<node lat="59.62204722193811" lon="10.200855549058561" id="-21121">
		<tag k="name" v="Sandbråten" />
		<tag k="place" v="farm" />
		<tag k="ssr:stedsnr" v="938603" />
	</node>
	<node lat="59.503973166280225" lon="10.179503405737035" id="-21123">
		<tag k="fixme" v="consider place=hamlet" />
		<tag k="name" v="Øie" />
		<tag k="place" v="farm" />
		<tag k="ssr:stedsnr" v="938609" />
	</node>
	<node lat="59.5026361113521" lon="10.199425000111432" id="-21124">
		<tag k="name" v="Solberg" />
		<tag k="place" v="farm" />
		<tag k="ssr:stedsnr" v="938612" />
	</node>
	<node lat="59.61062222555001" lon="10.207561113819725" id="-21129">
		<tag k="name" v="Dalsrud" />
		<tag k="place" v="farm" />
		<tag k="ssr:stedsnr" v="938923" />
	</node>
	<node lat="59.66478055746789" lon="10.1997055513557" id="-21139">
		<tag k="name" v="Askholtbakken" />
		<tag k="place" v="farm" />
		<tag k="ssr:stedsnr" v="938949" />
	</node>
	<node lat="59.60050000249941" lon="10.025247222650162" id="-21143">
		<tag k="name" v="Heia" />
		<tag k="place" v="isolated_dwelling" />
		<tag k="ssr:stedsnr" v="939302" />
	</node>
	<node lat="59.5230916674825" lon="10.333038888717356" id="-21153">
		<tag k="fixme" v="consider tourism=alpine_hut or tourism=chalet" />
		<tag k="name" v="Veslekillingen" />
		<tag k="ssr:stedsnr" v="967736" />
		<tag k="tourism" v="wilderness_hut" />
	</node>
	<node lat="59.49984761851336" lon="10.256728811310929" id="-21154">
		<tag k="fixme" v="consider place=hamlet" />
		<tag k="name" v="Store Guåker" />
		<tag k="place" v="farm" />
		<tag k="ssr:stedsnr" v="977286" />
	</node>
	<node lat="59.5214329661966" lon="10.251998218827701" id="-21155">
		<tag k="name" v="Store Guåker" />
		<tag k="place" v="farm" />
		<tag k="ssr:stedsnr" v="977287" />
	</node>
	<node lat="59.500234860491155" lon="10.249329883527796" id="-21156">
		<tag k="name" v="Store Guåker" />
		<tag k="place" v="farm" />
		<tag k="ssr:stedsnr" v="977288" />
	</node>
	<node lat="59.50293068283295" lon="10.24773058527714" id="-21157">
		<tag k="name" v="Lille Guåker" />
		<tag k="place" v="farm" />
		<tag k="ssr:stedsnr" v="977289" />
	</node>
	<node lat="59.50110183013298" lon="10.251311023374084" id="-21158">
		<tag k="name" v="Lille Guåker" />
		<tag k="place" v="farm" />
		<tag k="ssr:stedsnr" v="977290" />
	</node>
	<node lat="59.515135857106955" lon="10.248329315711793" id="-21159">
		<tag k="name" v="Lille Guåker" />
		<tag k="place" v="farm" />
		<tag k="ssr:stedsnr" v="977291" />
	</node>
	<node lat="59.50298941109603" lon="10.242227530090931" id="-21160">
		<tag k="name" v="Lille Guåker" />
		<tag k="place" v="farm" />
		<tag k="ssr:stedsnr" v="977292" />
	</node>
	<node lat="59.50172423351934" lon="10.250839432967332" id="-21161">
		<tag k="name" v="Godaker bad" />
		<tag k="place" v="farm" />
		<tag k="ssr:stedsnr" v="977294" />
	</node>
	<node lat="59.50242768415499" lon="10.24940510559985" id="-21162">
		<tag k="fixme" v="consider place=hamlet" />
		<tag k="name" v="Lille Guåker" />
		<tag k="place" v="farm" />
		<tag k="ssr:stedsnr" v="977295" />
	</node>
	<node lat="59.45588186345063" lon="10.307125295792192" id="-21166">
		<tag k="alt_name" v="Svinnsland" />
		<tag k="fixme" v="consider place=hamlet" />
		<tag k="name" v="Svinsland" />
		<tag k="place" v="farm" />
		<tag k="ssr:stedsnr" v="2068" />
	</node>
	<node lat="59.48546388599586" lon="10.079025007052126" id="-21167">
		<tag k="name" v="Grette" />
		<tag k="place" v="farm" />
		<tag k="ssr:stedsnr" v="2016" />
	</node>
	<node lat="59.466758493389506" lon="10.24498070815355" id="-21169">
		<tag k="name" v="Greåker" />
		<tag k="place" v="hamlet" />
		<tag k="ssr:stedsnr" v="2113" />
	</node>
	<node lat="59.464366936342486" lon="10.29919254192983" id="-21170">
		<tag k="fixme" v="consider place=hamlet" />
		<tag k="name" v="Helgestad" />
		<tag k="place" v="farm" />
		<tag k="ssr:stedsnr" v="2124" />
	</node>
	<node lat="59.5731666674345" lon="10.059958338987283" id="-21171">
		<tag k="name" v="Brekke" />
		<tag k="place" v="farm" />
		<tag k="ssr:stedsnr" v="3053" />
	</node>
	<node lat="59.63310833557519" lon="9.995108331258042" id="-21172">
		<tag k="name" v="Torrud" />
		<tag k="place" v="farm" />
		<tag k="ssr:stedsnr" v="3147" />
	</node>
	<node lat="59.62647499607927" lon="10.034427772023854" id="-21174">
		<tag k="name" v="Hesthammarsetra" />
		<tag k="place" v="isolated_dwelling" />
		<tag k="ssr:stedsnr" v="3083" />
	</node>
	<node lat="59.64649031055856" lon="10.19407514338573" id="-21175">
		<tag k="name" v="Bråtan" />
		<tag k="place" v="farm" />
		<tag k="ssr:stedsnr" v="3159" />
	</node>
	<node lat="59.603680558682115" lon="10.148027779437903" id="-21176">
		<tag k="name" v="Kriken" />
		<tag k="place" v="farm" />
		<tag k="ssr:stedsnr" v="3112" />
	</node>
	<node lat="59.50614722228133" lon="10.151669436293174" id="-21187">
		<tag k="name" v="Herland" />
		<tag k="place" v="farm" />
		<tag k="ssr:stedsnr" v="27056" />
	</node>
	<node lat="59.50762499632974" lon="10.213908338310029" id="-21188">
		<tag k="name" v="Søndre Island" />
		<tag k="place" v="farm" />
		<tag k="ssr:stedsnr" v="27618" />
	</node>
	<node lat="59.507183332736815" lon="10.234463884590332" id="-21190">
		<tag k="name" v="Øvre Li" />
		<tag k="place" v="farm" />
		<tag k="ssr:stedsnr" v="27628" />
	</node>
	<node lat="59.49954166234221" lon="10.285399995322043" id="-21192">
		<tag k="name" v="Søndre Gaupås" />
		<tag k="place" v="farm" />
		<tag k="ssr:stedsnr" v="27849" />
	</node>
	<node lat="59.48130833335505" lon="10.267847215392909" id="-21194">
		<tag k="name" v="Eknes" />
		<tag k="place" v="farm" />
		<tag k="ssr:stedsnr" v="27862" />
	</node>
	<node lat="59.482333331736605" lon="10.297916658339632" id="-21195">
		<tag k="amenity" v="school" />
		<tag k="name" v="Gjøklep ungdomsskole" />
		<tag k="ssr:stedsnr" v="27864" />
	</node>
	<node lat="59.48264999899829" lon="10.294358332375772" id="-21196">
		<tag k="alt_name" v="Holmestrand yrkesskole" />
		<tag k="amenity" v="school" />
		<tag k="name" v="Holmestrand videregående skole" />
		<tag k="ssr:stedsnr" v="27867" />
	</node>
	<node lat="59.53963889129898" lon="10.32889445034525" id="-21197">
		<tag k="name" v="Haslestad" />
		<tag k="place" v="farm" />
		<tag k="ssr:stedsnr" v="28053" />
	</node>
	<node lat="59.525413892895706" lon="10.082694436405168" id="-21203">
		<tag k="name" v="Grønstad" />
		<tag k="place" v="farm" />
		<tag k="ssr:stedsnr" v="28375" />
	</node>
	<node lat="59.57721955310518" lon="10.057863747908463" id="-21215">
		<tag k="fixme" v="consider place=hamlet" />
		<tag k="name" v="Stubben" />
		<tag k="place" v="farm" />
		<tag k="ssr:stedsnr" v="28338" />
	</node>
	<node lat="59.51703055359198" lon="10.12939444655695" id="-21217">
		<tag k="name" v="Sletten" />
		<tag k="place" v="farm" />
		<tag k="ssr:stedsnr" v="28357" />
	</node>
	<node lat="59.62621388801454" lon="10.235794442908537" id="-21230">
		<tag k="name" v="Lærum mellom" />
		<tag k="place" v="farm" />
		<tag k="ssr:stedsnr" v="28656" />
	</node>
	<node lat="59.565323117478954" lon="10.058461689940879" id="-21232">
		<tag k="name" v="Ås" />
		<tag k="place" v="farm" />
		<tag k="ssr:stedsnr" v="28662" />
	</node>
	<node lat="59.612462363592144" lon="10.218649562073306" id="-21243">
		<tag k="fixme" v="consider place=hamlet" />
		<tag k="name" v="Holsrud" />
		<tag k="place" v="farm" />
		<tag k="ssr:stedsnr" v="28956" />
	</node>
	<node lat="59.60088055878445" lon="10.238952778023556" id="-21244">
		<tag k="name" v="Veberg vestre" />
		<tag k="place" v="farm" />
		<tag k="ssr:stedsnr" v="28960" />
	</node>
	<node lat="59.5420054331156" lon="10.372035484124991" id="-21251">
		<tag k="fixme" v="consider place=hamlet" />
		<tag k="name" v="Dyrdal" />
		<tag k="place" v="farm" />
		<tag k="ssr:stedsnr" v="64557" />
	</node>
	<node lat="59.536751246345936" lon="10.355047745474524" id="-21252">
		<tag k="name" v="Mørkassel" />
		<tag k="place" v="hamlet" />
		<tag k="ssr:stedsnr" v="64558" />
	</node>
	<node lat="59.474236068497824" lon="10.091948630447217" id="-21254">
		<tag k="fixme" v="consider place=hamlet" />
		<tag k="name" v="Lofsberg" />
		<tag k="place" v="farm" />
		<tag k="ssr:stedsnr" v="63033" />
	</node>
	<node lat="59.47991541325413" lon="10.304376247538999" id="-21255">
		<tag k="alt_name" v="Gjøklep nedre" />
		<tag k="fixme" v="consider place=hamlet" />
		<tag k="name" v="Gjøklepp" />
		<tag k="place" v="farm" />
		<tag k="ssr:stedsnr" v="63037" />
	</node>
	<node lat="59.604019057870254" lon="10.041594715965816" id="-21257">
		<tag k="alt_name" v="Gastholtet" />
		<tag k="name" v="Gasteholtet" />
		<tag k="place" v="farm" />
		<tag k="ssr:stedsnr" v="64087" />
	</node>
	<node lat="59.59962492813156" lon="9.98318964856228" id="-21258">
		<tag k="fixme" v="consider place=hamlet" />
		<tag k="name" v="Sjulerud" />
		<tag k="place" v="farm" />
		<tag k="ssr:stedsnr" v="64090" />
	</node>
	<node lat="59.60824617592773" lon="10.218193051810982" id="-21259">
		<tag k="fixme" v="consider place=hamlet" />
		<tag k="name" v="Hallerud" />
		<tag k="place" v="farm" />
		<tag k="ssr:stedsnr" v="64095" />
	</node>
	<node lat="59.609776201938935" lon="10.163682955737912" id="-21260">
		<tag k="alt_name" v="Rud vestre" />
		<tag k="fixme" v="consider place=hamlet" />
		<tag k="name" v="Rud" />
		<tag k="place" v="farm" />
		<tag k="ssr:stedsnr" v="64097" />
	</node>
	<node lat="59.60639228905862" lon="10.155842029838942" id="-21261">
		<tag k="fixme" v="consider place=hamlet" />
		<tag k="name" v="Ødeskau" />
		<tag k="place" v="farm" />
		<tag k="ssr:stedsnr" v="64098" />
	</node>
	<node lat="59.50883976095836" lon="10.14386998635688" id="-21265">
		<tag k="fixme" v="consider place=hamlet" />
		<tag k="name" v="Haugtuft" />
		<tag k="place" v="farm" />
		<tag k="ssr:stedsnr" v="63973" />
	</node>
	<node lat="59.50344835602135" lon="10.161874137144409" id="-21266">
		<tag k="fixme" v="consider place=hamlet" />
		<tag k="name" v="Krone" />
		<tag k="place" v="farm" />
		<tag k="ssr:stedsnr" v="63984" />
	</node>
	<node lat="59.50460833489707" lon="10.108080561414546" id="-21267">
		<tag k="name" v="Djupedal" />
		<tag k="place" v="farm" />
		<tag k="ssr:stedsnr" v="63986" />
	</node>
	<node lat="59.50627237453682" lon="10.240538794321782" id="-21268">
		<tag k="alt_name" v="Nedre Li" />
		<tag k="name" v="Li" />
		<tag k="place" v="hamlet" />
		<tag k="ssr:stedsnr" v="64000" />
	</node>
	<node lat="59.575961113455186" lon="9.985697230025862" id="-21269">
		<tag k="name" v="Gausesetra" />
		<tag k="place" v="isolated_dwelling" />
		<tag k="ssr:stedsnr" v="64047" />
	</node>
	<node lat="59.52354166933759" lon="10.080855558701728" id="-21271">
		<tag k="alt_name" v="Grønset" />
		<tag k="name" v="Grønnset" />
		<tag k="place" v="farm" />
		<tag k="ssr:stedsnr" v="64893" />
	</node>
	<node lat="59.614195291044254" lon="10.215079826815881" id="-21273">
		<tag k="name" v="Kopstad" />
		<tag k="place" v="farm" />
		<tag k="ssr:stedsnr" v="65052" />
	</node>
	<node lat="59.61260229521938" lon="10.224604659021667" id="-21274">
		<tag k="alt_name" v="Rud, nordre;Ruud nordre" />
		<tag k="fixme" v="consider place=hamlet" />
		<tag k="name" v="Nordre Rud" />
		<tag k="place" v="farm" />
		<tag k="ssr:stedsnr" v="65053" />
	</node>
	<node lat="59.61641157010542" lon="10.238958037997913" id="-21275">
		<tag k="fixme" v="consider place=hamlet" />
		<tag k="name" v="Budderud" />
		<tag k="place" v="farm" />
		<tag k="ssr:stedsnr" v="65056" />
	</node>
	<node lat="59.54869166699857" lon="10.224152780341159" id="-21277">
		<tag k="name" v="Heia" />
		<tag k="place" v="isolated_dwelling" />
		<tag k="ssr:stedsnr" v="64929" />
	</node>
	<node lat="59.54219394176111" lon="10.164735949406577" id="-21278">
		<tag k="alt_name" v="Auerud" />
		<tag k="fixme" v="consider place=hamlet" />
		<tag k="name" v="Auerød" />
		<tag k="place" v="farm" />
		<tag k="ssr:stedsnr" v="64946" />
	</node>
	<node lat="59.541050001997924" lon="10.119511111672844" id="-21279">
		<tag k="name" v="Støa" />
		<tag k="place" v="farm" />
		<tag k="ssr:stedsnr" v="64948" />
	</node>
	<node lat="59.628218475429286" lon="9.999942532224729" id="-21280">
		<tag k="name" v="Sparkopp" />
		<tag k="place" v="isolated_dwelling" />
		<tag k="ssr:stedsnr" v="81974" />
	</node>
	<node lat="59.57022499599873" lon="10.200288888797912" id="-21281">
		<tag k="name" v="Stokke mellom" />
		<tag k="place" v="farm" />
		<tag k="ssr:stedsnr" v="85289" />
	</node>
	<node lat="59.499925089932304" lon="10.257461129571332" id="-21295">
		<tag k="name" v="Store Guåker" />
		<tag k="place" v="farm" />
		<tag k="ssr:stedsnr" v="88531" />
	</node>
	<node lat="59.50227222290792" lon="10.25439999263351" id="-21296">
		<tag k="name" v="Solskogen" />
		<tag k="place" v="farm" />
		<tag k="ssr:stedsnr" v="88535" />
	</node>
	<node lat="59.50024722638931" lon="10.227050002052266" id="-21298">
		<tag k="name" v="Bringaker nordre" />
		<tag k="place" v="farm" />
		<tag k="ssr:stedsnr" v="88552" />
	</node>
	<node lat="59.50191666923342" lon="10.159805547139523" id="-21299">
		<tag k="name" v="Kronehytta" />
		<tag k="place" v="isolated_dwelling" />
		<tag k="ssr:stedsnr" v="88555" />
	</node>
	<node lat="59.470175000128464" lon="10.286408331965205" id="-21303">
		<tag k="name" v="Goddok" />
		<tag k="place" v="farm" />
		<tag k="ssr:stedsnr" v="88848" />
	</node>
	<node lat="59.47565833398167" lon="10.318988897415968" id="-21304">
		<tag k="name" v="Alfheim" />
		<tag k="place" v="farm" />
		<tag k="ssr:stedsnr" v="88851" />
	</node>
	<node lat="59.53621944340464" lon="10.099683327452059" id="-21321">
		<tag k="name" v="Kolstad" />
		<tag k="place" v="isolated_dwelling" />
		<tag k="ssr:stedsnr" v="89291" />
	</node>
	<node lat="59.57399220076742" lon="10.096385734172824" id="-21325">
		<tag k="fixme" v="consider place=hamlet" />
		<tag k="name" v="Hafsrud" />
		<tag k="place" v="farm" />
		<tag k="ssr:stedsnr" v="89362" />
	</node>
	<node lat="59.51323902444925" lon="10.213009368023236" id="-21333">
		<tag k="name" v="Elverum" />
		<tag k="place" v="farm" />
		<tag k="ssr:stedsnr" v="89559" />
	</node>
	<node lat="59.50833333751248" lon="10.224427783042938" id="-21334">
		<tag k="name" v="Hynnås søndre" />
		<tag k="place" v="farm" />
		<tag k="ssr:stedsnr" v="89561" />
	</node>
	<node lat="59.56606388612434" lon="10.067966665480638" id="-21337">
		<tag k="name" v="Myrvang" />
		<tag k="place" v="farm" />
		<tag k="ssr:stedsnr" v="89658" />
	</node>
	<node lat="59.48591666928188" lon="10.303622230690479" id="-21352">
		<tag k="name" v="Innloa" />
		<tag k="place" v="quarter" />
		<tag k="ssr:stedsnr" v="89824" />
	</node>
	<node lat="59.546380558616505" lon="10.232972214715703" id="-21353">
		<tag k="name" v="Haugen" />
		<tag k="place" v="farm" />
		<tag k="ssr:stedsnr" v="89827" />
	</node>
	<node lat="59.613199998052345" lon="10.16750277632863" id="-21354">
		<tag k="name" v="Vestheim" />
		<tag k="place" v="farm" />
		<tag k="ssr:stedsnr" v="89900" />
	</node>
	<node lat="59.60211111271392" lon="10.234675006750289" id="-21357">
		<tag k="name" v="Sjøl østre" />
		<tag k="place" v="farm" />
		<tag k="ssr:stedsnr" v="89936" />
	</node>
	<node lat="59.63823055535737" lon="10.238141660779599" id="-21358">
		<tag k="name" v="Eikeberg" />
		<tag k="place" v="farm" />
		<tag k="ssr:stedsnr" v="89961" />
	</node>
	<node lat="59.64777222142271" lon="10.258247223748715" id="-21359">
		<tag k="name" v="Lialøkka" />
		<tag k="place" v="farm" />
		<tag k="ssr:stedsnr" v="89962" />
	</node>
	<node lat="59.4677262384669" lon="10.339983248256244" id="-21365">
		<tag k="name" v="Mulvika" />
		<tag k="place" v="farm" />
		<tag k="ssr:stedsnr" v="123029" />
	</node>
	<node lat="59.55633622719668" lon="10.066924550985023" id="-21367">
		<tag k="fixme" v="consider place=hamlet" />
		<tag k="name" v="Nordby" />
		<tag k="place" v="farm" />
		<tag k="ssr:stedsnr" v="124032" />
	</node>
	<node lat="59.5635388899865" lon="10.331727770552192" id="-21369">
		<tag k="alt_name" v="Warberg-Teigen" />
		<tag k="name" v="Varbergteigen" />
		<tag k="place" v="farm" />
		<tag k="ssr:stedsnr" v="124035" />
	</node>
	<node lat="59.601628240961034" lon="10.153234121506891" id="-21371">
		<tag k="fixme" v="consider place=hamlet" />
		<tag k="name" v="Skau" />
		<tag k="place" v="farm" />
		<tag k="ssr:stedsnr" v="124094" />
	</node>
	<node lat="59.58654241103046" lon="10.255395472467104" id="-21372">
		<tag k="fixme" v="consider place=hamlet" />
		<tag k="name" v="Dalen" />
		<tag k="place" v="farm" />
		<tag k="ssr:stedsnr" v="124098" />
	</node>
	<node lat="59.65193333093913" lon="10.260436117192356" id="-21374">
		<tag k="name" v="Fagerli" />
		<tag k="place" v="farm" />
		<tag k="ssr:stedsnr" v="124159" />
	</node>
	<node lat="59.643607019327355" lon="10.229016075769481" id="-21377">
		<tag k="alt_name" v="Kløvstad" />
		<tag k="fixme" v="consider place=hamlet" />
		<tag k="name" v="Kløvestad" />
		<tag k="place" v="farm" />
		<tag k="ssr:stedsnr" v="124148" />
	</node>
	<node lat="59.5412611099891" lon="10.055991672246037" id="-21378">
		<tag k="name" v="Steinbekk" />
		<tag k="place" v="isolated_dwelling" />
		<tag k="ssr:stedsnr" v="124927" />
	</node>
	<node lat="59.53432778136067" lon="10.121374995093788" id="-21379">
		<tag k="alt_name" v="Kammelrød S." />
		<tag k="name" v="Kammelrød" />
		<tag k="place" v="farm" />
		<tag k="ssr:stedsnr" v="124874" />
	</node>
	<node lat="59.52939897743433" lon="10.276873289199537" id="-21381">
		<tag k="alt_name" v="Engnes" />
		<tag k="fixme" v="consider place=hamlet" />
		<tag k="name" v="Engenes" />
		<tag k="place" v="farm" />
		<tag k="ssr:stedsnr" v="124889" />
	</node>
	<node lat="59.51792500045977" lon="10.214824992815483" id="-21382">
		<tag k="name" v="Jonsrud" />
		<tag k="place" v="farm" />
		<tag k="ssr:stedsnr" v="124982" />
	</node>
	<node lat="59.50006570086281" lon="10.24759925353436" id="-21383">
		<tag k="name" v="Guåker" />
		<tag k="place" v="hamlet" />
		<tag k="ssr:stedsnr" v="124986" />
	</node>
	<node lat="59.64287500276398" lon="10.259211102649877" id="-21386">
		<tag k="name" v="Åsen" />
		<tag k="place" v="farm" />
		<tag k="ssr:stedsnr" v="125171" />
	</node>
	<node lat="59.639800000312206" lon="10.070063886499407" id="-21387">
		<tag k="name" v="Presteseter" />
		<tag k="place" v="isolated_dwelling" />
		<tag k="ssr:stedsnr" v="125182" />
	</node>
	<node lat="59.57553333116978" lon="10.259391674526723" id="-21389">
		<tag k="name" v="Bjørnstadfeltet" />
		<tag k="place" v="quarter" />
		<tag k="ssr:stedsnr" v="141751" />
	</node>
	<node lat="59.50044722622691" lon="10.286238889522272" id="-21400">
		<tag k="name" v="Voll fellesfjøs" />
		<tag k="place" v="locality" />
		<tag k="ssr:stedsnr" v="148843" />
	</node>
	<node lat="59.495658329007576" lon="10.174511102770202" id="-21401">
		<tag k="name" v="Hegg" />
		<tag k="place" v="farm" />
		<tag k="ssr:stedsnr" v="148652" />
	</node>
	<node lat="59.5532249955363" lon="10.291186111580734" id="-21404">
		<tag k="name" v="Øgården" />
		<tag k="place" v="farm" />
		<tag k="ssr:stedsnr" v="149084" />
	</node>
	<node lat="59.478043609939334" lon="10.324126512192322" id="-21408">
		<tag k="fixme" v="consider place=hamlet" />
		<tag k="name" v="Ekelund" />
		<tag k="place" v="farm" />
		<tag k="ssr:stedsnr" v="148934" />
	</node>
	<node lat="59.553097218360946" lon="10.006408334988908" id="-21416">
		<tag k="name" v="Elvemyrshytta" />
		<tag k="place" v="isolated_dwelling" />
		<tag k="ssr:stedsnr" v="149310" />
	</node>
	<node lat="59.586008334535165" lon="10.121324995878112" id="-21418">
		<tag k="historic" v="shieling" />
		<tag k="name" v="Romneseter" />
		<tag k="place" v="isolated_dwelling" />
		<tag k="ssr:stedsnr" v="149328" />
	</node>
	<node lat="59.57961687620889" lon="10.073200687119844" id="-21420">
		<tag k="fixme" v="consider place=hamlet" />
		<tag k="name" v="Rød" />
		<tag k="place" v="farm" />
		<tag k="ssr:stedsnr" v="149350" />
	</node>
	<node lat="59.603391669942795" lon="9.933783325054033" id="-21430">
		<tag k="name" v="Sjulerudstua" />
		<tag k="place" v="isolated_dwelling" />
		<tag k="ssr:stedsnr" v="149266" />
	</node>
	<node lat="59.52855277493768" lon="10.122313896813631" id="-21435">
		<tag k="name" v="Delsbekk" />
		<tag k="place" v="isolated_dwelling" />
		<tag k="ssr:stedsnr" v="149383" />
	</node>
	<node lat="59.55475277502284" lon="10.231794449415206" id="-21438">
		<tag k="name" v="Holm" />
		<tag k="place" v="farm" />
		<tag k="ssr:stedsnr" v="149606" />
	</node>
	<node lat="59.62294166430358" lon="10.200019438775644" id="-21439">
		<tag k="name" v="Langerud" />
		<tag k="place" v="farm" />
		<tag k="ssr:stedsnr" v="149616" />
	</node>
	<node lat="59.62015555113864" lon="10.197111109284283" id="-21440">
		<tag k="name" v="Tollerud" />
		<tag k="place" v="farm" />
		<tag k="ssr:stedsnr" v="149621" />
	</node>
	<node lat="59.63066389078868" lon="10.236463885634047" id="-21441">
		<tag k="name" v="Lærum nordre" />
		<tag k="place" v="farm" />
		<tag k="ssr:stedsnr" v="149640" />
	</node>
	<node lat="59.568925000072674" lon="10.063733336132584" id="-21442">
		<tag k="name" v="Nordheim" />
		<tag k="place" v="farm" />
		<tag k="ssr:stedsnr" v="149641" />
	</node>
	<node lat="59.5899083315778" lon="10.219902780280783" id="-21446">
		<tag k="name" v="Bø søndre" />
		<tag k="place" v="farm" />
		<tag k="ssr:stedsnr" v="149560" />
	</node>
	<node lat="59.56655833745189" lon="10.261975003033228" id="-21448">
		<tag k="name" v="Bekkevold" />
		<tag k="place" v="farm" />
		<tag k="ssr:stedsnr" v="149596" />
	</node>
	<node lat="59.60499722223979" lon="10.138444445956967" id="-21450">
		<tag k="name" v="Øvre Kaldmo" />
		<tag k="place" v="farm" />
		<tag k="ssr:stedsnr" v="149732" />
	</node>
	<node lat="59.66071110763027" lon="10.202797218298526" id="-21457">
		<tag k="name" v="Tennungen" />
		<tag k="place" v="farm" />
		<tag k="ssr:stedsnr" v="149936" />
	</node>
	<node lat="59.60492221987868" lon="10.23599999867258" id="-21461">
		<tag k="name" v="Innlaget" />
		<tag k="place" v="farm" />
		<tag k="ssr:stedsnr" v="149948" />
	</node>
	<node lat="59.64995000458292" lon="10.209227770457323" id="-21462">
		<tag k="name" v="Klevjerhagen" />
		<tag k="place" v="quarter" />
		<tag k="ssr:stedsnr" v="149968" />
	</node>
	<node lat="59.53298352743206" lon="10.239304701858629" id="-21467">
		<tag k="alt_name" v="Brannåsen turisthytte" />
		<tag k="fixme" v="consider tourism=alpine_hut or tourism=chalet" />
		<tag k="name" v="Brannåshytta" />
		<tag k="ssr:stedsnr" v="173277" />
		<tag k="tourism" v="wilderness_hut" />
	</node>
	<node lat="59.48828425101178" lon="10.164425292981882" id="-21468">
		<tag k="fixme" v="consider place=hamlet" />
		<tag k="name" v="Gjøgri" />
		<tag k="place" v="farm" />
		<tag k="ssr:stedsnr" v="184002" />
	</node>
	<node lat="59.48707095302905" lon="10.134937493098244" id="-21469">
		<tag k="fixme" v="consider place=hamlet" />
		<tag k="name" v="Askerud" />
		<tag k="place" v="farm" />
		<tag k="ssr:stedsnr" v="184016" />
	</node>
	<node lat="59.58332777658759" lon="10.026941663053842" id="-21471">
		<tag k="name" v="Holterønningen" />
		<tag k="place" v="farm" />
		<tag k="ssr:stedsnr" v="185016" />
	</node>
	<node lat="59.58572564018225" lon="9.989210655689234" id="-21472">
		<tag k="name" v="Markenrudsetra" />
		<tag k="place" v="locality" />
		<tag k="ssr:stedsnr" v="185018" />
	</node>
	<node lat="59.578499187285324" lon="10.037343489698543" id="-21473">
		<tag k="fixme" v="consider place=hamlet" />
		<tag k="name" v="Holt" />
		<tag k="place" v="farm" />
		<tag k="ssr:stedsnr" v="185021" />
	</node>
	<node lat="59.5630472267145" lon="10.176383326523622" id="-21474">
		<tag k="name" v="Jansen" />
		<tag k="place" v="isolated_dwelling" />
		<tag k="ssr:stedsnr" v="185047" />
	</node>
	<node lat="59.56765955585066" lon="10.065944895570572" id="-21475">
		<tag k="fixme" v="consider place=hamlet" />
		<tag k="name" v="Hem" />
		<tag k="place" v="farm" />
		<tag k="ssr:stedsnr" v="185050" />
	</node>
	<node lat="59.45820423491379" lon="10.117863707135882" id="-21477">
		<tag k="fixme" v="consider place=hamlet" />
		<tag k="name" v="Åsgården" />
		<tag k="place" v="farm" />
		<tag k="ssr:stedsnr" v="185064" />
	</node>
	<node lat="59.60526111302387" lon="10.232852775029604" id="-21478">
		<tag k="name" v="Gran" />
		<tag k="place" v="farm" />
		<tag k="ssr:stedsnr" v="185114" />
	</node>
	<node lat="59.46082585579556" lon="10.313729832206127" id="-21479">
		<tag k="fixme" v="consider place=hamlet" />
		<tag k="name" v="Kiste" />
		<tag k="place" v="farm" />
		<tag k="ssr:stedsnr" v="185115" />
	</node>
	<node lat="59.64439177551476" lon="10.21424449180802" id="-21481">
		<tag k="alt_name" v="Jahren" />
		<tag k="fixme" v="consider place=hamlet" />
		<tag k="name" v="Jaren" />
		<tag k="place" v="farm" />
		<tag k="ssr:stedsnr" v="185145" />
	</node>
	<node lat="59.52342639758419" lon="10.099575792139735" id="-21483">
		<tag k="alt_name" v="Fogstad N." />
		<tag k="name" v="Fogstad" />
		<tag k="place" v="hamlet" />
		<tag k="ssr:stedsnr" v="185884" />
	</node>
	<node lat="59.528388886085004" lon="10.229816666710006" id="-21484">
		<tag k="name" v="Holtanhytta" />
		<tag k="place" v="isolated_dwelling" />
		<tag k="ssr:stedsnr" v="185890" />
	</node>
	<node lat="59.53141961017875" lon="10.166462231169898" id="-21485">
		<tag k="alt_name" v="Stubsrud" />
		<tag k="fixme" v="consider place=hamlet" />
		<tag k="name" v="Stubbsrød" />
		<tag k="place" v="farm" />
		<tag k="ssr:stedsnr" v="185895" />
	</node>
	<node lat="59.5245929611821" lon="10.174505155288799" id="-21486">
		<tag k="name" v="Løken" />
		<tag k="place" v="hamlet" />
		<tag k="ssr:stedsnr" v="185896" />
	</node>
	<node lat="59.5420083354018" lon="10.008127786674228" id="-21487">
		<tag k="name" v="Fossnessetra" />
		<tag k="place" v="isolated_dwelling" />
		<tag k="ssr:stedsnr" v="185899" />
	</node>
	<node lat="59.550587384833086" lon="10.130547786843902" id="-21488">
		<tag k="alt_name" v="Opsahl" />
		<tag k="fixme" v="consider place=hamlet" />
		<tag k="name" v="Oppsal" />
		<tag k="place" v="farm" />
		<tag k="ssr:stedsnr" v="185910" />
	</node>
	<node lat="59.55598421613509" lon="10.079870076394792" id="-21489">
		<tag k="fixme" v="consider place=hamlet" />
		<tag k="name" v="Østby" />
		<tag k="place" v="farm" />
		<tag k="ssr:stedsnr" v="185914" />
	</node>
	<node lat="59.54620315735528" lon="10.175078015138775" id="-21490">
		<tag k="alt_name" v="Dalsrud" />
		<tag k="fixme" v="consider place=hamlet" />
		<tag k="name" v="Dalsrød" />
		<tag k="place" v="farm" />
		<tag k="ssr:stedsnr" v="185923" />
	</node>
	<node lat="59.52527777955075" lon="10.063075004267795" id="-21493">
		<tag k="name" v="Hedde" />
		<tag k="place" v="farm" />
		<tag k="ssr:stedsnr" v="185869" />
	</node>
	<node lat="59.53108055664565" lon="10.006186118072469" id="-21494">
		<tag k="name" v="Blåkollstua" />
		<tag k="place" v="isolated_dwelling" />
		<tag k="ssr:stedsnr" v="185876" />
	</node>
	<node lat="59.51120449971439" lon="10.122322225160135" id="-21495">
		<tag k="fixme" v="consider place=hamlet" />
		<tag k="name" v="Kårby" />
		<tag k="place" v="farm" />
		<tag k="ssr:stedsnr" v="185967" />
	</node>
	<node lat="59.51259310935611" lon="10.134097348650455" id="-21496">
		<tag k="fixme" v="consider place=hamlet" />
		<tag k="name" v="Lørdal" />
		<tag k="place" v="farm" />
		<tag k="ssr:stedsnr" v="185975" />
	</node>
	<node lat="59.51281388601625" lon="10.29062500341968" id="-21497">
		<tag k="name" v="Sjøskogen" />
		<tag k="place" v="farm" />
		<tag k="ssr:stedsnr" v="185976" />
	</node>
	<node lat="59.519932982226386" lon="10.285079877148085" id="-21498">
		<tag k="fixme" v="consider place=hamlet" />
		<tag k="name" v="Åsen" />
		<tag k="place" v="farm" />
		<tag k="ssr:stedsnr" v="185978" />
	</node>
	<node lat="59.51028278294241" lon="10.282630301373151" id="-21499">
		<tag k="alt_name" v="Kleiverud" />
		<tag k="fixme" v="consider place=hamlet" />
		<tag k="name" v="Kleiverød" />
		<tag k="place" v="farm" />
		<tag k="ssr:stedsnr" v="185998" />
	</node>
	<node lat="59.5051166710824" lon="10.100799995318498" id="-21503">
		<tag k="name" v="Engen" />
		<tag k="place" v="farm" />
		<tag k="ssr:stedsnr" v="209052" />
	</node>
	<node lat="59.477577775109765" lon="10.10467499177634" id="-21507">
		<tag k="name" v="Nordre Ønnemørk" />
		<tag k="place" v="farm" />
		<tag k="ssr:stedsnr" v="209510" />
	</node>
	<node lat="59.48319722114555" lon="10.098230562002867" id="-21510">
		<tag k="name" v="Fagerheim" />
		<tag k="place" v="farm" />
		<tag k="ssr:stedsnr" v="209523" />
	</node>
	<node lat="59.47003055338784" lon="10.244744442589706" id="-21512">
		<tag k="name" v="Greaker østre" />
		<tag k="place" v="farm" />
		<tag k="ssr:stedsnr" v="209699" />
	</node>
	<node lat="59.54523610819839" lon="10.308986110321731" id="-21514">
		<tag k="name" v="Grindvollen" />
		<tag k="place" v="farm" />
		<tag k="ssr:stedsnr" v="210046" />
	</node>
	<node lat="59.50171944589831" lon="10.275747222062106" id="-21515">
		<tag k="name" v="Nordheim" />
		<tag k="place" v="farm" />
		<tag k="ssr:stedsnr" v="209834" />
	</node>
	<node lat="59.49693889220545" lon="10.281602781670326" id="-21516">
		<tag k="name" v="Botnestål" />
		<tag k="place" v="farm" />
		<tag k="ssr:stedsnr" v="209838" />
	</node>
	<node lat="59.49560555441747" lon="10.292899995433123" id="-21517">
		<tag k="name" v="Østre Gudum" />
		<tag k="place" v="farm" />
		<tag k="ssr:stedsnr" v="209842" />
	</node>
	<node lat="59.47510555615666" lon="10.28553888755247" id="-21518">
		<tag k="name" v="Gunnerud" />
		<tag k="place" v="farm" />
		<tag k="ssr:stedsnr" v="209846" />
	</node>
	<node lat="59.47924722220797" lon="10.285419452126257" id="-21519">
		<tag k="name" v="Gunnerud" />
		<tag k="place" v="farm" />
		<tag k="ssr:stedsnr" v="209848" />
	</node>
	<node lat="59.514545304947255" lon="10.131599450467077" id="-21523">
		<tag k="name" v="Nordre Lørdal" />
		<tag k="place" v="farm" />
		<tag k="ssr:stedsnr" v="210364" />
	</node>
	<node lat="59.659625096541895" lon="10.284617054999917" id="-21528">
		<tag k="alt_name" v="D.I.V. Vannverket" />
		<tag k="man_made" v="water_works" />
		<tag k="name" v="Røysjø vannverk" />
		<tag k="ssr:stedsnr" v="210182" />
	</node>
	<node lat="59.61658055379192" lon="10.195936118735785" id="-21532">
		<tag k="name" v="Børstad" />
		<tag k="place" v="farm" />
		<tag k="ssr:stedsnr" v="210639" />
	</node>
	<node lat="59.572455555358204" lon="10.259811110106254" id="-21537">
		<tag k="name" v="Bjørnstad" />
		<tag k="place" v="farm" />
		<tag k="ssr:stedsnr" v="210603" />
	</node>
	<node lat="59.56579166530646" lon="10.261038893911088" id="-21538">
		<tag k="name" v="Solhaug" />
		<tag k="place" v="farm" />
		<tag k="ssr:stedsnr" v="210610" />
	</node>
	<node lat="59.63290555860463" lon="10.234861103774227" id="-21541">
		<tag k="name" v="Røllesgruvene" />
		<tag k="place" v="quarter" />
		<tag k="ssr:stedsnr" v="210660" />
	</node>
	<node lat="59.656402774330644" lon="10.217311117372292" id="-21547">
		<tag k="name" v="Flåten søndre" />
		<tag k="place" v="farm" />
		<tag k="ssr:stedsnr" v="210974" />
	</node>
	<node lat="59.666199996461394" lon="10.230672215738581" id="-21549">
		<tag k="name" v="Jonsrud" />
		<tag k="place" v="farm" />
		<tag k="ssr:stedsnr" v="210931" />
	</node>
	<node lat="59.65228611520982" lon="10.203638896859347" id="-21557">
		<tag k="name" v="Øvre Klevjer" />
		<tag k="place" v="farm" />
		<tag k="ssr:stedsnr" v="290321" />
	</node>
	<node lat="59.55939697378006" lon="10.23041853545734" id="-21562">
		<tag k="fixme" v="consider place=hamlet" />
		<tag k="name" v="Holm" />
		<tag k="place" v="farm" />
		<tag k="ssr:stedsnr" v="306046" />
	</node>
	<node lat="59.56033006276872" lon="10.150776565744835" id="-21563">
		<tag k="alt_name" v="Eplerud" />
		<tag k="fixme" v="consider place=hamlet" />
		<tag k="name" v="Eplerød" />
		<tag k="place" v="farm" />
		<tag k="ssr:stedsnr" v="306049" />
	</node>
	<node lat="59.567513199635236" lon="10.082143155962108" id="-21564">
		<tag k="alt_name" v="Myhren" />
		<tag k="fixme" v="consider place=hamlet" />
		<tag k="name" v="Myra" />
		<tag k="place" v="farm" />
		<tag k="ssr:stedsnr" v="306051" />
	</node>
	<node lat="59.563543585421556" lon="10.062228659436018" id="-21565">
		<tag k="fixme" v="consider place=hamlet" />
		<tag k="name" v="Rustan" />
		<tag k="place" v="farm" />
		<tag k="ssr:stedsnr" v="306055" />
	</node>
	<node lat="59.47391879603154" lon="10.184386000783784" id="-21566">
		<tag k="fixme" v="consider place=hamlet" />
		<tag k="name" v="Barkost" />
		<tag k="place" v="farm" />
		<tag k="ssr:stedsnr" v="306098" />
	</node>
	<node lat="59.476719445793" lon="10.150269439957109" id="-21567">
		<tag k="name" v="Sætra" />
		<tag k="place" v="isolated_dwelling" />
		<tag k="ssr:stedsnr" v="306101" />
	</node>
	<node lat="59.66811708415523" lon="10.265224064985263" id="-21568">
		<tag k="alt_name" v="Tingelstad" />
		<tag k="fixme" v="consider place=hamlet" />
		<tag k="name" v="Tingulstad" />
		<tag k="place" v="farm" />
		<tag k="ssr:stedsnr" v="306138" />
	</node>
	<node lat="59.66838427055574" lon="10.201155553302906" id="-21569">
		<tag k="name" v="Trolsrud" />
		<tag k="place" v="hamlet" />
		<tag k="ssr:stedsnr" v="306142" />
	</node>
	<node lat="59.6361468752439" lon="10.258468794806301" id="-21573">
		<tag k="name" v="Lundeby" />
		<tag k="place" v="farm" />
		<tag k="ssr:stedsnr" v="307180" />
	</node>
	<node lat="59.53825555902224" lon="10.023483332982302" id="-21574">
		<tag k="alt_name" v="Gurriksetra" />
		<tag k="name" v="Gurrikstua" />
		<tag k="place" v="isolated_dwelling" />
		<tag k="ssr:stedsnr" v="306931" />
	</node>
	<node lat="59.54422500267519" lon="10.250591669231559" id="-21575">
		<tag k="alt_name" v="Øgården" />
		<tag k="name" v="Ødegården" />
		<tag k="place" v="farm" />
		<tag k="ssr:stedsnr" v="306933" />
	</node>
	<node lat="59.54208269096933" lon="10.099225743070063" id="-21576">
		<tag k="fixme" v="consider place=hamlet" />
		<tag k="name" v="Vike" />
		<tag k="place" v="farm" />
		<tag k="ssr:stedsnr" v="306943" />
	</node>
	<node lat="59.52187301059193" lon="10.179597756692463" id="-21579">
		<tag k="alt_name" v="Bergan, s;Bergan søndre" />
		<tag k="fixme" v="consider place=hamlet" />
		<tag k="name" v="Søndre Bergan" />
		<tag k="place" v="farm" />
		<tag k="ssr:stedsnr" v="306981" />
	</node>
	<node lat="59.52103889221035" lon="10.251661103048967" id="-21580">
		<tag k="name" v="Veierødsetra" />
		<tag k="place" v="isolated_dwelling" />
		<tag k="ssr:stedsnr" v="306985" />
	</node>
	<node lat="59.501802777488834" lon="10.225155559729247" id="-21581">
		<tag k="alt_name" v="Nordre Bringaker" />
		<tag k="name" v="Bringåker" />
		<tag k="place" v="farm" />
		<tag k="ssr:stedsnr" v="306989" />
	</node>
	<node lat="59.50035617957307" lon="10.282808061260672" id="-21582">
		<tag k="alt_name" v="Mellom Gaupås" />
		<tag k="fixme" v="consider place=hamlet" />
		<tag k="name" v="Gaupås" />
		<tag k="place" v="farm" />
		<tag k="ssr:stedsnr" v="306993" />
	</node>
	<node lat="59.513269299515294" lon="10.222676738890408" id="-21583">
		<tag k="fixme" v="consider place=hamlet" />
		<tag k="name" v="Holtan" />
		<tag k="place" v="farm" />
		<tag k="ssr:stedsnr" v="306995" />
	</node>
	<node lat="59.62497499758097" lon="10.322741669329153" id="-21584">
		<tag k="name" v="Svartevasshytta" />
		<tag k="place" v="isolated_dwelling" />
		<tag k="ssr:stedsnr" v="307076" />
	</node>
	<node lat="59.627727205498324" lon="10.237209420758706" id="-21588">
		<tag k="alt_name" v="Lærum østre" />
		<tag k="name" v="Lærum" />
		<tag k="place" v="hamlet" />
		<tag k="ssr:stedsnr" v="307084" />
	</node>
	<node lat="59.6505555570895" lon="10.204866658387267" id="-21590">
		<tag k="alt_name" v="Klevjer" />
		<tag k="name" v="Klever" />
		<tag k="place" v="farm" />
		<tag k="ssr:stedsnr" v="307144" />
	</node>
	<node lat="59.569111112013836" lon="10.193736113151507" id="-21594">
		<tag k="historic" v="shieling" />
		<tag k="name" v="Dylleberg" />
		<tag k="place" v="isolated_dwelling" />
		<tag k="ssr:stedsnr" v="328338" />
	</node>
	<node lat="59.478888888299785" lon="10.110988891037847" id="-21601">
		<tag k="name" v="Buenstua" />
		<tag k="place" v="isolated_dwelling" />
		<tag k="ssr:stedsnr" v="330528" />
	</node>
	<node lat="59.45433055682298" lon="10.356255551811755" id="-21605">
		<tag k="name" v="Snekkestad nedre" />
		<tag k="place" v="farm" />
		<tag k="ssr:stedsnr" v="330892" />
	</node>
	<node lat="59.458888892026934" lon="10.104750006720282" id="-21615">
		<tag k="name" v="Søndre Berg" />
		<tag k="place" v="farm" />
		<tag k="ssr:stedsnr" v="331100" />
	</node>
	<node lat="59.57824444614076" lon="10.06636111935461" id="-21621">
		<tag k="name" v="Furuholmen" />
		<tag k="place" v="farm" />
		<tag k="ssr:stedsnr" v="331339" />
	</node>
	<node lat="59.57900277611657" lon="10.069147224684828" id="-21622">
		<tag k="name" v="Taje" />
		<tag k="place" v="isolated_dwelling" />
		<tag k="ssr:stedsnr" v="331340" />
	</node>
	<node lat="59.582227774195374" lon="10.09803888799604" id="-21623">
		<tag k="name" v="Tangen" />
		<tag k="place" v="farm" />
		<tag k="ssr:stedsnr" v="331345" />
	</node>
	<node lat="59.49773888657986" lon="10.150816672320333" id="-21631">
		<tag k="name" v="Gommerud" />
		<tag k="place" v="locality" />
		<tag k="ssr:stedsnr" v="331464" />
	</node>
	<node lat="59.58141110843623" lon="10.011449995839978" id="-21632">
		<tag k="name" v="Sagbråtan" />
		<tag k="place" v="isolated_dwelling" />
		<tag k="ssr:stedsnr" v="331465" />
	</node>
	<node lat="59.58643611449887" lon="10.032236111347824" id="-21633">
		<tag k="name" v="Kullstua" />
		<tag k="place" v="isolated_dwelling" />
		<tag k="ssr:stedsnr" v="331469" />
	</node>
	<node lat="59.509599997924546" lon="10.188072228629458" id="-21639">
		<tag k="name" v="Hillestad" />
		<tag k="place" v="farm" />
		<tag k="ssr:stedsnr" v="331520" />
	</node>
	<node lat="59.5199194436416" lon="10.262172223850113" id="-21640">
		<tag k="name" v="Fossglaneren" />
		<tag k="place" v="isolated_dwelling" />
		<tag k="ssr:stedsnr" v="331530" />
	</node>
	<node lat="59.46008611029023" lon="10.240366667616302" id="-21641">
		<tag k="name" v="Vidskjold nordre" />
		<tag k="place" v="farm" />
		<tag k="ssr:stedsnr" v="331540" />
	</node>
	<node lat="59.627741666526944" lon="10.215616672614525" id="-21643">
		<tag k="amenity" v="school" />
		<tag k="name" v="Galleberg skole" />
		<tag k="ssr:stedsnr" v="331637" />
	</node>
	<node lat="59.62286944063965" lon="10.236874993606579" id="-21645">
		<tag k="name" v="Lærum vestre" />
		<tag k="place" v="farm" />
		<tag k="ssr:stedsnr" v="331648" />
	</node>
	<node lat="59.56743055960496" lon="10.229219446205539" id="-21648">
		<tag k="name" v="Åsnæs Bakken" />
		<tag k="place" v="farm" />
		<tag k="ssr:stedsnr" v="331585" />
	</node>
	<node lat="59.49665000234005" lon="10.248836113721932" id="-21649">
		<tag k="name" v="Bergtun" />
		<tag k="place" v="isolated_dwelling" />
		<tag k="ssr:stedsnr" v="331590" />
	</node>
	<node lat="59.49501666344277" lon="10.252708332131073" id="-21651">
		<tag k="name" v="Bergvillaen" />
		<tag k="place" v="isolated_dwelling" />
		<tag k="ssr:stedsnr" v="331595" />
	</node>
	<node lat="59.488988887770894" lon="10.17908611982606" id="-21653">
		<tag k="name" v="Bjerke" />
		<tag k="place" v="farm" />
		<tag k="ssr:stedsnr" v="331600" />
	</node>
	<node lat="59.53997428107124" lon="10.164305341699631" id="-21654">
		<tag k="name" v="Auerud" />
		<tag k="place" v="farm" />
		<tag k="ssr:stedsnr" v="331735" />
	</node>
	<node lat="59.49659444142373" lon="10.294830550719592" id="-21658">
		<tag k="name" v="Svartebu" />
		<tag k="place" v="quarter" />
		<tag k="ssr:stedsnr" v="331829" />
	</node>
	<node lat="59.53964722458696" lon="10.320574996592786" id="-21659">
		<tag k="name" v="Bustrand" />
		<tag k="place" v="farm" />
		<tag k="ssr:stedsnr" v="331832" />
	</node>
	<node lat="59.47443255424378" lon="10.260248791777736" id="-21660">
		<tag k="name" v="Granli" />
		<tag k="place" v="farm" />
		<tag k="ssr:stedsnr" v="331698" />
	</node>
	<node lat="59.54039722045485" lon="10.211205547201102" id="-21661">
		<tag k="name" v="Løkenseter nord" />
		<tag k="place" v="isolated_dwelling" />
		<tag k="ssr:stedsnr" v="331755" />
	</node>
	<node lat="59.486397223292535" lon="10.296116664446924" id="-21664">
		<tag k="name" v="NAI Vesthøy" />
		<tag k="place" v="quarter" />
		<tag k="ssr:stedsnr" v="331868" />
	</node>
	<node lat="59.613441665945416" lon="10.19255555332932" id="-21665">
		<tag k="name" v="Børstad" />
		<tag k="place" v="farm" />
		<tag k="ssr:stedsnr" v="331937" />
	</node>
	<node lat="59.669172225734464" lon="10.251188883204911" id="-21666">
		<tag k="name" v="Trogstad" />
		<tag k="place" v="farm" />
		<tag k="ssr:stedsnr" v="331942" />
	</node>
	<node lat="59.549761110819745" lon="10.093950003591484" id="-21672">
		<tag k="name" v="Leirkvam" />
		<tag k="place" v="farm" />
		<tag k="ssr:stedsnr" v="332273" />
	</node>
	<node lat="59.59747221826933" lon="10.020072223827318" id="-21673">
		<tag k="name" v="Hammeren" />
		<tag k="place" v="farm" />
		<tag k="ssr:stedsnr" v="332281" />
	</node>
	<node lat="59.60304045987881" lon="10.037342237931378" id="-21674">
		<tag k="name" v="Bollerud" />
		<tag k="place" v="farm" />
		<tag k="ssr:stedsnr" v="332286" />
	</node>
	<node lat="59.46683463922877" lon="10.102979242231907" id="-21679">
		<tag k="fixme" v="consider place=hamlet" />
		<tag k="name" v="Sjue" />
		<tag k="place" v="farm" />
		<tag k="ssr:stedsnr" v="366054" />
	</node>
	<node lat="59.491905559916376" lon="10.3076305497247" id="-21680">
		<tag k="name" v="Rove" />
		<tag k="place" v="suburb" />
		<tag k="ssr:stedsnr" v="366008" />
	</node>
	<node lat="59.48916544699024" lon="10.276968273436646" id="-21681">
		<tag k="alt_name" v="Nordre Myhre" />
		<tag k="fixme" v="consider place=hamlet" />
		<tag k="name" v="Myre" />
		<tag k="place" v="farm" />
		<tag k="ssr:stedsnr" v="366010" />
	</node>
	<node lat="59.48403726075108" lon="10.236305020907471" id="-21682">
		<tag k="fixme" v="consider place=hamlet" />
		<tag k="name" v="Sukke" />
		<tag k="place" v="farm" />
		<tag k="ssr:stedsnr" v="366013" />
	</node>
	<node lat="59.48987289037201" lon="10.099351103470552" id="-21683">
		<tag k="fixme" v="consider place=hamlet" />
		<tag k="name" v="Eikenes" />
		<tag k="place" v="farm" />
		<tag k="ssr:stedsnr" v="366017" />
	</node>
	<node lat="59.483716814410634" lon="10.282657962268681" id="-21684">
		<tag k="fixme" v="consider place=hamlet" />
		<tag k="name" v="Grønnmørk" />
		<tag k="place" v="farm" />
		<tag k="ssr:stedsnr" v="366022" />
	</node>
	<node lat="59.47627419489513" lon="10.289979865877605" id="-21685">
		<tag k="alt_name" v="Gunnerød" />
		<tag k="fixme" v="consider place=hamlet" />
		<tag k="name" v="Gunnerud" />
		<tag k="place" v="farm" />
		<tag k="ssr:stedsnr" v="366023" />
	</node>
	<node lat="59.47420000114731" lon="10.276919440622006" id="-21686">
		<tag k="name" v="Nygård" />
		<tag k="place" v="farm" />
		<tag k="ssr:stedsnr" v="366086" />
	</node>
	<node lat="59.63675601118035" lon="10.237344185575003" id="-21690">
		<tag k="fixme" v="consider place=hamlet" />
		<tag k="name" v="Eikeberg" />
		<tag k="place" v="farm" />
		<tag k="ssr:stedsnr" v="367140" />
	</node>
	<node lat="59.644258329533386" lon="10.022511115882951" id="-21692">
		<tag k="name" v="Torrudsetra" />
		<tag k="place" v="isolated_dwelling" />
		<tag k="ssr:stedsnr" v="367144" />
	</node>
	<node lat="59.501638139029275" lon="10.261449104736137" id="-21694">
		<tag k="alt_name" v="Sollie" />
		<tag k="fixme" v="consider place=hamlet" />
		<tag k="name" v="Solli" />
		<tag k="place" v="farm" />
		<tag k="ssr:stedsnr" v="367982" />
	</node>
	<node lat="59.50073297361567" lon="10.069120929883162" id="-21695">
		<tag k="fixme" v="consider place=hamlet" />
		<tag k="name" v="Kleppan" />
		<tag k="place" v="farm" />
		<tag k="ssr:stedsnr" v="367985" />
	</node>
	<node lat="59.50175580744781" lon="10.30094389417322" id="-21696">
		<tag k="name" v="Tvillingbru" />
		<tag k="place" v="isolated_dwelling" />
		<tag k="ssr:stedsnr" v="367990" />
	</node>
	<node lat="59.504397889902656" lon="10.20738692663013" id="-21697">
		<tag k="alt_name" v="Solberg østre" />
		<tag k="name" v="Solberg" />
		<tag k="place" v="hamlet" />
		<tag k="ssr:stedsnr" v="367995" />
	</node>
	<node lat="59.509482817307415" lon="10.16238720965438" id="-21698">
		<tag k="fixme" v="consider place=hamlet" />
		<tag k="name" v="Strand" />
		<tag k="place" v="farm" />
		<tag k="ssr:stedsnr" v="367998" />
	</node>
	<node lat="59.54839166325804" lon="9.994833335518186" id="-21700">
		<tag k="name" v="Kolahytta" />
		<tag k="place" v="isolated_dwelling" />
		<tag k="ssr:stedsnr" v="367903" />
	</node>
	<node lat="59.548686538195774" lon="10.326195608312126" id="-21701">
		<tag k="fixme" v="consider place=hamlet" />
		<tag k="name" v="Skar" />
		<tag k="place" v="farm" />
		<tag k="ssr:stedsnr" v="367906" />
	</node>
	<node lat="59.556324684440156" lon="10.32189701274673" id="-21702">
		<tag k="alt_name" v="Warberg" />
		<tag k="fixme" v="consider place=hamlet" />
		<tag k="name" v="Varberg" />
		<tag k="place" v="farm" />
		<tag k="ssr:stedsnr" v="367907" />
	</node>
	<node lat="59.543513889185" lon="10.329700007509093" id="-21703">
		<tag k="alt_name" v="Rolvsengen" />
		<tag k="name" v="Rolsenga" />
		<tag k="place" v="farm" />
		<tag k="ssr:stedsnr" v="367917" />
	</node>
	<node lat="59.615819442654804" lon="10.100944450631587" id="-21704">
		<tag k="historic" v="shieling" />
		<tag k="name" v="Kaldmosetra" />
		<tag k="place" v="isolated_dwelling" />
		<tag k="ssr:stedsnr" v="368093" />
	</node>
	<node lat="59.52746049943658" lon="10.075713160104701" id="-21706">
		<tag k="fixme" v="consider place=hamlet" />
		<tag k="name" v="Grønset" />
		<tag k="place" v="farm" />
		<tag k="ssr:stedsnr" v="367861" />
	</node>
	<node lat="59.460155554194586" lon="10.095177784303555" id="-21711">
		<tag k="name" v="Verkensmyra" />
		<tag k="place" v="locality" />
		<tag k="ssr:stedsnr" v="391096" />
	</node>
	<node lat="59.46143055417829" lon="10.142905555142077" id="-21712">
		<tag k="name" v="Langeli øvre" />
		<tag k="place" v="farm" />
		<tag k="ssr:stedsnr" v="391116" />
	</node>
	<node lat="59.47871944140078" lon="10.08357777249522" id="-21718">
		<tag k="name" v="Gran vestre" />
		<tag k="place" v="farm" />
		<tag k="ssr:stedsnr" v="391482" />
	</node>
	<node lat="59.462163889456015" lon="10.240202771857318" id="-21719">
		<tag k="name" v="Østsol" />
		<tag k="place" v="farm" />
		<tag k="ssr:stedsnr" v="391563" />
	</node>
	<node lat="59.464911109199406" lon="10.25120555603016" id="-21720">
		<tag k="name" v="Fudske nordre" />
		<tag k="place" v="farm" />
		<tag k="ssr:stedsnr" v="391564" />
	</node>
	<node lat="59.4817500039897" lon="10.303330564082012" id="-21725">
		<tag k="name" v="Rolighet" />
		<tag k="place" v="farm" />
		<tag k="ssr:stedsnr" v="391872" />
	</node>
	<node lat="59.569416668907394" lon="10.25184166179519" id="-21735">
		<tag k="name" v="Lersbryggen søndre" />
		<tag k="place" v="farm" />
		<tag k="ssr:stedsnr" v="392648" />
	</node>
	<node lat="59.55367222025392" lon="10.283783335396107" id="-21739">
		<tag k="name" v="Ødegården" />
		<tag k="place" v="farm" />
		<tag k="ssr:stedsnr" v="392254" />
	</node>
	<node lat="59.55262222193301" lon="10.292902784297759" id="-21740">
		<tag k="name" v="Bekke mellom" />
		<tag k="place" v="farm" />
		<tag k="ssr:stedsnr" v="392262" />
	</node>
	<node lat="59.53953055991475" lon="10.1637861197508" id="-21753">
		<tag k="name" v="Auerud" />
		<tag k="place" v="farm" />
		<tag k="ssr:stedsnr" v="392779" />
	</node>
	<node lat="59.599522219067296" lon="10.21223610621506" id="-21756">
		<tag k="name" v="Gunnestad nordre" />
		<tag k="place" v="farm" />
		<tag k="ssr:stedsnr" v="392920" />
	</node>
	<node lat="59.64913333622231" lon="10.252788884261221" id="-21761">
		<tag k="name" v="Solli" />
		<tag k="place" v="farm" />
		<tag k="ssr:stedsnr" v="392968" />
	</node>
	<node lat="59.6512666661902" lon="10.214133339054477" id="-21762">
		<tag k="name" v="Gryte" />
		<tag k="place" v="farm" />
		<tag k="ssr:stedsnr" v="392969" />
	</node>
	<node lat="59.659112254965315" lon="10.247888730993822" id="-21763">
		<tag k="name" v="Østren" />
		<tag k="place" v="farm" />
		<tag k="ssr:stedsnr" v="392972" />
	</node>
	<node lat="59.544041669456085" lon="10.246772230854742" id="-21766">
		<tag k="name" v="Skjervik" />
		<tag k="place" v="farm" />
		<tag k="ssr:stedsnr" v="424836" />
	</node>
	<node lat="59.48935966238285" lon="10.086696491281495" id="-21767">
		<tag k="alt_name" v="Solberg S." />
		<tag k="name" v="Solberg" />
		<tag k="place" v="hamlet" />
		<tag k="ssr:stedsnr" v="427005" />
	</node>
	<node lat="59.49810121219672" lon="10.098071946550895" id="-21768">
		<tag k="alt_name" v="Grennes S" />
		<tag k="fixme" v="consider place=hamlet" />
		<tag k="name" v="Grennes" />
		<tag k="place" v="farm" />
		<tag k="ssr:stedsnr" v="427048" />
	</node>
	<node lat="59.49817264053268" lon="10.2062846260014" id="-21769">
		<tag k="fixme" v="consider place=hamlet" />
		<tag k="name" v="Ende" />
		<tag k="place" v="farm" />
		<tag k="ssr:stedsnr" v="427050" />
	</node>
	<node lat="59.56680933662586" lon="10.285980290569446" id="-21770">
		<tag k="alt_name" v="Syverud" />
		<tag k="fixme" v="consider place=hamlet" />
		<tag k="name" v="Sjulerud" />
		<tag k="place" v="farm" />
		<tag k="ssr:stedsnr" v="427051" />
	</node>
	<node lat="59.57503792780615" lon="10.225799983925125" id="-21771">
		<tag k="name" v="Nes" />
		<tag k="place" v="farm" />
		<tag k="ssr:stedsnr" v="427053" />
	</node>
	<node lat="59.573502382999344" lon="10.248109084099593" id="-21772">
		<tag k="alt_name" v="Lersbryggen" />
		<tag k="fixme" v="consider place=hamlet" />
		<tag k="name" v="Lersbrygga" />
		<tag k="place" v="farm" />
		<tag k="ssr:stedsnr" v="427056" />
	</node>
	<node lat="59.451830559008286" lon="10.101800004091237" id="-21773">
		<tag k="name" v="Hovland" />
		<tag k="place" v="farm" />
		<tag k="ssr:stedsnr" v="427128" />
	</node>
	<node lat="59.59177086124674" lon="10.009779990405208" id="-21777">
		<tag k="fixme" v="consider place=hamlet" />
		<tag k="name" v="Markenrud" />
		<tag k="place" v="farm" />
		<tag k="ssr:stedsnr" v="428033" />
	</node>
	<node lat="59.55393594729597" lon="10.066123089921966" id="-21778">
		<tag k="fixme" v="consider place=hamlet" />
		<tag k="name" v="Stokke" />
		<tag k="place" v="farm" />
		<tag k="ssr:stedsnr" v="428034" />
	</node>
	<node lat="59.55755555845192" lon="10.010747218516734" id="-21779">
		<tag k="name" v="Øvre Lindsetseter" />
		<tag k="place" v="isolated_dwelling" />
		<tag k="ssr:stedsnr" v="428037" />
	</node>
	<node lat="59.55894224349857" lon="10.301959425606087" id="-21780">
		<tag k="fixme" v="consider place=hamlet" />
		<tag k="name" v="Bruserud" />
		<tag k="place" v="farm" />
		<tag k="ssr:stedsnr" v="428041" />
	</node>
	<node lat="59.564449998410474" lon="9.997783329946268" id="-21781">
		<tag k="name" v="Stokkestua" />
		<tag k="place" v="isolated_dwelling" />
		<tag k="ssr:stedsnr" v="428051" />
	</node>
	<node lat="59.570086110468864" lon="10.203552784719003" id="-21782">
		<tag k="alt_name" v="Stokke nordre" />
		<tag k="name" v="Stokke" />
		<tag k="place" v="hamlet" />
		<tag k="ssr:stedsnr" v="428055" />
	</node>
	<node lat="59.66155182648995" lon="10.252076510949365" id="-21784">
		<tag k="alt_name" v="Østren" />
		<tag k="fixme" v="consider place=hamlet" />
		<tag k="name" v="Østri" />
		<tag k="place" v="farm" />
		<tag k="ssr:stedsnr" v="428125" />
	</node>
	<node lat="59.66485555965395" lon="10.142788889993257" id="-21785">
		<tag k="name" v="Gutudalsstua" />
		<tag k="place" v="isolated_dwelling" />
		<tag k="ssr:stedsnr" v="428130" />
	</node>
	<node lat="59.640152778996715" lon="10.246302775640757" id="-21786">
		<tag k="name" v="Bjerke" />
		<tag k="place" v="farm" />
		<tag k="ssr:stedsnr" v="428134" />
	</node>
	<node lat="59.517920757644504" lon="10.095953859974053" id="-21788">
		<tag k="alt_name" v="Rønneberg nedre" />
		<tag k="name" v="Rønneberg" />
		<tag k="place" v="hamlet" />
		<tag k="ssr:stedsnr" v="428892" />
	</node>
	<node lat="59.51999310441729" lon="10.136499118539438" id="-21789">
		<tag k="alt_name" v="Nøtnes N." />
		<tag k="fixme" v="consider place=hamlet" />
		<tag k="name" v="Nøtnes" />
		<tag k="place" v="farm" />
		<tag k="ssr:stedsnr" v="428976" />
	</node>
	<node lat="59.50933449606694" lon="10.17648632635348" id="-21791">
		<tag k="alt_name" v="Nes nedre" />
		<tag k="fixme" v="consider place=hamlet" />
		<tag k="name" v="Nes" />
		<tag k="place" v="farm" />
		<tag k="ssr:stedsnr" v="428995" />
	</node>
	<node lat="59.586844446543246" lon="9.945605562194284" id="-21793">
		<tag k="name" v="Markenrudhytta" />
		<tag k="place" v="isolated_dwelling" />
		<tag k="ssr:stedsnr" v="429459" />
	</node>
	<node lat="59.447749299446166" lon="10.367877985126608" id="-21794">
		<tag k="name" v="Helland" />
		<tag k="place" v="farm" />
		<tag k="ssr:stedsnr" v="434648" />
	</node>
	<node lat="59.51188055382857" lon="10.125650006971934" id="-21795">
		<tag k="name" v="Sundbyfoss" />
		<tag k="place" v="village" />
		<tag k="ssr:stedsnr" v="510485" />
	</node>
	<node lat="59.452788893115645" lon="10.092280562892054" id="-21800">
		<tag k="name" v="Engebråten" />
		<tag k="place" v="farm" />
		<tag k="ssr:stedsnr" v="512098" />
	</node>
	<node lat="59.493491665564996" lon="10.090352773452993" id="-21803">
		<tag k="name" v="Hostvedt nedre" />
		<tag k="place" v="farm" />
		<tag k="ssr:stedsnr" v="512041" />
	</node>
	<node lat="59.494269441024514" lon="10.17327222087944" id="-21809">
		<tag k="name" v="Hegg" />
		<tag k="place" v="farm" />
		<tag k="ssr:stedsnr" v="512646" />
	</node>
	<node lat="59.54390832943287" lon="10.313666665157772" id="-21811">
		<tag k="name" v="Sando vestre" />
		<tag k="place" v="farm" />
		<tag k="ssr:stedsnr" v="513049" />
	</node>
	<node lat="59.501502778140285" lon="10.296441668030932" id="-21817">
		<tag k="name" v="Fredheim" />
		<tag k="place" v="quarter" />
		<tag k="ssr:stedsnr" v="513071" />
	</node>
	<node lat="59.63228611406797" lon="10.292858325521973" id="-21823">
		<tag k="name" v="Østre Kølabonn" />
		<tag k="place" v="isolated_dwelling" />
		<tag k="ssr:stedsnr" v="513213" />
	</node>
	<node lat="59.48072221807125" lon="10.091627776258541" id="-21835">
		<tag k="name" v="Gran mellom" />
		<tag k="place" v="farm" />
		<tag k="ssr:stedsnr" v="513538" />
	</node>
	<node lat="59.54298055502345" lon="10.013577771904878" id="-21836">
		<tag k="name" v="Nystua" />
		<tag k="place" v="isolated_dwelling" />
		<tag k="ssr:stedsnr" v="513541" />
	</node>
	<node lat="59.534980553558235" lon="10.22539445235522" id="-21837">
		<tag k="name" v="Tyristua" />
		<tag k="place" v="isolated_dwelling" />
		<tag k="ssr:stedsnr" v="513545" />
	</node>
	<node lat="59.5264722225267" lon="10.165830546883047" id="-21838">
		<tag k="name" v="Åsvang" />
		<tag k="place" v="farm" />
		<tag k="ssr:stedsnr" v="513549" />
	</node>
	<node lat="59.52384444787506" lon="10.17184166403649" id="-21839">
		<tag k="name" v="Løken" />
		<tag k="place" v="farm" />
		<tag k="ssr:stedsnr" v="513551" />
	</node>
	<node lat="59.497161110183406" lon="10.248358327358341" id="-21841">
		<tag k="name" v="Bjerkeli" />
		<tag k="place" v="isolated_dwelling" />
		<tag k="ssr:stedsnr" v="513628" />
	</node>
	<node lat="59.55948055291793" lon="10.215533335817712" id="-21842">
		<tag k="name" v="Hagen" />
		<tag k="place" v="isolated_dwelling" />
		<tag k="ssr:stedsnr" v="513630" />
	</node>
	<node lat="59.63645667553068" lon="10.204586068118902" id="-21847">
		<tag k="fixme" v="consider place=hamlet" />
		<tag k="name" v="Brekke" />
		<tag k="place" v="farm" />
		<tag k="ssr:stedsnr" v="513642" />
	</node>
	<node lat="59.620947224346565" lon="10.198994445628996" id="-21848">
		<tag k="name" v="Konstad" />
		<tag k="place" v="farm" />
		<tag k="ssr:stedsnr" v="513645" />
	</node>
	<node lat="59.623986109969564" lon="10.205277774267891" id="-21849">
		<tag k="name" v="Ryggtangen nordre" />
		<tag k="place" v="farm" />
		<tag k="ssr:stedsnr" v="513648" />
	</node>
	<node lat="59.57031666508908" lon="9.953649997293038" id="-21850">
		<tag k="name" v="Grønntjernstua" />
		<tag k="place" v="isolated_dwelling" />
		<tag k="ssr:stedsnr" v="513501" />
	</node>
	<node lat="59.472316669979975" lon="10.25709721778888" id="-21853">
		<tag k="name" v="Granli" />
		<tag k="place" v="farm" />
		<tag k="ssr:stedsnr" v="513710" />
	</node>
	<node lat="59.47793333497827" lon="10.24157777560438" id="-21854">
		<tag k="name" v="Løvald vestre" />
		<tag k="place" v="farm" />
		<tag k="ssr:stedsnr" v="513711" />
	</node>
	<node lat="59.64931111523282" lon="10.239652778963704" id="-21855">
		<tag k="name" v="Repper-Kjeldås" />
		<tag k="place" v="farm" />
		<tag k="ssr:stedsnr" v="513970" />
	</node>
	<node lat="59.499319443728105" lon="10.175152782228269" id="-21857">
		<tag k="name" v="Hegg" />
		<tag k="place" v="farm" />
		<tag k="ssr:stedsnr" v="513653" />
	</node>
	<node lat="59.61786110754802" lon="10.194694450115108" id="-21858">
		<tag k="name" v="Ås vestre" />
		<tag k="place" v="farm" />
		<tag k="ssr:stedsnr" v="513655" />
	</node>
	<node lat="59.6224055535963" lon="10.223238890984447" id="-21859">
		<tag k="name" v="Galleberg" />
		<tag k="place" v="farm" />
		<tag k="ssr:stedsnr" v="513658" />
	</node>
	<node lat="59.6414222245021" lon="10.097955551840796" id="-21864">
		<tag k="historic" v="shieling" />
		<tag k="name" v="Gallebergsetra" />
		<tag k="place" v="isolated_dwelling" />
		<tag k="ssr:stedsnr" v="513753" />
	</node>
	<node lat="59.66528754589679" lon="10.199157222242217" id="-21867">
		<tag k="name" v="Søndre Trolsrud" />
		<tag k="place" v="farm" />
		<tag k="ssr:stedsnr" v="513940" />
	</node>
	<node lat="59.6035999995738" lon="10.229161109694187" id="-21869">
		<tag k="name" v="Gran søndre" />
		<tag k="place" v="farm" />
		<tag k="ssr:stedsnr" v="513946" />
	</node>
	<node lat="59.640675003579375" lon="10.20777500038702" id="-21870">
		<tag k="name" v="Gåserud" />
		<tag k="place" v="farm" />
		<tag k="ssr:stedsnr" v="513958" />
	</node>
	<node lat="59.473306421981995" lon="10.30340124310308" id="-21874">
		<tag k="fixme" v="consider place=hamlet" />
		<tag k="name" v="Bakke" />
		<tag k="place" v="farm" />
		<tag k="ssr:stedsnr" v="548085" />
	</node>
	<node lat="59.46549058344259" lon="10.075254387505872" id="-21875">
		<tag k="alt_name" v="Damengen" />
		<tag k="name" v="Damenga" />
		<tag k="place" v="farm" />
		<tag k="ssr:stedsnr" v="548099" />
	</node>
	<node lat="59.46956314458886" lon="10.10155611660201" id="-21876">
		<tag k="fixme" v="consider place=hamlet" />
		<tag k="name" v="Auen" />
		<tag k="place" v="farm" />
		<tag k="ssr:stedsnr" v="548027" />
	</node>
	<node lat="59.49402803693045" lon="10.175458949771636" id="-21877">
		<tag k="alt_name" v="Hegg Nordre" />
		<tag k="name" v="Hegg" />
		<tag k="place" v="farm" />
		<tag k="ssr:stedsnr" v="548049" />
	</node>
	<node lat="59.592365997855495" lon="10.23869029682216" id="-21880">
		<tag k="fixme" v="consider place=hamlet" />
		<tag k="name" v="Rud" />
		<tag k="place" v="farm" />
		<tag k="ssr:stedsnr" v="549028" />
	</node>
	<node lat="59.5903866746206" lon="10.248797532718228" id="-21881">
		<tag k="fixme" v="consider place=hamlet" />
		<tag k="name" v="Skafjell" />
		<tag k="place" v="farm" />
		<tag k="ssr:stedsnr" v="549029" />
	</node>
	<node lat="59.64900797568075" lon="10.230771532682502" id="-21885">
		<tag k="fixme" v="consider place=hamlet" />
		<tag k="name" v="Gutu" />
		<tag k="place" v="farm" />
		<tag k="ssr:stedsnr" v="549147" />
	</node>
	<node lat="59.57358333441855" lon="10.09876943762706" id="-21886">
		<tag k="name" v="Hafsrud" />
		<tag k="old_name" v="Herstad" />
		<tag k="place" v="farm" />
		<tag k="ssr:stedsnr" v="549075" />
	</node>
	<node lat="59.63082499873925" lon="10.257480559153576" id="-21887">
		<tag k="name" v="Roligheta" />
		<tag k="place" v="farm" />
		<tag k="ssr:stedsnr" v="549097" />
	</node>
	<node lat="59.50898782529763" lon="10.22609375659452" id="-21891">
		<tag k="alt_name" v="Hynnås nordre" />
		<tag k="name" v="Hynnås" />
		<tag k="place" v="hamlet" />
		<tag k="ssr:stedsnr" v="549998" />
	</node>
	<node lat="59.50318557478026" lon="10.147762497308946" id="-21892">
		<tag k="fixme" v="consider place=hamlet" />
		<tag k="name" v="Gjelstad" />
		<tag k="place" v="farm" />
		<tag k="ssr:stedsnr" v="549985" />
	</node>
	<node lat="59.61872500194793" lon="10.146788894693335" id="-21895">
		<tag k="name" v="Solbergsetra" />
		<tag k="place" v="isolated_dwelling" />
		<tag k="ssr:stedsnr" v="550083" />
	</node>
	<node lat="59.568530553726006" lon="9.966030559338693" id="-21898">
		<tag k="name" v="Dovrehallen" />
		<tag k="place" v="isolated_dwelling" />
		<tag k="ssr:stedsnr" v="573447" />
	</node>
	<node lat="59.47274166230782" lon="10.111466663558675" id="-21904">
		<tag k="name" v="Ønnemørkstua" />
		<tag k="place" v="isolated_dwelling" />
		<tag k="ssr:stedsnr" v="573476" />
	</node>
	<node lat="59.4628499968313" lon="10.093650002209257" id="-21912">
		<tag k="name" v="Fiskehytta" />
		<tag k="place" v="isolated_dwelling" />
		<tag k="ssr:stedsnr" v="573079" />
	</node>
	<node lat="59.46211666799592" lon="10.089399999814477" id="-21913">
		<tag k="name" v="Åkerholt nedre" />
		<tag k="place" v="farm" />
		<tag k="ssr:stedsnr" v="573091" />
	</node>
	<node lat="59.48625833380176" lon="10.179158334907397" id="-21914">
		<tag k="name" v="Bekkebråten" />
		<tag k="place" v="farm" />
		<tag k="ssr:stedsnr" v="573567" />
	</node>
	<node lat="59.49063610898239" lon="10.170200008605466" id="-21915">
		<tag k="amenity" v="school" />
		<tag k="name" v="Hegg skole" />
		<tag k="ssr:stedsnr" v="573574" />
	</node>
	<node lat="59.50437221973059" lon="10.209475005225551" id="-21917">
		<tag k="name" v="Østre Solberg" />
		<tag k="place" v="farm" />
		<tag k="ssr:stedsnr" v="573578" />
	</node>
	<node lat="59.470977777101645" lon="10.257783339258427" id="-21921">
		<tag k="name" v="Korsgården nordre" />
		<tag k="place" v="farm" />
		<tag k="ssr:stedsnr" v="573673" />
	</node>
	<node lat="59.479058336407874" lon="10.264338883228753" id="-21922">
		<tag k="name" v="Knatten nordre" />
		<tag k="place" v="farm" />
		<tag k="ssr:stedsnr" v="573675" />
	</node>
	<node lat="59.54439444728607" lon="10.09339722690649" id="-21927">
		<tag k="name" v="Lønnvik" />
		<tag k="place" v="farm" />
		<tag k="ssr:stedsnr" v="574318" />
	</node>
	<node lat="59.62863888675917" lon="10.236141661429732" id="-21931">
		<tag k="name" v="Lærum nordre" />
		<tag k="place" v="farm" />
		<tag k="ssr:stedsnr" v="573616" />
	</node>
	<node lat="59.48062476878525" lon="10.311084097013595" id="-21932">
		<tag k="name" v="Ekeberg" />
		<tag k="place" v="farm" />
		<tag k="ssr:stedsnr" v="573845" />
	</node>
	<node lat="59.45260000043261" lon="10.350166673373502" id="-21935">
		<tag k="name" v="Snekkestad vestre" />
		<tag k="place" v="farm" />
		<tag k="ssr:stedsnr" v="573855" />
	</node>
	<node lat="59.456350002954686" lon="10.361199996263462" id="-21936">
		<tag k="name" v="Sand camping" />
		<tag k="ssr:stedsnr" v="573856" />
		<tag k="tourism" v="camp_site" />
	</node>
	<node lat="59.464272218908434" lon="10.291624992528346" id="-21937">
		<tag k="name" v="Tverdal" />
		<tag k="place" v="farm" />
		<tag k="ssr:stedsnr" v="573772" />
	</node>
	<node lat="59.49327778043107" lon="10.271913894522198" id="-21938">
		<tag k="name" v="Heimsyn" />
		<tag k="place" v="isolated_dwelling" />
		<tag k="ssr:stedsnr" v="573822" />
	</node>
	<node lat="59.501191662279375" lon="10.283394440323299" id="-21939">
		<tag k="name" v="Nordre Gaupås" />
		<tag k="place" v="farm" />
		<tag k="ssr:stedsnr" v="573824" />
	</node>
	<node lat="59.49816944017634" lon="10.278583339249701" id="-21940">
		<tag k="name" v="Fossdalen" />
		<tag k="place" v="isolated_dwelling" />
		<tag k="ssr:stedsnr" v="573826" />
	</node>
	<node lat="59.49009999629594" lon="10.293519436569543" id="-21941">
		<tag k="name" v="Nordeng" />
		<tag k="place" v="farm" />
		<tag k="ssr:stedsnr" v="573829" />
	</node>
	<node lat="59.46870278139409" lon="10.277613895776959" id="-21943">
		<tag k="name" v="Søndre Lajord" />
		<tag k="place" v="farm" />
		<tag k="ssr:stedsnr" v="573841" />
	</node>
	<node lat="59.611175003699834" lon="10.187108331584287" id="-21946">
		<tag k="name" v="Bolstad nordre" />
		<tag k="place" v="farm" />
		<tag k="ssr:stedsnr" v="573887" />
	</node>
	<node lat="59.52768611051454" lon="10.089863884616564" id="-21955">
		<tag k="name" v="Nordre Voll" />
		<tag k="place" v="farm" />
		<tag k="ssr:stedsnr" v="574376" />
	</node>
	<node lat="59.52535833413803" lon="10.171608334017701" id="-21957">
		<tag k="name" v="Borge" />
		<tag k="place" v="farm" />
		<tag k="ssr:stedsnr" v="574569" />
	</node>
	<node lat="59.51393055818449" lon="10.205977773892362" id="-21958">
		<tag k="name" v="Grelland" />
		<tag k="place" v="farm" />
		<tag k="ssr:stedsnr" v="574571" />
	</node>
	<node lat="59.51210555217398" lon="10.21252222321209" id="-21960">
		<tag k="name" v="Island" />
		<tag k="place" v="farm" />
		<tag k="ssr:stedsnr" v="574593" />
	</node>
	<node lat="59.565357066456926" lon="10.07096739565792" id="-21963">
		<tag k="name" v="Solli" />
		<tag k="place" v="farm" />
		<tag k="ssr:stedsnr" v="574693" />
	</node>
	<node lat="59.54191389169266" lon="10.203038885413665" id="-21965">
		<tag k="historic" v="shieling" />
		<tag k="name" v="Bakkeseter" />
		<tag k="place" v="isolated_dwelling" />
		<tag k="ssr:stedsnr" v="574775" />
	</node>
	<node lat="59.63777222315835" lon="10.211641664144883" id="-21971">
		<tag k="name" v="Bjørge søndre" />
		<tag k="place" v="farm" />
		<tag k="ssr:stedsnr" v="574970" />
	</node>
	<node lat="59.63909166787773" lon="10.21014166609143" id="-21972">
		<tag k="name" v="Bjørge nordre" />
		<tag k="place" v="farm" />
		<tag k="ssr:stedsnr" v="574972" />
	</node>
	<node lat="59.64776389242148" lon="10.238555551860754" id="-21973">
		<tag k="name" v="Kjeldås vestre" />
		<tag k="place" v="farm" />
		<tag k="ssr:stedsnr" v="574975" />
	</node>
	<node lat="59.647469447295634" lon="10.212399993997822" id="-21974">
		<tag k="name" v="Klevjer" />
		<tag k="place" v="farm" />
		<tag k="ssr:stedsnr" v="574977" />
	</node>
	<node lat="59.64986110899279" lon="10.215299995635924" id="-21975">
		<tag k="name" v="Gryte" />
		<tag k="place" v="farm" />
		<tag k="ssr:stedsnr" v="574979" />
	</node>
	<node lat="59.49072242723398" lon="10.273745833466158" id="-21981">
		<tag k="fixme" v="consider place=hamlet" />
		<tag k="name" v="Barstad" />
		<tag k="place" v="farm" />
		<tag k="ssr:stedsnr" v="609001" />
	</node>
	<node lat="59.464800033742314" lon="10.277076697996847" id="-21982">
		<tag k="fixme" v="consider place=hamlet" />
		<tag k="name" v="Kårjord" />
		<tag k="place" v="farm" />
		<tag k="ssr:stedsnr" v="609116" />
	</node>
	<node lat="59.454350004345734" lon="10.10140556077811" id="-21983">
		<tag k="name" v="Åsnes" />
		<tag k="place" v="farm" />
		<tag k="ssr:stedsnr" v="609121" />
	</node>
	<node lat="59.63880798592499" lon="10.229883854951662" id="-21984">
		<tag k="alt_name" v="Rølles" />
		<tag k="fixme" v="consider place=hamlet" />
		<tag k="name" v="Rødløs" />
		<tag k="place" v="farm" />
		<tag k="ssr:stedsnr" v="609165" />
	</node>
	<node lat="59.54087499696026" lon="10.076847214579658" id="-21988">
		<tag k="name" v="Lillehof" />
		<tag k="place" v="farm" />
		<tag k="ssr:stedsnr" v="609875" />
	</node>
	<node lat="59.61226350426177" lon="10.2065511002656" id="-21990">
		<tag k="fixme" v="consider place=hamlet" />
		<tag k="name" v="Dalsrud" />
		<tag k="place" v="farm" />
		<tag k="ssr:stedsnr" v="610070" />
	</node>
	<node lat="59.52328328541652" lon="10.106345271184383" id="-21993">
		<tag k="fixme" v="consider place=hamlet" />
		<tag k="name" v="Haneval" />
		<tag k="place" v="farm" />
		<tag k="ssr:stedsnr" v="609895" />
	</node>
	<node lat="59.50655555248112" lon="10.277555561538922" id="-21994">
		<tag k="name" v="Spettås" />
		<tag k="place" v="farm" />
		<tag k="ssr:stedsnr" v="609996" />
	</node>
	<node lat="59.599174998980764" lon="10.05143056172317" id="-21995">
		<tag k="name" v="Teigen" />
		<tag k="place" v="farm" />
		<tag k="ssr:stedsnr" v="610125" />
	</node>
	<node lat="59.65745278173078" lon="10.274008337202709" id="-21996">
		<tag k="alt_name" v="Snokop" />
		<tag k="name" v="Snokopp" />
		<tag k="place" v="farm" />
		<tag k="ssr:stedsnr" v="610152" />
	</node>
	<node lat="59.65679316158269" lon="10.23491046033418" id="-21997">
		<tag k="fixme" v="consider place=hamlet" />
		<tag k="name" v="Berg" />
		<tag k="place" v="farm" />
		<tag k="ssr:stedsnr" v="610162" />
	</node>
	<node lat="59.524824267009734" lon="10.164942541806763" id="-21999">
		<tag k="fixme" v="consider place=hamlet" />
		<tag k="name" v="Brekke" />
		<tag k="place" v="farm" />
		<tag k="ssr:stedsnr" v="610927" />
	</node>
	<node lat="59.500630551766534" lon="10.154663886832598" id="-22011">
		<tag k="name" v="Gjeldstadrønningen" />
		<tag k="place" v="farm" />
		<tag k="ssr:stedsnr" v="633616" />
	</node>
	<node lat="59.50562499619559" lon="10.222305559397592" id="-22013">
		<tag k="name" v="Gran" />
		<tag k="place" v="farm" />
		<tag k="ssr:stedsnr" v="633620" />
	</node>
	<node lat="59.482841668164646" lon="10.076947226592177" id="-22015">
		<tag k="name" v="Nord-Granplassen" />
		<tag k="place" v="locality" />
		<tag k="ssr:stedsnr" v="633477" />
	</node>
	<node lat="59.45878889118852" lon="10.28251666510863" id="-22018">
		<tag k="alt_name" v="Kvån søndre" />
		<tag k="name" v="Kvån" />
		<tag k="place" v="farm" />
		<tag k="ssr:stedsnr" v="633809" />
	</node>
	<node lat="59.51859035779003" lon="10.17577599513334" id="-22022">
		<tag k="name" v="Bergheim" />
		<tag k="place" v="isolated_dwelling" />
		<tag k="ssr:stedsnr" v="634562" />
	</node>
	<node lat="59.50971944895824" lon="10.177866667121345" id="-22024">
		<tag k="name" v="Nes øvre" />
		<tag k="place" v="farm" />
		<tag k="ssr:stedsnr" v="634567" />
	</node>
	<node lat="59.50890832976515" lon="10.201380549514013" id="-22025">
		<tag k="name" v="Rønningen" />
		<tag k="place" v="farm" />
		<tag k="ssr:stedsnr" v="634570" />
	</node>
	<node lat="59.53936111160175" lon="10.090349993671287" id="-22029">
		<tag k="name" v="Haugan" />
		<tag k="place" v="farm" />
		<tag k="ssr:stedsnr" v="634290" />
	</node>
	<node lat="59.54433865669989" lon="10.0902840208422" id="-22031">
		<tag k="name" v="Vike" />
		<tag k="place" v="farm" />
		<tag k="ssr:stedsnr" v="634318" />
	</node>
	<node lat="59.55662499911891" lon="10.305838883526592" id="-22037">
		<tag k="name" v="Bekke store" />
		<tag k="place" v="farm" />
		<tag k="ssr:stedsnr" v="634248" />
	</node>
	<node lat="59.576150002808085" lon="10.272230546997266" id="-22039">
		<tag k="name" v="Bråtan" />
		<tag k="place" v="isolated_dwelling" />
		<tag k="ssr:stedsnr" v="634267" />
	</node>
	<node lat="59.62562499594283" lon="10.22832222374972" id="-22043">
		<tag k="name" v="Bølum" />
		<tag k="place" v="farm" />
		<tag k="ssr:stedsnr" v="634658" />
	</node>
	<node lat="59.62400555334806" lon="10.248677779999149" id="-22044">
		<tag k="name" v="Bergheim" />
		<tag k="place" v="farm" />
		<tag k="ssr:stedsnr" v="634664" />
	</node>
	<node lat="59.565683332505124" lon="10.2249472207635" id="-22050">
		<tag k="name" v="Ve lille" />
		<tag k="place" v="farm" />
		<tag k="ssr:stedsnr" v="634621" />
	</node>
	<node lat="59.55433050566604" lon="10.09127378297472" id="-22052">
		<tag k="fixme" v="consider place=hamlet" />
		<tag k="name" v="Vassengen" />
		<tag k="place" v="farm" />
		<tag k="ssr:stedsnr" v="634692" />
	</node>
	<node lat="59.56015969483134" lon="10.148193035531769" id="-22054">
		<tag k="name" v="Nordli" />
		<tag k="place" v="farm" />
		<tag k="ssr:stedsnr" v="634721" />
	</node>
	<node lat="59.5356527734801" lon="10.166649994142462" id="-22056">
		<tag k="name" v="Odderud" />
		<tag k="place" v="farm" />
		<tag k="ssr:stedsnr" v="634788" />
	</node>
	<node lat="59.656130554676125" lon="10.11302222882973" id="-22057">
		<tag k="name" v="Holsrudseter" />
		<tag k="place" v="locality" />
		<tag k="ssr:stedsnr" v="634768" />
	</node>
	<node lat="59.493836114293416" lon="10.272186113310816" id="-22058">
		<tag k="name" v="Granhaug" />
		<tag k="place" v="isolated_dwelling" />
		<tag k="ssr:stedsnr" v="634855" />
	</node>
	<node lat="59.503924996289015" lon="10.292266673219755" id="-22059">
		<tag k="name" v="Vestre Ramberg" />
		<tag k="place" v="farm" />
		<tag k="ssr:stedsnr" v="634858" />
	</node>
	<node lat="59.47946551077076" lon="10.28031176827738" id="-22060">
		<tag k="fixme" v="consider place=hamlet" />
		<tag k="name" v="Botne prestegård" />
		<tag k="place" v="farm" />
		<tag k="ssr:stedsnr" v="634872" />
	</node>
	<node lat="59.66781449634076" lon="10.198613541481999" id="-22061">
		<tag k="name" v="Søndre Trolsrud" />
		<tag k="place" v="farm" />
		<tag k="ssr:stedsnr" v="634946" />
	</node>
	<node lat="59.478308816470296" lon="10.331280326472767" id="-22062">
		<tag k="name" v="Holmestrand kornsilo" />
		<tag k="place" v="locality" />
		<tag k="ssr:stedsnr" v="634949" />
	</node>
	<node lat="59.650497219959334" lon="10.253580550130858" id="-22063">
		<tag k="name" v="Hagamyra" />
		<tag k="place" v="farm" />
		<tag k="ssr:stedsnr" v="634971" />
	</node>
	<node lat="59.45377777388261" lon="10.086849992030887" id="-22068">
		<tag k="name" v="Moholt" />
		<tag k="place" v="farm" />
		<tag k="ssr:stedsnr" v="670119" />
	</node>
	<node lat="59.63893740216222" lon="10.218945092846944" id="-22069">
		<tag k="alt_name" v="Jahren" />
		<tag k="name" v="Jaren" />
		<tag k="place" v="farm" />
		<tag k="ssr:stedsnr" v="670190" />
	</node>
	<node lat="59.53482500415616" lon="10.210988895076579" id="-22070">
		<tag k="name" v="Løkensetra" />
		<tag k="place" v="isolated_dwelling" />
		<tag k="ssr:stedsnr" v="670878" />
	</node>
	<node lat="59.593667007396995" lon="9.99649862051512" id="-22074">
		<tag k="alt_name" v="Markenrudplassen" />
		<tag k="name" v="Plassen" />
		<tag k="place" v="farm" />
		<tag k="ssr:stedsnr" v="670027" />
	</node>
	<node lat="59.558380552394404" lon="10.240699998887498" id="-22075">
		<tag k="name" v="Holmsåsen" />
		<tag k="place" v="isolated_dwelling" />
		<tag k="ssr:stedsnr" v="670039" />
	</node>
	<node lat="59.55821111172947" lon="10.201900008358896" id="-22076">
		<tag k="name" v="Orebergsetra" />
		<tag k="place" v="isolated_dwelling" />
		<tag k="ssr:stedsnr" v="670043" />
	</node>
	<node lat="59.645066669525434" lon="10.254591675627097" id="-22077">
		<tag k="name" v="Verket" />
		<tag k="place" v="farm" />
		<tag k="ssr:stedsnr" v="670164" />
	</node>
	<node lat="59.495077866035565" lon="10.283358244854998" id="-22083">
		<tag k="alt_name" v="Vestre Gudum" />
		<tag k="fixme" v="consider place=hamlet" />
		<tag k="name" v="Gudum" />
		<tag k="place" v="farm" />
		<tag k="ssr:stedsnr" v="730049" />
	</node>
	<node lat="59.50285555979436" lon="10.249522219137763" id="-22084">
		<tag k="name" v="Gullhaug" />
		<tag k="place" v="village" />
		<tag k="ssr:stedsnr" v="730053" />
	</node>
	<node lat="59.57478552261563" lon="10.008806566524894" id="-22089">
		<tag k="historic" v="shieling" />
		<tag k="name" v="Holtesetra" />
		<tag k="place" v="isolated_dwelling" />
		<tag k="ssr:stedsnr" v="731052" />
	</node>
	<node lat="59.60332497087711" lon="10.139695172758659" id="-22091">
		<tag k="fixme" v="consider place=hamlet" />
		<tag k="name" v="Kaldmo" />
		<tag k="place" v="farm" />
		<tag k="ssr:stedsnr" v="731089" />
	</node>
	<node lat="59.607264794313686" lon="10.202340124888265" id="-22093">
		<tag k="name" v="Haugan" />
		<tag k="place" v="farm" />
		<tag k="ssr:stedsnr" v="731096" />
	</node>
	<node lat="59.508516177390334" lon="10.154104167819824" id="-22097">
		<tag k="alt_name" v="Herland" />
		<tag k="fixme" v="consider place=hamlet" />
		<tag k="name" v="Hærland" />
		<tag k="place" v="farm" />
		<tag k="ssr:stedsnr" v="731979" />
	</node>
	<node lat="59.51059456992264" lon="10.231419466334323" id="-22098">
		<tag k="alt_name" v="Skaug øvre" />
		<tag k="name" v="Skog" />
		<tag k="place" v="farm" />
		<tag k="ssr:stedsnr" v="731999" />
	</node>
	<node lat="59.617286111418956" lon="10.198338896766383" id="-22099">
		<tag k="alt_name" v="Stensrud nordre" />
		<tag k="name" v="Stensrud" />
		<tag k="place" v="farm" />
		<tag k="ssr:stedsnr" v="732074" />
	</node>
	<node lat="59.61670717073213" lon="10.246970144405784" id="-22100">
		<tag k="alt_name" v="Borgen" />
		<tag k="fixme" v="consider place=hamlet" />
		<tag k="name" v="Borga" />
		<tag k="place" v="farm" />
		<tag k="ssr:stedsnr" v="732080" />
	</node>
	<node lat="59.54669166513543" lon="10.069269450882144" id="-22102">
		<tag k="name" v="Nyhus" />
		<tag k="place" v="farm" />
		<tag k="ssr:stedsnr" v="731931" />
	</node>
	<node lat="59.47022499815375" lon="10.11180554967395" id="-22111">
		<tag k="name" v="Auenstua" />
		<tag k="place" v="isolated_dwelling" />
		<tag k="ssr:stedsnr" v="755514" />
	</node>
	<node lat="59.48462499861278" lon="10.14619721952476" id="-22113">
		<tag k="name" v="Skarrbo" />
		<tag k="place" v="farm" />
		<tag k="ssr:stedsnr" v="755524" />
	</node>
	<node lat="59.46613055376671" lon="10.083838883061226" id="-22115">
		<tag k="name" v="Borebenken" />
		<tag k="place" v="isolated_dwelling" />
		<tag k="ssr:stedsnr" v="755526" />
	</node>
	<node lat="59.49890277704908" lon="10.228816658373168" id="-22119">
		<tag k="name" v="Øde Bringaker" />
		<tag k="place" v="farm" />
		<tag k="ssr:stedsnr" v="755609" />
	</node>
	<node lat="59.49536590687095" lon="10.172448124437638" id="-22120">
		<tag k="name" v="Hegg" />
		<tag k="place" v="hamlet" />
		<tag k="ssr:stedsnr" v="755626" />
	</node>
	<node lat="59.46040277790425" lon="10.268669436754006" id="-22121">
		<tag k="name" v="Tufta" />
		<tag k="place" v="farm" />
		<tag k="ssr:stedsnr" v="755801" />
	</node>
	<node lat="59.52979889327398" lon="10.272551409748003" id="-22126">
		<tag k="fixme" v="consider place=hamlet" />
		<tag k="name" v="Kleivbogen" />
		<tag k="place" v="farm" />
		<tag k="ssr:stedsnr" v="756027" />
	</node>
	<node lat="59.58644999778064" lon="10.289597216878962" id="-22128">
		<tag k="name" v="Kudalen" />
		<tag k="place" v="isolated_dwelling" />
		<tag k="ssr:stedsnr" v="756255" />
	</node>
	<node lat="59.53345089221316" lon="10.08897816778636" id="-22130">
		<tag k="fixme" v="consider place=hamlet" />
		<tag k="name" v="Kolstad" />
		<tag k="place" v="farm" />
		<tag k="ssr:stedsnr" v="756262" />
	</node>
	<node lat="59.56421388887701" lon="10.336544444150853" id="-22138">
		<tag k="historic" v="shieling" />
		<tag k="name" v="Kvislesetra" />
		<tag k="place" v="isolated_dwelling" />
		<tag k="ssr:stedsnr" v="756224" />
	</node>
	<node lat="59.582627778862346" lon="10.033294447849988" id="-22143">
		<tag k="name" v="Skarpsno" />
		<tag k="place" v="isolated_dwelling" />
		<tag k="ssr:stedsnr" v="756478" />
	</node>
	<node lat="59.517563889147034" lon="10.181286115731714" id="-22144">
		<tag k="name" v="Hillestad nordre" />
		<tag k="place" v="farm" />
		<tag k="ssr:stedsnr" v="756529" />
	</node>
	<node lat="59.51326666337935" lon="10.207647217960917" id="-22145">
		<tag k="name" v="Grelland" />
		<tag k="place" v="farm" />
		<tag k="ssr:stedsnr" v="756531" />
	</node>
	<node lat="59.55308333268974" lon="10.233494448071822" id="-22148">
		<tag k="name" v="Skjervik" />
		<tag k="place" v="farm" />
		<tag k="ssr:stedsnr" v="756627" />
	</node>
	<node lat="59.62762499586728" lon="10.204966672149714" id="-22151">
		<tag k="name" v="Heimdal" />
		<tag k="place" v="farm" />
		<tag k="ssr:stedsnr" v="756639" />
	</node>
	<node lat="59.63109444805304" lon="10.041566662655018" id="-22154">
		<tag k="historic" v="shieling" />
		<tag k="name" v="Rønnebergseter" />
		<tag k="place" v="isolated_dwelling" />
		<tag k="ssr:stedsnr" v="756727" />
	</node>
	<node lat="59.619238887645736" lon="10.204558336737671" id="-22163">
		<tag k="name" v="Dillerud" />
		<tag k="place" v="farm" />
		<tag k="ssr:stedsnr" v="756650" />
	</node>
	<node lat="59.61741111526015" lon="10.217858324703625" id="-22165">
		<tag k="name" v="Heimdal lille" />
		<tag k="place" v="farm" />
		<tag k="ssr:stedsnr" v="756657" />
	</node>
	<node lat="59.62554527153907" lon="10.215092257134241" id="-22166">
		<tag k="name" v="Myre" />
		<tag k="place" v="farm" />
		<tag k="ssr:stedsnr" v="756664" />
	</node>
	<node lat="59.62944722059543" lon="10.213066667537094" id="-22167">
		<tag k="name" v="Bølum søndre" />
		<tag k="place" v="farm" />
		<tag k="ssr:stedsnr" v="756665" />
	</node>
	<node lat="59.6353388859821" lon="10.231508330584413" id="-22168">
		<tag k="name" v="Rølles" />
		<tag k="place" v="farm" />
		<tag k="ssr:stedsnr" v="756668" />
	</node>
	<node lat="59.53853055733122" lon="10.241619447682664" id="-22172">
		<tag k="name" v="Bringåkersetra" />
		<tag k="place" v="isolated_dwelling" />
		<tag k="ssr:stedsnr" v="756763" />
	</node>
	<node lat="59.53634166853929" lon="10.174277775887417" id="-22174">
		<tag k="name" v="Solvang" />
		<tag k="place" v="farm" />
		<tag k="ssr:stedsnr" v="756775" />
	</node>
	<node lat="59.59713180398126" lon="10.192971390565146" id="-22176">
		<tag k="fixme" v="consider place=hamlet" />
		<tag k="name" v="Tandberg" />
		<tag k="place" v="farm" />
		<tag k="ssr:stedsnr" v="756922" />
	</node>
	<node lat="59.60421666895959" lon="10.189438889302474" id="-22177">
		<tag k="name" v="Bolstad søndre" />
		<tag k="place" v="farm" />
		<tag k="ssr:stedsnr" v="756926" />
	</node>
	<node lat="59.60012222275617" lon="10.200349994725466" id="-22178">
		<tag k="name" v="Nordheim" />
		<tag k="place" v="farm" />
		<tag k="ssr:stedsnr" v="756928" />
	</node>
	<node lat="59.664133336633746" lon="10.25099721437282" id="-22181">
		<tag k="name" v="Trogstad" />
		<tag k="place" v="farm" />
		<tag k="ssr:stedsnr" v="756941" />
	</node>
	<node lat="59.65826944400165" lon="10.212388892743803" id="-22185">
		<tag k="name" v="Flåten søndre" />
		<tag k="place" v="farm" />
		<tag k="ssr:stedsnr" v="756981" />
	</node>
	<node lat="59.5508444418602" lon="10.236727768949779" id="-22186">
		<tag k="name" v="Skjervik" />
		<tag k="place" v="farm" />
		<tag k="ssr:stedsnr" v="770280" />
	</node>
	<node lat="59.54035833312971" lon="10.211286106263678" id="-22189">
		<tag k="fixme" v="consider tourism=alpine_hut or tourism=chalet" />
		<tag k="name" v="Nordre Løkenseter" />
		<tag k="ssr:stedsnr" v="780286" />
		<tag k="tourism" v="wilderness_hut" />
	</node>
	<node lat="59.54548610802099" lon="10.248663879975618" id="-22191">
		<tag k="name" v="Skjervik" />
		<tag k="place" v="farm" />
		<tag k="ssr:stedsnr" v="788843" />
	</node>
	<node lat="59.47615398989455" lon="10.241003927208691" id="-22192">
		<tag k="alt_name" v="Løvald søndre" />
		<tag k="name" v="Løvall" />
		<tag k="place" v="hamlet" />
		<tag k="ssr:stedsnr" v="791105" />
	</node>
	<node lat="59.460785413000586" lon="10.245699506156775" id="-22193">
		<tag k="fixme" v="consider place=hamlet" />
		<tag k="name" v="Varløs" />
		<tag k="place" v="farm" />
		<tag k="ssr:stedsnr" v="791116" />
	</node>
	<node lat="59.49097671628802" lon="10.069844033723472" id="-22194">
		<tag k="fixme" v="consider place=hamlet" />
		<tag k="name" v="Nauf" />
		<tag k="place" v="farm" />
		<tag k="ssr:stedsnr" v="791002" />
	</node>
	<node lat="59.500017560512234" lon="10.216836547965363" id="-22196">
		<tag k="fixme" v="consider place=hamlet" />
		<tag k="name" v="Lakjeld" />
		<tag k="place" v="farm" />
		<tag k="ssr:stedsnr" v="791066" />
	</node>
	<node lat="59.45286117842818" lon="10.237111044455373" id="-22197">
		<tag k="fixme" v="consider place=hamlet" />
		<tag k="name" v="Åsen" />
		<tag k="place" v="farm" />
		<tag k="ssr:stedsnr" v="791071" />
	</node>
	<node lat="59.449225004035114" lon="10.3604250087195" id="-22198">
		<tag k="name" v="Helland" />
		<tag k="place" v="farm" />
		<tag k="ssr:stedsnr" v="791957" />
	</node>
	<node lat="59.50468754536173" lon="10.066325726076384" id="-22199">
		<tag k="fixme" v="consider place=hamlet" />
		<tag k="name" v="Hulebak" />
		<tag k="place" v="farm" />
		<tag k="ssr:stedsnr" v="791974" />
	</node>
	<node lat="59.51846322784996" lon="10.113506043634828" id="-22200">
		<tag k="name" v="Sundby" />
		<tag k="place" v="hamlet" />
		<tag k="ssr:stedsnr" v="792881" />
	</node>
	<node lat="59.63576767854458" lon="10.20396952484781" id="-22208">
		<tag k="name" v="Brekke" />
		<tag k="place" v="farm" />
		<tag k="ssr:stedsnr" v="792168" />
	</node>
	<node lat="59.53211906973259" lon="10.076305555541555" id="-22209">
		<tag k="fixme" v="consider place=hamlet" />
		<tag k="name" v="Veset" />
		<tag k="place" v="farm" />
		<tag k="ssr:stedsnr" v="792861" />
	</node>
	<node lat="59.53614166308542" lon="10.162477785547997" id="-22210">
		<tag k="name" v="Traet" />
		<tag k="place" v="farm" />
		<tag k="ssr:stedsnr" v="792875" />
	</node>
	<node lat="59.54613610894056" lon="10.108997216474924" id="-22211">
		<tag k="name" v="Tangen" />
		<tag k="place" v="farm" />
		<tag k="ssr:stedsnr" v="792928" />
	</node>
	<node lat="59.543121986550595" lon="10.316946285580562" id="-22213">
		<tag k="alt_name" v="Sando østre" />
		<tag k="name" v="Sando" />
		<tag k="place" v="hamlet" />
		<tag k="ssr:stedsnr" v="792913" />
	</node>
	<node lat="59.59615277932567" lon="10.035947220297835" id="-22217">
		<tag k="fixme" v="consider place=suburb, village or hamlet" />
		<tag k="name" v="Eidsfoss" />
		<tag k="place" v="quarter" />
		<tag k="ssr:stedsnr" v="813700" />
	</node>
	<node lat="59.50069166497729" lon="10.086977778709365" id="-22223">
		<tag k="name" v="Grinastua" />
		<tag k="place" v="isolated_dwelling" />
		<tag k="ssr:stedsnr" v="816055" />
	</node>
	<node lat="59.50735555323059" lon="10.237838888405346" id="-22227">
		<tag k="name" v="Øvre Li" />
		<tag k="place" v="farm" />
		<tag k="ssr:stedsnr" v="816628" />
	</node>
	<node lat="59.49632222260507" lon="10.23699721611931" id="-22228">
		<tag k="name" v="Bringaker østre" />
		<tag k="place" v="farm" />
		<tag k="ssr:stedsnr" v="816632" />
	</node>
	<node lat="59.49137221775507" lon="10.16020278166675" id="-22230">
		<tag k="name" v="Vestskogen" />
		<tag k="place" v="farm" />
		<tag k="ssr:stedsnr" v="816640" />
	</node>
	<node lat="59.495111113464404" lon="10.20866389277999" id="-22231">
		<tag k="name" v="Ende" />
		<tag k="place" v="farm" />
		<tag k="ssr:stedsnr" v="816649" />
	</node>
	<node lat="59.50254444444749" lon="10.212947215130358" id="-22232">
		<tag k="name" v="Solberg" />
		<tag k="place" v="farm" />
		<tag k="ssr:stedsnr" v="816652" />
	</node>
	<node lat="59.54209722495237" lon="10.309149992541371" id="-22238">
		<tag k="name" v="Grønsand" />
		<tag k="place" v="farm" />
		<tag k="ssr:stedsnr" v="817047" />
	</node>
	<node lat="59.52864999815714" lon="10.082086108048962" id="-22248">
		<tag k="name" v="Vollshagen" />
		<tag k="place" v="hamlet" />
		<tag k="ssr:stedsnr" v="817346" />
	</node>
	<node lat="59.511302779427325" lon="10.142141670428735" id="-22249">
		<tag k="name" v="Haugtuft" />
		<tag k="place" v="farm" />
		<tag k="ssr:stedsnr" v="817353" />
	</node>
	<node lat="59.54196389266805" lon="10.08588333960878" id="-22252">
		<tag k="name" v="Brekke" />
		<tag k="place" v="farm" />
		<tag k="ssr:stedsnr" v="817292" />
	</node>
	<node lat="59.60190918600641" lon="10.016264437228909" id="-22253">
		<tag k="fixme" v="consider place=hamlet" />
		<tag k="name" v="Hesthammer" />
		<tag k="place" v="farm" />
		<tag k="ssr:stedsnr" v="817296" />
	</node>
	<node lat="59.54585277559792" lon="10.102691673945213" id="-22254">
		<tag k="name" v="Sundhaug" />
		<tag k="place" v="farm" />
		<tag k="ssr:stedsnr" v="817392" />
	</node>
</osm>
