<?xml version="1.0" encoding="UTF-8"?>
<osm version="0.6" generator="osmapis">
	<node lat="59.49845833004084" lon="10.135613880353102" id="-44698">
		<tag k="name" v="Rundmyr" />
		<tag k="natural" v="wetland" />
		<tag k="ssr:stedsnr" v="27491" />
	</node>
	<node lat="59.63072778226855" lon="10.099047224075866" id="-44719">
		<tag k="name" v="Springovermyra" />
		<tag k="natural" v="wetland" />
		<tag k="ssr:stedsnr" v="28715" />
	</node>
	<node lat="59.57751944380951" lon="10.140261118553736" id="-44723">
		<tag k="name" v="Hvilesteinmyr" />
		<tag k="natural" v="wetland" />
		<tag k="ssr:stedsnr" v="28671" />
	</node>
	<node lat="59.64311666455537" lon="10.162530560084258" id="-44733">
		<tag k="name" v="Fjellskarmyr" />
		<tag k="natural" v="wetland" />
		<tag k="ssr:stedsnr" v="28985" />
	</node>
	<node lat="59.63920277648724" lon="10.27910556066727" id="-44776">
		<tag k="name" v="Grisemyr" />
		<tag k="natural" v="wetland" />
		<tag k="ssr:stedsnr" v="89154" />
	</node>
	<node lat="59.62861389017464" lon="10.08831388777423" id="-44784">
		<tag k="name" v="Steinmyr" />
		<tag k="natural" v="wetland" />
		<tag k="ssr:stedsnr" v="89703" />
	</node>
	<node lat="59.50140555438946" lon="10.232327783631769" id="-44857">
		<tag k="landuse" v="meadow" />
		<tag k="name" v="Hettehagen" />
		<tag k="ssr:stedsnr" v="148605" />
	</node>
	<node lat="59.497316666821774" lon="10.257252775211397" id="-44860">
		<tag k="landuse" v="meadow" />
		<tag k="name" v="Tamburhagen" />
		<tag k="ssr:stedsnr" v="148622" />
	</node>
	<node lat="59.628816668983184" lon="10.273505550751368" id="-44863">
		<tag k="name" v="Dunsåsmyr" />
		<tag k="natural" v="wetland" />
		<tag k="ssr:stedsnr" v="149203" />
	</node>
	<node lat="59.560519444690094" lon="10.33927222284636" id="-44864">
		<tag k="name" v="Moltemyr" />
		<tag k="natural" v="wetland" />
		<tag k="ssr:stedsnr" v="149207" />
	</node>
	<node lat="59.655916667302826" lon="10.143158325722052" id="-44894">
		<tag k="alt_name" v="Bjørge-Langmyr" />
		<tag k="name" v="Bjørgelangmyra" />
		<tag k="natural" v="wetland" />
		<tag k="ssr:stedsnr" v="185132" />
	</node>
	<node lat="59.59914999739938" lon="10.313966666654087" id="-44896">
		<tag k="name" v="Ulvemyr" />
		<tag k="natural" v="wetland" />
		<tag k="ssr:stedsnr" v="185035" />
	</node>
	<node lat="59.62541666776723" lon="10.291841666658438" id="-44927">
		<tag k="name" v="Ventetjernholene" />
		<tag k="place" v="locality" />
		<tag k="ssr:stedsnr" v="210236" />
	</node>
	<node lat="59.58508055994718" lon="10.271805557280127" id="-44931">
		<tag k="name" v="Gampetorget" />
		<tag k="place" v="locality" />
		<tag k="ssr:stedsnr" v="210287" />
	</node>
	<node lat="59.549188888105384" lon="10.060908339043637" id="-44940">
		<tag k="alt_name" v="Hestehagen" />
		<tag k="name" v="Hesthagen" />
		<tag k="place" v="locality" />
		<tag k="ssr:stedsnr" v="210688" />
	</node>
	<node lat="59.58691944132241" lon="10.22100278467462" id="-44943">
		<tag k="name" v="Dunihagen" />
		<tag k="place" v="locality" />
		<tag k="ssr:stedsnr" v="210577" />
	</node>
	<node lat="59.62542222024933" lon="10.112941668109736" id="-44947">
		<tag k="name" v="Frebermyr" />
		<tag k="natural" v="wetland" />
		<tag k="ssr:stedsnr" v="210711" />
	</node>
	<node lat="59.6242083330713" lon="10.119441663974325" id="-44948">
		<tag k="name" v="Tjernsmyr" />
		<tag k="natural" v="wetland" />
		<tag k="ssr:stedsnr" v="210731" />
	</node>
	<node lat="59.63600555862183" lon="10.255761112090259" id="-44952">
		<tag k="name" v="Hovet" />
		<tag k="place" v="locality" />
		<tag k="ssr:stedsnr" v="210924" />
	</node>
	<node lat="59.459869442843114" lon="10.35889443642178" id="-44978">
		<tag k="landuse" v="meadow" />
		<tag k="name" v="Kihl" />
		<tag k="ssr:stedsnr" v="270845" />
	</node>
	<node lat="59.54039166710134" lon="10.33116111499946" id="-44982">
		<tag k="landuse" v="meadow" />
		<tag k="name" v="Rolvsengen" />
		<tag k="ssr:stedsnr" v="271022" />
	</node>
	<node lat="59.53665000124839" lon="10.13491943957735" id="-44999">
		<tag k="name" v="Bustemyr" />
		<tag k="natural" v="wetland" />
		<tag k="ssr:stedsnr" v="271435" />
	</node>
	<node lat="59.64508333093173" lon="10.105525002744518" id="-45025">
		<tag k="name" v="Gallebergmyrene" />
		<tag k="natural" v="wetland" />
		<tag k="ssr:stedsnr" v="271798" />
	</node>
	<node lat="59.65351666418483" lon="10.109177774173757" id="-45026">
		<tag k="name" v="Oremyra" />
		<tag k="natural" v="wetland" />
		<tag k="ssr:stedsnr" v="271801" />
	</node>
	<node lat="59.64791388533817" lon="10.180227783199436" id="-45032">
		<tag k="name" v="Tranbergmyra" />
		<tag k="natural" v="wetland" />
		<tag k="ssr:stedsnr" v="449360" />
	</node>
	<node lat="59.60279999901035" lon="10.284430559888156" id="-45051">
		<tag k="alt_name" v="Husemyr" />
		<tag k="name" v="Husmyra" />
		<tag k="natural" v="wetland" />
		<tag k="ssr:stedsnr" v="246113" />
	</node>
	<node lat="59.60341388780906" lon="10.09415554700836" id="-45054">
		<tag k="name" v="Haukelimyra" />
		<tag k="natural" v="wetland" />
		<tag k="ssr:stedsnr" v="246126" />
	</node>
	<node lat="59.4933027784099" lon="10.146855548540174" id="-45057">
		<tag k="name" v="Fuglemyr" />
		<tag k="natural" v="wetland" />
		<tag k="ssr:stedsnr" v="452488" />
	</node>
	<node lat="59.494691667129715" lon="10.125827777618136" id="-45063">
		<tag k="name" v="Bjørkemyr" />
		<tag k="natural" v="wetland" />
		<tag k="ssr:stedsnr" v="452499" />
	</node>
	<node lat="59.49817222328869" lon="10.289408328798515" id="-45070">
		<tag k="landuse" v="meadow" />
		<tag k="name" v="Snugg" />
		<tag k="ssr:stedsnr" v="452857" />
	</node>
	<node lat="59.465855556586206" lon="10.348666663610379" id="-45071">
		<tag k="name" v="Ververoa" />
		<tag k="place" v="locality" />
		<tag k="ssr:stedsnr" v="452936" />
	</node>
	<node lat="59.611227774261955" lon="10.331941665539679" id="-45077">
		<tag k="name" v="Rolighetsmyr" />
		<tag k="natural" v="wetland" />
		<tag k="ssr:stedsnr" v="453195" />
	</node>
	<node lat="59.630122224229595" lon="10.293127784873928" id="-45081">
		<tag k="name" v="Briskholmene" />
		<tag k="place" v="locality" />
		<tag k="ssr:stedsnr" v="453233" />
	</node>
	<node lat="59.56191110781927" lon="10.342416660104323" id="-45084">
		<tag k="name" v="Langemyr" />
		<tag k="natural" v="wetland" />
		<tag k="ssr:stedsnr" v="453258" />
	</node>
	<node lat="59.55638333211443" lon="10.019380556504872" id="-45086">
		<tag k="name" v="Vesle-Hofsmyr" />
		<tag k="natural" v="wetland" />
		<tag k="ssr:stedsnr" v="453332" />
	</node>
	<node lat="59.545350002029124" lon="9.995177781831153" id="-45094">
		<tag k="name" v="Voldsmyr" />
		<tag k="natural" v="wetland" />
		<tag k="ssr:stedsnr" v="453532" />
	</node>
	<node lat="59.6365250008915" lon="10.15570277980649" id="-45101">
		<tag k="historic" v="shieling" />
		<tag k="name" v="Veierudsetra" />
		<tag k="place" v="locality" />
		<tag k="ssr:stedsnr" v="453624" />
	</node>
	<node lat="59.60641944445121" lon="10.235483338548724" id="-45124">
		<tag k="name" v="Sjølshagen" />
		<tag k="place" v="locality" />
		<tag k="ssr:stedsnr" v="453942" />
	</node>
	<node lat="59.53264166273309" lon="10.233313894666544" id="-45168">
		<tag k="name" v="Hestehuemyr" />
		<tag k="natural" v="wetland" />
		<tag k="ssr:stedsnr" v="271583" />
	</node>
	<node lat="59.542891666808075" lon="10.36510000378149" id="-45217">
		<tag k="name" v="Bjørnebråten" />
		<tag k="place" v="locality" />
		<tag k="ssr:stedsnr" v="331015" />
	</node>
	<node lat="59.45406389034556" lon="10.098375001664897" id="-45218">
		<tag k="name" v="Kremmermyra" />
		<tag k="natural" v="wetland" />
		<tag k="ssr:stedsnr" v="331102" />
	</node>
	<node lat="59.510222226390226" lon="10.130955561292174" id="-45220">
		<tag k="name" v="Engrønningen" />
		<tag k="place" v="locality" />
		<tag k="ssr:stedsnr" v="331355" />
	</node>
	<node lat="59.584075000403004" lon="10.215383340636416" id="-45233">
		<tag k="name" v="Vingejordet" />
		<tag k="place" v="locality" />
		<tag k="ssr:stedsnr" v="331564" />
	</node>
	<node lat="59.53633888660292" lon="10.039224997848317" id="-45238">
		<tag k="name" v="Blakkemyr" />
		<tag k="natural" v="wetland" />
		<tag k="ssr:stedsnr" v="331495" />
	</node>
	<node lat="59.61879444597927" lon="10.104519439054144" id="-45254">
		<tag k="name" v="Tjærnsmyr" />
		<tag k="natural" v="wetland" />
		<tag k="ssr:stedsnr" v="331701" />
	</node>
	<node lat="59.66588610775926" lon="10.15748889069469" id="-45256">
		<tag k="name" v="Vassmyrstein" />
		<tag k="natural" v="stone" />
		<tag k="ssr:stedsnr" v="331950" />
	</node>
	<node lat="59.5229388894373" lon="10.265183336146578" id="-45272">
		<tag k="alt_name" v="Djupdalsmyr" />
		<tag k="name" v="Djupedalsmyra" />
		<tag k="natural" v="wetland" />
		<tag k="ssr:stedsnr" v="367892" />
	</node>
	<node lat="59.655905552626066" lon="10.179972217256923" id="-45276">
		<tag k="historic" v="shieling" />
		<tag k="name" v="Klevjerseter" />
		<tag k="place" v="locality" />
		<tag k="ssr:stedsnr" v="388344" />
	</node>
	<node lat="59.472533332201" lon="10.079830555341893" id="-45283">
		<tag k="name" v="Bjørkestubbmyr" />
		<tag k="natural" v="wetland" />
		<tag k="ssr:stedsnr" v="391485" />
	</node>
	<node lat="59.669019446030966" lon="10.280111103330752" id="-45294">
		<tag k="name" v="Hestebakk" />
		<tag k="place" v="locality" />
		<tag k="ssr:stedsnr" v="392184" />
	</node>
	<node lat="59.5614138869143" lon="9.984002777841146" id="-45301">
		<tag k="historic" v="shieling" />
		<tag k="name" v="Vikesetra" />
		<tag k="place" v="locality" />
		<tag k="ssr:stedsnr" v="392502" />
	</node>
	<node lat="59.56257777958979" lon="10.047213885810285" id="-45311">
		<tag k="name" v="Oremyr" />
		<tag k="natural" v="wetland" />
		<tag k="ssr:stedsnr" v="392703" />
	</node>
	<node lat="59.626488885237336" lon="10.123280551269287" id="-45313">
		<tag k="name" v="Gampemyrene" />
		<tag k="natural" v="wetland" />
		<tag k="ssr:stedsnr" v="392734" />
	</node>
	<node lat="59.64756111418683" lon="10.09938610524555" id="-45360">
		<tag k="alt_name" v="Lauvkollmyr" />
		<tag k="name" v="Lauvkollmyra" />
		<tag k="natural" v="wetland" />
		<tag k="ssr:stedsnr" v="427205" />
	</node>
	<node lat="59.47876388623306" lon="10.182766669292672" id="-45397">
		<tag k="name" v="Barkost Torvmyr" />
		<tag k="natural" v="wetland" />
		<tag k="ssr:stedsnr" v="452708" />
	</node>
	<node lat="59.59420000193495" lon="9.974925001886943" id="-45408">
		<tag k="name" v="Dammyr" />
		<tag k="natural" v="wetland" />
		<tag k="ssr:stedsnr" v="453307" />
	</node>
	<node lat="59.55603055918376" lon="10.15856666653266" id="-45413">
		<tag k="name" v="Torvstrømyra" />
		<tag k="natural" v="wetland" />
		<tag k="ssr:stedsnr" v="453605" />
	</node>
	<node lat="59.582244448806165" lon="10.14713332560871" id="-45416">
		<tag k="name" v="Stubberudsetermyr" />
		<tag k="natural" v="wetland" />
		<tag k="ssr:stedsnr" v="453665" />
	</node>
	<node lat="59.58379166696519" lon="10.16623054880169" id="-45421">
		<tag k="name" v="Skjærbenksmyr" />
		<tag k="natural" v="wetland" />
		<tag k="ssr:stedsnr" v="453574" />
	</node>
	<node lat="59.494744442208884" lon="10.11801667110073" id="-45450">
		<tag k="name" v="Fuglemyr" />
		<tag k="natural" v="wetland" />
		<tag k="ssr:stedsnr" v="488006" />
	</node>
	<node lat="59.59262777738816" lon="9.949194446305022" id="-45458">
		<tag k="name" v="Tretjernmyr" />
		<tag k="natural" v="wetland" />
		<tag k="ssr:stedsnr" v="510451" />
	</node>
	<node lat="59.53299722560905" lon="10.020155549489726" id="-45461">
		<tag k="name" v="Langmyr" />
		<tag k="natural" v="wetland" />
		<tag k="ssr:stedsnr" v="510456" />
	</node>
	<node lat="59.55988333586397" lon="10.16213333685072" id="-45463">
		<tag k="name" v="Vanninga" />
		<tag k="place" v="locality" />
		<tag k="ssr:stedsnr" v="510360" />
	</node>
	<node lat="59.58955555761142" lon="10.297555546822297" id="-45469">
		<tag k="name" v="Selvikmyra" />
		<tag k="natural" v="wetland" />
		<tag k="ssr:stedsnr" v="513017" />
	</node>
	<node lat="59.6047916703836" lon="10.31011388919512" id="-45473">
		<tag k="name" v="Trollhettmyra" />
		<tag k="natural" v="wetland" />
		<tag k="ssr:stedsnr" v="513179" />
	</node>
	<node lat="59.61238332896848" lon="10.320697220108778" id="-45474">
		<tag k="name" v="Brånamyr" />
		<tag k="natural" v="wetland" />
		<tag k="ssr:stedsnr" v="513181" />
	</node>
	<node lat="59.545747218091236" lon="10.084341661199291" id="-45482">
		<tag k="landuse" v="meadow" />
		<tag k="name" v="Prestegårdshagen" />
		<tag k="ssr:stedsnr" v="513313" />
	</node>
	<node lat="59.50149722202911" lon="10.235880551567615" id="-45495">
		<tag k="landuse" v="meadow" />
		<tag k="name" v="Bringakerenga" />
		<tag k="ssr:stedsnr" v="513623" />
	</node>
	<node lat="59.55180555542618" lon="10.063913884516525" id="-45499">
		<tag k="name" v="Torvmyra" />
		<tag k="natural" v="wetland" />
		<tag k="ssr:stedsnr" v="513682" />
	</node>
	<node lat="59.558177776637805" lon="10.142408327008283" id="-45500">
		<tag k="name" v="Purkemyra" />
		<tag k="place" v="locality" />
		<tag k="ssr:stedsnr" v="513702" />
	</node>
	<node lat="59.49147222156869" lon="10.126174991468815" id="-45519">
		<tag k="name" v="Breimyr" />
		<tag k="natural" v="wetland" />
		<tag k="ssr:stedsnr" v="548009" />
	</node>
	<node lat="59.64542777725852" lon="10.170252782761674" id="-45544">
		<tag k="name" v="Kobberputt" />
		<tag k="natural" v="wetland" />
		<tag k="ssr:stedsnr" v="570310" />
	</node>
	<node lat="59.562902778238445" lon="10.174588884721905" id="-45547">
		<tag k="name" v="Dammyr" />
		<tag k="natural" v="wetland" />
		<tag k="ssr:stedsnr" v="570353" />
	</node>
	<node lat="59.49595555105275" lon="10.233427784556113" id="-45550">
		<tag k="name" v="Kokkejordet" />
		<tag k="place" v="locality" />
		<tag k="ssr:stedsnr" v="573555" />
	</node>
	<node lat="59.493697223791706" lon="10.239522223397623" id="-45551">
		<tag k="name" v="Tangen" />
		<tag k="place" v="locality" />
		<tag k="ssr:stedsnr" v="573556" />
	</node>
	<node lat="59.561686113806644" lon="9.989613894365672" id="-45554">
		<tag k="name" v="Kringlemyr" />
		<tag k="natural" v="wetland" />
		<tag k="ssr:stedsnr" v="573437" />
	</node>
	<node lat="59.5522472219408" lon="9.993177780707528" id="-45555">
		<tag k="name" v="Krokmyr" />
		<tag k="natural" v="wetland" />
		<tag k="ssr:stedsnr" v="573438" />
	</node>
	<node lat="59.56388610741402" lon="10.153616665657488" id="-45568">
		<tag k="historic" v="shieling" />
		<tag k="name" v="Eplerudsetra" />
		<tag k="place" v="locality" />
		<tag k="ssr:stedsnr" v="574606" />
	</node>
	<node lat="59.564752780799125" lon="10.119072213633197" id="-45576">
		<tag k="name" v="Oremyr" />
		<tag k="natural" v="wetland" />
		<tag k="ssr:stedsnr" v="574702" />
	</node>
	<node lat="59.55231111292345" lon="10.098794453141155" id="-45577">
		<tag k="landuse" v="meadow" />
		<tag k="name" v="Vassengen" />
		<tag k="ssr:stedsnr" v="574707" />
	</node>
	<node lat="59.65074166635196" lon="10.307763890421151" id="-45588">
		<tag k="historic" v="shieling" />
		<tag k="name" v="Kjeldåssetra" />
		<tag k="place" v="locality" />
		<tag k="ssr:stedsnr" v="695139" />
	</node>
	<node lat="59.50044444828636" lon="10.135300005655804" id="-45600">
		<tag k="name" v="Langmyr" />
		<tag k="natural" v="wetland" />
		<tag k="ssr:stedsnr" v="695049" />
	</node>
	<node lat="59.63436110963381" lon="10.283600002393097" id="-45607">
		<tag k="name" v="Fossetermyrene" />
		<tag k="natural" v="wetland" />
		<tag k="ssr:stedsnr" v="695223" />
	</node>
	<node lat="59.563347218905186" lon="10.012672221137398" id="-45610">
		<tag k="name" v="Stulemyr" />
		<tag k="natural" v="wetland" />
		<tag k="ssr:stedsnr" v="695325" />
	</node>
	<node lat="59.54020555990064" lon="10.06568889141489" id="-45623">
		<tag k="name" v="Skøgsjordet" />
		<tag k="place" v="locality" />
		<tag k="ssr:stedsnr" v="695297" />
	</node>
	<node lat="59.59286111351122" lon="10.213613890241296" id="-45629">
		<tag k="name" v="Prestegårdsjordet" />
		<tag k="place" v="locality" />
		<tag k="ssr:stedsnr" v="695573" />
	</node>
	<node lat="59.553858329854336" lon="10.153563883917505" id="-45633">
		<tag k="name" v="Myrene" />
		<tag k="natural" v="wetland" />
		<tag k="ssr:stedsnr" v="695593" />
	</node>
	<node lat="59.60740555627882" lon="10.252416660404952" id="-45639">
		<tag k="name" v="Aunes-To" />
		<tag k="place" v="locality" />
		<tag k="ssr:stedsnr" v="695932" />
	</node>
	<node lat="59.47389722086675" lon="10.307511106448738" id="-45646">
		<tag k="name" v="Bakketun" />
		<tag k="place" v="locality" />
		<tag k="ssr:stedsnr" v="695862" />
	</node>
	<node lat="59.59865277602553" lon="10.156227770309119" id="-45651">
		<tag k="landuse" v="meadow" />
		<tag k="name" v="Hagan" />
		<tag k="ssr:stedsnr" v="695890" />
	</node>
	<node lat="59.668388886866516" lon="10.158866663289432" id="-45653">
		<tag k="historic" v="shieling" />
		<tag k="name" v="Tennungsetra" />
		<tag k="place" v="locality" />
		<tag k="ssr:stedsnr" v="695933" />
	</node>
	<node lat="59.624744444635745" lon="10.283608324741241" id="-45700">
		<tag k="name" v="Mellomåsmyr" />
		<tag k="natural" v="wetland" />
		<tag k="ssr:stedsnr" v="634212" />
	</node>
	<node lat="59.57226666263759" lon="10.328083328871285" id="-45701">
		<tag k="name" v="Moltemyr" />
		<tag k="natural" v="wetland" />
		<tag k="ssr:stedsnr" v="634227" />
	</node>
	<node lat="59.564011110046245" lon="10.32327222391169" id="-45702">
		<tag k="name" v="Stuemyr" />
		<tag k="natural" v="wetland" />
		<tag k="ssr:stedsnr" v="634229" />
	</node>
	<node lat="59.56646110924607" lon="9.97175832460907" id="-45711">
		<tag k="name" v="Elgemyr" />
		<tag k="natural" v="wetland" />
		<tag k="ssr:stedsnr" v="634507" />
	</node>
	<node lat="59.57623333437933" lon="10.239116673467482" id="-45716">
		<tag k="alt_name" v="Øra" />
		<tag k="name" v="Åsnæsøra" />
		<tag k="place" v="locality" />
		<tag k="ssr:stedsnr" v="634599" />
	</node>
	<node lat="59.561674997703584" lon="10.114655562906396" id="-45717">
		<tag k="name" v="Bråtaskogen" />
		<tag k="place" v="locality" />
		<tag k="ssr:stedsnr" v="634708" />
	</node>
	<node lat="59.64059721962948" lon="10.16014166040992" id="-45721">
		<tag k="name" v="Rudsetervad" />
		<tag k="natural" v="wetland" />
		<tag k="ssr:stedsnr" v="634977" />
	</node>
	<node lat="59.491574997862344" lon="10.384899995344904" id="-45731">
		<tag k="landuse" v="quarry" />
		<tag k="name" v="Kalkbrudd" />
		<tag k="ssr:stedsnr" v="707996" />
	</node>
	<node lat="59.55398889275457" lon="10.176302776701949" id="-45756">
		<tag k="name" v="Saga" />
		<tag k="place" v="locality" />
		<tag k="ssr:stedsnr" v="692389" />
	</node>
	<node lat="59.60535000313102" lon="10.277947229522972" id="-45766">
		<tag k="name" v="Raukleivmyr" />
		<tag k="natural" v="wetland" />
		<tag k="ssr:stedsnr" v="695187" />
	</node>
	<node lat="59.526941663911764" lon="10.227458339084121" id="-45776">
		<tag k="name" v="Stokkemyr" />
		<tag k="natural" v="wetland" />
		<tag k="ssr:stedsnr" v="695541" />
	</node>
	<node lat="59.574611114583575" lon="10.162955548117173" id="-45778">
		<tag k="name" v="Velte" />
		<tag k="place" v="locality" />
		<tag k="ssr:stedsnr" v="695565" />
	</node>
	<node lat="59.574652780433205" lon="10.169799993852351" id="-45779">
		<tag k="historic" v="shieling" />
		<tag k="name" v="Teiensetra" />
		<tag k="place" v="locality" />
		<tag k="ssr:stedsnr" v="695566" />
	</node>
	<node lat="59.62758888539478" lon="10.248852776229603" id="-45791">
		<tag k="name" v="Skyvleløkka" />
		<tag k="place" v="locality" />
		<tag k="ssr:stedsnr" v="695911" />
	</node>
	<node lat="59.4528472260392" lon="10.12711944500515" id="-45826">
		<tag k="name" v="Narvestomta" />
		<tag k="place" v="locality" />
		<tag k="ssr:stedsnr" v="755118" />
	</node>
	<node lat="59.67064166839688" lon="10.120144446637537" id="-45852">
		<tag k="name" v="Slåttsmyr" />
		<tag k="natural" v="wetland" />
		<tag k="ssr:stedsnr" v="756745" />
	</node>
	<node lat="59.56584722349917" lon="10.127611115462784" id="-45856">
		<tag k="name" v="Nordre Herstadskogen" />
		<tag k="place" v="locality" />
		<tag k="ssr:stedsnr" v="756700" />
	</node>
	<node lat="59.47989166241321" lon="10.221258335075198" id="-45870">
		<tag k="alt_name" v="Langemyr" />
		<tag k="name" v="Langmyr" />
		<tag k="natural" v="wetland" />
		<tag k="ssr:stedsnr" v="791012" />
	</node>
	<node lat="59.657499996647594" lon="10.016061109459097" id="-45927">
		<tag k="name" v="Gampemyr" />
		<tag k="natural" v="wetland" />
		<tag k="ssr:stedsnr" v="817306" />
	</node>
	<node lat="59.51702777366746" lon="10.075477776304739" id="-45939">
		<tag k="name" v="Sørjordet" />
		<tag k="place" v="locality" />
		<tag k="ssr:stedsnr" v="817381" />
	</node>
	<node lat="59.62110833122161" lon="10.218436116560554" id="-45947">
		<tag k="landuse" v="meadow" />
		<tag k="name" v="Galleberghaugen" />
		<tag k="ssr:stedsnr" v="817627" />
	</node>
	<node lat="59.55609166839755" lon="10.14913056296355" id="-45949">
		<tag k="name" v="Movenda" />
		<tag k="place" v="locality" />
		<tag k="ssr:stedsnr" v="817685" />
	</node>
	<node lat="59.55729444502199" lon="10.145922216203793" id="-45950">
		<tag k="name" v="Hagastykket" />
		<tag k="place" v="locality" />
		<tag k="ssr:stedsnr" v="817686" />
	</node>
	<node lat="59.63589722218273" lon="10.129199998912421" id="-45951">
		<tag k="name" v="Åsmyrene" />
		<tag k="natural" v="wetland" />
		<tag k="ssr:stedsnr" v="817687" />
	</node>
	<node lat="59.630963886002405" lon="10.147669438726442" id="-45952">
		<tag k="name" v="Elgmyr" />
		<tag k="natural" v="wetland" />
		<tag k="ssr:stedsnr" v="817691" />
	</node>
	<node lat="59.64027221769978" lon="10.165408340946033" id="-45956">
		<tag k="name" v="Fjellskarmyr" />
		<tag k="natural" v="wetland" />
		<tag k="ssr:stedsnr" v="817981" />
	</node>
	<node lat="59.63274722201294" lon="10.320572219826895" id="-45987">
		<tag k="name" v="Eikelundmyr" />
		<tag k="natural" v="wetland" />
		<tag k="ssr:stedsnr" v="877217" />
	</node>
	<node lat="59.566758332242884" lon="10.283313881756415" id="-45988">
		<tag k="name" v="Hareleina" />
		<tag k="place" v="locality" />
		<tag k="ssr:stedsnr" v="877259" />
	</node>
	<node lat="59.529272220333624" lon="10.051430555072008" id="-45989">
		<tag k="name" v="Voldshogste" />
		<tag k="place" v="locality" />
		<tag k="ssr:stedsnr" v="877307" />
	</node>
	<node lat="59.566705551141204" lon="9.996630551709117" id="-45998">
		<tag k="name" v="Middagsmyr" />
		<tag k="natural" v="wetland" />
		<tag k="ssr:stedsnr" v="877467" />
	</node>
	<node lat="59.49853055583665" lon="10.235438883481107" id="-45999">
		<tag k="name" v="Klokkejordet" />
		<tag k="place" v="locality" />
		<tag k="ssr:stedsnr" v="877617" />
	</node>
	<node lat="59.56320277341032" lon="10.130111113541037" id="-46000">
		<tag k="name" v="Søndre Herstadskogen" />
		<tag k="place" v="locality" />
		<tag k="ssr:stedsnr" v="877705" />
	</node>
	<node lat="59.556861110502" lon="10.150569448662301" id="-46002">
		<tag k="name" v="Østmyra" />
		<tag k="place" v="locality" />
		<tag k="ssr:stedsnr" v="877713" />
	</node>
	<node lat="59.59885277671176" lon="10.09159444204567" id="-46006">
		<tag k="name" v="Lindalsmyr" />
		<tag k="natural" v="wetland" />
		<tag k="ssr:stedsnr" v="877755" />
	</node>
	<node lat="59.55863055406722" lon="10.067700000662319" id="-46009">
		<tag k="name" v="Breisetmyra" />
		<tag k="natural" v="wetland" />
		<tag k="ssr:stedsnr" v="877701" />
	</node>
	<node lat="59.556419440173336" lon="10.026474997603328" id="-46056">
		<tag k="name" v="Lindset Hofsmyr" />
		<tag k="natural" v="wetland" />
		<tag k="ssr:stedsnr" v="938312" />
	</node>
	<node lat="59.56203888572595" lon="10.019474999310592" id="-46057">
		<tag k="name" v="Furumyr" />
		<tag k="natural" v="wetland" />
		<tag k="ssr:stedsnr" v="938317" />
	</node>
	<node lat="59.6214111102653" lon="10.194674995293795" id="-46073">
		<tag k="name" v="Flatbråtan" />
		<tag k="place" v="locality" />
		<tag k="ssr:stedsnr" v="938604" />
	</node>
	<node lat="59.628588886326376" lon="10.250608340069626" id="-46081">
		<tag k="name" v="Rønningen" />
		<tag k="place" v="locality" />
		<tag k="ssr:stedsnr" v="938927" />
	</node>
	<node lat="59.663836108951905" lon="10.220958341415148" id="-46082">
		<tag k="name" v="Grimsrud" />
		<tag k="place" v="locality" />
		<tag k="ssr:stedsnr" v="938938" />
	</node>
	<node lat="59.640305552601504" lon="10.15468610839022" id="-46085">
		<tag k="name" v="Skremma" />
		<tag k="natural" v="wetland" />
		<tag k="ssr:stedsnr" v="938944" />
	</node>
	<node lat="59.665130552145826" lon="10.182886115265921" id="-46087">
		<tag k="name" v="Moltemyr" />
		<tag k="natural" v="wetland" />
		<tag k="ssr:stedsnr" v="938946" />
	</node>
	<node lat="59.47959722226669" lon="10.329536114171693" id="-46089">
		<tag k="landuse" v="meadow" />
		<tag k="name" v="Hagemannsparken" />
		<tag k="ssr:stedsnr" v="938948" />
	</node>
	<node lat="59.46256388485498" lon="10.31486943623859" id="-46143">
		<tag k="name" v="Kiste-stue" />
		<tag k="place" v="locality" />
		<tag k="ssr:stedsnr" v="27795" />
	</node>
	<node lat="59.500983331725934" lon="10.298188882099081" id="-46151">
		<tag k="name" v="Solbergskogen" />
		<tag k="place" v="locality" />
		<tag k="ssr:stedsnr" v="27853" />
	</node>
	<node lat="59.60747500163152" lon="10.285519450086515" id="-46157">
		<tag k="name" v="Langemyr" />
		<tag k="natural" v="wetland" />
		<tag k="ssr:stedsnr" v="28196" />
	</node>
	<node lat="59.62339444475179" lon="10.265091670172959" id="-46165">
		<tag k="name" v="Igletjernsmyra" />
		<tag k="natural" v="wetland" />
		<tag k="ssr:stedsnr" v="28237" />
	</node>
	<node lat="59.59938889305086" lon="10.201672216648427" id="-46184">
		<tag k="name" v="Skjærsvold" />
		<tag k="place" v="locality" />
		<tag k="ssr:stedsnr" v="28933" />
	</node>
	<node lat="59.62308610840216" lon="10.15238056394825" id="-46186">
		<tag k="name" v="Tømmermyr" />
		<tag k="natural" v="wetland" />
		<tag k="ssr:stedsnr" v="28639" />
	</node>
	<node lat="59.587033332476075" lon="10.146497226352311" id="-46191">
		<tag k="name" v="Sisselmyr" />
		<tag k="natural" v="wetland" />
		<tag k="ssr:stedsnr" v="28666" />
	</node>
	<node lat="59.66093333697104" lon="10.124538893045814" id="-46196">
		<tag k="name" v="Elgmyra" />
		<tag k="natural" v="wetland" />
		<tag k="ssr:stedsnr" v="28759" />
	</node>
	<node lat="59.489211111934786" lon="10.06746667332286" id="-46254">
		<tag k="landuse" v="meadow" />
		<tag k="name" v="Hestenga" />
		<tag k="ssr:stedsnr" v="88030" />
	</node>
	<node lat="59.50264722565946" lon="10.122591657954215" id="-46257">
		<tag k="name" v="Moltemyr" />
		<tag k="natural" v="wetland" />
		<tag k="ssr:stedsnr" v="88045" />
	</node>
	<node lat="59.45780278190187" lon="10.077563896179502" id="-46259">
		<tag k="name" v="Gampedalsmyra" />
		<tag k="natural" v="wetland" />
		<tag k="ssr:stedsnr" v="88061" />
	</node>
	<node lat="59.55954721963294" lon="9.964099995541845" id="-46260">
		<tag k="name" v="Tjernmyr" />
		<tag k="natural" v="wetland" />
		<tag k="ssr:stedsnr" v="88397" />
	</node>
	<node lat="59.54901666628015" lon="9.996563889381008" id="-46262">
		<tag k="name" v="Tjernmyr" />
		<tag k="natural" v="wetland" />
		<tag k="ssr:stedsnr" v="88445" />
	</node>
	<node lat="59.494925002764525" lon="10.234002771193957" id="-46263">
		<tag k="landuse" v="meadow" />
		<tag k="name" v="Flatevenda" />
		<tag k="ssr:stedsnr" v="88522" />
	</node>
	<node lat="59.48943333522215" lon="10.23590555485332" id="-46264">
		<tag k="name" v="Hetteløkka" />
		<tag k="place" v="locality" />
		<tag k="ssr:stedsnr" v="88526" />
	</node>
	<node lat="59.47083888948926" lon="10.24878056114288" id="-46270">
		<tag k="landuse" v="meadow" />
		<tag k="name" v="Vestby" />
		<tag k="ssr:stedsnr" v="88645" />
	</node>
	<node lat="59.48046944409301" lon="10.257127772563457" id="-46271">
		<tag k="name" v="Løvald-teigen" />
		<tag k="place" v="locality" />
		<tag k="ssr:stedsnr" v="88651" />
	</node>
	<node lat="59.46458889158969" lon="10.340905550517794" id="-46272">
		<tag k="landuse" v="meadow" />
		<tag k="name" v="Syrstadenga" />
		<tag k="ssr:stedsnr" v="88765" />
	</node>
	<node lat="59.507777773699445" lon="10.097116670733127" id="-46296">
		<tag k="name" v="Jonsrønningen" />
		<tag k="place" v="locality" />
		<tag k="ssr:stedsnr" v="89379" />
	</node>
	<node lat="59.521600003706126" lon="10.070541666777755" id="-46299">
		<tag k="landuse" v="meadow" />
		<tag k="name" v="Nord-engen" />
		<tag k="ssr:stedsnr" v="89387" />
	</node>
	<node lat="59.52248888848619" lon="10.237652771777851" id="-46302">
		<tag k="name" v="Vittemyr" />
		<tag k="natural" v="wetland" />
		<tag k="ssr:stedsnr" v="89557" />
	</node>
	<node lat="59.661694447396286" lon="10.194352778481413" id="-46316">
		<tag k="name" v="Tennunghagen" />
		<tag k="place" v="locality" />
		<tag k="ssr:stedsnr" v="89927" />
	</node>
	<node lat="59.581861114160894" lon="10.220997214984118" id="-46318">
		<tag k="landuse" v="meadow" />
		<tag k="name" v="Donerudenga" />
		<tag k="ssr:stedsnr" v="89576" />
	</node>
	<node lat="59.583311114515396" lon="10.256338883976762" id="-46319">
		<tag k="name" v="Dalaplassen" />
		<tag k="place" v="locality" />
		<tag k="ssr:stedsnr" v="89586" />
	</node>
	<node lat="59.58635555421215" lon="10.132097228823405" id="-46320">
		<tag k="name" v="Kumyr" />
		<tag k="natural" v="wetland" />
		<tag k="ssr:stedsnr" v="89661" />
	</node>
	<node lat="59.60034999906271" lon="10.231408340561702" id="-46326">
		<tag k="name" v="Sjølsmyra" />
		<tag k="natural" v="wetland" />
		<tag k="ssr:stedsnr" v="89935" />
	</node>
	<node lat="59.56346110998523" lon="10.16570277264873" id="-46349">
		<tag k="alt_name" v="Blakemyr" />
		<tag k="name" v="Blakkmyr" />
		<tag k="natural" v="wetland" />
		<tag k="ssr:stedsnr" v="124049" />
	</node>
	<node lat="59.66522778177131" lon="10.171133335868205" id="-46354">
		<tag k="alt_name" v="Høymyr" />
		<tag k="name" v="Høymyra" />
		<tag k="natural" v="wetland" />
		<tag k="ssr:stedsnr" v="124136" />
	</node>
	<node lat="59.50132222628731" lon="10.13086944865708" id="-46374">
		<tag k="name" v="Bjørkemyr" />
		<tag k="natural" v="wetland" />
		<tag k="ssr:stedsnr" v="148051" />
	</node>
	<node lat="59.46634444307549" lon="10.112122216581875" id="-46378">
		<tag k="name" v="Dyremyr" />
		<tag k="natural" v="wetland" />
		<tag k="ssr:stedsnr" v="148525" />
	</node>
	<node lat="59.60843333603529" lon="10.294675008164688" id="-46403">
		<tag k="name" v="Grytemyr" />
		<tag k="natural" v="wetland" />
		<tag k="ssr:stedsnr" v="149174" />
	</node>
	<node lat="59.54666111253664" lon="10.081841672980275" id="-46408">
		<tag k="name" v="Hamnehagen" />
		<tag k="place" v="locality" />
		<tag k="ssr:stedsnr" v="149265" />
	</node>
	<node lat="59.57443333390497" lon="10.162761104217958" id="-46424">
		<tag k="historic" v="shieling" />
		<tag k="name" v="Nysetra" />
		<tag k="place" v="locality" />
		<tag k="ssr:stedsnr" v="149558" />
	</node>
	<node lat="59.61346666233062" lon="10.171661116275205" id="-46435">
		<tag k="name" v="Solberghagen" />
		<tag k="place" v="locality" />
		<tag k="ssr:stedsnr" v="149924" />
	</node>
	<node lat="59.58378055916842" lon="10.095483325960902" id="-46455">
		<tag k="name" v="Brandstumyra" />
		<tag k="natural" v="wetland" />
		<tag k="ssr:stedsnr" v="185013" />
	</node>
	<node lat="59.56348055853893" lon="10.17081944130936" id="-46485">
		<tag k="name" v="Blakemyrsvingen" />
		<tag k="place" v="locality" />
		<tag k="ssr:stedsnr" v="206374" />
	</node>
	<node lat="59.4692000013649" lon="10.2523944427266" id="-46498">
		<tag k="name" v="Korsgården-Greaker" />
		<tag k="place" v="locality" />
		<tag k="ssr:stedsnr" v="209701" />
	</node>
	<node lat="59.564169446482396" lon="10.016658326313676" id="-46507">
		<tag k="name" v="Gullmyr" />
		<tag k="natural" v="wetland" />
		<tag k="ssr:stedsnr" v="210338" />
	</node>
	<node lat="59.573141666576504" lon="10.160430558553122" id="-46520">
		<tag k="historic" v="shieling" />
		<tag k="name" v="Gamle Løvåsseter" />
		<tag k="place" v="locality" />
		<tag k="ssr:stedsnr" v="210553" />
	</node>
	<node lat="59.571297219213115" lon="10.244905564107224" id="-46521">
		<tag k="name" v="Grunden" />
		<tag k="place" v="locality" />
		<tag k="ssr:stedsnr" v="210598" />
	</node>
	<node lat="59.62701388827443" lon="10.15051389404462" id="-46528">
		<tag k="name" v="Siljukollmyra" />
		<tag k="natural" v="wetland" />
		<tag k="ssr:stedsnr" v="210733" />
	</node>
	<node lat="59.64406111134652" lon="10.15642222460628" id="-46535">
		<tag k="historic" v="shieling" />
		<tag k="name" v="Myresetra" />
		<tag k="place" v="locality" />
		<tag k="ssr:stedsnr" v="210935" />
	</node>
	<node lat="59.64016389123258" lon="10.261561113482422" id="-46538">
		<tag k="name" v="Lundeby øvre" />
		<tag k="place" v="locality" />
		<tag k="ssr:stedsnr" v="210962" />
	</node>
	<node lat="59.61332500292766" lon="10.148163888179212" id="-46582">
		<tag k="alt_name" v="Husemyr" />
		<tag k="name" v="Husmyra" />
		<tag k="natural" v="wetland" />
		<tag k="ssr:stedsnr" v="307081" />
	</node>
	<node lat="59.45830277794311" lon="10.064697228738936" id="-46594">
		<tag k="name" v="Bjørnemyr" />
		<tag k="natural" v="wetland" />
		<tag k="ssr:stedsnr" v="330114" />
	</node>
	<node lat="59.455033337723684" lon="10.127413894604434" id="-46596">
		<tag k="name" v="Skjærebenktomta" />
		<tag k="place" v="locality" />
		<tag k="ssr:stedsnr" v="330147" />
	</node>
	<node lat="59.650300000255875" lon="10.2816972192331" id="-46614">
		<tag k="name" v="Høymyr" />
		<tag k="natural" v="wetland" />
		<tag k="ssr:stedsnr" v="331138" />
	</node>
	<node lat="59.558027779784396" lon="10.01751388713736" id="-46616">
		<tag k="historic" v="shieling" />
		<tag k="name" v="Prestesetra" />
		<tag k="place" v="locality" />
		<tag k="ssr:stedsnr" v="331323" />
	</node>
	<node lat="59.605908337286515" lon="10.301399999125785" id="-46622">
		<tag k="name" v="Webergmyra" />
		<tag k="natural" v="wetland" />
		<tag k="ssr:stedsnr" v="331179" />
	</node>
	<node lat="59.64415833275975" lon="10.120444447858139" id="-46652">
		<tag k="name" v="Kopstadlangmyr" />
		<tag k="natural" v="wetland" />
		<tag k="ssr:stedsnr" v="331744" />
	</node>
	<node lat="59.534594446494516" lon="10.215563893459043" id="-46658">
		<tag k="name" v="Rødmyr" />
		<tag k="natural" v="wetland" />
		<tag k="ssr:stedsnr" v="331756" />
	</node>
	<node lat="59.467611109542666" lon="10.342608336147816" id="-46663">
		<tag k="landuse" v="meadow" />
		<tag k="name" v="Gretteengen" />
		<tag k="ssr:stedsnr" v="331943" />
	</node>
	<node lat="59.63688611389464" lon="10.017966665258932" id="-46666">
		<tag k="name" v="Bjørnestillingsmyr" />
		<tag k="natural" v="wetland" />
		<tag k="ssr:stedsnr" v="332270" />
	</node>
	<node lat="59.55794444792677" lon="10.193097214449919" id="-46712">
		<tag k="name" v="Delingsmyr" />
		<tag k="natural" v="wetland" />
		<tag k="ssr:stedsnr" v="388336" />
	</node>
	<node lat="59.46914444402032" lon="10.344366671431791" id="-46730">
		<tag k="name" v="Verven" />
		<tag k="place" v="locality" />
		<tag k="ssr:stedsnr" v="391949" />
	</node>
	<node lat="59.57203610887625" lon="10.238675008229137" id="-46737">
		<tag k="name" v="Åsnæsøra" />
		<tag k="place" v="locality" />
		<tag k="ssr:stedsnr" v="392644" />
	</node>
	<node lat="59.560861114547265" lon="10.213408333576965" id="-46741">
		<tag k="name" v="Orebergbråten" />
		<tag k="place" v="locality" />
		<tag k="ssr:stedsnr" v="392653" />
	</node>
	<node lat="59.66941666655187" lon="10.29278611554168" id="-46742">
		<tag k="name" v="Tjernemyr" />
		<tag k="natural" v="wetland" />
		<tag k="ssr:stedsnr" v="392176" />
	</node>
	<node lat="59.51059166622361" lon="10.15139723040215" id="-46747">
		<tag k="name" v="Herland" />
		<tag k="place" v="locality" />
		<tag k="ssr:stedsnr" v="392373" />
	</node>
	<node lat="59.58624999900411" lon="9.960172220794599" id="-46810">
		<tag k="name" v="Storemyr" />
		<tag k="natural" v="wetland" />
		<tag k="ssr:stedsnr" v="510435" />
	</node>
	<node lat="59.6584027751319" lon="10.278250006802182" id="-46816">
		<tag k="name" v="Nordre Høymyr" />
		<tag k="place" v="locality" />
		<tag k="ssr:stedsnr" v="513147" />
	</node>
	<node lat="59.5521527804519" lon="10.350441668716552" id="-46817">
		<tag k="name" v="Torvmyra" />
		<tag k="natural" v="wetland" />
		<tag k="ssr:stedsnr" v="513240" />
	</node>
	<node lat="59.554938892134665" lon="10.311472213907285" id="-46838">
		<tag k="name" v="Bråtan" />
		<tag k="place" v="locality" />
		<tag k="ssr:stedsnr" v="513260" />
	</node>
	<node lat="59.561119444490956" lon="10.024002769635764" id="-46839">
		<tag k="name" v="Toppmyr" />
		<tag k="natural" v="wetland" />
		<tag k="ssr:stedsnr" v="513341" />
	</node>
	<node lat="59.53873610783458" lon="10.010952785786476" id="-46845">
		<tag k="name" v="Moltemyr" />
		<tag k="natural" v="wetland" />
		<tag k="ssr:stedsnr" v="513531" />
	</node>
	<node lat="59.565022219460275" lon="10.213433330796711" id="-46851">
		<tag k="landuse" v="meadow" />
		<tag k="name" v="Veshagan" />
		<tag k="ssr:stedsnr" v="513627" />
	</node>
	<node lat="59.56626666958274" lon="10.253375007200539" id="-46854">
		<tag k="name" v="Lersbrygghagen" />
		<tag k="place" v="locality" />
		<tag k="ssr:stedsnr" v="513633" />
	</node>
	<node lat="59.56268611399362" lon="10.073761108343254" id="-46862">
		<tag k="name" v="Åsenmyra" />
		<tag k="natural" v="wetland" />
		<tag k="ssr:stedsnr" v="513688" />
	</node>
	<node lat="59.64390833628176" lon="10.095566664310253" id="-46876">
		<tag k="name" v="Øyvannskippen" />
		<tag k="natural" v="wetland" />
		<tag k="ssr:stedsnr" v="513755" />
	</node>
	<node lat="59.52991944516216" lon="10.021369441725835" id="-46919">
		<tag k="name" v="Rundmyr" />
		<tag k="natural" v="wetland" />
		<tag k="ssr:stedsnr" v="570394" />
	</node>
	<node lat="59.46874722371123" lon="10.080269441276904" id="-46927">
		<tag k="name" v="Plasseskogen" />
		<tag k="place" v="locality" />
		<tag k="ssr:stedsnr" v="573489" />
	</node>
	<node lat="59.50069999990402" lon="10.091886116851912" id="-46929">
		<tag k="name" v="Gampesteinen" />
		<tag k="natural" v="stone" />
		<tag k="ssr:stedsnr" v="573027" />
	</node>
	<node lat="59.62881388837029" lon="10.159541668138141" id="-46940">
		<tag k="name" v="Guttormsmyr" />
		<tag k="natural" v="wetland" />
		<tag k="ssr:stedsnr" v="573583" />
	</node>
	<node lat="59.451941670937956" lon="10.355294440278481" id="-46955">
		<tag k="name" v="Helland" />
		<tag k="place" v="locality" />
		<tag k="ssr:stedsnr" v="573852" />
	</node>
	<node lat="59.44900833249843" lon="10.356491664196824" id="-46956">
		<tag k="name" v="Helland" />
		<tag k="place" v="locality" />
		<tag k="ssr:stedsnr" v="573853" />
	</node>
	<node lat="59.60369166644598" lon="10.162847222296673" id="-46967">
		<tag k="name" v="Vardalshagen" />
		<tag k="place" v="locality" />
		<tag k="ssr:stedsnr" v="573885" />
	</node>
	<node lat="59.633383330596835" lon="10.161808329419296" id="-46989">
		<tag k="name" v="Fjellskarløken" />
		<tag k="natural" v="wetland" />
		<tag k="ssr:stedsnr" v="574642" />
	</node>
	<node lat="59.631324999148724" lon="10.192441669081722" id="-46990">
		<tag k="name" v="Kjernemyr" />
		<tag k="natural" v="wetland" />
		<tag k="ssr:stedsnr" v="574644" />
	</node>
	<node lat="59.62272777903848" lon="10.077769446864174" id="-46991">
		<tag k="name" v="Badstumyra" />
		<tag k="natural" v="wetland" />
		<tag k="ssr:stedsnr" v="574735" />
	</node>
	<node lat="59.66009722144807" lon="10.261297230208477" id="-46998">
		<tag k="name" v="Bråtan" />
		<tag k="place" v="locality" />
		<tag k="ssr:stedsnr" v="574940" />
	</node>
	<node lat="59.50161389107465" lon="10.215961113076467" id="-47044">
		<tag k="name" v="Skarpås" />
		<tag k="place" v="locality" />
		<tag k="ssr:stedsnr" v="633618" />
	</node>
	<node lat="59.46746666994522" lon="10.25091389669492" id="-47046">
		<tag k="landuse" v="meadow" />
		<tag k="name" v="Fudske-enga" />
		<tag k="ssr:stedsnr" v="633709" />
	</node>
	<node lat="59.53479722331131" lon="10.075727772643468" id="-47062">
		<tag k="landuse" v="meadow" />
		<tag k="name" v="Grefsrud" />
		<tag k="ssr:stedsnr" v="634293" />
	</node>
	<node lat="59.60270000033519" lon="10.26827777383757" id="-47068">
		<tag k="name" v="Kloppmyr" />
		<tag k="natural" v="wetland" />
		<tag k="ssr:stedsnr" v="634169" />
	</node>
	<node lat="59.558538886906256" lon="10.001563893469873" id="-47073">
		<tag k="name" v="Elvemyrene" />
		<tag k="natural" v="wetland" />
		<tag k="ssr:stedsnr" v="634346" />
	</node>
	<node lat="59.6223611099902" lon="10.102466675440517" id="-47078">
		<tag k="name" v="Bleikmyr" />
		<tag k="natural" v="wetland" />
		<tag k="ssr:stedsnr" v="634743" />
	</node>
	<node lat="59.623525004226515" lon="10.11523054918828" id="-47079">
		<tag k="name" v="Geitetrang" />
		<tag k="natural" v="wetland" />
		<tag k="ssr:stedsnr" v="634744" />
	</node>
	<node lat="59.564263887876876" lon="10.072586110182915" id="-47085">
		<tag k="name" v="Hemsmyr" />
		<tag k="natural" v="wetland" />
		<tag k="ssr:stedsnr" v="634699" />
	</node>
	<node lat="59.55466666237995" lon="10.149586118753641" id="-47087">
		<tag k="name" v="Vestmyra" />
		<tag k="place" v="locality" />
		<tag k="ssr:stedsnr" v="634724" />
	</node>
	<node lat="59.570658329435894" lon="9.990816660535248" id="-47135">
		<tag k="alt_name" v="Styttåsmyr" />
		<tag k="name" v="Styttåsmyra" />
		<tag k="natural" v="wetland" />
		<tag k="ssr:stedsnr" v="731056" />
	</node>
	<node lat="59.63945000059537" lon="10.186780558291602" id="-47154">
		<tag k="name" v="Mellomste Vad" />
		<tag k="natural" v="wetland" />
		<tag k="ssr:stedsnr" v="752344" />
	</node>
	<node lat="59.65575555481572" lon="10.288038887728892" id="-47159">
		<tag k="name" v="Elgmyr" />
		<tag k="natural" v="wetland" />
		<tag k="ssr:stedsnr" v="756133" />
	</node>
	<node lat="59.49493611317906" lon="10.14752500747032" id="-47166">
		<tag k="name" v="Gampemyra" />
		<tag k="natural" v="wetland" />
		<tag k="ssr:stedsnr" v="755484" />
	</node>
	<node lat="59.49185555753464" lon="10.236824999229663" id="-47167">
		<tag k="name" v="Goddokk-myra" />
		<tag k="natural" v="wetland" />
		<tag k="ssr:stedsnr" v="755592" />
	</node>
	<node lat="59.61321388705903" lon="10.298733330802127" id="-47181">
		<tag k="name" v="Romma" />
		<tag k="place" v="locality" />
		<tag k="ssr:stedsnr" v="756167" />
	</node>
	<node lat="59.589652780434555" lon="10.131111108313576" id="-47185">
		<tag k="name" v="Hosemyr" />
		<tag k="natural" v="wetland" />
		<tag k="ssr:stedsnr" v="756340" />
	</node>
	<node lat="59.55529721787594" lon="10.333055551043541" id="-47187">
		<tag k="name" v="Gamlesetra" />
		<tag k="place" v="locality" />
		<tag k="ssr:stedsnr" v="756220" />
	</node>
	<node lat="59.54055000291161" lon="10.079705564338628" id="-47190">
		<tag k="landuse" v="meadow" />
		<tag k="name" v="Kirkebrekka" />
		<tag k="ssr:stedsnr" v="756283" />
	</node>
	<node lat="59.63251666928116" lon="10.175966660012918" id="-47199">
		<tag k="name" v="Tjuvborgmyra" />
		<tag k="natural" v="wetland" />
		<tag k="ssr:stedsnr" v="756629" />
	</node>
	<node lat="59.63398611480589" lon="10.196002770062922" id="-47200">
		<tag k="name" v="Setermyr" />
		<tag k="natural" v="wetland" />
		<tag k="ssr:stedsnr" v="756633" />
	</node>
	<node lat="59.617855555109905" lon="10.11928333930384" id="-47207">
		<tag k="name" v="Ødeskaugmyr" />
		<tag k="natural" v="wetland" />
		<tag k="ssr:stedsnr" v="756733" />
	</node>
	<node lat="59.58048888624219" lon="10.164622216969551" id="-47209">
		<tag k="name" v="Store Bondimyr" />
		<tag k="natural" v="wetland" />
		<tag k="ssr:stedsnr" v="756564" />
	</node>
	<node lat="59.57586110953351" lon="10.16663611113737" id="-47210">
		<tag k="name" v="Breimyr" />
		<tag k="natural" v="wetland" />
		<tag k="ssr:stedsnr" v="756572" />
	</node>
	<node lat="59.5784472178909" lon="10.259799997207303" id="-47211">
		<tag k="name" v="Bjørnstadfeltet" />
		<tag k="place" v="locality" />
		<tag k="ssr:stedsnr" v="756583" />
	</node>
	<node lat="59.59643333481722" lon="10.251633332441616" id="-47233">
		<tag k="historic" v="shieling" />
		<tag k="name" v="Veberg vestre" />
		<tag k="place" v="locality" />
		<tag k="ssr:stedsnr" v="756950" />
	</node>
	<node lat="59.507336110766644" lon="10.045077776938054" id="-47277">
		<tag k="name" v="Åtemyr" />
		<tag k="natural" v="wetland" />
		<tag k="ssr:stedsnr" v="816036" />
	</node>
	<node lat="59.493150001602814" lon="10.257252780759927" id="-47286">
		<tag k="name" v="Bergskogen" />
		<tag k="place" v="locality" />
		<tag k="ssr:stedsnr" v="816638" />
	</node>
	<node lat="59.50313611137985" lon="10.210433336672006" id="-47290">
		<tag k="name" v="Solbergtorvet" />
		<tag k="place" v="locality" />
		<tag k="ssr:stedsnr" v="816653" />
	</node>
	<node lat="59.490469442143066" lon="10.227933328191767" id="-47291">
		<tag k="name" v="Grettemyr" />
		<tag k="natural" v="wetland" />
		<tag k="ssr:stedsnr" v="816660" />
	</node>
	<node lat="59.57443611120556" lon="10.291955549503191" id="-47301">
		<tag k="name" v="Syverudmyra" />
		<tag k="natural" v="wetland" />
		<tag k="ssr:stedsnr" v="817250" />
	</node>
	<node lat="59.57960555963114" lon="10.270050006300039" id="-47303">
		<tag k="name" v="Ødemark" />
		<tag k="place" v="locality" />
		<tag k="ssr:stedsnr" v="817255" />
	</node>
	<node lat="59.5959944473916" lon="10.313355550457251" id="-47307">
		<tag k="name" v="Øvre Ulvemyr" />
		<tag k="natural" v="wetland" />
		<tag k="ssr:stedsnr" v="817193" />
	</node>
	<node lat="59.644669448795035" lon="10.282747224683447" id="-47316">
		<tag k="name" v="Røllesmyra" />
		<tag k="natural" v="wetland" />
		<tag k="ssr:stedsnr" v="817140" />
	</node>
	<node lat="59.555519446904" lon="9.987130560229657" id="-47321">
		<tag k="name" v="Gavlemyr" />
		<tag k="natural" v="wetland" />
		<tag k="ssr:stedsnr" v="817454" />
	</node>
	<node lat="59.62265555730395" lon="10.21272500444994" id="-47330">
		<tag k="landuse" v="meadow" />
		<tag k="name" v="Sauehaugen" />
		<tag k="ssr:stedsnr" v="817628" />
	</node>
	<node lat="59.64531111219213" lon="10.133302775949712" id="-47339">
		<tag k="name" v="Stellefmyra" />
		<tag k="natural" v="wetland" />
		<tag k="ssr:stedsnr" v="817754" />
	</node>
	<node lat="59.632711111471174" lon="10.158391665093543" id="-47342">
		<tag k="name" v="Siljukollmyra" />
		<tag k="natural" v="wetland" />
		<tag k="ssr:stedsnr" v="817600" />
	</node>
	<node lat="59.65661666917861" lon="10.22303333064746" id="-47350">
		<tag k="landuse" v="meadow" />
		<tag k="name" v="Grimsrudenga" />
		<tag k="ssr:stedsnr" v="817967" />
	</node>
	<node lat="59.62937500254214" lon="10.29601388085341" id="-47375">
		<tag k="name" v="Breskemyrane" />
		<tag k="natural" v="wetland" />
		<tag k="ssr:stedsnr" v="853069" />
	</node>
	<node lat="59.55162499684894" lon="10.175130561516836" id="-47387">
		<tag k="landuse" v="meadow" />
		<tag k="name" v="Hestehagen" />
		<tag k="ssr:stedsnr" v="874423" />
	</node>
	<node lat="59.63871666508298" lon="10.194088884201053" id="-47390">
		<tag k="name" v="Nedre Vad" />
		<tag k="natural" v="wetland" />
		<tag k="ssr:stedsnr" v="874393" />
	</node>
	<node lat="59.52165555674244" lon="10.02606667121713" id="-47391">
		<tag k="name" v="Kjøytemyr" />
		<tag k="natural" v="wetland" />
		<tag k="ssr:stedsnr" v="874458" />
	</node>
	<node lat="59.54521666766611" lon="10.232294450678605" id="-47400">
		<tag k="name" v="Sagdalen" />
		<tag k="natural" v="stone" />
		<tag k="ssr:stedsnr" v="877778" />
	</node>
	<node lat="59.54109166820825" lon="10.157113888073734" id="-47401">
		<tag k="name" v="Auerudmyra" />
		<tag k="place" v="locality" />
		<tag k="ssr:stedsnr" v="877785" />
	</node>
	<node lat="59.562205553276634" lon="10.02180833808966" id="-47409">
		<tag k="name" v="Stokke-Hofsmyr" />
		<tag k="natural" v="wetland" />
		<tag k="ssr:stedsnr" v="877335" />
	</node>
	<node lat="59.49828611439836" lon="10.138322216128081" id="-47418">
		<tag k="name" v="Moltemyr" />
		<tag k="natural" v="wetland" />
		<tag k="ssr:stedsnr" v="877484" />
	</node>
	<node lat="59.49729444266028" lon="10.14442499485379" id="-47420">
		<tag k="historic" v="shieling" />
		<tag k="name" v="Seterstulen" />
		<tag k="place" v="locality" />
		<tag k="ssr:stedsnr" v="877489" />
	</node>
	<node lat="59.580038887067964" lon="10.168819447146332" id="-47424">
		<tag k="name" v="Vesle Bondimyr" />
		<tag k="natural" v="wetland" />
		<tag k="ssr:stedsnr" v="877581" />
	</node>
	<node lat="59.49702777339337" lon="10.196805563770338" id="-47428">
		<tag k="name" v="Nesskogen" />
		<tag k="place" v="locality" />
		<tag k="ssr:stedsnr" v="877626" />
	</node>
	<node lat="59.50025832908941" lon="10.164727777657923" id="-47434">
		<tag k="landuse" v="meadow" />
		<tag k="name" v="Ladeenga" />
		<tag k="ssr:stedsnr" v="877647" />
	</node>
	<node lat="59.632566665849" lon="10.128775007083759" id="-47435">
		<tag k="name" v="Svartevannsmyra" />
		<tag k="natural" v="wetland" />
		<tag k="ssr:stedsnr" v="877719" />
	</node>
	<node lat="59.63131111342379" lon="10.081016665286038" id="-47436">
		<tag k="name" v="Bjørkemyr" />
		<tag k="natural" v="wetland" />
		<tag k="ssr:stedsnr" v="877721" />
	</node>
	<node lat="59.61996388490896" lon="10.089675002053834" id="-47437">
		<tag k="alt_name" v="Lamannsmyr" />
		<tag k="name" v="Lavvannsmyr" />
		<tag k="natural" v="wetland" />
		<tag k="ssr:stedsnr" v="877728" />
	</node>
	<node lat="59.5376444420063" lon="10.19447222613589" id="-47444">
		<tag k="name" v="Høymyr" />
		<tag k="natural" v="wetland" />
		<tag k="ssr:stedsnr" v="877790" />
	</node>
	<node lat="59.628372223524124" lon="10.296297214063738" id="-47471">
		<tag k="name" v="Ventetjernmyr" />
		<tag k="natural" v="wetland" />
		<tag k="ssr:stedsnr" v="938189" />
	</node>
	<node lat="59.60826944371585" lon="10.315447218846225" id="-47475">
		<tag k="name" v="Trestikelmyra" />
		<tag k="natural" v="wetland" />
		<tag k="ssr:stedsnr" v="938144" />
	</node>
	<node lat="59.60106666216807" lon="10.324655562570408" id="-47476">
		<tag k="name" v="Sandostulen" />
		<tag k="place" v="locality" />
		<tag k="ssr:stedsnr" v="938145" />
	</node>
	<node lat="59.5588999969638" lon="9.974788889967492" id="-47488">
		<tag k="name" v="Stubbemyr" />
		<tag k="natural" v="wetland" />
		<tag k="ssr:stedsnr" v="938471" />
	</node>
	<node lat="59.499369443277416" lon="10.138911114343856" id="-47489">
		<tag k="name" v="Størmyr" />
		<tag k="natural" v="wetland" />
		<tag k="ssr:stedsnr" v="938472" />
	</node>
	<node lat="59.5585361075505" lon="10.167511107823989" id="-47494">
		<tag k="name" v="Firingshogstet" />
		<tag k="place" v="locality" />
		<tag k="ssr:stedsnr" v="938573" />
	</node>
	<node lat="59.53845000322826" lon="10.128063893208768" id="-47504">
		<tag k="name" v="Prestegårdsskogen" />
		<tag k="place" v="locality" />
		<tag k="ssr:stedsnr" v="938375" />
	</node>
	<node lat="59.54775277592349" lon="10.217694445972214" id="-47528">
		<tag k="name" v="Setermyr" />
		<tag k="natural" v="wetland" />
		<tag k="ssr:stedsnr" v="938759" />
	</node>
	<node lat="59.63506666589018" lon="10.073108339173348" id="-47535">
		<tag k="name" v="Prestevannsmyr" />
		<tag k="natural" v="wetland" />
		<tag k="ssr:stedsnr" v="938694" />
	</node>
	<node lat="59.61159444238481" lon="10.235183335371275" id="-47546">
		<tag k="name" v="Hagen" />
		<tag k="place" v="locality" />
		<tag k="ssr:stedsnr" v="938957" />
	</node>
</osm>
