<?xml version="1.0" encoding="UTF-8"?>
<<<<<<< HEAD
<osm version="0.6" generator="osmapis">
	<node lat="59.49358611377593" lon="10.382455557415982" id="-23892">
		<tag k="name" v="Langøya" />
		<tag k="place" v="island" />
		<tag k="ssr:stedsnr" v="2914" />
	</node>
	<node lat="59.51596666732535" lon="10.32826111979067" id="-23898">
		<tag k="name" v="Gåserumpa" />
		<tag k="place" v="islet" />
		<tag k="ssr:stedsnr" v="3981" />
	</node>
	<node lat="59.52140555581414" lon="10.324413892441983" id="-23921">
		<tag k="name" v="Limovnen" />
		<tag k="natural" v="cape" />
		<tag k="ssr:stedsnr" v="28017" />
	</node>
	<node lat="59.5609194413439" lon="10.26565278110274" id="-23924">
		<tag k="name" v="Selvikbukta" />
		<tag k="natural" v="bay" />
		<tag k="ssr:stedsnr" v="28076" />
	</node>
	<node lat="59.50253611287013" lon="10.34637499265301" id="-23970">
		<tag k="name" v="Lillehalsen" />
		<tag k="natural" v="shoal" />
		<tag k="place" v="locality" />
		<tag k="ssr:stedsnr" v="245507" />
	</node>
	<node lat="59.52894722603295" lon="10.359905562116023" id="-23982">
		<tag k="name" v="Bergbryggodden" />
		<tag k="natural" v="cape" />
		<tag k="ssr:stedsnr" v="89016" />
	</node>
	<node lat="59.541774999323096" lon="10.257397225637522" id="-24065">
		<tag k="fixme" v="consider seamark:type=rock or natural=shoal" />
		<tag k="name" v="Saltskjæret" />
		<tag k="place" v="islet" />
		<tag k="ssr:stedsnr" v="149064" />
	</node>
	<node lat="59.557538884813845" lon="10.269175002873308" id="-24105">
		<tag k="name" v="Selvikgrunnen" />
		<tag k="natural" v="shoal" />
		<tag k="place" v="locality" />
		<tag k="ssr:stedsnr" v="207189" />
	</node>
	<node lat="59.52662500062708" lon="10.311624993610765" id="-24121">
		<tag k="fixme" v="consider seamark:type=rock or natural=shoal" />
		<tag k="name" v="Småskjærene" />
		<tag k="place" v="islet" />
		<tag k="ssr:stedsnr" v="210004" />
	</node>
	<node lat="59.52788333273075" lon="10.331175007033517" id="-24122">
		<tag k="name" v="Bjørneskjærgrund" />
		<tag k="natural" v="shoal" />
		<tag k="place" v="locality" />
		<tag k="ssr:stedsnr" v="210007" />
	</node>
	<node lat="59.51728889164549" lon="10.355786104449201" id="-24123">
		<tag k="name" v="Glufsebukta" />
		<tag k="natural" v="bay" />
		<tag k="ssr:stedsnr" v="210019" />
	</node>
	<node lat="59.51606666705115" lon="10.327336113938165" id="-24176">
		<tag k="name" v="Raustrand" />
		<tag k="natural" v="beach" />
		<tag k="ssr:stedsnr" v="271007" />
	</node>
	<node lat="59.518102777732196" lon="10.356758340959805" id="-24177">
		<tag k="name" v="Glufseodden" />
		<tag k="natural" v="cape" />
		<tag k="ssr:stedsnr" v="271015" />
	</node>
	<node lat="59.483094444184914" lon="10.403988881104892" id="-24186">
		<tag k="alt_name" v="Tuene" />
		<tag k="fixme" v="consider seamark:type=rock or natural=shoal" />
		<tag k="name" v="Langøytua" />
		<tag k="place" v="islet" />
		<tag k="ssr:stedsnr" v="271116" />
	</node>
	<node lat="59.49578611116664" lon="10.383130562653683" id="-24198">
		<tag k="name" v="Hortensbukt" />
		<tag k="natural" v="bay" />
		<tag k="ssr:stedsnr" v="271394" />
	</node>
	<node lat="59.545666670673704" lon="10.252383327285242" id="-24222">
		<tag k="name" v="Halseskjæret" />
		<tag k="natural" v="shoal" />
		<tag k="place" v="locality" />
		<tag k="ssr:stedsnr" v="271832" />
	</node>
	<node lat="59.52934444564146" lon="10.338561111052668" id="-24223">
		<tag k="name" v="Bjerkøysundet" />
		<tag k="natural" v="strait" />
		<tag k="ssr:stedsnr" v="271835" />
	</node>
	<node lat="59.492466666413" lon="10.322008325556626" id="-24268">
		<tag k="name" v="Hella" />
		<tag k="natural" v="shoal" />
		<tag k="place" v="locality" />
		<tag k="ssr:stedsnr" v="453070" />
	</node>
	<node lat="59.53042222080555" lon="10.378233335960367" id="-24270">
		<tag k="name" v="Leina" />
		<tag k="natural" v="cape" />
		<tag k="ssr:stedsnr" v="453092" />
	</node>
	<node lat="59.569824998226665" lon="10.241774992969894" id="-24294">
		<tag k="fixme" v="consider seamark:type=rock or natural=shoal" />
		<tag k="name" v="Hakan" />
		<tag k="place" v="islet" />
		<tag k="ssr:stedsnr" v="453613" />
	</node>
	<node lat="59.473230552646505" lon="10.338850002381092" id="-24339">
		<tag k="name" v="Mulvika" />
=======
<osm generator="osmapis" version="0.6">
	<node id="-408559" lat="59.5609194413" lon="10.2656527811">
		<tag k="name" v="Selvikbukta" />
>>>>>>> e1d4bc35ff8a6074a6f2e91616a996b547c36f15
		<tag k="natural" v="bay" />
		<tag k="ssr:stedsnr" v="270914" />
	</node>
<<<<<<< HEAD
	<node lat="59.49624999824945" lon="10.348525008612091" id="-24383">
		<tag k="name" v="Langøygrunnen" />
		<tag k="natural" v="shoal" />
		<tag k="place" v="locality" />
		<tag k="ssr:stedsnr" v="306923" />
	</node>
	<node lat="59.454733329263455" lon="10.36622222797971" id="-24472">
		<tag k="name" v="Sandsfloa" />
		<tag k="place" v="sea" />
		<tag k="ssr:stedsnr" v="391892" />
	</node>
	<node lat="59.52358055592719" lon="10.334197230798603" id="-24474">
		<tag k="name" v="Helenehølet" />
=======
	<node id="-408555" lat="59.4537305599" lon="10.3680138904">
		<tag k="alt_name" v="Hellanskjær" />
		<tag k="fixme" v="consider seamark:type=rock or natural=shoal" />
		<tag k="name" v="Hellandskjær" />
		<tag k="place" v="islet" />
		<tag k="ssr:stedsnr" v="27875" />
	</node>
	<node id="-409063" lat="59.554919443" lon="10.2770749979">
		<tag k="name" v="Orevika" />
>>>>>>> e1d4bc35ff8a6074a6f2e91616a996b547c36f15
		<tag k="natural" v="bay" />
		<tag k="ssr:stedsnr" v="392013" />
	</node>
<<<<<<< HEAD
	<node lat="59.56151944713769" lon="10.256916671317539" id="-24505">
		<tag k="name" v="Kverntangen" />
		<tag k="natural" v="cape" />
		<tag k="ssr:stedsnr" v="392832" />
	</node>
	<node lat="59.45569166547743" lon="10.36164167420134" id="-24577">
		<tag k="name" v="Sandsletta" />
		<tag k="natural" v="beach" />
		<tag k="ssr:stedsnr" v="452880" />
	</node>
	<node lat="59.516922218346394" lon="10.322644441890377" id="-24578">
		<tag k="name" v="Skarpsno" />
		<tag k="natural" v="cape" />
		<tag k="ssr:stedsnr" v="453002" />
	</node>
	<node lat="59.52241944528664" lon="10.324400005043692" id="-24579">
		<tag k="name" v="Flyndra" />
		<tag k="natural" v="cape" />
		<tag k="ssr:stedsnr" v="453005" />
	</node>
	<node lat="59.502249996166675" lon="10.366222222368917" id="-24673">
		<tag k="name" v="Tømmermannsbukt" />
=======
	<node id="-409062" lat="59.5330583377" lon="10.2635055514">
		<tag k="name" v="Bogebukta" />
>>>>>>> e1d4bc35ff8a6074a6f2e91616a996b547c36f15
		<tag k="natural" v="bay" />
		<tag k="old_name" v="Tømmenmannsbukt" />
		<tag k="ssr:stedsnr" v="513870" />
	</node>
<<<<<<< HEAD
	<node lat="59.5011166627364" lon="10.370669440149376" id="-24674">
		<tag k="name" v="Engelskmannsbukt" />
=======
	<node id="-409059" lat="59.4565888859" lon="10.3642749931">
		<tag k="name" v="Hellandkrakken" />
>>>>>>> e1d4bc35ff8a6074a6f2e91616a996b547c36f15
		<tag k="natural" v="bay" />
		<tag k="ssr:stedsnr" v="513871" />
	</node>
<<<<<<< HEAD
	<node lat="59.53770555254426" lon="10.271297226682291" id="-24709">
		<tag k="name" v="Kattholmen" />
=======
	<node id="-409633" lat="59.487438887" lon="10.3888638883">
		<tag k="name" v="Munkestein" />
		<tag k="natural" v="cape" />
		<tag k="ssr:stedsnr" v="767944" />
	</node>
	<node id="-408535" lat="59.5159666673" lon="10.3282611198">
		<tag k="name" v="Gåserumpa" />
>>>>>>> e1d4bc35ff8a6074a6f2e91616a996b547c36f15
		<tag k="place" v="islet" />
		<tag k="ssr:stedsnr" v="570324" />
	</node>
<<<<<<< HEAD
	<node lat="59.54850555606674" lon="10.246830555767517" id="-24736">
		<tag k="name" v="Bikkjebukta" />
		<tag k="natural" v="bay" />
		<tag k="ssr:stedsnr" v="574802" />
	</node>
	<node lat="59.52044251317872" lon="10.348528024578094" id="-24841">
		<tag k="name" v="Bjerkøya" />
		<tag k="place" v="island" />
		<tag k="ssr:stedsnr" v="610919" />
	</node>
	<node lat="59.56105277787714" lon="10.25894722397123" id="-24858">
		<tag k="name" v="Kverntangodden" />
		<tag k="natural" v="cape" />
		<tag k="ssr:stedsnr" v="634627" />
	</node>
	<node lat="59.5269083288876" lon="10.350013888851871" id="-24887">
=======
	<node id="-407509" lat="59.4830944442" lon="10.4039888811">
		<tag k="alt_name" v="Tuene" />
>>>>>>> e1d4bc35ff8a6074a6f2e91616a996b547c36f15
		<tag k="fixme" v="consider seamark:type=rock or natural=shoal" />
		<tag k="name" v="Kjanken" />
		<tag k="place" v="islet" />
		<tag k="ssr:stedsnr" v="670496" />
	</node>
<<<<<<< HEAD
	<node lat="59.51379722221203" lon="10.355374991342446" id="-24903">
		<tag k="name" v="Søndre odden" />
		<tag k="natural" v="cape" />
		<tag k="ssr:stedsnr" v="695010" />
	</node>
	<node lat="59.565825000392266" lon="10.23253611224866" id="-24924">
		<tag k="name" v="Sjødalen" />
=======
	<node id="-408531" lat="59.5503388883" lon="10.2875805566">
		<tag k="name" v="Bekkestranda" />
>>>>>>> e1d4bc35ff8a6074a6f2e91616a996b547c36f15
		<tag k="natural" v="beach" />
		<tag k="ssr:stedsnr" v="695603" />
	</node>
<<<<<<< HEAD
	<node lat="59.53072222651673" lon="10.385177773609255" id="-24930">
		<tag k="name" v="Hansken" />
=======
	<node id="-409042" lat="59.5000222257" lon="10.3492444476">
		<tag k="name" v="Solfjellhausen" />
>>>>>>> e1d4bc35ff8a6074a6f2e91616a996b547c36f15
		<tag k="natural" v="shoal" />
		<tag k="place" v="locality" />
		<tag k="ssr:stedsnr" v="695823" />
	</node>
<<<<<<< HEAD
	<node lat="59.501811113016366" lon="10.343011112684025" id="-24962">
		<tag k="name" v="Sørvestnebbet" />
		<tag k="place" v="locality" />
		<tag k="seamark:type" v="rock" />
		<tag k="ssr:stedsnr" v="752914" />
	</node>
	<node lat="59.51565277434089" lon="10.329597225291089" id="-24972">
		<tag k="name" v="Knattenbukta" />
		<tag k="natural" v="bay" />
		<tag k="ssr:stedsnr" v="756005" />
	</node>
	<node lat="59.52554722390258" lon="10.33513610941727" id="-24974">
=======
	<node id="-409553" lat="59.5103972197" lon="10.3354472172">
		<tag k="name" v="Hasdalbåen" />
		<tag k="place" v="locality" />
		<tag k="seamark:type" v="rock" />
		<tag k="ssr:stedsnr" v="756053" />
	</node>
	<node id="-409552" lat="59.5492416683" lon="10.2846194421">
		<tag k="fixme" v="consider seamark:type=rock or natural=shoal" />
		<tag k="name" v="Bekkeskjæret" />
		<tag k="place" v="islet" />
		<tag k="ssr:stedsnr" v="756033" />
	</node>
	<node id="-407503" lat="59.5160666671" lon="10.3273361139">
		<tag k="name" v="Raustrand" />
		<tag k="natural" v="beach" />
		<tag k="place" v="locality" />
		<tag k="ssr:stedsnr" v="271007" />
	</node>
	<node id="-409548" lat="59.5255472239" lon="10.3351361094">
>>>>>>> e1d4bc35ff8a6074a6f2e91616a996b547c36f15
		<tag k="name" v="Krappesundet" />
		<tag k="natural" v="strait" />
		<tag k="ssr:stedsnr" v="756013" />
	</node>
<<<<<<< HEAD
	<node lat="59.51039721969508" lon="10.335447217229206" id="-24975">
		<tag k="name" v="Hasdalbåen" />
		<tag k="place" v="locality" />
		<tag k="seamark:type" v="rock" />
		<tag k="ssr:stedsnr" v="756053" />
	</node>
	<node lat="59.487438887027224" lon="10.388863888346265" id="-24996">
		<tag k="name" v="Munkestein" />
		<tag k="natural" v="cape" />
		<tag k="ssr:stedsnr" v="767944" />
	</node>
	<node lat="59.465166870337235" lon="10.552921863879602" id="-25028">
		<tag k="bay" v="fjord" />
		<tag k="name" v="Breiangen" />
=======
	<node id="-409546" lat="59.5156527743" lon="10.3295972253">
		<tag k="name" v="Knattenbukta" />
>>>>>>> e1d4bc35ff8a6074a6f2e91616a996b547c36f15
		<tag k="natural" v="bay" />
		<tag k="ssr:stedsnr" v="913913" />
	</node>
<<<<<<< HEAD
	<node lat="59.528938887652366" lon="10.297425008133256" id="-25030">
		<tag k="bay" v="fjord" />
		<tag k="name" v="Sandebukta" />
		<tag k="natural" v="bay" />
		<tag k="ssr:stedsnr" v="913922" />
	</node>
	<node lat="59.47631666717338" lon="10.331041674142353" id="-25048">
		<tag k="name" v="Blekvollen" />
		<tag k="natural" v="beach" />
		<tag k="ssr:stedsnr" v="816927" />
	</node>
	<node lat="59.52566111318688" lon="10.338397226472232" id="-25050">
		<tag k="name" v="Møkkabukta" />
=======
	<node id="-408002" lat="59.5534138891" lon="10.2494666736">
		<tag k="name" v="Hauken" />
		<tag k="natural" v="shoal" />
		<tag k="place" v="locality" />
		<tag k="ssr:stedsnr" v="634060" />
	</node>
	<node id="-408000" lat="59.5308138852" lon="10.366149999">
		<tag k="name" v="Hagasandbukta" />
>>>>>>> e1d4bc35ff8a6074a6f2e91616a996b547c36f15
		<tag k="natural" v="bay" />
		<tag k="ssr:stedsnr" v="817016" />
	</node>
<<<<<<< HEAD
	<node lat="59.52716666239486" lon="10.338291674773336" id="-25051">
		<tag k="name" v="Mathisodden" />
		<tag k="natural" v="cape" />
		<tag k="ssr:stedsnr" v="817017" />
	</node>
	<node lat="59.53965277433509" lon="10.281466669823896" id="-25052">
		<tag k="name" v="Kattholmgrunnen" />
=======
	<node id="-409022" lat="59.4962499982" lon="10.3485250086">
		<tag k="name" v="Langøygrunnen" />
>>>>>>> e1d4bc35ff8a6074a6f2e91616a996b547c36f15
		<tag k="natural" v="shoal" />
		<tag k="place" v="locality" />
		<tag k="ssr:stedsnr" v="817074" />
	</node>
<<<<<<< HEAD
	<node lat="59.52869722615429" lon="10.331608339066335" id="-25102">
=======
	<node id="-409522" lat="59.5564722222" lon="10.264322214">
>>>>>>> e1d4bc35ff8a6074a6f2e91616a996b547c36f15
		<tag k="fixme" v="consider seamark:type=rock or natural=shoal" />
		<tag k="name" v="Bjørneskjær" />
		<tag k="place" v="islet" />
<<<<<<< HEAD
		<tag k="ssr:stedsnr" v="853904" />
	</node>
	<node lat="59.52098055112335" lon="10.340863886794716" id="-25170">
=======
		<tag k="ssr:stedsnr" v="752987" />
	</node>
	<node id="-409521" lat="59.501811113" lon="10.3430111127">
		<tag k="name" v="Sørvestnebbet" />
		<tag k="place" v="locality" />
		<tag k="seamark:type" v="rock" />
		<tag k="ssr:stedsnr" v="752914" />
	</node>
	<node id="-409520" lat="59.5527527775" lon="10.2428305485">
		<tag k="name" v="Holmsbukta" />
		<tag k="natural" v="bay" />
		<tag k="ssr:stedsnr" v="752891" />
	</node>
	<node id="-408469" lat="59.5209805511" lon="10.3408638868">
>>>>>>> e1d4bc35ff8a6074a6f2e91616a996b547c36f15
		<tag k="name" v="Labukta" />
		<tag k="natural" v="bay" />
		<tag k="ssr:stedsnr" v="938007" />
	</node>
<<<<<<< HEAD
	<node lat="59.467211112570766" lon="10.35763055131722" id="-25203">
		<tag k="name" v="Ruseberget" />
=======
	<node id="-407442" lat="59.5304222208" lon="10.378233336">
		<tag k="name" v="Leina" />
>>>>>>> e1d4bc35ff8a6074a6f2e91616a996b547c36f15
		<tag k="natural" v="cape" />
		<tag k="ssr:stedsnr" v="938940" />
	</node>
<<<<<<< HEAD
	<node lat="59.473147220779836" lon="10.343416657956498" id="-25206">
		<tag k="name" v="Vervegarnet" />
=======
	<node id="-407441" lat="59.4924666664" lon="10.3220083256">
		<tag k="name" v="Hella" />
>>>>>>> e1d4bc35ff8a6074a6f2e91616a996b547c36f15
		<tag k="natural" v="shoal" />
		<tag k="place" v="locality" />
		<tag k="ssr:stedsnr" v="938945" />
	</node>
<<<<<<< HEAD
	<node lat="59.47046388834453" lon="10.3390388926541" id="-25208">
		<tag k="name" v="Mulvikgarnet" />
		<tag k="natural" v="shoal" />
		<tag k="place" v="locality" />
		<tag k="ssr:stedsnr" v="938947" />
	</node>
	<node lat="59.535344431933765" lon="10.308585822395246" id="-25235">
		<tag k="name" v="Fantebukta" />
		<tag k="natural" v="bay" />
		<tag k="ssr:stedsnr" v="985974" />
	</node>
	<node lat="59.52480164424265" lon="10.318229063009651" id="-25248">
		<tag k="name" v="Kommersøya" />
		<tag k="place" v="island" />
		<tag k="ssr:stedsnr" v="3893" />
	</node>
	<node lat="59.55033888831924" lon="10.287580556643373" id="-25250">
		<tag k="name" v="Bekkestranda" />
		<tag k="natural" v="beach" />
		<tag k="ssr:stedsnr" v="3913" />
	</node>
	<node lat="59.453730559876355" lon="10.368013890374712" id="-25257">
		<tag k="alt_name" v="Hellanskjær" />
=======
	<node id="-409488" lat="59.5610527779" lon="10.258947224">
		<tag k="name" v="Kverntangodden" />
		<tag k="natural" v="cape" />
		<tag k="ssr:stedsnr" v="634627" />
	</node>
	<node id="-407436" lat="59.5224194453" lon="10.324400005">
		<tag k="name" v="Flyndra" />
		<tag k="natural" v="cape" />
		<tag k="ssr:stedsnr" v="453005" />
	</node>
	<node id="-407435" lat="59.4556916655" lon="10.3616416742">
		<tag k="name" v="Sandsletta" />
		<tag k="natural" v="beach" />
		<tag k="place" v="locality" />
		<tag k="ssr:stedsnr" v="452880" />
	</node>
	<node id="-407944" lat="59.4774944432" lon="10.3540416738">
		<tag k="name" v="Munken" />
		<tag k="natural" v="bay" />
		<tag k="ssr:stedsnr" v="573926" />
	</node>
	<node id="-409476" lat="59.4856249965" lon="10.3915666592">
		<tag k="name" v="Rødstenflaket" />
		<tag k="place" v="sea" />
		<tag k="ssr:stedsnr" v="634356" />
	</node>
	<node id="-408450" lat="59.5286972262" lon="10.3316083391">
>>>>>>> e1d4bc35ff8a6074a6f2e91616a996b547c36f15
		<tag k="fixme" v="consider seamark:type=rock or natural=shoal" />
		<tag k="name" v="Hellandskjær" />
		<tag k="place" v="islet" />
		<tag k="ssr:stedsnr" v="27875" />
	</node>
<<<<<<< HEAD
	<node lat="59.48782499649393" lon="10.357280563103279" id="-25335">
		<tag k="alt_name" v="Holmestrandsfjorden" />
		<tag k="bay" v="fjord" />
		<tag k="name" v="Holmestrandfjorden" />
=======
	<node id="-408957" lat="59.5518527777" lon="10.2392750018">
		<tag k="name" v="Skjervikbukta" />
>>>>>>> e1d4bc35ff8a6074a6f2e91616a996b547c36f15
		<tag k="natural" v="bay" />
		<tag k="ssr:stedsnr" v="63914" />
	</node>
<<<<<<< HEAD
	<node lat="59.530372225807625" lon="10.36415833047813" id="-25377">
		<tag k="name" v="Hagasand" />
		<tag k="natural" v="beach" />
		<tag k="ssr:stedsnr" v="89026" />
	</node>
	<node lat="59.52880833637251" lon="10.281324991684167" id="-25378">
		<tag k="name" v="Smørstein" />
		<tag k="natural" v="cape" />
		<tag k="ssr:stedsnr" v="89035" />
	</node>
	<node lat="59.5524916640024" lon="10.27977777859672" id="-25388">
		<tag k="name" v="Ødegårdsodden" />
		<tag k="natural" v="cape" />
		<tag k="ssr:stedsnr" v="89246" />
	</node>
	<node lat="59.555225003707775" lon="10.277047217125583" id="-25389">
		<tag k="name" v="Orevikbukta" />
		<tag k="natural" v="bay" />
		<tag k="ssr:stedsnr" v="89248" />
	</node>
	<node lat="59.52401666777214" lon="10.332149992427219" id="-25451">
		<tag k="name" v="Killingholmen" />
		<tag k="place" v="island" />
		<tag k="ssr:stedsnr" v="124884" />
	</node>
	<node lat="59.50495000218865" lon="10.340708327152223" id="-25455">
		<tag k="fixme" v="consider seamark:type=rock or natural=shoal" />
		<tag k="name" v="Bjerkøyskjæret" />
		<tag k="place" v="islet" />
		<tag k="ssr:stedsnr" v="124988" />
	</node>
	<node lat="59.52902499612566" lon="10.361658333203241" id="-25474">
		<tag k="name" v="Mørkasselodden" />
=======
	<node id="-409467" lat="59.5325611086" lon="10.3110083312">
		<tag k="name" v="Kalkovnbukta" />
		<tag k="natural" v="bay" />
		<tag k="ssr:stedsnr" v="634036" />
	</node>
	<node id="-407927" lat="59.5307222265" lon="10.3851777736">
		<tag k="name" v="Hansken" />
		<tag k="natural" v="shoal" />
		<tag k="place" v="locality" />
		<tag k="ssr:stedsnr" v="695823" />
	</node>
	<node id="-407408" lat="59.5025361129" lon="10.3463749927">
		<tag k="name" v="Lillehalsen" />
		<tag k="natural" v="shoal" />
		<tag k="place" v="locality" />
		<tag k="ssr:stedsnr" v="245507" />
	</node>
	<node id="-408425" lat="59.4704638883" lon="10.3390388927">
		<tag k="name" v="Mulvikgarnet" />
		<tag k="natural" v="shoal" />
		<tag k="place" v="locality" />
		<tag k="ssr:stedsnr" v="938947" />
	</node>
	<node id="-408423" lat="59.4731472208" lon="10.343416658">
		<tag k="name" v="Vervegarnet" />
		<tag k="natural" v="shoal" />
		<tag k="place" v="locality" />
		<tag k="ssr:stedsnr" v="938945" />
	</node>
	<node id="-408420" lat="59.4672111126" lon="10.3576305513">
		<tag k="name" v="Ruseberget" />
>>>>>>> e1d4bc35ff8a6074a6f2e91616a996b547c36f15
		<tag k="natural" v="cape" />
		<tag k="ssr:stedsnr" v="149080" />
	</node>
<<<<<<< HEAD
	<node lat="59.49834444216264" lon="10.375944451973577" id="-25476">
		<tag k="name" v="Rusebukt" />
=======
	<node id="-407390" lat="59.5172888916" lon="10.3557861044">
		<tag k="name" v="Glufsebukta" />
>>>>>>> e1d4bc35ff8a6074a6f2e91616a996b547c36f15
		<tag k="natural" v="bay" />
		<tag k="ssr:stedsnr" v="148852" />
	</node>
<<<<<<< HEAD
	<node lat="59.46659166304624" lon="10.357116658819983" id="-25477">
		<tag k="alt_name" v="Ruseberggrunnen" />
		<tag k="name" v="Ruseberggrunna" />
=======
	<node id="-407389" lat="59.5278833327" lon="10.331175007">
		<tag k="name" v="Bjørneskjærgrund" />
>>>>>>> e1d4bc35ff8a6074a6f2e91616a996b547c36f15
		<tag k="natural" v="shoal" />
		<tag k="place" v="locality" />
		<tag k="ssr:stedsnr" v="148927" />
	</node>
<<<<<<< HEAD
	<node lat="59.533744444905764" lon="10.311280551624211" id="-25482">
		<tag k="name" v="Kalkovnen" />
		<tag k="natural" v="cape" />
		<tag k="ssr:stedsnr" v="149043" />
	</node>
	<node lat="59.47250278214632" lon="10.33388889478761" id="-25596">
=======
	<node id="-407388" lat="59.5266250006" lon="10.3116249936">
		<tag k="fixme" v="consider seamark:type=rock or natural=shoal" />
		<tag k="name" v="Småskjærene" />
		<tag k="place" v="islet" />
		<tag k="ssr:stedsnr" v="210004" />
	</node>
	<node id="-407385" lat="59.4725027821" lon="10.3338888948">
>>>>>>> e1d4bc35ff8a6074a6f2e91616a996b547c36f15
		<tag k="name" v="Tolfsrudgarnet" />
		<tag k="natural" v="shoal" />
		<tag k="place" v="locality" />
		<tag k="ssr:stedsnr" v="209920" />
	</node>
<<<<<<< HEAD
	<node lat="59.55185277767441" lon="10.239275001845877" id="-25610">
		<tag k="name" v="Skjervikbukta" />
		<tag k="natural" v="bay" />
		<tag k="ssr:stedsnr" v="210612" />
	</node>
	<node lat="59.50002222574867" lon="10.349244447601075" id="-25663">
		<tag k="name" v="Solfjellhausen" />
=======
	<node id="-408920" lat="59.5575388848" lon="10.2691750029">
		<tag k="name" v="Selvikgrunnen" />
		<tag k="natural" v="shoal" />
		<tag k="place" v="locality" />
		<tag k="ssr:stedsnr" v="207189" />
	</node>
	<node id="-409419" lat="59.4772416641" lon="10.4019749923">
		<tag k="alt_name" v="Skatengrunnen" />
		<tag k="name" v="Skaten" />
>>>>>>> e1d4bc35ff8a6074a6f2e91616a996b547c36f15
		<tag k="natural" v="shoal" />
		<tag k="place" v="locality" />
		<tag k="ssr:stedsnr" v="327891" />
	</node>
<<<<<<< HEAD
	<node lat="59.456588885941365" lon="10.36427499308907" id="-25677">
		<tag k="name" v="Hellandkrakken" />
=======
	<node id="-409418" lat="59.5485055561" lon="10.2468305558">
		<tag k="name" v="Bikkjebukta" />
>>>>>>> e1d4bc35ff8a6074a6f2e91616a996b547c36f15
		<tag k="natural" v="bay" />
		<tag k="ssr:stedsnr" v="330893" />
	</node>
<<<<<<< HEAD
	<node lat="59.53305833771451" lon="10.263505551369061" id="-25684">
		<tag k="name" v="Bogebukta" />
=======
	<node id="-407870" lat="59.5011166627" lon="10.3706694401">
		<tag k="name" v="Engelskmannsbukt" />
>>>>>>> e1d4bc35ff8a6074a6f2e91616a996b547c36f15
		<tag k="natural" v="bay" />
		<tag k="ssr:stedsnr" v="331059" />
	</node>
<<<<<<< HEAD
	<node lat="59.55491944295951" lon="10.277074997856833" id="-25685">
		<tag k="name" v="Orevika" />
=======
	<node id="-407869" lat="59.5022499962" lon="10.3662222224">
		<tag k="name" v="Tømmermannsbukt" />
>>>>>>> e1d4bc35ff8a6074a6f2e91616a996b547c36f15
		<tag k="natural" v="bay" />
		<tag k="ssr:stedsnr" v="331061" />
	</node>
<<<<<<< HEAD
	<node lat="59.560994442768006" lon="10.254530551240308" id="-25721">
		<tag k="name" v="Skomakern" />
		<tag k="place" v="islet" />
		<tag k="ssr:stedsnr" v="331592" />
	</node>
	<node lat="59.512038886464246" lon="10.324016660350214" id="-25740">
		<tag k="name" v="Kommersøygrunnen" />
		<tag k="natural" v="shoal" />
		<tag k="place" v="locality" />
		<tag k="ssr:stedsnr" v="331992" />
	</node>
	<node lat="59.53271389241271" lon="10.348358324962632" id="-25825">
		<tag k="name" v="Vammen" />
=======
	<node id="-407850" lat="59.558575" lon="10.2724888943">
		<tag k="name" v="Engebukta" />
		<tag k="natural" v="bay" />
		<tag k="ssr:stedsnr" v="513258" />
	</node>
	<node id="-407845" lat="59.5087111138" lon="10.3383361167">
		<tag k="name" v="Nordostbåen" />
		<tag k="place" v="locality" />
		<tag k="seamark:type" v="rock" />
		<tag k="ssr:stedsnr" v="513074" />
	</node>
	<node id="-409712" lat="59.4920083332" lon="10.3884972201">
		<tag k="name" v="Kalkovnsbukt" />
		<tag k="natural" v="bay" />
		<tag k="ssr:stedsnr" v="817337" />
	</node>
	<node id="-409370" lat="59.4993499975" lon="10.3736694469">
		<tag k="name" v="Dambukt" />
		<tag k="natural" v="bay" />
		<tag k="ssr:stedsnr" v="573834" />
	</node>
	<node id="-407313" lat="59.5417749993" lon="10.2573972256">
		<tag k="fixme" v="consider seamark:type=rock or natural=shoal" />
		<tag k="name" v="Saltskjæret" />
		<tag k="place" v="islet" />
		<tag k="ssr:stedsnr" v="149064" />
	</node>
	<node id="-407312" lat="59.4983444422" lon="10.375944452">
		<tag k="name" v="Rusebukt" />
>>>>>>> e1d4bc35ff8a6074a6f2e91616a996b547c36f15
		<tag k="natural" v="bay" />
		<tag k="ssr:stedsnr" v="392851" />
	</node>
<<<<<<< HEAD
	<node lat="59.49727777804936" lon="10.379816671554611" id="-25835">
		<tag k="name" v="Rusebergodden" />
=======
	<node id="-408834" lat="59.5290249961" lon="10.3616583332">
		<tag k="name" v="Mørkasselodden" />
>>>>>>> e1d4bc35ff8a6074a6f2e91616a996b547c36f15
		<tag k="natural" v="cape" />
		<tag k="ssr:stedsnr" v="403938" />
	</node>
<<<<<<< HEAD
	<node lat="59.53243333302771" lon="10.335191664884771" id="-25883">
		<tag k="name" v="Gyltesøgrunden" />
=======
	<node id="-408833" lat="59.5337444449" lon="10.3112805516">
		<tag k="name" v="Kalkovnen" />
>>>>>>> e1d4bc35ff8a6074a6f2e91616a996b547c36f15
		<tag k="natural" v="cape" />
		<tag k="ssr:stedsnr" v="513051" />
	</node>
<<<<<<< HEAD
	<node lat="59.522963885286444" lon="10.330205555805161" id="-25885">
		<tag k="fixme" v="consider seamark:type=rock or natural=shoal" />
		<tag k="name" v="Kulpa" />
		<tag k="place" v="islet" />
		<tag k="ssr:stedsnr" v="513007" />
	</node>
	<node lat="59.5180055582827" lon="10.324541661446236" id="-25887">
		<tag k="name" v="Kommersøysundet" />
=======
	<node id="-409856" lat="58.8808669241" lon="9.40503401313">
		<tag k="name" v="Kalstadkilen" />
		<tag k="natural" v="bay" />
		<tag k="ssr:stedsnr" v="1074475" />
	</node>
	<node id="-407294" lat="59.5293444456" lon="10.3385611111">
		<tag k="name" v="Bjerkøysundet" />
>>>>>>> e1d4bc35ff8a6074a6f2e91616a996b547c36f15
		<tag k="natural" v="strait" />
		<tag k="ssr:stedsnr" v="513010" />
	</node>
<<<<<<< HEAD
	<node lat="59.50871111377885" lon="10.338336116743887" id="-25889">
		<tag k="name" v="Nordostbåen" />
=======
	<node id="-407293" lat="59.5456666707" lon="10.2523833273">
		<tag k="name" v="Halseskjæret" />
		<tag k="natural" v="shoal" />
>>>>>>> e1d4bc35ff8a6074a6f2e91616a996b547c36f15
		<tag k="place" v="locality" />
		<tag k="seamark:type" v="rock" />
		<tag k="ssr:stedsnr" v="513074" />
	</node>
<<<<<<< HEAD
	<node lat="59.55857500002396" lon="10.272488894251529" id="-25897">
		<tag k="name" v="Engebukta" />
		<tag k="natural" v="bay" />
		<tag k="ssr:stedsnr" v="513258" />
	</node>
	<node lat="59.55250277849912" lon="10.23896388443579" id="-25915">
		<tag k="name" v="Fagernes" />
		<tag k="natural" v="cape" />
		<tag k="ssr:stedsnr" v="513635" />
	</node>
	<node lat="59.480544440172395" lon="10.348925002779067" id="-25967">
=======
	<node id="-408828" lat="59.466591663" lon="10.3571166588">
		<tag k="alt_name" v="Ruseberggrunnen" />
		<tag k="name" v="Ruseberggrunna" />
		<tag k="natural" v="shoal" />
		<tag k="place" v="locality" />
		<tag k="ssr:stedsnr" v="148927" />
	</node>
	<node id="-407801" lat="59.4805444402" lon="10.3489250028">
>>>>>>> e1d4bc35ff8a6074a6f2e91616a996b547c36f15
		<tag k="name" v="Mulodden" />
		<tag k="natural" v="cape" />
		<tag k="ssr:stedsnr" v="670913" />
	</node>
<<<<<<< HEAD
	<node lat="59.499349997546865" lon="10.373669446949027" id="-26013">
		<tag k="name" v="Dambukt" />
		<tag k="natural" v="bay" />
		<tag k="ssr:stedsnr" v="573834" />
	</node>
	<node lat="59.47749444323543" lon="10.354041673817282" id="-26018">
		<tag k="name" v="Munken" />
		<tag k="natural" v="bay" />
		<tag k="ssr:stedsnr" v="573926" />
	</node>
	<node lat="59.47724166407221" lon="10.401974992298781" id="-26041">
		<tag k="alt_name" v="Skatengrunnen" />
		<tag k="name" v="Skaten" />
		<tag k="natural" v="shoal" />
		<tag k="place" v="locality" />
		<tag k="ssr:stedsnr" v="574829" />
	</node>
	<node lat="59.53256110860538" lon="10.311008331154907" id="-26079">
		<tag k="name" v="Kalkovnbukta" />
=======
	<node id="-407794" lat="59.5303833353" lon="10.3690888978">
		<tag k="alt_name" v="Sandvikbukta" />
		<tag k="name" v="Sandvika" />
		<tag k="natural" v="bay" />
		<tag k="ssr:stedsnr" v="670500" />
	</node>
	<node id="-407793" lat="59.5269083289" lon="10.3500138889">
		<tag k="fixme" v="consider seamark:type=rock or natural=shoal" />
		<tag k="name" v="Kjanken" />
		<tag k="place" v="islet" />
		<tag k="ssr:stedsnr" v="670496" />
	</node>
	<node id="-409324" lat="59.5377055525" lon="10.2712972267">
		<tag k="name" v="Kattholmen" />
		<tag k="place" v="islet" />
		<tag k="ssr:stedsnr" v="570324" />
	</node>
	<node id="-408529" lat="59.5252000038" lon="10.3173111132">
		<tag k="name" v="Kommersøya" />
		<tag k="place" v="island" />
		<tag k="ssr:stedsnr" v="3893" />
	</node>
	<node id="-408291" lat="59.4763166672" lon="10.3310416741">
		<tag k="name" v="Blekvollen" />
		<tag k="natural" v="beach" />
		<tag k="place" v="locality" />
		<tag k="ssr:stedsnr" v="816927" />
	</node>
	<node id="-408802" lat="59.5049500022" lon="10.3407083272">
		<tag k="fixme" v="consider seamark:type=rock or natural=shoal" />
		<tag k="name" v="Bjerkøyskjæret" />
		<tag k="place" v="islet" />
		<tag k="ssr:stedsnr" v="124988" />
	</node>
	<node id="-408289" lat="59.5271666624" lon="10.3382916748">
		<tag k="name" v="Mathisodden" />
		<tag k="natural" v="cape" />
		<tag k="ssr:stedsnr" v="817017" />
	</node>
	<node id="-408288" lat="59.5256611132" lon="10.3383972265">
		<tag k="name" v="Møkkabukta" />
>>>>>>> e1d4bc35ff8a6074a6f2e91616a996b547c36f15
		<tag k="natural" v="bay" />
		<tag k="ssr:stedsnr" v="634036" />
	</node>
<<<<<<< HEAD
	<node lat="59.53081388516489" lon="10.366149998978017" id="-26088">
		<tag k="name" v="Hagasandbukta" />
		<tag k="natural" v="bay" />
		<tag k="ssr:stedsnr" v="634020" />
	</node>
	<node lat="59.55341388908201" lon="10.249466673576975" id="-26098">
		<tag k="name" v="Hauken" />
		<tag k="natural" v="shoal" />
		<tag k="place" v="locality" />
		<tag k="ssr:stedsnr" v="634060" />
	</node>
	<node lat="59.485624996476396" lon="10.391566659227767" id="-26113">
		<tag k="name" v="Rødstenflaket" />
		<tag k="place" v="sea" />
		<tag k="ssr:stedsnr" v="634356" />
	</node>
	<node lat="59.530383335286224" lon="10.369088897759509" id="-26149">
		<tag k="alt_name" v="Sandvikbukta" />
		<tag k="name" v="Sandvika" />
=======
	<node id="-407504" lat="59.5181027777" lon="10.356758341">
		<tag k="name" v="Glufseodden" />
		<tag k="natural" v="cape" />
		<tag k="ssr:stedsnr" v="271015" />
	</node>
	<node id="-407260" lat="59.4957861112" lon="10.3831305627">
		<tag k="name" v="Hortensbukt" />
		<tag k="natural" v="bay" />
		<tag k="ssr:stedsnr" v="271394" />
	</node>
	<node id="-408795" lat="59.5240166678" lon="10.3321499924">
		<tag k="name" v="Killingholmen" />
		<tag k="place" v="island" />
		<tag k="ssr:stedsnr" v="124884" />
	</node>
	<node id="-407760" lat="59.5698249982" lon="10.241774993">
		<tag k="fixme" v="consider seamark:type=rock or natural=shoal" />
		<tag k="name" v="Hakan" />
		<tag k="place" v="islet" />
		<tag k="ssr:stedsnr" v="453613" />
	</node>
	<node id="-407244" lat="59.5001138898" lon="10.37401945">
		<tag k="name" v="Fiskeplass" />
		<tag k="place" v="locality" />
		<tag k="ssr:stedsnr" v="270834" />
	</node>
	<node id="-407241" lat="59.4732305526" lon="10.3388500024">
		<tag k="name" v="Mulvika" />
		<tag k="natural" v="bay" />
		<tag k="ssr:stedsnr" v="270914" />
	</node>
	<node id="-409797" lat="59.4898990602" lon="10.3229249027">
		<tag k="name" v="Hakan" />
		<tag k="natural" v="cape" />
		<tag k="ssr:stedsnr" v="986976" />
	</node>
	<node id="-407747" lat="59.5169222183" lon="10.3226444419">
		<tag k="name" v="Skarpsno" />
		<tag k="natural" v="cape" />
		<tag k="ssr:stedsnr" v="453002" />
	</node>
	<node id="-409794" lat="59.5353444319" lon="10.3085858224">
		<tag k="name" v="Fantebukta" />
>>>>>>> e1d4bc35ff8a6074a6f2e91616a996b547c36f15
		<tag k="natural" v="bay" />
		<tag k="ssr:stedsnr" v="670500" />
	</node>
<<<<<<< HEAD
	<node lat="59.552752777487484" lon="10.242830548489316" id="-26177">
		<tag k="name" v="Holmsbukta" />
		<tag k="natural" v="bay" />
		<tag k="ssr:stedsnr" v="752891" />
	</node>
	<node lat="59.55647222220774" lon="10.264322214009104" id="-26178">
		<tag k="fixme" v="consider seamark:type=rock or natural=shoal" />
		<tag k="name" v="Selvikblinda" />
		<tag k="place" v="islet" />
		<tag k="ssr:stedsnr" v="752987" />
	</node>
	<node lat="59.54924166832822" lon="10.284619442148301" id="-26198">
		<tag k="fixme" v="consider seamark:type=rock or natural=shoal" />
		<tag k="name" v="Bekkeskjæret" />
		<tag k="place" v="islet" />
		<tag k="ssr:stedsnr" v="756033" />
	</node>
	<node lat="59.524813890886875" lon="10.322105561283301" id="-26297">
		<tag k="name" v="Linaodden" />
=======
	<node id="-408255" lat="59.5289388877" lon="10.2974250081">
		<tag k="bay" v="fjord" />
		<tag k="name" v="Sandebukta" />
		<tag k="natural" v="bay" />
		<tag k="ssr:stedsnr" v="913922" />
	</node>
	<node id="-408157" lat="59.5137972222" lon="10.3553749913">
		<tag k="name" v="Søndre odden" />
		<tag k="natural" v="cape" />
		<tag k="ssr:stedsnr" v="695010" />
	</node>
	<node id="-409258" lat="59.497277778" lon="10.3798166716">
		<tag k="name" v="Rusebergodden" />
		<tag k="natural" v="cape" />
		<tag k="ssr:stedsnr" v="403938" />
	</node>
	<node id="-409769" lat="59.5366861073" lon="10.2721166702">
		<tag k="name" v="Kattholmane" />
		<tag k="place" v="islet" />
		<tag k="ssr:stedsnr" v="853891" />
	</node>
	<node id="-409768" lat="59.5320666652" lon="10.2774638907">
		<tag k="name" v="Framnes" />
		<tag k="natural" v="cape" />
		<tag k="ssr:stedsnr" v="853890" />
	</node>
	<node id="-409248" lat="59.5327138924" lon="10.348358325">
		<tag k="name" v="Vammen" />
		<tag k="natural" v="bay" />
		<tag k="ssr:stedsnr" v="392851" />
	</node>
	<node id="-409247" lat="59.5615194471" lon="10.2569166713">
		<tag k="name" v="Kverntangen" />
>>>>>>> e1d4bc35ff8a6074a6f2e91616a996b547c36f15
		<tag k="natural" v="cape" />
		<tag k="ssr:stedsnr" v="817001" />
	</node>
<<<<<<< HEAD
	<node lat="59.54019166757375" lon="10.31007777531925" id="-26311">
		<tag k="name" v="Rauberget" />
=======
	<node id="-407702" lat="59.5525027785" lon="10.2389638844">
		<tag k="name" v="Fagernes" />
>>>>>>> e1d4bc35ff8a6074a6f2e91616a996b547c36f15
		<tag k="natural" v="cape" />
		<tag k="ssr:stedsnr" v="817051" />
	</node>
<<<<<<< HEAD
	<node lat="59.50705277611245" lon="10.338972214256158" id="-26312">
		<tag k="name" v="Rødtangebåen" />
		<tag k="place" v="locality" />
		<tag k="seamark:type" v="rock" />
		<tag k="ssr:stedsnr" v="817068" />
	</node>
	<node lat="59.49200833322332" lon="10.388497220078744" id="-26318">
		<tag k="name" v="Kalkovnsbukt" />
		<tag k="natural" v="bay" />
		<tag k="ssr:stedsnr" v="817337" />
=======
	<node id="-409734" lat="59.4581555571" lon="10.3792888802">
		<tag k="name" v="Hellandskrakken" />
		<tag k="natural" v="shoal" />
		<tag k="place" v="locality" />
		<tag k="ssr:stedsnr" v="817814" />
	</node>
	<node id="-408699" lat="59.5552250037" lon="10.2770472171">
		<tag k="name" v="Orevikbukta" />
		<tag k="natural" v="bay" />
		<tag k="ssr:stedsnr" v="89248" />
	</node>
	<node id="-408698" lat="59.552491664" lon="10.2797777786">
		<tag k="name" v="Ødegårdsodden" />
		<tag k="natural" v="cape" />
		<tag k="ssr:stedsnr" v="89246" />
	</node>
	<node id="-407156" lat="59.4878249965" lon="10.3572805631">
		<tag k="alt_name" v="Holmestrandsfjorden" />
		<tag k="bay" v="fjord" />
		<tag k="name" v="Holmestrandfjorden" />
		<tag k="natural" v="bay" />
		<tag k="ssr:stedsnr" v="63914" />
	</node>
	<node id="-409201" lat="59.4547333293" lon="10.366222228">
		<tag k="name" v="Sandsfloa" />
		<tag k="place" v="sea" />
		<tag k="ssr:stedsnr" v="391892" />
	</node>
	<node id="-408688" lat="59.5288083364" lon="10.2813249917">
		<tag k="name" v="Smørstein" />
		<tag k="natural" v="cape" />
		<tag k="ssr:stedsnr" v="89035" />
	</node>
	<node id="-408687" lat="59.5303722258" lon="10.3641583305">
		<tag k="name" v="Hagasand" />
		<tag k="natural" v="beach" />
		<tag k="place" v="locality" />
		<tag k="ssr:stedsnr" v="89026" />
	</node>
	<node id="-408685" lat="59.528947226" lon="10.3599055621">
		<tag k="name" v="Bergbryggodden" />
		<tag k="natural" v="cape" />
		<tag k="ssr:stedsnr" v="89016" />
	</node>
	<node id="-408171" lat="59.5658250004" lon="10.2325361122">
		<tag k="name" v="Sjødalen" />
		<tag k="natural" v="beach" />
		<tag k="place" v="locality" />
		<tag k="ssr:stedsnr" v="695603" />
>>>>>>> e1d4bc35ff8a6074a6f2e91616a996b547c36f15
	</node>
	<node id="-407649" lat="59.532433333" lon="10.3351916649">
		<tag k="name" v="Gyltesøgrunden" />
		<tag k="natural" v="cape" />
		<tag k="ssr:stedsnr" v="513051" />
	</node>
	<node id="-409694" lat="59.5396527743" lon="10.2814666698">
		<tag k="name" v="Kattholmgrunnen" />
		<tag k="natural" v="shoal" />
		<tag k="place" v="locality" />
		<tag k="ssr:stedsnr" v="817074" />
	</node>
	<node id="-407645" lat="59.5180055583" lon="10.3245416614">
		<tag k="name" v="Kommersøysundet" />
		<tag k="natural" v="strait" />
		<tag k="ssr:stedsnr" v="513010" />
	</node>
	<node id="-407644" lat="59.5271861134" lon="10.3343111098">
		<tag k="name" v="Skjellhølet" />
		<tag k="place" v="locality" />
		<tag k="ssr:stedsnr" v="513009" />
	</node>
	<node id="-407643" lat="59.5229638853" lon="10.3302055558">
		<tag k="fixme" v="consider seamark:type=rock or natural=shoal" />
		<tag k="name" v="Kulpa" />
		<tag k="place" v="islet" />
		<tag k="ssr:stedsnr" v="513007" />
	</node>
	<node id="-409689" lat="59.5248138909" lon="10.3221055613">
		<tag k="name" v="Linaodden" />
		<tag k="natural" v="cape" />
		<tag k="ssr:stedsnr" v="817001" />
	</node>
	<node id="-408148" lat="59.5320055513" lon="10.2747055505">
		<tag k="name" v="Engenestangen" />
		<tag k="natural" v="cape" />
		<tag k="ssr:stedsnr" v="881679" />
	</node>
	<node id="-408143" lat="59.5005250029" lon="10.4071722145">
		<tag k="name" v="Ellefsgrunnen" />
		<tag k="natural" v="shoal" />
		<tag k="place" v="locality" />
		<tag k="ssr:stedsnr" v="878375" />
	</node>
	<node id="-408142" lat="59.483725001" lon="10.399361108">
		<tag k="name" v="Kaffebukt" />
		<tag k="natural" v="bay" />
		<tag k="ssr:stedsnr" v="878374" />
	</node>
	<node id="-407117" lat="59.4935861138" lon="10.3824555574">
		<tag k="name" v="Langøya" />
		<tag k="place" v="island" />
		<tag k="ssr:stedsnr" v="2914" />
	</node>
	<node id="-407605" lat="59.5235805559" lon="10.3341972308">
		<tag k="name" v="Helenehølet" />
		<tag k="natural" v="bay" />
		<tag k="ssr:stedsnr" v="392013" />
	</node>
	<node id="-409693" lat="59.5070527761" lon="10.3389722143">
		<tag k="name" v="Rødtangebåen" />
		<tag k="place" v="locality" />
		<tag k="seamark:type" v="rock" />
		<tag k="ssr:stedsnr" v="817068" />
	</node>
	<node id="-409132" lat="59.5120388865" lon="10.3240166604">
		<tag k="name" v="Kommersøygrunnen" />
		<tag k="natural" v="shoal" />
		<tag k="place" v="locality" />
		<tag k="ssr:stedsnr" v="331992" />
	</node>
	<node id="-409692" lat="59.5401916676" lon="10.3100777753">
		<tag k="name" v="Rauberget" />
		<tag k="natural" v="cape" />
		<tag k="ssr:stedsnr" v="817051" />
	</node>
	<node id="-407985" lat="59.5202194419" lon="10.3485138861">
		<tag k="name" v="Bjerkøya" />
		<tag k="place" v="island" />
		<tag k="ssr:stedsnr" v="610919" />
	</node>
	<node id="-407131" lat="59.5214055558" lon="10.3244138924">
		<tag k="name" v="Limovnen" />
		<tag k="natural" v="cape" />
		<tag k="ssr:stedsnr" v="28017" />
	</node>
	<node id="-409119" lat="59.5609944428" lon="10.2545305512">
		<tag k="name" v="Skomakern" />
		<tag k="place" v="islet" />
		<tag k="ssr:stedsnr" v="331592" />
	</node>
</osm>
