<?xml version="1.0" encoding="UTF-8"?>
<osm generator="osmapis" version="0.6">
	<node id="-392190" lat="59.5455750014" lon="10.1547055476">
		<tag k="name" v="Løkebergtjern" />
		<tag k="natural" v="water" />
		<tag k="ssr:stedsnr" v="453762" />
	</node>
	<node id="-393217" lat="59.5865888857" lon="10.0189305642">
		<tag k="name" v="Surka" />
		<tag k="ssr:stedsnr" v="3020" />
		<tag k="waterway" v="stream" />
	</node>
	<node id="-393209" lat="59.4660443159" lon="10.1493463507">
		<tag k="name" v="Korssjøen" />
		<tag k="natural" v="water" />
		<tag k="ssr:stedsnr" v="2098" />
		<tag k="water" v="lake" />
	</node>
	<node id="-393718" lat="59.654052778" lon="10.2991138881">
		<tag k="name" v="Langevann" />
		<tag k="natural" v="water" />
		<tag k="ssr:stedsnr" v="306169" />
		<tag k="water" v="lake" />
	</node>
	<node id="-393716" lat="59.6625666678" lon="10.1356277725">
		<tag k="name" v="Ulkebekken" />
		<tag k="ssr:stedsnr" v="306146" />
		<tag k="waterway" v="stream" />
	</node>
	<node id="-392178" lat="59.6209972233" lon="10.0834694501">
		<tag k="name" v="Svartbekk" />
		<tag k="ssr:stedsnr" v="453726" />
		<tag k="waterway" v="stream" />
	</node>
	<node id="-394225" lat="59.5765472191" lon="10.2010555507">
		<tag k="name" v="Vesleelva" />
		<tag k="ssr:stedsnr" v="752531" />
		<tag k="waterway" v="stream" />
	</node>
	<node id="-392688" lat="59.6375222196" lon="10.1030722263">
		<tag k="fixme" v="multiple name tags, choose one and add the other to alt_name" />
		<tag k="name" v="Øyvannet;Store Øyvannet" />
		<tag k="natural" v="water" />
		<tag k="ssr:stedsnr" v="610202" />
	</node>
	<node id="-393352" lat="59.6748500007" lon="10.184677778">
		<tag k="name" v="Bremsa" />
		<tag k="ssr:stedsnr" v="64242" />
		<tag k="waterway" v="river" />
	</node>
	<node id="-393195" lat="59.5589583299" lon="9.95470278233">
		<tag k="name" v="Lammetjern" />
		<tag k="natural" v="bay" />
		<tag k="ssr:stedsnr" v="938466" />
	</node>
	<node id="-393700" lat="59.5890694423" lon="10.3350972183">
		<tag k="name" v="Blindevann" />
		<tag k="natural" v="water" />
		<tag k="ssr:stedsnr" v="306019" />
		<tag k="water" v="lake" />
	</node>
	<node id="-392163" lat="59.5083916629" lon="10.0859416587">
		<tag k="name" v="Bikjetj." />
		<tag k="natural" v="water" />
		<tag k="ssr:stedsnr" v="453374" />
	</node>
	<node id="-393184" lat="59.617305557" lon="10.2824444505">
		<tag k="name" v="Vinterhølet" />
		<tag k="natural" v="bay" />
		<tag k="ssr:stedsnr" v="938204" />
	</node>
	<node id="-393695" lat="59.5793666685" lon="10.3010666582">
		<tag k="name" v="Bruserudvannet" />
		<tag k="natural" v="water" />
		<tag k="ssr:stedsnr" v="306003" />
	</node>
	<node id="-393783" lat="59.5811638924" lon="10.2830499966">
		<tag k="name" v="Midtelva" />
		<tag k="ssr:stedsnr" v="331268" />
		<tag k="waterway" v="river" />
	</node>
	<node id="-392152" lat="59.5749722249" lon="10.2780444437">
		<tag k="name" v="Selvikelva" />
		<tag k="ssr:stedsnr" v="453280" />
		<tag k="waterway" v="river" />
	</node>
	<node id="-393793" lat="59.5184777778" lon="10.0868305477">
		<tag k="name" v="Rønnebergelva" />
		<tag k="ssr:stedsnr" v="331370" />
		<tag k="waterway" v="river" />
	</node>
	<node id="-393721" lat="59.5281" lon="10.1178805574">
		<tag k="name" v="Haugestadvannet" />
		<tag k="natural" v="water" />
		<tag k="ssr:stedsnr" v="306904" />
		<tag k="water" v="lake" />
	</node>
	<node id="-393170" lat="59.6783861089" lon="9.86506666162">
		<tag k="name" v="Eikeren" />
		<tag k="natural" v="water" />
		<tag k="ssr:stedsnr" v="913541" />
		<tag k="water" v="lake" />
	</node>
	<node id="-394403" lat="59.5420166696" lon="10.1141055529">
		<tag k="name" v="Støagrunn" />
		<tag k="natural" v="shoal" />
		<tag k="place" v="locality" />
		<tag k="ssr:stedsnr" v="817275" />
	</node>
	<node id="-393027" lat="59.5619222236" lon="10.0812166734">
		<tag k="name" v="Åsentjern" />
		<tag k="natural" v="water" />
		<tag k="ssr:stedsnr" v="817662" />
	</node>
	<node id="-393675" lat="59.5701613799" lon="10.0444536637">
		<tag k="name" v="Hemsdammen" />
		<tag k="natural" v="water" />
		<tag k="ssr:stedsnr" v="210664" />
	</node>
	<node id="-393162" lat="59.579791667" lon="9.96585278459">
		<tag k="name" v="Bingtjern" />
		<tag k="natural" v="water" />
		<tag k="ssr:stedsnr" v="874455" />
	</node>
	<node id="-393160" lat="59.5577749992" lon="10.0783166711">
		<tag k="name" v="Østbybekken" />
		<tag k="ssr:stedsnr" v="870769" />
		<tag k="waterway" v="stream" />
	</node>
	<node id="-393548" lat="59.5443722199" lon="10.1165361096">
		<tag k="name" v="Stigsodden" />
		<tag k="natural" v="cape" />
		<tag k="ssr:stedsnr" v="149248" />
	</node>
	<node id="-393154" lat="59.6279944435" lon="9.99088054737">
		<tag k="name" v="Torrudøya" />
		<tag k="place" v="islet" />
		<tag k="ssr:stedsnr" v="853071" />
	</node>
	<node id="-393291" lat="59.6226055577" lon="10.1727833264">
		<tag k="name" v="Nordre Renna" />
		<tag k="ssr:stedsnr" v="28642" />
		<tag k="waterway" v="stream" />
	</node>
	<node id="-393664" lat="59.6296888873" lon="10.1866666707">
		<tag k="name" v="Brattefoss" />
		<tag k="natural" v="waterfall" />
		<tag k="ssr:stedsnr" v="210636" />
	</node>
	<node id="-393150" lat="59.6566027805" lon="10.3207249941">
		<tag k="name" v="Nordbykupa" />
		<tag k="natural" v="water" />
		<tag k="ssr:stedsnr" v="853108" />
	</node>
	<node id="-393149" lat="59.6091749958" lon="10.0710055524">
		<tag k="alt_name" v="Maurtj." />
		<tag k="name" v="Mauretjern" />
		<tag k="natural" v="water" />
		<tag k="ssr:stedsnr" v="853103" />
	</node>
	<node id="-393658" lat="59.5708250021" lon="10.0032361071">
		<tag k="name" v="Svartbekk" />
		<tag k="ssr:stedsnr" v="210468" />
		<tag k="waterway" v="stream" />
	</node>
	<node id="-392121" lat="59.4953750044" lon="10.0975083252">
		<tag k="name" v="Midtvannsgrunn" />
		<tag k="place" v="islet" />
		<tag k="ssr:stedsnr" v="452047" />
	</node>
	<node id="-394167" lat="59.4894777739" lon="10.0574861067">
		<tag k="name" v="Nedrebekk" />
		<tag k="ssr:stedsnr" v="633038" />
		<tag k="waterway" v="stream" />
	</node>
	<node id="-394166" lat="59.5919562436" lon="9.95245814993">
		<tag k="name" v="Blåtjern" />
		<tag k="natural" v="water" />
		<tag k="ssr:stedsnr" v="631439" />
	</node>
	<node id="-394165" lat="59.5808750007" lon="9.93822499487">
		<tag k="name" v="Loppetjern" />
		<tag k="natural" v="water" />
		<tag k="ssr:stedsnr" v="631436" />
	</node>
	<node id="-394163" lat="59.5150999977" lon="10.1551083278">
		<tag k="name" v="Hillestadvannet" />
		<tag k="natural" v="water" />
		<tag k="ssr:stedsnr" v="610989" />
		<tag k="water" v="lake" />
	</node>
	<node id="-392626" lat="59.4690777769" lon="10.3408111127">
		<tag k="name" v="Mulvikbekken" />
		<tag k="ssr:stedsnr" v="695926" />
		<tag k="waterway" v="stream" />
	</node>
	<node id="-393649" lat="59.6244277765" lon="10.3090194445">
		<tag k="name" v="Kallebergbekken" />
		<tag k="ssr:stedsnr" v="210227" />
		<tag k="waterway" v="stream" />
	</node>
	<node id="-393135" lat="59.6098472203" lon="10.2296055475">
		<tag k="name" v="Fostvedtfossen" />
		<tag k="natural" v="waterfall" />
		<tag k="ssr:stedsnr" v="938955" />
	</node>
	<node id="-393134" lat="59.6117500011" lon="10.2484750075">
		<tag k="name" v="Askenbekken" />
		<tag k="ssr:stedsnr" v="938951" />
		<tag k="waterway" v="stream" />
	</node>
	<node id="-394156" lat="59.6580833305" lon="10.1211555634">
		<tag k="name" v="Ulka" />
		<tag k="natural" v="water" />
		<tag k="ssr:stedsnr" v="610179" />
	</node>
	<node id="-394155" lat="59.5421305525" lon="10.1110250079">
		<tag k="name" v="Vikevannet" />
		<tag k="natural" v="water" />
		<tag k="ssr:stedsnr" v="609935" />
		<tag k="water" v="lake" />
	</node>
	<node id="-392618" lat="59.5576777739" lon="10.119741663">
		<tag k="name" v="Høijordtj." />
		<tag k="natural" v="water" />
		<tag k="ssr:stedsnr" v="695690" />
	</node>
	<node id="-392105" lat="59.6145361148" lon="10.0301472163">
		<tag k="name" v="Kjennabekken" />
		<tag k="ssr:stedsnr" v="211304" />
		<tag k="waterway" v="stream" />
	</node>
	<node id="-394150" lat="59.531481342" lon="10.2093050315">
		<tag k="name" v="Bergantjern" />
		<tag k="natural" v="water" />
		<tag k="ssr:stedsnr" v="609866" />
	</node>
	<node id="-394146" lat="59.6147916637" lon="10.2796777827">
		<tag k="alt_name" v="Pinevika" />
		<tag k="name" v="Pina" />
		<tag k="natural" v="bay" />
		<tag k="ssr:stedsnr" v="610071" />
	</node>
	<node id="-394224" lat="59.5881194448" lon="9.95357777196">
		<tag k="name" v="Blåtjern" />
		<tag k="natural" v="water" />
		<tag k="ssr:stedsnr" v="752413" />
	</node>
	<node id="-394287" lat="59.5097083374" lon="10.19424722">
		<tag k="name" v="Møllerdammen" />
		<tag k="natural" v="water" />
		<tag k="ssr:stedsnr" v="756540" />
	</node>
	<node id="-393797" lat="59.54419722" lon="10.0139888901">
		<tag k="name" v="Østelva" />
		<tag k="ssr:stedsnr" v="331508" />
		<tag k="waterway" v="river" />
	</node>
	<node id="-394139" lat="59.639369441" lon="10.1175944498">
		<tag k="name" v="Vesle Øyvann" />
		<tag k="natural" v="water" />
		<tag k="ssr:stedsnr" v="609180" />
	</node>
	<node id="-392089" lat="59.4776583307" lon="10.2950055587">
		<tag k="name" v="Mofjellbekken" />
		<tag k="ssr:stedsnr" v="209850" />
		<tag k="waterway" v="stream" />
	</node>
	<node id="-393110" lat="59.6043833356" lon="10.0964805598">
		<tag k="name" v="Hauketjern" />
		<tag k="natural" v="water" />
		<tag k="ssr:stedsnr" v="938721" />
	</node>
	<node id="-393109" lat="59.6396111141" lon="10.0818527735">
		<tag k="name" v="Prestevannsbekken" />
		<tag k="ssr:stedsnr" v="938719" />
		<tag k="waterway" v="stream" />
	</node>
	<node id="-393108" lat="59.6198555547" lon="10.1296000012">
		<tag k="name" v="Klokkerbekken" />
		<tag k="ssr:stedsnr" v="938715" />
		<tag k="waterway" v="stream" />
	</node>
	<node id="-394478" lat="59.5443111124" lon="10.1446999941">
		<tag k="alt_name" v="Foksetj." />
		<tag k="name" v="Foksetjern" />
		<tag k="natural" v="water" />
		<tag k="ssr:stedsnr" v="853934" />
	</node>
	<node id="-393618" lat="59.6304055571" lon="10.132555548">
		<tag k="name" v="Svartevannet" />
		<tag k="natural" v="water" />
		<tag k="ssr:stedsnr" v="186164" />
	</node>
	<node id="-393617" lat="59.6316499989" lon="10.1610611134">
		<tag k="name" v="Kringlevannet" />
		<tag k="natural" v="water" />
		<tag k="ssr:stedsnr" v="186160" />
	</node>
	<node id="-393699" lat="59.5855729385" lon="10.3212912776">
		<tag k="name" v="Skovannet" />
		<tag k="natural" v="water" />
		<tag k="ssr:stedsnr" v="306017" />
	</node>
	<node id="-393101" lat="59.622500004" lon="10.1436166687">
		<tag k="name" v="Munkebekken" />
		<tag k="ssr:stedsnr" v="938685" />
		<tag k="waterway" v="stream" />
	</node>
	<node id="-394306" lat="59.6235722212" lon="10.1757249987">
		<tag k="name" v="Orjota" />
		<tag k="ssr:stedsnr" v="756652" />
		<tag k="waterway" v="stream" />
	</node>
	<node id="-392582" lat="59.5619833332" lon="10.1982222305">
		<tag k="name" v="Stokkebekken" />
		<tag k="ssr:stedsnr" v="692339" />
		<tag k="waterway" v="stream" />
	</node>
	<node id="-392069" lat="59.6134861116" lon="10.3111972147">
		<tag k="name" v="Trestiklevanna" />
		<tag k="natural" v="water" />
		<tag k="ssr:stedsnr" v="186116" />
	</node>
	<node id="-393928" lat="59.5106361122" lon="10.0923249964">
		<tag k="name" v="Dokkatj." />
		<tag k="natural" v="water" />
		<tag k="ssr:stedsnr" v="392390" />
	</node>
	<node id="-392063" lat="59.6067055581" lon="10.1051777809">
		<tag k="name" v="Haukelielva" />
		<tag k="ssr:stedsnr" v="185119" />
		<tag k="waterway" v="stream" />
	</node>
	<node id="-392255" lat="59.6017499983" lon="10.0688472227">
		<tag k="name" v="Bergsbekken" />
		<tag k="ssr:stedsnr" v="331712" />
		<tag k="waterway" v="stream" />
	</node>
	<node id="-392562" lat="59.5690250003" lon="10.0533888888">
		<tag k="name" v="Hemsbekken" />
		<tag k="ssr:stedsnr" v="513670" />
		<tag k="waterway" v="stream" />
	</node>
	<node id="-394097" lat="59.5205305525" lon="10.1295666745">
		<tag k="name" v="Nøtneselva" />
		<tag k="ssr:stedsnr" v="574385" />
		<tag k="waterway" v="river" />
	</node>
	<node id="-392557" lat="59.5012111154" lon="10.1930083291">
		<tag k="name" v="Rønningdammen" />
		<tag k="natural" v="water" />
		<tag k="ssr:stedsnr" v="513652" />
	</node>
	<node id="-393580" lat="59.6149805535" lon="10.2532249951">
		<tag k="name" v="Kvernfallet" />
		<tag k="natural" v="waterfall" />
		<tag k="ssr:stedsnr" v="149942" />
	</node>
	<node id="-392042" lat="59.5367583378" lon="10.0136805599">
		<tag k="name" v="Fossnesseterbekken" />
		<tag k="ssr:stedsnr" v="149509" />
		<tag k="waterway" v="stream" />
	</node>
	<node id="-393064" lat="59.5203944404" lon="10.062680559">
		<tag k="name" v="Monebekken" />
		<tag k="ssr:stedsnr" v="938374" />
		<tag k="waterway" v="stream" />
	</node>
	<node id="-394087" lat="59.6205500008" lon="10.2791972304">
		<tag k="name" v="Lærumsetervika" />
		<tag k="natural" v="bay" />
		<tag k="ssr:stedsnr" v="574238" />
	</node>
	<node id="-394086" lat="59.6242694479" lon="10.2894527738">
		<tag k="name" v="Askenstrykene" />
		<tag k="ssr:stedsnr" v="574237" />
		<tag k="waterway" v="rapids" />
	</node>
	<node id="-393105" lat="59.6337222193" lon="10.0475527755">
		<tag k="name" v="Prestebekken" />
		<tag k="ssr:stedsnr" v="938698" />
		<tag k="waterway" v="stream" />
	</node>
	<node id="-393059" lat="59.6174249989" lon="10.2756972215">
		<tag k="name" v="Bjørkøya" />
		<tag k="place" v="islet" />
		<tag k="ssr:stedsnr" v="938202" />
	</node>
	<node id="-392545" lat="59.4905750006" lon="10.0513722215">
		<tag k="name" v="Midtbekk" />
		<tag k="ssr:stedsnr" v="512036" />
		<tag k="waterway" v="stream" />
	</node>
	<node id="-393262" lat="59.6413277743" lon="10.2971916672">
		<tag k="name" v="Sagseterfossen" />
		<tag k="natural" v="waterfall" />
		<tag k="ssr:stedsnr" v="28151" />
	</node>
	<node id="-393055" lat="59.6248444421" lon="10.2964583336">
		<tag k="name" v="Søndre Ventetjern" />
		<tag k="natural" v="water" />
		<tag k="ssr:stedsnr" v="938186" />
	</node>
	<node id="-393054" lat="59.6307083332" lon="10.3249722215">
		<tag k="name" v="Svartevannsbekken" />
		<tag k="ssr:stedsnr" v="938181" />
		<tag k="waterway" v="stream" />
	</node>
	<node id="-393047" lat="59.4619944439" lon="10.352966674">
		<tag k="name" v="Snekkestad-dammen" />
		<tag k="natural" v="water" />
		<tag k="ssr:stedsnr" v="937877" />
	</node>
	<node id="-393773" lat="59.6489027806" lon="10.3184805536">
		<tag k="name" v="Svanevannsbekken" />
		<tag k="ssr:stedsnr" v="331123" />
		<tag k="waterway" v="stream" />
	</node>
	<node id="-394065" lat="59.5086388899" lon="10.168441661">
		<tag k="alt_name" v="Øyebukta" />
		<tag k="name" v="Øiebukta" />
		<tag k="natural" v="bay" />
		<tag k="ssr:stedsnr" v="573589" />
	</node>
	<node id="-393550" lat="59.5835499999" lon="10.1173999933">
		<tag k="name" v="Seterbekken" />
		<tag k="ssr:stedsnr" v="149331" />
		<tag k="waterway" v="stream" />
	</node>
	<node id="-392525" lat="59.5785500028" lon="9.93522778456">
		<tag k="alt_name" v="Mjøvann" />
		<tag k="name" v="Mjøvannet" />
		<tag k="natural" v="water" />
		<tag k="ssr:stedsnr" v="671489" />
		<tag k="water" v="lake" />
	</node>
	<node id="-392524" lat="59.567449996" lon="9.9529194437">
		<tag k="alt_name" v="Grønntjern" />
		<tag k="name" v="Grøntjernet" />
		<tag k="natural" v="water" />
		<tag k="ssr:stedsnr" v="671373" />
	</node>
	<node id="-393517" lat="59.5612611095" lon="10.0943444447">
		<tag k="name" v="Kopstadelva" />
		<tag k="ssr:stedsnr" v="141752" />
		<tag k="waterway" v="river" />
	</node>
	<node id="-392009" lat="59.5742666681" lon="9.97689444239">
		<tag k="name" v="Kutjern" />
		<tag k="natural" v="water" />
		<tag k="ssr:stedsnr" v="145433" />
	</node>
	<node id="-392520" lat="59.6180199771" lon="10.2790125054">
		<tag k="name" v="Suluvann" />
		<tag k="natural" v="water" />
		<tag k="ssr:stedsnr" v="671125" />
		<tag k="water" v="lake" />
	</node>
	<node id="-392519" lat="59.575847606" lon="10.0654472576">
		<tag k="name" v="Bergsvannet" />
		<tag k="natural" v="water" />
		<tag k="ssr:stedsnr" v="671119" />
		<tag k="water" v="lake" />
	</node>
	<node id="-394054" lat="59.5296166623" lon="10.0103861095">
		<tag k="name" v="Vrifoss" />
		<tag k="natural" v="waterfall" />
		<tag k="ssr:stedsnr" v="573474" />
	</node>
	<node id="-394465" lat="59.6598138897" lon="10.1086194459">
		<tag k="alt_name" v="Bergvannet, store" />
		<tag k="name" v="Store Bergvannet" />
		<tag k="natural" v="water" />
		<tag k="ssr:stedsnr" v="853120" />
		<tag k="water" v="lake" />
	</node>
	<node id="-392515" lat="59.6227833358" lon="10.184108329">
		<tag k="name" v="Lillevann" />
		<tag k="natural" v="water" />
		<tag k="ssr:stedsnr" v="671084" />
	</node>
	<node id="-392513" lat="59.5764749962" lon="9.97992500813">
		<tag k="alt_name" v="Surka, nordre" />
		<tag k="name" v="Nordre Surka" />
		<tag k="ssr:stedsnr" v="671066" />
		<tag k="waterway" v="stream" />
	</node>
	<node id="-393024" lat="59.5792083317" lon="10.2332805619">
		<tag k="name" v="Sandeelva" />
		<tag k="ssr:stedsnr" v="817560" />
		<tag k="waterway" v="river" />
	</node>
	<node id="-394464" lat="59.6120777779" lon="10.0415527861">
		<tag k="alt_name" v="Sauebekken" />
		<tag k="name" v="Saubekken" />
		<tag k="ssr:stedsnr" v="853098" />
		<tag k="waterway" v="stream" />
	</node>
	<node id="-394044" lat="59.5706222215" lon="9.94793332911">
		<tag k="name" v="Maurtjern" />
		<tag k="natural" v="water" />
		<tag k="ssr:stedsnr" v="573456" />
	</node>
	<node id="-391995" lat="59.5956972212" lon="10.1304194511">
		<tag k="name" v="Purketjern" />
		<tag k="natural" v="water" />
		<tag k="ssr:stedsnr" v="271782" />
	</node>
	<node id="-394042" lat="59.5519361125" lon="10.0356333335">
		<tag k="name" v="Skavjøtene" />
		<tag k="natural" v="water" />
		<tag k="ssr:stedsnr" v="573314" />
	</node>
	<node id="-394039" lat="59.4925527822" lon="10.0939944496">
		<tag k="name" v="Sandgrunn" />
		<tag k="natural" v="beach" />
		<tag k="ssr:stedsnr" v="573029" />
	</node>
	<node id="-394037" lat="59.4930888877" lon="10.0848083318">
		<tag k="name" v="Hostvedtbekken" />
		<tag k="ssr:stedsnr" v="573025" />
		<tag k="waterway" v="stream" />
	</node>
	<node id="-391988" lat="59.5594277765" lon="10.0628972259">
		<tag k="name" v="Sagbekken" />
		<tag k="ssr:stedsnr" v="271724" />
		<tag k="waterway" v="stream" />
	</node>
	<node id="-392497" lat="59.6475416655" lon="10.0250222244">
		<tag k="name" v="Setertjern" />
		<tag k="natural" v="water" />
		<tag k="ssr:stedsnr" v="670182" />
	</node>
	<node id="-394376" lat="59.6203083309" lon="10.1679249956">
		<tag k="name" v="Askilsvannet" />
		<tag k="natural" v="water" />
		<tag k="ssr:stedsnr" v="793075" />
	</node>
	<node id="-393518" lat="59.6563055565" lon="10.1713694422">
		<tag k="name" v="Svartebekk" />
		<tag k="ssr:stedsnr" v="145334" />
		<tag k="waterway" v="stream" />
	</node>
	<node id="-393005" lat="59.6539055581" lon="10.3076055533">
		<tag k="name" v="Tørrfløtbekken" />
		<tag k="ssr:stedsnr" v="817159" />
		<tag k="waterway" v="stream" />
	</node>
	<node id="-393004" lat="59.5428166628" lon="10.1036250012">
		<tag k="name" v="Tusta" />
		<tag k="place" v="island" />
		<tag k="ssr:stedsnr" v="817271" />
	</node>
	<node id="-393515" lat="59.6369527808" lon="10.0937416635">
		<tag k="fixme" v="multiple name tags, choose one and add the other to alt_name" />
		<tag k="name" v="Jøranvannet;Store Jøranvannet" />
		<tag k="natural" v="water" />
		<tag k="ssr:stedsnr" v="125184" />
		<tag k="water" v="lake" />
	</node>
	<node id="-394026" lat="59.6166388895" lon="10.0684055546">
		<tag k="name" v="Laksetjernet" />
		<tag k="natural" v="water" />
		<tag k="ssr:stedsnr" v="550082" />
	</node>
	<node id="-391977" lat="59.5974500021" lon="9.96945278314">
		<tag k="name" v="Sjulerudbekken" />
		<tag k="ssr:stedsnr" v="271336" />
		<tag k="waterway" v="stream" />
	</node>
	<node id="-393000" lat="59.6242527785" lon="10.3152305623">
		<tag k="name" v="Kallebergputten" />
		<tag k="natural" v="water" />
		<tag k="ssr:stedsnr" v="817211" />
	</node>
	<node id="-391975" lat="59.6082194414" lon="9.95220556362">
		<tag k="name" v="Nordre Sjulerudbekken" />
		<tag k="ssr:stedsnr" v="271326" />
		<tag k="waterway" v="stream" />
	</node>
	<node id="-392486" lat="59.4900305538" lon="10.2389694382">
		<tag k="name" v="Sukkevannet" />
		<tag k="natural" v="water" />
		<tag k="ssr:stedsnr" v="670004" />
	</node>
	<node id="-394019" lat="59.6340777755" lon="10.1573833269">
		<tag k="name" v="Siljukollvannet" />
		<tag k="natural" v="water" />
		<tag k="ssr:stedsnr" v="549174" />
	</node>
	<node id="-392480" lat="59.6680277777" lon="10.2078833417">
		<tag k="name" v="Mølsteddammen" />
		<tag k="natural" v="water" />
		<tag k="ssr:stedsnr" v="453930" />
	</node>
	<node id="-394015" lat="59.633686107" lon="10.2842805575">
		<tag k="name" v="Fossetertjerna" />
		<tag k="natural" v="water" />
		<tag k="ssr:stedsnr" v="549098" />
	</node>
	<node id="-392477" lat="59.6611638895" lon="10.1611555468">
		<tag k="name" v="Tranga" />
		<tag k="ssr:stedsnr" v="453922" />
		<tag k="waterway" v="stream" />
	</node>
	<node id="-393498" lat="59.5310083378" lon="9.97890277154">
		<tag k="name" v="Pyttebekken" />
		<tag k="ssr:stedsnr" v="124862" />
		<tag k="waterway" v="stream" />
	</node>
	<node id="-391961" lat="59.6163305591" lon="10.2818666718">
		<tag k="name" v="Granøya" />
		<tag k="place" v="islet" />
		<tag k="ssr:stedsnr" v="271240" />
	</node>
	<node id="-393496" lat="59.6428583311" lon="10.0520138875">
		<tag k="name" v="Store Annevannet" />
		<tag k="natural" v="water" />
		<tag k="ssr:stedsnr" v="124164" />
		<tag k="water" v="lake" />
	</node>
	<node id="-394007" lat="59.6506055589" lon="10.2907638912">
		<tag k="name" v="Veslevannet" />
		<tag k="natural" v="water" />
		<tag k="ssr:stedsnr" v="548180" />
	</node>
	<node id="-391955" lat="59.5434333374" lon="10.3123527788">
		<tag k="name" v="Sandoelva" />
		<tag k="ssr:stedsnr" v="271050" />
		<tag k="waterway" v="river" />
	</node>
	<node id="-394001" lat="59.4960111099" lon="10.0961583347">
		<tag k="name" v="Grennesvannet" />
		<tag k="natural" v="water" />
		<tag k="ssr:stedsnr" v="548011" />
		<tag k="water" v="lake" />
	</node>
	<node id="-394456" lat="59.6503388914" lon="10.3141055538">
		<tag k="alt_name" v="Tørrfløt" />
		<tag k="name" v="Tørrfløyt" />
		<tag k="natural" v="water" />
		<tag k="ssr:stedsnr" v="852179" />
	</node>
	<node id="-394029" lat="59.5528884341" lon="10.1098230366">
		<tag k="name" v="Kjennerudtjern" />
		<tag k="natural" v="water" />
		<tag k="ssr:stedsnr" v="566774" />
	</node>
	<node id="-392972" lat="59.6365249981" lon="10.1620083253">
		<tag k="name" v="Fjellskardvannet" />
		<tag k="natural" v="water" />
		<tag k="ssr:stedsnr" v="914171" />
	</node>
	<node id="-392970" lat="59.6253638857" lon="10.0959333329">
		<tag k="alt_name" v="Øyevannselva" />
		<tag k="name" v="Øyvasselva" />
		<tag k="ssr:stedsnr" v="914089" />
		<tag k="waterway" v="stream" />
	</node>
	<node id="-392968" lat="59.6129333304" lon="10.2627055476">
		<tag k="name" v="Borgelangevann" />
		<tag k="natural" v="water" />
		<tag k="ssr:stedsnr" v="914073" />
	</node>
	<node id="-392455" lat="59.6232083316" lon="10.3219472199">
		<tag k="name" v="Svartevannet" />
		<tag k="natural" v="water" />
		<tag k="ssr:stedsnr" v="453228" />
	</node>
	<node id="-393345" lat="59.6268249962" lon="10.2655249964">
		<tag k="alt_name" v="Nordre Igletjern" />
		<tag k="name" v="Igletjernet" />
		<tag k="natural" v="water" />
		<tag k="ssr:stedsnr" v="64073" />
	</node>
	<node id="-394211" lat="59.6372083325" lon="10.0529805561">
		<tag k="name" v="Vesle Annevannet" />
		<tag k="natural" v="water" />
		<tag k="ssr:stedsnr" v="634746" />
		<tag k="water" v="lake" />
	</node>
	<node id="-393475" lat="59.5540055551" lon="10.0364333404">
		<tag k="alt_name" v="Svarttjern" />
		<tag k="name" v="Svartetjern" />
		<tag k="natural" v="water" />
		<tag k="ssr:stedsnr" v="124034" />
	</node>
	<node id="-394043" lat="59.5652222219" lon="9.99045555915">
		<tag k="name" v="Løken" />
		<tag k="ssr:stedsnr" v="573316" />
		<tag k="waterway" v="river" />
	</node>
	<node id="-392445" lat="59.5919472258" lon="9.94772778331">
		<tag k="name" v="Svarttjern" />
		<tag k="natural" v="water" />
		<tag k="ssr:stedsnr" v="449415" />
	</node>
	<node id="-392444" lat="59.5271166688" lon="10.0330722254">
		<tag k="name" v="Korselv" />
		<tag k="ssr:stedsnr" v="449412" />
		<tag k="waterway" v="stream" />
	</node>
	<node id="-393465" lat="59.4925277733" lon="10.1388527847">
		<tag k="alt_name" v="Rundtjern" />
		<tag k="name" v="Rundtjernet" />
		<tag k="natural" v="water" />
		<tag k="ssr:stedsnr" v="123007" />
	</node>
	<node id="-392438" lat="59.5905277776" lon="9.98778888197">
		<tag k="alt_name" v="Ramskollbekken" />
		<tag k="name" v="Ramsbekken" />
		<tag k="ssr:stedsnr" v="428030" />
		<tag k="waterway" v="stream" />
	</node>
	<node id="-393342" lat="59.6428722191" lon="10.2964666659">
		<tag k="name" v="Nordre Toresvann" />
		<tag k="natural" v="water" />
		<tag k="old_name" v="Toresvann" />
		<tag k="ssr:stedsnr" v="64147" />
		<tag k="water" v="lake" />
	</node>
	<node id="-394481" lat="59.6563638862" lon="10.1761777802">
		<tag k="name" v="Spirebekk" />
		<tag k="ssr:stedsnr" v="874390" />
		<tag k="waterway" v="stream" />
	</node>
	<node id="-392431" lat="59.664313885" lon="10.3039833356">
		<tag k="name" v="Røysjø" />
		<tag k="natural" v="water" />
		<tag k="ssr:stedsnr" v="428116" />
		<tag k="water" v="lake" />
	</node>
	<node id="-392430" lat="59.6101277814" lon="10.079472228">
		<tag k="alt_name" v="Blektj." />
		<tag k="name" v="Blekktjern" />
		<tag k="natural" v="water" />
		<tag k="ssr:stedsnr" v="428107" />
	</node>
	<node id="-392146" lat="59.6599944476" lon="10.2942055602">
		<tag k="name" v="Furuholmen" />
		<tag k="natural" v="cape" />
		<tag k="ssr:stedsnr" v="453188" />
	</node>
	<node id="-394473" lat="59.5259611078" lon="10.0156333393">
		<tag k="alt_name" v="Lianelva, vestre;V.Lianelv;Vestre Lianelv" />
		<tag k="name" v="Vestre Lianelva" />
		<tag k="ssr:stedsnr" v="853884" />
		<tag k="waterway" v="stream" />
	</node>
	<node id="-391911" lat="59.6271749988" lon="10.2967638954">
		<tag k="name" v="Nordre Ventetjern" />
		<tag k="natural" v="water" />
		<tag k="ssr:stedsnr" v="89213" />
	</node>
	<node id="-391974" lat="59.5502361083" lon="10.1118055573">
		<tag k="name" v="Fiskebekk" />
		<tag k="ssr:stedsnr" v="271321" />
		<tag k="waterway" v="stream" />
	</node>
	<node id="-394366" lat="59.6701044307" lon="10.2877062403">
		<tag k="name" v="Torjevannet" />
		<tag k="natural" v="water" />
		<tag k="ssr:stedsnr" v="792148" />
	</node>
	<node id="-392417" lat="59.6075416695" lon="10.2212555507">
		<tag k="name" v="Rudsbekken" />
		<tag k="ssr:stedsnr" v="513945" />
		<tag k="waterway" v="stream" />
	</node>
	<node id="-392928" lat="59.6339499995" lon="10.3254888819">
		<tag k="name" v="Urdervannet" />
		<tag k="natural" v="water" />
		<tag k="ssr:stedsnr" v="732106" />
	</node>
	<node id="-392927" lat="59.6376805554" lon="10.2976138805">
		<tag k="name" v="Søndre Toresvann" />
		<tag k="natural" v="water" />
		<tag k="ssr:stedsnr" v="732103" />
		<tag k="water" v="lake" />
	</node>
	<node id="-392314" lat="59.5816166634" lon="10.1318111118">
		<tag k="name" v="Mauråstj." />
		<tag k="natural" v="water" />
		<tag k="ssr:stedsnr" v="392365" />
	</node>
	<node id="-394458" lat="59.6448500019" lon="10.1580583268">
		<tag k="name" v="Myrvann" />
		<tag k="natural" v="water" />
		<tag k="ssr:stedsnr" v="852186" />
	</node>
	<node id="-392409" lat="59.6365055548" lon="10.1812305499">
		<tag k="name" v="Elvetjern" />
		<tag k="natural" v="water" />
		<tag k="ssr:stedsnr" v="513636" />
	</node>
	<node id="-391896" lat="59.5451611087" lon="10.2092361178">
		<tag k="name" v="Orebergvannet" />
		<tag k="natural" v="water" />
		<tag k="ssr:stedsnr" v="246919" />
	</node>
	<node id="-392917" lat="59.6184305517" lon="10.024416662">
		<tag k="name" v="Tjønna" />
		<tag k="natural" v="water" />
		<tag k="ssr:stedsnr" v="696306" />
	</node>
	<node id="-393428" lat="59.5859138844" lon="10.1605500062">
		<tag k="name" v="Delebekken" />
		<tag k="ssr:stedsnr" v="89566" />
		<tag k="waterway" v="stream" />
	</node>
	<node id="-391889" lat="59.6556361124" lon="10.1841083267">
		<tag k="alt_name" v="Gryteelva;Grytelva" />
		<tag k="name" v="Gryta" />
		<tag k="ssr:stedsnr" v="246135" />
		<tag k="waterway" v="stream" />
	</node>
	<node id="-392910" lat="59.6453361117" lon="10.2228194381">
		<tag k="name" v="Gutufossen" />
		<tag k="natural" v="waterfall" />
		<tag k="ssr:stedsnr" v="695966" />
	</node>
	<node id="-394444" lat="59.5401444454" lon="10.172447215">
		<tag k="name" v="Hvittingsrudtjern" />
		<tag k="natural" v="water" />
		<tag k="ssr:stedsnr" v="817744" />
	</node>
	<node id="-394443" lat="59.5371888904" lon="10.1979805587">
		<tag k="name" v="Svartebekk" />
		<tag k="ssr:stedsnr" v="817741" />
		<tag k="waterway" v="stream" />
	</node>
	<node id="-393417" lat="59.5216416637" lon="10.0807583261">
		<tag k="name" v="Grønsethbekken" />
		<tag k="ssr:stedsnr" v="89383" />
		<tag k="waterway" v="stream" />
	</node>
	<node id="-391880" lat="59.5908166667" lon="10.0543027853">
		<tag k="alt_name" v="Bjerkøya" />
		<tag k="name" v="Bjørkøya" />
		<tag k="place" v="island" />
		<tag k="ssr:stedsnr" v="246033" />
	</node>
	<node id="-391879" lat="59.5875802808" lon="10.2892755631">
		<tag k="name" v="Kudalsdammen" />
		<tag k="natural" v="water" />
		<tag k="ssr:stedsnr" v="246023" />
	</node>
	<node id="-393926" lat="59.5135948097" lon="10.1010213993">
		<tag k="name" v="Rønnebergdammen" />
		<tag k="natural" v="water" />
		<tag k="ssr:stedsnr" v="392381" />
		<tag k="water" v="lake" />
	</node>
	<node id="-393925" lat="59.5156944484" lon="10.1205805521">
		<tag k="name" v="Sundbyelva" />
		<tag k="ssr:stedsnr" v="392377" />
		<tag k="waterway" v="river" />
	</node>
	<node id="-392388" lat="59.5925555599" lon="10.0219722202">
		<tag k="name" v="Sandvik" />
		<tag k="natural" v="bay" />
		<tag k="ssr:stedsnr" v="513508" />
	</node>
	<node id="-393407" lat="59.5375583306" lon="10.0661666593">
		<tag k="name" v="Lindsetbekken" />
		<tag k="ssr:stedsnr" v="89285" />
		<tag k="waterway" v="stream" />
	</node>
	<node id="-393406" lat="59.577702779" lon="10.338911112">
		<tag k="name" v="Bjørkøya" />
		<tag k="place" v="islet" />
		<tag k="ssr:stedsnr" v="89258" />
	</node>
	<node id="-392138" lat="59.4565861074" lon="10.2934777717">
		<tag k="name" v="Vesleelva" />
		<tag k="ssr:stedsnr" v="452795" />
		<tag k="waterway" v="stream" />
	</node>
	<node id="-392890" lat="59.5803611103" lon="10.0652055525">
		<tag k="name" v="Rødsøya" />
		<tag k="natural" v="cape" />
		<tag k="ssr:stedsnr" v="695372" />
	</node>
	<node id="-394425" lat="59.5123444405" lon="10.1673833412">
		<tag k="name" v="Øya" />
		<tag k="place" v="islet" />
		<tag k="ssr:stedsnr" v="817518" />
	</node>
	<node id="-393399" lat="59.6071472252" lon="10.316736116">
		<tag k="name" v="Søndre Trestikelvann" />
		<tag k="natural" v="water" />
		<tag k="ssr:stedsnr" v="89177" />
	</node>
	<node id="-392886" lat="59.5271111104" lon="10.122047229">
		<tag k="name" v="Sandtangen" />
		<tag k="natural" v="shoal" />
		<tag k="place" v="locality" />
		<tag k="ssr:stedsnr" v="695358" />
	</node>
	<node id="-393495" lat="59.6398083302" lon="10.0884333412">
		<tag k="name" v="Vesle Jøranvann" />
		<tag k="natural" v="water" />
		<tag k="ssr:stedsnr" v="124163" />
	</node>
	<node id="-393512" lat="59.6376781505" lon="10.314572124">
		<tag k="alt_name" v="Klokkertjern" />
		<tag k="name" v="Klokketjern" />
		<tag k="natural" v="water" />
		<tag k="ssr:stedsnr" v="125101" />
	</node>
	<node id="-392368" lat="59.6227388899" lon="10.2659361076">
		<tag k="name" v="Søndre Igletjern" />
		<tag k="natural" v="water" />
		<tag k="ssr:stedsnr" v="513227" />
	</node>
	<node id="-393416" lat="59.5833833344" lon="10.078400005">
		<tag k="name" v="Rødsbekken" />
		<tag k="ssr:stedsnr" v="89381" />
		<tag k="waterway" v="stream" />
	</node>
	<node id="-394412" lat="59.58000833" lon="10.3345277722">
		<tag k="name" v="Halvøya" />
		<tag k="natural" v="cape" />
		<tag k="ssr:stedsnr" v="817247" />
	</node>
	<node id="-392875" lat="59.5737944472" lon="10.3355750034">
		<tag k="name" v="Svartebekk" />
		<tag k="ssr:stedsnr" v="695258" />
		<tag k="waterway" v="stream" />
	</node>
	<node id="-394439" lat="59.5349055572" lon="10.182872219">
		<tag k="name" v="Brattfoss" />
		<tag k="natural" v="waterfall" />
		<tag k="ssr:stedsnr" v="817777" />
	</node>
	<node id="-393892" lat="59.5027138889" lon="10.0456527798">
		<tag k="name" v="Vånabekk" />
		<tag k="ssr:stedsnr" v="391028" />
		<tag k="waterway" v="stream" />
	</node>
	<node id="-392867" lat="59.6662694405" lon="10.2932972181">
		<tag k="name" v="Svartkulp" />
		<tag k="natural" v="water" />
		<tag k="ssr:stedsnr" v="695168" />
	</node>
	<node id="-391842" lat="59.6004999999" lon="9.93610833028">
		<tag k="name" v="Sjulerudvika" />
		<tag k="natural" v="bay" />
		<tag k="ssr:stedsnr" v="28303" />
	</node>
	<node id="-392344" lat="59.4525166695" lon="10.3574888951">
		<tag k="name" v="Hellandselva" />
		<tag k="ssr:stedsnr" v="512878" />
		<tag k="waterway" v="stream" />
	</node>
	<node id="-393878" lat="59.5208250006" lon="10.233038891">
		<tag k="name" v="Holtantjern" />
		<tag k="natural" v="water" />
		<tag k="ssr:stedsnr" v="367980" />
	</node>
	<node id="-393497" lat="59.5239500017" lon="10.0426333254">
		<tag k="name" v="Lianelva" />
		<tag k="ssr:stedsnr" v="124857" />
		<tag k="waterway" v="river" />
	</node>
	<node id="-391825" lat="59.4899861133" lon="10.0466861046">
		<tag k="name" v="Øvrebekk" />
		<tag k="ssr:stedsnr" v="27028" />
		<tag k="waterway" v="stream" />
	</node>
	<node id="-392045" lat="59.6037666705" lon="10.0591944389">
		<tag k="name" v="Heierstadbekken" />
		<tag k="ssr:stedsnr" v="149709" />
		<tag k="waterway" v="stream" />
	</node>
	<node id="-392332" lat="59.5189250014" lon="10.0151833246">
		<tag k="name" v="Åsbekken" />
		<tag k="ssr:stedsnr" v="510460" />
		<tag k="waterway" v="stream" />
	</node>
	<node id="-392841" lat="59.6609000025" lon="10.296524995">
		<tag k="name" v="Røysjødammen" />
		<tag k="natural" v="bay" />
		<tag k="ssr:stedsnr" v="878176" />
	</node>
	<node id="-392840" lat="59.6566999969" lon="10.3035666686">
		<tag k="name" v="Røysjøkupa" />
		<tag k="natural" v="bay" />
		<tag k="ssr:stedsnr" v="878159" />
	</node>
	<node id="-392839" lat="59.6484444487" lon="10.2935833412">
		<tag k="name" v="Veslevannsbekken" />
		<tag k="ssr:stedsnr" v="878149" />
		<tag k="waterway" v="stream" />
	</node>
	<node id="-393859" lat="59.4636447133" lon="10.0978650222">
		<tag k="name" v="Bergsvannet" />
		<tag k="natural" v="water" />
		<tag k="ssr:stedsnr" v="366096" />
		<tag k="water" v="lake" />
	</node>
	<node id="-392322" lat="59.533436108" lon="9.98888054717">
		<tag k="name" v="Kluftbekken" />
		<tag k="ssr:stedsnr" v="392564" />
		<tag k="waterway" v="stream" />
	</node>
	<node id="-392833" lat="59.4941250028" lon="10.2797333371">
		<tag k="name" v="Fossbekken" />
		<tag k="ssr:stedsnr" v="877860" />
		<tag k="waterway" v="stream" />
	</node>
	<node id="-393343" lat="59.6256111115" lon="10.3364722188">
		<tag k="name" v="Midtre Svanevannet" />
		<tag k="natural" v="water" />
		<tag k="ssr:stedsnr" v="64056" />
		<tag k="water" v="lake" />
	</node>
	<node id="-392318" lat="59.5366555519" lon="10.1163055501">
		<tag k="name" v="Kattholmen" />
		<tag k="place" v="islet" />
		<tag k="ssr:stedsnr" v="392408" />
	</node>
	<node id="-392828" lat="59.6110777789" lon="10.0530083287">
		<tag k="name" v="Stordalsbekken" />
		<tag k="ssr:stedsnr" v="877738" />
		<tag k="waterway" v="stream" />
	</node>
	<node id="-392827" lat="59.6133722181" lon="10.0689666626">
		<tag k="name" v="Laksetjernbekken" />
		<tag k="ssr:stedsnr" v="877734" />
		<tag k="waterway" v="stream" />
	</node>
	<node id="-392826" lat="59.6327416628" lon="10.0434388897">
		<tag k="name" v="Svarttjernkulpen" />
		<tag k="natural" v="water" />
		<tag k="ssr:stedsnr" v="877733" />
	</node>
	<node id="-393919" lat="59.5848166686" lon="10.2780555529">
		<tag k="name" v="Bufjellbekken" />
		<tag k="ssr:stedsnr" v="392277" />
		<tag k="waterway" v="stream" />
	</node>
	<node id="-393847" lat="59.660086115" lon="9.99821389688">
		<tag k="name" v="Tryterudelva" />
		<tag k="ssr:stedsnr" v="332297" />
		<tag k="waterway" v="stream" />
	</node>
	<node id="-392297" lat="59.6142333357" lon="10.0850500002">
		<tag k="name" v="Kroktjern" />
		<tag k="natural" v="water" />
		<tag k="ssr:stedsnr" v="489090" />
	</node>
	<node id="-392820" lat="59.6288888913" lon="10.0441138826">
		<tag k="name" v="Plommetj." />
		<tag k="natural" v="water" />
		<tag k="ssr:stedsnr" v="877707" />
	</node>
	<node id="-394355" lat="59.5833777739" lon="10.1383777707">
		<tag k="name" v="Bondivannet" />
		<tag k="natural" v="water" />
		<tag k="ssr:stedsnr" v="792004" />
	</node>
	<node id="-393329" lat="59.4855555579" lon="10.0964388815">
		<tag k="name" v="Eikenesvannet" />
		<tag k="natural" v="water" />
		<tag k="ssr:stedsnr" v="63027" />
	</node>
	<node id="-393511" lat="59.6194750043" lon="10.2931861087">
		<tag k="name" v="Toreselva" />
		<tag k="ssr:stedsnr" v="125098" />
		<tag k="waterway" v="stream" />
	</node>
	<node id="-392812" lat="59.6294361127" lon="10.232602778">
		<tag k="name" v="Fossbekken" />
		<tag k="ssr:stedsnr" v="877661" />
		<tag k="waterway" v="stream" />
	</node>
	<node id="-392299" lat="59.6365111076" lon="10.0383388867">
		<tag k="alt_name" v="Svartetjern, store;Svarttj." />
		<tag k="name" v="Store Svartetjern" />
		<tag k="natural" v="water" />
		<tag k="ssr:stedsnr" v="489191" />
	</node>
	<node id="-392298" lat="59.638766665" lon="10.030424997">
		<tag k="name" v="Ormetjern" />
		<tag k="place" v="locality" />
		<tag k="ssr:stedsnr" v="489176" />
	</node>
	<node id="-393869" lat="59.6419555529" lon="10.036777782">
		<tag k="alt_name" v="Lille Svartetjern" />
		<tag k="name" v="Vesle Svarttjern" />
		<tag k="natural" v="water" />
		<tag k="ssr:stedsnr" v="367142" />
	</node>
	<node id="-394028" lat="59.606561111" lon="10.0019916583">
		<tag k="name" v="Hesthammarøya" />
		<tag k="place" v="island" />
		<tag k="ssr:stedsnr" v="550130" />
	</node>
	<node id="-394343" lat="59.5706194456" lon="9.96612222889">
		<tag k="name" v="Størtjern" />
		<tag k="natural" v="water" />
		<tag k="ssr:stedsnr" v="783394" />
	</node>
	<node id="-392294" lat="59.5476500026" lon="9.97843055306">
		<tag k="name" v="Hajerbekken" />
		<tag k="ssr:stedsnr" v="488906" />
		<tag k="waterway" v="stream" />
	</node>
	<node id="-393314" lat="59.6313500035" lon="10.2617250068">
		<tag k="name" v="Igletjernsbekken" />
		<tag k="ssr:stedsnr" v="28935" />
		<tag k="waterway" v="stream" />
	</node>
	<node id="-393143" lat="59.6324227224" lon="10.0375994167">
		<tag k="name" v="Kleivtj." />
		<tag k="natural" v="water" />
		<tag k="ssr:stedsnr" v="939328" />
	</node>
	<node id="-394335" lat="59.6064166703" lon="10.2154222168">
		<tag k="name" v="Brubakkelva" />
		<tag k="ssr:stedsnr" v="756953" />
		<tag k="waterway" v="stream" />
	</node>
	<node id="-392286" lat="59.6064749996" lon="10.0475277804">
		<tag k="alt_name" v="Tekstj." />
		<tag k="name" v="Teigstjern" />
		<tag k="natural" v="water" />
		<tag k="ssr:stedsnr" v="488111" />
	</node>
	<node id="-393573" lat="59.611394445" lon="10.0952027833">
		<tag k="name" v="Haukefoss" />
		<tag k="natural" v="waterfall" />
		<tag k="ssr:stedsnr" v="149735" />
	</node>
	<node id="-391881" lat="59.5950499963" lon="10.1114555529">
		<tag k="name" v="Djupdalstjern" />
		<tag k="natural" v="water" />
		<tag k="ssr:stedsnr" v="246037" />
	</node>
	<node id="-393543" lat="59.6335416701" lon="10.3055611133">
		<tag k="name" v="Buddetjern" />
		<tag k="natural" v="water" />
		<tag k="ssr:stedsnr" v="149196" />
	</node>
	<node id="-392275" lat="59.5712499975" lon="10.3092000073">
		<tag k="name" v="Bekkevannet" />
		<tag k="natural" v="water" />
		<tag k="ssr:stedsnr" v="488051" />
	</node>
	<node id="-394083" lat="59.6048722228" lon="10.3170416697">
		<tag k="name" v="Trollbekken" />
		<tag k="ssr:stedsnr" v="574190" />
		<tag k="waterway" v="stream" />
	</node>
	<node id="-392461" lat="59.543333334" lon="9.99008888612">
		<tag k="name" v="Vestdammen" />
		<tag k="natural" v="water" />
		<tag k="ssr:stedsnr" v="453529" />
	</node>
	<node id="-394361" lat="59.6310944417" lon="10.0140222272">
		<tag k="name" v="Torrudelva" />
		<tag k="ssr:stedsnr" v="792098" />
		<tag k="waterway" v="stream" />
	</node>
	<node id="-392779" lat="59.5132722211" lon="10.1500111134">
		<tag k="name" v="Sandtangen" />
		<tag k="natural" v="shoal" />
		<tag k="place" v="locality" />
		<tag k="ssr:stedsnr" v="877364" />
	</node>
	<node id="-393271" lat="59.6392111143" lon="10.3279527709">
		<tag k="name" v="Haldorsrenna" />
		<tag k="ssr:stedsnr" v="28369" />
		<tag k="waterway" v="stream" />
	</node>
	<node id="-393655" lat="59.5896833329" lon="10.3330722238">
		<tag k="name" v="Selvikøya" />
		<tag k="place" v="islet" />
		<tag k="ssr:stedsnr" v="210280" />
	</node>
	<node id="-393800" lat="59.5094277817" lon="10.1716055576">
		<tag k="name" v="Nesvangen" />
		<tag k="natural" v="cape" />
		<tag k="ssr:stedsnr" v="331517" />
	</node>
	<node id="-392008" lat="59.6718861083" lon="10.2476583366">
		<tag k="name" v="Tuftdammen" />
		<tag k="natural" v="water" />
		<tag k="ssr:stedsnr" v="271942" />
	</node>
	<node id="-393283" lat="59.5812499961" lon="10.3313222297">
		<tag k="name" v="Hunsvikbukta" />
		<tag k="natural" v="bay" />
		<tag k="ssr:stedsnr" v="28267" />
	</node>
	<node id="-392258" lat="59.6408583296" lon="10.1367555616">
		<tag k="name" v="Kopstadbrønn" />
		<tag k="natural" v="water" />
		<tag k="ssr:stedsnr" v="331741" />
		<tag k="water" v="pond" />
	</node>
	<node id="-393281" lat="59.5778333323" lon="10.3367055597">
		<tag k="name" v="Hareøya" />
		<tag k="place" v="islet" />
		<tag k="ssr:stedsnr" v="28260" />
	</node>
	<node id="-392768" lat="59.6093444465" lon="10.2924444379">
		<tag k="name" v="Lensmannsodden" />
		<tag k="natural" v="cape" />
		<tag k="ssr:stedsnr" v="877186" />
	</node>
	<node id="-394303" lat="59.6292222219" lon="10.1872777799">
		<tag k="name" v="Tollerudelva" />
		<tag k="ssr:stedsnr" v="756645" />
		<tag k="waterway" v="river" />
	</node>
	<node id="-392766" lat="59.6095111068" lon="10.3157083289">
		<tag k="name" v="Mellomste Trestikelvann" />
		<tag k="natural" v="water" />
		<tag k="ssr:stedsnr" v="877158" />
	</node>
	<node id="-393785" lat="59.6035361114" lon="9.94336388943">
		<tag k="name" v="Sjulerudsetertjern" />
		<tag k="natural" v="water" />
		<tag k="ssr:stedsnr" v="331283" />
	</node>
	<node id="-392760" lat="59.6360861101" lon="10.0679249944">
		<tag k="name" v="Prestevannet" />
		<tag k="natural" v="water" />
		<tag k="ssr:stedsnr" v="732190" />
	</node>
	<node id="-392759" lat="59.6421666647" lon="10.3290222234">
		<tag k="name" v="Nordre Svanevannet" />
		<tag k="natural" v="water" />
		<tag k="ssr:stedsnr" v="732180" />
		<tag k="water" v="lake" />
	</node>
	<node id="-393270" lat="59.573383332" lon="10.0756027759">
		<tag k="name" v="Næss-nordre" />
		<tag k="place" v="islet" />
		<tag k="ssr:stedsnr" v="28367" />
	</node>
	<node id="-392239" lat="59.4588833377" lon="10.0758333417">
		<tag k="name" v="Gampedalsbekken" />
		<tag k="ssr:stedsnr" v="330110" />
		<tag k="waterway" v="stream" />
	</node>
	<node id="-393774" lat="59.6312694481" lon="10.3164444466">
		<tag k="name" v="Bjørnhibekken" />
		<tag k="ssr:stedsnr" v="331135" />
		<tag k="waterway" v="stream" />
	</node>
	<node id="-394377" lat="59.570638889" lon="9.96618056123">
		<tag k="name" v="Bingtjernet" />
		<tag k="natural" v="water" />
		<tag k="ssr:stedsnr" v="793397" />
	</node>
	<node id="-392236" lat="59.5278972259" lon="10.0370472266">
		<tag k="name" v="Breibekk" />
		<tag k="ssr:stedsnr" v="328416" />
		<tag k="waterway" v="stream" />
	</node>
	<node id="-394282" lat="59.564455559" lon="10.0014722287">
		<tag k="name" v="Svartbekk" />
		<tag k="ssr:stedsnr" v="756463" />
		<tag k="waterway" v="stream" />
	</node>
	<node id="-393991" lat="59.5117555598" lon="10.2582083399">
		<tag k="name" v="Sollivannet" />
		<tag k="natural" v="water" />
		<tag k="ssr:stedsnr" v="428999" />
	</node>
	<node id="-393767" lat="59.4940861086" lon="10.0969555571">
		<tag k="name" v="Hostvedtøya" />
		<tag k="natural" v="cape" />
		<tag k="ssr:stedsnr" v="331041" />
	</node>
	<node id="-393531" lat="59.5062277795" lon="10.2612666735">
		<tag k="name" v="Sollidammen" />
		<tag k="natural" v="water" />
		<tag k="ssr:stedsnr" v="148619" />
	</node>
	<node id="-392767" lat="59.6084194432" lon="10.2750083261">
		<tag k="name" v="Pinetjern" />
		<tag k="natural" v="water" />
		<tag k="ssr:stedsnr" v="877180" />
	</node>
	<node id="-394275" lat="59.5761833343" lon="10.121580556">
		<tag k="name" v="Svelleruddammen" />
		<tag k="natural" v="water" />
		<tag k="ssr:stedsnr" v="756339" />
	</node>
	<node id="-392736" lat="59.4898805584" lon="10.1456500046">
		<tag k="alt_name" v="Langtjern" />
		<tag k="name" v="Langtjernet" />
		<tag k="natural" v="water" />
		<tag k="ssr:stedsnr" v="730003" />
	</node>
	<node id="-392735" lat="59.6459472206" lon="9.99288056178">
		<tag k="name" v="Skjellingsbekken" />
		<tag k="ssr:stedsnr" v="635274" />
		<tag k="waterway" v="stream" />
	</node>
	<node id="-393245" lat="59.6162833333" lon="10.0273611124">
		<tag k="alt_name" v="Tjønna" />
		<tag k="name" v="Tjerna" />
		<tag k="natural" v="water" />
		<tag k="ssr:stedsnr" v="4074" />
	</node>
	<node id="-393754" lat="59.4959527772" lon="10.0929527812">
		<tag k="name" v="Tellaholmen" />
		<tag k="natural" v="beach" />
		<tag k="ssr:stedsnr" v="330056" />
	</node>
	<node id="-392367" lat="59.6298805545" lon="10.2871833275">
		<tag k="name" v="Fossetertjernbekken" />
		<tag k="ssr:stedsnr" v="513217" />
		<tag k="waterway" v="stream" />
	</node>
	<node id="-393238" lat="59.5336499986" lon="10.0244916709">
		<tag k="alt_name" v="Lianelva, østre;Ø.Lianelv;Østre Lianelv" />
		<tag k="name" v="Østre Lianelva" />
		<tag k="ssr:stedsnr" v="3923" />
		<tag k="waterway" v="stream" />
	</node>
	<node id="-393817" lat="59.5649000006" lon="10.0875472237">
		<tag k="name" v="Kopstadelva" />
		<tag k="ssr:stedsnr" v="331669" />
		<tag k="waterway" v="river" />
	</node>
	<node id="-394158" lat="59.6311361083" lon="10.1691638871">
		<tag k="alt_name" v="Åsvann" />
		<tag k="name" v="Åsdammen" />
		<tag k="natural" v="water" />
		<tag k="ssr:stedsnr" v="610200" />
	</node>
	<node id="-393746" lat="59.60694862" lon="9.93997036819">
		<tag k="alt_name" v="Oksetjernet" />
		<tag k="name" v="Okseøyet" />
		<tag k="natural" v="water" />
		<tag k="ssr:stedsnr" v="307449" />
	</node>
	<node id="-393744" lat="59.6498861076" lon="10.1542027817">
		<tag k="name" v="Langvann" />
		<tag k="natural" v="water" />
		<tag k="ssr:stedsnr" v="307150" />
	</node>
	<node id="-392716" lat="59.5943222217" lon="10.3281805473">
		<tag k="name" v="Siljubekk" />
		<tag k="ssr:stedsnr" v="634263" />
		<tag k="waterway" v="stream" />
	</node>
	<node id="-392715" lat="59.5408888932" lon="10.0500250051">
		<tag k="name" v="Steinbekken" />
		<tag k="ssr:stedsnr" v="634319" />
		<tag k="waterway" v="stream" />
	</node>
	<node id="-393226" lat="59.6082611067" lon="10.1239999958">
		<tag k="name" v="Kaldmovannet" />
		<tag k="natural" v="water" />
		<tag k="ssr:stedsnr" v="3107" />
	</node>
	<node id="-393225" lat="59.6044749995" lon="10.2933722182">
		<tag k="name" v="Fløyta" />
		<tag k="natural" v="water" />
		<tag k="ssr:stedsnr" v="3101" />
	</node>
	<node id="-392739" lat="59.5596861103" lon="10.1346222236">
		<tag k="alt_name" v="Tømmeråstj." />
		<tag k="name" v="Tømmeråstjernet" />
		<tag k="natural" v="water" />
		<tag k="ssr:stedsnr" v="731037" />
	</node>
	<node id="-392197" lat="59.5316555591" lon="10.0356722235">
		<tag k="name" v="Breibekk" />
		<tag k="ssr:stedsnr" v="267402" />
		<tag k="waterway" v="stream" />
	</node>
	<node id="-392709" lat="59.6348249993" lon="10.2827666611">
		<tag k="name" v="Nordre Fossetertjern" />
		<tag k="natural" v="water" />
		<tag k="ssr:stedsnr" v="634207" />
	</node>
	<node id="-394411" lat="59.5731972235" lon="10.3397638947">
		<tag k="name" v="Holtanstøa" />
		<tag k="natural" v="cape" />
		<tag k="ssr:stedsnr" v="817236" />
	</node>
</osm>
