<?xml version="1.0" encoding="UTF-8"?>
<<<<<<< HEAD
<osm version="0.6" generator="osmapis">
	<node lat="59.48499721864797" lon="10.091424994140553" id="-24819">
		<tag k="alt_name" v="Vassås kirke" />
		<tag k="amenity" v="place_of_worship" />
		<tag k="denomination" v="lutheran" />
		<tag k="name" v="Vassås" />
		<tag k="old_name" v="Vasås" />
		<tag k="religion" v="christian" />
		<tag k="ssr:stedsnr" v="609005" />
	</node>
	<node lat="59.58879444310669" lon="10.208119439221132" id="-25016">
=======
<osm generator="osmapis" version="0.6">
	<node id="-408287" lat="59.5265166699" lon="10.2698777717">
		<tag k="name" v="Gml. Kongevei" />
		<tag k="place" v="locality" />
		<tag k="ssr:stedsnr" v="817003" />
	</node>
	<node id="-409691" lat="59.5422472233" lon="10.3075583375">
		<tag k="amenity" v="place_of_worship" />
		<tag k="denomination" v="lutheran" />
		<tag k="name" v="Bekkestranda kapell" />
		<tag k="religion" v="christian" />
		<tag k="ssr:stedsnr" v="817049" />
	</node>
	<node id="-408995" lat="59.4811111141" lon="10.2770749947">
>>>>>>> e1d4bc35ff8a6074a6f2e91616a996b547c36f15
		<tag k="amenity" v="place_of_worship" />
		<tag k="denomination" v="lutheran" />
		<tag k="name" v="Sande kirke" />
		<tag k="religion" v="christian" />
		<tag k="ssr:stedsnr" v="913017" />
	</node>
<<<<<<< HEAD
	<node lat="59.52651666987895" lon="10.269877771664378" id="-25049">
		<tag k="name" v="Gammel kongevei" />
		<tag k="place" v="locality" />
		<tag k="ssr:stedsnr" v="817003" />
	</node>
	<node lat="59.59197500147528" lon="10.045005563605665" id="-25097">
		<tag k="alt_name" v="Eidsfoss kpl." />
		<tag k="amenity" v="place_of_worship" />
		<tag k="denomination" v="lutheran" />
		<tag k="name" v="Eidsfoss kirke" />
		<tag k="religion" v="christian" />
		<tag k="ssr:stedsnr" v="853024" />
	</node>
	<node lat="59.4811397204544" lon="10.27720811460787" id="-25631">
		<tag k="amenity" v="place_of_worship" />
		<tag k="denomination" v="lutheran" />
		<tag k="name" v="Botne kirke" />
		<tag k="religion" v="christian" />
		<tag k="ssr:stedsnr" v="306032" />
	</node>
	<node lat="59.60657061430051" lon="10.056829623145896" id="-25932">
		<tag k="name" v="Øvre Fjellbru" />
		<tag k="place" v="locality" />
		<tag k="ssr:stedsnr" v="513727" />
	</node>
	<node lat="59.51174544916405" lon="10.184619195587182" id="-25964">
		<tag k="alt_name" v="Hillestad" />
		<tag k="amenity" v="place_of_worship" />
		<tag k="denomination" v="lutheran" />
		<tag k="name" v="Hillestad kirke" />
		<tag k="religion" v="christian" />
		<tag k="ssr:stedsnr" v="549995" />
	</node>
	<node lat="59.567805560513804" lon="10.002084401100102" id="-26159">
		<tag k="name" v="Bukkemyr" />
		<tag k="place" v="locality" />
		<tag k="ssr:stedsnr" v="731043" />
	</node>
	<node lat="59.53949166310837" lon="10.079888892911379" id="-26167">
		<tag k="alt_name" v="Hof" />
=======
	<node id="-408045" lat="59.5394916631" lon="10.0798888929">
		<tag k="alt_name" v="Hof" />
		<tag k="amenity" v="place_of_worship" />
		<tag k="denomination" v="lutheran" />
		<tag k="name" v="Hof kirke" />
		<tag k="religion" v="christian" />
		<tag k="ssr:stedsnr" v="731876" />
	</node>
	<node id="-407970" lat="59.4849972186" lon="10.0914249941">
		<tag k="alt_name" v="Vassås kirke" />
		<tag k="amenity" v="place_of_worship" />
		<tag k="denomination" v="lutheran" />
		<tag k="name" v="Vassås" />
		<tag k="old_name" v="Vasås" />
		<tag k="religion" v="christian" />
		<tag k="ssr:stedsnr" v="609005" />
	</node>
	<node id="-409318" lat="59.5119611096" lon="10.1832555564">
		<tag k="alt_name" v="Hillestad kirke" />
>>>>>>> e1d4bc35ff8a6074a6f2e91616a996b547c36f15
		<tag k="amenity" v="place_of_worship" />
		<tag k="denomination" v="lutheran" />
		<tag k="name" v="Hillestad" />
		<tag k="religion" v="christian" />
		<tag k="ssr:stedsnr" v="549995" />
	</node>
<<<<<<< HEAD
	<node lat="59.54224722329327" lon="10.307558337487537" id="-26310">
		<tag k="amenity" v="place_of_worship" />
		<tag k="denomination" v="lutheran" />
		<tag k="name" v="Bekkestranda kapell" />
=======
	<node id="-409765" lat="59.5919750015" lon="10.0450055636">
		<tag k="alt_name" v="Eidsfoss kpl." />
		<tag k="amenity" v="place_of_worship" />
		<tag k="denomination" v="lutheran" />
		<tag k="name" v="Eidsfoss" />
		<tag k="religion" v="christian" />
		<tag k="ssr:stedsnr" v="853024" />
	</node>
	<node id="-408230" lat="59.5887944431" lon="10.2081194392">
		<tag k="amenity" v="place_of_worship" />
		<tag k="denomination" v="lutheran" />
		<tag k="name" v="Sande" />
>>>>>>> e1d4bc35ff8a6074a6f2e91616a996b547c36f15
		<tag k="religion" v="christian" />
		<tag k="ssr:stedsnr" v="817049" />
	</node>
	<node id="-408034" lat="59.5678055605" lon="10.0020844011">
		<tag k="name" v="Bukkemyr" />
		<tag k="place" v="locality" />
		<tag k="ssr:stedsnr" v="731043" />
	</node>
</osm>
