<?xml version="1.0" encoding="UTF-8"?>
<osm generator="osmapis" version="0.6">
	<node id="-681216" lat="67.5130180894" lon="15.5204602867">
		<tag k="name" v="Sjyveien" />
		<tag k="ssr:date" v="2019-05-30" />
		<tag k="ssr:gruppe" v="veg" />
		<tag k="ssr:hovedgruppe" v="infrastruktur" />
		<tag k="ssr:stedsnr" v="1003658" />
		<tag k="ssr:type" v="adressenavn" />
	</node>
	<node id="-681215" lat="67.601867223" lon="15.7253800216">
		<tag k="name" v="Nordheiveien" />
		<tag k="ssr:date" v="2019-05-30" />
		<tag k="ssr:gruppe" v="veg" />
		<tag k="ssr:hovedgruppe" v="infrastruktur" />
		<tag k="ssr:stedsnr" v="1003655" />
		<tag k="ssr:type" v="adressenavn" />
	</node>
	<node id="-681214" lat="67.6297707688" lon="15.7307564726">
		<tag k="name" v="Bonnådalsveien" />
		<tag k="ssr:date" v="2019-05-30" />
		<tag k="ssr:gruppe" v="veg" />
		<tag k="ssr:hovedgruppe" v="infrastruktur" />
		<tag k="ssr:stedsnr" v="1002097" />
		<tag k="ssr:type" v="adressenavn" />
	</node>
	<node id="-681237" lat="67.4632237944" lon="15.5712298956">
		<tag k="name" v="Kvarvsveien" />
		<tag k="ssr:date" v="2019-05-30" />
		<tag k="ssr:gruppe" v="veg" />
		<tag k="ssr:hovedgruppe" v="infrastruktur" />
		<tag k="ssr:stedsnr" v="1005916" />
		<tag k="ssr:type" v="adressenavn" />
	</node>
	<node id="-681212" lat="67.6886804832" lon="15.8041695967">
		<tag k="name" v="Håkjerringnesveien" />
		<tag k="ssr:date" v="2019-05-30" />
		<tag k="ssr:gruppe" v="veg" />
		<tag k="ssr:hovedgruppe" v="infrastruktur" />
		<tag k="ssr:stedsnr" v="1002087" />
		<tag k="ssr:type" v="adressenavn" />
	</node>
	<node id="-681211" lat="67.723077617" lon="15.9010221698">
		<tag k="name" v="Mørsvikvatnet" />
		<tag k="ssr:date" v="2019-05-30" />
		<tag k="ssr:gruppe" v="veg" />
		<tag k="ssr:hovedgruppe" v="infrastruktur" />
		<tag k="ssr:stedsnr" v="1002034" />
		<tag k="ssr:type" v="adressenavn" />
	</node>
	<node id="-681210" lat="67.7105086923" lon="15.8566953313">
		<tag k="name" v="Mørsvik" />
		<tag k="ssr:date" v="2019-05-30" />
		<tag k="ssr:gruppe" v="veg" />
		<tag k="ssr:hovedgruppe" v="infrastruktur" />
		<tag k="ssr:stedsnr" v="1002012" />
		<tag k="ssr:type" v="adressenavn" />
	</node>
	<node id="-681209" lat="67.3509655371" lon="15.5773689255">
		<tag k="name" v="Strømdal" />
		<tag k="ssr:date" v="2019-05-30" />
		<tag k="ssr:gruppe" v="veg" />
		<tag k="ssr:hovedgruppe" v="infrastruktur" />
		<tag k="ssr:stedsnr" v="1000823" />
		<tag k="ssr:type" v="adressenavn" />
	</node>
	<node id="-681208" lat="67.368289194" lon="15.6270564056">
		<tag k="name" v="Hellandsveien" />
		<tag k="ssr:date" v="2019-05-30" />
		<tag k="ssr:gruppe" v="veg" />
		<tag k="ssr:hovedgruppe" v="infrastruktur" />
		<tag k="ssr:stedsnr" v="1000814" />
		<tag k="ssr:type" v="adressenavn" />
	</node>
	<node id="-681207" lat="67.375053132" lon="15.6363507387">
		<tag k="name" v="Trolldalsveien" />
		<tag k="ssr:date" v="2019-05-30" />
		<tag k="ssr:gruppe" v="veg" />
		<tag k="ssr:hovedgruppe" v="infrastruktur" />
		<tag k="ssr:stedsnr" v="1000811" />
		<tag k="ssr:type" v="adressenavn" />
	</node>
	<node id="-681206" lat="67.355919231" lon="15.6084922503">
		<tag k="name" v="Langstranda" />
		<tag k="ssr:date" v="2019-05-30" />
		<tag k="ssr:gruppe" v="veg" />
		<tag k="ssr:hovedgruppe" v="infrastruktur" />
		<tag k="ssr:stedsnr" v="1000682" />
		<tag k="ssr:type" v="adressenavn" />
	</node>
	<node id="-681205" lat="67.3510300778" lon="15.5908517793">
		<tag k="name" v="Sørfoldveien" />
		<tag k="ssr:date" v="2019-05-30" />
		<tag k="ssr:gruppe" v="veg" />
		<tag k="ssr:hovedgruppe" v="infrastruktur" />
		<tag k="ssr:stedsnr" v="1000808" />
		<tag k="ssr:type" v="adressenavn" />
	</node>
	<node id="-681213" lat="67.6854450023" lon="15.8039756306">
		<tag k="name" v="Storeidveien" />
		<tag k="ssr:date" v="2019-05-30" />
		<tag k="ssr:gruppe" v="veg" />
		<tag k="ssr:hovedgruppe" v="infrastruktur" />
		<tag k="ssr:stedsnr" v="1002089" />
		<tag k="ssr:type" v="adressenavn" />
	</node>
	<node id="-682593" lat="67.4574305585" lon="15.8011083439">
		<tag k="name" v="Sørfold" />
		<tag k="ssr:date" v="2016-05-10" />
		<tag k="ssr:gruppe" v="terrengområder" />
		<tag k="ssr:hovedgruppe" v="terreng" />
		<tag k="ssr:stedsnr" v="574808" />
		<tag k="ssr:type" v="landskapsområde" />
	</node>
	<node id="-683738" lat="68.4849327361" lon="16.2297866207">
		<tag k="fixme" v="multiple name tags, choose one and add the other to alt_name" />
		<tag k="name" v="Nord-Noreg;Nord-Norge" />
		<tag k="ssr:date" v="2017-05-18" />
		<tag k="ssr:gruppe" v="administrativeIndelinger" />
		<tag k="ssr:hovedgruppe" v="offentligAdministrasjon" />
		<tag k="ssr:stedsnr" v="976106" />
		<tag k="ssr:type" v="annenAdministrativInndeling" />
	</node>
	<node id="-682960" lat="67.3480305563" lon="15.5944472131">
		<tag k="name" v="Sørfold kommune" />
		<tag k="ssr:date" v="2016-05-11" />
		<tag k="ssr:gruppe" v="administrativeIndelinger" />
		<tag k="ssr:hovedgruppe" v="offentligAdministrasjon" />
		<tag k="ssr:stedsnr" v="693496" />
		<tag k="ssr:type" v="kommune" />
	</node>
	<node id="-682312" lat="67.6131750001" lon="15.1349722178">
		<tag k="name" v="Prestmåsøy" />
		<tag k="ssr:date" v="2016-05-10" />
		<tag k="ssr:gruppe" v="navigasjon" />
		<tag k="ssr:hovedgruppe" v="infrastruktur" />
		<tag k="ssr:stedsnr" v="502046" />
		<tag k="ssr:type" v="fyrlykt" />
	</node>
	<node id="-681219" lat="67.5741835144" lon="15.7304022941">
		<tag k="name" v="Strøksnesveien" />
		<tag k="ssr:date" v="2019-05-30" />
		<tag k="ssr:gruppe" v="veg" />
		<tag k="ssr:hovedgruppe" v="infrastruktur" />
		<tag k="ssr:stedsnr" v="1003815" />
		<tag k="ssr:type" v="adressenavn" />
	</node>
	<node id="-681238" lat="67.4822042048" lon="15.5962555019">
		<tag k="name" v="Aspfjord" />
		<tag k="ssr:date" v="2019-05-30" />
		<tag k="ssr:gruppe" v="veg" />
		<tag k="ssr:hovedgruppe" v="infrastruktur" />
		<tag k="ssr:stedsnr" v="1005928" />
		<tag k="ssr:type" v="adressenavn" />
	</node>
	<node id="-680989" lat="67.7004527742" lon="15.7959944465">
		<tag k="name" v="Håkjerringnes" />
		<tag k="ssr:date" v="2016-05-10" />
		<tag k="ssr:gruppe" v="navigasjon" />
		<tag k="ssr:hovedgruppe" v="infrastruktur" />
		<tag k="ssr:stedsnr" v="358329" />
		<tag k="ssr:type" v="fyrlykt" />
	</node>
	<node id="-681253" lat="67.4785029301" lon="15.4637889331">
		<tag k="name" v="Nesveien" />
		<tag k="ssr:date" v="2019-05-30" />
		<tag k="ssr:gruppe" v="veg" />
		<tag k="ssr:hovedgruppe" v="infrastruktur" />
		<tag k="ssr:stedsnr" v="1006879" />
		<tag k="ssr:type" v="adressenavn" />
	</node>
	<node id="-681252" lat="67.4348392406" lon="15.5018215779">
		<tag k="name" v="Kinesveien" />
		<tag k="ssr:date" v="2019-05-30" />
		<tag k="ssr:gruppe" v="veg" />
		<tag k="ssr:hovedgruppe" v="infrastruktur" />
		<tag k="ssr:stedsnr" v="1006876" />
		<tag k="ssr:type" v="adressenavn" />
	</node>
	<node id="-681251" lat="67.4798939222" lon="15.4540828898">
		<tag k="name" v="Røsvikdalen" />
		<tag k="ssr:date" v="2019-05-30" />
		<tag k="ssr:gruppe" v="veg" />
		<tag k="ssr:hovedgruppe" v="infrastruktur" />
		<tag k="ssr:stedsnr" v="1006870" />
		<tag k="ssr:type" v="adressenavn" />
	</node>
	<node id="-681250" lat="67.3606743125" lon="15.5212874982">
		<tag k="name" v="Røsvikveien" />
		<tag k="ssr:date" v="2019-05-30" />
		<tag k="ssr:gruppe" v="veg" />
		<tag k="ssr:hovedgruppe" v="infrastruktur" />
		<tag k="ssr:stedsnr" v="1006862" />
		<tag k="ssr:type" v="adressenavn" />
	</node>
	<node id="-681249" lat="67.4817751151" lon="15.4549845789">
		<tag k="name" v="Jektvollen" />
		<tag k="ssr:date" v="2019-05-30" />
		<tag k="ssr:gruppe" v="veg" />
		<tag k="ssr:hovedgruppe" v="infrastruktur" />
		<tag k="ssr:stedsnr" v="1006818" />
		<tag k="ssr:type" v="adressenavn" />
	</node>
	<node id="-681248" lat="67.4830924601" lon="15.4554309989">
		<tag k="name" v="Bordstollia" />
		<tag k="ssr:date" v="2019-05-30" />
		<tag k="ssr:gruppe" v="veg" />
		<tag k="ssr:hovedgruppe" v="infrastruktur" />
		<tag k="ssr:stedsnr" v="1006817" />
		<tag k="ssr:type" v="adressenavn" />
	</node>
	<node id="-681247" lat="67.7058343821" lon="15.8499814453">
		<tag k="name" v="Mørsvikveien" />
		<tag k="ssr:date" v="2019-05-30" />
		<tag k="ssr:gruppe" v="veg" />
		<tag k="ssr:hovedgruppe" v="infrastruktur" />
		<tag k="ssr:stedsnr" v="1006816" />
		<tag k="ssr:type" v="adressenavn" />
	</node>
	<node id="-681246" lat="67.431584974" lon="15.6897047713">
		<tag k="name" v="Laksholveien" />
		<tag k="ssr:date" v="2019-05-30" />
		<tag k="ssr:gruppe" v="veg" />
		<tag k="ssr:hovedgruppe" v="infrastruktur" />
		<tag k="ssr:stedsnr" v="1006599" />
		<tag k="ssr:type" v="adressenavn" />
	</node>
	<node id="-681245" lat="67.436647703" lon="15.7207206112">
		<tag k="name" v="Nordfjordveien" />
		<tag k="ssr:date" v="2019-05-30" />
		<tag k="ssr:gruppe" v="veg" />
		<tag k="ssr:hovedgruppe" v="infrastruktur" />
		<tag k="ssr:stedsnr" v="1006591" />
		<tag k="ssr:type" v="adressenavn" />
	</node>
	<node id="-681244" lat="67.3931478085" lon="15.6851224401">
		<tag k="name" v="Andkilen" />
		<tag k="ssr:date" v="2019-05-30" />
		<tag k="ssr:gruppe" v="veg" />
		<tag k="ssr:hovedgruppe" v="infrastruktur" />
		<tag k="ssr:stedsnr" v="1006514" />
		<tag k="ssr:type" v="adressenavn" />
	</node>
	<node id="-681243" lat="67.402309879" lon="15.6684680559">
		<tag k="name" v="Buvikveien" />
		<tag k="ssr:date" v="2019-05-30" />
		<tag k="ssr:gruppe" v="veg" />
		<tag k="ssr:hovedgruppe" v="infrastruktur" />
		<tag k="ssr:stedsnr" v="1006507" />
		<tag k="ssr:type" v="adressenavn" />
	</node>
	<node id="-681242" lat="67.4044347433" lon="15.6687374882">
		<tag k="name" v="Lappelvveien" />
		<tag k="ssr:date" v="2019-05-30" />
		<tag k="ssr:gruppe" v="veg" />
		<tag k="ssr:hovedgruppe" v="infrastruktur" />
		<tag k="ssr:stedsnr" v="1006497" />
		<tag k="ssr:type" v="adressenavn" />
	</node>
	<node id="-682649" lat="67.4091916692" lon="15.5796972326">
		<tag k="name" v="Skjærholmen" />
		<tag k="ssr:date" v="2016-05-10" />
		<tag k="ssr:gruppe" v="navigasjon" />
		<tag k="ssr:hovedgruppe" v="infrastruktur" />
		<tag k="ssr:stedsnr" v="622939" />
		<tag k="ssr:type" v="fyrlykt" />
	</node>
	<node id="-681240" lat="67.4629989943" lon="15.5637192793">
		<tag k="name" v="Sjybakkan" />
		<tag k="ssr:date" v="2019-05-30" />
		<tag k="ssr:gruppe" v="veg" />
		<tag k="ssr:hovedgruppe" v="infrastruktur" />
		<tag k="ssr:stedsnr" v="1005936" />
		<tag k="ssr:type" v="adressenavn" />
	</node>
	<node id="-681239" lat="67.4422475219" lon="15.5543045803">
		<tag k="name" v="Gyltvikveien" />
		<tag k="ssr:date" v="2019-05-30" />
		<tag k="ssr:gruppe" v="veg" />
		<tag k="ssr:hovedgruppe" v="infrastruktur" />
		<tag k="ssr:stedsnr" v="1005932" />
		<tag k="ssr:type" v="adressenavn" />
	</node>
	<node id="-683030" lat="67.4855527816" lon="15.4800527803">
		<tag k="name" v="Røsvik" />
		<tag k="ssr:date" v="2016-05-11" />
		<tag k="ssr:gruppe" v="navigasjon" />
		<tag k="ssr:hovedgruppe" v="infrastruktur" />
		<tag k="ssr:stedsnr" v="744579" />
		<tag k="ssr:type" v="fyrlykt" />
	</node>
	<node id="-681241" lat="67.4416754829" lon="15.7318274188">
		<tag k="name" v="Bakken" />
		<tag k="ssr:date" v="2019-05-30" />
		<tag k="ssr:gruppe" v="veg" />
		<tag k="ssr:hovedgruppe" v="infrastruktur" />
		<tag k="ssr:stedsnr" v="1006479" />
		<tag k="ssr:type" v="adressenavn" />
	</node>
	<node id="-681236" lat="67.4810566953" lon="15.5936294693">
		<tag k="name" v="Aspenesveien" />
		<tag k="ssr:date" v="2019-05-30" />
		<tag k="ssr:gruppe" v="veg" />
		<tag k="ssr:hovedgruppe" v="infrastruktur" />
		<tag k="ssr:stedsnr" v="1005905" />
		<tag k="ssr:type" v="adressenavn" />
	</node>
	<node id="-681235" lat="67.5470466055" lon="15.6635240519">
		<tag k="name" v="Sommerset" />
		<tag k="ssr:date" v="2019-05-30" />
		<tag k="ssr:gruppe" v="veg" />
		<tag k="ssr:hovedgruppe" v="infrastruktur" />
		<tag k="ssr:stedsnr" v="1005898" />
		<tag k="ssr:type" v="adressenavn" />
	</node>
	<node id="-681234" lat="67.4517945035" lon="15.5211549756">
		<tag k="name" v="Ner-Kvarvsveien" />
		<tag k="ssr:date" v="2019-05-30" />
		<tag k="ssr:gruppe" v="veg" />
		<tag k="ssr:hovedgruppe" v="infrastruktur" />
		<tag k="ssr:stedsnr" v="1005866" />
		<tag k="ssr:type" v="adressenavn" />
	</node>
	<node id="-681233" lat="67.4606948605" lon="15.5607891723">
		<tag k="name" v="Trollhågveien" />
		<tag k="ssr:date" v="2019-05-30" />
		<tag k="ssr:gruppe" v="veg" />
		<tag k="ssr:hovedgruppe" v="infrastruktur" />
		<tag k="ssr:stedsnr" v="1005865" />
		<tag k="ssr:type" v="adressenavn" />
	</node>
	<node id="-681232" lat="67.463010923" lon="15.5679982251">
		<tag k="name" v="Blomanveien" />
		<tag k="ssr:date" v="2019-05-30" />
		<tag k="ssr:gruppe" v="veg" />
		<tag k="ssr:hovedgruppe" v="infrastruktur" />
		<tag k="ssr:stedsnr" v="1005863" />
		<tag k="ssr:type" v="adressenavn" />
	</node>
	<node id="-681231" lat="67.4639242787" lon="15.5735380935">
		<tag k="name" v="Einmoen" />
		<tag k="ssr:date" v="2019-05-30" />
		<tag k="ssr:gruppe" v="veg" />
		<tag k="ssr:hovedgruppe" v="infrastruktur" />
		<tag k="ssr:stedsnr" v="1005861" />
		<tag k="ssr:type" v="adressenavn" />
	</node>
	<node id="-681230" lat="67.6247203272" lon="15.9314237375">
		<tag k="name" v="Kobbvassveien" />
		<tag k="ssr:date" v="2019-05-30" />
		<tag k="ssr:gruppe" v="veg" />
		<tag k="ssr:hovedgruppe" v="infrastruktur" />
		<tag k="ssr:stedsnr" v="1005259" />
		<tag k="ssr:type" v="adressenavn" />
	</node>
	<node id="-681229" lat="67.6559746269" lon="15.9997718914">
		<tag k="name" v="Gjerdalsveien" />
		<tag k="ssr:date" v="2019-05-30" />
		<tag k="ssr:gruppe" v="veg" />
		<tag k="ssr:hovedgruppe" v="infrastruktur" />
		<tag k="ssr:stedsnr" v="1005256" />
		<tag k="ssr:type" v="adressenavn" />
	</node>
	<node id="-681228" lat="67.5933480002" lon="15.9390857011">
		<tag k="name" v="Kobbelveidet" />
		<tag k="ssr:date" v="2019-05-30" />
		<tag k="ssr:gruppe" v="veg" />
		<tag k="ssr:hovedgruppe" v="infrastruktur" />
		<tag k="ssr:stedsnr" v="1005255" />
		<tag k="ssr:type" v="adressenavn" />
	</node>
	<node id="-681227" lat="67.5929781526" lon="15.8629115284">
		<tag k="name" v="Leirfjordveien" />
		<tag k="ssr:date" v="2019-05-30" />
		<tag k="ssr:gruppe" v="veg" />
		<tag k="ssr:hovedgruppe" v="infrastruktur" />
		<tag k="ssr:stedsnr" v="1005251" />
		<tag k="ssr:type" v="adressenavn" />
	</node>
	<node id="-681226" lat="67.5893421535" lon="15.876436726">
		<tag k="name" v="Kobbelva" />
		<tag k="ssr:date" v="2019-05-30" />
		<tag k="ssr:gruppe" v="veg" />
		<tag k="ssr:hovedgruppe" v="infrastruktur" />
		<tag k="ssr:stedsnr" v="1005066" />
		<tag k="ssr:type" v="adressenavn" />
	</node>
	<node id="-681225" lat="67.5755779273" lon="15.892850695">
		<tag k="name" v="Steinveien" />
		<tag k="ssr:date" v="2019-05-30" />
		<tag k="ssr:gruppe" v="veg" />
		<tag k="ssr:hovedgruppe" v="infrastruktur" />
		<tag k="ssr:stedsnr" v="1005022" />
		<tag k="ssr:type" v="adressenavn" />
	</node>
	<node id="-681224" lat="67.5772405129" lon="15.8862919266">
		<tag k="name" v="Sørfjordmoen" />
		<tag k="ssr:date" v="2019-05-30" />
		<tag k="ssr:gruppe" v="veg" />
		<tag k="ssr:hovedgruppe" v="infrastruktur" />
		<tag k="ssr:stedsnr" v="1005008" />
		<tag k="ssr:type" v="adressenavn" />
	</node>
	<node id="-681223" lat="67.5937400855" lon="15.8753153913">
		<tag k="name" v="Kobbelvsletta" />
		<tag k="ssr:date" v="2019-05-30" />
		<tag k="ssr:gruppe" v="veg" />
		<tag k="ssr:hovedgruppe" v="infrastruktur" />
		<tag k="ssr:stedsnr" v="1004974" />
		<tag k="ssr:type" v="adressenavn" />
	</node>
	<node id="-681222" lat="67.5931665669" lon="15.8768693627">
		<tag k="name" v="Elvkroken" />
		<tag k="ssr:date" v="2019-05-30" />
		<tag k="ssr:gruppe" v="veg" />
		<tag k="ssr:hovedgruppe" v="infrastruktur" />
		<tag k="ssr:stedsnr" v="1004964" />
		<tag k="ssr:type" v="adressenavn" />
	</node>
	<node id="-681221" lat="67.58250156" lon="15.8833125207">
		<tag k="name" v="Kobbhammaren" />
		<tag k="ssr:date" v="2019-05-30" />
		<tag k="ssr:gruppe" v="veg" />
		<tag k="ssr:hovedgruppe" v="infrastruktur" />
		<tag k="ssr:stedsnr" v="1005127" />
		<tag k="ssr:type" v="adressenavn" />
	</node>
	<node id="-681220" lat="67.5797515318" lon="15.8940655673">
		<tag k="name" v="Sørfjordskar" />
		<tag k="ssr:date" v="2019-05-30" />
		<tag k="ssr:gruppe" v="veg" />
		<tag k="ssr:hovedgruppe" v="infrastruktur" />
		<tag k="ssr:stedsnr" v="1005112" />
		<tag k="ssr:type" v="adressenavn" />
	</node>
	<node id="-682883" lat="67.5091833348" lon="15.285072218">
		<tag k="name" v="Jovika" />
		<tag k="ssr:date" v="2016-05-11" />
		<tag k="ssr:gruppe" v="navigasjon" />
		<tag k="ssr:hovedgruppe" v="infrastruktur" />
		<tag k="ssr:stedsnr" v="684958" />
		<tag k="ssr:type" v="fyrlykt" />
	</node>
	<node id="-681218" lat="67.5157146603" lon="15.5159266343">
		<tag k="name" v="Vollanveien" />
		<tag k="ssr:date" v="2019-05-30" />
		<tag k="ssr:gruppe" v="veg" />
		<tag k="ssr:hovedgruppe" v="infrastruktur" />
		<tag k="ssr:stedsnr" v="1003691" />
		<tag k="ssr:type" v="adressenavn" />
	</node>
	<node id="-681217" lat="67.5238607041" lon="15.4954292231">
		<tag k="name" v="Øvermo" />
		<tag k="ssr:date" v="2019-05-30" />
		<tag k="ssr:gruppe" v="veg" />
		<tag k="ssr:hovedgruppe" v="infrastruktur" />
		<tag k="ssr:stedsnr" v="1003683" />
		<tag k="ssr:type" v="adressenavn" />
	</node>
</osm>
