<?xml version="1.0" encoding="UTF-8"?>
<osm version="0.6" generator="osmapis">
	<node lat="59.53965555246234" lon="9.440883337914341" id="-48077">
		<tag k="name" v="Monsvassvegen" />
		<tag k="ssr:date" v="2019-12-27" />
		<tag k="ssr:gruppe" v="veg" />
		<tag k="ssr:hovedgruppe" v="infrastruktur" />
		<tag k="ssr:stedsnr" v="43730" />
		<tag k="ssr:type" v="vegstrekning" />
	</node>
	<node lat="59.559919448492174" lon="9.26031111924114" id="-48441">
		<tag k="name" v="Notodden kommune" />
		<tag k="ssr:date" v="2019-12-27" />
		<tag k="ssr:gruppe" v="administrativeIndelinger" />
		<tag k="ssr:hovedgruppe" v="offentligAdministrasjon" />
		<tag k="ssr:stedsnr" v="267682" />
		<tag k="ssr:type" v="kommune" />
	</node>
	<node lat="59.52080833686518" lon="9.425402780967104" id="-48459">
		<tag k="name" v="Taklåsvegen" />
		<tag k="ssr:date" v="2019-12-27" />
		<tag k="ssr:gruppe" v="veg" />
		<tag k="ssr:hovedgruppe" v="infrastruktur" />
		<tag k="ssr:stedsnr" v="225404" />
		<tag k="ssr:type" v="vegstrekning" />
	</node>
	<node lat="59.53747500143362" lon="9.412338891175448" id="-48710">
		<tag k="name" v="Kollset-vegen" />
		<tag k="ssr:date" v="2019-12-27" />
		<tag k="ssr:gruppe" v="veg" />
		<tag k="ssr:hovedgruppe" v="infrastruktur" />
		<tag k="ssr:stedsnr" v="468655" />
		<tag k="ssr:type" v="vegstrekning" />
	</node>
	<node lat="59.5335027799311" lon="9.434505547567719" id="-48711">
		<tag k="name" v="Murtetjønnvegen" />
		<tag k="ssr:date" v="2019-12-27" />
		<tag k="ssr:gruppe" v="veg" />
		<tag k="ssr:hovedgruppe" v="infrastruktur" />
		<tag k="ssr:stedsnr" v="468724" />
		<tag k="ssr:type" v="vegstrekning" />
	</node>
	<node lat="59.50894166633469" lon="9.464441668885062" id="-48894">
		<tag k="name" v="Skulsbuvegen" />
		<tag k="ssr:date" v="2019-12-27" />
		<tag k="ssr:gruppe" v="veg" />
		<tag k="ssr:hovedgruppe" v="infrastruktur" />
		<tag k="ssr:stedsnr" v="407749" />
		<tag k="ssr:type" v="vegstrekning" />
	</node>
	<node lat="59.62281944749671" lon="9.043602773224942" id="-49306">
		<tag k="name" v="Køyvinglivegen" />
		<tag k="ssr:date" v="2019-12-27" />
		<tag k="ssr:gruppe" v="veg" />
		<tag k="ssr:hovedgruppe" v="infrastruktur" />
		<tag k="ssr:stedsnr" v="591207" />
		<tag k="ssr:type" v="vegstrekning" />
	</node>
	<node lat="59.516888533413166" lon="9.43898545602357" id="-50083">
		<tag k="name" v="Golidvegen" />
		<tag k="ssr:date" v="2019-12-27" />
		<tag k="ssr:gruppe" v="veg" />
		<tag k="ssr:hovedgruppe" v="infrastruktur" />
		<tag k="ssr:stedsnr" v="976842" />
		<tag k="ssr:type" v="adressenavn" />
	</node>
	<node lat="59.52043848498332" lon="9.346560940854717" id="-50084">
		<tag k="name" v="Askmyra" />
		<tag k="ssr:date" v="2019-12-27" />
		<tag k="ssr:gruppe" v="veg" />
		<tag k="ssr:hovedgruppe" v="infrastruktur" />
		<tag k="ssr:stedsnr" v="976759" />
		<tag k="ssr:type" v="adressenavn" />
	</node>
	<node lat="59.52248031148144" lon="9.45947378377371" id="-50085">
		<tag k="name" v="Bjønndalsvegen" />
		<tag k="ssr:date" v="2019-12-27" />
		<tag k="ssr:gruppe" v="veg" />
		<tag k="ssr:hovedgruppe" v="infrastruktur" />
		<tag k="ssr:stedsnr" v="976761" />
		<tag k="ssr:type" v="adressenavn" />
	</node>
	<node lat="59.51991704670044" lon="9.457229666354797" id="-50086">
		<tag k="name" v="Killingdalsvegen" />
		<tag k="ssr:date" v="2019-12-27" />
		<tag k="ssr:gruppe" v="veg" />
		<tag k="ssr:hovedgruppe" v="infrastruktur" />
		<tag k="ssr:stedsnr" v="976768" />
		<tag k="ssr:type" v="adressenavn" />
	</node>
	<node lat="59.52247361843151" lon="9.420969876463557" id="-50087">
		<tag k="name" v="Kollsetvegen" />
		<tag k="ssr:date" v="2019-12-27" />
		<tag k="ssr:gruppe" v="veg" />
		<tag k="ssr:hovedgruppe" v="infrastruktur" />
		<tag k="ssr:stedsnr" v="976769" />
		<tag k="ssr:type" v="adressenavn" />
	</node>
	<node lat="59.51407528196507" lon="9.443997958337505" id="-50088">
		<tag k="name" v="Kringletjønnvegen" />
		<tag k="ssr:date" v="2019-12-27" />
		<tag k="ssr:gruppe" v="veg" />
		<tag k="ssr:hovedgruppe" v="infrastruktur" />
		<tag k="ssr:stedsnr" v="976772" />
		<tag k="ssr:type" v="adressenavn" />
	</node>
	<node lat="59.49369983480433" lon="9.336737710427293" id="-50089">
		<tag k="name" v="Slettavegen" />
		<tag k="ssr:date" v="2019-12-27" />
		<tag k="ssr:gruppe" v="veg" />
		<tag k="ssr:hovedgruppe" v="infrastruktur" />
		<tag k="ssr:stedsnr" v="976777" />
		<tag k="ssr:type" v="adressenavn" />
	</node>
	<node lat="59.540143077827565" lon="9.396365933472973" id="-50090">
		<tag k="name" v="Taklåsvegen" />
		<tag k="ssr:date" v="2019-12-27" />
		<tag k="ssr:gruppe" v="veg" />
		<tag k="ssr:hovedgruppe" v="infrastruktur" />
		<tag k="ssr:stedsnr" v="976784" />
		<tag k="ssr:type" v="adressenavn" />
	</node>
	<node lat="59.51833333601351" lon="9.389638892130826" id="-50698">
		<tag k="name" v="Gamle Stulsvegen" />
		<tag k="ssr:date" v="2019-12-27" />
		<tag k="ssr:gruppe" v="veg" />
		<tag k="ssr:hovedgruppe" v="infrastruktur" />
		<tag k="ssr:stedsnr" v="286567" />
		<tag k="ssr:type" v="vegstrekning" />
	</node>
	<node lat="59.549374999413665" lon="9.431055558335881" id="-51001">
		<tag k="name" v="Breisetvegen" />
		<tag k="ssr:date" v="2019-12-27" />
		<tag k="ssr:gruppe" v="veg" />
		<tag k="ssr:hovedgruppe" v="infrastruktur" />
		<tag k="ssr:stedsnr" v="407686" />
		<tag k="ssr:type" v="vegstrekning" />
	</node>
	<node lat="59.758047225855385" lon="9.123697220638498" id="-51448">
		<tag k="name" v="Primbakke" />
		<tag k="ssr:date" v="2019-12-27" />
		<tag k="ssr:gruppe" v="veg" />
		<tag k="ssr:hovedgruppe" v="infrastruktur" />
		<tag k="ssr:stedsnr" v="648569" />
		<tag k="ssr:type" v="vegstrekning" />
	</node>
	<node lat="59.628469443917595" lon="9.018936119402717" id="-51763">
		<tag k="name" v="Bekkestulvegen" />
		<tag k="ssr:date" v="2019-12-27" />
		<tag k="ssr:gruppe" v="veg" />
		<tag k="ssr:hovedgruppe" v="infrastruktur" />
		<tag k="ssr:stedsnr" v="773230" />
		<tag k="ssr:type" v="vegstrekning" />
	</node>
	<node lat="59.62054722451216" lon="9.043699996602962" id="-51766">
		<tag k="name" v="Hålåstulvegen" />
		<tag k="ssr:date" v="2019-12-27" />
		<tag k="ssr:gruppe" v="veg" />
		<tag k="ssr:hovedgruppe" v="infrastruktur" />
		<tag k="ssr:stedsnr" v="773256" />
		<tag k="ssr:type" v="vegstrekning" />
	</node>
	<node lat="59.5642225241248" lon="9.280078366330814" id="-52173">
		<tag k="name" v="Lars Fykeruds veg" />
		<tag k="ssr:date" v="2019-12-27" />
		<tag k="ssr:gruppe" v="veg" />
		<tag k="ssr:hovedgruppe" v="infrastruktur" />
		<tag k="ssr:stedsnr" v="1048241" />
		<tag k="ssr:type" v="adressenavn" />
	</node>
	<node lat="59.56912031593588" lon="9.259214797947749" id="-52174">
		<tag k="name" v="Langkåsveien" />
		<tag k="ssr:date" v="2019-12-27" />
		<tag k="ssr:gruppe" v="veg" />
		<tag k="ssr:hovedgruppe" v="infrastruktur" />
		<tag k="ssr:stedsnr" v="1048263" />
		<tag k="ssr:type" v="adressenavn" />
	</node>
	<node lat="59.557629154390334" lon="9.281004255070552" id="-52175">
		<tag k="name" v="Arne Garborgs gate" />
		<tag k="ssr:date" v="2019-12-27" />
		<tag k="ssr:gruppe" v="veg" />
		<tag k="ssr:hovedgruppe" v="infrastruktur" />
		<tag k="ssr:stedsnr" v="1047387" />
		<tag k="ssr:type" v="adressenavn" />
	</node>
	<node lat="59.56849794826983" lon="9.255953712185955" id="-52176">
		<tag k="name" v="Anundskåsveien" />
		<tag k="ssr:date" v="2019-12-27" />
		<tag k="ssr:gruppe" v="veg" />
		<tag k="ssr:hovedgruppe" v="infrastruktur" />
		<tag k="ssr:stedsnr" v="1047389" />
		<tag k="ssr:type" v="adressenavn" />
	</node>
	<node lat="59.563208215862154" lon="9.282827530990563" id="-52177">
		<tag k="name" v="Anna Helgesens vei" />
		<tag k="ssr:date" v="2019-12-27" />
		<tag k="ssr:gruppe" v="veg" />
		<tag k="ssr:hovedgruppe" v="infrastruktur" />
		<tag k="ssr:stedsnr" v="1047364" />
		<tag k="ssr:type" v="adressenavn" />
	</node>
	<node lat="59.57049313308931" lon="9.25954270517842" id="-52178">
		<tag k="name" v="Anders Buens gate" />
		<tag k="ssr:date" v="2019-12-27" />
		<tag k="ssr:gruppe" v="veg" />
		<tag k="ssr:hovedgruppe" v="infrastruktur" />
		<tag k="ssr:stedsnr" v="1047367" />
		<tag k="ssr:type" v="adressenavn" />
	</node>
	<node lat="59.5728675578013" lon="9.194299719823828" id="-52179">
		<tag k="name" v="Amund Klokkars veg" />
		<tag k="ssr:date" v="2019-12-27" />
		<tag k="ssr:gruppe" v="veg" />
		<tag k="ssr:hovedgruppe" v="infrastruktur" />
		<tag k="ssr:stedsnr" v="1047368" />
		<tag k="ssr:type" v="adressenavn" />
	</node>
	<node lat="59.552882615951624" lon="9.28213609711295" id="-52180">
		<tag k="name" v="Amtmann Aalls gate" />
		<tag k="ssr:date" v="2019-12-27" />
		<tag k="ssr:gruppe" v="veg" />
		<tag k="ssr:hovedgruppe" v="infrastruktur" />
		<tag k="ssr:stedsnr" v="1047369" />
		<tag k="ssr:type" v="adressenavn" />
	</node>
	<node lat="59.56638796183863" lon="9.299361624971326" id="-52181">
		<tag k="name" v="Alf Andersens veg" />
		<tag k="ssr:date" v="2019-12-27" />
		<tag k="ssr:gruppe" v="veg" />
		<tag k="ssr:hovedgruppe" v="infrastruktur" />
		<tag k="ssr:stedsnr" v="1047371" />
		<tag k="ssr:type" v="adressenavn" />
	</node>
	<node lat="59.56172511073582" lon="9.27793314011039" id="-52182">
		<tag k="name" v="Abels gate" />
		<tag k="ssr:date" v="2019-12-27" />
		<tag k="ssr:gruppe" v="veg" />
		<tag k="ssr:hovedgruppe" v="infrastruktur" />
		<tag k="ssr:stedsnr" v="1047375" />
		<tag k="ssr:type" v="adressenavn" />
	</node>
	<node lat="59.57082634090556" lon="9.252365437755204" id="-52183">
		<tag k="name" v="Bergstuguvegen" />
		<tag k="ssr:date" v="2019-12-27" />
		<tag k="ssr:gruppe" v="veg" />
		<tag k="ssr:hovedgruppe" v="infrastruktur" />
		<tag k="ssr:stedsnr" v="1047377" />
		<tag k="ssr:type" v="adressenavn" />
	</node>
	<node lat="59.56351810564318" lon="9.269367700787766" id="-52184">
		<tag k="name" v="Bakkegata" />
		<tag k="ssr:date" v="2019-12-27" />
		<tag k="ssr:gruppe" v="veg" />
		<tag k="ssr:hovedgruppe" v="infrastruktur" />
		<tag k="ssr:stedsnr" v="1047380" />
		<tag k="ssr:type" v="adressenavn" />
	</node>
	<node lat="59.574096495095354" lon="9.204005441709107" id="-52185">
		<tag k="name" v="Badstuguvegen" />
		<tag k="ssr:date" v="2019-12-27" />
		<tag k="ssr:gruppe" v="veg" />
		<tag k="ssr:hovedgruppe" v="infrastruktur" />
		<tag k="ssr:stedsnr" v="1047382" />
		<tag k="ssr:type" v="adressenavn" />
	</node>
	<node lat="59.5641389263561" lon="9.276352097774414" id="-52186">
		<tag k="name" v="Asbjørn Knutsens gate" />
		<tag k="ssr:date" v="2019-12-27" />
		<tag k="ssr:gruppe" v="veg" />
		<tag k="ssr:hovedgruppe" v="infrastruktur" />
		<tag k="ssr:stedsnr" v="1047383" />
		<tag k="ssr:type" v="adressenavn" />
	</node>
	<node lat="59.57391621621669" lon="9.258265751006101" id="-52187">
		<tag k="name" v="Asbjørn Klosters gate" />
		<tag k="ssr:date" v="2019-12-27" />
		<tag k="ssr:gruppe" v="veg" />
		<tag k="ssr:hovedgruppe" v="infrastruktur" />
		<tag k="ssr:stedsnr" v="1047385" />
		<tag k="ssr:type" v="adressenavn" />
	</node>
	<node lat="59.572954819048945" lon="9.264613922448428" id="-52188">
		<tag k="name" v="Kanalbyen" />
		<tag k="ssr:date" v="2019-12-27" />
		<tag k="ssr:gruppe" v="veg" />
		<tag k="ssr:hovedgruppe" v="infrastruktur" />
		<tag k="ssr:stedsnr" v="1047536" />
		<tag k="ssr:type" v="adressenavn" />
	</node>
	<node lat="59.58363365372901" lon="9.262460081901407" id="-52189">
		<tag k="name" v="Juvbekkvegen" />
		<tag k="ssr:date" v="2019-12-27" />
		<tag k="ssr:gruppe" v="veg" />
		<tag k="ssr:hovedgruppe" v="infrastruktur" />
		<tag k="ssr:stedsnr" v="1047548" />
		<tag k="ssr:type" v="adressenavn" />
	</node>
	<node lat="59.55211668448807" lon="9.28086934213717" id="-52190">
		<tag k="name" v="Jonas Lies gate" />
		<tag k="ssr:date" v="2019-12-27" />
		<tag k="ssr:gruppe" v="veg" />
		<tag k="ssr:hovedgruppe" v="infrastruktur" />
		<tag k="ssr:stedsnr" v="1047560" />
		<tag k="ssr:type" v="adressenavn" />
	</node>
	<node lat="59.594659745108785" lon="9.267310278637478" id="-52191">
		<tag k="name" v="Kloumannveien" />
		<tag k="ssr:date" v="2019-12-27" />
		<tag k="ssr:gruppe" v="veg" />
		<tag k="ssr:hovedgruppe" v="infrastruktur" />
		<tag k="ssr:stedsnr" v="1047568" />
		<tag k="ssr:type" v="adressenavn" />
	</node>
	<node lat="59.56015987117377" lon="9.269685347153416" id="-52192">
		<tag k="name" v="Kattekleiv" />
		<tag k="ssr:date" v="2019-12-27" />
		<tag k="ssr:gruppe" v="veg" />
		<tag k="ssr:hovedgruppe" v="infrastruktur" />
		<tag k="ssr:stedsnr" v="1047512" />
		<tag k="ssr:type" v="adressenavn" />
	</node>
	<node lat="59.57246497648775" lon="9.205722463518919" id="-52193">
		<tag k="name" v="Kasinvegen" />
		<tag k="ssr:date" v="2019-12-27" />
		<tag k="ssr:gruppe" v="veg" />
		<tag k="ssr:hovedgruppe" v="infrastruktur" />
		<tag k="ssr:stedsnr" v="1047514" />
		<tag k="ssr:type" v="adressenavn" />
	</node>
	<node lat="59.564161388583415" lon="9.2641135725699" id="-52194">
		<tag k="name" v="Kanalveien" />
		<tag k="ssr:date" v="2019-12-27" />
		<tag k="ssr:gruppe" v="veg" />
		<tag k="ssr:hovedgruppe" v="infrastruktur" />
		<tag k="ssr:stedsnr" v="1047522" />
		<tag k="ssr:type" v="adressenavn" />
	</node>
	<node lat="59.5650654354357" lon="9.28237696060567" id="-52195">
		<tag k="name" v="Kjærlighetsstien" />
		<tag k="ssr:date" v="2019-12-27" />
		<tag k="ssr:gruppe" v="veg" />
		<tag k="ssr:hovedgruppe" v="infrastruktur" />
		<tag k="ssr:stedsnr" v="1047590" />
		<tag k="ssr:type" v="adressenavn" />
	</node>
	<node lat="59.5763293238032" lon="9.202227036188221" id="-52196">
		<tag k="name" v="Kjeiks veg" />
		<tag k="ssr:date" v="2019-12-27" />
		<tag k="ssr:gruppe" v="veg" />
		<tag k="ssr:hovedgruppe" v="infrastruktur" />
		<tag k="ssr:stedsnr" v="1047599" />
		<tag k="ssr:type" v="adressenavn" />
	</node>
	<node lat="59.56555852163428" lon="9.297691794026013" id="-52197">
		<tag k="name" v="Johan Badens veg" />
		<tag k="ssr:date" v="2019-12-27" />
		<tag k="ssr:gruppe" v="veg" />
		<tag k="ssr:hovedgruppe" v="infrastruktur" />
		<tag k="ssr:stedsnr" v="1047636" />
		<tag k="ssr:type" v="adressenavn" />
	</node>
	<node lat="59.563823829849234" lon="9.28216758980231" id="-52198">
		<tag k="name" v="Jacob Hogstads vei" />
		<tag k="ssr:date" v="2019-12-27" />
		<tag k="ssr:gruppe" v="veg" />
		<tag k="ssr:hovedgruppe" v="infrastruktur" />
		<tag k="ssr:stedsnr" v="1047637" />
		<tag k="ssr:type" v="adressenavn" />
	</node>
	<node lat="59.55735342159558" lon="9.282970154752864" id="-52199">
		<tag k="name" v="Ivar Aasens gate" />
		<tag k="ssr:date" v="2019-12-27" />
		<tag k="ssr:gruppe" v="veg" />
		<tag k="ssr:hovedgruppe" v="infrastruktur" />
		<tag k="ssr:stedsnr" v="1047640" />
		<tag k="ssr:type" v="adressenavn" />
	</node>
	<node lat="59.567994856525324" lon="9.217465182760053" id="-52200">
		<tag k="name" v="Inger Floods veg" />
		<tag k="ssr:date" v="2019-12-27" />
		<tag k="ssr:gruppe" v="veg" />
		<tag k="ssr:hovedgruppe" v="infrastruktur" />
		<tag k="ssr:stedsnr" v="1047642" />
		<tag k="ssr:type" v="adressenavn" />
	</node>
	<node lat="59.563051700522905" lon="9.29809243039134" id="-52201">
		<tag k="name" v="Ingebjørg Sørensens veg" />
		<tag k="ssr:date" v="2019-12-27" />
		<tag k="ssr:gruppe" v="veg" />
		<tag k="ssr:hovedgruppe" v="infrastruktur" />
		<tag k="ssr:stedsnr" v="1047643" />
		<tag k="ssr:type" v="adressenavn" />
	</node>
	<node lat="59.55919779785774" lon="9.260382304249395" id="-52202">
		<tag k="name" v="Industrigata" />
		<tag k="ssr:date" v="2019-12-27" />
		<tag k="ssr:gruppe" v="veg" />
		<tag k="ssr:hovedgruppe" v="infrastruktur" />
		<tag k="ssr:stedsnr" v="1047644" />
		<tag k="ssr:type" v="adressenavn" />
	</node>
	<node lat="59.57111765928265" lon="9.269837392961657" id="-52203">
		<tag k="name" v="Idrettsveien" />
		<tag k="ssr:date" v="2019-12-27" />
		<tag k="ssr:gruppe" v="veg" />
		<tag k="ssr:hovedgruppe" v="infrastruktur" />
		<tag k="ssr:stedsnr" v="1047646" />
		<tag k="ssr:type" v="adressenavn" />
	</node>
	<node lat="59.565293003198825" lon="9.267852701637207" id="-52204">
		<tag k="name" v="Lisleheradvegen" />
		<tag k="ssr:date" v="2019-12-27" />
		<tag k="ssr:gruppe" v="veg" />
		<tag k="ssr:hovedgruppe" v="infrastruktur" />
		<tag k="ssr:stedsnr" v="1047654" />
		<tag k="ssr:type" v="adressenavn" />
	</node>
	<node lat="59.56192717743317" lon="9.270857564478554" id="-52205">
		<tag k="name" v="Linbursdokka" />
		<tag k="ssr:date" v="2019-12-27" />
		<tag k="ssr:gruppe" v="veg" />
		<tag k="ssr:hovedgruppe" v="infrastruktur" />
		<tag k="ssr:stedsnr" v="1047745" />
		<tag k="ssr:type" v="adressenavn" />
	</node>
	<node lat="59.56459504237226" lon="9.25780670006791" id="-52206">
		<tag k="name" v="Landstads gate" />
		<tag k="ssr:date" v="2019-12-27" />
		<tag k="ssr:gruppe" v="veg" />
		<tag k="ssr:hovedgruppe" v="infrastruktur" />
		<tag k="ssr:stedsnr" v="1048290" />
		<tag k="ssr:type" v="adressenavn" />
	</node>
	<node lat="59.567616466436" lon="9.284761804179462" id="-52207">
		<tag k="name" v="Kåsavegen" />
		<tag k="ssr:date" v="2019-12-27" />
		<tag k="ssr:gruppe" v="veg" />
		<tag k="ssr:hovedgruppe" v="infrastruktur" />
		<tag k="ssr:stedsnr" v="1048319" />
		<tag k="ssr:type" v="adressenavn" />
	</node>
	<node lat="59.56345231515052" lon="9.24906399424474" id="-52208">
		<tag k="name" v="Bruhellevegen" />
		<tag k="ssr:date" v="2019-12-27" />
		<tag k="ssr:gruppe" v="veg" />
		<tag k="ssr:hovedgruppe" v="infrastruktur" />
		<tag k="ssr:stedsnr" v="1048386" />
		<tag k="ssr:type" v="adressenavn" />
	</node>
	<node lat="59.554411697688415" lon="9.27900704036998" id="-52209">
		<tag k="name" v="Brattreins gate" />
		<tag k="ssr:date" v="2019-12-27" />
		<tag k="ssr:gruppe" v="veg" />
		<tag k="ssr:hovedgruppe" v="infrastruktur" />
		<tag k="ssr:stedsnr" v="1048388" />
		<tag k="ssr:type" v="adressenavn" />
	</node>
	<node lat="59.57165263536832" lon="9.254060548749708" id="-52210">
		<tag k="name" v="Borgermester Dalens gate" />
		<tag k="ssr:date" v="2019-12-27" />
		<tag k="ssr:gruppe" v="veg" />
		<tag k="ssr:hovedgruppe" v="infrastruktur" />
		<tag k="ssr:stedsnr" v="1048390" />
		<tag k="ssr:type" v="adressenavn" />
	</node>
	<node lat="59.562078394706475" lon="9.241403581068566" id="-52211">
		<tag k="name" v="Bondals gate" />
		<tag k="ssr:date" v="2019-12-27" />
		<tag k="ssr:gruppe" v="veg" />
		<tag k="ssr:hovedgruppe" v="infrastruktur" />
		<tag k="ssr:stedsnr" v="1048393" />
		<tag k="ssr:type" v="adressenavn" />
	</node>
	<node lat="59.56410012743241" lon="9.250977235529145" id="-52212">
		<tag k="name" v="Hitterdalsvegen" />
		<tag k="ssr:date" v="2019-12-27" />
		<tag k="ssr:gruppe" v="veg" />
		<tag k="ssr:hovedgruppe" v="infrastruktur" />
		<tag k="ssr:stedsnr" v="1048396" />
		<tag k="ssr:type" v="adressenavn" />
	</node>
	<node lat="59.56410012743241" lon="9.250977235529145" id="-52213">
		<tag k="name" v="Henrik Wergelands gate" />
		<tag k="ssr:date" v="2019-12-27" />
		<tag k="ssr:gruppe" v="veg" />
		<tag k="ssr:hovedgruppe" v="infrastruktur" />
		<tag k="ssr:stedsnr" v="1048398" />
		<tag k="ssr:type" v="adressenavn" />
	</node>
	<node lat="59.55804227747649" lon="9.278312579748533" id="-52214">
		<tag k="name" v="Henrik Ibsens gate" />
		<tag k="ssr:date" v="2019-12-27" />
		<tag k="ssr:gruppe" v="veg" />
		<tag k="ssr:hovedgruppe" v="infrastruktur" />
		<tag k="ssr:stedsnr" v="1048401" />
		<tag k="ssr:type" v="adressenavn" />
	</node>
	<node lat="59.576529059532504" lon="9.258092458877089" id="-52215">
		<tag k="name" v="Hellebrekkevegen" />
		<tag k="ssr:date" v="2019-12-27" />
		<tag k="ssr:gruppe" v="veg" />
		<tag k="ssr:hovedgruppe" v="infrastruktur" />
		<tag k="ssr:stedsnr" v="1048407" />
		<tag k="ssr:type" v="adressenavn" />
	</node>
	<node lat="59.56436460677906" lon="9.27005180551445" id="-52216">
		<tag k="name" v="Hegneskottet" />
		<tag k="ssr:date" v="2019-12-27" />
		<tag k="ssr:gruppe" v="veg" />
		<tag k="ssr:hovedgruppe" v="infrastruktur" />
		<tag k="ssr:stedsnr" v="1048409" />
		<tag k="ssr:type" v="adressenavn" />
	</node>
	<node lat="59.563977524067006" lon="9.276329557463583" id="-52217">
		<tag k="name" v="Hvålagata" />
		<tag k="ssr:date" v="2019-12-27" />
		<tag k="ssr:gruppe" v="veg" />
		<tag k="ssr:hovedgruppe" v="infrastruktur" />
		<tag k="ssr:stedsnr" v="1048411" />
		<tag k="ssr:type" v="adressenavn" />
	</node>
	<node lat="59.56500416346356" lon="9.268777957641873" id="-52218">
		<tag k="name" v="Hvåladalen" />
		<tag k="ssr:date" v="2019-12-27" />
		<tag k="ssr:gruppe" v="veg" />
		<tag k="ssr:hovedgruppe" v="infrastruktur" />
		<tag k="ssr:stedsnr" v="1048413" />
		<tag k="ssr:type" v="adressenavn" />
	</node>
	<node lat="59.56164256952814" lon="9.256272087741666" id="-52219">
		<tag k="name" v="Huvestads gate" />
		<tag k="ssr:date" v="2019-12-27" />
		<tag k="ssr:gruppe" v="veg" />
		<tag k="ssr:hovedgruppe" v="infrastruktur" />
		<tag k="ssr:stedsnr" v="1048415" />
		<tag k="ssr:type" v="adressenavn" />
	</node>
	<node lat="59.5642010661814" lon="9.275043176801542" id="-52220">
		<tag k="name" v="Kivlegata" />
		<tag k="ssr:date" v="2019-12-27" />
		<tag k="ssr:gruppe" v="veg" />
		<tag k="ssr:hovedgruppe" v="infrastruktur" />
		<tag k="ssr:stedsnr" v="1047603" />
		<tag k="ssr:type" v="adressenavn" />
	</node>
	<node lat="59.574276292667605" lon="9.258511197105248" id="-52221">
		<tag k="name" v="Kirseboms vei" />
		<tag k="ssr:date" v="2019-12-27" />
		<tag k="ssr:gruppe" v="veg" />
		<tag k="ssr:hovedgruppe" v="infrastruktur" />
		<tag k="ssr:stedsnr" v="1047606" />
		<tag k="ssr:type" v="adressenavn" />
	</node>
	<node lat="59.564729332810536" lon="9.251753059484278" id="-52222">
		<tag k="name" v="Haavar Gibøens gate" />
		<tag k="ssr:date" v="2019-12-27" />
		<tag k="ssr:gruppe" v="veg" />
		<tag k="ssr:hovedgruppe" v="infrastruktur" />
		<tag k="ssr:stedsnr" v="1047613" />
		<tag k="ssr:type" v="adressenavn" />
	</node>
	<node lat="59.56418468468154" lon="9.278717993459024" id="-52223">
		<tag k="name" v="Høybøgata" />
		<tag k="ssr:date" v="2019-12-27" />
		<tag k="ssr:gruppe" v="veg" />
		<tag k="ssr:hovedgruppe" v="infrastruktur" />
		<tag k="ssr:stedsnr" v="1047616" />
		<tag k="ssr:type" v="adressenavn" />
	</node>
	<node lat="59.56606286569227" lon="9.27219623468686" id="-52224">
		<tag k="name" v="Høybødalen" />
		<tag k="ssr:date" v="2019-12-27" />
		<tag k="ssr:gruppe" v="veg" />
		<tag k="ssr:hovedgruppe" v="infrastruktur" />
		<tag k="ssr:stedsnr" v="1047619" />
		<tag k="ssr:type" v="adressenavn" />
	</node>
	<node lat="59.59675442543362" lon="9.267296650426989" id="-52225">
		<tag k="name" v="Høimyrvegen" />
		<tag k="ssr:date" v="2019-12-27" />
		<tag k="ssr:gruppe" v="veg" />
		<tag k="ssr:hovedgruppe" v="infrastruktur" />
		<tag k="ssr:stedsnr" v="1047621" />
		<tag k="ssr:type" v="adressenavn" />
	</node>
	<node lat="59.56089505542932" lon="9.26180986715081" id="-52226">
		<tag k="name" v="Hydros gate" />
		<tag k="ssr:date" v="2019-12-27" />
		<tag k="ssr:gruppe" v="veg" />
		<tag k="ssr:hovedgruppe" v="infrastruktur" />
		<tag k="ssr:stedsnr" v="1047623" />
		<tag k="ssr:type" v="adressenavn" />
	</node>
	<node lat="59.561013308737685" lon="9.27380701525152" id="-52227">
		<tag k="name" v="Hvålaskeidet" />
		<tag k="ssr:date" v="2019-12-27" />
		<tag k="ssr:gruppe" v="veg" />
		<tag k="ssr:hovedgruppe" v="infrastruktur" />
		<tag k="ssr:stedsnr" v="1047626" />
		<tag k="ssr:type" v="adressenavn" />
	</node>
	<node lat="59.57677486127648" lon="9.20321849674585" id="-52228">
		<tag k="name" v="Jomfru Holsts veg" />
		<tag k="ssr:date" v="2019-12-27" />
		<tag k="ssr:gruppe" v="veg" />
		<tag k="ssr:hovedgruppe" v="infrastruktur" />
		<tag k="ssr:stedsnr" v="1047628" />
		<tag k="ssr:type" v="adressenavn" />
	</node>
	<node lat="59.56534280797354" lon="9.274263938042472" id="-52229">
		<tag k="name" v="Johan Sverdrups gate" />
		<tag k="ssr:date" v="2019-12-27" />
		<tag k="ssr:gruppe" v="veg" />
		<tag k="ssr:hovedgruppe" v="infrastruktur" />
		<tag k="ssr:stedsnr" v="1047631" />
		<tag k="ssr:type" v="adressenavn" />
	</node>
	<node lat="59.5646369363285" lon="9.281515697080444" id="-52230">
		<tag k="name" v="Johan Falkbergets vei" />
		<tag k="ssr:date" v="2019-12-27" />
		<tag k="ssr:gruppe" v="veg" />
		<tag k="ssr:hovedgruppe" v="infrastruktur" />
		<tag k="ssr:stedsnr" v="1047634" />
		<tag k="ssr:type" v="adressenavn" />
	</node>
	<node lat="59.55433702159965" lon="9.278740968901555" id="-52231">
		<tag k="name" v="Linståveien" />
		<tag k="ssr:date" v="2019-12-27" />
		<tag k="ssr:gruppe" v="veg" />
		<tag k="ssr:hovedgruppe" v="infrastruktur" />
		<tag k="ssr:stedsnr" v="1047687" />
		<tag k="ssr:type" v="adressenavn" />
	</node>
	<node lat="59.58066835426966" lon="9.269822967388851" id="-52233">
		<tag k="name" v="Lienfossveien" />
		<tag k="ssr:date" v="2019-12-27" />
		<tag k="ssr:gruppe" v="veg" />
		<tag k="ssr:hovedgruppe" v="infrastruktur" />
		<tag k="ssr:stedsnr" v="1047810" />
		<tag k="ssr:type" v="adressenavn" />
	</node>
	<node lat="59.56679076481588" lon="9.300024896068443" id="-52234">
		<tag k="name" v="Lie Jørgensens veg" />
		<tag k="ssr:date" v="2019-12-27" />
		<tag k="ssr:gruppe" v="veg" />
		<tag k="ssr:hovedgruppe" v="infrastruktur" />
		<tag k="ssr:stedsnr" v="1047833" />
		<tag k="ssr:type" v="adressenavn" />
	</node>
	<node lat="59.56580341496032" lon="9.283855110117994" id="-52235">
		<tag k="name" v="Mælagata" />
		<tag k="ssr:date" v="2019-12-27" />
		<tag k="ssr:gruppe" v="veg" />
		<tag k="ssr:hovedgruppe" v="infrastruktur" />
		<tag k="ssr:stedsnr" v="1047859" />
		<tag k="ssr:type" v="adressenavn" />
	</node>
	<node lat="59.56565607372617" lon="9.267010909985354" id="-52236">
		<tag k="name" v="Myllargutens gate" />
		<tag k="ssr:date" v="2019-12-27" />
		<tag k="ssr:gruppe" v="veg" />
		<tag k="ssr:hovedgruppe" v="infrastruktur" />
		<tag k="ssr:stedsnr" v="1047889" />
		<tag k="ssr:type" v="adressenavn" />
	</node>
	<node lat="59.5655614314633" lon="9.267069639854368" id="-52237">
		<tag k="name" v="Lienveien" />
		<tag k="ssr:date" v="2019-12-27" />
		<tag k="ssr:gruppe" v="veg" />
		<tag k="ssr:hovedgruppe" v="infrastruktur" />
		<tag k="ssr:stedsnr" v="1047776" />
		<tag k="ssr:type" v="adressenavn" />
	</node>
	<node lat="59.57322366467058" lon="9.198022551708902" id="-52238">
		<tag k="name" v="Løkkevegen" />
		<tag k="ssr:date" v="2019-12-27" />
		<tag k="ssr:gruppe" v="veg" />
		<tag k="ssr:hovedgruppe" v="infrastruktur" />
		<tag k="ssr:stedsnr" v="1048011" />
		<tag k="ssr:type" v="adressenavn" />
	</node>
	<node lat="59.569506727716586" lon="9.27242267437075" id="-52239">
		<tag k="name" v="Lærerskoleveien" />
		<tag k="ssr:date" v="2019-12-27" />
		<tag k="ssr:gruppe" v="veg" />
		<tag k="ssr:hovedgruppe" v="infrastruktur" />
		<tag k="ssr:stedsnr" v="1048021" />
		<tag k="ssr:type" v="adressenavn" />
	</node>
	<node lat="59.57140143986326" lon="9.272781931273903" id="-52240">
		<tag k="name" v="Kristofer Uppdals gate" />
		<tag k="ssr:date" v="2019-12-27" />
		<tag k="ssr:gruppe" v="veg" />
		<tag k="ssr:hovedgruppe" v="infrastruktur" />
		<tag k="ssr:stedsnr" v="1048099" />
		<tag k="ssr:type" v="adressenavn" />
	</node>
	<node lat="59.561712144471876" lon="9.230583680847259" id="-52241">
		<tag k="name" v="Merdevegen" />
		<tag k="ssr:date" v="2019-12-27" />
		<tag k="ssr:gruppe" v="veg" />
		<tag k="ssr:hovedgruppe" v="infrastruktur" />
		<tag k="ssr:stedsnr" v="1047912" />
		<tag k="ssr:type" v="adressenavn" />
	</node>
	<node lat="59.56910985936066" lon="9.282048787674611" id="-52242">
		<tag k="name" v="Meheiavegen" />
		<tag k="ssr:date" v="2019-12-27" />
		<tag k="ssr:gruppe" v="veg" />
		<tag k="ssr:hovedgruppe" v="infrastruktur" />
		<tag k="ssr:stedsnr" v="1047923" />
		<tag k="ssr:type" v="adressenavn" />
	</node>
	<node lat="59.562921829319045" lon="9.253513239995941" id="-52243">
		<tag k="name" v="Marcus Thranes gate" />
		<tag k="ssr:date" v="2019-12-27" />
		<tag k="ssr:gruppe" v="veg" />
		<tag k="ssr:hovedgruppe" v="infrastruktur" />
		<tag k="ssr:stedsnr" v="1047957" />
		<tag k="ssr:type" v="adressenavn" />
	</node>
	<node lat="59.574862191393514" lon="9.195424374063666" id="-52244">
		<tag k="name" v="Lysthusvegen" />
		<tag k="ssr:date" v="2019-12-27" />
		<tag k="ssr:gruppe" v="veg" />
		<tag k="ssr:hovedgruppe" v="infrastruktur" />
		<tag k="ssr:stedsnr" v="1048041" />
		<tag k="ssr:type" v="adressenavn" />
	</node>
	<node lat="59.567850101826025" lon="9.255714949136921" id="-52245">
		<tag k="name" v="Kåfjellvegen" />
		<tag k="ssr:date" v="2019-12-27" />
		<tag k="ssr:gruppe" v="veg" />
		<tag k="ssr:hovedgruppe" v="infrastruktur" />
		<tag k="ssr:stedsnr" v="1048058" />
		<tag k="ssr:type" v="adressenavn" />
	</node>
	<node lat="59.58246057405416" lon="9.270412791643555" id="-52246">
		<tag k="name" v="Kufaveien" />
		<tag k="ssr:date" v="2019-12-27" />
		<tag k="ssr:gruppe" v="veg" />
		<tag k="ssr:hovedgruppe" v="infrastruktur" />
		<tag k="ssr:stedsnr" v="1048078" />
		<tag k="ssr:type" v="adressenavn" />
	</node>
	<node lat="59.550697888412195" lon="9.28609193672898" id="-52247">
		<tag k="name" v="Leiv Eirikssons gate" />
		<tag k="ssr:date" v="2019-12-27" />
		<tag k="ssr:gruppe" v="veg" />
		<tag k="ssr:hovedgruppe" v="infrastruktur" />
		<tag k="ssr:stedsnr" v="1048202" />
		<tag k="ssr:type" v="adressenavn" />
	</node>
	<node lat="59.596787179819934" lon="9.2656560200224" id="-52248">
		<tag k="name" v="Leirbruhaugen" />
		<tag k="ssr:date" v="2019-12-27" />
		<tag k="ssr:gruppe" v="veg" />
		<tag k="ssr:hovedgruppe" v="infrastruktur" />
		<tag k="ssr:stedsnr" v="1048217" />
		<tag k="ssr:type" v="adressenavn" />
	</node>
	<node lat="59.570148731854125" lon="9.206510690706175" id="-52249">
		<tag k="name" v="Larskåsvegen" />
		<tag k="ssr:date" v="2019-12-27" />
		<tag k="ssr:gruppe" v="veg" />
		<tag k="ssr:hovedgruppe" v="infrastruktur" />
		<tag k="ssr:stedsnr" v="1048223" />
		<tag k="ssr:type" v="adressenavn" />
	</node>
	<node lat="59.57603563177863" lon="9.26116449032262" id="-52250">
		<tag k="name" v="Kristian Lofthus gate" />
		<tag k="ssr:date" v="2019-12-27" />
		<tag k="ssr:gruppe" v="veg" />
		<tag k="ssr:hovedgruppe" v="infrastruktur" />
		<tag k="ssr:stedsnr" v="1048122" />
		<tag k="ssr:type" v="adressenavn" />
	</node>
	<node lat="59.569983843187345" lon="9.295852536067358" id="-52251">
		<tag k="name" v="Kringlevegen" />
		<tag k="ssr:date" v="2019-12-27" />
		<tag k="ssr:gruppe" v="veg" />
		<tag k="ssr:hovedgruppe" v="infrastruktur" />
		<tag k="ssr:stedsnr" v="1048144" />
		<tag k="ssr:type" v="adressenavn" />
	</node>
	<node lat="59.568845399095565" lon="9.295302418614657" id="-52252">
		<tag k="name" v="Konvallvegen" />
		<tag k="ssr:date" v="2019-12-27" />
		<tag k="ssr:gruppe" v="veg" />
		<tag k="ssr:hovedgruppe" v="infrastruktur" />
		<tag k="ssr:stedsnr" v="1048160" />
		<tag k="ssr:type" v="adressenavn" />
	</node>
	<node lat="59.5592551847701" lon="9.26558857438536" id="-52253">
		<tag k="name" v="Kongsbergveien" />
		<tag k="ssr:date" v="2019-12-27" />
		<tag k="ssr:gruppe" v="veg" />
		<tag k="ssr:hovedgruppe" v="infrastruktur" />
		<tag k="ssr:stedsnr" v="1048167" />
		<tag k="ssr:type" v="adressenavn" />
	</node>
	<node lat="59.561071583977515" lon="9.241711248633178" id="-52254">
		<tag k="name" v="Eirik Raudes vei" />
		<tag k="ssr:date" v="2019-12-27" />
		<tag k="ssr:gruppe" v="veg" />
		<tag k="ssr:hovedgruppe" v="infrastruktur" />
		<tag k="ssr:stedsnr" v="1048336" />
		<tag k="ssr:type" v="adressenavn" />
	</node>
	<node lat="59.566092276215805" lon="9.284436647229098" id="-52255">
		<tag k="name" v="Eikeskarvegen" />
		<tag k="ssr:date" v="2019-12-27" />
		<tag k="ssr:gruppe" v="veg" />
		<tag k="ssr:hovedgruppe" v="infrastruktur" />
		<tag k="ssr:stedsnr" v="1048339" />
		<tag k="ssr:type" v="adressenavn" />
	</node>
	<node lat="59.565326585252826" lon="9.277213329974899" id="-52256">
		<tag k="name" v="Eidsvollsgata" />
		<tag k="ssr:date" v="2019-12-27" />
		<tag k="ssr:gruppe" v="veg" />
		<tag k="ssr:hovedgruppe" v="infrastruktur" />
		<tag k="ssr:stedsnr" v="1048342" />
		<tag k="ssr:type" v="adressenavn" />
	</node>
	<node lat="59.56411638801995" lon="9.271738561367943" id="-52257">
		<tag k="name" v="Egne Hjems gate" />
		<tag k="ssr:date" v="2019-12-27" />
		<tag k="ssr:gruppe" v="veg" />
		<tag k="ssr:hovedgruppe" v="infrastruktur" />
		<tag k="ssr:stedsnr" v="1048345" />
		<tag k="ssr:type" v="adressenavn" />
	</node>
	<node lat="59.55501408617443" lon="9.280776932595897" id="-52258">
		<tag k="name" v="Dyre Vås gate" />
		<tag k="ssr:date" v="2019-12-27" />
		<tag k="ssr:gruppe" v="veg" />
		<tag k="ssr:hovedgruppe" v="infrastruktur" />
		<tag k="ssr:stedsnr" v="1048347" />
		<tag k="ssr:type" v="adressenavn" />
	</node>
	<node lat="59.55735342159558" lon="9.282970154752864" id="-52259">
		<tag k="name" v="Dalsåsveien" />
		<tag k="ssr:date" v="2019-12-27" />
		<tag k="ssr:gruppe" v="veg" />
		<tag k="ssr:hovedgruppe" v="infrastruktur" />
		<tag k="ssr:stedsnr" v="1048348" />
		<tag k="ssr:type" v="adressenavn" />
	</node>
	<node lat="59.563582666484855" lon="9.275392599070432" id="-52260">
		<tag k="name" v="Gamle Hvålavei" />
		<tag k="ssr:date" v="2019-12-27" />
		<tag k="ssr:gruppe" v="veg" />
		<tag k="ssr:hovedgruppe" v="infrastruktur" />
		<tag k="ssr:stedsnr" v="1048351" />
		<tag k="ssr:type" v="adressenavn" />
	</node>
	<node lat="59.57828955982148" lon="9.264168020075246" id="-52261">
		<tag k="name" v="Furuveien" />
		<tag k="ssr:date" v="2019-12-27" />
		<tag k="ssr:gruppe" v="veg" />
		<tag k="ssr:hovedgruppe" v="infrastruktur" />
		<tag k="ssr:stedsnr" v="1048353" />
		<tag k="ssr:type" v="adressenavn" />
	</node>
	<node lat="59.567207748722545" lon="9.273752138784047" id="-52262">
		<tag k="name" v="Fridtjof Nansens gate" />
		<tag k="ssr:date" v="2019-12-27" />
		<tag k="ssr:gruppe" v="veg" />
		<tag k="ssr:hovedgruppe" v="infrastruktur" />
		<tag k="ssr:stedsnr" v="1048356" />
		<tag k="ssr:type" v="adressenavn" />
	</node>
	<node lat="59.55529246660546" lon="9.281741332714363" id="-52263">
		<tag k="name" v="Fredrik Stangs gate" />
		<tag k="ssr:date" v="2019-12-27" />
		<tag k="ssr:gruppe" v="veg" />
		<tag k="ssr:hovedgruppe" v="infrastruktur" />
		<tag k="ssr:stedsnr" v="1048359" />
		<tag k="ssr:type" v="adressenavn" />
	</node>
	<node lat="59.56312407952627" lon="9.249480265971318" id="-52264">
		<tag k="name" v="Fjellmannvegen" />
		<tag k="ssr:date" v="2019-12-27" />
		<tag k="ssr:gruppe" v="veg" />
		<tag k="ssr:hovedgruppe" v="infrastruktur" />
		<tag k="ssr:stedsnr" v="1048361" />
		<tag k="ssr:type" v="adressenavn" />
	</node>
	<node lat="59.561823585816114" lon="9.247567042267777" id="-52265">
		<tag k="name" v="Fjellhaugveien" />
		<tag k="ssr:date" v="2019-12-27" />
		<tag k="ssr:gruppe" v="veg" />
		<tag k="ssr:hovedgruppe" v="infrastruktur" />
		<tag k="ssr:stedsnr" v="1048363" />
		<tag k="ssr:type" v="adressenavn" />
	</node>
	<node lat="59.5591811197707" lon="9.25929290725266" id="-52266">
		<tag k="name" v="Bjørnstjerne Bjørnsons gate" />
		<tag k="ssr:date" v="2019-12-27" />
		<tag k="ssr:gruppe" v="veg" />
		<tag k="ssr:hovedgruppe" v="infrastruktur" />
		<tag k="ssr:stedsnr" v="1048365" />
		<tag k="ssr:type" v="adressenavn" />
	</node>
	<node lat="59.57629107961456" lon="9.268967199419722" id="-52267">
		<tag k="name" v="Bjørn Farmanns gate" />
		<tag k="ssr:date" v="2019-12-27" />
		<tag k="ssr:gruppe" v="veg" />
		<tag k="ssr:hovedgruppe" v="infrastruktur" />
		<tag k="ssr:stedsnr" v="1048367" />
		<tag k="ssr:type" v="adressenavn" />
	</node>
	<node lat="59.5593335079583" lon="9.275898762721145" id="-52268">
		<tag k="name" v="Bjørn Evjes gate" />
		<tag k="ssr:date" v="2019-12-27" />
		<tag k="ssr:gruppe" v="veg" />
		<tag k="ssr:hovedgruppe" v="infrastruktur" />
		<tag k="ssr:stedsnr" v="1048369" />
		<tag k="ssr:type" v="adressenavn" />
	</node>
	<node lat="59.59682314944939" lon="9.267318115333861" id="-52269">
		<tag k="name" v="Bjarne Hansens vei" />
		<tag k="ssr:date" v="2019-12-27" />
		<tag k="ssr:gruppe" v="veg" />
		<tag k="ssr:hovedgruppe" v="infrastruktur" />
		<tag k="ssr:stedsnr" v="1048371" />
		<tag k="ssr:type" v="adressenavn" />
	</node>
	<node lat="59.55836458350203" lon="9.256938593312585" id="-52270">
		<tag k="name" v="Birkelands gate" />
		<tag k="ssr:date" v="2019-12-27" />
		<tag k="ssr:gruppe" v="veg" />
		<tag k="ssr:hovedgruppe" v="infrastruktur" />
		<tag k="ssr:stedsnr" v="1048374" />
		<tag k="ssr:type" v="adressenavn" />
	</node>
	<node lat="59.56172511073582" lon="9.27793314011039" id="-52271">
		<tag k="name" v="Bernt Støylens gate" />
		<tag k="ssr:date" v="2019-12-27" />
		<tag k="ssr:gruppe" v="veg" />
		<tag k="ssr:hovedgruppe" v="infrastruktur" />
		<tag k="ssr:stedsnr" v="1048377" />
		<tag k="ssr:type" v="adressenavn" />
	</node>
	<node lat="59.55774911125887" lon="9.2771901348147" id="-52272">
		<tag k="name" v="Chr Michelsens gate" />
		<tag k="ssr:date" v="2019-12-27" />
		<tag k="ssr:gruppe" v="veg" />
		<tag k="ssr:hovedgruppe" v="infrastruktur" />
		<tag k="ssr:stedsnr" v="1048379" />
		<tag k="ssr:type" v="adressenavn" />
	</node>
	<node lat="59.57339278534574" lon="9.254000718085795" id="-52273">
		<tag k="name" v="Cappelstuguvegen" />
		<tag k="ssr:date" v="2019-12-27" />
		<tag k="ssr:gruppe" v="veg" />
		<tag k="ssr:hovedgruppe" v="infrastruktur" />
		<tag k="ssr:stedsnr" v="1048382" />
		<tag k="ssr:type" v="adressenavn" />
	</node>
	<node lat="59.5664827236012" lon="9.252586778322232" id="-52274">
		<tag k="name" v="Bøherads gate" />
		<tag k="ssr:date" v="2019-12-27" />
		<tag k="ssr:gruppe" v="veg" />
		<tag k="ssr:hovedgruppe" v="infrastruktur" />
		<tag k="ssr:stedsnr" v="1048384" />
		<tag k="ssr:type" v="adressenavn" />
	</node>
	<node lat="59.5645968522717" lon="9.272307709395646" id="-52275">
		<tag k="name" v="Hegnegata" />
		<tag k="ssr:date" v="2019-12-27" />
		<tag k="ssr:gruppe" v="veg" />
		<tag k="ssr:hovedgruppe" v="infrastruktur" />
		<tag k="ssr:stedsnr" v="1048436" />
		<tag k="ssr:type" v="adressenavn" />
	</node>
	<node lat="59.555435619358676" lon="9.259829610555457" id="-52276">
		<tag k="name" v="Heddalsvegen" />
		<tag k="ssr:date" v="2019-12-27" />
		<tag k="ssr:gruppe" v="veg" />
		<tag k="ssr:hovedgruppe" v="infrastruktur" />
		<tag k="ssr:stedsnr" v="1048438" />
		<tag k="ssr:type" v="adressenavn" />
	</node>
	<node lat="59.597058822077116" lon="9.271179039751026" id="-52277">
		<tag k="name" v="Haugveien" />
		<tag k="ssr:date" v="2019-12-27" />
		<tag k="ssr:gruppe" v="veg" />
		<tag k="ssr:hovedgruppe" v="infrastruktur" />
		<tag k="ssr:stedsnr" v="1048440" />
		<tag k="ssr:type" v="adressenavn" />
	</node>
	<node lat="59.56907914708113" lon="9.214236567264" id="-52278">
		<tag k="name" v="Haugebondvegen" />
		<tag k="ssr:date" v="2019-12-27" />
		<tag k="ssr:gruppe" v="veg" />
		<tag k="ssr:hovedgruppe" v="infrastruktur" />
		<tag k="ssr:stedsnr" v="1048442" />
		<tag k="ssr:type" v="adressenavn" />
	</node>
	<node lat="59.55859863982663" lon="9.278847526042822" id="-52279">
		<tag k="name" v="Harald Bjerkes gate" />
		<tag k="ssr:date" v="2019-12-27" />
		<tag k="ssr:gruppe" v="veg" />
		<tag k="ssr:hovedgruppe" v="infrastruktur" />
		<tag k="ssr:stedsnr" v="1048443" />
		<tag k="ssr:type" v="adressenavn" />
	</node>
	<node lat="59.55222318458903" lon="9.28082835672562" id="-52280">
		<tag k="name" v="Hans Nielsen Hauges gate" />
		<tag k="ssr:date" v="2019-12-27" />
		<tag k="ssr:gruppe" v="veg" />
		<tag k="ssr:hovedgruppe" v="infrastruktur" />
		<tag k="ssr:stedsnr" v="1048445" />
		<tag k="ssr:type" v="adressenavn" />
	</node>
	<node lat="59.560100378455374" lon="9.269716242978078" id="-52281">
		<tag k="name" v="Hamnevegen" />
		<tag k="ssr:date" v="2019-12-27" />
		<tag k="ssr:gruppe" v="veg" />
		<tag k="ssr:hovedgruppe" v="infrastruktur" />
		<tag k="ssr:stedsnr" v="1048447" />
		<tag k="ssr:type" v="adressenavn" />
	</node>
	<node lat="59.5591811197707" lon="9.25929290725266" id="-52282">
		<tag k="name" v="Torvet" />
		<tag k="ssr:date" v="2019-12-27" />
		<tag k="ssr:gruppe" v="veg" />
		<tag k="ssr:hovedgruppe" v="infrastruktur" />
		<tag k="ssr:stedsnr" v="1048450" />
		<tag k="ssr:type" v="adressenavn" />
	</node>
	<node lat="59.581240396144665" lon="9.270277878004427" id="-52283">
		<tag k="name" v="Huldrevegen" />
		<tag k="ssr:date" v="2019-12-27" />
		<tag k="ssr:gruppe" v="veg" />
		<tag k="ssr:hovedgruppe" v="infrastruktur" />
		<tag k="ssr:stedsnr" v="1048417" />
		<tag k="ssr:type" v="adressenavn" />
	</node>
	<node lat="59.56130252780332" lon="9.276417187190678" id="-52284">
		<tag k="name" v="Holtermann Knudsens gate" />
		<tag k="ssr:date" v="2019-12-27" />
		<tag k="ssr:gruppe" v="veg" />
		<tag k="ssr:hovedgruppe" v="infrastruktur" />
		<tag k="ssr:stedsnr" v="1048419" />
		<tag k="ssr:type" v="adressenavn" />
	</node>
	<node lat="59.56627842100599" lon="9.269088614847607" id="-52285">
		<tag k="name" v="Holbergs vei" />
		<tag k="ssr:date" v="2019-12-27" />
		<tag k="ssr:gruppe" v="veg" />
		<tag k="ssr:hovedgruppe" v="infrastruktur" />
		<tag k="ssr:stedsnr" v="1048421" />
		<tag k="ssr:type" v="adressenavn" />
	</node>
	<node lat="59.569804183564656" lon="9.26187182797154" id="-52286">
		<tag k="name" v="H Abr Hansens gate" />
		<tag k="ssr:date" v="2019-12-27" />
		<tag k="ssr:gruppe" v="veg" />
		<tag k="ssr:hovedgruppe" v="infrastruktur" />
		<tag k="ssr:stedsnr" v="1048424" />
		<tag k="ssr:type" v="adressenavn" />
	</node>
	<node lat="59.55134128596438" lon="9.27919392222003" id="-52287">
		<tag k="name" v="Gullhaugveien" />
		<tag k="ssr:date" v="2019-12-27" />
		<tag k="ssr:gruppe" v="veg" />
		<tag k="ssr:hovedgruppe" v="infrastruktur" />
		<tag k="ssr:stedsnr" v="1048427" />
		<tag k="ssr:type" v="adressenavn" />
	</node>
	<node lat="59.55179756824213" lon="9.27984866119087" id="-52288">
		<tag k="name" v="Grønligata" />
		<tag k="ssr:date" v="2019-12-27" />
		<tag k="ssr:gruppe" v="veg" />
		<tag k="ssr:hovedgruppe" v="infrastruktur" />
		<tag k="ssr:stedsnr" v="1048428" />
		<tag k="ssr:type" v="adressenavn" />
	</node>
	<node lat="59.56572089955084" lon="9.277596083821457" id="-52289">
		<tag k="name" v="Grotbekkvegen" />
		<tag k="ssr:date" v="2019-12-27" />
		<tag k="ssr:gruppe" v="veg" />
		<tag k="ssr:hovedgruppe" v="infrastruktur" />
		<tag k="ssr:stedsnr" v="1048430" />
		<tag k="ssr:type" v="adressenavn" />
	</node>
	<node lat="59.568055072086395" lon="9.271111524154733" id="-52290">
		<tag k="name" v="Groshaugveien" />
		<tag k="ssr:date" v="2019-12-27" />
		<tag k="ssr:gruppe" v="veg" />
		<tag k="ssr:hovedgruppe" v="infrastruktur" />
		<tag k="ssr:stedsnr" v="1048432" />
		<tag k="ssr:type" v="adressenavn" />
	</node>
	<node lat="59.567232280835555" lon="9.301608053339862" id="-52291">
		<tag k="name" v="Grevlingvegen" />
		<tag k="ssr:date" v="2019-12-27" />
		<tag k="ssr:gruppe" v="veg" />
		<tag k="ssr:hovedgruppe" v="infrastruktur" />
		<tag k="ssr:stedsnr" v="1048435" />
		<tag k="ssr:type" v="adressenavn" />
	</node>
	<node lat="59.5724613778504" lon="9.199757270575631" id="-52292">
		<tag k="name" v="Tors veg" />
		<tag k="ssr:date" v="2019-12-27" />
		<tag k="ssr:gruppe" v="veg" />
		<tag k="ssr:hovedgruppe" v="infrastruktur" />
		<tag k="ssr:stedsnr" v="1048502" />
		<tag k="ssr:type" v="adressenavn" />
	</node>
	<node lat="59.56543632839192" lon="9.283115176090574" id="-52293">
		<tag k="name" v="Torkjel Haugeruds veg" />
		<tag k="ssr:date" v="2019-12-27" />
		<tag k="ssr:gruppe" v="veg" />
		<tag k="ssr:hovedgruppe" v="infrastruktur" />
		<tag k="ssr:stedsnr" v="1048522" />
		<tag k="ssr:type" v="adressenavn" />
	</node>
	<node lat="59.56050085349678" lon="9.19637302572103" id="-52294">
		<tag k="name" v="Tverrvegen" />
		<tag k="ssr:date" v="2019-12-27" />
		<tag k="ssr:gruppe" v="veg" />
		<tag k="ssr:hovedgruppe" v="infrastruktur" />
		<tag k="ssr:stedsnr" v="1048598" />
		<tag k="ssr:type" v="adressenavn" />
	</node>
	<node lat="59.562591058619546" lon="9.262834747434722" id="-52295">
		<tag k="name" v="Toreskåsveien" />
		<tag k="ssr:date" v="2019-12-27" />
		<tag k="ssr:gruppe" v="veg" />
		<tag k="ssr:hovedgruppe" v="infrastruktur" />
		<tag k="ssr:stedsnr" v="1048536" />
		<tag k="ssr:type" v="adressenavn" />
	</node>
	<node lat="59.56273068042024" lon="9.298567989102748" id="-52296">
		<tag k="name" v="Thor Cappelens veg" />
		<tag k="ssr:date" v="2019-12-27" />
		<tag k="ssr:gruppe" v="veg" />
		<tag k="ssr:hovedgruppe" v="infrastruktur" />
		<tag k="ssr:stedsnr" v="1048548" />
		<tag k="ssr:type" v="adressenavn" />
	</node>
	<node lat="59.57252367810401" lon="9.19899768562822" id="-52297">
		<tag k="name" v="Tjønnvegen" />
		<tag k="ssr:date" v="2019-12-27" />
		<tag k="ssr:gruppe" v="veg" />
		<tag k="ssr:hovedgruppe" v="infrastruktur" />
		<tag k="ssr:stedsnr" v="1048552" />
		<tag k="ssr:type" v="adressenavn" />
	</node>
	<node lat="59.59702352277785" lon="9.13326464104064" id="-52298">
		<tag k="name" v="Torbjørn Blindes veg" />
		<tag k="ssr:date" v="2019-12-27" />
		<tag k="ssr:gruppe" v="veg" />
		<tag k="ssr:hovedgruppe" v="infrastruktur" />
		<tag k="ssr:stedsnr" v="1048554" />
		<tag k="ssr:type" v="adressenavn" />
	</node>
	<node lat="59.571452693040676" lon="9.203705641413054" id="-52299">
		<tag k="name" v="Tjønnebergvegen" />
		<tag k="ssr:date" v="2019-12-27" />
		<tag k="ssr:gruppe" v="veg" />
		<tag k="ssr:hovedgruppe" v="infrastruktur" />
		<tag k="ssr:stedsnr" v="1048558" />
		<tag k="ssr:type" v="adressenavn" />
	</node>
	<node lat="59.563463991395345" lon="9.269385796043508" id="-52300">
		<tag k="name" v="Tømmerveien" />
		<tag k="ssr:date" v="2019-12-27" />
		<tag k="ssr:gruppe" v="veg" />
		<tag k="ssr:hovedgruppe" v="infrastruktur" />
		<tag k="ssr:stedsnr" v="1048575" />
		<tag k="ssr:type" v="adressenavn" />
	</node>
	<node lat="59.55691907631252" lon="9.279691314911489" id="-52301">
		<tag k="name" v="Tveitdalen" />
		<tag k="ssr:date" v="2019-12-27" />
		<tag k="ssr:gruppe" v="veg" />
		<tag k="ssr:hovedgruppe" v="infrastruktur" />
		<tag k="ssr:stedsnr" v="1048638" />
		<tag k="ssr:type" v="adressenavn" />
	</node>
	<node lat="59.56296851953637" lon="9.275141350137572" id="-52308">
		<tag k="name" v="Tuddals gate" />
		<tag k="ssr:date" v="2019-12-27" />
		<tag k="ssr:gruppe" v="veg" />
		<tag k="ssr:hovedgruppe" v="infrastruktur" />
		<tag k="ssr:stedsnr" v="1048658" />
		<tag k="ssr:type" v="adressenavn" />
	</node>
	<node lat="59.55260718882385" lon="9.282512592340414" id="-52311">
		<tag k="name" v="Tveitengata" />
		<tag k="ssr:date" v="2019-12-27" />
		<tag k="ssr:gruppe" v="veg" />
		<tag k="ssr:hovedgruppe" v="infrastruktur" />
		<tag k="ssr:stedsnr" v="1048616" />
		<tag k="ssr:type" v="adressenavn" />
	</node>
	<node lat="59.5555799284034" lon="9.282105846935822" id="-52312">
		<tag k="name" v="Telnesgata" />
		<tag k="ssr:date" v="2019-12-27" />
		<tag k="ssr:gruppe" v="veg" />
		<tag k="ssr:hovedgruppe" v="infrastruktur" />
		<tag k="ssr:stedsnr" v="1048696" />
		<tag k="ssr:type" v="adressenavn" />
	</node>
	<node lat="59.55825678222307" lon="9.25530751530566" id="-52313">
		<tag k="name" v="Telegata" />
		<tag k="ssr:date" v="2019-12-27" />
		<tag k="ssr:gruppe" v="veg" />
		<tag k="ssr:hovedgruppe" v="infrastruktur" />
		<tag k="ssr:stedsnr" v="1048708" />
		<tag k="ssr:type" v="adressenavn" />
	</node>
	<node lat="59.55111785450805" lon="9.281430216957686" id="-52314">
		<tag k="name" v="Søndre Tveiten gate" />
		<tag k="ssr:date" v="2019-12-27" />
		<tag k="ssr:gruppe" v="veg" />
		<tag k="ssr:hovedgruppe" v="infrastruktur" />
		<tag k="ssr:stedsnr" v="1048716" />
		<tag k="ssr:type" v="adressenavn" />
	</node>
	<node lat="59.57666799930401" lon="9.269086390368573" id="-52315">
		<tag k="name" v="Søndre Skogenvei" />
		<tag k="ssr:date" v="2019-12-27" />
		<tag k="ssr:gruppe" v="veg" />
		<tag k="ssr:hovedgruppe" v="infrastruktur" />
		<tag k="ssr:stedsnr" v="1048719" />
		<tag k="ssr:type" v="adressenavn" />
	</node>
	<node lat="59.5664084837119" lon="9.271846387246557" id="-52316">
		<tag k="name" v="Sætregata" />
		<tag k="ssr:date" v="2019-12-27" />
		<tag k="ssr:gruppe" v="veg" />
		<tag k="ssr:hovedgruppe" v="infrastruktur" />
		<tag k="ssr:stedsnr" v="1048722" />
		<tag k="ssr:type" v="adressenavn" />
	</node>
	<node lat="59.569129517348514" lon="9.270655818850999" id="-52317">
		<tag k="name" v="Sætrealleen" />
		<tag k="ssr:date" v="2019-12-27" />
		<tag k="ssr:gruppe" v="veg" />
		<tag k="ssr:hovedgruppe" v="infrastruktur" />
		<tag k="ssr:stedsnr" v="1048725" />
		<tag k="ssr:type" v="adressenavn" />
	</node>
	<node lat="59.559280523430374" lon="9.280808803946387" id="-52318">
		<tag k="name" v="Tinnekasin" />
		<tag k="ssr:date" v="2019-12-27" />
		<tag k="ssr:gruppe" v="veg" />
		<tag k="ssr:hovedgruppe" v="infrastruktur" />
		<tag k="ssr:stedsnr" v="1048791" />
		<tag k="ssr:type" v="adressenavn" />
	</node>
	<node lat="59.57528091186594" lon="9.194720245472688" id="-52323">
		<tag k="name" v="Trolldalsvegen" />
		<tag k="ssr:date" v="2019-12-27" />
		<tag k="ssr:gruppe" v="veg" />
		<tag k="ssr:hovedgruppe" v="infrastruktur" />
		<tag k="ssr:stedsnr" v="1048677" />
		<tag k="ssr:type" v="adressenavn" />
	</node>
	<node lat="59.56916615268565" lon="9.296681134314706" id="-52326">
		<tag k="name" v="Tiurvegen" />
		<tag k="ssr:date" v="2019-12-27" />
		<tag k="ssr:gruppe" v="veg" />
		<tag k="ssr:hovedgruppe" v="infrastruktur" />
		<tag k="ssr:stedsnr" v="1048737" />
		<tag k="ssr:type" v="adressenavn" />
	</node>
	<node lat="59.56500416346356" lon="9.268777957641873" id="-52327">
		<tag k="name" v="Tinneveien" />
		<tag k="ssr:date" v="2019-12-27" />
		<tag k="ssr:gruppe" v="veg" />
		<tag k="ssr:hovedgruppe" v="infrastruktur" />
		<tag k="ssr:stedsnr" v="1048754" />
		<tag k="ssr:type" v="adressenavn" />
	</node>
	<node lat="59.55936040627738" lon="9.252616562375797" id="-52328">
		<tag k="name" v="Tinnesgata" />
		<tag k="ssr:date" v="2019-12-27" />
		<tag k="ssr:gruppe" v="veg" />
		<tag k="ssr:hovedgruppe" v="infrastruktur" />
		<tag k="ssr:stedsnr" v="1048773" />
		<tag k="ssr:type" v="adressenavn" />
	</node>
	<node lat="59.559779365069296" lon="9.27434534866866" id="-52343">
		<tag k="name" v="Tinnebyveien" />
		<tag k="ssr:date" v="2019-12-27" />
		<tag k="ssr:gruppe" v="veg" />
		<tag k="ssr:hovedgruppe" v="infrastruktur" />
		<tag k="ssr:stedsnr" v="1048804" />
		<tag k="ssr:type" v="adressenavn" />
	</node>
	<node lat="59.561875777349336" lon="9.269686735259413" id="-52344">
		<tag k="name" v="Tinnebakken" />
		<tag k="ssr:date" v="2019-12-27" />
		<tag k="ssr:gruppe" v="veg" />
		<tag k="ssr:hovedgruppe" v="infrastruktur" />
		<tag k="ssr:stedsnr" v="1048816" />
		<tag k="ssr:type" v="adressenavn" />
	</node>
	<node lat="59.56986626898254" lon="9.266745031707385" id="-52352">
		<tag k="name" v="Grosvollveien" />
		<tag k="ssr:date" v="2019-12-27" />
		<tag k="ssr:gruppe" v="veg" />
		<tag k="ssr:hovedgruppe" v="infrastruktur" />
		<tag k="ssr:stedsnr" v="1048895" />
		<tag k="ssr:type" v="adressenavn" />
	</node>
	<node lat="59.559860084640086" lon="9.308824915987994" id="-52354">
		<tag k="name" v="Gjermund Haugens veg" />
		<tag k="ssr:date" v="2019-12-27" />
		<tag k="ssr:gruppe" v="veg" />
		<tag k="ssr:hovedgruppe" v="infrastruktur" />
		<tag k="ssr:stedsnr" v="1048901" />
		<tag k="ssr:type" v="adressenavn" />
	</node>
	<node lat="59.57446300440752" lon="9.265380327239528" id="-52355">
		<tag k="name" v="Einar Gerhardsensvei" />
		<tag k="ssr:date" v="2019-12-27" />
		<tag k="ssr:gruppe" v="veg" />
		<tag k="ssr:hovedgruppe" v="infrastruktur" />
		<tag k="ssr:stedsnr" v="1048904" />
		<tag k="ssr:type" v="adressenavn" />
	</node>
	<node lat="59.61086499729226" lon="9.01836181236161" id="-52357">
		<tag k="name" v="Dålånvegen" />
		<tag k="ssr:date" v="2019-12-27" />
		<tag k="ssr:gruppe" v="veg" />
		<tag k="ssr:hovedgruppe" v="infrastruktur" />
		<tag k="ssr:stedsnr" v="1048909" />
		<tag k="ssr:type" v="adressenavn" />
	</node>
	<node lat="59.57371264788548" lon="9.193727781588008" id="-52388">
		<tag k="name" v="Haugmovegen" />
		<tag k="ssr:date" v="2019-12-27" />
		<tag k="ssr:gruppe" v="veg" />
		<tag k="ssr:hovedgruppe" v="infrastruktur" />
		<tag k="ssr:stedsnr" v="1048984" />
		<tag k="ssr:type" v="adressenavn" />
	</node>
	<node lat="59.572901742601424" lon="9.204711975097549" id="-52425">
		<tag k="name" v="Vårfjoslia" />
		<tag k="ssr:date" v="2019-12-27" />
		<tag k="ssr:gruppe" v="veg" />
		<tag k="ssr:hovedgruppe" v="infrastruktur" />
		<tag k="ssr:stedsnr" v="1049101" />
		<tag k="ssr:type" v="adressenavn" />
	</node>
	<node lat="59.56199972696665" lon="9.245559047677988" id="-52426">
		<tag k="name" v="Vrådals gate" />
		<tag k="ssr:date" v="2019-12-27" />
		<tag k="ssr:gruppe" v="veg" />
		<tag k="ssr:hovedgruppe" v="infrastruktur" />
		<tag k="ssr:stedsnr" v="1049132" />
		<tag k="ssr:type" v="adressenavn" />
	</node>
	<node lat="59.56411312523018" lon="9.27410555447093" id="-52434">
		<tag k="name" v="Welhavens gate" />
		<tag k="ssr:date" v="2019-12-27" />
		<tag k="ssr:gruppe" v="veg" />
		<tag k="ssr:hovedgruppe" v="infrastruktur" />
		<tag k="ssr:stedsnr" v="1049079" />
		<tag k="ssr:type" v="adressenavn" />
	</node>
	<node lat="59.57210207776921" lon="9.205415963010353" id="-52435">
		<tag k="name" v="Rognåkervegen" />
		<tag k="ssr:date" v="2019-12-27" />
		<tag k="ssr:gruppe" v="veg" />
		<tag k="ssr:hovedgruppe" v="infrastruktur" />
		<tag k="ssr:stedsnr" v="1049788" />
		<tag k="ssr:type" v="adressenavn" />
	</node>
	<node lat="59.568067431655976" lon="9.212138159780304" id="-52436">
		<tag k="name" v="Rogneståvegen" />
		<tag k="ssr:date" v="2019-12-27" />
		<tag k="ssr:gruppe" v="veg" />
		<tag k="ssr:hovedgruppe" v="infrastruktur" />
		<tag k="ssr:stedsnr" v="1049792" />
		<tag k="ssr:type" v="adressenavn" />
	</node>
	<node lat="59.572199050049655" lon="9.201193745649068" id="-52437">
		<tag k="name" v="Skilrudvegen" />
		<tag k="ssr:date" v="2019-12-27" />
		<tag k="ssr:gruppe" v="veg" />
		<tag k="ssr:hovedgruppe" v="infrastruktur" />
		<tag k="ssr:stedsnr" v="1049794" />
		<tag k="ssr:type" v="adressenavn" />
	</node>
	<node lat="59.58541915964743" lon="9.27370717054561" id="-52438">
		<tag k="name" v="Skardsåsvegen" />
		<tag k="ssr:date" v="2019-12-27" />
		<tag k="ssr:gruppe" v="veg" />
		<tag k="ssr:hovedgruppe" v="infrastruktur" />
		<tag k="ssr:stedsnr" v="1049796" />
		<tag k="ssr:type" v="adressenavn" />
	</node>
	<node lat="59.55839718456771" lon="9.194019732620344" id="-52439">
		<tag k="name" v="Skardsvegen" />
		<tag k="ssr:date" v="2019-12-27" />
		<tag k="ssr:gruppe" v="veg" />
		<tag k="ssr:hovedgruppe" v="infrastruktur" />
		<tag k="ssr:stedsnr" v="1049798" />
		<tag k="ssr:type" v="adressenavn" />
	</node>
	<node lat="59.56125725970712" lon="9.235772209291959" id="-52440">
		<tag k="name" v="Semsvegen" />
		<tag k="ssr:date" v="2019-12-27" />
		<tag k="ssr:gruppe" v="veg" />
		<tag k="ssr:hovedgruppe" v="infrastruktur" />
		<tag k="ssr:stedsnr" v="1049799" />
		<tag k="ssr:type" v="adressenavn" />
	</node>
	<node lat="59.55224281646752" lon="9.28491316060318" id="-52441">
		<tag k="name" v="Sandsdalens gate" />
		<tag k="ssr:date" v="2019-12-27" />
		<tag k="ssr:gruppe" v="veg" />
		<tag k="ssr:hovedgruppe" v="infrastruktur" />
		<tag k="ssr:stedsnr" v="1049804" />
		<tag k="ssr:type" v="adressenavn" />
	</node>
	<node lat="59.557166492017004" lon="9.259411688779402" id="-52442">
		<tag k="name" v="Sam Eydes gate" />
		<tag k="ssr:date" v="2019-12-27" />
		<tag k="ssr:gruppe" v="veg" />
		<tag k="ssr:hovedgruppe" v="infrastruktur" />
		<tag k="ssr:stedsnr" v="1049807" />
		<tag k="ssr:type" v="adressenavn" />
	</node>
	<node lat="59.561013308737685" lon="9.27380701525152" id="-52443">
		<tag k="name" v="Sagveien" />
		<tag k="ssr:date" v="2019-12-27" />
		<tag k="ssr:gruppe" v="veg" />
		<tag k="ssr:hovedgruppe" v="infrastruktur" />
		<tag k="ssr:stedsnr" v="1049810" />
		<tag k="ssr:type" v="adressenavn" />
	</node>
	<node lat="59.56171994961787" lon="9.238523952877317" id="-52444">
		<tag k="name" v="Sagdalen" />
		<tag k="ssr:date" v="2019-12-27" />
		<tag k="ssr:gruppe" v="veg" />
		<tag k="ssr:hovedgruppe" v="infrastruktur" />
		<tag k="ssr:stedsnr" v="1049814" />
		<tag k="ssr:type" v="adressenavn" />
	</node>
	<node lat="59.560917739371405" lon="9.26300151783696" id="-52445">
		<tag k="name" v="Villaveien" />
		<tag k="ssr:date" v="2019-12-27" />
		<tag k="ssr:gruppe" v="veg" />
		<tag k="ssr:hovedgruppe" v="infrastruktur" />
		<tag k="ssr:stedsnr" v="1049160" />
		<tag k="ssr:type" v="adressenavn" />
	</node>
	<node lat="59.57244731970492" lon="9.271008482641793" id="-52446">
		<tag k="name" v="Viggo Hansteens gate" />
		<tag k="ssr:date" v="2019-12-27" />
		<tag k="ssr:gruppe" v="veg" />
		<tag k="ssr:hovedgruppe" v="infrastruktur" />
		<tag k="ssr:stedsnr" v="1049174" />
		<tag k="ssr:type" v="adressenavn" />
	</node>
	<node lat="59.58684528693967" lon="9.15899983565966" id="-52449">
		<tag k="name" v="Tovsrudvegen" />
		<tag k="ssr:date" v="2019-12-27" />
		<tag k="ssr:gruppe" v="veg" />
		<tag k="ssr:hovedgruppe" v="infrastruktur" />
		<tag k="ssr:stedsnr" v="1049237" />
		<tag k="ssr:type" v="adressenavn" />
	</node>
	<node lat="59.594455466112876" lon="9.036111689489264" id="-52450">
		<tag k="name" v="Furumoen" />
		<tag k="ssr:date" v="2019-12-27" />
		<tag k="ssr:gruppe" v="veg" />
		<tag k="ssr:hovedgruppe" v="infrastruktur" />
		<tag k="ssr:stedsnr" v="1049240" />
		<tag k="ssr:type" v="adressenavn" />
	</node>
	<node lat="59.590664825311016" lon="9.148185807220068" id="-52451">
		<tag k="name" v="Veltavegen" />
		<tag k="ssr:date" v="2019-12-27" />
		<tag k="ssr:gruppe" v="veg" />
		<tag k="ssr:hovedgruppe" v="infrastruktur" />
		<tag k="ssr:stedsnr" v="1049244" />
		<tag k="ssr:type" v="adressenavn" />
	</node>
	<node lat="59.592295942093095" lon="9.15187102050528" id="-52452">
		<tag k="name" v="Flylandvegen" />
		<tag k="ssr:date" v="2019-12-27" />
		<tag k="ssr:gruppe" v="veg" />
		<tag k="ssr:hovedgruppe" v="infrastruktur" />
		<tag k="ssr:stedsnr" v="1049248" />
		<tag k="ssr:type" v="adressenavn" />
	</node>
	<node lat="59.576997002136764" lon="9.18684001070544" id="-52455">
		<tag k="name" v="Svintrudvegen" />
		<tag k="ssr:date" v="2019-12-27" />
		<tag k="ssr:gruppe" v="veg" />
		<tag k="ssr:hovedgruppe" v="infrastruktur" />
		<tag k="ssr:stedsnr" v="1049265" />
		<tag k="ssr:type" v="adressenavn" />
	</node>
	<node lat="59.60100816645494" lon="9.112692283902224" id="-52457">
		<tag k="name" v="Sundevegen" />
		<tag k="ssr:date" v="2019-12-27" />
		<tag k="ssr:gruppe" v="veg" />
		<tag k="ssr:hovedgruppe" v="infrastruktur" />
		<tag k="ssr:stedsnr" v="1049272" />
		<tag k="ssr:type" v="adressenavn" />
	</node>
	<node lat="59.60075086218298" lon="9.118838391270515" id="-52458">
		<tag k="name" v="Surtevjuvegen" />
		<tag k="ssr:date" v="2019-12-27" />
		<tag k="ssr:gruppe" v="veg" />
		<tag k="ssr:hovedgruppe" v="infrastruktur" />
		<tag k="ssr:stedsnr" v="1049276" />
		<tag k="ssr:type" v="adressenavn" />
	</node>
	<node lat="59.593193065214116" lon="9.145118820247747" id="-52459">
		<tag k="name" v="Stivimovegen" />
		<tag k="ssr:date" v="2019-12-27" />
		<tag k="ssr:gruppe" v="veg" />
		<tag k="ssr:hovedgruppe" v="infrastruktur" />
		<tag k="ssr:stedsnr" v="1049281" />
		<tag k="ssr:type" v="adressenavn" />
	</node>
	<node lat="59.577429837307704" lon="9.18464494336901" id="-52460">
		<tag k="name" v="Moenvegen" />
		<tag k="ssr:date" v="2019-12-27" />
		<tag k="ssr:gruppe" v="veg" />
		<tag k="ssr:hovedgruppe" v="infrastruktur" />
		<tag k="ssr:stedsnr" v="1049339" />
		<tag k="ssr:type" v="adressenavn" />
	</node>
	<node lat="59.59888667210485" lon="9.094759426417177" id="-52461">
		<tag k="name" v="Nørstrudvegen" />
		<tag k="ssr:date" v="2019-12-27" />
		<tag k="ssr:gruppe" v="veg" />
		<tag k="ssr:hovedgruppe" v="infrastruktur" />
		<tag k="ssr:stedsnr" v="1049343" />
		<tag k="ssr:type" v="adressenavn" />
	</node>
	<node lat="59.57106308617987" lon="9.274672452488085" id="-52462">
		<tag k="name" v="Åsveien" />
		<tag k="ssr:date" v="2019-12-27" />
		<tag k="ssr:gruppe" v="veg" />
		<tag k="ssr:hovedgruppe" v="infrastruktur" />
		<tag k="ssr:stedsnr" v="1049347" />
		<tag k="ssr:type" v="adressenavn" />
	</node>
	<node lat="59.56895967703603" lon="9.270457504358253" id="-52464">
		<tag k="name" v="Urbyes vei" />
		<tag k="ssr:date" v="2019-12-27" />
		<tag k="ssr:gruppe" v="veg" />
		<tag k="ssr:hovedgruppe" v="infrastruktur" />
		<tag k="ssr:stedsnr" v="1049193" />
		<tag k="ssr:type" v="adressenavn" />
	</node>
	<node lat="59.563319815445055" lon="9.299657777852367" id="-52465">
		<tag k="name" v="Henry Finruds veg" />
		<tag k="ssr:date" v="2019-12-27" />
		<tag k="ssr:gruppe" v="veg" />
		<tag k="ssr:hovedgruppe" v="infrastruktur" />
		<tag k="ssr:stedsnr" v="1049214" />
		<tag k="ssr:type" v="adressenavn" />
	</node>
	<node lat="59.595292001381615" lon="9.135249006215057" id="-52466">
		<tag k="name" v="Viperudmovegen" />
		<tag k="ssr:date" v="2019-12-27" />
		<tag k="ssr:gruppe" v="veg" />
		<tag k="ssr:hovedgruppe" v="infrastruktur" />
		<tag k="ssr:stedsnr" v="1049219" />
		<tag k="ssr:type" v="adressenavn" />
	</node>
	<node lat="59.5961315178544" lon="9.137568409917918" id="-52467">
		<tag k="name" v="Villandvegen" />
		<tag k="ssr:date" v="2019-12-27" />
		<tag k="ssr:gruppe" v="veg" />
		<tag k="ssr:hovedgruppe" v="infrastruktur" />
		<tag k="ssr:stedsnr" v="1049231" />
		<tag k="ssr:type" v="adressenavn" />
	</node>
	<node lat="59.59220902130123" lon="9.148546250653986" id="-52468">
		<tag k="name" v="Stivivegen" />
		<tag k="ssr:date" v="2019-12-27" />
		<tag k="ssr:gruppe" v="veg" />
		<tag k="ssr:hovedgruppe" v="infrastruktur" />
		<tag k="ssr:stedsnr" v="1049286" />
		<tag k="ssr:type" v="adressenavn" />
	</node>
	<node lat="59.576286668921135" lon="9.19425892247144" id="-52469">
		<tag k="name" v="Solbakkvegen" />
		<tag k="ssr:date" v="2019-12-27" />
		<tag k="ssr:gruppe" v="veg" />
		<tag k="ssr:hovedgruppe" v="infrastruktur" />
		<tag k="ssr:stedsnr" v="1049291" />
		<tag k="ssr:type" v="adressenavn" />
	</node>
	<node lat="59.58290324842215" lon="9.27237542631472" id="-52471">
		<tag k="name" v="Årnesvegen" />
		<tag k="ssr:date" v="2019-12-27" />
		<tag k="ssr:gruppe" v="veg" />
		<tag k="ssr:hovedgruppe" v="infrastruktur" />
		<tag k="ssr:stedsnr" v="1049301" />
		<tag k="ssr:type" v="adressenavn" />
	</node>
	<node lat="59.60099170462571" lon="9.116038570577784" id="-52472">
		<tag k="name" v="Seljordsvegen" />
		<tag k="ssr:date" v="2019-12-27" />
		<tag k="ssr:gruppe" v="veg" />
		<tag k="ssr:hovedgruppe" v="infrastruktur" />
		<tag k="ssr:stedsnr" v="1049306" />
		<tag k="ssr:type" v="adressenavn" />
	</node>
	<node lat="59.56150309418715" lon="9.265874511854529" id="-52473">
		<tag k="name" v="Rådhusgata" />
		<tag k="ssr:date" v="2019-12-27" />
		<tag k="ssr:gruppe" v="veg" />
		<tag k="ssr:hovedgruppe" v="infrastruktur" />
		<tag k="ssr:stedsnr" v="1049313" />
		<tag k="ssr:type" v="adressenavn" />
	</node>
	<node lat="59.60075086218298" lon="9.118838391270515" id="-52474">
		<tag k="name" v="Rekåvegen" />
		<tag k="ssr:date" v="2019-12-27" />
		<tag k="ssr:gruppe" v="veg" />
		<tag k="ssr:hovedgruppe" v="infrastruktur" />
		<tag k="ssr:stedsnr" v="1049321" />
		<tag k="ssr:type" v="adressenavn" />
	</node>
	<node lat="59.58404716051803" lon="9.175692821850474" id="-52475">
		<tag k="name" v="Rindevegen" />
		<tag k="ssr:date" v="2019-12-27" />
		<tag k="ssr:gruppe" v="veg" />
		<tag k="ssr:hovedgruppe" v="infrastruktur" />
		<tag k="ssr:stedsnr" v="1049325" />
		<tag k="ssr:type" v="adressenavn" />
	</node>
	<node lat="59.57926763095386" lon="9.17672085269335" id="-52477">
		<tag k="name" v="Raud Rygis veg" />
		<tag k="ssr:date" v="2019-12-27" />
		<tag k="ssr:gruppe" v="veg" />
		<tag k="ssr:hovedgruppe" v="infrastruktur" />
		<tag k="ssr:stedsnr" v="1049334" />
		<tag k="ssr:type" v="adressenavn" />
	</node>
	<node lat="59.59327939488577" lon="9.150439662131648" id="-52480">
		<tag k="name" v="Løkjavegen" />
		<tag k="ssr:date" v="2019-12-27" />
		<tag k="ssr:gruppe" v="veg" />
		<tag k="ssr:hovedgruppe" v="infrastruktur" />
		<tag k="ssr:stedsnr" v="1049361" />
		<tag k="ssr:type" v="adressenavn" />
	</node>
	<node lat="59.59574450554945" lon="9.139420179267743" id="-52482">
		<tag k="name" v="Håbergvegen" />
		<tag k="ssr:date" v="2019-12-27" />
		<tag k="ssr:gruppe" v="veg" />
		<tag k="ssr:hovedgruppe" v="infrastruktur" />
		<tag k="ssr:stedsnr" v="1049372" />
		<tag k="ssr:type" v="adressenavn" />
	</node>
	<node lat="59.58642576874319" lon="9.162170155935106" id="-52483">
		<tag k="name" v="Jomfru Hannas veg" />
		<tag k="ssr:date" v="2019-12-27" />
		<tag k="ssr:gruppe" v="veg" />
		<tag k="ssr:hovedgruppe" v="infrastruktur" />
		<tag k="ssr:stedsnr" v="1049376" />
		<tag k="ssr:type" v="adressenavn" />
	</node>
	<node lat="59.584668055278314" lon="9.16369176528081" id="-52484">
		<tag k="name" v="Hollavegen" />
		<tag k="ssr:date" v="2019-12-27" />
		<tag k="ssr:gruppe" v="veg" />
		<tag k="ssr:hovedgruppe" v="infrastruktur" />
		<tag k="ssr:stedsnr" v="1049381" />
		<tag k="ssr:type" v="adressenavn" />
	</node>
	<node lat="59.55914662418694" lon="9.258181381915195" id="-52487">
		<tag k="name" v="Oscar Nissens gate" />
		<tag k="ssr:date" v="2019-12-27" />
		<tag k="ssr:gruppe" v="veg" />
		<tag k="ssr:hovedgruppe" v="infrastruktur" />
		<tag k="ssr:stedsnr" v="1049478" />
		<tag k="ssr:type" v="adressenavn" />
	</node>
	<node lat="59.55220223302657" lon="9.285215669159705" id="-52488">
		<tag k="name" v="Ordfører Strandlies gate" />
		<tag k="ssr:date" v="2019-12-27" />
		<tag k="ssr:gruppe" v="veg" />
		<tag k="ssr:hovedgruppe" v="infrastruktur" />
		<tag k="ssr:stedsnr" v="1049482" />
		<tag k="ssr:type" v="adressenavn" />
	</node>
	<node lat="59.55501408617443" lon="9.280776932595897" id="-52489">
		<tag k="name" v="Olea Crøgers gate" />
		<tag k="ssr:date" v="2019-12-27" />
		<tag k="ssr:gruppe" v="veg" />
		<tag k="ssr:hovedgruppe" v="infrastruktur" />
		<tag k="ssr:stedsnr" v="1049485" />
		<tag k="ssr:type" v="adressenavn" />
	</node>
	<node lat="59.56606286569227" lon="9.27219623468686" id="-52490">
		<tag k="name" v="Nordraaks gate" />
		<tag k="ssr:date" v="2019-12-27" />
		<tag k="ssr:gruppe" v="veg" />
		<tag k="ssr:hovedgruppe" v="infrastruktur" />
		<tag k="ssr:stedsnr" v="1049538" />
		<tag k="ssr:type" v="adressenavn" />
	</node>
	<node lat="59.58417428524718" lon="9.163277528145397" id="-52495">
		<tag k="name" v="Herbjørnsrudvegen" />
		<tag k="ssr:date" v="2019-12-27" />
		<tag k="ssr:gruppe" v="veg" />
		<tag k="ssr:hovedgruppe" v="infrastruktur" />
		<tag k="ssr:stedsnr" v="1049405" />
		<tag k="ssr:type" v="adressenavn" />
	</node>
	<node lat="59.600914845277785" lon="9.111287582726511" id="-52496">
		<tag k="name" v="Hellemvegen" />
		<tag k="ssr:date" v="2019-12-27" />
		<tag k="ssr:gruppe" v="veg" />
		<tag k="ssr:hovedgruppe" v="infrastruktur" />
		<tag k="ssr:stedsnr" v="1049412" />
		<tag k="ssr:type" v="adressenavn" />
	</node>
	<node lat="59.59669363551452" lon="9.159881631116672" id="-52497">
		<tag k="name" v="Enggravvegen" />
		<tag k="ssr:date" v="2019-12-27" />
		<tag k="ssr:gruppe" v="veg" />
		<tag k="ssr:hovedgruppe" v="infrastruktur" />
		<tag k="ssr:stedsnr" v="1049416" />
		<tag k="ssr:type" v="adressenavn" />
	</node>
	<node lat="59.576286668921135" lon="9.19425892247144" id="-52498">
		<tag k="name" v="Gulltunvegen" />
		<tag k="ssr:date" v="2019-12-27" />
		<tag k="ssr:gruppe" v="veg" />
		<tag k="ssr:hovedgruppe" v="infrastruktur" />
		<tag k="ssr:stedsnr" v="1049419" />
		<tag k="ssr:type" v="adressenavn" />
	</node>
	<node lat="59.57801629970649" lon="9.18876157631789" id="-52499">
		<tag k="name" v="Bekkhusvegen" />
		<tag k="ssr:date" v="2019-12-27" />
		<tag k="ssr:gruppe" v="veg" />
		<tag k="ssr:hovedgruppe" v="infrastruktur" />
		<tag k="ssr:stedsnr" v="1049424" />
		<tag k="ssr:type" v="adressenavn" />
	</node>
	<node lat="59.56094880476856" lon="9.191437876123665" id="-52500">
		<tag k="name" v="Ylivegen" />
		<tag k="ssr:date" v="2019-12-27" />
		<tag k="ssr:gruppe" v="veg" />
		<tag k="ssr:hovedgruppe" v="infrastruktur" />
		<tag k="ssr:stedsnr" v="1049433" />
		<tag k="ssr:type" v="adressenavn" />
	</node>
	<node lat="59.565857164564115" lon="9.266506490280515" id="-52501">
		<tag k="name" v="Ole Bulls gate" />
		<tag k="ssr:date" v="2019-12-27" />
		<tag k="ssr:gruppe" v="veg" />
		<tag k="ssr:hovedgruppe" v="infrastruktur" />
		<tag k="ssr:stedsnr" v="1049488" />
		<tag k="ssr:type" v="adressenavn" />
	</node>
	<node lat="59.56555852163428" lon="9.297691794026013" id="-52502">
		<tag k="name" v="Ole Bergs veg" />
		<tag k="ssr:date" v="2019-12-27" />
		<tag k="ssr:gruppe" v="veg" />
		<tag k="ssr:hovedgruppe" v="infrastruktur" />
		<tag k="ssr:stedsnr" v="1049490" />
		<tag k="ssr:type" v="adressenavn" />
	</node>
	<node lat="59.573038148087754" lon="9.259689869890263" id="-52503">
		<tag k="name" v="Olav Bjaalands gate" />
		<tag k="ssr:date" v="2019-12-27" />
		<tag k="ssr:gruppe" v="veg" />
		<tag k="ssr:hovedgruppe" v="infrastruktur" />
		<tag k="ssr:stedsnr" v="1049492" />
		<tag k="ssr:type" v="adressenavn" />
	</node>
	<node lat="59.56020367369781" lon="9.270078205561042" id="-52504">
		<tag k="name" v="Roald Amundsens gate" />
		<tag k="ssr:date" v="2019-12-27" />
		<tag k="ssr:gruppe" v="veg" />
		<tag k="ssr:hovedgruppe" v="infrastruktur" />
		<tag k="ssr:stedsnr" v="1049495" />
		<tag k="ssr:type" v="adressenavn" />
	</node>
	<node lat="59.56938206780581" lon="9.270416893281809" id="-52505">
		<tag k="name" v="Radioveien" />
		<tag k="ssr:date" v="2019-12-27" />
		<tag k="ssr:gruppe" v="veg" />
		<tag k="ssr:hovedgruppe" v="infrastruktur" />
		<tag k="ssr:stedsnr" v="1049498" />
		<tag k="ssr:type" v="adressenavn" />
	</node>
	<node lat="59.56376067676213" lon="9.257193544662709" id="-52506">
		<tag k="name" v="Professor Tronstads gate" />
		<tag k="ssr:date" v="2019-12-27" />
		<tag k="ssr:gruppe" v="veg" />
		<tag k="ssr:hovedgruppe" v="infrastruktur" />
		<tag k="ssr:stedsnr" v="1049500" />
		<tag k="ssr:type" v="adressenavn" />
	</node>
	<node lat="59.56405068652112" lon="9.254719894368735" id="-52507">
		<tag k="name" v="Peter Hognestads gate" />
		<tag k="ssr:date" v="2019-12-27" />
		<tag k="ssr:gruppe" v="veg" />
		<tag k="ssr:hovedgruppe" v="infrastruktur" />
		<tag k="ssr:stedsnr" v="1049503" />
		<tag k="ssr:type" v="adressenavn" />
	</node>
	<node lat="59.56413465632768" lon="9.276039194598518" id="-52508">
		<tag k="name" v="Parkveien" />
		<tag k="ssr:date" v="2019-12-27" />
		<tag k="ssr:gruppe" v="veg" />
		<tag k="ssr:hovedgruppe" v="infrastruktur" />
		<tag k="ssr:stedsnr" v="1049505" />
		<tag k="ssr:type" v="adressenavn" />
	</node>
	<node lat="59.56575762880089" lon="9.298120138815769" id="-52509">
		<tag k="name" v="Pans veg" />
		<tag k="ssr:date" v="2019-12-27" />
		<tag k="ssr:gruppe" v="veg" />
		<tag k="ssr:hovedgruppe" v="infrastruktur" />
		<tag k="ssr:stedsnr" v="1049508" />
		<tag k="ssr:type" v="adressenavn" />
	</node>
	<node lat="59.57202649643162" lon="9.266186546509699" id="-52510">
		<tag k="name" v="Otto Sverdrups gate" />
		<tag k="ssr:date" v="2019-12-27" />
		<tag k="ssr:gruppe" v="veg" />
		<tag k="ssr:hovedgruppe" v="infrastruktur" />
		<tag k="ssr:stedsnr" v="1049513" />
		<tag k="ssr:type" v="adressenavn" />
	</node>
	<node lat="59.56548704226994" lon="9.273310878151394" id="-52511">
		<tag k="name" v="Nyveien" />
		<tag k="ssr:date" v="2019-12-27" />
		<tag k="ssr:gruppe" v="veg" />
		<tag k="ssr:hovedgruppe" v="infrastruktur" />
		<tag k="ssr:stedsnr" v="1049515" />
		<tag k="ssr:type" v="adressenavn" />
	</node>
	<node lat="59.56156093588069" lon="9.240305542814149" id="-52512">
		<tag k="name" v="Nord-Tinnesvegen" />
		<tag k="ssr:date" v="2019-12-27" />
		<tag k="ssr:gruppe" v="veg" />
		<tag k="ssr:hovedgruppe" v="infrastruktur" />
		<tag k="ssr:stedsnr" v="1049598" />
		<tag k="ssr:type" v="adressenavn" />
	</node>
	<node lat="59.55937944912098" lon="9.252511321607733" id="-52513">
		<tag k="name" v="Nesøya" />
		<tag k="ssr:date" v="2019-12-27" />
		<tag k="ssr:gruppe" v="veg" />
		<tag k="ssr:hovedgruppe" v="infrastruktur" />
		<tag k="ssr:stedsnr" v="1049620" />
		<tag k="ssr:type" v="adressenavn" />
	</node>
	<node lat="59.56189201073624" lon="9.262833634591628" id="-52514">
		<tag k="name" v="O H Holtas gate" />
		<tag k="ssr:date" v="2019-12-27" />
		<tag k="ssr:gruppe" v="veg" />
		<tag k="ssr:hovedgruppe" v="infrastruktur" />
		<tag k="ssr:stedsnr" v="1049695" />
		<tag k="ssr:type" v="adressenavn" />
	</node>
	<node lat="59.57155167154668" lon="9.205509127354485" id="-52515">
		<tag k="name" v="O G Hauges veg" />
		<tag k="ssr:date" v="2019-12-27" />
		<tag k="ssr:gruppe" v="veg" />
		<tag k="ssr:hovedgruppe" v="infrastruktur" />
		<tag k="ssr:stedsnr" v="1049706" />
		<tag k="ssr:type" v="adressenavn" />
	</node>
	<node lat="59.574573607775704" lon="9.197946275730246" id="-52516">
		<tag k="name" v="Steinbakkvegen" />
		<tag k="ssr:date" v="2019-12-27" />
		<tag k="ssr:gruppe" v="veg" />
		<tag k="ssr:hovedgruppe" v="infrastruktur" />
		<tag k="ssr:stedsnr" v="1049723" />
		<tag k="ssr:type" v="adressenavn" />
	</node>
	<node lat="59.56742610636693" lon="9.259653794376726" id="-52517">
		<tag k="name" v="Stallbakken" />
		<tag k="ssr:date" v="2019-12-27" />
		<tag k="ssr:gruppe" v="veg" />
		<tag k="ssr:hovedgruppe" v="infrastruktur" />
		<tag k="ssr:stedsnr" v="1049726" />
		<tag k="ssr:type" v="adressenavn" />
	</node>
	<node lat="59.56855740990243" lon="9.293738605401282" id="-52518">
		<tag k="name" v="Solskinnsvegen" />
		<tag k="ssr:date" v="2019-12-27" />
		<tag k="ssr:gruppe" v="veg" />
		<tag k="ssr:hovedgruppe" v="infrastruktur" />
		<tag k="ssr:stedsnr" v="1049728" />
		<tag k="ssr:type" v="adressenavn" />
	</node>
	<node lat="59.58252463192731" lon="9.271131878584514" id="-52519">
		<tag k="name" v="Nordre Skogenvei" />
		<tag k="ssr:date" v="2019-12-27" />
		<tag k="ssr:gruppe" v="veg" />
		<tag k="ssr:hovedgruppe" v="infrastruktur" />
		<tag k="ssr:stedsnr" v="1049557" />
		<tag k="ssr:type" v="adressenavn" />
	</node>
	<node lat="59.56677982868923" lon="9.272451911938086" id="-52520">
		<tag k="name" v="Nordahl Griegs gate" />
		<tag k="ssr:date" v="2019-12-27" />
		<tag k="ssr:gruppe" v="veg" />
		<tag k="ssr:hovedgruppe" v="infrastruktur" />
		<tag k="ssr:stedsnr" v="1049576" />
		<tag k="ssr:type" v="adressenavn" />
	</node>
	<node lat="59.56912031593588" lon="9.259214797947749" id="-52521">
		<tag k="name" v="Nesherads gate" />
		<tag k="ssr:date" v="2019-12-27" />
		<tag k="ssr:gruppe" v="veg" />
		<tag k="ssr:hovedgruppe" v="infrastruktur" />
		<tag k="ssr:stedsnr" v="1049648" />
		<tag k="ssr:type" v="adressenavn" />
	</node>
	<node lat="59.56344501837067" lon="9.301244719068565" id="-52522">
		<tag k="name" v="Ola Storengs veg" />
		<tag k="ssr:date" v="2019-12-27" />
		<tag k="ssr:gruppe" v="veg" />
		<tag k="ssr:hovedgruppe" v="infrastruktur" />
		<tag k="ssr:stedsnr" v="1049659" />
		<tag k="ssr:type" v="adressenavn" />
	</node>
	<node lat="59.56101793301447" lon="9.19300930806478" id="-52523">
		<tag k="name" v="Ola Lensmanns veg" />
		<tag k="ssr:date" v="2019-12-27" />
		<tag k="ssr:gruppe" v="veg" />
		<tag k="ssr:hovedgruppe" v="infrastruktur" />
		<tag k="ssr:stedsnr" v="1049661" />
		<tag k="ssr:type" v="adressenavn" />
	</node>
	<node lat="59.55017969610572" lon="9.282175971993107" id="-52524">
		<tag k="name" v="Ola Hanssons gate" />
		<tag k="ssr:date" v="2019-12-27" />
		<tag k="ssr:gruppe" v="veg" />
		<tag k="ssr:hovedgruppe" v="infrastruktur" />
		<tag k="ssr:stedsnr" v="1049673" />
		<tag k="ssr:type" v="adressenavn" />
	</node>
	<node lat="59.56390215690112" lon="9.271533826078056" id="-52525">
		<tag k="name" v="Olaf Ryes gate" />
		<tag k="ssr:date" v="2019-12-27" />
		<tag k="ssr:gruppe" v="veg" />
		<tag k="ssr:hovedgruppe" v="infrastruktur" />
		<tag k="ssr:stedsnr" v="1049684" />
		<tag k="ssr:type" v="adressenavn" />
	</node>
	<node lat="59.5609410579957" lon="9.264269332195006" id="-52526">
		<tag k="name" v="Skogveien" />
		<tag k="ssr:date" v="2019-12-27" />
		<tag k="ssr:gruppe" v="veg" />
		<tag k="ssr:hovedgruppe" v="infrastruktur" />
		<tag k="ssr:stedsnr" v="1049739" />
		<tag k="ssr:type" v="adressenavn" />
	</node>
	<node lat="59.56446252663077" lon="9.26631441684108" id="-52527">
		<tag k="name" v="Solhaugveien" />
		<tag k="ssr:date" v="2019-12-27" />
		<tag k="ssr:gruppe" v="veg" />
		<tag k="ssr:hovedgruppe" v="infrastruktur" />
		<tag k="ssr:stedsnr" v="1049730" />
		<tag k="ssr:type" v="adressenavn" />
	</node>
	<node lat="59.568151515428966" lon="9.215779303724858" id="-52528">
		<tag k="name" v="Skrivar Wessels veg" />
		<tag k="ssr:date" v="2019-12-27" />
		<tag k="ssr:gruppe" v="veg" />
		<tag k="ssr:hovedgruppe" v="infrastruktur" />
		<tag k="ssr:stedsnr" v="1049733" />
		<tag k="ssr:type" v="adressenavn" />
	</node>
	<node lat="59.56099161213991" lon="9.26585002475366" id="-52529">
		<tag k="name" v="Skolegata" />
		<tag k="ssr:date" v="2019-12-27" />
		<tag k="ssr:gruppe" v="veg" />
		<tag k="ssr:hovedgruppe" v="infrastruktur" />
		<tag k="ssr:stedsnr" v="1049735" />
		<tag k="ssr:type" v="adressenavn" />
	</node>
	<node lat="59.565279223201856" lon="9.258243289309519" id="-52530">
		<tag k="name" v="Sykehusveien" />
		<tag k="ssr:date" v="2019-12-27" />
		<tag k="ssr:gruppe" v="veg" />
		<tag k="ssr:hovedgruppe" v="infrastruktur" />
		<tag k="ssr:stedsnr" v="1049746" />
		<tag k="ssr:type" v="adressenavn" />
	</node>
	<node lat="59.57947440931377" lon="9.27069199740444" id="-52531">
		<tag k="name" v="Svingen" />
		<tag k="ssr:date" v="2019-12-27" />
		<tag k="ssr:gruppe" v="veg" />
		<tag k="ssr:hovedgruppe" v="infrastruktur" />
		<tag k="ssr:stedsnr" v="1049751" />
		<tag k="ssr:type" v="adressenavn" />
	</node>
	<node lat="59.579782747093375" lon="9.259104253568928" id="-52532">
		<tag k="name" v="Svelgfossvegen" />
		<tag k="ssr:date" v="2019-12-27" />
		<tag k="ssr:gruppe" v="veg" />
		<tag k="ssr:hovedgruppe" v="infrastruktur" />
		<tag k="ssr:stedsnr" v="1049755" />
		<tag k="ssr:type" v="adressenavn" />
	</node>
	<node lat="59.552427074749986" lon="9.280635322096062" id="-52533">
		<tag k="name" v="Svalbardgata" />
		<tag k="ssr:date" v="2019-12-27" />
		<tag k="ssr:gruppe" v="veg" />
		<tag k="ssr:hovedgruppe" v="infrastruktur" />
		<tag k="ssr:stedsnr" v="1049759" />
		<tag k="ssr:type" v="adressenavn" />
	</node>
	<node lat="59.566623938265195" lon="9.293905479140822" id="-52534">
		<tag k="name" v="Surtetjønn-vegen" />
		<tag k="ssr:date" v="2019-12-27" />
		<tag k="ssr:gruppe" v="veg" />
		<tag k="ssr:hovedgruppe" v="infrastruktur" />
		<tag k="ssr:stedsnr" v="1049762" />
		<tag k="ssr:type" v="adressenavn" />
	</node>
	<node lat="59.57399233414081" lon="9.195589405006283" id="-52535">
		<tag k="name" v="Sundmannvegen" />
		<tag k="ssr:date" v="2019-12-27" />
		<tag k="ssr:gruppe" v="veg" />
		<tag k="ssr:hovedgruppe" v="infrastruktur" />
		<tag k="ssr:stedsnr" v="1049765" />
		<tag k="ssr:type" v="adressenavn" />
	</node>
	<node lat="59.5571792647064" lon="9.255021640394146" id="-52536">
		<tag k="name" v="Storgata" />
		<tag k="ssr:date" v="2019-12-27" />
		<tag k="ssr:gruppe" v="veg" />
		<tag k="ssr:hovedgruppe" v="infrastruktur" />
		<tag k="ssr:stedsnr" v="1049767" />
		<tag k="ssr:type" v="adressenavn" />
	</node>
	<node lat="59.569804183564656" lon="9.26187182797154" id="-52537">
		<tag k="name" v="Sagafossveien" />
		<tag k="ssr:date" v="2019-12-27" />
		<tag k="ssr:gruppe" v="veg" />
		<tag k="ssr:hovedgruppe" v="infrastruktur" />
		<tag k="ssr:stedsnr" v="1049770" />
		<tag k="ssr:type" v="adressenavn" />
	</node>
	<node lat="59.56737474349311" lon="9.297155107023052" id="-52538">
		<tag k="name" v="Røsslyngvegen" />
		<tag k="ssr:date" v="2019-12-27" />
		<tag k="ssr:gruppe" v="veg" />
		<tag k="ssr:hovedgruppe" v="infrastruktur" />
		<tag k="ssr:stedsnr" v="1049775" />
		<tag k="ssr:type" v="adressenavn" />
	</node>
	<node lat="59.57627614767531" lon="9.271945531662192" id="-52539">
		<tag k="name" v="Rugdevegen" />
		<tag k="ssr:date" v="2019-12-27" />
		<tag k="ssr:gruppe" v="veg" />
		<tag k="ssr:hovedgruppe" v="infrastruktur" />
		<tag k="ssr:stedsnr" v="1049778" />
		<tag k="ssr:type" v="adressenavn" />
	</node>
	<node lat="59.57529127480484" lon="9.27126701545098" id="-52540">
		<tag k="name" v="Rolf Wickstrøms gate" />
		<tag k="ssr:date" v="2019-12-27" />
		<tag k="ssr:gruppe" v="veg" />
		<tag k="ssr:hovedgruppe" v="infrastruktur" />
		<tag k="ssr:stedsnr" v="1049781" />
		<tag k="ssr:type" v="adressenavn" />
	</node>
	<node lat="59.562397401427255" lon="9.276609802615146" id="-52541">
		<tag k="name" v="Rolf Prydz gate" />
		<tag k="ssr:date" v="2019-12-27" />
		<tag k="ssr:gruppe" v="veg" />
		<tag k="ssr:hovedgruppe" v="infrastruktur" />
		<tag k="ssr:stedsnr" v="1049784" />
		<tag k="ssr:type" v="adressenavn" />
	</node>
	<node lat="59.5735153825996" lon="9.294545079706998" id="-52552">
		<tag k="name" v="Fykerudlia" />
		<tag k="ssr:date" v="2021-06-01" />
		<tag k="ssr:gruppe" v="veg" />
		<tag k="ssr:hovedgruppe" v="infrastruktur" />
		<tag k="ssr:stedsnr" v="1081410" />
		<tag k="ssr:type" v="adressenavn" />
	</node>
	<node lat="59.57243341106855" lon="9.29727191618687" id="-52553">
		<tag k="name" v="Godbakkvegen" />
		<tag k="ssr:date" v="2021-08-10" />
		<tag k="ssr:gruppe" v="veg" />
		<tag k="ssr:hovedgruppe" v="infrastruktur" />
		<tag k="ssr:stedsnr" v="1081411" />
		<tag k="ssr:type" v="adressenavn" />
	</node>
	<node lat="59.57397155512222" lon="9.295345626180948" id="-52554">
		<tag k="name" v="Velenvegen" />
		<tag k="ssr:date" v="2021-06-01" />
		<tag k="ssr:gruppe" v="veg" />
		<tag k="ssr:hovedgruppe" v="infrastruktur" />
		<tag k="ssr:stedsnr" v="1081412" />
		<tag k="ssr:type" v="adressenavn" />
	</node>
	<node lat="59.57457175845212" lon="9.295988144873991" id="-52555">
		<tag k="name" v="Langeskotvegen" />
		<tag k="ssr:date" v="2021-06-01" />
		<tag k="ssr:gruppe" v="veg" />
		<tag k="ssr:hovedgruppe" v="infrastruktur" />
		<tag k="ssr:stedsnr" v="1081413" />
		<tag k="ssr:type" v="adressenavn" />
	</node>
	<node lat="59.57544098944766" lon="9.296792373112805" id="-52556">
		<tag k="name" v="Vesle Nybuåsveg" />
		<tag k="ssr:date" v="2021-06-01" />
		<tag k="ssr:gruppe" v="veg" />
		<tag k="ssr:hovedgruppe" v="infrastruktur" />
		<tag k="ssr:stedsnr" v="1081414" />
		<tag k="ssr:type" v="adressenavn" />
	</node>
</osm>
