<?xml version="1.0" encoding="UTF-8"?>
<osm generator="osmapis" version="0.6">
	<node id="-542736" lat="62.0154999977" lon="5.45657500531">
		<tag k="name" v="Gamle Kongevegen" />
		<tag k="ssr:date" v="2016-05-11" />
		<tag k="ssr:gruppe" v="veg" />
		<tag k="ssr:hovedgruppe" v="infrastruktur" />
		<tag k="ssr:stedsnr" v="778542" />
		<tag k="ssr:type" v="vegstrekning" />
	</node>
	<node id="-542940" lat="62.0328332111" lon="5.34386810218">
		<tag k="alt_name" v="Saltnes lykt" />
		<tag k="name" v="Saltnes" />
		<tag k="old_name" v="Saltaneset;Salt lykt" />
		<tag k="ssr:date" v="2019-12-06" />
		<tag k="ssr:gruppe" v="navigasjon" />
		<tag k="ssr:hovedgruppe" v="infrastruktur" />
		<tag k="ssr:stedsnr" v="921261" />
		<tag k="ssr:type" v="fyrlykt" />
	</node>
	<node id="-543034" lat="62.1940361117" lon="5.190761103">
		<tag k="name" v="Stattvågen søre molo" />
		<tag k="ssr:date" v="2016-05-11" />
		<tag k="ssr:gruppe" v="navigasjon" />
		<tag k="ssr:hovedgruppe" v="infrastruktur" />
		<tag k="ssr:stedsnr" v="966228" />
		<tag k="ssr:type" v="lanterne" />
	</node>
	<node id="-542073" lat="62.0439083365" lon="5.34478333587">
		<tag k="alt_name" v="Selje" />
		<tag k="name" v="Selje kommune" />
		<tag k="ssr:date" v="2016-05-10" />
		<tag k="ssr:gruppe" v="administrativeIndelinger" />
		<tag k="ssr:hovedgruppe" v="offentligAdministrasjon" />
		<tag k="ssr:stedsnr" v="146483" />
		<tag k="ssr:type" v="kommune" />
	</node>
	<node id="-542836" lat="62.1923055555" lon="5.20404166466">
		<tag k="name" v="Indre Honninningsvåg, nedre" />
		<tag k="ssr:date" v="2016-05-11" />
		<tag k="ssr:gruppe" v="navigasjon" />
		<tag k="ssr:hovedgruppe" v="infrastruktur" />
		<tag k="ssr:stedsnr" v="845242" />
		<tag k="ssr:type" v="lanterne" />
	</node>
	<node id="-542038" lat="62.1980861102" lon="5.17764721646">
		<tag k="alt_name" v="Honningsvåg" />
		<tag k="name" v="Honningsvåg lykt" />
		<tag k="ssr:date" v="2016-05-10" />
		<tag k="ssr:gruppe" v="navigasjon" />
		<tag k="ssr:hovedgruppe" v="infrastruktur" />
		<tag k="ssr:stedsnr" v="117274" />
		<tag k="ssr:type" v="fyrlykt" />
	</node>
	<node id="-542964" lat="62.1690638934" lon="5.08038611763">
		<tag k="name" v="Buholmen" />
		<tag k="old_name" v="Buholmen lykt" />
		<tag k="ssr:date" v="2016-05-11" />
		<tag k="ssr:gruppe" v="navigasjon" />
		<tag k="ssr:hovedgruppe" v="infrastruktur" />
		<tag k="ssr:stedsnr" v="921750" />
		<tag k="ssr:type" v="fyrlykt" />
	</node>
	<node id="-542386" lat="62.1918499969" lon="5.20706112034">
		<tag k="name" v="Indre Honninningsvåg, øvre" />
		<tag k="ssr:date" v="2016-05-10" />
		<tag k="ssr:gruppe" v="navigasjon" />
		<tag k="ssr:hovedgruppe" v="infrastruktur" />
		<tag k="ssr:stedsnr" v="541239" />
		<tag k="ssr:type" v="lanterne" />
	</node>
	<node id="-542960" lat="62.1161472235" lon="5.19364167419">
		<tag k="name" v="Kleiva" />
		<tag k="ssr:date" v="2016-05-11" />
		<tag k="ssr:gruppe" v="veg" />
		<tag k="ssr:hovedgruppe" v="infrastruktur" />
		<tag k="ssr:stedsnr" v="921719" />
		<tag k="ssr:type" v="vegstrekning" />
	</node>
	<node id="-541611" lat="62.1950722213" lon="5.19155555919">
		<tag k="name" v="Stattvågen nordre molo" />
		<tag k="ssr:date" v="2016-05-10" />
		<tag k="ssr:gruppe" v="navigasjon" />
		<tag k="ssr:hovedgruppe" v="infrastruktur" />
		<tag k="ssr:stedsnr" v="299244" />
		<tag k="ssr:type" v="lanterne" />
	</node>
	<node id="-542922" lat="62.0513138882" lon="5.34466110897">
		<tag k="alt_name" v="Selje" />
		<tag k="name" v="Selje lykt" />
		<tag k="ssr:date" v="2016-05-11" />
		<tag k="ssr:gruppe" v="navigasjon" />
		<tag k="ssr:hovedgruppe" v="infrastruktur" />
		<tag k="ssr:stedsnr" v="906594" />
		<tag k="ssr:type" v="fyrlykt" />
	</node>
	<node id="-541751" lat="62.1929833351" lon="5.16136111099">
		<tag k="alt_name" v="Stattvågen" />
		<tag k="name" v="Stattvågen lykt" />
		<tag k="ssr:date" v="2016-05-10" />
		<tag k="ssr:gruppe" v="navigasjon" />
		<tag k="ssr:hovedgruppe" v="infrastruktur" />
		<tag k="ssr:stedsnr" v="392112" />
		<tag k="ssr:type" v="fyrlykt" />
	</node>
	<node id="-542919" lat="62.1497027813" lon="5.3088527747">
		<tag k="name" v="Borgundvåg molo" />
		<tag k="ssr:date" v="2016-05-11" />
		<tag k="ssr:gruppe" v="navigasjon" />
		<tag k="ssr:hovedgruppe" v="infrastruktur" />
		<tag k="ssr:stedsnr" v="904355" />
		<tag k="ssr:type" v="lanterne" />
	</node>
	<node id="-543044" lat="60.8816104596" lon="6.30047518531">
		<tag k="name" v="Vestlandet" />
		<tag k="ssr:date" v="2019-01-06" />
		<tag k="ssr:gruppe" v="administrativeIndelinger" />
		<tag k="ssr:hovedgruppe" v="offentligAdministrasjon" />
		<tag k="ssr:stedsnr" v="974777" />
		<tag k="ssr:type" v="annenAdministrativInndeling" />
	</node>
	<node id="-543041" lat="62.0962416664" lon="5.09482777906">
		<tag k="name" v="Gamla lysbøye" />
		<tag k="ssr:date" v="2016-05-11" />
		<tag k="ssr:gruppe" v="navigasjon" />
		<tag k="ssr:hovedgruppe" v="infrastruktur" />
		<tag k="ssr:stedsnr" v="966749" />
		<tag k="ssr:type" v="lysbøye" />
	</node>
</osm>
