<?xml version="1.0" encoding="UTF-8"?>
<osm generator="osmapis" version="0.6">
	<node id="-34304" lat="59.7835555562" lon="11.1092805472">
		<tag k="name" v="Kastet" />
		<tag k="place" v="locality" />
		<tag k="ssr:stedsnr" v="509686" />
	</node>
	<node id="-34303" lat="59.7780749964" lon="11.1153444527">
		<tag k="name" v="Bjørnebakken" />
		<tag k="place" v="locality" />
		<tag k="ssr:stedsnr" v="509685" />
	</node>
	<node id="-34302" lat="59.7660194481" lon="11.067644442">
		<tag k="name" v="Grauteslorene" />
		<tag k="natural" v="wetland" />
		<tag k="ssr:stedsnr" v="509599" />
	</node>
	<node id="-34301" lat="59.7967499994" lon="11.099180559">
		<tag k="name" v="Stårmyr" />
		<tag k="natural" v="wetland" />
		<tag k="ssr:stedsnr" v="509597" />
	</node>
	<node id="-33787" lat="59.7692861074" lon="10.982313891">
		<tag k="alt_name" v="Prestemåsan" />
		<tag k="name" v="Prestmåsan" />
		<tag k="natural" v="wetland" />
		<tag k="old_name" v="Prestemosan" />
		<tag k="ssr:stedsnr" v="368440" />
	</node>
	<node id="-34286" lat="59.82576667" lon="10.9691999918">
		<tag k="name" v="Tørkelmåsan" />
		<tag k="natural" v="wetland" />
		<tag k="ssr:stedsnr" v="508678" />
	</node>
	<node id="-33773" lat="59.6939583327" lon="11.1789083366">
		<tag k="name" v="Fjellsleiken" />
		<tag k="place" v="locality" />
		<tag k="ssr:stedsnr" v="327690" />
	</node>
	<node id="-33772" lat="59.7324333298" lon="11.0769305569">
		<tag k="name" v="Bergerhagan" />
		<tag k="place" v="locality" />
		<tag k="ssr:stedsnr" v="327681" />
	</node>
	<node id="-33771" lat="59.7461194429" lon="11.0673944415">
		<tag k="name" v="Gråmåsan" />
		<tag k="natural" v="wetland" />
		<tag k="ssr:stedsnr" v="327596" />
	</node>
	<node id="-33770" lat="59.7795055554" lon="11.032625003">
		<tag k="name" v="Melketangene" />
		<tag k="place" v="locality" />
		<tag k="ssr:stedsnr" v="327592" />
	</node>
	<node id="-34725" lat="59.7951361147" lon="11.082019444">
		<tag k="name" v="Elgegropa" />
		<tag k="place" v="locality" />
		<tag k="ssr:stedsnr" v="934575" />
	</node>
	<node id="-33755" lat="59.8220083306" lon="10.9925055478">
		<tag k="name" v="Fjøsmåsan" />
		<tag k="natural" v="wetland" />
		<tag k="ssr:stedsnr" v="326688" />
	</node>
	<node id="-33754" lat="59.7206583298" lon="10.9783805636">
		<tag k="name" v="Smalslora" />
		<tag k="natural" v="wetland" />
		<tag k="ssr:stedsnr" v="326679" />
	</node>
	<node id="-34264" lat="59.8175972254" lon="11.0320499931">
		<tag k="alt_name" v="Delisætra" />
		<tag k="historic" v="shieling" />
		<tag k="name" v="Dælisætra" />
		<tag k="place" v="locality" />
		<tag k="ssr:stedsnr" v="490271" />
	</node>
	<node id="-34251" lat="59.7681194486" lon="11.2003416734">
		<tag k="name" v="Tittut" />
		<tag k="place" v="locality" />
		<tag k="ssr:stedsnr" v="448748" />
	</node>
	<node id="-34250" lat="59.8029888929" lon="11.1075861119">
		<tag k="name" v="Klokkertorva" />
		<tag k="place" v="locality" />
		<tag k="ssr:stedsnr" v="448747" />
	</node>
	<node id="-34248" lat="59.7868861099" lon="11.1326888832">
		<tag k="name" v="Lindtjernmåsan" />
		<tag k="natural" v="wetland" />
		<tag k="ssr:stedsnr" v="448655" />
	</node>
	<node id="-34247" lat="59.7390500001" lon="11.0921527695">
		<tag k="name" v="Ombergstumåsan" />
		<tag k="natural" v="wetland" />
		<tag k="ssr:stedsnr" v="448651" />
	</node>
	<node id="-34246" lat="59.7121861147" lon="11.0121888826">
		<tag k="name" v="Dalsliene" />
		<tag k="place" v="locality" />
		<tag k="ssr:stedsnr" v="448650" />
	</node>
	<node id="-33730" lat="59.8423861096" lon="11.1131749979">
		<tag k="landuse" v="meadow" />
		<tag k="name" v="Åsenenga" />
		<tag k="ssr:stedsnr" v="326307" />
	</node>
	<node id="-33710" lat="59.8153527816" lon="11.0826527804">
		<tag k="alt_name" v="Holtopseter" />
		<tag k="historic" v="shieling" />
		<tag k="name" v="Holtoppsætra" />
		<tag k="place" v="locality" />
		<tag k="ssr:stedsnr" v="308243" />
	</node>
	<node id="-34727" lat="59.7385583301" lon="11.0717749934">
		<tag k="name" v="Nordkroken" />
		<tag k="place" v="locality" />
		<tag k="ssr:stedsnr" v="934703" />
	</node>
	<node id="-34726" lat="59.7956500021" lon="11.0937666673">
		<tag k="name" v="Tjoremåsan" />
		<tag k="natural" v="wetland" />
		<tag k="ssr:stedsnr" v="934601" />
	</node>
	<node id="-34213" lat="59.8330833377" lon="11.1274055472">
		<tag k="name" v="Berskaumyra" />
		<tag k="natural" v="wetland" />
		<tag k="ssr:stedsnr" v="447272" />
	</node>
	<node id="-34724" lat="59.6868361127" lon="11.1523972136">
		<tag k="name" v="Sjutjernsmåsan" />
		<tag k="natural" v="wetland" />
		<tag k="ssr:stedsnr" v="934567" />
	</node>
	<node id="-34210" lat="59.7992972227" lon="11.1347361196">
		<tag k="name" v="Kaffebanken" />
		<tag k="place" v="locality" />
		<tag k="ssr:stedsnr" v="448752" />
	</node>
	<node id="-33774" lat="59.7812083347" lon="11.0586527764">
		<tag k="historic" v="shieling" />
		<tag k="name" v="Tuggerudsetervangen" />
		<tag k="place" v="locality" />
		<tag k="ssr:stedsnr" v="327700" />
	</node>
	<node id="-34698" lat="59.6960333297" lon="11.0211472131">
		<tag k="name" v="Kullebunn" />
		<tag k="place" v="locality" />
		<tag k="ssr:stedsnr" v="933188" />
	</node>
	<node id="-34184" lat="59.7653138848" lon="11.0915499921">
		<tag k="name" v="Hareleina" />
		<tag k="place" v="locality" />
		<tag k="ssr:stedsnr" v="266708" />
	</node>
	<node id="-34182" lat="59.8069583316" lon="11.0636083257">
		<tag k="name" v="Langslora" />
		<tag k="natural" v="wetland" />
		<tag k="ssr:stedsnr" v="266636" />
	</node>
	<node id="-34181" lat="59.7560444452" lon="11.0524277814">
		<tag k="name" v="Haugmåsan" />
		<tag k="natural" v="wetland" />
		<tag k="ssr:stedsnr" v="266627" />
	</node>
	<node id="-34180" lat="59.8241916638" lon="11.0834694494">
		<tag k="name" v="Skåbommen" />
		<tag k="place" v="locality" />
		<tag k="ssr:stedsnr" v="266617" />
	</node>
	<node id="-34179" lat="59.7330444428" lon="11.1295527816">
		<tag k="name" v="Breimåsan" />
		<tag k="natural" v="wetland" />
		<tag k="ssr:stedsnr" v="266614" />
	</node>
	<node id="-34178" lat="59.6945222233" lon="11.1595833345">
		<tag k="name" v="Gurimåsan" />
		<tag k="natural" v="wetland" />
		<tag k="ssr:stedsnr" v="266612" />
	</node>
	<node id="-34686" lat="59.7992972238" lon="10.9937083314">
		<tag k="name" v="Bysetermåsan" />
		<tag k="natural" v="wetland" />
		<tag k="ssr:stedsnr" v="915351" />
	</node>
	<node id="-34684" lat="59.8119999986" lon="11.0629333307">
		<tag k="alt_name" v="Myrseter" />
		<tag k="historic" v="shieling" />
		<tag k="name" v="Myrsætra" />
		<tag k="place" v="locality" />
		<tag k="ssr:stedsnr" v="915262" />
	</node>
	<node id="-34677" lat="59.7503444472" lon="11.0728777755">
		<tag k="alt_name" v="Breidmåsan" />
		<tag k="name" v="Breimåsan" />
		<tag k="natural" v="wetland" />
		<tag k="old_name" v="Breidmosan" />
		<tag k="ssr:stedsnr" v="914519" />
	</node>
	<node id="-34672" lat="59.8200999964" lon="11.1256916751">
		<tag k="name" v="Kythøla" />
		<tag k="place" v="locality" />
		<tag k="ssr:stedsnr" v="873685" />
	</node>
	<node id="-34671" lat="59.7300972193" lon="11.0717888921">
		<tag k="name" v="Bjerkehagan" />
		<tag k="place" v="locality" />
		<tag k="ssr:stedsnr" v="873678" />
	</node>
	<node id="-34670" lat="59.7147333304" lon="11.1203305559">
		<tag k="name" v="Vestenga" />
		<tag k="place" v="locality" />
		<tag k="ssr:stedsnr" v="873676" />
	</node>
	<node id="-34669" lat="59.7850388898" lon="11.0759361188">
		<tag k="name" v="Møllerstuslorene" />
		<tag k="natural" v="wetland" />
		<tag k="ssr:stedsnr" v="873605" />
	</node>
	<node id="-34668" lat="59.7760249993" lon="11.0455972197">
		<tag k="name" v="Delingsmyrene" />
		<tag k="natural" v="wetland" />
		<tag k="ssr:stedsnr" v="873603" />
	</node>
	<node id="-34667" lat="59.816841666" lon="11.0486083324">
		<tag k="historic" v="shieling" />
		<tag k="name" v="Støttumvangen" />
		<tag k="place" v="locality" />
		<tag k="ssr:stedsnr" v="873595" />
	</node>
	<node id="-34666" lat="59.7866388867" lon="11.0375888943">
		<tag k="name" v="Brenninga" />
		<tag k="place" v="locality" />
		<tag k="ssr:stedsnr" v="873593" />
	</node>
	<node id="-34141" lat="59.8368611078" lon="11.1125722254">
		<tag k="name" v="Bråtamyra" />
		<tag k="natural" v="wetland" />
		<tag k="ssr:stedsnr" v="265326" />
	</node>
	<node id="-34133" lat="59.8064944458" lon="11.0934472302">
		<tag k="name" v="Solbergmåsan" />
		<tag k="natural" v="wetland" />
		<tag k="ssr:stedsnr" v="247794" />
	</node>
	<node id="-34132" lat="59.8232805524" lon="11.1170666619">
		<tag k="name" v="Breimåsan" />
		<tag k="natural" v="wetland" />
		<tag k="old_name" v="Breidmosan" />
		<tag k="ssr:stedsnr" v="247764" />
	</node>
	<node id="-34111" lat="59.7617416686" lon="11.0433000056">
		<tag k="historic" v="shieling" />
		<tag k="name" v="Bjerkesetra" />
		<tag k="place" v="locality" />
		<tag k="ssr:stedsnr" v="205759" />
	</node>
	<node id="-34110" lat="59.75301944" lon="11.2090055618">
		<tag k="name" v="Nesleira" />
		<tag k="place" v="locality" />
		<tag k="ssr:stedsnr" v="205753" />
	</node>
	<node id="-34613" lat="59.7622222257" lon="11.1369722221">
		<tag k="landuse" v="meadow" />
		<tag k="name" v="Krokeng" />
		<tag k="ssr:stedsnr" v="812747" />
	</node>
	<node id="-34104" lat="59.7535388907" lon="11.0920333279">
		<tag k="name" v="Nordskauen" />
		<tag k="place" v="locality" />
		<tag k="ssr:stedsnr" v="205682" />
	</node>
	<node id="-34612" lat="59.8224388892" lon="11.0666138922">
		<tag k="name" v="Kåterudmåsan" />
		<tag k="natural" v="wetland" />
		<tag k="ssr:stedsnr" v="812659" />
	</node>
	<node id="-34102" lat="59.7926638907" lon="11.0058999929">
		<tag k="name" v="Bakermåsan" />
		<tag k="natural" v="wetland" />
		<tag k="ssr:stedsnr" v="205668" />
	</node>
	<node id="-34101" lat="59.8239472193" lon="11.0716888853">
		<tag k="name" v="Kåterudvangen" />
		<tag k="place" v="locality" />
		<tag k="ssr:stedsnr" v="205663" />
	</node>
	<node id="-34100" lat="59.8238083298" lon="11.0772750035">
		<tag k="name" v="Trettestykket" />
		<tag k="place" v="locality" />
		<tag k="ssr:stedsnr" v="205656" />
	</node>
	<node id="-34611" lat="59.8295444407" lon="11.0992888942">
		<tag k="name" v="Merramåsan" />
		<tag k="natural" v="wetland" />
		<tag k="ssr:stedsnr" v="812654" />
	</node>
	<node id="-34610" lat="59.776727774" lon="11.0079333301">
		<tag k="name" v="Fugleleiken" />
		<tag k="natural" v="wetland" />
		<tag k="ssr:stedsnr" v="812651" />
	</node>
	<node id="-34609" lat="59.8110083323" lon="11.0586166613">
		<tag k="name" v="Innleggen" />
		<tag k="place" v="locality" />
		<tag k="ssr:stedsnr" v="812649" />
	</node>
	<node id="-34608" lat="59.81806667" lon="11.0895000045">
		<tag k="name" v="Hellertjernstangene" />
		<tag k="place" v="locality" />
		<tag k="ssr:stedsnr" v="812645" />
	</node>
	<node id="-34607" lat="59.8232833355" lon="11.1288750088">
		<tag k="name" v="Tossmåsan" />
		<tag k="natural" v="wetland" />
		<tag k="ssr:stedsnr" v="812638" />
	</node>
	<node id="-34072" lat="59.8276916662" lon="10.9594083384">
		<tag k="name" v="Hamlimåsan" />
		<tag k="natural" v="wetland" />
		<tag k="ssr:stedsnr" v="204637" />
	</node>
	<node id="-33752" lat="59.8336944472" lon="10.9422583418">
		<tag k="name" v="Purkemyra" />
		<tag k="natural" v="wetland" />
		<tag k="ssr:stedsnr" v="326676" />
	</node>
	<node id="-34060" lat="59.7626361145" lon="11.0377972266">
		<tag k="name" v="Kongsbergmåsan" />
		<tag k="natural" v="wetland" />
		<tag k="old_name" v="Kongsbergmosan" />
		<tag k="ssr:stedsnr" v="187388" />
	</node>
	<node id="-34559" lat="59.7377777737" lon="11.0645027748">
		<tag k="name" v="Jammerlappen" />
		<tag k="place" v="locality" />
		<tag k="ssr:stedsnr" v="751756" />
	</node>
	<node id="-34558" lat="59.8108638896" lon="11.1280666697">
		<tag k="name" v="Fåfenga" />
		<tag k="place" v="locality" />
		<tag k="ssr:stedsnr" v="751752" />
	</node>
	<node id="-34557" lat="59.7523361102" lon="11.2051611025">
		<tag k="name" v="Krokstadleira" />
		<tag k="place" v="locality" />
		<tag k="ssr:stedsnr" v="751753" />
	</node>
	<node id="-34040" lat="59.8380993331" lon="10.9391118409">
		<tag k="alt_name" v="Simmingsmyrane" />
		<tag k="loc_name" v="Simmingsmyra" />
		<tag k="name" v="Simmingsmyr" />
		<tag k="natural" v="wetland" />
		<tag k="ssr:stedsnr" v="175178" />
	</node>
	<node id="-34037" lat="59.7625055578" lon="11.0263472312">
		<tag k="name" v="Ålmarksslorene" />
		<tag k="natural" v="wetland" />
		<tag k="ssr:stedsnr" v="144673" />
	</node>
	<node id="-34036" lat="59.8080861119" lon="11.0798666696">
		<tag k="name" v="Oremyrene" />
		<tag k="natural" v="wetland" />
		<tag k="ssr:stedsnr" v="144660" />
	</node>
	<node id="-34035" lat="59.7789805598" lon="11.0647333408">
		<tag k="name" v="Saumyra" />
		<tag k="natural" v="wetland" />
		<tag k="ssr:stedsnr" v="144655" />
	</node>
	<node id="-34034" lat="59.7748444447" lon="11.0349416612">
		<tag k="name" v="Klubbmåsan" />
		<tag k="natural" v="wetland" />
		<tag k="ssr:stedsnr" v="144652" />
	</node>
	<node id="-34033" lat="59.7952333366" lon="11.1075472145">
		<tag k="name" v="Trappene" />
		<tag k="place" v="locality" />
		<tag k="ssr:stedsnr" v="144643" />
	</node>
	<node id="-34523" lat="59.7619444485" lon="11.0184555621">
		<tag k="name" v="Breimåsan" />
		<tag k="natural" v="wetland" />
		<tag k="ssr:stedsnr" v="751678" />
	</node>
	<node id="-34522" lat="59.7752444404" lon="11.0221388912">
		<tag k="name" v="Skøttmyra" />
		<tag k="natural" v="wetland" />
		<tag k="ssr:stedsnr" v="751656" />
	</node>
	<node id="-34521" lat="59.7071000006" lon="11.0567388833">
		<tag k="name" v="Tangene" />
		<tag k="place" v="locality" />
		<tag k="ssr:stedsnr" v="751652" />
	</node>
	<node id="-34520" lat="59.7607666647" lon="11.0229611089">
		<tag k="name" v="Ålmarkholtet" />
		<tag k="place" v="locality" />
		<tag k="ssr:stedsnr" v="751650" />
	</node>
	<node id="-34519" lat="59.6859527777" lon="11.1799249925">
		<tag k="name" v="Breviksmåsan" />
		<tag k="natural" v="wetland" />
		<tag k="ssr:stedsnr" v="751642" />
	</node>
	<node id="-34518" lat="59.8174833337" lon="11.1358861034">
		<tag k="name" v="Torvmåsan" />
		<tag k="natural" v="wetland" />
		<tag k="ssr:stedsnr" v="751639" />
	</node>
	<node id="-34502" lat="59.7821722254" lon="11.1098138856">
		<tag k="name" v="Jylland" />
		<tag k="place" v="locality" />
		<tag k="ssr:stedsnr" v="691701" />
	</node>
	<node id="-34500" lat="59.7527166709" lon="11.0847611025">
		<tag k="name" v="Staurmåsan" />
		<tag k="natural" v="wetland" />
		<tag k="ssr:stedsnr" v="691631" />
	</node>
	<node id="-34499" lat="59.8260027809" lon="11.09303334">
		<tag k="name" v="Borgesetermåsan" />
		<tag k="natural" v="wetland" />
		<tag k="ssr:stedsnr" v="691623" />
	</node>
	<node id="-34498" lat="59.7415944461" lon="11.1303916665">
		<tag k="name" v="Tyrigjeldmyra" />
		<tag k="natural" v="wetland" />
		<tag k="ssr:stedsnr" v="691612" />
	</node>
	<node id="-33976" lat="59.7493083334" lon="11.2035250043">
		<tag k="name" v="Vennevollsleira" />
		<tag k="place" v="locality" />
		<tag k="ssr:stedsnr" v="84728" />
	</node>
	<node id="-33975" lat="59.7508444418" lon="11.204352775">
		<tag k="name" v="Byleira" />
		<tag k="place" v="locality" />
		<tag k="ssr:stedsnr" v="84729" />
	</node>
	<node id="-33972" lat="59.7138027753" lon="10.9883166681">
		<tag k="name" v="Breislora" />
		<tag k="natural" v="wetland" />
		<tag k="ssr:stedsnr" v="84672" />
	</node>
	<node id="-33971" lat="59.7982361118" lon="11.0975666626">
		<tag k="name" v="Ulvemåsan" />
		<tag k="natural" v="wetland" />
		<tag k="ssr:stedsnr" v="84661" />
	</node>
	<node id="-33970" lat="59.7990472184" lon="11.1520277746">
		<tag k="name" v="Nylandsmåsan" />
		<tag k="natural" v="wetland" />
		<tag k="ssr:stedsnr" v="84630" />
	</node>
	<node id="-34430" lat="59.7041305511" lon="11.1503000065">
		<tag k="landuse" v="meadow" />
		<tag k="name" v="Steinenga" />
		<tag k="ssr:stedsnr" v="630681" />
	</node>
	<node id="-33916" lat="59.7519222246" lon="11.0776250003">
		<tag k="name" v="Totjernsmåsan" />
		<tag k="natural" v="wetland" />
		<tag k="old_name" v="Totjernsmosan" />
		<tag k="ssr:stedsnr" v="65487" />
	</node>
	<node id="-34427" lat="59.7710666697" lon="11.029047231">
		<tag k="name" v="Skarperudmåsan" />
		<tag k="natural" v="wetland" />
		<tag k="ssr:stedsnr" v="630575" />
	</node>
	<node id="-34426" lat="59.8075638849" lon="11.0901611193">
		<tag k="name" v="Rognehullet" />
		<tag k="place" v="locality" />
		<tag k="ssr:stedsnr" v="630567" />
	</node>
	<node id="-33904" lat="59.8300566269" lon="10.9435737366">
		<tag k="name" v="Simmingsmyra" />
		<tag k="natural" v="wetland" />
		<tag k="ssr:stedsnr" v="54640" />
	</node>
	<node id="-33902" lat="59.7639444486" lon="11.1770611036">
		<tag k="name" v="Krogsbølleira" />
		<tag k="place" v="locality" />
		<tag k="ssr:stedsnr" v="23760" />
	</node>
	<node id="-33901" lat="59.7777916629" lon="11.0537361095">
		<tag k="historic" v="shieling" />
		<tag k="name" v="Tuggerudseter" />
		<tag k="place" v="locality" />
		<tag k="ssr:stedsnr" v="23759" />
	</node>
	<node id="-33894" lat="59.815422225" lon="11.1080611159">
		<tag k="name" v="Bløtthøl" />
		<tag k="natural" v="wetland" />
		<tag k="ssr:stedsnr" v="23669" />
	</node>
	<node id="-33893" lat="59.7696944481" lon="11.0164472145">
		<tag k="name" v="Kjelkemyra" />
		<tag k="natural" v="wetland" />
		<tag k="ssr:stedsnr" v="23668" />
	</node>
	<node id="-33892" lat="59.8077000037" lon="11.009222219">
		<tag k="name" v="Byputten" />
		<tag k="natural" v="wetland" />
		<tag k="ssr:stedsnr" v="23663" />
	</node>
	<node id="-33891" lat="59.7932861134" lon="11.1190083355">
		<tag k="name" v="Prestmåsan" />
		<tag k="natural" v="wetland" />
		<tag k="ssr:stedsnr" v="23658" />
	</node>
	<node id="-34374" lat="59.761275004" lon="11.0732083252">
		<tag k="historic" v="shieling" />
		<tag k="name" v="Husebysetervangen" />
		<tag k="place" v="locality" />
		<tag k="ssr:stedsnr" v="569712" />
	</node>
	<node id="-34372" lat="59.7732416703" lon="11.052875007">
		<tag k="name" v="Hellermåsan" />
		<tag k="natural" v="wetland" />
		<tag k="ssr:stedsnr" v="569635" />
	</node>
	<node id="-34371" lat="59.7486777778" lon="11.0195194427">
		<tag k="name" v="Sagbakken" />
		<tag k="place" v="locality" />
		<tag k="ssr:stedsnr" v="569627" />
	</node>
	<node id="-34370" lat="59.8076361089" lon="11.1562249951">
		<tag k="name" v="Langtjernmyra" />
		<tag k="natural" v="wetland" />
		<tag k="ssr:stedsnr" v="569621" />
	</node>
	<node id="-33834" lat="59.813197226" lon="11.0747694365">
		<tag k="name" v="Bølermåsan" />
		<tag k="natural" v="wetland" />
		<tag k="ssr:stedsnr" v="387630" />
	</node>
	<node id="-33833" lat="59.8060583329" lon="11.0711194362">
		<tag k="historic" v="shieling" />
		<tag k="name" v="Torbjørnsetervangen" />
		<tag k="place" v="locality" />
		<tag k="ssr:stedsnr" v="387625" />
	</node>
	<node id="-34338" lat="59.8422805586" lon="11.1067861115">
		<tag k="name" v="Siljebølmyra" />
		<tag k="natural" v="wetland" />
		<tag k="ssr:stedsnr" v="568307" />
	</node>
	<node id="-34099" lat="59.6857805574" lon="11.1916888924">
		<tag k="name" v="Dammyra" />
		<tag k="natural" v="wetland" />
		<tag k="ssr:stedsnr" v="205650" />
	</node>
	<node id="-34316" lat="59.7860694447" lon="10.9910444392">
		<tag k="alt_name" v="Donmåsan" />
		<tag k="name" v="Donemåsan" />
		<tag k="natural" v="wetland" />
		<tag k="old_name" v="Donmosan" />
		<tag k="ssr:stedsnr" v="550312" />
	</node>
	<node id="-34314" lat="59.8332277777" lon="10.9620972169">
		<tag k="name" v="Skogsmåsan" />
		<tag k="natural" v="wetland" />
		<tag k="old_name" v="Skogsmosan" />
		<tag k="ssr:stedsnr" v="550218" />
	</node>
</osm>
