<?xml version="1.0" encoding="UTF-8"?>
<osm generator="osmapis" version="0.6">
	<node id="-696832" lat="68.5761027812" lon="16.1536472249">
		<tag k="name" v="Litlevatnet" />
		<tag k="natural" v="water" />
		<tag k="ssr:stedsnr" v="685846" />
	</node>
	<node id="-696917" lat="68.4652805531" lon="16.4133138782">
		<tag k="name" v="Krokelva" />
		<tag k="ssr:stedsnr" v="745448" />
		<tag k="waterway" v="stream" />
	</node>
	<node id="-696820" lat="68.4632166705" lon="16.4092222339">
		<tag k="name" v="Finnelva" />
		<tag k="ssr:stedsnr" v="684446" />
		<tag k="waterway" v="stream" />
	</node>
	<node id="-695795" lat="68.5400055595" lon="16.3146833238">
		<tag k="name" v="Sandselva" />
		<tag k="ssr:stedsnr" v="384756" />
		<tag k="waterway" v="stream" />
	</node>
	<node id="-695794" lat="68.5733083363" lon="16.2969138993">
		<tag k="name" v="Ulvikelva" />
		<tag k="ssr:stedsnr" v="384167" />
		<tag k="waterway" v="river" />
	</node>
	<node id="-696817" lat="68.4429166675" lon="16.4333944444">
		<tag k="name" v="Gårdselva" />
		<tag k="ssr:stedsnr" v="684430" />
		<tag k="waterway" v="stream" />
	</node>
	<node id="-696302" lat="68.5065333375" lon="16.4582722246">
		<tag k="name" v="Dalselva" />
		<tag k="ssr:stedsnr" v="202956" />
		<tag k="waterway" v="stream" />
	</node>
	<node id="-696301" lat="68.5004416628" lon="16.2652749954">
		<tag k="name" v="Durmålstuvvatnan" />
		<tag k="natural" v="water" />
		<tag k="ssr:stedsnr" v="202949" />
	</node>
	<node id="-695788" lat="68.5020666627" lon="16.4355888798">
		<tag k="name" v="Mølnelva" />
		<tag k="ssr:stedsnr" v="383540" />
		<tag k="waterway" v="stream" />
	</node>
	<node id="-695787" lat="68.6097611119" lon="16.2561249897">
		<tag k="name" v="Kvanntovatnan" />
		<tag k="natural" v="water" />
		<tag k="ssr:stedsnr" v="383237" />
	</node>
	<node id="-695786" lat="68.6083888909" lon="16.1550861155">
		<tag k="name" v="Jørgenhola" />
		<tag k="natural" v="water" />
		<tag k="ssr:stedsnr" v="382357" />
	</node>
	<node id="-696345" lat="68.4290222206" lon="16.3247499897">
		<tag k="name" v="Fotbekken" />
		<tag k="ssr:stedsnr" v="209555" />
		<tag k="waterway" v="stream" />
	</node>
	<node id="-695784" lat="68.4337249974" lon="16.3077749906">
		<tag k="name" v="Kjerringbakkelva" />
		<tag k="ssr:stedsnr" v="381491" />
		<tag k="waterway" v="stream" />
	</node>
	<node id="-695783" lat="68.4985888904" lon="16.3676777684">
		<tag k="name" v="Jotindvatnan" />
		<tag k="natural" v="water" />
		<tag k="ssr:stedsnr" v="381407" />
		<tag k="water" v="lake" />
	</node>
	<node id="-695782" lat="68.4978805512" lon="16.3979972202">
		<tag k="loc_name:se" v="Nižžegurjávri" />
		<tag k="name" v="Varbergvatnet" />
		<tag k="name:no" v="Varbergvatnet" />
		<tag k="natural" v="water" />
		<tag k="ssr:stedsnr" v="381406" />
	</node>
	<node id="-696291" lat="68.5181083319" lon="16.3055999894">
		<tag k="loc_name:se" v="Čáhppesoaivvijávri" />
		<tag k="name" v="Trollvatnet" />
		<tag k="name:no" v="Trollvatnet" />
		<tag k="natural" v="water" />
		<tag k="ssr:stedsnr" v="202634" />
		<tag k="water" v="lake" />
	</node>
	<node id="-695778" lat="68.4656305575" lon="16.5440055431">
		<tag k="name" v="Ramnesvatnet" />
		<tag k="natural" v="water" />
		<tag k="ssr:stedsnr" v="380474" />
	</node>
	<node id="-695777" lat="68.4714749966" lon="16.4612888851">
		<tag k="name" v="Russelva" />
		<tag k="ssr:stedsnr" v="380429" />
		<tag k="waterway" v="stream" />
	</node>
	<node id="-696285" lat="68.4224583353" lon="16.2476277774">
		<tag k="name" v="Øverdalselva" />
		<tag k="ssr:stedsnr" v="199490" />
		<tag k="waterway" v="stream" />
	</node>
	<node id="-696284" lat="68.4370527789" lon="16.4317750055">
		<tag k="name" v="Hallarelva" />
		<tag k="ssr:stedsnr" v="199482" />
		<tag k="waterway" v="stream" />
	</node>
	<node id="-696283" lat="68.4417222233" lon="16.3792666705">
		<tag k="name" v="Rismålselva" />
		<tag k="ssr:stedsnr" v="199477" />
		<tag k="waterway" v="stream" />
	</node>
	<node id="-696739" lat="68.512080554" lon="16.2339972239">
		<tag k="name" v="Stengvatnet" />
		<tag k="natural" v="water" />
		<tag k="ssr:stedsnr" v="626966" />
	</node>
	<node id="-697295" lat="68.4246555533" lon="16.357427766">
		<tag k="name" v="Teigneset" />
		<tag k="natural" v="cape" />
		<tag k="ssr:stedsnr" v="937767" />
	</node>
	<node id="-695752" lat="68.4544166711" lon="16.4125583222">
		<tag k="name" v="Mølnforsen" />
		<tag k="natural" v="waterfall" />
		<tag k="ssr:stedsnr" v="330629" />
	</node>
	<node id="-696775" lat="68.4318027766" lon="16.1297666735">
		<tag k="name" v="Oterosen" />
		<tag k="natural" v="bay" />
		<tag k="ssr:stedsnr" v="633367" />
	</node>
	<node id="-696770" lat="68.5136805554" lon="16.5282555503">
		<tag k="name" v="Ingeborgelva" />
		<tag k="ssr:stedsnr" v="633110" />
		<tag k="waterway" v="stream" />
	</node>
	<node id="-696257" lat="68.4419250012" lon="16.4174500076">
		<tag k="name" v="Gårdselvvatnet" />
		<tag k="natural" v="water" />
		<tag k="ssr:stedsnr" v="148862" />
	</node>
	<node id="-697275" lat="68.4713694436" lon="16.4712222284">
		<tag k="name" v="Grønnslettelva" />
		<tag k="ssr:stedsnr" v="937394" />
		<tag k="waterway" v="stream" />
	</node>
	<node id="-695738" lat="68.4154083316" lon="16.2240388776">
		<tag k="name" v="Russvikelva" />
		<tag k="ssr:stedsnr" v="330430" />
		<tag k="waterway" v="river" />
	</node>
	<node id="-697273" lat="68.437577782" lon="16.1481222242">
		<tag k="name" v="Vågeelva" />
		<tag k="ssr:stedsnr" v="937380" />
		<tag k="waterway" v="stream" />
	</node>
	<node id="-696759" lat="68.4650305521" lon="16.1625500046">
		<tag k="name" v="Langvatnet" />
		<tag k="natural" v="water" />
		<tag k="ssr:stedsnr" v="631537" />
	</node>
	<node id="-696756" lat="68.5459527799" lon="16.5035388858">
		<tag k="name" v="Mølnelva" />
		<tag k="ssr:stedsnr" v="631493" />
		<tag k="waterway" v="stream" />
	</node>
	<node id="-695729" lat="68.4381472218" lon="16.1637527779">
		<tag k="name" v="Syllvadet" />
		<tag k="ssr:stedsnr" v="330367" />
		<tag k="waterway" v="stream" />
	</node>
	<node id="-697264" lat="68.5911944473" lon="16.2171999931">
		<tag k="name" v="Revhågvatnet" />
		<tag k="natural" v="water" />
		<tag k="ssr:stedsnr" v="936431" />
	</node>
	<node id="-695727" lat="68.4297305575" lon="16.1768861211">
		<tag k="name" v="Storlivatnet" />
		<tag k="natural" v="water" />
		<tag k="ssr:stedsnr" v="330346" />
	</node>
	<node id="-696743" lat="68.456538887" lon="16.1300111077">
		<tag k="name" v="Tjønnskogelva" />
		<tag k="ssr:stedsnr" v="630651" />
		<tag k="waterway" v="stream" />
	</node>
	<node id="-697252" lat="68.5370138901" lon="16.5226888866">
		<tag k="name" v="Åsvatnet" />
		<tag k="natural" v="water" />
		<tag k="ssr:stedsnr" v="935507" />
	</node>
	<node id="-696227" lat="68.4360750013" lon="16.1370333346">
		<tag k="name" v="Lursteinan" />
		<tag k="ssr:stedsnr" v="148359" />
		<tag k="waterway" v="rapids" />
	</node>
	<node id="-697248" lat="68.5005555588" lon="16.4873083357">
		<tag k="name" v="Gårdselva" />
		<tag k="ssr:stedsnr" v="935104" />
		<tag k="waterway" v="stream" />
	</node>
	<node id="-697247" lat="68.47463889" lon="16.5360694364">
		<tag k="name" v="Karenelva" />
		<tag k="ssr:stedsnr" v="935096" />
		<tag k="waterway" v="stream" />
	</node>
	<node id="-696733" lat="68.5211000029" lon="16.2601222203">
		<tag k="name" v="Gregusvatnan" />
		<tag k="natural" v="water" />
		<tag k="ssr:stedsnr" v="626813" />
	</node>
	<node id="-697239" lat="68.4512611085" lon="16.1297611174">
		<tag k="name" v="Gårdselva" />
		<tag k="ssr:stedsnr" v="934667" />
		<tag k="waterway" v="river" />
	</node>
	<node id="-696726" lat="68.6084666679" lon="16.1316388779">
		<tag k="name" v="Rundkollvatnan" />
		<tag k="natural" v="water" />
		<tag k="ssr:stedsnr" v="624380" />
	</node>
	<node id="-697237" lat="68.4541666674" lon="16.1469222126">
		<tag k="name" v="Vannverkets Inntaksdam" />
		<tag k="ssr:stedsnr" v="934634" />
		<tag k="waterway" v="dam" />
	</node>
	<node id="-696212" lat="68.5685833297" lon="16.2367499895">
		<tag k="name" v="Strifossen" />
		<tag k="natural" v="waterfall" />
		<tag k="ssr:stedsnr" v="146515" />
	</node>
	<node id="-697235" lat="68.4488666704" lon="16.1522833228">
		<tag k="name" v="Mellomosen" />
		<tag k="natural" v="bay" />
		<tag k="ssr:stedsnr" v="934632" />
	</node>
	<node id="-696721" lat="68.4533250001" lon="16.3747250097">
		<tag k="name" v="Reingjerdvatnet" />
		<tag k="natural" v="water" />
		<tag k="ssr:stedsnr" v="623472" />
	</node>
	<node id="-696720" lat="68.4454138921" lon="16.3372055543">
		<tag k="name" v="Storelva" />
		<tag k="ssr:stedsnr" v="623455" />
		<tag k="waterway" v="stream" />
	</node>
	<node id="-695695" lat="68.5102861093" lon="16.5616416653">
		<tag k="name" v="Lysvatnet" />
		<tag k="natural" v="water" />
		<tag k="ssr:stedsnr" v="323953" />
	</node>
	<node id="-695789" lat="68.5704972199" lon="16.3781027701">
		<tag k="name" v="Mølnelva" />
		<tag k="ssr:stedsnr" v="383616" />
		<tag k="waterway" v="stream" />
	</node>
	<node id="-696716" lat="68.4890083348" lon="16.5420805485">
		<tag k="name" v="Mølnelva" />
		<tag k="ssr:stedsnr" v="623392" />
		<tag k="waterway" v="stream" />
	</node>
	<node id="-695689" lat="68.5340638868" lon="16.3273333231">
		<tag k="name" v="Småvatnet" />
		<tag k="natural" v="water" />
		<tag k="ssr:stedsnr" v="323760" />
		<tag k="water" v="lake" />
	</node>
	<node id="-695688" lat="68.5948722238" lon="16.2870305479">
		<tag k="name" v="Tindholvatnan" />
		<tag k="natural" v="water" />
		<tag k="ssr:stedsnr" v="323207" />
	</node>
	<node id="-696197" lat="68.5046361126" lon="16.3105666618">
		<tag k="name" v="Tindvatnet" />
		<tag k="natural" v="water" />
		<tag k="ssr:stedsnr" v="141941" />
	</node>
	<node id="-696195" lat="68.5472722205" lon="16.3761416641">
		<tag k="name" v="Holselva" />
		<tag k="ssr:stedsnr" v="141850" />
		<tag k="waterway" v="stream" />
	</node>
	<node id="-697217" lat="68.6167416692" lon="16.1611972269">
		<tag k="name" v="Isvatnet" />
		<tag k="natural" v="water" />
		<tag k="ssr:stedsnr" v="928330" />
	</node>
	<node id="-697216" lat="68.4415722187" lon="16.2640999943">
		<tag k="name" v="Kjerfjordvatnet" />
		<tag k="natural" v="water" />
		<tag k="ssr:stedsnr" v="927497" />
		<tag k="water" v="lake" />
	</node>
	<node id="-695679" lat="68.5035388927" lon="16.1870611107">
		<tag k="name" v="Olderveita" />
		<tag k="ssr:stedsnr" v="321788" />
		<tag k="waterway" v="stream" />
	</node>
	<node id="-695678" lat="68.4251305598" lon="16.2556722236">
		<tag k="name" v="Trappelva" />
		<tag k="ssr:stedsnr" v="320484" />
		<tag k="waterway" v="stream" />
	</node>
	<node id="-695676" lat="68.4467361101" lon="16.3957222098">
		<tag k="name" v="Rismålvatnet" />
		<tag k="natural" v="water" />
		<tag k="ssr:stedsnr" v="320440" />
	</node>
	<node id="-697211" lat="68.4872000032" lon="16.3127638974">
		<tag k="name" v="Kummen" />
		<tag k="natural" v="water" />
		<tag k="ssr:stedsnr" v="927437" />
	</node>
	<node id="-696185" lat="68.593813889" lon="16.3355666675">
		<tag k="name" v="Litlevatnet" />
		<tag k="natural" v="water" />
		<tag k="ssr:stedsnr" v="141186" />
	</node>
	<node id="-697207" lat="68.4962583324" lon="16.2838416745">
		<tag k="name" v="Reinsjøen" />
		<tag k="natural" v="water" />
		<tag k="ssr:stedsnr" v="927393" />
		<tag k="water" v="lake" />
	</node>
	<node id="-695669" lat="68.4479027764" lon="16.159408344">
		<tag k="name" v="Forosen" />
		<tag k="natural" v="bay" />
		<tag k="ssr:stedsnr" v="320213" />
	</node>
	<node id="-696178" lat="68.5733694486" lon="16.0989722108">
		<tag k="name" v="Kråfjellvatnet" />
		<tag k="natural" v="water" />
		<tag k="ssr:stedsnr" v="138851" />
	</node>
	<node id="-696723" lat="68.4317972258" lon="16.3413083218">
		<tag k="name" v="Mellomvatnet" />
		<tag k="natural" v="water" />
		<tag k="ssr:stedsnr" v="623507" />
	</node>
	<node id="-695663" lat="68.5650555523" lon="16.1137416758">
		<tag k="name" v="Kråfjellelva" />
		<tag k="ssr:stedsnr" v="283935" />
		<tag k="waterway" v="stream" />
	</node>
	<node id="-696684" lat="68.4376472246" lon="16.151775006">
		<tag k="name" v="Vasskjeften" />
		<tag k="natural" v="bay" />
		<tag k="ssr:stedsnr" v="573340" />
	</node>
	<node id="-696295" lat="68.5162916625" lon="16.4054666619">
		<tag k="name" v="Småvatnan" />
		<tag k="natural" v="water" />
		<tag k="ssr:stedsnr" v="202819" />
	</node>
	<node id="-696168" lat="68.5508638906" lon="16.068069448">
		<tag k="name" v="Dalelva" />
		<tag k="ssr:stedsnr" v="138207" />
		<tag k="waterway" v="river" />
	</node>
	<node id="-697190" lat="68.4128805518" lon="16.1412360979">
		<tag k="name" v="Dalsbøelva" />
		<tag k="ssr:stedsnr" v="877323" />
		<tag k="waterway" v="river" />
	</node>
	<node id="-695653" lat="68.4241527764" lon="16.414363878">
		<tag k="name" v="Høla" />
		<tag k="place" v="locality" />
		<tag k="ssr:stedsnr" v="270588" />
	</node>
	<node id="-695652" lat="68.4246083327" lon="16.3294138901">
		<tag k="name" v="Litjnestjønna" />
		<tag k="natural" v="water" />
		<tag k="ssr:stedsnr" v="270547" />
	</node>
	<node id="-696675" lat="68.5405083332" lon="16.4105166603">
		<tag k="name" v="Gyltneselva" />
		<tag k="ssr:stedsnr" v="572808" />
		<tag k="waterway" v="stream" />
	</node>
	<node id="-696464" lat="68.4084916635" lon="16.1318361181">
		<tag k="name" v="Banvadet" />
		<tag k="ssr:stedsnr" v="452284" />
		<tag k="waterway" v="stream" />
	</node>
	<node id="-697180" lat="68.4289722245" lon="16.4029583369">
		<tag k="name" v="Kildstadelva" />
		<tag k="ssr:stedsnr" v="876569" />
		<tag k="waterway" v="stream" />
	</node>
	<node id="-696153" lat="68.4395666706" lon="16.3609027697">
		<tag k="name" v="Tverrelva" />
		<tag k="ssr:stedsnr" v="88694" />
		<tag k="waterway" v="stream" />
	</node>
	<node id="-695639" lat="68.4324777801" lon="16.3479583248">
		<tag k="name" v="Djuptemsen" />
		<tag k="natural" v="strait" />
		<tag k="ssr:stedsnr" v="270729" />
	</node>
	<node id="-696658" lat="68.5269499964" lon="16.5042777666">
		<tag k="name" v="Sørtuvvatnet" />
		<tag k="natural" v="water" />
		<tag k="ssr:stedsnr" v="571641" />
	</node>
	<node id="-695779" lat="68.5622666659" lon="16.1068138778">
		<tag k="fixme" v="multiple name tags, choose one and add the other to alt_name" />
		<tag k="name" v="Gårdselva;Storelva" />
		<tag k="ssr:stedsnr" v="381201" />
		<tag k="waterway" v="river" />
	</node>
	<node id="-696654" lat="68.5181222177" lon="16.2430277821">
		<tag k="name" v="Tverrelva" />
		<tag k="ssr:stedsnr" v="571476" />
		<tag k="waterway" v="stream" />
	</node>
	<node id="-696067" lat="68.5803361126" lon="16.2003666665">
		<tag k="fixme" v="multiple name tags, choose one and add the other to alt_name" />
		<tag k="name" v="Kongsvikelva;Storelva" />
		<tag k="ssr:stedsnr" v="78856" />
		<tag k="waterway" v="river" />
	</node>
	<node id="-696140" lat="68.4233916635" lon="16.13945278">
		<tag k="name" v="Toftelva" />
		<tag k="ssr:stedsnr" v="88407" />
		<tag k="waterway" v="river" />
	</node>
	<node id="-696136" lat="68.4694055574" lon="16.4772250093">
		<tag k="name" v="Hestelva" />
		<tag k="ssr:stedsnr" v="88318" />
		<tag k="waterway" v="stream" />
	</node>
	<node id="-696834" lat="68.5630833333" lon="16.0768999873">
		<tag k="name" v="Oselva" />
		<tag k="ssr:stedsnr" v="685856" />
		<tag k="waterway" v="stream" />
	</node>
	<node id="-696133" lat="68.4372833354" lon="16.1446972159">
		<tag k="name" v="Teinan" />
		<tag k="natural" v="water" />
		<tag k="ssr:stedsnr" v="88298" />
		<tag k="water" v="lake" />
	</node>
	<node id="-696643" lat="68.4498972229" lon="16.1339888809">
		<tag k="name" v="Stortjønna" />
		<tag k="natural" v="water" />
		<tag k="ssr:stedsnr" v="570665" />
	</node>
	<node id="-697153" lat="68.568130559" lon="16.4409194385">
		<tag k="name" v="Haubakkelva" />
		<tag k="ssr:stedsnr" v="875681" />
		<tag k="waterway" v="stream" />
	</node>
	<node id="-696640" lat="68.4525111085" lon="16.1534388877">
		<tag k="name" v="Sandbakkelva" />
		<tag k="ssr:stedsnr" v="570632" />
		<tag k="waterway" v="river" />
	</node>
	<node id="-696919" lat="68.4362138904" lon="16.2646361222">
		<tag k="name" v="Nattmålsvatnan" />
		<tag k="natural" v="water" />
		<tag k="ssr:stedsnr" v="745477" />
		<tag k="water" v="lake" />
	</node>
	<node id="-696636" lat="68.5677333377" lon="16.3533888834">
		<tag k="name" v="Remmelelva" />
		<tag k="ssr:stedsnr" v="570089" />
		<tag k="waterway" v="stream" />
	</node>
	<node id="-696120" lat="68.5973833326" lon="16.1587166758">
		<tag k="name" v="Forsen" />
		<tag k="natural" v="waterfall" />
		<tag k="ssr:stedsnr" v="86559" />
	</node>
	<node id="-696322" lat="68.5501944462" lon="16.515738899">
		<tag k="name" v="Lonelva" />
		<tag k="ssr:stedsnr" v="207478" />
		<tag k="waterway" v="stream" />
	</node>
	<node id="-696629" lat="68.5026500009" lon="16.420180552">
		<tag k="name" v="Gammelmølnelva" />
		<tag k="ssr:stedsnr" v="565940" />
		<tag k="waterway" v="stream" />
	</node>
	<node id="-696697" lat="68.4212277798" lon="16.2825416705">
		<tag k="name" v="Vika" />
		<tag k="ssr:stedsnr" v="573553" />
		<tag k="waterway" v="stream" />
	</node>
	<node id="-696626" lat="68.5253777798" lon="16.5125444541">
		<tag k="name" v="Kringlevatnet" />
		<tag k="natural" v="water" />
		<tag k="ssr:stedsnr" v="565793" />
	</node>
	<node id="-696623" lat="68.5904972259" lon="16.1553638901">
		<tag k="name" v="Vesterforselva" />
		<tag k="ssr:stedsnr" v="564830" />
		<tag k="waterway" v="stream" />
	</node>
	<node id="-696622" lat="68.554099996" lon="16.0119583244">
		<tag k="name" v="Revskarvatnet" />
		<tag k="natural" v="water" />
		<tag k="ssr:stedsnr" v="563886" />
	</node>
	<node id="-697133" lat="68.4831083363" lon="16.1591833386">
		<tag k="name" v="Bekkelva" />
		<tag k="ssr:stedsnr" v="874551" />
		<tag k="waterway" v="stream" />
	</node>
	<node id="-697132" lat="68.4760333306" lon="16.1526249962">
		<tag k="name" v="Jektstrandholmen" />
		<tag k="place" v="islet" />
		<tag k="ssr:stedsnr" v="874399" />
	</node>
	<node id="-697131" lat="68.5024972248" lon="16.4846472263">
		<tag k="name" v="Nordelva" />
		<tag k="ssr:stedsnr" v="874125" />
		<tag k="waterway" v="stream" />
	</node>
	<node id="-696618" lat="68.4285999956" lon="16.2629888954">
		<tag k="name" v="Lappelva" />
		<tag k="ssr:stedsnr" v="563480" />
		<tag k="waterway" v="stream" />
	</node>
	<node id="-697128" lat="68.5104944462" lon="16.4100027828">
		<tag k="name" v="Krokvatnet" />
		<tag k="natural" v="water" />
		<tag k="ssr:stedsnr" v="870949" />
	</node>
	<node id="-695772" lat="68.4624638916" lon="16.1368388773">
		<tag k="name" v="Silsandelva" />
		<tag k="ssr:stedsnr" v="380166" />
		<tag k="waterway" v="stream" />
	</node>
	<node id="-696612" lat="68.4533277741" lon="16.40239999">
		<tag k="name" v="Storelva" />
		<tag k="ssr:stedsnr" v="562470" />
		<tag k="waterway" v="stream" />
	</node>
	<node id="-697122" lat="68.5100777802" lon="16.423872215">
		<tag k="name" v="Krokelva" />
		<tag k="ssr:stedsnr" v="869646" />
		<tag k="waterway" v="stream" />
	</node>
	<node id="-696095" lat="68.5672444462" lon="16.349280563">
		<tag k="name" v="Sørgårdselva" />
		<tag k="ssr:stedsnr" v="85076" />
		<tag k="waterway" v="stream" />
	</node>
	<node id="-697118" lat="68.6020472197" lon="16.1641722102">
		<tag k="name" v="Rundkollbekken" />
		<tag k="ssr:stedsnr" v="867836" />
		<tag k="waterway" v="stream" />
	</node>
	<node id="-696092" lat="68.569733334" lon="16.3952388847">
		<tag k="name" v="Gårdsbekken" />
		<tag k="ssr:stedsnr" v="85071" />
		<tag k="waterway" v="stream" />
	</node>
	<node id="-697110" lat="68.4948944451" lon="16.1841638864">
		<tag k="fixme" v="multiple name tags, choose one and add the other to alt_name" />
		<tag k="name" v="S. Straumselva;Straumselva" />
		<tag k="ssr:stedsnr" v="867180" />
		<tag k="waterway" v="stream" />
	</node>
	<node id="-697108" lat="68.4122388877" lon="16.2375888982">
		<tag k="name" v="Russhaugelva" />
		<tag k="ssr:stedsnr" v="866461" />
		<tag k="waterway" v="stream" />
	</node>
	<node id="-697106" lat="68.4765249977" lon="16.4003333234">
		<tag k="name" v="Siriskoltdalvatnan" />
		<tag k="natural" v="water" />
		<tag k="ssr:stedsnr" v="866389" />
	</node>
	<node id="-696593" lat="68.5428388937" lon="16.4054194337">
		<tag k="name" v="Grønnvegelva" />
		<tag k="ssr:stedsnr" v="512830" />
		<tag k="waterway" v="stream" />
	</node>
	<node id="-696621" lat="68.5667638911" lon="16.0749777728">
		<tag k="name" v="Oselvvatnet" />
		<tag k="natural" v="water" />
		<tag k="ssr:stedsnr" v="563874" />
	</node>
	<node id="-696076" lat="68.5153611143" lon="16.4321444497">
		<tag k="name" v="Mølnneselva" />
		<tag k="ssr:stedsnr" v="81810" />
		<tag k="waterway" v="stream" />
	</node>
	<node id="-696586" lat="68.3985111106" lon="16.1241638831">
		<tag k="name" v="Tverrosen" />
		<tag k="natural" v="bay" />
		<tag k="ssr:stedsnr" v="512512" />
	</node>
	<node id="-696705" lat="68.5920361115" lon="16.3291611029">
		<tag k="name" v="Lillevatnet" />
		<tag k="natural" v="water" />
		<tag k="ssr:stedsnr" v="573728" />
	</node>
	<node id="-697091" lat="68.4318472203" lon="16.3927361159">
		<tag k="name" v="Bergedalselva" />
		<tag k="ssr:stedsnr" v="816740" />
		<tag k="waterway" v="stream" />
	</node>
	<node id="-696619" lat="68.6014972224" lon="16.1264749931">
		<tag k="fixme" v="multiple name tags, choose one and add the other to alt_name" />
		<tag k="name" v="Austerforselva;Forselva" />
		<tag k="ssr:stedsnr" v="563836" />
		<tag k="waterway" v="stream" />
	</node>
	<node id="-697084" lat="68.4254833377" lon="16.3070805525">
		<tag k="name" v="Lomstjønna" />
		<tag k="natural" v="water" />
		<tag k="ssr:stedsnr" v="816626" />
	</node>
	<node id="-697083" lat="68.4392305518" lon="16.305411103">
		<tag k="name" v="Klaven" />
		<tag k="ssr:stedsnr" v="816620" />
		<tag k="waterway" v="stream" />
	</node>
	<node id="-697082" lat="68.4351833303" lon="16.3361250021">
		<tag k="name" v="Tverrelva" />
		<tag k="ssr:stedsnr" v="816600" />
		<tag k="waterway" v="stream" />
	</node>
	<node id="-696056" lat="68.4811777793" lon="16.3604249935">
		<tag k="name" v="Spannbogvatnet - Stuorjávri" />
		<tag k="name:no" v="Spannbogvatnet" />
		<tag k="name:se" v="Stuorjávri" />
		<tag k="natural" v="water" />
		<tag k="ssr:stedsnr" v="77439" />
		<tag k="water" v="lake" />
	</node>
	<node id="-696055" lat="68.4668222205" lon="16.4266305663">
		<tag k="name" v="Krikelva" />
		<tag k="ssr:stedsnr" v="77426" />
		<tag k="waterway" v="stream" />
	</node>
	<node id="-697072" lat="68.4669444461" lon="16.5086444331">
		<tag k="name" v="Storveita" />
		<tag k="ssr:stedsnr" v="816357" />
		<tag k="waterway" v="drain" />
	</node>
	<node id="-696769" lat="68.5649111144" lon="16.2586222295">
		<tag k="name" v="Bekkelva" />
		<tag k="ssr:stedsnr" v="633088" />
		<tag k="waterway" v="stream" />
	</node>
	<node id="-697127" lat="68.5092555544" lon="16.545986106">
		<tag k="name" v="Svartvatnet" />
		<tag k="natural" v="water" />
		<tag k="ssr:stedsnr" v="870944" />
	</node>
	<node id="-697054" lat="68.5385083341" lon="16.4793805543">
		<tag k="name" v="Heimgardselva" />
		<tag k="ssr:stedsnr" v="814685" />
		<tag k="waterway" v="stream" />
	</node>
	<node id="-696536" lat="68.5013888862" lon="16.3833555598">
		<tag k="alt_name" v="Jotindvatnet, nedre" />
		<tag k="name" v="Nedre Jotindvatnet" />
		<tag k="natural" v="water" />
		<tag k="ssr:stedsnr" v="505930" />
	</node>
	<node id="-696535" lat="68.5463388875" lon="16.5456388827">
		<tag k="name" v="Blåbærelva" />
		<tag k="ssr:stedsnr" v="505865" />
		<tag k="waterway" v="stream" />
	</node>
	<node id="-697045" lat="68.4976388921" lon="16.5084444539">
		<tag k="name" v="Vikelva" />
		<tag k="ssr:stedsnr" v="814123" />
		<tag k="waterway" v="stream" />
	</node>
	<node id="-696018" lat="68.4731611114" lon="16.4545194451">
		<tag k="name" v="Russelvvatnet" />
		<tag k="natural" v="water" />
		<tag k="ssr:stedsnr" v="27378" />
	</node>
	<node id="-696813" lat="68.4602500046" lon="16.1613833288">
		<tag k="name" v="Sandbakkvatnet" />
		<tag k="natural" v="water" />
		<tag k="ssr:stedsnr" v="684184" />
	</node>
	<node id="-697039" lat="68.5336583371" lon="16.297947223">
		<tag k="name" v="Storforrdalselva" />
		<tag k="ssr:stedsnr" v="813864" />
		<tag k="waterway" v="stream" />
	</node>
	<node id="-696526" lat="68.5365305537" lon="16.5223277867">
		<tag k="name" v="Helldalsvatnet" />
		<tag k="place" v="locality" />
		<tag k="ssr:stedsnr" v="505775" />
	</node>
	<node id="-697036" lat="68.4815527732" lon="16.172422227">
		<tag k="name" v="Kvanntoelva" />
		<tag k="ssr:stedsnr" v="813509" />
		<tag k="waterway" v="stream" />
	</node>
	<node id="-696610" lat="68.4557472212" lon="16.5383249872">
		<tag k="name" v="Mølnvikelva" />
		<tag k="ssr:stedsnr" v="562467" />
		<tag k="waterway" v="stream" />
	</node>
	<node id="-696010" lat="68.487449997" lon="16.1509333346">
		<tag k="name" v="Eitervågelva" />
		<tag k="ssr:stedsnr" v="26061" />
		<tag k="waterway" v="river" />
	</node>
	<node id="-696521" lat="68.5899750008" lon="16.0774305514">
		<tag k="name" v="Steinvatnan" />
		<tag k="natural" v="water" />
		<tag k="ssr:stedsnr" v="503786" />
		<tag k="water" v="lake" />
	</node>
	<node id="-696003" lat="68.5400944417" lon="16.1777916673">
		<tag k="name" v="Rappelva" />
		<tag k="ssr:stedsnr" v="25568" />
		<tag k="waterway" v="stream" />
	</node>
	<node id="-696514" lat="68.4589249979" lon="16.3928527852">
		<tag k="name" v="Tverrelva" />
		<tag k="ssr:stedsnr" v="502462" />
		<tag k="waterway" v="stream" />
	</node>
	<node id="-696001" lat="68.4714944468" lon="16.1643777772">
		<tag k="name" v="Botnelva" />
		<tag k="ssr:stedsnr" v="25550" />
		<tag k="waterway" v="river" />
	</node>
	<node id="-696510" lat="68.4964527744" lon="16.5339499917">
		<tag k="fixme" v="multiple name tags, choose one and add the other to alt_name" />
		<tag k="name" v="Melsbøelva;Storelva" />
		<tag k="ssr:stedsnr" v="502403" />
		<tag k="waterway" v="stream" />
	</node>
	<node id="-697021" lat="68.524536112" lon="16.503033341">
		<tag k="name" v="Sørtuvvatnan" />
		<tag k="natural" v="water" />
		<tag k="ssr:stedsnr" v="808778" />
	</node>
	<node id="-697020" lat="68.5376277785" lon="16.4967111204">
		<tag k="name" v="Varmoelva" />
		<tag k="ssr:stedsnr" v="808767" />
		<tag k="waterway" v="stream" />
	</node>
	<node id="-697119" lat="68.5639000004" lon="16.1189583375">
		<tag k="name" v="Tverrelva" />
		<tag k="ssr:stedsnr" v="867872" />
		<tag k="waterway" v="stream" />
	</node>
	<node id="-696503" lat="68.46430556" lon="16.1872916566">
		<tag k="name" v="Tindvatnet" />
		<tag k="natural" v="water" />
		<tag k="ssr:stedsnr" v="502159" />
	</node>
	<node id="-696264" lat="68.5648138907" lon="16.2526083348">
		<tag k="name" v="Mølnelva" />
		<tag k="ssr:stedsnr" v="268553" />
		<tag k="waterway" v="stream" />
	</node>
	<node id="-696690" lat="68.4094611144" lon="16.227302786">
		<tag k="name" v="Oterbekken" />
		<tag k="ssr:stedsnr" v="573392" />
		<tag k="waterway" v="stream" />
	</node>
	<node id="-696489" lat="68.4236222197" lon="16.3597666672">
		<tag k="name" v="Breiosen" />
		<tag k="natural" v="water" />
		<tag k="ssr:stedsnr" v="452723" />
		<tag k="water" v="lake" />
	</node>
	<node id="-695966" lat="68.5741083307" lon="16.2880111157">
		<tag k="name" v="Skabakkelva" />
		<tag k="ssr:stedsnr" v="20150" />
		<tag k="waterway" v="stream" />
	</node>
	<node id="-695964" lat="68.5175416632" lon="16.2134944415">
		<tag k="name" v="Mølnelva" />
		<tag k="ssr:stedsnr" v="18728" />
		<tag k="waterway" v="stream" />
	</node>
	<node id="-696475" lat="68.4050527752" lon="16.2017555454">
		<tag k="name" v="Oterelva" />
		<tag k="ssr:stedsnr" v="452419" />
		<tag k="waterway" v="river" />
	</node>
	<node id="-695962" lat="68.5574361121" lon="16.0484944363">
		<tag k="name" v="Kjerringelva" />
		<tag k="ssr:stedsnr" v="17885" />
		<tag k="waterway" v="stream" />
	</node>
	<node id="-696471" lat="68.4921694445" lon="16.4768000047">
		<tag k="name" v="Slåttneselva" />
		<tag k="ssr:stedsnr" v="452379" />
		<tag k="waterway" v="stream" />
	</node>
	<node id="-695958" lat="68.4309083322" lon="16.3512305653">
		<tag k="name" v="Storvatnet" />
		<tag k="natural" v="water" />
		<tag k="ssr:stedsnr" v="17506" />
	</node>
	<node id="-695957" lat="68.4316166648" lon="16.3302305626">
		<tag k="name" v="Vestervatnet" />
		<tag k="natural" v="water" />
		<tag k="ssr:stedsnr" v="17504" />
	</node>
	<node id="-695954" lat="68.4659750015" lon="16.291794443">
		<tag k="name" v="Trollvatnet" />
		<tag k="natural" v="water" />
		<tag k="ssr:stedsnr" v="17440" />
		<tag k="water" v="lake" />
	</node>
	<node id="-696515" lat="68.4537250019" lon="16.3041027729">
		<tag k="name" v="Tindvatnet" />
		<tag k="natural" v="water" />
		<tag k="ssr:stedsnr" v="502466" />
		<tag k="water" v="lake" />
	</node>
	<node id="-695952" lat="68.4391194401" lon="16.1541527839">
		<tag k="name" v="Vågevatnet" />
		<tag k="natural" v="water" />
		<tag k="ssr:stedsnr" v="17263" />
		<tag k="water" v="lake" />
	</node>
	<node id="-695951" lat="68.4504277746" lon="16.1494583252">
		<tag k="name" v="Osan" />
		<tag k="natural" v="bay" />
		<tag k="ssr:stedsnr" v="17244" />
	</node>
	<node id="-695945" lat="68.4716638853" lon="16.1787166542">
		<tag k="name" v="Forsdalselva" />
		<tag k="ssr:stedsnr" v="267499" />
		<tag k="waterway" v="river" />
	</node>
	<node id="-696455" lat="68.5443249961" lon="16.188449989">
		<tag k="name" v="Litjeelva" />
		<tag k="ssr:stedsnr" v="450598" />
		<tag k="waterway" v="stream" />
	</node>
	<node id="-697281" lat="68.4236777787" lon="16.1785611174">
		<tag k="name" v="Toftedalsvatnan" />
		<tag k="natural" v="water" />
		<tag k="ssr:stedsnr" v="937489" />
		<tag k="water" v="lake" />
	</node>
	<node id="-696963" lat="68.536752782" lon="16.4208083301">
		<tag k="name" v="Oterstokkelva" />
		<tag k="ssr:stedsnr" v="753693" />
		<tag k="waterway" v="stream" />
	</node>
	<node id="-696958" lat="68.4796222236" lon="16.1613000048">
		<tag k="name" v="Mølnelva" />
		<tag k="ssr:stedsnr" v="753500" />
		<tag k="waterway" v="stream" />
	</node>
	<node id="-696384" lat="68.4261861096" lon="16.3572555475">
		<tag k="name" v="Storelva" />
		<tag k="ssr:stedsnr" v="260478" />
		<tag k="waterway" v="river" />
	</node>
	<node id="-696955" lat="68.5212111072" lon="16.2522166702">
		<tag k="name" v="Nedre-Gregusvatn" />
		<tag k="natural" v="water" />
		<tag k="ssr:stedsnr" v="753403" />
		<tag k="water" v="lake" />
	</node>
	<node id="-696953" lat="68.5000194477" lon="16.2163666656">
		<tag k="name" v="Buksvatnet" />
		<tag k="natural" v="water" />
		<tag k="ssr:stedsnr" v="753343" />
		<tag k="water" v="lake" />
	</node>
	<node id="-696431" lat="68.6186611135" lon="16.2671666565">
		<tag k="name" v="Kråvatnet" />
		<tag k="natural" v="water" />
		<tag k="ssr:stedsnr" v="445257" />
	</node>
	<node id="-696426" lat="68.5215749979" lon="16.2312361216">
		<tag k="name" v="Greguselva" />
		<tag k="ssr:stedsnr" v="444787" />
		<tag k="waterway" v="stream" />
	</node>
	<node id="-696935" lat="68.5265805561" lon="16.2336388888">
		<tag k="alt_name" v="Litle-elva" />
		<tag k="name" v="Litleelva" />
		<tag k="ssr:stedsnr" v="748792" />
		<tag k="waterway" v="stream" />
	</node>
	<node id="-695996" lat="68.5165888853" lon="16.1885305461">
		<tag k="name" v="Dumpelva" />
		<tag k="ssr:stedsnr" v="25422" />
		<tag k="waterway" v="stream" />
	</node>
	<node id="-696934" lat="68.5310805543" lon="16.3465749982">
		<tag k="loc_name:se" v="Sáttiidjávri" />
		<tag k="name" v="Sandsvatnet" />
		<tag k="name:no" v="Sandsvatnet" />
		<tag k="natural" v="water" />
		<tag k="ssr:stedsnr" v="748790" />
		<tag k="water" v="lake" />
	</node>
	<node id="-696337" lat="68.4339999972" lon="16.1439027659">
		<tag k="name" v="Løken" />
		<tag k="ssr:stedsnr" v="209362" />
		<tag k="waterway" v="stream" />
	</node>
	<node id="-696420" lat="68.4527222227" lon="16.5150166689">
		<tag k="name" v="Osen" />
		<tag k="natural" v="bay" />
		<tag k="ssr:stedsnr" v="442471" />
	</node>
	<node id="-696931" lat="68.6029250027" lon="16.1913777897">
		<tag k="name" v="Tverrfjellelva" />
		<tag k="ssr:stedsnr" v="746771" />
		<tag k="waterway" v="stream" />
	</node>
	<node id="-696928" lat="68.5845388847" lon="16.0939750084">
		<tag k="name" v="Vesterforsvatnan" />
		<tag k="natural" v="water" />
		<tag k="ssr:stedsnr" v="745863" />
		<tag k="water" v="lake" />
	</node>
	<node id="-697017" lat="68.5588944475" lon="16.1916944472">
		<tag k="fixme" v="multiple name tags, choose one and add the other to alt_name" />
		<tag k="name" v="Mølnelva;Mølnskarelva" />
		<tag k="ssr:stedsnr" v="806889" />
		<tag k="waterway" v="stream" />
	</node>
	<node id="-696923" lat="68.457086111" lon="16.1607805567">
		<tag k="name" v="Livatnet" />
		<tag k="natural" v="water" />
		<tag k="ssr:stedsnr" v="745227" />
	</node>
	<node id="-696847" lat="68.5698250045" lon="16.3987916621">
		<tag k="name" v="Reinvassbekken" />
		<tag k="ssr:stedsnr" v="692092" />
		<tag k="waterway" v="stream" />
	</node>
	<node id="-697188" lat="68.4286277781" lon="16.3521694416">
		<tag k="name" v="Brustranda" />
		<tag k="natural" v="beach" />
		<tag k="ssr:stedsnr" v="876755" />
	</node>
	<node id="-696405" lat="68.5482055539" lon="16.3072888925">
		<tag k="name" v="Gårdselva" />
		<tag k="ssr:stedsnr" v="267896" />
		<tag k="waterway" v="stream" />
	</node>
	<node id="-696916" lat="68.4467222216" lon="16.4307388892">
		<tag k="name" v="Smielva" />
		<tag k="ssr:stedsnr" v="745442" />
		<tag k="waterway" v="stream" />
	</node>
	<node id="-696915" lat="68.4859000025" lon="16.4862000076">
		<tag k="name" v="Middagsneselva" />
		<tag k="ssr:stedsnr" v="745428" />
		<tag k="waterway" v="stream" />
	</node>
	<node id="-695883" lat="68.5794249992" lon="16.2286361116">
		<tag k="name" v="Ramlielva" />
		<tag k="ssr:stedsnr" v="890938" />
		<tag k="waterway" v="stream" />
	</node>
	<node id="-696392" lat="68.5500027779" lon="16.512774999">
		<tag k="name" v="Osen" />
		<tag k="natural" v="bay" />
		<tag k="ssr:stedsnr" v="263843" />
	</node>
	<node id="-695878" lat="68.5759750006" lon="16.3586861083">
		<tag k="name" v="Kleivfjelltjønna" />
		<tag k="natural" v="water" />
		<tag k="ssr:stedsnr" v="889860" />
	</node>
	<node id="-696387" lat="68.519275" lon="16.3503916726">
		<tag k="loc_name:se" v="Čáhppesjávri" />
		<tag k="name" v="Svartvatnet" />
		<tag k="name:no" v="Svartvatnet" />
		<tag k="natural" v="water" />
		<tag k="ssr:stedsnr" v="262827" />
	</node>
	<node id="-696896" lat="68.4323833315" lon="16.3530249981">
		<tag k="name" v="Vassenden" />
		<tag k="natural" v="bay" />
		<tag k="ssr:stedsnr" v="694725" />
	</node>
	<node id="-696383" lat="68.4917333315" lon="16.242277783">
		<tag k="name" v="Straumsvatnet" />
		<tag k="natural" v="water" />
		<tag k="ssr:stedsnr" v="260413" />
	</node>
	<node id="-696894" lat="68.4552222191" lon="16.4139888788">
		<tag k="name" v="Storelvforsen" />
		<tag k="natural" v="waterfall" />
		<tag k="ssr:stedsnr" v="694670" />
	</node>
	<node id="-696403" lat="68.4570277787" lon="16.1249222312">
		<tag k="name" v="Tjønnskogtjønnene" />
		<tag k="natural" v="water" />
		<tag k="ssr:stedsnr" v="267687" />
	</node>
	<node id="-696890" lat="68.4243500002" lon="16.1032472269">
		<tag k="name" v="Tjeldnesosen" />
		<tag k="natural" v="bay" />
		<tag k="ssr:stedsnr" v="694439" />
	</node>
	<node id="-695865" lat="68.4239027759" lon="16.4176583312">
		<tag k="name" v="Osen" />
		<tag k="natural" v="bay" />
		<tag k="ssr:stedsnr" v="391725" />
	</node>
	<node id="-696885" lat="68.4690472236" lon="16.474197223">
		<tag k="name" v="Grønnslettvatnet" />
		<tag k="natural" v="water" />
		<tag k="ssr:stedsnr" v="694340" />
		<tag k="water" v="lake" />
	</node>
	<node id="-696884" lat="68.4694638916" lon="16.4964472169">
		<tag k="name" v="Skredelva" />
		<tag k="ssr:stedsnr" v="694321" />
		<tag k="waterway" v="stream" />
	</node>
	<node id="-696883" lat="68.4789527744" lon="16.5018500048">
		<tag k="name" v="Sælebotelva" />
		<tag k="ssr:stedsnr" v="694319" />
		<tag k="waterway" v="stream" />
	</node>
	<node id="-696362" lat="68.4413972205" lon="16.4580777854">
		<tag k="name" v="Silsandvikelva" />
		<tag k="ssr:stedsnr" v="209853" />
		<tag k="waterway" v="stream" />
	</node>
	<node id="-696359" lat="68.436602781" lon="16.3471555544">
		<tag k="name" v="Forskrokan" />
		<tag k="natural" v="bay" />
		<tag k="ssr:stedsnr" v="209765" />
	</node>
	<node id="-695840" lat="68.4089611151" lon="16.1347416644">
		<tag k="name" v="Banvadelva" />
		<tag k="ssr:stedsnr" v="391303" />
		<tag k="waterway" v="river" />
	</node>
	<node id="-696240" lat="68.4257361146" lon="16.4123333411">
		<tag k="name" v="Kjerringsnella" />
		<tag k="ssr:stedsnr" v="148602" />
		<tag k="waterway" v="stream" />
	</node>
	<node id="-695837" lat="68.4207694473" lon="16.0922027817">
		<tag k="name" v="Småosan" />
		<tag k="natural" v="water" />
		<tag k="ssr:stedsnr" v="391293" />
		<tag k="water" v="lake" />
	</node>
	<node id="-696807" lat="68.5871750041" lon="16.1325138916">
		<tag k="name" v="Rátkkajávri" />
		<tag k="name:se" v="Rátkkajávri" />
		<tag k="natural" v="water" />
		<tag k="ssr:stedsnr" v="648574" />
	</node>
	<node id="-695834" lat="68.5457583373" lon="16.1016666596">
		<tag k="name" v="Møllelva" />
		<tag k="ssr:stedsnr" v="390180" />
		<tag k="waterway" v="stream" />
	</node>
	<node id="-696751" lat="68.5495972229" lon="16.1314555544">
		<tag k="name" v="Urelva" />
		<tag k="ssr:stedsnr" v="631134" />
		<tag k="waterway" v="stream" />
	</node>
	<node id="-696342" lat="68.397769442" lon="16.1605416639">
		<tag k="name" v="Lomtjønnene" />
		<tag k="natural" v="water" />
		<tag k="ssr:stedsnr" v="209432" />
	</node>
	<node id="-696340" lat="68.415413888" lon="16.0915499997">
		<tag k="name" v="Heststrandbekken" />
		<tag k="ssr:stedsnr" v="209408" />
		<tag k="waterway" v="stream" />
	</node>
	<node id="-696339" lat="68.4667166697" lon="16.4450583323">
		<tag k="name" v="Sommarneselva" />
		<tag k="ssr:stedsnr" v="209373" />
		<tag k="waterway" v="stream" />
	</node>
	<node id="-695825" lat="68.564477776" lon="16.2388305602">
		<tag k="name" v="Elveneset" />
		<tag k="natural" v="cape" />
		<tag k="ssr:stedsnr" v="389574" />
	</node>
	<node id="-695823" lat="68.5431972189" lon="16.5427027815">
		<tag k="name" v="Russetjønnene" />
		<tag k="natural" v="water" />
		<tag k="ssr:stedsnr" v="389531" />
	</node>
	<node id="-695819" lat="68.5173861139" lon="16.2043055487">
		<tag k="name" v="Tverrløken" />
		<tag k="ssr:stedsnr" v="389445" />
		<tag k="waterway" v="stream" />
	</node>
	<node id="-695818" lat="68.5960750013" lon="16.1959500069">
		<tag k="name" v="Tverrelva" />
		<tag k="ssr:stedsnr" v="389420" />
		<tag k="waterway" v="stream" />
	</node>
	<node id="-696407" lat="68.4907777805" lon="16.1745222149">
		<tag k="name" v="Trapptrinn-elva" />
		<tag k="ssr:stedsnr" v="268041" />
		<tag k="waterway" v="stream" />
	</node>
	<node id="-696840" lat="68.5493305548" lon="16.3438583352">
		<tag k="name" v="Lomtjønna" />
		<tag k="natural" v="water" />
		<tag k="ssr:stedsnr" v="687864" />
	</node>
	<node id="-696325" lat="68.4658972211" lon="16.148999992">
		<tag k="name" v="Silsandvatnan" />
		<tag k="natural" v="water" />
		<tag k="ssr:stedsnr" v="207528" />
		<tag k="water" v="lake" />
	</node>
	<node id="-695810" lat="68.4549333374" lon="16.1664333449">
		<tag k="name" v="Li-elva" />
		<tag k="ssr:stedsnr" v="388633" />
		<tag k="waterway" v="river" />
	</node>
	<node id="-696491" lat="68.4414611136" lon="16.353011102">
		<tag k="name" v="Komilelva" />
		<tag k="ssr:stedsnr" v="452743" />
		<tag k="waterway" v="stream" />
	</node>
</osm>
