<?xml version="1.0" encoding="UTF-8"?>
<osm generator="osmapis" version="0.6">
	<node id="-696320" lat="68.5182527807" lon="16.248502784">
		<tag k="name" v="Tverrelvskaret" />
		<tag k="natural" v="valley" />
		<tag k="place" v="locality" />
		<tag k="ssr:stedsnr" v="207428" />
	</node>
	<node id="-696312" lat="68.5712944411" lon="16.3379305492">
		<tag k="name" v="Skaret" />
		<tag k="natural" v="valley" />
		<tag k="place" v="locality" />
		<tag k="ssr:stedsnr" v="207080" />
	</node>
	<node id="-696308" lat="68.4501666701" lon="16.1284694484">
		<tag k="name" v="Møln-berget" />
		<tag k="natural" v="hill" />
		<tag k="place" v="locality" />
		<tag k="ssr:stedsnr" v="206692" />
	</node>
	<node id="-696303" lat="68.5065527817" lon="16.4122250014">
		<tag k="fixme" v="consider natural=peak for the most distinct mountains in the district" />
		<tag k="name" v="Nova" />
		<tag k="natural" v="hill" />
		<tag k="place" v="locality" />
		<tag k="ssr:stedsnr" v="202960" />
	</node>
	<node id="-696294" lat="68.528136115" lon="16.5199277833">
		<tag k="alt_name" v="Tortenåsen" />
		<tag k="fixme" v="consider natural=peak for the most distinct mountains in the district" />
		<tag k="name" v="Turtenåsen" />
		<tag k="natural" v="hill" />
		<tag k="place" v="locality" />
		<tag k="ssr:stedsnr" v="202803" />
	</node>
	<node id="-696293" lat="68.5362250006" lon="16.3599611184">
		<tag k="fixme" v="consider natural=peak for the most distinct mountains in the district" />
		<tag k="name" v="Holsheia" />
		<tag k="natural" v="hill" />
		<tag k="place" v="locality" />
		<tag k="ssr:stedsnr" v="202775" />
	</node>
	<node id="-696290" lat="68.582633331" lon="16.2639888815">
		<tag k="fixme" v="consider natural=peak for the most distinct mountains in the district" />
		<tag k="name" v="Kongsviktinden" />
		<tag k="natural" v="hill" />
		<tag k="place" v="locality" />
		<tag k="ssr:stedsnr" v="202171" />
	</node>
	<node id="-696289" lat="68.5790972232" lon="16.4153666764">
		<tag k="fixme" v="consider natural=peak for the most distinct mountains in the district" />
		<tag k="name" v="Vardfjellet" />
		<tag k="natural" v="hill" />
		<tag k="place" v="locality" />
		<tag k="ssr:stedsnr" v="202165" />
	</node>
	<node id="-696288" lat="68.6113194396" lon="16.1250111213">
		<tag k="name" v="Kongsvikhøgda - Čahca" />
		<tag k="name:no" v="Kongsvikhøgda" />
		<tag k="name:se" v="Čahca" />
		<tag k="natural" v="hill" />
		<tag k="place" v="locality" />
		<tag k="ssr:stedsnr" v="200371" />
	</node>
	<node id="-696287" lat="68.5609249994" lon="16.1706722278">
		<tag k="fixme" v="consider natural=peak for the most distinct mountains in the district" />
		<tag k="name" v="Mølnskartinden" />
		<tag k="natural" v="hill" />
		<tag k="place" v="locality" />
		<tag k="ssr:stedsnr" v="199857" />
	</node>
	<node id="-696286" lat="68.5488861106" lon="16.0590305646">
		<tag k="name" v="Sørdalen" />
		<tag k="natural" v="valley" />
		<tag k="place" v="locality" />
		<tag k="ssr:stedsnr" v="199774" />
	</node>
	<node id="-696279" lat="68.4511972227" lon="16.1732888965">
		<tag k="fixme" v="consider natural=peak for the most distinct mountains in the district" />
		<tag k="name" v="Aksla" />
		<tag k="natural" v="hill" />
		<tag k="place" v="locality" />
		<tag k="ssr:stedsnr" v="199226" />
	</node>
	<node id="-696274" lat="68.5367555565" lon="16.4885194401">
		<tag k="name" v="Lian" />
		<tag k="natural" v="slope" />
		<tag k="place" v="locality" />
		<tag k="ssr:stedsnr" v="268669" />
	</node>
	<node id="-696272" lat="68.5746555525" lon="16.1815888856">
		<tag k="fixme" v="consider natural=peak for the most distinct mountains in the district" />
		<tag k="name" v="Kvitskredfjellet" />
		<tag k="natural" v="hill" />
		<tag k="place" v="locality" />
		<tag k="ssr:stedsnr" v="162954" />
	</node>
	<node id="-696271" lat="68.5761944449" lon="16.2225222193">
		<tag k="fixme" v="consider natural=peak for the most distinct mountains in the district" />
		<tag k="name" v="Remelåsen" />
		<tag k="natural" v="hill" />
		<tag k="place" v="locality" />
		<tag k="ssr:stedsnr" v="162951" />
	</node>
	<node id="-696269" lat="68.5293583358" lon="16.5520166742">
		<tag k="fixme" v="consider natural=peak for the most distinct mountains in the district" />
		<tag k="name" v="Fjelldalsheia" />
		<tag k="natural" v="hill" />
		<tag k="place" v="locality" />
		<tag k="ssr:stedsnr" v="162794" />
	</node>
	<node id="-696265" lat="68.5559805542" lon="16.0748583428">
		<tag k="name" v="Busletten" />
		<tag k="place" v="locality" />
		<tag k="ssr:stedsnr" v="160914" />
	</node>
	<node id="-696263" lat="68.5695611083" lon="16.2528277738">
		<tag k="name" v="Kråkbakken" />
		<tag k="natural" v="slope" />
		<tag k="place" v="locality" />
		<tag k="ssr:stedsnr" v="268551" />
	</node>
	<node id="-696256" lat="68.4437638904" lon="16.4581305536">
		<tag k="name" v="Halsen" />
		<tag k="natural" v="hill" />
		<tag k="place" v="locality" />
		<tag k="ssr:stedsnr" v="148779" />
	</node>
	<node id="-696255" lat="68.4252361139" lon="16.337608324">
		<tag k="name" v="Gammhaugen" />
		<tag k="natural" v="hill" />
		<tag k="place" v="locality" />
		<tag k="ssr:stedsnr" v="148763" />
	</node>
	<node id="-696254" lat="68.429947221" lon="16.3637361042">
		<tag k="name" v="Engnakken" />
		<tag k="natural" v="hill" />
		<tag k="place" v="locality" />
		<tag k="ssr:stedsnr" v="148739" />
	</node>
	<node id="-696253" lat="68.4379222203" lon="16.3945055591">
		<tag k="name" v="Skilforheia" />
		<tag k="natural" v="hill" />
		<tag k="place" v="locality" />
		<tag k="ssr:stedsnr" v="148724" />
	</node>
	<node id="-696252" lat="68.4375944481" lon="16.4019694543">
		<tag k="name" v="Gunnarhola" />
		<tag k="natural" v="valley" />
		<tag k="place" v="locality" />
		<tag k="ssr:stedsnr" v="148721" />
	</node>
	<node id="-696251" lat="68.4331972192" lon="16.3944611122">
		<tag k="name" v="Komilberget" />
		<tag k="natural" v="hill" />
		<tag k="place" v="locality" />
		<tag k="ssr:stedsnr" v="148720" />
	</node>
	<node id="-696250" lat="68.4537972211" lon="16.4153527818">
		<tag k="name" v="Humpen" />
		<tag k="natural" v="hill" />
		<tag k="place" v="locality" />
		<tag k="ssr:stedsnr" v="148708" />
	</node>
	<node id="-696247" lat="68.4175527761" lon="16.1718861162">
		<tag k="name" v="Småvardan" />
		<tag k="place" v="locality" />
		<tag k="ssr:stedsnr" v="148688" />
	</node>
	<node id="-696246" lat="68.44525" lon="16.4307444315">
		<tag k="name" v="Merafestuva" />
		<tag k="natural" v="hill" />
		<tag k="place" v="locality" />
		<tag k="ssr:stedsnr" v="148687" />
	</node>
	<node id="-696245" lat="68.4170388927" lon="16.1259388819">
		<tag k="name" v="Oksen" />
		<tag k="natural" v="hill" />
		<tag k="place" v="locality" />
		<tag k="ssr:stedsnr" v="148686" />
	</node>
	<node id="-696244" lat="68.4646277737" lon="16.4454333299">
		<tag k="name" v="Sommarneset" />
		<tag k="place" v="locality" />
		<tag k="ssr:stedsnr" v="148682" />
	</node>
	<node id="-696243" lat="68.4558249986" lon="16.3855027657">
		<tag k="name" v="Slåtthaugen" />
		<tag k="natural" v="hill" />
		<tag k="place" v="locality" />
		<tag k="ssr:stedsnr" v="148659" />
	</node>
	<node id="-696237" lat="68.3966805582" lon="16.1178027661">
		<tag k="name" v="Hesteberghaugen" />
		<tag k="natural" v="hill" />
		<tag k="place" v="locality" />
		<tag k="ssr:stedsnr" v="148530" />
	</node>
	<node id="-696236" lat="68.3979194424" lon="16.1397333301">
		<tag k="name" v="Spælen" />
		<tag k="place" v="locality" />
		<tag k="ssr:stedsnr" v="148517" />
	</node>
	<node id="-696235" lat="68.4234027794" lon="16.1482944398">
		<tag k="name" v="Hella" />
		<tag k="natural" v="hill" />
		<tag k="place" v="locality" />
		<tag k="ssr:stedsnr" v="148475" />
	</node>
	<node id="-696232" lat="68.4204777735" lon="16.2473444436">
		<tag k="name" v="Nerdalen" />
		<tag k="natural" v="valley" />
		<tag k="place" v="locality" />
		<tag k="ssr:stedsnr" v="148414" />
	</node>
	<node id="-696230" lat="68.4661111119" lon="16.4538972128">
		<tag k="name" v="Nilsteigen" />
		<tag k="place" v="locality" />
		<tag k="ssr:stedsnr" v="148374" />
	</node>
	<node id="-696228" lat="68.4412638873" lon="16.1756944311">
		<tag k="fixme" v="consider natural=peak for the most distinct mountains in the district" />
		<tag k="name" v="Rabban" />
		<tag k="natural" v="hill" />
		<tag k="place" v="locality" />
		<tag k="ssr:stedsnr" v="148363" />
	</node>
	<node id="-696225" lat="68.4030305565" lon="16.1161027851">
		<tag k="name" v="Skarhaugen" />
		<tag k="natural" v="hill" />
		<tag k="place" v="locality" />
		<tag k="ssr:stedsnr" v="148306" />
	</node>
	<node id="-696223" lat="68.4033833347" lon="16.1483138811">
		<tag k="fixme" v="consider natural=peak for the most distinct mountains in the district" />
		<tag k="name" v="Oddeaksla" />
		<tag k="natural" v="hill" />
		<tag k="place" v="locality" />
		<tag k="ssr:stedsnr" v="148302" />
	</node>
	<node id="-696222" lat="68.5219138895" lon="16.4868000002">
		<tag k="name" v="Svartholet" />
		<tag k="natural" v="valley" />
		<tag k="place" v="locality" />
		<tag k="ssr:stedsnr" v="148034" />
	</node>
	<node id="-696220" lat="68.5441138874" lon="16.3042861038">
		<tag k="name" v="Steinsletta" />
		<tag k="place" v="locality" />
		<tag k="ssr:stedsnr" v="146890" />
	</node>
	<node id="-696218" lat="68.5402138912" lon="16.4153972107">
		<tag k="name" v="Bjørnbanken" />
		<tag k="place" v="locality" />
		<tag k="ssr:stedsnr" v="146715" />
	</node>
	<node id="-696211" lat="68.5344888936" lon="16.519841659">
		<tag k="fixme" v="consider natural=peak for the most distinct mountains in the district" />
		<tag k="name" v="Åsan" />
		<tag k="natural" v="hill" />
		<tag k="place" v="locality" />
		<tag k="ssr:stedsnr" v="146481" />
	</node>
	<node id="-696210" lat="68.5512499967" lon="16.5524888785">
		<tag k="name" v="Kvitberget" />
		<tag k="natural" v="hill" />
		<tag k="place" v="locality" />
		<tag k="ssr:stedsnr" v="146470" />
	</node>
	<node id="-696209" lat="68.5492138869" lon="16.5426972166">
		<tag k="name" v="Geitberget" />
		<tag k="natural" v="hill" />
		<tag k="place" v="locality" />
		<tag k="ssr:stedsnr" v="146469" />
	</node>
	<node id="-696202" lat="68.4688638857" lon="16.5421722269">
		<tag k="name" v="Ramneskollen" />
		<tag k="natural" v="hill" />
		<tag k="place" v="locality" />
		<tag k="ssr:stedsnr" v="146009" />
	</node>
	<node id="-696201" lat="68.4534083325" lon="16.1473861174">
		<tag k="name" v="Langhaugen" />
		<tag k="natural" v="hill" />
		<tag k="place" v="locality" />
		<tag k="ssr:stedsnr" v="145675" />
	</node>
	<node id="-696184" lat="68.5703166702" lon="16.2438138903">
		<tag k="fixme" v="consider natural=peak for the most distinct mountains in the district" />
		<tag k="name" v="Falkåsen" />
		<tag k="natural" v="hill" />
		<tag k="place" v="locality" />
		<tag k="ssr:stedsnr" v="141159" />
	</node>
	<node id="-696181" lat="68.5607055596" lon="16.2811888774">
		<tag k="fixme" v="consider natural=peak for the most distinct mountains in the district" />
		<tag k="name" v="Ballstadåsen" />
		<tag k="natural" v="hill" />
		<tag k="place" v="locality" />
		<tag k="ssr:stedsnr" v="141130" />
	</node>
	<node id="-696174" lat="68.4335527747" lon="16.3931888908">
		<tag k="name" v="Lia" />
		<tag k="natural" v="slope" />
		<tag k="place" v="locality" />
		<tag k="ssr:stedsnr" v="138484" />
	</node>
	<node id="-696173" lat="68.4335805572" lon="16.4094638793">
		<tag k="fixme" v="consider natural=peak for the most distinct mountains in the district" />
		<tag k="name" v="Benkelifjellet" />
		<tag k="natural" v="hill" />
		<tag k="ssr:stedsnr" v="138482" />
	</node>
	<node id="-696165" lat="68.5466083344" lon="16.5368111224">
		<tag k="name" v="Stigropa" />
		<tag k="natural" v="valley" />
		<tag k="place" v="locality" />
		<tag k="ssr:stedsnr" v="268511" />
	</node>
	<node id="-696163" lat="68.540491664" lon="16.5702999999">
		<tag k="name" v="Øverbakkan" />
		<tag k="natural" v="slope" />
		<tag k="place" v="locality" />
		<tag k="ssr:stedsnr" v="114064" />
	</node>
	<node id="-696162" lat="68.5790444473" lon="16.1658444549">
		<tag k="fixme" v="consider natural=peak for the most distinct mountains in the district" />
		<tag k="name" v="Heargevárri" />
		<tag k="name:se" v="Heargevárri" />
		<tag k="natural" v="hill" />
		<tag k="place" v="locality" />
		<tag k="ssr:stedsnr" v="102630" />
	</node>
	<node id="-696161" lat="68.5788861144" lon="16.2111333238">
		<tag k="name" v="Storsletten" />
		<tag k="place" v="locality" />
		<tag k="ssr:stedsnr" v="101941" />
	</node>
	<node id="-696158" lat="68.5781888908" lon="16.3745250051">
		<tag k="name" v="Øverforsen" />
		<tag k="place" v="locality" />
		<tag k="ssr:stedsnr" v="100832" />
	</node>
	<node id="-696154" lat="68.4278833305" lon="16.3664638795">
		<tag k="name" v="Hundskanken" />
		<tag k="natural" v="hill" />
		<tag k="place" v="locality" />
		<tag k="ssr:stedsnr" v="88698" />
	</node>
	<node id="-696152" lat="68.4281249973" lon="16.3600999945">
		<tag k="name" v="Kvardagsbakken" />
		<tag k="natural" v="slope" />
		<tag k="place" v="locality" />
		<tag k="ssr:stedsnr" v="88674" />
	</node>
	<node id="-696151" lat="68.4222222212" lon="16.3947249903">
		<tag k="fixme" v="consider natural=peak for the most distinct mountains in the district" />
		<tag k="name" v="Kleivan" />
		<tag k="natural" v="hill" />
		<tag k="place" v="locality" />
		<tag k="ssr:stedsnr" v="88667" />
	</node>
	<node id="-696146" lat="68.4516694445" lon="16.4437611103">
		<tag k="name" v="Tjukkkjerran" />
		<tag k="place" v="locality" />
		<tag k="ssr:stedsnr" v="88593" />
	</node>
	<node id="-696145" lat="68.4573611151" lon="16.3658083221">
		<tag k="name" v="Kvanntohaugen" />
		<tag k="natural" v="hill" />
		<tag k="place" v="locality" />
		<tag k="ssr:stedsnr" v="88578" />
	</node>
	<node id="-696142" lat="68.4402944467" lon="16.3339999911">
		<tag k="name" v="Valsaholten" />
		<tag k="natural" v="ridge" />
		<tag k="place" v="locality" />
		<tag k="ssr:stedsnr" v="88454" />
	</node>
	<node id="-696139" lat="68.4161722179" lon="16.233416674">
		<tag k="name" v="Vedhøggan" />
		<tag k="natural" v="slope" />
		<tag k="place" v="locality" />
		<tag k="ssr:stedsnr" v="88348" />
	</node>
	<node id="-696135" lat="68.4750416673" lon="16.486488894">
		<tag k="name" v="Klokka 8-steinen" />
		<tag k="place" v="locality" />
		<tag k="ssr:stedsnr" v="88314" />
	</node>
	<node id="-696132" lat="68.427963892" lon="16.1640277832">
		<tag k="name" v="Litjehallen" />
		<tag k="natural" v="hill" />
		<tag k="place" v="locality" />
		<tag k="ssr:stedsnr" v="88294" />
	</node>
	<node id="-696131" lat="68.4782555593" lon="16.499516664">
		<tag k="name" v="Sælebotdalen" />
		<tag k="natural" v="valley" />
		<tag k="place" v="locality" />
		<tag k="ssr:stedsnr" v="88293" />
	</node>
	<node id="-696130" lat="68.4353416694" lon="16.1576277687">
		<tag k="name" v="Storsvadhågen" />
		<tag k="natural" v="hill" />
		<tag k="place" v="locality" />
		<tag k="ssr:stedsnr" v="88292" />
	</node>
	<node id="-696125" lat="68.4889111118" lon="16.1535000018">
		<tag k="name" v="Storhaugen" />
		<tag k="natural" v="hill" />
		<tag k="place" v="locality" />
		<tag k="ssr:stedsnr" v="87010" />
	</node>
	<node id="-696123" lat="68.5306555546" lon="16.472549988">
		<tag k="name" v="Forrholtbergan" />
		<tag k="natural" v="hill" />
		<tag k="place" v="locality" />
		<tag k="ssr:stedsnr" v="86682" />
	</node>
	<node id="-696121" lat="68.559763893" lon="16.2258055626">
		<tag k="name" v="Gangstiberget" />
		<tag k="natural" v="hill" />
		<tag k="place" v="locality" />
		<tag k="ssr:stedsnr" v="86566" />
	</node>
	<node id="-696119" lat="68.5330638854" lon="16.5044944484">
		<tag k="name" v="Lægden" />
		<tag k="place" v="locality" />
		<tag k="ssr:stedsnr" v="86529" />
	</node>
	<node id="-696116" lat="68.5250138931" lon="16.2349027761">
		<tag k="name" v="Svarthaugen" />
		<tag k="natural" v="hill" />
		<tag k="place" v="locality" />
		<tag k="ssr:stedsnr" v="86439" />
	</node>
	<node id="-696114" lat="68.5036305583" lon="16.5080027809">
		<tag k="name" v="Storgropa" />
		<tag k="natural" v="valley" />
		<tag k="place" v="locality" />
		<tag k="ssr:stedsnr" v="86125" />
	</node>
	<node id="-696113" lat="68.5025888878" lon="16.5116861073">
		<tag k="name" v="Rishaugen" />
		<tag k="natural" v="hill" />
		<tag k="place" v="locality" />
		<tag k="ssr:stedsnr" v="86114" />
	</node>
	<node id="-696112" lat="68.4877333328" lon="16.5453249967">
		<tag k="name" v="Durmålsskaret" />
		<tag k="natural" v="valley" />
		<tag k="place" v="locality" />
		<tag k="ssr:stedsnr" v="86110" />
	</node>
	<node id="-696110" lat="68.5354277802" lon="16.266716655">
		<tag k="name" v="Sandsheia" />
		<tag k="natural" v="hill" />
		<tag k="place" v="locality" />
		<tag k="ssr:stedsnr" v="85858" />
	</node>
	<node id="-696109" lat="68.5475111135" lon="16.136180568">
		<tag k="name" v="Storeinbakk" />
		<tag k="natural" v="slope" />
		<tag k="place" v="locality" />
		<tag k="ssr:stedsnr" v="85709" />
	</node>
	<node id="-696105" lat="68.4524361103" lon="16.1403916729">
		<tag k="name" v="Ramnfloghaugen" />
		<tag k="natural" v="hill" />
		<tag k="place" v="locality" />
		<tag k="ssr:stedsnr" v="85643" />
	</node>
	<node id="-696104" lat="68.4537916636" lon="16.143055547">
		<tag k="name" v="Stonghola" />
		<tag k="natural" v="valley" />
		<tag k="place" v="locality" />
		<tag k="ssr:stedsnr" v="85639" />
	</node>
	<node id="-696103" lat="68.4554250012" lon="16.1244055491">
		<tag k="name" v="Holmhaugen, nordre" />
		<tag k="natural" v="hill" />
		<tag k="place" v="locality" />
		<tag k="ssr:stedsnr" v="85622" />
	</node>
	<node id="-696102" lat="68.456094441" lon="16.1588583289">
		<tag k="name" v="Klinkhammaren" />
		<tag k="natural" v="hill" />
		<tag k="place" v="locality" />
		<tag k="ssr:stedsnr" v="85618" />
	</node>
	<node id="-696100" lat="68.4435444438" lon="16.1531194409">
		<tag k="name" v="Grønnmyrhaugen" />
		<tag k="natural" v="hill" />
		<tag k="place" v="locality" />
		<tag k="ssr:stedsnr" v="85585" />
	</node>
	<node id="-696099" lat="68.4438138908" lon="16.1575499889">
		<tag k="name" v="Straumhalsen" />
		<tag k="place" v="locality" />
		<tag k="ssr:stedsnr" v="85586" />
	</node>
	<node id="-696097" lat="68.5535277761" lon="16.3613944312">
		<tag k="name" v="Kjerkporten" />
		<tag k="place" v="locality" />
		<tag k="ssr:stedsnr" v="85081" />
	</node>
	<node id="-696093" lat="68.5075666676" lon="16.4674972139">
		<tag k="name" v="Modalen" />
		<tag k="natural" v="valley" />
		<tag k="place" v="locality" />
		<tag k="ssr:stedsnr" v="85072" />
	</node>
	<node id="-696091" lat="68.5541694414" lon="16.3296527708">
		<tag k="name" v="Kjerkhågen" />
		<tag k="natural" v="hill" />
		<tag k="place" v="locality" />
		<tag k="ssr:stedsnr" v="85054" />
	</node>
	<node id="-696090" lat="68.4983694414" lon="16.5214333306">
		<tag k="name" v="Sekelia" />
		<tag k="natural" v="slope" />
		<tag k="place" v="locality" />
		<tag k="ssr:stedsnr" v="268121" />
	</node>
	<node id="-696089" lat="68.5068861079" lon="16.4863111114">
		<tag k="name" v="Rambølian" />
		<tag k="natural" v="slope" />
		<tag k="place" v="locality" />
		<tag k="ssr:stedsnr" v="268122" />
	</node>
	<node id="-696088" lat="68.4990499977" lon="16.5127222161">
		<tag k="name" v="Steinbakkan" />
		<tag k="natural" v="slope" />
		<tag k="place" v="locality" />
		<tag k="ssr:stedsnr" v="268117" />
	</node>
	<node id="-696084" lat="68.4901333366" lon="16.1662361096">
		<tag k="name" v="Storlægda" />
		<tag k="natural" v="valley" />
		<tag k="place" v="locality" />
		<tag k="ssr:stedsnr" v="268070" />
	</node>
	<node id="-696083" lat="68.5076888897" lon="16.5013305664">
		<tag k="fixme" v="consider natural=peak for the most distinct mountains in the district" />
		<tag k="name" v="Toppen" />
		<tag k="natural" v="hill" />
		<tag k="place" v="locality" />
		<tag k="ssr:stedsnr" v="81948" />
	</node>
	<node id="-696079" lat="68.5547000039" lon="16.5492249957">
		<tag k="alt_name" v="Karlshaugen" />
		<tag k="name" v="Kalshaugen" />
		<tag k="natural" v="hill" />
		<tag k="place" v="locality" />
		<tag k="ssr:stedsnr" v="81847" />
	</node>
	<node id="-696075" lat="68.586722219" lon="16.3623055504">
		<tag k="fixme" v="consider natural=peak for the most distinct mountains in the district" />
		<tag k="name" v="Sætertinden" />
		<tag k="natural" v="hill" />
		<tag k="place" v="locality" />
		<tag k="ssr:stedsnr" v="81209" />
	</node>
	<node id="-696074" lat="68.5826361082" lon="16.3802916555">
		<tag k="name" v="Tindhola" />
		<tag k="natural" v="valley" />
		<tag k="place" v="locality" />
		<tag k="ssr:stedsnr" v="81170" />
	</node>
	<node id="-696071" lat="68.5281499976" lon="16.4934111197">
		<tag k="fixme" v="consider natural=peak for the most distinct mountains in the district" />
		<tag k="name" v="Sørtuva" />
		<tag k="natural" v="hill" />
		<tag k="place" v="locality" />
		<tag k="ssr:stedsnr" v="80790" />
	</node>
	<node id="-696070" lat="68.5910749997" lon="16.1901388849">
		<tag k="name" v="Kongsvikdalen" />
		<tag k="natural" v="valley" />
		<tag k="place" v="locality" />
		<tag k="ssr:stedsnr" v="79807" />
	</node>
	<node id="-696068" lat="68.5692805517" lon="16.1262111165">
		<tag k="name" v="Norddalen - Nuortavággi" />
		<tag k="name:no" v="Norddalen" />
		<tag k="name:se" v="Nuortavággi" />
		<tag k="natural" v="valley" />
		<tag k="place" v="locality" />
		<tag k="ssr:stedsnr" v="78872" />
	</node>
	<node id="-696066" lat="68.590744447" lon="16.2101527842">
		<tag k="fixme" v="consider natural=peak for the most distinct mountains in the district" />
		<tag k="name" v="Vollfjellet" />
		<tag k="natural" v="hill" />
		<tag k="place" v="locality" />
		<tag k="ssr:stedsnr" v="78846" />
	</node>
	<node id="-696063" lat="68.5490416665" lon="16.1631138803">
		<tag k="fixme" v="consider natural=peak for the most distinct mountains in the district" />
		<tag k="name" v="Taraldsviktinden" />
		<tag k="natural" v="hill" />
		<tag k="place" v="locality" />
		<tag k="ssr:stedsnr" v="78758" />
	</node>
	<node id="-696062" lat="68.4202156778" lon="16.3888203068">
		<tag k="name" v="Oterholet" />
		<tag k="natural" v="valley" />
		<tag k="place" v="locality" />
		<tag k="ssr:stedsnr" v="78465" />
	</node>
	<node id="-696059" lat="68.597386114" lon="16.1149666711">
		<tag k="fixme" v="consider natural=peak for the most distinct mountains in the district" />
		<tag k="name" v="Botnfjellet - Juvvačohkka" />
		<tag k="name:no" v="Botnfjellet" />
		<tag k="name:se" v="Juvvačohkka" />
		<tag k="natural" v="hill" />
		<tag k="place" v="locality" />
		<tag k="ssr:stedsnr" v="78201" />
	</node>
	<node id="-696053" lat="68.5771055557" lon="16.2488750098">
		<tag k="name" v="Snyholrabben" />
		<tag k="natural" v="ridge" />
		<tag k="place" v="locality" />
		<tag k="ssr:stedsnr" v="41921" />
	</node>
	<node id="-696052" lat="68.576641665" lon="16.2351333423">
		<tag k="name" v="Langbakken" />
		<tag k="natural" v="slope" />
		<tag k="place" v="locality" />
		<tag k="ssr:stedsnr" v="41917" />
	</node>
	<node id="-696051" lat="68.5976861069" lon="16.3058888862">
		<tag k="fixme" v="consider natural=peak for the most distinct mountains in the district" />
		<tag k="name" v="Mellafjellet" />
		<tag k="natural" v="hill" />
		<tag k="place" v="locality" />
		<tag k="ssr:stedsnr" v="40030" />
	</node>
	<node id="-696050" lat="68.5780500021" lon="16.384922214">
		<tag k="fixme" v="consider natural=peak for the most distinct mountains in the district" />
		<tag k="name" v="Lillefjellet" />
		<tag k="natural" v="hill" />
		<tag k="place" v="locality" />
		<tag k="ssr:stedsnr" v="39839" />
	</node>
	<node id="-696045" lat="68.4533972191" lon="16.4172388917">
		<tag k="name" v="Humpdalen" />
		<tag k="natural" v="valley" />
		<tag k="place" v="locality" />
		<tag k="ssr:stedsnr" v="27699" />
	</node>
	<node id="-696044" lat="68.419330558" lon="16.1179361056">
		<tag k="name" v="Rødsanden" />
		<tag k="natural" v="hill" />
		<tag k="place" v="locality" />
		<tag k="ssr:stedsnr" v="27690" />
	</node>
	<node id="-696041" lat="68.4545500038" lon="16.3732638821">
		<tag k="name" v="Sør-Reingjerdan" />
		<tag k="place" v="locality" />
		<tag k="ssr:stedsnr" v="27647" />
	</node>
	<node id="-696040" lat="68.4225388852" lon="16.2517916555">
		<tag k="name" v="Øverdalen" />
		<tag k="natural" v="valley" />
		<tag k="place" v="locality" />
		<tag k="ssr:stedsnr" v="27619" />
	</node>
	<node id="-696039" lat="68.5877361119" lon="16.3248805543">
		<tag k="name" v="Sæterdalen" />
		<tag k="natural" v="valley" />
		<tag k="place" v="locality" />
		<tag k="ssr:stedsnr" v="27620" />
	</node>
	<node id="-696038" lat="68.4328194462" lon="16.3031138983">
		<tag k="name" v="Langholten" />
		<tag k="natural" v="slope" />
		<tag k="place" v="locality" />
		<tag k="ssr:stedsnr" v="27600" />
	</node>
	<node id="-696036" lat="68.4297027804" lon="16.3325055549">
		<tag k="name" v="Skittenkjerran" />
		<tag k="place" v="locality" />
		<tag k="ssr:stedsnr" v="27567" />
	</node>
	<node id="-696033" lat="68.4268944455" lon="16.3428305434">
		<tag k="name" v="Smimyra" />
		<tag k="natural" v="hill" />
		<tag k="place" v="locality" />
		<tag k="ssr:stedsnr" v="27760" />
	</node>
	<node id="-696032" lat="68.4220722238" lon="16.3558194533">
		<tag k="name" v="Kråkneshaugen" />
		<tag k="natural" v="hill" />
		<tag k="place" v="locality" />
		<tag k="ssr:stedsnr" v="27748" />
	</node>
	<node id="-696031" lat="68.4430500028" lon="16.3707194349">
		<tag k="name" v="Forraholtan" />
		<tag k="natural" v="hill" />
		<tag k="place" v="locality" />
		<tag k="ssr:stedsnr" v="27745" />
	</node>
	<node id="-696029" lat="68.4250166677" lon="16.3761027769">
		<tag k="name" v="Hesjebakkan" />
		<tag k="natural" v="slope" />
		<tag k="place" v="locality" />
		<tag k="ssr:stedsnr" v="27730" />
	</node>
	<node id="-696028" lat="68.4290527737" lon="16.4288305629">
		<tag k="name" v="Rødsteinlægda" />
		<tag k="place" v="locality" />
		<tag k="ssr:stedsnr" v="27721" />
	</node>
	<node id="-696021" lat="68.4086861104" lon="16.1781805659">
		<tag k="name" v="Oddetinden" />
		<tag k="natural" v="hill" />
		<tag k="place" v="locality" />
		<tag k="ssr:stedsnr" v="27296" />
	</node>
	<node id="-696020" lat="68.4029555587" lon="16.1177361166">
		<tag k="name" v="Oddeskaret" />
		<tag k="natural" v="valley" />
		<tag k="place" v="locality" />
		<tag k="ssr:stedsnr" v="27290" />
	</node>
	<node id="-696015" lat="68.4299777805" lon="16.1112861202">
		<tag k="name" v="Valberget" />
		<tag k="natural" v="hill" />
		<tag k="place" v="locality" />
		<tag k="ssr:stedsnr" v="27340" />
	</node>
	<node id="-696014" lat="68.5288611076" lon="16.5259027668">
		<tag k="name" v="Heihaugen" />
		<tag k="natural" v="hill" />
		<tag k="place" v="locality" />
		<tag k="ssr:stedsnr" v="27013" />
	</node>
	<node id="-696012" lat="68.4919972216" lon="16.1657138855">
		<tag k="name" v="Holtan" />
		<tag k="natural" v="hill" />
		<tag k="place" v="locality" />
		<tag k="ssr:stedsnr" v="26067" />
	</node>
	<node id="-696006" lat="68.5499194422" lon="16.3771305519">
		<tag k="name" v="Holshøgda" />
		<tag k="natural" v="hill" />
		<tag k="place" v="locality" />
		<tag k="ssr:stedsnr" v="25972" />
	</node>
	<node id="-696002" lat="68.4710527798" lon="16.1316722256">
		<tag k="name" v="Rotneshaugen" />
		<tag k="natural" v="hill" />
		<tag k="place" v="locality" />
		<tag k="ssr:stedsnr" v="25554" />
	</node>
	<node id="-696000" lat="68.4707138916" lon="16.1682749937">
		<tag k="name" v="Valvågbotn" />
		<tag k="natural" v="valley" />
		<tag k="place" v="locality" />
		<tag k="ssr:stedsnr" v="25544" />
	</node>
	<node id="-695995" lat="68.5026611146" lon="16.4927166689">
		<tag k="name" v="Lillehammaren" />
		<tag k="natural" v="hill" />
		<tag k="place" v="locality" />
		<tag k="ssr:stedsnr" v="25109" />
	</node>
	<node id="-695992" lat="68.5053416631" lon="16.4632611189">
		<tag k="fixme" v="consider natural=peak for the most distinct mountains in the district" />
		<tag k="name" v="Holtan" />
		<tag k="natural" v="hill" />
		<tag k="place" v="locality" />
		<tag k="ssr:stedsnr" v="25072" />
	</node>
	<node id="-695990" lat="68.4537666705" lon="16.1227138931">
		<tag k="name" v="Holmhaugen, søndre" />
		<tag k="natural" v="hill" />
		<tag k="place" v="locality" />
		<tag k="ssr:stedsnr" v="24717" />
	</node>
	<node id="-695985" lat="68.4509527811" lon="16.1456361226">
		<tag k="name" v="Skarstrandhaugen" />
		<tag k="natural" v="hill" />
		<tag k="place" v="locality" />
		<tag k="ssr:stedsnr" v="24672" />
	</node>
	<node id="-695984" lat="68.4543194442" lon="16.1655027742">
		<tag k="fixme" v="consider natural=peak for the most distinct mountains in the district" />
		<tag k="name" v="Li-fjellet" />
		<tag k="natural" v="hill" />
		<tag k="place" v="locality" />
		<tag k="ssr:stedsnr" v="24647" />
	</node>
	<node id="-695983" lat="68.4504583343" lon="16.1764527675">
		<tag k="name" v="Storhallen" />
		<tag k="place" v="locality" />
		<tag k="ssr:stedsnr" v="24646" />
	</node>
	<node id="-695981" lat="68.4794277818" lon="16.1540027686">
		<tag k="name" v="Gjerde" />
		<tag k="place" v="locality" />
		<tag k="ssr:stedsnr" v="24457" />
	</node>
	<node id="-695974" lat="68.5129305582" lon="16.3919277821">
		<tag k="name" v="Geađgeláhku" />
		<tag k="name:se" v="Geađgeláhku" />
		<tag k="natural" v="valley" />
		<tag k="old_name:se" v="Gæđgelakko" />
		<tag k="place" v="locality" />
		<tag k="ssr:stedsnr" v="20814" />
	</node>
	<node id="-695973" lat="68.5159749974" lon="16.3403499925">
		<tag k="fixme" v="consider natural=peak for the most distinct mountains in the district" />
		<tag k="name" v="Svartvasshompen" />
		<tag k="natural" v="hill" />
		<tag k="place" v="locality" />
		<tag k="ssr:stedsnr" v="20812" />
	</node>
	<node id="-695972" lat="68.52034167" lon="16.3233888827">
		<tag k="fixme" v="consider natural=peak for the most distinct mountains in the district" />
		<tag k="name" v="Aksla" />
		<tag k="natural" v="hill" />
		<tag k="place" v="locality" />
		<tag k="ssr:stedsnr" v="20813" />
	</node>
	<node id="-695971" lat="68.5315111097" lon="16.4932222115">
		<tag k="name" v="Nordtuva" />
		<tag k="natural" v="hill" />
		<tag k="place" v="locality" />
		<tag k="ssr:stedsnr" v="20788" />
	</node>
	<node id="-695970" lat="68.5375388884" lon="16.2952277774">
		<tag k="alt_name" v="Hellaren" />
		<tag k="name" v="Hallaren" />
		<tag k="natural" v="hill" />
		<tag k="place" v="locality" />
		<tag k="ssr:stedsnr" v="20782" />
	</node>
	<node id="-695969" lat="68.6150277769" lon="16.2291861007">
		<tag k="name" v="Čahcariehppi" />
		<tag k="name:se" v="Čahcariehppi" />
		<tag k="natural" v="valley" />
		<tag k="old_name:se" v="Čaccarieppi" />
		<tag k="place" v="locality" />
		<tag k="ssr:stedsnr" v="20247" />
	</node>
	<node id="-695968" lat="68.5869750037" lon="16.2287777669">
		<tag k="name" v="Ivarskaret" />
		<tag k="natural" v="valley" />
		<tag k="place" v="locality" />
		<tag k="ssr:stedsnr" v="20189" />
	</node>
	<node id="-695967" lat="68.5761444442" lon="16.2607222157">
		<tag k="alt_name" v="Lilletinden" />
		<tag k="fixme" v="consider natural=peak for the most distinct mountains in the district" />
		<tag k="name" v="Litletinden" />
		<tag k="natural" v="hill" />
		<tag k="place" v="locality" />
		<tag k="ssr:stedsnr" v="20154" />
	</node>
	<node id="-695965" lat="68.5893666657" lon="16.178652766">
		<tag k="fixme" v="consider natural=peak for the most distinct mountains in the district" />
		<tag k="name" v="Raudrapfjellet - Ruksok" />
		<tag k="name:no" v="Raudrapfjellet" />
		<tag k="name:se" v="Ruksok" />
		<tag k="natural" v="hill" />
		<tag k="place" v="locality" />
		<tag k="ssr:stedsnr" v="18789" />
	</node>
	<node id="-695963" lat="68.5527166639" lon="16.0273250058">
		<tag k="fixme" v="consider natural=peak for the most distinct mountains in the district" />
		<tag k="name" v="Bollfjellet - Jorbavárri" />
		<tag k="name:no" v="Bollfjellet" />
		<tag k="name:se" v="Jorbavárri" />
		<tag k="natural" v="hill" />
		<tag k="place" v="locality" />
		<tag k="ssr:stedsnr" v="17886" />
	</node>
	<node id="-695961" lat="68.5541111075" lon="15.9979388947">
		<tag k="name" v="Revskaret" />
		<tag k="natural" v="valley" />
		<tag k="place" v="locality" />
		<tag k="ssr:stedsnr" v="17884" />
	</node>
	<node id="-695960" lat="68.5427293223" lon="16.1386160957">
		<tag k="name" v="Jakoblia" />
		<tag k="natural" v="slope" />
		<tag k="place" v="locality" />
		<tag k="ssr:stedsnr" v="17783" />
	</node>
	<node id="-695949" lat="68.4541222217" lon="16.1285138852">
		<tag k="name" v="Ørntuva" />
		<tag k="natural" v="hill" />
		<tag k="place" v="locality" />
		<tag k="ssr:stedsnr" v="17209" />
	</node>
	<node id="-695948" lat="68.459049996" lon="16.1932750025">
		<tag k="fixme" v="consider natural=peak for the most distinct mountains in the district" />
		<tag k="name" v="Kjerstadfjellet" />
		<tag k="natural" v="hill" />
		<tag k="place" v="locality" />
		<tag k="ssr:stedsnr" v="16145" />
	</node>
	<node id="-695946" lat="68.4687277793" lon="16.1404638871">
		<tag k="name" v="Kjerringdalen" />
		<tag k="natural" v="valley" />
		<tag k="place" v="locality" />
		<tag k="ssr:stedsnr" v="267500" />
	</node>
	<node id="-695885" lat="68.5988333339" lon="16.188852783">
		<tag k="fixme" v="consider natural=peak for the most distinct mountains in the district" />
		<tag k="name" v="Tverrfjellaksla" />
		<tag k="natural" v="hill" />
		<tag k="place" v="locality" />
		<tag k="ssr:stedsnr" v="890942" />
	</node>
	<node id="-695884" lat="68.5798638884" lon="16.2259611007">
		<tag k="name" v="Labakken" />
		<tag k="natural" v="slope" />
		<tag k="place" v="locality" />
		<tag k="ssr:stedsnr" v="890940" />
	</node>
	<node id="-695881" lat="68.6011194459" lon="16.1102972324">
		<tag k="name" v="Vielppisgohpi" />
		<tag k="name:se" v="Vielppisgohpi" />
		<tag k="natural" v="valley" />
		<tag k="place" v="locality" />
		<tag k="ssr:stedsnr" v="890672" />
	</node>
	<node id="-695880" lat="68.5324222215" lon="16.1599805501">
		<tag k="name" v="Storhaugen" />
		<tag k="natural" v="hill" />
		<tag k="place" v="locality" />
		<tag k="ssr:stedsnr" v="889919" />
	</node>
	<node id="-695869" lat="68.4457111121" lon="16.4482666575">
		<tag k="name" v="Middagshaugen" />
		<tag k="natural" v="hill" />
		<tag k="place" v="locality" />
		<tag k="ssr:stedsnr" v="391789" />
	</node>
	<node id="-695862" lat="68.4188222224" lon="16.1466416596">
		<tag k="name" v="Forhalsen" />
		<tag k="natural" v="hill" />
		<tag k="place" v="locality" />
		<tag k="ssr:stedsnr" v="391688" />
	</node>
	<node id="-695860" lat="68.4471972189" lon="16.4248777638">
		<tag k="name" v="Stormyrlægdene" />
		<tag k="natural" v="valley" />
		<tag k="place" v="locality" />
		<tag k="ssr:stedsnr" v="391678" />
	</node>
	<node id="-695859" lat="68.4081805531" lon="16.1132499873">
		<tag k="name" v="Risøykollen" />
		<tag k="natural" v="hill" />
		<tag k="place" v="locality" />
		<tag k="ssr:stedsnr" v="391676" />
	</node>
	<node id="-695858" lat="68.420007336" lon="16.388247114">
		<tag k="name" v="Kilstadbergan" />
		<tag k="natural" v="hill" />
		<tag k="place" v="locality" />
		<tag k="ssr:stedsnr" v="391629" />
	</node>
	<node id="-695857" lat="68.4214555594" lon="16.3869000001">
		<tag k="name" v="Litjestien" />
		<tag k="natural" v="slope" />
		<tag k="place" v="locality" />
		<tag k="ssr:stedsnr" v="391628" />
	</node>
	<node id="-695856" lat="68.4610250023" lon="16.4002222298">
		<tag k="name" v="Bjørnhola" />
		<tag k="place" v="locality" />
		<tag k="ssr:stedsnr" v="391625" />
	</node>
	<node id="-695855" lat="68.4189222184" lon="16.2900055463">
		<tag k="name" v="Bakaromnen" />
		<tag k="place" v="locality" />
		<tag k="ssr:stedsnr" v="391609" />
	</node>
	<node id="-695854" lat="68.4340500035" lon="16.3137083228">
		<tag k="name" v="Pissmyrbakken" />
		<tag k="natural" v="slope" />
		<tag k="place" v="locality" />
		<tag k="ssr:stedsnr" v="391603" />
	</node>
	<node id="-695853" lat="68.4279583289" lon="16.3282361176">
		<tag k="name" v="Kjerkberget" />
		<tag k="natural" v="hill" />
		<tag k="place" v="locality" />
		<tag k="ssr:stedsnr" v="391583" />
	</node>
	<node id="-695849" lat="68.3984944441" lon="16.1729500032">
		<tag k="name" v="Lomtjønnhaugen" />
		<tag k="natural" v="hill" />
		<tag k="place" v="locality" />
		<tag k="ssr:stedsnr" v="391440" />
	</node>
	<node id="-695848" lat="68.3947083303" lon="16.1616360975">
		<tag k="name" v="Purkeskaret" />
		<tag k="natural" v="valley" />
		<tag k="place" v="locality" />
		<tag k="ssr:stedsnr" v="391438" />
	</node>
	<node id="-695843" lat="68.4695388889" lon="16.5107499902">
		<tag k="name" v="Låvebakken" />
		<tag k="natural" v="slope" />
		<tag k="place" v="locality" />
		<tag k="ssr:stedsnr" v="391382" />
	</node>
	<node id="-695841" lat="68.4282666689" lon="16.1717194457">
		<tag k="fixme" v="consider natural=peak for the most distinct mountains in the district" />
		<tag k="name" v="Storhallen" />
		<tag k="natural" v="hill" />
		<tag k="place" v="locality" />
		<tag k="ssr:stedsnr" v="391347" />
	</node>
	<node id="-695835" lat="68.5339444448" lon="16.4077222243">
		<tag k="fixme" v="consider natural=peak for the most distinct mountains in the district" />
		<tag k="name" v="Likollen" />
		<tag k="natural" v="hill" />
		<tag k="place" v="locality" />
		<tag k="ssr:stedsnr" v="390783" />
	</node>
	<node id="-695833" lat="68.5590388857" lon="16.2979694527">
		<tag k="name" v="Fagersletta" />
		<tag k="place" v="locality" />
		<tag k="ssr:stedsnr" v="390102" />
	</node>
	<node id="-695832" lat="68.5266555594" lon="16.4857611203">
		<tag k="name" v="Bjørnbåsbakkan" />
		<tag k="natural" v="slope" />
		<tag k="place" v="locality" />
		<tag k="ssr:stedsnr" v="390044" />
	</node>
	<node id="-695831" lat="68.5274805524" lon="16.4402333403">
		<tag k="name" v="Løbakkan" />
		<tag k="natural" v="slope" />
		<tag k="place" v="locality" />
		<tag k="ssr:stedsnr" v="390013" />
	</node>
	<node id="-695830" lat="68.5300194433" lon="16.3991166615">
		<tag k="fixme" v="consider natural=peak for the most distinct mountains in the district" />
		<tag k="name" v="Stokkåsen" />
		<tag k="natural" v="hill" />
		<tag k="place" v="locality" />
		<tag k="ssr:stedsnr" v="389775" />
	</node>
	<node id="-695828" lat="68.5301166675" lon="16.4334277737">
		<tag k="name" v="Tresletten" />
		<tag k="place" v="locality" />
		<tag k="ssr:stedsnr" v="389729" />
	</node>
	<node id="-695826" lat="68.5971444434" lon="16.1649666713">
		<tag k="name" v="Botnhågen" />
		<tag k="natural" v="hill" />
		<tag k="place" v="locality" />
		<tag k="ssr:stedsnr" v="389573" />
	</node>
	<node id="-695824" lat="68.568258331" lon="16.2495555534">
		<tag k="name" v="Heggeberget" />
		<tag k="natural" v="hill" />
		<tag k="place" v="locality" />
		<tag k="ssr:stedsnr" v="389568" />
	</node>
	<node id="-695822" lat="68.516513888" lon="16.2418499993">
		<tag k="name" v="Ørnhågan" />
		<tag k="natural" v="hill" />
		<tag k="place" v="locality" />
		<tag k="ssr:stedsnr" v="389486" />
	</node>
	<node id="-695816" lat="68.4737944484" lon="16.5508333329">
		<tag k="name" v="Storhola" />
		<tag k="natural" v="valley" />
		<tag k="place" v="locality" />
		<tag k="ssr:stedsnr" v="389009" />
	</node>
	<node id="-695815" lat="68.539291664" lon="16.1408111156">
		<tag k="name" v="Selebota" />
		<tag k="natural" v="slope" />
		<tag k="place" v="locality" />
		<tag k="ssr:stedsnr" v="388722" />
	</node>
	<node id="-695814" lat="68.5424388864" lon="16.1387041653">
		<tag k="name" v="Nordlihammaren" />
		<tag k="natural" v="hill" />
		<tag k="place" v="locality" />
		<tag k="ssr:stedsnr" v="388700" />
	</node>
	<node id="-695812" lat="68.4574138876" lon="16.1569638885">
		<tag k="name" v="Sandbakkdalen" />
		<tag k="natural" v="valley" />
		<tag k="place" v="locality" />
		<tag k="ssr:stedsnr" v="388653" />
	</node>
	<node id="-695809" lat="68.4498666662" lon="16.1703277657">
		<tag k="name" v="Akselhaugen" />
		<tag k="natural" v="hill" />
		<tag k="place" v="locality" />
		<tag k="ssr:stedsnr" v="388627" />
	</node>
	<node id="-695808" lat="68.4674333345" lon="16.1664249935">
		<tag k="name" v="Sørfjellet" />
		<tag k="natural" v="hill" />
		<tag k="place" v="locality" />
		<tag k="ssr:stedsnr" v="388527" />
	</node>
	<node id="-695802" lat="68.5566555584" lon="16.3574249892">
		<tag k="name" v="Kuberget" />
		<tag k="natural" v="hill" />
		<tag k="place" v="locality" />
		<tag k="ssr:stedsnr" v="388087" />
	</node>
	<node id="-695801" lat="68.5271444416" lon="16.4157472305">
		<tag k="fixme" v="consider natural=peak for the most distinct mountains in the district" />
		<tag k="name" v="Stokkåsen" />
		<tag k="natural" v="hill" />
		<tag k="place" v="locality" />
		<tag k="ssr:stedsnr" v="388019" />
	</node>
	<node id="-695792" lat="68.5022361109" lon="16.3004888909">
		<tag k="name" v="Tindhola" />
		<tag k="natural" v="valley" />
		<tag k="place" v="locality" />
		<tag k="ssr:stedsnr" v="383948" />
	</node>
	<node id="-695775" lat="68.4187083341" lon="16.1257527666">
		<tag k="name" v="Storhaugen" />
		<tag k="natural" v="hill" />
		<tag k="place" v="locality" />
		<tag k="ssr:stedsnr" v="380245" />
	</node>
	<node id="-695768" lat="68.5800722197" lon="16.23566389">
		<tag k="name" v="Ramlian" />
		<tag k="natural" v="slope" />
		<tag k="place" v="locality" />
		<tag k="ssr:stedsnr" v="344936" />
	</node>
	<node id="-695760" lat="68.4332111152" lon="16.4023083337">
		<tag k="name" v="Bjørnhola" />
		<tag k="natural" v="valley" />
		<tag k="place" v="locality" />
		<tag k="ssr:stedsnr" v="330738" />
	</node>
	<node id="-695754" lat="68.4105527787" lon="16.0934249992">
		<tag k="name" v="Heststrandhaugen" />
		<tag k="natural" v="hill" />
		<tag k="place" v="locality" />
		<tag k="ssr:stedsnr" v="330685" />
	</node>
	<node id="-695753" lat="68.4539222194" lon="16.3786194509">
		<tag k="name" v="Reingjerdryggen" />
		<tag k="natural" v="hill" />
		<tag k="place" v="locality" />
		<tag k="ssr:stedsnr" v="330671" />
	</node>
	<node id="-695750" lat="68.5870694487" lon="16.2084583351">
		<tag k="name" v="Nydalen" />
		<tag k="natural" v="valley" />
		<tag k="place" v="locality" />
		<tag k="ssr:stedsnr" v="330616" />
	</node>
	<node id="-695746" lat="68.427233336" lon="16.32856944">
		<tag k="name" v="Harvollen" />
		<tag k="natural" v="hill" />
		<tag k="place" v="locality" />
		<tag k="ssr:stedsnr" v="330564" />
	</node>
	<node id="-695745" lat="68.4267111106" lon="16.3306305658">
		<tag k="name" v="Harvollskaftet" />
		<tag k="place" v="locality" />
		<tag k="ssr:stedsnr" v="330565" />
	</node>
	<node id="-695740" lat="68.4023638931" lon="16.1824166712">
		<tag k="name" v="Lemman" />
		<tag k="place" v="locality" />
		<tag k="ssr:stedsnr" v="330441" />
	</node>
	<node id="-695739" lat="68.3989361123" lon="16.1464138821">
		<tag k="name" v="Gillarheia" />
		<tag k="natural" v="ridge" />
		<tag k="place" v="locality" />
		<tag k="ssr:stedsnr" v="330433" />
	</node>
	<node id="-695737" lat="68.4117166676" lon="16.2267749888">
		<tag k="name" v="Slåka" />
		<tag k="place" v="locality" />
		<tag k="ssr:stedsnr" v="330428" />
	</node>
	<node id="-695733" lat="68.4906944423" lon="16.4825944551">
		<tag k="name" v="Kvitsandneshola" />
		<tag k="natural" v="valley" />
		<tag k="place" v="locality" />
		<tag k="ssr:stedsnr" v="330387" />
	</node>
	<node id="-695731" lat="68.4758138858" lon="16.479563892">
		<tag k="name" v="Snaua" />
		<tag k="natural" v="hill" />
		<tag k="place" v="locality" />
		<tag k="ssr:stedsnr" v="330383" />
	</node>
	<node id="-695728" lat="68.4226611116" lon="16.121111113">
		<tag k="name" v="Lombusalta" />
		<tag k="place" v="locality" />
		<tag k="ssr:stedsnr" v="330353" />
	</node>
	<node id="-695724" lat="68.5710138906" lon="16.2600944491">
		<tag k="name" v="Lillehammaren" />
		<tag k="natural" v="hill" />
		<tag k="place" v="locality" />
		<tag k="ssr:stedsnr" v="330087" />
	</node>
	<node id="-695723" lat="68.5618333336" lon="16.2770888857">
		<tag k="fixme" v="consider natural=peak for the most distinct mountains in the district" />
		<tag k="name" v="Åskollen" />
		<tag k="natural" v="hill" />
		<tag k="place" v="locality" />
		<tag k="ssr:stedsnr" v="330086" />
	</node>
	<node id="-695720" lat="68.5172833376" lon="16.2436861134">
		<tag k="name" v="Famnvedhola" />
		<tag k="natural" v="valley" />
		<tag k="place" v="locality" />
		<tag k="ssr:stedsnr" v="329464" />
	</node>
	<node id="-695718" lat="68.493311113" lon="16.1692138817">
		<tag k="name" v="Høgholtan" />
		<tag k="natural" v="hill" />
		<tag k="place" v="locality" />
		<tag k="ssr:stedsnr" v="329060" />
	</node>
	<node id="-695717" lat="68.5391833341" lon="16.3439805507">
		<tag k="name" v="Heia" />
		<tag k="natural" v="hill" />
		<tag k="place" v="locality" />
		<tag k="ssr:stedsnr" v="328892" />
	</node>
	<node id="-695716" lat="68.547625004" lon="16.3594500096">
		<tag k="name" v="Hovshøgda" />
		<tag k="natural" v="hill" />
		<tag k="place" v="locality" />
		<tag k="ssr:stedsnr" v="328891" />
	</node>
	<node id="-695715" lat="68.5732277753" lon="16.2742722228">
		<tag k="name" v="Kongsviklian" />
		<tag k="natural" v="slope" />
		<tag k="place" v="locality" />
		<tag k="ssr:stedsnr" v="328885" />
	</node>
	<node id="-695713" lat="68.5412749953" lon="16.4130250092">
		<tag k="name" v="Rundhaugen" />
		<tag k="natural" v="hill" />
		<tag k="place" v="locality" />
		<tag k="ssr:stedsnr" v="328713" />
	</node>
	<node id="-695712" lat="68.5354944466" lon="16.4677360999">
		<tag k="name" v="Ramstadhøgda" />
		<tag k="natural" v="hill" />
		<tag k="place" v="locality" />
		<tag k="ssr:stedsnr" v="328678" />
	</node>
	<node id="-695707" lat="68.5021638892" lon="16.5060722125">
		<tag k="fixme" v="consider natural=peak for the most distinct mountains in the district" />
		<tag k="name" v="Kollan" />
		<tag k="natural" v="hill" />
		<tag k="place" v="locality" />
		<tag k="ssr:stedsnr" v="328104" />
	</node>
	<node id="-695705" lat="68.458922225" lon="16.1620388833">
		<tag k="fixme" v="consider natural=peak for the most distinct mountains in the district" />
		<tag k="name" v="Kjærstadfjellet" />
		<tag k="natural" v="hill" />
		<tag k="place" v="locality" />
		<tag k="ssr:stedsnr" v="327636" />
	</node>
	<node id="-695704" lat="68.449730554" lon="16.178158338">
		<tag k="name" v="Vedhoggan" />
		<tag k="place" v="locality" />
		<tag k="ssr:stedsnr" v="327611" />
	</node>
	<node id="-695701" lat="68.4832777755" lon="16.1631361158">
		<tag k="name" v="Hestkråkdalen" />
		<tag k="natural" v="valley" />
		<tag k="place" v="locality" />
		<tag k="ssr:stedsnr" v="327446" />
	</node>
	<node id="-695699" lat="68.4856499961" lon="16.5312388766">
		<tag k="fixme" v="consider natural=peak for the most distinct mountains in the district" />
		<tag k="name" v="Holtan" />
		<tag k="natural" v="hill" />
		<tag k="place" v="locality" />
		<tag k="ssr:stedsnr" v="328012" />
	</node>
	<node id="-695698" lat="68.4786222193" lon="16.544388888">
		<tag k="name" v="Jonasberget" />
		<tag k="natural" v="hill" />
		<tag k="place" v="locality" />
		<tag k="ssr:stedsnr" v="328011" />
	</node>
	<node id="-695696" lat="68.5662444463" lon="16.134352777">
		<tag k="name" v="Oljegamman" />
		<tag k="natural" v="slope" />
		<tag k="place" v="locality" />
		<tag k="ssr:stedsnr" v="101834" />
	</node>
	<node id="-695691" lat="68.5253972223" lon="16.2633583316">
		<tag k="fixme" v="consider natural=peak for the most distinct mountains in the district" />
		<tag k="name" v="Gregusåsen" />
		<tag k="natural" v="hill" />
		<tag k="place" v="locality" />
		<tag k="ssr:stedsnr" v="323776" />
	</node>
	<node id="-695690" lat="68.5349694417" lon="16.3644194528">
		<tag k="name" v="Nontuva" />
		<tag k="natural" v="hill" />
		<tag k="place" v="locality" />
		<tag k="ssr:stedsnr" v="323765" />
	</node>
	<node id="-695683" lat="68.5586361134" lon="16.1638250115">
		<tag k="name" v="Mølnskaret" />
		<tag k="natural" v="valley" />
		<tag k="place" v="locality" />
		<tag k="ssr:stedsnr" v="321850" />
	</node>
	<node id="-695682" lat="68.569683337" lon="16.0946222181">
		<tag k="fixme" v="consider natural=peak for the most distinct mountains in the district" />
		<tag k="name" v="Rundfjellet" />
		<tag k="natural" v="hill" />
		<tag k="place" v="locality" />
		<tag k="ssr:stedsnr" v="321839" />
	</node>
	<node id="-695681" lat="68.5707611119" lon="16.189708343">
		<tag k="fixme" v="consider natural=peak for the most distinct mountains in the district" />
		<tag k="name" v="Finngamman" />
		<tag k="natural" v="hill" />
		<tag k="place" v="locality" />
		<tag k="ssr:stedsnr" v="321825" />
	</node>
	<node id="-695680" lat="68.5732388914" lon="16.0540611122">
		<tag k="fixme" v="consider natural=peak for the most distinct mountains in the district" />
		<tag k="name" v="Marsslottfjellet" />
		<tag k="natural" v="hill" />
		<tag k="place" v="locality" />
		<tag k="ssr:stedsnr" v="321820" />
	</node>
	<node id="-695677" lat="68.4478472184" lon="16.5503333432">
		<tag k="name" v="Innerdalen" />
		<tag k="natural" v="valley" />
		<tag k="place" v="locality" />
		<tag k="ssr:stedsnr" v="320456" />
	</node>
	<node id="-695675" lat="68.4814972179" lon="16.4667166685">
		<tag k="fixme" v="consider natural=peak for the most distinct mountains in the district" />
		<tag k="name" v="Middagsfjellet" />
		<tag k="natural" v="hill" />
		<tag k="place" v="locality" />
		<tag k="ssr:stedsnr" v="320418" />
	</node>
	<node id="-695665" lat="68.5785416687" lon="16.2510638971">
		<tag k="name" v="Snyhola" />
		<tag k="natural" v="valley" />
		<tag k="place" v="locality" />
		<tag k="ssr:stedsnr" v="284942" />
	</node>
	<node id="-695664" lat="68.5682694411" lon="16.1226333333">
		<tag k="name" v="Tverråsbakkan" />
		<tag k="natural" v="slope" />
		<tag k="place" v="locality" />
		<tag k="ssr:stedsnr" v="283934" />
	</node>
	<node id="-695660" lat="68.5578305582" lon="16.0659499947">
		<tag k="name" v="Revdalen" />
		<tag k="natural" v="valley" />
		<tag k="place" v="locality" />
		<tag k="ssr:stedsnr" v="282920" />
	</node>
	<node id="-695659" lat="68.5760305536" lon="16.3120444323">
		<tag k="name" v="Kvitskreden" />
		<tag k="natural" v="slope" />
		<tag k="place" v="locality" />
		<tag k="ssr:stedsnr" v="282842" />
	</node>
	<node id="-695656" lat="68.4375777745" lon="16.4383333389">
		<tag k="fixme" v="consider natural=peak for the most distinct mountains in the district" />
		<tag k="name" v="Hallarkollen" />
		<tag k="natural" v="hill" />
		<tag k="place" v="locality" />
		<tag k="ssr:stedsnr" v="270844" />
	</node>
	<node id="-695655" lat="68.441297224" lon="16.4548111051">
		<tag k="name" v="Moen" />
		<tag k="place" v="locality" />
		<tag k="ssr:stedsnr" v="270843" />
	</node>
	<node id="-695654" lat="68.4524583356" lon="16.3865777841">
		<tag k="name" v="Forrholtan" />
		<tag k="natural" v="hill" />
		<tag k="place" v="locality" />
		<tag k="ssr:stedsnr" v="270644" />
	</node>
	<node id="-695651" lat="68.4263138898" lon="16.3322972282">
		<tag k="name" v="Flota" />
		<tag k="place" v="locality" />
		<tag k="ssr:stedsnr" v="270540" />
	</node>
	<node id="-695649" lat="68.3933888875" lon="16.1195222323">
		<tag k="name" v="Finnkjerka" />
		<tag k="place" v="locality" />
		<tag k="ssr:stedsnr" v="270500" />
	</node>
	<node id="-695647" lat="68.4217583291" lon="16.1041888955">
		<tag k="name" v="Kjeldhaugen" />
		<tag k="natural" v="hill" />
		<tag k="place" v="locality" />
		<tag k="ssr:stedsnr" v="270459" />
	</node>
	<node id="-695645" lat="68.4170944439" lon="16.0902972268">
		<tag k="name" v="Rundhaugen" />
		<tag k="natural" v="hill" />
		<tag k="place" v="locality" />
		<tag k="ssr:stedsnr" v="270407" />
	</node>
	<node id="-695644" lat="68.4129388922" lon="16.0918333232">
		<tag k="name" v="Bekkekjerran" />
		<tag k="place" v="locality" />
		<tag k="ssr:stedsnr" v="270398" />
	</node>
	<node id="-695643" lat="68.4668916715" lon="16.4678416603">
		<tag k="name" v="Kvitberget" />
		<tag k="natural" v="hill" />
		<tag k="place" v="locality" />
		<tag k="ssr:stedsnr" v="270378" />
	</node>
	<node id="-695642" lat="68.4659472228" lon="16.428161106">
		<tag k="name" v="Hegga" />
		<tag k="place" v="locality" />
		<tag k="ssr:stedsnr" v="270373" />
	</node>
	<node id="-695637" lat="68.437075" lon="16.3840916561">
		<tag k="name" v="Ørndragholten" />
		<tag k="place" v="locality" />
		<tag k="ssr:stedsnr" v="270710" />
	</node>
	<node id="-695636" lat="68.4221861109" lon="16.4162583316">
		<tag k="name" v="Storvarden" />
		<tag k="natural" v="hill" />
		<tag k="place" v="locality" />
		<tag k="ssr:stedsnr" v="270702" />
	</node>
	<node id="-697305" lat="68.5811305552" lon="16.1148583208">
		<tag k="fixme" v="consider natural=peak for the most distinct mountains in the district" />
		<tag k="name" v="Doaresjuovvárri" />
		<tag k="name:se" v="Doaresjuovvárri" />
		<tag k="natural" v="hill" />
		<tag k="place" v="locality" />
		<tag k="ssr:stedsnr" v="952556" />
	</node>
	<node id="-697298" lat="68.5768611133" lon="16.2894444501">
		<tag k="name" v="Storfjellplata" />
		<tag k="natural" v="ridge" />
		<tag k="place" v="locality" />
		<tag k="ssr:stedsnr" v="940049" />
	</node>
	<node id="-697296" lat="68.4406916626" lon="16.4598944454">
		<tag k="name" v="Silsandvikberget" />
		<tag k="natural" v="hill" />
		<tag k="place" v="locality" />
		<tag k="ssr:stedsnr" v="937866" />
	</node>
	<node id="-697294" lat="68.431838889" lon="16.3990972122">
		<tag k="name" v="Breivad" />
		<tag k="place" v="locality" />
		<tag k="ssr:stedsnr" v="937735" />
	</node>
	<node id="-697293" lat="68.4340833297" lon="16.4453249908">
		<tag k="name" v="Hallaren" />
		<tag k="natural" v="hill" />
		<tag k="place" v="locality" />
		<tag k="ssr:stedsnr" v="937730" />
	</node>
	<node id="-697288" lat="68.4450555562" lon="16.3935694341">
		<tag k="name" v="Rismåltuva" />
		<tag k="natural" v="hill" />
		<tag k="place" v="locality" />
		<tag k="ssr:stedsnr" v="937657" />
	</node>
	<node id="-697287" lat="68.4600944418" lon="16.3983138781">
		<tag k="name" v="Bjørnhågen" />
		<tag k="natural" v="hill" />
		<tag k="place" v="locality" />
		<tag k="ssr:stedsnr" v="937628" />
	</node>
	<node id="-697286" lat="68.4303222186" lon="16.4086555637">
		<tag k="fixme" v="consider natural=peak for the most distinct mountains in the district" />
		<tag k="name" v="Svartfloget" />
		<tag k="natural" v="hill" />
		<tag k="place" v="locality" />
		<tag k="ssr:stedsnr" v="937592" />
	</node>
	<node id="-697285" lat="68.4247888924" lon="16.3256638926">
		<tag k="name" v="Kongshaugen" />
		<tag k="natural" v="hill" />
		<tag k="place" v="locality" />
		<tag k="ssr:stedsnr" v="937566" />
	</node>
	<node id="-697284" lat="68.4423722259" lon="16.3355833431">
		<tag k="name" v="Bulihamran" />
		<tag k="natural" v="hill" />
		<tag k="place" v="locality" />
		<tag k="ssr:stedsnr" v="937550" />
	</node>
	<node id="-697280" lat="68.4254472241" lon="16.1543166762">
		<tag k="name" v="Hjertet" />
		<tag k="natural" v="hill" />
		<tag k="place" v="locality" />
		<tag k="ssr:stedsnr" v="937483" />
	</node>
	<node id="-697279" lat="68.4039638869" lon="16.196166665">
		<tag k="name" v="Stien" />
		<tag k="natural" v="slope" />
		<tag k="place" v="locality" />
		<tag k="ssr:stedsnr" v="937435" />
	</node>
	<node id="-697278" lat="68.4067388925" lon="16.2042111124">
		<tag k="name" v="Lemman" />
		<tag k="natural" v="hill" />
		<tag k="place" v="locality" />
		<tag k="ssr:stedsnr" v="937426" />
	</node>
	<node id="-697270" lat="68.4243444424" lon="16.1107999937">
		<tag k="name" v="Varghaugen" />
		<tag k="natural" v="hill" />
		<tag k="place" v="locality" />
		<tag k="ssr:stedsnr" v="937365" />
	</node>
	<node id="-697269" lat="68.4378361068" lon="16.174900004">
		<tag k="name" v="Kipersletta" />
		<tag k="place" v="locality" />
		<tag k="ssr:stedsnr" v="937355" />
	</node>
	<node id="-697267" lat="68.5596527825" lon="16.2793527713">
		<tag k="name" v="Asphågen" />
		<tag k="natural" v="hill" />
		<tag k="place" v="locality" />
		<tag k="ssr:stedsnr" v="937112" />
	</node>
	<node id="-697262" lat="68.5418972229" lon="16.3137472141">
		<tag k="name" v="Storbakkan" />
		<tag k="natural" v="slope" />
		<tag k="place" v="locality" />
		<tag k="ssr:stedsnr" v="935901" />
	</node>
	<node id="-697260" lat="68.4884305553" lon="16.1558861036">
		<tag k="name" v="Eitervågkråa" />
		<tag k="natural" v="valley" />
		<tag k="place" v="locality" />
		<tag k="ssr:stedsnr" v="936012" />
	</node>
	<node id="-697257" lat="68.5306083299" lon="16.4197361164">
		<tag k="name" v="Kvanto" />
		<tag k="natural" v="hill" />
		<tag k="place" v="locality" />
		<tag k="ssr:stedsnr" v="935739" />
	</node>
	<node id="-697255" lat="68.5347249997" lon="16.4750444433">
		<tag k="name" v="Hestesletta" />
		<tag k="place" v="locality" />
		<tag k="ssr:stedsnr" v="935696" />
	</node>
	<node id="-697254" lat="68.5436666635" lon="16.1871249944">
		<tag k="alt_name" v="Forskolten" />
		<tag k="name" v="Forrahågen" />
		<tag k="natural" v="hill" />
		<tag k="place" v="locality" />
		<tag k="ssr:stedsnr" v="935585" />
	</node>
	<node id="-697251" lat="68.538274998" lon="16.513316674">
		<tag k="name" v="Storberget" />
		<tag k="natural" v="hill" />
		<tag k="place" v="locality" />
		<tag k="ssr:stedsnr" v="935503" />
	</node>
	<node id="-697246" lat="68.5027194411" lon="16.5385722144">
		<tag k="name" v="Storhola" />
		<tag k="natural" v="valley" />
		<tag k="place" v="locality" />
		<tag k="ssr:stedsnr" v="935092" />
	</node>
	<node id="-697244" lat="68.5709000001" lon="16.411172228">
		<tag k="name" v="Brattlia" />
		<tag k="natural" v="slope" />
		<tag k="place" v="locality" />
		<tag k="ssr:stedsnr" v="935080" />
	</node>
	<node id="-697243" lat="68.5714916664" lon="16.3804388824">
		<tag k="name" v="Nestlihammaren" />
		<tag k="natural" v="hill" />
		<tag k="place" v="locality" />
		<tag k="ssr:stedsnr" v="935078" />
	</node>
	<node id="-697240" lat="68.5351777745" lon="16.1388138773">
		<tag k="name" v="Slåttbakkan" />
		<tag k="natural" v="slope" />
		<tag k="place" v="locality" />
		<tag k="ssr:stedsnr" v="934676" />
	</node>
	<node id="-697238" lat="68.4584083306" lon="16.1306555553">
		<tag k="name" v="Struphaugen" />
		<tag k="natural" v="hill" />
		<tag k="place" v="locality" />
		<tag k="ssr:stedsnr" v="934661" />
	</node>
	<node id="-697236" lat="68.4512972268" lon="16.1509416596">
		<tag k="name" v="Sandbakkan" />
		<tag k="natural" v="slope" />
		<tag k="place" v="locality" />
		<tag k="ssr:stedsnr" v="934633" />
	</node>
	<node id="-697231" lat="68.5758583337" lon="16.3559416558">
		<tag k="fixme" v="consider natural=peak for the most distinct mountains in the district" />
		<tag k="name" v="Kleivfjellet" />
		<tag k="natural" v="hill" />
		<tag k="place" v="locality" />
		<tag k="ssr:stedsnr" v="931171" />
	</node>
	<node id="-697227" lat="68.5437805555" lon="16.3238499986">
		<tag k="fixme" v="consider natural=peak for the most distinct mountains in the district" />
		<tag k="name" v="Slettåsen" />
		<tag k="natural" v="hill" />
		<tag k="place" v="locality" />
		<tag k="ssr:stedsnr" v="930865" />
	</node>
	<node id="-697224" lat="68.5358638894" lon="16.5574916742">
		<tag k="fixme" v="consider natural=peak for the most distinct mountains in the district" />
		<tag k="name" v="Klubban" />
		<tag k="natural" v="hill" />
		<tag k="place" v="locality" />
		<tag k="ssr:stedsnr" v="930796" />
	</node>
	<node id="-697223" lat="68.5268138925" lon="16.3237777862">
		<tag k="fixme" v="consider natural=peak for the most distinct mountains in the district" />
		<tag k="name" v="Trollfjellet - Čáhppesoaivi" />
		<tag k="name:no" v="Trollfjellet" />
		<tag k="name:se" v="Čáhppesoaivi" />
		<tag k="natural" v="hill" />
		<tag k="old_name:se" v="Čappesoaivi" />
		<tag k="place" v="locality" />
		<tag k="ssr:stedsnr" v="930628" />
	</node>
	<node id="-697222" lat="68.5795916691" lon="16.2983138793">
		<tag k="name" v="Ørntuva" />
		<tag k="natural" v="hill" />
		<tag k="place" v="locality" />
		<tag k="ssr:stedsnr" v="930170" />
	</node>
	<node id="-697220" lat="68.5766666652" lon="16.1459333248">
		<tag k="fixme" v="consider natural=peak for the most distinct mountains in the district" />
		<tag k="name" v="Gamfjellet" />
		<tag k="natural" v="hill" />
		<tag k="place" v="locality" />
		<tag k="ssr:stedsnr" v="928830" />
	</node>
	<node id="-697218" lat="68.6115638919" lon="16.1974722173">
		<tag k="fixme" v="consider natural=peak for the most distinct mountains in the district" />
		<tag k="name" v="Tverraksla" />
		<tag k="natural" v="hill" />
		<tag k="place" v="locality" />
		<tag k="ssr:stedsnr" v="928347" />
	</node>
	<node id="-697213" lat="68.4616666636" lon="16.3525250009">
		<tag k="fixme" v="consider natural=peak for the most distinct mountains in the district" />
		<tag k="name" v="Bruna" />
		<tag k="natural" v="hill" />
		<tag k="place" v="locality" />
		<tag k="ssr:stedsnr" v="927461" />
	</node>
	<node id="-697210" lat="68.4650749958" lon="16.2244638867">
		<tag k="fixme" v="consider natural=peak for the most distinct mountains in the district" />
		<tag k="name" v="Kjerstadtinden" />
		<tag k="natural" v="hill" />
		<tag k="place" v="locality" />
		<tag k="ssr:stedsnr" v="927426" />
	</node>
	<node id="-697209" lat="68.4775277815" lon="16.5065611119">
		<tag k="fixme" v="consider natural=peak for the most distinct mountains in the district" />
		<tag k="name" v="Stifjellet" />
		<tag k="natural" v="hill" />
		<tag k="place" v="locality" />
		<tag k="ssr:stedsnr" v="927420" />
	</node>
	<node id="-697205" lat="68.4150361105" lon="16.1815750034">
		<tag k="fixme" v="consider natural=peak for the most distinct mountains in the district" />
		<tag k="name" v="Durmålstuva" />
		<tag k="natural" v="hill" />
		<tag k="place" v="locality" />
		<tag k="ssr:stedsnr" v="927295" />
	</node>
	<node id="-697199" lat="68.4277944441" lon="16.1145277838">
		<tag k="name" v="Kjemperundhaugen" />
		<tag k="natural" v="hill" />
		<tag k="place" v="locality" />
		<tag k="ssr:stedsnr" v="878888" />
	</node>
	<node id="-697198" lat="68.4162055583" lon="16.1192111017">
		<tag k="name" v="Gillarheia" />
		<tag k="natural" v="hill" />
		<tag k="place" v="locality" />
		<tag k="ssr:stedsnr" v="877693" />
	</node>
	<node id="-697195" lat="68.4247666648" lon="16.3283888793">
		<tag k="name" v="Træna" />
		<tag k="natural" v="slope" />
		<tag k="place" v="locality" />
		<tag k="ssr:stedsnr" v="877566" />
	</node>
	<node id="-697193" lat="68.4292083357" lon="16.1514416706">
		<tag k="name" v="Rona" />
		<tag k="place" v="locality" />
		<tag k="ssr:stedsnr" v="877369" />
	</node>
	<node id="-697191" lat="68.4324361108" lon="16.1098611196">
		<tag k="name" v="Båtberget" />
		<tag k="natural" v="hill" />
		<tag k="place" v="locality" />
		<tag k="ssr:stedsnr" v="877350" />
	</node>
	<node id="-697186" lat="68.4228083372" lon="16.3691611104">
		<tag k="name" v="Åberget" />
		<tag k="natural" v="hill" />
		<tag k="place" v="locality" />
		<tag k="ssr:stedsnr" v="876717" />
	</node>
	<node id="-697185" lat="68.4310472216" lon="16.3863444406">
		<tag k="name" v="Klokka sju-skaret" />
		<tag k="natural" v="valley" />
		<tag k="place" v="locality" />
		<tag k="ssr:stedsnr" v="876713" />
	</node>
	<node id="-697183" lat="68.4510305594" lon="16.4428722281">
		<tag k="name" v="Sjåhaugen" />
		<tag k="natural" v="hill" />
		<tag k="place" v="locality" />
		<tag k="ssr:stedsnr" v="876664" />
	</node>
	<node id="-697176" lat="68.426350001" lon="16.1041499897">
		<tag k="name" v="Sjøbubakkan" />
		<tag k="natural" v="slope" />
		<tag k="place" v="locality" />
		<tag k="ssr:stedsnr" v="876462" />
	</node>
	<node id="-697173" lat="68.3932972225" lon="16.148716677">
		<tag k="name" v="Trollgjota" />
		<tag k="place" v="locality" />
		<tag k="ssr:stedsnr" v="876407" />
	</node>
	<node id="-697171" lat="68.405188886" lon="16.2110472217">
		<tag k="name" v="Notbergan" />
		<tag k="natural" v="hill" />
		<tag k="place" v="locality" />
		<tag k="ssr:stedsnr" v="876398" />
	</node>
	<node id="-697166" lat="68.4709555567" lon="16.4802388849">
		<tag k="name" v="Flatbergan" />
		<tag k="natural" v="hill" />
		<tag k="place" v="locality" />
		<tag k="ssr:stedsnr" v="876355" />
	</node>
	<node id="-697160" lat="68.5732250042" lon="16.2741555479">
		<tag k="name" v="Kongsviklifoten" />
		<tag k="natural" v="slope" />
		<tag k="place" v="locality" />
		<tag k="ssr:stedsnr" v="876080" />
	</node>
	<node id="-697159" lat="68.5234722203" lon="16.4751777739">
		<tag k="name" v="Kråa" />
		<tag k="natural" v="valley" />
		<tag k="place" v="locality" />
		<tag k="ssr:stedsnr" v="876042" />
	</node>
	<node id="-697156" lat="68.5209777763" lon="16.4459166774">
		<tag k="name" v="Geitlia" />
		<tag k="natural" v="slope" />
		<tag k="place" v="locality" />
		<tag k="ssr:stedsnr" v="876005" />
	</node>
	<node id="-697155" lat="68.5146972221" lon="16.4345444483">
		<tag k="name" v="Torvheia" />
		<tag k="natural" v="hill" />
		<tag k="place" v="locality" />
		<tag k="ssr:stedsnr" v="876001" />
	</node>
	<node id="-697151" lat="68.5604166694" lon="16.1833916567">
		<tag k="name" v="Mølnskaret" />
		<tag k="natural" v="valley" />
		<tag k="place" v="locality" />
		<tag k="ssr:stedsnr" v="875562" />
	</node>
	<node id="-697150" lat="68.5657166694" lon="16.2510249935">
		<tag k="name" v="Mølnvollen" />
		<tag k="natural" v="hill" />
		<tag k="place" v="locality" />
		<tag k="ssr:stedsnr" v="875553" />
	</node>
	<node id="-697140" lat="68.4626083368" lon="16.1395194526">
		<tag k="name" v="Silsanddalen" />
		<tag k="natural" v="valley" />
		<tag k="place" v="locality" />
		<tag k="ssr:stedsnr" v="874722" />
	</node>
	<node id="-697137" lat="68.4538694456" lon="16.1628583329">
		<tag k="name" v="Ligjota" />
		<tag k="natural" v="slope" />
		<tag k="place" v="locality" />
		<tag k="ssr:stedsnr" v="874658" />
	</node>
	<node id="-697136" lat="68.4702750006" lon="16.1460277741">
		<tag k="name" v="Purka" />
		<tag k="natural" v="hill" />
		<tag k="place" v="locality" />
		<tag k="ssr:stedsnr" v="874559" />
	</node>
	<node id="-697135" lat="68.4631222221" lon="16.1691499961">
		<tag k="fixme" v="consider natural=peak for the most distinct mountains in the district" />
		<tag k="name" v="Galten" />
		<tag k="natural" v="hill" />
		<tag k="ssr:stedsnr" v="874560" />
	</node>
	<node id="-697134" lat="68.4743166678" lon="16.1681111185">
		<tag k="name" v="Storlia" />
		<tag k="natural" v="slope" />
		<tag k="place" v="locality" />
		<tag k="ssr:stedsnr" v="874556" />
	</node>
	<node id="-697129" lat="68.5692194432" lon="16.3279555542">
		<tag k="name" v="Mundhågen" />
		<tag k="natural" v="hill" />
		<tag k="place" v="locality" />
		<tag k="ssr:stedsnr" v="874111" />
	</node>
	<node id="-697125" lat="68.5785888916" lon="16.3348722266">
		<tag k="fixme" v="consider natural=peak for the most distinct mountains in the district" />
		<tag k="name" v="Daglislettinden" />
		<tag k="natural" v="hill" />
		<tag k="place" v="locality" />
		<tag k="ssr:stedsnr" v="870185" />
	</node>
	<node id="-697121" lat="68.5912888871" lon="16.2407500101">
		<tag k="name" v="Fallberget - Itkkusbákti" />
		<tag k="name:no" v="Fallberget" />
		<tag k="name:se" v="Itkkusbákti" />
		<tag k="natural" v="hill" />
		<tag k="old_name:se" v="Itkosbakti" />
		<tag k="place" v="locality" />
		<tag k="ssr:stedsnr" v="869216" />
	</node>
	<node id="-697115" lat="68.4334749995" lon="16.4366499989">
		<tag k="name" v="Storberget" />
		<tag k="natural" v="hill" />
		<tag k="place" v="locality" />
		<tag k="ssr:stedsnr" v="867504" />
	</node>
	<node id="-697113" lat="68.61584444" lon="16.1801166749">
		<tag k="fixme" v="consider natural=peak for the most distinct mountains in the district" />
		<tag k="name" v="Jakobstinden" />
		<tag k="natural" v="hill" />
		<tag k="ssr:stedsnr" v="867377" />
	</node>
	<node id="-697105" lat="68.4731249986" lon="16.3385777879">
		<tag k="name" v="Kjelen" />
		<tag k="natural" v="valley" />
		<tag k="place" v="locality" />
		<tag k="ssr:stedsnr" v="866387" />
	</node>
	<node id="-697101" lat="68.572144445" lon="16.2523027797">
		<tag k="fixme" v="consider natural=peak for the most distinct mountains in the district" />
		<tag k="name" v="Sjurikollen" />
		<tag k="natural" v="hill" />
		<tag k="place" v="locality" />
		<tag k="ssr:stedsnr" v="830926" />
	</node>
	<node id="-697100" lat="68.6052111107" lon="16.1581111201">
		<tag k="fixme" v="consider natural=peak for the most distinct mountains in the district" />
		<tag k="name" v="Rundfjellet" />
		<tag k="natural" v="hill" />
		<tag k="place" v="locality" />
		<tag k="ssr:stedsnr" v="830833" />
	</node>
	<node id="-697098" lat="68.5755583301" lon="16.3835416657">
		<tag k="name" v="Slettbakkan" />
		<tag k="natural" v="slope" />
		<tag k="place" v="locality" />
		<tag k="ssr:stedsnr" v="828850" />
	</node>
	<node id="-697092" lat="68.4387666619" lon="16.3658472308">
		<tag k="name" v="Revmoen" />
		<tag k="place" v="locality" />
		<tag k="ssr:stedsnr" v="816755" />
	</node>
	<node id="-697090" lat="68.4334666714" lon="16.3831972177">
		<tag k="name" v="Tjukkskogaksla" />
		<tag k="natural" v="ridge" />
		<tag k="place" v="locality" />
		<tag k="ssr:stedsnr" v="816739" />
	</node>
	<node id="-697086" lat="68.4576472224" lon="16.3886833321">
		<tag k="name" v="Reingjerdan" />
		<tag k="place" v="locality" />
		<tag k="ssr:stedsnr" v="816683" />
	</node>
	<node id="-697085" lat="68.4201861149" lon="16.3946222189">
		<tag k="name" v="Oterholbergan" />
		<tag k="natural" v="hill" />
		<tag k="place" v="locality" />
		<tag k="ssr:stedsnr" v="816655" />
	</node>
	<node id="-697080" lat="68.3971194414" lon="16.1311694365">
		<tag k="name" v="Kjerråkerhaugen" />
		<tag k="natural" v="hill" />
		<tag k="place" v="locality" />
		<tag k="ssr:stedsnr" v="816523" />
	</node>
	<node id="-697075" lat="68.4234861147" lon="16.1325305612">
		<tag k="name" v="Mølndalen" />
		<tag k="natural" v="valley" />
		<tag k="place" v="locality" />
		<tag k="ssr:stedsnr" v="816377" />
	</node>
	<node id="-697071" lat="68.4379944415" lon="16.1409416566">
		<tag k="name" v="Røytvadhaugen" />
		<tag k="natural" v="hill" />
		<tag k="place" v="locality" />
		<tag k="ssr:stedsnr" v="816352" />
	</node>
	<node id="-697070" lat="68.4747222223" lon="16.4950611067">
		<tag k="name" v="Hestevegen" />
		<tag k="place" v="locality" />
		<tag k="ssr:stedsnr" v="816351" />
	</node>
	<node id="-697064" lat="68.5701361128" lon="16.3000555437">
		<tag k="fixme" v="consider natural=peak for the most distinct mountains in the district" />
		<tag k="name" v="Ulvikfjellaksla" />
		<tag k="natural" v="hill" />
		<tag k="place" v="locality" />
		<tag k="ssr:stedsnr" v="816100" />
	</node>
	<node id="-697063" lat="68.524219446" lon="16.434988886">
		<tag k="name" v="Ramnfloget" />
		<tag k="natural" v="hill" />
		<tag k="place" v="locality" />
		<tag k="ssr:stedsnr" v="816007" />
	</node>
	<node id="-697059" lat="68.4966805564" lon="16.1546638889">
		<tag k="name" v="Skjellhaugen" />
		<tag k="natural" v="hill" />
		<tag k="place" v="locality" />
		<tag k="ssr:stedsnr" v="815001" />
	</node>
	<node id="-697058" lat="68.5353527826" lon="16.3774611018">
		<tag k="name" v="Loftsbakken" />
		<tag k="natural" v="slope" />
		<tag k="place" v="locality" />
		<tag k="ssr:stedsnr" v="814784" />
	</node>
	<node id="-697057" lat="68.5834416701" lon="16.2190611227">
		<tag k="name" v="Øverdalen" />
		<tag k="natural" v="valley" />
		<tag k="place" v="locality" />
		<tag k="ssr:stedsnr" v="814728" />
	</node>
	<node id="-697055" lat="68.5721388852" lon="16.417938899">
		<tag k="name" v="Steinbakkan" />
		<tag k="natural" v="slope" />
		<tag k="place" v="locality" />
		<tag k="ssr:stedsnr" v="814691" />
	</node>
	<node id="-697051" lat="68.584730558" lon="16.2093138824">
		<tag k="name" v="Gammelløhøgda" />
		<tag k="natural" v="hill" />
		<tag k="place" v="locality" />
		<tag k="ssr:stedsnr" v="814583" />
	</node>
	<node id="-697050" lat="68.5497666702" lon="16.5462166549">
		<tag k="name" v="Veakollen" />
		<tag k="natural" v="hill" />
		<tag k="place" v="locality" />
		<tag k="ssr:stedsnr" v="814535" />
	</node>
	<node id="-697047" lat="68.5052138904" lon="16.2179249952">
		<tag k="name" v="Tronggapet" />
		<tag k="natural" v="valley" />
		<tag k="place" v="locality" />
		<tag k="ssr:stedsnr" v="814428" />
	</node>
	<node id="-697046" lat="68.4684916641" lon="16.1566055592">
		<tag k="name" v="Galten" />
		<tag k="natural" v="hill" />
		<tag k="place" v="locality" />
		<tag k="ssr:stedsnr" v="814427" />
	</node>
	<node id="-697044" lat="68.4911416645" lon="16.5464694514">
		<tag k="name" v="Grønnlian" />
		<tag k="natural" v="slope" />
		<tag k="place" v="locality" />
		<tag k="ssr:stedsnr" v="814113" />
	</node>
	<node id="-697042" lat="68.4895944483" lon="16.172461116">
		<tag k="fixme" v="consider natural=peak for the most distinct mountains in the district" />
		<tag k="name" v="Eitervågdalfjellet" />
		<tag k="natural" v="hill" />
		<tag k="place" v="locality" />
		<tag k="ssr:stedsnr" v="814037" />
	</node>
	<node id="-697037" lat="68.4520194424" lon="16.1289944342">
		<tag k="name" v="Eldhushaugen" />
		<tag k="natural" v="hill" />
		<tag k="place" v="locality" />
		<tag k="ssr:stedsnr" v="813698" />
	</node>
	<node id="-697034" lat="68.4800999985" lon="16.1579388782">
		<tag k="name" v="Ramnhallen" />
		<tag k="natural" v="hill" />
		<tag k="place" v="locality" />
		<tag k="ssr:stedsnr" v="813403" />
	</node>
	<node id="-697033" lat="68.5558583331" lon="16.5356138757">
		<tag k="name" v="Øyrahaugen" />
		<tag k="natural" v="hill" />
		<tag k="place" v="locality" />
		<tag k="ssr:stedsnr" v="813115" />
	</node>
	<node id="-697030" lat="68.5007277735" lon="16.3266861168">
		<tag k="fixme" v="consider natural=peak for the most distinct mountains in the district" />
		<tag k="name" v="Jotind" />
		<tag k="natural" v="hill" />
		<tag k="place" v="locality" />
		<tag k="ssr:stedsnr" v="809945" />
	</node>
	<node id="-697029" lat="68.5460999981" lon="16.5422388796">
		<tag k="name" v="Skruven" />
		<tag k="natural" v="hill" />
		<tag k="place" v="locality" />
		<tag k="ssr:stedsnr" v="809887" />
	</node>
	<node id="-697024" lat="68.5300055562" lon="16.36016389">
		<tag k="loc_name:se" v="Sáttiidvággi" />
		<tag k="name" v="Sandsdalen" />
		<tag k="name:no" v="Sandsdalen" />
		<tag k="natural" v="valley" />
		<tag k="place" v="locality" />
		<tag k="ssr:stedsnr" v="809770" />
	</node>
	<node id="-697023" lat="68.5408305581" lon="16.3370555612">
		<tag k="fixme" v="consider natural=peak for the most distinct mountains in the district" />
		<tag k="name" v="Hovsheia" />
		<tag k="natural" v="hill" />
		<tag k="place" v="locality" />
		<tag k="ssr:stedsnr" v="809768" />
	</node>
	<node id="-697022" lat="68.5784916693" lon="16.2340166643">
		<tag k="name" v="Øverdalen" />
		<tag k="natural" v="valley" />
		<tag k="place" v="locality" />
		<tag k="ssr:stedsnr" v="809176" />
	</node>
	<node id="-697016" lat="68.4204722236" lon="16.304025006">
		<tag k="name" v="Uføra" />
		<tag k="natural" v="hill" />
		<tag k="place" v="locality" />
		<tag k="ssr:stedsnr" v="806487" />
	</node>
	<node id="-697013" lat="68.4501555541" lon="16.3889527883">
		<tag k="loc_name:se" v="Oainnus" />
		<tag k="name" v="Storhaugen" />
		<tag k="name:no" v="Storhaugen" />
		<tag k="natural" v="hill" />
		<tag k="place" v="locality" />
		<tag k="ssr:stedsnr" v="806431" />
	</node>
	<node id="-697006" lat="68.4983500018" lon="16.1978083352">
		<tag k="name" v="Straumsdalshøgda" />
		<tag k="natural" v="hill" />
		<tag k="place" v="locality" />
		<tag k="ssr:stedsnr" v="806144" />
	</node>
	<node id="-697002" lat="68.5195749989" lon="16.2469638895">
		<tag k="name" v="Vasskollen" />
		<tag k="natural" v="hill" />
		<tag k="place" v="locality" />
		<tag k="ssr:stedsnr" v="869818" />
	</node>
	<node id="-697000" lat="68.5797999978" lon="16.2151111188">
		<tag k="name" v="Storsletthøgda" />
		<tag k="natural" v="hill" />
		<tag k="place" v="locality" />
		<tag k="ssr:stedsnr" v="769943" />
	</node>
	<node id="-696999" lat="68.5818055567" lon="16.2303361149">
		<tag k="name" v="Jomfrupallen" />
		<tag k="natural" v="valley" />
		<tag k="place" v="locality" />
		<tag k="ssr:stedsnr" v="769934" />
	</node>
	<node id="-696997" lat="68.530994445" lon="16.1577777776">
		<tag k="name" v="Rødbergan" />
		<tag k="natural" v="hill" />
		<tag k="place" v="locality" />
		<tag k="ssr:stedsnr" v="767931" />
	</node>
	<node id="-696992" lat="68.4285666648" lon="16.3392833319">
		<tag k="name" v="Gjerdhaugen" />
		<tag k="natural" v="hill" />
		<tag k="place" v="locality" />
		<tag k="ssr:stedsnr" v="755750" />
	</node>
	<node id="-696991" lat="68.4293694484" lon="16.373808331">
		<tag k="name" v="Mønskallen" />
		<tag k="natural" v="hill" />
		<tag k="place" v="locality" />
		<tag k="ssr:stedsnr" v="755715" />
	</node>
	<node id="-696990" lat="68.4249388869" lon="16.3823388916">
		<tag k="name" v="Balen" />
		<tag k="place" v="locality" />
		<tag k="ssr:stedsnr" v="755706" />
	</node>
	<node id="-696989" lat="68.4102999986" lon="16.1160749967">
		<tag k="name" v="Skittenosen" />
		<tag k="place" v="locality" />
		<tag k="ssr:stedsnr" v="755657" />
	</node>
	<node id="-696988" lat="68.4176305546" lon="16.1128777809">
		<tag k="name" v="Reintuva" />
		<tag k="natural" v="hill" />
		<tag k="place" v="locality" />
		<tag k="ssr:stedsnr" v="755655" />
	</node>
	<node id="-696987" lat="68.4285138925" lon="16.3366277709">
		<tag k="name" v="Mølnskaret" />
		<tag k="natural" v="hill" />
		<tag k="place" v="locality" />
		<tag k="ssr:stedsnr" v="755540" />
	</node>
	<node id="-696984" lat="68.3954388917" lon="16.1106944544">
		<tag k="name" v="Litjeneshalsen" />
		<tag k="place" v="locality" />
		<tag k="ssr:stedsnr" v="755468" />
	</node>
	<node id="-696983" lat="68.4208944454" lon="16.2278972127">
		<tag k="name" v="Øverdalen" />
		<tag k="natural" v="valley" />
		<tag k="place" v="locality" />
		<tag k="ssr:stedsnr" v="755412" />
	</node>
	<node id="-696982" lat="68.4063444445" lon="16.206316667">
		<tag k="name" v="Jerusalem" />
		<tag k="place" v="locality" />
		<tag k="ssr:stedsnr" v="755410" />
	</node>
	<node id="-696980" lat="68.4893722262" lon="16.4804194469">
		<tag k="fixme" v="consider natural=peak for the most distinct mountains in the district" />
		<tag k="name" v="Kvitsandnesfjellet" />
		<tag k="natural" v="hill" />
		<tag k="place" v="locality" />
		<tag k="ssr:stedsnr" v="755375" />
	</node>
	<node id="-696979" lat="68.4773416622" lon="16.4958222237">
		<tag k="name" v="Svarthallaren" />
		<tag k="natural" v="hill" />
		<tag k="place" v="locality" />
		<tag k="ssr:stedsnr" v="755350" />
	</node>
	<node id="-696972" lat="68.4013222262" lon="16.1191055654">
		<tag k="name" v="Innerskaret" />
		<tag k="natural" v="valley" />
		<tag k="place" v="locality" />
		<tag k="ssr:stedsnr" v="755289" />
	</node>
	<node id="-696971" lat="68.5641750036" lon="16.2903583421">
		<tag k="name" v="Tyttebærhågen" />
		<tag k="natural" v="hill" />
		<tag k="place" v="locality" />
		<tag k="ssr:stedsnr" v="755096" />
	</node>
	<node id="-696970" lat="68.5591138924" lon="16.3044861141">
		<tag k="name" v="Salthågen" />
		<tag k="natural" v="hill" />
		<tag k="place" v="locality" />
		<tag k="ssr:stedsnr" v="755095" />
	</node>
	<node id="-696969" lat="68.5227916688" lon="16.5127638846">
		<tag k="name" v="Storhaugen" />
		<tag k="natural" v="hill" />
		<tag k="place" v="locality" />
		<tag k="ssr:stedsnr" v="755018" />
	</node>
	<node id="-696962" lat="68.5399166676" lon="16.4827083338">
		<tag k="name" v="Ulvhaugen" />
		<tag k="natural" v="hill" />
		<tag k="place" v="locality" />
		<tag k="ssr:stedsnr" v="753644" />
	</node>
	<node id="-696960" lat="68.4738194418" lon="16.1364861212">
		<tag k="name" v="Linberghaugen" />
		<tag k="natural" v="hill" />
		<tag k="place" v="locality" />
		<tag k="ssr:stedsnr" v="753510" />
	</node>
	<node id="-696957" lat="68.4826638914" lon="16.1783222194">
		<tag k="name" v="Kvannto" />
		<tag k="natural" v="valley" />
		<tag k="place" v="locality" />
		<tag k="ssr:stedsnr" v="753499" />
	</node>
	<node id="-696956" lat="68.5492555558" lon="16.55506667">
		<tag k="name" v="Trollberget" />
		<tag k="natural" v="hill" />
		<tag k="place" v="locality" />
		<tag k="ssr:stedsnr" v="753447" />
	</node>
	<node id="-696950" lat="68.503380557" lon="16.5509777839">
		<tag k="name" v="Lemman" />
		<tag k="natural" v="valley" />
		<tag k="place" v="locality" />
		<tag k="ssr:stedsnr" v="753071" />
	</node>
	<node id="-696948" lat="68.5682527805" lon="16.3647750064">
		<tag k="name" v="Kleivberget" />
		<tag k="natural" v="hill" />
		<tag k="place" v="locality" />
		<tag k="ssr:stedsnr" v="753063" />
	</node>
	<node id="-696947" lat="68.5686777743" lon="16.343877771">
		<tag k="name" v="Staurhågen" />
		<tag k="natural" v="hill" />
		<tag k="place" v="locality" />
		<tag k="ssr:stedsnr" v="753061" />
	</node>
	<node id="-696944" lat="68.4636916642" lon="16.1396305466">
		<tag k="name" v="Lapptjeldbergan" />
		<tag k="natural" v="hill" />
		<tag k="place" v="locality" />
		<tag k="ssr:stedsnr" v="752691" />
	</node>
	<node id="-696943" lat="68.5902277779" lon="16.1907055596">
		<tag k="fixme" v="consider natural=peak for the most distinct mountains in the district" />
		<tag k="name" v="Rødraptuva" />
		<tag k="natural" v="hill" />
		<tag k="place" v="locality" />
		<tag k="ssr:stedsnr" v="752683" />
	</node>
	<node id="-696942" lat="68.6046527758" lon="16.1903138944">
		<tag k="fixme" v="consider natural=peak for the most distinct mountains in the district" />
		<tag k="name" v="Tverrfjellet" />
		<tag k="natural" v="hill" />
		<tag k="place" v="locality" />
		<tag k="ssr:stedsnr" v="752653" />
	</node>
	<node id="-696940" lat="68.4451916674" lon="16.1631861032">
		<tag k="name" v="Gammen" />
		<tag k="place" v="locality" />
		<tag k="ssr:stedsnr" v="752617" />
	</node>
	<node id="-696933" lat="68.5305500004" lon="16.2547444374">
		<tag k="alt_name" v="Ripelheia" />
		<tag k="fixme" v="consider natural=peak for the most distinct mountains in the district" />
		<tag k="name" v="Reppelheia" />
		<tag k="natural" v="hill" />
		<tag k="place" v="locality" />
		<tag k="ssr:stedsnr" v="748765" />
	</node>
	<node id="-696930" lat="68.5634416629" lon="16.1984055508">
		<tag k="fixme" v="consider natural=peak for the most distinct mountains in the district" />
		<tag k="name" v="Stakksvollfjellet" />
		<tag k="natural" v="hill" />
		<tag k="place" v="locality" />
		<tag k="ssr:stedsnr" v="745885" />
	</node>
	<node id="-696929" lat="68.5667861139" lon="16.2026138897">
		<tag k="name" v="Finngamhola" />
		<tag k="natural" v="valley" />
		<tag k="place" v="locality" />
		<tag k="ssr:stedsnr" v="745883" />
	</node>
	<node id="-696926" lat="68.5509722223" lon="16.1291638844">
		<tag k="name" v="Olpersalia" />
		<tag k="natural" v="slope" />
		<tag k="place" v="locality" />
		<tag k="ssr:stedsnr" v="745803" />
	</node>
	<node id="-696925" lat="68.3942611124" lon="16.1785499965">
		<tag k="name" v="Komsbergan" />
		<tag k="natural" v="hill" />
		<tag k="place" v="locality" />
		<tag k="ssr:stedsnr" v="745334" />
	</node>
	<node id="-696922" lat="68.493241667" lon="16.1946750043">
		<tag k="name" v="Straumsdalen" />
		<tag k="natural" v="valley" />
		<tag k="place" v="locality" />
		<tag k="ssr:stedsnr" v="745180" />
	</node>
	<node id="-696918" lat="68.4373333297" lon="16.2770583236">
		<tag k="name" v="Nattmålshøgda" />
		<tag k="natural" v="hill" />
		<tag k="place" v="locality" />
		<tag k="ssr:stedsnr" v="745478" />
	</node>
	<node id="-696914" lat="68.4770111121" lon="16.2741916628">
		<tag k="fixme" v="consider natural=peak for the most distinct mountains in the district" />
		<tag k="name" v="Trollfjellet" />
		<tag k="natural" v="hill" />
		<tag k="place" v="locality" />
		<tag k="ssr:stedsnr" v="745422" />
	</node>
	<node id="-696913" lat="68.5413472209" lon="16.5720750075">
		<tag k="name" v="Mellombakkan" />
		<tag k="natural" v="slope" />
		<tag k="place" v="locality" />
		<tag k="ssr:stedsnr" v="721059" />
	</node>
	<node id="-696902" lat="68.4203222186" lon="16.115661114">
		<tag k="name" v="Finnkongjota" />
		<tag k="natural" v="valley" />
		<tag k="place" v="locality" />
		<tag k="ssr:stedsnr" v="695676" />
	</node>
	<node id="-696900" lat="68.4360416635" lon="16.443702784">
		<tag k="name" v="Hallarslåka" />
		<tag k="place" v="locality" />
		<tag k="ssr:stedsnr" v="694837" />
	</node>
	<node id="-696899" lat="68.4358416705" lon="16.4455583259">
		<tag k="name" v="Pållappheimen" />
		<tag k="place" v="locality" />
		<tag k="ssr:stedsnr" v="694836" />
	</node>
	<node id="-696897" lat="68.4307472249" lon="16.3398638785">
		<tag k="name" v="Brattbakken" />
		<tag k="natural" v="slope" />
		<tag k="place" v="locality" />
		<tag k="ssr:stedsnr" v="694738" />
	</node>
	<node id="-696895" lat="68.4320138914" lon="16.4423694333">
		<tag k="name" v="Tømmerberget" />
		<tag k="natural" v="hill" />
		<tag k="place" v="locality" />
		<tag k="ssr:stedsnr" v="694690" />
	</node>
	<node id="-696893" lat="68.4510194474" lon="16.428897226">
		<tag k="name" v="Skittendalsholtan" />
		<tag k="natural" v="valley" />
		<tag k="place" v="locality" />
		<tag k="ssr:stedsnr" v="694644" />
	</node>
	<node id="-696889" lat="68.4251722247" lon="16.1076999947">
		<tag k="name" v="Skolehaugen" />
		<tag k="natural" v="hill" />
		<tag k="place" v="locality" />
		<tag k="ssr:stedsnr" v="694438" />
	</node>
	<node id="-696880" lat="68.4317361121" lon="16.1135888771">
		<tag k="name" v="Hjellhaugen" />
		<tag k="natural" v="hill" />
		<tag k="place" v="locality" />
		<tag k="ssr:stedsnr" v="694289" />
	</node>
	<node id="-696879" lat="68.4156222208" lon="16.1226388992">
		<tag k="name" v="Krøkebærdalen" />
		<tag k="natural" v="valley" />
		<tag k="place" v="locality" />
		<tag k="ssr:stedsnr" v="694249" />
	</node>
	<node id="-696878" lat="68.3999805576" lon="16.117983342">
		<tag k="name" v="Tøhaugen" />
		<tag k="natural" v="hill" />
		<tag k="place" v="locality" />
		<tag k="ssr:stedsnr" v="694245" />
	</node>
	<node id="-696877" lat="68.4255138932" lon="16.1020611038">
		<tag k="name" v="Pålberget" />
		<tag k="natural" v="hill" />
		<tag k="place" v="locality" />
		<tag k="ssr:stedsnr" v="694243" />
	</node>
	<node id="-696876" lat="68.5334027782" lon="16.422861121">
		<tag k="name" v="Blombakken" />
		<tag k="natural" v="slope" />
		<tag k="place" v="locality" />
		<tag k="ssr:stedsnr" v="693757" />
	</node>
	<node id="-696874" lat="68.5708500043" lon="16.4348333348">
		<tag k="name" v="Munnsletta" />
		<tag k="place" v="locality" />
		<tag k="ssr:stedsnr" v="693711" />
	</node>
	<node id="-696872" lat="68.5359722213" lon="16.4795972131">
		<tag k="name" v="Einhaugen" />
		<tag k="natural" v="hill" />
		<tag k="place" v="locality" />
		<tag k="ssr:stedsnr" v="693705" />
	</node>
	<node id="-696871" lat="68.5229833311" lon="16.2477333393">
		<tag k="name" v="Greguskollen" />
		<tag k="natural" v="hill" />
		<tag k="place" v="locality" />
		<tag k="ssr:stedsnr" v="693494" />
	</node>
	<node id="-696869" lat="68.5344888915" lon="16.2344805532">
		<tag k="name" v="Elveronna" />
		<tag k="natural" v="slope" />
		<tag k="place" v="locality" />
		<tag k="ssr:stedsnr" v="693481" />
	</node>
	<node id="-696866" lat="68.5161055551" lon="16.1938027766">
		<tag k="name" v="Dumpan" />
		<tag k="natural" v="valley" />
		<tag k="place" v="locality" />
		<tag k="ssr:stedsnr" v="693448" />
	</node>
	<node id="-696864" lat="68.4908416708" lon="16.1660194463">
		<tag k="name" v="Eitervågdalen" />
		<tag k="natural" v="valley" />
		<tag k="place" v="locality" />
		<tag k="ssr:stedsnr" v="693070" />
	</node>
	<node id="-696862" lat="68.5496805571" lon="16.3551638931">
		<tag k="name" v="Vedsletta" />
		<tag k="place" v="locality" />
		<tag k="ssr:stedsnr" v="692893" />
	</node>
	<node id="-696860" lat="68.4608388901" lon="16.1367222333">
		<tag k="name" v="Strupen" />
		<tag k="natural" v="valley" />
		<tag k="place" v="locality" />
		<tag k="ssr:stedsnr" v="692703" />
	</node>
	<node id="-696856" lat="68.4512333333" lon="16.1669194353">
		<tag k="name" v="Bukkelia" />
		<tag k="natural" v="slope" />
		<tag k="place" v="locality" />
		<tag k="ssr:stedsnr" v="692632" />
	</node>
	<node id="-696855" lat="68.5710972208" lon="16.1970305505">
		<tag k="name" v="Kvitskredhøgda" />
		<tag k="natural" v="valley" />
		<tag k="place" v="locality" />
		<tag k="ssr:stedsnr" v="692521" />
	</node>
	<node id="-696854" lat="68.5640027743" lon="16.2271527848">
		<tag k="name" v="Storbakkan" />
		<tag k="natural" v="slope" />
		<tag k="place" v="locality" />
		<tag k="ssr:stedsnr" v="692516" />
	</node>
	<node id="-696852" lat="68.5460472213" lon="16.5257250055">
		<tag k="name" v="Kvitfloget" />
		<tag k="natural" v="hill" />
		<tag k="place" v="locality" />
		<tag k="ssr:stedsnr" v="692467" />
	</node>
	<node id="-696850" lat="68.4906888878" lon="16.5262500037">
		<tag k="name" v="Bjørnbakken" />
		<tag k="natural" v="slope" />
		<tag k="place" v="locality" />
		<tag k="ssr:stedsnr" v="692112" />
	</node>
	<node id="-696849" lat="68.4967750021" lon="16.5304027658">
		<tag k="name" v="Tjønnan" />
		<tag k="place" v="locality" />
		<tag k="ssr:stedsnr" v="692113" />
	</node>
	<node id="-696846" lat="68.5522805553" lon="16.3299694501">
		<tag k="name" v="Skytterhågen" />
		<tag k="natural" v="hill" />
		<tag k="place" v="locality" />
		<tag k="ssr:stedsnr" v="692073" />
	</node>
	<node id="-696845" lat="68.5532500016" lon="16.3362638849">
		<tag k="name" v="Revhaugen" />
		<tag k="natural" v="hill" />
		<tag k="place" v="locality" />
		<tag k="ssr:stedsnr" v="692072" />
	</node>
	<node id="-696844" lat="68.6210916623" lon="16.2560555577">
		<tag k="name" v="Kråa" />
		<tag k="natural" v="slope" />
		<tag k="place" v="locality" />
		<tag k="ssr:stedsnr" v="688275" />
	</node>
	<node id="-696843" lat="68.5070249964" lon="16.4208916638">
		<tag k="name" v="Spannbogan" />
		<tag k="natural" v="valley" />
		<tag k="place" v="locality" />
		<tag k="ssr:stedsnr" v="687949" />
	</node>
	<node id="-696838" lat="68.5137999999" lon="16.4325083292">
		<tag k="name" v="Heia" />
		<tag k="natural" v="hill" />
		<tag k="place" v="locality" />
		<tag k="ssr:stedsnr" v="687803" />
	</node>
	<node id="-696836" lat="68.5273027743" lon="16.4127249981">
		<tag k="fixme" v="consider natural=peak for the most distinct mountains in the district" />
		<tag k="name" v="Stokkåsen - Stuhkiidoassa" />
		<tag k="name:no" v="Stokkåsen" />
		<tag k="name:se" v="Stuhkiidoassa" />
		<tag k="natural" v="hill" />
		<tag k="old_name:se" v="Stukkiidoassa" />
		<tag k="place" v="locality" />
		<tag k="ssr:stedsnr" v="687778" />
	</node>
	<node id="-696835" lat="68.579630553" lon="16.4179361143">
		<tag k="alt_name" v="Sanodalen" />
		<tag k="name" v="Sandådalen" />
		<tag k="natural" v="valley" />
		<tag k="place" v="locality" />
		<tag k="ssr:stedsnr" v="687162" />
	</node>
	<node id="-696833" lat="68.5641555525" lon="16.0384527783">
		<tag k="fixme" v="consider natural=peak for the most distinct mountains in the district" />
		<tag k="name" v="Hestfjellet" />
		<tag k="natural" v="hill" />
		<tag k="place" v="locality" />
		<tag k="ssr:stedsnr" v="685851" />
	</node>
	<node id="-696831" lat="68.5961722209" lon="16.1859611177">
		<tag k="fixme" v="consider natural=peak for the most distinct mountains in the district" />
		<tag k="name" v="Tverrfjellet" />
		<tag k="natural" v="hill" />
		<tag k="place" v="locality" />
		<tag k="ssr:stedsnr" v="685813" />
	</node>
	<node id="-696830" lat="68.6065027791" lon="16.1394111196">
		<tag k="fixme" v="consider natural=peak for the most distinct mountains in the district" />
		<tag k="name" v="Rundkollen" />
		<tag k="natural" v="hill" />
		<tag k="place" v="locality" />
		<tag k="ssr:stedsnr" v="685811" />
	</node>
	<node id="-696828" lat="68.5032250002" lon="16.2040722129">
		<tag k="name" v="Andreashøgda" />
		<tag k="natural" v="hill" />
		<tag k="place" v="locality" />
		<tag k="ssr:stedsnr" v="685791" />
	</node>
	<node id="-696827" lat="68.5044444406" lon="16.2065305477">
		<tag k="name" v="Andreasdalen" />
		<tag k="natural" v="valley" />
		<tag k="place" v="locality" />
		<tag k="ssr:stedsnr" v="685788" />
	</node>
	<node id="-696824" lat="68.620758336" lon="16.2085222265">
		<tag k="fixme" v="consider natural=peak for the most distinct mountains in the district" />
		<tag k="name" v="Storsteinfjellet" />
		<tag k="natural" v="hill" />
		<tag k="place" v="locality" />
		<tag k="ssr:stedsnr" v="685341" />
	</node>
	<node id="-696822" lat="68.4146611106" lon="16.2561972092">
		<tag k="name" v="Russhaugklubben" />
		<tag k="natural" v="hill" />
		<tag k="place" v="locality" />
		<tag k="ssr:stedsnr" v="684472" />
	</node>
	<node id="-696818" lat="68.4421750031" lon="16.3993666598">
		<tag k="name" v="Rismåldalshøgda" />
		<tag k="natural" v="hill" />
		<tag k="place" v="locality" />
		<tag k="ssr:stedsnr" v="684431" />
	</node>
	<node id="-696816" lat="68.4744083336" lon="16.5321944359">
		<tag k="alt_name" v="Forahaugen" />
		<tag k="name" v="Forrahaugen" />
		<tag k="natural" v="hill" />
		<tag k="place" v="locality" />
		<tag k="ssr:stedsnr" v="684405" />
	</node>
	<node id="-696808" lat="68.6021194492" lon="16.3071333249">
		<tag k="fixme" v="consider natural=peak for the most distinct mountains in the district" />
		<tag k="name" v="Skitneskartinden" />
		<tag k="natural" v="hill" />
		<tag k="place" v="locality" />
		<tag k="ssr:stedsnr" v="663203" />
	</node>
	<node id="-696805" lat="68.5783694429" lon="16.2256333304">
		<tag k="name" v="Løneset" />
		<tag k="natural" v="slope" />
		<tag k="place" v="locality" />
		<tag k="ssr:stedsnr" v="647944" />
	</node>
	<node id="-696804" lat="68.5790249986" lon="16.2437555517">
		<tag k="name" v="Bærmyroldran" />
		<tag k="natural" v="slope" />
		<tag k="place" v="locality" />
		<tag k="ssr:stedsnr" v="647935" />
	</node>
	<node id="-696797" lat="68.4428583356" lon="16.4376944553">
		<tag k="fixme" v="consider natural=peak for the most distinct mountains in the district" />
		<tag k="name" v="Sørfjellet" />
		<tag k="natural" v="hill" />
		<tag k="place" v="locality" />
		<tag k="ssr:stedsnr" v="633878" />
	</node>
	<node id="-696796" lat="68.4262027797" lon="16.4225805521">
		<tag k="name" v="Mellomvarden" />
		<tag k="natural" v="hill" />
		<tag k="place" v="locality" />
		<tag k="ssr:stedsnr" v="633724" />
	</node>
	<node id="-696795" lat="68.4605916687" lon="16.4149666684">
		<tag k="name" v="Finnelvdalen" />
		<tag k="natural" v="valley" />
		<tag k="place" v="locality" />
		<tag k="ssr:stedsnr" v="633711" />
	</node>
	<node id="-696792" lat="68.4381861144" lon="16.3070222307">
		<tag k="name" v="Jagarholten" />
		<tag k="natural" v="ridge" />
		<tag k="place" v="locality" />
		<tag k="ssr:stedsnr" v="633584" />
	</node>
	<node id="-696791" lat="68.4218111131" lon="16.2983555637">
		<tag k="name" v="Purkholskaret" />
		<tag k="natural" v="hill" />
		<tag k="place" v="locality" />
		<tag k="ssr:stedsnr" v="633583" />
	</node>
	<node id="-696790" lat="68.4375999987" lon="16.2783972122">
		<tag k="name" v="Nituva" />
		<tag k="natural" v="hill" />
		<tag k="place" v="locality" />
		<tag k="ssr:stedsnr" v="633580" />
	</node>
	<node id="-696788" lat="68.3964972192" lon="16.1263972235">
		<tag k="name" v="Gangarhågen" />
		<tag k="natural" v="hill" />
		<tag k="place" v="locality" />
		<tag k="ssr:stedsnr" v="633518" />
	</node>
	<node id="-696782" lat="68.4726305556" lon="16.4574083346">
		<tag k="name" v="Øverlægda" />
		<tag k="place" v="locality" />
		<tag k="ssr:stedsnr" v="633396" />
	</node>
	<node id="-696777" lat="68.4356888905" lon="16.1550333278">
		<tag k="name" v="Dalglugga" />
		<tag k="natural" v="hill" />
		<tag k="place" v="locality" />
		<tag k="ssr:stedsnr" v="633374" />
	</node>
	<node id="-696773" lat="68.4229333294" lon="16.1256055486">
		<tag k="name" v="Blåberget" />
		<tag k="natural" v="hill" />
		<tag k="place" v="locality" />
		<tag k="ssr:stedsnr" v="633356" />
	</node>
	<node id="-696772" lat="68.4389000006" lon="16.1757944407">
		<tag k="name" v="Lappkonrabben" />
		<tag k="place" v="locality" />
		<tag k="ssr:stedsnr" v="633347" />
	</node>
	<node id="-696767" lat="68.512722222" lon="16.4168055479">
		<tag k="name" v="Svatberget" />
		<tag k="natural" v="hill" />
		<tag k="place" v="locality" />
		<tag k="ssr:stedsnr" v="633014" />
	</node>
	<node id="-696766" lat="68.5377555555" lon="16.3840166684">
		<tag k="name" v="Kroken" />
		<tag k="place" v="locality" />
		<tag k="ssr:stedsnr" v="632763" />
	</node>
	<node id="-696765" lat="68.4873499997" lon="16.1672055505">
		<tag k="fixme" v="consider natural=peak for the most distinct mountains in the district" />
		<tag k="name" v="Sprangfloget" />
		<tag k="natural" v="hill" />
		<tag k="place" v="locality" />
		<tag k="ssr:stedsnr" v="632084" />
	</node>
	<node id="-696763" lat="68.4911388881" lon="16.1540861043">
		<tag k="name" v="Ragnvaldhaugen" />
		<tag k="natural" v="hill" />
		<tag k="place" v="locality" />
		<tag k="ssr:stedsnr" v="632016" />
	</node>
	<node id="-696760" lat="68.5688805517" lon="16.200508329">
		<tag k="name" v="Finngamaksla" />
		<tag k="natural" v="hill" />
		<tag k="place" v="locality" />
		<tag k="ssr:stedsnr" v="631545" />
	</node>
	<node id="-696758" lat="68.5697666693" lon="16.2406888932">
		<tag k="name" v="Stiggelia" />
		<tag k="natural" v="slope" />
		<tag k="place" v="locality" />
		<tag k="ssr:stedsnr" v="631530" />
	</node>
	<node id="-696753" lat="68.5465388883" lon="16.5368111118">
		<tag k="fixme" v="consider natural=peak for the most distinct mountains in the district" />
		<tag k="name" v="Ramnfloget" />
		<tag k="natural" v="hill" />
		<tag k="place" v="locality" />
		<tag k="ssr:stedsnr" v="631480" />
	</node>
	<node id="-696752" lat="68.5134166702" lon="16.4796889011">
		<tag k="name" v="Rambødalen" />
		<tag k="natural" v="valley" />
		<tag k="place" v="locality" />
		<tag k="ssr:stedsnr" v="631190" />
	</node>
	<node id="-696747" lat="68.5532916623" lon="16.3573583424">
		<tag k="name" v="Dalbakkan" />
		<tag k="natural" v="slope" />
		<tag k="place" v="locality" />
		<tag k="ssr:stedsnr" v="631089" />
	</node>
	<node id="-696745" lat="68.4852750038" lon="16.5359111123">
		<tag k="name" v="Oldervikhalsen" />
		<tag k="natural" v="valley" />
		<tag k="place" v="locality" />
		<tag k="ssr:stedsnr" v="631009" />
	</node>
	<node id="-696741" lat="68.4502833331" lon="16.1423416765">
		<tag k="name" v="Vegan" />
		<tag k="place" v="locality" />
		<tag k="ssr:stedsnr" v="630621" />
	</node>
	<node id="-696732" lat="68.5275638879" lon="16.4340888886">
		<tag k="name" v="Svartbergan" />
		<tag k="natural" v="hill" />
		<tag k="place" v="locality" />
		<tag k="ssr:stedsnr" v="626796" />
	</node>
	<node id="-696728" lat="68.5731444434" lon="16.1990833204">
		<tag k="name" v="Kvitskredhola" />
		<tag k="natural" v="valley" />
		<tag k="place" v="locality" />
		<tag k="ssr:stedsnr" v="624832" />
	</node>
	<node id="-696724" lat="68.4284972219" lon="16.3809666675">
		<tag k="fixme" v="consider natural=peak for the most distinct mountains in the district" />
		<tag k="name" v="Kildstadfjellet" />
		<tag k="natural" v="hill" />
		<tag k="place" v="locality" />
		<tag k="ssr:stedsnr" v="623506" />
	</node>
	<node id="-696719" lat="68.4508277753" lon="16.2671833276">
		<tag k="name" v="Kjerfjordhøgda" />
		<tag k="natural" v="hill" />
		<tag k="place" v="locality" />
		<tag k="ssr:stedsnr" v="623452" />
	</node>
	<node id="-696718" lat="68.4760083375" lon="16.5515777713">
		<tag k="fixme" v="consider natural=peak for the most distinct mountains in the district" />
		<tag k="name" v="Laslettfjellet" />
		<tag k="natural" v="hill" />
		<tag k="place" v="locality" />
		<tag k="ssr:stedsnr" v="623442" />
	</node>
	<node id="-696717" lat="68.4804972247" lon="16.4222861116">
		<tag k="fixme" v="consider natural=peak for the most distinct mountains in the district" />
		<tag k="loc_name:se" v="Giričohkka" />
		<tag k="name" v="Siriskolten" />
		<tag k="name:no" v="Siriskolten" />
		<tag k="natural" v="hill" />
		<tag k="place" v="locality" />
		<tag k="ssr:stedsnr" v="623430" />
	</node>
	<node id="-696713" lat="68.5580388856" lon="16.0948861171">
		<tag k="name" v="Nymoen" />
		<tag k="place" v="locality" />
		<tag k="ssr:stedsnr" v="585902" />
	</node>
	<node id="-696711" lat="68.5750138874" lon="16.3775944405">
		<tag k="name" v="Blåberget" />
		<tag k="natural" v="hill" />
		<tag k="place" v="locality" />
		<tag k="ssr:stedsnr" v="585846" />
	</node>
	<node id="-696710" lat="68.5425361084" lon="16.1357333397">
		<tag k="name" v="Flaskeforet" />
		<tag k="place" v="locality" />
		<tag k="ssr:stedsnr" v="575643" />
	</node>
	<node id="-696706" lat="68.4304861077" lon="16.3530749986">
		<tag k="name" v="Bjørkene" />
		<tag k="place" v="locality" />
		<tag k="ssr:stedsnr" v="573730" />
	</node>
	<node id="-696704" lat="68.4299555538" lon="16.3638333327">
		<tag k="name" v="Hopasletta" />
		<tag k="place" v="locality" />
		<tag k="ssr:stedsnr" v="573726" />
	</node>
	<node id="-696703" lat="68.4194555597" lon="16.1279166735">
		<tag k="name" v="Hundberghola" />
		<tag k="natural" v="valley" />
		<tag k="place" v="locality" />
		<tag k="ssr:stedsnr" v="573651" />
	</node>
	<node id="-696702" lat="68.4558194434" lon="16.4208972286">
		<tag k="name" v="Humpdalkilda" />
		<tag k="place" v="locality" />
		<tag k="ssr:stedsnr" v="573644" />
	</node>
	<node id="-696700" lat="68.4530305582" lon="16.4384750103">
		<tag k="name" v="Skittendalen" />
		<tag k="natural" v="valley" />
		<tag k="place" v="locality" />
		<tag k="ssr:stedsnr" v="573628" />
	</node>
	<node id="-696696" lat="68.4257638913" lon="16.29023888">
		<tag k="name" v="Fingerborhola" />
		<tag k="natural" v="valley" />
		<tag k="place" v="locality" />
		<tag k="ssr:stedsnr" v="573551" />
	</node>
	<node id="-696695" lat="68.590830552" lon="16.3282305576">
		<tag k="name" v="Skjettenskaret" />
		<tag k="natural" v="valley" />
		<tag k="place" v="locality" />
		<tag k="ssr:stedsnr" v="573501" />
	</node>
	<node id="-696693" lat="68.4217611146" lon="16.1747499944">
		<tag k="name" v="Vassbakkan" />
		<tag k="natural" v="slope" />
		<tag k="place" v="locality" />
		<tag k="ssr:stedsnr" v="573445" />
	</node>
	<node id="-696692" lat="68.4232166711" lon="16.1630111042">
		<tag k="name" v="Forhaugen" />
		<tag k="natural" v="hill" />
		<tag k="place" v="locality" />
		<tag k="ssr:stedsnr" v="573443" />
	</node>
	<node id="-696691" lat="68.3964749987" lon="16.1374194461">
		<tag k="name" v="Oddegåtta" />
		<tag k="natural" v="valley" />
		<tag k="place" v="locality" />
		<tag k="ssr:stedsnr" v="573394" />
	</node>
	<node id="-696689" lat="68.4115805532" lon="16.2305055454">
		<tag k="name" v="Brattberget" />
		<tag k="natural" v="hill" />
		<tag k="place" v="locality" />
		<tag k="ssr:stedsnr" v="573388" />
	</node>
	<node id="-696688" lat="68.4149805515" lon="16.2522972251">
		<tag k="name" v="Russhaugen" />
		<tag k="natural" v="hill" />
		<tag k="place" v="locality" />
		<tag k="ssr:stedsnr" v="573377" />
	</node>
	<node id="-696687" lat="68.4251555535" lon="16.1394666719">
		<tag k="name" v="Mosehaugen" />
		<tag k="natural" v="hill" />
		<tag k="place" v="locality" />
		<tag k="ssr:stedsnr" v="573360" />
	</node>
	<node id="-696677" lat="68.4126305526" lon="16.1473777786">
		<tag k="name" v="Lomhaugan" />
		<tag k="natural" v="hill" />
		<tag k="place" v="locality" />
		<tag k="ssr:stedsnr" v="573284" />
	</node>
	<node id="-696674" lat="68.4291694481" lon="16.4317277774">
		<tag k="name" v="Rismålsskaret" />
		<tag k="natural" v="hill" />
		<tag k="place" v="locality" />
		<tag k="ssr:stedsnr" v="572695" />
	</node>
	<node id="-696672" lat="68.5655138845" lon="16.2934861144">
		<tag k="name" v="Buhågen" />
		<tag k="natural" v="hill" />
		<tag k="place" v="locality" />
		<tag k="ssr:stedsnr" v="572120" />
	</node>
	<node id="-696671" lat="68.5511277754" lon="16.3050611066">
		<tag k="name" v="Straumshågen" />
		<tag k="natural" v="hill" />
		<tag k="place" v="locality" />
		<tag k="ssr:stedsnr" v="572113" />
	</node>
	<node id="-696670" lat="68.5624499977" lon="16.2721694358">
		<tag k="fixme" v="consider natural=peak for the most distinct mountains in the district" />
		<tag k="name" v="Gullåsen" />
		<tag k="natural" v="hill" />
		<tag k="place" v="locality" />
		<tag k="ssr:stedsnr" v="572083" />
	</node>
	<node id="-696659" lat="68.5341916655" lon="16.4665361073">
		<tag k="name" v="Hammaren" />
		<tag k="natural" v="hill" />
		<tag k="place" v="locality" />
		<tag k="ssr:stedsnr" v="571642" />
	</node>
	<node id="-696657" lat="68.5449333304" lon="16.2528861183">
		<tag k="name" v="Skjurikellen" />
		<tag k="natural" v="hill" />
		<tag k="place" v="locality" />
		<tag k="ssr:stedsnr" v="571555" />
	</node>
	<node id="-696656" lat="68.5440638919" lon="16.5122416787">
		<tag k="name" v="Olahallen" />
		<tag k="place" v="locality" />
		<tag k="ssr:stedsnr" v="571519" />
	</node>
	<node id="-696655" lat="68.5444777787" lon="16.5173027684">
		<tag k="name" v="Knausen" />
		<tag k="natural" v="hill" />
		<tag k="place" v="locality" />
		<tag k="ssr:stedsnr" v="571517" />
	</node>
	<node id="-696652" lat="68.586186114" lon="16.1837638974">
		<tag k="fixme" v="consider natural=peak for the most distinct mountains in the district" />
		<tag k="name" v="Rødrapet" />
		<tag k="natural" v="hill" />
		<tag k="place" v="locality" />
		<tag k="ssr:stedsnr" v="571030" />
	</node>
	<node id="-696651" lat="68.4816138915" lon="16.5381416756">
		<tag k="name" v="Kjerringfloget" />
		<tag k="natural" v="hill" />
		<tag k="place" v="locality" />
		<tag k="ssr:stedsnr" v="571009" />
	</node>
	<node id="-696650" lat="68.4881722245" lon="16.1484444485">
		<tag k="name" v="Rebekkahaugen" />
		<tag k="natural" v="hill" />
		<tag k="place" v="locality" />
		<tag k="ssr:stedsnr" v="571001" />
	</node>
	<node id="-696649" lat="68.5491166673" lon="16.3526555489">
		<tag k="fixme" v="consider natural=peak for the most distinct mountains in the district" />
		<tag k="name" v="Kjerrmyråsen" />
		<tag k="natural" v="hill" />
		<tag k="place" v="locality" />
		<tag k="ssr:stedsnr" v="570878" />
	</node>
	<node id="-696647" lat="68.5473499968" lon="16.3118944335">
		<tag k="name" v="Høglia" />
		<tag k="natural" v="slope" />
		<tag k="place" v="locality" />
		<tag k="ssr:stedsnr" v="570870" />
	</node>
	<node id="-696646" lat="68.5458805575" lon="16.2812944426">
		<tag k="name" v="Storsteinlia" />
		<tag k="natural" v="slope" />
		<tag k="place" v="locality" />
		<tag k="ssr:stedsnr" v="570861" />
	</node>
	<node id="-696642" lat="68.458316664" lon="16.1247305464">
		<tag k="name" v="Rebekkaberget" />
		<tag k="natural" v="hill" />
		<tag k="place" v="locality" />
		<tag k="ssr:stedsnr" v="570658" />
	</node>
	<node id="-696641" lat="68.4515083298" lon="16.1418388818">
		<tag k="name" v="Lappskaret" />
		<tag k="natural" v="valley" />
		<tag k="place" v="locality" />
		<tag k="ssr:stedsnr" v="570641" />
	</node>
	<node id="-696639" lat="68.4769055515" lon="16.1781611048">
		<tag k="fixme" v="consider natural=peak for the most distinct mountains in the district" />
		<tag k="name" v="Tortentoppen" />
		<tag k="natural" v="hill" />
		<tag k="ssr:stedsnr" v="570481" />
	</node>
	<node id="-696638" lat="68.480933335" lon="16.159694441">
		<tag k="name" v="Høgda" />
		<tag k="natural" v="hill" />
		<tag k="place" v="locality" />
		<tag k="ssr:stedsnr" v="570402" />
	</node>
	<node id="-696635" lat="68.5553749967" lon="16.3389583285">
		<tag k="name" v="Osberget" />
		<tag k="natural" v="hill" />
		<tag k="place" v="locality" />
		<tag k="ssr:stedsnr" v="570065" />
	</node>
	<node id="-696632" lat="68.5389944409" lon="16.30849167">
		<tag k="alt_name" v="Storfordalen" />
		<tag k="name" v="Storforrdalen" />
		<tag k="natural" v="valley" />
		<tag k="place" v="locality" />
		<tag k="ssr:stedsnr" v="566759" />
	</node>
	<node id="-696631" lat="68.5801166686" lon="16.3199222128">
		<tag k="name" v="Lábavággi" />
		<tag k="name:se" v="Lábavággi" />
		<tag k="natural" v="valley" />
		<tag k="old_name:se" v="Labavaggi" />
		<tag k="place" v="locality" />
		<tag k="ssr:stedsnr" v="566179" />
	</node>
	<node id="-696630" lat="68.5738500009" lon="16.4110833437">
		<tag k="name" v="Mobakkan" />
		<tag k="natural" v="slope" />
		<tag k="place" v="locality" />
		<tag k="ssr:stedsnr" v="566154" />
	</node>
	<node id="-696627" lat="68.5179583369" lon="16.281750006">
		<tag k="fixme" v="consider natural=peak for the most distinct mountains in the district" />
		<tag k="name" v="Tolvtuva" />
		<tag k="natural" v="hill" />
		<tag k="place" v="locality" />
		<tag k="ssr:stedsnr" v="565806" />
	</node>
	<node id="-696625" lat="68.5374000005" lon="16.5280638962">
		<tag k="name" v="Helldalen" />
		<tag k="natural" v="valley" />
		<tag k="place" v="locality" />
		<tag k="ssr:stedsnr" v="565783" />
	</node>
	<node id="-696616" lat="68.4352527756" lon="16.2461249928">
		<tag k="fixme" v="consider natural=peak for the most distinct mountains in the district" />
		<tag k="name" v="Raudurdtinden" />
		<tag k="natural" v="hill" />
		<tag k="place" v="locality" />
		<tag k="ssr:stedsnr" v="563470" />
	</node>
	<node id="-696615" lat="68.3921055522" lon="16.1674611088">
		<tag k="fixme" v="consider natural=peak for the most distinct mountains in the district" />
		<tag k="name" v="Ramnflogan" />
		<tag k="natural" v="hill" />
		<tag k="place" v="locality" />
		<tag k="ssr:stedsnr" v="563294" />
	</node>
	<node id="-696611" lat="68.4540611147" lon="16.5532777715">
		<tag k="name" v="Mellomdalen" />
		<tag k="natural" v="valley" />
		<tag k="place" v="locality" />
		<tag k="ssr:stedsnr" v="562468" />
	</node>
	<node id="-696606" lat="68.4925416639" lon="16.4202388839">
		<tag k="name" v="Spannbogdalen" />
		<tag k="natural" v="valley" />
		<tag k="place" v="locality" />
		<tag k="ssr:stedsnr" v="562359" />
	</node>
	<node id="-696605" lat="68.428308332" lon="16.153163876">
		<tag k="fixme" v="consider natural=peak for the most distinct mountains in the district" />
		<tag k="name" v="Vågeaksla" />
		<tag k="natural" v="hill" />
		<tag k="place" v="locality" />
		<tag k="ssr:stedsnr" v="562202" />
	</node>
	<node id="-696602" lat="68.5771305518" lon="16.194600009">
		<tag k="name" v="Kvitskreden" />
		<tag k="natural" v="slope" />
		<tag k="place" v="locality" />
		<tag k="ssr:stedsnr" v="526949" />
	</node>
	<node id="-696601" lat="68.5783611074" lon="16.2169222118">
		<tag k="name" v="Remelåshøgda" />
		<tag k="natural" v="hill" />
		<tag k="place" v="locality" />
		<tag k="ssr:stedsnr" v="526944" />
	</node>
	<node id="-696600" lat="68.5741416626" lon="16.250499997">
		<tag k="name" v="Smukken" />
		<tag k="natural" v="slope" />
		<tag k="place" v="locality" />
		<tag k="ssr:stedsnr" v="526941" />
	</node>
	<node id="-696599" lat="68.5709972228" lon="16.1198999877">
		<tag k="fixme" v="consider natural=peak for the most distinct mountains in the district" />
		<tag k="name" v="Kråfjellet" />
		<tag k="natural" v="hill" />
		<tag k="place" v="locality" />
		<tag k="ssr:stedsnr" v="526936" />
	</node>
	<node id="-696598" lat="68.5395250013" lon="16.1682333411">
		<tag k="name" v="Lemmen" />
		<tag k="natural" v="ridge" />
		<tag k="place" v="locality" />
		<tag k="ssr:stedsnr" v="524907" />
	</node>
	<node id="-696594" lat="68.5376194459" lon="16.407177766">
		<tag k="name" v="Smålibakken" />
		<tag k="natural" v="slope" />
		<tag k="place" v="locality" />
		<tag k="ssr:stedsnr" v="512832" />
	</node>
	<node id="-696590" lat="68.4101250044" lon="16.0991611058">
		<tag k="name" v="Øyvikhaugan" />
		<tag k="natural" v="hill" />
		<tag k="place" v="locality" />
		<tag k="ssr:stedsnr" v="512678" />
	</node>
	<node id="-696589" lat="68.4281222215" lon="16.4130638892">
		<tag k="name" v="Bergenden" />
		<tag k="natural" v="hill" />
		<tag k="place" v="locality" />
		<tag k="ssr:stedsnr" v="512588" />
	</node>
	<node id="-696588" lat="68.427633337" lon="16.3330916758">
		<tag k="name" v="Kaushaugen" />
		<tag k="natural" v="hill" />
		<tag k="place" v="locality" />
		<tag k="ssr:stedsnr" v="512533" />
	</node>
	<node id="-696587" lat="68.393677775" lon="16.1064222318">
		<tag k="name" v="Litjenesklubben" />
		<tag k="natural" v="hill" />
		<tag k="place" v="locality" />
		<tag k="ssr:stedsnr" v="512517" />
	</node>
	<node id="-696582" lat="68.3964888887" lon="16.1290027664">
		<tag k="name" v="Dukhaugen" />
		<tag k="natural" v="hill" />
		<tag k="place" v="locality" />
		<tag k="ssr:stedsnr" v="512481" />
	</node>
	<node id="-696581" lat="68.3924555591" lon="16.1329555484">
		<tag k="name" v="Melkevikheia" />
		<tag k="natural" v="hill" />
		<tag k="place" v="locality" />
		<tag k="ssr:stedsnr" v="512479" />
	</node>
	<node id="-696579" lat="68.4930555536" lon="16.4650083419">
		<tag k="fixme" v="consider natural=peak for the most distinct mountains in the district" />
		<tag k="name" v="Slåttnesfjellet" />
		<tag k="natural" v="hill" />
		<tag k="place" v="locality" />
		<tag k="ssr:stedsnr" v="512382" />
	</node>
	<node id="-696578" lat="68.4685916683" lon="16.4521666687">
		<tag k="name" v="Nerlægda" />
		<tag k="place" v="locality" />
		<tag k="ssr:stedsnr" v="512374" />
	</node>
	<node id="-696576" lat="68.4681916664" lon="16.5096472272">
		<tag k="name" v="Litjehågen" />
		<tag k="natural" v="hill" />
		<tag k="place" v="locality" />
		<tag k="ssr:stedsnr" v="512367" />
	</node>
	<node id="-696575" lat="68.4674916708" lon="16.5047055559">
		<tag k="name" v="Ørnhågen" />
		<tag k="natural" v="hill" />
		<tag k="place" v="locality" />
		<tag k="ssr:stedsnr" v="512365" />
	</node>
	<node id="-696572" lat="68.4808472243" lon="16.495369453">
		<tag k="name" v="Lorentshøggan" />
		<tag k="place" v="locality" />
		<tag k="ssr:stedsnr" v="512346" />
	</node>
	<node id="-696565" lat="68.566383333" lon="16.2763527751">
		<tag k="name" v="Karihågen" />
		<tag k="natural" v="hill" />
		<tag k="place" v="locality" />
		<tag k="ssr:stedsnr" v="512068" />
	</node>
	<node id="-696564" lat="68.5264750009" lon="16.4301972332">
		<tag k="name" v="Ytterfloget" />
		<tag k="natural" v="hill" />
		<tag k="place" v="locality" />
		<tag k="ssr:stedsnr" v="512014" />
	</node>
	<node id="-696563" lat="68.5207694458" lon="16.4488555517">
		<tag k="name" v="Alterbakkan" />
		<tag k="natural" v="slope" />
		<tag k="place" v="locality" />
		<tag k="ssr:stedsnr" v="512001" />
	</node>
	<node id="-696561" lat="68.4866666643" lon="16.1752638799">
		<tag k="name" v="Dalhøgda" />
		<tag k="natural" v="hill" />
		<tag k="place" v="locality" />
		<tag k="ssr:stedsnr" v="511039" />
	</node>
	<node id="-696560" lat="68.4955027792" lon="16.1513055648">
		<tag k="name" v="Jegersberg" />
		<tag k="natural" v="hill" />
		<tag k="place" v="locality" />
		<tag k="ssr:stedsnr" v="511012" />
	</node>
	<node id="-696556" lat="68.5315888853" lon="16.2717472152">
		<tag k="name" v="Tverrbakkan" />
		<tag k="natural" v="slope" />
		<tag k="place" v="locality" />
		<tag k="ssr:stedsnr" v="510914" />
	</node>
	<node id="-696555" lat="68.5226416662" lon="16.2718888901">
		<tag k="name" v="Tverrbakkan" />
		<tag k="natural" v="slope" />
		<tag k="place" v="locality" />
		<tag k="ssr:stedsnr" v="510905" />
	</node>
	<node id="-696554" lat="68.5327555553" lon="16.4724611114">
		<tag k="name" v="Vedjehaugen" />
		<tag k="natural" v="hill" />
		<tag k="place" v="locality" />
		<tag k="ssr:stedsnr" v="510709" />
	</node>
	<node id="-696552" lat="68.5570888877" lon="16.1913611091">
		<tag k="name" v="Mølnskarhola" />
		<tag k="natural" v="valley" />
		<tag k="place" v="locality" />
		<tag k="ssr:stedsnr" v="510562" />
	</node>
	<node id="-696551" lat="68.5625611087" lon="16.2123916712">
		<tag k="fixme" v="consider natural=peak for the most distinct mountains in the district" />
		<tag k="name" v="Ørntuva" />
		<tag k="natural" v="hill" />
		<tag k="place" v="locality" />
		<tag k="ssr:stedsnr" v="510559" />
	</node>
	<node id="-696550" lat="68.5716277785" lon="16.2309749943">
		<tag k="name" v="Tverrholten" />
		<tag k="natural" v="ridge" />
		<tag k="place" v="locality" />
		<tag k="ssr:stedsnr" v="510551" />
	</node>
	<node id="-696544" lat="68.5710805517" lon="16.3493861211">
		<tag k="name" v="Remmelen" />
		<tag k="natural" v="hill" />
		<tag k="place" v="locality" />
		<tag k="ssr:stedsnr" v="510095" />
	</node>
	<node id="-696543" lat="68.5242472188" lon="16.4187666525">
		<tag k="name" v="Kvannmyrbakkan" />
		<tag k="natural" v="slope" />
		<tag k="place" v="locality" />
		<tag k="ssr:stedsnr" v="510009" />
	</node>
	<node id="-696542" lat="68.5407166687" lon="16.1397083293">
		<tag k="name" v="Sørlihammaren" />
		<tag k="natural" v="hill" />
		<tag k="place" v="locality" />
		<tag k="ssr:stedsnr" v="509714" />
	</node>
	<node id="-696539" lat="68.4536664903" lon="16.1465764831">
		<tag k="fixme" v="consider natural=peak for the most distinct mountains in the district" />
		<tag k="name" v="Ramnfloget" />
		<tag k="natural" v="hill" />
		<tag k="place" v="locality" />
		<tag k="ssr:stedsnr" v="509655" />
	</node>
	<node id="-696538" lat="68.4434361103" lon="16.1448333293">
		<tag k="name" v="Sandbakkhaugen" />
		<tag k="natural" v="hill" />
		<tag k="place" v="locality" />
		<tag k="ssr:stedsnr" v="509645" />
	</node>
	<node id="-696527" lat="68.516655557" lon="16.5558666629">
		<tag k="fixme" v="consider natural=peak for the most distinct mountains in the district" />
		<tag k="name" v="Tverråsen" />
		<tag k="natural" v="hill" />
		<tag k="place" v="locality" />
		<tag k="ssr:stedsnr" v="505808" />
	</node>
	<node id="-696525" lat="68.5340222233" lon="16.5034722124">
		<tag k="name" v="Munndalen" />
		<tag k="natural" v="valley" />
		<tag k="place" v="locality" />
		<tag k="ssr:stedsnr" v="505774" />
	</node>
	<node id="-696524" lat="68.5849527743" lon="16.3034111166">
		<tag k="name" v="Håkadalen" />
		<tag k="natural" v="valley" />
		<tag k="place" v="locality" />
		<tag k="ssr:stedsnr" v="505186" />
	</node>
	<node id="-696522" lat="68.5861583367" lon="16.1901861147">
		<tag k="name" v="Raudrapen" />
		<tag k="natural" v="slope" />
		<tag k="place" v="locality" />
		<tag k="ssr:stedsnr" v="503792" />
	</node>
	<node id="-696517" lat="68.5574972232" lon="16.1238861011">
		<tag k="fixme" v="multiple name tags, choose one and add the other to alt_name; consider natural=peak for the most distinct mountains in the district" />
		<tag k="name" v="Tuva;Åsen" />
		<tag k="natural" v="hill" />
		<tag k="place" v="locality" />
		<tag k="ssr:stedsnr" v="502871" />
	</node>
	<node id="-696512" lat="68.4781999983" lon="16.3958722331">
		<tag k="name" v="Siriskoltdalen" />
		<tag k="natural" v="valley" />
		<tag k="place" v="locality" />
		<tag k="ssr:stedsnr" v="502422" />
	</node>
	<node id="-696508" lat="68.4942472245" lon="16.3139750117">
		<tag k="fixme" v="consider natural=peak for the most distinct mountains in the district" />
		<tag k="name" v="Stampen" />
		<tag k="natural" v="hill" />
		<tag k="place" v="locality" />
		<tag k="ssr:stedsnr" v="502367" />
	</node>
	<node id="-696507" lat="68.3879888883" lon="16.1372722151">
		<tag k="name" v="Oddhella" />
		<tag k="natural" v="hill" />
		<tag k="place" v="locality" />
		<tag k="ssr:stedsnr" v="502269" />
	</node>
	<node id="-696501" lat="68.5724222185" lon="16.2441000074">
		<tag k="fixme" v="consider natural=peak for the most distinct mountains in the district" />
		<tag k="name" v="Stiggelikollen" />
		<tag k="natural" v="hill" />
		<tag k="place" v="locality" />
		<tag k="ssr:stedsnr" v="465933" />
	</node>
	<node id="-696500" lat="68.5550000008" lon="16.1152305604">
		<tag k="name" v="Langbakkan" />
		<tag k="natural" v="slope" />
		<tag k="place" v="locality" />
		<tag k="ssr:stedsnr" v="465837" />
	</node>
	<node id="-696499" lat="68.5570444485" lon="16.1177583442">
		<tag k="name" v="Storlihaugen" />
		<tag k="natural" v="hill" />
		<tag k="place" v="locality" />
		<tag k="ssr:stedsnr" v="465833" />
	</node>
	<node id="-696495" lat="68.5372194489" lon="16.1395555504">
		<tag k="name" v="Innerlia" />
		<tag k="natural" v="slope" />
		<tag k="place" v="locality" />
		<tag k="ssr:stedsnr" v="455641" />
	</node>
	<node id="-696490" lat="68.429047224" lon="16.3655111129">
		<tag k="name" v="Mønskanakken" />
		<tag k="natural" v="hill" />
		<tag k="place" v="locality" />
		<tag k="ssr:stedsnr" v="452725" />
	</node>
	<node id="-696488" lat="68.4222944419" lon="16.3736305486">
		<tag k="name" v="Knutsberget" />
		<tag k="natural" v="hill" />
		<tag k="place" v="locality" />
		<tag k="ssr:stedsnr" v="452712" />
	</node>
	<node id="-696487" lat="68.4350305533" lon="16.4407500061">
		<tag k="name" v="Hallardalen" />
		<tag k="natural" v="valley" />
		<tag k="place" v="locality" />
		<tag k="ssr:stedsnr" v="452706" />
	</node>
	<node id="-696486" lat="68.4284777764" lon="16.4180999879">
		<tag k="name" v="Einbakken" />
		<tag k="natural" v="slope" />
		<tag k="place" v="locality" />
		<tag k="ssr:stedsnr" v="452701" />
	</node>
	<node id="-696483" lat="68.4133972237" lon="16.1105638987">
		<tag k="name" v="Skittenosbakkan" />
		<tag k="natural" v="slope" />
		<tag k="place" v="locality" />
		<tag k="ssr:stedsnr" v="452669" />
	</node>
	<node id="-696482" lat="68.4113083354" lon="16.1286749927">
		<tag k="name" v="Dalsbøen" />
		<tag k="place" v="locality" />
		<tag k="ssr:stedsnr" v="452666" />
	</node>
	<node id="-696480" lat="68.4185722199" lon="16.09974445">
		<tag k="name" v="Vardhaugan" />
		<tag k="natural" v="hill" />
		<tag k="place" v="locality" />
		<tag k="ssr:stedsnr" v="452654" />
	</node>
	<node id="-696478" lat="68.430241666" lon="16.319480558">
		<tag k="name" v="Bjørneberget" />
		<tag k="natural" v="hill" />
		<tag k="place" v="locality" />
		<tag k="ssr:stedsnr" v="452569" />
	</node>
	<node id="-696476" lat="68.3914583367" lon="16.1288305621">
		<tag k="name" v="Monvikhaugen" />
		<tag k="natural" v="hill" />
		<tag k="place" v="locality" />
		<tag k="ssr:stedsnr" v="452509" />
	</node>
	<node id="-696472" lat="68.4183972208" lon="16.2519083396">
		<tag k="name" v="Mælen" />
		<tag k="place" v="locality" />
		<tag k="ssr:stedsnr" v="452402" />
	</node>
	<node id="-696470" lat="68.4283638905" lon="16.1411138773">
		<tag k="name" v="Åkloskaret" />
		<tag k="natural" v="hill" />
		<tag k="place" v="locality" />
		<tag k="ssr:stedsnr" v="452380" />
	</node>
	<node id="-696469" lat="68.4682861141" lon="16.4885861011">
		<tag k="name" v="Gammelgjerdet" />
		<tag k="place" v="locality" />
		<tag k="ssr:stedsnr" v="452373" />
	</node>
	<node id="-696468" lat="68.4700083297" lon="16.5117666574">
		<tag k="name" v="Brynnhågen" />
		<tag k="natural" v="hill" />
		<tag k="place" v="locality" />
		<tag k="ssr:stedsnr" v="452362" />
	</node>
	<node id="-696467" lat="68.4291555559" lon="16.1296611076">
		<tag k="name" v="Vågesalta" />
		<tag k="place" v="locality" />
		<tag k="ssr:stedsnr" v="452350" />
	</node>
	<node id="-696466" lat="68.4321111074" lon="16.1326805657">
		<tag k="name" v="Damkjerran" />
		<tag k="place" v="locality" />
		<tag k="ssr:stedsnr" v="452346" />
	</node>
	<node id="-696462" lat="68.5125249999" lon="16.4395277783">
		<tag k="name" v="Tverrnova" />
		<tag k="natural" v="ridge" />
		<tag k="place" v="locality" />
		<tag k="ssr:stedsnr" v="451012" />
	</node>
	<node id="-696461" lat="68.5459027737" lon="16.3079388971">
		<tag k="name" v="Havbakkan" />
		<tag k="natural" v="slope" />
		<tag k="place" v="locality" />
		<tag k="ssr:stedsnr" v="450897" />
	</node>
	<node id="-696460" lat="68.5316555525" lon="16.3914944357">
		<tag k="name" v="Neset" />
		<tag k="place" v="locality" />
		<tag k="ssr:stedsnr" v="450780" />
	</node>
	<node id="-696459" lat="68.53648056" lon="16.4751333225">
		<tag k="name" v="Middagshaugen" />
		<tag k="natural" v="hill" />
		<tag k="place" v="locality" />
		<tag k="ssr:stedsnr" v="450699" />
	</node>
	<node id="-696458" lat="68.5239722238" lon="16.4951666719">
		<tag k="name" v="Sørtuvskaret" />
		<tag k="natural" v="valley" />
		<tag k="place" v="locality" />
		<tag k="ssr:stedsnr" v="450698" />
	</node>
	<node id="-696454" lat="68.4847361136" lon="16.1683638857">
		<tag k="fixme" v="consider natural=peak for the most distinct mountains in the district" />
		<tag k="name" v="Vasstindfjellet" />
		<tag k="natural" v="hill" />
		<tag k="place" v="locality" />
		<tag k="ssr:stedsnr" v="450572" />
	</node>
	<node id="-696452" lat="68.5038833353" lon="16.4943083218">
		<tag k="name" v="Storhammaren" />
		<tag k="natural" v="hill" />
		<tag k="place" v="locality" />
		<tag k="ssr:stedsnr" v="450103" />
	</node>
	<node id="-696451" lat="68.5242944454" lon="16.5251055467">
		<tag k="name" v="Kvannsletten" />
		<tag k="place" v="locality" />
		<tag k="ssr:stedsnr" v="450098" />
	</node>
	<node id="-696450" lat="68.4955499974" lon="16.5576694357">
		<tag k="name" v="Reingjerdan" />
		<tag k="natural" v="hill" />
		<tag k="place" v="locality" />
		<tag k="ssr:stedsnr" v="450091" />
	</node>
	<node id="-696449" lat="68.4940750005" lon="16.5380222264">
		<tag k="name" v="Rødholten" />
		<tag k="natural" v="hill" />
		<tag k="place" v="locality" />
		<tag k="ssr:stedsnr" v="450089" />
	</node>
	<node id="-696448" lat="68.4523444427" lon="16.1324444446">
		<tag k="name" v="Moshaugen" />
		<tag k="natural" v="hill" />
		<tag k="place" v="locality" />
		<tag k="ssr:stedsnr" v="449691" />
	</node>
	<node id="-696447" lat="68.4527972242" lon="16.1272333272">
		<tag k="name" v="Blåbærskaret" />
		<tag k="natural" v="valley" />
		<tag k="place" v="locality" />
		<tag k="ssr:stedsnr" v="449687" />
	</node>
	<node id="-696446" lat="68.4558083354" lon="16.1411361121">
		<tag k="name" v="Skoghola" />
		<tag k="natural" v="valley" />
		<tag k="place" v="locality" />
		<tag k="ssr:stedsnr" v="449665" />
	</node>
	<node id="-696444" lat="68.4518666633" lon="16.1640694456">
		<tag k="name" v="Olslia" />
		<tag k="natural" v="slope" />
		<tag k="place" v="locality" />
		<tag k="ssr:stedsnr" v="449636" />
	</node>
	<node id="-696440" lat="68.5722805583" lon="16.3864277872">
		<tag k="name" v="Rishågen" />
		<tag k="natural" v="hill" />
		<tag k="place" v="locality" />
		<tag k="ssr:stedsnr" v="449084" />
	</node>
	<node id="-696439" lat="68.513916671" lon="16.492958324">
		<tag k="fixme" v="consider natural=peak for the most distinct mountains in the district" />
		<tag k="name" v="Rambøheia" />
		<tag k="natural" v="hill" />
		<tag k="place" v="locality" />
		<tag k="ssr:stedsnr" v="445952" />
	</node>
	<node id="-696430" lat="68.5864055562" lon="16.2184860991">
		<tag k="fixme" v="consider natural=peak for the most distinct mountains in the district" />
		<tag k="name" v="Øverdalsfjellet" />
		<tag k="natural" v="hill" />
		<tag k="place" v="locality" />
		<tag k="ssr:stedsnr" v="445175" />
	</node>
	<node id="-696428" lat="68.5710666643" lon="16.3135722134">
		<tag k="fixme" v="consider natural=peak for the most distinct mountains in the district" />
		<tag k="name" v="Ulvikfjellet" />
		<tag k="natural" v="hill" />
		<tag k="place" v="locality" />
		<tag k="ssr:stedsnr" v="445154" />
	</node>
	<node id="-696427" lat="68.501322224" lon="16.5256583322">
		<tag k="name" v="Storhaugen" />
		<tag k="natural" v="hill" />
		<tag k="place" v="locality" />
		<tag k="ssr:stedsnr" v="444941" />
	</node>
	<node id="-696417" lat="68.4691250019" lon="16.5592444388">
		<tag k="fixme" v="consider natural=peak for the most distinct mountains in the district" />
		<tag k="name" v="Ramnesfjellet" />
		<tag k="natural" v="hill" />
		<tag k="place" v="locality" />
		<tag k="ssr:stedsnr" v="441404" />
	</node>
	<node id="-696410" lat="68.5121944479" lon="16.1907666722">
		<tag k="name" v="Høykråbergan" />
		<tag k="natural" v="hill" />
		<tag k="place" v="locality" />
		<tag k="ssr:stedsnr" v="268415" />
	</node>
	<node id="-696409" lat="68.5184305544" lon="16.196469437">
		<tag k="name" v="Dorteahaugen" />
		<tag k="natural" v="hill" />
		<tag k="place" v="locality" />
		<tag k="ssr:stedsnr" v="268413" />
	</node>
	<node id="-696397" lat="68.5264527802" lon="16.5233916689">
		<tag k="name" v="Jordbærberget" />
		<tag k="natural" v="hill" />
		<tag k="place" v="locality" />
		<tag k="ssr:stedsnr" v="267008" />
	</node>
	<node id="-696391" lat="68.5905972225" lon="16.2822055468">
		<tag k="name" v="Tindhola - Hodegariehppi" />
		<tag k="name:no" v="Tindhola" />
		<tag k="name:se" v="Hodegariehppi" />
		<tag k="natural" v="valley" />
		<tag k="place" v="locality" />
		<tag k="ssr:stedsnr" v="263221" />
	</node>
	<node id="-696386" lat="68.5278527733" lon="16.5556111203">
		<tag k="fixme" v="consider natural=peak for the most distinct mountains in the district" />
		<tag k="name" v="Kvitfjellet" />
		<tag k="natural" v="hill" />
		<tag k="place" v="locality" />
		<tag k="ssr:stedsnr" v="262818" />
	</node>
	<node id="-696382" lat="68.6024666694" lon="16.0741583222">
		<tag k="fixme" v="consider natural=peak for the most distinct mountains in the district" />
		<tag k="name" v="Jonsheimtinden - Čoarddáčohkka" />
		<tag k="name:no" v="Jonsheimtinden" />
		<tag k="name:se" v="Čoarddáčohkka" />
		<tag k="natural" v="hill" />
		<tag k="place" v="locality" />
		<tag k="ssr:stedsnr" v="260403" />
	</node>
	<node id="-696379" lat="68.4459555531" lon="16.3062222268">
		<tag k="name" v="Nituva" />
		<tag k="natural" v="hill" />
		<tag k="place" v="locality" />
		<tag k="ssr:stedsnr" v="259436" />
	</node>
	<node id="-696378" lat="68.4691500011" lon="16.3354638973">
		<tag k="fixme" v="consider natural=peak for the most distinct mountains in the district" />
		<tag k="name" v="Litletinden" />
		<tag k="natural" v="hill" />
		<tag k="place" v="locality" />
		<tag k="ssr:stedsnr" v="259407" />
	</node>
	<node id="-696377" lat="68.4640972212" lon="16.3344805434">
		<tag k="fixme" v="consider natural=peak for the most distinct mountains in the district" />
		<tag k="loc_name:se" v="Bassečohkka" />
		<tag k="name" v="Helligtinden" />
		<tag k="name:no" v="Helligtinden" />
		<tag k="natural" v="hill" />
		<tag k="place" v="locality" />
		<tag k="ssr:stedsnr" v="259406" />
	</node>
	<node id="-696372" lat="68.5752472215" lon="16.4166472323">
		<tag k="name" v="Mobakkryggen" />
		<tag k="natural" v="ridge" />
		<tag k="place" v="locality" />
		<tag k="ssr:stedsnr" v="240242" />
	</node>
	<node id="-696371" lat="68.498308332" lon="16.1657083291">
		<tag k="name" v="Moshaugen" />
		<tag k="natural" v="hill" />
		<tag k="place" v="locality" />
		<tag k="ssr:stedsnr" v="269055" />
	</node>
	<node id="-696366" lat="68.5562166697" lon="16.1142361183">
		<tag k="name" v="Einhaugen" />
		<tag k="natural" v="hill" />
		<tag k="place" v="locality" />
		<tag k="ssr:stedsnr" v="223852" />
	</node>
	<node id="-696365" lat="68.5727277764" lon="16.3666583253">
		<tag k="name" v="Storhammaren" />
		<tag k="natural" v="hill" />
		<tag k="place" v="locality" />
		<tag k="ssr:stedsnr" v="221835" />
	</node>
	<node id="-696358" lat="68.4262444413" lon="16.341433333">
		<tag k="name" v="Huarhågen" />
		<tag k="natural" v="hill" />
		<tag k="place" v="locality" />
		<tag k="ssr:stedsnr" v="209759" />
	</node>
	<node id="-696356" lat="68.4399666704" lon="16.3472805445">
		<tag k="name" v="Mølna i Forsen" />
		<tag k="place" v="locality" />
		<tag k="ssr:stedsnr" v="209750" />
	</node>
	<node id="-696352" lat="68.4457777805" lon="16.4365861042">
		<tag k="name" v="Nonshauglægda" />
		<tag k="natural" v="valley" />
		<tag k="place" v="locality" />
		<tag k="ssr:stedsnr" v="209669" />
	</node>
	<node id="-696351" lat="68.4466194434" lon="16.436155556">
		<tag k="name" v="Nonshaugen" />
		<tag k="natural" v="hill" />
		<tag k="place" v="locality" />
		<tag k="ssr:stedsnr" v="209665" />
	</node>
	<node id="-696350" lat="68.4476444458" lon="16.4472055436">
		<tag k="name" v="Smihaugen" />
		<tag k="natural" v="hill" />
		<tag k="place" v="locality" />
		<tag k="ssr:stedsnr" v="209664" />
	</node>
	<node id="-696348" lat="68.4505694408" lon="16.4447833331">
		<tag k="name" v="Bukjerran" />
		<tag k="place" v="locality" />
		<tag k="ssr:stedsnr" v="209658" />
	</node>
	<node id="-696343" lat="68.3962611121" lon="16.1222944407">
		<tag k="name" v="Fjøshågen" />
		<tag k="natural" v="hill" />
		<tag k="place" v="locality" />
		<tag k="ssr:stedsnr" v="209517" />
	</node>
	<node id="-696341" lat="68.420599996" lon="16.0979694499">
		<tag k="name" v="Melkhaugen" />
		<tag k="natural" v="hill" />
		<tag k="place" v="locality" />
		<tag k="ssr:stedsnr" v="209409" />
	</node>
	<node id="-696338" lat="68.4318055564" lon="16.1388805444">
		<tag k="name" v="Ungsmalhaugen" />
		<tag k="natural" v="hill" />
		<tag k="place" v="locality" />
		<tag k="ssr:stedsnr" v="209364" />
	</node>
	<node id="-696336" lat="68.483975003" lon="16.4953166776">
		<tag k="fixme" v="consider natural=peak for the most distinct mountains in the district" />
		<tag k="name" v="Kobbenesfjellet" />
		<tag k="natural" v="hill" />
		<tag k="place" v="locality" />
		<tag k="ssr:stedsnr" v="209355" />
	</node>
	<node id="-696331" lat="68.5189499955" lon="16.4454166694">
		<tag k="name" v="Haugbakkan" />
		<tag k="natural" v="slope" />
		<tag k="place" v="locality" />
		<tag k="ssr:stedsnr" v="209001" />
	</node>
	<node id="-696328" lat="68.5346277769" lon="16.4796222149">
		<tag k="name" v="Brattlian" />
		<tag k="natural" v="slope" />
		<tag k="place" v="locality" />
		<tag k="ssr:stedsnr" v="207667" />
	</node>
	<node id="-696326" lat="68.5694777817" lon="16.1869555679">
		<tag k="fixme" v="consider natural=peak for the most distinct mountains in the district" />
		<tag k="name" v="Kvitskredfjellet" />
		<tag k="natural" v="hill" />
		<tag k="place" v="locality" />
		<tag k="ssr:stedsnr" v="207536" />
	</node>
	<node id="-696324" lat="68.5979333312" lon="16.1599222308">
		<tag k="name" v="Botnkråa" />
		<tag k="natural" v="valley" />
		<tag k="place" v="locality" />
		<tag k="ssr:stedsnr" v="207524" />
	</node>
	<node id="-696323" lat="68.5712472227" lon="16.2366722226">
		<tag k="name" v="Skjettdøsjen" />
		<tag k="place" v="locality" />
		<tag k="ssr:stedsnr" v="207521" />
	</node>
	<node id="-696321" lat="68.5140416661" lon="16.2193000081">
		<tag k="name" v="Renndalen" />
		<tag k="natural" v="valley" />
		<tag k="place" v="locality" />
		<tag k="ssr:stedsnr" v="207431" />
	</node>
</osm>
