<?xml version="1.0" encoding="UTF-8"?>
<osm generator="osmapis" version="0.6">
	<node id="-695751" lat="68.4188833345" lon="16.2918583425">
		<tag k="name" v="Media Thule" />
		<tag k="ssr:stedsnr" v="330618" />
		<tag k="tourism" v="attraction" />
	</node>
	<node id="-696749" lat="68.5541611128" lon="16.4435972204">
		<tag k="alt_name" v="Holsflua flytebåke" />
		<tag k="name" v="Holsflua lysbåke" />
		<tag k="place" v="locality" />
		<tag k="ssr:stedsnr" v="631124" />
	</node>
	<node id="-696315" lat="68.4899805593" lon="16.5222055486">
		<tag k="amenity" v="place_of_worship" />
		<tag k="denomination" v="lutheran" />
		<tag k="name" v="Ramsund kapell" />
		<tag k="religion" v="christian" />
		<tag k="ssr:stedsnr" v="207098" />
	</node>
	<node id="-696737" lat="68.5471999983" lon="16.3988805519">
		<tag k="amenity" v="place_of_worship" />
		<tag k="denomination" v="lutheran" />
		<tag k="name" v="Tjeldsund" />
		<tag k="religion" v="christian" />
		<tag k="ssr:stedsnr" v="626872" />
	</node>
</osm>
