<?xml version="1.0" encoding="UTF-8"?>
<osm generator="osmapis" version="0.6">
	<node id="-696829" lat="68.5973972256" lon="16.1731055483">
		<tag k="name" v="Andersheim" />
		<tag k="place" v="isolated_dwelling" />
		<tag k="ssr:stedsnr" v="685809" />
	</node>
	<node id="-696825" lat="68.5186944428" lon="16.192630546">
		<tag k="name" v="Dragland" />
		<tag k="place" v="farm" />
		<tag k="ssr:stedsnr" v="685772" />
	</node>
	<node id="-695800" lat="68.5532361156" lon="16.506855554">
		<tag k="amenity" v="school" />
		<tag k="name" v="Norges brannskole" />
		<tag k="ssr:stedsnr" v="387839" />
	</node>
	<node id="-695799" lat="68.5491777822" lon="16.3923249888">
		<tag k="fixme" v="consider place=hamlet" />
		<tag k="name" v="Hol" />
		<tag k="place" v="village" />
		<tag k="ssr:stedsnr" v="384844" />
	</node>
	<node id="-696310" lat="68.4808388916" lon="16.1525166622">
		<tag k="name" v="Valvåg" />
		<tag k="place" v="farm" />
		<tag k="ssr:stedsnr" v="206513" />
	</node>
	<node id="-695793" lat="68.5687638852" lon="16.4116500059">
		<tag k="name" v="Solli" />
		<tag k="place" v="farm" />
		<tag k="ssr:stedsnr" v="384163" />
	</node>
	<node id="-696814" lat="68.4061638922" lon="16.2050999963">
		<tag k="name" v="Geiskevika" />
		<tag k="place" v="locality" />
		<tag k="ssr:stedsnr" v="684268" />
	</node>
	<node id="-696300" lat="68.5423500003" lon="16.2374083382">
		<tag k="name" v="Ripelen" />
		<tag k="place" v="locality" />
		<tag k="ssr:stedsnr" v="202871" />
	</node>
	<node id="-696299" lat="68.5523333307" lon="16.5187666735">
		<tag k="name" v="Nakken" />
		<tag k="place" v="farm" />
		<tag k="ssr:stedsnr" v="202852" />
	</node>
	<node id="-696296" lat="68.5597361083" lon="16.5335499929">
		<tag k="name" v="Vikstranda" />
		<tag k="place" v="farm" />
		<tag k="ssr:stedsnr" v="202833" />
	</node>
	<node id="-695781" lat="68.3971583358" lon="16.1253389006">
		<tag k="name" v="Odden" />
		<tag k="place" v="farm" />
		<tag k="ssr:stedsnr" v="381316" />
	</node>
	<node id="-695780" lat="68.4375138908" lon="16.1346361064">
		<tag k="name" v="Våge" />
		<tag k="place" v="farm" />
		<tag k="ssr:stedsnr" v="381258" />
	</node>
	<node id="-695773" lat="68.4503861145" lon="16.1248277883">
		<tag k="alt_name" v="Kjærstad" />
		<tag k="fixme" v="consider place=hamlet" />
		<tag k="name" v="Kjerstad" />
		<tag k="place" v="village" />
		<tag k="ssr:stedsnr" v="380200" />
	</node>
	<node id="-695771" lat="68.4485888893" lon="16.156197221">
		<tag k="name" v="Kjærstad" />
		<tag k="place" v="farm" />
		<tag k="ssr:stedsnr" v="363639" />
	</node>
	<node id="-695770" lat="68.5560444436" lon="16.1088361122">
		<tag k="name" v="Fiskefjord østre" />
		<tag k="place" v="farm" />
		<tag k="ssr:stedsnr" v="344836" />
	</node>
	<node id="-695764" lat="68.5556916656" lon="16.1109999945">
		<tag k="name" v="Solbakken" />
		<tag k="place" v="farm" />
		<tag k="ssr:stedsnr" v="333657" />
	</node>
	<node id="-696267" lat="68.5356055557" lon="16.1668305468">
		<tag k="name" v="Lien" />
		<tag k="place" v="farm" />
		<tag k="ssr:stedsnr" v="160919" />
	</node>
	<node id="-696266" lat="68.5568055519" lon="16.085902786">
		<tag k="name" v="Granheim" />
		<tag k="place" v="farm" />
		<tag k="ssr:stedsnr" v="160916" />
	</node>
	<node id="-696823" lat="68.4162194471" lon="16.249638895">
		<tag k="name" v="Russhaugen" />
		<tag k="place" v="farm" />
		<tag k="ssr:stedsnr" v="684490" />
	</node>
	<node id="-696262" lat="68.5535416679" lon="16.1172416748">
		<tag k="name" v="Solvang" />
		<tag k="place" v="farm" />
		<tag k="ssr:stedsnr" v="151676" />
	</node>
	<node id="-696261" lat="68.5580055558" lon="16.0874805485">
		<tag k="name" v="Nordheim" />
		<tag k="place" v="farm" />
		<tag k="ssr:stedsnr" v="151675" />
	</node>
	<node id="-695742" lat="68.4224638896" lon="16.1072805608">
		<tag k="name" v="Gammelgården" />
		<tag k="place" v="farm" />
		<tag k="ssr:stedsnr" v="330481" />
	</node>
	<node id="-696394" lat="68.5482333364" lon="16.5199916668">
		<tag k="name" v="Skogmo" />
		<tag k="place" v="farm" />
		<tag k="ssr:stedsnr" v="263864" />
	</node>
	<node id="-696761" lat="68.566499999" lon="16.4280583218">
		<tag k="name" v="Løbakken" />
		<tag k="place" v="farm" />
		<tag k="ssr:stedsnr" v="631692" />
	</node>
	<node id="-696755" lat="68.5453388918" lon="16.509036119">
		<tag k="name" v="Skogan" />
		<tag k="place" v="farm" />
		<tag k="ssr:stedsnr" v="631492" />
	</node>
	<node id="-696750" lat="68.5533888846" lon="16.5504972216">
		<tag k="name" v="Utkiken" />
		<tag k="place" v="farm" />
		<tag k="ssr:stedsnr" v="631127" />
	</node>
	<node id="-697259" lat="68.49518611" lon="16.1532722147">
		<tag k="name" v="Kongsvold" />
		<tag k="place" v="farm" />
		<tag k="ssr:stedsnr" v="936010" />
	</node>
	<node id="-696746" lat="68.5529750031" lon="16.331708328">
		<tag k="name" v="Skytterhågen" />
		<tag k="place" v="hamlet" />
		<tag k="ssr:stedsnr" v="631073" />
	</node>
	<node id="-695721" lat="68.424613892" lon="16.1120583375">
		<tag k="name" v="Tjeldnes" />
		<tag k="place" v="hamlet" />
		<tag k="ssr:stedsnr" v="329812" />
	</node>
	<node id="-696740" lat="68.5381138891" lon="16.4200916736">
		<tag k="name" v="Solheim" />
		<tag k="place" v="farm" />
		<tag k="ssr:stedsnr" v="627780" />
	</node>
	<node id="-695710" lat="68.5519666663" lon="16.5312194545">
		<tag k="name" v="Nakken" />
		<tag k="place" v="farm" />
		<tag k="ssr:stedsnr" v="328468" />
	</node>
	<node id="-696731" lat="68.526322222" lon="16.4512638969">
		<tag k="name" v="Kongsbakk" />
		<tag k="place" v="farm" />
		<tag k="ssr:stedsnr" v="626793" />
	</node>
	<node id="-696730" lat="68.5656611137" lon="16.2767111036">
		<tag k="name" v="Åshalsen" />
		<tag k="place" v="farm" />
		<tag k="ssr:stedsnr" v="626166" />
	</node>
	<node id="-696559" lat="68.4916333306" lon="16.1505277824">
		<tag k="name" v="Steinstrand" />
		<tag k="place" v="farm" />
		<tag k="ssr:stedsnr" v="511008" />
	</node>
	<node id="-696727" lat="68.5444749997" lon="16.1932777782">
		<tag k="alt_name" v="Steinhaug" />
		<tag k="name" v="Stenhaug" />
		<tag k="place" v="farm" />
		<tag k="ssr:stedsnr" v="624746" />
	</node>
	<node id="-696214" lat="68.5964527777" lon="16.1767916694">
		<tag k="name" v="Per Henriksaheimen" />
		<tag k="place" v="locality" />
		<tag k="ssr:stedsnr" v="146522" />
	</node>
	<node id="-696729" lat="68.5612333344" lon="16.3039805534">
		<tag k="name" v="Skilnes" />
		<tag k="place" v="farm" />
		<tag k="ssr:stedsnr" v="626163" />
	</node>
	<node id="-695697" lat="68.5581666689" lon="16.1053361154">
		<tag k="name" v="Haugbakken" />
		<tag k="place" v="farm" />
		<tag k="ssr:stedsnr" v="101836" />
	</node>
	<node id="-696205" lat="68.4961388847" lon="16.510522228">
		<tag k="name" v="Brenna" />
		<tag k="place" v="farm" />
		<tag k="ssr:stedsnr" v="146098" />
	</node>
	<node id="-697228" lat="68.5444750001" lon="16.3931249889">
		<tag k="name" v="Øygården" />
		<tag k="place" v="farm" />
		<tag k="ssr:stedsnr" v="930867" />
	</node>
	<node id="-696734" lat="68.5207333362" lon="16.4532749984">
		<tag k="name" v="Erindringen" />
		<tag k="place" v="farm" />
		<tag k="ssr:stedsnr" v="626818" />
	</node>
	<node id="-695687" lat="68.5677138916" lon="16.2653750122">
		<tag k="name" v="Steinbakken" />
		<tag k="place" v="farm" />
		<tag k="ssr:stedsnr" v="323149" />
	</node>
	<node id="-695686" lat="68.5596027741" lon="16.3051027858">
		<tag k="name" v="Ballstad" />
		<tag k="place" v="farm" />
		<tag k="ssr:stedsnr" v="323146" />
	</node>
	<node id="-695685" lat="68.5651250025" lon="16.2882305504">
		<tag k="name" v="Nymo" />
		<tag k="place" v="farm" />
		<tag k="ssr:stedsnr" v="323144" />
	</node>
	<node id="-695684" lat="68.5660750003" lon="16.3399750021">
		<tag k="name" v="Nystad" />
		<tag k="place" v="farm" />
		<tag k="ssr:stedsnr" v="323142" />
	</node>
	<node id="-696194" lat="68.5549972219" lon="16.3493416577">
		<tag k="fixme" v="consider place=hamlet" />
		<tag k="name" v="Hov" />
		<tag k="place" v="village" />
		<tag k="ssr:stedsnr" v="141835" />
	</node>
	<node id="-696811" lat="68.4879750005" lon="16.1498055577">
		<tag k="name" v="Skavstrand" />
		<tag k="place" v="farm" />
		<tag k="ssr:stedsnr" v="684155" />
	</node>
	<node id="-696188" lat="68.5443833308" lon="16.5028499986">
		<tag k="name" v="Ranheim" />
		<tag k="place" v="farm" />
		<tag k="ssr:stedsnr" v="141861" />
	</node>
	<node id="-695672" lat="68.4239027789" lon="16.1096583376">
		<tag k="name" v="Tjeldnes" />
		<tag k="place" v="farm" />
		<tag k="ssr:stedsnr" v="320257" />
	</node>
	<node id="-696182" lat="68.5618944472" lon="16.232486109">
		<tag k="alt_name" v="Stakksvoll" />
		<tag k="fixme" v="consider place=hamlet" />
		<tag k="name" v="Staksvoll" />
		<tag k="place" v="village" />
		<tag k="ssr:stedsnr" v="141131" />
	</node>
	<node id="-696180" lat="68.5112388933" lon="16.1942444413">
		<tag k="name" v="Høykråa" />
		<tag k="place" v="farm" />
		<tag k="ssr:stedsnr" v="139772" />
	</node>
	<node id="-696176" lat="68.4278638905" lon="16.3025777777">
		<tag k="name" v="Nystad" />
		<tag k="place" v="isolated_dwelling" />
		<tag k="ssr:stedsnr" v="138497" />
	</node>
	<node id="-696175" lat="68.4218944416" lon="16.3211250007">
		<tag k="alt_name" v="Skogen" />
		<tag k="name" v="Skogan" />
		<tag k="place" v="farm" />
		<tag k="ssr:stedsnr" v="138495" />
	</node>
	<node id="-695662" lat="68.5556166668" lon="16.1004805656">
		<tag k="name" v="Lillevold" />
		<tag k="place" v="farm" />
		<tag k="ssr:stedsnr" v="283825" />
	</node>
	<node id="-695661" lat="68.5332111139" lon="16.1666333328">
		<tag k="name" v="Torsheim" />
		<tag k="place" v="farm" />
		<tag k="ssr:stedsnr" v="282925" />
	</node>
	<node id="-696164" lat="68.4503833303" lon="16.1268638832">
		<tag k="name" v="Kjærstad" />
		<tag k="place" v="farm" />
		<tag k="ssr:stedsnr" v="120669" />
	</node>
	<node id="-696160" lat="68.5554250018" lon="16.1091972156">
		<tag k="name" v="Sjøvoll" />
		<tag k="place" v="farm" />
		<tag k="ssr:stedsnr" v="101844" />
	</node>
	<node id="-696159" lat="68.4029527771" lon="16.2035916602">
		<tag k="name" v="Geiskevika" />
		<tag k="place" v="locality" />
		<tag k="ssr:stedsnr" v="100898" />
	</node>
	<node id="-696669" lat="68.4954972185" lon="16.1604944488">
		<tag k="name" v="Nordheim" />
		<tag k="place" v="farm" />
		<tag k="ssr:stedsnr" v="572077" />
	</node>
	<node id="-697178" lat="68.3973000013" lon="16.1255444435">
		<tag k="name" v="Steinåkerhøgda" />
		<tag k="place" v="farm" />
		<tag k="ssr:stedsnr" v="876516" />
	</node>
	<node id="-696548" lat="68.5106083327" lon="16.1865860998">
		<tag k="name" v="Haga" />
		<tag k="place" v="farm" />
		<tag k="ssr:stedsnr" v="510419" />
	</node>
	<node id="-696661" lat="68.5659499978" lon="16.4271138764">
		<tag k="name" v="Vollan" />
		<tag k="place" v="farm" />
		<tag k="ssr:stedsnr" v="571659" />
	</node>
	<node id="-696547" lat="68.5556250009" lon="16.3519361183">
		<tag k="name" v="Berg" />
		<tag k="place" v="farm" />
		<tag k="ssr:stedsnr" v="510103" />
	</node>
	<node id="-696425" lat="68.5655583371" lon="16.2430583325">
		<tag k="alt_name" v="Leitet" />
		<tag k="name" v="Leite" />
		<tag k="place" v="farm" />
		<tag k="ssr:stedsnr" v="444120" />
	</node>
	<node id="-696628" lat="68.5656194434" lon="16.4296999871">
		<tag k="alt_name" v="Haubakken" />
		<tag k="name" v="Høybakken" />
		<tag k="place" v="farm" />
		<tag k="ssr:stedsnr" v="565825" />
	</node>
	<node id="-696624" lat="68.5672611132" lon="16.3457749928">
		<tag k="alt_name" v="Sætre" />
		<tag k="name" v="Sæter" />
		<tag k="place" v="farm" />
		<tag k="ssr:stedsnr" v="565114" />
	</node>
	<node id="-696620" lat="68.5938833298" lon="16.193869432">
		<tag k="name" v="Sætran" />
		<tag k="place" v="isolated_dwelling" />
		<tag k="ssr:stedsnr" v="563844" />
	</node>
	<node id="-697126" lat="68.5468250036" lon="16.5130361074">
		<tag k="name" v="Fagerlund" />
		<tag k="place" v="farm" />
		<tag k="ssr:stedsnr" v="870861" />
	</node>
	<node id="-697124" lat="68.5694527767" lon="16.3699194473">
		<tag k="name" v="Kleiva" />
		<tag k="place" v="farm" />
		<tag k="ssr:stedsnr" v="870166" />
	</node>
	<node id="-697123" lat="68.5693555527" lon="16.3995027807">
		<tag k="name" v="Bakkely" />
		<tag k="place" v="farm" />
		<tag k="ssr:stedsnr" v="870165" />
	</node>
	<node id="-696608" lat="68.482769447" lon="16.5313833263">
		<tag k="name" v="Oldervika" />
		<tag k="place" v="hamlet" />
		<tag k="ssr:stedsnr" v="562427" />
	</node>
	<node id="-697221" lat="68.5619361104" lon="16.2663777693">
		<tag k="name" v="Jamthusan" />
		<tag k="place" v="farm" />
		<tag k="ssr:stedsnr" v="930130" />
	</node>
	<node id="-697114" lat="68.4997444413" lon="16.4886222134">
		<tag k="name" v="Rambø" />
		<tag k="place" v="isolated_dwelling" />
		<tag k="ssr:stedsnr" v="867417" />
	</node>
	<node id="-696196" lat="68.5008027823" lon="16.4843805457">
		<tag k="name" v="Rambø" />
		<tag k="place" v="farm" />
		<tag k="ssr:stedsnr" v="141931" />
	</node>
	<node id="-696086" lat="68.4920305561" lon="16.5151055491">
		<tag k="fixme" v="consider place=suburb, village or hamlet" />
		<tag k="name" v="Melsbø" />
		<tag k="place" v="quarter" />
		<tag k="ssr:stedsnr" v="268111" />
	</node>
	<node id="-696081" lat="68.5455527744" lon="16.5079499894">
		<tag k="name" v="Nygård" />
		<tag k="place" v="farm" />
		<tag k="ssr:stedsnr" v="81866" />
	</node>
	<node id="-696080" lat="68.5560555568" lon="16.5262000048">
		<tag k="alt_name" v="Fjelldal, nedre" />
		<tag k="fixme" v="multiple name tags, choose one and add the other to alt_name; consider place=hamlet" />
		<tag k="name" v="Fjelldal;Nedre Fjelldal" />
		<tag k="place" v="village" />
		<tag k="ssr:stedsnr" v="81848" />
	</node>
	<node id="-697102" lat="68.5661249973" lon="16.2536777731">
		<tag k="fixme" v="consider place=hamlet" />
		<tag k="name" v="Kongsvika" />
		<tag k="place" v="village" />
		<tag k="ssr:stedsnr" v="837113" />
	</node>
	<node id="-696077" lat="68.5180833321" lon="16.5546916651">
		<tag k="name" v="Perheimen" />
		<tag k="place" v="locality" />
		<tag k="ssr:stedsnr" v="81814" />
	</node>
	<node id="-696073" lat="68.5686916632" lon="16.3517111207">
		<tag k="name" v="Birkeland" />
		<tag k="place" v="farm" />
		<tag k="ssr:stedsnr" v="81146" />
	</node>
	<node id="-696069" lat="68.5577666633" lon="16.0872499867">
		<tag k="fixme" v="consider place=hamlet" />
		<tag k="name" v="Fiskefjorden" />
		<tag k="place" v="village" />
		<tag k="ssr:stedsnr" v="78889" />
	</node>
	<node id="-696057" lat="68.4781166645" lon="16.5318833241">
		<tag k="name" v="Lasletta" />
		<tag k="place" v="farm" />
		<tag k="ssr:stedsnr" v="77443" />
	</node>
	<node id="-696568" lat="68.42273333" lon="16.1016222298">
		<tag k="name" v="Buhågen" />
		<tag k="place" v="farm" />
		<tag k="ssr:stedsnr" v="512268" />
	</node>
	<node id="-696049" lat="68.5688166704" lon="16.4089055488">
		<tag k="name" v="Hårvik" />
		<tag k="place" v="farm" />
		<tag k="ssr:stedsnr" v="36070" />
	</node>
	<node id="-696047" lat="68.4795166697" lon="16.5313694376">
		<tag k="name" v="Nordmo" />
		<tag k="place" v="farm" />
		<tag k="ssr:stedsnr" v="30070" />
	</node>
	<node id="-696553" lat="68.5679972207" lon="16.4125361153">
		<tag k="name" v="Hårvik" />
		<tag k="place" v="farm" />
		<tag k="ssr:stedsnr" v="510691" />
	</node>
	<node id="-697060" lat="68.489816665" lon="16.1509555611">
		<tag k="name" v="Lunden" />
		<tag k="place" v="farm" />
		<tag k="ssr:stedsnr" v="815015" />
	</node>
	<node id="-696614" lat="68.4924749992" lon="16.1506499933">
		<tag k="name" v="Innvika" />
		<tag k="place" v="farm" />
		<tag k="ssr:stedsnr" v="563151" />
	</node>
	<node id="-697052" lat="68.5622944445" lon="16.2332277802">
		<tag k="name" v="Laukvik" />
		<tag k="place" v="hamlet" />
		<tag k="ssr:stedsnr" v="814582" />
	</node>
	<node id="-696534" lat="68.5421555512" lon="16.4115444475">
		<tag k="name" v="Gyltnes" />
		<tag k="place" v="farm" />
		<tag k="ssr:stedsnr" v="505857" />
	</node>
	<node id="-696533" lat="68.5468361086" lon="16.3012777823">
		<tag k="name" v="Sand" />
		<tag k="place" v="farm" />
		<tag k="ssr:stedsnr" v="505849" />
	</node>
	<node id="-696532" lat="68.5527055584" lon="16.3347305669">
		<tag k="name" v="Steinsvika" />
		<tag k="place" v="farm" />
		<tag k="ssr:stedsnr" v="505846" />
	</node>
	<node id="-696531" lat="68.5523055599" lon="16.5043694341">
		<tag k="alt_name" v="Hundvollen" />
		<tag k="name" v="Hundevollen" />
		<tag k="place" v="locality" />
		<tag k="ssr:stedsnr" v="505841" />
	</node>
	<node id="-697208" lat="68.4919833295" lon="16.5183749963">
		<tag k="name" v="Ramsund" />
		<tag k="place" v="village" />
		<tag k="ssr:stedsnr" v="927411" />
	</node>
	<node id="-696011" lat="68.4859138916" lon="16.1505444556">
		<tag k="name" v="Nygård" />
		<tag k="place" v="farm" />
		<tag k="ssr:stedsnr" v="26065" />
	</node>
	<node id="-697032" lat="68.5550111088" lon="16.5247472302">
		<tag k="name" v="Stornakkan" />
		<tag k="place" v="farm" />
		<tag k="ssr:stedsnr" v="813107" />
	</node>
	<node id="-696519" lat="68.5964916671" lon="16.1662694508">
		<tag k="name" v="Dalbotnen" />
		<tag k="place" v="isolated_dwelling" />
		<tag k="ssr:stedsnr" v="503778" />
	</node>
	<node id="-696518" lat="68.5349222181" lon="16.1682166684">
		<tag k="name" v="Taraldsvika" />
		<tag k="place" v="farm" />
		<tag k="ssr:stedsnr" v="503711" />
	</node>
	<node id="-696005" lat="68.5451611151" lon="16.2939277772">
		<tag k="name" v="Elvneset" />
		<tag k="place" v="farm" />
		<tag k="ssr:stedsnr" v="25875" />
	</node>
	<node id="-697028" lat="68.5414999964" lon="16.5758833229">
		<tag k="name" v="Landsholmen" />
		<tag k="place" v="farm" />
		<tag k="ssr:stedsnr" v="809885" />
	</node>
	<node id="-696523" lat="68.5650222252" lon="16.3079444381">
		<tag k="alt_name" v="Ulvik" />
		<tag k="fixme" v="consider place=hamlet" />
		<tag k="name" v="Ulvika" />
		<tag k="place" v="farm" />
		<tag k="ssr:stedsnr" v="505136" />
	</node>
	<node id="-696506" lat="68.4248666696" lon="16.1129472208">
		<tag k="name" v="Tofte" />
		<tag k="place" v="farm" />
		<tag k="ssr:stedsnr" v="502231" />
	</node>
	<node id="-695991" lat="68.554383337" lon="16.3342527822">
		<tag k="name" v="Osen" />
		<tag k="place" v="farm" />
		<tag k="ssr:stedsnr" v="25064" />
	</node>
	<node id="-696502" lat="68.4490472191" lon="16.1241388943">
		<tag k="name" v="Kjærstad" />
		<tag k="place" v="farm" />
		<tag k="ssr:stedsnr" v="484676" />
	</node>
	<node id="-697011" lat="68.4502444452" lon="16.4490388937">
		<tag k="alt_name" v="Breidvika" />
		<tag k="name" v="Breivika" />
		<tag k="place" v="farm" />
		<tag k="ssr:stedsnr" v="806429" />
	</node>
	<node id="-696498" lat="68.5561388899" lon="16.0865083248">
		<tag k="name" v="Skoglund" />
		<tag k="place" v="farm" />
		<tag k="ssr:stedsnr" v="464920" />
	</node>
	<node id="-695979" lat="68.5545027803" lon="16.3706527667">
		<tag k="name" v="Kalvgjerdet" />
		<tag k="place" v="isolated_dwelling" />
		<tag k="ssr:stedsnr" v="20852" />
	</node>
	<node id="-696998" lat="68.5560250049" lon="16.1078055459">
		<tag k="name" v="Nordeng" />
		<tag k="place" v="farm" />
		<tag k="ssr:stedsnr" v="769806" />
	</node>
	<node id="-695959" lat="68.427138888" lon="16.3384916687">
		<tag k="alt_name" v="Miklebostad" />
		<tag k="fixme" v="consider place=hamlet" />
		<tag k="name" v="Myklebostad" />
		<tag k="place" v="village" />
		<tag k="ssr:stedsnr" v="17511" />
	</node>
	<node id="-696968" lat="68.4922166673" lon="16.1503861224">
		<tag k="name" v="Sisselvolden" />
		<tag k="place" v="farm" />
		<tag k="ssr:stedsnr" v="754007" />
	</node>
	<node id="-696443" lat="68.5529694483" lon="16.55160555">
		<tag k="name" v="Kveldro" />
		<tag k="place" v="farm" />
		<tag k="ssr:stedsnr" v="449127" />
	</node>
	<node id="-696441" lat="68.5661833367" lon="16.3398444406">
		<tag k="name" v="Marentofta" />
		<tag k="place" v="farm" />
		<tag k="ssr:stedsnr" v="449093" />
	</node>
	<node id="-696951" lat="68.4931722231" lon="16.5183666613">
		<tag k="amenity" v="school" />
		<tag k="name" v="Ramsund skole" />
		<tag k="ssr:stedsnr" v="753076" />
	</node>
	<node id="-696949" lat="68.5522138891" lon="16.3795277754">
		<tag k="name" v="Øygården" />
		<tag k="place" v="farm" />
		<tag k="ssr:stedsnr" v="753067" />
	</node>
	<node id="-696435" lat="68.5525722197" lon="16.54325556">
		<tag k="alt_name" v="Fjelldal, øvre" />
		<tag k="fixme" v="consider place=hamlet" />
		<tag k="name" v="Øvre Fjelldal" />
		<tag k="place" v="village" />
		<tag k="ssr:stedsnr" v="445843" />
	</node>
	<node id="-696432" lat="68.5387277751" lon="16.4769305626">
		<tag k="fixme" v="consider place=hamlet" />
		<tag k="name" v="Ramstad" />
		<tag k="place" v="village" />
		<tag k="ssr:stedsnr" v="445775" />
	</node>
	<node id="-696429" lat="68.5744166627" lon="16.2204388932">
		<tag k="name" v="Fjellvang" />
		<tag k="place" v="locality" />
		<tag k="ssr:stedsnr" v="445159" />
	</node>
	<node id="-696937" lat="68.500988889" lon="16.4865111123">
		<tag k="fixme" v="consider place=hamlet" />
		<tag k="name" v="Ramsund" />
		<tag k="place" v="village" />
		<tag k="ssr:stedsnr" v="748948" />
	</node>
	<node id="-696422" lat="68.4259583369" lon="16.41507222">
		<tag k="alt_name" v="Kjellstad" />
		<tag k="name" v="Kilstad" />
		<tag k="place" v="farm" />
		<tag k="ssr:stedsnr" v="442503" />
	</node>
	<node id="-696421" lat="68.4280972211" lon="16.3084166684">
		<tag k="name" v="Sollia" />
		<tag k="place" v="isolated_dwelling" />
		<tag k="ssr:stedsnr" v="442495" />
	</node>
	<node id="-696412" lat="68.4512027772" lon="16.1264638857">
		<tag k="fixme" v="consider place=hamlet" />
		<tag k="name" v="Kjærstad" />
		<tag k="place" v="farm" />
		<tag k="ssr:stedsnr" v="424668" />
	</node>
	<node id="-696411" lat="68.5142416639" lon="16.1890916575">
		<tag k="name" v="Nymoen" />
		<tag k="place" v="farm" />
		<tag k="ssr:stedsnr" v="268422" />
	</node>
	<node id="-697242" lat="68.5525805578" lon="16.323322212">
		<tag k="name" v="Kristenheimen" />
		<tag k="place" v="farm" />
		<tag k="ssr:stedsnr" v="935065" />
	</node>
	<node id="-696401" lat="68.4845999956" lon="16.1513694541">
		<tag k="name" v="Vetlehaimen" />
		<tag k="place" v="farm" />
		<tag k="ssr:stedsnr" v="267406" />
	</node>
	<node id="-696912" lat="68.555794442" lon="16.1018861168">
		<tag k="name" v="Storvold" />
		<tag k="place" v="farm" />
		<tag k="ssr:stedsnr" v="708814" />
	</node>
	<node id="-696911" lat="68.5562138919" lon="16.1063916672">
		<tag k="name" v="Minde" />
		<tag k="place" v="farm" />
		<tag k="ssr:stedsnr" v="708815" />
	</node>
	<node id="-696395" lat="68.5449666709" lon="16.4052111135">
		<tag k="name" v="Stokke" />
		<tag k="place" v="farm" />
		<tag k="ssr:stedsnr" v="263869" />
	</node>
	<node id="-695882" lat="68.5573916702" lon="16.1059111131">
		<tag k="name" v="Brattland" />
		<tag k="place" v="farm" />
		<tag k="ssr:stedsnr" v="890836" />
	</node>
	<node id="-696390" lat="68.567663893" lon="16.4211972243">
		<tag k="name" v="Hansemarka" />
		<tag k="place" v="farm" />
		<tag k="ssr:stedsnr" v="263167" />
	</node>
	<node id="-695876" lat="68.4222277789" lon="16.2831805442">
		<tag k="name" v="Russvika" />
		<tag k="place" v="isolated_dwelling" />
		<tag k="ssr:stedsnr" v="400972" />
	</node>
	<node id="-696892" lat="68.4480222255" lon="16.448049992">
		<tag k="name" v="Gammelgården" />
		<tag k="place" v="farm" />
		<tag k="ssr:stedsnr" v="694633" />
	</node>
	<node id="-696376" lat="68.4877222184" lon="16.5305027838">
		<tag k="name" v="Elverum" />
		<tag k="place" v="farm" />
		<tag k="ssr:stedsnr" v="259384" />
	</node>
	<node id="-696585" lat="68.3983138871" lon="16.1179916628">
		<tag k="name" v="Tøa" />
		<tag k="place" v="farm" />
		<tag k="ssr:stedsnr" v="512507" />
	</node>
	<node id="-695847" lat="68.4161111085" lon="16.2499277874">
		<tag k="name" v="Elvebakken" />
		<tag k="place" v="farm" />
		<tag k="ssr:stedsnr" v="391434" />
	</node>
	<node id="-695836" lat="68.4242833375" lon="16.1008555572">
		<tag k="name" v="Tjeldnessjøen" />
		<tag k="place" v="locality" />
		<tag k="ssr:stedsnr" v="391289" />
	</node>
	<node id="-696859" lat="68.4502138924" lon="16.1252472306">
		<tag k="name" v="Flotta" />
		<tag k="place" v="farm" />
		<tag k="ssr:stedsnr" v="692701" />
	</node>
	<node id="-696335" lat="68.5660999965" lon="16.2578416758">
		<tag k="name" v="Kongsvik" />
		<tag k="place" v="farm" />
		<tag k="ssr:stedsnr" v="209074" />
	</node>
	<node id="-695817" lat="68.5239500026" lon="16.4546500068">
		<tag k="name" v="Sandnes" />
		<tag k="place" v="farm" />
		<tag k="ssr:stedsnr" v="389090" />
	</node>
	<node id="-696837" lat="68.5292916668" lon="16.2224611195">
		<tag k="name" v="Langosen" />
		<tag k="place" v="farm" />
		<tag k="ssr:stedsnr" v="687783" />
	</node>
</osm>
