<?xml version="1.0" encoding="UTF-8"?>
<osm generator="osmapis" version="0.6">
	<node id="-694783" lat="68.4313694455" lon="16.3342388891">
		<tag k="ford" v="yes" />
		<tag k="name" v="Mølnvadet" />
		<tag k="place" v="locality" />
		<tag k="ssr:stedsnr" v="27560" />
	</node>
	<node id="-694782" lat="68.4334499988" lon="16.3376527852">
		<tag k="highway" v="path" />
		<tag k="name" v="Mølnvegen" />
		<tag k="ssr:stedsnr" v="27762" />
	</node>
	<node id="-695293" lat="68.5529972237" lon="16.362900006">
		<tag k="highway" v="path" />
		<tag k="name" v="Hovsvegen" />
		<tag k="ssr:stedsnr" v="510098" />
	</node>
	<node id="-694889" lat="68.3939111116" lon="16.118163898">
		<tag k="landuse" v="harbour" />
		<tag k="name" v="Pålberget" />
		<tag k="seamark:type" v="harbour" />
		<tag k="ssr:stedsnr" v="88433" />
	</node>
	<node id="-695065" lat="68.5188333341" lon="16.2131722243">
		<tag k="ford" v="yes" />
		<tag k="name" v="Tjønnvadet" />
		<tag k="place" v="locality" />
		<tag k="ssr:stedsnr" v="207415" />
	</node>
	<node id="-695414" lat="68.5214777774" lon="16.4697583324">
		<tag k="amenity" v="ferry_terminal" />
		<tag k="name" v="Selnes fergeleie" />
		<tag k="ssr:stedsnr" v="572035" />
	</node>
	<node id="-694741" lat="68.5515499977" lon="16.3449055471">
		<tag k="highway" v="path" />
		<tag k="name" v="Holtenvegen" />
		<tag k="ssr:stedsnr" v="25079" />
	</node>
	<node id="-694454" lat="68.5511555557" lon="16.3426611131">
		<tag k="highway" v="path" />
		<tag k="name" v="Veslettvegen" />
		<tag k="ssr:stedsnr" v="328093" />
	</node>
	<node id="-695154" lat="68.5426749968" lon="16.3045666595">
		<tag k="ford" v="yes" />
		<tag k="name" v="Trollvadet" />
		<tag k="place" v="locality" />
		<tag k="ssr:stedsnr" v="267904" />
	</node>
	<node id="-695537" lat="68.4284333359" lon="16.3255694511">
		<tag k="highway" v="path" />
		<tag k="name" v="Via sacra" />
		<tag k="ssr:stedsnr" v="633570" />
	</node>
	<node id="-694505" lat="68.4523222202" lon="16.4203833316">
		<tag k="highway" v="path" />
		<tag k="name" v="Tindvegen" />
		<tag k="ssr:stedsnr" v="330708" />
	</node>
	<node id="-694478" lat="68.4775666665" lon="16.5112249928">
		<tag k="highway" v="path" />
		<tag k="name" v="Litjestien" />
		<tag k="ssr:stedsnr" v="330369" />
	</node>
	<node id="-695053" lat="68.4474527756" lon="16.1614055424">
		<tag k="name" v="Jektoppsettet" />
		<tag k="place" v="locality" />
		<tag k="ssr:stedsnr" v="206628" />
	</node>
	<node id="-695081" lat="68.5263222238" lon="16.4741944446">
		<tag k="fixme" v="consider highway=path" />
		<tag k="highway" v="track" />
		<tag k="name" v="Forrholtvegen" />
		<tag k="ssr:stedsnr" v="209012" />
	</node>
	<node id="-695080" lat="68.5156555597" lon="16.45076667">
		<tag k="name" v="Oppsettet" />
		<tag k="place" v="locality" />
		<tag k="ssr:stedsnr" v="209005" />
	</node>
	<node id="-695241" lat="68.4697277741" lon="16.5273611185">
		<tag k="man_made" v="quay" />
		<tag k="name" v="Biskaia" />
		<tag k="place" v="locality" />
		<tag k="ssr:stedsnr" v="455048" />
	</node>
	<node id="-695078" lat="68.5417888914" lon="16.3925694378">
		<tag k="highway" v="path" />
		<tag k="name" v="Tømmervegen" />
		<tag k="ssr:stedsnr" v="207978" />
	</node>
	<node id="-695843" lat="68.3945166708" lon="16.1170000081">
		<tag k="leisure" v="marina" />
		<tag k="name" v="Vårstramundstøa" />
		<tag k="ssr:stedsnr" v="817272" />
	</node>
	<node id="-695810" lat="68.521472219" lon="16.4567916764">
		<tag k="amenity" v="ferry_terminal" />
		<tag k="name" v="Sandnes fergeleie" />
		<tag k="ssr:stedsnr" v="816004" />
	</node>
	<node id="-694855" lat="68.4581222223" lon="16.1287638761">
		<tag k="highway" v="path" />
		<tag k="name" v="Silsandvegen" />
		<tag k="ssr:stedsnr" v="85658" />
	</node>
</osm>
