<?xml version="1.0" encoding="UTF-8"?>
<osm version="0.6" generator="osmapis">
	<node id="25965511" lat="63.4113975" lon="10.795811" version="5" timestamp="2022-07-28T04:34:36Z" changeset="124164878" uid="3497659" user="NKA">
		<tag k="name" v="Hommelvik" />
		<tag k="place" v="village" />
		<tag k="population" v="5740" />
		<tag k="population:date" v="2021-01-01" />
		<tag k="ref:ssb_tettsted" v="6683" />
		<tag k="source:population" v="SSB - befolkning i tettstedet" />
		<tag k="ssr:stedsnr" v="923022" />
	</node>
	<node id="257710918" lat="63.4325789" lon="10.8262997" version="5" timestamp="2022-07-28T04:34:36Z" changeset="124164878" uid="3497659" user="NKA">
		<tag k="name" v="Muruvika" />
		<tag k="place" v="village" />
		<tag k="population" v="462" />
		<tag k="population:date" v="2021-01-01" />
		<tag k="ref:ssb_tettsted" v="6682" />
		<tag k="source:population" v="SSB - befolkning i tettstedet" />
		<tag k="ssr:stedsnr" v="498140" />
	</node>
	<node id="729662316" lat="63.4106839" lon="10.8089902" version="2" timestamp="2022-07-28T04:34:36Z" changeset="124164878" uid="3497659" user="NKA">
		<tag k="alt_name" v="Håset" />
		<tag k="name" v="Karlslyst" />
		<tag k="place" v="hamlet" />
		<tag k="ssr:stedsnr" v="498044" />
	</node>
	<node id="730555759" lat="63.4176737" lon="10.8257078" version="2" timestamp="2022-07-28T04:34:36Z" changeset="124164878" uid="3497659" user="NKA">
		<tag k="name" v="Hågenstad" />
		<tag k="place" v="farm" />
		<tag k="ssr:stedsnr" v="13023" />
	</node>
	<node id="1283235374" lat="63.4394611" lon="10.600001" version="3" timestamp="2022-07-28T04:34:36Z" changeset="124164878" uid="3497659" user="NKA">
		<tag k="name" v="Hundhammeren" />
		<tag k="place" v="quarter" />
		<tag k="ssr:stedsnr" v="263032" />
	</node>
	<node id="1313128194" lat="63.4312572" lon="10.6845087" version="2" timestamp="2022-07-28T04:34:36Z" changeset="124164878" uid="3497659" user="NKA">
		<tag k="alt_name" v="Torp, øvre" />
		<tag k="name" v="Øvre Torp" />
		<tag k="place" v="farm" />
		<tag k="ssr:stedsnr" v="741715" />
	</node>
	<node id="1745767918" lat="63.3312799" lon="10.8086724" version="3" timestamp="2022-07-28T04:34:36Z" changeset="124164878" uid="3497659" user="NKA">
		<tag k="name" v="Sneisen" />
		<tag k="place" v="hamlet" />
		<tag k="ssr:stedsnr" v="619382" />
	</node>
	<node id="3838158129" lat="63.4345764" lon="10.603984" version="2" timestamp="2022-07-28T04:34:36Z" changeset="124164878" uid="3497659" user="NKA">
		<tag k="name" v="Saksvik" />
		<tag k="place" v="quarter" />
		<tag k="ssr:stedsnr" v="376691" />
	</node>
	<node id="4633463979" lat="63.4375312" lon="10.658958" version="3" timestamp="2022-07-28T04:34:36Z" changeset="124164878" uid="3497659" user="NKA">
		<tag k="name" v="Malvik" />
		<tag k="place" v="village" />
		<tag k="ssr:stedsnr" v="970904" />
	</node>
	<node id="4633463980" lat="63.4370844" lon="10.6271162" version="6" timestamp="2022-07-28T04:34:36Z" changeset="124164878" uid="3497659" user="NKA">
		<tag k="name" v="Vikhammer" />
		<tag k="place" v="village" />
		<tag k="population" v="7077" />
		<tag k="population:date" v="2021-01-01" />
		<tag k="ref:ssb_tettsted" v="6681" />
		<tag k="source:population" v="SSB - befolkning i tettstedet" />
		<tag k="ssr:stedsnr" v="263026" />
	</node>
	<node id="4633471840" lat="63.429734" lon="10.7481742" version="2" timestamp="2022-07-28T04:34:36Z" changeset="124164878" uid="3497659" user="NKA">
		<tag k="alt_name" v="Stavstrøa" />
		<tag k="name" v="Stavtrøa" />
		<tag k="place" v="quarter" />
		<tag k="ssr:stedsnr" v="13010" />
	</node>
	<node id="4633471841" lat="63.420516" lon="10.7584329" version="2" timestamp="2022-07-28T04:34:36Z" changeset="124164878" uid="3497659" user="NKA">
		<tag k="name" v="Sveberg" />
		<tag k="place" v="quarter" />
		<tag k="ssr:stedsnr" v="263033" />
	</node>
	<node id="4633471842" lat="63.4318424" lon="10.7316131" version="2" timestamp="2022-07-28T04:34:36Z" changeset="124164878" uid="3497659" user="NKA">
		<tag k="name" v="Midtsandan" />
		<tag k="place" v="quarter" />
		<tag k="ssr:stedsnr" v="923119" />
	</node>
	<node id="9916218851" lat="63.4310888" lon="10.7148806" version="1" timestamp="2022-07-28T04:34:36Z" changeset="124164878" uid="3497659" user="NKA">
		<tag k="name" v="Sandvika" />
		<tag k="place" v="farm" />
		<tag k="ssr:stedsnr" v="704742" />
	</node>
	<node id="9916218852" lat="63.345946" lon="10.8722087" version="1" timestamp="2022-07-28T04:34:36Z" changeset="124164878" uid="3497659" user="NKA">
		<tag k="alt_name" v="Store Jøsås;Jøsås, store;Øvergården" />
		<tag k="name" v="Store Jøssåsen" />
		<tag k="place" v="farm" />
		<tag k="ssr:stedsnr" v="13449" />
	</node>
	<node id="9916218853" lat="63.4287571" lon="10.743457" version="1" timestamp="2022-07-28T04:34:36Z" changeset="124164878" uid="3497659" user="NKA">
		<tag k="name" v="Smiskardet" />
		<tag k="place" v="farm" />
		<tag k="ssr:stedsnr" v="559013" />
	</node>
	<node id="9916218854" lat="63.4055305" lon="10.6155473" version="1" timestamp="2022-07-28T04:34:36Z" changeset="124164878" uid="3497659" user="NKA">
		<tag k="name" v="Vollan" />
		<tag k="place" v="farm" />
		<tag k="ssr:stedsnr" v="74622" />
	</node>
	<node id="9916218855" lat="63.4225725" lon="10.8090397" version="1" timestamp="2022-07-28T04:34:36Z" changeset="124164878" uid="3497659" user="NKA">
		<tag k="alt_name" v="Nygård" />
		<tag k="name" v="Nygården" />
		<tag k="place" v="farm" />
		<tag k="ssr:stedsnr" v="785270" />
	</node>
	<node id="9916218856" lat="63.425154" lon="10.6385231" version="1" timestamp="2022-07-28T04:34:36Z" changeset="124164878" uid="3497659" user="NKA">
		<tag k="alt_name" v="Leistad, midtre" />
		<tag k="name" v="Midtre Leistad" />
		<tag k="place" v="farm" />
		<tag k="ssr:stedsnr" v="74645" />
	</node>
	<node id="9916218857" lat="63.434375" lon="10.8401806" version="1" timestamp="2022-07-28T04:34:36Z" changeset="124164878" uid="3497659" user="NKA">
		<tag k="name" v="Muruvik" />
		<tag k="place" v="farm" />
		<tag k="ssr:stedsnr" v="764769" />
	</node>
	<node id="9916218858" lat="63.3914706" lon="10.645145" version="1" timestamp="2022-07-28T04:34:36Z" changeset="124164878" uid="3497659" user="NKA">
		<tag k="alt_name" v="Øver Herjuan" />
		<tag k="name" v="Herjuan" />
		<tag k="place" v="hamlet" />
		<tag k="ssr:stedsnr" v="13550" />
	</node>
	<node id="9916218859" lat="63.3967146" lon="10.6558373" version="1" timestamp="2022-07-28T04:34:36Z" changeset="124164878" uid="3497659" user="NKA">
		<tag k="alt_name" v="Buås" />
		<tag k="name" v="Buåsen" />
		<tag k="place" v="farm" />
		<tag k="ssr:stedsnr" v="74561" />
	</node>
	<node id="9916218860" lat="63.4291754" lon="10.6477949" version="1" timestamp="2022-07-28T04:34:36Z" changeset="124164878" uid="3497659" user="NKA">
		<tag k="alt_name" v="Leistad, øvre" />
		<tag k="name" v="Øvre Leistad" />
		<tag k="place" v="farm" />
		<tag k="ssr:stedsnr" v="13652" />
	</node>
	<node id="9916218861" lat="63.4184751" lon="10.6154729" version="1" timestamp="2022-07-28T04:34:36Z" changeset="124164878" uid="3497659" user="NKA">
		<tag k="alt_name" v="Bjørnstad;Bjørnstad, s" />
		<tag k="name" v="Søre Bjørnstad" />
		<tag k="place" v="farm" />
		<tag k="ssr:stedsnr" v="863616" />
	</node>
	<node id="9916218862" lat="63.4028889" lon="10.6311194" version="1" timestamp="2022-07-28T04:34:36Z" changeset="124164878" uid="3497659" user="NKA">
		<tag k="name" v="Nordre Bromset" />
		<tag k="place" v="farm" />
		<tag k="ssr:stedsnr" v="887792" />
	</node>
	<node id="9916218863" lat="63.4370722" lon="10.5896195" version="1" timestamp="2022-07-28T04:34:36Z" changeset="124164878" uid="3497659" user="NKA">
		<tag k="name" v="Sjølyst" />
		<tag k="place" v="farm" />
		<tag k="ssr:stedsnr" v="498706" />
	</node>
	<node id="9916218864" lat="63.4291942" lon="10.6385487" version="1" timestamp="2022-07-28T04:34:36Z" changeset="124164878" uid="3497659" user="NKA">
		<tag k="name" v="Leistad" />
		<tag k="place" v="hamlet" />
		<tag k="ssr:stedsnr" v="643980" />
	</node>
	<node id="9916218865" lat="63.401909" lon="10.6323841" version="1" timestamp="2022-07-28T04:34:36Z" changeset="124164878" uid="3497659" user="NKA">
		<tag k="name" v="Bromset" />
		<tag k="place" v="farm" />
		<tag k="ssr:stedsnr" v="559565" />
	</node>
	<node id="9916218866" lat="63.4207106" lon="10.7153257" version="1" timestamp="2022-07-28T04:34:36Z" changeset="124164878" uid="3497659" user="NKA">
		<tag k="alt_name" v="Vulu, østre" />
		<tag k="name" v="Østre Vulu" />
		<tag k="place" v="farm" />
		<tag k="ssr:stedsnr" v="559588" />
	</node>
	<node id="9916218867" lat="63.4375444" lon="10.6473583" version="1" timestamp="2022-07-28T04:34:36Z" changeset="124164878" uid="3497659" user="NKA">
		<tag k="name" v="Nausthaugen" />
		<tag k="place" v="farm" />
		<tag k="ssr:stedsnr" v="401039" />
	</node>
	<node id="9916218868" lat="63.4246362" lon="10.7352625" version="1" timestamp="2022-07-28T04:34:36Z" changeset="124164878" uid="3497659" user="NKA">
		<tag k="name" v="Auntrøa" />
		<tag k="place" v="farm" />
		<tag k="ssr:stedsnr" v="462751" />
	</node>
	<node id="9916218869" lat="63.4403666" lon="10.6369111" version="1" timestamp="2022-07-28T04:34:36Z" changeset="124164878" uid="3497659" user="NKA">
		<tag k="alt_name" v="Vikhammer nedre" />
		<tag k="name" v="Nedre Vikhammer" />
		<tag k="place" v="farm" />
		<tag k="ssr:stedsnr" v="219819" />
	</node>
	<node id="9916218870" lat="63.4383734" lon="10.6530274" version="1" timestamp="2022-07-28T04:34:36Z" changeset="124164878" uid="3497659" user="NKA">
		<tag k="name" v="Naustan" />
		<tag k="place" v="farm" />
		<tag k="ssr:stedsnr" v="134703" />
	</node>
	<node id="9916218871" lat="63.4170316" lon="10.7026265" version="1" timestamp="2022-07-28T04:34:36Z" changeset="124164878" uid="3497659" user="NKA">
		<tag k="name" v="Brannlia" />
		<tag k="place" v="farm" />
		<tag k="ssr:stedsnr" v="340829" />
	</node>
	<node id="9916218872" lat="63.4397278" lon="10.6706778" version="1" timestamp="2022-07-28T04:34:36Z" changeset="124164878" uid="3497659" user="NKA">
		<tag k="name" v="Haugrønningan" />
		<tag k="place" v="farm" />
		<tag k="ssr:stedsnr" v="826795" />
	</node>
	<node id="9916218873" lat="63.4304002" lon="10.7654272" version="1" timestamp="2022-07-28T04:34:36Z" changeset="124164878" uid="3497659" user="NKA">
		<tag k="name" v="Rota" />
		<tag k="place" v="farm" />
		<tag k="ssr:stedsnr" v="954801" />
	</node>
	<node id="9916218874" lat="63.397665" lon="10.8503983" version="1" timestamp="2022-07-28T04:34:36Z" changeset="124164878" uid="3497659" user="NKA">
		<tag k="name" v="Høyby" />
		<tag k="place" v="hamlet" />
		<tag k="ssr:stedsnr" v="970918" />
	</node>
	<node id="9916218875" lat="63.42635" lon="10.809286" version="1" timestamp="2022-07-28T04:34:36Z" changeset="124164878" uid="3497659" user="NKA">
		<tag k="name" v="Sveian" />
		<tag k="old_name" v="Foten" />
		<tag k="place" v="farm" />
		<tag k="ssr:stedsnr" v="157752" />
	</node>
	<node id="9916218876" lat="63.4143854" lon="10.6846979" version="1" timestamp="2022-07-28T04:34:36Z" changeset="124164878" uid="3497659" user="NKA">
		<tag k="name" v="Skjenstad" />
		<tag k="place" v="hamlet" />
		<tag k="ssr:stedsnr" v="681126" />
	</node>
	<node id="9916218877" lat="63.4257472" lon="10.81315" version="1" timestamp="2022-07-28T04:34:36Z" changeset="124164878" uid="3497659" user="NKA">
		<tag k="name" v="Fotvollen" />
		<tag k="place" v="farm" />
		<tag k="ssr:stedsnr" v="825738" />
	</node>
	<node id="9916218878" lat="63.4229806" lon="10.8089556" version="1" timestamp="2022-07-28T04:34:36Z" changeset="124164878" uid="3497659" user="NKA">
		<tag k="name" v="Solbakken" />
		<tag k="place" v="farm" />
		<tag k="ssr:stedsnr" v="256026" />
	</node>
	<node id="9916218879" lat="63.4075805" lon="10.8113821" version="1" timestamp="2022-07-28T04:34:36Z" changeset="124164878" uid="3497659" user="NKA">
		<tag k="name" v="Neset" />
		<tag k="place" v="farm" />
		<tag k="ssr:stedsnr" v="643788" />
	</node>
	<node id="9916218880" lat="63.4115817" lon="10.7702868" version="1" timestamp="2022-07-28T04:34:36Z" changeset="124164878" uid="3497659" user="NKA">
		<tag k="name" v="Lauvåsen" />
		<tag k="place" v="farm" />
		<tag k="ssr:stedsnr" v="158778" />
	</node>
	<node id="9916218881" lat="63.3981467" lon="10.7916043" version="1" timestamp="2022-07-28T04:34:36Z" changeset="124164878" uid="3497659" user="NKA">
		<tag k="name" v="Stokkbakken" />
		<tag k="place" v="farm" />
		<tag k="ssr:stedsnr" v="498504" />
	</node>
	<node id="9916218882" lat="63.4204512" lon="10.8217888" version="1" timestamp="2022-07-28T04:34:36Z" changeset="124164878" uid="3497659" user="NKA">
		<tag k="name" v="Bjørklia" />
		<tag k="place" v="farm" />
		<tag k="ssr:stedsnr" v="134037" />
	</node>
	<node id="9916218883" lat="63.3321861" lon="10.8952194" version="1" timestamp="2022-07-28T04:34:36Z" changeset="124164878" uid="3497659" user="NKA">
		<tag k="name" v="Raudmyrdalen" />
		<tag k="place" v="farm" />
		<tag k="ssr:stedsnr" v="134385" />
	</node>
	<node id="9916218884" lat="63.4316883" lon="10.70826" version="1" timestamp="2022-07-28T04:34:36Z" changeset="124164878" uid="3497659" user="NKA">
		<tag k="alt_name" v="Storsanden" />
		<tag k="loc_name" v="Storsand" />
		<tag k="name" v="Storsandan" />
		<tag k="place" v="hamlet" />
		<tag k="ssr:stedsnr" v="195651" />
	</node>
	<node id="9916218885" lat="63.3871396" lon="10.7823245" version="1" timestamp="2022-07-28T04:34:36Z" changeset="124164878" uid="3497659" user="NKA">
		<tag k="alt_name" v="Hallen" />
		<tag k="name" v="Halla" />
		<tag k="place" v="farm" />
		<tag k="ssr:stedsnr" v="863458" />
	</node>
	<node id="9916218886" lat="63.4231916" lon="10.7364445" version="1" timestamp="2022-07-28T04:34:36Z" changeset="124164878" uid="3497659" user="NKA">
		<tag k="name" v="Borgheim" />
		<tag k="place" v="farm" />
		<tag k="ssr:stedsnr" v="826764" />
	</node>
	<node id="9916218887" lat="63.3237438" lon="10.8166819" version="1" timestamp="2022-07-28T04:34:36Z" changeset="124164878" uid="3497659" user="NKA">
		<tag k="name" v="Vika" />
		<tag k="place" v="hamlet" />
		<tag k="ssr:stedsnr" v="970921" />
	</node>
	<node id="9916218888" lat="63.4349361" lon="10.8215334" version="1" timestamp="2022-07-28T04:34:36Z" changeset="124164878" uid="3497659" user="NKA">
		<tag k="name" v="Sjøvollen" />
		<tag k="place" v="locality" />
		<tag k="ssr:stedsnr" v="704057" />
	</node>
	<node id="9916218889" lat="63.4003937" lon="10.792237" version="1" timestamp="2022-07-28T04:34:36Z" changeset="124164878" uid="3497659" user="NKA">
		<tag k="name" v="Modalen" />
		<tag k="place" v="farm" />
		<tag k="ssr:stedsnr" v="619508" />
	</node>
	<node id="9916218890" lat="63.3363167" lon="10.8192751" version="1" timestamp="2022-07-28T04:34:36Z" changeset="124164878" uid="3497659" user="NKA">
		<tag k="name" v="Haugli" />
		<tag k="place" v="farm" />
		<tag k="ssr:stedsnr" v="825766" />
	</node>
	<node id="9916218891" lat="63.3272694" lon="10.7343834" version="1" timestamp="2022-07-28T04:34:36Z" changeset="124164878" uid="3497659" user="NKA">
		<tag k="name" v="Meraker Brug A/S" />
		<tag k="place" v="locality" />
		<tag k="ssr:stedsnr" v="826122" />
	</node>
	<node id="9916218892" lat="63.4244334" lon="10.7354833" version="1" timestamp="2022-07-28T04:34:36Z" changeset="124164878" uid="3497659" user="NKA">
		<tag k="name" v="Haugsjå" />
		<tag k="place" v="locality" />
		<tag k="ssr:stedsnr" v="802024" />
	</node>
	<node id="9916218893" lat="63.4320276" lon="10.6989481" version="1" timestamp="2022-07-28T04:34:36Z" changeset="124164878" uid="3497659" user="NKA">
		<tag k="name" v="Torpaunet" />
		<tag k="place" v="farm" />
		<tag k="ssr:stedsnr" v="765765" />
	</node>
	<node id="9916218894" lat="63.4048854" lon="10.8120541" version="1" timestamp="2022-07-28T04:34:36Z" changeset="124164878" uid="3497659" user="NKA">
		<tag k="name" v="Sørneset" />
		<tag k="place" v="farm" />
		<tag k="ssr:stedsnr" v="887508" />
	</node>
	<node id="9916218895" lat="63.3775478" lon="10.781587" version="1" timestamp="2022-07-28T04:34:36Z" changeset="124164878" uid="3497659" user="NKA">
		<tag k="name" v="Dølan" />
		<tag k="place" v="farm" />
		<tag k="ssr:stedsnr" v="741580" />
	</node>
	<node id="9916218896" lat="63.4319834" lon="10.8256888" version="1" timestamp="2022-07-28T04:34:36Z" changeset="124164878" uid="3497659" user="NKA">
		<tag k="name" v="Moen" />
		<tag k="place" v="farm" />
		<tag k="ssr:stedsnr" v="340754" />
	</node>
	<node id="9916218897" lat="63.4273515" lon="10.6971845" version="1" timestamp="2022-07-28T04:34:36Z" changeset="124164878" uid="3497659" user="NKA">
		<tag k="name" v="Sandaunet" />
		<tag k="place" v="farm" />
		<tag k="ssr:stedsnr" v="280835" />
	</node>
	<node id="9916218898" lat="63.4191187" lon="10.7376623" version="1" timestamp="2022-07-28T04:34:36Z" changeset="124164878" uid="3497659" user="NKA">
		<tag k="name" v="Svedalen" />
		<tag k="place" v="farm" />
		<tag k="ssr:stedsnr" v="337903" />
	</node>
	<node id="9916218899" lat="63.3471892" lon="10.7665436" version="1" timestamp="2022-07-28T04:34:36Z" changeset="124164878" uid="3497659" user="NKA">
		<tag k="alt_name" v="Sjølia" />
		<tag k="name" v="Finnplassen" />
		<tag k="place" v="locality" />
		<tag k="ssr:stedsnr" v="619482" />
	</node>
	<node id="9916218900" lat="63.4209657" lon="10.7083261" version="1" timestamp="2022-07-28T04:34:36Z" changeset="124164878" uid="3497659" user="NKA">
		<tag k="alt_name" v="Vulu, vestre;Søre Vulu" />
		<tag k="name" v="Vestre Vulu" />
		<tag k="place" v="farm" />
		<tag k="ssr:stedsnr" v="620570" />
	</node>
	<node id="9916218901" lat="63.4281222" lon="10.7346834" version="1" timestamp="2022-07-28T04:34:36Z" changeset="124164878" uid="3497659" user="NKA">
		<tag k="name" v="Utsikten" />
		<tag k="place" v="farm" />
		<tag k="ssr:stedsnr" v="195009" />
	</node>
	<node id="9916218902" lat="63.4007834" lon="10.6338473" version="1" timestamp="2022-07-28T04:34:36Z" changeset="124164878" uid="3497659" user="NKA">
		<tag k="name" v="Søre Bromset" />
		<tag k="place" v="farm" />
		<tag k="ssr:stedsnr" v="462781" />
	</node>
	<node id="9916218903" lat="63.3341055" lon="10.8861282" version="1" timestamp="2022-07-28T04:34:36Z" changeset="124164878" uid="3497659" user="NKA">
		<tag k="alt_name" v="Vannberg" />
		<tag k="name" v="Vennberg" />
		<tag k="place" v="farm" />
		<tag k="ssr:stedsnr" v="438325" />
	</node>
	<node id="9916218904" lat="63.4306566" lon="10.7410887" version="1" timestamp="2022-07-28T04:34:36Z" changeset="124164878" uid="3497659" user="NKA">
		<tag k="alt_name" v="Stav østre" />
		<tag k="name" v="Østre Stav" />
		<tag k="place" v="farm" />
		<tag k="ssr:stedsnr" v="219781" />
	</node>
	<node id="9916218905" lat="63.4243988" lon="10.668548" version="1" timestamp="2022-07-28T04:34:36Z" changeset="124164878" uid="3497659" user="NKA">
		<tag k="name" v="Pedersborg" />
		<tag k="old_name" v="Petersborg" />
		<tag k="place" v="farm" />
		<tag k="ssr:stedsnr" v="377649" />
	</node>
	<node id="9916218906" lat="63.43895" lon="10.6795751" version="1" timestamp="2022-07-28T04:34:36Z" changeset="124164878" uid="3497659" user="NKA">
		<tag k="name" v="Haugberget" />
		<tag k="place" v="farm" />
		<tag k="ssr:stedsnr" v="219814" />
	</node>
	<node id="9916218907" lat="63.3940028" lon="10.6787583" version="1" timestamp="2022-07-28T04:34:36Z" changeset="124164878" uid="3497659" user="NKA">
		<tag k="name" v="Hønstadgjardet" />
		<tag k="place" v="farm" />
		<tag k="ssr:stedsnr" v="37802" />
	</node>
	<node id="9916218908" lat="63.3316417" lon="10.6995889" version="1" timestamp="2022-07-28T04:34:36Z" changeset="124164878" uid="3497659" user="NKA">
		<tag k="name" v="Fjellstuggu" />
		<tag k="place" v="isolated_dwelling" />
		<tag k="ssr:stedsnr" v="141373" />
	</node>
	<node id="9916218909" lat="63.3681649" lon="10.7631108" version="1" timestamp="2022-07-28T04:34:36Z" changeset="124164878" uid="3497659" user="NKA">
		<tag k="name" v="Bakken" />
		<tag k="place" v="hamlet" />
		<tag k="ssr:stedsnr" v="21036" />
	</node>
	<node id="9916218910" lat="63.3456944" lon="10.7610501" version="1" timestamp="2022-07-28T04:34:36Z" changeset="124164878" uid="3497659" user="NKA">
		<tag k="name" v="Gammelplassen" />
		<tag k="place" v="locality" />
		<tag k="ssr:stedsnr" v="316489" />
	</node>
	<node id="9916218911" lat="63.4227192" lon="10.7570312" version="1" timestamp="2022-07-28T04:34:36Z" changeset="124164878" uid="3497659" user="NKA">
		<tag k="name" v="Svingen" />
		<tag k="place" v="farm" />
		<tag k="ssr:stedsnr" v="13013" />
	</node>
	<node id="9916218912" lat="63.3683527" lon="10.7667759" version="1" timestamp="2022-07-28T04:34:36Z" changeset="124164878" uid="3497659" user="NKA">
		<tag k="name" v="Nyhus" />
		<tag k="place" v="farm" />
		<tag k="ssr:stedsnr" v="13505" />
	</node>
	<node id="9916218913" lat="63.4235111" lon="10.7448445" version="1" timestamp="2022-07-28T04:34:36Z" changeset="124164878" uid="3497659" user="NKA">
		<tag k="name" v="Kinnset" />
		<tag k="place" v="farm" />
		<tag k="ssr:stedsnr" v="13015" />
	</node>
	<node id="9916218914" lat="63.4160671" lon="10.8242146" version="1" timestamp="2022-07-28T04:34:36Z" changeset="124164878" uid="3497659" user="NKA">
		<tag k="name" v="Sandvang" />
		<tag k="place" v="farm" />
		<tag k="ssr:stedsnr" v="134038" />
	</node>
	<node id="9916218915" lat="63.3688717" lon="10.7812218" version="1" timestamp="2022-07-28T04:34:36Z" changeset="124164878" uid="3497659" user="NKA">
		<tag k="alt_name" v="Folden" />
		<tag k="name" v="Folla" />
		<tag k="place" v="farm" />
		<tag k="ssr:stedsnr" v="134447" />
	</node>
	<node id="9916218916" lat="63.4222284" lon="10.702754" version="1" timestamp="2022-07-28T04:34:36Z" changeset="124164878" uid="3497659" user="NKA">
		<tag k="name" v="Vulu" />
		<tag k="place" v="hamlet" />
		<tag k="ssr:stedsnr" v="634767" />
	</node>
	<node id="9916220817" lat="63.4381" lon="10.6060638" version="1" timestamp="2022-07-28T04:34:36Z" changeset="124164878" uid="3497659" user="NKA">
		<tag k="name" v="Ner Saksvik" />
		<tag k="place" v="farm" />
		<tag k="ssr:stedsnr" v="826804" />
	</node>
	<node id="9916220818" lat="63.3342599" lon="10.8767207" version="1" timestamp="2022-07-28T04:34:36Z" changeset="124164878" uid="3497659" user="NKA">
		<tag k="name" v="Østre Venn" />
		<tag k="place" v="farm" />
		<tag k="ssr:stedsnr" v="825755" />
	</node>
	<node id="9916220819" lat="63.4315139" lon="10.8285111" version="1" timestamp="2022-07-28T04:34:36Z" changeset="124164878" uid="3497659" user="NKA">
		<tag k="name" v="Heierås" />
		<tag k="place" v="farm" />
		<tag k="ssr:stedsnr" v="826759" />
	</node>
	<node id="9916220820" lat="63.4210278" lon="10.8117195" version="1" timestamp="2022-07-28T04:34:36Z" changeset="124164878" uid="3497659" user="NKA">
		<tag k="name" v="Midtre Hommelvik" />
		<tag k="place" v="farm" />
		<tag k="ssr:stedsnr" v="582117" />
	</node>
	<node id="9916220821" lat="63.4263309" lon="10.622231" version="1" timestamp="2022-07-28T04:34:36Z" changeset="124164878" uid="3497659" user="NKA">
		<tag k="name" v="Buenget" />
		<tag k="place" v="farm" />
		<tag k="ssr:stedsnr" v="802692" />
	</node>
	<node id="9916220822" lat="63.3987555" lon="10.7945166" version="1" timestamp="2022-07-28T04:34:36Z" changeset="124164878" uid="3497659" user="NKA">
		<tag k="name" v="Trøbakken" />
		<tag k="place" v="locality" />
		<tag k="ssr:stedsnr" v="438435" />
	</node>
	<node id="9916220823" lat="63.4322412" lon="10.6318709" version="1" timestamp="2022-07-28T04:34:36Z" changeset="124164878" uid="3497659" user="NKA">
		<tag k="name" v="Vikhammarmo" />
		<tag k="place" v="farm" />
		<tag k="ssr:stedsnr" v="498708" />
	</node>
	<node id="9916220824" lat="63.3479109" lon="10.7727857" version="1" timestamp="2022-07-28T04:34:36Z" changeset="124164878" uid="3497659" user="NKA">
		<tag k="alt_name" v="Kringhaugen" />
		<tag k="name" v="Høgstret" />
		<tag k="place" v="farm" />
		<tag k="ssr:stedsnr" v="377425" />
	</node>
	<node id="9916220825" lat="63.3750444" lon="10.7703862" version="1" timestamp="2022-07-28T04:34:36Z" changeset="124164878" uid="3497659" user="NKA">
		<tag k="name" v="Fosstrøa" />
		<tag k="place" v="farm" />
		<tag k="ssr:stedsnr" v="401767" />
	</node>
	<node id="9916220826" lat="63.43325" lon="10.82335" version="1" timestamp="2022-07-28T04:34:36Z" changeset="124164878" uid="3497659" user="NKA">
		<tag k="name" v="Holmen" />
		<tag k="place" v="farm" />
		<tag k="ssr:stedsnr" v="340752" />
	</node>
	<node id="9916220827" lat="63.4212315" lon="10.7531326" version="1" timestamp="2022-07-28T04:34:36Z" changeset="124164878" uid="3497659" user="NKA">
		<tag k="name" v="Sveberget" />
		<tag k="place" v="farm" />
		<tag k="ssr:stedsnr" v="385039" />
	</node>
	<node id="9916220828" lat="63.3619723" lon="10.7291722" version="1" timestamp="2022-07-28T04:34:36Z" changeset="124164878" uid="3497659" user="NKA">
		<tag k="name" v="Skaugvollen" />
		<tag k="place" v="isolated_dwelling" />
		<tag k="ssr:stedsnr" v="316457" />
	</node>
	<node id="9916220829" lat="63.4361084" lon="10.6151666" version="1" timestamp="2022-07-28T04:34:36Z" changeset="124164878" uid="3497659" user="NKA">
		<tag k="loc_name" v="Saksvikrønningen" />
		<tag k="name" v="Saksvikrydningen" />
		<tag k="place" v="farm" />
		<tag k="ssr:stedsnr" v="340799" />
	</node>
	<node id="9916220830" lat="63.4310199" lon="10.7302768" version="1" timestamp="2022-07-28T04:34:36Z" changeset="124164878" uid="3497659" user="NKA">
		<tag k="name" v="Litlsandan" />
		<tag k="place" v="farm" />
		<tag k="ssr:stedsnr" v="219785" />
	</node>
	<node id="9916220831" lat="63.4350759" lon="10.6837016" version="1" timestamp="2022-07-28T04:34:36Z" changeset="124164878" uid="3497659" user="NKA">
		<tag k="alt_name" v="Ner Torp;Torp, nedre" />
		<tag k="name" v="Nedre Torp" />
		<tag k="place" v="farm" />
		<tag k="ssr:stedsnr" v="256655" />
	</node>
	<node id="9916220832" lat="63.3347445" lon="10.8555723" version="1" timestamp="2022-07-28T04:34:36Z" changeset="124164878" uid="3497659" user="NKA">
		<tag k="name" v="Molia" />
		<tag k="place" v="farm" />
		<tag k="ssr:stedsnr" v="134390" />
	</node>
	<node id="9916220833" lat="63.4087929" lon="10.6928177" version="1" timestamp="2022-07-28T04:34:36Z" changeset="124164878" uid="3497659" user="NKA">
		<tag k="name" v="Haset" />
		<tag k="place" v="hamlet" />
		<tag k="ssr:stedsnr" v="970911" />
	</node>
	<node id="9916220834" lat="63.3234706" lon="10.7743542" version="1" timestamp="2022-07-28T04:34:36Z" changeset="124164878" uid="3497659" user="NKA">
		<tag k="alt_name" v="Rognås" />
		<tag k="name" v="Rognåsen" />
		<tag k="old_name" v="Vollås" />
		<tag k="place" v="farm" />
		<tag k="ssr:stedsnr" v="134371" />
	</node>
	<node id="9916220835" lat="63.395445" lon="10.6702691" version="1" timestamp="2022-07-28T04:34:36Z" changeset="124164878" uid="3497659" user="NKA">
		<tag k="name" v="Hønstad" />
		<tag k="place" v="hamlet" />
		<tag k="ssr:stedsnr" v="924520" />
	</node>
	<node id="9916220836" lat="63.4202997" lon="10.6705778" version="1" timestamp="2022-07-28T04:34:36Z" changeset="124164878" uid="3497659" user="NKA">
		<tag k="name" v="Nordre Forbord" />
		<tag k="old_name" v="Skånøy" />
		<tag k="place" v="farm" />
		<tag k="ssr:stedsnr" v="680664" />
	</node>
	<node id="9916220837" lat="63.4303021" lon="10.6240451" version="1" timestamp="2022-07-28T04:34:36Z" changeset="124164878" uid="3497659" user="NKA">
		<tag k="name" v="Granheim" />
		<tag k="place" v="farm" />
		<tag k="ssr:stedsnr" v="923652" />
	</node>
	<node id="9916220838" lat="63.4227055" lon="10.6989694" version="1" timestamp="2022-07-28T04:34:36Z" changeset="124164878" uid="3497659" user="NKA">
		<tag k="alt_name" v="Nordre Vulu;Vulu, nedre" />
		<tag k="name" v="Nedre Vulu" />
		<tag k="place" v="farm" />
		<tag k="ssr:stedsnr" v="74655" />
	</node>
	<node id="9916220839" lat="63.4323677" lon="10.6189079" version="1" timestamp="2022-07-28T04:34:36Z" changeset="124164878" uid="3497659" user="NKA">
		<tag k="alt_name" v="Åli;Søndre Vikhammer" />
		<tag k="name" v="Vikhammer søndre" />
		<tag k="place" v="farm" />
		<tag k="ssr:stedsnr" v="947797" />
	</node>
	<node id="9916220840" lat="63.4336778" lon="10.6644972" version="1" timestamp="2022-07-28T04:34:36Z" changeset="124164878" uid="3497659" user="NKA">
		<tag k="name" v="Malviksandan" />
		<tag k="place" v="farm" />
		<tag k="ssr:stedsnr" v="741746" />
	</node>
	<node id="9916220841" lat="63.322908" lon="10.8088971" version="1" timestamp="2022-07-28T04:34:36Z" changeset="124164878" uid="3497659" user="NKA">
		<tag k="alt_name" v="Brandhaug" />
		<tag k="name" v="Brannhaugen" />
		<tag k="place" v="farm" />
		<tag k="ssr:stedsnr" v="642758" />
	</node>
	<node id="9916220842" lat="63.3733831" lon="10.6634423" version="1" timestamp="2022-07-28T04:34:36Z" changeset="124164878" uid="3497659" user="NKA">
		<tag k="alt_name" v="Nybrodalen" />
		<tag k="name" v="Nybrudalen" />
		<tag k="place" v="farm" />
		<tag k="ssr:stedsnr" v="680591" />
	</node>
	<node id="9916220843" lat="63.427575" lon="10.6301361" version="1" timestamp="2022-07-28T04:34:36Z" changeset="124164878" uid="3497659" user="NKA">
		<tag k="alt_name" v="Leistad, vestre" />
		<tag k="name" v="Vestre Leistad" />
		<tag k="place" v="farm" />
		<tag k="ssr:stedsnr" v="802685" />
	</node>
	<node id="9916220844" lat="63.4131445" lon="10.6520758" version="1" timestamp="2022-07-28T04:34:36Z" changeset="124164878" uid="3497659" user="NKA">
		<tag k="name" v="Fjølstadtrøa" />
		<tag k="place" v="farm" />
		<tag k="ssr:stedsnr" v="498645" />
	</node>
	<node id="9916220845" lat="63.4386222" lon="10.6483166" version="1" timestamp="2022-07-28T04:34:36Z" changeset="124164878" uid="3497659" user="NKA">
		<tag k="name" v="Naustberget" />
		<tag k="place" v="farm" />
		<tag k="ssr:stedsnr" v="401778" />
	</node>
	<node id="9916220846" lat="63.4364695" lon="10.6715973" version="1" timestamp="2022-07-28T04:34:36Z" changeset="124164878" uid="3497659" user="NKA">
		<tag k="name" v="Haugan" />
		<tag k="place" v="farm" />
		<tag k="ssr:stedsnr" v="970903" />
	</node>
	<node id="9916220847" lat="63.4320389" lon="10.6609555" version="1" timestamp="2022-07-28T04:34:36Z" changeset="124164878" uid="3497659" user="NKA">
		<tag k="alt_name" v="Malvik, østre;Øvre Malvik" />
		<tag k="name" v="Østre Malvik" />
		<tag k="place" v="farm" />
		<tag k="ssr:stedsnr" v="862676" />
	</node>
	<node id="9916220848" lat="63.4294888" lon="10.6084907" version="1" timestamp="2022-07-28T04:34:36Z" changeset="124164878" uid="3497659" user="NKA">
		<tag k="name" v="Aunet" />
		<tag k="place" v="farm" />
		<tag k="ssr:stedsnr" v="680690" />
	</node>
	<node id="9916220849" lat="63.4377833" lon="10.6240555" version="1" timestamp="2022-07-28T04:34:36Z" changeset="124164878" uid="3497659" user="NKA">
		<tag k="name" v="Vik" />
		<tag k="place" v="farm" />
		<tag k="ssr:stedsnr" v="887815" />
	</node>
	<node id="9916220850" lat="63.4248278" lon="10.6136471" version="1" timestamp="2022-07-28T04:34:36Z" changeset="124164878" uid="3497659" user="NKA">
		<tag k="name" v="Vestre Bjørnstad" />
		<tag k="place" v="farm" />
		<tag k="ssr:stedsnr" v="462775" />
	</node>
	<node id="9916220851" lat="63.4232481" lon="10.6176259" version="1" timestamp="2022-07-28T04:34:36Z" changeset="124164878" uid="3497659" user="NKA">
		<tag k="alt_name" v="Søre Bjørnstad" />
		<tag k="name" v="Bjørnstad" />
		<tag k="place" v="hamlet" />
		<tag k="ssr:stedsnr" v="438654" />
	</node>
	<node id="9916220852" lat="63.4340246" lon="10.6079947" version="1" timestamp="2022-07-28T04:34:36Z" changeset="124164878" uid="3497659" user="NKA">
		<tag k="name" v="Søre Saksvik" />
		<tag k="place" v="farm" />
		<tag k="ssr:stedsnr" v="401781" />
	</node>
	<node id="9916220853" lat="63.4072306" lon="10.8260193" version="1" timestamp="2022-07-28T04:34:36Z" changeset="124164878" uid="3497659" user="NKA">
		<tag k="name" v="Svian" />
		<tag k="old_name" v="Sveian" />
		<tag k="place" v="locality" />
		<tag k="ssr:stedsnr" v="765474" />
	</node>
	<node id="9916220854" lat="63.4164593" lon="10.6121015" version="1" timestamp="2022-07-28T04:34:36Z" changeset="124164878" uid="3497659" user="NKA">
		<tag k="alt_name" v="Bakkan" />
		<tag k="name" v="Granli" />
		<tag k="place" v="farm" />
		<tag k="ssr:stedsnr" v="377599" />
	</node>
	<node id="9916220855" lat="63.4391285" lon="10.6334846" version="1" timestamp="2022-07-28T04:34:36Z" changeset="124164878" uid="3497659" user="NKA">
		<tag k="alt_name" v="Vikhammer øvre" />
		<tag k="name" v="Øvre Vikhammer" />
		<tag k="place" v="farm" />
		<tag k="ssr:stedsnr" v="976825" />
	</node>
	<node id="9916220856" lat="63.3896414" lon="10.7792833" version="1" timestamp="2022-07-28T04:34:36Z" changeset="124164878" uid="3497659" user="NKA">
		<tag k="name" v="Buåslia" />
		<tag k="place" v="farm" />
		<tag k="ssr:stedsnr" v="438426" />
	</node>
	<node id="9916220857" lat="63.4354682" lon="10.6793653" version="1" timestamp="2022-07-28T04:34:36Z" changeset="124164878" uid="3497659" user="NKA">
		<tag k="alt_name" v="Ner Malvik;Malvik, nedre" />
		<tag k="name" v="Nedre Malvik" />
		<tag k="place" v="farm" />
		<tag k="ssr:stedsnr" v="13697" />
	</node>
	<node id="9916220858" lat="63.4328754" lon="10.5988359" version="1" timestamp="2022-07-28T04:34:36Z" changeset="124164878" uid="3497659" user="NKA">
		<tag k="alt_name" v="Saksvik vestre" />
		<tag k="name" v="Vestre Saksvik" />
		<tag k="place" v="farm" />
		<tag k="ssr:stedsnr" v="680713" />
	</node>
	<node id="9916220859" lat="63.4334083" lon="10.8368723" version="1" timestamp="2022-07-28T04:34:36Z" changeset="124164878" uid="3497659" user="NKA">
		<tag k="name" v="Åsbakken" />
		<tag k="place" v="farm" />
		<tag k="ssr:stedsnr" v="157753" />
	</node>
	<node id="9916220860" lat="63.4238111" lon="10.6828416" version="1" timestamp="2022-07-28T04:34:36Z" changeset="124164878" uid="3497659" user="NKA">
		<tag k="alt_name" v="Malvik, s" />
		<tag k="name" v="Søre Malvik" />
		<tag k="place" v="farm" />
		<tag k="ssr:stedsnr" v="13669" />
	</node>
	<node id="9916220861" lat="63.3350916" lon="10.8581806" version="1" timestamp="2022-07-28T04:34:36Z" changeset="124164878" uid="3497659" user="NKA">
		<tag k="name" v="Moholt" />
		<tag k="place" v="farm" />
		<tag k="ssr:stedsnr" v="36776" />
	</node>
	<node id="9916220862" lat="63.4317" lon="10.6016612" version="1" timestamp="2022-07-28T04:34:36Z" changeset="124164878" uid="3497659" user="NKA">
		<tag k="name" v="Aunkleiva" />
		<tag k="place" v="farm" />
		<tag k="ssr:stedsnr" v="462848" />
	</node>
	<node id="9916220863" lat="63.4321897" lon="10.7480456" version="1" timestamp="2022-07-28T04:34:36Z" changeset="124164878" uid="3497659" user="NKA">
		<tag k="name" v="Sjøtrøa" />
		<tag k="place" v="farm" />
		<tag k="ssr:stedsnr" v="704063" />
	</node>
	<node id="9916220864" lat="63.4320094" lon="10.699548" version="1" timestamp="2022-07-28T04:34:36Z" changeset="124164878" uid="3497659" user="NKA">
		<tag k="alt_name" v="Torpaunet vestre" />
		<tag k="name" v="Vestre Torpaunet" />
		<tag k="place" v="farm" />
		<tag k="ssr:stedsnr" v="976828" />
	</node>
	<node id="9916220865" lat="63.4304584" lon="10.6062749" version="1" timestamp="2022-07-28T04:34:36Z" changeset="124164878" uid="3497659" user="NKA">
		<tag k="name" v="Auntrøa" />
		<tag k="place" v="farm" />
		<tag k="ssr:stedsnr" v="522791" />
	</node>
	<node id="9916220866" lat="63.3832205" lon="10.7749132" version="1" timestamp="2022-07-28T04:34:36Z" changeset="124164878" uid="3497659" user="NKA">
		<tag k="name" v="Fosslia" />
		<tag k="place" v="farm" />
		<tag k="ssr:stedsnr" v="681481" />
	</node>
	<node id="9916220867" lat="63.3283361" lon="10.8132001" version="1" timestamp="2022-07-28T04:34:36Z" changeset="124164878" uid="3497659" user="NKA">
		<tag k="name" v="Nordheim" />
		<tag k="place" v="farm" />
		<tag k="ssr:stedsnr" v="219144" />
	</node>
	<node id="9916220868" lat="63.3812651" lon="10.7661219" version="1" timestamp="2022-07-28T04:34:36Z" changeset="124164878" uid="3497659" user="NKA">
		<tag k="name" v="Foldaslettan" />
		<tag k="place" v="farm" />
		<tag k="ssr:stedsnr" v="462844" />
	</node>
	<node id="9916220869" lat="63.4310833" lon="10.7489889" version="1" timestamp="2022-07-28T04:34:36Z" changeset="124164878" uid="3497659" user="NKA">
		<tag k="name" v="Stavset" />
		<tag k="place" v="farm" />
		<tag k="ssr:stedsnr" v="462748" />
	</node>
	<node id="9916220870" lat="63.4160539" lon="10.8202461" version="1" timestamp="2022-07-28T04:34:36Z" changeset="124164878" uid="3497659" user="NKA">
		<tag k="name" v="Sandmark" />
		<tag k="place" v="farm" />
		<tag k="ssr:stedsnr" v="401815" />
	</node>
	<node id="9916220871" lat="63.3968639" lon="10.7919555" version="1" timestamp="2022-07-28T04:34:36Z" changeset="124164878" uid="3497659" user="NKA">
		<tag k="name" v="Grindbakken" />
		<tag k="place" v="farm" />
		<tag k="ssr:stedsnr" v="438431" />
	</node>
	<node id="9916220872" lat="63.4237516" lon="10.8260951" version="1" timestamp="2022-07-28T04:34:36Z" changeset="124164878" uid="3497659" user="NKA">
		<tag k="alt_name" v="Hommelvik østre;Austre Hommelvik;Hommelvik, austre;Hommelvik" />
		<tag k="name" v="Østre Hommelvik" />
		<tag k="place" v="farm" />
		<tag k="ssr:stedsnr" v="377017" />
	</node>
	<node id="9916220873" lat="63.3823862" lon="10.7756916" version="1" timestamp="2022-07-28T04:34:36Z" changeset="124164878" uid="3497659" user="NKA">
		<tag k="alt_name" v="Fossli mellom" />
		<tag k="name" v="Midtre Fossli" />
		<tag k="place" v="farm" />
		<tag k="ssr:stedsnr" v="340790" />
	</node>
	<node id="9916220874" lat="63.3378167" lon="10.8345528" version="1" timestamp="2022-07-28T04:34:36Z" changeset="124164878" uid="3497659" user="NKA">
		<tag k="alt_name" v="Vennstad" />
		<tag k="name" v="Venstad" />
		<tag k="place" v="farm" />
		<tag k="ssr:stedsnr" v="741393" />
	</node>
	<node id="9916220875" lat="63.3238088" lon="10.8168082" version="1" timestamp="2022-07-28T04:34:36Z" changeset="124164878" uid="3497659" user="NKA">
		<tag k="alt_name" v="Vika;Viken øvre" />
		<tag k="name" v="Øvre Vika" />
		<tag k="place" v="farm" />
		<tag k="ssr:stedsnr" v="741370" />
	</node>
	<node id="9916220876" lat="63.4191185" lon="10.7376618" version="1" timestamp="2022-07-28T04:34:36Z" changeset="124164878" uid="3497659" user="NKA">
		<tag k="name" v="Søre Svedalen" />
		<tag k="place" v="farm" />
		<tag k="ssr:stedsnr" v="376023" />
	</node>
	<node id="9916220877" lat="63.3882896" lon="10.7762811" version="1" timestamp="2022-07-28T04:34:36Z" changeset="124164878" uid="3497659" user="NKA">
		<tag k="alt_name" v="Hallien" />
		<tag k="name" v="Hallia" />
		<tag k="place" v="farm" />
		<tag k="ssr:stedsnr" v="681443" />
	</node>
	<node id="9916220878" lat="63.3984389" lon="10.8485777" version="1" timestamp="2022-07-28T04:34:36Z" changeset="124164878" uid="3497659" user="NKA">
		<tag k="name" v="Nordre Høyby" />
		<tag k="place" v="farm" />
		<tag k="ssr:stedsnr" v="582786" />
	</node>
	<node id="9916220879" lat="63.3556972" lon="10.8116833" version="1" timestamp="2022-07-28T04:34:36Z" changeset="124164878" uid="3497659" user="NKA">
		<tag k="name" v="Torshaugen" />
		<tag k="place" v="farm" />
		<tag k="ssr:stedsnr" v="680425" />
	</node>
	<node id="9916220880" lat="63.3453443" lon="10.8683121" version="1" timestamp="2022-07-28T04:34:36Z" changeset="124164878" uid="3497659" user="NKA">
		<tag k="name" v="Follan" />
		<tag k="place" v="farm" />
		<tag k="ssr:stedsnr" v="522821" />
	</node>
	<node id="9916220881" lat="63.42532" lon="10.8179271" version="1" timestamp="2022-07-28T04:34:36Z" changeset="124164878" uid="3497659" user="NKA">
		<tag k="alt_name" v="Hommelvik vestre" />
		<tag k="name" v="Vestre Hommelvik" />
		<tag k="place" v="farm" />
		<tag k="ssr:stedsnr" v="74023" />
	</node>
	<node id="9916220882" lat="63.3916639" lon="10.7875152" version="1" timestamp="2022-07-28T04:34:36Z" changeset="124164878" uid="3497659" user="NKA">
		<tag k="name" v="Buås" />
		<tag k="place" v="farm" />
		<tag k="ssr:stedsnr" v="947786" />
	</node>
	<node id="9916220883" lat="63.3481472" lon="10.8714454" version="1" timestamp="2022-07-28T04:34:36Z" changeset="124164878" uid="3497659" user="NKA">
		<tag k="alt_name" v="Øvre Jøsås;Jøsås, øvre;Lånkstuggu" />
		<tag k="name" v="Øvre Jøssåsen" />
		<tag k="place" v="farm" />
		<tag k="ssr:stedsnr" v="498475" />
	</node>
	<node id="9916220884" lat="63.3994527" lon="10.7904361" version="1" timestamp="2022-07-28T04:34:36Z" changeset="124164878" uid="3497659" user="NKA">
		<tag k="name" v="Åsberget" />
		<tag k="place" v="farm" />
		<tag k="ssr:stedsnr" v="13481" />
	</node>
	<node id="9916220885" lat="63.3497583" lon="10.85865" version="1" timestamp="2022-07-28T04:34:36Z" changeset="124164878" uid="3497659" user="NKA">
		<tag k="name" v="Nordgjardet" />
		<tag k="place" v="farm" />
		<tag k="ssr:stedsnr" v="401811" />
	</node>
	<node id="9916220886" lat="63.4235389" lon="10.6794194" version="1" timestamp="2022-07-28T04:34:36Z" changeset="124164878" uid="3497659" user="NKA">
		<tag k="name" v="Solheim" />
		<tag k="place" v="farm" />
		<tag k="ssr:stedsnr" v="13668" />
	</node>
	<node id="9916220887" lat="63.3910775" lon="10.7847797" version="1" timestamp="2022-07-28T04:34:36Z" changeset="124164878" uid="3497659" user="NKA">
		<tag k="name" v="Buåsen" />
		<tag k="place" v="hamlet" />
		<tag k="ssr:stedsnr" v="377438" />
	</node>
	<node id="9916220888" lat="63.415035" lon="10.7703675" version="1" timestamp="2022-07-28T04:34:36Z" changeset="124164878" uid="3497659" user="NKA">
		<tag k="name" v="Brattalia" />
		<tag k="place" v="farm" />
		<tag k="ssr:stedsnr" v="13020" />
	</node>
	<node id="9916220889" lat="63.3818472" lon="10.8292972" version="1" timestamp="2022-07-28T04:34:36Z" changeset="124164878" uid="3497659" user="NKA">
		<tag k="name" v="Håsetvollen" />
		<tag k="place" v="isolated_dwelling" />
		<tag k="ssr:stedsnr" v="376492" />
	</node>
	<node id="9916220890" lat="63.433955" lon="10.6707067" version="1" timestamp="2022-07-28T04:34:36Z" changeset="124164878" uid="3497659" user="NKA">
		<tag k="alt_name" v="Malvik, store" />
		<tag k="name" v="Store Malvik" />
		<tag k="place" v="farm" />
		<tag k="ssr:stedsnr" v="862677" />
	</node>
	<node id="9916220891" lat="63.4264834" lon="10.6909777" version="1" timestamp="2022-07-28T04:34:36Z" changeset="124164878" uid="3497659" user="NKA">
		<tag k="name" v="Reitan" />
		<tag k="place" v="farm" />
		<tag k="ssr:stedsnr" v="863663" />
	</node>
	<node id="9916220892" lat="63.3294566" lon="10.8097989" version="1" timestamp="2022-07-28T04:34:36Z" changeset="124164878" uid="3497659" user="NKA">
		<tag k="name" v="Brubakken" />
		<tag k="place" v="farm" />
		<tag k="ssr:stedsnr" v="316367" />
	</node>
	<node id="9916220893" lat="63.3334584" lon="10.8618417" version="1" timestamp="2022-07-28T04:34:36Z" changeset="124164878" uid="3497659" user="NKA">
		<tag k="name" v="Solhaugen" />
		<tag k="place" v="farm" />
		<tag k="ssr:stedsnr" v="316394" />
	</node>
	<node id="9916220894" lat="63.3969814" lon="10.8511187" version="1" timestamp="2022-07-28T04:34:36Z" changeset="124164878" uid="3497659" user="NKA">
		<tag k="alt_name" v="Høyby" />
		<tag k="name" v="Høybygjardet" />
		<tag k="place" v="farm" />
		<tag k="ssr:stedsnr" v="863463" />
	</node>
	<node id="9916220895" lat="63.3417528" lon="10.7932388" version="1" timestamp="2022-07-28T04:34:36Z" changeset="124164878" uid="3497659" user="NKA">
		<tag k="name" v="Hallvardsplassen" />
		<tag k="place" v="farm" />
		<tag k="ssr:stedsnr" v="134480" />
	</node>
	<node id="9916220896" lat="63.3248431" lon="10.8002913" version="1" timestamp="2022-07-28T04:34:36Z" changeset="124164878" uid="3497659" user="NKA">
		<tag k="alt_name" v="Ner Vollen" />
		<tag k="name" v="Vollen" />
		<tag k="place" v="farm" />
		<tag k="ssr:stedsnr" v="13348" />
	</node>
	<node id="9916220897" lat="63.4135837" lon="10.6725966" version="1" timestamp="2022-07-28T04:34:36Z" changeset="124164878" uid="3497659" user="NKA">
		<tag k="name" v="Verkland" />
		<tag k="place" v="farm" />
		<tag k="ssr:stedsnr" v="863630" />
	</node>
	<node id="9916220898" lat="63.3363027" lon="10.8516584" version="1" timestamp="2022-07-28T04:34:36Z" changeset="124164878" uid="3497659" user="NKA">
		<tag k="name" v="Molund" />
		<tag k="place" v="farm" />
		<tag k="ssr:stedsnr" v="195366" />
	</node>
	<node id="9916220899" lat="63.3364417" lon="10.8429945" version="1" timestamp="2022-07-28T04:34:36Z" changeset="124164878" uid="3497659" user="NKA">
		<tag k="name" v="Skogly" />
		<tag k="place" v="farm" />
		<tag k="ssr:stedsnr" v="195367" />
	</node>
	<node id="9916220900" lat="63.3799116" lon="10.7723372" version="1" timestamp="2022-07-28T04:34:36Z" changeset="124164878" uid="3497659" user="NKA">
		<tag k="name" v="Fossen" />
		<tag k="place" v="hamlet" />
		<tag k="ssr:stedsnr" v="583799" />
	</node>
	<node id="9916220901" lat="63.4185603" lon="10.7751805" version="1" timestamp="2022-07-28T04:34:36Z" changeset="124164878" uid="3497659" user="NKA">
		<tag k="name" v="Grønberg" />
		<tag k="place" v="quarter" />
		<tag k="ssr:stedsnr" v="704087" />
	</node>
	<node id="9916220902" lat="63.413077" lon="10.7795993" version="1" timestamp="2022-07-28T04:34:36Z" changeset="124164878" uid="3497659" user="NKA">
		<tag k="name" v="Halstad" />
		<tag k="place" v="farm" />
		<tag k="ssr:stedsnr" v="377037" />
	</node>
	<node id="9916220903" lat="63.3565057" lon="10.779298" version="1" timestamp="2022-07-28T04:34:36Z" changeset="124164878" uid="3497659" user="NKA">
		<tag k="name" v="Danielshaugen" />
		<tag k="place" v="hamlet" />
		<tag k="ssr:stedsnr" v="558406" />
	</node>
	<node id="9916220904" lat="63.3271948" lon="10.7625321" version="1" timestamp="2022-07-28T04:34:36Z" changeset="124164878" uid="3497659" user="NKA">
		<tag k="name" v="Bonaunet" />
		<tag k="place" v="hamlet" />
		<tag k="ssr:stedsnr" v="438314" />
	</node>
	<node id="9916220905" lat="63.3229916" lon="10.910425" version="1" timestamp="2022-07-28T04:34:36Z" changeset="124164878" uid="3497659" user="NKA">
		<tag k="historic" v="shieling" />
		<tag k="name" v="Vennavollen" />
		<tag k="place" v="isolated_dwelling" />
		<tag k="ssr:stedsnr" v="583829" />
	</node>
	<node id="9916220906" lat="63.4225974" lon="10.6752978" version="1" timestamp="2022-07-28T04:34:36Z" changeset="124164878" uid="3497659" user="NKA">
		<tag k="alt_name" v="Forbord" />
		<tag k="name" v="Nedre Forbord" />
		<tag k="old_name" v="Østre Forbord" />
		<tag k="place" v="farm" />
		<tag k="ssr:stedsnr" v="776850" />
	</node>
	<node id="9916220907" lat="63.3161527" lon="10.7246084" version="1" timestamp="2022-07-28T04:34:36Z" changeset="124164878" uid="3497659" user="NKA">
		<tag k="name" v="Fosslivollen" />
		<tag k="place" v="isolated_dwelling" />
		<tag k="ssr:stedsnr" v="74357" />
	</node>
	<node id="9916220908" lat="63.331075" lon="10.7080639" version="1" timestamp="2022-07-28T04:34:36Z" changeset="124164878" uid="3497659" user="NKA">
		<tag k="name" v="Malvikvollen" />
		<tag k="place" v="isolated_dwelling" />
		<tag k="ssr:stedsnr" v="134912" />
	</node>
	<node id="9916220909" lat="63.4223834" lon="10.7363389" version="1" timestamp="2022-07-28T04:34:36Z" changeset="124164878" uid="3497659" user="NKA">
		<tag k="name" v="Nordre Svedalen" />
		<tag k="place" v="farm" />
		<tag k="ssr:stedsnr" v="741027" />
	</node>
	<node id="9916220910" lat="63.3403471" lon="10.8261097" version="1" timestamp="2022-07-28T04:34:36Z" changeset="124164878" uid="3497659" user="NKA">
		<tag k="name" v="Snustad" />
		<tag k="place" v="hamlet" />
		<tag k="ssr:stedsnr" v="970922" />
	</node>
	<node id="9916220911" lat="63.430179" lon="10.7387147" version="1" timestamp="2022-07-28T04:34:36Z" changeset="124164878" uid="3497659" user="NKA">
		<tag k="alt_name" v="Vestre Stav" />
		<tag k="name" v="Stav" />
		<tag k="place" v="hamlet" />
		<tag k="ssr:stedsnr" v="741017" />
	</node>
	<node id="9916220912" lat="63.3397139" lon="10.8237806" version="1" timestamp="2022-07-28T04:34:36Z" changeset="124164878" uid="3497659" user="NKA">
		<tag k="name" v="Ner Snustad" />
		<tag k="place" v="farm" />
		<tag k="ssr:stedsnr" v="946771" />
	</node>
	<node id="9916220913" lat="63.4303607" lon="10.6397577" version="1" timestamp="2022-07-28T04:34:36Z" changeset="124164878" uid="3497659" user="NKA">
		<tag k="alt_name" v="Leistad, l" />
		<tag k="name" v="Litle Leistad" />
		<tag k="place" v="farm" />
		<tag k="ssr:stedsnr" v="680685" />
	</node>
	<node id="9916220914" lat="63.3524797" lon="10.7640637" version="1" timestamp="2022-07-28T04:34:36Z" changeset="124164878" uid="3497659" user="NKA">
		<tag k="name" v="Dalen" />
		<tag k="place" v="farm" />
		<tag k="ssr:stedsnr" v="923423" />
	</node>
	<node id="9916220915" lat="63.4324181" lon="10.67504" version="1" timestamp="2022-07-28T04:34:36Z" changeset="124164878" uid="3497659" user="NKA">
		<tag k="alt_name" v="Malvik, l" />
		<tag k="name" v="Litle Malvik" />
		<tag k="place" v="farm" />
		<tag k="ssr:stedsnr" v="558705" />
	</node>
	<node id="9916220916" lat="63.4332414" lon="10.6935179" version="1" timestamp="2022-07-28T04:34:36Z" changeset="124164878" uid="3497659" user="NKA">
		<tag k="name" v="Bjørkheim" />
		<tag k="place" v="locality" />
		<tag k="ssr:stedsnr" v="522758" />
	</node>
	<node id="9916220917" lat="63.4363694" lon="10.6650334" version="1" timestamp="2022-07-28T04:34:36Z" changeset="124164878" uid="3497659" user="NKA">
		<tag k="name" v="Ner Haugan" />
		<tag k="place" v="farm" />
		<tag k="ssr:stedsnr" v="522787" />
	</node>
	<node id="9916220918" lat="63.3268414" lon="10.7528447" version="1" timestamp="2022-07-28T04:34:36Z" changeset="124164878" uid="3497659" user="NKA">
		<tag k="name" v="Rollstad" />
		<tag k="place" v="farm" />
		<tag k="ssr:stedsnr" v="802364" />
	</node>
	<node id="9916220919" lat="63.4399444" lon="10.6737027" version="1" timestamp="2022-07-28T04:34:36Z" changeset="124164878" uid="3497659" user="NKA">
		<tag k="name" v="Haugmarka" />
		<tag k="place" v="farm" />
		<tag k="ssr:stedsnr" v="522781" />
	</node>
	<node id="9916220920" lat="63.4130554" lon="10.6342925" version="1" timestamp="2022-07-28T04:34:36Z" changeset="124164878" uid="3497659" user="NKA">
		<tag k="alt_name" v="Vestre Bostad" />
		<tag k="name" v="Bostad" />
		<tag k="place" v="hamlet" />
		<tag k="ssr:stedsnr" v="498646" />
	</node>
	<node id="9916220921" lat="63.4117771" lon="10.6211779" version="1" timestamp="2022-07-28T04:34:36Z" changeset="124164878" uid="3497659" user="NKA">
		<tag k="name" v="Elvetun" />
		<tag k="place" v="farm" />
		<tag k="ssr:stedsnr" v="498643" />
	</node>
	<node id="9916220922" lat="63.375567" lon="10.662822" version="1" timestamp="2022-07-28T04:34:36Z" changeset="124164878" uid="3497659" user="NKA">
		<tag k="name" v="Tulluan" />
		<tag k="place" v="farm" />
		<tag k="ssr:stedsnr" v="498579" />
	</node>
	<node id="9916220923" lat="63.4078554" lon="10.6936265" version="1" timestamp="2022-07-28T04:34:36Z" changeset="124164878" uid="3497659" user="NKA">
		<tag k="alt_name" v="Haset" />
		<tag k="name" v="Søre Haset" />
		<tag k="place" v="farm" />
		<tag k="ssr:stedsnr" v="498648" />
	</node>
	<node id="9916220924" lat="63.3336481" lon="10.8154574" version="1" timestamp="2022-07-28T04:34:36Z" changeset="124164878" uid="3497659" user="NKA">
		<tag k="name" v="Tjønnåsen" />
		<tag k="place" v="farm" />
		<tag k="ssr:stedsnr" v="74340" />
	</node>
	<node id="9916220925" lat="63.4210222" lon="10.6712805" version="1" timestamp="2022-07-28T04:34:36Z" changeset="124164878" uid="3497659" user="NKA">
		<tag k="name" v="Øvre Forbord" />
		<tag k="place" v="farm" />
		<tag k="ssr:stedsnr" v="479887" />
	</node>
	<node id="9916220926" lat="63.4146417" lon="10.6612111" version="1" timestamp="2022-07-28T04:34:36Z" changeset="124164878" uid="3497659" user="NKA">
		<tag k="name" v="Vestre Forbord" />
		<tag k="old_name" v="Kvisthaugen" />
		<tag k="place" v="farm" />
		<tag k="ssr:stedsnr" v="438604" />
	</node>
	<node id="9916220927" lat="63.4318528" lon="10.6413028" version="1" timestamp="2022-07-28T04:34:36Z" changeset="124164878" uid="3497659" user="NKA">
		<tag k="name" v="Leistadtrøa" />
		<tag k="place" v="locality" />
		<tag k="ssr:stedsnr" v="461354" />
	</node>
	<node id="9916220928" lat="63.4219884" lon="10.671831" version="1" timestamp="2022-07-28T04:34:36Z" changeset="124164878" uid="3497659" user="NKA">
		<tag k="name" v="Forbord" />
		<tag k="place" v="hamlet" />
		<tag k="ssr:stedsnr" v="438605" />
	</node>
	<node id="9916220929" lat="63.3514021" lon="10.7745501" version="1" timestamp="2022-07-28T04:34:36Z" changeset="124164878" uid="3497659" user="NKA">
		<tag k="name" v="Verket" />
		<tag k="place" v="farm" />
		<tag k="ssr:stedsnr" v="13420" />
	</node>
	<node id="9916220930" lat="63.4177995" lon="10.6725356" version="1" timestamp="2022-07-28T04:34:36Z" changeset="124164878" uid="3497659" user="NKA">
		<tag k="alt_name" v="Forbord søndre" />
		<tag k="name" v="Søre Forbord" />
		<tag k="place" v="farm" />
		<tag k="ssr:stedsnr" v="438603" />
	</node>
	<node id="9916220931" lat="63.3533806" lon="10.7738944" version="1" timestamp="2022-07-28T04:34:36Z" changeset="124164878" uid="3497659" user="NKA">
		<tag k="name" v="Øra" />
		<tag k="place" v="locality" />
		<tag k="ssr:stedsnr" v="923421" />
	</node>
	<node id="9916220932" lat="63.3234759" lon="10.8143184" version="1" timestamp="2022-07-28T04:34:36Z" changeset="124164878" uid="3497659" user="NKA">
		<tag k="alt_name" v="Viken nedre" />
		<tag k="name" v="Ner Vika" />
		<tag k="place" v="farm" />
		<tag k="ssr:stedsnr" v="825769" />
	</node>
	<node id="9916220933" lat="63.39183" lon="10.6510876" version="1" timestamp="2022-07-28T04:34:36Z" changeset="124164878" uid="3497659" user="NKA">
		<tag k="alt_name" v="Herjuan" />
		<tag k="name" v="Herjuaunet" />
		<tag k="place" v="farm" />
		<tag k="ssr:stedsnr" v="438530" />
	</node>
	<node id="9916220934" lat="63.3243611" lon="10.7972638" version="1" timestamp="2022-07-28T04:34:36Z" changeset="124164878" uid="3497659" user="NKA">
		<tag k="name" v="Øvre Vollen" />
		<tag k="place" v="farm" />
		<tag k="ssr:stedsnr" v="825771" />
	</node>
	<node id="9916220935" lat="63.3450223" lon="10.7350306" version="1" timestamp="2022-07-28T04:34:36Z" changeset="124164878" uid="3497659" user="NKA">
		<tag k="name" v="Setra" />
		<tag k="place" v="isolated_dwelling" />
		<tag k="ssr:stedsnr" v="741504" />
	</node>
	<node id="9916220936" lat="63.4158305" lon="10.6955905" version="1" timestamp="2022-07-28T04:34:36Z" changeset="124164878" uid="3497659" user="NKA">
		<tag k="name" v="Engan" />
		<tag k="place" v="farm" />
		<tag k="ssr:stedsnr" v="377582" />
	</node>
	<node id="9916220937" lat="63.3754532" lon="10.767129" version="1" timestamp="2022-07-28T04:34:36Z" changeset="124164878" uid="3497659" user="NKA">
		<tag k="alt_name" v="Fossmoen" />
		<tag k="name" v="Fossmo" />
		<tag k="place" v="farm" />
		<tag k="ssr:stedsnr" v="376495" />
	</node>
	<node id="9916220938" lat="63.3974381" lon="10.6251659" version="1" timestamp="2022-07-28T04:34:36Z" changeset="124164878" uid="3497659" user="NKA">
		<tag k="name" v="Vasselja" />
		<tag k="place" v="farm" />
		<tag k="ssr:stedsnr" v="377557" />
	</node>
	<node id="9916220939" lat="63.4098884" lon="10.6938366" version="1" timestamp="2022-07-28T04:34:36Z" changeset="124164878" uid="3497659" user="NKA">
		<tag k="name" v="Nordre Haset" />
		<tag k="place" v="farm" />
		<tag k="ssr:stedsnr" v="340819" />
	</node>
	<node id="9916220940" lat="63.3354945" lon="10.8126445" version="1" timestamp="2022-07-28T04:34:36Z" changeset="124164878" uid="3497659" user="NKA">
		<tag k="name" v="Sørli" />
		<tag k="place" v="farm" />
		<tag k="ssr:stedsnr" v="704758" />
	</node>
	<node id="9916220941" lat="63.4250166" lon="10.6858195" version="1" timestamp="2022-07-28T04:34:36Z" changeset="124164878" uid="3497659" user="NKA">
		<tag k="name" v="Årli" />
		<tag k="place" v="farm" />
		<tag k="ssr:stedsnr" v="256618" />
	</node>
	<node id="9916220942" lat="63.4231333" lon="10.6719444" version="1" timestamp="2022-07-28T04:34:36Z" changeset="124164878" uid="3497659" user="NKA">
		<tag k="name" v="Litle Forbord" />
		<tag k="place" v="farm" />
		<tag k="ssr:stedsnr" v="297873" />
	</node>
	<node id="9916220943" lat="63.3250151" lon="10.7583785" version="1" timestamp="2022-07-28T04:34:36Z" changeset="124164878" uid="3497659" user="NKA">
		<tag k="name" v="Rollset" />
		<tag k="place" v="farm" />
		<tag k="ssr:stedsnr" v="558327" />
	</node>
	<node id="9916220944" lat="63.4149013" lon="10.6412888" version="1" timestamp="2022-07-28T04:34:36Z" changeset="124164878" uid="3497659" user="NKA">
		<tag k="name" v="Fjølstad" />
		<tag k="place" v="farm" />
		<tag k="ssr:stedsnr" v="256568" />
	</node>
	<node id="9916220945" lat="63.3337004" lon="10.8679123" version="1" timestamp="2022-07-28T04:34:36Z" changeset="124164878" uid="3497659" user="NKA">
		<tag k="alt_name" v="Vestre Venn" />
		<tag k="name" v="Venna" />
		<tag k="place" v="hamlet" />
		<tag k="ssr:stedsnr" v="255335" />
	</node>
	<node id="9916220946" lat="63.4338328" lon="10.6914306" version="1" timestamp="2022-07-28T04:34:36Z" changeset="124164878" uid="3497659" user="NKA">
		<tag k="name" v="Torp" />
		<tag k="place" v="quarter" />
		<tag k="ssr:stedsnr" v="158066" />
	</node>
	<node id="9916220947" lat="63.353542" lon="10.8541202" version="1" timestamp="2022-07-28T04:34:36Z" changeset="124164878" uid="3497659" user="NKA">
		<tag k="name" v="Nilsdalen" />
		<tag k="place" v="farm" />
		<tag k="ssr:stedsnr" v="437411" />
	</node>
	<node id="9916220948" lat="63.3469553" lon="10.8654275" version="1" timestamp="2022-07-28T04:34:36Z" changeset="124164878" uid="3497659" user="NKA">
		<tag k="alt_name" v="Jøsås, litle;Litle Jøsås;Nergården" />
		<tag k="name" v="Litle Jøssåsen" />
		<tag k="place" v="farm" />
		<tag k="ssr:stedsnr" v="219719" />
	</node>
	<node id="9916220949" lat="63.420927" lon="10.6348627" version="1" timestamp="2022-07-28T04:34:36Z" changeset="124164878" uid="3497659" user="NKA">
		<tag k="name" v="Fevollen" />
		<tag k="place" v="farm" />
		<tag k="ssr:stedsnr" v="134645" />
	</node>
	<node id="9916220950" lat="63.4333833" lon="10.65965" version="1" timestamp="2022-07-28T04:34:36Z" changeset="124164878" uid="3497659" user="NKA">
		<tag k="alt_name" v="Malvik, vestre" />
		<tag k="name" v="Vestre Malvik" />
		<tag k="place" v="farm" />
		<tag k="ssr:stedsnr" v="619707" />
	</node>
	<node id="9916220951" lat="63.3905778" lon="10.6435389" version="1" timestamp="2022-07-28T04:34:36Z" changeset="124164878" uid="3497659" user="NKA">
		<tag k="name" v="Ner Herjuan" />
		<tag k="place" v="farm" />
		<tag k="ssr:stedsnr" v="98787" />
	</node>
	<node id="9916220952" lat="63.4115778" lon="10.6411806" version="1" timestamp="2022-07-28T04:34:36Z" changeset="124164878" uid="3497659" user="NKA">
		<tag k="name" v="Trøa" />
		<tag k="place" v="farm" />
		<tag k="ssr:stedsnr" v="37826" />
	</node>
	<node id="9916220953" lat="63.4209056" lon="10.6230139" version="1" timestamp="2022-07-28T04:34:36Z" changeset="124164878" uid="3497659" user="NKA">
		<tag k="name" v="Østre Bjørnstad" />
		<tag k="place" v="farm" />
		<tag k="ssr:stedsnr" v="462815" />
	</node>
	<node id="9916220954" lat="63.429725" lon="10.6614251" version="1" timestamp="2022-07-28T04:34:36Z" changeset="124164878" uid="3497659" user="NKA">
		<tag k="name" v="Malvikbakk" />
		<tag k="place" v="farm" />
		<tag k="ssr:stedsnr" v="802707" />
	</node>
	<node id="9916220955" lat="63.4125737" lon="10.6359674" version="1" timestamp="2022-07-28T04:34:36Z" changeset="124164878" uid="3497659" user="NKA">
		<tag k="name" v="Østre Bostad" />
		<tag k="place" v="farm" />
		<tag k="ssr:stedsnr" v="887820" />
	</node>
	<node id="9916220956" lat="63.4321824" lon="10.6331839" version="1" timestamp="2022-07-28T04:34:36Z" changeset="124164878" uid="3497659" user="NKA">
		<tag k="name" v="Moen" />
		<tag k="place" v="farm" />
		<tag k="ssr:stedsnr" v="887848" />
	</node>
	<node id="9916220957" lat="63.4370667" lon="10.6052362" version="1" timestamp="2022-07-28T04:34:36Z" changeset="124164878" uid="3497659" user="NKA">
		<tag k="name" v="Øvre Saksvik" />
		<tag k="place" v="farm" />
		<tag k="ssr:stedsnr" v="111357" />
	</node>
	<node id="9916220958" lat="63.4006956" lon="10.6609116" version="1" timestamp="2022-07-28T04:34:36Z" changeset="124164878" uid="3497659" user="NKA">
		<tag k="name" v="Sjøvollen" />
		<tag k="place" v="farm" />
		<tag k="ssr:stedsnr" v="158797" />
	</node>
	<node id="9916220959" lat="63.4293869" lon="10.6330535" version="1" timestamp="2022-07-28T04:34:36Z" changeset="124164878" uid="3497659" user="NKA">
		<tag k="alt_name" v="Ner Leistad;Leistad, nedre" />
		<tag k="name" v="Nedre Leistad" />
		<tag k="place" v="farm" />
		<tag k="ssr:stedsnr" v="195643" />
	</node>
	<node id="9916220960" lat="63.4142325" lon="10.6308724" version="1" timestamp="2022-07-28T04:34:36Z" changeset="124164878" uid="3497659" user="NKA">
		<tag k="name" v="Kvegjardet" />
		<tag k="place" v="farm" />
		<tag k="ssr:stedsnr" v="195616" />
	</node>
	<node id="9916220961" lat="63.4285528" lon="10.6282333" version="1" timestamp="2022-07-28T04:34:36Z" changeset="124164878" uid="3497659" user="NKA">
		<tag k="name" v="Leistadmoen" />
		<tag k="place" v="farm" />
		<tag k="ssr:stedsnr" v="765810" />
	</node>
	<node id="9916220962" lat="63.3818611" lon="10.632086" version="1" timestamp="2022-07-28T04:34:36Z" changeset="124164878" uid="3497659" user="NKA">
		<tag k="name" v="Moarommet" />
		<tag k="place" v="hamlet" />
		<tag k="ssr:stedsnr" v="37503" />
	</node>
	<node id="9916220963" lat="63.3819305" lon="10.6242444" version="1" timestamp="2022-07-28T04:34:36Z" changeset="124164878" uid="3497659" user="NKA">
		<tag k="name" v="Vasselmoen" />
		<tag k="place" v="farm" />
		<tag k="ssr:stedsnr" v="13564" />
	</node>
	<node id="9916220964" lat="63.4344583" lon="10.7018305" version="1" timestamp="2022-07-28T04:34:36Z" changeset="124164878" uid="3497659" user="NKA">
		<tag k="name" v="Skansen" />
		<tag k="place" v="farm" />
		<tag k="ssr:stedsnr" v="741742" />
	</node>
	<node id="25941573" lat="63.4033451" lon="10.8053759" version="5" timestamp="2017-09-09T13:39:42Z" changeset="51880339" uid="3497659" user="NKA" />
	<node id="8597767376" lat="63.4033741" lon="10.806038" version="2" timestamp="2022-01-24T21:00:15Z" changeset="116559033" uid="3497659" user="NKA" />
	<node id="9445777757" lat="63.4034029" lon="10.8065692" version="1" timestamp="2022-01-24T21:00:15Z" changeset="116559033" uid="3497659" user="NKA" />
	<node id="502231032" lat="63.4035915" lon="10.8087569" version="1" timestamp="2009-09-19T18:44:29Z" changeset="2536964" uid="114230" user="danerikk" />
	<node id="502231046" lat="63.4034361" lon="10.8070736" version="2" timestamp="2015-02-14T13:26:07Z" changeset="28841023" uid="366321" user="Peter Bremer" />
	<node id="8597767377" lat="63.4036779" lon="10.8094954" version="1" timestamp="2021-04-06T06:42:00Z" changeset="102376783" uid="3497659" user="NKA" />
	<node id="8597767378" lat="63.4035014" lon="10.8078834" version="2" timestamp="2022-01-24T21:00:15Z" changeset="116559033" uid="3497659" user="NKA" />
	<node id="9445777755" lat="63.4035446" lon="10.8082938" version="1" timestamp="2022-01-24T21:00:15Z" changeset="116559033" uid="3497659" user="NKA" />
	<node id="9445777756" lat="63.4034678" lon="10.8074623" version="1" timestamp="2022-01-24T21:00:15Z" changeset="116559033" uid="3497659" user="NKA" />
	<node id="8601566967" lat="63.4138524" lon="10.8052376" version="2" timestamp="2022-01-24T21:00:15Z" changeset="116559033" uid="3497659" user="NKA" />
	<node id="8601567020" lat="63.4134718" lon="10.8039375" version="2" timestamp="2022-01-24T21:00:15Z" changeset="116559033" uid="3497659" user="NKA" />
	<way id="4297423" version="9" timestamp="2022-01-24T21:00:15Z" changeset="116559033" uid="3497659" user="NKA">
		<tag k="bridge" v="yes" />
		<tag k="bridge:structure" v="beam" />
		<tag k="highway" v="trunk" />
		<tag k="layer" v="1" />
		<tag k="maxspeed" v="80" />
		<tag k="motorroad" v="yes" />
		<tag k="name" v="Hommelvikbrua" />
		<tag k="ref" v="E 6" />
		<tag k="ssr:stedsnr" v="149569" />
		<nd ref="8597767377" />
		<nd ref="502231032" />
		<nd ref="9445777755" />
		<nd ref="8597767378" />
		<nd ref="9445777756" />
		<nd ref="502231046" />
		<nd ref="9445777757" />
		<nd ref="8597767376" />
		<nd ref="25941573" />
	</way>
	<way id="4297426" version="9" timestamp="2022-01-24T21:00:15Z" changeset="116559033" uid="3497659" user="NKA">
		<tag k="bridge" v="yes" />
		<tag k="bridge:structure" v="truss" />
		<tag k="highway" v="primary" />
		<tag k="layer" v="1" />
		<tag k="maxspeed" v="50" />
		<tag k="name" v="Homla bru" />
		<tag k="ref" v="950" />
		<tag k="ssr:stedsnr" v="635554" />
		<tag k="surface" v="asphalt" />
		<nd ref="8601567020" />
		<nd ref="8601566967" />
	</way>
</osm>
