<?xml version="1.0" encoding="UTF-8"?>
<osm generator="osmapis" version="0.6">
	<node id="-69691" lat="60.6424611145" lon="12.5110249945">
		<tag k="historic" v="boundary_stone" />
		<tag k="man_made" v="cairn" />
		<tag k="name" v="Elgklintsrøysa" />
		<tag k="old_name" v="Adlerklindt Røset" />
		<tag k="place" v="locality" />
		<tag k="ssr:stedsnr" v="49686" />
	</node>
	<node id="-70551" lat="60.733886115" lon="12.3953500019">
		<tag k="historic" v="boundary_stone" />
		<tag k="man_made" v="cairn" />
		<tag k="name" v="Kroksjørøysa" />
		<tag k="old_name" v="Krogsiøe Røset" />
		<tag k="place" v="locality" />
		<tag k="ssr:stedsnr" v="534254" />
	</node>
	<node id="-70708" lat="60.7584444469" lon="12.3819500012">
		<tag k="historic" v="boundary_stone" />
		<tag k="man_made" v="cairn" />
		<tag k="name" v="Posåsrøysa" />
		<tag k="old_name" v="Paasaas Røset" />
		<tag k="place" v="locality" />
		<tag k="ssr:stedsnr" v="595231" />
	</node>
	<node id="-70159" lat="60.6852138875" lon="12.46104166">
		<tag k="historic" v="boundary_stone" />
		<tag k="man_made" v="cairn" />
		<tag k="name" v="Midtskogskilderøysa" />
		<tag k="old_name" v="Midskogskilde Røset" />
		<tag k="place" v="locality" />
		<tag k="ssr:stedsnr" v="231696" />
	</node>
	<node id="-70158" lat="60.7905777751" lon="12.3645472191">
		<tag k="historic" v="boundary_stone" />
		<tag k="man_made" v="cairn" />
		<tag k="name" v="Elggravsrøysa" />
		<tag k="old_name" v="Elggrop Røset" />
		<tag k="place" v="locality" />
		<tag k="ssr:stedsnr" v="231293" />
	</node>
	<node id="-70157" lat="60.8178944404" lon="12.3494416735">
		<tag k="historic" v="boundary_stone" />
		<tag k="man_made" v="cairn" />
		<tag k="name" v="Juvbergsrøysa" />
		<tag k="old_name" v="Diupbergs Røset" />
		<tag k="place" v="locality" />
		<tag k="ssr:stedsnr" v="231286" />
	</node>
	<node id="-71340" lat="60.7087055547" lon="12.4292194402">
		<tag k="historic" v="boundary_stone" />
		<tag k="man_made" v="cairn" />
		<tag k="name" v="Høklingdalsrøysa" />
		<tag k="old_name" v="Høklingdals Røset" />
		<tag k="place" v="locality" />
		<tag k="ssr:stedsnr" v="839652" />
	</node>
	<node id="-69578" lat="60.7730845211" lon="12.2002120692">
		<tag k="fixme" v="consider boundary=protected_area and relevant protect_class if not nature reserve" />
		<tag k="leisure" v="nature_reserve" />
		<tag k="name" v="Rogberget naturreservat" />
		<tag k="ssr:stedsnr" v="988999" />
	</node>
	<node id="-71657" lat="60.8236346423" lon="12.215194351">
		<tag k="fixme" v="consider boundary=protected_area and relevant protect_class if not nature reserve" />
		<tag k="leisure" v="nature_reserve" />
		<tag k="name" v="Lindberget naturreservat" />
		<tag k="ssr:stedsnr" v="976252" />
	</node>
	<node id="-69352" lat="60.6783555531" lon="12.1699999955">
		<tag k="fixme" v="specify shooting=range, clay_pigeon etc" />
		<tag k="leisure" v="pitch" />
		<tag k="name" v="Kilen skytebane" />
		<tag k="sport" v="shooting" />
		<tag k="ssr:stedsnr" v="343081" />
	</node>
	<node id="-69575" lat="60.7198797784" lon="11.9666187715">
		<tag k="fixme" v="consider boundary=protected_area and relevant protect_class if not nature reserve" />
		<tag k="leisure" v="nature_reserve" />
		<tag k="name" v="Sigridbrenna naturreservat" />
		<tag k="ssr:stedsnr" v="1072104" />
	</node>
	<node id="-71654" lat="60.7748038635" lon="12.1774363826">
		<tag k="fixme" v="consider boundary=protected_area and relevant protect_class if not nature reserve" />
		<tag k="leisure" v="nature_reserve" />
		<tag k="name" v="Slåttbråtåmyra naturreservat" />
		<tag k="ssr:stedsnr" v="971436" />
	</node>
	<node id="-70029" lat="60.6688944465" lon="12.2643722228">
		<tag k="historic" v="boundary_stone" />
		<tag k="man_made" v="cairn" />
		<tag k="name" v="Rogstadstanderhol" />
		<tag k="place" v="locality" />
		<tag k="ssr:stedsnr" v="179119" />
	</node>
	<node id="-71012" lat="60.6677750041" lon="12.4816388838">
		<tag k="historic" v="boundary_stone" />
		<tag k="man_made" v="cairn" />
		<tag k="name" v="Midtskogbergsrøysa" />
		<tag k="old_name" v="Midskogsbergs Røset" />
		<tag k="place" v="locality" />
		<tag k="ssr:stedsnr" v="717650" />
	</node>
	<node id="-69574" lat="60.7480051575" lon="12.142838844">
		<tag k="fixme" v="consider boundary=protected_area and relevant protect_class if not nature reserve" />
		<tag k="leisure" v="nature_reserve" />
		<tag k="name" v="Brenninga naturreservat" />
		<tag k="ssr:stedsnr" v="1072103" />
	</node>
	<node id="-71655" lat="60.8151037105" lon="12.3344092209">
		<tag k="fixme" v="consider boundary=protected_area and relevant protect_class if not nature reserve" />
		<tag k="leisure" v="nature_reserve" />
		<tag k="name" v="Juvberget naturreservat" />
		<tag k="ssr:stedsnr" v="971437" />
	</node>
</osm>
