<?xml version="1.0" encoding="UTF-8"?>
<osm generator="osmapis" version="0.6">
	<node id="-509855" lat="60.8816104596" lon="6.30047518531">
		<tag k="name" v="Vestlandet" />
		<tag k="ssr:date" v="2019-01-06" />
		<tag k="ssr:gruppe" v="administrativeIndelinger" />
		<tag k="ssr:hovedgruppe" v="offentligAdministrasjon" />
		<tag k="ssr:stedsnr" v="974777" />
		<tag k="ssr:type" v="annenAdministrativInndeling" />
	</node>
	<node id="-509040" lat="61.0696077724" lon="5.39963052081">
		<tag k="name" v="Bækneset" />
		<tag k="old_name" v="Bekksneset" />
		<tag k="ssr:date" v="2019-08-26" />
		<tag k="ssr:gruppe" v="navigasjon" />
		<tag k="ssr:hovedgruppe" v="infrastruktur" />
		<tag k="ssr:stedsnr" v="676582" />
		<tag k="ssr:type" v="lanterne" />
	</node>
	<node id="-508650" lat="61.1039611145" lon="5.65798610721">
		<tag k="alt_name" v="Massneset lanterne" />
		<tag k="name" v="Massneset" />
		<tag k="ssr:date" v="2016-05-10" />
		<tag k="ssr:gruppe" v="navigasjon" />
		<tag k="ssr:hovedgruppe" v="infrastruktur" />
		<tag k="ssr:stedsnr" v="555177" />
		<tag k="ssr:type" v="lanterne" />
	</node>
	<node id="-507129" lat="61.1729833333" lon="6.01824723084">
		<tag k="alt_name" v="Høyanger" />
		<tag k="name" v="Høyanger lykt" />
		<tag k="ssr:date" v="2016-05-10" />
		<tag k="ssr:gruppe" v="navigasjon" />
		<tag k="ssr:hovedgruppe" v="infrastruktur" />
		<tag k="ssr:stedsnr" v="313479" />
		<tag k="ssr:type" v="fyrlykt" />
	</node>
	<node id="-507219" lat="61.2228198829" lon="6.08724346159">
		<tag k="name" v="Olderdalen" />
		<tag k="ssr:date" v="2019-05-31" />
		<tag k="ssr:gruppe" v="veg" />
		<tag k="ssr:hovedgruppe" v="infrastruktur" />
		<tag k="ssr:stedsnr" v="1051947" />
		<tag k="ssr:type" v="adressenavn" />
	</node>
	<node id="-507314" lat="61.2132071788" lon="5.71060361684">
		<tag k="name" v="Byrkjosen" />
		<tag k="ssr:date" v="2019-05-31" />
		<tag k="ssr:gruppe" v="veg" />
		<tag k="ssr:hovedgruppe" v="infrastruktur" />
		<tag k="ssr:stedsnr" v="1053278" />
		<tag k="ssr:type" v="adressenavn" />
	</node>
	<node id="-507313" lat="61.149688361" lon="6.08502959788">
		<tag k="name" v="Fletviki" />
		<tag k="ssr:date" v="2019-05-31" />
		<tag k="ssr:gruppe" v="veg" />
		<tag k="ssr:hovedgruppe" v="infrastruktur" />
		<tag k="ssr:stedsnr" v="1053337" />
		<tag k="ssr:type" v="adressenavn" />
	</node>
	<node id="-507312" lat="61.2251387583" lon="6.03552396442">
		<tag k="name" v="Bergslettene" />
		<tag k="ssr:date" v="2019-05-31" />
		<tag k="ssr:gruppe" v="veg" />
		<tag k="ssr:hovedgruppe" v="infrastruktur" />
		<tag k="ssr:stedsnr" v="1053333" />
		<tag k="ssr:type" v="adressenavn" />
	</node>
	<node id="-507311" lat="61.1656478396" lon="5.71879882006">
		<tag k="name" v="Vollen" />
		<tag k="ssr:date" v="2019-05-31" />
		<tag k="ssr:gruppe" v="veg" />
		<tag k="ssr:hovedgruppe" v="infrastruktur" />
		<tag k="ssr:stedsnr" v="1053133" />
		<tag k="ssr:type" v="adressenavn" />
	</node>
	<node id="-507466" lat="61.2078093912" lon="5.69006239934">
		<tag k="name" v="Kjeneset" />
		<tag k="ssr:date" v="2019-05-31" />
		<tag k="ssr:gruppe" v="veg" />
		<tag k="ssr:hovedgruppe" v="infrastruktur" />
		<tag k="ssr:stedsnr" v="1053317" />
		<tag k="ssr:type" v="adressenavn" />
	</node>
	<node id="-508041" lat="61.1602500005" lon="5.80202778639">
		<tag k="alt_name" v="Afsnes" />
		<tag k="name" v="Afsneset" />
		<tag k="ssr:date" v="2016-05-10" />
		<tag k="ssr:gruppe" v="navigasjon" />
		<tag k="ssr:hovedgruppe" v="infrastruktur" />
		<tag k="ssr:stedsnr" v="191132" />
		<tag k="ssr:type" v="fyrlykt" />
	</node>
	<node id="-509251" lat="61.2188277802" lon="6.07305833722">
		<tag k="alt_name" v="Høyanger" />
		<tag k="name" v="Høyanger kommune" />
		<tag k="ssr:date" v="2019-07-12" />
		<tag k="ssr:gruppe" v="administrativeIndelinger" />
		<tag k="ssr:hovedgruppe" v="offentligAdministrasjon" />
		<tag k="ssr:stedsnr" v="753632" />
		<tag k="ssr:type" v="kommune" />
	</node>
</osm>
