<?xml version="1.0" encoding="UTF-8"?>
<osm version="0.6" generator="osmapis">
	<node lat="70.17699166647358" lon="20.4101749818765" id="-42033">
		<tag k="name" v="Skjåvikneset" />
		<tag k="old_name" v="Bankekeila;Pankekeila" />
		<tag k="ssr:date" v="2021-06-08" />
		<tag k="ssr:gruppe" v="navigasjon" />
		<tag k="ssr:hovedgruppe" v="infrastruktur" />
		<tag k="ssr:stedsnr" v="19907" />
		<tag k="ssr:type" v="fyrlykt" />
	</node>
	<node lat="70.10451110830954" lon="20.749877751361343" id="-42034">
		<tag k="name" v="Søre Lauksund" />
		<tag k="old_name" v="Lauksundet, s" />
		<tag k="ssr:date" v="2019-12-27" />
		<tag k="ssr:gruppe" v="navigasjon" />
		<tag k="ssr:hovedgruppe" v="infrastruktur" />
		<tag k="ssr:stedsnr" v="20207" />
		<tag k="ssr:type" v="fyrlykt" />
	</node>
	<node lat="70.03059999539411" lon="20.405741660296734" id="-42037">
		<tag k="name" v="Finnegga" />
		<tag k="ssr:date" v="2019-12-27" />
		<tag k="ssr:gruppe" v="sjøbunn" />
		<tag k="ssr:hovedgruppe" v="sjø" />
		<tag k="ssr:stedsnr" v="25905" />
		<tag k="ssr:type" v="bakkeISjø" />
	</node>
	<node lat="70.20730277890742" lon="20.460766656490573" id="-42129">
		<tag k="name" v="Kristinaholdet" />
		<tag k="ssr:date" v="2021-06-08" />
		<tag k="ssr:gruppe" v="sjøbunn" />
		<tag k="ssr:hovedgruppe" v="sjø" />
		<tag k="ssr:stedsnr" v="144485" />
		<tag k="ssr:type" v="bakkeISjø" />
	</node>
	<node lat="70.23668852002405" lon="20.702591237708297" id="-42165">
		<tag k="name" v="Hylla" />
		<tag k="ssr:date" v="2020-11-10" />
		<tag k="ssr:gruppe" v="navigasjon" />
		<tag k="ssr:hovedgruppe" v="infrastruktur" />
		<tag k="ssr:stedsnr" v="262092" />
		<tag k="ssr:type" v="fyrlykt" />
	</node>
	<node lat="70.03400084986328" lon="20.53692630754651" id="-42182">
		<tag k="name" v="Arnøya" />
		<tag k="ssr:date" v="2021-06-08" />
		<tag k="ssr:gruppe" v="navigasjon" />
		<tag k="ssr:hovedgruppe" v="infrastruktur" />
		<tag k="ssr:stedsnr" v="201206" />
		<tag k="ssr:type" v="fyrlykt" />
	</node>
	<node lat="70.1676999979501" lon="20.93859720136308" id="-42217">
		<tag k="name" v="Hellebakken" />
		<tag k="ssr:date" v="2021-06-08" />
		<tag k="ssr:gruppe" v="sjøbunn" />
		<tag k="ssr:hovedgruppe" v="sjø" />
		<tag k="ssr:stedsnr" v="454695" />
		<tag k="ssr:type" v="bakkeISjø" />
	</node>
	<node lat="70.15422777905826" lon="20.954974975369787" id="-42238">
		<tag k="name" v="Arnebakken" />
		<tag k="ssr:date" v="2021-06-08" />
		<tag k="ssr:gruppe" v="sjøbunn" />
		<tag k="ssr:hovedgruppe" v="sjø" />
		<tag k="ssr:stedsnr" v="272626" />
		<tag k="ssr:type" v="bakkeISjø" />
	</node>
	<node lat="70.06159533382572" lon="20.99555193385887" id="-42263">
		<tag k="name" v="Skjervøya" />
		<tag k="ssr:date" v="2021-06-08" />
		<tag k="ssr:gruppe" v="navigasjon" />
		<tag k="ssr:hovedgruppe" v="infrastruktur" />
		<tag k="ssr:stedsnr" v="322226" />
		<tag k="ssr:type" v="fyrlykt" />
	</node>
	<node lat="70.03018888633034" lon="20.487480549891274" id="-42277">
		<tag k="name" v="Bjørntindegga" />
		<tag k="ssr:date" v="2021-06-08" />
		<tag k="ssr:gruppe" v="sjøbunn" />
		<tag k="ssr:hovedgruppe" v="sjø" />
		<tag k="ssr:stedsnr" v="328905" />
		<tag k="ssr:type" v="ryggISjø" />
	</node>
	<node lat="70.15313798788385" lon="20.782693441718703" id="-42348">
		<tag k="name" v="Nordre Lauksund" />
		<tag k="old_name" v="Lauksundet, nordre" />
		<tag k="ssr:date" v="2020-09-10" />
		<tag k="ssr:gruppe" v="navigasjon" />
		<tag k="ssr:hovedgruppe" v="infrastruktur" />
		<tag k="ssr:stedsnr" v="383009" />
		<tag k="ssr:type" v="fyrlykt" />
	</node>
	<node lat="70.045741664673" lon="20.40675275085831" id="-42405">
		<tag k="name" v="Revbakken" />
		<tag k="ssr:date" v="2019-12-27" />
		<tag k="ssr:gruppe" v="sjøbunn" />
		<tag k="ssr:hovedgruppe" v="sjø" />
		<tag k="ssr:stedsnr" v="450918" />
		<tag k="ssr:type" v="bakkeISjø" />
	</node>
	<node lat="70.02440555247723" lon="20.512933317038858" id="-42539">
		<tag k="name" v="Svarttindegga" />
		<tag k="ssr:date" v="2021-06-08" />
		<tag k="ssr:gruppe" v="sjøbunn" />
		<tag k="ssr:hovedgruppe" v="sjø" />
		<tag k="ssr:stedsnr" v="571908" />
		<tag k="ssr:type" v="ryggISjø" />
	</node>
	<node lat="70.26304166410576" lon="20.73600274659575" id="-42547">
		<tag k="name" v="Skjervøyråsa" />
		<tag k="ssr:date" v="2021-06-08" />
		<tag k="ssr:gruppe" v="sjøbunn" />
		<tag k="ssr:hovedgruppe" v="sjø" />
		<tag k="ssr:stedsnr" v="697267" />
		<tag k="ssr:type" v="renneKløftISjø" />
	</node>
	<node lat="70.0783944413988" lon="20.55898053142406" id="-42697">
		<tag k="name" v="Sandnesdjupta" />
		<tag k="ssr:date" v="2021-06-08" />
		<tag k="ssr:gruppe" v="sjøbunn" />
		<tag k="ssr:hovedgruppe" v="sjø" />
		<tag k="ssr:stedsnr" v="752956" />
		<tag k="ssr:type" v="søkkISjø" />
	</node>
	<node lat="70.0551361131644" lon="20.28126386448809" id="-42742">
		<tag k="name" v="Langfjordryggen" />
		<tag k="ssr:date" v="2021-06-08" />
		<tag k="ssr:gruppe" v="sjøbunn" />
		<tag k="ssr:hovedgruppe" v="sjø" />
		<tag k="ssr:stedsnr" v="814877" />
		<tag k="ssr:type" v="ryggISjø" />
	</node>
	<node lat="70.0610777744843" lon="20.282608326170752" id="-42846">
		<tag k="name" v="Busta" />
		<tag k="ssr:date" v="2021-06-08" />
		<tag k="ssr:gruppe" v="sjøbunn" />
		<tag k="ssr:hovedgruppe" v="sjø" />
		<tag k="ssr:stedsnr" v="935885" />
		<tag k="ssr:type" v="ryggISjø" />
	</node>
	<node lat="69.99120109800094" lon="20.636820267184895" id="-42904">
		<tag k="name" v="Vorterøy" />
		<tag k="ssr:date" v="2020-11-19" />
		<tag k="ssr:gruppe" v="navigasjon" />
		<tag k="ssr:hovedgruppe" v="infrastruktur" />
		<tag k="ssr:stedsnr" v="19627" />
		<tag k="ssr:type" v="fyrlykt" />
	</node>
	<node lat="70.20138888592359" lon="20.462202764416467" id="-42985">
		<tag k="name" v="Håbakken" />
		<tag k="ssr:date" v="2021-06-08" />
		<tag k="ssr:gruppe" v="sjøbunn" />
		<tag k="ssr:hovedgruppe" v="sjø" />
		<tag k="ssr:stedsnr" v="84522" />
		<tag k="ssr:type" v="bakkeISjø" />
	</node>
	<node lat="70.03290833347636" lon="20.457394424168086" id="-43053">
		<tag k="name" v="Fjellegga" />
		<tag k="ssr:date" v="2019-12-27" />
		<tag k="ssr:gruppe" v="sjøbunn" />
		<tag k="ssr:hovedgruppe" v="sjø" />
		<tag k="ssr:stedsnr" v="146900" />
		<tag k="ssr:type" v="bakkeISjø" />
	</node>
	<node lat="70.0666749980982" lon="20.548738874803966" id="-43150">
		<tag k="name" v="Holdet" />
		<tag k="ssr:date" v="2019-12-27" />
		<tag k="ssr:gruppe" v="sjøbunn" />
		<tag k="ssr:hovedgruppe" v="sjø" />
		<tag k="ssr:stedsnr" v="206958" />
		<tag k="ssr:type" v="søkkISjø" />
	</node>
	<node lat="70.03448611027845" lon="20.46905830442738" id="-43151">
		<tag k="name" v="Nesegga" />
		<tag k="ssr:date" v="2021-06-08" />
		<tag k="ssr:gruppe" v="sjøbunn" />
		<tag k="ssr:hovedgruppe" v="sjø" />
		<tag k="ssr:stedsnr" v="207901" />
		<tag k="ssr:type" v="ryggISjø" />
	</node>
	<node lat="70.03378610934983" lon="20.97365552818003" id="-43152">
		<tag k="name" v="Skjervøy kommune" />
		<tag k="ssr:date" v="2019-12-27" />
		<tag k="ssr:gruppe" v="administrativeIndelinger" />
		<tag k="ssr:hovedgruppe" v="offentligAdministrasjon" />
		<tag k="ssr:stedsnr" v="208756" />
		<tag k="ssr:type" v="kommune" />
	</node>
	<node lat="70.2187305539579" lon="20.394477763003692" id="-43251">
		<tag k="name" v="Skjeggen" />
		<tag k="ssr:date" v="2021-06-08" />
		<tag k="ssr:gruppe" v="sjøbunn" />
		<tag k="ssr:hovedgruppe" v="sjø" />
		<tag k="ssr:stedsnr" v="327423" />
		<tag k="ssr:type" v="ryggISjø" />
	</node>
	<node lat="70.07578610905834" lon="20.33666388055449" id="-43353">
		<tag k="name" v="Ryggen" />
		<tag k="ssr:date" v="2021-06-08" />
		<tag k="ssr:gruppe" v="sjøbunn" />
		<tag k="ssr:hovedgruppe" v="sjø" />
		<tag k="ssr:stedsnr" v="389865" />
		<tag k="ssr:type" v="ryggISjø" />
	</node>
	<node lat="70.1457138930858" lon="20.378536102802236" id="-43422">
		<tag k="name" v="Eggemeda" />
		<tag k="ssr:date" v="2021-06-08" />
		<tag k="ssr:gruppe" v="farvann" />
		<tag k="ssr:hovedgruppe" v="sjø" />
		<tag k="ssr:stedsnr" v="444894" />
		<tag k="ssr:type" v="fiskeplassISjø" />
	</node>
	<node lat="70.00975555468631" lon="20.527169417631228" id="-43544">
		<tag k="name" v="Sandnesegga" />
		<tag k="ssr:date" v="2019-12-27" />
		<tag k="ssr:gruppe" v="sjøbunn" />
		<tag k="ssr:hovedgruppe" v="sjø" />
		<tag k="ssr:stedsnr" v="570746" />
		<tag k="ssr:type" v="ryggISjø" />
	</node>
	<node lat="70.06940555693849" lon="20.328374975126586" id="-43550">
		<tag k="name" v="Skyttaren" />
		<tag k="ssr:date" v="2021-06-08" />
		<tag k="ssr:gruppe" v="sjøbunn" />
		<tag k="ssr:hovedgruppe" v="sjø" />
		<tag k="ssr:stedsnr" v="571872" />
		<tag k="ssr:type" v="bakkeISjø" />
	</node>
	<node lat="70.05182516056139" lon="20.79186204845296" id="-43731">
		<tag k="name" v="Kågsund" />
		<tag k="old_name" v="Kågsundet" />
		<tag k="ssr:date" v="2020-09-17" />
		<tag k="ssr:gruppe" v="navigasjon" />
		<tag k="ssr:hovedgruppe" v="infrastruktur" />
		<tag k="ssr:stedsnr" v="747225" />
		<tag k="ssr:type" v="fyrlykt" />
	</node>
	<node lat="70.1890222208726" lon="20.409941657566335" id="-43747">
		<tag k="name" v="Sør-Juksen" />
		<tag k="ssr:date" v="2021-06-08" />
		<tag k="ssr:gruppe" v="sjøbunn" />
		<tag k="ssr:hovedgruppe" v="sjø" />
		<tag k="ssr:stedsnr" v="751459" />
		<tag k="ssr:type" v="søkkISjø" />
	</node>
	<node lat="69.99919101074158" lon="21.067819362307795" id="-43842">
		<tag k="name" v="Taskebyneset" />
		<tag k="old_name" v="Taskebynesgrunnen" />
		<tag k="ssr:date" v="2020-11-26" />
		<tag k="ssr:gruppe" v="navigasjon" />
		<tag k="ssr:hovedgruppe" v="infrastruktur" />
		<tag k="ssr:stedsnr" v="808901" />
		<tag k="ssr:type" v="fyrlykt" />
	</node>
	<node lat="69.99385833210009" lon="20.517941656636232" id="-43936">
		<tag k="name" v="Haugnesryggen" />
		<tag k="ssr:date" v="2019-12-27" />
		<tag k="ssr:gruppe" v="sjøbunn" />
		<tag k="ssr:hovedgruppe" v="sjø" />
		<tag k="ssr:stedsnr" v="935758" />
		<tag k="ssr:type" v="bakkeISjø" />
	</node>
	<node lat="70.13511104839444" lon="20.38728458082459" id="-43982">
		<tag k="name" v="Sør-Rekvika" />
		<tag k="ssr:date" v="2019-12-27" />
		<tag k="ssr:gruppe" v="veg" />
		<tag k="ssr:hovedgruppe" v="infrastruktur" />
		<tag k="ssr:stedsnr" v="1011636" />
		<tag k="ssr:type" v="adressenavn" />
	</node>
	<node lat="70.0459901650097" lon="20.466607019491423" id="-43983">
		<tag k="name" v="Lillevika" />
		<tag k="ssr:date" v="2019-12-27" />
		<tag k="ssr:gruppe" v="veg" />
		<tag k="ssr:hovedgruppe" v="infrastruktur" />
		<tag k="ssr:stedsnr" v="1011637" />
		<tag k="ssr:type" v="adressenavn" />
	</node>
	<node lat="69.97458494004681" lon="20.941866898965632" id="-43984">
		<tag k="name" v="Skognesveien" />
		<tag k="ssr:date" v="2019-12-27" />
		<tag k="ssr:gruppe" v="veg" />
		<tag k="ssr:hovedgruppe" v="infrastruktur" />
		<tag k="ssr:stedsnr" v="1011649" />
		<tag k="ssr:type" v="adressenavn" />
	</node>
	<node lat="70.22888279695461" lon="20.63790247228114" id="-43985">
		<tag k="name" v="Nord-Rekvika" />
		<tag k="ssr:date" v="2019-12-27" />
		<tag k="ssr:gruppe" v="veg" />
		<tag k="ssr:hovedgruppe" v="infrastruktur" />
		<tag k="ssr:stedsnr" v="1011617" />
		<tag k="ssr:type" v="adressenavn" />
	</node>
	<node lat="70.13415904330253" lon="20.544817086820178" id="-43986">
		<tag k="name" v="Langfjorddalen" />
		<tag k="ssr:date" v="2019-12-27" />
		<tag k="ssr:gruppe" v="veg" />
		<tag k="ssr:hovedgruppe" v="infrastruktur" />
		<tag k="ssr:stedsnr" v="1011618" />
		<tag k="ssr:type" v="adressenavn" />
	</node>
	<node lat="70.01250093545545" lon="20.973843944725047" id="-43987">
		<tag k="name" v="Langørstien" />
		<tag k="ssr:date" v="2019-12-27" />
		<tag k="ssr:gruppe" v="veg" />
		<tag k="ssr:hovedgruppe" v="infrastruktur" />
		<tag k="ssr:stedsnr" v="1011622" />
		<tag k="ssr:type" v="adressenavn" />
	</node>
	<node lat="70.0407414682981" lon="20.99599738614188" id="-43988">
		<tag k="name" v="Engnesveien" />
		<tag k="ssr:date" v="2019-12-27" />
		<tag k="ssr:gruppe" v="veg" />
		<tag k="ssr:hovedgruppe" v="infrastruktur" />
		<tag k="ssr:stedsnr" v="1011624" />
		<tag k="ssr:type" v="adressenavn" />
	</node>
	<node lat="70.04409205515849" lon="20.971894062095313" id="-43989">
		<tag k="name" v="Isakeidveien" />
		<tag k="ssr:date" v="2019-12-27" />
		<tag k="ssr:gruppe" v="veg" />
		<tag k="ssr:hovedgruppe" v="infrastruktur" />
		<tag k="ssr:stedsnr" v="1011625" />
		<tag k="ssr:type" v="adressenavn" />
	</node>
	<node lat="69.99587952785143" lon="21.02269976976394" id="-43990">
		<tag k="name" v="Taskebyneset" />
		<tag k="ssr:date" v="2019-12-27" />
		<tag k="ssr:gruppe" v="veg" />
		<tag k="ssr:hovedgruppe" v="infrastruktur" />
		<tag k="ssr:stedsnr" v="1011627" />
		<tag k="ssr:type" v="adressenavn" />
	</node>
	<node lat="69.97750186063905" lon="20.63373747322057" id="-43991">
		<tag k="name" v="Trondalen" />
		<tag k="ssr:date" v="2019-12-27" />
		<tag k="ssr:gruppe" v="veg" />
		<tag k="ssr:hovedgruppe" v="infrastruktur" />
		<tag k="ssr:stedsnr" v="1011633" />
		<tag k="ssr:type" v="adressenavn" />
	</node>
	<node lat="69.95361391202921" lon="20.678027285682667" id="-43992">
		<tag k="name" v="Trollvasstien" />
		<tag k="ssr:date" v="2019-12-27" />
		<tag k="ssr:gruppe" v="veg" />
		<tag k="ssr:hovedgruppe" v="infrastruktur" />
		<tag k="ssr:stedsnr" v="1011634" />
		<tag k="ssr:type" v="adressenavn" />
	</node>
	<node lat="70.04905321403179" lon="20.436530500160526" id="-43993">
		<tag k="name" v="Geitvika" />
		<tag k="ssr:date" v="2019-12-27" />
		<tag k="ssr:gruppe" v="veg" />
		<tag k="ssr:hovedgruppe" v="infrastruktur" />
		<tag k="ssr:stedsnr" v="1011635" />
		<tag k="ssr:type" v="adressenavn" />
	</node>
	<node lat="69.9111211274768" lon="20.71348577328745" id="-43994">
		<tag k="name" v="Nord-Uløya" />
		<tag k="ssr:date" v="2019-12-27" />
		<tag k="ssr:gruppe" v="veg" />
		<tag k="ssr:hovedgruppe" v="infrastruktur" />
		<tag k="ssr:stedsnr" v="1011655" />
		<tag k="ssr:type" v="adressenavn" />
	</node>
	<node lat="70.08225403199775" lon="29.73028468656217" id="-43995">
		<tag k="fixme" v="multiple name tags, choose one and add the other to alt_name" />
		<tag k="name" v="Troms og Finnmark;Troms og Finnmark fylke - Romssa ja Finnmárkku fylka - Tromssan ja Finmarkun fylkki" />
		<tag k="name:fkv" v="Tromssan ja Finmarkun fylkki" />
		<tag k="name:no" v="Troms og Finnmark;Troms og Finnmark fylke" />
		<tag k="name:se" v="Romssa ja Finnmárkku fylka" />
		<tag k="ssr:date" v="2021-06-08" />
		<tag k="ssr:gruppe" v="administrativeIndelinger" />
		<tag k="ssr:hovedgruppe" v="offentligAdministrasjon" />
		<tag k="ssr:stedsnr" v="1073694" />
		<tag k="ssr:type" v="fylke" />
	</node>
	<node lat="69.91453169548912" lon="20.68445688851335" id="-43996">
		<tag k="name" v="Follesøya" />
		<tag k="ssr:date" v="2019-12-27" />
		<tag k="ssr:gruppe" v="veg" />
		<tag k="ssr:hovedgruppe" v="infrastruktur" />
		<tag k="ssr:stedsnr" v="1073785" />
		<tag k="ssr:type" v="adressenavn" />
	</node>
	<node lat="70.00808512109704" lon="20.923152177751092" id="-43997">
		<tag k="name" v="Sandøra" />
		<tag k="ssr:date" v="2019-12-27" />
		<tag k="ssr:gruppe" v="veg" />
		<tag k="ssr:hovedgruppe" v="infrastruktur" />
		<tag k="ssr:stedsnr" v="1073784" />
		<tag k="ssr:type" v="adressenavn" />
	</node>
	<node lat="69.9838175764316" lon="21.03088314064975" id="-43998">
		<tag k="name" v="Seterneset" />
		<tag k="ssr:date" v="2019-12-27" />
		<tag k="ssr:gruppe" v="veg" />
		<tag k="ssr:hovedgruppe" v="infrastruktur" />
		<tag k="ssr:stedsnr" v="1073786" />
		<tag k="ssr:type" v="adressenavn" />
	</node>
	<node lat="70.03109401889631" lon="21.21907114003076" id="-43999">
		<tag k="name" v="Haukøya" />
		<tag k="ssr:date" v="2019-12-27" />
		<tag k="ssr:gruppe" v="veg" />
		<tag k="ssr:hovedgruppe" v="infrastruktur" />
		<tag k="ssr:stedsnr" v="1073788" />
		<tag k="ssr:type" v="adressenavn" />
	</node>
	<node lat="70.00886148980392" lon="20.921741797858907" id="-44000">
		<tag k="name" v="Skattørstien" />
		<tag k="ssr:date" v="2019-12-27" />
		<tag k="ssr:gruppe" v="veg" />
		<tag k="ssr:hovedgruppe" v="infrastruktur" />
		<tag k="ssr:stedsnr" v="1073787" />
		<tag k="ssr:type" v="adressenavn" />
	</node>
</osm>
